{
  "data": {
    "distrito": "Vila Real",
    "concelho": "Peso da Régua",
    "freguesia": "União das freguesias de Poiares e Canelas",
    "OBJECTID": 423,
    "BGRI2021": "17081600211",
    "DT21": "17",
    "DTMN21": "1708",
    "DTMNFR21": "170816",
    "DTMNFRSEC21": "170816002",
    "SECNUM21": "002",
    "SSNUM21": "11",
    "SECSSNUM21": "00211",
    "OBJECTID_1": 184430,
    "DT": "17",
    "CC": "08",
    "fr": "16",
    "SEC": "002",
    "SS": "11"
  },
  "addresses": [
    {
      "id": "pt.ine.add.PTCONT.5308264",
      "street": "R CEARA",
      "house": "637",
      "postcode": "5050-342",
      "city": "POIARES PRG",
      "lon": "-7.733762171983616",
      "lat": "41.19280488141957"
    },
    {
      "id": "pt.ine.add.PTCONT.5314621",
      "street": "R ALÉM DA FONTE",
      "house": "599",
      "postcode": "5050-342",
      "city": "POIARES PRG",
      "lon": "-7.733549087508506",
      "lat": "41.192561026145576"
    },
    {
      "id": "pt.ine.add.PTCONT.5320675",
      "street": "R FLORES",
      "house": "",
      "postcode": "5050-342",
      "city": "POIARES PRG",
      "lon": "-7.734461364025945",
      "lat": "41.193482626493136"
    },
    {
      "id": "pt.ine.add.PTCONT.5326087",
      "street": "R FLORES",
      "house": "725",
      "postcode": "5050-345",
      "city": "POIARES PRG",
      "lon": "-7.7345923232000215",
      "lat": "41.193510092630355"
    },
    {
      "id": "pt.ine.add.PTCONT.5326968",
      "street": "R ALÉM DA FONTE",
      "house": "",
      "postcode": "5050-342",
      "city": "POIARES PRG",
      "lon": "-7.733039428374828",
      "lat": "41.192082028702345"
    },
    {
      "id": "pt.ine.add.PTCONT.5326969",
      "street": "R CEARA",
      "house": "647",
      "postcode": "5050-342",
      "city": "POIARES PRG",
      "lon": "-7.733940700735137",
      "lat": "41.19285052184324"
    },
    {
      "id": "pt.ine.add.PTCONT.5331524",
      "street": "R FLORES",
      "house": "725",
      "postcode": "5050-345",
      "city": "POIARES PRG",
      "lon": "-7.734388968251469",
      "lat": "41.193626444727585"
    },
    {
      "id": "pt.ine.add.PTCONT.5366774",
      "street": "R ENTRE-RIBEIRINHOS",
      "house": "871",
      "postcode": "5050-342",
      "city": "POIARES PRG",
      "lon": "-7.733942064782575",
      "lat": "41.19458835698833"
    },
    {
      "id": "pt.ine.add.PTCONT.5375287",
      "street": "R CEARA",
      "house": "675",
      "postcode": "5050-342",
      "city": "POIARES PRG",
      "lon": "-7.734213661890549",
      "lat": "41.193049562265585"
    },
    {
      "id": "pt.ine.add.PTCONT.5399948",
      "street": "R ALÉM DA FONTE",
      "house": "",
      "postcode": "5050-342",
      "city": "POIARES PRG",
      "lon": "-7.733679168787212",
      "lat": "41.19273255914623"
    },
    {
      "id": "pt.ine.add.PTCONT.5410627",
      "street": "R CEARA",
      "house": "693",
      "postcode": "5050-342",
      "city": "POIARES PRG",
      "lon": "-7.734271787325815",
      "lat": "41.19329287976778"
    }
  ]
}