{
  "data": {
    "distrito": "Viseu",
    "concelho": "Viseu",
    "freguesia": "Bodiosa",
    "OBJECTID": 1385,
    "BGRI2021": "18230400203",
    "DT21": "18",
    "DTMN21": "1823",
    "DTMNFR21": "182304",
    "DTMNFRSEC21": "182304002",
    "SECNUM21": "002",
    "SSNUM21": "03",
    "SECSSNUM21": "00203",
    "OBJECTID_1": 200953,
    "DT": "18",
    "CC": "23",
    "fr": "04",
    "SEC": "002",
    "SS": "03"
  },
  "addresses": [
    {
      "id": "pt.ine.add.PTCONT.5437134",
      "street": "EM 1303",
      "house": "185",
      "postcode": "3515-512",
      "city": "BODIOSA",
      "lon": "-7.997654180182988",
      "lat": "40.71739301095619"
    },
    {
      "id": "pt.ine.add.PTCONT.5441651",
      "street": "R CAVADINHA",
      "house": "26",
      "postcode": "3515-570",
      "city": "BODIOSA",
      "lon": "-7.999617437471518",
      "lat": "40.712163347134705"
    },
    {
      "id": "pt.ine.add.PTCONT.5453419",
      "street": "R CAVADINHA",
      "house": "6",
      "postcode": "3515-570",
      "city": "BODIOSA",
      "lon": "-8.000292438132023",
      "lat": "40.71193899862993"
    },
    {
      "id": "pt.ine.add.PTCONT.5455575",
      "street": "R SEPARADORA",
      "house": "1",
      "postcode": "3515-512",
      "city": "BODIOSA",
      "lon": "-7.998767846957014",
      "lat": "40.71681798755433"
    },
    {
      "id": "pt.ine.add.PTCONT.5468674",
      "street": "R CARVALHAL",
      "house": "28",
      "postcode": "3515-576",
      "city": "BODIOSA",
      "lon": "-7.999914299063123",
      "lat": "40.711659405365026"
    },
    {
      "id": "pt.ine.add.PTCONT.5472298",
      "street": "TV CAVADINHA",
      "house": "12",
      "postcode": "3515-570",
      "city": "BODIOSA",
      "lon": "-8.000338862814024",
      "lat": "40.712398311265545"
    },
    {
      "id": "pt.ine.add.PTCONT.5479669",
      "street": "R CHÃO DO NABAL",
      "house": "6",
      "postcode": "3515-571",
      "city": "BODIOSA",
      "lon": "-7.995247639740394",
      "lat": "40.71359001931665"
    },
    {
      "id": "pt.ine.add.PTCONT.5480431",
      "street": "R CASAS",
      "house": "1",
      "postcode": "3515-578",
      "city": "BODIOSA",
      "lon": "-7.995095427283074",
      "lat": "40.71279739030367"
    },
    {
      "id": "pt.ine.add.PTCONT.5480432",
      "street": "R CARVALHAL",
      "house": "20",
      "postcode": "3515-576",
      "city": "BODIOSA",
      "lon": "-7.9986121226076",
      "lat": "40.71186501250157"
    },
    {
      "id": "pt.ine.add.PTCONT.5483290",
      "street": "R CHÃO DO NABAL",
      "house": "7",
      "postcode": "3515-571",
      "city": "BODIOSA",
      "lon": "-7.995152926414087",
      "lat": "40.71360791632936"
    },
    {
      "id": "pt.ine.add.PTCONT.5484206",
      "street": "AV S JOÃO",
      "house": "54",
      "postcode": "3515-590",
      "city": "BODIOSA",
      "lon": "-7.995036664627432",
      "lat": "40.71259920823449"
    },
    {
      "id": "pt.ine.add.PTCONT.5486175",
      "street": "R CARREGAL",
      "house": "45",
      "postcode": "3515-829",
      "city": "BODIOSA",
      "lon": "-7.996093079339783",
      "lat": "40.71683285394626"
    },
    {
      "id": "pt.ine.add.PTCONT.5513913",
      "street": "R CERCA",
      "house": "9",
      "postcode": "3515-590",
      "city": "BODIOSA",
      "lon": "-7.994889978426822",
      "lat": "40.7148593078383"
    },
    {
      "id": "pt.ine.add.PTCONT.5513977",
      "street": "EM 1303",
      "house": "201",
      "postcode": "3515-512",
      "city": "BODIOSA",
      "lon": "-7.999644992573786",
      "lat": "40.71614362428783"
    },
    {
      "id": "pt.ine.add.PTCONT.5524655",
      "street": "R CASAS",
      "house": "",
      "postcode": "3515-578",
      "city": "BODIOSA",
      "lon": "-7.99534290984502",
      "lat": "40.713301970468834"
    },
    {
      "id": "pt.ine.add.PTCONT.5527639",
      "street": "R CHÃO DO NABAL",
      "house": "",
      "postcode": "3515-571",
      "city": "BODIOSA",
      "lon": "-7.995034785819461",
      "lat": "40.71350871919941"
    },
    {
      "id": "pt.ine.add.PTCONT.5541419",
      "street": "R CASAS",
      "house": "",
      "postcode": "3515-578",
      "city": "BODIOSA",
      "lon": "-7.99531877680538",
      "lat": "40.7135270686849"
    },
    {
      "id": "pt.ine.add.PTCONT.5566109",
      "street": "R LAGES",
      "house": "3",
      "postcode": "3515-580",
      "city": "BODIOSA",
      "lon": "-7.9986590790926275",
      "lat": "40.712054173947486"
    },
    {
      "id": "pt.ine.add.PTCONT.5575199",
      "street": "AV S JOÃO",
      "house": "32",
      "postcode": "3515-590",
      "city": "BODIOSA",
      "lon": "-7.994430758994878",
      "lat": "40.713733122169266"
    },
    {
      "id": "pt.ine.add.PTCONT.5584460",
      "street": "AV S JOÃO",
      "house": "",
      "postcode": "3515-590",
      "city": "BODIOSA",
      "lon": "-7.994644601615496",
      "lat": "40.71333715531814"
    },
    {
      "id": "pt.ine.add.PTCONT.5594213",
      "street": "R MUNICIPAL 1303",
      "house": "199",
      "postcode": "3515-512",
      "city": "BODIOSA",
      "lon": "-7.999466999788885",
      "lat": "40.7163775503541"
    },
    {
      "id": "pt.ine.add.PTCONT.5603845",
      "street": "R SEPARADORA",
      "house": "",
      "postcode": "3515-512",
      "city": "BODIOSA",
      "lon": "-7.999111895182456",
      "lat": "40.71640415393424"
    },
    {
      "id": "pt.ine.add.PTCONT.5618987",
      "street": "EM 1303",
      "house": "195",
      "postcode": "3515-512",
      "city": "BODIOSA",
      "lon": "-7.998436409931484",
      "lat": "40.71684461659424"
    },
    {
      "id": "pt.ine.add.PTCONT.5627765",
      "street": "R CARVALHAL",
      "house": "19",
      "postcode": "3515-576",
      "city": "BODIOSA",
      "lon": "-7.998139444955162",
      "lat": "40.71152226765263"
    },
    {
      "id": "pt.ine.add.PTCONT.5629203",
      "street": "R CARVALHAL",
      "house": "40",
      "postcode": "3515-576",
      "city": "BODIOSA",
      "lon": "-8.000589365049638",
      "lat": "40.71139903484059"
    },
    {
      "id": "pt.ine.add.PTCONT.5638780",
      "street": "AV S JOÃO",
      "house": "48",
      "postcode": "3515-590",
      "city": "BODIOSA",
      "lon": "-7.994952781892515",
      "lat": "40.71310339244678"
    },
    {
      "id": "pt.ine.add.PTCONT.5639999",
      "street": "R QUINTA DO CRUZEIRO",
      "house": "",
      "postcode": "3515-535",
      "city": "BODIOSA",
      "lon": "-7.99358435924092",
      "lat": "40.71667676274185"
    },
    {
      "id": "pt.ine.add.PTCONT.5649356",
      "street": "R CERCA",
      "house": "",
      "postcode": "3515-590",
      "city": "BODIOSA",
      "lon": "-7.994558624273006",
      "lat": "40.71484990554248"
    },
    {
      "id": "pt.ine.add.PTCONT.5654424",
      "street": "AV S JOÃO",
      "house": "30",
      "postcode": "3515-590",
      "city": "BODIOSA",
      "lon": "-7.9942528479660355",
      "lat": "40.71392201498774"
    },
    {
      "id": "pt.ine.add.PTCONT.5661088",
      "street": "AV S JOÃO",
      "house": "",
      "postcode": "3515-590",
      "city": "BODIOSA",
      "lon": "-7.99574759503183",
      "lat": "40.712176817481414"
    }
  ]
}