{
  "data": {
    "distrito": "Viseu",
    "concelho": "Viseu",
    "freguesia": "Bodiosa",
    "OBJECTID": 1355,
    "BGRI2021": "18230400208",
    "DT21": "18",
    "DTMN21": "1823",
    "DTMNFR21": "182304",
    "DTMNFRSEC21": "182304002",
    "SECNUM21": "002",
    "SSNUM21": "08",
    "SECSSNUM21": "00208",
    "OBJECTID_1": 202256,
    "DT": "18",
    "CC": "23",
    "fr": "04",
    "SEC": "002",
    "SS": "08"
  },
  "addresses": [
    {
      "id": "pt.ine.add.PTCONT.5446437",
      "street": "R PONTE",
      "house": "120",
      "postcode": "3515-512",
      "city": "BODIOSA",
      "lon": "-7.999236452304855",
      "lat": "40.719213881570646"
    },
    {
      "id": "pt.ine.add.PTCONT.5464055",
      "street": "R NSA SRA DE FÁTIMA",
      "house": "11",
      "postcode": "3515-511",
      "city": "BODIOSA",
      "lon": "-8.005907459996175",
      "lat": "40.7152231717657"
    },
    {
      "id": "pt.ine.add.PTCONT.5469666",
      "street": "TV NSA SRA FATIMA",
      "house": "",
      "postcode": "3515-511",
      "city": "BODIOSA",
      "lon": "-8.005940856911252",
      "lat": "40.716330833111535"
    },
    {
      "id": "pt.ine.add.PTCONT.5489499",
      "street": "R CAMPO",
      "house": "20",
      "postcode": "3515-633",
      "city": "BODIOSA",
      "lon": "-8.0049803125737",
      "lat": "40.7111518495171"
    },
    {
      "id": "pt.ine.add.PTCONT.5491366",
      "street": "R CAMPO",
      "house": "",
      "postcode": "3515-633",
      "city": "BODIOSA",
      "lon": "-8.005807292758574",
      "lat": "40.71189118133622"
    },
    {
      "id": "pt.ine.add.PTCONT.5506345",
      "street": "EM 1303",
      "house": "",
      "postcode": "3515-512",
      "city": "BODIOSA",
      "lon": "-8.000414355264967",
      "lat": "40.71609948583957"
    },
    {
      "id": "pt.ine.add.PTCONT.5512094",
      "street": "R MINAS DO CABRAO",
      "house": "1",
      "postcode": "3515-512",
      "city": "BODIOSA",
      "lon": "-7.999543779780291",
      "lat": "40.7194123491508"
    },
    {
      "id": "pt.ine.add.PTCONT.5512365",
      "street": "R CALÇADA",
      "house": "",
      "postcode": "3515-511",
      "city": "BODIOSA",
      "lon": "-8.005229584655876",
      "lat": "40.71694239255968"
    },
    {
      "id": "pt.ine.add.PTCONT.5519606",
      "street": "R PONTE",
      "house": "126",
      "postcode": "3515-512",
      "city": "BODIOSA",
      "lon": "-7.999059316955138",
      "lat": "40.71901556442414"
    },
    {
      "id": "pt.ine.add.PTCONT.5519607",
      "street": "R PONTE",
      "house": "126",
      "postcode": "3515-512",
      "city": "BODIOSA",
      "lon": "-7.999059316955138",
      "lat": "40.71901556442414"
    },
    {
      "id": "pt.ine.add.PTCONT.5525196",
      "street": "R PONTE",
      "house": "",
      "postcode": "3515-512",
      "city": "BODIOSA",
      "lon": "-7.999145829838937",
      "lat": "40.71718763490435"
    },
    {
      "id": "pt.ine.add.PTCONT.5537491",
      "street": "ESTR S MARINHA",
      "house": "202",
      "postcode": "3515-511",
      "city": "BODIOSA",
      "lon": "-7.99986860036078",
      "lat": "40.716774237933436"
    },
    {
      "id": "pt.ine.add.PTCONT.5539582",
      "street": "R PONTE",
      "house": "142",
      "postcode": "3515-512",
      "city": "BODIOSA",
      "lon": "-7.998824489225418",
      "lat": "40.71807876390881"
    },
    {
      "id": "pt.ine.add.PTCONT.5558789",
      "street": "TV NSA SRA DE FÁTIMA",
      "house": "6",
      "postcode": "3515-511",
      "city": "BODIOSA",
      "lon": "-8.005739507291201",
      "lat": "40.716411656816966"
    },
    {
      "id": "pt.ine.add.PTCONT.5585555",
      "street": "R PONTE",
      "house": "",
      "postcode": "3515-512",
      "city": "BODIOSA",
      "lon": "-7.99940647355701",
      "lat": "40.71705286095441"
    },
    {
      "id": "pt.ine.add.PTCONT.5592479",
      "street": "R PONTE",
      "house": "130",
      "postcode": "3515-512",
      "city": "BODIOSA",
      "lon": "-7.9992022990916505",
      "lat": "40.718538461525135"
    },
    {
      "id": "pt.ine.add.PTCONT.5597611",
      "street": "R NSA SRA DE FÁTIMA",
      "house": "2",
      "postcode": "3515-511",
      "city": "BODIOSA",
      "lon": "-8.005869812564907",
      "lat": "40.716348764979834"
    },
    {
      "id": "pt.ine.add.PTCONT.5612901",
      "street": "R PONTE",
      "house": "150",
      "postcode": "3515-512",
      "city": "BODIOSA",
      "lon": "-7.998943547453485",
      "lat": "40.71772770446057"
    },
    {
      "id": "pt.ine.add.PTCONT.5614770",
      "street": "TV NSA SRA FATIMA AVAL BODIOSA",
      "house": "N 4",
      "postcode": "3515-511",
      "city": "BODIOSA",
      "lon": "-8.005810568891622",
      "lat": "40.71638471997146"
    },
    {
      "id": "pt.ine.add.PTCONT.5624195",
      "street": "R PONTE",
      "house": "144",
      "postcode": "3515-512",
      "city": "BODIOSA",
      "lon": "-7.998801017671411",
      "lat": "40.71797968079154"
    },
    {
      "id": "pt.ine.add.PTCONT.5629810",
      "street": "R S MARINHA",
      "house": "N 200",
      "postcode": "3515-536",
      "city": "BODIOSA",
      "lon": "-7.9994778444854004",
      "lat": "40.71687284208692"
    },
    {
      "id": "pt.ine.add.PTCONT.5642622",
      "street": "R NSA SRA DE FÁTIMA",
      "house": "9",
      "postcode": "3515-511",
      "city": "BODIOSA",
      "lon": "-8.006131277828644",
      "lat": "40.715772727936475"
    },
    {
      "id": "pt.ine.add.PTCONT.5643033",
      "street": "R PONTE",
      "house": "162",
      "postcode": "3515-512",
      "city": "BODIOSA",
      "lon": "-7.999228982621287",
      "lat": "40.71703464509329"
    },
    {
      "id": "pt.ine.add.PTCONT.5661089",
      "street": "ESTR S MARINHA",
      "house": "224",
      "postcode": "3515-512",
      "city": "BODIOSA",
      "lon": "-8.001802478593087",
      "lat": "40.71435408793461"
    }
  ]
}