{
  "data": {
    "distrito": "Set√∫bal",
    "concelho": "Sesimbra",
    "freguesia": "Sesimbra (Castelo)",
    "OBJECTID": 427,
    "BGRI2021": "15110101811",
    "DT21": "15",
    "DTMN21": "1511",
    "DTMNFR21": "151101",
    "DTMNFRSEC21": "151101018",
    "SECNUM21": "018",
    "SSNUM21": "11",
    "SECSSNUM21": "01811",
    "OBJECTID_1": 169788,
    "DT": "15",
    "CC": "11",
    "fr": "01",
    "SEC": "018",
    "SS": "11"
  },
  "addresses": [
    {
      "id": "pt.ine.add.PTCONT.4676265",
      "street": "R ESTRELA POLAR",
      "house": "",
      "postcode": "2970-446",
      "city": "SESIMBRA",
      "lon": "-9.155219878164",
      "lat": "38.50380630448933"
    },
    {
      "id": "pt.ine.add.PTCONT.4701752",
      "street": "R ESTRELA POLAR",
      "house": "",
      "postcode": "2970-446",
      "city": "SESIMBRA",
      "lon": "-9.15566563633192",
      "lat": "38.503712331097894"
    },
    {
      "id": "pt.ine.add.PTCONT.4701761",
      "street": "R ESTRELA POLAR",
      "house": "7",
      "postcode": "2970-446",
      "city": "SESIMBRA",
      "lon": "-9.155871703658454",
      "lat": "38.50369251517672"
    },
    {
      "id": "pt.ine.add.PTCONT.4771370",
      "street": "R ESTRELA POLAR",
      "house": "",
      "postcode": "2970-446",
      "city": "SESIMBRA",
      "lon": "-9.155267255452003",
      "lat": "38.503913989291036"
    },
    {
      "id": "pt.ine.add.PTCONT.4788484",
      "street": "R LUAR DE PRATA",
      "house": "106B",
      "postcode": "2970-476",
      "city": "SESIMBRA",
      "lon": "-9.156800521621255",
      "lat": "38.50290068670864"
    },
    {
      "id": "pt.ine.add.PTCONT.4802723",
      "street": "R LUAR DE PRATA",
      "house": "",
      "postcode": "2970-476",
      "city": "SESIMBRA",
      "lon": "-9.156012432182084",
      "lat": "38.50310575342218"
    },
    {
      "id": "pt.ine.add.PTCONT.4847955",
      "street": "R LUAR DE PRATA",
      "house": "",
      "postcode": "2970-476",
      "city": "SESIMBRA",
      "lon": "-9.157028107789738",
      "lat": "38.502781590519355"
    },
    {
      "id": "pt.ine.add.PTCONT.5114998",
      "street": "R LUAR DE PRATA",
      "house": "106C",
      "postcode": "2970-476",
      "city": "SESIMBRA",
      "lon": "-9.156343562684949",
      "lat": "38.50301277865758"
    }
  ]
}