{
  "data": {
    "distrito": "Setúbal",
    "concelho": "Palmela",
    "freguesia": "Quinta do Anjo",
    "OBJECTID": 282,
    "BGRI2021": "15080400908",
    "DT21": "15",
    "DTMN21": "1508",
    "DTMNFR21": "150804",
    "DTMNFRSEC21": "150804009",
    "SECNUM21": "009",
    "SSNUM21": "08",
    "SECSSNUM21": "00908",
    "OBJECTID_1": 165213,
    "DT": "15",
    "CC": "08",
    "fr": "04",
    "SEC": "009",
    "SS": "08"
  },
  "addresses": [
    {
      "id": "pt.ine.add.PTCONT.4671256",
      "street": "R AUGUSTO SEBASTIÃO",
      "house": "2",
      "postcode": "2950-610",
      "city": "QUINTA DO ANJO",
      "lon": "-8.972985777853454",
      "lat": "38.55271056988108"
    },
    {
      "id": "pt.ine.add.PTCONT.4678372",
      "street": "R MARQUES DAS MINAS",
      "house": "2B",
      "postcode": "2950-630",
      "city": "QUINTA DO ANJO",
      "lon": "-8.972280771736092",
      "lat": "38.55324711110334"
    },
    {
      "id": "pt.ine.add.PTCONT.4681948",
      "street": "TV AUGUSTO SEBASTIÃO",
      "house": "116 C",
      "postcode": "2950-631",
      "city": "QUINTA DO ANJO",
      "lon": "-8.973569630493715",
      "lat": "38.55260728912283"
    },
    {
      "id": "pt.ine.add.PTCONT.4686169",
      "street": "R MARQUES DAS MINAS",
      "house": "",
      "postcode": "2950-630",
      "city": "QUINTA DO ANJO",
      "lon": "-8.970321646277647",
      "lat": "38.55247742288057"
    },
    {
      "id": "pt.ine.add.PTCONT.4686170",
      "street": "TV AUGUSTO SEBASTIÃO",
      "house": "118",
      "postcode": "2950-631",
      "city": "QUINTA DO ANJO",
      "lon": "-8.974064411747866",
      "lat": "38.553720755661224"
    },
    {
      "id": "pt.ine.add.PTCONT.4694610",
      "street": "R MARQUES DAS MINAS",
      "house": "26",
      "postcode": "2950-630",
      "city": "QUINTA DO ANJO",
      "lon": "-8.972350853221235",
      "lat": "38.55335470740788"
    },
    {
      "id": "pt.ine.add.PTCONT.4705413",
      "street": "AV VISC TOJAL",
      "house": "",
      "postcode": "2950-602",
      "city": "QUINTA DO ANJO",
      "lon": "-8.974184503977073",
      "lat": "38.55319741590133"
    },
    {
      "id": "pt.ine.add.PTCONT.4706227",
      "street": "AV VISC TOJAL",
      "house": "",
      "postcode": "2950-805",
      "city": "QUINTA DO ANJO",
      "lon": "-8.973505590067997",
      "lat": "38.55400402368178"
    },
    {
      "id": "pt.ine.add.PTCONT.4708763",
      "street": "R AUGUSTO SEBASTIÃO",
      "house": "8",
      "postcode": "2950-610",
      "city": "QUINTA DO ANJO",
      "lon": "-8.972543971621159",
      "lat": "38.55319117471924"
    },
    {
      "id": "pt.ine.add.PTCONT.4714668",
      "street": "R MARQUES DAS MINAS",
      "house": "14",
      "postcode": "2950-630",
      "city": "QUINTA DO ANJO",
      "lon": "-8.9727224244804",
      "lat": "38.55373939665742"
    },
    {
      "id": "pt.ine.add.PTCONT.4714669",
      "street": "R MQ MINAS",
      "house": "16",
      "postcode": "2950-630",
      "city": "QUINTA DO ANJO",
      "lon": "-8.972675807610432",
      "lat": "38.5536766734259"
    },
    {
      "id": "pt.ine.add.PTCONT.4714683",
      "street": "R MQ MINAS",
      "house": "16",
      "postcode": "2950-630",
      "city": "QUINTA DO ANJO",
      "lon": "-8.972675807610432",
      "lat": "38.5536766734259"
    },
    {
      "id": "pt.ine.add.PTCONT.4722274",
      "street": "AV VISC TOJAL",
      "house": "112",
      "postcode": "2950-602",
      "city": "QUINTA DO ANJO",
      "lon": "-8.974793610878825",
      "lat": "38.553292128517924"
    },
    {
      "id": "pt.ine.add.PTCONT.4741263",
      "street": "R MARQUES DAS MINAS",
      "house": "38",
      "postcode": "2950-630",
      "city": "QUINTA DO ANJO",
      "lon": "-8.971815974291335",
      "lat": "38.552736973186015"
    },
    {
      "id": "pt.ine.add.PTCONT.4743717",
      "street": "R FONTE PINTOS",
      "house": "10",
      "postcode": "2950-611",
      "city": "QUINTA DO ANJO",
      "lon": "-8.973944420812773",
      "lat": "38.55129840492036"
    },
    {
      "id": "pt.ine.add.PTCONT.4766269",
      "street": "R MQ MINAS",
      "house": "42",
      "postcode": "2950-630",
      "city": "QUINTA DO ANJO",
      "lon": "-8.971189339582322",
      "lat": "38.55211989333968"
    },
    {
      "id": "pt.ine.add.PTCONT.4766282",
      "street": "R LADEIRA",
      "house": "1",
      "postcode": "2950-610",
      "city": "QUINTA DO ANJO",
      "lon": "-8.97274950286741",
      "lat": "38.553108626708784"
    },
    {
      "id": "pt.ine.add.PTCONT.4769747",
      "street": "AV VISC TOJAL",
      "house": "130A",
      "postcode": "2950-602",
      "city": "QUINTA DO ANJO",
      "lon": "-8.973086557612021",
      "lat": "38.55348455415392"
    },
    {
      "id": "pt.ine.add.PTCONT.4775793",
      "street": "R AUGUSTO SEBASTIÃO",
      "house": "12",
      "postcode": "2950-610",
      "city": "QUINTA DO ANJO",
      "lon": "-8.972177383502862",
      "lat": "38.5522479390986"
    },
    {
      "id": "pt.ine.add.PTCONT.4781510",
      "street": "TV AUGUSTO SEBASTIÃO",
      "house": "7",
      "postcode": "2950-631",
      "city": "QUINTA DO ANJO",
      "lon": "-8.973291984207423",
      "lat": "38.55339299772043"
    },
    {
      "id": "pt.ine.add.PTCONT.4790740",
      "street": "TV AUGUSTO SEBASTIÃO",
      "house": "116 D",
      "postcode": "2950-631",
      "city": "QUINTA DO ANJO",
      "lon": "-8.973349170998057",
      "lat": "38.55239267426948"
    },
    {
      "id": "pt.ine.add.PTCONT.4805603",
      "street": "AV VISC TOJAL",
      "house": "14",
      "postcode": "2950-602",
      "city": "QUINTA DO ANJO",
      "lon": "-8.974564299887144",
      "lat": "38.55330278524695"
    },
    {
      "id": "pt.ine.add.PTCONT.4813578",
      "street": "TV AUGUSTO SEBASTIÃO",
      "house": "5",
      "postcode": "2950-631",
      "city": "QUINTA DO ANJO",
      "lon": "-8.97303417608172",
      "lat": "38.552926420052714"
    },
    {
      "id": "pt.ine.add.PTCONT.4813579",
      "street": "R SOCALÇOS",
      "house": "3",
      "postcode": "2950-610",
      "city": "QUINTA DO ANJO",
      "lon": "-8.972441312963237",
      "lat": "38.552255055308606"
    },
    {
      "id": "pt.ine.add.PTCONT.4830967",
      "street": "TV AUGUSTO SEBASTIÃO",
      "house": "3",
      "postcode": "2950-631",
      "city": "QUINTA DO ANJO",
      "lon": "-8.973249604218259",
      "lat": "38.55270867677459"
    },
    {
      "id": "pt.ine.add.PTCONT.4830968",
      "street": "R LADEIRA",
      "house": "3",
      "postcode": "2950-610",
      "city": "QUINTA DO ANJO",
      "lon": "-8.972550414496553",
      "lat": "38.552758733693736"
    },
    {
      "id": "pt.ine.add.PTCONT.4834514",
      "street": "TV AUGUSTO SEBASTIAO",
      "house": "116 A",
      "postcode": "2950-631",
      "city": "QUINTA DO ANJO",
      "lon": "-8.974474423282569",
      "lat": "38.553465579273166"
    },
    {
      "id": "pt.ine.add.PTCONT.4836965",
      "street": "TV AUGUSTO SEBASTIÃO",
      "house": "130",
      "postcode": "2950-631",
      "city": "QUINTA DO ANJO",
      "lon": "-8.973608094124963",
      "lat": "38.553940230199586"
    },
    {
      "id": "pt.ine.add.PTCONT.4843825",
      "street": "R MARQUES DAS MINAS",
      "house": "38B",
      "postcode": "2950-630",
      "city": "QUINTA DO ANJO",
      "lon": "-8.971722848165285",
      "lat": "38.552620533403896"
    },
    {
      "id": "pt.ine.add.PTCONT.4851323",
      "street": "R AUGUSTO SEBASTIÃO",
      "house": "4",
      "postcode": "2950-610",
      "city": "QUINTA DO ANJO",
      "lon": "-8.972906111616084",
      "lat": "38.55276519076965"
    },
    {
      "id": "pt.ine.add.PTCONT.4859334",
      "street": "R MARQUES DAS MINAS",
      "house": "",
      "postcode": "2950-630",
      "city": "QUINTA DO ANJO",
      "lon": "-8.970181491275024",
      "lat": "38.5522622276758"
    },
    {
      "id": "pt.ine.add.PTCONT.4869818",
      "street": "AV VISC TOJAL",
      "house": "100",
      "postcode": "2950-602",
      "city": "QUINTA DO ANJO",
      "lon": "-8.975075547913297",
      "lat": "38.552875722764846"
    },
    {
      "id": "pt.ine.add.PTCONT.4869819",
      "street": "R AUGUSTO SEBASTIÃO",
      "house": "10",
      "postcode": "2950-610",
      "city": "QUINTA DO ANJO",
      "lon": "-8.972625209971243",
      "lat": "38.55327166618087"
    },
    {
      "id": "pt.ine.add.PTCONT.4882907",
      "street": "R SOCALÇOS",
      "house": "2",
      "postcode": "2950-610",
      "city": "QUINTA DO ANJO",
      "lon": "-8.972599702162707",
      "lat": "38.5520647468254"
    },
    {
      "id": "pt.ine.add.PTCONT.4885654",
      "street": "TV AUGUSTO SEBASTIÃO",
      "house": "1",
      "postcode": "2950-631",
      "city": "QUINTA DO ANJO",
      "lon": "-8.97316381349874",
      "lat": "38.553222761275485"
    },
    {
      "id": "pt.ine.add.PTCONT.4918489",
      "street": "AV VISC TOJAL",
      "house": "130B",
      "postcode": "2950-602",
      "city": "QUINTA DO ANJO",
      "lon": "-8.97295901601845",
      "lat": "38.55336836232044"
    },
    {
      "id": "pt.ine.add.PTCONT.4918495",
      "street": "R MARQUES DAS MINAS",
      "house": "30",
      "postcode": "2950-630",
      "city": "QUINTA DO ANJO",
      "lon": "-8.972210481049899",
      "lat": "38.55312149980259"
    },
    {
      "id": "pt.ine.add.PTCONT.4928738",
      "street": "AV VISC TOJAL",
      "house": "140",
      "postcode": "2950-602",
      "city": "QUINTA DO ANJO",
      "lon": "-8.973345626344978",
      "lat": "38.554059221287496"
    },
    {
      "id": "pt.ine.add.PTCONT.4960719",
      "street": "TV AUGUSTO SEBASTIÃO",
      "house": "1",
      "postcode": "2950-631",
      "city": "QUINTA DO ANJO",
      "lon": "-8.973237085182475",
      "lat": "38.5526186843629"
    },
    {
      "id": "pt.ine.add.PTCONT.4961755",
      "street": "R SOCALCOS",
      "house": "3",
      "postcode": "2950-610",
      "city": "QUINTA DO ANJO",
      "lon": "-8.972648780143771",
      "lat": "38.55332554649727"
    },
    {
      "id": "pt.ine.add.PTCONT.4965359",
      "street": "R MARQUES DAS MINAS",
      "house": "40",
      "postcode": "2950-630",
      "city": "QUINTA DO ANJO",
      "lon": "-8.971560688996284",
      "lat": "38.55248657154385"
    },
    {
      "id": "pt.ine.add.PTCONT.4968823",
      "street": "R LADEIRA",
      "house": "4",
      "postcode": "2950-610",
      "city": "QUINTA DO ANJO",
      "lon": "-8.97213296664415",
      "lat": "38.55237437262327"
    },
    {
      "id": "pt.ine.add.PTCONT.5001736",
      "street": "AV VISC TOJAL",
      "house": "126",
      "postcode": "2950-602",
      "city": "QUINTA DO ANJO",
      "lon": "-8.973733644689302",
      "lat": "38.5538852793587"
    },
    {
      "id": "pt.ine.add.PTCONT.5016359",
      "street": "R LADEIRA",
      "house": "2",
      "postcode": "2950-610",
      "city": "QUINTA DO ANJO",
      "lon": "-8.972701314888962",
      "lat": "38.55291079136621"
    },
    {
      "id": "pt.ine.add.PTCONT.5031549",
      "street": "R MARQUES DAS MINAS",
      "house": "22",
      "postcode": "2950-630",
      "city": "QUINTA DO ANJO",
      "lon": "-8.972560156178448",
      "lat": "38.55359642878356"
    },
    {
      "id": "pt.ine.add.PTCONT.5038447",
      "street": "R MARQUES DAS MINAS",
      "house": "24",
      "postcode": "2950-630",
      "city": "QUINTA DO ANJO",
      "lon": "-8.972466818249757",
      "lat": "38.55346197468895"
    },
    {
      "id": "pt.ine.add.PTCONT.5045661",
      "street": "AV VISC TOJAL",
      "house": "108",
      "postcode": "2950-602",
      "city": "QUINTA DO ANJO",
      "lon": "-8.975066808787371",
      "lat": "38.55310999944806"
    },
    {
      "id": "pt.ine.add.PTCONT.5055542",
      "street": "AV VISC TOJAL",
      "house": "134",
      "postcode": "2950-602",
      "city": "QUINTA DO ANJO",
      "lon": "-8.973001126296081",
      "lat": "38.55304376410479"
    },
    {
      "id": "pt.ine.add.PTCONT.5085534",
      "street": "R MARQUES DAS MINAS",
      "house": "32",
      "postcode": "2950-630",
      "city": "QUINTA DO ANJO",
      "lon": "-8.972187015975274",
      "lat": "38.553076626866705"
    },
    {
      "id": "pt.ine.add.PTCONT.5092671",
      "street": "TV AUGUSTO SEBASTIÃO",
      "house": "132",
      "postcode": "2950-631",
      "city": "QUINTA DO ANJO",
      "lon": "-8.972956920020655",
      "lat": "38.553188212860476"
    },
    {
      "id": "pt.ine.add.PTCONT.5105848",
      "street": "R MARQUES DAS MINAS",
      "house": "36",
      "postcode": "2950-630",
      "city": "QUINTA DO ANJO",
      "lon": "-8.972036011617485",
      "lat": "38.5529155610515"
    },
    {
      "id": "pt.ine.add.PTCONT.5110092",
      "street": "R FONTE DOS PINTOS",
      "house": "6",
      "postcode": "2950-611",
      "city": "QUINTA DO ANJO",
      "lon": "-8.974680817413379",
      "lat": "38.55247319100568"
    }
  ]
}