{
  "data": {
    "distrito": "Vila Real",
    "concelho": "Vila Pouca de Aguiar",
    "freguesia": "Vila Pouca de Aguiar",
    "OBJECTID": 275,
    "BGRI2021": "17131400107",
    "DT21": "17",
    "DTMN21": "1713",
    "DTMNFR21": "171314",
    "DTMNFRSEC21": "171314001",
    "SECNUM21": "001",
    "SSNUM21": "07",
    "SECSSNUM21": "00107",
    "OBJECTID_1": 186720,
    "DT": "17",
    "CC": "13",
    "fr": "14",
    "SEC": "001",
    "SS": "07"
  },
  "addresses": [
    {
      "id": "pt.ine.add.PTCONT.5309780",
      "street": "R COMEND SILVA",
      "house": "17",
      "postcode": "5450-020",
      "city": "VILA POUCA DE AGUIAR",
      "lon": "-7.64304128645369",
      "lat": "41.49965477005153"
    },
    {
      "id": "pt.ine.add.PTCONT.5309781",
      "street": "R COMEND SILVA",
      "house": "17",
      "postcode": "5450-020",
      "city": "VILA POUCA DE AGUIAR",
      "lon": "-7.64304128645369",
      "lat": "41.49965477005153"
    },
    {
      "id": "pt.ine.add.PTCONT.5322465",
      "street": "R MANUEL CHAVES",
      "house": "",
      "postcode": "5450-042",
      "city": "VILA POUCA DE AGUIAR",
      "lon": "-7.641505282537265",
      "lat": "41.500053386490364"
    },
    {
      "id": "pt.ine.add.PTCONT.5323541",
      "street": "R TIMOR B",
      "house": "B",
      "postcode": "5450-020",
      "city": "VILA POUCA DE AGUIAR",
      "lon": "-7.642551761367176",
      "lat": "41.49945459934378"
    },
    {
      "id": "pt.ine.add.PTCONT.5323542",
      "street": "R TIMOR",
      "house": "20",
      "postcode": "5450-020",
      "city": "VILA POUCA DE AGUIAR",
      "lon": "-7.642551761367176",
      "lat": "41.49945459934378"
    },
    {
      "id": "pt.ine.add.PTCONT.5323561",
      "street": "R TIMOR",
      "house": "2",
      "postcode": "5450-020",
      "city": "VILA POUCA DE AGUIAR",
      "lon": "-7.642551761367176",
      "lat": "41.49945459934378"
    },
    {
      "id": "pt.ine.add.PTCONT.5323562",
      "street": "R TIMOR",
      "house": "60",
      "postcode": "5450-020",
      "city": "VILA POUCA DE AGUIAR",
      "lon": "-7.642551761367176",
      "lat": "41.49945459934378"
    },
    {
      "id": "pt.ine.add.PTCONT.5328019",
      "street": "PC LUIS CAMOES",
      "house": "",
      "postcode": "5450-016",
      "city": "VILA POUCA DE AGUIAR",
      "lon": "-7.642953652000114",
      "lat": "41.500158610009045"
    },
    {
      "id": "pt.ine.add.PTCONT.5341782",
      "street": "R DR HENRIQUE FERREIRA BOTELHO",
      "house": "20",
      "postcode": "5450-027",
      "city": "VILA POUCA DE AGUIAR",
      "lon": "-7.642809801932792",
      "lat": "41.50017600449635"
    },
    {
      "id": "pt.ine.add.PTCONT.5341783",
      "street": "R DR HENRIQUE FERREIRA BOTELHO",
      "house": "11",
      "postcode": "5450-027",
      "city": "VILA POUCA DE AGUIAR",
      "lon": "-7.641443563035917",
      "lat": "41.50029622553585"
    },
    {
      "id": "pt.ine.add.PTCONT.5343665",
      "street": "R DR HENRIQUE FERREIRA BOTELHO",
      "house": "4",
      "postcode": "5450-027",
      "city": "VILA POUCA DE AGUIAR",
      "lon": "-7.642581778729339",
      "lat": "41.50023805889343"
    },
    {
      "id": "pt.ine.add.PTCONT.5370452",
      "street": "PC LUIS CAMOES",
      "house": "30",
      "postcode": "5450-016",
      "city": "VILA POUCA DE AGUIAR",
      "lon": "-7.642689972103555",
      "lat": "41.500184497417656"
    },
    {
      "id": "pt.ine.add.PTCONT.5379147",
      "street": "R TIMOR",
      "house": "20",
      "postcode": "5450-020",
      "city": "VILA POUCA DE AGUIAR",
      "lon": "-7.6429112467752285",
      "lat": "41.49942912061174"
    },
    {
      "id": "pt.ine.add.PTCONT.5379148",
      "street": "R TIMOR",
      "house": "",
      "postcode": "5450-020",
      "city": "VILA POUCA DE AGUIAR",
      "lon": "-7.6429112467752285",
      "lat": "41.49942912061174"
    },
    {
      "id": "pt.ine.add.PTCONT.5379149",
      "street": "R TIMOR",
      "house": "",
      "postcode": "5450-020",
      "city": "VILA POUCA DE AGUIAR",
      "lon": "-7.6429112467752285",
      "lat": "41.49942912061174"
    },
    {
      "id": "pt.ine.add.PTCONT.5379150",
      "street": "R TIMOR",
      "house": "",
      "postcode": "5450-020",
      "city": "VILA POUCA DE AGUIAR",
      "lon": "-7.6429112467752285",
      "lat": "41.49942912061174"
    },
    {
      "id": "pt.ine.add.PTCONT.5383407",
      "street": "R MANUEL CHAVES",
      "house": "",
      "postcode": "5450-042",
      "city": "VILA POUCA DE AGUIAR",
      "lon": "-7.64180033198324",
      "lat": "41.4990462204062"
    },
    {
      "id": "pt.ine.add.PTCONT.5402419",
      "street": "R DR HENRIQUE FERREIRA BOTELHO",
      "house": "",
      "postcode": "5450-027",
      "city": "VILA POUCA DE AGUIAR",
      "lon": "-7.6419106352541",
      "lat": "41.50029822123398"
    },
    {
      "id": "pt.ine.add.PTCONT.5402420",
      "street": "R MANUEL CHAVES",
      "house": "",
      "postcode": "5450-042",
      "city": "VILA POUCA DE AGUIAR",
      "lon": "-7.641529779563474",
      "lat": "41.499981460713244"
    },
    {
      "id": "pt.ine.add.PTCONT.5411272",
      "street": "R COMEND SILVA",
      "house": "",
      "postcode": "5450-020",
      "city": "VILA POUCA DE AGUIAR",
      "lon": "-7.643097501992146",
      "lat": "41.50014121534131"
    }
  ]
}