{
  "data": {
    "distrito": "Setúbal",
    "concelho": "Palmela",
    "freguesia": "Quinta do Anjo",
    "OBJECTID": 866,
    "BGRI2021": "15080400312",
    "DT21": "15",
    "DTMN21": "1508",
    "DTMNFR21": "150804",
    "DTMNFRSEC21": "150804003",
    "SECNUM21": "003",
    "SSNUM21": "12",
    "SECSSNUM21": "00312",
    "OBJECTID_1": 165579,
    "DT": "15",
    "CC": "08",
    "fr": "04",
    "SEC": "003",
    "SS": "12"
  },
  "addresses": [
    {
      "id": "pt.ine.add.PTCONT.4671236",
      "street": "R D JORGE DE LENCASTRE",
      "house": "",
      "postcode": "2950-739",
      "city": "QUINTA DO ANJO",
      "lon": "-8.93933582248932",
      "lat": "38.566517368507085"
    },
    {
      "id": "pt.ine.add.PTCONT.4689506",
      "street": "R MANUEL JOÃO DE LIMA SIMÕES CASAL PARDO",
      "house": "3",
      "postcode": "2950-743",
      "city": "QUINTA DO ANJO",
      "lon": "-8.939210341712778",
      "lat": "38.56375789845194"
    },
    {
      "id": "pt.ine.add.PTCONT.4718374",
      "street": "R JOÃO DE DEUS",
      "house": "",
      "postcode": "2950-731",
      "city": "QUINTA DO ANJO",
      "lon": "-8.939950518842208",
      "lat": "38.56325734644635"
    },
    {
      "id": "pt.ine.add.PTCONT.4758937",
      "street": "R D JORGE DE LENCASTRE",
      "house": "",
      "postcode": "2950-739",
      "city": "QUINTA DO ANJO",
      "lon": "-8.939470502310838",
      "lat": "38.566256849055925"
    },
    {
      "id": "pt.ine.add.PTCONT.4758960",
      "street": "R JOÃO DE DEUS",
      "house": "131",
      "postcode": "2950-731",
      "city": "QUINTA DO ANJO",
      "lon": "-8.939884302381024",
      "lat": "38.56349201673118"
    },
    {
      "id": "pt.ine.add.PTCONT.4773217",
      "street": "R JOÃO DE DEUS",
      "house": "",
      "postcode": "2950-731",
      "city": "QUINTA DO ANJO",
      "lon": "-8.940005373302666",
      "lat": "38.56405870044321"
    },
    {
      "id": "pt.ine.add.PTCONT.4776459",
      "street": "R JOAO DE DEUS",
      "house": "",
      "postcode": "2950-731",
      "city": "QUINTA DO ANJO",
      "lon": "-8.939998322521658",
      "lat": "38.56342817323818"
    },
    {
      "id": "pt.ine.add.PTCONT.4776460",
      "street": "R JOAO DEUS",
      "house": "121",
      "postcode": "2950-731",
      "city": "QUINTA DO ANJO",
      "lon": "-8.939998322521658",
      "lat": "38.56342817323818"
    },
    {
      "id": "pt.ine.add.PTCONT.4776461",
      "street": "R JOAO DEUS",
      "house": "123",
      "postcode": "2950-731",
      "city": "QUINTA DO ANJO",
      "lon": "-8.939998322521658",
      "lat": "38.56342817323818"
    },
    {
      "id": "pt.ine.add.PTCONT.4776619",
      "street": "R JOAO DEUS",
      "house": "125",
      "postcode": "2950-731",
      "city": "QUINTA DO ANJO",
      "lon": "-8.939998322521658",
      "lat": "38.56342817323818"
    },
    {
      "id": "pt.ine.add.PTCONT.4776620",
      "street": "R JOAO DEUS",
      "house": "129",
      "postcode": "2950-731",
      "city": "QUINTA DO ANJO",
      "lon": "-8.939998322521658",
      "lat": "38.56342817323818"
    },
    {
      "id": "pt.ine.add.PTCONT.4781503",
      "street": "R D JORGE DE LENCASTRE",
      "house": "",
      "postcode": "2950-739",
      "city": "QUINTA DO ANJO",
      "lon": "-8.939541414398365",
      "lat": "38.566296910143244"
    },
    {
      "id": "pt.ine.add.PTCONT.4795306",
      "street": "SIT PALMELA",
      "house": "",
      "postcode": "2950-731",
      "city": "QUINTA DO ANJO",
      "lon": "-8.939781653871936",
      "lat": "38.563546773521516"
    },
    {
      "id": "pt.ine.add.PTCONT.4813026",
      "street": "R JOÃO DE DEUS",
      "house": "",
      "postcode": "2950-731",
      "city": "QUINTA DO ANJO",
      "lon": "-8.939553914633867",
      "lat": "38.56370148257924"
    },
    {
      "id": "pt.ine.add.PTCONT.4826075",
      "street": "R JOÃO DE DEUS",
      "house": "85",
      "postcode": "2950-731",
      "city": "QUINTA DO ANJO",
      "lon": "-8.940649486383391",
      "lat": "38.56436894742668"
    },
    {
      "id": "pt.ine.add.PTCONT.4840187",
      "street": "R JOÃO DE DEUS",
      "house": "",
      "postcode": "2950-731",
      "city": "QUINTA DO ANJO",
      "lon": "-8.940152703825927",
      "lat": "38.56389553669971"
    },
    {
      "id": "pt.ine.add.PTCONT.4843766",
      "street": "R JOÃO DE DEUS",
      "house": "",
      "postcode": "2950-731",
      "city": "QUINTA DO ANJO",
      "lon": "-8.940486169301426",
      "lat": "38.56429959816216"
    },
    {
      "id": "pt.ine.add.PTCONT.4855078",
      "street": "R JOÃO DE DEUS",
      "house": "",
      "postcode": "2950-731",
      "city": "QUINTA DO ANJO",
      "lon": "-8.939460121040186",
      "lat": "38.56352196419958"
    },
    {
      "id": "pt.ine.add.PTCONT.4855079",
      "street": "R JOÃO DE DEUS",
      "house": "",
      "postcode": "2950-731",
      "city": "QUINTA DO ANJO",
      "lon": "-8.939619729646244",
      "lat": "38.563430782344646"
    },
    {
      "id": "pt.ine.add.PTCONT.4858970",
      "street": "R MANUEL JOÃO DE LIMA SIMÕES",
      "house": "2",
      "postcode": "2950-743",
      "city": "QUINTA DO ANJO",
      "lon": "-8.939290045849134",
      "lat": "38.56370330018573"
    },
    {
      "id": "pt.ine.add.PTCONT.4867144",
      "street": "R JOÃO DE DEUS",
      "house": "",
      "postcode": "2950-731",
      "city": "QUINTA DO ANJO",
      "lon": "-8.941070252887517",
      "lat": "38.56463541770516"
    },
    {
      "id": "pt.ine.add.PTCONT.4869328",
      "street": "R JOAO DEUS",
      "house": "101",
      "postcode": "2950-731",
      "city": "QUINTA DO ANJO",
      "lon": "-8.940382357053911",
      "lat": "38.563911969569425"
    },
    {
      "id": "pt.ine.add.PTCONT.4896517",
      "street": "R D JORGE DE LENCASTRE",
      "house": "43",
      "postcode": "2950-739",
      "city": "QUINTA DO ANJO",
      "lon": "-8.93989748607861",
      "lat": "38.56577689534797"
    },
    {
      "id": "pt.ine.add.PTCONT.4917185",
      "street": "R D JORGE DE LENCASTRE",
      "house": "",
      "postcode": "2950-739",
      "city": "QUINTA DO ANJO",
      "lon": "-8.939931964211393",
      "lat": "38.56572225974813"
    },
    {
      "id": "pt.ine.add.PTCONT.4921479",
      "street": "R D JORGE DE LENCASTRE",
      "house": "",
      "postcode": "2950-739",
      "city": "QUINTA DO ANJO",
      "lon": "-8.939604908466375",
      "lat": "38.56616244745468"
    },
    {
      "id": "pt.ine.add.PTCONT.4924900",
      "street": "PTO SALVADOR EMÍDIO",
      "house": "",
      "postcode": "2950-731",
      "city": "QUINTA DO ANJO",
      "lon": "-8.939845965233188",
      "lat": "38.564167897886534"
    },
    {
      "id": "pt.ine.add.PTCONT.4925625",
      "street": "R D JORGE DE LENCASTRE",
      "house": "41",
      "postcode": "2950-739",
      "city": "QUINTA DO ANJO",
      "lon": "-8.939806962427058",
      "lat": "38.56583044615697"
    },
    {
      "id": "pt.ine.add.PTCONT.4929766",
      "street": "R D JORGE DE LENCASTRE",
      "house": "",
      "postcode": "2950-739",
      "city": "QUINTA DO ANJO",
      "lon": "-8.941038430645106",
      "lat": "38.56471983001383"
    },
    {
      "id": "pt.ine.add.PTCONT.4932518",
      "street": "R JOÃO DE DEUS",
      "house": "",
      "postcode": "2950-731",
      "city": "QUINTA DO ANJO",
      "lon": "-8.940207950966208",
      "lat": "38.5637059830441"
    },
    {
      "id": "pt.ine.add.PTCONT.4936507",
      "street": "R JOÃO DE DEUS",
      "house": "",
      "postcode": "2950-731",
      "city": "QUINTA DO ANJO",
      "lon": "-8.94058615370121",
      "lat": "38.564267457169116"
    },
    {
      "id": "pt.ine.add.PTCONT.4943509",
      "street": "R JOÃO DE DEUS",
      "house": "",
      "postcode": "2950-731",
      "city": "QUINTA DO ANJO",
      "lon": "-8.939919354372648",
      "lat": "38.564775459852875"
    },
    {
      "id": "pt.ine.add.PTCONT.4954356",
      "street": "R JOÃO DE DEUS",
      "house": "",
      "postcode": "2950-731",
      "city": "QUINTA DO ANJO",
      "lon": "-8.939652541475857",
      "lat": "38.56431336239648"
    },
    {
      "id": "pt.ine.add.PTCONT.4954364",
      "street": "R JOÃO DE DEUS",
      "house": "",
      "postcode": "2950-731",
      "city": "QUINTA DO ANJO",
      "lon": "-8.940312312358097",
      "lat": "38.56380435390669"
    },
    {
      "id": "pt.ine.add.PTCONT.4961731",
      "street": "R D JORGE DE LENCASTRE",
      "house": "33",
      "postcode": "2950-739",
      "city": "QUINTA DO ANJO",
      "lon": "-8.939498380027194",
      "lat": "38.56609790330228"
    },
    {
      "id": "pt.ine.add.PTCONT.4987055",
      "street": "R JOÃO DE DEUS",
      "house": "",
      "postcode": "2950-731",
      "city": "QUINTA DO ANJO",
      "lon": "-8.940249213038207",
      "lat": "38.56451835664857"
    },
    {
      "id": "pt.ine.add.PTCONT.5008644",
      "street": "R JOÃO DE DEUS",
      "house": "111 A",
      "postcode": "2950-731",
      "city": "QUINTA DO ANJO",
      "lon": "-8.940107619401761",
      "lat": "38.56396791333178"
    },
    {
      "id": "pt.ine.add.PTCONT.5016326",
      "street": "R D JORGE DE LENCASTRE",
      "house": "",
      "postcode": "2950-739",
      "city": "QUINTA DO ANJO",
      "lon": "-8.939266775350985",
      "lat": "38.566558892729425"
    },
    {
      "id": "pt.ine.add.PTCONT.5021187",
      "street": "R JOÃO DE DEUS",
      "house": "",
      "postcode": "2950-731",
      "city": "QUINTA DO ANJO",
      "lon": "-8.940667347941796",
      "lat": "38.56419811293906"
    },
    {
      "id": "pt.ine.add.PTCONT.5022142",
      "street": "R JOÃO DE DEUS",
      "house": "",
      "postcode": "2950-731",
      "city": "QUINTA DO ANJO",
      "lon": "-8.940667347941796",
      "lat": "38.56419811293906"
    },
    {
      "id": "pt.ine.add.PTCONT.5023848",
      "street": "",
      "house": "",
      "postcode": "2950-731",
      "city": "QUINTA DO ANJO",
      "lon": "-8.940162281327911",
      "lat": "38.56457888596212"
    },
    {
      "id": "pt.ine.add.PTCONT.5045667",
      "street": "R JOÃO DE DEUS",
      "house": "",
      "postcode": "2950-731",
      "city": "QUINTA DO ANJO",
      "lon": "-8.939722076049753",
      "lat": "38.56334900309758"
    },
    {
      "id": "pt.ine.add.PTCONT.5053241",
      "street": "R JOÃO DE DEUS",
      "house": "",
      "postcode": "2950-731",
      "city": "QUINTA DO ANJO",
      "lon": "-8.939732145184836",
      "lat": "38.56424975629992"
    },
    {
      "id": "pt.ine.add.PTCONT.5057079",
      "street": "R D JORGE DE LENCASTRE",
      "house": "",
      "postcode": "2950-739",
      "city": "QUINTA DO ANJO",
      "lon": "-8.939415687624619",
      "lat": "38.566428557634275"
    },
    {
      "id": "pt.ine.add.PTCONT.5073295",
      "street": "R JOÃO DE DEUS",
      "house": "",
      "postcode": "2950-731",
      "city": "QUINTA DO ANJO",
      "lon": "-8.940023332656645",
      "lat": "38.56468413390115"
    },
    {
      "id": "pt.ine.add.PTCONT.5073447",
      "street": "R JOÃO DE DEUS",
      "house": "",
      "postcode": "2950-731",
      "city": "QUINTA DO ANJO",
      "lon": "-8.940023332656645",
      "lat": "38.56468413390115"
    },
    {
      "id": "pt.ine.add.PTCONT.5074740",
      "street": "R JOÃO DE DEUS",
      "house": "",
      "postcode": "2950-731",
      "city": "QUINTA DO ANJO",
      "lon": "-8.940114961659381",
      "lat": "38.56359852545871"
    },
    {
      "id": "pt.ine.add.PTCONT.5088966",
      "street": "R JOÃO DE DEUS",
      "house": "",
      "postcode": "2950-731",
      "city": "QUINTA DO ANJO",
      "lon": "-8.939425202190346",
      "lat": "38.56450410133876"
    },
    {
      "id": "pt.ine.add.PTCONT.5095494",
      "street": "R JOÃO DE DEUS",
      "house": "",
      "postcode": "2950-731",
      "city": "QUINTA DO ANJO",
      "lon": "-8.940372396054219",
      "lat": "38.564047161644446"
    },
    {
      "id": "pt.ine.add.PTCONT.5106846",
      "street": "R MANUEL JOÃO DE LIMA SIMÕES",
      "house": "N1",
      "postcode": "2950-743",
      "city": "QUINTA DO ANJO",
      "lon": "-8.939369649218461",
      "lat": "38.563639694333"
    },
    {
      "id": "pt.ine.add.PTCONT.5114921",
      "street": "R JOÃO DE DEUS",
      "house": "103",
      "postcode": "2950-731",
      "city": "QUINTA DO ANJO",
      "lon": "-8.940370078291954",
      "lat": "38.56383998844589"
    },
    {
      "id": "pt.ine.add.PTCONT.5117584",
      "street": "R JOAO DEUS",
      "house": "97",
      "postcode": "2950-731",
      "city": "QUINTA DO ANJO",
      "lon": "-8.940544686757535",
      "lat": "38.564063989776"
    },
    {
      "id": "pt.ine.add.PTCONT.5126502",
      "street": "R D JORGE DE LENCASTRE",
      "house": "",
      "postcode": "2950-739",
      "city": "QUINTA DO ANJO",
      "lon": "-8.939762448584588",
      "lat": "38.565934085346505"
    }
  ]
}