{
  "data": {
    "distrito": "Setúbal",
    "concelho": "Palmela",
    "freguesia": "Quinta do Anjo",
    "OBJECTID": 723,
    "BGRI2021": "15080400314",
    "DT21": "15",
    "DTMN21": "1508",
    "DTMNFR21": "150804",
    "DTMNFRSEC21": "150804003",
    "SECNUM21": "003",
    "SSNUM21": "14",
    "SECSSNUM21": "00314",
    "OBJECTID_1": 166004,
    "DT": "15",
    "CC": "08",
    "fr": "04",
    "SEC": "003",
    "SS": "14"
  },
  "addresses": [
    {
      "id": "pt.ine.add.PTCONT.4664314",
      "street": "R JOÃO DE DEUS",
      "house": "58",
      "postcode": "2950-731",
      "city": "QUINTA DO ANJO",
      "lon": "-8.941566286119532",
      "lat": "38.56512891704585"
    },
    {
      "id": "pt.ine.add.PTCONT.4670113",
      "street": "R SABUGUEIRO",
      "house": "27",
      "postcode": "2950-734",
      "city": "QUINTA DO ANJO",
      "lon": "-8.942721952427762",
      "lat": "38.56586861191631"
    },
    {
      "id": "pt.ine.add.PTCONT.4670218",
      "street": "R SABUGUEIRO",
      "house": "27",
      "postcode": "2950-734",
      "city": "QUINTA DO ANJO",
      "lon": "-8.942721952427762",
      "lat": "38.56586861191631"
    },
    {
      "id": "pt.ine.add.PTCONT.4670220",
      "street": "R SABUGUEIRO",
      "house": "27",
      "postcode": "2950-734",
      "city": "QUINTA DO ANJO",
      "lon": "-8.942721952427762",
      "lat": "38.56586861191631"
    },
    {
      "id": "pt.ine.add.PTCONT.4670225",
      "street": "R SABUGUEIRO",
      "house": "27",
      "postcode": "2950-734",
      "city": "QUINTA DO ANJO",
      "lon": "-8.942721952427762",
      "lat": "38.56586861191631"
    },
    {
      "id": "pt.ine.add.PTCONT.4714608",
      "street": "R JOÃO DE DEUS",
      "house": "",
      "postcode": "2950-731",
      "city": "QUINTA DO ANJO",
      "lon": "-8.94166765756591",
      "lat": "38.56598399797431"
    },
    {
      "id": "pt.ine.add.PTCONT.4718331",
      "street": "R JOÃO DE DEUS",
      "house": "56",
      "postcode": "2950-731",
      "city": "QUINTA DO ANJO",
      "lon": "-8.941578869097494",
      "lat": "38.56522792058994"
    },
    {
      "id": "pt.ine.add.PTCONT.4726086",
      "street": "R JOÃO DE DEUS",
      "house": "",
      "postcode": "2950-731",
      "city": "QUINTA DO ANJO",
      "lon": "-8.942344300399796",
      "lat": "38.56697923451263"
    },
    {
      "id": "pt.ine.add.PTCONT.4740636",
      "street": "R VENÂNCIO DA COSTA LIMA",
      "house": "",
      "postcode": "2950-701",
      "city": "QUINTA DO ANJO",
      "lon": "-8.942697438670654",
      "lat": "38.56675158708444"
    },
    {
      "id": "pt.ine.add.PTCONT.4744225",
      "street": "R JOÃO DE DEUS",
      "house": "",
      "postcode": "2950-731",
      "city": "QUINTA DO ANJO",
      "lon": "-8.941716173856692",
      "lat": "38.56621787658926"
    },
    {
      "id": "pt.ine.add.PTCONT.4773235",
      "street": "R SABUGUEIRO",
      "house": "9",
      "postcode": "2950-734",
      "city": "QUINTA DO ANJO",
      "lon": "-8.943264515894354",
      "lat": "38.56616212924414"
    },
    {
      "id": "pt.ine.add.PTCONT.4781501",
      "street": "R VENÂNCIO DA COSTA LIMA",
      "house": "",
      "postcode": "2950-701",
      "city": "QUINTA DO ANJO",
      "lon": "-8.943187846101276",
      "lat": "38.56648695580262"
    },
    {
      "id": "pt.ine.add.PTCONT.4792702",
      "street": "R JOÃO DE DEUS",
      "house": "",
      "postcode": "2950-731",
      "city": "QUINTA DO ANJO",
      "lon": "-8.941604237027255",
      "lat": "38.56544394271859"
    },
    {
      "id": "pt.ine.add.PTCONT.4813024",
      "street": "R SABUGUEIRO",
      "house": "45",
      "postcode": "2950-734",
      "city": "QUINTA DO ANJO",
      "lon": "-8.941861044620145",
      "lat": "38.56481159306099"
    },
    {
      "id": "pt.ine.add.PTCONT.4813025",
      "street": "R VENÂNCIO DA COSTA LIMA",
      "house": "",
      "postcode": "2950-701",
      "city": "QUINTA DO ANJO",
      "lon": "-8.94335923283442",
      "lat": "38.56642271203364"
    },
    {
      "id": "pt.ine.add.PTCONT.4826126",
      "street": "R SABUGUEIRO",
      "house": "",
      "postcode": "2950-734",
      "city": "QUINTA DO ANJO",
      "lon": "-8.94288560569759",
      "lat": "38.56613772650515"
    },
    {
      "id": "pt.ine.add.PTCONT.4826124",
      "street": "R SABUGUEIRO",
      "house": "",
      "postcode": "2950-734",
      "city": "QUINTA DO ANJO",
      "lon": "-8.94288560569759",
      "lat": "38.56613772650515"
    },
    {
      "id": "pt.ine.add.PTCONT.4826125",
      "street": "R SABUGUEIRO",
      "house": "",
      "postcode": "2950-734",
      "city": "QUINTA DO ANJO",
      "lon": "-8.94288560569759",
      "lat": "38.56613772650515"
    },
    {
      "id": "pt.ine.add.PTCONT.4826127",
      "street": "R SABUGUEIRO",
      "house": "",
      "postcode": "2950-734",
      "city": "QUINTA DO ANJO",
      "lon": "-8.94288560569759",
      "lat": "38.56613772650515"
    },
    {
      "id": "pt.ine.add.PTCONT.4836308",
      "street": "R SABUGUEIRO",
      "house": "39",
      "postcode": "2950-734",
      "city": "QUINTA DO ANJO",
      "lon": "-8.942640833690593",
      "lat": "38.56579710718407"
    },
    {
      "id": "pt.ine.add.PTCONT.4836309",
      "street": "R SABUGUEIRO",
      "house": "39",
      "postcode": "2950-734",
      "city": "QUINTA DO ANJO",
      "lon": "-8.942640833690593",
      "lat": "38.56579710718407"
    },
    {
      "id": "pt.ine.add.PTCONT.4838939",
      "street": "R SABUGUEIRO",
      "house": "39",
      "postcode": "2950-734",
      "city": "QUINTA DO ANJO",
      "lon": "-8.942640833690593",
      "lat": "38.56579710718407"
    },
    {
      "id": "pt.ine.add.PTCONT.4858969",
      "street": "R SABUGUEIRO",
      "house": "41",
      "postcode": "2950-734",
      "city": "QUINTA DO ANJO",
      "lon": "-8.942233525251108",
      "lat": "38.565286454731584"
    },
    {
      "id": "pt.ine.add.PTCONT.4903160",
      "street": "R SABUGUEIRO",
      "house": "5",
      "postcode": "2950-734",
      "city": "QUINTA DO ANJO",
      "lon": "-8.94340219112375",
      "lat": "38.566161176276914"
    },
    {
      "id": "pt.ine.add.PTCONT.4914960",
      "street": "R SABUGUEIRO",
      "house": "43",
      "postcode": "2950-734",
      "city": "QUINTA DO ANJO",
      "lon": "-8.941977185534977",
      "lat": "38.56493690568677"
    },
    {
      "id": "pt.ine.add.PTCONT.4925580",
      "street": "R JOÃO DE DEUS",
      "house": "",
      "postcode": "2950-731",
      "city": "QUINTA DO ANJO",
      "lon": "-8.9418212477084",
      "lat": "38.56637929866722"
    },
    {
      "id": "pt.ine.add.PTCONT.4929765",
      "street": "R JOÃO DE DEUS",
      "house": "",
      "postcode": "2950-731",
      "city": "QUINTA DO ANJO",
      "lon": "-8.941642390165542",
      "lat": "38.56577698340806"
    },
    {
      "id": "pt.ine.add.PTCONT.4940016",
      "street": "R JOÃO DE DEUS",
      "house": "",
      "postcode": "2950-731",
      "city": "QUINTA DO ANJO",
      "lon": "-8.94160514541342",
      "lat": "38.56552501044589"
    },
    {
      "id": "pt.ine.add.PTCONT.4953221",
      "street": "R SABUGUEIRO",
      "house": "1 3",
      "postcode": "2950-734",
      "city": "QUINTA DO ANJO",
      "lon": "-8.94358626399441",
      "lat": "38.56620494300087"
    },
    {
      "id": "pt.ine.add.PTCONT.4953222",
      "street": "R SABUGUEIRO",
      "house": "1 3",
      "postcode": "2950-734",
      "city": "QUINTA DO ANJO",
      "lon": "-8.94358626399441",
      "lat": "38.56620494300087"
    },
    {
      "id": "pt.ine.add.PTCONT.4954318",
      "street": "R JOÃO DE DEUS",
      "house": "",
      "postcode": "2950-731",
      "city": "QUINTA DO ANJO",
      "lon": "-8.943496605043816",
      "lat": "38.566394736390755"
    },
    {
      "id": "pt.ine.add.PTCONT.4957270",
      "street": "BC SABUGUEIRO",
      "house": "BL C",
      "postcode": "2950-734",
      "city": "QUINTA DO ANJO",
      "lon": "-8.942598883410518",
      "lat": "38.56614871792615"
    },
    {
      "id": "pt.ine.add.PTCONT.4957271",
      "street": "BC SABUGUEIRO",
      "house": "BL C",
      "postcode": "2950-734",
      "city": "QUINTA DO ANJO",
      "lon": "-8.942598883410518",
      "lat": "38.56614871792615"
    },
    {
      "id": "pt.ine.add.PTCONT.4957272",
      "street": "BC SABUGUEIRO",
      "house": "BL C",
      "postcode": "2950-734",
      "city": "QUINTA DO ANJO",
      "lon": "-8.942598883410518",
      "lat": "38.56614871792615"
    },
    {
      "id": "pt.ine.add.PTCONT.4957273",
      "street": "BC SABUGUEIRO",
      "house": "BL C",
      "postcode": "2950-734",
      "city": "QUINTA DO ANJO",
      "lon": "-8.942598883410518",
      "lat": "38.56614871792615"
    },
    {
      "id": "pt.ine.add.PTCONT.4957274",
      "street": "BC SABUGUEIRO",
      "house": "BL C",
      "postcode": "2950-734",
      "city": "QUINTA DO ANJO",
      "lon": "-8.942598883410518",
      "lat": "38.56614871792615"
    },
    {
      "id": "pt.ine.add.PTCONT.4957275",
      "street": "BC SABUGUEIRO",
      "house": "BL C",
      "postcode": "2950-734",
      "city": "QUINTA DO ANJO",
      "lon": "-8.942598883410518",
      "lat": "38.56614871792615"
    },
    {
      "id": "pt.ine.add.PTCONT.4990531",
      "street": "R JOÃO DE DEUS",
      "house": "",
      "postcode": "2950-731",
      "city": "QUINTA DO ANJO",
      "lon": "-8.941730740959054",
      "lat": "38.56547009355004"
    },
    {
      "id": "pt.ine.add.PTCONT.4998087",
      "street": "R JOÃO DE DEUS",
      "house": "",
      "postcode": "2950-731",
      "city": "QUINTA DO ANJO",
      "lon": "-8.941788746989806",
      "lat": "38.566550679403825"
    },
    {
      "id": "pt.ine.add.PTCONT.4998099",
      "street": "R SABUGUEIRO",
      "house": "",
      "postcode": "2950-734",
      "city": "QUINTA DO ANJO",
      "lon": "-8.943346950636403",
      "lat": "38.56635073129014"
    },
    {
      "id": "pt.ine.add.PTCONT.5008589",
      "street": "R JOÃO DE DEUS",
      "house": "62",
      "postcode": "2950-731",
      "city": "QUINTA DO ANJO",
      "lon": "-8.941565276864592",
      "lat": "38.56503884178627"
    },
    {
      "id": "pt.ine.add.PTCONT.5008590",
      "street": "R JOÃO DE DEUS",
      "house": "",
      "postcode": "2950-731",
      "city": "QUINTA DO ANJO",
      "lon": "-8.941728656306148",
      "lat": "38.56630787257095"
    },
    {
      "id": "pt.ine.add.PTCONT.5027558",
      "street": "R JOÃO DE DEUS",
      "house": "",
      "postcode": "2950-731",
      "city": "QUINTA DO ANJO",
      "lon": "-8.94168034179609",
      "lat": "38.566092009014156"
    },
    {
      "id": "pt.ine.add.PTCONT.5030975",
      "street": "R JOÃO DE DEUS",
      "house": "",
      "postcode": "2950-731",
      "city": "QUINTA DO ANJO",
      "lon": "-8.941591754901296",
      "lat": "38.565353946707134"
    },
    {
      "id": "pt.ine.add.PTCONT.5034491",
      "street": "R JOÃO DE DEUS",
      "house": "",
      "postcode": "2950-731",
      "city": "QUINTA DO ANJO",
      "lon": "-8.941643197667446",
      "lat": "38.56584904360533"
    },
    {
      "id": "pt.ine.add.PTCONT.5051993",
      "street": "R SABUGUEIRO",
      "house": "",
      "postcode": "2950-734",
      "city": "QUINTA DO ANJO",
      "lon": "-8.943081151148858",
      "lat": "38.56618141465711"
    },
    {
      "id": "pt.ine.add.PTCONT.5051994",
      "street": "R SABUGUEIRO",
      "house": "",
      "postcode": "2950-734",
      "city": "QUINTA DO ANJO",
      "lon": "-8.943081151148858",
      "lat": "38.56618141465711"
    },
    {
      "id": "pt.ine.add.PTCONT.5051995",
      "street": "R SABUGUEIRO",
      "house": "",
      "postcode": "2950-734",
      "city": "QUINTA DO ANJO",
      "lon": "-8.943081151148858",
      "lat": "38.56618141465711"
    },
    {
      "id": "pt.ine.add.PTCONT.5052000",
      "street": "R SABUGUEIRO",
      "house": "",
      "postcode": "2950-734",
      "city": "QUINTA DO ANJO",
      "lon": "-8.943081151148858",
      "lat": "38.56618141465711"
    },
    {
      "id": "pt.ine.add.PTCONT.5064029",
      "street": "R JOÃO DE DEUS",
      "house": "",
      "postcode": "2950-731",
      "city": "QUINTA DO ANJO",
      "lon": "-8.94179016041491",
      "lat": "38.56667678472723"
    },
    {
      "id": "pt.ine.add.PTCONT.5067749",
      "street": "R JOÃO DE DEUS",
      "house": "",
      "postcode": "2950-731",
      "city": "QUINTA DO ANJO",
      "lon": "-8.941629504184753",
      "lat": "38.56565095730727"
    },
    {
      "id": "pt.ine.add.PTCONT.5072131",
      "street": "R VENÂNCIO DA COSTA LIMA",
      "house": "36",
      "postcode": "2950-701",
      "city": "QUINTA DO ANJO",
      "lon": "-8.943633875955724",
      "lat": "38.56635775306829"
    },
    {
      "id": "pt.ine.add.PTCONT.5100541",
      "street": "R MANUEL JOÃO DE LIMA SIMÕES",
      "house": "7",
      "postcode": "2950-743",
      "city": "QUINTA DO ANJO",
      "lon": "-8.943333353509866",
      "lat": "38.56616165278077"
    },
    {
      "id": "pt.ine.add.PTCONT.5110028",
      "street": "LG JOAQUIM ANTONIO BOTELHO DONGA",
      "house": "2",
      "postcode": "2950-713",
      "city": "QUINTA DO ANJO",
      "lon": "-8.941585497345917",
      "lat": "38.56479548010005"
    },
    {
      "id": "pt.ine.add.PTCONT.5110029",
      "street": "LG JOAQUIM ANTONIO BOTELHO DONGA",
      "house": "2",
      "postcode": "2950-713",
      "city": "QUINTA DO ANJO",
      "lon": "-8.941585497345917",
      "lat": "38.56479548010005"
    },
    {
      "id": "pt.ine.add.PTCONT.5120068",
      "street": "BC SABUGUEIRO",
      "house": "",
      "postcode": "2950-734",
      "city": "QUINTA DO ANJO",
      "lon": "-8.94240485383706",
      "lat": "38.56624014180027"
    },
    {
      "id": "pt.ine.add.PTCONT.5120069",
      "street": "BC SABUGUEIRO",
      "house": "",
      "postcode": "2950-734",
      "city": "QUINTA DO ANJO",
      "lon": "-8.94240485383706",
      "lat": "38.56624014180027"
    },
    {
      "id": "pt.ine.add.PTCONT.5120070",
      "street": "BC SABUGUEIRO",
      "house": "",
      "postcode": "2950-734",
      "city": "QUINTA DO ANJO",
      "lon": "-8.94240485383706",
      "lat": "38.56624014180027"
    },
    {
      "id": "pt.ine.add.PTCONT.5120071",
      "street": "BC SABUGUEIRO",
      "house": "",
      "postcode": "2950-734",
      "city": "QUINTA DO ANJO",
      "lon": "-8.94240485383706",
      "lat": "38.56624014180027"
    },
    {
      "id": "pt.ine.add.PTCONT.5120072",
      "street": "BC SABUGUEIRO",
      "house": "",
      "postcode": "2950-734",
      "city": "QUINTA DO ANJO",
      "lon": "-8.94240485383706",
      "lat": "38.56624014180027"
    },
    {
      "id": "pt.ine.add.PTCONT.5120073",
      "street": "BC SABUGUEIRO",
      "house": "",
      "postcode": "2950-734",
      "city": "QUINTA DO ANJO",
      "lon": "-8.94240485383706",
      "lat": "38.56624014180027"
    },
    {
      "id": "pt.ine.add.PTCONT.5128266",
      "street": "R VENÂNCIO DA COSTA LIMA",
      "house": "",
      "postcode": "2950-701",
      "city": "QUINTA DO ANJO",
      "lon": "-8.942960004010148",
      "lat": "38.566632663911754"
    }
  ]
}