{
  "data": {
    "distrito": "Viseu",
    "concelho": "Viseu",
    "freguesia": "São João de Lourosa",
    "OBJECTID": 62,
    "BGRI2021": "18232700320",
    "DT21": "18",
    "DTMN21": "1823",
    "DTMNFR21": "182327",
    "DTMNFRSEC21": "182327003",
    "SECNUM21": "003",
    "SSNUM21": "20",
    "SECSSNUM21": "00320",
    "OBJECTID_1": 200631,
    "DT": "18",
    "CC": "23",
    "fr": "27",
    "SEC": "003",
    "SS": "20"
  },
  "addresses": [
    {
      "id": "pt.ine.add.PTCONT.5454175",
      "street": "QTA SERRADO",
      "house": "",
      "postcode": "3500-886",
      "city": "VISEU",
      "lon": "-7.880884165640528",
      "lat": "40.62422788618242"
    },
    {
      "id": "pt.ine.add.PTCONT.5464771",
      "street": "LG ENG MANUEL ENGRACIA CARRILHO",
      "house": "120",
      "postcode": "3500-886",
      "city": "VISEU",
      "lon": "-7.880122612745244",
      "lat": "40.62246119894529"
    },
    {
      "id": "pt.ine.add.PTCONT.5468431",
      "street": "LG ENG MANUEL ENGRACIA CARRILHO",
      "house": "124",
      "postcode": "3500-886",
      "city": "VISEU",
      "lon": "-7.880170191822208",
      "lat": "40.62238025623476"
    },
    {
      "id": "pt.ine.add.PTCONT.5468432",
      "street": "QTA TARUGOS",
      "house": "",
      "postcode": "3500-886",
      "city": "VISEU",
      "lon": "-7.8826380131970515",
      "lat": "40.62614080750937"
    },
    {
      "id": "pt.ine.add.PTCONT.5471136",
      "street": "R PRINCIPAL",
      "house": "",
      "postcode": "3500-886",
      "city": "VISEU",
      "lon": "-7.880249117050274",
      "lat": "40.62652282582486"
    },
    {
      "id": "pt.ine.add.PTCONT.5471137",
      "street": "R PRINCIPAL",
      "house": "",
      "postcode": "3500-886",
      "city": "VISEU",
      "lon": "-7.880249117050274",
      "lat": "40.62652282582486"
    },
    {
      "id": "pt.ine.add.PTCONT.5474087",
      "street": "R PRINCIPAL DE COIMBROES",
      "house": "18",
      "postcode": "3500-886",
      "city": "VISEU",
      "lon": "-7.880012531972788",
      "lat": "40.62657633883835"
    },
    {
      "id": "pt.ine.add.PTCONT.5474088",
      "street": "R PRINCIPAL DE COIMBROES",
      "house": "18",
      "postcode": "3500-886",
      "city": "VISEU",
      "lon": "-7.880012531972788",
      "lat": "40.62657633883835"
    },
    {
      "id": "pt.ine.add.PTCONT.5481219",
      "street": "R PRINCIPAL",
      "house": "98",
      "postcode": "3500-886",
      "city": "VISEU",
      "lon": "-7.879684993853592",
      "lat": "40.62255029165464"
    },
    {
      "id": "pt.ine.add.PTCONT.5483011",
      "street": "LG ENG MANUEL ENGRACIA CARRILHO",
      "house": "",
      "postcode": "3500-886",
      "city": "VISEU",
      "lon": "-7.8799101206619975",
      "lat": "40.622397696796035"
    },
    {
      "id": "pt.ine.add.PTCONT.5483795",
      "street": "R CARREIRA DA COVA",
      "house": "66",
      "postcode": "3500-886",
      "city": "VISEU",
      "lon": "-7.879904985939334",
      "lat": "40.62375747262171"
    },
    {
      "id": "pt.ine.add.PTCONT.5490167",
      "street": "R JORGE",
      "house": "",
      "postcode": "3500-886",
      "city": "VISEU",
      "lon": "-7.883892399500693",
      "lat": "40.625720276339614"
    },
    {
      "id": "pt.ine.add.PTCONT.5492206",
      "street": "R CARREIRA DA COVA",
      "house": "64",
      "postcode": "3500-886",
      "city": "VISEU",
      "lon": "-7.879903625689206",
      "lat": "40.62411767808453"
    },
    {
      "id": "pt.ine.add.PTCONT.5492207",
      "street": "R CARREIRA DA COVA",
      "house": "64",
      "postcode": "3500-886",
      "city": "VISEU",
      "lon": "-7.879903625689206",
      "lat": "40.62411767808453"
    },
    {
      "id": "pt.ine.add.PTCONT.5492208",
      "street": "R CARREIRA DA COVA",
      "house": "64",
      "postcode": "3500-886",
      "city": "VISEU",
      "lon": "-7.879903625689206",
      "lat": "40.62411767808453"
    },
    {
      "id": "pt.ine.add.PTCONT.5492219",
      "street": "R CARREIRA DA COVA",
      "house": "64",
      "postcode": "3500-886",
      "city": "VISEU",
      "lon": "-7.879903625689206",
      "lat": "40.62411767808453"
    },
    {
      "id": "pt.ine.add.PTCONT.5514426",
      "street": "QTA TARUGOS",
      "house": "",
      "postcode": "3500-886",
      "city": "VISEU",
      "lon": "-7.881171477179485",
      "lat": "40.62639876868235"
    },
    {
      "id": "pt.ine.add.PTCONT.5530982",
      "street": "LG ENG MANUEL ENGRACIA CARRILHO",
      "house": "",
      "postcode": "3500-886",
      "city": "VISEU",
      "lon": "-7.88004022423091",
      "lat": "40.622370966310456"
    },
    {
      "id": "pt.ine.add.PTCONT.5538080",
      "street": "QTA SERRADO",
      "house": "",
      "postcode": "3500-886",
      "city": "VISEU",
      "lon": "-7.879532071472398",
      "lat": "40.62548565477363"
    },
    {
      "id": "pt.ine.add.PTCONT.5548902",
      "street": "ZN INDUSTRIAL COIMBROES",
      "house": "",
      "postcode": "3500-886",
      "city": "VISEU",
      "lon": "-7.884052445163052",
      "lat": "40.62717946522551"
    },
    {
      "id": "pt.ine.add.PTCONT.5550235",
      "street": "QTA SERRADO",
      "house": "FRACC B",
      "postcode": "3500-886",
      "city": "VISEU",
      "lon": "-7.879543617891861",
      "lat": "40.625557721793584"
    },
    {
      "id": "pt.ine.add.PTCONT.5590894",
      "street": "R JORGE",
      "house": "",
      "postcode": "3500-886",
      "city": "VISEU",
      "lon": "-7.882589719002417",
      "lat": "40.62325003027819"
    },
    {
      "id": "pt.ine.add.PTCONT.5600103",
      "street": "R PRINCIPAL",
      "house": "90-92",
      "postcode": "3500-886",
      "city": "VISEU",
      "lon": "-7.879720210712804",
      "lat": "40.6226134054171"
    },
    {
      "id": "pt.ine.add.PTCONT.5607217",
      "street": "QTA SERRADO",
      "house": "",
      "postcode": "3500-886",
      "city": "VISEU",
      "lon": "-7.880331065466251",
      "lat": "40.623596312154795"
    },
    {
      "id": "pt.ine.add.PTCONT.5608250",
      "street": "R PRINCIPAL",
      "house": "86",
      "postcode": "3500-886",
      "city": "VISEU",
      "lon": "-7.879743575234598",
      "lat": "40.62268549838062"
    },
    {
      "id": "pt.ine.add.PTCONT.5613322",
      "street": "R PRINCIPAL",
      "house": "58",
      "postcode": "3500-886",
      "city": "VISEU",
      "lon": "-7.8793925281431125",
      "lat": "40.62488199929282"
    },
    {
      "id": "pt.ine.add.PTCONT.5634779",
      "street": "R JORGE",
      "house": "",
      "postcode": "3500-886",
      "city": "VISEU",
      "lon": "-7.884585977101178",
      "lat": "40.62673035421216"
    },
    {
      "id": "pt.ine.add.PTCONT.5653581",
      "street": "R PRINCIPAL DE COIMBROES",
      "house": "14",
      "postcode": "3500-886",
      "city": "VISEU",
      "lon": "-7.880094891604344",
      "lat": "40.626675576574854"
    },
    {
      "id": "pt.ine.add.PTCONT.5653582",
      "street": "R PRINCIPAL DE COIMBROES",
      "house": "14",
      "postcode": "3500-886",
      "city": "VISEU",
      "lon": "-7.880094891604344",
      "lat": "40.626675576574854"
    },
    {
      "id": "pt.ine.add.PTCONT.5662503",
      "street": "R SOSSEGO",
      "house": "10",
      "postcode": "3500-886",
      "city": "VISEU",
      "lon": "-7.880677769614218",
      "lat": "40.62254346059146"
    }
  ]
}