{
  "data": {
    "distrito": "Leiria",
    "concelho": "Alcobaça",
    "freguesia": "União das freguesias de Pataias e Martingança",
    "OBJECTID": 540,
    "BGRI2021": "10012300701",
    "DT21": "10",
    "DTMN21": "1001",
    "DTMNFR21": "100123",
    "DTMNFRSEC21": "100123007",
    "SECNUM21": "007",
    "SSNUM21": "01",
    "SECSSNUM21": "00701",
    "OBJECTID_1": 84352,
    "DT": "10",
    "CC": "01",
    "fr": "23",
    "SEC": "007",
    "SS": "01"
  },
  "addresses": [
    {
      "id": "pt.ine.add.PTCONT.1979940",
      "street": "R SEGREL",
      "house": "1",
      "postcode": "2445-431",
      "city": "PATAIAS",
      "lon": "-9.04322260317684",
      "lat": "39.7264586285563"
    },
    {
      "id": "pt.ine.add.PTCONT.1979941",
      "street": "R SEGREL",
      "house": "1",
      "postcode": "2445-431",
      "city": "PATAIAS",
      "lon": "-9.04322260317684",
      "lat": "39.7264586285563"
    },
    {
      "id": "pt.ine.add.PTCONT.1988739",
      "street": "R SEGREL",
      "house": "5",
      "postcode": "2445-431",
      "city": "PATAIAS",
      "lon": "-9.042932696360483",
      "lat": "39.72658699082335"
    },
    {
      "id": "pt.ine.add.PTCONT.1999057",
      "street": "R SEGREL",
      "house": "1",
      "postcode": "2445-431",
      "city": "PATAIAS",
      "lon": "-9.043142149248235",
      "lat": "39.72654932341945"
    },
    {
      "id": "pt.ine.add.PTCONT.1999114",
      "street": "R SEGREL",
      "house": "1",
      "postcode": "2445-431",
      "city": "PATAIAS",
      "lon": "-9.043142149248235",
      "lat": "39.72654932341945"
    },
    {
      "id": "pt.ine.add.PTCONT.1999115",
      "street": "R SEGREL",
      "house": "3",
      "postcode": "2445-431",
      "city": "PATAIAS",
      "lon": "-9.042881958929947",
      "lat": "39.72716379895435"
    },
    {
      "id": "pt.ine.add.PTCONT.1999116",
      "street": "R SEGREL",
      "house": "3",
      "postcode": "2445-431",
      "city": "PATAIAS",
      "lon": "-9.042881958929947",
      "lat": "39.72716379895435"
    },
    {
      "id": "pt.ine.add.PTCONT.2017218",
      "street": "R SEGREL",
      "house": "3",
      "postcode": "2445-431",
      "city": "PATAIAS",
      "lon": "-9.042801858824369",
      "lat": "39.72728151004273"
    },
    {
      "id": "pt.ine.add.PTCONT.2017219",
      "street": "R SEGREL",
      "house": "1",
      "postcode": "2445-431",
      "city": "PATAIAS",
      "lon": "-9.042801858824369",
      "lat": "39.72728151004273"
    },
    {
      "id": "pt.ine.add.PTCONT.2019861",
      "street": "R SEGREL",
      "house": "3",
      "postcode": "2445-431",
      "city": "PATAIAS",
      "lon": "-9.042894450203004",
      "lat": "39.727226745954624"
    },
    {
      "id": "pt.ine.add.PTCONT.2019862",
      "street": "R SEGREL",
      "house": "3",
      "postcode": "2445-431",
      "city": "PATAIAS",
      "lon": "-9.042894450203004",
      "lat": "39.727226745954624"
    },
    {
      "id": "pt.ine.add.PTCONT.2029617",
      "street": "R SEGREL",
      "house": "1",
      "postcode": "2445-431",
      "city": "PATAIAS",
      "lon": "-9.043288433902521",
      "lat": "39.72614288792137"
    },
    {
      "id": "pt.ine.add.PTCONT.2029618",
      "street": "R SEGREL",
      "house": "2",
      "postcode": "2445-431",
      "city": "PATAIAS",
      "lon": "-9.043109411041629",
      "lat": "39.726720701925466"
    },
    {
      "id": "pt.ine.add.PTCONT.2029619",
      "street": "R SEGREL",
      "house": "2",
      "postcode": "2445-431",
      "city": "PATAIAS",
      "lon": "-9.043109411041629",
      "lat": "39.726720701925466"
    },
    {
      "id": "pt.ine.add.PTCONT.2029925",
      "street": "R SEGREL",
      "house": "1",
      "postcode": "2445-431",
      "city": "PATAIAS",
      "lon": "-9.043288433902521",
      "lat": "39.72614288792137"
    },
    {
      "id": "pt.ine.add.PTCONT.2036081",
      "street": "R SEGREL",
      "house": "1",
      "postcode": "2445-431",
      "city": "PATAIAS",
      "lon": "-9.043291512769354",
      "lat": "39.72637703056456"
    },
    {
      "id": "pt.ine.add.PTCONT.2036082",
      "street": "R SEGREL",
      "house": "1",
      "postcode": "2445-431",
      "city": "PATAIAS",
      "lon": "-9.043291512769354",
      "lat": "39.72637703056456"
    },
    {
      "id": "pt.ine.add.PTCONT.2036083",
      "street": "R SEGREL",
      "house": "3",
      "postcode": "2445-431",
      "city": "PATAIAS",
      "lon": "-9.042927781029622",
      "lat": "39.72710039494478"
    },
    {
      "id": "pt.ine.add.PTCONT.2036084",
      "street": "R SEGREL",
      "house": "3",
      "postcode": "2445-431",
      "city": "PATAIAS",
      "lon": "-9.042927781029622",
      "lat": "39.72710039494478"
    },
    {
      "id": "pt.ine.add.PTCONT.2041285",
      "street": "R SEGREL",
      "house": "13",
      "postcode": "2445-431",
      "city": "PATAIAS",
      "lon": "-9.043505283728344",
      "lat": "39.72578093092582"
    },
    {
      "id": "pt.ine.add.PTCONT.2045722",
      "street": "R SEGREL",
      "house": "",
      "postcode": "2445-431",
      "city": "PATAIAS",
      "lon": "-9.043255577818234",
      "lat": "39.726305260987914"
    },
    {
      "id": "pt.ine.add.PTCONT.2045723",
      "street": "R SEGREL",
      "house": "1",
      "postcode": "2445-431",
      "city": "PATAIAS",
      "lon": "-9.043255577818234",
      "lat": "39.726305260987914"
    },
    {
      "id": "pt.ine.add.PTCONT.2059271",
      "street": "R SEGREL",
      "house": "1",
      "postcode": "2445-431",
      "city": "PATAIAS",
      "lon": "-9.043254275271073",
      "lat": "39.72620620063784"
    },
    {
      "id": "pt.ine.add.PTCONT.2078389",
      "street": "R SEGREL",
      "house": "2",
      "postcode": "2445-431",
      "city": "PATAIAS",
      "lon": "-9.042995981300622",
      "lat": "39.72696476421051"
    },
    {
      "id": "pt.ine.add.PTCONT.2080185",
      "street": "R SEGREL",
      "house": "2",
      "postcode": "2445-431",
      "city": "PATAIAS",
      "lon": "-9.042995981300622",
      "lat": "39.72696476421051"
    },
    {
      "id": "pt.ine.add.PTCONT.2097954",
      "street": "R SEGREL",
      "house": "2",
      "postcode": "2445-431",
      "city": "PATAIAS",
      "lon": "-9.043030140530911",
      "lat": "39.72690145157126"
    },
    {
      "id": "pt.ine.add.PTCONT.2097955",
      "street": "R SEGREL",
      "house": "2",
      "postcode": "2445-431",
      "city": "PATAIAS",
      "lon": "-9.043030140530911",
      "lat": "39.72690145157126"
    },
    {
      "id": "pt.ine.add.PTCONT.2101539",
      "street": "R SEGREL",
      "house": "1",
      "postcode": "2445-431",
      "city": "PATAIAS",
      "lon": "-9.043346035889565",
      "lat": "39.72608839779482"
    },
    {
      "id": "pt.ine.add.PTCONT.2101540",
      "street": "R SEGREL",
      "house": "1",
      "postcode": "2445-431",
      "city": "PATAIAS",
      "lon": "-9.043346035889565",
      "lat": "39.72608839779482"
    },
    {
      "id": "pt.ine.add.PTCONT.2112700",
      "street": "R SEGREL",
      "house": "6171 3",
      "postcode": "2445-431",
      "city": "PATAIAS",
      "lon": "-9.042673805798996",
      "lat": "39.7273005262567"
    },
    {
      "id": "pt.ine.add.PTCONT.2112701",
      "street": "R SEGREL",
      "house": "6171 3",
      "postcode": "2445-431",
      "city": "PATAIAS",
      "lon": "-9.042673805798996",
      "lat": "39.7273005262567"
    },
    {
      "id": "pt.ine.add.PTCONT.2112702",
      "street": "R SEGREL",
      "house": "6171 3",
      "postcode": "2445-431",
      "city": "PATAIAS",
      "lon": "-9.042673805798996",
      "lat": "39.7273005262567"
    },
    {
      "id": "pt.ine.add.PTCONT.2113794",
      "street": "R SEGREL",
      "house": "1",
      "postcode": "2445-431",
      "city": "PATAIAS",
      "lon": "-9.043209993349873",
      "lat": "39.726386676098684"
    },
    {
      "id": "pt.ine.add.PTCONT.2113795",
      "street": "R SEGREL",
      "house": "",
      "postcode": "2445-431",
      "city": "PATAIAS",
      "lon": "-9.043209993349873",
      "lat": "39.726386676098684"
    },
    {
      "id": "pt.ine.add.PTCONT.2135485",
      "street": "R SEGREL",
      "house": "1",
      "postcode": "2445-431",
      "city": "PATAIAS",
      "lon": "-9.043241191818105",
      "lat": "39.7260982262339"
    },
    {
      "id": "pt.ine.add.PTCONT.2135486",
      "street": "R SEGREL",
      "house": "1",
      "postcode": "2445-431",
      "city": "PATAIAS",
      "lon": "-9.043241191818105",
      "lat": "39.7260982262339"
    },
    {
      "id": "pt.ine.add.PTCONT.2173677",
      "street": "R SEGREL",
      "house": "",
      "postcode": "2445-431",
      "city": "PATAIAS",
      "lon": "-9.042826131121323",
      "lat": "39.72735337114264"
    },
    {
      "id": "pt.ine.add.PTCONT.2173678",
      "street": "R SEGREL",
      "house": "3",
      "postcode": "2445-431",
      "city": "PATAIAS",
      "lon": "-9.042826131121323",
      "lat": "39.72735337114264"
    },
    {
      "id": "pt.ine.add.PTCONT.2181312",
      "street": "R SEGREL",
      "house": "3",
      "postcode": "2445-431",
      "city": "PATAIAS",
      "lon": "-9.042602764577461",
      "lat": "39.727220025132944"
    },
    {
      "id": "pt.ine.add.PTCONT.2181313",
      "street": "R SEGREL",
      "house": "3",
      "postcode": "2445-431",
      "city": "PATAIAS",
      "lon": "-9.042602764577461",
      "lat": "39.727220025132944"
    },
    {
      "id": "pt.ine.add.PTCONT.2182925",
      "street": "R SEGREL",
      "house": "3",
      "postcode": "2445-431",
      "city": "PATAIAS",
      "lon": "-9.042602764577461",
      "lat": "39.727220025132944"
    },
    {
      "id": "pt.ine.add.PTCONT.2183490",
      "street": "R SEGREL",
      "house": "2",
      "postcode": "2445-431",
      "city": "PATAIAS",
      "lon": "-9.043064299699624",
      "lat": "39.72683813892203"
    },
    {
      "id": "pt.ine.add.PTCONT.2183491",
      "street": "R SEGREL",
      "house": "2",
      "postcode": "2445-431",
      "city": "PATAIAS",
      "lon": "-9.043064299699624",
      "lat": "39.72683813892203"
    },
    {
      "id": "pt.ine.add.PTCONT.2223599",
      "street": "R MIMOS",
      "house": "",
      "postcode": "2445-431",
      "city": "PATAIAS",
      "lon": "-9.043707862622842",
      "lat": "39.72522094430187"
    },
    {
      "id": "pt.ine.add.PTCONT.2252002",
      "street": "R SEGREL",
      "house": "2",
      "postcode": "2445-431",
      "city": "PATAIAS",
      "lon": "-9.04307513357815",
      "lat": "39.726775009102134"
    },
    {
      "id": "pt.ine.add.PTCONT.2252003",
      "street": "R SEGREL",
      "house": "2",
      "postcode": "2445-431",
      "city": "PATAIAS",
      "lon": "-9.04307513357815",
      "lat": "39.726775009102134"
    },
    {
      "id": "pt.ine.add.PTCONT.2267396",
      "street": "R SEGREL",
      "house": "1",
      "postcode": "2445-431",
      "city": "PATAIAS",
      "lon": "-9.043254275271073",
      "lat": "39.72620620063784"
    }
  ]
}