{
  "data": {
    "distrito": "Lisboa",
    "concelho": "Vila Franca de Xira",
    "freguesia": "União das freguesias de Alhandra, São João dos Montes e Calhandriz",
    "OBJECTID": 1035,
    "BGRI2021": "11141201006",
    "DT21": "11",
    "DTMN21": "1114",
    "DTMNFR21": "111412",
    "DTMNFRSEC21": "111412010",
    "SECNUM21": "010",
    "SSNUM21": "06",
    "SECSSNUM21": "01006",
    "OBJECTID_1": 117499,
    "DT": "11",
    "CC": "14",
    "fr": "12",
    "SEC": "010",
    "SS": "06"
  },
  "addresses": [
    {
      "id": "pt.ine.add.PTCONT.2282918",
      "street": "URB CASAL PINHEIRO",
      "house": "5",
      "postcode": "2600-782",
      "city": "SÃO JOÃO DOS MONTES",
      "lon": "-9.018382367204817",
      "lat": "38.94044581642768"
    },
    {
      "id": "pt.ine.add.PTCONT.2337142",
      "street": "URB CASAL PINHEIRO",
      "house": "54",
      "postcode": "2600-782",
      "city": "SÃO JOÃO DOS MONTES",
      "lon": "-9.01906930260108",
      "lat": "38.9409630459233"
    },
    {
      "id": "pt.ine.add.PTCONT.2546456",
      "street": "URB CASAL PINHEIRO",
      "house": "",
      "postcode": "2600-782",
      "city": "SÃO JOÃO DOS MONTES",
      "lon": "-9.019179810605456",
      "lat": "38.940574879573354"
    },
    {
      "id": "pt.ine.add.PTCONT.2582768",
      "street": "URB CASAL PINHEIRO",
      "house": "53",
      "postcode": "2600-782",
      "city": "SÃO JOÃO DOS MONTES",
      "lon": "-9.019163247096731",
      "lat": "38.94109744701793"
    },
    {
      "id": "pt.ine.add.PTCONT.2715531",
      "street": "URB CASAL PINHEIRO CASA MONTE VERDE",
      "house": "55",
      "postcode": "2600-782",
      "city": "SÃO JOÃO DOS MONTES",
      "lon": "-9.018998424146972",
      "lat": "38.940828469679516"
    },
    {
      "id": "pt.ine.add.PTCONT.2792626",
      "street": "URB CASAL PINHEIRO",
      "house": "3",
      "postcode": "2600-782",
      "city": "SÃO JOÃO DOS MONTES",
      "lon": "-9.018835619593206",
      "lat": "38.940721613862976"
    },
    {
      "id": "pt.ine.add.PTCONT.2877163",
      "street": "URB CASAL PINHEIRO",
      "house": "",
      "postcode": "2600-782",
      "city": "SÃO JOÃO DOS MONTES",
      "lon": "-9.019296820424582",
      "lat": "38.9407091054666"
    },
    {
      "id": "pt.ine.add.PTCONT.2884764",
      "street": "R ALIANÇA OPERÁRIA",
      "house": "13",
      "postcode": "2600-782",
      "city": "SÃO JOÃO DOS MONTES",
      "lon": "-9.018230313312882",
      "lat": "38.94027582489348"
    },
    {
      "id": "pt.ine.add.PTCONT.2884765",
      "street": "R ALIANÇA OPERÁRIA",
      "house": "13",
      "postcode": "2600-782",
      "city": "SÃO JOÃO DOS MONTES",
      "lon": "-9.018230313312882",
      "lat": "38.94027582489348"
    },
    {
      "id": "pt.ine.add.PTCONT.3301188",
      "street": "URB CASAL PINHEIRO",
      "house": "4",
      "postcode": "2600-782",
      "city": "SÃO JOÃO DOS MONTES",
      "lon": "-9.018614815380756",
      "lat": "38.9405881750074"
    },
    {
      "id": "pt.ine.add.PTCONT.3356494",
      "street": "URB CASAL PINHEIRO",
      "house": "70",
      "postcode": "2600-782",
      "city": "SÃO JOÃO DOS MONTES",
      "lon": "-9.019425587807655",
      "lat": "38.94086125718613"
    }
  ]
}