{
  "data": {
    "distrito": "Lisboa",
    "concelho": "Vila Franca de Xira",
    "freguesia": "União das freguesias de Alhandra, São João dos Montes e Calhandriz",
    "OBJECTID": 364,
    "BGRI2021": "11141201015",
    "DT21": "11",
    "DTMN21": "1114",
    "DTMNFR21": "111412",
    "DTMNFRSEC21": "111412010",
    "SECNUM21": "010",
    "SSNUM21": "15",
    "SECSSNUM21": "01015",
    "OBJECTID_1": 118187,
    "DT": "11",
    "CC": "14",
    "fr": "12",
    "SEC": "010",
    "SS": "15"
  },
  "addresses": [
    {
      "id": "pt.ine.add.PTCONT.2282914",
      "street": "",
      "house": "",
      "postcode": "2600-840",
      "city": "SÃO JOÃO DOS MONTES",
      "lon": "-9.029154886605523",
      "lat": "38.95967589983243"
    },
    {
      "id": "pt.ine.add.PTCONT.2310125",
      "street": "",
      "house": "",
      "postcode": "2600-840",
      "city": "SÃO JOÃO DOS MONTES",
      "lon": "-9.02756463550833",
      "lat": "38.95982321284329"
    },
    {
      "id": "pt.ine.add.PTCONT.2346994",
      "street": "",
      "house": "",
      "postcode": "2600-820",
      "city": "SÃO JOÃO DOS MONTES",
      "lon": "-9.027236762750187",
      "lat": "38.95943839928766"
    },
    {
      "id": "pt.ine.add.PTCONT.2410529",
      "street": "",
      "house": "",
      "postcode": "2600-840",
      "city": "SÃO JOÃO DOS MONTES",
      "lon": "-9.02955882089483",
      "lat": "38.956024725967836"
    },
    {
      "id": "pt.ine.add.PTCONT.2419910",
      "street": "SIT RONDULHA",
      "house": "2",
      "postcode": "2600-840",
      "city": "SÃO JOÃO DOS MONTES",
      "lon": "-9.029165628341353",
      "lat": "38.95961276428196"
    },
    {
      "id": "pt.ine.add.PTCONT.2448227",
      "street": "R ALVES REDOL",
      "house": "7",
      "postcode": "2600-840",
      "city": "SÃO JOÃO DOS MONTES",
      "lon": "-9.030141811979489",
      "lat": "38.95834420332877"
    },
    {
      "id": "pt.ine.add.PTCONT.2455968",
      "street": "R IGREJA",
      "house": "",
      "postcode": "2600-802",
      "city": "SÃO JOÃO DOS MONTES",
      "lon": "-9.029145357350309",
      "lat": "38.95891933606736"
    },
    {
      "id": "pt.ine.add.PTCONT.2465919",
      "street": "R ALVES REDOL",
      "house": "6",
      "postcode": "2600-840",
      "city": "SÃO JOÃO DOS MONTES",
      "lon": "-9.029424899757228",
      "lat": "38.958214597901666"
    },
    {
      "id": "pt.ine.add.PTCONT.2510329",
      "street": "",
      "house": "",
      "postcode": "2600-840",
      "city": "SÃO JOÃO DOS MONTES",
      "lon": "-9.034894151031345",
      "lat": "38.95828055503882"
    },
    {
      "id": "pt.ine.add.PTCONT.2537354",
      "street": "",
      "house": "",
      "postcode": "2600-840",
      "city": "SÃO JOÃO DOS MONTES",
      "lon": "-9.035059075337962",
      "lat": "38.958549507940674"
    },
    {
      "id": "pt.ine.add.PTCONT.2546453",
      "street": "EN DE ARRUDA",
      "house": "",
      "postcode": "2600-840",
      "city": "SÃO JOÃO DOS MONTES",
      "lon": "-9.028209965492469",
      "lat": "38.959764219446775"
    },
    {
      "id": "pt.ine.add.PTCONT.2624813",
      "street": "R HUGO FILIPE GUSTAVO COSTA E HORTA",
      "house": "",
      "postcode": "2600-840",
      "city": "SÃO JOÃO DOS MONTES",
      "lon": "-9.035928347990309",
      "lat": "38.957047527924466"
    },
    {
      "id": "pt.ine.add.PTCONT.2645925",
      "street": "R HUGO FILIPE GUSTAVO COSTA E HORTA",
      "house": "",
      "postcode": "2600-840",
      "city": "SÃO JOÃO DOS MONTES",
      "lon": "-9.035228798828495",
      "lat": "38.95737721051006"
    },
    {
      "id": "pt.ine.add.PTCONT.2679897",
      "street": "",
      "house": "",
      "postcode": "2600-840",
      "city": "SÃO JOÃO DOS MONTES",
      "lon": "-9.032796504033824",
      "lat": "38.954792794665074"
    },
    {
      "id": "pt.ine.add.PTCONT.2715534",
      "street": "",
      "house": "",
      "postcode": "2600-840",
      "city": "SÃO JOÃO DOS MONTES",
      "lon": "-9.02788512916093",
      "lat": "38.95870381566633"
    },
    {
      "id": "pt.ine.add.PTCONT.2715535",
      "street": "",
      "house": "",
      "postcode": "2600-840",
      "city": "SÃO JOÃO DOS MONTES",
      "lon": "-9.03142400890005",
      "lat": "38.95573114870729"
    },
    {
      "id": "pt.ine.add.PTCONT.2753555",
      "street": "CAM A PARCEIRA",
      "house": "1",
      "postcode": "2600-840",
      "city": "SÃO JOÃO DOS MONTES",
      "lon": "-9.029281100341112",
      "lat": "38.95962088519098"
    },
    {
      "id": "pt.ine.add.PTCONT.2774414",
      "street": "",
      "house": "",
      "postcode": "2600-840",
      "city": "SÃO JOÃO DOS MONTES",
      "lon": "-9.034485829728146",
      "lat": "38.958833171939524"
    },
    {
      "id": "pt.ine.add.PTCONT.2783903",
      "street": "R ALVES REDOL",
      "house": "",
      "postcode": "2600-840",
      "city": "SÃO JOÃO DOS MONTES",
      "lon": "-9.029536737900749",
      "lat": "38.9579345037851"
    },
    {
      "id": "pt.ine.add.PTCONT.2792625",
      "street": "ESTR ARRUDA",
      "house": "",
      "postcode": "2600-840",
      "city": "SÃO JOÃO DOS MONTES",
      "lon": "-9.027990783731676",
      "lat": "38.959765900366556"
    },
    {
      "id": "pt.ine.add.PTCONT.2802976",
      "street": "R ALVES REDOL",
      "house": "9",
      "postcode": "2600-840",
      "city": "SÃO JOÃO DOS MONTES",
      "lon": "-9.02975050813521",
      "lat": "38.95841927109172"
    },
    {
      "id": "pt.ine.add.PTCONT.2809419",
      "street": "",
      "house": "",
      "postcode": "2600-840",
      "city": "SÃO JOÃO DOS MONTES",
      "lon": "-9.027345340309992",
      "lat": "38.95981588583817"
    },
    {
      "id": "pt.ine.add.PTCONT.2814882",
      "street": "R ALVES REDOL",
      "house": "",
      "postcode": "2600-840",
      "city": "SÃO JOÃO DOS MONTES",
      "lon": "-9.030473566986387",
      "lat": "38.957206697228315"
    },
    {
      "id": "pt.ine.add.PTCONT.2822878",
      "street": "R MOSTEIRO CASAL DA HORTA",
      "house": "",
      "postcode": "2600-817",
      "city": "SÃO JOÃO DOS MONTES",
      "lon": "-9.037079028464808",
      "lat": "38.956813431036935"
    },
    {
      "id": "pt.ine.add.PTCONT.2848833",
      "street": "CSL RAPOSEIRA",
      "house": "",
      "postcode": "2600-817",
      "city": "SÃO JOÃO DOS MONTES",
      "lon": "-9.03320994317904",
      "lat": "38.954645485319766"
    },
    {
      "id": "pt.ine.add.PTCONT.2968508",
      "street": "SEM DESIGNACAO",
      "house": "4",
      "postcode": "2600-840",
      "city": "SÃO JOÃO DOS MONTES",
      "lon": "-9.029109537227553",
      "lat": "38.959739301094075"
    },
    {
      "id": "pt.ine.add.PTCONT.3060370",
      "street": "",
      "house": "",
      "postcode": "2600-840",
      "city": "SÃO JOÃO DOS MONTES",
      "lon": "-9.034112109541597",
      "lat": "38.95938552025116"
    },
    {
      "id": "pt.ine.add.PTCONT.3060380",
      "street": "",
      "house": "",
      "postcode": "2600-840",
      "city": "SÃO JOÃO DOS MONTES",
      "lon": "-9.028619730322552",
      "lat": "38.95657239091651"
    },
    {
      "id": "pt.ine.add.PTCONT.3134757",
      "street": "EN DE ARRUDA",
      "house": "",
      "postcode": "2600-840",
      "city": "SÃO JOÃO DOS MONTES",
      "lon": "-9.028405848771143",
      "lat": "38.95974470169183"
    },
    {
      "id": "pt.ine.add.PTCONT.3143698",
      "street": "AZ RAPOZEIRA NOVA",
      "house": "",
      "postcode": "2600-802",
      "city": "SÃO JOÃO DOS MONTES",
      "lon": "-9.032846163541878",
      "lat": "38.95871971863584"
    },
    {
      "id": "pt.ine.add.PTCONT.3143700",
      "street": "R ALVES REDOL",
      "house": "3",
      "postcode": "2600-840",
      "city": "SÃO JOÃO DOS MONTES",
      "lon": "-9.03086287473884",
      "lat": "38.95788827949377"
    },
    {
      "id": "pt.ine.add.PTCONT.3192606",
      "street": "AZ RAPOZEIRA NOVA",
      "house": "",
      "postcode": "2600-802",
      "city": "SÃO JOÃO DOS MONTES",
      "lon": "-9.034486970901684",
      "lat": "38.958923238928996"
    },
    {
      "id": "pt.ine.add.PTCONT.3218295",
      "street": "",
      "house": "",
      "postcode": "2600-840",
      "city": "SÃO JOÃO DOS MONTES",
      "lon": "-9.030717058769003",
      "lat": "38.959132447550026"
    },
    {
      "id": "pt.ine.add.PTCONT.3227915",
      "street": "",
      "house": "",
      "postcode": "2600-840",
      "city": "SÃO JOÃO DOS MONTES",
      "lon": "-9.034632255770912",
      "lat": "38.95855280589346"
    },
    {
      "id": "pt.ine.add.PTCONT.3329334",
      "street": "",
      "house": "",
      "postcode": "2600-840",
      "city": "SÃO JOÃO DOS MONTES",
      "lon": "-9.028680439582796",
      "lat": "38.95589635600429"
    },
    {
      "id": "pt.ine.add.PTCONT.3338712",
      "street": "CSL RAPOSEIRA",
      "house": "",
      "postcode": "2600-817",
      "city": "SÃO JOÃO DOS MONTES",
      "lon": "-9.03298072327559",
      "lat": "38.954764351605476"
    },
    {
      "id": "pt.ine.add.PTCONT.3385023",
      "street": "R ALVES REDOL",
      "house": "5",
      "postcode": "2600-840",
      "city": "SÃO JOÃO DOS MONTES",
      "lon": "-9.030069191436343",
      "lat": "38.958074533992445"
    }
  ]
}