{
  "data": {
    "distrito": "Lisboa",
    "concelho": "Vila Franca de Xira",
    "freguesia": "União das freguesias de Alhandra, São João dos Montes e Calhandriz",
    "OBJECTID": 1091,
    "BGRI2021": "11141201023",
    "DT21": "11",
    "DTMN21": "1114",
    "DTMNFR21": "111412",
    "DTMNFRSEC21": "111412010",
    "SECNUM21": "010",
    "SSNUM21": "23",
    "SECSSNUM21": "01023",
    "OBJECTID_1": 117655,
    "DT": "11",
    "CC": "14",
    "fr": "12",
    "SEC": "010",
    "SS": "23"
  },
  "addresses": [
    {
      "id": "pt.ine.add.PTCONT.2282927",
      "street": "R OLIVEIRINHA",
      "house": "",
      "postcode": "2600-796",
      "city": "SÃO JOÃO DOS MONTES",
      "lon": "-9.021853619457266",
      "lat": "38.96627123485849"
    },
    {
      "id": "pt.ine.add.PTCONT.2300964",
      "street": "CAM CAMINHO DA OLIVEIRINHA",
      "house": "",
      "postcode": "2600-796",
      "city": "SÃO JOÃO DOS MONTES",
      "lon": "-9.022246776743945",
      "lat": "38.966340300555224"
    },
    {
      "id": "pt.ine.add.PTCONT.2300967",
      "street": "ESTR CARDOZINHAS",
      "house": "",
      "postcode": "2600-796",
      "city": "SÃO JOÃO DOS MONTES",
      "lon": "-9.022943293810293",
      "lat": "38.963911953330836"
    },
    {
      "id": "pt.ine.add.PTCONT.2301966",
      "street": "CAM CAMINHO DA MURTEIRA",
      "house": "",
      "postcode": "2600-796",
      "city": "SÃO JOÃO DOS MONTES",
      "lon": "-9.020234513012642",
      "lat": "38.96596828938255"
    },
    {
      "id": "pt.ine.add.PTCONT.2401451",
      "street": "CAM SERRADA",
      "house": "",
      "postcode": "2600-840",
      "city": "SÃO JOÃO DOS MONTES",
      "lon": "-9.025206891998586",
      "lat": "38.960408737649374"
    },
    {
      "id": "pt.ine.add.PTCONT.2462472",
      "street": "CAM SERRADA CARINHO SA SERRADA",
      "house": "",
      "postcode": "2600-840",
      "city": "SÃO JOÃO DOS MONTES",
      "lon": "-9.02276907868082",
      "lat": "38.96013009729228"
    },
    {
      "id": "pt.ine.add.PTCONT.2482729",
      "street": "ESTR CARDOZINHAS",
      "house": "",
      "postcode": "2600-796",
      "city": "SÃO JOÃO DOS MONTES",
      "lon": "-9.023295400485415",
      "lat": "38.966233222771635"
    },
    {
      "id": "pt.ine.add.PTCONT.2519411",
      "street": "ESTR CARDOZINHAS",
      "house": "",
      "postcode": "2600-804",
      "city": "SÃO JOÃO DOS MONTES",
      "lon": "-9.023603549615387",
      "lat": "38.9650418717183"
    },
    {
      "id": "pt.ine.add.PTCONT.2584004",
      "street": "CAM MURTEIRA DE BAIXO",
      "house": "",
      "postcode": "2600-796",
      "city": "SÃO JOÃO DOS MONTES",
      "lon": "-9.020064203581752",
      "lat": "38.96433921226624"
    },
    {
      "id": "pt.ine.add.PTCONT.2679931",
      "street": "CAM BESUGO",
      "house": "",
      "postcode": "2600-862",
      "city": "SÃO JOÃO DOS MONTES",
      "lon": "-9.018658375083449",
      "lat": "38.96170165953024"
    },
    {
      "id": "pt.ine.add.PTCONT.2771035",
      "street": "CAM SERRADA",
      "house": "1A",
      "postcode": "2600-840",
      "city": "SÃO JOÃO DOS MONTES",
      "lon": "-9.025204633032818",
      "lat": "38.96022860325719"
    },
    {
      "id": "pt.ine.add.PTCONT.2939593",
      "street": "CAM SERRADA",
      "house": "",
      "postcode": "2600-840",
      "city": "SÃO JOÃO DOS MONTES",
      "lon": "-9.020220416927216",
      "lat": "38.96021255202158"
    },
    {
      "id": "pt.ine.add.PTCONT.2939596",
      "street": "CAM MURTEIRA DE BAIXO",
      "house": "",
      "postcode": "2600-796",
      "city": "SÃO JOÃO DOS MONTES",
      "lon": "-9.020445811870877",
      "lat": "38.9644083718818"
    },
    {
      "id": "pt.ine.add.PTCONT.2949717",
      "street": "QTA DA CARNEIRA SOLAR DOS PIRATINHAS",
      "house": "",
      "postcode": "2600-862",
      "city": "SÃO JOÃO DOS MONTES",
      "lon": "-9.019751258489936",
      "lat": "38.96052237533005"
    },
    {
      "id": "pt.ine.add.PTCONT.3060404",
      "street": "",
      "house": "",
      "postcode": "2600-840",
      "city": "SÃO JOÃO DOS MONTES",
      "lon": "-9.022070846686207",
      "lat": "38.96334211747147"
    },
    {
      "id": "pt.ine.add.PTCONT.3080869",
      "street": "CAM SERRADA",
      "house": "",
      "postcode": "2600-840",
      "city": "SÃO JOÃO DOS MONTES",
      "lon": "-9.02204107520606",
      "lat": "38.96003656144628"
    },
    {
      "id": "pt.ine.add.PTCONT.3275070",
      "street": "CAM SERRADA",
      "house": "60762",
      "postcode": "2600-840",
      "city": "SÃO JOÃO DOS MONTES",
      "lon": "-9.023558186244003",
      "lat": "38.9623399442363"
    },
    {
      "id": "pt.ine.add.PTCONT.3301185",
      "street": "CAM SERRADA CASAL DO URJAL",
      "house": "15",
      "postcode": "2600-840",
      "city": "SÃO JOÃO DOS MONTES",
      "lon": "-9.023103198922424",
      "lat": "38.96193807387103"
    },
    {
      "id": "pt.ine.add.PTCONT.3393066",
      "street": "CAM SERRADA",
      "house": "",
      "postcode": "2600-840",
      "city": "SÃO JOÃO DOS MONTES",
      "lon": "-9.023456877000466",
      "lat": "38.96162011069758"
    },
    {
      "id": "pt.ine.add.PTCONT.3393067",
      "street": "ESTR CARDOZINHAS",
      "house": "",
      "postcode": "2600-796",
      "city": "SÃO JOÃO DOS MONTES",
      "lon": "-9.023328658512533",
      "lat": "38.96612487816468"
    },
    {
      "id": "pt.ine.add.PTCONT.3402772",
      "street": "CAM SERRADA",
      "house": "",
      "postcode": "2600-840",
      "city": "SÃO JOÃO DOS MONTES",
      "lon": "-9.020554623232975",
      "lat": "38.96018298829701"
    }
  ]
}