{
  "data": {
    "distrito": "Setúbal",
    "concelho": "Setúbal",
    "freguesia": "Sado",
    "OBJECTID": 24,
    "BGRI2021": "15120800311",
    "DT21": "15",
    "DTMN21": "1512",
    "DTMNFR21": "151208",
    "DTMNFRSEC21": "151208003",
    "SECNUM21": "003",
    "SSNUM21": "11",
    "SECSSNUM21": "00311",
    "OBJECTID_1": 170822,
    "DT": "15",
    "CC": "12",
    "fr": "08",
    "SEC": "003",
    "SS": "11"
  },
  "addresses": [
    {
      "id": "pt.ine.add.PTCONT.4664291",
      "street": "ESTR MORGADA",
      "house": "158 A",
      "postcode": "2910-170",
      "city": "SETÚBAL",
      "lon": "-8.80235473832639",
      "lat": "38.521695700438165"
    },
    {
      "id": "pt.ine.add.PTCONT.4664419",
      "street": "ESTR MORGADA",
      "house": "12",
      "postcode": "2910-170",
      "city": "SETÚBAL",
      "lon": "-8.792384892861264",
      "lat": "38.521130680256725"
    },
    {
      "id": "pt.ine.add.PTCONT.4669326",
      "street": "ESTR GALEOES",
      "house": "21",
      "postcode": "2910-152",
      "city": "SETÚBAL",
      "lon": "-8.803634845485108",
      "lat": "38.52248111214215"
    },
    {
      "id": "pt.ine.add.PTCONT.4683885",
      "street": "ESTR MORGADA",
      "house": "128",
      "postcode": "2910-170",
      "city": "SETÚBAL",
      "lon": "-8.800610039210873",
      "lat": "38.521507475186525"
    },
    {
      "id": "pt.ine.add.PTCONT.4698584",
      "street": "ESTR MORGADA",
      "house": "54",
      "postcode": "2910-170",
      "city": "SETÚBAL",
      "lon": "-8.796620621918663",
      "lat": "38.52162023211345"
    },
    {
      "id": "pt.ine.add.PTCONT.4702131",
      "street": "ESTR MORGADA",
      "house": "130",
      "postcode": "2910-170",
      "city": "SETÚBAL",
      "lon": "-8.800781283407105",
      "lat": "38.52142542371566"
    },
    {
      "id": "pt.ine.add.PTCONT.4713775",
      "street": "ESTR MORGADA",
      "house": "148 A",
      "postcode": "2910-170",
      "city": "SETÚBAL",
      "lon": "-8.801472337689871",
      "lat": "38.52175479043757"
    },
    {
      "id": "pt.ine.add.PTCONT.4716425",
      "street": "ESTR CHAMBURGUINHA",
      "house": "15 A",
      "postcode": "2910-152",
      "city": "SETÚBAL",
      "lon": "-8.798501810568716",
      "lat": "38.52293378547071"
    },
    {
      "id": "pt.ine.add.PTCONT.4724396",
      "street": "ESTR MORGADA",
      "house": "136A",
      "postcode": "2910-170",
      "city": "SETÚBAL",
      "lon": "-8.801080819977887",
      "lat": "38.5215768574209"
    },
    {
      "id": "pt.ine.add.PTCONT.4729020",
      "street": "R DO LAITAU",
      "house": "",
      "postcode": "2910-152",
      "city": "SETÚBAL",
      "lon": "-8.802718037340599",
      "lat": "38.522540408573136"
    },
    {
      "id": "pt.ine.add.PTCONT.4731808",
      "street": "ESTR CHAMBURGUINHA",
      "house": "29",
      "postcode": "2910-152",
      "city": "SETÚBAL",
      "lon": "-8.799800177830319",
      "lat": "38.52321466758392"
    },
    {
      "id": "pt.ine.add.PTCONT.4734717",
      "street": "ESTR CHAMBURGUINHA",
      "house": "33",
      "postcode": "2910-152",
      "city": "SETÚBAL",
      "lon": "-8.802779793325408",
      "lat": "38.5230174979988"
    },
    {
      "id": "pt.ine.add.PTCONT.4739776",
      "street": "R DO LAITAU",
      "house": "26",
      "postcode": "2910-152",
      "city": "SETÚBAL",
      "lon": "-8.803295282183354",
      "lat": "38.52296049867379"
    },
    {
      "id": "pt.ine.add.PTCONT.4750780",
      "street": "ESTR CHAMBURGUINHA",
      "house": "9",
      "postcode": "2910-152",
      "city": "SETÚBAL",
      "lon": "-8.797928571188558",
      "lat": "38.52294604983808"
    },
    {
      "id": "pt.ine.add.PTCONT.4750781",
      "street": "ESTR CHAMBURGUINHA",
      "house": "9",
      "postcode": "2910-152",
      "city": "SETÚBAL",
      "lon": "-8.797984660269268",
      "lat": "38.52281060608513"
    },
    {
      "id": "pt.ine.add.PTCONT.4757039",
      "street": "ESTR CHAMBURGUINHA",
      "house": "39",
      "postcode": "2910-152",
      "city": "SETÚBAL",
      "lon": "-8.800394521934965",
      "lat": "38.523004090052815"
    },
    {
      "id": "pt.ine.add.PTCONT.4757273",
      "street": "ESTR CHAMBURGUINHA",
      "house": "23",
      "postcode": "2910-152",
      "city": "SETÚBAL",
      "lon": "-8.799421368499663",
      "lat": "38.52317178199316"
    },
    {
      "id": "pt.ine.add.PTCONT.4772008",
      "street": "ESTR CHAMBURGUINHA",
      "house": "17",
      "postcode": "2910-152",
      "city": "SETÚBAL",
      "lon": "-8.798665825201942",
      "lat": "38.52331120412957"
    },
    {
      "id": "pt.ine.add.PTCONT.4788916",
      "street": "ESTR CHAMBURGUINHA",
      "house": "",
      "postcode": "2910-152",
      "city": "SETÚBAL",
      "lon": "-8.80354896449614",
      "lat": "38.5231121884209"
    },
    {
      "id": "pt.ine.add.PTCONT.4792489",
      "street": "ESTR MORGADA",
      "house": "160",
      "postcode": "2910-170",
      "city": "SETÚBAL",
      "lon": "-8.803100043759366",
      "lat": "38.52169143840309"
    },
    {
      "id": "pt.ine.add.PTCONT.4798066",
      "street": "ESTR CHAMBURGUINHA",
      "house": "",
      "postcode": "2910-152",
      "city": "SETÚBAL",
      "lon": "-8.802769578986803",
      "lat": "38.523152681669146"
    },
    {
      "id": "pt.ine.add.PTCONT.4821082",
      "street": "ESTR MORGADA",
      "house": "28",
      "postcode": "2910-170",
      "city": "SETÚBAL",
      "lon": "-8.793911211264707",
      "lat": "38.52126621061589"
    },
    {
      "id": "pt.ine.add.PTCONT.4821251",
      "street": "ESTR CHAMBURGUINHA",
      "house": "34",
      "postcode": "2910-152",
      "city": "SETÚBAL",
      "lon": "-8.802767492143504",
      "lat": "38.52292748484388"
    },
    {
      "id": "pt.ine.add.PTCONT.4827844",
      "street": "ESTR CHAMBURGUINHAS",
      "house": "",
      "postcode": "2910-152",
      "city": "SETÚBAL",
      "lon": "-8.803484696502792",
      "lat": "38.52236486327974"
    },
    {
      "id": "pt.ine.add.PTCONT.4828527",
      "street": "ESTR MORGADA",
      "house": "52",
      "postcode": "2910-170",
      "city": "SETÚBAL",
      "lon": "-8.796600501272296",
      "lat": "38.52192663018806"
    },
    {
      "id": "pt.ine.add.PTCONT.4861165",
      "street": "ESTR CHAMBURGUINHA",
      "house": "",
      "postcode": "2910-152",
      "city": "SETÚBAL",
      "lon": "-8.803686478432079",
      "lat": "38.523102392641924"
    },
    {
      "id": "pt.ine.add.PTCONT.4867381",
      "street": "ESTR MORGADA",
      "house": "158",
      "postcode": "2910-170",
      "city": "SETÚBAL",
      "lon": "-8.802273056721965",
      "lat": "38.521543025249734"
    },
    {
      "id": "pt.ine.add.PTCONT.4867382",
      "street": "ESTR MORGADA",
      "house": "158",
      "postcode": "2910-170",
      "city": "SETÚBAL",
      "lon": "-8.802273056721965",
      "lat": "38.521543025249734"
    },
    {
      "id": "pt.ine.add.PTCONT.4869743",
      "street": "ESTR CHAMBURGUINHA",
      "house": "47",
      "postcode": "2910-152",
      "city": "SETÚBAL",
      "lon": "-8.80155413308089",
      "lat": "38.52315962641598"
    },
    {
      "id": "pt.ine.add.PTCONT.4873200",
      "street": "ESTR MORGADA",
      "house": "126",
      "postcode": "2910-170",
      "city": "SETÚBAL",
      "lon": "-8.800402732457117",
      "lat": "38.521409564846145"
    },
    {
      "id": "pt.ine.add.PTCONT.4873201",
      "street": "ESTR MORGADA",
      "house": "1",
      "postcode": "2910-170",
      "city": "SETÚBAL",
      "lon": "-8.789937030312213",
      "lat": "38.52053186809013"
    },
    {
      "id": "pt.ine.add.PTCONT.4873202",
      "street": "ESTR MORGADA",
      "house": "1",
      "postcode": "2910-170",
      "city": "SETÚBAL",
      "lon": "-8.789937030312213",
      "lat": "38.52053186809013"
    },
    {
      "id": "pt.ine.add.PTCONT.4873203",
      "street": "ESTR MORGADA",
      "house": "1",
      "postcode": "2910-170",
      "city": "SETÚBAL",
      "lon": "-8.789937030312213",
      "lat": "38.52053186809013"
    },
    {
      "id": "pt.ine.add.PTCONT.4874521",
      "street": "ESTR MORGADA",
      "house": "14",
      "postcode": "2910-170",
      "city": "SETÚBAL",
      "lon": "-8.792602010318776",
      "lat": "38.52104838243335"
    },
    {
      "id": "pt.ine.add.PTCONT.4891959",
      "street": "ESTR CHAMBURGUINHA",
      "house": "",
      "postcode": "2910-152",
      "city": "SETÚBAL",
      "lon": "-8.802705485933194",
      "lat": "38.52242337178079"
    },
    {
      "id": "pt.ine.add.PTCONT.4899181",
      "street": "ESTR CHAMBURGUINHA",
      "house": "19",
      "postcode": "2910-152",
      "city": "SETÚBAL",
      "lon": "-8.803671668526961",
      "lat": "38.5227421434461"
    },
    {
      "id": "pt.ine.add.PTCONT.4903249",
      "street": "ESTR CHAMBURGUINHA",
      "house": "15",
      "postcode": "2910-152",
      "city": "SETÚBAL",
      "lon": "-8.7984091667854",
      "lat": "38.52283522000318"
    },
    {
      "id": "pt.ine.add.PTCONT.4903929",
      "street": "ESTR MORGADA",
      "house": "136",
      "postcode": "2910-170",
      "city": "SETÚBAL",
      "lon": "-8.801091370338066",
      "lat": "38.52147770534926"
    },
    {
      "id": "pt.ine.add.PTCONT.4921739",
      "street": "ESTR MORGADA",
      "house": "138",
      "postcode": "2910-170",
      "city": "SETÚBAL",
      "lon": "-8.80127491292844",
      "lat": "38.5214856665354"
    },
    {
      "id": "pt.ine.add.PTCONT.4927527",
      "street": "ESTR MORGADA",
      "house": "132",
      "postcode": "2910-170",
      "city": "SETÚBAL",
      "lon": "-8.800965075570112",
      "lat": "38.52146040902582"
    },
    {
      "id": "pt.ine.add.PTCONT.4932159",
      "street": "ESTR MORGADA",
      "house": "148 B",
      "postcode": "2910-170",
      "city": "SETÚBAL",
      "lon": "-8.80147317077511",
      "lat": "38.52184486921065"
    },
    {
      "id": "pt.ine.add.PTCONT.4953347",
      "street": "ESTR MORGADA",
      "house": "56",
      "postcode": "2910-170",
      "city": "SETÚBAL",
      "lon": "-8.797147324002728",
      "lat": "38.52153617125673"
    },
    {
      "id": "pt.ine.add.PTCONT.4963681",
      "street": "ESTR MORGADA",
      "house": "",
      "postcode": "2910-170",
      "city": "SETÚBAL",
      "lon": "-8.79910081543783",
      "lat": "38.52198450306476"
    },
    {
      "id": "pt.ine.add.PTCONT.5000033",
      "street": "ESTR MORGADA",
      "house": "148",
      "postcode": "2910-170",
      "city": "SETÚBAL",
      "lon": "-8.801450738082076",
      "lat": "38.52189904736615"
    },
    {
      "id": "pt.ine.add.PTCONT.5007631",
      "street": "ESTR MORGADA",
      "house": "34",
      "postcode": "2910-170",
      "city": "SETÚBAL",
      "lon": "-8.794551916305014",
      "lat": "38.52110945117867"
    },
    {
      "id": "pt.ine.add.PTCONT.5014682",
      "street": "ESTR MORGADA",
      "house": "30",
      "postcode": "2910-170",
      "city": "SETÚBAL",
      "lon": "-8.793921771432052",
      "lat": "38.52116705909727"
    },
    {
      "id": "pt.ine.add.PTCONT.5022118",
      "street": "ESTR CHAMBURGUINHA",
      "house": "30",
      "postcode": "2910-152",
      "city": "SETÚBAL",
      "lon": "-8.80300803672091",
      "lat": "38.52289908389343"
    },
    {
      "id": "pt.ine.add.PTCONT.5025750",
      "street": "ESTR MORGADA",
      "house": "",
      "postcode": "2910-170",
      "city": "SETÚBAL",
      "lon": "-8.799168201820802",
      "lat": "38.521830977770755"
    },
    {
      "id": "pt.ine.add.PTCONT.5029477",
      "street": "ESTR MORGADA",
      "house": "110",
      "postcode": "2910-170",
      "city": "SETÚBAL",
      "lon": "-8.799771676044625",
      "lat": "38.52136811753879"
    },
    {
      "id": "pt.ine.add.PTCONT.5051504",
      "street": "ESTR MORGADA",
      "house": "114",
      "postcode": "2910-170",
      "city": "SETÚBAL",
      "lon": "-8.800138843615388",
      "lat": "38.521393051648595"
    },
    {
      "id": "pt.ine.add.PTCONT.5055301",
      "street": "ESTR CHAMBURGUINHA",
      "house": "",
      "postcode": "2910-152",
      "city": "SETÚBAL",
      "lon": "-8.801327607553556",
      "lat": "38.522224050772124"
    },
    {
      "id": "pt.ine.add.PTCONT.5055302",
      "street": "ESTR MORGADA",
      "house": "140",
      "postcode": "2910-170",
      "city": "SETÚBAL",
      "lon": "-8.801164580867692",
      "lat": "38.52195473040785"
    },
    {
      "id": "pt.ine.add.PTCONT.5059188",
      "street": "ESTR MORGADA",
      "house": "35",
      "postcode": "2910-170",
      "city": "SETÚBAL",
      "lon": "-8.8003165023201",
      "lat": "38.52324776011722"
    },
    {
      "id": "pt.ine.add.PTCONT.5059189",
      "street": "ESTR CHAMBURGUINHA",
      "house": "",
      "postcode": "2910-152",
      "city": "SETÚBAL",
      "lon": "-8.8003165023201",
      "lat": "38.52324776011722"
    },
    {
      "id": "pt.ine.add.PTCONT.5074555",
      "street": "ESTR MORGADA",
      "house": "122",
      "postcode": "2910-170",
      "city": "SETÚBAL",
      "lon": "-8.800299370353095",
      "lat": "38.52139213711623"
    },
    {
      "id": "pt.ine.add.PTCONT.5077501",
      "street": "ESTR CHAMBURGUINHA",
      "house": "25",
      "postcode": "2910-152",
      "city": "SETÚBAL",
      "lon": "-8.799456598552467",
      "lat": "38.52326166503188"
    },
    {
      "id": "pt.ine.add.PTCONT.5123515",
      "street": "ESTR MORGADA",
      "house": "92",
      "postcode": "2910-170",
      "city": "SETÚBAL",
      "lon": "-8.79919803426785",
      "lat": "38.52133534860157"
    },
    {
      "id": "pt.ine.add.PTCONT.5123516",
      "street": "ESTR MORGADA",
      "house": "92",
      "postcode": "2910-170",
      "city": "SETÚBAL",
      "lon": "-8.79919803426785",
      "lat": "38.52133534860157"
    },
    {
      "id": "pt.ine.add.PTCONT.5129744",
      "street": "ESTR MORGADA",
      "house": "72",
      "postcode": "2910-170",
      "city": "SETÚBAL",
      "lon": "-8.797880665198448",
      "lat": "38.521477960168795"
    }
  ]
}