{
  "data": {
    "distrito": "Leiria",
    "concelho": "Caldas da Rainha",
    "freguesia": "Santa Catarina",
    "OBJECTID": 393,
    "BGRI2021": "10061100220",
    "DT21": "10",
    "DTMN21": "1006",
    "DTMNFR21": "100611",
    "DTMNFRSEC21": "100611002",
    "SECNUM21": "002",
    "SSNUM21": "20",
    "SECSSNUM21": "00220",
    "OBJECTID_1": 88290,
    "DT": "10",
    "CC": "06",
    "fr": "11",
    "SEC": "002",
    "SS": "20"
  },
  "addresses": [
    {
      "id": "pt.ine.add.PTCONT.1979621",
      "street": "R CANCELA",
      "house": "6",
      "postcode": "2500-775",
      "city": "SANTA CATARINA CLD",
      "lon": "-9.014868191525286",
      "lat": "39.4482282260845"
    },
    {
      "id": "pt.ine.add.PTCONT.1979622",
      "street": "R CANCELA",
      "house": "6",
      "postcode": "2500-775",
      "city": "SANTA CATARINA CLD",
      "lon": "-9.014868191525286",
      "lat": "39.4482282260845"
    },
    {
      "id": "pt.ine.add.PTCONT.2041713",
      "street": "R ANTÓNIO GOMES ASCENSO",
      "house": "17",
      "postcode": "2500-772",
      "city": "SANTA CATARINA CLD",
      "lon": "-9.013329876492906",
      "lat": "39.44784357754118"
    },
    {
      "id": "pt.ine.add.PTCONT.2055159",
      "street": "R ANTÓNIO GOMES ASCENSO",
      "house": "15",
      "postcode": "2500-772",
      "city": "SANTA CATARINA CLD",
      "lon": "-9.013480885017989",
      "lat": "39.447842434540576"
    },
    {
      "id": "pt.ine.add.PTCONT.2083400",
      "street": "R 16 DE AGOSTO",
      "house": "",
      "postcode": "2500-771",
      "city": "SANTA CATARINA CLD",
      "lon": "-9.013205326128569",
      "lat": "39.44717801311357"
    },
    {
      "id": "pt.ine.add.PTCONT.2086443",
      "street": "R ANTÓNIO GOMES ASCENSO",
      "house": "9",
      "postcode": "2500-772",
      "city": "SANTA CATARINA CLD",
      "lon": "-9.014528940050631",
      "lat": "39.448041653846936"
    },
    {
      "id": "pt.ine.add.PTCONT.2101675",
      "street": "R ANTÓNIO GOMES ASCENSO",
      "house": "5",
      "postcode": "2500-772",
      "city": "SANTA CATARINA CLD",
      "lon": "-9.014277927219604",
      "lat": "39.44840382994764"
    },
    {
      "id": "pt.ine.add.PTCONT.2120217",
      "street": "R VAL D AGUA",
      "house": "27",
      "postcode": "2500-865",
      "city": "SANTA CATARINA CLD",
      "lon": "-9.01113132160423",
      "lat": "39.44576159955186"
    },
    {
      "id": "pt.ine.add.PTCONT.2122203",
      "street": "R 16 DE AGOSTO",
      "house": "",
      "postcode": "2500-771",
      "city": "SANTA CATARINA CLD",
      "lon": "-9.012957651236448",
      "lat": "39.44688266096507"
    },
    {
      "id": "pt.ine.add.PTCONT.2125109",
      "street": "R VAL D AGUA",
      "house": "15",
      "postcode": "2500-865",
      "city": "SANTA CATARINA CLD",
      "lon": "-9.011691705592142",
      "lat": "39.44592511847967"
    },
    {
      "id": "pt.ine.add.PTCONT.2135963",
      "street": "R 16 DE AGOSTO",
      "house": "",
      "postcode": "2500-771",
      "city": "SANTA CATARINA CLD",
      "lon": "-9.013290910795577",
      "lat": "39.44653577490265"
    },
    {
      "id": "pt.ine.add.PTCONT.2175121",
      "street": "R VAL D AGUA",
      "house": "21",
      "postcode": "2500-865",
      "city": "SANTA CATARINA CLD",
      "lon": "-9.008951743234261",
      "lat": "39.44611128741614"
    },
    {
      "id": "pt.ine.add.PTCONT.2186133",
      "street": "R CANCELA",
      "house": "14",
      "postcode": "2500-775",
      "city": "SANTA CATARINA CLD",
      "lon": "-9.013835109742",
      "lat": "39.44921780061214"
    },
    {
      "id": "pt.ine.add.PTCONT.2188333",
      "street": "R CANCELA",
      "house": "",
      "postcode": "2500-775",
      "city": "SANTA CATARINA CLD",
      "lon": "-9.014502040141771",
      "lat": "39.44867233718951"
    },
    {
      "id": "pt.ine.add.PTCONT.2213156",
      "street": "R ANTÓNIO GOMES ASCENSO",
      "house": "19",
      "postcode": "2500-772",
      "city": "SANTA CATARINA CLD",
      "lon": "-9.013051658295073",
      "lat": "39.44789071714823"
    },
    {
      "id": "pt.ine.add.PTCONT.2217563",
      "street": "R 16 DE AGOSTO",
      "house": "",
      "postcode": "2500-771",
      "city": "SANTA CATARINA CLD",
      "lon": "-9.01357075085281",
      "lat": "39.44759856926378"
    },
    {
      "id": "pt.ine.add.PTCONT.2235444",
      "street": "R 16 AGOSTO",
      "house": "6",
      "postcode": "2500-771",
      "city": "SANTA CATARINA CLD",
      "lon": "-9.013418722213357",
      "lat": "39.447518658438156"
    },
    {
      "id": "pt.ine.add.PTCONT.2256880",
      "street": "R VALADA",
      "house": "1",
      "postcode": "2500-865",
      "city": "SANTA CATARINA CLD",
      "lon": "-9.011361410012722",
      "lat": "39.446507431208374"
    }
  ]
}