{
  "data": {
    "distrito": "Porto",
    "concelho": "Porto",
    "freguesia": "Uni√£o das freguesias de Aldoar, Foz do Douro e Nevogilde",
    "OBJECTID": 448,
    "BGRI2021": "13121601902",
    "DT21": "13",
    "DTMN21": "1312",
    "DTMNFR21": "131216",
    "DTMNFRSEC21": "131216019",
    "SECNUM21": "019",
    "SSNUM21": "02",
    "SECSSNUM21": "01902",
    "OBJECTID_1": 139283,
    "DT": "13",
    "CC": "12",
    "fr": "16",
    "SEC": "019",
    "SS": "02"
  },
  "addresses": [
    {
      "id": "pt.ine.add.PTCONT.3558942",
      "street": "R VILARINHA",
      "house": "178",
      "postcode": "4100-509",
      "city": "PORTO",
      "lon": "-8.663713640833425",
      "lat": "41.165217012656285"
    },
    {
      "id": "pt.ine.add.PTCONT.3558943",
      "street": "R VILARINHA",
      "house": "178",
      "postcode": "4100-509",
      "city": "PORTO",
      "lon": "-8.663713640833425",
      "lat": "41.165217012656285"
    },
    {
      "id": "pt.ine.add.PTCONT.3558944",
      "street": "R VILARINHA",
      "house": "178",
      "postcode": "4100-509",
      "city": "PORTO",
      "lon": "-8.663713640833425",
      "lat": "41.165217012656285"
    },
    {
      "id": "pt.ine.add.PTCONT.3568350",
      "street": "R FONTE DA MOURA",
      "house": "195",
      "postcode": "4100-254",
      "city": "PORTO",
      "lon": "-8.661981663017595",
      "lat": "41.16617043226076"
    },
    {
      "id": "pt.ine.add.PTCONT.3568351",
      "street": "R VILARINHA",
      "house": "172",
      "postcode": "4100-509",
      "city": "PORTO",
      "lon": "-8.66370099959925",
      "lat": "41.16512702764405"
    },
    {
      "id": "pt.ine.add.PTCONT.3664407",
      "street": "R VILARINHA",
      "house": "268",
      "postcode": "4100-509",
      "city": "PORTO",
      "lon": "-8.6642525752886",
      "lat": "41.16555669303218"
    },
    {
      "id": "pt.ine.add.PTCONT.3673766",
      "street": "R VILARINHA",
      "house": "220",
      "postcode": "4100-509",
      "city": "PORTO",
      "lon": "-8.664085184010865",
      "lat": "41.16548543021554"
    },
    {
      "id": "pt.ine.add.PTCONT.3678864",
      "street": "R VILARINHA",
      "house": "210",
      "postcode": "4100-509",
      "city": "PORTO",
      "lon": "-8.663870714489763",
      "lat": "41.16548641869331"
    },
    {
      "id": "pt.ine.add.PTCONT.3678865",
      "street": "R VILARINHA",
      "house": "210",
      "postcode": "4100-509",
      "city": "PORTO",
      "lon": "-8.663870714489763",
      "lat": "41.16548641869331"
    },
    {
      "id": "pt.ine.add.PTCONT.3716699",
      "street": "R VILARINHA",
      "house": "304",
      "postcode": "4100-509",
      "city": "PORTO",
      "lon": "-8.66497075063677",
      "lat": "41.16595857360178"
    },
    {
      "id": "pt.ine.add.PTCONT.3719995",
      "street": "R VILARINHA",
      "house": "198 A",
      "postcode": "4100-509",
      "city": "PORTO",
      "lon": "-8.663870133251773",
      "lat": "41.165414386779226"
    },
    {
      "id": "pt.ine.add.PTCONT.3719996",
      "street": "R VILARINHA",
      "house": "198 A",
      "postcode": "4100-509",
      "city": "PORTO",
      "lon": "-8.663870133251773",
      "lat": "41.165414386779226"
    },
    {
      "id": "pt.ine.add.PTCONT.3748502",
      "street": "R FONTE MOURA",
      "house": "43",
      "postcode": "4100-254",
      "city": "PORTO",
      "lon": "-8.663367236966511",
      "lat": "41.16511055599891"
    },
    {
      "id": "pt.ine.add.PTCONT.3751699",
      "street": "R CIDADE DO MINDELO",
      "house": "155",
      "postcode": "4100-169",
      "city": "PORTO",
      "lon": "-8.662555689666243",
      "lat": "41.16642892048224"
    },
    {
      "id": "pt.ine.add.PTCONT.3755141",
      "street": "R VILARINHA",
      "house": "170",
      "postcode": "4100-509",
      "city": "PORTO",
      "lon": "-8.66352263899351",
      "lat": "41.165172870752485"
    },
    {
      "id": "pt.ine.add.PTCONT.3758082",
      "street": "R FONTE DA MOURA",
      "house": "89",
      "postcode": "4100-254",
      "city": "PORTO",
      "lon": "-8.662882206677688",
      "lat": "41.1655449954519"
    },
    {
      "id": "pt.ine.add.PTCONT.3762051",
      "street": "R FONTE DA MOURA",
      "house": "153",
      "postcode": "4100-254",
      "city": "PORTO",
      "lon": "-8.662313040100212",
      "lat": "41.16588977619756"
    },
    {
      "id": "pt.ine.add.PTCONT.3839407",
      "street": "R VILARINHA",
      "house": "170",
      "postcode": "4100-509",
      "city": "PORTO",
      "lon": "-8.663237116366759",
      "lat": "41.16522821117286"
    },
    {
      "id": "pt.ine.add.PTCONT.3884652",
      "street": "R FONTE DA MOURA",
      "house": "167",
      "postcode": "4100-254",
      "city": "PORTO",
      "lon": "-8.662253899458797",
      "lat": "41.16594407384571"
    },
    {
      "id": "pt.ine.add.PTCONT.3904674",
      "street": "R VILARINHA",
      "house": "170",
      "postcode": "4100-509",
      "city": "PORTO",
      "lon": "-8.663653122090833",
      "lat": "41.16510023520944"
    },
    {
      "id": "pt.ine.add.PTCONT.3906963",
      "street": "R FONTE DA MOURA",
      "house": "101",
      "postcode": "4100-254",
      "city": "PORTO",
      "lon": "-8.662799164315347",
      "lat": "41.16559039898995"
    },
    {
      "id": "pt.ine.add.PTCONT.3908524",
      "street": "R FONTE DA MOURA",
      "house": "171",
      "postcode": "4100-254",
      "city": "PORTO",
      "lon": "-8.662207253217817",
      "lat": "41.16607034865755"
    },
    {
      "id": "pt.ine.add.PTCONT.3908525",
      "street": "R FONTE DA MOURA",
      "house": "171",
      "postcode": "4100-254",
      "city": "PORTO",
      "lon": "-8.662207253217817",
      "lat": "41.16607034865755"
    },
    {
      "id": "pt.ine.add.PTCONT.3949321",
      "street": "R FONTE DA MOURA",
      "house": "231",
      "postcode": "4100-254",
      "city": "PORTO",
      "lon": "-8.661578864536333",
      "lat": "41.166460419397005"
    },
    {
      "id": "pt.ine.add.PTCONT.3952089",
      "street": "R FONTE DA MOURA",
      "house": "231",
      "postcode": "4100-254",
      "city": "PORTO",
      "lon": "-8.661578864536333",
      "lat": "41.166460419397005"
    },
    {
      "id": "pt.ine.add.PTCONT.3985105",
      "street": "R CIDADE DO MINDELO",
      "house": "171",
      "postcode": "4100-169",
      "city": "PORTO",
      "lon": "-8.66278193243598",
      "lat": "41.166409871663774"
    },
    {
      "id": "pt.ine.add.PTCONT.3985106",
      "street": "R CIDADE DO MINDELO",
      "house": "166",
      "postcode": "4100-169",
      "city": "PORTO",
      "lon": "-8.662650865860243",
      "lat": "41.166410474309096"
    },
    {
      "id": "pt.ine.add.PTCONT.3994058",
      "street": "R VILARINHA",
      "house": "240",
      "postcode": "4100-509",
      "city": "PORTO",
      "lon": "-8.664336561938601",
      "lat": "41.165628340301446"
    },
    {
      "id": "pt.ine.add.PTCONT.4017921",
      "street": "R FONTE DA MOURA",
      "house": "213",
      "postcode": "4100-254",
      "city": "PORTO",
      "lon": "-8.661839260829224",
      "lat": "41.16624312061637"
    },
    {
      "id": "pt.ine.add.PTCONT.4046201",
      "street": "R VILARINHA",
      "house": "170",
      "postcode": "4100-509",
      "city": "PORTO",
      "lon": "-8.663380240676288",
      "lat": "41.16524556100251"
    },
    {
      "id": "pt.ine.add.PTCONT.4046217",
      "street": "R VILARINHA",
      "house": "198",
      "postcode": "4100-509",
      "city": "PORTO",
      "lon": "-8.663739359229664",
      "lat": "41.165451006608784"
    },
    {
      "id": "pt.ine.add.PTCONT.4050355",
      "street": "R FONTE DA MOURA",
      "house": "75",
      "postcode": "4100-254",
      "city": "PORTO",
      "lon": "-8.663012183462818",
      "lat": "41.16540933269664"
    },
    {
      "id": "pt.ine.add.PTCONT.4059468",
      "street": "R VILARINHA",
      "house": "250",
      "postcode": "4100-509",
      "city": "PORTO",
      "lon": "-8.664432391050745",
      "lat": "41.16569092855735"
    },
    {
      "id": "pt.ine.add.PTCONT.4059469",
      "street": "R VILARINHA",
      "house": "250",
      "postcode": "4100-509",
      "city": "PORTO",
      "lon": "-8.664432391050745",
      "lat": "41.16569092855735"
    },
    {
      "id": "pt.ine.add.PTCONT.4072891",
      "street": "R FONTE DA MOURA",
      "house": "177",
      "postcode": "4100-254",
      "city": "PORTO",
      "lon": "-8.662171145851197",
      "lat": "41.166025492896715"
    },
    {
      "id": "pt.ine.add.PTCONT.4072892",
      "street": "R FONTE DA MOURA",
      "house": "177",
      "postcode": "4100-254",
      "city": "PORTO",
      "lon": "-8.662171145851197",
      "lat": "41.166025492896715"
    },
    {
      "id": "pt.ine.add.PTCONT.4112548",
      "street": "R VILARINHA",
      "house": "170",
      "postcode": "4100-509",
      "city": "PORTO",
      "lon": "-8.663320811178842",
      "lat": "41.165263843234555"
    },
    {
      "id": "pt.ine.add.PTCONT.4172381",
      "street": "R FONTE DA MOURA",
      "house": "85",
      "postcode": "4100-254",
      "city": "PORTO",
      "lon": "-8.662964886270634",
      "lat": "41.165454571901606"
    },
    {
      "id": "pt.ine.add.PTCONT.4183357",
      "street": "R VILARINHA",
      "house": "170",
      "postcode": "4100-509",
      "city": "PORTO",
      "lon": "-8.663415767693259",
      "lat": "41.16521838446613"
    },
    {
      "id": "pt.ine.add.PTCONT.4204172",
      "street": "R VILARINHA",
      "house": "266",
      "postcode": "4100-509",
      "city": "PORTO",
      "lon": "-8.66458764994128",
      "lat": "41.16573523387761"
    },
    {
      "id": "pt.ine.add.PTCONT.4235959",
      "street": "R VILARINHA",
      "house": "170",
      "postcode": "4100-509",
      "city": "PORTO",
      "lon": "-8.663593838033709",
      "lat": "41.165136525561834"
    },
    {
      "id": "pt.ine.add.PTCONT.4322215",
      "street": "R FONTE DA MOURA",
      "house": "143",
      "postcode": "4100-254",
      "city": "PORTO",
      "lon": "-8.66243219059615",
      "lat": "41.16588922869944"
    },
    {
      "id": "pt.ine.add.PTCONT.4322216",
      "street": "R FONTE DA MOURA",
      "house": "139",
      "postcode": "4100-254",
      "city": "PORTO",
      "lon": "-8.662526786271751",
      "lat": "41.16579875070621"
    },
    {
      "id": "pt.ine.add.PTCONT.4322217",
      "street": "R VILARINHA",
      "house": "178",
      "postcode": "4100-509",
      "city": "PORTO",
      "lon": "-8.663168456572915",
      "lat": "41.16557969580578"
    },
    {
      "id": "pt.ine.add.PTCONT.4328757",
      "street": "R FONTE DA MOURA",
      "house": "71",
      "postcode": "4100-254",
      "city": "PORTO",
      "lon": "-8.663166642608433",
      "lat": "41.1653545960493"
    },
    {
      "id": "pt.ine.add.PTCONT.4367876",
      "street": "R FONTE DA MOURA",
      "house": "131",
      "postcode": "4100-254",
      "city": "PORTO",
      "lon": "-8.662597986542577",
      "lat": "41.165762406127676"
    },
    {
      "id": "pt.ine.add.PTCONT.4367893",
      "street": "R VILARINHA",
      "house": "170",
      "postcode": "4100-509",
      "city": "PORTO",
      "lon": "-8.663273296585936",
      "lat": "41.16528207059435"
    }
  ]
}