{
  "data": {
    "distrito": "Bragança",
    "concelho": "Carrazeda de Ansiães",
    "freguesia": "União das freguesias de Castanheiro do Norte e Ribalonga",
    "OBJECTID": 10,
    "BGRI2021": "04032200113",
    "DT21": "04",
    "DTMN21": "0403",
    "DTMNFR21": "040322",
    "DTMNFRSEC21": "040322001",
    "SECNUM21": "001",
    "SSNUM21": "13",
    "SECSSNUM21": "00113",
    "OBJECTID_1": 34784,
    "DT": "04",
    "CC": "03",
    "fr": "22",
    "SEC": "001",
    "SS": "13"
  },
  "addresses": [
    {
      "id": "pt.ine.add.PTCONT.850306",
      "street": "BC DO SOALHEIRO",
      "house": "6",
      "postcode": "5140-131",
      "city": "CASTANHEIRO",
      "lon": "-7.384575809577908",
      "lat": "41.23389768566181"
    },
    {
      "id": "pt.ine.add.PTCONT.851078",
      "street": "TV DO PAREDÃO",
      "house": "1",
      "postcode": "5140-131",
      "city": "CASTANHEIRO",
      "lon": "-7.3840479392734455",
      "lat": "41.233119894459314"
    },
    {
      "id": "pt.ine.add.PTCONT.853166",
      "street": "BC DO SOALHEIRO",
      "house": "3",
      "postcode": "5140-131",
      "city": "CASTANHEIRO",
      "lon": "-7.384707210643407",
      "lat": "41.23388053147444"
    },
    {
      "id": "pt.ine.add.PTCONT.853394",
      "street": "R CENTRAL",
      "house": "8",
      "postcode": "5140-131",
      "city": "CASTANHEIRO",
      "lon": "-7.3842392808398625",
      "lat": "41.233076118220495"
    },
    {
      "id": "pt.ine.add.PTCONT.856009",
      "street": "BC DO SOALHEIRO",
      "house": "5",
      "postcode": "5140-131",
      "city": "CASTANHEIRO",
      "lon": "-7.384635238573463",
      "lat": "41.23391608032003"
    },
    {
      "id": "pt.ine.add.PTCONT.858074",
      "street": "R DAS AMOREIRAS",
      "house": "2",
      "postcode": "5140-131",
      "city": "CASTANHEIRO",
      "lon": "-7.384479880923371",
      "lat": "41.23394208283545"
    },
    {
      "id": "pt.ine.add.PTCONT.861047",
      "street": "R DO CRUZEIRO",
      "house": "5",
      "postcode": "5140-131",
      "city": "CASTANHEIRO",
      "lon": "-7.385470428284594",
      "lat": "41.2338944938183"
    },
    {
      "id": "pt.ine.add.PTCONT.864973",
      "street": "R CENTRAL",
      "house": "8",
      "postcode": "5140-131",
      "city": "CASTANHEIRO",
      "lon": "-7.384819172976453",
      "lat": "41.233476071624445"
    },
    {
      "id": "pt.ine.add.PTCONT.864974",
      "street": "BC DAS FLORES",
      "house": "4",
      "postcode": "5140-131",
      "city": "CASTANHEIRO",
      "lon": "-7.3843629750554065",
      "lat": "41.233734226853635"
    },
    {
      "id": "pt.ine.add.PTCONT.866214",
      "street": "R DO SOALHEIRO",
      "house": "5",
      "postcode": "5140-131",
      "city": "CASTANHEIRO",
      "lon": "-7.384650965344482",
      "lat": "41.233583028370994"
    },
    {
      "id": "pt.ine.add.PTCONT.867114",
      "street": "R DO SOALHEIRO",
      "house": "9",
      "postcode": "5140-131",
      "city": "CASTANHEIRO",
      "lon": "-7.384733015478133",
      "lat": "41.2337096200246"
    },
    {
      "id": "pt.ine.add.PTCONT.867988",
      "street": "R CENTRAL",
      "house": "",
      "postcode": "5140-131",
      "city": "CASTANHEIRO",
      "lon": "-7.384310532987176",
      "lat": "41.23310359410954"
    },
    {
      "id": "pt.ine.add.PTCONT.870984",
      "street": "R DO SOALHEIRO",
      "house": "6",
      "postcode": "5140-131",
      "city": "CASTANHEIRO",
      "lon": "-7.384601922879961",
      "lat": "41.23369976374684"
    },
    {
      "id": "pt.ine.add.PTCONT.871736",
      "street": "R DO CRUZEIRO",
      "house": "1",
      "postcode": "5140-131",
      "city": "CASTANHEIRO",
      "lon": "-7.384836352801555",
      "lat": "41.23406145412421"
    },
    {
      "id": "pt.ine.add.PTCONT.878590",
      "street": "TV DA AMOREIRA",
      "house": "2",
      "postcode": "5140-131",
      "city": "CASTANHEIRO",
      "lon": "-7.384447593002114",
      "lat": "41.233635731231736"
    },
    {
      "id": "pt.ine.add.PTCONT.883151",
      "street": "R DO SOALHEIRO",
      "house": "4",
      "postcode": "5140-131",
      "city": "CASTANHEIRO",
      "lon": "-7.384308169867859",
      "lat": "41.233310674598975"
    },
    {
      "id": "pt.ine.add.PTCONT.887128",
      "street": "LG DO CRUZEIRO",
      "house": "5",
      "postcode": "5140-131",
      "city": "CASTANHEIRO",
      "lon": "-7.38517164048545",
      "lat": "41.23394657837301"
    },
    {
      "id": "pt.ine.add.PTCONT.892004",
      "street": "R DAS MONTEIRAS",
      "house": "1",
      "postcode": "5140-131",
      "city": "CASTANHEIRO",
      "lon": "-7.38427054004753",
      "lat": "41.233472504892816"
    },
    {
      "id": "pt.ine.add.PTCONT.892593",
      "street": "R CENTRAL",
      "house": "4",
      "postcode": "5140-131",
      "city": "CASTANHEIRO",
      "lon": "-7.383231570861223",
      "lat": "41.23358279743022"
    },
    {
      "id": "pt.ine.add.PTCONT.892594",
      "street": "TV DO PAREDÃO",
      "house": "2",
      "postcode": "5140-131",
      "city": "CASTANHEIRO",
      "lon": "-7.38384425947954",
      "lat": "41.23319960676305"
    },
    {
      "id": "pt.ine.add.PTCONT.893356",
      "street": "R DAS MONTEIRAS",
      "house": "2",
      "postcode": "5140-131",
      "city": "CASTANHEIRO",
      "lon": "-7.3837461721065125",
      "lat": "41.23343307679877"
    },
    {
      "id": "pt.ine.add.PTCONT.895604",
      "street": "BC DO SOALHEIRO",
      "house": "4",
      "postcode": "5140-131",
      "city": "CASTANHEIRO",
      "lon": "-7.3845646016801645",
      "lat": "41.233834583632884"
    },
    {
      "id": "pt.ine.add.PTCONT.896894",
      "street": "BC DO CANELHO",
      "house": "2",
      "postcode": "5140-131",
      "city": "CASTANHEIRO",
      "lon": "-7.385255641804591",
      "lat": "41.233902103155074"
    },
    {
      "id": "pt.ine.add.PTCONT.899531",
      "street": "R DAS MONTEIRAS",
      "house": "10",
      "postcode": "5140-131",
      "city": "CASTANHEIRO",
      "lon": "-7.384055652063733",
      "lat": "41.23348911550093"
    },
    {
      "id": "pt.ine.add.PTCONT.901178",
      "street": "LG DO CRUZEIRO",
      "house": "1",
      "postcode": "5140-131",
      "city": "CASTANHEIRO",
      "lon": "-7.384980296970923",
      "lat": "41.23399035613839"
    },
    {
      "id": "pt.ine.add.PTCONT.903216",
      "street": "R CENTRAL",
      "house": "4",
      "postcode": "5140-131",
      "city": "CASTANHEIRO",
      "lon": "-7.3836163143061535",
      "lat": "41.2333151774286"
    },
    {
      "id": "pt.ine.add.PTCONT.903219",
      "street": "R DAS MONTEIRAS",
      "house": "12",
      "postcode": "5140-131",
      "city": "CASTANHEIRO",
      "lon": "-7.384281542106709",
      "lat": "41.23355361394931"
    },
    {
      "id": "pt.ine.add.PTCONT.904859",
      "street": "R DO SOALHEIRO",
      "house": "13",
      "postcode": "5140-131",
      "city": "CASTANHEIRO",
      "lon": "-7.385018233307987",
      "lat": "41.2338015151146"
    },
    {
      "id": "pt.ine.add.PTCONT.906118",
      "street": "R DO CRUZEIRO",
      "house": "3",
      "postcode": "5140-131",
      "city": "CASTANHEIRO",
      "lon": "-7.385278674658448",
      "lat": "41.23397428608505"
    },
    {
      "id": "pt.ine.add.PTCONT.909327",
      "street": "R DAS MONTEIRAS",
      "house": "8",
      "postcode": "5140-131",
      "city": "CASTANHEIRO",
      "lon": "-7.3839727811844815",
      "lat": "41.233434551361626"
    },
    {
      "id": "pt.ine.add.PTCONT.911605",
      "street": "BC DO SOALHEIRO",
      "house": "8",
      "postcode": "5140-131",
      "city": "CASTANHEIRO",
      "lon": "-7.384803139056326",
      "lat": "41.233836134108834"
    },
    {
      "id": "pt.ine.add.PTCONT.915329",
      "street": "R DO SOALHEIRO",
      "house": "2",
      "postcode": "5140-131",
      "city": "CASTANHEIRO",
      "lon": "-7.384369755718925",
      "lat": "41.233139995900046"
    },
    {
      "id": "pt.ine.add.PTCONT.919041",
      "street": "LG DO CRUZEIRO",
      "house": "3",
      "postcode": "5140-131",
      "city": "CASTANHEIRO",
      "lon": "-7.385100592336061",
      "lat": "41.233901096009866"
    },
    {
      "id": "pt.ine.add.PTCONT.921193",
      "street": "R DO SOALHEIRO",
      "house": "11",
      "postcode": "5140-131",
      "city": "CASTANHEIRO",
      "lon": "-7.384934950585367",
      "lat": "41.23378296566071"
    },
    {
      "id": "pt.ine.add.PTCONT.921440",
      "street": "TV DO PAREDÃO",
      "house": "3",
      "postcode": "5140-131",
      "city": "CASTANHEIRO",
      "lon": "-7.383975145372477",
      "lat": "41.23322747089254"
    },
    {
      "id": "pt.ine.add.PTCONT.922185",
      "street": "LG DO FONTANÁRIO",
      "house": "2",
      "postcode": "5140-131",
      "city": "CASTANHEIRO",
      "lon": "-7.3855429127728165",
      "lat": "41.23381392694104"
    },
    {
      "id": "pt.ine.add.PTCONT.922697",
      "street": "R CENTRAL",
      "house": "6",
      "postcode": "5140-131",
      "city": "CASTANHEIRO",
      "lon": "-7.384131734738885",
      "lat": "41.233093427051045"
    },
    {
      "id": "pt.ine.add.PTCONT.927641",
      "street": "R DAS AMOREIRAS",
      "house": "4",
      "postcode": "5140-131",
      "city": "CASTANHEIRO",
      "lon": "-7.384538488205938",
      "lat": "41.23403250553334"
    },
    {
      "id": "pt.ine.add.PTCONT.929144",
      "street": "R DO SOALHEIRO",
      "house": "7",
      "postcode": "5140-131",
      "city": "CASTANHEIRO",
      "lon": "-7.384709675241849",
      "lat": "41.23366444748704"
    },
    {
      "id": "pt.ine.add.PTCONT.929938",
      "street": "R DO SOALHEIRO",
      "house": "1",
      "postcode": "5140-131",
      "city": "CASTANHEIRO",
      "lon": "-7.3845210028941555",
      "lat": "41.23347413350758"
    },
    {
      "id": "pt.ine.add.PTCONT.931515",
      "street": "R DO SOALHEIRO",
      "house": "6",
      "postcode": "5140-131",
      "city": "CASTANHEIRO",
      "lon": "-7.384436898909316",
      "lat": "41.23352761169258"
    },
    {
      "id": "pt.ine.add.PTCONT.935278",
      "street": "BC DO SOALHEIRO",
      "house": "2",
      "postcode": "5140-131",
      "city": "CASTANHEIRO",
      "lon": "-7.384720061733345",
      "lat": "41.23379957750073"
    },
    {
      "id": "pt.ine.add.PTCONT.940681",
      "street": "R DO SOALHEIRO",
      "house": "8",
      "postcode": "5140-131",
      "city": "CASTANHEIRO",
      "lon": "-7.3849337186552795",
      "lat": "41.23389100765877"
    },
    {
      "id": "pt.ine.add.PTCONT.941637",
      "street": "TV DAS MONTEIRAS",
      "house": "1",
      "postcode": "5140-131",
      "city": "CASTANHEIRO",
      "lon": "-7.3841283433603495",
      "lat": "41.233390542521875"
    },
    {
      "id": "pt.ine.add.PTCONT.942645",
      "street": "R DAS MONTEIRAS",
      "house": "3",
      "postcode": "5140-131",
      "city": "CASTANHEIRO",
      "lon": "-7.384378086736653",
      "lat": "41.233455195938724"
    },
    {
      "id": "pt.ine.add.PTCONT.942856",
      "street": "BC DO CANELHO",
      "house": "1",
      "postcode": "5140-131",
      "city": "CASTANHEIRO",
      "lon": "-7.385137501945995",
      "lat": "41.23380228994397"
    },
    {
      "id": "pt.ine.add.PTCONT.949480",
      "street": "R DO SOALHEIRO",
      "house": "2",
      "postcode": "5140-131",
      "city": "CASTANHEIRO",
      "lon": "-7.384580226075662",
      "lat": "41.2335105351913"
    }
  ]
}