{
  "data": {
    "distrito": "Vila Real",
    "concelho": "Ribeira de Pena",
    "freguesia": "União das freguesias de Cerva e Limões",
    "OBJECTID": 145,
    "BGRI2021": "17090800125",
    "DT21": "17",
    "DTMN21": "1709",
    "DTMNFR21": "170908",
    "DTMNFRSEC21": "170908001",
    "SECNUM21": "001",
    "SSNUM21": "25",
    "SECSSNUM21": "00125",
    "OBJECTID_1": 184636,
    "DT": "17",
    "CC": "09",
    "fr": "08",
    "SEC": "001",
    "SS": "25"
  },
  "addresses": [
    {
      "id": "pt.ine.add.PTCONT.5302037",
      "street": "R PADRE ARMINDO FERREIRA",
      "house": "",
      "postcode": "4870-078",
      "city": "LIMÕES",
      "lon": "-7.82803072673032",
      "lat": "41.453600142989615"
    },
    {
      "id": "pt.ine.add.PTCONT.5313649",
      "street": "",
      "house": "",
      "postcode": "4870-078",
      "city": "LIMÕES",
      "lon": "-7.830142381989248",
      "lat": "41.455037344880395"
    },
    {
      "id": "pt.ine.add.PTCONT.5340408",
      "street": "R CENTRAL",
      "house": "",
      "postcode": "4870-078",
      "city": "LIMÕES",
      "lon": "-7.825288378051703",
      "lat": "41.453952994011956"
    },
    {
      "id": "pt.ine.add.PTCONT.5344113",
      "street": "",
      "house": "",
      "postcode": "4870-078",
      "city": "LIMÕES",
      "lon": "-7.8282101185788235",
      "lat": "41.45362763031383"
    },
    {
      "id": "pt.ine.add.PTCONT.5344944",
      "street": "R CENTRAL",
      "house": "",
      "postcode": "4870-078",
      "city": "LIMÕES",
      "lon": "-7.827887618543872",
      "lat": "41.45349171648509"
    },
    {
      "id": "pt.ine.add.PTCONT.5357991",
      "street": "",
      "house": "",
      "postcode": "4870-078",
      "city": "LIMÕES",
      "lon": "-7.831368091786526",
      "lat": "41.45655322245048"
    },
    {
      "id": "pt.ine.add.PTCONT.5365998",
      "street": "R CENTRAL",
      "house": "",
      "postcode": "4870-078",
      "city": "LIMÕES",
      "lon": "-7.82786279639873",
      "lat": "41.45368073269542"
    },
    {
      "id": "pt.ine.add.PTCONT.5389353",
      "street": "",
      "house": "",
      "postcode": "4870-078",
      "city": "LIMÕES",
      "lon": "-7.829354122002022",
      "lat": "41.45468411385812"
    },
    {
      "id": "pt.ine.add.PTCONT.5389354",
      "street": "R CENTRAL",
      "house": "",
      "postcode": "4870-078",
      "city": "LIMÕES",
      "lon": "-7.827731656200232",
      "lat": "41.453572337753904"
    },
    {
      "id": "pt.ine.add.PTCONT.5398756",
      "street": "",
      "house": "",
      "postcode": "4870-078",
      "city": "LIMÕES",
      "lon": "-7.827957991066144",
      "lat": "41.45379803605031"
    },
    {
      "id": "pt.ine.add.PTCONT.5401087",
      "street": "R CENTRAL",
      "house": "",
      "postcode": "4870-078",
      "city": "LIMÕES",
      "lon": "-7.824699602849092",
      "lat": "41.454446631936996"
    },
    {
      "id": "pt.ine.add.PTCONT.5418065",
      "street": "",
      "house": "",
      "postcode": "4870-078",
      "city": "LIMÕES",
      "lon": "-7.828376573481894",
      "lat": "41.45386217297212"
    }
  ]
}