{
  "data": {
    "distrito": "Bragan√ßa",
    "concelho": "Vinhais",
    "freguesia": "Vilar de Peregrinos",
    "OBJECTID": 694,
    "BGRI2021": "04123300114",
    "DT21": "04",
    "DTMN21": "0412",
    "DTMNFR21": "041233",
    "DTMNFRSEC21": "041233001",
    "SECNUM21": "001",
    "SSNUM21": "14",
    "SECSSNUM21": "00114",
    "OBJECTID_1": 39664,
    "DT": "04",
    "CC": "12",
    "fr": "33",
    "SEC": "001",
    "SS": "14"
  },
  "addresses": [
    {
      "id": "pt.ine.add.PTCONT.851506",
      "street": "R DA EIRA",
      "house": "",
      "postcode": "5320-251",
      "city": "VILAR DE PEREGRINOS",
      "lon": "-7.022741308494069",
      "lat": "41.788787532289504"
    },
    {
      "id": "pt.ine.add.PTCONT.855560",
      "street": "SIT DA MINA",
      "house": "",
      "postcode": "5320-251",
      "city": "VILAR DE PEREGRINOS",
      "lon": "-7.022142901507819",
      "lat": "41.78721518854765"
    },
    {
      "id": "pt.ine.add.PTCONT.855658",
      "street": "R DA EIRA",
      "house": "",
      "postcode": "5320-251",
      "city": "VILAR DE PEREGRINOS",
      "lon": "-7.022446048976711",
      "lat": "41.788469565677445"
    },
    {
      "id": "pt.ine.add.PTCONT.858437",
      "street": "R DO SOALHEIRO",
      "house": "",
      "postcode": "5320-251",
      "city": "VILAR DE PEREGRINOS",
      "lon": "-7.022831029222779",
      "lat": "41.7877710372754"
    },
    {
      "id": "pt.ine.add.PTCONT.871359",
      "street": "R DA EIRA",
      "house": "",
      "postcode": "5320-251",
      "city": "VILAR DE PEREGRINOS",
      "lon": "-7.023750957299055",
      "lat": "41.78814005336505"
    },
    {
      "id": "pt.ine.add.PTCONT.872942",
      "street": "R DA EIRA",
      "house": "",
      "postcode": "5320-251",
      "city": "VILAR DE PEREGRINOS",
      "lon": "-7.0225489531192515",
      "lat": "41.78808342275252"
    },
    {
      "id": "pt.ine.add.PTCONT.879787",
      "street": "R DO CIMO DO POVO",
      "house": "",
      "postcode": "5320-251",
      "city": "VILAR DE PEREGRINOS",
      "lon": "-7.0230636797353565",
      "lat": "41.786836952156584"
    },
    {
      "id": "pt.ine.add.PTCONT.882738",
      "street": "R DO CIMO DO POVO",
      "house": "",
      "postcode": "5320-251",
      "city": "VILAR DE PEREGRINOS",
      "lon": "-7.022645265803967",
      "lat": "41.78738210375119"
    },
    {
      "id": "pt.ine.add.PTCONT.882741",
      "street": "R DA EIRA",
      "house": "",
      "postcode": "5320-251",
      "city": "VILAR DE PEREGRINOS",
      "lon": "-7.022755755889198",
      "lat": "41.78795037382649"
    },
    {
      "id": "pt.ine.add.PTCONT.891186",
      "street": "R DO FUNDO",
      "house": "",
      "postcode": "5320-251",
      "city": "VILAR DE PEREGRINOS",
      "lon": "-7.022343392728606",
      "lat": "41.78814445766907"
    },
    {
      "id": "pt.ine.add.PTCONT.894885",
      "street": "R DO FUNDO",
      "house": "",
      "postcode": "5320-251",
      "city": "VILAR DE PEREGRINOS",
      "lon": "-7.022294659849891",
      "lat": "41.78817999924892"
    },
    {
      "id": "pt.ine.add.PTCONT.894930",
      "street": "R DOS PAUS",
      "house": "",
      "postcode": "5320-251",
      "city": "VILAR DE PEREGRINOS",
      "lon": "-7.022011491168914",
      "lat": "41.78855539524339"
    },
    {
      "id": "pt.ine.add.PTCONT.898863",
      "street": "R DA IGREJA",
      "house": "",
      "postcode": "5320-251",
      "city": "VILAR DE PEREGRINOS",
      "lon": "-7.022245771499513",
      "lat": "41.78822454250982"
    },
    {
      "id": "pt.ine.add.PTCONT.901931",
      "street": "R DO SOALHEIRO",
      "house": "",
      "postcode": "5320-251",
      "city": "VILAR DE PEREGRINOS",
      "lon": "-7.023073602956742",
      "lat": "41.78765633991606"
    },
    {
      "id": "pt.ine.add.PTCONT.901932",
      "street": "R DOS PAUS",
      "house": "",
      "postcode": "5320-251",
      "city": "VILAR DE PEREGRINOS",
      "lon": "-7.022650147033799",
      "lat": "41.78779629844525"
    },
    {
      "id": "pt.ine.add.PTCONT.902680",
      "street": "R DO CANELHO",
      "house": "",
      "postcode": "5320-251",
      "city": "VILAR DE PEREGRINOS",
      "lon": "-7.022292017856105",
      "lat": "41.78833302819468"
    },
    {
      "id": "pt.ine.add.PTCONT.915705",
      "street": "R DO CIMO DO POVO",
      "house": "",
      "postcode": "5320-251",
      "city": "VILAR DE PEREGRINOS",
      "lon": "-7.0226173264269915",
      "lat": "41.787606913826686"
    },
    {
      "id": "pt.ine.add.PTCONT.920244",
      "street": "R DA EIRA",
      "house": "",
      "postcode": "5320-251",
      "city": "VILAR DE PEREGRINOS",
      "lon": "-7.0225501961145715",
      "lat": "41.7880114091221"
    },
    {
      "id": "pt.ine.add.PTCONT.922597",
      "street": "R DA IGREJA",
      "house": "",
      "postcode": "5320-251",
      "city": "VILAR DE PEREGRINOS",
      "lon": "-7.022420221363858",
      "lat": "41.78787510437485"
    },
    {
      "id": "pt.ine.add.PTCONT.922599",
      "street": "R DO CIMO DO POVO",
      "house": "",
      "postcode": "5320-251",
      "city": "VILAR DE PEREGRINOS",
      "lon": "-7.02277399734167",
      "lat": "41.78759042189111"
    },
    {
      "id": "pt.ine.add.PTCONT.923321",
      "street": "R DA IGREJA",
      "house": "",
      "postcode": "5320-251",
      "city": "VILAR DE PEREGRINOS",
      "lon": "-7.022188430043449",
      "lat": "41.78806193026945"
    },
    {
      "id": "pt.ine.add.PTCONT.923704",
      "street": "R DO CIMO DO POVO",
      "house": "",
      "postcode": "5320-251",
      "city": "VILAR DE PEREGRINOS",
      "lon": "-7.022860831873605",
      "lat": "41.78743820667859"
    },
    {
      "id": "pt.ine.add.PTCONT.928042",
      "street": "R DOS PAUS",
      "house": "",
      "postcode": "5320-251",
      "city": "VILAR DE PEREGRINOS",
      "lon": "-7.022000551461559",
      "lat": "41.78849226699209"
    },
    {
      "id": "pt.ine.add.PTCONT.928569",
      "street": "R DA EIRA",
      "house": "",
      "postcode": "5320-251",
      "city": "VILAR DE PEREGRINOS",
      "lon": "-7.02262127527666",
      "lat": "41.78807511872813"
    },
    {
      "id": "pt.ine.add.PTCONT.928894",
      "street": "R DO SOALHEIRO",
      "house": "",
      "postcode": "5320-251",
      "city": "VILAR DE PEREGRINOS",
      "lon": "-7.02420172677118",
      "lat": "41.78781128711812"
    },
    {
      "id": "pt.ine.add.PTCONT.930324",
      "street": "R DO CANELHO",
      "house": "",
      "postcode": "5320-251",
      "city": "VILAR DE PEREGRINOS",
      "lon": "-7.022593956940628",
      "lat": "41.78826392195214"
    },
    {
      "id": "pt.ine.add.PTCONT.931156",
      "street": "R DO CIMO DO POVO",
      "house": "",
      "postcode": "5320-251",
      "city": "VILAR DE PEREGRINOS",
      "lon": "-7.022643556868236",
      "lat": "41.78748112250685"
    },
    {
      "id": "pt.ine.add.PTCONT.937305",
      "street": "R DA EIRA",
      "house": "",
      "postcode": "5320-251",
      "city": "VILAR DE PEREGRINOS",
      "lon": "-7.0224358858158515",
      "lat": "41.78836142894699"
    },
    {
      "id": "pt.ine.add.PTCONT.941761",
      "street": "R DA IGREJA",
      "house": "",
      "postcode": "5320-251",
      "city": "VILAR DE PEREGRINOS",
      "lon": "-7.022229391900343",
      "lat": "41.788476473859355"
    },
    {
      "id": "pt.ine.add.PTCONT.946617",
      "street": "R DA EIRA",
      "house": "",
      "postcode": "5320-251",
      "city": "VILAR DE PEREGRINOS",
      "lon": "-7.022729836154216",
      "lat": "41.78805816175354"
    },
    {
      "id": "pt.ine.add.PTCONT.950623",
      "street": "R DO CIMO DO POVO",
      "house": "",
      "postcode": "5320-251",
      "city": "VILAR DE PEREGRINOS",
      "lon": "-7.022310106648946",
      "lat": "41.78798207809255"
    }
  ]
}