{
  "data": {
    "distrito": "Leiria",
    "concelho": "Pombal",
    "freguesia": "Redinha",
    "OBJECTID": 1025,
    "BGRI2021": "10151000240",
    "DT21": "10",
    "DTMN21": "1015",
    "DTMNFR21": "101510",
    "DTMNFRSEC21": "101510002",
    "SECNUM21": "002",
    "SSNUM21": "40",
    "SECSSNUM21": "00240",
    "OBJECTID_1": 95874,
    "DT": "10",
    "CC": "15",
    "fr": "10",
    "SEC": "002",
    "SS": "40"
  },
  "addresses": [
    {
      "id": "pt.ine.add.PTCONT.1985899",
      "street": "R FOJO",
      "house": "3",
      "postcode": "3105-346",
      "city": "REDINHA",
      "lon": "-8.568479016577966",
      "lat": "39.97057188084208"
    },
    {
      "id": "pt.ine.add.PTCONT.1990294",
      "street": "ESTRADA DE ANCOS",
      "house": "4",
      "postcode": "3105-313",
      "city": "REDINHA",
      "lon": "-8.569888258494306",
      "lat": "39.97313334546936"
    },
    {
      "id": "pt.ine.add.PTCONT.2042884",
      "street": "R FOJO",
      "house": "5",
      "postcode": "3105-346",
      "city": "REDINHA",
      "lon": "-8.568293619999105",
      "lat": "39.97086978156446"
    },
    {
      "id": "pt.ine.add.PTCONT.2066969",
      "street": "R FOJO",
      "house": "1",
      "postcode": "3105-346",
      "city": "REDINHA",
      "lon": "-8.568631011171918",
      "lat": "39.97054429128352"
    },
    {
      "id": "pt.ine.add.PTCONT.2069274",
      "street": "R PRINCIPAL",
      "house": "2",
      "postcode": "3105-313",
      "city": "REDINHA",
      "lon": "-8.571210636733754",
      "lat": "39.9730743180088"
    },
    {
      "id": "pt.ine.add.PTCONT.2165518",
      "street": "R FOJO",
      "house": "4",
      "postcode": "3105-346",
      "city": "REDINHA",
      "lon": "-8.568057462356554",
      "lat": "39.97054644475463"
    },
    {
      "id": "pt.ine.add.PTCONT.2169852",
      "street": "R FOJO",
      "house": "",
      "postcode": "3105-346",
      "city": "REDINHA",
      "lon": "-8.568198094598314",
      "lat": "39.97057293559027"
    },
    {
      "id": "pt.ine.add.PTCONT.2171983",
      "street": "R PRINCIPAL",
      "house": "7",
      "postcode": "3105-346",
      "city": "REDINHA",
      "lon": "-8.56915004035427",
      "lat": "39.971172773949306"
    },
    {
      "id": "pt.ine.add.PTCONT.2191754",
      "street": "R FOJO",
      "house": "7",
      "postcode": "3105-346",
      "city": "REDINHA",
      "lon": "-8.568095317782975",
      "lat": "39.970978600244806"
    },
    {
      "id": "pt.ine.add.PTCONT.2227162",
      "street": "R PRINCIPAL",
      "house": "4",
      "postcode": "3105-313",
      "city": "REDINHA",
      "lon": "-8.570976411692493",
      "lat": "39.973057190620246"
    }
  ]
}