{
  "data": {
    "distrito": "Leiria",
    "concelho": "Caldas da Rainha",
    "freguesia": "União das freguesias de Caldas da Rainha - Nossa Senhora do Pópulo, Coto e São Gregório",
    "OBJECTID": 51,
    "BGRI2021": "10061701111",
    "DT21": "10",
    "DTMN21": "1006",
    "DTMNFR21": "100617",
    "DTMNFRSEC21": "100617011",
    "SECNUM21": "011",
    "SSNUM21": "11",
    "SECSSNUM21": "01111",
    "OBJECTID_1": 87902,
    "DT": "10",
    "CC": "06",
    "fr": "17",
    "SEC": "011",
    "SS": "11"
  },
  "addresses": [
    {
      "id": "pt.ine.add.PTCONT.1986812",
      "street": "R DR FRANCISCO SA CARNEIRO",
      "house": "",
      "postcode": "2500-065",
      "city": "SÃO GREGÓRIO CLD",
      "lon": "-9.056848979643178",
      "lat": "39.352014878653385"
    },
    {
      "id": "pt.ine.add.PTCONT.1989060",
      "street": "R DR FRANCISCO SA CARNEIRO",
      "house": "23",
      "postcode": "2500-065",
      "city": "SÃO GREGÓRIO CLD",
      "lon": "-9.057100672612265",
      "lat": "39.353508038188934"
    },
    {
      "id": "pt.ine.add.PTCONT.2006971",
      "street": "R DR FRANCISCO SA CARNEIRO",
      "house": "67",
      "postcode": "2500-065",
      "city": "SÃO GREGÓRIO CLD",
      "lon": "-9.055946310719015",
      "lat": "39.352184165685784"
    },
    {
      "id": "pt.ine.add.PTCONT.2037322",
      "street": "R DR FRANCISCO SA CARNEIRO",
      "house": "5",
      "postcode": "2500-065",
      "city": "SÃO GREGÓRIO CLD",
      "lon": "-9.058511239452306",
      "lat": "39.35490191747607"
    },
    {
      "id": "pt.ine.add.PTCONT.2043826",
      "street": "R DR FRANCISCO SA CARNEIRO",
      "house": "11",
      "postcode": "2500-065",
      "city": "SÃO GREGÓRIO CLD",
      "lon": "-9.05766840641792",
      "lat": "39.35433217050734"
    },
    {
      "id": "pt.ine.add.PTCONT.2055081",
      "street": "R ENG ADELINO AMARO DA COSTA",
      "house": "",
      "postcode": "2500-065",
      "city": "SÃO GREGÓRIO CLD",
      "lon": "-9.056225452621112",
      "lat": "39.354001360485"
    },
    {
      "id": "pt.ine.add.PTCONT.2067180",
      "street": "R ENG ADELINO AMARO DA COSTA",
      "house": "16",
      "postcode": "2500-065",
      "city": "SÃO GREGÓRIO CLD",
      "lon": "-9.056217526507075",
      "lat": "39.35428063949057"
    },
    {
      "id": "pt.ine.add.PTCONT.2071384",
      "street": "R DR FRANCISCO SA CARNEIRO",
      "house": "3",
      "postcode": "2500-065",
      "city": "SÃO GREGÓRIO CLD",
      "lon": "-9.05877935812686",
      "lat": "39.35499886175443"
    },
    {
      "id": "pt.ine.add.PTCONT.2083536",
      "street": "R DR FRANCISCO SA CARNEIRO",
      "house": "3",
      "postcode": "2500-065",
      "city": "SÃO GREGÓRIO CLD",
      "lon": "-9.05606895990586",
      "lat": "39.353570267039004"
    },
    {
      "id": "pt.ine.add.PTCONT.2095216",
      "street": "R DR FRANCISCO SA CARNEIRO",
      "house": "1",
      "postcode": "2500-065",
      "city": "SÃO GREGÓRIO CLD",
      "lon": "-9.058966273889387",
      "lat": "39.35509645148216"
    },
    {
      "id": "pt.ine.add.PTCONT.2100223",
      "street": "R DR FRANCISCO SA CARNEIRO",
      "house": "12",
      "postcode": "2500-065",
      "city": "SÃO GREGÓRIO CLD",
      "lon": "-9.057241536918657",
      "lat": "39.35363301728378"
    },
    {
      "id": "pt.ine.add.PTCONT.2103950",
      "street": "R DR FRANCISCO SA CARNEIRO",
      "house": "17 A",
      "postcode": "2500-065",
      "city": "SÃO GREGÓRIO CLD",
      "lon": "-9.057406907763642",
      "lat": "39.35385687825588"
    },
    {
      "id": "pt.ine.add.PTCONT.2137890",
      "street": "R DR FRANCISCO SA CARNEIRO",
      "house": "19",
      "postcode": "2500-065",
      "city": "SÃO GREGÓRIO CLD",
      "lon": "-9.057348075484185",
      "lat": "39.353794296709395"
    },
    {
      "id": "pt.ine.add.PTCONT.2140435",
      "street": "R DR FRANCISCO SA CARNEIRO",
      "house": "81",
      "postcode": "2500-065",
      "city": "SÃO GREGÓRIO CLD",
      "lon": "-9.056158799284173",
      "lat": "39.35334438016669"
    },
    {
      "id": "pt.ine.add.PTCONT.2162062",
      "street": "R DR FRANCISCO SA CARNEIRO",
      "house": "7",
      "postcode": "2500-065",
      "city": "SÃO GREGÓRIO CLD",
      "lon": "-9.058243121509442",
      "lat": "39.35480497256953"
    },
    {
      "id": "pt.ine.add.PTCONT.2186030",
      "street": "R ENG ADELINO AMARO DA COSTA",
      "house": "4",
      "postcode": "2500-065",
      "city": "SÃO GREGÓRIO CLD",
      "lon": "-9.058064996077167",
      "lat": "39.35537382756411"
    },
    {
      "id": "pt.ine.add.PTCONT.2207602",
      "street": "R ENG ADELINO AMARO DA COSTA",
      "house": "18",
      "postcode": "2500-065",
      "city": "SÃO GREGÓRIO CLD",
      "lon": "-9.057085632008887",
      "lat": "39.35324695539701"
    },
    {
      "id": "pt.ine.add.PTCONT.2212508",
      "street": "R BAIRRO DO CASTELO",
      "house": "1",
      "postcode": "2500-065",
      "city": "SÃO GREGÓRIO CLD",
      "lon": "-9.058666442971056",
      "lat": "39.355233941063844"
    },
    {
      "id": "pt.ine.add.PTCONT.2221796",
      "street": "R DR FRANCISCO SA CARNEIRO",
      "house": "",
      "postcode": "2500-065",
      "city": "SÃO GREGÓRIO CLD",
      "lon": "-9.056812282130354",
      "lat": "39.35187105833474"
    },
    {
      "id": "pt.ine.add.PTCONT.2221797",
      "street": "R DR FRANCISCO SA CARNEIRO",
      "house": "61",
      "postcode": "2500-065",
      "city": "SÃO GREGÓRIO CLD",
      "lon": "-9.056909351813177",
      "lat": "39.35219453892628"
    },
    {
      "id": "pt.ine.add.PTCONT.2238948",
      "street": "R DR FRANCISCO SA CARNEIRO",
      "house": "15",
      "postcode": "2500-065",
      "city": "SÃO GREGÓRIO CLD",
      "lon": "-9.057454258499371",
      "lat": "39.35392855794009"
    },
    {
      "id": "pt.ine.add.PTCONT.2247923",
      "street": "R ENG ADELINO AMARO DA COSTA",
      "house": "2",
      "postcode": "2500-065",
      "city": "SÃO GREGÓRIO CLD",
      "lon": "-9.0582738063203",
      "lat": "39.35537216771476"
    },
    {
      "id": "pt.ine.add.PTCONT.2252328",
      "street": "R DR FRANCISCO SA CARNEIRO",
      "house": "73",
      "postcode": "2500-065",
      "city": "SÃO GREGÓRIO CLD",
      "lon": "-9.055983847751696",
      "lat": "39.35327371190904"
    }
  ]
}