{
  "data": {
    "distrito": "Leiria",
    "concelho": "Caldas da Rainha",
    "freguesia": "União das freguesias de Caldas da Rainha - Nossa Senhora do Pópulo, Coto e São Gregório",
    "OBJECTID": 422,
    "BGRI2021": "10061701132",
    "DT21": "10",
    "DTMN21": "1006",
    "DTMNFR21": "100617",
    "DTMNFRSEC21": "100617011",
    "SECNUM21": "011",
    "SSNUM21": "32",
    "SECSSNUM21": "01132",
    "OBJECTID_1": 88329,
    "DT": "10",
    "CC": "06",
    "fr": "17",
    "SEC": "011",
    "SS": "32"
  },
  "addresses": [
    {
      "id": "pt.ine.add.PTCONT.1982427",
      "street": "R PRINCIPAL",
      "house": "115",
      "postcode": "2500-065",
      "city": "SÃO GREGÓRIO CLD",
      "lon": "-9.086317516216912",
      "lat": "39.3708989852504"
    },
    {
      "id": "pt.ine.add.PTCONT.1984592",
      "street": "R PRINCIPAL",
      "house": "93",
      "postcode": "2500-065",
      "city": "SÃO GREGÓRIO CLD",
      "lon": "-9.082758467998046",
      "lat": "39.36858628299203"
    },
    {
      "id": "pt.ine.add.PTCONT.2002359",
      "street": "R PRINCIPAL",
      "house": "109",
      "postcode": "2500-065",
      "city": "SÃO GREGÓRIO CLD",
      "lon": "-9.08517332344622",
      "lat": "39.37038595062749"
    },
    {
      "id": "pt.ine.add.PTCONT.2013155",
      "street": "ESTR PRINCIPAL",
      "house": "185",
      "postcode": "2500-064",
      "city": "SÃO GREGÓRIO CLD",
      "lon": "-9.096545385014208",
      "lat": "39.37544430857069"
    },
    {
      "id": "pt.ine.add.PTCONT.2027551",
      "street": "R PRINCIPAL",
      "house": "133",
      "postcode": "2500-065",
      "city": "SÃO GREGÓRIO CLD",
      "lon": "-9.088588701525103",
      "lat": "39.37151084290683"
    },
    {
      "id": "pt.ine.add.PTCONT.2036336",
      "street": "ESTR COVA DA RAPOSA",
      "house": "3",
      "postcode": "2500-064",
      "city": "SÃO GREGÓRIO CLD",
      "lon": "-9.089594487758536",
      "lat": "39.371232371747055"
    },
    {
      "id": "pt.ine.add.PTCONT.2053931",
      "street": "R PRINCIPAL",
      "house": "95",
      "postcode": "2500-065",
      "city": "SÃO GREGÓRIO CLD",
      "lon": "-9.083248099313979",
      "lat": "39.368753417797286"
    },
    {
      "id": "pt.ine.add.PTCONT.2074294",
      "street": "ESTR PRINCIPAL",
      "house": "151",
      "postcode": "2500-064",
      "city": "SÃO GREGÓRIO CLD",
      "lon": "-9.091162807836954",
      "lat": "39.373056882606946"
    },
    {
      "id": "pt.ine.add.PTCONT.2096279",
      "street": "R COVA DOS ALMOCOS",
      "house": "6",
      "postcode": "2500-064",
      "city": "SÃO GREGÓRIO CLD",
      "lon": "-9.083809669765337",
      "lat": "39.36909109456803"
    },
    {
      "id": "pt.ine.add.PTCONT.2130693",
      "street": "R PRINCIPAL",
      "house": "137",
      "postcode": "2500-065",
      "city": "SÃO GREGÓRIO CLD",
      "lon": "-9.089064798573077",
      "lat": "39.37153395328275"
    },
    {
      "id": "pt.ine.add.PTCONT.2137891",
      "street": "ESTR COVA DA RAPOSA",
      "house": "1",
      "postcode": "2500-064",
      "city": "SÃO GREGÓRIO CLD",
      "lon": "-9.089270952532955",
      "lat": "39.371334106998006"
    },
    {
      "id": "pt.ine.add.PTCONT.2148891",
      "street": "R PRINCIPAL",
      "house": "111",
      "postcode": "2500-065",
      "city": "SÃO GREGÓRIO CLD",
      "lon": "-9.085466823305294",
      "lat": "39.370635742947"
    },
    {
      "id": "pt.ine.add.PTCONT.2150391",
      "street": "R PRINCIPAL",
      "house": "133",
      "postcode": "2500-066",
      "city": "CALDAS DA RAINHA",
      "lon": "-9.088518591711813",
      "lat": "39.37147539087"
    },
    {
      "id": "pt.ine.add.PTCONT.2157651",
      "street": "R PRINCIPAL",
      "house": "135",
      "postcode": "2500-065",
      "city": "SÃO GREGÓRIO CLD",
      "lon": "-9.088798663038405",
      "lat": "39.37159018099558"
    },
    {
      "id": "pt.ine.add.PTCONT.2159931",
      "street": "R PRINCIPAL",
      "house": "99",
      "postcode": "2500-065",
      "city": "SÃO GREGÓRIO CLD",
      "lon": "-9.083835440102023",
      "lat": "39.36928002965673"
    },
    {
      "id": "pt.ine.add.PTCONT.2166510",
      "street": "ESTR COVA DA RAPOSA",
      "house": "139",
      "postcode": "2500-064",
      "city": "SÃO GREGÓRIO CLD",
      "lon": "-9.089367463037954",
      "lat": "39.37160352177287"
    },
    {
      "id": "pt.ine.add.PTCONT.2168041",
      "street": "ESTR PRINCIPAL",
      "house": "155",
      "postcode": "2500-064",
      "city": "SÃO GREGÓRIO CLD",
      "lon": "-9.091865046835974",
      "lat": "39.37349243782569"
    },
    {
      "id": "pt.ine.add.PTCONT.2177233",
      "street": "R PRINCIPAL",
      "house": "113",
      "postcode": "2500-065",
      "city": "SÃO GREGÓRIO CLD",
      "lon": "-9.086037818891699",
      "lat": "39.37081120684286"
    },
    {
      "id": "pt.ine.add.PTCONT.2188247",
      "street": "R ALTO DO SEIXO",
      "house": "5",
      "postcode": "2500-064",
      "city": "SÃO GREGÓRIO CLD",
      "lon": "-9.093702833478725",
      "lat": "39.3746481804591"
    },
    {
      "id": "pt.ine.add.PTCONT.2193122",
      "street": "ESTR FANADIA",
      "house": "26",
      "postcode": "2500-128",
      "city": "CALDAS DA RAINHA",
      "lon": "-9.098653781941557",
      "lat": "39.37854322471673"
    },
    {
      "id": "pt.ine.add.PTCONT.2210821",
      "street": "ESTR PRINCIPAL",
      "house": "193",
      "postcode": "2500-064",
      "city": "SÃO GREGÓRIO CLD",
      "lon": "-9.09752126097476",
      "lat": "39.376363936739736"
    },
    {
      "id": "pt.ine.add.PTCONT.2244578",
      "street": "R PRINCIPAL",
      "house": "107",
      "postcode": "2500-065",
      "city": "SÃO GREGÓRIO CLD",
      "lon": "-9.084892773629749",
      "lat": "39.370235127888805"
    },
    {
      "id": "pt.ine.add.PTCONT.2255903",
      "street": "R PRINCIPAL",
      "house": "101",
      "postcode": "2500-065",
      "city": "SÃO GREGÓRIO CLD",
      "lon": "-9.084163983383185",
      "lat": "39.36954755289021"
    },
    {
      "id": "pt.ine.add.PTCONT.2258321",
      "street": "ESTR PRINCIPAL",
      "house": "141",
      "postcode": "2500-064",
      "city": "SÃO GREGÓRIO CLD",
      "lon": "-9.089587185579298",
      "lat": "39.37154767428524"
    },
    {
      "id": "pt.ine.add.PTCONT.2264979",
      "street": "R PRINCIPAL",
      "house": "95A",
      "postcode": "2500-065",
      "city": "SÃO GREGÓRIO CLD",
      "lon": "-9.08347038188638",
      "lat": "39.36888670660588"
    }
  ]
}