{
  "data": {
    "distrito": "Aveiro",
    "concelho": "Albergaria-A-Velha",
    "freguesia": "São João de Loure e Frossos",
    "OBJECTID": 438,
    "BGRI2021": "01021000321",
    "DT21": "01",
    "DTMN21": "0102",
    "DTMNFR21": "010210",
    "DTMNFRSEC21": "010210003",
    "SECNUM21": "003",
    "SSNUM21": "21",
    "SECSSNUM21": "00321",
    "OBJECTID_1": 1109,
    "DT": "01",
    "CC": "02",
    "fr": "10",
    "SEC": "003",
    "SS": "21"
  },
  "addresses": [
    {
      "id": "pt.ine.add.PTCONT.297822",
      "street": "R OUTEIRO",
      "house": "",
      "postcode": "3850-635",
      "city": "FROSSOS",
      "lon": "-8.533487420127603",
      "lat": "40.66299975907671"
    },
    {
      "id": "pt.ine.add.PTCONT.312568",
      "street": "R OUTEIRO",
      "house": "",
      "postcode": "3850-635",
      "city": "FROSSOS",
      "lon": "-8.534828644907932",
      "lat": "40.66185144906165"
    },
    {
      "id": "pt.ine.add.PTCONT.321732",
      "street": "R VALE VINHA",
      "house": "5A",
      "postcode": "3850-645",
      "city": "FROSSOS",
      "lon": "-8.537099590902933",
      "lat": "40.659970458414314"
    },
    {
      "id": "pt.ine.add.PTCONT.323545",
      "street": "TV VALE VINHA",
      "house": "7",
      "postcode": "3850-646",
      "city": "FROSSOS",
      "lon": "-8.537158062782543",
      "lat": "40.659862192215385"
    },
    {
      "id": "pt.ine.add.PTCONT.323704",
      "street": "R VALE VINHA",
      "house": "5A",
      "postcode": "3850-645",
      "city": "FROSSOS",
      "lon": "-8.537099590902933",
      "lat": "40.659970458414314"
    },
    {
      "id": "pt.ine.add.PTCONT.324542",
      "street": "R OUTEIRO",
      "house": "1",
      "postcode": "3850-635",
      "city": "FROSSOS",
      "lon": "-8.535193530446403",
      "lat": "40.65959889573017"
    },
    {
      "id": "pt.ine.add.PTCONT.337748",
      "street": "R JOSE GONÇALVES PINHO",
      "house": "6",
      "postcode": "3850-631",
      "city": "FROSSOS",
      "lon": "-8.538030372296731",
      "lat": "40.65940887982407"
    },
    {
      "id": "pt.ine.add.PTCONT.337750",
      "street": "R OUTEIRO",
      "house": "",
      "postcode": "3850-635",
      "city": "FROSSOS",
      "lon": "-8.53493155845749",
      "lat": "40.66126575739794"
    },
    {
      "id": "pt.ine.add.PTCONT.340295",
      "street": "R ENTRE CASAS",
      "house": "28 A",
      "postcode": "3850-628",
      "city": "FROSSOS",
      "lon": "-8.538204742657648",
      "lat": "40.660867099865285"
    },
    {
      "id": "pt.ine.add.PTCONT.2045",
      "street": "R ENTRE CASAS",
      "house": "28 FRACC",
      "postcode": "3850-628",
      "city": "FROSSOS",
      "lon": "-8.538251552049665",
      "lat": "40.66078588944304"
    },
    {
      "id": "pt.ine.add.PTCONT.5469",
      "street": "R ENTRE CASAS",
      "house": "",
      "postcode": "3850-628",
      "city": "FROSSOS",
      "lon": "-8.538163766327111",
      "lat": "40.65995772516282"
    },
    {
      "id": "pt.ine.add.PTCONT.24099",
      "street": "R VALE VINHA",
      "house": "3",
      "postcode": "3850-645",
      "city": "FROSSOS",
      "lon": "-8.537215882377359",
      "lat": "40.65964586665441"
    },
    {
      "id": "pt.ine.add.PTCONT.26714",
      "street": "TV VALE VINHA",
      "house": "4",
      "postcode": "3850-646",
      "city": "FROSSOS",
      "lon": "-8.537003852101911",
      "lat": "40.659781685515966"
    },
    {
      "id": "pt.ine.add.PTCONT.55752",
      "street": "R OUTEIRO",
      "house": "",
      "postcode": "3850-635",
      "city": "FROSSOS",
      "lon": "-8.535831306844585",
      "lat": "40.659470601233835"
    },
    {
      "id": "pt.ine.add.PTCONT.56854",
      "street": "R ENTRE CASAS",
      "house": "",
      "postcode": "3850-628",
      "city": "FROSSOS",
      "lon": "-8.53798257345819",
      "lat": "40.6612821151618"
    },
    {
      "id": "pt.ine.add.PTCONT.65488",
      "street": "R OUTEIRO",
      "house": "",
      "postcode": "3850-635",
      "city": "FROSSOS",
      "lon": "-8.535022537245215",
      "lat": "40.660662096860875"
    },
    {
      "id": "pt.ine.add.PTCONT.65489",
      "street": "TV MENDES",
      "house": "1",
      "postcode": "3850-612",
      "city": "FROSSOS",
      "lon": "-8.536257537835972",
      "lat": "40.65955916523418"
    },
    {
      "id": "pt.ine.add.PTCONT.65615",
      "street": "R COMEND AUGUSTO MARTINS PEREIRA",
      "house": "88",
      "postcode": "3850-612",
      "city": "FROSSOS",
      "lon": "-8.536776684968997",
      "lat": "40.65936824369229"
    },
    {
      "id": "pt.ine.add.PTCONT.72613",
      "street": "R ENTRE CASAS",
      "house": "",
      "postcode": "3850-628",
      "city": "FROSSOS",
      "lon": "-8.538283267231503",
      "lat": "40.66016442397902"
    },
    {
      "id": "pt.ine.add.PTCONT.75346",
      "street": "R COMEND AUGUSTO MARTINS PEREIRA",
      "house": "80",
      "postcode": "3850-612",
      "city": "FROSSOS",
      "lon": "-8.536421402464454",
      "lat": "40.65927943381781"
    },
    {
      "id": "pt.ine.add.PTCONT.80799",
      "street": "R OUTEIRO",
      "house": "",
      "postcode": "3850-635",
      "city": "FROSSOS",
      "lon": "-8.53488939145648",
      "lat": "40.66212139164393"
    },
    {
      "id": "pt.ine.add.PTCONT.80800",
      "street": "R OUTEIRO",
      "house": "",
      "postcode": "3850-635",
      "city": "FROSSOS",
      "lon": "-8.535077296626516",
      "lat": "40.66190461451057"
    },
    {
      "id": "pt.ine.add.PTCONT.87243",
      "street": "R COMEND AUGUSTO MARTINS PEREIRA",
      "house": "",
      "postcode": "3850-612",
      "city": "FROSSOS",
      "lon": "-8.537639994742955",
      "lat": "40.65938323271025"
    },
    {
      "id": "pt.ine.add.PTCONT.88870",
      "street": "R OUTEIRO",
      "house": "",
      "postcode": "3850-635",
      "city": "FROSSOS",
      "lon": "-8.5337342970563",
      "lat": "40.66275576426556"
    },
    {
      "id": "pt.ine.add.PTCONT.91172",
      "street": "R COMEND AUGUSTO MARTINS PEREIRA",
      "house": "78",
      "postcode": "3850-612",
      "city": "FROSSOS",
      "lon": "-8.536280482450294",
      "lat": "40.659442018369475"
    },
    {
      "id": "pt.ine.add.PTCONT.91173",
      "street": "R COMEND AUGUSTO MARTINS PEREIRA",
      "house": "78",
      "postcode": "3850-612",
      "city": "FROSSOS",
      "lon": "-8.536280482450294",
      "lat": "40.659442018369475"
    },
    {
      "id": "pt.ine.add.PTCONT.102457",
      "street": "R VALE VINHA",
      "house": "",
      "postcode": "3850-645",
      "city": "FROSSOS",
      "lon": "-8.534980479812681",
      "lat": "40.66153574111009"
    },
    {
      "id": "pt.ine.add.PTCONT.105295",
      "street": "TV VALE VINHA",
      "house": "1",
      "postcode": "3850-646",
      "city": "FROSSOS",
      "lon": "-8.536517301638826",
      "lat": "40.65949522206292"
    },
    {
      "id": "pt.ine.add.PTCONT.107000",
      "street": "R OUTEIRO",
      "house": "17",
      "postcode": "3850-635",
      "city": "FROSSOS",
      "lon": "-8.535163154460912",
      "lat": "40.662417608055065"
    },
    {
      "id": "pt.ine.add.PTCONT.120766",
      "street": "R ENTRE CASAS",
      "house": "",
      "postcode": "3850-628",
      "city": "FROSSOS",
      "lon": "-8.537805579301086",
      "lat": "40.66134577155343"
    },
    {
      "id": "pt.ine.add.PTCONT.137856",
      "street": "R ENTRE CASAS",
      "house": "",
      "postcode": "3850-628",
      "city": "FROSSOS",
      "lon": "-8.53832108477888",
      "lat": "40.660551512002655"
    },
    {
      "id": "pt.ine.add.PTCONT.141204",
      "street": "R VALE VINHA",
      "house": "2",
      "postcode": "3850-645",
      "city": "FROSSOS",
      "lon": "-8.536387501144423",
      "lat": "40.65954070113957"
    },
    {
      "id": "pt.ine.add.PTCONT.149006",
      "street": "R VALE VINHA",
      "house": "7",
      "postcode": "3850-645",
      "city": "FROSSOS",
      "lon": "-8.537030326065965",
      "lat": "40.660249859878505"
    },
    {
      "id": "pt.ine.add.PTCONT.151359",
      "street": "TV VALE VINHA",
      "house": "7",
      "postcode": "3850-646",
      "city": "FROSSOS",
      "lon": "-8.536949724548489",
      "lat": "40.66061034713607"
    },
    {
      "id": "pt.ine.add.PTCONT.159378",
      "street": "R ENTRE CASAS",
      "house": "",
      "postcode": "3850-628",
      "city": "FROSSOS",
      "lon": "-8.538151070072624",
      "lat": "40.659813687555264"
    },
    {
      "id": "pt.ine.add.PTCONT.162189",
      "street": "R ENTRE CASAS",
      "house": "N 2",
      "postcode": "3850-628",
      "city": "FROSSOS",
      "lon": "-8.53833966662611",
      "lat": "40.659713969368795"
    },
    {
      "id": "pt.ine.add.PTCONT.163279",
      "street": "R COMEND AUGUSTO MARTINS PEREIRA",
      "house": "",
      "postcode": "3850-612",
      "city": "FROSSOS",
      "lon": "-8.53734443226281",
      "lat": "40.65939327292679"
    },
    {
      "id": "pt.ine.add.PTCONT.168594",
      "street": "R COMEND AUGUSTO MARTINS PEREIRA",
      "house": "74",
      "postcode": "3850-612",
      "city": "FROSSOS",
      "lon": "-8.536079246039805",
      "lat": "40.659406700286965"
    },
    {
      "id": "pt.ine.add.PTCONT.174072",
      "street": "R COMEND AUGUSTO MARTINS PEREIRA",
      "house": "18",
      "postcode": "3850-612",
      "city": "FROSSOS",
      "lon": "-8.535442552789227",
      "lat": "40.65971509507619"
    },
    {
      "id": "pt.ine.add.PTCONT.183228",
      "street": "TV VALE VINHA",
      "house": "",
      "postcode": "3850-646",
      "city": "FROSSOS",
      "lon": "-8.53684866453701",
      "lat": "40.65953908960123"
    },
    {
      "id": "pt.ine.add.PTCONT.186467",
      "street": "R ENTRE CASAS",
      "house": "16",
      "postcode": "3850-628",
      "city": "FROSSOS",
      "lon": "-8.538094397027331",
      "lat": "40.66021911735981"
    },
    {
      "id": "pt.ine.add.PTCONT.187152",
      "street": "R JOSE GONÇALVES PINHO",
      "house": "",
      "postcode": "3850-631",
      "city": "FROSSOS",
      "lon": "-8.538303593070573",
      "lat": "40.65961503948284"
    },
    {
      "id": "pt.ine.add.PTCONT.187154",
      "street": "R OUTEIRO CASA DO OUTEIRO",
      "house": "",
      "postcode": "3850-635",
      "city": "FROSSOS",
      "lon": "-8.534954343834059",
      "lat": "40.661121595984"
    },
    {
      "id": "pt.ine.add.PTCONT.194041",
      "street": "R ENTRE CASAS",
      "house": "",
      "postcode": "3850-628",
      "city": "FROSSOS",
      "lon": "-8.53756918768962",
      "lat": "40.66136461008597"
    },
    {
      "id": "pt.ine.add.PTCONT.194042",
      "street": "R VALE VINHA",
      "house": "7",
      "postcode": "3850-645",
      "city": "FROSSOS",
      "lon": "-8.536876440420812",
      "lat": "40.66022338268069"
    },
    {
      "id": "pt.ine.add.PTCONT.195103",
      "street": "R ENTRE CASAS",
      "house": "26",
      "postcode": "3850-628",
      "city": "FROSSOS",
      "lon": "-8.538345551960624",
      "lat": "40.66068650313044"
    },
    {
      "id": "pt.ine.add.PTCONT.205768",
      "street": "R COMEND AUGUSTO MARTINS PEREIRA",
      "house": "98",
      "postcode": "3850-612",
      "city": "FROSSOS",
      "lon": "-8.537486273989009",
      "lat": "40.65938377114608"
    },
    {
      "id": "pt.ine.add.PTCONT.219787",
      "street": "R COMEND AUGUSTO MARTINS PEREIRA",
      "house": "",
      "postcode": "3850-612",
      "city": "FROSSOS",
      "lon": "-8.537698628458099",
      "lat": "40.659301981066385"
    },
    {
      "id": "pt.ine.add.PTCONT.221779",
      "street": "R ENTRE CASAS",
      "house": "20",
      "postcode": "3850-628",
      "city": "FROSSOS",
      "lon": "-8.538284139007283",
      "lat": "40.66030850305496"
    },
    {
      "id": "pt.ine.add.PTCONT.227626",
      "street": "R VALE VINHA",
      "house": "",
      "postcode": "3850-645",
      "city": "FROSSOS",
      "lon": "-8.53691901543603",
      "lat": "40.65943978711452"
    },
    {
      "id": "pt.ine.add.PTCONT.227627",
      "street": "R COMEND AUGUSTO MARTINS PEREIRA",
      "house": "",
      "postcode": "3850-612",
      "city": "FROSSOS",
      "lon": "-8.535977157892548",
      "lat": "40.66012746727738"
    },
    {
      "id": "pt.ine.add.PTCONT.244117",
      "street": "R MENDES",
      "house": "5",
      "postcode": "3850-635",
      "city": "FROSSOS",
      "lon": "-8.535809606934112",
      "lat": "40.65979486176697"
    },
    {
      "id": "pt.ine.add.PTCONT.247949",
      "street": "R ENTRE CASAS",
      "house": "4",
      "postcode": "3850-628",
      "city": "FROSSOS",
      "lon": "-8.53831645308028",
      "lat": "40.65978609190601"
    },
    {
      "id": "pt.ine.add.PTCONT.257530",
      "street": "R ENTRE CASAS",
      "house": "",
      "postcode": "3850-628",
      "city": "FROSSOS",
      "lon": "-8.538111450321207",
      "lat": "40.661083550297995"
    },
    {
      "id": "pt.ine.add.PTCONT.262935",
      "street": "TV VALE VINHA",
      "house": "",
      "postcode": "3850-646",
      "city": "FROSSOS",
      "lon": "-8.536646287992694",
      "lat": "40.659314668659796"
    },
    {
      "id": "pt.ine.add.PTCONT.262938",
      "street": "R VALE VINHA",
      "house": "7",
      "postcode": "3850-645",
      "city": "FROSSOS",
      "lon": "-8.537276582115604",
      "lat": "40.659906803103816"
    },
    {
      "id": "pt.ine.add.PTCONT.265739",
      "street": "R JOSE GONÇALVES PINHO",
      "house": "2",
      "postcode": "3850-631",
      "city": "FROSSOS",
      "lon": "-8.537840687635686",
      "lat": "40.65932849862837"
    },
    {
      "id": "pt.ine.add.PTCONT.268379",
      "street": "R VALE VINHA",
      "house": "10",
      "postcode": "3850-645",
      "city": "FROSSOS",
      "lon": "-8.536770451275716",
      "lat": "40.66029579431949"
    },
    {
      "id": "pt.ine.add.PTCONT.268380",
      "street": "R OUTEIRO",
      "house": "",
      "postcode": "3850-635",
      "city": "FROSSOS",
      "lon": "-8.53482745637593",
      "lat": "40.6616533403001"
    },
    {
      "id": "pt.ine.add.PTCONT.273849",
      "street": "R VIELA DO MENDES",
      "house": "29",
      "postcode": "3850-635",
      "city": "FROSSOS",
      "lon": "-8.535717228694024",
      "lat": "40.66016439440504"
    },
    {
      "id": "pt.ine.add.PTCONT.279172",
      "street": "R ENTRE CASAS",
      "house": "",
      "postcode": "3850-628",
      "city": "FROSSOS",
      "lon": "-8.538294601656295",
      "lat": "40.66008333800418"
    },
    {
      "id": "pt.ine.add.PTCONT.289698",
      "street": "R MENDES",
      "house": "",
      "postcode": "3850-639",
      "city": "FROSSOS",
      "lon": "-8.535666410755788",
      "lat": "40.65957923784252"
    },
    {
      "id": "pt.ine.add.PTCONT.289708",
      "street": "R ENTRE CASAS",
      "house": "22",
      "postcode": "3850-628",
      "city": "FROSSOS",
      "lon": "-8.538332419219511",
      "lat": "40.66047042602945"
    }
  ]
}