{
  "data": {
    "distrito": "Viana do Castelo",
    "concelho": "Viana do Castelo",
    "freguesia": "União das freguesias de Barroselas e Carvoeiro",
    "OBJECTID": 664,
    "BGRI2021": "16094100417",
    "DT21": "16",
    "DTMN21": "1609",
    "DTMNFR21": "160941",
    "DTMNFRSEC21": "160941004",
    "SECNUM21": "004",
    "SSNUM21": "17",
    "SECSSNUM21": "00417",
    "OBJECTID_1": 178172,
    "DT": "16",
    "CC": "09",
    "fr": "41",
    "SEC": "004",
    "SS": "17"
  },
  "addresses": [
    {
      "id": "pt.ine.add.PTCONT.5135221",
      "street": "R LODEIRO",
      "house": "",
      "postcode": "4905-457",
      "city": "BARROSELAS",
      "lon": "-8.698233429635588",
      "lat": "41.644269795409365"
    },
    {
      "id": "pt.ine.add.PTCONT.5135222",
      "street": "R LODEIRO",
      "house": "",
      "postcode": "4905-457",
      "city": "BARROSELAS",
      "lon": "-8.698233429635588",
      "lat": "41.644269795409365"
    },
    {
      "id": "pt.ine.add.PTCONT.5136428",
      "street": "R FR CUSTÓDIO",
      "house": "644",
      "postcode": "4905-447",
      "city": "BARROSELAS",
      "lon": "-8.698756441381255",
      "lat": "41.646428079836355"
    },
    {
      "id": "pt.ine.add.PTCONT.5141011",
      "street": "AV 18 DE DEZEMBRO",
      "house": "610",
      "postcode": "4905-330",
      "city": "BARROSELAS",
      "lon": "-8.698404574176115",
      "lat": "41.645997639516196"
    },
    {
      "id": "pt.ine.add.PTCONT.5141034",
      "street": "AV 18 DE DEZEMBRO",
      "house": "617",
      "postcode": "4905-330",
      "city": "BARROSELAS",
      "lon": "-8.698378364687278",
      "lat": "41.64574566845104"
    },
    {
      "id": "pt.ine.add.PTCONT.5143423",
      "street": "TV CAMPO DA PADEIRA",
      "house": "",
      "postcode": "4905-645",
      "city": "BARROSELAS",
      "lon": "-8.69508789639341",
      "lat": "41.642808631040154"
    },
    {
      "id": "pt.ine.add.PTCONT.5146774",
      "street": "TV PONTELHA",
      "house": "34",
      "postcode": "4905-340",
      "city": "BARROSELAS",
      "lon": "-8.693536072694524",
      "lat": "41.64241104659034"
    },
    {
      "id": "pt.ine.add.PTCONT.5147752",
      "street": "R MANUEL PORTELA SILVA",
      "house": "10",
      "postcode": "4905-509",
      "city": "BARROSELAS",
      "lon": "-8.698170316073274",
      "lat": "41.642541419504724"
    },
    {
      "id": "pt.ine.add.PTCONT.5150284",
      "street": "R MATA",
      "house": "107",
      "postcode": "4905-360",
      "city": "BARROSELAS",
      "lon": "-8.698055010861081",
      "lat": "41.643082200759984"
    },
    {
      "id": "pt.ine.add.PTCONT.5152588",
      "street": "R FORCA",
      "house": "474",
      "postcode": "4905-359",
      "city": "BARROSELAS",
      "lon": "-8.698914935459877",
      "lat": "41.64259177809652"
    },
    {
      "id": "pt.ine.add.PTCONT.5152589",
      "street": "LG FEIRA",
      "house": "166",
      "postcode": "4905-327",
      "city": "BARROSELAS",
      "lon": "-8.692226164888451",
      "lat": "41.643614901184726"
    },
    {
      "id": "pt.ine.add.PTCONT.5152600",
      "street": "R LAMEIRA",
      "house": "71",
      "postcode": "4905-296",
      "city": "BARROSELAS",
      "lon": "-8.695422007409185",
      "lat": "41.642581907682235"
    },
    {
      "id": "pt.ine.add.PTCONT.5158284",
      "street": "AV 18 DE DEZEMBRO",
      "house": "621",
      "postcode": "4905-330",
      "city": "BARROSELAS",
      "lon": "-8.698546406171824",
      "lat": "41.64574484194462"
    },
    {
      "id": "pt.ine.add.PTCONT.5160786",
      "street": "TV CAMPO PADEIRA",
      "house": "14",
      "postcode": "4905-645",
      "city": "BARROSELAS",
      "lon": "-8.694965838641016",
      "lat": "41.64257513475715"
    },
    {
      "id": "pt.ine.add.PTCONT.5163030",
      "street": "R MATA",
      "house": "",
      "postcode": "4905-360",
      "city": "BARROSELAS",
      "lon": "-8.697806810790569",
      "lat": "41.64352459549338"
    },
    {
      "id": "pt.ine.add.PTCONT.5163031",
      "street": "R FR CUSTÓDIO",
      "house": "458",
      "postcode": "4905-447",
      "city": "BARROSELAS",
      "lon": "-8.698729161922492",
      "lat": "41.644681521415954"
    },
    {
      "id": "pt.ine.add.PTCONT.5163032",
      "street": "R FORCA",
      "house": "364",
      "postcode": "4905-359",
      "city": "BARROSELAS",
      "lon": "-8.698131084264265",
      "lat": "41.64217246576063"
    },
    {
      "id": "pt.ine.add.PTCONT.5164012",
      "street": "AV 18 DEZEMBRO",
      "house": "25",
      "postcode": "4905-330",
      "city": "BARROSELAS",
      "lon": "-8.697673097867245",
      "lat": "41.646082266694684"
    },
    {
      "id": "pt.ine.add.PTCONT.5164013",
      "street": "R FR CUSTÓDIO",
      "house": "602",
      "postcode": "4905-447",
      "city": "BARROSELAS",
      "lon": "-8.698934203274773",
      "lat": "41.64616610141839"
    },
    {
      "id": "pt.ine.add.PTCONT.5164521",
      "street": "AV 18 DEZEMBRO",
      "house": "25",
      "postcode": "4905-330",
      "city": "BARROSELAS",
      "lon": "-8.697673097867245",
      "lat": "41.646082266694684"
    },
    {
      "id": "pt.ine.add.PTCONT.5169505",
      "street": "TV LAMEIRA",
      "house": "8",
      "postcode": "4905-645",
      "city": "BARROSELAS",
      "lon": "-8.698143182486174",
      "lat": "41.64630504610122"
    },
    {
      "id": "pt.ine.add.PTCONT.5169529",
      "street": "R SIAO",
      "house": "",
      "postcode": "4905-455",
      "city": "BARROSELAS",
      "lon": "-8.699438763406965",
      "lat": "41.64347154871549"
    },
    {
      "id": "pt.ine.add.PTCONT.5170985",
      "street": "AV 18 DE DEZEMBRO",
      "house": "",
      "postcode": "4905-330",
      "city": "BARROSELAS",
      "lon": "-8.697982266874511",
      "lat": "41.645747615672796"
    },
    {
      "id": "pt.ine.add.PTCONT.5170986",
      "street": "R LAMEIRA",
      "house": "11",
      "postcode": "4905-296",
      "city": "BARROSELAS",
      "lon": "-8.695574883512512",
      "lat": "41.64359856367399"
    },
    {
      "id": "pt.ine.add.PTCONT.5171517",
      "street": "AV 18 DE DEZEMBRO",
      "house": "636",
      "postcode": "4905-330",
      "city": "BARROSELAS",
      "lon": "-8.698740422208456",
      "lat": "41.64596897662627"
    },
    {
      "id": "pt.ine.add.PTCONT.5172681",
      "street": "AV 18 DE DEZEMBRO",
      "house": "137",
      "postcode": "4905-330",
      "city": "BARROSELAS",
      "lon": "-8.693471401272188",
      "lat": "41.64464424836512"
    },
    {
      "id": "pt.ine.add.PTCONT.5172682",
      "street": "R LAMEIRA",
      "house": "",
      "postcode": "4905-296",
      "city": "BARROSELAS",
      "lon": "-8.695531829519293",
      "lat": "41.64278845262105"
    },
    {
      "id": "pt.ine.add.PTCONT.5176256",
      "street": "R MATA",
      "house": "",
      "postcode": "4905-360",
      "city": "BARROSELAS",
      "lon": "-8.697890278311874",
      "lat": "41.64346116039411"
    },
    {
      "id": "pt.ine.add.PTCONT.5178680",
      "street": "R LAMEIRA",
      "house": "189",
      "postcode": "4905-296",
      "city": "BARROSELAS",
      "lon": "-8.696055378141773",
      "lat": "41.64364122933381"
    },
    {
      "id": "pt.ine.add.PTCONT.5181078",
      "street": "R MATA",
      "house": "2",
      "postcode": "4905-360",
      "city": "BARROSELAS",
      "lon": "-8.697765536739043",
      "lat": "41.642921558780955"
    },
    {
      "id": "pt.ine.add.PTCONT.5181641",
      "street": "TV LAMEIRA",
      "house": "4",
      "postcode": "4905-645",
      "city": "BARROSELAS",
      "lon": "-8.69844365269579",
      "lat": "41.64634858653335"
    },
    {
      "id": "pt.ine.add.PTCONT.5183404",
      "street": "R FORCA",
      "house": "46",
      "postcode": "4905-359",
      "city": "BARROSELAS",
      "lon": "-8.693712518361993",
      "lat": "41.64199602166538"
    },
    {
      "id": "pt.ine.add.PTCONT.5184423",
      "street": "R PELOURINHO",
      "house": "",
      "postcode": "4905-337",
      "city": "BARROSELAS",
      "lon": "-8.692675564002727",
      "lat": "41.64283840689049"
    },
    {
      "id": "pt.ine.add.PTCONT.5186694",
      "street": "R FR CUSTÓDIO",
      "house": "",
      "postcode": "4905-447",
      "city": "BARROSELAS",
      "lon": "-8.698957421590276",
      "lat": "41.64607595142713"
    },
    {
      "id": "pt.ine.add.PTCONT.5186705",
      "street": "R FORNO",
      "house": "9",
      "postcode": "4905-358",
      "city": "BARROSELAS",
      "lon": "-8.695793906296435",
      "lat": "41.64393962752254"
    },
    {
      "id": "pt.ine.add.PTCONT.5187160",
      "street": "R MANUEL PORTELA SILVA",
      "house": "",
      "postcode": "4905-509",
      "city": "BARROSELAS",
      "lon": "-8.697365214717234",
      "lat": "41.64243733154742"
    },
    {
      "id": "pt.ine.add.PTCONT.5194293",
      "street": "TV CAMPO DA PADEIRA",
      "house": "",
      "postcode": "4905-645",
      "city": "BARROSELAS",
      "lon": "-8.694750186662942",
      "lat": "41.64262120653687"
    },
    {
      "id": "pt.ine.add.PTCONT.5196012",
      "street": "AV 18 DEZEMBRO",
      "house": "638",
      "postcode": "4905-330",
      "city": "BARROSELAS",
      "lon": "-8.698824364478973",
      "lat": "41.64595955995518"
    },
    {
      "id": "pt.ine.add.PTCONT.5196803",
      "street": "R FR CUSTÓDIO",
      "house": "",
      "postcode": "4905-447",
      "city": "BARROSELAS",
      "lon": "-8.699088929699666",
      "lat": "41.644643736232666"
    },
    {
      "id": "pt.ine.add.PTCONT.5198238",
      "street": "AV 18 DE DEZEMBRO",
      "house": "22",
      "postcode": "4905-330",
      "city": "BARROSELAS",
      "lon": "-8.697960855963375",
      "lat": "41.64604483870103"
    },
    {
      "id": "pt.ine.add.PTCONT.5198900",
      "street": "R SIAO",
      "house": "",
      "postcode": "4905-455",
      "city": "BARROSELAS",
      "lon": "-8.699160577471082",
      "lat": "41.64322982248612"
    },
    {
      "id": "pt.ine.add.PTCONT.5199546",
      "street": "R PELOURINHO",
      "house": "",
      "postcode": "4905-337",
      "city": "BARROSELAS",
      "lon": "-8.692344244473688",
      "lat": "41.64338923739561"
    },
    {
      "id": "pt.ine.add.PTCONT.5199547",
      "street": "R LODEIRO",
      "house": "",
      "postcode": "4905-457",
      "city": "BARROSELAS",
      "lon": "-8.699166487327302",
      "lat": "41.643905061389994"
    },
    {
      "id": "pt.ine.add.PTCONT.5200375",
      "street": "R FORCA",
      "house": "110",
      "postcode": "4905-359",
      "city": "BARROSELAS",
      "lon": "-8.694458065980163",
      "lat": "41.6421544475402"
    },
    {
      "id": "pt.ine.add.PTCONT.5200605",
      "street": "TV CAMPO DA PADEIRA",
      "house": "",
      "postcode": "4905-645",
      "city": "BARROSELAS",
      "lon": "-8.694522766422347",
      "lat": "41.64269434611733"
    },
    {
      "id": "pt.ine.add.PTCONT.5205630",
      "street": "R S PEDRO CAPAREIROS",
      "house": "11",
      "postcode": "4905-453",
      "city": "BARROSELAS",
      "lon": "-8.697723232303701",
      "lat": "41.64632511682211"
    },
    {
      "id": "pt.ine.add.PTCONT.5205693",
      "street": "R FR CUSTÓDIO",
      "house": "420",
      "postcode": "4905-447",
      "city": "BARROSELAS",
      "lon": "-8.699328196602442",
      "lat": "41.64455252214035"
    },
    {
      "id": "pt.ine.add.PTCONT.5206654",
      "street": "TV LAMEIRA",
      "house": "34",
      "postcode": "4905-645",
      "city": "BARROSELAS",
      "lon": "-8.694934602128276",
      "lat": "41.643124505531155"
    },
    {
      "id": "pt.ine.add.PTCONT.5209926",
      "street": "AV 18 DE DEZEMBRO",
      "house": "",
      "postcode": "4905-330",
      "city": "BARROSELAS",
      "lon": "-8.698054677910449",
      "lat": "41.645792277652234"
    },
    {
      "id": "pt.ine.add.PTCONT.5210364",
      "street": "AV 18 DE DEZEMBRO",
      "house": "",
      "postcode": "4905-330",
      "city": "BARROSELAS",
      "lon": "-8.698632395169854",
      "lat": "41.64596950816467"
    },
    {
      "id": "pt.ine.add.PTCONT.5210787",
      "street": "R MANUEL PORTELA DA SILVA",
      "house": "7",
      "postcode": "4905-509",
      "city": "BARROSELAS",
      "lon": "-8.697339167952332",
      "lat": "41.64220336643596"
    },
    {
      "id": "pt.ine.add.PTCONT.5210788",
      "street": "R MANUEL PORTELA DA SILVA",
      "house": "16",
      "postcode": "4905-509",
      "city": "BARROSELAS",
      "lon": "-8.69794109167692",
      "lat": "41.64240749248149"
    },
    {
      "id": "pt.ine.add.PTCONT.5214471",
      "street": "R LODEIRO",
      "house": "",
      "postcode": "4905-457",
      "city": "BARROSELAS",
      "lon": "-8.698775125563307",
      "lat": "41.644447202359764"
    },
    {
      "id": "pt.ine.add.PTCONT.5217283",
      "street": "LG FEIRA",
      "house": "164",
      "postcode": "4905-327",
      "city": "BARROSELAS",
      "lon": "-8.692166930228147",
      "lat": "41.643705225042446"
    },
    {
      "id": "pt.ine.add.PTCONT.5222685",
      "street": "LG FEIRA",
      "house": "120",
      "postcode": "4905-327",
      "city": "BARROSELAS",
      "lon": "-8.692050950305271",
      "lat": "41.64417397492616"
    },
    {
      "id": "pt.ine.add.PTCONT.5223195",
      "street": "LG FEIRA",
      "house": "120",
      "postcode": "4905-327",
      "city": "BARROSELAS",
      "lon": "-8.692050950305271",
      "lat": "41.64417397492616"
    },
    {
      "id": "pt.ine.add.PTCONT.5223892",
      "street": "R MANUEL PORTELA DA SILVA",
      "house": "32",
      "postcode": "4905-509",
      "city": "BARROSELAS",
      "lon": "-8.697446088952574",
      "lat": "41.64207679148763"
    },
    {
      "id": "pt.ine.add.PTCONT.5226283",
      "street": "R LODEIRO",
      "house": "146",
      "postcode": "4905-457",
      "city": "BARROSELAS",
      "lon": "-8.697946072744973",
      "lat": "41.64435223997708"
    },
    {
      "id": "pt.ine.add.PTCONT.5227407",
      "street": "AV 18 DE DEZEMBRO",
      "house": "612",
      "postcode": "4905-330",
      "city": "BARROSELAS",
      "lon": "-8.698452586216398",
      "lat": "41.64599740338447"
    },
    {
      "id": "pt.ine.add.PTCONT.5227435",
      "street": "R LAMEIRA",
      "house": "",
      "postcode": "4905-296",
      "city": "BARROSELAS",
      "lon": "-8.695836355012386",
      "lat": "41.64330016596806"
    },
    {
      "id": "pt.ine.add.PTCONT.5228497",
      "street": "R MANUEL PORTELA DA SILVA",
      "house": "",
      "postcode": "4905-509",
      "city": "BARROSELAS",
      "lon": "-8.697901939882634",
      "lat": "41.64204754183164"
    },
    {
      "id": "pt.ine.add.PTCONT.5229604",
      "street": "R MATA",
      "house": "",
      "postcode": "4905-360",
      "city": "BARROSELAS",
      "lon": "-8.698245713002764",
      "lat": "41.642928202559496"
    },
    {
      "id": "pt.ine.add.PTCONT.5229621",
      "street": "R MANUEL PORTELA DA SILVA",
      "house": "9",
      "postcode": "4905-509",
      "city": "BARROSELAS",
      "lon": "-8.697588702020658",
      "lat": "41.64191402686185"
    },
    {
      "id": "pt.ine.add.PTCONT.5229622",
      "street": "R MANUEL PORTELA DA SILVA",
      "house": "80",
      "postcode": "4905-509",
      "city": "BARROSELAS",
      "lon": "-8.697522580917813",
      "lat": "41.64258961973303"
    },
    {
      "id": "pt.ine.add.PTCONT.5234467",
      "street": "TV PONTELHA",
      "house": "22",
      "postcode": "4905-340",
      "city": "BARROSELAS",
      "lon": "-8.69335393174901",
      "lat": "41.64216883791662"
    },
    {
      "id": "pt.ine.add.PTCONT.5235660",
      "street": "TV CAMPO PADEIRA",
      "house": "",
      "postcode": "4905-645",
      "city": "BARROSELAS",
      "lon": "-8.69487247832457",
      "lat": "41.64288171263068"
    },
    {
      "id": "pt.ine.add.PTCONT.5239329",
      "street": "R FORNO",
      "house": "6",
      "postcode": "4905-358",
      "city": "BARROSELAS",
      "lon": "-8.69595779048109",
      "lat": "41.64346163574548"
    },
    {
      "id": "pt.ine.add.PTCONT.5241619",
      "street": "R LAMEIRA",
      "house": "",
      "postcode": "4905-296",
      "city": "BARROSELAS",
      "lon": "-8.695738925123253",
      "lat": "41.64313857855894"
    },
    {
      "id": "pt.ine.add.PTCONT.5243796",
      "street": "AV 18 DE DEZEMBRO",
      "house": "622",
      "postcode": "4905-330",
      "city": "BARROSELAS",
      "lon": "-8.698524446844118",
      "lat": "41.64597904278413"
    },
    {
      "id": "pt.ine.add.PTCONT.5244934",
      "street": "R FR CUSTÓDIO",
      "house": "",
      "postcode": "4905-447",
      "city": "BARROSELAS",
      "lon": "-8.698807006164543",
      "lat": "41.64534740260813"
    },
    {
      "id": "pt.ine.add.PTCONT.5244935",
      "street": "LG FEIRA",
      "house": "130",
      "postcode": "4905-327",
      "city": "BARROSELAS",
      "lon": "-8.692013852989197",
      "lat": "41.64404810527708"
    },
    {
      "id": "pt.ine.add.PTCONT.5249727",
      "street": "TV LAMEIRA",
      "house": "N 9",
      "postcode": "4905-645",
      "city": "BARROSELAS",
      "lon": "-8.698130471462456",
      "lat": "41.64622407645931"
    },
    {
      "id": "pt.ine.add.PTCONT.5249739",
      "street": "R FORCA",
      "house": "",
      "postcode": "4905-359",
      "city": "BARROSELAS",
      "lon": "-8.698769489605647",
      "lat": "41.64243042958609"
    },
    {
      "id": "pt.ine.add.PTCONT.5250883",
      "street": "R FORCA",
      "house": "38",
      "postcode": "4905-359",
      "city": "BARROSELAS",
      "lon": "-8.693471614795577",
      "lat": "41.641898156969035"
    },
    {
      "id": "pt.ine.add.PTCONT.5251914",
      "street": "R MANUEL PORTELA DA SILVA",
      "house": "4",
      "postcode": "4905-509",
      "city": "BARROSELAS",
      "lon": "-8.697775181094634",
      "lat": "41.64265140415714"
    },
    {
      "id": "pt.ine.add.PTCONT.5254401",
      "street": "AV 18 DEZEMBRO",
      "house": "24",
      "postcode": "4905-330",
      "city": "BARROSELAS",
      "lon": "-8.697756961839497",
      "lat": "41.64606384761773"
    },
    {
      "id": "pt.ine.add.PTCONT.5255528",
      "street": "AV 18 DE DEZEMBRO",
      "house": "623",
      "postcode": "4905-330",
      "city": "BARROSELAS",
      "lon": "-8.698629875803125",
      "lat": "41.64568140631942"
    },
    {
      "id": "pt.ine.add.PTCONT.5255538",
      "street": "R FR CUSTÓDIO",
      "house": "474",
      "postcode": "4905-447",
      "city": "BARROSELAS",
      "lon": "-8.698707597267216",
      "lat": "41.64496073824694"
    },
    {
      "id": "pt.ine.add.PTCONT.5256738",
      "street": "R FORCA",
      "house": "",
      "postcode": "4905-359",
      "city": "BARROSELAS",
      "lon": "-8.698359600067791",
      "lat": "41.64222536371511"
    },
    {
      "id": "pt.ine.add.PTCONT.5257892",
      "street": "AV 18 DE DEZEMBRO",
      "house": "",
      "postcode": "4905-330",
      "city": "BARROSELAS",
      "lon": "-8.69847391614523",
      "lat": "41.645691177093276"
    },
    {
      "id": "pt.ine.add.PTCONT.5259009",
      "street": "R S PEDRO CAPAREIROS",
      "house": "10",
      "postcode": "4905-453",
      "city": "BARROSELAS",
      "lon": "-8.697735864232106",
      "lat": "41.64639708332752"
    },
    {
      "id": "pt.ine.add.PTCONT.5259010",
      "street": "R S PEDRO CAPAREIROS",
      "house": "10",
      "postcode": "4905-453",
      "city": "BARROSELAS",
      "lon": "-8.697735864232106",
      "lat": "41.64639708332752"
    },
    {
      "id": "pt.ine.add.PTCONT.5259025",
      "street": "R PADRE LUIS FARIA",
      "house": "",
      "postcode": "4905-392",
      "city": "BARROSELAS",
      "lon": "-8.695489456357407",
      "lat": "41.64343691732785"
    },
    {
      "id": "pt.ine.add.PTCONT.5260211",
      "street": "LG FEIRA",
      "house": "",
      "postcode": "4905-327",
      "city": "BARROSELAS",
      "lon": "-8.69207246567688",
      "lat": "41.643885755934015"
    },
    {
      "id": "pt.ine.add.PTCONT.5261294",
      "street": "R MATA",
      "house": "",
      "postcode": "4905-360",
      "city": "BARROSELAS",
      "lon": "-8.697686942449486",
      "lat": "41.64354319145787"
    },
    {
      "id": "pt.ine.add.PTCONT.5262503",
      "street": "R MATA",
      "house": "1",
      "postcode": "4905-360",
      "city": "BARROSELAS",
      "lon": "-8.697671010397945",
      "lat": "41.6430930910053"
    },
    {
      "id": "pt.ine.add.PTCONT.5263697",
      "street": "TV CAMPO DA PADEIRA",
      "house": "60",
      "postcode": "4905-645",
      "city": "BARROSELAS",
      "lon": "-8.69502010570041",
      "lat": "41.64329515550183"
    },
    {
      "id": "pt.ine.add.PTCONT.5263706",
      "street": "R LODEIRO",
      "house": "162",
      "postcode": "4905-457",
      "city": "BARROSELAS",
      "lon": "-8.697764617258022",
      "lat": "41.6441910671899"
    },
    {
      "id": "pt.ine.add.PTCONT.5265849",
      "street": "R LAMEIRA",
      "house": "196",
      "postcode": "4905-296",
      "city": "BARROSELAS",
      "lon": "-8.695708321500419",
      "lat": "41.64375997497413"
    },
    {
      "id": "pt.ine.add.PTCONT.5270634",
      "street": "TV LAMEIRA",
      "house": "",
      "postcode": "4905-645",
      "city": "BARROSELAS",
      "lon": "-8.69844231470653",
      "lat": "41.64619553243499"
    },
    {
      "id": "pt.ine.add.PTCONT.5270651",
      "street": "R FR CUSTÓDIO",
      "house": "490",
      "postcode": "4905-447",
      "city": "BARROSELAS",
      "lon": "-8.698780637902408",
      "lat": "41.645077425247244"
    },
    {
      "id": "pt.ine.add.PTCONT.5270652",
      "street": "R LAMEIRA",
      "house": "8",
      "postcode": "4905-296",
      "city": "BARROSELAS",
      "lon": "-8.696128647622185",
      "lat": "41.64378492765454"
    },
    {
      "id": "pt.ine.add.PTCONT.5272541",
      "street": "AV 18 DE DEZEMBRO",
      "house": "",
      "postcode": "4905-330",
      "city": "BARROSELAS",
      "lon": "-8.698344637815756",
      "lat": "41.6460069378355"
    },
    {
      "id": "pt.ine.add.PTCONT.5273534",
      "street": "R MANUEL PORTELA DA SILVA",
      "house": "71",
      "postcode": "4905-509",
      "city": "BARROSELAS",
      "lon": "-8.697712496968562",
      "lat": "41.64234559050898"
    },
    {
      "id": "pt.ine.add.PTCONT.5275175",
      "street": "R S PEDRO CAPAREIROS",
      "house": "12",
      "postcode": "4905-453",
      "city": "BARROSELAS",
      "lon": "-8.697710600404283",
      "lat": "41.64625315031421"
    },
    {
      "id": "pt.ine.add.PTCONT.5275176",
      "street": "R S PEDRO CAPAREIROS",
      "house": "12",
      "postcode": "4905-453",
      "city": "BARROSELAS",
      "lon": "-8.697710600404283",
      "lat": "41.64625315031421"
    },
    {
      "id": "pt.ine.add.PTCONT.5275177",
      "street": "AV 18 DE DEZEMBRO",
      "house": "23",
      "postcode": "4905-330",
      "city": "BARROSELAS",
      "lon": "-8.697864910427807",
      "lat": "41.64605431371759"
    },
    {
      "id": "pt.ine.add.PTCONT.5275226",
      "street": "R FORCA",
      "house": "96",
      "postcode": "4905-359",
      "city": "BARROSELAS",
      "lon": "-8.695383886997222",
      "lat": "41.6423389976113"
    },
    {
      "id": "pt.ine.add.PTCONT.5276264",
      "street": "AV 18 DE DEZEMBRO",
      "house": "",
      "postcode": "4905-330",
      "city": "BARROSELAS",
      "lon": "-8.698908385493539",
      "lat": "41.645959146404984"
    },
    {
      "id": "pt.ine.add.PTCONT.5277978",
      "street": "R COLUMBOFILIA",
      "house": "86",
      "postcode": "4905-353",
      "city": "BARROSELAS",
      "lon": "-8.695251548283053",
      "lat": "41.64230363058093"
    },
    {
      "id": "pt.ine.add.PTCONT.5278358",
      "street": "R SIAO",
      "house": "181",
      "postcode": "4905-455",
      "city": "BARROSELAS",
      "lon": "-8.699122915367845",
      "lat": "41.643040932890415"
    },
    {
      "id": "pt.ine.add.PTCONT.5282261",
      "street": "AV 18 DE DEZEMBRO",
      "house": "567",
      "postcode": "4905-330",
      "city": "BARROSELAS",
      "lon": "-8.697874633315122",
      "lat": "41.64579316241602"
    },
    {
      "id": "pt.ine.add.PTCONT.5283365",
      "street": "AV 18 DEZEMBRO",
      "house": "",
      "postcode": "4905-330",
      "city": "BARROSELAS",
      "lon": "-8.698714211424756",
      "lat": "41.64571700564454"
    },
    {
      "id": "pt.ine.add.PTCONT.5283689",
      "street": "R LAMEIRA",
      "house": "113",
      "postcode": "4905-296",
      "city": "BARROSELAS",
      "lon": "-8.695617334208286",
      "lat": "41.64295910215038"
    },
    {
      "id": "pt.ine.add.PTCONT.5284892",
      "street": "R SIAO",
      "house": "",
      "postcode": "4905-455",
      "city": "BARROSELAS",
      "lon": "-8.699241442625985",
      "lat": "41.64286928126911"
    },
    {
      "id": "pt.ine.add.PTCONT.5286260",
      "street": "R SIAO",
      "house": "",
      "postcode": "4905-455",
      "city": "BARROSELAS",
      "lon": "-8.699438763406965",
      "lat": "41.64347154871549"
    }
  ]
}