{
  "data": {
    "distrito": "Beja",
    "concelho": "Odemira",
    "freguesia": "São Teotónio",
    "OBJECTID": 377,
    "BGRI2021": "02112100205",
    "DT21": "02",
    "DTMN21": "0211",
    "DTMNFR21": "021121",
    "DTMNFRSEC21": "021121002",
    "SECNUM21": "002",
    "SSNUM21": "05",
    "SECSSNUM21": "00205",
    "OBJECTID_1": 17020,
    "DT": "02",
    "CC": "11",
    "fr": "21",
    "SEC": "002",
    "SS": "05"
  },
  "addresses": [
    {
      "id": "pt.ine.add.PTCONT.361129",
      "street": "CM 1158",
      "house": "",
      "postcode": "7630-743",
      "city": "ZAMBUJEIRA DO MAR",
      "lon": "-8.779135111210353",
      "lat": "37.57674661671077"
    },
    {
      "id": "pt.ine.add.PTCONT.363540",
      "street": "CM 1158",
      "house": "",
      "postcode": "7630-743",
      "city": "ZAMBUJEIRA DO MAR",
      "lon": "-8.77914484121217",
      "lat": "37.57787278780585"
    },
    {
      "id": "pt.ine.add.PTCONT.386953",
      "street": "CM 1158",
      "house": "",
      "postcode": "7630-743",
      "city": "ZAMBUJEIRA DO MAR",
      "lon": "-8.78049740113843",
      "lat": "37.57588322280347"
    },
    {
      "id": "pt.ine.add.PTCONT.399910",
      "street": "CM 1158",
      "house": "",
      "postcode": "7630-743",
      "city": "ZAMBUJEIRA DO MAR",
      "lon": "-8.779156221784119",
      "lat": "37.58066710523834"
    },
    {
      "id": "pt.ine.add.PTCONT.403076",
      "street": "",
      "house": "",
      "postcode": "7630-743",
      "city": "ZAMBUJEIRA DO MAR",
      "lon": "-8.791470508220364",
      "lat": "37.57888586187877"
    },
    {
      "id": "pt.ine.add.PTCONT.408009",
      "street": "",
      "house": "",
      "postcode": "7630-743",
      "city": "ZAMBUJEIRA DO MAR",
      "lon": "-8.783940998378558",
      "lat": "37.57353975956824"
    },
    {
      "id": "pt.ine.add.PTCONT.408010",
      "street": "",
      "house": "",
      "postcode": "7630-743",
      "city": "ZAMBUJEIRA DO MAR",
      "lon": "-8.783940998378558",
      "lat": "37.57353975956824"
    },
    {
      "id": "pt.ine.add.PTCONT.412861",
      "street": "",
      "house": "",
      "postcode": "7630-743",
      "city": "ZAMBUJEIRA DO MAR",
      "lon": "-8.784927769577388",
      "lat": "37.580255620454224"
    },
    {
      "id": "pt.ine.add.PTCONT.413685",
      "street": "BOAVISTA DO CABEÇO QUEIMADO",
      "house": "",
      "postcode": "7630-574",
      "city": "SÃO TEOTÓNIO",
      "lon": "-8.792795328604363",
      "lat": "37.580202903852296"
    },
    {
      "id": "pt.ine.add.PTCONT.449419",
      "street": "MTE DAS VALAS",
      "house": "",
      "postcode": "7630-743",
      "city": "ZAMBUJEIRA DO MAR",
      "lon": "-8.782182218463555",
      "lat": "37.57436032499714"
    }
  ]
}