{
  "data": {
    "distrito": "Beja",
    "concelho": "Almodôvar",
    "freguesia": "União das freguesias de Santa Clara-a-Nova e Gomes Aires",
    "OBJECTID": 321,
    "BGRI2021": "02021000125",
    "DT21": "02",
    "DTMN21": "0202",
    "DTMNFR21": "020210",
    "DTMNFRSEC21": "020210001",
    "SECNUM21": "001",
    "SSNUM21": "25",
    "SECSSNUM21": "00125",
    "OBJECTID_1": 12894,
    "DT": "02",
    "CC": "02",
    "fr": "10",
    "SEC": "001",
    "SS": "25"
  },
  "addresses": [
    {
      "id": "pt.ine.add.PTCONT.366938",
      "street": "MTE BOAVISTA",
      "house": "",
      "postcode": "7700-240",
      "city": "SANTA CLARA-A-NOVA",
      "lon": "-8.176638823946826",
      "lat": "37.46497999133835"
    },
    {
      "id": "pt.ine.add.PTCONT.372167",
      "street": "",
      "house": "",
      "postcode": "7700-240",
      "city": "SANTA CLARA-A-NOVA",
      "lon": "-8.155107220465426",
      "lat": "37.471518290776736"
    },
    {
      "id": "pt.ine.add.PTCONT.372744",
      "street": "",
      "house": "",
      "postcode": "7700-240",
      "city": "SANTA CLARA-A-NOVA",
      "lon": "-8.154565794070932",
      "lat": "37.47570808750693"
    },
    {
      "id": "pt.ine.add.PTCONT.372745",
      "street": "",
      "house": "",
      "postcode": "7700-240",
      "city": "SANTA CLARA-A-NOVA",
      "lon": "-8.167411092020808",
      "lat": "37.456387374870665"
    },
    {
      "id": "pt.ine.add.PTCONT.383440",
      "street": "",
      "house": "",
      "postcode": "7700-240",
      "city": "SANTA CLARA-A-NOVA",
      "lon": "-8.168303410811726",
      "lat": "37.45517074516267"
    },
    {
      "id": "pt.ine.add.PTCONT.387133",
      "street": "MTE TORRINHA",
      "house": "",
      "postcode": "7700-240",
      "city": "SANTA CLARA-A-NOVA",
      "lon": "-8.163672611794167",
      "lat": "37.4628036082234"
    },
    {
      "id": "pt.ine.add.PTCONT.403288",
      "street": "MTE NOVO DO SALGUEIRO",
      "house": "",
      "postcode": "7700-240",
      "city": "SANTA CLARA-A-NOVA",
      "lon": "-8.1580027367079",
      "lat": "37.47610385768734"
    },
    {
      "id": "pt.ine.add.PTCONT.406614",
      "street": "",
      "house": "",
      "postcode": "7700-240",
      "city": "SANTA CLARA-A-NOVA",
      "lon": "-8.171713555929298",
      "lat": "37.449096850154305"
    },
    {
      "id": "pt.ine.add.PTCONT.409827",
      "street": "MTE BOAVISTA",
      "house": "",
      "postcode": "7700-240",
      "city": "SANTA CLARA-A-NOVA",
      "lon": "-8.172346494181197",
      "lat": "37.44922278365403"
    },
    {
      "id": "pt.ine.add.PTCONT.413433",
      "street": "MTE TORRINHA",
      "house": "",
      "postcode": "7700-240",
      "city": "SANTA CLARA-A-NOVA",
      "lon": "-8.160194080749116",
      "lat": "37.47085048647584"
    },
    {
      "id": "pt.ine.add.PTCONT.422668",
      "street": "",
      "house": "",
      "postcode": "7700-240",
      "city": "SANTA CLARA-A-NOVA",
      "lon": "-8.17405587513769",
      "lat": "37.454511152586"
    },
    {
      "id": "pt.ine.add.PTCONT.433991",
      "street": "",
      "house": "",
      "postcode": "7700-240",
      "city": "SANTA CLARA-A-NOVA",
      "lon": "-8.172448196545197",
      "lat": "37.449204729568706"
    },
    {
      "id": "pt.ine.add.PTCONT.442197",
      "street": "MTE TORRINHA",
      "house": "",
      "postcode": "7700-240",
      "city": "SANTA CLARA-A-NOVA",
      "lon": "-8.163819717571842",
      "lat": "37.46320001525416"
    },
    {
      "id": "pt.ine.add.PTCONT.449953",
      "street": "",
      "house": "",
      "postcode": "7700-240",
      "city": "SANTA CLARA-A-NOVA",
      "lon": "-8.155186331946885",
      "lat": "37.471446195184335"
    }
  ]
}