{
  "data": {
    "distrito": "Setúbal",
    "concelho": "Moita",
    "freguesia": "Moita",
    "OBJECTID": 517,
    "BGRI2021": "15060301326",
    "DT21": "15",
    "DTMN21": "1506",
    "DTMNFR21": "150603",
    "DTMNFRSEC21": "150603013",
    "SECNUM21": "013",
    "SSNUM21": "26",
    "SECSSNUM21": "01326",
    "OBJECTID_1": 164201,
    "DT": "15",
    "CC": "06",
    "fr": "03",
    "SEC": "013",
    "SS": "26"
  },
  "addresses": [
    {
      "id": "pt.ine.add.PTCONT.4671047",
      "street": "R POMARES",
      "house": "",
      "postcode": "2860-515",
      "city": "MOITA",
      "lon": "-8.959876403436173",
      "lat": "38.6500019226071"
    },
    {
      "id": "pt.ine.add.PTCONT.4674700",
      "street": "R POMARES",
      "house": "",
      "postcode": "2860-575",
      "city": "MOITA",
      "lon": "-8.961750809025451",
      "lat": "38.64917793196348"
    },
    {
      "id": "pt.ine.add.PTCONT.4680503",
      "street": "ESTR QUATRO MARCOS",
      "house": "",
      "postcode": "2860-595",
      "city": "MOITA",
      "lon": "-8.966375507387164",
      "lat": "38.65175742369904"
    },
    {
      "id": "pt.ine.add.PTCONT.4681735",
      "street": "CM 1024",
      "house": "",
      "postcode": "2860-605",
      "city": "MOITA",
      "lon": "-8.959367073221165",
      "lat": "38.65166300888442"
    },
    {
      "id": "pt.ine.add.PTCONT.4689323",
      "street": "R PRESID ARRIAGA",
      "house": "",
      "postcode": "2860-518",
      "city": "MOITA",
      "lon": "-8.958737862790894",
      "lat": "38.64588425926654"
    },
    {
      "id": "pt.ine.add.PTCONT.4725943",
      "street": "R POMARES QTA DOS POMARES",
      "house": "",
      "postcode": "2860-575",
      "city": "MOITA",
      "lon": "-8.961165351269976",
      "lat": "38.650208999480995"
    },
    {
      "id": "pt.ine.add.PTCONT.4725944",
      "street": "R MÁRIO SACRAMENTO",
      "house": "",
      "postcode": "2860-577",
      "city": "MOITA",
      "lon": "-8.960001703779474",
      "lat": "38.647911160772594"
    },
    {
      "id": "pt.ine.add.PTCONT.4726005",
      "street": "R ESPERANÇA",
      "house": "",
      "postcode": "2860-512",
      "city": "MOITA",
      "lon": "-8.957171488578899",
      "lat": "38.64551696411568"
    },
    {
      "id": "pt.ine.add.PTCONT.4735299",
      "street": "ESTR QUATRO MARCOS",
      "house": "",
      "postcode": "2860-575",
      "city": "MOITA",
      "lon": "-8.964516218752317",
      "lat": "38.649914988689815"
    },
    {
      "id": "pt.ine.add.PTCONT.4758729",
      "street": "R POMARES",
      "house": "",
      "postcode": "2860-515",
      "city": "MOITA",
      "lon": "-8.959680098205862",
      "lat": "38.64791343368928"
    },
    {
      "id": "pt.ine.add.PTCONT.4769549",
      "street": "R MÁRIO SACRAMENTO",
      "house": "",
      "postcode": "2860-577",
      "city": "MOITA",
      "lon": "-8.961367593729006",
      "lat": "38.64782042483182"
    },
    {
      "id": "pt.ine.add.PTCONT.4786898",
      "street": "R DR ALEXANDRE SEQUEIRA QTA DA CURRALEIRA",
      "house": "",
      "postcode": "2860-339",
      "city": "MOITA",
      "lon": "-8.967204506032791",
      "lat": "38.64498644419319"
    },
    {
      "id": "pt.ine.add.PTCONT.4790520",
      "street": "R MÁRIO SACRAMENTO",
      "house": "",
      "postcode": "2860-577",
      "city": "MOITA",
      "lon": "-8.96037255617601",
      "lat": "38.64719689969094"
    },
    {
      "id": "pt.ine.add.PTCONT.4795188",
      "street": "R ESPERANÇA",
      "house": "",
      "postcode": "2860-512",
      "city": "MOITA",
      "lon": "-8.958147965783995",
      "lat": "38.64552809748032"
    },
    {
      "id": "pt.ine.add.PTCONT.4822453",
      "street": "ESTR QUATRO MARCOS",
      "house": "",
      "postcode": "2860-392",
      "city": "MOITA",
      "lon": "-8.966881124217803",
      "lat": "38.650780948217154"
    },
    {
      "id": "pt.ine.add.PTCONT.4837280",
      "street": "R ESPERANÇA",
      "house": "",
      "postcode": "2860-512",
      "city": "MOITA",
      "lon": "-8.958129973035637",
      "lat": "38.64496071448885"
    },
    {
      "id": "pt.ine.add.PTCONT.4851623",
      "street": "PQ EMPRESAS",
      "house": "",
      "postcode": "2860-605",
      "city": "MOITA",
      "lon": "-8.958120739418652",
      "lat": "38.64615885597989"
    },
    {
      "id": "pt.ine.add.PTCONT.4854842",
      "street": "EM 1022",
      "house": "",
      "postcode": "2860-339",
      "city": "MOITA",
      "lon": "-8.968293304863424",
      "lat": "38.643789607940626"
    },
    {
      "id": "pt.ine.add.PTCONT.4880058",
      "street": "R D PEDRO II QTA DA FILIPA",
      "house": "",
      "postcode": "2860-392",
      "city": "MOITA",
      "lon": "-8.967713948116097",
      "lat": "38.646325015773044"
    },
    {
      "id": "pt.ine.add.PTCONT.4909463",
      "street": "R ESPERANÇA",
      "house": "",
      "postcode": "2860-512",
      "city": "MOITA",
      "lon": "-8.958308763306356",
      "lat": "38.645526963297044"
    },
    {
      "id": "pt.ine.add.PTCONT.4918368",
      "street": "EM 533-1",
      "house": "",
      "postcode": "2860-563",
      "city": "MOITA",
      "lon": "-8.966364109214247",
      "lat": "38.642839499545566"
    },
    {
      "id": "pt.ine.add.PTCONT.4943352",
      "street": "R PRESID ARRIAGA",
      "house": "",
      "postcode": "2860-518",
      "city": "MOITA",
      "lon": "-8.958005448088706",
      "lat": "38.647123534810056"
    },
    {
      "id": "pt.ine.add.PTCONT.4945465",
      "street": "R 5 DE OUTUBRO",
      "house": "3",
      "postcode": "2860-564",
      "city": "MOITA",
      "lon": "-8.958796830509314",
      "lat": "38.64701886257202"
    },
    {
      "id": "pt.ine.add.PTCONT.4976081",
      "street": "R POMARES QTA DA CURPALEIRA",
      "house": "",
      "postcode": "2860-575",
      "city": "MOITA",
      "lon": "-8.967056448369679",
      "lat": "38.645095596851455"
    },
    {
      "id": "pt.ine.add.PTCONT.5001537",
      "street": "ESTR QUATRO MARCOS",
      "house": "",
      "postcode": "2860-595",
      "city": "MOITA",
      "lon": "-8.96706626427479",
      "lat": "38.65188762224722"
    },
    {
      "id": "pt.ine.add.PTCONT.5041839",
      "street": "R POMARES",
      "house": "",
      "postcode": "2860-515",
      "city": "MOITA",
      "lon": "-8.960781951309155",
      "lat": "38.6498333733185"
    },
    {
      "id": "pt.ine.add.PTCONT.5092500",
      "street": "R MÁRIO SACRAMENTO",
      "house": "",
      "postcode": "2860-577",
      "city": "MOITA",
      "lon": "-8.96071310492498",
      "lat": "38.64784307325409"
    },
    {
      "id": "pt.ine.add.PTCONT.5134546",
      "street": "R ESPERANÇA",
      "house": "",
      "postcode": "2860-512",
      "city": "MOITA",
      "lon": "-8.957775266316286",
      "lat": "38.64508032078293"
    }
  ]
}