{
  "data": {
    "distrito": "Santarém",
    "concelho": "Ourém",
    "freguesia": "Atouguia",
    "OBJECTID": 486,
    "BGRI2021": "14210200112",
    "DT21": "14",
    "DTMN21": "1421",
    "DTMNFR21": "142102",
    "DTMNFRSEC21": "142102001",
    "SECNUM21": "001",
    "SSNUM21": "12",
    "SECSSNUM21": "00112",
    "OBJECTID_1": 158943,
    "DT": "14",
    "CC": "21",
    "fr": "02",
    "SEC": "001",
    "SS": "12"
  },
  "addresses": [
    {
      "id": "pt.ine.add.PTCONT.4391470",
      "street": "R FURJA",
      "house": "32",
      "postcode": "2490-094",
      "city": "ATOUGUIA",
      "lon": "-8.619374950319928",
      "lat": "39.6258816880199"
    },
    {
      "id": "pt.ine.add.PTCONT.4415334",
      "street": "R PRINCIPAL",
      "house": "1465",
      "postcode": "2490-097",
      "city": "ATOUGUIA",
      "lon": "-8.615986374720439",
      "lat": "39.63436213416677"
    },
    {
      "id": "pt.ine.add.PTCONT.4415335",
      "street": "R FORJA",
      "house": "14",
      "postcode": "2490-094",
      "city": "ATOUGUIA",
      "lon": "-8.61945502708796",
      "lat": "39.62567419823798"
    },
    {
      "id": "pt.ine.add.PTCONT.4416372",
      "street": "R PRINCIPAL",
      "house": "1431",
      "postcode": "2490-097",
      "city": "ATOUGUIA",
      "lon": "-8.61578685406725",
      "lat": "39.63414680237718"
    },
    {
      "id": "pt.ine.add.PTCONT.4421757",
      "street": "R VALINHO",
      "house": "594",
      "postcode": "2490-094",
      "city": "ATOUGUIA",
      "lon": "-8.618259078199305",
      "lat": "39.624535345242386"
    },
    {
      "id": "pt.ine.add.PTCONT.4434021",
      "street": "R PRINCIPAL",
      "house": "1208",
      "postcode": "2490-094",
      "city": "ATOUGUIA",
      "lon": "-8.620064252671352",
      "lat": "39.62618502916811"
    },
    {
      "id": "pt.ine.add.PTCONT.4440252",
      "street": "R VALE DO ZAMBUJAL",
      "house": "167",
      "postcode": "2490-097",
      "city": "ATOUGUIA",
      "lon": "-8.617274827771862",
      "lat": "39.63538353569058"
    },
    {
      "id": "pt.ine.add.PTCONT.4475399",
      "street": "R PRINCIPAL",
      "house": "1399",
      "postcode": "2490-097",
      "city": "ATOUGUIA",
      "lon": "-8.615750032047771",
      "lat": "39.63387675411359"
    },
    {
      "id": "pt.ine.add.PTCONT.4489018",
      "street": "R PRINCIPAL",
      "house": "1277",
      "postcode": "2490-097",
      "city": "ATOUGUIA",
      "lon": "-8.615009830051031",
      "lat": "39.63296114276455"
    },
    {
      "id": "pt.ine.add.PTCONT.4514687",
      "street": "R PRINCIPAL",
      "house": "1252",
      "postcode": "2490-094",
      "city": "ATOUGUIA",
      "lon": "-8.620356937754549",
      "lat": "39.62639996320398"
    },
    {
      "id": "pt.ine.add.PTCONT.4523672",
      "street": "R VALINHO",
      "house": "588",
      "postcode": "2490-094",
      "city": "ATOUGUIA",
      "lon": "-8.618085135358626",
      "lat": "39.62464415219562"
    },
    {
      "id": "pt.ine.add.PTCONT.4523970",
      "street": "R PRINCIPAL",
      "house": "1070",
      "postcode": "2490-094",
      "city": "ATOUGUIA",
      "lon": "-8.618985695540633",
      "lat": "39.62518079248091"
    },
    {
      "id": "pt.ine.add.PTCONT.4529368",
      "street": "R PRINCIPAL",
      "house": "1341",
      "postcode": "2490-097",
      "city": "ATOUGUIA",
      "lon": "-8.615315864703003",
      "lat": "39.63341921501228"
    },
    {
      "id": "pt.ine.add.PTCONT.4530318",
      "street": "R COVOES",
      "house": "",
      "postcode": "2490-094",
      "city": "ATOUGUIA",
      "lon": "-8.6190711461438",
      "lat": "39.62907133740997"
    },
    {
      "id": "pt.ine.add.PTCONT.4530319",
      "street": "R PRINCIPAL",
      "house": "1352",
      "postcode": "2490-094",
      "city": "ATOUGUIA",
      "lon": "-8.620910028980543",
      "lat": "39.62720824673468"
    },
    {
      "id": "pt.ine.add.PTCONT.4535611",
      "street": "R VALE DO ZAMBUJAL",
      "house": "99",
      "postcode": "2490-097",
      "city": "ATOUGUIA",
      "lon": "-8.616782023403765",
      "lat": "39.63487220636561"
    },
    {
      "id": "pt.ine.add.PTCONT.4541199",
      "street": "R PRINCIPAL",
      "house": "1022",
      "postcode": "2490-094",
      "city": "ATOUGUIA",
      "lon": "-8.618599406796612",
      "lat": "39.62490319909013"
    },
    {
      "id": "pt.ine.add.PTCONT.4612277",
      "street": "R PRINCIPAL",
      "house": "630",
      "postcode": "2490-094",
      "city": "ATOUGUIA",
      "lon": "-8.618679107092952",
      "lat": "39.6246416710455"
    },
    {
      "id": "pt.ine.add.PTCONT.4616598",
      "street": "R VALE DO ZAMBUJAL",
      "house": "195",
      "postcode": "2490-097",
      "city": "ATOUGUIA",
      "lon": "-8.61802119982551",
      "lat": "39.63550651631172"
    },
    {
      "id": "pt.ine.add.PTCONT.4635219",
      "street": "R VALINHO",
      "house": "",
      "postcode": "2490-094",
      "city": "ATOUGUIA",
      "lon": "-8.618503465636909",
      "lat": "39.624507304217296"
    }
  ]
}