{
  "data": {
    "distrito": "Beja",
    "concelho": "Cuba",
    "freguesia": "Vila Ruiva",
    "OBJECTID": 39,
    "BGRI2021": "02070400131",
    "DT21": "02",
    "DTMN21": "0207",
    "DTMNFR21": "020704",
    "DTMNFRSEC21": "020704001",
    "SECNUM21": "001",
    "SSNUM21": "31",
    "SECSSNUM21": "00131",
    "OBJECTID_1": 14603,
    "DT": "02",
    "CC": "07",
    "fr": "04",
    "SEC": "001",
    "SS": "31"
  },
  "addresses": [
    {
      "id": "pt.ine.add.PTCONT.354931",
      "street": "R SENHOR",
      "house": "5",
      "postcode": "7940-467",
      "city": "VILA RUIVA CUB",
      "lon": "-7.93759969821212",
      "lat": "38.24809435349735"
    },
    {
      "id": "pt.ine.add.PTCONT.357501",
      "street": "R VALE DAS HORTAS",
      "house": "17",
      "postcode": "7940-472",
      "city": "VILA RUIVA CUB",
      "lon": "-7.93836468681927",
      "lat": "38.248248776694616"
    },
    {
      "id": "pt.ine.add.PTCONT.368746",
      "street": "R VALE DAS HORTAS",
      "house": "13",
      "postcode": "7940-472",
      "city": "VILA RUIVA CUB",
      "lon": "-7.938113097059006",
      "lat": "38.24834745685844"
    },
    {
      "id": "pt.ine.add.PTCONT.373622",
      "street": "R VALE DAS HORTAS",
      "house": "11",
      "postcode": "7940-472",
      "city": "VILA RUIVA CUB",
      "lon": "-7.938027084556988",
      "lat": "38.24839383768264"
    },
    {
      "id": "pt.ine.add.PTCONT.373654",
      "street": "",
      "house": "",
      "postcode": "7940-461",
      "city": "VILA RUIVA CUB",
      "lon": "-7.944676289774456",
      "lat": "38.24607892552371"
    },
    {
      "id": "pt.ine.add.PTCONT.374469",
      "street": "R VALE DAS HORTAS",
      "house": "7",
      "postcode": "7940-472",
      "city": "VILA RUIVA CUB",
      "lon": "-7.9378843062144275",
      "lat": "38.24846419220887"
    },
    {
      "id": "pt.ine.add.PTCONT.380043",
      "street": "R SENHOR",
      "house": "7",
      "postcode": "7940-467",
      "city": "VILA RUIVA CUB",
      "lon": "-7.937656648532411",
      "lat": "38.24815751066308"
    },
    {
      "id": "pt.ine.add.PTCONT.385696",
      "street": "",
      "house": "",
      "postcode": "7940-461",
      "city": "VILA RUIVA CUB",
      "lon": "-7.945484558267499",
      "lat": "38.24717029788221"
    },
    {
      "id": "pt.ine.add.PTCONT.385697",
      "street": "",
      "house": "",
      "postcode": "7940-461",
      "city": "VILA RUIVA CUB",
      "lon": "-7.943666740406815",
      "lat": "38.247725929688194"
    },
    {
      "id": "pt.ine.add.PTCONT.396994",
      "street": "",
      "house": "",
      "postcode": "7940-461",
      "city": "VILA RUIVA CUB",
      "lon": "-7.94062848897188",
      "lat": "38.247540808064784"
    },
    {
      "id": "pt.ine.add.PTCONT.402178",
      "street": "R VALE DAS HORTAS",
      "house": "15",
      "postcode": "7940-472",
      "city": "VILA RUIVA CUB",
      "lon": "-7.938181736575928",
      "lat": "38.24831153527941"
    },
    {
      "id": "pt.ine.add.PTCONT.409164",
      "street": "",
      "house": "",
      "postcode": "7940-411",
      "city": "VILA RUIVA CUB",
      "lon": "-7.940420007334222",
      "lat": "38.24862153414073"
    },
    {
      "id": "pt.ine.add.PTCONT.412625",
      "street": "ESTR CR 104 1",
      "house": "",
      "postcode": "7940-411",
      "city": "VILA RUIVA CUB",
      "lon": "-7.939113872692406",
      "lat": "38.250051797409945"
    },
    {
      "id": "pt.ine.add.PTCONT.418002",
      "street": "EN 258-1",
      "house": "",
      "postcode": "7940-461",
      "city": "VILA RUIVA CUB",
      "lon": "-7.940052811494841",
      "lat": "38.24491827135283"
    },
    {
      "id": "pt.ine.add.PTCONT.429252",
      "street": "",
      "house": "",
      "postcode": "7940-411",
      "city": "VILA RUIVA CUB",
      "lon": "-7.950888638433965",
      "lat": "38.25606158560413"
    },
    {
      "id": "pt.ine.add.PTCONT.431715",
      "street": "",
      "house": "",
      "postcode": "7940-411",
      "city": "VILA RUIVA CUB",
      "lon": "-7.943586290120498",
      "lat": "38.252311329357156"
    },
    {
      "id": "pt.ine.add.PTCONT.438493",
      "street": "ESTR CRT",
      "house": "",
      "postcode": "7940-411",
      "city": "VILA RUIVA CUB",
      "lon": "-7.9377336009839485",
      "lat": "38.24928375131819"
    },
    {
      "id": "pt.ine.add.PTCONT.440668",
      "street": "R SENHOR",
      "house": "3",
      "postcode": "7940-467",
      "city": "VILA RUIVA CUB",
      "lon": "-7.937542747990273",
      "lat": "38.248031196303565"
    },
    {
      "id": "pt.ine.add.PTCONT.448936",
      "street": "",
      "house": "",
      "postcode": "7940-411",
      "city": "VILA RUIVA CUB",
      "lon": "-7.941318070286681",
      "lat": "38.250307669392654"
    },
    {
      "id": "pt.ine.add.PTCONT.449838",
      "street": "R VALE DAS HORTAS",
      "house": "1",
      "postcode": "7940-472",
      "city": "VILA RUIVA CUB",
      "lon": "-7.9370043756866515",
      "lat": "38.24857083199493"
    }
  ]
}