{
  "data": {
    "distrito": "Beja",
    "concelho": "Cuba",
    "freguesia": "Vila Ruiva",
    "OBJECTID": 40,
    "BGRI2021": "02070400132",
    "DT21": "02",
    "DTMN21": "0207",
    "DTMNFR21": "020704",
    "DTMNFRSEC21": "020704001",
    "SECNUM21": "001",
    "SSNUM21": "32",
    "SECSSNUM21": "00132",
    "OBJECTID_1": 14808,
    "DT": "02",
    "CC": "07",
    "fr": "04",
    "SEC": "001",
    "SS": "32"
  },
  "addresses": [
    {
      "id": "pt.ine.add.PTCONT.457758",
      "street": "R EXERCITO",
      "house": "10 A",
      "postcode": "7940-465",
      "city": "VILA RUIVA CUB",
      "lon": "-7.934839042075776",
      "lat": "38.24681844987893"
    },
    {
      "id": "pt.ine.add.PTCONT.352622",
      "street": "",
      "house": "",
      "postcode": "7940-411",
      "city": "VILA RUIVA CUB",
      "lon": "-7.928414258002621",
      "lat": "38.25646597217058"
    },
    {
      "id": "pt.ine.add.PTCONT.353330",
      "street": "R CÂNDIDO DOS REIS",
      "house": "4",
      "postcode": "7940-457",
      "city": "VILA RUIVA CUB",
      "lon": "-7.934931672613613",
      "lat": "38.24640933907024"
    },
    {
      "id": "pt.ine.add.PTCONT.354697",
      "street": "R FÁBRICA",
      "house": "16",
      "postcode": "7940-458",
      "city": "VILA RUIVA CUB",
      "lon": "-7.935800471748402",
      "lat": "38.24810124230983"
    },
    {
      "id": "pt.ine.add.PTCONT.360672",
      "street": "",
      "house": "",
      "postcode": "7940-461",
      "city": "VILA RUIVA CUB",
      "lon": "-7.924949737992502",
      "lat": "38.249396906640364"
    },
    {
      "id": "pt.ine.add.PTCONT.361863",
      "street": "EN 258",
      "house": "4",
      "postcode": "7940-481",
      "city": "VILA RUIVA CUB",
      "lon": "-7.933721106227727",
      "lat": "38.24606983408236"
    },
    {
      "id": "pt.ine.add.PTCONT.364483",
      "street": "R FÁBRICA",
      "house": "18",
      "postcode": "7940-458",
      "city": "VILA RUIVA CUB",
      "lon": "-7.935830238573034",
      "lat": "38.24813731804379"
    },
    {
      "id": "pt.ine.add.PTCONT.366346",
      "street": "",
      "house": "",
      "postcode": "7940-461",
      "city": "VILA RUIVA CUB",
      "lon": "-7.931216938609206",
      "lat": "38.24693941663029"
    },
    {
      "id": "pt.ine.add.PTCONT.366932",
      "street": "R FÁBRICA",
      "house": "28",
      "postcode": "7940-458",
      "city": "VILA RUIVA CUB",
      "lon": "-7.936161327015573",
      "lat": "38.24845020279499"
    },
    {
      "id": "pt.ine.add.PTCONT.368783",
      "street": "EN 258-1 HORTA DA SANCHA",
      "house": "",
      "postcode": "7940-461",
      "city": "VILA RUIVA CUB",
      "lon": "-7.93189207664515",
      "lat": "38.24652616657223"
    },
    {
      "id": "pt.ine.add.PTCONT.370149",
      "street": "R FÁBRICA",
      "house": "20",
      "postcode": "7940-458",
      "city": "VILA RUIVA CUB",
      "lon": "-7.93587271323686",
      "lat": "38.248205995816974"
    },
    {
      "id": "pt.ine.add.PTCONT.383904",
      "street": "R FÁBRICA",
      "house": "26",
      "postcode": "7940-458",
      "city": "VILA RUIVA CUB",
      "lon": "-7.936081529997222",
      "lat": "38.24838700655485"
    },
    {
      "id": "pt.ine.add.PTCONT.384998",
      "street": "",
      "house": "",
      "postcode": "7940-461",
      "city": "VILA RUIVA CUB",
      "lon": "-7.9178572218268926",
      "lat": "38.24102385054994"
    },
    {
      "id": "pt.ine.add.PTCONT.386808",
      "street": "EN 258-1",
      "house": "",
      "postcode": "7940-461",
      "city": "VILA RUIVA CUB",
      "lon": "-7.928907312615025",
      "lat": "38.24358410836639"
    },
    {
      "id": "pt.ine.add.PTCONT.388907",
      "street": "MOINHO DA PONTE",
      "house": "",
      "postcode": "7940-411",
      "city": "VILA RUIVA CUB",
      "lon": "-7.945063584209499",
      "lat": "38.259809102096526"
    },
    {
      "id": "pt.ine.add.PTCONT.390264",
      "street": "R FÁBRICA",
      "house": "12",
      "postcode": "7940-458",
      "city": "VILA RUIVA CUB",
      "lon": "-7.935755130833733",
      "lat": "38.2480541585297"
    },
    {
      "id": "pt.ine.add.PTCONT.393738",
      "street": "EN 258-1",
      "house": "",
      "postcode": "7940-461",
      "city": "VILA RUIVA CUB",
      "lon": "-7.929055082969198",
      "lat": "38.24384562367103"
    },
    {
      "id": "pt.ine.add.PTCONT.397865",
      "street": "MTE CALDEIROES",
      "house": "S N",
      "postcode": "7940-411",
      "city": "VILA RUIVA CUB",
      "lon": "-7.934074350946208",
      "lat": "38.25058389274321"
    },
    {
      "id": "pt.ine.add.PTCONT.401791",
      "street": "R EXERCITO",
      "house": "4",
      "postcode": "7940-465",
      "city": "VILA RUIVA CUB",
      "lon": "-7.934636003336107",
      "lat": "38.24656168088542"
    },
    {
      "id": "pt.ine.add.PTCONT.410776",
      "street": "R EXERCITO",
      "house": "2",
      "postcode": "7940-465",
      "city": "VILA RUIVA CUB",
      "lon": "-7.934613327637169",
      "lat": "38.24649858021415"
    },
    {
      "id": "pt.ine.add.PTCONT.412622",
      "street": "R CÂNDIDO DOS REIS",
      "house": "8",
      "postcode": "7940-457",
      "city": "VILA RUIVA CUB",
      "lon": "-7.935034020276551",
      "lat": "38.24658068101008"
    },
    {
      "id": "pt.ine.add.PTCONT.412826",
      "street": "R DA FÁBRICA",
      "house": "32",
      "postcode": "7940-458",
      "city": "VILA RUIVA CUB",
      "lon": "-7.936258511580572",
      "lat": "38.24854384039148"
    },
    {
      "id": "pt.ine.add.PTCONT.412827",
      "street": "R EXERCITO",
      "house": "18",
      "postcode": "7940-465",
      "city": "VILA RUIVA CUB",
      "lon": "-7.935110665038321",
      "lat": "38.24720560566725"
    },
    {
      "id": "pt.ine.add.PTCONT.413981",
      "street": "R EXERCITO",
      "house": "24",
      "postcode": "7940-465",
      "city": "VILA RUIVA CUB",
      "lon": "-7.935235213129405",
      "lat": "38.24738108211005"
    },
    {
      "id": "pt.ine.add.PTCONT.415593",
      "street": "R EXERCITO",
      "house": "10",
      "postcode": "7940-465",
      "city": "VILA RUIVA CUB",
      "lon": "-7.9347935433442975",
      "lat": "38.24674630178325"
    },
    {
      "id": "pt.ine.add.PTCONT.416205",
      "street": "R EXERCITO",
      "house": "14",
      "postcode": "7940-465",
      "city": "VILA RUIVA CUB",
      "lon": "-7.935042412865703",
      "lat": "38.247128505828236"
    },
    {
      "id": "pt.ine.add.PTCONT.416243",
      "street": "",
      "house": "",
      "postcode": "7940-461",
      "city": "VILA RUIVA CUB",
      "lon": "-7.933569866764607",
      "lat": "38.24706956527575"
    },
    {
      "id": "pt.ine.add.PTCONT.419385",
      "street": "R FÁBRICA",
      "house": "14",
      "postcode": "7940-458",
      "city": "VILA RUIVA CUB",
      "lon": "-7.935771908440886",
      "lat": "38.24808228550357"
    },
    {
      "id": "pt.ine.add.PTCONT.424765",
      "street": "R EXERCITO",
      "house": "16",
      "postcode": "7940-465",
      "city": "VILA RUIVA CUB",
      "lon": "-7.935074555501435",
      "lat": "38.24717662886908"
    },
    {
      "id": "pt.ine.add.PTCONT.431693",
      "street": "EN 258 CASA DA AVO LUISA",
      "house": "",
      "postcode": "7940-481",
      "city": "VILA RUIVA CUB",
      "lon": "-7.934286393122485",
      "lat": "38.246288133783025"
    },
    {
      "id": "pt.ine.add.PTCONT.432452",
      "street": "",
      "house": "",
      "postcode": "7940-461",
      "city": "VILA RUIVA CUB",
      "lon": "-7.927011963864795",
      "lat": "38.24326548365736"
    },
    {
      "id": "pt.ine.add.PTCONT.432908",
      "street": "R CÂNDIDO DOS REIS",
      "house": "6",
      "postcode": "7940-457",
      "city": "VILA RUIVA CUB",
      "lon": "-7.934965723232532",
      "lat": "38.246490476692536"
    },
    {
      "id": "pt.ine.add.PTCONT.436143",
      "street": "MTE DAS ROSAS",
      "house": "",
      "postcode": "7940-411",
      "city": "VILA RUIVA CUB",
      "lon": "-7.938776823048235",
      "lat": "38.26078983670009"
    },
    {
      "id": "pt.ine.add.PTCONT.438521",
      "street": "EN 258",
      "house": "2",
      "postcode": "7940-481",
      "city": "VILA RUIVA CUB",
      "lon": "-7.934269656055016",
      "lat": "38.24598968459115"
    },
    {
      "id": "pt.ine.add.PTCONT.438899",
      "street": "R CÂNDIDO DOS REIS",
      "house": "2",
      "postcode": "7940-457",
      "city": "VILA RUIVA CUB",
      "lon": "-7.9348863208365",
      "lat": "38.24628313783258"
    },
    {
      "id": "pt.ine.add.PTCONT.442423",
      "street": "SITIO PÓVOACAO",
      "house": "",
      "postcode": "7940-461",
      "city": "VILA RUIVA CUB",
      "lon": "-7.934688407438735",
      "lat": "38.24743181776287"
    },
    {
      "id": "pt.ine.add.PTCONT.443189",
      "street": "",
      "house": "",
      "postcode": "7940-461",
      "city": "VILA RUIVA CUB",
      "lon": "-7.920249088120433",
      "lat": "38.23947868014629"
    },
    {
      "id": "pt.ine.add.PTCONT.444121",
      "street": "R EXERCITO",
      "house": "30",
      "postcode": "7940-465",
      "city": "VILA RUIVA CUB",
      "lon": "-7.9353711715738795",
      "lat": "38.24756047939671"
    },
    {
      "id": "pt.ine.add.PTCONT.445333",
      "street": "R FÁBRICA",
      "house": "22",
      "postcode": "7940-458",
      "city": "VILA RUIVA CUB",
      "lon": "-7.935978958366164",
      "lat": "38.248296745306206"
    },
    {
      "id": "pt.ine.add.PTCONT.447250",
      "street": "LG REPUBLICA",
      "house": "2",
      "postcode": "7940-453",
      "city": "VILA RUIVA CUB",
      "lon": "-7.935288036321434",
      "lat": "38.247138433497604"
    },
    {
      "id": "pt.ine.add.PTCONT.447653",
      "street": "R EXERCITO",
      "house": "28",
      "postcode": "7940-465",
      "city": "VILA RUIVA CUB",
      "lon": "-7.935302824370652",
      "lat": "38.247488293008104"
    },
    {
      "id": "pt.ine.add.PTCONT.448085",
      "street": "R EXERCITO",
      "house": "20",
      "postcode": "7940-465",
      "city": "VILA RUIVA CUB",
      "lon": "-7.935166890659912",
      "lat": "38.24729988678008"
    },
    {
      "id": "pt.ine.add.PTCONT.452911",
      "street": "R EXERCITO",
      "house": "6",
      "postcode": "7940-465",
      "city": "VILA RUIVA CUB",
      "lon": "-7.934670127173605",
      "lat": "38.24661579200586"
    },
    {
      "id": "pt.ine.add.PTCONT.455148",
      "street": "R FÁBRICA",
      "house": "24",
      "postcode": "7940-458",
      "city": "VILA RUIVA CUB",
      "lon": "-7.9360131083347465",
      "lat": "38.248341847165314"
    }
  ]
}