{
  "data": {
    "distrito": "Aveiro",
    "concelho": "Vale de Cambra",
    "freguesia": "União das freguesias de Vila Chã, Codal e Vila Cova de Perrinho",
    "OBJECTID": 470,
    "BGRI2021": "01191000508",
    "DT21": "01",
    "DTMN21": "0119",
    "DTMNFR21": "011910",
    "DTMNFRSEC21": "011910005",
    "SECNUM21": "005",
    "SSNUM21": "08",
    "SECSSNUM21": "00508",
    "OBJECTID_1": 12057,
    "DT": "01",
    "CC": "19",
    "fr": "10",
    "SEC": "005",
    "SS": "08"
  },
  "addresses": [
    {
      "id": "pt.ine.add.PTCONT.299747",
      "street": "R MINERIO",
      "house": "52",
      "postcode": "3730-337",
      "city": "VALE DE CAMBRA",
      "lon": "-8.402517684044128",
      "lat": "40.87086348948714"
    },
    {
      "id": "pt.ine.add.PTCONT.307648",
      "street": "CAM MINERIO",
      "house": "97",
      "postcode": "3730-337",
      "city": "VALE DE CAMBRA",
      "lon": "-8.402436435297389",
      "lat": "40.87130491557004"
    },
    {
      "id": "pt.ine.add.PTCONT.4850",
      "street": "CAM MINERIO",
      "house": "15",
      "postcode": "3730-337",
      "city": "VALE DE CAMBRA",
      "lon": "-8.402101771887184",
      "lat": "40.87068436368342"
    },
    {
      "id": "pt.ine.add.PTCONT.21942",
      "street": "CAM MINERIO",
      "house": "21",
      "postcode": "3730-337",
      "city": "VALE DE CAMBRA",
      "lon": "-8.402125933931163",
      "lat": "40.870792365220986"
    },
    {
      "id": "pt.ine.add.PTCONT.36878",
      "street": "CAM MINERIO",
      "house": "33",
      "postcode": "3730-337",
      "city": "VALE DE CAMBRA",
      "lon": "-8.402197691424265",
      "lat": "40.87093627502162"
    },
    {
      "id": "pt.ine.add.PTCONT.39597",
      "street": "CAM FONTE DA VALE",
      "house": "11",
      "postcode": "3730-337",
      "city": "VALE DE CAMBRA",
      "lon": "-8.402614956380132",
      "lat": "40.871448575760525"
    },
    {
      "id": "pt.ine.add.PTCONT.122752",
      "street": "R CHINTOA",
      "house": "59",
      "postcode": "3730-337",
      "city": "VALE DE CAMBRA",
      "lon": "-8.401899347251685",
      "lat": "40.87049573426018"
    },
    {
      "id": "pt.ine.add.PTCONT.147817",
      "street": "CAM MINERIO",
      "house": "103",
      "postcode": "3730-337",
      "city": "VALE DE CAMBRA",
      "lon": "-8.402697592006009",
      "lat": "40.87134932960225"
    },
    {
      "id": "pt.ine.add.PTCONT.147818",
      "street": "CAM MINERIO",
      "house": "103",
      "postcode": "3730-337",
      "city": "VALE DE CAMBRA",
      "lon": "-8.402697592006009",
      "lat": "40.87134932960225"
    },
    {
      "id": "pt.ine.add.PTCONT.197649",
      "street": "R FONTE VALE",
      "house": "148",
      "postcode": "3730-349",
      "city": "VALE DE CAMBRA",
      "lon": "-8.40314719501032",
      "lat": "40.871060123570985"
    },
    {
      "id": "pt.ine.add.PTCONT.199789",
      "street": "R FONTE VALE",
      "house": "148",
      "postcode": "3730-349",
      "city": "VALE DE CAMBRA",
      "lon": "-8.40314719501032",
      "lat": "40.871060123570985"
    },
    {
      "id": "pt.ine.add.PTCONT.221649",
      "street": "CAM MINERIO",
      "house": "63",
      "postcode": "3730-337",
      "city": "VALE DE CAMBRA",
      "lon": "-8.40232887074432",
      "lat": "40.87110706056791"
    },
    {
      "id": "pt.ine.add.PTCONT.273047",
      "street": "TV SAPATEIROS",
      "house": "43",
      "postcode": "3730-337",
      "city": "VALE DE CAMBRA",
      "lon": "-8.402386249358452",
      "lat": "40.870629670976534"
    }
  ]
}