{
  "data": {
    "distrito": "Leiria",
    "concelho": "Ansião",
    "freguesia": "Ansião",
    "OBJECTID": 706,
    "BGRI2021": "10030900251",
    "DT21": "10",
    "DTMN21": "1003",
    "DTMNFR21": "100309",
    "DTMNFRSEC21": "100309002",
    "SECNUM21": "002",
    "SSNUM21": "51",
    "SECSSNUM21": "00251",
    "OBJECTID_1": 86010,
    "DT": "10",
    "CC": "03",
    "fr": "09",
    "SEC": "002",
    "SS": "51"
  },
  "addresses": [
    {
      "id": "pt.ine.add.PTCONT.2017262",
      "street": "R BICA",
      "house": "",
      "postcode": "3240-207",
      "city": "ANSIÃO",
      "lon": "-8.43911520666013",
      "lat": "39.92682788863374"
    },
    {
      "id": "pt.ine.add.PTCONT.2039223",
      "street": "R LOMBARDO",
      "house": "",
      "postcode": "3240-220",
      "city": "ANSIÃO",
      "lon": "-8.439691057820266",
      "lat": "39.924799951861374"
    },
    {
      "id": "pt.ine.add.PTCONT.2060163",
      "street": "",
      "house": "",
      "postcode": "3240-240",
      "city": "ANSIÃO",
      "lon": "-8.436733310901568",
      "lat": "39.93049070300101"
    },
    {
      "id": "pt.ine.add.PTCONT.2067707",
      "street": "R FONTE SANTA",
      "house": "",
      "postcode": "3240-220",
      "city": "ANSIÃO",
      "lon": "-8.437468900044063",
      "lat": "39.9248868626572"
    },
    {
      "id": "pt.ine.add.PTCONT.2133392",
      "street": "",
      "house": "",
      "postcode": "3240-240",
      "city": "ANSIÃO",
      "lon": "-8.436519597968239",
      "lat": "39.9297797658895"
    },
    {
      "id": "pt.ine.add.PTCONT.2140170",
      "street": "",
      "house": "",
      "postcode": "3240-240",
      "city": "ANSIÃO",
      "lon": "-8.436673068318619",
      "lat": "39.93009458419196"
    },
    {
      "id": "pt.ine.add.PTCONT.2140184",
      "street": "ALTO LOMBARDO",
      "house": "",
      "postcode": "3240-220",
      "city": "ANSIÃO",
      "lon": "-8.439645352448041",
      "lat": "39.925043242610236"
    },
    {
      "id": "pt.ine.add.PTCONT.2170568",
      "street": "R SEM NOME",
      "house": "",
      "postcode": "3240-218",
      "city": "ANSIÃO",
      "lon": "-8.43647141330046",
      "lat": "39.929464671950285"
    },
    {
      "id": "pt.ine.add.PTCONT.2173278",
      "street": "R FONTE SANTA",
      "house": "",
      "postcode": "3240-220",
      "city": "ANSIÃO",
      "lon": "-8.437143641543203",
      "lat": "39.92540107466446"
    },
    {
      "id": "pt.ine.add.PTCONT.2174781",
      "street": "",
      "house": "",
      "postcode": "3240-240",
      "city": "ANSIÃO",
      "lon": "-8.437037151334447",
      "lat": "39.93041785668451"
    },
    {
      "id": "pt.ine.add.PTCONT.2179116",
      "street": "R SEM NOME",
      "house": "",
      "postcode": "3240-218",
      "city": "ANSIÃO",
      "lon": "-8.436490356983235",
      "lat": "39.92845591821729"
    },
    {
      "id": "pt.ine.add.PTCONT.2182217",
      "street": "R BICA",
      "house": "",
      "postcode": "3240-220",
      "city": "ANSIÃO",
      "lon": "-8.439188307885892",
      "lat": "39.92485531781588"
    },
    {
      "id": "pt.ine.add.PTCONT.2221559",
      "street": "R BICA",
      "house": "",
      "postcode": "3240-220",
      "city": "ANSIÃO",
      "lon": "-8.439180019261203",
      "lat": "39.92562087456598"
    },
    {
      "id": "pt.ine.add.PTCONT.2236360",
      "street": "R SEM NOME",
      "house": "",
      "postcode": "3240-218",
      "city": "ANSIÃO",
      "lon": "-8.435845574031582",
      "lat": "39.92814238339623"
    }
  ]
}