{
  "data": {
    "distrito": "Viseu",
    "concelho": "Tarouca",
    "freguesia": "União das freguesias de Gouviães e Ucanha",
    "OBJECTID": 65,
    "BGRI2021": "18201100135",
    "DT21": "18",
    "DTMN21": "1820",
    "DTMNFR21": "182011",
    "DTMNFRSEC21": "182011001",
    "SECNUM21": "001",
    "SSNUM21": "35",
    "SECSSNUM21": "00135",
    "OBJECTID_1": 198488,
    "DT": "18",
    "CC": "20",
    "fr": "11",
    "SEC": "001",
    "SS": "35"
  },
  "addresses": [
    {
      "id": "pt.ine.add.PTCONT.5453535",
      "street": "R QUELHOS",
      "house": "",
      "postcode": "3610-031",
      "city": "GOUVIÃES",
      "lon": "-7.759910024280233",
      "lat": "41.061365157296926"
    },
    {
      "id": "pt.ine.add.PTCONT.5467103",
      "street": "R QUELHOS",
      "house": "",
      "postcode": "3610-031",
      "city": "GOUVIÃES",
      "lon": "-7.7600287849614995",
      "lat": "41.06140155988794"
    },
    {
      "id": "pt.ine.add.PTCONT.5469721",
      "street": "R QUELHOS",
      "house": "",
      "postcode": "3610-031",
      "city": "GOUVIÃES",
      "lon": "-7.760194877208411",
      "lat": "41.06148313809471"
    },
    {
      "id": "pt.ine.add.PTCONT.5509805",
      "street": "R QUELHOS",
      "house": "",
      "postcode": "3610-031",
      "city": "GOUVIÃES",
      "lon": "-7.760171847287249",
      "lat": "41.061347995872765"
    },
    {
      "id": "pt.ine.add.PTCONT.5514682",
      "street": "R POCINHA",
      "house": "",
      "postcode": "3610-031",
      "city": "GOUVIÃES",
      "lon": "-7.759390761324868",
      "lat": "41.06062510440916"
    },
    {
      "id": "pt.ine.add.PTCONT.5524808",
      "street": "R QUELHOS",
      "house": "",
      "postcode": "3610-031",
      "city": "GOUVIÃES",
      "lon": "-7.7598631512816905",
      "lat": "41.06123894230748"
    },
    {
      "id": "pt.ine.add.PTCONT.5544099",
      "street": "R QUELHOS",
      "house": "",
      "postcode": "3610-031",
      "city": "GOUVIÃES",
      "lon": "-7.760111754724711",
      "lat": "41.061455855543656"
    },
    {
      "id": "pt.ine.add.PTCONT.5560582",
      "street": "R QUELHOS",
      "house": "",
      "postcode": "3610-031",
      "city": "GOUVIÃES",
      "lon": "-7.7597912637306985",
      "lat": "41.06132875458384"
    },
    {
      "id": "pt.ine.add.PTCONT.5587932",
      "street": "R QUELHOS",
      "house": "",
      "postcode": "3610-031",
      "city": "GOUVIÃES",
      "lon": "-7.760052933981133",
      "lat": "41.06133860647422"
    }
  ]
}