{
  "data": {
    "distrito": "Portalegre",
    "concelho": "Elvas",
    "freguesia": "Uni√£o das freguesias de Barbacena e Vila Fernando",
    "OBJECTID": 342,
    "BGRI2021": "12071400105",
    "DT21": "12",
    "DTMN21": "1207",
    "DTMNFR21": "120714",
    "DTMNFRSEC21": "120714001",
    "SECNUM21": "001",
    "SSNUM21": "05",
    "SECSSNUM21": "00105",
    "OBJECTID_1": 121791,
    "DT": "12",
    "CC": "07",
    "fr": "14",
    "SEC": "001",
    "SS": "05"
  },
  "addresses": [
    {
      "id": "pt.ine.add.PTCONT.3460377",
      "street": "MTE ALCOBACA",
      "house": "",
      "postcode": "7350-511",
      "city": "VILA FERNANDO ELV",
      "lon": "-7.361294658848739",
      "lat": "38.887951335567784"
    },
    {
      "id": "pt.ine.add.PTCONT.3475753",
      "street": "MTE VELHINHOS DE CIMA",
      "house": "",
      "postcode": "7350-511",
      "city": "VILA FERNANDO ELV",
      "lon": "-7.361370045088866",
      "lat": "38.901815651885094"
    },
    {
      "id": "pt.ine.add.PTCONT.3483671",
      "street": "MTE SERRONICOS",
      "house": "",
      "postcode": "7350-511",
      "city": "VILA FERNANDO ELV",
      "lon": "-7.361326539809026",
      "lat": "38.902238034911605"
    },
    {
      "id": "pt.ine.add.PTCONT.3483672",
      "street": "MTE SERRONES",
      "house": "",
      "postcode": "7350-511",
      "city": "VILA FERNANDO ELV",
      "lon": "-7.366481067869022",
      "lat": "38.90306552138693"
    },
    {
      "id": "pt.ine.add.PTCONT.3519377",
      "street": "MTE CELEIRO",
      "house": "",
      "postcode": "7350-511",
      "city": "VILA FERNANDO ELV",
      "lon": "-7.348316332875749",
      "lat": "38.89764850021409"
    },
    {
      "id": "pt.ine.add.PTCONT.3522549",
      "street": "MTE ALCOBACA",
      "house": "",
      "postcode": "7350-511",
      "city": "VILA FERNANDO ELV",
      "lon": "-7.343256888619318",
      "lat": "38.89028208797535"
    },
    {
      "id": "pt.ine.add.PTCONT.3527500",
      "street": "MTE PEGACHA",
      "house": "",
      "postcode": "7350-511",
      "city": "VILA FERNANDO ELV",
      "lon": "-7.35523150725566",
      "lat": "38.89954549402275"
    },
    {
      "id": "pt.ine.add.PTCONT.3531856",
      "street": "MTE ALCOBACA",
      "house": "",
      "postcode": "7350-511",
      "city": "VILA FERNANDO ELV",
      "lon": "-7.350551271792408",
      "lat": "38.88780638645241"
    }
  ]
}