{
  "data": {
    "distrito": "Portalegre",
    "concelho": "Elvas",
    "freguesia": "Uni√£o das freguesias de Barbacena e Vila Fernando",
    "OBJECTID": 148,
    "BGRI2021": "12071400132",
    "DT21": "12",
    "DTMN21": "1207",
    "DTMNFR21": "120714",
    "DTMNFRSEC21": "120714001",
    "SECNUM21": "001",
    "SSNUM21": "32",
    "SECSSNUM21": "00132",
    "OBJECTID_1": 121793,
    "DT": "12",
    "CC": "07",
    "fr": "14",
    "SEC": "001",
    "SS": "32"
  },
  "addresses": [
    {
      "id": "pt.ine.add.PTCONT.3535541",
      "street": "R FORNO",
      "house": "5A",
      "postcode": "7350-431",
      "city": "BARBACENA",
      "lon": "-7.29662571381279",
      "lat": "38.960439926080035"
    },
    {
      "id": "pt.ine.add.PTCONT.3470648",
      "street": "R FORNO",
      "house": "5 B",
      "postcode": "7350-431",
      "city": "BARBACENA",
      "lon": "-7.296647007495708",
      "lat": "38.96048745153048"
    },
    {
      "id": "pt.ine.add.PTCONT.3476220",
      "street": "R DR JOSE ANDRADE SEQUEIRA",
      "house": "3",
      "postcode": "7350-431",
      "city": "BARBACENA",
      "lon": "-7.296430054178406",
      "lat": "38.96048760686339"
    },
    {
      "id": "pt.ine.add.PTCONT.3488030",
      "street": "R DR JOSE ANDRADE SEQUEIRA",
      "house": "1",
      "postcode": "7350-431",
      "city": "BARBACENA",
      "lon": "-7.296350784137333",
      "lat": "38.960360931972936"
    },
    {
      "id": "pt.ine.add.PTCONT.3491047",
      "street": "R MADEIRAS",
      "house": "13",
      "postcode": "7350-431",
      "city": "BARBACENA",
      "lon": "-7.29648160639549",
      "lat": "38.96028535744993"
    },
    {
      "id": "pt.ine.add.PTCONT.3511787",
      "street": "R MADEIRAS",
      "house": "17 A",
      "postcode": "7350-431",
      "city": "BARBACENA",
      "lon": "-7.296372953239057",
      "lat": "38.96032175198522"
    },
    {
      "id": "pt.ine.add.PTCONT.3519238",
      "street": "R MADEIRAS",
      "house": "15",
      "postcode": "7350-431",
      "city": "BARBACENA",
      "lon": "-7.296438778130336",
      "lat": "38.96029920406965"
    },
    {
      "id": "pt.ine.add.PTCONT.3522182",
      "street": "R TRINCHEIRAS",
      "house": "1 B",
      "postcode": "7350-431",
      "city": "BARBACENA",
      "lon": "-7.296547385163491",
      "lat": "38.96058586980321"
    },
    {
      "id": "pt.ine.add.PTCONT.3531080",
      "street": "R FORNO",
      "house": "5",
      "postcode": "7350-431",
      "city": "BARBACENA",
      "lon": "-7.296573350515578",
      "lat": "38.96040261593834"
    },
    {
      "id": "pt.ine.add.PTCONT.3531733",
      "street": "R TRINCHEIRAS",
      "house": "1 C",
      "postcode": "7350-431",
      "city": "BARBACENA",
      "lon": "-7.2966632766186414",
      "lat": "38.96054166244314"
    }
  ]
}