{
  "data": {
    "distrito": "Portalegre",
    "concelho": "Elvas",
    "freguesia": "Uni√£o das freguesias de Barbacena e Vila Fernando",
    "OBJECTID": 397,
    "BGRI2021": "12071400154",
    "DT21": "12",
    "DTMN21": "1207",
    "DTMNFR21": "120714",
    "DTMNFRSEC21": "120714001",
    "SECNUM21": "001",
    "SSNUM21": "54",
    "SECSSNUM21": "00154",
    "OBJECTID_1": 122010,
    "DT": "12",
    "CC": "07",
    "fr": "14",
    "SEC": "001",
    "SS": "54"
  },
  "addresses": [
    {
      "id": "pt.ine.add.PTCONT.3536817",
      "street": "MTE OUTEIRO DO CECHO",
      "house": "",
      "postcode": "7350-431",
      "city": "BARBACENA",
      "lon": "-7.339334263411679",
      "lat": "38.981665303457035"
    },
    {
      "id": "pt.ine.add.PTCONT.3460231",
      "street": "MTE TONEJAO",
      "house": "",
      "postcode": "7350-431",
      "city": "BARBACENA",
      "lon": "-7.326534632652677",
      "lat": "38.97464167845769"
    },
    {
      "id": "pt.ine.add.PTCONT.3461439",
      "street": "MTE REGUENGO DE BAIXO",
      "house": "",
      "postcode": "7350-431",
      "city": "BARBACENA",
      "lon": "-7.329892061096822",
      "lat": "38.960387765846036"
    },
    {
      "id": "pt.ine.add.PTCONT.3462232",
      "street": "MTE VALE D AGUEA",
      "house": "",
      "postcode": "7350-431",
      "city": "BARBACENA",
      "lon": "-7.312806039579734",
      "lat": "38.96934859195379"
    },
    {
      "id": "pt.ine.add.PTCONT.3463273",
      "street": "MTE CABECA GORDA",
      "house": "",
      "postcode": "7350-431",
      "city": "BARBACENA",
      "lon": "-7.317615657273235",
      "lat": "38.97757021121495"
    },
    {
      "id": "pt.ine.add.PTCONT.3463949",
      "street": "HORTA DO MANUEL ALVES",
      "house": "",
      "postcode": "7350-431",
      "city": "BARBACENA",
      "lon": "-7.312164724567978",
      "lat": "38.96493035413534"
    },
    {
      "id": "pt.ine.add.PTCONT.3464585",
      "street": "MTE VALENTIM",
      "house": "",
      "postcode": "7350-431",
      "city": "BARBACENA",
      "lon": "-7.322296077816059",
      "lat": "38.97191903080911"
    },
    {
      "id": "pt.ine.add.PTCONT.3478536",
      "street": "MTE VINHAS",
      "house": "",
      "postcode": "7350-431",
      "city": "BARBACENA",
      "lon": "-7.331493284788181",
      "lat": "38.980053385833706"
    },
    {
      "id": "pt.ine.add.PTCONT.3487313",
      "street": "MTE RAPOSEIRA",
      "house": "",
      "postcode": "7350-431",
      "city": "BARBACENA",
      "lon": "-7.328069104961171",
      "lat": "38.98587573893354"
    },
    {
      "id": "pt.ine.add.PTCONT.3487314",
      "street": "HORTA DAS FLORES",
      "house": "",
      "postcode": "7350-431",
      "city": "BARBACENA",
      "lon": "-7.305566032776806",
      "lat": "38.96869312872355"
    },
    {
      "id": "pt.ine.add.PTCONT.3497268",
      "street": "HORTA DO MANUEL ALVES",
      "house": "",
      "postcode": "7350-431",
      "city": "BARBACENA",
      "lon": "-7.3122589950756245",
      "lat": "38.964759872644805"
    },
    {
      "id": "pt.ine.add.PTCONT.3513192",
      "street": "MTE CABECA GORDA",
      "house": "",
      "postcode": "7350-431",
      "city": "BARBACENA",
      "lon": "-7.3140263199185656",
      "lat": "38.9735997442083"
    }
  ]
}