{
  "data": {
    "distrito": "Castelo Branco",
    "concelho": "Oleiros",
    "freguesia": "Orvalho",
    "OBJECTID": 332,
    "BGRI2021": "05060900111",
    "DT21": "05",
    "DTMN21": "0506",
    "DTMNFR21": "050609",
    "DTMNFRSEC21": "050609001",
    "SECNUM21": "001",
    "SSNUM21": "11",
    "SECSSNUM21": "00111",
    "OBJECTID_1": 44989,
    "DT": "05",
    "CC": "06",
    "fr": "09",
    "SEC": "001",
    "SS": "11"
  },
  "addresses": [
    {
      "id": "pt.ine.add.PTCONT.951609",
      "street": "R FUNDO DO LUGAR",
      "house": "9",
      "postcode": "6185-337",
      "city": "ORVALHO",
      "lon": "-7.790771762594469",
      "lat": "40.01985956023912"
    },
    {
      "id": "pt.ine.add.PTCONT.951642",
      "street": "R TERREIRO",
      "house": "8",
      "postcode": "6185-315",
      "city": "ORVALHO",
      "lon": "-7.7912158466988",
      "lat": "40.02006801246764"
    },
    {
      "id": "pt.ine.add.PTCONT.959050",
      "street": "R CASAS LANDES",
      "house": "3",
      "postcode": "6185-327",
      "city": "ORVALHO",
      "lon": "-7.792666461490061",
      "lat": "40.02045054094197"
    },
    {
      "id": "pt.ine.add.PTCONT.960294",
      "street": "R FUNDO DO LUGAR",
      "house": "21",
      "postcode": "6185-337",
      "city": "ORVALHO",
      "lon": "-7.790994816293382",
      "lat": "40.01976115140469"
    },
    {
      "id": "pt.ine.add.PTCONT.962927",
      "street": "R CARREIRA",
      "house": "13",
      "postcode": "6185-321",
      "city": "ORVALHO",
      "lon": "-7.790863986810586",
      "lat": "40.02015703525049"
    },
    {
      "id": "pt.ine.add.PTCONT.969998",
      "street": "R FUNDO DO LUGAR",
      "house": "22",
      "postcode": "6185-337",
      "city": "ORVALHO",
      "lon": "-7.7910527997536825",
      "lat": "40.01987840238688"
    },
    {
      "id": "pt.ine.add.PTCONT.977789",
      "street": "R JOGO MALHAO",
      "house": "6",
      "postcode": "6185-313",
      "city": "ORVALHO",
      "lon": "-7.792513779967902",
      "lat": "40.020531147554244"
    },
    {
      "id": "pt.ine.add.PTCONT.989357",
      "street": "R TERREIRO",
      "house": "12",
      "postcode": "6185-315",
      "city": "ORVALHO",
      "lon": "-7.791098755013214",
      "lat": "40.02005866081792"
    },
    {
      "id": "pt.ine.add.PTCONT.991525",
      "street": "TV CARREIRA",
      "house": "1",
      "postcode": "6185-336",
      "city": "ORVALHO",
      "lon": "-7.79079365972802",
      "lat": "40.02016583367175"
    },
    {
      "id": "pt.ine.add.PTCONT.1002228",
      "street": "R FUNDO DO LUGAR",
      "house": "20",
      "postcode": "6185-337",
      "city": "ORVALHO",
      "lon": "-7.7910882554044685",
      "lat": "40.019815464054815"
    },
    {
      "id": "pt.ine.add.PTCONT.1011911",
      "street": "R TERREIRO",
      "house": "10",
      "postcode": "6185-315",
      "city": "ORVALHO",
      "lon": "-7.7913096908276716",
      "lat": "40.02004127087519"
    },
    {
      "id": "pt.ine.add.PTCONT.1015929",
      "street": "R CARREIRA",
      "house": "14",
      "postcode": "6185-321",
      "city": "ORVALHO",
      "lon": "-7.790570424286962",
      "lat": "40.02030026612975"
    },
    {
      "id": "pt.ine.add.PTCONT.1020831",
      "street": "LG AZEVEDOS",
      "house": "1",
      "postcode": "6185-306",
      "city": "ORVALHO",
      "lon": "-7.791917455519324",
      "lat": "40.020313246040715"
    },
    {
      "id": "pt.ine.add.PTCONT.1032747",
      "street": "TV CARREIRA",
      "house": "6",
      "postcode": "6185-336",
      "city": "ORVALHO",
      "lon": "-7.790829205765413",
      "lat": "40.02008488341045"
    },
    {
      "id": "pt.ine.add.PTCONT.1040020",
      "street": "R FUNDO DO LUGAR",
      "house": "19",
      "postcode": "6185-337",
      "city": "ORVALHO",
      "lon": "-7.790819202111268",
      "lat": "40.019742620549955"
    },
    {
      "id": "pt.ine.add.PTCONT.1047302",
      "street": "R CARREIRA",
      "house": "8",
      "postcode": "6185-321",
      "city": "ORVALHO",
      "lon": "-7.790664404046336",
      "lat": "40.02024650704475"
    },
    {
      "id": "pt.ine.add.PTCONT.1049577",
      "street": "R JOGO MALHAO",
      "house": "4",
      "postcode": "6185-313",
      "city": "ORVALHO",
      "lon": "-7.7923614116771285",
      "lat": "40.02054871191155"
    },
    {
      "id": "pt.ine.add.PTCONT.1050175",
      "street": "R CARREIRA",
      "house": "6",
      "postcode": "6185-321",
      "city": "ORVALHO",
      "lon": "-7.790723197587823",
      "lat": "40.02020165006941"
    },
    {
      "id": "pt.ine.add.PTCONT.1055116",
      "street": "R CARREIRA",
      "house": "20",
      "postcode": "6185-321",
      "city": "ORVALHO",
      "lon": "-7.789716723467646",
      "lat": "40.02001854927025"
    },
    {
      "id": "pt.ine.add.PTCONT.1058622",
      "street": "TV CARREIRA",
      "house": "2",
      "postcode": "6185-336",
      "city": "ORVALHO",
      "lon": "-7.7907594188526605",
      "lat": "40.01998560973115"
    },
    {
      "id": "pt.ine.add.PTCONT.1058624",
      "street": "TV CARREIRA",
      "house": "5",
      "postcode": "6185-336",
      "city": "ORVALHO",
      "lon": "-7.790911426379839",
      "lat": "40.020040095529794"
    },
    {
      "id": "pt.ine.add.PTCONT.1065568",
      "street": "R FUNDO",
      "house": "8",
      "postcode": "6185-337",
      "city": "ORVALHO",
      "lon": "-7.791040636410162",
      "lat": "40.019968427882574"
    },
    {
      "id": "pt.ine.add.PTCONT.1068120",
      "street": "R FUNDO DO LUGAR",
      "house": "26",
      "postcode": "6185-337",
      "city": "ORVALHO",
      "lon": "-7.790959180658583",
      "lat": "40.01986011373713"
    },
    {
      "id": "pt.ine.add.PTCONT.1071324",
      "street": "R TERREIRO",
      "house": "14",
      "postcode": "6185-315",
      "city": "ORVALHO",
      "lon": "-7.790958056108519",
      "lat": "40.02008526391079"
    },
    {
      "id": "pt.ine.add.PTCONT.1078009",
      "street": "R JOGO MALHAO",
      "house": "1",
      "postcode": "6185-313",
      "city": "ORVALHO",
      "lon": "-7.792256346438476",
      "lat": "40.02047635381882"
    },
    {
      "id": "pt.ine.add.PTCONT.1080167",
      "street": "R S SEBASTI√ÉO",
      "house": "1",
      "postcode": "6185-301",
      "city": "ORVALHO",
      "lon": "-7.789600399811376",
      "lat": "40.01985609400953"
    },
    {
      "id": "pt.ine.add.PTCONT.1091611",
      "street": "R TERREIRO",
      "house": "4",
      "postcode": "6185-315",
      "city": "ORVALHO",
      "lon": "-7.7914267825138515",
      "lat": "40.020050622311786"
    },
    {
      "id": "pt.ine.add.PTCONT.1095071",
      "street": "R CARREIRA",
      "house": "2",
      "postcode": "6185-321",
      "city": "ORVALHO",
      "lon": "-7.790806363458419",
      "lat": "40.019967736125814"
    },
    {
      "id": "pt.ine.add.PTCONT.1097748",
      "street": "R JOGO MALHAO",
      "house": "1",
      "postcode": "6185-313",
      "city": "ORVALHO",
      "lon": "-7.791485216086963",
      "lat": "40.020077813004036"
    }
  ]
}