{
  "data": {
    "distrito": "Set√∫bal",
    "concelho": "Moita",
    "freguesia": "Moita",
    "OBJECTID": 476,
    "BGRI2021": "15060301208",
    "DT21": "15",
    "DTMN21": "1506",
    "DTMNFR21": "150603",
    "DTMNFRSEC21": "150603012",
    "SECNUM21": "012",
    "SSNUM21": "08",
    "SECSSNUM21": "01208",
    "OBJECTID_1": 163755,
    "DT": "15",
    "CC": "06",
    "fr": "03",
    "SEC": "012",
    "SS": "08"
  },
  "addresses": [
    {
      "id": "pt.ine.add.PTCONT.4663608",
      "street": "R ALECRIM",
      "house": "",
      "postcode": "2860-597",
      "city": "MOITA",
      "lon": "-8.981178338997411",
      "lat": "38.66111851540254"
    },
    {
      "id": "pt.ine.add.PTCONT.4667399",
      "street": "R ZECA AFONSO",
      "house": "",
      "postcode": "2860-292",
      "city": "MOITA",
      "lon": "-8.978937602774586",
      "lat": "38.66050070110639"
    },
    {
      "id": "pt.ine.add.PTCONT.4667400",
      "street": "R MIGUEL BOMBARDA",
      "house": "16",
      "postcode": "2860-601",
      "city": "MOITA",
      "lon": "-8.980138971914316",
      "lat": "38.65970855479417"
    },
    {
      "id": "pt.ine.add.PTCONT.4671195",
      "street": "R MIGUEL BOMBARDA",
      "house": "20",
      "postcode": "2860-601",
      "city": "MOITA",
      "lon": "-8.980260027592523",
      "lat": "38.659809993443425"
    },
    {
      "id": "pt.ine.add.PTCONT.4674697",
      "street": "R CAMILO CASTELO BRANCO",
      "house": "",
      "postcode": "2860-702",
      "city": "MOITA",
      "lon": "-8.97918883421916",
      "lat": "38.66122463548641"
    },
    {
      "id": "pt.ine.add.PTCONT.4678289",
      "street": "R ZECA AFONSO",
      "house": "",
      "postcode": "2860-292",
      "city": "MOITA",
      "lon": "-8.978539353643292",
      "lat": "38.66072126369026"
    },
    {
      "id": "pt.ine.add.PTCONT.4689238",
      "street": "R CAMILO CASTELO BRANCO",
      "house": "",
      "postcode": "2860-702",
      "city": "MOITA",
      "lon": "-8.979360211345076",
      "lat": "38.66108940982821"
    },
    {
      "id": "pt.ine.add.PTCONT.4694588",
      "street": "R ALECRIM",
      "house": "6",
      "postcode": "2860-597",
      "city": "MOITA",
      "lon": "-8.981054095815002",
      "lat": "38.66129957732472"
    },
    {
      "id": "pt.ine.add.PTCONT.4714560",
      "street": "EN 1022",
      "house": "",
      "postcode": "2860-597",
      "city": "MOITA",
      "lon": "-8.983228374709958",
      "lat": "38.658626417385044"
    },
    {
      "id": "pt.ine.add.PTCONT.4718074",
      "street": "R MIGUEL BOMBARDA",
      "house": "12",
      "postcode": "2860-601",
      "city": "MOITA",
      "lon": "-8.979791516643049",
      "lat": "38.65949743074165"
    },
    {
      "id": "pt.ine.add.PTCONT.4726066",
      "street": "R MIGUEL BOMBARDA",
      "house": "10",
      "postcode": "2860-601",
      "city": "MOITA",
      "lon": "-8.979412344495454",
      "lat": "38.659446799348785"
    },
    {
      "id": "pt.ine.add.PTCONT.4734481",
      "street": "R 1 DE MAIO",
      "house": "4",
      "postcode": "2860-357",
      "city": "MOITA",
      "lon": "-8.97823906226902",
      "lat": "38.660302040356534"
    },
    {
      "id": "pt.ine.add.PTCONT.4734482",
      "street": "R 1 MAIO SN",
      "house": "SN",
      "postcode": "2860-357",
      "city": "MOITA",
      "lon": "-8.97823906226902",
      "lat": "38.660302040356534"
    },
    {
      "id": "pt.ine.add.PTCONT.4739356",
      "street": "R 1 DE MAIO",
      "house": "",
      "postcode": "2860-357",
      "city": "MOITA",
      "lon": "-8.978161147815472",
      "lat": "38.66019150508053"
    },
    {
      "id": "pt.ine.add.PTCONT.4742397",
      "street": "R MIGUEL BOMBARDA",
      "house": "6",
      "postcode": "2860-601",
      "city": "MOITA",
      "lon": "-8.979341357504188",
      "lat": "38.65921985038744"
    },
    {
      "id": "pt.ine.add.PTCONT.4762290",
      "street": "R PESSEGUEIROS",
      "house": "",
      "postcode": "2860-704",
      "city": "MOITA",
      "lon": "-8.982347131029938",
      "lat": "38.65988493924701"
    },
    {
      "id": "pt.ine.add.PTCONT.4806712",
      "street": "R 1 DE MAIO",
      "house": "11",
      "postcode": "2860-292",
      "city": "MOITA",
      "lon": "-8.978593511444231",
      "lat": "38.66031862991881"
    },
    {
      "id": "pt.ine.add.PTCONT.4808336",
      "street": "R PESSEGUEIROS",
      "house": "",
      "postcode": "2860-704",
      "city": "MOITA",
      "lon": "-8.982459136098191",
      "lat": "38.65964090838395"
    },
    {
      "id": "pt.ine.add.PTCONT.4815704",
      "street": "R POVO UNIDO",
      "house": "",
      "postcode": "2860-594",
      "city": "MOITA",
      "lon": "-8.975887538255295",
      "lat": "38.66061627344389"
    },
    {
      "id": "pt.ine.add.PTCONT.4817641",
      "street": "R PESSEGUEIROS",
      "house": "",
      "postcode": "2860-704",
      "city": "MOITA",
      "lon": "-8.982127800113606",
      "lat": "38.65979645090231"
    },
    {
      "id": "pt.ine.add.PTCONT.4821452",
      "street": "R 1 DE MAIO",
      "house": "",
      "postcode": "2860-357",
      "city": "MOITA",
      "lon": "-8.977872379206273",
      "lat": "38.66079176314103"
    },
    {
      "id": "pt.ine.add.PTCONT.4822537",
      "street": "R LARANJEIRAS",
      "house": "",
      "postcode": "2860-595",
      "city": "MOITA",
      "lon": "-8.98261911746283",
      "lat": "38.66054055243291"
    },
    {
      "id": "pt.ine.add.PTCONT.4828039",
      "street": "R AMENDOEIRAS",
      "house": "1",
      "postcode": "2860-596",
      "city": "MOITA",
      "lon": "-8.982785368739528",
      "lat": "38.660025885538545"
    },
    {
      "id": "pt.ine.add.PTCONT.4834485",
      "street": "R ALECRIM",
      "house": "",
      "postcode": "2860-597",
      "city": "MOITA",
      "lon": "-8.97889659353615",
      "lat": "38.66345911585795"
    },
    {
      "id": "pt.ine.add.PTCONT.4835429",
      "street": "R MIGUEL BOMBARDA",
      "house": "4B",
      "postcode": "2860-601",
      "city": "MOITA",
      "lon": "-8.97918990317368",
      "lat": "38.659140304956665"
    },
    {
      "id": "pt.ine.add.PTCONT.4882720",
      "street": "R CAMILO CASTELO BRANCO",
      "house": "",
      "postcode": "2860-702",
      "city": "MOITA",
      "lon": "-8.97880585284541",
      "lat": "38.66176675367066"
    },
    {
      "id": "pt.ine.add.PTCONT.4902864",
      "street": "EM 1022",
      "house": "",
      "postcode": "2860-339",
      "city": "MOITA",
      "lon": "-8.982244913839974",
      "lat": "38.65706615820212"
    },
    {
      "id": "pt.ine.add.PTCONT.4909796",
      "street": "R CAMILO CASTELO BRANCO",
      "house": "",
      "postcode": "2860-702",
      "city": "MOITA",
      "lon": "-8.978540660896195",
      "lat": "38.66152495687662"
    },
    {
      "id": "pt.ine.add.PTCONT.4927841",
      "street": "R 1 DE MAIO",
      "house": "15",
      "postcode": "2860-357",
      "city": "MOITA",
      "lon": "-8.978294807542056",
      "lat": "38.66015750859233"
    },
    {
      "id": "pt.ine.add.PTCONT.4931627",
      "street": "R 1 DE MAIO",
      "house": "",
      "postcode": "2860-357",
      "city": "MOITA",
      "lon": "-8.977918114839452",
      "lat": "38.660649927903606"
    },
    {
      "id": "pt.ine.add.PTCONT.4952803",
      "street": "R 1 DE MAIO",
      "house": "19",
      "postcode": "2860-357",
      "city": "MOITA",
      "lon": "-8.97804732093244",
      "lat": "38.660568577864396"
    },
    {
      "id": "pt.ine.add.PTCONT.4954228",
      "street": "R ALECRIM",
      "house": "",
      "postcode": "2860-597",
      "city": "MOITA",
      "lon": "-8.981632542819261",
      "lat": "38.66066481838801"
    },
    {
      "id": "pt.ine.add.PTCONT.4961575",
      "street": "R POVO UNIDO",
      "house": "",
      "postcode": "2860-594",
      "city": "MOITA",
      "lon": "-8.975887538255295",
      "lat": "38.66061627344389"
    },
    {
      "id": "pt.ine.add.PTCONT.4963896",
      "street": "R ZECA AFONSO",
      "house": "",
      "postcode": "2860-292",
      "city": "MOITA",
      "lon": "-8.978420168413715",
      "lat": "38.66104840061793"
    },
    {
      "id": "pt.ine.add.PTCONT.4965250",
      "street": "R AMENDOEIRAS",
      "house": "",
      "postcode": "2860-596",
      "city": "MOITA",
      "lon": "-8.98300502052502",
      "lat": "38.66014139448368"
    },
    {
      "id": "pt.ine.add.PTCONT.4972308",
      "street": "R ZECA AFONSO",
      "house": "",
      "postcode": "2860-292",
      "city": "MOITA",
      "lon": "-8.978843421777281",
      "lat": "38.66089220399859"
    },
    {
      "id": "pt.ine.add.PTCONT.5016069",
      "street": "R CAMILO CASTELO BRANCO",
      "house": "1",
      "postcode": "2860-702",
      "city": "MOITA",
      "lon": "-8.97949217305705",
      "lat": "38.66087211926794"
    },
    {
      "id": "pt.ine.add.PTCONT.5019320",
      "street": "R MIGUEL BOMBARDA",
      "house": "8A",
      "postcode": "2860-601",
      "city": "MOITA",
      "lon": "-8.979345444867747",
      "lat": "38.65939506454387"
    },
    {
      "id": "pt.ine.add.PTCONT.5053158",
      "street": "R MIGUEL BOMBARDA",
      "house": "4",
      "postcode": "2860-601",
      "city": "MOITA",
      "lon": "-8.979105243332416",
      "lat": "38.659082969348994"
    },
    {
      "id": "pt.ine.add.PTCONT.5058629",
      "street": "R MIGUEL BOMBARDA",
      "house": "",
      "postcode": "2860-601",
      "city": "MOITA",
      "lon": "-8.979017178687311",
      "lat": "38.65900758993164"
    },
    {
      "id": "pt.ine.add.PTCONT.5060311",
      "street": "R MIGUEL BOMBARDA",
      "house": "",
      "postcode": "2860-601",
      "city": "MOITA",
      "lon": "-8.979964389246515",
      "lat": "38.659590211696944"
    },
    {
      "id": "pt.ine.add.PTCONT.5081620",
      "street": "R ZECA AFONSO",
      "house": "12",
      "postcode": "2860-292",
      "city": "MOITA",
      "lon": "-8.978723759369018",
      "lat": "38.661109404916004"
    },
    {
      "id": "pt.ine.add.PTCONT.5092483",
      "street": "R CAMILO CASTELO BRANCO",
      "house": "",
      "postcode": "2860-702",
      "city": "MOITA",
      "lon": "-8.978921642704925",
      "lat": "38.66166633143278"
    },
    {
      "id": "pt.ine.add.PTCONT.5092576",
      "street": "R ALECRIM",
      "house": "",
      "postcode": "2860-597",
      "city": "MOITA",
      "lon": "-8.98176124828714",
      "lat": "38.66086206190698"
    },
    {
      "id": "pt.ine.add.PTCONT.5109168",
      "street": "R MIGUEL BOMBARDA",
      "house": "8A",
      "postcode": "2860-601",
      "city": "MOITA",
      "lon": "-8.979474287920777",
      "lat": "38.65927568081586"
    },
    {
      "id": "pt.ine.add.PTCONT.5109817",
      "street": "R MIGUEL BOMBARDA",
      "house": "N 10A",
      "postcode": "2860-601",
      "city": "MOITA",
      "lon": "-8.979565208930115",
      "lat": "38.65952074297577"
    },
    {
      "id": "pt.ine.add.PTCONT.5115078",
      "street": "R 1 DE MAIO",
      "house": "3",
      "postcode": "2860-292",
      "city": "MOITA",
      "lon": "-8.978392004163043",
      "lat": "38.660607209236304"
    },
    {
      "id": "pt.ine.add.PTCONT.5127698",
      "street": "R MIGUEL BOMBARDA",
      "house": "10A",
      "postcode": "2860-601",
      "city": "MOITA",
      "lon": "-8.979701447335728",
      "lat": "38.65944431717243"
    }
  ]
}