{
  "data": {
    "distrito": "Coimbra",
    "concelho": "Lousã",
    "freguesia": "União das freguesias de Lousã e Vilarinho",
    "OBJECTID": 59,
    "BGRI2021": "06070800208",
    "DT21": "06",
    "DTMN21": "0607",
    "DTMNFR21": "060708",
    "DTMNFRSEC21": "060708002",
    "SECNUM21": "002",
    "SSNUM21": "08",
    "SECSSNUM21": "00208",
    "OBJECTID_1": 52758,
    "DT": "06",
    "CC": "07",
    "fr": "08",
    "SEC": "002",
    "SS": "08"
  },
  "addresses": [
    {
      "id": "pt.ine.add.PTCONT.1111213",
      "street": "TV VINHAS",
      "house": "",
      "postcode": "3200-389",
      "city": "VILARINHO LSA",
      "lon": "-8.227237434456248",
      "lat": "40.119655118367234"
    },
    {
      "id": "pt.ine.add.PTCONT.1119542",
      "street": "R DR JOSE PINTO DE AGUIAR",
      "house": "",
      "postcode": "3200-389",
      "city": "VILARINHO LSA",
      "lon": "-8.231552909643215",
      "lat": "40.11860683336895"
    },
    {
      "id": "pt.ine.add.PTCONT.1121658",
      "street": "TV VINHAS",
      "house": "17 D",
      "postcode": "3200-389",
      "city": "VILARINHO LSA",
      "lon": "-8.229465827939816",
      "lat": "40.11931105744276"
    },
    {
      "id": "pt.ine.add.PTCONT.1127893",
      "street": "R DR JOSE PINTO AGUIAR",
      "house": "51",
      "postcode": "3200-389",
      "city": "VILARINHO LSA",
      "lon": "-8.230861388728314",
      "lat": "40.11902169561828"
    },
    {
      "id": "pt.ine.add.PTCONT.1134231",
      "street": "TV VINHAS",
      "house": "17A",
      "postcode": "3200-389",
      "city": "VILARINHO LSA",
      "lon": "-8.229642071179223",
      "lat": "40.11950904291358"
    },
    {
      "id": "pt.ine.add.PTCONT.1136265",
      "street": "R DR JOSE PINTO DE AGUIAR",
      "house": "13",
      "postcode": "3200-389",
      "city": "VILARINHO LSA",
      "lon": "-8.227285749811477",
      "lat": "40.120663752162514"
    },
    {
      "id": "pt.ine.add.PTCONT.1136271",
      "street": "R DR JOSE PINTO DE AGUIAR",
      "house": "",
      "postcode": "3200-389",
      "city": "VILARINHO LSA",
      "lon": "-8.232257212348147",
      "lat": "40.11892144298252"
    },
    {
      "id": "pt.ine.add.PTCONT.1136272",
      "street": "R JOSE DOS SANTOS CARVALHO",
      "house": "32",
      "postcode": "3200-389",
      "city": "VILARINHO LSA",
      "lon": "-8.23171724419265",
      "lat": "40.118678741664"
    },
    {
      "id": "pt.ine.add.PTCONT.1136839",
      "street": "R JOSE DOS SANTOS CARVALHO",
      "house": "32",
      "postcode": "3200-389",
      "city": "VILARINHO LSA",
      "lon": "-8.23171724419265",
      "lat": "40.118678741664"
    },
    {
      "id": "pt.ine.add.PTCONT.1140303",
      "street": "R DR JOSE PINTO DE AGUIAR",
      "house": "5",
      "postcode": "3200-389",
      "city": "VILARINHO LSA",
      "lon": "-8.226112565841586",
      "lat": "40.12061066414631"
    },
    {
      "id": "pt.ine.add.PTCONT.1144141",
      "street": "R QUINTA",
      "house": "8",
      "postcode": "3200-389",
      "city": "VILARINHO LSA",
      "lon": "-8.225804377619522",
      "lat": "40.11826934841981"
    },
    {
      "id": "pt.ine.add.PTCONT.1144142",
      "street": "R S SEBASTIÃO",
      "house": "",
      "postcode": "3200-376",
      "city": "VILARINHO LSA",
      "lon": "-8.228946407548094",
      "lat": "40.116987937159934"
    },
    {
      "id": "pt.ine.add.PTCONT.1145479",
      "street": "R DR JOSE PINTO DE AGUIAR",
      "house": "7",
      "postcode": "3200-389",
      "city": "VILARINHO LSA",
      "lon": "-8.226594108091778",
      "lat": "40.12102455285009"
    },
    {
      "id": "pt.ine.add.PTCONT.1145480",
      "street": "R DR JOSE PINTO DE AGUIAR",
      "house": "7",
      "postcode": "3200-389",
      "city": "VILARINHO LSA",
      "lon": "-8.226594108091778",
      "lat": "40.12102455285009"
    },
    {
      "id": "pt.ine.add.PTCONT.1145481",
      "street": "R DR JOSE PINTO DE AGUIAR",
      "house": "7",
      "postcode": "3200-389",
      "city": "VILARINHO LSA",
      "lon": "-8.226594108091778",
      "lat": "40.12102455285009"
    },
    {
      "id": "pt.ine.add.PTCONT.1145482",
      "street": "R DR JOSE PINTO DE AGUIAR",
      "house": "7",
      "postcode": "3200-389",
      "city": "VILARINHO LSA",
      "lon": "-8.226594108091778",
      "lat": "40.12102455285009"
    },
    {
      "id": "pt.ine.add.PTCONT.1145483",
      "street": "R DR JOSE PINTO DE AGUIAR",
      "house": "7",
      "postcode": "3200-389",
      "city": "VILARINHO LSA",
      "lon": "-8.226594108091778",
      "lat": "40.12102455285009"
    },
    {
      "id": "pt.ine.add.PTCONT.1145484",
      "street": "R DR JOSE PINTO DE AGUIAR",
      "house": "7",
      "postcode": "3200-389",
      "city": "VILARINHO LSA",
      "lon": "-8.226594108091778",
      "lat": "40.12102455285009"
    },
    {
      "id": "pt.ine.add.PTCONT.1151261",
      "street": "TV VINHAS",
      "house": "3",
      "postcode": "3200-389",
      "city": "VILARINHO LSA",
      "lon": "-8.227894128915548",
      "lat": "40.119483468590005"
    },
    {
      "id": "pt.ine.add.PTCONT.1154316",
      "street": "R DR JOSE PINTO DE AGUIAR",
      "house": "21",
      "postcode": "3200-389",
      "city": "VILARINHO LSA",
      "lon": "-8.228059514029052",
      "lat": "40.120311886036156"
    },
    {
      "id": "pt.ine.add.PTCONT.1158329",
      "street": "R DR JOSE PINTO DE AGUIAR",
      "house": "39",
      "postcode": "3200-389",
      "city": "VILARINHO LSA",
      "lon": "-8.230134282704759",
      "lat": "40.119166403204815"
    },
    {
      "id": "pt.ine.add.PTCONT.1160459",
      "street": "TV VINHAS",
      "house": "17 C",
      "postcode": "3200-389",
      "city": "VILARINHO LSA",
      "lon": "-8.229501096853596",
      "lat": "40.11936506415927"
    },
    {
      "id": "pt.ine.add.PTCONT.1168924",
      "street": "R DR JOSE PINTO AGUIAR",
      "house": "N 17",
      "postcode": "3200-389",
      "city": "VILARINHO LSA",
      "lon": "-8.227672626679942",
      "lat": "40.12048331674761"
    },
    {
      "id": "pt.ine.add.PTCONT.1173054",
      "street": "R DR JOSE PINTO DE AGUIAR",
      "house": "43",
      "postcode": "3200-389",
      "city": "VILARINHO LSA",
      "lon": "-8.230333732720883",
      "lat": "40.11918424796747"
    },
    {
      "id": "pt.ine.add.PTCONT.1197053",
      "street": "QTA FISCAL",
      "house": "",
      "postcode": "3200-376",
      "city": "VILARINHO LSA",
      "lon": "-8.226109755968077",
      "lat": "40.11854828999023"
    },
    {
      "id": "pt.ine.add.PTCONT.1202369",
      "street": "R DR JOSE PINTO DE AGUIAR",
      "house": "5",
      "postcode": "3200-389",
      "city": "VILARINHO LSA",
      "lon": "-8.226617286658499",
      "lat": "40.120817395944734"
    },
    {
      "id": "pt.ine.add.PTCONT.1202370",
      "street": "R JOSE DOS SANTOS CARVALHO",
      "house": "17B",
      "postcode": "3200-394",
      "city": "VILARINHO LSA",
      "lon": "-8.229571609395395",
      "lat": "40.11945506555839"
    },
    {
      "id": "pt.ine.add.PTCONT.1202929",
      "street": "R DR JOSE PINTO DE AGUIAR",
      "house": "5",
      "postcode": "3200-389",
      "city": "VILARINHO LSA",
      "lon": "-8.226617286658499",
      "lat": "40.120817395944734"
    },
    {
      "id": "pt.ine.add.PTCONT.1203087",
      "street": "R DR JOSE PINTO DE AGUIAR",
      "house": "5",
      "postcode": "3200-389",
      "city": "VILARINHO LSA",
      "lon": "-8.226617286658499",
      "lat": "40.120817395944734"
    },
    {
      "id": "pt.ine.add.PTCONT.1204418",
      "street": "R DR JOSE PINTO DE AGUIAR",
      "house": "",
      "postcode": "3200-389",
      "city": "VILARINHO LSA",
      "lon": "-8.228809745167453",
      "lat": "40.11991500412037"
    },
    {
      "id": "pt.ine.add.PTCONT.1204419",
      "street": "R DR JOSE PINTO DE AGUIAR",
      "house": "",
      "postcode": "3200-389",
      "city": "VILARINHO LSA",
      "lon": "-8.231881592119107",
      "lat": "40.118759655725"
    },
    {
      "id": "pt.ine.add.PTCONT.1204420",
      "street": "R S SEBASTIÃO",
      "house": "",
      "postcode": "3200-376",
      "city": "VILARINHO LSA",
      "lon": "-8.226625365672149",
      "lat": "40.11815161026619"
    },
    {
      "id": "pt.ine.add.PTCONT.1204421",
      "street": "R S SEBASTIÃO",
      "house": "",
      "postcode": "3200-376",
      "city": "VILARINHO LSA",
      "lon": "-8.228793974540453",
      "lat": "40.11703309326615"
    },
    {
      "id": "pt.ine.add.PTCONT.1205091",
      "street": "R S SEBASTIÃO",
      "house": "2",
      "postcode": "3200-376",
      "city": "VILARINHO LSA",
      "lon": "-8.22791520169964",
      "lat": "40.11776330306043"
    },
    {
      "id": "pt.ine.add.PTCONT.1210510",
      "street": "TV VINHAS",
      "house": "18",
      "postcode": "3200-389",
      "city": "VILARINHO LSA",
      "lon": "-8.22929020750695",
      "lat": "40.119554365707465"
    },
    {
      "id": "pt.ine.add.PTCONT.1211352",
      "street": "R DR JOSE PINTO DE AGUIAR",
      "house": "",
      "postcode": "3200-389",
      "city": "VILARINHO LSA",
      "lon": "-8.22789541699962",
      "lat": "40.12041108655368"
    },
    {
      "id": "pt.ine.add.PTCONT.1218827",
      "street": "R DR JOSE PINTO DE AGUIAR",
      "house": "",
      "postcode": "3200-389",
      "city": "VILARINHO LSA",
      "lon": "-8.23157687778476",
      "lat": "40.118958047443556"
    },
    {
      "id": "pt.ine.add.PTCONT.1232309",
      "street": "R DR JOSE PINTO DE AGUIAR",
      "house": "",
      "postcode": "3200-389",
      "city": "VILARINHO LSA",
      "lon": "-8.231400915655746",
      "lat": "40.11895819691223"
    },
    {
      "id": "pt.ine.add.PTCONT.1242705",
      "street": "R DR JOSE PINTO AGUIAR",
      "house": "11",
      "postcode": "3200-389",
      "city": "VILARINHO LSA",
      "lon": "-8.227051189720422",
      "lat": "40.12070897270227"
    },
    {
      "id": "pt.ine.add.PTCONT.1242713",
      "street": "R DR JOSE PINTO DE AGUIAR",
      "house": "37",
      "postcode": "3200-389",
      "city": "VILARINHO LSA",
      "lon": "-8.23019314186617",
      "lat": "40.11931045005524"
    },
    {
      "id": "pt.ine.add.PTCONT.1244739",
      "street": "R DR JOSE PINTO DE AGUIAR",
      "house": "5",
      "postcode": "3200-389",
      "city": "VILARINHO LSA",
      "lon": "-8.226557903562908",
      "lat": "40.12028608934347"
    },
    {
      "id": "pt.ine.add.PTCONT.1244740",
      "street": "R DR JOSE PINTO DE AGUIAR",
      "house": "5",
      "postcode": "3200-389",
      "city": "VILARINHO LSA",
      "lon": "-8.226557903562908",
      "lat": "40.12028608934347"
    },
    {
      "id": "pt.ine.add.PTCONT.1244760",
      "street": "TV VINHAS",
      "house": "1",
      "postcode": "3200-389",
      "city": "VILARINHO LSA",
      "lon": "-8.227636086525457",
      "lat": "40.11951069751651"
    },
    {
      "id": "pt.ine.add.PTCONT.1244761",
      "street": "TV VINHAS",
      "house": "1",
      "postcode": "3200-389",
      "city": "VILARINHO LSA",
      "lon": "-8.227636086525457",
      "lat": "40.11951069751651"
    },
    {
      "id": "pt.ine.add.PTCONT.1245559",
      "street": "TV VINHAS",
      "house": "1",
      "postcode": "3200-389",
      "city": "VILARINHO LSA",
      "lon": "-8.227636086525457",
      "lat": "40.11951069751651"
    },
    {
      "id": "pt.ine.add.PTCONT.1251646",
      "street": "R DR JOSE PINTO DE AGUIAR",
      "house": "9",
      "postcode": "3200-389",
      "city": "VILARINHO LSA",
      "lon": "-8.226781707863397",
      "lat": "40.12095235320421"
    },
    {
      "id": "pt.ine.add.PTCONT.1251647",
      "street": "R DR JOSE PINTO DE AGUIAR",
      "house": "9",
      "postcode": "3200-389",
      "city": "VILARINHO LSA",
      "lon": "-8.226781707863397",
      "lat": "40.12095235320421"
    },
    {
      "id": "pt.ine.add.PTCONT.1251648",
      "street": "R DR JOSE PINTO DE AGUIAR",
      "house": "9",
      "postcode": "3200-389",
      "city": "VILARINHO LSA",
      "lon": "-8.226781707863397",
      "lat": "40.12095235320421"
    },
    {
      "id": "pt.ine.add.PTCONT.1251801",
      "street": "R JOSE SANTOS CARVALHO",
      "house": "12B",
      "postcode": "3200-394",
      "city": "VILARINHO LSA",
      "lon": "-8.229650987224481",
      "lat": "40.1175187068213"
    },
    {
      "id": "pt.ine.add.PTCONT.1269718",
      "street": "R JOSE SANTOS CARVALHO",
      "house": "18",
      "postcode": "3200-394",
      "city": "VILARINHO LSA",
      "lon": "-8.229933159386645",
      "lat": "40.1179687719313"
    },
    {
      "id": "pt.ine.add.PTCONT.1271757",
      "street": "R DR JOSE PINTO DE AGUIAR",
      "house": "49",
      "postcode": "3200-389",
      "city": "VILARINHO LSA",
      "lon": "-8.230744132055298",
      "lat": "40.11905781857041"
    },
    {
      "id": "pt.ine.add.PTCONT.1278886",
      "street": "R DR JOSE PINTO DE AGUIAR",
      "house": "45",
      "postcode": "3200-389",
      "city": "VILARINHO LSA",
      "lon": "-8.230368719957161",
      "lat": "40.11904012241452"
    },
    {
      "id": "pt.ine.add.PTCONT.1281876",
      "street": "R DR JOSE PINTO DE AGUIAR",
      "house": "9",
      "postcode": "3200-389",
      "city": "VILARINHO LSA",
      "lon": "-8.226827618527038",
      "lat": "40.12021382332948"
    },
    {
      "id": "pt.ine.add.PTCONT.1286633",
      "street": "R JOSE SANTOS CARVALHO",
      "house": "14",
      "postcode": "3200-394",
      "city": "VILARINHO LSA",
      "lon": "-8.229815750929326",
      "lat": "40.11789682192169"
    },
    {
      "id": "pt.ine.add.PTCONT.1290167",
      "street": "TV VINHAS",
      "house": "5",
      "postcode": "3200-389",
      "city": "VILARINHO LSA",
      "lon": "-8.228069729089876",
      "lat": "40.119222150432265"
    },
    {
      "id": "pt.ine.add.PTCONT.1301851",
      "street": "R DR JOSE PINTO DE AGUIAR",
      "house": "15",
      "postcode": "3200-389",
      "city": "VILARINHO LSA",
      "lon": "-8.227461654114212",
      "lat": "40.12061857894759"
    },
    {
      "id": "pt.ine.add.PTCONT.1301852",
      "street": "R DR JOSE PINTO DE AGUIAR",
      "house": "29",
      "postcode": "3200-389",
      "city": "VILARINHO LSA",
      "lon": "-8.228657355961827",
      "lat": "40.11999618402916"
    },
    {
      "id": "pt.ine.add.PTCONT.1301853",
      "street": "R DR JOSE PINTO DE AGUIAR",
      "house": "41",
      "postcode": "3200-389",
      "city": "VILARINHO LSA",
      "lon": "-8.230204706204107",
      "lat": "40.11919336221965"
    },
    {
      "id": "pt.ine.add.PTCONT.1309493",
      "street": "R JOSE SANTOS CARVALHO",
      "house": "2O",
      "postcode": "3200-394",
      "city": "VILARINHO LSA",
      "lon": "-8.230683765806658",
      "lat": "40.11786006983763"
    },
    {
      "id": "pt.ine.add.PTCONT.1318151",
      "street": "TV VINHAS",
      "house": "",
      "postcode": "3200-389",
      "city": "VILARINHO LSA",
      "lon": "-8.227518441169776",
      "lat": "40.119267631184975"
    },
    {
      "id": "pt.ine.add.PTCONT.1332700",
      "street": "R DR JOSE PINTO DE AGUIAR",
      "house": "",
      "postcode": "3200-389",
      "city": "VILARINHO LSA",
      "lon": "-8.230087704781447",
      "lat": "40.119409604507624"
    },
    {
      "id": "pt.ine.add.PTCONT.1348914",
      "street": "R CARVALHAS DO ROL",
      "house": "9",
      "postcode": "3200-389",
      "city": "VILARINHO LSA",
      "lon": "-8.225455795122933",
      "lat": "40.120737273810754"
    },
    {
      "id": "pt.ine.add.PTCONT.1351466",
      "street": "R S SEBASTIÃO",
      "house": "6",
      "postcode": "3200-376",
      "city": "VILARINHO LSA",
      "lon": "-8.22836076360866",
      "lat": "40.117618841263585"
    },
    {
      "id": "pt.ine.add.PTCONT.1357402",
      "street": "R DR JOSE PINTO DE AGUIAR",
      "house": "55",
      "postcode": "3200-389",
      "city": "VILARINHO LSA",
      "lon": "-8.231213235659721",
      "lat": "40.11896736205109"
    },
    {
      "id": "pt.ine.add.PTCONT.1357408",
      "street": "R JOSE SANTOS CARVALHO",
      "house": "",
      "postcode": "3200-394",
      "city": "VILARINHO LSA",
      "lon": "-8.23055461328346",
      "lat": "40.11777912445623"
    },
    {
      "id": "pt.ine.add.PTCONT.1361602",
      "street": "R JOSE SANTOS CARVALHO",
      "house": "",
      "postcode": "3200-394",
      "city": "VILARINHO LSA",
      "lon": "-8.230859815380331",
      "lat": "40.117922963476374"
    },
    {
      "id": "pt.ine.add.PTCONT.1364694",
      "street": "R JOSE SANTOS CARVALHO",
      "house": "12A",
      "postcode": "3200-394",
      "city": "VILARINHO LSA",
      "lon": "-8.229780074418223",
      "lat": "40.1175546232016"
    },
    {
      "id": "pt.ine.add.PTCONT.1366713",
      "street": "R DR JOSE PINTO DE AGUIAR",
      "house": "7",
      "postcode": "3200-389",
      "city": "VILARINHO LSA",
      "lon": "-8.226594108091778",
      "lat": "40.12102455285009"
    },
    {
      "id": "pt.ine.add.PTCONT.1367156",
      "street": "R JOSE SANTOS CARVALHO",
      "house": "10",
      "postcode": "3200-394",
      "city": "VILARINHO LSA",
      "lon": "-8.229487077224649",
      "lat": "40.11774399366979"
    }
  ]
}