{
  "data": {
    "distrito": "Braga",
    "concelho": "Celorico de Basto",
    "freguesia": "Codeçoso",
    "OBJECTID": 72,
    "BGRI2021": "03050800101",
    "DT21": "03",
    "DTMN21": "0305",
    "DTMNFR21": "030508",
    "DTMNFRSEC21": "030508001",
    "SECNUM21": "001",
    "SSNUM21": "01",
    "SECSSNUM21": "00101",
    "OBJECTID_1": 23889,
    "DT": "03",
    "CC": "05",
    "fr": "08",
    "SEC": "001",
    "SS": "01"
  },
  "addresses": [
    {
      "id": "pt.ine.add.PTCONT.468505",
      "street": "",
      "house": "",
      "postcode": "4890-162",
      "city": "CODEÇOSO",
      "lon": "-8.019584175759075",
      "lat": "41.33398815424351"
    },
    {
      "id": "pt.ine.add.PTCONT.519176",
      "street": "R AGRECOVO",
      "house": "",
      "postcode": "4890-160",
      "city": "CODEÇOSO",
      "lon": "-8.024478484445055",
      "lat": "41.32896858202518"
    },
    {
      "id": "pt.ine.add.PTCONT.532186",
      "street": "",
      "house": "",
      "postcode": "4890-162",
      "city": "CODEÇOSO",
      "lon": "-8.018879889709398",
      "lat": "41.33368131770097"
    },
    {
      "id": "pt.ine.add.PTCONT.535511",
      "street": "",
      "house": "",
      "postcode": "4890-162",
      "city": "CODEÇOSO",
      "lon": "-8.019119093447282",
      "lat": "41.333519480862044"
    },
    {
      "id": "pt.ine.add.PTCONT.576136",
      "street": "",
      "house": "5",
      "postcode": "4890-162",
      "city": "CODEÇOSO",
      "lon": "-8.019846600408671",
      "lat": "41.33421351551699"
    },
    {
      "id": "pt.ine.add.PTCONT.584121",
      "street": "",
      "house": "",
      "postcode": "4890-162",
      "city": "CODEÇOSO",
      "lon": "-8.019847083899307",
      "lat": "41.333934388596205"
    },
    {
      "id": "pt.ine.add.PTCONT.596563",
      "street": "",
      "house": "",
      "postcode": "4890-162",
      "city": "CODEÇOSO",
      "lon": "-8.02085037138492",
      "lat": "41.33404342081046"
    },
    {
      "id": "pt.ine.add.PTCONT.633238",
      "street": "",
      "house": "",
      "postcode": "4890-162",
      "city": "CODEÇOSO",
      "lon": "-8.022058490006929",
      "lat": "41.33312617350781"
    },
    {
      "id": "pt.ine.add.PTCONT.669159",
      "street": "",
      "house": "",
      "postcode": "4890-162",
      "city": "CODEÇOSO",
      "lon": "-8.018963747897324",
      "lat": "41.33354633924063"
    },
    {
      "id": "pt.ine.add.PTCONT.682377",
      "street": "",
      "house": "",
      "postcode": "4890-162",
      "city": "CODEÇOSO",
      "lon": "-8.018639408006885",
      "lat": "41.33457248562078"
    },
    {
      "id": "pt.ine.add.PTCONT.713733",
      "street": "R AGRECOVO",
      "house": "",
      "postcode": "4890-160",
      "city": "CODEÇOSO",
      "lon": "-8.023414742343164",
      "lat": "41.329336741990154"
    },
    {
      "id": "pt.ine.add.PTCONT.722956",
      "street": "",
      "house": "",
      "postcode": "4890-162",
      "city": "CODEÇOSO",
      "lon": "-8.01958501990885",
      "lat": "41.33350193313222"
    },
    {
      "id": "pt.ine.add.PTCONT.734472",
      "street": "",
      "house": "",
      "postcode": "4890-162",
      "city": "CODEÇOSO",
      "lon": "-8.01993094041801",
      "lat": "41.33379940943501"
    },
    {
      "id": "pt.ine.add.PTCONT.752047",
      "street": "",
      "house": "",
      "postcode": "4890-162",
      "city": "CODEÇOSO",
      "lon": "-8.020552338182362",
      "lat": "41.333682965350164"
    },
    {
      "id": "pt.ine.add.PTCONT.764622",
      "street": "",
      "house": "",
      "postcode": "4890-160",
      "city": "CODEÇOSO",
      "lon": "-8.018000097434774",
      "lat": "41.331285347411175"
    },
    {
      "id": "pt.ine.add.PTCONT.770478",
      "street": "",
      "house": "",
      "postcode": "4890-162",
      "city": "CODEÇOSO",
      "lon": "-8.021616044276128",
      "lat": "41.333386864994274"
    },
    {
      "id": "pt.ine.add.PTCONT.773574",
      "street": "ALVARINHAS CODESSOSO",
      "house": "",
      "postcode": "4890-162",
      "city": "CODEÇOSO",
      "lon": "-8.021138065222726",
      "lat": "41.33346743799658"
    },
    {
      "id": "pt.ine.add.PTCONT.800521",
      "street": "LUGAR REGADA",
      "house": "",
      "postcode": "4890-162",
      "city": "CODEÇOSO",
      "lon": "-8.015835630894053",
      "lat": "41.3325707505667"
    },
    {
      "id": "pt.ine.add.PTCONT.800522",
      "street": "",
      "house": "",
      "postcode": "4890-162",
      "city": "CODEÇOSO",
      "lon": "-8.020205684759757",
      "lat": "41.33380868337483"
    },
    {
      "id": "pt.ine.add.PTCONT.814968",
      "street": "",
      "house": "",
      "postcode": "4890-162",
      "city": "CODEÇOSO",
      "lon": "-8.019728044376416",
      "lat": "41.33369116042635"
    },
    {
      "id": "pt.ine.add.PTCONT.814969",
      "street": "",
      "house": "",
      "postcode": "4890-162",
      "city": "CODEÇOSO",
      "lon": "-8.019213391327801",
      "lat": "41.334248907109014"
    },
    {
      "id": "pt.ine.add.PTCONT.845026",
      "street": "",
      "house": "",
      "postcode": "4890-162",
      "city": "CODEÇOSO",
      "lon": "-8.019499817663617",
      "lat": "41.33441126414825"
    }
  ]
}