{
  "data": {
    "distrito": "Viseu",
    "concelho": "SÃ£o Pedro do Sul",
    "freguesia": "Valadares",
    "OBJECTID": 443,
    "BGRI2021": "18161700137",
    "DT21": "18",
    "DTMN21": "1816",
    "DTMNFR21": "181617",
    "DTMNFRSEC21": "181617001",
    "SECNUM21": "001",
    "SSNUM21": "37",
    "SECSSNUM21": "00137",
    "OBJECTID_1": 196512,
    "DT": "18",
    "CC": "16",
    "fr": "17",
    "SEC": "001",
    "SS": "37"
  },
  "addresses": [
    {
      "id": "pt.ine.add.PTCONT.5431413",
      "street": "R SRA DA OUVIDA",
      "house": "",
      "postcode": "3660-672",
      "city": "VALADARES SPS",
      "lon": "-8.21171044452816",
      "lat": "40.781444448831984"
    },
    {
      "id": "pt.ine.add.PTCONT.5432130",
      "street": "R ESTRADA VELHA",
      "house": "11",
      "postcode": "3660-672",
      "city": "VALADARES SPS",
      "lon": "-8.211887738895905",
      "lat": "40.78110213880095"
    },
    {
      "id": "pt.ine.add.PTCONT.5471102",
      "street": "R SENHORA DA OU VIDA",
      "house": "",
      "postcode": "3660-672",
      "city": "VALADARES SPS",
      "lon": "-8.215049873332747",
      "lat": "40.78037953855749"
    },
    {
      "id": "pt.ine.add.PTCONT.5475210",
      "street": "TV REGO",
      "house": "",
      "postcode": "3660-672",
      "city": "VALADARES SPS",
      "lon": "-8.213523144569434",
      "lat": "40.78158727953612"
    },
    {
      "id": "pt.ine.add.PTCONT.5486214",
      "street": "EM 612",
      "house": "",
      "postcode": "3660-672",
      "city": "VALADARES SPS",
      "lon": "-8.210169973140932",
      "lat": "40.78108528872269"
    },
    {
      "id": "pt.ine.add.PTCONT.5491500",
      "street": "R ALVEIRINHA",
      "house": "11",
      "postcode": "3660-672",
      "city": "VALADARES SPS",
      "lon": "-8.212504797838864",
      "lat": "40.781975198652866"
    },
    {
      "id": "pt.ine.add.PTCONT.5496672",
      "street": "R ALVEIRINHA",
      "house": "6",
      "postcode": "3660-672",
      "city": "VALADARES SPS",
      "lon": "-8.21277709912683",
      "lat": "40.781830931364524"
    },
    {
      "id": "pt.ine.add.PTCONT.5508039",
      "street": "R ALVEIRINHA",
      "house": "",
      "postcode": "3660-672",
      "city": "VALADARES SPS",
      "lon": "-8.212954874297",
      "lat": "40.781893843329634"
    },
    {
      "id": "pt.ine.add.PTCONT.5513008",
      "street": "R ESTRADA VELHA",
      "house": "",
      "postcode": "3660-672",
      "city": "VALADARES SPS",
      "lon": "-8.21225506641494",
      "lat": "40.78117392727333"
    },
    {
      "id": "pt.ine.add.PTCONT.5541269",
      "street": "R SENHORA DA OU VIDA",
      "house": "79",
      "postcode": "3660-672",
      "city": "VALADARES SPS",
      "lon": "-8.214458421872374",
      "lat": "40.78109135027084"
    },
    {
      "id": "pt.ine.add.PTCONT.5542718",
      "street": "R ESTRADA VELHA",
      "house": "",
      "postcode": "3660-672",
      "city": "VALADARES SPS",
      "lon": "-8.211745655037667",
      "lat": "40.781165270551455"
    },
    {
      "id": "pt.ine.add.PTCONT.5543546",
      "street": "TV REGO",
      "house": "",
      "postcode": "3660-672",
      "city": "VALADARES SPS",
      "lon": "-8.213582442789816",
      "lat": "40.78164126805924"
    },
    {
      "id": "pt.ine.add.PTCONT.5558854",
      "street": "R SENHORA DA OUVIDA",
      "house": "29",
      "postcode": "3660-672",
      "city": "VALADARES SPS",
      "lon": "-8.212291258321297",
      "lat": "40.78172320603782"
    },
    {
      "id": "pt.ine.add.PTCONT.5558855",
      "street": "TV REGO",
      "house": "12",
      "postcode": "3660-672",
      "city": "VALADARES SPS",
      "lon": "-8.213629927108942",
      "lat": "40.781722279724725"
    },
    {
      "id": "pt.ine.add.PTCONT.5558856",
      "street": "LG CAPELA",
      "house": "6",
      "postcode": "3660-672",
      "city": "VALADARES SPS",
      "lon": "-8.213594093745128",
      "lat": "40.78147917035309"
    },
    {
      "id": "pt.ine.add.PTCONT.5568171",
      "street": "R SENHORA DA OU VIDA",
      "house": "",
      "postcode": "3660-672",
      "city": "VALADARES SPS",
      "lon": "-8.214209656033715",
      "lat": "40.7811005303459"
    },
    {
      "id": "pt.ine.add.PTCONT.5575487",
      "street": "LG CRUZEIRO",
      "house": "",
      "postcode": "3660-672",
      "city": "VALADARES SPS",
      "lon": "-8.215594628906263",
      "lat": "40.78023507080171"
    },
    {
      "id": "pt.ine.add.PTCONT.5581034",
      "street": "R ESTRADA VELHA",
      "house": "",
      "postcode": "3660-672",
      "city": "VALADARES SPS",
      "lon": "-8.212077645764023",
      "lat": "40.78140817822752"
    },
    {
      "id": "pt.ine.add.PTCONT.5584657",
      "street": "R SENHORA DA OUVIDA",
      "house": "11",
      "postcode": "3660-672",
      "city": "VALADARES SPS",
      "lon": "-8.211509772718282",
      "lat": "40.78205692374182"
    },
    {
      "id": "pt.ine.add.PTCONT.5594052",
      "street": "LG CAPELA",
      "house": "16",
      "postcode": "3660-672",
      "city": "VALADARES SPS",
      "lon": "-8.214115343391484",
      "lat": "40.78147880562787"
    },
    {
      "id": "pt.ine.add.PTCONT.5652009",
      "street": "LG CAPELA",
      "house": "",
      "postcode": "3660-672",
      "city": "VALADARES SPS",
      "lon": "-8.213914027874615",
      "lat": "40.781541981607454"
    },
    {
      "id": "pt.ine.add.PTCONT.5668269",
      "street": "R SENHORA DA OU VIDA",
      "house": "3",
      "postcode": "3660-672",
      "city": "VALADARES SPS",
      "lon": "-8.215370125716976",
      "lat": "40.78070348992955"
    }
  ]
}