{
  "data": {
    "distrito": "Viseu",
    "concelho": "São Pedro do Sul",
    "freguesia": "Valadares",
    "OBJECTID": 603,
    "BGRI2021": "18161700138",
    "DT21": "18",
    "DTMN21": "1816",
    "DTMNFR21": "181617",
    "DTMNFRSEC21": "181617001",
    "SECNUM21": "001",
    "SSNUM21": "38",
    "SECSSNUM21": "00138",
    "OBJECTID_1": 196923,
    "DT": "18",
    "CC": "16",
    "fr": "17",
    "SEC": "001",
    "SS": "38"
  },
  "addresses": [
    {
      "id": "pt.ine.add.PTCONT.5444298",
      "street": "R LADEIRA",
      "house": "3",
      "postcode": "3660-672",
      "city": "VALADARES SPS",
      "lon": "-8.212351101471015",
      "lat": "40.78223644859712"
    },
    {
      "id": "pt.ine.add.PTCONT.5461699",
      "street": "R SENHORA DA OUVIDA",
      "house": "62",
      "postcode": "3660-672",
      "city": "VALADARES SPS",
      "lon": "-8.21363019897778",
      "lat": "40.78194740394192"
    },
    {
      "id": "pt.ine.add.PTCONT.5464205",
      "street": "R PORTA DA EIRA",
      "house": "9",
      "postcode": "3660-672",
      "city": "VALADARES SPS",
      "lon": "-8.213026893263875",
      "lat": "40.78267722635237"
    },
    {
      "id": "pt.ine.add.PTCONT.5469800",
      "street": "R AVIELA",
      "house": "6",
      "postcode": "3660-672",
      "city": "VALADARES SPS",
      "lon": "-8.21421054322242",
      "lat": "40.78182993284606"
    },
    {
      "id": "pt.ine.add.PTCONT.5500371",
      "street": "R SENHORA DA OUVIDA",
      "house": "46",
      "postcode": "3660-672",
      "city": "VALADARES SPS",
      "lon": "-8.212694667036265",
      "lat": "40.782245217139696"
    },
    {
      "id": "pt.ine.add.PTCONT.5500390",
      "street": "R SRA DA OUVIDA",
      "house": "",
      "postcode": "3660-672",
      "city": "VALADARES SPS",
      "lon": "-8.214802059033223",
      "lat": "40.78116314733331"
    },
    {
      "id": "pt.ine.add.PTCONT.5502888",
      "street": "R SENHORA DA OUVIDA",
      "house": "114",
      "postcode": "3660-672",
      "city": "VALADARES SPS",
      "lon": "-8.216329519133826",
      "lat": "40.78056772737445"
    },
    {
      "id": "pt.ine.add.PTCONT.5504432",
      "street": "R SRA DA OUVIDA",
      "house": "",
      "postcode": "3660-672",
      "city": "VALADARES SPS",
      "lon": "-8.21377221734959",
      "lat": "40.78183024006804"
    },
    {
      "id": "pt.ine.add.PTCONT.5520584",
      "street": "R SRA DA OUVIDA",
      "house": "",
      "postcode": "3660-672",
      "city": "VALADARES SPS",
      "lon": "-8.214210236536227",
      "lat": "40.781577793720686"
    },
    {
      "id": "pt.ine.add.PTCONT.5523320",
      "street": "R SRA DA OUVIDA",
      "house": "",
      "postcode": "3660-672",
      "city": "VALADARES SPS",
      "lon": "-8.213535523406675",
      "lat": "40.78202851474913"
    },
    {
      "id": "pt.ine.add.PTCONT.5524877",
      "street": "R SENHORA DA OUVIDA",
      "house": "1",
      "postcode": "3660-672",
      "city": "VALADARES SPS",
      "lon": "-8.21415115676517",
      "lat": "40.78170390489834"
    },
    {
      "id": "pt.ine.add.PTCONT.5534622",
      "street": "R CHÃO ALEM",
      "house": "4",
      "postcode": "3660-672",
      "city": "VALADARES SPS",
      "lon": "-8.21470789292744",
      "lat": "40.78165848768678"
    },
    {
      "id": "pt.ine.add.PTCONT.5534623",
      "street": "R CHÃO ALEM",
      "house": "5",
      "postcode": "3660-672",
      "city": "VALADARES SPS",
      "lon": "-8.214648406574376",
      "lat": "40.781451415271"
    },
    {
      "id": "pt.ine.add.PTCONT.5551853",
      "street": "R SRA DA OUVIDA",
      "house": "",
      "postcode": "3660-672",
      "city": "VALADARES SPS",
      "lon": "-8.212505044465361",
      "lat": "40.7821823129296"
    },
    {
      "id": "pt.ine.add.PTCONT.5568916",
      "street": "R FONTE",
      "house": "6",
      "postcode": "3660-672",
      "city": "VALADARES SPS",
      "lon": "-8.213156980985264",
      "lat": "40.782488031710066"
    },
    {
      "id": "pt.ine.add.PTCONT.5569921",
      "street": "R SENHORA DA OUVIDA",
      "house": "124",
      "postcode": "3660-672",
      "city": "VALADARES SPS",
      "lon": "-8.216850444963383",
      "lat": "40.780315211136475"
    },
    {
      "id": "pt.ine.add.PTCONT.5584658",
      "street": "R AVIELA",
      "house": "",
      "postcode": "3660-672",
      "city": "VALADARES SPS",
      "lon": "-8.214293305273491",
      "lat": "40.78169480000589"
    },
    {
      "id": "pt.ine.add.PTCONT.5596011",
      "street": "R SENHORA DA OUVIDA",
      "house": "54",
      "postcode": "3660-672",
      "city": "VALADARES SPS",
      "lon": "-8.213286905540459",
      "lat": "40.78216376239345"
    },
    {
      "id": "pt.ine.add.PTCONT.5620024",
      "street": "R SENHORA DA OUVIDA",
      "house": "72",
      "postcode": "3660-672",
      "city": "VALADARES SPS",
      "lon": "-8.214364220392397",
      "lat": "40.78155967544564"
    },
    {
      "id": "pt.ine.add.PTCONT.5637049",
      "street": "R SENHORA DA OUVIDA",
      "house": "78",
      "postcode": "3660-672",
      "city": "VALADARES SPS",
      "lon": "-8.214553479962069",
      "lat": "40.78132541262902"
    }
  ]
}