{
  "data": {
    "distrito": "Santarém",
    "concelho": "Ourém",
    "freguesia": "Caxarias",
    "OBJECTID": 1003,
    "BGRI2021": "14210400103",
    "DT21": "14",
    "DTMN21": "1421",
    "DTMNFR21": "142104",
    "DTMNFRSEC21": "142104001",
    "SECNUM21": "001",
    "SSNUM21": "03",
    "SECSSNUM21": "00103",
    "OBJECTID_1": 159400,
    "DT": "14",
    "CC": "21",
    "fr": "04",
    "SEC": "001",
    "SS": "03"
  },
  "addresses": [
    {
      "id": "pt.ine.add.PTCONT.4415668",
      "street": "R D AFONSO HENRIQUES",
      "house": "ZS",
      "postcode": "2435-124",
      "city": "CAXARIAS",
      "lon": "-8.536562589987525",
      "lat": "39.71374364974403"
    },
    {
      "id": "pt.ine.add.PTCONT.4442347",
      "street": "R RAINHA SANTA ISABEL",
      "house": "28",
      "postcode": "2435-128",
      "city": "CAXARIAS",
      "lon": "-8.537648013432568",
      "lat": "39.71389298519204"
    },
    {
      "id": "pt.ine.add.PTCONT.4448426",
      "street": "R RAINHA STA ISABEL",
      "house": "20",
      "postcode": "2435-128",
      "city": "CAXARIAS",
      "lon": "-8.538116532719267",
      "lat": "39.71424260930946"
    },
    {
      "id": "pt.ine.add.PTCONT.4454438",
      "street": "R COMBATENTES",
      "house": "86",
      "postcode": "2435-125",
      "city": "CAXARIAS",
      "lon": "-8.53719956382093",
      "lat": "39.71298487986194"
    },
    {
      "id": "pt.ine.add.PTCONT.4462927",
      "street": "R D AFONSO HENRIQUES",
      "house": "5",
      "postcode": "2435-124",
      "city": "CAXARIAS",
      "lon": "-8.536476814593044",
      "lat": "39.713032426063506"
    },
    {
      "id": "pt.ine.add.PTCONT.4462928",
      "street": "R COMBATENTES",
      "house": "92",
      "postcode": "2435-125",
      "city": "CAXARIAS",
      "lon": "-8.537409575528102",
      "lat": "39.71300216196397"
    },
    {
      "id": "pt.ine.add.PTCONT.4462938",
      "street": "R COMBATENTES",
      "house": "92",
      "postcode": "2435-125",
      "city": "CAXARIAS",
      "lon": "-8.537409575528102",
      "lat": "39.71300216196397"
    },
    {
      "id": "pt.ine.add.PTCONT.4462939",
      "street": "R RAINHA STA ISABEL",
      "house": "4",
      "postcode": "2435-128",
      "city": "CAXARIAS",
      "lon": "-8.538974852446472",
      "lat": "39.71344703103372"
    },
    {
      "id": "pt.ine.add.PTCONT.4467499",
      "street": "R D AFONSO HENRIQUES",
      "house": "13",
      "postcode": "2435-124",
      "city": "CAXARIAS",
      "lon": "-8.53664243690948",
      "lat": "39.71343714773592"
    },
    {
      "id": "pt.ine.add.PTCONT.4471858",
      "street": "R COMBATENTES",
      "house": "106",
      "postcode": "2435-125",
      "city": "CAXARIAS",
      "lon": "-8.538658513819302",
      "lat": "39.71319595151606"
    },
    {
      "id": "pt.ine.add.PTCONT.4483906",
      "street": "R COMBATENTES",
      "house": "112",
      "postcode": "2435-125",
      "city": "CAXARIAS",
      "lon": "-8.537732591660124",
      "lat": "39.71439706020906"
    },
    {
      "id": "pt.ine.add.PTCONT.4491154",
      "street": "TV FONTE DA TORRINHA",
      "house": "3",
      "postcode": "2435-129",
      "city": "CAXARIAS",
      "lon": "-8.538718773072386",
      "lat": "39.713528985348084"
    },
    {
      "id": "pt.ine.add.PTCONT.4570714",
      "street": "R D AFONSO HENRIQUES",
      "house": "27",
      "postcode": "2435-124",
      "city": "CAXARIAS",
      "lon": "-8.536738301428171",
      "lat": "39.713878138080844"
    },
    {
      "id": "pt.ine.add.PTCONT.4570739",
      "street": "TV FONTE DA TORRINHA",
      "house": "",
      "postcode": "2435-129",
      "city": "CAXARIAS",
      "lon": "-8.538463536550521",
      "lat": "39.71375504180355"
    },
    {
      "id": "pt.ine.add.PTCONT.4581039",
      "street": "R RAINHA STA ISABEL",
      "house": "14",
      "postcode": "2435-128",
      "city": "CAXARIAS",
      "lon": "-8.538395886083554",
      "lat": "39.71415156848584"
    },
    {
      "id": "pt.ine.add.PTCONT.4610155",
      "street": "R D AFONSO HENRIQUES",
      "house": "33",
      "postcode": "2435-124",
      "city": "CAXARIAS",
      "lon": "-8.536704628753885",
      "lat": "39.71410342020927"
    },
    {
      "id": "pt.ine.add.PTCONT.4610162",
      "street": "R RAINHA STA ISABEL",
      "house": "26",
      "postcode": "2435-128",
      "city": "CAXARIAS",
      "lon": "-8.539136846868749",
      "lat": "39.71323030616025"
    },
    {
      "id": "pt.ine.add.PTCONT.4628173",
      "street": "R COMBATENTES",
      "house": "102",
      "postcode": "2435-125",
      "city": "CAXARIAS",
      "lon": "-8.537925207511172",
      "lat": "39.71343268228656"
    }
  ]
}