{
  "data": {
    "distrito": "Santarém",
    "concelho": "Ourém",
    "freguesia": "Caxarias",
    "OBJECTID": 714,
    "BGRI2021": "14210400115",
    "DT21": "14",
    "DTMN21": "1421",
    "DTMNFR21": "142104",
    "DTMNFRSEC21": "142104001",
    "SECNUM21": "001",
    "SSNUM21": "15",
    "SECSSNUM21": "00115",
    "OBJECTID_1": 158568,
    "DT": "14",
    "CC": "21",
    "fr": "04",
    "SEC": "001",
    "SS": "15"
  },
  "addresses": [
    {
      "id": "pt.ine.add.PTCONT.4394896",
      "street": "R PINHAL DA ROSA",
      "house": "3",
      "postcode": "2435-018",
      "city": "CAXARIAS",
      "lon": "-8.54856042278703",
      "lat": "39.71337710101029"
    },
    {
      "id": "pt.ine.add.PTCONT.4394920",
      "street": "BR MARIA REIS",
      "house": "1",
      "postcode": "2435-075",
      "city": "CAXARIAS",
      "lon": "-8.55163265627035",
      "lat": "39.71809453071024"
    },
    {
      "id": "pt.ine.add.PTCONT.4394921",
      "street": "BR MARIA REIS",
      "house": "3",
      "postcode": "2435-075",
      "city": "CAXARIAS",
      "lon": "-8.55170219458492",
      "lat": "39.718022227270204"
    },
    {
      "id": "pt.ine.add.PTCONT.4397042",
      "street": "R PINHAL DA ROSA",
      "house": "16",
      "postcode": "2435-018",
      "city": "CAXARIAS",
      "lon": "-8.54930876299868",
      "lat": "39.71370766510729"
    },
    {
      "id": "pt.ine.add.PTCONT.4408511",
      "street": "R FRANCISCO DOS REIS",
      "house": "40",
      "postcode": "2435-075",
      "city": "CAXARIAS",
      "lon": "-8.549408639774999",
      "lat": "39.716742530688336"
    },
    {
      "id": "pt.ine.add.PTCONT.4411953",
      "street": "R PINHAL DA ROSA",
      "house": "4",
      "postcode": "2435-018",
      "city": "CAXARIAS",
      "lon": "-8.548410389241203",
      "lat": "39.71363882920267"
    },
    {
      "id": "pt.ine.add.PTCONT.4421701",
      "street": "R FRANCISCO DOS REIS",
      "house": "10",
      "postcode": "2435-075",
      "city": "CAXARIAS",
      "lon": "-8.5508364674645",
      "lat": "39.717575015622955"
    },
    {
      "id": "pt.ine.add.PTCONT.4421702",
      "street": "R FRANCISCO DOS REIS",
      "house": "10",
      "postcode": "2435-075",
      "city": "CAXARIAS",
      "lon": "-8.5508364674645",
      "lat": "39.717575015622955"
    },
    {
      "id": "pt.ine.add.PTCONT.4421703",
      "street": "R FRANCISCO DOS REIS",
      "house": "102",
      "postcode": "2435-075",
      "city": "CAXARIAS",
      "lon": "-8.547300951559151",
      "lat": "39.71532702648264"
    },
    {
      "id": "pt.ine.add.PTCONT.4427930",
      "street": "R JULIO REDOL",
      "house": "",
      "postcode": "2435-019",
      "city": "CAXARIAS",
      "lon": "-8.548439162443518",
      "lat": "39.712602967068754"
    },
    {
      "id": "pt.ine.add.PTCONT.4427931",
      "street": "BR MARIA REIS",
      "house": "5",
      "postcode": "2435-075",
      "city": "CAXARIAS",
      "lon": "-8.551666554376425",
      "lat": "39.71791427663792"
    },
    {
      "id": "pt.ine.add.PTCONT.4428724",
      "street": "R FRANCISCO DOS REIS",
      "house": "94",
      "postcode": "2435-075",
      "city": "CAXARIAS",
      "lon": "-8.547500227092609",
      "lat": "39.715497440783366"
    },
    {
      "id": "pt.ine.add.PTCONT.4436133",
      "street": "R FRANCISCO DOS REIS",
      "house": "96",
      "postcode": "2435-075",
      "city": "CAXARIAS",
      "lon": "-8.5473948390905",
      "lat": "39.71542576409262"
    },
    {
      "id": "pt.ine.add.PTCONT.4442208",
      "street": "TV CHAINCA",
      "house": "2",
      "postcode": "2435-080",
      "city": "CAXARIAS",
      "lon": "-8.550977120770181",
      "lat": "39.71769159520393"
    },
    {
      "id": "pt.ine.add.PTCONT.4454544",
      "street": "R PINHAL DA ROSA",
      "house": "",
      "postcode": "2435-018",
      "city": "CAXARIAS",
      "lon": "-8.548936187312496",
      "lat": "39.71380807268075"
    },
    {
      "id": "pt.ine.add.PTCONT.4456953",
      "street": "TV CHAINCA",
      "house": "12",
      "postcode": "2435-080",
      "city": "CAXARIAS",
      "lon": "-8.550820295805789",
      "lat": "39.7168275264205"
    },
    {
      "id": "pt.ine.add.PTCONT.4461207",
      "street": "R FRANCISCO DOS REIS",
      "house": "46",
      "postcode": "2435-075",
      "city": "CAXARIAS",
      "lon": "-8.549885817411226",
      "lat": "39.714642281508986"
    },
    {
      "id": "pt.ine.add.PTCONT.4463020",
      "street": "R FRANCISCO DOS REIS",
      "house": "",
      "postcode": "2435-075",
      "city": "CAXARIAS",
      "lon": "-8.551468458789191",
      "lat": "39.71794201040081"
    },
    {
      "id": "pt.ine.add.PTCONT.4469377",
      "street": "R JULIO REDOL",
      "house": "2",
      "postcode": "2435-019",
      "city": "CAXARIAS",
      "lon": "-8.547643313332921",
      "lat": "39.714073887291796"
    },
    {
      "id": "pt.ine.add.PTCONT.4469378",
      "street": "R FRANCISCO DOS REIS",
      "house": "14",
      "postcode": "2435-075",
      "city": "CAXARIAS",
      "lon": "-8.55057930114145",
      "lat": "39.71747686806278"
    },
    {
      "id": "pt.ine.add.PTCONT.4471434",
      "street": "R 9 DE JUNHO",
      "house": "101",
      "postcode": "2435-051",
      "city": "CAXARIAS",
      "lon": "-8.550710627211435",
      "lat": "39.71798076505465"
    },
    {
      "id": "pt.ine.add.PTCONT.4473369",
      "street": "BR MARIA REIS",
      "house": "2",
      "postcode": "2435-075",
      "city": "CAXARIAS",
      "lon": "-8.55166742544575",
      "lat": "39.718058378995465"
    },
    {
      "id": "pt.ine.add.PTCONT.4486168",
      "street": "TV CHAINÇA",
      "house": "2",
      "postcode": "2435-080",
      "city": "CAXARIAS",
      "lon": "-8.551184594202233",
      "lat": "39.71728555154119"
    },
    {
      "id": "pt.ine.add.PTCONT.4492903",
      "street": "R FRANCISCO DOS REIS",
      "house": "",
      "postcode": "2435-075",
      "city": "CAXARIAS",
      "lon": "-8.549885817411226",
      "lat": "39.714642281508986"
    },
    {
      "id": "pt.ine.add.PTCONT.4505418",
      "street": "TV CHAINCA",
      "house": "25",
      "postcode": "2435-080",
      "city": "CAXARIAS",
      "lon": "-8.55045844492445",
      "lat": "39.71677478813752"
    },
    {
      "id": "pt.ine.add.PTCONT.4513013",
      "street": "BR MARIA REIS",
      "house": "8",
      "postcode": "2435-075",
      "city": "CAXARIAS",
      "lon": "-8.55152747774239",
      "lat": "39.71805888343547"
    },
    {
      "id": "pt.ine.add.PTCONT.4513251",
      "street": "R JULIO REDOL",
      "house": "36",
      "postcode": "2435-019",
      "city": "CAXARIAS",
      "lon": "-8.548568194181795",
      "lat": "39.712728597864874"
    },
    {
      "id": "pt.ine.add.PTCONT.4514895",
      "street": "R TIJOMEL",
      "house": "",
      "postcode": "2435-019",
      "city": "CAXARIAS",
      "lon": "-8.547633754177975",
      "lat": "39.714425178830695"
    },
    {
      "id": "pt.ine.add.PTCONT.4519156",
      "street": "R FRANCISCO DOS REIS",
      "house": "80",
      "postcode": "2435-075",
      "city": "CAXARIAS",
      "lon": "-8.547734543268627",
      "lat": "39.715676736202994"
    },
    {
      "id": "pt.ine.add.PTCONT.4529693",
      "street": "R FRANCISCO DOS REIS",
      "house": "18",
      "postcode": "2435-075",
      "city": "CAXARIAS",
      "lon": "-8.549885817411226",
      "lat": "39.714642281508986"
    },
    {
      "id": "pt.ine.add.PTCONT.4541432",
      "street": "BR MARIA REIS",
      "house": "4",
      "postcode": "2435-075",
      "city": "CAXARIAS",
      "lon": "-8.55174851707918",
      "lat": "39.71796802068879"
    },
    {
      "id": "pt.ine.add.PTCONT.4576811",
      "street": "R JULIO REDOL",
      "house": "42",
      "postcode": "2435-019",
      "city": "CAXARIAS",
      "lon": "-8.548357100673163",
      "lat": "39.71253120776628"
    },
    {
      "id": "pt.ine.add.PTCONT.4582444",
      "street": "R PINHAL DA ROSA",
      "house": "11",
      "postcode": "2435-018",
      "city": "CAXARIAS",
      "lon": "-8.548817895387957",
      "lat": "39.71352929165144"
    },
    {
      "id": "pt.ine.add.PTCONT.4582445",
      "street": "R PINHAL ROSA",
      "house": "9",
      "postcode": "2435-018",
      "city": "CAXARIAS",
      "lon": "-8.548817895387957",
      "lat": "39.71352929165144"
    },
    {
      "id": "pt.ine.add.PTCONT.4582446",
      "street": "R FRANCISCO DOS REIS",
      "house": "46",
      "postcode": "2435-075",
      "city": "CAXARIAS",
      "lon": "-8.549151099766286",
      "lat": "39.716581335108124"
    },
    {
      "id": "pt.ine.add.PTCONT.4604098",
      "street": "R FRANCISCO DOS REIS",
      "house": "50",
      "postcode": "2435-075",
      "city": "CAXARIAS",
      "lon": "-8.548916939109361",
      "lat": "39.7164290618192"
    },
    {
      "id": "pt.ine.add.PTCONT.4610235",
      "street": "R TIMA",
      "house": "",
      "postcode": "2435-060",
      "city": "CAXARIAS",
      "lon": "-8.548174241054172",
      "lat": "39.7150987428421"
    },
    {
      "id": "pt.ine.add.PTCONT.4618644",
      "street": "TV CHAINCA",
      "house": "19",
      "postcode": "2435-080",
      "city": "CAXARIAS",
      "lon": "-8.550681219558372",
      "lat": "39.7169721322292"
    },
    {
      "id": "pt.ine.add.PTCONT.4618645",
      "street": "R FRANCISCO DOS REIS",
      "house": "84",
      "postcode": "2435-075",
      "city": "CAXARIAS",
      "lon": "-8.547605615312701",
      "lat": "39.715569117376454"
    },
    {
      "id": "pt.ine.add.PTCONT.4625220",
      "street": "R PINHAL DA ROSA",
      "house": "12",
      "postcode": "2435-018",
      "city": "CAXARIAS",
      "lon": "-8.549134759080616",
      "lat": "39.7138614009357"
    },
    {
      "id": "pt.ine.add.PTCONT.4629097",
      "street": "R 9 DE JUNHO",
      "house": "93",
      "postcode": "2435-051",
      "city": "CAXARIAS",
      "lon": "-8.550382888847716",
      "lat": "39.71778379834839"
    },
    {
      "id": "pt.ine.add.PTCONT.4631741",
      "street": "R JULIO REDOL",
      "house": "50",
      "postcode": "2435-019",
      "city": "CAXARIAS",
      "lon": "-8.548181532195535",
      "lat": "39.71242375631126"
    },
    {
      "id": "pt.ine.add.PTCONT.4642334",
      "street": "R JULIO REDOL",
      "house": "24",
      "postcode": "2435-019",
      "city": "CAXARIAS",
      "lon": "-8.548512318079139",
      "lat": "39.71313409488633"
    },
    {
      "id": "pt.ine.add.PTCONT.4642335",
      "street": "BR MARIA REIS",
      "house": "7",
      "postcode": "2435-075",
      "city": "CAXARIAS",
      "lon": "-8.551573854828069",
      "lat": "39.718013683320656"
    },
    {
      "id": "pt.ine.add.PTCONT.4649838",
      "street": "R FRANCISCO DOS REIS",
      "house": "98",
      "postcode": "2435-075",
      "city": "CAXARIAS",
      "lon": "-8.547313313731214",
      "lat": "39.71544406816225"
    },
    {
      "id": "pt.ine.add.PTCONT.4653668",
      "street": "R PINHAL DA ROSA",
      "house": "7",
      "postcode": "2435-018",
      "city": "CAXARIAS",
      "lon": "-8.548689456198716",
      "lat": "39.713502731646244"
    },
    {
      "id": "pt.ine.add.PTCONT.4657288",
      "street": "BR MARIA REIS",
      "house": "6",
      "postcode": "2435-075",
      "city": "CAXARIAS",
      "lon": "-8.551620177417597",
      "lat": "39.717959476789886"
    },
    {
      "id": "pt.ine.add.PTCONT.4659104",
      "street": "TV CHAINÇA",
      "house": "1",
      "postcode": "2435-080",
      "city": "CAXARIAS",
      "lon": "-8.549885817411226",
      "lat": "39.714642281508986"
    },
    {
      "id": "pt.ine.add.PTCONT.4659402",
      "street": "R PINHAL DA ROSA",
      "house": "15",
      "postcode": "2435-018",
      "city": "CAXARIAS",
      "lon": "-8.549004912881134",
      "lat": "39.71360067470334"
    },
    {
      "id": "pt.ine.add.PTCONT.4662357",
      "street": "R FRANCISCO DOS REIS",
      "house": "68",
      "postcode": "2435-075",
      "city": "CAXARIAS",
      "lon": "-8.548132829574088",
      "lat": "39.71597253089932"
    }
  ]
}