{
  "data": {
    "distrito": "Santarém",
    "concelho": "Ourém",
    "freguesia": "Caxarias",
    "OBJECTID": 1440,
    "BGRI2021": "14210400121",
    "DT21": "14",
    "DTMN21": "1421",
    "DTMNFR21": "142104",
    "DTMNFRSEC21": "142104001",
    "SECNUM21": "001",
    "SSNUM21": "21",
    "SECSSNUM21": "00121",
    "OBJECTID_1": 159415,
    "DT": "14",
    "CC": "21",
    "fr": "04",
    "SEC": "001",
    "SS": "21"
  },
  "addresses": [
    {
      "id": "pt.ine.add.PTCONT.4413489",
      "street": "R PADRE CARLOS QUERIDO DA SILVA",
      "house": "8",
      "postcode": "2435-127",
      "city": "CAXARIAS",
      "lon": "-8.531891723167305",
      "lat": "39.71267899393361"
    },
    {
      "id": "pt.ine.add.PTCONT.4416483",
      "street": "R OESTE",
      "house": "88",
      "postcode": "2435-126",
      "city": "CAXARIAS",
      "lon": "-8.532092447494144",
      "lat": "39.719181070175715"
    },
    {
      "id": "pt.ine.add.PTCONT.4440092",
      "street": "R PADRE CARLOS QUERIDO DA SILVA",
      "house": "40",
      "postcode": "2435-127",
      "city": "CAXARIAS",
      "lon": "-8.532260235180216",
      "lat": "39.71389361930952"
    },
    {
      "id": "pt.ine.add.PTCONT.4442206",
      "street": "R NSA SRA DE FÁTIMA",
      "house": "101",
      "postcode": "2435-126",
      "city": "CAXARIAS",
      "lon": "-8.53124513285583",
      "lat": "39.717860009125104"
    },
    {
      "id": "pt.ine.add.PTCONT.4442207",
      "street": "R NSA SRA DE FÁTIMA",
      "house": "45",
      "postcode": "2435-126",
      "city": "CAXARIAS",
      "lon": "-8.53058235513366",
      "lat": "39.714142553778046"
    },
    {
      "id": "pt.ine.add.PTCONT.4450734",
      "street": "R COMBATENTES",
      "house": "4",
      "postcode": "2435-125",
      "city": "CAXARIAS",
      "lon": "-8.53062810113152",
      "lat": "39.711953791993636"
    },
    {
      "id": "pt.ine.add.PTCONT.4464988",
      "street": "R NSA SRA DE FÁTIMA",
      "house": "99",
      "postcode": "2435-126",
      "city": "CAXARIAS",
      "lon": "-8.531161581071778",
      "lat": "39.71752705147108"
    },
    {
      "id": "pt.ine.add.PTCONT.4464989",
      "street": "R NSA SRA DE FÁTIMA",
      "house": "41",
      "postcode": "2435-126",
      "city": "CAXARIAS",
      "lon": "-8.530347261718072",
      "lat": "39.7138191206042"
    },
    {
      "id": "pt.ine.add.PTCONT.4473275",
      "street": "R NSA SRA FATIMA",
      "house": "73",
      "postcode": "2435-126",
      "city": "CAXARIAS",
      "lon": "-8.530592694070133",
      "lat": "39.71594383889356"
    },
    {
      "id": "pt.ine.add.PTCONT.4476329",
      "street": "R NSA SRA DE FÁTIMA",
      "house": "35",
      "postcode": "2435-126",
      "city": "CAXARIAS",
      "lon": "-8.530474144303202",
      "lat": "39.71357550809801"
    },
    {
      "id": "pt.ine.add.PTCONT.4494615",
      "street": "R PADRE CARLOS QUERIDO DA SILVA",
      "house": "14",
      "postcode": "2435-127",
      "city": "CAXARIAS",
      "lon": "-8.531915772114026",
      "lat": "39.71280500381351"
    },
    {
      "id": "pt.ine.add.PTCONT.4499402",
      "street": "R PADRE CARLOS QUERIDO DA SILVA",
      "house": "34",
      "postcode": "2435-127",
      "city": "CAXARIAS",
      "lon": "-8.532188656447573",
      "lat": "39.71361466063266"
    },
    {
      "id": "pt.ine.add.PTCONT.4512996",
      "street": "R NSA SRA DE FÁTIMA",
      "house": "67",
      "postcode": "2435-126",
      "city": "CAXARIAS",
      "lon": "-8.530542686276139",
      "lat": "39.71535858098025"
    },
    {
      "id": "pt.ine.add.PTCONT.4512997",
      "street": "R BREJOS",
      "house": "6",
      "postcode": "2435-115",
      "city": "CAXARIAS",
      "lon": "-8.53085517757579",
      "lat": "39.714943207170585"
    },
    {
      "id": "pt.ine.add.PTCONT.4516631",
      "street": "R NSA SRA DE FÁTIMA",
      "house": "81",
      "postcode": "2435-126",
      "city": "CAXARIAS",
      "lon": "-8.531133493752915",
      "lat": "39.716698540634034"
    },
    {
      "id": "pt.ine.add.PTCONT.4519070",
      "street": "R NSA SRA DE FÁTIMA",
      "house": "79",
      "postcode": "2435-126",
      "city": "CAXARIAS",
      "lon": "-8.530780475390026",
      "lat": "39.71615034769051"
    },
    {
      "id": "pt.ine.add.PTCONT.4527293",
      "street": "R NSA SRA DE FÁTIMA",
      "house": "93",
      "postcode": "2435-126",
      "city": "CAXARIAS",
      "lon": "-8.5310543951625",
      "lat": "39.717140135150565"
    },
    {
      "id": "pt.ine.add.PTCONT.4535634",
      "street": "R NSA SRA DE FÁTIMA",
      "house": "",
      "postcode": "2435-126",
      "city": "CAXARIAS",
      "lon": "-8.53106155424772",
      "lat": "39.71635653642845"
    },
    {
      "id": "pt.ine.add.PTCONT.4551891",
      "street": "R OESTE",
      "house": "29",
      "postcode": "2435-126",
      "city": "CAXARIAS",
      "lon": "-8.531625531735349",
      "lat": "39.71911062102948"
    },
    {
      "id": "pt.ine.add.PTCONT.4556136",
      "street": "R PADRE CARLOS QUERIDO DA SILVA",
      "house": "18",
      "postcode": "2435-127",
      "city": "CAXARIAS",
      "lon": "-8.5319864151721",
      "lat": "39.71292184701725"
    },
    {
      "id": "pt.ine.add.PTCONT.4562342",
      "street": "R OESTE",
      "house": "",
      "postcode": "2435-126",
      "city": "CAXARIAS",
      "lon": "-8.531859248836087",
      "lat": "39.719190877926856"
    },
    {
      "id": "pt.ine.add.PTCONT.4566550",
      "street": "R PADRE CARLOS QUERIDO DA SILVA",
      "house": "48",
      "postcode": "2435-127",
      "city": "CAXARIAS",
      "lon": "-8.532320464327256",
      "lat": "39.714226656573544"
    },
    {
      "id": "pt.ine.add.PTCONT.4578927",
      "street": "R PADRE CARLOS QUERIDO DA SILVA",
      "house": "20",
      "postcode": "2435-127",
      "city": "CAXARIAS",
      "lon": "-8.532068771845152",
      "lat": "39.71304765653123"
    },
    {
      "id": "pt.ine.add.PTCONT.4587337",
      "street": "R BREJOS",
      "house": "15-17",
      "postcode": "2435-115",
      "city": "CAXARIAS",
      "lon": "-8.531076234459164",
      "lat": "39.71485238364556"
    },
    {
      "id": "pt.ine.add.PTCONT.4591473",
      "street": "R NSA SRA DE FÁTIMA",
      "house": "95",
      "postcode": "2435-126",
      "city": "CAXARIAS",
      "lon": "-8.531114155561543",
      "lat": "39.717392115077104"
    },
    {
      "id": "pt.ine.add.PTCONT.4593565",
      "street": "R NSA SRA DE FÁTIMA",
      "house": "7",
      "postcode": "2435-126",
      "city": "CAXARIAS",
      "lon": "-8.530536671215541",
      "lat": "39.712278342845174"
    },
    {
      "id": "pt.ine.add.PTCONT.4593566",
      "street": "R PADRE CARLOS QUERIDO DA SILVA",
      "house": "38",
      "postcode": "2435-127",
      "city": "CAXARIAS",
      "lon": "-8.532189694457992",
      "lat": "39.713794789150796"
    },
    {
      "id": "pt.ine.add.PTCONT.4596789",
      "street": "R NSA SRA DE FÁTIMA",
      "house": "25",
      "postcode": "2435-126",
      "city": "CAXARIAS",
      "lon": "-8.530436627615805",
      "lat": "39.71313431283622"
    },
    {
      "id": "pt.ine.add.PTCONT.4614301",
      "street": "R COMBATENTES",
      "house": "8",
      "postcode": "2435-125",
      "city": "CAXARIAS",
      "lon": "-8.531177839234505",
      "lat": "39.712240119956604"
    },
    {
      "id": "pt.ine.add.PTCONT.4624815",
      "street": "R NSA SRA DE FÁTIMA",
      "house": "3",
      "postcode": "2435-126",
      "city": "CAXARIAS",
      "lon": "-8.530535534195108",
      "lat": "39.7120802013832"
    },
    {
      "id": "pt.ine.add.PTCONT.4624829",
      "street": "R PADRE CARLOS QUERIDO DA SILVA",
      "house": "60",
      "postcode": "2435-127",
      "city": "CAXARIAS",
      "lon": "-8.532684730955612",
      "lat": "39.71470275348077"
    },
    {
      "id": "pt.ine.add.PTCONT.4626849",
      "street": "R OESTE",
      "house": "27",
      "postcode": "2435-126",
      "city": "CAXARIAS",
      "lon": "-8.531658549311853",
      "lat": "39.71876825703293"
    },
    {
      "id": "pt.ine.add.PTCONT.4629129",
      "street": "R CASAL DAS FIGUEIRAS",
      "house": "35",
      "postcode": "2435-126",
      "city": "CAXARIAS",
      "lon": "-8.531580747609947",
      "lat": "39.719435012190594"
    },
    {
      "id": "pt.ine.add.PTCONT.4629307",
      "street": "R NSA SRA DE FÁTIMA",
      "house": "13",
      "postcode": "2435-126",
      "city": "CAXARIAS",
      "lon": "-8.530515105616269",
      "lat": "39.712584641286085"
    },
    {
      "id": "pt.ine.add.PTCONT.4646291",
      "street": "BC BREJOS",
      "house": "7",
      "postcode": "2435-084",
      "city": "CAXARIAS",
      "lon": "-8.531389290064514",
      "lat": "39.71453607907221"
    }
  ]
}