{
  "data": {
    "distrito": "Lisboa",
    "concelho": "Sintra",
    "freguesia": "União das freguesias de São João das Lampas e Terrugem",
    "OBJECTID": 2997,
    "BGRI2021": "11112701320",
    "DT21": "11",
    "DTMN21": "1111",
    "DTMNFR21": "111127",
    "DTMNFRSEC21": "111127013",
    "SECNUM21": "013",
    "SSNUM21": "20",
    "SECSSNUM21": "01320",
    "OBJECTID_1": 112214,
    "DT": "11",
    "CC": "11",
    "fr": "27",
    "SEC": "013",
    "SS": "20"
  },
  "addresses": [
    {
      "id": "pt.ine.add.PTCONT.2419012",
      "street": "R CASA NOVA QTA DAS FLORES",
      "house": "14",
      "postcode": "2705-645",
      "city": "SÃO JOÃO DAS LAMPAS",
      "lon": "-9.424424116835079",
      "lat": "38.84355889112813"
    },
    {
      "id": "pt.ine.add.PTCONT.2443273",
      "street": "R CASA NOVA TIGM-NA RIACH",
      "house": "45",
      "postcode": "2705-645",
      "city": "SÃO JOÃO DAS LAMPAS",
      "lon": "-9.424842585960734",
      "lat": "38.84377044358082"
    },
    {
      "id": "pt.ine.add.PTCONT.2464784",
      "street": "R CASA NOVA CASA DA LUA CMEIA",
      "house": "8",
      "postcode": "2705-645",
      "city": "SÃO JOÃO DAS LAMPAS",
      "lon": "-9.42452836366609",
      "lat": "38.84295423584741"
    },
    {
      "id": "pt.ine.add.PTCONT.2557229",
      "street": "R CASA NOVA CASA DAS MORTAS",
      "house": "2",
      "postcode": "2705-645",
      "city": "SÃO JOÃO DAS LAMPAS",
      "lon": "-9.424571450001547",
      "lat": "38.84215209166282"
    },
    {
      "id": "pt.ine.add.PTCONT.2826477",
      "street": "R CASA NOVA CASA DAS COLUNAS",
      "house": "12",
      "postcode": "2705-645",
      "city": "SÃO JOÃO DAS LAMPAS",
      "lon": "-9.424465946011027",
      "lat": "38.84332423359205"
    },
    {
      "id": "pt.ine.add.PTCONT.2958367",
      "street": "R CASA NOVA MIL PALMEIRAS",
      "house": "10",
      "postcode": "2705-645",
      "city": "SÃO JOÃO DAS LAMPAS",
      "lon": "-9.424508426192617",
      "lat": "38.843125598843706"
    },
    {
      "id": "pt.ine.add.PTCONT.3044683",
      "street": "R DA CASA NOVA",
      "house": "6",
      "postcode": "2705-645",
      "city": "SÃO JOÃO DAS LAMPAS",
      "lon": "-9.424696699137856",
      "lat": "38.842709171812224"
    },
    {
      "id": "pt.ine.add.PTCONT.3297576",
      "street": "R IGREJA QTA DA CADEIRA",
      "house": "",
      "postcode": "2705-645",
      "city": "SÃO JOÃO DAS LAMPAS",
      "lon": "-9.424294883515904",
      "lat": "38.84405573249788"
    },
    {
      "id": "pt.ine.add.PTCONT.3384076",
      "street": "R HORTAS",
      "house": "25",
      "postcode": "2705-645",
      "city": "SÃO JOÃO DAS LAMPAS",
      "lon": "-9.424223873627676",
      "lat": "38.84203883698745"
    }
  ]
}