{
  "data": {
    "distrito": "Lisboa",
    "concelho": "Sintra",
    "freguesia": "União das freguesias de São João das Lampas e Terrugem",
    "OBJECTID": 2973,
    "BGRI2021": "11112701334",
    "DT21": "11",
    "DTMN21": "1111",
    "DTMNFR21": "111127",
    "DTMNFRSEC21": "111127013",
    "SECNUM21": "013",
    "SSNUM21": "34",
    "SECSSNUM21": "01334",
    "OBJECTID_1": 114383,
    "DT": "11",
    "CC": "11",
    "fr": "27",
    "SEC": "013",
    "SS": "34"
  },
  "addresses": [
    {
      "id": "pt.ine.add.PTCONT.2344374",
      "street": "TV FACHADA",
      "house": "3",
      "postcode": "2705-586",
      "city": "SÃO JOÃO DAS LAMPAS",
      "lon": "-9.40471788929783",
      "lat": "38.84878328790334"
    },
    {
      "id": "pt.ine.add.PTCONT.2369642",
      "street": "ESTR PRINCIPAL CASA 3",
      "house": "019 A",
      "postcode": "2705-586",
      "city": "SÃO JOÃO DAS LAMPAS",
      "lon": "-9.405076216231516",
      "lat": "38.849499986459925"
    },
    {
      "id": "pt.ine.add.PTCONT.2427946",
      "street": "TV FACHADA",
      "house": "03 A",
      "postcode": "2705-586",
      "city": "SÃO JOÃO DAS LAMPAS",
      "lon": "-9.404964386952205",
      "lat": "38.84904182147399"
    },
    {
      "id": "pt.ine.add.PTCONT.2436382",
      "street": "ESTR PRINCIPAL",
      "house": "21",
      "postcode": "2705-586",
      "city": "SÃO JOÃO DAS LAMPAS",
      "lon": "-9.405079424284105",
      "lat": "38.84968010166573"
    },
    {
      "id": "pt.ine.add.PTCONT.2489245",
      "street": "ESTR PRINCIPAL",
      "house": "1",
      "postcode": "2705-586",
      "city": "SÃO JOÃO DAS LAMPAS",
      "lon": "-9.403926914678227",
      "lat": "38.848350529528794"
    },
    {
      "id": "pt.ine.add.PTCONT.2509342",
      "street": "R EIRA VELHA",
      "house": "1",
      "postcode": "2705-726",
      "city": "SÃO JOÃO DAS LAMPAS",
      "lon": "-9.41099702549602",
      "lat": "38.848219337925755"
    },
    {
      "id": "pt.ine.add.PTCONT.2509343",
      "street": "CAM FEITEIRA QUINTINHA DA FEITEIRA",
      "house": "17",
      "postcode": "2705-726",
      "city": "SÃO JOÃO DAS LAMPAS",
      "lon": "-9.410528155004233",
      "lat": "38.847765084546424"
    },
    {
      "id": "pt.ine.add.PTCONT.2518472",
      "street": "TV FACHADA",
      "house": "2A",
      "postcode": "2705-586",
      "city": "SÃO JOÃO DAS LAMPAS",
      "lon": "-9.404726869157749",
      "lat": "38.84928761059722"
    },
    {
      "id": "pt.ine.add.PTCONT.2597113",
      "street": "ESTR PERNIGEM",
      "house": "31",
      "postcode": "2705-726",
      "city": "SÃO JOÃO DAS LAMPAS",
      "lon": "-9.408158526644163",
      "lat": "38.847944106811"
    },
    {
      "id": "pt.ine.add.PTCONT.2635268",
      "street": "TV FACHADA",
      "house": "3",
      "postcode": "2705-586",
      "city": "SÃO JOÃO DAS LAMPAS",
      "lon": "-9.404811464587993",
      "lat": "38.84886333657838"
    },
    {
      "id": "pt.ine.add.PTCONT.2643557",
      "street": "ESTR PRINCIPAL CASA 1",
      "house": "19 A",
      "postcode": "2705-586",
      "city": "SÃO JOÃO DAS LAMPAS",
      "lon": "-9.404962012399865",
      "lat": "38.849555275278476"
    },
    {
      "id": "pt.ine.add.PTCONT.2705659",
      "street": "ESTR ALDEIA CASALINHO DE N SRA DE FÁTIMA",
      "house": "4",
      "postcode": "2705-586",
      "city": "SÃO JOÃO DAS LAMPAS",
      "lon": "-9.404037751899098",
      "lat": "38.84810612064292"
    },
    {
      "id": "pt.ine.add.PTCONT.2705660",
      "street": "ESTR ALDEIA CASALINHO DE N SRA DE FÁTIMA",
      "house": "4B",
      "postcode": "2705-586",
      "city": "SÃO JOÃO DAS LAMPAS",
      "lon": "-9.404178513133289",
      "lat": "38.84824870891228"
    },
    {
      "id": "pt.ine.add.PTCONT.2751076",
      "street": "ESTR PERNIGEM",
      "house": "27",
      "postcode": "2705-726",
      "city": "SÃO JOÃO DAS LAMPAS",
      "lon": "-9.407224898681289",
      "lat": "38.84790925850142"
    },
    {
      "id": "pt.ine.add.PTCONT.2812054",
      "street": "TV FACHADA E",
      "house": "E",
      "postcode": "2705-586",
      "city": "SÃO JOÃO DAS LAMPAS",
      "lon": "-9.404658703339656",
      "lat": "38.84869385722742"
    },
    {
      "id": "pt.ine.add.PTCONT.2874244",
      "street": "ESTR PERNIGEM",
      "house": "3",
      "postcode": "2705-586",
      "city": "SÃO JOÃO DAS LAMPAS",
      "lon": "-9.405295673629201",
      "lat": "38.849533626103614"
    },
    {
      "id": "pt.ine.add.PTCONT.2874245",
      "street": "ESTR PERNIGEM",
      "house": "3",
      "postcode": "2705-586",
      "city": "SÃO JOÃO DAS LAMPAS",
      "lon": "-9.405295673629201",
      "lat": "38.849533626103614"
    },
    {
      "id": "pt.ine.add.PTCONT.2874246",
      "street": "ESTR PERNIGEM",
      "house": "3",
      "postcode": "2705-586",
      "city": "SÃO JOÃO DAS LAMPAS",
      "lon": "-9.405295673629201",
      "lat": "38.849533626103614"
    },
    {
      "id": "pt.ine.add.PTCONT.2884211",
      "street": "TV FACHADA",
      "house": "O2B",
      "postcode": "2705-586",
      "city": "SÃO JOÃO DAS LAMPAS",
      "lon": "-9.404853551563043",
      "lat": "38.84928623117215"
    },
    {
      "id": "pt.ine.add.PTCONT.2920546",
      "street": "LG PALMEIRAS",
      "house": "7",
      "postcode": "2705-726",
      "city": "SÃO JOÃO DAS LAMPAS",
      "lon": "-9.410283975960265",
      "lat": "38.84828118291242"
    },
    {
      "id": "pt.ine.add.PTCONT.3124619",
      "street": "LG PALMEIRAS",
      "house": "8",
      "postcode": "2705-726",
      "city": "SÃO JOÃO DAS LAMPAS",
      "lon": "-9.411034797565682",
      "lat": "38.84839907471433"
    },
    {
      "id": "pt.ine.add.PTCONT.3142605",
      "street": "ESTR PRINCIPAL",
      "house": "17 B",
      "postcode": "2705-586",
      "city": "SÃO JOÃO DAS LAMPAS",
      "lon": "-9.404774218389889",
      "lat": "38.84935915509812"
    },
    {
      "id": "pt.ine.add.PTCONT.3180668",
      "street": "ESTR PERNIGEM",
      "house": "05",
      "postcode": "2705-586",
      "city": "SÃO JOÃO DAS LAMPAS",
      "lon": "-9.405444266542013",
      "lat": "38.84946895480751"
    },
    {
      "id": "pt.ine.add.PTCONT.3180669",
      "street": "LOCAL DA FACHADA",
      "house": "",
      "postcode": "2705-586",
      "city": "SÃO JOÃO DAS LAMPAS",
      "lon": "-9.40505109781957",
      "lat": "38.84938316243186"
    },
    {
      "id": "pt.ine.add.PTCONT.3236249",
      "street": "ESTR PRINCIPAL",
      "house": "7",
      "postcode": "2705-586",
      "city": "SÃO JOÃO DAS LAMPAS",
      "lon": "-9.404373676697992",
      "lat": "38.84885909531779"
    },
    {
      "id": "pt.ine.add.PTCONT.3245438",
      "street": "ESTR PERNIGEM",
      "house": "7",
      "postcode": "2705-586",
      "city": "SÃO JOÃO DAS LAMPAS",
      "lon": "-9.405524240968697",
      "lat": "38.849432053473144"
    },
    {
      "id": "pt.ine.add.PTCONT.3245446",
      "street": "ESTR PRINCIPAL",
      "house": "11",
      "postcode": "2705-586",
      "city": "SÃO JOÃO DAS LAMPAS",
      "lon": "-9.404561949276358",
      "lat": "38.84908223348807"
    },
    {
      "id": "pt.ine.add.PTCONT.3254014",
      "street": "ESTR PERNIGEM",
      "house": "9",
      "postcode": "2705-586",
      "city": "SÃO JOÃO DAS LAMPAS",
      "lon": "-9.40549591278419",
      "lat": "38.84913511436432"
    },
    {
      "id": "pt.ine.add.PTCONT.3281884",
      "street": "TV FACHADA",
      "house": "3",
      "postcode": "2705-586",
      "city": "SÃO JOÃO DAS LAMPAS",
      "lon": "-9.40488248815848",
      "lat": "38.84897065328278"
    },
    {
      "id": "pt.ine.add.PTCONT.3291014",
      "street": "ESTR PRINCIPAL",
      "house": "5",
      "postcode": "2705-586",
      "city": "SÃO JOÃO DAS LAMPAS",
      "lon": "-9.404173728543885",
      "lat": "38.84862707639119"
    },
    {
      "id": "pt.ine.add.PTCONT.3306097",
      "street": "ESTR PRINCIPAL",
      "house": "9",
      "postcode": "2705-586",
      "city": "SÃO JOÃO DAS LAMPAS",
      "lon": "-9.404432060858527",
      "lat": "38.84890349732155"
    },
    {
      "id": "pt.ine.add.PTCONT.3306098",
      "street": "ESTR PRINCIPAL",
      "house": "3",
      "postcode": "2705-586",
      "city": "SÃO JOÃO DAS LAMPAS",
      "lon": "-9.404091831009975",
      "lat": "38.84855590761918"
    },
    {
      "id": "pt.ine.add.PTCONT.3319387",
      "street": "ESTR PRINCIPAL",
      "house": "15",
      "postcode": "2705-586",
      "city": "SÃO JOÃO DAS LAMPAS",
      "lon": "-9.404620494079971",
      "lat": "38.8491356411536"
    },
    {
      "id": "pt.ine.add.PTCONT.3373538",
      "street": "ESTR PRINCIPAL CASA 2",
      "house": "19 A",
      "postcode": "2705-586",
      "city": "SÃO JOÃO DAS LAMPAS",
      "lon": "-9.405019274732943",
      "lat": "38.84953663664344"
    },
    {
      "id": "pt.ine.add.PTCONT.3428814",
      "street": "LG PALMEIRAS",
      "house": "5",
      "postcode": "2705-726",
      "city": "SÃO JOÃO DAS LAMPAS",
      "lon": "-9.41094556672052",
      "lat": "38.84856218614829"
    }
  ]
}