{
  "data": {
    "distrito": "Setúbal",
    "concelho": "Alcochete",
    "freguesia": "Samouco",
    "OBJECTID": 188,
    "BGRI2021": "15020200114",
    "DT21": "15",
    "DTMN21": "1502",
    "DTMNFR21": "150202",
    "DTMNFRSEC21": "150202001",
    "SECNUM21": "001",
    "SSNUM21": "14",
    "SECSSNUM21": "00114",
    "OBJECTID_1": 160547,
    "DT": "15",
    "CC": "02",
    "fr": "02",
    "SEC": "001",
    "SS": "14"
  },
  "addresses": [
    {
      "id": "pt.ine.add.PTCONT.4839616",
      "street": "R 1 DE DEZEMBRO",
      "house": "13",
      "postcode": "2890-214",
      "city": "SAMOUCO",
      "lon": "-9.00405903041484",
      "lat": "38.721349021996936"
    },
    {
      "id": "pt.ine.add.PTCONT.4843200",
      "street": "TV CRUZ",
      "house": "4",
      "postcode": "2890-251",
      "city": "SAMOUCO",
      "lon": "-9.004231821386723",
      "lat": "38.72137475849599"
    },
    {
      "id": "pt.ine.add.PTCONT.4857093",
      "street": "R 1 DE DEZEMBRO",
      "house": "17",
      "postcode": "2890-214",
      "city": "SAMOUCO",
      "lon": "-9.004083556205552",
      "lat": "38.72147495065175"
    },
    {
      "id": "pt.ine.add.PTCONT.4900092",
      "street": "TV CRUZ",
      "house": "10",
      "postcode": "2890-251",
      "city": "SAMOUCO",
      "lon": "-9.004391474290536",
      "lat": "38.721265473330725"
    },
    {
      "id": "pt.ine.add.PTCONT.4923886",
      "street": "TV FRANCISCO FALCAO",
      "house": "1A",
      "postcode": "2890-256",
      "city": "SAMOUCO",
      "lon": "-9.00418889311384",
      "lat": "38.72162730108163"
    },
    {
      "id": "pt.ine.add.PTCONT.4923887",
      "street": "TV FRANCISCO FALCAO",
      "house": "1",
      "postcode": "2890-256",
      "city": "SAMOUCO",
      "lon": "-9.00418889311384",
      "lat": "38.72162730108163"
    },
    {
      "id": "pt.ine.add.PTCONT.4923888",
      "street": "TV FRANCISCO FALCAO",
      "house": "1",
      "postcode": "2890-256",
      "city": "SAMOUCO",
      "lon": "-9.00418889311384",
      "lat": "38.72162730108163"
    },
    {
      "id": "pt.ine.add.PTCONT.4925084",
      "street": "TV CRUZ",
      "house": "6",
      "postcode": "2890-251",
      "city": "SAMOUCO",
      "lon": "-9.004253832212092",
      "lat": "38.7212935228946"
    },
    {
      "id": "pt.ine.add.PTCONT.4925085",
      "street": "TV CRUZ",
      "house": "6",
      "postcode": "2890-251",
      "city": "SAMOUCO",
      "lon": "-9.004253832212092",
      "lat": "38.7212935228946"
    },
    {
      "id": "pt.ine.add.PTCONT.4925086",
      "street": "TV CRUZ",
      "house": "6",
      "postcode": "2890-251",
      "city": "SAMOUCO",
      "lon": "-9.004253832212092",
      "lat": "38.7212935228946"
    },
    {
      "id": "pt.ine.add.PTCONT.4925087",
      "street": "TV FRANCISCO FALCÃO",
      "house": "",
      "postcode": "2890-256",
      "city": "SAMOUCO",
      "lon": "-9.004450055693152",
      "lat": "38.72135511628425"
    },
    {
      "id": "pt.ine.add.PTCONT.4927801",
      "street": "TV CRUZ",
      "house": "12",
      "postcode": "2890-251",
      "city": "SAMOUCO",
      "lon": "-9.004471628718832",
      "lat": "38.72123785208639"
    },
    {
      "id": "pt.ine.add.PTCONT.4975682",
      "street": "TV FRANCISCO FALCAO",
      "house": "5",
      "postcode": "2890-256",
      "city": "SAMOUCO",
      "lon": "-9.004336283492105",
      "lat": "38.721455051677104"
    }
  ]
}