{
  "data": {
    "distrito": "Braga",
    "concelho": "Vieira do Minho",
    "freguesia": "Vieira do Minho",
    "OBJECTID": 97,
    "BGRI2021": "03112000202",
    "DT21": "03",
    "DTMN21": "0311",
    "DTMNFR21": "031120",
    "DTMNFRSEC21": "031120002",
    "SECNUM21": "002",
    "SSNUM21": "02",
    "SECSSNUM21": "00202",
    "OBJECTID_1": 29925,
    "DT": "03",
    "CC": "11",
    "fr": "20",
    "SEC": "002",
    "SS": "02"
  },
  "addresses": [
    {
      "id": "pt.ine.add.PTCONT.521973",
      "street": "R FRANCISCO JOSE MIRANDA",
      "house": "163",
      "postcode": "4850-533",
      "city": "VIEIRA DO MINHO",
      "lon": "-8.14550590122606",
      "lat": "41.63479993251346"
    },
    {
      "id": "pt.ine.add.PTCONT.521974",
      "street": "R FRANCISCO JOSE DE MIRANDA",
      "house": "239",
      "postcode": "4850-533",
      "city": "VIEIRA DO MINHO",
      "lon": "-8.14550590122606",
      "lat": "41.63479993251346"
    },
    {
      "id": "pt.ine.add.PTCONT.523833",
      "street": "R FRANCISCO JOSE MIRANDA",
      "house": "163",
      "postcode": "4850-533",
      "city": "VIEIRA DO MINHO",
      "lon": "-8.14550590122606",
      "lat": "41.63479993251346"
    },
    {
      "id": "pt.ine.add.PTCONT.535762",
      "street": "AV IMACULADA CONCEIÇÃO",
      "house": "225",
      "postcode": "4850-522",
      "city": "VIEIRA DO MINHO",
      "lon": "-8.145145812144655",
      "lat": "41.634565876153644"
    },
    {
      "id": "pt.ine.add.PTCONT.544581",
      "street": "R FRANCISCO JOSE DE MIRANDA",
      "house": "",
      "postcode": "4850-533",
      "city": "VIEIRA DO MINHO",
      "lon": "-8.146946202721406",
      "lat": "41.63535799377559"
    },
    {
      "id": "pt.ine.add.PTCONT.546978",
      "street": "R FRANCISCO JOSE DE MIRANDA",
      "house": "221",
      "postcode": "4850-533",
      "city": "VIEIRA DO MINHO",
      "lon": "-8.145265806583387",
      "lat": "41.63445781984678"
    },
    {
      "id": "pt.ine.add.PTCONT.546979",
      "street": "R ENG ARMANDO SERAFIM ALMEIDA LOBO",
      "house": "225",
      "postcode": "4850-533",
      "city": "VIEIRA DO MINHO",
      "lon": "-8.145265806583387",
      "lat": "41.63445781984678"
    },
    {
      "id": "pt.ine.add.PTCONT.561919",
      "street": "R DR CARLOS MAGALHÃES",
      "house": "",
      "postcode": "4850-530",
      "city": "VIEIRA DO MINHO",
      "lon": "-8.146490111326257",
      "lat": "41.63521398955497"
    },
    {
      "id": "pt.ine.add.PTCONT.579095",
      "street": "R DR CARLOS MAGALHÃES",
      "house": "",
      "postcode": "4850-530",
      "city": "VIEIRA DO MINHO",
      "lon": "-8.146658152503246",
      "lat": "41.635304006257805"
    },
    {
      "id": "pt.ine.add.PTCONT.608633",
      "street": "AV IMACULADA CONCEIÇÃO",
      "house": "86",
      "postcode": "4850-522",
      "city": "VIEIRA DO MINHO",
      "lon": "-8.145505977140399",
      "lat": "41.6351960926278"
    },
    {
      "id": "pt.ine.add.PTCONT.608634",
      "street": "AV IMACULADA CONCEIÇÃO",
      "house": "86",
      "postcode": "4850-522",
      "city": "VIEIRA DO MINHO",
      "lon": "-8.145505977140399",
      "lat": "41.6351960926278"
    },
    {
      "id": "pt.ine.add.PTCONT.640827",
      "street": "R IRMAS AIRES",
      "house": "",
      "postcode": "4850-533",
      "city": "VIEIRA DO MINHO",
      "lon": "-8.14635815095119",
      "lat": "41.635493117636926"
    },
    {
      "id": "pt.ine.add.PTCONT.664812",
      "street": "AV IMACULADA CONCEIÇÃO",
      "house": "106",
      "postcode": "4850-522",
      "city": "VIEIRA DO MINHO",
      "lon": "-8.145421952294022",
      "lat": "41.63512407254794"
    },
    {
      "id": "pt.ine.add.PTCONT.664813",
      "street": "AV IMACULADA CONCEIÇÃO",
      "house": "106",
      "postcode": "4850-522",
      "city": "VIEIRA DO MINHO",
      "lon": "-8.145421952294022",
      "lat": "41.63512407254794"
    },
    {
      "id": "pt.ine.add.PTCONT.664814",
      "street": "AV IMACULADA CONCEIÇÃO",
      "house": "106",
      "postcode": "4850-522",
      "city": "VIEIRA DO MINHO",
      "lon": "-8.145421952294022",
      "lat": "41.63512407254794"
    },
    {
      "id": "pt.ine.add.PTCONT.664815",
      "street": "AV IMACULADA CONCEIÇÃO",
      "house": "106",
      "postcode": "4850-522",
      "city": "VIEIRA DO MINHO",
      "lon": "-8.145421952294022",
      "lat": "41.63512407254794"
    },
    {
      "id": "pt.ine.add.PTCONT.664816",
      "street": "AV IMACULADA CONCEIÇÃO",
      "house": "106",
      "postcode": "4850-522",
      "city": "VIEIRA DO MINHO",
      "lon": "-8.145421952294022",
      "lat": "41.63512407254794"
    },
    {
      "id": "pt.ine.add.PTCONT.664817",
      "street": "AV IMACULADA CONCEIÇÃO",
      "house": "86",
      "postcode": "4850-522",
      "city": "VIEIRA DO MINHO",
      "lon": "-8.145421952294022",
      "lat": "41.63512407254794"
    },
    {
      "id": "pt.ine.add.PTCONT.670898",
      "street": "AV IMACULADA CONCEIÇÃO",
      "house": "167",
      "postcode": "4850-522",
      "city": "VIEIRA DO MINHO",
      "lon": "-8.145085883115923",
      "lat": "41.634989053469866"
    },
    {
      "id": "pt.ine.add.PTCONT.687860",
      "street": "R FRANCISCO JOSE MIRANDA",
      "house": "163",
      "postcode": "4850-533",
      "city": "VIEIRA DO MINHO",
      "lon": "-8.145733981013638",
      "lat": "41.6350610132276"
    },
    {
      "id": "pt.ine.add.PTCONT.687886",
      "street": "R IRMAS AIRES",
      "house": "",
      "postcode": "4850-533",
      "city": "VIEIRA DO MINHO",
      "lon": "-8.14617810625195",
      "lat": "41.63539409822538"
    },
    {
      "id": "pt.ine.add.PTCONT.696754",
      "street": "R DR CARLOS MAGALHÃES",
      "house": "",
      "postcode": "4850-530",
      "city": "VIEIRA DO MINHO",
      "lon": "-8.145229864635663",
      "lat": "41.634790958312614"
    },
    {
      "id": "pt.ine.add.PTCONT.735539",
      "street": "R DR CARLOS MAGALHÃES",
      "house": "147",
      "postcode": "4850-530",
      "city": "VIEIRA DO MINHO",
      "lon": "-8.145926025690553",
      "lat": "41.63516003200313"
    },
    {
      "id": "pt.ine.add.PTCONT.742205",
      "street": "R DR CARLOS MAGALHÃES",
      "house": "",
      "postcode": "4850-530",
      "city": "VIEIRA DO MINHO",
      "lon": "-8.14652617773097",
      "lat": "41.63551110542367"
    },
    {
      "id": "pt.ine.add.PTCONT.746464",
      "street": "R DR CARLOS MAGALHÃES",
      "house": "133",
      "postcode": "4850-530",
      "city": "VIEIRA DO MINHO",
      "lon": "-8.146214071009418",
      "lat": "41.63519601407977"
    },
    {
      "id": "pt.ine.add.PTCONT.761204",
      "street": "",
      "house": "",
      "postcode": "4850-533",
      "city": "VIEIRA DO MINHO",
      "lon": "-8.146682184060847",
      "lat": "41.63543905800099"
    },
    {
      "id": "pt.ine.add.PTCONT.774543",
      "street": "R FRANCISCO JOSÉ DE MIRANDA",
      "house": "133",
      "postcode": "4850-533",
      "city": "VIEIRA DO MINHO",
      "lon": "-8.145337895297862",
      "lat": "41.63488098326439"
    },
    {
      "id": "pt.ine.add.PTCONT.797482",
      "street": "AV IMACULADA CONCEIÇÃO",
      "house": "170",
      "postcode": "4850-522",
      "city": "VIEIRA DO MINHO",
      "lon": "-8.144821796794186",
      "lat": "41.6347009642223"
    },
    {
      "id": "pt.ine.add.PTCONT.797574",
      "street": "AV IMACULADA CONCEIÇÃO",
      "house": "170",
      "postcode": "4850-522",
      "city": "VIEIRA DO MINHO",
      "lon": "-8.144821796794186",
      "lat": "41.6347009642223"
    },
    {
      "id": "pt.ine.add.PTCONT.799167",
      "street": "AV IMACULADA CONCEIÇÃO",
      "house": "170",
      "postcode": "4850-522",
      "city": "VIEIRA DO MINHO",
      "lon": "-8.144821796794186",
      "lat": "41.6347009642223"
    },
    {
      "id": "pt.ine.add.PTCONT.799177",
      "street": "AV IMACULADA CONCEIÇÃO",
      "house": "170",
      "postcode": "4850-522",
      "city": "VIEIRA DO MINHO",
      "lon": "-8.144821796794186",
      "lat": "41.6347009642223"
    },
    {
      "id": "pt.ine.add.PTCONT.841920",
      "street": "AV IMACULADA CONCEIÇÃO",
      "house": "106",
      "postcode": "4850-522",
      "city": "VIEIRA DO MINHO",
      "lon": "-8.145421952294022",
      "lat": "41.63512407254794"
    }
  ]
}