{
  "data": {
    "distrito": "Leiria",
    "concelho": "Batalha",
    "freguesia": "Batalha",
    "OBJECTID": 318,
    "BGRI2021": "10040100429",
    "DT21": "10",
    "DTMN21": "1004",
    "DTMNFR21": "100401",
    "DTMNFRSEC21": "100401004",
    "SECNUM21": "004",
    "SSNUM21": "29",
    "SECSSNUM21": "00429",
    "OBJECTID_1": 86568,
    "DT": "10",
    "CC": "04",
    "fr": "01",
    "SEC": "004",
    "SS": "29"
  },
  "addresses": [
    {
      "id": "pt.ine.add.PTCONT.1983903",
      "street": "R BOIÇAS",
      "house": "",
      "postcode": "2440-473",
      "city": "BATALHA",
      "lon": "-8.819604127061044",
      "lat": "39.66883235231483"
    },
    {
      "id": "pt.ine.add.PTCONT.1984482",
      "street": "R REBOLARIA",
      "house": "4",
      "postcode": "2440-012",
      "city": "BATALHA",
      "lon": "-8.817046743622315",
      "lat": "39.664767452567645"
    },
    {
      "id": "pt.ine.add.PTCONT.1990647",
      "street": "R BOIÇAS",
      "house": "73",
      "postcode": "2440-473",
      "city": "BATALHA",
      "lon": "-8.818110704731668",
      "lat": "39.66630131049628"
    },
    {
      "id": "pt.ine.add.PTCONT.2003820",
      "street": "R BOIÇAS",
      "house": "36",
      "postcode": "2440-473",
      "city": "BATALHA",
      "lon": "-8.81879559342253",
      "lat": "39.66956666293496"
    },
    {
      "id": "pt.ine.add.PTCONT.2003822",
      "street": "R BOIÇAS",
      "house": "435",
      "postcode": "2440-473",
      "city": "BATALHA",
      "lon": "-8.818015968433722",
      "lat": "39.66614875706384"
    },
    {
      "id": "pt.ine.add.PTCONT.2007799",
      "street": "R REBOLARIA",
      "house": "14",
      "postcode": "2440-012",
      "city": "BATALHA",
      "lon": "-8.81802673666828",
      "lat": "39.66487876306768"
    },
    {
      "id": "pt.ine.add.PTCONT.2027770",
      "street": "R BOIÇAS",
      "house": "69",
      "postcode": "2440-473",
      "city": "BATALHA",
      "lon": "-8.818184625671464",
      "lat": "39.66670617136602"
    },
    {
      "id": "pt.ine.add.PTCONT.2030024",
      "street": "R BOIÇAS",
      "house": "385",
      "postcode": "2440-473",
      "city": "BATALHA",
      "lon": "-8.818229281357244",
      "lat": "39.66650776279511"
    },
    {
      "id": "pt.ine.add.PTCONT.2036781",
      "street": "R BOIÇAS",
      "house": "",
      "postcode": "2440-473",
      "city": "BATALHA",
      "lon": "-8.81832473032468",
      "lat": "39.666732364615314"
    },
    {
      "id": "pt.ine.add.PTCONT.2040868",
      "street": "R PADRE DR LUIS HENRIQUES CUNHAL",
      "house": "5",
      "postcode": "2440-081",
      "city": "BATALHA",
      "lon": "-8.81669166453348",
      "lat": "39.66775973379932"
    },
    {
      "id": "pt.ine.add.PTCONT.2041494",
      "street": "R PORTELA",
      "house": "",
      "postcode": "2440-054",
      "city": "BATALHA",
      "lon": "-8.81893846469466",
      "lat": "39.66987204344551"
    },
    {
      "id": "pt.ine.add.PTCONT.2058846",
      "street": "R BOIÇAS",
      "house": "19",
      "postcode": "2440-473",
      "city": "BATALHA",
      "lon": "-8.81896370652784",
      "lat": "39.66771031184823"
    },
    {
      "id": "pt.ine.add.PTCONT.2060255",
      "street": "ESTR CRASTO",
      "house": "32",
      "postcode": "2440-012",
      "city": "BATALHA",
      "lon": "-8.818566682804345",
      "lat": "39.66527186790379"
    },
    {
      "id": "pt.ine.add.PTCONT.2065351",
      "street": "R BOIÇAS",
      "house": "35",
      "postcode": "2440-473",
      "city": "BATALHA",
      "lon": "-8.818888110073695",
      "lat": "39.669494063916176"
    },
    {
      "id": "pt.ine.add.PTCONT.2065844",
      "street": "R REBOLARIA",
      "house": "8",
      "postcode": "2440-012",
      "city": "BATALHA",
      "lon": "-8.81744249541992",
      "lat": "39.66472008831203"
    },
    {
      "id": "pt.ine.add.PTCONT.2067847",
      "street": "R VILA SALEME",
      "house": "8",
      "postcode": "2440-054",
      "city": "BATALHA",
      "lon": "-8.819354700126468",
      "lat": "39.66953634071544"
    },
    {
      "id": "pt.ine.add.PTCONT.2072304",
      "street": "R PADRE DR LUIS HENRIQUES CUNHAL",
      "house": "3",
      "postcode": "2440-081",
      "city": "BATALHA",
      "lon": "-8.816551380916428",
      "lat": "39.66771552644869"
    },
    {
      "id": "pt.ine.add.PTCONT.2074202",
      "street": "LG PADRE MESTRE ANTÓNIO RINO",
      "house": "1",
      "postcode": "2440-080",
      "city": "BATALHA",
      "lon": "-8.816316983914504",
      "lat": "39.66758180665169"
    },
    {
      "id": "pt.ine.add.PTCONT.2078586",
      "street": "ESTR CASTRO",
      "house": "30",
      "postcode": "2440-035",
      "city": "BATALHA",
      "lon": "-8.81849578658743",
      "lat": "39.665173213723904"
    },
    {
      "id": "pt.ine.add.PTCONT.2087016",
      "street": "R BOIÇAS",
      "house": "242",
      "postcode": "2440-473",
      "city": "BATALHA",
      "lon": "-8.818843166907808",
      "lat": "39.66730572683086"
    },
    {
      "id": "pt.ine.add.PTCONT.2113497",
      "street": "R BOIÇAS",
      "house": "",
      "postcode": "2440-473",
      "city": "BATALHA",
      "lon": "-8.818259259323753",
      "lat": "39.66600321645556"
    },
    {
      "id": "pt.ine.add.PTCONT.2124948",
      "street": "R ROSAS DO LENA",
      "house": "",
      "postcode": "2440-070",
      "city": "BATALHA",
      "lon": "-8.816502993048209",
      "lat": "39.667535679262755"
    },
    {
      "id": "pt.ine.add.PTCONT.2142406",
      "street": "R PRINCIPAL",
      "house": "12",
      "postcode": "2440-012",
      "city": "BATALHA",
      "lon": "-8.817839757847524",
      "lat": "39.66482582601031"
    },
    {
      "id": "pt.ine.add.PTCONT.2148255",
      "street": "R BOIÇAS",
      "house": "180",
      "postcode": "2440-473",
      "city": "BATALHA",
      "lon": "-8.819094921230333",
      "lat": "39.66801576110985"
    },
    {
      "id": "pt.ine.add.PTCONT.2148817",
      "street": "R PADRE DR LUIS HENRIQUES CUNHAL",
      "house": "7",
      "postcode": "2440-081",
      "city": "BATALHA",
      "lon": "-8.816785512519614",
      "lat": "39.667822227541095"
    },
    {
      "id": "pt.ine.add.PTCONT.2161372",
      "street": "R BOIÇAS",
      "house": "6",
      "postcode": "2440-473",
      "city": "BATALHA",
      "lon": "-8.818366182803452",
      "lat": "39.66620973737223"
    },
    {
      "id": "pt.ine.add.PTCONT.2161373",
      "street": "R BOIÇAS",
      "house": "423",
      "postcode": "2440-473",
      "city": "BATALHA",
      "lon": "-8.818063203139282",
      "lat": "39.66621152468016"
    },
    {
      "id": "pt.ine.add.PTCONT.2165827",
      "street": "R BOIÇAS",
      "house": "72",
      "postcode": "2440-473",
      "city": "BATALHA",
      "lon": "-8.818158117508329",
      "lat": "39.66638209021731"
    },
    {
      "id": "pt.ine.add.PTCONT.2166388",
      "street": "R ESCOLA",
      "house": "",
      "postcode": "2440-078",
      "city": "BATALHA",
      "lon": "-8.816992875187374",
      "lat": "39.66757782854326"
    },
    {
      "id": "pt.ine.add.PTCONT.2168552",
      "street": "R ROSAS DO LENA",
      "house": "32",
      "postcode": "2440-070",
      "city": "BATALHA",
      "lon": "-8.816710914875937",
      "lat": "39.66616545273719"
    },
    {
      "id": "pt.ine.add.PTCONT.2170135",
      "street": "R BOIÇAS",
      "house": "140",
      "postcode": "2440-473",
      "city": "BATALHA",
      "lon": "-8.819213503775366",
      "lat": "39.66822221229253"
    },
    {
      "id": "pt.ine.add.PTCONT.2170711",
      "street": "R ESCOLA",
      "house": "6",
      "postcode": "2440-078",
      "city": "BATALHA",
      "lon": "-8.816865399130418",
      "lat": "39.66765063190426"
    },
    {
      "id": "pt.ine.add.PTCONT.2174014",
      "street": "URB BOICAS",
      "house": "300",
      "postcode": "2440-473",
      "city": "BATALHA",
      "lon": "-8.818699233356641",
      "lat": "39.66689227316357"
    },
    {
      "id": "pt.ine.add.PTCONT.2179257",
      "street": "R REBOLARIA",
      "house": "",
      "postcode": "2440-012",
      "city": "BATALHA",
      "lon": "-8.81829510780742",
      "lat": "39.66491320645716"
    },
    {
      "id": "pt.ine.add.PTCONT.2180915",
      "street": "R BOIÇAS",
      "house": "34",
      "postcode": "2440-473",
      "city": "BATALHA",
      "lon": "-8.818992280132726",
      "lat": "39.66942139599977"
    },
    {
      "id": "pt.ine.add.PTCONT.2182290",
      "street": "ESTR CASTRO",
      "house": "28",
      "postcode": "2440-012",
      "city": "BATALHA",
      "lon": "-8.818424712632497",
      "lat": "39.66505654734783"
    },
    {
      "id": "pt.ine.add.PTCONT.2187561",
      "street": "R BOIÇAS",
      "house": "7",
      "postcode": "2440-473",
      "city": "BATALHA",
      "lon": "-8.818520520204341",
      "lat": "39.666497037744826"
    },
    {
      "id": "pt.ine.add.PTCONT.2198972",
      "street": "R BOIÇAS",
      "house": "8",
      "postcode": "2440-473",
      "city": "BATALHA",
      "lon": "-8.818556369460467",
      "lat": "39.66658689214071"
    },
    {
      "id": "pt.ine.add.PTCONT.2212412",
      "street": "R BOIÇAS",
      "house": "287",
      "postcode": "2440-473",
      "city": "BATALHA",
      "lon": "-8.818830445299323",
      "lat": "39.667197722790235"
    },
    {
      "id": "pt.ine.add.PTCONT.2214508",
      "street": "R PRINCIPAL",
      "house": "6",
      "postcode": "2440-012",
      "city": "BATALHA",
      "lon": "-8.817232211846658",
      "lat": "39.66466728759106"
    },
    {
      "id": "pt.ine.add.PTCONT.2216779",
      "street": "R VILA ROMANA",
      "house": "40",
      "postcode": "2440-473",
      "city": "BATALHA",
      "lon": "-8.818068005266863",
      "lat": "39.66669785263774"
    },
    {
      "id": "pt.ine.add.PTCONT.2219450",
      "street": "R ROSAS DO LENA",
      "house": "28",
      "postcode": "2440-070",
      "city": "BATALHA",
      "lon": "-8.816547032916299",
      "lat": "39.66727422879704"
    },
    {
      "id": "pt.ine.add.PTCONT.2235945",
      "street": "R DAS BOIÇAS",
      "house": "322",
      "postcode": "2440-058",
      "city": "BATALHA",
      "lon": "-8.81886436225784",
      "lat": "39.66723196825222"
    },
    {
      "id": "pt.ine.add.PTCONT.2238806",
      "street": "R REBOLARIA",
      "house": "2",
      "postcode": "2440-012",
      "city": "BATALHA",
      "lon": "-8.816908507638628",
      "lat": "39.66493038536714"
    },
    {
      "id": "pt.ine.add.PTCONT.2245010",
      "street": "R BOIÇAS",
      "house": "",
      "postcode": "2440-473",
      "city": "BATALHA",
      "lon": "-8.818307205814994",
      "lat": "39.66613803256051"
    },
    {
      "id": "pt.ine.add.PTCONT.2247245",
      "street": "R BOIÇAS",
      "house": "86",
      "postcode": "2440-473",
      "city": "BATALHA",
      "lon": "-8.819455750624273",
      "lat": "39.66914846006668"
    },
    {
      "id": "pt.ine.add.PTCONT.2260722",
      "street": "R BOIÇAS",
      "house": "9",
      "postcode": "2440-473",
      "city": "BATALHA",
      "lon": "-8.818627267236879",
      "lat": "39.6666855462465"
    },
    {
      "id": "pt.ine.add.PTCONT.2262477",
      "street": "R BOIÇAS",
      "house": "122",
      "postcode": "2440-473",
      "city": "BATALHA",
      "lon": "-8.819509740450112",
      "lat": "39.668715824493304"
    }
  ]
}