{
  "data": {
    "distrito": "Porto",
    "concelho": "Porto",
    "freguesia": "Uni√£o das freguesias de Aldoar, Foz do Douro e Nevogilde",
    "OBJECTID": 1086,
    "BGRI2021": "13121602215",
    "DT21": "13",
    "DTMN21": "1312",
    "DTMNFR21": "131216",
    "DTMNFRSEC21": "131216022",
    "SECNUM21": "022",
    "SSNUM21": "15",
    "SECSSNUM21": "02215",
    "OBJECTID_1": 139289,
    "DT": "13",
    "CC": "12",
    "fr": "16",
    "SEC": "022",
    "SS": "15"
  },
  "addresses": [
    {
      "id": "pt.ine.add.PTCONT.3606952",
      "street": "R PRAZERES",
      "house": "8",
      "postcode": "4150-625",
      "city": "PORTO",
      "lon": "-8.667352626419508",
      "lat": "41.1511354208812"
    },
    {
      "id": "pt.ine.add.PTCONT.3651835",
      "street": "R QUINTA",
      "house": "666",
      "postcode": "4150-628",
      "city": "PORTO",
      "lon": "-8.665585515798098",
      "lat": "41.15063935967861"
    },
    {
      "id": "pt.ine.add.PTCONT.3660302",
      "street": "R QUINTA",
      "house": "780",
      "postcode": "4150-628",
      "city": "PORTO",
      "lon": "-8.667028143513065",
      "lat": "41.15078575586316"
    },
    {
      "id": "pt.ine.add.PTCONT.3671431",
      "street": "R QUINTA",
      "house": "736",
      "postcode": "4150-628",
      "city": "PORTO",
      "lon": "-8.666444367523908",
      "lat": "41.150779455905024"
    },
    {
      "id": "pt.ine.add.PTCONT.3671432",
      "street": "R QUINTA",
      "house": "736",
      "postcode": "4150-628",
      "city": "PORTO",
      "lon": "-8.666444367523908",
      "lat": "41.150779455905024"
    },
    {
      "id": "pt.ine.add.PTCONT.3705160",
      "street": "R QUINTA",
      "house": "722",
      "postcode": "4150-628",
      "city": "PORTO",
      "lon": "-8.666336791997834",
      "lat": "41.15073493220217"
    },
    {
      "id": "pt.ine.add.PTCONT.3706900",
      "street": "R QUINTA",
      "house": "722",
      "postcode": "4150-628",
      "city": "PORTO",
      "lon": "-8.666336791997834",
      "lat": "41.15073493220217"
    },
    {
      "id": "pt.ine.add.PTCONT.3723649",
      "street": "R DIOGO BOTELHO",
      "house": "12",
      "postcode": "4150-266",
      "city": "PORTO",
      "lon": "-8.667282467740858",
      "lat": "41.15129782447058"
    },
    {
      "id": "pt.ine.add.PTCONT.3765714",
      "street": "R QUINTA",
      "house": "694",
      "postcode": "4150-628",
      "city": "PORTO",
      "lon": "-8.665871993683341",
      "lat": "41.15071006982705"
    },
    {
      "id": "pt.ine.add.PTCONT.3774007",
      "street": "R QUINTA",
      "house": "678",
      "postcode": "4150-628",
      "city": "PORTO",
      "lon": "-8.66571684237646",
      "lat": "41.150674769922226"
    },
    {
      "id": "pt.ine.add.PTCONT.3808958",
      "street": "R QUINTA",
      "house": "720",
      "postcode": "4150-628",
      "city": "PORTO",
      "lon": "-8.666241785380416",
      "lat": "41.150771389344804"
    },
    {
      "id": "pt.ine.add.PTCONT.3810439",
      "street": "R QUINTA",
      "house": "720",
      "postcode": "4150-628",
      "city": "PORTO",
      "lon": "-8.666241785380416",
      "lat": "41.150771389344804"
    },
    {
      "id": "pt.ine.add.PTCONT.3812223",
      "street": "R PRAZERES",
      "house": "10",
      "postcode": "4150-625",
      "city": "PORTO",
      "lon": "-8.667329605689462",
      "lat": "41.15123457544865"
    },
    {
      "id": "pt.ine.add.PTCONT.3861801",
      "street": "R QUINTA",
      "house": "808",
      "postcode": "4150-628",
      "city": "PORTO",
      "lon": "-8.667208143427974",
      "lat": "41.15094699963189"
    },
    {
      "id": "pt.ine.add.PTCONT.3964218",
      "street": "R QUINTA",
      "house": "646",
      "postcode": "4150-628",
      "city": "PORTO",
      "lon": "-8.665371240361043",
      "lat": "41.1506583586793"
    },
    {
      "id": "pt.ine.add.PTCONT.3994168",
      "street": "R QUINTA",
      "house": "734",
      "postcode": "4150-628",
      "city": "PORTO",
      "lon": "-8.66641988621828",
      "lat": "41.150698530134136"
    },
    {
      "id": "pt.ine.add.PTCONT.4017735",
      "street": "R QUINTA",
      "house": "634",
      "postcode": "4150-628",
      "city": "PORTO",
      "lon": "-8.665251243831095",
      "lat": "41.15055086092538"
    },
    {
      "id": "pt.ine.add.PTCONT.4186869",
      "street": "R QUINTA",
      "house": "680",
      "postcode": "4150-628",
      "city": "PORTO",
      "lon": "-8.665812140680748",
      "lat": "41.15067432924958"
    },
    {
      "id": "pt.ine.add.PTCONT.4208256",
      "street": "R MONTEBELO",
      "house": "142",
      "postcode": "4150-512",
      "city": "PORTO",
      "lon": "-8.667339910030432",
      "lat": "41.1510364320556"
    },
    {
      "id": "pt.ine.add.PTCONT.4208434",
      "street": "R MONTEBELO",
      "house": "142 CASA 2",
      "postcode": "4150-512",
      "city": "PORTO",
      "lon": "-8.667339910030432",
      "lat": "41.1510364320556"
    },
    {
      "id": "pt.ine.add.PTCONT.4335909",
      "street": "R QUINTA",
      "house": "716",
      "postcode": "4150-628",
      "city": "PORTO",
      "lon": "-8.666134355856412",
      "lat": "41.15074487346985"
    },
    {
      "id": "pt.ine.add.PTCONT.4338564",
      "street": "R QUINTA",
      "house": "716",
      "postcode": "4150-628",
      "city": "PORTO",
      "lon": "-8.666134355856412",
      "lat": "41.15074487346985"
    },
    {
      "id": "pt.ine.add.PTCONT.4368006",
      "street": "R QUINTA",
      "house": "818",
      "postcode": "4150-628",
      "city": "PORTO",
      "lon": "-8.667279982855728",
      "lat": "41.1509916882426"
    },
    {
      "id": "pt.ine.add.PTCONT.4368007",
      "street": "R QUINTA",
      "house": "818",
      "postcode": "4150-628",
      "city": "PORTO",
      "lon": "-8.667279982855728",
      "lat": "41.1509916882426"
    },
    {
      "id": "pt.ine.add.PTCONT.4368008",
      "street": "R QUINTA",
      "house": "818 CASA 3",
      "postcode": "4150-628",
      "city": "PORTO",
      "lon": "-8.667279982855728",
      "lat": "41.1509916882426"
    }
  ]
}