{
  "data": {
    "distrito": "Porto",
    "concelho": "Vila do Conde",
    "freguesia": "Vila do Conde",
    "OBJECTID": 529,
    "BGRI2021": "13162802605",
    "DT21": "13",
    "DTMN21": "1316",
    "DTMNFR21": "131628",
    "DTMNFRSEC21": "131628026",
    "SECNUM21": "026",
    "SSNUM21": "05",
    "SECSSNUM21": "02605",
    "OBJECTID_1": 143217,
    "DT": "13",
    "CC": "16",
    "fr": "28",
    "SEC": "026",
    "SS": "05"
  },
  "addresses": [
    {
      "id": "pt.ine.add.PTCONT.3542054",
      "street": "R ALEGRIA",
      "house": "396",
      "postcode": "4480-743",
      "city": "VILA DO CONDE",
      "lon": "-8.758738971808869",
      "lat": "41.371529246631134"
    },
    {
      "id": "pt.ine.add.PTCONT.3620271",
      "street": "R ALEGRIA",
      "house": "510",
      "postcode": "4480-743",
      "city": "VILA DO CONDE",
      "lon": "-8.759023540452633",
      "lat": "41.372536145291974"
    },
    {
      "id": "pt.ine.add.PTCONT.3620272",
      "street": "R ALEGRIA",
      "house": "510",
      "postcode": "4480-743",
      "city": "VILA DO CONDE",
      "lon": "-8.759023540452633",
      "lat": "41.372536145291974"
    },
    {
      "id": "pt.ine.add.PTCONT.3620273",
      "street": "R ALEGRIA",
      "house": "510",
      "postcode": "4480-743",
      "city": "VILA DO CONDE",
      "lon": "-8.759023540452633",
      "lat": "41.372536145291974"
    },
    {
      "id": "pt.ine.add.PTCONT.3620274",
      "street": "R ALEGRIA",
      "house": "510",
      "postcode": "4480-743",
      "city": "VILA DO CONDE",
      "lon": "-8.759023540452633",
      "lat": "41.372536145291974"
    },
    {
      "id": "pt.ine.add.PTCONT.3621960",
      "street": "R ALEGRIA",
      "house": "510",
      "postcode": "4480-743",
      "city": "VILA DO CONDE",
      "lon": "-8.759023540452633",
      "lat": "41.372536145291974"
    },
    {
      "id": "pt.ine.add.PTCONT.3622113",
      "street": "R ALEGRIA",
      "house": "510",
      "postcode": "4480-743",
      "city": "VILA DO CONDE",
      "lon": "-8.759023540452633",
      "lat": "41.372536145291974"
    },
    {
      "id": "pt.ine.add.PTCONT.3633726",
      "street": "R ALEGRIA",
      "house": "418",
      "postcode": "4480-743",
      "city": "VILA DO CONDE",
      "lon": "-8.758895559575201",
      "lat": "41.371654450980145"
    },
    {
      "id": "pt.ine.add.PTCONT.3640415",
      "street": "R VIOLETAS",
      "house": "",
      "postcode": "4480-775",
      "city": "VILA DO CONDE",
      "lon": "-8.757953911355036",
      "lat": "41.371929687383314"
    },
    {
      "id": "pt.ine.add.PTCONT.3640416",
      "street": "R VIOLETAS",
      "house": "",
      "postcode": "4480-775",
      "city": "VILA DO CONDE",
      "lon": "-8.757953911355036",
      "lat": "41.371929687383314"
    },
    {
      "id": "pt.ine.add.PTCONT.3640417",
      "street": "R VIOLETAS",
      "house": "",
      "postcode": "4480-775",
      "city": "VILA DO CONDE",
      "lon": "-8.757953911355036",
      "lat": "41.371929687383314"
    },
    {
      "id": "pt.ine.add.PTCONT.3640418",
      "street": "R VIOLETAS",
      "house": "",
      "postcode": "4480-775",
      "city": "VILA DO CONDE",
      "lon": "-8.757953911355036",
      "lat": "41.371929687383314"
    },
    {
      "id": "pt.ine.add.PTCONT.3640419",
      "street": "R VIOLETAS",
      "house": "",
      "postcode": "4480-775",
      "city": "VILA DO CONDE",
      "lon": "-8.757953911355036",
      "lat": "41.371929687383314"
    },
    {
      "id": "pt.ine.add.PTCONT.3640420",
      "street": "R VIOLETAS",
      "house": "",
      "postcode": "4480-775",
      "city": "VILA DO CONDE",
      "lon": "-8.757953911355036",
      "lat": "41.371929687383314"
    },
    {
      "id": "pt.ine.add.PTCONT.3640421",
      "street": "R VIOLETAS",
      "house": "",
      "postcode": "4480-775",
      "city": "VILA DO CONDE",
      "lon": "-8.757953911355036",
      "lat": "41.371929687383314"
    },
    {
      "id": "pt.ine.add.PTCONT.3640422",
      "street": "R VIOLETAS",
      "house": "",
      "postcode": "4480-775",
      "city": "VILA DO CONDE",
      "lon": "-8.757953911355036",
      "lat": "41.371929687383314"
    },
    {
      "id": "pt.ine.add.PTCONT.3659019",
      "street": "R ALEGRIA",
      "house": "494",
      "postcode": "4480-743",
      "city": "VILA DO CONDE",
      "lon": "-8.758985266630292",
      "lat": "41.372284241949004"
    },
    {
      "id": "pt.ine.add.PTCONT.3664519",
      "street": "R ALEGRIA",
      "house": "152",
      "postcode": "4480-743",
      "city": "VILA DO CONDE",
      "lon": "-8.758808701284138",
      "lat": "41.37132177587409"
    },
    {
      "id": "pt.ine.add.PTCONT.3664520",
      "street": "R DALIAS",
      "house": "152",
      "postcode": "4480-767",
      "city": "VILA DO CONDE",
      "lon": "-8.758808701284138",
      "lat": "41.37132177587409"
    },
    {
      "id": "pt.ine.add.PTCONT.3664521",
      "street": "R DALIAS",
      "house": "152",
      "postcode": "4480-767",
      "city": "VILA DO CONDE",
      "lon": "-8.758808701284138",
      "lat": "41.37132177587409"
    },
    {
      "id": "pt.ine.add.PTCONT.3664522",
      "street": "R DALIAS",
      "house": "152",
      "postcode": "4480-767",
      "city": "VILA DO CONDE",
      "lon": "-8.758808701284138",
      "lat": "41.37132177587409"
    },
    {
      "id": "pt.ine.add.PTCONT.3664523",
      "street": "R DALIAS",
      "house": "152",
      "postcode": "4480-767",
      "city": "VILA DO CONDE",
      "lon": "-8.758808701284138",
      "lat": "41.37132177587409"
    },
    {
      "id": "pt.ine.add.PTCONT.3664524",
      "street": "R DALIAS",
      "house": "152",
      "postcode": "4480-767",
      "city": "VILA DO CONDE",
      "lon": "-8.758808701284138",
      "lat": "41.37132177587409"
    },
    {
      "id": "pt.ine.add.PTCONT.3664525",
      "street": "R DALIAS",
      "house": "152",
      "postcode": "4480-767",
      "city": "VILA DO CONDE",
      "lon": "-8.758808701284138",
      "lat": "41.37132177587409"
    },
    {
      "id": "pt.ine.add.PTCONT.3664526",
      "street": "R DALIAS",
      "house": "152",
      "postcode": "4480-767",
      "city": "VILA DO CONDE",
      "lon": "-8.758808701284138",
      "lat": "41.37132177587409"
    },
    {
      "id": "pt.ine.add.PTCONT.3664688",
      "street": "R ALEGRIA",
      "house": "152",
      "postcode": "4480-743",
      "city": "VILA DO CONDE",
      "lon": "-8.758808701284138",
      "lat": "41.37132177587409"
    },
    {
      "id": "pt.ine.add.PTCONT.3664689",
      "street": "R DALIAS",
      "house": "152",
      "postcode": "4480-767",
      "city": "VILA DO CONDE",
      "lon": "-8.758808701284138",
      "lat": "41.37132177587409"
    },
    {
      "id": "pt.ine.add.PTCONT.3664690",
      "street": "R DALIAS",
      "house": "152",
      "postcode": "4480-767",
      "city": "VILA DO CONDE",
      "lon": "-8.758808701284138",
      "lat": "41.37132177587409"
    },
    {
      "id": "pt.ine.add.PTCONT.3672483",
      "street": "R VIOLETAS",
      "house": "719",
      "postcode": "4480-775",
      "city": "VILA DO CONDE",
      "lon": "-8.758302943677137",
      "lat": "41.37217990318417"
    },
    {
      "id": "pt.ine.add.PTCONT.3672484",
      "street": "R VIOLETAS E",
      "house": "E2",
      "postcode": "4480-775",
      "city": "VILA DO CONDE",
      "lon": "-8.758302943677137",
      "lat": "41.37217990318417"
    },
    {
      "id": "pt.ine.add.PTCONT.3672485",
      "street": "R VIOLETAS",
      "house": "719 2 EN",
      "postcode": "4480-775",
      "city": "VILA DO CONDE",
      "lon": "-8.758302943677137",
      "lat": "41.37217990318417"
    },
    {
      "id": "pt.ine.add.PTCONT.3672486",
      "street": "R VIOLETAS",
      "house": "719",
      "postcode": "4480-775",
      "city": "VILA DO CONDE",
      "lon": "-8.758302943677137",
      "lat": "41.37217990318417"
    },
    {
      "id": "pt.ine.add.PTCONT.3672487",
      "street": "R VIOLETAS",
      "house": "719",
      "postcode": "4480-775",
      "city": "VILA DO CONDE",
      "lon": "-8.758302943677137",
      "lat": "41.37217990318417"
    },
    {
      "id": "pt.ine.add.PTCONT.3672488",
      "street": "R VIOLETAS",
      "house": "719 2",
      "postcode": "4480-775",
      "city": "VILA DO CONDE",
      "lon": "-8.758302943677137",
      "lat": "41.37217990318417"
    },
    {
      "id": "pt.ine.add.PTCONT.3672489",
      "street": "R VIOLETAS",
      "house": "719",
      "postcode": "4480-775",
      "city": "VILA DO CONDE",
      "lon": "-8.758302943677137",
      "lat": "41.37217990318417"
    },
    {
      "id": "pt.ine.add.PTCONT.3673943",
      "street": "R VIOLETAS",
      "house": "719",
      "postcode": "4480-775",
      "city": "VILA DO CONDE",
      "lon": "-8.758302943677137",
      "lat": "41.37217990318417"
    },
    {
      "id": "pt.ine.add.PTCONT.3680896",
      "street": "R DALIAS",
      "house": "",
      "postcode": "4480-767",
      "city": "VILA DO CONDE",
      "lon": "-8.757841860765282",
      "lat": "41.371462088579804"
    },
    {
      "id": "pt.ine.add.PTCONT.3680897",
      "street": "R DALIAS",
      "house": "",
      "postcode": "4480-767",
      "city": "VILA DO CONDE",
      "lon": "-8.757841860765282",
      "lat": "41.371462088579804"
    },
    {
      "id": "pt.ine.add.PTCONT.3680898",
      "street": "R DALIAS",
      "house": "",
      "postcode": "4480-767",
      "city": "VILA DO CONDE",
      "lon": "-8.757841860765282",
      "lat": "41.371462088579804"
    },
    {
      "id": "pt.ine.add.PTCONT.3680899",
      "street": "R DALIAS",
      "house": "",
      "postcode": "4480-767",
      "city": "VILA DO CONDE",
      "lon": "-8.757841860765282",
      "lat": "41.371462088579804"
    },
    {
      "id": "pt.ine.add.PTCONT.3680900",
      "street": "R DALIAS",
      "house": "",
      "postcode": "4480-767",
      "city": "VILA DO CONDE",
      "lon": "-8.757841860765282",
      "lat": "41.371462088579804"
    },
    {
      "id": "pt.ine.add.PTCONT.3680901",
      "street": "R DALIAS",
      "house": "",
      "postcode": "4480-767",
      "city": "VILA DO CONDE",
      "lon": "-8.757841860765282",
      "lat": "41.371462088579804"
    },
    {
      "id": "pt.ine.add.PTCONT.3680909",
      "street": "R DALIAS",
      "house": "",
      "postcode": "4480-767",
      "city": "VILA DO CONDE",
      "lon": "-8.757841860765282",
      "lat": "41.371462088579804"
    },
    {
      "id": "pt.ine.add.PTCONT.3680990",
      "street": "R DALIAS",
      "house": "",
      "postcode": "4480-767",
      "city": "VILA DO CONDE",
      "lon": "-8.757841860765282",
      "lat": "41.371462088579804"
    },
    {
      "id": "pt.ine.add.PTCONT.3691397",
      "street": "R VIOLETAS",
      "house": "",
      "postcode": "4480-775",
      "city": "VILA DO CONDE",
      "lon": "-8.758073004150523",
      "lat": "41.371884020743316"
    },
    {
      "id": "pt.ine.add.PTCONT.3691374",
      "street": "R VIOLETAS",
      "house": "719",
      "postcode": "4480-775",
      "city": "VILA DO CONDE",
      "lon": "-8.75842212289954",
      "lat": "41.37214323969815"
    },
    {
      "id": "pt.ine.add.PTCONT.3691375",
      "street": "R VIOLETAS",
      "house": "719",
      "postcode": "4480-775",
      "city": "VILA DO CONDE",
      "lon": "-8.75842212289954",
      "lat": "41.37214323969815"
    },
    {
      "id": "pt.ine.add.PTCONT.3691376",
      "street": "R VIOLETAS",
      "house": "719",
      "postcode": "4480-775",
      "city": "VILA DO CONDE",
      "lon": "-8.75842212289954",
      "lat": "41.37214323969815"
    },
    {
      "id": "pt.ine.add.PTCONT.3691377",
      "street": "R VIOLETAS",
      "house": "719",
      "postcode": "4480-775",
      "city": "VILA DO CONDE",
      "lon": "-8.75842212289954",
      "lat": "41.37214323969815"
    },
    {
      "id": "pt.ine.add.PTCONT.3691378",
      "street": "R VIOLETAS",
      "house": "719",
      "postcode": "4480-775",
      "city": "VILA DO CONDE",
      "lon": "-8.75842212289954",
      "lat": "41.37214323969815"
    },
    {
      "id": "pt.ine.add.PTCONT.3691382",
      "street": "R VIOLETAS",
      "house": "1",
      "postcode": "4480-775",
      "city": "VILA DO CONDE",
      "lon": "-8.75842212289954",
      "lat": "41.37214323969815"
    },
    {
      "id": "pt.ine.add.PTCONT.3691383",
      "street": "R VIOLETAS",
      "house": "719",
      "postcode": "4480-775",
      "city": "VILA DO CONDE",
      "lon": "-8.75842212289954",
      "lat": "41.37214323969815"
    },
    {
      "id": "pt.ine.add.PTCONT.3691384",
      "street": "R VIOLETAS",
      "house": "719",
      "postcode": "4480-775",
      "city": "VILA DO CONDE",
      "lon": "-8.75842212289954",
      "lat": "41.37214323969815"
    },
    {
      "id": "pt.ine.add.PTCONT.3691385",
      "street": "R VIOLETAS",
      "house": "719",
      "postcode": "4480-775",
      "city": "VILA DO CONDE",
      "lon": "-8.75842212289954",
      "lat": "41.37214323969815"
    },
    {
      "id": "pt.ine.add.PTCONT.3691386",
      "street": "R VIOLETAS",
      "house": "719",
      "postcode": "4480-775",
      "city": "VILA DO CONDE",
      "lon": "-8.75842212289954",
      "lat": "41.37214323969815"
    },
    {
      "id": "pt.ine.add.PTCONT.3691387",
      "street": "R VIOLETAS",
      "house": "",
      "postcode": "4480-775",
      "city": "VILA DO CONDE",
      "lon": "-8.758073004150523",
      "lat": "41.371884020743316"
    },
    {
      "id": "pt.ine.add.PTCONT.3691393",
      "street": "R VIOLETAS",
      "house": "",
      "postcode": "4480-775",
      "city": "VILA DO CONDE",
      "lon": "-8.758073004150523",
      "lat": "41.371884020743316"
    },
    {
      "id": "pt.ine.add.PTCONT.3691394",
      "street": "R VIOLETAS",
      "house": "",
      "postcode": "4480-775",
      "city": "VILA DO CONDE",
      "lon": "-8.758073004150523",
      "lat": "41.371884020743316"
    },
    {
      "id": "pt.ine.add.PTCONT.3691395",
      "street": "R VIOLETAS",
      "house": "",
      "postcode": "4480-775",
      "city": "VILA DO CONDE",
      "lon": "-8.758073004150523",
      "lat": "41.371884020743316"
    },
    {
      "id": "pt.ine.add.PTCONT.3691396",
      "street": "R VIOLETAS",
      "house": "",
      "postcode": "4480-775",
      "city": "VILA DO CONDE",
      "lon": "-8.758073004150523",
      "lat": "41.371884020743316"
    },
    {
      "id": "pt.ine.add.PTCONT.3691398",
      "street": "R VIOLETAS",
      "house": "",
      "postcode": "4480-775",
      "city": "VILA DO CONDE",
      "lon": "-8.758073004150523",
      "lat": "41.371884020743316"
    },
    {
      "id": "pt.ine.add.PTCONT.3691399",
      "street": "R VIOLETAS",
      "house": "",
      "postcode": "4480-775",
      "city": "VILA DO CONDE",
      "lon": "-8.758073004150523",
      "lat": "41.371884020743316"
    },
    {
      "id": "pt.ine.add.PTCONT.3691479",
      "street": "R ALEGRIA",
      "house": "482",
      "postcode": "4480-743",
      "city": "VILA DO CONDE",
      "lon": "-8.758972278631564",
      "lat": "41.37217626479246"
    },
    {
      "id": "pt.ine.add.PTCONT.3693170",
      "street": "R VIOLETAS",
      "house": "719",
      "postcode": "4480-775",
      "city": "VILA DO CONDE",
      "lon": "-8.75842212289954",
      "lat": "41.37214323969815"
    },
    {
      "id": "pt.ine.add.PTCONT.3731227",
      "street": "R VIOLETAS ENTRADA 4",
      "house": "719",
      "postcode": "4480-775",
      "city": "VILA DO CONDE",
      "lon": "-8.758040766146063",
      "lat": "41.37226236312441"
    },
    {
      "id": "pt.ine.add.PTCONT.3731236",
      "street": "R VIOLETAS ENTRADA 4",
      "house": "719",
      "postcode": "4480-775",
      "city": "VILA DO CONDE",
      "lon": "-8.758040766146063",
      "lat": "41.37226236312441"
    },
    {
      "id": "pt.ine.add.PTCONT.3731237",
      "street": "R VIOLETAS ENTRADA 4",
      "house": "719",
      "postcode": "4480-775",
      "city": "VILA DO CONDE",
      "lon": "-8.758040766146063",
      "lat": "41.37226236312441"
    },
    {
      "id": "pt.ine.add.PTCONT.3731238",
      "street": "R VIOLETAS ENTRADA 4",
      "house": "719",
      "postcode": "4480-775",
      "city": "VILA DO CONDE",
      "lon": "-8.758040766146063",
      "lat": "41.37226236312441"
    },
    {
      "id": "pt.ine.add.PTCONT.3731239",
      "street": "R VIOLETAS",
      "house": "719 BL 4",
      "postcode": "4480-775",
      "city": "VILA DO CONDE",
      "lon": "-8.758040766146063",
      "lat": "41.37226236312441"
    },
    {
      "id": "pt.ine.add.PTCONT.3731240",
      "street": "R VIOLETAS ENTRADA 4",
      "house": "719",
      "postcode": "4480-775",
      "city": "VILA DO CONDE",
      "lon": "-8.758040766146063",
      "lat": "41.37226236312441"
    },
    {
      "id": "pt.ine.add.PTCONT.3731241",
      "street": "R VIOLETAS ENTRADA 4",
      "house": "719",
      "postcode": "4480-775",
      "city": "VILA DO CONDE",
      "lon": "-8.758040766146063",
      "lat": "41.37226236312441"
    },
    {
      "id": "pt.ine.add.PTCONT.3731242",
      "street": "R VIOLETAS ENTRADA 4",
      "house": "719",
      "postcode": "4480-775",
      "city": "VILA DO CONDE",
      "lon": "-8.758040766146063",
      "lat": "41.37226236312441"
    },
    {
      "id": "pt.ine.add.PTCONT.3731243",
      "street": "R VIOLETAS ENTRADA 4",
      "house": "719",
      "postcode": "4480-775",
      "city": "VILA DO CONDE",
      "lon": "-8.758040766146063",
      "lat": "41.37226236312441"
    },
    {
      "id": "pt.ine.add.PTCONT.3731244",
      "street": "R VIOLETAS ENTRADA 4",
      "house": "719",
      "postcode": "4480-775",
      "city": "VILA DO CONDE",
      "lon": "-8.758040766146063",
      "lat": "41.37226236312441"
    },
    {
      "id": "pt.ine.add.PTCONT.3731245",
      "street": "R VIOLETAS",
      "house": "4E",
      "postcode": "4480-775",
      "city": "VILA DO CONDE",
      "lon": "-8.758040766146063",
      "lat": "41.37226236312441"
    },
    {
      "id": "pt.ine.add.PTCONT.3732646",
      "street": "R VIOLETAS ENTRADA 4",
      "house": "719",
      "postcode": "4480-775",
      "city": "VILA DO CONDE",
      "lon": "-8.758040766146063",
      "lat": "41.37226236312441"
    },
    {
      "id": "pt.ine.add.PTCONT.3740070",
      "street": "R VIOLETAS",
      "house": "721",
      "postcode": "4480-775",
      "city": "VILA DO CONDE",
      "lon": "-8.75816382405272",
      "lat": "41.3726308580701"
    },
    {
      "id": "pt.ine.add.PTCONT.3740071",
      "street": "R VIOLETAS",
      "house": "721",
      "postcode": "4480-775",
      "city": "VILA DO CONDE",
      "lon": "-8.75816382405272",
      "lat": "41.3726308580701"
    },
    {
      "id": "pt.ine.add.PTCONT.3740072",
      "street": "R VIOLETAS",
      "house": "721",
      "postcode": "4480-775",
      "city": "VILA DO CONDE",
      "lon": "-8.75816382405272",
      "lat": "41.3726308580701"
    },
    {
      "id": "pt.ine.add.PTCONT.3740073",
      "street": "R VIOLETAS",
      "house": "721",
      "postcode": "4480-775",
      "city": "VILA DO CONDE",
      "lon": "-8.75816382405272",
      "lat": "41.3726308580701"
    },
    {
      "id": "pt.ine.add.PTCONT.3740074",
      "street": "R VIOLETAS",
      "house": "721",
      "postcode": "4480-775",
      "city": "VILA DO CONDE",
      "lon": "-8.75816382405272",
      "lat": "41.3726308580701"
    },
    {
      "id": "pt.ine.add.PTCONT.3740075",
      "street": "R VIOLETAS",
      "house": "721",
      "postcode": "4480-775",
      "city": "VILA DO CONDE",
      "lon": "-8.75816382405272",
      "lat": "41.3726308580701"
    },
    {
      "id": "pt.ine.add.PTCONT.3740076",
      "street": "R VIOLETAS",
      "house": "721",
      "postcode": "4480-775",
      "city": "VILA DO CONDE",
      "lon": "-8.75816382405272",
      "lat": "41.3726308580701"
    },
    {
      "id": "pt.ine.add.PTCONT.3740077",
      "street": "R VIOLETAS",
      "house": "721",
      "postcode": "4480-775",
      "city": "VILA DO CONDE",
      "lon": "-8.75816382405272",
      "lat": "41.3726308580701"
    },
    {
      "id": "pt.ine.add.PTCONT.3740078",
      "street": "R VIOLETAS",
      "house": "721",
      "postcode": "4480-775",
      "city": "VILA DO CONDE",
      "lon": "-8.75816382405272",
      "lat": "41.3726308580701"
    },
    {
      "id": "pt.ine.add.PTCONT.3744381",
      "street": "R ALEGRIA",
      "house": "432",
      "postcode": "4480-743",
      "city": "VILA DO CONDE",
      "lon": "-8.758908461045458",
      "lat": "41.37175342464227"
    },
    {
      "id": "pt.ine.add.PTCONT.3746319",
      "street": "TV POCA DA BARCA",
      "house": "83",
      "postcode": "4480-849",
      "city": "VILA DO CONDE",
      "lon": "-8.75854776992037",
      "lat": "41.37278183964111"
    },
    {
      "id": "pt.ine.add.PTCONT.3746320",
      "street": "TV POCA DA BARCA",
      "house": "83",
      "postcode": "4480-849",
      "city": "VILA DO CONDE",
      "lon": "-8.75854776992037",
      "lat": "41.37278183964111"
    },
    {
      "id": "pt.ine.add.PTCONT.3746321",
      "street": "TV POCA DA BARCA",
      "house": "83",
      "postcode": "4480-849",
      "city": "VILA DO CONDE",
      "lon": "-8.75854776992037",
      "lat": "41.37278183964111"
    },
    {
      "id": "pt.ine.add.PTCONT.3746322",
      "street": "TV POCA DA BARCA",
      "house": "83",
      "postcode": "4480-849",
      "city": "VILA DO CONDE",
      "lon": "-8.75854776992037",
      "lat": "41.37278183964111"
    },
    {
      "id": "pt.ine.add.PTCONT.3746323",
      "street": "TV POCA DA BARCA",
      "house": "83",
      "postcode": "4480-849",
      "city": "VILA DO CONDE",
      "lon": "-8.75854776992037",
      "lat": "41.37278183964111"
    },
    {
      "id": "pt.ine.add.PTCONT.3746324",
      "street": "TV POCA DA BARCA",
      "house": "83",
      "postcode": "4480-849",
      "city": "VILA DO CONDE",
      "lon": "-8.75854776992037",
      "lat": "41.37278183964111"
    },
    {
      "id": "pt.ine.add.PTCONT.3746325",
      "street": "TV POCA DA BARCA",
      "house": "83",
      "postcode": "4480-849",
      "city": "VILA DO CONDE",
      "lon": "-8.75854776992037",
      "lat": "41.37278183964111"
    },
    {
      "id": "pt.ine.add.PTCONT.3746326",
      "street": "TV POCA DA BARCA",
      "house": "83",
      "postcode": "4480-849",
      "city": "VILA DO CONDE",
      "lon": "-8.75854776992037",
      "lat": "41.37278183964111"
    },
    {
      "id": "pt.ine.add.PTCONT.3746333",
      "street": "TV POCA DA BARCA",
      "house": "83",
      "postcode": "4480-849",
      "city": "VILA DO CONDE",
      "lon": "-8.75854776992037",
      "lat": "41.37278183964111"
    },
    {
      "id": "pt.ine.add.PTCONT.3757404",
      "street": "TV POCA DA BARCA",
      "house": "87",
      "postcode": "4480-849",
      "city": "VILA DO CONDE",
      "lon": "-8.758822160214034",
      "lat": "41.37272632409186"
    },
    {
      "id": "pt.ine.add.PTCONT.3757405",
      "street": "TV POCA DA BARCA",
      "house": "87",
      "postcode": "4480-849",
      "city": "VILA DO CONDE",
      "lon": "-8.758822160214034",
      "lat": "41.37272632409186"
    },
    {
      "id": "pt.ine.add.PTCONT.3757406",
      "street": "TV POCA DA BARCA",
      "house": "87",
      "postcode": "4480-849",
      "city": "VILA DO CONDE",
      "lon": "-8.758822160214034",
      "lat": "41.37272632409186"
    },
    {
      "id": "pt.ine.add.PTCONT.3757407",
      "street": "TV POCA DA BARCA",
      "house": "87",
      "postcode": "4480-849",
      "city": "VILA DO CONDE",
      "lon": "-8.758822160214034",
      "lat": "41.37272632409186"
    },
    {
      "id": "pt.ine.add.PTCONT.3757408",
      "street": "TV POCA DA BARCA",
      "house": "87",
      "postcode": "4480-849",
      "city": "VILA DO CONDE",
      "lon": "-8.758822160214034",
      "lat": "41.37272632409186"
    },
    {
      "id": "pt.ine.add.PTCONT.3787588",
      "street": "TV POCA DA BARCA",
      "house": "85",
      "postcode": "4480-849",
      "city": "VILA DO CONDE",
      "lon": "-8.758678902610276",
      "lat": "41.37274511092292"
    },
    {
      "id": "pt.ine.add.PTCONT.3787589",
      "street": "TV POCA DA BARCA",
      "house": "85",
      "postcode": "4480-849",
      "city": "VILA DO CONDE",
      "lon": "-8.758678902610276",
      "lat": "41.37274511092292"
    },
    {
      "id": "pt.ine.add.PTCONT.3787590",
      "street": "TV POCA DA BARCA",
      "house": "85",
      "postcode": "4480-849",
      "city": "VILA DO CONDE",
      "lon": "-8.758678902610276",
      "lat": "41.37274511092292"
    },
    {
      "id": "pt.ine.add.PTCONT.3787591",
      "street": "TV POCA DA BARCA",
      "house": "85",
      "postcode": "4480-849",
      "city": "VILA DO CONDE",
      "lon": "-8.758678902610276",
      "lat": "41.37274511092292"
    },
    {
      "id": "pt.ine.add.PTCONT.3787592",
      "street": "TV POCA DA BARCA",
      "house": "85",
      "postcode": "4480-849",
      "city": "VILA DO CONDE",
      "lon": "-8.758678902610276",
      "lat": "41.37274511092292"
    },
    {
      "id": "pt.ine.add.PTCONT.3787730",
      "street": "TV POCA DA BARCA",
      "house": "85",
      "postcode": "4480-849",
      "city": "VILA DO CONDE",
      "lon": "-8.758678902610276",
      "lat": "41.37274511092292"
    },
    {
      "id": "pt.ine.add.PTCONT.3787870",
      "street": "R ALEGRIA",
      "house": "444",
      "postcode": "4480-743",
      "city": "VILA DO CONDE",
      "lon": "-8.758909237631828",
      "lat": "41.371834456272026"
    },
    {
      "id": "pt.ine.add.PTCONT.3811967",
      "street": "R ALEGRIA",
      "house": "488",
      "postcode": "4480-743",
      "city": "VILA DO CONDE",
      "lon": "-8.758984748834619",
      "lat": "41.37223022086766"
    },
    {
      "id": "pt.ine.add.PTCONT.3811968",
      "street": "R VIOLETAS",
      "house": "",
      "postcode": "4480-775",
      "city": "VILA DO CONDE",
      "lon": "-8.758347218678377",
      "lat": "41.37181049931053"
    },
    {
      "id": "pt.ine.add.PTCONT.3812116",
      "street": "R VIOLETAS",
      "house": "",
      "postcode": "4480-775",
      "city": "VILA DO CONDE",
      "lon": "-8.758347218678377",
      "lat": "41.37181049931053"
    },
    {
      "id": "pt.ine.add.PTCONT.3812117",
      "street": "R VIOLETAS",
      "house": "",
      "postcode": "4480-775",
      "city": "VILA DO CONDE",
      "lon": "-8.758347218678377",
      "lat": "41.37181049931053"
    },
    {
      "id": "pt.ine.add.PTCONT.3812118",
      "street": "R VIOLETAS",
      "house": "",
      "postcode": "4480-775",
      "city": "VILA DO CONDE",
      "lon": "-8.758347218678377",
      "lat": "41.37181049931053"
    },
    {
      "id": "pt.ine.add.PTCONT.3812119",
      "street": "R VIOLETAS",
      "house": "",
      "postcode": "4480-775",
      "city": "VILA DO CONDE",
      "lon": "-8.758347218678377",
      "lat": "41.37181049931053"
    },
    {
      "id": "pt.ine.add.PTCONT.3812120",
      "street": "R VIOLETAS",
      "house": "",
      "postcode": "4480-775",
      "city": "VILA DO CONDE",
      "lon": "-8.758347218678377",
      "lat": "41.37181049931053"
    },
    {
      "id": "pt.ine.add.PTCONT.3812121",
      "street": "R VIOLETAS",
      "house": "",
      "postcode": "4480-775",
      "city": "VILA DO CONDE",
      "lon": "-8.758347218678377",
      "lat": "41.37181049931053"
    },
    {
      "id": "pt.ine.add.PTCONT.3812122",
      "street": "R VIOLETAS",
      "house": "",
      "postcode": "4480-775",
      "city": "VILA DO CONDE",
      "lon": "-8.758347218678377",
      "lat": "41.37181049931053"
    },
    {
      "id": "pt.ine.add.PTCONT.3812123",
      "street": "R VIOLETAS",
      "house": "",
      "postcode": "4480-775",
      "city": "VILA DO CONDE",
      "lon": "-8.758347218678377",
      "lat": "41.37181049931053"
    },
    {
      "id": "pt.ine.add.PTCONT.3812124",
      "street": "R VIOLETAS",
      "house": "",
      "postcode": "4480-775",
      "city": "VILA DO CONDE",
      "lon": "-8.758347218678377",
      "lat": "41.37181049931053"
    },
    {
      "id": "pt.ine.add.PTCONT.3812125",
      "street": "R VIOLETAS",
      "house": "",
      "postcode": "4480-775",
      "city": "VILA DO CONDE",
      "lon": "-8.758347218678377",
      "lat": "41.37181049931053"
    },
    {
      "id": "pt.ine.add.PTCONT.3816460",
      "street": "R VIOLETAS",
      "house": "717 BL 1",
      "postcode": "4480-775",
      "city": "VILA DO CONDE",
      "lon": "-8.758347218678377",
      "lat": "41.37181049931053"
    },
    {
      "id": "pt.ine.add.PTCONT.3839482",
      "street": "R VIOLETAS",
      "house": "723",
      "postcode": "4480-775",
      "city": "VILA DO CONDE",
      "lon": "-8.758260392208758",
      "lat": "41.372729377304765"
    },
    {
      "id": "pt.ine.add.PTCONT.3839483",
      "street": "R VIOLETAS",
      "house": "723",
      "postcode": "4480-775",
      "city": "VILA DO CONDE",
      "lon": "-8.758260392208758",
      "lat": "41.372729377304765"
    },
    {
      "id": "pt.ine.add.PTCONT.3839484",
      "street": "R VIOLETAS",
      "house": "723",
      "postcode": "4480-775",
      "city": "VILA DO CONDE",
      "lon": "-8.758260392208758",
      "lat": "41.372729377304765"
    },
    {
      "id": "pt.ine.add.PTCONT.3839485",
      "street": "R VIOLETAS",
      "house": "723",
      "postcode": "4480-775",
      "city": "VILA DO CONDE",
      "lon": "-8.758260392208758",
      "lat": "41.372729377304765"
    },
    {
      "id": "pt.ine.add.PTCONT.3839486",
      "street": "R VIOLETAS",
      "house": "723",
      "postcode": "4480-775",
      "city": "VILA DO CONDE",
      "lon": "-8.758260392208758",
      "lat": "41.372729377304765"
    },
    {
      "id": "pt.ine.add.PTCONT.3842217",
      "street": "R VIOLETAS",
      "house": "723",
      "postcode": "4480-775",
      "city": "VILA DO CONDE",
      "lon": "-8.758260392208758",
      "lat": "41.372729377304765"
    },
    {
      "id": "pt.ine.add.PTCONT.3890845",
      "street": "R DALIAS",
      "house": "42",
      "postcode": "4480-767",
      "city": "VILA DO CONDE",
      "lon": "-8.758151327322237",
      "lat": "41.371325348334295"
    },
    {
      "id": "pt.ine.add.PTCONT.3890846",
      "street": "R DALIAS",
      "house": "42",
      "postcode": "4480-767",
      "city": "VILA DO CONDE",
      "lon": "-8.758151327322237",
      "lat": "41.371325348334295"
    },
    {
      "id": "pt.ine.add.PTCONT.3890847",
      "street": "R DALIAS",
      "house": "42",
      "postcode": "4480-767",
      "city": "VILA DO CONDE",
      "lon": "-8.758151327322237",
      "lat": "41.371325348334295"
    },
    {
      "id": "pt.ine.add.PTCONT.3890848",
      "street": "R DALIAS",
      "house": "42",
      "postcode": "4480-767",
      "city": "VILA DO CONDE",
      "lon": "-8.758151327322237",
      "lat": "41.371325348334295"
    },
    {
      "id": "pt.ine.add.PTCONT.3890849",
      "street": "R DALIAS",
      "house": "42",
      "postcode": "4480-767",
      "city": "VILA DO CONDE",
      "lon": "-8.758151327322237",
      "lat": "41.371325348334295"
    },
    {
      "id": "pt.ine.add.PTCONT.3890850",
      "street": "R DALIAS",
      "house": "42",
      "postcode": "4480-767",
      "city": "VILA DO CONDE",
      "lon": "-8.758151327322237",
      "lat": "41.371325348334295"
    },
    {
      "id": "pt.ine.add.PTCONT.3906129",
      "street": "R VIOLETAS",
      "house": "689",
      "postcode": "4480-775",
      "city": "VILA DO CONDE",
      "lon": "-8.757390428544419",
      "lat": "41.37175266597115"
    },
    {
      "id": "pt.ine.add.PTCONT.3906130",
      "street": "R VIOLETAS",
      "house": "689",
      "postcode": "4480-775",
      "city": "VILA DO CONDE",
      "lon": "-8.757390428544419",
      "lat": "41.37175266597115"
    },
    {
      "id": "pt.ine.add.PTCONT.3906131",
      "street": "R VIOLETAS",
      "house": "689",
      "postcode": "4480-775",
      "city": "VILA DO CONDE",
      "lon": "-8.757390428544419",
      "lat": "41.37175266597115"
    },
    {
      "id": "pt.ine.add.PTCONT.3906327",
      "street": "R VIOLETAS",
      "house": "689",
      "postcode": "4480-775",
      "city": "VILA DO CONDE",
      "lon": "-8.757390428544419",
      "lat": "41.37175266597115"
    },
    {
      "id": "pt.ine.add.PTCONT.3906328",
      "street": "R VIOLETAS",
      "house": "689",
      "postcode": "4480-775",
      "city": "VILA DO CONDE",
      "lon": "-8.757390428544419",
      "lat": "41.37175266597115"
    },
    {
      "id": "pt.ine.add.PTCONT.3906329",
      "street": "R VIOLETAS",
      "house": "689",
      "postcode": "4480-775",
      "city": "VILA DO CONDE",
      "lon": "-8.757390428544419",
      "lat": "41.37175266597115"
    },
    {
      "id": "pt.ine.add.PTCONT.3907008",
      "street": "R VIOLETAS",
      "house": "689",
      "postcode": "4480-775",
      "city": "VILA DO CONDE",
      "lon": "-8.757390428544419",
      "lat": "41.37175266597115"
    },
    {
      "id": "pt.ine.add.PTCONT.3918834",
      "street": "R ALEGRIA",
      "house": "502",
      "postcode": "4480-743",
      "city": "VILA DO CONDE",
      "lon": "-8.759022591095185",
      "lat": "41.3724371066475"
    },
    {
      "id": "pt.ine.add.PTCONT.3918835",
      "street": "R ALEGRIA",
      "house": "502",
      "postcode": "4480-743",
      "city": "VILA DO CONDE",
      "lon": "-8.759022591095185",
      "lat": "41.3724371066475"
    },
    {
      "id": "pt.ine.add.PTCONT.3918836",
      "street": "R ALEGRIA",
      "house": "502",
      "postcode": "4480-743",
      "city": "VILA DO CONDE",
      "lon": "-8.759022591095185",
      "lat": "41.3724371066475"
    },
    {
      "id": "pt.ine.add.PTCONT.3918837",
      "street": "R ALEGRIA",
      "house": "502",
      "postcode": "4480-743",
      "city": "VILA DO CONDE",
      "lon": "-8.759022591095185",
      "lat": "41.3724371066475"
    },
    {
      "id": "pt.ine.add.PTCONT.3918838",
      "street": "R ALEGRIA",
      "house": "502",
      "postcode": "4480-743",
      "city": "VILA DO CONDE",
      "lon": "-8.759022591095185",
      "lat": "41.3724371066475"
    },
    {
      "id": "pt.ine.add.PTCONT.3918839",
      "street": "R ALEGRIA",
      "house": "502",
      "postcode": "4480-743",
      "city": "VILA DO CONDE",
      "lon": "-8.759022591095185",
      "lat": "41.3724371066475"
    },
    {
      "id": "pt.ine.add.PTCONT.3937804",
      "street": "R DALIAS",
      "house": "",
      "postcode": "4480-767",
      "city": "VILA DO CONDE",
      "lon": "-8.757532565099531",
      "lat": "41.37161683503302"
    },
    {
      "id": "pt.ine.add.PTCONT.3937805",
      "street": "R DALIAS",
      "house": "",
      "postcode": "4480-767",
      "city": "VILA DO CONDE",
      "lon": "-8.757532565099531",
      "lat": "41.37161683503302"
    },
    {
      "id": "pt.ine.add.PTCONT.3937806",
      "street": "R DALIAS",
      "house": "",
      "postcode": "4480-767",
      "city": "VILA DO CONDE",
      "lon": "-8.757532565099531",
      "lat": "41.37161683503302"
    },
    {
      "id": "pt.ine.add.PTCONT.3937807",
      "street": "R DALIAS",
      "house": "",
      "postcode": "4480-767",
      "city": "VILA DO CONDE",
      "lon": "-8.757532565099531",
      "lat": "41.37161683503302"
    },
    {
      "id": "pt.ine.add.PTCONT.3937821",
      "street": "R DALIAS",
      "house": "",
      "postcode": "4480-767",
      "city": "VILA DO CONDE",
      "lon": "-8.757532565099531",
      "lat": "41.37161683503302"
    },
    {
      "id": "pt.ine.add.PTCONT.3937822",
      "street": "R DALIAS",
      "house": "",
      "postcode": "4480-767",
      "city": "VILA DO CONDE",
      "lon": "-8.757532565099531",
      "lat": "41.37161683503302"
    },
    {
      "id": "pt.ine.add.PTCONT.3937823",
      "street": "R DALIAS",
      "house": "",
      "postcode": "4480-767",
      "city": "VILA DO CONDE",
      "lon": "-8.757532565099531",
      "lat": "41.37161683503302"
    },
    {
      "id": "pt.ine.add.PTCONT.3939441",
      "street": "R DALIAS",
      "house": "",
      "postcode": "4480-767",
      "city": "VILA DO CONDE",
      "lon": "-8.757532565099531",
      "lat": "41.37161683503302"
    },
    {
      "id": "pt.ine.add.PTCONT.3941266",
      "street": "R ALEGRIA",
      "house": "500",
      "postcode": "4480-743",
      "city": "VILA DO CONDE",
      "lon": "-8.75898578442738",
      "lat": "41.372338263029846"
    },
    {
      "id": "pt.ine.add.PTCONT.3978700",
      "street": "R DALIAS",
      "house": "56",
      "postcode": "4480-767",
      "city": "VILA DO CONDE",
      "lon": "-8.757996637286817",
      "lat": "41.37139822031866"
    },
    {
      "id": "pt.ine.add.PTCONT.3978701",
      "street": "R DALIAS",
      "house": "56",
      "postcode": "4480-767",
      "city": "VILA DO CONDE",
      "lon": "-8.757996637286817",
      "lat": "41.37139822031866"
    },
    {
      "id": "pt.ine.add.PTCONT.3978702",
      "street": "R DALIAS",
      "house": "56",
      "postcode": "4480-767",
      "city": "VILA DO CONDE",
      "lon": "-8.757996637286817",
      "lat": "41.37139822031866"
    },
    {
      "id": "pt.ine.add.PTCONT.3978703",
      "street": "R DALIAS",
      "house": "56",
      "postcode": "4480-767",
      "city": "VILA DO CONDE",
      "lon": "-8.757996637286817",
      "lat": "41.37139822031866"
    },
    {
      "id": "pt.ine.add.PTCONT.3978704",
      "street": "R DALIAS",
      "house": "56",
      "postcode": "4480-767",
      "city": "VILA DO CONDE",
      "lon": "-8.757996637286817",
      "lat": "41.37139822031866"
    },
    {
      "id": "pt.ine.add.PTCONT.3978705",
      "street": "R DALIAS",
      "house": "56",
      "postcode": "4480-767",
      "city": "VILA DO CONDE",
      "lon": "-8.757996637286817",
      "lat": "41.37139822031866"
    },
    {
      "id": "pt.ine.add.PTCONT.3978706",
      "street": "R DALIAS",
      "house": "56",
      "postcode": "4480-767",
      "city": "VILA DO CONDE",
      "lon": "-8.757996637286817",
      "lat": "41.37139822031866"
    },
    {
      "id": "pt.ine.add.PTCONT.3978723",
      "street": "R DALIAS",
      "house": "56",
      "postcode": "4480-767",
      "city": "VILA DO CONDE",
      "lon": "-8.757996637286817",
      "lat": "41.37139822031866"
    },
    {
      "id": "pt.ine.add.PTCONT.4001809",
      "street": "R ALEGRIA",
      "house": "404",
      "postcode": "4480-743",
      "city": "VILA DO CONDE",
      "lon": "-8.758894696725966",
      "lat": "41.37156441583283"
    },
    {
      "id": "pt.ine.add.PTCONT.4049787",
      "street": "R VIOLETAS",
      "house": "707",
      "postcode": "4480-775",
      "city": "VILA DO CONDE",
      "lon": "-8.757475214053462",
      "lat": "41.371869257771394"
    },
    {
      "id": "pt.ine.add.PTCONT.4049788",
      "street": "R VIOLETAS",
      "house": "707",
      "postcode": "4480-775",
      "city": "VILA DO CONDE",
      "lon": "-8.757475214053462",
      "lat": "41.371869257771394"
    },
    {
      "id": "pt.ine.add.PTCONT.4049789",
      "street": "R VIOLETAS",
      "house": "707",
      "postcode": "4480-775",
      "city": "VILA DO CONDE",
      "lon": "-8.757475214053462",
      "lat": "41.371869257771394"
    },
    {
      "id": "pt.ine.add.PTCONT.4049790",
      "street": "R VIOLETAS",
      "house": "707",
      "postcode": "4480-775",
      "city": "VILA DO CONDE",
      "lon": "-8.757475214053462",
      "lat": "41.371869257771394"
    },
    {
      "id": "pt.ine.add.PTCONT.4049791",
      "street": "R VIOLETAS",
      "house": "707",
      "postcode": "4480-775",
      "city": "VILA DO CONDE",
      "lon": "-8.757475214053462",
      "lat": "41.371869257771394"
    },
    {
      "id": "pt.ine.add.PTCONT.4049792",
      "street": "R VIOLETAS",
      "house": "707",
      "postcode": "4480-775",
      "city": "VILA DO CONDE",
      "lon": "-8.757475214053462",
      "lat": "41.371869257771394"
    },
    {
      "id": "pt.ine.add.PTCONT.4049793",
      "street": "R VIOLETAS",
      "house": "707",
      "postcode": "4480-775",
      "city": "VILA DO CONDE",
      "lon": "-8.757475214053462",
      "lat": "41.371869257771394"
    },
    {
      "id": "pt.ine.add.PTCONT.4049794",
      "street": "R VIOLETAS",
      "house": "707",
      "postcode": "4480-775",
      "city": "VILA DO CONDE",
      "lon": "-8.757475214053462",
      "lat": "41.371869257771394"
    },
    {
      "id": "pt.ine.add.PTCONT.4125855",
      "street": "R VIOLETAS",
      "house": "719",
      "postcode": "4480-775",
      "city": "VILA DO CONDE",
      "lon": "-8.758171898088671",
      "lat": "41.37222563498604"
    },
    {
      "id": "pt.ine.add.PTCONT.4125856",
      "street": "R VIOLETAS",
      "house": "719",
      "postcode": "4480-775",
      "city": "VILA DO CONDE",
      "lon": "-8.758171898088671",
      "lat": "41.37222563498604"
    },
    {
      "id": "pt.ine.add.PTCONT.4125857",
      "street": "R VIOLETAS",
      "house": "719",
      "postcode": "4480-775",
      "city": "VILA DO CONDE",
      "lon": "-8.758171898088671",
      "lat": "41.37222563498604"
    },
    {
      "id": "pt.ine.add.PTCONT.4125858",
      "street": "R VIOLETAS",
      "house": "719",
      "postcode": "4480-775",
      "city": "VILA DO CONDE",
      "lon": "-8.758171898088671",
      "lat": "41.37222563498604"
    },
    {
      "id": "pt.ine.add.PTCONT.4125859",
      "street": "R VIOLETAS",
      "house": "ENT 3",
      "postcode": "4480-775",
      "city": "VILA DO CONDE",
      "lon": "-8.758171898088671",
      "lat": "41.37222563498604"
    },
    {
      "id": "pt.ine.add.PTCONT.4125881",
      "street": "R VIOLETAS",
      "house": "719 ENT3",
      "postcode": "4480-775",
      "city": "VILA DO CONDE",
      "lon": "-8.758171898088671",
      "lat": "41.37222563498604"
    },
    {
      "id": "pt.ine.add.PTCONT.4125882",
      "street": "R VIOLETAS",
      "house": "719 3",
      "postcode": "4480-775",
      "city": "VILA DO CONDE",
      "lon": "-8.758171898088671",
      "lat": "41.37222563498604"
    },
    {
      "id": "pt.ine.add.PTCONT.4125883",
      "street": "R VIOLETAS",
      "house": "719",
      "postcode": "4480-775",
      "city": "VILA DO CONDE",
      "lon": "-8.758171898088671",
      "lat": "41.37222563498604"
    },
    {
      "id": "pt.ine.add.PTCONT.4125943",
      "street": "R DALIAS",
      "house": "28",
      "postcode": "4480-767",
      "city": "VILA DO CONDE",
      "lon": "-8.758318055456323",
      "lat": "41.37126141472351"
    },
    {
      "id": "pt.ine.add.PTCONT.4125944",
      "street": "R DALIAS",
      "house": "ENT 28",
      "postcode": "4480-767",
      "city": "VILA DO CONDE",
      "lon": "-8.758318055456323",
      "lat": "41.37126141472351"
    },
    {
      "id": "pt.ine.add.PTCONT.4125945",
      "street": "R DALIAS",
      "house": "28",
      "postcode": "4480-767",
      "city": "VILA DO CONDE",
      "lon": "-8.758318055456323",
      "lat": "41.37126141472351"
    },
    {
      "id": "pt.ine.add.PTCONT.4125946",
      "street": "R DALIAS",
      "house": "28",
      "postcode": "4480-767",
      "city": "VILA DO CONDE",
      "lon": "-8.758318055456323",
      "lat": "41.37126141472351"
    },
    {
      "id": "pt.ine.add.PTCONT.4125947",
      "street": "R DALIAS",
      "house": "28",
      "postcode": "4480-767",
      "city": "VILA DO CONDE",
      "lon": "-8.758318055456323",
      "lat": "41.37126141472351"
    },
    {
      "id": "pt.ine.add.PTCONT.4125948",
      "street": "R DALIAS",
      "house": "28",
      "postcode": "4480-767",
      "city": "VILA DO CONDE",
      "lon": "-8.758318055456323",
      "lat": "41.37126141472351"
    },
    {
      "id": "pt.ine.add.PTCONT.4125960",
      "street": "R DALIAS",
      "house": "28",
      "postcode": "4480-767",
      "city": "VILA DO CONDE",
      "lon": "-8.758318055456323",
      "lat": "41.37126141472351"
    },
    {
      "id": "pt.ine.add.PTCONT.4125961",
      "street": "R DALIAS",
      "house": "28",
      "postcode": "4480-767",
      "city": "VILA DO CONDE",
      "lon": "-8.758318055456323",
      "lat": "41.37126141472351"
    },
    {
      "id": "pt.ine.add.PTCONT.4132647",
      "street": "R ALEGRIA",
      "house": "476",
      "postcode": "4480-743",
      "city": "VILA DO CONDE",
      "lon": "-8.75895972215428",
      "lat": "41.37211330520141"
    },
    {
      "id": "pt.ine.add.PTCONT.4132653",
      "street": "R ALEGRIA",
      "house": "402",
      "postcode": "4480-743",
      "city": "VILA DO CONDE",
      "lon": "-8.758882313014047",
      "lat": "41.37151946325512"
    },
    {
      "id": "pt.ine.add.PTCONT.4137640",
      "street": "TV POCA DA BARCA",
      "house": "89",
      "postcode": "4480-849",
      "city": "VILA DO CONDE",
      "lon": "-8.75894134013178",
      "lat": "41.37268966006661"
    },
    {
      "id": "pt.ine.add.PTCONT.4137641",
      "street": "TV POCA DA BARCA",
      "house": "89",
      "postcode": "4480-849",
      "city": "VILA DO CONDE",
      "lon": "-8.75894134013178",
      "lat": "41.37268966006661"
    },
    {
      "id": "pt.ine.add.PTCONT.4137642",
      "street": "TV POCA DA BARCA",
      "house": "89",
      "postcode": "4480-849",
      "city": "VILA DO CONDE",
      "lon": "-8.75894134013178",
      "lat": "41.37268966006661"
    },
    {
      "id": "pt.ine.add.PTCONT.4137643",
      "street": "TV POCA DA BARCA",
      "house": "89",
      "postcode": "4480-849",
      "city": "VILA DO CONDE",
      "lon": "-8.75894134013178",
      "lat": "41.37268966006661"
    },
    {
      "id": "pt.ine.add.PTCONT.4137644",
      "street": "TV POCA DA BARCA",
      "house": "89",
      "postcode": "4480-849",
      "city": "VILA DO CONDE",
      "lon": "-8.75894134013178",
      "lat": "41.37268966006661"
    },
    {
      "id": "pt.ine.add.PTCONT.4137645",
      "street": "TV POCA DA BARCA",
      "house": "89",
      "postcode": "4480-849",
      "city": "VILA DO CONDE",
      "lon": "-8.75894134013178",
      "lat": "41.37268966006661"
    },
    {
      "id": "pt.ine.add.PTCONT.4137646",
      "street": "TV POCA DA BARCA",
      "house": "89",
      "postcode": "4480-849",
      "city": "VILA DO CONDE",
      "lon": "-8.75894134013178",
      "lat": "41.37268966006661"
    },
    {
      "id": "pt.ine.add.PTCONT.4137647",
      "street": "TV POCA DA BARCA",
      "house": "89",
      "postcode": "4480-849",
      "city": "VILA DO CONDE",
      "lon": "-8.75894134013178",
      "lat": "41.37268966006661"
    },
    {
      "id": "pt.ine.add.PTCONT.4141149",
      "street": "TV POCA DA BARCA",
      "house": "89",
      "postcode": "4480-849",
      "city": "VILA DO CONDE",
      "lon": "-8.75894134013178",
      "lat": "41.37268966006661"
    },
    {
      "id": "pt.ine.add.PTCONT.4152449",
      "street": "R VIOLETAS",
      "house": "717",
      "postcode": "4480-775",
      "city": "VILA DO CONDE",
      "lon": "-8.758216173859719",
      "lat": "41.3718562311603"
    },
    {
      "id": "pt.ine.add.PTCONT.4152450",
      "street": "R VIOLETAS",
      "house": "717 BL2",
      "postcode": "4480-775",
      "city": "VILA DO CONDE",
      "lon": "-8.758216173859719",
      "lat": "41.3718562311603"
    },
    {
      "id": "pt.ine.add.PTCONT.4152451",
      "street": "R VIOLETAS",
      "house": "717",
      "postcode": "4480-775",
      "city": "VILA DO CONDE",
      "lon": "-8.758216173859719",
      "lat": "41.3718562311603"
    },
    {
      "id": "pt.ine.add.PTCONT.4152452",
      "street": "R VIOLETAS",
      "house": "717",
      "postcode": "4480-775",
      "city": "VILA DO CONDE",
      "lon": "-8.758216173859719",
      "lat": "41.3718562311603"
    },
    {
      "id": "pt.ine.add.PTCONT.4152453",
      "street": "R VIOLETAS",
      "house": "717",
      "postcode": "4480-775",
      "city": "VILA DO CONDE",
      "lon": "-8.758216173859719",
      "lat": "41.3718562311603"
    },
    {
      "id": "pt.ine.add.PTCONT.4152454",
      "street": "R VIOLETAS",
      "house": "717",
      "postcode": "4480-775",
      "city": "VILA DO CONDE",
      "lon": "-8.758216173859719",
      "lat": "41.3718562311603"
    },
    {
      "id": "pt.ine.add.PTCONT.4152455",
      "street": "R VIOLETAS",
      "house": "717",
      "postcode": "4480-775",
      "city": "VILA DO CONDE",
      "lon": "-8.758216173859719",
      "lat": "41.3718562311603"
    },
    {
      "id": "pt.ine.add.PTCONT.4152481",
      "street": "R VIOLETAS",
      "house": "717",
      "postcode": "4480-775",
      "city": "VILA DO CONDE",
      "lon": "-8.758216173859719",
      "lat": "41.3718562311603"
    },
    {
      "id": "pt.ine.add.PTCONT.4152482",
      "street": "R VIOLETAS",
      "house": "717",
      "postcode": "4480-775",
      "city": "VILA DO CONDE",
      "lon": "-8.758216173859719",
      "lat": "41.3718562311603"
    },
    {
      "id": "pt.ine.add.PTCONT.4152483",
      "street": "R VIOLETAS",
      "house": "717",
      "postcode": "4480-775",
      "city": "VILA DO CONDE",
      "lon": "-8.758216173859719",
      "lat": "41.3718562311603"
    },
    {
      "id": "pt.ine.add.PTCONT.4153827",
      "street": "R VIOLETAS",
      "house": "717",
      "postcode": "4480-775",
      "city": "VILA DO CONDE",
      "lon": "-8.758216173859719",
      "lat": "41.3718562311603"
    },
    {
      "id": "pt.ine.add.PTCONT.4154057",
      "street": "R VIOLETAS",
      "house": "717",
      "postcode": "4480-775",
      "city": "VILA DO CONDE",
      "lon": "-8.758216173859719",
      "lat": "41.3718562311603"
    },
    {
      "id": "pt.ine.add.PTCONT.4185533",
      "street": "R ALEGRIA",
      "house": "442",
      "postcode": "4480-743",
      "city": "VILA DO CONDE",
      "lon": "-8.758908806194563",
      "lat": "41.37178943870007"
    },
    {
      "id": "pt.ine.add.PTCONT.4237336",
      "street": "R ALEGRIA",
      "house": "450",
      "postcode": "4480-743",
      "city": "VILA DO CONDE",
      "lon": "-8.75889771671543",
      "lat": "41.37187953884213"
    },
    {
      "id": "pt.ine.add.PTCONT.4250006",
      "street": "R ALEGRIA",
      "house": "430",
      "postcode": "4480-743",
      "city": "VILA DO CONDE",
      "lon": "-8.758907943322972",
      "lat": "41.37169940355511"
    },
    {
      "id": "pt.ine.add.PTCONT.4275589",
      "street": "R ALEGRIA",
      "house": "416",
      "postcode": "4480-743",
      "city": "VILA DO CONDE",
      "lon": "-8.758895041865191",
      "lat": "41.37160042989191"
    },
    {
      "id": "pt.ine.add.PTCONT.4297234",
      "street": "R VIOLETAS",
      "house": "",
      "postcode": "4480-775",
      "city": "VILA DO CONDE",
      "lon": "-8.757810913642517",
      "lat": "41.371975483673644"
    },
    {
      "id": "pt.ine.add.PTCONT.4297235",
      "street": "R VIOLETAS",
      "house": "",
      "postcode": "4480-775",
      "city": "VILA DO CONDE",
      "lon": "-8.757810913642517",
      "lat": "41.371975483673644"
    },
    {
      "id": "pt.ine.add.PTCONT.4297236",
      "street": "R VIOLETAS",
      "house": "",
      "postcode": "4480-775",
      "city": "VILA DO CONDE",
      "lon": "-8.757810913642517",
      "lat": "41.371975483673644"
    },
    {
      "id": "pt.ine.add.PTCONT.4297237",
      "street": "R VIOLETAS",
      "house": "",
      "postcode": "4480-775",
      "city": "VILA DO CONDE",
      "lon": "-8.757810913642517",
      "lat": "41.371975483673644"
    },
    {
      "id": "pt.ine.add.PTCONT.4297369",
      "street": "R VIOLETAS",
      "house": "",
      "postcode": "4480-775",
      "city": "VILA DO CONDE",
      "lon": "-8.757810913642517",
      "lat": "41.371975483673644"
    },
    {
      "id": "pt.ine.add.PTCONT.4297370",
      "street": "R VIOLETAS",
      "house": "",
      "postcode": "4480-775",
      "city": "VILA DO CONDE",
      "lon": "-8.757810913642517",
      "lat": "41.371975483673644"
    },
    {
      "id": "pt.ine.add.PTCONT.4297371",
      "street": "R VIOLETAS",
      "house": "",
      "postcode": "4480-775",
      "city": "VILA DO CONDE",
      "lon": "-8.757810913642517",
      "lat": "41.371975483673644"
    },
    {
      "id": "pt.ine.add.PTCONT.4297372",
      "street": "R VIOLETAS",
      "house": "",
      "postcode": "4480-775",
      "city": "VILA DO CONDE",
      "lon": "-8.757810913642517",
      "lat": "41.371975483673644"
    },
    {
      "id": "pt.ine.add.PTCONT.4297373",
      "street": "R VIOLETAS",
      "house": "",
      "postcode": "4480-775",
      "city": "VILA DO CONDE",
      "lon": "-8.757810913642517",
      "lat": "41.371975483673644"
    },
    {
      "id": "pt.ine.add.PTCONT.4297374",
      "street": "R VIOLETAS",
      "house": "",
      "postcode": "4480-775",
      "city": "VILA DO CONDE",
      "lon": "-8.757810913642517",
      "lat": "41.371975483673644"
    },
    {
      "id": "pt.ine.add.PTCONT.4298938",
      "street": "R VIOLETAS",
      "house": "",
      "postcode": "4480-775",
      "city": "VILA DO CONDE",
      "lon": "-8.757810913642517",
      "lat": "41.371975483673644"
    },
    {
      "id": "pt.ine.add.PTCONT.4362573",
      "street": "R DALIAS",
      "house": "80",
      "postcode": "4480-767",
      "city": "VILA DO CONDE",
      "lon": "-8.757675217762921",
      "lat": "41.37153502502224"
    },
    {
      "id": "pt.ine.add.PTCONT.4362574",
      "street": "R DALIAS",
      "house": "80",
      "postcode": "4480-767",
      "city": "VILA DO CONDE",
      "lon": "-8.757675217762921",
      "lat": "41.37153502502224"
    },
    {
      "id": "pt.ine.add.PTCONT.4362575",
      "street": "R DALIAS",
      "house": "80",
      "postcode": "4480-767",
      "city": "VILA DO CONDE",
      "lon": "-8.757675217762921",
      "lat": "41.37153502502224"
    },
    {
      "id": "pt.ine.add.PTCONT.4362576",
      "street": "R DALIAS",
      "house": "80",
      "postcode": "4480-767",
      "city": "VILA DO CONDE",
      "lon": "-8.757675217762921",
      "lat": "41.37153502502224"
    },
    {
      "id": "pt.ine.add.PTCONT.4362577",
      "street": "R DALIAS",
      "house": "80",
      "postcode": "4480-767",
      "city": "VILA DO CONDE",
      "lon": "-8.757675217762921",
      "lat": "41.37153502502224"
    },
    {
      "id": "pt.ine.add.PTCONT.4362578",
      "street": "R DALIAS",
      "house": "80",
      "postcode": "4480-767",
      "city": "VILA DO CONDE",
      "lon": "-8.757675217762921",
      "lat": "41.37153502502224"
    },
    {
      "id": "pt.ine.add.PTCONT.4362652",
      "street": "R ALEGRIA",
      "house": "470",
      "postcode": "4480-743",
      "city": "VILA DO CONDE",
      "lon": "-8.758947079408538",
      "lat": "41.3720413420942"
    },
    {
      "id": "pt.ine.add.PTCONT.4364025",
      "street": "R DALIAS",
      "house": "80",
      "postcode": "4480-767",
      "city": "VILA DO CONDE",
      "lon": "-8.757675217762921",
      "lat": "41.37153502502224"
    },
    {
      "id": "pt.ine.add.PTCONT.4364234",
      "street": "R DALIAS",
      "house": "80",
      "postcode": "4480-767",
      "city": "VILA DO CONDE",
      "lon": "-8.757675217762921",
      "lat": "41.37153502502224"
    },
    {
      "id": "pt.ine.add.PTCONT.4377344",
      "street": "R VIOLETAS",
      "house": "689",
      "postcode": "4480-775",
      "city": "VILA DO CONDE",
      "lon": "-8.757390428544419",
      "lat": "41.37175266597115"
    },
    {
      "id": "pt.ine.add.PTCONT.4377824",
      "street": "R DALIAS",
      "house": "42",
      "postcode": "4480-767",
      "city": "VILA DO CONDE",
      "lon": "-8.758151327322237",
      "lat": "41.371325348334295"
    },
    {
      "id": "pt.ine.add.PTCONT.4389353",
      "street": "TV POCA DA BARCA",
      "house": "87",
      "postcode": "4480-849",
      "city": "VILA DO CONDE",
      "lon": "-8.758822160214034",
      "lat": "41.37272632409186"
    },
    {
      "id": "pt.ine.add.PTCONT.4389577",
      "street": "R DALIAS",
      "house": "152",
      "postcode": "4480-767",
      "city": "VILA DO CONDE",
      "lon": "-8.758808701284138",
      "lat": "41.37132177587409"
    },
    {
      "id": "pt.ine.add.PTCONT.4391001",
      "street": "R VIOLETAS",
      "house": "719",
      "postcode": "4480-775",
      "city": "VILA DO CONDE",
      "lon": "-8.75842212289954",
      "lat": "41.37214323969815"
    }
  ]
}