{
  "data": {
    "distrito": "Leiria",
    "concelho": "Porto de MÃ³s",
    "freguesia": "Juncal",
    "OBJECTID": 809,
    "BGRI2021": "10160600106",
    "DT21": "10",
    "DTMN21": "1016",
    "DTMNFR21": "101606",
    "DTMNFRSEC21": "101606001",
    "SECNUM21": "001",
    "SSNUM21": "06",
    "SECSSNUM21": "00106",
    "OBJECTID_1": 98367,
    "DT": "10",
    "CC": "16",
    "fr": "06",
    "SEC": "001",
    "SS": "06"
  },
  "addresses": [
    {
      "id": "pt.ine.add.PTCONT.1999578",
      "street": "ESTR PRINCIPAL",
      "house": "32",
      "postcode": "2480-077",
      "city": "JUNCAL",
      "lon": "-8.882777300946943",
      "lat": "39.62206672601282"
    },
    {
      "id": "pt.ine.add.PTCONT.2005880",
      "street": "ESTR PRINCIPAL",
      "house": "24",
      "postcode": "2480-077",
      "city": "JUNCAL",
      "lon": "-8.882846574196723",
      "lat": "39.62093144198814"
    },
    {
      "id": "pt.ine.add.PTCONT.2030035",
      "street": "R FIDALGOS",
      "house": "17",
      "postcode": "2480-077",
      "city": "JUNCAL",
      "lon": "-8.881848377862966",
      "lat": "39.62124410572069"
    },
    {
      "id": "pt.ine.add.PTCONT.2040978",
      "street": "R FIDALGOS",
      "house": "19",
      "postcode": "2480-077",
      "city": "JUNCAL",
      "lon": "-8.881850804202381",
      "lat": "39.621469256162584"
    },
    {
      "id": "pt.ine.add.PTCONT.2043192",
      "street": "ESTR PRINCIPAL",
      "house": "28",
      "postcode": "2480-077",
      "city": "JUNCAL",
      "lon": "-8.882701015051815",
      "lat": "39.62147277989014"
    },
    {
      "id": "pt.ine.add.PTCONT.2087013",
      "street": "R CASAL DOS FIDALGOS",
      "house": "13",
      "postcode": "2480-077",
      "city": "JUNCAL",
      "lon": "-8.881962890075132",
      "lat": "39.62106323474083"
    },
    {
      "id": "pt.ine.add.PTCONT.2122252",
      "street": "R CASAL DOS FIDALGOS",
      "house": "11",
      "postcode": "2480-077",
      "city": "JUNCAL",
      "lon": "-8.882067018444314",
      "lat": "39.62099951695893"
    },
    {
      "id": "pt.ine.add.PTCONT.2141952",
      "street": "ESTR PRINCIPAL",
      "house": "38",
      "postcode": "2480-077",
      "city": "JUNCAL",
      "lon": "-8.88251848896812",
      "lat": "39.62290601353116"
    },
    {
      "id": "pt.ine.add.PTCONT.2146194",
      "street": "ESTR PRINCIPAL",
      "house": "30 A",
      "postcode": "2480-077",
      "city": "JUNCAL",
      "lon": "-8.882844355543345",
      "lat": "39.62180510065859"
    },
    {
      "id": "pt.ine.add.PTCONT.2157036",
      "street": "LG CRUZEIRO",
      "house": "1",
      "postcode": "2480-077",
      "city": "JUNCAL",
      "lon": "-8.882396894737957",
      "lat": "39.623510242767345"
    },
    {
      "id": "pt.ine.add.PTCONT.2172298",
      "street": "ESTR PRINCIPAL",
      "house": "34",
      "postcode": "2480-077",
      "city": "JUNCAL",
      "lon": "-8.882665606972745",
      "lat": "39.62250877217789"
    },
    {
      "id": "pt.ine.add.PTCONT.2172299",
      "street": "ESTR PRINCIPAL",
      "house": "36",
      "postcode": "2480-077",
      "city": "JUNCAL",
      "lon": "-8.882574871233244",
      "lat": "39.622734523620274"
    },
    {
      "id": "pt.ine.add.PTCONT.2187593",
      "street": "ESTR PRINCIPAL",
      "house": "42",
      "postcode": "2480-077",
      "city": "JUNCAL",
      "lon": "-8.88246356351926",
      "lat": "39.623212593616685"
    },
    {
      "id": "pt.ine.add.PTCONT.2203450",
      "street": "R FIDALGOS",
      "house": "21",
      "postcode": "2480-077",
      "city": "JUNCAL",
      "lon": "-8.881447095453723",
      "lat": "39.62183212317284"
    },
    {
      "id": "pt.ine.add.PTCONT.2231733",
      "street": "TV CHOUCO",
      "house": "3",
      "postcode": "2480-077",
      "city": "JUNCAL",
      "lon": "-8.882435307866674",
      "lat": "39.62167264021305"
    },
    {
      "id": "pt.ine.add.PTCONT.2242869",
      "street": "R CASAL DOS FIDALGOS",
      "house": "15",
      "postcode": "2480-077",
      "city": "JUNCAL",
      "lon": "-8.88206915422649",
      "lat": "39.621197649346705"
    },
    {
      "id": "pt.ine.add.PTCONT.2267065",
      "street": "ESTR PRINCIPAL",
      "house": "40",
      "postcode": "2480-077",
      "city": "JUNCAL",
      "lon": "-8.882519849011",
      "lat": "39.62303209772417"
    }
  ]
}