{
  "data": {
    "distrito": "Leiria",
    "concelho": "Porto de MÃ³s",
    "freguesia": "Juncal",
    "OBJECTID": 845,
    "BGRI2021": "10160600129",
    "DT21": "10",
    "DTMN21": "1016",
    "DTMNFR21": "101606",
    "DTMNFRSEC21": "101606001",
    "SECNUM21": "001",
    "SSNUM21": "29",
    "SECSSNUM21": "00129",
    "OBJECTID_1": 98365,
    "DT": "10",
    "CC": "16",
    "fr": "06",
    "SEC": "001",
    "SS": "29"
  },
  "addresses": [
    {
      "id": "pt.ine.add.PTCONT.1994543",
      "street": "ESTR CALVARIA",
      "house": "8",
      "postcode": "2480-052",
      "city": "JUNCAL",
      "lon": "-8.890713837834273",
      "lat": "39.63430928764042"
    },
    {
      "id": "pt.ine.add.PTCONT.2027715",
      "street": "R CAPELA",
      "house": "33",
      "postcode": "2480-074",
      "city": "JUNCAL",
      "lon": "-8.887612579852822",
      "lat": "39.62976311419515"
    },
    {
      "id": "pt.ine.add.PTCONT.2062792",
      "street": "R CAPELA",
      "house": "7",
      "postcode": "2480-052",
      "city": "JUNCAL",
      "lon": "-8.891049797799747",
      "lat": "39.633073188952594"
    },
    {
      "id": "pt.ine.add.PTCONT.2081813",
      "street": "R CAPELA",
      "house": "29",
      "postcode": "2480-074",
      "city": "JUNCAL",
      "lon": "-8.888646116274648",
      "lat": "39.63054897977453"
    },
    {
      "id": "pt.ine.add.PTCONT.2091124",
      "street": "R CAPELA",
      "house": "25",
      "postcode": "2480-074",
      "city": "JUNCAL",
      "lon": "-8.888938660786007",
      "lat": "39.63067316943125"
    },
    {
      "id": "pt.ine.add.PTCONT.2101833",
      "street": "R ESCOLA",
      "house": "11",
      "postcode": "2480-052",
      "city": "JUNCAL",
      "lon": "-8.890915781190865",
      "lat": "39.63253366599196"
    },
    {
      "id": "pt.ine.add.PTCONT.2126204",
      "street": "R CAPELA",
      "house": "31",
      "postcode": "2480-074",
      "city": "JUNCAL",
      "lon": "-8.887918331933536",
      "lat": "39.63003132671066"
    },
    {
      "id": "pt.ine.add.PTCONT.2150181",
      "street": "R ESCOLA",
      "house": "1",
      "postcode": "2480-052",
      "city": "JUNCAL",
      "lon": "-8.891437404316616",
      "lat": "39.63336787770972"
    },
    {
      "id": "pt.ine.add.PTCONT.2178534",
      "street": "R CAAPELA",
      "house": "2",
      "postcode": "2480-052",
      "city": "JUNCAL",
      "lon": "-8.891360592546407",
      "lat": "39.63380069693081"
    },
    {
      "id": "pt.ine.add.PTCONT.2193115",
      "street": "R CAPELA",
      "house": "5",
      "postcode": "2480-052",
      "city": "JUNCAL",
      "lon": "-8.891236744705973",
      "lat": "39.63312600871875"
    },
    {
      "id": "pt.ine.add.PTCONT.2203136",
      "street": "R CAPELA",
      "house": "",
      "postcode": "2480-074",
      "city": "JUNCAL",
      "lon": "-8.890867030545222",
      "lat": "39.632335838317594"
    },
    {
      "id": "pt.ine.add.PTCONT.2209907",
      "street": "ESTR CALVARIA",
      "house": "2",
      "postcode": "2480-052",
      "city": "JUNCAL",
      "lon": "-8.891246871006746",
      "lat": "39.63405362457573"
    },
    {
      "id": "pt.ine.add.PTCONT.2251393",
      "street": "ESTR CALVARIA",
      "house": "3",
      "postcode": "2480-052",
      "city": "JUNCAL",
      "lon": "-8.891315575985029",
      "lat": "39.633945096699414"
    },
    {
      "id": "pt.ine.add.PTCONT.2266252",
      "street": "R CAPELA",
      "house": "35",
      "postcode": "2480-074",
      "city": "JUNCAL",
      "lon": "-8.887471351446777",
      "lat": "39.629628931989615"
    }
  ]
}