{
  "data": {
    "distrito": "Évora",
    "concelho": "Montemor-O-Novo",
    "freguesia": "Cabrela",
    "OBJECTID": 138,
    "BGRI2021": "07060100123",
    "DT21": "07",
    "DTMN21": "0706",
    "DTMNFR21": "070601",
    "DTMNFRSEC21": "070601001",
    "SECNUM21": "001",
    "SSNUM21": "23",
    "SECSSNUM21": "00123",
    "OBJECTID_1": 61518,
    "DT": "07",
    "CC": "06",
    "fr": "01",
    "SEC": "001",
    "SS": "23"
  },
  "addresses": [
    {
      "id": "pt.ine.add.PTCONT.1368022",
      "street": "R FRANCISCO ANTONIO CORREIA PALHAVA",
      "house": "12",
      "postcode": "7050-400",
      "city": "CABRELA",
      "lon": "-8.462539610807738",
      "lat": "38.59878012919369"
    },
    {
      "id": "pt.ine.add.PTCONT.1368281",
      "street": "R FRANCISCO ANTONIO CORREIA PALHAVA",
      "house": "10",
      "postcode": "7050-400",
      "city": "CABRELA",
      "lon": "-8.462539610807738",
      "lat": "38.59878012919369"
    },
    {
      "id": "pt.ine.add.PTCONT.1380900",
      "street": "R FRANCISCO ANTÓNIO CORREIA PALHAVA",
      "house": "28",
      "postcode": "7050-400",
      "city": "CABRELA",
      "lon": "-8.46379997072397",
      "lat": "38.59886136737358"
    },
    {
      "id": "pt.ine.add.PTCONT.1389781",
      "street": "PC DA REPUBLICA",
      "house": "5",
      "postcode": "7050-406",
      "city": "CABRELA",
      "lon": "-8.461581549595927",
      "lat": "38.599227007153814"
    },
    {
      "id": "pt.ine.add.PTCONT.1393538",
      "street": "R FRANCISCO ANTÓNIO CORREIA PALHAVA",
      "house": "14",
      "postcode": "7050-400",
      "city": "CABRELA",
      "lon": "-8.462665961918944",
      "lat": "38.598783965936846"
    },
    {
      "id": "pt.ine.add.PTCONT.1407931",
      "street": "R DA FONTE",
      "house": "1",
      "postcode": "7050-410",
      "city": "CABRELA",
      "lon": "-8.462395529952692",
      "lat": "38.59956869678587"
    },
    {
      "id": "pt.ine.add.PTCONT.1408149",
      "street": "PC DA REPUBLICA",
      "house": "1",
      "postcode": "7050-406",
      "city": "CABRELA",
      "lon": "-8.461680861287135",
      "lat": "38.59896380377049"
    },
    {
      "id": "pt.ine.add.PTCONT.1436639",
      "street": "R FRANCISCO ANTÓNIO CORREIA PALHAVA",
      "house": "26",
      "postcode": "7050-400",
      "city": "CABRELA",
      "lon": "-8.463414997319262",
      "lat": "38.598778041016516"
    },
    {
      "id": "pt.ine.add.PTCONT.1441818",
      "street": "R FRANCISCO ANTÓNIO CORREIA PALHAVA",
      "house": "16",
      "postcode": "7050-400",
      "city": "CABRELA",
      "lon": "-8.462737649060522",
      "lat": "38.59878105613611"
    },
    {
      "id": "pt.ine.add.PTCONT.1442336",
      "street": "TV POCO",
      "house": "5",
      "postcode": "7050-425",
      "city": "CABRELA",
      "lon": "-8.461952860354776",
      "lat": "38.59925568379731"
    },
    {
      "id": "pt.ine.add.PTCONT.1448221",
      "street": "R FRANCISCO ANTÓNIO CORREIA PALHAVA",
      "house": "22",
      "postcode": "7050-400",
      "city": "CABRELA",
      "lon": "-8.463005122686921",
      "lat": "38.59876513151292"
    },
    {
      "id": "pt.ine.add.PTCONT.1457147",
      "street": "R FRANCISCO ANTÓNIO CORREIA PALHAVA",
      "house": "8",
      "postcode": "7050-400",
      "city": "CABRELA",
      "lon": "-8.462382308039924",
      "lat": "38.59878252759526"
    },
    {
      "id": "pt.ine.add.PTCONT.1458696",
      "street": "PC DA REPUBLICA",
      "house": "3",
      "postcode": "7050-406",
      "city": "CABRELA",
      "lon": "-8.46163514339094",
      "lat": "38.599102432634936"
    },
    {
      "id": "pt.ine.add.PTCONT.1461654",
      "street": "TV DA FAZENDA DO POÇO - EDIF RODEIO",
      "house": "1",
      "postcode": "7050-425",
      "city": "CABRELA",
      "lon": "-8.461971731073463",
      "lat": "38.598969373675985"
    },
    {
      "id": "pt.ine.add.PTCONT.1463166",
      "street": "R FRANCISCO ANTÓNIO CORREIA PALHAVA",
      "house": "4",
      "postcode": "7050-400",
      "city": "CABRELA",
      "lon": "-8.462145059313437",
      "lat": "38.598782420157924"
    },
    {
      "id": "pt.ine.add.PTCONT.1463949",
      "street": "R FRANCISCO ANTÓNIO CORREIA PALHAVA",
      "house": "18",
      "postcode": "7050-400",
      "city": "CABRELA",
      "lon": "-8.462843231124852",
      "lat": "38.59878671952167"
    },
    {
      "id": "pt.ine.add.PTCONT.1465486",
      "street": "R FRANCISCO ANTÓNIO CORREIA PALHAVA",
      "house": "6",
      "postcode": "7050-400",
      "city": "CABRELA",
      "lon": "-8.462296674563499",
      "lat": "38.598789415755135"
    }
  ]
}