{
  "data": {
    "distrito": "Lisboa",
    "concelho": "Mafra",
    "freguesia": "União das freguesias de Malveira e São Miguel de Alcainça",
    "OBJECTID": 105,
    "BGRI2021": "11092100105",
    "DT21": "11",
    "DTMN21": "1109",
    "DTMNFR21": "110921",
    "DTMNFRSEC21": "110921001",
    "SECNUM21": "001",
    "SSNUM21": "05",
    "SECSSNUM21": "00105",
    "OBJECTID_1": 107980,
    "DT": "11",
    "CC": "09",
    "fr": "21",
    "SEC": "001",
    "SS": "05"
  },
  "addresses": [
    {
      "id": "pt.ine.add.PTCONT.2316860",
      "street": "AL PROF DR LEITE PINTO CASA DA ANDORINHA",
      "house": "18",
      "postcode": "2665-245",
      "city": "MALVEIRA",
      "lon": "-9.255994155930676",
      "lat": "38.935600378634284"
    },
    {
      "id": "pt.ine.add.PTCONT.2338421",
      "street": "R 1 DE MAIO",
      "house": "47",
      "postcode": "2665-198",
      "city": "MALVEIRA",
      "lon": "-9.253850825367683",
      "lat": "38.93498144752066"
    },
    {
      "id": "pt.ine.add.PTCONT.2370296",
      "street": "R 1 DE MAIO",
      "house": "41",
      "postcode": "2665-198",
      "city": "MALVEIRA",
      "lon": "-9.25415833538178",
      "lat": "38.93473529219502"
    },
    {
      "id": "pt.ine.add.PTCONT.2453939",
      "street": "AL PROF DR LEITE PINTO CASA A TOMADA",
      "house": "",
      "postcode": "2665-245",
      "city": "MALVEIRA",
      "lon": "-9.257463295043834",
      "lat": "38.936613088463304"
    },
    {
      "id": "pt.ine.add.PTCONT.2463173",
      "street": "AL PROF DR LEITE PINTO",
      "house": "12",
      "postcode": "2665-245",
      "city": "MALVEIRA",
      "lon": "-9.255552168989878",
      "lat": "38.934631821507914"
    },
    {
      "id": "pt.ine.add.PTCONT.2500550",
      "street": "R 1 DE MAIO",
      "house": "31",
      "postcode": "2665-198",
      "city": "MALVEIRA",
      "lon": "-9.254464850385494",
      "lat": "38.934426093206824"
    },
    {
      "id": "pt.ine.add.PTCONT.2500551",
      "street": "R 1 DE MAIO",
      "house": "31",
      "postcode": "2665-198",
      "city": "MALVEIRA",
      "lon": "-9.254464850385494",
      "lat": "38.934426093206824"
    },
    {
      "id": "pt.ine.add.PTCONT.2500552",
      "street": "R 1 DE MAIO",
      "house": "31",
      "postcode": "2665-198",
      "city": "MALVEIRA",
      "lon": "-9.254464850385494",
      "lat": "38.934426093206824"
    },
    {
      "id": "pt.ine.add.PTCONT.2500553",
      "street": "R 1 DE MAIO",
      "house": "31",
      "postcode": "2665-198",
      "city": "MALVEIRA",
      "lon": "-9.254464850385494",
      "lat": "38.934426093206824"
    },
    {
      "id": "pt.ine.add.PTCONT.2502824",
      "street": "R 1 DE MAIO",
      "house": "31B",
      "postcode": "2665-198",
      "city": "MALVEIRA",
      "lon": "-9.254582146083338",
      "lat": "38.934551071063595"
    },
    {
      "id": "pt.ine.add.PTCONT.2563763",
      "street": "R 1 DE MAIO",
      "house": "43",
      "postcode": "2665-198",
      "city": "MALVEIRA",
      "lon": "-9.25406707973304",
      "lat": "38.93479922106311"
    },
    {
      "id": "pt.ine.add.PTCONT.2563764",
      "street": "R 1 DE MAIO",
      "house": "43",
      "postcode": "2665-198",
      "city": "MALVEIRA",
      "lon": "-9.25406707973304",
      "lat": "38.93479922106311"
    },
    {
      "id": "pt.ine.add.PTCONT.2565666",
      "street": "R 1 DE MAIO",
      "house": "43",
      "postcode": "2665-198",
      "city": "MALVEIRA",
      "lon": "-9.25406707973304",
      "lat": "38.93479922106311"
    },
    {
      "id": "pt.ine.add.PTCONT.2569850",
      "street": "ESTR MOINHOS",
      "house": "4",
      "postcode": "2665-254",
      "city": "MALVEIRA",
      "lon": "-9.258551651269345",
      "lat": "38.93615222487003"
    },
    {
      "id": "pt.ine.add.PTCONT.2569851",
      "street": "ESTR MOINHOS",
      "house": "4",
      "postcode": "2665-254",
      "city": "MALVEIRA",
      "lon": "-9.258551651269345",
      "lat": "38.93615222487003"
    },
    {
      "id": "pt.ine.add.PTCONT.2569852",
      "street": "ESTR MOINHOS",
      "house": "4",
      "postcode": "2665-254",
      "city": "MALVEIRA",
      "lon": "-9.258551651269345",
      "lat": "38.93615222487003"
    },
    {
      "id": "pt.ine.add.PTCONT.2569853",
      "street": "ESTR MOINHOS",
      "house": "4",
      "postcode": "2665-254",
      "city": "MALVEIRA",
      "lon": "-9.258551651269345",
      "lat": "38.93615222487003"
    },
    {
      "id": "pt.ine.add.PTCONT.2569854",
      "street": "ESTR MOINHOS",
      "house": "4",
      "postcode": "2665-254",
      "city": "MALVEIRA",
      "lon": "-9.258551651269345",
      "lat": "38.93615222487003"
    },
    {
      "id": "pt.ine.add.PTCONT.2569855",
      "street": "ESTR MOINHOS",
      "house": "4",
      "postcode": "2665-254",
      "city": "MALVEIRA",
      "lon": "-9.258551651269345",
      "lat": "38.93615222487003"
    },
    {
      "id": "pt.ine.add.PTCONT.2574770",
      "street": "ESTR MOINHOS",
      "house": "4",
      "postcode": "2665-254",
      "city": "MALVEIRA",
      "lon": "-9.258551651269345",
      "lat": "38.93615222487003"
    },
    {
      "id": "pt.ine.add.PTCONT.2599093",
      "street": "AL PROF DR LEITE PINTO",
      "house": "26C",
      "postcode": "2665-245",
      "city": "MALVEIRA",
      "lon": "-9.257641821454522",
      "lat": "38.93623305427004"
    },
    {
      "id": "pt.ine.add.PTCONT.2599094",
      "street": "AL PROF DR LEITE PINTO",
      "house": "26C",
      "postcode": "2665-245",
      "city": "MALVEIRA",
      "lon": "-9.257641821454522",
      "lat": "38.93623305427004"
    },
    {
      "id": "pt.ine.add.PTCONT.2599095",
      "street": "AL PROF DR LEITE PINTO",
      "house": "26C",
      "postcode": "2665-245",
      "city": "MALVEIRA",
      "lon": "-9.257641821454522",
      "lat": "38.93623305427004"
    },
    {
      "id": "pt.ine.add.PTCONT.2599096",
      "street": "AL PROF DR LEITE PINTO",
      "house": "26C",
      "postcode": "2665-245",
      "city": "MALVEIRA",
      "lon": "-9.257641821454522",
      "lat": "38.93623305427004"
    },
    {
      "id": "pt.ine.add.PTCONT.2615231",
      "street": "R 1 DE MAIO",
      "house": "39",
      "postcode": "2665-198",
      "city": "MALVEIRA",
      "lon": "-9.254191652186348",
      "lat": "38.93465390480286"
    },
    {
      "id": "pt.ine.add.PTCONT.2677750",
      "street": "R 1 DE MAIO QTA DA LAGOA",
      "house": "53 A",
      "postcode": "2665-198",
      "city": "MALVEIRA",
      "lon": "-9.25361089038006",
      "lat": "38.93585747737792"
    },
    {
      "id": "pt.ine.add.PTCONT.2681555",
      "street": "AL PROF DR LEITE PINTO",
      "house": "14",
      "postcode": "2665-245",
      "city": "MALVEIRA",
      "lon": "-9.255787333300244",
      "lat": "38.93491779931418"
    },
    {
      "id": "pt.ine.add.PTCONT.2697755",
      "street": "AL PROF DR LEITE PINTO",
      "house": "18",
      "postcode": "2665-245",
      "city": "MALVEIRA",
      "lon": "-9.256019064804734",
      "lat": "38.93571723629455"
    },
    {
      "id": "pt.ine.add.PTCONT.2713565",
      "street": "R 1 DE MAIO",
      "house": "45",
      "postcode": "2665-198",
      "city": "MALVEIRA",
      "lon": "-9.253941656114103",
      "lat": "38.934890500440176"
    },
    {
      "id": "pt.ine.add.PTCONT.2713566",
      "street": "R 1 DE MAIO",
      "house": "45",
      "postcode": "2665-198",
      "city": "MALVEIRA",
      "lon": "-9.253941656114103",
      "lat": "38.934890500440176"
    },
    {
      "id": "pt.ine.add.PTCONT.2713567",
      "street": "R 1 DE MAIO",
      "house": "45",
      "postcode": "2665-198",
      "city": "MALVEIRA",
      "lon": "-9.253941656114103",
      "lat": "38.934890500440176"
    },
    {
      "id": "pt.ine.add.PTCONT.2713568",
      "street": "R 1 DE MAIO",
      "house": "37",
      "postcode": "2665-198",
      "city": "MALVEIRA",
      "lon": "-9.25423678353859",
      "lat": "38.93459041889182"
    },
    {
      "id": "pt.ine.add.PTCONT.2713570",
      "street": "AL PROF DR LEITE PINTO",
      "house": "22",
      "postcode": "2665-245",
      "city": "MALVEIRA",
      "lon": "-9.25694298023451",
      "lat": "38.93579841865276"
    },
    {
      "id": "pt.ine.add.PTCONT.2730828",
      "street": "AL PROF DR LEITE PINTO CASAL DOS PASSARINHOS",
      "house": "20",
      "postcode": "2665-245",
      "city": "MALVEIRA",
      "lon": "-9.256608575847363",
      "lat": "38.93580163806771"
    },
    {
      "id": "pt.ine.add.PTCONT.2730829",
      "street": "AL PROF DR LEITE PINTO",
      "house": "26 A",
      "postcode": "2665-245",
      "city": "MALVEIRA",
      "lon": "-9.257587588547986",
      "lat": "38.935720150235966"
    },
    {
      "id": "pt.ine.add.PTCONT.2730830",
      "street": "AL PROF DR LEITE PINTO",
      "house": "26 A",
      "postcode": "2665-245",
      "city": "MALVEIRA",
      "lon": "-9.257587588547986",
      "lat": "38.935720150235966"
    },
    {
      "id": "pt.ine.add.PTCONT.2824382",
      "street": "R FORTE",
      "house": "3",
      "postcode": "2665-230",
      "city": "MALVEIRA",
      "lon": "-9.255587725649928",
      "lat": "38.93542413832485"
    },
    {
      "id": "pt.ine.add.PTCONT.2845433",
      "street": "AL PROF DR LEITE PINTO",
      "house": "6",
      "postcode": "2665-245",
      "city": "MALVEIRA",
      "lon": "-9.255015356882618",
      "lat": "38.934231645733185"
    },
    {
      "id": "pt.ine.add.PTCONT.2865868",
      "street": "R LAGOA",
      "house": "1",
      "postcode": "2665-243",
      "city": "MALVEIRA",
      "lon": "-9.253301389862187",
      "lat": "38.935977545551076"
    },
    {
      "id": "pt.ine.add.PTCONT.2876525",
      "street": "R FORTE",
      "house": "6",
      "postcode": "2665-230",
      "city": "MALVEIRA",
      "lon": "-9.255351282805199",
      "lat": "38.935057105064104"
    },
    {
      "id": "pt.ine.add.PTCONT.2881757",
      "street": "R 1 DE MAIO",
      "house": "49",
      "postcode": "2665-198",
      "city": "MALVEIRA",
      "lon": "-9.253782631277632",
      "lat": "38.93504515472297"
    },
    {
      "id": "pt.ine.add.PTCONT.2911576",
      "street": "AL PROF DR LEITE PINTO",
      "house": "24",
      "postcode": "2665-245",
      "city": "MALVEIRA",
      "lon": "-9.257407071973216",
      "lat": "38.935974098778814"
    },
    {
      "id": "pt.ine.add.PTCONT.2945905",
      "street": "AL PROF DR LEITE PINTO",
      "house": "10",
      "postcode": "2665-245",
      "city": "MALVEIRA",
      "lon": "-9.255202690555917",
      "lat": "38.93440999465509"
    },
    {
      "id": "pt.ine.add.PTCONT.2945906",
      "street": "AL PROF DR LEITE PINTO",
      "house": "10",
      "postcode": "2665-245",
      "city": "MALVEIRA",
      "lon": "-9.255202690555917",
      "lat": "38.93440999465509"
    },
    {
      "id": "pt.ine.add.PTCONT.2945907",
      "street": "PCT MATA",
      "house": "2",
      "postcode": "2665-245",
      "city": "MALVEIRA",
      "lon": "-9.258279029221738",
      "lat": "38.93641607031117"
    },
    {
      "id": "pt.ine.add.PTCONT.2945908",
      "street": "PCT MATA",
      "house": "2",
      "postcode": "2665-245",
      "city": "MALVEIRA",
      "lon": "-9.258279029221738",
      "lat": "38.93641607031117"
    },
    {
      "id": "pt.ine.add.PTCONT.2945909",
      "street": "PCT MATA",
      "house": "2",
      "postcode": "2665-245",
      "city": "MALVEIRA",
      "lon": "-9.258279029221738",
      "lat": "38.93641607031117"
    },
    {
      "id": "pt.ine.add.PTCONT.2945910",
      "street": "PCT MATA",
      "house": "2",
      "postcode": "2665-245",
      "city": "MALVEIRA",
      "lon": "-9.258279029221738",
      "lat": "38.93641607031117"
    },
    {
      "id": "pt.ine.add.PTCONT.2945911",
      "street": "PCT MATA",
      "house": "2",
      "postcode": "2665-245",
      "city": "MALVEIRA",
      "lon": "-9.258279029221738",
      "lat": "38.93641607031117"
    },
    {
      "id": "pt.ine.add.PTCONT.2945912",
      "street": "PCT MATA",
      "house": "2",
      "postcode": "2665-245",
      "city": "MALVEIRA",
      "lon": "-9.258279029221738",
      "lat": "38.93641607031117"
    },
    {
      "id": "pt.ine.add.PTCONT.2945913",
      "street": "PCT MATA",
      "house": "2",
      "postcode": "2665-245",
      "city": "MALVEIRA",
      "lon": "-9.258279029221738",
      "lat": "38.93641607031117"
    },
    {
      "id": "pt.ine.add.PTCONT.2945914",
      "street": "PCT MATA",
      "house": "2",
      "postcode": "2665-245",
      "city": "MALVEIRA",
      "lon": "-9.258279029221738",
      "lat": "38.93641607031117"
    },
    {
      "id": "pt.ine.add.PTCONT.2945915",
      "street": "AL PROF DR LEITE PINTO",
      "house": "8",
      "postcode": "2665-245",
      "city": "MALVEIRA",
      "lon": "-9.255062332127913",
      "lat": "38.934285239116875"
    },
    {
      "id": "pt.ine.add.PTCONT.2957182",
      "street": "R 1 DE MAIO",
      "house": "29",
      "postcode": "2665-198",
      "city": "MALVEIRA",
      "lon": "-9.254590414372155",
      "lat": "38.9343438194069"
    },
    {
      "id": "pt.ine.add.PTCONT.2957183",
      "street": "R 1 DE MAIO",
      "house": "29",
      "postcode": "2665-198",
      "city": "MALVEIRA",
      "lon": "-9.254590414372155",
      "lat": "38.9343438194069"
    },
    {
      "id": "pt.ine.add.PTCONT.2966352",
      "street": "R 1 DE MAIO",
      "house": "33",
      "postcode": "2665-198",
      "city": "MALVEIRA",
      "lon": "-9.254373595407417",
      "lat": "38.934490022307976"
    },
    {
      "id": "pt.ine.add.PTCONT.3002572",
      "street": "R 1 DE MAIO",
      "house": "53",
      "postcode": "2665-198",
      "city": "MALVEIRA",
      "lon": "-9.253824879727198",
      "lat": "38.935531153343724"
    },
    {
      "id": "pt.ine.add.PTCONT.3071774",
      "street": "AL PROF DR LEITE PINTO CASA DO PASSARINHO",
      "house": "18",
      "postcode": "2665-245",
      "city": "MALVEIRA",
      "lon": "-9.256213247893161",
      "lat": "38.935598270632894"
    },
    {
      "id": "pt.ine.add.PTCONT.3071775",
      "street": "AL PROF DR LEITE PINTO CASA DO PASSARINHO",
      "house": "18",
      "postcode": "2665-245",
      "city": "MALVEIRA",
      "lon": "-9.256213247893161",
      "lat": "38.935598270632894"
    },
    {
      "id": "pt.ine.add.PTCONT.3106078",
      "street": "ESTR MOINHOS",
      "house": "2",
      "postcode": "2665-254",
      "city": "MALVEIRA",
      "lon": "-9.258400179384171",
      "lat": "38.936054603040404"
    },
    {
      "id": "pt.ine.add.PTCONT.3106079",
      "street": "ESTR MOINHOS",
      "house": "2",
      "postcode": "2665-254",
      "city": "MALVEIRA",
      "lon": "-9.258400179384171",
      "lat": "38.936054603040404"
    },
    {
      "id": "pt.ine.add.PTCONT.3106080",
      "street": "ESTR MOINHOS",
      "house": "2",
      "postcode": "2665-254",
      "city": "MALVEIRA",
      "lon": "-9.258400179384171",
      "lat": "38.936054603040404"
    },
    {
      "id": "pt.ine.add.PTCONT.3106081",
      "street": "ESTR MOINHOS",
      "house": "2",
      "postcode": "2665-254",
      "city": "MALVEIRA",
      "lon": "-9.258400179384171",
      "lat": "38.936054603040404"
    },
    {
      "id": "pt.ine.add.PTCONT.3106082",
      "street": "ESTR MOINHOS",
      "house": "2",
      "postcode": "2665-254",
      "city": "MALVEIRA",
      "lon": "-9.258400179384171",
      "lat": "38.936054603040404"
    },
    {
      "id": "pt.ine.add.PTCONT.3106083",
      "street": "ESTR MOINHOS",
      "house": "2",
      "postcode": "2665-254",
      "city": "MALVEIRA",
      "lon": "-9.258400179384171",
      "lat": "38.936054603040404"
    },
    {
      "id": "pt.ine.add.PTCONT.3106084",
      "street": "ESTR MOINHOS",
      "house": "2",
      "postcode": "2665-254",
      "city": "MALVEIRA",
      "lon": "-9.258400179384171",
      "lat": "38.936054603040404"
    },
    {
      "id": "pt.ine.add.PTCONT.3108356",
      "street": "ESTR MOINHOS",
      "house": "2",
      "postcode": "2665-254",
      "city": "MALVEIRA",
      "lon": "-9.258400179384171",
      "lat": "38.936054603040404"
    },
    {
      "id": "pt.ine.add.PTCONT.3179440",
      "street": "R 1 DE MAIO",
      "house": "49 A",
      "postcode": "2665-198",
      "city": "MALVEIRA",
      "lon": "-9.253737215733947",
      "lat": "38.935090628211675"
    },
    {
      "id": "pt.ine.add.PTCONT.3179441",
      "street": "R 1 MAIO",
      "house": "49",
      "postcode": "2665-198",
      "city": "MALVEIRA",
      "lon": "-9.253737215733947",
      "lat": "38.935090628211675"
    },
    {
      "id": "pt.ine.add.PTCONT.3216145",
      "street": "R 1 MAIO",
      "house": "25A",
      "postcode": "2665-198",
      "city": "MALVEIRA",
      "lon": "-9.254783177419267",
      "lat": "38.93413479487257"
    },
    {
      "id": "pt.ine.add.PTCONT.3225523",
      "street": "R 1 DE MAIO",
      "house": "371",
      "postcode": "2665-198",
      "city": "MALVEIRA",
      "lon": "-9.254434512579508",
      "lat": "38.93469660929181"
    },
    {
      "id": "pt.ine.add.PTCONT.3234943",
      "street": "PCT MATA",
      "house": "1",
      "postcode": "2665-245",
      "city": "MALVEIRA",
      "lon": "-9.25845271018316",
      "lat": "38.93645943326597"
    },
    {
      "id": "pt.ine.add.PTCONT.3234944",
      "street": "PCT MATA",
      "house": "1",
      "postcode": "2665-245",
      "city": "MALVEIRA",
      "lon": "-9.25845271018316",
      "lat": "38.93645943326597"
    },
    {
      "id": "pt.ine.add.PTCONT.3234945",
      "street": "PCT MATA",
      "house": "1",
      "postcode": "2665-245",
      "city": "MALVEIRA",
      "lon": "-9.25845271018316",
      "lat": "38.93645943326597"
    },
    {
      "id": "pt.ine.add.PTCONT.3234946",
      "street": "PCT MATA",
      "house": "1",
      "postcode": "2665-245",
      "city": "MALVEIRA",
      "lon": "-9.25845271018316",
      "lat": "38.93645943326597"
    },
    {
      "id": "pt.ine.add.PTCONT.3234947",
      "street": "PCT MATA",
      "house": "1",
      "postcode": "2665-245",
      "city": "MALVEIRA",
      "lon": "-9.25845271018316",
      "lat": "38.93645943326597"
    },
    {
      "id": "pt.ine.add.PTCONT.3234948",
      "street": "PCT MATA",
      "house": "1",
      "postcode": "2665-245",
      "city": "MALVEIRA",
      "lon": "-9.25845271018316",
      "lat": "38.93645943326597"
    },
    {
      "id": "pt.ine.add.PTCONT.3234949",
      "street": "PCT MATA",
      "house": "1",
      "postcode": "2665-245",
      "city": "MALVEIRA",
      "lon": "-9.25845271018316",
      "lat": "38.93645943326597"
    },
    {
      "id": "pt.ine.add.PTCONT.3234950",
      "street": "AL PROF DR LEITE PINTO",
      "house": "26 B",
      "postcode": "2665-245",
      "city": "MALVEIRA",
      "lon": "-9.257868320380457",
      "lat": "38.935969654784365"
    },
    {
      "id": "pt.ine.add.PTCONT.3234951",
      "street": "AL PROF DR LEITE PINTO",
      "house": "26 B",
      "postcode": "2665-245",
      "city": "MALVEIRA",
      "lon": "-9.257868320380457",
      "lat": "38.935969654784365"
    },
    {
      "id": "pt.ine.add.PTCONT.3238422",
      "street": "PCT MATA",
      "house": "1",
      "postcode": "2665-245",
      "city": "MALVEIRA",
      "lon": "-9.25845271018316",
      "lat": "38.93645943326597"
    },
    {
      "id": "pt.ine.add.PTCONT.3247882",
      "street": "R FORTE",
      "house": "1",
      "postcode": "2665-230",
      "city": "MALVEIRA",
      "lon": "-9.255631862266837",
      "lat": "38.9352976090545"
    },
    {
      "id": "pt.ine.add.PTCONT.3411635",
      "street": "R 1 DE MAIO",
      "house": "35",
      "postcode": "2665-198",
      "city": "MALVEIRA",
      "lon": "-9.254282340265108",
      "lat": "38.934553951339524"
    },
    {
      "id": "pt.ine.add.PTCONT.3436726",
      "street": "R 1 DE MAIO",
      "house": "51",
      "postcode": "2665-198",
      "city": "MALVEIRA",
      "lon": "-9.253691941878843",
      "lat": "38.935145107809305"
    },
    {
      "id": "pt.ine.add.PTCONT.3454114",
      "street": "AL PROF DR LEITE PINTO CASAL SANTO ANTENIO",
      "house": "16",
      "postcode": "2665-245",
      "city": "MALVEIRA",
      "lon": "-9.255877282088283",
      "lat": "38.935502420637484"
    },
    {
      "id": "pt.ine.add.PTCONT.3454606",
      "street": "ESTR MOINHOS",
      "house": "4",
      "postcode": "2665-254",
      "city": "MALVEIRA",
      "lon": "-9.258551651269345",
      "lat": "38.93615222487003"
    }
  ]
}