{
  "data": {
    "distrito": "Set√∫bal",
    "concelho": "Sesimbra",
    "freguesia": "Sesimbra (Castelo)",
    "OBJECTID": 351,
    "BGRI2021": "15110101213",
    "DT21": "15",
    "DTMN21": "1511",
    "DTMNFR21": "151101",
    "DTMNFRSEC21": "151101012",
    "SECNUM21": "012",
    "SSNUM21": "13",
    "SECSSNUM21": "01213",
    "OBJECTID_1": 169168,
    "DT": "15",
    "CC": "11",
    "fr": "01",
    "SEC": "012",
    "SS": "13"
  },
  "addresses": [
    {
      "id": "pt.ine.add.PTCONT.4708596",
      "street": "R PALMEIRAS",
      "house": "",
      "postcode": "2970-403",
      "city": "SESIMBRA",
      "lon": "-9.168526959144017",
      "lat": "38.502040905062316"
    },
    {
      "id": "pt.ine.add.PTCONT.4727664",
      "street": "R PARIS",
      "house": "",
      "postcode": "2970-407",
      "city": "SESIMBRA",
      "lon": "-9.16782841163026",
      "lat": "38.5012903913949"
    },
    {
      "id": "pt.ine.add.PTCONT.4751920",
      "street": "TV POR-DO-SOL",
      "house": "",
      "postcode": "2970-431",
      "city": "SESIMBRA",
      "lon": "-9.16879920986191",
      "lat": "38.501840317481665"
    },
    {
      "id": "pt.ine.add.PTCONT.4751921",
      "street": "R SEM NOME",
      "house": "",
      "postcode": "2970-409",
      "city": "SESIMBRA",
      "lon": "-9.167900800731713",
      "lat": "38.50234370983551"
    },
    {
      "id": "pt.ine.add.PTCONT.4776650",
      "street": "R PALMEIRAS",
      "house": "",
      "postcode": "2970-403",
      "city": "SESIMBRA",
      "lon": "-9.16873327566095",
      "lat": "38.50203908071212"
    },
    {
      "id": "pt.ine.add.PTCONT.4812945",
      "street": "R PARIS",
      "house": "",
      "postcode": "2970-407",
      "city": "SESIMBRA",
      "lon": "-9.168226871144565",
      "lat": "38.50109769811985"
    },
    {
      "id": "pt.ine.add.PTCONT.4981587",
      "street": "R PARIS",
      "house": "",
      "postcode": "2970-407",
      "city": "SESIMBRA",
      "lon": "-9.168306330711133",
      "lat": "38.501042946615414"
    },
    {
      "id": "pt.ine.add.PTCONT.5032555",
      "street": "ESTR SESIMBRA QTA",
      "house": "",
      "postcode": "2970-481",
      "city": "SESIMBRA",
      "lon": "-9.166122269661187",
      "lat": "38.500620831207605"
    },
    {
      "id": "pt.ine.add.PTCONT.5076516",
      "street": "R PRIMAVERA",
      "house": "",
      "postcode": "2970-392",
      "city": "SESIMBRA",
      "lon": "-9.168191595046403",
      "lat": "38.50183668140919"
    },
    {
      "id": "pt.ine.add.PTCONT.5082036",
      "street": "R PARIS",
      "house": "",
      "postcode": "2970-407",
      "city": "SESIMBRA",
      "lon": "-9.167658158025706",
      "lat": "38.50140900202343"
    },
    {
      "id": "pt.ine.add.PTCONT.5104466",
      "street": "R PRIMAVERA",
      "house": "",
      "postcode": "2970-392",
      "city": "SESIMBRA",
      "lon": "-9.167833308900462",
      "lat": "38.50163265931208"
    }
  ]
}