{
  "data": {
    "ilha": "Ilha da Madeira (Madeira)",
    "concelho": "Calheta",
    "freguesia": "Arco da Calheta",
    "OBJECTID": 155,
    "BGRI2021": "31010100101",
    "DT21": "31",
    "DTMN21": "3101",
    "DTMNFR21": "310101",
    "DTMNFRSEC21": "310101001",
    "SECNUM21": "001",
    "SSNUM21": "01",
    "SECSSNUM21": "00101",
    "OBJECTID_1": 203349,
    "DT": "31",
    "CC": "01",
    "fr": "01",
    "SEC": "001",
    "SS": "01",
    "BGRI2021_1": "31010100101"
  },
  "addresses": [
    {
      "id": "pt.ine.add.MAD.24405",
      "street": "TV LOMBO GUINE",
      "house": "20",
      "postcode": "9370-704",
      "city": "ARCO DA CALHETA",
      "lon": "-17.153305875339296",
      "lat": "32.72298328371657"
    },
    {
      "id": "pt.ine.add.MAD.24406",
      "street": "TV LOMBO GUINE",
      "house": "24",
      "postcode": "9370-704",
      "city": "ARCO DA CALHETA",
      "lon": "-17.153106336922992",
      "lat": "32.72267107802248"
    },
    {
      "id": "pt.ine.add.MAD.24407",
      "street": "CAM CALES CHADA",
      "house": "61",
      "postcode": "9370-711",
      "city": "ARCO DA CALHETA",
      "lon": "-17.153049638391334",
      "lat": "32.721643987220624"
    },
    {
      "id": "pt.ine.add.MAD.24408",
      "street": "CAM ACHADA",
      "house": "8",
      "postcode": "9370-711",
      "city": "ARCO DA CALHETA",
      "lon": "-17.153374973579805",
      "lat": "32.72186385063197"
    },
    {
      "id": "pt.ine.add.MAD.24409",
      "street": "R NOVA DO LORETO",
      "house": "74",
      "postcode": "9370-705",
      "city": "ARCO DA CALHETA",
      "lon": "-17.154072641055105",
      "lat": "32.72248312922613"
    },
    {
      "id": "pt.ine.add.MAD.24538",
      "street": "VR ACHADA DE BAIXO",
      "house": "1",
      "postcode": "9370-706",
      "city": "ARCO DA CALHETA",
      "lon": "-17.15412387117259",
      "lat": "32.72150829277573"
    },
    {
      "id": "pt.ine.add.MAD.24539",
      "street": "VR ACHADA DE BAIXO",
      "house": "3",
      "postcode": "9370-706",
      "city": "ARCO DA CALHETA",
      "lon": "-17.15420003600556",
      "lat": "32.72157011043071"
    },
    {
      "id": "pt.ine.add.MAD.24540",
      "street": "CAM CALES CHADA",
      "house": "",
      "postcode": "9370-711",
      "city": "ARCO DA CALHETA",
      "lon": "-17.154313868996415",
      "lat": "32.721423864013964"
    },
    {
      "id": "pt.ine.add.MAD.24541",
      "street": "CAM CALES CHADA",
      "house": "43",
      "postcode": "9370-711",
      "city": "ARCO DA CALHETA",
      "lon": "-17.15478593393152",
      "lat": "32.721091096768504"
    },
    {
      "id": "pt.ine.add.MAD.25058",
      "street": "R NOVA DO LORETO",
      "house": "50",
      "postcode": "9370-705",
      "city": "ARCO DA CALHETA",
      "lon": "-17.15542879930344",
      "lat": "32.72120629594038"
    },
    {
      "id": "pt.ine.add.MAD.25059",
      "street": "VR FONTE RAIZES",
      "house": "9",
      "postcode": "9370-706",
      "city": "ARCO DA CALHETA",
      "lon": "-17.15555307662232",
      "lat": "32.721050850720026"
    },
    {
      "id": "pt.ine.add.MAD.25060",
      "street": "VR FONTE RAIZES",
      "house": "10",
      "postcode": "9370-706",
      "city": "ARCO DA CALHETA",
      "lon": "-17.15585842066321",
      "lat": "32.72088327281128"
    },
    {
      "id": "pt.ine.add.MAD.25061",
      "street": "VR REFORCO",
      "house": "5",
      "postcode": "9370-706",
      "city": "ARCO DA CALHETA",
      "lon": "-17.15591220434494",
      "lat": "32.720458496590645"
    },
    {
      "id": "pt.ine.add.MAD.25062",
      "street": "CAM CALES CHADA",
      "house": "23",
      "postcode": "9370-711",
      "city": "ARCO DA CALHETA",
      "lon": "-17.155834117871947",
      "lat": "32.71987366273924"
    },
    {
      "id": "pt.ine.add.MAD.25063",
      "street": "VR CALES",
      "house": "2",
      "postcode": "9370-705",
      "city": "ARCO DA CALHETA",
      "lon": "-17.156113325875157",
      "lat": "32.719950022771876"
    },
    {
      "id": "pt.ine.add.MAD.25245",
      "street": "VR TENDA",
      "house": "10",
      "postcode": "9370-091",
      "city": "ARCO DA CALHETA",
      "lon": "-17.156426535884165",
      "lat": "32.719223185570186"
    },
    {
      "id": "pt.ine.add.MAD.25246",
      "street": "CAM CALES CHADA",
      "house": "",
      "postcode": "9370-711",
      "city": "ARCO DA CALHETA",
      "lon": "-17.156120547443308",
      "lat": "32.71936372149743"
    },
    {
      "id": "pt.ine.add.MAD.25247",
      "street": "ER 222",
      "house": "412",
      "postcode": "9370-702",
      "city": "ARCO DA CALHETA",
      "lon": "-17.15690314013054",
      "lat": "32.71907971286706"
    },
    {
      "id": "pt.ine.add.MAD.25248",
      "street": "ER 222",
      "house": "418",
      "postcode": "9370-702",
      "city": "ARCO DA CALHETA",
      "lon": "-17.15702195884214",
      "lat": "32.719140794780735"
    },
    {
      "id": "pt.ine.add.MAD.25249",
      "street": "ER 222",
      "house": "418",
      "postcode": "9370-702",
      "city": "ARCO DA CALHETA",
      "lon": "-17.15702195884214",
      "lat": "32.719140794780735"
    },
    {
      "id": "pt.ine.add.MAD.25250",
      "street": "ER 222",
      "house": "418A",
      "postcode": "9370-702",
      "city": "ARCO DA CALHETA",
      "lon": "-17.156895949932345",
      "lat": "32.71922412631681"
    },
    {
      "id": "pt.ine.add.MAD.25251",
      "street": "ER 222",
      "house": "418A",
      "postcode": "9370-702",
      "city": "ARCO DA CALHETA",
      "lon": "-17.156895949932345",
      "lat": "32.71922412631681"
    },
    {
      "id": "pt.ine.add.MAD.25252",
      "street": "ER 222",
      "house": "428",
      "postcode": "9370-702",
      "city": "ARCO DA CALHETA",
      "lon": "-17.15727004318449",
      "lat": "32.71925376033618"
    },
    {
      "id": "pt.ine.add.MAD.25253",
      "street": "ER 222",
      "house": "428",
      "postcode": "9370-702",
      "city": "ARCO DA CALHETA",
      "lon": "-17.15727004318449",
      "lat": "32.71925376033618"
    },
    {
      "id": "pt.ine.add.MAD.25254",
      "street": "R NOVA DO LORETO",
      "house": "2",
      "postcode": "9370-705",
      "city": "ARCO DA CALHETA",
      "lon": "-17.15759581338257",
      "lat": "32.719491641527135"
    },
    {
      "id": "pt.ine.add.MAD.25255",
      "street": "VR CALES",
      "house": "",
      "postcode": "9370-705",
      "city": "ARCO DA CALHETA",
      "lon": "-17.15671724692509",
      "lat": "32.719777306054034"
    },
    {
      "id": "pt.ine.add.MAD.59522",
      "street": "CAM ACHADA",
      "house": "12",
      "postcode": "9370-705",
      "city": "ARCO DA CALHETA",
      "lon": "-17.153850038951422",
      "lat": "32.72209917625183"
    },
    {
      "id": "pt.ine.add.MAD.59523",
      "street": "VR ACHADA",
      "house": "5",
      "postcode": "9370-706",
      "city": "ARCO DA CALHETA",
      "lon": "-17.153826326291508",
      "lat": "32.72200038454581"
    },
    {
      "id": "pt.ine.add.MAD.59525",
      "street": "R NOVA DO LORETO",
      "house": "18",
      "postcode": "9370-705",
      "city": "ARCO DA CALHETA",
      "lon": "-17.15652114946143",
      "lat": "32.72005122354106"
    },
    {
      "id": "pt.ine.add.MAD.60493",
      "street": "CAM CALES CHADA",
      "house": "",
      "postcode": "9370-711",
      "city": "ARCO DA CALHETA",
      "lon": "-17.15324137150154",
      "lat": "32.721631675150554"
    },
    {
      "id": "pt.ine.add.MAD.60494",
      "street": "R NOVA DO LORETO",
      "house": "",
      "postcode": "9370-705",
      "city": "ARCO DA CALHETA",
      "lon": "-17.153841936103884",
      "lat": "32.72264942025101"
    },
    {
      "id": "pt.ine.add.MAD.60495",
      "street": "VR ACHADA",
      "house": "3",
      "postcode": "9370-706",
      "city": "ARCO DA CALHETA",
      "lon": "-17.153855066016526",
      "lat": "32.7218646189709"
    },
    {
      "id": "pt.ine.add.MAD.60496",
      "street": "VR REFORCO",
      "house": "6",
      "postcode": "9370-706",
      "city": "ARCO DA CALHETA",
      "lon": "-17.155810340849982",
      "lat": "32.72065864714792"
    },
    {
      "id": "pt.ine.add.MAD.60671",
      "street": "ER 222",
      "house": "432",
      "postcode": "9370-702",
      "city": "ARCO DA CALHETA",
      "lon": "-17.1573166057608",
      "lat": "32.71941528478676"
    },
    {
      "id": "pt.ine.add.MAD.62850",
      "street": "VR FONTE RAIZES",
      "house": "8",
      "postcode": "9370-706",
      "city": "ARCO DA CALHETA",
      "lon": "-17.155612286024677",
      "lat": "32.72085143398955"
    },
    {
      "id": "pt.ine.add.MAD.69095",
      "street": "TV LOMBO GUINE",
      "house": "28",
      "postcode": "9370-704",
      "city": "ARCO DA CALHETA",
      "lon": "-17.15306979361732",
      "lat": "32.722482325469045"
    },
    {
      "id": "pt.ine.add.MAD.69098",
      "street": "CAM CALES CHADA",
      "house": "35",
      "postcode": "9370-711",
      "city": "ARCO DA CALHETA",
      "lon": "-17.15509934041277",
      "lat": "32.72081516474574"
    },
    {
      "id": "pt.ine.add.MAD.71679",
      "street": "CAM CALES CHADA",
      "house": "21",
      "postcode": "9370-711",
      "city": "ARCO DA CALHETA",
      "lon": "-17.155906810509254",
      "lat": "32.71979124936184"
    },
    {
      "id": "pt.ine.add.MAD.75773",
      "street": "CAM CALES CHADA",
      "house": "39",
      "postcode": "9370-711",
      "city": "ARCO DA CALHETA",
      "lon": "-17.155082134288993",
      "lat": "32.72098680468646"
    },
    {
      "id": "pt.ine.add.MAD.78258",
      "street": "R NOVA DO LORETO",
      "house": "58",
      "postcode": "9370-705",
      "city": "ARCO DA CALHETA",
      "lon": "-17.15485465265145",
      "lat": "32.72173020103767"
    },
    {
      "id": "pt.ine.add.MAD.81929",
      "street": "VR REFORCO",
      "house": "4",
      "postcode": "9370-706",
      "city": "ARCO DA CALHETA",
      "lon": "-17.155655624122698",
      "lat": "32.72043585561364"
    },
    {
      "id": "pt.ine.add.MAD.84284",
      "street": "CAM CALES CHADA",
      "house": "17",
      "postcode": "9370-711",
      "city": "ARCO DA CALHETA",
      "lon": "-17.156157529499755",
      "lat": "32.71957050178248"
    },
    {
      "id": "pt.ine.add.MAD.91843",
      "street": "VR ACHADA DE BAIXO",
      "house": "10",
      "postcode": "9370-706",
      "city": "ARCO DA CALHETA",
      "lon": "-17.154058981066584",
      "lat": "32.721915223059355"
    },
    {
      "id": "pt.ine.add.MAD.91846",
      "street": "R NOVA DO LORETO",
      "house": "14",
      "postcode": "9370-705",
      "city": "ARCO DA CALHETA",
      "lon": "-17.156775801797384",
      "lat": "32.71955084576544"
    },
    {
      "id": "pt.ine.add.MAD.93061",
      "street": "CAM CALES CHADA",
      "house": "",
      "postcode": "9370-711",
      "city": "ARCO DA CALHETA",
      "lon": "-17.155492847924183",
      "lat": "32.72032141978091"
    },
    {
      "id": "pt.ine.add.MAD.103208",
      "street": "TV LOMBO GUINE",
      "house": "32",
      "postcode": "9370-704",
      "city": "ARCO DA CALHETA",
      "lon": "-17.152988860913187",
      "lat": "32.72222219055938"
    },
    {
      "id": "pt.ine.add.MAD.103490",
      "street": "VR ACHADA DE BAIXO",
      "house": "5",
      "postcode": "9370-706",
      "city": "ARCO DA CALHETA",
      "lon": "-17.15436259616287",
      "lat": "32.7216755335138"
    },
    {
      "id": "pt.ine.add.MAD.119409",
      "street": "VR TENDA",
      "house": "11",
      "postcode": "9370-091",
      "city": "ARCO DA CALHETA",
      "lon": "-17.156535776165263",
      "lat": "32.719329523287236"
    },
    {
      "id": "pt.ine.add.MAD.120359",
      "street": "ER 222",
      "house": "418",
      "postcode": "9370-702",
      "city": "ARCO DA CALHETA",
      "lon": "-17.15702195884214",
      "lat": "32.719140794780735"
    },
    {
      "id": "pt.ine.add.MAD.120361",
      "street": "2 VEREDA CALES",
      "house": "14",
      "postcode": "9370-705",
      "city": "ARCO DA CALHETA",
      "lon": "-17.156202729064518",
      "lat": "32.720561716024896"
    },
    {
      "id": "pt.ine.add.MAD.122576",
      "street": "R NOVA DO LORETO",
      "house": "4",
      "postcode": "9370-705",
      "city": "ARCO DA CALHETA",
      "lon": "-17.157405605800918",
      "lat": "32.7195670606226"
    },
    {
      "id": "pt.ine.add.MAD.123961",
      "street": "ER 222",
      "house": "422",
      "postcode": "9370-702",
      "city": "ARCO DA CALHETA",
      "lon": "-17.157150789941873",
      "lat": "32.71917464993298"
    },
    {
      "id": "pt.ine.add.MAD.124134",
      "street": "CAM CALES E CHADA",
      "house": "35",
      "postcode": "9370-711",
      "city": "ARCO DA CALHETA",
      "lon": "-17.15517138369289",
      "lat": "32.720705708608534"
    },
    {
      "id": "pt.ine.add.MAD.124706",
      "street": "CAM CALES CHADA",
      "house": "47",
      "postcode": "9370-711",
      "city": "ARCO DA CALHETA",
      "lon": "-17.15459940721591",
      "lat": "32.721319756311324"
    },
    {
      "id": "pt.ine.add.MAD.124714",
      "street": "R NOVA DO LORETO",
      "house": "2",
      "postcode": "9370-705",
      "city": "ARCO DA CALHETA",
      "lon": "-17.15759581338257",
      "lat": "32.719491641527135"
    },
    {
      "id": "pt.ine.add.MAD.125101",
      "street": "VR TENDA",
      "house": "13",
      "postcode": "9370-091",
      "city": "ARCO DA CALHETA",
      "lon": "-17.156344699808173",
      "lat": "32.71936888330143"
    },
    {
      "id": "pt.ine.add.MAD.130208",
      "street": "CAM CALES CHADA",
      "house": "45",
      "postcode": "9370-711",
      "city": "ARCO DA CALHETA",
      "lon": "-17.154712371712016",
      "lat": "32.721137452041766"
    }
  ]
}