{
  "data": {
    "distrito": "Aveiro",
    "concelho": "Oliveira do Bairro",
    "freguesia": "Uni√£o das freguesias de Bustos, Troviscal e Mamarrosa",
    "OBJECTID": 321,
    "BGRI2021": "01140700404",
    "DT21": "01",
    "DTMN21": "0114",
    "DTMNFR21": "011407",
    "DTMNFRSEC21": "011407004",
    "SECNUM21": "004",
    "SSNUM21": "04",
    "SECSSNUM21": "00404",
    "OBJECTID_1": 9562,
    "DT": "01",
    "CC": "14",
    "fr": "07",
    "SEC": "004",
    "SS": "04"
  },
  "addresses": [
    {
      "id": "pt.ine.add.PTCONT.291131",
      "street": "R FONTE",
      "house": "30",
      "postcode": "3770-012",
      "city": "BUSTOS",
      "lon": "-8.60708252745297",
      "lat": "40.49799717887929"
    },
    {
      "id": "pt.ine.add.PTCONT.296599",
      "street": "R FONTE",
      "house": "16",
      "postcode": "3770-012",
      "city": "BUSTOS",
      "lon": "-8.60559601876394",
      "lat": "40.49797624974515"
    },
    {
      "id": "pt.ine.add.PTCONT.299264",
      "street": "R 18 FEVEREIRO",
      "house": "191",
      "postcode": "3770-018",
      "city": "BUSTOS",
      "lon": "-8.606050470783682",
      "lat": "40.49885691736046"
    },
    {
      "id": "pt.ine.add.PTCONT.325297",
      "street": "R FONTE",
      "house": "12",
      "postcode": "3770-012",
      "city": "BUSTOS",
      "lon": "-8.605030180644247",
      "lat": "40.498032593964254"
    },
    {
      "id": "pt.ine.add.PTCONT.328396",
      "street": "R CABECO",
      "house": "82",
      "postcode": "3770-013",
      "city": "BUSTOS",
      "lon": "-8.611151713766384",
      "lat": "40.49126240714524"
    },
    {
      "id": "pt.ine.add.PTCONT.331241",
      "street": "TV BREDA",
      "house": "",
      "postcode": "3770-012",
      "city": "BUSTOS",
      "lon": "-8.60814532700946",
      "lat": "40.498154911887305"
    },
    {
      "id": "pt.ine.add.PTCONT.333758",
      "street": "R 18 DE FEVEREIRO",
      "house": "215",
      "postcode": "3770-018",
      "city": "BUSTOS",
      "lon": "-8.60857148133918",
      "lat": "40.50003528189542"
    },
    {
      "id": "pt.ine.add.PTCONT.335584",
      "street": "R 18 DE FEVEREIRO",
      "house": "181",
      "postcode": "3770-018",
      "city": "BUSTOS",
      "lon": "-8.604893420549468",
      "lat": "40.49871756065935"
    },
    {
      "id": "pt.ine.add.PTCONT.341824",
      "street": "R FONTE",
      "house": "10",
      "postcode": "3770-012",
      "city": "BUSTOS",
      "lon": "-8.604888941744722",
      "lat": "40.49807819749139"
    },
    {
      "id": "pt.ine.add.PTCONT.348107",
      "street": "R ARNEIRINHO",
      "house": "J7",
      "postcode": "3770-013",
      "city": "BUSTOS",
      "lon": "-8.60927608017108",
      "lat": "40.49457512464781"
    },
    {
      "id": "pt.ine.add.PTCONT.14862",
      "street": "R 18 FEVEREIRO",
      "house": "203",
      "postcode": "3770-012",
      "city": "BUSTOS",
      "lon": "-8.607175749793118",
      "lat": "40.49950969893185"
    },
    {
      "id": "pt.ine.add.PTCONT.25592",
      "street": "R FONTE",
      "house": "40",
      "postcode": "3770-012",
      "city": "BUSTOS",
      "lon": "-8.607728398264614",
      "lat": "40.49758028104152"
    },
    {
      "id": "pt.ine.add.PTCONT.28244",
      "street": "R FONTE",
      "house": "20",
      "postcode": "3770-012",
      "city": "BUSTOS",
      "lon": "-8.605879063884585",
      "lat": "40.49796608682737"
    },
    {
      "id": "pt.ine.add.PTCONT.30687",
      "street": "R CABECO",
      "house": "84",
      "postcode": "3770-013",
      "city": "BUSTOS",
      "lon": "-8.611281139117306",
      "lat": "40.491216844817366"
    },
    {
      "id": "pt.ine.add.PTCONT.39124",
      "street": "R 18 DE FEVEREIRO",
      "house": "207",
      "postcode": "3770-018",
      "city": "BUSTOS",
      "lon": "-8.607519178888925",
      "lat": "40.499697402417084"
    },
    {
      "id": "pt.ine.add.PTCONT.47296",
      "street": "R CABECO",
      "house": "",
      "postcode": "3770-013",
      "city": "BUSTOS",
      "lon": "-8.607996113289765",
      "lat": "40.49204987949619"
    },
    {
      "id": "pt.ine.add.PTCONT.48909",
      "street": "R B FEVEREIRO",
      "house": "187",
      "postcode": "3770-012",
      "city": "BUSTOS",
      "lon": "-8.605650153610243",
      "lat": "40.498966619360175"
    },
    {
      "id": "pt.ine.add.PTCONT.66279",
      "street": "R 18 DE FEVEREIRO",
      "house": "193",
      "postcode": "3770-018",
      "city": "BUSTOS",
      "lon": "-8.60614572696625",
      "lat": "40.498982602701446"
    },
    {
      "id": "pt.ine.add.PTCONT.74120",
      "street": "TV RIO",
      "house": "1",
      "postcode": "3770-013",
      "city": "BUSTOS",
      "lon": "-8.609785660562949",
      "lat": "40.49157423249501"
    },
    {
      "id": "pt.ine.add.PTCONT.79520",
      "street": "R CABECO",
      "house": "72",
      "postcode": "3770-013",
      "city": "BUSTOS",
      "lon": "-8.610221312143194",
      "lat": "40.49146437024385"
    },
    {
      "id": "pt.ine.add.PTCONT.80312",
      "street": "R DA FONTE",
      "house": "",
      "postcode": "3770-018",
      "city": "BUSTOS",
      "lon": "-8.609044471390721",
      "lat": "40.49685443877471"
    },
    {
      "id": "pt.ine.add.PTCONT.82319",
      "street": "R 18 FEVEREIRO",
      "house": "189",
      "postcode": "3770-018",
      "city": "BUSTOS",
      "lon": "-8.60585043878379",
      "lat": "40.49892977875894"
    },
    {
      "id": "pt.ine.add.PTCONT.87809",
      "street": "R CABECO",
      "house": "64",
      "postcode": "3770-013",
      "city": "BUSTOS",
      "lon": "-8.608373176524571",
      "lat": "40.49199429722862"
    },
    {
      "id": "pt.ine.add.PTCONT.98500",
      "street": "R 18 FEVEREIRO",
      "house": "189",
      "postcode": "3770-012",
      "city": "BUSTOS",
      "lon": "-8.605909357301776",
      "lat": "40.49892053235971"
    },
    {
      "id": "pt.ine.add.PTCONT.101511",
      "street": "R 18 DE FEVEREIRO",
      "house": "199",
      "postcode": "3770-018",
      "city": "BUSTOS",
      "lon": "-8.606762240794007",
      "lat": "40.49942134073862"
    },
    {
      "id": "pt.ine.add.PTCONT.102694",
      "street": "R CABECO",
      "house": "74",
      "postcode": "3770-013",
      "city": "BUSTOS",
      "lon": "-8.610398492840007",
      "lat": "40.49149966018766"
    },
    {
      "id": "pt.ine.add.PTCONT.106377",
      "street": "R ARNEIRINHO",
      "house": "3",
      "postcode": "3770-013",
      "city": "BUSTOS",
      "lon": "-8.608385502459459",
      "lat": "40.4937412903427"
    },
    {
      "id": "pt.ine.add.PTCONT.106378",
      "street": "R CABECO",
      "house": "92",
      "postcode": "3770-013",
      "city": "BUSTOS",
      "lon": "-8.612735256320857",
      "lat": "40.49167909920953"
    },
    {
      "id": "pt.ine.add.PTCONT.122235",
      "street": "R CABECO",
      "house": "",
      "postcode": "3770-013",
      "city": "BUSTOS",
      "lon": "-8.607384731458852",
      "lat": "40.49233155689394"
    },
    {
      "id": "pt.ine.add.PTCONT.129923",
      "street": "R FONTE",
      "house": "2",
      "postcode": "3770-012",
      "city": "BUSTOS",
      "lon": "-8.604382713330468",
      "lat": "40.498224348913055"
    },
    {
      "id": "pt.ine.add.PTCONT.129924",
      "street": "R FONTE",
      "house": "",
      "postcode": "3770-012",
      "city": "BUSTOS",
      "lon": "-8.608198273378974",
      "lat": "40.49729918381428"
    },
    {
      "id": "pt.ine.add.PTCONT.135641",
      "street": "R 18 FEVEREIRO",
      "house": "183",
      "postcode": "3770-012",
      "city": "BUSTOS",
      "lon": "-8.605129599240051",
      "lat": "40.498752617747996"
    },
    {
      "id": "pt.ine.add.PTCONT.146492",
      "street": "R 18 DE FEVEREIRO",
      "house": "201",
      "postcode": "3770-018",
      "city": "BUSTOS",
      "lon": "-8.607010789638121",
      "lat": "40.49953739160689"
    },
    {
      "id": "pt.ine.add.PTCONT.155997",
      "street": "R FONTE",
      "house": "26",
      "postcode": "3770-012",
      "city": "BUSTOS",
      "lon": "-8.606257047694292",
      "lat": "40.49803658292239"
    },
    {
      "id": "pt.ine.add.PTCONT.160911",
      "street": "R 18 DE FEVEREIRO",
      "house": "191 RIC",
      "postcode": "3770-018",
      "city": "BUSTOS",
      "lon": "-8.606015650879055",
      "lat": "40.498938108194075"
    },
    {
      "id": "pt.ine.add.PTCONT.167952",
      "street": "R FONTE",
      "house": "28",
      "postcode": "3770-012",
      "city": "BUSTOS",
      "lon": "-8.606539333338294",
      "lat": "40.49791835702207"
    },
    {
      "id": "pt.ine.add.PTCONT.170015",
      "street": "R 18 FEVEREIRO",
      "house": "203",
      "postcode": "3770-012",
      "city": "BUSTOS",
      "lon": "-8.6072466552718",
      "lat": "40.49952741879001"
    },
    {
      "id": "pt.ine.add.PTCONT.170018",
      "street": "R FONTE",
      "house": "8",
      "postcode": "3770-012",
      "city": "BUSTOS",
      "lon": "-8.604688595503147",
      "lat": "40.49810603130465"
    },
    {
      "id": "pt.ine.add.PTCONT.172827",
      "street": "R FONTE",
      "house": "34",
      "postcode": "3770-012",
      "city": "BUSTOS",
      "lon": "-8.607352127569191",
      "lat": "40.49775292779961"
    },
    {
      "id": "pt.ine.add.PTCONT.192661",
      "street": "R 18 DE FEVEREIRO",
      "house": "213",
      "postcode": "3770-018",
      "city": "BUSTOS",
      "lon": "-8.608417872134789",
      "lat": "40.49999989229211"
    },
    {
      "id": "pt.ine.add.PTCONT.194588",
      "street": "R CABECO",
      "house": "94",
      "postcode": "3770-013",
      "city": "BUSTOS",
      "lon": "-8.613102571630517",
      "lat": "40.491911714167344"
    },
    {
      "id": "pt.ine.add.PTCONT.196626",
      "street": "R FONTE",
      "house": "",
      "postcode": "3770-012",
      "city": "BUSTOS",
      "lon": "-8.607951508485655",
      "lat": "40.49743527857722"
    },
    {
      "id": "pt.ine.add.PTCONT.202254",
      "street": "R FONTE",
      "house": "4",
      "postcode": "3770-012",
      "city": "BUSTOS",
      "lon": "-8.604511967574423",
      "lat": "40.49815177877196"
    },
    {
      "id": "pt.ine.add.PTCONT.210081",
      "street": "R FONTE",
      "house": "32",
      "postcode": "3770-012",
      "city": "BUSTOS",
      "lon": "-8.607246089109225",
      "lat": "40.497771373634265"
    },
    {
      "id": "pt.ine.add.PTCONT.218435",
      "street": "R FONTE",
      "house": "18",
      "postcode": "3770-012",
      "city": "BUSTOS",
      "lon": "-8.605737636126761",
      "lat": "40.497984676044766"
    },
    {
      "id": "pt.ine.add.PTCONT.219210",
      "street": "R DA FONTE",
      "house": "58",
      "postcode": "3770-012",
      "city": "BUSTOS",
      "lon": "-8.60879828225514",
      "lat": "40.49707158134487"
    },
    {
      "id": "pt.ine.add.PTCONT.221113",
      "street": "R APALB",
      "house": "",
      "postcode": "3770-018",
      "city": "BUSTOS",
      "lon": "-8.625750122551038",
      "lat": "40.4955236820214"
    },
    {
      "id": "pt.ine.add.PTCONT.223747",
      "street": "R FONTE",
      "house": "32",
      "postcode": "3770-012",
      "city": "BUSTOS",
      "lon": "-8.607270125182923",
      "lat": "40.49783431263085"
    },
    {
      "id": "pt.ine.add.PTCONT.231794",
      "street": "R ARNEIRINHO",
      "house": "19",
      "postcode": "3770-013",
      "city": "BUSTOS",
      "lon": "-8.609489419597224",
      "lat": "40.49471833149807"
    },
    {
      "id": "pt.ine.add.PTCONT.231826",
      "street": "R 18 DE FEVEREIRO",
      "house": "191 1",
      "postcode": "3770-018",
      "city": "BUSTOS",
      "lon": "-8.605933329327039",
      "lat": "40.49897446651375"
    },
    {
      "id": "pt.ine.add.PTCONT.234495",
      "street": "R 18 FEVEREIRO",
      "house": "203",
      "postcode": "3770-012",
      "city": "BUSTOS",
      "lon": "-8.607258768725941",
      "lat": "40.499572395942856"
    },
    {
      "id": "pt.ine.add.PTCONT.246211",
      "street": "TV BREDA",
      "house": "8",
      "postcode": "3770-012",
      "city": "BUSTOS",
      "lon": "-8.607701132357649",
      "lat": "40.4987330806763"
    },
    {
      "id": "pt.ine.add.PTCONT.256255",
      "street": "R ARNEIRINHO",
      "house": "1",
      "postcode": "3770-013",
      "city": "BUSTOS",
      "lon": "-8.608042990398173",
      "lat": "40.493679660738174"
    },
    {
      "id": "pt.ine.add.PTCONT.261626",
      "street": "R 18 DE FEVEREIRO",
      "house": "217",
      "postcode": "3770-018",
      "city": "BUSTOS",
      "lon": "-8.60894928863194",
      "lat": "40.500078753756014"
    },
    {
      "id": "pt.ine.add.PTCONT.266542",
      "street": "R 18 DE FEVEREIRO",
      "house": "185",
      "postcode": "3770-018",
      "city": "BUSTOS",
      "lon": "-8.60551944620735",
      "lat": "40.49883207315808"
    },
    {
      "id": "pt.ine.add.PTCONT.266700",
      "street": "R FONTE",
      "house": "6",
      "postcode": "3770-012",
      "city": "BUSTOS",
      "lon": "-8.604618007405358",
      "lat": "40.49813333543966"
    },
    {
      "id": "pt.ine.add.PTCONT.276723",
      "street": "R FONTE ESQUINA ESQUINA",
      "house": "ESQUINA",
      "postcode": "3770-012",
      "city": "BUSTOS",
      "lon": "-8.603970915681558",
      "lat": "40.498379118785756"
    },
    {
      "id": "pt.ine.add.PTCONT.283006",
      "street": "R 18 DE FEVEREIRO",
      "house": "195",
      "postcode": "3770-018",
      "city": "BUSTOS",
      "lon": "-8.606370427257593",
      "lat": "40.499062731088834"
    },
    {
      "id": "pt.ine.add.PTCONT.285713",
      "street": "R 18 DE FEVEREIRO",
      "house": "193",
      "postcode": "3770-018",
      "city": "BUSTOS",
      "lon": "-8.60616976245706",
      "lat": "40.499045541917056"
    },
    {
      "id": "pt.ine.add.PTCONT.288403",
      "street": "R CABECO",
      "house": "86",
      "postcode": "3770-013",
      "city": "BUSTOS",
      "lon": "-8.611942746516057",
      "lat": "40.49136719706488"
    }
  ]
}