{
  "data": {
    "distrito": "Braga",
    "concelho": "Amares",
    "freguesia": "Goães",
    "OBJECTID": 243,
    "BGRI2021": "03011200111",
    "DT21": "03",
    "DTMN21": "0301",
    "DTMNFR21": "030112",
    "DTMNFRSEC21": "030112001",
    "SECNUM21": "001",
    "SSNUM21": "11",
    "SECSSNUM21": "00111",
    "OBJECTID_1": 19759,
    "DT": "03",
    "CC": "01",
    "fr": "12",
    "SEC": "001",
    "SS": "11"
  },
  "addresses": [
    {
      "id": "pt.ine.add.PTCONT.461279",
      "street": "AV S TIAGO",
      "house": "450",
      "postcode": "4720-498",
      "city": "GOÃES AMR",
      "lon": "-8.316698059356904",
      "lat": "41.65683890961087"
    },
    {
      "id": "pt.ine.add.PTCONT.485645",
      "street": "AV S TIAGO",
      "house": "448",
      "postcode": "4720-498",
      "city": "GOÃES AMR",
      "lon": "-8.316506251575044",
      "lat": "41.65693825540188"
    },
    {
      "id": "pt.ine.add.PTCONT.548038",
      "street": "R CALÇADA",
      "house": "61",
      "postcode": "4720-492",
      "city": "GOÃES AMR",
      "lon": "-8.31937281126156",
      "lat": "41.66013892628747"
    },
    {
      "id": "pt.ine.add.PTCONT.583285",
      "street": "AV S TIAGO",
      "house": "446",
      "postcode": "4720-498",
      "city": "GOÃES AMR",
      "lon": "-8.316350230267878",
      "lat": "41.656956511434146"
    },
    {
      "id": "pt.ine.add.PTCONT.644186",
      "street": "R IGREJA",
      "house": "7",
      "postcode": "4720-492",
      "city": "GOÃES AMR",
      "lon": "-8.315894909655928",
      "lat": "41.65727236236519"
    },
    {
      "id": "pt.ine.add.PTCONT.680282",
      "street": "R IGREJA",
      "house": "25",
      "postcode": "4720-492",
      "city": "GOÃES AMR",
      "lon": "-8.316351710485906",
      "lat": "41.657478717804274"
    },
    {
      "id": "pt.ine.add.PTCONT.691417",
      "street": "R IGREJA",
      "house": "13",
      "postcode": "4720-492",
      "city": "GOÃES AMR",
      "lon": "-8.316003979216797",
      "lat": "41.657632332805186"
    },
    {
      "id": "pt.ine.add.PTCONT.754768",
      "street": "R FRAGA",
      "house": "9",
      "postcode": "4720-490",
      "city": "GOÃES AMR",
      "lon": "-8.319237269531037",
      "lat": "41.658932664127136"
    },
    {
      "id": "pt.ine.add.PTCONT.769127",
      "street": "R FRAGA",
      "house": "3",
      "postcode": "4720-490",
      "city": "GOÃES AMR",
      "lon": "-8.318840685672015",
      "lat": "41.658798251699174"
    },
    {
      "id": "pt.ine.add.PTCONT.775630",
      "street": "AV S TIAGO",
      "house": "444",
      "postcode": "4720-498",
      "city": "GOÃES AMR",
      "lon": "-8.316194387364783",
      "lat": "41.65703779216437"
    },
    {
      "id": "pt.ine.add.PTCONT.799630",
      "street": "R IGREJA",
      "house": "59",
      "postcode": "4720-492",
      "city": "GOÃES AMR",
      "lon": "-8.318047368339228",
      "lat": "41.65847540138738"
    },
    {
      "id": "pt.ine.add.PTCONT.802607",
      "street": "R IGREJA",
      "house": "55",
      "postcode": "4720-492",
      "city": "GOÃES AMR",
      "lon": "-8.317566260840115",
      "lat": "41.65817005216916"
    },
    {
      "id": "pt.ine.add.PTCONT.820654",
      "street": "AV S TIAGO CASA DA SALVADOURA",
      "house": "478",
      "postcode": "4720-498",
      "city": "GOÃES AMR",
      "lon": "-8.318535062801162",
      "lat": "41.65688998243264"
    },
    {
      "id": "pt.ine.add.PTCONT.829505",
      "street": "R FRAGA",
      "house": "1",
      "postcode": "4720-490",
      "city": "GOÃES AMR",
      "lon": "-8.319308812378393",
      "lat": "41.65876147992893"
    },
    {
      "id": "pt.ine.add.PTCONT.829506",
      "street": "R IGREJA",
      "house": "57",
      "postcode": "4720-492",
      "city": "GOÃES AMR",
      "lon": "-8.318118604620944",
      "lat": "41.65819617524363"
    }
  ]
}