{
  "data": {
    "distrito": "Castelo Branco",
    "concelho": "Fund√£o",
    "freguesia": "Alcaria",
    "OBJECTID": 168,
    "BGRI2021": "05040200133",
    "DT21": "05",
    "DTMN21": "0504",
    "DTMNFR21": "050402",
    "DTMNFRSEC21": "050402001",
    "SECNUM21": "001",
    "SSNUM21": "33",
    "SECSSNUM21": "00133",
    "OBJECTID_1": 43122,
    "DT": "05",
    "CC": "04",
    "fr": "02",
    "SEC": "001",
    "SS": "33"
  },
  "addresses": [
    {
      "id": "pt.ine.add.PTCONT.954541",
      "street": "SIT VALE SANDIM",
      "house": "",
      "postcode": "6230-031",
      "city": "ALCARIA FND",
      "lon": "-7.49478972135316",
      "lat": "40.207911777528345"
    },
    {
      "id": "pt.ine.add.PTCONT.958194",
      "street": "QTA CASTANHEIRAO",
      "house": "",
      "postcode": "6230-031",
      "city": "ALCARIA FND",
      "lon": "-7.493081297953407",
      "lat": "40.21221611090451"
    },
    {
      "id": "pt.ine.add.PTCONT.962292",
      "street": "SIT VALE SANDIM",
      "house": "215",
      "postcode": "6230-031",
      "city": "ALCARIA FND",
      "lon": "-7.493640242054436",
      "lat": "40.21023792965553"
    },
    {
      "id": "pt.ine.add.PTCONT.969848",
      "street": "EN 18",
      "house": "50",
      "postcode": "6230-031",
      "city": "ALCARIA FND",
      "lon": "-7.499163968685786",
      "lat": "40.20740447529739"
    },
    {
      "id": "pt.ine.add.PTCONT.975327",
      "street": "QTA LAMEIRA LONGA",
      "house": "",
      "postcode": "6230-024",
      "city": "ALCARIA FND",
      "lon": "-7.4893934044499355",
      "lat": "40.20594565123708"
    },
    {
      "id": "pt.ine.add.PTCONT.975946",
      "street": "SIT VALE SANDIM",
      "house": "",
      "postcode": "6230-031",
      "city": "ALCARIA FND",
      "lon": "-7.493659689481618",
      "lat": "40.20941851137024"
    },
    {
      "id": "pt.ine.add.PTCONT.978503",
      "street": "QTA VALE SANDIM",
      "house": "",
      "postcode": "6230-031",
      "city": "ALCARIA FND",
      "lon": "-7.494721356673132",
      "lat": "40.20518264841239"
    },
    {
      "id": "pt.ine.add.PTCONT.982417",
      "street": "SIT VALE SANDIM",
      "house": "",
      "postcode": "6230-031",
      "city": "ALCARIA FND",
      "lon": "-7.496910127349492",
      "lat": "40.20725702314361"
    },
    {
      "id": "pt.ine.add.PTCONT.982418",
      "street": "SIT VALE SANDIM",
      "house": "",
      "postcode": "6230-031",
      "city": "ALCARIA FND",
      "lon": "-7.496910127349492",
      "lat": "40.20725702314361"
    },
    {
      "id": "pt.ine.add.PTCONT.984717",
      "street": "SIT RIBEIRO DA SENHORA",
      "house": "5",
      "postcode": "6230-024",
      "city": "ALCARIA FND",
      "lon": "-7.496478612600297",
      "lat": "40.20190521376366"
    },
    {
      "id": "pt.ine.add.PTCONT.986419",
      "street": "ESTR PEROVISEU",
      "house": "13",
      "postcode": "6230-024",
      "city": "ALCARIA FND",
      "lon": "-7.494484349498741",
      "lat": "40.20165107247599"
    },
    {
      "id": "pt.ine.add.PTCONT.990322",
      "street": "ESTR PEROVISEU",
      "house": "15",
      "postcode": "6230-024",
      "city": "ALCARIA FND",
      "lon": "-7.49211386053022",
      "lat": "40.201439843111764"
    },
    {
      "id": "pt.ine.add.PTCONT.991392",
      "street": "QTA VALE SANDIM",
      "house": "",
      "postcode": "6230-031",
      "city": "ALCARIA FND",
      "lon": "-7.4942030346292245",
      "lat": "40.20909730366084"
    },
    {
      "id": "pt.ine.add.PTCONT.999301",
      "street": "QTA LAMEIRA LONGA",
      "house": "",
      "postcode": "6230-024",
      "city": "ALCARIA FND",
      "lon": "-7.491412621950027",
      "lat": "40.206055926118154"
    },
    {
      "id": "pt.ine.add.PTCONT.1007469",
      "street": "QTA LAMEIRA LONGA",
      "house": "",
      "postcode": "6230-024",
      "city": "ALCARIA FND",
      "lon": "-7.49163170390342",
      "lat": "40.2064894179435"
    },
    {
      "id": "pt.ine.add.PTCONT.1008726",
      "street": "SIT RIBEIRA SENHORA DA CRUZ",
      "house": "",
      "postcode": "6230-030",
      "city": "ALCARIA FND",
      "lon": "-7.497689576506097",
      "lat": "40.20428939554539"
    },
    {
      "id": "pt.ine.add.PTCONT.1010667",
      "street": "ESTR PEROVISEU",
      "house": "11",
      "postcode": "6230-024",
      "city": "ALCARIA FND",
      "lon": "-7.494836341748508",
      "lat": "40.20168903700303"
    },
    {
      "id": "pt.ine.add.PTCONT.1010668",
      "street": "ESTR PEROVISEU",
      "house": "",
      "postcode": "6230-031",
      "city": "ALCARIA FND",
      "lon": "-7.492654875622773",
      "lat": "40.20385638880343"
    },
    {
      "id": "pt.ine.add.PTCONT.1011901",
      "street": "QTA LAMEIRA LONGA",
      "house": "",
      "postcode": "6230-031",
      "city": "ALCARIA FND",
      "lon": "-7.492068132310287",
      "lat": "40.208788309582566"
    },
    {
      "id": "pt.ine.add.PTCONT.1013884",
      "street": "ESTR PEROVISEU",
      "house": "CP 1",
      "postcode": "6230-024",
      "city": "ALCARIA FND",
      "lon": "-7.493779237893807",
      "lat": "40.20419581826068"
    },
    {
      "id": "pt.ine.add.PTCONT.1016631",
      "street": "SIT VALE SANDIM",
      "house": "",
      "postcode": "6230-031",
      "city": "ALCARIA FND",
      "lon": "-7.496274616602005",
      "lat": "40.20738861528914"
    },
    {
      "id": "pt.ine.add.PTCONT.1026290",
      "street": "QTA LAMEIRA LONGA",
      "house": "",
      "postcode": "6230-024",
      "city": "ALCARIA FND",
      "lon": "-7.491344104757213",
      "lat": "40.20584841327225"
    },
    {
      "id": "pt.ine.add.PTCONT.1027426",
      "street": "EN 18",
      "house": "44A",
      "postcode": "6230-024",
      "city": "ALCARIA FND",
      "lon": "-7.4980839804230355",
      "lat": "40.20230128060492"
    },
    {
      "id": "pt.ine.add.PTCONT.1027427",
      "street": "EN 18",
      "house": "44A",
      "postcode": "6230-024",
      "city": "ALCARIA FND",
      "lon": "-7.4980839804230355",
      "lat": "40.20230128060492"
    },
    {
      "id": "pt.ine.add.PTCONT.1034757",
      "street": "ESTR PEROVISEU",
      "house": "",
      "postcode": "6230-024",
      "city": "ALCARIA FND",
      "lon": "-7.4958571721623555",
      "lat": "40.201793724898735"
    },
    {
      "id": "pt.ine.add.PTCONT.1042638",
      "street": "ESTR PEROVISEU",
      "house": "17",
      "postcode": "6230-024",
      "city": "ALCARIA FND",
      "lon": "-7.492008331547914",
      "lat": "40.20142124713236"
    },
    {
      "id": "pt.ine.add.PTCONT.1043783",
      "street": "SIT SOUTO ALTO",
      "house": "",
      "postcode": "6230-031",
      "city": "ALCARIA FND",
      "lon": "-7.495145835199392",
      "lat": "40.21252469856654"
    },
    {
      "id": "pt.ine.add.PTCONT.1050300",
      "street": "SITIO SOUTO ALTO",
      "house": "",
      "postcode": "6230-031",
      "city": "ALCARIA FND",
      "lon": "-7.49727799610651",
      "lat": "40.21062720596735"
    },
    {
      "id": "pt.ine.add.PTCONT.1054499",
      "street": "SIT VALE SANDIM",
      "house": "",
      "postcode": "6230-031",
      "city": "ALCARIA FND",
      "lon": "-7.497131023436438",
      "lat": "40.21001400568368"
    },
    {
      "id": "pt.ine.add.PTCONT.1056144",
      "street": "QTA LAMEIRA LONGA",
      "house": "",
      "postcode": "6230-024",
      "city": "ALCARIA FND",
      "lon": "-7.4911586475231635",
      "lat": "40.20558621722098"
    },
    {
      "id": "pt.ine.add.PTCONT.1058929",
      "street": "SIT VALE SANDIM",
      "house": "",
      "postcode": "6230-031",
      "city": "ALCARIA FND",
      "lon": "-7.497083282679166",
      "lat": "40.2100947953726"
    },
    {
      "id": "pt.ine.add.PTCONT.1063147",
      "street": "SIT VALE SANDIM",
      "house": "",
      "postcode": "6230-031",
      "city": "ALCARIA FND",
      "lon": "-7.493729418594399",
      "lat": "40.20824814532034"
    },
    {
      "id": "pt.ine.add.PTCONT.1063148",
      "street": "ESTR PEROVISEU",
      "house": "",
      "postcode": "6230-024",
      "city": "ALCARIA FND",
      "lon": "-7.495529004916343",
      "lat": "40.20171987154105"
    },
    {
      "id": "pt.ine.add.PTCONT.1065446",
      "street": "SIT VALE SANDIM",
      "house": "",
      "postcode": "6230-031",
      "city": "ALCARIA FND",
      "lon": "-7.495599582350868",
      "lat": "40.20923108446199"
    },
    {
      "id": "pt.ine.add.PTCONT.1067517",
      "street": "SIT VALE SANDIM",
      "house": "",
      "postcode": "6230-031",
      "city": "ALCARIA FND",
      "lon": "-7.493769192161596",
      "lat": "40.210265659292354"
    },
    {
      "id": "pt.ine.add.PTCONT.1068961",
      "street": "CRZT ALCARIA",
      "house": "3",
      "postcode": "6230-024",
      "city": "ALCARIA FND",
      "lon": "-7.497757153319024",
      "lat": "40.202083348269014"
    },
    {
      "id": "pt.ine.add.PTCONT.1075611",
      "street": "SIT VALE SANDIM",
      "house": "",
      "postcode": "6230-031",
      "city": "ALCARIA FND",
      "lon": "-7.49501137115176",
      "lat": "40.20932690695956"
    },
    {
      "id": "pt.ine.add.PTCONT.1076800",
      "street": "QTA SOUTINHO",
      "house": "1",
      "postcode": "6230-024",
      "city": "ALCARIA FND",
      "lon": "-7.49219555978996",
      "lat": "40.20398893339293"
    },
    {
      "id": "pt.ine.add.PTCONT.1081297",
      "street": "SIT RIBEIRA SENHORA DA CRUZ",
      "house": "",
      "postcode": "6230-030",
      "city": "ALCARIA FND",
      "lon": "-7.496809727200601",
      "lat": "40.20417649302097"
    },
    {
      "id": "pt.ine.add.PTCONT.1084652",
      "street": "EN 18",
      "house": "",
      "postcode": "6230-024",
      "city": "ALCARIA FND",
      "lon": "-7.498128353652934",
      "lat": "40.20258070350487"
    },
    {
      "id": "pt.ine.add.PTCONT.1084653",
      "street": "EN 18",
      "house": "",
      "postcode": "6230-024",
      "city": "ALCARIA FND",
      "lon": "-7.498128353652934",
      "lat": "40.20258070350487"
    },
    {
      "id": "pt.ine.add.PTCONT.1084654",
      "street": "EN 18",
      "house": "",
      "postcode": "6230-024",
      "city": "ALCARIA FND",
      "lon": "-7.498128353652934",
      "lat": "40.20258070350487"
    },
    {
      "id": "pt.ine.add.PTCONT.1084655",
      "street": "EN 18",
      "house": "",
      "postcode": "6230-024",
      "city": "ALCARIA FND",
      "lon": "-7.498128353652934",
      "lat": "40.20258070350487"
    },
    {
      "id": "pt.ine.add.PTCONT.1085866",
      "street": "ESTR PEROVISEU",
      "house": "23",
      "postcode": "6230-024",
      "city": "ALCARIA FND",
      "lon": "-7.490399024101455",
      "lat": "40.201448346318436"
    },
    {
      "id": "pt.ine.add.PTCONT.1086811",
      "street": "CRZT ALCARIA",
      "house": "",
      "postcode": "6230-024",
      "city": "ALCARIA FND",
      "lon": "-7.497699860505938",
      "lat": "40.201929935359274"
    },
    {
      "id": "pt.ine.add.PTCONT.1086812",
      "street": "CRZT ALCARIA",
      "house": "",
      "postcode": "6230-024",
      "city": "ALCARIA FND",
      "lon": "-7.497699860505938",
      "lat": "40.201929935359274"
    },
    {
      "id": "pt.ine.add.PTCONT.1086813",
      "street": "CRZT ALCARIA",
      "house": "",
      "postcode": "6230-024",
      "city": "ALCARIA FND",
      "lon": "-7.497699860505938",
      "lat": "40.201929935359274"
    },
    {
      "id": "pt.ine.add.PTCONT.1086814",
      "street": "CRZT ALCARIA",
      "house": "",
      "postcode": "6230-024",
      "city": "ALCARIA FND",
      "lon": "-7.497699860505938",
      "lat": "40.201929935359274"
    },
    {
      "id": "pt.ine.add.PTCONT.1087344",
      "street": "CRZT ALCARIA",
      "house": "",
      "postcode": "6230-024",
      "city": "ALCARIA FND",
      "lon": "-7.497699860505938",
      "lat": "40.201929935359274"
    },
    {
      "id": "pt.ine.add.PTCONT.1087523",
      "street": "CRZT ALCARIA",
      "house": "",
      "postcode": "6230-024",
      "city": "ALCARIA FND",
      "lon": "-7.497699860505938",
      "lat": "40.201929935359274"
    },
    {
      "id": "pt.ine.add.PTCONT.1089203",
      "street": "ESTR PEROVISEU",
      "house": "21",
      "postcode": "6230-024",
      "city": "ALCARIA FND",
      "lon": "-7.490620890480087",
      "lat": "40.20158466478294"
    },
    {
      "id": "pt.ine.add.PTCONT.1095573",
      "street": "CRZT ALCARIA",
      "house": "48",
      "postcode": "6230-024",
      "city": "ALCARIA FND",
      "lon": "-7.497995382424978",
      "lat": "40.2029852345411"
    },
    {
      "id": "pt.ine.add.PTCONT.1097623",
      "street": "QTA LAMEIRA LONGA",
      "house": "",
      "postcode": "6230-024",
      "city": "ALCARIA FND",
      "lon": "-7.491630854991783",
      "lat": "40.20657947105528"
    }
  ]
}