{
  "data": {
    "distrito": "Coimbra",
    "concelho": "Soure",
    "freguesia": "Samuel",
    "OBJECTID": 704,
    "BGRI2021": "06150800154",
    "DT21": "06",
    "DTMN21": "0615",
    "DTMNFR21": "061508",
    "DTMNFRSEC21": "061508001",
    "SECNUM21": "001",
    "SSNUM21": "54",
    "SECSSNUM21": "00154",
    "OBJECTID_1": 57122,
    "DT": "06",
    "CC": "15",
    "fr": "08",
    "SEC": "001",
    "SS": "54"
  },
  "addresses": [
    {
      "id": "pt.ine.add.PTCONT.1103523",
      "street": "R BIQUITA",
      "house": "6",
      "postcode": "3130-127",
      "city": "SAMUEL",
      "lon": "-8.720366572337683",
      "lat": "40.100228627426574"
    },
    {
      "id": "pt.ine.add.PTCONT.1103524",
      "street": "R PADRE CURADO",
      "house": "",
      "postcode": "3130-127",
      "city": "SAMUEL",
      "lon": "-8.718915579306284",
      "lat": "40.099236313218086"
    },
    {
      "id": "pt.ine.add.PTCONT.1143338",
      "street": "TV CHAFARIZ",
      "house": "2",
      "postcode": "3130-127",
      "city": "SAMUEL",
      "lon": "-8.718310644851345",
      "lat": "40.09843784034263"
    },
    {
      "id": "pt.ine.add.PTCONT.1151650",
      "street": "R BIQUITA",
      "house": "8",
      "postcode": "3130-127",
      "city": "SAMUEL",
      "lon": "-8.720496575986546",
      "lat": "40.10034504571388"
    },
    {
      "id": "pt.ine.add.PTCONT.1178866",
      "street": "R PADRE CURADO",
      "house": "28",
      "postcode": "3130-127",
      "city": "SAMUEL",
      "lon": "-8.718053043274715",
      "lat": "40.098484171361335"
    },
    {
      "id": "pt.ine.add.PTCONT.1229031",
      "street": "R CARVALHOS",
      "house": "1",
      "postcode": "3130-127",
      "city": "SAMUEL",
      "lon": "-8.719952104391758",
      "lat": "40.099762418079244"
    },
    {
      "id": "pt.ine.add.PTCONT.1245216",
      "street": "R PADRE CURADO",
      "house": "30",
      "postcode": "3130-127",
      "city": "SAMUEL",
      "lon": "-8.718323914553432",
      "lat": "40.09861789258626"
    },
    {
      "id": "pt.ine.add.PTCONT.1245932",
      "street": "R BIQUITA",
      "house": "2",
      "postcode": "3130-127",
      "city": "SAMUEL",
      "lon": "-8.719080295607716",
      "lat": "40.09929852178021"
    },
    {
      "id": "pt.ine.add.PTCONT.1308573",
      "street": "R BIQUITA",
      "house": "4",
      "postcode": "3130-127",
      "city": "SAMUEL",
      "lon": "-8.719327486546561",
      "lat": "40.09940534253627"
    },
    {
      "id": "pt.ine.add.PTCONT.1324671",
      "street": "R CARVALHOS",
      "house": "9",
      "postcode": "3130-127",
      "city": "SAMUEL",
      "lon": "-8.719738931771808",
      "lat": "40.099520336945965"
    },
    {
      "id": "pt.ine.add.PTCONT.1334877",
      "street": "R CARVALHOS",
      "house": "7",
      "postcode": "3130-127",
      "city": "SAMUEL",
      "lon": "-8.719845324506233",
      "lat": "40.0996188636383"
    }
  ]
}