{
  "data": {
    "distrito": "Évora",
    "concelho": "Arraiolos",
    "freguesia": "União das freguesias de Gafanhoeira (São Pedro) e Sabugueiro",
    "OBJECTID": 335,
    "BGRI2021": "07020800113",
    "DT21": "07",
    "DTMN21": "0702",
    "DTMNFR21": "070208",
    "DTMNFRSEC21": "070208001",
    "SECNUM21": "001",
    "SSNUM21": "13",
    "SECSSNUM21": "00113",
    "OBJECTID_1": 59034,
    "DT": "07",
    "CC": "02",
    "fr": "08",
    "SEC": "001",
    "SS": "13"
  },
  "addresses": [
    {
      "id": "pt.ine.add.PTCONT.1372101",
      "street": "R OUTEIRO",
      "house": "17",
      "postcode": "7040-538",
      "city": "SÃO PEDRO GAFANHOEIRA",
      "lon": "-8.078931370013999",
      "lat": "38.74286416388694"
    },
    {
      "id": "pt.ine.add.PTCONT.1390214",
      "street": "R OUTEIRO",
      "house": "15",
      "postcode": "7040-538",
      "city": "SÃO PEDRO GAFANHOEIRA",
      "lon": "-8.078803585267428",
      "lat": "38.74280627137482"
    },
    {
      "id": "pt.ine.add.PTCONT.1400989",
      "street": "R RIBEIRINHO",
      "house": "3",
      "postcode": "7040-539",
      "city": "SÃO PEDRO GAFANHOEIRA",
      "lon": "-8.080649062836802",
      "lat": "38.743072800460496"
    },
    {
      "id": "pt.ine.add.PTCONT.1407460",
      "street": "R OUTEIRO",
      "house": "21",
      "postcode": "7040-538",
      "city": "SÃO PEDRO GAFANHOEIRA",
      "lon": "-8.079266940204976",
      "lat": "38.743022503829174"
    },
    {
      "id": "pt.ine.add.PTCONT.1413121",
      "street": "R OUTEIRO",
      "house": "11",
      "postcode": "7040-538",
      "city": "SÃO PEDRO GAFANHOEIRA",
      "lon": "-8.07875349661497",
      "lat": "38.7427875291611"
    },
    {
      "id": "pt.ine.add.PTCONT.1414284",
      "street": "R OUTEIRO",
      "house": "19",
      "postcode": "7040-538",
      "city": "SÃO PEDRO GAFANHOEIRA",
      "lon": "-8.079036938398366",
      "lat": "38.74291727346743"
    },
    {
      "id": "pt.ine.add.PTCONT.1416086",
      "street": "R OUTEIRO",
      "house": "9",
      "postcode": "7040-538",
      "city": "SÃO PEDRO GAFANHOEIRA",
      "lon": "-8.078549386626358",
      "lat": "38.74267949572612"
    },
    {
      "id": "pt.ine.add.PTCONT.1466444",
      "street": "R OUTEIRO",
      "house": "15",
      "postcode": "7040-538",
      "city": "SÃO PEDRO GAFANHOEIRA",
      "lon": "-8.078862084481479",
      "lat": "38.742837106406924"
    }
  ]
}