{
  "data": {
    "distrito": "Évora",
    "concelho": "Arraiolos",
    "freguesia": "União das freguesias de Gafanhoeira (São Pedro) e Sabugueiro",
    "OBJECTID": 96,
    "BGRI2021": "07020800126",
    "DT21": "07",
    "DTMN21": "0702",
    "DTMNFR21": "070208",
    "DTMNFRSEC21": "070208001",
    "SECNUM21": "001",
    "SSNUM21": "26",
    "SECSSNUM21": "00126",
    "OBJECTID_1": 58983,
    "DT": "07",
    "CC": "02",
    "fr": "08",
    "SEC": "001",
    "SS": "26"
  },
  "addresses": [
    {
      "id": "pt.ine.add.PTCONT.1407003",
      "street": "R CASTELO",
      "house": "1",
      "postcode": "7040-717",
      "city": "SABUGUEIRO ARL",
      "lon": "-8.120804807172629",
      "lat": "38.76152912838597"
    },
    {
      "id": "pt.ine.add.PTCONT.1421931",
      "street": "R CASTELO",
      "house": "3",
      "postcode": "7040-717",
      "city": "SABUGUEIRO ARL",
      "lon": "-8.120881532840645",
      "lat": "38.761568142504174"
    },
    {
      "id": "pt.ine.add.PTCONT.1434589",
      "street": "R LIBERDADE",
      "house": "26",
      "postcode": "7040-709",
      "city": "SABUGUEIRO ARL",
      "lon": "-8.121061486316691",
      "lat": "38.76125297061321"
    },
    {
      "id": "pt.ine.add.PTCONT.1435528",
      "street": "R CASTELO",
      "house": "7",
      "postcode": "7040-717",
      "city": "SABUGUEIRO ARL",
      "lon": "-8.121065408936323",
      "lat": "38.761654010793"
    },
    {
      "id": "pt.ine.add.PTCONT.1459198",
      "street": "R LIBERDADE",
      "house": "22",
      "postcode": "7040-709",
      "city": "SABUGUEIRO ARL",
      "lon": "-8.12090442448692",
      "lat": "38.76134123031149"
    },
    {
      "id": "pt.ine.add.PTCONT.1459839",
      "street": "R CASTELO",
      "house": "5",
      "postcode": "7040-717",
      "city": "SABUGUEIRO ARL",
      "lon": "-8.120965844892647",
      "lat": "38.761608958984375"
    },
    {
      "id": "pt.ine.add.PTCONT.1461343",
      "street": "R LIBERDADE",
      "house": "28",
      "postcode": "7040-709",
      "city": "SABUGUEIRO ARL",
      "lon": "-8.121142786861043",
      "lat": "38.761171636522946"
    },
    {
      "id": "pt.ine.add.PTCONT.1462877",
      "street": "R LIBERDADE",
      "house": "24",
      "postcode": "7040-709",
      "city": "SABUGUEIRO ARL",
      "lon": "-8.120940463961396",
      "lat": "38.76129849503453"
    }
  ]
}