{
  "data": {
    "distrito": "Faro",
    "concelho": "Loulé",
    "freguesia": "Loulé (São Clemente)",
    "OBJECTID": 1946,
    "BGRI2021": "08080800808",
    "DT21": "08",
    "DTMN21": "0808",
    "DTMNFR21": "080808",
    "DTMNFRSEC21": "080808008",
    "SECNUM21": "008",
    "SSNUM21": "08",
    "SECSSNUM21": "00808",
    "OBJECTID_1": 69408,
    "DT": "08",
    "CC": "08",
    "fr": "08",
    "SEC": "008",
    "SS": "08"
  },
  "addresses": [
    {
      "id": "pt.ine.add.PTCONT.1476490",
      "street": "",
      "house": "",
      "postcode": "8100-331",
      "city": "LOULÉ",
      "lon": "-8.020414228068857",
      "lat": "37.152680641943284"
    },
    {
      "id": "pt.ine.add.PTCONT.1479621",
      "street": "CASA OA AVO",
      "house": "86 A",
      "postcode": "8100-331",
      "city": "LOULÉ",
      "lon": "-8.020157687460065",
      "lat": "37.15865441369906"
    },
    {
      "id": "pt.ine.add.PTCONT.1501652",
      "street": "SEM DESIGNACAO",
      "house": "224 A",
      "postcode": "8100-331",
      "city": "LOULÉ",
      "lon": "-8.021471300613076",
      "lat": "37.15342051039791"
    },
    {
      "id": "pt.ine.add.PTCONT.1505630",
      "street": "VL S CLEMENTE",
      "house": "88",
      "postcode": "8100-331",
      "city": "LOULÉ",
      "lon": "-8.019527771153935",
      "lat": "37.15830239914862"
    },
    {
      "id": "pt.ine.add.PTCONT.1511226",
      "street": "",
      "house": "",
      "postcode": "8100-331",
      "city": "LOULÉ",
      "lon": "-8.021729104146853",
      "lat": "37.15417764209757"
    },
    {
      "id": "pt.ine.add.PTCONT.1525754",
      "street": "SEM DESIGNACAO",
      "house": "78",
      "postcode": "8100-238",
      "city": "LOULÉ",
      "lon": "-8.017426838372492",
      "lat": "37.15548906610044"
    },
    {
      "id": "pt.ine.add.PTCONT.1540308",
      "street": "CASA FLORO",
      "house": "296",
      "postcode": "8100-331",
      "city": "LOULÉ",
      "lon": "-8.022167807018905",
      "lat": "37.154403318167"
    },
    {
      "id": "pt.ine.add.PTCONT.1549735",
      "street": "CORREGOS DE SANTA LUZIA",
      "house": "23",
      "postcode": "8100-238",
      "city": "LOULÉ",
      "lon": "-8.019098214154033",
      "lat": "37.15947336172794"
    },
    {
      "id": "pt.ine.add.PTCONT.1563224",
      "street": "CASA DO PESCADOR",
      "house": "",
      "postcode": "8100-238",
      "city": "LOULÉ",
      "lon": "-8.019777017331846",
      "lat": "37.157248400023576"
    },
    {
      "id": "pt.ine.add.PTCONT.1566742",
      "street": "CASA DOS CARDOS",
      "house": "783",
      "postcode": "8100-238",
      "city": "LOULÉ",
      "lon": "-8.018744079063378",
      "lat": "37.15540924924875"
    },
    {
      "id": "pt.ine.add.PTCONT.1573899",
      "street": "CORREGOS DE SANTA LUZIA",
      "house": "260 Z",
      "postcode": "8100-238",
      "city": "LOULÉ",
      "lon": "-8.018488232547591",
      "lat": "37.15337261012264"
    },
    {
      "id": "pt.ine.add.PTCONT.1577992",
      "street": "ESTR M 525",
      "house": "228A",
      "postcode": "8100-331",
      "city": "LOULÉ",
      "lon": "-8.022180025196914",
      "lat": "37.15374555691729"
    },
    {
      "id": "pt.ine.add.PTCONT.1577993",
      "street": "EM 525",
      "house": "",
      "postcode": "8100-331",
      "city": "LOULÉ",
      "lon": "-8.021987980889067",
      "lat": "37.154204916847966"
    },
    {
      "id": "pt.ine.add.PTCONT.1577994",
      "street": "",
      "house": "",
      "postcode": "8100-296",
      "city": "LOULÉ",
      "lon": "-8.019506118346483",
      "lat": "37.15772570137069"
    },
    {
      "id": "pt.ine.add.PTCONT.1601557",
      "street": "CASA CASTELO BONITO",
      "house": "",
      "postcode": "8100-238",
      "city": "LOULÉ",
      "lon": "-8.018246149450748",
      "lat": "37.15712978870951"
    },
    {
      "id": "pt.ine.add.PTCONT.1601558",
      "street": "",
      "house": "",
      "postcode": "8100-331",
      "city": "LOULÉ",
      "lon": "-8.017879856396275",
      "lat": "37.15369640127542"
    },
    {
      "id": "pt.ine.add.PTCONT.1607774",
      "street": "",
      "house": "",
      "postcode": "8100-296",
      "city": "LOULÉ",
      "lon": "-8.019640995953845",
      "lat": "37.1578699998411"
    },
    {
      "id": "pt.ine.add.PTCONT.1612429",
      "street": "VILLA GOLDEN EYE",
      "house": "82",
      "postcode": "8100-238",
      "city": "LOULÉ",
      "lon": "-8.020025907637333",
      "lat": "37.15642867495191"
    },
    {
      "id": "pt.ine.add.PTCONT.1612440",
      "street": "",
      "house": "",
      "postcode": "8100-296",
      "city": "LOULÉ",
      "lon": "-8.019562312795419",
      "lat": "37.15778882927429"
    },
    {
      "id": "pt.ine.add.PTCONT.1641887",
      "street": "",
      "house": "",
      "postcode": "8100-238",
      "city": "LOULÉ",
      "lon": "-8.018237154745162",
      "lat": "37.15563402356417"
    },
    {
      "id": "pt.ine.add.PTCONT.1644781",
      "street": "",
      "house": "",
      "postcode": "8100-238",
      "city": "LOULÉ",
      "lon": "-8.019214565623939",
      "lat": "37.15695952228891"
    },
    {
      "id": "pt.ine.add.PTCONT.1649039",
      "street": "VL DE SANTA LUZIA",
      "house": "81",
      "postcode": "8100-238",
      "city": "LOULÉ",
      "lon": "-8.018639502131661",
      "lat": "37.157571687673425"
    },
    {
      "id": "pt.ine.add.PTCONT.1693583",
      "street": "CORREGOS DE SANTA LUZIA",
      "house": "2U24",
      "postcode": "8100-331",
      "city": "LOULÉ",
      "lon": "-8.021311445717897",
      "lat": "37.154952159084054"
    },
    {
      "id": "pt.ine.add.PTCONT.1704789",
      "street": "",
      "house": "",
      "postcode": "8100-238",
      "city": "LOULÉ",
      "lon": "-8.019233012987609",
      "lat": "37.15967172400194"
    },
    {
      "id": "pt.ine.add.PTCONT.1708876",
      "street": "",
      "house": "",
      "postcode": "8100-238",
      "city": "LOULÉ",
      "lon": "-8.018830110523025",
      "lat": "37.15808547460726"
    },
    {
      "id": "pt.ine.add.PTCONT.1711908",
      "street": "",
      "house": "86",
      "postcode": "8100-331",
      "city": "LOULÉ",
      "lon": "-8.020191166309754",
      "lat": "37.15885267830511"
    },
    {
      "id": "pt.ine.add.PTCONT.1757755",
      "street": "",
      "house": "",
      "postcode": "8100-238",
      "city": "LOULÉ",
      "lon": "-8.018895854558084",
      "lat": "37.15928394478171"
    },
    {
      "id": "pt.ine.add.PTCONT.1773132",
      "street": "CASA GARONGA",
      "house": "",
      "postcode": "8100-238",
      "city": "LOULÉ",
      "lon": "-8.01781038433461",
      "lat": "37.15496682605334"
    },
    {
      "id": "pt.ine.add.PTCONT.1787965",
      "street": "",
      "house": "",
      "postcode": "8100-238",
      "city": "LOULÉ",
      "lon": "-8.01953039962765",
      "lat": "37.156545338682136"
    },
    {
      "id": "pt.ine.add.PTCONT.1811460",
      "street": "",
      "house": "",
      "postcode": "8100-238",
      "city": "LOULÉ",
      "lon": "-8.01696708950457",
      "lat": "37.15430823008681"
    },
    {
      "id": "pt.ine.add.PTCONT.1837106",
      "street": "EM 525",
      "house": "228A",
      "postcode": "8100-331",
      "city": "LOULÉ",
      "lon": "-8.022191150746554",
      "lat": "37.153835673181355"
    },
    {
      "id": "pt.ine.add.PTCONT.1843108",
      "street": "",
      "house": "",
      "postcode": "8100-331",
      "city": "LOULÉ",
      "lon": "-8.020302032777629",
      "lat": "37.15242823877835"
    },
    {
      "id": "pt.ine.add.PTCONT.1847813",
      "street": "CORREGOS DE SANTA LUZIA",
      "house": "79",
      "postcode": "8100-238",
      "city": "LOULÉ",
      "lon": "-8.018584463878677",
      "lat": "37.156742661166"
    },
    {
      "id": "pt.ine.add.PTCONT.1847920",
      "street": "CASA REIS",
      "house": "8",
      "postcode": "8100-331",
      "city": "LOULÉ",
      "lon": "-8.0223032360522",
      "lat": "37.154169169663"
    }
  ]
}