{
  "data": {
    "distrito": "Faro",
    "concelho": "Loulé",
    "freguesia": "Loulé (São Clemente)",
    "OBJECTID": 23,
    "BGRI2021": "08080800812",
    "DT21": "08",
    "DTMN21": "0808",
    "DTMNFR21": "080808",
    "DTMNFRSEC21": "080808008",
    "SECNUM21": "008",
    "SSNUM21": "12",
    "SECSSNUM21": "00812",
    "OBJECTID_1": 68205,
    "DT": "08",
    "CC": "08",
    "fr": "08",
    "SEC": "008",
    "SS": "12"
  },
  "addresses": [
    {
      "id": "pt.ine.add.PTCONT.1470564",
      "street": "SIT CRUZ ASSUMADA",
      "house": "",
      "postcode": "8100-296",
      "city": "LOULÉ",
      "lon": "-8.021370410224238",
      "lat": "37.16078205923312"
    },
    {
      "id": "pt.ine.add.PTCONT.1476488",
      "street": "CASA DA LUZ",
      "house": "",
      "postcode": "8100-296",
      "city": "LOULÉ",
      "lon": "-8.022154507628688",
      "lat": "37.163503988793195"
    },
    {
      "id": "pt.ine.add.PTCONT.1532359",
      "street": "",
      "house": "312A",
      "postcode": "8100-296",
      "city": "LOULÉ",
      "lon": "-8.022246603104364",
      "lat": "37.16211644698044"
    },
    {
      "id": "pt.ine.add.PTCONT.1557935",
      "street": "CASA CRUE DA ASSUMADA",
      "house": "",
      "postcode": "8100-296",
      "city": "LOULÉ",
      "lon": "-8.023619427097243",
      "lat": "37.16260429414595"
    },
    {
      "id": "pt.ine.add.PTCONT.1581653",
      "street": "CASA PERADA",
      "house": "",
      "postcode": "8100-296",
      "city": "LOULÉ",
      "lon": "-8.023619972939118",
      "lat": "37.16222585061992"
    },
    {
      "id": "pt.ine.add.PTCONT.1592670",
      "street": "ESTR SALIR EM 525",
      "house": "",
      "postcode": "8100-296",
      "city": "LOULÉ",
      "lon": "-8.02138381665517",
      "lat": "37.159322358630966"
    },
    {
      "id": "pt.ine.add.PTCONT.1602937",
      "street": "",
      "house": "",
      "postcode": "8100-296",
      "city": "LOULÉ",
      "lon": "-8.023180176727047",
      "lat": "37.16272102495152"
    },
    {
      "id": "pt.ine.add.PTCONT.1676617",
      "street": "",
      "house": "296",
      "postcode": "8100-296",
      "city": "LOULÉ",
      "lon": "-8.021833277933831",
      "lat": "37.159908468948"
    },
    {
      "id": "pt.ine.add.PTCONT.1684677",
      "street": "ESTR SALIR",
      "house": "",
      "postcode": "8100-296",
      "city": "LOULÉ",
      "lon": "-8.02160895005048",
      "lat": "37.159340591806135"
    },
    {
      "id": "pt.ine.add.PTCONT.1690554",
      "street": "CASA DA MUSICA",
      "house": "",
      "postcode": "8100-296",
      "city": "LOULÉ",
      "lon": "-8.021409861302585",
      "lat": "37.16457554705145"
    },
    {
      "id": "pt.ine.add.PTCONT.1699428",
      "street": "CASA COLINA",
      "house": "",
      "postcode": "8100-296",
      "city": "LOULÉ",
      "lon": "-8.021257429852698",
      "lat": "37.16105226988427"
    },
    {
      "id": "pt.ine.add.PTCONT.1710698",
      "street": "CASA ELIZA",
      "house": "",
      "postcode": "8100-296",
      "city": "LOULÉ",
      "lon": "-8.019137767629465",
      "lat": "37.163122682029794"
    },
    {
      "id": "pt.ine.add.PTCONT.1768074",
      "street": "CRUZ ASSUMADA",
      "house": "32",
      "postcode": "8100-296",
      "city": "LOULÉ",
      "lon": "-8.023282324496586",
      "lat": "37.16215345361651"
    },
    {
      "id": "pt.ine.add.PTCONT.1773128",
      "street": "WINE COTTAGE",
      "house": "",
      "postcode": "8100-296",
      "city": "LOULÉ",
      "lon": "-8.023462094699266",
      "lat": "37.16240591610183"
    },
    {
      "id": "pt.ine.add.PTCONT.1785598",
      "street": "CRUZ DA ASSUMADA",
      "house": "38",
      "postcode": "8100-296",
      "city": "LOULÉ",
      "lon": "-8.022638772259397",
      "lat": "37.16340532491905"
    },
    {
      "id": "pt.ine.add.PTCONT.1796843",
      "street": "CASA ALTA VISTA",
      "house": "33",
      "postcode": "8100-296",
      "city": "LOULÉ",
      "lon": "-8.022595207097112",
      "lat": "37.16239610031295"
    },
    {
      "id": "pt.ine.add.PTCONT.1802651",
      "street": "",
      "house": "",
      "postcode": "8100-296",
      "city": "LOULÉ",
      "lon": "-8.022430258321862",
      "lat": "37.159701784714684"
    },
    {
      "id": "pt.ine.add.PTCONT.1802650",
      "street": "",
      "house": "",
      "postcode": "8100-296",
      "city": "LOULÉ",
      "lon": "-8.020837263216759",
      "lat": "37.16349373763797"
    },
    {
      "id": "pt.ine.add.PTCONT.1808439",
      "street": "",
      "house": "",
      "postcode": "8100-296",
      "city": "LOULÉ",
      "lon": "-8.01992913108554",
      "lat": "37.160933871339346"
    },
    {
      "id": "pt.ine.add.PTCONT.1828578",
      "street": "",
      "house": "",
      "postcode": "8100-296",
      "city": "LOULÉ",
      "lon": "-8.021123513824598",
      "lat": "37.1602502022775"
    },
    {
      "id": "pt.ine.add.PTCONT.1842093",
      "street": "CASA DA AZINHEIRA",
      "house": "",
      "postcode": "8100-296",
      "city": "LOULÉ",
      "lon": "-8.02072598443236",
      "lat": "37.16261059621257"
    },
    {
      "id": "pt.ine.add.PTCONT.1842800",
      "street": "QTA SANTA LUZIA",
      "house": "",
      "postcode": "8100-296",
      "city": "LOULÉ",
      "lon": "-8.022176642981274",
      "lat": "37.16376531605026"
    }
  ]
}