{
  "data": {
    "distrito": "Guarda",
    "concelho": "Almeida",
    "freguesia": "União das freguesias de Junça e Naves",
    "OBJECTID": 600,
    "BGRI2021": "09023300127",
    "DT21": "09",
    "DTMN21": "0902",
    "DTMNFR21": "090233",
    "DTMNFRSEC21": "090233001",
    "SECNUM21": "001",
    "SSNUM21": "27",
    "SECSSNUM21": "00127",
    "OBJECTID_1": 75629,
    "DT": "09",
    "CC": "02",
    "fr": "33",
    "SEC": "001",
    "SS": "27"
  },
  "addresses": [
    {
      "id": "pt.ine.add.PTCONT.1901088",
      "street": "R DA MOITA",
      "house": "",
      "postcode": "6350-072",
      "city": "JUNÇA",
      "lon": "-6.884005314421313",
      "lat": "40.682799175008114"
    },
    {
      "id": "pt.ine.add.PTCONT.1901223",
      "street": "CC DA NOGUEIRA",
      "house": "",
      "postcode": "6350-072",
      "city": "JUNÇA",
      "lon": "-6.88488096391686",
      "lat": "40.68278163217035"
    },
    {
      "id": "pt.ine.add.PTCONT.1909094",
      "street": "R VALENTE",
      "house": "",
      "postcode": "6350-072",
      "city": "JUNÇA",
      "lon": "-6.884501954219099",
      "lat": "40.68217421127037"
    },
    {
      "id": "pt.ine.add.PTCONT.1909095",
      "street": "R DAS PEREIRAS",
      "house": "",
      "postcode": "6350-072",
      "city": "JUNÇA",
      "lon": "-6.885145270321789",
      "lat": "40.68192903300648"
    },
    {
      "id": "pt.ine.add.PTCONT.1912774",
      "street": "TV DA MOITA",
      "house": "",
      "postcode": "6350-072",
      "city": "JUNÇA",
      "lon": "-6.88460543097554",
      "lat": "40.68296775349394"
    },
    {
      "id": "pt.ine.add.PTCONT.1912938",
      "street": "",
      "house": "",
      "postcode": "6350-072",
      "city": "JUNÇA",
      "lon": "-6.884795424944078",
      "lat": "40.68229444760871"
    },
    {
      "id": "pt.ine.add.PTCONT.1916132",
      "street": "BR DO TESO",
      "house": "",
      "postcode": "6350-072",
      "city": "JUNÇA",
      "lon": "-6.885114704621943",
      "lat": "40.68356757752822"
    },
    {
      "id": "pt.ine.add.PTCONT.1918879",
      "street": "R DIREITA",
      "house": "",
      "postcode": "6350-072",
      "city": "JUNÇA",
      "lon": "-6.886157868008274",
      "lat": "40.68281344168624"
    },
    {
      "id": "pt.ine.add.PTCONT.1921800",
      "street": "R DIREITA",
      "house": "",
      "postcode": "6350-072",
      "city": "JUNÇA",
      "lon": "-6.886064264512077",
      "lat": "40.68275840171652"
    },
    {
      "id": "pt.ine.add.PTCONT.1921801",
      "street": "R DAS PEREIRAS",
      "house": "",
      "postcode": "6350-072",
      "city": "JUNÇA",
      "lon": "-6.885412402430953",
      "lat": "40.68219305998066"
    },
    {
      "id": "pt.ine.add.PTCONT.1934819",
      "street": "TV DA MOITA",
      "house": "",
      "postcode": "6350-072",
      "city": "JUNÇA",
      "lon": "-6.884333929765676",
      "lat": "40.68293780240325"
    },
    {
      "id": "pt.ine.add.PTCONT.1964649",
      "street": "R DIREITA",
      "house": "",
      "postcode": "6350-072",
      "city": "JUNÇA",
      "lon": "-6.8855736041658835",
      "lat": "40.68242892718643"
    },
    {
      "id": "pt.ine.add.PTCONT.1968660",
      "street": "R DA OLIVEIRA",
      "house": "",
      "postcode": "6350-072",
      "city": "JUNÇA",
      "lon": "-6.8851967731119",
      "lat": "40.681704469544066"
    },
    {
      "id": "pt.ine.add.PTCONT.1969690",
      "street": "",
      "house": "",
      "postcode": "6350-072",
      "city": "JUNÇA",
      "lon": "-6.885054593721497",
      "lat": "40.68235127870244"
    },
    {
      "id": "pt.ine.add.PTCONT.1974583",
      "street": "R DAS PEREIRAS",
      "house": "",
      "postcode": "6350-072",
      "city": "JUNÇA",
      "lon": "-6.885302440481885",
      "lat": "40.68238097240999"
    },
    {
      "id": "pt.ine.add.PTCONT.1979511",
      "street": "R DIREITA",
      "house": "",
      "postcode": "6350-072",
      "city": "JUNÇA",
      "lon": "-6.885541240993891",
      "lat": "40.681627149460205"
    },
    {
      "id": "pt.ine.add.PTCONT.1849983",
      "street": "CC DA NOGUEIRA",
      "house": "",
      "postcode": "6350-072",
      "city": "JUNÇA",
      "lon": "-6.885021199811597",
      "lat": "40.68287319650676"
    },
    {
      "id": "pt.ine.add.PTCONT.1855907",
      "street": "",
      "house": "",
      "postcode": "6350-072",
      "city": "JUNÇA",
      "lon": "-6.885149203437219",
      "lat": "40.682352301519074"
    },
    {
      "id": "pt.ine.add.PTCONT.1874856",
      "street": "R DA OLIVEIRA",
      "house": "",
      "postcode": "6350-072",
      "city": "JUNÇA",
      "lon": "-6.885016694369886",
      "lat": "40.681846599685684"
    },
    {
      "id": "pt.ine.add.PTCONT.1879913",
      "street": "R DA OLIVEIRA",
      "house": "",
      "postcode": "6350-072",
      "city": "JUNÇA",
      "lon": "-6.884694029087892",
      "lat": "40.68202320687088"
    },
    {
      "id": "pt.ine.add.PTCONT.1881470",
      "street": "R DOS CASARÕES DA VALENTE",
      "house": "",
      "postcode": "6350-072",
      "city": "JUNÇA",
      "lon": "-6.8852338341386385",
      "lat": "40.68225416349786"
    },
    {
      "id": "pt.ine.add.PTCONT.1889319",
      "street": "R DA MOITA",
      "house": "",
      "postcode": "6350-072",
      "city": "JUNÇA",
      "lon": "-6.884381843970009",
      "lat": "40.68227196497059"
    },
    {
      "id": "pt.ine.add.PTCONT.1898226",
      "street": "R DA BARROQUEIRA",
      "house": "",
      "postcode": "6350-072",
      "city": "JUNÇA",
      "lon": "-6.884807654361006",
      "lat": "40.68290690676243"
    }
  ]
}