{
  "data": {
    "distrito": "Viseu",
    "concelho": "Mangualde",
    "freguesia": "Alcafache",
    "OBJECTID": 322,
    "BGRI2021": "18060200104",
    "DT21": "18",
    "DTMN21": "1806",
    "DTMNFR21": "180602",
    "DTMNFRSEC21": "180602001",
    "SECNUM21": "001",
    "SSNUM21": "04",
    "SECSSNUM21": "00104",
    "OBJECTID_1": 191691,
    "DT": "18",
    "CC": "06",
    "fr": "02",
    "SEC": "001",
    "SS": "04"
  },
  "addresses": [
    {
      "id": "pt.ine.add.PTCONT.5454901",
      "street": "R SENHORA DOS PRZERES",
      "house": "3",
      "postcode": "3530-020",
      "city": "ALCAFACHE",
      "lon": "-7.876570339495602",
      "lat": "40.59023262074055"
    },
    {
      "id": "pt.ine.add.PTCONT.5483829",
      "street": "R SENHORA DOS PRAZERES",
      "house": "5",
      "postcode": "3530-020",
      "city": "ALCAFACHE",
      "lon": "-7.877053559444867",
      "lat": "40.59052186131568"
    },
    {
      "id": "pt.ine.add.PTCONT.5490970",
      "street": "R SENHORA DOS PRAZERES",
      "house": "1",
      "postcode": "3530-020",
      "city": "ALCAFACHE",
      "lon": "-7.876097557272322",
      "lat": "40.590303611896665"
    },
    {
      "id": "pt.ine.add.PTCONT.5516906",
      "street": "R SENHORA DOS PRAZERES",
      "house": "11",
      "postcode": "3530-020",
      "city": "ALCAFACHE",
      "lon": "-7.8775723246902585",
      "lat": "40.59078416270887"
    },
    {
      "id": "pt.ine.add.PTCONT.5520656",
      "street": "R SENHORA DOS PRAZERES",
      "house": "",
      "postcode": "3530-020",
      "city": "ALCAFACHE",
      "lon": "-7.875341165896219",
      "lat": "40.59040098437895"
    },
    {
      "id": "pt.ine.add.PTCONT.5564996",
      "street": "R SENHORA DOS PRAZERES",
      "house": "9",
      "postcode": "3530-020",
      "city": "ALCAFACHE",
      "lon": "-7.877407289086397",
      "lat": "40.59069374487391"
    },
    {
      "id": "pt.ine.add.PTCONT.5591616",
      "street": "R SENHORA DOS PRAZERES",
      "house": "7",
      "postcode": "3530-020",
      "city": "ALCAFACHE",
      "lon": "-7.877526582211236",
      "lat": "40.59038782993969"
    },
    {
      "id": "pt.ine.add.PTCONT.5625195",
      "street": "R PRINCIPAL",
      "house": "",
      "postcode": "3530-020",
      "city": "ALCAFACHE",
      "lon": "-7.872414102400385",
      "lat": "40.58975504186043"
    },
    {
      "id": "pt.ine.add.PTCONT.5630832",
      "street": "R SENHORA DOS PRAZERES",
      "house": "",
      "postcode": "3530-020",
      "city": "ALCAFACHE",
      "lon": "-7.87886968189579",
      "lat": "40.591327341165695"
    }
  ]
}