{
  "data": {
    "distrito": "Porto",
    "concelho": "Maia",
    "freguesia": "Moreira",
    "OBJECTID": 14,
    "BGRI2021": "13060900108",
    "DT21": "13",
    "DTMN21": "1306",
    "DTMNFR21": "130609",
    "DTMNFRSEC21": "130609001",
    "SECNUM21": "001",
    "SSNUM21": "08",
    "SECSSNUM21": "00108",
    "OBJECTID_1": 130543,
    "DT": "13",
    "CC": "06",
    "fr": "09",
    "SEC": "001",
    "SS": "08"
  },
  "addresses": [
    {
      "id": "pt.ine.add.PTCONT.3547329",
      "street": "R VILA MOREIRA CONEGOS",
      "house": "120",
      "postcode": "4470-500",
      "city": "MAIA",
      "lon": "-8.65964343962546",
      "lat": "41.25208175596507"
    },
    {
      "id": "pt.ine.add.PTCONT.3577513",
      "street": "R CRUZ DAS GUARDEIRAS",
      "house": "501",
      "postcode": "4470-593",
      "city": "MAIA",
      "lon": "-8.658838885195872",
      "lat": "41.25143713072845"
    },
    {
      "id": "pt.ine.add.PTCONT.3577514",
      "street": "R VILA DE MOREIRA DE CÓNEGOS",
      "house": "108",
      "postcode": "4470-500",
      "city": "MAIA",
      "lon": "-8.659535051372222",
      "lat": "41.251956192921355"
    },
    {
      "id": "pt.ine.add.PTCONT.3583288",
      "street": "R CRUZ DAS GUARDEIRAS",
      "house": "511",
      "postcode": "4470-593",
      "city": "MAIA",
      "lon": "-8.658851826382733",
      "lat": "41.25156313031343"
    },
    {
      "id": "pt.ine.add.PTCONT.3665112",
      "street": "R QUIRES F",
      "house": "168",
      "postcode": "4470-643",
      "city": "MAIA",
      "lon": "-8.655827590697005",
      "lat": "41.25534065078722"
    },
    {
      "id": "pt.ine.add.PTCONT.3679837",
      "street": "R CONS LUIS MAGALHÃES QTANINHA S JOÃO",
      "house": "1584",
      "postcode": "4470-616",
      "city": "MAIA",
      "lon": "-8.656672415989972",
      "lat": "41.25654337290674"
    },
    {
      "id": "pt.ine.add.PTCONT.3701839",
      "street": "R QUIRES",
      "house": "168 H",
      "postcode": "4470-643",
      "city": "MAIA",
      "lon": "-8.655672842561154",
      "lat": "41.25538637417253"
    },
    {
      "id": "pt.ine.add.PTCONT.3702293",
      "street": "R VILA DE MOREIRA DE CÓNEGOS",
      "house": "88",
      "postcode": "4470-500",
      "city": "MAIA",
      "lon": "-8.659319287624088",
      "lat": "41.25183112055867"
    },
    {
      "id": "pt.ine.add.PTCONT.3708957",
      "street": "R VILA MOREIRA CONEGOS",
      "house": "158",
      "postcode": "4470-500",
      "city": "MAIA",
      "lon": "-8.660026813744071",
      "lat": "41.25227809429522"
    },
    {
      "id": "pt.ine.add.PTCONT.3708976",
      "street": "R QUIRES E",
      "house": "168",
      "postcode": "4470-643",
      "city": "MAIA",
      "lon": "-8.655898819559345",
      "lat": "41.25529530645533"
    },
    {
      "id": "pt.ine.add.PTCONT.3712882",
      "street": "R VILA MOREIRA CONEGOS",
      "house": "134",
      "postcode": "4470-500",
      "city": "MAIA",
      "lon": "-8.659811120321232",
      "lat": "41.25216202673217"
    },
    {
      "id": "pt.ine.add.PTCONT.3722085",
      "street": "R QUIRES D",
      "house": "168",
      "postcode": "4470-643",
      "city": "MAIA",
      "lon": "-8.655982123211045",
      "lat": "41.25526791561553"
    },
    {
      "id": "pt.ine.add.PTCONT.3739583",
      "street": "R QUIRES QUINRA DAS MAGNOLIAS",
      "house": "304",
      "postcode": "4470-643",
      "city": "MAIA",
      "lon": "-8.656839385336676",
      "lat": "41.25653360932755"
    },
    {
      "id": "pt.ine.add.PTCONT.3741745",
      "street": "R VILA DE MOREIRA DE CÓNEGOS",
      "house": "70",
      "postcode": "4470-500",
      "city": "MAIA",
      "lon": "-8.659127385966482",
      "lat": "41.2517059387736"
    },
    {
      "id": "pt.ine.add.PTCONT.3754898",
      "street": "R QUIRES L",
      "house": "168",
      "postcode": "4470-643",
      "city": "MAIA",
      "lon": "-8.655363632504312",
      "lat": "41.255513835763196"
    },
    {
      "id": "pt.ine.add.PTCONT.3825417",
      "street": "R QUIRES N",
      "house": "168",
      "postcode": "4470-643",
      "city": "MAIA",
      "lon": "-8.655184877559316",
      "lat": "41.25554165901352"
    },
    {
      "id": "pt.ine.add.PTCONT.3831959",
      "street": "R QUIRES P",
      "house": "168",
      "postcode": "4470-643",
      "city": "MAIA",
      "lon": "-8.655066352597558",
      "lat": "41.2556412424385"
    },
    {
      "id": "pt.ine.add.PTCONT.3831960",
      "street": "R QUIRES Q",
      "house": "168",
      "postcode": "4470-643",
      "city": "MAIA",
      "lon": "-8.65495925701858",
      "lat": "41.25567774463965"
    },
    {
      "id": "pt.ine.add.PTCONT.3840068",
      "street": "R QUIRES M",
      "house": "168",
      "postcode": "4470-643",
      "city": "MAIA",
      "lon": "-8.65528039998388",
      "lat": "41.25555023001808"
    },
    {
      "id": "pt.ine.add.PTCONT.3874362",
      "street": "R QUIRES I",
      "house": "168",
      "postcode": "4470-643",
      "city": "MAIA",
      "lon": "-8.655589610375749",
      "lat": "41.255422768649765"
    },
    {
      "id": "pt.ine.add.PTCONT.3897676",
      "street": "R QUIRES",
      "house": "168 A",
      "postcode": "4470-643",
      "city": "MAIA",
      "lon": "-8.656207955702591",
      "lat": "41.25515883957513"
    },
    {
      "id": "pt.ine.add.PTCONT.3916682",
      "street": "R QUIRES O",
      "house": "168",
      "postcode": "4470-643",
      "city": "MAIA",
      "lon": "-8.655161445015482",
      "lat": "41.25559579037804"
    },
    {
      "id": "pt.ine.add.PTCONT.3945390",
      "street": "R QUIRES J",
      "house": "168",
      "postcode": "4470-643",
      "city": "MAIA",
      "lon": "-8.655518237683768",
      "lat": "41.255450105071134"
    },
    {
      "id": "pt.ine.add.PTCONT.3948107",
      "street": "R CRUZ DAS GUARDEIRAS",
      "house": "495",
      "postcode": "4470-593",
      "city": "MAIA",
      "lon": "-8.65888603001795",
      "lat": "41.25136488192015"
    },
    {
      "id": "pt.ine.add.PTCONT.3958586",
      "street": "R VILA DE MOREIRA DE CÓNEGOS",
      "house": "94",
      "postcode": "4470-500",
      "city": "MAIA",
      "lon": "-8.659427241661332",
      "lat": "41.2519026606516"
    },
    {
      "id": "pt.ine.add.PTCONT.3964987",
      "street": "R CRUZ DAS GUARDEIRAS",
      "house": "",
      "postcode": "4470-593",
      "city": "MAIA",
      "lon": "-8.6592790785806",
      "lat": "41.25276774006278"
    },
    {
      "id": "pt.ine.add.PTCONT.4020221",
      "street": "R VILA DE MOREIRA DE CÓNEGOS",
      "house": "54",
      "postcode": "4470-500",
      "city": "MAIA",
      "lon": "-8.659055368872924",
      "lat": "41.25165224262413"
    },
    {
      "id": "pt.ine.add.PTCONT.4062564",
      "street": "R VILA MOREIRA CONEGOS",
      "house": "74",
      "postcode": "4470-500",
      "city": "MAIA",
      "lon": "-8.65921155052985",
      "lat": "41.251786591944054"
    },
    {
      "id": "pt.ine.add.PTCONT.4097834",
      "street": "R QUIRES C",
      "house": "168",
      "postcode": "4470-643",
      "city": "MAIA",
      "lon": "-8.656053495509095",
      "lat": "41.25524057890805"
    },
    {
      "id": "pt.ine.add.PTCONT.4121059",
      "street": "R QUIRES B",
      "house": "168",
      "postcode": "4470-643",
      "city": "MAIA",
      "lon": "-8.656100789737923",
      "lat": "41.25518633897306"
    },
    {
      "id": "pt.ine.add.PTCONT.4129827",
      "street": "R VILA DE MOREIRA DE CÓNEGOS",
      "house": "I48",
      "postcode": "4470-500",
      "city": "MAIA",
      "lon": "-8.659894924657076",
      "lat": "41.25219766009329"
    },
    {
      "id": "pt.ine.add.PTCONT.4276289",
      "street": "R QUIRES G",
      "house": "168",
      "postcode": "4470-643",
      "city": "MAIA",
      "lon": "-8.655768436591169",
      "lat": "41.25540394863328"
    },
    {
      "id": "pt.ine.add.PTCONT.4284687",
      "street": "R QUIRES K",
      "house": "168",
      "postcode": "4470-643",
      "city": "MAIA",
      "lon": "-8.655446864931934",
      "lat": "41.255477441448456"
    },
    {
      "id": "pt.ine.add.PTCONT.4287892",
      "street": "R VILA DE MOREIRA DE CÓNEGOS",
      "house": "164",
      "postcode": "4470-500",
      "city": "MAIA",
      "lon": "-8.660146772402733",
      "lat": "41.2523585829564"
    }
  ]
}