{
  "data": {
    "distrito": "Porto",
    "concelho": "Porto",
    "freguesia": "Ramalde",
    "OBJECTID": 1610,
    "BGRI2021": "13121102702",
    "DT21": "13",
    "DTMN21": "1312",
    "DTMNFR21": "131211",
    "DTMNFRSEC21": "131211027",
    "SECNUM21": "027",
    "SSNUM21": "02",
    "SECSSNUM21": "02702",
    "OBJECTID_1": 138206,
    "DT": "13",
    "CC": "12",
    "fr": "11",
    "SEC": "027",
    "SS": "02"
  },
  "addresses": [
    {
      "id": "pt.ine.add.PTCONT.3562724",
      "street": "R ARTES GRAFICAS",
      "house": "36",
      "postcode": "4100-090",
      "city": "PORTO",
      "lon": "-8.633302884004292",
      "lat": "41.16172434325144"
    },
    {
      "id": "pt.ine.add.PTCONT.3569143",
      "street": "R ARTES GRAFICAS",
      "house": "96",
      "postcode": "4100-090",
      "city": "PORTO",
      "lon": "-8.633687979994559",
      "lat": "41.16222691308829"
    },
    {
      "id": "pt.ine.add.PTCONT.3580835",
      "street": "R VANZELERES",
      "house": "367",
      "postcode": "4100-484",
      "city": "PORTO",
      "lon": "-8.633040289326184",
      "lat": "41.1616624529285"
    },
    {
      "id": "pt.ine.add.PTCONT.3664072",
      "street": "R MOREIRA DE SA",
      "house": "25",
      "postcode": "4100-352",
      "city": "PORTO",
      "lon": "-8.633451745689976",
      "lat": "41.16249806953518"
    },
    {
      "id": "pt.ine.add.PTCONT.3664073",
      "street": "R MOREIRA DE SA",
      "house": "25",
      "postcode": "4100-352",
      "city": "PORTO",
      "lon": "-8.633451745689976",
      "lat": "41.16249806953518"
    },
    {
      "id": "pt.ine.add.PTCONT.3672034",
      "street": "R 5 DE OUTUBRO",
      "house": "469",
      "postcode": "4100-176",
      "city": "PORTO",
      "lon": "-8.633057062068142",
      "lat": "41.16230168793974"
    },
    {
      "id": "pt.ine.add.PTCONT.3672064",
      "street": "R 5 DE OUTUBRO",
      "house": "469",
      "postcode": "4100-176",
      "city": "PORTO",
      "lon": "-8.633057062068142",
      "lat": "41.16230168793974"
    },
    {
      "id": "pt.ine.add.PTCONT.3672065",
      "street": "R 5 DE OUTUBRO",
      "house": "469",
      "postcode": "4100-176",
      "city": "PORTO",
      "lon": "-8.633057062068142",
      "lat": "41.16230168793974"
    },
    {
      "id": "pt.ine.add.PTCONT.3673861",
      "street": "R 5 DE OUTUBRO",
      "house": "469",
      "postcode": "4100-176",
      "city": "PORTO",
      "lon": "-8.633057062068142",
      "lat": "41.16230168793974"
    },
    {
      "id": "pt.ine.add.PTCONT.3673984",
      "street": "R 5 DE OUTUBRO",
      "house": "469",
      "postcode": "4100-176",
      "city": "PORTO",
      "lon": "-8.633057062068142",
      "lat": "41.16230168793974"
    },
    {
      "id": "pt.ine.add.PTCONT.3742559",
      "street": "R ARTES GRAFICAS",
      "house": "44",
      "postcode": "4100-090",
      "city": "PORTO",
      "lon": "-8.633339517119614",
      "lat": "41.16184124052797"
    },
    {
      "id": "pt.ine.add.PTCONT.3742560",
      "street": "R ARTES GRAFICAS",
      "house": "44",
      "postcode": "4100-090",
      "city": "PORTO",
      "lon": "-8.633339517119614",
      "lat": "41.16184124052797"
    },
    {
      "id": "pt.ine.add.PTCONT.3742561",
      "street": "R ARTES GRAFICAS",
      "house": "44",
      "postcode": "4100-090",
      "city": "PORTO",
      "lon": "-8.633339517119614",
      "lat": "41.16184124052797"
    },
    {
      "id": "pt.ine.add.PTCONT.3742562",
      "street": "R ARTES GRAFICAS",
      "house": "44",
      "postcode": "4100-090",
      "city": "PORTO",
      "lon": "-8.633339517119614",
      "lat": "41.16184124052797"
    },
    {
      "id": "pt.ine.add.PTCONT.3745340",
      "street": "R ARTES GRAFICAS",
      "house": "44",
      "postcode": "4100-090",
      "city": "PORTO",
      "lon": "-8.633339517119614",
      "lat": "41.16184124052797"
    },
    {
      "id": "pt.ine.add.PTCONT.3787814",
      "street": "R ARTES GRAFICAS",
      "house": "76",
      "postcode": "4100-090",
      "city": "PORTO",
      "lon": "-8.633520013461773",
      "lat": "41.162074569234804"
    },
    {
      "id": "pt.ine.add.PTCONT.3787815",
      "street": "R ARTES GRAFICAS",
      "house": "76",
      "postcode": "4100-090",
      "city": "PORTO",
      "lon": "-8.633520013461773",
      "lat": "41.162074569234804"
    },
    {
      "id": "pt.ine.add.PTCONT.3787816",
      "street": "R ARTES GRAFICAS",
      "house": "76",
      "postcode": "4100-090",
      "city": "PORTO",
      "lon": "-8.633520013461773",
      "lat": "41.162074569234804"
    },
    {
      "id": "pt.ine.add.PTCONT.3787817",
      "street": "R ARTES GRAFICAS",
      "house": "76",
      "postcode": "4100-090",
      "city": "PORTO",
      "lon": "-8.633520013461773",
      "lat": "41.162074569234804"
    },
    {
      "id": "pt.ine.add.PTCONT.3787818",
      "street": "R ARTES GRAFICAS",
      "house": "76",
      "postcode": "4100-090",
      "city": "PORTO",
      "lon": "-8.633520013461773",
      "lat": "41.162074569234804"
    },
    {
      "id": "pt.ine.add.PTCONT.3790428",
      "street": "R ARTES GRAFICAS",
      "house": "76",
      "postcode": "4100-090",
      "city": "PORTO",
      "lon": "-8.633520013461773",
      "lat": "41.162074569234804"
    },
    {
      "id": "pt.ine.add.PTCONT.3838839",
      "street": "R ARTES GRAFICAS",
      "house": "60",
      "postcode": "4100-090",
      "city": "PORTO",
      "lon": "-8.633411893542405",
      "lat": "41.16195798254524"
    },
    {
      "id": "pt.ine.add.PTCONT.3838840",
      "street": "R ARTES GRAFICAS",
      "house": "60",
      "postcode": "4100-090",
      "city": "PORTO",
      "lon": "-8.633411893542405",
      "lat": "41.16195798254524"
    },
    {
      "id": "pt.ine.add.PTCONT.3838841",
      "street": "R ARTES GRAFICAS",
      "house": "60",
      "postcode": "4100-090",
      "city": "PORTO",
      "lon": "-8.633411893542405",
      "lat": "41.16195798254524"
    },
    {
      "id": "pt.ine.add.PTCONT.3838842",
      "street": "R ARTES GRAFICAS",
      "house": "60",
      "postcode": "4100-090",
      "city": "PORTO",
      "lon": "-8.633411893542405",
      "lat": "41.16195798254524"
    },
    {
      "id": "pt.ine.add.PTCONT.3839045",
      "street": "R ARTES GRAFICAS",
      "house": "60",
      "postcode": "4100-090",
      "city": "PORTO",
      "lon": "-8.633411893542405",
      "lat": "41.16195798254524"
    },
    {
      "id": "pt.ine.add.PTCONT.3839046",
      "street": "R ARTES GRAFICAS",
      "house": "60",
      "postcode": "4100-090",
      "city": "PORTO",
      "lon": "-8.633411893542405",
      "lat": "41.16195798254524"
    },
    {
      "id": "pt.ine.add.PTCONT.3848407",
      "street": "R 5 DE OUTUBRO",
      "house": "457",
      "postcode": "4100-176",
      "city": "PORTO",
      "lon": "-8.632972634620025",
      "lat": "41.162166989334175"
    },
    {
      "id": "pt.ine.add.PTCONT.3849546",
      "street": "R 5 DE OUTUBRO",
      "house": "457",
      "postcode": "4100-176",
      "city": "PORTO",
      "lon": "-8.632972634620025",
      "lat": "41.162166989334175"
    },
    {
      "id": "pt.ine.add.PTCONT.3849547",
      "street": "R 5 DE OUTUBRO",
      "house": "457",
      "postcode": "4100-176",
      "city": "PORTO",
      "lon": "-8.632972634620025",
      "lat": "41.162166989334175"
    },
    {
      "id": "pt.ine.add.PTCONT.3849548",
      "street": "R 5 DE OUTUBRO",
      "house": "457",
      "postcode": "4100-176",
      "city": "PORTO",
      "lon": "-8.632972634620025",
      "lat": "41.162166989334175"
    },
    {
      "id": "pt.ine.add.PTCONT.3849549",
      "street": "R 5 DE OUTUBRO",
      "house": "457",
      "postcode": "4100-176",
      "city": "PORTO",
      "lon": "-8.632972634620025",
      "lat": "41.162166989334175"
    },
    {
      "id": "pt.ine.add.PTCONT.3849550",
      "street": "R 5 DE OUTUBRO",
      "house": "457",
      "postcode": "4100-176",
      "city": "PORTO",
      "lon": "-8.632972634620025",
      "lat": "41.162166989334175"
    },
    {
      "id": "pt.ine.add.PTCONT.3849551",
      "street": "R 5 DE OUTUBRO",
      "house": "457",
      "postcode": "4100-176",
      "city": "PORTO",
      "lon": "-8.632972634620025",
      "lat": "41.162166989334175"
    },
    {
      "id": "pt.ine.add.PTCONT.3849554",
      "street": "R 5 DE OUTUBRO",
      "house": "457",
      "postcode": "4100-176",
      "city": "PORTO",
      "lon": "-8.632972634620025",
      "lat": "41.162166989334175"
    },
    {
      "id": "pt.ine.add.PTCONT.3994724",
      "street": "R MOREIRA DE SA",
      "house": "15",
      "postcode": "4100-352",
      "city": "PORTO",
      "lon": "-8.63327337064156",
      "lat": "41.162543865902954"
    },
    {
      "id": "pt.ine.add.PTCONT.3994725",
      "street": "R MOREIRA DE SA",
      "house": "15",
      "postcode": "4100-352",
      "city": "PORTO",
      "lon": "-8.63327337064156",
      "lat": "41.162543865902954"
    },
    {
      "id": "pt.ine.add.PTCONT.3994726",
      "street": "R MOREIRA DE SA",
      "house": "15",
      "postcode": "4100-352",
      "city": "PORTO",
      "lon": "-8.63327337064156",
      "lat": "41.162543865902954"
    },
    {
      "id": "pt.ine.add.PTCONT.3994727",
      "street": "R MOREIRA DE SA",
      "house": "15",
      "postcode": "4100-352",
      "city": "PORTO",
      "lon": "-8.63327337064156",
      "lat": "41.162543865902954"
    },
    {
      "id": "pt.ine.add.PTCONT.3994728",
      "street": "R MOREIRA DE SA",
      "house": "15",
      "postcode": "4100-352",
      "city": "PORTO",
      "lon": "-8.63327337064156",
      "lat": "41.162543865902954"
    },
    {
      "id": "pt.ine.add.PTCONT.3994729",
      "street": "R MOREIRA DE SA",
      "house": "15",
      "postcode": "4100-352",
      "city": "PORTO",
      "lon": "-8.63327337064156",
      "lat": "41.162543865902954"
    },
    {
      "id": "pt.ine.add.PTCONT.3994730",
      "street": "R MOREIRA DE SA",
      "house": "15",
      "postcode": "4100-352",
      "city": "PORTO",
      "lon": "-8.63327337064156",
      "lat": "41.162543865902954"
    },
    {
      "id": "pt.ine.add.PTCONT.3994731",
      "street": "R MOREIRA DE SA",
      "house": "15",
      "postcode": "4100-352",
      "city": "PORTO",
      "lon": "-8.63327337064156",
      "lat": "41.162543865902954"
    },
    {
      "id": "pt.ine.add.PTCONT.3994732",
      "street": "R MOREIRA DE SA",
      "house": "15",
      "postcode": "4100-352",
      "city": "PORTO",
      "lon": "-8.63327337064156",
      "lat": "41.162543865902954"
    },
    {
      "id": "pt.ine.add.PTCONT.3994733",
      "street": "R MOREIRA DE SA",
      "house": "15",
      "postcode": "4100-352",
      "city": "PORTO",
      "lon": "-8.63327337064156",
      "lat": "41.162543865902954"
    },
    {
      "id": "pt.ine.add.PTCONT.3994734",
      "street": "R MOREIRA DE SA",
      "house": "15",
      "postcode": "4100-352",
      "city": "PORTO",
      "lon": "-8.63327337064156",
      "lat": "41.162543865902954"
    },
    {
      "id": "pt.ine.add.PTCONT.4006830",
      "street": "R VANZELERES",
      "house": "365",
      "postcode": "4100-484",
      "city": "PORTO",
      "lon": "-8.633075758621452",
      "lat": "41.16162628163368"
    },
    {
      "id": "pt.ine.add.PTCONT.4099825",
      "street": "R ARTES GRAFICAS",
      "house": "26",
      "postcode": "4100-090",
      "city": "PORTO",
      "lon": "-8.633158885180155",
      "lat": "41.16158990344396"
    },
    {
      "id": "pt.ine.add.PTCONT.4106012",
      "street": "R VANZELERES",
      "house": "375",
      "postcode": "4100-484",
      "city": "PORTO",
      "lon": "-8.632969145371211",
      "lat": "41.16170778336865"
    },
    {
      "id": "pt.ine.add.PTCONT.4125569",
      "street": "R ARTES GRAFICAS",
      "house": "108",
      "postcode": "4100-090",
      "city": "PORTO",
      "lon": "-8.633736117408864",
      "lat": "41.16228973422192"
    },
    {
      "id": "pt.ine.add.PTCONT.4256502",
      "street": "R ARTES GRAFICAS",
      "house": "112",
      "postcode": "4100-090",
      "city": "PORTO",
      "lon": "-8.633784323444488",
      "lat": "41.16236155937097"
    },
    {
      "id": "pt.ine.add.PTCONT.4269773",
      "street": "R 5 DE OUTUBRO",
      "house": "487",
      "postcode": "4100-176",
      "city": "PORTO",
      "lon": "-8.633105609554873",
      "lat": "41.162418533565216"
    },
    {
      "id": "pt.ine.add.PTCONT.4316875",
      "street": "R 5 DE OUTUBRO",
      "house": "497",
      "postcode": "4100-176",
      "city": "PORTO",
      "lon": "-8.633165524155313",
      "lat": "41.1624632951432"
    },
    {
      "id": "pt.ine.add.PTCONT.4316880",
      "street": "R 5 DE OUTUBRO",
      "house": "429",
      "postcode": "4100-176",
      "city": "PORTO",
      "lon": "-8.632756465175765",
      "lat": "41.16194281885467"
    },
    {
      "id": "pt.ine.add.PTCONT.4352043",
      "street": "R 5 DE OUTUBRO",
      "house": "437",
      "postcode": "4100-176",
      "city": "PORTO",
      "lon": "-8.632864447109764",
      "lat": "41.162041398089514"
    },
    {
      "id": "pt.ine.add.PTCONT.4352044",
      "street": "R 5 DE OUTUBRO",
      "house": "437",
      "postcode": "4100-176",
      "city": "PORTO",
      "lon": "-8.632864447109764",
      "lat": "41.162041398089514"
    },
    {
      "id": "pt.ine.add.PTCONT.4352045",
      "street": "R 5 DE OUTUBRO",
      "house": "437",
      "postcode": "4100-176",
      "city": "PORTO",
      "lon": "-8.632864447109764",
      "lat": "41.162041398089514"
    },
    {
      "id": "pt.ine.add.PTCONT.4352046",
      "street": "R 5 DE OUTUBRO",
      "house": "437",
      "postcode": "4100-176",
      "city": "PORTO",
      "lon": "-8.632864447109764",
      "lat": "41.162041398089514"
    },
    {
      "id": "pt.ine.add.PTCONT.4352047",
      "street": "R 5 DE OUTUBRO",
      "house": "437",
      "postcode": "4100-176",
      "city": "PORTO",
      "lon": "-8.632864447109764",
      "lat": "41.162041398089514"
    },
    {
      "id": "pt.ine.add.PTCONT.4352048",
      "street": "R 5 DE OUTUBRO",
      "house": "437",
      "postcode": "4100-176",
      "city": "PORTO",
      "lon": "-8.632864447109764",
      "lat": "41.162041398089514"
    },
    {
      "id": "pt.ine.add.PTCONT.4352049",
      "street": "R 5 DE OUTUBRO",
      "house": "437",
      "postcode": "4100-176",
      "city": "PORTO",
      "lon": "-8.632864447109764",
      "lat": "41.162041398089514"
    },
    {
      "id": "pt.ine.add.PTCONT.4352050",
      "street": "R 5 DE OUTUBRO",
      "house": "437",
      "postcode": "4100-176",
      "city": "PORTO",
      "lon": "-8.632864447109764",
      "lat": "41.162041398089514"
    },
    {
      "id": "pt.ine.add.PTCONT.4352051",
      "street": "R 5 DE OUTUBRO",
      "house": "437",
      "postcode": "4100-176",
      "city": "PORTO",
      "lon": "-8.632864447109764",
      "lat": "41.162041398089514"
    },
    {
      "id": "pt.ine.add.PTCONT.4352052",
      "street": "R 5 DE OUTUBRO",
      "house": "437",
      "postcode": "4100-176",
      "city": "PORTO",
      "lon": "-8.632864447109764",
      "lat": "41.162041398089514"
    },
    {
      "id": "pt.ine.add.PTCONT.4352053",
      "street": "R 5 DE OUTUBRO",
      "house": "437",
      "postcode": "4100-176",
      "city": "PORTO",
      "lon": "-8.632864447109764",
      "lat": "41.162041398089514"
    },
    {
      "id": "pt.ine.add.PTCONT.4352057",
      "street": "R 5 DE OUTUBRO",
      "house": "437",
      "postcode": "4100-176",
      "city": "PORTO",
      "lon": "-8.632864447109764",
      "lat": "41.162041398089514"
    },
    {
      "id": "pt.ine.add.PTCONT.4388535",
      "street": "R 5 DE OUTUBRO",
      "house": "469",
      "postcode": "4100-176",
      "city": "PORTO",
      "lon": "-8.633057062068142",
      "lat": "41.16230168793974"
    }
  ]
}