{
  "data": {
    "distrito": "Porto",
    "concelho": "Felgueiras",
    "freguesia": "Sendim",
    "OBJECTID": 925,
    "BGRI2021": "13032400114",
    "DT21": "13",
    "DTMN21": "1303",
    "DTMNFR21": "130324",
    "DTMNFRSEC21": "130324001",
    "SECNUM21": "001",
    "SSNUM21": "14",
    "SECSSNUM21": "00114",
    "OBJECTID_1": 127300,
    "DT": "13",
    "CC": "03",
    "fr": "24",
    "SEC": "001",
    "SS": "14"
  },
  "addresses": [
    {
      "id": "pt.ine.add.PTCONT.3559850",
      "street": "R LADRIDO",
      "house": "20",
      "postcode": "4610-731",
      "city": "SENDIM FLG",
      "lon": "-8.178417743772934",
      "lat": "41.3823690887215"
    },
    {
      "id": "pt.ine.add.PTCONT.3577332",
      "street": "R LADRIDO",
      "house": "99",
      "postcode": "4610-731",
      "city": "SENDIM FLG",
      "lon": "-8.179111412159257",
      "lat": "41.382764991061734"
    },
    {
      "id": "pt.ine.add.PTCONT.3591899",
      "street": "R OUTEIRO",
      "house": "225",
      "postcode": "4610-752",
      "city": "SENDIM FLG",
      "lon": "-8.178645868405079",
      "lat": "41.38377362806582"
    },
    {
      "id": "pt.ine.add.PTCONT.3694855",
      "street": "TV PENELAS",
      "house": "2",
      "postcode": "4610-755",
      "city": "SENDIM FLG",
      "lon": "-8.177652243722735",
      "lat": "41.38181113734327"
    },
    {
      "id": "pt.ine.add.PTCONT.3727820",
      "street": "TV PENELAS",
      "house": "15",
      "postcode": "4610-755",
      "city": "SENDIM FLG",
      "lon": "-8.178023030981816",
      "lat": "41.38208111430955"
    },
    {
      "id": "pt.ine.add.PTCONT.3751370",
      "street": "R OUTEIRO",
      "house": "173",
      "postcode": "4610-752",
      "city": "SENDIM FLG",
      "lon": "-8.17794017510295",
      "lat": "41.38328768733358"
    },
    {
      "id": "pt.ine.add.PTCONT.3751371",
      "street": "R OUTEIRO",
      "house": "173",
      "postcode": "4610-752",
      "city": "SENDIM FLG",
      "lon": "-8.17794017510295",
      "lat": "41.38328768733358"
    },
    {
      "id": "pt.ine.add.PTCONT.3856335",
      "street": "TV PENELAS",
      "house": "141",
      "postcode": "4610-755",
      "city": "SENDIM FLG",
      "lon": "-8.177736321879467",
      "lat": "41.382387363077754"
    },
    {
      "id": "pt.ine.add.PTCONT.3863274",
      "street": "R PAREDE",
      "house": "34",
      "postcode": "4610-754",
      "city": "SENDIM FLG",
      "lon": "-8.178932604605663",
      "lat": "41.383503393230136"
    },
    {
      "id": "pt.ine.add.PTCONT.3877639",
      "street": "R QUINTA",
      "house": "642",
      "postcode": "4610-760",
      "city": "SENDIM FLG",
      "lon": "-8.177424997010473",
      "lat": "41.381658156459316"
    },
    {
      "id": "pt.ine.add.PTCONT.3880587",
      "street": "TV STO ANTAO",
      "house": "2",
      "postcode": "4610-763",
      "city": "SENDIM FLG",
      "lon": "-8.178513771974764",
      "lat": "41.38292730105568"
    },
    {
      "id": "pt.ine.add.PTCONT.3996715",
      "street": "R PAREDE",
      "house": "66",
      "postcode": "4610-754",
      "city": "SENDIM FLG",
      "lon": "-8.178645661112933",
      "lat": "41.38347649503591"
    },
    {
      "id": "pt.ine.add.PTCONT.4037378",
      "street": "R QUINTA",
      "house": "802",
      "postcode": "4610-760",
      "city": "SENDIM FLG",
      "lon": "-8.178860191848102",
      "lat": "41.38253098630147"
    },
    {
      "id": "pt.ine.add.PTCONT.4037379",
      "street": "R QUINTA",
      "house": "802",
      "postcode": "4610-760",
      "city": "SENDIM FLG",
      "lon": "-8.178860191848102",
      "lat": "41.38253098630147"
    },
    {
      "id": "pt.ine.add.PTCONT.4103129",
      "street": "R PAREDE",
      "house": "44",
      "postcode": "4610-754",
      "city": "SENDIM FLG",
      "lon": "-8.17888487223471",
      "lat": "41.38362946870093"
    },
    {
      "id": "pt.ine.add.PTCONT.4142666",
      "street": "R QUINTA",
      "house": "754",
      "postcode": "4610-760",
      "city": "SENDIM FLG",
      "lon": "-8.178286120525033",
      "lat": "41.38219806379112"
    },
    {
      "id": "pt.ine.add.PTCONT.4147786",
      "street": "R PAREDE",
      "house": "30",
      "postcode": "4610-754",
      "city": "SENDIM FLG",
      "lon": "-8.178956420126969",
      "lat": "41.38336832323414"
    },
    {
      "id": "pt.ine.add.PTCONT.4247862",
      "street": "R OUTEIRO",
      "house": "233",
      "postcode": "4610-752",
      "city": "SENDIM FLG",
      "lon": "-8.178789400638792",
      "lat": "41.383872615544355"
    },
    {
      "id": "pt.ine.add.PTCONT.4253603",
      "street": "R LADRIDO",
      "house": "40",
      "postcode": "4610-731",
      "city": "SENDIM FLG",
      "lon": "-8.17856134153718",
      "lat": "41.38256712087313"
    },
    {
      "id": "pt.ine.add.PTCONT.4295931",
      "street": "R OUTEIRO",
      "house": "109",
      "postcode": "4610-752",
      "city": "SENDIM FLG",
      "lon": "-8.177844398107567",
      "lat": "41.38308963585091"
    }
  ]
}