{
  "data": {
    "distrito": "Porto",
    "concelho": "Baião",
    "freguesia": "União das freguesias de Ancede e Ribadouro",
    "OBJECTID": 348,
    "BGRI2021": "13022100218",
    "DT21": "13",
    "DTMN21": "1302",
    "DTMNFR21": "130221",
    "DTMNFRSEC21": "130221002",
    "SECNUM21": "002",
    "SSNUM21": "18",
    "SECSSNUM21": "00218",
    "OBJECTID_1": 126939,
    "DT": "13",
    "CC": "02",
    "fr": "21",
    "SEC": "002",
    "SS": "18"
  },
  "addresses": [
    {
      "id": "pt.ine.add.PTCONT.3585168",
      "street": "CAM VISTA ALEGRE",
      "house": "",
      "postcode": "4640-015",
      "city": "ANCEDE",
      "lon": "-8.07011035329695",
      "lat": "41.10408430444205"
    },
    {
      "id": "pt.ine.add.PTCONT.3591330",
      "street": "R POÇO NEGRO",
      "house": "",
      "postcode": "4640-028",
      "city": "ANCEDE",
      "lon": "-8.074911472611669",
      "lat": "41.09994477088661"
    },
    {
      "id": "pt.ine.add.PTCONT.3623820",
      "street": "R POÇO NEGRO",
      "house": "161",
      "postcode": "4640-028",
      "city": "ANCEDE",
      "lon": "-8.074554443775297",
      "lat": "41.09985454521569"
    },
    {
      "id": "pt.ine.add.PTCONT.3636870",
      "street": "CAM VISTA ALEGRE",
      "house": "",
      "postcode": "4640-015",
      "city": "ANCEDE",
      "lon": "-8.069882978390016",
      "lat": "41.10532679688755"
    },
    {
      "id": "pt.ine.add.PTCONT.3657024",
      "street": "R 1 DE MARCO",
      "house": "47",
      "postcode": "4640-036",
      "city": "ANCEDE",
      "lon": "-8.06481431616193",
      "lat": "41.1027216116087"
    },
    {
      "id": "pt.ine.add.PTCONT.3676189",
      "street": "R POÇO NEGRO",
      "house": "146",
      "postcode": "4640-028",
      "city": "ANCEDE",
      "lon": "-8.07426874105109",
      "lat": "41.09987240862788"
    },
    {
      "id": "pt.ine.add.PTCONT.3721107",
      "street": "R QUINTA",
      "house": "",
      "postcode": "4640-015",
      "city": "ANCEDE",
      "lon": "-8.07482260647565",
      "lat": "41.10621183960522"
    },
    {
      "id": "pt.ine.add.PTCONT.3840800",
      "street": "CAM PONTE NOVA",
      "house": "",
      "postcode": "4640-015",
      "city": "ANCEDE",
      "lon": "-8.073156767458144",
      "lat": "41.10530153344656"
    },
    {
      "id": "pt.ine.add.PTCONT.3848839",
      "street": "ESMORIZ",
      "house": "",
      "postcode": "4640-001",
      "city": "ANCEDE",
      "lon": "-8.07080021118655",
      "lat": "41.10471499257206"
    },
    {
      "id": "pt.ine.add.PTCONT.3888727",
      "street": "CAM PONTE NOVA",
      "house": "321",
      "postcode": "4640-015",
      "city": "ANCEDE",
      "lon": "-8.068227468289175",
      "lat": "41.10610926537022"
    },
    {
      "id": "pt.ine.add.PTCONT.3916624",
      "street": "R POÇO NEGRO",
      "house": "22",
      "postcode": "4640-028",
      "city": "ANCEDE",
      "lon": "-8.072744954863781",
      "lat": "41.10000668757988"
    },
    {
      "id": "pt.ine.add.PTCONT.3966253",
      "street": "R POCO NEGRO",
      "house": "68",
      "postcode": "4640-028",
      "city": "ANCEDE",
      "lon": "-8.073471272243992",
      "lat": "41.09979095831795"
    },
    {
      "id": "pt.ine.add.PTCONT.3986480",
      "street": "R POÇO NEGRO",
      "house": "32",
      "postcode": "4640-028",
      "city": "ANCEDE",
      "lon": "-8.073150055228282",
      "lat": "41.099592693076076"
    },
    {
      "id": "pt.ine.add.PTCONT.4020431",
      "street": "R BALDE",
      "house": "",
      "postcode": "4640-400",
      "city": "RIBADOURO",
      "lon": "-8.08145980815564",
      "lat": "41.0982370411054"
    },
    {
      "id": "pt.ine.add.PTCONT.4030711",
      "street": "R PONTE NOVA",
      "house": "",
      "postcode": "4640-029",
      "city": "ANCEDE",
      "lon": "-8.065940574917182",
      "lat": "41.10726953122543"
    },
    {
      "id": "pt.ine.add.PTCONT.4096899",
      "street": "R 1 DE MARCO",
      "house": "",
      "postcode": "4640-036",
      "city": "ANCEDE",
      "lon": "-8.06477899576673",
      "lat": "41.102343402749966"
    },
    {
      "id": "pt.ine.add.PTCONT.4103083",
      "street": "R VISTA ALEGRE",
      "house": "",
      "postcode": "4640-015",
      "city": "ANCEDE",
      "lon": "-8.06853797056806",
      "lat": "41.10510994368603"
    },
    {
      "id": "pt.ine.add.PTCONT.4140200",
      "street": "CAM VISTA ALEGRE",
      "house": "",
      "postcode": "4640-015",
      "city": "ANCEDE",
      "lon": "-8.071217172596272",
      "lat": "41.10439105633958"
    },
    {
      "id": "pt.ine.add.PTCONT.4220977",
      "street": "CAM PONTE NOVA",
      "house": "",
      "postcode": "4640-015",
      "city": "ANCEDE",
      "lon": "-8.070871672116324",
      "lat": "41.10467901331086"
    },
    {
      "id": "pt.ine.add.PTCONT.4294933",
      "street": "R QUINTA",
      "house": "54",
      "postcode": "4640-015",
      "city": "ANCEDE",
      "lon": "-8.074286225402238",
      "lat": "41.10695893786716"
    },
    {
      "id": "pt.ine.add.PTCONT.4294934",
      "street": "R QUINTA",
      "house": "54",
      "postcode": "4640-015",
      "city": "ANCEDE",
      "lon": "-8.074286225402238",
      "lat": "41.10695893786716"
    },
    {
      "id": "pt.ine.add.PTCONT.4359254",
      "street": "CAM PONTE NOVA",
      "house": "72",
      "postcode": "4640-015",
      "city": "ANCEDE",
      "lon": "-8.071835139948071",
      "lat": "41.105534954397946"
    }
  ]
}