{
  "data": {
    "distrito": "Viseu",
    "concelho": "Tondela",
    "freguesia": "Uni√£o das freguesias de Caparrosa e Silvares",
    "OBJECTID": 1207,
    "BGRI2021": "18212800103",
    "DT21": "18",
    "DTMN21": "1821",
    "DTMNFR21": "182128",
    "DTMNFRSEC21": "182128001",
    "SECNUM21": "001",
    "SSNUM21": "03",
    "SECSSNUM21": "00103",
    "OBJECTID_1": 199899,
    "DT": "18",
    "CC": "21",
    "fr": "28",
    "SEC": "001",
    "SS": "03"
  },
  "addresses": [
    {
      "id": "pt.ine.add.PTCONT.5437100",
      "street": "R MAMOEIRAIS",
      "house": "54",
      "postcode": "3465-102",
      "city": "CAPARROSA",
      "lon": "-8.079145700781327",
      "lat": "40.60723666208358"
    },
    {
      "id": "pt.ine.add.PTCONT.5440771",
      "street": "R MUNICIPIO",
      "house": "172",
      "postcode": "3465-102",
      "city": "CAPARROSA",
      "lon": "-8.078931955266917",
      "lat": "40.608551328404296"
    },
    {
      "id": "pt.ine.add.PTCONT.5447264",
      "street": "R MUNICIPIO",
      "house": "94",
      "postcode": "3465-102",
      "city": "CAPARROSA",
      "lon": "-8.079924434937075",
      "lat": "40.60863283689509"
    },
    {
      "id": "pt.ine.add.PTCONT.5469913",
      "street": "R MUNICIPIO",
      "house": "46",
      "postcode": "3465-102",
      "city": "CAPARROSA",
      "lon": "-8.080373436372458",
      "lat": "40.60864204801618"
    },
    {
      "id": "pt.ine.add.PTCONT.5484375",
      "street": "R MUNICIPIO",
      "house": "184",
      "postcode": "3465-102",
      "city": "CAPARROSA",
      "lon": "-8.07867214943205",
      "lat": "40.608371101284746"
    },
    {
      "id": "pt.ine.add.PTCONT.5496499",
      "street": "R MUNICIPIO",
      "house": "120",
      "postcode": "3465-102",
      "city": "CAPARROSA",
      "lon": "-8.079640836260722",
      "lat": "40.60865071645803"
    },
    {
      "id": "pt.ine.add.PTCONT.5501637",
      "street": "R MUNICIPIO",
      "house": "78",
      "postcode": "3465-102",
      "city": "CAPARROSA",
      "lon": "-8.080125292942473",
      "lat": "40.60865093970294"
    },
    {
      "id": "pt.ine.add.PTCONT.5519370",
      "street": "CANTO DO MEDORNO",
      "house": "20",
      "postcode": "3465-102",
      "city": "CAPARROSA",
      "lon": "-8.078365573571572",
      "lat": "40.6075874997238"
    },
    {
      "id": "pt.ine.add.PTCONT.5532262",
      "street": "R 10 DE JUNHO",
      "house": "45",
      "postcode": "3465-102",
      "city": "CAPARROSA",
      "lon": "-8.078767421171266",
      "lat": "40.6074526107343"
    },
    {
      "id": "pt.ine.add.PTCONT.5550426",
      "street": "CANTO DO MEDORNO",
      "house": "44",
      "postcode": "3465-102",
      "city": "CAPARROSA",
      "lon": "-8.07913324746534",
      "lat": "40.608029118228444"
    },
    {
      "id": "pt.ine.add.PTCONT.5582999",
      "street": "R POLIVALENTE",
      "house": "500",
      "postcode": "3465-102",
      "city": "CAPARROSA",
      "lon": "-8.080612300427635",
      "lat": "40.60539126136623"
    },
    {
      "id": "pt.ine.add.PTCONT.5634122",
      "street": "R MUNICIPIO",
      "house": "160",
      "postcode": "3465-102",
      "city": "CAPARROSA",
      "lon": "-8.079144780876142",
      "lat": "40.608380328316535"
    }
  ]
}