{
  "data": {
    "distrito": "Viseu",
    "concelho": "Tondela",
    "freguesia": "União das freguesias de Caparrosa e Silvares",
    "OBJECTID": 684,
    "BGRI2021": "18212800130",
    "DT21": "18",
    "DTMN21": "1821",
    "DTMNFR21": "182128",
    "DTMNFRSEC21": "182128001",
    "SECNUM21": "001",
    "SSNUM21": "30",
    "SECSSNUM21": "00130",
    "OBJECTID_1": 199070,
    "DT": "18",
    "CC": "21",
    "fr": "28",
    "SEC": "001",
    "SS": "30"
  },
  "addresses": [
    {
      "id": "pt.ine.add.PTCONT.5437229",
      "street": "R OUTEIRO",
      "house": "2",
      "postcode": "3465-104",
      "city": "CAPARROSA",
      "lon": "-8.101085664359877",
      "lat": "40.611270174185755"
    },
    {
      "id": "pt.ine.add.PTCONT.5444616",
      "street": "R QUINTA",
      "house": "32",
      "postcode": "3465-104",
      "city": "CAPARROSA",
      "lon": "-8.099880026422184",
      "lat": "40.61199025312729"
    },
    {
      "id": "pt.ine.add.PTCONT.5446392",
      "street": "R QUINTA",
      "house": "65",
      "postcode": "3465-104",
      "city": "CAPARROSA",
      "lon": "-8.099631949561244",
      "lat": "40.611846097599425"
    },
    {
      "id": "pt.ine.add.PTCONT.5452108",
      "street": "R MOITA",
      "house": "58",
      "postcode": "3465-104",
      "city": "CAPARROSA",
      "lon": "-8.100565861507821",
      "lat": "40.61101788205482"
    },
    {
      "id": "pt.ine.add.PTCONT.5460090",
      "street": "R CAMPAS",
      "house": "",
      "postcode": "3465-104",
      "city": "CAPARROSA",
      "lon": "-8.100565721711622",
      "lat": "40.61130604983819"
    },
    {
      "id": "pt.ine.add.PTCONT.5464471",
      "street": "R CAPELA",
      "house": "135",
      "postcode": "3465-104",
      "city": "CAPARROSA",
      "lon": "-8.099347848496885",
      "lat": "40.61284559683467"
    },
    {
      "id": "pt.ine.add.PTCONT.5466697",
      "street": "R OUTEIRO",
      "house": "24",
      "postcode": "3465-104",
      "city": "CAPARROSA",
      "lon": "-8.100932084659417",
      "lat": "40.611198089548786"
    },
    {
      "id": "pt.ine.add.PTCONT.5467567",
      "street": "R CAPELA",
      "house": "79",
      "postcode": "3465-104",
      "city": "CAPARROSA",
      "lon": "-8.099407212802987",
      "lat": "40.61228728915212"
    },
    {
      "id": "pt.ine.add.PTCONT.5467569",
      "street": "R CAMPAS",
      "house": "23",
      "postcode": "3465-104",
      "city": "CAPARROSA",
      "lon": "-8.100518416386402",
      "lat": "40.61138708369768"
    },
    {
      "id": "pt.ine.add.PTCONT.5493713",
      "street": "R CAMPAS",
      "house": "15",
      "postcode": "3465-104",
      "city": "CAPARROSA",
      "lon": "-8.10048311579258",
      "lat": "40.611080895424"
    },
    {
      "id": "pt.ine.add.PTCONT.5508282",
      "street": "R OUTEIRO",
      "house": "16",
      "postcode": "3465-104",
      "city": "CAPARROSA",
      "lon": "-8.100955691698728",
      "lat": "40.61125212758904"
    },
    {
      "id": "pt.ine.add.PTCONT.5516086",
      "street": "R QUINTA",
      "house": "68",
      "postcode": "3465-104",
      "city": "CAPARROSA",
      "lon": "-8.099951104120525",
      "lat": "40.61163006381618"
    },
    {
      "id": "pt.ine.add.PTCONT.5523477",
      "street": "R PASSADICO",
      "house": "56",
      "postcode": "3465-104",
      "city": "CAPARROSA",
      "lon": "-8.09993919406657",
      "lat": "40.611819170511545"
    },
    {
      "id": "pt.ine.add.PTCONT.5523478",
      "street": "R OUTEIRO",
      "house": "15",
      "postcode": "3465-104",
      "city": "CAPARROSA",
      "lon": "-8.100896531471871",
      "lat": "40.61141420550069"
    },
    {
      "id": "pt.ine.add.PTCONT.5525140",
      "street": "R PASSADICO",
      "house": "5",
      "postcode": "3465-104",
      "city": "CAPARROSA",
      "lon": "-8.100140310459068",
      "lat": "40.61134195017105"
    },
    {
      "id": "pt.ine.add.PTCONT.5534008",
      "street": "R CAMPAS",
      "house": "",
      "postcode": "3465-104",
      "city": "CAPARROSA",
      "lon": "-8.100435630695596",
      "lat": "40.611531144212975"
    },
    {
      "id": "pt.ine.add.PTCONT.5560924",
      "street": "R PASSADICO",
      "house": "23",
      "postcode": "3465-104",
      "city": "CAPARROSA",
      "lon": "-8.10008108167664",
      "lat": "40.61163910629993"
    },
    {
      "id": "pt.ine.add.PTCONT.5564416",
      "street": "R CAMPAS",
      "house": "1",
      "postcode": "3465-104",
      "city": "CAPARROSA",
      "lon": "-8.100376723821972",
      "lat": "40.61117091776793"
    },
    {
      "id": "pt.ine.add.PTCONT.5568441",
      "street": "R PASSADIÇO",
      "house": "56 A",
      "postcode": "3465-104",
      "city": "CAPARROSA",
      "lon": "-8.100246367739908",
      "lat": "40.61193632647978"
    },
    {
      "id": "pt.ine.add.PTCONT.5583116",
      "street": "R QUINTA",
      "house": "43",
      "postcode": "3465-104",
      "city": "CAPARROSA",
      "lon": "-8.099797359357531",
      "lat": "40.611891171639655"
    },
    {
      "id": "pt.ine.add.PTCONT.5601640",
      "street": "R MOITA",
      "house": "103",
      "postcode": "3465-104",
      "city": "CAPARROSA",
      "lon": "-8.10096762035878",
      "lat": "40.61101799455182"
    },
    {
      "id": "pt.ine.add.PTCONT.5631593",
      "street": "R QUINTA",
      "house": "23",
      "postcode": "3465-104",
      "city": "CAPARROSA",
      "lon": "-8.099608271423316",
      "lat": "40.61193614316727"
    },
    {
      "id": "pt.ine.add.PTCONT.5631594",
      "street": "R CAMPAS",
      "house": "",
      "postcode": "3465-104",
      "city": "CAPARROSA",
      "lon": "-8.10031740819764",
      "lat": "40.61164817887909"
    },
    {
      "id": "pt.ine.add.PTCONT.5631595",
      "street": "R CAMPAS",
      "house": "68",
      "postcode": "3465-104",
      "city": "CAPARROSA",
      "lon": "-8.100293726644546",
      "lat": "40.61174722983324"
    },
    {
      "id": "pt.ine.add.PTCONT.5633534",
      "street": "R QUINTA",
      "house": "22",
      "postcode": "3465-104",
      "city": "CAPARROSA",
      "lon": "-8.099939332103988",
      "lat": "40.611540007998244"
    },
    {
      "id": "pt.ine.add.PTCONT.5652259",
      "street": "R CAPELA",
      "house": "95",
      "postcode": "3465-104",
      "city": "CAPARROSA",
      "lon": "-8.099383534207266",
      "lat": "40.6123773346668"
    },
    {
      "id": "pt.ine.add.PTCONT.5654630",
      "street": "R CARREIRA GASTA",
      "house": "39",
      "postcode": "3465-104",
      "city": "CAPARROSA",
      "lon": "-8.099785287774832",
      "lat": "40.612404467003316"
    },
    {
      "id": "pt.ine.add.PTCONT.5659752",
      "street": "R CARREIRA GASTA",
      "house": "38",
      "postcode": "3465-104",
      "city": "CAPARROSA",
      "lon": "-8.099891544256895",
      "lat": "40.61259360770014"
    },
    {
      "id": "pt.ine.add.PTCONT.5663609",
      "street": "R PASSADIÇO",
      "house": "56 B",
      "postcode": "3465-104",
      "city": "CAPARROSA",
      "lon": "-8.100269974486139",
      "lat": "40.611990364653124"
    },
    {
      "id": "pt.ine.add.PTCONT.5668727",
      "street": "LG VIRIATO XAVIER",
      "house": "6",
      "postcode": "3465-104",
      "city": "CAPARROSA",
      "lon": "-8.099608487291135",
      "lat": "40.611503891538256"
    }
  ]
}