{
  "data": {
    "distrito": "Viseu",
    "concelho": "Penedono",
    "freguesia": "União das freguesias de Penedono e Granja",
    "OBJECTID": 79,
    "BGRI2021": "18121100146",
    "DT21": "18",
    "DTMN21": "1812",
    "DTMNFR21": "181211",
    "DTMNFRSEC21": "181211001",
    "SECNUM21": "001",
    "SSNUM21": "46",
    "SECSSNUM21": "00146",
    "OBJECTID_1": 195170,
    "DT": "18",
    "CC": "12",
    "fr": "11",
    "SEC": "001",
    "SS": "46"
  },
  "addresses": [
    {
      "id": "pt.ine.add.PTCONT.5437375",
      "street": "R VALE",
      "house": "",
      "postcode": "3630-098",
      "city": "GRANJA PND",
      "lon": "-7.400776942026178",
      "lat": "41.012963293199384"
    },
    {
      "id": "pt.ine.add.PTCONT.5448436",
      "street": "R ALMINHAS",
      "house": "",
      "postcode": "3630-095",
      "city": "GRANJA PND",
      "lon": "-7.3996345928044205",
      "lat": "41.01306408360282"
    },
    {
      "id": "pt.ine.add.PTCONT.5457549",
      "street": "R ESTR DA PÓVOA",
      "house": "",
      "postcode": "3630-099",
      "city": "GRANJA PND",
      "lon": "-7.399752464363817",
      "lat": "41.01315487873852"
    },
    {
      "id": "pt.ine.add.PTCONT.5459350",
      "street": "R ESTR DA PÓVOA",
      "house": "",
      "postcode": "3630-099",
      "city": "GRANJA PND",
      "lon": "-7.399633194684293",
      "lat": "41.01319013786459"
    },
    {
      "id": "pt.ine.add.PTCONT.5467745",
      "street": "R ESTR DA PÓVOA",
      "house": "",
      "postcode": "3630-099",
      "city": "GRANJA PND",
      "lon": "-7.399930869521265",
      "lat": "41.01314700919772"
    },
    {
      "id": "pt.ine.add.PTCONT.5515719",
      "street": "R ALMINHAS",
      "house": "",
      "postcode": "3630-095",
      "city": "GRANJA PND",
      "lon": "-7.399491249550818",
      "lat": "41.01312620292073"
    },
    {
      "id": "pt.ine.add.PTCONT.5549815",
      "street": "R VALE",
      "house": "",
      "postcode": "3630-098",
      "city": "GRANJA PND",
      "lon": "-7.401268294348944",
      "lat": "41.012606233533525"
    },
    {
      "id": "pt.ine.add.PTCONT.5599959",
      "street": "R BARREIRINHA",
      "house": "",
      "postcode": "3630-100",
      "city": "GRANJA PND",
      "lon": "-7.399702120287048",
      "lat": "41.01340668472318"
    },
    {
      "id": "pt.ine.add.PTCONT.5605650",
      "street": "R VALE",
      "house": "",
      "postcode": "3630-098",
      "city": "GRANJA PND",
      "lon": "-7.401249432301432",
      "lat": "41.01323642961827"
    },
    {
      "id": "pt.ine.add.PTCONT.5647011",
      "street": "R VALE",
      "house": "",
      "postcode": "3630-098",
      "city": "GRANJA PND",
      "lon": "-7.401182594527823",
      "lat": "41.01283080217262"
    },
    {
      "id": "pt.ine.add.PTCONT.5656130",
      "street": "R ESTR DA PÓVOA",
      "house": "",
      "postcode": "3630-099",
      "city": "GRANJA PND",
      "lon": "-7.399890017226568",
      "lat": "41.01361498390298"
    },
    {
      "id": "pt.ine.add.PTCONT.5657072",
      "street": "R ESTR DA PÓVOA",
      "house": "",
      "postcode": "3630-099",
      "city": "GRANJA PND",
      "lon": "-7.399924081292186",
      "lat": "41.01375927276051"
    },
    {
      "id": "pt.ine.add.PTCONT.5659891",
      "street": "R VALE",
      "house": "",
      "postcode": "3630-098",
      "city": "GRANJA PND",
      "lon": "-7.400062225598004",
      "lat": "41.01309381760806"
    }
  ]
}