{
  "data": {
    "distrito": "Santarém",
    "concelho": "Abrantes",
    "freguesia": "União das freguesias de São Miguel do Rio Torto e Rossio ao Sul do Tejo",
    "OBJECTID": 716,
    "BGRI2021": "14012400106",
    "DT21": "14",
    "DTMN21": "1401",
    "DTMNFR21": "140124",
    "DTMNFRSEC21": "140124001",
    "SECNUM21": "001",
    "SSNUM21": "06",
    "SECSSNUM21": "00106",
    "OBJECTID_1": 147513,
    "DT": "14",
    "CC": "01",
    "fr": "24",
    "SEC": "001",
    "SS": "06"
  },
  "addresses": [
    {
      "id": "pt.ine.add.PTCONT.4403922",
      "street": "R TANGALHANAS",
      "house": "64",
      "postcode": "2205-569",
      "city": "SÃO MIGUEL DO RIO TORTO",
      "lon": "-8.210359095840616",
      "lat": "39.422245090496936"
    },
    {
      "id": "pt.ine.add.PTCONT.4410418",
      "street": "CANTO DOS FROIAS",
      "house": "1",
      "postcode": "2205-566",
      "city": "SÃO MIGUEL DO RIO TORTO",
      "lon": "-8.210572061161418",
      "lat": "39.42579374375538"
    },
    {
      "id": "pt.ine.add.PTCONT.4410419",
      "street": "R TANGALHANAS",
      "house": "32",
      "postcode": "2205-569",
      "city": "SÃO MIGUEL DO RIO TORTO",
      "lon": "-8.20957149774278",
      "lat": "39.42416412205911"
    },
    {
      "id": "pt.ine.add.PTCONT.4414019",
      "street": "R 7 BR NOVO",
      "house": "23",
      "postcode": "2205-560",
      "city": "SÃO MIGUEL DO RIO TORTO",
      "lon": "-8.21061652065537",
      "lat": "39.42399229569388"
    },
    {
      "id": "pt.ine.add.PTCONT.4415948",
      "street": "R CERÂMICA",
      "house": "61",
      "postcode": "2205-566",
      "city": "SÃO MIGUEL DO RIO TORTO",
      "lon": "-8.213532592144963",
      "lat": "39.42494506804727"
    },
    {
      "id": "pt.ine.add.PTCONT.4418474",
      "street": "R 7 BR NOVO",
      "house": "13",
      "postcode": "2205-560",
      "city": "SÃO MIGUEL DO RIO TORTO",
      "lon": "-8.210186962151772",
      "lat": "39.424118680418395"
    },
    {
      "id": "pt.ine.add.PTCONT.4420559",
      "street": "R 4 BR NOVO",
      "house": "27",
      "postcode": "2205-557",
      "city": "SÃO MIGUEL DO RIO TORTO",
      "lon": "-8.210362824845433",
      "lat": "39.42562274817107"
    },
    {
      "id": "pt.ine.add.PTCONT.4420565",
      "street": "R TANGALHANAS",
      "house": "58",
      "postcode": "2205-569",
      "city": "SÃO MIGUEL DO RIO TORTO",
      "lon": "-8.210359533344691",
      "lat": "39.422641402432596"
    },
    {
      "id": "pt.ine.add.PTCONT.4422614",
      "street": "R 7 BR NOVO",
      "house": "2",
      "postcode": "2205-560",
      "city": "SÃO MIGUEL DO RIO TORTO",
      "lon": "-8.211139155733816",
      "lat": "39.424018967577354"
    },
    {
      "id": "pt.ine.add.PTCONT.4436762",
      "street": "R 7 BR NOVO",
      "house": "4",
      "postcode": "2205-560",
      "city": "SÃO MIGUEL DO RIO TORTO",
      "lon": "-8.21120881631312",
      "lat": "39.42400090664265"
    },
    {
      "id": "pt.ine.add.PTCONT.4442574",
      "street": "R CERÂMICA",
      "house": "31",
      "postcode": "2205-566",
      "city": "SÃO MIGUEL DO RIO TORTO",
      "lon": "-8.211071452078356",
      "lat": "39.425793410134176"
    },
    {
      "id": "pt.ine.add.PTCONT.4445256",
      "street": "R CERAMICA",
      "house": "237",
      "postcode": "2205-566",
      "city": "SÃO MIGUEL DO RIO TORTO",
      "lon": "-8.213102971296166",
      "lat": "39.425017421010715"
    },
    {
      "id": "pt.ine.add.PTCONT.4446728",
      "street": "R CERÂMICA",
      "house": "27",
      "postcode": "2205-566",
      "city": "SÃO MIGUEL DO RIO TORTO",
      "lon": "-8.210850921077352",
      "lat": "39.425910649905184"
    },
    {
      "id": "pt.ine.add.PTCONT.4447322",
      "street": "R 7",
      "house": "19",
      "postcode": "2205-560",
      "city": "SÃO MIGUEL DO RIO TORTO",
      "lon": "-8.210395924922315",
      "lat": "39.42404648502569"
    },
    {
      "id": "pt.ine.add.PTCONT.4449398",
      "street": "CANTO DOS FROIAS",
      "house": "2",
      "postcode": "2205-566",
      "city": "SÃO MIGUEL DO RIO TORTO",
      "lon": "-8.210490774926232",
      "lat": "39.425802804947125"
    },
    {
      "id": "pt.ine.add.PTCONT.4449404",
      "street": "R TANGALHANAS",
      "house": "100",
      "postcode": "2205-569",
      "city": "SÃO MIGUEL DO RIO TORTO",
      "lon": "-8.210239648525995",
      "lat": "39.419236798791275"
    },
    {
      "id": "pt.ine.add.PTCONT.4450810",
      "street": "R ARNALDO FERREIRA LUIS LOPES",
      "house": "114",
      "postcode": "2205-461",
      "city": "SÃO MIGUEL DO RIO TORTO",
      "lon": "-8.211315118094964",
      "lat": "39.419298084741435"
    },
    {
      "id": "pt.ine.add.PTCONT.4453492",
      "street": "R 7 BR NOVO",
      "house": "29",
      "postcode": "2205-560",
      "city": "SÃO MIGUEL DO RIO TORTO",
      "lon": "-8.21077905887248",
      "lat": "39.42394715181545"
    },
    {
      "id": "pt.ine.add.PTCONT.4461857",
      "street": "R TANGALHANAS",
      "house": "96",
      "postcode": "2205-569",
      "city": "SÃO MIGUEL DO RIO TORTO",
      "lon": "-8.210182408569167",
      "lat": "39.41998442606632"
    },
    {
      "id": "pt.ine.add.PTCONT.4466387",
      "street": "R TANGALHANAS",
      "house": "44",
      "postcode": "2205-569",
      "city": "SÃO MIGUEL DO RIO TORTO",
      "lon": "-8.209698851582962",
      "lat": "39.423803754532194"
    },
    {
      "id": "pt.ine.add.PTCONT.4472369",
      "street": "R 4",
      "house": "",
      "postcode": "2205-557",
      "city": "SÃO MIGUEL DO RIO TORTO",
      "lon": "-8.210397735632943",
      "lat": "39.425685774618685"
    },
    {
      "id": "pt.ine.add.PTCONT.4472370",
      "street": "R TANGALHANAS",
      "house": "88",
      "postcode": "2205-569",
      "city": "SÃO MIGUEL DO RIO TORTO",
      "lon": "-8.210217435463303",
      "lat": "39.420155537749615"
    },
    {
      "id": "pt.ine.add.PTCONT.4478194",
      "street": "R 7 BR NOVO",
      "house": "15",
      "postcode": "2205-560",
      "city": "SÃO MIGUEL DO RIO TORTO",
      "lon": "-8.21027981026535",
      "lat": "39.424064576299976"
    },
    {
      "id": "pt.ine.add.PTCONT.4480501",
      "street": "R TANGALHANAS",
      "house": "90",
      "postcode": "2205-569",
      "city": "SÃO MIGUEL DO RIO TORTO",
      "lon": "-8.210216770551481",
      "lat": "39.41955206248526"
    },
    {
      "id": "pt.ine.add.PTCONT.4480510",
      "street": "R 7 BR NOVO",
      "house": "35",
      "postcode": "2205-560",
      "city": "SÃO MIGUEL DO RIO TORTO",
      "lon": "-8.211417555914913",
      "lat": "39.42373055349886"
    },
    {
      "id": "pt.ine.add.PTCONT.4480511",
      "street": "R 7 BR NOVO",
      "house": "27",
      "postcode": "2205-560",
      "city": "SÃO MIGUEL DO RIO TORTO",
      "lon": "-8.210709398235315",
      "lat": "39.42396521249303"
    },
    {
      "id": "pt.ine.add.PTCONT.4491535",
      "street": "R TANGALHANAS",
      "house": "86",
      "postcode": "2205-569",
      "city": "SÃO MIGUEL DO RIO TORTO",
      "lon": "-8.210171142928555",
      "lat": "39.42029968201671"
    },
    {
      "id": "pt.ine.add.PTCONT.4505767",
      "street": "R 7 BR NOVO",
      "house": "33",
      "postcode": "2205-560",
      "city": "SÃO MIGUEL DO RIO TORTO",
      "lon": "-8.21117370466633",
      "lat": "39.42375773867824"
    },
    {
      "id": "pt.ine.add.PTCONT.4507804",
      "street": "R 4 BR NOVO",
      "house": "25",
      "postcode": "2205-557",
      "city": "SÃO MIGUEL DO RIO TORTO",
      "lon": "-8.210327884299915",
      "lat": "39.42553270045836"
    },
    {
      "id": "pt.ine.add.PTCONT.4509217",
      "street": "R CERÂMICA",
      "house": "65",
      "postcode": "2205-566",
      "city": "SÃO MIGUEL DO RIO TORTO",
      "lon": "-8.21384608661015",
      "lat": "39.424881801244204"
    },
    {
      "id": "pt.ine.add.PTCONT.4510651",
      "street": "R TANGALHANAS",
      "house": "78",
      "postcode": "2205-569",
      "city": "SÃO MIGUEL DO RIO TORTO",
      "lon": "-8.21013698850038",
      "lat": "39.42092119446131"
    },
    {
      "id": "pt.ine.add.PTCONT.4518004",
      "street": "R TANGALHANAS",
      "house": "60",
      "postcode": "2205-569",
      "city": "SÃO MIGUEL DO RIO TORTO",
      "lon": "-8.210359394137912",
      "lat": "39.422515303183275"
    },
    {
      "id": "pt.ine.add.PTCONT.4525770",
      "street": "R 4 BR NOVO",
      "house": "21",
      "postcode": "2205-557",
      "city": "SÃO MIGUEL DO RIO TORTO",
      "lon": "-8.210234795997305",
      "lat": "39.425370634569134"
    },
    {
      "id": "pt.ine.add.PTCONT.4528215",
      "street": "R TANGALHANAS",
      "house": "62",
      "postcode": "2205-569",
      "city": "SÃO MIGUEL DO RIO TORTO",
      "lon": "-8.21035923504552",
      "lat": "39.422371189752155"
    },
    {
      "id": "pt.ine.add.PTCONT.4538474",
      "street": "R TANGALHANAS",
      "house": "34",
      "postcode": "2205-569",
      "city": "SÃO MIGUEL DO RIO TORTO",
      "lon": "-8.209571409160704",
      "lat": "39.424083058276096"
    },
    {
      "id": "pt.ine.add.PTCONT.4544232",
      "street": "R CERAMICA",
      "house": "28",
      "postcode": "2205-566",
      "city": "SÃO MIGUEL DO RIO TORTO",
      "lon": "-8.210990206011525",
      "lat": "39.42583850001107"
    },
    {
      "id": "pt.ine.add.PTCONT.4550651",
      "street": "R TANGALHANAS",
      "house": "72",
      "postcode": "2205-569",
      "city": "SÃO MIGUEL DO RIO TORTO",
      "lon": "-8.210218953918968",
      "lat": "39.42153362281932"
    },
    {
      "id": "pt.ine.add.PTCONT.4550652",
      "street": "R TANGALHANAS",
      "house": "76",
      "postcode": "2205-569",
      "city": "SÃO MIGUEL DO RIO TORTO",
      "lon": "-8.210230209607506",
      "lat": "39.42120935984001"
    },
    {
      "id": "pt.ine.add.PTCONT.4552796",
      "street": "R TANGALHANAS",
      "house": "68",
      "postcode": "2205-569",
      "city": "SÃO MIGUEL DO RIO TORTO",
      "lon": "-8.210300652519864",
      "lat": "39.421902859620566"
    },
    {
      "id": "pt.ine.add.PTCONT.4559073",
      "street": "R TANGALHANAS",
      "house": "50",
      "postcode": "2205-569",
      "city": "SÃO MIGUEL DO RIO TORTO",
      "lon": "-8.20980308600172",
      "lat": "39.42354248012743"
    },
    {
      "id": "pt.ine.add.PTCONT.4564957",
      "street": "R CERÂMICA",
      "house": "53",
      "postcode": "2205-566",
      "city": "SÃO MIGUEL DO RIO TORTO",
      "lon": "-8.212859177820457",
      "lat": "39.425098652229934"
    },
    {
      "id": "pt.ine.add.PTCONT.4567561",
      "street": "R TANGALHANAS",
      "house": "",
      "postcode": "2205-569",
      "city": "SÃO MIGUEL DO RIO TORTO",
      "lon": "-8.209594586851015",
      "lat": "39.42403800757124"
    },
    {
      "id": "pt.ine.add.PTCONT.4573785",
      "street": "R TANGALHANAS",
      "house": "48",
      "postcode": "2205-569",
      "city": "SÃO MIGUEL DO RIO TORTO",
      "lon": "-8.209756711454874",
      "lat": "39.423614567446904"
    },
    {
      "id": "pt.ine.add.PTCONT.4573786",
      "street": "R TANGALHANAS",
      "house": "82",
      "postcode": "2205-569",
      "city": "SÃO MIGUEL DO RIO TORTO",
      "lon": "-8.210125107927256",
      "lat": "39.4206780106649"
    },
    {
      "id": "pt.ine.add.PTCONT.4579385",
      "street": "R CERÂMICA",
      "house": "47",
      "postcode": "2205-566",
      "city": "SÃO MIGUEL DO RIO TORTO",
      "lon": "-8.21245283367399",
      "lat": "39.42521602228926"
    },
    {
      "id": "pt.ine.add.PTCONT.4585605",
      "street": "R CERÂMICA",
      "house": "33",
      "postcode": "2205-566",
      "city": "SÃO MIGUEL DO RIO TORTO",
      "lon": "-8.211233943897739",
      "lat": "39.42570323020942"
    },
    {
      "id": "pt.ine.add.PTCONT.4586191",
      "street": "R 7 BR NOVO",
      "house": "3",
      "postcode": "2205-560",
      "city": "SÃO MIGUEL DO RIO TORTO",
      "lon": "-8.209966365686446",
      "lat": "39.424172868935166"
    },
    {
      "id": "pt.ine.add.PTCONT.4588307",
      "street": "CANTO DOS FROIAS",
      "house": "4",
      "postcode": "2205-566",
      "city": "SÃO MIGUEL DO RIO TORTO",
      "lon": "-8.210595168948414",
      "lat": "39.42568564327433"
    },
    {
      "id": "pt.ine.add.PTCONT.4590433",
      "street": "R TANGALHANAS",
      "house": "84",
      "postcode": "2205-569",
      "city": "SÃO MIGUEL DO RIO TORTO",
      "lon": "-8.210136502713743",
      "lat": "39.42047984694349"
    },
    {
      "id": "pt.ine.add.PTCONT.4594576",
      "street": "R 6 BR NOVO",
      "house": "6",
      "postcode": "2205-559",
      "city": "SÃO MIGUEL DO RIO TORTO",
      "lon": "-8.21024617135621",
      "lat": "39.425154456826384"
    },
    {
      "id": "pt.ine.add.PTCONT.4600191",
      "street": "R CERÂMICA",
      "house": "35",
      "postcode": "2205-566",
      "city": "SÃO MIGUEL DO RIO TORTO",
      "lon": "-8.21136157401485",
      "lat": "39.42559505933077"
    },
    {
      "id": "pt.ine.add.PTCONT.4604291",
      "street": "R SEBASTIÃO LINO DE ALMEIDA",
      "house": "283",
      "postcode": "2205-554",
      "city": "SÃO MIGUEL DO RIO TORTO",
      "lon": "-8.212024532299795",
      "lat": "39.41950052483245"
    },
    {
      "id": "pt.ine.add.PTCONT.4617729",
      "street": "R TANGALHANAS",
      "house": "52",
      "postcode": "2205-569",
      "city": "SÃO MIGUEL DO RIO TORTO",
      "lon": "-8.209930674843879",
      "lat": "39.42339828242794"
    },
    {
      "id": "pt.ine.add.PTCONT.4623725",
      "street": "R TANGALHANAS",
      "house": "54",
      "postcode": "2205-569",
      "city": "SÃO MIGUEL DO RIO TORTO",
      "lon": "-8.21009301393989",
      "lat": "39.4231729977395"
    },
    {
      "id": "pt.ine.add.PTCONT.4625375",
      "street": "R TANGALHANAS",
      "house": "",
      "postcode": "2205-569",
      "city": "SÃO MIGUEL DO RIO TORTO",
      "lon": "-8.209617734966436",
      "lat": "39.42396593559979"
    },
    {
      "id": "pt.ine.add.PTCONT.4627247",
      "street": "R CERÂMICA",
      "house": "63",
      "postcode": "2205-566",
      "city": "SÃO MIGUEL DO RIO TORTO",
      "lon": "-8.213718347495641",
      "lat": "39.42489089692356"
    },
    {
      "id": "pt.ine.add.PTCONT.4633271",
      "street": "R 7 BR NOVO",
      "house": "9",
      "postcode": "2205-560",
      "city": "SÃO MIGUEL DO RIO TORTO",
      "lon": "-8.2100592536637",
      "lat": "39.42415479334063"
    },
    {
      "id": "pt.ine.add.PTCONT.4636109",
      "street": "R TANGALHANAS",
      "house": "80",
      "postcode": "2205-569",
      "city": "SÃO MIGUEL DO RIO TORTO",
      "lon": "-8.21011361396627",
      "lat": "39.420786103458425"
    },
    {
      "id": "pt.ine.add.PTCONT.4641621",
      "street": "R CERÂMICA",
      "house": "37",
      "postcode": "2205-566",
      "city": "SÃO MIGUEL DO RIO TORTO",
      "lon": "-8.21152410537663",
      "lat": "39.42554090733617"
    },
    {
      "id": "pt.ine.add.PTCONT.4652562",
      "street": "CANTO DOS FROIAS",
      "house": "5",
      "postcode": "2205-566",
      "city": "SÃO MIGUEL DO RIO TORTO",
      "lon": "-8.210513902770462",
      "lat": "39.425712718650956"
    },
    {
      "id": "pt.ine.add.PTCONT.4654000",
      "street": "R CERÂMICA",
      "house": "51",
      "postcode": "2205-566",
      "city": "SÃO MIGUEL DO RIO TORTO",
      "lon": "-8.211733000160292",
      "lat": "39.42540565996485"
    },
    {
      "id": "pt.ine.add.PTCONT.4657942",
      "street": "R 4 BR NOVO",
      "house": "25",
      "postcode": "2205-557",
      "city": "SÃO MIGUEL DO RIO TORTO",
      "lon": "-8.210327884299915",
      "lat": "39.42553270045836"
    },
    {
      "id": "pt.ine.add.PTCONT.4659825",
      "street": "R TANGALHANAS",
      "house": "",
      "postcode": "2205-569",
      "city": "SÃO MIGUEL DO RIO TORTO",
      "lon": "-8.209745137532531",
      "lat": "39.4236506034492"
    }
  ]
}