{
  "data": {
    "distrito": "Lisboa",
    "concelho": "Lisboa",
    "freguesia": "Santa Maria Maior",
    "OBJECTID": 2148,
    "BGRI2021": "11066501208",
    "DT21": "11",
    "DTMN21": "1106",
    "DTMNFR21": "110665",
    "DTMNFRSEC21": "110665012",
    "SECNUM21": "012",
    "SSNUM21": "08",
    "SECSSNUM21": "01208",
    "OBJECTID_1": 102476,
    "DT": "11",
    "CC": "06",
    "fr": "65",
    "SEC": "012",
    "SS": "08"
  },
  "addresses": [
    {
      "id": "pt.ine.add.PTCONT.2279706",
      "street": "R S PEDRO MARTIR",
      "house": "40",
      "postcode": "1100-558",
      "city": "LISBOA",
      "lon": "-9.135830378662543",
      "lat": "38.71464515364987"
    },
    {
      "id": "pt.ine.add.PTCONT.2279707",
      "street": "R S PEDRO MARTIR",
      "house": "40",
      "postcode": "1100-558",
      "city": "LISBOA",
      "lon": "-9.135830378662543",
      "lat": "38.71464515364987"
    },
    {
      "id": "pt.ine.add.PTCONT.2279708",
      "street": "R S PEDRO MARTIR",
      "house": "40",
      "postcode": "1100-558",
      "city": "LISBOA",
      "lon": "-9.135830378662543",
      "lat": "38.71464515364987"
    },
    {
      "id": "pt.ine.add.PTCONT.2313329",
      "street": "R FONTAÍNHAS",
      "house": "15",
      "postcode": "1100-246",
      "city": "LISBOA",
      "lon": "-9.135616483761199",
      "lat": "38.7149712719896"
    },
    {
      "id": "pt.ine.add.PTCONT.2313330",
      "street": "R FONTAÍNHAS",
      "house": "15",
      "postcode": "1100-246",
      "city": "LISBOA",
      "lon": "-9.135616483761199",
      "lat": "38.7149712719896"
    },
    {
      "id": "pt.ine.add.PTCONT.2313331",
      "street": "R FONTAÍNHAS",
      "house": "15",
      "postcode": "1100-246",
      "city": "LISBOA",
      "lon": "-9.135616483761199",
      "lat": "38.7149712719896"
    },
    {
      "id": "pt.ine.add.PTCONT.2313332",
      "street": "R FONTAÍNHAS",
      "house": "15",
      "postcode": "1100-246",
      "city": "LISBOA",
      "lon": "-9.135616483761199",
      "lat": "38.7149712719896"
    },
    {
      "id": "pt.ine.add.PTCONT.2313333",
      "street": "R FONTAÍNHAS",
      "house": "15",
      "postcode": "1100-246",
      "city": "LISBOA",
      "lon": "-9.135616483761199",
      "lat": "38.7149712719896"
    },
    {
      "id": "pt.ine.add.PTCONT.2313334",
      "street": "R FONTAÍNHAS",
      "house": "15",
      "postcode": "1100-246",
      "city": "LISBOA",
      "lon": "-9.135616483761199",
      "lat": "38.7149712719896"
    },
    {
      "id": "pt.ine.add.PTCONT.2327941",
      "street": "CC S LOURENÇO",
      "house": "7",
      "postcode": "1100-528",
      "city": "LISBOA",
      "lon": "-9.135894068960562",
      "lat": "38.71426627597911"
    },
    {
      "id": "pt.ine.add.PTCONT.2327942",
      "street": "CC S LOURENÇO",
      "house": "7",
      "postcode": "1100-528",
      "city": "LISBOA",
      "lon": "-9.135894068960562",
      "lat": "38.71426627597911"
    },
    {
      "id": "pt.ine.add.PTCONT.2327943",
      "street": "CC S LOURENÇO",
      "house": "7",
      "postcode": "1100-528",
      "city": "LISBOA",
      "lon": "-9.135894068960562",
      "lat": "38.71426627597911"
    },
    {
      "id": "pt.ine.add.PTCONT.2329384",
      "street": "CC S LOURENÇO",
      "house": "7",
      "postcode": "1100-528",
      "city": "LISBOA",
      "lon": "-9.135894068960562",
      "lat": "38.71426627597911"
    },
    {
      "id": "pt.ine.add.PTCONT.2333681",
      "street": "R S PEDRO MARTIR",
      "house": "10",
      "postcode": "1100-558",
      "city": "LISBOA",
      "lon": "-9.1360086509477",
      "lat": "38.71423826947094"
    },
    {
      "id": "pt.ine.add.PTCONT.2333682",
      "street": "R S PEDRO MARTIR",
      "house": "10",
      "postcode": "1100-558",
      "city": "LISBOA",
      "lon": "-9.1360086509477",
      "lat": "38.71423826947094"
    },
    {
      "id": "pt.ine.add.PTCONT.2333683",
      "street": "R S PEDRO MARTIR",
      "house": "10",
      "postcode": "1100-558",
      "city": "LISBOA",
      "lon": "-9.1360086509477",
      "lat": "38.71423826947094"
    },
    {
      "id": "pt.ine.add.PTCONT.2333684",
      "street": "R S PEDRO MARTIR",
      "house": "10",
      "postcode": "1100-558",
      "city": "LISBOA",
      "lon": "-9.1360086509477",
      "lat": "38.71423826947094"
    },
    {
      "id": "pt.ine.add.PTCONT.2333685",
      "street": "R S PEDRO MARTIR",
      "house": "10",
      "postcode": "1100-558",
      "city": "LISBOA",
      "lon": "-9.1360086509477",
      "lat": "38.71423826947094"
    },
    {
      "id": "pt.ine.add.PTCONT.2333686",
      "street": "R S PEDRO MARTIR",
      "house": "10",
      "postcode": "1100-558",
      "city": "LISBOA",
      "lon": "-9.1360086509477",
      "lat": "38.71423826947094"
    },
    {
      "id": "pt.ine.add.PTCONT.2343155",
      "street": "R S PEDRO MARTIR",
      "house": "56",
      "postcode": "1100-558",
      "city": "LISBOA",
      "lon": "-9.135775289498431",
      "lat": "38.71481677602945"
    },
    {
      "id": "pt.ine.add.PTCONT.2360766",
      "street": "R S PEDRO MARTIR",
      "house": "38",
      "postcode": "1100-558",
      "city": "LISBOA",
      "lon": "-9.13585248976546",
      "lat": "38.71458190877707"
    },
    {
      "id": "pt.ine.add.PTCONT.2360767",
      "street": "R S PEDRO MARTIR",
      "house": "38",
      "postcode": "1100-558",
      "city": "LISBOA",
      "lon": "-9.13585248976546",
      "lat": "38.71458190877707"
    },
    {
      "id": "pt.ine.add.PTCONT.2360768",
      "street": "R S PEDRO MARTIR",
      "house": "38",
      "postcode": "1100-558",
      "city": "LISBOA",
      "lon": "-9.13585248976546",
      "lat": "38.71458190877707"
    },
    {
      "id": "pt.ine.add.PTCONT.2414001",
      "street": "R FONTAÍNHAS",
      "house": "5",
      "postcode": "1100-246",
      "city": "LISBOA",
      "lon": "-9.13570593572164",
      "lat": "38.71479034712314"
    },
    {
      "id": "pt.ine.add.PTCONT.2414002",
      "street": "R FONTAÍNHAS",
      "house": "5",
      "postcode": "1100-246",
      "city": "LISBOA",
      "lon": "-9.13570593572164",
      "lat": "38.71479034712314"
    },
    {
      "id": "pt.ine.add.PTCONT.2414003",
      "street": "R FONTAÍNHAS",
      "house": "5",
      "postcode": "1100-246",
      "city": "LISBOA",
      "lon": "-9.13570593572164",
      "lat": "38.71479034712314"
    },
    {
      "id": "pt.ine.add.PTCONT.2439615",
      "street": "R S PEDRO MARTIR",
      "house": "62",
      "postcode": "1100-558",
      "city": "LISBOA",
      "lon": "-9.13576480015507",
      "lat": "38.71488892910819"
    },
    {
      "id": "pt.ine.add.PTCONT.2443118",
      "street": "R S PEDRO MARTIR",
      "house": "78",
      "postcode": "1100-558",
      "city": "LISBOA",
      "lon": "-9.135605994238658",
      "lat": "38.71504342505461"
    },
    {
      "id": "pt.ine.add.PTCONT.2515817",
      "street": "CC S LOURENCO",
      "house": "17",
      "postcode": "1100-528",
      "city": "LISBOA",
      "lon": "-9.135792241236691",
      "lat": "38.714384251902096"
    },
    {
      "id": "pt.ine.add.PTCONT.2515818",
      "street": "CC S LOURENCO",
      "house": "15",
      "postcode": "1100-528",
      "city": "LISBOA",
      "lon": "-9.135792241236691",
      "lat": "38.714384251902096"
    },
    {
      "id": "pt.ine.add.PTCONT.2515819",
      "street": "CC S LOURENCO",
      "house": "17",
      "postcode": "1100-528",
      "city": "LISBOA",
      "lon": "-9.135792241236691",
      "lat": "38.714384251902096"
    },
    {
      "id": "pt.ine.add.PTCONT.2531566",
      "street": "R FONTAÍNHAS",
      "house": "17",
      "postcode": "1100-246",
      "city": "LISBOA",
      "lon": "-9.135559632461634",
      "lat": "38.71501679891222"
    },
    {
      "id": "pt.ine.add.PTCONT.2659575",
      "street": "R S PEDRO MARTIR",
      "house": "66",
      "postcode": "1100-558",
      "city": "LISBOA",
      "lon": "-9.135753933280713",
      "lat": "38.714934061752714"
    },
    {
      "id": "pt.ine.add.PTCONT.2663948",
      "street": "R S PEDRO MARTIR",
      "house": "66",
      "postcode": "1100-558",
      "city": "LISBOA",
      "lon": "-9.135753933280713",
      "lat": "38.714934061752714"
    },
    {
      "id": "pt.ine.add.PTCONT.2676611",
      "street": "R S PEDRO MARTIR",
      "house": "18",
      "postcode": "1100-558",
      "city": "LISBOA",
      "lon": "-9.135940807940846",
      "lat": "38.71431992243117"
    },
    {
      "id": "pt.ine.add.PTCONT.2676612",
      "street": "R S PEDRO MARTIR",
      "house": "18",
      "postcode": "1100-558",
      "city": "LISBOA",
      "lon": "-9.135940807940846",
      "lat": "38.71431992243117"
    },
    {
      "id": "pt.ine.add.PTCONT.2676613",
      "street": "R S PEDRO MARTIR",
      "house": "18",
      "postcode": "1100-558",
      "city": "LISBOA",
      "lon": "-9.135940807940846",
      "lat": "38.71431992243117"
    },
    {
      "id": "pt.ine.add.PTCONT.2712173",
      "street": "R S LOURENÇO",
      "house": "11",
      "postcode": "1100-530",
      "city": "LISBOA",
      "lon": "-9.135746556642442",
      "lat": "38.7142828752444"
    },
    {
      "id": "pt.ine.add.PTCONT.2712174",
      "street": "R S LOURENÇO",
      "house": "11",
      "postcode": "1100-530",
      "city": "LISBOA",
      "lon": "-9.135746556642442",
      "lat": "38.7142828752444"
    },
    {
      "id": "pt.ine.add.PTCONT.2852972",
      "street": "R FONTAÍNHAS",
      "house": "15",
      "postcode": "1100-246",
      "city": "LISBOA",
      "lon": "-9.13574940318261",
      "lat": "38.714609816551004"
    },
    {
      "id": "pt.ine.add.PTCONT.2852973",
      "street": "R FONTAÍNHAS",
      "house": "15",
      "postcode": "1100-246",
      "city": "LISBOA",
      "lon": "-9.13574940318261",
      "lat": "38.714609816551004"
    },
    {
      "id": "pt.ine.add.PTCONT.2901623",
      "street": "R S LOURENÇO",
      "house": "9",
      "postcode": "1100-530",
      "city": "LISBOA",
      "lon": "-9.135752037833889",
      "lat": "38.7142188794181"
    },
    {
      "id": "pt.ine.add.PTCONT.2901624",
      "street": "R S LOURENÇO",
      "house": "9",
      "postcode": "1100-530",
      "city": "LISBOA",
      "lon": "-9.135752037833889",
      "lat": "38.7142188794181"
    },
    {
      "id": "pt.ine.add.PTCONT.2901625",
      "street": "R S LOURENÇO",
      "house": "9",
      "postcode": "1100-530",
      "city": "LISBOA",
      "lon": "-9.135752037833889",
      "lat": "38.7142188794181"
    },
    {
      "id": "pt.ine.add.PTCONT.2901626",
      "street": "R S LOURENÇO",
      "house": "9",
      "postcode": "1100-530",
      "city": "LISBOA",
      "lon": "-9.135752037833889",
      "lat": "38.7142188794181"
    },
    {
      "id": "pt.ine.add.PTCONT.2901627",
      "street": "R S LOURENÇO",
      "house": "9",
      "postcode": "1100-530",
      "city": "LISBOA",
      "lon": "-9.135752037833889",
      "lat": "38.7142188794181"
    },
    {
      "id": "pt.ine.add.PTCONT.2907894",
      "street": "R S LOURENÇO",
      "house": "9",
      "postcode": "1100-530",
      "city": "LISBOA",
      "lon": "-9.135752037833889",
      "lat": "38.7142188794181"
    },
    {
      "id": "pt.ine.add.PTCONT.2946919",
      "street": "LG TRIGUEIROS",
      "house": "13",
      "postcode": "1100-611",
      "city": "LISBOA",
      "lon": "-9.135763964196112",
      "lat": "38.71400616297958"
    },
    {
      "id": "pt.ine.add.PTCONT.2946920",
      "street": "LG TRIGUEIROS",
      "house": "13",
      "postcode": "1100-611",
      "city": "LISBOA",
      "lon": "-9.135763964196112",
      "lat": "38.71400616297958"
    },
    {
      "id": "pt.ine.add.PTCONT.2946921",
      "street": "LG TRIGUEIROS",
      "house": "13",
      "postcode": "1100-611",
      "city": "LISBOA",
      "lon": "-9.135763964196112",
      "lat": "38.71400616297958"
    },
    {
      "id": "pt.ine.add.PTCONT.3076102",
      "street": "R S PEDRO MARTIR",
      "house": "26",
      "postcode": "1100-558",
      "city": "LISBOA",
      "lon": "-9.135908081992547",
      "lat": "38.71444631360422"
    },
    {
      "id": "pt.ine.add.PTCONT.3076103",
      "street": "R S PEDRO MARTIR",
      "house": "26",
      "postcode": "1100-558",
      "city": "LISBOA",
      "lon": "-9.135908081992547",
      "lat": "38.71444631360422"
    },
    {
      "id": "pt.ine.add.PTCONT.3076104",
      "street": "R S PEDRO MARTIR",
      "house": "26",
      "postcode": "1100-558",
      "city": "LISBOA",
      "lon": "-9.135908081992547",
      "lat": "38.71444631360422"
    },
    {
      "id": "pt.ine.add.PTCONT.3076105",
      "street": "R S PEDRO MARTIR",
      "house": "26",
      "postcode": "1100-558",
      "city": "LISBOA",
      "lon": "-9.135908081992547",
      "lat": "38.71444631360422"
    },
    {
      "id": "pt.ine.add.PTCONT.3076106",
      "street": "R S PEDRO MARTIR",
      "house": "26",
      "postcode": "1100-558",
      "city": "LISBOA",
      "lon": "-9.135908081992547",
      "lat": "38.71444631360422"
    },
    {
      "id": "pt.ine.add.PTCONT.3076107",
      "street": "R S PEDRO MARTIR",
      "house": "26",
      "postcode": "1100-558",
      "city": "LISBOA",
      "lon": "-9.135908081992547",
      "lat": "38.71444631360422"
    },
    {
      "id": "pt.ine.add.PTCONT.3076108",
      "street": "R S PEDRO MARTIR",
      "house": "26",
      "postcode": "1100-558",
      "city": "LISBOA",
      "lon": "-9.135908081992547",
      "lat": "38.71444631360422"
    },
    {
      "id": "pt.ine.add.PTCONT.3076109",
      "street": "R S PEDRO MARTIR",
      "house": "26",
      "postcode": "1100-558",
      "city": "LISBOA",
      "lon": "-9.135908081992547",
      "lat": "38.71444631360422"
    },
    {
      "id": "pt.ine.add.PTCONT.3076110",
      "street": "R S PEDRO MARTIR",
      "house": "26",
      "postcode": "1100-558",
      "city": "LISBOA",
      "lon": "-9.135908081992547",
      "lat": "38.71444631360422"
    },
    {
      "id": "pt.ine.add.PTCONT.3076111",
      "street": "R S PEDRO MARTIR",
      "house": "26",
      "postcode": "1100-558",
      "city": "LISBOA",
      "lon": "-9.135908081992547",
      "lat": "38.71444631360422"
    },
    {
      "id": "pt.ine.add.PTCONT.3076112",
      "street": "R S PEDRO MARTIR",
      "house": "26",
      "postcode": "1100-558",
      "city": "LISBOA",
      "lon": "-9.135908081992547",
      "lat": "38.71444631360422"
    },
    {
      "id": "pt.ine.add.PTCONT.3076113",
      "street": "R S PEDRO MARTIR",
      "house": "26",
      "postcode": "1100-558",
      "city": "LISBOA",
      "lon": "-9.135908081992547",
      "lat": "38.71444631360422"
    },
    {
      "id": "pt.ine.add.PTCONT.3081028",
      "street": "R S PEDRO MARTIR",
      "house": "26",
      "postcode": "1100-558",
      "city": "LISBOA",
      "lon": "-9.135908081992547",
      "lat": "38.71444631360422"
    },
    {
      "id": "pt.ine.add.PTCONT.3085978",
      "street": "R S PEDRO MARTIR",
      "house": "52",
      "postcode": "1100-558",
      "city": "LISBOA",
      "lon": "-9.135797400699706",
      "lat": "38.714753531167545"
    },
    {
      "id": "pt.ine.add.PTCONT.3085979",
      "street": "R S PEDRO MARTIR",
      "house": "52",
      "postcode": "1100-558",
      "city": "LISBOA",
      "lon": "-9.135797400699706",
      "lat": "38.714753531167545"
    },
    {
      "id": "pt.ine.add.PTCONT.3085980",
      "street": "R S PEDRO MARTIR",
      "house": "52",
      "postcode": "1100-558",
      "city": "LISBOA",
      "lon": "-9.135797400699706",
      "lat": "38.714753531167545"
    },
    {
      "id": "pt.ine.add.PTCONT.3085981",
      "street": "R S PEDRO MARTIR",
      "house": "52",
      "postcode": "1100-558",
      "city": "LISBOA",
      "lon": "-9.135797400699706",
      "lat": "38.714753531167545"
    },
    {
      "id": "pt.ine.add.PTCONT.3085982",
      "street": "R S PEDRO MARTIR",
      "house": "52",
      "postcode": "1100-558",
      "city": "LISBOA",
      "lon": "-9.135797400699706",
      "lat": "38.714753531167545"
    },
    {
      "id": "pt.ine.add.PTCONT.3178013",
      "street": "CC S LOURENÇO",
      "house": "8",
      "postcode": "1100-529",
      "city": "LISBOA",
      "lon": "-9.135903551276956",
      "lat": "38.71412206839071"
    },
    {
      "id": "pt.ine.add.PTCONT.3178014",
      "street": "CC S LOURENÇO",
      "house": "8",
      "postcode": "1100-529",
      "city": "LISBOA",
      "lon": "-9.135903551276956",
      "lat": "38.71412206839071"
    },
    {
      "id": "pt.ine.add.PTCONT.3203625",
      "street": "R FONTAÍNHAS",
      "house": "13",
      "postcode": "1100-246",
      "city": "LISBOA",
      "lon": "-9.13567270585476",
      "lat": "38.71488071098409"
    },
    {
      "id": "pt.ine.add.PTCONT.3215032",
      "street": "R FONTAINHAS",
      "house": "23",
      "postcode": "1100-246",
      "city": "LISBOA",
      "lon": "-9.135502906896113",
      "lat": "38.71507133261919"
    },
    {
      "id": "pt.ine.add.PTCONT.3215033",
      "street": "R FONTAINHAS",
      "house": "21",
      "postcode": "1100-246",
      "city": "LISBOA",
      "lon": "-9.135502906896113",
      "lat": "38.71507133261919"
    },
    {
      "id": "pt.ine.add.PTCONT.3215034",
      "street": "R FONTAINHAS",
      "house": "19",
      "postcode": "1100-246",
      "city": "LISBOA",
      "lon": "-9.135502906896113",
      "lat": "38.71507133261919"
    },
    {
      "id": "pt.ine.add.PTCONT.3215035",
      "street": "R FONTAINHAS",
      "house": "19",
      "postcode": "1100-246",
      "city": "LISBOA",
      "lon": "-9.135502906896113",
      "lat": "38.71507133261919"
    },
    {
      "id": "pt.ine.add.PTCONT.3215036",
      "street": "R FONTAINHAS",
      "house": "19",
      "postcode": "1100-246",
      "city": "LISBOA",
      "lon": "-9.135502906896113",
      "lat": "38.71507133261919"
    },
    {
      "id": "pt.ine.add.PTCONT.3219458",
      "street": "R FONTAINHAS",
      "house": "19",
      "postcode": "1100-246",
      "city": "LISBOA",
      "lon": "-9.135502906896113",
      "lat": "38.71507133261919"
    },
    {
      "id": "pt.ine.add.PTCONT.3219537",
      "street": "R FONTAINHAS",
      "house": "3",
      "postcode": "1100-246",
      "city": "LISBOA",
      "lon": "-9.135502906896113",
      "lat": "38.71507133261919"
    },
    {
      "id": "pt.ine.add.PTCONT.3243128",
      "street": "BC SURRADORES",
      "house": "32",
      "postcode": "1100-591",
      "city": "LISBOA",
      "lon": "-9.135811206268126",
      "lat": "38.71409583673783"
    },
    {
      "id": "pt.ine.add.PTCONT.3243129",
      "street": "BC SURRADORES",
      "house": "32",
      "postcode": "1100-591",
      "city": "LISBOA",
      "lon": "-9.135811206268126",
      "lat": "38.71409583673783"
    },
    {
      "id": "pt.ine.add.PTCONT.3243130",
      "street": "R S PEDRO MARTIR",
      "house": "70",
      "postcode": "1100-558",
      "city": "LISBOA",
      "lon": "-9.135708829835767",
      "lat": "38.714997503778235"
    },
    {
      "id": "pt.ine.add.PTCONT.3243131",
      "street": "R S PEDRO MARTIR",
      "house": "70",
      "postcode": "1100-558",
      "city": "LISBOA",
      "lon": "-9.135708829835767",
      "lat": "38.714997503778235"
    },
    {
      "id": "pt.ine.add.PTCONT.3251670",
      "street": "CC S LOURENÇO",
      "house": "14",
      "postcode": "1100-529",
      "city": "LISBOA",
      "lon": "-9.135801346248714",
      "lat": "38.714213023886266"
    },
    {
      "id": "pt.ine.add.PTCONT.3251671",
      "street": "CC S LOURENÇO",
      "house": "14",
      "postcode": "1100-529",
      "city": "LISBOA",
      "lon": "-9.135801346248714",
      "lat": "38.714213023886266"
    },
    {
      "id": "pt.ine.add.PTCONT.3251672",
      "street": "CC S LOURENÇO",
      "house": "14",
      "postcode": "1100-529",
      "city": "LISBOA",
      "lon": "-9.135801346248714",
      "lat": "38.714213023886266"
    },
    {
      "id": "pt.ine.add.PTCONT.3251699",
      "street": "R S PEDRO MARTIR",
      "house": "24",
      "postcode": "1100-558",
      "city": "LISBOA",
      "lon": "-9.135930067112533",
      "lat": "38.71437406190506"
    },
    {
      "id": "pt.ine.add.PTCONT.3263192",
      "street": "CC S LOURENÇO",
      "house": "3",
      "postcode": "1100-528",
      "city": "LISBOA",
      "lon": "-9.135904683949015",
      "lat": "38.714203129695804"
    },
    {
      "id": "pt.ine.add.PTCONT.3263193",
      "street": "CC S LOURENÇO",
      "house": "3",
      "postcode": "1100-528",
      "city": "LISBOA",
      "lon": "-9.135904683949015",
      "lat": "38.714203129695804"
    },
    {
      "id": "pt.ine.add.PTCONT.3267526",
      "street": "CC S LOURENÇO",
      "house": "11",
      "postcode": "1100-528",
      "city": "LISBOA",
      "lon": "-9.135871832136505",
      "lat": "38.71432051404983"
    },
    {
      "id": "pt.ine.add.PTCONT.3267527",
      "street": "CC S LOURENÇO",
      "house": "11",
      "postcode": "1100-528",
      "city": "LISBOA",
      "lon": "-9.135871832136505",
      "lat": "38.71432051404983"
    },
    {
      "id": "pt.ine.add.PTCONT.3267528",
      "street": "CC S LOURENÇO",
      "house": "11",
      "postcode": "1100-528",
      "city": "LISBOA",
      "lon": "-9.135871832136505",
      "lat": "38.71432051404983"
    },
    {
      "id": "pt.ine.add.PTCONT.3267529",
      "street": "CC S LOURENÇO",
      "house": "11",
      "postcode": "1100-528",
      "city": "LISBOA",
      "lon": "-9.135871832136505",
      "lat": "38.71432051404983"
    },
    {
      "id": "pt.ine.add.PTCONT.3279512",
      "street": "BC SURRADORES",
      "house": "7",
      "postcode": "1100-591",
      "city": "LISBOA",
      "lon": "-9.136075486810688",
      "lat": "38.71408456198212"
    },
    {
      "id": "pt.ine.add.PTCONT.3279513",
      "street": "BC SURRADORES",
      "house": "7",
      "postcode": "1100-591",
      "city": "LISBOA",
      "lon": "-9.136075486810688",
      "lat": "38.71408456198212"
    },
    {
      "id": "pt.ine.add.PTCONT.3279514",
      "street": "BC SURRADORES",
      "house": "7",
      "postcode": "1100-591",
      "city": "LISBOA",
      "lon": "-9.136075486810688",
      "lat": "38.71408456198212"
    },
    {
      "id": "pt.ine.add.PTCONT.3323706",
      "street": "R FONTAÍNHAS",
      "house": "3",
      "postcode": "1100-246",
      "city": "LISBOA",
      "lon": "-9.13572804697669",
      "lat": "38.71472710227335"
    },
    {
      "id": "pt.ine.add.PTCONT.3323809",
      "street": "R FONTAÍNHAS",
      "house": "3",
      "postcode": "1100-246",
      "city": "LISBOA",
      "lon": "-9.13572804697669",
      "lat": "38.71472710227335"
    },
    {
      "id": "pt.ine.add.PTCONT.3335113",
      "street": "R S LOURENÇO",
      "house": "1",
      "postcode": "1100-530",
      "city": "LISBOA",
      "lon": "-9.135716040031062",
      "lat": "38.714111093429885"
    },
    {
      "id": "pt.ine.add.PTCONT.3335114",
      "street": "R S LOURENÇO",
      "house": "1",
      "postcode": "1100-530",
      "city": "LISBOA",
      "lon": "-9.135716040031062",
      "lat": "38.714111093429885"
    },
    {
      "id": "pt.ine.add.PTCONT.3335115",
      "street": "R S LOURENÇO",
      "house": "1",
      "postcode": "1100-530",
      "city": "LISBOA",
      "lon": "-9.135716040031062",
      "lat": "38.714111093429885"
    },
    {
      "id": "pt.ine.add.PTCONT.3335116",
      "street": "R S LOURENÇO",
      "house": "1",
      "postcode": "1100-530",
      "city": "LISBOA",
      "lon": "-9.135716040031062",
      "lat": "38.714111093429885"
    },
    {
      "id": "pt.ine.add.PTCONT.3342134",
      "street": "R S LOURENÇO",
      "house": "1",
      "postcode": "1100-530",
      "city": "LISBOA",
      "lon": "-9.135716040031062",
      "lat": "38.714111093429885"
    },
    {
      "id": "pt.ine.add.PTCONT.3381510",
      "street": "CC S LOURENÇO",
      "house": "2",
      "postcode": "1100-529",
      "city": "LISBOA",
      "lon": "-9.136041880109616",
      "lat": "38.714147905514345"
    },
    {
      "id": "pt.ine.add.PTCONT.3381511",
      "street": "CC S LOURENÇO",
      "house": "2",
      "postcode": "1100-529",
      "city": "LISBOA",
      "lon": "-9.136041880109616",
      "lat": "38.714147905514345"
    },
    {
      "id": "pt.ine.add.PTCONT.3381512",
      "street": "CC S LOURENÇO",
      "house": "2",
      "postcode": "1100-529",
      "city": "LISBOA",
      "lon": "-9.136041880109616",
      "lat": "38.714147905514345"
    },
    {
      "id": "pt.ine.add.PTCONT.3381513",
      "street": "CC S LOURENÇO",
      "house": "2",
      "postcode": "1100-529",
      "city": "LISBOA",
      "lon": "-9.136041880109616",
      "lat": "38.714147905514345"
    },
    {
      "id": "pt.ine.add.PTCONT.3386114",
      "street": "CC S LOURENÇO",
      "house": "2",
      "postcode": "1100-529",
      "city": "LISBOA",
      "lon": "-9.136041880109616",
      "lat": "38.714147905514345"
    },
    {
      "id": "pt.ine.add.PTCONT.3444604",
      "street": "CC S LOURENÇO",
      "house": "3",
      "postcode": "1100-528",
      "city": "LISBOA",
      "lon": "-9.135904683949015",
      "lat": "38.714203129695804"
    },
    {
      "id": "pt.ine.add.PTCONT.3446124",
      "street": "R FONTAÍNHAS",
      "house": "3",
      "postcode": "1100-246",
      "city": "LISBOA",
      "lon": "-9.13572804697669",
      "lat": "38.71472710227335"
    }
  ]
}