{
  "data": {
    "distrito": "Faro",
    "concelho": "Loul√©",
    "freguesia": "Almancil",
    "OBJECTID": 1271,
    "BGRI2021": "08080100602",
    "DT21": "08",
    "DTMN21": "0808",
    "DTMNFR21": "080801",
    "DTMNFRSEC21": "080801006",
    "SECNUM21": "006",
    "SSNUM21": "02",
    "SECSSNUM21": "00602",
    "OBJECTID_1": 69638,
    "DT": "08",
    "CC": "08",
    "fr": "01",
    "SEC": "006",
    "SS": "02"
  },
  "addresses": [
    {
      "id": "pt.ine.add.PTCONT.1467760",
      "street": "R DOURO",
      "house": "N 101 1",
      "postcode": "8135-162",
      "city": "ALMANCIL",
      "lon": "-8.012069821345891",
      "lat": "37.027225706170526"
    },
    {
      "id": "pt.ine.add.PTCONT.1508119",
      "street": "R DOURO BIRDIE",
      "house": "97",
      "postcode": "8135-162",
      "city": "ALMANCIL",
      "lon": "-8.013442709203604",
      "lat": "37.02608272974874"
    },
    {
      "id": "pt.ine.add.PTCONT.1509627",
      "street": "R DOURO",
      "house": "93",
      "postcode": "8135-162",
      "city": "ALMANCIL",
      "lon": "-8.015129025161565",
      "lat": "37.025714976301835"
    },
    {
      "id": "pt.ine.add.PTCONT.1528571",
      "street": "R DOURO",
      "house": "94",
      "postcode": "8135-162",
      "city": "ALMANCIL",
      "lon": "-8.014690579815166",
      "lat": "37.025813658168474"
    },
    {
      "id": "pt.ine.add.PTCONT.1566423",
      "street": "R ALVA",
      "house": "118",
      "postcode": "8135-162",
      "city": "ALMANCIL",
      "lon": "-8.013041781222972",
      "lat": "37.03090308947364"
    },
    {
      "id": "pt.ine.add.PTCONT.1574742",
      "street": "R DOURO SOLAR DA QTA ESTAGAO",
      "house": "95",
      "postcode": "8135-162",
      "city": "ALMANCIL",
      "lon": "-8.014319661186232",
      "lat": "37.02584933057222"
    },
    {
      "id": "pt.ine.add.PTCONT.1606045",
      "street": "R ALVA",
      "house": "117",
      "postcode": "8135-162",
      "city": "ALMANCIL",
      "lon": "-8.013424402325294",
      "lat": "37.030588098992816"
    },
    {
      "id": "pt.ine.add.PTCONT.1610977",
      "street": "R ALVA BRISA DO MAR",
      "house": "722",
      "postcode": "8135-162",
      "city": "ALMANCIL",
      "lon": "-8.014171681303962",
      "lat": "37.0270566266488"
    },
    {
      "id": "pt.ine.add.PTCONT.1612195",
      "street": "R DOURO",
      "house": "105",
      "postcode": "8135-162",
      "city": "ALMANCIL",
      "lon": "-8.014195043071284",
      "lat": "37.026488971056104"
    },
    {
      "id": "pt.ine.add.PTCONT.1623507",
      "street": "R ALVA",
      "house": "110",
      "postcode": "8135-162",
      "city": "ALMANCIL",
      "lon": "-8.012866814968211",
      "lat": "37.02782122766935"
    },
    {
      "id": "pt.ine.add.PTCONT.1623508",
      "street": "R DOURO",
      "house": "99",
      "postcode": "8135-162",
      "city": "ALMANCIL",
      "lon": "-8.012868959576364",
      "lat": "37.02646060248838"
    },
    {
      "id": "pt.ine.add.PTCONT.1626603",
      "street": "R ALVA",
      "house": "115",
      "postcode": "8135-162",
      "city": "ALMANCIL",
      "lon": "-8.01388624194342",
      "lat": "37.02992176673864"
    },
    {
      "id": "pt.ine.add.PTCONT.1656064",
      "street": "R PAIVA",
      "house": "100",
      "postcode": "8135-162",
      "city": "ALMANCIL",
      "lon": "-8.012598883265541",
      "lat": "37.02668559797914"
    },
    {
      "id": "pt.ine.add.PTCONT.1662797",
      "street": "R DOURO",
      "house": "107",
      "postcode": "8135-162",
      "city": "ALMANCIL",
      "lon": "-8.013463885663048",
      "lat": "37.02691174269681"
    },
    {
      "id": "pt.ine.add.PTCONT.1666041",
      "street": "R DOURO CARPE DIEM",
      "house": "106",
      "postcode": "8135-162",
      "city": "ALMANCIL",
      "lon": "-8.013767717677492",
      "lat": "37.0266597468626"
    },
    {
      "id": "pt.ine.add.PTCONT.1667928",
      "street": "R ALVA",
      "house": "123",
      "postcode": "8135-162",
      "city": "ALMANCIL",
      "lon": "-8.014598910036222",
      "lat": "37.02694892474727"
    },
    {
      "id": "pt.ine.add.PTCONT.1703184",
      "street": "R DOURO",
      "house": "102",
      "postcode": "8135-162",
      "city": "ALMANCIL",
      "lon": "-8.012373644947766",
      "lat": "37.02698272469237"
    },
    {
      "id": "pt.ine.add.PTCONT.1727618",
      "street": "R ALVA",
      "house": "119",
      "postcode": "8135-162",
      "city": "ALMANCIL",
      "lon": "-8.01352984722496",
      "lat": "37.027848929978035"
    },
    {
      "id": "pt.ine.add.PTCONT.1733737",
      "street": "R ALVA",
      "house": "111",
      "postcode": "8135-162",
      "city": "ALMANCIL",
      "lon": "-8.013270596008837",
      "lat": "37.028335250342664"
    },
    {
      "id": "pt.ine.add.PTCONT.1745294",
      "street": "R ALVA",
      "house": "114",
      "postcode": "8135-162",
      "city": "ALMANCIL",
      "lon": "-8.013763277072881",
      "lat": "37.02949813678426"
    },
    {
      "id": "pt.ine.add.PTCONT.1745295",
      "street": "R DOURO",
      "house": "104",
      "postcode": "8135-162",
      "city": "ALMANCIL",
      "lon": "-8.014599749913346",
      "lat": "37.026408278903645"
    },
    {
      "id": "pt.ine.add.PTCONT.1751341",
      "street": "R DOURO",
      "house": "108",
      "postcode": "8135-162",
      "city": "ALMANCIL",
      "lon": "-8.013294856506183",
      "lat": "37.02719991703091"
    },
    {
      "id": "pt.ine.add.PTCONT.1763422",
      "street": "R DOURO",
      "house": "109",
      "postcode": "8135-162",
      "city": "ALMANCIL",
      "lon": "-8.013114601739751",
      "lat": "37.027479068982"
    },
    {
      "id": "pt.ine.add.PTCONT.1793578",
      "street": "R ALVA",
      "house": "126",
      "postcode": "8135-162",
      "city": "ALMANCIL",
      "lon": "-8.015823856847234",
      "lat": "37.02697717407292"
    },
    {
      "id": "pt.ine.add.PTCONT.1800937",
      "street": "R ALVA",
      "house": "113",
      "postcode": "8135-162",
      "city": "ALMANCIL",
      "lon": "-8.013595217432702",
      "lat": "37.02916456900705"
    },
    {
      "id": "pt.ine.add.PTCONT.1802380",
      "street": "R DOURO",
      "house": "103",
      "postcode": "8135-162",
      "city": "ALMANCIL",
      "lon": "-8.015038003552261",
      "lat": "37.0264357480941"
    },
    {
      "id": "pt.ine.add.PTCONT.1811000",
      "street": "R ALVA",
      "house": "112",
      "postcode": "8135-162",
      "city": "ALMANCIL",
      "lon": "-8.013404837396628",
      "lat": "37.02873185993855"
    },
    {
      "id": "pt.ine.add.PTCONT.1811001",
      "street": "R ALVA",
      "house": "",
      "postcode": "8135-162",
      "city": "ALMANCIL",
      "lon": "-8.01498112811663",
      "lat": "37.02687721961882"
    },
    {
      "id": "pt.ine.add.PTCONT.1825737",
      "street": "R ALVA",
      "house": "125",
      "postcode": "8135-162",
      "city": "ALMANCIL",
      "lon": "-8.01540822958642",
      "lat": "37.02685061167318"
    },
    {
      "id": "pt.ine.add.PTCONT.1825738",
      "street": "R ALVA CASA CHILLIES",
      "house": "121",
      "postcode": "8135-162",
      "city": "ALMANCIL",
      "lon": "-8.013912859265343",
      "lat": "37.02727262561096"
    }
  ]
}