{
  "data": {
    "distrito": "Faro",
    "concelho": "Loulé",
    "freguesia": "Almancil",
    "OBJECTID": 1569,
    "BGRI2021": "08080100612",
    "DT21": "08",
    "DTMN21": "0808",
    "DTMNFR21": "080801",
    "DTMNFRSEC21": "080801006",
    "SECNUM21": "006",
    "SSNUM21": "12",
    "SECSSNUM21": "00612",
    "OBJECTID_1": 68984,
    "DT": "08",
    "CC": "08",
    "fr": "01",
    "SEC": "006",
    "SS": "12"
  },
  "addresses": [
    {
      "id": "pt.ine.add.PTCONT.1486133",
      "street": "R PAIVA DRIFTWOOD",
      "house": "34",
      "postcode": "8135-162",
      "city": "ALMANCIL",
      "lon": "-8.015634911080989",
      "lat": "37.03290607592346"
    },
    {
      "id": "pt.ine.add.PTCONT.1491708",
      "street": "R PAIVA",
      "house": "39",
      "postcode": "8135-162",
      "city": "ALMANCIL",
      "lon": "-8.018071447985747",
      "lat": "37.03449435817709"
    },
    {
      "id": "pt.ine.add.PTCONT.1493621",
      "street": "R PAIVA JUNHO OITO",
      "house": "",
      "postcode": "8135-162",
      "city": "ALMANCIL",
      "lon": "-8.018452359531025",
      "lat": "37.035314706544376"
    },
    {
      "id": "pt.ine.add.PTCONT.1499354",
      "street": "R PAIVA TALLY HO",
      "house": "35",
      "postcode": "8135-162",
      "city": "ALMANCIL",
      "lon": "-8.016196821001246",
      "lat": "37.03294267395602"
    },
    {
      "id": "pt.ine.add.PTCONT.1502117",
      "street": "R LIZ",
      "house": "",
      "postcode": "8135-162",
      "city": "ALMANCIL",
      "lon": "-8.014441820524441",
      "lat": "37.034013213199316"
    },
    {
      "id": "pt.ine.add.PTCONT.1505307",
      "street": "R LIZ MIOLAMU",
      "house": "38",
      "postcode": "8135-162",
      "city": "ALMANCIL",
      "lon": "-8.018585327491795",
      "lat": "37.036585352717786"
    },
    {
      "id": "pt.ine.add.PTCONT.1505308",
      "street": "R LIZ CASA LUA",
      "house": "19",
      "postcode": "8135-162",
      "city": "ALMANCIL",
      "lon": "-8.014653578960159",
      "lat": "37.03516680283063"
    },
    {
      "id": "pt.ine.add.PTCONT.1522883",
      "street": "R LIZ",
      "house": "",
      "postcode": "8135-162",
      "city": "ALMANCIL",
      "lon": "-8.016126164836523",
      "lat": "37.03504211304253"
    },
    {
      "id": "pt.ine.add.PTCONT.1528439",
      "street": "R LIZ",
      "house": "",
      "postcode": "8135-162",
      "city": "ALMANCIL",
      "lon": "-8.015744946891942",
      "lat": "37.03443801528269"
    },
    {
      "id": "pt.ine.add.PTCONT.1551574",
      "street": "R PAIVA",
      "house": "30",
      "postcode": "8135-162",
      "city": "ALMANCIL",
      "lon": "-8.016068431751144",
      "lat": "37.03604225099085"
    },
    {
      "id": "pt.ine.add.PTCONT.1576628",
      "street": "R LIZ CASA MIRADOURO",
      "house": "18",
      "postcode": "8135-162",
      "city": "ALMANCIL",
      "lon": "-8.014361825455213",
      "lat": "37.03486014519654"
    },
    {
      "id": "pt.ine.add.PTCONT.1581023",
      "street": "R LIS",
      "house": "34",
      "postcode": "8135-162",
      "city": "ALMANCIL",
      "lon": "-8.017067619175652",
      "lat": "37.03680013648342"
    },
    {
      "id": "pt.ine.add.PTCONT.1609422",
      "street": "R PAIVA",
      "house": "44",
      "postcode": "8135-162",
      "city": "ALMANCIL",
      "lon": "-8.019060257879815",
      "lat": "37.03467552801356"
    },
    {
      "id": "pt.ine.add.PTCONT.1616208",
      "street": "R PAIVA",
      "house": "",
      "postcode": "8135-162",
      "city": "ALMANCIL",
      "lon": "-8.01884624712944",
      "lat": "37.03498168816963"
    },
    {
      "id": "pt.ine.add.PTCONT.1617501",
      "street": "R LIZ VILA BONAGUIL",
      "house": "20",
      "postcode": "8135-162",
      "city": "ALMANCIL",
      "lon": "-8.015012912433411",
      "lat": "37.035383419364685"
    },
    {
      "id": "pt.ine.add.PTCONT.1621212",
      "street": "R LIZ",
      "house": "",
      "postcode": "8135-162",
      "city": "ALMANCIL",
      "lon": "-8.01537433455291",
      "lat": "37.034248422042104"
    },
    {
      "id": "pt.ine.add.PTCONT.1626471",
      "street": "R PAIVA",
      "house": "",
      "postcode": "8135-162",
      "city": "ALMANCIL",
      "lon": "-8.013579897983682",
      "lat": "37.03176866673827"
    },
    {
      "id": "pt.ine.add.PTCONT.1659151",
      "street": "R LIZ",
      "house": "17",
      "postcode": "8135-162",
      "city": "ALMANCIL",
      "lon": "-8.014137441284907",
      "lat": "37.03459860822665"
    },
    {
      "id": "pt.ine.add.PTCONT.1673574",
      "street": "R PAIVA",
      "house": "40",
      "postcode": "8135-162",
      "city": "ALMANCIL",
      "lon": "-8.01785722952337",
      "lat": "37.03493567784286"
    },
    {
      "id": "pt.ine.add.PTCONT.1690204",
      "street": "R PAIVA",
      "house": "",
      "postcode": "8135-162",
      "city": "ALMANCIL",
      "lon": "-8.017789151513863",
      "lat": "37.03535911767566"
    },
    {
      "id": "pt.ine.add.PTCONT.1696130",
      "street": "R PAIVA SHENANDOAH",
      "house": "30",
      "postcode": "8135-162",
      "city": "ALMANCIL",
      "lon": "-8.014163349351598",
      "lat": "37.03240000690022"
    },
    {
      "id": "pt.ine.add.PTCONT.1704507",
      "street": "R LIZ",
      "house": "23",
      "postcode": "8135-162",
      "city": "ALMANCIL",
      "lon": "-8.014969935850251",
      "lat": "37.03410384784011"
    },
    {
      "id": "pt.ine.add.PTCONT.1721464",
      "street": "R PAIVA",
      "house": "37",
      "postcode": "8135-162",
      "city": "ALMANCIL",
      "lon": "-8.016982982694666",
      "lat": "37.033330908968026"
    },
    {
      "id": "pt.ine.add.PTCONT.1724629",
      "street": "R PAIVA JARDIM DA SAÚDE",
      "house": "31",
      "postcode": "8135-162",
      "city": "ALMANCIL",
      "lon": "-8.014387755215193",
      "lat": "37.032643522397166"
    },
    {
      "id": "pt.ine.add.PTCONT.1727625",
      "street": "R PAIVA MARMORA",
      "house": "33",
      "postcode": "8135-162",
      "city": "ALMANCIL",
      "lon": "-8.015208054358153",
      "lat": "37.032752469500956"
    },
    {
      "id": "pt.ine.add.PTCONT.1727626",
      "street": "R PAIVA",
      "house": "",
      "postcode": "8135-162",
      "city": "ALMANCIL",
      "lon": "-8.013276837734889",
      "lat": "37.03151605950755"
    },
    {
      "id": "pt.ine.add.PTCONT.1729076",
      "street": "R LIS",
      "house": "33",
      "postcode": "8135-162",
      "city": "ALMANCIL",
      "lon": "-8.016618092894753",
      "lat": "37.0367546421994"
    },
    {
      "id": "pt.ine.add.PTCONT.1734867",
      "street": "LOTEAM ATLÂNTICO NORTE",
      "house": "",
      "postcode": "8135-037",
      "city": "ALMANCIL",
      "lon": "-8.014441820524441",
      "lat": "37.034013213199316"
    },
    {
      "id": "pt.ine.add.PTCONT.1735955",
      "street": "R PAIVA EL PIROS",
      "house": "32",
      "postcode": "8135-162",
      "city": "ALMANCIL",
      "lon": "-8.014792326790333",
      "lat": "37.032670958789524"
    },
    {
      "id": "pt.ine.add.PTCONT.1739155",
      "street": "R LIZ",
      "house": "",
      "postcode": "8135-162",
      "city": "ALMANCIL",
      "lon": "-8.016014322052659",
      "lat": "37.034681572098066"
    },
    {
      "id": "pt.ine.add.PTCONT.1763420",
      "street": "R LIZ",
      "house": "",
      "postcode": "8135-162",
      "city": "ALMANCIL",
      "lon": "-8.016091381378557",
      "lat": "37.035735907644096"
    },
    {
      "id": "pt.ine.add.PTCONT.1784967",
      "street": "R LIS",
      "house": "37",
      "postcode": "8135-162",
      "city": "ALMANCIL",
      "lon": "-8.018281824498557",
      "lat": "37.036603080925374"
    },
    {
      "id": "pt.ine.add.PTCONT.1787728",
      "street": "R LIZ",
      "house": "21",
      "postcode": "8135-162",
      "city": "ALMANCIL",
      "lon": "-8.015361383883901",
      "lat": "37.03535673337861"
    },
    {
      "id": "pt.ine.add.PTCONT.1797906",
      "street": "R LIS",
      "house": "36",
      "postcode": "8135-162",
      "city": "ALMANCIL",
      "lon": "-8.017775854133243",
      "lat": "37.03671973012763"
    },
    {
      "id": "pt.ine.add.PTCONT.1802379",
      "street": "R LIZ",
      "house": "15",
      "postcode": "8135-162",
      "city": "ALMANCIL",
      "lon": "-8.013823339854085",
      "lat": "37.034210829935546"
    },
    {
      "id": "pt.ine.add.PTCONT.1822403",
      "street": "R LIS",
      "house": "35",
      "postcode": "8135-162",
      "city": "ALMANCIL",
      "lon": "-8.017449857018956",
      "lat": "37.036746445103084"
    },
    {
      "id": "pt.ine.add.PTCONT.1833884",
      "street": "R PAIVA CASA OLEANDER",
      "house": "36",
      "postcode": "8135-162",
      "city": "ALMANCIL",
      "lon": "-8.016589838899101",
      "lat": "37.03317734051133"
    },
    {
      "id": "pt.ine.add.PTCONT.1839446",
      "street": "R LIZ",
      "house": "32",
      "postcode": "8135-162",
      "city": "ALMANCIL",
      "lon": "-8.01594368681192",
      "lat": "37.03676298894947"
    },
    {
      "id": "pt.ine.add.PTCONT.1848465",
      "street": "R PAIVA",
      "house": "38",
      "postcode": "8135-162",
      "city": "ALMANCIL",
      "lon": "-8.017364601517626",
      "lat": "37.03367369100169"
    }
  ]
}