{
  "data": {
    "distrito": "Leiria",
    "concelho": "Peniche",
    "freguesia": "Atouguia da Baleia",
    "OBJECTID": 670,
    "BGRI2021": "10140200801",
    "DT21": "10",
    "DTMN21": "1014",
    "DTMNFR21": "101402",
    "DTMNFRSEC21": "101402008",
    "SECNUM21": "008",
    "SSNUM21": "01",
    "SECSSNUM21": "00801",
    "OBJECTID_1": 94262,
    "DT": "10",
    "CC": "14",
    "fr": "02",
    "SEC": "008",
    "SS": "01"
  },
  "addresses": [
    {
      "id": "pt.ine.add.PTCONT.1986173",
      "street": "SIT DO FATAL",
      "house": "",
      "postcode": "2525-363",
      "city": "ATOUGUIA DA BALEIA",
      "lon": "-9.290350511721842",
      "lat": "39.32982384488732"
    },
    {
      "id": "pt.ine.add.PTCONT.2003216",
      "street": "R DELGADOS",
      "house": "",
      "postcode": "2525-363",
      "city": "ATOUGUIA DA BALEIA",
      "lon": "-9.289773451966424",
      "lat": "39.328586632090804"
    },
    {
      "id": "pt.ine.add.PTCONT.2009761",
      "street": "R 1 DE DEZEMBRO",
      "house": "3",
      "postcode": "2525-674",
      "city": "ATOUGUIA DA BALEIA",
      "lon": "-9.299216631786258",
      "lat": "39.32877161637584"
    },
    {
      "id": "pt.ine.add.PTCONT.2014708",
      "street": "R 1 DE DEZEMBRO",
      "house": "23",
      "postcode": "2525-674",
      "city": "ATOUGUIA DA BALEIA",
      "lon": "-9.299340067174773",
      "lat": "39.32782465798978"
    },
    {
      "id": "pt.ine.add.PTCONT.2016303",
      "street": "R FLORES",
      "house": "69",
      "postcode": "2525-682",
      "city": "ATOUGUIA DA BALEIA",
      "lon": "-9.290346387788974",
      "lat": "39.32816662049754"
    },
    {
      "id": "pt.ine.add.PTCONT.2018339",
      "street": "LG LUIS DE CAMÕES",
      "house": "4",
      "postcode": "2525-673",
      "city": "ATOUGUIA DA BALEIA",
      "lon": "-9.299142052645118",
      "lat": "39.327772600704236"
    },
    {
      "id": "pt.ine.add.PTCONT.2020616",
      "street": "R FLORES",
      "house": "71",
      "postcode": "2525-363",
      "city": "ATOUGUIA DA BALEIA",
      "lon": "-9.28984868369194",
      "lat": "39.32822560928613"
    },
    {
      "id": "pt.ine.add.PTCONT.2038242",
      "street": "R 1 DE DEZEMBRO",
      "house": "5",
      "postcode": "2525-674",
      "city": "ATOUGUIA DA BALEIA",
      "lon": "-9.299261217815264",
      "lat": "39.32866308719293"
    },
    {
      "id": "pt.ine.add.PTCONT.2068829",
      "street": "R 1 DE DEZEMBRO",
      "house": "7",
      "postcode": "2525-674",
      "city": "ATOUGUIA DA BALEIA",
      "lon": "-9.298774665334038",
      "lat": "39.32869498178957"
    },
    {
      "id": "pt.ine.add.PTCONT.2082934",
      "street": "R 1 DE DEZEMBRO",
      "house": "11",
      "postcode": "2525-674",
      "city": "ATOUGUIA DA BALEIA",
      "lon": "-9.299051157016075",
      "lat": "39.32858412985124"
    },
    {
      "id": "pt.ine.add.PTCONT.2090737",
      "street": "TV TOMAZ",
      "house": "3",
      "postcode": "2525-691",
      "city": "ATOUGUIA DA BALEIA",
      "lon": "-9.299008594304153",
      "lat": "39.32811619884646"
    },
    {
      "id": "pt.ine.add.PTCONT.2103260",
      "street": "R FLORES",
      "house": "1",
      "postcode": "2525-682",
      "city": "ATOUGUIA DA BALEIA",
      "lon": "-9.298921147270033",
      "lat": "39.327738786114914"
    },
    {
      "id": "pt.ine.add.PTCONT.2103261",
      "street": "R FLORES",
      "house": "3",
      "postcode": "2525-682",
      "city": "ATOUGUIA DA BALEIA",
      "lon": "-9.298805495212815",
      "lat": "39.32775795823141"
    },
    {
      "id": "pt.ine.add.PTCONT.2120829",
      "street": "TV TOMAZ",
      "house": "2",
      "postcode": "2525-691",
      "city": "ATOUGUIA DA BALEIA",
      "lon": "-9.299116989233092",
      "lat": "39.328358298539015"
    },
    {
      "id": "pt.ine.add.PTCONT.2125873",
      "street": "R 1 DE DEZEMBRO",
      "house": "IS",
      "postcode": "2525-674",
      "city": "ATOUGUIA DA BALEIA",
      "lon": "-9.299325254252873",
      "lat": "39.3283291912932"
    },
    {
      "id": "pt.ine.add.PTCONT.2129698",
      "street": "R FLORES",
      "house": "5",
      "postcode": "2525-682",
      "city": "ATOUGUIA DA BALEIA",
      "lon": "-9.298678546993779",
      "lat": "39.327795257105336"
    },
    {
      "id": "pt.ine.add.PTCONT.2134505",
      "street": "R 1 DE DEZEMBRO",
      "house": "9",
      "postcode": "2525-674",
      "city": "ATOUGUIA DA BALEIA",
      "lon": "-9.299317398954067",
      "lat": "39.3285544418099"
    },
    {
      "id": "pt.ine.add.PTCONT.2136797",
      "street": "R FLORES",
      "house": "17",
      "postcode": "2525-682",
      "city": "ATOUGUIA DA BALEIA",
      "lon": "-9.297088871223513",
      "lat": "39.32844164708841"
    },
    {
      "id": "pt.ine.add.PTCONT.2142677",
      "street": "R FLORES",
      "house": "41",
      "postcode": "2525-682",
      "city": "ATOUGUIA DA BALEIA",
      "lon": "-9.293934796717076",
      "lat": "39.32776160434004"
    },
    {
      "id": "pt.ine.add.PTCONT.2147641",
      "street": "TV TOMAZ",
      "house": "5",
      "postcode": "2525-691",
      "city": "ATOUGUIA DA BALEIA",
      "lon": "-9.298971565531657",
      "lat": "39.32798146667116"
    },
    {
      "id": "pt.ine.add.PTCONT.2156362",
      "street": "R BANDURRAS",
      "house": "12",
      "postcode": "2525-678",
      "city": "ATOUGUIA DA BALEIA",
      "lon": "-9.298141620053503",
      "lat": "39.32968306923682"
    },
    {
      "id": "pt.ine.add.PTCONT.2160793",
      "street": "R ANTÓNIO NOIVO",
      "house": "25",
      "postcode": "2525-363",
      "city": "ATOUGUIA DA BALEIA",
      "lon": "-9.291646822340594",
      "lat": "39.3310719108769"
    },
    {
      "id": "pt.ine.add.PTCONT.2162935",
      "street": "R 1 DE DEZEMBRO",
      "house": "13",
      "postcode": "2525-674",
      "city": "ATOUGUIA DA BALEIA",
      "lon": "-9.299304307756826",
      "lat": "39.32846450426039"
    },
    {
      "id": "pt.ine.add.PTCONT.2171675",
      "street": "R FLORES",
      "house": "39",
      "postcode": "2525-682",
      "city": "ATOUGUIA DA BALEIA",
      "lon": "-9.294296182212571",
      "lat": "39.32787508884705"
    },
    {
      "id": "pt.ine.add.PTCONT.2202798",
      "street": "TV TOMAZ",
      "house": "1A",
      "postcode": "2525-691",
      "city": "ATOUGUIA DA BALEIA",
      "lon": "-9.29883945179248",
      "lat": "39.32840611299904"
    },
    {
      "id": "pt.ine.add.PTCONT.2209568",
      "street": "R FLORES",
      "house": "7",
      "postcode": "2525-682",
      "city": "ATOUGUIA DA BALEIA",
      "lon": "-9.298551748132022",
      "lat": "39.32784156121928"
    },
    {
      "id": "pt.ine.add.PTCONT.2211787",
      "street": "TV FLORES",
      "house": "7",
      "postcode": "2525-682",
      "city": "ATOUGUIA DA BALEIA",
      "lon": "-9.298370859699247",
      "lat": "39.32812258545179"
    },
    {
      "id": "pt.ine.add.PTCONT.2224717",
      "street": "R 1 DE DEZEMBRO",
      "house": "17",
      "postcode": "2525-674",
      "city": "ATOUGUIA DA BALEIA",
      "lon": "-9.299393329436137",
      "lat": "39.328238440435626"
    },
    {
      "id": "pt.ine.add.PTCONT.2229845",
      "street": "R BANDURRAS",
      "house": "4",
      "postcode": "2525-678",
      "city": "ATOUGUIA DA BALEIA",
      "lon": "-9.298897497080196",
      "lat": "39.32910806763492"
    },
    {
      "id": "pt.ine.add.PTCONT.2234943",
      "street": "R FLORES",
      "house": "11",
      "postcode": "2525-682",
      "city": "ATOUGUIA DA BALEIA",
      "lon": "-9.298332038531006",
      "lat": "39.32787978852818"
    },
    {
      "id": "pt.ine.add.PTCONT.2239966",
      "street": "R FLORES",
      "house": "15",
      "postcode": "2525-682",
      "city": "ATOUGUIA DA BALEIA",
      "lon": "-9.297579549480863",
      "lat": "39.327959374578654"
    },
    {
      "id": "pt.ine.add.PTCONT.2245950",
      "street": "R ANTÓNIO NOIVO",
      "house": "3",
      "postcode": "2525-363",
      "city": "ATOUGUIA DA BALEIA",
      "lon": "-9.289900534141669",
      "lat": "39.32926088490329"
    },
    {
      "id": "pt.ine.add.PTCONT.2260049",
      "street": "TV FLORES",
      "house": "6",
      "postcode": "2525-682",
      "city": "ATOUGUIA DA BALEIA",
      "lon": "-9.298175086725829",
      "lat": "39.32820560718354"
    },
    {
      "id": "pt.ine.add.PTCONT.2265782",
      "street": "R FLORES",
      "house": "37",
      "postcode": "2525-682",
      "city": "ATOUGUIA DA BALEIA",
      "lon": "-9.294866132872887",
      "lat": "39.32797748371049"
    }
  ]
}