{
  "data": {
    "distrito": "Évora",
    "concelho": "Vila Viçosa",
    "freguesia": "Pardais",
    "OBJECTID": 97,
    "BGRI2021": "07140400113",
    "DT21": "07",
    "DTMN21": "0714",
    "DTMNFR21": "071404",
    "DTMNFRSEC21": "071404001",
    "SECNUM21": "001",
    "SSNUM21": "13",
    "SECSSNUM21": "00113",
    "OBJECTID_1": 64163,
    "DT": "07",
    "CC": "14",
    "fr": "04",
    "SEC": "001",
    "SS": "13"
  },
  "addresses": [
    {
      "id": "pt.ine.add.PTCONT.1368932",
      "street": "LG PRAÇA",
      "house": "1S",
      "postcode": "7160-363",
      "city": "PARDAIS",
      "lon": "-7.397255941894032",
      "lat": "38.72460146525079"
    },
    {
      "id": "pt.ine.add.PTCONT.1371984",
      "street": "LG FONTE FIGUEIRA",
      "house": "31",
      "postcode": "7160-363",
      "city": "PARDAIS",
      "lon": "-7.396070099244483",
      "lat": "38.72362112969677"
    },
    {
      "id": "pt.ine.add.PTCONT.1372419",
      "street": "QTA MORENO",
      "house": "",
      "postcode": "7160-363",
      "city": "PARDAIS",
      "lon": "-7.398724790702017",
      "lat": "38.724898957659576"
    },
    {
      "id": "pt.ine.add.PTCONT.1376977",
      "street": "R CASAS NOVAS",
      "house": "9",
      "postcode": "7160-363",
      "city": "PARDAIS",
      "lon": "-7.398130653147932",
      "lat": "38.724525895385085"
    },
    {
      "id": "pt.ine.add.PTCONT.1379533",
      "street": "LG PRAÇA",
      "house": "9",
      "postcode": "7160-363",
      "city": "PARDAIS",
      "lon": "-7.3971196240186305",
      "lat": "38.72443846289004"
    },
    {
      "id": "pt.ine.add.PTCONT.1381014",
      "street": "LG PRAÇA",
      "house": "5",
      "postcode": "7160-363",
      "city": "PARDAIS",
      "lon": "-7.397258436333993",
      "lat": "38.724358264530245"
    },
    {
      "id": "pt.ine.add.PTCONT.1384398",
      "street": "LG PRAÇA",
      "house": "2",
      "postcode": "7160-363",
      "city": "PARDAIS",
      "lon": "-7.397303598471581",
      "lat": "38.72443962091811"
    },
    {
      "id": "pt.ine.add.PTCONT.1386966",
      "street": "R CASAS NOVAS",
      "house": "1",
      "postcode": "7160-363",
      "city": "PARDAIS",
      "lon": "-7.397372311777843",
      "lat": "38.72446707740715"
    },
    {
      "id": "pt.ine.add.PTCONT.1391631",
      "street": "QTA LARGO",
      "house": "25",
      "postcode": "7160-363",
      "city": "PARDAIS",
      "lon": "-7.396954476495743",
      "lat": "38.724328324342196"
    },
    {
      "id": "pt.ine.add.PTCONT.1397150",
      "street": "LG PRAÇA",
      "house": "3",
      "postcode": "7160-363",
      "city": "PARDAIS",
      "lon": "-7.397327611432462",
      "lat": "38.724340683873145"
    },
    {
      "id": "pt.ine.add.PTCONT.1399032",
      "street": "R EASAS NOVAS",
      "house": "19",
      "postcode": "7160-363",
      "city": "PARDAIS",
      "lon": "-7.396550067457754",
      "lat": "38.72391241106503"
    },
    {
      "id": "pt.ine.add.PTCONT.1402063",
      "street": "R CASAS NOVAS",
      "house": "27",
      "postcode": "7160-363",
      "city": "PARDAIS",
      "lon": "-7.396365816897662",
      "lat": "38.723938274163885"
    },
    {
      "id": "pt.ine.add.PTCONT.1406281",
      "street": "R DAS CASAS NOVAS",
      "house": "25",
      "postcode": "7160-363",
      "city": "PARDAIS",
      "lon": "-7.396412365126786",
      "lat": "38.72388451939186"
    },
    {
      "id": "pt.ine.add.PTCONT.1409358",
      "street": "R CASAS NOVAS",
      "house": "21",
      "postcode": "7160-363",
      "city": "PARDAIS",
      "lon": "-7.396480985073041",
      "lat": "38.7239209838321"
    },
    {
      "id": "pt.ine.add.PTCONT.1414515",
      "street": "LG FONTE FIGUEIRA",
      "house": "33",
      "postcode": "7160-363",
      "city": "PARDAIS",
      "lon": "-7.395942877893699",
      "lat": "38.72369239172489"
    },
    {
      "id": "pt.ine.add.PTCONT.1414516",
      "street": "QTA RIBEIRA DE BAIXO",
      "house": "2",
      "postcode": "7160-363",
      "city": "PARDAIS",
      "lon": "-7.399757893776797",
      "lat": "38.72620259678586"
    },
    {
      "id": "pt.ine.add.PTCONT.1416636",
      "street": "LG PRAÇA",
      "house": "17",
      "postcode": "7160-363",
      "city": "PARDAIS",
      "lon": "-7.397095703143832",
      "lat": "38.724528392453806"
    },
    {
      "id": "pt.ine.add.PTCONT.1432106",
      "street": "BC PRAÇA",
      "house": "1",
      "postcode": "7160-363",
      "city": "PARDAIS",
      "lon": "-7.397510754453162",
      "lat": "38.724422908484364"
    },
    {
      "id": "pt.ine.add.PTCONT.1436065",
      "street": "LG PRAÇA",
      "house": "1",
      "postcode": "7160-363",
      "city": "PARDAIS",
      "lon": "-7.397351070080112",
      "lat": "38.72429579142861"
    },
    {
      "id": "pt.ine.add.PTCONT.1438437",
      "street": "R CASAS NOVAS",
      "house": "23",
      "postcode": "7160-363",
      "city": "PARDAIS",
      "lon": "-7.396447322495741",
      "lat": "38.723839699583195"
    },
    {
      "id": "pt.ine.add.PTCONT.1444655",
      "street": "QTA RIBEIRA DE BAIXO",
      "house": "",
      "postcode": "7160-363",
      "city": "PARDAIS",
      "lon": "-7.397750701358074",
      "lat": "38.72569454807534"
    },
    {
      "id": "pt.ine.add.PTCONT.1447366",
      "street": "R CASAS NOVAS",
      "house": "5",
      "postcode": "7160-363",
      "city": "PARDAIS",
      "lon": "-7.398521230525582",
      "lat": "38.72456438221897"
    },
    {
      "id": "pt.ine.add.PTCONT.1447367",
      "street": "R CASAS NOVAS",
      "house": "5",
      "postcode": "7160-363",
      "city": "PARDAIS",
      "lon": "-7.398521230525582",
      "lat": "38.72456438221897"
    },
    {
      "id": "pt.ine.add.PTCONT.1448131",
      "street": "LG PRAÇA",
      "house": "23",
      "postcode": "7160-363",
      "city": "PARDAIS",
      "lon": "-7.39699017587892",
      "lat": "38.724354067932644"
    },
    {
      "id": "pt.ine.add.PTCONT.1458062",
      "street": "LG PRAÇA",
      "house": "13",
      "postcode": "7160-363",
      "city": "PARDAIS",
      "lon": "-7.397234053713543",
      "lat": "38.724493231295945"
    },
    {
      "id": "pt.ine.add.PTCONT.1458310",
      "street": "R CASAS NOVAS",
      "house": "11",
      "postcode": "7160-363",
      "city": "PARDAIS",
      "lon": "-7.397626200170733",
      "lat": "38.72437859472611"
    },
    {
      "id": "pt.ine.add.PTCONT.1461080",
      "street": "LG PRAÇA",
      "house": "7",
      "postcode": "7160-363",
      "city": "PARDAIS",
      "lon": "-7.397188891622479",
      "lat": "38.72441187488237"
    },
    {
      "id": "pt.ine.add.PTCONT.1461122",
      "street": "R CASAS NOVAS",
      "house": "17",
      "postcode": "7160-363",
      "city": "PARDAIS",
      "lon": "-7.396607189178544",
      "lat": "38.72394880299036"
    },
    {
      "id": "pt.ine.add.PTCONT.1464349",
      "street": "MTE FREIXOID",
      "house": "",
      "postcode": "7160-363",
      "city": "PARDAIS",
      "lon": "-7.395556860194344",
      "lat": "38.72432952622538"
    }
  ]
}