{
  "data": {
    "distrito": "Guarda",
    "concelho": "Seia",
    "freguesia": "Sandomil",
    "OBJECTID": 500,
    "BGRI2021": "09121200127",
    "DT21": "09",
    "DTMN21": "0912",
    "DTMNFR21": "091212",
    "DTMNFRSEC21": "091212001",
    "SECNUM21": "001",
    "SSNUM21": "27",
    "SECSSNUM21": "00127",
    "OBJECTID_1": 81992,
    "DT": "09",
    "CC": "12",
    "fr": "12",
    "SEC": "001",
    "SS": "27"
  },
  "addresses": [
    {
      "id": "pt.ine.add.PTCONT.1909645",
      "street": "BR DE S JOÃO",
      "house": "",
      "postcode": "6270-174",
      "city": "SANDOMIL",
      "lon": "-7.777430825677491",
      "lat": "40.35687329095131"
    },
    {
      "id": "pt.ine.add.PTCONT.1912770",
      "street": "BR DE S JOÃO",
      "house": "6",
      "postcode": "6270-174",
      "city": "SANDOMIL",
      "lon": "-7.77976299168625",
      "lat": "40.35661927654906"
    },
    {
      "id": "pt.ine.add.PTCONT.1912773",
      "street": "BR DE S JOÃO",
      "house": "6",
      "postcode": "6270-174",
      "city": "SANDOMIL",
      "lon": "-7.77976299168625",
      "lat": "40.35661927654906"
    },
    {
      "id": "pt.ine.add.PTCONT.1913155",
      "street": "QTA DE S COSME",
      "house": "",
      "postcode": "6270-172",
      "city": "SANDOMIL",
      "lon": "-7.768440047437412",
      "lat": "40.349766877212645"
    },
    {
      "id": "pt.ine.add.PTCONT.1926506",
      "street": "BR S JOAO",
      "house": "2",
      "postcode": "6270-174",
      "city": "SANDOMIL",
      "lon": "-7.779975915659084",
      "lat": "40.35642180332293"
    },
    {
      "id": "pt.ine.add.PTCONT.1939507",
      "street": "BR DE S JOÃO",
      "house": "8",
      "postcode": "6270-174",
      "city": "SANDOMIL",
      "lon": "-7.779467899666386",
      "lat": "40.35677147009538"
    },
    {
      "id": "pt.ine.add.PTCONT.1942508",
      "street": "BR DE S JOÃO",
      "house": "12",
      "postcode": "6270-174",
      "city": "SANDOMIL",
      "lon": "-7.778961291947183",
      "lat": "40.35685097050582"
    },
    {
      "id": "pt.ine.add.PTCONT.1949495",
      "street": "BR DE S JOÃO",
      "house": "",
      "postcode": "6270-174",
      "city": "SANDOMIL",
      "lon": "-7.780084255840496",
      "lat": "40.35596284767915"
    },
    {
      "id": "pt.ine.add.PTCONT.1963260",
      "street": "BR DE S JOÃO",
      "house": "4",
      "postcode": "6270-174",
      "city": "SANDOMIL",
      "lon": "-7.77989271521394",
      "lat": "40.35657464471549"
    },
    {
      "id": "pt.ine.add.PTCONT.1972451",
      "street": "R PRINCIPAL",
      "house": "15",
      "postcode": "6270-171",
      "city": "SANDOMIL",
      "lon": "-7.778441896358307",
      "lat": "40.345889536372326"
    },
    {
      "id": "pt.ine.add.PTCONT.1853545",
      "street": "BR DE S JOÃO",
      "house": "10",
      "postcode": "6270-174",
      "city": "SANDOMIL",
      "lon": "-7.77918514310951",
      "lat": "40.356815633262336"
    },
    {
      "id": "pt.ine.add.PTCONT.1858767",
      "street": "BR DE S JOÃO",
      "house": "",
      "postcode": "6270-174",
      "city": "SANDOMIL",
      "lon": "-7.78076930402035",
      "lat": "40.35552366141086"
    },
    {
      "id": "pt.ine.add.PTCONT.1863702",
      "street": "TV DA VINHA",
      "house": "",
      "postcode": "6270-171",
      "city": "SANDOMIL",
      "lon": "-7.778499566453949",
      "lat": "40.346114853962774"
    },
    {
      "id": "pt.ine.add.PTCONT.1866600",
      "street": "QTA DE S COSME",
      "house": "",
      "postcode": "6270-172",
      "city": "SANDOMIL",
      "lon": "-7.765551305118821",
      "lat": "40.348505951694385"
    },
    {
      "id": "pt.ine.add.PTCONT.1871560",
      "street": "BR DE S JOÃO",
      "house": "",
      "postcode": "6270-174",
      "city": "SANDOMIL",
      "lon": "-7.776640791974422",
      "lat": "40.3571230159012"
    },
    {
      "id": "pt.ine.add.PTCONT.1879193",
      "street": "BR DE S JOÃO",
      "house": "16",
      "postcode": "6270-174",
      "city": "SANDOMIL",
      "lon": "-7.7777136308717605",
      "lat": "40.35682012661099"
    },
    {
      "id": "pt.ine.add.PTCONT.1880965",
      "street": "BR S JOAO",
      "house": "14",
      "postcode": "6270-174",
      "city": "SANDOMIL",
      "lon": "-7.778043475231692",
      "lat": "40.35677611160835"
    },
    {
      "id": "pt.ine.add.PTCONT.1886597",
      "street": "R DE S COSME",
      "house": "",
      "postcode": "6270-172",
      "city": "SANDOMIL",
      "lon": "-7.764927971146167",
      "lat": "40.34841391294384"
    },
    {
      "id": "pt.ine.add.PTCONT.1888998",
      "street": "BR DE S JOÃO",
      "house": "",
      "postcode": "6270-174",
      "city": "SANDOMIL",
      "lon": "-7.780025350997776",
      "lat": "40.35597167348664"
    }
  ]
}