{
  "data": {
    "distrito": "Ã‰vora",
    "concelho": "Montemor-O-Novo",
    "freguesia": "Santiago do Escoural",
    "OBJECTID": 487,
    "BGRI2021": "07060500155",
    "DT21": "07",
    "DTMN21": "0706",
    "DTMNFR21": "070605",
    "DTMNFRSEC21": "070605001",
    "SECNUM21": "001",
    "SSNUM21": "55",
    "SECSSNUM21": "00155",
    "OBJECTID_1": 61685,
    "DT": "07",
    "CC": "06",
    "fr": "05",
    "SEC": "001",
    "SS": "55"
  },
  "addresses": [
    {
      "id": "pt.ine.add.PTCONT.1368085",
      "street": "MTE DO LAGAR",
      "house": "",
      "postcode": "7050-524",
      "city": "SANTIAGO DO ESCOURAL",
      "lon": "-8.173579215943933",
      "lat": "38.548878922004484"
    },
    {
      "id": "pt.ine.add.PTCONT.1368701",
      "street": "MTE DA TORRE",
      "house": "",
      "postcode": "7050-524",
      "city": "SANTIAGO DO ESCOURAL",
      "lon": "-8.180710104647995",
      "lat": "38.57717171051698"
    },
    {
      "id": "pt.ine.add.PTCONT.1382359",
      "street": "MTE DO POMAR DA VALADINHA",
      "house": "",
      "postcode": "7050-524",
      "city": "SANTIAGO DO ESCOURAL",
      "lon": "-8.173332086587472",
      "lat": "38.558283820863004"
    },
    {
      "id": "pt.ine.add.PTCONT.1383068",
      "street": "MTE DO POMAR DA VALADINHA",
      "house": "",
      "postcode": "7050-524",
      "city": "SANTIAGO DO ESCOURAL",
      "lon": "-8.173240349022898",
      "lat": "38.55836492826164"
    },
    {
      "id": "pt.ine.add.PTCONT.1383069",
      "street": "MTE DO POMAR DA VALADINHA",
      "house": "",
      "postcode": "7050-524",
      "city": "SANTIAGO DO ESCOURAL",
      "lon": "-8.173240349022898",
      "lat": "38.55836492826164"
    },
    {
      "id": "pt.ine.add.PTCONT.1385312",
      "street": "MTE DO ZE",
      "house": "",
      "postcode": "7050-524",
      "city": "SANTIAGO DO ESCOURAL",
      "lon": "-8.17141546405829",
      "lat": "38.5570412995443"
    },
    {
      "id": "pt.ine.add.PTCONT.1387800",
      "street": "MTE POMARINHO DOS MONGES",
      "house": "CCI 2001",
      "postcode": "7050-524",
      "city": "SANTIAGO DO ESCOURAL",
      "lon": "-8.201335962283636",
      "lat": "38.569035918330535"
    },
    {
      "id": "pt.ine.add.PTCONT.1396716",
      "street": "MTE DA TAPADA",
      "house": "",
      "postcode": "7050-524",
      "city": "SANTIAGO DO ESCOURAL",
      "lon": "-8.172770516875708",
      "lat": "38.559374032999266"
    },
    {
      "id": "pt.ine.add.PTCONT.1404888",
      "street": "MTE CAEIRAS",
      "house": "",
      "postcode": "7050-524",
      "city": "SANTIAGO DO ESCOURAL",
      "lon": "-8.201344090972658",
      "lat": "38.57762993751322"
    },
    {
      "id": "pt.ine.add.PTCONT.1406407",
      "street": "SEM DESIGNACAO CCI",
      "house": "CCI 309",
      "postcode": "7050-524",
      "city": "SANTIAGO DO ESCOURAL",
      "lon": "-8.183727812459532",
      "lat": "38.57654886437332"
    },
    {
      "id": "pt.ine.add.PTCONT.1421473",
      "street": "MTE DO ZE",
      "house": "",
      "postcode": "7050-524",
      "city": "SANTIAGO DO ESCOURAL",
      "lon": "-8.171151455799322",
      "lat": "38.55678014095726"
    },
    {
      "id": "pt.ine.add.PTCONT.1425859",
      "street": "MTE DA TAPADA",
      "house": "",
      "postcode": "7050-524",
      "city": "SANTIAGO DO ESCOURAL",
      "lon": "-8.172759152750988",
      "lat": "38.55957222237833"
    },
    {
      "id": "pt.ine.add.PTCONT.1438000",
      "street": "MTE DO ZE",
      "house": "",
      "postcode": "7050-524",
      "city": "SANTIAGO DO ESCOURAL",
      "lon": "-8.171048155121849",
      "lat": "38.556690090106166"
    },
    {
      "id": "pt.ine.add.PTCONT.1443266",
      "street": "MTE DA TADADA",
      "house": "",
      "postcode": "7050-524",
      "city": "SANTIAGO DO ESCOURAL",
      "lon": "-8.172885227056197",
      "lat": "38.55933796034614"
    },
    {
      "id": "pt.ine.add.PTCONT.1446396",
      "street": "MTE DO POMAR DO MEIO",
      "house": "",
      "postcode": "7050-524",
      "city": "SANTIAGO DO ESCOURAL",
      "lon": "-8.172241835541776",
      "lat": "38.55767161677544"
    },
    {
      "id": "pt.ine.add.PTCONT.1454754",
      "street": "SEM DESIGNACAO CCI",
      "house": "CCI 309",
      "postcode": "7050-524",
      "city": "SANTIAGO DO ESCOURAL",
      "lon": "-8.184955443973967",
      "lat": "38.57616997395692"
    },
    {
      "id": "pt.ine.add.PTCONT.1459102",
      "street": "MTE DA TORRE",
      "house": "",
      "postcode": "7050-524",
      "city": "SANTIAGO DO ESCOURAL",
      "lon": "-8.181226673392738",
      "lat": "38.57740571784257"
    },
    {
      "id": "pt.ine.add.PTCONT.1463086",
      "street": "QTA DA TORRE",
      "house": "",
      "postcode": "7050-524",
      "city": "SANTIAGO DO ESCOURAL",
      "lon": "-8.183888441019088",
      "lat": "38.57650375276588"
    },
    {
      "id": "pt.ine.add.PTCONT.1465944",
      "street": "MTE POMARINHO DOS MONGES",
      "house": "CCI 2001",
      "postcode": "7050-524",
      "city": "SANTIAGO DO ESCOURAL",
      "lon": "-8.200888370793187",
      "lat": "38.568946094178656"
    }
  ]
}