{
  "data": {
    "distrito": "Beja",
    "concelho": "Beja",
    "freguesia": "Uni√£o das freguesias de Salvada e Quintos",
    "OBJECTID": 592,
    "BGRI2021": "02052200209",
    "DT21": "02",
    "DTMN21": "0205",
    "DTMNFR21": "020522",
    "DTMNFRSEC21": "020522002",
    "SECNUM21": "002",
    "SSNUM21": "09",
    "SECSSNUM21": "00209",
    "OBJECTID_1": 14175,
    "DT": "02",
    "CC": "05",
    "fr": "22",
    "SEC": "002",
    "SS": "09"
  },
  "addresses": [
    {
      "id": "pt.ine.add.PTCONT.360189",
      "street": "MTE CALICA NOVA",
      "house": "",
      "postcode": "7800-661",
      "city": "QUINTOS",
      "lon": "-7.697887118180222",
      "lat": "37.86231816423788"
    },
    {
      "id": "pt.ine.add.PTCONT.360483",
      "street": "MTE BROCO NOVO",
      "house": "",
      "postcode": "7800-661",
      "city": "QUINTOS",
      "lon": "-7.719316679748777",
      "lat": "37.887234418723196"
    },
    {
      "id": "pt.ine.add.PTCONT.376752",
      "street": "MTE BROCO DE BAIXO",
      "house": "",
      "postcode": "7800-661",
      "city": "QUINTOS",
      "lon": "-7.701146919111189",
      "lat": "37.87817775636939"
    },
    {
      "id": "pt.ine.add.PTCONT.388738",
      "street": "MTE DELGADO",
      "house": "",
      "postcode": "7800-661",
      "city": "QUINTOS",
      "lon": "-7.721019403180099",
      "lat": "37.8917541043489"
    },
    {
      "id": "pt.ine.add.PTCONT.421038",
      "street": "MTE ALHINHO",
      "house": "",
      "postcode": "7800-661",
      "city": "QUINTOS",
      "lon": "-7.713319111713273",
      "lat": "37.89242061982364"
    },
    {
      "id": "pt.ine.add.PTCONT.424303",
      "street": "MTE BROCO DO MEIOO",
      "house": "",
      "postcode": "7800-661",
      "city": "QUINTOS",
      "lon": "-7.715511363514237",
      "lat": "37.87665293551161"
    },
    {
      "id": "pt.ine.add.PTCONT.427433",
      "street": "MTE BROCO",
      "house": "",
      "postcode": "7800-661",
      "city": "QUINTOS",
      "lon": "-7.710950572886568",
      "lat": "37.885132550163604"
    },
    {
      "id": "pt.ine.add.PTCONT.445398",
      "street": "MTE BROCO DE CIMA",
      "house": "",
      "postcode": "7800-661",
      "city": "QUINTOS",
      "lon": "-7.7258925195743355",
      "lat": "37.88215802024986"
    }
  ]
}