{
  "data": {
    "distrito": "Faro",
    "concelho": "Portimão",
    "freguesia": "Portimão",
    "OBJECTID": 480,
    "BGRI2021": "08110305205",
    "DT21": "08",
    "DTMN21": "0811",
    "DTMNFR21": "081103",
    "DTMNFRSEC21": "081103052",
    "SECNUM21": "052",
    "SSNUM21": "05",
    "SECSSNUM21": "05205",
    "OBJECTID_1": 70891,
    "DT": "08",
    "CC": "11",
    "fr": "03",
    "SEC": "052",
    "SS": "05"
  },
  "addresses": [
    {
      "id": "pt.ine.add.PTCONT.1479867",
      "street": "SIT ALFARROBEIRAS",
      "house": "",
      "postcode": "8500-324",
      "city": "PORTIMÃO",
      "lon": "-8.561973042152607",
      "lat": "37.17180845276772"
    },
    {
      "id": "pt.ine.add.PTCONT.1479868",
      "street": "SIT ALFARROBEIRAS",
      "house": "4",
      "postcode": "8500-324",
      "city": "PORTIMÃO",
      "lon": "-8.562074378104866",
      "lat": "37.171808085971215"
    },
    {
      "id": "pt.ine.add.PTCONT.1486368",
      "street": "SIT ALFARROBEIRAS",
      "house": "",
      "postcode": "8500-324",
      "city": "PORTIMÃO",
      "lon": "-8.561794110985744",
      "lat": "37.17202535205889"
    },
    {
      "id": "pt.ine.add.PTCONT.1490364",
      "street": "VALE DA ARRANCADA",
      "house": "",
      "postcode": "8500-300",
      "city": "PORTIMÃO",
      "lon": "-8.553507367873744",
      "lat": "37.16398163132198"
    },
    {
      "id": "pt.ine.add.PTCONT.1495289",
      "street": "SIT ALFARROBEIRAS",
      "house": "",
      "postcode": "8500-324",
      "city": "PORTIMÃO",
      "lon": "-8.561638359521647",
      "lat": "37.17235930365799"
    },
    {
      "id": "pt.ine.add.PTCONT.1495290",
      "street": "SIT ALFARROBEIRAS",
      "house": "",
      "postcode": "8500-324",
      "city": "PORTIMÃO",
      "lon": "-8.561638359521647",
      "lat": "37.17235930365799"
    },
    {
      "id": "pt.ine.add.PTCONT.1501149",
      "street": "R VALE CASA GENEROSO",
      "house": "",
      "postcode": "8500-469",
      "city": "PORTIMÃO",
      "lon": "-8.556153653917262",
      "lat": "37.16205297580419"
    },
    {
      "id": "pt.ine.add.PTCONT.1517161",
      "street": "SIT ALFARROBEIRAS",
      "house": "",
      "postcode": "8500-324",
      "city": "PORTIMÃO",
      "lon": "-8.562074887454859",
      "lat": "37.171898189061544"
    },
    {
      "id": "pt.ine.add.PTCONT.1517162",
      "street": "SIT ALFARROBEIRAS",
      "house": "",
      "postcode": "8500-324",
      "city": "PORTIMÃO",
      "lon": "-8.562074887454859",
      "lat": "37.171898189061544"
    },
    {
      "id": "pt.ine.add.PTCONT.1534859",
      "street": "QTA DONALDA",
      "house": "1",
      "postcode": "8500-324",
      "city": "PORTIMÃO",
      "lon": "-8.561895310700047",
      "lat": "37.16801531507376"
    },
    {
      "id": "pt.ine.add.PTCONT.1559837",
      "street": "SIT ALFARROBEIRAS",
      "house": "",
      "postcode": "8500-324",
      "city": "PORTIMÃO",
      "lon": "-8.56177204991503",
      "lat": "37.17210652630545"
    },
    {
      "id": "pt.ine.add.PTCONT.1570712",
      "street": "SIT ALFARROBEIRAS",
      "house": "2",
      "postcode": "8500-324",
      "city": "PORTIMÃO",
      "lon": "-8.562073512215072",
      "lat": "37.17165491071447"
    },
    {
      "id": "pt.ine.add.PTCONT.1574905",
      "street": "SIT ALFARROBEIRAS",
      "house": "",
      "postcode": "8500-324",
      "city": "PORTIMÃO",
      "lon": "-8.561772813410657",
      "lat": "37.172241680938946"
    },
    {
      "id": "pt.ine.add.PTCONT.1576955",
      "street": "SIT ALFARROBEIRAS",
      "house": "3",
      "postcode": "8500-324",
      "city": "PORTIMÃO",
      "lon": "-8.562051451547545",
      "lat": "37.171736085015574"
    },
    {
      "id": "pt.ine.add.PTCONT.1596622",
      "street": "SIT ALFARROBEIRAS",
      "house": "",
      "postcode": "8500-324",
      "city": "PORTIMÃO",
      "lon": "-8.562075906161645",
      "lat": "37.17207839523808"
    },
    {
      "id": "pt.ine.add.PTCONT.1634267",
      "street": "VALE DA ARRANCADA",
      "house": "",
      "postcode": "8500-300",
      "city": "PORTIMÃO",
      "lon": "-8.555161100179722",
      "lat": "37.1637504905266"
    },
    {
      "id": "pt.ine.add.PTCONT.1655702",
      "street": "SIT ALFARROBEIRAS",
      "house": "",
      "postcode": "8500-324",
      "city": "PORTIMÃO",
      "lon": "-8.56184984890521",
      "lat": "37.17192603497751"
    },
    {
      "id": "pt.ine.add.PTCONT.1674202",
      "street": "SIT ALFARROBEIRAS",
      "house": "",
      "postcode": "8500-324",
      "city": "PORTIMÃO",
      "lon": "-8.561962444583887",
      "lat": "37.171925627536446"
    },
    {
      "id": "pt.ine.add.PTCONT.1683495",
      "street": "ESTEVÃO",
      "house": "",
      "postcode": "8500-324",
      "city": "PORTIMÃO",
      "lon": "-8.56205394724428",
      "lat": "37.17217759015172"
    },
    {
      "id": "pt.ine.add.PTCONT.1693863",
      "street": "VALE DA ARRANCADA",
      "house": "",
      "postcode": "8500-300",
      "city": "PORTIMÃO",
      "lon": "-8.554776263564348",
      "lat": "37.16338242962445"
    },
    {
      "id": "pt.ine.add.PTCONT.1694628",
      "street": "SIT ARNEIRO",
      "house": "",
      "postcode": "8500-324",
      "city": "PORTIMÃO",
      "lon": "-8.556804976947483",
      "lat": "37.175872755173295"
    },
    {
      "id": "pt.ine.add.PTCONT.1713899",
      "street": "R VALE ARRANCADA",
      "house": "",
      "postcode": "8500-469",
      "city": "PORTIMÃO",
      "lon": "-8.554166315524165",
      "lat": "37.16302417798286"
    },
    {
      "id": "pt.ine.add.PTCONT.1713900",
      "street": "R VALE ARRANCADA",
      "house": "",
      "postcode": "8500-469",
      "city": "PORTIMÃO",
      "lon": "-8.554166315524165",
      "lat": "37.16302417798286"
    },
    {
      "id": "pt.ine.add.PTCONT.1732600",
      "street": "SIT ALFARROBEIRAS",
      "house": "",
      "postcode": "8500-324",
      "city": "PORTIMÃO",
      "lon": "-8.562065767129901",
      "lat": "37.17227666278602"
    },
    {
      "id": "pt.ine.add.PTCONT.1743104",
      "street": "SIT ALFARROBEIRAS",
      "house": "",
      "postcode": "8500-324",
      "city": "PORTIMÃO",
      "lon": "-8.562075447742467",
      "lat": "37.17199730245931"
    },
    {
      "id": "pt.ine.add.PTCONT.1745872",
      "street": "SIT ALFARROBEIRAS",
      "house": "",
      "postcode": "8500-324",
      "city": "PORTIMÃO",
      "lon": "-8.56192917505967",
      "lat": "37.17201585287026"
    },
    {
      "id": "pt.ine.add.PTCONT.1746756",
      "street": "SIT ALFARROBEIRAS",
      "house": "1",
      "postcode": "8500-324",
      "city": "PORTIMÃO",
      "lon": "-8.562039326189504",
      "lat": "37.17158295051351"
    },
    {
      "id": "pt.ine.add.PTCONT.1747926",
      "street": "SIT ALFARROBEIRAS",
      "house": "",
      "postcode": "8500-324",
      "city": "PORTIMÃO",
      "lon": "-8.5617156501547",
      "lat": "37.17208870933157"
    },
    {
      "id": "pt.ine.add.PTCONT.1750156",
      "street": "R POETA ANTÓNIO ALEIXO",
      "house": "",
      "postcode": "8500-469",
      "city": "PORTIMÃO",
      "lon": "-8.56198815266913",
      "lat": "37.1625275825135"
    },
    {
      "id": "pt.ine.add.PTCONT.1770539",
      "street": "SIT ALFARROBEIRAS",
      "house": "",
      "postcode": "8500-324",
      "city": "PORTIMÃO",
      "lon": "-8.561828296982918",
      "lat": "37.172097312325455"
    },
    {
      "id": "pt.ine.add.PTCONT.1776382",
      "street": "SIT ALFARROBEIRAS",
      "house": "",
      "postcode": "8500-324",
      "city": "PORTIMÃO",
      "lon": "-8.562086911067658",
      "lat": "37.17203330293361"
    },
    {
      "id": "pt.ine.add.PTCONT.1782507",
      "street": "SIT ARNEIRO",
      "house": "",
      "postcode": "8500-324",
      "city": "PORTIMÃO",
      "lon": "-8.56007150094747",
      "lat": "37.17004926242313"
    },
    {
      "id": "pt.ine.add.PTCONT.1794206",
      "street": "SIT ALFARROBEIRAS",
      "house": "",
      "postcode": "8500-324",
      "city": "PORTIMÃO",
      "lon": "-8.561964634242756",
      "lat": "37.172313070813054"
    },
    {
      "id": "pt.ine.add.PTCONT.1804099",
      "street": "QTA DONALDA",
      "house": "734",
      "postcode": "8500-324",
      "city": "PORTIMÃO",
      "lon": "-8.562066130743462",
      "lat": "37.168357095817946"
    },
    {
      "id": "pt.ine.add.PTCONT.1811706",
      "street": "QTA DONALDA",
      "house": "3",
      "postcode": "8500-324",
      "city": "PORTIMÃO",
      "lon": "-8.561615870947216",
      "lat": "37.16837674583138"
    },
    {
      "id": "pt.ine.add.PTCONT.1814433",
      "street": "QTA DONALDA",
      "house": "3",
      "postcode": "8500-324",
      "city": "PORTIMÃO",
      "lon": "-8.556996299003252",
      "lat": "37.175854049929335"
    },
    {
      "id": "pt.ine.add.PTCONT.1823032",
      "street": "SIT ALFARROBEIRAS",
      "house": "",
      "postcode": "8500-324",
      "city": "PORTIMÃO",
      "lon": "-8.561929582404622",
      "lat": "37.17208793534145"
    }
  ]
}