{
  "data": {
    "distrito": "Coimbra",
    "concelho": "Cantanhede",
    "freguesia": "União das freguesias de Cantanhede e Pocariça",
    "OBJECTID": 362,
    "BGRI2021": "06022000815",
    "DT21": "06",
    "DTMN21": "0602",
    "DTMNFR21": "060220",
    "DTMNFRSEC21": "060220008",
    "SECNUM21": "008",
    "SSNUM21": "15",
    "SECSSNUM21": "00815",
    "OBJECTID_1": 48422,
    "DT": "06",
    "CC": "02",
    "fr": "20",
    "SEC": "008",
    "SS": "15"
  },
  "addresses": [
    {
      "id": "pt.ine.add.PTCONT.1133196",
      "street": "EN 234 (ESTRADA DA MEALHADA)",
      "house": "40",
      "postcode": "3060-127",
      "city": "CANTANHEDE",
      "lon": "-8.58047865449117",
      "lat": "40.34996286669616"
    },
    {
      "id": "pt.ine.add.PTCONT.1138096",
      "street": "AV PORTUGAL",
      "house": "11",
      "postcode": "3060-124",
      "city": "CANTANHEDE",
      "lon": "-8.583604904784035",
      "lat": "40.34924829504876"
    },
    {
      "id": "pt.ine.add.PTCONT.1157273",
      "street": "AV PROF ANIBAL DE OLIVEIRA",
      "house": "8",
      "postcode": "3060-851",
      "city": "CANTANHEDE",
      "lon": "-8.583635961041784",
      "lat": "40.34860877584826"
    },
    {
      "id": "pt.ine.add.PTCONT.1165436",
      "street": "AV PROF ANIBAL DE OLIVEIRA",
      "house": "4",
      "postcode": "3060-851",
      "city": "CANTANHEDE",
      "lon": "-8.583906614627287",
      "lat": "40.348598715684545"
    },
    {
      "id": "pt.ine.add.PTCONT.1184793",
      "street": "AV PROF ANIBAL DE OLIVEIRA",
      "house": "14",
      "postcode": "3060-851",
      "city": "CANTANHEDE",
      "lon": "-8.583156437479738",
      "lat": "40.349069928741045"
    },
    {
      "id": "pt.ine.add.PTCONT.1194987",
      "street": "AV PROF ANIBAL DE OLIVEIRA",
      "house": "16",
      "postcode": "3060-851",
      "city": "CANTANHEDE",
      "lon": "-8.5830391540315",
      "lat": "40.3491334242953"
    },
    {
      "id": "pt.ine.add.PTCONT.1221170",
      "street": "R CHÃO DO CONDE",
      "house": "435",
      "postcode": "3060-852",
      "city": "CANTANHEDE",
      "lon": "-8.58303757942",
      "lat": "40.34712517932153"
    },
    {
      "id": "pt.ine.add.PTCONT.1221908",
      "street": "AV PORTUGAL",
      "house": "",
      "postcode": "3060-124",
      "city": "CANTANHEDE",
      "lon": "-8.580855562671541",
      "lat": "40.34644021448442"
    },
    {
      "id": "pt.ine.add.PTCONT.1247954",
      "street": "AV PROF ANIBAL DE OLIVEIRA",
      "house": "18",
      "postcode": "3060-851",
      "city": "CANTANHEDE",
      "lon": "-8.582792816204408",
      "lat": "40.34926046081049"
    },
    {
      "id": "pt.ine.add.PTCONT.1270424",
      "street": "R CHÃO DO CONDE",
      "house": "100",
      "postcode": "3060-852",
      "city": "CANTANHEDE",
      "lon": "-8.581920085063391",
      "lat": "40.349002687930714"
    },
    {
      "id": "pt.ine.add.PTCONT.1280887",
      "street": "AV PROF ANIBAL DE OLIVEIRA",
      "house": "6",
      "postcode": "3060-851",
      "city": "CANTANHEDE",
      "lon": "-8.583741892430119",
      "lat": "40.348608363180595"
    },
    {
      "id": "pt.ine.add.PTCONT.1289175",
      "street": "AV PROF ANIBAL DE OLIVEIRA",
      "house": "10",
      "postcode": "3060-851",
      "city": "CANTANHEDE",
      "lon": "-8.58350756763463",
      "lat": "40.34877137685739"
    },
    {
      "id": "pt.ine.add.PTCONT.1336347",
      "street": "AV PROF ANIBAL DE OLIVEIRA",
      "house": "20",
      "postcode": "3060-851",
      "city": "CANTANHEDE",
      "lon": "-8.582628570541411",
      "lat": "40.34934214973831"
    },
    {
      "id": "pt.ine.add.PTCONT.1352016",
      "street": "AV PROF ANIBAL DE OLIVEIRA",
      "house": "38",
      "postcode": "3060-851",
      "city": "CANTANHEDE",
      "lon": "-8.580796633784967",
      "lat": "40.349988653175146"
    },
    {
      "id": "pt.ine.add.PTCONT.1367044",
      "street": "R CHÃO DO CONDE",
      "house": "72",
      "postcode": "3060-852",
      "city": "CANTANHEDE",
      "lon": "-8.582050512938498",
      "lat": "40.349146271498924"
    }
  ]
}