{
  "data": {
    "distrito": "Beja",
    "concelho": "Odemira",
    "freguesia": "São Salvador e Santa Maria",
    "OBJECTID": 260,
    "BGRI2021": "02112000341",
    "DT21": "02",
    "DTMN21": "0211",
    "DTMNFR21": "021120",
    "DTMNFRSEC21": "021120003",
    "SECNUM21": "003",
    "SSNUM21": "41",
    "SECSSNUM21": "00341",
    "OBJECTID_1": 16977,
    "DT": "02",
    "CC": "11",
    "fr": "20",
    "SEC": "003",
    "SS": "41"
  },
  "addresses": [
    {
      "id": "pt.ine.add.PTCONT.458187",
      "street": "RONCANITO",
      "house": "",
      "postcode": "7630-013",
      "city": "ODEMIRA",
      "lon": "-8.687568650124412",
      "lat": "37.615467852626004"
    },
    {
      "id": "pt.ine.add.PTCONT.352931",
      "street": "MOINHO DO ALÉM",
      "house": "",
      "postcode": "7630-013",
      "city": "ODEMIRA",
      "lon": "-8.683010273242912",
      "lat": "37.61014638222176"
    },
    {
      "id": "pt.ine.add.PTCONT.355337",
      "street": "MTE FLOR DO PEREIRO",
      "house": "",
      "postcode": "7630-013",
      "city": "ODEMIRA",
      "lon": "-8.692044182274806",
      "lat": "37.60812178782482"
    },
    {
      "id": "pt.ine.add.PTCONT.355338",
      "street": "MTE FLOR DO PEREIRO",
      "house": "",
      "postcode": "7630-013",
      "city": "ODEMIRA",
      "lon": "-8.692044182274806",
      "lat": "37.60812178782482"
    },
    {
      "id": "pt.ine.add.PTCONT.363488",
      "street": "MTE DE ESPICHA",
      "house": "",
      "postcode": "7630-208",
      "city": "ODEMIRA",
      "lon": "-8.677183500939947",
      "lat": "37.59695601619666"
    },
    {
      "id": "pt.ine.add.PTCONT.363489",
      "street": "MTE DE ESPICHA",
      "house": "",
      "postcode": "7630-208",
      "city": "ODEMIRA",
      "lon": "-8.673807278643086",
      "lat": "37.598268944228096"
    },
    {
      "id": "pt.ine.add.PTCONT.364319",
      "street": "RONCANITO",
      "house": "",
      "postcode": "7630-013",
      "city": "ODEMIRA",
      "lon": "-8.68924641142473",
      "lat": "37.61414453014244"
    },
    {
      "id": "pt.ine.add.PTCONT.365903",
      "street": "MTE FLOR DO PEREIRO",
      "house": "",
      "postcode": "7630-013",
      "city": "ODEMIRA",
      "lon": "-8.693344869868291",
      "lat": "37.609404019347515"
    },
    {
      "id": "pt.ine.add.PTCONT.366885",
      "street": "R DA FONTE",
      "house": "",
      "postcode": "7630-013",
      "city": "ODEMIRA",
      "lon": "-8.692892489757092",
      "lat": "37.60495533158972"
    },
    {
      "id": "pt.ine.add.PTCONT.367573",
      "street": "MTE CAEIRO",
      "house": "",
      "postcode": "7630-208",
      "city": "ODEMIRA",
      "lon": "-8.674850286906176",
      "lat": "37.59687665083862"
    },
    {
      "id": "pt.ine.add.PTCONT.368351",
      "street": "TERRAS NOVAS MONTINHO DOS ALHOS",
      "house": "",
      "postcode": "7630-208",
      "city": "ODEMIRA",
      "lon": "-8.675912499421308",
      "lat": "37.60280923136466"
    },
    {
      "id": "pt.ine.add.PTCONT.370004",
      "street": "MTE FLOR DO PEREIRO",
      "house": "",
      "postcode": "7630-013",
      "city": "ODEMIRA",
      "lon": "-8.693914325108366",
      "lat": "37.608320140558135"
    },
    {
      "id": "pt.ine.add.PTCONT.372525",
      "street": "MTE DO BEMPARECE",
      "house": "",
      "postcode": "7630-208",
      "city": "ODEMIRA",
      "lon": "-8.666543559075597",
      "lat": "37.599121890704126"
    },
    {
      "id": "pt.ine.add.PTCONT.377296",
      "street": "MTE DE ESPICHA",
      "house": "",
      "postcode": "7630-208",
      "city": "ODEMIRA",
      "lon": "-8.676294935438138",
      "lat": "37.59778000152451"
    },
    {
      "id": "pt.ine.add.PTCONT.378849",
      "street": "MTE DE ESPICHA",
      "house": "",
      "postcode": "7630-208",
      "city": "ODEMIRA",
      "lon": "-8.676901603465542",
      "lat": "37.597119491913475"
    },
    {
      "id": "pt.ine.add.PTCONT.380455",
      "street": "RONCANITO",
      "house": "",
      "postcode": "7630-013",
      "city": "ODEMIRA",
      "lon": "-8.690032288888233",
      "lat": "37.61321281672817"
    },
    {
      "id": "pt.ine.add.PTCONT.381267",
      "street": "FOROS DA BARRADINHA",
      "house": "",
      "postcode": "7630-208",
      "city": "ODEMIRA",
      "lon": "-8.679267233641795",
      "lat": "37.603181175445094"
    },
    {
      "id": "pt.ine.add.PTCONT.381268",
      "street": "FOROS DA BARRADINHA",
      "house": "",
      "postcode": "7630-208",
      "city": "ODEMIRA",
      "lon": "-8.679267233641795",
      "lat": "37.603181175445094"
    },
    {
      "id": "pt.ine.add.PTCONT.383032",
      "street": "MOINHO DO ALÉM",
      "house": "",
      "postcode": "7630-013",
      "city": "ODEMIRA",
      "lon": "-8.683955344659939",
      "lat": "37.612367391187185"
    },
    {
      "id": "pt.ine.add.PTCONT.383862",
      "street": "FOROS DA BARRADINHA",
      "house": "",
      "postcode": "7630-208",
      "city": "ODEMIRA",
      "lon": "-8.678857724996844",
      "lat": "37.6029307955022"
    },
    {
      "id": "pt.ine.add.PTCONT.387727",
      "street": "RONCANITO",
      "house": "",
      "postcode": "7630-013",
      "city": "ODEMIRA",
      "lon": "-8.692308751052003",
      "lat": "37.61774297729698"
    },
    {
      "id": "pt.ine.add.PTCONT.388619",
      "street": "TERRAS NOVAS MONTINHO DOS ALHOS",
      "house": "",
      "postcode": "7630-208",
      "city": "ODEMIRA",
      "lon": "-8.676727237101456",
      "lat": "37.60272439310341"
    },
    {
      "id": "pt.ine.add.PTCONT.388630",
      "street": "TERRAS NOVAS MONTINHO DOS ALHOS",
      "house": "",
      "postcode": "7630-208",
      "city": "ODEMIRA",
      "lon": "-8.675817653135335",
      "lat": "37.60222403054631"
    },
    {
      "id": "pt.ine.add.PTCONT.389284",
      "street": "RONCANITO",
      "house": "",
      "postcode": "7630-013",
      "city": "ODEMIRA",
      "lon": "-8.689217748576533",
      "lat": "37.61637908957594"
    },
    {
      "id": "pt.ine.add.PTCONT.390106",
      "street": "MOINHO DO ALÉM",
      "house": "",
      "postcode": "7630-013",
      "city": "ODEMIRA",
      "lon": "-8.682783093294585",
      "lat": "37.61253288636582"
    },
    {
      "id": "pt.ine.add.PTCONT.392538",
      "street": "MTE DO ALICATE",
      "house": "",
      "postcode": "7630-013",
      "city": "ODEMIRA",
      "lon": "-8.699597410910574",
      "lat": "37.619978672857265"
    },
    {
      "id": "pt.ine.add.PTCONT.393344",
      "street": "RONCANITO",
      "house": "",
      "postcode": "7630-013",
      "city": "ODEMIRA",
      "lon": "-8.675509558947793",
      "lat": "37.6190557308175"
    },
    {
      "id": "pt.ine.add.PTCONT.396671",
      "street": "TERRAS NOVAS",
      "house": "",
      "postcode": "7630-208",
      "city": "ODEMIRA",
      "lon": "-8.676902452923873",
      "lat": "37.60190369408294"
    },
    {
      "id": "pt.ine.add.PTCONT.396707",
      "street": "TANAZÃO",
      "house": "",
      "postcode": "7630-013",
      "city": "ODEMIRA",
      "lon": "-8.701272109094933",
      "lat": "37.6182677755167"
    },
    {
      "id": "pt.ine.add.PTCONT.397368",
      "street": "TERRAS NOVAS MONTINHO DOS ALHOS",
      "house": "",
      "postcode": "7630-208",
      "city": "ODEMIRA",
      "lon": "-8.676334882438882",
      "lat": "37.601753141289166"
    },
    {
      "id": "pt.ine.add.PTCONT.397369",
      "street": "MTE FLOR DO PEREIRO",
      "house": "",
      "postcode": "7630-013",
      "city": "ODEMIRA",
      "lon": "-8.69361267982419",
      "lat": "37.60887117045099"
    },
    {
      "id": "pt.ine.add.PTCONT.398232",
      "street": "MTE DE ESPICHA",
      "house": "",
      "postcode": "7630-208",
      "city": "ODEMIRA",
      "lon": "-8.67793686980458",
      "lat": "37.59778144312348"
    },
    {
      "id": "pt.ine.add.PTCONT.398233",
      "street": "EN 393",
      "house": "",
      "postcode": "7630-013",
      "city": "ODEMIRA",
      "lon": "-8.696624338532281",
      "lat": "37.60425282729165"
    },
    {
      "id": "pt.ine.add.PTCONT.399806",
      "street": "MTE MESA RUIVA",
      "house": "",
      "postcode": "7630-208",
      "city": "ODEMIRA",
      "lon": "-8.674243667809955",
      "lat": "37.597546159567045"
    },
    {
      "id": "pt.ine.add.PTCONT.402323",
      "street": "MTE NOVO DA FLOR DO PEREIRO",
      "house": "",
      "postcode": "7630-013",
      "city": "ODEMIRA",
      "lon": "-8.692989562603067",
      "lat": "37.61035173271872"
    },
    {
      "id": "pt.ine.add.PTCONT.404767",
      "street": "TERRAS NOVAS MONTINHO DOS ALHOS - MONTE DA PARREIRA",
      "house": "",
      "postcode": "7630-208",
      "city": "ODEMIRA",
      "lon": "-8.674422196959839",
      "lat": "37.59874364525448"
    },
    {
      "id": "pt.ine.add.PTCONT.404768",
      "street": "MTE DE ESPICHA",
      "house": "",
      "postcode": "7630-208",
      "city": "ODEMIRA",
      "lon": "-8.676171689504013",
      "lat": "37.59796076482469"
    },
    {
      "id": "pt.ine.add.PTCONT.404769",
      "street": "RONCANITO",
      "house": "",
      "postcode": "7630-013",
      "city": "ODEMIRA",
      "lon": "-8.688004133558072",
      "lat": "37.614627896430164"
    },
    {
      "id": "pt.ine.add.PTCONT.408005",
      "street": "MONTINHO DOS ALHOS",
      "house": "",
      "postcode": "7630-208",
      "city": "ODEMIRA",
      "lon": "-8.678615644518496",
      "lat": "37.602346277778516"
    },
    {
      "id": "pt.ine.add.PTCONT.411286",
      "street": "ESPARGAL",
      "house": "",
      "postcode": "7630-208",
      "city": "ODEMIRA",
      "lon": "-8.659501934725066",
      "lat": "37.61383948181601"
    },
    {
      "id": "pt.ine.add.PTCONT.411995",
      "street": "RONCANITO",
      "house": "",
      "postcode": "7630-013",
      "city": "ODEMIRA",
      "lon": "-8.68064460563916",
      "lat": "37.619599630999886"
    },
    {
      "id": "pt.ine.add.PTCONT.414435",
      "street": "MTE DO BEMPARECE",
      "house": "",
      "postcode": "7630-208",
      "city": "ODEMIRA",
      "lon": "-8.6670284074082",
      "lat": "37.59883138440852"
    },
    {
      "id": "pt.ine.add.PTCONT.416030",
      "street": "RONCANITO",
      "house": "",
      "postcode": "7630-013",
      "city": "ODEMIRA",
      "lon": "-8.687948241097113",
      "lat": "37.61472726678743"
    },
    {
      "id": "pt.ine.add.PTCONT.417599",
      "street": "TERRAS NOVAS MONTINHO DOS ALHOS",
      "house": "CP 6539",
      "postcode": "7630-208",
      "city": "ODEMIRA",
      "lon": "-8.678312230024503",
      "lat": "37.599563651154405"
    },
    {
      "id": "pt.ine.add.PTCONT.418414",
      "street": "MTE DO BEMPARECE",
      "house": "",
      "postcode": "7630-208",
      "city": "ODEMIRA",
      "lon": "-8.67053600641949",
      "lat": "37.598446062153435"
    },
    {
      "id": "pt.ine.add.PTCONT.419205",
      "street": "MOINHO DO ALÉM",
      "house": "",
      "postcode": "7630-013",
      "city": "ODEMIRA",
      "lon": "-8.682662377387723",
      "lat": "37.610580472541415"
    },
    {
      "id": "pt.ine.add.PTCONT.419341",
      "street": "RONCANITO",
      "house": "",
      "postcode": "7630-013",
      "city": "ODEMIRA",
      "lon": "-8.689555850931608",
      "lat": "37.61615225137888"
    },
    {
      "id": "pt.ine.add.PTCONT.420031",
      "street": "RONCANITO",
      "house": "",
      "postcode": "7630-013",
      "city": "ODEMIRA",
      "lon": "-8.689840157577176",
      "lat": "37.613267781993315"
    },
    {
      "id": "pt.ine.add.PTCONT.420812",
      "street": "MTE BASARENHA - RONCANITO",
      "house": "",
      "postcode": "7630-013",
      "city": "ODEMIRA",
      "lon": "-8.6911188238457",
      "lat": "37.62523572533766"
    },
    {
      "id": "pt.ine.add.PTCONT.421644",
      "street": "MTE DO ALICATE",
      "house": "",
      "postcode": "7630-013",
      "city": "ODEMIRA",
      "lon": "-8.699709787590688",
      "lat": "37.61986100636976"
    },
    {
      "id": "pt.ine.add.PTCONT.425725",
      "street": "RONCANITO",
      "house": "",
      "postcode": "7630-013",
      "city": "ODEMIRA",
      "lon": "-8.692599452413871",
      "lat": "37.617237052157144"
    },
    {
      "id": "pt.ine.add.PTCONT.426361",
      "street": "MTE CASA NOVA DO CAEIRO",
      "house": "",
      "postcode": "7630-208",
      "city": "ODEMIRA",
      "lon": "-8.672520524381776",
      "lat": "37.59727474347627"
    },
    {
      "id": "pt.ine.add.PTCONT.426484",
      "street": "MTE CASA NOVA DO CAEIRO",
      "house": "",
      "postcode": "7630-208",
      "city": "ODEMIRA",
      "lon": "-8.672520524381776",
      "lat": "37.59727474347627"
    },
    {
      "id": "pt.ine.add.PTCONT.427342",
      "street": "TERRAS NOVAS MONTINHO DOS ALHOS - MONTE DA PARREIRA",
      "house": "",
      "postcode": "7630-208",
      "city": "ODEMIRA",
      "lon": "-8.674693696939967",
      "lat": "37.59870636047142"
    },
    {
      "id": "pt.ine.add.PTCONT.427975",
      "street": "TANAZÃO",
      "house": "",
      "postcode": "7630-013",
      "city": "ODEMIRA",
      "lon": "-8.701477491208943",
      "lat": "37.618465001294936"
    },
    {
      "id": "pt.ine.add.PTCONT.441293",
      "street": "MTE FLOR DO PEREIRO",
      "house": "CP 6520",
      "postcode": "7630-013",
      "city": "ODEMIRA",
      "lon": "-8.693467822169966",
      "lat": "37.60918720079507"
    },
    {
      "id": "pt.ine.add.PTCONT.443754",
      "street": "TERRAS NOVAS MONTINHO DOS ALHOS",
      "house": "",
      "postcode": "7630-208",
      "city": "ODEMIRA",
      "lon": "-8.676238602765935",
      "lat": "37.60249238806176"
    },
    {
      "id": "pt.ine.add.PTCONT.444403",
      "street": "TERRAS NOVAS MONTINHO DOS ALHOS",
      "house": "",
      "postcode": "7630-208",
      "city": "ODEMIRA",
      "lon": "-8.675747288358084",
      "lat": "37.60189099146578"
    },
    {
      "id": "pt.ine.add.PTCONT.444404",
      "street": "MTE VALE CIGARRAS",
      "house": "",
      "postcode": "7630-013",
      "city": "ODEMIRA",
      "lon": "-8.69930015747457",
      "lat": "37.60915936255468"
    },
    {
      "id": "pt.ine.add.PTCONT.445296",
      "street": "MTE FLOR DO PEREIRO",
      "house": "",
      "postcode": "7630-013",
      "city": "ODEMIRA",
      "lon": "-8.693735630487293",
      "lat": "37.608654351613296"
    },
    {
      "id": "pt.ine.add.PTCONT.445962",
      "street": "MOINHO DO ALÉM",
      "house": "",
      "postcode": "7630-013",
      "city": "ODEMIRA",
      "lon": "-8.68930153440384",
      "lat": "37.61090074963776"
    },
    {
      "id": "pt.ine.add.PTCONT.446876",
      "street": "MTE FLOR DO PEREIRO",
      "house": "",
      "postcode": "7630-013",
      "city": "ODEMIRA",
      "lon": "-8.693099300905216",
      "lat": "37.609882703370026"
    },
    {
      "id": "pt.ine.add.PTCONT.447667",
      "street": "MTE MESA RUIVA",
      "house": "",
      "postcode": "7630-208",
      "city": "ODEMIRA",
      "lon": "-8.674592989513737",
      "lat": "37.59731030240109"
    },
    {
      "id": "pt.ine.add.PTCONT.448498",
      "street": "TANAZÃO",
      "house": "",
      "postcode": "7630-013",
      "city": "ODEMIRA",
      "lon": "-8.701082196423284",
      "lat": "37.61837393375674"
    },
    {
      "id": "pt.ine.add.PTCONT.448494",
      "street": "ESPARGAL",
      "house": "",
      "postcode": "7630-208",
      "city": "ODEMIRA",
      "lon": "-8.653961291017787",
      "lat": "37.605403867100556"
    },
    {
      "id": "pt.ine.add.PTCONT.450220",
      "street": "R DA FONTE",
      "house": "",
      "postcode": "7630-013",
      "city": "ODEMIRA",
      "lon": "-8.693757801544113",
      "lat": "37.60557289941023"
    },
    {
      "id": "pt.ine.add.PTCONT.450221",
      "street": "RONCANITO",
      "house": "",
      "postcode": "7630-013",
      "city": "ODEMIRA",
      "lon": "-8.678564082392157",
      "lat": "37.61854611325837"
    },
    {
      "id": "pt.ine.add.PTCONT.450306",
      "street": "MTE FLOR DO PEREIRO",
      "house": "",
      "postcode": "7630-013",
      "city": "ODEMIRA",
      "lon": "-8.691150198333148",
      "lat": "37.608216116438705"
    }
  ]
}