{
  "data": {
    "distrito": "Braga",
    "concelho": "Barcelos",
    "freguesia": "Barqueiros",
    "OBJECTID": 97,
    "BGRI2021": "03021500103",
    "DT21": "03",
    "DTMN21": "0302",
    "DTMNFR21": "030215",
    "DTMNFRSEC21": "030215001",
    "SECNUM21": "001",
    "SSNUM21": "03",
    "SECSSNUM21": "00103",
    "OBJECTID_1": 21491,
    "DT": "03",
    "CC": "02",
    "fr": "15",
    "SEC": "001",
    "SS": "03"
  },
  "addresses": [
    {
      "id": "pt.ine.add.PTCONT.488885",
      "street": "R LAGOA NEGRA",
      "house": "469",
      "postcode": "4740-682",
      "city": "BARQUEIROS BCL",
      "lon": "-8.728880628082218",
      "lat": "41.4644640769927"
    },
    {
      "id": "pt.ine.add.PTCONT.493562",
      "street": "R EIDO VELHO",
      "house": "149",
      "postcode": "4740-690",
      "city": "BARQUEIROS BCL",
      "lon": "-8.721421533178393",
      "lat": "41.454994396873246"
    },
    {
      "id": "pt.ine.add.PTCONT.506494",
      "street": "R EIDO VELHO",
      "house": "",
      "postcode": "4740-690",
      "city": "BARQUEIROS BCL",
      "lon": "-8.721543976696186",
      "lat": "41.45529990191881"
    },
    {
      "id": "pt.ine.add.PTCONT.506495",
      "street": "R SRA ABADIA",
      "house": "",
      "postcode": "4740-682",
      "city": "BARQUEIROS BCL",
      "lon": "-8.720133975103288",
      "lat": "41.455550210107724"
    },
    {
      "id": "pt.ine.add.PTCONT.509317",
      "street": "",
      "house": "",
      "postcode": "4740-690",
      "city": "BARQUEIROS BCL",
      "lon": "-8.725223450213692",
      "lat": "41.45850440293007"
    },
    {
      "id": "pt.ine.add.PTCONT.518564",
      "street": "R EIDO VELHO",
      "house": "58",
      "postcode": "4740-690",
      "city": "BARQUEIROS BCL",
      "lon": "-8.720588751012471",
      "lat": "41.455547888473504"
    },
    {
      "id": "pt.ine.add.PTCONT.536571",
      "street": "R LAGOA NEGRA",
      "house": "321",
      "postcode": "4740-682",
      "city": "BARQUEIROS BCL",
      "lon": "-8.727197132523413",
      "lat": "41.464931980096445"
    },
    {
      "id": "pt.ine.add.PTCONT.545390",
      "street": "",
      "house": "",
      "postcode": "4740-643",
      "city": "BARQUEIROS BCL",
      "lon": "-8.725140490778807",
      "lat": "41.458594868481846"
    },
    {
      "id": "pt.ine.add.PTCONT.556524",
      "street": "TV MINAS",
      "house": "",
      "postcode": "4740-682",
      "city": "BARQUEIROS BCL",
      "lon": "-8.726781525935243",
      "lat": "41.46267416004991"
    },
    {
      "id": "pt.ine.add.PTCONT.560259",
      "street": "R EIDO VELHO",
      "house": "76",
      "postcode": "4740-690",
      "city": "BARQUEIROS BCL",
      "lon": "-8.72076713006501",
      "lat": "41.45542092329139"
    },
    {
      "id": "pt.ine.add.PTCONT.570728",
      "street": "R EIDO VELHO",
      "house": "100",
      "postcode": "4740-690",
      "city": "BARQUEIROS BCL",
      "lon": "-8.721065754963613",
      "lat": "41.45535637033591"
    },
    {
      "id": "pt.ine.add.PTCONT.570887",
      "street": "R EIDO VELHO",
      "house": "100",
      "postcode": "4740-690",
      "city": "BARQUEIROS BCL",
      "lon": "-8.721065754963613",
      "lat": "41.45535637033591"
    },
    {
      "id": "pt.ine.add.PTCONT.596652",
      "street": "R LAGOA NEGRA",
      "house": "",
      "postcode": "4740-682",
      "city": "BARQUEIROS BCL",
      "lon": "-8.727387575752209",
      "lat": "41.46481394637228"
    },
    {
      "id": "pt.ine.add.PTCONT.613716",
      "street": "R LAGOA NEGRA",
      "house": "579",
      "postcode": "4740-682",
      "city": "BARQUEIROS BCL",
      "lon": "-8.730085409012911",
      "lat": "41.46400763848873"
    },
    {
      "id": "pt.ine.add.PTCONT.632689",
      "street": "R EIDO VELHO",
      "house": "",
      "postcode": "4740-690",
      "city": "BARQUEIROS BCL",
      "lon": "-8.7197201321252",
      "lat": "41.4561105606262"
    },
    {
      "id": "pt.ine.add.PTCONT.648164",
      "street": "R LAGOA NEGRA",
      "house": "533",
      "postcode": "4740-682",
      "city": "BARQUEIROS BCL",
      "lon": "-8.729620998429612",
      "lat": "41.46427115926577"
    },
    {
      "id": "pt.ine.add.PTCONT.672162",
      "street": "R EIDO VELHO",
      "house": "",
      "postcode": "4740-690",
      "city": "BARQUEIROS BCL",
      "lon": "-8.71971777954478",
      "lat": "41.455849460647755"
    },
    {
      "id": "pt.ine.add.PTCONT.695163",
      "street": "R EIDO VELHO",
      "house": "36",
      "postcode": "4740-690",
      "city": "BARQUEIROS BCL",
      "lon": "-8.720289312738117",
      "lat": "41.45552240572481"
    },
    {
      "id": "pt.ine.add.PTCONT.704003",
      "street": "R EIDO VELHO",
      "house": "",
      "postcode": "4740-690",
      "city": "BARQUEIROS BCL",
      "lon": "-8.719648324774493",
      "lat": "41.4561109267814"
    },
    {
      "id": "pt.ine.add.PTCONT.719217",
      "street": "R DA VIA ROMANA",
      "house": "",
      "postcode": "4740-682",
      "city": "BARQUEIROS BCL",
      "lon": "-8.728060700294646",
      "lat": "41.463811039874464"
    },
    {
      "id": "pt.ine.add.PTCONT.722308",
      "street": "R LAGOA NEGRA",
      "house": "563",
      "postcode": "4740-682",
      "city": "BARQUEIROS BCL",
      "lon": "-8.729966624002424",
      "lat": "41.4641072972019"
    },
    {
      "id": "pt.ine.add.PTCONT.772998",
      "street": "R EIDO VELHO",
      "house": "",
      "postcode": "4740-690",
      "city": "BARQUEIROS BCL",
      "lon": "-8.720477548180078",
      "lat": "41.455161290263334"
    },
    {
      "id": "pt.ine.add.PTCONT.805946",
      "street": "R EIDO VELHO",
      "house": "12",
      "postcode": "4740-690",
      "city": "BARQUEIROS BCL",
      "lon": "-8.71997896196669",
      "lat": "41.45561402807247"
    },
    {
      "id": "pt.ine.add.PTCONT.815373",
      "street": "R EIDO VELHO",
      "house": "",
      "postcode": "4740-690",
      "city": "BARQUEIROS BCL",
      "lon": "-8.720907491776904",
      "lat": "41.45506005167845"
    },
    {
      "id": "pt.ine.add.PTCONT.835957",
      "street": "R EIDO VELHO",
      "house": "",
      "postcode": "4740-690",
      "city": "BARQUEIROS BCL",
      "lon": "-8.720752074252863",
      "lat": "41.4550788534421"
    }
  ]
}