{
  "data": {
    "distrito": "Viseu",
    "concelho": "Penalva do Castelo",
    "freguesia": "Ínsua",
    "OBJECTID": 399,
    "BGRI2021": "18110500225",
    "DT21": "18",
    "DTMN21": "1811",
    "DTMNFR21": "181105",
    "DTMNFRSEC21": "181105002",
    "SECNUM21": "002",
    "SSNUM21": "25",
    "SECSSNUM21": "00225",
    "OBJECTID_1": 194439,
    "DT": "18",
    "CC": "11",
    "fr": "05",
    "SEC": "002",
    "SS": "25"
  },
  "addresses": [
    {
      "id": "pt.ine.add.PTCONT.5427656",
      "street": "R S SEBASTIÃO",
      "house": "6",
      "postcode": "3550-165",
      "city": "PENALVA DO CASTELO",
      "lon": "-7.697396428644099",
      "lat": "40.68450210537735"
    },
    {
      "id": "pt.ine.add.PTCONT.5427657",
      "street": "R SALGUEIRO",
      "house": "",
      "postcode": "3550-165",
      "city": "PENALVA DO CASTELO",
      "lon": "-7.6971926795586505",
      "lat": "40.68127751306203"
    },
    {
      "id": "pt.ine.add.PTCONT.5430043",
      "street": "R S SEBASTIÃO",
      "house": "14",
      "postcode": "3550-165",
      "city": "PENALVA DO CASTELO",
      "lon": "-7.697071527375169",
      "lat": "40.68534735720016"
    },
    {
      "id": "pt.ine.add.PTCONT.5460135",
      "street": "R S SEBASTIÃO",
      "house": "2",
      "postcode": "3550-165",
      "city": "PENALVA DO CASTELO",
      "lon": "-7.696937032400152",
      "lat": "40.684203202769744"
    },
    {
      "id": "pt.ine.add.PTCONT.5503981",
      "street": "R S SEBASTIÃO",
      "house": "10",
      "postcode": "3550-165",
      "city": "PENALVA DO CASTELO",
      "lon": "-7.697251253451206",
      "lat": "40.68499683735497"
    },
    {
      "id": "pt.ine.add.PTCONT.5521349",
      "street": "R S SEBASTIÃO",
      "house": "8",
      "postcode": "3550-165",
      "city": "PENALVA DO CASTELO",
      "lon": "-7.6973945520720095",
      "lat": "40.68479026117756"
    },
    {
      "id": "pt.ine.add.PTCONT.5548668",
      "street": "R S SEBASTIÃO",
      "house": "",
      "postcode": "3550-165",
      "city": "PENALVA DO CASTELO",
      "lon": "-7.694356910072482",
      "lat": "40.68621056645773"
    },
    {
      "id": "pt.ine.add.PTCONT.5587056",
      "street": "QTA BOSSA MACEIRA",
      "house": "",
      "postcode": "3550-165",
      "city": "PENALVA DO CASTELO",
      "lon": "-7.694966954129301",
      "lat": "40.683376280004886"
    },
    {
      "id": "pt.ine.add.PTCONT.5612926",
      "street": "R S SEBASTIÃO",
      "house": "4",
      "postcode": "3550-165",
      "city": "PENALVA DO CASTELO",
      "lon": "-7.697349992117293",
      "lat": "40.68436685376602"
    },
    {
      "id": "pt.ine.add.PTCONT.5631706",
      "street": "R S SEBASTIÃO",
      "house": "12",
      "postcode": "3550-165",
      "city": "PENALVA DO CASTELO",
      "lon": "-7.69715550539736",
      "lat": "40.68516757254932"
    },
    {
      "id": "pt.ine.add.PTCONT.5643230",
      "street": "QTA S SEBASTIÃO",
      "house": "",
      "postcode": "3550-165",
      "city": "PENALVA DO CASTELO",
      "lon": "-7.69352909150902",
      "lat": "40.68617139722691"
    },
    {
      "id": "pt.ine.add.PTCONT.5644955",
      "street": "R SALGUEIRO",
      "house": "",
      "postcode": "3550-165",
      "city": "PENALVA DO CASTELO",
      "lon": "-7.697587932303192",
      "lat": "40.68234160584962"
    }
  ]
}