{
  "data": {
    "distrito": "Lisboa",
    "concelho": "Vila Franca de Xira",
    "freguesia": "União das freguesias de Castanheira do Ribatejo e Cachoeiras",
    "OBJECTID": 1205,
    "BGRI2021": "11141400442",
    "DT21": "11",
    "DTMN21": "1114",
    "DTMNFR21": "111414",
    "DTMNFRSEC21": "111414004",
    "SECNUM21": "004",
    "SSNUM21": "42",
    "SECSSNUM21": "00442",
    "OBJECTID_1": 117066,
    "DT": "11",
    "CC": "14",
    "fr": "14",
    "SEC": "004",
    "SS": "42"
  },
  "addresses": [
    {
      "id": "pt.ine.add.PTCONT.2345662",
      "street": "QTA PONTE",
      "house": "",
      "postcode": "2600-581",
      "city": "CACHOEIRAS",
      "lon": "-8.994016742276733",
      "lat": "39.0009428550691"
    },
    {
      "id": "pt.ine.add.PTCONT.2380062",
      "street": "CSL RIBEIRINHA",
      "house": "",
      "postcode": "2600-581",
      "city": "CACHOEIRAS",
      "lon": "-9.002438800967997",
      "lat": "39.00054712432173"
    },
    {
      "id": "pt.ine.add.PTCONT.2391971",
      "street": "QTA PONTE",
      "house": "",
      "postcode": "2600-581",
      "city": "CACHOEIRAS",
      "lon": "-8.990780816418907",
      "lat": "38.99776901150402"
    },
    {
      "id": "pt.ine.add.PTCONT.2410487",
      "street": "CSL AZEDA",
      "house": "",
      "postcode": "2600-581",
      "city": "CACHOEIRAS",
      "lon": "-9.004052384930578",
      "lat": "39.00128271494525"
    },
    {
      "id": "pt.ine.add.PTCONT.2410488",
      "street": "CSL ROLIM",
      "house": "VIVENDA",
      "postcode": "2600-581",
      "city": "CACHOEIRAS",
      "lon": "-9.006563757853918",
      "lat": "38.99898503421087"
    },
    {
      "id": "pt.ine.add.PTCONT.2428734",
      "street": "CSL RIBEIRINHA",
      "house": "",
      "postcode": "2600-581",
      "city": "CACHOEIRAS",
      "lon": "-9.003718481790585",
      "lat": "39.000411476461636"
    },
    {
      "id": "pt.ine.add.PTCONT.2649916",
      "street": "QTA PONTE",
      "house": "",
      "postcode": "2600-581",
      "city": "CACHOEIRAS",
      "lon": "-8.990128153273227",
      "lat": "38.99725137000474"
    },
    {
      "id": "pt.ine.add.PTCONT.2707099",
      "street": "CSL QUINTA DO PALHAS",
      "house": "",
      "postcode": "2600-584",
      "city": "CACHOEIRAS",
      "lon": "-8.997749084841878",
      "lat": "38.994609975427736"
    },
    {
      "id": "pt.ine.add.PTCONT.2707690",
      "street": "CSL QUINTA DO PALHAS",
      "house": "10",
      "postcode": "2600-584",
      "city": "CACHOEIRAS",
      "lon": "-8.996129426980314",
      "lat": "38.994306703101344"
    },
    {
      "id": "pt.ine.add.PTCONT.2751815",
      "street": "CSL ROLIM",
      "house": "",
      "postcode": "2600-581",
      "city": "CACHOEIRAS",
      "lon": "-9.00059887653749",
      "lat": "38.99450775336183"
    },
    {
      "id": "pt.ine.add.PTCONT.2759508",
      "street": "CSL QUINTA MONTE",
      "house": "",
      "postcode": "2600-602",
      "city": "CASTANHEIRA DO RIBATEJO",
      "lon": "-8.998600992947551",
      "lat": "38.99347771576073"
    },
    {
      "id": "pt.ine.add.PTCONT.2904729",
      "street": "CSL ROLIM",
      "house": "",
      "postcode": "2600-581",
      "city": "CACHOEIRAS",
      "lon": "-9.001829995142359",
      "lat": "38.99512912116394"
    },
    {
      "id": "pt.ine.add.PTCONT.2968475",
      "street": "CSL AZEDA",
      "house": "",
      "postcode": "2600-581",
      "city": "CACHOEIRAS",
      "lon": "-9.004358182816507",
      "lat": "39.00080303248739"
    },
    {
      "id": "pt.ine.add.PTCONT.2969830",
      "street": "ESTR PALHAS",
      "house": "",
      "postcode": "2600-581",
      "city": "CACHOEIRAS",
      "lon": "-9.002406157182628",
      "lat": "39.00070950316488"
    },
    {
      "id": "pt.ine.add.PTCONT.2995605",
      "street": "CSL RIBEIRINHA",
      "house": "",
      "postcode": "2600-581",
      "city": "CACHOEIRAS",
      "lon": "-9.002924692196961",
      "lat": "39.000633578089634"
    },
    {
      "id": "pt.ine.add.PTCONT.3065204",
      "street": "ESTR PALHAS",
      "house": "",
      "postcode": "2600-581",
      "city": "CACHOEIRAS",
      "lon": "-8.998974487360682",
      "lat": "39.00044678126525"
    },
    {
      "id": "pt.ine.add.PTCONT.3099393",
      "street": "CSL ROLIM",
      "house": "",
      "postcode": "2600-581",
      "city": "CACHOEIRAS",
      "lon": "-9.000241636340677",
      "lat": "38.99455544671172"
    },
    {
      "id": "pt.ine.add.PTCONT.3106528",
      "street": "CSL ENCRUZINHADAS",
      "house": "",
      "postcode": "2600-582",
      "city": "CACHOEIRAS",
      "lon": "-9.006422981716106",
      "lat": "39.0006795042513"
    },
    {
      "id": "pt.ine.add.PTCONT.3262241",
      "street": "CSL RIBEIRINHA",
      "house": "",
      "postcode": "2600-581",
      "city": "CACHOEIRAS",
      "lon": "-9.003048020790485",
      "lat": "39.000335409934145"
    },
    {
      "id": "pt.ine.add.PTCONT.3282743",
      "street": "CSL COVÃO",
      "house": "",
      "postcode": "2600-582",
      "city": "CACHOEIRAS",
      "lon": "-9.006888825946522",
      "lat": "38.99913572816314"
    },
    {
      "id": "pt.ine.add.PTCONT.3292072",
      "street": "CSL RIBEIRINHA",
      "house": "",
      "postcode": "2600-581",
      "city": "CACHOEIRAS",
      "lon": "-9.003428814402811",
      "lat": "39.000323562360556"
    },
    {
      "id": "pt.ine.add.PTCONT.3301705",
      "street": "ESTR PALHAS",
      "house": "",
      "postcode": "2600-581",
      "city": "CACHOEIRAS",
      "lon": "-9.0004233531315",
      "lat": "38.99998564250323"
    },
    {
      "id": "pt.ine.add.PTCONT.3392219",
      "street": "CSL QUINTA DO PALHAS",
      "house": "",
      "postcode": "2600-584",
      "city": "CACHOEIRAS",
      "lon": "-8.997462297166543",
      "lat": "38.99475622113702"
    }
  ]
}