{
  "data": {
    "distrito": "Lisboa",
    "concelho": "Vila Franca de Xira",
    "freguesia": "Uni√£o das freguesias de Castanheira do Ribatejo e Cachoeiras",
    "OBJECTID": 1287,
    "BGRI2021": "11141400443",
    "DT21": "11",
    "DTMN21": "1114",
    "DTMNFR21": "111414",
    "DTMNFRSEC21": "111414004",
    "SECNUM21": "004",
    "SSNUM21": "43",
    "SECSSNUM21": "00443",
    "OBJECTID_1": 117237,
    "DT": "11",
    "CC": "14",
    "fr": "14",
    "SEC": "004",
    "SS": "43"
  },
  "addresses": [
    {
      "id": "pt.ine.add.PTCONT.2319051",
      "street": "CSL BARROCA",
      "house": "",
      "postcode": "2600-585",
      "city": "CACHOEIRAS",
      "lon": "-9.024378609737973",
      "lat": "39.00385848235766"
    },
    {
      "id": "pt.ine.add.PTCONT.2391943",
      "street": "CSL BARROCA",
      "house": "",
      "postcode": "2600-585",
      "city": "CACHOEIRAS",
      "lon": "-9.02478386027669",
      "lat": "39.003954468377025"
    },
    {
      "id": "pt.ine.add.PTCONT.2469590",
      "street": "CSL ROCHA",
      "house": "",
      "postcode": "2600-585",
      "city": "CACHOEIRAS",
      "lon": "-9.024957910997513",
      "lat": "39.00402519809422"
    },
    {
      "id": "pt.ine.add.PTCONT.2555123",
      "street": "CSL ROCHA",
      "house": "",
      "postcode": "2600-585",
      "city": "CACHOEIRAS",
      "lon": "-9.025199863100914",
      "lat": "39.00398731814448"
    },
    {
      "id": "pt.ine.add.PTCONT.2751811",
      "street": "CSL BARROCA",
      "house": "",
      "postcode": "2600-585",
      "city": "CACHOEIRAS",
      "lon": "-9.024541342846906",
      "lat": "39.003947314197084"
    },
    {
      "id": "pt.ine.add.PTCONT.2796589",
      "street": "QTA DA GRANJA",
      "house": "",
      "postcode": "2600-581",
      "city": "CACHOEIRAS",
      "lon": "-9.020488837250852",
      "lat": "38.9974387464257"
    },
    {
      "id": "pt.ine.add.PTCONT.2823913",
      "street": "CSL BARROCA CACHOEIRAS",
      "house": "",
      "postcode": "2600-581",
      "city": "CACHOEIRAS",
      "lon": "-9.024101802458825",
      "lat": "39.00387861177261"
    },
    {
      "id": "pt.ine.add.PTCONT.3237119",
      "street": "CSL ROCHA",
      "house": "",
      "postcode": "2600-585",
      "city": "CACHOEIRAS",
      "lon": "-9.02612364823561",
      "lat": "39.00400727314029"
    }
  ]
}