{
  "data": {
    "distrito": "Guarda",
    "concelho": "Trancoso",
    "freguesia": "Valdujo",
    "OBJECTID": 707,
    "BGRI2021": "09132500102",
    "DT21": "09",
    "DTMN21": "0913",
    "DTMNFR21": "091325",
    "DTMNFRSEC21": "091325001",
    "SECNUM21": "001",
    "SSNUM21": "02",
    "SECSSNUM21": "00102",
    "OBJECTID_1": 82552,
    "DT": "09",
    "CC": "13",
    "fr": "25",
    "SEC": "001",
    "SS": "02"
  },
  "addresses": [
    {
      "id": "pt.ine.add.PTCONT.1907661",
      "street": "R PRINCIPAL",
      "house": "",
      "postcode": "6420-662",
      "city": "VALDUJO",
      "lon": "-7.291616321038763",
      "lat": "40.81786212009905"
    },
    {
      "id": "pt.ine.add.PTCONT.1911680",
      "street": "R PRINCIPAL",
      "house": "",
      "postcode": "6420-662",
      "city": "VALDUJO",
      "lon": "-7.291413930210833",
      "lat": "40.817932681931794"
    },
    {
      "id": "pt.ine.add.PTCONT.1947277",
      "street": "QTA CIMA SN",
      "house": "SN",
      "postcode": "6420-661",
      "city": "VALDUJO",
      "lon": "-7.2910833911477555",
      "lat": "40.81313972637179"
    },
    {
      "id": "pt.ine.add.PTCONT.1967320",
      "street": "QTA CIMA SN",
      "house": "SN",
      "postcode": "6420-661",
      "city": "VALDUJO",
      "lon": "-7.29115529360957",
      "lat": "40.81307721762135"
    },
    {
      "id": "pt.ine.add.PTCONT.1975950",
      "street": "R DA CORRENTE",
      "house": "",
      "postcode": "6420-661",
      "city": "VALDUJO",
      "lon": "-7.289317930312501",
      "lat": "40.81403631112205"
    },
    {
      "id": "pt.ine.add.PTCONT.1860358",
      "street": "R DA CORRENTE",
      "house": "",
      "postcode": "6420-661",
      "city": "VALDUJO",
      "lon": "-7.290498366132715",
      "lat": "40.81347763700136"
    },
    {
      "id": "pt.ine.add.PTCONT.1865643",
      "street": "QTA CIMA SN",
      "house": "SN",
      "postcode": "6420-661",
      "city": "VALDUJO",
      "lon": "-7.2912014452698894",
      "lat": "40.813176607046636"
    },
    {
      "id": "pt.ine.add.PTCONT.1884309",
      "street": "R PRINCIPAL",
      "house": "",
      "postcode": "6420-662",
      "city": "VALDUJO",
      "lon": "-7.291889139574693",
      "lat": "40.817846100122026"
    },
    {
      "id": "pt.ine.add.PTCONT.1894124",
      "street": "R DA CORRENTE",
      "house": "",
      "postcode": "6420-661",
      "city": "VALDUJO",
      "lon": "-7.29029986176317",
      "lat": "40.81324206268375"
    }
  ]
}