{
  "data": {
    "distrito": "Lisboa",
    "concelho": "Sobral de Monte Agraço",
    "freguesia": "Sobral de Monte Agraço",
    "OBJECTID": 85,
    "BGRI2021": "11120300220",
    "DT21": "11",
    "DTMN21": "1112",
    "DTMNFR21": "111203",
    "DTMNFRSEC21": "111203002",
    "SECNUM21": "002",
    "SSNUM21": "20",
    "SECSSNUM21": "00220",
    "OBJECTID_1": 114894,
    "DT": "11",
    "CC": "12",
    "fr": "03",
    "SEC": "002",
    "SS": "20"
  },
  "addresses": [
    {
      "id": "pt.ine.add.PTCONT.2318616",
      "street": "R FREIXO",
      "house": "40",
      "postcode": "2590-020",
      "city": "SOBRAL DE MONTE AGRAÇO",
      "lon": "-9.149523533398234",
      "lat": "39.01965217668052"
    },
    {
      "id": "pt.ine.add.PTCONT.2391540",
      "street": "R ANTÓNIO BRAANCAMP SOBRAL",
      "house": "",
      "postcode": "2590-006",
      "city": "SOBRAL DE MONTE AGRAÇO",
      "lon": "-9.149512572095956",
      "lat": "39.01888664100359"
    },
    {
      "id": "pt.ine.add.PTCONT.2391541",
      "street": "ALTO MINAS",
      "house": "",
      "postcode": "2590-050",
      "city": "SOBRAL DE MONTE AGRAÇO",
      "lon": "-9.148142625043834",
      "lat": "39.02240245798675"
    },
    {
      "id": "pt.ine.add.PTCONT.2401073",
      "street": "R ANTÓNIO BRAANCAMP SOBRAL",
      "house": "",
      "postcode": "2590-006",
      "city": "SOBRAL DE MONTE AGRAÇO",
      "lon": "-9.14930347148879",
      "lat": "39.01879838853022"
    },
    {
      "id": "pt.ine.add.PTCONT.2545962",
      "street": "R FREIXO",
      "house": "26",
      "postcode": "2590-020",
      "city": "SOBRAL DE MONTE AGRAÇO",
      "lon": "-9.149715803284513",
      "lat": "39.01937127098534"
    },
    {
      "id": "pt.ine.add.PTCONT.2545963",
      "street": "R FREIXO",
      "house": "26",
      "postcode": "2590-020",
      "city": "SOBRAL DE MONTE AGRAÇO",
      "lon": "-9.149715803284513",
      "lat": "39.01937127098534"
    },
    {
      "id": "pt.ine.add.PTCONT.2545964",
      "street": "R FREIXO",
      "house": "26",
      "postcode": "2590-020",
      "city": "SOBRAL DE MONTE AGRAÇO",
      "lon": "-9.149715803284513",
      "lat": "39.01937127098534"
    },
    {
      "id": "pt.ine.add.PTCONT.2545965",
      "street": "R FREIXO",
      "house": "26",
      "postcode": "2590-020",
      "city": "SOBRAL DE MONTE AGRAÇO",
      "lon": "-9.149715803284513",
      "lat": "39.01937127098534"
    },
    {
      "id": "pt.ine.add.PTCONT.2545966",
      "street": "R FREIXO",
      "house": "22",
      "postcode": "2590-020",
      "city": "SOBRAL DE MONTE AGRAÇO",
      "lon": "-9.149737990694199",
      "lat": "39.019308025637336"
    },
    {
      "id": "pt.ine.add.PTCONT.2607033",
      "street": "R ANTÓNIO BRAANCAMP SOBRAL",
      "house": "",
      "postcode": "2590-006",
      "city": "SOBRAL DE MONTE AGRAÇO",
      "lon": "-9.149094242495632",
      "lat": "39.01870112936956"
    },
    {
      "id": "pt.ine.add.PTCONT.2717186",
      "street": "R ANTÓNIO BRAANCAMP SOBRAL",
      "house": "6",
      "postcode": "2590-006",
      "city": "SOBRAL DE MONTE AGRAÇO",
      "lon": "-9.148347645242348",
      "lat": "39.02059018170414"
    },
    {
      "id": "pt.ine.add.PTCONT.2768610",
      "street": "R FREIXO",
      "house": "38",
      "postcode": "2590-020",
      "city": "SOBRAL DE MONTE AGRAÇO",
      "lon": "-9.149475676220428",
      "lat": "39.01953549714807"
    },
    {
      "id": "pt.ine.add.PTCONT.2783220",
      "street": "R FREIXO",
      "house": "28",
      "postcode": "2590-020",
      "city": "SOBRAL DE MONTE AGRAÇO",
      "lon": "-9.14969335787748",
      "lat": "39.01941650372623"
    },
    {
      "id": "pt.ine.add.PTCONT.2813467",
      "street": "R FREIXO",
      "house": "44",
      "postcode": "2590-020",
      "city": "SOBRAL DE MONTE AGRAÇO",
      "lon": "-9.1494909610843",
      "lat": "39.019796579297704"
    },
    {
      "id": "pt.ine.add.PTCONT.2906343",
      "street": "R BRANCAAMP SOBRAL - QUINTA D ANTÓNIO",
      "house": "",
      "postcode": "2590-006",
      "city": "SOBRAL DE MONTE AGRAÇO",
      "lon": "-9.148347645242348",
      "lat": "39.02059018170414"
    },
    {
      "id": "pt.ine.add.PTCONT.2988014",
      "street": "R FREIXO",
      "house": "12",
      "postcode": "2590-020",
      "city": "SOBRAL DE MONTE AGRAÇO",
      "lon": "-9.149793781527833",
      "lat": "39.01917242800195"
    },
    {
      "id": "pt.ine.add.PTCONT.3004029",
      "street": "R FREIXO",
      "house": "16",
      "postcode": "2590-020",
      "city": "SOBRAL DE MONTE AGRAÇO",
      "lon": "-9.149736700851324",
      "lat": "39.019217962622555"
    },
    {
      "id": "pt.ine.add.PTCONT.3004030",
      "street": "R FREIXO",
      "house": "16",
      "postcode": "2590-020",
      "city": "SOBRAL DE MONTE AGRAÇO",
      "lon": "-9.149736700851324",
      "lat": "39.019217962622555"
    },
    {
      "id": "pt.ine.add.PTCONT.3006439",
      "street": "R FREIXO",
      "house": "16",
      "postcode": "2590-020",
      "city": "SOBRAL DE MONTE AGRAÇO",
      "lon": "-9.149736700851324",
      "lat": "39.019217962622555"
    },
    {
      "id": "pt.ine.add.PTCONT.3013826",
      "street": "R FREIXO",
      "house": "50",
      "postcode": "2590-020",
      "city": "SOBRAL DE MONTE AGRAÇO",
      "lon": "-9.149018693613884",
      "lat": "39.02068342094913"
    },
    {
      "id": "pt.ine.add.PTCONT.3013827",
      "street": "R FREIXO",
      "house": "50",
      "postcode": "2590-020",
      "city": "SOBRAL DE MONTE AGRAÇO",
      "lon": "-9.149018693613884",
      "lat": "39.02068342094913"
    },
    {
      "id": "pt.ine.add.PTCONT.3013828",
      "street": "R FREIXO",
      "house": "34",
      "postcode": "2590-020",
      "city": "SOBRAL DE MONTE AGRAÇO",
      "lon": "-9.149682457608852",
      "lat": "39.01946163584844"
    },
    {
      "id": "pt.ine.add.PTCONT.3013831",
      "street": "R FREIXO",
      "house": "34",
      "postcode": "2590-020",
      "city": "SOBRAL DE MONTE AGRAÇO",
      "lon": "-9.149682457608852",
      "lat": "39.01946163584844"
    },
    {
      "id": "pt.ine.add.PTCONT.3022662",
      "street": "R FREIXO",
      "house": "42",
      "postcode": "2590-020",
      "city": "SOBRAL DE MONTE AGRAÇO",
      "lon": "-9.149489800487299",
      "lat": "39.019715522585045"
    },
    {
      "id": "pt.ine.add.PTCONT.3069364",
      "street": "R FREIXO",
      "house": "32",
      "postcode": "2590-020",
      "city": "SOBRAL DE MONTE AGRAÇO",
      "lon": "-9.149671686304055",
      "lat": "39.019515774270744"
    },
    {
      "id": "pt.ine.add.PTCONT.3145521",
      "street": "R ANTÓNIO BRAANCAMP SOBRAL",
      "house": "14",
      "postcode": "2590-006",
      "city": "SOBRAL DE MONTE AGRAÇO",
      "lon": "-9.148347645242348",
      "lat": "39.02059018170414"
    },
    {
      "id": "pt.ine.add.PTCONT.3229734",
      "street": "R ANTÓNIO BRAANCAMP SOBRAL",
      "house": "",
      "postcode": "2590-006",
      "city": "SOBRAL DE MONTE AGRAÇO",
      "lon": "-9.148859475487331",
      "lat": "39.01843295109403"
    },
    {
      "id": "pt.ine.add.PTCONT.3294046",
      "street": "R ANTÓNIO BRAANCAMP SOBRAL",
      "house": "",
      "postcode": "2590-006",
      "city": "SOBRAL DE MONTE AGRAÇO",
      "lon": "-9.148896945724385",
      "lat": "39.01863078820406"
    }
  ]
}