{
  "data": {
    "distrito": "Lisboa",
    "concelho": "Sobral de Monte Agraço",
    "freguesia": "Sobral de Monte Agraço",
    "OBJECTID": 287,
    "BGRI2021": "11120300222",
    "DT21": "11",
    "DTMN21": "1112",
    "DTMNFR21": "111203",
    "DTMNFRSEC21": "111203002",
    "SECNUM21": "002",
    "SSNUM21": "22",
    "SECSSNUM21": "00222",
    "OBJECTID_1": 114855,
    "DT": "11",
    "CC": "12",
    "fr": "03",
    "SEC": "002",
    "SS": "22"
  },
  "addresses": [
    {
      "id": "pt.ine.add.PTCONT.2300499",
      "street": "R SOPHIA DE MELLO BREYNER",
      "house": "",
      "postcode": "2590-009",
      "city": "SOBRAL DE MONTE AGRAÇO",
      "lon": "-9.15428798638828",
      "lat": "39.02416831808134"
    },
    {
      "id": "pt.ine.add.PTCONT.2354579",
      "street": "R SOPHIA DE MELLO BREYNER",
      "house": "37",
      "postcode": "2590-009",
      "city": "SOBRAL DE MONTE AGRAÇO",
      "lon": "-9.154132966047701",
      "lat": "39.023827393327785"
    },
    {
      "id": "pt.ine.add.PTCONT.2410045",
      "street": "R LUSIADAS URB ALTO DE FETAIS",
      "house": "",
      "postcode": "2590-031",
      "city": "SOBRAL DE MONTE AGRAÇO",
      "lon": "-9.154421353343274",
      "lat": "39.023806853786574"
    },
    {
      "id": "pt.ine.add.PTCONT.2474798",
      "street": "R SOPHIA DE MELLO BREYNER",
      "house": "19",
      "postcode": "2590-009",
      "city": "SOBRAL DE MONTE AGRAÇO",
      "lon": "-9.154263496005182",
      "lat": "39.02403263219916"
    },
    {
      "id": "pt.ine.add.PTCONT.2490631",
      "street": "R SOPHIA DE MELLO BREYNER",
      "house": "",
      "postcode": "2590-009",
      "city": "SOBRAL DE MONTE AGRAÇO",
      "lon": "-9.1543237904342",
      "lat": "39.024249071362085"
    },
    {
      "id": "pt.ine.add.PTCONT.2565796",
      "street": "R LUSIADAS URB ALTO DE FETA JS",
      "house": "43",
      "postcode": "2590-031",
      "city": "SOBRAL DE MONTE AGRAÇO",
      "lon": "-9.154493220656022",
      "lat": "39.02398637282542"
    },
    {
      "id": "pt.ine.add.PTCONT.2670399",
      "street": "R SOPHIA DE MELLO BREYNER",
      "house": "",
      "postcode": "2590-009",
      "city": "SOBRAL DE MONTE AGRAÇO",
      "lon": "-9.154228313163436",
      "lat": "39.02403372925076"
    },
    {
      "id": "pt.ine.add.PTCONT.2791983",
      "street": "R SOPHIA DE MELLO BREYNER",
      "house": "38",
      "postcode": "2590-009",
      "city": "SOBRAL DE MONTE AGRAÇO",
      "lon": "-9.154097162440918",
      "lat": "39.02374663997692"
    },
    {
      "id": "pt.ine.add.PTCONT.2867641",
      "street": "R SOPHIA DE MELLO BREYNER",
      "house": "36",
      "postcode": "2590-009",
      "city": "SOBRAL DE MONTE AGRAÇO",
      "lon": "-9.154180963458787",
      "lat": "39.023953077005295"
    },
    {
      "id": "pt.ine.add.PTCONT.2997339",
      "street": "R DE MELO BREYNER",
      "house": "15",
      "postcode": "2590-009",
      "city": "SOBRAL DE MONTE AGRAÇO",
      "lon": "-9.15420509180278",
      "lat": "39.0240249251164"
    },
    {
      "id": "pt.ine.add.PTCONT.3059765",
      "street": "R LUSIADAS URB ALTO DE FETAIS",
      "house": "40",
      "postcode": "2590-031",
      "city": "SOBRAL DE MONTE AGRAÇO",
      "lon": "-9.154577541602675",
      "lat": "39.02422883466268"
    },
    {
      "id": "pt.ine.add.PTCONT.3245775",
      "street": "R SOPHIA MELLO BREYNER",
      "house": "21",
      "postcode": "2590-009",
      "city": "SOBRAL DE MONTE AGRAÇO",
      "lon": "-9.154325475097988",
      "lat": "39.02436615301265"
    },
    {
      "id": "pt.ine.add.PTCONT.3346962",
      "street": "R LUSIADAS URB ALTO DE FETAIS",
      "house": "41",
      "postcode": "2590-031",
      "city": "SOBRAL DE MONTE AGRAÇO",
      "lon": "-9.154553283191612",
      "lat": "39.02414798035668"
    },
    {
      "id": "pt.ine.add.PTCONT.3394944",
      "street": "R LUSIADAS URB ALTO DE FETAJS",
      "house": "45",
      "postcode": "2590-031",
      "city": "SOBRAL DE MONTE AGRAÇO",
      "lon": "-9.154396836072316",
      "lat": "39.02370798687496"
    }
  ]
}