{
  "data": {
    "distrito": "Braga",
    "concelho": "Braga",
    "freguesia": "União das freguesias de Celeirós, Aveleda e Vimieiro",
    "OBJECTID": 1423,
    "BGRI2021": "03036700203",
    "DT21": "03",
    "DTMN21": "0303",
    "DTMNFR21": "030367",
    "DTMNFRSEC21": "030367002",
    "SECNUM21": "002",
    "SSNUM21": "03",
    "SECSSNUM21": "00203",
    "OBJECTID_1": 21797,
    "DT": "03",
    "CC": "03",
    "fr": "67",
    "SEC": "002",
    "SS": "03"
  },
  "addresses": [
    {
      "id": "pt.ine.add.PTCONT.471483",
      "street": "AV SENHORA DOS BONS CAMINHOS",
      "house": "40",
      "postcode": "4705-753",
      "city": "VIMIEIRO BRG",
      "lon": "-8.46518265713046",
      "lat": "41.49754530560764"
    },
    {
      "id": "pt.ine.add.PTCONT.496975",
      "street": "CAM SELORIOS",
      "house": "53",
      "postcode": "4705-803",
      "city": "VIMIEIRO BRG",
      "lon": "-8.463313998080988",
      "lat": "41.497469651036276"
    },
    {
      "id": "pt.ine.add.PTCONT.501205",
      "street": "R FONTENARIO",
      "house": "19",
      "postcode": "4705-747",
      "city": "VIMIEIRO BRG",
      "lon": "-8.464968928595601",
      "lat": "41.497906075925165"
    },
    {
      "id": "pt.ine.add.PTCONT.548909",
      "street": "R FONTENARIO",
      "house": "12",
      "postcode": "4705-747",
      "city": "VIMIEIRO BRG",
      "lon": "-8.46397249101547",
      "lat": "41.49743174332191"
    },
    {
      "id": "pt.ine.add.PTCONT.560867",
      "street": "AV SENHORA DOS BONS CAMINHOS",
      "house": "36",
      "postcode": "4705-753",
      "city": "VIMIEIRO BRG",
      "lon": "-8.464905923755458",
      "lat": "41.49729399682606"
    },
    {
      "id": "pt.ine.add.PTCONT.565730",
      "street": "R SUEITEIRA",
      "house": "17",
      "postcode": "4705-747",
      "city": "VIMIEIRO BRG",
      "lon": "-8.464934260499328",
      "lat": "41.50049928008941"
    },
    {
      "id": "pt.ine.add.PTCONT.567871",
      "street": "R SUEITEIRA",
      "house": "17",
      "postcode": "4705-747",
      "city": "VIMIEIRO BRG",
      "lon": "-8.464934260499328",
      "lat": "41.50049928008941"
    },
    {
      "id": "pt.ine.add.PTCONT.569638",
      "street": "R SUEITEIRA",
      "house": "19",
      "postcode": "4705-747",
      "city": "VIMIEIRO BRG",
      "lon": "-8.464886951957082",
      "lat": "41.500616466379235"
    },
    {
      "id": "pt.ine.add.PTCONT.616302",
      "street": "R FONTENARIO",
      "house": "33",
      "postcode": "4705-747",
      "city": "VIMIEIRO BRG",
      "lon": "-8.466264044819784",
      "lat": "41.49823547372367"
    },
    {
      "id": "pt.ine.add.PTCONT.618013",
      "street": "R FONTENARIO",
      "house": "33",
      "postcode": "4705-747",
      "city": "VIMIEIRO BRG",
      "lon": "-8.466264044819784",
      "lat": "41.49823547372367"
    },
    {
      "id": "pt.ine.add.PTCONT.628820",
      "street": "AV SENHORA DOS BONS CAMINHOS",
      "house": "20",
      "postcode": "4705-753",
      "city": "VIMIEIRO BRG",
      "lon": "-8.462412565046472",
      "lat": "41.496832962999356"
    },
    {
      "id": "pt.ine.add.PTCONT.628821",
      "street": "AV SENHORA DOS BONS CAMINHOS",
      "house": "20",
      "postcode": "4705-753",
      "city": "VIMIEIRO BRG",
      "lon": "-8.462412565046472",
      "lat": "41.496832962999356"
    },
    {
      "id": "pt.ine.add.PTCONT.628822",
      "street": "AV SENHORA DOS BONS CAMINHOS",
      "house": "20",
      "postcode": "4705-753",
      "city": "VIMIEIRO BRG",
      "lon": "-8.462412565046472",
      "lat": "41.496832962999356"
    },
    {
      "id": "pt.ine.add.PTCONT.628823",
      "street": "AV SENHORA DOS BONS CAMINHOS",
      "house": "20",
      "postcode": "4705-753",
      "city": "VIMIEIRO BRG",
      "lon": "-8.462412565046472",
      "lat": "41.496832962999356"
    },
    {
      "id": "pt.ine.add.PTCONT.628824",
      "street": "AV SENHORA DOS BONS CAMINHOS",
      "house": "20",
      "postcode": "4705-753",
      "city": "VIMIEIRO BRG",
      "lon": "-8.462412565046472",
      "lat": "41.496832962999356"
    },
    {
      "id": "pt.ine.add.PTCONT.680433",
      "street": "R FONTENARIO",
      "house": "23",
      "postcode": "4705-747",
      "city": "VIMIEIRO BRG",
      "lon": "-8.464957779870607",
      "lat": "41.498068177135245"
    },
    {
      "id": "pt.ine.add.PTCONT.707577",
      "street": "AV SENHORA DOS BONS CAMINHOS",
      "house": "44",
      "postcode": "4705-753",
      "city": "VIMIEIRO BRG",
      "lon": "-8.466081498459166",
      "lat": "41.49766876069325"
    },
    {
      "id": "pt.ine.add.PTCONT.710511",
      "street": "CAM SELORIOS",
      "house": "51",
      "postcode": "4705-803",
      "city": "VIMIEIRO BRG",
      "lon": "-8.46367478683552",
      "lat": "41.49776574127634"
    },
    {
      "id": "pt.ine.add.PTCONT.722905",
      "street": "R FONTENARIO",
      "house": "1",
      "postcode": "4705-747",
      "city": "VIMIEIRO BRG",
      "lon": "-8.4641383201198",
      "lat": "41.49707111269166"
    },
    {
      "id": "pt.ine.add.PTCONT.749551",
      "street": "R FONTENARIO",
      "house": "14",
      "postcode": "4705-747",
      "city": "VIMIEIRO BRG",
      "lon": "-8.463949776306182",
      "lat": "41.49767491224784"
    },
    {
      "id": "pt.ine.add.PTCONT.749552",
      "street": "R FONTENARIO",
      "house": "14",
      "postcode": "4705-747",
      "city": "VIMIEIRO BRG",
      "lon": "-8.463949776306182",
      "lat": "41.49767491224784"
    },
    {
      "id": "pt.ine.add.PTCONT.779669",
      "street": "AV SENHORA DOS BONS CAMINHOS",
      "house": "26",
      "postcode": "4705-753",
      "city": "VIMIEIRO BRG",
      "lon": "-8.463020910051727",
      "lat": "41.49635401623066"
    },
    {
      "id": "pt.ine.add.PTCONT.785483",
      "street": "CAM SELORIOS",
      "house": "48",
      "postcode": "4705-803",
      "city": "VIMIEIRO BRG",
      "lon": "-8.463709982199736",
      "lat": "41.49762157873606"
    },
    {
      "id": "pt.ine.add.PTCONT.785482",
      "street": "R FONTENARIO",
      "house": "26",
      "postcode": "4705-747",
      "city": "VIMIEIRO BRG",
      "lon": "-8.465415078537127",
      "lat": "41.49849904090784"
    },
    {
      "id": "pt.ine.add.PTCONT.791326",
      "street": "R FONTENARIO",
      "house": "7",
      "postcode": "4705-747",
      "city": "VIMIEIRO BRG",
      "lon": "-8.464438634293366",
      "lat": "41.49725032471126"
    },
    {
      "id": "pt.ine.add.PTCONT.815334",
      "street": "R FONTENARIO",
      "house": "13",
      "postcode": "4705-747",
      "city": "VIMIEIRO BRG",
      "lon": "-8.464607674078216",
      "lat": "41.497519952735495"
    },
    {
      "id": "pt.ine.add.PTCONT.833532",
      "street": "R FONTENARIO",
      "house": "22",
      "postcode": "4705-747",
      "city": "VIMIEIRO BRG",
      "lon": "-8.465222816659951",
      "lat": "41.49837354254099"
    },
    {
      "id": "pt.ine.add.PTCONT.846351",
      "street": "R FONTENARIO",
      "house": "15",
      "postcode": "4705-747",
      "city": "VIMIEIRO BRG",
      "lon": "-8.464776164052912",
      "lat": "41.497681536049335"
    }
  ]
}