{
  "data": {
    "distrito": "Braga",
    "concelho": "Braga",
    "freguesia": "União das freguesias de Celeirós, Aveleda e Vimieiro",
    "OBJECTID": 1430,
    "BGRI2021": "03036700208",
    "DT21": "03",
    "DTMN21": "0303",
    "DTMNFR21": "030367",
    "DTMNFRSEC21": "030367002",
    "SECNUM21": "002",
    "SSNUM21": "08",
    "SECSSNUM21": "00208",
    "OBJECTID_1": 22397,
    "DT": "03",
    "CC": "03",
    "fr": "67",
    "SEC": "002",
    "SS": "08"
  },
  "addresses": [
    {
      "id": "pt.ine.add.PTCONT.484211",
      "street": "AV SANTA ANA",
      "house": "148",
      "postcode": "4705-652",
      "city": "VIMIEIRO BRG",
      "lon": "-8.46858734593199",
      "lat": "41.50517967699474"
    },
    {
      "id": "pt.ine.add.PTCONT.498309",
      "street": "AV SANTA ANA",
      "house": "104",
      "postcode": "4705-652",
      "city": "VIMIEIRO BRG",
      "lon": "-8.463005668579312",
      "lat": "41.507509805028924"
    },
    {
      "id": "pt.ine.add.PTCONT.519122",
      "street": "R MONTE REBOREDO",
      "house": "1",
      "postcode": "4705-755",
      "city": "VIMIEIRO BRG",
      "lon": "-8.470148556282147",
      "lat": "41.50597645282616"
    },
    {
      "id": "pt.ine.add.PTCONT.543011",
      "street": "AV SANTA ANA",
      "house": "161",
      "postcode": "4705-652",
      "city": "VIMIEIRO BRG",
      "lon": "-8.466005634442789",
      "lat": "41.50624062587605"
    },
    {
      "id": "pt.ine.add.PTCONT.545918",
      "street": "R CACHADA",
      "house": "2",
      "postcode": "4705-754",
      "city": "VIMIEIRO BRG",
      "lon": "-8.466484274366127",
      "lat": "41.50614920126254"
    },
    {
      "id": "pt.ine.add.PTCONT.585025",
      "street": "AV SANTA ANA",
      "house": "102",
      "postcode": "4705-652",
      "city": "VIMIEIRO BRG",
      "lon": "-8.46269452020501",
      "lat": "41.50756472002046"
    },
    {
      "id": "pt.ine.add.PTCONT.592605",
      "street": "AV S ANA",
      "house": "186",
      "postcode": "4705-652",
      "city": "VIMIEIRO BRG",
      "lon": "-8.469847252982062",
      "lat": "41.50561718246826"
    },
    {
      "id": "pt.ine.add.PTCONT.616293",
      "street": "AV SANTA ANA",
      "house": "164",
      "postcode": "4705-652",
      "city": "VIMIEIRO BRG",
      "lon": "-8.469523256628275",
      "lat": "41.50550108091342"
    },
    {
      "id": "pt.ine.add.PTCONT.631794",
      "street": "AV SANTA ANA",
      "house": "152",
      "postcode": "4705-652",
      "city": "VIMIEIRO BRG",
      "lon": "-8.46892345595699",
      "lat": "41.50532275729805"
    },
    {
      "id": "pt.ine.add.PTCONT.636639",
      "street": "R CACHADA",
      "house": "6",
      "postcode": "4705-754",
      "city": "VIMIEIRO BRG",
      "lon": "-8.46648561374004",
      "lat": "41.50641030823471"
    },
    {
      "id": "pt.ine.add.PTCONT.639784",
      "street": "AV SANTA ANA",
      "house": "154",
      "postcode": "4705-652",
      "city": "VIMIEIRO BRG",
      "lon": "-8.469030926549694",
      "lat": "41.50525941668944"
    },
    {
      "id": "pt.ine.add.PTCONT.650943",
      "street": "AV SANTA ANA",
      "house": "159",
      "postcode": "4705-652",
      "city": "VIMIEIRO BRG",
      "lon": "-8.465911012835727",
      "lat": "41.50647499909814"
    },
    {
      "id": "pt.ine.add.PTCONT.678241",
      "street": "R MONTE REBOREDO",
      "house": "2",
      "postcode": "4705-755",
      "city": "VIMIEIRO BRG",
      "lon": "-8.469776367876706",
      "lat": "41.50580647027044"
    },
    {
      "id": "pt.ine.add.PTCONT.686714",
      "street": "R MONTE REBOREDO",
      "house": "6",
      "postcode": "4705-755",
      "city": "VIMIEIRO BRG",
      "lon": "-8.469094118074",
      "lat": "41.50589850356625"
    },
    {
      "id": "pt.ine.add.PTCONT.686715",
      "street": "R MONTE REBOREDO",
      "house": "6",
      "postcode": "4705-755",
      "city": "VIMIEIRO BRG",
      "lon": "-8.469094118074",
      "lat": "41.50589850356625"
    },
    {
      "id": "pt.ine.add.PTCONT.719819",
      "street": "AV SANTA ANA",
      "house": "176",
      "postcode": "4705-652",
      "city": "VIMIEIRO BRG",
      "lon": "-8.470567768454869",
      "lat": "41.505975223581636"
    },
    {
      "id": "pt.ine.add.PTCONT.732833",
      "street": "R CACHADA",
      "house": "14",
      "postcode": "4705-754",
      "city": "VIMIEIRO BRG",
      "lon": "-8.466642985691514",
      "lat": "41.50673398956293"
    },
    {
      "id": "pt.ine.add.PTCONT.743554",
      "street": "AV SANTA ANA",
      "house": "146",
      "postcode": "4705-652",
      "city": "VIMIEIRO BRG",
      "lon": "-8.468503458045598",
      "lat": "41.50517091782985"
    },
    {
      "id": "pt.ine.add.PTCONT.758281",
      "street": "AV SANTA ANA",
      "house": "108",
      "postcode": "4705-652",
      "city": "VIMIEIRO BRG",
      "lon": "-8.463698868480378",
      "lat": "41.507210688492"
    },
    {
      "id": "pt.ine.add.PTCONT.779655",
      "street": "AV SANTA ANA",
      "house": "172",
      "postcode": "4705-652",
      "city": "VIMIEIRO BRG",
      "lon": "-8.47011136325758",
      "lat": "41.505733458596325"
    },
    {
      "id": "pt.ine.add.PTCONT.791309",
      "street": "R CACHADA",
      "house": "10",
      "postcode": "4705-754",
      "city": "VIMIEIRO BRG",
      "lon": "-8.466390855104951",
      "lat": "41.50661767077458"
    },
    {
      "id": "pt.ine.add.PTCONT.809895",
      "street": "R PORTOA",
      "house": "29",
      "postcode": "4705-665",
      "city": "VIMIEIRO BRG",
      "lon": "-8.465376541851251",
      "lat": "41.50501792499639"
    },
    {
      "id": "pt.ine.add.PTCONT.819357",
      "street": "AV SANTA ANA",
      "house": "150",
      "postcode": "4705-652",
      "city": "VIMIEIRO BRG",
      "lon": "-8.468792355911551",
      "lat": "41.505449193539874"
    },
    {
      "id": "pt.ine.add.PTCONT.846838",
      "street": "AV SANTA ANA",
      "house": "N56",
      "postcode": "4705-652",
      "city": "VIMIEIRO BRG",
      "lon": "-8.469139048650637",
      "lat": "41.50532212761049"
    }
  ]
}