{
  "data": {
    "distrito": "Coimbra",
    "concelho": "Oliveira do Hospital",
    "freguesia": "União das freguesias de Oliveira do Hospital e São Paio de Gramaços",
    "OBJECTID": 279,
    "BGRI2021": "06112400416",
    "DT21": "06",
    "DTMN21": "0611",
    "DTMNFR21": "061124",
    "DTMNFRSEC21": "061124004",
    "SECNUM21": "004",
    "SSNUM21": "16",
    "SECSSNUM21": "00416",
    "OBJECTID_1": 54492,
    "DT": "06",
    "CC": "11",
    "fr": "24",
    "SEC": "004",
    "SS": "16"
  },
  "addresses": [
    {
      "id": "pt.ine.add.PTCONT.1158688",
      "street": "R JOSÉ TAVARES",
      "house": "8",
      "postcode": "3400-156",
      "city": "OLIVEIRA DO HOSPITAL",
      "lon": "-7.866400459682156",
      "lat": "40.37246724390797"
    },
    {
      "id": "pt.ine.add.PTCONT.1161004",
      "street": "R JOSÉ TAVARES",
      "house": "2",
      "postcode": "3400-156",
      "city": "OLIVEIRA DO HOSPITAL",
      "lon": "-7.86716555708812",
      "lat": "40.37253204503483"
    },
    {
      "id": "pt.ine.add.PTCONT.1262289",
      "street": "R D CARLOTA CORTE REAL",
      "house": "70",
      "postcode": "3400-012",
      "city": "OLIVEIRA DO HOSPITAL",
      "lon": "-7.863178080700306",
      "lat": "40.3714961682198"
    },
    {
      "id": "pt.ine.add.PTCONT.1279836",
      "street": "R DR ANTÓNIO AMARAL",
      "house": "5",
      "postcode": "3400-155",
      "city": "OLIVEIRA DO HOSPITAL",
      "lon": "-7.8681950918508194",
      "lat": "40.37121958988087"
    },
    {
      "id": "pt.ine.add.PTCONT.1294678",
      "street": "R JOSÉ TAVARES",
      "house": "10",
      "postcode": "3400-156",
      "city": "OLIVEIRA DO HOSPITAL",
      "lon": "-7.86603544891005",
      "lat": "40.372466401555315"
    },
    {
      "id": "pt.ine.add.PTCONT.1320372",
      "street": "R MANUEL LAGOS",
      "house": "2",
      "postcode": "3400-014",
      "city": "OLIVEIRA DO HOSPITAL",
      "lon": "-7.862188673118654",
      "lat": "40.37158391071842"
    },
    {
      "id": "pt.ine.add.PTCONT.1328794",
      "street": "R JOSÉ TAVARES",
      "house": "14",
      "postcode": "3400-156",
      "city": "OLIVEIRA DO HOSPITAL",
      "lon": "-7.865000752657383",
      "lat": "40.37209477779325"
    },
    {
      "id": "pt.ine.add.PTCONT.1360419",
      "street": "R JOSÉ TAVARES",
      "house": "4",
      "postcode": "3400-156",
      "city": "OLIVEIRA DO HOSPITAL",
      "lon": "-7.867012452474586",
      "lat": "40.372540698462956"
    }
  ]
}