{
  "data": {
    "distrito": "Coimbra",
    "concelho": "Oliveira do Hospital",
    "freguesia": "União das freguesias de Oliveira do Hospital e São Paio de Gramaços",
    "OBJECTID": 308,
    "BGRI2021": "06112400417",
    "DT21": "06",
    "DTMN21": "0611",
    "DTMNFR21": "061124",
    "DTMNFRSEC21": "061124004",
    "SECNUM21": "004",
    "SSNUM21": "17",
    "SECSSNUM21": "00417",
    "OBJECTID_1": 54575,
    "DT": "06",
    "CC": "11",
    "fr": "24",
    "SEC": "004",
    "SS": "17"
  },
  "addresses": [
    {
      "id": "pt.ine.add.PTCONT.1114179",
      "street": "TV DA MACEIRA",
      "house": "1",
      "postcode": "3400-021",
      "city": "OLIVEIRA DO HOSPITAL",
      "lon": "-7.859738109747393",
      "lat": "40.37194737381211"
    },
    {
      "id": "pt.ine.add.PTCONT.1119764",
      "street": "R CÓNEGO MARTINS MADEIRA",
      "house": "5",
      "postcode": "3400-007",
      "city": "OLIVEIRA DO HOSPITAL",
      "lon": "-7.85941994473224",
      "lat": "40.37200966051783"
    },
    {
      "id": "pt.ine.add.PTCONT.1123998",
      "street": "EN 230",
      "house": "23",
      "postcode": "3400-163",
      "city": "OLIVEIRA DO HOSPITAL",
      "lon": "-7.859183471120092",
      "lat": "40.37225225189758"
    },
    {
      "id": "pt.ine.add.PTCONT.1128123",
      "street": "R D CARLOTA CORTE REAL",
      "house": "3 A",
      "postcode": "3400-012",
      "city": "OLIVEIRA DO HOSPITAL",
      "lon": "-7.860664482900016",
      "lat": "40.37289514797008"
    },
    {
      "id": "pt.ine.add.PTCONT.1128124",
      "street": "EN 230",
      "house": "21",
      "postcode": "3400-163",
      "city": "OLIVEIRA DO HOSPITAL",
      "lon": "-7.858995954902263",
      "lat": "40.37203567316389"
    },
    {
      "id": "pt.ine.add.PTCONT.1150722",
      "street": "R DAS PARREIRAS",
      "house": "5",
      "postcode": "3400-009",
      "city": "OLIVEIRA DO HOSPITAL",
      "lon": "-7.861185895964136",
      "lat": "40.372067859811104"
    },
    {
      "id": "pt.ine.add.PTCONT.1162618",
      "street": "R ANTÓNIO HENRIQUES FINO",
      "house": "3",
      "postcode": "3400-005",
      "city": "OLIVEIRA DO HOSPITAL",
      "lon": "-7.861267484947047",
      "lat": "40.37227518045875"
    },
    {
      "id": "pt.ine.add.PTCONT.1165103",
      "street": "TV DA MACEIRA",
      "house": "7",
      "postcode": "3400-021",
      "city": "OLIVEIRA DO HOSPITAL",
      "lon": "-7.8595020745473905",
      "lat": "40.37208189966454"
    },
    {
      "id": "pt.ine.add.PTCONT.1176800",
      "street": "R D CARLOTA CORTE REAL",
      "house": "1",
      "postcode": "3400-012",
      "city": "OLIVEIRA DO HOSPITAL",
      "lon": "-7.859957824509302",
      "lat": "40.3729385090861"
    },
    {
      "id": "pt.ine.add.PTCONT.1178231",
      "street": "R D CARLOTA CORTE REAL",
      "house": "3",
      "postcode": "3400-012",
      "city": "OLIVEIRA DO HOSPITAL",
      "lon": "-7.860169840285821",
      "lat": "40.37292099844768"
    },
    {
      "id": "pt.ine.add.PTCONT.1178232",
      "street": "R DAS PARREIRAS",
      "house": "7",
      "postcode": "3400-009",
      "city": "OLIVEIRA DO HOSPITAL",
      "lon": "-7.8611974532575655",
      "lat": "40.372121920595774"
    },
    {
      "id": "pt.ine.add.PTCONT.1185137",
      "street": "TV DA MACEIRA",
      "house": "5",
      "postcode": "3400-021",
      "city": "OLIVEIRA DO HOSPITAL",
      "lon": "-7.859878166462985",
      "lat": "40.372253895246494"
    },
    {
      "id": "pt.ine.add.PTCONT.1188842",
      "street": "LG LUDOVICO",
      "house": "",
      "postcode": "3400-003",
      "city": "OLIVEIRA DO HOSPITAL",
      "lon": "-7.861620250226743",
      "lat": "40.372393081933474"
    },
    {
      "id": "pt.ine.add.PTCONT.1195803",
      "street": "R ANTÓNIO HENRIQUES FINO",
      "house": "2",
      "postcode": "3400-005",
      "city": "OLIVEIRA DO HOSPITAL",
      "lon": "-7.861420625818123",
      "lat": "40.3722575291196"
    },
    {
      "id": "pt.ine.add.PTCONT.1202555",
      "street": "R D CARLOTA CORTE REAL",
      "house": "7",
      "postcode": "3400-012",
      "city": "OLIVEIRA DO HOSPITAL",
      "lon": "-7.861430809064406",
      "lat": "40.37265379949987"
    },
    {
      "id": "pt.ine.add.PTCONT.1211403",
      "street": "LG LUDOVICO",
      "house": "4",
      "postcode": "3400-003",
      "city": "OLIVEIRA DO HOSPITAL",
      "lon": "-7.861419468495688",
      "lat": "40.37254570564558"
    },
    {
      "id": "pt.ine.add.PTCONT.1228804",
      "street": "R DAS PARREIRAS",
      "house": "1",
      "postcode": "3400-009",
      "city": "OLIVEIRA DO HOSPITAL",
      "lon": "-7.861150898379311",
      "lat": "40.371986727100044"
    },
    {
      "id": "pt.ine.add.PTCONT.1231383",
      "street": "TV DA MACEIRA",
      "house": "",
      "postcode": "3400-021",
      "city": "OLIVEIRA DO HOSPITAL",
      "lon": "-7.859702495259233",
      "lat": "40.372019334436864"
    },
    {
      "id": "pt.ine.add.PTCONT.1232164",
      "street": "TV DR JOAQUIM S FÉLIX",
      "house": "4",
      "postcode": "3400-023",
      "city": "OLIVEIRA DO HOSPITAL",
      "lon": "-7.859970944438586",
      "lat": "40.37260533284921"
    },
    {
      "id": "pt.ine.add.PTCONT.1234831",
      "street": "TV DR JOAQUIM S FÉLIX",
      "house": "1",
      "postcode": "3400-023",
      "city": "OLIVEIRA DO HOSPITAL",
      "lon": "-7.859440907146349",
      "lat": "40.37264910781421"
    },
    {
      "id": "pt.ine.add.PTCONT.1234832",
      "street": "R ANTÓNIO HENRIQUES FINO",
      "house": "1",
      "postcode": "3400-005",
      "city": "OLIVEIRA DO HOSPITAL",
      "lon": "-7.861302410455315",
      "lat": "40.37237432416424"
    },
    {
      "id": "pt.ine.add.PTCONT.1236010",
      "street": "TV DR JOAQUIM S FÉLIX",
      "house": "2",
      "postcode": "3400-023",
      "city": "OLIVEIRA DO HOSPITAL",
      "lon": "-7.859805300217671",
      "lat": "40.37280306473369"
    },
    {
      "id": "pt.ine.add.PTCONT.1255725",
      "street": "R ANTÓNIO HENRIQUES FINO",
      "house": "7",
      "postcode": "3400-005",
      "city": "OLIVEIRA DO HOSPITAL",
      "lon": "-7.861291757616357",
      "lat": "40.37209512547593"
    },
    {
      "id": "pt.ine.add.PTCONT.1262371",
      "street": "R DOS AMARAIS",
      "house": "2",
      "postcode": "3400-013",
      "city": "OLIVEIRA DO HOSPITAL",
      "lon": "-7.861033081419803",
      "lat": "40.372004461190855"
    },
    {
      "id": "pt.ine.add.PTCONT.1279833",
      "street": "R MATEUS MARQUES",
      "house": "8",
      "postcode": "3400-009",
      "city": "OLIVEIRA DO HOSPITAL",
      "lon": "-7.860760818798493",
      "lat": "40.37236404441862"
    },
    {
      "id": "pt.ine.add.PTCONT.1292513",
      "street": "TV DA MACEIRA",
      "house": "5 A",
      "postcode": "3400-021",
      "city": "OLIVEIRA DO HOSPITAL",
      "lon": "-7.859713869393164",
      "lat": "40.37211842294449"
    },
    {
      "id": "pt.ine.add.PTCONT.1309875",
      "street": "R DOS AMARAIS",
      "house": "",
      "postcode": "3400-013",
      "city": "OLIVEIRA DO HOSPITAL",
      "lon": "-7.860585180520129",
      "lat": "40.372120479427025"
    },
    {
      "id": "pt.ine.add.PTCONT.1342958",
      "street": "R MATEUS MARQUES",
      "house": "1",
      "postcode": "3400-009",
      "city": "OLIVEIRA DO HOSPITAL",
      "lon": "-7.8603934853515804",
      "lat": "40.37293953724608"
    },
    {
      "id": "pt.ine.add.PTCONT.1349122",
      "street": "EN 230",
      "house": "25",
      "postcode": "3400-163",
      "city": "OLIVEIRA DO HOSPITAL",
      "lon": "-7.85931204296886",
      "lat": "40.372486701988706"
    },
    {
      "id": "pt.ine.add.PTCONT.1354514",
      "street": "R D CARLOTA CORTE REAL",
      "house": "5",
      "postcode": "3400-012",
      "city": "OLIVEIRA DO HOSPITAL",
      "lon": "-7.860841428250441",
      "lat": "40.37281451427227"
    }
  ]
}