{
  "data": {
    "distrito": "Lisboa",
    "concelho": "Mafra",
    "freguesia": "Milharado",
    "OBJECTID": 524,
    "BGRI2021": "11091100209",
    "DT21": "11",
    "DTMN21": "1109",
    "DTMNFR21": "110911",
    "DTMNFRSEC21": "110911002",
    "SECNUM21": "002",
    "SSNUM21": "09",
    "SECSSNUM21": "00209",
    "OBJECTID_1": 107885,
    "DT": "11",
    "CC": "09",
    "fr": "11",
    "SEC": "002",
    "SS": "09"
  },
  "addresses": [
    {
      "id": "pt.ine.add.PTCONT.2290018",
      "street": "R SOBREIROS",
      "house": "1",
      "postcode": "2665-381",
      "city": "MILHARADO",
      "lon": "-9.193839497070247",
      "lat": "38.91522124776053"
    },
    {
      "id": "pt.ine.add.PTCONT.2335010",
      "street": "R PARTICULAR",
      "house": "",
      "postcode": "2665-382",
      "city": "MILHARADO",
      "lon": "-9.193647137795812",
      "lat": "38.910043649176025"
    },
    {
      "id": "pt.ine.add.PTCONT.2408817",
      "street": "R PARTICULAR",
      "house": "",
      "postcode": "2665-382",
      "city": "MILHARADO",
      "lon": "-9.193638559221627",
      "lat": "38.91024189348418"
    },
    {
      "id": "pt.ine.add.PTCONT.2544558",
      "street": "R SOBREIROS",
      "house": "3",
      "postcode": "2665-381",
      "city": "MILHARADO",
      "lon": "-9.193530651191965",
      "lat": "38.915386189691475"
    },
    {
      "id": "pt.ine.add.PTCONT.2929698",
      "street": "R VALE S GIAO",
      "house": "10 A",
      "postcode": "2665-382",
      "city": "MILHARADO",
      "lon": "-9.193192746104499",
      "lat": "38.91049815437963"
    },
    {
      "id": "pt.ine.add.PTCONT.2929699",
      "street": "R VALE S GIAO",
      "house": "10 A",
      "postcode": "2665-382",
      "city": "MILHARADO",
      "lon": "-9.193192746104499",
      "lat": "38.91049815437963"
    },
    {
      "id": "pt.ine.add.PTCONT.3030708",
      "street": "AL ACﾃ，IAS",
      "house": "8",
      "postcode": "2665-381",
      "city": "MILHARADO",
      "lon": "-9.194010411773624",
      "lat": "38.91585923095675"
    },
    {
      "id": "pt.ine.add.PTCONT.3123638",
      "street": "R SOBREIROS",
      "house": "7",
      "postcode": "2665-381",
      "city": "MILHARADO",
      "lon": "-9.193455851809215",
      "lat": "38.91578320153929"
    },
    {
      "id": "pt.ine.add.PTCONT.3141593",
      "street": "AL ACﾃ，IAS",
      "house": "2",
      "postcode": "2665-381",
      "city": "MILHARADO",
      "lon": "-9.194241370845882",
      "lat": "38.91510950475609"
    },
    {
      "id": "pt.ine.add.PTCONT.3179661",
      "street": "AL ACﾃ，IAS",
      "house": "6",
      "postcode": "2665-381",
      "city": "MILHARADO",
      "lon": "-9.194145665346356",
      "lat": "38.91565082794447"
    },
    {
      "id": "pt.ine.add.PTCONT.3306742",
      "street": "R SOBREIROS",
      "house": "5",
      "postcode": "2665-381",
      "city": "MILHARADO",
      "lon": "-9.193475959363013",
      "lat": "38.915584852698295"
    },
    {
      "id": "pt.ine.add.PTCONT.3336675",
      "street": "R FONTE DOS CORVOS",
      "house": "39",
      "postcode": "2665-305",
      "city": "MILHARADO",
      "lon": "-9.193225425776847",
      "lat": "38.91501965217786"
    },
    {
      "id": "pt.ine.add.PTCONT.3383099",
      "street": "R PARTICULAR",
      "house": "",
      "postcode": "2665-382",
      "city": "MILHARADO",
      "lon": "-9.193435758185773",
      "lat": "38.9105590003374"
    },
    {
      "id": "pt.ine.add.PTCONT.3389174",
      "street": "AL ACﾃ，IAS",
      "house": "4",
      "postcode": "2665-381",
      "city": "MILHARADO",
      "lon": "-9.194268719325715",
      "lat": "38.91539749789902"
    }
  ]
}