{
  "data": {
    "distrito": "Viana do Castelo",
    "concelho": "Viana do Castelo",
    "freguesia": "Santa Marta de Portuzelo",
    "OBJECTID": 56,
    "BGRI2021": "16092800202",
    "DT21": "16",
    "DTMN21": "1609",
    "DTMNFR21": "160928",
    "DTMNFRSEC21": "160928002",
    "SECNUM21": "002",
    "SSNUM21": "02",
    "SECSSNUM21": "00202",
    "OBJECTID_1": 177998,
    "DT": "16",
    "CC": "09",
    "fr": "28",
    "SEC": "002",
    "SS": "02"
  },
  "addresses": [
    {
      "id": "pt.ine.add.PTCONT.5134785",
      "street": "TV SALINAS",
      "house": "26",
      "postcode": "4925-168",
      "city": "VIANA DO CASTELO",
      "lon": "-8.775434198726543",
      "lat": "41.699452015690675"
    },
    {
      "id": "pt.ine.add.PTCONT.5136721",
      "street": "URB CAPITÃES DE ABRIL",
      "house": "8",
      "postcode": "4925-175",
      "city": "VIANA DO CASTELO",
      "lon": "-8.770273856642527",
      "lat": "41.700002944152736"
    },
    {
      "id": "pt.ine.add.PTCONT.5141341",
      "street": "URB CAPITÃES DE ABRIL",
      "house": "19",
      "postcode": "4925-175",
      "city": "VIANA DO CASTELO",
      "lon": "-8.769681851041764",
      "lat": "41.699664093028794"
    },
    {
      "id": "pt.ine.add.PTCONT.5142106",
      "street": "R TALHAREZES",
      "house": "24",
      "postcode": "4925-123",
      "city": "VIANA DO CASTELO",
      "lon": "-8.76777555553681",
      "lat": "41.70127725469256"
    },
    {
      "id": "pt.ine.add.PTCONT.5142107",
      "street": "TV ALEGRIA",
      "house": "04",
      "postcode": "4925-137",
      "city": "VIANA DO CASTELO",
      "lon": "-8.771036630913553",
      "lat": "41.69938647634878"
    },
    {
      "id": "pt.ine.add.PTCONT.5146121",
      "street": "URB CAPITÃES DE ABRIL",
      "house": "33",
      "postcode": "4925-175",
      "city": "VIANA DO CASTELO",
      "lon": "-8.769439966118718",
      "lat": "41.700718838837425"
    },
    {
      "id": "pt.ine.add.PTCONT.5147217",
      "street": "R ALEGRIA",
      "house": "2",
      "postcode": "4925-012",
      "city": "VIANA DO CASTELO",
      "lon": "-8.770695019173061",
      "lat": "41.700072636039785"
    },
    {
      "id": "pt.ine.add.PTCONT.5153035",
      "street": "R TALHAREZES QTA DA PREGUICA",
      "house": "28",
      "postcode": "4925-123",
      "city": "VIANA DO CASTELO",
      "lon": "-8.766574949048861",
      "lat": "41.701355906818726"
    },
    {
      "id": "pt.ine.add.PTCONT.5153964",
      "street": "URB CAPITÃES DE ABRIL",
      "house": "27",
      "postcode": "4925-175",
      "city": "VIANA DO CASTELO",
      "lon": "-8.76974777588027",
      "lat": "41.70025795698657"
    },
    {
      "id": "pt.ine.add.PTCONT.5154145",
      "street": "URB CAPITÃES DE ABRIL",
      "house": "30",
      "postcode": "4925-175",
      "city": "VIANA DO CASTELO",
      "lon": "-8.76990500992597",
      "lat": "41.700365127478946"
    },
    {
      "id": "pt.ine.add.PTCONT.5157157",
      "street": "URB CAPITÃES DE ABRIL",
      "house": "13",
      "postcode": "4925-175",
      "city": "VIANA DO CASTELO",
      "lon": "-8.77009206406179",
      "lat": "41.69984188945273"
    },
    {
      "id": "pt.ine.add.PTCONT.5157653",
      "street": "R TALHAREZES",
      "house": "8",
      "postcode": "4925-123",
      "city": "VIANA DO CASTELO",
      "lon": "-8.77199499648841",
      "lat": "41.700326516924655"
    },
    {
      "id": "pt.ine.add.PTCONT.5159866",
      "street": "R PORTUZELO",
      "house": "40",
      "postcode": "4925-092",
      "city": "VIANA DO CASTELO",
      "lon": "-8.776186345713889",
      "lat": "41.700186093835"
    },
    {
      "id": "pt.ine.add.PTCONT.5159892",
      "street": "R TALHAREZES",
      "house": "14",
      "postcode": "4925-123",
      "city": "VIANA DO CASTELO",
      "lon": "-8.771442579052428",
      "lat": "41.70034759366834"
    },
    {
      "id": "pt.ine.add.PTCONT.5160739",
      "street": "URB CAPITÃES DE ABRIL",
      "house": "02",
      "postcode": "4925-175",
      "city": "VIANA DO CASTELO",
      "lon": "-8.770302326260872",
      "lat": "41.70045295987564"
    },
    {
      "id": "pt.ine.add.PTCONT.5162778",
      "street": "R EMBARCADOURO DO PINHEIRO",
      "house": "",
      "postcode": "4925-048",
      "city": "VIANA DO CASTELO",
      "lon": "-8.771433313026463",
      "lat": "41.69819581515023"
    },
    {
      "id": "pt.ine.add.PTCONT.5162842",
      "street": "URB CAPITÃES DE ABRIL",
      "house": "18",
      "postcode": "4925-175",
      "city": "VIANA DO CASTELO",
      "lon": "-8.769778308866078",
      "lat": "41.69969957257012"
    },
    {
      "id": "pt.ine.add.PTCONT.5163776",
      "street": "R JUNQUEIRA",
      "house": "44",
      "postcode": "4925-064",
      "city": "VIANA DO CASTELO",
      "lon": "-8.775642628015587",
      "lat": "41.69987401366821"
    },
    {
      "id": "pt.ine.add.PTCONT.5165425",
      "street": "R EMBARCADOURO DO PINHEIRO",
      "house": "55",
      "postcode": "4925-048",
      "city": "VIANA DO CASTELO",
      "lon": "-8.772930399679236",
      "lat": "41.70015925032653"
    },
    {
      "id": "pt.ine.add.PTCONT.5167571",
      "street": "URB CAPITÃES DE ABRIL",
      "house": "32",
      "postcode": "4925-175",
      "city": "VIANA DO CASTELO",
      "lon": "-8.769978153656407",
      "lat": "41.70047276380326"
    },
    {
      "id": "pt.ine.add.PTCONT.5167580",
      "street": "URB CAPITÃES DE ABRIL",
      "house": "20",
      "postcode": "4925-175",
      "city": "VIANA DO CASTELO",
      "lon": "-8.76957346927565",
      "lat": "41.69963768291824"
    },
    {
      "id": "pt.ine.add.PTCONT.5168697",
      "street": "URB CAPITÃES DE ABRIL",
      "house": "28",
      "postcode": "4925-175",
      "city": "VIANA DO CASTELO",
      "lon": "-8.76984396819156",
      "lat": "41.70026642752418"
    },
    {
      "id": "pt.ine.add.PTCONT.5169828",
      "street": "URB CAPITÃES DE ABRIL",
      "house": "10",
      "postcode": "4925-175",
      "city": "VIANA DO CASTELO",
      "lon": "-8.770165118641717",
      "lat": "41.69994052269034"
    },
    {
      "id": "pt.ine.add.PTCONT.5171272",
      "street": "URB CAPITÃES DE ABRIL",
      "house": "26",
      "postcode": "4925-175",
      "city": "VIANA DO CASTELO",
      "lon": "-8.76973514135642",
      "lat": "41.7001950026783"
    },
    {
      "id": "pt.ine.add.PTCONT.5175979",
      "street": "URB CAPITÃES DE ABRIL",
      "house": "9",
      "postcode": "4925-175",
      "city": "VIANA DO CASTELO",
      "lon": "-8.770237373639524",
      "lat": "41.69995812906571"
    },
    {
      "id": "pt.ine.add.PTCONT.5177543",
      "street": "R PORTUZELO",
      "house": "42",
      "postcode": "4925-092",
      "city": "VIANA DO CASTELO",
      "lon": "-8.775932550360823",
      "lat": "41.70003445477132"
    },
    {
      "id": "pt.ine.add.PTCONT.5177544",
      "street": "R JUNQUEIRA",
      "house": "",
      "postcode": "4925-064",
      "city": "VIANA DO CASTELO",
      "lon": "-8.776101349120548",
      "lat": "41.69768360413389"
    },
    {
      "id": "pt.ine.add.PTCONT.5177601",
      "street": "URB CAPITÃES DE ABRIL",
      "house": "14",
      "postcode": "4925-175",
      "city": "VIANA DO CASTELO",
      "lon": "-8.770019898069483",
      "lat": "41.69983328596426"
    },
    {
      "id": "pt.ine.add.PTCONT.5181401",
      "street": "R JUNQUEIRA",
      "house": "3",
      "postcode": "4925-064",
      "city": "VIANA DO CASTELO",
      "lon": "-8.778270832024885",
      "lat": "41.699598188230425"
    },
    {
      "id": "pt.ine.add.PTCONT.5182111",
      "street": "R PREGUICA",
      "house": "10",
      "postcode": "4925-087",
      "city": "VIANA DO CASTELO",
      "lon": "-8.765155216324125",
      "lat": "41.69991416505046"
    },
    {
      "id": "pt.ine.add.PTCONT.5184711",
      "street": "R ALEGRIA",
      "house": "5",
      "postcode": "4925-012",
      "city": "VIANA DO CASTELO",
      "lon": "-8.771231772408772",
      "lat": "41.69968250752662"
    },
    {
      "id": "pt.ine.add.PTCONT.5185861",
      "street": "URB CAPITÃES DE ABRIL",
      "house": "25",
      "postcode": "4925-175",
      "city": "VIANA DO CASTELO",
      "lon": "-8.769698569822443",
      "lat": "41.70014118443999"
    },
    {
      "id": "pt.ine.add.PTCONT.5186959",
      "street": "R TALHAREZES",
      "house": "18",
      "postcode": "4925-123",
      "city": "VIANA DO CASTELO",
      "lon": "-8.770769675896192",
      "lat": "41.70033332248302"
    },
    {
      "id": "pt.ine.add.PTCONT.5195892",
      "street": "URB CAPITÃES DE ABRIL",
      "house": "6",
      "postcode": "4925-175",
      "city": "VIANA DO CASTELO",
      "lon": "-8.770322796990701",
      "lat": "41.7000927075127"
    },
    {
      "id": "pt.ine.add.PTCONT.5197170",
      "street": "R DA ALEGRIA",
      "house": "1",
      "postcode": "4925-012",
      "city": "VIANA DO CASTELO",
      "lon": "-8.770630597488653",
      "lat": "41.6996318233122"
    },
    {
      "id": "pt.ine.add.PTCONT.5200906",
      "street": "URB CAPITÃES DE ABRIL",
      "house": "21",
      "postcode": "4925-175",
      "city": "VIANA DO CASTELO",
      "lon": "-8.769476922894652",
      "lat": "41.69959320022202"
    },
    {
      "id": "pt.ine.add.PTCONT.5208707",
      "street": "URB CAPITÃES DE ABRIL",
      "house": "4",
      "postcode": "4925-175",
      "city": "VIANA DO CASTELO",
      "lon": "-8.770359813439386",
      "lat": "41.70019154044282"
    },
    {
      "id": "pt.ine.add.PTCONT.5210484",
      "street": "R PORTUZELO",
      "house": "36",
      "postcode": "4925-092",
      "city": "VIANA DO CASTELO",
      "lon": "-8.776787978707617",
      "lat": "41.700281763748904"
    },
    {
      "id": "pt.ine.add.PTCONT.5210485",
      "street": "URB CAPITÃES DE ABRIL",
      "house": "15",
      "postcode": "4925-175",
      "city": "VIANA DO CASTELO",
      "lon": "-8.770007441038066",
      "lat": "41.69978833764238"
    },
    {
      "id": "pt.ine.add.PTCONT.5212195",
      "street": "URB CAPITÃES DE ABRIL",
      "house": "24",
      "postcode": "4925-175",
      "city": "VIANA DO CASTELO",
      "lon": "-8.769662087137267",
      "lat": "41.70009636916911"
    },
    {
      "id": "pt.ine.add.PTCONT.5212196",
      "street": "R TALHAREZES",
      "house": "6 B",
      "postcode": "4925-123",
      "city": "VIANA DO CASTELO",
      "lon": "-8.772113788985912",
      "lat": "41.70019080437781"
    },
    {
      "id": "pt.ine.add.PTCONT.5212197",
      "street": "R TALHAREZES",
      "house": "10",
      "postcode": "4925-123",
      "city": "VIANA DO CASTELO",
      "lon": "-8.771814267780481",
      "lat": "41.70027350070575"
    },
    {
      "id": "pt.ine.add.PTCONT.5212198",
      "street": "URB CAPITÃES DE ABRIL",
      "house": "17",
      "postcode": "4925-175",
      "city": "VIANA DO CASTELO",
      "lon": "-8.76986275395585",
      "lat": "41.69973511859172"
    },
    {
      "id": "pt.ine.add.PTCONT.5217108",
      "street": "R TALHAREZES",
      "house": "20",
      "postcode": "4925-123",
      "city": "VIANA DO CASTELO",
      "lon": "-8.768349704793634",
      "lat": "41.70102198520987"
    },
    {
      "id": "pt.ine.add.PTCONT.5218437",
      "street": "TV SALINAS",
      "house": "9",
      "postcode": "4925-168",
      "city": "VIANA DO CASTELO",
      "lon": "-8.775232220623572",
      "lat": "41.69967823122654"
    },
    {
      "id": "pt.ine.add.PTCONT.5218818",
      "street": "URB CAPITÃES DE ABRIL",
      "house": "5",
      "postcode": "4925-175",
      "city": "VIANA DO CASTELO",
      "lon": "-8.770347267216325",
      "lat": "41.70013758918396"
    },
    {
      "id": "pt.ine.add.PTCONT.5220084",
      "street": "TV PORTUZELO",
      "house": "1",
      "postcode": "4925-163",
      "city": "VIANA DO CASTELO",
      "lon": "-8.776471335242588",
      "lat": "41.69985137029592"
    },
    {
      "id": "pt.ine.add.PTCONT.5221724",
      "street": "R ALEGRIA",
      "house": "6",
      "postcode": "4925-012",
      "city": "VIANA DO CASTELO",
      "lon": "-8.77143492205975",
      "lat": "41.6995733376354"
    },
    {
      "id": "pt.ine.add.PTCONT.5223010",
      "street": "URB CAPITÃES DE ABRIL",
      "house": "16",
      "postcode": "4925-175",
      "city": "VIANA DO CASTELO",
      "lon": "-8.76991116059915",
      "lat": "41.699770864255974"
    },
    {
      "id": "pt.ine.add.PTCONT.5224292",
      "street": "R JUNQUEIRA",
      "house": "14A",
      "postcode": "4925-064",
      "city": "VIANA DO CASTELO",
      "lon": "-8.777751404575717",
      "lat": "41.69931299206332"
    },
    {
      "id": "pt.ine.add.PTCONT.5232290",
      "street": "R TALHAREZES",
      "house": "12",
      "postcode": "4925-123",
      "city": "VIANA DO CASTELO",
      "lon": "-8.771608979158469",
      "lat": "41.70016659983332"
    },
    {
      "id": "pt.ine.add.PTCONT.5237121",
      "street": "URB CAPITÃES DE ABRIL",
      "house": "12",
      "postcode": "4925-175",
      "city": "VIANA DO CASTELO",
      "lon": "-8.770092508295292",
      "lat": "41.699886904350905"
    },
    {
      "id": "pt.ine.add.PTCONT.5239721",
      "street": "R JUNQUEIRA",
      "house": "1",
      "postcode": "4925-064",
      "city": "VIANA DO CASTELO",
      "lon": "-8.778862160988592",
      "lat": "41.69986497108251"
    },
    {
      "id": "pt.ine.add.PTCONT.5239976",
      "street": "R JUNQUEIRA",
      "house": "11",
      "postcode": "4925-064",
      "city": "VIANA DO CASTELO",
      "lon": "-8.775927350044869",
      "lat": "41.69951228253948"
    },
    {
      "id": "pt.ine.add.PTCONT.5241844",
      "street": "URB CAPITÃES DE ABRIL",
      "house": "3",
      "postcode": "4925-175",
      "city": "VIANA DO CASTELO",
      "lon": "-8.770325641157443",
      "lat": "41.70038080282938"
    },
    {
      "id": "pt.ine.add.PTCONT.5247647",
      "street": "URB CAPITÃES DE ABRIL",
      "house": "23",
      "postcode": "4925-175",
      "city": "VIANA DO CASTELO",
      "lon": "-8.769613502823196",
      "lat": "41.70004261744233"
    },
    {
      "id": "pt.ine.add.PTCONT.5247762",
      "street": "R JUNQUEIRA",
      "house": "7",
      "postcode": "4925-064",
      "city": "VIANA DO CASTELO",
      "lon": "-8.77657765583373",
      "lat": "41.699670705604944"
    },
    {
      "id": "pt.ine.add.PTCONT.5251181",
      "street": "URB CAPITÃES DE ABRIL",
      "house": "7",
      "postcode": "4925-175",
      "city": "VIANA DO CASTELO",
      "lon": "-8.770286313902398",
      "lat": "41.70004789244247"
    },
    {
      "id": "pt.ine.add.PTCONT.5251917",
      "street": "URB CAPITÃES DE ABRIL",
      "house": "1",
      "postcode": "4925-175",
      "city": "VIANA DO CASTELO",
      "lon": "-8.770242616876473",
      "lat": "41.70048930481573"
    },
    {
      "id": "pt.ine.add.PTCONT.5251918",
      "street": "URB CAPITÃES DE ABRIL",
      "house": "11",
      "postcode": "4925-175",
      "city": "VIANA DO CASTELO",
      "lon": "-8.770152572632538",
      "lat": "41.6998865714064"
    },
    {
      "id": "pt.ine.add.PTCONT.5253363",
      "street": "R TALHAREZES",
      "house": "3",
      "postcode": "4925-123",
      "city": "VIANA DO CASTELO",
      "lon": "-8.772606140249705",
      "lat": "41.70017005867804"
    },
    {
      "id": "pt.ine.add.PTCONT.5255875",
      "street": "TV SALINAS",
      "house": "3",
      "postcode": "4925-168",
      "city": "VIANA DO CASTELO",
      "lon": "-8.77520335882823",
      "lat": "41.69919220501799"
    },
    {
      "id": "pt.ine.add.PTCONT.5258161",
      "street": "URB CAPITÃES DE ABRIL",
      "house": "22",
      "postcode": "4925-175",
      "city": "VIANA DO CASTELO",
      "lon": "-8.769540804044583",
      "lat": "41.699979995772495"
    },
    {
      "id": "pt.ine.add.PTCONT.5260578",
      "street": "R TALHAREZES",
      "house": "4",
      "postcode": "4925-123",
      "city": "VIANA DO CASTELO",
      "lon": "-8.772426927436742",
      "lat": "41.70027009399476"
    },
    {
      "id": "pt.ine.add.PTCONT.5261557",
      "street": "R TALHAREZES",
      "house": "2",
      "postcode": "4925-123",
      "city": "VIANA DO CASTELO",
      "lon": "-8.772738996040186",
      "lat": "41.700241347060114"
    },
    {
      "id": "pt.ine.add.PTCONT.5263955",
      "street": "R PREGUICA",
      "house": "8",
      "postcode": "4925-087",
      "city": "VIANA DO CASTELO",
      "lon": "-8.765415159862881",
      "lat": "41.70069603718832"
    },
    {
      "id": "pt.ine.add.PTCONT.5263967",
      "street": "URB CAPITÃES DE ABRIL",
      "house": "29",
      "postcode": "4925-175",
      "city": "VIANA DO CASTELO",
      "lon": "-8.769796715697392",
      "lat": "41.70034772057037"
    },
    {
      "id": "pt.ine.add.PTCONT.5265852",
      "street": "R PREGUICA",
      "house": "2",
      "postcode": "4925-087",
      "city": "VIANA DO CASTELO",
      "lon": "-8.765793300004693",
      "lat": "41.70127918160025"
    },
    {
      "id": "pt.ine.add.PTCONT.5265853",
      "street": "R ALEGRIA",
      "house": "3",
      "postcode": "4925-012",
      "city": "VIANA DO CASTELO",
      "lon": "-8.770990092323974",
      "lat": "41.69953979371182"
    },
    {
      "id": "pt.ine.add.PTCONT.5269789",
      "street": "URB CAPITÃES DE ABRIL",
      "house": "31",
      "postcode": "4925-175",
      "city": "VIANA DO CASTELO",
      "lon": "-8.769929568793549",
      "lat": "41.70041901221745"
    },
    {
      "id": "pt.ine.add.PTCONT.5274100",
      "street": "R TALHAREZES",
      "house": "6",
      "postcode": "4925-123",
      "city": "VIANA DO CASTELO",
      "lon": "-8.772270313540531",
      "lat": "41.70022594780614"
    },
    {
      "id": "pt.ine.add.PTCONT.5277757",
      "street": "TV ALEGRIA",
      "house": "1",
      "postcode": "4925-137",
      "city": "VIANA DO CASTELO",
      "lon": "-8.770784629513551",
      "lat": "41.69941488536924"
    },
    {
      "id": "pt.ine.add.PTCONT.5280223",
      "street": "R JUNQUEIRA",
      "house": "9",
      "postcode": "4925-064",
      "city": "VIANA DO CASTELO",
      "lon": "-8.776047836589315",
      "lat": "41.699547622403635"
    }
  ]
}