{
  "data": {
    "distrito": "Faro",
    "concelho": "Albufeira",
    "freguesia": "Albufeira e Olhos de Água",
    "OBJECTID": 317,
    "BGRI2021": "08010605207",
    "DT21": "08",
    "DTMN21": "0801",
    "DTMNFR21": "080106",
    "DTMNFRSEC21": "080106052",
    "SECNUM21": "052",
    "SSNUM21": "07",
    "SECSSNUM21": "05207",
    "OBJECTID_1": 64478,
    "DT": "08",
    "CC": "01",
    "fr": "06",
    "SEC": "052",
    "SS": "07"
  },
  "addresses": [
    {
      "id": "pt.ine.add.PTCONT.1515539",
      "street": "R CANDIDO GUERREIRO",
      "house": "",
      "postcode": "8200-347",
      "city": "ALBUFEIRA",
      "lon": "-8.22193554886318",
      "lat": "37.10282711471355"
    },
    {
      "id": "pt.ine.add.PTCONT.1515540",
      "street": "R CANDIDO GUERREIRO",
      "house": "2",
      "postcode": "8200-347",
      "city": "ALBUFEIRA",
      "lon": "-8.22193554886318",
      "lat": "37.10282711471355"
    },
    {
      "id": "pt.ine.add.PTCONT.1515541",
      "street": "R CANDIDO GUERREIRO",
      "house": "3",
      "postcode": "8200-347",
      "city": "ALBUFEIRA",
      "lon": "-8.22193554886318",
      "lat": "37.10282711471355"
    },
    {
      "id": "pt.ine.add.PTCONT.1515542",
      "street": "R CANDIDO GUERREIRO",
      "house": "4",
      "postcode": "8200-347",
      "city": "ALBUFEIRA",
      "lon": "-8.22193554886318",
      "lat": "37.10282711471355"
    },
    {
      "id": "pt.ine.add.PTCONT.1515543",
      "street": "R CANDIDO GUERREIRO",
      "house": "5",
      "postcode": "8200-347",
      "city": "ALBUFEIRA",
      "lon": "-8.22193554886318",
      "lat": "37.10282711471355"
    },
    {
      "id": "pt.ine.add.PTCONT.1515544",
      "street": "R CANDIDO GUERREIRO",
      "house": "10 L",
      "postcode": "8200-347",
      "city": "ALBUFEIRA",
      "lon": "-8.22193554886318",
      "lat": "37.10282711471355"
    },
    {
      "id": "pt.ine.add.PTCONT.1515546",
      "street": "R CANDIDO GUERREIRO",
      "house": "8",
      "postcode": "8200-347",
      "city": "ALBUFEIRA",
      "lon": "-8.22193554886318",
      "lat": "37.10282711471355"
    },
    {
      "id": "pt.ine.add.PTCONT.1515547",
      "street": "R CANDIDO GUERREIRO",
      "house": "9",
      "postcode": "8200-347",
      "city": "ALBUFEIRA",
      "lon": "-8.22193554886318",
      "lat": "37.10282711471355"
    },
    {
      "id": "pt.ine.add.PTCONT.1515548",
      "street": "R CANDIDO GUERREIRO",
      "house": "7H",
      "postcode": "8200-347",
      "city": "ALBUFEIRA",
      "lon": "-8.22193554886318",
      "lat": "37.10282711471355"
    },
    {
      "id": "pt.ine.add.PTCONT.1515549",
      "street": "R CANDIDO GUERREIRO",
      "house": "11",
      "postcode": "8200-347",
      "city": "ALBUFEIRA",
      "lon": "-8.22193554886318",
      "lat": "37.10282711471355"
    },
    {
      "id": "pt.ine.add.PTCONT.1515550",
      "street": "R CANDIDO GUERREIRO",
      "house": "12",
      "postcode": "8200-347",
      "city": "ALBUFEIRA",
      "lon": "-8.22193554886318",
      "lat": "37.10282711471355"
    },
    {
      "id": "pt.ine.add.PTCONT.1515551",
      "street": "R CANDIDO GUERREIRO",
      "house": "16",
      "postcode": "8200-347",
      "city": "ALBUFEIRA",
      "lon": "-8.22193554886318",
      "lat": "37.10282711471355"
    },
    {
      "id": "pt.ine.add.PTCONT.1515552",
      "street": "R CANDIDO GUERREIRO",
      "house": "",
      "postcode": "8200-347",
      "city": "ALBUFEIRA",
      "lon": "-8.22193554886318",
      "lat": "37.10282711471355"
    },
    {
      "id": "pt.ine.add.PTCONT.1515553",
      "street": "R CANDIDO GUERREIRO",
      "house": "16",
      "postcode": "8200-347",
      "city": "ALBUFEIRA",
      "lon": "-8.22193554886318",
      "lat": "37.10282711471355"
    },
    {
      "id": "pt.ine.add.PTCONT.1515554",
      "street": "R CANDIDO GUERREIRO",
      "house": "",
      "postcode": "8200-347",
      "city": "ALBUFEIRA",
      "lon": "-8.22193554886318",
      "lat": "37.10282711471355"
    },
    {
      "id": "pt.ine.add.PTCONT.1515555",
      "street": "R CANDIDO GUERREIRO",
      "house": "",
      "postcode": "8200-347",
      "city": "ALBUFEIRA",
      "lon": "-8.22193554886318",
      "lat": "37.10282711471355"
    },
    {
      "id": "pt.ine.add.PTCONT.1515556",
      "street": "R CANDIDO GUERREIRO",
      "house": "20",
      "postcode": "8200-347",
      "city": "ALBUFEIRA",
      "lon": "-8.22193554886318",
      "lat": "37.10282711471355"
    },
    {
      "id": "pt.ine.add.PTCONT.1515557",
      "street": "R CANDIDO GUERREIRO",
      "house": "",
      "postcode": "8200-347",
      "city": "ALBUFEIRA",
      "lon": "-8.22193554886318",
      "lat": "37.10282711471355"
    },
    {
      "id": "pt.ine.add.PTCONT.1515558",
      "street": "R CANDIDO GUERREIRO",
      "house": "22",
      "postcode": "8200-347",
      "city": "ALBUFEIRA",
      "lon": "-8.22193554886318",
      "lat": "37.10282711471355"
    },
    {
      "id": "pt.ine.add.PTCONT.1517988",
      "street": "R CANDIDO GUERREIRO",
      "house": "6",
      "postcode": "8200-347",
      "city": "ALBUFEIRA",
      "lon": "-8.22193554886318",
      "lat": "37.10282711471355"
    },
    {
      "id": "pt.ine.add.PTCONT.1517989",
      "street": "R CANDIDO GUERREIRO",
      "house": "19",
      "postcode": "8200-347",
      "city": "ALBUFEIRA",
      "lon": "-8.22193554886318",
      "lat": "37.10282711471355"
    },
    {
      "id": "pt.ine.add.PTCONT.1523892",
      "street": "R ANTÓNIO SÉRGIO",
      "house": "",
      "postcode": "8200-345",
      "city": "ALBUFEIRA",
      "lon": "-8.222362559271927",
      "lat": "37.10242131415983"
    },
    {
      "id": "pt.ine.add.PTCONT.1523893",
      "street": "R ANTÓNIO SÉRGIO",
      "house": "",
      "postcode": "8200-345",
      "city": "ALBUFEIRA",
      "lon": "-8.222362559271927",
      "lat": "37.10242131415983"
    },
    {
      "id": "pt.ine.add.PTCONT.1523894",
      "street": "R ANTÓNIO SÉRGIO",
      "house": "",
      "postcode": "8200-345",
      "city": "ALBUFEIRA",
      "lon": "-8.222362559271927",
      "lat": "37.10242131415983"
    },
    {
      "id": "pt.ine.add.PTCONT.1523964",
      "street": "R ANTÓNIO SÉRGIO",
      "house": "",
      "postcode": "8200-345",
      "city": "ALBUFEIRA",
      "lon": "-8.222362559271927",
      "lat": "37.10242131415983"
    },
    {
      "id": "pt.ine.add.PTCONT.1531844",
      "street": "R RAUL BRANDAO",
      "house": "1",
      "postcode": "8200-287",
      "city": "ALBUFEIRA",
      "lon": "-8.222948005356782",
      "lat": "37.10281734130024"
    },
    {
      "id": "pt.ine.add.PTCONT.1531845",
      "street": "R RAUL BRANDAO",
      "house": "3",
      "postcode": "8200-287",
      "city": "ALBUFEIRA",
      "lon": "-8.222948005356782",
      "lat": "37.10281734130024"
    },
    {
      "id": "pt.ine.add.PTCONT.1531846",
      "street": "R RAUL BRANDAO",
      "house": "101",
      "postcode": "8200-287",
      "city": "ALBUFEIRA",
      "lon": "-8.222948005356782",
      "lat": "37.10281734130024"
    },
    {
      "id": "pt.ine.add.PTCONT.1531847",
      "street": "R RAUL BRANDAO",
      "house": "102",
      "postcode": "8200-287",
      "city": "ALBUFEIRA",
      "lon": "-8.222948005356782",
      "lat": "37.10281734130024"
    },
    {
      "id": "pt.ine.add.PTCONT.1531848",
      "street": "R RAUL BRANDAO",
      "house": "103",
      "postcode": "8200-287",
      "city": "ALBUFEIRA",
      "lon": "-8.222948005356782",
      "lat": "37.10281734130024"
    },
    {
      "id": "pt.ine.add.PTCONT.1531849",
      "street": "R RAUL BRANDAO",
      "house": "104",
      "postcode": "8200-287",
      "city": "ALBUFEIRA",
      "lon": "-8.222948005356782",
      "lat": "37.10281734130024"
    },
    {
      "id": "pt.ine.add.PTCONT.1531850",
      "street": "R RAUL BRANDAO",
      "house": "201",
      "postcode": "8200-287",
      "city": "ALBUFEIRA",
      "lon": "-8.222948005356782",
      "lat": "37.10281734130024"
    },
    {
      "id": "pt.ine.add.PTCONT.1531851",
      "street": "R RAUL BRANDAO",
      "house": "202",
      "postcode": "8200-287",
      "city": "ALBUFEIRA",
      "lon": "-8.222948005356782",
      "lat": "37.10281734130024"
    },
    {
      "id": "pt.ine.add.PTCONT.1531852",
      "street": "R RAUL BRANDAO",
      "house": "211",
      "postcode": "8200-287",
      "city": "ALBUFEIRA",
      "lon": "-8.222948005356782",
      "lat": "37.10281734130024"
    },
    {
      "id": "pt.ine.add.PTCONT.1531853",
      "street": "R RAUL BRANDAO",
      "house": "204",
      "postcode": "8200-287",
      "city": "ALBUFEIRA",
      "lon": "-8.222948005356782",
      "lat": "37.10281734130024"
    },
    {
      "id": "pt.ine.add.PTCONT.1531958",
      "street": "R RAUL BRANDAO",
      "house": "301",
      "postcode": "8200-287",
      "city": "ALBUFEIRA",
      "lon": "-8.222948005356782",
      "lat": "37.10281734130024"
    },
    {
      "id": "pt.ine.add.PTCONT.1531959",
      "street": "R RAUL BRANDAO",
      "house": "302",
      "postcode": "8200-287",
      "city": "ALBUFEIRA",
      "lon": "-8.222948005356782",
      "lat": "37.10281734130024"
    },
    {
      "id": "pt.ine.add.PTCONT.1531960",
      "street": "R RAUL BRANDAO",
      "house": "303",
      "postcode": "8200-287",
      "city": "ALBUFEIRA",
      "lon": "-8.222948005356782",
      "lat": "37.10281734130024"
    },
    {
      "id": "pt.ine.add.PTCONT.1531961",
      "street": "R RAUL BRANDAO",
      "house": "304",
      "postcode": "8200-287",
      "city": "ALBUFEIRA",
      "lon": "-8.222948005356782",
      "lat": "37.10281734130024"
    },
    {
      "id": "pt.ine.add.PTCONT.1531962",
      "street": "R RAUL BRANDAO",
      "house": "409",
      "postcode": "8200-287",
      "city": "ALBUFEIRA",
      "lon": "-8.222948005356782",
      "lat": "37.10281734130024"
    },
    {
      "id": "pt.ine.add.PTCONT.1532358",
      "street": "R RAUL BRANDAO",
      "house": "2",
      "postcode": "8200-287",
      "city": "ALBUFEIRA",
      "lon": "-8.222948005356782",
      "lat": "37.10281734130024"
    },
    {
      "id": "pt.ine.add.PTCONT.1532531",
      "street": "R RAUL BRANDAO",
      "house": "",
      "postcode": "8200-287",
      "city": "ALBUFEIRA",
      "lon": "-8.222948005356782",
      "lat": "37.10281734130024"
    },
    {
      "id": "pt.ine.add.PTCONT.1585487",
      "street": "R CÂNDIDO GUERREIRO",
      "house": "",
      "postcode": "8200-347",
      "city": "ALBUFEIRA",
      "lon": "-8.222284667793724",
      "lat": "37.10315123658696"
    },
    {
      "id": "pt.ine.add.PTCONT.1585488",
      "street": "R CÂNDIDO GUERREIRO",
      "house": "",
      "postcode": "8200-347",
      "city": "ALBUFEIRA",
      "lon": "-8.222284667793724",
      "lat": "37.10315123658696"
    },
    {
      "id": "pt.ine.add.PTCONT.1585489",
      "street": "R CÂNDIDO GUERREIRO",
      "house": "",
      "postcode": "8200-347",
      "city": "ALBUFEIRA",
      "lon": "-8.222284667793724",
      "lat": "37.10315123658696"
    },
    {
      "id": "pt.ine.add.PTCONT.1585490",
      "street": "R CÂNDIDO GUERREIRO",
      "house": "",
      "postcode": "8200-347",
      "city": "ALBUFEIRA",
      "lon": "-8.222284667793724",
      "lat": "37.10315123658696"
    },
    {
      "id": "pt.ine.add.PTCONT.1585491",
      "street": "R CÂNDIDO GUERREIRO",
      "house": "",
      "postcode": "8200-347",
      "city": "ALBUFEIRA",
      "lon": "-8.222284667793724",
      "lat": "37.10315123658696"
    },
    {
      "id": "pt.ine.add.PTCONT.1585492",
      "street": "R CÂNDIDO GUERREIRO",
      "house": "",
      "postcode": "8200-347",
      "city": "ALBUFEIRA",
      "lon": "-8.222284667793724",
      "lat": "37.10315123658696"
    },
    {
      "id": "pt.ine.add.PTCONT.1585493",
      "street": "R CÂNDIDO GUERREIRO",
      "house": "",
      "postcode": "8200-347",
      "city": "ALBUFEIRA",
      "lon": "-8.222284667793724",
      "lat": "37.10315123658696"
    },
    {
      "id": "pt.ine.add.PTCONT.1585494",
      "street": "R CÂNDIDO GUERREIRO",
      "house": "",
      "postcode": "8200-347",
      "city": "ALBUFEIRA",
      "lon": "-8.222284667793724",
      "lat": "37.10315123658696"
    },
    {
      "id": "pt.ine.add.PTCONT.1585495",
      "street": "R CÂNDIDO GUERREIRO",
      "house": "",
      "postcode": "8200-347",
      "city": "ALBUFEIRA",
      "lon": "-8.222284667793724",
      "lat": "37.10315123658696"
    },
    {
      "id": "pt.ine.add.PTCONT.1585496",
      "street": "R CÂNDIDO GUERREIRO",
      "house": "",
      "postcode": "8200-347",
      "city": "ALBUFEIRA",
      "lon": "-8.222284667793724",
      "lat": "37.10315123658696"
    },
    {
      "id": "pt.ine.add.PTCONT.1585497",
      "street": "R CÂNDIDO GUERREIRO",
      "house": "",
      "postcode": "8200-347",
      "city": "ALBUFEIRA",
      "lon": "-8.222284667793724",
      "lat": "37.10315123658696"
    },
    {
      "id": "pt.ine.add.PTCONT.1585498",
      "street": "R CÂNDIDO GUERREIRO",
      "house": "",
      "postcode": "8200-347",
      "city": "ALBUFEIRA",
      "lon": "-8.222284667793724",
      "lat": "37.10315123658696"
    },
    {
      "id": "pt.ine.add.PTCONT.1585499",
      "street": "R CÂNDIDO GUERREIRO",
      "house": "",
      "postcode": "8200-347",
      "city": "ALBUFEIRA",
      "lon": "-8.222284667793724",
      "lat": "37.10315123658696"
    },
    {
      "id": "pt.ine.add.PTCONT.1585508",
      "street": "R CÂNDIDO GUERREIRO",
      "house": "",
      "postcode": "8200-347",
      "city": "ALBUFEIRA",
      "lon": "-8.222284667793724",
      "lat": "37.10315123658696"
    },
    {
      "id": "pt.ine.add.PTCONT.1585510",
      "street": "R CÂNDIDO GUERREIRO",
      "house": "",
      "postcode": "8200-347",
      "city": "ALBUFEIRA",
      "lon": "-8.222284667793724",
      "lat": "37.10315123658696"
    },
    {
      "id": "pt.ine.add.PTCONT.1585511",
      "street": "R CÂNDIDO GUERREIRO",
      "house": "",
      "postcode": "8200-347",
      "city": "ALBUFEIRA",
      "lon": "-8.222284667793724",
      "lat": "37.10315123658696"
    },
    {
      "id": "pt.ine.add.PTCONT.1634248",
      "street": "R CÂNDIDO GUERREIRO",
      "house": "",
      "postcode": "8200-347",
      "city": "ALBUFEIRA",
      "lon": "-8.222115774955682",
      "lat": "37.10302521418454"
    },
    {
      "id": "pt.ine.add.PTCONT.1654734",
      "street": "R RAUL BRANDAO",
      "house": "",
      "postcode": "8200-287",
      "city": "ALBUFEIRA",
      "lon": "-8.222869417398247",
      "lat": "37.10295256077968"
    },
    {
      "id": "pt.ine.add.PTCONT.1654883",
      "street": "R RAUL BRANDAO",
      "house": "10",
      "postcode": "8200-287",
      "city": "ALBUFEIRA",
      "lon": "-8.222869417398247",
      "lat": "37.10295256077968"
    },
    {
      "id": "pt.ine.add.PTCONT.1669290",
      "street": "R CÂNDIDO GUERREIRO",
      "house": "",
      "postcode": "8200-347",
      "city": "ALBUFEIRA",
      "lon": "-8.222193836750781",
      "lat": "37.102439462366256"
    },
    {
      "id": "pt.ine.add.PTCONT.1696087",
      "street": "R RAUL BRANDAO",
      "house": "25",
      "postcode": "8200-287",
      "city": "ALBUFEIRA",
      "lon": "-8.222858433504943",
      "lat": "37.10317783569452"
    },
    {
      "id": "pt.ine.add.PTCONT.1696088",
      "street": "R RAUL BRANDAO",
      "house": "25",
      "postcode": "8200-287",
      "city": "ALBUFEIRA",
      "lon": "-8.222858433504943",
      "lat": "37.10317783569452"
    },
    {
      "id": "pt.ine.add.PTCONT.1696089",
      "street": "R RAUL BRANDAO",
      "house": "25",
      "postcode": "8200-287",
      "city": "ALBUFEIRA",
      "lon": "-8.222858433504943",
      "lat": "37.10317783569452"
    },
    {
      "id": "pt.ine.add.PTCONT.1696090",
      "street": "R RAUL BRANDAO L",
      "house": "L",
      "postcode": "8200-287",
      "city": "ALBUFEIRA",
      "lon": "-8.222858433504943",
      "lat": "37.10317783569452"
    },
    {
      "id": "pt.ine.add.PTCONT.1696091",
      "street": "R RAUL BRANDAO U",
      "house": "U",
      "postcode": "8200-287",
      "city": "ALBUFEIRA",
      "lon": "-8.222858433504943",
      "lat": "37.10317783569452"
    },
    {
      "id": "pt.ine.add.PTCONT.1696092",
      "street": "R RAUL BRANDAO",
      "house": "25",
      "postcode": "8200-287",
      "city": "ALBUFEIRA",
      "lon": "-8.222858433504943",
      "lat": "37.10317783569452"
    },
    {
      "id": "pt.ine.add.PTCONT.1696093",
      "street": "R RAUL BRANDAO X",
      "house": "X",
      "postcode": "8200-287",
      "city": "ALBUFEIRA",
      "lon": "-8.222858433504943",
      "lat": "37.10317783569452"
    },
    {
      "id": "pt.ine.add.PTCONT.1696094",
      "street": "R RAUL BRANDAO AE",
      "house": "AE",
      "postcode": "8200-287",
      "city": "ALBUFEIRA",
      "lon": "-8.222858433504943",
      "lat": "37.10317783569452"
    },
    {
      "id": "pt.ine.add.PTCONT.1696095",
      "street": "R RAUL BRANDAO AG",
      "house": "AG",
      "postcode": "8200-287",
      "city": "ALBUFEIRA",
      "lon": "-8.222858433504943",
      "lat": "37.10317783569452"
    },
    {
      "id": "pt.ine.add.PTCONT.1697414",
      "street": "R RAUL BRANDAO",
      "house": "25",
      "postcode": "8200-287",
      "city": "ALBUFEIRA",
      "lon": "-8.222858433504943",
      "lat": "37.10317783569452"
    },
    {
      "id": "pt.ine.add.PTCONT.1697499",
      "street": "R RAUL BRANDAO APTO AF",
      "house": "APTO AF",
      "postcode": "8200-287",
      "city": "ALBUFEIRA",
      "lon": "-8.222858433504943",
      "lat": "37.10317783569452"
    },
    {
      "id": "pt.ine.add.PTCONT.1734130",
      "street": "R RAUL BRANDAO",
      "house": "1",
      "postcode": "8200-287",
      "city": "ALBUFEIRA",
      "lon": "-8.22308263862334",
      "lat": "37.10251087662371"
    },
    {
      "id": "pt.ine.add.PTCONT.1734131",
      "street": "R RAUL BRANDAO",
      "house": "2",
      "postcode": "8200-287",
      "city": "ALBUFEIRA",
      "lon": "-8.22308263862334",
      "lat": "37.10251087662371"
    },
    {
      "id": "pt.ine.add.PTCONT.1734132",
      "street": "R RAUL BRANDAO",
      "house": "3",
      "postcode": "8200-287",
      "city": "ALBUFEIRA",
      "lon": "-8.22308263862334",
      "lat": "37.10251087662371"
    },
    {
      "id": "pt.ine.add.PTCONT.1734133",
      "street": "R RAUL BRANDAO",
      "house": "101",
      "postcode": "8200-287",
      "city": "ALBUFEIRA",
      "lon": "-8.22308263862334",
      "lat": "37.10251087662371"
    },
    {
      "id": "pt.ine.add.PTCONT.1734134",
      "street": "R RAUL BRANDAO",
      "house": "102",
      "postcode": "8200-287",
      "city": "ALBUFEIRA",
      "lon": "-8.22308263862334",
      "lat": "37.10251087662371"
    },
    {
      "id": "pt.ine.add.PTCONT.1734135",
      "street": "R RAUL BRANDAO",
      "house": "103",
      "postcode": "8200-287",
      "city": "ALBUFEIRA",
      "lon": "-8.22308263862334",
      "lat": "37.10251087662371"
    },
    {
      "id": "pt.ine.add.PTCONT.1734136",
      "street": "R RAUL BRANDAO",
      "house": "104",
      "postcode": "8200-287",
      "city": "ALBUFEIRA",
      "lon": "-8.22308263862334",
      "lat": "37.10251087662371"
    },
    {
      "id": "pt.ine.add.PTCONT.1734137",
      "street": "R RAUL BRANDAO",
      "house": "201",
      "postcode": "8200-287",
      "city": "ALBUFEIRA",
      "lon": "-8.22308263862334",
      "lat": "37.10251087662371"
    },
    {
      "id": "pt.ine.add.PTCONT.1734138",
      "street": "R RAUL BRANDAO",
      "house": "203",
      "postcode": "8200-287",
      "city": "ALBUFEIRA",
      "lon": "-8.22308263862334",
      "lat": "37.10251087662371"
    },
    {
      "id": "pt.ine.add.PTCONT.1734139",
      "street": "R RAUL BRANDAO",
      "house": "204",
      "postcode": "8200-287",
      "city": "ALBUFEIRA",
      "lon": "-8.22308263862334",
      "lat": "37.10251087662371"
    },
    {
      "id": "pt.ine.add.PTCONT.1734140",
      "street": "R RAUL BRANDAO",
      "house": "301",
      "postcode": "8200-287",
      "city": "ALBUFEIRA",
      "lon": "-8.22308263862334",
      "lat": "37.10251087662371"
    },
    {
      "id": "pt.ine.add.PTCONT.1734141",
      "street": "R RAUL BRANDAO",
      "house": "302",
      "postcode": "8200-287",
      "city": "ALBUFEIRA",
      "lon": "-8.22308263862334",
      "lat": "37.10251087662371"
    },
    {
      "id": "pt.ine.add.PTCONT.1734206",
      "street": "R RAUL BRANDAO",
      "house": "303",
      "postcode": "8200-287",
      "city": "ALBUFEIRA",
      "lon": "-8.22308263862334",
      "lat": "37.10251087662371"
    },
    {
      "id": "pt.ine.add.PTCONT.1734207",
      "street": "R RAUL BRANDAO",
      "house": "304",
      "postcode": "8200-287",
      "city": "ALBUFEIRA",
      "lon": "-8.22308263862334",
      "lat": "37.10251087662371"
    },
    {
      "id": "pt.ine.add.PTCONT.1734208",
      "street": "R RAUL BRANDAO",
      "house": "401",
      "postcode": "8200-287",
      "city": "ALBUFEIRA",
      "lon": "-8.22308263862334",
      "lat": "37.10251087662371"
    },
    {
      "id": "pt.ine.add.PTCONT.1734209",
      "street": "R RAUL BRANDAO",
      "house": "403",
      "postcode": "8200-287",
      "city": "ALBUFEIRA",
      "lon": "-8.22308263862334",
      "lat": "37.10251087662371"
    },
    {
      "id": "pt.ine.add.PTCONT.1734210",
      "street": "R RAUL BRANDAO",
      "house": "APT 404",
      "postcode": "8200-287",
      "city": "ALBUFEIRA",
      "lon": "-8.22308263862334",
      "lat": "37.10251087662371"
    },
    {
      "id": "pt.ine.add.PTCONT.1734657",
      "street": "R RAUL BRANDAO",
      "house": "",
      "postcode": "8200-287",
      "city": "ALBUFEIRA",
      "lon": "-8.22308263862334",
      "lat": "37.10251087662371"
    },
    {
      "id": "pt.ine.add.PTCONT.1734698",
      "street": "R RAUL BRANDAO",
      "house": "202",
      "postcode": "8200-287",
      "city": "ALBUFEIRA",
      "lon": "-8.22308263862334",
      "lat": "37.10251087662371"
    },
    {
      "id": "pt.ine.add.PTCONT.1806264",
      "street": "R RAUL BRANDAO C",
      "house": "C",
      "postcode": "8200-287",
      "city": "ALBUFEIRA",
      "lon": "-8.222656161882036",
      "lat": "37.10336721255592"
    },
    {
      "id": "pt.ine.add.PTCONT.1806265",
      "street": "R RAUL BRANDAO D",
      "house": "D",
      "postcode": "8200-287",
      "city": "ALBUFEIRA",
      "lon": "-8.222656161882036",
      "lat": "37.10336721255592"
    },
    {
      "id": "pt.ine.add.PTCONT.1806266",
      "street": "R RAUL BRANDAO E",
      "house": "E",
      "postcode": "8200-287",
      "city": "ALBUFEIRA",
      "lon": "-8.222656161882036",
      "lat": "37.10336721255592"
    },
    {
      "id": "pt.ine.add.PTCONT.1806267",
      "street": "R RAUL BRANDAO F",
      "house": "F",
      "postcode": "8200-287",
      "city": "ALBUFEIRA",
      "lon": "-8.222656161882036",
      "lat": "37.10336721255592"
    },
    {
      "id": "pt.ine.add.PTCONT.1806401",
      "street": "R RAUL BRANDAO H",
      "house": "H",
      "postcode": "8200-287",
      "city": "ALBUFEIRA",
      "lon": "-8.222656161882036",
      "lat": "37.10336721255592"
    },
    {
      "id": "pt.ine.add.PTCONT.1806402",
      "street": "R RAUL BRANDAO M",
      "house": "M",
      "postcode": "8200-287",
      "city": "ALBUFEIRA",
      "lon": "-8.222656161882036",
      "lat": "37.10336721255592"
    },
    {
      "id": "pt.ine.add.PTCONT.1806403",
      "street": "R RAUL BRANDAO",
      "house": "1",
      "postcode": "8200-287",
      "city": "ALBUFEIRA",
      "lon": "-8.222656161882036",
      "lat": "37.10336721255592"
    },
    {
      "id": "pt.ine.add.PTCONT.1806404",
      "street": "R RAUL BRANDAO O",
      "house": "O",
      "postcode": "8200-287",
      "city": "ALBUFEIRA",
      "lon": "-8.222656161882036",
      "lat": "37.10336721255592"
    },
    {
      "id": "pt.ine.add.PTCONT.1806405",
      "street": "R RAUL BRANDAO P",
      "house": "P",
      "postcode": "8200-287",
      "city": "ALBUFEIRA",
      "lon": "-8.222656161882036",
      "lat": "37.10336721255592"
    },
    {
      "id": "pt.ine.add.PTCONT.1806406",
      "street": "R RAUL BRANDAO Q",
      "house": "Q",
      "postcode": "8200-287",
      "city": "ALBUFEIRA",
      "lon": "-8.222656161882036",
      "lat": "37.10336721255592"
    },
    {
      "id": "pt.ine.add.PTCONT.1806407",
      "street": "R RAUL BRANDAO",
      "house": "R",
      "postcode": "8200-287",
      "city": "ALBUFEIRA",
      "lon": "-8.222656161882036",
      "lat": "37.10336721255592"
    },
    {
      "id": "pt.ine.add.PTCONT.1806408",
      "street": "R RAUL BRANDAO S",
      "house": "S",
      "postcode": "8200-287",
      "city": "ALBUFEIRA",
      "lon": "-8.222656161882036",
      "lat": "37.10336721255592"
    },
    {
      "id": "pt.ine.add.PTCONT.1806409",
      "street": "R RAUL BRANDAO T",
      "house": "T",
      "postcode": "8200-287",
      "city": "ALBUFEIRA",
      "lon": "-8.222656161882036",
      "lat": "37.10336721255592"
    },
    {
      "id": "pt.ine.add.PTCONT.1806410",
      "street": "R RAUL BRANDAO Z",
      "house": "Z",
      "postcode": "8200-287",
      "city": "ALBUFEIRA",
      "lon": "-8.222656161882036",
      "lat": "37.10336721255592"
    },
    {
      "id": "pt.ine.add.PTCONT.1806411",
      "street": "R RAUL BRANDAO AA",
      "house": "AA",
      "postcode": "8200-287",
      "city": "ALBUFEIRA",
      "lon": "-8.222656161882036",
      "lat": "37.10336721255592"
    },
    {
      "id": "pt.ine.add.PTCONT.1806412",
      "street": "R RAUL BRANDAO AB",
      "house": "AB",
      "postcode": "8200-287",
      "city": "ALBUFEIRA",
      "lon": "-8.222656161882036",
      "lat": "37.10336721255592"
    },
    {
      "id": "pt.ine.add.PTCONT.1806413",
      "street": "R RAUL BRANDAO AC",
      "house": "AC",
      "postcode": "8200-287",
      "city": "ALBUFEIRA",
      "lon": "-8.222656161882036",
      "lat": "37.10336721255592"
    },
    {
      "id": "pt.ine.add.PTCONT.1806414",
      "street": "R RAUL BRANDAO AH",
      "house": "AH",
      "postcode": "8200-287",
      "city": "ALBUFEIRA",
      "lon": "-8.222656161882036",
      "lat": "37.10336721255592"
    },
    {
      "id": "pt.ine.add.PTCONT.1806415",
      "street": "R RAUL BRANDAO AJ",
      "house": "AJ",
      "postcode": "8200-287",
      "city": "ALBUFEIRA",
      "lon": "-8.222656161882036",
      "lat": "37.10336721255592"
    },
    {
      "id": "pt.ine.add.PTCONT.1806416",
      "street": "R RAUL BRANDAO",
      "house": "24",
      "postcode": "8200-287",
      "city": "ALBUFEIRA",
      "lon": "-8.222656161882036",
      "lat": "37.10336721255592"
    },
    {
      "id": "pt.ine.add.PTCONT.1806577",
      "street": "R RAUL BRANDAO AM",
      "house": "AM",
      "postcode": "8200-287",
      "city": "ALBUFEIRA",
      "lon": "-8.222656161882036",
      "lat": "37.10336721255592"
    },
    {
      "id": "pt.ine.add.PTCONT.1806686",
      "street": "R RAUL BRANDAO AD",
      "house": "AD",
      "postcode": "8200-287",
      "city": "ALBUFEIRA",
      "lon": "-8.222656161882036",
      "lat": "37.10336721255592"
    },
    {
      "id": "pt.ine.add.PTCONT.1806776",
      "street": "R RAUL BRANDAO",
      "house": "25",
      "postcode": "8200-287",
      "city": "ALBUFEIRA",
      "lon": "-8.222656161882036",
      "lat": "37.10336721255592"
    },
    {
      "id": "pt.ine.add.PTCONT.1810063",
      "street": "R RAUL BRANDAO",
      "house": "R C F",
      "postcode": "8200-287",
      "city": "ALBUFEIRA",
      "lon": "-8.222992812257973",
      "lat": "37.10265511538308"
    },
    {
      "id": "pt.ine.add.PTCONT.1812396",
      "street": "R RAUL BRANDAO",
      "house": "",
      "postcode": "8200-287",
      "city": "ALBUFEIRA",
      "lon": "-8.222992812257973",
      "lat": "37.10265511538308"
    },
    {
      "id": "pt.ine.add.PTCONT.1835226",
      "street": "R CÂNDIDO GUERREIRO",
      "house": "",
      "postcode": "8200-347",
      "city": "ALBUFEIRA",
      "lon": "-8.222137736490149",
      "lat": "37.10256565380861"
    },
    {
      "id": "pt.ine.add.PTCONT.1835815",
      "street": "R ANTÓNIO SÉRGIO",
      "house": "",
      "postcode": "8200-345",
      "city": "ALBUFEIRA",
      "lon": "-8.222531302894927",
      "lat": "37.10242118702753"
    },
    {
      "id": "pt.ine.add.PTCONT.1835816",
      "street": "R ANTÓNIO SÉRGIO",
      "house": "",
      "postcode": "8200-345",
      "city": "ALBUFEIRA",
      "lon": "-8.222531302894927",
      "lat": "37.10242118702753"
    },
    {
      "id": "pt.ine.add.PTCONT.1835817",
      "street": "R ANTÓNIO SÉRGIO",
      "house": "",
      "postcode": "8200-345",
      "city": "ALBUFEIRA",
      "lon": "-8.222531302894927",
      "lat": "37.10242118702753"
    },
    {
      "id": "pt.ine.add.PTCONT.1835818",
      "street": "R ANTÓNIO SÉRGIO",
      "house": "",
      "postcode": "8200-345",
      "city": "ALBUFEIRA",
      "lon": "-8.222531302894927",
      "lat": "37.10242118702753"
    },
    {
      "id": "pt.ine.add.PTCONT.1835819",
      "street": "R ANTÓNIO SÉRGIO",
      "house": "",
      "postcode": "8200-345",
      "city": "ALBUFEIRA",
      "lon": "-8.222531302894927",
      "lat": "37.10242118702753"
    },
    {
      "id": "pt.ine.add.PTCONT.1835820",
      "street": "R ANTÓNIO SÉRGIO",
      "house": "",
      "postcode": "8200-345",
      "city": "ALBUFEIRA",
      "lon": "-8.222531302894927",
      "lat": "37.10242118702753"
    },
    {
      "id": "pt.ine.add.PTCONT.1843042",
      "street": "R RAUL BRANDAO AI",
      "house": "AI",
      "postcode": "8200-287",
      "city": "ALBUFEIRA",
      "lon": "-8.222656161882036",
      "lat": "37.10336721255592"
    },
    {
      "id": "pt.ine.add.PTCONT.1844457",
      "street": "R RAUL BRANDAO",
      "house": "402",
      "postcode": "8200-287",
      "city": "ALBUFEIRA",
      "lon": "-8.22308263862334",
      "lat": "37.10251087662371"
    },
    {
      "id": "pt.ine.add.PTCONT.1847298",
      "street": "R CANDIDO GUERREIRO",
      "house": "14",
      "postcode": "8200-347",
      "city": "ALBUFEIRA",
      "lon": "-8.22193554886318",
      "lat": "37.10282711471355"
    },
    {
      "id": "pt.ine.add.PTCONT.1848675",
      "street": "R CÂNDIDO GUERREIRO",
      "house": "",
      "postcode": "8200-347",
      "city": "ALBUFEIRA",
      "lon": "-8.222284667793724",
      "lat": "37.10315123658696"
    }
  ]
}