{
  "data": {
    "distrito": "Aveiro",
    "concelho": "Aveiro",
    "freguesia": "Aradas",
    "OBJECTID": 681,
    "BGRI2021": "01050100405",
    "DT21": "01",
    "DTMN21": "0105",
    "DTMNFR21": "010501",
    "DTMNFRSEC21": "010501004",
    "SECNUM21": "004",
    "SSNUM21": "05",
    "SECSSNUM21": "00405",
    "OBJECTID_1": 3481,
    "DT": "01",
    "CC": "05",
    "fr": "01",
    "SEC": "004",
    "SS": "05"
  },
  "addresses": [
    {
      "id": "pt.ine.add.PTCONT.295412",
      "street": "R FUTEBOL CLUBE BOM-SUCESSO FAMILIA TEIXEIRA",
      "house": "",
      "postcode": "3810-501",
      "city": "AVEIRO",
      "lon": "-8.645490760400083",
      "lat": "40.60470795950291"
    },
    {
      "id": "pt.ine.add.PTCONT.302760",
      "street": "R CAPELA",
      "house": "92",
      "postcode": "3810-383",
      "city": "AVEIRO",
      "lon": "-8.643777537728724",
      "lat": "40.60470654169656"
    },
    {
      "id": "pt.ine.add.PTCONT.325085",
      "street": "R FUTEBOL CLUBE BOM-SUCESSO",
      "house": "8",
      "postcode": "3810-501",
      "city": "AVEIRO",
      "lon": "-8.643456721271974",
      "lat": "40.60291592472343"
    },
    {
      "id": "pt.ine.add.PTCONT.329094",
      "street": "R CAPELA",
      "house": "114",
      "postcode": "3810-383",
      "city": "AVEIRO",
      "lon": "-8.643264569139745",
      "lat": "40.60406043415433"
    },
    {
      "id": "pt.ine.add.PTCONT.335522",
      "street": "R CAPELA",
      "house": "124",
      "postcode": "3810-383",
      "city": "AVEIRO",
      "lon": "-8.642872561726211",
      "lat": "40.60378300370489"
    },
    {
      "id": "pt.ine.add.PTCONT.343080",
      "street": "R FUTEBOL CLUBE BOM-SUCESSO",
      "house": "14",
      "postcode": "3810-501",
      "city": "AVEIRO",
      "lon": "-8.643504938395143",
      "lat": "40.60304178449549"
    },
    {
      "id": "pt.ine.add.PTCONT.347593",
      "street": "R CAPELA",
      "house": "128",
      "postcode": "3810-383",
      "city": "AVEIRO",
      "lon": "-8.642753935980808",
      "lat": "40.60372049078574"
    },
    {
      "id": "pt.ine.add.PTCONT.11105",
      "street": "R CAPELA",
      "house": "116",
      "postcode": "3810-383",
      "city": "AVEIRO",
      "lon": "-8.643087279533875",
      "lat": "40.604052211879726"
    },
    {
      "id": "pt.ine.add.PTCONT.13684",
      "street": "R FUTEBOL CLUBE BOM-SUCESSO",
      "house": "4",
      "postcode": "3810-501",
      "city": "AVEIRO",
      "lon": "-8.643300735804482",
      "lat": "40.60260143175235"
    },
    {
      "id": "pt.ine.add.PTCONT.26890",
      "street": "R FUTEBOL CLUBE BOM-SUCESSO",
      "house": "14",
      "postcode": "3810-501",
      "city": "AVEIRO",
      "lon": "-8.643504938395143",
      "lat": "40.60304178449549"
    },
    {
      "id": "pt.ine.add.PTCONT.26891",
      "street": "R FUTEBOL CLUBE BOM-SUCESSO",
      "house": "14",
      "postcode": "3810-501",
      "city": "AVEIRO",
      "lon": "-8.643504938395143",
      "lat": "40.60304178449549"
    },
    {
      "id": "pt.ine.add.PTCONT.26892",
      "street": "R FUTEBOL CLUBE BOM-SUCESSO",
      "house": "14",
      "postcode": "3810-501",
      "city": "AVEIRO",
      "lon": "-8.643504938395143",
      "lat": "40.60304178449549"
    },
    {
      "id": "pt.ine.add.PTCONT.26893",
      "street": "R FUTEBOL CLUBE BOM-SUCESSO",
      "house": "14",
      "postcode": "3810-501",
      "city": "AVEIRO",
      "lon": "-8.643504938395143",
      "lat": "40.60304178449549"
    },
    {
      "id": "pt.ine.add.PTCONT.26907",
      "street": "VLA AZENHA",
      "house": "5",
      "postcode": "3810-398",
      "city": "AVEIRO",
      "lon": "-8.644800688879366",
      "lat": "40.60562954893206"
    },
    {
      "id": "pt.ine.add.PTCONT.28980",
      "street": "R FUTEBOL CLUBE BOM-SUCESSO",
      "house": "14",
      "postcode": "3810-501",
      "city": "AVEIRO",
      "lon": "-8.643504938395143",
      "lat": "40.60304178449549"
    },
    {
      "id": "pt.ine.add.PTCONT.32529",
      "street": "R CAPELA",
      "house": "88",
      "postcode": "3810-383",
      "city": "AVEIRO",
      "lon": "-8.643825208419845",
      "lat": "40.60476036211553"
    },
    {
      "id": "pt.ine.add.PTCONT.32530",
      "street": "R CAPELA",
      "house": "122",
      "postcode": "3810-383",
      "city": "AVEIRO",
      "lon": "-8.643050466538526",
      "lat": "40.60387227040212"
    },
    {
      "id": "pt.ine.add.PTCONT.35025",
      "street": "R CAPELA",
      "house": "64",
      "postcode": "3810-472",
      "city": "AVEIRO",
      "lon": "-8.644387026007962",
      "lat": "40.605613370400405"
    },
    {
      "id": "pt.ine.add.PTCONT.37858",
      "street": "R TERREIRO",
      "house": "16 16 A",
      "postcode": "3810-461",
      "city": "AVEIRO",
      "lon": "-8.642641517796449",
      "lat": "40.60291952381412"
    },
    {
      "id": "pt.ine.add.PTCONT.43391",
      "street": "R FUTEBOL CLUBE BONSUCESSO",
      "house": "",
      "postcode": "3810-398",
      "city": "AVEIRO",
      "lon": "-8.645739629135196",
      "lat": "40.60480591240471"
    },
    {
      "id": "pt.ine.add.PTCONT.75552",
      "street": "R CAPELA",
      "house": "76",
      "postcode": "3810-383",
      "city": "AVEIRO",
      "lon": "-8.644217705674102",
      "lat": "40.60510082349226"
    },
    {
      "id": "pt.ine.add.PTCONT.75553",
      "street": "VLA AZENHA",
      "house": "3",
      "postcode": "3810-398",
      "city": "AVEIRO",
      "lon": "-8.644659457934445",
      "lat": "40.60570221610666"
    },
    {
      "id": "pt.ine.add.PTCONT.87712",
      "street": "R CAPELA",
      "house": "104",
      "postcode": "3810-383",
      "city": "AVEIRO",
      "lon": "-8.64343209873846",
      "lat": "40.604338855285235"
    },
    {
      "id": "pt.ine.add.PTCONT.88977",
      "street": "R CAPELA",
      "house": "70",
      "postcode": "3810-472",
      "city": "AVEIRO",
      "lon": "-8.644291065103742",
      "lat": "40.60542468598472"
    },
    {
      "id": "pt.ine.add.PTCONT.101438",
      "street": "R TERREIRO",
      "house": "36",
      "postcode": "3810-461",
      "city": "AVEIRO",
      "lon": "-8.643028592004008",
      "lat": "40.6025486023098"
    },
    {
      "id": "pt.ine.add.PTCONT.115657",
      "street": "R CAPELA",
      "house": "94",
      "postcode": "3810-383",
      "city": "AVEIRO",
      "lon": "-8.643729455928323",
      "lat": "40.60459869187799"
    },
    {
      "id": "pt.ine.add.PTCONT.134431",
      "street": "R CAPELA",
      "house": "60",
      "postcode": "3810-472",
      "city": "AVEIRO",
      "lon": "-8.644458396517969",
      "lat": "40.60567609083324"
    },
    {
      "id": "pt.ine.add.PTCONT.148771",
      "street": "R CAPELA",
      "house": "138",
      "postcode": "3810-383",
      "city": "AVEIRO",
      "lon": "-8.642551924030013",
      "lat": "40.603568293550154"
    },
    {
      "id": "pt.ine.add.PTCONT.149137",
      "street": "R FUTEBOL CLUBE BOM-SUCESSO",
      "house": "",
      "postcode": "3810-501",
      "city": "AVEIRO",
      "lon": "-8.64458891858651",
      "lat": "40.60419866030673"
    },
    {
      "id": "pt.ine.add.PTCONT.154475",
      "street": "R CAPELA",
      "house": "134",
      "postcode": "3810-383",
      "city": "AVEIRO",
      "lon": "-8.642647125129999",
      "lat": "40.60365792562296"
    },
    {
      "id": "pt.ine.add.PTCONT.168795",
      "street": "R CAPELA",
      "house": "150",
      "postcode": "3810-383",
      "city": "AVEIRO",
      "lon": "-8.64238433168036",
      "lat": "40.603280866171396"
    },
    {
      "id": "pt.ine.add.PTCONT.180681",
      "street": "R CAPELA",
      "house": "140 142",
      "postcode": "3810-383",
      "city": "AVEIRO",
      "lon": "-8.642444771830249",
      "lat": "40.6034607036959"
    },
    {
      "id": "pt.ine.add.PTCONT.182958",
      "street": "R CAPELA",
      "house": "102",
      "postcode": "3810-383",
      "city": "AVEIRO",
      "lon": "-8.643527096600815",
      "lat": "40.60440147191558"
    },
    {
      "id": "pt.ine.add.PTCONT.184329",
      "street": "R CAPELA",
      "house": "56-58",
      "postcode": "3810-472",
      "city": "AVEIRO",
      "lon": "-8.644576684073186",
      "lat": "40.605693577482164"
    },
    {
      "id": "pt.ine.add.PTCONT.193729",
      "street": "R FUTEBOL CLUBE BOM-SUCESSO",
      "house": "22",
      "postcode": "3810-501",
      "city": "AVEIRO",
      "lon": "-8.643613530360275",
      "lat": "40.603338476242975"
    },
    {
      "id": "pt.ine.add.PTCONT.200643",
      "street": "R TERREIRO",
      "house": "1",
      "postcode": "3810-461",
      "city": "AVEIRO",
      "lon": "-8.643205056162476",
      "lat": "40.602448765894025"
    },
    {
      "id": "pt.ine.add.PTCONT.203203",
      "street": "R FUTEBOL CLUBE BOM-SUCESSO",
      "house": "6",
      "postcode": "3810-501",
      "city": "AVEIRO",
      "lon": "-8.643360835389558",
      "lat": "40.60273624430765"
    },
    {
      "id": "pt.ine.add.PTCONT.205968",
      "street": "R CAPELA",
      "house": "66",
      "postcode": "3810-472",
      "city": "AVEIRO",
      "lon": "-8.644350757561813",
      "lat": "40.60550546856632"
    },
    {
      "id": "pt.ine.add.PTCONT.205970",
      "street": "R CAPELA",
      "house": "144",
      "postcode": "3810-383",
      "city": "AVEIRO",
      "lon": "-8.642313990732632",
      "lat": "40.60335321791256"
    },
    {
      "id": "pt.ine.add.PTCONT.208713",
      "street": "R TERREIRO",
      "house": "38",
      "postcode": "3810-461",
      "city": "AVEIRO",
      "lon": "-8.643110882693014",
      "lat": "40.60249420776856"
    },
    {
      "id": "pt.ine.add.PTCONT.211079",
      "street": "R FUTEBOL CLUBE BOM-SUCESSO",
      "house": "18",
      "postcode": "3810-501",
      "city": "AVEIRO",
      "lon": "-8.643553224205247",
      "lat": "40.60317664914257"
    },
    {
      "id": "pt.ine.add.PTCONT.211080",
      "street": "R FUTEBOL CLUBE BOM-SUCESSO",
      "house": "18",
      "postcode": "3810-501",
      "city": "AVEIRO",
      "lon": "-8.643553224205247",
      "lat": "40.60317664914257"
    },
    {
      "id": "pt.ine.add.PTCONT.211081",
      "street": "R FUTEBOL CLUBE BOM-SUCESSO",
      "house": "18",
      "postcode": "3810-501",
      "city": "AVEIRO",
      "lon": "-8.643553224205247",
      "lat": "40.60317664914257"
    },
    {
      "id": "pt.ine.add.PTCONT.211082",
      "street": "R FUTEBOL CLUBE BOM-SUCESSO",
      "house": "18",
      "postcode": "3810-501",
      "city": "AVEIRO",
      "lon": "-8.643553224205247",
      "lat": "40.60317664914257"
    },
    {
      "id": "pt.ine.add.PTCONT.233262",
      "street": "R COSTEIRA",
      "house": "18",
      "postcode": "3810-461",
      "city": "AVEIRO",
      "lon": "-8.642688365650365",
      "lat": "40.60286528592428"
    },
    {
      "id": "pt.ine.add.PTCONT.238833",
      "street": "R CAPELA",
      "house": "108",
      "postcode": "3810-383",
      "city": "AVEIRO",
      "lon": "-8.643348710397962",
      "lat": "40.604249171689986"
    },
    {
      "id": "pt.ine.add.PTCONT.261285",
      "street": "R CAPELA",
      "house": "96 98",
      "postcode": "3810-383",
      "city": "AVEIRO",
      "lon": "-8.643610485369821",
      "lat": "40.604491155377076"
    },
    {
      "id": "pt.ine.add.PTCONT.275908",
      "street": "R TERREIRO",
      "house": "34",
      "postcode": "3810-461",
      "city": "AVEIRO",
      "lon": "-8.642922809041268",
      "lat": "40.602621110891626"
    }
  ]
}