{
  "data": {
    "distrito": "Faro",
    "concelho": "Loul√©",
    "freguesia": "Quarteira",
    "OBJECTID": 134,
    "BGRI2021": "08080501606",
    "DT21": "08",
    "DTMN21": "0808",
    "DTMNFR21": "080805",
    "DTMNFRSEC21": "080805016",
    "SECNUM21": "016",
    "SSNUM21": "06",
    "SECSSNUM21": "01606",
    "OBJECTID_1": 69332,
    "DT": "08",
    "CC": "08",
    "fr": "05",
    "SEC": "016",
    "SS": "06"
  },
  "addresses": [
    {
      "id": "pt.ine.add.PTCONT.1473005",
      "street": "CEGONHA COUNTRY CLUB",
      "house": "15",
      "postcode": "8125-300",
      "city": "QUARTEIRA",
      "lon": "-8.150952543035475",
      "lat": "37.112491437577134"
    },
    {
      "id": "pt.ine.add.PTCONT.1479399",
      "street": "CAM CERCA DA AREIA",
      "house": "",
      "postcode": "8125-302",
      "city": "QUARTEIRA",
      "lon": "-8.156408760600822",
      "lat": "37.110679349457705"
    },
    {
      "id": "pt.ine.add.PTCONT.1479400",
      "street": "RETORTA",
      "house": "37",
      "postcode": "8125-302",
      "city": "QUARTEIRA",
      "lon": "-8.154181604733521",
      "lat": "37.1124999182944"
    },
    {
      "id": "pt.ine.add.PTCONT.1496460",
      "street": "CEGONHA COUNTRY CLUB",
      "house": "18",
      "postcode": "8125-300",
      "city": "QUARTEIRA",
      "lon": "-8.150817465059312",
      "lat": "37.11221212759202"
    },
    {
      "id": "pt.ine.add.PTCONT.1503270",
      "street": "SIT RETORTA",
      "house": "",
      "postcode": "8125-302",
      "city": "QUARTEIRA",
      "lon": "-8.153090399268594",
      "lat": "37.11306777829782"
    },
    {
      "id": "pt.ine.add.PTCONT.1516480",
      "street": "CAM CERCA DA AREIA",
      "house": "",
      "postcode": "8125-302",
      "city": "QUARTEIRA",
      "lon": "-8.156149912825692",
      "lat": "37.110418091033004"
    },
    {
      "id": "pt.ine.add.PTCONT.1521871",
      "street": "PTE BARAO",
      "house": "7",
      "postcode": "8125-302",
      "city": "QUARTEIRA",
      "lon": "-8.159086003768245",
      "lat": "37.109363237314895"
    },
    {
      "id": "pt.ine.add.PTCONT.1525479",
      "street": "CAM CERCA DA AREIA",
      "house": "",
      "postcode": "8125-302",
      "city": "QUARTEIRA",
      "lon": "-8.153292475372306",
      "lat": "37.111391762619604"
    },
    {
      "id": "pt.ine.add.PTCONT.1525480",
      "street": "CAM CERCA DA AREIA",
      "house": "",
      "postcode": "8125-302",
      "city": "QUARTEIRA",
      "lon": "-8.159738394259785",
      "lat": "37.10894860234291"
    },
    {
      "id": "pt.ine.add.PTCONT.1548397",
      "street": "CAM CERCA DA AREIA",
      "house": "",
      "postcode": "8125-302",
      "city": "QUARTEIRA",
      "lon": "-8.152111890377592",
      "lat": "37.11443755806692"
    },
    {
      "id": "pt.ine.add.PTCONT.1566443",
      "street": "SIT RETORTA",
      "house": "",
      "postcode": "8125-302",
      "city": "QUARTEIRA",
      "lon": "-8.152944319830977",
      "lat": "37.1137796442669"
    },
    {
      "id": "pt.ine.add.PTCONT.1587101",
      "street": "CAM CERCA DA AREIA",
      "house": "",
      "postcode": "8125-302",
      "city": "QUARTEIRA",
      "lon": "-8.151616869777426",
      "lat": "37.11459982806557"
    },
    {
      "id": "pt.ine.add.PTCONT.1587102",
      "street": "CAM CERCA DA AREIA",
      "house": "",
      "postcode": "8125-302",
      "city": "QUARTEIRA",
      "lon": "-8.151830643957378",
      "lat": "37.11459078385256"
    },
    {
      "id": "pt.ine.add.PTCONT.1587103",
      "street": "CAM CERCA DA AREIA",
      "house": "",
      "postcode": "8125-302",
      "city": "QUARTEIRA",
      "lon": "-8.154552755660601",
      "lat": "37.11202228714516"
    },
    {
      "id": "pt.ine.add.PTCONT.1588207",
      "street": "CAM CERCA DA AREIA",
      "house": "",
      "postcode": "8125-302",
      "city": "QUARTEIRA",
      "lon": "-8.151830643957378",
      "lat": "37.11459078385256"
    },
    {
      "id": "pt.ine.add.PTCONT.1591007",
      "street": "",
      "house": "",
      "postcode": "8125-000",
      "city": "",
      "lon": "-8.150671301473919",
      "lat": "37.11264466066187"
    },
    {
      "id": "pt.ine.add.PTCONT.1606960",
      "street": "CAM CERCA DA AREIA",
      "house": "",
      "postcode": "8125-302",
      "city": "QUARTEIRA",
      "lon": "-8.152269379976605",
      "lat": "37.114320394274046"
    },
    {
      "id": "pt.ine.add.PTCONT.1627533",
      "street": "SIT RETORTA",
      "house": "",
      "postcode": "8125-302",
      "city": "QUARTEIRA",
      "lon": "-8.153674857830516",
      "lat": "37.11084204697634"
    },
    {
      "id": "pt.ine.add.PTCONT.1630723",
      "street": "CAM CERCA DA AREIA",
      "house": "",
      "postcode": "8125-302",
      "city": "QUARTEIRA",
      "lon": "-8.155508950657332",
      "lat": "37.111544545710544"
    },
    {
      "id": "pt.ine.add.PTCONT.1647332",
      "street": "CAM CERCA DA AREIA",
      "house": "11B",
      "postcode": "8125-302",
      "city": "QUARTEIRA",
      "lon": "-8.158557288217855",
      "lat": "37.109552575770294"
    },
    {
      "id": "pt.ine.add.PTCONT.1647333",
      "street": "CAM CERCA DA AREIA",
      "house": "11B",
      "postcode": "8125-302",
      "city": "QUARTEIRA",
      "lon": "-8.158557288217855",
      "lat": "37.109552575770294"
    },
    {
      "id": "pt.ine.add.PTCONT.1670786",
      "street": "CAM CERCA DA AREIA",
      "house": "",
      "postcode": "8125-302",
      "city": "QUARTEIRA",
      "lon": "-8.154552694681692",
      "lat": "37.1118060314741"
    },
    {
      "id": "pt.ine.add.PTCONT.1687551",
      "street": "CAM CERCA DA AREIA",
      "house": "",
      "postcode": "8125-302",
      "city": "QUARTEIRA",
      "lon": "-8.155182759789499",
      "lat": "37.11184195846082"
    },
    {
      "id": "pt.ine.add.PTCONT.1693316",
      "street": "CAM CERCA DA AREIA VILLA MARILYNE",
      "house": "",
      "postcode": "8125-302",
      "city": "QUARTEIRA",
      "lon": "-8.15333796799153",
      "lat": "37.11322992804489"
    },
    {
      "id": "pt.ine.add.PTCONT.1697245",
      "street": "CAM CERCA DA AREIA",
      "house": "",
      "postcode": "8125-302",
      "city": "QUARTEIRA",
      "lon": "-8.153281786158592",
      "lat": "37.11350926780507"
    },
    {
      "id": "pt.ine.add.PTCONT.1724659",
      "street": "PTE BARAO",
      "house": "",
      "postcode": "8125-302",
      "city": "QUARTEIRA",
      "lon": "-8.159727200470785",
      "lat": "37.10911079669535"
    },
    {
      "id": "pt.ine.add.PTCONT.1790415",
      "street": "CAM CERCA DA AREIA",
      "house": "",
      "postcode": "8125-302",
      "city": "QUARTEIRA",
      "lon": "-8.1546090591019",
      "lat": "37.11219347935806"
    },
    {
      "id": "pt.ine.add.PTCONT.1845566",
      "street": "ESTALAGEM DA CEGONHA",
      "house": "",
      "postcode": "8125-300",
      "city": "QUARTEIRA",
      "lon": "-8.151345959081455",
      "lat": "37.110941545268105"
    }
  ]
}