{
  "data": {
    "distrito": "Porto",
    "concelho": "Porto",
    "freguesia": "Uni√£o das freguesias de Aldoar, Foz do Douro e Nevogilde",
    "OBJECTID": 1085,
    "BGRI2021": "13121600711",
    "DT21": "13",
    "DTMN21": "1312",
    "DTMNFR21": "131216",
    "DTMNFRSEC21": "131216007",
    "SECNUM21": "007",
    "SSNUM21": "11",
    "SECSSNUM21": "00711",
    "OBJECTID_1": 138607,
    "DT": "13",
    "CC": "12",
    "fr": "16",
    "SEC": "007",
    "SS": "11"
  },
  "addresses": [
    {
      "id": "pt.ine.add.PTCONT.3562284",
      "street": "R PADRE LUIS CABRAL",
      "house": "962",
      "postcode": "4150-459",
      "city": "PORTO",
      "lon": "-8.672002986901022",
      "lat": "41.15021332438332"
    },
    {
      "id": "pt.ine.add.PTCONT.3632714",
      "street": "BC CENTRAL",
      "house": "8",
      "postcode": "4150-199",
      "city": "PORTO",
      "lon": "-8.672159099147963",
      "lat": "41.15036566782057"
    },
    {
      "id": "pt.ine.add.PTCONT.3654363",
      "street": "R VELUDO",
      "house": "15",
      "postcode": "4150-741",
      "city": "PORTO",
      "lon": "-8.672042631391887",
      "lat": "41.15069036923259"
    },
    {
      "id": "pt.ine.add.PTCONT.3671495",
      "street": "R ALTO DE VILA",
      "house": "29",
      "postcode": "4150-059",
      "city": "PORTO",
      "lon": "-8.67220199020787",
      "lat": "41.15123888857893"
    },
    {
      "id": "pt.ine.add.PTCONT.3710355",
      "street": "R VELUDO",
      "house": "31",
      "postcode": "4150-741",
      "city": "PORTO",
      "lon": "-8.672140732073832",
      "lat": "41.151032075325965"
    },
    {
      "id": "pt.ine.add.PTCONT.3736753",
      "street": "R VELUDO",
      "house": "29",
      "postcode": "4150-741",
      "city": "PORTO",
      "lon": "-8.672116022441635",
      "lat": "41.15092413881316"
    },
    {
      "id": "pt.ine.add.PTCONT.3736754",
      "street": "R VELUDO",
      "house": "19",
      "postcode": "4150-741",
      "city": "PORTO",
      "lon": "-8.672078884408538",
      "lat": "41.15075323002912"
    },
    {
      "id": "pt.ine.add.PTCONT.3736772",
      "street": "R D MIGUEL DA SILVA",
      "house": "100",
      "postcode": "4150-490",
      "city": "PORTO",
      "lon": "-8.672592146194004",
      "lat": "41.150876888184406"
    },
    {
      "id": "pt.ine.add.PTCONT.3736773",
      "street": "R D MIGUEL DA SILVA",
      "house": "78",
      "postcode": "4150-490",
      "city": "PORTO",
      "lon": "-8.672651117200026",
      "lat": "41.15080457722315"
    },
    {
      "id": "pt.ine.add.PTCONT.3736774",
      "street": "R D MIGUEL DA SILVA",
      "house": "78",
      "postcode": "4150-490",
      "city": "PORTO",
      "lon": "-8.672651117200026",
      "lat": "41.15080457722315"
    },
    {
      "id": "pt.ine.add.PTCONT.3774008",
      "street": "R PADRE LUIS CABRAL",
      "house": "944",
      "postcode": "4150-459",
      "city": "PORTO",
      "lon": "-8.671836879556231",
      "lat": "41.150295140476906"
    },
    {
      "id": "pt.ine.add.PTCONT.3865475",
      "street": "R PADRE LUIS CABRAL",
      "house": "950",
      "postcode": "4150-459",
      "city": "PORTO",
      "lon": "-8.671908131653835",
      "lat": "41.15026779418132"
    },
    {
      "id": "pt.ine.add.PTCONT.3893978",
      "street": "R VELUDO",
      "house": "7",
      "postcode": "4150-741",
      "city": "PORTO",
      "lon": "-8.671957181189857",
      "lat": "41.15043864731564"
    },
    {
      "id": "pt.ine.add.PTCONT.3916423",
      "street": "R VELUDO",
      "house": "49",
      "postcode": "4150-741",
      "city": "PORTO",
      "lon": "-8.672095147526523",
      "lat": "41.1512844102799"
    },
    {
      "id": "pt.ine.add.PTCONT.3916424",
      "street": "R VELUDO",
      "house": "7A",
      "postcode": "4150-741",
      "city": "PORTO",
      "lon": "-8.671993728895742",
      "lat": "41.150537524146095"
    },
    {
      "id": "pt.ine.add.PTCONT.4158053",
      "street": "BC CENTRAL",
      "house": "6",
      "postcode": "4150-199",
      "city": "PORTO",
      "lon": "-8.672230793745443",
      "lat": "41.15039234533014"
    },
    {
      "id": "pt.ine.add.PTCONT.4158054",
      "street": "BC CENTRAL",
      "house": "6",
      "postcode": "4150-199",
      "city": "PORTO",
      "lon": "-8.672230793745443",
      "lat": "41.15039234533014"
    },
    {
      "id": "pt.ine.add.PTCONT.4177733",
      "street": "BC CENTRAL",
      "house": "4",
      "postcode": "4150-199",
      "city": "PORTO",
      "lon": "-8.672182186054295",
      "lat": "41.150275516320434"
    },
    {
      "id": "pt.ine.add.PTCONT.4197166",
      "street": "R ALTO DE VILA",
      "house": "55",
      "postcode": "4150-059",
      "city": "PORTO",
      "lon": "-8.672546858701642",
      "lat": "41.15116523930817"
    },
    {
      "id": "pt.ine.add.PTCONT.4223449",
      "street": "R VELUDO",
      "house": "9",
      "postcode": "4150-741",
      "city": "PORTO",
      "lon": "-8.672006304715046",
      "lat": "41.150618504423"
    },
    {
      "id": "pt.ine.add.PTCONT.4223450",
      "street": "R VELUDO",
      "house": "9",
      "postcode": "4150-741",
      "city": "PORTO",
      "lon": "-8.672006304715046",
      "lat": "41.150618504423"
    },
    {
      "id": "pt.ine.add.PTCONT.4312488",
      "street": "R DO VELUDO",
      "house": "23-23A",
      "postcode": "4169-005",
      "city": "PORTO",
      "lon": "-8.672055723462634",
      "lat": "41.15083437750288"
    },
    {
      "id": "pt.ine.add.PTCONT.4339810",
      "street": "R VELUDO",
      "house": "27",
      "postcode": "4150-741",
      "city": "PORTO",
      "lon": "-8.672091534118783",
      "lat": "41.150843214292905"
    },
    {
      "id": "pt.ine.add.PTCONT.4388938",
      "street": "R D MIGUEL DA SILVA",
      "house": "100",
      "postcode": "4150-490",
      "city": "PORTO",
      "lon": "-8.672592146194004",
      "lat": "41.150876888184406"
    }
  ]
}