{
  "data": {
    "distrito": "Leiria",
    "concelho": "Caldas da Rainha",
    "freguesia": "União das freguesias de Caldas da Rainha - Santo Onofre e Serra do Bouro",
    "OBJECTID": 988,
    "BGRI2021": "10061800917",
    "DT21": "10",
    "DTMN21": "1006",
    "DTMNFR21": "100618",
    "DTMNFRSEC21": "100618009",
    "SECNUM21": "009",
    "SSNUM21": "17",
    "SECSSNUM21": "00917",
    "OBJECTID_1": 88195,
    "DT": "10",
    "CC": "06",
    "fr": "18",
    "SEC": "009",
    "SS": "17"
  },
  "addresses": [
    {
      "id": "pt.ine.add.PTCONT.1984646",
      "street": "R JOAQUIM CLAUDINO FERREIRA",
      "house": "15",
      "postcode": "2500-835",
      "city": "CALDAS DA RAINHA",
      "lon": "-9.146568608558827",
      "lat": "39.39908572971303"
    },
    {
      "id": "pt.ine.add.PTCONT.2002390",
      "street": "VÁRZEA DA JUNQUEIRA",
      "house": "",
      "postcode": "2500-835",
      "city": "CALDAS DA RAINHA",
      "lon": "-9.147612896189592",
      "lat": "39.399851217362844"
    },
    {
      "id": "pt.ine.add.PTCONT.2017554",
      "street": "R FRANCISCO RAMOS",
      "house": "12C",
      "postcode": "2500-831",
      "city": "CALDAS DA RAINHA",
      "lon": "-9.1468881429768",
      "lat": "39.3987046576716"
    },
    {
      "id": "pt.ine.add.PTCONT.2017557",
      "street": "R GEN ANTÓNIO DAMIÃO",
      "house": "2",
      "postcode": "2500-839",
      "city": "CALDAS DA RAINHA",
      "lon": "-9.15235458446238",
      "lat": "39.39861185943189"
    },
    {
      "id": "pt.ine.add.PTCONT.2017558",
      "street": "R GEN ANTÓNIO DAMIÃO",
      "house": "2",
      "postcode": "2500-839",
      "city": "CALDAS DA RAINHA",
      "lon": "-9.15235458446238",
      "lat": "39.39861185943189"
    },
    {
      "id": "pt.ine.add.PTCONT.2017559",
      "street": "R GEN ANTÓNIO DAMIÃO",
      "house": "2",
      "postcode": "2500-839",
      "city": "CALDAS DA RAINHA",
      "lon": "-9.15235458446238",
      "lat": "39.39861185943189"
    },
    {
      "id": "pt.ine.add.PTCONT.2017560",
      "street": "R GEN ANTÓNIO DAMIÃO",
      "house": "2",
      "postcode": "2500-839",
      "city": "CALDAS DA RAINHA",
      "lon": "-9.15235458446238",
      "lat": "39.39861185943189"
    },
    {
      "id": "pt.ine.add.PTCONT.2017561",
      "street": "R GEN ANTÓNIO DAMIÃO",
      "house": "2",
      "postcode": "2500-839",
      "city": "CALDAS DA RAINHA",
      "lon": "-9.15235458446238",
      "lat": "39.39861185943189"
    },
    {
      "id": "pt.ine.add.PTCONT.2018978",
      "street": "R GEN ANTÓNIO DAMIÃO",
      "house": "2",
      "postcode": "2500-839",
      "city": "CALDAS DA RAINHA",
      "lon": "-9.15235458446238",
      "lat": "39.39861185943189"
    },
    {
      "id": "pt.ine.add.PTCONT.2021852",
      "street": "VÁRZEA DA JUNQUEIRA FAMILIA SOUZA",
      "house": "",
      "postcode": "2500-835",
      "city": "CALDAS DA RAINHA",
      "lon": "-9.147050381554514",
      "lat": "39.40028845044371"
    },
    {
      "id": "pt.ine.add.PTCONT.2021853",
      "street": "VÁRZEA DA JUNQUEIRA FAMILIA SOUZA",
      "house": "",
      "postcode": "2500-835",
      "city": "CALDAS DA RAINHA",
      "lon": "-9.147050381554514",
      "lat": "39.40028845044371"
    },
    {
      "id": "pt.ine.add.PTCONT.2026271",
      "street": "R FRANCISCO RAMOS",
      "house": "10",
      "postcode": "2500-831",
      "city": "CALDAS DA RAINHA",
      "lon": "-9.146353158346058",
      "lat": "39.398637263529075"
    },
    {
      "id": "pt.ine.add.PTCONT.2032414",
      "street": "R FRANCISCO RAMOS",
      "house": "18",
      "postcode": "2500-831",
      "city": "CALDAS DA RAINHA",
      "lon": "-9.146885926681007",
      "lat": "39.3985515604086"
    },
    {
      "id": "pt.ine.add.PTCONT.2037389",
      "street": "R JOAQUIM CLAUDINO FERREIRA",
      "house": "5",
      "postcode": "2500-835",
      "city": "CALDAS DA RAINHA",
      "lon": "-9.146181261663974",
      "lat": "39.3987918771287"
    },
    {
      "id": "pt.ine.add.PTCONT.2048530",
      "street": "VÁRZEA DA JUNQUEIRA TIAGO OLIVEIRA",
      "house": "",
      "postcode": "2500-835",
      "city": "CALDAS DA RAINHA",
      "lon": "-9.147310184893497",
      "lat": "39.39979080876677"
    },
    {
      "id": "pt.ine.add.PTCONT.2059129",
      "street": "R COR JOSE GOULAO FREIRE",
      "house": "3",
      "postcode": "2500-839",
      "city": "CALDAS DA RAINHA",
      "lon": "-9.15220190991104",
      "lat": "39.39928871099033"
    },
    {
      "id": "pt.ine.add.PTCONT.2059221",
      "street": "R COR JOSE GOULAO FREIRE",
      "house": "3",
      "postcode": "2500-839",
      "city": "CALDAS DA RAINHA",
      "lon": "-9.15220190991104",
      "lat": "39.39928871099033"
    },
    {
      "id": "pt.ine.add.PTCONT.2059222",
      "street": "R COR JOSE GOULAO FREIRE",
      "house": "3",
      "postcode": "2500-839",
      "city": "CALDAS DA RAINHA",
      "lon": "-9.15220190991104",
      "lat": "39.39928871099033"
    },
    {
      "id": "pt.ine.add.PTCONT.2059223",
      "street": "R COR JOSE GOULAO FREIRE",
      "house": "3",
      "postcode": "2500-839",
      "city": "CALDAS DA RAINHA",
      "lon": "-9.15220190991104",
      "lat": "39.39928871099033"
    },
    {
      "id": "pt.ine.add.PTCONT.2059224",
      "street": "R COR JOSE GOULAO FREIRE",
      "house": "3",
      "postcode": "2500-839",
      "city": "CALDAS DA RAINHA",
      "lon": "-9.15220190991104",
      "lat": "39.39928871099033"
    },
    {
      "id": "pt.ine.add.PTCONT.2059225",
      "street": "R COR JOSE GOULAO FREIRE",
      "house": "3",
      "postcode": "2500-839",
      "city": "CALDAS DA RAINHA",
      "lon": "-9.15220190991104",
      "lat": "39.39928871099033"
    },
    {
      "id": "pt.ine.add.PTCONT.2059226",
      "street": "R COR JOSE GOULAO FREIRE",
      "house": "3",
      "postcode": "2500-839",
      "city": "CALDAS DA RAINHA",
      "lon": "-9.15220190991104",
      "lat": "39.39928871099033"
    },
    {
      "id": "pt.ine.add.PTCONT.2059227",
      "street": "R COR JOSE GOULAO FREIRE",
      "house": "3",
      "postcode": "2500-839",
      "city": "CALDAS DA RAINHA",
      "lon": "-9.15220190991104",
      "lat": "39.39928871099033"
    },
    {
      "id": "pt.ine.add.PTCONT.2059228",
      "street": "R COR JOSE GOULAO FREIRE",
      "house": "3",
      "postcode": "2500-839",
      "city": "CALDAS DA RAINHA",
      "lon": "-9.15220190991104",
      "lat": "39.39928871099033"
    },
    {
      "id": "pt.ine.add.PTCONT.2060837",
      "street": "R COR JOSE GOULAO FREIRE",
      "house": "3",
      "postcode": "2500-839",
      "city": "CALDAS DA RAINHA",
      "lon": "-9.15220190991104",
      "lat": "39.39928871099033"
    },
    {
      "id": "pt.ine.add.PTCONT.2061090",
      "street": "R COR JOSE GOULAO FREIRE",
      "house": "3",
      "postcode": "2500-839",
      "city": "CALDAS DA RAINHA",
      "lon": "-9.15220190991104",
      "lat": "39.39928871099033"
    },
    {
      "id": "pt.ine.add.PTCONT.2070816",
      "street": "VÁRZEA DA JUNQUEIRA",
      "house": "",
      "postcode": "2500-835",
      "city": "CALDAS DA RAINHA",
      "lon": "-9.147751796230308",
      "lat": "39.399822985440544"
    },
    {
      "id": "pt.ine.add.PTCONT.2087740",
      "street": "R ETELVINO DOS SANTOS",
      "house": "25",
      "postcode": "2500-297",
      "city": "CALDAS DA RAINHA",
      "lon": "-9.149821601577528",
      "lat": "39.40325453898109"
    },
    {
      "id": "pt.ine.add.PTCONT.2095221",
      "street": "R ETELVINO DOS SANTOS",
      "house": "35",
      "postcode": "2500-297",
      "city": "CALDAS DA RAINHA",
      "lon": "-9.148330113217682",
      "lat": "39.4012770504222"
    },
    {
      "id": "pt.ine.add.PTCONT.2095464",
      "street": "R JOAQUIM CLAUDINO FERREIRA",
      "house": "3",
      "postcode": "2500-835",
      "city": "CALDAS DA RAINHA",
      "lon": "-9.14597258796969",
      "lat": "39.39881170780847"
    },
    {
      "id": "pt.ine.add.PTCONT.2101876",
      "street": "R SANTO ONOFRE QTA DOS PINHEIROS STO ONOF",
      "house": "5",
      "postcode": "2500-297",
      "city": "CALDAS DA RAINHA",
      "lon": "-9.152530047491627",
      "lat": "39.40269042567096"
    },
    {
      "id": "pt.ine.add.PTCONT.2117395",
      "street": "R FRANCISCO RAMOS",
      "house": "2",
      "postcode": "2500-831",
      "city": "CALDAS DA RAINHA",
      "lon": "-9.145809041676104",
      "lat": "39.39874107671569"
    },
    {
      "id": "pt.ine.add.PTCONT.2120855",
      "street": "R COR JOSE GOULAO FREIRE",
      "house": "1",
      "postcode": "2500-839",
      "city": "CALDAS DA RAINHA",
      "lon": "-9.152111877323373",
      "lat": "39.398686040412386"
    },
    {
      "id": "pt.ine.add.PTCONT.2120856",
      "street": "R COR JOSE GOULAO FREIRE",
      "house": "1",
      "postcode": "2500-839",
      "city": "CALDAS DA RAINHA",
      "lon": "-9.152111877323373",
      "lat": "39.398686040412386"
    },
    {
      "id": "pt.ine.add.PTCONT.2120857",
      "street": "R COR JOSE GOULAO FREIRE",
      "house": "1",
      "postcode": "2500-839",
      "city": "CALDAS DA RAINHA",
      "lon": "-9.152111877323373",
      "lat": "39.398686040412386"
    },
    {
      "id": "pt.ine.add.PTCONT.2120858",
      "street": "R COR JOSE GOULAO FREIRE",
      "house": "1",
      "postcode": "2500-839",
      "city": "CALDAS DA RAINHA",
      "lon": "-9.152111877323373",
      "lat": "39.398686040412386"
    },
    {
      "id": "pt.ine.add.PTCONT.2120859",
      "street": "R COR JOSE GOULAO FREIRE",
      "house": "1",
      "postcode": "2500-839",
      "city": "CALDAS DA RAINHA",
      "lon": "-9.152111877323373",
      "lat": "39.398686040412386"
    },
    {
      "id": "pt.ine.add.PTCONT.2120860",
      "street": "R COR JOSE GOULAO FREIRE",
      "house": "1",
      "postcode": "2500-839",
      "city": "CALDAS DA RAINHA",
      "lon": "-9.152111877323373",
      "lat": "39.398686040412386"
    },
    {
      "id": "pt.ine.add.PTCONT.2120861",
      "street": "R COR JOSE GOULAO FREIRE",
      "house": "1",
      "postcode": "2500-839",
      "city": "CALDAS DA RAINHA",
      "lon": "-9.152111877323373",
      "lat": "39.398686040412386"
    },
    {
      "id": "pt.ine.add.PTCONT.2122295",
      "street": "R COR JOSE GOULAO FREIRE",
      "house": "1",
      "postcode": "2500-839",
      "city": "CALDAS DA RAINHA",
      "lon": "-9.152111877323373",
      "lat": "39.398686040412386"
    },
    {
      "id": "pt.ine.add.PTCONT.2132578",
      "street": "VÁRZEA DA JUNQUEIRA",
      "house": "",
      "postcode": "2500-835",
      "city": "CALDAS DA RAINHA",
      "lon": "-9.147028733416931",
      "lat": "39.39959511125639"
    },
    {
      "id": "pt.ine.add.PTCONT.2146875",
      "street": "R FRANCISCO RAMOS",
      "house": "8",
      "postcode": "2500-831",
      "city": "CALDAS DA RAINHA",
      "lon": "-9.146225606910367",
      "lat": "39.39864738123506"
    },
    {
      "id": "pt.ine.add.PTCONT.2155528",
      "street": "VÁRZEA DA JUNQUEIRA",
      "house": "",
      "postcode": "2500-835",
      "city": "CALDAS DA RAINHA",
      "lon": "-9.147542337214018",
      "lat": "39.399788784662185"
    },
    {
      "id": "pt.ine.add.PTCONT.2164261",
      "street": "R JOAQUIM CLAUDINO FERREIRA",
      "house": "N 6",
      "postcode": "2500-835",
      "city": "CALDAS DA RAINHA",
      "lon": "-9.146099879206925",
      "lat": "39.3987835789293"
    },
    {
      "id": "pt.ine.add.PTCONT.2166562",
      "street": "VARZEA JUNQUEIRA",
      "house": "1",
      "postcode": "2500-835",
      "city": "CALDAS DA RAINHA",
      "lon": "-9.146987127437418",
      "lat": "39.399928727522536"
    },
    {
      "id": "pt.ine.add.PTCONT.2168733",
      "street": "R JOAQUIM CLAUDINO FERREIRA",
      "house": "13",
      "postcode": "2500-835",
      "city": "CALDAS DA RAINHA",
      "lon": "-9.146429057898512",
      "lat": "39.39906893160377"
    },
    {
      "id": "pt.ine.add.PTCONT.2174000",
      "street": "BC JOSE FRANCISCO DE SOUSA",
      "house": "23",
      "postcode": "2500-297",
      "city": "CALDAS DA RAINHA",
      "lon": "-9.149811693380608",
      "lat": "39.403371714609044"
    },
    {
      "id": "pt.ine.add.PTCONT.2174001",
      "street": "VÁRZEA DA JUNQUEIRA",
      "house": "",
      "postcode": "2500-835",
      "city": "CALDAS DA RAINHA",
      "lon": "-9.14717180637702",
      "lat": "39.39985506303811"
    },
    {
      "id": "pt.ine.add.PTCONT.2174002",
      "street": "R GEN ANTÓNIO DAMIÃO",
      "house": "12",
      "postcode": "2500-839",
      "city": "CALDAS DA RAINHA",
      "lon": "-9.152158625085116",
      "lat": "39.39950525463372"
    },
    {
      "id": "pt.ine.add.PTCONT.2174003",
      "street": "R GEN ANTÓNIO DAMIÃO",
      "house": "12",
      "postcode": "2500-839",
      "city": "CALDAS DA RAINHA",
      "lon": "-9.152158625085116",
      "lat": "39.39950525463372"
    },
    {
      "id": "pt.ine.add.PTCONT.2174045",
      "street": "R GEN ANTÓNIO DAMIÃO",
      "house": "12",
      "postcode": "2500-839",
      "city": "CALDAS DA RAINHA",
      "lon": "-9.152158625085116",
      "lat": "39.39950525463372"
    },
    {
      "id": "pt.ine.add.PTCONT.2174046",
      "street": "R GEN ANTÓNIO DAMIÃO",
      "house": "12",
      "postcode": "2500-839",
      "city": "CALDAS DA RAINHA",
      "lon": "-9.152158625085116",
      "lat": "39.39950525463372"
    },
    {
      "id": "pt.ine.add.PTCONT.2174047",
      "street": "R GEN ANTÓNIO DAMIÃO",
      "house": "12",
      "postcode": "2500-839",
      "city": "CALDAS DA RAINHA",
      "lon": "-9.152158625085116",
      "lat": "39.39950525463372"
    },
    {
      "id": "pt.ine.add.PTCONT.2174221",
      "street": "R GEN ANTÓNIO DAMIÃO",
      "house": "12",
      "postcode": "2500-839",
      "city": "CALDAS DA RAINHA",
      "lon": "-9.152158625085116",
      "lat": "39.39950525463372"
    },
    {
      "id": "pt.ine.add.PTCONT.2174232",
      "street": "R GEN ANTÓNIO DAMIÃO",
      "house": "12",
      "postcode": "2500-839",
      "city": "CALDAS DA RAINHA",
      "lon": "-9.152158625085116",
      "lat": "39.39950525463372"
    },
    {
      "id": "pt.ine.add.PTCONT.2199751",
      "street": "R FRANCISCO RAMOS",
      "house": "14",
      "postcode": "2500-831",
      "city": "CALDAS DA RAINHA",
      "lon": "-9.146688339967028",
      "lat": "39.39853526832483"
    },
    {
      "id": "pt.ine.add.PTCONT.2205209",
      "street": "R JOAQUIM CLAUDINO FERREIRA",
      "house": "50",
      "postcode": "2500-835",
      "city": "CALDAS DA RAINHA",
      "lon": "-9.149745719808724",
      "lat": "39.40042705091652"
    },
    {
      "id": "pt.ine.add.PTCONT.2205210",
      "street": "R JOAQUIM CLAUDINO FERREIRA",
      "house": "50",
      "postcode": "2500-835",
      "city": "CALDAS DA RAINHA",
      "lon": "-9.149745719808724",
      "lat": "39.40042705091652"
    },
    {
      "id": "pt.ine.add.PTCONT.2205746",
      "street": "R JOAQUIM CLAUDINO FERREIRA",
      "house": "50",
      "postcode": "2500-835",
      "city": "CALDAS DA RAINHA",
      "lon": "-9.149745719808724",
      "lat": "39.40042705091652"
    },
    {
      "id": "pt.ine.add.PTCONT.2216676",
      "street": "R JOAQUIM CLAUDINO FERREIRA",
      "house": "52",
      "postcode": "2500-835",
      "city": "CALDAS DA RAINHA",
      "lon": "-9.149868174190576",
      "lat": "39.40006570660815"
    },
    {
      "id": "pt.ine.add.PTCONT.2219644",
      "street": "R CIDADE DE ABRANTES",
      "house": "76",
      "postcode": "2500-146",
      "city": "CALDAS DA RAINHA",
      "lon": "-9.144851060342686",
      "lat": "39.39992931022813"
    },
    {
      "id": "pt.ine.add.PTCONT.2219645",
      "street": "R FRANCISCO RAMOS",
      "house": "4",
      "postcode": "2500-831",
      "city": "CALDAS DA RAINHA",
      "lon": "-9.145900859306803",
      "lat": "39.398668222553574"
    },
    {
      "id": "pt.ine.add.PTCONT.2225276",
      "street": "R JOAQUIM CLAUDINO FERREIRA",
      "house": "60",
      "postcode": "2500-835",
      "city": "CALDAS DA RAINHA",
      "lon": "-9.150157875730507",
      "lat": "39.40082875678809"
    },
    {
      "id": "pt.ine.add.PTCONT.2226029",
      "street": "R FRANCISCO RAMOS",
      "house": "12D",
      "postcode": "2500-831",
      "city": "CALDAS DA RAINHA",
      "lon": "-9.146805848027311",
      "lat": "39.398633319915746"
    },
    {
      "id": "pt.ine.add.PTCONT.2236703",
      "street": "R JOAQUIM CLAUDINO FERREIRA",
      "house": "9",
      "postcode": "2500-835",
      "city": "CALDAS DA RAINHA",
      "lon": "-9.146311289017756",
      "lat": "39.39895286819727"
    },
    {
      "id": "pt.ine.add.PTCONT.2239022",
      "street": "R FRANCISCO RAMOS",
      "house": "12",
      "postcode": "2500-831",
      "city": "CALDAS DA RAINHA",
      "lon": "-9.146515010732042",
      "lat": "39.39859081946355"
    },
    {
      "id": "pt.ine.add.PTCONT.2239023",
      "street": "R GEN ANTÓNIO DAMIÃO",
      "house": "18",
      "postcode": "2500-839",
      "city": "CALDAS DA RAINHA",
      "lon": "-9.152488093744523",
      "lat": "39.399808601170385"
    },
    {
      "id": "pt.ine.add.PTCONT.2239024",
      "street": "R GEN ANTÓNIO DAMIÃO",
      "house": "18",
      "postcode": "2500-839",
      "city": "CALDAS DA RAINHA",
      "lon": "-9.152488093744523",
      "lat": "39.399808601170385"
    },
    {
      "id": "pt.ine.add.PTCONT.2239025",
      "street": "R GEN ANTÓNIO DAMIÃO",
      "house": "18",
      "postcode": "2500-839",
      "city": "CALDAS DA RAINHA",
      "lon": "-9.152488093744523",
      "lat": "39.399808601170385"
    },
    {
      "id": "pt.ine.add.PTCONT.2239026",
      "street": "R GEN ANTÓNIO DAMIÃO",
      "house": "18",
      "postcode": "2500-839",
      "city": "CALDAS DA RAINHA",
      "lon": "-9.152488093744523",
      "lat": "39.399808601170385"
    },
    {
      "id": "pt.ine.add.PTCONT.2239032",
      "street": "R GEN ANTÓNIO DAMIÃO",
      "house": "18",
      "postcode": "2500-839",
      "city": "CALDAS DA RAINHA",
      "lon": "-9.152488093744523",
      "lat": "39.399808601170385"
    },
    {
      "id": "pt.ine.add.PTCONT.2239033",
      "street": "R GEN ANTÓNIO DAMIÃO",
      "house": "18",
      "postcode": "2500-839",
      "city": "CALDAS DA RAINHA",
      "lon": "-9.152488093744523",
      "lat": "39.399808601170385"
    },
    {
      "id": "pt.ine.add.PTCONT.2239034",
      "street": "R GEN ANTÓNIO DAMIÃO",
      "house": "18",
      "postcode": "2500-839",
      "city": "CALDAS DA RAINHA",
      "lon": "-9.152488093744523",
      "lat": "39.399808601170385"
    },
    {
      "id": "pt.ine.add.PTCONT.2239035",
      "street": "R GEN ANTÓNIO DAMIÃO",
      "house": "18",
      "postcode": "2500-839",
      "city": "CALDAS DA RAINHA",
      "lon": "-9.152488093744523",
      "lat": "39.399808601170385"
    },
    {
      "id": "pt.ine.add.PTCONT.2239036",
      "street": "R GEN ANTÓNIO DAMIÃO",
      "house": "18",
      "postcode": "2500-839",
      "city": "CALDAS DA RAINHA",
      "lon": "-9.152488093744523",
      "lat": "39.399808601170385"
    },
    {
      "id": "pt.ine.add.PTCONT.2239037",
      "street": "R GEN ANTÓNIO DAMIÃO",
      "house": "18",
      "postcode": "2500-839",
      "city": "CALDAS DA RAINHA",
      "lon": "-9.152488093744523",
      "lat": "39.399808601170385"
    },
    {
      "id": "pt.ine.add.PTCONT.2240469",
      "street": "R GEN ANTÓNIO DAMIÃO",
      "house": "18",
      "postcode": "2500-839",
      "city": "CALDAS DA RAINHA",
      "lon": "-9.152488093744523",
      "lat": "39.399808601170385"
    },
    {
      "id": "pt.ine.add.PTCONT.2240696",
      "street": "R GEN ANTÓNIO DAMIÃO",
      "house": "18",
      "postcode": "2500-839",
      "city": "CALDAS DA RAINHA",
      "lon": "-9.152488093744523",
      "lat": "39.399808601170385"
    },
    {
      "id": "pt.ine.add.PTCONT.2246355",
      "street": "R FRANCISCO RAMOS",
      "house": "16",
      "postcode": "2500-831",
      "city": "CALDAS DA RAINHA",
      "lon": "-9.146804022994084",
      "lat": "39.398507239812346"
    },
    {
      "id": "pt.ine.add.PTCONT.2252382",
      "street": "R FRANCISCO RAMOS",
      "house": "6",
      "postcode": "2500-831",
      "city": "CALDAS DA RAINHA",
      "lon": "-9.146075101100651",
      "lat": "39.398675712387025"
    },
    {
      "id": "pt.ine.add.PTCONT.2254628",
      "street": "R FRANCISCO RAMOS",
      "house": "128",
      "postcode": "2500-831",
      "city": "CALDAS DA RAINHA",
      "lon": "-9.146563786332786",
      "lat": "39.39875251800663"
    },
    {
      "id": "pt.ine.add.PTCONT.2254629",
      "street": "R FRANCISCO RAMOS",
      "house": "128",
      "postcode": "2500-831",
      "city": "CALDAS DA RAINHA",
      "lon": "-9.146563786332786",
      "lat": "39.39875251800663"
    },
    {
      "id": "pt.ine.add.PTCONT.2256114",
      "street": "VÁRZEA DA JUNQUEIRA FRANCELINA",
      "house": "",
      "postcode": "2500-835",
      "city": "CALDAS DA RAINHA",
      "lon": "-9.147170893489955",
      "lat": "39.39979202300722"
    },
    {
      "id": "pt.ine.add.PTCONT.2256845",
      "street": "R FRANCISCO RAMOS",
      "house": "20",
      "postcode": "2500-831",
      "city": "CALDAS DA RAINHA",
      "lon": "-9.146942399220569",
      "lat": "39.39844298599394"
    },
    {
      "id": "pt.ine.add.PTCONT.2256846",
      "street": "R FRANCISCO RAMOS",
      "house": "20",
      "postcode": "2500-831",
      "city": "CALDAS DA RAINHA",
      "lon": "-9.146942399220569",
      "lat": "39.39844298599394"
    },
    {
      "id": "pt.ine.add.PTCONT.2261845",
      "street": "R JOAQUIM CLAUDINO FERREIRA",
      "house": "17",
      "postcode": "2500-835",
      "city": "CALDAS DA RAINHA",
      "lon": "-9.14654630585502",
      "lat": "39.399148971997846"
    },
    {
      "id": "pt.ine.add.PTCONT.2264157",
      "street": "R JOAQUIM CLAUDINO FERREIRA",
      "house": "7",
      "postcode": "2500-835",
      "city": "CALDAS DA RAINHA",
      "lon": "-9.1460898349773",
      "lat": "39.398891748678466"
    },
    {
      "id": "pt.ine.add.PTCONT.2264784",
      "street": "R JOAQUIM CLAUDINO FERREIRA",
      "house": "11",
      "postcode": "2500-835",
      "city": "CALDAS DA RAINHA",
      "lon": "-9.146311289017756",
      "lat": "39.39895286819727"
    },
    {
      "id": "pt.ine.add.PTCONT.2266075",
      "street": "VÁRZEA DA JUNQUEIRA",
      "house": "",
      "postcode": "2500-835",
      "city": "CALDAS DA RAINHA",
      "lon": "-9.147403306708785",
      "lat": "39.399808010616695"
    },
    {
      "id": "pt.ine.add.PTCONT.2266492",
      "street": "R GEN ANTÓNIO DAMIÃO",
      "house": "12",
      "postcode": "2500-839",
      "city": "CALDAS DA RAINHA",
      "lon": "-9.152158625085116",
      "lat": "39.39950525463372"
    },
    {
      "id": "pt.ine.add.PTCONT.2267394",
      "street": "R COR JOSE GOULAO FREIRE",
      "house": "3",
      "postcode": "2500-839",
      "city": "CALDAS DA RAINHA",
      "lon": "-9.15220190991104",
      "lat": "39.39928871099033"
    }
  ]
}