{
  "data": {
    "distrito": "Braga",
    "concelho": "Braga",
    "freguesia": "Padim da Graça",
    "OBJECTID": 1557,
    "BGRI2021": "03033000117",
    "DT21": "03",
    "DTMN21": "0303",
    "DTMNFR21": "030330",
    "DTMNFRSEC21": "030330001",
    "SECNUM21": "001",
    "SSNUM21": "17",
    "SECSSNUM21": "00117",
    "OBJECTID_1": 22115,
    "DT": "03",
    "CC": "03",
    "fr": "30",
    "SEC": "001",
    "SS": "17"
  },
  "addresses": [
    {
      "id": "pt.ine.add.PTCONT.464462",
      "street": "VINHAL",
      "house": "",
      "postcode": "4700-011",
      "city": "PADIM DA GRAÇA",
      "lon": "-8.483734872983465",
      "lat": "41.56655824438106"
    },
    {
      "id": "pt.ine.add.PTCONT.465390",
      "street": "AV ASSENTO",
      "house": "21",
      "postcode": "4700-646",
      "city": "PADIM DA GRAÇA",
      "lon": "-8.483280422192136",
      "lat": "41.56676671496008"
    },
    {
      "id": "pt.ine.add.PTCONT.465393",
      "street": "R IGREJA",
      "house": "21",
      "postcode": "4700-658",
      "city": "PADIM DA GRAÇA",
      "lon": "-8.486342857950062",
      "lat": "41.56553284104253"
    },
    {
      "id": "pt.ine.add.PTCONT.467079",
      "street": "AV ASSENTO",
      "house": "21",
      "postcode": "4700-646",
      "city": "PADIM DA GRAÇA",
      "lon": "-8.483280422192136",
      "lat": "41.56676671496008"
    },
    {
      "id": "pt.ine.add.PTCONT.471119",
      "street": "AV ASSENTO",
      "house": "39",
      "postcode": "4700-646",
      "city": "PADIM DA GRAÇA",
      "lon": "-8.48506937613017",
      "lat": "41.567247454143306"
    },
    {
      "id": "pt.ine.add.PTCONT.478646",
      "street": "TV ASSENTO",
      "house": "8",
      "postcode": "4700-646",
      "city": "PADIM DA GRAÇA",
      "lon": "-8.482667639883342",
      "lat": "41.56651647515688"
    },
    {
      "id": "pt.ine.add.PTCONT.480292",
      "street": "AV ASSENTO",
      "house": "41",
      "postcode": "4700-646",
      "city": "PADIM DA GRAÇA",
      "lon": "-8.48535774263722",
      "lat": "41.567363619526915"
    },
    {
      "id": "pt.ine.add.PTCONT.486335",
      "street": "AV ASSENTO",
      "house": "17",
      "postcode": "4700-646",
      "city": "PADIM DA GRAÇA",
      "lon": "-8.48313714099629",
      "lat": "41.56687519592897"
    },
    {
      "id": "pt.ine.add.PTCONT.486336",
      "street": "AV ASSENTO",
      "house": "19",
      "postcode": "4700-646",
      "city": "PADIM DA GRAÇA",
      "lon": "-8.48313714099629",
      "lat": "41.56687519592897"
    },
    {
      "id": "pt.ine.add.PTCONT.486337",
      "street": "AV ASSENTO",
      "house": "11",
      "postcode": "4700-646",
      "city": "PADIM DA GRAÇA",
      "lon": "-8.48313714099629",
      "lat": "41.56687519592897"
    },
    {
      "id": "pt.ine.add.PTCONT.486338",
      "street": "AV ASSENTO",
      "house": "15",
      "postcode": "4700-646",
      "city": "PADIM DA GRAÇA",
      "lon": "-8.48313714099629",
      "lat": "41.56687519592897"
    },
    {
      "id": "pt.ine.add.PTCONT.486343",
      "street": "AV ASSENTO",
      "house": "13",
      "postcode": "4700-646",
      "city": "PADIM DA GRAÇA",
      "lon": "-8.48313714099629",
      "lat": "41.56687519592897"
    },
    {
      "id": "pt.ine.add.PTCONT.498125",
      "street": "R IGREJA",
      "house": "17",
      "postcode": "4700-658",
      "city": "PADIM DA GRAÇA",
      "lon": "-8.486475614061778",
      "lat": "41.565694500230165"
    },
    {
      "id": "pt.ine.add.PTCONT.498126",
      "street": "R IGREJA",
      "house": "19",
      "postcode": "4700-658",
      "city": "PADIM DA GRAÇA",
      "lon": "-8.486475614061778",
      "lat": "41.565694500230165"
    },
    {
      "id": "pt.ine.add.PTCONT.516120",
      "street": "R IGREJA",
      "house": "11",
      "postcode": "4700-658",
      "city": "PADIM DA GRAÇA",
      "lon": "-8.486778174123236",
      "lat": "41.56621578616839"
    },
    {
      "id": "pt.ine.add.PTCONT.551345",
      "street": "R COSTEIRA",
      "house": "63",
      "postcode": "4700-386",
      "city": "PADIM DA GRAÇA",
      "lon": "-8.482233091873493",
      "lat": "41.56596856804844"
    },
    {
      "id": "pt.ine.add.PTCONT.551346",
      "street": "R IGREJA",
      "house": "11",
      "postcode": "4700-658",
      "city": "PADIM DA GRAÇA",
      "lon": "-8.485544768318794",
      "lat": "41.56648068133506"
    },
    {
      "id": "pt.ine.add.PTCONT.566965",
      "street": "AV ASSENTO",
      "house": "37",
      "postcode": "4700-646",
      "city": "PADIM DA GRAÇA",
      "lon": "-8.484877311435348",
      "lat": "41.56720302325981"
    },
    {
      "id": "pt.ine.add.PTCONT.567964",
      "street": "AV ASSENTO",
      "house": "37",
      "postcode": "4700-646",
      "city": "PADIM DA GRAÇA",
      "lon": "-8.484877311435348",
      "lat": "41.56720302325981"
    },
    {
      "id": "pt.ine.add.PTCONT.573158",
      "street": "R CARVALHOS",
      "house": "11",
      "postcode": "4700-647",
      "city": "PADIM DA GRAÇA",
      "lon": "-8.484502817777713",
      "lat": "41.56446703524759"
    },
    {
      "id": "pt.ine.add.PTCONT.576417",
      "street": "R CARVALHOS",
      "house": "37",
      "postcode": "4700-647",
      "city": "PADIM DA GRAÇA",
      "lon": "-8.483383921461384",
      "lat": "41.56373214327834"
    },
    {
      "id": "pt.ine.add.PTCONT.576418",
      "street": "R CARVALHOS",
      "house": "39",
      "postcode": "4700-647",
      "city": "PADIM DA GRAÇA",
      "lon": "-8.483383921461384",
      "lat": "41.56373214327834"
    },
    {
      "id": "pt.ine.add.PTCONT.592399",
      "street": "R CARVALHOS",
      "house": "17",
      "postcode": "4700-647",
      "city": "PADIM DA GRAÇA",
      "lon": "-8.484285663926013",
      "lat": "41.56421559423454"
    },
    {
      "id": "pt.ine.add.PTCONT.592400",
      "street": "R VEIGA",
      "house": "",
      "postcode": "4700-670",
      "city": "PADIM DA GRAÇA",
      "lon": "-8.485716035985218",
      "lat": "41.567110417050664"
    },
    {
      "id": "pt.ine.add.PTCONT.631265",
      "street": "R CARVALHOS",
      "house": "43",
      "postcode": "4700-647",
      "city": "PADIM DA GRAÇA",
      "lon": "-8.483166531444125",
      "lat": "41.56343568217758"
    },
    {
      "id": "pt.ine.add.PTCONT.639488",
      "street": "R CARVALHOS",
      "house": "31",
      "postcode": "4700-647",
      "city": "PADIM DA GRAÇA",
      "lon": "-8.483420712565636",
      "lat": "41.56388509461678"
    },
    {
      "id": "pt.ine.add.PTCONT.639489",
      "street": "R CARVALHOS",
      "house": "31",
      "postcode": "4700-647",
      "city": "PADIM DA GRAÇA",
      "lon": "-8.483420712565636",
      "lat": "41.56388509461678"
    },
    {
      "id": "pt.ine.add.PTCONT.677648",
      "street": "AV ASSENTO",
      "house": "31",
      "postcode": "4700-646",
      "city": "PADIM DA GRAÇA",
      "lon": "-8.483691995679974",
      "lat": "41.56527984585529"
    },
    {
      "id": "pt.ine.add.PTCONT.680459",
      "street": "AV ASSENTO",
      "house": "25",
      "postcode": "4700-646",
      "city": "PADIM DA GRAÇA",
      "lon": "-8.485813415054503",
      "lat": "41.56738023013553"
    },
    {
      "id": "pt.ine.add.PTCONT.701409",
      "street": "R IGREJA",
      "house": "1",
      "postcode": "4700-658",
      "city": "PADIM DA GRAÇA",
      "lon": "-8.487213302857741",
      "lat": "41.56686271523326"
    },
    {
      "id": "pt.ine.add.PTCONT.715352",
      "street": "R MANUEL SOARES COELHO",
      "house": "17",
      "postcode": "4700-671",
      "city": "PADIM DA GRAÇA",
      "lon": "-8.485580440631972",
      "lat": "41.566426549633924"
    },
    {
      "id": "pt.ine.add.PTCONT.728342",
      "street": "R IGREJA",
      "house": "13",
      "postcode": "4700-658",
      "city": "PADIM DA GRAÇA",
      "lon": "-8.486693370418795",
      "lat": "41.5660539798994"
    },
    {
      "id": "pt.ine.add.PTCONT.731913",
      "street": "R CARVALHOS",
      "house": "17",
      "postcode": "4700-647",
      "city": "PADIM DA GRAÇA",
      "lon": "-8.484154573198701",
      "lat": "41.56436005420015"
    },
    {
      "id": "pt.ine.add.PTCONT.734168",
      "street": "AV ASSENTO",
      "house": "29",
      "postcode": "4700-646",
      "city": "PADIM DA GRAÇA",
      "lon": "-8.483760456789069",
      "lat": "41.56685528932176"
    },
    {
      "id": "pt.ine.add.PTCONT.734169",
      "street": "R CARVALHOS",
      "house": "5",
      "postcode": "4700-647",
      "city": "PADIM DA GRAÇA",
      "lon": "-8.485137658403103",
      "lat": "41.564366052400906"
    },
    {
      "id": "pt.ine.add.PTCONT.749315",
      "street": "AV ASSENTO",
      "house": "33",
      "postcode": "4700-646",
      "city": "PADIM DA GRAÇA",
      "lon": "-8.48434897638798",
      "lat": "41.56705157504556"
    },
    {
      "id": "pt.ine.add.PTCONT.755359",
      "street": "R CARVALHOS",
      "house": "47",
      "postcode": "4700-647",
      "city": "PADIM DA GRAÇA",
      "lon": "-8.482912645209042",
      "lat": "41.563040290632486"
    },
    {
      "id": "pt.ine.add.PTCONT.770223",
      "street": "AV ASSENTO",
      "house": "3",
      "postcode": "4700-646",
      "city": "PADIM DA GRAÇA",
      "lon": "-8.483016865213719",
      "lat": "41.566803532196616"
    },
    {
      "id": "pt.ine.add.PTCONT.779428",
      "street": "R CARVALHOS",
      "house": "15",
      "postcode": "4700-647",
      "city": "PADIM DA GRAÇA",
      "lon": "-8.484501647040624",
      "lat": "41.5642509493157"
    },
    {
      "id": "pt.ine.add.PTCONT.806438",
      "street": "AV ASSENTO",
      "house": "25",
      "postcode": "4700-646",
      "city": "PADIM DA GRAÇA",
      "lon": "-8.483387882774466",
      "lat": "41.56668535411611"
    },
    {
      "id": "pt.ine.add.PTCONT.808486",
      "street": "AV ASSENTO",
      "house": "27",
      "postcode": "4700-646",
      "city": "PADIM DA GRAÇA",
      "lon": "-8.483387882774466",
      "lat": "41.56668535411611"
    },
    {
      "id": "pt.ine.add.PTCONT.840002",
      "street": "AV ASSENTO",
      "house": "5",
      "postcode": "4700-646",
      "city": "PADIM DA GRAÇA",
      "lon": "-8.48282509453038",
      "lat": "41.56681311934042"
    },
    {
      "id": "pt.ine.add.PTCONT.843957",
      "street": "R CARVALHOS",
      "house": "49",
      "postcode": "4700-647",
      "city": "PADIM DA GRAÇA",
      "lon": "-8.482851928387108",
      "lat": "41.562896415615064"
    }
  ]
}