{
  "data": {
    "distrito": "Ã‰vora",
    "concelho": "Reguengos de Monsaraz",
    "freguesia": "Corval",
    "OBJECTID": 263,
    "BGRI2021": "07110200226",
    "DT21": "07",
    "DTMN21": "0711",
    "DTMNFR21": "071102",
    "DTMNFRSEC21": "071102002",
    "SECNUM21": "002",
    "SSNUM21": "26",
    "SECSSNUM21": "00226",
    "OBJECTID_1": 63500,
    "DT": "07",
    "CC": "11",
    "fr": "02",
    "SEC": "002",
    "SS": "26"
  },
  "addresses": [
    {
      "id": "pt.ine.add.PTCONT.1379688",
      "street": "MTE VENTO",
      "house": "",
      "postcode": "7200-082",
      "city": "CORVAL",
      "lon": "-7.473295909356191",
      "lat": "38.48184208515282"
    },
    {
      "id": "pt.ine.add.PTCONT.1386902",
      "street": "R SANTO ILDEFONSO",
      "house": "4",
      "postcode": "7200-082",
      "city": "CORVAL",
      "lon": "-7.471379918255174",
      "lat": "38.4821344946456"
    },
    {
      "id": "pt.ine.add.PTCONT.1408909",
      "street": "R SANTO ILDEFONSO",
      "house": "2",
      "postcode": "7200-082",
      "city": "CORVAL",
      "lon": "-7.471456400678394",
      "lat": "38.48239382586236"
    },
    {
      "id": "pt.ine.add.PTCONT.1427413",
      "street": "R SANTO ILDEFONSO",
      "house": "8",
      "postcode": "7200-082",
      "city": "CORVAL",
      "lon": "-7.471501151183428",
      "lat": "38.48202184728912"
    },
    {
      "id": "pt.ine.add.PTCONT.1438319",
      "street": "R SANTO ILDEFONSO",
      "house": "2A",
      "postcode": "7200-082",
      "city": "CORVAL",
      "lon": "-7.471449298376209",
      "lat": "38.482456394231185"
    },
    {
      "id": "pt.ine.add.PTCONT.1450418",
      "street": "R SANTO ILDEFONSO",
      "house": "6",
      "postcode": "7200-082",
      "city": "CORVAL",
      "lon": "-7.471466768213594",
      "lat": "38.48206197745169"
    },
    {
      "id": "pt.ine.add.PTCONT.1455276",
      "street": "R SANTO ILDEFONSO",
      "house": "10",
      "postcode": "7200-082",
      "city": "CORVAL",
      "lon": "-7.4715558300137035",
      "lat": "38.48197189366059"
    },
    {
      "id": "pt.ine.add.PTCONT.1462721",
      "street": "MTE A RAVESSA VENTO",
      "house": "",
      "postcode": "7200-082",
      "city": "CORVAL",
      "lon": "-7.472598958611019",
      "lat": "38.481905652740274"
    }
  ]
}