{
  "data": {
    "distrito": "Porto",
    "concelho": "Paredes",
    "freguesia": "Vandoma",
    "OBJECTID": 1124,
    "BGRI2021": "13102200139",
    "DT21": "13",
    "DTMN21": "1310",
    "DTMNFR21": "131022",
    "DTMNFRSEC21": "131022001",
    "SECNUM21": "001",
    "SSNUM21": "39",
    "SECSSNUM21": "00139",
    "OBJECTID_1": 135045,
    "DT": "13",
    "CC": "10",
    "fr": "22",
    "SEC": "001",
    "SS": "39"
  },
  "addresses": [
    {
      "id": "pt.ine.add.PTCONT.3542806",
      "street": "R ALMINHAS",
      "house": "47",
      "postcode": "4585-757",
      "city": "VANDOMA",
      "lon": "-8.387643823542353",
      "lat": "41.213952878802694"
    },
    {
      "id": "pt.ine.add.PTCONT.3548512",
      "street": "TV BACELO",
      "house": "16",
      "postcode": "4585-757",
      "city": "VANDOMA",
      "lon": "-8.389448527426048",
      "lat": "41.2119589276968"
    },
    {
      "id": "pt.ine.add.PTCONT.3545916",
      "street": "AV CENTRAL DE REIROS",
      "house": "502",
      "postcode": "4585-774",
      "city": "VANDOMA",
      "lon": "-8.38998375977664",
      "lat": "41.21161557197861"
    },
    {
      "id": "pt.ine.add.PTCONT.3548511",
      "street": "R FLORES",
      "house": "87",
      "postcode": "4585-779",
      "city": "VANDOMA",
      "lon": "-8.390545128190174",
      "lat": "41.211857434308165"
    },
    {
      "id": "pt.ine.add.PTCONT.3548513",
      "street": "R BACELO",
      "house": "16",
      "postcode": "4585-735",
      "city": "VANDOMA",
      "lon": "-8.389448527426048",
      "lat": "41.2119589276968"
    },
    {
      "id": "pt.ine.add.PTCONT.3616730",
      "street": "AV CENTRAL DE REIROS",
      "house": "502",
      "postcode": "4585-774",
      "city": "VANDOMA",
      "lon": "-8.390103560886697",
      "lat": "41.21175937335877"
    },
    {
      "id": "pt.ine.add.PTCONT.3632201",
      "street": "AV CENTRAL DE REIROS",
      "house": "384",
      "postcode": "4585-774",
      "city": "VANDOMA",
      "lon": "-8.38803295131494",
      "lat": "41.21282648189966"
    },
    {
      "id": "pt.ine.add.PTCONT.3632202",
      "street": "AV CENTRAL REIROS",
      "house": "388",
      "postcode": "4585-774",
      "city": "VANDOMA",
      "lon": "-8.38803295131494",
      "lat": "41.21282648189966"
    },
    {
      "id": "pt.ine.add.PTCONT.3663424",
      "street": "R ALMINHAS",
      "house": "101",
      "postcode": "4585-757",
      "city": "VANDOMA",
      "lon": "-8.389085488286737",
      "lat": "41.21365254176803"
    },
    {
      "id": "pt.ine.add.PTCONT.3709809",
      "street": "R ALMINHAS",
      "house": "107",
      "postcode": "4585-757",
      "city": "VANDOMA",
      "lon": "-8.389073985364726",
      "lat": "41.21376061880065"
    },
    {
      "id": "pt.ine.add.PTCONT.3771939",
      "street": "AV CENTRAL DE REIROS",
      "house": "444",
      "postcode": "4585-774",
      "city": "VANDOMA",
      "lon": "-8.388983604673731",
      "lat": "41.211986974520485"
    },
    {
      "id": "pt.ine.add.PTCONT.3794276",
      "street": "R ALMINHAS",
      "house": "81",
      "postcode": "4585-757",
      "city": "VANDOMA",
      "lon": "-8.388561213069009",
      "lat": "41.21375275310977"
    },
    {
      "id": "pt.ine.add.PTCONT.3794453",
      "street": "R ESCOLA",
      "house": "41",
      "postcode": "4585-757",
      "city": "VANDOMA",
      "lon": "-8.388986236010362",
      "lat": "41.21266229048988"
    },
    {
      "id": "pt.ine.add.PTCONT.3811194",
      "street": "AV CENTRAL DE REIROS",
      "house": "444",
      "postcode": "4585-774",
      "city": "VANDOMA",
      "lon": "-8.389044627369836",
      "lat": "41.212347010562965"
    },
    {
      "id": "pt.ine.add.PTCONT.3826392",
      "street": "AV CENTRAL DE REIROS",
      "house": "314",
      "postcode": "4585-774",
      "city": "VANDOMA",
      "lon": "-8.386987368180797",
      "lat": "41.21379225068866"
    },
    {
      "id": "pt.ine.add.PTCONT.3890371",
      "street": "R FERNANDO PESSOA",
      "house": "66",
      "postcode": "4585-785",
      "city": "VANDOMA",
      "lon": "-8.386822239436931",
      "lat": "41.21426083760777"
    },
    {
      "id": "pt.ine.add.PTCONT.3895373",
      "street": "AV CENTRAL REIROS",
      "house": "402",
      "postcode": "4585-774",
      "city": "VANDOMA",
      "lon": "-8.388163100604928",
      "lat": "41.21256506930003"
    },
    {
      "id": "pt.ine.add.PTCONT.3895533",
      "street": "AV CENTRAL DE REIROS",
      "house": "528",
      "postcode": "4585-774",
      "city": "VANDOMA",
      "lon": "-8.390496056740867",
      "lat": "41.2115063766168"
    },
    {
      "id": "pt.ine.add.PTCONT.3903971",
      "street": "R ESCOLA",
      "house": "30",
      "postcode": "4585-757",
      "city": "VANDOMA",
      "lon": "-8.388473752418932",
      "lat": "41.212726458083544"
    },
    {
      "id": "pt.ine.add.PTCONT.3940429",
      "street": "AV CENTRAL DE REIROS",
      "house": "502",
      "postcode": "4585-774",
      "city": "VANDOMA",
      "lon": "-8.39004351935062",
      "lat": "41.21165145583206"
    },
    {
      "id": "pt.ine.add.PTCONT.3968215",
      "street": "R ALMINHAS",
      "house": "75",
      "postcode": "4585-757",
      "city": "VANDOMA",
      "lon": "-8.388406339519666",
      "lat": "41.213789113708266"
    },
    {
      "id": "pt.ine.add.PTCONT.4013168",
      "street": "R ESCOLA",
      "house": "57",
      "postcode": "4585-757",
      "city": "VANDOMA",
      "lon": "-8.389429283881226",
      "lat": "41.213138532583876"
    },
    {
      "id": "pt.ine.add.PTCONT.4020122",
      "street": "R BACELO",
      "house": "4",
      "postcode": "4585-735",
      "city": "VANDOMA",
      "lon": "-8.389745883333141",
      "lat": "41.211769175295785"
    },
    {
      "id": "pt.ine.add.PTCONT.4050758",
      "street": "TV ALMINHAS",
      "house": "47",
      "postcode": "4585-757",
      "city": "VANDOMA",
      "lon": "-8.387763065125561",
      "lat": "41.2139526151832"
    },
    {
      "id": "pt.ine.add.PTCONT.4088285",
      "street": "R ESCOLA",
      "house": "18",
      "postcode": "4585-757",
      "city": "VANDOMA",
      "lon": "-8.38841329258736",
      "lat": "41.21251048916468"
    },
    {
      "id": "pt.ine.add.PTCONT.4136590",
      "street": "R ALMINHAS",
      "house": "109",
      "postcode": "4585-757",
      "city": "VANDOMA",
      "lon": "-8.38921700459334",
      "lat": "41.21374229224562"
    },
    {
      "id": "pt.ine.add.PTCONT.4150836",
      "street": "R ALMINHAS",
      "house": "113",
      "postcode": "4585-757",
      "city": "VANDOMA",
      "lon": "-8.389395725801803",
      "lat": "41.21370587748662"
    },
    {
      "id": "pt.ine.add.PTCONT.4170774",
      "street": "AV CENTRAL DE REIROS",
      "house": "476",
      "postcode": "4585-774",
      "city": "VANDOMA",
      "lon": "-8.389411736910422",
      "lat": "41.211697885127336"
    },
    {
      "id": "pt.ine.add.PTCONT.4212334",
      "street": "AV CENTRAL DE REIROS",
      "house": "418",
      "postcode": "4585-774",
      "city": "VANDOMA",
      "lon": "-8.388364897011327",
      "lat": "41.21233051062938"
    },
    {
      "id": "pt.ine.add.PTCONT.4212335",
      "street": "AV CENTRAL REIROS",
      "house": "434",
      "postcode": "4585-774",
      "city": "VANDOMA",
      "lon": "-8.388734011010357",
      "lat": "41.21219462752091"
    },
    {
      "id": "pt.ine.add.PTCONT.4222856",
      "street": "AV CENTRAL DE REIROS",
      "house": "374",
      "postcode": "4585-774",
      "city": "VANDOMA",
      "lon": "-8.387615682727324",
      "lat": "41.21284541341133"
    },
    {
      "id": "pt.ine.add.PTCONT.4246649",
      "street": "R ALMINHAS",
      "house": "64",
      "postcode": "4585-757",
      "city": "VANDOMA",
      "lon": "-8.387882201901352",
      "lat": "41.213925338806774"
    },
    {
      "id": "pt.ine.add.PTCONT.4299273",
      "street": "AV CENTRAL DE REIROS",
      "house": "512",
      "postcode": "4585-774",
      "city": "VANDOMA",
      "lon": "-8.390210028665809",
      "lat": "41.211543032710125"
    },
    {
      "id": "pt.ine.add.PTCONT.4299274",
      "street": "AV CENTRAL DE REIROS",
      "house": "512",
      "postcode": "4585-774",
      "city": "VANDOMA",
      "lon": "-8.390210028665809",
      "lat": "41.211543032710125"
    },
    {
      "id": "pt.ine.add.PTCONT.4299275",
      "street": "AV CENTRAL DE REIROS",
      "house": "512",
      "postcode": "4585-774",
      "city": "VANDOMA",
      "lon": "-8.390210028665809",
      "lat": "41.211543032710125"
    },
    {
      "id": "pt.ine.add.PTCONT.4345733",
      "street": "R ALMINHAS",
      "house": "64",
      "postcode": "4585-757",
      "city": "VANDOMA",
      "lon": "-8.388084877540045",
      "lat": "41.21391588594982"
    },
    {
      "id": "pt.ine.add.PTCONT.4370311",
      "street": "AV CENTRAL DE REIROS",
      "house": "388",
      "postcode": "4585-774",
      "city": "VANDOMA",
      "lon": "-8.387960883423903",
      "lat": "41.212691577055864"
    },
    {
      "id": "pt.ine.add.PTCONT.4378148",
      "street": "AV CENTRAL DE REIROS",
      "house": "512",
      "postcode": "4585-774",
      "city": "VANDOMA",
      "lon": "-8.390210028665809",
      "lat": "41.211543032710125"
    },
    {
      "id": "pt.ine.add.PTCONT.4380677",
      "street": "AV CENTRAL DE REIROS",
      "house": "490",
      "postcode": "4585-774",
      "city": "VANDOMA",
      "lon": "-8.389650141503376",
      "lat": "41.21167934570055"
    },
    {
      "id": "pt.ine.add.PTCONT.4385939",
      "street": "AV CENTRAL REIROS",
      "house": "502",
      "postcode": "4585-774",
      "city": "VANDOMA",
      "lon": "-8.390103278989852",
      "lat": "41.21168733965411"
    }
  ]
}