{
  "data": {
    "ilha": "Ilha Terceira (Açores)",
    "concelho": "Angra do Heroísmo",
    "freguesia": "São Mateus da Calheta",
    "OBJECTID": 523,
    "BGRI2021": "43011600115",
    "DT21": "43",
    "DTMN21": "4301",
    "DTMNFR21": "430116",
    "DTMNFRSEC21": "430116001",
    "SECNUM21": "001",
    "SSNUM21": "15",
    "SECSSNUM21": "00115",
    "OBJECTID_1": 208141,
    "DT": "43",
    "CC": "01",
    "fr": "16",
    "SEC": "001",
    "SS": "15",
    "BGRI2021_1": "43011600115"
  },
  "addresses": [
    {
      "id": "pt.ine.add.AC26.9186",
      "street": "R ENTRE OS PICOS",
      "house": "9",
      "postcode": "9700-567",
      "city": "SÃO MATEUS DA CALHETA",
      "lon": "-27.267558690818813",
      "lat": "38.66576335615826"
    },
    {
      "id": "pt.ine.add.AC26.9187",
      "street": "R ARRUDA",
      "house": "14",
      "postcode": "9700-558",
      "city": "SÃO MATEUS DA CALHETA",
      "lon": "-27.26633092519017",
      "lat": "38.65703366633784"
    },
    {
      "id": "pt.ine.add.AC26.9188",
      "street": "R AO FORTE",
      "house": "18",
      "postcode": "9700-592",
      "city": "SÃO MATEUS DA CALHETA",
      "lon": "-27.266468841688656",
      "lat": "38.657033352251794"
    },
    {
      "id": "pt.ine.add.AC26.9189",
      "street": "R AO FORTE",
      "house": "18",
      "postcode": "9700-592",
      "city": "SÃO MATEUS DA CALHETA",
      "lon": "-27.266468841688656",
      "lat": "38.657033352251794"
    },
    {
      "id": "pt.ine.add.AC26.9190",
      "street": "R AO FORTE",
      "house": "20",
      "postcode": "9700-592",
      "city": "SÃO MATEUS DA CALHETA",
      "lon": "-27.26652637368819",
      "lat": "38.65705124491469"
    },
    {
      "id": "pt.ine.add.AC26.9191",
      "street": "R PICO",
      "house": "2",
      "postcode": "9700-584",
      "city": "SÃO MATEUS DA CALHETA",
      "lon": "-27.267895220724565",
      "lat": "38.6573635333601"
    },
    {
      "id": "pt.ine.add.AC26.9192",
      "street": "R PICO",
      "house": "12",
      "postcode": "9700-584",
      "city": "SÃO MATEUS DA CALHETA",
      "lon": "-27.267551232534455",
      "lat": "38.657580605407034"
    },
    {
      "id": "pt.ine.add.AC26.9193",
      "street": "R PICO",
      "house": "14",
      "postcode": "9700-584",
      "city": "SÃO MATEUS DA CALHETA",
      "lon": "-27.267873207937768",
      "lat": "38.65762492786178"
    },
    {
      "id": "pt.ine.add.AC26.9194",
      "street": "R PICO",
      "house": "16",
      "postcode": "9700-584",
      "city": "SÃO MATEUS DA CALHETA",
      "lon": "-27.268253422549805",
      "lat": "38.65787638877715"
    },
    {
      "id": "pt.ine.add.AC26.9195",
      "street": "R PICO",
      "house": "25",
      "postcode": "9700-584",
      "city": "SÃO MATEUS DA CALHETA",
      "lon": "-27.268521769631015",
      "lat": "38.65894818486839"
    },
    {
      "id": "pt.ine.add.AC26.9196",
      "street": "R PICO",
      "house": "19",
      "postcode": "9700-584",
      "city": "SÃO MATEUS DA CALHETA",
      "lon": "-27.268553523833795",
      "lat": "38.65821815103404"
    },
    {
      "id": "pt.ine.add.AC26.9197",
      "street": "LAD PASSAL",
      "house": "6",
      "postcode": "9700-582",
      "city": "SÃO MATEUS DA CALHETA",
      "lon": "-27.268675875692686",
      "lat": "38.65712743443382"
    },
    {
      "id": "pt.ine.add.AC26.9198",
      "street": "LAD PASSAL",
      "house": "12",
      "postcode": "9700-582",
      "city": "SÃO MATEUS DA CALHETA",
      "lon": "-27.26896414570124",
      "lat": "38.657379104204885"
    },
    {
      "id": "pt.ine.add.AC26.9199",
      "street": "BC PASSAL",
      "house": "14",
      "postcode": "9700-582",
      "city": "SÃO MATEUS DA CALHETA",
      "lon": "-27.269182447032414",
      "lat": "38.65736057833247"
    },
    {
      "id": "pt.ine.add.AC26.10066",
      "street": "R BECO DO PASSAL",
      "house": "6",
      "postcode": "9700-582",
      "city": "SÃO MATEUS DA CALHETA",
      "lon": "-27.26905538247286",
      "lat": "38.65718964521724"
    },
    {
      "id": "pt.ine.add.AC26.10067",
      "street": "R BECO DO PASSAL",
      "house": "18B",
      "postcode": "9700-582",
      "city": "SÃO MATEUS DA CALHETA",
      "lon": "-27.269239372703968",
      "lat": "38.65721625747882"
    },
    {
      "id": "pt.ine.add.AC26.10068",
      "street": "R BECO DO PASSAL",
      "house": "18",
      "postcode": "9700-582",
      "city": "SÃO MATEUS DA CALHETA",
      "lon": "-27.269424004502422",
      "lat": "38.65741409341208"
    },
    {
      "id": "pt.ine.add.AC26.10069",
      "street": "LAD PASSAL",
      "house": "24",
      "postcode": "9700-582",
      "city": "SÃO MATEUS DA CALHETA",
      "lon": "-27.26936427761666",
      "lat": "38.65681043596897"
    },
    {
      "id": "pt.ine.add.AC26.10070",
      "street": "CAN VINHAS",
      "house": "07",
      "postcode": "9700-571",
      "city": "SÃO MATEUS DA CALHETA",
      "lon": "-27.269837113657314",
      "lat": "38.65724191576225"
    },
    {
      "id": "pt.ine.add.AC26.10071",
      "street": "R ENTRE VINHAS",
      "house": "5",
      "postcode": "9700-571",
      "city": "SÃO MATEUS DA CALHETA",
      "lon": "-27.269665663699566",
      "lat": "38.657494643352194"
    },
    {
      "id": "pt.ine.add.AC26.10072",
      "street": "R ENTRE VINHAS",
      "house": "3",
      "postcode": "9700-571",
      "city": "SÃO MATEUS DA CALHETA",
      "lon": "-27.269723467234364",
      "lat": "38.65758462873236"
    },
    {
      "id": "pt.ine.add.AC26.10073",
      "street": "CAN VINHAS",
      "house": "1",
      "postcode": "9700-571",
      "city": "SÃO MATEUS DA CALHETA",
      "lon": "-27.269654947731578",
      "lat": "38.65770194094457"
    },
    {
      "id": "pt.ine.add.AC26.10074",
      "street": "CAN VINHAS",
      "house": "6",
      "postcode": "9700-571",
      "city": "SÃO MATEUS DA CALHETA",
      "lon": "-27.269884540092118",
      "lat": "38.65762931654541"
    },
    {
      "id": "pt.ine.add.AC26.10075",
      "street": "CAN VINHAS",
      "house": "8",
      "postcode": "9700-571",
      "city": "SÃO MATEUS DA CALHETA",
      "lon": "-27.27018315842651",
      "lat": "38.65757455601475"
    },
    {
      "id": "pt.ine.add.AC26.10076",
      "street": "CAN VINHAS",
      "house": "10",
      "postcode": "9700-571",
      "city": "SÃO MATEUS DA CALHETA",
      "lon": "-27.269918613628924",
      "lat": "38.657521095550194"
    },
    {
      "id": "pt.ine.add.AC26.10907",
      "street": "R PADRE LUIS CASIMIRO",
      "house": "10",
      "postcode": "9700-580",
      "city": "SÃO MATEUS DA CALHETA",
      "lon": "-27.270976591431154",
      "lat": "38.657680863092985"
    },
    {
      "id": "pt.ine.add.AC26.10908",
      "street": "R PADRE LUIS CASIMIRO",
      "house": "12",
      "postcode": "9700-580",
      "city": "SÃO MATEUS DA CALHETA",
      "lon": "-27.27106887621834",
      "lat": "38.6577707679221"
    },
    {
      "id": "pt.ine.add.AC26.10909",
      "street": "R PADRE LUIS CASIMIRO",
      "house": "16",
      "postcode": "9700-580",
      "city": "SÃO MATEUS DA CALHETA",
      "lon": "-27.271218966935013",
      "lat": "38.65795065730381"
    },
    {
      "id": "pt.ine.add.AC26.10910",
      "street": "R PADRE LUIS CASIMIRO",
      "house": "18",
      "postcode": "9700-580",
      "city": "SÃO MATEUS DA CALHETA",
      "lon": "-27.270495709815602",
      "lat": "38.65816861672941"
    },
    {
      "id": "pt.ine.add.AC26.10911",
      "street": "R CAPITÃO-MOR",
      "house": "36",
      "postcode": "9700-567",
      "city": "SÃO MATEUS DA CALHETA",
      "lon": "-27.27216226052583",
      "lat": "38.65817376299177"
    },
    {
      "id": "pt.ine.add.AC26.10912",
      "street": "R CAPITÃO-MOR",
      "house": "38",
      "postcode": "9700-567",
      "city": "SÃO MATEUS DA CALHETA",
      "lon": "-27.272139615099153",
      "lat": "38.65826393431139"
    },
    {
      "id": "pt.ine.add.AC26.10913",
      "street": "R CAPITÃO-MOR",
      "house": "42",
      "postcode": "9700-567",
      "city": "SÃO MATEUS DA CALHETA",
      "lon": "-27.27210585143604",
      "lat": "38.65845326198295"
    },
    {
      "id": "pt.ine.add.AC26.10914",
      "street": "R CAPITÃO-MOR",
      "house": "44",
      "postcode": "9700-567",
      "city": "SÃO MATEUS DA CALHETA",
      "lon": "-27.272094699130097",
      "lat": "38.65854340655422"
    },
    {
      "id": "pt.ine.add.AC26.10915",
      "street": "R CAPITÃO-MOR",
      "house": "56",
      "postcode": "9700-567",
      "city": "SÃO MATEUS DA CALHETA",
      "lon": "-27.271787037118063",
      "lat": "38.65924704706221"
    },
    {
      "id": "pt.ine.add.AC26.10916",
      "street": "R CAP MOR",
      "house": "58",
      "postcode": "9700-567",
      "city": "SÃO MATEUS DA CALHETA",
      "lon": "-27.27179893922371",
      "lat": "38.65935516174893"
    },
    {
      "id": "pt.ine.add.AC26.10917",
      "street": "R CAP MOR",
      "house": "58B",
      "postcode": "9700-567",
      "city": "SÃO MATEUS DA CALHETA",
      "lon": "-27.27179893922371",
      "lat": "38.65935516174893"
    },
    {
      "id": "pt.ine.add.AC26.10918",
      "street": "R CAP MOR",
      "house": "85C",
      "postcode": "9700-567",
      "city": "SÃO MATEUS DA CALHETA",
      "lon": "-27.27179893922371",
      "lat": "38.65935516174893"
    },
    {
      "id": "pt.ine.add.AC26.10919",
      "street": "R CAPITÃO-MOR",
      "house": "62",
      "postcode": "9700-567",
      "city": "SÃO MATEUS DA CALHETA",
      "lon": "-27.27186888765688",
      "lat": "38.65961634318159"
    },
    {
      "id": "pt.ine.add.AC26.11769",
      "street": "R CAPITÃO-MOR",
      "house": "88",
      "postcode": "9700-567",
      "city": "SÃO MATEUS DA CALHETA",
      "lon": "-27.270818311773425",
      "lat": "38.6614301640454"
    },
    {
      "id": "pt.ine.add.AC26.11766",
      "street": "R CAPITÃO-MOR",
      "house": "70",
      "postcode": "9700-567",
      "city": "SÃO MATEUS DA CALHETA",
      "lon": "-27.271652724845705",
      "lat": "38.660202616335894"
    },
    {
      "id": "pt.ine.add.AC26.11767",
      "street": "R CAPITÃO-MOR",
      "house": "80",
      "postcode": "9700-567",
      "city": "SÃO MATEUS DA CALHETA",
      "lon": "-27.271161017078516",
      "lat": "38.660870634846766"
    },
    {
      "id": "pt.ine.add.AC26.11768",
      "street": "R CAPITÃO-MOR",
      "house": "86",
      "postcode": "9700-567",
      "city": "SÃO MATEUS DA CALHETA",
      "lon": "-27.270806512592852",
      "lat": "38.66134908463392"
    },
    {
      "id": "pt.ine.add.AC26.11770",
      "street": "R CAPITÃO-MOR",
      "house": "90",
      "postcode": "9700-567",
      "city": "SÃO MATEUS DA CALHETA",
      "lon": "-27.27076114846294",
      "lat": "38.66151140310423"
    },
    {
      "id": "pt.ine.add.AC26.11771",
      "street": "R CAPITÃO-MOR",
      "house": "94",
      "postcode": "9700-567",
      "city": "SÃO MATEUS DA CALHETA",
      "lon": "-27.270221246833383",
      "lat": "38.66159375831056"
    },
    {
      "id": "pt.ine.add.AC26.11772",
      "street": "R CAPITÃO-MOR",
      "house": "96 A",
      "postcode": "9700-567",
      "city": "SÃO MATEUS DA CALHETA",
      "lon": "-27.270567212707544",
      "lat": "38.66189936175781"
    },
    {
      "id": "pt.ine.add.AC26.11773",
      "street": "R CAPITÃO-MOR",
      "house": "108",
      "postcode": "9700-567",
      "city": "SÃO MATEUS DA CALHETA",
      "lon": "-27.270766102737472",
      "lat": "38.6628271228356"
    },
    {
      "id": "pt.ine.add.AC26.11774",
      "street": "R CAPITÃO-MOR",
      "house": "116",
      "postcode": "9700-567",
      "city": "SÃO MATEUS DA CALHETA",
      "lon": "-27.270813504095063",
      "lat": "38.6632055110627"
    },
    {
      "id": "pt.ine.add.AC26.11775",
      "street": "R CAPITÃO-MOR",
      "house": "130",
      "postcode": "9700-567",
      "city": "SÃO MATEUS DA CALHETA",
      "lon": "-27.27051950781783",
      "lat": "38.66449488661693"
    },
    {
      "id": "pt.ine.add.AC26.11776",
      "street": "R CAPITÃO-MOR",
      "house": "140",
      "postcode": "9700-567",
      "city": "SÃO MATEUS DA CALHETA",
      "lon": "-27.269613085607872",
      "lat": "38.66492954838355"
    },
    {
      "id": "pt.ine.add.AC26.11777",
      "street": "R CAPITÃO-MOR",
      "house": "158",
      "postcode": "9700-567",
      "city": "SÃO MATEUS DA CALHETA",
      "lon": "-27.268927506094776",
      "lat": "38.66602156079784"
    },
    {
      "id": "pt.ine.add.AC26.12605",
      "street": "R CAPITÃO-MOR",
      "house": "62 A",
      "postcode": "9700-567",
      "city": "SÃO MATEUS DA CALHETA",
      "lon": "-27.271833998536803",
      "lat": "38.659508281927955"
    },
    {
      "id": "pt.ine.add.AC26.46014",
      "street": "R PICO",
      "house": "4",
      "postcode": "9700-584",
      "city": "SÃO MATEUS DA CALHETA",
      "lon": "-27.26788396259899",
      "lat": "38.65742664219992"
    },
    {
      "id": "pt.ine.add.AC26.46015",
      "street": "R PICO",
      "house": "6",
      "postcode": "9700-584",
      "city": "SÃO MATEUS DA CALHETA",
      "lon": "-27.26786127846898",
      "lat": "38.657507800932976"
    },
    {
      "id": "pt.ine.add.AC26.46016",
      "street": "R PICO",
      "house": "14",
      "postcode": "9700-584",
      "city": "SÃO MATEUS DA CALHETA",
      "lon": "-27.267666331511297",
      "lat": "38.65762540141954"
    },
    {
      "id": "pt.ine.add.AC26.46017",
      "street": "R CAPITÃO-MOR",
      "house": "48",
      "postcode": "9700-567",
      "city": "SÃO MATEUS DA CALHETA",
      "lon": "-27.271911965171036",
      "lat": "38.658850234795885"
    },
    {
      "id": "pt.ine.add.AC26.46018",
      "street": "R CAPITÃO-MOR",
      "house": "54 A",
      "postcode": "9700-567",
      "city": "SÃO MATEUS DA CALHETA",
      "lon": "-27.27172861674798",
      "lat": "38.65899485064692"
    },
    {
      "id": "pt.ine.add.AC26.49519",
      "street": "R ARRUDA",
      "house": "1",
      "postcode": "9700-558",
      "city": "SÃO MATEUS DA CALHETA",
      "lon": "-27.266112390674802",
      "lat": "38.65698910435628"
    },
    {
      "id": "pt.ine.add.AC26.49520",
      "street": "R PICO",
      "house": "7",
      "postcode": "9700-584",
      "city": "SÃO MATEUS DA CALHETA",
      "lon": "-27.26833300055914",
      "lat": "38.65764189777694"
    },
    {
      "id": "pt.ine.add.AC26.49521",
      "street": "R PADRE LUIS CASIMIRO",
      "house": "24",
      "postcode": "9700-580",
      "city": "SÃO MATEUS DA CALHETA",
      "lon": "-27.271943718993143",
      "lat": "38.658129211938714"
    },
    {
      "id": "pt.ine.add.AC26.49522",
      "street": "R CAPITÃO-MOR",
      "house": "74",
      "postcode": "9700-567",
      "city": "SÃO MATEUS DA CALHETA",
      "lon": "-27.271366032389448",
      "lat": "38.660374507124224"
    },
    {
      "id": "pt.ine.add.AC26.53739",
      "street": "R PICO",
      "house": "9",
      "postcode": "9700-584",
      "city": "SÃO MATEUS DA CALHETA",
      "lon": "-27.268563199817212",
      "lat": "38.65773148814425"
    },
    {
      "id": "pt.ine.add.AC26.53740",
      "street": "R PASSAL",
      "house": "4",
      "postcode": "9700-582",
      "city": "SÃO MATEUS DA CALHETA",
      "lon": "-27.2684117036002",
      "lat": "38.65717310022016"
    },
    {
      "id": "pt.ine.add.AC26.53741",
      "street": "R CAPITÃO-MOR",
      "house": "64",
      "postcode": "9700-567",
      "city": "SÃO MATEUS DA CALHETA",
      "lon": "-27.27189245377583",
      "lat": "38.65976949004743"
    },
    {
      "id": "pt.ine.add.AC26.53742",
      "street": "R CAPITÃO-MOR",
      "house": "76",
      "postcode": "9700-567",
      "city": "SÃO MATEUS DA CALHETA",
      "lon": "-27.27135518492138",
      "lat": "38.66054575762977"
    },
    {
      "id": "pt.ine.add.AC26.53880",
      "street": "R CAPITÃO-MOR",
      "house": "92",
      "postcode": "9700-567",
      "city": "SÃO MATEUS DA CALHETA",
      "lon": "-27.270726938627796",
      "lat": "38.661583577153635"
    },
    {
      "id": "pt.ine.add.AC26.57320",
      "street": "R PICO",
      "house": "8",
      "postcode": "9700-584",
      "city": "SÃO MATEUS DA CALHETA",
      "lon": "-27.267596735612493",
      "lat": "38.65745433520973"
    },
    {
      "id": "pt.ine.add.AC26.58819",
      "street": "R PICO",
      "house": "14 A",
      "postcode": "9700-584",
      "city": "SÃO MATEUS DA CALHETA",
      "lon": "-27.26759777507611",
      "lat": "38.657733700649985"
    },
    {
      "id": "pt.ine.add.AC26.58820",
      "street": "R CAPITÃO-MOR",
      "house": "68",
      "postcode": "9700-567",
      "city": "SÃO MATEUS DA CALHETA",
      "lon": "-27.271721379644756",
      "lat": "38.66012135013269"
    },
    {
      "id": "pt.ine.add.AC26.58821",
      "street": "R CAPITÃO-MOR",
      "house": "138",
      "postcode": "9700-567",
      "city": "SÃO MATEUS DA CALHETA",
      "lon": "-27.270164642708934",
      "lat": "38.664883216491496"
    },
    {
      "id": "pt.ine.add.AC26.58822",
      "street": "R CAPITÃO-MOR",
      "house": "156",
      "postcode": "9700-567",
      "city": "SÃO MATEUS DA CALHETA",
      "lon": "-27.26907619229613",
      "lat": "38.66582295810967"
    },
    {
      "id": "pt.ine.add.AC26.61199",
      "street": "R PADRE LUIS CASIMIRO",
      "house": "4",
      "postcode": "9700-580",
      "city": "SÃO MATEUS DA CALHETA",
      "lon": "-27.270526935211066",
      "lat": "38.65730340553705"
    },
    {
      "id": "pt.ine.add.AC26.61200",
      "street": "R PADRE LUIS CASIMIRO",
      "house": "14",
      "postcode": "9700-580",
      "city": "SÃO MATEUS DA CALHETA",
      "lon": "-27.27114963409073",
      "lat": "38.657851687532336"
    },
    {
      "id": "pt.ine.add.AC26.61201",
      "street": "R CAPITÃO-MOR",
      "house": "98",
      "postcode": "9700-567",
      "city": "SÃO MATEUS DA CALHETA",
      "lon": "-27.270257658693424",
      "lat": "38.662107350101294"
    },
    {
      "id": "pt.ine.add.AC26.61202",
      "street": "R CAPITÃO-MOR",
      "house": "142",
      "postcode": "9700-567",
      "city": "SÃO MATEUS DA CALHETA",
      "lon": "-27.269832221357184",
      "lat": "38.66512730384822"
    },
    {
      "id": "pt.ine.add.AC26.61203",
      "street": "R CAPITÃO-MOR",
      "house": "144",
      "postcode": "9700-567",
      "city": "SÃO MATEUS DA CALHETA",
      "lon": "-27.269591313443833",
      "lat": "38.665254025281605"
    },
    {
      "id": "pt.ine.add.AC26.63462",
      "street": "R PICO",
      "house": "5",
      "postcode": "9700-584",
      "city": "SÃO MATEUS DA CALHETA",
      "lon": "-27.268033675206738",
      "lat": "38.657507406040615"
    },
    {
      "id": "pt.ine.add.AC26.63463",
      "street": "R ENTRE VINHAS",
      "house": "11",
      "postcode": "9700-571",
      "city": "SÃO MATEUS DA CALHETA",
      "lon": "-27.26987125471641",
      "lat": "38.65715171834891"
    },
    {
      "id": "pt.ine.add.AC26.63464",
      "street": "R PADRE LUIS CASIMIRO",
      "house": "6",
      "postcode": "9700-580",
      "city": "SÃO MATEUS DA CALHETA",
      "lon": "-27.270711299395323",
      "lat": "38.657429145131125"
    },
    {
      "id": "pt.ine.add.AC26.63465",
      "street": "R CAPITÃO-MOR",
      "house": "44A",
      "postcode": "9700-567",
      "city": "SÃO MATEUS DA CALHETA",
      "lon": "-27.27204940782374",
      "lat": "38.658723749151754"
    },
    {
      "id": "pt.ine.add.AC26.63466",
      "street": "R CAPITÃO-MOR",
      "house": "66",
      "postcode": "9700-567",
      "city": "SÃO MATEUS DA CALHETA",
      "lon": "-27.271904390204593",
      "lat": "38.659886616494504"
    },
    {
      "id": "pt.ine.add.AC26.63467",
      "street": "R CAPITÃO-MOR",
      "house": "150",
      "postcode": "9700-567",
      "city": "SÃO MATEUS DA CALHETA",
      "lon": "-27.269282282234165",
      "lat": "38.66560619938354"
    },
    {
      "id": "pt.ine.add.AC26.65207",
      "street": "R AO FORTE",
      "house": "8 A",
      "postcode": "9700-592",
      "city": "SÃO MATEUS DA CALHETA",
      "lon": "-27.267687573583203",
      "lat": "38.65715673581069"
    },
    {
      "id": "pt.ine.add.AC26.65208",
      "street": "R CAPITÃO-MOR",
      "house": "82",
      "postcode": "9700-567",
      "city": "SÃO MATEUS DA CALHETA",
      "lon": "-27.270300144975483",
      "lat": "38.6611790305149"
    },
    {
      "id": "pt.ine.add.AC26.65209",
      "street": "R CAPITÃO-MOR",
      "house": "102",
      "postcode": "9700-567",
      "city": "SÃO MATEUS DA CALHETA",
      "lon": "-27.2704085359517",
      "lat": "38.66249451127965"
    },
    {
      "id": "pt.ine.add.AC26.65210",
      "street": "R CAP MOR",
      "house": "120",
      "postcode": "9700-567",
      "city": "SÃO MATEUS DA CALHETA",
      "lon": "-27.270713348960683",
      "lat": "38.6640798928604"
    },
    {
      "id": "pt.ine.add.AC26.65211",
      "street": "R CAP-MOR",
      "house": "126",
      "postcode": "9700-567",
      "city": "SÃO MATEUS DA CALHETA",
      "lon": "-27.270713348960683",
      "lat": "38.6640798928604"
    },
    {
      "id": "pt.ine.add.AC26.71125",
      "street": "R ARRUDA",
      "house": "3",
      "postcode": "9700-558",
      "city": "SÃO MATEUS DA CALHETA",
      "lon": "-27.266287588982618",
      "lat": "38.65774570238134"
    },
    {
      "id": "pt.ine.add.AC26.71126",
      "street": "R AO FORTE",
      "house": "16",
      "postcode": "9700-592",
      "city": "SÃO MATEUS DA CALHETA",
      "lon": "-27.26641137648122",
      "lat": "38.65703348314074"
    },
    {
      "id": "pt.ine.add.AC26.71127",
      "street": "R BECO DO PASSAL",
      "house": "16",
      "postcode": "9700-582",
      "city": "SÃO MATEUS DA CALHETA",
      "lon": "-27.269229363988398",
      "lat": "38.65761280257977"
    },
    {
      "id": "pt.ine.add.AC26.71128",
      "street": "R CAPITÃO-MOR",
      "house": "112",
      "postcode": "9700-567",
      "city": "SÃO MATEUS DA CALHETA",
      "lon": "-27.270778275422604",
      "lat": "38.6630073317852"
    },
    {
      "id": "pt.ine.add.AC26.71129",
      "street": "R CAPITÃO-MOR",
      "house": "120",
      "postcode": "9700-567",
      "city": "SÃO MATEUS DA CALHETA",
      "lon": "-27.27083829118409",
      "lat": "38.66368308201713"
    },
    {
      "id": "pt.ine.add.AC26.73764",
      "street": "R BECO DO PASSAL",
      "house": "10",
      "postcode": "9700-582",
      "city": "SÃO MATEUS DA CALHETA",
      "lon": "-27.26888308758642",
      "lat": "38.65721707697678"
    },
    {
      "id": "pt.ine.add.AC26.73765",
      "street": "R BECO DO PASSAL",
      "house": "18A",
      "postcode": "9700-582",
      "city": "SÃO MATEUS DA CALHETA",
      "lon": "-27.269343147810307",
      "lat": "38.657306137233"
    },
    {
      "id": "pt.ine.add.AC26.73766",
      "street": "R CAPITÃO-MOR",
      "house": "72",
      "postcode": "9700-567",
      "city": "SÃO MATEUS DA CALHETA",
      "lon": "-27.271503410855995",
      "lat": "38.66022999857765"
    },
    {
      "id": "pt.ine.add.AC26.76345",
      "street": "CAN VINHAS",
      "house": "12",
      "postcode": "9700-571",
      "city": "SÃO MATEUS DA CALHETA",
      "lon": "-27.26991817394589",
      "lat": "38.65740394232072"
    },
    {
      "id": "pt.ine.add.AC26.76346",
      "street": "R CAPITÃO-MOR",
      "house": "40",
      "postcode": "9700-567",
      "city": "SÃO MATEUS DA CALHETA",
      "lon": "-27.27188717280889",
      "lat": "38.65837266369367"
    },
    {
      "id": "pt.ine.add.AC26.78934",
      "street": "R AO FORTE",
      "house": "4",
      "postcode": "9700-592",
      "city": "SÃO MATEUS DA CALHETA",
      "lon": "-27.266595365358366",
      "lat": "38.657060099566685"
    },
    {
      "id": "pt.ine.add.AC26.78935",
      "street": "R AO FORTE",
      "house": "10",
      "postcode": "9700-592",
      "city": "SÃO MATEUS DA CALHETA",
      "lon": "-27.267848577108264",
      "lat": "38.65718340286072"
    },
    {
      "id": "pt.ine.add.AC26.78936",
      "street": "R PICO",
      "house": "10",
      "postcode": "9700-584",
      "city": "SÃO MATEUS DA CALHETA",
      "lon": "-27.26756249097551",
      "lat": "38.65751749659976"
    },
    {
      "id": "pt.ine.add.AC26.78937",
      "street": "R CAPITÃO-MOR",
      "house": "60",
      "postcode": "9700-567",
      "city": "SÃO MATEUS DA CALHETA",
      "lon": "-27.271868274421028",
      "lat": "38.65945413110152"
    },
    {
      "id": "pt.ine.add.AC26.80140",
      "street": "R CAPITÃO-MOR",
      "house": "104",
      "postcode": "9700-567",
      "city": "SÃO MATEUS DA CALHETA",
      "lon": "-27.270638549832203",
      "lat": "38.66253002675145"
    },
    {
      "id": "pt.ine.add.AC26.81134",
      "street": "CAN VINHAS",
      "house": "2",
      "postcode": "9700-571",
      "city": "SÃO MATEUS DA CALHETA",
      "lon": "-27.269793237344604",
      "lat": "38.657800752586745"
    },
    {
      "id": "pt.ine.add.AC26.82098",
      "street": "R CAPITÃO-MOR",
      "house": "46",
      "postcode": "9700-567",
      "city": "SÃO MATEUS DA CALHETA",
      "lon": "-27.272072939929647",
      "lat": "38.65886788422121"
    },
    {
      "id": "pt.ine.add.AC26.82173",
      "street": "R CAPITÃO-MOR",
      "house": "148",
      "postcode": "9700-567",
      "city": "SÃO MATEUS DA CALHETA",
      "lon": "-27.269350877323262",
      "lat": "38.665506911068775"
    },
    {
      "id": "pt.ine.add.AC26.83912",
      "street": "R ENTRE OS PICOS",
      "house": "7",
      "postcode": "9700-567",
      "city": "SÃO MATEUS DA CALHETA",
      "lon": "-27.26844433433087",
      "lat": "38.66591452845084"
    },
    {
      "id": "pt.ine.add.AC26.84822",
      "street": "R PADRE LUIS CASIMIRO",
      "house": "8",
      "postcode": "9700-580",
      "city": "SÃO MATEUS DA CALHETA",
      "lon": "-27.27087264404112",
      "lat": "38.657545925872995"
    },
    {
      "id": "pt.ine.add.AC26.87108",
      "street": "CAN VINHAS",
      "house": "4",
      "postcode": "9700-571",
      "city": "SÃO MATEUS DA CALHETA",
      "lon": "-27.26987335130588",
      "lat": "38.657710449140744"
    },
    {
      "id": "pt.ine.add.AC26.88961",
      "street": "R CAPITÃO-MOR",
      "house": "96",
      "postcode": "9700-567",
      "city": "SÃO MATEUS DA CALHETA",
      "lon": "-27.270440136781957",
      "lat": "38.66172843032066"
    },
    {
      "id": "pt.ine.add.AC26.89616",
      "street": "R CAPITÃO-MOR",
      "house": "100",
      "postcode": "9700-567",
      "city": "SÃO MATEUS DA CALHETA",
      "lon": "-27.27052266137242",
      "lat": "38.662277962823104"
    },
    {
      "id": "pt.ine.add.AC26.95949",
      "street": "R SANTO ANTÓNIO",
      "house": "2",
      "postcode": "9700-587",
      "city": "SÃO MATEUS DA CALHETA",
      "lon": "-27.269583151358365",
      "lat": "38.65694510975147"
    },
    {
      "id": "pt.ine.add.AC26.95950",
      "street": "R SANTO ANTÓNIO",
      "house": "4",
      "postcode": "9700-587",
      "city": "SÃO MATEUS DA CALHETA",
      "lon": "-27.269663974211287",
      "lat": "38.657044053983746"
    },
    {
      "id": "pt.ine.add.AC26.95951",
      "street": "R SANTO ANTÓNIO",
      "house": "6",
      "postcode": "9700-587",
      "city": "SÃO MATEUS DA CALHETA",
      "lon": "-27.269813451348256",
      "lat": "38.657061733034524"
    },
    {
      "id": "pt.ine.add.AC26.95952",
      "street": "R SANTO ANTÓNIO",
      "house": "8",
      "postcode": "9700-587",
      "city": "SÃO MATEUS DA CALHETA",
      "lon": "-27.269871051823745",
      "lat": "38.65709764762427"
    },
    {
      "id": "pt.ine.add.AC26.95953",
      "street": "R SANTO ANTÓNIO",
      "house": "10",
      "postcode": "9700-587",
      "city": "SÃO MATEUS DA CALHETA",
      "lon": "-27.269641461143536",
      "lat": "38.657170271997465"
    },
    {
      "id": "pt.ine.add.AC26.96489",
      "street": "CAN SANTO ANTÓNIO",
      "house": "18",
      "postcode": "9700-587",
      "city": "SÃO MATEUS DA CALHETA",
      "lon": "-27.270377796192992",
      "lat": "38.657375845268625"
    },
    {
      "id": "pt.ine.add.AC26.96770",
      "street": "CAN SANTO ANTÓNIO",
      "house": "16",
      "postcode": "9700-587",
      "city": "SÃO MATEUS DA CALHETA",
      "lon": "-27.27027452769144",
      "lat": "38.657421143240214"
    },
    {
      "id": "pt.ine.add.AC26.96823",
      "street": "R SANTO ANTÓNIO",
      "house": "10",
      "postcode": "9700-587",
      "city": "SÃO MATEUS DA CALHETA",
      "lon": "-27.27006704276674",
      "lat": "38.65725940887739"
    },
    {
      "id": "pt.ine.add.AC26.96824",
      "street": "R SANTO ANTÓNIO",
      "house": "14",
      "postcode": "9700-587",
      "city": "SÃO MATEUS DA CALHETA",
      "lon": "-27.270159292025422",
      "lat": "38.65734030264973"
    },
    {
      "id": "pt.ine.add.AC26.98455",
      "street": "R CASCALHO AO FORTE",
      "house": "8",
      "postcode": "9700-592",
      "city": "SÃO MATEUS DA CALHETA",
      "lon": "-27.267584203100245",
      "lat": "38.657174996046884"
    },
    {
      "id": "pt.ine.add.AC26.98470",
      "street": "R PADRE LUIS CASIMIRO",
      "house": "26",
      "postcode": "9700-580",
      "city": "SÃO MATEUS DA CALHETA",
      "lon": "-27.272150494489104",
      "lat": "38.65810169545848"
    },
    {
      "id": "pt.ine.add.AC26.98680",
      "street": "R PICO",
      "house": "11",
      "postcode": "9700-584",
      "city": "SÃO MATEUS DA CALHETA",
      "lon": "-27.268759223244174",
      "lat": "38.65790226336254"
    },
    {
      "id": "pt.ine.add.AC26.99113",
      "street": "R CAPITÃO-MOR",
      "house": "114 A",
      "postcode": "9700-567",
      "city": "SÃO MATEUS DA CALHETA",
      "lon": "-27.27070975252932",
      "lat": "38.66312464451886"
    },
    {
      "id": "pt.ine.add.AC26.100220",
      "street": "R CAPITÃO-MOR",
      "house": "128",
      "postcode": "9700-567",
      "city": "SÃO MATEUS DA CALHETA",
      "lon": "-27.27029983007895",
      "lat": "38.66415294399988"
    },
    {
      "id": "pt.ine.add.AC26.101886",
      "street": "R CAPITÃO-MOR",
      "house": "118",
      "postcode": "9700-567",
      "city": "SÃO MATEUS DA CALHETA",
      "lon": "-27.27087209450944",
      "lat": "38.66350276663679"
    },
    {
      "id": "pt.ine.add.AC26.103085",
      "street": "R ENTRE OS PICOS",
      "house": "5",
      "postcode": "9700-567",
      "city": "SÃO MATEUS DA CALHETA",
      "lon": "-27.268259918622004",
      "lat": "38.66577977375528"
    },
    {
      "id": "pt.ine.add.AC26.104291",
      "street": "R ENTRE OS PICOS",
      "house": "3",
      "postcode": "9700-567",
      "city": "SÃO MATEUS DA CALHETA",
      "lon": "-27.26813361423831",
      "lat": "38.66581611076556"
    },
    {
      "id": "pt.ine.add.AC26.104946",
      "street": "R CAPITÃO-MOR",
      "house": "106",
      "postcode": "9700-567",
      "city": "SÃO MATEUS DA CALHETA",
      "lon": "-27.270742571906812",
      "lat": "38.66268298759616"
    },
    {
      "id": "pt.ine.add.AC26.105667",
      "street": "R CAPITÃO-MOR",
      "house": "160",
      "postcode": "9700-567",
      "city": "SÃO MATEUS DA CALHETA",
      "lon": "-27.268870606629967",
      "lat": "38.666174893083706"
    },
    {
      "id": "pt.ine.add.AC26.106544",
      "street": "R PICO",
      "house": "19A",
      "postcode": "9700-584",
      "city": "SÃO MATEUS DA CALHETA",
      "lon": "-27.268841528306098",
      "lat": "38.65839772675596"
    },
    {
      "id": "pt.ine.add.AC26.106659",
      "street": "R PADRE LUIS CASIMIRO",
      "house": "18",
      "postcode": "9700-580",
      "city": "SÃO MATEUS DA CALHETA",
      "lon": "-27.269738441731345",
      "lat": "38.658512816200584"
    }
  ]
}