{
  "data": {
    "distrito": "Coimbra",
    "concelho": "Mira",
    "freguesia": "Mira",
    "OBJECTID": 47,
    "BGRI2021": "06080100828",
    "DT21": "06",
    "DTMN21": "0608",
    "DTMNFR21": "060801",
    "DTMNFRSEC21": "060801008",
    "SECNUM21": "008",
    "SSNUM21": "28",
    "SECSSNUM21": "00828",
    "OBJECTID_1": 53117,
    "DT": "06",
    "CC": "08",
    "fr": "01",
    "SEC": "008",
    "SS": "28"
  },
  "addresses": [
    {
      "id": "pt.ine.add.PTCONT.1100997",
      "street": "R COMÉRCIO",
      "house": "15",
      "postcode": "3070-210",
      "city": "MIRA",
      "lon": "-8.697643351471376",
      "lat": "40.41195775153813"
    },
    {
      "id": "pt.ine.add.PTCONT.1112800",
      "street": "VIA INF D PEDRO",
      "house": "",
      "postcode": "3070-212",
      "city": "MIRA",
      "lon": "-8.695970152406032",
      "lat": "40.411929887072155"
    },
    {
      "id": "pt.ine.add.PTCONT.1138854",
      "street": "VLA SANTO ANTÓNIO",
      "house": "12",
      "postcode": "3070-217",
      "city": "MIRA",
      "lon": "-8.69651191706948",
      "lat": "40.41049537600529"
    },
    {
      "id": "pt.ine.add.PTCONT.1154451",
      "street": "R COMÉRCIO",
      "house": "27",
      "postcode": "3070-210",
      "city": "MIRA",
      "lon": "-8.697674178980314",
      "lat": "40.41141727186517"
    },
    {
      "id": "pt.ine.add.PTCONT.1156897",
      "street": "VIA INF D PEDRO",
      "house": "",
      "postcode": "3070-212",
      "city": "MIRA",
      "lon": "-8.695816249637241",
      "lat": "40.411840581330154"
    },
    {
      "id": "pt.ine.add.PTCONT.1158476",
      "street": "R LUZ",
      "house": "33",
      "postcode": "3070-206",
      "city": "MIRA",
      "lon": "-8.695990038859078",
      "lat": "40.4100746598735"
    },
    {
      "id": "pt.ine.add.PTCONT.1160610",
      "street": "R COMÉRCIO",
      "house": "43",
      "postcode": "3070-210",
      "city": "MIRA",
      "lon": "-8.69759845224678",
      "lat": "40.4108142739925"
    },
    {
      "id": "pt.ine.add.PTCONT.1170403",
      "street": "TV S TOMÉ",
      "house": "9",
      "postcode": "3070-216",
      "city": "MIRA",
      "lon": "-8.696832551401153",
      "lat": "40.41079999975778"
    },
    {
      "id": "pt.ine.add.PTCONT.1174912",
      "street": "VIA INF D PEDRO",
      "house": "127",
      "postcode": "3070-212",
      "city": "MIRA",
      "lon": "-8.69529406547965",
      "lat": "40.4113838417068"
    },
    {
      "id": "pt.ine.add.PTCONT.1177871",
      "street": "R COMÉRCIO",
      "house": "37",
      "postcode": "3070-210",
      "city": "MIRA",
      "lon": "-8.697718367305253",
      "lat": "40.41106584211708"
    },
    {
      "id": "pt.ine.add.PTCONT.1188773",
      "street": "R COMÉRCIO",
      "house": "5",
      "postcode": "3070-210",
      "city": "MIRA",
      "lon": "-8.697492681483103",
      "lat": "40.412255668115876"
    },
    {
      "id": "pt.ine.add.PTCONT.1208373",
      "street": "R COMÉRCIO",
      "house": "",
      "postcode": "3070-210",
      "city": "MIRA",
      "lon": "-8.697561712305408",
      "lat": "40.412057210460844"
    },
    {
      "id": "pt.ine.add.PTCONT.1208799",
      "street": "R BREJEIRAS",
      "house": "42",
      "postcode": "3070-207",
      "city": "MIRA",
      "lon": "-8.695412262260648",
      "lat": "40.4100144327756"
    },
    {
      "id": "pt.ine.add.PTCONT.1216451",
      "street": "TV S TOMÉ",
      "house": "4",
      "postcode": "3070-216",
      "city": "MIRA",
      "lon": "-8.69684237845183",
      "lat": "40.41056580916741"
    },
    {
      "id": "pt.ine.add.PTCONT.1222440",
      "street": "R BREJEIRAS",
      "house": "38",
      "postcode": "3070-207",
      "city": "MIRA",
      "lon": "-8.69514138240675",
      "lat": "40.41002475530752"
    },
    {
      "id": "pt.ine.add.PTCONT.1231837",
      "street": "R COMÉRCIO",
      "house": "51",
      "postcode": "3070-210",
      "city": "MIRA",
      "lon": "-8.697442368441289",
      "lat": "40.410463821905616"
    },
    {
      "id": "pt.ine.add.PTCONT.1238701",
      "street": "R COMÉRCIO",
      "house": "33",
      "postcode": "3070-210",
      "city": "MIRA",
      "lon": "-8.69770771537896",
      "lat": "40.41120097643273"
    },
    {
      "id": "pt.ine.add.PTCONT.1251084",
      "street": "R COMÉRCIO",
      "house": "31",
      "postcode": "3070-210",
      "city": "MIRA",
      "lon": "-8.697696912895639",
      "lat": "40.411318100506726"
    },
    {
      "id": "pt.ine.add.PTCONT.1259898",
      "street": "R COMÉRCIO",
      "house": "21",
      "postcode": "3070-210",
      "city": "MIRA",
      "lon": "-8.697640792879024",
      "lat": "40.411651577518256"
    },
    {
      "id": "pt.ine.add.PTCONT.1294473",
      "street": "R BREJEIRAS",
      "house": "16",
      "postcode": "3070-207",
      "city": "MIRA",
      "lon": "-8.694261573894705",
      "lat": "40.41047930308496"
    },
    {
      "id": "pt.ine.add.PTCONT.1306271",
      "street": "VIA INF D PEDRO",
      "house": "133",
      "postcode": "3070-212",
      "city": "MIRA",
      "lon": "-8.69562505487008",
      "lat": "40.41151731417123"
    },
    {
      "id": "pt.ine.add.PTCONT.1306272",
      "street": "TV S TOMÉ",
      "house": "2",
      "postcode": "3070-216",
      "city": "MIRA",
      "lon": "-8.696655163693956",
      "lat": "40.410719815100116"
    },
    {
      "id": "pt.ine.add.PTCONT.1307613",
      "street": "VIA INF D PEDRO",
      "house": "93",
      "postcode": "3070-212",
      "city": "MIRA",
      "lon": "-8.69406354473568",
      "lat": "40.41075042866678"
    },
    {
      "id": "pt.ine.add.PTCONT.1312398",
      "street": "VIA INF D PEDRO",
      "house": "125",
      "postcode": "3070-212",
      "city": "MIRA",
      "lon": "-8.695165749457162",
      "lat": "40.41153755881961"
    },
    {
      "id": "pt.ine.add.PTCONT.1312399",
      "street": "R LUZ",
      "house": "27",
      "postcode": "3070-206",
      "city": "MIRA",
      "lon": "-8.696226252349094",
      "lat": "40.41014555359194"
    },
    {
      "id": "pt.ine.add.PTCONT.1314355",
      "street": "VIA INF D PEDRO",
      "house": "115",
      "postcode": "3070-212",
      "city": "MIRA",
      "lon": "-8.694787188091883",
      "lat": "40.41135028322642"
    },
    {
      "id": "pt.ine.add.PTCONT.1320357",
      "street": "VIA",
      "house": "116",
      "postcode": "3070-212",
      "city": "MIRA",
      "lon": "-8.694976655754418",
      "lat": "40.41146643398774"
    },
    {
      "id": "pt.ine.add.PTCONT.1324399",
      "street": "VIA INF D PEDRO",
      "house": "135",
      "postcode": "3070-212",
      "city": "MIRA",
      "lon": "-8.695744063887044",
      "lat": "40.411660822897396"
    },
    {
      "id": "pt.ine.add.PTCONT.1328577",
      "street": "VIA INF D PEDRO",
      "house": "167",
      "postcode": "3070-212",
      "city": "MIRA",
      "lon": "-8.69710518563169",
      "lat": "40.41241065220181"
    },
    {
      "id": "pt.ine.add.PTCONT.1329902",
      "street": "R BREJEIRAS",
      "house": "24",
      "postcode": "3070-207",
      "city": "MIRA",
      "lon": "-8.694530659705785",
      "lat": "40.410252859594735"
    },
    {
      "id": "pt.ine.add.PTCONT.1334634",
      "street": "R COMÉRCIO",
      "house": "47",
      "postcode": "3070-210",
      "city": "MIRA",
      "lon": "-8.69754989962376",
      "lat": "40.410643406766056"
    },
    {
      "id": "pt.ine.add.PTCONT.1343961",
      "street": "R COMÉRCIO",
      "house": "23",
      "postcode": "3070-210",
      "city": "MIRA",
      "lon": "-8.697686938212907",
      "lat": "40.4115342808829"
    },
    {
      "id": "pt.ine.add.PTCONT.1349053",
      "street": "VIA INF D PEDRO",
      "house": "",
      "postcode": "3070-212",
      "city": "MIRA",
      "lon": "-8.696300545201636",
      "lat": "40.41199131660175"
    }
  ]
}