{
  "data": {
    "distrito": "Lisboa",
    "concelho": "Sintra",
    "freguesia": "Uni達o das freguesias de Sintra (Santa Maria e S達o Miguel, S達o Martinho e S達o Pedro de Penaferrim)",
    "OBJECTID": 372,
    "BGRI2021": "11112802007",
    "DT21": "11",
    "DTMN21": "1111",
    "DTMNFR21": "111128",
    "DTMNFRSEC21": "111128020",
    "SECNUM21": "020",
    "SSNUM21": "07",
    "SECSSNUM21": "02007",
    "OBJECTID_1": 112712,
    "DT": "11",
    "CC": "11",
    "fr": "28",
    "SEC": "020",
    "SS": "07"
  },
  "addresses": [
    {
      "id": "pt.ine.add.PTCONT.2419115",
      "street": "VLA EIRA",
      "house": "B",
      "postcode": "2710-693",
      "city": "SINTRA",
      "lon": "-9.371318244235525",
      "lat": "38.76260619032201"
    },
    {
      "id": "pt.ine.add.PTCONT.2419116",
      "street": "VLA EIRA",
      "house": "B",
      "postcode": "2710-693",
      "city": "SINTRA",
      "lon": "-9.371318244235525",
      "lat": "38.76260619032201"
    },
    {
      "id": "pt.ine.add.PTCONT.2419117",
      "street": "VLA EIRA",
      "house": "B",
      "postcode": "2710-693",
      "city": "SINTRA",
      "lon": "-9.371318244235525",
      "lat": "38.76260619032201"
    },
    {
      "id": "pt.ine.add.PTCONT.2419118",
      "street": "VLA EIRA",
      "house": "B",
      "postcode": "2710-693",
      "city": "SINTRA",
      "lon": "-9.371318244235525",
      "lat": "38.76260619032201"
    },
    {
      "id": "pt.ine.add.PTCONT.2421491",
      "street": "VLA EIRA",
      "house": "B",
      "postcode": "2710-693",
      "city": "SINTRA",
      "lon": "-9.371318244235525",
      "lat": "38.76260619032201"
    },
    {
      "id": "pt.ine.add.PTCONT.2463602",
      "street": "VLA EIRA",
      "house": "D",
      "postcode": "2710-693",
      "city": "SINTRA",
      "lon": "-9.370832948834948",
      "lat": "38.762485223867"
    },
    {
      "id": "pt.ine.add.PTCONT.2463603",
      "street": "VLA EIRA",
      "house": "D",
      "postcode": "2710-693",
      "city": "SINTRA",
      "lon": "-9.370832948834948",
      "lat": "38.762485223867"
    },
    {
      "id": "pt.ine.add.PTCONT.2463604",
      "street": "VLA EIRA",
      "house": "PORTA D",
      "postcode": "2710-693",
      "city": "SINTRA",
      "lon": "-9.370832948834948",
      "lat": "38.762485223867"
    },
    {
      "id": "pt.ine.add.PTCONT.2463605",
      "street": "VLA EIRA",
      "house": "D",
      "postcode": "2710-693",
      "city": "SINTRA",
      "lon": "-9.370832948834948",
      "lat": "38.762485223867"
    },
    {
      "id": "pt.ine.add.PTCONT.2466043",
      "street": "VLA EIRA",
      "house": "D",
      "postcode": "2710-693",
      "city": "SINTRA",
      "lon": "-9.370832948834948",
      "lat": "38.762485223867"
    },
    {
      "id": "pt.ine.add.PTCONT.2488361",
      "street": "VLA EIRA",
      "house": "A",
      "postcode": "2710-693",
      "city": "SINTRA",
      "lon": "-9.37151161194549",
      "lat": "38.76247803414376"
    },
    {
      "id": "pt.ine.add.PTCONT.2488362",
      "street": "VLA EIRA",
      "house": "PORTA A",
      "postcode": "2710-693",
      "city": "SINTRA",
      "lon": "-9.37151161194549",
      "lat": "38.76247803414376"
    },
    {
      "id": "pt.ine.add.PTCONT.2488363",
      "street": "VLA EIRA",
      "house": "A",
      "postcode": "2710-693",
      "city": "SINTRA",
      "lon": "-9.37151161194549",
      "lat": "38.76247803414376"
    },
    {
      "id": "pt.ine.add.PTCONT.2488364",
      "street": "VLA EIRA",
      "house": "A",
      "postcode": "2710-693",
      "city": "SINTRA",
      "lon": "-9.37151161194549",
      "lat": "38.76247803414376"
    },
    {
      "id": "pt.ine.add.PTCONT.2493704",
      "street": "VLA EIRA",
      "house": "A",
      "postcode": "2710-693",
      "city": "SINTRA",
      "lon": "-9.37151161194549",
      "lat": "38.76247803414376"
    },
    {
      "id": "pt.ine.add.PTCONT.2536450",
      "street": "R MATO MINA",
      "house": "1 BLOCO B",
      "postcode": "2710-692",
      "city": "SINTRA",
      "lon": "-9.371296607870438",
      "lat": "38.76135435461737"
    },
    {
      "id": "pt.ine.add.PTCONT.2536451",
      "street": "R MATO MINA",
      "house": "1",
      "postcode": "2710-692",
      "city": "SINTRA",
      "lon": "-9.371296607870438",
      "lat": "38.76135435461737"
    },
    {
      "id": "pt.ine.add.PTCONT.2536452",
      "street": "R MATO MINA",
      "house": "",
      "postcode": "2710-692",
      "city": "SINTRA",
      "lon": "-9.371296607870438",
      "lat": "38.76135435461737"
    },
    {
      "id": "pt.ine.add.PTCONT.2536453",
      "street": "R MATO DA MINA",
      "house": "B",
      "postcode": "2710-692",
      "city": "SINTRA",
      "lon": "-9.371296607870438",
      "lat": "38.76135435461737"
    },
    {
      "id": "pt.ine.add.PTCONT.2536454",
      "street": "R MATO DA MINA",
      "house": "B",
      "postcode": "2710-692",
      "city": "SINTRA",
      "lon": "-9.371296607870438",
      "lat": "38.76135435461737"
    },
    {
      "id": "pt.ine.add.PTCONT.2536455",
      "street": "R MATO MINA",
      "house": "1 BLOCO B",
      "postcode": "2710-692",
      "city": "SINTRA",
      "lon": "-9.371296607870438",
      "lat": "38.76135435461737"
    },
    {
      "id": "pt.ine.add.PTCONT.2635391",
      "street": "R MATO MINA",
      "house": "1",
      "postcode": "2710-692",
      "city": "SINTRA",
      "lon": "-9.37145577595931",
      "lat": "38.76124457618693"
    },
    {
      "id": "pt.ine.add.PTCONT.2635392",
      "street": "R MATO DA MINA",
      "house": "A",
      "postcode": "2710-692",
      "city": "SINTRA",
      "lon": "-9.37145577595931",
      "lat": "38.76124457618693"
    },
    {
      "id": "pt.ine.add.PTCONT.2757254",
      "street": "AL BELOURA",
      "house": "2",
      "postcode": "2710-693",
      "city": "SINTRA",
      "lon": "-9.371529617476547",
      "lat": "38.76152303124591"
    },
    {
      "id": "pt.ine.add.PTCONT.2757255",
      "street": "AL BELOURA",
      "house": "2",
      "postcode": "2710-693",
      "city": "SINTRA",
      "lon": "-9.371529617476547",
      "lat": "38.76152303124591"
    },
    {
      "id": "pt.ine.add.PTCONT.2757256",
      "street": "AL BELOURA",
      "house": "2B",
      "postcode": "2710-693",
      "city": "SINTRA",
      "lon": "-9.371529617476547",
      "lat": "38.76152303124591"
    },
    {
      "id": "pt.ine.add.PTCONT.2757438",
      "street": "AL BELOURA",
      "house": "2B",
      "postcode": "2710-693",
      "city": "SINTRA",
      "lon": "-9.371529617476547",
      "lat": "38.76152303124591"
    },
    {
      "id": "pt.ine.add.PTCONT.2757439",
      "street": "AL BELOURA",
      "house": "B",
      "postcode": "2710-693",
      "city": "SINTRA",
      "lon": "-9.371529617476547",
      "lat": "38.76152303124591"
    },
    {
      "id": "pt.ine.add.PTCONT.2757440",
      "street": "AL BELOURA",
      "house": "B",
      "postcode": "2710-693",
      "city": "SINTRA",
      "lon": "-9.371529617476547",
      "lat": "38.76152303124591"
    },
    {
      "id": "pt.ine.add.PTCONT.2757441",
      "street": "R MATO DA MINA",
      "house": "E",
      "postcode": "2710-692",
      "city": "SINTRA",
      "lon": "-9.37086914506609",
      "lat": "38.76125079081779"
    },
    {
      "id": "pt.ine.add.PTCONT.2757442",
      "street": "R MATO DA MINA",
      "house": "E",
      "postcode": "2710-692",
      "city": "SINTRA",
      "lon": "-9.37086914506609",
      "lat": "38.76125079081779"
    },
    {
      "id": "pt.ine.add.PTCONT.2844018",
      "street": "AL DA BELOURA",
      "house": "",
      "postcode": "2710-693",
      "city": "SINTRA",
      "lon": "-9.370837760783585",
      "lat": "38.76209784346519"
    },
    {
      "id": "pt.ine.add.PTCONT.2844019",
      "street": "AL DA BELOURA",
      "house": "",
      "postcode": "2710-693",
      "city": "SINTRA",
      "lon": "-9.370837760783585",
      "lat": "38.76209784346519"
    },
    {
      "id": "pt.ine.add.PTCONT.2844020",
      "street": "AL DA BELOURA",
      "house": "",
      "postcode": "2710-693",
      "city": "SINTRA",
      "lon": "-9.370837760783585",
      "lat": "38.76209784346519"
    },
    {
      "id": "pt.ine.add.PTCONT.2844021",
      "street": "AL DA BELOURA",
      "house": "",
      "postcode": "2710-693",
      "city": "SINTRA",
      "lon": "-9.370837760783585",
      "lat": "38.76209784346519"
    },
    {
      "id": "pt.ine.add.PTCONT.2844022",
      "street": "AL DA BELOURA",
      "house": "",
      "postcode": "2710-693",
      "city": "SINTRA",
      "lon": "-9.370837760783585",
      "lat": "38.76209784346519"
    },
    {
      "id": "pt.ine.add.PTCONT.2920676",
      "street": "AL BELOURA",
      "house": "D",
      "postcode": "2710-693",
      "city": "SINTRA",
      "lon": "-9.371557293293415",
      "lat": "38.76179296781649"
    },
    {
      "id": "pt.ine.add.PTCONT.2920548",
      "street": "AL BELOURA",
      "house": "D",
      "postcode": "2710-693",
      "city": "SINTRA",
      "lon": "-9.371557293293415",
      "lat": "38.76179296781649"
    },
    {
      "id": "pt.ine.add.PTCONT.2920549",
      "street": "AL BELOURA",
      "house": "D",
      "postcode": "2710-693",
      "city": "SINTRA",
      "lon": "-9.371557293293415",
      "lat": "38.76179296781649"
    },
    {
      "id": "pt.ine.add.PTCONT.2920677",
      "street": "AL BELOURA",
      "house": "2",
      "postcode": "2710-693",
      "city": "SINTRA",
      "lon": "-9.371557293293415",
      "lat": "38.76179296781649"
    },
    {
      "id": "pt.ine.add.PTCONT.2920678",
      "street": "AL BELOURA",
      "house": "D",
      "postcode": "2710-693",
      "city": "SINTRA",
      "lon": "-9.371557293293415",
      "lat": "38.76179296781649"
    },
    {
      "id": "pt.ine.add.PTCONT.2923794",
      "street": "AL BELOURA",
      "house": "2 BLOCO",
      "postcode": "2710-693",
      "city": "SINTRA",
      "lon": "-9.371557293293415",
      "lat": "38.76179296781649"
    },
    {
      "id": "pt.ine.add.PTCONT.2930824",
      "street": "AL BELOURA",
      "house": "2",
      "postcode": "2710-693",
      "city": "SINTRA",
      "lon": "-9.371666091784375",
      "lat": "38.76143150833791"
    },
    {
      "id": "pt.ine.add.PTCONT.2930827",
      "street": "AL BELOURA",
      "house": "2A",
      "postcode": "2710-693",
      "city": "SINTRA",
      "lon": "-9.371666091784375",
      "lat": "38.76143150833791"
    },
    {
      "id": "pt.ine.add.PTCONT.3124728",
      "street": "AL BELOURA",
      "house": "2 PRTA E",
      "postcode": "2710-693",
      "city": "SINTRA",
      "lon": "-9.371697193581776",
      "lat": "38.761899577119216"
    },
    {
      "id": "pt.ine.add.PTCONT.3124729",
      "street": "AL BELOURA EA",
      "house": "EA2",
      "postcode": "2710-693",
      "city": "SINTRA",
      "lon": "-9.371697193581776",
      "lat": "38.761899577119216"
    },
    {
      "id": "pt.ine.add.PTCONT.3133985",
      "street": "VLA EIRA",
      "house": "C",
      "postcode": "2710-693",
      "city": "SINTRA",
      "lon": "-9.3709961662577",
      "lat": "38.76260960236181"
    },
    {
      "id": "pt.ine.add.PTCONT.3133987",
      "street": "VLA EIRA",
      "house": "C",
      "postcode": "2710-693",
      "city": "SINTRA",
      "lon": "-9.3709961662577",
      "lat": "38.76260960236181"
    },
    {
      "id": "pt.ine.add.PTCONT.3133988",
      "street": "VLA EIRA",
      "house": "C",
      "postcode": "2710-693",
      "city": "SINTRA",
      "lon": "-9.3709961662577",
      "lat": "38.76260960236181"
    },
    {
      "id": "pt.ine.add.PTCONT.3133989",
      "street": "VLA EIRA",
      "house": "6",
      "postcode": "2710-693",
      "city": "SINTRA",
      "lon": "-9.3709961662577",
      "lat": "38.76260960236181"
    },
    {
      "id": "pt.ine.add.PTCONT.3133990",
      "street": "VLA EIRA EA",
      "house": "EA4",
      "postcode": "2710-693",
      "city": "SINTRA",
      "lon": "-9.3709961662577",
      "lat": "38.76260960236181"
    },
    {
      "id": "pt.ine.add.PTCONT.3195835",
      "street": "AL BELOURA",
      "house": "4B",
      "postcode": "2710-693",
      "city": "SINTRA",
      "lon": "-9.37131900639774",
      "lat": "38.761984653638414"
    },
    {
      "id": "pt.ine.add.PTCONT.3195836",
      "street": "AL BELOURA",
      "house": "B",
      "postcode": "2710-693",
      "city": "SINTRA",
      "lon": "-9.37131900639774",
      "lat": "38.761984653638414"
    },
    {
      "id": "pt.ine.add.PTCONT.3195837",
      "street": "AL BELOURA",
      "house": "B",
      "postcode": "2710-693",
      "city": "SINTRA",
      "lon": "-9.37131900639774",
      "lat": "38.761984653638414"
    },
    {
      "id": "pt.ine.add.PTCONT.3195838",
      "street": "AL BELOURA",
      "house": "4 B",
      "postcode": "2710-693",
      "city": "SINTRA",
      "lon": "-9.37131900639774",
      "lat": "38.761984653638414"
    },
    {
      "id": "pt.ine.add.PTCONT.3195839",
      "street": "AL BELOURA",
      "house": "B",
      "postcode": "2710-693",
      "city": "SINTRA",
      "lon": "-9.37131900639774",
      "lat": "38.761984653638414"
    },
    {
      "id": "pt.ine.add.PTCONT.3212597",
      "street": "AL DA BELOURA",
      "house": "4",
      "postcode": "2710-693",
      "city": "SINTRA",
      "lon": "-9.37098527291092",
      "lat": "38.76197918146182"
    },
    {
      "id": "pt.ine.add.PTCONT.3212598",
      "street": "AL DA BELOURA",
      "house": "4",
      "postcode": "2710-693",
      "city": "SINTRA",
      "lon": "-9.37098527291092",
      "lat": "38.76197918146182"
    },
    {
      "id": "pt.ine.add.PTCONT.3212599",
      "street": "AL DA BELOURA",
      "house": "4",
      "postcode": "2710-693",
      "city": "SINTRA",
      "lon": "-9.37098527291092",
      "lat": "38.76197918146182"
    },
    {
      "id": "pt.ine.add.PTCONT.3212600",
      "street": "AL DA BELOURA",
      "house": "4",
      "postcode": "2710-693",
      "city": "SINTRA",
      "lon": "-9.37098527291092",
      "lat": "38.76197918146182"
    },
    {
      "id": "pt.ine.add.PTCONT.3212601",
      "street": "AL DA BELOURA",
      "house": "4",
      "postcode": "2710-693",
      "city": "SINTRA",
      "lon": "-9.37098527291092",
      "lat": "38.76197918146182"
    },
    {
      "id": "pt.ine.add.PTCONT.3391054",
      "street": "R MATO DA MINA",
      "house": "1D",
      "postcode": "2710-692",
      "city": "SINTRA",
      "lon": "-9.371020701474425",
      "lat": "38.76136628516137"
    },
    {
      "id": "pt.ine.add.PTCONT.3391055",
      "street": "R MATO DA MINA",
      "house": "1D",
      "postcode": "2710-692",
      "city": "SINTRA",
      "lon": "-9.371020701474425",
      "lat": "38.76136628516137"
    },
    {
      "id": "pt.ine.add.PTCONT.3391056",
      "street": "R MATO DA MINA",
      "house": "1D",
      "postcode": "2710-692",
      "city": "SINTRA",
      "lon": "-9.371020701474425",
      "lat": "38.76136628516137"
    },
    {
      "id": "pt.ine.add.PTCONT.3391057",
      "street": "R MATO DA MINA",
      "house": "1D",
      "postcode": "2710-692",
      "city": "SINTRA",
      "lon": "-9.371020701474425",
      "lat": "38.76136628516137"
    },
    {
      "id": "pt.ine.add.PTCONT.3391058",
      "street": "R MATO DA MINA",
      "house": "1D",
      "postcode": "2710-692",
      "city": "SINTRA",
      "lon": "-9.371020701474425",
      "lat": "38.76136628516137"
    },
    {
      "id": "pt.ine.add.PTCONT.3394978",
      "street": "R MATO MINA D",
      "house": "D",
      "postcode": "2710-692",
      "city": "SINTRA",
      "lon": "-9.371020701474425",
      "lat": "38.76136628516137"
    },
    {
      "id": "pt.ine.add.PTCONT.3428929",
      "street": "AL BELOURA",
      "house": "A",
      "postcode": "2710-693",
      "city": "SINTRA",
      "lon": "-9.371482379162245",
      "lat": "38.76211803748105"
    },
    {
      "id": "pt.ine.add.PTCONT.3428930",
      "street": "AL BELOURA",
      "house": "A",
      "postcode": "2710-693",
      "city": "SINTRA",
      "lon": "-9.371482379162245",
      "lat": "38.76211803748105"
    },
    {
      "id": "pt.ine.add.PTCONT.3428931",
      "street": "AL BELOURA",
      "house": "A",
      "postcode": "2710-693",
      "city": "SINTRA",
      "lon": "-9.371482379162245",
      "lat": "38.76211803748105"
    },
    {
      "id": "pt.ine.add.PTCONT.3428932",
      "street": "AL BELOURA",
      "house": "A",
      "postcode": "2710-693",
      "city": "SINTRA",
      "lon": "-9.371482379162245",
      "lat": "38.76211803748105"
    },
    {
      "id": "pt.ine.add.PTCONT.3428933",
      "street": "AL BELOURA",
      "house": "PORTA A",
      "postcode": "2710-693",
      "city": "SINTRA",
      "lon": "-9.371482379162245",
      "lat": "38.76211803748105"
    },
    {
      "id": "pt.ine.add.PTCONT.3452198",
      "street": "AL BELOURA",
      "house": "B",
      "postcode": "2710-693",
      "city": "SINTRA",
      "lon": "-9.37131900639774",
      "lat": "38.761984653638414"
    }
  ]
}