{
  "data": {
    "distrito": "Viseu",
    "concelho": "Vila Nova de Paiva",
    "freguesia": "União das freguesias de Vila Nova de Paiva, Alhais e Fráguas",
    "OBJECTID": 41,
    "BGRI2021": "18220800206",
    "DT21": "18",
    "DTMN21": "1822",
    "DTMNFR21": "182208",
    "DTMNFRSEC21": "182208002",
    "SECNUM21": "002",
    "SSNUM21": "06",
    "SECSSNUM21": "00206",
    "OBJECTID_1": 200440,
    "DT": "18",
    "CC": "22",
    "fr": "08",
    "SEC": "002",
    "SS": "06"
  },
  "addresses": [
    {
      "id": "pt.ine.add.PTCONT.5431669",
      "street": "LG ENG ENGRÁCIA CARRILHO",
      "house": "2",
      "postcode": "3650-244",
      "city": "VILA NOVA DE PAIVA",
      "lon": "-7.7294898065390205",
      "lat": "40.85084143417447"
    },
    {
      "id": "pt.ine.add.PTCONT.5439100",
      "street": "R CAMPO",
      "house": "",
      "postcode": "3650-217",
      "city": "VILA NOVA DE PAIVA",
      "lon": "-7.728300599148707",
      "lat": "40.8513865621863"
    },
    {
      "id": "pt.ine.add.PTCONT.5439101",
      "street": "R CAMPO",
      "house": "",
      "postcode": "3650-217",
      "city": "VILA NOVA DE PAIVA",
      "lon": "-7.728300599148707",
      "lat": "40.8513865621863"
    },
    {
      "id": "pt.ine.add.PTCONT.5440914",
      "street": "PC D AFONSO HENRIQUES",
      "house": "8",
      "postcode": "3650-194",
      "city": "VILA NOVA DE PAIVA",
      "lon": "-7.729297772143064",
      "lat": "40.851218965246076"
    },
    {
      "id": "pt.ine.add.PTCONT.5441966",
      "street": "R MALHADINHAS",
      "house": "26",
      "postcode": "3650-198",
      "city": "VILA NOVA DE PAIVA",
      "lon": "-7.7292430167007105",
      "lat": "40.85047137210894"
    },
    {
      "id": "pt.ine.add.PTCONT.5452082",
      "street": "LG ENG ENGRÁCIA CARRILHO",
      "house": "4",
      "postcode": "3650-244",
      "city": "VILA NOVA DE PAIVA",
      "lon": "-7.729668723958612",
      "lat": "40.85067096813969"
    },
    {
      "id": "pt.ine.add.PTCONT.5452097",
      "street": "PC MUNICIPIO",
      "house": "",
      "postcode": "3650-193",
      "city": "VILA NOVA DE PAIVA",
      "lon": "-7.729049340927545",
      "lat": "40.85111904213969"
    },
    {
      "id": "pt.ine.add.PTCONT.5452098",
      "street": "PC MUNICIPIO",
      "house": "",
      "postcode": "3650-193",
      "city": "VILA NOVA DE PAIVA",
      "lon": "-7.729049340927545",
      "lat": "40.85111904213969"
    },
    {
      "id": "pt.ine.add.PTCONT.5452099",
      "street": "PC MUNICIPIO",
      "house": "",
      "postcode": "3650-193",
      "city": "VILA NOVA DE PAIVA",
      "lon": "-7.729049340927545",
      "lat": "40.85111904213969"
    },
    {
      "id": "pt.ine.add.PTCONT.5452100",
      "street": "PC MUNICIPIO",
      "house": "",
      "postcode": "3650-193",
      "city": "VILA NOVA DE PAIVA",
      "lon": "-7.729049340927545",
      "lat": "40.85111904213969"
    },
    {
      "id": "pt.ine.add.PTCONT.5452101",
      "street": "PC MUNICIPIO",
      "house": "",
      "postcode": "3650-193",
      "city": "VILA NOVA DE PAIVA",
      "lon": "-7.729049340927545",
      "lat": "40.85111904213969"
    },
    {
      "id": "pt.ine.add.PTCONT.5452102",
      "street": "PC MUNICIPIO",
      "house": "",
      "postcode": "3650-193",
      "city": "VILA NOVA DE PAIVA",
      "lon": "-7.729049340927545",
      "lat": "40.85111904213969"
    },
    {
      "id": "pt.ine.add.PTCONT.5452580",
      "street": "PC MUNICIPIO",
      "house": "",
      "postcode": "3650-193",
      "city": "VILA NOVA DE PAIVA",
      "lon": "-7.729049340927545",
      "lat": "40.85111904213969"
    },
    {
      "id": "pt.ine.add.PTCONT.5455651",
      "street": "R PADRE JOSE SA MARQUES",
      "house": "",
      "postcode": "3650-223",
      "city": "VILA NOVA DE PAIVA",
      "lon": "-7.727775467172076",
      "lat": "40.85193401316134"
    },
    {
      "id": "pt.ine.add.PTCONT.5461718",
      "street": "PC MUNICIPIO",
      "house": "20",
      "postcode": "3650-193",
      "city": "VILA NOVA DE PAIVA",
      "lon": "-7.7290297264024135",
      "lat": "40.85044361067266"
    },
    {
      "id": "pt.ine.add.PTCONT.5461719",
      "street": "PC MUNICIPIO",
      "house": "20",
      "postcode": "3650-193",
      "city": "VILA NOVA DE PAIVA",
      "lon": "-7.7290297264024135",
      "lat": "40.85044361067266"
    },
    {
      "id": "pt.ine.add.PTCONT.5461720",
      "street": "PC MUNICIPIO",
      "house": "20",
      "postcode": "3650-193",
      "city": "VILA NOVA DE PAIVA",
      "lon": "-7.7290297264024135",
      "lat": "40.85044361067266"
    },
    {
      "id": "pt.ine.add.PTCONT.5461721",
      "street": "PC MUNICIPIO",
      "house": "20",
      "postcode": "3650-193",
      "city": "VILA NOVA DE PAIVA",
      "lon": "-7.7290297264024135",
      "lat": "40.85044361067266"
    },
    {
      "id": "pt.ine.add.PTCONT.5465258",
      "street": "R MALHADINHAS",
      "house": "9",
      "postcode": "3650-198",
      "city": "VILA NOVA DE PAIVA",
      "lon": "-7.729562706644268",
      "lat": "40.85055353443307"
    },
    {
      "id": "pt.ine.add.PTCONT.5489872",
      "street": "PC D AFONSO HENRIQUES VILA NOV",
      "house": "VILA NOV",
      "postcode": "3650-194",
      "city": "VILA NOVA DE PAIVA",
      "lon": "-7.728916925354284",
      "lat": "40.85144275235141"
    },
    {
      "id": "pt.ine.add.PTCONT.5493683",
      "street": "R CAMPO",
      "house": "",
      "postcode": "3650-217",
      "city": "VILA NOVA DE PAIVA",
      "lon": "-7.7285853732218435",
      "lat": "40.85136054664945"
    },
    {
      "id": "pt.ine.add.PTCONT.5513891",
      "street": "PC D AFONSO HENRIQUES",
      "house": "10",
      "postcode": "3650-194",
      "city": "VILA NOVA DE PAIVA",
      "lon": "-7.729370017599655",
      "lat": "40.85103912139392"
    },
    {
      "id": "pt.ine.add.PTCONT.5513892",
      "street": "PC D AFONSO HENRIQUES",
      "house": "10",
      "postcode": "3650-194",
      "city": "VILA NOVA DE PAIVA",
      "lon": "-7.729370017599655",
      "lat": "40.85103912139392"
    },
    {
      "id": "pt.ine.add.PTCONT.5513893",
      "street": "PC D AFONSO HENRIQUES",
      "house": "10",
      "postcode": "3650-194",
      "city": "VILA NOVA DE PAIVA",
      "lon": "-7.729370017599655",
      "lat": "40.85103912139392"
    },
    {
      "id": "pt.ine.add.PTCONT.5522614",
      "street": "PC MUNICIPIO",
      "house": "28",
      "postcode": "3650-193",
      "city": "VILA NOVA DE PAIVA",
      "lon": "-7.729202355627677",
      "lat": "40.85130867955947"
    },
    {
      "id": "pt.ine.add.PTCONT.5523705",
      "street": "PC MUNICIPIO",
      "house": "28",
      "postcode": "3650-193",
      "city": "VILA NOVA DE PAIVA",
      "lon": "-7.729202355627677",
      "lat": "40.85130867955947"
    },
    {
      "id": "pt.ine.add.PTCONT.5525115",
      "street": "PC MUNICIPIO",
      "house": "38",
      "postcode": "3650-193",
      "city": "VILA NOVA DE PAIVA",
      "lon": "-7.728468429307038",
      "lat": "40.851089991420935"
    },
    {
      "id": "pt.ine.add.PTCONT.5525116",
      "street": "PC MUNICIPIO",
      "house": "38",
      "postcode": "3650-193",
      "city": "VILA NOVA DE PAIVA",
      "lon": "-7.728468429307038",
      "lat": "40.851089991420935"
    },
    {
      "id": "pt.ine.add.PTCONT.5525117",
      "street": "PC MUNICIPIO",
      "house": "38",
      "postcode": "3650-193",
      "city": "VILA NOVA DE PAIVA",
      "lon": "-7.728468429307038",
      "lat": "40.851089991420935"
    },
    {
      "id": "pt.ine.add.PTCONT.5525131",
      "street": "PC MUNICIPIO",
      "house": "38",
      "postcode": "3650-193",
      "city": "VILA NOVA DE PAIVA",
      "lon": "-7.728468429307038",
      "lat": "40.851089991420935"
    },
    {
      "id": "pt.ine.add.PTCONT.5525132",
      "street": "PC MUNICIPIO",
      "house": "38",
      "postcode": "3650-193",
      "city": "VILA NOVA DE PAIVA",
      "lon": "-7.728468429307038",
      "lat": "40.851089991420935"
    },
    {
      "id": "pt.ine.add.PTCONT.5525133",
      "street": "PC MUNICIPIO",
      "house": "38",
      "postcode": "3650-193",
      "city": "VILA NOVA DE PAIVA",
      "lon": "-7.728468429307038",
      "lat": "40.851089991420935"
    },
    {
      "id": "pt.ine.add.PTCONT.5536851",
      "street": "R CAMPO",
      "house": "14",
      "postcode": "3650-217",
      "city": "VILA NOVA DE PAIVA",
      "lon": "-7.728430278276841",
      "lat": "40.8515130848798"
    },
    {
      "id": "pt.ine.add.PTCONT.5538224",
      "street": "LG ENG ENGRÁCIA CARRILHO",
      "house": "3",
      "postcode": "3650-244",
      "city": "VILA NOVA DE PAIVA",
      "lon": "-7.729502375511967",
      "lat": "40.850724415271124"
    },
    {
      "id": "pt.ine.add.PTCONT.5544111",
      "street": "PC D AFONSO HENRIQUES",
      "house": "12",
      "postcode": "3650-194",
      "city": "VILA NOVA DE PAIVA",
      "lon": "-7.729345808279032",
      "lat": "40.85112008018892"
    },
    {
      "id": "pt.ine.add.PTCONT.5544112",
      "street": "PC D AFONSO HENRIQUES",
      "house": "9",
      "postcode": "3650-194",
      "city": "VILA NOVA DE PAIVA",
      "lon": "-7.729345808279032",
      "lat": "40.85112008018892"
    },
    {
      "id": "pt.ine.add.PTCONT.5544113",
      "street": "PC D AFONSO HENRIQUES",
      "house": "9",
      "postcode": "3650-194",
      "city": "VILA NOVA DE PAIVA",
      "lon": "-7.729345808279032",
      "lat": "40.85112008018892"
    },
    {
      "id": "pt.ine.add.PTCONT.5560919",
      "street": "LG RAMALHAL",
      "house": "10",
      "postcode": "3650-195",
      "city": "VILA NOVA DE PAIVA",
      "lon": "-7.728524052891968",
      "lat": "40.851693510517315"
    },
    {
      "id": "pt.ine.add.PTCONT.5575753",
      "street": "LG RAMALHAL",
      "house": "",
      "postcode": "3650-195",
      "city": "VILA NOVA DE PAIVA",
      "lon": "-7.728773635010259",
      "lat": "40.85160433723824"
    },
    {
      "id": "pt.ine.add.PTCONT.5587836",
      "street": "LG ENG ENGRÁCIA CARRILHO",
      "house": "",
      "postcode": "3650-244",
      "city": "VILA NOVA DE PAIVA",
      "lon": "-7.729441880119373",
      "lat": "40.8509223100075"
    },
    {
      "id": "pt.ine.add.PTCONT.5590604",
      "street": "R CAMPO",
      "house": "3",
      "postcode": "3650-217",
      "city": "VILA NOVA DE PAIVA",
      "lon": "-7.728632151051913",
      "lat": "40.85146876870535"
    },
    {
      "id": "pt.ine.add.PTCONT.5594301",
      "street": "R CAMPO",
      "house": "4",
      "postcode": "3650-217",
      "city": "VILA NOVA DE PAIVA",
      "lon": "-7.72841929613015",
      "lat": "40.85136896898216"
    },
    {
      "id": "pt.ine.add.PTCONT.5597984",
      "street": "PC MUNICIPIO",
      "house": "2",
      "postcode": "3650-193",
      "city": "VILA NOVA DE PAIVA",
      "lon": "-7.728943433436962",
      "lat": "40.85098359858519"
    },
    {
      "id": "pt.ine.add.PTCONT.5597985",
      "street": "PC MUNICIPIO",
      "house": "2",
      "postcode": "3650-193",
      "city": "VILA NOVA DE PAIVA",
      "lon": "-7.728943433436962",
      "lat": "40.85098359858519"
    },
    {
      "id": "pt.ine.add.PTCONT.5597986",
      "street": "PC MUNICIPIO",
      "house": "2",
      "postcode": "3650-193",
      "city": "VILA NOVA DE PAIVA",
      "lon": "-7.728943433436962",
      "lat": "40.85098359858519"
    },
    {
      "id": "pt.ine.add.PTCONT.5597987",
      "street": "PC MUNICIPIO",
      "house": "2",
      "postcode": "3650-193",
      "city": "VILA NOVA DE PAIVA",
      "lon": "-7.728943433436962",
      "lat": "40.85098359858519"
    },
    {
      "id": "pt.ine.add.PTCONT.5634340",
      "street": "R CAMPO",
      "house": "4",
      "postcode": "3650-217",
      "city": "VILA NOVA DE PAIVA",
      "lon": "-7.728751450273418",
      "lat": "40.851352124077415"
    },
    {
      "id": "pt.ine.add.PTCONT.5640581",
      "street": "R CAMPO",
      "house": "21",
      "postcode": "3650-217",
      "city": "VILA NOVA DE PAIVA",
      "lon": "-7.72845333839442",
      "lat": "40.85162122379973"
    },
    {
      "id": "pt.ine.add.PTCONT.5649639",
      "street": "PC MUNICIPIO",
      "house": "",
      "postcode": "3650-193",
      "city": "VILA NOVA DE PAIVA",
      "lon": "-7.728716585792672",
      "lat": "40.85123493899515"
    },
    {
      "id": "pt.ine.add.PTCONT.5649640",
      "street": "PC MUNICIPIO",
      "house": "",
      "postcode": "3650-193",
      "city": "VILA NOVA DE PAIVA",
      "lon": "-7.728716585792672",
      "lat": "40.85123493899515"
    },
    {
      "id": "pt.ine.add.PTCONT.5649641",
      "street": "PC MUNICIPIO",
      "house": "",
      "postcode": "3650-193",
      "city": "VILA NOVA DE PAIVA",
      "lon": "-7.728716585792672",
      "lat": "40.85123493899515"
    },
    {
      "id": "pt.ine.add.PTCONT.5649642",
      "street": "PC MUNICIPIO",
      "house": "",
      "postcode": "3650-193",
      "city": "VILA NOVA DE PAIVA",
      "lon": "-7.728716585792672",
      "lat": "40.85123493899515"
    },
    {
      "id": "pt.ine.add.PTCONT.5659740",
      "street": "PC MUNICIPIO",
      "house": "",
      "postcode": "3650-193",
      "city": "VILA NOVA DE PAIVA",
      "lon": "-7.728956112828936",
      "lat": "40.850848570458886"
    },
    {
      "id": "pt.ine.add.PTCONT.5659741",
      "street": "PC MUNICIPIO",
      "house": "",
      "postcode": "3650-193",
      "city": "VILA NOVA DE PAIVA",
      "lon": "-7.728956112828936",
      "lat": "40.850848570458886"
    },
    {
      "id": "pt.ine.add.PTCONT.5659742",
      "street": "PC MUNICIPIO",
      "house": "",
      "postcode": "3650-193",
      "city": "VILA NOVA DE PAIVA",
      "lon": "-7.728956112828936",
      "lat": "40.850848570458886"
    },
    {
      "id": "pt.ine.add.PTCONT.5659743",
      "street": "PC MUNICIPIO",
      "house": "",
      "postcode": "3650-193",
      "city": "VILA NOVA DE PAIVA",
      "lon": "-7.728956112828936",
      "lat": "40.850848570458886"
    },
    {
      "id": "pt.ine.add.PTCONT.5668179",
      "street": "PC MUNICIPIO",
      "house": "",
      "postcode": "3650-193",
      "city": "VILA NOVA DE PAIVA",
      "lon": "-7.729049340927545",
      "lat": "40.85111904213969"
    },
    {
      "id": "pt.ine.add.PTCONT.5668232",
      "street": "PC MUNICIPIO",
      "house": "",
      "postcode": "3650-193",
      "city": "VILA NOVA DE PAIVA",
      "lon": "-7.729049340927545",
      "lat": "40.85111904213969"
    }
  ]
}