{
  "data": {
    "distrito": "Setúbal",
    "concelho": "Palmela",
    "freguesia": "União das freguesias de Poceirão e Marateca",
    "OBJECTID": 241,
    "BGRI2021": "15080600111",
    "DT21": "15",
    "DTMN21": "1508",
    "DTMNFR21": "150806",
    "DTMNFRSEC21": "150806001",
    "SECNUM21": "001",
    "SSNUM21": "11",
    "SECSSNUM21": "00111",
    "OBJECTID_1": 165899,
    "DT": "15",
    "CC": "08",
    "fr": "06",
    "SEC": "001",
    "SS": "11"
  },
  "addresses": [
    {
      "id": "pt.ine.add.PTCONT.4664790",
      "street": "R HERMENEGILDO CAPELO",
      "house": "34",
      "postcode": "2965-571",
      "city": "ÁGUAS DE MOURA",
      "lon": "-8.691877370262574",
      "lat": "38.584711843379615"
    },
    {
      "id": "pt.ine.add.PTCONT.4668507",
      "street": "R ALBERTO VALENTE",
      "house": "3",
      "postcode": "2965-557",
      "city": "ÁGUAS DE MOURA",
      "lon": "-8.690842415936832",
      "lat": "38.585932900057024"
    },
    {
      "id": "pt.ine.add.PTCONT.4668508",
      "street": "BC POMAR",
      "house": "5",
      "postcode": "2965-583",
      "city": "ÁGUAS DE MOURA",
      "lon": "-8.692000793031411",
      "lat": "38.58582828297694"
    },
    {
      "id": "pt.ine.add.PTCONT.4668513",
      "street": "R INDEPENDÊNCIA",
      "house": "16",
      "postcode": "2965-574",
      "city": "ÁGUAS DE MOURA",
      "lon": "-8.691173357380839",
      "lat": "38.58568809851341"
    },
    {
      "id": "pt.ine.add.PTCONT.4668514",
      "street": "R INDEPENDÊNCIA",
      "house": "10",
      "postcode": "2965-574",
      "city": "ÁGUAS DE MOURA",
      "lon": "-8.690943894132449",
      "lat": "38.585698200707554"
    },
    {
      "id": "pt.ine.add.PTCONT.4673399",
      "street": "R ALBERTO VALENTE",
      "house": "3-5",
      "postcode": "2965-582",
      "city": "POCEIRÃO",
      "lon": "-8.69080812522738",
      "lat": "38.58595108005355"
    },
    {
      "id": "pt.ine.add.PTCONT.4673400",
      "street": "R ALBERTO VALENTE",
      "house": "3-5",
      "postcode": "2965-582",
      "city": "POCEIRÃO",
      "lon": "-8.69080812522738",
      "lat": "38.58595108005355"
    },
    {
      "id": "pt.ine.add.PTCONT.4675806",
      "street": "R HEROIS DO ULTRAMAR",
      "house": "29",
      "postcode": "2965-572",
      "city": "ÁGUAS DE MOURA",
      "lon": "-8.690472237395332",
      "lat": "38.585556315015026"
    },
    {
      "id": "pt.ine.add.PTCONT.4679382",
      "street": "BC POMAR",
      "house": "7",
      "postcode": "2965-583",
      "city": "ÁGUAS DE MOURA",
      "lon": "-8.691908979691567",
      "lat": "38.58582872137297"
    },
    {
      "id": "pt.ine.add.PTCONT.4679404",
      "street": "AV LIBERDADE",
      "house": "70",
      "postcode": "2965-575",
      "city": "ÁGUAS DE MOURA",
      "lon": "-8.690586153151447",
      "lat": "38.58396130357256"
    },
    {
      "id": "pt.ine.add.PTCONT.4686004",
      "street": "R LUIS DE CAMÕES",
      "house": "23",
      "postcode": "2965-577",
      "city": "ÁGUAS DE MOURA",
      "lon": "-8.69111437076579",
      "lat": "38.58548118891656"
    },
    {
      "id": "pt.ine.add.PTCONT.4686005",
      "street": "R LUIS DE CAMÕES",
      "house": "23",
      "postcode": "2965-577",
      "city": "ÁGUAS DE MOURA",
      "lon": "-8.69111437076579",
      "lat": "38.58548118891656"
    },
    {
      "id": "pt.ine.add.PTCONT.4708269",
      "street": "R HERMENEGILDO CAPELO",
      "house": "24",
      "postcode": "2965-571",
      "city": "ÁGUAS DE MOURA",
      "lon": "-8.691464007344967",
      "lat": "38.584686791213485"
    },
    {
      "id": "pt.ine.add.PTCONT.4715552",
      "street": "R LUIS DE CAMÕES",
      "house": "16",
      "postcode": "2965-577",
      "city": "ÁGUAS DE MOURA",
      "lon": "-8.690931163074449",
      "lat": "38.585536112032045"
    },
    {
      "id": "pt.ine.add.PTCONT.4719320",
      "street": "R HERMENEGILDO CAPELO",
      "house": "25",
      "postcode": "2965-571",
      "city": "ÁGUAS DE MOURA",
      "lon": "-8.6911290281598",
      "lat": "38.58440913152513"
    },
    {
      "id": "pt.ine.add.PTCONT.4719321",
      "street": "R HERMENEGILDO CAPELO",
      "house": "25",
      "postcode": "2965-571",
      "city": "ÁGUAS DE MOURA",
      "lon": "-8.6911290281598",
      "lat": "38.58440913152513"
    },
    {
      "id": "pt.ine.add.PTCONT.4719322",
      "street": "R HERMENEGILDO CAPELO",
      "house": "25",
      "postcode": "2965-571",
      "city": "ÁGUAS DE MOURA",
      "lon": "-8.6911290281598",
      "lat": "38.58440913152513"
    },
    {
      "id": "pt.ine.add.PTCONT.4721015",
      "street": "R HERMENEGILDO CAPELO",
      "house": "25",
      "postcode": "2965-571",
      "city": "ÁGUAS DE MOURA",
      "lon": "-8.6911290281598",
      "lat": "38.58440913152513"
    },
    {
      "id": "pt.ine.add.PTCONT.4735316",
      "street": "AV LIBERDADE",
      "house": "86",
      "postcode": "2965-575",
      "city": "ÁGUAS DE MOURA",
      "lon": "-8.691057590531406",
      "lat": "38.58407616501901"
    },
    {
      "id": "pt.ine.add.PTCONT.4739384",
      "street": "R LUIS DE CAMÕES",
      "house": "14",
      "postcode": "2965-577",
      "city": "ÁGUAS DE MOURA",
      "lon": "-8.690906746423982",
      "lat": "38.585347054149835"
    },
    {
      "id": "pt.ine.add.PTCONT.4739385",
      "street": "R LUIS DE CAMÕES",
      "house": "14",
      "postcode": "2965-577",
      "city": "ÁGUAS DE MOURA",
      "lon": "-8.690906746423982",
      "lat": "38.585347054149835"
    },
    {
      "id": "pt.ine.add.PTCONT.4739386",
      "street": "R LUIS DE CAMÕES",
      "house": "14",
      "postcode": "2965-577",
      "city": "ÁGUAS DE MOURA",
      "lon": "-8.690906746423982",
      "lat": "38.585347054149835"
    },
    {
      "id": "pt.ine.add.PTCONT.4751466",
      "street": "R 5 DE OUTUBRO",
      "house": "4",
      "postcode": "2965-554",
      "city": "ÁGUAS DE MOURA",
      "lon": "-8.690665877277217",
      "lat": "38.58536621845318"
    },
    {
      "id": "pt.ine.add.PTCONT.4759884",
      "street": "R INDEPENDÊNCIA",
      "house": "13",
      "postcode": "2965-574",
      "city": "ÁGUAS DE MOURA",
      "lon": "-8.6913555191337",
      "lat": "38.585498055547966"
    },
    {
      "id": "pt.ine.add.PTCONT.4760989",
      "street": "BC POMAR",
      "house": "13",
      "postcode": "2965-583",
      "city": "ÁGUAS DE MOURA",
      "lon": "-8.691679655683378",
      "lat": "38.58585684093931"
    },
    {
      "id": "pt.ine.add.PTCONT.4763494",
      "street": "AV LIBERDADE",
      "house": "88 1",
      "postcode": "2965-575",
      "city": "ÁGUAS DE MOURA",
      "lon": "-8.691149750217242",
      "lat": "38.584120767144"
    },
    {
      "id": "pt.ine.add.PTCONT.4763495",
      "street": "R FUNDACAO GULBENKIAN",
      "house": "4",
      "postcode": "2965-568",
      "city": "ÁGUAS DE MOURA",
      "lon": "-8.691876392991807",
      "lat": "38.584585731865"
    },
    {
      "id": "pt.ine.add.PTCONT.4777841",
      "street": "R HERMENEGILDO CAPELO",
      "house": "16",
      "postcode": "2965-571",
      "city": "ÁGUAS DE MOURA",
      "lon": "-8.691337556775833",
      "lat": "38.5846603694972"
    },
    {
      "id": "pt.ine.add.PTCONT.4777990",
      "street": "AV LIBERDADE",
      "house": "74",
      "postcode": "2965-575",
      "city": "ÁGUAS DE MOURA",
      "lon": "-8.690678033787867",
      "lat": "38.58396987420016"
    },
    {
      "id": "pt.ine.add.PTCONT.4788035",
      "street": "R 5 DE OUTUBRO",
      "house": "08",
      "postcode": "2965-554",
      "city": "ÁGUAS DE MOURA",
      "lon": "-8.690814864005649",
      "lat": "38.58533848371718"
    },
    {
      "id": "pt.ine.add.PTCONT.4788043",
      "street": "AV LIBERDADE",
      "house": "78",
      "postcode": "2965-575",
      "city": "ÁGUAS DE MOURA",
      "lon": "-8.690850667123296",
      "lat": "38.58403210976749"
    },
    {
      "id": "pt.ine.add.PTCONT.4801525",
      "street": "R ALBERTO VALENTE",
      "house": "5",
      "postcode": "2965-557",
      "city": "ÁGUAS DE MOURA",
      "lon": "-8.69096872917877",
      "lat": "38.585941306357725"
    },
    {
      "id": "pt.ine.add.PTCONT.4801526",
      "street": "R HERMENEGILDO CAPELO",
      "house": "14",
      "postcode": "2965-571",
      "city": "ÁGUAS DE MOURA",
      "lon": "-8.69119956009859",
      "lat": "38.584624994401665"
    },
    {
      "id": "pt.ine.add.PTCONT.4815029",
      "street": "AV LIBERDADE",
      "house": "104",
      "postcode": "2965-575",
      "city": "ÁGUAS DE MOURA",
      "lon": "-8.691506704396513",
      "lat": "38.584272205761145"
    },
    {
      "id": "pt.ine.add.PTCONT.4820251",
      "street": "BR VINHA",
      "house": "01",
      "postcode": "2965-533",
      "city": "ÁGUAS DE MOURA",
      "lon": "-8.691812629380529",
      "lat": "38.58524364203334"
    },
    {
      "id": "pt.ine.add.PTCONT.4844825",
      "street": "R INDEPENDÊNCIA",
      "house": "08",
      "postcode": "2965-574",
      "city": "ÁGUAS DE MOURA",
      "lon": "-8.690725977128979",
      "lat": "38.585717255739496"
    },
    {
      "id": "pt.ine.add.PTCONT.4844826",
      "street": "R INDEPENDÊNCIA",
      "house": "08",
      "postcode": "2965-574",
      "city": "ÁGUAS DE MOURA",
      "lon": "-8.690725977128979",
      "lat": "38.585717255739496"
    },
    {
      "id": "pt.ine.add.PTCONT.4847731",
      "street": "AV LIBERDADE",
      "house": "96",
      "postcode": "2965-575",
      "city": "ÁGUAS DE MOURA",
      "lon": "-8.691264862824823",
      "lat": "38.584165259737695"
    },
    {
      "id": "pt.ine.add.PTCONT.4856169",
      "street": "AV LIBERDADE",
      "house": "102",
      "postcode": "2965-575",
      "city": "ÁGUAS DE MOURA",
      "lon": "-8.691414614044875",
      "lat": "38.584236611888215"
    },
    {
      "id": "pt.ine.add.PTCONT.4856170",
      "street": "AV LIBERDADE",
      "house": "102",
      "postcode": "2965-575",
      "city": "ÁGUAS DE MOURA",
      "lon": "-8.691414614044875",
      "lat": "38.584236611888215"
    },
    {
      "id": "pt.ine.add.PTCONT.4858460",
      "street": "R HERMENEGILDO CAPELO",
      "house": "11",
      "postcode": "2965-571",
      "city": "ÁGUAS DE MOURA",
      "lon": "-8.690715040273888",
      "lat": "38.584303004991376"
    },
    {
      "id": "pt.ine.add.PTCONT.4860974",
      "street": "R INDEPENDÊNCIA",
      "house": "3",
      "postcode": "2965-574",
      "city": "ÁGUAS DE MOURA",
      "lon": "-8.690782175985124",
      "lat": "38.58556384691791"
    },
    {
      "id": "pt.ine.add.PTCONT.4860975",
      "street": "R INDEPENDÊNCIA",
      "house": "3",
      "postcode": "2965-574",
      "city": "ÁGUAS DE MOURA",
      "lon": "-8.690782175985124",
      "lat": "38.58556384691791"
    },
    {
      "id": "pt.ine.add.PTCONT.4868419",
      "street": "R INDEPENDÊNCIA",
      "house": "11",
      "postcode": "2965-574",
      "city": "ÁGUAS DE MOURA",
      "lon": "-8.691240892427032",
      "lat": "38.58551661882506"
    },
    {
      "id": "pt.ine.add.PTCONT.4871914",
      "street": "R HERMENEGILDO CAPELO",
      "house": "19",
      "postcode": "2965-571",
      "city": "ÁGUAS DE MOURA",
      "lon": "-8.69099110175792",
      "lat": "38.584382764144934"
    },
    {
      "id": "pt.ine.add.PTCONT.4871915",
      "street": "R HERMENEGILDO CAPELO",
      "house": "19",
      "postcode": "2965-571",
      "city": "ÁGUAS DE MOURA",
      "lon": "-8.69099110175792",
      "lat": "38.584382764144934"
    },
    {
      "id": "pt.ine.add.PTCONT.4871916",
      "street": "R HERMENEGILDO CAPELO",
      "house": "19",
      "postcode": "2965-571",
      "city": "ÁGUAS DE MOURA",
      "lon": "-8.69099110175792",
      "lat": "38.584382764144934"
    },
    {
      "id": "pt.ine.add.PTCONT.4901746",
      "street": "BC POMAR",
      "house": "11",
      "postcode": "2965-583",
      "city": "ÁGUAS DE MOURA",
      "lon": "-8.69175992259687",
      "lat": "38.58584744954024"
    },
    {
      "id": "pt.ine.add.PTCONT.4901760",
      "street": "R INDEPENDÊNCIA",
      "house": "22",
      "postcode": "2965-574",
      "city": "ÁGUAS DE MOURA",
      "lon": "-8.691391134674065",
      "lat": "38.585651026720925"
    },
    {
      "id": "pt.ine.add.PTCONT.4916053",
      "street": "R HERMENEGILDO CAPELO",
      "house": "30",
      "postcode": "2965-571",
      "city": "ÁGUAS DE MOURA",
      "lon": "-8.691636433742902",
      "lat": "38.58472200169916"
    },
    {
      "id": "pt.ine.add.PTCONT.4923201",
      "street": "R HERMENEGILDO CAPELO",
      "house": "32",
      "postcode": "2965-571",
      "city": "ÁGUAS DE MOURA",
      "lon": "-8.691819918014575",
      "lat": "38.58470310935309"
    },
    {
      "id": "pt.ine.add.PTCONT.4926566",
      "street": "AV LIBERDADE",
      "house": "66",
      "postcode": "2965-575",
      "city": "ÁGUAS DE MOURA",
      "lon": "-8.690321639692655",
      "lat": "38.58389049677504"
    },
    {
      "id": "pt.ine.add.PTCONT.4926567",
      "street": "AV LIBERDADE",
      "house": "66",
      "postcode": "2965-575",
      "city": "ÁGUAS DE MOURA",
      "lon": "-8.690321639692655",
      "lat": "38.58389049677504"
    },
    {
      "id": "pt.ine.add.PTCONT.4928626",
      "street": "AV LIBERDADE",
      "house": "112",
      "postcode": "2965-575",
      "city": "ÁGUAS DE MOURA",
      "lon": "-8.691783185371007",
      "lat": "38.58440601083744"
    },
    {
      "id": "pt.ine.add.PTCONT.4932929",
      "street": "BC POMAR",
      "house": "9",
      "postcode": "2965-583",
      "city": "ÁGUAS DE MOURA",
      "lon": "-8.691840259292253",
      "lat": "38.58584706604982"
    },
    {
      "id": "pt.ine.add.PTCONT.4940940",
      "street": "R LUIS DE CAMÕES",
      "house": "09",
      "postcode": "2965-577",
      "city": "ÁGUAS DE MOURA",
      "lon": "-8.691109421301254",
      "lat": "38.584841623350854"
    },
    {
      "id": "pt.ine.add.PTCONT.4984403",
      "street": "R HERMENEGILDO CAPELO",
      "house": "33",
      "postcode": "2965-571",
      "city": "ÁGUAS DE MOURA",
      "lon": "-8.691658060949177",
      "lat": "38.584550740814976"
    },
    {
      "id": "pt.ine.add.PTCONT.4984404",
      "street": "R HERMENEGILDO CAPELO",
      "house": "33",
      "postcode": "2965-571",
      "city": "ÁGUAS DE MOURA",
      "lon": "-8.691658060949177",
      "lat": "38.584550740814976"
    },
    {
      "id": "pt.ine.add.PTCONT.4985635",
      "street": "R HERMENEGILDO CAPELO",
      "house": "33",
      "postcode": "2965-571",
      "city": "ÁGUAS DE MOURA",
      "lon": "-8.691658060949177",
      "lat": "38.584550740814976"
    },
    {
      "id": "pt.ine.add.PTCONT.4988051",
      "street": "AV LIBERDADE",
      "house": "84",
      "postcode": "2965-575",
      "city": "ÁGUAS DE MOURA",
      "lon": "-8.69096564002815",
      "lat": "38.58405858672325"
    },
    {
      "id": "pt.ine.add.PTCONT.4988052",
      "street": "AV LIBERDADE",
      "house": "84",
      "postcode": "2965-575",
      "city": "ÁGUAS DE MOURA",
      "lon": "-8.69096564002815",
      "lat": "38.58405858672325"
    },
    {
      "id": "pt.ine.add.PTCONT.4989096",
      "street": "AV LIBERDADE",
      "house": "84",
      "postcode": "2965-575",
      "city": "ÁGUAS DE MOURA",
      "lon": "-8.69096564002815",
      "lat": "38.58405858672325"
    },
    {
      "id": "pt.ine.add.PTCONT.4997085",
      "street": "R LUIS DE CAMÕES",
      "house": "6",
      "postcode": "2965-577",
      "city": "ÁGUAS DE MOURA",
      "lon": "-8.69089178566156",
      "lat": "38.5848967105399"
    },
    {
      "id": "pt.ine.add.PTCONT.4997086",
      "street": "R LUIS DE CAMÕES",
      "house": "6",
      "postcode": "2965-577",
      "city": "ÁGUAS DE MOURA",
      "lon": "-8.69078898465773",
      "lat": "38.5849602585077"
    },
    {
      "id": "pt.ine.add.PTCONT.4999157",
      "street": "BR VINHA",
      "house": "11",
      "postcode": "2965-533",
      "city": "ÁGUAS DE MOURA",
      "lon": "-8.691950906801058",
      "lat": "38.58531504824797"
    },
    {
      "id": "pt.ine.add.PTCONT.5021278",
      "street": "BR VINHA",
      "house": "3",
      "postcode": "2965-533",
      "city": "ÁGUAS DE MOURA",
      "lon": "-8.691755455880958",
      "lat": "38.585270939837315"
    },
    {
      "id": "pt.ine.add.PTCONT.5028647",
      "street": "R LUIS DE CAMÕES",
      "house": "12",
      "postcode": "2965-577",
      "city": "ÁGUAS DE MOURA",
      "lon": "-8.690882399589643",
      "lat": "38.58516700422155"
    },
    {
      "id": "pt.ine.add.PTCONT.5046427",
      "street": "R HERMENEGILDO CAPELO",
      "house": "7",
      "postcode": "2965-571",
      "city": "ÁGUAS DE MOURA",
      "lon": "-8.690542824226217",
      "lat": "38.584294817038675"
    },
    {
      "id": "pt.ine.add.PTCONT.5046636",
      "street": "AV LIBERDADE",
      "house": "110 A 1",
      "postcode": "2965-575",
      "city": "ÁGUAS DE MOURA",
      "lon": "-8.691668141841925",
      "lat": "38.584370526726744"
    },
    {
      "id": "pt.ine.add.PTCONT.5046637",
      "street": "AV LIBERDADE",
      "house": "110 A 1",
      "postcode": "2965-575",
      "city": "ÁGUAS DE MOURA",
      "lon": "-8.691668141841925",
      "lat": "38.584370526726744"
    },
    {
      "id": "pt.ine.add.PTCONT.5050373",
      "street": "R 5 DE OUTUBRO",
      "house": "2",
      "postcode": "2965-554",
      "city": "ÁGUAS DE MOURA",
      "lon": "-8.690448030824655",
      "lat": "38.585394280927915"
    },
    {
      "id": "pt.ine.add.PTCONT.5055513",
      "street": "BR VINHA",
      "house": "07",
      "postcode": "2965-533",
      "city": "ÁGUAS DE MOURA",
      "lon": "-8.691686666188483",
      "lat": "38.585280276457425"
    },
    {
      "id": "pt.ine.add.PTCONT.5057994",
      "street": "R HEROIS DO ULTRAMAR",
      "house": "33",
      "postcode": "2965-572",
      "city": "ÁGUAS DE MOURA",
      "lon": "-8.690555777343238",
      "lat": "38.585970298830375"
    },
    {
      "id": "pt.ine.add.PTCONT.5059067",
      "street": "R HEROIS DO ULTRAMAR",
      "house": "33",
      "postcode": "2965-572",
      "city": "ÁGUAS DE MOURA",
      "lon": "-8.690555777343238",
      "lat": "38.585970298830375"
    },
    {
      "id": "pt.ine.add.PTCONT.5061358",
      "street": "BR VINHA",
      "house": "02",
      "postcode": "2965-533",
      "city": "ÁGUAS DE MOURA",
      "lon": "-8.691847687330984",
      "lat": "38.58532454935327"
    },
    {
      "id": "pt.ine.add.PTCONT.5061394",
      "street": "AV LIBERDADE",
      "house": "100",
      "postcode": "2965-575",
      "city": "ÁGUAS DE MOURA",
      "lon": "-8.691356953012415",
      "lat": "38.58420085373016"
    },
    {
      "id": "pt.ine.add.PTCONT.5073018",
      "street": "R INDEPENDÊNCIA",
      "house": "02",
      "postcode": "2965-574",
      "city": "ÁGUAS DE MOURA",
      "lon": "-8.690484967426368",
      "lat": "38.585718403747634"
    },
    {
      "id": "pt.ine.add.PTCONT.5073019",
      "street": "R INDEPENDÊNCIA",
      "house": "02",
      "postcode": "2965-574",
      "city": "ÁGUAS DE MOURA",
      "lon": "-8.690484967426368",
      "lat": "38.585718403747634"
    },
    {
      "id": "pt.ine.add.PTCONT.5079441",
      "street": "R LUIS DE CAMÕES",
      "house": "13",
      "postcode": "2965-577",
      "city": "ÁGUAS DE MOURA",
      "lon": "-8.691098850998781",
      "lat": "38.58495878162552"
    },
    {
      "id": "pt.ine.add.PTCONT.5087348",
      "street": "R LUIS DE CAMÕES",
      "house": "17",
      "postcode": "2965-577",
      "city": "ÁGUAS DE MOURA",
      "lon": "-8.691113115957105",
      "lat": "38.58531904554039"
    },
    {
      "id": "pt.ine.add.PTCONT.5087349",
      "street": "TRASEIRAS DA RUA HERMENEGILDO CAPELO",
      "house": "6 F",
      "postcode": "2965-555",
      "city": "ÁGUAS DE MOURA",
      "lon": "-8.69070927587627",
      "lat": "38.585041712968405"
    },
    {
      "id": "pt.ine.add.PTCONT.5093689",
      "street": "R FUNDACAO GULBENKIAN",
      "house": "2",
      "postcode": "2965-568",
      "city": "ÁGUAS DE MOURA",
      "lon": "-8.69186393927737",
      "lat": "38.58445967513714"
    },
    {
      "id": "pt.ine.add.PTCONT.5104065",
      "street": "R HERMENEGILDO CAPELO",
      "house": "6",
      "postcode": "2965-571",
      "city": "ÁGUAS DE MOURA",
      "lon": "-8.690659051181902",
      "lat": "38.58448343770983"
    },
    {
      "id": "pt.ine.add.PTCONT.5104066",
      "street": "R HERMENEGILDO CAPELO",
      "house": "6",
      "postcode": "2965-571",
      "city": "ÁGUAS DE MOURA",
      "lon": "-8.690659051181902",
      "lat": "38.58448343770983"
    },
    {
      "id": "pt.ine.add.PTCONT.5104067",
      "street": "R HERMENEGILDO CAPELO",
      "house": "6",
      "postcode": "2965-571",
      "city": "ÁGUAS DE MOURA",
      "lon": "-8.690659051181902",
      "lat": "38.58448343770983"
    },
    {
      "id": "pt.ine.add.PTCONT.5104068",
      "street": "R HERMENEGILDO CAPELO",
      "house": "6",
      "postcode": "2965-571",
      "city": "ÁGUAS DE MOURA",
      "lon": "-8.690659051181902",
      "lat": "38.58448343770983"
    },
    {
      "id": "pt.ine.add.PTCONT.5104069",
      "street": "R HERMENEGILDO CAPELO",
      "house": "6",
      "postcode": "2965-571",
      "city": "ÁGUAS DE MOURA",
      "lon": "-8.690659051181902",
      "lat": "38.58448343770983"
    },
    {
      "id": "pt.ine.add.PTCONT.5104070",
      "street": "R HERMENEGILDO CAPELO",
      "house": "6",
      "postcode": "2965-571",
      "city": "ÁGUAS DE MOURA",
      "lon": "-8.690659051181902",
      "lat": "38.58448343770983"
    },
    {
      "id": "pt.ine.add.PTCONT.5114705",
      "street": "R LUIS DE CAMÕES",
      "house": "15",
      "postcode": "2965-577",
      "city": "ÁGUAS DE MOURA",
      "lon": "-8.69110010575923",
      "lat": "38.58512092501208"
    },
    {
      "id": "pt.ine.add.PTCONT.5128367",
      "street": "BC POMAR",
      "house": "1",
      "postcode": "2965-583",
      "city": "ÁGUAS DE MOURA",
      "lon": "-8.692080710701621",
      "lat": "38.585773851541916"
    },
    {
      "id": "pt.ine.add.PTCONT.5132053",
      "street": "R INDEPENDÊNCIA",
      "house": "14",
      "postcode": "2965-574",
      "city": "ÁGUAS DE MOURA",
      "lon": "-8.691058660618086",
      "lat": "38.58569765364913"
    }
  ]
}