{
  "data": {
    "distrito": "Porto",
    "concelho": "Vila Nova de Gaia",
    "freguesia": "Uni√£o das freguesias de Sandim, Olival, Lever e Crestuma",
    "OBJECTID": 2350,
    "BGRI2021": "13172901207",
    "DT21": "13",
    "DTMN21": "1317",
    "DTMNFR21": "131729",
    "DTMNFRSEC21": "131729012",
    "SECNUM21": "012",
    "SSNUM21": "07",
    "SECSSNUM21": "01207",
    "OBJECTID_1": 145735,
    "DT": "13",
    "CC": "17",
    "fr": "29",
    "SEC": "012",
    "SS": "07"
  },
  "addresses": [
    {
      "id": "pt.ine.add.PTCONT.3634625",
      "street": "R OUTEIRO",
      "house": "515",
      "postcode": "4415-851",
      "city": "SANDIM",
      "lon": "-8.516821555674396",
      "lat": "41.03854916626836"
    },
    {
      "id": "pt.ine.add.PTCONT.3635329",
      "street": "R DRAGOES SANDINENSES",
      "house": "276",
      "postcode": "4415-896",
      "city": "SANDIM",
      "lon": "-8.517744129365793",
      "lat": "41.03972568656108"
    },
    {
      "id": "pt.ine.add.PTCONT.3667696",
      "street": "R OUTEIRO",
      "house": "627",
      "postcode": "4415-851",
      "city": "SANDIM",
      "lon": "-8.515736905676434",
      "lat": "41.038129558585766"
    },
    {
      "id": "pt.ine.add.PTCONT.3674228",
      "street": "R DRAGOES SANDINENSES",
      "house": "418",
      "postcode": "4415-896",
      "city": "SANDIM",
      "lon": "-8.516457544030764",
      "lat": "41.0393517822554"
    },
    {
      "id": "pt.ine.add.PTCONT.3699359",
      "street": "R OUTEIRO",
      "house": "661",
      "postcode": "4415-851",
      "city": "SANDIM",
      "lon": "-8.515319948605109",
      "lat": "41.03800487841957"
    },
    {
      "id": "pt.ine.add.PTCONT.3718669",
      "street": "R DRAGOES SANDINENSES",
      "house": "234",
      "postcode": "4415-896",
      "city": "SANDIM",
      "lon": "-8.518341064832143",
      "lat": "41.04011989279968"
    },
    {
      "id": "pt.ine.add.PTCONT.3718670",
      "street": "R OUTEIRO",
      "house": "525",
      "postcode": "4415-851",
      "city": "SANDIM",
      "lon": "-8.516678534459787",
      "lat": "41.03849561506147"
    },
    {
      "id": "pt.ine.add.PTCONT.3718682",
      "street": "R OUTEIRO DE VEGIDE",
      "house": "145",
      "postcode": "4415-852",
      "city": "SANDIM",
      "lon": "-8.51921780046229",
      "lat": "41.039549672616715"
    },
    {
      "id": "pt.ine.add.PTCONT.3718683",
      "street": "R OUTEIRO DE VEGIDE",
      "house": "145",
      "postcode": "4415-852",
      "city": "SANDIM",
      "lon": "-8.51921780046229",
      "lat": "41.039549672616715"
    },
    {
      "id": "pt.ine.add.PTCONT.3719574",
      "street": "R OUTEIRO",
      "house": "525",
      "postcode": "4415-851",
      "city": "SANDIM",
      "lon": "-8.516678534459787",
      "lat": "41.03849561506147"
    },
    {
      "id": "pt.ine.add.PTCONT.3726447",
      "street": "R OUTEIRO",
      "house": "389",
      "postcode": "4415-851",
      "city": "SANDIM",
      "lon": "-8.51805002952131",
      "lat": "41.039157378885434"
    },
    {
      "id": "pt.ine.add.PTCONT.3784154",
      "street": "R DRAGOES SANDINENSES",
      "house": "450",
      "postcode": "4415-896",
      "city": "SANDIM",
      "lon": "-8.516016688679107",
      "lat": "41.039209175041286"
    },
    {
      "id": "pt.ine.add.PTCONT.3874575",
      "street": "R ALDEIA NOVA CIMA",
      "house": "2",
      "postcode": "4415-779",
      "city": "SANDIM",
      "lon": "-8.51507052466625",
      "lat": "41.0380597326023"
    },
    {
      "id": "pt.ine.add.PTCONT.3903000",
      "street": "R OUTEIRO DE VEGIDE",
      "house": "131",
      "postcode": "4415-852",
      "city": "SANDIM",
      "lon": "-8.51919464692017",
      "lat": "41.039657804723966"
    },
    {
      "id": "pt.ine.add.PTCONT.3926976",
      "street": "R DRAGOES SANDINENSES",
      "house": "372",
      "postcode": "4415-896",
      "city": "SANDIM",
      "lon": "-8.516862880768405",
      "lat": "41.039521519686495"
    },
    {
      "id": "pt.ine.add.PTCONT.3951480",
      "street": "R DRAGOES SANDINENSES",
      "house": "136",
      "postcode": "4415-896",
      "city": "SANDIM",
      "lon": "-8.519236060377228",
      "lat": "41.04063916131322"
    },
    {
      "id": "pt.ine.add.PTCONT.3951484",
      "street": "R OUTEIRO",
      "house": "507",
      "postcode": "4415-851",
      "city": "SANDIM",
      "lon": "-8.516881435566534",
      "lat": "41.03862100326949"
    },
    {
      "id": "pt.ine.add.PTCONT.4028567",
      "street": "R DRAGOES SANDINENSES",
      "house": "170",
      "postcode": "4415-896",
      "city": "SANDIM",
      "lon": "-8.518949058697137",
      "lat": "41.04036998618846"
    },
    {
      "id": "pt.ine.add.PTCONT.4133416",
      "street": "R OUTEIRO",
      "house": "353",
      "postcode": "4415-851",
      "city": "SANDIM",
      "lon": "-8.518240780392198",
      "lat": "41.03923778253282"
    },
    {
      "id": "pt.ine.add.PTCONT.4133417",
      "street": "R OUTEIRO",
      "house": "353",
      "postcode": "4415-851",
      "city": "SANDIM",
      "lon": "-8.518240780392198",
      "lat": "41.03923778253282"
    },
    {
      "id": "pt.ine.add.PTCONT.4137674",
      "street": "R DRAGOES SANDINENSES",
      "house": "322",
      "postcode": "4415-896",
      "city": "SANDIM",
      "lon": "-8.517387511209844",
      "lat": "41.03975388980682"
    },
    {
      "id": "pt.ine.add.PTCONT.4179410",
      "street": "R OUTEIRO",
      "house": "289",
      "postcode": "4415-851",
      "city": "SANDIM",
      "lon": "-8.519241006553331",
      "lat": "41.039450544872246"
    },
    {
      "id": "pt.ine.add.PTCONT.4201411",
      "street": "R DRAGOES SANDINENSES",
      "house": "396",
      "postcode": "4415-896",
      "city": "SANDIM",
      "lon": "-8.516672078461688",
      "lat": "41.03943210938691"
    },
    {
      "id": "pt.ine.add.PTCONT.4218836",
      "street": "R DRAGOES SANDINENSES",
      "house": "248",
      "postcode": "4415-896",
      "city": "SANDIM",
      "lon": "-8.518078641101448",
      "lat": "41.03998570149392"
    },
    {
      "id": "pt.ine.add.PTCONT.4218837",
      "street": "R DRAGOES SANDINENSES",
      "house": "248",
      "postcode": "4415-896",
      "city": "SANDIM",
      "lon": "-8.518078641101448",
      "lat": "41.03998570149392"
    },
    {
      "id": "pt.ine.add.PTCONT.4225130",
      "street": "R OUTEIRO",
      "house": "571",
      "postcode": "4415-851",
      "city": "SANDIM",
      "lon": "-8.51626172996865",
      "lat": "41.03839795144958"
    },
    {
      "id": "pt.ine.add.PTCONT.4225915",
      "street": "R DRAGOES SANDINENSES",
      "house": "640",
      "postcode": "4415-896",
      "city": "SANDIM",
      "lon": "-8.515083041529673",
      "lat": "41.0381677456962"
    },
    {
      "id": "pt.ine.add.PTCONT.4264294",
      "street": "R OUTEIRO",
      "house": "543",
      "postcode": "4415-851",
      "city": "SANDIM",
      "lon": "-8.51652351669432",
      "lat": "41.038424094491695"
    },
    {
      "id": "pt.ine.add.PTCONT.4264295",
      "street": "R OUTEIRO",
      "house": "543",
      "postcode": "4415-851",
      "city": "SANDIM",
      "lon": "-8.51652351669432",
      "lat": "41.038424094491695"
    },
    {
      "id": "pt.ine.add.PTCONT.4265254",
      "street": "R OUTEIRO",
      "house": "543",
      "postcode": "4415-851",
      "city": "SANDIM",
      "lon": "-8.51652351669432",
      "lat": "41.038424094491695"
    },
    {
      "id": "pt.ine.add.PTCONT.4265255",
      "street": "R OUTEIRO",
      "house": "559",
      "postcode": "4415-851",
      "city": "SANDIM",
      "lon": "-8.51652351669432",
      "lat": "41.038424094491695"
    },
    {
      "id": "pt.ine.add.PTCONT.4266256",
      "street": "R OUTEIRO",
      "house": "559",
      "postcode": "4415-851",
      "city": "SANDIM",
      "lon": "-8.51652351669432",
      "lat": "41.038424094491695"
    },
    {
      "id": "pt.ine.add.PTCONT.4324949",
      "street": "R OUTEIRO",
      "house": "491",
      "postcode": "4415-851",
      "city": "SANDIM",
      "lon": "-8.517023986337849",
      "lat": "41.03859351486706"
    },
    {
      "id": "pt.ine.add.PTCONT.4324950",
      "street": "R OUTEIRO",
      "house": "491",
      "postcode": "4415-851",
      "city": "SANDIM",
      "lon": "-8.517023986337849",
      "lat": "41.03859351486706"
    },
    {
      "id": "pt.ine.add.PTCONT.4325704",
      "street": "R OUTEIRO",
      "house": "491",
      "postcode": "4415-851",
      "city": "SANDIM",
      "lon": "-8.517023986337849",
      "lat": "41.03859351486706"
    },
    {
      "id": "pt.ine.add.PTCONT.4357749",
      "street": "R DRAGOES SANDINENSES",
      "house": "328",
      "postcode": "4415-896",
      "city": "SANDIM",
      "lon": "-8.51717287018762",
      "lat": "41.0396555552781"
    },
    {
      "id": "pt.ine.add.PTCONT.4369826",
      "street": "R DRAGOES SANDINENSES",
      "house": "272",
      "postcode": "4415-896",
      "city": "SANDIM",
      "lon": "-8.517935615761356",
      "lat": "41.03993215187862"
    },
    {
      "id": "pt.ine.add.PTCONT.4369827",
      "street": "R DRAGOES SANDINENSES",
      "house": "424",
      "postcode": "4415-896",
      "city": "SANDIM",
      "lon": "-8.516206810737069",
      "lat": "41.03918152959198"
    },
    {
      "id": "pt.ine.add.PTCONT.4386302",
      "street": "R DRAGOES SANDINENSES",
      "house": "396",
      "postcode": "4415-896",
      "city": "SANDIM",
      "lon": "-8.516672078461688",
      "lat": "41.03943210938691"
    }
  ]
}