{
  "data": {
    "distrito": "Lisboa",
    "concelho": "Vila Franca de Xira",
    "freguesia": "União das freguesias de Alhandra, São João dos Montes e Calhandriz",
    "OBJECTID": 436,
    "BGRI2021": "11141200403",
    "DT21": "11",
    "DTMN21": "1114",
    "DTMNFR21": "111412",
    "DTMNFRSEC21": "111412004",
    "SECNUM21": "004",
    "SSNUM21": "03",
    "SECSSNUM21": "00403",
    "OBJECTID_1": 118334,
    "DT": "11",
    "CC": "14",
    "fr": "12",
    "SEC": "004",
    "SS": "03"
  },
  "addresses": [
    {
      "id": "pt.ine.add.PTCONT.2272197",
      "street": "LG RESTAURACAO",
      "house": "5",
      "postcode": "2615-623",
      "city": "CALHANDRIZ",
      "lon": "-9.066316592505014",
      "lat": "38.924570320091746"
    },
    {
      "id": "pt.ine.add.PTCONT.2300922",
      "street": "LG RESTAURACAO",
      "house": "2",
      "postcode": "2615-623",
      "city": "CALHANDRIZ",
      "lon": "-9.06635377883924",
      "lat": "38.92476819032731"
    },
    {
      "id": "pt.ine.add.PTCONT.2455915",
      "street": "R MATO CRUZ",
      "house": "7",
      "postcode": "2615-623",
      "city": "CALHANDRIZ",
      "lon": "-9.070632361628912",
      "lat": "38.92217574279001"
    },
    {
      "id": "pt.ine.add.PTCONT.2555245",
      "street": "R FRANCISCO GOMES AVELAR",
      "house": "7",
      "postcode": "2615-623",
      "city": "CALHANDRIZ",
      "lon": "-9.067044875532934",
      "lat": "38.92470861738115"
    },
    {
      "id": "pt.ine.add.PTCONT.2565799",
      "street": "LG RESTAURACAO",
      "house": "5",
      "postcode": "2615-623",
      "city": "CALHANDRIZ",
      "lon": "-9.066349766599389",
      "lat": "38.92446196349427"
    },
    {
      "id": "pt.ine.add.PTCONT.2731677",
      "street": "R FRANCISCO GOMES AVELAR",
      "house": "1",
      "postcode": "2615-623",
      "city": "CALHANDRIZ",
      "lon": "-9.066803098089071",
      "lat": "38.92473757437941"
    },
    {
      "id": "pt.ine.add.PTCONT.2759189",
      "street": "R IGREJA",
      "house": "1",
      "postcode": "2615-623",
      "city": "CALHANDRIZ",
      "lon": "-9.064805094227294",
      "lat": "38.92450132546168"
    },
    {
      "id": "pt.ine.add.PTCONT.2805505",
      "street": "R TEN JOSE SOUSA NAZARETH",
      "house": "5",
      "postcode": "2615-623",
      "city": "CALHANDRIZ",
      "lon": "-9.065637616108575",
      "lat": "38.92467482997522"
    },
    {
      "id": "pt.ine.add.PTCONT.2809142",
      "street": "R TEN JOSE SOUSA NAZARETH",
      "house": "7",
      "postcode": "2615-623",
      "city": "CALHANDRIZ",
      "lon": "-9.065515830786026",
      "lat": "38.9241803839531"
    },
    {
      "id": "pt.ine.add.PTCONT.2822826",
      "street": "R IGREJA",
      "house": "1B",
      "postcode": "2615-623",
      "city": "CALHANDRIZ",
      "lon": "-9.064814857097282",
      "lat": "38.92436613329656"
    },
    {
      "id": "pt.ine.add.PTCONT.2960645",
      "street": "R TEN JOSE SOUSA NAZARETH",
      "house": "1",
      "postcode": "2615-623",
      "city": "CALHANDRIZ",
      "lon": "-9.065476902411895",
      "lat": "38.92473015945126"
    },
    {
      "id": "pt.ine.add.PTCONT.3050468",
      "street": "R LUIS LOURENÇO RAMALHO",
      "house": "3",
      "postcode": "2615-623",
      "city": "CALHANDRIZ",
      "lon": "-9.066490959655706",
      "lat": "38.92467701735914"
    },
    {
      "id": "pt.ine.add.PTCONT.3060326",
      "street": "R LUIS LOURENÇO RAMALHO",
      "house": "7",
      "postcode": "2615-623",
      "city": "CALHANDRIZ",
      "lon": "-9.06658142970439",
      "lat": "38.92454117970054"
    },
    {
      "id": "pt.ine.add.PTCONT.3065286",
      "street": "R LUIS LOURENÇO RAMALHO",
      "house": "5",
      "postcode": "2615-623",
      "city": "CALHANDRIZ",
      "lon": "-9.06653637176829",
      "lat": "38.9246226085451"
    },
    {
      "id": "pt.ine.add.PTCONT.3203871",
      "street": "R FRANCISCO GOMES AVELAR",
      "house": "11",
      "postcode": "2615-623",
      "city": "CALHANDRIZ",
      "lon": "-9.067184890039375",
      "lat": "38.924833603674216"
    },
    {
      "id": "pt.ine.add.PTCONT.3237123",
      "street": "R FRANCISCO GOMES AVELAR",
      "house": "",
      "postcode": "2615-623",
      "city": "CALHANDRIZ",
      "lon": "-9.067312548011998",
      "lat": "38.92489563538742"
    },
    {
      "id": "pt.ine.add.PTCONT.3265398",
      "street": "R IGREJA",
      "house": "3",
      "postcode": "2615-623",
      "city": "CALHANDRIZ",
      "lon": "-9.06500134076223",
      "lat": "38.92451777417433"
    },
    {
      "id": "pt.ine.add.PTCONT.3340082",
      "street": "LG RESTAURACAO",
      "house": "5",
      "postcode": "2615-624",
      "city": "CALHANDRIZ",
      "lon": "-9.06598399022552",
      "lat": "38.92470809284036"
    },
    {
      "id": "pt.ine.add.PTCONT.3402697",
      "street": "R LUIS LOURENÇO RAMALHO",
      "house": "1",
      "postcode": "2615-623",
      "city": "CALHANDRIZ",
      "lon": "-9.06641083920973",
      "lat": "38.92472269605043"
    }
  ]
}