{
  "data": {
    "distrito": "Braga",
    "concelho": "Vila Nova de Famalicão",
    "freguesia": "Fradelos",
    "OBJECTID": 1474,
    "BGRI2021": "03121500224",
    "DT21": "03",
    "DTMN21": "0312",
    "DTMNFR21": "031215",
    "DTMNFRSEC21": "031215002",
    "SECNUM21": "002",
    "SSNUM21": "24",
    "SECSSNUM21": "00224",
    "OBJECTID_1": 30598,
    "DT": "03",
    "CC": "12",
    "fr": "15",
    "SEC": "002",
    "SS": "24"
  },
  "addresses": [
    {
      "id": "pt.ine.add.PTCONT.472603",
      "street": "INDEPENDÊNCIA",
      "house": "60",
      "postcode": "4760-485",
      "city": "FRADELOS VNF",
      "lon": "-8.608745391959683",
      "lat": "41.372048869484864"
    },
    {
      "id": "pt.ine.add.PTCONT.484924",
      "street": "R VASCO DA GAMA",
      "house": "285",
      "postcode": "4760-485",
      "city": "FRADELOS VNF",
      "lon": "-8.609147844995777",
      "lat": "41.371506964597394"
    },
    {
      "id": "pt.ine.add.PTCONT.490496",
      "street": "R VASCO DA GAMA",
      "house": "23",
      "postcode": "4760-485",
      "city": "FRADELOS VNF",
      "lon": "-8.608170745872505",
      "lat": "41.37192518700112"
    },
    {
      "id": "pt.ine.add.PTCONT.491952",
      "street": "R LUSIADA",
      "house": "140",
      "postcode": "4760-485",
      "city": "FRADELOS VNF",
      "lon": "-8.60839673242065",
      "lat": "41.3717711856437"
    },
    {
      "id": "pt.ine.add.PTCONT.558890",
      "street": "R LUSIADA",
      "house": "200",
      "postcode": "4760-485",
      "city": "FRADELOS VNF",
      "lon": "-8.608967571988163",
      "lat": "41.37137264998977"
    },
    {
      "id": "pt.ine.add.PTCONT.561949",
      "street": "R VASCO DA GAMA",
      "house": "275",
      "postcode": "4760-485",
      "city": "FRADELOS VNF",
      "lon": "-8.609219954406463",
      "lat": "41.37156069035936"
    },
    {
      "id": "pt.ine.add.PTCONT.587779",
      "street": "R INDEPENDÊNCIA",
      "house": "52",
      "postcode": "4760-485",
      "city": "FRADELOS VNF",
      "lon": "-8.60900697306676",
      "lat": "41.37185870375812"
    },
    {
      "id": "pt.ine.add.PTCONT.594993",
      "street": "R VASCO DA GAMA",
      "house": "91",
      "postcode": "4760-485",
      "city": "FRADELOS VNF",
      "lon": "-8.60831542281584",
      "lat": "41.37209566589218"
    },
    {
      "id": "pt.ine.add.PTCONT.608690",
      "street": "R INDEPENDÊNCIA",
      "house": "19",
      "postcode": "4760-485",
      "city": "FRADELOS VNF",
      "lon": "-8.608681956354989",
      "lat": "41.37154490694298"
    },
    {
      "id": "pt.ine.add.PTCONT.614180",
      "street": "R VASCO DA GAMA",
      "house": "253",
      "postcode": "4760-485",
      "city": "FRADELOS VNF",
      "lon": "-8.609316428778419",
      "lat": "41.3716773433426"
    },
    {
      "id": "pt.ine.add.PTCONT.760367",
      "street": "R INDEPENDÊNCIA",
      "house": "233",
      "postcode": "4760-485",
      "city": "FRADELOS VNF",
      "lon": "-8.609485079127698",
      "lat": "41.3718567255717"
    },
    {
      "id": "pt.ine.add.PTCONT.813862",
      "street": "R VASCO DA GAMA",
      "house": "147",
      "postcode": "4760-485",
      "city": "FRADELOS VNF",
      "lon": "-8.608890333089146",
      "lat": "41.372255362603646"
    },
    {
      "id": "pt.ine.add.PTCONT.820087",
      "street": "R VASCO DA GAMA",
      "house": "65",
      "postcode": "4760-485",
      "city": "FRADELOS VNF",
      "lon": "-8.608471659967442",
      "lat": "41.37221207276992"
    }
  ]
}