{
  "data": {
    "distrito": "Set√∫bal",
    "concelho": "Seixal",
    "freguesia": "Amora",
    "OBJECTID": 1256,
    "BGRI2021": "15100203303",
    "DT21": "15",
    "DTMN21": "1510",
    "DTMNFR21": "151002",
    "DTMNFRSEC21": "151002033",
    "SECNUM21": "033",
    "SSNUM21": "03",
    "SECSSNUM21": "03303",
    "OBJECTID_1": 168326,
    "DT": "15",
    "CC": "10",
    "fr": "02",
    "SEC": "033",
    "SS": "03"
  },
  "addresses": [
    {
      "id": "pt.ine.add.PTCONT.4675560",
      "street": "R CAMILO PESSANHA",
      "house": "14",
      "postcode": "2845-443",
      "city": "AMORA",
      "lon": "-9.117118948796486",
      "lat": "38.629498703700826"
    },
    {
      "id": "pt.ine.add.PTCONT.4675561",
      "street": "R CAMILO PESSANHA",
      "house": "14",
      "postcode": "2845-443",
      "city": "AMORA",
      "lon": "-9.117118948796486",
      "lat": "38.629498703700826"
    },
    {
      "id": "pt.ine.add.PTCONT.4675562",
      "street": "R CAMILO PESSANHA",
      "house": "14",
      "postcode": "2845-443",
      "city": "AMORA",
      "lon": "-9.117118948796486",
      "lat": "38.629498703700826"
    },
    {
      "id": "pt.ine.add.PTCONT.4686926",
      "street": "R CAMILO PESSANHA",
      "house": "12",
      "postcode": "2845-443",
      "city": "AMORA",
      "lon": "-9.117004985794011",
      "lat": "38.62956271838815"
    },
    {
      "id": "pt.ine.add.PTCONT.4690185",
      "street": "R CAMILO PESSANHA NOVE",
      "house": "NOVE",
      "postcode": "2845-443",
      "city": "AMORA",
      "lon": "-9.116875847330672",
      "lat": "38.62935661969036"
    },
    {
      "id": "pt.ine.add.PTCONT.4690186",
      "street": "R CAMILO PESSANHA",
      "house": "9",
      "postcode": "2845-443",
      "city": "AMORA",
      "lon": "-9.116875847330672",
      "lat": "38.62935661969036"
    },
    {
      "id": "pt.ine.add.PTCONT.4691643",
      "street": "R CAMILO PESSANHA",
      "house": "9",
      "postcode": "2845-443",
      "city": "AMORA",
      "lon": "-9.116875847330672",
      "lat": "38.62935661969036"
    },
    {
      "id": "pt.ine.add.PTCONT.4693808",
      "street": "R CACHEU",
      "house": "1",
      "postcode": "2845-607",
      "city": "AMORA",
      "lon": "-9.116430083178727",
      "lat": "38.63035125042291"
    },
    {
      "id": "pt.ine.add.PTCONT.4697584",
      "street": "R CAMILO PESSANHA",
      "house": "5",
      "postcode": "2845-443",
      "city": "AMORA",
      "lon": "-9.116681876278788",
      "lat": "38.629448330903266"
    },
    {
      "id": "pt.ine.add.PTCONT.4697585",
      "street": "R CAMILO PESSANHA",
      "house": "5",
      "postcode": "2845-443",
      "city": "AMORA",
      "lon": "-9.116681876278788",
      "lat": "38.629448330903266"
    },
    {
      "id": "pt.ine.add.PTCONT.4697586",
      "street": "R CAMILO PESSANHA",
      "house": "5",
      "postcode": "2845-443",
      "city": "AMORA",
      "lon": "-9.116681876278788",
      "lat": "38.629448330903266"
    },
    {
      "id": "pt.ine.add.PTCONT.4711761",
      "street": "R CAMILO PESSANHA",
      "house": "8",
      "postcode": "2845-443",
      "city": "AMORA",
      "lon": "-9.116928301359646",
      "lat": "38.629833604151635"
    },
    {
      "id": "pt.ine.add.PTCONT.4711762",
      "street": "R CAMILO PESSANHA",
      "house": "8",
      "postcode": "2845-443",
      "city": "AMORA",
      "lon": "-9.116928301359646",
      "lat": "38.629833604151635"
    },
    {
      "id": "pt.ine.add.PTCONT.4711763",
      "street": "R PROF JOSE MARIA VINAGRE",
      "house": "19",
      "postcode": "2845-465",
      "city": "AMORA",
      "lon": "-9.11653231923003",
      "lat": "38.63026931881592"
    },
    {
      "id": "pt.ine.add.PTCONT.4713340",
      "street": "R CAMILO PESSANHA",
      "house": "8",
      "postcode": "2845-443",
      "city": "AMORA",
      "lon": "-9.116928301359646",
      "lat": "38.629833604151635"
    },
    {
      "id": "pt.ine.add.PTCONT.4748952",
      "street": "R CAMILO PESSANHA",
      "house": "6",
      "postcode": "2845-443",
      "city": "AMORA",
      "lon": "-9.11681433765978",
      "lat": "38.629897618658845"
    },
    {
      "id": "pt.ine.add.PTCONT.4748953",
      "street": "R CAMILO PESSANHA",
      "house": "6",
      "postcode": "2845-443",
      "city": "AMORA",
      "lon": "-9.11681433765978",
      "lat": "38.629897618658845"
    },
    {
      "id": "pt.ine.add.PTCONT.4748954",
      "street": "R CAMILO PESSANHA",
      "house": "6",
      "postcode": "2845-443",
      "city": "AMORA",
      "lon": "-9.11681433765978",
      "lat": "38.629897618658845"
    },
    {
      "id": "pt.ine.add.PTCONT.4748955",
      "street": "R PROF JOSE MARIA VINAGRE",
      "house": "9 7",
      "postcode": "2845-465",
      "city": "AMORA",
      "lon": "-9.11634355346189",
      "lat": "38.62990157624176"
    },
    {
      "id": "pt.ine.add.PTCONT.4748956",
      "street": "R PROF JOSE MARIA VINAGRE",
      "house": "9 7",
      "postcode": "2845-465",
      "city": "AMORA",
      "lon": "-9.11634355346189",
      "lat": "38.62990157624176"
    },
    {
      "id": "pt.ine.add.PTCONT.4779820",
      "street": "R CAMILO PESSANHA",
      "house": "2",
      "postcode": "2845-443",
      "city": "AMORA",
      "lon": "-9.116609374771315",
      "lat": "38.63002545428912"
    },
    {
      "id": "pt.ine.add.PTCONT.4779821",
      "street": "R CAMILO PESSANHA",
      "house": "2",
      "postcode": "2845-443",
      "city": "AMORA",
      "lon": "-9.116609374771315",
      "lat": "38.63002545428912"
    },
    {
      "id": "pt.ine.add.PTCONT.4779822",
      "street": "R CAMILO PESSANHA",
      "house": "2",
      "postcode": "2845-443",
      "city": "AMORA",
      "lon": "-9.116609374771315",
      "lat": "38.63002545428912"
    },
    {
      "id": "pt.ine.add.PTCONT.4779823",
      "street": "R CAMILO PESSANHA",
      "house": "2",
      "postcode": "2845-443",
      "city": "AMORA",
      "lon": "-9.116609374771315",
      "lat": "38.63002545428912"
    },
    {
      "id": "pt.ine.add.PTCONT.4779824",
      "street": "R CAMILO PESSANHA",
      "house": "2",
      "postcode": "2845-443",
      "city": "AMORA",
      "lon": "-9.116609374771315",
      "lat": "38.63002545428912"
    },
    {
      "id": "pt.ine.add.PTCONT.4779825",
      "street": "PCT ANGELINA VIDAL",
      "house": "GARAGEM",
      "postcode": "2845-428",
      "city": "AMORA",
      "lon": "-9.116885325514625",
      "lat": "38.63005015823336"
    },
    {
      "id": "pt.ine.add.PTCONT.4785845",
      "street": "R PROF JOSE MARIA VINAGRE",
      "house": "11",
      "postcode": "2845-465",
      "city": "AMORA",
      "lon": "-9.116344783734439",
      "lat": "38.62999164619316"
    },
    {
      "id": "pt.ine.add.PTCONT.4809103",
      "street": "R PROF JOSE MARIA VINAGRE",
      "house": "5",
      "postcode": "2845-465",
      "city": "AMORA",
      "lon": "-9.116308244676668",
      "lat": "38.62983881677915"
    },
    {
      "id": "pt.ine.add.PTCONT.4816598",
      "street": "R PROF JOSE MARIA VINAGRE",
      "house": "21",
      "postcode": "2845-465",
      "city": "AMORA",
      "lon": "-9.116486881013735",
      "lat": "38.63030573287428"
    },
    {
      "id": "pt.ine.add.PTCONT.4832652",
      "street": "R CAMILO PESSANHA",
      "house": "10",
      "postcode": "2845-443",
      "city": "AMORA",
      "lon": "-9.116914110678355",
      "lat": "38.62963554684534"
    },
    {
      "id": "pt.ine.add.PTCONT.4835552",
      "street": "R CAMILO PESSANHA",
      "house": "10",
      "postcode": "2845-443",
      "city": "AMORA",
      "lon": "-9.116914110678355",
      "lat": "38.62963554684534"
    },
    {
      "id": "pt.ine.add.PTCONT.4863350",
      "street": "R PROF JOSE MARIA VINAGRE",
      "house": "17",
      "postcode": "2845-465",
      "city": "AMORA",
      "lon": "-9.11632501728021",
      "lat": "38.63022602106676"
    },
    {
      "id": "pt.ine.add.PTCONT.4871710",
      "street": "R CAMILO PESSANHA",
      "house": "4",
      "postcode": "2845-443",
      "city": "AMORA",
      "lon": "-9.116723461932501",
      "lat": "38.629970446971946"
    },
    {
      "id": "pt.ine.add.PTCONT.4871711",
      "street": "R CAMILO PESSANHA",
      "house": "4",
      "postcode": "2845-443",
      "city": "AMORA",
      "lon": "-9.116723461932501",
      "lat": "38.629970446971946"
    },
    {
      "id": "pt.ine.add.PTCONT.4871712",
      "street": "R CAMILO PESSANHA",
      "house": "4",
      "postcode": "2845-443",
      "city": "AMORA",
      "lon": "-9.116723461932501",
      "lat": "38.629970446971946"
    },
    {
      "id": "pt.ine.add.PTCONT.4871713",
      "street": "R CAMILO PESSANHA",
      "house": "4",
      "postcode": "2845-443",
      "city": "AMORA",
      "lon": "-9.116723461932501",
      "lat": "38.629970446971946"
    },
    {
      "id": "pt.ine.add.PTCONT.4877527",
      "street": "R CAMILO PESSANHA",
      "house": "13",
      "postcode": "2845-443",
      "city": "AMORA",
      "lon": "-9.117148840579192",
      "lat": "38.62916515518555"
    },
    {
      "id": "pt.ine.add.PTCONT.4877528",
      "street": "R CAMILO PESSANHA",
      "house": "13",
      "postcode": "2845-443",
      "city": "AMORA",
      "lon": "-9.117148840579192",
      "lat": "38.62916515518555"
    },
    {
      "id": "pt.ine.add.PTCONT.4877529",
      "street": "R PROF JOSE MARIA VINAGRE",
      "house": "15",
      "postcode": "2845-465",
      "city": "AMORA",
      "lon": "-9.11634650612525",
      "lat": "38.63011774412274"
    },
    {
      "id": "pt.ine.add.PTCONT.4885614",
      "street": "R 1 DE MAIO",
      "house": "101",
      "postcode": "2845-125",
      "city": "AMORA",
      "lon": "-9.116384316305654",
      "lat": "38.62952289641322"
    },
    {
      "id": "pt.ine.add.PTCONT.4885615",
      "street": "R 1 DE MAIO",
      "house": "101",
      "postcode": "2845-125",
      "city": "AMORA",
      "lon": "-9.116384316305654",
      "lat": "38.62952289641322"
    },
    {
      "id": "pt.ine.add.PTCONT.4885616",
      "street": "R 1 DE MAIO",
      "house": "101",
      "postcode": "2845-125",
      "city": "AMORA",
      "lon": "-9.116384316305654",
      "lat": "38.62952289641322"
    },
    {
      "id": "pt.ine.add.PTCONT.4885617",
      "street": "R 1 DE MAIO",
      "house": "101",
      "postcode": "2845-125",
      "city": "AMORA",
      "lon": "-9.116384316305654",
      "lat": "38.62952289641322"
    },
    {
      "id": "pt.ine.add.PTCONT.4885618",
      "street": "R 1 DE MAIO",
      "house": "101",
      "postcode": "2845-125",
      "city": "AMORA",
      "lon": "-9.116384316305654",
      "lat": "38.62952289641322"
    },
    {
      "id": "pt.ine.add.PTCONT.4885619",
      "street": "R 1 DE MAIO",
      "house": "101",
      "postcode": "2845-125",
      "city": "AMORA",
      "lon": "-9.116384316305654",
      "lat": "38.62952289641322"
    },
    {
      "id": "pt.ine.add.PTCONT.4885620",
      "street": "R 1 DE MAIO",
      "house": "101",
      "postcode": "2845-125",
      "city": "AMORA",
      "lon": "-9.116384316305654",
      "lat": "38.62952289641322"
    },
    {
      "id": "pt.ine.add.PTCONT.4885621",
      "street": "R 1 DE MAIO",
      "house": "101",
      "postcode": "2845-125",
      "city": "AMORA",
      "lon": "-9.116384316305654",
      "lat": "38.62952289641322"
    },
    {
      "id": "pt.ine.add.PTCONT.4885622",
      "street": "R 1 DE MAIO",
      "house": "101",
      "postcode": "2845-125",
      "city": "AMORA",
      "lon": "-9.116384316305654",
      "lat": "38.62952289641322"
    },
    {
      "id": "pt.ine.add.PTCONT.4885623",
      "street": "R 1 DE MAIO",
      "house": "101",
      "postcode": "2845-125",
      "city": "AMORA",
      "lon": "-9.116384316305654",
      "lat": "38.62952289641322"
    },
    {
      "id": "pt.ine.add.PTCONT.4885624",
      "street": "R 1 DE MAIO",
      "house": "101",
      "postcode": "2845-125",
      "city": "AMORA",
      "lon": "-9.116384316305654",
      "lat": "38.62952289641322"
    },
    {
      "id": "pt.ine.add.PTCONT.4885625",
      "street": "R 1 DE MAIO",
      "house": "101",
      "postcode": "2845-125",
      "city": "AMORA",
      "lon": "-9.116384316305654",
      "lat": "38.62952289641322"
    },
    {
      "id": "pt.ine.add.PTCONT.4885626",
      "street": "R 1 DE MAIO",
      "house": "101",
      "postcode": "2845-125",
      "city": "AMORA",
      "lon": "-9.116384316305654",
      "lat": "38.62952289641322"
    },
    {
      "id": "pt.ine.add.PTCONT.4885650",
      "street": "R 1 DE MAIO",
      "house": "101",
      "postcode": "2845-125",
      "city": "AMORA",
      "lon": "-9.116384316305654",
      "lat": "38.62952289641322"
    },
    {
      "id": "pt.ine.add.PTCONT.4885750",
      "street": "R 1 DE MAIO",
      "house": "101",
      "postcode": "2845-125",
      "city": "AMORA",
      "lon": "-9.116384316305654",
      "lat": "38.62952289641322"
    },
    {
      "id": "pt.ine.add.PTCONT.4887631",
      "street": "R CAMILO PESSANHA",
      "house": "7",
      "postcode": "2845-443",
      "city": "AMORA",
      "lon": "-9.116772997557844",
      "lat": "38.62939351661391"
    },
    {
      "id": "pt.ine.add.PTCONT.4887632",
      "street": "R CAMILO PESSANHA",
      "house": "7",
      "postcode": "2845-443",
      "city": "AMORA",
      "lon": "-9.116772997557844",
      "lat": "38.62939351661391"
    },
    {
      "id": "pt.ine.add.PTCONT.4887633",
      "street": "R CAMILO PESSANHA",
      "house": "7",
      "postcode": "2845-443",
      "city": "AMORA",
      "lon": "-9.116772997557844",
      "lat": "38.62939351661391"
    },
    {
      "id": "pt.ine.add.PTCONT.4901479",
      "street": "R PROF JOSE MARIA VINAGRE",
      "house": "3",
      "postcode": "2845-465",
      "city": "AMORA",
      "lon": "-9.116271582763762",
      "lat": "38.62967698035199"
    },
    {
      "id": "pt.ine.add.PTCONT.4926326",
      "street": "R CAMILO PESSANHA",
      "house": "16",
      "postcode": "2845-443",
      "city": "AMORA",
      "lon": "-9.11723315786759",
      "lat": "38.62945270289149"
    },
    {
      "id": "pt.ine.add.PTCONT.4926327",
      "street": "R CAMILO PESSANHA",
      "house": "16",
      "postcode": "2845-443",
      "city": "AMORA",
      "lon": "-9.11723315786759",
      "lat": "38.62945270289149"
    },
    {
      "id": "pt.ine.add.PTCONT.4926328",
      "street": "R CAMILO PESSANHA",
      "house": "16",
      "postcode": "2845-443",
      "city": "AMORA",
      "lon": "-9.11723315786759",
      "lat": "38.62945270289149"
    },
    {
      "id": "pt.ine.add.PTCONT.4929942",
      "street": "R PROF JOSE MARIA VINAGRE",
      "house": "23B",
      "postcode": "2845-465",
      "city": "AMORA",
      "lon": "-9.116623318588042",
      "lat": "38.63020549764146"
    },
    {
      "id": "pt.ine.add.PTCONT.4940726",
      "street": "R PROF JOSE MARIA VINAGRE",
      "house": "19A",
      "postcode": "2845-465",
      "city": "AMORA",
      "lon": "-9.11657763434266",
      "lat": "38.63022389774627"
    },
    {
      "id": "pt.ine.add.PTCONT.4993837",
      "street": "R CAMILO PESSANHA",
      "house": "18",
      "postcode": "2845-443",
      "city": "AMORA",
      "lon": "-9.11732403242824",
      "lat": "38.629379874191564"
    },
    {
      "id": "pt.ine.add.PTCONT.4993838",
      "street": "R CAMILO PESSANHA",
      "house": "18",
      "postcode": "2845-443",
      "city": "AMORA",
      "lon": "-9.11732403242824",
      "lat": "38.629379874191564"
    },
    {
      "id": "pt.ine.add.PTCONT.4996565",
      "street": "R CAMILO PESSANHA",
      "house": "18",
      "postcode": "2845-443",
      "city": "AMORA",
      "lon": "-9.11732403242824",
      "lat": "38.629379874191564"
    },
    {
      "id": "pt.ine.add.PTCONT.5048271",
      "street": "R CAMILO PESSANHA",
      "house": "3",
      "postcode": "2845-443",
      "city": "AMORA",
      "lon": "-9.116602483453734",
      "lat": "38.62952106258591"
    },
    {
      "id": "pt.ine.add.PTCONT.5048278",
      "street": "R CAMILO PESSANHA",
      "house": "3",
      "postcode": "2845-443",
      "city": "AMORA",
      "lon": "-9.116602483453734",
      "lat": "38.62952106258591"
    },
    {
      "id": "pt.ine.add.PTCONT.5048279",
      "street": "R CAMILO PESSANHA",
      "house": "3",
      "postcode": "2845-443",
      "city": "AMORA",
      "lon": "-9.116602483453734",
      "lat": "38.62952106258591"
    },
    {
      "id": "pt.ine.add.PTCONT.5050191",
      "street": "R PROF JOSE MARIA VINAGRE T",
      "house": "13",
      "postcode": "2845-465",
      "city": "AMORA",
      "lon": "-9.1163570044661",
      "lat": "38.630045591658934"
    },
    {
      "id": "pt.ine.add.PTCONT.5093453",
      "street": "R CAMILO PESSANHA",
      "house": "11",
      "postcode": "2845-443",
      "city": "AMORA",
      "lon": "-9.11695511659695",
      "lat": "38.62927488083172"
    },
    {
      "id": "pt.ine.add.PTCONT.5093454",
      "street": "R CAMILO PESSANHA",
      "house": "11",
      "postcode": "2845-443",
      "city": "AMORA",
      "lon": "-9.11695511659695",
      "lat": "38.62927488083172"
    },
    {
      "id": "pt.ine.add.PTCONT.5093455",
      "street": "R CAMILO PESSANHA",
      "house": "11",
      "postcode": "2845-443",
      "city": "AMORA",
      "lon": "-9.11695511659695",
      "lat": "38.62927488083172"
    },
    {
      "id": "pt.ine.add.PTCONT.5093456",
      "street": "R CAMILO PESSANHA",
      "house": "11",
      "postcode": "2845-443",
      "city": "AMORA",
      "lon": "-9.11695511659695",
      "lat": "38.62927488083172"
    },
    {
      "id": "pt.ine.add.PTCONT.5093457",
      "street": "R CAMILO PESSANHA",
      "house": "11",
      "postcode": "2845-443",
      "city": "AMORA",
      "lon": "-9.11695511659695",
      "lat": "38.62927488083172"
    },
    {
      "id": "pt.ine.add.PTCONT.5093458",
      "street": "R CAMILO PESSANHA",
      "house": "11",
      "postcode": "2845-443",
      "city": "AMORA",
      "lon": "-9.11695511659695",
      "lat": "38.62927488083172"
    },
    {
      "id": "pt.ine.add.PTCONT.5093459",
      "street": "R CAMILO PESSANHA",
      "house": "11",
      "postcode": "2845-443",
      "city": "AMORA",
      "lon": "-9.11695511659695",
      "lat": "38.62927488083172"
    },
    {
      "id": "pt.ine.add.PTCONT.5093460",
      "street": "R CAMILO PESSANHA",
      "house": "11",
      "postcode": "2845-443",
      "city": "AMORA",
      "lon": "-9.11695511659695",
      "lat": "38.62927488083172"
    },
    {
      "id": "pt.ine.add.PTCONT.5107025",
      "street": "R PROF JOSE MARIA VINAGRE",
      "house": "23A",
      "postcode": "2845-465",
      "city": "AMORA",
      "lon": "-9.11658800940592",
      "lat": "38.6301427382717"
    },
    {
      "id": "pt.ine.add.PTCONT.5125606",
      "street": "R CAMILO PESSANHA",
      "house": "10",
      "postcode": "2845-443",
      "city": "AMORA",
      "lon": "-9.116914110678355",
      "lat": "38.62963554684534"
    },
    {
      "id": "pt.ine.add.PTCONT.5129453",
      "street": "R CAMILO PESSANHA",
      "house": "11",
      "postcode": "2845-443",
      "city": "AMORA",
      "lon": "-9.11695511659695",
      "lat": "38.62927488083172"
    }
  ]
}