{
  "data": {
    "distrito": "Lisboa",
    "concelho": "Loures",
    "freguesia": "União das freguesias de Santa Iria de Azoia, São João da Talha e Bobadela",
    "OBJECTID": 440,
    "BGRI2021": "11072800404",
    "DT21": "11",
    "DTMN21": "1107",
    "DTMNFR21": "110728",
    "DTMNFRSEC21": "110728004",
    "SECNUM21": "004",
    "SSNUM21": "04",
    "SECSSNUM21": "00404",
    "OBJECTID_1": 105485,
    "DT": "11",
    "CC": "07",
    "fr": "28",
    "SEC": "004",
    "SS": "04"
  },
  "addresses": [
    {
      "id": "pt.ine.add.PTCONT.3231603",
      "street": "R JOÃO VILLARET",
      "house": "",
      "postcode": "2695-077",
      "city": "BOBADELA LRS",
      "lon": "-9.094171591717506",
      "lat": "38.81385606818368"
    },
    {
      "id": "pt.ine.add.PTCONT.3252385",
      "street": "R GEN SARMENTO PIMENTEL",
      "house": "28",
      "postcode": "2695-006",
      "city": "BOBADELA LRS",
      "lon": "-9.095009551403715",
      "lat": "38.81366901648728"
    },
    {
      "id": "pt.ine.add.PTCONT.3252386",
      "street": "R GEN SARMENTO PIMENTEL",
      "house": "28",
      "postcode": "2695-006",
      "city": "BOBADELA LRS",
      "lon": "-9.095009551403715",
      "lat": "38.81366901648728"
    },
    {
      "id": "pt.ine.add.PTCONT.2269388",
      "street": "R GEN SARMENTO PIMENTEL",
      "house": "21",
      "postcode": "2695-006",
      "city": "BOBADELA LRS",
      "lon": "-9.094629646130265",
      "lat": "38.814527881557936"
    },
    {
      "id": "pt.ine.add.PTCONT.2269389",
      "street": "R GEN SARMENTO PIMENTEL",
      "house": "21",
      "postcode": "2695-006",
      "city": "BOBADELA LRS",
      "lon": "-9.094629646130265",
      "lat": "38.814527881557936"
    },
    {
      "id": "pt.ine.add.PTCONT.2316324",
      "street": "R D AFONSO HENRIQUES",
      "house": "",
      "postcode": "2695-011",
      "city": "BOBADELA LRS",
      "lon": "-9.100088742826117",
      "lat": "38.81295150405314"
    },
    {
      "id": "pt.ine.add.PTCONT.2343849",
      "street": "R JOÃO VILLARET",
      "house": "",
      "postcode": "2695-077",
      "city": "BOBADELA LRS",
      "lon": "-9.094105908203206",
      "lat": "38.814108825950015"
    },
    {
      "id": "pt.ine.add.PTCONT.2343850",
      "street": "R JOÃO VILLARET",
      "house": "",
      "postcode": "2695-077",
      "city": "BOBADELA LRS",
      "lon": "-9.094105908203206",
      "lat": "38.814108825950015"
    },
    {
      "id": "pt.ine.add.PTCONT.2398913",
      "street": "R D AFONSO HENRIQUES",
      "house": "4",
      "postcode": "2695-011",
      "city": "BOBADELA LRS",
      "lon": "-9.099536555097462",
      "lat": "38.81128062878295"
    },
    {
      "id": "pt.ine.add.PTCONT.2408290",
      "street": "R MIRA TEJO",
      "house": "",
      "postcode": "2695-503",
      "city": "BOBADELA LRS",
      "lon": "-9.096045636657191",
      "lat": "38.81366048124031"
    },
    {
      "id": "pt.ine.add.PTCONT.2414133",
      "street": "R MIRA TEJO",
      "house": "",
      "postcode": "2695-503",
      "city": "BOBADELA LRS",
      "lon": "-9.096045636657191",
      "lat": "38.81366048124031"
    },
    {
      "id": "pt.ine.add.PTCONT.2426281",
      "street": "R GEN SARMENTO PIMENTEL",
      "house": "",
      "postcode": "2695-006",
      "city": "BOBADELA LRS",
      "lon": "-9.094673514927658",
      "lat": "38.81436538072533"
    },
    {
      "id": "pt.ine.add.PTCONT.2453616",
      "street": "R GEN SARMENTO PIMENTEL",
      "house": "29",
      "postcode": "2695-006",
      "city": "BOBADELA LRS",
      "lon": "-9.095076806391283",
      "lat": "38.813533346231246"
    },
    {
      "id": "pt.ine.add.PTCONT.2453617",
      "street": "R GEN SARMENTO PIMENTEL",
      "house": "29",
      "postcode": "2695-006",
      "city": "BOBADELA LRS",
      "lon": "-9.095076806391283",
      "lat": "38.813533346231246"
    },
    {
      "id": "pt.ine.add.PTCONT.2594034",
      "street": "R GEN SARMENTO PIMENTEL",
      "house": "27",
      "postcode": "2695-006",
      "city": "BOBADELA LRS",
      "lon": "-9.094964835750993",
      "lat": "38.81376847007162"
    },
    {
      "id": "pt.ine.add.PTCONT.2594199",
      "street": "R GEN SARMENTO PIMENTEL",
      "house": "27",
      "postcode": "2695-006",
      "city": "BOBADELA LRS",
      "lon": "-9.094964835750993",
      "lat": "38.81376847007162"
    }
  ]
}