{
  "data": {
    "distrito": "Leiria",
    "concelho": "Pedrógão Grande",
    "freguesia": "Vila Facaia",
    "OBJECTID": 209,
    "BGRI2021": "10130300104",
    "DT21": "10",
    "DTMN21": "1013",
    "DTMNFR21": "101303",
    "DTMNFRSEC21": "101303001",
    "SECNUM21": "001",
    "SSNUM21": "04",
    "SECSSNUM21": "00104",
    "OBJECTID_1": 94006,
    "DT": "10",
    "CC": "13",
    "fr": "03",
    "SEC": "001",
    "SS": "04"
  },
  "addresses": [
    {
      "id": "pt.ine.add.PTCONT.1980559",
      "street": "R LAPARINHO",
      "house": "144",
      "postcode": "3270-212",
      "city": "VILA FACAIA",
      "lon": "-8.205095892680085",
      "lat": "39.91400606416474"
    },
    {
      "id": "pt.ine.add.PTCONT.2019691",
      "street": "BC GATOS",
      "house": "24",
      "postcode": "3270-212",
      "city": "VILA FACAIA",
      "lon": "-8.20493303610964",
      "lat": "39.91485276027467"
    },
    {
      "id": "pt.ine.add.PTCONT.2042554",
      "street": "R LAPARINHO",
      "house": "325",
      "postcode": "3270-213",
      "city": "VILA FACAIA",
      "lon": "-8.205069192975778",
      "lat": "39.910844857420635"
    },
    {
      "id": "pt.ine.add.PTCONT.2052953",
      "street": "R PORTELA",
      "house": "262",
      "postcode": "3270-213",
      "city": "VILA FACAIA",
      "lon": "-8.204437659400053",
      "lat": "39.91085425393297"
    },
    {
      "id": "pt.ine.add.PTCONT.2097116",
      "street": "BC GATOS",
      "house": "11",
      "postcode": "3270-212",
      "city": "VILA FACAIA",
      "lon": "-8.204991374483763",
      "lat": "39.9147176291676"
    },
    {
      "id": "pt.ine.add.PTCONT.2097120",
      "street": "R LAPARINHO",
      "house": "86",
      "postcode": "3270-212",
      "city": "VILA FACAIA",
      "lon": "-8.204862447054959",
      "lat": "39.91445652542131"
    },
    {
      "id": "pt.ine.add.PTCONT.2116785",
      "street": "BC GATOS",
      "house": "7",
      "postcode": "3270-212",
      "city": "VILA FACAIA",
      "lon": "-8.20482760373278",
      "lat": "39.91469071157958"
    },
    {
      "id": "pt.ine.add.PTCONT.2125816",
      "street": "R LAPARINHO",
      "house": "181",
      "postcode": "3270-212",
      "city": "VILA FACAIA",
      "lon": "-8.204780688732354",
      "lat": "39.91456465195454"
    },
    {
      "id": "pt.ine.add.PTCONT.2149713",
      "street": "R LAMEIRINHA",
      "house": "8",
      "postcode": "3270-212",
      "city": "VILA FACAIA",
      "lon": "-8.204827735246774",
      "lat": "39.91481680012686"
    },
    {
      "id": "pt.ine.add.PTCONT.2189149",
      "street": "R PORTELA",
      "house": "228",
      "postcode": "3270-213",
      "city": "VILA FACAIA",
      "lon": "-8.204274727566645",
      "lat": "39.911628898942844"
    },
    {
      "id": "pt.ine.add.PTCONT.2245148",
      "street": "R LAMEIRINHA",
      "house": "785",
      "postcode": "3270-212",
      "city": "VILA FACAIA",
      "lon": "-8.207343183301",
      "lat": "39.91558075512968"
    },
    {
      "id": "pt.ine.add.PTCONT.2267693",
      "street": "R FONTELA",
      "house": "372",
      "postcode": "3270-213",
      "city": "VILA FACAIA",
      "lon": "-8.204449195810264",
      "lat": "39.91070113911036"
    }
  ]
}