{
  "data": {
    "distrito": "Leiria",
    "concelho": "Pedrógão Grande",
    "freguesia": "Vila Facaia",
    "OBJECTID": 227,
    "BGRI2021": "10130300123",
    "DT21": "10",
    "DTMN21": "1013",
    "DTMNFR21": "101303",
    "DTMNFRSEC21": "101303001",
    "SECNUM21": "001",
    "SSNUM21": "23",
    "SECSSNUM21": "00123",
    "OBJECTID_1": 93873,
    "DT": "10",
    "CC": "13",
    "fr": "03",
    "SEC": "001",
    "SS": "23"
  },
  "addresses": [
    {
      "id": "pt.ine.add.PTCONT.1985553",
      "street": "R JULIO DA PIEDADE HENRIQUES",
      "house": "150",
      "postcode": "3270-206",
      "city": "VILA FACAIA",
      "lon": "-8.221055769973775",
      "lat": "39.93762762285339"
    },
    {
      "id": "pt.ine.add.PTCONT.2006671",
      "street": "R JULIO DA PIEDADE HENRIQUES",
      "house": "155",
      "postcode": "3270-206",
      "city": "VILA FACAIA",
      "lon": "-8.220856804487402",
      "lat": "39.93757373583727"
    },
    {
      "id": "pt.ine.add.PTCONT.2014050",
      "street": "R JULIO DA PIEDADE HENRIQUES",
      "house": "130",
      "postcode": "3270-206",
      "city": "VILA FACAIA",
      "lon": "-8.220985790092184",
      "lat": "39.93779879550419"
    },
    {
      "id": "pt.ine.add.PTCONT.2027359",
      "street": "R JULIO DA PIEDADE HENRIQUES",
      "house": "71",
      "postcode": "3270-206",
      "city": "VILA FACAIA",
      "lon": "-8.220647103458077",
      "lat": "39.93827638527638"
    },
    {
      "id": "pt.ine.add.PTCONT.2051222",
      "street": "R QUINTINHA",
      "house": "5",
      "postcode": "3270-206",
      "city": "VILA FACAIA",
      "lon": "-8.220658470530655",
      "lat": "39.93801519418038"
    },
    {
      "id": "pt.ine.add.PTCONT.2066940",
      "street": "R JULIO DA PIEDADE HENRIQUES",
      "house": "125",
      "postcode": "3270-206",
      "city": "VILA FACAIA",
      "lon": "-8.2206113613898",
      "lat": "39.93777205980637"
    },
    {
      "id": "pt.ine.add.PTCONT.2068797",
      "street": "R JULIO DA PIEDADE HENRIQUES",
      "house": "87",
      "postcode": "3270-206",
      "city": "VILA FACAIA",
      "lon": "-8.220728773055825",
      "lat": "39.93809619771666"
    },
    {
      "id": "pt.ine.add.PTCONT.2088527",
      "street": "R CEMITÉRIO",
      "house": "235",
      "postcode": "3270-225",
      "city": "VILA FACAIA",
      "lon": "-8.220499384622892",
      "lat": "39.93252147238827"
    },
    {
      "id": "pt.ine.add.PTCONT.2090705",
      "street": "R JULIO DA PIEDADE HENRIQUES",
      "house": "181",
      "postcode": "3270-206",
      "city": "VILA FACAIA",
      "lon": "-8.22095001124858",
      "lat": "39.937267451240814"
    },
    {
      "id": "pt.ine.add.PTCONT.2094652",
      "street": "R QUINTINHA",
      "house": "4",
      "postcode": "3270-206",
      "city": "VILA FACAIA",
      "lon": "-8.2207752622567",
      "lat": "39.93785299264183"
    },
    {
      "id": "pt.ine.add.PTCONT.2200551",
      "street": "R JULIO DA PIEDADE HENRIQUES",
      "house": "215",
      "postcode": "3270-206",
      "city": "VILA FACAIA",
      "lon": "-8.221113461398277",
      "lat": "39.93699713843982"
    },
    {
      "id": "pt.ine.add.PTCONT.2245146",
      "street": "R JULIO DA PIEDADE HENRIQUES",
      "house": "102",
      "postcode": "3270-206",
      "city": "VILA FACAIA",
      "lon": "-8.220950828808661",
      "lat": "39.937906897525"
    },
    {
      "id": "pt.ine.add.PTCONT.2253157",
      "street": "R JULIO DA PIEDADE HENRIQUES",
      "house": "140",
      "postcode": "3270-206",
      "city": "VILA FACAIA",
      "lon": "-8.221009086030898",
      "lat": "39.93771772119792"
    },
    {
      "id": "pt.ine.add.PTCONT.2267266",
      "street": "R MUSGUINHO",
      "house": "347",
      "postcode": "3270-228",
      "city": "",
      "lon": "-8.220456149388982",
      "lat": "39.935322464312684"
    },
    {
      "id": "pt.ine.add.PTCONT.2268632",
      "street": "R JULIO DA PIEDADE HENRIQUES",
      "house": "155",
      "postcode": "3270-206",
      "city": "VILA FACAIA",
      "lon": "-8.220856804487402",
      "lat": "39.93757373583727"
    }
  ]
}