{
  "data": {
    "distrito": "Viseu",
    "concelho": "Moimenta da Beira",
    "freguesia": "Moimenta da Beira",
    "OBJECTID": 137,
    "BGRI2021": "18071000313",
    "DT21": "18",
    "DTMN21": "1807",
    "DTMNFR21": "180710",
    "DTMNFRSEC21": "180710003",
    "SECNUM21": "003",
    "SSNUM21": "13",
    "SECSSNUM21": "00313",
    "OBJECTID_1": 192394,
    "DT": "18",
    "CC": "07",
    "fr": "10",
    "SEC": "003",
    "SS": "13"
  },
  "addresses": [
    {
      "id": "pt.ine.add.PTCONT.5432296",
      "street": "R ALTO DO FACHO",
      "house": "",
      "postcode": "3620-301",
      "city": "MOIMENTA DA BEIRA",
      "lon": "-7.6218434255350545",
      "lat": "40.98684495430996"
    },
    {
      "id": "pt.ine.add.PTCONT.5432297",
      "street": "R ALTO DO FACHO",
      "house": "",
      "postcode": "3620-301",
      "city": "MOIMENTA DA BEIRA",
      "lon": "-7.6218434255350545",
      "lat": "40.98684495430996"
    },
    {
      "id": "pt.ine.add.PTCONT.5432298",
      "street": "R ALTO DO FACHO",
      "house": "",
      "postcode": "3620-301",
      "city": "MOIMENTA DA BEIRA",
      "lon": "-7.6218434255350545",
      "lat": "40.98684495430996"
    },
    {
      "id": "pt.ine.add.PTCONT.5432299",
      "street": "R ALTO DO FACHO",
      "house": "",
      "postcode": "3620-301",
      "city": "MOIMENTA DA BEIRA",
      "lon": "-7.6218434255350545",
      "lat": "40.98684495430996"
    },
    {
      "id": "pt.ine.add.PTCONT.5432300",
      "street": "R ALTO DO FACHO",
      "house": "",
      "postcode": "3620-301",
      "city": "MOIMENTA DA BEIRA",
      "lon": "-7.6218434255350545",
      "lat": "40.98684495430996"
    },
    {
      "id": "pt.ine.add.PTCONT.5457996",
      "street": "COVAS DO BARRO",
      "house": "",
      "postcode": "3624-001",
      "city": "MOIMENTA DA BEIRA",
      "lon": "-7.6210526415928745",
      "lat": "40.98614808980165"
    },
    {
      "id": "pt.ine.add.PTCONT.5473503",
      "street": "R ALTO FACHO",
      "house": "",
      "postcode": "3620-301",
      "city": "MOIMENTA DA BEIRA",
      "lon": "-7.621629256882006",
      "lat": "40.98688002269391"
    },
    {
      "id": "pt.ine.add.PTCONT.5473504",
      "street": "R ALTO DO FACHO",
      "house": "BL A",
      "postcode": "3620-301",
      "city": "MOIMENTA DA BEIRA",
      "lon": "-7.621629256882006",
      "lat": "40.98688002269391"
    },
    {
      "id": "pt.ine.add.PTCONT.5473505",
      "street": "R ALTO DO FACHO",
      "house": "BL A",
      "postcode": "3620-301",
      "city": "MOIMENTA DA BEIRA",
      "lon": "-7.621629256882006",
      "lat": "40.98688002269391"
    },
    {
      "id": "pt.ine.add.PTCONT.5473506",
      "street": "R ALTO FACHO",
      "house": "",
      "postcode": "3620-301",
      "city": "MOIMENTA DA BEIRA",
      "lon": "-7.621629256882006",
      "lat": "40.98688002269391"
    },
    {
      "id": "pt.ine.add.PTCONT.5473507",
      "street": "R ALTO FACHO",
      "house": "",
      "postcode": "3620-301",
      "city": "MOIMENTA DA BEIRA",
      "lon": "-7.621629256882006",
      "lat": "40.98688002269391"
    },
    {
      "id": "pt.ine.add.PTCONT.5473508",
      "street": "R ALTO FACHO",
      "house": "",
      "postcode": "3620-301",
      "city": "MOIMENTA DA BEIRA",
      "lon": "-7.621629256882006",
      "lat": "40.98688002269391"
    },
    {
      "id": "pt.ine.add.PTCONT.5481447",
      "street": "ALDEIA DE NACOMBA",
      "house": "",
      "postcode": "3624-001",
      "city": "MOIMENTA DA BEIRA",
      "lon": "-7.620837917332484",
      "lat": "40.9862551911056"
    },
    {
      "id": "pt.ine.add.PTCONT.5530386",
      "street": "AV COMEND ACÁCIO OSÓRIO",
      "house": "9",
      "postcode": "3620-388",
      "city": "MOIMENTA DA BEIRA",
      "lon": "-7.620814082267299",
      "lat": "40.986264089793195"
    },
    {
      "id": "pt.ine.add.PTCONT.5571368",
      "street": "AV EXTERNATO INF D HENRIQUE",
      "house": "61",
      "postcode": "3620-389",
      "city": "MOIMENTA DA BEIRA",
      "lon": "-7.6205850344149875",
      "lat": "40.98668628817471"
    },
    {
      "id": "pt.ine.add.PTCONT.5571369",
      "street": "AV EXTERNATO INF D HENRIQUE",
      "house": "61",
      "postcode": "3620-389",
      "city": "MOIMENTA DA BEIRA",
      "lon": "-7.6205850344149875",
      "lat": "40.98668628817471"
    },
    {
      "id": "pt.ine.add.PTCONT.5571370",
      "street": "AV EXTERNATO INF D HENRIQUE",
      "house": "61",
      "postcode": "3620-389",
      "city": "MOIMENTA DA BEIRA",
      "lon": "-7.6205850344149875",
      "lat": "40.98668628817471"
    },
    {
      "id": "pt.ine.add.PTCONT.5571371",
      "street": "AV EXTERNATO INF D HENRIQUE",
      "house": "61",
      "postcode": "3620-389",
      "city": "MOIMENTA DA BEIRA",
      "lon": "-7.6205850344149875",
      "lat": "40.98668628817471"
    },
    {
      "id": "pt.ine.add.PTCONT.5572540",
      "street": "AV EXTERNATO INF D HENRIQUE",
      "house": "61",
      "postcode": "3620-389",
      "city": "MOIMENTA DA BEIRA",
      "lon": "-7.6205850344149875",
      "lat": "40.98668628817471"
    },
    {
      "id": "pt.ine.add.PTCONT.5572623",
      "street": "AV EXTERNATO INF D HENRIQUE",
      "house": "61",
      "postcode": "3620-389",
      "city": "MOIMENTA DA BEIRA",
      "lon": "-7.6205850344149875",
      "lat": "40.98668628817471"
    },
    {
      "id": "pt.ine.add.PTCONT.5595580",
      "street": "AV COMEND ACÁCIO OSÓRIO",
      "house": "3",
      "postcode": "3620-388",
      "city": "MOIMENTA DA BEIRA",
      "lon": "-7.620551826407755",
      "lat": "40.98637097932424"
    },
    {
      "id": "pt.ine.add.PTCONT.5595581",
      "street": "AV COMEND ACÁCIO OSÓRIO",
      "house": "19",
      "postcode": "3620-388",
      "city": "MOIMENTA DA BEIRA",
      "lon": "-7.6213027346400075",
      "lat": "40.986077163553254"
    },
    {
      "id": "pt.ine.add.PTCONT.5616031",
      "street": "AV COMEND ACÁCIO OSÓRIO",
      "house": "7",
      "postcode": "3620-388",
      "city": "MOIMENTA DA BEIRA",
      "lon": "-7.620730624640193",
      "lat": "40.98629973730882"
    },
    {
      "id": "pt.ine.add.PTCONT.5617564",
      "street": "AV EXTERNATO INF D HENRIQUE URB SOL NASCENTE",
      "house": "",
      "postcode": "3620-389",
      "city": "MOIMENTA DA BEIRA",
      "lon": "-7.620193740396202",
      "lat": "40.986576492581044"
    },
    {
      "id": "pt.ine.add.PTCONT.5617576",
      "street": "AV EXTERNATO INF D HENRIQUE URB SOL NASCENTE",
      "house": "",
      "postcode": "3620-389",
      "city": "MOIMENTA DA BEIRA",
      "lon": "-7.620193740396202",
      "lat": "40.986576492581044"
    },
    {
      "id": "pt.ine.add.PTCONT.5618920",
      "street": "AV EXTERNATO INF D HENRIQUE URB SOL NASCENTE",
      "house": "",
      "postcode": "3620-389",
      "city": "MOIMENTA DA BEIRA",
      "lon": "-7.620193740396202",
      "lat": "40.986576492581044"
    },
    {
      "id": "pt.ine.add.PTCONT.5619472",
      "street": "AV COMEND ACÁCIO OSÓRIO",
      "house": "11",
      "postcode": "3620-388",
      "city": "MOIMENTA DA BEIRA",
      "lon": "-7.6209213051747415",
      "lat": "40.98622854780821"
    },
    {
      "id": "pt.ine.add.PTCONT.5619473",
      "street": "AV COMEND ACÁCIO OSÓRIO",
      "house": "17",
      "postcode": "3620-388",
      "city": "MOIMENTA DA BEIRA",
      "lon": "-7.621207394844439",
      "lat": "40.9861127586623"
    },
    {
      "id": "pt.ine.add.PTCONT.5621307",
      "street": "AV COMEND ACÁCIO OSÓRIO",
      "house": "5",
      "postcode": "3620-388",
      "city": "MOIMENTA DA BEIRA",
      "lon": "-7.620647166923621",
      "lat": "40.98633538476326"
    },
    {
      "id": "pt.ine.add.PTCONT.5630390",
      "street": "R ALTO DO FACHO",
      "house": "",
      "postcode": "3620-301",
      "city": "MOIMENTA DA BEIRA",
      "lon": "-7.621785611320117",
      "lat": "40.986637591955926"
    },
    {
      "id": "pt.ine.add.PTCONT.5630391",
      "street": "R ALTO DO FACHO",
      "house": "",
      "postcode": "3620-301",
      "city": "MOIMENTA DA BEIRA",
      "lon": "-7.621785611320117",
      "lat": "40.986637591955926"
    },
    {
      "id": "pt.ine.add.PTCONT.5630392",
      "street": "R ALTO DO FACHO",
      "house": "",
      "postcode": "3620-301",
      "city": "MOIMENTA DA BEIRA",
      "lon": "-7.621785611320117",
      "lat": "40.986637591955926"
    },
    {
      "id": "pt.ine.add.PTCONT.5630393",
      "street": "R ALTO DO FACHO",
      "house": "",
      "postcode": "3620-301",
      "city": "MOIMENTA DA BEIRA",
      "lon": "-7.621785611320117",
      "lat": "40.986637591955926"
    },
    {
      "id": "pt.ine.add.PTCONT.5630394",
      "street": "R ALTO DO FACHO",
      "house": "",
      "postcode": "3620-301",
      "city": "MOIMENTA DA BEIRA",
      "lon": "-7.621785611320117",
      "lat": "40.986637591955926"
    },
    {
      "id": "pt.ine.add.PTCONT.5630395",
      "street": "R ALTO DO FACHO",
      "house": "",
      "postcode": "3620-301",
      "city": "MOIMENTA DA BEIRA",
      "lon": "-7.621785611320117",
      "lat": "40.986637591955926"
    },
    {
      "id": "pt.ine.add.PTCONT.5630396",
      "street": "R ALTO DO FACHO",
      "house": "",
      "postcode": "3620-301",
      "city": "MOIMENTA DA BEIRA",
      "lon": "-7.621785611320117",
      "lat": "40.986637591955926"
    },
    {
      "id": "pt.ine.add.PTCONT.5630397",
      "street": "R ALTO DO FACHO",
      "house": "",
      "postcode": "3620-301",
      "city": "MOIMENTA DA BEIRA",
      "lon": "-7.621785611320117",
      "lat": "40.986637591955926"
    },
    {
      "id": "pt.ine.add.PTCONT.5630789",
      "street": "AV EXTERNATO INF D HENRIQUE",
      "house": "",
      "postcode": "3620-389",
      "city": "MOIMENTA DA BEIRA",
      "lon": "-7.620383445863731",
      "lat": "40.986631364118075"
    },
    {
      "id": "pt.ine.add.PTCONT.5630790",
      "street": "AV EXTERNATO INF D HENRIQUE",
      "house": "",
      "postcode": "3620-389",
      "city": "MOIMENTA DA BEIRA",
      "lon": "-7.620383445863731",
      "lat": "40.986631364118075"
    },
    {
      "id": "pt.ine.add.PTCONT.5630791",
      "street": "AV EXTERNATO INF D HENRIQUE",
      "house": "",
      "postcode": "3620-389",
      "city": "MOIMENTA DA BEIRA",
      "lon": "-7.620383445863731",
      "lat": "40.986631364118075"
    },
    {
      "id": "pt.ine.add.PTCONT.5630792",
      "street": "AV EXTERNATO INF D HENRIQUE",
      "house": "",
      "postcode": "3620-389",
      "city": "MOIMENTA DA BEIRA",
      "lon": "-7.620383445863731",
      "lat": "40.986631364118075"
    },
    {
      "id": "pt.ine.add.PTCONT.5630793",
      "street": "AV EXTERNATO INF D HENRIQUE",
      "house": "",
      "postcode": "3620-389",
      "city": "MOIMENTA DA BEIRA",
      "lon": "-7.620383445863731",
      "lat": "40.986631364118075"
    },
    {
      "id": "pt.ine.add.PTCONT.5632277",
      "street": "AV EXTERNATO INF D HENRIQUE",
      "house": "",
      "postcode": "3620-389",
      "city": "MOIMENTA DA BEIRA",
      "lon": "-7.620383445863731",
      "lat": "40.986631364118075"
    },
    {
      "id": "pt.ine.add.PTCONT.5662559",
      "street": "R ALTO DO FACHO",
      "house": "",
      "postcode": "3620-301",
      "city": "MOIMENTA DA BEIRA",
      "lon": "-7.6218434255350545",
      "lat": "40.98684495430996"
    },
    {
      "id": "pt.ine.add.PTCONT.5668242",
      "street": "AV COMEND ACÁCIO OSÓRIO",
      "house": "1",
      "postcode": "3620-388",
      "city": "MOIMENTA DA BEIRA",
      "lon": "-7.620444533337191",
      "lat": "40.98641552525805"
    }
  ]
}