{
  "data": {
    "distrito": "Viseu",
    "concelho": "Cinfães",
    "freguesia": "Nespereira",
    "OBJECTID": 36,
    "BGRI2021": "18040900318",
    "DT21": "18",
    "DTMN21": "1804",
    "DTMNFR21": "180409",
    "DTMNFRSEC21": "180409003",
    "SECNUM21": "003",
    "SSNUM21": "18",
    "SECSSNUM21": "00318",
    "OBJECTID_1": 190066,
    "DT": "18",
    "CC": "04",
    "fr": "09",
    "SEC": "003",
    "SS": "18"
  },
  "addresses": [
    {
      "id": "pt.ine.add.PTCONT.5430754",
      "street": "R PERTENCA",
      "house": "",
      "postcode": "4690-374",
      "city": "NESPEREIRA CNF",
      "lon": "-8.153170853882644",
      "lat": "40.99858440148025"
    },
    {
      "id": "pt.ine.add.PTCONT.5432483",
      "street": "R SOBRAIS",
      "house": "41",
      "postcode": "4690-390",
      "city": "NESPEREIRA CNF",
      "lon": "-8.150318351231952",
      "lat": "40.99853983944425"
    },
    {
      "id": "pt.ine.add.PTCONT.5454677",
      "street": "R CIMO DO LUGAR",
      "house": "",
      "postcode": "4690-361",
      "city": "NESPEREIRA CNF",
      "lon": "-8.152231159485519",
      "lat": "40.99599122486386"
    },
    {
      "id": "pt.ine.add.PTCONT.5460588",
      "street": "R CRUZEIRO",
      "house": "85",
      "postcode": "4690-361",
      "city": "NESPEREIRA CNF",
      "lon": "-8.153372152496352",
      "lat": "40.99612609957254"
    },
    {
      "id": "pt.ine.add.PTCONT.5474517",
      "street": "R PERTENCA",
      "house": "52",
      "postcode": "4690-374",
      "city": "NESPEREIRA CNF",
      "lon": "-8.15273048070029",
      "lat": "40.99651341016833"
    },
    {
      "id": "pt.ine.add.PTCONT.5486760",
      "street": "R PERTENCA",
      "house": "",
      "postcode": "4690-374",
      "city": "NESPEREIRA CNF",
      "lon": "-8.154715747277944",
      "lat": "40.99795379756303"
    },
    {
      "id": "pt.ine.add.PTCONT.5495553",
      "street": "R PERTENCA",
      "house": "511",
      "postcode": "4690-374",
      "city": "NESPEREIRA CNF",
      "lon": "-8.152017480640962",
      "lat": "40.99686471032621"
    },
    {
      "id": "pt.ine.add.PTCONT.5496445",
      "street": "R LOUROSA",
      "house": "343",
      "postcode": "4690-361",
      "city": "NESPEREIRA CNF",
      "lon": "-8.15399043349762",
      "lat": "40.99696342086131"
    },
    {
      "id": "pt.ine.add.PTCONT.5533665",
      "street": "R LOUROSA",
      "house": "472",
      "postcode": "4690-361",
      "city": "NESPEREIRA CNF",
      "lon": "-8.154121186617344",
      "lat": "40.99701742494448"
    },
    {
      "id": "pt.ine.add.PTCONT.5542060",
      "street": "R PERTENCA",
      "house": "",
      "postcode": "4690-374",
      "city": "NESPEREIRA CNF",
      "lon": "-8.154893958070575",
      "lat": "40.99774665732139"
    },
    {
      "id": "pt.ine.add.PTCONT.5578443",
      "street": "R TAPADINHOS",
      "house": "",
      "postcode": "4690-374",
      "city": "NESPEREIRA CNF",
      "lon": "-8.150151928205196",
      "lat": "40.998431808511995"
    },
    {
      "id": "pt.ine.add.PTCONT.5593365",
      "street": "R PERTENCA",
      "house": "",
      "postcode": "4690-374",
      "city": "NESPEREIRA CNF",
      "lon": "-8.152766044771354",
      "lat": "40.996207246298766"
    },
    {
      "id": "pt.ine.add.PTCONT.5596996",
      "street": "R LOUROSA",
      "house": "51",
      "postcode": "4690-361",
      "city": "NESPEREIRA CNF",
      "lon": "-8.152516553218287",
      "lat": "40.996522451025214"
    },
    {
      "id": "pt.ine.add.PTCONT.5615577",
      "street": "R PERTENCA",
      "house": "45",
      "postcode": "4690-374",
      "city": "NESPEREIRA CNF",
      "lon": "-8.15469182401365",
      "lat": "40.99748556079914"
    },
    {
      "id": "pt.ine.add.PTCONT.5626988",
      "street": "R PERTENCA",
      "house": "52",
      "postcode": "4690-374",
      "city": "NESPEREIRA CNF",
      "lon": "-8.153313239209982",
      "lat": "40.99780097305283"
    },
    {
      "id": "pt.ine.add.PTCONT.5632545",
      "street": "R CALÇADA",
      "house": "104",
      "postcode": "4690-361",
      "city": "NESPEREIRA CNF",
      "lon": "-8.152124195267811",
      "lat": "40.99599124255801"
    },
    {
      "id": "pt.ine.add.PTCONT.5653492",
      "street": "R PARAMOS",
      "house": "139",
      "postcode": "4690-374",
      "city": "NESPEREIRA CNF",
      "lon": "-8.151007607747157",
      "lat": "40.998188553585884"
    },
    {
      "id": "pt.ine.add.PTCONT.5667091",
      "street": "R PERTENCA",
      "house": "100",
      "postcode": "4690-374",
      "city": "NESPEREIRA CNF",
      "lon": "-8.153515282702429",
      "lat": "40.99778292818443"
    }
  ]
}