{
  "data": {
    "distrito": "Viseu",
    "concelho": "Cinfães",
    "freguesia": "Nespereira",
    "OBJECTID": 23,
    "BGRI2021": "18040900331",
    "DT21": "18",
    "DTMN21": "1804",
    "DTMNFR21": "180409",
    "DTMNFRSEC21": "180409003",
    "SECNUM21": "003",
    "SSNUM21": "31",
    "SECSSNUM21": "00331",
    "OBJECTID_1": 190255,
    "DT": "18",
    "CC": "04",
    "fr": "09",
    "SEC": "003",
    "SS": "31"
  },
  "addresses": [
    {
      "id": "pt.ine.add.PTCONT.5430834",
      "street": "R COMÉRCIO",
      "house": "",
      "postcode": "4690-363",
      "city": "NESPEREIRA CNF",
      "lon": "-8.172771870876925",
      "lat": "41.001965066509214"
    },
    {
      "id": "pt.ine.add.PTCONT.5445530",
      "street": "R SOUTO",
      "house": "127",
      "postcode": "4690-391",
      "city": "NESPEREIRA CNF",
      "lon": "-8.168457426936612",
      "lat": "41.00228163241403"
    },
    {
      "id": "pt.ine.add.PTCONT.5447413",
      "street": "R COMÉRCIO",
      "house": "230",
      "postcode": "4690-363",
      "city": "NESPEREIRA CNF",
      "lon": "-8.174613763384585",
      "lat": "41.00127106129536"
    },
    {
      "id": "pt.ine.add.PTCONT.5469123",
      "street": "R COMÉRCIO",
      "house": "4",
      "postcode": "4690-363",
      "city": "NESPEREIRA CNF",
      "lon": "-8.172118210778143",
      "lat": "41.00208234978846"
    },
    {
      "id": "pt.ine.add.PTCONT.5469124",
      "street": "R COMÉRCIO",
      "house": "4",
      "postcode": "4690-363",
      "city": "NESPEREIRA CNF",
      "lon": "-8.172118210778143",
      "lat": "41.00208234978846"
    },
    {
      "id": "pt.ine.add.PTCONT.5469125",
      "street": "R COMÉRCIO",
      "house": "4",
      "postcode": "4690-363",
      "city": "NESPEREIRA CNF",
      "lon": "-8.172118210778143",
      "lat": "41.00208234978846"
    },
    {
      "id": "pt.ine.add.PTCONT.5469126",
      "street": "R COMÉRCIO",
      "house": "4",
      "postcode": "4690-363",
      "city": "NESPEREIRA CNF",
      "lon": "-8.172118210778143",
      "lat": "41.00208234978846"
    },
    {
      "id": "pt.ine.add.PTCONT.5469127",
      "street": "R COMÉRCIO",
      "house": "4",
      "postcode": "4690-363",
      "city": "NESPEREIRA CNF",
      "lon": "-8.172118210778143",
      "lat": "41.00208234978846"
    },
    {
      "id": "pt.ine.add.PTCONT.5469128",
      "street": "R COMÉRCIO",
      "house": "4",
      "postcode": "4690-363",
      "city": "NESPEREIRA CNF",
      "lon": "-8.172118210778143",
      "lat": "41.00208234978846"
    },
    {
      "id": "pt.ine.add.PTCONT.5469161",
      "street": "R FUNDO DE VILA",
      "house": "214",
      "postcode": "4690-351",
      "city": "NESPEREIRA CNF",
      "lon": "-8.17050071657562",
      "lat": "41.0003179776108"
    },
    {
      "id": "pt.ine.add.PTCONT.5492893",
      "street": "LG PELOURINHO",
      "house": "70",
      "postcode": "4690-363",
      "city": "NESPEREIRA CNF",
      "lon": "-8.175718962682076",
      "lat": "41.00098250978253"
    },
    {
      "id": "pt.ine.add.PTCONT.5492894",
      "street": "R ARDENA EIRO",
      "house": "312",
      "postcode": "4690-351",
      "city": "NESPEREIRA CNF",
      "lon": "-8.169835627870695",
      "lat": "41.001236664136826"
    },
    {
      "id": "pt.ine.add.PTCONT.5492895",
      "street": "CAM FUNDO DE VILA",
      "house": "15",
      "postcode": "4690-351",
      "city": "NESPEREIRA CNF",
      "lon": "-8.170536444954609",
      "lat": "41.000444030905676"
    },
    {
      "id": "pt.ine.add.PTCONT.5499720",
      "street": "R COMÉRCIO",
      "house": "",
      "postcode": "4690-363",
      "city": "NESPEREIRA CNF",
      "lon": "-8.175291073628385",
      "lat": "41.00098266715519"
    },
    {
      "id": "pt.ine.add.PTCONT.5499721",
      "street": "R PORTELA",
      "house": "",
      "postcode": "4690-379",
      "city": "NESPEREIRA CNF",
      "lon": "-8.172843354432723",
      "lat": "41.00224418549073"
    },
    {
      "id": "pt.ine.add.PTCONT.5499734",
      "street": "R FUNDO",
      "house": "23",
      "postcode": "4690-351",
      "city": "NESPEREIRA CNF",
      "lon": "-8.170417653854448",
      "lat": "41.000561129666565"
    },
    {
      "id": "pt.ine.add.PTCONT.5518516",
      "street": "R COMÉRCIO",
      "house": "",
      "postcode": "4690-363",
      "city": "NESPEREIRA CNF",
      "lon": "-8.174982099633246",
      "lat": "41.00107282614381"
    },
    {
      "id": "pt.ine.add.PTCONT.5533568",
      "street": "R PORTELA",
      "house": "138",
      "postcode": "4690-379",
      "city": "NESPEREIRA CNF",
      "lon": "-8.171191019439545",
      "lat": "41.00193858571159"
    },
    {
      "id": "pt.ine.add.PTCONT.5547599",
      "street": "R COMÉRCIO",
      "house": "25",
      "postcode": "4690-363",
      "city": "NESPEREIRA CNF",
      "lon": "-8.174756308667494",
      "lat": "41.00113594037829"
    },
    {
      "id": "pt.ine.add.PTCONT.5567092",
      "street": "R FUNDO",
      "house": "18",
      "postcode": "4690-363",
      "city": "NESPEREIRA CNF",
      "lon": "-8.17046515102511",
      "lat": "41.000480072571165"
    },
    {
      "id": "pt.ine.add.PTCONT.5567532",
      "street": "R COMÉRCIO",
      "house": "",
      "postcode": "4690-363",
      "city": "NESPEREIRA CNF",
      "lon": "-8.174304848794598",
      "lat": "41.00146026940952"
    },
    {
      "id": "pt.ine.add.PTCONT.5571557",
      "street": "R COMÉRCIO",
      "house": "426",
      "postcode": "4690-363",
      "city": "NESPEREIRA CNF",
      "lon": "-8.171523863462157",
      "lat": "41.002001507697976"
    },
    {
      "id": "pt.ine.add.PTCONT.5588256",
      "street": "R COMÉRCIO",
      "house": "16",
      "postcode": "4690-363",
      "city": "NESPEREIRA CNF",
      "lon": "-8.172427155935257",
      "lat": "41.001929166073374"
    },
    {
      "id": "pt.ine.add.PTCONT.5588257",
      "street": "R COMÉRCIO",
      "house": "16",
      "postcode": "4690-363",
      "city": "NESPEREIRA CNF",
      "lon": "-8.172427155935257",
      "lat": "41.001929166073374"
    },
    {
      "id": "pt.ine.add.PTCONT.5588258",
      "street": "R COMÉRCIO",
      "house": "16",
      "postcode": "4690-363",
      "city": "NESPEREIRA CNF",
      "lon": "-8.172427155935257",
      "lat": "41.001929166073374"
    },
    {
      "id": "pt.ine.add.PTCONT.5588259",
      "street": "R COMÉRCIO",
      "house": "16",
      "postcode": "4690-363",
      "city": "NESPEREIRA CNF",
      "lon": "-8.172427155935257",
      "lat": "41.001929166073374"
    },
    {
      "id": "pt.ine.add.PTCONT.5593423",
      "street": "R PORTELA",
      "house": "",
      "postcode": "4690-379",
      "city": "NESPEREIRA CNF",
      "lon": "-8.169693390993219",
      "lat": "41.00194807538161"
    },
    {
      "id": "pt.ine.add.PTCONT.5595392",
      "street": "R PORTELA",
      "house": "",
      "postcode": "4690-379",
      "city": "NESPEREIRA CNF",
      "lon": "-8.170965144610278",
      "lat": "41.00186662305097"
    },
    {
      "id": "pt.ine.add.PTCONT.5617099",
      "street": "R FUNDO",
      "house": "33",
      "postcode": "4690-351",
      "city": "NESPEREIRA CNF",
      "lon": "-8.170393912837238",
      "lat": "41.00061516515602"
    },
    {
      "id": "pt.ine.add.PTCONT.5621186",
      "street": "R COMÉRCIO",
      "house": "10",
      "postcode": "4690-363",
      "city": "NESPEREIRA CNF",
      "lon": "-8.172237028224348",
      "lat": "41.00201027245942"
    },
    {
      "id": "pt.ine.add.PTCONT.5621187",
      "street": "R COMÉRCIO",
      "house": "10",
      "postcode": "4690-363",
      "city": "NESPEREIRA CNF",
      "lon": "-8.172237028224348",
      "lat": "41.00201027245942"
    },
    {
      "id": "pt.ine.add.PTCONT.5621206",
      "street": "R COMÉRCIO",
      "house": "10",
      "postcode": "4690-363",
      "city": "NESPEREIRA CNF",
      "lon": "-8.172237028224348",
      "lat": "41.00201027245942"
    },
    {
      "id": "pt.ine.add.PTCONT.5621207",
      "street": "R COMÉRCIO",
      "house": "10",
      "postcode": "4690-363",
      "city": "NESPEREIRA CNF",
      "lon": "-8.172237028224348",
      "lat": "41.00201027245942"
    },
    {
      "id": "pt.ine.add.PTCONT.5638300",
      "street": "R COMÉRCIO",
      "house": "",
      "postcode": "4690-363",
      "city": "NESPEREIRA CNF",
      "lon": "-8.17558814942704",
      "lat": "41.000874502454096"
    },
    {
      "id": "pt.ine.add.PTCONT.5645863",
      "street": "R PORTELA",
      "house": "164",
      "postcode": "4690-379",
      "city": "NESPEREIRA CNF",
      "lon": "-8.171072154478148",
      "lat": "41.00192962028674"
    },
    {
      "id": "pt.ine.add.PTCONT.5650565",
      "street": "R ARDENA",
      "house": "276",
      "postcode": "4690-351",
      "city": "NESPEREIRA CNF",
      "lon": "-8.170726805762758",
      "lat": "41.00077714042213"
    },
    {
      "id": "pt.ine.add.PTCONT.5653379",
      "street": "R ARDENA EIRO",
      "house": "312",
      "postcode": "4690-351",
      "city": "NESPEREIRA CNF",
      "lon": "-8.169859514621058",
      "lat": "41.00144376309418"
    },
    {
      "id": "pt.ine.add.PTCONT.5657361",
      "street": "R JOAQUIM RIBEIRO",
      "house": "",
      "postcode": "4690-363",
      "city": "NESPEREIRA CNF",
      "lon": "-8.17576656396789",
      "lat": "41.00107253851607"
    },
    {
      "id": "pt.ine.add.PTCONT.5660639",
      "street": "R JOAQUIM RIBEIRO",
      "house": "",
      "postcode": "4690-363",
      "city": "NESPEREIRA CNF",
      "lon": "-8.175469516399335",
      "lat": "41.00122572683102"
    }
  ]
}