{
  "data": {
    "distrito": "Lisboa",
    "concelho": "Torres Vedras",
    "freguesia": "União das freguesias de Dois Portos e Runa",
    "OBJECTID": 1773,
    "BGRI2021": "11132400311",
    "DT21": "11",
    "DTMN21": "1113",
    "DTMNFR21": "111324",
    "DTMNFRSEC21": "111324003",
    "SECNUM21": "003",
    "SSNUM21": "11",
    "SECSSNUM21": "00311",
    "OBJECTID_1": 116318,
    "DT": "11",
    "CC": "13",
    "fr": "24",
    "SEC": "003",
    "SS": "11"
  },
  "addresses": [
    {
      "id": "pt.ine.add.PTCONT.2275587",
      "street": "TV D AUZENDA",
      "house": "2",
      "postcode": "2565-182",
      "city": "DOIS PORTOS",
      "lon": "-9.177347880898408",
      "lat": "39.022586023331925"
    },
    {
      "id": "pt.ine.add.PTCONT.2363555",
      "street": "LG ASSOCIAÇÃO",
      "house": "5",
      "postcode": "2565-182",
      "city": "DOIS PORTOS",
      "lon": "-9.177652704766343",
      "lat": "39.022898553185726"
    },
    {
      "id": "pt.ine.add.PTCONT.2428508",
      "street": "R FONTE DA LAGE",
      "house": "11",
      "postcode": "2565-182",
      "city": "DOIS PORTOS",
      "lon": "-9.176737819345979",
      "lat": "39.02271758687145"
    },
    {
      "id": "pt.ine.add.PTCONT.2553898",
      "street": "R ESCOLA ANTIGA",
      "house": "1",
      "postcode": "2565-182",
      "city": "DOIS PORTOS",
      "lon": "-9.177564713332815",
      "lat": "39.023196585426895"
    },
    {
      "id": "pt.ine.add.PTCONT.2590943",
      "street": "R FONTE DA LAGE",
      "house": "",
      "postcode": "2565-182",
      "city": "DOIS PORTOS",
      "lon": "-9.176957847961114",
      "lat": "39.022760655066065"
    },
    {
      "id": "pt.ine.add.PTCONT.2592649",
      "street": "R PROF PIEDADE DIOGO",
      "house": "2",
      "postcode": "2565-182",
      "city": "DOIS PORTOS",
      "lon": "-9.177735114772412",
      "lat": "39.02300590402017"
    },
    {
      "id": "pt.ine.add.PTCONT.2598618",
      "street": "R PROF PIEDADE DIOGO",
      "house": "9",
      "postcode": "2565-182",
      "city": "DOIS PORTOS",
      "lon": "-9.178058127505945",
      "lat": "39.02298499596886"
    },
    {
      "id": "pt.ine.add.PTCONT.2607505",
      "street": "R PROF PIEDADE DIOGO",
      "house": "6",
      "postcode": "2565-182",
      "city": "DOIS PORTOS",
      "lon": "-9.177851631728089",
      "lat": "39.02307691970026"
    },
    {
      "id": "pt.ine.add.PTCONT.2623855",
      "street": "R PROF PIEDADE DIOGO",
      "house": "5",
      "postcode": "2565-182",
      "city": "DOIS PORTOS",
      "lon": "-9.177930727767148",
      "lat": "39.02295911499273"
    },
    {
      "id": "pt.ine.add.PTCONT.2645618",
      "street": "R ESCOLA ANTIGA",
      "house": "2",
      "postcode": "2565-182",
      "city": "DOIS PORTOS",
      "lon": "-9.177714674519272",
      "lat": "39.02318623514075"
    },
    {
      "id": "pt.ine.add.PTCONT.2679631",
      "street": "LG ASSOCIAÇÃO",
      "house": "1",
      "postcode": "2565-182",
      "city": "DOIS PORTOS",
      "lon": "-9.177095600375369",
      "lat": "39.02270537781371"
    },
    {
      "id": "pt.ine.add.PTCONT.2777089",
      "street": "R PROF PIEDADE DIOGO",
      "house": "11",
      "postcode": "2565-182",
      "city": "DOIS PORTOS",
      "lon": "-9.177910420599291",
      "lat": "39.02314845235761"
    },
    {
      "id": "pt.ine.add.PTCONT.2812432",
      "street": "R AMOREIRAS",
      "house": "5",
      "postcode": "2565-182",
      "city": "DOIS PORTOS",
      "lon": "-9.17817331864795",
      "lat": "39.022965949172054"
    },
    {
      "id": "pt.ine.add.PTCONT.2822637",
      "street": "BC JERONIMO",
      "house": "1",
      "postcode": "2565-182",
      "city": "DOIS PORTOS",
      "lon": "-9.178013668619558",
      "lat": "39.0231024904845"
    },
    {
      "id": "pt.ine.add.PTCONT.2878793",
      "street": "TV D AUZENDA",
      "house": "1",
      "postcode": "2565-182",
      "city": "DOIS PORTOS",
      "lon": "-9.177139398174752",
      "lat": "39.022542852529206"
    },
    {
      "id": "pt.ine.add.PTCONT.2884410",
      "street": "R FONTE DA LAGE",
      "house": "",
      "postcode": "2565-182",
      "city": "DOIS PORTOS",
      "lon": "-9.17703879965131",
      "lat": "39.0227689380059"
    },
    {
      "id": "pt.ine.add.PTCONT.2915187",
      "street": "LG ASSOCIAÇÃO",
      "house": "4",
      "postcode": "2565-182",
      "city": "DOIS PORTOS",
      "lon": "-9.177513627176218",
      "lat": "39.022863768922434"
    },
    {
      "id": "pt.ine.add.PTCONT.2950401",
      "street": "LG ASSOCIAÇÃO",
      "house": "3",
      "postcode": "2565-182",
      "city": "DOIS PORTOS",
      "lon": "-9.177397243415832",
      "lat": "39.022801759110344"
    },
    {
      "id": "pt.ine.add.PTCONT.2995369",
      "street": "R PROF PIEDADE DIOGO",
      "house": "13",
      "postcode": "2565-182",
      "city": "DOIS PORTOS",
      "lon": "-9.177853885407911",
      "lat": "39.02323002536802"
    },
    {
      "id": "pt.ine.add.PTCONT.2995375",
      "street": "R FONTE DA LAGE",
      "house": "5",
      "postcode": "2565-182",
      "city": "DOIS PORTOS",
      "lon": "-9.176390789478862",
      "lat": "39.02267565424459"
    },
    {
      "id": "pt.ine.add.PTCONT.3004243",
      "street": "R NSA SRA DAS NECESSIDADES",
      "house": "3",
      "postcode": "2565-182",
      "city": "DOIS PORTOS",
      "lon": "-9.177204810146089",
      "lat": "39.02306469647329"
    },
    {
      "id": "pt.ine.add.PTCONT.3097596",
      "street": "R FONTE DA LAGE",
      "house": "",
      "postcode": "2565-182",
      "city": "DOIS PORTOS",
      "lon": "-9.176807357800651",
      "lat": "39.022734979491624"
    },
    {
      "id": "pt.ine.add.PTCONT.3105825",
      "street": "R FONTE DA LAGE",
      "house": "19",
      "postcode": "2565-182",
      "city": "DOIS PORTOS",
      "lon": "-9.177096660147024",
      "lat": "39.0227774275622"
    },
    {
      "id": "pt.ine.add.PTCONT.3134464",
      "street": "TV D AUZENDA",
      "house": "1A",
      "postcode": "2565-182",
      "city": "DOIS PORTOS",
      "lon": "-9.17716381410262",
      "lat": "39.02263270803492"
    },
    {
      "id": "pt.ine.add.PTCONT.3196243",
      "street": "R AMOREIRAS",
      "house": "3",
      "postcode": "2565-182",
      "city": "DOIS PORTOS",
      "lon": "-9.178220562101027",
      "lat": "39.02303758511315"
    },
    {
      "id": "pt.ine.add.PTCONT.3218034",
      "street": "CC DRT DARGANT",
      "house": "6A",
      "postcode": "2565-182",
      "city": "DOIS PORTOS",
      "lon": "-9.177959254915613",
      "lat": "39.023328162988065"
    },
    {
      "id": "pt.ine.add.PTCONT.3218037",
      "street": "R FONTE DA LAGE",
      "house": "9",
      "postcode": "2565-182",
      "city": "DOIS PORTOS",
      "lon": "-9.176645057320131",
      "lat": "39.02269139457262"
    },
    {
      "id": "pt.ine.add.PTCONT.3227612",
      "street": "R NOSSA SENHORA DAS NECESSIDADES",
      "house": "1",
      "postcode": "2565-182",
      "city": "DOIS PORTOS",
      "lon": "-9.177295717884045",
      "lat": "39.02296480127016"
    },
    {
      "id": "pt.ine.add.PTCONT.3229833",
      "street": "LG ASSOCIAÇÃO",
      "house": "10",
      "postcode": "2565-182",
      "city": "DOIS PORTOS",
      "lon": "-9.177295717884045",
      "lat": "39.02296480127016"
    },
    {
      "id": "pt.ine.add.PTCONT.3348441",
      "street": "R PROF PIEDADE DIOGO",
      "house": "3",
      "postcode": "2565-182",
      "city": "DOIS PORTOS",
      "lon": "-9.177791782489459",
      "lat": "39.022933337281096"
    },
    {
      "id": "pt.ine.add.PTCONT.3409011",
      "street": "R PROF PIEDADE DIOGO",
      "house": "4",
      "postcode": "2565-182",
      "city": "DOIS PORTOS",
      "lon": "-9.177839158105431",
      "lat": "39.0230139795987"
    }
  ]
}