{
  "data": {
    "distrito": "Leiria",
    "concelho": "Caldas da Rainha",
    "freguesia": "Foz do Arelho",
    "OBJECTID": 542,
    "BGRI2021": "10060600201",
    "DT21": "10",
    "DTMN21": "1006",
    "DTMNFR21": "100606",
    "DTMNFRSEC21": "100606002",
    "SECNUM21": "002",
    "SSNUM21": "01",
    "SECSSNUM21": "00201",
    "OBJECTID_1": 88408,
    "DT": "10",
    "CC": "06",
    "fr": "06",
    "SEC": "002",
    "SS": "01"
  },
  "addresses": [
    {
      "id": "pt.ine.add.PTCONT.1986926",
      "street": "BC PEDRA DE AGUIA",
      "house": "",
      "postcode": "2500-606",
      "city": "FOZ DO ARELHO",
      "lon": "-9.203086289853706",
      "lat": "39.422222519695424"
    },
    {
      "id": "pt.ine.add.PTCONT.2004453",
      "street": "R TORRE",
      "house": "4",
      "postcode": "2500-606",
      "city": "FOZ DO ARELHO",
      "lon": "-9.204472949861529",
      "lat": "39.42329057046715"
    },
    {
      "id": "pt.ine.add.PTCONT.2011151",
      "street": "R REIVAIS CASA DA FOZ",
      "house": "",
      "postcode": "2500-606",
      "city": "FOZ DO ARELHO",
      "lon": "-9.203807904838078",
      "lat": "39.42081082003754"
    },
    {
      "id": "pt.ine.add.PTCONT.2021673",
      "street": "R ENCOSTA DA LAGOA",
      "house": "44",
      "postcode": "2500-511",
      "city": "FOZ DO ARELHO",
      "lon": "-9.203504251803775",
      "lat": "39.42297524452299"
    },
    {
      "id": "pt.ine.add.PTCONT.2039589",
      "street": "R REIVAIS CASA DA LAGOA",
      "house": "",
      "postcode": "2500-606",
      "city": "FOZ DO ARELHO",
      "lon": "-9.204476729362826",
      "lat": "39.42202057840102"
    },
    {
      "id": "pt.ine.add.PTCONT.2059665",
      "street": "R REIVAIS CASA DAS HORTENSES",
      "house": "",
      "postcode": "2500-606",
      "city": "FOZ DO ARELHO",
      "lon": "-9.204095801270906",
      "lat": "39.42141162464922"
    },
    {
      "id": "pt.ine.add.PTCONT.2065909",
      "street": "R TORRE",
      "house": "6",
      "postcode": "2500-606",
      "city": "FOZ DO ARELHO",
      "lon": "-9.20430236504518",
      "lat": "39.423526318053774"
    },
    {
      "id": "pt.ine.add.PTCONT.2072205",
      "street": "R REIVAIS",
      "house": "9",
      "postcode": "2500-606",
      "city": "FOZ DO ARELHO",
      "lon": "-9.203400794618359",
      "lat": "39.42152610330546"
    },
    {
      "id": "pt.ine.add.PTCONT.2080950",
      "street": "ESTR PENEDO FURADO",
      "house": "48",
      "postcode": "2500-517",
      "city": "FOZ DO ARELHO",
      "lon": "-9.204799382120447",
      "lat": "39.421098913446315"
    },
    {
      "id": "pt.ine.add.PTCONT.2084300",
      "street": "R REIVAIS",
      "house": "14",
      "postcode": "2500-606",
      "city": "FOZ DO ARELHO",
      "lon": "-9.202270260294236",
      "lat": "39.42125728983714"
    },
    {
      "id": "pt.ine.add.PTCONT.2085582",
      "street": "R ENCOSTA DA LAGOA",
      "house": "46",
      "postcode": "2500-511",
      "city": "FOZ DO ARELHO",
      "lon": "-9.203173627615284",
      "lat": "39.422618015024746"
    },
    {
      "id": "pt.ine.add.PTCONT.2105252",
      "street": "R REIVAIS",
      "house": "",
      "postcode": "2500-606",
      "city": "FOZ DO ARELHO",
      "lon": "-9.20199908087832",
      "lat": "39.42098957834845"
    },
    {
      "id": "pt.ine.add.PTCONT.2120693",
      "street": "R REIVAIS TERRA BRAVA",
      "house": "7A",
      "postcode": "2500-606",
      "city": "FOZ DO ARELHO",
      "lon": "-9.203651477819184",
      "lat": "39.422730706280106"
    },
    {
      "id": "pt.ine.add.PTCONT.2124266",
      "street": "R REIVAIS CASA BRANCA",
      "house": "",
      "postcode": "2500-606",
      "city": "FOZ DO ARELHO",
      "lon": "-9.204417817719861",
      "lat": "39.422723650587464"
    },
    {
      "id": "pt.ine.add.PTCONT.2146903",
      "street": "R REIVAIS MANSAO DA LAGOA",
      "house": "10",
      "postcode": "2500-606",
      "city": "FOZ DO ARELHO",
      "lon": "-9.205382513888884",
      "lat": "39.42277780896741"
    },
    {
      "id": "pt.ine.add.PTCONT.2148973",
      "street": "ESTR PENEDO FURADO",
      "house": "",
      "postcode": "2500-517",
      "city": "FOZ DO ARELHO",
      "lon": "-9.205930462653969",
      "lat": "39.422160294741936"
    },
    {
      "id": "pt.ine.add.PTCONT.2151205",
      "street": "R REIVAIS CASA DO PINHAL",
      "house": "40",
      "postcode": "2500-606",
      "city": "FOZ DO ARELHO",
      "lon": "-9.203837465535672",
      "lat": "39.42122486035498"
    },
    {
      "id": "pt.ine.add.PTCONT.2162178",
      "street": "R REIVAIS",
      "house": "6",
      "postcode": "2500-606",
      "city": "FOZ DO ARELHO",
      "lon": "-9.206578186928144",
      "lat": "39.42350533693759"
    },
    {
      "id": "pt.ine.add.PTCONT.2173957",
      "street": "R REIVAIS",
      "house": "",
      "postcode": "2500-606",
      "city": "FOZ DO ARELHO",
      "lon": "-9.206354394457467",
      "lat": "39.42330024598852"
    },
    {
      "id": "pt.ine.add.PTCONT.2185238",
      "street": "R DOS REIVAIS",
      "house": "",
      "postcode": "2500-606",
      "city": "FOZ DO ARELHO",
      "lon": "-9.206253419562241",
      "lat": "39.42333209703776"
    },
    {
      "id": "pt.ine.add.PTCONT.2198329",
      "street": "R REIVAIS CASA DOS REIVAIS",
      "house": "2",
      "postcode": "2500-606",
      "city": "FOZ DO ARELHO",
      "lon": "-9.206943391610514",
      "lat": "39.423087653732225"
    },
    {
      "id": "pt.ine.add.PTCONT.2243245",
      "street": "R REIVAIS",
      "house": "12",
      "postcode": "2500-606",
      "city": "FOZ DO ARELHO",
      "lon": "-9.205860506613796",
      "lat": "39.42289949659514"
    },
    {
      "id": "pt.ine.add.PTCONT.2252416",
      "street": "R REIVAIS",
      "house": "",
      "postcode": "2500-606",
      "city": "FOZ DO ARELHO",
      "lon": "-9.206049600650708",
      "lat": "39.42311391538382"
    }
  ]
}