{
  "data": {
    "distrito": "Leiria",
    "concelho": "Caldas da Rainha",
    "freguesia": "Foz do Arelho",
    "OBJECTID": 643,
    "BGRI2021": "10060600202",
    "DT21": "10",
    "DTMN21": "1006",
    "DTMNFR21": "100606",
    "DTMNFRSEC21": "100606002",
    "SECNUM21": "002",
    "SSNUM21": "02",
    "SECSSNUM21": "00202",
    "OBJECTID_1": 87565,
    "DT": "10",
    "CC": "06",
    "fr": "06",
    "SEC": "002",
    "SS": "02"
  },
  "addresses": [
    {
      "id": "pt.ine.add.PTCONT.1989137",
      "street": "R VARINOS",
      "house": "7",
      "postcode": "2500-517",
      "city": "FOZ DO ARELHO",
      "lon": "-9.207937719904415",
      "lat": "39.42658210869678"
    },
    {
      "id": "pt.ine.add.PTCONT.1995901",
      "street": "R VARINOS",
      "house": "5",
      "postcode": "2500-517",
      "city": "FOZ DO ARELHO",
      "lon": "-9.20817866227673",
      "lat": "39.42639073954105"
    },
    {
      "id": "pt.ine.add.PTCONT.2002426",
      "street": "R VARINOS CASA DE OLIVEIRA",
      "house": "16",
      "postcode": "2500-517",
      "city": "FOZ DO ARELHO",
      "lon": "-9.208234243616522",
      "lat": "39.42698467333149"
    },
    {
      "id": "pt.ine.add.PTCONT.2065907",
      "street": "R ENCOSTA DOS REIVAIS CASA DA ENCOSTA",
      "house": "2",
      "postcode": "2500-606",
      "city": "FOZ DO ARELHO",
      "lon": "-9.20638341181046",
      "lat": "39.42443483329338"
    },
    {
      "id": "pt.ine.add.PTCONT.2065908",
      "street": "R GAREJAU",
      "house": "5",
      "postcode": "2500-511",
      "city": "FOZ DO ARELHO",
      "lon": "-9.210842383360767",
      "lat": "39.42741988176192"
    },
    {
      "id": "pt.ine.add.PTCONT.2070948",
      "street": "R REIVAIS",
      "house": "5",
      "postcode": "2500-606",
      "city": "FOZ DO ARELHO",
      "lon": "-9.20552928551195",
      "lat": "39.4240193924962"
    },
    {
      "id": "pt.ine.add.PTCONT.2072204",
      "street": "ESTR PENEDO FURADO",
      "house": "",
      "postcode": "2500-517",
      "city": "FOZ DO ARELHO",
      "lon": "-9.212708002656656",
      "lat": "39.42865452216901"
    },
    {
      "id": "pt.ine.add.PTCONT.2077853",
      "street": "ESTR PENEDO FURADO",
      "house": "",
      "postcode": "2500-517",
      "city": "FOZ DO ARELHO",
      "lon": "-9.2087683717955",
      "lat": "39.42622316538009"
    },
    {
      "id": "pt.ine.add.PTCONT.2078797",
      "street": "R ENCOSTA DA LAGOA",
      "house": "10",
      "postcode": "2500-511",
      "city": "FOZ DO ARELHO",
      "lon": "-9.209457953604895",
      "lat": "39.42801814202888"
    },
    {
      "id": "pt.ine.add.PTCONT.2084299",
      "street": "R TORRE",
      "house": "7",
      "postcode": "2500-606",
      "city": "FOZ DO ARELHO",
      "lon": "-9.204705840087149",
      "lat": "39.42409002920177"
    },
    {
      "id": "pt.ine.add.PTCONT.2103934",
      "street": "R ENCOSTA DA LAGOA",
      "house": "14",
      "postcode": "2500-511",
      "city": "FOZ DO ARELHO",
      "lon": "-9.208209372402951",
      "lat": "39.4276333913765"
    },
    {
      "id": "pt.ine.add.PTCONT.2122596",
      "street": "R TORRE",
      "house": "5",
      "postcode": "2500-606",
      "city": "FOZ DO ARELHO",
      "lon": "-9.204794869219336",
      "lat": "39.423837018921965"
    },
    {
      "id": "pt.ine.add.PTCONT.2129653",
      "street": "R REIVAIS CASA DA FIGUEIRA",
      "house": "",
      "postcode": "2500-606",
      "city": "FOZ DO ARELHO",
      "lon": "-9.205984478418392",
      "lat": "39.42416831011861"
    },
    {
      "id": "pt.ine.add.PTCONT.2168775",
      "street": "ESTR PENEDO FURADO CASA DOS MIS",
      "house": "15",
      "postcode": "2500-517",
      "city": "FOZ DO ARELHO",
      "lon": "-9.211355483190522",
      "lat": "39.42680266539978"
    },
    {
      "id": "pt.ine.add.PTCONT.2173956",
      "street": "R GAREJAU",
      "house": "1",
      "postcode": "2500-511",
      "city": "FOZ DO ARELHO",
      "lon": "-9.211464202889847",
      "lat": "39.427828430188825"
    },
    {
      "id": "pt.ine.add.PTCONT.2177292",
      "street": "R ENCOSTA DA LAGOA",
      "house": "6",
      "postcode": "2500-511",
      "city": "FOZ DO ARELHO",
      "lon": "-9.211421689896644",
      "lat": "39.42883758329826"
    },
    {
      "id": "pt.ine.add.PTCONT.2179446",
      "street": "R ENCOSTA DA LAGOA CASA DA VINHA",
      "house": "18",
      "postcode": "2500-511",
      "city": "FOZ DO ARELHO",
      "lon": "-9.20405697813697",
      "lat": "39.424186073135296"
    },
    {
      "id": "pt.ine.add.PTCONT.2183912",
      "street": "R ENCOSTA DA LAGOA",
      "house": "8",
      "postcode": "2500-511",
      "city": "FOZ DO ARELHO",
      "lon": "-9.210989263354207",
      "lat": "39.42866145595804"
    },
    {
      "id": "pt.ine.add.PTCONT.2190572",
      "street": "R TORRE",
      "house": "1",
      "postcode": "2500-606",
      "city": "FOZ DO ARELHO",
      "lon": "-9.205251458969617",
      "lat": "39.42331942431576"
    },
    {
      "id": "pt.ine.add.PTCONT.2192769",
      "street": "R ENCOSTA DOS REIVAIS QUINTINHA MORABEZA",
      "house": "3",
      "postcode": "2500-606",
      "city": "FOZ DO ARELHO",
      "lon": "-9.207121017923717",
      "lat": "39.42482432335766"
    },
    {
      "id": "pt.ine.add.PTCONT.2192770",
      "street": "R REIVAIS",
      "house": "",
      "postcode": "2500-606",
      "city": "FOZ DO ARELHO",
      "lon": "-9.20720174400879",
      "lat": "39.42403098086811"
    },
    {
      "id": "pt.ine.add.PTCONT.2210919",
      "street": "R VARINOS",
      "house": "9",
      "postcode": "2500-517",
      "city": "FOZ DO ARELHO",
      "lon": "-9.207930258786003",
      "lat": "39.426852381072045"
    },
    {
      "id": "pt.ine.add.PTCONT.2219558",
      "street": "R VARINOS",
      "house": "3",
      "postcode": "2500-517",
      "city": "FOZ DO ARELHO",
      "lon": "-9.208468957327248",
      "lat": "39.42638805602046"
    },
    {
      "id": "pt.ine.add.PTCONT.2239062",
      "street": "R ENCOSTA DA LAGOA",
      "house": "16",
      "postcode": "2500-511",
      "city": "FOZ DO ARELHO",
      "lon": "-9.209026921996525",
      "lat": "39.42793206219892"
    },
    {
      "id": "pt.ine.add.PTCONT.2239066",
      "street": "R TORRE",
      "house": "3",
      "postcode": "2500-606",
      "city": "FOZ DO ARELHO",
      "lon": "-9.205012036468043",
      "lat": "39.42360984814711"
    },
    {
      "id": "pt.ine.add.PTCONT.2252414",
      "street": "ESTR PENEDO FURADO",
      "house": "",
      "postcode": "2500-517",
      "city": "FOZ DO ARELHO",
      "lon": "-9.210744730459608",
      "lat": "39.426357986625945"
    },
    {
      "id": "pt.ine.add.PTCONT.2252415",
      "street": "R VARINOS CASA SERENA",
      "house": "14",
      "postcode": "2500-517",
      "city": "FOZ DO ARELHO",
      "lon": "-9.208509883697756",
      "lat": "39.42678397599024"
    },
    {
      "id": "pt.ine.add.PTCONT.2255492",
      "street": "R ENCOSTA DA LAGOA",
      "house": "30",
      "postcode": "2500-511",
      "city": "FOZ DO ARELHO",
      "lon": "-9.205570162111059",
      "lat": "39.42592845401477"
    },
    {
      "id": "pt.ine.add.PTCONT.2259128",
      "street": "R ENCOSTA DA LAGOA CASA DO ALTO DA LAGOA",
      "house": "20",
      "postcode": "2500-511",
      "city": "FOZ DO ARELHO",
      "lon": "-9.207119224310716",
      "lat": "39.42697696097252"
    }
  ]
}