{
  "data": {
    "distrito": "Faro",
    "concelho": "Olhão",
    "freguesia": "União das freguesias de Moncarapacho e Fuseta",
    "OBJECTID": 107,
    "BGRI2021": "08100600106",
    "DT21": "08",
    "DTMN21": "0810",
    "DTMNFR21": "081006",
    "DTMNFRSEC21": "081006001",
    "SECNUM21": "001",
    "SSNUM21": "06",
    "SECSSNUM21": "00106",
    "OBJECTID_1": 70388,
    "DT": "08",
    "CC": "10",
    "fr": "06",
    "SEC": "001",
    "SS": "06"
  },
  "addresses": [
    {
      "id": "pt.ine.add.PTCONT.1470648",
      "street": "",
      "house": "",
      "postcode": "8700-072",
      "city": "MONCARAPACHO",
      "lon": "-7.817295093765828",
      "lat": "37.0762729012577"
    },
    {
      "id": "pt.ine.add.PTCONT.1505730",
      "street": "",
      "house": "",
      "postcode": "8700-072",
      "city": "MONCARAPACHO",
      "lon": "-7.815733727094925",
      "lat": "37.07584523212628"
    },
    {
      "id": "pt.ine.add.PTCONT.1508588",
      "street": "SIT FORNALHA",
      "house": "",
      "postcode": "8700-072",
      "city": "MONCARAPACHO",
      "lon": "-7.811096138298012",
      "lat": "37.07213001367732"
    },
    {
      "id": "pt.ine.add.PTCONT.1516969",
      "street": "CASA PARDAL",
      "house": "",
      "postcode": "8700-072",
      "city": "MONCARAPACHO",
      "lon": "-7.809688210810456",
      "lat": "37.074756631788546"
    },
    {
      "id": "pt.ine.add.PTCONT.1519733",
      "street": "SIT FORNALHA CASA LENA",
      "house": "",
      "postcode": "8700-072",
      "city": "MONCARAPACHO",
      "lon": "-7.812087174235201",
      "lat": "37.071781190846735"
    },
    {
      "id": "pt.ine.add.PTCONT.1614573",
      "street": "SIT FORNALHA",
      "house": "",
      "postcode": "8700-072",
      "city": "MONCARAPACHO",
      "lon": "-7.812955331911304",
      "lat": "37.07192431377052"
    },
    {
      "id": "pt.ine.add.PTCONT.1626374",
      "street": "SEM DERSIGNACAO",
      "house": "",
      "postcode": "8700-072",
      "city": "MONCARAPACHO",
      "lon": "-7.813976152408767",
      "lat": "37.07207333048654"
    },
    {
      "id": "pt.ine.add.PTCONT.1667203",
      "street": "",
      "house": "",
      "postcode": "8700-072",
      "city": "MONCARAPACHO",
      "lon": "-7.8139073979193405",
      "lat": "37.07424544238368"
    },
    {
      "id": "pt.ine.add.PTCONT.1679640",
      "street": "SIT FORNALHA",
      "house": "",
      "postcode": "8700-072",
      "city": "MONCARAPACHO",
      "lon": "-7.813021260199468",
      "lat": "37.071035254179826"
    },
    {
      "id": "pt.ine.add.PTCONT.1690654",
      "street": "",
      "house": "",
      "postcode": "8700-072",
      "city": "MONCARAPACHO",
      "lon": "-7.817689807830285",
      "lat": "37.07600363147039"
    },
    {
      "id": "pt.ine.add.PTCONT.1703326",
      "street": "SIT FORNALHA",
      "house": "",
      "postcode": "8700-072",
      "city": "MONCARAPACHO",
      "lon": "-7.814112112177319",
      "lat": "37.07638152210817"
    },
    {
      "id": "pt.ine.add.PTCONT.1710800",
      "street": "SIT FORNALHA RED HOUSE VILHA",
      "house": "",
      "postcode": "8700-072",
      "city": "MONCARAPACHO",
      "lon": "-7.811497941495328",
      "lat": "37.07228947453168"
    },
    {
      "id": "pt.ine.add.PTCONT.1745677",
      "street": "QTA SESMARIAS CPX",
      "house": "OLHAO A",
      "postcode": "8700-072",
      "city": "MONCARAPACHO",
      "lon": "-7.809700795451653",
      "lat": "37.07444129262375"
    },
    {
      "id": "pt.ine.add.PTCONT.1751692",
      "street": "SIT FORNALHA",
      "house": "",
      "postcode": "8700-072",
      "city": "MONCARAPACHO",
      "lon": "-7.813118715303058",
      "lat": "37.07192757408926"
    },
    {
      "id": "pt.ine.add.PTCONT.1799781",
      "street": "SIT FORNALHA",
      "house": "",
      "postcode": "8700-072",
      "city": "MONCARAPACHO",
      "lon": "-7.813271558823259",
      "lat": "37.070342107177844"
    },
    {
      "id": "pt.ine.add.PTCONT.1820608",
      "street": "SIT FORNALHA",
      "house": "",
      "postcode": "8700-072",
      "city": "MONCARAPACHO",
      "lon": "-7.81334357561452",
      "lat": "37.07193719116638"
    },
    {
      "id": "pt.ine.add.PTCONT.1848261",
      "street": "",
      "house": "",
      "postcode": "8700-072",
      "city": "MONCARAPACHO",
      "lon": "-7.812218598289697",
      "lat": "37.07471845114218"
    }
  ]
}