{
  "data": {
    "distrito": "Faro",
    "concelho": "Olhão",
    "freguesia": "União das freguesias de Moncarapacho e Fuseta",
    "OBJECTID": 232,
    "BGRI2021": "08100600110",
    "DT21": "08",
    "DTMN21": "0810",
    "DTMNFR21": "081006",
    "DTMNFRSEC21": "081006001",
    "SECNUM21": "001",
    "SSNUM21": "10",
    "SECSSNUM21": "00110",
    "OBJECTID_1": 70811,
    "DT": "08",
    "CC": "10",
    "fr": "06",
    "SEC": "001",
    "SS": "10"
  },
  "addresses": [
    {
      "id": "pt.ine.add.PTCONT.1479701",
      "street": "URB MONTE DE S MIGUEL",
      "house": "",
      "postcode": "8700-072",
      "city": "MONCARAPACHO",
      "lon": "-7.818861417088596",
      "lat": "37.08095359761807"
    },
    {
      "id": "pt.ine.add.PTCONT.1528331",
      "street": "URB MONTE DE S MIGUEL",
      "house": "62",
      "postcode": "8700-072",
      "city": "MONCARAPACHO",
      "lon": "-7.8185576195399875",
      "lat": "37.08098883495312"
    },
    {
      "id": "pt.ine.add.PTCONT.1534639",
      "street": "URB MONTE DE S MIGUEL",
      "house": "47",
      "postcode": "8700-072",
      "city": "MONCARAPACHO",
      "lon": "-7.8172773038020384",
      "lat": "37.08056193131712"
    },
    {
      "id": "pt.ine.add.PTCONT.1540954",
      "street": "URB MONTE DE S MIGUEL",
      "house": "61",
      "postcode": "8700-072",
      "city": "MONCARAPACHO",
      "lon": "-7.818457110816437",
      "lat": "37.08081736574521"
    },
    {
      "id": "pt.ine.add.PTCONT.1543366",
      "street": "URB MONTE DE S MIGUEL",
      "house": "58",
      "postcode": "8700-072",
      "city": "MONCARAPACHO",
      "lon": "-7.818064126774225",
      "lat": "37.080663141242084"
    },
    {
      "id": "pt.ine.add.PTCONT.1552003",
      "street": "URB MONTE DE S MIGUEL",
      "house": "S0",
      "postcode": "8700-072",
      "city": "MONCARAPACHO",
      "lon": "-7.818322491400027",
      "lat": "37.08073591255668"
    },
    {
      "id": "pt.ine.add.PTCONT.1562533",
      "street": "SIT FORNALHA",
      "house": "",
      "postcode": "8700-072",
      "city": "MONCARAPACHO",
      "lon": "-7.821044001675796",
      "lat": "37.080761125809566"
    },
    {
      "id": "pt.ine.add.PTCONT.1574031",
      "street": "URB MONTE DE S MIGUEL",
      "house": "",
      "postcode": "8700-072",
      "city": "MONCARAPACHO",
      "lon": "-7.817635688359658",
      "lat": "37.08092331165618"
    },
    {
      "id": "pt.ine.add.PTCONT.1592802",
      "street": "URB MONTE DE S MIGUEL",
      "house": "60",
      "postcode": "8700-072",
      "city": "MONCARAPACHO",
      "lon": "-7.817649435979266",
      "lat": "37.08031963376068"
    },
    {
      "id": "pt.ine.add.PTCONT.1603646",
      "street": "URB MONTE DE S MIGUEL",
      "house": "",
      "postcode": "8700-072",
      "city": "MONCARAPACHO",
      "lon": "-7.817961829338077",
      "lat": "37.080924178707384"
    },
    {
      "id": "pt.ine.add.PTCONT.1614572",
      "street": "URB MONTE DE S MIGUEL",
      "house": "70",
      "postcode": "8700-072",
      "city": "MONCARAPACHO",
      "lon": "-7.818806971320611",
      "lat": "37.08052094149031"
    },
    {
      "id": "pt.ine.add.PTCONT.1626222",
      "street": "URB MONTE DE S MIGUEL",
      "house": "53",
      "postcode": "8700-072",
      "city": "MONCARAPACHO",
      "lon": "-7.818065245312233",
      "lat": "37.080392824297675"
    },
    {
      "id": "pt.ine.add.PTCONT.1626223",
      "street": "URB MONTE DE S MIGUEL",
      "house": "67",
      "postcode": "8700-072",
      "city": "MONCARAPACHO",
      "lon": "-7.8188516957092995",
      "lat": "37.08058413464975"
    },
    {
      "id": "pt.ine.add.PTCONT.1648472",
      "street": "URB MONTE S MIGUEL CASA MIA",
      "house": "14",
      "postcode": "8700-072",
      "city": "MONCARAPACHO",
      "lon": "-7.819149038422619",
      "lat": "37.07938650368909"
    },
    {
      "id": "pt.ine.add.PTCONT.1672075",
      "street": "URB MONTE DE S MIGUEL",
      "house": "65",
      "postcode": "8700-072",
      "city": "MONCARAPACHO",
      "lon": "-7.819153782338935",
      "lat": "37.080963382559695"
    },
    {
      "id": "pt.ine.add.PTCONT.1695495",
      "street": "URB MONTE DE S MIGUEL",
      "house": "67",
      "postcode": "8700-072",
      "city": "MONCARAPACHO",
      "lon": "-7.8189299728631445",
      "lat": "37.08069246999606"
    },
    {
      "id": "pt.ine.add.PTCONT.1732927",
      "street": "URB MONTE DE S MIGUEL",
      "house": "51",
      "postcode": "8700-072",
      "city": "MONCARAPACHO",
      "lon": "-7.817818165563227",
      "lat": "37.080311071756725"
    },
    {
      "id": "pt.ine.add.PTCONT.1751681",
      "street": "URB MONTE S MIGUEL",
      "house": "12",
      "postcode": "8700-072",
      "city": "MONCARAPACHO",
      "lon": "-7.819181624786847",
      "lat": "37.079665920578485"
    },
    {
      "id": "pt.ine.add.PTCONT.1760909",
      "street": "URB MONTE DE S MIGUEL",
      "house": "59",
      "postcode": "8700-072",
      "city": "MONCARAPACHO",
      "lon": "-7.818187909542325",
      "lat": "37.08064544865084"
    },
    {
      "id": "pt.ine.add.PTCONT.1760910",
      "street": "URB MONTE S MIGUEL",
      "house": "63",
      "postcode": "8700-072",
      "city": "MONCARAPACHO",
      "lon": "-7.8187375595592385",
      "lat": "37.08098931203912"
    },
    {
      "id": "pt.ine.add.PTCONT.1776178",
      "street": "URB MONTE DE S MIGUEL",
      "house": "68",
      "postcode": "8700-072",
      "city": "MONCARAPACHO",
      "lon": "-7.819008138719033",
      "lat": "37.08082783698536"
    },
    {
      "id": "pt.ine.add.PTCONT.1782193",
      "street": "URB MONTE DE S MIGUEL",
      "house": "48",
      "postcode": "8700-072",
      "city": "MONCARAPACHO",
      "lon": "-7.817322886506652",
      "lat": "37.08041788207103"
    },
    {
      "id": "pt.ine.add.PTCONT.1796060",
      "street": "URB MONTE S MIGUEL L",
      "house": "L",
      "postcode": "8700-072",
      "city": "MONCARAPACHO",
      "lon": "-7.817343248744502",
      "lat": "37.08093154410105"
    },
    {
      "id": "pt.ine.add.PTCONT.1837183",
      "street": "URB MONTE DE S MIGUEL",
      "house": "",
      "postcode": "8700-072",
      "city": "MONCARAPACHO",
      "lon": "-7.818332172971212",
      "lat": "37.0811143861112"
    },
    {
      "id": "pt.ine.add.PTCONT.1837184",
      "street": "URB MONTE DE S MIGUEL",
      "house": "66",
      "postcode": "8700-072",
      "city": "MONCARAPACHO",
      "lon": "-7.819075318762539",
      "lat": "37.08090010018903"
    }
  ]
}