{
  "data": {
    "ilha": "Ilha da Madeira (Madeira)",
    "concelho": "Câmara de Lobos",
    "freguesia": "Estreito de Câmara de Lobos",
    "OBJECTID": 134,
    "BGRI2021": "31020300101",
    "DT21": "31",
    "DTMN21": "3102",
    "DTMNFR21": "310203",
    "DTMNFRSEC21": "310203001",
    "SECNUM21": "001",
    "SSNUM21": "01",
    "SECSSNUM21": "00101",
    "OBJECTID_1": 203544,
    "DT": "31",
    "CC": "02",
    "fr": "03",
    "SEC": "001",
    "SS": "01",
    "BGRI2021_1": "31020300101"
  },
  "addresses": [
    {
      "id": "pt.ine.add.MAD.1478",
      "street": "CAM CAPELA DA ENCARNAÇÃO",
      "house": "30",
      "postcode": "9325-375",
      "city": "ESTREITO CÂMARA DE LOBOS",
      "lon": "-16.96645111326498",
      "lat": "32.664493509057294"
    },
    {
      "id": "pt.ine.add.MAD.1479",
      "street": "CAM CAPELA DA ENCARNAÇÃO",
      "house": "3",
      "postcode": "9325-375",
      "city": "ESTREITO CÂMARA DE LOBOS",
      "lon": "-16.966746583697",
      "lat": "32.66435359785671"
    },
    {
      "id": "pt.ine.add.MAD.2247",
      "street": "CAM CAPELA DA ENCARNAÇÃO",
      "house": "2",
      "postcode": "9325-375",
      "city": "ESTREITO CÂMARA DE LOBOS",
      "lon": "-16.96717744984003",
      "lat": "32.66406726494494"
    },
    {
      "id": "pt.ine.add.MAD.2248",
      "street": "TV LOMBO DA VARGEM",
      "house": "5",
      "postcode": "9325-344",
      "city": "ESTREITO CÂMARA DE LOBOS",
      "lon": "-16.9659683378253",
      "lat": "32.6653307893698"
    },
    {
      "id": "pt.ine.add.MAD.2249",
      "street": "TV CAPELA DA ENCARNAÇÃO",
      "house": "10",
      "postcode": "9325-339",
      "city": "ESTREITO CÂMARA DE LOBOS",
      "lon": "-16.96740228666983",
      "lat": "32.66508284390628"
    },
    {
      "id": "pt.ine.add.MAD.2250",
      "street": "R ANTÓNIO PROCORO DE MACEDO JUNIOR",
      "house": "49",
      "postcode": "9325-018",
      "city": "ESTREITO CÂMARA DE LOBOS",
      "lon": "-16.964262192125116",
      "lat": "32.66580844662743"
    },
    {
      "id": "pt.ine.add.MAD.2251",
      "street": "CAM VELHO COVÃO",
      "house": "14",
      "postcode": "9325-310",
      "city": "ESTREITO CÂMARA DE LOBOS",
      "lon": "-16.96439068984487",
      "lat": "32.665346484387854"
    },
    {
      "id": "pt.ine.add.MAD.2252",
      "street": "R ANTÓNIO PROCORO DE MACEDO JUNIOR",
      "house": "39",
      "postcode": "9325-018",
      "city": "ESTREITO CÂMARA DE LOBOS",
      "lon": "-16.964118118027777",
      "lat": "32.66458416839497"
    },
    {
      "id": "pt.ine.add.MAD.2253",
      "street": "CAM VELHO COVÃO",
      "house": "8",
      "postcode": "9325-310",
      "city": "ESTREITO CÂMARA DE LOBOS",
      "lon": "-16.96407331456544",
      "lat": "32.66448566487214"
    },
    {
      "id": "pt.ine.add.MAD.2254",
      "street": "R ANTÓNIO PROCORO DE MACEDO JUNIOR",
      "house": "37",
      "postcode": "9325-018",
      "city": "ESTREITO CÂMARA DE LOBOS",
      "lon": "-16.963739552452875",
      "lat": "32.66433757296796"
    },
    {
      "id": "pt.ine.add.MAD.2255",
      "street": "R ANTÓNIO PROCORO DE MACEDO JUNIOR",
      "house": "33",
      "postcode": "9325-018",
      "city": "ESTREITO CÂMARA DE LOBOS",
      "lon": "-16.963669882760207",
      "lat": "32.6640771230903"
    },
    {
      "id": "pt.ine.add.MAD.2256",
      "street": "R ANTÓNIO PROCORO DE MACEDO JUNIOR",
      "house": "31",
      "postcode": "9325-018",
      "city": "ESTREITO CÂMARA DE LOBOS",
      "lon": "-16.963687254794575",
      "lat": "32.66389647847373"
    },
    {
      "id": "pt.ine.add.MAD.2260",
      "street": "R URBANIZAÇÃO DO COVÃO",
      "house": "",
      "postcode": "9325-345",
      "city": "ESTREITO CÂMARA DE LOBOS",
      "lon": "-16.964832817692372",
      "lat": "32.6655740449085"
    },
    {
      "id": "pt.ine.add.MAD.3060",
      "street": "R URBANIZAÇÃO DO COVÃO",
      "house": "",
      "postcode": "9325-345",
      "city": "ESTREITO CÂMARA DE LOBOS",
      "lon": "-16.96482038302058",
      "lat": "32.6654930719878"
    },
    {
      "id": "pt.ine.add.MAD.3061",
      "street": "R URBANIZAÇÃO DO COVÃO",
      "house": "",
      "postcode": "9325-345",
      "city": "ESTREITO CÂMARA DE LOBOS",
      "lon": "-16.964480104445826",
      "lat": "32.66504746940654"
    },
    {
      "id": "pt.ine.add.MAD.3062",
      "street": "R URBANIZAÇÃO DO COVÃO",
      "house": "",
      "postcode": "9325-345",
      "city": "ESTREITO CÂMARA DE LOBOS",
      "lon": "-16.96455451605855",
      "lat": "32.66503728552526"
    },
    {
      "id": "pt.ine.add.MAD.3063",
      "street": "R URBANIZAÇÃO DO COVÃO",
      "house": "",
      "postcode": "9325-345",
      "city": "ESTREITO CÂMARA DE LOBOS",
      "lon": "-16.96450872527945",
      "lat": "32.664893704481855"
    },
    {
      "id": "pt.ine.add.MAD.3064",
      "street": "CAM VELHO COVÃO",
      "house": "A",
      "postcode": "9325-310",
      "city": "ESTREITO CÂMARA DE LOBOS",
      "lon": "-16.96442938103061",
      "lat": "32.66467849976607"
    },
    {
      "id": "pt.ine.add.MAD.3065",
      "street": "R URBANIZAÇÃO DO COVÃO",
      "house": "",
      "postcode": "9325-345",
      "city": "ESTREITO CÂMARA DE LOBOS",
      "lon": "-16.96489223031679",
      "lat": "32.664878679803266"
    },
    {
      "id": "pt.ine.add.MAD.3066",
      "street": "R URBANIZAÇÃO DO COVÃO",
      "house": "",
      "postcode": "9325-345",
      "city": "ESTREITO CÂMARA DE LOBOS",
      "lon": "-16.964894006531498",
      "lat": "32.66495981966278"
    },
    {
      "id": "pt.ine.add.MAD.3067",
      "street": "R URBANIZAÇÃO DO COVÃO",
      "house": "",
      "postcode": "9325-345",
      "city": "ESTREITO CÂMARA DE LOBOS",
      "lon": "-16.96491690222554",
      "lat": "32.66503161010418"
    },
    {
      "id": "pt.ine.add.MAD.3068",
      "street": "R URBANIZAÇÃO DO COVÃO",
      "house": "",
      "postcode": "9325-345",
      "city": "ESTREITO CÂMARA DE LOBOS",
      "lon": "-16.964729589608673",
      "lat": "32.66524197230133"
    },
    {
      "id": "pt.ine.add.MAD.3069",
      "street": "R URBANIZAÇÃO DO COVÃO",
      "house": "",
      "postcode": "9325-345",
      "city": "ESTREITO CÂMARA DE LOBOS",
      "lon": "-16.96464491407945",
      "lat": "32.66527035429134"
    },
    {
      "id": "pt.ine.add.MAD.3070",
      "street": "CAM LOMBO DA VARGEM",
      "house": "21",
      "postcode": "9325-057",
      "city": "ESTREITO CÂMARA DE LOBOS",
      "lon": "-16.96804376758048",
      "lat": "32.66516296845422"
    },
    {
      "id": "pt.ine.add.MAD.3071",
      "street": "CAM LOMBO DA VARGEM",
      "house": "17",
      "postcode": "9325-057",
      "city": "ESTREITO CÂMARA DE LOBOS",
      "lon": "-16.967626706061225",
      "lat": "32.66510638011404"
    },
    {
      "id": "pt.ine.add.MAD.3871",
      "street": "R ALF MANUEL JOAQUIM LOPES-ENT 2",
      "house": "8",
      "postcode": "9325-361",
      "city": "ESTREITO CÂMARA DE LOBOS",
      "lon": "-16.96771472608092",
      "lat": "32.664744254562436"
    },
    {
      "id": "pt.ine.add.MAD.3872",
      "street": "R ALF MANUEL JOAQUIM LOPES",
      "house": "5",
      "postcode": "9325-361",
      "city": "ESTREITO CÂMARA DE LOBOS",
      "lon": "-16.96791525837442",
      "lat": "32.66465092281949"
    },
    {
      "id": "pt.ine.add.MAD.3873",
      "street": "R ALF MANUEL JOAQUIM LOPES",
      "house": "4",
      "postcode": "9325-361",
      "city": "ESTREITO CÂMARA DE LOBOS",
      "lon": "-16.96780689603473",
      "lat": "32.66457145497739"
    },
    {
      "id": "pt.ine.add.MAD.3874",
      "street": "R ALF MANUEL JOAQUIM LOPES",
      "house": "2",
      "postcode": "9325-361",
      "city": "ESTREITO CÂMARA DE LOBOS",
      "lon": "-16.967889593252167",
      "lat": "32.6644529156697"
    },
    {
      "id": "pt.ine.add.MAD.3875",
      "street": "R ALF MANUEL JOAQUIM LOPES",
      "house": "C",
      "postcode": "9325-361",
      "city": "ESTREITO CÂMARA DE LOBOS",
      "lon": "-16.968571942540663",
      "lat": "32.66493823456457"
    },
    {
      "id": "pt.ine.add.MAD.3876",
      "street": "R ALF MANUEL JOAQUIM LOPES",
      "house": "C",
      "postcode": "9325-361",
      "city": "ESTREITO CÂMARA DE LOBOS",
      "lon": "-16.968571942540663",
      "lat": "32.66493823456457"
    },
    {
      "id": "pt.ine.add.MAD.3877",
      "street": "R ALF MANUEL JOAQUIM LOPES",
      "house": "C",
      "postcode": "9325-361",
      "city": "ESTREITO CÂMARA DE LOBOS",
      "lon": "-16.968571942540663",
      "lat": "32.66493823456457"
    },
    {
      "id": "pt.ine.add.MAD.3878",
      "street": "R ALF MANUEL JOAQUIM LOPES",
      "house": "C",
      "postcode": "9325-361",
      "city": "ESTREITO CÂMARA DE LOBOS",
      "lon": "-16.968571942540663",
      "lat": "32.66493823456457"
    },
    {
      "id": "pt.ine.add.MAD.3879",
      "street": "R ALF MANUEL JOAQUIM LOPES APARTAMENTOS DA VARGEM",
      "house": "",
      "postcode": "9325-361",
      "city": "ESTREITO CÂMARA DE LOBOS",
      "lon": "-16.968571942540663",
      "lat": "32.66493823456457"
    },
    {
      "id": "pt.ine.add.MAD.3880",
      "street": "R ALF MANUEL JOAQUIM LOPES APARTAMENTOS VARGEM",
      "house": "",
      "postcode": "9325-361",
      "city": "ESTREITO CÂMARA DE LOBOS",
      "lon": "-16.968457450159818",
      "lat": "32.664579286181215"
    },
    {
      "id": "pt.ine.add.MAD.3881",
      "street": "R ALF MANUEL JOAQUIM LOPES APARTAMENTOS VARGEM",
      "house": "",
      "postcode": "9325-361",
      "city": "ESTREITO CÂMARA DE LOBOS",
      "lon": "-16.968457450159818",
      "lat": "32.664579286181215"
    },
    {
      "id": "pt.ine.add.MAD.4674",
      "street": "R ALF MANUEL JOAQUIM LOPES APARTAMENTOS VARGEM",
      "house": "",
      "postcode": "9325-361",
      "city": "ESTREITO CÂMARA DE LOBOS",
      "lon": "-16.968457450159818",
      "lat": "32.664579286181215"
    },
    {
      "id": "pt.ine.add.MAD.4675",
      "street": "R ALF MANUEL JOAQUIM LOPES APARTAMENTOS VARGEM",
      "house": "",
      "postcode": "9325-361",
      "city": "ESTREITO CÂMARA DE LOBOS",
      "lon": "-16.968457450159818",
      "lat": "32.664579286181215"
    },
    {
      "id": "pt.ine.add.MAD.4676",
      "street": "R ALF MANUEL JOAQUIM LOPES APARTAMENTOS VARGEM",
      "house": "",
      "postcode": "9325-361",
      "city": "ESTREITO CÂMARA DE LOBOS",
      "lon": "-16.968457450159818",
      "lat": "32.664579286181215"
    },
    {
      "id": "pt.ine.add.MAD.4677",
      "street": "R ALF MANUEL JOAQUIM LOPES APARTAMENTOS VARGEM",
      "house": "",
      "postcode": "9325-361",
      "city": "ESTREITO CÂMARA DE LOBOS",
      "lon": "-16.968457450159818",
      "lat": "32.664579286181215"
    },
    {
      "id": "pt.ine.add.MAD.4678",
      "street": "R ALF MANUEL JOAQUIM LOPES",
      "house": "",
      "postcode": "9325-361",
      "city": "ESTREITO CÂMARA DE LOBOS",
      "lon": "-16.968627588110273",
      "lat": "32.66455857921438"
    },
    {
      "id": "pt.ine.add.MAD.4679",
      "street": "R ALF MANUEL JOAQUIM LOPES",
      "house": "",
      "postcode": "9325-361",
      "city": "ESTREITO CÂMARA DE LOBOS",
      "lon": "-16.968627588110273",
      "lat": "32.66455857921438"
    },
    {
      "id": "pt.ine.add.MAD.4680",
      "street": "R ALF MANUEL JOAQUIM LOPES",
      "house": "",
      "postcode": "9325-361",
      "city": "ESTREITO CÂMARA DE LOBOS",
      "lon": "-16.968627588110273",
      "lat": "32.66455857921438"
    },
    {
      "id": "pt.ine.add.MAD.4681",
      "street": "R ALF MANUEL JOAQUIM LOPES",
      "house": "",
      "postcode": "9325-361",
      "city": "ESTREITO CÂMARA DE LOBOS",
      "lon": "-16.968627588110273",
      "lat": "32.66455857921438"
    },
    {
      "id": "pt.ine.add.MAD.4682",
      "street": "R ALF MANUEL JOAQUIM LOPES",
      "house": "",
      "postcode": "9325-361",
      "city": "ESTREITO CÂMARA DE LOBOS",
      "lon": "-16.968627588110273",
      "lat": "32.66455857921438"
    },
    {
      "id": "pt.ine.add.MAD.4683",
      "street": "R ALF MANUEL JOAQUIM LOPES",
      "house": "",
      "postcode": "9325-361",
      "city": "ESTREITO CÂMARA DE LOBOS",
      "lon": "-16.968627588110273",
      "lat": "32.66455857921438"
    },
    {
      "id": "pt.ine.add.MAD.4684",
      "street": "R ALF MANUEL JOAQUIM LOPES",
      "house": "84",
      "postcode": "9325-361",
      "city": "ESTREITO CÂMARA DE LOBOS",
      "lon": "-16.968922066293608",
      "lat": "32.66437358541433"
    },
    {
      "id": "pt.ine.add.MAD.5467",
      "street": "R ALF MANUEL JOAQUIM LOPES",
      "house": "106",
      "postcode": "9325-361",
      "city": "ESTREITO CÂMARA DE LOBOS",
      "lon": "-16.969059635478132",
      "lat": "32.66432633315002"
    },
    {
      "id": "pt.ine.add.MAD.5468",
      "street": "R ALF MANUEL JOAQUIM LOPES",
      "house": "92",
      "postcode": "9325-361",
      "city": "ESTREITO CÂMARA DE LOBOS",
      "lon": "-16.969271614805855",
      "lat": "32.664268894103316"
    },
    {
      "id": "pt.ine.add.MAD.6251",
      "street": "CAM LOMBO DA VARGEM",
      "house": "11",
      "postcode": "9325-057",
      "city": "ESTREITO CÂMARA DE LOBOS",
      "lon": "-16.96642350543838",
      "lat": "32.66615336918095"
    },
    {
      "id": "pt.ine.add.MAD.7005",
      "street": "R ANTONIO PROCORO MACEDO JUNIOR",
      "house": "A",
      "postcode": "9325-018",
      "city": "ESTREITO CÂMARA DE LOBOS",
      "lon": "-16.965326267717245",
      "lat": "32.666197619463006"
    },
    {
      "id": "pt.ine.add.MAD.7006",
      "street": "R ANTONIO PROCORO MACEDO JUNIOR",
      "house": "55",
      "postcode": "9325-018",
      "city": "ESTREITO CÂMARA DE LOBOS",
      "lon": "-16.965326267717245",
      "lat": "32.666197619463006"
    },
    {
      "id": "pt.ine.add.MAD.7007",
      "street": "R ANTONIO PROCORO MACEDO JUNIOR",
      "house": "A",
      "postcode": "9325-018",
      "city": "ESTREITO CÂMARA DE LOBOS",
      "lon": "-16.965326267717245",
      "lat": "32.666197619463006"
    },
    {
      "id": "pt.ine.add.MAD.7008",
      "street": "R ANTONIO PROCORO MACEDO JUNIOR E",
      "house": "E",
      "postcode": "9325-018",
      "city": "ESTREITO CÂMARA DE LOBOS",
      "lon": "-16.965326267717245",
      "lat": "32.666197619463006"
    },
    {
      "id": "pt.ine.add.MAD.7009",
      "street": "R ANTONIO PROCORO MACEDO JUNIOR F",
      "house": "F",
      "postcode": "9325-018",
      "city": "ESTREITO CÂMARA DE LOBOS",
      "lon": "-16.965326267717245",
      "lat": "32.666197619463006"
    },
    {
      "id": "pt.ine.add.MAD.7010",
      "street": "CAM VELHO DO COVÃO",
      "house": "7",
      "postcode": "9325-310",
      "city": "ESTREITO CÂMARA DE LOBOS",
      "lon": "-16.96441339537734",
      "lat": "32.66443524699973"
    },
    {
      "id": "pt.ine.add.MAD.7011",
      "street": "ENT N 1 DO CAMINHO VELHO DO COVÃO",
      "house": "1",
      "postcode": "9325-310",
      "city": "ESTREITO CÂMARA DE LOBOS",
      "lon": "-16.96441813457164",
      "lat": "32.66416461380334"
    },
    {
      "id": "pt.ine.add.MAD.7012",
      "street": "ENT N 1 DO CAMINHO VELHO DO COVÃO",
      "house": "10",
      "postcode": "9325-310",
      "city": "ESTREITO CÂMARA DE LOBOS",
      "lon": "-16.964437478147527",
      "lat": "32.66407412457944"
    },
    {
      "id": "pt.ine.add.MAD.7013",
      "street": "ENT N 1 DO CAMINHO VELHO DO COVÃO",
      "house": "10",
      "postcode": "9325-310",
      "city": "ESTREITO CÂMARA DE LOBOS",
      "lon": "-16.964437478147527",
      "lat": "32.66407412457944"
    },
    {
      "id": "pt.ine.add.MAD.7014",
      "street": "ENT N 1 DO CAMINHO VELHO DO COVÃO",
      "house": "10",
      "postcode": "9325-310",
      "city": "ESTREITO CÂMARA DE LOBOS",
      "lon": "-16.964628932967653",
      "lat": "32.664053089246984"
    },
    {
      "id": "pt.ine.add.MAD.7015",
      "street": "ENT N 1 DO CAMINHO VELHO DO COVÃO",
      "house": "10",
      "postcode": "9325-310",
      "city": "ESTREITO CÂMARA DE LOBOS",
      "lon": "-16.964628932967653",
      "lat": "32.664053089246984"
    },
    {
      "id": "pt.ine.add.MAD.7016",
      "street": "ENT N 1 DO CAMINHO VELHO DO COVÃO",
      "house": "10",
      "postcode": "9325-310",
      "city": "ESTREITO CÂMARA DE LOBOS",
      "lon": "-16.964628932967653",
      "lat": "32.664053089246984"
    },
    {
      "id": "pt.ine.add.MAD.7017",
      "street": "ENT N 1 DO CAMINHO VELHO DO COVÃO",
      "house": "10",
      "postcode": "9325-310",
      "city": "ESTREITO CÂMARA DE LOBOS",
      "lon": "-16.964628932967653",
      "lat": "32.664053089246984"
    },
    {
      "id": "pt.ine.add.MAD.7792",
      "street": "ENT N 1 DO CAMINHO VELHO DO COVÃO",
      "house": "6",
      "postcode": "9325-310",
      "city": "ESTREITO CÂMARA DE LOBOS",
      "lon": "-16.9647053170595",
      "lat": "32.664133060729725"
    },
    {
      "id": "pt.ine.add.MAD.7793",
      "street": "CAM VELHO COVAO AN",
      "house": "AN",
      "postcode": "9325-310",
      "city": "ESTREITO CÂMARA DE LOBOS",
      "lon": "-16.96415661394624",
      "lat": "32.663907168170425"
    },
    {
      "id": "pt.ine.add.MAD.7794",
      "street": "CAM VELHO COVAO COMPLEXO HABITACIONAL PEDREIR",
      "house": "B L F",
      "postcode": "9325-310",
      "city": "ESTREITO CÂMARA DE LOBOS",
      "lon": "-16.96415661394624",
      "lat": "32.663907168170425"
    },
    {
      "id": "pt.ine.add.MAD.7795",
      "street": "CAM VELHO COVAO AQ",
      "house": "AQ",
      "postcode": "9325-310",
      "city": "ESTREITO CÂMARA DE LOBOS",
      "lon": "-16.96415661394624",
      "lat": "32.663907168170425"
    },
    {
      "id": "pt.ine.add.MAD.7796",
      "street": "CAM VELHO COVAO AR",
      "house": "AR",
      "postcode": "9325-310",
      "city": "ESTREITO CÂMARA DE LOBOS",
      "lon": "-16.96415661394624",
      "lat": "32.663907168170425"
    },
    {
      "id": "pt.ine.add.MAD.7797",
      "street": "CAM VELHO COVAO AS",
      "house": "AS",
      "postcode": "9325-310",
      "city": "ESTREITO CÂMARA DE LOBOS",
      "lon": "-16.96415661394624",
      "lat": "32.663907168170425"
    },
    {
      "id": "pt.ine.add.MAD.7798",
      "street": "CAM VELHO COVAO AT",
      "house": "AT",
      "postcode": "9325-310",
      "city": "ESTREITO CÂMARA DE LOBOS",
      "lon": "-16.96415661394624",
      "lat": "32.663907168170425"
    },
    {
      "id": "pt.ine.add.MAD.7799",
      "street": "CAM VELHO COVAO COMPLEXO HABITACIONAL PEDREIR",
      "house": "B L F",
      "postcode": "9325-310",
      "city": "ESTREITO CÂMARA DE LOBOS",
      "lon": "-16.96415661394624",
      "lat": "32.663907168170425"
    },
    {
      "id": "pt.ine.add.MAD.7800",
      "street": "CAM VELHO COVAO AE",
      "house": "AE",
      "postcode": "9325-310",
      "city": "ESTREITO CÂMARA DE LOBOS",
      "lon": "-16.964293987929054",
      "lat": "32.66385090551748"
    },
    {
      "id": "pt.ine.add.MAD.7801",
      "street": "CAM VELHO COVAO AF",
      "house": "AF",
      "postcode": "9325-310",
      "city": "ESTREITO CÂMARA DE LOBOS",
      "lon": "-16.964293987929054",
      "lat": "32.66385090551748"
    },
    {
      "id": "pt.ine.add.MAD.7802",
      "street": "CAM VELHO COVAO AG",
      "house": "AG",
      "postcode": "9325-310",
      "city": "ESTREITO CÂMARA DE LOBOS",
      "lon": "-16.964293987929054",
      "lat": "32.66385090551748"
    },
    {
      "id": "pt.ine.add.MAD.7803",
      "street": "CAM VELHO COVAO AH",
      "house": "AH",
      "postcode": "9325-310",
      "city": "ESTREITO CÂMARA DE LOBOS",
      "lon": "-16.964293987929054",
      "lat": "32.66385090551748"
    },
    {
      "id": "pt.ine.add.MAD.7804",
      "street": "CAM VELHO COVAO AI",
      "house": "AI",
      "postcode": "9325-310",
      "city": "ESTREITO CÂMARA DE LOBOS",
      "lon": "-16.964293987929054",
      "lat": "32.66385090551748"
    },
    {
      "id": "pt.ine.add.MAD.7805",
      "street": "CAM VELHO COVAO AJ",
      "house": "AJ",
      "postcode": "9325-310",
      "city": "ESTREITO CÂMARA DE LOBOS",
      "lon": "-16.964293987929054",
      "lat": "32.66385090551748"
    },
    {
      "id": "pt.ine.add.MAD.8599",
      "street": "CAM VELHO COVAO",
      "house": "AL",
      "postcode": "9325-310",
      "city": "ESTREITO CÂMARA DE LOBOS",
      "lon": "-16.964293987929054",
      "lat": "32.66385090551748"
    },
    {
      "id": "pt.ine.add.MAD.8600",
      "street": "CAM VELHO COVÃO",
      "house": "",
      "postcode": "9325-310",
      "city": "ESTREITO CÂMARA DE LOBOS",
      "lon": "-16.964106484553056",
      "lat": "32.66356524489896"
    },
    {
      "id": "pt.ine.add.MAD.8601",
      "street": "CAM VELHO COVÃO",
      "house": "",
      "postcode": "9325-310",
      "city": "ESTREITO CÂMARA DE LOBOS",
      "lon": "-16.964106484553056",
      "lat": "32.66356524489896"
    },
    {
      "id": "pt.ine.add.MAD.8602",
      "street": "CAM VELHO COVAO COMP HABITACIONAL DA PEDREIRA",
      "house": "",
      "postcode": "9325-310",
      "city": "ESTREITO CÂMARA DE LOBOS",
      "lon": "-16.964106484553056",
      "lat": "32.66356524489896"
    },
    {
      "id": "pt.ine.add.MAD.8603",
      "street": "CAM VELHO COVÃO",
      "house": "",
      "postcode": "9325-310",
      "city": "ESTREITO CÂMARA DE LOBOS",
      "lon": "-16.964106484553056",
      "lat": "32.66356524489896"
    },
    {
      "id": "pt.ine.add.MAD.8604",
      "street": "CAM VELHO COVÃO",
      "house": "",
      "postcode": "9325-310",
      "city": "ESTREITO CÂMARA DE LOBOS",
      "lon": "-16.964106484553056",
      "lat": "32.66356524489896"
    },
    {
      "id": "pt.ine.add.MAD.8605",
      "street": "CAM VELHO COVÃO",
      "house": "",
      "postcode": "9325-310",
      "city": "ESTREITO CÂMARA DE LOBOS",
      "lon": "-16.964106484553056",
      "lat": "32.66356524489896"
    },
    {
      "id": "pt.ine.add.MAD.8606",
      "street": "CAM VELHO COVÃO",
      "house": "",
      "postcode": "9325-310",
      "city": "ESTREITO CÂMARA DE LOBOS",
      "lon": "-16.964106484553056",
      "lat": "32.66356524489896"
    },
    {
      "id": "pt.ine.add.MAD.8607",
      "street": "CAM VELHO COVÃO",
      "house": "",
      "postcode": "9325-310",
      "city": "ESTREITO CÂMARA DE LOBOS",
      "lon": "-16.964106484553056",
      "lat": "32.66356524489896"
    },
    {
      "id": "pt.ine.add.MAD.8608",
      "street": "CAM VELHO COVAO J",
      "house": "J",
      "postcode": "9325-310",
      "city": "ESTREITO CÂMARA DE LOBOS",
      "lon": "-16.96413589477385",
      "lat": "32.6634475422037"
    },
    {
      "id": "pt.ine.add.MAD.8609",
      "street": "CAM VELHO COVAO L",
      "house": "L",
      "postcode": "9325-310",
      "city": "ESTREITO CÂMARA DE LOBOS",
      "lon": "-16.96413589477385",
      "lat": "32.6634475422037"
    },
    {
      "id": "pt.ine.add.MAD.8610",
      "street": "CAM VELHO COVAO M",
      "house": "M",
      "postcode": "9325-310",
      "city": "ESTREITO CÂMARA DE LOBOS",
      "lon": "-16.96413589477385",
      "lat": "32.6634475422037"
    },
    {
      "id": "pt.ine.add.MAD.8611",
      "street": "R ANTÓNIO PROCORO DE MACEDO JUNIOR",
      "house": "19",
      "postcode": "9325-018",
      "city": "ESTREITO CÂMARA DE LOBOS",
      "lon": "-16.96418366225771",
      "lat": "32.663194272572106"
    },
    {
      "id": "pt.ine.add.MAD.9421",
      "street": "CAM CAPELA DA ENCARNAÇÃO",
      "house": "24",
      "postcode": "9325-375",
      "city": "ESTREITO CÂMARA DE LOBOS",
      "lon": "-16.965274549939394",
      "lat": "32.66432255468784"
    },
    {
      "id": "pt.ine.add.MAD.9413",
      "street": "R ANTÓNIO PROCORO DE MACEDO JUNIOR",
      "house": "7",
      "postcode": "9325-018",
      "city": "ESTREITO CÂMARA DE LOBOS",
      "lon": "-16.964356565528036",
      "lat": "32.6628127827545"
    },
    {
      "id": "pt.ine.add.MAD.9414",
      "street": "R ANTÓNIO PROCORO DE MACEDO JUNIOR",
      "house": "3",
      "postcode": "9325-018",
      "city": "ESTREITO CÂMARA DE LOBOS",
      "lon": "-16.964458214653636",
      "lat": "32.662585725253045"
    },
    {
      "id": "pt.ine.add.MAD.9415",
      "street": "CAM CAPELA DA ENCARNAÇÃO",
      "house": "6",
      "postcode": "9325-018",
      "city": "ESTREITO CÂMARA DE LOBOS",
      "lon": "-16.964559070464894",
      "lat": "32.662809611834874"
    },
    {
      "id": "pt.ine.add.MAD.9416",
      "street": "ENT 1 DA RUA ANTÓNIO PROCORO MACEDO JUNIOR",
      "house": "3",
      "postcode": "9325-018",
      "city": "ESTREITO CÂMARA DE LOBOS",
      "lon": "-16.964478540436726",
      "lat": "32.66302732008069"
    },
    {
      "id": "pt.ine.add.MAD.9417",
      "street": "ENT 1 DA RUA ANTÓNIO PROCORO MACEDO JUNIOR",
      "house": "2",
      "postcode": "9325-018",
      "city": "ESTREITO CÂMARA DE LOBOS",
      "lon": "-16.964329720479583",
      "lat": "32.663047687588865"
    },
    {
      "id": "pt.ine.add.MAD.9418",
      "street": "CAM CAPELA DA ENCARNAÇÃO",
      "house": "14",
      "postcode": "9325-375",
      "city": "ESTREITO CÂMARA DE LOBOS",
      "lon": "-16.96472111076649",
      "lat": "32.663393285488304"
    },
    {
      "id": "pt.ine.add.MAD.9419",
      "street": "CAM CAPELA DA ENCARNAÇÃO",
      "house": "12",
      "postcode": "9325-375",
      "city": "ESTREITO CÂMARA DE LOBOS",
      "lon": "-16.96451939376606",
      "lat": "32.66343251889603"
    },
    {
      "id": "pt.ine.add.MAD.9420",
      "street": "CAM CAPELA DA ENCARNAÇÃO",
      "house": "20",
      "postcode": "9325-375",
      "city": "ESTREITO CÂMARA DE LOBOS",
      "lon": "-16.965059212287084",
      "lat": "32.66422672290123"
    },
    {
      "id": "pt.ine.add.MAD.9422",
      "street": "CAM CAPELA ENCARNACAO",
      "house": "24",
      "postcode": "9325-375",
      "city": "ESTREITO CÂMARA DE LOBOS",
      "lon": "-16.96510559566226",
      "lat": "32.66439735035602"
    },
    {
      "id": "pt.ine.add.MAD.9423",
      "street": "TV LOMBO DA VARGEM",
      "house": "6",
      "postcode": "9325-344",
      "city": "ESTREITO CÂMARA DE LOBOS",
      "lon": "-16.96592886348382",
      "lat": "32.665475706021624"
    },
    {
      "id": "pt.ine.add.MAD.9424",
      "street": "TV LOMBO DA VARGEM",
      "house": "8",
      "postcode": "9325-344",
      "city": "ESTREITO CÂMARA DE LOBOS",
      "lon": "-16.965983538087123",
      "lat": "32.66553797960534"
    },
    {
      "id": "pt.ine.add.MAD.9425",
      "street": "TV LOMBO DA VARGEM",
      "house": "12",
      "postcode": "9325-344",
      "city": "ESTREITO CÂMARA DE LOBOS",
      "lon": "-16.9661570359079",
      "lat": "32.66567053995304"
    },
    {
      "id": "pt.ine.add.MAD.9426",
      "street": "TV LOMBO DA VARGEM",
      "house": "14",
      "postcode": "9325-344",
      "city": "ESTREITO CÂMARA DE LOBOS",
      "lon": "-16.966309414749563",
      "lat": "32.66581244969374"
    },
    {
      "id": "pt.ine.add.MAD.10208",
      "street": "TV LOMBO DA VARGEM",
      "house": "18",
      "postcode": "9325-344",
      "city": "ESTREITO CÂMARA DE LOBOS",
      "lon": "-16.966460608941784",
      "lat": "32.665900266047814"
    },
    {
      "id": "pt.ine.add.MAD.10209",
      "street": "TV LOMBO DA VARGEM",
      "house": "4",
      "postcode": "9325-344",
      "city": "ESTREITO CÂMARA DE LOBOS",
      "lon": "-16.966378106068717",
      "lat": "32.66602782004099"
    },
    {
      "id": "pt.ine.add.MAD.10210",
      "street": "CAM CAPELA DA ENCARNAÇÃO",
      "house": "18",
      "postcode": "9325-375",
      "city": "ESTREITO CÂMARA DE LOBOS",
      "lon": "-16.965034343066982",
      "lat": "32.664064777070216"
    },
    {
      "id": "pt.ine.add.MAD.55191",
      "street": "CAM CAPELA DA ENCARNAÇÃO",
      "house": "10",
      "postcode": "9325-018",
      "city": "ESTREITO CÂMARA DE LOBOS",
      "lon": "-16.9646060439635",
      "lat": "32.66300728620819"
    },
    {
      "id": "pt.ine.add.MAD.55192",
      "street": "R URBANIZAÇÃO DO COVÃO",
      "house": "",
      "postcode": "9325-345",
      "city": "ESTREITO CÂMARA DE LOBOS",
      "lon": "-16.96481505600074",
      "lat": "32.6647626463117"
    },
    {
      "id": "pt.ine.add.MAD.59401",
      "street": "R URBANIZAÇÃO DO COVÃO",
      "house": "",
      "postcode": "9325-345",
      "city": "ESTREITO CÂMARA DE LOBOS",
      "lon": "-16.964848215261885",
      "lat": "32.66481623876094"
    },
    {
      "id": "pt.ine.add.MAD.59402",
      "street": "R ALF MANUEL JOAQUIM LOPES",
      "house": "25",
      "postcode": "9325-361",
      "city": "ESTREITO CÂMARA DE LOBOS",
      "lon": "-16.969083325372026",
      "lat": "32.664434184788"
    },
    {
      "id": "pt.ine.add.MAD.59796",
      "street": "R ANTÓNIO PROCORO MACEDO JUNIOR",
      "house": "61",
      "postcode": "9325-018",
      "city": "ESTREITO CÂMARA DE LOBOS",
      "lon": "-16.965578127205198",
      "lat": "32.66650030685677"
    },
    {
      "id": "pt.ine.add.MAD.59798",
      "street": "CAM CAPELA DA ENCARNAÇÃO",
      "house": "4",
      "postcode": "9325-375",
      "city": "ESTREITO CÂMARA DE LOBOS",
      "lon": "-16.966455656027282",
      "lat": "32.66470086629227"
    },
    {
      "id": "pt.ine.add.MAD.61482",
      "street": "R ANTONIO PROCORO MACEDO JUNIOR G",
      "house": "G",
      "postcode": "9325-018",
      "city": "ESTREITO CÂMARA DE LOBOS",
      "lon": "-16.965199746884196",
      "lat": "32.66626273190744"
    },
    {
      "id": "pt.ine.add.MAD.61483",
      "street": "R ANTONIO PROCORO MACEDO JUNIOR H",
      "house": "H",
      "postcode": "9325-018",
      "city": "ESTREITO CÂMARA DE LOBOS",
      "lon": "-16.965199746884196",
      "lat": "32.66626273190744"
    },
    {
      "id": "pt.ine.add.MAD.61484",
      "street": "R ANTONIO PROCORO MACEDO JUNIOR J",
      "house": "J",
      "postcode": "9325-018",
      "city": "ESTREITO CÂMARA DE LOBOS",
      "lon": "-16.965199746884196",
      "lat": "32.66626273190744"
    },
    {
      "id": "pt.ine.add.MAD.61485",
      "street": "TV LOMBO DA VARGEM",
      "house": "16",
      "postcode": "9325-344",
      "city": "ESTREITO CÂMARA DE LOBOS",
      "lon": "-16.966385209323445",
      "lat": "32.66586537342562"
    },
    {
      "id": "pt.ine.add.MAD.61486",
      "street": "R URBANIZAÇÃO DO COVÃO",
      "house": "",
      "postcode": "9325-345",
      "city": "ESTREITO CÂMARA DE LOBOS",
      "lon": "-16.964812882211824",
      "lat": "32.66563748755217"
    },
    {
      "id": "pt.ine.add.MAD.64010",
      "street": "CAM VELHO DO COVÃO",
      "house": "9",
      "postcode": "9325-310",
      "city": "ESTREITO CÂMARA DE LOBOS",
      "lon": "-16.96460702154513",
      "lat": "32.66451338263924"
    },
    {
      "id": "pt.ine.add.MAD.64011",
      "street": "R ALF MANUEL JOAQUIM LOPES",
      "house": "F",
      "postcode": "9325-361",
      "city": "ESTREITO CÂMARA DE LOBOS",
      "lon": "-16.968374160490313",
      "lat": "32.66467077927263"
    },
    {
      "id": "pt.ine.add.MAD.64012",
      "street": "R ALF MANUEL JOAQUIM LOPES",
      "house": "F",
      "postcode": "9325-361",
      "city": "ESTREITO CÂMARA DE LOBOS",
      "lon": "-16.968374160490313",
      "lat": "32.66467077927263"
    },
    {
      "id": "pt.ine.add.MAD.64013",
      "street": "R ALF MANUEL JOAQUIM LOPES",
      "house": "F",
      "postcode": "9325-361",
      "city": "ESTREITO CÂMARA DE LOBOS",
      "lon": "-16.968374160490313",
      "lat": "32.66467077927263"
    },
    {
      "id": "pt.ine.add.MAD.64014",
      "street": "R ALF MANUEL JOAQUIM LOPES",
      "house": "F",
      "postcode": "9325-361",
      "city": "ESTREITO CÂMARA DE LOBOS",
      "lon": "-16.968374160490313",
      "lat": "32.66467077927263"
    },
    {
      "id": "pt.ine.add.MAD.64015",
      "street": "R ALF MANUEL JOAQUIM LOPES AH",
      "house": "AH",
      "postcode": "9325-361",
      "city": "ESTREITO CÂMARA DE LOBOS",
      "lon": "-16.968374160490313",
      "lat": "32.66467077927263"
    },
    {
      "id": "pt.ine.add.MAD.64164",
      "street": "R ALF MANUEL JOAQUIM LOPES AI",
      "house": "AI",
      "postcode": "9325-361",
      "city": "ESTREITO CÂMARA DE LOBOS",
      "lon": "-16.968374160490313",
      "lat": "32.66467077927263"
    },
    {
      "id": "pt.ine.add.MAD.64165",
      "street": "R ALF MANUEL JOAQUIM LOPES",
      "house": "F",
      "postcode": "9325-361",
      "city": "ESTREITO CÂMARA DE LOBOS",
      "lon": "-16.968374160490313",
      "lat": "32.66467077927263"
    },
    {
      "id": "pt.ine.add.MAD.64166",
      "street": "R ALF MANUEL JOAQUIM LOPES",
      "house": "F",
      "postcode": "9325-361",
      "city": "ESTREITO CÂMARA DE LOBOS",
      "lon": "-16.968374160490313",
      "lat": "32.66467077927263"
    },
    {
      "id": "pt.ine.add.MAD.64167",
      "street": "R ALF MANUEL JOAQUIM LOPES",
      "house": "AL",
      "postcode": "9325-361",
      "city": "ESTREITO CÂMARA DE LOBOS",
      "lon": "-16.968374160490313",
      "lat": "32.66467077927263"
    },
    {
      "id": "pt.ine.add.MAD.66223",
      "street": "R ANTÓNIO PROCORO DE MACEDO JUNIOR",
      "house": "13",
      "postcode": "9325-018",
      "city": "ESTREITO CÂMARA DE LOBOS",
      "lon": "-16.964306233990282",
      "lat": "32.662948850343746"
    },
    {
      "id": "pt.ine.add.MAD.66224",
      "street": "CAM LOMBO DA VARGEM",
      "house": "13",
      "postcode": "9325-057",
      "city": "ESTREITO CÂMARA DE LOBOS",
      "lon": "-16.967362814756378",
      "lat": "32.665227760922114"
    },
    {
      "id": "pt.ine.add.MAD.66225",
      "street": "CAM CAPELA DA ENCARNAÇÃO",
      "house": "1",
      "postcode": "9325-375",
      "city": "ESTREITO CÂMARA DE LOBOS",
      "lon": "-16.966997444334446",
      "lat": "32.664124199154095"
    },
    {
      "id": "pt.ine.add.MAD.66226",
      "street": "R ALF MANUEL JOAQUIM LOPES APARTAMENTOS DA VARGEM",
      "house": "",
      "postcode": "9325-361",
      "city": "ESTREITO CÂMARA DE LOBOS",
      "lon": "-16.968412264531423",
      "lat": "32.66494975872637"
    },
    {
      "id": "pt.ine.add.MAD.66227",
      "street": "R ALF MANUEL JOAQUIM LOPES APARTAMENTOS DA VARGEM",
      "house": "",
      "postcode": "9325-361",
      "city": "ESTREITO CÂMARA DE LOBOS",
      "lon": "-16.968412264531423",
      "lat": "32.66494975872637"
    },
    {
      "id": "pt.ine.add.MAD.66228",
      "street": "R ALF MANUEL JOAQUIM LOPES APARTAMENTOS DA VARGEM",
      "house": "",
      "postcode": "9325-361",
      "city": "ESTREITO CÂMARA DE LOBOS",
      "lon": "-16.968412264531423",
      "lat": "32.66494975872637"
    },
    {
      "id": "pt.ine.add.MAD.66426",
      "street": "R ALF MANUEL JOAQUIM LOPES APARTAMENTOS DA VARGEM",
      "house": "",
      "postcode": "9325-361",
      "city": "ESTREITO CÂMARA DE LOBOS",
      "lon": "-16.968412264531423",
      "lat": "32.66494975872637"
    },
    {
      "id": "pt.ine.add.MAD.69328",
      "street": "R URBANIZAÇÃO DO COVÃO",
      "house": "",
      "postcode": "9325-345",
      "city": "ESTREITO CÂMARA DE LOBOS",
      "lon": "-16.96442385268512",
      "lat": "32.66491307077184"
    },
    {
      "id": "pt.ine.add.MAD.69329",
      "street": "R ALF MANUEL JOAQUIM LOPES",
      "house": "7",
      "postcode": "9325-361",
      "city": "ESTREITO CÂMARA DE LOBOS",
      "lon": "-16.967971317430862",
      "lat": "32.664776304175874"
    },
    {
      "id": "pt.ine.add.MAD.71699",
      "street": "TV LOMBO DA VARGEM",
      "house": "4",
      "postcode": "9325-344",
      "city": "ESTREITO CÂMARA DE LOBOS",
      "lon": "-16.965831950049772",
      "lat": "32.66543213156183"
    },
    {
      "id": "pt.ine.add.MAD.71700",
      "street": "TV LOMBO VARGEM",
      "house": "",
      "postcode": "9325-344",
      "city": "ESTREITO CÂMARA DE LOBOS",
      "lon": "-16.966059529718176",
      "lat": "32.66559991908527"
    },
    {
      "id": "pt.ine.add.MAD.74468",
      "street": "CAM VELHO COVÃO COMPLEXO HABIT DA PEDREIRA",
      "house": "",
      "postcode": "9325-310",
      "city": "ESTREITO CÂMARA DE LOBOS",
      "lon": "-16.96430544004259",
      "lat": "32.66339979450485"
    },
    {
      "id": "pt.ine.add.MAD.74469",
      "street": "CAM VELHO COVÃO COMPLEXO HABIT DA PEDREIRA",
      "house": "",
      "postcode": "9325-310",
      "city": "ESTREITO CÂMARA DE LOBOS",
      "lon": "-16.96430544004259",
      "lat": "32.66339979450485"
    },
    {
      "id": "pt.ine.add.MAD.74470",
      "street": "CAM VELHO COVÃO COMPLEXO HABIT DA PEDREIRA",
      "house": "",
      "postcode": "9325-310",
      "city": "ESTREITO CÂMARA DE LOBOS",
      "lon": "-16.96430544004259",
      "lat": "32.66339979450485"
    },
    {
      "id": "pt.ine.add.MAD.78658",
      "street": "TV LOMBO DA VARGEM",
      "house": "1",
      "postcode": "9325-344",
      "city": "ESTREITO CÂMARA DE LOBOS",
      "lon": "-16.965950373155476",
      "lat": "32.664997381647154"
    },
    {
      "id": "pt.ine.add.MAD.78827",
      "street": "R URBANIZAÇÃO DO COVÃO",
      "house": "",
      "postcode": "9325-345",
      "city": "ESTREITO CÂMARA DE LOBOS",
      "lon": "-16.964909204210606",
      "lat": "32.665167010137395"
    },
    {
      "id": "pt.ine.add.MAD.82470",
      "street": "CAM CAPELA ENCARNAÇÃO",
      "house": "8",
      "postcode": "9325-008",
      "city": "ESTREITO CÂMARA DE LOBOS",
      "lon": "-16.964455053791507",
      "lat": "32.662928482869205"
    },
    {
      "id": "pt.ine.add.MAD.82565",
      "street": "TV LOMBO DA VARGEM",
      "house": "9",
      "postcode": "9325-344",
      "city": "ESTREITO CÂMARA DE LOBOS",
      "lon": "-16.966161769705078",
      "lat": "32.66539990693967"
    },
    {
      "id": "pt.ine.add.MAD.82567",
      "street": "R URBANIZAÇÃO DO COVÃO",
      "house": "",
      "postcode": "9325-345",
      "city": "ESTREITO CÂMARA DE LOBOS",
      "lon": "-16.96481742271703",
      "lat": "32.66535783889348"
    },
    {
      "id": "pt.ine.add.MAD.82568",
      "street": "R URBANIZAÇÃO DO COVÃO",
      "house": "",
      "postcode": "9325-345",
      "city": "ESTREITO CÂMARA DE LOBOS",
      "lon": "-16.964760382682513",
      "lat": "32.66470037216218"
    },
    {
      "id": "pt.ine.add.MAD.84729",
      "street": "R ANTÓNIO PROCORO MACEDO JUNIOR",
      "house": "57",
      "postcode": "9325-018",
      "city": "ESTREITO CÂMARA DE LOBOS",
      "lon": "-16.965234486189917",
      "lat": "32.66638844850123"
    },
    {
      "id": "pt.ine.add.MAD.84730",
      "street": "R ANTÓNIO PROCORO DE MACEDO JUNIOR",
      "house": "15",
      "postcode": "9325-018",
      "city": "ESTREITO CÂMARA DE LOBOS",
      "lon": "-16.964255113193207",
      "lat": "32.66304885573159"
    },
    {
      "id": "pt.ine.add.MAD.84731",
      "street": "CAM CAPELA DA ENCARNAÇÃO",
      "house": "3",
      "postcode": "9325-375",
      "city": "ESTREITO CÂMARA DE LOBOS",
      "lon": "-16.96514112349219",
      "lat": "32.66455912920038"
    },
    {
      "id": "pt.ine.add.MAD.84732",
      "street": "TV LOMBO DA VARGEM",
      "house": "20",
      "postcode": "9325-344",
      "city": "ESTREITO CÂMARA DE LOBOS",
      "lon": "-16.966504230607175",
      "lat": "32.66594467539124"
    },
    {
      "id": "pt.ine.add.MAD.84733",
      "street": "R URBANIZAÇÃO DO COVÃO",
      "house": "",
      "postcode": "9325-345",
      "city": "ESTREITO CÂMARA DE LOBOS",
      "lon": "-16.964570896943208",
      "lat": "32.66529856931522"
    },
    {
      "id": "pt.ine.add.MAD.84734",
      "street": "CAM VELHO COVÃO",
      "house": "B",
      "postcode": "9325-310",
      "city": "ESTREITO CÂMARA DE LOBOS",
      "lon": "-16.964503397714687",
      "lat": "32.66465028484095"
    },
    {
      "id": "pt.ine.add.MAD.84735",
      "street": "R URBANIZAÇÃO DO COVÃO",
      "house": "",
      "postcode": "9325-345",
      "city": "ESTREITO CÂMARA DE LOBOS",
      "lon": "-16.9649394032327",
      "lat": "32.66508536946032"
    },
    {
      "id": "pt.ine.add.MAD.84736",
      "street": "R URBANIZAÇÃO DO COVÃO",
      "house": "",
      "postcode": "9325-345",
      "city": "ESTREITO CÂMARA DE LOBOS",
      "lon": "-16.96483577931013",
      "lat": "32.665222271930816"
    },
    {
      "id": "pt.ine.add.MAD.87240",
      "street": "CAM LOMBO DA VARGEM",
      "house": "7",
      "postcode": "9325-057",
      "city": "ESTREITO CÂMARA DE LOBOS",
      "lon": "-16.965929470559917",
      "lat": "32.666963769970884"
    },
    {
      "id": "pt.ine.add.MAD.87241",
      "street": "CAM VELHO COVÃO COMP HABITACIONAL PEDREIRA",
      "house": "",
      "postcode": "9325-310",
      "city": "ESTREITO CÂMARA DE LOBOS",
      "lon": "-16.96434412262563",
      "lat": "32.66370582238686"
    },
    {
      "id": "pt.ine.add.MAD.87242",
      "street": "CAM VELHO COVÃO COMP HABITACIONAL PEDREIRA",
      "house": "",
      "postcode": "9325-310",
      "city": "ESTREITO CÂMARA DE LOBOS",
      "lon": "-16.96434412262563",
      "lat": "32.66370582238686"
    },
    {
      "id": "pt.ine.add.MAD.87243",
      "street": "CAM VELHO COVÃO COMP HABITACIONAL PEDREIRA",
      "house": "",
      "postcode": "9325-310",
      "city": "ESTREITO CÂMARA DE LOBOS",
      "lon": "-16.96434412262563",
      "lat": "32.66370582238686"
    },
    {
      "id": "pt.ine.add.MAD.87244",
      "street": "CAM VELHO COVÃO COMP HABITACIONAL PEDREIRA",
      "house": "",
      "postcode": "9325-310",
      "city": "ESTREITO CÂMARA DE LOBOS",
      "lon": "-16.96434412262563",
      "lat": "32.66370582238686"
    },
    {
      "id": "pt.ine.add.MAD.87245",
      "street": "CAM VELHO COVÃO COMP HABITACIONAL PEDREIRA",
      "house": "",
      "postcode": "9325-310",
      "city": "ESTREITO CÂMARA DE LOBOS",
      "lon": "-16.96434412262563",
      "lat": "32.66370582238686"
    },
    {
      "id": "pt.ine.add.MAD.92076",
      "street": "R ANTÓNIO PROCORO MACEDO JUNIOR",
      "house": "59",
      "postcode": "9325-018",
      "city": "ESTREITO CÂMARA DE LOBOS",
      "lon": "-16.965300016908408",
      "lat": "32.666459570933846"
    },
    {
      "id": "pt.ine.add.MAD.92271",
      "street": "CAM LOMBO DA VARGEM",
      "house": "25",
      "postcode": "9325-057",
      "city": "ESTREITO CÂMARA DE LOBOS",
      "lon": "-16.96875196842405",
      "lat": "32.66536830335499"
    },
    {
      "id": "pt.ine.add.MAD.92272",
      "street": "R ALF MANUEL JOAQUIM LOPES - APARTAMENTOS DA VARGEM",
      "house": "80",
      "postcode": "9325-361",
      "city": "ESTREITO CÂMARA DE LOBOS",
      "lon": "-16.968388772975697",
      "lat": "32.66485092246538"
    },
    {
      "id": "pt.ine.add.MAD.92273",
      "street": "R ALF MANUEL JOAQUIM LOPES - APARTAMENTOS DA VARGEM",
      "house": "80",
      "postcode": "9325-361",
      "city": "ESTREITO CÂMARA DE LOBOS",
      "lon": "-16.968388772975697",
      "lat": "32.66485092246538"
    },
    {
      "id": "pt.ine.add.MAD.92274",
      "street": "R ALF MANUEL JOAQUIM LOPES - APARTAMENTOS DA VARGEM",
      "house": "80",
      "postcode": "9325-361",
      "city": "ESTREITO CÂMARA DE LOBOS",
      "lon": "-16.968388772975697",
      "lat": "32.66485092246538"
    },
    {
      "id": "pt.ine.add.MAD.92275",
      "street": "R ALF MANUEL JOAQUIM LOPES - APARTAMENTOS DA VARGEM",
      "house": "80",
      "postcode": "9325-361",
      "city": "ESTREITO CÂMARA DE LOBOS",
      "lon": "-16.968388772975697",
      "lat": "32.66485092246538"
    },
    {
      "id": "pt.ine.add.MAD.92276",
      "street": "R ALF MANUEL JOAQUIM LOPES - APARTAMENTOS DA VARGEM",
      "house": "80",
      "postcode": "9325-361",
      "city": "ESTREITO CÂMARA DE LOBOS",
      "lon": "-16.968388772975697",
      "lat": "32.66485092246538"
    },
    {
      "id": "pt.ine.add.MAD.93509",
      "street": "R ANTÓNIO PROCORO DE MACEDO JUNIOR",
      "house": "63",
      "postcode": "9325-018",
      "city": "ESTREITO CÂMARA DE LOBOS",
      "lon": "-16.96538844426684",
      "lat": "32.666602483636105"
    },
    {
      "id": "pt.ine.add.MAD.93510",
      "street": "CAM CAPELA DA ENCARNAÇÃO",
      "house": "22",
      "postcode": "9325-375",
      "city": "ESTREITO CÂMARA DE LOBOS",
      "lon": "-16.96516401905975",
      "lat": "32.66414391352047"
    },
    {
      "id": "pt.ine.add.MAD.93511",
      "street": "R ANTÓNIO PROCORO DE MACEDO JUNIOR",
      "house": "35",
      "postcode": "9325-018",
      "city": "ESTREITO CÂMARA DE LOBOS",
      "lon": "-16.96369396061035",
      "lat": "32.66420300709584"
    },
    {
      "id": "pt.ine.add.MAD.93512",
      "street": "TV CAPELA DA ENCARNAÇÃO",
      "house": "5",
      "postcode": "9325-339",
      "city": "ESTREITO CÂMARA DE LOBOS",
      "lon": "-16.967614650608176",
      "lat": "32.66455643307135"
    },
    {
      "id": "pt.ine.add.MAD.93674",
      "street": "R ALF MANUEL JOAQUIM LOPES - APARTAMENTOS DA VARGEM",
      "house": "",
      "postcode": "9325-361",
      "city": "ESTREITO CÂMARA DE LOBOS",
      "lon": "-16.968795768515232",
      "lat": "32.664934722125345"
    },
    {
      "id": "pt.ine.add.MAD.93675",
      "street": "R ALF MANUEL JOAQUIM LOPES - APARTAMENTOS DA VARGEM",
      "house": "",
      "postcode": "9325-361",
      "city": "ESTREITO CÂMARA DE LOBOS",
      "lon": "-16.968795768515232",
      "lat": "32.664934722125345"
    },
    {
      "id": "pt.ine.add.MAD.93676",
      "street": "R ALF MANUEL JOAQUIM LOPES - APARTAMENTOS DA VARGEM",
      "house": "",
      "postcode": "9325-361",
      "city": "ESTREITO CÂMARA DE LOBOS",
      "lon": "-16.968795768515232",
      "lat": "32.664934722125345"
    },
    {
      "id": "pt.ine.add.MAD.93677",
      "street": "R ALF MANUEL JOAQUIM LOPES - APARTAMENTOS DA VARGEM",
      "house": "",
      "postcode": "9325-361",
      "city": "ESTREITO CÂMARA DE LOBOS",
      "lon": "-16.968795768515232",
      "lat": "32.664934722125345"
    },
    {
      "id": "pt.ine.add.MAD.93678",
      "street": "R ALF MANUEL JOAQUIM LOPES - APARTAMENTOS DA VARGEM",
      "house": "",
      "postcode": "9325-361",
      "city": "ESTREITO CÂMARA DE LOBOS",
      "lon": "-16.968795768515232",
      "lat": "32.664934722125345"
    },
    {
      "id": "pt.ine.add.MAD.96114",
      "street": "CAM VELHO COVÃO COMP HABITACIONAL PEDREIRA",
      "house": "",
      "postcode": "9325-310",
      "city": "ESTREITO CÂMARA DE LOBOS",
      "lon": "-16.96434412262563",
      "lat": "32.66370582238686"
    },
    {
      "id": "pt.ine.add.MAD.96930",
      "street": "R ANTÓNIO PROCORO DE MACEDO JUNIOR",
      "house": "37A",
      "postcode": "9325-018",
      "city": "ESTREITO CÂMARA DE LOBOS",
      "lon": "-16.963859161182278",
      "lat": "32.6644439242686"
    },
    {
      "id": "pt.ine.add.MAD.96969",
      "street": "R URBANIZAÇÃO DO COVÃO",
      "house": "",
      "postcode": "9325-345",
      "city": "ESTREITO CÂMARA DE LOBOS",
      "lon": "-16.96457228103695",
      "lat": "32.66487467195669"
    },
    {
      "id": "pt.ine.add.MAD.96980",
      "street": "CAM CAPELA DA ENCARNAÇÃO",
      "house": "14",
      "postcode": "9325-375",
      "city": "ESTREITO CÂMARA DE LOBOS",
      "lon": "-16.964629527798966",
      "lat": "32.663593129646756"
    },
    {
      "id": "pt.ine.add.MAD.97167",
      "street": "R ANTONIO PROCORO MACEDO JUNIOR",
      "house": "A",
      "postcode": "9325-018",
      "city": "ESTREITO CÂMARA DE LOBOS",
      "lon": "-16.965326267717245",
      "lat": "32.666197619463006"
    },
    {
      "id": "pt.ine.add.MAD.97274",
      "street": "R URBANIZACAO COVAO CASA B",
      "house": "CASA B",
      "postcode": "9325-345",
      "city": "ESTREITO CÂMARA DE LOBOS",
      "lon": "-16.9648399237578",
      "lat": "32.665411598263994"
    },
    {
      "id": "pt.ine.add.MAD.97661",
      "street": "R ALF MANUEL JOAQUIM LOPES APARTAMENTOS VARGEM",
      "house": "",
      "postcode": "9325-361",
      "city": "ESTREITO CÂMARA DE LOBOS",
      "lon": "-16.968457450159818",
      "lat": "32.664579286181215"
    },
    {
      "id": "pt.ine.add.MAD.97824",
      "street": "CAM VELHO COVAO",
      "house": "2",
      "postcode": "9325-310",
      "city": "ESTREITO CÂMARA DE LOBOS",
      "lon": "-16.96413589477385",
      "lat": "32.6634475422037"
    },
    {
      "id": "pt.ine.add.MAD.98105",
      "street": "R ALF MANUEL JOAQUIM LOPES",
      "house": "",
      "postcode": "9325-361",
      "city": "ESTREITO CÂMARA DE LOBOS",
      "lon": "-16.968627588110273",
      "lat": "32.66455857921438"
    },
    {
      "id": "pt.ine.add.MAD.99345",
      "street": "CAM VELHO COVÃO COMPLEXO HABIT DA PEDREIRA",
      "house": "",
      "postcode": "9325-310",
      "city": "ESTREITO CÂMARA DE LOBOS",
      "lon": "-16.96430544004259",
      "lat": "32.66339979450485"
    },
    {
      "id": "pt.ine.add.MAD.99744",
      "street": "TV LOMBO DA VARGEM",
      "house": "3",
      "postcode": "9325-344",
      "city": "ESTREITO CÂMARA DE LOBOS",
      "lon": "-16.96606011680126",
      "lat": "32.66513995986524"
    },
    {
      "id": "pt.ine.add.MAD.100391",
      "street": "CAM VELHO COVÃO COMP HABITACIONAL PEDREIRA",
      "house": "",
      "postcode": "9325-310",
      "city": "ESTREITO CÂMARA DE LOBOS",
      "lon": "-16.96434412262563",
      "lat": "32.66370582238686"
    },
    {
      "id": "pt.ine.add.MAD.101680",
      "street": "R ALF MANUEL JOAQUIM LOPES APARTAMENTOS DA VARGEM",
      "house": "",
      "postcode": "9325-361",
      "city": "ESTREITO CÂMARA DE LOBOS",
      "lon": "-16.968412264531423",
      "lat": "32.66494975872637"
    },
    {
      "id": "pt.ine.add.MAD.102678",
      "street": "CAM CAPELA DA ENCARNAÇÃO",
      "house": "4",
      "postcode": "9325-375",
      "city": "ESTREITO CÂMARA DE LOBOS",
      "lon": "-16.965227179903028",
      "lat": "32.6645938556745"
    },
    {
      "id": "pt.ine.add.MAD.102679",
      "street": "R ALF MANUEL JOAQUIM LOPES APARTAMENTOS DA VARGEM",
      "house": "",
      "postcode": "9325-361",
      "city": "ESTREITO CÂMARA DE LOBOS",
      "lon": "-16.968412264531423",
      "lat": "32.66494975872637"
    },
    {
      "id": "pt.ine.add.MAD.102857",
      "street": "CAM VELHO COVAO COMP HABJTACIONAL PEDREIRA",
      "house": "BLOLO B",
      "postcode": "9325-310",
      "city": "ESTREITO CÂMARA DE LOBOS",
      "lon": "-16.96413589477385",
      "lat": "32.6634475422037"
    },
    {
      "id": "pt.ine.add.MAD.104755",
      "street": "VR VARGEM",
      "house": "10",
      "postcode": "9325-350",
      "city": "ESTREITO CÂMARA DE LOBOS",
      "lon": "-16.968940062597593",
      "lat": "32.66519399757493"
    },
    {
      "id": "pt.ine.add.MAD.105620",
      "street": "R ALF MANUEL JOAQUIM LOPES",
      "house": "F",
      "postcode": "9325-361",
      "city": "ESTREITO CÂMARA DE LOBOS",
      "lon": "-16.968374160490313",
      "lat": "32.66467077927263"
    },
    {
      "id": "pt.ine.add.MAD.106473",
      "street": "R ALF MANUEL JOAQUIM LOPES",
      "house": "",
      "postcode": "9325-361",
      "city": "ESTREITO CÂMARA DE LOBOS",
      "lon": "-16.968627588110273",
      "lat": "32.66455857921438"
    },
    {
      "id": "pt.ine.add.MAD.106608",
      "street": "SIT DA VARGEM",
      "house": "23",
      "postcode": "9325-002",
      "city": "ESTREITO CÂMARA DE LOBOS",
      "lon": "-16.968193183012456",
      "lat": "32.66516964300784"
    },
    {
      "id": "pt.ine.add.MAD.106840",
      "street": "CAM VELHO COVAO AO",
      "house": "AO",
      "postcode": "9325-310",
      "city": "ESTREITO CÂMARA DE LOBOS",
      "lon": "-16.96415661394624",
      "lat": "32.663907168170425"
    },
    {
      "id": "pt.ine.add.MAD.116953",
      "street": "R ALF MANUEL JOAQUIM LOPES",
      "house": "",
      "postcode": "9325-361",
      "city": "ESTREITO CÂMARA DE LOBOS",
      "lon": "-16.96900873830341",
      "lat": "32.66492236105671"
    },
    {
      "id": "pt.ine.add.MAD.116954",
      "street": "R ALF MANUEL JOAQUIM LOPES",
      "house": "",
      "postcode": "9325-361",
      "city": "ESTREITO CÂMARA DE LOBOS",
      "lon": "-16.96900873830341",
      "lat": "32.66492236105671"
    },
    {
      "id": "pt.ine.add.MAD.116958",
      "street": "R ALF MANUEL JOAQUIM LOPES",
      "house": "",
      "postcode": "9325-361",
      "city": "ESTREITO CÂMARA DE LOBOS",
      "lon": "-16.96900873830341",
      "lat": "32.66492236105671"
    },
    {
      "id": "pt.ine.add.MAD.122200",
      "street": "R ALF MANUEL JOAQUIM LOPES APARTAMENTOS VARGEM",
      "house": "",
      "postcode": "9325-361",
      "city": "ESTREITO CÂMARA DE LOBOS",
      "lon": "-16.968457450159818",
      "lat": "32.664579286181215"
    },
    {
      "id": "pt.ine.add.MAD.122208",
      "street": "R ALF MANUEL JOAQUIM LOPES",
      "house": "",
      "postcode": "9325-361",
      "city": "ESTREITO CÂMARA DE LOBOS",
      "lon": "-16.968627588110273",
      "lat": "32.66455857921438"
    },
    {
      "id": "pt.ine.add.MAD.123154",
      "street": "R ANTONIO PROCORO MACEDO JUNIOR T",
      "house": "T",
      "postcode": "9325-018",
      "city": "ESTREITO CÂMARA DE LOBOS",
      "lon": "-16.965199746884196",
      "lat": "32.66626273190744"
    },
    {
      "id": "pt.ine.add.MAD.123422",
      "street": "CAM CAPELA DA ENCARNAÇÃO",
      "house": "3",
      "postcode": "9325-375",
      "city": "ESTREITO CÂMARA DE LOBOS",
      "lon": "-16.966361508257904",
      "lat": "32.664783509664296"
    },
    {
      "id": "pt.ine.add.MAD.123585",
      "street": "CAM VELHO COVÃO COMP HABITACIONAL PEDREIRA",
      "house": "",
      "postcode": "9325-310",
      "city": "ESTREITO CÂMARA DE LOBOS",
      "lon": "-16.96434412262563",
      "lat": "32.66370582238686"
    },
    {
      "id": "pt.ine.add.MAD.123757",
      "street": "R ALF MANUEL JOAQUIM LOPES",
      "house": "2A",
      "postcode": "9325-361",
      "city": "ESTREITO CÂMARA DE LOBOS",
      "lon": "-16.968148753660767",
      "lat": "32.66460216675327"
    },
    {
      "id": "pt.ine.add.MAD.123803",
      "street": "R ALF MANUEL JOAQUIM LOPES",
      "house": "C",
      "postcode": "9325-361",
      "city": "ESTREITO CÂMARA DE LOBOS",
      "lon": "-16.968571942540663",
      "lat": "32.66493823456457"
    },
    {
      "id": "pt.ine.add.MAD.124023",
      "street": "CAM CAPELA DA ENCARNAÇÃO",
      "house": "4",
      "postcode": "9325-018",
      "city": "ESTREITO CÂMARA DE LOBOS",
      "lon": "-16.964514859424806",
      "lat": "32.66273815506343"
    },
    {
      "id": "pt.ine.add.MAD.124339",
      "street": "R ALF MANUEL JOAQUIM LOPES",
      "house": "",
      "postcode": "9325-361",
      "city": "ESTREITO CÂMARA DE LOBOS",
      "lon": "-16.96900873830341",
      "lat": "32.66492236105671"
    },
    {
      "id": "pt.ine.add.MAD.124396",
      "street": "R URBANIZAÇÃO DO COVÃO",
      "house": "",
      "postcode": "9325-345",
      "city": "ESTREITO CÂMARA DE LOBOS",
      "lon": "-16.964628532989295",
      "lat": "32.665009070517996"
    },
    {
      "id": "pt.ine.add.MAD.125287",
      "street": "CAM VELHO COVÃO COMPLEXO HABIT DA PEDREIRA",
      "house": "",
      "postcode": "9325-310",
      "city": "ESTREITO CÂMARA DE LOBOS",
      "lon": "-16.96430544004259",
      "lat": "32.66339979450485"
    },
    {
      "id": "pt.ine.add.MAD.125542",
      "street": "R ALF MANUEL JOAQUIM LOPES - APARTAMENTOS DA VARGEM",
      "house": "",
      "postcode": "9325-361",
      "city": "ESTREITO CÂMARA DE LOBOS",
      "lon": "-16.968795768515232",
      "lat": "32.664934722125345"
    },
    {
      "id": "pt.ine.add.MAD.125565",
      "street": "R ALF MANUEL JOAQUIM LOPES - APARTAMENTOS DA VARGEM",
      "house": "80",
      "postcode": "9325-361",
      "city": "ESTREITO CÂMARA DE LOBOS",
      "lon": "-16.968388772975697",
      "lat": "32.66485092246538"
    },
    {
      "id": "pt.ine.add.MAD.125987",
      "street": "CAM VELHO COVAO H",
      "house": "H",
      "postcode": "9325-310",
      "city": "ESTREITO CÂMARA DE LOBOS",
      "lon": "-16.96413589477385",
      "lat": "32.6634475422037"
    },
    {
      "id": "pt.ine.add.MAD.126585",
      "street": "CAM VELHO COVÃO COMPLEXO HABIT DA PEDREIRA",
      "house": "",
      "postcode": "9325-310",
      "city": "ESTREITO CÂMARA DE LOBOS",
      "lon": "-16.96430544004259",
      "lat": "32.66339979450485"
    },
    {
      "id": "pt.ine.add.MAD.126738",
      "street": "VR VARGEM",
      "house": "8",
      "postcode": "9325-350",
      "city": "ESTREITO CÂMARA DE LOBOS",
      "lon": "-16.96912835382649",
      "lat": "32.66502870705298"
    },
    {
      "id": "pt.ine.add.MAD.128295",
      "street": "ENT N 1 DO CAMINHO VELHO DO COVÃO",
      "house": "1",
      "postcode": "9325-310",
      "city": "ESTREITO CÂMARA DE LOBOS",
      "lon": "-16.96441813457164",
      "lat": "32.66416461380334"
    },
    {
      "id": "pt.ine.add.MAD.129956",
      "street": "CAM VELHO COVAO AK",
      "house": "AK",
      "postcode": "9325-310",
      "city": "ESTREITO CÂMARA DE LOBOS",
      "lon": "-16.964293987929054",
      "lat": "32.66385090551748"
    }
  ]
}