{
  "data": {
    "distrito": "Vila Real",
    "concelho": "Valpaços",
    "freguesia": "Vilarandelo",
    "OBJECTID": 80,
    "BGRI2021": "17123100130",
    "DT21": "17",
    "DTMN21": "1712",
    "DTMNFR21": "171231",
    "DTMNFRSEC21": "171231001",
    "SECNUM21": "001",
    "SSNUM21": "30",
    "SECSSNUM21": "00130",
    "OBJECTID_1": 186255,
    "DT": "17",
    "CC": "12",
    "fr": "31",
    "SEC": "001",
    "SS": "30"
  },
  "addresses": [
    {
      "id": "pt.ine.add.PTCONT.5301847",
      "street": "R LUIS DE CAMÕES",
      "house": "6",
      "postcode": "5430-633",
      "city": "VILARANDELO",
      "lon": "-7.336433151901183",
      "lat": "41.662525800896994"
    },
    {
      "id": "pt.ine.add.PTCONT.5302681",
      "street": "R DO VARAL",
      "house": "",
      "postcode": "5430-646",
      "city": "VILARANDELO",
      "lon": "-7.334874552702624",
      "lat": "41.66137154307487"
    },
    {
      "id": "pt.ine.add.PTCONT.5308796",
      "street": "R DA INDÚSTRIA",
      "house": "17",
      "postcode": "5430-633",
      "city": "VILARANDELO",
      "lon": "-7.3346823511268475",
      "lat": "41.66235158884284"
    },
    {
      "id": "pt.ine.add.PTCONT.5343005",
      "street": "R NOVA",
      "house": "29",
      "postcode": "5430-646",
      "city": "VILARANDELO",
      "lon": "-7.331741348830389",
      "lat": "41.66230411009148"
    },
    {
      "id": "pt.ine.add.PTCONT.5365251",
      "street": "R NOVA",
      "house": "25",
      "postcode": "5430-646",
      "city": "VILARANDELO",
      "lon": "-7.33133807768636",
      "lat": "41.661905143947564"
    },
    {
      "id": "pt.ine.add.PTCONT.5394332",
      "street": "R NOVA",
      "house": "35",
      "postcode": "5430-646",
      "city": "VILARANDELO",
      "lon": "-7.332557681283928",
      "lat": "41.66328217609045"
    },
    {
      "id": "pt.ine.add.PTCONT.5398404",
      "street": "R NOVA",
      "house": "21",
      "postcode": "5430-646",
      "city": "VILARANDELO",
      "lon": "-7.331053970715348",
      "lat": "41.661579035949735"
    },
    {
      "id": "pt.ine.add.PTCONT.5422926",
      "street": "R DA INDÚSTRIA",
      "house": "",
      "postcode": "5430-633",
      "city": "VILARANDELO",
      "lon": "-7.3360240906854814",
      "lat": "41.66356736979725"
    }
  ]
}