{
  "data": {
    "distrito": "Vila Real",
    "concelho": "Valpaços",
    "freguesia": "Vilarandelo",
    "OBJECTID": 386,
    "BGRI2021": "17123100136",
    "DT21": "17",
    "DTMN21": "1712",
    "DTMNFR21": "171231",
    "DTMNFRSEC21": "171231001",
    "SECNUM21": "001",
    "SSNUM21": "36",
    "SECSSNUM21": "00136",
    "OBJECTID_1": 186523,
    "DT": "17",
    "CC": "12",
    "fr": "31",
    "SEC": "001",
    "SS": "36"
  },
  "addresses": [
    {
      "id": "pt.ine.add.PTCONT.5296426",
      "street": "BR DA ALEGRIA",
      "house": "",
      "postcode": "5430-635",
      "city": "VILARANDELO",
      "lon": "-7.314727894084138",
      "lat": "41.66327364767236"
    },
    {
      "id": "pt.ine.add.PTCONT.5318262",
      "street": "R D AMÉLIA CASTELO",
      "house": "",
      "postcode": "5430-659",
      "city": "VILARANDELO",
      "lon": "-7.320904989752615",
      "lat": "41.66282227380335"
    },
    {
      "id": "pt.ine.add.PTCONT.5331291",
      "street": "AV DO SENHOR DOS MILAGRES",
      "house": "1",
      "postcode": "5430-634",
      "city": "VILARANDELO",
      "lon": "-7.3200350433250545",
      "lat": "41.66230292398185"
    },
    {
      "id": "pt.ine.add.PTCONT.5336565",
      "street": "AV DO SENHOR DOS MILAGRES",
      "house": "",
      "postcode": "5430-634",
      "city": "VILARANDELO",
      "lon": "-7.3195949225658605",
      "lat": "41.66197568398914"
    },
    {
      "id": "pt.ine.add.PTCONT.5336566",
      "street": "R GEN HUMBERTO DELGADO",
      "house": "12",
      "postcode": "5430-630",
      "city": "VILARANDELO",
      "lon": "-7.321004215623",
      "lat": "41.663525247021205"
    },
    {
      "id": "pt.ine.add.PTCONT.5343000",
      "street": "AV DO SENHOR DOS MILAGRES",
      "house": "",
      "postcode": "5430-634",
      "city": "VILARANDELO",
      "lon": "-7.319809206273245",
      "lat": "41.66212125634199"
    },
    {
      "id": "pt.ine.add.PTCONT.5346947",
      "street": "R GEN HUMBERTO DELGADO",
      "house": "",
      "postcode": "5430-630",
      "city": "VILARANDELO",
      "lon": "-7.321017239388272",
      "lat": "41.66344430765788"
    },
    {
      "id": "pt.ine.add.PTCONT.5352198",
      "street": "BR DA ALEGRIA",
      "house": "",
      "postcode": "5430-635",
      "city": "VILARANDELO",
      "lon": "-7.3146320775026465",
      "lat": "41.66325495839862"
    },
    {
      "id": "pt.ine.add.PTCONT.5354429",
      "street": "R GEN HUMBERTO DELGADO",
      "house": "",
      "postcode": "5430-630",
      "city": "VILARANDELO",
      "lon": "-7.320990513049325",
      "lat": "41.663660202508694"
    },
    {
      "id": "pt.ine.add.PTCONT.5354795",
      "street": "R GEN HUMBERTO DELGADO",
      "house": "",
      "postcode": "5430-630",
      "city": "VILARANDELO",
      "lon": "-7.320750965537429",
      "lat": "41.66361349217804"
    },
    {
      "id": "pt.ine.add.PTCONT.5359962",
      "street": "R DAS HORTAS",
      "house": "6",
      "postcode": "5430-630",
      "city": "VILARANDELO",
      "lon": "-7.321081128766641",
      "lat": "41.66409301013398"
    },
    {
      "id": "pt.ine.add.PTCONT.5369511",
      "street": "LG DO CRUZEIRO",
      "house": "8",
      "postcode": "5430-669",
      "city": "VILARANDELO",
      "lon": "-7.320178542085331",
      "lat": "41.66234895648869"
    },
    {
      "id": "pt.ine.add.PTCONT.5383843",
      "street": "BR DA ALEGRIA",
      "house": "",
      "postcode": "5430-635",
      "city": "VILARANDELO",
      "lon": "-7.315277872173382",
      "lat": "41.663457632195616"
    },
    {
      "id": "pt.ine.add.PTCONT.5385779",
      "street": "R DE STO ANTÓNIO",
      "house": "24",
      "postcode": "5430-630",
      "city": "VILARANDELO",
      "lon": "-7.321309916494707",
      "lat": "41.66404060542533"
    },
    {
      "id": "pt.ine.add.PTCONT.5404882",
      "street": "BR DA ALEGRIA",
      "house": "5",
      "postcode": "5430-635",
      "city": "VILARANDELO",
      "lon": "-7.314787465999008",
      "lat": "41.66331008578293"
    },
    {
      "id": "pt.ine.add.PTCONT.5404883",
      "street": "BR DA ALEGRIA",
      "house": "5",
      "postcode": "5430-635",
      "city": "VILARANDELO",
      "lon": "-7.314787465999008",
      "lat": "41.66331008578293"
    },
    {
      "id": "pt.ine.add.PTCONT.5414077",
      "street": "R GEN HUMBERTO DELGADO",
      "house": "2",
      "postcode": "5430-630",
      "city": "VILARANDELO",
      "lon": "-7.32107159641822",
      "lat": "41.66294049639622"
    },
    {
      "id": "pt.ine.add.PTCONT.5414078",
      "street": "R GEN HUMBERTO DELGADO",
      "house": "2",
      "postcode": "5430-630",
      "city": "VILARANDELO",
      "lon": "-7.32107159641822",
      "lat": "41.66294049639622"
    },
    {
      "id": "pt.ine.add.PTCONT.5426809",
      "street": "AV DO SENHOR DOS MILAGRES",
      "house": "",
      "postcode": "5430-634",
      "city": "VILARANDELO",
      "lon": "-7.319928014066428",
      "lat": "41.6622211353749"
    }
  ]
}