{
  "data": {
    "distrito": "Vila Real",
    "concelho": "Valpaços",
    "freguesia": "Vilarandelo",
    "OBJECTID": 787,
    "BGRI2021": "17123100148",
    "DT21": "17",
    "DTMN21": "1712",
    "DTMNFR21": "171231",
    "DTMNFRSEC21": "171231001",
    "SECNUM21": "001",
    "SSNUM21": "48",
    "SECSSNUM21": "00148",
    "OBJECTID_1": 186264,
    "DT": "17",
    "CC": "12",
    "fr": "31",
    "SEC": "001",
    "SS": "48"
  },
  "addresses": [
    {
      "id": "pt.ine.add.PTCONT.5304634",
      "street": "ESTR DE AGORDELA",
      "house": "10",
      "postcode": "5430-645",
      "city": "VILARANDELO",
      "lon": "-7.330110061192668",
      "lat": "41.66507480275267"
    },
    {
      "id": "pt.ine.add.PTCONT.5305178",
      "street": "R PROF AMELIA CASTELO",
      "house": "222",
      "postcode": "5430-659",
      "city": "VILARANDELO",
      "lon": "-7.3272250470688896",
      "lat": "41.6643793482938"
    },
    {
      "id": "pt.ine.add.PTCONT.5305179",
      "street": "R PROF AMELIA CASTELO",
      "house": "",
      "postcode": "5430-659",
      "city": "VILARANDELO",
      "lon": "-7.3272250470688896",
      "lat": "41.6643793482938"
    },
    {
      "id": "pt.ine.add.PTCONT.5305180",
      "street": "R PROF AMELIA CASTELO",
      "house": "222",
      "postcode": "5430-659",
      "city": "VILARANDELO",
      "lon": "-7.3272250470688896",
      "lat": "41.6643793482938"
    },
    {
      "id": "pt.ine.add.PTCONT.5305181",
      "street": "R PROF AMELIA CASTELO",
      "house": "",
      "postcode": "5430-659",
      "city": "VILARANDELO",
      "lon": "-7.3272250470688896",
      "lat": "41.6643793482938"
    },
    {
      "id": "pt.ine.add.PTCONT.5308765",
      "street": "R DE TRÁS",
      "house": "",
      "postcode": "5430-655",
      "city": "VILARANDELO",
      "lon": "-7.327545723613633",
      "lat": "41.66562407754075"
    },
    {
      "id": "pt.ine.add.PTCONT.5308794",
      "street": "AV DA LIBERDADE",
      "house": "2",
      "postcode": "5430-633",
      "city": "VILARANDELO",
      "lon": "-7.329195009942257",
      "lat": "41.66431211295813"
    },
    {
      "id": "pt.ine.add.PTCONT.5313173",
      "street": "R DO LAMEIRINHO",
      "house": "",
      "postcode": "5430-645",
      "city": "VILARANDELO",
      "lon": "-7.3294963292970845",
      "lat": "41.66615093152502"
    },
    {
      "id": "pt.ine.add.PTCONT.5325988",
      "street": "R D AMÉLIA CASTELO",
      "house": "",
      "postcode": "5430-659",
      "city": "VILARANDELO",
      "lon": "-7.328581704920154",
      "lat": "41.66438885287023"
    },
    {
      "id": "pt.ine.add.PTCONT.5335778",
      "street": "R DE TRÁS",
      "house": "",
      "postcode": "5430-655",
      "city": "VILARANDELO",
      "lon": "-7.327738381420662",
      "lat": "41.66558041029245"
    },
    {
      "id": "pt.ine.add.PTCONT.5338326",
      "street": "R DO LAMEIRINHO",
      "house": "31",
      "postcode": "5430-645",
      "city": "VILARANDELO",
      "lon": "-7.327456406131514",
      "lat": "41.666046615297084"
    },
    {
      "id": "pt.ine.add.PTCONT.5346946",
      "street": "R DE TRÁS",
      "house": "",
      "postcode": "5430-655",
      "city": "VILARANDELO",
      "lon": "-7.32750847094053",
      "lat": "41.66572285477346"
    },
    {
      "id": "pt.ine.add.PTCONT.5368427",
      "street": "R DE TRÁS",
      "house": "",
      "postcode": "5430-655",
      "city": "VILARANDELO",
      "lon": "-7.327739503386293",
      "lat": "41.6654903832939"
    },
    {
      "id": "pt.ine.add.PTCONT.5383348",
      "street": "ESTR AGORDELA",
      "house": "",
      "postcode": "5430-645",
      "city": "VILARANDELO",
      "lon": "-7.330293097482463",
      "lat": "41.66580536386113"
    },
    {
      "id": "pt.ine.add.PTCONT.5383349",
      "street": "ESTR AGORDELA",
      "house": "7",
      "postcode": "5430-645",
      "city": "VILARANDELO",
      "lon": "-7.330293097482463",
      "lat": "41.66580536386113"
    },
    {
      "id": "pt.ine.add.PTCONT.5394573",
      "street": "R DE TRÁS",
      "house": "6",
      "postcode": "5430-655",
      "city": "VILARANDELO",
      "lon": "-7.327495230326374",
      "lat": "41.665821800306475"
    },
    {
      "id": "pt.ine.add.PTCONT.5402512",
      "street": "R FLORES",
      "house": "19",
      "postcode": "5430-652",
      "city": "VILARANDELO",
      "lon": "-7.3275192447281485",
      "lat": "41.66485859559852"
    },
    {
      "id": "pt.ine.add.PTCONT.5405859",
      "street": "LG DA BOA FORTUNA",
      "house": "",
      "postcode": "5430-659",
      "city": "VILARANDELO",
      "lon": "-7.328975992820433",
      "lat": "41.66454467149491"
    },
    {
      "id": "pt.ine.add.PTCONT.5409040",
      "street": "R D AMÉLIA CASTELO",
      "house": "",
      "postcode": "5430-659",
      "city": "VILARANDELO",
      "lon": "-7.327331864703109",
      "lat": "41.6644791355899"
    },
    {
      "id": "pt.ine.add.PTCONT.5413824",
      "street": "R DAS FLORES",
      "house": "17",
      "postcode": "5430-652",
      "city": "VILARANDELO",
      "lon": "-7.327682839370399",
      "lat": "41.66521988162686"
    },
    {
      "id": "pt.ine.add.PTCONT.5414074",
      "street": "LG DA BOA FORTUNA",
      "house": "12",
      "postcode": "5430-659",
      "city": "VILARANDELO",
      "lon": "-7.329118943074947",
      "lat": "41.66463570644276"
    },
    {
      "id": "pt.ine.add.PTCONT.5416776",
      "street": "R DE TRÁS",
      "house": "",
      "postcode": "5430-655",
      "city": "VILARANDELO",
      "lon": "-7.327547070295892",
      "lat": "41.66551604514828"
    },
    {
      "id": "pt.ine.add.PTCONT.5419491",
      "street": "R TRAS",
      "house": "8",
      "postcode": "5430-655",
      "city": "VILARANDELO",
      "lon": "-7.327481989669302",
      "lat": "41.66592074583589"
    },
    {
      "id": "pt.ine.add.PTCONT.5421114",
      "street": "ESTR DE AGORDELA",
      "house": "8",
      "postcode": "5430-645",
      "city": "VILARANDELO",
      "lon": "-7.329821470632473",
      "lat": "41.665108800045886"
    }
  ]
}