{
  "data": {
    "ilha": "Ilha da Madeira (Madeira)",
    "concelho": "Machico",
    "freguesia": "Porto da Cruz",
    "OBJECTID": 61,
    "BGRI2021": "31040400116",
    "DT21": "31",
    "DTMN21": "3104",
    "DTMNFR21": "310404",
    "DTMNFRSEC21": "310404001",
    "SECNUM21": "001",
    "SSNUM21": "16",
    "SECSSNUM21": "00116",
    "OBJECTID_1": 204406,
    "DT": "31",
    "CC": "04",
    "fr": "04",
    "SEC": "001",
    "SS": "16",
    "BGRI2021_1": "31040400116"
  },
  "addresses": [
    {
      "id": "pt.ine.add.MAD.30542",
      "street": "SIT RIBEIRA TEM TE NAO CAIAS",
      "house": "",
      "postcode": "9225-230",
      "city": "PORTO DA CRUZ",
      "lon": "-16.84313230507303",
      "lat": "32.75679777398373"
    },
    {
      "id": "pt.ine.add.MAD.30543",
      "street": "SIT RIBEIRA TEM TE NAO CAIAS",
      "house": "",
      "postcode": "9225-230",
      "city": "PORTO DA CRUZ",
      "lon": "-16.84300878045732",
      "lat": "32.75546481165778"
    },
    {
      "id": "pt.ine.add.MAD.31369",
      "street": "SIT RIBEIRA TEM-TE NAO CAIAS",
      "house": "214",
      "postcode": "9225-230",
      "city": "PORTO DA CRUZ",
      "lon": "-16.841419326888367",
      "lat": "32.75446906171066"
    },
    {
      "id": "pt.ine.add.MAD.31370",
      "street": "SIT RIBEIRA TEM-TE NAO CAIAS",
      "house": "215",
      "postcode": "9225-230",
      "city": "PORTO DA CRUZ",
      "lon": "-16.84135270971622",
      "lat": "32.75434377784018"
    },
    {
      "id": "pt.ine.add.MAD.31371",
      "street": "SIT RIBEIRA TEM-TE NAO CAIAS",
      "house": "102",
      "postcode": "9225-230",
      "city": "PORTO DA CRUZ",
      "lon": "-16.841975632676327",
      "lat": "32.75349587353478"
    },
    {
      "id": "pt.ine.add.MAD.68817",
      "street": "SIT RIBEIRA TEM-TE NAO CAIAS",
      "house": "",
      "postcode": "9225-230",
      "city": "PORTO DA CRUZ",
      "lon": "-16.841261877674917",
      "lat": "32.75459763888289"
    },
    {
      "id": "pt.ine.add.MAD.80184",
      "street": "SIT SITIO DA RIBEIRA TEM TE NAO CASAS",
      "house": "",
      "postcode": "9225-230",
      "city": "PORTO DA CRUZ",
      "lon": "-16.84257968908168",
      "lat": "32.75691412857299"
    },
    {
      "id": "pt.ine.add.MAD.86091",
      "street": "SIT RIBEIRA TEM-TE NAO CAIAS",
      "house": "106",
      "postcode": "9225-230",
      "city": "PORTO DA CRUZ",
      "lon": "-16.841984260279474",
      "lat": "32.753396540029506"
    },
    {
      "id": "pt.ine.add.MAD.98554",
      "street": "SIT RIBEIRA TEM-TE NAO CAIAS",
      "house": "",
      "postcode": "9225-230",
      "city": "PORTO DA CRUZ",
      "lon": "-16.842767458284662",
      "lat": "32.75566677481203"
    },
    {
      "id": "pt.ine.add.MAD.103804",
      "street": "SIT RIBEIRA TEM-TE NAO CAIAS",
      "house": "104",
      "postcode": "9225-230",
      "city": "PORTO DA CRUZ",
      "lon": "-16.840958393664025",
      "lat": "32.75281637869189"
    },
    {
      "id": "pt.ine.add.MAD.106401",
      "street": "BR CONJUNTO HABITACIONAL DA ACHADA",
      "house": "5 A",
      "postcode": "9225-010",
      "city": "PORTO DA CRUZ",
      "lon": "-16.846588100629365",
      "lat": "32.74892760194108"
    },
    {
      "id": "pt.ine.add.MAD.106455",
      "street": "SIT FOLHADAL",
      "house": "",
      "postcode": "9225-080",
      "city": "PORTO DA CRUZ",
      "lon": "-16.846588100629365",
      "lat": "32.74892760194108"
    },
    {
      "id": "pt.ine.add.MAD.120809",
      "street": "SIT SITIO DA RIBEIRA TEM TE NAO CAIAS",
      "house": "",
      "postcode": "9225-230",
      "city": "PORTO DA CRUZ",
      "lon": "-16.84380080348854",
      "lat": "32.75660756125337"
    },
    {
      "id": "pt.ine.add.MAD.122644",
      "street": "R RIBEIRA TEM-TE NAO CAIAS",
      "house": "CCI 103",
      "postcode": "9225-230",
      "city": "PORTO DA CRUZ",
      "lon": "-16.841694604142226",
      "lat": "32.75384271899235"
    }
  ]
}