{
  "data": {
    "distrito": "Lisboa",
    "concelho": "Sintra",
    "freguesia": "Uni達o das freguesias de Sintra (Santa Maria e S達o Miguel, S達o Martinho e S達o Pedro de Penaferrim)",
    "OBJECTID": 2025,
    "BGRI2021": "11112801606",
    "DT21": "11",
    "DTMN21": "1111",
    "DTMNFR21": "111128",
    "DTMNFRSEC21": "111128016",
    "SECNUM21": "016",
    "SSNUM21": "06",
    "SECSSNUM21": "01606",
    "OBJECTID_1": 112671,
    "DT": "11",
    "CC": "11",
    "fr": "28",
    "SEC": "016",
    "SS": "06"
  },
  "addresses": [
    {
      "id": "pt.ine.add.PTCONT.2344224",
      "street": "R REGUEIRINHO QTA DO VALE",
      "house": "",
      "postcode": "2710-405",
      "city": "SINTRA",
      "lon": "-9.41424288492096",
      "lat": "38.79668766914489"
    },
    {
      "id": "pt.ine.add.PTCONT.2354116",
      "street": "R BARBOSA DU BOCAGE QTA DA PINHA VERDE",
      "house": "48",
      "postcode": "2710-517",
      "city": "SINTRA",
      "lon": "-9.403594984656163",
      "lat": "38.793399074559055"
    },
    {
      "id": "pt.ine.add.PTCONT.2356730",
      "street": "CAM FRADES QTA DA CABECA",
      "house": "",
      "postcode": "2710-560",
      "city": "SINTRA",
      "lon": "-9.403407229915066",
      "lat": "38.800327949745494"
    },
    {
      "id": "pt.ine.add.PTCONT.2419007",
      "street": "R TRINDADE COELHO QTA DOS LOBOS",
      "house": "1",
      "postcode": "2710-625",
      "city": "SINTRA",
      "lon": "-9.39955798928882",
      "lat": "38.79811784270879"
    },
    {
      "id": "pt.ine.add.PTCONT.2419008",
      "street": "R BARBOSA DU BOCAGE",
      "house": "6",
      "postcode": "2710-517",
      "city": "SINTRA",
      "lon": "-9.39832974540815",
      "lat": "38.796356655131525"
    },
    {
      "id": "pt.ine.add.PTCONT.2455101",
      "street": "R BARBOSA DU BOCAGE",
      "house": "5",
      "postcode": "2710-517",
      "city": "SINTRA",
      "lon": "-9.396565031431818",
      "lat": "38.79615056242311"
    },
    {
      "id": "pt.ine.add.PTCONT.2604738",
      "street": "R REGUEIRINHO",
      "house": "",
      "postcode": "2710-405",
      "city": "SINTRA",
      "lon": "-9.410775658075186",
      "lat": "38.79138413977544"
    },
    {
      "id": "pt.ine.add.PTCONT.2615140",
      "street": "R BARBOSA DU BOCAGE QUINRA DOS ARCOS",
      "house": "",
      "postcode": "2710-517",
      "city": "SINTRA",
      "lon": "-9.409435678803984",
      "lat": "38.791110542348676"
    },
    {
      "id": "pt.ine.add.PTCONT.2803208",
      "street": "R BARBOSA DU BOCAGE GUINTA OA BELA LISTA",
      "house": "",
      "postcode": "2710-517",
      "city": "SINTRA",
      "lon": "-9.404688030601582",
      "lat": "38.79272962951161"
    },
    {
      "id": "pt.ine.add.PTCONT.2903900",
      "street": "CAM FONTE DOS AMORES",
      "house": "",
      "postcode": "2710-559",
      "city": "SINTRA",
      "lon": "-9.400177846025711",
      "lat": "38.798021046041576"
    },
    {
      "id": "pt.ine.add.PTCONT.2912614",
      "street": "CAM FRADES",
      "house": "",
      "postcode": "2710-560",
      "city": "SINTRA",
      "lon": "-9.402447053752573",
      "lat": "38.800059150746904"
    },
    {
      "id": "pt.ine.add.PTCONT.3022237",
      "street": "R REGUEIRINHO QUINRA DO POMBAL",
      "house": "",
      "postcode": "2710-405",
      "city": "SINTRA",
      "lon": "-9.412425309508471",
      "lat": "38.793527909195895"
    },
    {
      "id": "pt.ine.add.PTCONT.3133866",
      "street": "CAM FRADES QTA DA CABECA",
      "house": "",
      "postcode": "2710-560",
      "city": "SINTRA",
      "lon": "-9.402793592332602",
      "lat": "38.800127445832985"
    },
    {
      "id": "pt.ine.add.PTCONT.3245426",
      "street": "R CARLOS MASSETT QTA DAS BOCHECHAS",
      "house": "",
      "postcode": "2710-221",
      "city": "SINTRA",
      "lon": "-9.411569076656308",
      "lat": "38.79456414607818"
    },
    {
      "id": "pt.ine.add.PTCONT.3247481",
      "street": "R CARLOS MASSETT QTA DAS BOCHECHAS",
      "house": "",
      "postcode": "2710-221",
      "city": "SINTRA",
      "lon": "-9.411569076656308",
      "lat": "38.79456414607818"
    },
    {
      "id": "pt.ine.add.PTCONT.3290991",
      "street": "CAM FRADES QTA LOBOS",
      "house": "",
      "postcode": "2710-560",
      "city": "SINTRA",
      "lon": "-9.40001704809533",
      "lat": "38.798040804982556"
    },
    {
      "id": "pt.ine.add.PTCONT.3348395",
      "street": "R BARBOSA DU BOCAGE",
      "house": "8 A 10",
      "postcode": "2710-517",
      "city": "SINTRA",
      "lon": "-9.399649637779161",
      "lat": "38.79679273377484"
    }
  ]
}