{
  "data": {
    "distrito": "Bragança",
    "concelho": "Carrazeda de Ansiães",
    "freguesia": "União das freguesias de Lavandeira, Beira Grande e Selores",
    "OBJECTID": 169,
    "BGRI2021": "04032300110",
    "DT21": "04",
    "DTMN21": "0403",
    "DTMNFR21": "040323",
    "DTMNFRSEC21": "040323001",
    "SECNUM21": "001",
    "SSNUM21": "10",
    "SECSSNUM21": "00110",
    "OBJECTID_1": 34721,
    "DT": "04",
    "CC": "03",
    "fr": "23",
    "SEC": "001",
    "SS": "10"
  },
  "addresses": [
    {
      "id": "pt.ine.add.PTCONT.851814",
      "street": "R DO ADRO",
      "house": "",
      "postcode": "5140-144",
      "city": "LAVANDEIRA",
      "lon": "-7.3007514483296445",
      "lat": "41.19314561375544"
    },
    {
      "id": "pt.ine.add.PTCONT.860109",
      "street": "R DELFINA",
      "house": "",
      "postcode": "5140-144",
      "city": "LAVANDEIRA",
      "lon": "-7.300921570990955",
      "lat": "41.1938311627657"
    },
    {
      "id": "pt.ine.add.PTCONT.860781",
      "street": "R DA IGREJA",
      "house": "7",
      "postcode": "5140-144",
      "city": "LAVANDEIRA",
      "lon": "-7.3004358435383105",
      "lat": "41.19359354248024"
    },
    {
      "id": "pt.ine.add.PTCONT.861003",
      "street": "R DO OUTÃO",
      "house": "",
      "postcode": "5140-144",
      "city": "LAVANDEIRA",
      "lon": "-7.3001166470669405",
      "lat": "41.19338413742228"
    },
    {
      "id": "pt.ine.add.PTCONT.867050",
      "street": "R DA IGREJA",
      "house": "",
      "postcode": "5140-144",
      "city": "LAVANDEIRA",
      "lon": "-7.300461279429107",
      "lat": "41.1934676675269"
    },
    {
      "id": "pt.ine.add.PTCONT.870197",
      "street": "R DO ADRO",
      "house": "",
      "postcode": "5140-144",
      "city": "LAVANDEIRA",
      "lon": "-7.300722135331745",
      "lat": "41.19357760371663"
    },
    {
      "id": "pt.ine.add.PTCONT.874892",
      "street": "R DO ADRO",
      "house": "",
      "postcode": "5140-144",
      "city": "LAVANDEIRA",
      "lon": "-7.30091261636466",
      "lat": "41.19359698874636"
    },
    {
      "id": "pt.ine.add.PTCONT.877193",
      "street": "R DA LAMEIRINHA",
      "house": "1",
      "postcode": "5140-144",
      "city": "LAVANDEIRA",
      "lon": "-7.30003013010648",
      "lat": "41.193626625116124"
    },
    {
      "id": "pt.ine.add.PTCONT.884432",
      "street": "LG DO ADRO",
      "house": "8",
      "postcode": "5140-144",
      "city": "LAVANDEIRA",
      "lon": "-7.300845547858746",
      "lat": "41.193245340089504"
    },
    {
      "id": "pt.ine.add.PTCONT.885871",
      "street": "R DO OUTÃO",
      "house": "",
      "postcode": "5140-144",
      "city": "LAVANDEIRA",
      "lon": "-7.300275363476479",
      "lat": "41.193088146574304"
    },
    {
      "id": "pt.ine.add.PTCONT.893393",
      "street": "R DELFINA",
      "house": "",
      "postcode": "5140-144",
      "city": "LAVANDEIRA",
      "lon": "-7.300458084916076",
      "lat": "41.19371976215108"
    },
    {
      "id": "pt.ine.add.PTCONT.902651",
      "street": "R DA LAMEIRINHA",
      "house": "4",
      "postcode": "5140-144",
      "city": "LAVANDEIRA",
      "lon": "-7.300350240308402",
      "lat": "41.19376400338278"
    },
    {
      "id": "pt.ine.add.PTCONT.912296",
      "street": "R DELFINA",
      "house": "",
      "postcode": "5140-144",
      "city": "LAVANDEIRA",
      "lon": "-7.300504621444797",
      "lat": "41.19381014065085"
    },
    {
      "id": "pt.ine.add.PTCONT.915983",
      "street": "R DO OUTÃO",
      "house": "",
      "postcode": "5140-144",
      "city": "LAVANDEIRA",
      "lon": "-7.30036957629614",
      "lat": "41.19317886991088"
    },
    {
      "id": "pt.ine.add.PTCONT.918214",
      "street": "R DO OUTÃO",
      "house": "",
      "postcode": "5140-144",
      "city": "LAVANDEIRA",
      "lon": "-7.300025059711068",
      "lat": "41.19308633616391"
    },
    {
      "id": "pt.ine.add.PTCONT.922137",
      "street": "R DO ADRO",
      "house": "",
      "postcode": "5140-144",
      "city": "LAVANDEIRA",
      "lon": "-7.300744947510795",
      "lat": "41.193658806437924"
    },
    {
      "id": "pt.ine.add.PTCONT.926743",
      "street": "R DELFINA",
      "house": "",
      "postcode": "5140-144",
      "city": "LAVANDEIRA",
      "lon": "-7.300409038378341",
      "lat": "41.19382745797275"
    },
    {
      "id": "pt.ine.add.PTCONT.928129",
      "street": "R DO OUTÃO",
      "house": "",
      "postcode": "5140-144",
      "city": "LAVANDEIRA",
      "lon": "-7.300165693738869",
      "lat": "41.193276441718346"
    },
    {
      "id": "pt.ine.add.PTCONT.933471",
      "street": "R DO ADRO",
      "house": "",
      "postcode": "5140-144",
      "city": "LAVANDEIRA",
      "lon": "-7.300580358327659",
      "lat": "41.19347753262989"
    },
    {
      "id": "pt.ine.add.PTCONT.935119",
      "street": "R DA LAMEIRINHA",
      "house": "",
      "postcode": "5140-144",
      "city": "LAVANDEIRA",
      "lon": "-7.300230590320712",
      "lat": "41.19379915493087"
    },
    {
      "id": "pt.ine.add.PTCONT.935888",
      "street": "TV DA NOGUEIRA",
      "house": "7",
      "postcode": "5140-144",
      "city": "LAVANDEIRA",
      "lon": "-7.300847600489123",
      "lat": "41.19308327923161"
    },
    {
      "id": "pt.ine.add.PTCONT.949000",
      "street": "LG DO ADRO",
      "house": "",
      "postcode": "5140-144",
      "city": "LAVANDEIRA",
      "lon": "-7.300990631232673",
      "lat": "41.193084312796884"
    }
  ]
}