{
  "data": {
    "distrito": "Vila Real",
    "concelho": "Vila Real",
    "freguesia": "Arroios",
    "OBJECTID": 1036,
    "BGRI2021": "17140400102",
    "DT21": "17",
    "DTMN21": "1714",
    "DTMNFR21": "171404",
    "DTMNFRSEC21": "171404001",
    "SECNUM21": "001",
    "SSNUM21": "02",
    "SECSSNUM21": "00102",
    "OBJECTID_1": 188133,
    "DT": "17",
    "CC": "14",
    "fr": "04",
    "SEC": "001",
    "SS": "02"
  },
  "addresses": [
    {
      "id": "pt.ine.add.PTCONT.5296508",
      "street": "BR ALTO",
      "house": "12A",
      "postcode": "5000-051",
      "city": "VILA REAL",
      "lon": "-7.720218049280023",
      "lat": "41.28608595785343"
    },
    {
      "id": "pt.ine.add.PTCONT.5299443",
      "street": "R FONTE",
      "house": "",
      "postcode": "5000-051",
      "city": "VILA REAL",
      "lon": "-7.718424578976263",
      "lat": "41.286538723422645"
    },
    {
      "id": "pt.ine.add.PTCONT.5302712",
      "street": "R COSTA",
      "house": "",
      "postcode": "5000-051",
      "city": "VILA REAL",
      "lon": "-7.7206749160692825",
      "lat": "41.28367448108206"
    },
    {
      "id": "pt.ine.add.PTCONT.5302728",
      "street": "R COSTA",
      "house": "4",
      "postcode": "5000-051",
      "city": "VILA REAL",
      "lon": "-7.718304294910234",
      "lat": "41.286682356563155"
    },
    {
      "id": "pt.ine.add.PTCONT.5312182",
      "street": "BR COSTA",
      "house": "13",
      "postcode": "5000-051",
      "city": "VILA REAL",
      "lon": "-7.7181504234329275",
      "lat": "41.28647470645648"
    },
    {
      "id": "pt.ine.add.PTCONT.5320991",
      "street": "BR COSTA",
      "house": "",
      "postcode": "5000-051",
      "city": "VILA REAL",
      "lon": "-7.718067776243234",
      "lat": "41.28633034203182"
    },
    {
      "id": "pt.ine.add.PTCONT.5324304",
      "street": "LUGAR BARDOS RIBABOA",
      "house": "",
      "postcode": "5000-051",
      "city": "VILA REAL",
      "lon": "-7.721118566507337",
      "lat": "41.28146104576359"
    },
    {
      "id": "pt.ine.add.PTCONT.5330491",
      "street": "BR ALTO",
      "house": "10",
      "postcode": "5000-051",
      "city": "VILA REAL",
      "lon": "-7.720145631969331",
      "lat": "41.28621175628957"
    },
    {
      "id": "pt.ine.add.PTCONT.5338457",
      "street": "R COSTA",
      "house": "37",
      "postcode": "5000-051",
      "city": "VILA REAL",
      "lon": "-7.721023004827312",
      "lat": "41.28336958614657"
    },
    {
      "id": "pt.ine.add.PTCONT.5338458",
      "street": "BR ALTO",
      "house": "42",
      "postcode": "5000-051",
      "city": "VILA REAL",
      "lon": "-7.721605918245248",
      "lat": "41.283686816852104"
    },
    {
      "id": "pt.ine.add.PTCONT.5342792",
      "street": "BR ALTO",
      "house": "",
      "postcode": "5000-051",
      "city": "VILA REAL",
      "lon": "-7.7202661381540025",
      "lat": "41.28603210537856"
    },
    {
      "id": "pt.ine.add.PTCONT.5354013",
      "street": "BR ALTO",
      "house": "",
      "postcode": "5000-051",
      "city": "VILA REAL",
      "lon": "-7.7206515266853675",
      "lat": "41.285493237374425"
    },
    {
      "id": "pt.ine.add.PTCONT.5357202",
      "street": "R COSTA",
      "house": "29",
      "postcode": "5000-051",
      "city": "VILA REAL",
      "lon": "-7.720387131649146",
      "lat": "41.28388054539817"
    },
    {
      "id": "pt.ine.add.PTCONT.5358315",
      "street": "BR COSTA",
      "house": "23",
      "postcode": "5000-051",
      "city": "VILA REAL",
      "lon": "-7.71920056364206",
      "lat": "41.28464163888518"
    },
    {
      "id": "pt.ine.add.PTCONT.5359263",
      "street": "R COSTA",
      "house": "",
      "postcode": "5000-051",
      "city": "VILA REAL",
      "lon": "-7.7208309992500554",
      "lat": "41.283530973587546"
    },
    {
      "id": "pt.ine.add.PTCONT.5359264",
      "street": "BR ALTO",
      "house": "",
      "postcode": "5000-051",
      "city": "VILA REAL",
      "lon": "-7.720507091811591",
      "lat": "41.285681807105824"
    },
    {
      "id": "pt.ine.add.PTCONT.5359265",
      "street": "BR COSTA",
      "house": "17",
      "postcode": "5000-051",
      "city": "VILA REAL",
      "lon": "-7.717965934904327",
      "lat": "41.285447567494074"
    },
    {
      "id": "pt.ine.add.PTCONT.5371884",
      "street": "TORNEIROS",
      "house": "",
      "postcode": "5000-052",
      "city": "VILA REAL",
      "lon": "-7.720554869067095",
      "lat": "41.28378210086561"
    },
    {
      "id": "pt.ine.add.PTCONT.5378213",
      "street": "R FONTE",
      "house": "6",
      "postcode": "5000-051",
      "city": "VILA REAL",
      "lon": "-7.71837648821905",
      "lat": "41.28659257511467"
    },
    {
      "id": "pt.ine.add.PTCONT.5383508",
      "street": "R COSTA",
      "house": "11",
      "postcode": "5000-051",
      "city": "VILA REAL",
      "lon": "-7.718293555256231",
      "lat": "41.28649323060262"
    },
    {
      "id": "pt.ine.add.PTCONT.5388865",
      "street": "BR ALTO",
      "house": "20",
      "postcode": "5000-051",
      "city": "VILA REAL",
      "lon": "-7.720869055796895",
      "lat": "41.28507082111477"
    },
    {
      "id": "pt.ine.add.PTCONT.5395030",
      "street": "R COSTA",
      "house": "25",
      "postcode": "5000-051",
      "city": "VILA REAL",
      "lon": "-7.719655583814996",
      "lat": "41.28441816998936"
    },
    {
      "id": "pt.ine.add.PTCONT.5402254",
      "street": "BR ALTO",
      "house": "16",
      "postcode": "5000-051",
      "city": "VILA REAL",
      "lon": "-7.720723828843027",
      "lat": "41.2853854465052"
    },
    {
      "id": "pt.ine.add.PTCONT.5406030",
      "street": "BR COSTA",
      "house": "19",
      "postcode": "5000-051",
      "city": "VILA REAL",
      "lon": "-7.717369029358772",
      "lat": "41.28545441758825"
    },
    {
      "id": "pt.ine.add.PTCONT.5413706",
      "street": "BR ALTO",
      "house": "012C",
      "postcode": "5000-051",
      "city": "VILA REAL",
      "lon": "-7.7204105177666245",
      "lat": "41.285852539921265"
    },
    {
      "id": "pt.ine.add.PTCONT.5417419",
      "street": "BR COSTA",
      "house": "",
      "postcode": "5000-051",
      "city": "VILA REAL",
      "lon": "-7.718171658326506",
      "lat": "41.285007105457886"
    },
    {
      "id": "pt.ine.add.PTCONT.5419036",
      "street": "R COSTA",
      "house": "27",
      "postcode": "5000-051",
      "city": "VILA REAL",
      "lon": "-7.720063308138241",
      "lat": "41.284122496325175"
    },
    {
      "id": "pt.ine.add.PTCONT.5421282",
      "street": "BR ALTO",
      "house": "",
      "postcode": "5000-051",
      "city": "VILA REAL",
      "lon": "-7.720760546671659",
      "lat": "41.28524151150498"
    },
    {
      "id": "pt.ine.add.PTCONT.5424672",
      "street": "BR COSTA",
      "house": "",
      "postcode": "5000-051",
      "city": "VILA REAL",
      "lon": "-7.718032592524906",
      "lat": "41.28623116946627"
    }
  ]
}