{
  "data": {
    "distrito": "Santarém",
    "concelho": "Abrantes",
    "freguesia": "União das freguesias de Abrantes (São Vicente e São João) e Alferrarede",
    "OBJECTID": 310,
    "BGRI2021": "14012001106",
    "DT21": "14",
    "DTMN21": "1401",
    "DTMNFR21": "140120",
    "DTMNFRSEC21": "140120011",
    "SECNUM21": "011",
    "SSNUM21": "06",
    "SECSSNUM21": "01106",
    "OBJECTID_1": 147292,
    "DT": "14",
    "CC": "01",
    "fr": "20",
    "SEC": "011",
    "SS": "06"
  },
  "addresses": [
    {
      "id": "pt.ine.add.PTCONT.4403978",
      "street": "R OUTEIRO",
      "house": "39",
      "postcode": "2200-080",
      "city": "ABRANTES",
      "lon": "-8.167301905421883",
      "lat": "39.47878497696363"
    },
    {
      "id": "pt.ine.add.PTCONT.4422592",
      "street": "R OUTEIRO",
      "house": "59",
      "postcode": "2200-080",
      "city": "ABRANTES",
      "lon": "-8.16770901626242",
      "lat": "39.47943336121241"
    },
    {
      "id": "pt.ine.add.PTCONT.4424647",
      "street": "R CONCAVADA",
      "house": "",
      "postcode": "2200-077",
      "city": "ABRANTES",
      "lon": "-8.167313545626163",
      "lat": "39.4788210015795"
    },
    {
      "id": "pt.ine.add.PTCONT.4426778",
      "street": "R OUTEIRO",
      "house": "73",
      "postcode": "2200-080",
      "city": "ABRANTES",
      "lon": "-8.16791838587883",
      "lat": "39.47975755103438"
    },
    {
      "id": "pt.ine.add.PTCONT.4445237",
      "street": "R OUTEIRO",
      "house": "67",
      "postcode": "2200-080",
      "city": "ABRANTES",
      "lon": "-8.167871787391114",
      "lat": "39.47954139677085"
    },
    {
      "id": "pt.ine.add.PTCONT.4465705",
      "street": "R OUTEIRO",
      "house": "69",
      "postcode": "2200-080",
      "city": "ABRANTES",
      "lon": "-8.167825350386483",
      "lat": "39.4796494947466"
    },
    {
      "id": "pt.ine.add.PTCONT.4471988",
      "street": "R OUTEIRO",
      "house": "",
      "postcode": "2200-080",
      "city": "ABRANTES",
      "lon": "-8.1675927228871",
      "lat": "39.47929829062338"
    },
    {
      "id": "pt.ine.add.PTCONT.4495569",
      "street": "R OUTEIRO",
      "house": "61",
      "postcode": "2200-080",
      "city": "ABRANTES",
      "lon": "-8.167755533738537",
      "lat": "39.479487389414516"
    },
    {
      "id": "pt.ine.add.PTCONT.4501568",
      "street": "R OUTEIRO",
      "house": "71",
      "postcode": "2200-080",
      "city": "ABRANTES",
      "lon": "-8.167860245385604",
      "lat": "39.4797035263741"
    },
    {
      "id": "pt.ine.add.PTCONT.4512723",
      "street": "R OUTEIRO",
      "house": "37",
      "postcode": "2200-080",
      "city": "ABRANTES",
      "lon": "-8.167313497099663",
      "lat": "39.47872192448541"
    },
    {
      "id": "pt.ine.add.PTCONT.4523514",
      "street": "R OUTEIRO",
      "house": "31",
      "postcode": "2200-080",
      "city": "ABRANTES",
      "lon": "-8.167278550130838",
      "lat": "39.47855980857869"
    },
    {
      "id": "pt.ine.add.PTCONT.4526003",
      "street": "R OUTEIRO",
      "house": "63",
      "postcode": "2200-080",
      "city": "ABRANTES",
      "lon": "-8.16776717876426",
      "lat": "39.47953242098779"
    },
    {
      "id": "pt.ine.add.PTCONT.4526004",
      "street": "R OUTEIRO",
      "house": "49",
      "postcode": "2200-080",
      "city": "ABRANTES",
      "lon": "-8.167488017110408",
      "lat": "39.479091160415194"
    },
    {
      "id": "pt.ine.add.PTCONT.4531587",
      "street": "R OUTEIRO",
      "house": "47",
      "postcode": "2200-080",
      "city": "ABRANTES",
      "lon": "-8.167453122705522",
      "lat": "39.47903712867006"
    },
    {
      "id": "pt.ine.add.PTCONT.4536439",
      "street": "R OUTEIRO",
      "house": "51",
      "postcode": "2200-080",
      "city": "ABRANTES",
      "lon": "-8.167522911569305",
      "lat": "39.47914519214934"
    },
    {
      "id": "pt.ine.add.PTCONT.4540641",
      "street": "R OUTEIRO",
      "house": "53",
      "postcode": "2200-080",
      "city": "ABRANTES",
      "lon": "-8.167557810525299",
      "lat": "39.47920823088034"
    },
    {
      "id": "pt.ine.add.PTCONT.4548536",
      "street": "R OUTEIRO",
      "house": "43",
      "postcode": "2200-080",
      "city": "ABRANTES",
      "lon": "-8.167336808412706",
      "lat": "39.47885702277347"
    },
    {
      "id": "pt.ine.add.PTCONT.4567553",
      "street": "R OUTEIRO",
      "house": "45",
      "postcode": "2200-080",
      "city": "ABRANTES",
      "lon": "-8.167383338478341",
      "lat": "39.47893807215507"
    },
    {
      "id": "pt.ine.add.PTCONT.4600767",
      "street": "R OUTEIRO",
      "house": "67",
      "postcode": "2200-080",
      "city": "ABRANTES",
      "lon": "-8.167778832748299",
      "lat": "39.479595466574004"
    },
    {
      "id": "pt.ine.add.PTCONT.4621704",
      "street": "R OUTEIRO",
      "house": "57",
      "postcode": "2200-080",
      "city": "ABRANTES",
      "lon": "-8.167662489945092",
      "lat": "39.47936131897596"
    },
    {
      "id": "pt.ine.add.PTCONT.4636091",
      "street": "R OUTEIRO",
      "house": "35",
      "postcode": "2200-080",
      "city": "ABRANTES",
      "lon": "-8.167266954042837",
      "lat": "39.47861385404641"
    }
  ]
}