{
  "data": {
    "distrito": "Viana do Castelo",
    "concelho": "Melgaço",
    "freguesia": "União das freguesias de Vila e Roussas",
    "OBJECTID": 512,
    "BGRI2021": "16032300322",
    "DT21": "16",
    "DTMN21": "1603",
    "DTMNFR21": "160323",
    "DTMNFRSEC21": "160323003",
    "SECNUM21": "003",
    "SSNUM21": "22",
    "SECSSNUM21": "00322",
    "OBJECTID_1": 173333,
    "DT": "16",
    "CC": "03",
    "fr": "23",
    "SEC": "003",
    "SS": "22"
  },
  "addresses": [
    {
      "id": "pt.ine.add.PTCONT.5142744",
      "street": "R CARVALHICAS",
      "house": "339",
      "postcode": "4960-535",
      "city": "MELGAÇO",
      "lon": "-8.264124083614773",
      "lat": "42.11611216247388"
    },
    {
      "id": "pt.ine.add.PTCONT.5146186",
      "street": "R SENHORA DA PASTORIZA",
      "house": "24",
      "postcode": "4960-408",
      "city": "MELGAÇO",
      "lon": "-8.262319724821806",
      "lat": "42.114799787811364"
    },
    {
      "id": "pt.ine.add.PTCONT.5146266",
      "street": "R SENHORA DA PASTORIZA",
      "house": "24",
      "postcode": "4960-408",
      "city": "MELGAÇO",
      "lon": "-8.262319724821806",
      "lat": "42.114799787811364"
    },
    {
      "id": "pt.ine.add.PTCONT.5146267",
      "street": "R SENHORA DA PASTORIZA",
      "house": "24",
      "postcode": "4960-408",
      "city": "MELGAÇO",
      "lon": "-8.262319724821806",
      "lat": "42.114799787811364"
    },
    {
      "id": "pt.ine.add.PTCONT.5146268",
      "street": "R SENHORA DA PASTORIZA",
      "house": "24",
      "postcode": "4960-408",
      "city": "MELGAÇO",
      "lon": "-8.262319724821806",
      "lat": "42.114799787811364"
    },
    {
      "id": "pt.ine.add.PTCONT.5146269",
      "street": "R SENHORA DA PASTORIZA",
      "house": "24",
      "postcode": "4960-408",
      "city": "MELGAÇO",
      "lon": "-8.262319724821806",
      "lat": "42.114799787811364"
    },
    {
      "id": "pt.ine.add.PTCONT.5147157",
      "street": "R SENHORA DA PASTORIZA",
      "house": "24",
      "postcode": "4960-408",
      "city": "MELGAÇO",
      "lon": "-8.262319724821806",
      "lat": "42.114799787811364"
    },
    {
      "id": "pt.ine.add.PTCONT.5147203",
      "street": "R SENHORA DA PASTORIZA",
      "house": "24",
      "postcode": "4960-408",
      "city": "MELGAÇO",
      "lon": "-8.262319724821806",
      "lat": "42.114799787811364"
    },
    {
      "id": "pt.ine.add.PTCONT.5159215",
      "street": "R FONTE",
      "house": "189",
      "postcode": "4960-546",
      "city": "MELGAÇO",
      "lon": "-8.265174057650002",
      "lat": "42.1151386477466"
    },
    {
      "id": "pt.ine.add.PTCONT.5174753",
      "street": "R CARVALHICAS",
      "house": "183",
      "postcode": "4960-535",
      "city": "MELGAÇO",
      "lon": "-8.262647481948923",
      "lat": "42.1154296199834"
    },
    {
      "id": "pt.ine.add.PTCONT.5179076",
      "street": "R CARVALHICAS",
      "house": "171",
      "postcode": "4960-535",
      "city": "MELGAÇO",
      "lon": "-8.262574803235548",
      "lat": "42.11536668183926"
    },
    {
      "id": "pt.ine.add.PTCONT.5179077",
      "street": "R CANEIRO",
      "house": "",
      "postcode": "4960-506",
      "city": "MELGAÇO",
      "lon": "-8.263938539354301",
      "lat": "42.11408672583958"
    },
    {
      "id": "pt.ine.add.PTCONT.5183505",
      "street": "R SENHORA DA PASTORIZA",
      "house": "",
      "postcode": "4960-408",
      "city": "MELGAÇO",
      "lon": "-8.263831233017852",
      "lat": "42.11482508449731"
    },
    {
      "id": "pt.ine.add.PTCONT.5188759",
      "street": "R CARVALHICAS",
      "house": "",
      "postcode": "4960-535",
      "city": "MELGAÇO",
      "lon": "-8.262174753220709",
      "lat": "42.11486297113599"
    },
    {
      "id": "pt.ine.add.PTCONT.5188760",
      "street": "R CARVALHICAS",
      "house": "121",
      "postcode": "4960-535",
      "city": "MELGAÇO",
      "lon": "-8.262174753220709",
      "lat": "42.11486297113599"
    },
    {
      "id": "pt.ine.add.PTCONT.5188761",
      "street": "R SRA PASTORIZA",
      "house": "12",
      "postcode": "4960-408",
      "city": "MELGAÇO",
      "lon": "-8.262174753220709",
      "lat": "42.11486297113599"
    },
    {
      "id": "pt.ine.add.PTCONT.5188762",
      "street": "R SRA PASTORIZA",
      "house": "12",
      "postcode": "4960-408",
      "city": "MELGAÇO",
      "lon": "-8.262174753220709",
      "lat": "42.11486297113599"
    },
    {
      "id": "pt.ine.add.PTCONT.5188763",
      "street": "R SRA PASTORIZA",
      "house": "12",
      "postcode": "4960-408",
      "city": "MELGAÇO",
      "lon": "-8.262174753220709",
      "lat": "42.11486297113599"
    },
    {
      "id": "pt.ine.add.PTCONT.5188764",
      "street": "R SRA PASTORIZA",
      "house": "12",
      "postcode": "4960-408",
      "city": "MELGAÇO",
      "lon": "-8.262174753220709",
      "lat": "42.11486297113599"
    },
    {
      "id": "pt.ine.add.PTCONT.5194533",
      "street": "R SENHORA DA PASTORIZA",
      "house": "65",
      "postcode": "4960-408",
      "city": "MELGAÇO",
      "lon": "-8.262911424361047",
      "lat": "42.11441199607554"
    },
    {
      "id": "pt.ine.add.PTCONT.5205786",
      "street": "R CARVALHICAS",
      "house": "143",
      "postcode": "4960-535",
      "city": "MELGAÇO",
      "lon": "-8.262199137457229",
      "lat": "42.114961975406956"
    },
    {
      "id": "pt.ine.add.PTCONT.5205787",
      "street": "R CARVALHICAS",
      "house": "137",
      "postcode": "4960-535",
      "city": "MELGAÇO",
      "lon": "-8.262199137457229",
      "lat": "42.114961975406956"
    },
    {
      "id": "pt.ine.add.PTCONT.5205788",
      "street": "R CARVALHICAS",
      "house": "139",
      "postcode": "4960-535",
      "city": "MELGAÇO",
      "lon": "-8.262199137457229",
      "lat": "42.114961975406956"
    },
    {
      "id": "pt.ine.add.PTCONT.5205789",
      "street": "R CARVALHICAS",
      "house": "138",
      "postcode": "4960-535",
      "city": "MELGAÇO",
      "lon": "-8.262199137457229",
      "lat": "42.114961975406956"
    },
    {
      "id": "pt.ine.add.PTCONT.5205790",
      "street": "R CARVALHICAS",
      "house": "139",
      "postcode": "4960-535",
      "city": "MELGAÇO",
      "lon": "-8.262199137457229",
      "lat": "42.114961975406956"
    },
    {
      "id": "pt.ine.add.PTCONT.5205920",
      "street": "R CARVALHICAS",
      "house": "139",
      "postcode": "4960-535",
      "city": "MELGAÇO",
      "lon": "-8.262199137457229",
      "lat": "42.114961975406956"
    },
    {
      "id": "pt.ine.add.PTCONT.5206035",
      "street": "R CARVALHICAS",
      "house": "27",
      "postcode": "4960-535",
      "city": "MELGAÇO",
      "lon": "-8.261749943882561",
      "lat": "42.114071194497285"
    },
    {
      "id": "pt.ine.add.PTCONT.5209328",
      "street": "TV BURAQUINHOS",
      "house": "112",
      "postcode": "4960-582",
      "city": "MELGAÇO",
      "lon": "-8.26214821410149",
      "lat": "42.11370162909892"
    },
    {
      "id": "pt.ine.add.PTCONT.5211907",
      "street": "R SENHORA DA PASTORIZA",
      "house": "115",
      "postcode": "4960-408",
      "city": "MELGAÇO",
      "lon": "-8.263420025510728",
      "lat": "42.114780537799646"
    },
    {
      "id": "pt.ine.add.PTCONT.5216784",
      "street": "R SENHORA DA PASTORIZA",
      "house": "58",
      "postcode": "4960-408",
      "city": "MELGAÇO",
      "lon": "-8.262525154184488",
      "lat": "42.1147365361334"
    },
    {
      "id": "pt.ine.add.PTCONT.5216785",
      "street": "R SENHORA DA PASTORIZA",
      "house": "58",
      "postcode": "4960-408",
      "city": "MELGAÇO",
      "lon": "-8.262525154184488",
      "lat": "42.1147365361334"
    },
    {
      "id": "pt.ine.add.PTCONT.5217363",
      "street": "R SENHORA DA PASTORIZA",
      "house": "58",
      "postcode": "4960-408",
      "city": "MELGAÇO",
      "lon": "-8.262525154184488",
      "lat": "42.1147365361334"
    },
    {
      "id": "pt.ine.add.PTCONT.5222005",
      "street": "R FONTE",
      "house": "247",
      "postcode": "4960-546",
      "city": "MELGAÇO",
      "lon": "-8.26589903252064",
      "lat": "42.114885730394896"
    },
    {
      "id": "pt.ine.add.PTCONT.5225252",
      "street": "R CARVALHICAS",
      "house": "37",
      "postcode": "4960-535",
      "city": "MELGAÇO",
      "lon": "-8.261738343910622",
      "lat": "42.114314285341464"
    },
    {
      "id": "pt.ine.add.PTCONT.5226787",
      "street": "AV 25 DE ABRIL",
      "house": "780",
      "postcode": "4960-539",
      "city": "MELGAÇO",
      "lon": "-8.265522523915903",
      "lat": "42.114084908950026"
    },
    {
      "id": "pt.ine.add.PTCONT.5246863",
      "street": "R CARVALHICAS",
      "house": "193",
      "postcode": "4960-535",
      "city": "MELGAÇO",
      "lon": "-8.262708105737108",
      "lat": "42.11551057745825"
    },
    {
      "id": "pt.ine.add.PTCONT.5247835",
      "street": "R SENHORA DA PASTORIZA",
      "house": "",
      "postcode": "4960-408",
      "city": "MELGAÇO",
      "lon": "-8.263045332468481",
      "lat": "42.11485298575225"
    },
    {
      "id": "pt.ine.add.PTCONT.5248544",
      "street": "R SENHORA DA PASTORIZA",
      "house": "",
      "postcode": "4960-408",
      "city": "MELGAÇO",
      "lon": "-8.263299551544508",
      "lat": "42.114996743712865"
    },
    {
      "id": "pt.ine.add.PTCONT.5250304",
      "street": "TV BURAQUINHOS",
      "house": "197",
      "postcode": "4960-582",
      "city": "MELGAÇO",
      "lon": "-8.263041893764944",
      "lat": "42.113169450484165"
    },
    {
      "id": "pt.ine.add.PTCONT.5253798",
      "street": "R FONTE",
      "house": "111",
      "postcode": "4960-546",
      "city": "MELGAÇO",
      "lon": "-8.26478813009318",
      "lat": "42.11562524683806"
    },
    {
      "id": "pt.ine.add.PTCONT.5259845",
      "street": "R SENHORA DA PASTORIZA",
      "house": "146",
      "postcode": "4960-408",
      "city": "MELGAÇO",
      "lon": "-8.263541513942997",
      "lat": "42.11505948910559"
    },
    {
      "id": "pt.ine.add.PTCONT.5264525",
      "street": "TV BURAQUINHOS",
      "house": "60",
      "postcode": "4960-582",
      "city": "MELGAÇO",
      "lon": "-8.261531897325103",
      "lat": "42.1138733753006"
    },
    {
      "id": "pt.ine.add.PTCONT.5276532",
      "street": "R SENHORA DA PASTORIZA",
      "house": "70",
      "postcode": "4960-408",
      "city": "MELGAÇO",
      "lon": "-8.262609978732968",
      "lat": "42.11482646925534"
    },
    {
      "id": "pt.ine.add.PTCONT.5276533",
      "street": "R SENHORA DA PASTORIZA",
      "house": "70",
      "postcode": "4960-408",
      "city": "MELGAÇO",
      "lon": "-8.262609978732968",
      "lat": "42.11482646925534"
    },
    {
      "id": "pt.ine.add.PTCONT.5276534",
      "street": "R SENHORA DA PASTORIZA",
      "house": "70",
      "postcode": "4960-408",
      "city": "MELGAÇO",
      "lon": "-8.262609978732968",
      "lat": "42.11482646925534"
    },
    {
      "id": "pt.ine.add.PTCONT.5276535",
      "street": "R SENHORA DA PASTORIZA",
      "house": "70",
      "postcode": "4960-408",
      "city": "MELGAÇO",
      "lon": "-8.262609978732968",
      "lat": "42.11482646925534"
    },
    {
      "id": "pt.ine.add.PTCONT.5276536",
      "street": "R SENHORA DA PASTORIZA",
      "house": "70",
      "postcode": "4960-408",
      "city": "MELGAÇO",
      "lon": "-8.262609978732968",
      "lat": "42.11482646925534"
    },
    {
      "id": "pt.ine.add.PTCONT.5277920",
      "street": "AV 25 DE ABRIL",
      "house": "490",
      "postcode": "4960-539",
      "city": "MELGAÇO",
      "lon": "-8.262714254483882",
      "lat": "42.11259363636776"
    },
    {
      "id": "pt.ine.add.PTCONT.5278517",
      "street": "R CARVALHICAS",
      "house": "149",
      "postcode": "4960-535",
      "city": "MELGAÇO",
      "lon": "-8.262441446424482",
      "lat": "42.11519577747879"
    },
    {
      "id": "pt.ine.add.PTCONT.5282701",
      "street": "R SENHORA DA PASTORIZA",
      "house": "180",
      "postcode": "4960-408",
      "city": "MELGAÇO",
      "lon": "-8.263904467689281",
      "lat": "42.11515810766561"
    },
    {
      "id": "pt.ine.add.PTCONT.5283139",
      "street": "R SENHORA DA PASTORIZA",
      "house": "70",
      "postcode": "4960-408",
      "city": "MELGAÇO",
      "lon": "-8.262609978732968",
      "lat": "42.11482646925534"
    }
  ]
}