{
  "data": {
    "distrito": "Santarém",
    "concelho": "Abrantes",
    "freguesia": "União das freguesias de São Miguel do Rio Torto e Rossio ao Sul do Tejo",
    "OBJECTID": 303,
    "BGRI2021": "14012400224",
    "DT21": "14",
    "DTMN21": "1401",
    "DTMNFR21": "140124",
    "DTMNFRSEC21": "140124002",
    "SECNUM21": "002",
    "SSNUM21": "24",
    "SECSSNUM21": "00224",
    "OBJECTID_1": 147227,
    "DT": "14",
    "CC": "01",
    "fr": "24",
    "SEC": "002",
    "SS": "24"
  },
  "addresses": [
    {
      "id": "pt.ine.add.PTCONT.4409447",
      "street": "SIT AREIAS DE BAIXO",
      "house": "6",
      "postcode": "2205-451",
      "city": "SÃO MIGUEL DO RIO TORTO",
      "lon": "-8.187742681286275",
      "lat": "39.41508825697948"
    },
    {
      "id": "pt.ine.add.PTCONT.4439082",
      "street": "CSL MEIO",
      "house": "",
      "postcode": "2205-537",
      "city": "SÃO MIGUEL DO RIO TORTO",
      "lon": "-8.192070749571174",
      "lat": "39.42507501823149"
    },
    {
      "id": "pt.ine.add.PTCONT.4488321",
      "street": "AREIAS DE BAIXO",
      "house": "8",
      "postcode": "2205-451",
      "city": "SÃO MIGUEL DO RIO TORTO",
      "lon": "-8.187265350012538",
      "lat": "39.41348521467058"
    },
    {
      "id": "pt.ine.add.PTCONT.4488322",
      "street": "SIT AREIAS DE BAIXO",
      "house": "2",
      "postcode": "2205-451",
      "city": "SÃO MIGUEL DO RIO TORTO",
      "lon": "-8.187915690137109",
      "lat": "39.41359299543665"
    },
    {
      "id": "pt.ine.add.PTCONT.4489742",
      "street": "SIT AREIAS DE BAIXO",
      "house": "1",
      "postcode": "2205-451",
      "city": "SÃO MIGUEL DO RIO TORTO",
      "lon": "-8.18788081268106",
      "lat": "39.413538969198676"
    },
    {
      "id": "pt.ine.add.PTCONT.4513062",
      "street": "CSL MEIO",
      "house": "",
      "postcode": "2205-537",
      "city": "SÃO MIGUEL DO RIO TORTO",
      "lon": "-8.192485668273601",
      "lat": "39.4213368625435"
    },
    {
      "id": "pt.ine.add.PTCONT.4528194",
      "street": "CSL MEIO",
      "house": "",
      "postcode": "2205-537",
      "city": "SÃO MIGUEL DO RIO TORTO",
      "lon": "-8.192035825248183",
      "lat": "39.42497595790825"
    },
    {
      "id": "pt.ine.add.PTCONT.4546085",
      "street": "JOÃO FILIPES CHARTERS CITRIGUEIROS ARAGAO",
      "house": "",
      "postcode": "2205-596",
      "city": "SÃO MIGUEL DO RIO TORTO",
      "lon": "-8.196345256192041",
      "lat": "39.42583837592286"
    },
    {
      "id": "pt.ine.add.PTCONT.4546113",
      "street": "",
      "house": "",
      "postcode": "2205-451",
      "city": "SÃO MIGUEL DO RIO TORTO",
      "lon": "-8.189450772065934",
      "lat": "39.41649255099048"
    },
    {
      "id": "pt.ine.add.PTCONT.4569614",
      "street": "SIT AREIAS DE BAIXO",
      "house": "7",
      "postcode": "2205-451",
      "city": "SÃO MIGUEL DO RIO TORTO",
      "lon": "-8.187765947428913",
      "lat": "39.41514228870015"
    },
    {
      "id": "pt.ine.add.PTCONT.4600789",
      "street": "SIT AREIAS DE BAIXO",
      "house": "5",
      "postcode": "2205-451",
      "city": "SÃO MIGUEL DO RIO TORTO",
      "lon": "-8.187696198279403",
      "lat": "39.41504324325824"
    },
    {
      "id": "pt.ine.add.PTCONT.4609086",
      "street": "CSL AREIAS",
      "house": "3",
      "postcode": "2205-451",
      "city": "SÃO MIGUEL DO RIO TORTO",
      "lon": "-8.187567744877057",
      "lat": "39.41411557122703"
    },
    {
      "id": "pt.ine.add.PTCONT.4632043",
      "street": "",
      "house": "",
      "postcode": "2205-537",
      "city": "SÃO MIGUEL DO RIO TORTO",
      "lon": "-8.192427992623418",
      "lat": "39.421796253969305"
    },
    {
      "id": "pt.ine.add.PTCONT.4632044",
      "street": "",
      "house": "",
      "postcode": "2205-451",
      "city": "SÃO MIGUEL DO RIO TORTO",
      "lon": "-8.18853343647955",
      "lat": "39.41652902007446"
    },
    {
      "id": "pt.ine.add.PTCONT.4651035",
      "street": "CSL MEIO",
      "house": "",
      "postcode": "2205-537",
      "city": "SÃO MIGUEL DO RIO TORTO",
      "lon": "-8.192024135797501",
      "lat": "39.42488589290053"
    },
    {
      "id": "pt.ine.add.PTCONT.4651036",
      "street": "SIT AREIAS DE BAIXO",
      "house": "4",
      "postcode": "2205-451",
      "city": "SÃO MIGUEL DO RIO TORTO",
      "lon": "-8.187672932223597",
      "lat": "39.41498921152261"
    }
  ]
}