{
  "data": {
    "distrito": "Lisboa",
    "concelho": "Sintra",
    "freguesia": "União das freguesias de São João das Lampas e Terrugem",
    "OBJECTID": 3191,
    "BGRI2021": "11112700507",
    "DT21": "11",
    "DTMN21": "1111",
    "DTMNFR21": "111127",
    "DTMNFRSEC21": "111127005",
    "SECNUM21": "005",
    "SSNUM21": "07",
    "SECSSNUM21": "00507",
    "OBJECTID_1": 113833,
    "DT": "11",
    "CC": "11",
    "fr": "27",
    "SEC": "005",
    "SS": "07"
  },
  "addresses": [
    {
      "id": "pt.ine.add.PTCONT.2428049",
      "street": "AV 29 DE AGOSTO",
      "house": "269",
      "postcode": "2705-869",
      "city": "TERRUGEM SNT",
      "lon": "-9.380269383058012",
      "lat": "38.850434087073886"
    },
    {
      "id": "pt.ine.add.PTCONT.2488703",
      "street": "TV CURRAIS DE OURÉM",
      "house": "44",
      "postcode": "2705-852",
      "city": "TERRUGEM SNT",
      "lon": "-9.383915183622653",
      "lat": "38.84944930711482"
    },
    {
      "id": "pt.ine.add.PTCONT.2626305",
      "street": "R DOMINGOS MONTEIRO",
      "house": "",
      "postcode": "2705-863",
      "city": "TERRUGEM SNT",
      "lon": "-9.382745995279738",
      "lat": "38.84977708667041"
    },
    {
      "id": "pt.ine.add.PTCONT.2723610",
      "street": "TV CURRAIS DE OURÉM",
      "house": "32",
      "postcode": "2705-852",
      "city": "TERRUGEM SNT",
      "lon": "-9.383525344639711",
      "lat": "38.850210113593015"
    },
    {
      "id": "pt.ine.add.PTCONT.2757627",
      "street": "R ALTO DOS MOINHOS",
      "house": "19",
      "postcode": "2705-844",
      "city": "TERRUGEM SNT",
      "lon": "-9.382520973365162",
      "lat": "38.85205839730299"
    },
    {
      "id": "pt.ine.add.PTCONT.2776678",
      "street": "AV 5 DE OUTUBRO",
      "house": "21",
      "postcode": "2705-571",
      "city": "SÃO JOÃO DAS LAMPAS",
      "lon": "-9.389085249619068",
      "lat": "38.85196096347762"
    },
    {
      "id": "pt.ine.add.PTCONT.2815186",
      "street": "R ALTO DOS MOINHOS",
      "house": "39",
      "postcode": "2705-844",
      "city": "TERRUGEM SNT",
      "lon": "-9.383958088688711",
      "lat": "38.8525564423182"
    },
    {
      "id": "pt.ine.add.PTCONT.2840004",
      "street": "R ALTO DOS MOINHOS",
      "house": "43",
      "postcode": "2705-844",
      "city": "TERRUGEM SNT",
      "lon": "-9.384627980374558",
      "lat": "38.852657355622384"
    },
    {
      "id": "pt.ine.add.PTCONT.2937015",
      "street": "AV 5 DE OUTUBRO",
      "house": "29B",
      "postcode": "2705-571",
      "city": "SÃO JOÃO DAS LAMPAS",
      "lon": "-9.390434750829908",
      "lat": "38.85140599150156"
    },
    {
      "id": "pt.ine.add.PTCONT.3040445",
      "street": "R PINHEIRO MANSO",
      "house": "6",
      "postcode": "2705-852",
      "city": "TERRUGEM SNT",
      "lon": "-9.38279535954539",
      "lat": "38.8506232656199"
    },
    {
      "id": "pt.ine.add.PTCONT.3049623",
      "street": "R ALTO DOS MOINHOS",
      "house": "",
      "postcode": "2705-844",
      "city": "TERRUGEM SNT",
      "lon": "-9.381499593688657",
      "lat": "38.85161894381044"
    },
    {
      "id": "pt.ine.add.PTCONT.3078644",
      "street": "R PARELELA RUA DOS MOINHOS",
      "house": "",
      "postcode": "2705-863",
      "city": "TERRUGEM SNT",
      "lon": "-9.383462539184452",
      "lat": "38.85188618497203"
    },
    {
      "id": "pt.ine.add.PTCONT.3162495",
      "street": "AV 5 DE OUTUBRO",
      "house": "31",
      "postcode": "2705-571",
      "city": "SÃO JOÃO DAS LAMPAS",
      "lon": "-9.390600904882024",
      "lat": "38.85168343553153"
    },
    {
      "id": "pt.ine.add.PTCONT.3272645",
      "street": "AV 5 DE OUTUBRO",
      "house": "29",
      "postcode": "2705-571",
      "city": "SÃO JOÃO DAS LAMPAS",
      "lon": "-9.390414412447539",
      "lat": "38.85155933822675"
    },
    {
      "id": "pt.ine.add.PTCONT.3340146",
      "street": "AV 5 DE OUTUBRO",
      "house": "17",
      "postcode": "2705-571",
      "city": "SÃO JOÃO DAS LAMPAS",
      "lon": "-9.388557047044118",
      "lat": "38.85205671802038"
    },
    {
      "id": "pt.ine.add.PTCONT.3423986",
      "street": "TV CURRAIS DE OUREM",
      "house": "32",
      "postcode": "2705-852",
      "city": "TERRUGEM SNT",
      "lon": "-9.383462077891988",
      "lat": "38.85054406928164"
    },
    {
      "id": "pt.ine.add.PTCONT.3423987",
      "street": "TV CURRAIS DE OUREM",
      "house": "32",
      "postcode": "2705-852",
      "city": "TERRUGEM SNT",
      "lon": "-9.383462077891988",
      "lat": "38.85054406928164"
    }
  ]
}