{
  "data": {
    "distrito": "Viseu",
    "concelho": "Mort√°gua",
    "freguesia": "Espinho",
    "OBJECTID": 428,
    "BGRI2021": "18080400129",
    "DT21": "18",
    "DTMN21": "1808",
    "DTMNFR21": "180804",
    "DTMNFRSEC21": "180804001",
    "SECNUM21": "001",
    "SSNUM21": "29",
    "SECSSNUM21": "00129",
    "OBJECTID_1": 193141,
    "DT": "18",
    "CC": "08",
    "fr": "04",
    "SEC": "001",
    "SS": "29"
  },
  "addresses": [
    {
      "id": "pt.ine.add.PTCONT.5456725",
      "street": "R EIRA DE ALEM",
      "house": "6",
      "postcode": "3450-064",
      "city": "ESPINHO MRT",
      "lon": "-8.29991750700058",
      "lat": "40.40963140193264"
    },
    {
      "id": "pt.ine.add.PTCONT.5499187",
      "street": "R OLIVEIRINHA",
      "house": "6",
      "postcode": "3450-054",
      "city": "ESPINHO MRT",
      "lon": "-8.307229363360454",
      "lat": "40.407990616915505"
    },
    {
      "id": "pt.ine.add.PTCONT.5499864",
      "street": "R BAIRRO ALTO",
      "house": "3",
      "postcode": "3450-054",
      "city": "ESPINHO MRT",
      "lon": "-8.30516297580107",
      "lat": "40.40612955984474"
    },
    {
      "id": "pt.ine.add.PTCONT.5509442",
      "street": "R PRINCIPAL",
      "house": "12",
      "postcode": "3450-059",
      "city": "ESPINHO MRT",
      "lon": "-8.299787632794505",
      "lat": "40.404741571556"
    },
    {
      "id": "pt.ine.add.PTCONT.5518728",
      "street": "CAM VALE",
      "house": "24",
      "postcode": "3450-064",
      "city": "ESPINHO MRT",
      "lon": "-8.297360724853736",
      "lat": "40.409517990022415"
    },
    {
      "id": "pt.ine.add.PTCONT.5529259",
      "street": "R EIRA DE ALEM",
      "house": "20",
      "postcode": "3450-064",
      "city": "ESPINHO MRT",
      "lon": "-8.297867333042397",
      "lat": "40.409526274807746"
    },
    {
      "id": "pt.ine.add.PTCONT.5600878",
      "street": "R OLIVEIRINHA",
      "house": "2",
      "postcode": "3450-054",
      "city": "ESPINHO MRT",
      "lon": "-8.307344663327465",
      "lat": "40.40701784314633"
    },
    {
      "id": "pt.ine.add.PTCONT.5621290",
      "street": "R BAIRRO ALTO",
      "house": "5",
      "postcode": "3450-054",
      "city": "ESPINHO MRT",
      "lon": "-8.304951156189066",
      "lat": "40.40621993042285"
    },
    {
      "id": "pt.ine.add.PTCONT.5637822",
      "street": "LG CAPELA",
      "house": "3",
      "postcode": "3450-054",
      "city": "ESPINHO MRT",
      "lon": "-8.306448665189249",
      "lat": "40.40675802866326"
    },
    {
      "id": "pt.ine.add.PTCONT.5652768",
      "street": "R BAIRRO ALTO",
      "house": "7",
      "postcode": "3450-054",
      "city": "ESPINHO MRT",
      "lon": "-8.304420782724147",
      "lat": "40.40612165628257"
    },
    {
      "id": "pt.ine.add.PTCONT.5660773",
      "street": "R OLIVEIRINHA",
      "house": "6",
      "postcode": "3450-054",
      "city": "ESPINHO MRT",
      "lon": "-8.30686360265148",
      "lat": "40.40777503379011"
    },
    {
      "id": "pt.ine.add.PTCONT.5667240",
      "street": "R SERRA",
      "house": "2",
      "postcode": "3450-054",
      "city": "ESPINHO MRT",
      "lon": "-8.30602481750297",
      "lat": "40.40685772441685"
    }
  ]
}