{
  "data": {
    "distrito": "Viseu",
    "concelho": "Mort√°gua",
    "freguesia": "Espinho",
    "OBJECTID": 530,
    "BGRI2021": "18080400145",
    "DT21": "18",
    "DTMN21": "1808",
    "DTMNFR21": "180804",
    "DTMNFRSEC21": "180804001",
    "SECNUM21": "001",
    "SSNUM21": "45",
    "SECSSNUM21": "00145",
    "OBJECTID_1": 192997,
    "DT": "18",
    "CC": "08",
    "fr": "04",
    "SEC": "001",
    "SS": "45"
  },
  "addresses": [
    {
      "id": "pt.ine.add.PTCONT.5442375",
      "street": "R LUGAR DE BAIXO",
      "house": "8",
      "postcode": "3450-056",
      "city": "ESPINHO MRT",
      "lon": "-8.300980927707677",
      "lat": "40.41562755840198"
    },
    {
      "id": "pt.ine.add.PTCONT.5454898",
      "street": "R IGREJA",
      "house": "8",
      "postcode": "3450-056",
      "city": "ESPINHO MRT",
      "lon": "-8.301290918182215",
      "lat": "40.417095011413934"
    },
    {
      "id": "pt.ine.add.PTCONT.5458446",
      "street": "R IGREJA",
      "house": "9",
      "postcode": "3450-056",
      "city": "ESPINHO MRT",
      "lon": "-8.30156070045282",
      "lat": "40.41660831939775"
    },
    {
      "id": "pt.ine.add.PTCONT.5476481",
      "street": "R IGREJA",
      "house": "5",
      "postcode": "3450-056",
      "city": "ESPINHO MRT",
      "lon": "-8.301349359100735",
      "lat": "40.41690581001012"
    },
    {
      "id": "pt.ine.add.PTCONT.5499442",
      "street": "R PRINCIPAL",
      "house": "1",
      "postcode": "3450-056",
      "city": "ESPINHO MRT",
      "lon": "-8.300523834870996",
      "lat": "40.41660081984016"
    },
    {
      "id": "pt.ine.add.PTCONT.5516900",
      "street": "R IGREJA",
      "house": "7",
      "postcode": "3450-056",
      "city": "ESPINHO MRT",
      "lon": "-8.30139574812106",
      "lat": "40.416608559603084"
    },
    {
      "id": "pt.ine.add.PTCONT.5536723",
      "street": "R IGREJA",
      "house": "11",
      "postcode": "3450-056",
      "city": "ESPINHO MRT",
      "lon": "-8.30166651650613",
      "lat": "40.416518109757185"
    },
    {
      "id": "pt.ine.add.PTCONT.5547719",
      "street": "R CONFRARIA",
      "house": "2",
      "postcode": "3450-056",
      "city": "ESPINHO MRT",
      "lon": "-8.301219618642973",
      "lat": "40.4168519654695"
    },
    {
      "id": "pt.ine.add.PTCONT.5578674",
      "street": "R PRINCIPAL",
      "house": "3",
      "postcode": "3450-056",
      "city": "ESPINHO MRT",
      "lon": "-8.300736117566421",
      "lat": "40.4166815621524"
    },
    {
      "id": "pt.ine.add.PTCONT.5591196",
      "street": "R LUGAR DE BAIXO",
      "house": "46",
      "postcode": "3450-056",
      "city": "ESPINHO MRT",
      "lon": "-8.300804307413983",
      "lat": "40.415672842422936"
    }
  ]
}