{
  "data": {
    "distrito": "Lisboa",
    "concelho": "Sintra",
    "freguesia": "Algueirão-Mem Martins",
    "OBJECTID": 2883,
    "BGRI2021": "11110203614",
    "DT21": "11",
    "DTMN21": "1111",
    "DTMNFR21": "111102",
    "DTMNFRSEC21": "111102036",
    "SECNUM21": "036",
    "SSNUM21": "14",
    "SECSSNUM21": "03614",
    "OBJECTID_1": 114033,
    "DT": "11",
    "CC": "11",
    "fr": "02",
    "SEC": "036",
    "SS": "14"
  },
  "addresses": [
    {
      "id": "pt.ine.add.PTCONT.2290495",
      "street": "BR COOPALME BANDA 3",
      "house": "A",
      "postcode": "2725-688",
      "city": "MEM MARTINS",
      "lon": "-9.353147034188616",
      "lat": "38.804853988384096"
    },
    {
      "id": "pt.ine.add.PTCONT.2290493",
      "street": "BR COOPALME BANDA 3",
      "house": "A",
      "postcode": "2725-688",
      "city": "MEM MARTINS",
      "lon": "-9.353147034188616",
      "lat": "38.804853988384096"
    },
    {
      "id": "pt.ine.add.PTCONT.2290494",
      "street": "BR COOPALME BANDA 3",
      "house": "A",
      "postcode": "2725-688",
      "city": "MEM MARTINS",
      "lon": "-9.353147034188616",
      "lat": "38.804853988384096"
    },
    {
      "id": "pt.ine.add.PTCONT.2290496",
      "street": "BR COOPALME BANDA 3",
      "house": "A",
      "postcode": "2725-688",
      "city": "MEM MARTINS",
      "lon": "-9.353147034188616",
      "lat": "38.804853988384096"
    },
    {
      "id": "pt.ine.add.PTCONT.2290497",
      "street": "BR COOPALME BANDA 3",
      "house": "A",
      "postcode": "2725-688",
      "city": "MEM MARTINS",
      "lon": "-9.353147034188616",
      "lat": "38.804853988384096"
    },
    {
      "id": "pt.ine.add.PTCONT.2290498",
      "street": "BR COOPALME BANDA 3",
      "house": "A",
      "postcode": "2725-688",
      "city": "MEM MARTINS",
      "lon": "-9.353147034188616",
      "lat": "38.804853988384096"
    },
    {
      "id": "pt.ine.add.PTCONT.2290499",
      "street": "BR COOPALME BANDA 3",
      "house": "A",
      "postcode": "2725-688",
      "city": "MEM MARTINS",
      "lon": "-9.353147034188616",
      "lat": "38.804853988384096"
    },
    {
      "id": "pt.ine.add.PTCONT.2290500",
      "street": "BR COOPALME BANDA 3",
      "house": "A",
      "postcode": "2725-688",
      "city": "MEM MARTINS",
      "lon": "-9.353147034188616",
      "lat": "38.804853988384096"
    },
    {
      "id": "pt.ine.add.PTCONT.2290501",
      "street": "BR COOPALME BANDA 3",
      "house": "A",
      "postcode": "2725-688",
      "city": "MEM MARTINS",
      "lon": "-9.353147034188616",
      "lat": "38.804853988384096"
    },
    {
      "id": "pt.ine.add.PTCONT.2290502",
      "street": "BR COOPALME BANDA 3",
      "house": "A",
      "postcode": "2725-688",
      "city": "MEM MARTINS",
      "lon": "-9.353147034188616",
      "lat": "38.804853988384096"
    },
    {
      "id": "pt.ine.add.PTCONT.2290503",
      "street": "BR COOPALME",
      "house": "BANDA 3",
      "postcode": "2725-688",
      "city": "MEM MARTINS",
      "lon": "-9.353147034188616",
      "lat": "38.804853988384096"
    },
    {
      "id": "pt.ine.add.PTCONT.2290504",
      "street": "BR COOPALME BANDA 3",
      "house": "A",
      "postcode": "2725-688",
      "city": "MEM MARTINS",
      "lon": "-9.353147034188616",
      "lat": "38.804853988384096"
    },
    {
      "id": "pt.ine.add.PTCONT.2290505",
      "street": "BR COOPALME BANDA 3",
      "house": "A",
      "postcode": "2725-688",
      "city": "MEM MARTINS",
      "lon": "-9.353147034188616",
      "lat": "38.804853988384096"
    },
    {
      "id": "pt.ine.add.PTCONT.2290506",
      "street": "BR COOPALME BANDA 3",
      "house": "A",
      "postcode": "2725-688",
      "city": "MEM MARTINS",
      "lon": "-9.353147034188616",
      "lat": "38.804853988384096"
    },
    {
      "id": "pt.ine.add.PTCONT.2290507",
      "street": "BR COOPALME BANDA 3",
      "house": "A",
      "postcode": "2725-688",
      "city": "MEM MARTINS",
      "lon": "-9.353147034188616",
      "lat": "38.804853988384096"
    },
    {
      "id": "pt.ine.add.PTCONT.2293396",
      "street": "BR COOPALME BANDA 3",
      "house": "A",
      "postcode": "2725-688",
      "city": "MEM MARTINS",
      "lon": "-9.353147034188616",
      "lat": "38.804853988384096"
    },
    {
      "id": "pt.ine.add.PTCONT.2335513",
      "street": "R FRANCISCO SOUSA BRANDÃO",
      "house": "18",
      "postcode": "2725-654",
      "city": "MEM MARTINS",
      "lon": "-9.353196583143436",
      "lat": "38.80370950416184"
    },
    {
      "id": "pt.ine.add.PTCONT.2374482",
      "street": "R FRANCISCO SOUSA BRANDÃO",
      "house": "24",
      "postcode": "2725-654",
      "city": "MEM MARTINS",
      "lon": "-9.353429384350427",
      "lat": "38.80386020212496"
    },
    {
      "id": "pt.ine.add.PTCONT.2462931",
      "street": "BR COOPALME BANDA 2",
      "house": "A",
      "postcode": "2725-688",
      "city": "MEM MARTINS",
      "lon": "-9.35208676366756",
      "lat": "38.804108416513934"
    },
    {
      "id": "pt.ine.add.PTCONT.2462932",
      "street": "BR COOPALME BANDA 2",
      "house": "A",
      "postcode": "2725-688",
      "city": "MEM MARTINS",
      "lon": "-9.35208676366756",
      "lat": "38.804108416513934"
    },
    {
      "id": "pt.ine.add.PTCONT.2462933",
      "street": "BR COOPALME BANDA 2",
      "house": "A",
      "postcode": "2725-688",
      "city": "MEM MARTINS",
      "lon": "-9.35208676366756",
      "lat": "38.804108416513934"
    },
    {
      "id": "pt.ine.add.PTCONT.2462934",
      "street": "BR COOPALME BANDA 2",
      "house": "A",
      "postcode": "2725-688",
      "city": "MEM MARTINS",
      "lon": "-9.35208676366756",
      "lat": "38.804108416513934"
    },
    {
      "id": "pt.ine.add.PTCONT.2462935",
      "street": "BR COOPALME BANDA 2",
      "house": "A",
      "postcode": "2725-688",
      "city": "MEM MARTINS",
      "lon": "-9.35208676366756",
      "lat": "38.804108416513934"
    },
    {
      "id": "pt.ine.add.PTCONT.2462936",
      "street": "BR COOPALME BANDA 2",
      "house": "A",
      "postcode": "2725-688",
      "city": "MEM MARTINS",
      "lon": "-9.35208676366756",
      "lat": "38.804108416513934"
    },
    {
      "id": "pt.ine.add.PTCONT.2462937",
      "street": "BR COOPALME BANDA 2",
      "house": "A",
      "postcode": "2725-688",
      "city": "MEM MARTINS",
      "lon": "-9.35208676366756",
      "lat": "38.804108416513934"
    },
    {
      "id": "pt.ine.add.PTCONT.2462938",
      "street": "BR COOPALME BANDA 2",
      "house": "A",
      "postcode": "2725-688",
      "city": "MEM MARTINS",
      "lon": "-9.35208676366756",
      "lat": "38.804108416513934"
    },
    {
      "id": "pt.ine.add.PTCONT.2462939",
      "street": "BR COOPALME BANDA 2",
      "house": "A",
      "postcode": "2725-688",
      "city": "MEM MARTINS",
      "lon": "-9.35208676366756",
      "lat": "38.804108416513934"
    },
    {
      "id": "pt.ine.add.PTCONT.2462940",
      "street": "BR COOPALME BANDA2",
      "house": "G",
      "postcode": "2725-688",
      "city": "MEM MARTINS",
      "lon": "-9.352331533986279",
      "lat": "38.80428601461575"
    },
    {
      "id": "pt.ine.add.PTCONT.2462941",
      "street": "BR COOPALME BANDA2",
      "house": "G",
      "postcode": "2725-688",
      "city": "MEM MARTINS",
      "lon": "-9.352331533986279",
      "lat": "38.80428601461575"
    },
    {
      "id": "pt.ine.add.PTCONT.2462942",
      "street": "BR COOPALME BANDA2",
      "house": "G",
      "postcode": "2725-688",
      "city": "MEM MARTINS",
      "lon": "-9.352331533986279",
      "lat": "38.80428601461575"
    },
    {
      "id": "pt.ine.add.PTCONT.2463074",
      "street": "BR COOPALME BANDA2",
      "house": "G",
      "postcode": "2725-688",
      "city": "MEM MARTINS",
      "lon": "-9.352331533986279",
      "lat": "38.80428601461575"
    },
    {
      "id": "pt.ine.add.PTCONT.2463075",
      "street": "R DR COUTINHO PAIS",
      "house": "",
      "postcode": "2725-688",
      "city": "MEM MARTINS",
      "lon": "-9.352331533986279",
      "lat": "38.80428601461575"
    },
    {
      "id": "pt.ine.add.PTCONT.2463076",
      "street": "BR COOPALME BANDA2",
      "house": "G",
      "postcode": "2725-688",
      "city": "MEM MARTINS",
      "lon": "-9.352331533986279",
      "lat": "38.80428601461575"
    },
    {
      "id": "pt.ine.add.PTCONT.2463077",
      "street": "BR COOPALME BANDA2",
      "house": "G",
      "postcode": "2725-688",
      "city": "MEM MARTINS",
      "lon": "-9.352331533986279",
      "lat": "38.80428601461575"
    },
    {
      "id": "pt.ine.add.PTCONT.2463078",
      "street": "BR COOPALME BANDA2",
      "house": "G",
      "postcode": "2725-688",
      "city": "MEM MARTINS",
      "lon": "-9.352331533986279",
      "lat": "38.80428601461575"
    },
    {
      "id": "pt.ine.add.PTCONT.2463079",
      "street": "BR COOPALME BANDA2",
      "house": "G",
      "postcode": "2725-688",
      "city": "MEM MARTINS",
      "lon": "-9.352331533986279",
      "lat": "38.80428601461575"
    },
    {
      "id": "pt.ine.add.PTCONT.2463080",
      "street": "BR COOPALME BANDA2",
      "house": "G",
      "postcode": "2725-688",
      "city": "MEM MARTINS",
      "lon": "-9.352331533986279",
      "lat": "38.80428601461575"
    },
    {
      "id": "pt.ine.add.PTCONT.2463081",
      "street": "BR COOPALME BANDA2",
      "house": "G",
      "postcode": "2725-688",
      "city": "MEM MARTINS",
      "lon": "-9.352331533986279",
      "lat": "38.80428601461575"
    },
    {
      "id": "pt.ine.add.PTCONT.2463082",
      "street": "BR COOPALME BANDA2",
      "house": "G",
      "postcode": "2725-688",
      "city": "MEM MARTINS",
      "lon": "-9.352331533986279",
      "lat": "38.80428601461575"
    },
    {
      "id": "pt.ine.add.PTCONT.2465538",
      "street": "BR COOPALME BANDA 2",
      "house": "A",
      "postcode": "2725-688",
      "city": "MEM MARTINS",
      "lon": "-9.35208676366756",
      "lat": "38.804108416513934"
    },
    {
      "id": "pt.ine.add.PTCONT.2465923",
      "street": "BR COOPALME BANDA 2",
      "house": "A",
      "postcode": "2725-688",
      "city": "MEM MARTINS",
      "lon": "-9.35208676366756",
      "lat": "38.804108416513934"
    },
    {
      "id": "pt.ine.add.PTCONT.2468768",
      "street": "R FRANCISCO SOUSA BRANDÃO",
      "house": "19",
      "postcode": "2725-654",
      "city": "MEM MARTINS",
      "lon": "-9.35312645113118",
      "lat": "38.80364718326082"
    },
    {
      "id": "pt.ine.add.PTCONT.2508794",
      "street": "URB COOPALME CANTINHO FAMILIA ALMEIDA",
      "house": "362",
      "postcode": "2725-701",
      "city": "MEM MARTINS",
      "lon": "-9.352793137491354",
      "lat": "38.80367768633565"
    },
    {
      "id": "pt.ine.add.PTCONT.2522476",
      "street": "AV PROF DR HENRIQUE DE BARROS",
      "house": "168",
      "postcode": "2725-651",
      "city": "MEM MARTINS",
      "lon": "-9.353575642155462",
      "lat": "38.804336077773975"
    },
    {
      "id": "pt.ine.add.PTCONT.2535683",
      "street": "BR COOPALME",
      "house": "372",
      "postcode": "2725-688",
      "city": "MEM MARTINS",
      "lon": "-9.353374755921319",
      "lat": "38.80403191736761"
    },
    {
      "id": "pt.ine.add.PTCONT.2544958",
      "street": "R FRANCISCO SOUSA BRANDÃO",
      "house": "22",
      "postcode": "2725-654",
      "city": "MEM MARTINS",
      "lon": "-9.353278071135735",
      "lat": "38.80376269880436"
    },
    {
      "id": "pt.ine.add.PTCONT.2562874",
      "street": "AV PROF DR HENRIQUE DE BARROS",
      "house": "162",
      "postcode": "2725-651",
      "city": "MEM MARTINS",
      "lon": "-9.3535257625374",
      "lat": "38.80411140853262"
    },
    {
      "id": "pt.ine.add.PTCONT.2573889",
      "street": "R FRANCISCO SOUSA BRANDÃO",
      "house": "20",
      "postcode": "2725-654",
      "city": "MEM MARTINS",
      "lon": "-9.353209321500842",
      "lat": "38.80378143203521"
    },
    {
      "id": "pt.ine.add.PTCONT.2581216",
      "street": "AV PROF DR HENRIQUE DE BARROS",
      "house": "164",
      "postcode": "2725-651",
      "city": "MEM MARTINS",
      "lon": "-9.353526838110888",
      "lat": "38.804174450583325"
    },
    {
      "id": "pt.ine.add.PTCONT.2589696",
      "street": "URB COOPALME",
      "house": "364",
      "postcode": "2725-701",
      "city": "MEM MARTINS",
      "lon": "-9.352932786822516",
      "lat": "38.80376630446176"
    },
    {
      "id": "pt.ine.add.PTCONT.2610982",
      "street": "BR COOPALME",
      "house": "C",
      "postcode": "2725-688",
      "city": "MEM MARTINS",
      "lon": "-9.352821231832115",
      "lat": "38.80465021521461"
    },
    {
      "id": "pt.ine.add.PTCONT.2610983",
      "street": "BR COOPALME",
      "house": "C",
      "postcode": "2725-688",
      "city": "MEM MARTINS",
      "lon": "-9.352821231832115",
      "lat": "38.80465021521461"
    },
    {
      "id": "pt.ine.add.PTCONT.2610984",
      "street": "BR COOPALME",
      "house": "C",
      "postcode": "2725-688",
      "city": "MEM MARTINS",
      "lon": "-9.352821231832115",
      "lat": "38.80465021521461"
    },
    {
      "id": "pt.ine.add.PTCONT.2610985",
      "street": "BR COOPALME",
      "house": "C",
      "postcode": "2725-688",
      "city": "MEM MARTINS",
      "lon": "-9.352821231832115",
      "lat": "38.80465021521461"
    },
    {
      "id": "pt.ine.add.PTCONT.2610986",
      "street": "BR COOPALME",
      "house": "C",
      "postcode": "2725-688",
      "city": "MEM MARTINS",
      "lon": "-9.352821231832115",
      "lat": "38.80465021521461"
    },
    {
      "id": "pt.ine.add.PTCONT.2610987",
      "street": "BR COOPALME",
      "house": "C",
      "postcode": "2725-688",
      "city": "MEM MARTINS",
      "lon": "-9.352821231832115",
      "lat": "38.80465021521461"
    },
    {
      "id": "pt.ine.add.PTCONT.2610988",
      "street": "BR COOPALME",
      "house": "C",
      "postcode": "2725-688",
      "city": "MEM MARTINS",
      "lon": "-9.352821231832115",
      "lat": "38.80465021521461"
    },
    {
      "id": "pt.ine.add.PTCONT.2610989",
      "street": "BR COOPALME",
      "house": "C",
      "postcode": "2725-688",
      "city": "MEM MARTINS",
      "lon": "-9.352821231832115",
      "lat": "38.80465021521461"
    },
    {
      "id": "pt.ine.add.PTCONT.2610990",
      "street": "BR COOPALME",
      "house": "C",
      "postcode": "2725-688",
      "city": "MEM MARTINS",
      "lon": "-9.352821231832115",
      "lat": "38.80465021521461"
    },
    {
      "id": "pt.ine.add.PTCONT.2610991",
      "street": "BR COOPALME",
      "house": "C",
      "postcode": "2725-688",
      "city": "MEM MARTINS",
      "lon": "-9.352821231832115",
      "lat": "38.80465021521461"
    },
    {
      "id": "pt.ine.add.PTCONT.2610992",
      "street": "BR COOPALME",
      "house": "C",
      "postcode": "2725-688",
      "city": "MEM MARTINS",
      "lon": "-9.352821231832115",
      "lat": "38.80465021521461"
    },
    {
      "id": "pt.ine.add.PTCONT.2610993",
      "street": "BR COOPALME",
      "house": "C",
      "postcode": "2725-688",
      "city": "MEM MARTINS",
      "lon": "-9.352821231832115",
      "lat": "38.80465021521461"
    },
    {
      "id": "pt.ine.add.PTCONT.2610994",
      "street": "BR COOPALME",
      "house": "C",
      "postcode": "2725-688",
      "city": "MEM MARTINS",
      "lon": "-9.352821231832115",
      "lat": "38.80465021521461"
    },
    {
      "id": "pt.ine.add.PTCONT.2611099",
      "street": "BR COOPALME",
      "house": "C",
      "postcode": "2725-688",
      "city": "MEM MARTINS",
      "lon": "-9.352821231832115",
      "lat": "38.80465021521461"
    },
    {
      "id": "pt.ine.add.PTCONT.2611100",
      "street": "BR COOPALME",
      "house": "C",
      "postcode": "2725-688",
      "city": "MEM MARTINS",
      "lon": "-9.352821231832115",
      "lat": "38.80465021521461"
    },
    {
      "id": "pt.ine.add.PTCONT.2612044",
      "street": "BR COOPALME",
      "house": "C",
      "postcode": "2725-688",
      "city": "MEM MARTINS",
      "lon": "-9.352821231832115",
      "lat": "38.80465021521461"
    },
    {
      "id": "pt.ine.add.PTCONT.2614572",
      "street": "R FRANCISCO SOUSA BRANDÃO",
      "house": "10",
      "postcode": "2725-654",
      "city": "MEM MARTINS",
      "lon": "-9.35299861841465",
      "lat": "38.80357645720743"
    },
    {
      "id": "pt.ine.add.PTCONT.2678332",
      "street": "BR COOPALME",
      "house": "384",
      "postcode": "2725-651",
      "city": "MEM MARTINS",
      "lon": "-9.353499223772694",
      "lat": "38.80458008158584"
    },
    {
      "id": "pt.ine.add.PTCONT.2684176",
      "street": "URB COOPALME",
      "house": "361",
      "postcode": "2725-701",
      "city": "MEM MARTINS",
      "lon": "-9.352803725597273",
      "lat": "38.80362353011491"
    },
    {
      "id": "pt.ine.add.PTCONT.2707142",
      "street": "URB COOPALME",
      "house": "366",
      "postcode": "2725-701",
      "city": "MEM MARTINS",
      "lon": "-9.353095455481666",
      "lat": "38.803854682040665"
    },
    {
      "id": "pt.ine.add.PTCONT.2709689",
      "street": "R ANTÓNIO MONTEZ",
      "house": "17",
      "postcode": "2725-701",
      "city": "MEM MARTINS",
      "lon": "-9.353002765202941",
      "lat": "38.80381961946913"
    },
    {
      "id": "pt.ine.add.PTCONT.2743355",
      "street": "URB COOPALME",
      "house": "359",
      "postcode": "2725-701",
      "city": "MEM MARTINS",
      "lon": "-9.352710882210333",
      "lat": "38.80357946129258"
    },
    {
      "id": "pt.ine.add.PTCONT.2750467",
      "street": "R FRANCISCO SOUSA BRANDÃO",
      "house": "12",
      "postcode": "2725-654",
      "city": "MEM MARTINS",
      "lon": "-9.3530572407895",
      "lat": "38.80363889837291"
    },
    {
      "id": "pt.ine.add.PTCONT.2770171",
      "street": "PCT PAULO RENATO",
      "house": "6",
      "postcode": "2725-702",
      "city": "MEM MARTINS",
      "lon": "-9.352941694379545",
      "lat": "38.80428865300679"
    },
    {
      "id": "pt.ine.add.PTCONT.2770172",
      "street": "PCT PAULO RENATO",
      "house": "6",
      "postcode": "2725-702",
      "city": "MEM MARTINS",
      "lon": "-9.352941694379545",
      "lat": "38.80428865300679"
    },
    {
      "id": "pt.ine.add.PTCONT.2770173",
      "street": "PCT PAULO RENATO",
      "house": "6",
      "postcode": "2725-702",
      "city": "MEM MARTINS",
      "lon": "-9.352941694379545",
      "lat": "38.80428865300679"
    },
    {
      "id": "pt.ine.add.PTCONT.2770174",
      "street": "PCT PAULO RENATO",
      "house": "6",
      "postcode": "2725-702",
      "city": "MEM MARTINS",
      "lon": "-9.352941694379545",
      "lat": "38.80428865300679"
    },
    {
      "id": "pt.ine.add.PTCONT.2770175",
      "street": "PCT PAULO RENATO",
      "house": "6",
      "postcode": "2725-702",
      "city": "MEM MARTINS",
      "lon": "-9.352941694379545",
      "lat": "38.80428865300679"
    },
    {
      "id": "pt.ine.add.PTCONT.2770300",
      "street": "PCT PAULO RENATO",
      "house": "6",
      "postcode": "2725-702",
      "city": "MEM MARTINS",
      "lon": "-9.352941694379545",
      "lat": "38.80428865300679"
    },
    {
      "id": "pt.ine.add.PTCONT.2770301",
      "street": "PCT PAULO RENATO",
      "house": "6",
      "postcode": "2725-702",
      "city": "MEM MARTINS",
      "lon": "-9.352941694379545",
      "lat": "38.80428865300679"
    },
    {
      "id": "pt.ine.add.PTCONT.2770302",
      "street": "PCT PAULO RENATO",
      "house": "6",
      "postcode": "2725-702",
      "city": "MEM MARTINS",
      "lon": "-9.352941694379545",
      "lat": "38.80428865300679"
    },
    {
      "id": "pt.ine.add.PTCONT.2770303",
      "street": "PCT PAULO RENATO",
      "house": "6",
      "postcode": "2725-702",
      "city": "MEM MARTINS",
      "lon": "-9.352941694379545",
      "lat": "38.80428865300679"
    },
    {
      "id": "pt.ine.add.PTCONT.2770304",
      "street": "PCT PAULO RENATO",
      "house": "6",
      "postcode": "2725-702",
      "city": "MEM MARTINS",
      "lon": "-9.352941694379545",
      "lat": "38.80428865300679"
    },
    {
      "id": "pt.ine.add.PTCONT.2770543",
      "street": "PCT PAULO RENATO",
      "house": "6",
      "postcode": "2725-702",
      "city": "MEM MARTINS",
      "lon": "-9.352941694379545",
      "lat": "38.80428865300679"
    },
    {
      "id": "pt.ine.add.PTCONT.2770751",
      "street": "AV PROF DR HENRIQUE DE BARROS",
      "house": "166",
      "postcode": "2725-651",
      "city": "MEM MARTINS",
      "lon": "-9.35356259600005",
      "lat": "38.80424613794089"
    },
    {
      "id": "pt.ine.add.PTCONT.2772866",
      "street": "PCT PAULO RENATO",
      "house": "6",
      "postcode": "2725-702",
      "city": "MEM MARTINS",
      "lon": "-9.352941694379545",
      "lat": "38.80428865300679"
    },
    {
      "id": "pt.ine.add.PTCONT.2777186",
      "street": "R FRANCISCO SOUSA BRANDAO",
      "house": "30",
      "postcode": "2725-654",
      "city": "MEM MARTINS",
      "lon": "-9.353478956176652",
      "lat": "38.80406685940968"
    },
    {
      "id": "pt.ine.add.PTCONT.2793030",
      "street": "BR COOPALME",
      "house": "383",
      "postcode": "2725-688",
      "city": "MEM MARTINS",
      "lon": "-9.35346377306575",
      "lat": "38.80452640622828"
    },
    {
      "id": "pt.ine.add.PTCONT.2812535",
      "street": "BR COOPALME",
      "house": "377",
      "postcode": "2725-688",
      "city": "MEM MARTINS",
      "lon": "-9.35340223044843",
      "lat": "38.80429285115516"
    },
    {
      "id": "pt.ine.add.PTCONT.2825031",
      "street": "R DR COUTINHO PAIS",
      "house": "",
      "postcode": "2725-688",
      "city": "MEM MARTINS",
      "lon": "-9.352217817667654",
      "lat": "38.80369269881097"
    },
    {
      "id": "pt.ine.add.PTCONT.2825032",
      "street": "R DR COUTINHO PAIS",
      "house": "",
      "postcode": "2725-688",
      "city": "MEM MARTINS",
      "lon": "-9.352217817667654",
      "lat": "38.80369269881097"
    },
    {
      "id": "pt.ine.add.PTCONT.2825033",
      "street": "R DR COUTINHO PAIS",
      "house": "",
      "postcode": "2725-688",
      "city": "MEM MARTINS",
      "lon": "-9.352217817667654",
      "lat": "38.80369269881097"
    },
    {
      "id": "pt.ine.add.PTCONT.2825034",
      "street": "R DR COUTINHO PAIS",
      "house": "",
      "postcode": "2725-688",
      "city": "MEM MARTINS",
      "lon": "-9.352217817667654",
      "lat": "38.80369269881097"
    },
    {
      "id": "pt.ine.add.PTCONT.2825035",
      "street": "R DR COUTINHO PAIS",
      "house": "",
      "postcode": "2725-688",
      "city": "MEM MARTINS",
      "lon": "-9.352217817667654",
      "lat": "38.80369269881097"
    },
    {
      "id": "pt.ine.add.PTCONT.2825036",
      "street": "R DR COUTINHO PAIS",
      "house": "",
      "postcode": "2725-688",
      "city": "MEM MARTINS",
      "lon": "-9.352217817667654",
      "lat": "38.80369269881097"
    },
    {
      "id": "pt.ine.add.PTCONT.2825037",
      "street": "R DR COUTINHO PAIS",
      "house": "",
      "postcode": "2725-688",
      "city": "MEM MARTINS",
      "lon": "-9.352217817667654",
      "lat": "38.80369269881097"
    },
    {
      "id": "pt.ine.add.PTCONT.2825038",
      "street": "R DR COUTINHO PAIS",
      "house": "",
      "postcode": "2725-688",
      "city": "MEM MARTINS",
      "lon": "-9.352217817667654",
      "lat": "38.80369269881097"
    },
    {
      "id": "pt.ine.add.PTCONT.2825039",
      "street": "R DR COUTINHO PAIS",
      "house": "",
      "postcode": "2725-688",
      "city": "MEM MARTINS",
      "lon": "-9.352217817667654",
      "lat": "38.80369269881097"
    },
    {
      "id": "pt.ine.add.PTCONT.2825040",
      "street": "R DR COUTINHO PAIS",
      "house": "",
      "postcode": "2725-688",
      "city": "MEM MARTINS",
      "lon": "-9.352217817667654",
      "lat": "38.80369269881097"
    },
    {
      "id": "pt.ine.add.PTCONT.2825041",
      "street": "R DR COUTINHO PAIS",
      "house": "",
      "postcode": "2725-688",
      "city": "MEM MARTINS",
      "lon": "-9.352217817667654",
      "lat": "38.80369269881097"
    },
    {
      "id": "pt.ine.add.PTCONT.2825042",
      "street": "R DR COUTINHO PAIS",
      "house": "",
      "postcode": "2725-688",
      "city": "MEM MARTINS",
      "lon": "-9.352217817667654",
      "lat": "38.80369269881097"
    },
    {
      "id": "pt.ine.add.PTCONT.2825043",
      "street": "R DR COUTINHO PAIS",
      "house": "",
      "postcode": "2725-688",
      "city": "MEM MARTINS",
      "lon": "-9.352217817667654",
      "lat": "38.80369269881097"
    },
    {
      "id": "pt.ine.add.PTCONT.2825044",
      "street": "R DR COUTINHO PAIS",
      "house": "",
      "postcode": "2725-688",
      "city": "MEM MARTINS",
      "lon": "-9.352217817667654",
      "lat": "38.80369269881097"
    },
    {
      "id": "pt.ine.add.PTCONT.2825045",
      "street": "R DR COUTINHO PAIS",
      "house": "",
      "postcode": "2725-688",
      "city": "MEM MARTINS",
      "lon": "-9.352217817667654",
      "lat": "38.80369269881097"
    },
    {
      "id": "pt.ine.add.PTCONT.2825064",
      "street": "R DR COUTINHO PAIS",
      "house": "",
      "postcode": "2725-688",
      "city": "MEM MARTINS",
      "lon": "-9.352217817667654",
      "lat": "38.80369269881097"
    },
    {
      "id": "pt.ine.add.PTCONT.2825065",
      "street": "R DR COUTINHO PAIS",
      "house": "",
      "postcode": "2725-688",
      "city": "MEM MARTINS",
      "lon": "-9.352217817667654",
      "lat": "38.80369269881097"
    },
    {
      "id": "pt.ine.add.PTCONT.2825066",
      "street": "R DR COUTINHO PAIS",
      "house": "",
      "postcode": "2725-688",
      "city": "MEM MARTINS",
      "lon": "-9.352217817667654",
      "lat": "38.80369269881097"
    },
    {
      "id": "pt.ine.add.PTCONT.2825067",
      "street": "R DR COUTINHO PAIS",
      "house": "",
      "postcode": "2725-688",
      "city": "MEM MARTINS",
      "lon": "-9.352217817667654",
      "lat": "38.80369269881097"
    },
    {
      "id": "pt.ine.add.PTCONT.2825068",
      "street": "R DR COUTINHO PAIS",
      "house": "",
      "postcode": "2725-688",
      "city": "MEM MARTINS",
      "lon": "-9.352217817667654",
      "lat": "38.80369269881097"
    },
    {
      "id": "pt.ine.add.PTCONT.2825069",
      "street": "R DR COUTINHO PAIS",
      "house": "",
      "postcode": "2725-688",
      "city": "MEM MARTINS",
      "lon": "-9.352217817667654",
      "lat": "38.80369269881097"
    },
    {
      "id": "pt.ine.add.PTCONT.2825070",
      "street": "R DR COUTINHO PAIS",
      "house": "",
      "postcode": "2725-688",
      "city": "MEM MARTINS",
      "lon": "-9.352217817667654",
      "lat": "38.80369269881097"
    },
    {
      "id": "pt.ine.add.PTCONT.2825071",
      "street": "R DR COUTINHO PAIS",
      "house": "",
      "postcode": "2725-688",
      "city": "MEM MARTINS",
      "lon": "-9.352217817667654",
      "lat": "38.80369269881097"
    },
    {
      "id": "pt.ine.add.PTCONT.2825123",
      "street": "R DR COUTINHO PAIS",
      "house": "",
      "postcode": "2725-688",
      "city": "MEM MARTINS",
      "lon": "-9.352217817667654",
      "lat": "38.80369269881097"
    },
    {
      "id": "pt.ine.add.PTCONT.2825124",
      "street": "R DR COUTINHO PAIS",
      "house": "",
      "postcode": "2725-688",
      "city": "MEM MARTINS",
      "lon": "-9.352217817667654",
      "lat": "38.80369269881097"
    },
    {
      "id": "pt.ine.add.PTCONT.2825125",
      "street": "R DR COUTINHO PAIS",
      "house": "",
      "postcode": "2725-688",
      "city": "MEM MARTINS",
      "lon": "-9.352217817667654",
      "lat": "38.80369269881097"
    },
    {
      "id": "pt.ine.add.PTCONT.2825126",
      "street": "R DR COUTINHO PAIS",
      "house": "",
      "postcode": "2725-688",
      "city": "MEM MARTINS",
      "lon": "-9.352217817667654",
      "lat": "38.80369269881097"
    },
    {
      "id": "pt.ine.add.PTCONT.2825127",
      "street": "R DR COUTINHO PAIS",
      "house": "",
      "postcode": "2725-688",
      "city": "MEM MARTINS",
      "lon": "-9.352217817667654",
      "lat": "38.80369269881097"
    },
    {
      "id": "pt.ine.add.PTCONT.2825129",
      "street": "R DR COUTINHO PAIS",
      "house": "",
      "postcode": "2725-688",
      "city": "MEM MARTINS",
      "lon": "-9.352217817667654",
      "lat": "38.80369269881097"
    },
    {
      "id": "pt.ine.add.PTCONT.2825140",
      "street": "R DR COUTINHO PAIS",
      "house": "",
      "postcode": "2725-688",
      "city": "MEM MARTINS",
      "lon": "-9.352217817667654",
      "lat": "38.80369269881097"
    },
    {
      "id": "pt.ine.add.PTCONT.2826046",
      "street": "R DR COUTINHO PAIS",
      "house": "",
      "postcode": "2725-688",
      "city": "MEM MARTINS",
      "lon": "-9.352217817667654",
      "lat": "38.80369269881097"
    },
    {
      "id": "pt.ine.add.PTCONT.2859023",
      "street": "BR COOPALME",
      "house": "B",
      "postcode": "2725-688",
      "city": "MEM MARTINS",
      "lon": "-9.352983748808494",
      "lat": "38.80472958689722"
    },
    {
      "id": "pt.ine.add.PTCONT.2859024",
      "street": "BR COOPALME",
      "house": "B",
      "postcode": "2725-688",
      "city": "MEM MARTINS",
      "lon": "-9.352983748808494",
      "lat": "38.80472958689722"
    },
    {
      "id": "pt.ine.add.PTCONT.2859025",
      "street": "BR COOPALME",
      "house": "B",
      "postcode": "2725-688",
      "city": "MEM MARTINS",
      "lon": "-9.352983748808494",
      "lat": "38.80472958689722"
    },
    {
      "id": "pt.ine.add.PTCONT.2859026",
      "street": "BR COOPALME",
      "house": "B",
      "postcode": "2725-688",
      "city": "MEM MARTINS",
      "lon": "-9.352983748808494",
      "lat": "38.80472958689722"
    },
    {
      "id": "pt.ine.add.PTCONT.2859027",
      "street": "BR COOPALME",
      "house": "B",
      "postcode": "2725-688",
      "city": "MEM MARTINS",
      "lon": "-9.352983748808494",
      "lat": "38.80472958689722"
    },
    {
      "id": "pt.ine.add.PTCONT.2859028",
      "street": "BR COOPALME",
      "house": "B",
      "postcode": "2725-688",
      "city": "MEM MARTINS",
      "lon": "-9.352983748808494",
      "lat": "38.80472958689722"
    },
    {
      "id": "pt.ine.add.PTCONT.2859029",
      "street": "BR COOPALME",
      "house": "B",
      "postcode": "2725-688",
      "city": "MEM MARTINS",
      "lon": "-9.352983748808494",
      "lat": "38.80472958689722"
    },
    {
      "id": "pt.ine.add.PTCONT.2859190",
      "street": "BR COOPALME",
      "house": "B",
      "postcode": "2725-688",
      "city": "MEM MARTINS",
      "lon": "-9.352983748808494",
      "lat": "38.80472958689722"
    },
    {
      "id": "pt.ine.add.PTCONT.2859191",
      "street": "BR COOPALME",
      "house": "B",
      "postcode": "2725-688",
      "city": "MEM MARTINS",
      "lon": "-9.352983748808494",
      "lat": "38.80472958689722"
    },
    {
      "id": "pt.ine.add.PTCONT.2859192",
      "street": "BR COOPALME",
      "house": "B",
      "postcode": "2725-688",
      "city": "MEM MARTINS",
      "lon": "-9.352983748808494",
      "lat": "38.80472958689722"
    },
    {
      "id": "pt.ine.add.PTCONT.2859193",
      "street": "BR COOPALME",
      "house": "B",
      "postcode": "2725-688",
      "city": "MEM MARTINS",
      "lon": "-9.352983748808494",
      "lat": "38.80472958689722"
    },
    {
      "id": "pt.ine.add.PTCONT.2859194",
      "street": "BR COOPALME",
      "house": "B",
      "postcode": "2725-688",
      "city": "MEM MARTINS",
      "lon": "-9.352983748808494",
      "lat": "38.80472958689722"
    },
    {
      "id": "pt.ine.add.PTCONT.2859195",
      "street": "BR COOPALME",
      "house": "B",
      "postcode": "2725-688",
      "city": "MEM MARTINS",
      "lon": "-9.352983748808494",
      "lat": "38.80472958689722"
    },
    {
      "id": "pt.ine.add.PTCONT.2859196",
      "street": "BR COOPALME",
      "house": "B",
      "postcode": "2725-688",
      "city": "MEM MARTINS",
      "lon": "-9.352983748808494",
      "lat": "38.80472958689722"
    },
    {
      "id": "pt.ine.add.PTCONT.2859197",
      "street": "BR COOPALME",
      "house": "B",
      "postcode": "2725-688",
      "city": "MEM MARTINS",
      "lon": "-9.352983748808494",
      "lat": "38.80472958689722"
    },
    {
      "id": "pt.ine.add.PTCONT.2859923",
      "street": "BR COOPALME",
      "house": "B",
      "postcode": "2725-688",
      "city": "MEM MARTINS",
      "lon": "-9.352983748808494",
      "lat": "38.80472958689722"
    },
    {
      "id": "pt.ine.add.PTCONT.2994190",
      "street": "BR COOPALME",
      "house": "375",
      "postcode": "2725-688",
      "city": "MEM MARTINS",
      "lon": "-9.353378135878673",
      "lat": "38.8042300495384"
    },
    {
      "id": "pt.ine.add.PTCONT.3062453",
      "street": "BR COOPALME",
      "house": "F",
      "postcode": "2725-688",
      "city": "MEM MARTINS",
      "lon": "-9.352494510173178",
      "lat": "38.80439240503775"
    },
    {
      "id": "pt.ine.add.PTCONT.3062454",
      "street": "BR COOPALME",
      "house": "F",
      "postcode": "2725-688",
      "city": "MEM MARTINS",
      "lon": "-9.352494510173178",
      "lat": "38.80439240503775"
    },
    {
      "id": "pt.ine.add.PTCONT.3062455",
      "street": "BR COOPALME",
      "house": "F",
      "postcode": "2725-688",
      "city": "MEM MARTINS",
      "lon": "-9.352494510173178",
      "lat": "38.80439240503775"
    },
    {
      "id": "pt.ine.add.PTCONT.3062456",
      "street": "BR COOPALME",
      "house": "F",
      "postcode": "2725-688",
      "city": "MEM MARTINS",
      "lon": "-9.352494510173178",
      "lat": "38.80439240503775"
    },
    {
      "id": "pt.ine.add.PTCONT.3062457",
      "street": "BR COOPALME",
      "house": "F",
      "postcode": "2725-688",
      "city": "MEM MARTINS",
      "lon": "-9.352494510173178",
      "lat": "38.80439240503775"
    },
    {
      "id": "pt.ine.add.PTCONT.3062458",
      "street": "BR COOPALME",
      "house": "F",
      "postcode": "2725-688",
      "city": "MEM MARTINS",
      "lon": "-9.352494510173178",
      "lat": "38.80439240503775"
    },
    {
      "id": "pt.ine.add.PTCONT.3062459",
      "street": "BR COOPALME",
      "house": "F",
      "postcode": "2725-688",
      "city": "MEM MARTINS",
      "lon": "-9.352494510173178",
      "lat": "38.80439240503775"
    },
    {
      "id": "pt.ine.add.PTCONT.3062460",
      "street": "BR COOPALME",
      "house": "F",
      "postcode": "2725-688",
      "city": "MEM MARTINS",
      "lon": "-9.352494510173178",
      "lat": "38.80439240503775"
    },
    {
      "id": "pt.ine.add.PTCONT.3062461",
      "street": "BR COOPALME",
      "house": "F",
      "postcode": "2725-688",
      "city": "MEM MARTINS",
      "lon": "-9.352494510173178",
      "lat": "38.80439240503775"
    },
    {
      "id": "pt.ine.add.PTCONT.3062462",
      "street": "BR COOPALME",
      "house": "F",
      "postcode": "2725-688",
      "city": "MEM MARTINS",
      "lon": "-9.352494510173178",
      "lat": "38.80439240503775"
    },
    {
      "id": "pt.ine.add.PTCONT.3062578",
      "street": "BR COOPALME",
      "house": "F",
      "postcode": "2725-688",
      "city": "MEM MARTINS",
      "lon": "-9.352494510173178",
      "lat": "38.80439240503775"
    },
    {
      "id": "pt.ine.add.PTCONT.3062591",
      "street": "BR COOPALME",
      "house": "F",
      "postcode": "2725-688",
      "city": "MEM MARTINS",
      "lon": "-9.352494510173178",
      "lat": "38.80439240503775"
    },
    {
      "id": "pt.ine.add.PTCONT.3068715",
      "street": "R FRANCISCO SOUSA BRANDÃO",
      "house": "16",
      "postcode": "2725-654",
      "city": "MEM MARTINS",
      "lon": "-9.353127526334987",
      "lat": "38.80371022532593"
    },
    {
      "id": "pt.ine.add.PTCONT.3077988",
      "street": "R FRANCISCO SOUSA BRANDÃO",
      "house": "26 A",
      "postcode": "2725-654",
      "city": "MEM MARTINS",
      "lon": "-9.353499363186874",
      "lat": "38.80391351682651"
    },
    {
      "id": "pt.ine.add.PTCONT.3180016",
      "street": "R FRANCISCO SOUSA BRANDÃO",
      "house": "28",
      "postcode": "2725-654",
      "city": "MEM MARTINS",
      "lon": "-9.353557986276279",
      "lat": "38.80397595772561"
    },
    {
      "id": "pt.ine.add.PTCONT.3197283",
      "street": "BR COOPALME",
      "house": "373",
      "postcode": "2725-688",
      "city": "MEM MARTINS",
      "lon": "-9.353421715834667",
      "lat": "38.80408547254168"
    },
    {
      "id": "pt.ine.add.PTCONT.3239343",
      "street": "BR COOPALME BANDA 3",
      "house": "",
      "postcode": "2725-688",
      "city": "MEM MARTINS",
      "lon": "-9.35282844155268",
      "lat": "38.80439792679951"
    },
    {
      "id": "pt.ine.add.PTCONT.3239344",
      "street": "BR COOPALME BANDA 3",
      "house": "",
      "postcode": "2725-688",
      "city": "MEM MARTINS",
      "lon": "-9.35282844155268",
      "lat": "38.80439792679951"
    },
    {
      "id": "pt.ine.add.PTCONT.3239345",
      "street": "BR COOPALME BANDA 3",
      "house": "",
      "postcode": "2725-688",
      "city": "MEM MARTINS",
      "lon": "-9.35282844155268",
      "lat": "38.80439792679951"
    },
    {
      "id": "pt.ine.add.PTCONT.3239346",
      "street": "BR COOPALME BANDA 3",
      "house": "",
      "postcode": "2725-688",
      "city": "MEM MARTINS",
      "lon": "-9.35282844155268",
      "lat": "38.80439792679951"
    },
    {
      "id": "pt.ine.add.PTCONT.3239347",
      "street": "BR COOPALME BANDA 3",
      "house": "",
      "postcode": "2725-688",
      "city": "MEM MARTINS",
      "lon": "-9.35282844155268",
      "lat": "38.80439792679951"
    },
    {
      "id": "pt.ine.add.PTCONT.3239348",
      "street": "BR COOPALME BANDA 3",
      "house": "",
      "postcode": "2725-688",
      "city": "MEM MARTINS",
      "lon": "-9.35282844155268",
      "lat": "38.80439792679951"
    },
    {
      "id": "pt.ine.add.PTCONT.3239349",
      "street": "BR COOPALME BANDA 3",
      "house": "",
      "postcode": "2725-688",
      "city": "MEM MARTINS",
      "lon": "-9.35282844155268",
      "lat": "38.80439792679951"
    },
    {
      "id": "pt.ine.add.PTCONT.3239350",
      "street": "BR COOPALME BANDA 3",
      "house": "",
      "postcode": "2725-688",
      "city": "MEM MARTINS",
      "lon": "-9.35282844155268",
      "lat": "38.80439792679951"
    },
    {
      "id": "pt.ine.add.PTCONT.3239351",
      "street": "BR COOPALME BANDA 3",
      "house": "",
      "postcode": "2725-688",
      "city": "MEM MARTINS",
      "lon": "-9.35282844155268",
      "lat": "38.80439792679951"
    },
    {
      "id": "pt.ine.add.PTCONT.3239352",
      "street": "BR COOPALME BANDA 3",
      "house": "",
      "postcode": "2725-688",
      "city": "MEM MARTINS",
      "lon": "-9.35282844155268",
      "lat": "38.80439792679951"
    },
    {
      "id": "pt.ine.add.PTCONT.3240817",
      "street": "BR COOPALME BANDA 3",
      "house": "",
      "postcode": "2725-688",
      "city": "MEM MARTINS",
      "lon": "-9.35282844155268",
      "lat": "38.80439792679951"
    },
    {
      "id": "pt.ine.add.PTCONT.3281181",
      "street": "BR COOPALME BANDA 2",
      "house": "I",
      "postcode": "2725-688",
      "city": "MEM MARTINS",
      "lon": "-9.351865627353742",
      "lat": "38.8039666017953"
    },
    {
      "id": "pt.ine.add.PTCONT.3281182",
      "street": "BR COOPALME BANDA 2",
      "house": "I",
      "postcode": "2725-688",
      "city": "MEM MARTINS",
      "lon": "-9.351865627353742",
      "lat": "38.8039666017953"
    },
    {
      "id": "pt.ine.add.PTCONT.3281183",
      "street": "BR COOPALME BANDA 2",
      "house": "I",
      "postcode": "2725-688",
      "city": "MEM MARTINS",
      "lon": "-9.351865627353742",
      "lat": "38.8039666017953"
    },
    {
      "id": "pt.ine.add.PTCONT.3281184",
      "street": "BR COOPALME BANDA 2",
      "house": "I",
      "postcode": "2725-688",
      "city": "MEM MARTINS",
      "lon": "-9.351865627353742",
      "lat": "38.8039666017953"
    },
    {
      "id": "pt.ine.add.PTCONT.3281185",
      "street": "BR COOPALME BANDA 2",
      "house": "I",
      "postcode": "2725-688",
      "city": "MEM MARTINS",
      "lon": "-9.351865627353742",
      "lat": "38.8039666017953"
    },
    {
      "id": "pt.ine.add.PTCONT.3281186",
      "street": "BR COOPALME BANDA 2",
      "house": "I",
      "postcode": "2725-688",
      "city": "MEM MARTINS",
      "lon": "-9.351865627353742",
      "lat": "38.8039666017953"
    },
    {
      "id": "pt.ine.add.PTCONT.3281187",
      "street": "BR COOPALME BANDA 2",
      "house": "I",
      "postcode": "2725-688",
      "city": "MEM MARTINS",
      "lon": "-9.351865627353742",
      "lat": "38.8039666017953"
    },
    {
      "id": "pt.ine.add.PTCONT.3281188",
      "street": "BR COOPALME BANDA 2",
      "house": "I",
      "postcode": "2725-688",
      "city": "MEM MARTINS",
      "lon": "-9.351865627353742",
      "lat": "38.8039666017953"
    },
    {
      "id": "pt.ine.add.PTCONT.3281189",
      "street": "BR COOPALME BANDA 2",
      "house": "I",
      "postcode": "2725-688",
      "city": "MEM MARTINS",
      "lon": "-9.351865627353742",
      "lat": "38.8039666017953"
    },
    {
      "id": "pt.ine.add.PTCONT.3281190",
      "street": "R DR COUTINHO PAIS",
      "house": "",
      "postcode": "2725-688",
      "city": "MEM MARTINS",
      "lon": "-9.351865627353742",
      "lat": "38.8039666017953"
    },
    {
      "id": "pt.ine.add.PTCONT.3281200",
      "street": "BR COOPALME",
      "house": "381",
      "postcode": "2725-688",
      "city": "MEM MARTINS",
      "lon": "-9.35342786148462",
      "lat": "38.804445712837364"
    },
    {
      "id": "pt.ine.add.PTCONT.3283902",
      "street": "BR COOPALME BANDA 2",
      "house": "I",
      "postcode": "2725-688",
      "city": "MEM MARTINS",
      "lon": "-9.351865627353742",
      "lat": "38.8039666017953"
    },
    {
      "id": "pt.ine.add.PTCONT.3284184",
      "street": "BR COOPALME BANDA 2",
      "house": "I",
      "postcode": "2725-688",
      "city": "MEM MARTINS",
      "lon": "-9.351865627353742",
      "lat": "38.8039666017953"
    },
    {
      "id": "pt.ine.add.PTCONT.3290340",
      "street": "AV PROF DR HENRIQUE DE BARROS",
      "house": "170",
      "postcode": "2725-651",
      "city": "MEM MARTINS",
      "lon": "-9.353611861175109",
      "lat": "38.80443478313215"
    },
    {
      "id": "pt.ine.add.PTCONT.3346128",
      "street": "BR COOPALME",
      "house": "379",
      "postcode": "2725-688",
      "city": "MEM MARTINS",
      "lon": "-9.35341496913148",
      "lat": "38.804364778994064"
    },
    {
      "id": "pt.ine.add.PTCONT.3354983",
      "street": "URB COOPALME",
      "house": "363",
      "postcode": "2725-701",
      "city": "MEM MARTINS",
      "lon": "-9.352885827485942",
      "lat": "38.80371274907896"
    },
    {
      "id": "pt.ine.add.PTCONT.3354984",
      "street": "URB COOPALME",
      "house": "360",
      "postcode": "2725-701",
      "city": "MEM MARTINS",
      "lon": "-9.352711649949294",
      "lat": "38.80362449134664"
    },
    {
      "id": "pt.ine.add.PTCONT.3373501",
      "street": "BR COOPALME",
      "house": "371",
      "postcode": "2725-688",
      "city": "MEM MARTINS",
      "lon": "-9.35331644019431",
      "lat": "38.8039874883917"
    },
    {
      "id": "pt.ine.add.PTCONT.3373502",
      "street": "R FRANCISCO SOUSA BRANDÃO",
      "house": "8",
      "postcode": "2725-654",
      "city": "MEM MARTINS",
      "lon": "-9.352928793854712",
      "lat": "38.80353214820169"
    },
    {
      "id": "pt.ine.add.PTCONT.3430802",
      "street": "R FRANCISCO SOUSA BRANDÃO",
      "house": "6",
      "postcode": "2725-654",
      "city": "MEM MARTINS",
      "lon": "-9.352835796950624",
      "lat": "38.80347907346681"
    },
    {
      "id": "pt.ine.add.PTCONT.3439471",
      "street": "R DR COUTINHO PAIS",
      "house": "",
      "postcode": "2725-688",
      "city": "MEM MARTINS",
      "lon": "-9.352217817667654",
      "lat": "38.80369269881097"
    },
    {
      "id": "pt.ine.add.PTCONT.3445541",
      "street": "BR COOPALME BANDA 3",
      "house": "",
      "postcode": "2725-688",
      "city": "MEM MARTINS",
      "lon": "-9.35282844155268",
      "lat": "38.80439792679951"
    },
    {
      "id": "pt.ine.add.PTCONT.3456718",
      "street": "BR COOPALME BANDA 2",
      "house": "A",
      "postcode": "2725-688",
      "city": "MEM MARTINS",
      "lon": "-9.35208676366756",
      "lat": "38.804108416513934"
    }
  ]
}