{
  "data": {
    "distrito": "Braga",
    "concelho": "Vila Nova de Famalicão",
    "freguesia": "União das freguesias de Avidos e Lagoa",
    "OBJECTID": 973,
    "BGRI2021": "03125200110",
    "DT21": "03",
    "DTMN21": "0312",
    "DTMNFR21": "031252",
    "DTMNFRSEC21": "031252001",
    "SECNUM21": "001",
    "SSNUM21": "10",
    "SECSSNUM21": "00110",
    "OBJECTID_1": 31336,
    "DT": "03",
    "CC": "12",
    "fr": "52",
    "SEC": "001",
    "SS": "10"
  },
  "addresses": [
    {
      "id": "pt.ine.add.PTCONT.459461",
      "street": "R CARVALHO",
      "house": "43",
      "postcode": "4770-816",
      "city": "AVIDOS",
      "lon": "-8.479155389061628",
      "lat": "41.37751776103127"
    },
    {
      "id": "pt.ine.add.PTCONT.466504",
      "street": "TV PASSAL",
      "house": "",
      "postcode": "4770-796",
      "city": "AVIDOS",
      "lon": "-8.48354758563169",
      "lat": "41.37845889558658"
    },
    {
      "id": "pt.ine.add.PTCONT.466505",
      "street": "TV PASSAL",
      "house": "",
      "postcode": "4770-796",
      "city": "AVIDOS",
      "lon": "-8.48354758563169",
      "lat": "41.37845889558658"
    },
    {
      "id": "pt.ine.add.PTCONT.466506",
      "street": "TV PASSAL",
      "house": "",
      "postcode": "4770-796",
      "city": "AVIDOS",
      "lon": "-8.48354758563169",
      "lat": "41.37845889558658"
    },
    {
      "id": "pt.ine.add.PTCONT.466507",
      "street": "TV PASSAL",
      "house": "",
      "postcode": "4770-796",
      "city": "AVIDOS",
      "lon": "-8.48354758563169",
      "lat": "41.37845889558658"
    },
    {
      "id": "pt.ine.add.PTCONT.466508",
      "street": "TV PASSAL",
      "house": "",
      "postcode": "4770-796",
      "city": "AVIDOS",
      "lon": "-8.48354758563169",
      "lat": "41.37845889558658"
    },
    {
      "id": "pt.ine.add.PTCONT.466523",
      "street": "EN 204-5",
      "house": "",
      "postcode": "4770-788",
      "city": "AVIDOS",
      "lon": "-8.48108447123435",
      "lat": "41.38060032271249"
    },
    {
      "id": "pt.ine.add.PTCONT.466524",
      "street": "EN 204-5",
      "house": "",
      "postcode": "4770-788",
      "city": "AVIDOS",
      "lon": "-8.48108447123435",
      "lat": "41.38060032271249"
    },
    {
      "id": "pt.ine.add.PTCONT.466525",
      "street": "EN 204-5",
      "house": "",
      "postcode": "4770-788",
      "city": "AVIDOS",
      "lon": "-8.48108447123435",
      "lat": "41.38060032271249"
    },
    {
      "id": "pt.ine.add.PTCONT.466526",
      "street": "EN 204",
      "house": "867",
      "postcode": "4770-788",
      "city": "AVIDOS",
      "lon": "-8.48108447123435",
      "lat": "41.38060032271249"
    },
    {
      "id": "pt.ine.add.PTCONT.466527",
      "street": "EN 204-5",
      "house": "",
      "postcode": "4770-788",
      "city": "AVIDOS",
      "lon": "-8.48108447123435",
      "lat": "41.38060032271249"
    },
    {
      "id": "pt.ine.add.PTCONT.467042",
      "street": "EN 204-5",
      "house": "",
      "postcode": "4770-788",
      "city": "AVIDOS",
      "lon": "-8.48108447123435",
      "lat": "41.38060032271249"
    },
    {
      "id": "pt.ine.add.PTCONT.467108",
      "street": "TV PASSAL",
      "house": "",
      "postcode": "4770-796",
      "city": "AVIDOS",
      "lon": "-8.48354758563169",
      "lat": "41.37845889558658"
    },
    {
      "id": "pt.ine.add.PTCONT.487603",
      "street": "R MANUEL CORREIA MARQUES",
      "house": "101",
      "postcode": "4770-796",
      "city": "AVIDOS",
      "lon": "-8.483530105398074",
      "lat": "41.37965648343045"
    },
    {
      "id": "pt.ine.add.PTCONT.495867",
      "street": "EN 204-5",
      "house": "859A",
      "postcode": "4770-788",
      "city": "AVIDOS",
      "lon": "-8.480869435121262",
      "lat": "41.380627984818105"
    },
    {
      "id": "pt.ine.add.PTCONT.495868",
      "street": "EN 204-5",
      "house": "859A",
      "postcode": "4770-788",
      "city": "AVIDOS",
      "lon": "-8.480869435121262",
      "lat": "41.380627984818105"
    },
    {
      "id": "pt.ine.add.PTCONT.495869",
      "street": "EN 204",
      "house": "859",
      "postcode": "4770-788",
      "city": "AVIDOS",
      "lon": "-8.480869435121262",
      "lat": "41.380627984818105"
    },
    {
      "id": "pt.ine.add.PTCONT.495870",
      "street": "EN 204-5",
      "house": "859A",
      "postcode": "4770-788",
      "city": "AVIDOS",
      "lon": "-8.480869435121262",
      "lat": "41.380627984818105"
    },
    {
      "id": "pt.ine.add.PTCONT.495969",
      "street": "EN 204-5",
      "house": "859A",
      "postcode": "4770-788",
      "city": "AVIDOS",
      "lon": "-8.480869435121262",
      "lat": "41.380627984818105"
    },
    {
      "id": "pt.ine.add.PTCONT.495970",
      "street": "EN 204-5",
      "house": "859A",
      "postcode": "4770-788",
      "city": "AVIDOS",
      "lon": "-8.480869435121262",
      "lat": "41.380627984818105"
    },
    {
      "id": "pt.ine.add.PTCONT.499266",
      "street": "R PADRE JOSE A MENDES CARVALHO",
      "house": "162",
      "postcode": "4770-794",
      "city": "AVIDOS",
      "lon": "-8.486226288709315",
      "lat": "41.3764248020235"
    },
    {
      "id": "pt.ine.add.PTCONT.516866",
      "street": "R PADRE JOSE A MENDES CARVALHO",
      "house": "138",
      "postcode": "4770-794",
      "city": "AVIDOS",
      "lon": "-8.486570556739046",
      "lat": "41.375982547939444"
    },
    {
      "id": "pt.ine.add.PTCONT.516867",
      "street": "R PADRE JOSE A MENDES CARVALHO",
      "house": "118",
      "postcode": "4770-794",
      "city": "AVIDOS",
      "lon": "-8.486570556739046",
      "lat": "41.375982547939444"
    },
    {
      "id": "pt.ine.add.PTCONT.525168",
      "street": "R MONTE",
      "house": "17",
      "postcode": "4770-798",
      "city": "AVIDOS",
      "lon": "-8.486472150360841",
      "lat": "41.3754696207609"
    },
    {
      "id": "pt.ine.add.PTCONT.538262",
      "street": "R PASSAL",
      "house": "15",
      "postcode": "4770-796",
      "city": "AVIDOS",
      "lon": "-8.484228191615196",
      "lat": "41.37831275659062"
    },
    {
      "id": "pt.ine.add.PTCONT.541032",
      "street": "R PASSAL",
      "house": "101",
      "postcode": "4770-796",
      "city": "AVIDOS",
      "lon": "-8.484750434293954",
      "lat": "41.37761785229638"
    },
    {
      "id": "pt.ine.add.PTCONT.543988",
      "street": "R PASSAL",
      "house": "81",
      "postcode": "4770-796",
      "city": "AVIDOS",
      "lon": "-8.484595760792168",
      "lat": "41.3777533851605"
    },
    {
      "id": "pt.ine.add.PTCONT.554844",
      "street": "EN 204-5",
      "house": "939C",
      "postcode": "4770-788",
      "city": "AVIDOS",
      "lon": "-8.481812778506981",
      "lat": "41.380427041724246"
    },
    {
      "id": "pt.ine.add.PTCONT.554845",
      "street": "EN 204-5",
      "house": "939C",
      "postcode": "4770-788",
      "city": "AVIDOS",
      "lon": "-8.481812778506981",
      "lat": "41.380427041724246"
    },
    {
      "id": "pt.ine.add.PTCONT.554846",
      "street": "EN 204-5",
      "house": "939C",
      "postcode": "4770-788",
      "city": "AVIDOS",
      "lon": "-8.481812778506981",
      "lat": "41.380427041724246"
    },
    {
      "id": "pt.ine.add.PTCONT.564633",
      "street": "R NOVA DO ISQUEIRO",
      "house": "408",
      "postcode": "4770-823",
      "city": "AVIDOS",
      "lon": "-8.479404223708208",
      "lat": "41.37710282743279"
    },
    {
      "id": "pt.ine.add.PTCONT.569550",
      "street": "TV MONTE",
      "house": "43",
      "postcode": "4770-797",
      "city": "AVIDOS",
      "lon": "-8.4864969345586",
      "lat": "41.37563161709958"
    },
    {
      "id": "pt.ine.add.PTCONT.579087",
      "street": "R PASSAL",
      "house": "95",
      "postcode": "4770-796",
      "city": "AVIDOS",
      "lon": "-8.484690955751052",
      "lat": "41.37767205816272"
    },
    {
      "id": "pt.ine.add.PTCONT.599000",
      "street": "TV PASSAL",
      "house": "",
      "postcode": "4770-796",
      "city": "AVIDOS",
      "lon": "-8.483726654591356",
      "lat": "41.378413330024514"
    },
    {
      "id": "pt.ine.add.PTCONT.599001",
      "street": "TV PASSAL",
      "house": "",
      "postcode": "4770-796",
      "city": "AVIDOS",
      "lon": "-8.483726654591356",
      "lat": "41.378413330024514"
    },
    {
      "id": "pt.ine.add.PTCONT.599002",
      "street": "TV PASSAL",
      "house": "",
      "postcode": "4770-796",
      "city": "AVIDOS",
      "lon": "-8.483726654591356",
      "lat": "41.378413330024514"
    },
    {
      "id": "pt.ine.add.PTCONT.599003",
      "street": "TV PASSAL",
      "house": "",
      "postcode": "4770-796",
      "city": "AVIDOS",
      "lon": "-8.483726654591356",
      "lat": "41.378413330024514"
    },
    {
      "id": "pt.ine.add.PTCONT.599004",
      "street": "TV PASSAL",
      "house": "",
      "postcode": "4770-796",
      "city": "AVIDOS",
      "lon": "-8.483726654591356",
      "lat": "41.378413330024514"
    },
    {
      "id": "pt.ine.add.PTCONT.599005",
      "street": "TV PASSAL",
      "house": "",
      "postcode": "4770-796",
      "city": "AVIDOS",
      "lon": "-8.483726654591356",
      "lat": "41.378413330024514"
    },
    {
      "id": "pt.ine.add.PTCONT.605439",
      "street": "R MANUEL CORREIA MARQUES",
      "house": "121",
      "postcode": "4770-796",
      "city": "AVIDOS",
      "lon": "-8.48362482100767",
      "lat": "41.3794851186086"
    },
    {
      "id": "pt.ine.add.PTCONT.610435",
      "street": "EN 204-5",
      "house": "919/B",
      "postcode": "4770-788",
      "city": "AVIDOS",
      "lon": "-8.481669806319553",
      "lat": "41.38051751505433"
    },
    {
      "id": "pt.ine.add.PTCONT.610572",
      "street": "EN 204",
      "house": "919",
      "postcode": "4770-788",
      "city": "AVIDOS",
      "lon": "-8.481669806319553",
      "lat": "41.38051751505433"
    },
    {
      "id": "pt.ine.add.PTCONT.610573",
      "street": "EN 204-5",
      "house": "919/B",
      "postcode": "4770-788",
      "city": "AVIDOS",
      "lon": "-8.481669806319553",
      "lat": "41.38051751505433"
    },
    {
      "id": "pt.ine.add.PTCONT.610574",
      "street": "EN 204-5",
      "house": "919/B",
      "postcode": "4770-788",
      "city": "AVIDOS",
      "lon": "-8.481669806319553",
      "lat": "41.38051751505433"
    },
    {
      "id": "pt.ine.add.PTCONT.610697",
      "street": "R MONTE",
      "house": "291",
      "postcode": "4770-798",
      "city": "AVIDOS",
      "lon": "-8.483760639873564",
      "lat": "41.375838075996924"
    },
    {
      "id": "pt.ine.add.PTCONT.611996",
      "street": "EN 204-5",
      "house": "919/B",
      "postcode": "4770-788",
      "city": "AVIDOS",
      "lon": "-8.481669806319553",
      "lat": "41.38051751505433"
    },
    {
      "id": "pt.ine.add.PTCONT.618052",
      "street": "R PASSAL",
      "house": "31",
      "postcode": "4770-796",
      "city": "AVIDOS",
      "lon": "-8.484275232795813",
      "lat": "41.37816854871481"
    },
    {
      "id": "pt.ine.add.PTCONT.619355",
      "street": "R PADRE JOSE A MENDES CARVALHO",
      "house": "64",
      "postcode": "4770-794",
      "city": "AVIDOS",
      "lon": "-8.48680748240106",
      "lat": "41.37558564289638"
    },
    {
      "id": "pt.ine.add.PTCONT.655230",
      "street": "TV PASSAL",
      "house": "",
      "postcode": "4770-796",
      "city": "AVIDOS",
      "lon": "-8.48389381764615",
      "lat": "41.378376804497876"
    },
    {
      "id": "pt.ine.add.PTCONT.655231",
      "street": "TV PASSAL",
      "house": "",
      "postcode": "4770-796",
      "city": "AVIDOS",
      "lon": "-8.48389381764615",
      "lat": "41.378376804497876"
    },
    {
      "id": "pt.ine.add.PTCONT.655232",
      "street": "TV PASSAL",
      "house": "",
      "postcode": "4770-796",
      "city": "AVIDOS",
      "lon": "-8.48389381764615",
      "lat": "41.378376804497876"
    },
    {
      "id": "pt.ine.add.PTCONT.655233",
      "street": "TV PASSAL",
      "house": "",
      "postcode": "4770-796",
      "city": "AVIDOS",
      "lon": "-8.48389381764615",
      "lat": "41.378376804497876"
    },
    {
      "id": "pt.ine.add.PTCONT.655234",
      "street": "TV PASSAL",
      "house": "",
      "postcode": "4770-796",
      "city": "AVIDOS",
      "lon": "-8.48389381764615",
      "lat": "41.378376804497876"
    },
    {
      "id": "pt.ine.add.PTCONT.655240",
      "street": "R PASSAL",
      "house": "67",
      "postcode": "4770-796",
      "city": "AVIDOS",
      "lon": "-8.484476803104345",
      "lat": "41.37786179670181"
    },
    {
      "id": "pt.ine.add.PTCONT.667153",
      "street": "R PASSAL",
      "house": "131",
      "postcode": "4770-796",
      "city": "AVIDOS",
      "lon": "-8.485036405570893",
      "lat": "41.37744590166989"
    },
    {
      "id": "pt.ine.add.PTCONT.670142",
      "street": "TV PASSAL",
      "house": "",
      "postcode": "4770-796",
      "city": "AVIDOS",
      "lon": "-8.483392376226293",
      "lat": "41.378495384224316"
    },
    {
      "id": "pt.ine.add.PTCONT.670143",
      "street": "TV PASSAL",
      "house": "",
      "postcode": "4770-796",
      "city": "AVIDOS",
      "lon": "-8.483392376226293",
      "lat": "41.378495384224316"
    },
    {
      "id": "pt.ine.add.PTCONT.670144",
      "street": "TV PASSAL",
      "house": "",
      "postcode": "4770-796",
      "city": "AVIDOS",
      "lon": "-8.483392376226293",
      "lat": "41.378495384224316"
    },
    {
      "id": "pt.ine.add.PTCONT.670148",
      "street": "TV PASSAL",
      "house": "",
      "postcode": "4770-796",
      "city": "AVIDOS",
      "lon": "-8.483392376226293",
      "lat": "41.378495384224316"
    },
    {
      "id": "pt.ine.add.PTCONT.670149",
      "street": "TV PASSAL",
      "house": "",
      "postcode": "4770-796",
      "city": "AVIDOS",
      "lon": "-8.483392376226293",
      "lat": "41.378495384224316"
    },
    {
      "id": "pt.ine.add.PTCONT.671566",
      "street": "EN 204-5",
      "house": "",
      "postcode": "4770-788",
      "city": "AVIDOS",
      "lon": "-8.480188127169097",
      "lat": "41.38064804979029"
    },
    {
      "id": "pt.ine.add.PTCONT.671567",
      "street": "EN 204-5",
      "house": "",
      "postcode": "4770-788",
      "city": "AVIDOS",
      "lon": "-8.480188127169097",
      "lat": "41.38064804979029"
    },
    {
      "id": "pt.ine.add.PTCONT.671568",
      "street": "EN 204",
      "house": "802",
      "postcode": "4770-788",
      "city": "AVIDOS",
      "lon": "-8.480188127169097",
      "lat": "41.38064804979029"
    },
    {
      "id": "pt.ine.add.PTCONT.671569",
      "street": "EN 204-5",
      "house": "",
      "postcode": "4770-788",
      "city": "AVIDOS",
      "lon": "-8.480188127169097",
      "lat": "41.38064804979029"
    },
    {
      "id": "pt.ine.add.PTCONT.671570",
      "street": "EN 204-5",
      "house": "",
      "postcode": "4770-788",
      "city": "AVIDOS",
      "lon": "-8.480188127169097",
      "lat": "41.38064804979029"
    },
    {
      "id": "pt.ine.add.PTCONT.671571",
      "street": "EN 204-5",
      "house": "",
      "postcode": "4770-788",
      "city": "AVIDOS",
      "lon": "-8.480188127169097",
      "lat": "41.38064804979029"
    },
    {
      "id": "pt.ine.add.PTCONT.691287",
      "street": "R PADRE JOSE A MENDES CARVALHO",
      "house": "148",
      "postcode": "4770-794",
      "city": "AVIDOS",
      "lon": "-8.4862975723846",
      "lat": "41.37634354705203"
    },
    {
      "id": "pt.ine.add.PTCONT.702717",
      "street": "R PASSAL",
      "house": "39",
      "postcode": "4770-796",
      "city": "AVIDOS",
      "lon": "-8.484286847759689",
      "lat": "41.378105485122774"
    },
    {
      "id": "pt.ine.add.PTCONT.708596",
      "street": "R PASSAL",
      "house": "143",
      "postcode": "4770-796",
      "city": "AVIDOS",
      "lon": "-8.485203419731684",
      "lat": "41.37738236262681"
    },
    {
      "id": "pt.ine.add.PTCONT.714712",
      "street": "R PASSAL",
      "house": "107",
      "postcode": "4770-796",
      "city": "AVIDOS",
      "lon": "-8.484845919917838",
      "lat": "41.37759054841152"
    },
    {
      "id": "pt.ine.add.PTCONT.729582",
      "street": "R PASSAL",
      "house": "23",
      "postcode": "4770-796",
      "city": "AVIDOS",
      "lon": "-8.484251712231222",
      "lat": "41.37824065265547"
    },
    {
      "id": "pt.ine.add.PTCONT.731276",
      "street": "R PASSAL",
      "house": "115",
      "postcode": "4770-796",
      "city": "AVIDOS",
      "lon": "-8.484881441985795",
      "lat": "41.37752741167734"
    },
    {
      "id": "pt.ine.add.PTCONT.735534",
      "street": "EN 204-5",
      "house": "",
      "postcode": "4770-788",
      "city": "AVIDOS",
      "lon": "-8.480475273634477",
      "lat": "41.380692203445534"
    },
    {
      "id": "pt.ine.add.PTCONT.735535",
      "street": "EN 204-5",
      "house": "",
      "postcode": "4770-788",
      "city": "AVIDOS",
      "lon": "-8.480475273634477",
      "lat": "41.380692203445534"
    },
    {
      "id": "pt.ine.add.PTCONT.735536",
      "street": "EN 204-5",
      "house": "",
      "postcode": "4770-788",
      "city": "AVIDOS",
      "lon": "-8.480475273634477",
      "lat": "41.380692203445534"
    },
    {
      "id": "pt.ine.add.PTCONT.736111",
      "street": "EN 204-5",
      "house": "",
      "postcode": "4770-788",
      "city": "AVIDOS",
      "lon": "-8.480475273634477",
      "lat": "41.380692203445534"
    },
    {
      "id": "pt.ine.add.PTCONT.746467",
      "street": "R PASSAL",
      "house": "123",
      "postcode": "4770-796",
      "city": "AVIDOS",
      "lon": "-8.484964827973506",
      "lat": "41.377473132614334"
    },
    {
      "id": "pt.ine.add.PTCONT.750646",
      "street": "R MANUEL CORREIA MARQUES",
      "house": "79",
      "postcode": "4770-796",
      "city": "AVIDOS",
      "lon": "-8.483363421948228",
      "lat": "41.37978304714993"
    },
    {
      "id": "pt.ine.add.PTCONT.750647",
      "street": "R MANUEL CORREIA MARQUES",
      "house": "79",
      "postcode": "4770-796",
      "city": "AVIDOS",
      "lon": "-8.483363421948228",
      "lat": "41.37978304714993"
    },
    {
      "id": "pt.ine.add.PTCONT.750651",
      "street": "R PASSAL",
      "house": "45",
      "postcode": "4770-796",
      "city": "AVIDOS",
      "lon": "-8.484346278590836",
      "lat": "41.37804227559328"
    },
    {
      "id": "pt.ine.add.PTCONT.760788",
      "street": "EN 204-5",
      "house": "901A",
      "postcode": "4770-788",
      "city": "AVIDOS",
      "lon": "-8.481466677120675",
      "lat": "41.380536138191566"
    },
    {
      "id": "pt.ine.add.PTCONT.760789",
      "street": "EN 204-5",
      "house": "901A",
      "postcode": "4770-788",
      "city": "AVIDOS",
      "lon": "-8.481466677120675",
      "lat": "41.380536138191566"
    },
    {
      "id": "pt.ine.add.PTCONT.760790",
      "street": "EN 204-5",
      "house": "901A",
      "postcode": "4770-788",
      "city": "AVIDOS",
      "lon": "-8.481466677120675",
      "lat": "41.380536138191566"
    },
    {
      "id": "pt.ine.add.PTCONT.760791",
      "street": "EN 204",
      "house": "901",
      "postcode": "4770-788",
      "city": "AVIDOS",
      "lon": "-8.481466677120675",
      "lat": "41.380536138191566"
    },
    {
      "id": "pt.ine.add.PTCONT.760792",
      "street": "EN 204-5",
      "house": "901A",
      "postcode": "4770-788",
      "city": "AVIDOS",
      "lon": "-8.481466677120675",
      "lat": "41.380536138191566"
    },
    {
      "id": "pt.ine.add.PTCONT.760793",
      "street": "EN 204",
      "house": "901",
      "postcode": "4770-788",
      "city": "AVIDOS",
      "lon": "-8.481466677120675",
      "lat": "41.380536138191566"
    },
    {
      "id": "pt.ine.add.PTCONT.763056",
      "street": "R PASSAL",
      "house": "134",
      "postcode": "4770-796",
      "city": "AVIDOS",
      "lon": "-8.48513184227416",
      "lat": "41.37740959367487"
    },
    {
      "id": "pt.ine.add.PTCONT.764484",
      "street": "R PASSAL",
      "house": "53",
      "postcode": "4770-796",
      "city": "AVIDOS",
      "lon": "-8.484369798980897",
      "lat": "41.37797017163148"
    },
    {
      "id": "pt.ine.add.PTCONT.774550",
      "street": "TV MONTE",
      "house": "43",
      "postcode": "4770-797",
      "city": "AVIDOS",
      "lon": "-8.486664332707154",
      "lat": "41.37564010693964"
    },
    {
      "id": "pt.ine.add.PTCONT.794905",
      "street": "R PASSAL",
      "house": "75",
      "postcode": "4770-796",
      "city": "AVIDOS",
      "lon": "-8.484536281997592",
      "lat": "41.37780759094659"
    },
    {
      "id": "pt.ine.add.PTCONT.801533",
      "street": "EN 204-5",
      "house": "885",
      "postcode": "4770-788",
      "city": "AVIDOS",
      "lon": "-8.481215441977021",
      "lat": "41.3805008823982"
    },
    {
      "id": "pt.ine.add.PTCONT.801534",
      "street": "EN 204-5",
      "house": "885",
      "postcode": "4770-788",
      "city": "AVIDOS",
      "lon": "-8.481215441977021",
      "lat": "41.3805008823982"
    },
    {
      "id": "pt.ine.add.PTCONT.801535",
      "street": "EN 204-5",
      "house": "885",
      "postcode": "4770-788",
      "city": "AVIDOS",
      "lon": "-8.481215441977021",
      "lat": "41.3805008823982"
    },
    {
      "id": "pt.ine.add.PTCONT.830967",
      "street": "R PASSAL",
      "house": "59",
      "postcode": "4770-796",
      "city": "AVIDOS",
      "lon": "-8.484429326513824",
      "lat": "41.37792496980526"
    },
    {
      "id": "pt.ine.add.PTCONT.841151",
      "street": "TV PASSAL",
      "house": "",
      "postcode": "4770-796",
      "city": "AVIDOS",
      "lon": "-8.48389381764615",
      "lat": "41.378376804497876"
    },
    {
      "id": "pt.ine.add.PTCONT.841489",
      "street": "EN 204-5",
      "house": "919/B",
      "postcode": "4770-788",
      "city": "AVIDOS",
      "lon": "-8.481669806319553",
      "lat": "41.38051751505433"
    },
    {
      "id": "pt.ine.add.PTCONT.842056",
      "street": "TV PASSAL",
      "house": "",
      "postcode": "4770-796",
      "city": "AVIDOS",
      "lon": "-8.483392376226293",
      "lat": "41.378495384224316"
    }
  ]
}