{
  "data": {
    "distrito": "Portalegre",
    "concelho": "Portalegre",
    "freguesia": "Uni√£o das freguesias de Ribeira de Nisa e Carreiras",
    "OBJECTID": 321,
    "BGRI2021": "12141300208",
    "DT21": "12",
    "DTMN21": "1214",
    "DTMNFR21": "121413",
    "DTMNFRSEC21": "121413002",
    "SECNUM21": "002",
    "SSNUM21": "08",
    "SECSSNUM21": "00208",
    "OBJECTID_1": 124436,
    "DT": "12",
    "CC": "14",
    "fr": "13",
    "SEC": "002",
    "SS": "08"
  },
  "addresses": [
    {
      "id": "pt.ine.add.PTCONT.3537613",
      "street": "ESTR 523",
      "house": "",
      "postcode": "7300-355",
      "city": "CARREIRAS",
      "lon": "-7.437705236997876",
      "lat": "39.36246624424361"
    },
    {
      "id": "pt.ine.add.PTCONT.3538148",
      "street": "MTE CRUZ DA LEGUA",
      "house": "",
      "postcode": "7300-355",
      "city": "CARREIRAS",
      "lon": "-7.44377006943195",
      "lat": "39.35338717421237"
    },
    {
      "id": "pt.ine.add.PTCONT.3538374",
      "street": "PAINEL DO CIGANO",
      "house": "",
      "postcode": "7300-355",
      "city": "CARREIRAS",
      "lon": "-7.43811605463007",
      "lat": "39.35964948809329"
    },
    {
      "id": "pt.ine.add.PTCONT.3463211",
      "street": "",
      "house": "",
      "postcode": "7300-355",
      "city": "CARREIRAS",
      "lon": "-7.437839209599461",
      "lat": "39.36065662549934"
    },
    {
      "id": "pt.ine.add.PTCONT.3459201",
      "street": "PAINEL DA TORRE ALTA",
      "house": "8",
      "postcode": "7300-355",
      "city": "CARREIRAS",
      "lon": "-7.444884652671757",
      "lat": "39.34975491091456"
    },
    {
      "id": "pt.ine.add.PTCONT.3461660",
      "street": "EM 523",
      "house": "47",
      "postcode": "7300-357",
      "city": "CARREIRAS",
      "lon": "-7.441078418261537",
      "lat": "39.34986744681956"
    },
    {
      "id": "pt.ine.add.PTCONT.3461661",
      "street": "EM 523",
      "house": "47",
      "postcode": "7300-357",
      "city": "CARREIRAS",
      "lon": "-7.441078418261537",
      "lat": "39.34986744681956"
    },
    {
      "id": "pt.ine.add.PTCONT.3461662",
      "street": "EM 523",
      "house": "47",
      "postcode": "7300-357",
      "city": "CARREIRAS",
      "lon": "-7.441078418261537",
      "lat": "39.34986744681956"
    },
    {
      "id": "pt.ine.add.PTCONT.3462876",
      "street": "R CIGANO",
      "house": "3",
      "postcode": "7300-355",
      "city": "CARREIRAS",
      "lon": "-7.434000677615465",
      "lat": "39.36479815475365"
    },
    {
      "id": "pt.ine.add.PTCONT.3474634",
      "street": "PAINEL DO CIGANO",
      "house": "",
      "postcode": "7300-355",
      "city": "CARREIRAS",
      "lon": "-7.439944558265486",
      "lat": "39.3648214393892"
    },
    {
      "id": "pt.ine.add.PTCONT.3477029",
      "street": "PAINEL DA TORRE ALTA",
      "house": "",
      "postcode": "7300-355",
      "city": "CARREIRAS",
      "lon": "-7.443572155429552",
      "lat": "39.358177764021534"
    },
    {
      "id": "pt.ine.add.PTCONT.3492089",
      "street": "R CIGANO",
      "house": "1",
      "postcode": "7300-355",
      "city": "CARREIRAS",
      "lon": "-7.43399342186395",
      "lat": "39.364730083582614"
    },
    {
      "id": "pt.ine.add.PTCONT.3493776",
      "street": "PAINEL DO CIGANO",
      "house": "2",
      "postcode": "7300-355",
      "city": "CARREIRAS",
      "lon": "-7.437619850905794",
      "lat": "39.35937631176826"
    },
    {
      "id": "pt.ine.add.PTCONT.3500747",
      "street": "MTE VELOSO",
      "house": "",
      "postcode": "7300-355",
      "city": "CARREIRAS",
      "lon": "-7.438262504109906",
      "lat": "39.357749871791526"
    },
    {
      "id": "pt.ine.add.PTCONT.3503804",
      "street": "PAINEL DA TORRE ALTA",
      "house": "10",
      "postcode": "7300-355",
      "city": "CARREIRAS",
      "lon": "-7.448692106782519",
      "lat": "39.34951615848119"
    },
    {
      "id": "pt.ine.add.PTCONT.3510704",
      "street": "MTE VELOSO",
      "house": "",
      "postcode": "7300-355",
      "city": "CARREIRAS",
      "lon": "-7.438146041665186",
      "lat": "39.35779421170479"
    },
    {
      "id": "pt.ine.add.PTCONT.3516888",
      "street": "PAINEL DO CIGANO",
      "house": "17",
      "postcode": "7300-355",
      "city": "CARREIRAS",
      "lon": "-7.437687229545784",
      "lat": "39.35960189102399"
    },
    {
      "id": "pt.ine.add.PTCONT.3516889",
      "street": "EM 523",
      "house": "47",
      "postcode": "7300-357",
      "city": "CARREIRAS",
      "lon": "-7.441230466022452",
      "lat": "39.34974225170138"
    },
    {
      "id": "pt.ine.add.PTCONT.3517623",
      "street": "EM 523",
      "house": "47",
      "postcode": "7300-357",
      "city": "CARREIRAS",
      "lon": "-7.441010060219675",
      "lat": "39.34974094120872"
    },
    {
      "id": "pt.ine.add.PTCONT.3518234",
      "street": "PAINEL DO CIGANO",
      "house": "9",
      "postcode": "7300-355",
      "city": "CARREIRAS",
      "lon": "-7.444539023744688",
      "lat": "39.36014702941579"
    },
    {
      "id": "pt.ine.add.PTCONT.3528489",
      "street": "ESTR 523",
      "house": "",
      "postcode": "7300-355",
      "city": "CARREIRAS",
      "lon": "-7.43508924348439",
      "lat": "39.36066718462926"
    },
    {
      "id": "pt.ine.add.PTCONT.3529998",
      "street": "PAINEL DA TORRE ALTA",
      "house": "",
      "postcode": "7300-355",
      "city": "CARREIRAS",
      "lon": "-7.443587653160496",
      "lat": "39.357781544829216"
    }
  ]
}