{
  "data": {
    "distrito": "Porto",
    "concelho": "Paredes",
    "freguesia": "Vilela",
    "OBJECTID": 526,
    "BGRI2021": "13102400101",
    "DT21": "13",
    "DTMN21": "1310",
    "DTMNFR21": "131024",
    "DTMNFRSEC21": "131024001",
    "SECNUM21": "001",
    "SSNUM21": "01",
    "SECSSNUM21": "00101",
    "OBJECTID_1": 135245,
    "DT": "13",
    "CC": "10",
    "fr": "24",
    "SEC": "001",
    "SS": "01"
  },
  "addresses": [
    {
      "id": "pt.ine.add.PTCONT.3586982",
      "street": "R COUCIEIRO",
      "house": "400",
      "postcode": "4580-715",
      "city": "VILELA PRD",
      "lon": "-8.37004887487365",
      "lat": "41.24184062593982"
    },
    {
      "id": "pt.ine.add.PTCONT.3586983",
      "street": "R COUCIEIRO",
      "house": "400",
      "postcode": "4580-715",
      "city": "VILELA PRD",
      "lon": "-8.37004887487365",
      "lat": "41.24184062593982"
    },
    {
      "id": "pt.ine.add.PTCONT.3651269",
      "street": "R GUILHADE",
      "house": "258",
      "postcode": "4580-677",
      "city": "VILELA PRD",
      "lon": "-8.371564477603114",
      "lat": "41.241999573658966"
    },
    {
      "id": "pt.ine.add.PTCONT.3651273",
      "street": "R ALTO DA CASINHA",
      "house": "242",
      "postcode": "4580-671",
      "city": "VILELA PRD",
      "lon": "-8.36441712815116",
      "lat": "41.241527924063554"
    },
    {
      "id": "pt.ine.add.PTCONT.3689924",
      "street": "R AGRICULTOR",
      "house": "",
      "postcode": "4580-126",
      "city": "VILELA PRD",
      "lon": "-8.368866456048158",
      "lat": "41.24144686613665"
    },
    {
      "id": "pt.ine.add.PTCONT.3789917",
      "street": "R GUILHADE",
      "house": "",
      "postcode": "4580-677",
      "city": "VILELA PRD",
      "lon": "-8.372542710508892",
      "lat": "41.242006547910094"
    },
    {
      "id": "pt.ine.add.PTCONT.3807298",
      "street": "R S SALVADOR",
      "house": "205",
      "postcode": "4580-118",
      "city": "VILELA PRD",
      "lon": "-8.374650577324575",
      "lat": "41.241020682624615"
    },
    {
      "id": "pt.ine.add.PTCONT.3807299",
      "street": "R S SALVADOR",
      "house": "205",
      "postcode": "4580-118",
      "city": "VILELA PRD",
      "lon": "-8.374650577324575",
      "lat": "41.241020682624615"
    },
    {
      "id": "pt.ine.add.PTCONT.3807478",
      "street": "R S SALVADOR",
      "house": "205",
      "postcode": "4580-118",
      "city": "VILELA PRD",
      "lon": "-8.374650577324575",
      "lat": "41.241020682624615"
    },
    {
      "id": "pt.ine.add.PTCONT.3865021",
      "street": "R ALTO CASINHA",
      "house": "82",
      "postcode": "4580-671",
      "city": "VILELA PRD",
      "lon": "-8.365611674595813",
      "lat": "41.2419847348056"
    },
    {
      "id": "pt.ine.add.PTCONT.3876477",
      "street": "R GUILHADE",
      "house": "288",
      "postcode": "4580-677",
      "city": "VILELA PRD",
      "lon": "-8.371302131754618",
      "lat": "41.2420271293946"
    },
    {
      "id": "pt.ine.add.PTCONT.3891157",
      "street": "R S SALVADOR",
      "house": "86",
      "postcode": "4580-118",
      "city": "VILELA PRD",
      "lon": "-8.373850799664917",
      "lat": "41.240878289589915"
    },
    {
      "id": "pt.ine.add.PTCONT.3909529",
      "street": "R ALTO DA CASINHA",
      "house": "30",
      "postcode": "4580-671",
      "city": "VILELA PRD",
      "lon": "-8.36660202844875",
      "lat": "41.242045760530715"
    },
    {
      "id": "pt.ine.add.PTCONT.3953949",
      "street": "R AGRICULTOR",
      "house": "",
      "postcode": "4580-126",
      "city": "VILELA PRD",
      "lon": "-8.368400475572809",
      "lat": "41.24124072159213"
    },
    {
      "id": "pt.ine.add.PTCONT.4023580",
      "street": "R S SALVADOR",
      "house": "223",
      "postcode": "4580-118",
      "city": "VILELA PRD",
      "lon": "-8.374542950424166",
      "lat": "41.24094887436586"
    },
    {
      "id": "pt.ine.add.PTCONT.4023728",
      "street": "R S SALVADOR",
      "house": "223",
      "postcode": "4580-118",
      "city": "VILELA PRD",
      "lon": "-8.374542950424166",
      "lat": "41.24094887436586"
    },
    {
      "id": "pt.ine.add.PTCONT.4023729",
      "street": "R S SALVADOR",
      "house": "223",
      "postcode": "4580-118",
      "city": "VILELA PRD",
      "lon": "-8.374542950424166",
      "lat": "41.24094887436586"
    },
    {
      "id": "pt.ine.add.PTCONT.4028931",
      "street": "R S SALVADOR",
      "house": "223",
      "postcode": "4580-118",
      "city": "VILELA PRD",
      "lon": "-8.374542950424166",
      "lat": "41.24094887436586"
    },
    {
      "id": "pt.ine.add.PTCONT.4118130",
      "street": "R COUCIEIRO",
      "house": "22",
      "postcode": "4580-715",
      "city": "VILELA PRD",
      "lon": "-8.369786334092801",
      "lat": "41.24181415314537"
    },
    {
      "id": "pt.ine.add.PTCONT.4137158",
      "street": "R PINHAL",
      "house": "117",
      "postcode": "4580-126",
      "city": "VILELA PRD",
      "lon": "-8.367194958232863",
      "lat": "41.24105408947211"
    },
    {
      "id": "pt.ine.add.PTCONT.4171596",
      "street": "R S SALVADOR",
      "house": "114",
      "postcode": "4580-118",
      "city": "VILELA PRD",
      "lon": "-8.374005712170453",
      "lat": "41.24083294436257"
    },
    {
      "id": "pt.ine.add.PTCONT.4171597",
      "street": "R S SALVADOR",
      "house": "114",
      "postcode": "4580-118",
      "city": "VILELA PRD",
      "lon": "-8.374005712170453",
      "lat": "41.24083294436257"
    },
    {
      "id": "pt.ine.add.PTCONT.4212342",
      "street": "R GUILHADE",
      "house": "256",
      "postcode": "4580-677",
      "city": "VILELA PRD",
      "lon": "-8.371683737550066",
      "lat": "41.241990322373766"
    },
    {
      "id": "pt.ine.add.PTCONT.4250308",
      "street": "R ALTO DA CASINHA",
      "house": "154",
      "postcode": "4580-671",
      "city": "VILELA PRD",
      "lon": "-8.365277654979325",
      "lat": "41.241985408779634"
    },
    {
      "id": "pt.ine.add.PTCONT.4250309",
      "street": "R ALTO DA CASINHA",
      "house": "154",
      "postcode": "4580-671",
      "city": "VILELA PRD",
      "lon": "-8.365277654979325",
      "lat": "41.241985408779634"
    },
    {
      "id": "pt.ine.add.PTCONT.4250310",
      "street": "R ALTO DA CASINHA",
      "house": "154",
      "postcode": "4580-671",
      "city": "VILELA PRD",
      "lon": "-8.365277654979325",
      "lat": "41.241985408779634"
    },
    {
      "id": "pt.ine.add.PTCONT.4252230",
      "street": "R ALTO DA CASINHA",
      "house": "154",
      "postcode": "4580-671",
      "city": "VILELA PRD",
      "lon": "-8.365277654979325",
      "lat": "41.241985408779634"
    },
    {
      "id": "pt.ine.add.PTCONT.4348150",
      "street": "QTA COUCIEIRO",
      "house": "378",
      "postcode": "4580-715",
      "city": "VILELA PRD",
      "lon": "-8.371037042457223",
      "lat": "41.241298333492445"
    },
    {
      "id": "pt.ine.add.PTCONT.4379576",
      "street": "R SARILHOS",
      "house": "91",
      "postcode": "4580-118",
      "city": "VILELA PRD",
      "lon": "-8.374638979744985",
      "lat": "41.24111074942418"
    }
  ]
}