{
  "data": {
    "ilha": "Ilha de São Miguel (Açores)",
    "concelho": "Ponta Delgada",
    "freguesia": "Ponta Delgada (São Pedro)",
    "OBJECTID": 301,
    "BGRI2021": "42031400406",
    "DT21": "42",
    "DTMN21": "4203",
    "DTMNFR21": "420314",
    "DTMNFRSEC21": "420314004",
    "SECNUM21": "004",
    "SSNUM21": "06",
    "SECSSNUM21": "00406",
    "OBJECTID_1": 206831,
    "DT": "42",
    "CC": "03",
    "fr": "14",
    "SEC": "004",
    "SS": "06",
    "BGRI2021_1": "42031400406"
  },
  "addresses": [
    {
      "id": "pt.ine.add.AC26.22006",
      "street": "R LARANJEIRAS",
      "house": "20",
      "postcode": "9500-317",
      "city": "PONTA DELGADA",
      "lon": "-25.655200373269643",
      "lat": "37.74702702229685"
    },
    {
      "id": "pt.ine.add.AC26.22007",
      "street": "R LARANJEIRAS",
      "house": "125",
      "postcode": "9500-317",
      "city": "PONTA DELGADA",
      "lon": "-25.654925181545725",
      "lat": "37.74780798301017"
    },
    {
      "id": "pt.ine.add.AC26.22008",
      "street": "R LARANJEIRAS",
      "house": "20",
      "postcode": "9500-317",
      "city": "PONTA DELGADA",
      "lon": "-25.654811864981372",
      "lat": "37.747797676914935"
    },
    {
      "id": "pt.ine.add.AC26.22009",
      "street": "R BARÃO DAS LARANJEIRAS",
      "house": "117",
      "postcode": "9500-294",
      "city": "PONTA DELGADA",
      "lon": "-25.65475985618031",
      "lat": "37.74753571612086"
    },
    {
      "id": "pt.ine.add.AC26.22010",
      "street": "R BARÃO DAS LARANJEIRAS",
      "house": "115",
      "postcode": "9500-294",
      "city": "PONTA DELGADA",
      "lon": "-25.654749650227753",
      "lat": "37.74747251100243"
    },
    {
      "id": "pt.ine.add.AC26.22011",
      "street": "R BARÃO DAS LARANJEIRAS",
      "house": "111",
      "postcode": "9500-294",
      "city": "PONTA DELGADA",
      "lon": "-25.654729238369942",
      "lat": "37.74734610076192"
    },
    {
      "id": "pt.ine.add.AC26.22012",
      "street": "R BARÃO DAS LARANJEIRAS B",
      "house": "107",
      "postcode": "9500-294",
      "city": "PONTA DELGADA",
      "lon": "-25.654663271910472",
      "lat": "37.74722818313077"
    },
    {
      "id": "pt.ine.add.AC26.22013",
      "street": "R BARÃO DAS LARANJEIRAS",
      "house": "105",
      "postcode": "9500-294",
      "city": "PONTA DELGADA",
      "lon": "-25.65464204450454",
      "lat": "37.74714682685978"
    },
    {
      "id": "pt.ine.add.AC26.22014",
      "street": "R MON JOSE BAPTISTA FERREIRA",
      "house": "2C",
      "postcode": "9500-328",
      "city": "PONTA DELGADA",
      "lon": "-25.655158243592915",
      "lat": "37.74684628831983"
    },
    {
      "id": "pt.ine.add.AC26.22015",
      "street": "R MON JOSE BAPTISTA FERREIRA",
      "house": "2 C",
      "postcode": "9500-328",
      "city": "PONTA DELGADA",
      "lon": "-25.655158243592915",
      "lat": "37.74684628831983"
    },
    {
      "id": "pt.ine.add.AC26.22016",
      "street": "R MON JOSE BAPTISTA FERREIRA",
      "house": "33",
      "postcode": "9500-328",
      "city": "PONTA DELGADA",
      "lon": "-25.65470170114552",
      "lat": "37.74573252016833"
    },
    {
      "id": "pt.ine.add.AC26.22017",
      "street": "R BARAO LARANJEIRAS",
      "house": "45",
      "postcode": "9500-294",
      "city": "PONTA DELGADA",
      "lon": "-25.65415864592671",
      "lat": "37.745636193020154"
    },
    {
      "id": "pt.ine.add.AC26.22018",
      "street": "R BARÃO DAS LARANJEIRAS",
      "house": "",
      "postcode": "9500-294",
      "city": "PONTA DELGADA",
      "lon": "-25.65408263986843",
      "lat": "37.74544605910381"
    },
    {
      "id": "pt.ine.add.AC26.22019",
      "street": "R BARÃO DAS LARANJEIRAS",
      "house": "33",
      "postcode": "9500-294",
      "city": "PONTA DELGADA",
      "lon": "-25.653918301977427",
      "lat": "37.745119726300864"
    },
    {
      "id": "pt.ine.add.AC26.22020",
      "street": "R BARÃO DAS LARANJEIRAS",
      "house": "31",
      "postcode": "9500-294",
      "city": "PONTA DELGADA",
      "lon": "-25.653896423010625",
      "lat": "37.74507441308441"
    },
    {
      "id": "pt.ine.add.AC26.22021",
      "street": "R BARÃO DAS LARANJEIRAS",
      "house": "31",
      "postcode": "9500-294",
      "city": "PONTA DELGADA",
      "lon": "-25.653896423010625",
      "lat": "37.74507441308441"
    },
    {
      "id": "pt.ine.add.AC26.22022",
      "street": "R BARÃO DAS LARANJEIRAS",
      "house": "31",
      "postcode": "9500-294",
      "city": "PONTA DELGADA",
      "lon": "-25.653896423010625",
      "lat": "37.74507441308441"
    },
    {
      "id": "pt.ine.add.AC26.22023",
      "street": "R BARÃO DAS LARANJEIRAS",
      "house": "27",
      "postcode": "9500-294",
      "city": "PONTA DELGADA",
      "lon": "-25.653809560354436",
      "lat": "37.74485711698987"
    },
    {
      "id": "pt.ine.add.AC26.22024",
      "street": "TV LARANJEIRAS",
      "house": "10 A",
      "postcode": "9500-318",
      "city": "PONTA DELGADA",
      "lon": "-25.653912830562128",
      "lat": "37.74479520796948"
    },
    {
      "id": "pt.ine.add.AC26.22025",
      "street": "TV LARANJEIRAS",
      "house": "59",
      "postcode": "9500-318",
      "city": "PONTA DELGADA",
      "lon": "-25.654358973076523",
      "lat": "37.74460202445621"
    },
    {
      "id": "pt.ine.add.AC26.22026",
      "street": "TV LARANJEIRAS",
      "house": "49",
      "postcode": "9500-318",
      "city": "PONTA DELGADA",
      "lon": "-25.65422867799711",
      "lat": "37.74427608075417"
    },
    {
      "id": "pt.ine.add.AC26.22027",
      "street": "TV LARANJEIRAS",
      "house": "47",
      "postcode": "9500-318",
      "city": "PONTA DELGADA",
      "lon": "-25.65421830967717",
      "lat": "37.744221886372834"
    },
    {
      "id": "pt.ine.add.AC26.22028",
      "street": "TV LARANJEIRAS",
      "house": "37",
      "postcode": "9500-318",
      "city": "PONTA DELGADA",
      "lon": "-25.65417944753789",
      "lat": "37.74386093603214"
    },
    {
      "id": "pt.ine.add.AC26.22029",
      "street": "TV LARANJEIRAS",
      "house": "35",
      "postcode": "9500-318",
      "city": "PONTA DELGADA",
      "lon": "-25.65415789513632",
      "lat": "37.743797601258024"
    },
    {
      "id": "pt.ine.add.AC26.22030",
      "street": "TV LARANJEIRAS",
      "house": "27",
      "postcode": "9500-318",
      "city": "PONTA DELGADA",
      "lon": "-25.654126790542342",
      "lat": "37.74363501808593"
    },
    {
      "id": "pt.ine.add.AC26.22031",
      "street": "R LAUREANO",
      "house": "118",
      "postcode": "9500-319",
      "city": "PONTA DELGADA",
      "lon": "-25.655013187123394",
      "lat": "37.74357303628777"
    },
    {
      "id": "pt.ine.add.AC26.22032",
      "street": "R LAUREANO",
      "house": "120",
      "postcode": "9500-319",
      "city": "PONTA DELGADA",
      "lon": "-25.65502355594904",
      "lat": "37.74362723061433"
    },
    {
      "id": "pt.ine.add.AC26.22033",
      "street": "R LAUREANO",
      "house": "128",
      "postcode": "9500-319",
      "city": "PONTA DELGADA",
      "lon": "-25.655067151418802",
      "lat": "37.74372686746032"
    },
    {
      "id": "pt.ine.add.AC26.22034",
      "street": "R LAUREANO",
      "house": "",
      "postcode": "9500-319",
      "city": "PONTA DELGADA",
      "lon": "-25.655077520302026",
      "lat": "37.74378106178192"
    },
    {
      "id": "pt.ine.add.AC26.22035",
      "street": "R LAUREANO",
      "house": "18",
      "postcode": "9500-319",
      "city": "PONTA DELGADA",
      "lon": "-25.65506503139121",
      "lat": "37.74384400790948"
    },
    {
      "id": "pt.ine.add.AC26.22036",
      "street": "R LAUREANO",
      "house": "150",
      "postcode": "9500-319",
      "city": "PONTA DELGADA",
      "lon": "-25.65505270553901",
      "lat": "37.743897943231104"
    },
    {
      "id": "pt.ine.add.AC26.22037",
      "street": "R LAUREANO",
      "house": "152",
      "postcode": "9500-319",
      "city": "PONTA DELGADA",
      "lon": "-25.65506307443174",
      "lat": "37.74395213755269"
    },
    {
      "id": "pt.ine.add.AC26.22038",
      "street": "R LAUREANO",
      "house": "158",
      "postcode": "9500-319",
      "city": "PONTA DELGADA",
      "lon": "-25.655073606417854",
      "lat": "37.743997321069685"
    },
    {
      "id": "pt.ine.add.AC26.22039",
      "street": "R LAUREANO",
      "house": "11 6",
      "postcode": "9500-319",
      "city": "PONTA DELGADA",
      "lon": "-25.655083812259093",
      "lat": "37.74406052619255"
    },
    {
      "id": "pt.ine.add.AC26.22040",
      "street": "R LAUREANO",
      "house": "174",
      "postcode": "9500-319",
      "city": "PONTA DELGADA",
      "lon": "-25.65504813923329",
      "lat": "37.7441502457251"
    },
    {
      "id": "pt.ine.add.AC26.22041",
      "street": "R LAUREANO",
      "house": "296",
      "postcode": "9500-319",
      "city": "PONTA DELGADA",
      "lon": "-25.655235923374526",
      "lat": "37.74506266770463"
    },
    {
      "id": "pt.ine.add.AC26.22042",
      "street": "R LAUREANO",
      "house": "302",
      "postcode": "9500-319",
      "city": "PONTA DELGADA",
      "lon": "-25.655276421738435",
      "lat": "37.745333509714115"
    },
    {
      "id": "pt.ine.add.AC26.22043",
      "street": "R LAUREANO",
      "house": "306",
      "postcode": "9500-319",
      "city": "PONTA DELGADA",
      "lon": "-25.655274301918038",
      "lat": "37.74545065014132"
    },
    {
      "id": "pt.ine.add.AC26.22044",
      "street": "R LAUREANO",
      "house": "340",
      "postcode": "9500-319",
      "city": "PONTA DELGADA",
      "lon": "-25.655284508092688",
      "lat": "37.745513855238656"
    },
    {
      "id": "pt.ine.add.AC26.22045",
      "street": "R LAUREANO",
      "house": "352",
      "postcode": "9500-319",
      "city": "PONTA DELGADA",
      "lon": "-25.655294062035146",
      "lat": "37.74561310354221"
    },
    {
      "id": "pt.ine.add.AC26.22046",
      "street": "R LAUREANO",
      "house": "358",
      "postcode": "9500-319",
      "city": "PONTA DELGADA",
      "lon": "-25.655293083661007",
      "lat": "37.74566716835291"
    },
    {
      "id": "pt.ine.add.AC26.22786",
      "street": "R MONSENHOR JOSE BAPTISTA FERREIRA",
      "house": "",
      "postcode": "9500-328",
      "city": "PONTA DELGADA",
      "lon": "-25.655158243592915",
      "lat": "37.74684628831983"
    },
    {
      "id": "pt.ine.add.AC26.22787",
      "street": "R MON JOSE BAPTISTA FERREIRA",
      "house": "2C",
      "postcode": "9500-328",
      "city": "PONTA DELGADA",
      "lon": "-25.655158243592915",
      "lat": "37.74684628831983"
    },
    {
      "id": "pt.ine.add.AC26.22788",
      "street": "R MONSENHOR JOSE BAPTISTA FERREIRA",
      "house": "2",
      "postcode": "9500-328",
      "city": "PONTA DELGADA",
      "lon": "-25.654982550247396",
      "lat": "37.746519827428514"
    },
    {
      "id": "pt.ine.add.AC26.22808",
      "street": "R LAUREANO",
      "house": "36 A",
      "postcode": "9500-319",
      "city": "PONTA DELGADA",
      "lon": "-25.65491227221511",
      "lat": "37.74287790928505"
    },
    {
      "id": "pt.ine.add.AC26.22789",
      "street": "R MONSENHOR JOSE BAPTISTA FERREIRA",
      "house": "4",
      "postcode": "9500-328",
      "city": "PONTA DELGADA",
      "lon": "-25.654994876642963",
      "lat": "37.746465892146894"
    },
    {
      "id": "pt.ine.add.AC26.22790",
      "street": "R MONSENHOR JOSE BAPTISTA FERREIRA",
      "house": "6",
      "postcode": "9500-328",
      "city": "PONTA DELGADA",
      "lon": "-25.654950790450407",
      "lat": "37.746393287688555"
    },
    {
      "id": "pt.ine.add.AC26.22791",
      "street": "R MONSENHOR JOSE BAPTISTA FERREIRA",
      "house": "10",
      "postcode": "9500-328",
      "city": "PONTA DELGADA",
      "lon": "-25.65494172622503",
      "lat": "37.74626700697837"
    },
    {
      "id": "pt.ine.add.AC26.22792",
      "street": "R MON JOSE BAPTISTA FERREIRA",
      "house": "12",
      "postcode": "9500-328",
      "city": "PONTA DELGADA",
      "lon": "-25.65493152025885",
      "lat": "37.74620380186281"
    },
    {
      "id": "pt.ine.add.AC26.22793",
      "street": "R MON JOSE BAPTISTA FERREIRA",
      "house": "16",
      "postcode": "9500-328",
      "city": "PONTA DELGADA",
      "lon": "-25.65490008689316",
      "lat": "37.74605924050739"
    },
    {
      "id": "pt.ine.add.AC26.22794",
      "street": "R MONSENHOR JOSE BAPTISTA FERREIRA MONSENHUR JOSE BAPTISTA F",
      "house": "20",
      "postcode": "9500-328",
      "city": "PONTA DELGADA",
      "lon": "-25.65489102277763",
      "lat": "37.74593295978873"
    },
    {
      "id": "pt.ine.add.AC26.22795",
      "street": "R MON JOSE BAPTISTA FERREIRA",
      "house": "33",
      "postcode": "9500-328",
      "city": "PONTA DELGADA",
      "lon": "-25.654882611138795",
      "lat": "37.7457706358672"
    },
    {
      "id": "pt.ine.add.AC26.22796",
      "street": "R MON JOSE BAPTISTA FERREIRA",
      "house": "33L",
      "postcode": "9500-328",
      "city": "PONTA DELGADA",
      "lon": "-25.654882611138795",
      "lat": "37.7457706358672"
    },
    {
      "id": "pt.ine.add.AC26.22797",
      "street": "TV LARANJEIRAS",
      "house": "15",
      "postcode": "9500-318",
      "city": "PONTA DELGADA",
      "lon": "-25.654096502047285",
      "lat": "37.743427380900364"
    },
    {
      "id": "pt.ine.add.AC26.22798",
      "street": "TV LARANJEIRAS",
      "house": "9",
      "postcode": "9500-318",
      "city": "PONTA DELGADA",
      "lon": "-25.65404449836993",
      "lat": "37.7431654197079"
    },
    {
      "id": "pt.ine.add.AC26.22799",
      "street": "TV LARANJEIRAS",
      "house": "9",
      "postcode": "9500-318",
      "city": "PONTA DELGADA",
      "lon": "-25.654048415131058",
      "lat": "37.74294916048101"
    },
    {
      "id": "pt.ine.add.AC26.22800",
      "street": "TV LARANJEIRAS",
      "house": "1B",
      "postcode": "9500-318",
      "city": "PONTA DELGADA",
      "lon": "-25.65401649507384",
      "lat": "37.74283163127556"
    },
    {
      "id": "pt.ine.add.AC26.22801",
      "street": "TV LARANJEIRAS",
      "house": "1",
      "postcode": "9500-318",
      "city": "PONTA DELGADA",
      "lon": "-25.653972901513598",
      "lat": "37.74273199406307"
    },
    {
      "id": "pt.ine.add.AC26.22802",
      "street": "R BOA NOVA",
      "house": "47",
      "postcode": "9500-296",
      "city": "PONTA DELGADA",
      "lon": "-25.654076658159376",
      "lat": "37.7426430524131"
    },
    {
      "id": "pt.ine.add.AC26.22803",
      "street": "R BOA NOVA",
      "house": "45",
      "postcode": "9500-296",
      "city": "PONTA DELGADA",
      "lon": "-25.65424719217487",
      "lat": "37.742626974551904"
    },
    {
      "id": "pt.ine.add.AC26.22804",
      "street": "R BOA NOVA",
      "house": "41",
      "postcode": "9500-296",
      "city": "PONTA DELGADA",
      "lon": "-25.654463277966915",
      "lat": "37.74260240386311"
    },
    {
      "id": "pt.ine.add.AC26.22805",
      "street": "R BOA NOVA",
      "house": "33",
      "postcode": "9500-296",
      "city": "PONTA DELGADA",
      "lon": "-25.654622954027687",
      "lat": "37.74255916348901"
    },
    {
      "id": "pt.ine.add.AC26.22806",
      "street": "R BOA NOVA",
      "house": "27",
      "postcode": "9500-296",
      "city": "PONTA DELGADA",
      "lon": "-25.654725241649945",
      "lat": "37.74255131848488"
    },
    {
      "id": "pt.ine.add.AC26.22807",
      "street": "R LAUREANO",
      "house": "",
      "postcode": "9500-319",
      "city": "PONTA DELGADA",
      "lon": "-25.65487242863164",
      "lat": "37.7425710238718"
    },
    {
      "id": "pt.ine.add.AC26.22809",
      "street": "R LAUREANO",
      "house": "44",
      "postcode": "9500-319",
      "city": "PONTA DELGADA",
      "lon": "-25.654954236244915",
      "lat": "37.74306765421869"
    },
    {
      "id": "pt.ine.add.AC26.22810",
      "street": "R LAUREANO",
      "house": "64",
      "postcode": "9500-319",
      "city": "PONTA DELGADA",
      "lon": "-25.654993917285818",
      "lat": "37.743383550394746"
    },
    {
      "id": "pt.ine.add.AC26.22811",
      "street": "R LAUREANO",
      "house": "104",
      "postcode": "9500-319",
      "city": "PONTA DELGADA",
      "lon": "-25.655002818311694",
      "lat": "37.7435188419601"
    },
    {
      "id": "pt.ine.add.AC26.22812",
      "street": "R LAUREANO",
      "house": "374",
      "postcode": "9500-319",
      "city": "PONTA DELGADA",
      "lon": "-25.655313333045594",
      "lat": "37.745802589341956"
    },
    {
      "id": "pt.ine.add.AC26.22813",
      "street": "R LAUREANO",
      "house": "390",
      "postcode": "9500-319",
      "city": "PONTA DELGADA",
      "lon": "-25.655175530284087",
      "lat": "37.74589114349909"
    },
    {
      "id": "pt.ine.add.AC26.22814",
      "street": "R LAUREANO",
      "house": "436",
      "postcode": "9500-319",
      "city": "PONTA DELGADA",
      "lon": "-25.65542788534441",
      "lat": "37.74637169407073"
    },
    {
      "id": "pt.ine.add.AC26.22815",
      "street": "R LAUREANO",
      "house": "444",
      "postcode": "9500-319",
      "city": "PONTA DELGADA",
      "lon": "-25.655446830736544",
      "lat": "37.746579201436944"
    },
    {
      "id": "pt.ine.add.AC26.22816",
      "street": "R LAUREANO",
      "house": "444",
      "postcode": "9500-319",
      "city": "PONTA DELGADA",
      "lon": "-25.655446830736544",
      "lat": "37.746579201436944"
    },
    {
      "id": "pt.ine.add.AC26.22817",
      "street": "R LAUREANO",
      "house": "444",
      "postcode": "9500-319",
      "city": "PONTA DELGADA",
      "lon": "-25.655446830736544",
      "lat": "37.746579201436944"
    },
    {
      "id": "pt.ine.add.AC26.22818",
      "street": "R LAUREANO",
      "house": "444",
      "postcode": "9500-319",
      "city": "PONTA DELGADA",
      "lon": "-25.655446830736544",
      "lat": "37.746579201436944"
    },
    {
      "id": "pt.ine.add.AC26.22819",
      "street": "R LAUREANO",
      "house": "444",
      "postcode": "9500-319",
      "city": "PONTA DELGADA",
      "lon": "-25.655446830736544",
      "lat": "37.746579201436944"
    },
    {
      "id": "pt.ine.add.AC26.22820",
      "street": "R LAUREANO",
      "house": "454",
      "postcode": "9500-319",
      "city": "PONTA DELGADA",
      "lon": "-25.65549818922308",
      "lat": "37.7468772052054"
    },
    {
      "id": "pt.ine.add.AC26.22821",
      "street": "R LAUREANO",
      "house": "454",
      "postcode": "9500-319",
      "city": "PONTA DELGADA",
      "lon": "-25.65549818922308",
      "lat": "37.7468772052054"
    },
    {
      "id": "pt.ine.add.AC26.22822",
      "street": "R LAUREANO",
      "house": "454",
      "postcode": "9500-319",
      "city": "PONTA DELGADA",
      "lon": "-25.65549818922308",
      "lat": "37.7468772052054"
    },
    {
      "id": "pt.ine.add.AC26.22823",
      "street": "R LAUREANO",
      "house": "454",
      "postcode": "9500-319",
      "city": "PONTA DELGADA",
      "lon": "-25.65549818922308",
      "lat": "37.7468772052054"
    },
    {
      "id": "pt.ine.add.AC26.47141",
      "street": "R BARAO LARANJEIRAS",
      "house": "N 113",
      "postcode": "9500-294",
      "city": "PONTA DELGADA",
      "lon": "-25.654739281150995",
      "lat": "37.7474183166798"
    },
    {
      "id": "pt.ine.add.AC26.47227",
      "street": "R MONSENHOR JOSE BAPTISTA FERREIRA",
      "house": "33",
      "postcode": "9500-328",
      "city": "PONTA DELGADA",
      "lon": "-25.654552713297353",
      "lat": "37.74581193324696"
    },
    {
      "id": "pt.ine.add.AC26.47228",
      "street": "R MONSENHOR JOSE BAPTISTA FERREIRA",
      "house": "33",
      "postcode": "9500-328",
      "city": "PONTA DELGADA",
      "lon": "-25.654552713297353",
      "lat": "37.74581193324696"
    },
    {
      "id": "pt.ine.add.AC26.47229",
      "street": "TV LARANJEIRAS",
      "house": "8 A",
      "postcode": "9500-318",
      "city": "PONTA DELGADA",
      "lon": "-25.65395854702279",
      "lat": "37.74477770481693"
    },
    {
      "id": "pt.ine.add.AC26.47230",
      "street": "TV LARANJEIRAS",
      "house": "45",
      "postcode": "9500-318",
      "city": "PONTA DELGADA",
      "lon": "-25.654207778185807",
      "lat": "37.74417670279039"
    },
    {
      "id": "pt.ine.add.AC26.47231",
      "street": "R LAUREANO",
      "house": "102",
      "postcode": "9500-319",
      "city": "PONTA DELGADA",
      "lon": "-25.654992612600005",
      "lat": "37.743455636827335"
    },
    {
      "id": "pt.ine.add.AC26.47232",
      "street": "R LAUREANO",
      "house": "450",
      "postcode": "9500-319",
      "city": "PONTA DELGADA",
      "lon": "-25.655317765407222",
      "lat": "37.746812058000955"
    },
    {
      "id": "pt.ine.add.AC26.47233",
      "street": "R LAUREANO",
      "house": "450",
      "postcode": "9500-319",
      "city": "PONTA DELGADA",
      "lon": "-25.655317765407222",
      "lat": "37.746812058000955"
    },
    {
      "id": "pt.ine.add.AC26.47234",
      "street": "R LAUREANO",
      "house": "450",
      "postcode": "9500-319",
      "city": "PONTA DELGADA",
      "lon": "-25.655317765407222",
      "lat": "37.746812058000955"
    },
    {
      "id": "pt.ine.add.AC26.47235",
      "street": "R LAUREANO",
      "house": "450",
      "postcode": "9500-319",
      "city": "PONTA DELGADA",
      "lon": "-25.655317765407222",
      "lat": "37.746812058000955"
    },
    {
      "id": "pt.ine.add.AC26.47769",
      "street": "R BARÃO DAS LARANJEIRAS",
      "house": "123",
      "postcode": "9500-294",
      "city": "PONTA DELGADA",
      "lon": "-25.65479047413253",
      "lat": "37.747725331468864"
    },
    {
      "id": "pt.ine.add.AC26.47770",
      "street": "R BARAO LARANJEIRAS",
      "house": "22E",
      "postcode": "9500-294",
      "city": "PONTA DELGADA",
      "lon": "-25.654791616079926",
      "lat": "37.74766225589146"
    },
    {
      "id": "pt.ine.add.AC26.47771",
      "street": "TV LARANJEIRAS",
      "house": "41",
      "postcode": "9500-318",
      "city": "PONTA DELGADA",
      "lon": "-25.654210389142904",
      "lat": "37.744032529988495"
    },
    {
      "id": "pt.ine.add.AC26.47772",
      "street": "TV LARANJEIRAS",
      "house": "1A",
      "postcode": "9500-318",
      "city": "PONTA DELGADA",
      "lon": "-25.654085557465176",
      "lat": "37.7427783440307"
    },
    {
      "id": "pt.ine.add.AC26.47921",
      "street": "R LAUREANO",
      "house": "410",
      "postcode": "9500-319",
      "city": "PONTA DELGADA",
      "lon": "-25.65538852734957",
      "lat": "37.74603777652817"
    },
    {
      "id": "pt.ine.add.AC26.51097",
      "street": "R LAUREANO",
      "house": "20 RC",
      "postcode": "9500-319",
      "city": "PONTA DELGADA",
      "lon": "-25.654903208303026",
      "lat": "37.742751628507904"
    },
    {
      "id": "pt.ine.add.AC26.52440",
      "street": "R BARÃO DAS LARANJEIRAS",
      "house": "25",
      "postcode": "9500-294",
      "city": "PONTA DELGADA",
      "lon": "-25.65378768152704",
      "lat": "37.744811803754"
    },
    {
      "id": "pt.ine.add.AC26.55160",
      "street": "R LAUREANO",
      "house": "366",
      "postcode": "9500-319",
      "city": "PONTA DELGADA",
      "lon": "-25.655303289875857",
      "lat": "37.74573037344724"
    },
    {
      "id": "pt.ine.add.AC26.59175",
      "street": "TV LARANJEIRAS",
      "house": "17",
      "postcode": "9500-318",
      "city": "PONTA DELGADA",
      "lon": "-25.65409584926875",
      "lat": "37.743463424103204"
    },
    {
      "id": "pt.ine.add.AC26.60719",
      "street": "R BARÃO DAS LARANJEIRAS",
      "house": "29",
      "postcode": "9500-294",
      "city": "PONTA DELGADA",
      "lon": "-25.653820254923065",
      "lat": "37.74489328980256"
    },
    {
      "id": "pt.ine.add.AC26.60720",
      "street": "TV LARANJEIRAS",
      "house": "43",
      "postcode": "9500-318",
      "city": "PONTA DELGADA",
      "lon": "-25.65420908366668",
      "lat": "37.74410461638991"
    },
    {
      "id": "pt.ine.add.AC26.60866",
      "street": "R LAUREANO",
      "house": "54",
      "postcode": "9500-319",
      "city": "PONTA DELGADA",
      "lon": "-25.65495276844644",
      "lat": "37.74314875145831"
    },
    {
      "id": "pt.ine.add.AC26.60867",
      "street": "R LAUREANO",
      "house": "452",
      "postcode": "9500-319",
      "city": "PONTA DELGADA",
      "lon": "-25.655297189659095",
      "lat": "37.74669465863026"
    },
    {
      "id": "pt.ine.add.AC26.60868",
      "street": "R LAUREANO",
      "house": "452",
      "postcode": "9500-319",
      "city": "PONTA DELGADA",
      "lon": "-25.655297189659095",
      "lat": "37.74669465863026"
    },
    {
      "id": "pt.ine.add.AC26.60869",
      "street": "R LAUREANO",
      "house": "446",
      "postcode": "9500-319",
      "city": "PONTA DELGADA",
      "lon": "-25.655297189659095",
      "lat": "37.74669465863026"
    },
    {
      "id": "pt.ine.add.AC26.63715",
      "street": "R BARÃO DAS LARANJEIRAS",
      "house": "37",
      "postcode": "9500-294",
      "city": "PONTA DELGADA",
      "lon": "-25.65395054919729",
      "lat": "37.745219233909424"
    },
    {
      "id": "pt.ine.add.AC26.63716",
      "street": "R BARÃO DAS LARANJEIRAS",
      "house": "29 B",
      "postcode": "9500-294",
      "city": "PONTA DELGADA",
      "lon": "-25.65387487053127",
      "lat": "37.74501107826913"
    },
    {
      "id": "pt.ine.add.AC26.63717",
      "street": "TV LARANJEIRAS",
      "house": "61",
      "postcode": "9500-318",
      "city": "PONTA DELGADA",
      "lon": "-25.654084022375155",
      "lat": "37.74474308725167"
    },
    {
      "id": "pt.ine.add.AC26.63718",
      "street": "TV LARANJEIRAS",
      "house": "1-C",
      "postcode": "9500-318",
      "city": "PONTA DELGADA",
      "lon": "-25.654038210297287",
      "lat": "37.74288595527664"
    },
    {
      "id": "pt.ine.add.AC26.66089",
      "street": "TV LARANJEIRAS",
      "house": "31",
      "postcode": "9500-318",
      "city": "PONTA DELGADA",
      "lon": "-25.654136016386918",
      "lat": "37.743752288080806"
    },
    {
      "id": "pt.ine.add.AC26.66090",
      "street": "TV LARANJEIRAS",
      "house": "318",
      "postcode": "9500-318",
      "city": "PONTA DELGADA",
      "lon": "-25.654137321917442",
      "lat": "37.74368020167726"
    },
    {
      "id": "pt.ine.add.AC26.66091",
      "street": "R LAUREANO",
      "house": "298",
      "postcode": "9500-319",
      "city": "PONTA DELGADA",
      "lon": "-25.6552564986517",
      "lat": "37.745180067107256"
    },
    {
      "id": "pt.ine.add.AC26.66245",
      "street": "R LAUREANO",
      "house": "298",
      "postcode": "9500-319",
      "city": "PONTA DELGADA",
      "lon": "-25.6552564986517",
      "lat": "37.745180067107256"
    },
    {
      "id": "pt.ine.add.AC26.66246",
      "street": "R LAUREANO",
      "house": "298",
      "postcode": "9500-319",
      "city": "PONTA DELGADA",
      "lon": "-25.6552564986517",
      "lat": "37.745180067107256"
    },
    {
      "id": "pt.ine.add.AC26.66247",
      "street": "R LAUREANO",
      "house": "298",
      "postcode": "9500-319",
      "city": "PONTA DELGADA",
      "lon": "-25.6552564986517",
      "lat": "37.745180067107256"
    },
    {
      "id": "pt.ine.add.AC26.66248",
      "street": "R LAUREANO",
      "house": "346",
      "postcode": "9500-319",
      "city": "PONTA DELGADA",
      "lon": "-25.655295040406656",
      "lat": "37.745559038731"
    },
    {
      "id": "pt.ine.add.AC26.69294",
      "street": "R MON JOSE BAPTISTA FERREIRA",
      "house": "2E",
      "postcode": "9500-328",
      "city": "PONTA DELGADA",
      "lon": "-25.65512795117016",
      "lat": "37.74663865142952"
    },
    {
      "id": "pt.ine.add.AC26.69295",
      "street": "R BARÃO DAS LARANJEIRAS",
      "house": "35",
      "postcode": "9500-294",
      "city": "PONTA DELGADA",
      "lon": "-25.653928670183184",
      "lat": "37.74517392069875"
    },
    {
      "id": "pt.ine.add.AC26.69296",
      "street": "TV LARANJEIRAS",
      "house": "12 A",
      "postcode": "9500-318",
      "city": "PONTA DELGADA",
      "lon": "-25.65385592980429",
      "lat": "37.744803570687935"
    },
    {
      "id": "pt.ine.add.AC26.69297",
      "street": "R LAUREANO",
      "house": "304",
      "postcode": "9500-319",
      "city": "PONTA DELGADA",
      "lon": "-25.655286627901816",
      "lat": "37.745396714812216"
    },
    {
      "id": "pt.ine.add.AC26.69298",
      "street": "R LAUREANO",
      "house": "442",
      "postcode": "9500-319",
      "city": "PONTA DELGADA",
      "lon": "-25.655437276504507",
      "lat": "37.74647995315539"
    },
    {
      "id": "pt.ine.add.AC26.70600",
      "street": "R BARÃO DAS LARANJEIRAS",
      "house": "119",
      "postcode": "9500-294",
      "city": "PONTA DELGADA",
      "lon": "-25.654770062148618",
      "lat": "37.74759892123809"
    },
    {
      "id": "pt.ine.add.AC26.70601",
      "street": "TV LARANJEIRAS",
      "house": "7",
      "postcode": "9500-318",
      "city": "PONTA DELGADA",
      "lon": "-25.654034130315228",
      "lat": "37.74311122530595"
    },
    {
      "id": "pt.ine.add.AC26.70602",
      "street": "R LAUREANO",
      "house": "172",
      "postcode": "9500-319",
      "city": "PONTA DELGADA",
      "lon": "-25.655094344271234",
      "lat": "37.74410570970741"
    },
    {
      "id": "pt.ine.add.AC26.70603",
      "street": "R LAUREANO",
      "house": "180",
      "postcode": "9500-319",
      "city": "PONTA DELGADA",
      "lon": "-25.655115734482354",
      "lat": "37.74417805512736"
    },
    {
      "id": "pt.ine.add.AC26.73558",
      "street": "TV LARANJEIRAS",
      "house": "63",
      "postcode": "9500-318",
      "city": "PONTA DELGADA",
      "lon": "-25.65402695846345",
      "lat": "37.74476046085246"
    },
    {
      "id": "pt.ine.add.AC26.73559",
      "street": "R LAUREANO",
      "house": "380",
      "postcode": "9500-319",
      "city": "PONTA DELGADA",
      "lon": "-25.655334723909604",
      "lat": "37.745874934715246"
    },
    {
      "id": "pt.ine.add.AC26.77320",
      "street": "R BARÃO DAS LARANJEIRAS",
      "house": "109",
      "postcode": "9500-294",
      "city": "PONTA DELGADA",
      "lon": "-25.654707684575705",
      "lat": "37.7472827660966"
    },
    {
      "id": "pt.ine.add.AC26.77321",
      "street": "TV LARANJEIRAS",
      "house": "39",
      "postcode": "9500-318",
      "city": "PONTA DELGADA",
      "lon": "-25.654178142039726",
      "lat": "37.74393302243475"
    },
    {
      "id": "pt.ine.add.AC26.77322",
      "street": "TV LARANJEIRAS",
      "house": "21",
      "postcode": "9500-318",
      "city": "PONTA DELGADA",
      "lon": "-25.654095196489056",
      "lat": "37.743499467305796"
    },
    {
      "id": "pt.ine.add.AC26.80960",
      "street": "R MON JOSE BAPTISTA FERREIRA",
      "house": "2C",
      "postcode": "9500-328",
      "city": "PONTA DELGADA",
      "lon": "-25.655158243592915",
      "lat": "37.74684628831983"
    },
    {
      "id": "pt.ine.add.AC26.81267",
      "street": "R MON JOSE BAPTISTA FERREIRA",
      "house": "18",
      "postcode": "9500-328",
      "city": "PONTA DELGADA",
      "lon": "-25.654901228679027",
      "lat": "37.745996164909265"
    },
    {
      "id": "pt.ine.add.AC26.81268",
      "street": "R BOA NOVA",
      "house": "35",
      "postcode": "9500-296",
      "city": "PONTA DELGADA",
      "lon": "-25.65453168728118",
      "lat": "37.74258515955882"
    },
    {
      "id": "pt.ine.add.AC26.81791",
      "street": "R LAUREANO",
      "house": "",
      "postcode": "9500-319",
      "city": "PONTA DELGADA",
      "lon": "-25.6552564986517",
      "lat": "37.745180067107256"
    },
    {
      "id": "pt.ine.add.AC26.81899",
      "street": "R MON JOSE BAPTISTA FERREIRA",
      "house": "2E",
      "postcode": "9500-328",
      "city": "PONTA DELGADA",
      "lon": "-25.65512795117016",
      "lat": "37.74663865142952"
    },
    {
      "id": "pt.ine.add.AC26.83551",
      "street": "R LAUREANO",
      "house": "450",
      "postcode": "9500-319",
      "city": "PONTA DELGADA",
      "lon": "-25.655317765407222",
      "lat": "37.746812058000955"
    },
    {
      "id": "pt.ine.add.AC26.85429",
      "street": "R MONSENHOR JOSE BAPTISTA FERREIRA",
      "house": "33 J",
      "postcode": "9500-328",
      "city": "PONTA DELGADA",
      "lon": "-25.654882611138795",
      "lat": "37.7457706358672"
    },
    {
      "id": "pt.ine.add.AC26.85430",
      "street": "R LAUREANO",
      "house": "186",
      "postcode": "9500-319",
      "city": "PONTA DELGADA",
      "lon": "-25.65509206117909",
      "lat": "37.74423186095352"
    },
    {
      "id": "pt.ine.add.AC26.85632",
      "street": "TV LARANJEIRAS",
      "house": "5",
      "postcode": "9500-318",
      "city": "PONTA DELGADA",
      "lon": "-25.654024088676575",
      "lat": "37.74303900930077"
    },
    {
      "id": "pt.ine.add.AC26.86186",
      "street": "TV LARANJEIRAS",
      "house": "11",
      "postcode": "9500-318",
      "city": "PONTA DELGADA",
      "lon": "-25.6540652345212",
      "lat": "37.74327380850851"
    },
    {
      "id": "pt.ine.add.AC26.86432",
      "street": "TV LARANJEIRAS",
      "house": "23",
      "postcode": "9500-318",
      "city": "PONTA DELGADA",
      "lon": "-25.65409454370819",
      "lat": "37.74353551050819"
    },
    {
      "id": "pt.ine.add.AC26.86504",
      "street": "R LAUREANO",
      "house": "440",
      "postcode": "9500-319",
      "city": "PONTA DELGADA",
      "lon": "-25.65542690704091",
      "lat": "37.74642575887742"
    },
    {
      "id": "pt.ine.add.AC26.86904",
      "street": "TV LARANJEIRAS",
      "house": "11",
      "postcode": "9500-318",
      "city": "PONTA DELGADA",
      "lon": "-25.654055029636865",
      "lat": "37.74321060330786"
    },
    {
      "id": "pt.ine.add.AC26.87531",
      "street": "R DO LAUREANO",
      "house": "116",
      "postcode": "9500-319",
      "city": "PONTA DELGADA",
      "lon": "-25.655073280258954",
      "lat": "37.74401534267663"
    },
    {
      "id": "pt.ine.add.AC26.89208",
      "street": "R LAUREANO",
      "house": "188",
      "postcode": "9500-319",
      "city": "PONTA DELGADA",
      "lon": "-25.655012303030134",
      "lat": "37.74424897604679"
    },
    {
      "id": "pt.ine.add.AC26.89211",
      "street": "TV LARANJEIRAS",
      "house": "15",
      "postcode": "9500-318",
      "city": "PONTA DELGADA",
      "lon": "-25.654096502047285",
      "lat": "37.743427380900364"
    },
    {
      "id": "pt.ine.add.AC26.95728",
      "street": "R MONS JOSÉ BAPTISTA FERREIRA",
      "house": "",
      "postcode": "9500-328",
      "city": "PONTA DELGADA",
      "lon": "-25.65512795117016",
      "lat": "37.74663865142952"
    },
    {
      "id": "pt.ine.add.AC26.95729",
      "street": "R MONS JOSÉ BAPTISTA FERREIRA",
      "house": "",
      "postcode": "9500-328",
      "city": "PONTA DELGADA",
      "lon": "-25.65512795117016",
      "lat": "37.74663865142952"
    },
    {
      "id": "pt.ine.add.AC26.95747",
      "street": "R LAUREANO",
      "house": "122",
      "postcode": "9500-319",
      "city": "PONTA DELGADA",
      "lon": "-25.655033924788647",
      "lat": "37.74368142493977"
    },
    {
      "id": "pt.ine.add.AC26.98138",
      "street": "R MON JOSÉ BAPTISTA FERREIRA",
      "house": "33 H",
      "postcode": "9500-328",
      "city": "PONTA DELGADA",
      "lon": "-25.654882611138795",
      "lat": "37.7457706358672"
    },
    {
      "id": "pt.ine.add.AC26.98968",
      "street": "R LAUREANO",
      "house": "444",
      "postcode": "9500-319",
      "city": "PONTA DELGADA",
      "lon": "-25.655446830736544",
      "lat": "37.746579201436944"
    },
    {
      "id": "pt.ine.add.AC26.101571",
      "street": "R MON JOSE BAPTISTA FERREIRA",
      "house": "2C",
      "postcode": "9500-328",
      "city": "PONTA DELGADA",
      "lon": "-25.655158243592915",
      "lat": "37.74684628831983"
    },
    {
      "id": "pt.ine.add.AC26.102462",
      "street": "R BARÃO DAS LARANJEIRAS",
      "house": "29 A",
      "postcode": "9500-294",
      "city": "PONTA DELGADA",
      "lon": "-25.6538531548542",
      "lat": "37.74495675424742"
    },
    {
      "id": "pt.ine.add.AC26.102684",
      "street": "R LAUREANO",
      "house": "36",
      "postcode": "9500-319",
      "city": "PONTA DELGADA",
      "lon": "-25.654902066652195",
      "lat": "37.742814704140876"
    },
    {
      "id": "pt.ine.add.AC26.103639",
      "street": "R MONSENHOR JOSE BAPTISTA FERREIRA",
      "house": "8",
      "postcode": "9500-328",
      "city": "PONTA DELGADA",
      "lon": "-25.654951932206977",
      "lat": "37.74633021209272"
    },
    {
      "id": "pt.ine.add.AC26.103640",
      "street": "R MONSENHOR JOSE BAPTISTA FERREIRA",
      "house": "14",
      "postcode": "9500-328",
      "city": "PONTA DELGADA",
      "lon": "-25.654921477418814",
      "lat": "37.74613158594637"
    },
    {
      "id": "pt.ine.add.AC26.104146",
      "street": "R BOA NOVA",
      "house": "43",
      "postcode": "9500-296",
      "city": "PONTA DELGADA",
      "lon": "-25.654338295905696",
      "lat": "37.7426099895084"
    },
    {
      "id": "pt.ine.add.AC26.104269",
      "street": "R LAUREANO",
      "house": "56",
      "postcode": "9500-319",
      "city": "PONTA DELGADA",
      "lon": "-25.654995221966985",
      "lat": "37.743311463961255"
    },
    {
      "id": "pt.ine.add.AC26.104705",
      "street": "R LAUREANO",
      "house": "430",
      "postcode": "9500-319",
      "city": "PONTA DELGADA",
      "lon": "-25.655417842002866",
      "lat": "37.746299478188966"
    },
    {
      "id": "pt.ine.add.AC26.106395",
      "street": "TV LARANJEIRAS",
      "house": "25",
      "postcode": "9500-318",
      "city": "PONTA DELGADA",
      "lon": "-25.65416181165667",
      "lat": "37.743581342044294"
    },
    {
      "id": "pt.ine.add.AC26.107203",
      "street": "R LAUREANO",
      "house": "454",
      "postcode": "9500-319",
      "city": "PONTA DELGADA",
      "lon": "-25.65549818922308",
      "lat": "37.7468772052054"
    },
    {
      "id": "pt.ine.add.AC26.107260",
      "street": "R BARÃO DAS LARANJEIRAS",
      "house": "",
      "postcode": "9500-294",
      "city": "PONTA DELGADA",
      "lon": "-25.654141825906333",
      "lat": "37.745311545114795"
    }
  ]
}