{
  "data": {
    "distrito": "Viana do Castelo",
    "concelho": "Ponte de Lima",
    "freguesia": "Estorãos",
    "OBJECTID": 175,
    "BGRI2021": "16071700146",
    "DT21": "16",
    "DTMN21": "1607",
    "DTMNFR21": "160717",
    "DTMNFRSEC21": "160717001",
    "SECNUM21": "001",
    "SSNUM21": "46",
    "SECSSNUM21": "00146",
    "OBJECTID_1": 175850,
    "DT": "16",
    "CC": "07",
    "fr": "17",
    "SEC": "001",
    "SS": "46"
  },
  "addresses": [
    {
      "id": "pt.ine.add.PTCONT.5138459",
      "street": "R MAOS",
      "house": "",
      "postcode": "4990-590",
      "city": "ESTORÃOS PTL",
      "lon": "-8.659727392139802",
      "lat": "41.81794902116283"
    },
    {
      "id": "pt.ine.add.PTCONT.5163999",
      "street": "R MAOS",
      "house": "",
      "postcode": "4990-590",
      "city": "ESTORÃOS PTL",
      "lon": "-8.660191964132673",
      "lat": "41.81736167529891"
    },
    {
      "id": "pt.ine.add.PTCONT.5165843",
      "street": "R MAOS",
      "house": "",
      "postcode": "4990-590",
      "city": "ESTORÃOS PTL",
      "lon": "-8.659773983646222",
      "lat": "41.81775973807033"
    },
    {
      "id": "pt.ine.add.PTCONT.5179564",
      "street": "R MAOS",
      "house": "",
      "postcode": "4990-590",
      "city": "ESTORÃOS PTL",
      "lon": "-8.660314972649743",
      "lat": "41.81768522993057"
    },
    {
      "id": "pt.ine.add.PTCONT.5195339",
      "street": "R COLADINHA",
      "house": "",
      "postcode": "4990-590",
      "city": "ESTORÃOS PTL",
      "lon": "-8.662675278629258",
      "lat": "41.81638689947278"
    },
    {
      "id": "pt.ine.add.PTCONT.5208152",
      "street": "TV CERNADA",
      "house": "",
      "postcode": "4990-590",
      "city": "ESTORÃOS PTL",
      "lon": "-8.661522597750839",
      "lat": "41.81671632691124"
    },
    {
      "id": "pt.ine.add.PTCONT.5209563",
      "street": "R CERNADA",
      "house": "",
      "postcode": "4990-590",
      "city": "ESTORÃOS PTL",
      "lon": "-8.663414900060006",
      "lat": "41.81704973224948"
    },
    {
      "id": "pt.ine.add.PTCONT.5219015",
      "street": "TV COLADINHA",
      "house": "",
      "postcode": "4990-590",
      "city": "ESTORÃOS PTL",
      "lon": "-8.66141176789987",
      "lat": "41.81641072413391"
    },
    {
      "id": "pt.ine.add.PTCONT.5250153",
      "street": "TV CERNADA",
      "house": "",
      "postcode": "4990-590",
      "city": "ESTORÃOS PTL",
      "lon": "-8.661666202340145",
      "lat": "41.81661662980843"
    },
    {
      "id": "pt.ine.add.PTCONT.5252836",
      "street": "R CANCELA",
      "house": "",
      "postcode": "4990-590",
      "city": "ESTORÃOS PTL",
      "lon": "-8.659533281524883",
      "lat": "41.817760841419776"
    },
    {
      "id": "pt.ine.add.PTCONT.5252837",
      "street": "R MAOS",
      "house": "",
      "postcode": "4990-590",
      "city": "ESTORÃOS PTL",
      "lon": "-8.660469430458974",
      "lat": "41.81597389198259"
    },
    {
      "id": "pt.ine.add.PTCONT.5282813",
      "street": "R COLADINHA",
      "house": "",
      "postcode": "4990-590",
      "city": "ESTORÃOS PTL",
      "lon": "-8.661201110710445",
      "lat": "41.81567342125965"
    }
  ]
}