{
  "data": {
    "distrito": "Bragança",
    "concelho": "Alfândega da Fé",
    "freguesia": "Alfândega da Fé",
    "OBJECTID": 25,
    "BGRI2021": "04010200111",
    "DT21": "04",
    "DTMN21": "0401",
    "DTMNFR21": "040102",
    "DTMNFRSEC21": "040102001",
    "SECNUM21": "001",
    "SSNUM21": "11",
    "SECSSNUM21": "00111",
    "OBJECTID_1": 33450,
    "DT": "04",
    "CC": "01",
    "fr": "02",
    "SEC": "001",
    "SS": "11"
  },
  "addresses": [
    {
      "id": "pt.ine.add.PTCONT.849537",
      "street": "BR DE TRÁS DO CASTELO",
      "house": "31",
      "postcode": "5350-052",
      "city": "ALFÂNDEGA DA FÉ",
      "lon": "-6.9666579588173665",
      "lat": "41.3388928329739"
    },
    {
      "id": "pt.ine.add.PTCONT.850929",
      "street": "BR DE TRÁS DO CASTELO",
      "house": "38",
      "postcode": "5350-052",
      "city": "ALFÂNDEGA DA FÉ",
      "lon": "-6.967377200906415",
      "lat": "41.33875605912353"
    },
    {
      "id": "pt.ine.add.PTCONT.854546",
      "street": "R DAS BARREIRINHAS",
      "house": "61",
      "postcode": "5350-055",
      "city": "ALFÂNDEGA DA FÉ",
      "lon": "-6.9661880418682385",
      "lat": "41.342462601288574"
    },
    {
      "id": "pt.ine.add.PTCONT.855751",
      "street": "R DE TRÁS DO CASTELO",
      "house": "",
      "postcode": "5350-024",
      "city": "ALFÂNDEGA DA FÉ",
      "lon": "-6.966810843522842",
      "lat": "41.341037301447805"
    },
    {
      "id": "pt.ine.add.PTCONT.855776",
      "street": "BC DAS AGRADINHAS",
      "house": "26",
      "postcode": "5350-007",
      "city": "ALFÂNDEGA DA FÉ",
      "lon": "-6.963841385046993",
      "lat": "41.34073705273464"
    },
    {
      "id": "pt.ine.add.PTCONT.856341",
      "street": "R DE TRÁS DO CASTELO",
      "house": "6",
      "postcode": "5350-024",
      "city": "ALFÂNDEGA DA FÉ",
      "lon": "-6.966120556999843",
      "lat": "41.34021995613028"
    },
    {
      "id": "pt.ine.add.PTCONT.857078",
      "street": "TV DE TRÁS DO CASTELO",
      "house": "9",
      "postcode": "5350-033",
      "city": "ALFÂNDEGA DA FÉ",
      "lon": "-6.966991362603802",
      "lat": "41.341633385518655"
    },
    {
      "id": "pt.ine.add.PTCONT.858816",
      "street": "R DE TRÁS DO CASTELO",
      "house": "16",
      "postcode": "5350-024",
      "city": "ALFÂNDEGA DA FÉ",
      "lon": "-6.966558985963394",
      "lat": "41.342430346708504"
    },
    {
      "id": "pt.ine.add.PTCONT.858903",
      "street": "R DO PORTO",
      "house": "454",
      "postcode": "5350-039",
      "city": "ALFÂNDEGA DA FÉ",
      "lon": "-6.967573309848369",
      "lat": "41.338541427834066"
    },
    {
      "id": "pt.ine.add.PTCONT.859997",
      "street": "BR DE TRÁS DO CASTELO",
      "house": "29",
      "postcode": "5350-052",
      "city": "ALFÂNDEGA DA FÉ",
      "lon": "-6.966234757069501",
      "lat": "41.339176666233705"
    },
    {
      "id": "pt.ine.add.PTCONT.860001",
      "street": "R DO PORTO",
      "house": "420",
      "postcode": "5350-039",
      "city": "ALFÂNDEGA DA FÉ",
      "lon": "-6.9671886574448445",
      "lat": "41.338610087269494"
    },
    {
      "id": "pt.ine.add.PTCONT.862430",
      "street": "R DO CASTELO",
      "house": "61",
      "postcode": "5350-033",
      "city": "ALFÂNDEGA DA FÉ",
      "lon": "-6.966610888093406",
      "lat": "41.34153048702839"
    },
    {
      "id": "pt.ine.add.PTCONT.864111",
      "street": "BR DE TRÁS DO CASTELO",
      "house": "19",
      "postcode": "5350-052",
      "city": "ALFÂNDEGA DA FÉ",
      "lon": "-6.966023662298633",
      "lat": "41.33962471869497"
    },
    {
      "id": "pt.ine.add.PTCONT.864112",
      "street": "AV DR FRANCISCO SÁ CARNEIRO",
      "house": "92",
      "postcode": "5350-005",
      "city": "ALFÂNDEGA DA FÉ",
      "lon": "-6.964093484877958",
      "lat": "41.34000129745554"
    },
    {
      "id": "pt.ine.add.PTCONT.864732",
      "street": "AV DR FRANCISCO SÁ CARNEIRO",
      "house": "62",
      "postcode": "5350-005",
      "city": "ALFÂNDEGA DA FÉ",
      "lon": "-6.963040272507477",
      "lat": "41.34077392951736"
    },
    {
      "id": "pt.ine.add.PTCONT.864733",
      "street": "AV DR FRANCISCO SÁ CARNEIRO",
      "house": "62",
      "postcode": "5350-005",
      "city": "ALFÂNDEGA DA FÉ",
      "lon": "-6.963040272507477",
      "lat": "41.34077392951736"
    },
    {
      "id": "pt.ine.add.PTCONT.864734",
      "street": "AV DR FRANCISCO SÁ CARNEIRO",
      "house": "62",
      "postcode": "5350-005",
      "city": "ALFÂNDEGA DA FÉ",
      "lon": "-6.963040272507477",
      "lat": "41.34077392951736"
    },
    {
      "id": "pt.ine.add.PTCONT.864735",
      "street": "AV DR FRANCISCO SÁ CARNEIRO",
      "house": "62",
      "postcode": "5350-005",
      "city": "ALFÂNDEGA DA FÉ",
      "lon": "-6.963040272507477",
      "lat": "41.34077392951736"
    },
    {
      "id": "pt.ine.add.PTCONT.864736",
      "street": "AV DR FRANCISCO SÁ CARNEIRO",
      "house": "62",
      "postcode": "5350-005",
      "city": "ALFÂNDEGA DA FÉ",
      "lon": "-6.963040272507477",
      "lat": "41.34077392951736"
    },
    {
      "id": "pt.ine.add.PTCONT.864737",
      "street": "AV DR FRANCISCO SÁ CARNEIRO",
      "house": "62",
      "postcode": "5350-005",
      "city": "ALFÂNDEGA DA FÉ",
      "lon": "-6.963040272507477",
      "lat": "41.34077392951736"
    },
    {
      "id": "pt.ine.add.PTCONT.864738",
      "street": "AV DR FRANCISCO SÁ CARNEIRO",
      "house": "62",
      "postcode": "5350-005",
      "city": "ALFÂNDEGA DA FÉ",
      "lon": "-6.963040272507477",
      "lat": "41.34077392951736"
    },
    {
      "id": "pt.ine.add.PTCONT.864739",
      "street": "AV DR FRANCISCO SÁ CARNEIRO",
      "house": "62",
      "postcode": "5350-005",
      "city": "ALFÂNDEGA DA FÉ",
      "lon": "-6.963040272507477",
      "lat": "41.34077392951736"
    },
    {
      "id": "pt.ine.add.PTCONT.864740",
      "street": "AV DR FRANCISCO SÁ CARNEIRO",
      "house": "62",
      "postcode": "5350-005",
      "city": "ALFÂNDEGA DA FÉ",
      "lon": "-6.963040272507477",
      "lat": "41.34077392951736"
    },
    {
      "id": "pt.ine.add.PTCONT.864741",
      "street": "AV DR FRANCISCO SÁ CARNEIRO",
      "house": "62",
      "postcode": "5350-005",
      "city": "ALFÂNDEGA DA FÉ",
      "lon": "-6.963040272507477",
      "lat": "41.34077392951736"
    },
    {
      "id": "pt.ine.add.PTCONT.867828",
      "street": "R DO PORTO",
      "house": "64",
      "postcode": "5350-039",
      "city": "ALFÂNDEGA DA FÉ",
      "lon": "-6.963816018077446",
      "lat": "41.34015154414591"
    },
    {
      "id": "pt.ine.add.PTCONT.867829",
      "street": "R DO PORTO",
      "house": "64",
      "postcode": "5350-039",
      "city": "ALFÂNDEGA DA FÉ",
      "lon": "-6.963816018077446",
      "lat": "41.34015154414591"
    },
    {
      "id": "pt.ine.add.PTCONT.867831",
      "street": "BR DE TRÁS DO CASTELO",
      "house": "24",
      "postcode": "5350-052",
      "city": "ALFÂNDEGA DA FÉ",
      "lon": "-6.96672904144062",
      "lat": "41.33959585469045"
    },
    {
      "id": "pt.ine.add.PTCONT.870102",
      "street": "BR DE TRÁS DO CASTELO",
      "house": "7",
      "postcode": "5350-052",
      "city": "ALFÂNDEGA DA FÉ",
      "lon": "-6.9673328253852524",
      "lat": "41.34057438968237"
    },
    {
      "id": "pt.ine.add.PTCONT.870811",
      "street": "AV DR FRANCISCO SÁ CARNEIRO",
      "house": "48",
      "postcode": "5350-005",
      "city": "ALFÂNDEGA DA FÉ",
      "lon": "-6.96349173731737",
      "lat": "41.340247291217864"
    },
    {
      "id": "pt.ine.add.PTCONT.871583",
      "street": "R DE TRÁS DO CASTELO",
      "house": "28",
      "postcode": "5350-024",
      "city": "ALFÂNDEGA DA FÉ",
      "lon": "-6.966404341137153",
      "lat": "41.34239276354507"
    },
    {
      "id": "pt.ine.add.PTCONT.871588",
      "street": "LG D DINIS",
      "house": "44",
      "postcode": "5350-014",
      "city": "ALFÂNDEGA DA FÉ",
      "lon": "-6.966734572528627",
      "lat": "41.34196392588976"
    },
    {
      "id": "pt.ine.add.PTCONT.875196",
      "street": "BR DE TRÁS DO CASTELO",
      "house": "25",
      "postcode": "5350-052",
      "city": "ALFÂNDEGA DA FÉ",
      "lon": "-6.966635090444952",
      "lat": "41.3395048638074"
    },
    {
      "id": "pt.ine.add.PTCONT.876044",
      "street": "BR DE TRÁS DO CASTELO",
      "house": "37",
      "postcode": "5350-052",
      "city": "ALFÂNDEGA DA FÉ",
      "lon": "-6.967257273908154",
      "lat": "41.33878185582591"
    },
    {
      "id": "pt.ine.add.PTCONT.878876",
      "street": "BR DE TRÁS DO CASTELO",
      "house": "23",
      "postcode": "5350-052",
      "city": "ALFÂNDEGA DA FÉ",
      "lon": "-6.966811369243115",
      "lat": "41.33966871997654"
    },
    {
      "id": "pt.ine.add.PTCONT.880840",
      "street": "BR DE TRÁS DO CASTELO",
      "house": "16",
      "postcode": "5350-052",
      "city": "ALFÂNDEGA DA FÉ",
      "lon": "-6.966341669574525",
      "lat": "41.33988005144139"
    },
    {
      "id": "pt.ine.add.PTCONT.883827",
      "street": "BC DAS AGRADINHAS",
      "house": "",
      "postcode": "5350-007",
      "city": "ALFÂNDEGA DA FÉ",
      "lon": "-6.963915308722277",
      "lat": "41.34061174979015"
    },
    {
      "id": "pt.ine.add.PTCONT.885154",
      "street": "R 13 DE JANEIRO",
      "house": "22",
      "postcode": "5350-018",
      "city": "ALFÂNDEGA DA FÉ",
      "lon": "-6.964090778503998",
      "lat": "41.340820621160304"
    },
    {
      "id": "pt.ine.add.PTCONT.886413",
      "street": "R JOÃO AFONSO",
      "house": "",
      "postcode": "5350-073",
      "city": "ALFÂNDEGA DA FÉ",
      "lon": "-6.965647910412538",
      "lat": "41.33992703866378"
    },
    {
      "id": "pt.ine.add.PTCONT.886415",
      "street": "BR DE TRÁS DO CASTELO",
      "house": "34",
      "postcode": "5350-052",
      "city": "ALFÂNDEGA DA FÉ",
      "lon": "-6.966969480856348",
      "lat": "41.33884196694908"
    },
    {
      "id": "pt.ine.add.PTCONT.887003",
      "street": "R 13 DE JANEIRO",
      "house": "81",
      "postcode": "5350-018",
      "city": "ALFÂNDEGA DA FÉ",
      "lon": "-6.963944863353916",
      "lat": "41.34096320054614"
    },
    {
      "id": "pt.ine.add.PTCONT.887004",
      "street": "AV DR FRANCISCO SÁ CARNEIRO",
      "house": "80",
      "postcode": "5350-005",
      "city": "ALFÂNDEGA DA FÉ",
      "lon": "-6.963050102463383",
      "lat": "41.34022479407959"
    },
    {
      "id": "pt.ine.add.PTCONT.887686",
      "street": "R DO PORTO",
      "house": "",
      "postcode": "5350-039",
      "city": "ALFÂNDEGA DA FÉ",
      "lon": "-6.965992117751275",
      "lat": "41.33871500872327"
    },
    {
      "id": "pt.ine.add.PTCONT.889536",
      "street": "R DO QUEBRA COSTAS",
      "house": "28",
      "postcode": "5350-010",
      "city": "ALFÂNDEGA DA FÉ",
      "lon": "-6.964491915574924",
      "lat": "41.34110381497209"
    },
    {
      "id": "pt.ine.add.PTCONT.890945",
      "street": "BR DE TRÁS DO CASTELO",
      "house": "21",
      "postcode": "5350-052",
      "city": "ALFÂNDEGA DA FÉ",
      "lon": "-6.966977149607041",
      "lat": "41.339751434738325"
    },
    {
      "id": "pt.ine.add.PTCONT.891832",
      "street": "R JOÃO AFONSO",
      "house": "61",
      "postcode": "5350-073",
      "city": "ALFÂNDEGA DA FÉ",
      "lon": "-6.965592045735495",
      "lat": "41.33971037925556"
    },
    {
      "id": "pt.ine.add.PTCONT.893343",
      "street": "R JOÃO AFONSO",
      "house": "53",
      "postcode": "5350-073",
      "city": "ALFÂNDEGA DA FÉ",
      "lon": "-6.965568960309666",
      "lat": "41.33966512574061"
    },
    {
      "id": "pt.ine.add.PTCONT.894120",
      "street": "R DA FONTE DE VILARELHOS",
      "house": "",
      "postcode": "5350-037",
      "city": "ALFÂNDEGA DA FÉ",
      "lon": "-6.966460692668314",
      "lat": "41.342582415841306"
    },
    {
      "id": "pt.ine.add.PTCONT.894838",
      "street": "TV DAS BARREIRINHAS",
      "house": "31",
      "postcode": "5350-055",
      "city": "ALFÂNDEGA DA FÉ",
      "lon": "-6.966791406601569",
      "lat": "41.34212657135669"
    },
    {
      "id": "pt.ine.add.PTCONT.894839",
      "street": "BR DE TRÁS DO CASTELO",
      "house": "14",
      "postcode": "5350-052",
      "city": "ALFÂNDEGA DA FÉ",
      "lon": "-6.966541838146458",
      "lat": "41.3400441502242"
    },
    {
      "id": "pt.ine.add.PTCONT.895350",
      "street": "R 13 DE JANEIRO",
      "house": "53",
      "postcode": "5350-018",
      "city": "ALFÂNDEGA DA FÉ",
      "lon": "-6.963539863624963",
      "lat": "41.34089605817756"
    },
    {
      "id": "pt.ine.add.PTCONT.896124",
      "street": "BR DE TRÁS DO CASTELO",
      "house": "30",
      "postcode": "5350-052",
      "city": "ALFÂNDEGA DA FÉ",
      "lon": "-6.966116275320431",
      "lat": "41.339121441637225"
    },
    {
      "id": "pt.ine.add.PTCONT.897253",
      "street": "LG D DINIS",
      "house": "46",
      "postcode": "5350-014",
      "city": "ALFÂNDEGA DA FÉ",
      "lon": "-6.966828527120471",
      "lat": "41.34205491670161"
    },
    {
      "id": "pt.ine.add.PTCONT.897694",
      "street": "BC DAS AGRADINHAS",
      "house": "46",
      "postcode": "5350-007",
      "city": "ALFÂNDEGA DA FÉ",
      "lon": "-6.963972295669669",
      "lat": "41.3407653943564"
    },
    {
      "id": "pt.ine.add.PTCONT.897695",
      "street": "BR DE TRÁS DO CASTELO",
      "house": "28",
      "postcode": "5350-052",
      "city": "ALFÂNDEGA DA FÉ",
      "lon": "-6.966328546351351",
      "lat": "41.33927665966792"
    },
    {
      "id": "pt.ine.add.PTCONT.898615",
      "street": "R DAS BARREIRINHAS",
      "house": "",
      "postcode": "5350-055",
      "city": "ALFÂNDEGA DA FÉ",
      "lon": "-6.966505526504647",
      "lat": "41.34207865433516"
    },
    {
      "id": "pt.ine.add.PTCONT.898617",
      "street": "R DO CASTELO",
      "house": "1",
      "postcode": "5350-033",
      "city": "ALFÂNDEGA DA FÉ",
      "lon": "-6.966032171747917",
      "lat": "41.34115546121759"
    },
    {
      "id": "pt.ine.add.PTCONT.898618",
      "street": "R DE TRÁS DO CASTELO",
      "house": "3",
      "postcode": "5350-024",
      "city": "ALFÂNDEGA DA FÉ",
      "lon": "-6.96634413360544",
      "lat": "41.34041130420134"
    },
    {
      "id": "pt.ine.add.PTCONT.898621",
      "street": "R 13 DE JANEIRO",
      "house": "",
      "postcode": "5350-018",
      "city": "ALFÂNDEGA DA FÉ",
      "lon": "-6.964338207846088",
      "lat": "41.340345929834726"
    },
    {
      "id": "pt.ine.add.PTCONT.903066",
      "street": "BR DE TRÁS DO CASTELO",
      "house": "13",
      "postcode": "5350-052",
      "city": "ALFÂNDEGA DA FÉ",
      "lon": "-6.966648055847524",
      "lat": "41.3401172577927"
    },
    {
      "id": "pt.ine.add.PTCONT.903071",
      "street": "LG DAS FRAGUINHAS",
      "house": "5",
      "postcode": "5350-012",
      "city": "ALFÂNDEGA DA FÉ",
      "lon": "-6.964313224263162",
      "lat": "41.34107498866902"
    },
    {
      "id": "pt.ine.add.PTCONT.904883",
      "street": "BR DE TRÁS DO CASTELO",
      "house": "36",
      "postcode": "5350-052",
      "city": "ALFÂNDEGA DA FÉ",
      "lon": "-6.967173501580222",
      "lat": "41.3387900109826"
    },
    {
      "id": "pt.ine.add.PTCONT.905273",
      "street": "BR DE TRÁS DO CASTELO",
      "house": "40",
      "postcode": "5350-052",
      "city": "ALFÂNDEGA DA FÉ",
      "lon": "-6.967580739516678",
      "lat": "41.338731109138514"
    },
    {
      "id": "pt.ine.add.PTCONT.905351",
      "street": "R DO PORTO",
      "house": "",
      "postcode": "5350-039",
      "city": "ALFÂNDEGA DA FÉ",
      "lon": "-6.965334408808918",
      "lat": "41.33941964161896"
    },
    {
      "id": "pt.ine.add.PTCONT.906922",
      "street": "R JOÃO AFONSO",
      "house": "58",
      "postcode": "5350-073",
      "city": "ALFÂNDEGA DA FÉ",
      "lon": "-6.965565583607673",
      "lat": "41.339854172561246"
    },
    {
      "id": "pt.ine.add.PTCONT.908294",
      "street": "BR DE TRÁS DO CASTELO",
      "house": "11",
      "postcode": "5350-052",
      "city": "ALFÂNDEGA DA FÉ",
      "lon": "-6.966896165767723",
      "lat": "41.34027283802483"
    },
    {
      "id": "pt.ine.add.PTCONT.908423",
      "street": "R 13 DE JANEIRO",
      "house": "16",
      "postcode": "5350-018",
      "city": "ALFÂNDEGA DA FÉ",
      "lon": "-6.9641850497426",
      "lat": "41.3408936096319"
    },
    {
      "id": "pt.ine.add.PTCONT.909153",
      "street": "AV DR FRANCISCO SÁ CARNEIRO",
      "house": "",
      "postcode": "5350-005",
      "city": "ALFÂNDEGA DA FÉ",
      "lon": "-6.963069157757685",
      "lat": "41.34049510358915"
    },
    {
      "id": "pt.ine.add.PTCONT.911479",
      "street": "R JOÃO AFONSO",
      "house": "7",
      "postcode": "5350-073",
      "city": "ALFÂNDEGA DA FÉ",
      "lon": "-6.965647702916156",
      "lat": "41.33926975469298"
    },
    {
      "id": "pt.ine.add.PTCONT.911483",
      "street": "BR DE TRÁS DO CASTELO",
      "house": "39",
      "postcode": "5350-052",
      "city": "ALFÂNDEGA DA FÉ",
      "lon": "-6.967448868106287",
      "lat": "41.33875678506834"
    },
    {
      "id": "pt.ine.add.PTCONT.912898",
      "street": "R DAS BARREIRINHAS",
      "house": "",
      "postcode": "5350-055",
      "city": "ALFÂNDEGA DA FÉ",
      "lon": "-6.966127029973653",
      "lat": "41.342534013455705"
    },
    {
      "id": "pt.ine.add.PTCONT.913665",
      "street": "R DO PORTO",
      "house": "398",
      "postcode": "5350-039",
      "city": "ALFÂNDEGA DA FÉ",
      "lon": "-6.966937180441851",
      "lat": "41.33864355465054"
    },
    {
      "id": "pt.ine.add.PTCONT.914463",
      "street": "R DO QUEBRA COSTAS",
      "house": "35",
      "postcode": "5350-010",
      "city": "ALFÂNDEGA DA FÉ",
      "lon": "-6.964959538423212",
      "lat": "41.34100952023093"
    },
    {
      "id": "pt.ine.add.PTCONT.916521",
      "street": "BC DAS AGRADINHAS",
      "house": "",
      "postcode": "5350-007",
      "city": "ALFÂNDEGA DA FÉ",
      "lon": "-6.9639471177044765",
      "lat": "41.34083716943033"
    },
    {
      "id": "pt.ine.add.PTCONT.916670",
      "street": "BR DE TRÁS DO CASTELO",
      "house": "18",
      "postcode": "5350-052",
      "city": "ALFÂNDEGA DA FÉ",
      "lon": "-6.966141502006254",
      "lat": "41.33971595231899"
    },
    {
      "id": "pt.ine.add.PTCONT.916671",
      "street": "R DO QUEBRA COSTAS",
      "house": "27",
      "postcode": "5350-010",
      "city": "ALFÂNDEGA DA FÉ",
      "lon": "-6.964851712213385",
      "lat": "41.34102643337413"
    },
    {
      "id": "pt.ine.add.PTCONT.916672",
      "street": "BR DE TRÁS DO CASTELO",
      "house": "41",
      "postcode": "5350-052",
      "city": "ALFÂNDEGA DA FÉ",
      "lon": "-6.96724834562033",
      "lat": "41.339952267459594"
    },
    {
      "id": "pt.ine.add.PTCONT.917384",
      "street": "BR DE TRÁS DO CASTELO",
      "house": "15",
      "postcode": "5350-052",
      "city": "ALFÂNDEGA DA FÉ",
      "lon": "-6.966447565434506",
      "lat": "41.33997116365439"
    },
    {
      "id": "pt.ine.add.PTCONT.918033",
      "street": "R 13 DE JANEIRO",
      "house": "39",
      "postcode": "5350-018",
      "city": "ALFÂNDEGA DA FÉ",
      "lon": "-6.964315477912408",
      "lat": "41.340948957539105"
    },
    {
      "id": "pt.ine.add.PTCONT.918107",
      "street": "TV DAS BARREIRINHAS",
      "house": "30",
      "postcode": "5350-055",
      "city": "ALFÂNDEGA DA FÉ",
      "lon": "-6.966859864861851",
      "lat": "41.3423073423114"
    },
    {
      "id": "pt.ine.add.PTCONT.918838",
      "street": "BR DE TRÁS DO CASTELO",
      "house": "12",
      "postcode": "5350-052",
      "city": "ALFÂNDEGA DA FÉ",
      "lon": "-6.966789947535015",
      "lat": "41.340199730680325"
    },
    {
      "id": "pt.ine.add.PTCONT.918845",
      "street": "R DO QUEBRA COSTAS",
      "house": "50",
      "postcode": "5350-010",
      "city": "ALFÂNDEGA DA FÉ",
      "lon": "-6.96515178340187",
      "lat": "41.34094844450091"
    },
    {
      "id": "pt.ine.add.PTCONT.918846",
      "street": "R 13 DE JANEIRO",
      "house": "47",
      "postcode": "5350-018",
      "city": "ALFÂNDEGA DA FÉ",
      "lon": "-6.963181999815624",
      "lat": "41.3408654090235"
    },
    {
      "id": "pt.ine.add.PTCONT.918850",
      "street": "BR DE TRÁS DO CASTELO",
      "house": "35",
      "postcode": "5350-052",
      "city": "ALFÂNDEGA DA FÉ",
      "lon": "-6.967065358402807",
      "lat": "41.33882493073412"
    },
    {
      "id": "pt.ine.add.PTCONT.920046",
      "street": "R DE TRÁS DO CASTELO",
      "house": "",
      "postcode": "5350-024",
      "city": "ALFÂNDEGA DA FÉ",
      "lon": "-6.9661033082931345",
      "lat": "41.340516908602034"
    },
    {
      "id": "pt.ine.add.PTCONT.920047",
      "street": "R JOÃO AFONSO",
      "house": "",
      "postcode": "5350-073",
      "city": "ALFÂNDEGA DA FÉ",
      "lon": "-6.965632060265212",
      "lat": "41.339476684815736"
    },
    {
      "id": "pt.ine.add.PTCONT.920493",
      "street": "BR DE TRÁS DO CASTELO",
      "house": "10",
      "postcode": "5350-052",
      "city": "ALFÂNDEGA DA FÉ",
      "lon": "-6.967002384238431",
      "lat": "41.340345945273484"
    },
    {
      "id": "pt.ine.add.PTCONT.920497",
      "street": "R DE QUEBRA COSTAS",
      "house": "8",
      "postcode": "5350-010",
      "city": "ALFÂNDEGA DA FÉ",
      "lon": "-6.965020710994644",
      "lat": "41.34092910643631"
    },
    {
      "id": "pt.ine.add.PTCONT.921280",
      "street": "R DAS BARREIRINHAS",
      "house": "1",
      "postcode": "5350-055",
      "city": "ALFÂNDEGA DA FÉ",
      "lon": "-6.966597713595306",
      "lat": "41.342268669849254"
    },
    {
      "id": "pt.ine.add.PTCONT.921287",
      "street": "R DO QUEBRA COSTAS",
      "house": "13",
      "postcode": "5350-010",
      "city": "ALFÂNDEGA DA FÉ",
      "lon": "-6.9647317800925705",
      "lat": "41.34105222736647"
    },
    {
      "id": "pt.ine.add.PTCONT.922710",
      "street": "R DE TRÁS DO CASTELO",
      "house": "1",
      "postcode": "5350-024",
      "city": "ALFÂNDEGA DA FÉ",
      "lon": "-6.966497649034599",
      "lat": "41.34051190301619"
    },
    {
      "id": "pt.ine.add.PTCONT.922798",
      "street": "BR DE TRÁS DO CASTELO",
      "house": "22",
      "postcode": "5350-052",
      "city": "ALFÂNDEGA DA FÉ",
      "lon": "-6.966906605604096",
      "lat": "41.33968769284818"
    },
    {
      "id": "pt.ine.add.PTCONT.925829",
      "street": "LG D DINIS",
      "house": "60",
      "postcode": "5350-014",
      "city": "ALFÂNDEGA DA FÉ",
      "lon": "-6.966542647306423",
      "lat": "41.34200699977548"
    },
    {
      "id": "pt.ine.add.PTCONT.925837",
      "street": "R DO PORTO",
      "house": "134",
      "postcode": "5350-039",
      "city": "ALFÂNDEGA DA FÉ",
      "lon": "-6.96451509176324",
      "lat": "41.339807494565314"
    },
    {
      "id": "pt.ine.add.PTCONT.925841",
      "street": "R DO PORTO",
      "house": "430",
      "postcode": "5350-039",
      "city": "ALFÂNDEGA DA FÉ",
      "lon": "-6.967368467200468",
      "lat": "41.33857589338756"
    },
    {
      "id": "pt.ine.add.PTCONT.926637",
      "street": "R DO CASTELO",
      "house": "4",
      "postcode": "5350-033",
      "city": "ALFÂNDEGA DA FÉ",
      "lon": "-6.96688209021702",
      "lat": "41.34173132063409"
    },
    {
      "id": "pt.ine.add.PTCONT.927946",
      "street": "R DE TRÁS DO CASTELO",
      "house": "4",
      "postcode": "5350-024",
      "city": "ALFÂNDEGA DA FÉ",
      "lon": "-6.966249860597918",
      "lat": "41.34033831747005"
    },
    {
      "id": "pt.ine.add.PTCONT.927947",
      "street": "R DO QUEBRA COSTAS",
      "house": "1",
      "postcode": "5350-010",
      "city": "ALFÂNDEGA DA FÉ",
      "lon": "-6.9646668693385285",
      "lat": "41.3406734062502"
    },
    {
      "id": "pt.ine.add.PTCONT.928573",
      "street": "R DE QUEBRA COSTAS",
      "house": "38",
      "postcode": "5350-010",
      "city": "ALFÂNDEGA DA FÉ",
      "lon": "-6.96493967076577",
      "lat": "41.3407842220831"
    },
    {
      "id": "pt.ine.add.PTCONT.928574",
      "street": "R DO QUEBRA COSTAS",
      "house": "29",
      "postcode": "5350-010",
      "city": "ALFÂNDEGA DA FÉ",
      "lon": "-6.964841859004821",
      "lat": "41.34090928318223"
    },
    {
      "id": "pt.ine.add.PTCONT.928575",
      "street": "R DO PORTO",
      "house": "266",
      "postcode": "5350-039",
      "city": "ALFÂNDEGA DA FÉ",
      "lon": "-6.965724354520328",
      "lat": "41.33899141255993"
    },
    {
      "id": "pt.ine.add.PTCONT.928925",
      "street": "R DE TRÁS DO CASTELO",
      "house": "5",
      "postcode": "5350-024",
      "city": "ALFÂNDEGA DA FÉ",
      "lon": "-6.966202884883932",
      "lat": "41.34029282184539"
    },
    {
      "id": "pt.ine.add.PTCONT.931356",
      "street": "R 13 DE JANEIRO",
      "house": "6",
      "postcode": "5350-018",
      "city": "ALFÂNDEGA DA FÉ",
      "lon": "-6.9641837618036035",
      "lat": "41.34096562741813"
    },
    {
      "id": "pt.ine.add.PTCONT.931363",
      "street": "R DO PORTO",
      "house": "288",
      "postcode": "5350-039",
      "city": "ALFÂNDEGA DA FÉ",
      "lon": "-6.965896400851879",
      "lat": "41.33872304181053"
    },
    {
      "id": "pt.ine.add.PTCONT.931364",
      "street": "R DO PORTO",
      "house": "326",
      "postcode": "5350-039",
      "city": "ALFÂNDEGA DA FÉ",
      "lon": "-6.966017131882537",
      "lat": "41.33865223536834"
    },
    {
      "id": "pt.ine.add.PTCONT.933654",
      "street": "TV DE TRÁS DO CASTELO",
      "house": "12",
      "postcode": "5350-033",
      "city": "ALFÂNDEGA DA FÉ",
      "lon": "-6.967062229947626",
      "lat": "41.34167912290168"
    },
    {
      "id": "pt.ine.add.PTCONT.933661",
      "street": "BR DE TRÁS DO CASTELO",
      "house": "33",
      "postcode": "5350-052",
      "city": "ALFÂNDEGA DA FÉ",
      "lon": "-6.966861819323902",
      "lat": "41.33884987980066"
    },
    {
      "id": "pt.ine.add.PTCONT.934390",
      "street": "R JOÃO AFONSO",
      "house": "75",
      "postcode": "5350-073",
      "city": "ALFÂNDEGA DA FÉ",
      "lon": "-6.96565096531768",
      "lat": "41.33975599629967"
    },
    {
      "id": "pt.ine.add.PTCONT.934391",
      "street": "R JOÃO AFONSO",
      "house": "75",
      "postcode": "5350-073",
      "city": "ALFÂNDEGA DA FÉ",
      "lon": "-6.96565096531768",
      "lat": "41.33975599629967"
    },
    {
      "id": "pt.ine.add.PTCONT.934396",
      "street": "BR DE TRÁS DO CASTELO",
      "house": "26",
      "postcode": "5350-052",
      "city": "ALFÂNDEGA DA FÉ",
      "lon": "-6.966541139709712",
      "lat": "41.33941387284973"
    },
    {
      "id": "pt.ine.add.PTCONT.935983",
      "street": "R JOÃO AFONSO",
      "house": "",
      "postcode": "5350-073",
      "city": "ALFÂNDEGA DA FÉ",
      "lon": "-6.965706508671407",
      "lat": "41.339990660139996"
    },
    {
      "id": "pt.ine.add.PTCONT.935984",
      "street": "BR DE TRÁS DO CASTELO",
      "house": "27",
      "postcode": "5350-052",
      "city": "ALFÂNDEGA DA FÉ",
      "lon": "-6.966422978619528",
      "lat": "41.339340644096026"
    },
    {
      "id": "pt.ine.add.PTCONT.937210",
      "street": "LG D DINIS",
      "house": "20",
      "postcode": "5350-014",
      "city": "ALFÂNDEGA DA FÉ",
      "lon": "-6.966961208523453",
      "lat": "41.34198423043531"
    },
    {
      "id": "pt.ine.add.PTCONT.937211",
      "street": "R JOÃO AFONSO",
      "house": "73",
      "postcode": "5350-073",
      "city": "ALFÂNDEGA DA FÉ",
      "lon": "-6.9657686439605575",
      "lat": "41.339856232529655"
    },
    {
      "id": "pt.ine.add.PTCONT.937212",
      "street": "LG DAS FRAGUINHAS",
      "house": "13",
      "postcode": "5350-012",
      "city": "ALFÂNDEGA DA FÉ",
      "lon": "-6.96442201644281",
      "lat": "41.34100406269017"
    },
    {
      "id": "pt.ine.add.PTCONT.937213",
      "street": "R DO PORTO",
      "house": "306",
      "postcode": "5350-039",
      "city": "ALFÂNDEGA DA FÉ",
      "lon": "-6.965909149084325",
      "lat": "41.33867815179649"
    },
    {
      "id": "pt.ine.add.PTCONT.938496",
      "street": "R DE TRÁS DO CASTELO",
      "house": "2",
      "postcode": "5350-024",
      "city": "ALFÂNDEGA DA FÉ",
      "lon": "-6.966403215026156",
      "lat": "41.34044791863896"
    },
    {
      "id": "pt.ine.add.PTCONT.941435",
      "street": "BR DE TRÁS DO CASTELO",
      "house": "8",
      "postcode": "5350-052",
      "city": "ALFÂNDEGA DA FÉ",
      "lon": "-6.9672387115932155",
      "lat": "41.34049240151179"
    },
    {
      "id": "pt.ine.add.PTCONT.941469",
      "street": "LG DO QUEBRA COSTAS",
      "house": "34",
      "postcode": "5350-010",
      "city": "ALFÂNDEGA DA FÉ",
      "lon": "-6.9648310404109175",
      "lat": "41.34084614634079"
    },
    {
      "id": "pt.ine.add.PTCONT.942381",
      "street": "R DO PORTO",
      "house": "152",
      "postcode": "5350-039",
      "city": "ALFÂNDEGA DA FÉ",
      "lon": "-6.964731866624813",
      "lat": "41.33971065316198"
    },
    {
      "id": "pt.ine.add.PTCONT.943011",
      "street": "LG DA MISERICÓRDIA",
      "house": "23",
      "postcode": "5350-010",
      "city": "ALFÂNDEGA DA FÉ",
      "lon": "-6.96540246600141",
      "lat": "41.34095999229947"
    },
    {
      "id": "pt.ine.add.PTCONT.944486",
      "street": "BR DE TRÁS DO CASTELO",
      "house": "9",
      "postcode": "5350-052",
      "city": "ALFÂNDEGA DA FÉ",
      "lon": "-6.967120547782976",
      "lat": "41.34041917345203"
    },
    {
      "id": "pt.ine.add.PTCONT.944493",
      "street": "BR DE TRÁS DO CASTELO",
      "house": "32",
      "postcode": "5350-052",
      "city": "ALFÂNDEGA DA FÉ",
      "lon": "-6.966777886242351",
      "lat": "41.3388670369024"
    },
    {
      "id": "pt.ine.add.PTCONT.945546",
      "street": "R DO CASTELO",
      "house": "27",
      "postcode": "5350-033",
      "city": "ALFÂNDEGA DA FÉ",
      "lon": "-6.96630497755825",
      "lat": "41.34126627386146"
    },
    {
      "id": "pt.ine.add.PTCONT.946902",
      "street": "R DO QUEBRA COSTAS",
      "house": "35",
      "postcode": "5350-010",
      "city": "ALFÂNDEGA DA FÉ",
      "lon": "-6.965031368907958",
      "lat": "41.341001245487526"
    },
    {
      "id": "pt.ine.add.PTCONT.947795",
      "street": "BR DE TRÁS DO CASTELO",
      "house": "17",
      "postcode": "5350-052",
      "city": "ALFÂNDEGA DA FÉ",
      "lon": "-6.966235613305625",
      "lat": "41.339797941365056"
    },
    {
      "id": "pt.ine.add.PTCONT.948220",
      "street": "R DE QUEBRA COSTAS",
      "house": "48",
      "postcode": "5350-010",
      "city": "ALFÂNDEGA DA FÉ",
      "lon": "-6.9651663020387025",
      "lat": "41.34080453010682"
    },
    {
      "id": "pt.ine.add.PTCONT.948391",
      "street": "R DO PORTO",
      "house": "382",
      "postcode": "5350-039",
      "city": "ALFÂNDEGA DA FÉ",
      "lon": "-6.966720733588803",
      "lat": "41.33872239584574"
    },
    {
      "id": "pt.ine.add.PTCONT.949476",
      "street": "BR DE TRÁS DO CASTELO",
      "house": "20",
      "postcode": "5350-052",
      "city": "ALFÂNDEGA DA FÉ",
      "lon": "-6.965929551513548",
      "lat": "41.33954272947991"
    },
    {
      "id": "pt.ine.add.PTCONT.949522",
      "street": "R DO CASTELO",
      "house": "75",
      "postcode": "5350-033",
      "city": "ALFÂNDEGA DA FÉ",
      "lon": "-6.9667644065304195",
      "lat": "41.341631085508105"
    },
    {
      "id": "pt.ine.add.PTCONT.949547",
      "street": "R 13 DE JANEIRO",
      "house": "59",
      "postcode": "5350-018",
      "city": "ALFÂNDEGA DA FÉ",
      "lon": "-6.963730821103774",
      "lat": "41.34090700260662"
    },
    {
      "id": "pt.ine.add.PTCONT.949577",
      "street": "LG D DINIS",
      "house": "48",
      "postcode": "5350-014",
      "city": "ALFÂNDEGA DA FÉ",
      "lon": "-6.966685346177776",
      "lat": "41.34204446167106"
    },
    {
      "id": "pt.ine.add.PTCONT.950421",
      "street": "LG D DINIS",
      "house": "28",
      "postcode": "5350-014",
      "city": "ALFÂNDEGA DA FÉ",
      "lon": "-6.9668299728289975",
      "lat": "41.34197389663105"
    }
  ]
}