{
  "data": {
    "distrito": "Lisboa",
    "concelho": "Amadora",
    "freguesia": "Mina de Água",
    "OBJECTID": 730,
    "BGRI2021": "11151600504",
    "DT21": "11",
    "DTMN21": "1115",
    "DTMNFR21": "111516",
    "DTMNFRSEC21": "111516005",
    "SECNUM21": "005",
    "SSNUM21": "04",
    "SECSSNUM21": "00504",
    "OBJECTID_1": 118541,
    "DT": "11",
    "CC": "15",
    "fr": "16",
    "SEC": "005",
    "SS": "04"
  },
  "addresses": [
    {
      "id": "pt.ine.add.PTCONT.2411025",
      "street": "R BRANQUINHO DA FONSECA",
      "house": "19",
      "postcode": "2700-126",
      "city": "AMADORA",
      "lon": "-9.232591257074949",
      "lat": "38.76558804937505"
    },
    {
      "id": "pt.ine.add.PTCONT.2411026",
      "street": "R BRANQUINHO DA FONSECA",
      "house": "19",
      "postcode": "2700-126",
      "city": "AMADORA",
      "lon": "-9.232591257074949",
      "lat": "38.76558804937505"
    },
    {
      "id": "pt.ine.add.PTCONT.2411027",
      "street": "R BRANQUINHO DA FONSECA",
      "house": "19",
      "postcode": "2700-126",
      "city": "AMADORA",
      "lon": "-9.232591257074949",
      "lat": "38.76558804937505"
    },
    {
      "id": "pt.ine.add.PTCONT.2411028",
      "street": "R BRANQUINHO DA FONSECA",
      "house": "19",
      "postcode": "2700-126",
      "city": "AMADORA",
      "lon": "-9.232591257074949",
      "lat": "38.76558804937505"
    },
    {
      "id": "pt.ine.add.PTCONT.2411029",
      "street": "R BRANQUINHO DA FONSECA",
      "house": "19",
      "postcode": "2700-126",
      "city": "AMADORA",
      "lon": "-9.232591257074949",
      "lat": "38.76558804937505"
    },
    {
      "id": "pt.ine.add.PTCONT.2411030",
      "street": "R BRANQUINHO DA FONSECA",
      "house": "19",
      "postcode": "2700-126",
      "city": "AMADORA",
      "lon": "-9.232591257074949",
      "lat": "38.76558804937505"
    },
    {
      "id": "pt.ine.add.PTCONT.2411031",
      "street": "R BRANQUINHO DA FONSECA",
      "house": "19",
      "postcode": "2700-126",
      "city": "AMADORA",
      "lon": "-9.232591257074949",
      "lat": "38.76558804937505"
    },
    {
      "id": "pt.ine.add.PTCONT.2411041",
      "street": "R BRANQUINHO DA FONSECA",
      "house": "19",
      "postcode": "2700-126",
      "city": "AMADORA",
      "lon": "-9.232591257074949",
      "lat": "38.76558804937505"
    },
    {
      "id": "pt.ine.add.PTCONT.2411042",
      "street": "R BRANQUINHO DA FONSECA",
      "house": "19",
      "postcode": "2700-126",
      "city": "AMADORA",
      "lon": "-9.232591257074949",
      "lat": "38.76558804937505"
    },
    {
      "id": "pt.ine.add.PTCONT.2411043",
      "street": "R BRANQUINHO DA FONSECA",
      "house": "19",
      "postcode": "2700-126",
      "city": "AMADORA",
      "lon": "-9.232591257074949",
      "lat": "38.76558804937505"
    },
    {
      "id": "pt.ine.add.PTCONT.2411044",
      "street": "R BRANQUINHO DA FONSECA",
      "house": "19",
      "postcode": "2700-126",
      "city": "AMADORA",
      "lon": "-9.232591257074949",
      "lat": "38.76558804937505"
    },
    {
      "id": "pt.ine.add.PTCONT.2411045",
      "street": "R BRANQUINHO DA FONSECA",
      "house": "19",
      "postcode": "2700-126",
      "city": "AMADORA",
      "lon": "-9.232591257074949",
      "lat": "38.76558804937505"
    },
    {
      "id": "pt.ine.add.PTCONT.2411046",
      "street": "R BRANQUINHO DA FONSECA",
      "house": "19",
      "postcode": "2700-126",
      "city": "AMADORA",
      "lon": "-9.232591257074949",
      "lat": "38.76558804937505"
    },
    {
      "id": "pt.ine.add.PTCONT.2411047",
      "street": "R BRANQUINHO DA FONSECA",
      "house": "19",
      "postcode": "2700-126",
      "city": "AMADORA",
      "lon": "-9.232591257074949",
      "lat": "38.76558804937505"
    },
    {
      "id": "pt.ine.add.PTCONT.2411048",
      "street": "R BRANQUINHO DA FONSECA",
      "house": "19",
      "postcode": "2700-126",
      "city": "AMADORA",
      "lon": "-9.232591257074949",
      "lat": "38.76558804937505"
    },
    {
      "id": "pt.ine.add.PTCONT.2411049",
      "street": "R BRANQUINHO DA FONSECA",
      "house": "19",
      "postcode": "2700-126",
      "city": "AMADORA",
      "lon": "-9.232591257074949",
      "lat": "38.76558804937505"
    },
    {
      "id": "pt.ine.add.PTCONT.2411050",
      "street": "R BRANQUINHO DA FONSECA",
      "house": "19",
      "postcode": "2700-126",
      "city": "AMADORA",
      "lon": "-9.232591257074949",
      "lat": "38.76558804937505"
    },
    {
      "id": "pt.ine.add.PTCONT.2411051",
      "street": "R BRANQUINHO DA FONSECA",
      "house": "19",
      "postcode": "2700-126",
      "city": "AMADORA",
      "lon": "-9.232591257074949",
      "lat": "38.76558804937505"
    },
    {
      "id": "pt.ine.add.PTCONT.2438036",
      "street": "R SEBASTIÃO DA GAMA",
      "house": "10",
      "postcode": "2700-770",
      "city": "AMADORA",
      "lon": "-9.23233330285973",
      "lat": "38.76602284808194"
    },
    {
      "id": "pt.ine.add.PTCONT.2438037",
      "street": "R SEBASTIÃO DA GAMA",
      "house": "10",
      "postcode": "2700-770",
      "city": "AMADORA",
      "lon": "-9.23233330285973",
      "lat": "38.76602284808194"
    },
    {
      "id": "pt.ine.add.PTCONT.2438038",
      "street": "R SEBASTIÃO DA GAMA",
      "house": "10",
      "postcode": "2700-770",
      "city": "AMADORA",
      "lon": "-9.23233330285973",
      "lat": "38.76602284808194"
    },
    {
      "id": "pt.ine.add.PTCONT.2438039",
      "street": "R SEBASTIÃO DA GAMA",
      "house": "10",
      "postcode": "2700-770",
      "city": "AMADORA",
      "lon": "-9.23233330285973",
      "lat": "38.76602284808194"
    },
    {
      "id": "pt.ine.add.PTCONT.2438040",
      "street": "R SEBASTIÃO DA GAMA",
      "house": "10",
      "postcode": "2700-770",
      "city": "AMADORA",
      "lon": "-9.23233330285973",
      "lat": "38.76602284808194"
    },
    {
      "id": "pt.ine.add.PTCONT.2438041",
      "street": "R SEBASTIÃO DA GAMA",
      "house": "10",
      "postcode": "2700-770",
      "city": "AMADORA",
      "lon": "-9.23233330285973",
      "lat": "38.76602284808194"
    },
    {
      "id": "pt.ine.add.PTCONT.2438042",
      "street": "R SEBASTIÃO DA GAMA",
      "house": "10",
      "postcode": "2700-770",
      "city": "AMADORA",
      "lon": "-9.23233330285973",
      "lat": "38.76602284808194"
    },
    {
      "id": "pt.ine.add.PTCONT.2438043",
      "street": "R SEBASTIÃO DA GAMA",
      "house": "10",
      "postcode": "2700-770",
      "city": "AMADORA",
      "lon": "-9.23233330285973",
      "lat": "38.76602284808194"
    },
    {
      "id": "pt.ine.add.PTCONT.2438044",
      "street": "R SEBASTIÃO DA GAMA",
      "house": "10",
      "postcode": "2700-770",
      "city": "AMADORA",
      "lon": "-9.23233330285973",
      "lat": "38.76602284808194"
    },
    {
      "id": "pt.ine.add.PTCONT.2438045",
      "street": "R SEBASTIÃO DA GAMA",
      "house": "10",
      "postcode": "2700-770",
      "city": "AMADORA",
      "lon": "-9.23233330285973",
      "lat": "38.76602284808194"
    },
    {
      "id": "pt.ine.add.PTCONT.2547135",
      "street": "R BRANQUINHO DA FONSECA",
      "house": "21",
      "postcode": "2700-126",
      "city": "AMADORA",
      "lon": "-9.232542891789379",
      "lat": "38.765435372580185"
    },
    {
      "id": "pt.ine.add.PTCONT.2547136",
      "street": "R BRANQUINHO DA FONSECA",
      "house": "21",
      "postcode": "2700-126",
      "city": "AMADORA",
      "lon": "-9.232542891789379",
      "lat": "38.765435372580185"
    },
    {
      "id": "pt.ine.add.PTCONT.2547137",
      "street": "R BRANQUINHO DA FONSECA",
      "house": "21",
      "postcode": "2700-126",
      "city": "AMADORA",
      "lon": "-9.232542891789379",
      "lat": "38.765435372580185"
    },
    {
      "id": "pt.ine.add.PTCONT.2547138",
      "street": "R BRANQUINHO DA FONSECA",
      "house": "21",
      "postcode": "2700-126",
      "city": "AMADORA",
      "lon": "-9.232542891789379",
      "lat": "38.765435372580185"
    },
    {
      "id": "pt.ine.add.PTCONT.2547139",
      "street": "R BRANQUINHO DA FONSECA",
      "house": "21",
      "postcode": "2700-126",
      "city": "AMADORA",
      "lon": "-9.232542891789379",
      "lat": "38.765435372580185"
    },
    {
      "id": "pt.ine.add.PTCONT.2547140",
      "street": "R BRANQUINHO DA FONSECA",
      "house": "21",
      "postcode": "2700-126",
      "city": "AMADORA",
      "lon": "-9.232542891789379",
      "lat": "38.765435372580185"
    },
    {
      "id": "pt.ine.add.PTCONT.2547141",
      "street": "R BRANQUINHO DA FONSECA",
      "house": "21",
      "postcode": "2700-126",
      "city": "AMADORA",
      "lon": "-9.232542891789379",
      "lat": "38.765435372580185"
    },
    {
      "id": "pt.ine.add.PTCONT.2547160",
      "street": "R BRANQUINHO DA FONSECA",
      "house": "21",
      "postcode": "2700-126",
      "city": "AMADORA",
      "lon": "-9.232542891789379",
      "lat": "38.765435372580185"
    },
    {
      "id": "pt.ine.add.PTCONT.2547161",
      "street": "R BRANQUINHO DA FONSECA",
      "house": "21",
      "postcode": "2700-126",
      "city": "AMADORA",
      "lon": "-9.232542891789379",
      "lat": "38.765435372580185"
    },
    {
      "id": "pt.ine.add.PTCONT.2547162",
      "street": "R BRANQUINHO DA FONSECA",
      "house": "21",
      "postcode": "2700-126",
      "city": "AMADORA",
      "lon": "-9.232542891789379",
      "lat": "38.765435372580185"
    },
    {
      "id": "pt.ine.add.PTCONT.2547163",
      "street": "R BRANQUINHO DA FONSECA",
      "house": "21",
      "postcode": "2700-126",
      "city": "AMADORA",
      "lon": "-9.232542891789379",
      "lat": "38.765435372580185"
    },
    {
      "id": "pt.ine.add.PTCONT.2547164",
      "street": "R BRANQUINHO DA FONSECA",
      "house": "21",
      "postcode": "2700-126",
      "city": "AMADORA",
      "lon": "-9.232542891789379",
      "lat": "38.765435372580185"
    },
    {
      "id": "pt.ine.add.PTCONT.2547165",
      "street": "R BRANQUINHO DA FONSECA",
      "house": "21",
      "postcode": "2700-126",
      "city": "AMADORA",
      "lon": "-9.232542891789379",
      "lat": "38.765435372580185"
    },
    {
      "id": "pt.ine.add.PTCONT.2547166",
      "street": "R BRANQUINHO DA FONSECA",
      "house": "21",
      "postcode": "2700-126",
      "city": "AMADORA",
      "lon": "-9.232542891789379",
      "lat": "38.765435372580185"
    },
    {
      "id": "pt.ine.add.PTCONT.2547646",
      "street": "R BRANQUINHO DA FONSECA",
      "house": "21",
      "postcode": "2700-126",
      "city": "AMADORA",
      "lon": "-9.232542891789379",
      "lat": "38.765435372580185"
    },
    {
      "id": "pt.ine.add.PTCONT.2550290",
      "street": "R BRANQUINHO DA FONSECA",
      "house": "21",
      "postcode": "2700-126",
      "city": "AMADORA",
      "lon": "-9.232542891789379",
      "lat": "38.765435372580185"
    },
    {
      "id": "pt.ine.add.PTCONT.2654615",
      "street": "R BRANQUINHO DA FONSECA",
      "house": "15",
      "postcode": "2700-126",
      "city": "AMADORA",
      "lon": "-9.232676760907989",
      "lat": "38.765911524025924"
    },
    {
      "id": "pt.ine.add.PTCONT.2654647",
      "street": "R BRANQUINHO DA FONSECA",
      "house": "15",
      "postcode": "2700-126",
      "city": "AMADORA",
      "lon": "-9.232676760907989",
      "lat": "38.765911524025924"
    },
    {
      "id": "pt.ine.add.PTCONT.2654648",
      "street": "R BRANQUINHO DA FONSECA",
      "house": "15",
      "postcode": "2700-126",
      "city": "AMADORA",
      "lon": "-9.232676760907989",
      "lat": "38.765911524025924"
    },
    {
      "id": "pt.ine.add.PTCONT.2654649",
      "street": "R BRANQUINHO DA FONSECA",
      "house": "15",
      "postcode": "2700-126",
      "city": "AMADORA",
      "lon": "-9.232676760907989",
      "lat": "38.765911524025924"
    },
    {
      "id": "pt.ine.add.PTCONT.2654650",
      "street": "R BRANQUINHO DA FONSECA",
      "house": "15",
      "postcode": "2700-126",
      "city": "AMADORA",
      "lon": "-9.232676760907989",
      "lat": "38.765911524025924"
    },
    {
      "id": "pt.ine.add.PTCONT.2654651",
      "street": "R BRANQUINHO DA FONSECA",
      "house": "15",
      "postcode": "2700-126",
      "city": "AMADORA",
      "lon": "-9.232676760907989",
      "lat": "38.765911524025924"
    },
    {
      "id": "pt.ine.add.PTCONT.2654652",
      "street": "R BRANQUINHO DA FONSECA",
      "house": "15",
      "postcode": "2700-126",
      "city": "AMADORA",
      "lon": "-9.232676760907989",
      "lat": "38.765911524025924"
    },
    {
      "id": "pt.ine.add.PTCONT.2654653",
      "street": "R BRANQUINHO DA FONSECA",
      "house": "15",
      "postcode": "2700-126",
      "city": "AMADORA",
      "lon": "-9.232676760907989",
      "lat": "38.765911524025924"
    },
    {
      "id": "pt.ine.add.PTCONT.2654654",
      "street": "R BRANQUINHO DA FONSECA",
      "house": "15",
      "postcode": "2700-126",
      "city": "AMADORA",
      "lon": "-9.232676760907989",
      "lat": "38.765911524025924"
    },
    {
      "id": "pt.ine.add.PTCONT.2654655",
      "street": "R BRANQUINHO DA FONSECA",
      "house": "15",
      "postcode": "2700-126",
      "city": "AMADORA",
      "lon": "-9.232676760907989",
      "lat": "38.765911524025924"
    },
    {
      "id": "pt.ine.add.PTCONT.2654656",
      "street": "R BRANQUINHO DA FONSECA",
      "house": "15",
      "postcode": "2700-126",
      "city": "AMADORA",
      "lon": "-9.232676760907989",
      "lat": "38.765911524025924"
    },
    {
      "id": "pt.ine.add.PTCONT.2654657",
      "street": "R BRANQUINHO DA FONSECA",
      "house": "15",
      "postcode": "2700-126",
      "city": "AMADORA",
      "lon": "-9.232676760907989",
      "lat": "38.765911524025924"
    },
    {
      "id": "pt.ine.add.PTCONT.2654658",
      "street": "R BRANQUINHO DA FONSECA",
      "house": "15",
      "postcode": "2700-126",
      "city": "AMADORA",
      "lon": "-9.232676760907989",
      "lat": "38.765911524025924"
    },
    {
      "id": "pt.ine.add.PTCONT.2654659",
      "street": "R BRANQUINHO DA FONSECA",
      "house": "15",
      "postcode": "2700-126",
      "city": "AMADORA",
      "lon": "-9.232676760907989",
      "lat": "38.765911524025924"
    },
    {
      "id": "pt.ine.add.PTCONT.2654660",
      "street": "R BRANQUINHO DA FONSECA",
      "house": "15",
      "postcode": "2700-126",
      "city": "AMADORA",
      "lon": "-9.232676760907989",
      "lat": "38.765911524025924"
    },
    {
      "id": "pt.ine.add.PTCONT.2654694",
      "street": "R BRANQUINHO DA FONSECA",
      "house": "15",
      "postcode": "2700-126",
      "city": "AMADORA",
      "lon": "-9.232676760907989",
      "lat": "38.765911524025924"
    },
    {
      "id": "pt.ine.add.PTCONT.2654695",
      "street": "R BRANQUINHO DA FONSECA",
      "house": "15",
      "postcode": "2700-126",
      "city": "AMADORA",
      "lon": "-9.232676760907989",
      "lat": "38.765911524025924"
    },
    {
      "id": "pt.ine.add.PTCONT.2655220",
      "street": "R BRANQUINHO DA FONSECA",
      "house": "15",
      "postcode": "2700-126",
      "city": "AMADORA",
      "lon": "-9.232676760907989",
      "lat": "38.765911524025924"
    },
    {
      "id": "pt.ine.add.PTCONT.2877353",
      "street": "R BRANQUINHO DA FONSECA",
      "house": "17",
      "postcode": "2700-126",
      "city": "AMADORA",
      "lon": "-9.232628533450631",
      "lat": "38.76576785373293"
    },
    {
      "id": "pt.ine.add.PTCONT.2877354",
      "street": "R BRANQUINHO DA FONSECA",
      "house": "17",
      "postcode": "2700-126",
      "city": "AMADORA",
      "lon": "-9.232628533450631",
      "lat": "38.76576785373293"
    },
    {
      "id": "pt.ine.add.PTCONT.2877355",
      "street": "R BRANQUINHO DA FONSECA",
      "house": "17",
      "postcode": "2700-126",
      "city": "AMADORA",
      "lon": "-9.232628533450631",
      "lat": "38.76576785373293"
    },
    {
      "id": "pt.ine.add.PTCONT.2877356",
      "street": "R BRANQUINHO DA FONSECA",
      "house": "17",
      "postcode": "2700-126",
      "city": "AMADORA",
      "lon": "-9.232628533450631",
      "lat": "38.76576785373293"
    },
    {
      "id": "pt.ine.add.PTCONT.2877357",
      "street": "R BRANQUINHO DA FONSECA",
      "house": "17",
      "postcode": "2700-126",
      "city": "AMADORA",
      "lon": "-9.232628533450631",
      "lat": "38.76576785373293"
    },
    {
      "id": "pt.ine.add.PTCONT.2877358",
      "street": "R BRANQUINHO DA FONSECA",
      "house": "17",
      "postcode": "2700-126",
      "city": "AMADORA",
      "lon": "-9.232628533450631",
      "lat": "38.76576785373293"
    },
    {
      "id": "pt.ine.add.PTCONT.2877359",
      "street": "R BRANQUINHO DA FONSECA",
      "house": "17",
      "postcode": "2700-126",
      "city": "AMADORA",
      "lon": "-9.232628533450631",
      "lat": "38.76576785373293"
    },
    {
      "id": "pt.ine.add.PTCONT.2877360",
      "street": "R BRANQUINHO DA FONSECA",
      "house": "17",
      "postcode": "2700-126",
      "city": "AMADORA",
      "lon": "-9.232628533450631",
      "lat": "38.76576785373293"
    },
    {
      "id": "pt.ine.add.PTCONT.2877361",
      "street": "R BRANQUINHO DA FONSECA",
      "house": "17",
      "postcode": "2700-126",
      "city": "AMADORA",
      "lon": "-9.232628533450631",
      "lat": "38.76576785373293"
    },
    {
      "id": "pt.ine.add.PTCONT.2877362",
      "street": "R BRANQUINHO DA FONSECA",
      "house": "17",
      "postcode": "2700-126",
      "city": "AMADORA",
      "lon": "-9.232628533450631",
      "lat": "38.76576785373293"
    },
    {
      "id": "pt.ine.add.PTCONT.2877363",
      "street": "R BRANQUINHO DA FONSECA",
      "house": "17",
      "postcode": "2700-126",
      "city": "AMADORA",
      "lon": "-9.232628533450631",
      "lat": "38.76576785373293"
    },
    {
      "id": "pt.ine.add.PTCONT.2877364",
      "street": "R BRANQUINHO DA FONSECA",
      "house": "17",
      "postcode": "2700-126",
      "city": "AMADORA",
      "lon": "-9.232628533450631",
      "lat": "38.76576785373293"
    },
    {
      "id": "pt.ine.add.PTCONT.2877448",
      "street": "R BRANQUINHO DA FONSECA",
      "house": "17",
      "postcode": "2700-126",
      "city": "AMADORA",
      "lon": "-9.232628533450631",
      "lat": "38.76576785373293"
    },
    {
      "id": "pt.ine.add.PTCONT.2877449",
      "street": "R BRANQUINHO DA FONSECA",
      "house": "17",
      "postcode": "2700-126",
      "city": "AMADORA",
      "lon": "-9.232628533450631",
      "lat": "38.76576785373293"
    },
    {
      "id": "pt.ine.add.PTCONT.2877450",
      "street": "R BRANQUINHO DA FONSECA",
      "house": "17",
      "postcode": "2700-126",
      "city": "AMADORA",
      "lon": "-9.232628533450631",
      "lat": "38.76576785373293"
    },
    {
      "id": "pt.ine.add.PTCONT.2877451",
      "street": "R BRANQUINHO DA FONSECA",
      "house": "17",
      "postcode": "2700-126",
      "city": "AMADORA",
      "lon": "-9.232628533450631",
      "lat": "38.76576785373293"
    },
    {
      "id": "pt.ine.add.PTCONT.2877452",
      "street": "R BRANQUINHO DA FONSECA",
      "house": "17",
      "postcode": "2700-126",
      "city": "AMADORA",
      "lon": "-9.232628533450631",
      "lat": "38.76576785373293"
    },
    {
      "id": "pt.ine.add.PTCONT.2877453",
      "street": "R BRANQUINHO DA FONSECA",
      "house": "17",
      "postcode": "2700-126",
      "city": "AMADORA",
      "lon": "-9.232628533450631",
      "lat": "38.76576785373293"
    },
    {
      "id": "pt.ine.add.PTCONT.3062537",
      "street": "R SEBASTIÃO DA GAMA",
      "house": "12",
      "postcode": "2700-770",
      "city": "AMADORA",
      "lon": "-9.232296027074938",
      "lat": "38.7658430436287"
    },
    {
      "id": "pt.ine.add.PTCONT.3062538",
      "street": "R SEBASTIÃO DA GAMA",
      "house": "12",
      "postcode": "2700-770",
      "city": "AMADORA",
      "lon": "-9.232296027074938",
      "lat": "38.7658430436287"
    },
    {
      "id": "pt.ine.add.PTCONT.3062539",
      "street": "R SEBASTIÃO DA GAMA",
      "house": "12",
      "postcode": "2700-770",
      "city": "AMADORA",
      "lon": "-9.232296027074938",
      "lat": "38.7658430436287"
    },
    {
      "id": "pt.ine.add.PTCONT.3062540",
      "street": "R SEBASTIÃO DA GAMA",
      "house": "12",
      "postcode": "2700-770",
      "city": "AMADORA",
      "lon": "-9.232296027074938",
      "lat": "38.7658430436287"
    },
    {
      "id": "pt.ine.add.PTCONT.3062541",
      "street": "R SEBASTIÃO DA GAMA",
      "house": "12",
      "postcode": "2700-770",
      "city": "AMADORA",
      "lon": "-9.232296027074938",
      "lat": "38.7658430436287"
    },
    {
      "id": "pt.ine.add.PTCONT.3062542",
      "street": "R SEBASTIÃO DA GAMA",
      "house": "12",
      "postcode": "2700-770",
      "city": "AMADORA",
      "lon": "-9.232296027074938",
      "lat": "38.7658430436287"
    },
    {
      "id": "pt.ine.add.PTCONT.3062543",
      "street": "R SEBASTIÃO DA GAMA",
      "house": "12",
      "postcode": "2700-770",
      "city": "AMADORA",
      "lon": "-9.232296027074938",
      "lat": "38.7658430436287"
    },
    {
      "id": "pt.ine.add.PTCONT.3062544",
      "street": "R SEBASTIÃO DA GAMA",
      "house": "12",
      "postcode": "2700-770",
      "city": "AMADORA",
      "lon": "-9.232296027074938",
      "lat": "38.7658430436287"
    },
    {
      "id": "pt.ine.add.PTCONT.3062571",
      "street": "R SEBASTIÃO DA GAMA",
      "house": "12",
      "postcode": "2700-770",
      "city": "AMADORA",
      "lon": "-9.232296027074938",
      "lat": "38.7658430436287"
    },
    {
      "id": "pt.ine.add.PTCONT.3107055",
      "street": "R SEBASTIÃO DA GAMA",
      "house": "16",
      "postcode": "2700-770",
      "city": "AMADORA",
      "lon": "-9.232176151761422",
      "lat": "38.765528899690736"
    },
    {
      "id": "pt.ine.add.PTCONT.3107056",
      "street": "R SEBASTIÃO DA GAMA",
      "house": "16",
      "postcode": "2700-770",
      "city": "AMADORA",
      "lon": "-9.232176151761422",
      "lat": "38.765528899690736"
    },
    {
      "id": "pt.ine.add.PTCONT.3107057",
      "street": "R SEBASTIÃO DA GAMA",
      "house": "16",
      "postcode": "2700-770",
      "city": "AMADORA",
      "lon": "-9.232176151761422",
      "lat": "38.765528899690736"
    },
    {
      "id": "pt.ine.add.PTCONT.3107058",
      "street": "R SEBASTIÃO DA GAMA",
      "house": "16",
      "postcode": "2700-770",
      "city": "AMADORA",
      "lon": "-9.232176151761422",
      "lat": "38.765528899690736"
    },
    {
      "id": "pt.ine.add.PTCONT.3107059",
      "street": "R SEBASTIÃO DA GAMA",
      "house": "16",
      "postcode": "2700-770",
      "city": "AMADORA",
      "lon": "-9.232176151761422",
      "lat": "38.765528899690736"
    },
    {
      "id": "pt.ine.add.PTCONT.3107060",
      "street": "R SEBASTIÃO DA GAMA",
      "house": "16",
      "postcode": "2700-770",
      "city": "AMADORA",
      "lon": "-9.232176151761422",
      "lat": "38.765528899690736"
    },
    {
      "id": "pt.ine.add.PTCONT.3107114",
      "street": "R SEBASTIÃO DA GAMA",
      "house": "16",
      "postcode": "2700-770",
      "city": "AMADORA",
      "lon": "-9.232176151761422",
      "lat": "38.765528899690736"
    },
    {
      "id": "pt.ine.add.PTCONT.3107115",
      "street": "R SEBASTIÃO DA GAMA",
      "house": "16",
      "postcode": "2700-770",
      "city": "AMADORA",
      "lon": "-9.232176151761422",
      "lat": "38.765528899690736"
    },
    {
      "id": "pt.ine.add.PTCONT.3107116",
      "street": "R SEBASTIÃO DA GAMA",
      "house": "16",
      "postcode": "2700-770",
      "city": "AMADORA",
      "lon": "-9.232176151761422",
      "lat": "38.765528899690736"
    },
    {
      "id": "pt.ine.add.PTCONT.3108136",
      "street": "R SEBASTIÃO DA GAMA",
      "house": "16",
      "postcode": "2700-770",
      "city": "AMADORA",
      "lon": "-9.232176151761422",
      "lat": "38.765528899690736"
    },
    {
      "id": "pt.ine.add.PTCONT.3230209",
      "street": "R SEBASTIÃO DA GAMA",
      "house": "14",
      "postcode": "2700-770",
      "city": "AMADORA",
      "lon": "-9.232213288871831",
      "lat": "38.765699697744914"
    },
    {
      "id": "pt.ine.add.PTCONT.3230210",
      "street": "R SEBASTIÃO DA GAMA",
      "house": "14",
      "postcode": "2700-770",
      "city": "AMADORA",
      "lon": "-9.232213288871831",
      "lat": "38.765699697744914"
    },
    {
      "id": "pt.ine.add.PTCONT.3230211",
      "street": "R SEBASTIÃO DA GAMA",
      "house": "14",
      "postcode": "2700-770",
      "city": "AMADORA",
      "lon": "-9.232213288871831",
      "lat": "38.765699697744914"
    },
    {
      "id": "pt.ine.add.PTCONT.3230212",
      "street": "R SEBASTIÃO DA GAMA",
      "house": "14",
      "postcode": "2700-770",
      "city": "AMADORA",
      "lon": "-9.232213288871831",
      "lat": "38.765699697744914"
    },
    {
      "id": "pt.ine.add.PTCONT.3230213",
      "street": "R SEBASTIÃO DA GAMA",
      "house": "14",
      "postcode": "2700-770",
      "city": "AMADORA",
      "lon": "-9.232213288871831",
      "lat": "38.765699697744914"
    },
    {
      "id": "pt.ine.add.PTCONT.3230214",
      "street": "R SEBASTIÃO DA GAMA",
      "house": "14",
      "postcode": "2700-770",
      "city": "AMADORA",
      "lon": "-9.232213288871831",
      "lat": "38.765699697744914"
    },
    {
      "id": "pt.ine.add.PTCONT.3230215",
      "street": "R SEBASTIÃO DA GAMA",
      "house": "14",
      "postcode": "2700-770",
      "city": "AMADORA",
      "lon": "-9.232213288871831",
      "lat": "38.765699697744914"
    },
    {
      "id": "pt.ine.add.PTCONT.3230216",
      "street": "R SEBASTIÃO DA GAMA",
      "house": "14",
      "postcode": "2700-770",
      "city": "AMADORA",
      "lon": "-9.232213288871831",
      "lat": "38.765699697744914"
    },
    {
      "id": "pt.ine.add.PTCONT.3230217",
      "street": "R SEBASTIÃO DA GAMA",
      "house": "14",
      "postcode": "2700-770",
      "city": "AMADORA",
      "lon": "-9.232213288871831",
      "lat": "38.765699697744914"
    },
    {
      "id": "pt.ine.add.PTCONT.3230218",
      "street": "R SEBASTIÃO DA GAMA",
      "house": "14",
      "postcode": "2700-770",
      "city": "AMADORA",
      "lon": "-9.232213288871831",
      "lat": "38.765699697744914"
    },
    {
      "id": "pt.ine.add.PTCONT.3448266",
      "street": "R SEBASTIÃO DA GAMA",
      "house": "12",
      "postcode": "2700-770",
      "city": "AMADORA",
      "lon": "-9.232296027074938",
      "lat": "38.7658430436287"
    }
  ]
}