{
  "data": {
    "distrito": "Lisboa",
    "concelho": "Cascais",
    "freguesia": "Uni√£o das freguesias de Cascais e Estoril",
    "OBJECTID": 1963,
    "BGRI2021": "11050805110",
    "DT21": "11",
    "DTMN21": "1105",
    "DTMNFR21": "110508",
    "DTMNFRSEC21": "110508051",
    "SECNUM21": "051",
    "SSNUM21": "10",
    "SECSSNUM21": "05110",
    "OBJECTID_1": 100820,
    "DT": "11",
    "CC": "05",
    "fr": "08",
    "SEC": "051",
    "SS": "10"
  },
  "addresses": [
    {
      "id": "pt.ine.add.PTCONT.2963785",
      "street": "AV HOLANDA",
      "house": "29",
      "postcode": "2765-228",
      "city": "ESTORIL",
      "lon": "-9.39127496801304",
      "lat": "38.708617158015315"
    },
    {
      "id": "pt.ine.add.PTCONT.3055275",
      "street": "AV SUICA ARAPONGO",
      "house": "457",
      "postcode": "2765-288",
      "city": "ESTORIL",
      "lon": "-9.390282981433069",
      "lat": "38.712366034207875"
    },
    {
      "id": "pt.ine.add.PTCONT.3084154",
      "street": "TV HOLANDA",
      "house": "36",
      "postcode": "2765-228",
      "city": "ESTORIL",
      "lon": "-9.390525401455049",
      "lat": "38.71045379015946"
    },
    {
      "id": "pt.ine.add.PTCONT.3130002",
      "street": "AV SUICA",
      "house": "321",
      "postcode": "2765-288",
      "city": "ESTORIL",
      "lon": "-9.390436783043729",
      "lat": "38.711301469145155"
    },
    {
      "id": "pt.ine.add.PTCONT.3155445",
      "street": "AV SUICA",
      "house": "36",
      "postcode": "2765-288",
      "city": "ESTORIL",
      "lon": "-9.390381316611007",
      "lat": "38.71010403854365"
    },
    {
      "id": "pt.ine.add.PTCONT.3164996",
      "street": "AV HOLANDA",
      "house": "196",
      "postcode": "2765-228",
      "city": "ESTORIL",
      "lon": "-9.391103848867633",
      "lat": "38.70934862509764"
    },
    {
      "id": "pt.ine.add.PTCONT.3164997",
      "street": "AV HOLANDA",
      "house": "196",
      "postcode": "2765-228",
      "city": "ESTORIL",
      "lon": "-9.391103848867633",
      "lat": "38.70934862509764"
    },
    {
      "id": "pt.ine.add.PTCONT.3173505",
      "street": "TV HOLANDA",
      "house": "8",
      "postcode": "2765-228",
      "city": "ESTORIL",
      "lon": "-9.390533740131236",
      "lat": "38.71027354601369"
    },
    {
      "id": "pt.ine.add.PTCONT.3186126",
      "street": "AV SUICA",
      "house": "34",
      "postcode": "2765-288",
      "city": "ESTORIL",
      "lon": "-9.390394681630909",
      "lat": "38.709554423656314"
    },
    {
      "id": "pt.ine.add.PTCONT.3219998",
      "street": "AV FRANCA",
      "house": "492",
      "postcode": "2765-225",
      "city": "ESTORIL",
      "lon": "-9.390276692948001",
      "lat": "38.7126633565919"
    },
    {
      "id": "pt.ine.add.PTCONT.3229566",
      "street": "TV HOLANDA",
      "house": "60",
      "postcode": "2765-228",
      "city": "ESTORIL",
      "lon": "-9.390517693879195",
      "lat": "38.71067005840237"
    },
    {
      "id": "pt.ine.add.PTCONT.3323541",
      "street": "AV HOLANDA",
      "house": "478",
      "postcode": "2765-228",
      "city": "ESTORIL",
      "lon": "-9.390849506293554",
      "lat": "38.71189153930999"
    },
    {
      "id": "pt.ine.add.PTCONT.3333653",
      "street": "AV HOLANDA",
      "house": "",
      "postcode": "2765-228",
      "city": "ESTORIL",
      "lon": "-9.390879412795396",
      "lat": "38.711629993665206"
    },
    {
      "id": "pt.ine.add.PTCONT.3351606",
      "street": "AV HOLANDA MAI TE",
      "house": "386",
      "postcode": "2765-228",
      "city": "ESTORIL",
      "lon": "-9.390928835639297",
      "lat": "38.711170068160605"
    },
    {
      "id": "pt.ine.add.PTCONT.3358338",
      "street": "AV SUICA",
      "house": "315",
      "postcode": "2765-288",
      "city": "ESTORIL",
      "lon": "-9.39036073919674",
      "lat": "38.71155450314889"
    },
    {
      "id": "pt.ine.add.PTCONT.3437358",
      "street": "AV HOLANDA",
      "house": "548",
      "postcode": "2765-228",
      "city": "ESTORIL",
      "lon": "-9.390775594044204",
      "lat": "38.71029796770031"
    },
    {
      "id": "pt.ine.add.PTCONT.2396337",
      "street": "AV HOLANDA",
      "house": "152",
      "postcode": "2765-228",
      "city": "ESTORIL",
      "lon": "-9.3913740248974",
      "lat": "38.70902143957285"
    },
    {
      "id": "pt.ine.add.PTCONT.2445279",
      "street": "TV HOLANDA",
      "house": "61",
      "postcode": "2765-228",
      "city": "ESTORIL",
      "lon": "-9.39083056706764",
      "lat": "38.71081081650046"
    },
    {
      "id": "pt.ine.add.PTCONT.2503028",
      "street": "TV HOLANDA",
      "house": "27",
      "postcode": "2765-228",
      "city": "ESTORIL",
      "lon": "-9.390870547213368",
      "lat": "38.71046809293903"
    },
    {
      "id": "pt.ine.add.PTCONT.2562041",
      "street": "TV HOLANDA",
      "house": "1",
      "postcode": "2765-228",
      "city": "ESTORIL",
      "lon": "-9.390887222802457",
      "lat": "38.710107604622856"
    },
    {
      "id": "pt.ine.add.PTCONT.2658243",
      "street": "AV SUICA",
      "house": "311",
      "postcode": "2765-288",
      "city": "ESTORIL",
      "lon": "-9.390295063160861",
      "lat": "38.711086807878274"
    },
    {
      "id": "pt.ine.add.PTCONT.2753746",
      "street": "AV HOLANDA",
      "house": "516",
      "postcode": "2765-228",
      "city": "ESTORIL",
      "lon": "-9.390775594044204",
      "lat": "38.71029796770031"
    },
    {
      "id": "pt.ine.add.PTCONT.2764861",
      "street": "AV HOLANDA",
      "house": "408",
      "postcode": "2765-228",
      "city": "ESTORIL",
      "lon": "-9.390886803638223",
      "lat": "38.71139571340347"
    },
    {
      "id": "pt.ine.add.PTCONT.2806001",
      "street": "AV SUICA BORNOVA",
      "house": "121",
      "postcode": "2765-288",
      "city": "ESTORIL",
      "lon": "-9.390361596874062",
      "lat": "38.70897828506508"
    },
    {
      "id": "pt.ine.add.PTCONT.2856135",
      "street": "AV SUICA AVENTURA",
      "house": "425",
      "postcode": "2765-288",
      "city": "ESTORIL",
      "lon": "-9.390332566250757",
      "lat": "38.71191511496366"
    }
  ]
}