{
  "data": {
    "distrito": "Viseu",
    "concelho": "Viseu",
    "freguesia": "Cavernães",
    "OBJECTID": 1204,
    "BGRI2021": "18230700126",
    "DT21": "18",
    "DTMN21": "1823",
    "DTMNFR21": "182307",
    "DTMNFRSEC21": "182307001",
    "SECNUM21": "001",
    "SSNUM21": "26",
    "SECSSNUM21": "00126",
    "OBJECTID_1": 202068,
    "DT": "18",
    "CC": "23",
    "fr": "07",
    "SEC": "001",
    "SS": "26"
  },
  "addresses": [
    {
      "id": "pt.ine.add.PTCONT.5427596",
      "street": "R FAXO",
      "house": "9",
      "postcode": "3505-111",
      "city": "CAVERNÃES",
      "lon": "-7.834035126591116",
      "lat": "40.711483912440436"
    },
    {
      "id": "pt.ine.add.PTCONT.5433102",
      "street": "R PRINCIPAL",
      "house": "93",
      "postcode": "3505-111",
      "city": "CAVERNÃES",
      "lon": "-7.833894206724391",
      "lat": "40.71124041039666"
    },
    {
      "id": "pt.ine.add.PTCONT.5433130",
      "street": "R ALFAIATE",
      "house": "3",
      "postcode": "3505-111",
      "city": "CAVERNÃES",
      "lon": "-7.8341423174594365",
      "lat": "40.71133110391589"
    },
    {
      "id": "pt.ine.add.PTCONT.5434911",
      "street": "R PRINCIPAL",
      "house": "81",
      "postcode": "3505-111",
      "city": "CAVERNÃES",
      "lon": "-7.834250514366521",
      "lat": "40.71095317114604"
    },
    {
      "id": "pt.ine.add.PTCONT.5434918",
      "street": "R FAXO",
      "house": "1",
      "postcode": "3505-111",
      "city": "CAVERNÃES",
      "lon": "-7.83433109782516",
      "lat": "40.711457663636295"
    },
    {
      "id": "pt.ine.add.PTCONT.5435878",
      "street": "R PRINCIPAL",
      "house": "113",
      "postcode": "3505-111",
      "city": "CAVERNÃES",
      "lon": "-7.833500254697777",
      "lat": "40.712004819473684"
    },
    {
      "id": "pt.ine.add.PTCONT.5442515",
      "street": "R PRINCIPAL",
      "house": "10",
      "postcode": "3505-111",
      "city": "CAVERNÃES",
      "lon": "-7.833620653509924",
      "lat": "40.71154587339"
    },
    {
      "id": "pt.ine.add.PTCONT.5447798",
      "street": "R PRINCIPAL",
      "house": "77",
      "postcode": "3505-111",
      "city": "CAVERNÃES",
      "lon": "-7.834357462406898",
      "lat": "40.7108543921991"
    },
    {
      "id": "pt.ine.add.PTCONT.5447799",
      "street": "R PICOTEIRO",
      "house": "6",
      "postcode": "3505-111",
      "city": "CAVERNÃES",
      "lon": "-7.836107000465452",
      "lat": "40.711282144922784"
    },
    {
      "id": "pt.ine.add.PTCONT.5468348",
      "street": "R PRINCIPAL",
      "house": "95",
      "postcode": "3505-111",
      "city": "CAVERNÃES",
      "lon": "-7.83381112697081",
      "lat": "40.7112942254448"
    },
    {
      "id": "pt.ine.add.PTCONT.5468349",
      "street": "R PRINCIPAL",
      "house": "49",
      "postcode": "3505-111",
      "city": "CAVERNÃES",
      "lon": "-7.835341161037742",
      "lat": "40.71052374614437"
    },
    {
      "id": "pt.ine.add.PTCONT.5469630",
      "street": "R PRINCIPAL",
      "house": "129",
      "postcode": "3505-111",
      "city": "CAVERNÃES",
      "lon": "-7.833389588681638",
      "lat": "40.71293205415708"
    },
    {
      "id": "pt.ine.add.PTCONT.5471524",
      "street": "R FAXO",
      "house": "8",
      "postcode": "3505-111",
      "city": "CAVERNÃES",
      "lon": "-7.834010330315483",
      "lat": "40.71173599012789"
    },
    {
      "id": "pt.ine.add.PTCONT.5475048",
      "street": "R PRINCIPAL",
      "house": "105",
      "postcode": "3505-111",
      "city": "CAVERNÃES",
      "lon": "-7.833596541601185",
      "lat": "40.71164486659151"
    },
    {
      "id": "pt.ine.add.PTCONT.5475058",
      "street": "R ALFAIATE",
      "house": "11",
      "postcode": "3505-111",
      "city": "CAVERNÃES",
      "lon": "-7.834462237582204",
      "lat": "40.71124188130788"
    },
    {
      "id": "pt.ine.add.PTCONT.5478694",
      "street": "R PRINCIPAL",
      "house": "65",
      "postcode": "3505-111",
      "city": "CAVERNÃES",
      "lon": "-7.834808436859575",
      "lat": "40.71056739615572"
    },
    {
      "id": "pt.ine.add.PTCONT.5480512",
      "street": "R ALFAIATE",
      "house": "14",
      "postcode": "3505-111",
      "city": "CAVERNÃES",
      "lon": "-7.83492400370892",
      "lat": "40.71118904456969"
    },
    {
      "id": "pt.ine.add.PTCONT.5493836",
      "street": "EN 229",
      "house": "12",
      "postcode": "3505-111",
      "city": "CAVERNÃES",
      "lon": "-7.834671108037838",
      "lat": "40.71216994356846"
    },
    {
      "id": "pt.ine.add.PTCONT.5497017",
      "street": "R PRINCIPAL",
      "house": "111",
      "postcode": "3505-111",
      "city": "CAVERNÃES",
      "lon": "-7.833524528322603",
      "lat": "40.71186980644458"
    },
    {
      "id": "pt.ine.add.PTCONT.5498166",
      "street": "R PRINCIPAL",
      "house": "53",
      "postcode": "3505-111",
      "city": "CAVERNÃES",
      "lon": "-7.83524640998225",
      "lat": "40.71054151184542"
    },
    {
      "id": "pt.ine.add.PTCONT.5505996",
      "street": "R PRINCIPAL",
      "house": "107",
      "postcode": "3505-111",
      "city": "CAVERNÃES",
      "lon": "-7.833584182980954",
      "lat": "40.71176190041976"
    },
    {
      "id": "pt.ine.add.PTCONT.5507873",
      "street": "R PRINCIPAL",
      "house": "123",
      "postcode": "3505-111",
      "city": "CAVERNÃES",
      "lon": "-7.833391042341996",
      "lat": "40.712607875516916"
    },
    {
      "id": "pt.ine.add.PTCONT.5507874",
      "street": "R PRINCIPAL",
      "house": "69",
      "postcode": "3505-111",
      "city": "CAVERNÃES",
      "lon": "-7.834689776674063",
      "lat": "40.71063913003892"
    },
    {
      "id": "pt.ine.add.PTCONT.5511551",
      "street": "R S PEDRO",
      "house": "1",
      "postcode": "3505-111",
      "city": "CAVERNÃES",
      "lon": "-7.834131409849492",
      "lat": "40.71112395906681"
    },
    {
      "id": "pt.ine.add.PTCONT.5515469",
      "street": "R FAXO",
      "house": "3",
      "postcode": "3505-111",
      "city": "CAVERNÃES",
      "lon": "-7.833856648750396",
      "lat": "40.71169957156888"
    },
    {
      "id": "pt.ine.add.PTCONT.5517209",
      "street": "R PRINCIPAL",
      "house": "131",
      "postcode": "3505-111",
      "city": "CAVERNÃES",
      "lon": "-7.83329410663005",
      "lat": "40.71311190754636"
    },
    {
      "id": "pt.ine.add.PTCONT.5517214",
      "street": "R PRINCIPAL",
      "house": "61",
      "postcode": "3505-111",
      "city": "CAVERNÃES",
      "lon": "-7.83493876996518",
      "lat": "40.71053171258305"
    },
    {
      "id": "pt.ine.add.PTCONT.5517215",
      "street": "R ALTO DO FACHO",
      "house": "10",
      "postcode": "3505-111",
      "city": "CAVERNÃES",
      "lon": "-7.836462699417151",
      "lat": "40.711129973323224"
    },
    {
      "id": "pt.ine.add.PTCONT.5522845",
      "street": "R ALTO DO FACHO",
      "house": "14",
      "postcode": "3505-111",
      "city": "CAVERNÃES",
      "lon": "-7.8343399533453315",
      "lat": "40.71212406164019"
    },
    {
      "id": "pt.ine.add.PTCONT.5532437",
      "street": "R S PEDRO",
      "house": "6",
      "postcode": "3505-111",
      "city": "CAVERNÃES",
      "lon": "-7.834261059981931",
      "lat": "40.71124136067981"
    },
    {
      "id": "pt.ine.add.PTCONT.5532438",
      "street": "R ALFAIATE",
      "house": "17",
      "postcode": "3505-111",
      "city": "CAVERNÃES",
      "lon": "-7.834414137126728",
      "lat": "40.71141285317991"
    },
    {
      "id": "pt.ine.add.PTCONT.5536351",
      "street": "R PRINCIPAL",
      "house": "63",
      "postcode": "3505-111",
      "city": "CAVERNÃES",
      "lon": "-7.83486772667968",
      "lat": "40.71054053413468"
    },
    {
      "id": "pt.ine.add.PTCONT.5536954",
      "street": "R ALFAIATE",
      "house": "4",
      "postcode": "3505-111",
      "city": "CAVERNÃES",
      "lon": "-7.83392918469027",
      "lat": "40.71135756695513"
    },
    {
      "id": "pt.ine.add.PTCONT.5541443",
      "street": "R ALFAIATE",
      "house": "6",
      "postcode": "3505-111",
      "city": "CAVERNÃES",
      "lon": "-7.834130120967377",
      "lat": "40.711412117952804"
    },
    {
      "id": "pt.ine.add.PTCONT.5550541",
      "street": "R PRINCIPAL",
      "house": "75",
      "postcode": "3505-111",
      "city": "CAVERNÃES",
      "lon": "-7.834428667038941",
      "lat": "40.71080955109892"
    },
    {
      "id": "pt.ine.add.PTCONT.5552442",
      "street": "R PRINCIPAL",
      "house": "89",
      "postcode": "3505-111",
      "city": "CAVERNÃES",
      "lon": "-7.83398924120015",
      "lat": "40.71115961105603"
    },
    {
      "id": "pt.ine.add.PTCONT.5552443",
      "street": "R ALFAIATE",
      "house": "12",
      "postcode": "3505-111",
      "city": "CAVERNÃES",
      "lon": "-7.834675168756297",
      "lat": "40.711260442110316"
    },
    {
      "id": "pt.ine.add.PTCONT.5553931",
      "street": "R PRINCIPAL",
      "house": "119",
      "postcode": "3505-111",
      "city": "CAVERNÃES",
      "lon": "-7.833486846332431",
      "lat": "40.71235598232511"
    },
    {
      "id": "pt.ine.add.PTCONT.5556896",
      "street": "R ALFAIATE",
      "house": "",
      "postcode": "3505-111",
      "city": "CAVERNÃES",
      "lon": "-7.835763214026591",
      "lat": "40.71141633596635"
    },
    {
      "id": "pt.ine.add.PTCONT.5560524",
      "street": "R PRINCIPAL",
      "house": "117",
      "postcode": "3505-111",
      "city": "CAVERNÃES",
      "lon": "-7.833759596919297",
      "lat": "40.7122306189759"
    },
    {
      "id": "pt.ine.add.PTCONT.5564443",
      "street": "R FAXO",
      "house": "5",
      "postcode": "3505-111",
      "city": "CAVERNÃES",
      "lon": "-7.8339398095809605",
      "lat": "40.711627746564474"
    },
    {
      "id": "pt.ine.add.PTCONT.5566163",
      "street": "R PRINCIPAL",
      "house": "99",
      "postcode": "3505-111",
      "city": "CAVERNÃES",
      "lon": "-7.833704096748013",
      "lat": "40.71141101380201"
    },
    {
      "id": "pt.ine.add.PTCONT.5575313",
      "street": "R PICOTEIRO",
      "house": "14",
      "postcode": "3505-111",
      "city": "CAVERNÃES",
      "lon": "-7.836687305043118",
      "lat": "40.71118458069387"
    },
    {
      "id": "pt.ine.add.PTCONT.5575322",
      "street": "R FAXO",
      "house": "2",
      "postcode": "3505-111",
      "city": "CAVERNÃES",
      "lon": "-7.83367857314911",
      "lat": "40.7118251807705"
    },
    {
      "id": "pt.ine.add.PTCONT.5580867",
      "street": "R ALFAIATE",
      "house": "2",
      "postcode": "3505-111",
      "city": "CAVERNÃES",
      "lon": "-7.834237150449994",
      "lat": "40.71129532919803"
    },
    {
      "id": "pt.ine.add.PTCONT.5581823",
      "street": "R FAXO",
      "house": "18",
      "postcode": "3505-111",
      "city": "CAVERNÃES",
      "lon": "-7.83454411009274",
      "lat": "40.711458214751794"
    },
    {
      "id": "pt.ine.add.PTCONT.5584531",
      "street": "R PRINCIPAL",
      "house": "115",
      "postcode": "3505-111",
      "city": "CAVERNÃES",
      "lon": "-7.833760161522625",
      "lat": "40.71210454948726"
    },
    {
      "id": "pt.ine.add.PTCONT.5596335",
      "street": "R PRINCIPAL",
      "house": "59",
      "postcode": "3505-111",
      "city": "CAVERNÃES",
      "lon": "-7.835021566769109",
      "lat": "40.71054093147947"
    },
    {
      "id": "pt.ine.add.PTCONT.5606521",
      "street": "R ALFAIATE",
      "house": "5",
      "postcode": "3505-111",
      "city": "CAVERNÃES",
      "lon": "-7.834521689039516",
      "lat": "40.71117899960785"
    },
    {
      "id": "pt.ine.add.PTCONT.5608649",
      "street": "R PRINCIPAL",
      "house": "83",
      "postcode": "3505-111",
      "city": "CAVERNÃES",
      "lon": "-7.834179349732694",
      "lat": "40.7109890071686"
    },
    {
      "id": "pt.ine.add.PTCONT.5608650",
      "street": "R FAXO",
      "house": "11",
      "postcode": "3505-111",
      "city": "CAVERNÃES",
      "lon": "-7.83428356048015",
      "lat": "40.71150256593769"
    },
    {
      "id": "pt.ine.add.PTCONT.5614779",
      "street": "R PRINCIPAL",
      "house": "87",
      "postcode": "3505-111",
      "city": "CAVERNÃES",
      "lon": "-7.834060567264593",
      "lat": "40.7110877552912"
    },
    {
      "id": "pt.ine.add.PTCONT.5623650",
      "street": "R FAXO",
      "house": "7",
      "postcode": "3505-111",
      "city": "CAVERNÃES",
      "lon": "-7.833987387542893",
      "lat": "40.711573839442124"
    },
    {
      "id": "pt.ine.add.PTCONT.5627058",
      "street": "R PRINCIPAL",
      "house": "71",
      "postcode": "3505-111",
      "city": "CAVERNÃES",
      "lon": "-7.834606698307779",
      "lat": "40.71069294567011"
    },
    {
      "id": "pt.ine.add.PTCONT.5633094",
      "street": "R PRINCIPAL",
      "house": "85",
      "postcode": "3505-111",
      "city": "CAVERNÃES",
      "lon": "-7.83410810446215",
      "lat": "40.71104285307788"
    },
    {
      "id": "pt.ine.add.PTCONT.5633106",
      "street": "R PICOTEIRO",
      "house": "16",
      "postcode": "3505-111",
      "city": "CAVERNÃES",
      "lon": "-7.836899837632594",
      "lat": "40.711293187068634"
    },
    {
      "id": "pt.ine.add.PTCONT.5638895",
      "street": "R ALFAIATE",
      "house": "16",
      "postcode": "3505-111",
      "city": "CAVERNÃES",
      "lon": "-7.835054538732422",
      "lat": "40.71110833604362"
    },
    {
      "id": "pt.ine.add.PTCONT.5640813",
      "street": "R PRINCIPAL",
      "house": "97",
      "postcode": "3505-111",
      "city": "CAVERNÃES",
      "lon": "-7.833739840747856",
      "lat": "40.71135707608649"
    },
    {
      "id": "pt.ine.add.PTCONT.5643619",
      "street": "R PRINCIPAL",
      "house": "127",
      "postcode": "3505-111",
      "city": "CAVERNÃES",
      "lon": "-7.833331426996418",
      "lat": "40.71270677646003"
    },
    {
      "id": "pt.ine.add.PTCONT.5646422",
      "street": "R S PEDRO",
      "house": "4",
      "postcode": "3505-111",
      "city": "CAVERNÃES",
      "lon": "-7.83410750025561",
      "lat": "40.71117792755908"
    },
    {
      "id": "pt.ine.add.PTCONT.5648377",
      "street": "R FAXO",
      "house": "1B",
      "postcode": "3505-111",
      "city": "CAVERNÃES",
      "lon": "-7.834508165550357",
      "lat": "40.71155717754284"
    },
    {
      "id": "pt.ine.add.PTCONT.5651890",
      "street": "R PRINCIPAL",
      "house": "55",
      "postcode": "3505-111",
      "city": "CAVERNÃES",
      "lon": "-7.835139865160926",
      "lat": "40.710550241956966"
    },
    {
      "id": "pt.ine.add.PTCONT.5655560",
      "street": "R PRINCIPAL",
      "house": "67",
      "postcode": "3505-111",
      "city": "CAVERNÃES",
      "lon": "-7.834725439070869",
      "lat": "40.71060320194021"
    }
  ]
}