{
  "data": {
    "distrito": "Porto",
    "concelho": "Amarante",
    "freguesia": "União das freguesias de Amarante (São Gonçalo), Madalena, Cepelos e Gatão",
    "OBJECTID": 1512,
    "BGRI2021": "13014200123",
    "DT21": "13",
    "DTMN21": "1301",
    "DTMNFR21": "130142",
    "DTMNFRSEC21": "130142001",
    "SECNUM21": "001",
    "SSNUM21": "23",
    "SECSSNUM21": "00123",
    "OBJECTID_1": 125927,
    "DT": "13",
    "CC": "01",
    "fr": "42",
    "SEC": "001",
    "SS": "23"
  },
  "addresses": [
    {
      "id": "pt.ine.add.PTCONT.3559709",
      "street": "R CÂNDIDO DOS REIS",
      "house": "",
      "postcode": "4600-055",
      "city": "AMARANTE",
      "lon": "-8.082350988014253",
      "lat": "41.27006738367658"
    },
    {
      "id": "pt.ine.add.PTCONT.3565973",
      "street": "R CÂNDIDO DOS REIS",
      "house": "327",
      "postcode": "4600-055",
      "city": "AMARANTE",
      "lon": "-8.08254157140724",
      "lat": "41.270544690748224"
    },
    {
      "id": "pt.ine.add.PTCONT.3577096",
      "street": "R CÂNDIDO DOS REIS",
      "house": "379",
      "postcode": "4600-055",
      "city": "AMARANTE",
      "lon": "-8.082612838826678",
      "lat": "41.270985928354364"
    },
    {
      "id": "pt.ine.add.PTCONT.3598013",
      "street": "R CÂNDIDO DOS REIS",
      "house": "429",
      "postcode": "4600-055",
      "city": "AMARANTE",
      "lon": "-8.082767650268503",
      "lat": "41.271427202442354"
    },
    {
      "id": "pt.ine.add.PTCONT.3598014",
      "street": "R CÂNDIDO DOS REIS",
      "house": "429",
      "postcode": "4600-055",
      "city": "AMARANTE",
      "lon": "-8.082767650268503",
      "lat": "41.271427202442354"
    },
    {
      "id": "pt.ine.add.PTCONT.3636700",
      "street": "R CÂNDIDO DOS REIS",
      "house": "423",
      "postcode": "4600-055",
      "city": "AMARANTE",
      "lon": "-8.082731901471423",
      "lat": "41.27135515312752"
    },
    {
      "id": "pt.ine.add.PTCONT.3636701",
      "street": "R CÂNDIDO DOS REIS",
      "house": "423",
      "postcode": "4600-055",
      "city": "AMARANTE",
      "lon": "-8.082731901471423",
      "lat": "41.27135515312752"
    },
    {
      "id": "pt.ine.add.PTCONT.3649223",
      "street": "R CÂNDIDO DOS REIS",
      "house": "359",
      "postcode": "4600-055",
      "city": "AMARANTE",
      "lon": "-8.082589163894646",
      "lat": "41.270733800071426"
    },
    {
      "id": "pt.ine.add.PTCONT.3675996",
      "street": "R AMIEIRO",
      "house": "62",
      "postcode": "4600-047",
      "city": "AMARANTE",
      "lon": "-8.08330546555263",
      "lat": "41.27043697318976"
    },
    {
      "id": "pt.ine.add.PTCONT.3675997",
      "street": "R AMIEIRO",
      "house": "62",
      "postcode": "4600-047",
      "city": "AMARANTE",
      "lon": "-8.08330546555263",
      "lat": "41.27043697318976"
    },
    {
      "id": "pt.ine.add.PTCONT.3679793",
      "street": "R AMIEIRO",
      "house": "62",
      "postcode": "4600-047",
      "city": "AMARANTE",
      "lon": "-8.08330546555263",
      "lat": "41.27043697318976"
    },
    {
      "id": "pt.ine.add.PTCONT.3685920",
      "street": "R AMIEIRO",
      "house": "49",
      "postcode": "4600-047",
      "city": "AMARANTE",
      "lon": "-8.083209989205253",
      "lat": "41.27043693184951"
    },
    {
      "id": "pt.ine.add.PTCONT.3685921",
      "street": "R AMIEIRO",
      "house": "49",
      "postcode": "4600-047",
      "city": "AMARANTE",
      "lon": "-8.083209989205253",
      "lat": "41.27043693184951"
    },
    {
      "id": "pt.ine.add.PTCONT.3701226",
      "street": "TV LIMOEIRO",
      "house": "49",
      "postcode": "4600-139",
      "city": "AMARANTE",
      "lon": "-8.083401283375405",
      "lat": "41.269986804016575"
    },
    {
      "id": "pt.ine.add.PTCONT.3759652",
      "street": "R CANDIDO DOS REIS",
      "house": "355",
      "postcode": "4600-055",
      "city": "AMARANTE",
      "lon": "-8.082565384977752",
      "lat": "41.27061673489324"
    },
    {
      "id": "pt.ine.add.PTCONT.3759653",
      "street": "R CANDIDO REIS",
      "house": "335",
      "postcode": "4600-055",
      "city": "AMARANTE",
      "lon": "-8.082565384977752",
      "lat": "41.27061673489324"
    },
    {
      "id": "pt.ine.add.PTCONT.3759654",
      "street": "R CÂNDIDO DOS REIS",
      "house": "301",
      "postcode": "4600-055",
      "city": "AMARANTE",
      "lon": "-8.082493944423065",
      "lat": "41.2704006024408"
    },
    {
      "id": "pt.ine.add.PTCONT.3788289",
      "street": "R CÂNDIDO DOS REIS",
      "house": "235",
      "postcode": "4600-055",
      "city": "AMARANTE",
      "lon": "-8.082136461581909",
      "lat": "41.26968911198994"
    },
    {
      "id": "pt.ine.add.PTCONT.3788290",
      "street": "R CÂNDIDO DOS REIS",
      "house": "235",
      "postcode": "4600-055",
      "city": "AMARANTE",
      "lon": "-8.082136461581909",
      "lat": "41.26968911198994"
    },
    {
      "id": "pt.ine.add.PTCONT.3815952",
      "street": "R CÂNDIDO DOS REIS",
      "house": "299",
      "postcode": "4600-055",
      "city": "AMARANTE",
      "lon": "-8.082517889956224",
      "lat": "41.27030156663992"
    },
    {
      "id": "pt.ine.add.PTCONT.3815953",
      "street": "R AMIEIRO",
      "house": "84",
      "postcode": "4600-047",
      "city": "AMARANTE",
      "lon": "-8.08325780272057",
      "lat": "41.27033790623724"
    },
    {
      "id": "pt.ine.add.PTCONT.3830842",
      "street": "R AMIEIRO",
      "house": "36",
      "postcode": "4600-047",
      "city": "AMARANTE",
      "lon": "-8.083257590393126",
      "lat": "41.27061703669294"
    },
    {
      "id": "pt.ine.add.PTCONT.3922776",
      "street": "R CÂNDIDO DOS REIS",
      "house": "",
      "postcode": "4600-055",
      "city": "AMARANTE",
      "lon": "-8.082196070662572",
      "lat": "41.26977017627638"
    },
    {
      "id": "pt.ine.add.PTCONT.4043787",
      "street": "TV LIMOEIRO",
      "house": "61",
      "postcode": "4600-139",
      "city": "AMARANTE",
      "lon": "-8.083818752505694",
      "lat": "41.27030213090976"
    },
    {
      "id": "pt.ine.add.PTCONT.4056818",
      "street": "BR S MARTINHO",
      "house": "18",
      "postcode": "4600-022",
      "city": "AMARANTE",
      "lon": "-8.082446533428158",
      "lat": "41.26997738364037"
    },
    {
      "id": "pt.ine.add.PTCONT.4148887",
      "street": "R CÂNDIDO DOS REIS",
      "house": "361",
      "postcode": "4600-055",
      "city": "AMARANTE",
      "lon": "-8.082589066717697",
      "lat": "41.270859858978575"
    },
    {
      "id": "pt.ine.add.PTCONT.4155418",
      "street": "R CÂNDIDO DOS REIS",
      "house": "285",
      "postcode": "4600-055",
      "city": "AMARANTE",
      "lon": "-8.082482155958134",
      "lat": "41.27021150881684"
    },
    {
      "id": "pt.ine.add.PTCONT.4155419",
      "street": "R CÂNDIDO DOS REIS",
      "house": "285",
      "postcode": "4600-055",
      "city": "AMARANTE",
      "lon": "-8.082482155958134",
      "lat": "41.27021150881684"
    },
    {
      "id": "pt.ine.add.PTCONT.4155420",
      "street": "R CÂNDIDO DOS REIS",
      "house": "285",
      "postcode": "4600-055",
      "city": "AMARANTE",
      "lon": "-8.082482155958134",
      "lat": "41.27021150881684"
    },
    {
      "id": "pt.ine.add.PTCONT.4155421",
      "street": "R CÂNDIDO DOS REIS",
      "house": "285",
      "postcode": "4600-055",
      "city": "AMARANTE",
      "lon": "-8.082482155958134",
      "lat": "41.27021150881684"
    },
    {
      "id": "pt.ine.add.PTCONT.4162009",
      "street": "R CÂNDIDO DOS REIS",
      "house": "373",
      "postcode": "4600-055",
      "city": "AMARANTE",
      "lon": "-8.08260094582117",
      "lat": "41.2709318978749"
    },
    {
      "id": "pt.ine.add.PTCONT.4169343",
      "street": "R CÂNDIDO DOS REIS",
      "house": "",
      "postcode": "4600-055",
      "city": "AMARANTE",
      "lon": "-8.082279499879125",
      "lat": "41.26991428053447"
    },
    {
      "id": "pt.ine.add.PTCONT.4214396",
      "street": "R MANUEL BARROS",
      "house": "",
      "postcode": "4600-085",
      "city": "AMARANTE",
      "lon": "-8.083652233223106",
      "lat": "41.269554709896795"
    },
    {
      "id": "pt.ine.add.PTCONT.4231912",
      "street": "TV LEIRA DAS BUCAS",
      "house": "",
      "postcode": "4600-073",
      "city": "AMARANTE",
      "lon": "-8.08326937431961",
      "lat": "41.270815134433185"
    },
    {
      "id": "pt.ine.add.PTCONT.4259978",
      "street": "BR S MARTINHO",
      "house": "22",
      "postcode": "4600-022",
      "city": "AMARANTE",
      "lon": "-8.082339360452385",
      "lat": "41.26967119321511"
    },
    {
      "id": "pt.ine.add.PTCONT.4286784",
      "street": "R CÂNDIDO DOS REIS",
      "house": "",
      "postcode": "4600-055",
      "city": "AMARANTE",
      "lon": "-8.082231824997619",
      "lat": "41.26983322156755"
    },
    {
      "id": "pt.ine.add.PTCONT.4327084",
      "street": "TV LIMOEIRO",
      "house": "46",
      "postcode": "4600-139",
      "city": "AMARANTE",
      "lon": "-8.08352076425026",
      "lat": "41.26980677129688"
    },
    {
      "id": "pt.ine.add.PTCONT.4354264",
      "street": "R CÂNDIDO DOS REIS",
      "house": "403",
      "postcode": "4600-055",
      "city": "AMARANTE",
      "lon": "-8.082660445701935",
      "lat": "41.27115702921966"
    }
  ]
}