{
  "data": {
    "distrito": "Setúbal",
    "concelho": "Grândola",
    "freguesia": "União das freguesias de Grândola e Santa Margarida da Serra",
    "OBJECTID": 10,
    "BGRI2021": "15050600705",
    "DT21": "15",
    "DTMN21": "1505",
    "DTMNFR21": "150506",
    "DTMNFRSEC21": "150506007",
    "SECNUM21": "007",
    "SSNUM21": "05",
    "SECSSNUM21": "00705",
    "OBJECTID_1": 163260,
    "DT": "15",
    "CC": "05",
    "fr": "06",
    "SEC": "007",
    "SS": "05"
  },
  "addresses": [
    {
      "id": "pt.ine.add.PTCONT.4740967",
      "street": "MTE CASAS VELHAS",
      "house": "1",
      "postcode": "7570-336",
      "city": "GRÂNDOLA",
      "lon": "-8.549131996124554",
      "lat": "38.09755646793044"
    },
    {
      "id": "pt.ine.add.PTCONT.4752652",
      "street": "MTE ZAMBUJAL",
      "house": "",
      "postcode": "7570-336",
      "city": "GRÂNDOLA",
      "lon": "-8.544303918055745",
      "lat": "38.09246530632768"
    },
    {
      "id": "pt.ine.add.PTCONT.4759315",
      "street": "MTE NOVO DOS AVOS",
      "house": "",
      "postcode": "7570-336",
      "city": "GRÂNDOLA",
      "lon": "-8.536816421652984",
      "lat": "38.10112197814293"
    },
    {
      "id": "pt.ine.add.PTCONT.4773666",
      "street": "MTE PARRERINHA",
      "house": "",
      "postcode": "7570-336",
      "city": "GRÂNDOLA",
      "lon": "-8.53579092161245",
      "lat": "38.10098569127003"
    },
    {
      "id": "pt.ine.add.PTCONT.4787445",
      "street": "MTE OUTEIRO DO GAVIÃO",
      "house": "",
      "postcode": "7570-777",
      "city": "SANTA MARGARIDA DA SERRA",
      "lon": "-8.549681812468142",
      "lat": "38.091446930257206"
    },
    {
      "id": "pt.ine.add.PTCONT.4787446",
      "street": "MTE OUTEIRO DO GAVIÃO",
      "house": "",
      "postcode": "7570-777",
      "city": "SANTA MARGARIDA DA SERRA",
      "lon": "-8.549681812468142",
      "lat": "38.091446930257206"
    },
    {
      "id": "pt.ine.add.PTCONT.4877625",
      "street": "PARDIEIRO CIMA",
      "house": "2",
      "postcode": "7570-336",
      "city": "GRÂNDOLA",
      "lon": "-8.538754142167885",
      "lat": "38.101043232072286"
    },
    {
      "id": "pt.ine.add.PTCONT.4877876",
      "street": "PARDIEIRO CIMA",
      "house": "1",
      "postcode": "7570-336",
      "city": "GRÂNDOLA",
      "lon": "-8.53966629686996",
      "lat": "38.10105809777867"
    },
    {
      "id": "pt.ine.add.PTCONT.4962174",
      "street": "MTE LAMEIRO",
      "house": "1",
      "postcode": "7570-336",
      "city": "GRÂNDOLA",
      "lon": "-8.53365966526105",
      "lat": "38.090916468411095"
    },
    {
      "id": "pt.ine.add.PTCONT.5046071",
      "street": "MTE PARREIRINHA NOVA",
      "house": "",
      "postcode": "7570-336",
      "city": "GRÂNDOLA",
      "lon": "-8.536809666505974",
      "lat": "38.101603724351044"
    },
    {
      "id": "pt.ine.add.PTCONT.5064431",
      "street": "MTE LAMEIRO",
      "house": "2",
      "postcode": "7570-336",
      "city": "GRÂNDOLA",
      "lon": "-8.533986713231245",
      "lat": "38.092356809355714"
    },
    {
      "id": "pt.ine.add.PTCONT.5072495",
      "street": "MTE PEDRARIA",
      "house": "2",
      "postcode": "7570-336",
      "city": "GRÂNDOLA",
      "lon": "-8.540716141841095",
      "lat": "38.0971264984225"
    },
    {
      "id": "pt.ine.add.PTCONT.5089437",
      "street": "MTE OUTEIRO",
      "house": "",
      "postcode": "7570-777",
      "city": "SANTA MARGARIDA DA SERRA",
      "lon": "-8.55034082183666",
      "lat": "38.09403863682289"
    },
    {
      "id": "pt.ine.add.PTCONT.5089493",
      "street": "MTE PEDRARIA",
      "house": "",
      "postcode": "7570-336",
      "city": "GRÂNDOLA",
      "lon": "-8.540417951850614",
      "lat": "38.09709807266774"
    },
    {
      "id": "pt.ine.add.PTCONT.5108364",
      "street": "MTE CASINHA",
      "house": "",
      "postcode": "7570-336",
      "city": "GRÂNDOLA",
      "lon": "-8.536268643435026",
      "lat": "38.10102475891843"
    },
    {
      "id": "pt.ine.add.PTCONT.5131151",
      "street": "MTE CASAS VELHAS",
      "house": "2",
      "postcode": "7570-336",
      "city": "GRÂNDOLA",
      "lon": "-8.549095932177575",
      "lat": "38.097653593750636"
    }
  ]
}