{
  "data": {
    "distrito": "Setúbal",
    "concelho": "Grândola",
    "freguesia": "União das freguesias de Grândola e Santa Margarida da Serra",
    "OBJECTID": 30,
    "BGRI2021": "15050600707",
    "DT21": "15",
    "DTMN21": "1505",
    "DTMNFR21": "150506",
    "DTMNFRSEC21": "150506007",
    "SECNUM21": "007",
    "SSNUM21": "07",
    "SECSSNUM21": "00707",
    "OBJECTID_1": 163722,
    "DT": "15",
    "CC": "05",
    "fr": "06",
    "SEC": "007",
    "SS": "07"
  },
  "addresses": [
    {
      "id": "pt.ine.add.PTCONT.4671725",
      "street": "MTE MEIO",
      "house": "",
      "postcode": "7570-336",
      "city": "GRÂNDOLA",
      "lon": "-8.535970412160752",
      "lat": "38.102090234932135"
    },
    {
      "id": "pt.ine.add.PTCONT.4682385",
      "street": "CONVENTO VISO ESCOLA VISO",
      "house": "",
      "postcode": "7570-336",
      "city": "GRÂNDOLA",
      "lon": "-8.51725536869187",
      "lat": "38.0774434078464"
    },
    {
      "id": "pt.ine.add.PTCONT.4700746",
      "street": "MTE CORTE GRANDE",
      "house": "1",
      "postcode": "7570-336",
      "city": "GRÂNDOLA",
      "lon": "-8.514265728890605",
      "lat": "38.10996313087769"
    },
    {
      "id": "pt.ine.add.PTCONT.4740968",
      "street": "MTE FAIAL",
      "house": "1",
      "postcode": "7570-336",
      "city": "GRÂNDOLA",
      "lon": "-8.526640181763518",
      "lat": "38.0901347988714"
    },
    {
      "id": "pt.ine.add.PTCONT.4798529",
      "street": "MTE FONTE MUJA",
      "house": "",
      "postcode": "7570-336",
      "city": "GRÂNDOLA",
      "lon": "-8.531078477694711",
      "lat": "38.09631267914109"
    },
    {
      "id": "pt.ine.add.PTCONT.4826551",
      "street": "MTE CORTE GRANDE",
      "house": "2",
      "postcode": "7570-336",
      "city": "GRÂNDOLA",
      "lon": "-8.515200326121025",
      "lat": "38.10988802269066"
    },
    {
      "id": "pt.ine.add.PTCONT.4904817",
      "street": "MTE CASINHA",
      "house": "",
      "postcode": "7570-336",
      "city": "GRÂNDOLA",
      "lon": "-8.52852331096529",
      "lat": "38.10151983173374"
    },
    {
      "id": "pt.ine.add.PTCONT.4913132",
      "street": "VALE MILHO",
      "house": "",
      "postcode": "7570-336",
      "city": "GRÂNDOLA",
      "lon": "-8.535069498294037",
      "lat": "38.10065048546265"
    },
    {
      "id": "pt.ine.add.PTCONT.4934454",
      "street": "COURELA FONTE FRIA",
      "house": "",
      "postcode": "7570-336",
      "city": "GRÂNDOLA",
      "lon": "-8.528575336625773",
      "lat": "38.112776097719326"
    },
    {
      "id": "pt.ine.add.PTCONT.4962173",
      "street": "MTE PEDRAS",
      "house": "",
      "postcode": "7570-336",
      "city": "GRÂNDOLA",
      "lon": "-8.507862419344196",
      "lat": "38.088481400377766"
    },
    {
      "id": "pt.ine.add.PTCONT.4965761",
      "street": "MTE PARDIEIRO MEIO PARDIEIRO DO MEIO",
      "house": "",
      "postcode": "7570-336",
      "city": "GRÂNDOLA",
      "lon": "-8.5344892326486",
      "lat": "38.10294978575397"
    },
    {
      "id": "pt.ine.add.PTCONT.4972901",
      "street": "MTE FAIAL",
      "house": "2",
      "postcode": "7570-336",
      "city": "GRÂNDOLA",
      "lon": "-8.526637284795072",
      "lat": "38.089908915165736"
    },
    {
      "id": "pt.ine.add.PTCONT.4979714",
      "street": "MTE PARDIEIRO BAIXO",
      "house": "",
      "postcode": "7570-336",
      "city": "GRÂNDOLA",
      "lon": "-8.533680293375854",
      "lat": "38.100961538416435"
    },
    {
      "id": "pt.ine.add.PTCONT.4979715",
      "street": "MTE CORTINHA",
      "house": "",
      "postcode": "7570-336",
      "city": "GRÂNDOLA",
      "lon": "-8.519958784970667",
      "lat": "38.117109645160454"
    },
    {
      "id": "pt.ine.add.PTCONT.5103518",
      "street": "MTE CORTE GRANDE CORTE GRAND",
      "house": "3",
      "postcode": "7570-336",
      "city": "GRÂNDOLA",
      "lon": "-8.51702280250569",
      "lat": "38.10983746446647"
    },
    {
      "id": "pt.ine.add.PTCONT.5127762",
      "street": "MTE CORTE",
      "house": "",
      "postcode": "7570-336",
      "city": "GRÂNDOLA",
      "lon": "-8.51403370730523",
      "lat": "38.095718178504505"
    }
  ]
}