{
  "data": {
    "distrito": "Setúbal",
    "concelho": "Grândola",
    "freguesia": "União das freguesias de Grândola e Santa Margarida da Serra",
    "OBJECTID": 180,
    "BGRI2021": "15050600717",
    "DT21": "15",
    "DTMN21": "1505",
    "DTMNFR21": "150506",
    "DTMNFRSEC21": "150506007",
    "SECNUM21": "007",
    "SSNUM21": "17",
    "SECSSNUM21": "00717",
    "OBJECTID_1": 163331,
    "DT": "15",
    "CC": "05",
    "fr": "06",
    "SEC": "007",
    "SS": "17"
  },
  "addresses": [
    {
      "id": "pt.ine.add.PTCONT.4706221",
      "street": "LOTEAM DEFRONTE DA QUINTA ESTANQUE",
      "house": "",
      "postcode": "7570-344",
      "city": "GRÂNDOLA",
      "lon": "-8.599391659838723",
      "lat": "38.120169700771854"
    },
    {
      "id": "pt.ine.add.PTCONT.4726500",
      "street": "R JOÃO ANTÓNIO DE ALMEIDA",
      "house": "",
      "postcode": "7570-777",
      "city": "SANTA MARGARIDA DA SERRA",
      "lon": "-8.599463096444422",
      "lat": "38.12032972225456"
    },
    {
      "id": "pt.ine.add.PTCONT.4737327",
      "street": "CABECA DO CARDO",
      "house": "",
      "postcode": "7570-777",
      "city": "SANTA MARGARIDA DA SERRA",
      "lon": "-8.595230283455336",
      "lat": "38.12395192056526"
    },
    {
      "id": "pt.ine.add.PTCONT.4744305",
      "street": "R JOÃO ANTÓNIO DE ALMEIDA",
      "house": "",
      "postcode": "7570-777",
      "city": "SANTA MARGARIDA DA SERRA",
      "lon": "-8.599390784673284",
      "lat": "38.12048702509871"
    },
    {
      "id": "pt.ine.add.PTCONT.4766544",
      "street": "R JOÃO ANTÓNIO DE ALMEIDA",
      "house": "",
      "postcode": "7570-777",
      "city": "SANTA MARGARIDA DA SERRA",
      "lon": "-8.599466874526712",
      "lat": "38.12018413200707"
    },
    {
      "id": "pt.ine.add.PTCONT.4766545",
      "street": "CERCA DA ALDEIA",
      "house": "",
      "postcode": "7570-777",
      "city": "SANTA MARGARIDA DA SERRA",
      "lon": "-8.599385477688877",
      "lat": "38.11975597618681"
    },
    {
      "id": "pt.ine.add.PTCONT.4795286",
      "street": "R JOÃO ANTÓNIO DE ALMEIDA",
      "house": "",
      "postcode": "7570-777",
      "city": "SANTA MARGARIDA DA SERRA",
      "lon": "-8.599413597585714",
      "lat": "38.11958640995581"
    },
    {
      "id": "pt.ine.add.PTCONT.4831261",
      "street": "R JOÃO ANTÓNIO DE ALMEIDA",
      "house": "",
      "postcode": "7570-777",
      "city": "SANTA MARGARIDA DA SERRA",
      "lon": "-8.599492343655912",
      "lat": "38.11986299380661"
    },
    {
      "id": "pt.ine.add.PTCONT.4851458",
      "street": "MTE VALENTE",
      "house": "",
      "postcode": "7570-777",
      "city": "SANTA MARGARIDA DA SERRA",
      "lon": "-8.597130274206103",
      "lat": "38.1214309105227"
    },
    {
      "id": "pt.ine.add.PTCONT.4855424",
      "street": "SEQUOIA",
      "house": "",
      "postcode": "7570-777",
      "city": "SANTA MARGARIDA DA SERRA",
      "lon": "-8.59266811848578",
      "lat": "38.119278419804935"
    },
    {
      "id": "pt.ine.add.PTCONT.4875426",
      "street": "R JOÃO ANTÓNIO DE ALMEIDA",
      "house": "",
      "postcode": "7570-777",
      "city": "SANTA MARGARIDA DA SERRA",
      "lon": "-8.599448860836153",
      "lat": "38.11971415690617"
    },
    {
      "id": "pt.ine.add.PTCONT.4883249",
      "street": "CERCA DA ALDEIA",
      "house": "",
      "postcode": "7570-777",
      "city": "SANTA MARGARIDA DA SERRA",
      "lon": "-8.599299861392234",
      "lat": "38.119661983201624"
    },
    {
      "id": "pt.ine.add.PTCONT.4896474",
      "street": "R JOÃO ANTÓNIO DE ALMEIDA",
      "house": "",
      "postcode": "7570-777",
      "city": "SANTA MARGARIDA DA SERRA",
      "lon": "-8.599515781053439",
      "lat": "38.11996200019246"
    },
    {
      "id": "pt.ine.add.PTCONT.5060689",
      "street": "MTE EIRA NOVA",
      "house": "",
      "postcode": "7570-777",
      "city": "SANTA MARGARIDA DA SERRA",
      "lon": "-8.591019971367363",
      "lat": "38.11996839372025"
    },
    {
      "id": "pt.ine.add.PTCONT.5068070",
      "street": "R JOÃO ANTÓNIO DE ALMEIDA",
      "house": "",
      "postcode": "7570-777",
      "city": "SANTA MARGARIDA DA SERRA",
      "lon": "-8.59934111915617",
      "lat": "38.119395123979906"
    },
    {
      "id": "pt.ine.add.PTCONT.5089402",
      "street": "MTE PEDRA",
      "house": "",
      "postcode": "7570-777",
      "city": "SANTA MARGARIDA DA SERRA",
      "lon": "-8.596135707239231",
      "lat": "38.12466006913694"
    },
    {
      "id": "pt.ine.add.PTCONT.5093007",
      "street": "MTE EIRA VELHA",
      "house": "",
      "postcode": "7570-777",
      "city": "SANTA MARGARIDA DA SERRA",
      "lon": "-8.590934555063132",
      "lat": "38.12057996031261"
    },
    {
      "id": "pt.ine.add.PTCONT.5133906",
      "street": "CABECA DO CARDO",
      "house": "",
      "postcode": "7570-777",
      "city": "SANTA MARGARIDA DA SERRA",
      "lon": "-8.595230283455336",
      "lat": "38.12395192056526"
    }
  ]
}