{
  "data": {
    "distrito": "Setúbal",
    "concelho": "Grândola",
    "freguesia": "União das freguesias de Grândola e Santa Margarida da Serra",
    "OBJECTID": 252,
    "BGRI2021": "15050600734",
    "DT21": "15",
    "DTMN21": "1505",
    "DTMNFR21": "150506",
    "DTMNFRSEC21": "150506007",
    "SECNUM21": "007",
    "SSNUM21": "34",
    "SECSSNUM21": "00734",
    "OBJECTID_1": 163325,
    "DT": "15",
    "CC": "05",
    "fr": "06",
    "SEC": "007",
    "SS": "34"
  },
  "addresses": [
    {
      "id": "pt.ine.add.PTCONT.4671639",
      "street": "MTE VALE TELHEIRO",
      "house": "CCI 3079",
      "postcode": "7570-777",
      "city": "SANTA MARGARIDA DA SERRA",
      "lon": "-8.607103308643188",
      "lat": "38.134604908438504"
    },
    {
      "id": "pt.ine.add.PTCONT.4678663",
      "street": "MTE PARDEEIRO LOUZEIRO",
      "house": "",
      "postcode": "7570-777",
      "city": "SANTA MARGARIDA DA SERRA",
      "lon": "-8.608273862704438",
      "lat": "38.12612554627679"
    },
    {
      "id": "pt.ine.add.PTCONT.4682295",
      "street": "MTE COURELA DO VERDE",
      "house": "",
      "postcode": "7570-777",
      "city": "SANTA MARGARIDA DA SERRA",
      "lon": "-8.61538942560534",
      "lat": "38.12615003614728"
    },
    {
      "id": "pt.ine.add.PTCONT.4689863",
      "street": "MTE CARRADA",
      "house": "",
      "postcode": "7570-777",
      "city": "SANTA MARGARIDA DA SERRA",
      "lon": "-8.611664927296408",
      "lat": "38.12270370393019"
    },
    {
      "id": "pt.ine.add.PTCONT.4711362",
      "street": "MTE GAVETA",
      "house": "",
      "postcode": "7570-777",
      "city": "SANTA MARGARIDA DA SERRA",
      "lon": "-8.604426744998827",
      "lat": "38.121963860496024"
    },
    {
      "id": "pt.ine.add.PTCONT.4751193",
      "street": "MTE CARRADA",
      "house": "",
      "postcode": "7570-777",
      "city": "SANTA MARGARIDA DA SERRA",
      "lon": "-8.61085195218931",
      "lat": "38.123542945355176"
    },
    {
      "id": "pt.ine.add.PTCONT.4766546",
      "street": "MTE CARRADA",
      "house": "",
      "postcode": "7570-777",
      "city": "SANTA MARGARIDA DA SERRA",
      "lon": "-8.611171809483022",
      "lat": "38.123662905741554"
    },
    {
      "id": "pt.ine.add.PTCONT.4781483",
      "street": "VALE DAS PEREIRAS",
      "house": "",
      "postcode": "7570-777",
      "city": "SANTA MARGARIDA DA SERRA",
      "lon": "-8.606347003685075",
      "lat": "38.13936118926634"
    },
    {
      "id": "pt.ine.add.PTCONT.4808704",
      "street": "MTE RAPOSA DE CIMA",
      "house": "",
      "postcode": "7570-777",
      "city": "SANTA MARGARIDA DA SERRA",
      "lon": "-8.605383602773369",
      "lat": "38.11888178780334"
    },
    {
      "id": "pt.ine.add.PTCONT.4844149",
      "street": "MTE RAPOSA",
      "house": "",
      "postcode": "7570-777",
      "city": "SANTA MARGARIDA DA SERRA",
      "lon": "-8.610753668490279",
      "lat": "38.11899792729029"
    },
    {
      "id": "pt.ine.add.PTCONT.4862387",
      "street": "MTE VALE DA LOBA DE CIMA",
      "house": "",
      "postcode": "7570-777",
      "city": "SANTA MARGARIDA DA SERRA",
      "lon": "-8.60859787165944",
      "lat": "38.1154030559359"
    },
    {
      "id": "pt.ine.add.PTCONT.4862388",
      "street": "MTE VALE DA LOBA DE CIMA",
      "house": "",
      "postcode": "7570-777",
      "city": "SANTA MARGARIDA DA SERRA",
      "lon": "-8.60859787165944",
      "lat": "38.1154030559359"
    },
    {
      "id": "pt.ine.add.PTCONT.4865995",
      "street": "MTE VALE MELOES",
      "house": "",
      "postcode": "7570-777",
      "city": "SANTA MARGARIDA DA SERRA",
      "lon": "-8.61227589992152",
      "lat": "38.11286558078319"
    },
    {
      "id": "pt.ine.add.PTCONT.4892055",
      "street": "MTE CARRADA",
      "house": "",
      "postcode": "7570-777",
      "city": "SANTA MARGARIDA DA SERRA",
      "lon": "-8.61074932206269",
      "lat": "38.12348029945189"
    },
    {
      "id": "pt.ine.add.PTCONT.4905106",
      "street": "MTE CARAPETALINHO",
      "house": "",
      "postcode": "7570-777",
      "city": "SANTA MARGARIDA DA SERRA",
      "lon": "-8.605684362838039",
      "lat": "38.12249177205324"
    },
    {
      "id": "pt.ine.add.PTCONT.4905107",
      "street": "MTE CARAPETALINHO",
      "house": "",
      "postcode": "7570-777",
      "city": "SANTA MARGARIDA DA SERRA",
      "lon": "-8.605684362838039",
      "lat": "38.12249177205324"
    },
    {
      "id": "pt.ine.add.PTCONT.4936851",
      "street": "MTE COURELA DOS CASAROES",
      "house": "",
      "postcode": "7570-777",
      "city": "SANTA MARGARIDA DA SERRA",
      "lon": "-8.609451064532479",
      "lat": "38.12386585705546"
    },
    {
      "id": "pt.ine.add.PTCONT.4954691",
      "street": "MTE COURELA DOS PINHEIROS",
      "house": "",
      "postcode": "7570-777",
      "city": "SANTA MARGARIDA DA SERRA",
      "lon": "-8.613536952898638",
      "lat": "38.12259920102349"
    },
    {
      "id": "pt.ine.add.PTCONT.4969200",
      "street": "MTE VALE DA LOBA DO MEIO",
      "house": "",
      "postcode": "7570-777",
      "city": "SANTA MARGARIDA DA SERRA",
      "lon": "-8.608869318226889",
      "lat": "38.11505961341206"
    },
    {
      "id": "pt.ine.add.PTCONT.4976610",
      "street": "MTE VALE TELHEIRO",
      "house": "",
      "postcode": "7570-777",
      "city": "SANTA MARGARIDA DA SERRA",
      "lon": "-8.607232666603265",
      "lat": "38.1349540208272"
    },
    {
      "id": "pt.ine.add.PTCONT.4995575",
      "street": "MTE CABECA DE AGUIA",
      "house": "",
      "postcode": "7570-777",
      "city": "SANTA MARGARIDA DA SERRA",
      "lon": "-8.615746473802593",
      "lat": "38.12868368080403"
    },
    {
      "id": "pt.ine.add.PTCONT.5021883",
      "street": "MTE PARDEEIRO LOUZEIRO",
      "house": "",
      "postcode": "7570-777",
      "city": "SANTA MARGARIDA DA SERRA",
      "lon": "-8.607649164853227",
      "lat": "38.12643809446174"
    },
    {
      "id": "pt.ine.add.PTCONT.5049716",
      "street": "R ALCARIA",
      "house": "",
      "postcode": "7570-777",
      "city": "SANTA MARGARIDA DA SERRA",
      "lon": "-8.61372897897414",
      "lat": "38.140096624912594"
    },
    {
      "id": "pt.ine.add.PTCONT.5058868",
      "street": "MTE VALE DA LOBA DO MEIO",
      "house": "",
      "postcode": "7570-777",
      "city": "SANTA MARGARIDA DA SERRA",
      "lon": "-8.60887097780897",
      "lat": "38.114728704516445"
    },
    {
      "id": "pt.ine.add.PTCONT.5069658",
      "street": "MTE CARAPETAL",
      "house": "",
      "postcode": "7570-777",
      "city": "SANTA MARGARIDA DA SERRA",
      "lon": "-8.60857708848258",
      "lat": "38.124200299131104"
    },
    {
      "id": "pt.ine.add.PTCONT.5110436",
      "street": "MTE VALE DA LOBA DE BAIXO",
      "house": "",
      "postcode": "7570-777",
      "city": "SANTA MARGARIDA DA SERRA",
      "lon": "-8.610686887823611",
      "lat": "38.11692421271521"
    },
    {
      "id": "pt.ine.add.PTCONT.5110437",
      "street": "MTE VALE DA LOBA DE BAIXO",
      "house": "",
      "postcode": "7570-777",
      "city": "SANTA MARGARIDA DA SERRA",
      "lon": "-8.610686887823611",
      "lat": "38.11692421271521"
    },
    {
      "id": "pt.ine.add.PTCONT.5121986",
      "street": "VALE DAS PEREIRAS",
      "house": "",
      "postcode": "7570-777",
      "city": "SANTA MARGARIDA DA SERRA",
      "lon": "-8.606204253225636",
      "lat": "38.13918105801253"
    }
  ]
}