{
  "data": {
    "distrito": "Setúbal",
    "concelho": "Grândola",
    "freguesia": "União das freguesias de Grândola e Santa Margarida da Serra",
    "OBJECTID": 215,
    "BGRI2021": "15050600740",
    "DT21": "15",
    "DTMN21": "1505",
    "DTMNFR21": "150506",
    "DTMNFRSEC21": "150506007",
    "SECNUM21": "007",
    "SSNUM21": "40",
    "SECSSNUM21": "00740",
    "OBJECTID_1": 163543,
    "DT": "15",
    "CC": "05",
    "fr": "06",
    "SEC": "007",
    "SS": "40"
  },
  "addresses": [
    {
      "id": "pt.ine.add.PTCONT.4689912",
      "street": "MTE NOVO",
      "house": "3",
      "postcode": "7570-344",
      "city": "GRÂNDOLA",
      "lon": "-8.501097604293092",
      "lat": "38.14661790267735"
    },
    {
      "id": "pt.ine.add.PTCONT.4697255",
      "street": "MTE NOVO",
      "house": "1",
      "postcode": "7570-344",
      "city": "GRÂNDOLA",
      "lon": "-8.50162123127979",
      "lat": "38.14639103540653"
    },
    {
      "id": "pt.ine.add.PTCONT.4864198",
      "street": "IC 1 CABANA MAIORAL",
      "house": "",
      "postcode": "7570-344",
      "city": "GRÂNDOLA",
      "lon": "-8.51843900304037",
      "lat": "38.15552626257733"
    },
    {
      "id": "pt.ine.add.PTCONT.4915416",
      "street": "EN 269",
      "house": "",
      "postcode": "7570-107",
      "city": "GRÂNDOLA",
      "lon": "-8.523258815777448",
      "lat": "38.15647431443904"
    },
    {
      "id": "pt.ine.add.PTCONT.4936902",
      "street": "MTE JOAQUIM DANIEL",
      "house": "",
      "postcode": "7570-344",
      "city": "GRÂNDOLA",
      "lon": "-8.51953927706763",
      "lat": "38.15646859330551"
    },
    {
      "id": "pt.ine.add.PTCONT.4951056",
      "street": "FOROS VÁRZEA REDONDA BAIXO",
      "house": "",
      "postcode": "7570-344",
      "city": "GRÂNDOLA",
      "lon": "-8.516613669747985",
      "lat": "38.1550737802265"
    },
    {
      "id": "pt.ine.add.PTCONT.4983812",
      "street": "",
      "house": "",
      "postcode": "7570-107",
      "city": "GRÂNDOLA",
      "lon": "-8.521801597136907",
      "lat": "38.15922689192403"
    },
    {
      "id": "pt.ine.add.PTCONT.5113968",
      "street": "MTE NOVO",
      "house": "2",
      "postcode": "7570-344",
      "city": "GRÂNDOLA",
      "lon": "-8.501234226572294",
      "lat": "38.1465634204223"
    },
    {
      "id": "pt.ine.add.PTCONT.5122030",
      "street": "",
      "house": "",
      "postcode": "7570-107",
      "city": "GRÂNDOLA",
      "lon": "-8.51918559395245",
      "lat": "38.15847480400027"
    },
    {
      "id": "pt.ine.add.PTCONT.5122049",
      "street": "COURELA DO MONTE NOVO",
      "house": "",
      "postcode": "7570-344",
      "city": "GRÂNDOLA",
      "lon": "-8.496657022050414",
      "lat": "38.141442529285754"
    }
  ]
}