{
  "data": {
    "distrito": "Lisboa",
    "concelho": "Mafra",
    "freguesia": "Mafra",
    "OBJECTID": 67,
    "BGRI2021": "11090901008",
    "DT21": "11",
    "DTMN21": "1109",
    "DTMNFR21": "110909",
    "DTMNFRSEC21": "110909010",
    "SECNUM21": "010",
    "SSNUM21": "08",
    "SECSSNUM21": "01008",
    "OBJECTID_1": 109638,
    "DT": "11",
    "CC": "09",
    "fr": "09",
    "SEC": "010",
    "SS": "08"
  },
  "addresses": [
    {
      "id": "pt.ine.add.PTCONT.2289892",
      "street": "R JOAQUIM DUARTE RESINA",
      "house": "6",
      "postcode": "2640-400",
      "city": "MAFRA",
      "lon": "-9.334620600177516",
      "lat": "38.93600643775959"
    },
    {
      "id": "pt.ine.add.PTCONT.2289893",
      "street": "R JOAQUIM DUARTE RESINA",
      "house": "6",
      "postcode": "2640-400",
      "city": "MAFRA",
      "lon": "-9.334620600177516",
      "lat": "38.93600643775959"
    },
    {
      "id": "pt.ine.add.PTCONT.2289894",
      "street": "R JOAQUIM DUARTE RESINA",
      "house": "6",
      "postcode": "2640-400",
      "city": "MAFRA",
      "lon": "-9.334620600177516",
      "lat": "38.93600643775959"
    },
    {
      "id": "pt.ine.add.PTCONT.2289895",
      "street": "R JOAQUIM DUARTE RESINA",
      "house": "6",
      "postcode": "2640-400",
      "city": "MAFRA",
      "lon": "-9.334620600177516",
      "lat": "38.93600643775959"
    },
    {
      "id": "pt.ine.add.PTCONT.2289896",
      "street": "R JOAQUIM DUARTE RESINA",
      "house": "6",
      "postcode": "2640-400",
      "city": "MAFRA",
      "lon": "-9.334620600177516",
      "lat": "38.93600643775959"
    },
    {
      "id": "pt.ine.add.PTCONT.2289897",
      "street": "R JOAQUIM DUARTE RESINA",
      "house": "6",
      "postcode": "2640-400",
      "city": "MAFRA",
      "lon": "-9.334620600177516",
      "lat": "38.93600643775959"
    },
    {
      "id": "pt.ine.add.PTCONT.2289898",
      "street": "R JOAQUIM DUARTE RESINA",
      "house": "6",
      "postcode": "2640-400",
      "city": "MAFRA",
      "lon": "-9.334620600177516",
      "lat": "38.93600643775959"
    },
    {
      "id": "pt.ine.add.PTCONT.2289899",
      "street": "R JOAQUIM DUARTE RESINA",
      "house": "6",
      "postcode": "2640-400",
      "city": "MAFRA",
      "lon": "-9.334620600177516",
      "lat": "38.93600643775959"
    },
    {
      "id": "pt.ine.add.PTCONT.2289900",
      "street": "R JOAQUIM DUARTE RESINA",
      "house": "6",
      "postcode": "2640-400",
      "city": "MAFRA",
      "lon": "-9.334620600177516",
      "lat": "38.93600643775959"
    },
    {
      "id": "pt.ine.add.PTCONT.2289902",
      "street": "R JOAQUIM DUARTE RESINA",
      "house": "6",
      "postcode": "2640-400",
      "city": "MAFRA",
      "lon": "-9.334620600177516",
      "lat": "38.93600643775959"
    },
    {
      "id": "pt.ine.add.PTCONT.2316875",
      "street": "R JOAQUIM DUARTE RESINA",
      "house": "4",
      "postcode": "2640-400",
      "city": "MAFRA",
      "lon": "-9.33470374843535",
      "lat": "38.93614970065511"
    },
    {
      "id": "pt.ine.add.PTCONT.2316876",
      "street": "R JOAQUIM DUARTE RESINA",
      "house": "4",
      "postcode": "2640-400",
      "city": "MAFRA",
      "lon": "-9.33470374843535",
      "lat": "38.93614970065511"
    },
    {
      "id": "pt.ine.add.PTCONT.2316877",
      "street": "R JOAQUIM DUARTE RESINA",
      "house": "4",
      "postcode": "2640-400",
      "city": "MAFRA",
      "lon": "-9.33470374843535",
      "lat": "38.93614970065511"
    },
    {
      "id": "pt.ine.add.PTCONT.2316878",
      "street": "R JOAQUIM DUARTE RESINA",
      "house": "4",
      "postcode": "2640-400",
      "city": "MAFRA",
      "lon": "-9.33470374843535",
      "lat": "38.93614970065511"
    },
    {
      "id": "pt.ine.add.PTCONT.2316879",
      "street": "R JOAQUIM DUARTE RESINA",
      "house": "4",
      "postcode": "2640-400",
      "city": "MAFRA",
      "lon": "-9.33470374843535",
      "lat": "38.93614970065511"
    },
    {
      "id": "pt.ine.add.PTCONT.2316880",
      "street": "R JOAQUIM DUARTE RESINA",
      "house": "4",
      "postcode": "2640-400",
      "city": "MAFRA",
      "lon": "-9.33470374843535",
      "lat": "38.93614970065511"
    },
    {
      "id": "pt.ine.add.PTCONT.2316881",
      "street": "R JOAQUIM DUARTE RESINA",
      "house": "4",
      "postcode": "2640-400",
      "city": "MAFRA",
      "lon": "-9.33470374843535",
      "lat": "38.93614970065511"
    },
    {
      "id": "pt.ine.add.PTCONT.2316882",
      "street": "R JOAQUIM DUARTE RESINA",
      "house": "4",
      "postcode": "2640-400",
      "city": "MAFRA",
      "lon": "-9.33470374843535",
      "lat": "38.93614970065511"
    },
    {
      "id": "pt.ine.add.PTCONT.2320454",
      "street": "R JOAQUIM DUARTE RESINA",
      "house": "4",
      "postcode": "2640-400",
      "city": "MAFRA",
      "lon": "-9.33470374843535",
      "lat": "38.93614970065511"
    },
    {
      "id": "pt.ine.add.PTCONT.2320956",
      "street": "R JOAQUIM DUARTE RESINA",
      "house": "4",
      "postcode": "2640-400",
      "city": "MAFRA",
      "lon": "-9.33470374843535",
      "lat": "38.93614970065511"
    },
    {
      "id": "pt.ine.add.PTCONT.2399448",
      "street": "LG BRITO",
      "house": "7",
      "postcode": "2640-464",
      "city": "MAFRA",
      "lon": "-9.335922254791685",
      "lat": "38.93659652843593"
    },
    {
      "id": "pt.ine.add.PTCONT.2517237",
      "street": "LG BRITO",
      "house": "8",
      "postcode": "2640-464",
      "city": "MAFRA",
      "lon": "-9.336014046215938",
      "lat": "38.93656856014003"
    },
    {
      "id": "pt.ine.add.PTCONT.2529226",
      "street": "LG BRITO",
      "house": "3",
      "postcode": "2640-464",
      "city": "MAFRA",
      "lon": "-9.335693764727015",
      "lat": "38.936724986965444"
    },
    {
      "id": "pt.ine.add.PTCONT.2580659",
      "street": "LG COR BRITO GORJ√ÉO",
      "house": "9",
      "postcode": "2640-465",
      "city": "MAFRA",
      "lon": "-9.336093241356796",
      "lat": "38.9364776696002"
    },
    {
      "id": "pt.ine.add.PTCONT.2625395",
      "street": "R SERPA PINTO",
      "house": "101",
      "postcode": "2640-534",
      "city": "MAFRA",
      "lon": "-9.334793281476012",
      "lat": "38.93667120981406"
    },
    {
      "id": "pt.ine.add.PTCONT.2625396",
      "street": "R SERPA PINTO",
      "house": "101",
      "postcode": "2640-534",
      "city": "MAFRA",
      "lon": "-9.334793281476012",
      "lat": "38.93667120981406"
    },
    {
      "id": "pt.ine.add.PTCONT.2625397",
      "street": "R SERPA PINTO",
      "house": "101",
      "postcode": "2640-534",
      "city": "MAFRA",
      "lon": "-9.334793281476012",
      "lat": "38.93667120981406"
    },
    {
      "id": "pt.ine.add.PTCONT.2625398",
      "street": "R SERPA PINTO",
      "house": "101",
      "postcode": "2640-534",
      "city": "MAFRA",
      "lon": "-9.334793281476012",
      "lat": "38.93667120981406"
    },
    {
      "id": "pt.ine.add.PTCONT.2625399",
      "street": "R SERPA PINTO",
      "house": "101",
      "postcode": "2640-534",
      "city": "MAFRA",
      "lon": "-9.334793281476012",
      "lat": "38.93667120981406"
    },
    {
      "id": "pt.ine.add.PTCONT.2625400",
      "street": "R SERPA PINTO",
      "house": "101",
      "postcode": "2640-534",
      "city": "MAFRA",
      "lon": "-9.334793281476012",
      "lat": "38.93667120981406"
    },
    {
      "id": "pt.ine.add.PTCONT.2740150",
      "street": "R SERPA PINTO",
      "house": "95",
      "postcode": "2640-534",
      "city": "MAFRA",
      "lon": "-9.33426331089897",
      "lat": "38.936703687479906"
    },
    {
      "id": "pt.ine.add.PTCONT.2740151",
      "street": "R SERPA PINTO",
      "house": "95",
      "postcode": "2640-534",
      "city": "MAFRA",
      "lon": "-9.33426331089897",
      "lat": "38.936703687479906"
    },
    {
      "id": "pt.ine.add.PTCONT.2740152",
      "street": "R SERPA PINTO",
      "house": "95",
      "postcode": "2640-534",
      "city": "MAFRA",
      "lon": "-9.33426331089897",
      "lat": "38.936703687479906"
    },
    {
      "id": "pt.ine.add.PTCONT.2740153",
      "street": "R SERPA PINTO",
      "house": "95",
      "postcode": "2640-534",
      "city": "MAFRA",
      "lon": "-9.33426331089897",
      "lat": "38.936703687479906"
    },
    {
      "id": "pt.ine.add.PTCONT.2740154",
      "street": "R SERPA PINTO",
      "house": "95",
      "postcode": "2640-534",
      "city": "MAFRA",
      "lon": "-9.33426331089897",
      "lat": "38.936703687479906"
    },
    {
      "id": "pt.ine.add.PTCONT.2740155",
      "street": "R SERPA PINTO",
      "house": "95",
      "postcode": "2640-534",
      "city": "MAFRA",
      "lon": "-9.33426331089897",
      "lat": "38.936703687479906"
    },
    {
      "id": "pt.ine.add.PTCONT.2758172",
      "street": "R TECEDEIRAS",
      "house": "9",
      "postcode": "2640-537",
      "city": "MAFRA",
      "lon": "-9.33640214211044",
      "lat": "38.93633036644529"
    },
    {
      "id": "pt.ine.add.PTCONT.2893945",
      "street": "R JOAQUIM DUARTE RESINA",
      "house": "2",
      "postcode": "2640-400",
      "city": "MAFRA",
      "lon": "-9.334775214079995",
      "lat": "38.93628407633836"
    },
    {
      "id": "pt.ine.add.PTCONT.2893946",
      "street": "R JOAQUIM DUARTE RESINA",
      "house": "2",
      "postcode": "2640-400",
      "city": "MAFRA",
      "lon": "-9.334775214079995",
      "lat": "38.93628407633836"
    },
    {
      "id": "pt.ine.add.PTCONT.2893947",
      "street": "R JOAQUIM DUARTE RESINA",
      "house": "2",
      "postcode": "2640-400",
      "city": "MAFRA",
      "lon": "-9.334775214079995",
      "lat": "38.93628407633836"
    },
    {
      "id": "pt.ine.add.PTCONT.2893948",
      "street": "R JOAQUIM DUARTE RESINA",
      "house": "2",
      "postcode": "2640-400",
      "city": "MAFRA",
      "lon": "-9.334775214079995",
      "lat": "38.93628407633836"
    },
    {
      "id": "pt.ine.add.PTCONT.2893949",
      "street": "R JOAQUIM DUARTE RESINA",
      "house": "2",
      "postcode": "2640-400",
      "city": "MAFRA",
      "lon": "-9.334775214079995",
      "lat": "38.93628407633836"
    },
    {
      "id": "pt.ine.add.PTCONT.2896289",
      "street": "R JOAQUIM DUARTE RESINA",
      "house": "2",
      "postcode": "2640-400",
      "city": "MAFRA",
      "lon": "-9.334775214079995",
      "lat": "38.93628407633836"
    },
    {
      "id": "pt.ine.add.PTCONT.2896290",
      "street": "R JOAQUIM DUARTE RESINA",
      "house": "2",
      "postcode": "2640-400",
      "city": "MAFRA",
      "lon": "-9.334775214079995",
      "lat": "38.93628407633836"
    },
    {
      "id": "pt.ine.add.PTCONT.2896291",
      "street": "R JOAQUIM DUARTE RESINA",
      "house": "2",
      "postcode": "2640-400",
      "city": "MAFRA",
      "lon": "-9.334775214079995",
      "lat": "38.93628407633836"
    },
    {
      "id": "pt.ine.add.PTCONT.2896292",
      "street": "R JOAQUIM DUARTE RESINA",
      "house": "2",
      "postcode": "2640-400",
      "city": "MAFRA",
      "lon": "-9.334775214079995",
      "lat": "38.93628407633836"
    },
    {
      "id": "pt.ine.add.PTCONT.2896911",
      "street": "R JOAQUIM DUARTE RESINA",
      "house": "2",
      "postcode": "2640-400",
      "city": "MAFRA",
      "lon": "-9.334775214079995",
      "lat": "38.93628407633836"
    },
    {
      "id": "pt.ine.add.PTCONT.2917973",
      "street": "R TECEDEIRAS",
      "house": "7",
      "postcode": "2640-537",
      "city": "MAFRA",
      "lon": "-9.336322186508907",
      "lat": "38.93637622788769"
    },
    {
      "id": "pt.ine.add.PTCONT.2929565",
      "street": "R SERPA PINTO",
      "house": "97",
      "postcode": "2640-534",
      "city": "MAFRA",
      "lon": "-9.334435972180945",
      "lat": "38.93668389555476"
    },
    {
      "id": "pt.ine.add.PTCONT.2929566",
      "street": "R SERPA PINTO",
      "house": "97",
      "postcode": "2640-534",
      "city": "MAFRA",
      "lon": "-9.334435972180945",
      "lat": "38.93668389555476"
    },
    {
      "id": "pt.ine.add.PTCONT.2929567",
      "street": "R SERPA PINTO",
      "house": "97",
      "postcode": "2640-534",
      "city": "MAFRA",
      "lon": "-9.334435972180945",
      "lat": "38.93668389555476"
    },
    {
      "id": "pt.ine.add.PTCONT.2929568",
      "street": "R SERPA PINTO",
      "house": "97",
      "postcode": "2640-534",
      "city": "MAFRA",
      "lon": "-9.334435972180945",
      "lat": "38.93668389555476"
    },
    {
      "id": "pt.ine.add.PTCONT.2929576",
      "street": "R SERPA PINTO",
      "house": "97",
      "postcode": "2640-534",
      "city": "MAFRA",
      "lon": "-9.334435972180945",
      "lat": "38.93668389555476"
    },
    {
      "id": "pt.ine.add.PTCONT.2929577",
      "street": "R SERPA PINTO",
      "house": "97",
      "postcode": "2640-534",
      "city": "MAFRA",
      "lon": "-9.334435972180945",
      "lat": "38.93668389555476"
    },
    {
      "id": "pt.ine.add.PTCONT.2929578",
      "street": "R SERPA PINTO",
      "house": "97",
      "postcode": "2640-534",
      "city": "MAFRA",
      "lon": "-9.334435972180945",
      "lat": "38.93668389555476"
    },
    {
      "id": "pt.ine.add.PTCONT.2934955",
      "street": "R SERPA PINTO",
      "house": "97",
      "postcode": "2640-534",
      "city": "MAFRA",
      "lon": "-9.334435972180945",
      "lat": "38.93668389555476"
    },
    {
      "id": "pt.ine.add.PTCONT.3105508",
      "street": "R SERPA PINTO",
      "house": "99",
      "postcode": "2640-534",
      "city": "MAFRA",
      "lon": "-9.334631999357427",
      "lat": "38.93668187769378"
    },
    {
      "id": "pt.ine.add.PTCONT.3105509",
      "street": "R SERPA PINTO",
      "house": "99",
      "postcode": "2640-534",
      "city": "MAFRA",
      "lon": "-9.334631999357427",
      "lat": "38.93668187769378"
    },
    {
      "id": "pt.ine.add.PTCONT.3105510",
      "street": "R SERPA PINTO",
      "house": "99",
      "postcode": "2640-534",
      "city": "MAFRA",
      "lon": "-9.334631999357427",
      "lat": "38.93668187769378"
    },
    {
      "id": "pt.ine.add.PTCONT.3105511",
      "street": "R SERPA PINTO",
      "house": "99",
      "postcode": "2640-534",
      "city": "MAFRA",
      "lon": "-9.334631999357427",
      "lat": "38.93668187769378"
    },
    {
      "id": "pt.ine.add.PTCONT.3105512",
      "street": "R SERPA PINTO",
      "house": "99",
      "postcode": "2640-534",
      "city": "MAFRA",
      "lon": "-9.334631999357427",
      "lat": "38.93668187769378"
    },
    {
      "id": "pt.ine.add.PTCONT.3108131",
      "street": "R SERPA PINTO",
      "house": "99",
      "postcode": "2640-534",
      "city": "MAFRA",
      "lon": "-9.334631999357427",
      "lat": "38.93668187769378"
    },
    {
      "id": "pt.ine.add.PTCONT.3132568",
      "street": "LG BRITO",
      "house": "2",
      "postcode": "2640-464",
      "city": "MAFRA",
      "lon": "-9.335371352612503",
      "lat": "38.93675533085378"
    },
    {
      "id": "pt.ine.add.PTCONT.3152200",
      "street": "R TECEDEIRAS",
      "house": "13",
      "postcode": "2640-537",
      "city": "MAFRA",
      "lon": "-9.336562053002462",
      "lat": "38.93623864340006"
    },
    {
      "id": "pt.ine.add.PTCONT.3225528",
      "street": "R TECEDEIRAS",
      "house": "11",
      "postcode": "2640-537",
      "city": "MAFRA",
      "lon": "-9.336482249831786",
      "lat": "38.93629351080915"
    },
    {
      "id": "pt.ine.add.PTCONT.3225529",
      "street": "LG COR BRITO GORJ√ÉO",
      "house": "11",
      "postcode": "2640-465",
      "city": "MAFRA",
      "lon": "-9.336174414705857",
      "lat": "38.93650385519516"
    },
    {
      "id": "pt.ine.add.PTCONT.3302430",
      "street": "R TECEDEIRAS",
      "house": "2",
      "postcode": "2640-537",
      "city": "MAFRA",
      "lon": "-9.336161970626934",
      "lat": "38.93644993889086"
    },
    {
      "id": "pt.ine.add.PTCONT.3372244",
      "street": "R JOAQUIM DUARTE RESINA",
      "house": "8",
      "postcode": "2640-400",
      "city": "MAFRA",
      "lon": "-9.334502555685567",
      "lat": "38.93584551914495"
    },
    {
      "id": "pt.ine.add.PTCONT.3372245",
      "street": "R JOAQUIM DUARTE RESINA",
      "house": "8",
      "postcode": "2640-400",
      "city": "MAFRA",
      "lon": "-9.334502555685567",
      "lat": "38.93584551914495"
    },
    {
      "id": "pt.ine.add.PTCONT.3372246",
      "street": "R JOAQUIM DUARTE RESINA",
      "house": "8",
      "postcode": "2640-400",
      "city": "MAFRA",
      "lon": "-9.334502555685567",
      "lat": "38.93584551914495"
    },
    {
      "id": "pt.ine.add.PTCONT.3372247",
      "street": "R JOAQUIM DUARTE RESINA",
      "house": "8",
      "postcode": "2640-400",
      "city": "MAFRA",
      "lon": "-9.334502555685567",
      "lat": "38.93584551914495"
    },
    {
      "id": "pt.ine.add.PTCONT.3372248",
      "street": "R JOAQUIM DUARTE RESINA",
      "house": "8",
      "postcode": "2640-400",
      "city": "MAFRA",
      "lon": "-9.334502555685567",
      "lat": "38.93584551914495"
    },
    {
      "id": "pt.ine.add.PTCONT.3372249",
      "street": "R JOAQUIM DUARTE RESINA",
      "house": "8",
      "postcode": "2640-400",
      "city": "MAFRA",
      "lon": "-9.334502555685567",
      "lat": "38.93584551914495"
    },
    {
      "id": "pt.ine.add.PTCONT.3372391",
      "street": "R JOAQUIM DUARTE RESINA",
      "house": "8",
      "postcode": "2640-400",
      "city": "MAFRA",
      "lon": "-9.334502555685567",
      "lat": "38.93584551914495"
    },
    {
      "id": "pt.ine.add.PTCONT.3377202",
      "street": "R JOAQUIM DUARTE RESINA",
      "house": "8",
      "postcode": "2640-400",
      "city": "MAFRA",
      "lon": "-9.334502555685567",
      "lat": "38.93584551914495"
    },
    {
      "id": "pt.ine.add.PTCONT.3377203",
      "street": "R JOAQUIM DUARTE RESINA",
      "house": "8",
      "postcode": "2640-400",
      "city": "MAFRA",
      "lon": "-9.334502555685567",
      "lat": "38.93584551914495"
    },
    {
      "id": "pt.ine.add.PTCONT.3378928",
      "street": "R JOAQUIM DUARTE RESINA",
      "house": "8",
      "postcode": "2640-400",
      "city": "MAFRA",
      "lon": "-9.334502555685567",
      "lat": "38.93584551914495"
    },
    {
      "id": "pt.ine.add.PTCONT.3382972",
      "street": "R TECEDEIRAS",
      "house": "3",
      "postcode": "2640-537",
      "city": "MAFRA",
      "lon": "-9.336231460805665",
      "lat": "38.9364672374434"
    },
    {
      "id": "pt.ine.add.PTCONT.3427517",
      "street": "R TECEDEIRAS",
      "house": "5",
      "postcode": "2640-537",
      "city": "MAFRA",
      "lon": "-9.336265140528639",
      "lat": "38.93641284568245"
    }
  ]
}