{
  "data": {
    "distrito": "Coimbra",
    "concelho": "Oliveira do Hospital",
    "freguesia": "Meruge",
    "OBJECTID": 367,
    "BGRI2021": "06111000107",
    "DT21": "06",
    "DTMN21": "0611",
    "DTMNFR21": "061110",
    "DTMNFRSEC21": "061110001",
    "SECNUM21": "001",
    "SSNUM21": "07",
    "SECSSNUM21": "00107",
    "OBJECTID_1": 54782,
    "DT": "06",
    "CC": "11",
    "fr": "10",
    "SEC": "001",
    "SS": "07"
  },
  "addresses": [
    {
      "id": "pt.ine.add.PTCONT.1101541",
      "street": "R HEITOR PRATA",
      "house": "2",
      "postcode": "3405-378",
      "city": "MERUGE",
      "lon": "-7.817947303664151",
      "lat": "40.38773589521884"
    },
    {
      "id": "pt.ine.add.PTCONT.1117038",
      "street": "R JOAQUIM CAMPOS DE OLIVEIRA",
      "house": "4",
      "postcode": "3405-378",
      "city": "MERUGE",
      "lon": "-7.815757684148332",
      "lat": "40.387531784381245"
    },
    {
      "id": "pt.ine.add.PTCONT.1130164",
      "street": "BR NOVO",
      "house": "5",
      "postcode": "3405-354",
      "city": "MERUGE",
      "lon": "-7.816900006459643",
      "lat": "40.39006547879166"
    },
    {
      "id": "pt.ine.add.PTCONT.1132362",
      "street": "BR DA ESCOLA PRIM√ÅRIA",
      "house": "1",
      "postcode": "3405-377",
      "city": "MERUGE",
      "lon": "-7.816650029263056",
      "lat": "40.385598031514306"
    },
    {
      "id": "pt.ine.add.PTCONT.1151171",
      "street": "",
      "house": "",
      "postcode": "3405-353",
      "city": "MERUGE",
      "lon": "-7.813129996865819",
      "lat": "40.390307264260194"
    },
    {
      "id": "pt.ine.add.PTCONT.1178031",
      "street": "R JOAQUIM RIBEIRO AMARAL",
      "house": "13",
      "postcode": "3405-377",
      "city": "MERUGE",
      "lon": "-7.815199072727603",
      "lat": "40.38610736952133"
    },
    {
      "id": "pt.ine.add.PTCONT.1188832",
      "street": "R JOAQUIM RIBEIRO AMARAL",
      "house": "7",
      "postcode": "3405-377",
      "city": "MERUGE",
      "lon": "-7.815198225932808",
      "lat": "40.38628747866975"
    },
    {
      "id": "pt.ine.add.PTCONT.1190781",
      "street": "BR NOVO",
      "house": "1",
      "postcode": "3405-354",
      "city": "MERUGE",
      "lon": "-7.815694975464976",
      "lat": "40.390854667315466"
    },
    {
      "id": "pt.ine.add.PTCONT.1192690",
      "street": "BR MATA JOANA",
      "house": "3",
      "postcode": "3405-354",
      "city": "MERUGE",
      "lon": "-7.813289813676081",
      "lat": "40.391379368765236"
    },
    {
      "id": "pt.ine.add.PTCONT.1205059",
      "street": "BR NOVO",
      "house": "3",
      "postcode": "3405-354",
      "city": "MERUGE",
      "lon": "-7.81588468616016",
      "lat": "40.39058502089029"
    },
    {
      "id": "pt.ine.add.PTCONT.1210524",
      "street": "QTA DO PASSAL",
      "house": "",
      "postcode": "3405-377",
      "city": "MERUGE",
      "lon": "-7.812523078314752",
      "lat": "40.38665832747948"
    },
    {
      "id": "pt.ine.add.PTCONT.1210525",
      "street": "QTA DO PASSAL",
      "house": "",
      "postcode": "3405-377",
      "city": "MERUGE",
      "lon": "-7.812523078314752",
      "lat": "40.38665832747948"
    },
    {
      "id": "pt.ine.add.PTCONT.1231131",
      "street": "R JOAQUIM RIBEIRO AMARAL",
      "house": "5",
      "postcode": "3405-377",
      "city": "MERUGE",
      "lon": "-7.81509214918237",
      "lat": "40.386305198150204"
    },
    {
      "id": "pt.ine.add.PTCONT.1247023",
      "street": "BR MATA JOANA",
      "house": "5",
      "postcode": "3405-354",
      "city": "MERUGE",
      "lon": "-7.813526092942362",
      "lat": "40.39122692738716"
    },
    {
      "id": "pt.ine.add.PTCONT.1252658",
      "street": "QTA DAS LAMEIRINHAS",
      "house": "",
      "postcode": "3405-378",
      "city": "MERUGE",
      "lon": "-7.814695835832847",
      "lat": "40.38793411618097"
    },
    {
      "id": "pt.ine.add.PTCONT.1258293",
      "street": "R JOAQUIM RIBEIRO AMARAL",
      "house": "1",
      "postcode": "3405-377",
      "city": "MERUGE",
      "lon": "-7.815708901802646",
      "lat": "40.38537931843363"
    },
    {
      "id": "pt.ine.add.PTCONT.1286272",
      "street": "R JOAQUIM RIBEIRO AMARAL",
      "house": "3",
      "postcode": "3405-377",
      "city": "MERUGE",
      "lon": "-7.814799422488834",
      "lat": "40.38594416981397"
    },
    {
      "id": "pt.ine.add.PTCONT.1353312",
      "street": "R JOAQUIM RIBEIRO AMARAL",
      "house": "9",
      "postcode": "3405-377",
      "city": "MERUGE",
      "lon": "-7.81509286919905",
      "lat": "40.386152105376446"
    },
    {
      "id": "pt.ine.add.PTCONT.1357628",
      "street": "BR MATA JOANA",
      "house": "7",
      "postcode": "3405-354",
      "city": "MERUGE",
      "lon": "-7.81392645149329",
      "lat": "40.391246044280706"
    },
    {
      "id": "pt.ine.add.PTCONT.1366503",
      "street": "R JOAQUIM RIBEIRO AMARAL",
      "house": "11",
      "postcode": "3405-377",
      "city": "MERUGE",
      "lon": "-7.815163234008344",
      "lat": "40.386215337877445"
    }
  ]
}