{
  "data": {
    "distrito": "Leiria",
    "concelho": "Alcobaça",
    "freguesia": "União das freguesias de Coz, Alpedriz e Montes",
    "OBJECTID": 310,
    "BGRI2021": "10012200110",
    "DT21": "10",
    "DTMN21": "1001",
    "DTMNFR21": "100122",
    "DTMNFRSEC21": "100122001",
    "SECNUM21": "001",
    "SSNUM21": "10",
    "SECSSNUM21": "00110",
    "OBJECTID_1": 84650,
    "DT": "10",
    "CC": "01",
    "fr": "22",
    "SEC": "001",
    "SS": "10"
  },
  "addresses": [
    {
      "id": "pt.ine.add.PTCONT.1986060",
      "street": "R RIO MOINHO",
      "house": "",
      "postcode": "2460-263",
      "city": "ALPEDRIZ",
      "lon": "-8.94640487676195",
      "lat": "39.625385447535045"
    },
    {
      "id": "pt.ine.add.PTCONT.2019371",
      "street": "R PONTE DA PEDRA",
      "house": "",
      "postcode": "2460-254",
      "city": "ALPEDRIZ",
      "lon": "-8.950043681815064",
      "lat": "39.625810245114586"
    },
    {
      "id": "pt.ine.add.PTCONT.2019372",
      "street": "R RIO MOINHO",
      "house": "2",
      "postcode": "2460-263",
      "city": "ALPEDRIZ",
      "lon": "-8.946397650093461",
      "lat": "39.62377331455286"
    },
    {
      "id": "pt.ine.add.PTCONT.2029145",
      "street": "R PONTE DA PEDRA",
      "house": "",
      "postcode": "2460-254",
      "city": "ALPEDRIZ",
      "lon": "-8.95013271837811",
      "lat": "39.62545836117942"
    },
    {
      "id": "pt.ine.add.PTCONT.2035865",
      "street": "R SEIXEIRA",
      "house": "4",
      "postcode": "2460-259",
      "city": "ALPEDRIZ",
      "lon": "-8.947839720639688",
      "lat": "39.62657327214677"
    },
    {
      "id": "pt.ine.add.PTCONT.2064758",
      "street": "R RIO MOINHO",
      "house": "5",
      "postcode": "2460-263",
      "city": "ALPEDRIZ",
      "lon": "-8.947812731718264",
      "lat": "39.626258230125536"
    },
    {
      "id": "pt.ine.add.PTCONT.2072788",
      "street": "AV D AFONSO HENRIQUES",
      "house": "80",
      "postcode": "2460-240",
      "city": "ALPEDRIZ",
      "lon": "-8.945540975654074",
      "lat": "39.62521136040897"
    },
    {
      "id": "pt.ine.add.PTCONT.2087141",
      "street": "R HENRIQUE SANTOS",
      "house": "12",
      "postcode": "2460-246",
      "city": "ALPEDRIZ",
      "lon": "-8.949381556771982",
      "lat": "39.62595900537352"
    },
    {
      "id": "pt.ine.add.PTCONT.2127730",
      "street": "R RIO MOINHO",
      "house": "12",
      "postcode": "2460-263",
      "city": "ALPEDRIZ",
      "lon": "-8.946550578559759",
      "lat": "39.62489807035415"
    },
    {
      "id": "pt.ine.add.PTCONT.2139931",
      "street": "LG ROSSIO",
      "house": "3",
      "postcode": "2460-257",
      "city": "ALPEDRIZ",
      "lon": "-8.950032883145864",
      "lat": "39.62588237392544"
    },
    {
      "id": "pt.ine.add.PTCONT.2144209",
      "street": "R RIO MOINHO",
      "house": "8",
      "postcode": "2460-263",
      "city": "ALPEDRIZ",
      "lon": "-8.946960924331796",
      "lat": "39.62512936811775"
    },
    {
      "id": "pt.ine.add.PTCONT.2192335",
      "street": "R PONTE DA PEDRA",
      "house": "",
      "postcode": "2460-254",
      "city": "ALPEDRIZ",
      "lon": "-8.950054268642521",
      "lat": "39.625720104573965"
    },
    {
      "id": "pt.ine.add.PTCONT.2223435",
      "street": "LG ROSSIO",
      "house": "1",
      "postcode": "2460-257",
      "city": "ALPEDRIZ",
      "lon": "-8.949975288827087",
      "lat": "39.6259368185906"
    },
    {
      "id": "pt.ine.add.PTCONT.2223436",
      "street": "LG ROSSIO",
      "house": "1",
      "postcode": "2460-257",
      "city": "ALPEDRIZ",
      "lon": "-8.949975288827087",
      "lat": "39.6259368185906"
    },
    {
      "id": "pt.ine.add.PTCONT.2223437",
      "street": "LG ROSSIO",
      "house": "1",
      "postcode": "2460-257",
      "city": "ALPEDRIZ",
      "lon": "-8.949975288827087",
      "lat": "39.6259368185906"
    },
    {
      "id": "pt.ine.add.PTCONT.2223438",
      "street": "LG ROSSIO",
      "house": "1",
      "postcode": "2460-257",
      "city": "ALPEDRIZ",
      "lon": "-8.949975288827087",
      "lat": "39.6259368185906"
    },
    {
      "id": "pt.ine.add.PTCONT.2267658",
      "street": "R PONTE DA PEDRA",
      "house": "5",
      "postcode": "2460-254",
      "city": "ALPEDRIZ",
      "lon": "-8.950053315452225",
      "lat": "39.625639051796895"
    },
    {
      "id": "pt.ine.add.PTCONT.2268526",
      "street": "R RIO MOINHO",
      "house": "",
      "postcode": "2460-263",
      "city": "ALPEDRIZ",
      "lon": "-8.946127166406438",
      "lat": "39.623550042560574"
    }
  ]
}