{
  "data": {
    "ilha": "Ilha da Madeira (Madeira)",
    "concelho": "Calheta",
    "freguesia": "Calheta",
    "OBJECTID": 176,
    "BGRI2021": "31010200108",
    "DT21": "31",
    "DTMN21": "3101",
    "DTMNFR21": "310102",
    "DTMNFRSEC21": "310102001",
    "SECNUM21": "001",
    "SSNUM21": "08",
    "SECSSNUM21": "00108",
    "OBJECTID_1": 203404,
    "DT": "31",
    "CC": "01",
    "fr": "02",
    "SEC": "001",
    "SS": "08",
    "BGRI2021_1": "31010200108"
  },
  "addresses": [
    {
      "id": "pt.ine.add.MAD.25819",
      "street": "CAM SERRA AGUA",
      "house": "",
      "postcode": "9370-138",
      "city": "CALHETA (MADEIRA)",
      "lon": "-17.1687251193429",
      "lat": "32.71695485722964"
    },
    {
      "id": "pt.ine.add.MAD.25840",
      "street": "R S JOﾃグ",
      "house": "395",
      "postcode": "9370-763",
      "city": "CALHETA (MADEIRA)",
      "lon": "-17.167264237360314",
      "lat": "32.72050619638893"
    },
    {
      "id": "pt.ine.add.MAD.25841",
      "street": "VR SERRA AGUA",
      "house": "",
      "postcode": "9370-138",
      "city": "CALHETA (MADEIRA)",
      "lon": "-17.169207282883104",
      "lat": "32.71880423746249"
    },
    {
      "id": "pt.ine.add.MAD.25842",
      "street": "CAM LOMBO ATOUGUIA",
      "house": "",
      "postcode": "9370-753",
      "city": "CALHETA (MADEIRA)",
      "lon": "-17.169104796481445",
      "lat": "32.718977354657035"
    },
    {
      "id": "pt.ine.add.MAD.25843",
      "street": "CAM LOMBO ATOUGUIA",
      "house": "7",
      "postcode": "9370-753",
      "city": "CALHETA (MADEIRA)",
      "lon": "-17.169062176336634",
      "lat": "32.719419978019246"
    },
    {
      "id": "pt.ine.add.MAD.25844",
      "street": "R S JOﾃグ",
      "house": "419",
      "postcode": "9370-763",
      "city": "CALHETA (MADEIRA)",
      "lon": "-17.169226495438465",
      "lat": "32.71959749565434"
    },
    {
      "id": "pt.ine.add.MAD.25953",
      "street": "VR LEVADINHA DA PRATA",
      "house": "4",
      "postcode": "9370-758",
      "city": "CALHETA (MADEIRA)",
      "lon": "-17.163102624392312",
      "lat": "32.72443783279925"
    },
    {
      "id": "pt.ine.add.MAD.25954",
      "street": "VR LEVADINHA DA PRATA",
      "house": "6",
      "postcode": "9370-758",
      "city": "CALHETA (MADEIRA)",
      "lon": "-17.162944621872064",
      "lat": "32.7245217226227"
    },
    {
      "id": "pt.ine.add.MAD.25955",
      "street": "VR LEVADINHA DA PRATA",
      "house": "8",
      "postcode": "9370-758",
      "city": "CALHETA (MADEIRA)",
      "lon": "-17.162900658854525",
      "lat": "32.72446837285777"
    },
    {
      "id": "pt.ine.add.MAD.25956",
      "street": "CAM LOMBO ATOUGUIA",
      "house": "182",
      "postcode": "9370-753",
      "city": "CALHETA (MADEIRA)",
      "lon": "-17.16203512258494",
      "lat": "32.72529493564897"
    },
    {
      "id": "pt.ine.add.MAD.25959",
      "street": "CAM LOMBO ATOUGUIA",
      "house": "36",
      "postcode": "9370-753",
      "city": "CALHETA (MADEIRA)",
      "lon": "-17.1691967921036",
      "lat": "32.721013847523466"
    },
    {
      "id": "pt.ine.add.MAD.25960",
      "street": "CAM LOMBO ATOUGUIA",
      "house": "44",
      "postcode": "9370-753",
      "city": "CALHETA (MADEIRA)",
      "lon": "-17.169591785414713",
      "lat": "32.72102504653004"
    },
    {
      "id": "pt.ine.add.MAD.25961",
      "street": "CAM LOMBO ATOUGUIA",
      "house": "46",
      "postcode": "9370-753",
      "city": "CALHETA (MADEIRA)",
      "lon": "-17.169413341331378",
      "lat": "32.72114537041969"
    },
    {
      "id": "pt.ine.add.MAD.25962",
      "street": "CAM LOMBO ATOUGUIA",
      "house": "48",
      "postcode": "9370-753",
      "city": "CALHETA (MADEIRA)",
      "lon": "-17.16925687924469",
      "lat": "32.7212923678127"
    },
    {
      "id": "pt.ine.add.MAD.25963",
      "street": "CAM LOMBO ATOUGUIA",
      "house": "56",
      "postcode": "9370-753",
      "city": "CALHETA (MADEIRA)",
      "lon": "-17.168792696139953",
      "lat": "32.72150781697711"
    },
    {
      "id": "pt.ine.add.MAD.25964",
      "street": "CAM LOMBO ATOUGUIA",
      "house": "62",
      "postcode": "9370-753",
      "city": "CALHETA (MADEIRA)",
      "lon": "-17.16841338446206",
      "lat": "32.721703759912614"
    },
    {
      "id": "pt.ine.add.MAD.25965",
      "street": "CAM LOMBO ATOUGUIA",
      "house": "",
      "postcode": "9370-753",
      "city": "CALHETA (MADEIRA)",
      "lon": "-17.167995998576636",
      "lat": "32.72208973996377"
    },
    {
      "id": "pt.ine.add.MAD.25966",
      "street": "CAM LOMBO ATOUGUIA",
      "house": "84",
      "postcode": "9370-753",
      "city": "CALHETA (MADEIRA)",
      "lon": "-17.16703780506909",
      "lat": "32.722611324099084"
    },
    {
      "id": "pt.ine.add.MAD.25969",
      "street": "R S JOAO",
      "house": "",
      "postcode": "9370-763",
      "city": "CALHETA (MADEIRA)",
      "lon": "-17.168499005823467",
      "lat": "32.71995277171289"
    },
    {
      "id": "pt.ine.add.MAD.25970",
      "street": "R S JOﾃグ",
      "house": "401",
      "postcode": "9370-763",
      "city": "CALHETA (MADEIRA)",
      "lon": "-17.16777063751537",
      "lat": "32.720271986551694"
    },
    {
      "id": "pt.ine.add.MAD.25971",
      "street": "R S JOﾃグ",
      "house": "397",
      "postcode": "9370-763",
      "city": "CALHETA (MADEIRA)",
      "lon": "-17.167423537571104",
      "lat": "32.72047638737389"
    },
    {
      "id": "pt.ine.add.MAD.26152",
      "street": "CAM LOMBO ATOUGUIA",
      "house": "188",
      "postcode": "9370-753",
      "city": "CALHETA (MADEIRA)",
      "lon": "-17.16175393411558",
      "lat": "32.72557934707243"
    },
    {
      "id": "pt.ine.add.MAD.26153",
      "street": "CAM LOMBO ATOUGUIA",
      "house": "",
      "postcode": "9370-753",
      "city": "CALHETA (MADEIRA)",
      "lon": "-17.161617474491656",
      "lat": "32.725671881763446"
    },
    {
      "id": "pt.ine.add.MAD.26154",
      "street": "CAM LOMBO ATOUGUIA",
      "house": "2O2",
      "postcode": "9370-753",
      "city": "CALHETA (MADEIRA)",
      "lon": "-17.161160864215002",
      "lat": "32.726202805957804"
    },
    {
      "id": "pt.ine.add.MAD.26155",
      "street": "CAM LOMBO ATOUGUIA",
      "house": "206",
      "postcode": "9370-753",
      "city": "CALHETA (MADEIRA)",
      "lon": "-17.161015044000347",
      "lat": "32.72634960997488"
    },
    {
      "id": "pt.ine.add.MAD.26156",
      "street": "CAM LOMBO ATOUGUIA",
      "house": "208",
      "postcode": "9370-753",
      "city": "CALHETA (MADEIRA)",
      "lon": "-17.1609523630033",
      "lat": "32.726404799361184"
    },
    {
      "id": "pt.ine.add.MAD.26157",
      "street": "CAM LOMBO ATOUGUIA",
      "house": "210",
      "postcode": "9370-753",
      "city": "CALHETA (MADEIRA)",
      "lon": "-17.160911880926275",
      "lat": "32.72649567828998"
    },
    {
      "id": "pt.ine.add.MAD.26158",
      "street": "ESTR CALHETA",
      "house": "131",
      "postcode": "9370-750",
      "city": "CALHETA (MADEIRA)",
      "lon": "-17.158666440063584",
      "lat": "32.7276165480259"
    },
    {
      "id": "pt.ine.add.MAD.26159",
      "street": "ESTR CALHETA",
      "house": "111",
      "postcode": "9370-750",
      "city": "CALHETA (MADEIRA)",
      "lon": "-17.157526832128983",
      "lat": "32.72814118660822"
    },
    {
      "id": "pt.ine.add.MAD.26160",
      "street": "ESTR CALHETA",
      "house": "103",
      "postcode": "9370-750",
      "city": "CALHETA (MADEIRA)",
      "lon": "-17.157116341306082",
      "lat": "32.728373705601435"
    },
    {
      "id": "pt.ine.add.MAD.26365",
      "street": "VR LANCO",
      "house": "50",
      "postcode": "9370-760",
      "city": "CALHETA (MADEIRA)",
      "lon": "-17.165346821325546",
      "lat": "32.72282993141283"
    },
    {
      "id": "pt.ine.add.MAD.26366",
      "street": "CAM LOMBO ATOUGUIA",
      "house": "114",
      "postcode": "9370-753",
      "city": "CALHETA (MADEIRA)",
      "lon": "-17.165349889340334",
      "lat": "32.72339801751473"
    },
    {
      "id": "pt.ine.add.MAD.26367",
      "street": "CAM LOMBO ATOUGUIA",
      "house": "116",
      "postcode": "9370-753",
      "city": "CALHETA (MADEIRA)",
      "lon": "-17.165255003110843",
      "lat": "32.72344474731462"
    },
    {
      "id": "pt.ine.add.MAD.26368",
      "street": "CAM LOMBO ATOUGUIA",
      "house": "118",
      "postcode": "9370-753",
      "city": "CALHETA (MADEIRA)",
      "lon": "-17.165203644669244",
      "lat": "32.72352679735895"
    },
    {
      "id": "pt.ine.add.MAD.26369",
      "street": "CAM LOMBO ATOUGUIA",
      "house": "122",
      "postcode": "9370-753",
      "city": "CALHETA (MADEIRA)",
      "lon": "-17.164948144027854",
      "lat": "32.72354924747645"
    },
    {
      "id": "pt.ine.add.MAD.26370",
      "street": "CAM LOMBO ATOUGUIA",
      "house": "",
      "postcode": "9370-753",
      "city": "CALHETA (MADEIRA)",
      "lon": "-17.16462518572281",
      "lat": "32.72387045894184"
    },
    {
      "id": "pt.ine.add.MAD.26371",
      "street": "CAM LOMBO ATOUGUIA",
      "house": "144",
      "postcode": "9370-753",
      "city": "CALHETA (MADEIRA)",
      "lon": "-17.164407123110248",
      "lat": "32.72411771339732"
    },
    {
      "id": "pt.ine.add.MAD.26372",
      "street": "VR ESMERALDO",
      "house": "5",
      "postcode": "9370-753",
      "city": "CALHETA (MADEIRA)",
      "lon": "-17.163935942294408",
      "lat": "32.724044687301365"
    },
    {
      "id": "pt.ine.add.MAD.26564",
      "street": "VR ESMERALDO",
      "house": "12",
      "postcode": "9370-753",
      "city": "CALHETA (MADEIRA)",
      "lon": "-17.163599910463635",
      "lat": "32.72382503691496"
    },
    {
      "id": "pt.ine.add.MAD.55737",
      "street": "CAM LOMBO ATOUGUIA",
      "house": "214",
      "postcode": "9370-753",
      "city": "CALHETA (MADEIRA)",
      "lon": "-17.160756918164562",
      "lat": "32.726705766286486"
    },
    {
      "id": "pt.ine.add.MAD.56142",
      "street": "CAM SERRA AGUA",
      "house": "",
      "postcode": "9370-138",
      "city": "CALHETA (MADEIRA)",
      "lon": "-17.168673331036107",
      "lat": "32.71701887987741"
    },
    {
      "id": "pt.ine.add.MAD.59547",
      "street": "ESTR CALHETA",
      "house": "",
      "postcode": "9370-750",
      "city": "CALHETA (MADEIRA)",
      "lon": "-17.159154183424164",
      "lat": "32.72749091020592"
    },
    {
      "id": "pt.ine.add.MAD.61264",
      "street": "VR LEVADINHA DA PRATA",
      "house": "10",
      "postcode": "9370-758",
      "city": "CALHETA (MADEIRA)",
      "lon": "-17.162849950851623",
      "lat": "32.72457746502328"
    },
    {
      "id": "pt.ine.add.MAD.61268",
      "street": "R S JOﾃグ",
      "house": "355",
      "postcode": "9370-763",
      "city": "CALHETA (MADEIRA)",
      "lon": "-17.167184842654535",
      "lat": "32.72119294331507"
    },
    {
      "id": "pt.ine.add.MAD.67154",
      "street": "ESTR CALHETA",
      "house": "107",
      "postcode": "9370-750",
      "city": "CALHETA (MADEIRA)",
      "lon": "-17.157380351104674",
      "lat": "32.72826094366836"
    },
    {
      "id": "pt.ine.add.MAD.67155",
      "street": "CAM LOMBO ATOUGUIA",
      "house": "126",
      "postcode": "9370-753",
      "city": "CALHETA (MADEIRA)",
      "lon": "-17.164844118834857",
      "lat": "32.72365926141767"
    },
    {
      "id": "pt.ine.add.MAD.70108",
      "street": "CAM LOMBO ATOUGUIA",
      "house": "3",
      "postcode": "9370-753",
      "city": "CALHETA (MADEIRA)",
      "lon": "-17.16931242368399",
      "lat": "32.719181176909224"
    },
    {
      "id": "pt.ine.add.MAD.72666",
      "street": "ESTR CALHETA",
      "house": "105",
      "postcode": "9370-750",
      "city": "CALHETA (MADEIRA)",
      "lon": "-17.157264126062852",
      "lat": "32.728308034964655"
    },
    {
      "id": "pt.ine.add.MAD.72670",
      "street": "CAM LOMBO ATOUGUIA",
      "house": "148",
      "postcode": "9370-753",
      "city": "CALHETA (MADEIRA)",
      "lon": "-17.164142699238955",
      "lat": "32.724212460686054"
    },
    {
      "id": "pt.ine.add.MAD.76465",
      "street": "CAM LOMBO ATOUGUIA",
      "house": "160",
      "postcode": "9370-753",
      "city": "CALHETA (MADEIRA)",
      "lon": "-17.163435826224575",
      "lat": "32.72454029823754"
    },
    {
      "id": "pt.ine.add.MAD.76466",
      "street": "CAM LOMBO ATOUGUIA",
      "house": "180",
      "postcode": "9370-753",
      "city": "CALHETA (MADEIRA)",
      "lon": "-17.162081262121216",
      "lat": "32.725438429029005"
    },
    {
      "id": "pt.ine.add.MAD.78802",
      "street": "CAM LOMBO ATOUGUIA",
      "house": "162",
      "postcode": "9370-753",
      "city": "CALHETA (MADEIRA)",
      "lon": "-17.163194252663388",
      "lat": "32.72469777569965"
    },
    {
      "id": "pt.ine.add.MAD.78804",
      "street": "CAM LOMBO ATOUGUIA",
      "house": "124",
      "postcode": "9370-753",
      "city": "CALHETA (MADEIRA)",
      "lon": "-17.165014525493675",
      "lat": "32.7236472996343"
    },
    {
      "id": "pt.ine.add.MAD.82250",
      "street": "CAM LOMBO ATOUGUIA",
      "house": "",
      "postcode": "9370-753",
      "city": "CALHETA (MADEIRA)",
      "lon": "-17.163824954169286",
      "lat": "32.72430812807997"
    },
    {
      "id": "pt.ine.add.MAD.82366",
      "street": "CAM LOMBO ATOUGUIA",
      "house": "146",
      "postcode": "9370-753",
      "city": "CALHETA (MADEIRA)",
      "lon": "-17.164323553328835",
      "lat": "32.72419130132267"
    },
    {
      "id": "pt.ine.add.MAD.82521",
      "street": "CAM LOMBO ATOUGUIA",
      "house": "",
      "postcode": "9370-753",
      "city": "CALHETA (MADEIRA)",
      "lon": "-17.167382295952468",
      "lat": "32.722298752376744"
    },
    {
      "id": "pt.ine.add.MAD.84895",
      "street": "CAM LOMBO ATOUGUIA",
      "house": "120",
      "postcode": "9370-753",
      "city": "CALHETA (MADEIRA)",
      "lon": "-17.165054784266065",
      "lat": "32.72354740525371"
    },
    {
      "id": "pt.ine.add.MAD.87209",
      "street": "CAM LOMBO ATOUGUIA",
      "house": "184",
      "postcode": "9370-753",
      "city": "CALHETA (MADEIRA)",
      "lon": "-17.161975490014857",
      "lat": "32.7254763261441"
    },
    {
      "id": "pt.ine.add.MAD.87584",
      "street": "CAM SERRA AGUA",
      "house": "",
      "postcode": "9370-138",
      "city": "CALHETA (MADEIRA)",
      "lon": "-17.168452925180166",
      "lat": "32.717608868525055"
    },
    {
      "id": "pt.ine.add.MAD.87585",
      "street": "CAM LOMBO ATOUGUIA",
      "house": "32",
      "postcode": "9370-753",
      "city": "CALHETA (MADEIRA)",
      "lon": "-17.169701660831944",
      "lat": "32.72071652993545"
    },
    {
      "id": "pt.ine.add.MAD.87797",
      "street": "CAM LOMBO ATOUGUIA",
      "house": "82",
      "postcode": "9370-753",
      "city": "CALHETA (MADEIRA)",
      "lon": "-17.16731026684922",
      "lat": "32.72240821493834"
    },
    {
      "id": "pt.ine.add.MAD.92248",
      "street": "ESTR CALHETA",
      "house": "101",
      "postcode": "9370-750",
      "city": "CALHETA (MADEIRA)",
      "lon": "-17.15697878664731",
      "lat": "32.72842116379384"
    },
    {
      "id": "pt.ine.add.MAD.92664",
      "street": "CAM LOMBO ATOUGUIA",
      "house": "1",
      "postcode": "9370-753",
      "city": "CALHETA (MADEIRA)",
      "lon": "-17.168521331912462",
      "lat": "32.7217560006236"
    },
    {
      "id": "pt.ine.add.MAD.93626",
      "street": "R S JOﾃグ",
      "house": "315",
      "postcode": "9370-763",
      "city": "CALHETA (MADEIRA)",
      "lon": "-17.169887491271993",
      "lat": "32.72046080668115"
    },
    {
      "id": "pt.ine.add.MAD.93627",
      "street": "CAM LOMBO ATOUGUIA",
      "house": "",
      "postcode": "9370-753",
      "city": "CALHETA (MADEIRA)",
      "lon": "-17.165855855923887",
      "lat": "32.722703900398066"
    },
    {
      "id": "pt.ine.add.MAD.93628",
      "street": "VR SERRA AGUA",
      "house": "24",
      "postcode": "9370-138",
      "city": "CALHETA (MADEIRA)",
      "lon": "-17.169179624841014",
      "lat": "32.71854319191405"
    },
    {
      "id": "pt.ine.add.MAD.97572",
      "street": "CAM LOMBO ATOUGUIA",
      "house": "72",
      "postcode": "9370-753",
      "city": "CALHETA (MADEIRA)",
      "lon": "-17.167868687260313",
      "lat": "32.722118996439434"
    },
    {
      "id": "pt.ine.add.MAD.98002",
      "street": "ESTR CALHETA",
      "house": "99",
      "postcode": "9370-750",
      "city": "CALHETA (MADEIRA)",
      "lon": "-17.156874094476144",
      "lat": "32.72850412861054"
    },
    {
      "id": "pt.ine.add.MAD.100363",
      "street": "R S JOﾃグ",
      "house": "399",
      "postcode": "9370-763",
      "city": "CALHETA (MADEIRA)",
      "lon": "-17.167557583376322",
      "lat": "32.720284689505995"
    },
    {
      "id": "pt.ine.add.MAD.101227",
      "street": "CAM LOMBO ATOUGUIA",
      "house": "112",
      "postcode": "9370-753",
      "city": "CALHETA (MADEIRA)",
      "lon": "-17.165292210037673",
      "lat": "32.723218652456055"
    },
    {
      "id": "pt.ine.add.MAD.101316",
      "street": "CAM LOMBO ATOUGUIA",
      "house": "132",
      "postcode": "9370-753",
      "city": "CALHETA (MADEIRA)",
      "lon": "-17.16483715946358",
      "lat": "32.72381268902046"
    },
    {
      "id": "pt.ine.add.MAD.103676",
      "street": "CAM LOMBO ATOUGUIA",
      "house": "16",
      "postcode": "9370-753",
      "city": "CALHETA (MADEIRA)",
      "lon": "-17.168644585173823",
      "lat": "32.71979694549722"
    },
    {
      "id": "pt.ine.add.MAD.103888",
      "street": "CAM LOMBO ATOUGUIA",
      "house": "96",
      "postcode": "9370-753",
      "city": "CALHETA (MADEIRA)",
      "lon": "-17.166120927530834",
      "lat": "32.722636192668524"
    },
    {
      "id": "pt.ine.add.MAD.109907",
      "street": "CAM LOMBO ATOUGUIA",
      "house": "156",
      "postcode": "9370-753",
      "city": "CALHETA (MADEIRA)",
      "lon": "-17.163603403404046",
      "lat": "32.72441115208701"
    },
    {
      "id": "pt.ine.add.MAD.109908",
      "street": "VR LEVADINHA DA PRATA",
      "house": "2",
      "postcode": "9370-758",
      "city": "CALHETA (MADEIRA)",
      "lon": "-17.163273032899294",
      "lat": "32.724425873314544"
    },
    {
      "id": "pt.ine.add.MAD.109909",
      "street": "CAM LOMBO ATOUGUIA",
      "house": "168",
      "postcode": "9370-753",
      "city": "CALHETA (MADEIRA)",
      "lon": "-17.16274374876537",
      "lat": "32.72503922019741"
    },
    {
      "id": "pt.ine.add.MAD.109910",
      "street": "CAM LOMBO ATOUGUIA",
      "house": "172",
      "postcode": "9370-753",
      "city": "CALHETA (MADEIRA)",
      "lon": "-17.16248149722837",
      "lat": "32.72522410744218"
    },
    {
      "id": "pt.ine.add.MAD.109916",
      "street": "CAM LOMBO ATOUGUIA",
      "house": "198",
      "postcode": "9370-753",
      "city": "CALHETA (MADEIRA)",
      "lon": "-17.161347818219358",
      "lat": "32.72599216575516"
    },
    {
      "id": "pt.ine.add.MAD.109917",
      "street": "CAM LOMBO ATOUGUIA",
      "house": "204",
      "postcode": "9370-753",
      "city": "CALHETA (MADEIRA)",
      "lon": "-17.16103419716449",
      "lat": "32.726259098816385"
    },
    {
      "id": "pt.ine.add.MAD.109918",
      "street": "ESTR CALHETA",
      "house": "109",
      "postcode": "9370-750",
      "city": "CALHETA (MADEIRA)",
      "lon": "-17.157528787138933",
      "lat": "32.728222315798"
    },
    {
      "id": "pt.ine.add.MAD.113618",
      "street": "ESTR CALHETA",
      "house": "115",
      "postcode": "9370-750",
      "city": "CALHETA (MADEIRA)",
      "lon": "-17.157738169379662",
      "lat": "32.728056385061166"
    },
    {
      "id": "pt.ine.add.MAD.114398",
      "street": "CAM LOMBO ATOUGUIA",
      "house": "178",
      "postcode": "9370-753",
      "city": "CALHETA (MADEIRA)",
      "lon": "-17.162165487938374",
      "lat": "32.725391885479716"
    },
    {
      "id": "pt.ine.add.MAD.114922",
      "street": "VR ESMERALDO",
      "house": "1",
      "postcode": "9370-753",
      "city": "CALHETA (MADEIRA)",
      "lon": "-17.164204287411394",
      "lat": "32.72411219822982"
    },
    {
      "id": "pt.ine.add.MAD.120362",
      "street": "CAM LOMBO ATOUGUIA",
      "house": "110",
      "postcode": "9370-753",
      "city": "CALHETA (MADEIRA)",
      "lon": "-17.16542039579714",
      "lat": "32.723225455761025"
    },
    {
      "id": "pt.ine.add.MAD.120363",
      "street": "CAM LOMBO ATOUGUIA",
      "house": "130",
      "postcode": "9370-753",
      "city": "CALHETA (MADEIRA)",
      "lon": "-17.164685683594556",
      "lat": "32.72372512468506"
    },
    {
      "id": "pt.ine.add.MAD.120918",
      "street": "VR ESMERALDO",
      "house": "7",
      "postcode": "9370-753",
      "city": "CALHETA (MADEIRA)",
      "lon": "-17.16385019391791",
      "lat": "32.72402813169985"
    },
    {
      "id": "pt.ine.add.MAD.128022",
      "street": "CAM LOMBO ATOUGUIA",
      "house": "68",
      "postcode": "9370-753",
      "city": "CALHETA (MADEIRA)",
      "lon": "-17.168110681845963",
      "lat": "32.721979539140364"
    }
  ]
}