{
  "data": {
    "distrito": "Lisboa",
    "concelho": "Sintra",
    "freguesia": "Colares",
    "OBJECTID": 2578,
    "BGRI2021": "11110500603",
    "DT21": "11",
    "DTMN21": "1111",
    "DTMNFR21": "111105",
    "DTMNFRSEC21": "111105006",
    "SECNUM21": "006",
    "SSNUM21": "03",
    "SECSSNUM21": "00603",
    "OBJECTID_1": 112429,
    "DT": "11",
    "CC": "11",
    "fr": "05",
    "SEC": "006",
    "SS": "03"
  },
  "addresses": [
    {
      "id": "pt.ine.add.PTCONT.2353903",
      "street": "AZ DOMINGOS DUARTE",
      "house": "",
      "postcode": "2705-034",
      "city": "COLARES",
      "lon": "-9.472021959956663",
      "lat": "38.7959317137035"
    },
    {
      "id": "pt.ine.add.PTCONT.2500175",
      "street": "AZ DOMINGOS DUARTE",
      "house": "9",
      "postcode": "2705-034",
      "city": "COLARES",
      "lon": "-9.471885552794124",
      "lat": "38.796023352207825"
    },
    {
      "id": "pt.ine.add.PTCONT.2554812",
      "street": "LG CMDT JOﾃグ PEDRO CAETANO",
      "house": "1",
      "postcode": "2705-042",
      "city": "COLARES",
      "lon": "-9.47148586839537",
      "lat": "38.7955775547556"
    },
    {
      "id": "pt.ine.add.PTCONT.2681163",
      "street": "R LOUCEIRA",
      "house": "7",
      "postcode": "2705-045",
      "city": "COLARES",
      "lon": "-9.471478403570384",
      "lat": "38.79579382110622"
    },
    {
      "id": "pt.ine.add.PTCONT.2697192",
      "street": "LG CMDT JOﾃグ PEDRO CAETANO",
      "house": "3",
      "postcode": "2705-042",
      "city": "COLARES",
      "lon": "-9.47164781753644",
      "lat": "38.795620737109495"
    },
    {
      "id": "pt.ine.add.PTCONT.2735344",
      "street": "R LOUCEIRA",
      "house": "11",
      "postcode": "2705-045",
      "city": "COLARES",
      "lon": "-9.471643217229937",
      "lat": "38.795990098732865"
    },
    {
      "id": "pt.ine.add.PTCONT.2735356",
      "street": "R LOUCEIRA",
      "house": "11",
      "postcode": "2705-045",
      "city": "COLARES",
      "lon": "-9.471643217229937",
      "lat": "38.795990098732865"
    },
    {
      "id": "pt.ine.add.PTCONT.2770780",
      "street": "R COMBATENTES DO ULTRAMAR",
      "house": "33",
      "postcode": "2705-031",
      "city": "COLARES",
      "lon": "-9.471974075571456",
      "lat": "38.79583317957814"
    },
    {
      "id": "pt.ine.add.PTCONT.2772864",
      "street": "R LOUCEIRA",
      "house": "13",
      "postcode": "2705-045",
      "city": "COLARES",
      "lon": "-9.471459936371696",
      "lat": "38.79603723608849"
    },
    {
      "id": "pt.ine.add.PTCONT.2791803",
      "street": "AZ DOMINGOS DUARTE",
      "house": "11",
      "postcode": "2705-034",
      "city": "COLARES",
      "lon": "-9.471930404020755",
      "lat": "38.79595978551214"
    },
    {
      "id": "pt.ine.add.PTCONT.2866915",
      "street": "LG CMDT JOﾃグ PEDRO CAETANO",
      "house": "2",
      "postcode": "2705-042",
      "city": "COLARES",
      "lon": "-9.471566758711699",
      "lat": "38.79559464315857"
    },
    {
      "id": "pt.ine.add.PTCONT.2960720",
      "street": "AZ DOMINGOS DUARTE",
      "house": "5",
      "postcode": "2705-034",
      "city": "COLARES",
      "lon": "-9.47175846265021",
      "lat": "38.795997785857004"
    },
    {
      "id": "pt.ine.add.PTCONT.2982249",
      "street": "R COMBATENTES DO ULTRAMAR",
      "house": "35",
      "postcode": "2705-031",
      "city": "COLARES",
      "lon": "-9.471847828226956",
      "lat": "38.795852641335586"
    },
    {
      "id": "pt.ine.add.PTCONT.3034943",
      "street": "R LOUCEIRA",
      "house": "9",
      "postcode": "2705-045",
      "city": "COLARES",
      "lon": "-9.471685036058934",
      "lat": "38.79576443125062"
    },
    {
      "id": "pt.ine.add.PTCONT.3034944",
      "street": "R LOUCEIRA",
      "house": "9",
      "postcode": "2705-045",
      "city": "COLARES",
      "lon": "-9.471685036058934",
      "lat": "38.79576443125062"
    },
    {
      "id": "pt.ine.add.PTCONT.3049337",
      "street": "R COMBATENTES ULTRAMAR",
      "house": "37",
      "postcode": "2705-031",
      "city": "COLARES",
      "lon": "-9.471823801917093",
      "lat": "38.79579887143503"
    },
    {
      "id": "pt.ine.add.PTCONT.3049345",
      "street": "R LOUCEIRA",
      "house": "5",
      "postcode": "2705-045",
      "city": "COLARES",
      "lon": "-9.471476719063814",
      "lat": "38.795703765054924"
    },
    {
      "id": "pt.ine.add.PTCONT.3049346",
      "street": "R LOUCEIRA",
      "house": "5",
      "postcode": "2705-045",
      "city": "COLARES",
      "lon": "-9.471476719063814",
      "lat": "38.795703765054924"
    },
    {
      "id": "pt.ine.add.PTCONT.3096798",
      "street": "AZ DOMINGOS DUARTE",
      "house": "7",
      "postcode": "2705-034",
      "city": "COLARES",
      "lon": "-9.471805167400783",
      "lat": "38.796033280847354"
    },
    {
      "id": "pt.ine.add.PTCONT.3096799",
      "street": "R LOUCEIRA",
      "house": "11 A",
      "postcode": "2705-045",
      "city": "COLARES",
      "lon": "-9.471492269575327",
      "lat": "38.79591976774893"
    },
    {
      "id": "pt.ine.add.PTCONT.3281573",
      "street": "LG CMDT JOﾃグ PEDRO CAETANO",
      "house": "4",
      "postcode": "2705-042",
      "city": "COLARES",
      "lon": "-9.471740552540126",
      "lat": "38.795655704756975"
    },
    {
      "id": "pt.ine.add.PTCONT.3281574",
      "street": "R COMBATENTES DO ULTRAMAR",
      "house": "39",
      "postcode": "2705-031",
      "city": "COLARES",
      "lon": "-9.471822790951276",
      "lat": "38.79574483781211"
    },
    {
      "id": "pt.ine.add.PTCONT.3419671",
      "street": "R LOUCEIRA",
      "house": "9",
      "postcode": "2705-045",
      "city": "COLARES",
      "lon": "-9.471569622558818",
      "lat": "38.79574773844214"
    }
  ]
}