{
  "data": {
    "distrito": "Lisboa",
    "concelho": "Cascais",
    "freguesia": "Alcabideche",
    "OBJECTID": 1434,
    "BGRI2021": "11050100518",
    "DT21": "11",
    "DTMN21": "1105",
    "DTMNFR21": "110501",
    "DTMNFRSEC21": "110501005",
    "SECNUM21": "005",
    "SSNUM21": "18",
    "SECSSNUM21": "00518",
    "OBJECTID_1": 101300,
    "DT": "11",
    "CC": "05",
    "fr": "01",
    "SEC": "005",
    "SS": "18"
  },
  "addresses": [
    {
      "id": "pt.ine.add.PTCONT.2926401",
      "street": "R BARONESA DE BECK CASA BLANCA",
      "house": "111",
      "postcode": "2755-153",
      "city": "ALCABIDECHE",
      "lon": "-9.443292147723554",
      "lat": "38.755660237245394"
    },
    {
      "id": "pt.ine.add.PTCONT.2940053",
      "street": "R 4 MOINHOS",
      "house": "184",
      "postcode": "2755-190",
      "city": "ALCABIDECHE",
      "lon": "-9.443991391710123",
      "lat": "38.75489575641261"
    },
    {
      "id": "pt.ine.add.PTCONT.3036320",
      "street": "R BARONESA DE BECK QTA DA BO ENTRADA",
      "house": "191",
      "postcode": "2755-153",
      "city": "ALCABIDECHE",
      "lon": "-9.442894539095567",
      "lat": "38.755934922516055"
    },
    {
      "id": "pt.ine.add.PTCONT.3045171",
      "street": "R BARONESA DE BECK",
      "house": "13",
      "postcode": "2755-153",
      "city": "ALCABIDECHE",
      "lon": "-9.443828397840877",
      "lat": "38.75478949314048"
    },
    {
      "id": "pt.ine.add.PTCONT.3071017",
      "street": "R BARONESA DE BECK",
      "house": "23 A",
      "postcode": "2755-153",
      "city": "ALCABIDECHE",
      "lon": "-9.443911542127376",
      "lat": "38.7549326824932"
    },
    {
      "id": "pt.ine.add.PTCONT.3071918",
      "street": "R BARONESA DE BECK",
      "house": "87",
      "postcode": "2755-203",
      "city": "ALCABIDECHE",
      "lon": "-9.443698812805764",
      "lat": "38.755880867920204"
    },
    {
      "id": "pt.ine.add.PTCONT.3183023",
      "street": "ESTR SERRA CASA LIMANI MANI",
      "house": "790",
      "postcode": "2755-203",
      "city": "ALCABIDECHE",
      "lon": "-9.444156066743636",
      "lat": "38.755722609835715"
    },
    {
      "id": "pt.ine.add.PTCONT.3367395",
      "street": "R 4 MOINHOS",
      "house": "S4",
      "postcode": "2755-190",
      "city": "ALCABIDECHE",
      "lon": "-9.444196930681741",
      "lat": "38.754812382233276"
    },
    {
      "id": "pt.ine.add.PTCONT.3438156",
      "street": "ESTR SERRA",
      "house": "780",
      "postcode": "2755-203",
      "city": "ALCABIDECHE",
      "lon": "-9.444857193812032",
      "lat": "38.75631825255855"
    },
    {
      "id": "pt.ine.add.PTCONT.2284975",
      "street": "R BARONESA DE BECK",
      "house": "87",
      "postcode": "2755-203",
      "city": "ALCABIDECHE",
      "lon": "-9.44367479299599",
      "lat": "38.75519655849109"
    },
    {
      "id": "pt.ine.add.PTCONT.2304775",
      "street": "ESTR SERRA QTA DE JANES",
      "house": "",
      "postcode": "2755-203",
      "city": "ALCABIDECHE",
      "lon": "-9.443559341791536",
      "lat": "38.75643189639772"
    },
    {
      "id": "pt.ine.add.PTCONT.2321008",
      "street": "R 4 MOINHOS CASA SOBRE PENEDOS",
      "house": "248",
      "postcode": "2755-190",
      "city": "ALCABIDECHE",
      "lon": "-9.44480278012456",
      "lat": "38.75585947498142"
    },
    {
      "id": "pt.ine.add.PTCONT.2341005",
      "street": "R 4 MOINHOS",
      "house": "",
      "postcode": "2755-190",
      "city": "ALCABIDECHE",
      "lon": "-9.44515985931596",
      "lat": "38.75651302249351"
    },
    {
      "id": "pt.ine.add.PTCONT.2438873",
      "street": "R BARONESA DE BECK",
      "house": "1",
      "postcode": "2755-153",
      "city": "ALCABIDECHE",
      "lon": "-9.443954252103437",
      "lat": "38.75475205112386"
    },
    {
      "id": "pt.ine.add.PTCONT.2477344",
      "street": "R 4 MOINHOS",
      "house": "18",
      "postcode": "2755-190",
      "city": "ALCABIDECHE",
      "lon": "-9.443956064312566",
      "lat": "38.75485111457921"
    },
    {
      "id": "pt.ine.add.PTCONT.2491758",
      "street": "ESTR SERRA QTA DO CAL AGUA",
      "house": "926",
      "postcode": "2755-203",
      "city": "ALCABIDECHE",
      "lon": "-9.44247919076003",
      "lat": "38.756498048886115"
    },
    {
      "id": "pt.ine.add.PTCONT.2503447",
      "street": "R 4 MOINHOS CASA SOBRE PENEDOS",
      "house": "248",
      "postcode": "2755-190",
      "city": "ALCABIDECHE",
      "lon": "-9.444719468098866",
      "lat": "38.75570728057042"
    },
    {
      "id": "pt.ine.add.PTCONT.2608213",
      "street": "ESTR SERRA QTA DE JANES",
      "house": "",
      "postcode": "2755-203",
      "city": "ALCABIDECHE",
      "lon": "-9.44334951577769",
      "lat": "38.75628111954932"
    },
    {
      "id": "pt.ine.add.PTCONT.2651783",
      "street": "R 4 MOINHOS CASA FLOR AGRESTE",
      "house": "104",
      "postcode": "2755-190",
      "city": "ALCABIDECHE",
      "lon": "-9.44426201685364",
      "lat": "38.75522600238808"
    },
    {
      "id": "pt.ine.add.PTCONT.2701519",
      "street": "R BARONESA DE BECK",
      "house": "23",
      "postcode": "2755-153",
      "city": "ALCABIDECHE",
      "lon": "-9.443841381634034",
      "lat": "38.75487041607275"
    },
    {
      "id": "pt.ine.add.PTCONT.2775147",
      "street": "R BARONESA DE BECK",
      "house": "238",
      "postcode": "2755-153",
      "city": "ALCABIDECHE",
      "lon": "-9.443831857193109",
      "lat": "38.75497861428931"
    },
    {
      "id": "pt.ine.add.PTCONT.2833548",
      "street": "R BARONESA DE BECK",
      "house": "87",
      "postcode": "2755-203",
      "city": "ALCABIDECHE",
      "lon": "-9.444003089244598",
      "lat": "38.75553516593185"
    },
    {
      "id": "pt.ine.add.PTCONT.2835633",
      "street": "R 4 MOINHOS",
      "house": "18 A",
      "postcode": "2755-190",
      "city": "ALCABIDECHE",
      "lon": "-9.444061387596168",
      "lat": "38.75494901697196"
    },
    {
      "id": "pt.ine.add.PTCONT.2849357",
      "street": "R 4 MOINHOS",
      "house": "44",
      "postcode": "2755-190",
      "city": "ALCABIDECHE",
      "lon": "-9.444103767671987",
      "lat": "38.75475037401839"
    }
  ]
}