{
  "data": {
    "distrito": "Faro",
    "concelho": "Loul√©",
    "freguesia": "Quarteira",
    "OBJECTID": 1587,
    "BGRI2021": "08080504607",
    "DT21": "08",
    "DTMN21": "0808",
    "DTMNFR21": "080805",
    "DTMNFRSEC21": "080805046",
    "SECNUM21": "046",
    "SSNUM21": "07",
    "SECSSNUM21": "04607",
    "OBJECTID_1": 68085,
    "DT": "08",
    "CC": "08",
    "fr": "05",
    "SEC": "046",
    "SS": "07"
  },
  "addresses": [
    {
      "id": "pt.ine.add.PTCONT.1470534",
      "street": "R PERNADA",
      "house": "208 Z",
      "postcode": "8125-618",
      "city": "QUARTEIRA",
      "lon": "-8.08662132791574",
      "lat": "37.07165626256735"
    },
    {
      "id": "pt.ine.add.PTCONT.1496755",
      "street": "R PERNADA",
      "house": "",
      "postcode": "8125-186",
      "city": "QUARTEIRA",
      "lon": "-8.090836587294428",
      "lat": "37.07459533179482"
    },
    {
      "id": "pt.ine.add.PTCONT.1499208",
      "street": "R PERNADA",
      "house": "",
      "postcode": "8125-618",
      "city": "QUARTEIRA",
      "lon": "-8.090218111619834",
      "lat": "37.074550056217184"
    },
    {
      "id": "pt.ine.add.PTCONT.1527537",
      "street": "R PERNADA",
      "house": "307",
      "postcode": "8125-618",
      "city": "QUARTEIRA",
      "lon": "-8.088857609102773",
      "lat": "37.07420714947524"
    },
    {
      "id": "pt.ine.add.PTCONT.1527538",
      "street": "R PERNADA",
      "house": "307",
      "postcode": "8125-618",
      "city": "QUARTEIRA",
      "lon": "-8.088857609102773",
      "lat": "37.07420714947524"
    },
    {
      "id": "pt.ine.add.PTCONT.1541457",
      "street": "R PERNADA",
      "house": "306Z",
      "postcode": "8125-618",
      "city": "QUARTEIRA",
      "lon": "-8.089678396014532",
      "lat": "37.07443272059938"
    },
    {
      "id": "pt.ine.add.PTCONT.1541458",
      "street": "R PERNADA",
      "house": "306Z",
      "postcode": "8125-618",
      "city": "QUARTEIRA",
      "lon": "-8.089678396014532",
      "lat": "37.07443272059938"
    },
    {
      "id": "pt.ine.add.PTCONT.1545887",
      "street": "R PERNADA ALMARGEM",
      "house": "401Z",
      "postcode": "8125-186",
      "city": "QUARTEIRA",
      "lon": "-8.085890020504255",
      "lat": "37.072268702228655"
    },
    {
      "id": "pt.ine.add.PTCONT.1545888",
      "street": "R PERNADA DO ALMARGEM",
      "house": "",
      "postcode": "8125-186",
      "city": "QUARTEIRA",
      "lon": "-8.084282319408395",
      "lat": "37.07171839781473"
    },
    {
      "id": "pt.ine.add.PTCONT.1566690",
      "street": "R PERNADA DO ALMARGEM",
      "house": "",
      "postcode": "8125-186",
      "city": "QUARTEIRA",
      "lon": "-8.085911159396243",
      "lat": "37.074449302818486"
    },
    {
      "id": "pt.ine.add.PTCONT.1566691",
      "street": "R PERNADA DO ALMARGEM",
      "house": "",
      "postcode": "8125-186",
      "city": "QUARTEIRA",
      "lon": "-8.085911159396243",
      "lat": "37.074449302818486"
    },
    {
      "id": "pt.ine.add.PTCONT.1566692",
      "street": "R PERNADA DO ALMARGEM",
      "house": "",
      "postcode": "8125-186",
      "city": "QUARTEIRA",
      "lon": "-8.085911159396243",
      "lat": "37.074449302818486"
    },
    {
      "id": "pt.ine.add.PTCONT.1580442",
      "street": "R PERNADA ALMARGEM",
      "house": "402 Z",
      "postcode": "8125-186",
      "city": "QUARTEIRA",
      "lon": "-8.085855798732217",
      "lat": "37.07305262059128"
    },
    {
      "id": "pt.ine.add.PTCONT.1595385",
      "street": "R PERNADA",
      "house": "311-Z",
      "postcode": "8125-242",
      "city": "QUARTEIRA",
      "lon": "-8.08989202376131",
      "lat": "37.07449587359637"
    },
    {
      "id": "pt.ine.add.PTCONT.1597021",
      "street": "R PERNADA",
      "house": "311-Z",
      "postcode": "8125-242",
      "city": "QUARTEIRA",
      "lon": "-8.08989202376131",
      "lat": "37.07449587359637"
    },
    {
      "id": "pt.ine.add.PTCONT.1598456",
      "street": "R PERNADA DO ALMARGEM",
      "house": "",
      "postcode": "8125-186",
      "city": "QUARTEIRA",
      "lon": "-8.087126049004471",
      "lat": "37.073819030291574"
    },
    {
      "id": "pt.ine.add.PTCONT.1600925",
      "street": "R PERNADA DO ALMARGEM",
      "house": "",
      "postcode": "8125-186",
      "city": "QUARTEIRA",
      "lon": "-8.091870643906653",
      "lat": "37.07556885238846"
    },
    {
      "id": "pt.ine.add.PTCONT.1606304",
      "street": "R PERNADA DO ALMARGEM",
      "house": "",
      "postcode": "8125-186",
      "city": "QUARTEIRA",
      "lon": "-8.09310725479585",
      "lat": "37.076344196743854"
    },
    {
      "id": "pt.ine.add.PTCONT.1609740",
      "street": "R PERNADA DO ALMARGEM",
      "house": "",
      "postcode": "8125-186",
      "city": "QUARTEIRA",
      "lon": "-8.092320338301198",
      "lat": "37.07581229700176"
    },
    {
      "id": "pt.ine.add.PTCONT.1621525",
      "street": "R PERNADA",
      "house": "",
      "postcode": "8125-186",
      "city": "QUARTEIRA",
      "lon": "-8.09127519046842",
      "lat": "37.07454142303722"
    },
    {
      "id": "pt.ine.add.PTCONT.1621526",
      "street": "R PERNADA",
      "house": "303 Z",
      "postcode": "8125-186",
      "city": "QUARTEIRA",
      "lon": "-8.09127519046842",
      "lat": "37.07454142303722"
    },
    {
      "id": "pt.ine.add.PTCONT.1622958",
      "street": "R PERNADA",
      "house": "303 Z",
      "postcode": "8125-186",
      "city": "QUARTEIRA",
      "lon": "-8.09127519046842",
      "lat": "37.07454142303722"
    },
    {
      "id": "pt.ine.add.PTCONT.1659591",
      "street": "R PERNADA DO ALMARGEM",
      "house": "",
      "postcode": "8125-186",
      "city": "QUARTEIRA",
      "lon": "-8.085732616719017",
      "lat": "37.07222358589893"
    },
    {
      "id": "pt.ine.add.PTCONT.1661613",
      "street": "R PERNADA",
      "house": "207",
      "postcode": "8125-618",
      "city": "QUARTEIRA",
      "lon": "-8.086486481216104",
      "lat": "37.071503027500995"
    },
    {
      "id": "pt.ine.add.PTCONT.1661614",
      "street": "R PERNADA",
      "house": "207",
      "postcode": "8125-618",
      "city": "QUARTEIRA",
      "lon": "-8.086486481216104",
      "lat": "37.071503027500995"
    },
    {
      "id": "pt.ine.add.PTCONT.1661615",
      "street": "R PERNADA",
      "house": "207",
      "postcode": "8125-618",
      "city": "QUARTEIRA",
      "lon": "-8.086486481216104",
      "lat": "37.071503027500995"
    },
    {
      "id": "pt.ine.add.PTCONT.1661683",
      "street": "R PERNADA",
      "house": "207",
      "postcode": "8125-618",
      "city": "QUARTEIRA",
      "lon": "-8.086486481216104",
      "lat": "37.071503027500995"
    },
    {
      "id": "pt.ine.add.PTCONT.1661684",
      "street": "R PERNADA",
      "house": "207",
      "postcode": "8125-618",
      "city": "QUARTEIRA",
      "lon": "-8.086486481216104",
      "lat": "37.071503027500995"
    },
    {
      "id": "pt.ine.add.PTCONT.1671970",
      "street": "R PERNADA",
      "house": "201 Z",
      "postcode": "8125-189",
      "city": "QUARTEIRA",
      "lon": "-8.086317900077615",
      "lat": "37.07134977897514"
    },
    {
      "id": "pt.ine.add.PTCONT.1690485",
      "street": "R PERNADA DO ALMARGEM",
      "house": "",
      "postcode": "8125-186",
      "city": "QUARTEIRA",
      "lon": "-8.092500220708398",
      "lat": "37.0759024658024"
    },
    {
      "id": "pt.ine.add.PTCONT.1701150",
      "street": "R PERNADA DO ALMARGEM",
      "house": "",
      "postcode": "8125-186",
      "city": "QUARTEIRA",
      "lon": "-8.093669518077608",
      "lat": "37.07638943856937"
    },
    {
      "id": "pt.ine.add.PTCONT.1702269",
      "street": "R PERNADA DO ALMARGEM",
      "house": "",
      "postcode": "8125-186",
      "city": "QUARTEIRA",
      "lon": "-8.085957084040645",
      "lat": "37.07292651092879"
    },
    {
      "id": "pt.ine.add.PTCONT.1704758",
      "street": "R PERNADA DO ALMARGEM",
      "house": "",
      "postcode": "8125-186",
      "city": "QUARTEIRA",
      "lon": "-8.08529430584277",
      "lat": "37.071826938631006"
    },
    {
      "id": "pt.ine.add.PTCONT.1719245",
      "street": "R PERNADA",
      "house": "202-Z",
      "postcode": "8125-618",
      "city": "QUARTEIRA",
      "lon": "-8.08681236760255",
      "lat": "37.071863583705145"
    },
    {
      "id": "pt.ine.add.PTCONT.1719246",
      "street": "R PERNADA",
      "house": "202-Z",
      "postcode": "8125-618",
      "city": "QUARTEIRA",
      "lon": "-8.08681236760255",
      "lat": "37.071863583705145"
    },
    {
      "id": "pt.ine.add.PTCONT.1719247",
      "street": "R PERNADA",
      "house": "202-Z",
      "postcode": "8125-618",
      "city": "QUARTEIRA",
      "lon": "-8.08681236760255",
      "lat": "37.071863583705145"
    },
    {
      "id": "pt.ine.add.PTCONT.1719248",
      "street": "R PERNADA",
      "house": "202-Z",
      "postcode": "8125-618",
      "city": "QUARTEIRA",
      "lon": "-8.08681236760255",
      "lat": "37.071863583705145"
    },
    {
      "id": "pt.ine.add.PTCONT.1719249",
      "street": "R PERNADA",
      "house": "202-Z",
      "postcode": "8125-618",
      "city": "QUARTEIRA",
      "lon": "-8.08681236760255",
      "lat": "37.071863583705145"
    },
    {
      "id": "pt.ine.add.PTCONT.1720396",
      "street": "R PERNADA",
      "house": "202-Z",
      "postcode": "8125-618",
      "city": "QUARTEIRA",
      "lon": "-8.08681236760255",
      "lat": "37.071863583705145"
    },
    {
      "id": "pt.ine.add.PTCONT.1739402",
      "street": "R PERNADA DO ALMARGEM",
      "house": "",
      "postcode": "8125-186",
      "city": "QUARTEIRA",
      "lon": "-8.086732516330459",
      "lat": "37.073728769970614"
    },
    {
      "id": "pt.ine.add.PTCONT.1739403",
      "street": "R PERNADA",
      "house": "312 Z",
      "postcode": "8125-186",
      "city": "QUARTEIRA",
      "lon": "-8.091578611660912",
      "lat": "37.07491997946447"
    },
    {
      "id": "pt.ine.add.PTCONT.1746747",
      "street": "R PERNADA DO ALMARGEM",
      "house": "",
      "postcode": "8125-186",
      "city": "QUARTEIRA",
      "lon": "-8.093287172376197",
      "lat": "37.07637128940579"
    },
    {
      "id": "pt.ine.add.PTCONT.1766664",
      "street": "R PERNADA",
      "house": "302 Z",
      "postcode": "8125-186",
      "city": "QUARTEIRA",
      "lon": "-8.092815733485555",
      "lat": "37.0747041491406"
    },
    {
      "id": "pt.ine.add.PTCONT.1773079",
      "street": "R PERNADA DO ALMARGEM BARBARA COELHO",
      "house": "501 Z",
      "postcode": "8125-186",
      "city": "QUARTEIRA",
      "lon": "-8.08780045422911",
      "lat": "37.07435092173423"
    },
    {
      "id": "pt.ine.add.PTCONT.1796183",
      "street": "R PERNADA",
      "house": "308 Z",
      "postcode": "8125-618",
      "city": "QUARTEIRA",
      "lon": "-8.088666521164203",
      "lat": "37.07406290666603"
    },
    {
      "id": "pt.ine.add.PTCONT.1797737",
      "street": "R AMENDOEIRAS",
      "house": "3",
      "postcode": "8125-189",
      "city": "QUARTEIRA",
      "lon": "-8.089026728465253",
      "lat": "37.07345031273515"
    },
    {
      "id": "pt.ine.add.PTCONT.1822711",
      "street": "R PERNADA",
      "house": "",
      "postcode": "8125-011",
      "city": "QUARTEIRA",
      "lon": "-8.092928164614746",
      "lat": "37.07474924082839"
    },
    {
      "id": "pt.ine.add.PTCONT.1830222",
      "street": "R PERNADA DO ALMARGEM",
      "house": "",
      "postcode": "8125-186",
      "city": "QUARTEIRA",
      "lon": "-8.085474114154863",
      "lat": "37.07200722524883"
    },
    {
      "id": "pt.ine.add.PTCONT.1835247",
      "street": "R PERNADA DMM",
      "house": "",
      "postcode": "8125-186",
      "city": "QUARTEIRA",
      "lon": "-8.083967812710643",
      "lat": "37.07116861436296"
    },
    {
      "id": "pt.ine.add.PTCONT.1839656",
      "street": "R PERNADA",
      "house": "",
      "postcode": "8125-618",
      "city": "QUARTEIRA",
      "lon": "-8.087205700657425",
      "lat": "37.07226921867925"
    },
    {
      "id": "pt.ine.add.PTCONT.1843284",
      "street": "R PERNADA DO ALMARGEM",
      "house": "",
      "postcode": "8125-186",
      "city": "QUARTEIRA",
      "lon": "-8.085474114154863",
      "lat": "37.07200722524883"
    },
    {
      "id": "pt.ine.add.PTCONT.1846673",
      "street": "R PERNADA DO ALMARGEM",
      "house": "",
      "postcode": "8125-186",
      "city": "QUARTEIRA",
      "lon": "-8.086047185053898",
      "lat": "37.07270127890363"
    }
  ]
}