{
  "data": {
    "distrito": "Braga",
    "concelho": "Barcelos",
    "freguesia": "Macieira de Rates",
    "OBJECTID": 303,
    "BGRI2021": "03024400129",
    "DT21": "03",
    "DTMN21": "0302",
    "DTMNFR21": "030244",
    "DTMNFRSEC21": "030244001",
    "SECNUM21": "001",
    "SSNUM21": "29",
    "SECSSNUM21": "00129",
    "OBJECTID_1": 21304,
    "DT": "03",
    "CC": "02",
    "fr": "44",
    "SEC": "001",
    "SS": "29"
  },
  "addresses": [
    {
      "id": "pt.ine.add.PTCONT.470632",
      "street": "AV DR FRANCISCO SA CARNEIRO",
      "house": "353",
      "postcode": "4755-262",
      "city": "MACIEIRA DE RATES",
      "lon": "-8.63513232548176",
      "lat": "41.442815898122916"
    },
    {
      "id": "pt.ine.add.PTCONT.478575",
      "street": "R GANDARINHA",
      "house": "416 CX 101",
      "postcode": "4755-261",
      "city": "MACIEIRA DE RATES",
      "lon": "-8.634606198201718",
      "lat": "41.44752722941078"
    },
    {
      "id": "pt.ine.add.PTCONT.491839",
      "street": "R CABANELAS",
      "house": "132",
      "postcode": "4755-262",
      "city": "MACIEIRA DE RATES",
      "lon": "-8.636559987580934",
      "lat": "41.441747199202574"
    },
    {
      "id": "pt.ine.add.PTCONT.494686",
      "street": "R CORREIAS",
      "house": "35",
      "postcode": "4755-262",
      "city": "MACIEIRA DE RATES",
      "lon": "-8.635294776742434",
      "lat": "41.44215790453962"
    },
    {
      "id": "pt.ine.add.PTCONT.512419",
      "street": "R CORREIAS",
      "house": "59",
      "postcode": "4755-262",
      "city": "MACIEIRA DE RATES",
      "lon": "-8.635320304361025",
      "lat": "41.44236488276621"
    },
    {
      "id": "pt.ine.add.PTCONT.524536",
      "street": "AV DR FRANCISCO SA CARNEIRO",
      "house": "323",
      "postcode": "4755-262",
      "city": "MACIEIRA DE RATES",
      "lon": "-8.635238072594236",
      "lat": "41.442563327474474"
    },
    {
      "id": "pt.ine.add.PTCONT.530632",
      "street": "R CUMIEIRA",
      "house": "540",
      "postcode": "4755-263",
      "city": "MACIEIRA DE RATES",
      "lon": "-8.641508659539417",
      "lat": "41.44261682212048"
    },
    {
      "id": "pt.ine.add.PTCONT.557368",
      "street": "R CABANELAS",
      "house": "",
      "postcode": "4755-263",
      "city": "MACIEIRA DE RATES",
      "lon": "-8.639681350118673",
      "lat": "41.441526407409576"
    },
    {
      "id": "pt.ine.add.PTCONT.577295",
      "street": "R CABANELAS",
      "house": "104",
      "postcode": "4755-262",
      "city": "MACIEIRA DE RATES",
      "lon": "-8.636284782960336",
      "lat": "41.44174840323013"
    },
    {
      "id": "pt.ine.add.PTCONT.609956",
      "street": "AV DR FRANCISCO SA CARNEIRO",
      "house": "479",
      "postcode": "4755-262",
      "city": "MACIEIRA DE RATES",
      "lon": "-8.634804708586925",
      "lat": "41.44378074428785"
    },
    {
      "id": "pt.ine.add.PTCONT.660305",
      "street": "R CABANELAS",
      "house": "",
      "postcode": "4755-262",
      "city": "MACIEIRA DE RATES",
      "lon": "-8.635184658298462",
      "lat": "41.44184324872009"
    },
    {
      "id": "pt.ine.add.PTCONT.692765",
      "street": "R CABANELAS",
      "house": "92",
      "postcode": "4755-262",
      "city": "MACIEIRA DE RATES",
      "lon": "-8.635937855308992",
      "lat": "41.44175892400881"
    },
    {
      "id": "pt.ine.add.PTCONT.692766",
      "street": "R CABANELAS",
      "house": "92",
      "postcode": "4755-262",
      "city": "MACIEIRA DE RATES",
      "lon": "-8.635937855308992",
      "lat": "41.44175892400881"
    },
    {
      "id": "pt.ine.add.PTCONT.692767",
      "street": "R CABANELAS",
      "house": "166",
      "postcode": "4755-262",
      "city": "MACIEIRA DE RATES",
      "lon": "-8.636991021199194",
      "lat": "41.441781327691494"
    },
    {
      "id": "pt.ine.add.PTCONT.692768",
      "street": "R CABANELAS",
      "house": "166",
      "postcode": "4755-262",
      "city": "MACIEIRA DE RATES",
      "lon": "-8.636991021199194",
      "lat": "41.441781327691494"
    },
    {
      "id": "pt.ine.add.PTCONT.694410",
      "street": "R PRADOS",
      "house": "108",
      "postcode": "4755-262",
      "city": "MACIEIRA DE RATES",
      "lon": "-8.635897765928828",
      "lat": "41.44431620600132"
    },
    {
      "id": "pt.ine.add.PTCONT.695034",
      "street": "R OUTEIRO",
      "house": "174",
      "postcode": "4755-262",
      "city": "MACIEIRA DE RATES",
      "lon": "-8.636497312999808",
      "lat": "41.44447565421808"
    },
    {
      "id": "pt.ine.add.PTCONT.695035",
      "street": "R OUTEIRO",
      "house": "174",
      "postcode": "4755-262",
      "city": "MACIEIRA DE RATES",
      "lon": "-8.636497312999808",
      "lat": "41.44447565421808"
    },
    {
      "id": "pt.ine.add.PTCONT.709806",
      "street": "AV DR FRANCISCO SA CARNEIRO",
      "house": "369",
      "postcode": "4755-262",
      "city": "MACIEIRA DE RATES",
      "lon": "-8.634966471753396",
      "lat": "41.44303271529969"
    },
    {
      "id": "pt.ine.add.PTCONT.724948",
      "street": "AV DR FRANCISCO SA CARNEIRO",
      "house": "265",
      "postcode": "4755-262",
      "city": "MACIEIRA DE RATES",
      "lon": "-8.63507801011843",
      "lat": "41.44197877259697"
    },
    {
      "id": "pt.ine.add.PTCONT.805817",
      "street": "AV DR FRANCISCO SA CARNEIRO",
      "house": "",
      "postcode": "4755-261",
      "city": "MACIEIRA DE RATES",
      "lon": "-8.634476735577513",
      "lat": "41.44470057144918"
    },
    {
      "id": "pt.ine.add.PTCONT.849061",
      "street": "R PRADOS",
      "house": "37",
      "postcode": "4755-262",
      "city": "MACIEIRA DE RATES",
      "lon": "-8.635140722393402",
      "lat": "41.44390533298391"
    }
  ]
}