{
  "data": {
    "distrito": "Bragança",
    "concelho": "Macedo de Cavaleiros",
    "freguesia": "União das freguesias de Espadanedo, Edroso, Murçós e Soutelo Mourisco",
    "OBJECTID": 449,
    "BGRI2021": "04054200131",
    "DT21": "04",
    "DTMN21": "0405",
    "DTMNFR21": "040542",
    "DTMNFRSEC21": "040542001",
    "SECNUM21": "001",
    "SSNUM21": "31",
    "SECSSNUM21": "00131",
    "OBJECTID_1": 35547,
    "DT": "04",
    "CC": "05",
    "fr": "42",
    "SEC": "001",
    "SS": "31"
  },
  "addresses": [
    {
      "id": "pt.ine.add.PTCONT.855053",
      "street": "R IGREJA",
      "house": "",
      "postcode": "5340-132",
      "city": "ESPADANEDO MCD",
      "lon": "-6.939162066529018",
      "lat": "41.66392018111301"
    },
    {
      "id": "pt.ine.add.PTCONT.873294",
      "street": "R ANTÓNIO FIRMINO MARTINS",
      "house": "",
      "postcode": "5340-132",
      "city": "ESPADANEDO MCD",
      "lon": "-6.9400262874534455",
      "lat": "41.66523464376155"
    },
    {
      "id": "pt.ine.add.PTCONT.881111",
      "street": "R IGREJA",
      "house": "",
      "postcode": "5340-132",
      "city": "ESPADANEDO MCD",
      "lon": "-6.940431367355664",
      "lat": "41.664104424787446"
    },
    {
      "id": "pt.ine.add.PTCONT.886841",
      "street": "R IGREJA",
      "house": "",
      "postcode": "5340-132",
      "city": "ESPADANEDO MCD",
      "lon": "-6.940568940924633",
      "lat": "41.664456983584905"
    },
    {
      "id": "pt.ine.add.PTCONT.887892",
      "street": "R IGREJA",
      "house": "",
      "postcode": "5340-132",
      "city": "ESPADANEDO MCD",
      "lon": "-6.939735115115937",
      "lat": "41.664097196988145"
    },
    {
      "id": "pt.ine.add.PTCONT.894090",
      "street": "R IGREJA",
      "house": "",
      "postcode": "5340-132",
      "city": "ESPADANEDO MCD",
      "lon": "-6.940209473124273",
      "lat": "41.66441723945003"
    },
    {
      "id": "pt.ine.add.PTCONT.904755",
      "street": "R IGREJA",
      "house": "",
      "postcode": "5340-132",
      "city": "ESPADANEDO MCD",
      "lon": "-6.940311157693335",
      "lat": "41.66411218055429"
    },
    {
      "id": "pt.ine.add.PTCONT.913897",
      "street": "R IGREJA",
      "house": "",
      "postcode": "5340-132",
      "city": "ESPADANEDO MCD",
      "lon": "-6.939160070761203",
      "lat": "41.66402820073009"
    },
    {
      "id": "pt.ine.add.PTCONT.913898",
      "street": "R IGREJA",
      "house": "",
      "postcode": "5340-132",
      "city": "ESPADANEDO MCD",
      "lon": "-6.94033051413257",
      "lat": "41.664364475607876"
    },
    {
      "id": "pt.ine.add.PTCONT.925555",
      "street": "R JOÃO MARTINS",
      "house": "",
      "postcode": "5340-132",
      "city": "ESPADANEDO MCD",
      "lon": "-6.940473403991046",
      "lat": "41.6644289820909"
    },
    {
      "id": "pt.ine.add.PTCONT.947822",
      "street": "R IGREJA",
      "house": "",
      "postcode": "5340-132",
      "city": "ESPADANEDO MCD",
      "lon": "-6.940543769220061",
      "lat": "41.66451974591708"
    }
  ]
}