{
  "data": {
    "distrito": "Bragança",
    "concelho": "Macedo de Cavaleiros",
    "freguesia": "União das freguesias de Espadanedo, Edroso, Murçós e Soutelo Mourisco",
    "OBJECTID": 402,
    "BGRI2021": "04054200132",
    "DT21": "04",
    "DTMN21": "0405",
    "DTMNFR21": "040542",
    "DTMNFRSEC21": "040542001",
    "SECNUM21": "001",
    "SSNUM21": "32",
    "SECSSNUM21": "00132",
    "OBJECTID_1": 35190,
    "DT": "04",
    "CC": "05",
    "fr": "42",
    "SEC": "001",
    "SS": "32"
  },
  "addresses": [
    {
      "id": "pt.ine.add.PTCONT.876399",
      "street": "R BOUZENDE",
      "house": "",
      "postcode": "5340-432",
      "city": "SOUTELO MOURISCO",
      "lon": "-6.905109688744631",
      "lat": "41.669692642316164"
    },
    {
      "id": "pt.ine.add.PTCONT.880289",
      "street": "R VALE",
      "house": "",
      "postcode": "5340-432",
      "city": "SOUTELO MOURISCO",
      "lon": "-6.906815286818146",
      "lat": "41.66966583838287"
    },
    {
      "id": "pt.ine.add.PTCONT.893231",
      "street": "R PRINCIPAL",
      "house": "",
      "postcode": "5340-432",
      "city": "SOUTELO MOURISCO",
      "lon": "-6.907667029520193",
      "lat": "41.67034117125813"
    },
    {
      "id": "pt.ine.add.PTCONT.896559",
      "street": "R FUNDO DO POVO",
      "house": "",
      "postcode": "5340-432",
      "city": "SOUTELO MOURISCO",
      "lon": "-6.909241539528834",
      "lat": "41.66962867944533"
    },
    {
      "id": "pt.ine.add.PTCONT.904496",
      "street": "SIT SOUTELO MOURISCO",
      "house": "",
      "postcode": "5340-432",
      "city": "SOUTELO MOURISCO",
      "lon": "-6.909001605307987",
      "lat": "41.66961712062795"
    },
    {
      "id": "pt.ine.add.PTCONT.914066",
      "street": "R BOUZENDE",
      "house": "",
      "postcode": "5340-432",
      "city": "SOUTELO MOURISCO",
      "lon": "-6.906275222239265",
      "lat": "41.66965107084675"
    },
    {
      "id": "pt.ine.add.PTCONT.922465",
      "street": "R ADRO",
      "house": "",
      "postcode": "5340-432",
      "city": "SOUTELO MOURISCO",
      "lon": "-6.90662234866394",
      "lat": "41.66970879612118"
    },
    {
      "id": "pt.ine.add.PTCONT.927538",
      "street": "R BOUZENDE",
      "house": "",
      "postcode": "5340-432",
      "city": "SOUTELO MOURISCO",
      "lon": "-6.904782612451201",
      "lat": "41.66921196975828"
    },
    {
      "id": "pt.ine.add.PTCONT.929390",
      "street": "R FUNDO DO POVO",
      "house": "",
      "postcode": "5340-432",
      "city": "SOUTELO MOURISCO",
      "lon": "-6.908089036920146",
      "lat": "41.66961639987184"
    }
  ]
}