{
  "data": {
    "distrito": "Bragança",
    "concelho": "Macedo de Cavaleiros",
    "freguesia": "União das freguesias de Espadanedo, Edroso, Murçós e Soutelo Mourisco",
    "OBJECTID": 404,
    "BGRI2021": "04054200133",
    "DT21": "04",
    "DTMN21": "0405",
    "DTMNFR21": "040542",
    "DTMNFRSEC21": "040542001",
    "SECNUM21": "001",
    "SSNUM21": "33",
    "SECSSNUM21": "00133",
    "OBJECTID_1": 35777,
    "DT": "04",
    "CC": "05",
    "fr": "42",
    "SEC": "001",
    "SS": "33"
  },
  "addresses": [
    {
      "id": "pt.ine.add.PTCONT.857875",
      "street": "R PRINCIPAL",
      "house": "",
      "postcode": "5340-432",
      "city": "SOUTELO MOURISCO",
      "lon": "-6.906843955984034",
      "lat": "41.67005328796992"
    },
    {
      "id": "pt.ine.add.PTCONT.859647",
      "street": "R BECO",
      "house": "",
      "postcode": "5340-432",
      "city": "SOUTELO MOURISCO",
      "lon": "-6.905936889996077",
      "lat": "41.67039473574152"
    },
    {
      "id": "pt.ine.add.PTCONT.862102",
      "street": "R VALE",
      "house": "",
      "postcode": "5340-432",
      "city": "SOUTELO MOURISCO",
      "lon": "-6.90665580125409",
      "lat": "41.66984420325603"
    },
    {
      "id": "pt.ine.add.PTCONT.865203",
      "street": "R VALE",
      "house": "",
      "postcode": "5340-432",
      "city": "SOUTELO MOURISCO",
      "lon": "-6.90641620864552",
      "lat": "41.669814636002066"
    },
    {
      "id": "pt.ine.add.PTCONT.888096",
      "street": "R VALE",
      "house": "",
      "postcode": "5340-432",
      "city": "SOUTELO MOURISCO",
      "lon": "-6.9062575762791525",
      "lat": "41.669947992717546"
    },
    {
      "id": "pt.ine.add.PTCONT.888537",
      "street": "R IGREJA",
      "house": "",
      "postcode": "5340-432",
      "city": "SOUTELO MOURISCO",
      "lon": "-6.90632016655926",
      "lat": "41.669813610781"
    },
    {
      "id": "pt.ine.add.PTCONT.890458",
      "street": "R TANQUE",
      "house": "",
      "postcode": "5340-432",
      "city": "SOUTELO MOURISCO",
      "lon": "-6.906335801925101",
      "lat": "41.67025494138082"
    },
    {
      "id": "pt.ine.add.PTCONT.907037",
      "street": "R TANQUE",
      "house": "",
      "postcode": "5340-432",
      "city": "SOUTELO MOURISCO",
      "lon": "-6.906350371085475",
      "lat": "41.670120046799525"
    },
    {
      "id": "pt.ine.add.PTCONT.908800",
      "street": "R IGREJA",
      "house": "",
      "postcode": "5340-432",
      "city": "SOUTELO MOURISCO",
      "lon": "-6.906576763240471",
      "lat": "41.67021249668962"
    },
    {
      "id": "pt.ine.add.PTCONT.912552",
      "street": "R ESCOLA",
      "house": "",
      "postcode": "5340-432",
      "city": "SOUTELO MOURISCO",
      "lon": "-6.905299780804752",
      "lat": "41.671063181053526"
    },
    {
      "id": "pt.ine.add.PTCONT.912556",
      "street": "R IGREJA",
      "house": "",
      "postcode": "5340-432",
      "city": "SOUTELO MOURISCO",
      "lon": "-6.907030574481552",
      "lat": "41.670343386046454"
    },
    {
      "id": "pt.ine.add.PTCONT.923414",
      "street": "R IGREJA",
      "house": "",
      "postcode": "5340-432",
      "city": "SOUTELO MOURISCO",
      "lon": "-6.905867422636648",
      "lat": "41.67025894381411"
    },
    {
      "id": "pt.ine.add.PTCONT.923524",
      "street": "R VALE",
      "house": "",
      "postcode": "5340-432",
      "city": "SOUTELO MOURISCO",
      "lon": "-6.906809136055622",
      "lat": "41.66998989303006"
    },
    {
      "id": "pt.ine.add.PTCONT.931016",
      "street": "R IGREJA",
      "house": "",
      "postcode": "5340-432",
      "city": "SOUTELO MOURISCO",
      "lon": "-6.906075103596913",
      "lat": "41.6700720913217"
    },
    {
      "id": "pt.ine.add.PTCONT.931018",
      "street": "R PRINCIPAL",
      "house": "",
      "postcode": "5340-432",
      "city": "SOUTELO MOURISCO",
      "lon": "-6.907052316771666",
      "lat": "41.669830427583896"
    },
    {
      "id": "pt.ine.add.PTCONT.934078",
      "street": "R ESCOLA",
      "house": "",
      "postcode": "5340-432",
      "city": "SOUTELO MOURISCO",
      "lon": "-6.9059404805558",
      "lat": "41.67020570394141"
    },
    {
      "id": "pt.ine.add.PTCONT.942785",
      "street": "R IGREJA",
      "house": "",
      "postcode": "5340-432",
      "city": "SOUTELO MOURISCO",
      "lon": "-6.906010802861101",
      "lat": "41.67029648825468"
    }
  ]
}