{
  "data": {
    "distrito": "Santarém",
    "concelho": "Cartaxo",
    "freguesia": "Pontével",
    "OBJECTID": 333,
    "BGRI2021": "14060400336",
    "DT21": "14",
    "DTMN21": "1406",
    "DTMNFR21": "140604",
    "DTMNFRSEC21": "140604003",
    "SECNUM21": "003",
    "SSNUM21": "36",
    "SECSSNUM21": "00336",
    "OBJECTID_1": 149748,
    "DT": "14",
    "CC": "06",
    "fr": "04",
    "SEC": "003",
    "SS": "36"
  },
  "addresses": [
    {
      "id": "pt.ine.add.PTCONT.4399510",
      "street": "R MOINHO DO LOBO",
      "house": "",
      "postcode": "2070-383",
      "city": "PONTÉVEL",
      "lon": "-8.84273422750268",
      "lat": "39.150755847667845"
    },
    {
      "id": "pt.ine.add.PTCONT.4413908",
      "street": "R PINHAL DO BAIRRO",
      "house": "",
      "postcode": "2070-390",
      "city": "PONTÉVEL",
      "lon": "-8.843221474111358",
      "lat": "39.14859110891394"
    },
    {
      "id": "pt.ine.add.PTCONT.4414613",
      "street": "R CADAVAIS",
      "house": "9",
      "postcode": "2070-419",
      "city": "PONTÉVEL",
      "lon": "-8.84176861733736",
      "lat": "39.14905932853226"
    },
    {
      "id": "pt.ine.add.PTCONT.4430995",
      "street": "R TRIANA",
      "house": "15",
      "postcode": "2070-410",
      "city": "PONTÉVEL",
      "lon": "-8.84084666539292",
      "lat": "39.14940721132198"
    },
    {
      "id": "pt.ine.add.PTCONT.4432134",
      "street": "R PINHAL DO BAIRRO",
      "house": "",
      "postcode": "2070-390",
      "city": "PONTÉVEL",
      "lon": "-8.844930920653246",
      "lat": "39.14948141863704"
    },
    {
      "id": "pt.ine.add.PTCONT.4441489",
      "street": "R MOINHO DO LOBO CASAL DA JACINTA",
      "house": "",
      "postcode": "2070-383",
      "city": "PONTÉVEL",
      "lon": "-8.843128971436492",
      "lat": "39.15089756147267"
    },
    {
      "id": "pt.ine.add.PTCONT.4457493",
      "street": "R PINHAL DO BAIRRO",
      "house": "",
      "postcode": "2070-390",
      "city": "PONTÉVEL",
      "lon": "-8.845815032693197",
      "lat": "39.1499714211629"
    },
    {
      "id": "pt.ine.add.PTCONT.4473972",
      "street": "R TRIANA",
      "house": "13",
      "postcode": "2070-410",
      "city": "PONTÉVEL",
      "lon": "-8.84091498657548",
      "lat": "39.1492987078473"
    },
    {
      "id": "pt.ine.add.PTCONT.4480212",
      "street": "R MOINHO DO LOBO CASAL DE S JOSE",
      "house": "",
      "postcode": "2070-383",
      "city": "PONTÉVEL",
      "lon": "-8.842977507455483",
      "lat": "39.1507903956128"
    },
    {
      "id": "pt.ine.add.PTCONT.4497086",
      "street": "R CADAVAIS",
      "house": "13",
      "postcode": "2070-419",
      "city": "PONTÉVEL",
      "lon": "-8.841191879468331",
      "lat": "39.14922496683932"
    },
    {
      "id": "pt.ine.add.PTCONT.4510125",
      "street": "R FONTE DA TELHA",
      "house": "9",
      "postcode": "2070-384",
      "city": "PONTÉVEL",
      "lon": "-8.843695264658532",
      "lat": "39.15199300993661"
    },
    {
      "id": "pt.ine.add.PTCONT.4515251",
      "street": "R PINHAL DO BAIRRO",
      "house": "",
      "postcode": "2070-390",
      "city": "PONTÉVEL",
      "lon": "-8.846937797056853",
      "lat": "39.15003660871079"
    },
    {
      "id": "pt.ine.add.PTCONT.4515508",
      "street": "R FONTE DA TELHA",
      "house": "7",
      "postcode": "2070-384",
      "city": "PONTÉVEL",
      "lon": "-8.843497254950096",
      "lat": "39.15185910644571"
    },
    {
      "id": "pt.ine.add.PTCONT.4521869",
      "street": "R TRIANA",
      "house": "15 A",
      "postcode": "2070-410",
      "city": "PONTÉVEL",
      "lon": "-8.840791084016884",
      "lat": "39.149632733337555"
    },
    {
      "id": "pt.ine.add.PTCONT.4527894",
      "street": "R PINHAL DO BAIRRO",
      "house": "",
      "postcode": "2070-390",
      "city": "PONTÉVEL",
      "lon": "-8.843384048205241",
      "lat": "39.14865316989959"
    },
    {
      "id": "pt.ine.add.PTCONT.4530140",
      "street": "R PINHAL DO BAIRRO",
      "house": "",
      "postcode": "2070-390",
      "city": "PONTÉVEL",
      "lon": "-8.844523979092607",
      "lat": "39.14927673369391"
    },
    {
      "id": "pt.ine.add.PTCONT.4552564",
      "street": "R FONTE DA TELHA",
      "house": "23",
      "postcode": "2070-384",
      "city": "PONTÉVEL",
      "lon": "-8.844930971231813",
      "lat": "39.15293124328372"
    },
    {
      "id": "pt.ine.add.PTCONT.4552565",
      "street": "R FONTE DA TELHA",
      "house": "23",
      "postcode": "2070-384",
      "city": "PONTÉVEL",
      "lon": "-8.844930971231813",
      "lat": "39.15293124328372"
    },
    {
      "id": "pt.ine.add.PTCONT.4560948",
      "street": "R FONTE DA TELHA",
      "house": "29",
      "postcode": "2070-384",
      "city": "PONTÉVEL",
      "lon": "-8.846429319498135",
      "lat": "39.153525575889006"
    },
    {
      "id": "pt.ine.add.PTCONT.4565232",
      "street": "R MOINHO DO LOBO",
      "house": "",
      "postcode": "2070-383",
      "city": "PONTÉVEL",
      "lon": "-8.844166877992567",
      "lat": "39.15057597541514"
    },
    {
      "id": "pt.ine.add.PTCONT.4570900",
      "street": "R CADAVAIS",
      "house": "11",
      "postcode": "2070-419",
      "city": "PONTÉVEL",
      "lon": "-8.841342976278733",
      "lat": "39.149296107778056"
    },
    {
      "id": "pt.ine.add.PTCONT.4579283",
      "street": "SIT DA FONTE DA TELHA",
      "house": "",
      "postcode": "2070-465",
      "city": "PONTÉVEL",
      "lon": "-8.846429319498135",
      "lat": "39.153525575889006"
    },
    {
      "id": "pt.ine.add.PTCONT.4587579",
      "street": "R FONTE DA TELHA",
      "house": "27A",
      "postcode": "2070-384",
      "city": "PONTÉVEL",
      "lon": "-8.845813854776711",
      "lat": "39.1532951496887"
    },
    {
      "id": "pt.ine.add.PTCONT.4606926",
      "street": "R PINHAL DO BAIRRO",
      "house": "",
      "postcode": "2070-390",
      "city": "PONTÉVEL",
      "lon": "-8.843081310654762",
      "lat": "39.14845685213512"
    },
    {
      "id": "pt.ine.add.PTCONT.4608844",
      "street": "R FONTE DA TELHA",
      "house": "21",
      "postcode": "2070-384",
      "city": "PONTÉVEL",
      "lon": "-8.84479025146027",
      "lat": "39.15274294785309"
    },
    {
      "id": "pt.ine.add.PTCONT.4610832",
      "street": "R PINHAL DO BAIRRO",
      "house": "",
      "postcode": "2070-390",
      "city": "PONTÉVEL",
      "lon": "-8.845129833910736",
      "lat": "39.149705388019406"
    },
    {
      "id": "pt.ine.add.PTCONT.4612991",
      "street": "R PINHAL DO BAIRRO",
      "house": "",
      "postcode": "2070-390",
      "city": "PONTÉVEL",
      "lon": "-8.847319885254924",
      "lat": "39.15007029731867"
    },
    {
      "id": "pt.ine.add.PTCONT.4628006",
      "street": "R MOINHO DO LOBO",
      "house": "",
      "postcode": "2070-383",
      "city": "PONTÉVEL",
      "lon": "-8.843035888082122",
      "lat": "39.15084408426499"
    },
    {
      "id": "pt.ine.add.PTCONT.4629609",
      "street": "R CADAVAIS",
      "house": "5",
      "postcode": "2070-419",
      "city": "PONTÉVEL",
      "lon": "-8.842172928729411",
      "lat": "39.14900282511237"
    },
    {
      "id": "pt.ine.add.PTCONT.4637820",
      "street": "R PINHAL DO BAIRRO",
      "house": "",
      "postcode": "2070-390",
      "city": "PONTÉVEL",
      "lon": "-8.842884578683247",
      "lat": "39.14844904303829"
    },
    {
      "id": "pt.ine.add.PTCONT.4647157",
      "street": "R FONTE DA TELHA",
      "house": "27",
      "postcode": "2070-384",
      "city": "PONTÉVEL",
      "lon": "-8.845291663532295",
      "lat": "39.153136209245595"
    }
  ]
}