{
  "data": {
    "distrito": "Faro",
    "concelho": "Albufeira",
    "freguesia": "Albufeira e Olhos de √Ågua",
    "OBJECTID": 481,
    "BGRI2021": "08010604109",
    "DT21": "08",
    "DTMN21": "0801",
    "DTMNFR21": "080106",
    "DTMNFRSEC21": "080106041",
    "SECNUM21": "041",
    "SSNUM21": "09",
    "SECSSNUM21": "04109",
    "OBJECTID_1": 64428,
    "DT": "08",
    "CC": "01",
    "fr": "06",
    "SEC": "041",
    "SS": "09"
  },
  "addresses": [
    {
      "id": "pt.ine.add.PTCONT.1478462",
      "street": "CAM ATABOEIRA",
      "house": "",
      "postcode": "8200-396",
      "city": "ALBUFEIRA",
      "lon": "-8.259967135178998",
      "lat": "37.11424506611455"
    },
    {
      "id": "pt.ine.add.PTCONT.1478468",
      "street": "VL STA MARIA",
      "house": "",
      "postcode": "8200-397",
      "city": "ALBUFEIRA",
      "lon": "-8.260532089539046",
      "lat": "37.108955209951766"
    },
    {
      "id": "pt.ine.add.PTCONT.1495621",
      "street": "URB MANUEL PEREIRA FILIPE",
      "house": "4",
      "postcode": "8200-397",
      "city": "ALBUFEIRA",
      "lon": "-8.257478075577962",
      "lat": "37.112706882778355"
    },
    {
      "id": "pt.ine.add.PTCONT.1504442",
      "street": "CAM ALPOUVAR",
      "house": "",
      "postcode": "8200-370",
      "city": "ALBUFEIRA",
      "lon": "-8.263414200237909",
      "lat": "37.11010544096371"
    },
    {
      "id": "pt.ine.add.PTCONT.1504445",
      "street": "CAM ALPOUVAR",
      "house": "",
      "postcode": "8200-397",
      "city": "ALBUFEIRA",
      "lon": "-8.258878202394454",
      "lat": "37.10892093316183"
    },
    {
      "id": "pt.ine.add.PTCONT.1507396",
      "street": "CAM ALPOUVAR",
      "house": "",
      "postcode": "8200-397",
      "city": "ALBUFEIRA",
      "lon": "-8.260712672428909",
      "lat": "37.109297420515134"
    },
    {
      "id": "pt.ine.add.PTCONT.1515562",
      "street": "",
      "house": "",
      "postcode": "8200-397",
      "city": "ALBUFEIRA",
      "lon": "-8.255855112618077",
      "lat": "37.110969518981726"
    },
    {
      "id": "pt.ine.add.PTCONT.1547533",
      "street": "CAM ALPOUVAR",
      "house": "",
      "postcode": "8200-397",
      "city": "ALBUFEIRA",
      "lon": "-8.25658267142209",
      "lat": "37.10866203689318"
    },
    {
      "id": "pt.ine.add.PTCONT.1558695",
      "street": "URB MANUEL PEREIRA FILIPE",
      "house": "7",
      "postcode": "8200-397",
      "city": "ALBUFEIRA",
      "lon": "-8.257128630734545",
      "lat": "37.11230176969751"
    },
    {
      "id": "pt.ine.add.PTCONT.1560939",
      "street": "CAM ALPOUVAR",
      "house": "",
      "postcode": "8200-397",
      "city": "ALBUFEIRA",
      "lon": "-8.260634447174175",
      "lat": "37.109612877465956"
    },
    {
      "id": "pt.ine.add.PTCONT.1576734",
      "street": "CAM ALPOUVAR",
      "house": "",
      "postcode": "8200-397",
      "city": "ALBUFEIRA",
      "lon": "-8.25621127414726",
      "lat": "37.108581327186634"
    },
    {
      "id": "pt.ine.add.PTCONT.1580193",
      "street": "",
      "house": "",
      "postcode": "8200-397",
      "city": "ALBUFEIRA",
      "lon": "-8.25694656018445",
      "lat": "37.11104046925465"
    },
    {
      "id": "pt.ine.add.PTCONT.1582972",
      "street": "CAM ALPOUVAR",
      "house": "",
      "postcode": "8200-397",
      "city": "ALBUFEIRA",
      "lon": "-8.256301190369108",
      "lat": "37.108527169882876"
    },
    {
      "id": "pt.ine.add.PTCONT.1585730",
      "street": "",
      "house": "",
      "postcode": "8200-397",
      "city": "ALBUFEIRA",
      "lon": "-8.256000383291266",
      "lat": "37.11035664431762"
    },
    {
      "id": "pt.ine.add.PTCONT.1589980",
      "street": "URB MANUEL PEREIRA FILIPE",
      "house": "3",
      "postcode": "8200-397",
      "city": "ALBUFEIRA",
      "lon": "-8.25763573829172",
      "lat": "37.1127968237605"
    },
    {
      "id": "pt.ine.add.PTCONT.1590943",
      "street": "URB MANUEL PEREIRA FILIPE",
      "house": "CX 195Z",
      "postcode": "8200-397",
      "city": "ALBUFEIRA",
      "lon": "-8.257241391002925",
      "lat": "37.11245483269899"
    },
    {
      "id": "pt.ine.add.PTCONT.1602209",
      "street": "CAM ALPOUVAR",
      "house": "",
      "postcode": "8200-397",
      "city": "ALBUFEIRA",
      "lon": "-8.255072924564733",
      "lat": "37.107302990692816"
    },
    {
      "id": "pt.ine.add.PTCONT.1606729",
      "street": "MOURARIA CXP",
      "house": "ALBUFEIR",
      "postcode": "8200-370",
      "city": "ALBUFEIRA",
      "lon": "-8.262704822936522",
      "lat": "37.10976381371647"
    },
    {
      "id": "pt.ine.add.PTCONT.1606730",
      "street": "",
      "house": "",
      "postcode": "8200-397",
      "city": "ALBUFEIRA",
      "lon": "-8.256756526538384",
      "lat": "37.111797562061106"
    },
    {
      "id": "pt.ine.add.PTCONT.1608582",
      "street": "CAM ALPOUVAR",
      "house": "",
      "postcode": "8200-370",
      "city": "ALBUFEIRA",
      "lon": "-8.263786820153793",
      "lat": "37.110888957370015"
    },
    {
      "id": "pt.ine.add.PTCONT.1611497",
      "street": "CAM ALPOUVAR",
      "house": "",
      "postcode": "8200-370",
      "city": "ALBUFEIRA",
      "lon": "-8.263042711754737",
      "lat": "37.10997969953582"
    },
    {
      "id": "pt.ine.add.PTCONT.1620316",
      "street": "CAM ALPOUVAR CASA PALHINHA",
      "house": "",
      "postcode": "8200-370",
      "city": "ALBUFEIRA",
      "lon": "-8.262648738526122",
      "lat": "37.10986299215778"
    },
    {
      "id": "pt.ine.add.PTCONT.1629275",
      "street": "URB MANUEL PEREIRA FILIPE",
      "house": "",
      "postcode": "8200-397",
      "city": "ALBUFEIRA",
      "lon": "-8.25736537334922",
      "lat": "37.11258986253544"
    },
    {
      "id": "pt.ine.add.PTCONT.1640915",
      "street": "CAM ALPOUVAR",
      "house": "",
      "postcode": "8200-370",
      "city": "ALBUFEIRA",
      "lon": "-8.26335791589578",
      "lat": "37.11008748150529"
    },
    {
      "id": "pt.ine.add.PTCONT.1640916",
      "street": "CAM ALPOUVAR",
      "house": "",
      "postcode": "8200-397",
      "city": "ALBUFEIRA",
      "lon": "-8.256470064266797",
      "lat": "37.10859907953213"
    },
    {
      "id": "pt.ine.add.PTCONT.1643545",
      "street": "CAM ALPOUVAR",
      "house": "",
      "postcode": "8200-397",
      "city": "ALBUFEIRA",
      "lon": "-8.257019487989304",
      "lat": "37.10746316427532"
    },
    {
      "id": "pt.ine.add.PTCONT.1669237",
      "street": "",
      "house": "",
      "postcode": "8200-397",
      "city": "ALBUFEIRA",
      "lon": "-8.25628169547546",
      "lat": "37.110383384369385"
    },
    {
      "id": "pt.ine.add.PTCONT.1677948",
      "street": "CAM ALPOUVAR",
      "house": "",
      "postcode": "8200-370",
      "city": "ALBUFEIRA",
      "lon": "-8.26312158972265",
      "lat": "37.11005169827311"
    },
    {
      "id": "pt.ine.add.PTCONT.1678451",
      "street": "CAM ATABOEIRA",
      "house": "",
      "postcode": "8200-396",
      "city": "ALBUFEIRA",
      "lon": "-8.260246836119183",
      "lat": "37.11329864883005"
    },
    {
      "id": "pt.ine.add.PTCONT.1678455",
      "street": "CAM ALPOUVAR",
      "house": "",
      "postcode": "8200-397",
      "city": "ALBUFEIRA",
      "lon": "-8.25672867876452",
      "lat": "37.10850870366053"
    },
    {
      "id": "pt.ine.add.PTCONT.1678456",
      "street": "CAM ALPOUVAR",
      "house": "",
      "postcode": "8200-397",
      "city": "ALBUFEIRA",
      "lon": "-8.257425441603871",
      "lat": "37.10803942121664"
    },
    {
      "id": "pt.ine.add.PTCONT.1703731",
      "street": "CAM ALPOUVAR",
      "house": "",
      "postcode": "8200-370",
      "city": "ALBUFEIRA",
      "lon": "-8.262592285798647",
      "lat": "37.10974591536333"
    },
    {
      "id": "pt.ine.add.PTCONT.1703733",
      "street": "EN 395",
      "house": "",
      "postcode": "8200-667",
      "city": "ALBUFEIRA",
      "lon": "-8.253241020810638",
      "lat": "37.108503277844505"
    },
    {
      "id": "pt.ine.add.PTCONT.1715477",
      "street": "CAM ALPOUVAR",
      "house": "",
      "postcode": "8200-370",
      "city": "ALBUFEIRA",
      "lon": "-8.26385471228912",
      "lat": "37.111114148738636"
    },
    {
      "id": "pt.ine.add.PTCONT.1718104",
      "street": "URB MANUEL PEREIRA FILIPE",
      "house": "1",
      "postcode": "8200-397",
      "city": "ALBUFEIRA",
      "lon": "-8.258007394447034",
      "lat": "37.11302169899577"
    },
    {
      "id": "pt.ine.add.PTCONT.1726811",
      "street": "",
      "house": "",
      "postcode": "8200-397",
      "city": "ALBUFEIRA",
      "lon": "-8.256506242448085",
      "lat": "37.110094810079936"
    },
    {
      "id": "pt.ine.add.PTCONT.1729725",
      "street": "CAM ALPOUVAR",
      "house": "",
      "postcode": "8200-397",
      "city": "ALBUFEIRA",
      "lon": "-8.258911313100198",
      "lat": "37.10853343997987"
    },
    {
      "id": "pt.ine.add.PTCONT.1733748",
      "street": "CAM ALPOUVAR",
      "house": "R",
      "postcode": "8200-397",
      "city": "ALBUFEIRA",
      "lon": "-8.260567336040106",
      "lat": "37.109847226547195"
    },
    {
      "id": "pt.ine.add.PTCONT.1738108",
      "street": "CAM MOURARIA",
      "house": "",
      "postcode": "8200-397",
      "city": "ALBUFEIRA",
      "lon": "-8.256614169653787",
      "lat": "37.107274363395284"
    },
    {
      "id": "pt.ine.add.PTCONT.1740833",
      "street": "URB MANUEL PEREIRA FILIPE",
      "house": "2",
      "postcode": "8200-397",
      "city": "ALBUFEIRA",
      "lon": "-8.257827169485074",
      "lat": "37.112895739662044"
    },
    {
      "id": "pt.ine.add.PTCONT.1741487",
      "street": "URB MANUEL PEREIRA FILIPE",
      "house": "",
      "postcode": "8200-397",
      "city": "ALBUFEIRA",
      "lon": "-8.256970602755718",
      "lat": "37.11198656222557"
    },
    {
      "id": "pt.ine.add.PTCONT.1741489",
      "street": "EN 395",
      "house": "",
      "postcode": "8200-667",
      "city": "ALBUFEIRA",
      "lon": "-8.254071978759807",
      "lat": "37.107511261098985"
    },
    {
      "id": "pt.ine.add.PTCONT.1750488",
      "street": "CAM ALPOUVAR",
      "house": "",
      "postcode": "8200-370",
      "city": "ALBUFEIRA",
      "lon": "-8.263990451250514",
      "lat": "37.111537499439514"
    },
    {
      "id": "pt.ine.add.PTCONT.1756658",
      "street": "",
      "house": "",
      "postcode": "8200-397",
      "city": "ALBUFEIRA",
      "lon": "-8.253162409793239",
      "lat": "37.1085934639966"
    },
    {
      "id": "pt.ine.add.PTCONT.1759595",
      "street": "CAM MOURARIA",
      "house": "",
      "postcode": "8200-397",
      "city": "ALBUFEIRA",
      "lon": "-8.256535373828502",
      "lat": "37.1072474134774"
    },
    {
      "id": "pt.ine.add.PTCONT.1771304",
      "street": "CAM ALPOUVAR",
      "house": "",
      "postcode": "8200-397",
      "city": "ALBUFEIRA",
      "lon": "-8.25887788949766",
      "lat": "37.10873170979471"
    },
    {
      "id": "pt.ine.add.PTCONT.1777980",
      "street": "CAM ALPOUVAR",
      "house": "",
      "postcode": "8200-370",
      "city": "ALBUFEIRA",
      "lon": "-8.263211687710692",
      "lat": "37.11010566334621"
    },
    {
      "id": "pt.ine.add.PTCONT.1792687",
      "street": "",
      "house": "",
      "postcode": "8200-397",
      "city": "ALBUFEIRA",
      "lon": "-8.256371832830173",
      "lat": "37.110464386549864"
    },
    {
      "id": "pt.ine.add.PTCONT.1801437",
      "street": "CAM ALPOUVAR",
      "house": "",
      "postcode": "8200-370",
      "city": "ALBUFEIRA",
      "lon": "-8.261905843967805",
      "lat": "37.10965655648815"
    },
    {
      "id": "pt.ine.add.PTCONT.1810083",
      "street": "CAM ALPOUVAR",
      "house": "",
      "postcode": "8200-397",
      "city": "ALBUFEIRA",
      "lon": "-8.256502003056696",
      "lat": "37.10748172523363"
    },
    {
      "id": "pt.ine.add.PTCONT.1816200",
      "street": "CAM ALPOUVAR",
      "house": "",
      "postcode": "8200-397",
      "city": "ALBUFEIRA",
      "lon": "-8.256402488377883",
      "lat": "37.108554096553476"
    },
    {
      "id": "pt.ine.add.PTCONT.1827539",
      "street": "CAM MOURARIA",
      "house": "",
      "postcode": "8200-397",
      "city": "ALBUFEIRA",
      "lon": "-8.25671555396002",
      "lat": "37.10735535364435"
    },
    {
      "id": "pt.ine.add.PTCONT.1833165",
      "street": "URB MANUEL PEREIRA FILIPE",
      "house": "8",
      "postcode": "8200-397",
      "city": "ALBUFEIRA",
      "lon": "-8.257027107239269",
      "lat": "37.11213968419373"
    },
    {
      "id": "pt.ine.add.PTCONT.1833166",
      "street": "EN 395",
      "house": "",
      "postcode": "8200-667",
      "city": "ALBUFEIRA",
      "lon": "-8.254184611009864",
      "lat": "37.107592242035544"
    },
    {
      "id": "pt.ine.add.PTCONT.1840322",
      "street": "",
      "house": "",
      "postcode": "8200-397",
      "city": "ALBUFEIRA",
      "lon": "-8.258176428133789",
      "lat": "37.11318371244095"
    },
    {
      "id": "pt.ine.add.PTCONT.1841050",
      "street": "CAM ALPOUVAR",
      "house": "",
      "postcode": "8200-397",
      "city": "ALBUFEIRA",
      "lon": "-8.256290100427835",
      "lat": "37.10862629858693"
    },
    {
      "id": "pt.ine.add.PTCONT.1841952",
      "street": "CAM ALPOUVAR",
      "house": "",
      "postcode": "8200-397",
      "city": "ALBUFEIRA",
      "lon": "-8.255072924564733",
      "lat": "37.107302990692816"
    },
    {
      "id": "pt.ine.add.PTCONT.1845822",
      "street": "CAM ALPOUVAR",
      "house": "14",
      "postcode": "8200-397",
      "city": "ALBUFEIRA",
      "lon": "-8.26081347374632",
      "lat": "37.10902699244294"
    }
  ]
}