{
  "data": {
    "distrito": "Faro",
    "concelho": "Loul√©",
    "freguesia": "Alte",
    "OBJECTID": 1839,
    "BGRI2021": "08080200208",
    "DT21": "08",
    "DTMN21": "0808",
    "DTMNFR21": "080802",
    "DTMNFRSEC21": "080802002",
    "SECNUM21": "002",
    "SSNUM21": "08",
    "SECSSNUM21": "00208",
    "OBJECTID_1": 69252,
    "DT": "08",
    "CC": "08",
    "fr": "02",
    "SEC": "002",
    "SS": "08"
  },
  "addresses": [
    {
      "id": "pt.ine.add.PTCONT.1468070",
      "street": "",
      "house": "",
      "postcode": "8100-028",
      "city": "ALTE",
      "lon": "-8.192640286579808",
      "lat": "37.21617150224534"
    },
    {
      "id": "pt.ine.add.PTCONT.1472998",
      "street": "MONTE BRITO",
      "house": "CXPT 207",
      "postcode": "8100-028",
      "city": "ALTE",
      "lon": "-8.194634850709663",
      "lat": "37.21666606010425"
    },
    {
      "id": "pt.ine.add.PTCONT.1482136",
      "street": "MONTE BRITO",
      "house": "CXPT 105 T",
      "postcode": "8100-028",
      "city": "ALTE",
      "lon": "-8.193474190564473",
      "lat": "37.21640535301611"
    },
    {
      "id": "pt.ine.add.PTCONT.1483558",
      "street": "MONTE BRITO",
      "house": "CX PT 218",
      "postcode": "8100-028",
      "city": "ALTE",
      "lon": "-8.195074620987706",
      "lat": "37.21712536595501"
    },
    {
      "id": "pt.ine.add.PTCONT.1525471",
      "street": "MONTE BRITO",
      "house": "CX PT 211",
      "postcode": "8100-028",
      "city": "ALTE",
      "lon": "-8.19453343738683",
      "lat": "37.216648091753505"
    },
    {
      "id": "pt.ine.add.PTCONT.1554731",
      "street": "",
      "house": "",
      "postcode": "8100-028",
      "city": "ALTE",
      "lon": "-8.191367641898104",
      "lat": "37.216775838061345"
    },
    {
      "id": "pt.ine.add.PTCONT.1566439",
      "street": "",
      "house": "",
      "postcode": "8100-028",
      "city": "ALTE",
      "lon": "-8.192482591580957",
      "lat": "37.2162166338637"
    },
    {
      "id": "pt.ine.add.PTCONT.1637861",
      "street": "",
      "house": "",
      "postcode": "8100-028",
      "city": "ALTE",
      "lon": "-8.190838238078005",
      "lat": "37.21693828613045"
    },
    {
      "id": "pt.ine.add.PTCONT.1637862",
      "street": "",
      "house": "",
      "postcode": "8100-028",
      "city": "ALTE",
      "lon": "-8.190838238078005",
      "lat": "37.21693828613045"
    },
    {
      "id": "pt.ine.add.PTCONT.1578269",
      "street": "SIT MONTE BRITO",
      "house": "CX PT 213",
      "postcode": "8100-028",
      "city": "ALTE",
      "lon": "-8.19376709753083",
      "lat": "37.21637817189907"
    },
    {
      "id": "pt.ine.add.PTCONT.1653948",
      "street": "MONTE BRITO",
      "house": "CX PT 208",
      "postcode": "8100-028",
      "city": "ALTE",
      "lon": "-8.195289019026633",
      "lat": "37.21753072571509"
    },
    {
      "id": "pt.ine.add.PTCONT.1659178",
      "street": "MONTE BRITO",
      "house": "CX PT 205",
      "postcode": "8100-028",
      "city": "ALTE",
      "lon": "-8.194781322850249",
      "lat": "37.21667499442327"
    },
    {
      "id": "pt.ine.add.PTCONT.1682667",
      "street": "",
      "house": "",
      "postcode": "8100-024",
      "city": "ALTE",
      "lon": "-8.198165543718412",
      "lat": "37.221637963202234"
    },
    {
      "id": "pt.ine.add.PTCONT.1696657",
      "street": "MONTE BRITO",
      "house": "CX PT 206",
      "postcode": "8100-028",
      "city": "ALTE",
      "lon": "-8.19552512133772",
      "lat": "37.216926898596"
    },
    {
      "id": "pt.ine.add.PTCONT.1699039",
      "street": "",
      "house": "",
      "postcode": "8100-028",
      "city": "ALTE",
      "lon": "-8.191255017986089",
      "lat": "37.21682995635701"
    },
    {
      "id": "pt.ine.add.PTCONT.1704509",
      "street": "",
      "house": "",
      "postcode": "8100-028",
      "city": "ALTE",
      "lon": "-8.193260062963368",
      "lat": "37.216324367512314"
    },
    {
      "id": "pt.ine.add.PTCONT.1714749",
      "street": "MONTE BRITO",
      "house": "CX PT 210",
      "postcode": "8100-028",
      "city": "ALTE",
      "lon": "-8.193552998449244",
      "lat": "37.216333228882355"
    },
    {
      "id": "pt.ine.add.PTCONT.1716316",
      "street": "",
      "house": "",
      "postcode": "8100-028",
      "city": "ALTE",
      "lon": "-8.1930232461318",
      "lat": "37.21604516224457"
    },
    {
      "id": "pt.ine.add.PTCONT.1718964",
      "street": "",
      "house": "",
      "postcode": "8100-028",
      "city": "ALTE",
      "lon": "-8.19279792459932",
      "lat": "37.21605428649757"
    },
    {
      "id": "pt.ine.add.PTCONT.1751365",
      "street": "MONTE BRITO",
      "house": "CX PT 208",
      "postcode": "8100-028",
      "city": "ALTE",
      "lon": "-8.195491774243804",
      "lat": "37.21747655615526"
    },
    {
      "id": "pt.ine.add.PTCONT.1760529",
      "street": "MONTE BRITO",
      "house": "CX PT 220Z",
      "postcode": "8100-028",
      "city": "ALTE",
      "lon": "-8.194217945729166",
      "lat": "37.21661221297058"
    },
    {
      "id": "pt.ine.add.PTCONT.1763703",
      "street": "MONTE BRITO",
      "house": "CX PT 208",
      "postcode": "8100-028",
      "city": "ALTE",
      "lon": "-8.195401730000038",
      "lat": "37.2175847294391"
    },
    {
      "id": "pt.ine.add.PTCONT.1785294",
      "street": "",
      "house": "",
      "postcode": "8100-028",
      "city": "ALTE",
      "lon": "-8.193395511591165",
      "lat": "37.21663966590034"
    },
    {
      "id": "pt.ine.add.PTCONT.1793618",
      "street": "",
      "house": "",
      "postcode": "8100-028",
      "city": "ALTE",
      "lon": "-8.191536584413303",
      "lat": "37.21670367090552"
    },
    {
      "id": "pt.ine.add.PTCONT.1797834",
      "street": "",
      "house": "",
      "postcode": "8100-028",
      "city": "ALTE",
      "lon": "-8.1923023353062",
      "lat": "37.21622573457578"
    },
    {
      "id": "pt.ine.add.PTCONT.1839548",
      "street": "",
      "house": "",
      "postcode": "8100-028",
      "city": "ALTE",
      "lon": "-8.194398202689204",
      "lat": "37.21660310934331"
    }
  ]
}