{
  "data": {
    "distrito": "Coimbra",
    "concelho": "Condeixa-A-Nova",
    "freguesia": "Ega",
    "OBJECTID": 243,
    "BGRI2021": "06040600207",
    "DT21": "06",
    "DTMN21": "0604",
    "DTMNFR21": "060406",
    "DTMNFRSEC21": "060406002",
    "SECNUM21": "002",
    "SSNUM21": "07",
    "SECSSNUM21": "00207",
    "OBJECTID_1": 50445,
    "DT": "06",
    "CC": "04",
    "fr": "06",
    "SEC": "002",
    "SS": "07"
  },
  "addresses": [
    {
      "id": "pt.ine.add.PTCONT.1108679",
      "street": "R PRINCIPAL",
      "house": "",
      "postcode": "3150-261",
      "city": "EGA",
      "lon": "-8.528631029797406",
      "lat": "40.06947591562388"
    },
    {
      "id": "pt.ine.add.PTCONT.1190123",
      "street": "R BECO",
      "house": "",
      "postcode": "3150-261",
      "city": "EGA",
      "lon": "-8.527687259693238",
      "lat": "40.07046979969239"
    },
    {
      "id": "pt.ine.add.PTCONT.1194934",
      "street": "R COSTEIRAS",
      "house": "",
      "postcode": "3150-261",
      "city": "EGA",
      "lon": "-8.529669203247435",
      "lat": "40.070616135230374"
    },
    {
      "id": "pt.ine.add.PTCONT.1222134",
      "street": "R PRINCIPAL",
      "house": "",
      "postcode": "3150-261",
      "city": "EGA",
      "lon": "-8.528344287142238",
      "lat": "40.06854026458599"
    },
    {
      "id": "pt.ine.add.PTCONT.1226336",
      "street": "R BARROCA",
      "house": "",
      "postcode": "3150-261",
      "city": "EGA",
      "lon": "-8.528071232124448",
      "lat": "40.06997315838479"
    },
    {
      "id": "pt.ine.add.PTCONT.1237833",
      "street": "R COSTEIRAS",
      "house": "",
      "postcode": "3150-261",
      "city": "EGA",
      "lon": "-8.528578929990356",
      "lat": "40.070601850060605"
    },
    {
      "id": "pt.ine.add.PTCONT.1245703",
      "street": "R FAZENDA",
      "house": "",
      "postcode": "3150-261",
      "city": "EGA",
      "lon": "-8.527520811003255",
      "lat": "40.07006509412711"
    },
    {
      "id": "pt.ine.add.PTCONT.1248562",
      "street": "R CARTAXO",
      "house": "",
      "postcode": "3150-261",
      "city": "EGA",
      "lon": "-8.527916400477542",
      "lat": "40.06955040164196"
    },
    {
      "id": "pt.ine.add.PTCONT.1269362",
      "street": "R BA COSTEIRAS",
      "house": "",
      "postcode": "3150-261",
      "city": "EGA",
      "lon": "-8.528237111401188",
      "lat": "40.07027879852894"
    },
    {
      "id": "pt.ine.add.PTCONT.1298864",
      "street": "R AREAS",
      "house": "",
      "postcode": "3150-261",
      "city": "EGA",
      "lon": "-8.527931450431877",
      "lat": "40.0701267377469"
    },
    {
      "id": "pt.ine.add.PTCONT.1298980",
      "street": "R COSTEIRA",
      "house": "",
      "postcode": "3150-261",
      "city": "EGA",
      "lon": "-8.528579555013703",
      "lat": "40.07070992054685"
    },
    {
      "id": "pt.ine.add.PTCONT.1307815",
      "street": "R PRINCIPAL",
      "house": "",
      "postcode": "3150-261",
      "city": "EGA",
      "lon": "-8.528344807647803",
      "lat": "40.068630323359336"
    },
    {
      "id": "pt.ine.add.PTCONT.1325905",
      "street": "R PRINCIPAL",
      "house": "",
      "postcode": "3150-261",
      "city": "EGA",
      "lon": "-8.528418366860187",
      "lat": "40.0691884477551"
    },
    {
      "id": "pt.ine.add.PTCONT.1328026",
      "street": "R AREAS",
      "house": "",
      "postcode": "3150-261",
      "city": "EGA",
      "lon": "-8.527861585345642",
      "lat": "40.070208030302"
    },
    {
      "id": "pt.ine.add.PTCONT.1332300",
      "street": "R AREIAS",
      "house": "",
      "postcode": "3150-261",
      "city": "EGA",
      "lon": "-8.52774524711684",
      "lat": "40.07036152954988"
    },
    {
      "id": "pt.ine.add.PTCONT.1348503",
      "street": "R BARROCA",
      "house": "",
      "postcode": "3150-261",
      "city": "EGA",
      "lon": "-8.527672419555458",
      "lat": "40.069929487084295"
    }
  ]
}