{
  "data": {
    "distrito": "Leiria",
    "concelho": "Nazaré",
    "freguesia": "Nazaré",
    "OBJECTID": 81,
    "BGRI2021": "10110201711",
    "DT21": "10",
    "DTMN21": "1011",
    "DTMNFR21": "101102",
    "DTMNFRSEC21": "101102017",
    "SECNUM21": "017",
    "SSNUM21": "11",
    "SECSSNUM21": "01711",
    "OBJECTID_1": 93238,
    "DT": "10",
    "CC": "11",
    "fr": "02",
    "SEC": "017",
    "SS": "11"
  },
  "addresses": [
    {
      "id": "pt.ine.add.PTCONT.1998018",
      "street": "R SEM NOME 16",
      "house": "16",
      "postcode": "2450-060",
      "city": "NAZARÉ",
      "lon": "-9.060682334898013",
      "lat": "39.59565405217146"
    },
    {
      "id": "pt.ine.add.PTCONT.2031669",
      "street": "R VIRGOLINO",
      "house": "",
      "postcode": "2450-060",
      "city": "NAZARÉ",
      "lon": "-9.06119510173034",
      "lat": "39.59482134971136"
    },
    {
      "id": "pt.ine.add.PTCONT.2040473",
      "street": "R TODOS SANTAS",
      "house": "3",
      "postcode": "2450-060",
      "city": "NAZARÉ",
      "lon": "-9.061087230013387",
      "lat": "39.59546168028473"
    },
    {
      "id": "pt.ine.add.PTCONT.2040474",
      "street": "R TODOS SANTAS",
      "house": "3",
      "postcode": "2450-060",
      "city": "NAZARÉ",
      "lon": "-9.061087230013387",
      "lat": "39.59546168028473"
    },
    {
      "id": "pt.ine.add.PTCONT.2063820",
      "street": "R NSA SRA DA NAZARE",
      "house": "2",
      "postcode": "2450-060",
      "city": "NAZARÉ",
      "lon": "-9.060656422313725",
      "lat": "39.596329754337134"
    },
    {
      "id": "pt.ine.add.PTCONT.2063821",
      "street": "R NSA SRA DA NAZARE",
      "house": "2",
      "postcode": "2450-060",
      "city": "NAZARÉ",
      "lon": "-9.060656422313725",
      "lat": "39.596329754337134"
    },
    {
      "id": "pt.ine.add.PTCONT.2084376",
      "street": "R VIRGOLINO",
      "house": "14A",
      "postcode": "2450-060",
      "city": "NAZARÉ",
      "lon": "-9.061272257475146",
      "lat": "39.59449649557041"
    },
    {
      "id": "pt.ine.add.PTCONT.2100399",
      "street": "R MONTE SIANO",
      "house": "10",
      "postcode": "2450-060",
      "city": "NAZARÉ",
      "lon": "-9.060772000627468",
      "lat": "39.59713942582705"
    },
    {
      "id": "pt.ine.add.PTCONT.2105190",
      "street": "R VIRGOLINO",
      "house": "",
      "postcode": "2450-060",
      "city": "NAZARÉ",
      "lon": "-9.06107040611191",
      "lat": "39.594200889887496"
    },
    {
      "id": "pt.ine.add.PTCONT.2114991",
      "street": "R MONTE SIANO",
      "house": "3",
      "postcode": "2450-060",
      "city": "NAZARÉ",
      "lon": "-9.060666753040973",
      "lat": "39.597104239706354"
    },
    {
      "id": "pt.ine.add.PTCONT.2143719",
      "street": "TV FONTINHA SUL",
      "house": "4",
      "postcode": "2450-060",
      "city": "NAZARÉ",
      "lon": "-9.060707669967789",
      "lat": "39.59668060272076"
    },
    {
      "id": "pt.ine.add.PTCONT.2143720",
      "street": "TV FONTINHA SUL",
      "house": "4",
      "postcode": "2450-060",
      "city": "NAZARÉ",
      "lon": "-9.060707669967789",
      "lat": "39.59668060272076"
    },
    {
      "id": "pt.ine.add.PTCONT.2143721",
      "street": "TV FONTINHA SUL",
      "house": "4",
      "postcode": "2450-060",
      "city": "NAZARÉ",
      "lon": "-9.060707669967789",
      "lat": "39.59668060272076"
    },
    {
      "id": "pt.ine.add.PTCONT.2143868",
      "street": "TV FONTINHA SUL",
      "house": "4",
      "postcode": "2450-060",
      "city": "NAZARÉ",
      "lon": "-9.060694827970455",
      "lat": "39.59659063921853"
    },
    {
      "id": "pt.ine.add.PTCONT.2167514",
      "street": "R TODOS SANTAS",
      "house": "1",
      "postcode": "2450-060",
      "city": "NAZARÉ",
      "lon": "-9.061066953308702",
      "lat": "39.5956870073421"
    },
    {
      "id": "pt.ine.add.PTCONT.2178127",
      "street": "R VIRGOLINO",
      "house": "14",
      "postcode": "2450-060",
      "city": "NAZARÉ",
      "lon": "-9.061228340262106",
      "lat": "39.59469499172346"
    },
    {
      "id": "pt.ine.add.PTCONT.2178128",
      "street": "R VIRGOLINO",
      "house": "14",
      "postcode": "2450-060",
      "city": "NAZARÉ",
      "lon": "-9.061228340262106",
      "lat": "39.59469499172346"
    },
    {
      "id": "pt.ine.add.PTCONT.2187545",
      "street": "R TODOS SANTAS",
      "house": "5",
      "postcode": "2450-060",
      "city": "NAZARÉ",
      "lon": "-9.06109502491302",
      "lat": "39.595173406674895"
    },
    {
      "id": "pt.ine.add.PTCONT.2196185",
      "street": "R VIRGOLINO",
      "house": "13",
      "postcode": "2450-060",
      "city": "NAZARÉ",
      "lon": "-9.061162103446142",
      "lat": "39.59496571897902"
    }
  ]
}