{
  "data": {
    "distrito": "Aveiro",
    "concelho": "Ovar",
    "freguesia": "Maceda",
    "OBJECTID": 220,
    "BGRI2021": "01150400225",
    "DT21": "01",
    "DTMN21": "0115",
    "DTMNFR21": "011504",
    "DTMNFRSEC21": "011504002",
    "SECNUM21": "002",
    "SSNUM21": "25",
    "SECSSNUM21": "00225",
    "OBJECTID_1": 10113,
    "DT": "01",
    "CC": "15",
    "fr": "04",
    "SEC": "002",
    "SS": "25"
  },
  "addresses": [
    {
      "id": "pt.ine.add.PTCONT.299514",
      "street": "R 25 DE NOVEMBRO",
      "house": "121",
      "postcode": "3885-713",
      "city": "MACEDA",
      "lon": "-8.627828903812459",
      "lat": "40.924406809823246"
    },
    {
      "id": "pt.ine.add.PTCONT.302014",
      "street": "R 25 DE NOVEMBRO",
      "house": "589",
      "postcode": "3885-713",
      "city": "MACEDA",
      "lon": "-8.631232941059608",
      "lat": "40.92713859010234"
    },
    {
      "id": "pt.ine.add.PTCONT.315152",
      "street": "R 25 DE NOVEMBRO",
      "house": "627",
      "postcode": "3885-713",
      "city": "MACEDA",
      "lon": "-8.631506338074121",
      "lat": "40.92718243227231"
    },
    {
      "id": "pt.ine.add.PTCONT.323727",
      "street": "R CARVALHEIRA",
      "house": "",
      "postcode": "3885-808",
      "city": "MACEDA",
      "lon": "-8.631459528095773",
      "lat": "40.92095137816761"
    },
    {
      "id": "pt.ine.add.PTCONT.347701",
      "street": "R 25 DE NOVEMBRO",
      "house": "627",
      "postcode": "3885-713",
      "city": "MACEDA",
      "lon": "-8.631506338074121",
      "lat": "40.92718243227231"
    },
    {
      "id": "pt.ine.add.PTCONT.2103",
      "street": "R CHARNECA",
      "house": "83",
      "postcode": "3885-722",
      "city": "MACEDA",
      "lon": "-8.627837350790633",
      "lat": "40.92394753356049"
    },
    {
      "id": "pt.ine.add.PTCONT.84163",
      "street": "R 25 DE NOVEMBRO",
      "house": "597",
      "postcode": "3885-713",
      "city": "MACEDA",
      "lon": "-8.63131618115343",
      "lat": "40.92715623989674"
    },
    {
      "id": "pt.ine.add.PTCONT.103322",
      "street": "R RAMAL FERREO",
      "house": "390",
      "postcode": "3885-799",
      "city": "MACEDA",
      "lon": "-8.62643833491362",
      "lat": "40.922602820999536"
    },
    {
      "id": "pt.ine.add.PTCONT.105610",
      "street": "R 25 DE NOVEMBRO",
      "house": "9",
      "postcode": "3885-713",
      "city": "MACEDA",
      "lon": "-8.62633006479254",
      "lat": "40.92400801858425"
    },
    {
      "id": "pt.ine.add.PTCONT.122516",
      "street": "R 25 DE NOVEMBRO",
      "house": "573",
      "postcode": "3885-713",
      "city": "MACEDA",
      "lon": "-8.631042784368207",
      "lat": "40.92711239727435"
    },
    {
      "id": "pt.ine.add.PTCONT.133224",
      "street": "R CHARNECA",
      "house": "647",
      "postcode": "3885-722",
      "city": "MACEDA",
      "lon": "-8.632740496516758",
      "lat": "40.92710505385983"
    },
    {
      "id": "pt.ine.add.PTCONT.135899",
      "street": "R 25 DE NOVEMBRO",
      "house": "635",
      "postcode": "3885-713",
      "city": "MACEDA",
      "lon": "-8.631803005844256",
      "lat": "40.92716314025019"
    },
    {
      "id": "pt.ine.add.PTCONT.147199",
      "street": "R 25 DE NOVEMBRO",
      "house": "343",
      "postcode": "3885-713",
      "city": "MACEDA",
      "lon": "-8.629182922733175",
      "lat": "40.92607586790362"
    },
    {
      "id": "pt.ine.add.PTCONT.158525",
      "street": "R 25 DE NOVEMBRO",
      "house": "579",
      "postcode": "3885-713",
      "city": "MACEDA",
      "lon": "-8.63112602437987",
      "lat": "40.927130047206596"
    },
    {
      "id": "pt.ine.add.PTCONT.170261",
      "street": "R 25 DE NOVEMBRO",
      "house": "795",
      "postcode": "3885-713",
      "city": "MACEDA",
      "lon": "-8.633656891203266",
      "lat": "40.927398234742114"
    },
    {
      "id": "pt.ine.add.PTCONT.215891",
      "street": "R CHARNECA",
      "house": "630",
      "postcode": "3885-722",
      "city": "MACEDA",
      "lon": "-8.632774552830188",
      "lat": "40.92689779817179"
    },
    {
      "id": "pt.ine.add.PTCONT.234784",
      "street": "R 25 DE NOVEMBRO",
      "house": "695",
      "postcode": "3885-713",
      "city": "MACEDA",
      "lon": "-8.632433177243826",
      "lat": "40.92728647902993"
    },
    {
      "id": "pt.ine.add.PTCONT.240280",
      "street": "R CHARNECA",
      "house": "621",
      "postcode": "3885-722",
      "city": "MACEDA",
      "lon": "-8.632335963757491",
      "lat": "40.9269897448124"
    },
    {
      "id": "pt.ine.add.PTCONT.267092",
      "street": "R 25 DE NOVEMBRO",
      "house": "247",
      "postcode": "3885-713",
      "city": "MACEDA",
      "lon": "-8.62854833020751",
      "lat": "40.92535821984711"
    }
  ]
}