{
  "data": {
    "distrito": "Castelo Branco",
    "concelho": "Sertã",
    "freguesia": "União das freguesias de Cernache do Bonjardim, Nesperal e Palhais",
    "OBJECTID": 439,
    "BGRI2021": "05091500507",
    "DT21": "05",
    "DTMN21": "0509",
    "DTMNFR21": "050915",
    "DTMNFRSEC21": "050915005",
    "SECNUM21": "005",
    "SSNUM21": "07",
    "SECSSNUM21": "00507",
    "OBJECTID_1": 46056,
    "DT": "05",
    "CC": "09",
    "fr": "15",
    "SEC": "005",
    "SS": "07"
  },
  "addresses": [
    {
      "id": "pt.ine.add.PTCONT.957712",
      "street": "R PINHEIROS",
      "house": "",
      "postcode": "6100-266",
      "city": "CERNACHE DO BONJARDIM",
      "lon": "-8.192901476035688",
      "lat": "39.811222810723336"
    },
    {
      "id": "pt.ine.add.PTCONT.957713",
      "street": "R PINHEIROS",
      "house": "",
      "postcode": "6100-266",
      "city": "CERNACHE DO BONJARDIM",
      "lon": "-8.192901476035688",
      "lat": "39.811222810723336"
    },
    {
      "id": "pt.ine.add.PTCONT.958184",
      "street": "R PINHEIROS",
      "house": "1 DTO",
      "postcode": "6100-266",
      "city": "CERNACHE DO BONJARDIM",
      "lon": "-8.192901476035688",
      "lat": "39.811222810723336"
    },
    {
      "id": "pt.ine.add.PTCONT.999617",
      "street": "R PINHEIROS",
      "house": "9C",
      "postcode": "6100-266",
      "city": "CERNACHE DO BONJARDIM",
      "lon": "-8.192644832212968",
      "lat": "39.8115471763992"
    },
    {
      "id": "pt.ine.add.PTCONT.1011696",
      "street": "R PINHEIROS",
      "house": "",
      "postcode": "6100-266",
      "city": "CERNACHE DO BONJARDIM",
      "lon": "-8.191466700208508",
      "lat": "39.813186956172764"
    },
    {
      "id": "pt.ine.add.PTCONT.1033818",
      "street": "R PINHEIROS",
      "house": "",
      "postcode": "6100-266",
      "city": "CERNACHE DO BONJARDIM",
      "lon": "-8.193216438286552",
      "lat": "39.81081735583213"
    },
    {
      "id": "pt.ine.add.PTCONT.1033819",
      "street": "R PINHEIROS",
      "house": "",
      "postcode": "6100-266",
      "city": "CERNACHE DO BONJARDIM",
      "lon": "-8.193216438286552",
      "lat": "39.81081735583213"
    },
    {
      "id": "pt.ine.add.PTCONT.1033820",
      "street": "R PINHEIROS",
      "house": "",
      "postcode": "6100-266",
      "city": "CERNACHE DO BONJARDIM",
      "lon": "-8.193216438286552",
      "lat": "39.81081735583213"
    },
    {
      "id": "pt.ine.add.PTCONT.1033821",
      "street": "R PINHEIROS",
      "house": "",
      "postcode": "6100-266",
      "city": "CERNACHE DO BONJARDIM",
      "lon": "-8.193216438286552",
      "lat": "39.81081735583213"
    },
    {
      "id": "pt.ine.add.PTCONT.1039460",
      "street": "RAM PÓVOA",
      "house": "",
      "postcode": "6100-257",
      "city": "CERNACHE DO BONJARDIM",
      "lon": "-8.193662140869632",
      "lat": "39.81301470793044"
    },
    {
      "id": "pt.ine.add.PTCONT.1039461",
      "street": "RAM PÓVOA",
      "house": "",
      "postcode": "6100-257",
      "city": "CERNACHE DO BONJARDIM",
      "lon": "-8.193662140869632",
      "lat": "39.81301470793044"
    },
    {
      "id": "pt.ine.add.PTCONT.1049739",
      "street": "R PINHEIROS",
      "house": "",
      "postcode": "6100-266",
      "city": "CERNACHE DO BONJARDIM",
      "lon": "-8.19303028969663",
      "lat": "39.81162803640995"
    },
    {
      "id": "pt.ine.add.PTCONT.1049745",
      "street": "R PINHEIROS",
      "house": "42",
      "postcode": "6100-266",
      "city": "CERNACHE DO BONJARDIM",
      "lon": "-8.193006456046874",
      "lat": "39.81107865270238"
    },
    {
      "id": "pt.ine.add.PTCONT.1049746",
      "street": "R PINHEIROS",
      "house": "9",
      "postcode": "6100-266",
      "city": "CERNACHE DO BONJARDIM",
      "lon": "-8.193006456046874",
      "lat": "39.81107865270238"
    },
    {
      "id": "pt.ine.add.PTCONT.1049747",
      "street": "R PINHEIROS",
      "house": "9",
      "postcode": "6100-266",
      "city": "CERNACHE DO BONJARDIM",
      "lon": "-8.193006456046874",
      "lat": "39.81107865270238"
    },
    {
      "id": "pt.ine.add.PTCONT.1049748",
      "street": "R PINHEIROS",
      "house": "9",
      "postcode": "6100-266",
      "city": "CERNACHE DO BONJARDIM",
      "lon": "-8.193006456046874",
      "lat": "39.81107865270238"
    },
    {
      "id": "pt.ine.add.PTCONT.1053089",
      "street": "R PINHEIROS",
      "house": "9",
      "postcode": "6100-266",
      "city": "CERNACHE DO BONJARDIM",
      "lon": "-8.192796682533508",
      "lat": "39.81158312435393"
    },
    {
      "id": "pt.ine.add.PTCONT.1054236",
      "street": "R PINHEIROS",
      "house": "11",
      "postcode": "6100-266",
      "city": "CERNACHE DO BONJARDIM",
      "lon": "-8.192387961628237",
      "lat": "39.81161035335406"
    },
    {
      "id": "pt.ine.add.PTCONT.1069268",
      "street": "URB BOM JARDIM",
      "house": "2",
      "postcode": "6100-266",
      "city": "CERNACHE DO BONJARDIM",
      "lon": "-8.193099772984164",
      "lat": "39.810952513598714"
    },
    {
      "id": "pt.ine.add.PTCONT.1069269",
      "street": "URB BOM JARDIM",
      "house": "2",
      "postcode": "6100-266",
      "city": "CERNACHE DO BONJARDIM",
      "lon": "-8.193099772984164",
      "lat": "39.810952513598714"
    },
    {
      "id": "pt.ine.add.PTCONT.1069270",
      "street": "URB BOM JARDIM",
      "house": "2",
      "postcode": "6100-266",
      "city": "CERNACHE DO BONJARDIM",
      "lon": "-8.193099772984164",
      "lat": "39.810952513598714"
    },
    {
      "id": "pt.ine.add.PTCONT.1095534",
      "street": "R PINHEIROS",
      "house": "",
      "postcode": "6100-266",
      "city": "CERNACHE DO BONJARDIM",
      "lon": "-8.191548328900241",
      "lat": "39.81304281126056"
    },
    {
      "id": "pt.ine.add.PTCONT.1095776",
      "street": "R PINHEIROS",
      "house": "9C",
      "postcode": "6100-266",
      "city": "CERNACHE DO BONJARDIM",
      "lon": "-8.192901476035688",
      "lat": "39.811222810723336"
    },
    {
      "id": "pt.ine.add.PTCONT.1097043",
      "street": "R PINHEIROS",
      "house": "",
      "postcode": "6100-266",
      "city": "CERNACHE DO BONJARDIM",
      "lon": "-8.192213024624177",
      "lat": "39.811889643827314"
    },
    {
      "id": "pt.ine.add.PTCONT.1098221",
      "street": "R PINHEIROS",
      "house": "",
      "postcode": "6100-266",
      "city": "CERNACHE DO BONJARDIM",
      "lon": "-8.191513353928299",
      "lat": "39.81311488078521"
    }
  ]
}