{
  "data": {
    "distrito": "Vila Real",
    "concelho": "Vila Pouca de Aguiar",
    "freguesia": "Sabroso de Aguiar",
    "OBJECTID": 181,
    "BGRI2021": "17131700118",
    "DT21": "17",
    "DTMN21": "1713",
    "DTMNFR21": "171317",
    "DTMNFRSEC21": "171317001",
    "SECNUM21": "001",
    "SSNUM21": "18",
    "SECSSNUM21": "00118",
    "OBJECTID_1": 187091,
    "DT": "17",
    "CC": "13",
    "fr": "17",
    "SEC": "001",
    "SS": "18"
  },
  "addresses": [
    {
      "id": "pt.ine.add.PTCONT.5288384",
      "street": "EN 2",
      "house": "30",
      "postcode": "5450-376",
      "city": "SABROSO DE AGUIAR",
      "lon": "-7.592235480409668",
      "lat": "41.580388694168995"
    },
    {
      "id": "pt.ine.add.PTCONT.5291529",
      "street": "R DA PENASCOSA",
      "house": "1",
      "postcode": "5450-364",
      "city": "SABROSO DE AGUIAR",
      "lon": "-7.588069899044803",
      "lat": "41.58235883482015"
    },
    {
      "id": "pt.ine.add.PTCONT.5294516",
      "street": "R DA CARRASQUEIRA",
      "house": "10",
      "postcode": "5450-364",
      "city": "SABROSO DE AGUIAR",
      "lon": "-7.590532245002863",
      "lat": "41.58044369486903"
    },
    {
      "id": "pt.ine.add.PTCONT.5294733",
      "street": "R VEIGA",
      "house": "20",
      "postcode": "5450-362",
      "city": "SABROSO DE AGUIAR",
      "lon": "-7.591468936332559",
      "lat": "41.5788454567678"
    },
    {
      "id": "pt.ine.add.PTCONT.5294734",
      "street": "R NELSON PARENTE MARTINS",
      "house": "",
      "postcode": "5450-374",
      "city": "SABROSO DE AGUIAR",
      "lon": "-7.591468936332559",
      "lat": "41.5788454567678"
    },
    {
      "id": "pt.ine.add.PTCONT.5297605",
      "street": "TV DA LUZ",
      "house": "1",
      "postcode": "5450-364",
      "city": "SABROSO DE AGUIAR",
      "lon": "-7.589118178022832",
      "lat": "41.58319213724407"
    },
    {
      "id": "pt.ine.add.PTCONT.5299084",
      "street": "LG LUZ",
      "house": "6",
      "postcode": "5450-364",
      "city": "SABROSO DE AGUIAR",
      "lon": "-7.589634563860018",
      "lat": "41.58310454259675"
    },
    {
      "id": "pt.ine.add.PTCONT.5299672",
      "street": "R DA CARRASQUEIRA",
      "house": "8",
      "postcode": "5450-364",
      "city": "SABROSO DE AGUIAR",
      "lon": "-7.590866860744492",
      "lat": "41.58058032858919"
    },
    {
      "id": "pt.ine.add.PTCONT.5301774",
      "street": "LG DA LUZ",
      "house": "14",
      "postcode": "5450-364",
      "city": "SABROSO DE AGUIAR",
      "lon": "-7.589172241472186",
      "lat": "41.58389467935886"
    },
    {
      "id": "pt.ine.add.PTCONT.5306913",
      "street": "R DA PENASCOSA",
      "house": "3",
      "postcode": "5450-364",
      "city": "SABROSO DE AGUIAR",
      "lon": "-7.5874485516971495",
      "lat": "41.58209478113497"
    },
    {
      "id": "pt.ine.add.PTCONT.5308119",
      "street": "EN 2",
      "house": "36",
      "postcode": "5450-376",
      "city": "SABROSO DE AGUIAR",
      "lon": "-7.591906915037411",
      "lat": "41.58096338330769"
    },
    {
      "id": "pt.ine.add.PTCONT.5308128",
      "street": "LG DA LUZ",
      "house": "10",
      "postcode": "5450-364",
      "city": "SABROSO DE AGUIAR",
      "lon": "-7.589306792435295",
      "lat": "41.58358018736083"
    },
    {
      "id": "pt.ine.add.PTCONT.5318373",
      "street": "R SRA CAMINHOS",
      "house": "14",
      "postcode": "5450-364",
      "city": "SABROSO DE AGUIAR",
      "lon": "-7.589782536230512",
      "lat": "41.5826190436604"
    },
    {
      "id": "pt.ine.add.PTCONT.5319401",
      "street": "EN 2",
      "house": "34",
      "postcode": "5450-376",
      "city": "SABROSO DE AGUIAR",
      "lon": "-7.591968072712108",
      "lat": "41.58081961235798"
    },
    {
      "id": "pt.ine.add.PTCONT.5319402",
      "street": "R DE S JOSÉ",
      "house": "",
      "postcode": "5450-364",
      "city": "SABROSO DE AGUIAR",
      "lon": "-7.590216636620396",
      "lat": "41.582332976702055"
    },
    {
      "id": "pt.ine.add.PTCONT.5320561",
      "street": "EN 2",
      "house": "24",
      "postcode": "5450-376",
      "city": "SABROSO DE AGUIAR",
      "lon": "-7.592708755125631",
      "lat": "41.579715643815"
    },
    {
      "id": "pt.ine.add.PTCONT.5322568",
      "street": "R DA CARRASQUEIRA",
      "house": "4",
      "postcode": "5450-364",
      "city": "SABROSO DE AGUIAR",
      "lon": "-7.591298158166975",
      "lat": "41.58062738021896"
    },
    {
      "id": "pt.ine.add.PTCONT.5323749",
      "street": "TV DA LUZ",
      "house": "5",
      "postcode": "5450-364",
      "city": "SABROSO DE AGUIAR",
      "lon": "-7.588903995662303",
      "lat": "41.582993042887296"
    },
    {
      "id": "pt.ine.add.PTCONT.5329277",
      "street": "EN 2",
      "house": "40",
      "postcode": "5450-376",
      "city": "SABROSO DE AGUIAR",
      "lon": "-7.590238960150486",
      "lat": "41.582531162910335"
    },
    {
      "id": "pt.ine.add.PTCONT.5334357",
      "street": "R DA SENHORA DOS CAMINHOS",
      "house": "4",
      "postcode": "5450-364",
      "city": "SABROSO DE AGUIAR",
      "lon": "-7.591386485971152",
      "lat": "41.58153716761025"
    },
    {
      "id": "pt.ine.add.PTCONT.5345796",
      "street": "EN 2",
      "house": "38",
      "postcode": "5450-376",
      "city": "SABROSO DE AGUIAR",
      "lon": "-7.5910597895066525",
      "lat": "41.581886771160555"
    },
    {
      "id": "pt.ine.add.PTCONT.5351374",
      "street": "LG DA LUZ",
      "house": "4",
      "postcode": "5450-364",
      "city": "SABROSO DE AGUIAR",
      "lon": "-7.589441870728494",
      "lat": "41.5832026719799"
    },
    {
      "id": "pt.ine.add.PTCONT.5353991",
      "street": "R DA CARRASQUEIRA",
      "house": "5",
      "postcode": "5450-364",
      "city": "SABROSO DE AGUIAR",
      "lon": "-7.589964447540339",
      "lat": "41.58094521983115"
    },
    {
      "id": "pt.ine.add.PTCONT.5354683",
      "street": "EN 2",
      "house": "28",
      "postcode": "5450-376",
      "city": "SABROSO DE AGUIAR",
      "lon": "-7.592417596969814",
      "lat": "41.580119440444676"
    },
    {
      "id": "pt.ine.add.PTCONT.5363177",
      "street": "R DE S JOSÉ",
      "house": "5",
      "postcode": "5450-364",
      "city": "SABROSO DE AGUIAR",
      "lon": "-7.587946957373107",
      "lat": "41.58271839883952"
    },
    {
      "id": "pt.ine.add.PTCONT.5364716",
      "street": "EN 2",
      "house": "32 A",
      "postcode": "5450-376",
      "city": "SABROSO DE AGUIAR",
      "lon": "-7.591861882986607",
      "lat": "41.58061202797631"
    },
    {
      "id": "pt.ine.add.PTCONT.5367481",
      "street": "R DA CARRASQUEIRA",
      "house": "3",
      "postcode": "5450-364",
      "city": "SABROSO DE AGUIAR",
      "lon": "-7.590239411128983",
      "lat": "41.58104555885537"
    },
    {
      "id": "pt.ine.add.PTCONT.5368543",
      "street": "R DAS FONTELAS",
      "house": "2",
      "postcode": "5450-374",
      "city": "SABROSO DE AGUIAR",
      "lon": "-7.591858763051582",
      "lat": "41.579549579427365"
    },
    {
      "id": "pt.ine.add.PTCONT.5371764",
      "street": "BC CARRASQUEIRA",
      "house": "4",
      "postcode": "5450-364",
      "city": "SABROSO DE AGUIAR",
      "lon": "-7.591704647117877",
      "lat": "41.58077335384772"
    },
    {
      "id": "pt.ine.add.PTCONT.5383631",
      "street": "R DA SENHORA DOS CAMINHOS",
      "house": "8",
      "postcode": "5450-364",
      "city": "SABROSO DE AGUIAR",
      "lon": "-7.590107433039886",
      "lat": "41.582485523447986"
    },
    {
      "id": "pt.ine.add.PTCONT.5384165",
      "street": "R DA SENHORA DOS CAMINHOS",
      "house": "12",
      "postcode": "5450-364",
      "city": "SABROSO DE AGUIAR",
      "lon": "-7.589744297957892",
      "lat": "41.5828889731224"
    },
    {
      "id": "pt.ine.add.PTCONT.5385720",
      "street": "EN 2",
      "house": "32",
      "postcode": "5450-376",
      "city": "SABROSO DE AGUIAR",
      "lon": "-7.592161130626405",
      "lat": "41.58067646202294"
    },
    {
      "id": "pt.ine.add.PTCONT.5386688",
      "street": "R DAS FONTELAS",
      "house": "5",
      "postcode": "5450-374",
      "city": "SABROSO DE AGUIAR",
      "lon": "-7.591237727903875",
      "lat": "41.579249532865546"
    },
    {
      "id": "pt.ine.add.PTCONT.5386729",
      "street": "TV DA LUZ",
      "house": "3",
      "postcode": "5450-364",
      "city": "SABROSO DE AGUIAR",
      "lon": "-7.588482027819641",
      "lat": "41.583261154972625"
    },
    {
      "id": "pt.ine.add.PTCONT.5389618",
      "street": "TV DA LUZ",
      "house": "4",
      "postcode": "5450-364",
      "city": "SABROSO DE AGUIAR",
      "lon": "-7.589016074944866",
      "lat": "41.582498371365816"
    },
    {
      "id": "pt.ine.add.PTCONT.5393304",
      "street": "R DAS FONTELAS",
      "house": "3",
      "postcode": "5450-374",
      "city": "SABROSO DE AGUIAR",
      "lon": "-7.591523623930403",
      "lat": "41.57947597185273"
    },
    {
      "id": "pt.ine.add.PTCONT.5393305",
      "street": "R DA SENHORA DOS CAMINHOS",
      "house": "6",
      "postcode": "5450-364",
      "city": "SABROSO DE AGUIAR",
      "lon": "-7.590554200620303",
      "lat": "41.582118481969104"
    },
    {
      "id": "pt.ine.add.PTCONT.5396167",
      "street": "R DA CARRASQUEIRA",
      "house": "1",
      "postcode": "5450-364",
      "city": "SABROSO DE AGUIAR",
      "lon": "-7.591150502948443",
      "lat": "41.58107686808847"
    },
    {
      "id": "pt.ine.add.PTCONT.5397441",
      "street": "R DA CARRASQUEIRA",
      "house": "2",
      "postcode": "5450-364",
      "city": "SABROSO DE AGUIAR",
      "lon": "-7.591499371224928",
      "lat": "41.58094345688445"
    },
    {
      "id": "pt.ine.add.PTCONT.5400778",
      "street": "TV DA LUZ",
      "house": "2",
      "postcode": "5450-364",
      "city": "SABROSO DE AGUIAR",
      "lon": "-7.58925265220583",
      "lat": "41.582886648578324"
    },
    {
      "id": "pt.ine.add.PTCONT.5401789",
      "street": "LG DA LUZ",
      "house": "16",
      "postcode": "5450-364",
      "city": "SABROSO DE AGUIAR",
      "lon": "-7.58903867172827",
      "lat": "41.58409212811453"
    },
    {
      "id": "pt.ine.add.PTCONT.5406932",
      "street": "R NELSON PARENTE MARTINS",
      "house": "",
      "postcode": "5450-374",
      "city": "SABROSO DE AGUIAR",
      "lon": "-7.5919365703801285",
      "lat": "41.57884765878027"
    },
    {
      "id": "pt.ine.add.PTCONT.5409551",
      "street": "R DE S JOSÉ",
      "house": "3",
      "postcode": "5450-364",
      "city": "SABROSO DE AGUIAR",
      "lon": "-7.588211599139752",
      "lat": "41.58262061296171"
    },
    {
      "id": "pt.ine.add.PTCONT.5412576",
      "street": "R DAS FONTELAS",
      "house": "1",
      "postcode": "5450-374",
      "city": "SABROSO DE AGUIAR",
      "lon": "-7.591319405226073",
      "lat": "41.57952002810617"
    },
    {
      "id": "pt.ine.add.PTCONT.5413703",
      "street": "EN 2",
      "house": "26",
      "postcode": "5450-376",
      "city": "SABROSO DE AGUIAR",
      "lon": "-7.592563439280364",
      "lat": "41.579886030593464"
    },
    {
      "id": "pt.ine.add.PTCONT.5416926",
      "street": "R DE S JOSÉ",
      "house": "2",
      "postcode": "5450-364",
      "city": "SABROSO DE AGUIAR",
      "lon": "-7.589332682605794",
      "lat": "41.58192363413126"
    },
    {
      "id": "pt.ine.add.PTCONT.5417394",
      "street": "R DA SENHORA DOS CAMINHOS",
      "house": "2",
      "postcode": "5450-364",
      "city": "SABROSO DE AGUIAR",
      "lon": "-7.5917612182940015",
      "lat": "41.581178785611655"
    },
    {
      "id": "pt.ine.add.PTCONT.5419060",
      "street": "R DA CARRASQUEIRA",
      "house": "7",
      "postcode": "5450-364",
      "city": "SABROSO DE AGUIAR",
      "lon": "-7.589902530792662",
      "lat": "41.58117902286774"
    },
    {
      "id": "pt.ine.add.PTCONT.5424603",
      "street": "R DA CARRASQUEIRA",
      "house": "6",
      "postcode": "5450-364",
      "city": "SABROSO DE AGUIAR",
      "lon": "-7.591216178517795",
      "lat": "41.58039289829333"
    }
  ]
}