{
  "data": {
    "distrito": "Viana do Castelo",
    "concelho": "Arcos de Valdevez",
    "freguesia": "União das freguesias de São Jorge e Ermelo",
    "OBJECTID": 684,
    "BGRI2021": "16016100107",
    "DT21": "16",
    "DTMN21": "1601",
    "DTMNFR21": "160161",
    "DTMNFRSEC21": "160161001",
    "SECNUM21": "001",
    "SSNUM21": "07",
    "SECSSNUM21": "00107",
    "OBJECTID_1": 171735,
    "DT": "16",
    "CC": "01",
    "fr": "61",
    "SEC": "001",
    "SS": "07"
  },
  "addresses": [
    {
      "id": "pt.ine.add.PTCONT.5145267",
      "street": "",
      "house": "",
      "postcode": "4970-562",
      "city": "SÃO JORGE AVV",
      "lon": "-8.380866994358168",
      "lat": "41.82233724664451"
    },
    {
      "id": "pt.ine.add.PTCONT.5168011",
      "street": "",
      "house": "",
      "postcode": "4970-563",
      "city": "SÃO JORGE AVV",
      "lon": "-8.380071761874383",
      "lat": "41.8189897174402"
    },
    {
      "id": "pt.ine.add.PTCONT.5175845",
      "street": "",
      "house": "",
      "postcode": "4970-576",
      "city": "SÃO JORGE AVV",
      "lon": "-8.381813076393053",
      "lat": "41.81798658969163"
    },
    {
      "id": "pt.ine.add.PTCONT.5184010",
      "street": "",
      "house": "",
      "postcode": "4970-563",
      "city": "SÃO JORGE AVV",
      "lon": "-8.380590338323124",
      "lat": "41.81925870157698"
    },
    {
      "id": "pt.ine.add.PTCONT.5192761",
      "street": "",
      "house": "",
      "postcode": "4970-562",
      "city": "SÃO JORGE AVV",
      "lon": "-8.379886345300147",
      "lat": "41.820853807092504"
    },
    {
      "id": "pt.ine.add.PTCONT.5219782",
      "street": "",
      "house": "",
      "postcode": "4970-563",
      "city": "SÃO JORGE AVV",
      "lon": "-8.379628442430826",
      "lat": "41.819512863410075"
    },
    {
      "id": "pt.ine.add.PTCONT.5223216",
      "street": "",
      "house": "",
      "postcode": "4970-576",
      "city": "SÃO JORGE AVV",
      "lon": "-8.381584087834892",
      "lat": "41.8179060551624"
    },
    {
      "id": "pt.ine.add.PTCONT.5226749",
      "street": "",
      "house": "",
      "postcode": "4970-576",
      "city": "SÃO JORGE AVV",
      "lon": "-8.381909709221267",
      "lat": "41.81807641385199"
    },
    {
      "id": "pt.ine.add.PTCONT.5230334",
      "street": "",
      "house": "",
      "postcode": "4970-563",
      "city": "SÃO JORGE AVV",
      "lon": "-8.379257607193116",
      "lat": "41.820107879036385"
    },
    {
      "id": "pt.ine.add.PTCONT.5236347",
      "street": "",
      "house": "",
      "postcode": "4970-562",
      "city": "SÃO JORGE AVV",
      "lon": "-8.382785257129225",
      "lat": "41.820388372495884"
    },
    {
      "id": "pt.ine.add.PTCONT.5240505",
      "street": "SIT CAMPOS DE SA",
      "house": "36",
      "postcode": "4970-562",
      "city": "SÃO JORGE AVV",
      "lon": "-8.379570450922373",
      "lat": "41.82322236258786"
    },
    {
      "id": "pt.ine.add.PTCONT.5241180",
      "street": "",
      "house": "",
      "postcode": "4970-563",
      "city": "SÃO JORGE AVV",
      "lon": "-8.380418892950384",
      "lat": "41.81849378686716"
    },
    {
      "id": "pt.ine.add.PTCONT.5241162",
      "street": "SEM DESIGNACAO",
      "house": "5",
      "postcode": "4970-562",
      "city": "SÃO JORGE AVV",
      "lon": "-8.380479959610279",
      "lat": "41.821851900657734"
    },
    {
      "id": "pt.ine.add.PTCONT.5255968",
      "street": "",
      "house": "",
      "postcode": "4970-581",
      "city": "SÃO JORGE AVV",
      "lon": "-8.377507034897421",
      "lat": "41.82186726770928"
    },
    {
      "id": "pt.ine.add.PTCONT.5258383",
      "street": "",
      "house": "",
      "postcode": "4970-576",
      "city": "SÃO JORGE AVV",
      "lon": "-8.382367619111102",
      "lat": "41.81821947461134"
    },
    {
      "id": "pt.ine.add.PTCONT.5258610",
      "street": "",
      "house": "",
      "postcode": "4970-563",
      "city": "SÃO JORGE AVV",
      "lon": "-8.379518808395401",
      "lat": "41.81917097172232"
    }
  ]
}