{
  "data": {
    "distrito": "Porto",
    "concelho": "Paços de Ferreira",
    "freguesia": "Paços de Ferreira",
    "OBJECTID": 831,
    "BGRI2021": "13091800501",
    "DT21": "13",
    "DTMN21": "1309",
    "DTMNFR21": "130918",
    "DTMNFRSEC21": "130918005",
    "SECNUM21": "005",
    "SSNUM21": "01",
    "SECSSNUM21": "00501",
    "OBJECTID_1": 134339,
    "DT": "13",
    "CC": "09",
    "fr": "18",
    "SEC": "005",
    "SS": "01"
  },
  "addresses": [
    {
      "id": "pt.ine.add.PTCONT.3586722",
      "street": "R NOVA DE SISTOS",
      "house": "95",
      "postcode": "4590-178",
      "city": "PAÇOS DE FERREIRA",
      "lon": "-8.383707267635074",
      "lat": "41.2666363606689"
    },
    {
      "id": "pt.ine.add.PTCONT.3586723",
      "street": "R NOVA DE SISTOS",
      "house": "95",
      "postcode": "4590-178",
      "city": "PAÇOS DE FERREIRA",
      "lon": "-8.383707267635074",
      "lat": "41.2666363606689"
    },
    {
      "id": "pt.ine.add.PTCONT.3606283",
      "street": "R ALTO DAS QUINTAS",
      "house": "262",
      "postcode": "4590-534",
      "city": "PAÇOS DE FERREIRA",
      "lon": "-8.38421934910546",
      "lat": "41.2663561145248"
    },
    {
      "id": "pt.ine.add.PTCONT.3606285",
      "street": "R ALTO DAS QUINTAS",
      "house": "262",
      "postcode": "4590-534",
      "city": "PAÇOS DE FERREIRA",
      "lon": "-8.38421934910546",
      "lat": "41.2663561145248"
    },
    {
      "id": "pt.ine.add.PTCONT.3716123",
      "street": "R ALTO DAS QUINTAS",
      "house": "250",
      "postcode": "4590-534",
      "city": "PAÇOS DE FERREIRA",
      "lon": "-8.384087733730379",
      "lat": "41.26626635944271"
    },
    {
      "id": "pt.ine.add.PTCONT.3854807",
      "street": "R ALTO DAS QUINTAS",
      "house": "194",
      "postcode": "4590-534",
      "city": "PAÇOS DE FERREIRA",
      "lon": "-8.383011505888021",
      "lat": "41.265692431224664"
    },
    {
      "id": "pt.ine.add.PTCONT.3884133",
      "street": "R APOLINARIO",
      "house": "43",
      "postcode": "4590-543",
      "city": "PAÇOS DE FERREIRA",
      "lon": "-8.382751093579174",
      "lat": "41.26625125703275"
    },
    {
      "id": "pt.ine.add.PTCONT.3884134",
      "street": "R APOLINARIO",
      "house": "43",
      "postcode": "4590-543",
      "city": "PAÇOS DE FERREIRA",
      "lon": "-8.382751093579174",
      "lat": "41.26625125703275"
    },
    {
      "id": "pt.ine.add.PTCONT.3884135",
      "street": "R APOLINARIO",
      "house": "43",
      "postcode": "4590-543",
      "city": "PAÇOS DE FERREIRA",
      "lon": "-8.382751093579174",
      "lat": "41.26625125703275"
    },
    {
      "id": "pt.ine.add.PTCONT.3884136",
      "street": "R APOLINARIO",
      "house": "43",
      "postcode": "4590-543",
      "city": "PAÇOS DE FERREIRA",
      "lon": "-8.382751093579174",
      "lat": "41.26625125703275"
    },
    {
      "id": "pt.ine.add.PTCONT.3884137",
      "street": "R APOLINARIO",
      "house": "43",
      "postcode": "4590-543",
      "city": "PAÇOS DE FERREIRA",
      "lon": "-8.382751093579174",
      "lat": "41.26625125703275"
    },
    {
      "id": "pt.ine.add.PTCONT.3884138",
      "street": "R APOLINARIO",
      "house": "43",
      "postcode": "4590-543",
      "city": "PAÇOS DE FERREIRA",
      "lon": "-8.382751093579174",
      "lat": "41.26625125703275"
    },
    {
      "id": "pt.ine.add.PTCONT.3924011",
      "street": "R ALTO DAS QUINTAS",
      "house": "228",
      "postcode": "4590-534",
      "city": "PAÇOS DE FERREIRA",
      "lon": "-8.383597420765645",
      "lat": "41.26599730102622"
    },
    {
      "id": "pt.ine.add.PTCONT.3960518",
      "street": "R APOLINARIO",
      "house": "51",
      "postcode": "4590-543",
      "city": "PAÇOS DE FERREIRA",
      "lon": "-8.382692042377126",
      "lat": "41.266413460782594"
    },
    {
      "id": "pt.ine.add.PTCONT.3960519",
      "street": "R APOLINARIO",
      "house": "51",
      "postcode": "4590-543",
      "city": "PAÇOS DE FERREIRA",
      "lon": "-8.382692042377126",
      "lat": "41.266413460782594"
    },
    {
      "id": "pt.ine.add.PTCONT.3960520",
      "street": "R APOLINARIO",
      "house": "51",
      "postcode": "4590-543",
      "city": "PAÇOS DE FERREIRA",
      "lon": "-8.382692042377126",
      "lat": "41.266413460782594"
    },
    {
      "id": "pt.ine.add.PTCONT.3964528",
      "street": "R APOLINARIO",
      "house": "51",
      "postcode": "4590-543",
      "city": "PAÇOS DE FERREIRA",
      "lon": "-8.382692042377126",
      "lat": "41.266413460782594"
    },
    {
      "id": "pt.ine.add.PTCONT.3964774",
      "street": "R APOLINARIO",
      "house": "51",
      "postcode": "4590-543",
      "city": "PAÇOS DE FERREIRA",
      "lon": "-8.382692042377126",
      "lat": "41.266413460782594"
    },
    {
      "id": "pt.ine.add.PTCONT.3981430",
      "street": "R ALTO DAS QUINTAS",
      "house": "222",
      "postcode": "4590-534",
      "city": "PAÇOS DE FERREIRA",
      "lon": "-8.383501779775713",
      "lat": "41.265952488031374"
    },
    {
      "id": "pt.ine.add.PTCONT.4055280",
      "street": "R NOVA DE SISTOS",
      "house": "IOS",
      "postcode": "4590-178",
      "city": "PAÇOS DE FERREIRA",
      "lon": "-8.383814430219457",
      "lat": "41.26657309792288"
    },
    {
      "id": "pt.ine.add.PTCONT.4242226",
      "street": "R APOLINARIO",
      "house": "B7",
      "postcode": "4590-543",
      "city": "PAÇOS DE FERREIRA",
      "lon": "-8.382467151865853",
      "lat": "41.26690017522471"
    },
    {
      "id": "pt.ine.add.PTCONT.4242227",
      "street": "R APOLINARIO",
      "house": "B7",
      "postcode": "4590-543",
      "city": "PAÇOS DE FERREIRA",
      "lon": "-8.382467151865853",
      "lat": "41.26690017522471"
    },
    {
      "id": "pt.ine.add.PTCONT.4242228",
      "street": "R APOLINARIO",
      "house": "B7",
      "postcode": "4590-543",
      "city": "PAÇOS DE FERREIRA",
      "lon": "-8.382467151865853",
      "lat": "41.26690017522471"
    },
    {
      "id": "pt.ine.add.PTCONT.4242232",
      "street": "R APOLINARIO",
      "house": "B7",
      "postcode": "4590-543",
      "city": "PAÇOS DE FERREIRA",
      "lon": "-8.382467151865853",
      "lat": "41.26690017522471"
    },
    {
      "id": "pt.ine.add.PTCONT.4335326",
      "street": "R APOLINARIO",
      "house": "69",
      "postcode": "4590-543",
      "city": "PAÇOS DE FERREIRA",
      "lon": "-8.382573699205532",
      "lat": "41.26667483925576"
    },
    {
      "id": "pt.ine.add.PTCONT.4335327",
      "street": "R APOLINARIO",
      "house": "69",
      "postcode": "4590-543",
      "city": "PAÇOS DE FERREIRA",
      "lon": "-8.382573699205532",
      "lat": "41.26667483925576"
    },
    {
      "id": "pt.ine.add.PTCONT.4335328",
      "street": "R APOLINARIO",
      "house": "69",
      "postcode": "4590-543",
      "city": "PAÇOS DE FERREIRA",
      "lon": "-8.382573699205532",
      "lat": "41.26667483925576"
    },
    {
      "id": "pt.ine.add.PTCONT.4335329",
      "street": "R APOLINARIO",
      "house": "69",
      "postcode": "4590-543",
      "city": "PAÇOS DE FERREIRA",
      "lon": "-8.382573699205532",
      "lat": "41.26667483925576"
    },
    {
      "id": "pt.ine.add.PTCONT.4335330",
      "street": "R APOLINARIO",
      "house": "69",
      "postcode": "4590-543",
      "city": "PAÇOS DE FERREIRA",
      "lon": "-8.382573699205532",
      "lat": "41.26667483925576"
    },
    {
      "id": "pt.ine.add.PTCONT.4338342",
      "street": "R APOLINARIO",
      "house": "69",
      "postcode": "4590-543",
      "city": "PAÇOS DE FERREIRA",
      "lon": "-8.382573699205532",
      "lat": "41.26667483925576"
    },
    {
      "id": "pt.ine.add.PTCONT.4374583",
      "street": "R APOLINARIO",
      "house": "51",
      "postcode": "4590-543",
      "city": "PAÇOS DE FERREIRA",
      "lon": "-8.382692042377126",
      "lat": "41.266413460782594"
    }
  ]
}