{
  "data": {
    "distrito": "Porto",
    "concelho": "Matosinhos",
    "freguesia": "União das freguesias de Custóias, Leça do Balio e Guifões",
    "OBJECTID": 1023,
    "BGRI2021": "13081101311",
    "DT21": "13",
    "DTMN21": "1308",
    "DTMNFR21": "130811",
    "DTMNFRSEC21": "130811013",
    "SECNUM21": "013",
    "SSNUM21": "11",
    "SECSSNUM21": "01311",
    "OBJECTID_1": 132826,
    "DT": "13",
    "CC": "08",
    "fr": "11",
    "SEC": "013",
    "SS": "11"
  },
  "addresses": [
    {
      "id": "pt.ine.add.PTCONT.3583896",
      "street": "AV DR EZEQUIEL",
      "house": "",
      "postcode": "4465-641",
      "city": "LEÇA DO BALIO",
      "lon": "-8.629607160290213",
      "lat": "41.21035454055009"
    },
    {
      "id": "pt.ine.add.PTCONT.3638129",
      "street": "R GONDIVAI",
      "house": "G2",
      "postcode": "4465-647",
      "city": "LEÇA DO BALIO",
      "lon": "-8.633093584322673",
      "lat": "41.20784527580639"
    },
    {
      "id": "pt.ine.add.PTCONT.3709230",
      "street": "R GONDIVAI",
      "house": "58",
      "postcode": "4465-647",
      "city": "LEÇA DO BALIO",
      "lon": "-8.633105027216535",
      "lat": "41.20778219627697"
    },
    {
      "id": "pt.ine.add.PTCONT.3726233",
      "street": "AV ENG EZEQUIEL DE CAMPOS",
      "house": "167",
      "postcode": "4465-626",
      "city": "LEÇA DO BALIO",
      "lon": "-8.630211285561778",
      "lat": "41.208253941240564"
    },
    {
      "id": "pt.ine.add.PTCONT.3876606",
      "street": "R GONDIVAI",
      "house": "92",
      "postcode": "4465-647",
      "city": "LEÇA DO BALIO",
      "lon": "-8.633048223763831",
      "lat": "41.20815161770297"
    },
    {
      "id": "pt.ine.add.PTCONT.3876607",
      "street": "R GONDIVAI",
      "house": "92",
      "postcode": "4465-647",
      "city": "LEÇA DO BALIO",
      "lon": "-8.633048223763831",
      "lat": "41.20815161770297"
    },
    {
      "id": "pt.ine.add.PTCONT.3876608",
      "street": "R GONDIVAI",
      "house": "92",
      "postcode": "4465-647",
      "city": "LEÇA DO BALIO",
      "lon": "-8.633048223763831",
      "lat": "41.20815161770297"
    },
    {
      "id": "pt.ine.add.PTCONT.3876609",
      "street": "R GONDIVAI",
      "house": "92",
      "postcode": "4465-647",
      "city": "LEÇA DO BALIO",
      "lon": "-8.633048223763831",
      "lat": "41.20815161770297"
    },
    {
      "id": "pt.ine.add.PTCONT.3876610",
      "street": "R GONDIVAI",
      "house": "92",
      "postcode": "4465-647",
      "city": "LEÇA DO BALIO",
      "lon": "-8.633048223763831",
      "lat": "41.20815161770297"
    },
    {
      "id": "pt.ine.add.PTCONT.3876611",
      "street": "R GONDIVAI",
      "house": "92",
      "postcode": "4465-647",
      "city": "LEÇA DO BALIO",
      "lon": "-8.633048223763831",
      "lat": "41.20815161770297"
    },
    {
      "id": "pt.ine.add.PTCONT.3900333",
      "street": "R DR SILVA SANTOS",
      "house": "43",
      "postcode": "4465-685",
      "city": "LEÇA DO BALIO",
      "lon": "-8.632973740449005",
      "lat": "41.20776475768579"
    },
    {
      "id": "pt.ine.add.PTCONT.4056428",
      "street": "R GONDIVAI",
      "house": "68",
      "postcode": "4465-647",
      "city": "LEÇA DO BALIO",
      "lon": "-8.633082484120663",
      "lat": "41.207953375165324"
    },
    {
      "id": "pt.ine.add.PTCONT.4111341",
      "street": "R DR SILVA SANTOS",
      "house": "103",
      "postcode": "4465-685",
      "city": "LEÇA DO BALIO",
      "lon": "-8.63182793062869",
      "lat": "41.2076076487167"
    },
    {
      "id": "pt.ine.add.PTCONT.4148573",
      "street": "R DR SILVA SANTOS",
      "house": "63",
      "postcode": "4465-685",
      "city": "LEÇA DO BALIO",
      "lon": "-8.632294762518198",
      "lat": "41.20784874122662"
    },
    {
      "id": "pt.ine.add.PTCONT.4150230",
      "street": "R DR SILVA SANTOS",
      "house": "93",
      "postcode": "4465-685",
      "city": "LEÇA DO BALIO",
      "lon": "-8.63192385906554",
      "lat": "41.20767926736138"
    },
    {
      "id": "pt.ine.add.PTCONT.4163417",
      "street": "R GONDIVAI",
      "house": "52",
      "postcode": "4465-647",
      "city": "LEÇA DO BALIO",
      "lon": "-8.633045208099656",
      "lat": "41.207755443187686"
    },
    {
      "id": "pt.ine.add.PTCONT.4240092",
      "street": "R GONDIVAI",
      "house": "68",
      "postcode": "4465-647",
      "city": "LEÇA DO BALIO",
      "lon": "-8.63309406413134",
      "lat": "41.20790830357058"
    },
    {
      "id": "pt.ine.add.PTCONT.4240093",
      "street": "R GONDIVAI",
      "house": "68",
      "postcode": "4465-647",
      "city": "LEÇA DO BALIO",
      "lon": "-8.63309406413134",
      "lat": "41.20790830357058"
    },
    {
      "id": "pt.ine.add.PTCONT.4279911",
      "street": "R DR SILVA SANTOS",
      "house": "63",
      "postcode": "4465-685",
      "city": "LEÇA DO BALIO",
      "lon": "-8.632259678671812",
      "lat": "41.20793893593939"
    },
    {
      "id": "pt.ine.add.PTCONT.4389207",
      "street": "R DR SILVA SANTOS",
      "house": "91",
      "postcode": "4465-685",
      "city": "LEÇA DO BALIO",
      "lon": "-8.632281950179197",
      "lat": "41.20773174132904"
    }
  ]
}