{
  "data": {
    "distrito": "Vila Real",
    "concelho": "Chaves",
    "freguesia": "Águas Frias",
    "OBJECTID": 196,
    "BGRI2021": "17030100134",
    "DT21": "17",
    "DTMN21": "1703",
    "DTMNFR21": "170301",
    "DTMNFRSEC21": "170301001",
    "SECNUM21": "001",
    "SSNUM21": "34",
    "SECSSNUM21": "00134",
    "OBJECTID_1": 182218,
    "DT": "17",
    "CC": "03",
    "fr": "01",
    "SEC": "001",
    "SS": "34"
  },
  "addresses": [
    {
      "id": "pt.ine.add.PTCONT.5297065",
      "street": "TV DO CARRIL",
      "house": "",
      "postcode": "5400-601",
      "city": "ÁGUAS FRIAS",
      "lon": "-7.352877910421644",
      "lat": "41.76818565324526"
    },
    {
      "id": "pt.ine.add.PTCONT.5323039",
      "street": "TV ALICE DE CHAVES",
      "house": "4",
      "postcode": "5400-601",
      "city": "ÁGUAS FRIAS",
      "lon": "-7.352668243965608",
      "lat": "41.76861638916428"
    },
    {
      "id": "pt.ine.add.PTCONT.5325147",
      "street": "TV ALICE DE CHAVES",
      "house": "1",
      "postcode": "5400-601",
      "city": "ÁGUAS FRIAS",
      "lon": "-7.35230672058492",
      "lat": "41.76867695604986"
    },
    {
      "id": "pt.ine.add.PTCONT.5329778",
      "street": "R DA LAMPAÇA",
      "house": "",
      "postcode": "5400-601",
      "city": "ÁGUAS FRIAS",
      "lon": "-7.352510605293995",
      "lat": "41.768723358194016"
    },
    {
      "id": "pt.ine.add.PTCONT.5343212",
      "street": "R CENTRAL",
      "house": "",
      "postcode": "5400-601",
      "city": "ÁGUAS FRIAS",
      "lon": "-7.352245174692857",
      "lat": "41.76879358108012"
    },
    {
      "id": "pt.ine.add.PTCONT.5345194",
      "street": "R CENTRAL",
      "house": "2",
      "postcode": "5400-601",
      "city": "ÁGUAS FRIAS",
      "lon": "-7.35272354641315",
      "lat": "41.768022544793524"
    },
    {
      "id": "pt.ine.add.PTCONT.5366441",
      "street": "R DA LAMPAÇA",
      "house": "",
      "postcode": "5400-601",
      "city": "ÁGUAS FRIAS",
      "lon": "-7.352279503944857",
      "lat": "41.76893786773141"
    },
    {
      "id": "pt.ine.add.PTCONT.5367515",
      "street": "R CENTRAL",
      "house": "13",
      "postcode": "5400-601",
      "city": "ÁGUAS FRIAS",
      "lon": "-7.352220141384067",
      "lat": "41.7688744409268"
    },
    {
      "id": "pt.ine.add.PTCONT.5391789",
      "street": "R DA LAMPAÇA",
      "house": "15",
      "postcode": "5400-601",
      "city": "ÁGUAS FRIAS",
      "lon": "-7.352630422072861",
      "lat": "41.768760185560964"
    },
    {
      "id": "pt.ine.add.PTCONT.5392677",
      "street": "LG D MARIA CARMO DELGADO",
      "house": "8",
      "postcode": "5400-601",
      "city": "ÁGUAS FRIAS",
      "lon": "-7.352368157091837",
      "lat": "41.76856933357394"
    },
    {
      "id": "pt.ine.add.PTCONT.5393819",
      "street": "R DA LAMPAÇA",
      "house": "",
      "postcode": "5400-601",
      "city": "ÁGUAS FRIAS",
      "lon": "-7.3524429284511825",
      "lat": "41.76835376167134"
    },
    {
      "id": "pt.ine.add.PTCONT.5395894",
      "street": "R DA LAMPAÇA",
      "house": "",
      "postcode": "5400-601",
      "city": "ÁGUAS FRIAS",
      "lon": "-7.352377016792361",
      "lat": "41.768830490444294"
    },
    {
      "id": "pt.ine.add.PTCONT.5397909",
      "street": "TV ALICE CHAVES",
      "house": "4",
      "postcode": "5400-601",
      "city": "ÁGUAS FRIAS",
      "lon": "-7.352499671382955",
      "lat": "41.768633250570396"
    },
    {
      "id": "pt.ine.add.PTCONT.5408605",
      "street": "R DO CARRIL",
      "house": "5",
      "postcode": "5400-601",
      "city": "ÁGUAS FRIAS",
      "lon": "-7.352924266045819",
      "lat": "41.768330021395"
    },
    {
      "id": "pt.ine.add.PTCONT.5413141",
      "street": "R DO CARRIL",
      "house": "",
      "postcode": "5400-601",
      "city": "ÁGUAS FRIAS",
      "lon": "-7.352718090965479",
      "lat": "41.76847267443489"
    },
    {
      "id": "pt.ine.add.PTCONT.5415608",
      "street": "R CENTRAL",
      "house": "19",
      "postcode": "5400-601",
      "city": "ÁGUAS FRIAS",
      "lon": "-7.353137855597536",
      "lat": "41.76757519156207"
    },
    {
      "id": "pt.ine.add.PTCONT.5419127",
      "street": "TV ALICE DE CHAVES",
      "house": "2",
      "postcode": "5400-601",
      "city": "ÁGUAS FRIAS",
      "lon": "-7.3523670654944615",
      "lat": "41.768659359488865"
    },
    {
      "id": "pt.ine.add.PTCONT.5420690",
      "street": "R CENTRAL",
      "house": "5",
      "postcode": "5400-601",
      "city": "ÁGUAS FRIAS",
      "lon": "-7.352540876665054",
      "lat": "41.768210373854885"
    },
    {
      "id": "pt.ine.add.PTCONT.5424253",
      "street": "R CENTRAL",
      "house": "",
      "postcode": "5400-601",
      "city": "ÁGUAS FRIAS",
      "lon": "-7.3524795499400355",
      "lat": "41.768308993843014"
    },
    {
      "id": "pt.ine.add.PTCONT.5425509",
      "street": "LG D MARIA CLARA DELGADO",
      "house": "",
      "postcode": "5400-601",
      "city": "ÁGUAS FRIAS",
      "lon": "-7.352417349808793",
      "lat": "41.76847963453012"
    }
  ]
}