{
  "data": {
    "distrito": "Lisboa",
    "concelho": "Sintra",
    "freguesia": "União das freguesias do Cacém e São Marcos",
    "OBJECTID": 1033,
    "BGRI2021": "11112401203",
    "DT21": "11",
    "DTMN21": "1111",
    "DTMNFR21": "111124",
    "DTMNFRSEC21": "111124012",
    "SECNUM21": "012",
    "SSNUM21": "03",
    "SECSSNUM21": "01203",
    "OBJECTID_1": 111483,
    "DT": "11",
    "CC": "11",
    "fr": "24",
    "SEC": "012",
    "SS": "03"
  },
  "addresses": [
    {
      "id": "pt.ine.add.PTCONT.2469388",
      "street": "R SOCIEDADE RECREATIVA",
      "house": "1",
      "postcode": "2735-530",
      "city": "AGUALVA-CACÉM",
      "lon": "-9.298198536294478",
      "lat": "38.751629977311254"
    },
    {
      "id": "pt.ine.add.PTCONT.2474255",
      "street": "ESTR S MARCOS",
      "house": "56",
      "postcode": "2735-521",
      "city": "AGUALVA-CACÉM",
      "lon": "-9.298716242598145",
      "lat": "38.751633823127406"
    },
    {
      "id": "pt.ine.add.PTCONT.2545847",
      "street": "ESTR S MARCOS",
      "house": "54",
      "postcode": "2735-521",
      "city": "AGUALVA-CACÉM",
      "lon": "-9.298842757217715",
      "lat": "38.751632561334716"
    },
    {
      "id": "pt.ine.add.PTCONT.2584023",
      "street": "ESTR S MARCOS",
      "house": "2",
      "postcode": "2735-521",
      "city": "AGUALVA-CACÉM",
      "lon": "-9.298485630197478",
      "lat": "38.75160009186925"
    },
    {
      "id": "pt.ine.add.PTCONT.2723836",
      "street": "CAM MONTENEGRO",
      "house": "",
      "postcode": "2735-514",
      "city": "AGUALVA-CACÉM",
      "lon": "-9.296888261640813",
      "lat": "38.75169707784725"
    },
    {
      "id": "pt.ine.add.PTCONT.2840197",
      "street": "CAM MONTENEGRO",
      "house": "5",
      "postcode": "2735-514",
      "city": "AGUALVA-CACÉM",
      "lon": "-9.298083522982061",
      "lat": "38.75163112376726"
    },
    {
      "id": "pt.ine.add.PTCONT.3110152",
      "street": "CAM MONTENEGRO",
      "house": "15",
      "postcode": "2735-514",
      "city": "AGUALVA-CACÉM",
      "lon": "-9.299084431630904",
      "lat": "38.75163915834466"
    },
    {
      "id": "pt.ine.add.PTCONT.3110153",
      "street": "CAM MONTENEGRO",
      "house": "15",
      "postcode": "2735-514",
      "city": "AGUALVA-CACÉM",
      "lon": "-9.299084431630904",
      "lat": "38.75163915834466"
    },
    {
      "id": "pt.ine.add.PTCONT.3261224",
      "street": "ESTR S MARCOS",
      "house": "62",
      "postcode": "2735-521",
      "city": "AGUALVA-CACÉM",
      "lon": "-9.298223295960957",
      "lat": "38.75173782324337"
    },
    {
      "id": "pt.ine.add.PTCONT.3307255",
      "street": "LG CABINE",
      "house": "6",
      "postcode": "2735-508",
      "city": "AGUALVA-CACÉM",
      "lon": "-9.297741995568428",
      "lat": "38.75185071296517"
    },
    {
      "id": "pt.ine.add.PTCONT.3327796",
      "street": "ESTR S MARCOS",
      "house": "70",
      "postcode": "2735-521",
      "city": "AGUALVA-CACÉM",
      "lon": "-9.297889171336275",
      "lat": "38.7517051226495"
    },
    {
      "id": "pt.ine.add.PTCONT.3402202",
      "street": "TV CABECEIROS PATEO GAIOLAS",
      "house": "1",
      "postcode": "2735-594",
      "city": "AGUALVA-CACÉM",
      "lon": "-9.298349957219678",
      "lat": "38.751745568250605"
    },
    {
      "id": "pt.ine.add.PTCONT.3402203",
      "street": "TV CABECEIROS PATEO GAIOLAS",
      "house": "1",
      "postcode": "2735-594",
      "city": "AGUALVA-CACÉM",
      "lon": "-9.298349957219678",
      "lat": "38.751745568250605"
    },
    {
      "id": "pt.ine.add.PTCONT.3443016",
      "street": "ESTR S MARCOS",
      "house": "62",
      "postcode": "2735-521",
      "city": "AGUALVA-CACÉM",
      "lon": "-9.298223295960957",
      "lat": "38.75173782324337"
    }
  ]
}