{
  "data": {
    "distrito": "Beja",
    "concelho": "Ferreira do Alentejo",
    "freguesia": "União das freguesias de Ferreira do Alentejo e Canhestros",
    "OBJECTID": 384,
    "BGRI2021": "02080800327",
    "DT21": "02",
    "DTMN21": "0208",
    "DTMNFR21": "020808",
    "DTMNFRSEC21": "020808003",
    "SECNUM21": "003",
    "SSNUM21": "27",
    "SECSSNUM21": "00327",
    "OBJECTID_1": 15144,
    "DT": "02",
    "CC": "08",
    "fr": "08",
    "SEC": "003",
    "SS": "27"
  },
  "addresses": [
    {
      "id": "pt.ine.add.PTCONT.457205",
      "street": "LG D LUIS MALDONADO VIVIAO PASSANHA",
      "house": "",
      "postcode": "7900-567",
      "city": "FERREIRA DO ALENTEJO",
      "lon": "-8.113077051698832",
      "lat": "38.05842560421042"
    },
    {
      "id": "pt.ine.add.PTCONT.363076",
      "street": "LG D LUIS MALDONADO VIVIÃO PASSANHA",
      "house": "19",
      "postcode": "7900-567",
      "city": "FERREIRA DO ALENTEJO",
      "lon": "-8.112336421009442",
      "lat": "38.05841646646245"
    },
    {
      "id": "pt.ine.add.PTCONT.363077",
      "street": "LG D LUIS MALDONADO VIVIÃO PASSANHA",
      "house": "19",
      "postcode": "7900-567",
      "city": "FERREIRA DO ALENTEJO",
      "lon": "-8.112336421009442",
      "lat": "38.05841646646245"
    },
    {
      "id": "pt.ine.add.PTCONT.363078",
      "street": "LG D LUIS MALDONADO VIVIÃO PASSANHA",
      "house": "19",
      "postcode": "7900-567",
      "city": "FERREIRA DO ALENTEJO",
      "lon": "-8.112336421009442",
      "lat": "38.05841646646245"
    },
    {
      "id": "pt.ine.add.PTCONT.363079",
      "street": "LG D LUIS MALDONADO VIVIÃO PASSANHA",
      "house": "19",
      "postcode": "7900-567",
      "city": "FERREIRA DO ALENTEJO",
      "lon": "-8.112336421009442",
      "lat": "38.05841646646245"
    },
    {
      "id": "pt.ine.add.PTCONT.363080",
      "street": "LG D LUIS MALDONADO VIVIÃO PASSANHA",
      "house": "19",
      "postcode": "7900-567",
      "city": "FERREIRA DO ALENTEJO",
      "lon": "-8.112336421009442",
      "lat": "38.05841646646245"
    },
    {
      "id": "pt.ine.add.PTCONT.363473",
      "street": "LG D LUIS MALDONADO VIVIÃO PASSANHA",
      "house": "19",
      "postcode": "7900-567",
      "city": "FERREIRA DO ALENTEJO",
      "lon": "-8.112336421009442",
      "lat": "38.05841646646245"
    },
    {
      "id": "pt.ine.add.PTCONT.367010",
      "street": "LG D LUIS MALDONADO VIVIAO PASSANHA",
      "house": "19 BL 1",
      "postcode": "7900-567",
      "city": "FERREIRA DO ALENTEJO",
      "lon": "-8.112507230274264",
      "lat": "38.058794883123966"
    },
    {
      "id": "pt.ine.add.PTCONT.367011",
      "street": "LG D LUIS MALDONADO VIVIAO PASSANHA",
      "house": "19 BL 1",
      "postcode": "7900-567",
      "city": "FERREIRA DO ALENTEJO",
      "lon": "-8.112507230274264",
      "lat": "38.058794883123966"
    },
    {
      "id": "pt.ine.add.PTCONT.367012",
      "street": "LG D LUIS MALDONADO VIVIAO PASSANHA",
      "house": "19",
      "postcode": "7900-567",
      "city": "FERREIRA DO ALENTEJO",
      "lon": "-8.112507230274264",
      "lat": "38.058794883123966"
    },
    {
      "id": "pt.ine.add.PTCONT.367525",
      "street": "LG D LUIS MALDONADO VIVIAO PASSANHA",
      "house": "19",
      "postcode": "7900-567",
      "city": "FERREIRA DO ALENTEJO",
      "lon": "-8.112507230274264",
      "lat": "38.058794883123966"
    },
    {
      "id": "pt.ine.add.PTCONT.370211",
      "street": "LG D LUIS MALDONADO VIVIÃO PASSANHA",
      "house": "19",
      "postcode": "7900-567",
      "city": "FERREIRA DO ALENTEJO",
      "lon": "-8.112267957785084",
      "lat": "38.058758804128196"
    },
    {
      "id": "pt.ine.add.PTCONT.370261",
      "street": "LG D LUIS MALDONADO VIVIÃO PASSANHA",
      "house": "19",
      "postcode": "7900-567",
      "city": "FERREIRA DO ALENTEJO",
      "lon": "-8.112267957785084",
      "lat": "38.058758804128196"
    },
    {
      "id": "pt.ine.add.PTCONT.370262",
      "street": "LG D LUIS MALDONADO VIVIÃO PASSANHA",
      "house": "19",
      "postcode": "7900-567",
      "city": "FERREIRA DO ALENTEJO",
      "lon": "-8.112267957785084",
      "lat": "38.058758804128196"
    },
    {
      "id": "pt.ine.add.PTCONT.370263",
      "street": "LG D LUIS MALDONADO VIVIÃO PASSANHA",
      "house": "19",
      "postcode": "7900-567",
      "city": "FERREIRA DO ALENTEJO",
      "lon": "-8.112267957785084",
      "lat": "38.058758804128196"
    },
    {
      "id": "pt.ine.add.PTCONT.370264",
      "street": "LG D LUIS MALDONADO VIVIÃO PASSANHA",
      "house": "19",
      "postcode": "7900-567",
      "city": "FERREIRA DO ALENTEJO",
      "lon": "-8.112267957785084",
      "lat": "38.058758804128196"
    },
    {
      "id": "pt.ine.add.PTCONT.370744",
      "street": "LG D LUIS MALDONADO VIVIÃO PASSANHA",
      "house": "19",
      "postcode": "7900-567",
      "city": "FERREIRA DO ALENTEJO",
      "lon": "-8.112267957785084",
      "lat": "38.058758804128196"
    },
    {
      "id": "pt.ine.add.PTCONT.371180",
      "street": "R ANTERO QUENTAL",
      "house": "10",
      "postcode": "7900-579",
      "city": "FERREIRA DO ALENTEJO",
      "lon": "-8.112734639700902",
      "lat": "38.05812610189996"
    },
    {
      "id": "pt.ine.add.PTCONT.385815",
      "street": "R ANTERO DE QUENTAL",
      "house": "10",
      "postcode": "7900-579",
      "city": "FERREIRA DO ALENTEJO",
      "lon": "-8.113043011301023",
      "lat": "38.05790306448589"
    },
    {
      "id": "pt.ine.add.PTCONT.401788",
      "street": "R MANUEL MARIA BARBOSA DE BOCAGE",
      "house": "",
      "postcode": "7900-579",
      "city": "FERREIRA DO ALENTEJO",
      "lon": "-8.112963318045914",
      "lat": "38.05765980229117"
    },
    {
      "id": "pt.ine.add.PTCONT.401789",
      "street": "R MANUEL MARIA BARBOSA DE BOCAGE",
      "house": "",
      "postcode": "7900-579",
      "city": "FERREIRA DO ALENTEJO",
      "lon": "-8.112963318045914",
      "lat": "38.05765980229117"
    },
    {
      "id": "pt.ine.add.PTCONT.401790",
      "street": "R MANUEL MARIA BARBOSA DE BOCAGE",
      "house": "",
      "postcode": "7900-579",
      "city": "FERREIRA DO ALENTEJO",
      "lon": "-8.112963318045914",
      "lat": "38.05765980229117"
    },
    {
      "id": "pt.ine.add.PTCONT.408301",
      "street": "R ANTERO DE QUENTAL",
      "house": "10",
      "postcode": "7900-579",
      "city": "FERREIRA DO ALENTEJO",
      "lon": "-8.113327926412229",
      "lat": "38.05768689182918"
    },
    {
      "id": "pt.ine.add.PTCONT.417971",
      "street": "LG D LUIS MALDONADO VIVIÃO PASSANHA SOLAR TRÊS IRMÃOS",
      "house": "",
      "postcode": "7900-567",
      "city": "FERREIRA DO ALENTEJO",
      "lon": "-8.112626240945936",
      "lat": "38.058588461599506"
    },
    {
      "id": "pt.ine.add.PTCONT.417972",
      "street": "LG D LUIS MALDONADO VIVIÃO PASSANHA SOLAR TRÊS IRMÃOS",
      "house": "",
      "postcode": "7900-567",
      "city": "FERREIRA DO ALENTEJO",
      "lon": "-8.112626240945936",
      "lat": "38.058588461599506"
    },
    {
      "id": "pt.ine.add.PTCONT.427586",
      "street": "LG D LUIS MALDONADO VIVIAO PASSANHA",
      "house": "19",
      "postcode": "7900-567",
      "city": "FERREIRA DO ALENTEJO",
      "lon": "-8.112313591507752",
      "lat": "38.05856060970584"
    },
    {
      "id": "pt.ine.add.PTCONT.427587",
      "street": "LG D LUIS MALDONADO VIVIAO PASSANHA",
      "house": "19",
      "postcode": "7900-567",
      "city": "FERREIRA DO ALENTEJO",
      "lon": "-8.112313591507752",
      "lat": "38.05856060970584"
    },
    {
      "id": "pt.ine.add.PTCONT.427588",
      "street": "LG D LUIS MALDONADO VIVIAO PASSANHA",
      "house": "19",
      "postcode": "7900-567",
      "city": "FERREIRA DO ALENTEJO",
      "lon": "-8.112313591507752",
      "lat": "38.05856060970584"
    },
    {
      "id": "pt.ine.add.PTCONT.427589",
      "street": "LG D LUIS MALDONADO VIVIAO PASSANHA",
      "house": "19",
      "postcode": "7900-567",
      "city": "FERREIRA DO ALENTEJO",
      "lon": "-8.112313591507752",
      "lat": "38.05856060970584"
    },
    {
      "id": "pt.ine.add.PTCONT.427590",
      "street": "LG D LUIS MALDONADO VIVIAO PASSANHA",
      "house": "19",
      "postcode": "7900-567",
      "city": "FERREIRA DO ALENTEJO",
      "lon": "-8.112313591507752",
      "lat": "38.05856060970584"
    },
    {
      "id": "pt.ine.add.PTCONT.427591",
      "street": "LG D LUIS MALDONADO VIVIAO PASSANHA",
      "house": "19 B4",
      "postcode": "7900-567",
      "city": "FERREIRA DO ALENTEJO",
      "lon": "-8.112313591507752",
      "lat": "38.05856060970584"
    },
    {
      "id": "pt.ine.add.PTCONT.430814",
      "street": "R PROF DR LUIS SÁ",
      "house": "",
      "postcode": "7900-579",
      "city": "FERREIRA DO ALENTEJO",
      "lon": "-8.112450526652637",
      "lat": "38.05783989741569"
    },
    {
      "id": "pt.ine.add.PTCONT.430815",
      "street": "R PROF DR LUIS SÁ",
      "house": "",
      "postcode": "7900-579",
      "city": "FERREIRA DO ALENTEJO",
      "lon": "-8.112450526652637",
      "lat": "38.05783989741569"
    },
    {
      "id": "pt.ine.add.PTCONT.430816",
      "street": "R PROF DR LUIS SÁ",
      "house": "",
      "postcode": "7900-579",
      "city": "FERREIRA DO ALENTEJO",
      "lon": "-8.112450526652637",
      "lat": "38.05783989741569"
    },
    {
      "id": "pt.ine.add.PTCONT.430817",
      "street": "R PROF DR LUIS SÁ",
      "house": "",
      "postcode": "7900-579",
      "city": "FERREIRA DO ALENTEJO",
      "lon": "-8.112450526652637",
      "lat": "38.05783989741569"
    },
    {
      "id": "pt.ine.add.PTCONT.431185",
      "street": "R PROF DR LUIS SÁ",
      "house": "",
      "postcode": "7900-579",
      "city": "FERREIRA DO ALENTEJO",
      "lon": "-8.112450526652637",
      "lat": "38.05783989741569"
    },
    {
      "id": "pt.ine.add.PTCONT.437561",
      "street": "LG D LUIS MALDONADO VIVIAO PASSANHA",
      "house": "",
      "postcode": "7900-567",
      "city": "FERREIRA DO ALENTEJO",
      "lon": "-8.113077051698832",
      "lat": "38.05842560421042"
    },
    {
      "id": "pt.ine.add.PTCONT.440771",
      "street": "LG D LUIS MALDONADO VIVIÃO PASSANHA",
      "house": "19",
      "postcode": "7900-567",
      "city": "FERREIRA DO ALENTEJO",
      "lon": "-8.112370660009152",
      "lat": "38.058218269992224"
    },
    {
      "id": "pt.ine.add.PTCONT.440772",
      "street": "LG D LUIS MALDONADO VIVIÃO PASSANHA",
      "house": "19",
      "postcode": "7900-567",
      "city": "FERREIRA DO ALENTEJO",
      "lon": "-8.112370660009152",
      "lat": "38.058218269992224"
    },
    {
      "id": "pt.ine.add.PTCONT.440802",
      "street": "LG D LUIS MALDONADO VIVIÃO PASSANHA",
      "house": "19",
      "postcode": "7900-567",
      "city": "FERREIRA DO ALENTEJO",
      "lon": "-8.112370660009152",
      "lat": "38.058218269992224"
    },
    {
      "id": "pt.ine.add.PTCONT.440803",
      "street": "LG D LUIS MALDONADO VIVIÃO PASSANHA",
      "house": "19",
      "postcode": "7900-567",
      "city": "FERREIRA DO ALENTEJO",
      "lon": "-8.112370660009152",
      "lat": "38.058218269992224"
    },
    {
      "id": "pt.ine.add.PTCONT.440804",
      "street": "LG D LUIS MALDONADO VIVIÃO PASSANHA",
      "house": "19",
      "postcode": "7900-567",
      "city": "FERREIRA DO ALENTEJO",
      "lon": "-8.112370660009152",
      "lat": "38.058218269992224"
    },
    {
      "id": "pt.ine.add.PTCONT.440805",
      "street": "LG D LUIS MALDONADO VIVIÃO PASSANHA",
      "house": "19",
      "postcode": "7900-567",
      "city": "FERREIRA DO ALENTEJO",
      "lon": "-8.112370660009152",
      "lat": "38.058218269992224"
    },
    {
      "id": "pt.ine.add.PTCONT.441201",
      "street": "LG D LUIS MALDONADO VIVIÃO PASSANHA",
      "house": "19",
      "postcode": "7900-567",
      "city": "FERREIRA DO ALENTEJO",
      "lon": "-8.112370660009152",
      "lat": "38.058218269992224"
    },
    {
      "id": "pt.ine.add.PTCONT.441232",
      "street": "LG D LUIS MALDONADO VIVIÃO PASSANHA",
      "house": "19",
      "postcode": "7900-567",
      "city": "FERREIRA DO ALENTEJO",
      "lon": "-8.112370660009152",
      "lat": "38.058218269992224"
    },
    {
      "id": "pt.ine.add.PTCONT.448092",
      "street": "LG D LUIS MALDONADO VIVIAO PASSANHA",
      "house": "19 BL2",
      "postcode": "7900-567",
      "city": "FERREIRA DO ALENTEJO",
      "lon": "-8.11233382692523",
      "lat": "38.058866438843765"
    },
    {
      "id": "pt.ine.add.PTCONT.448093",
      "street": "LG D LUIS MALDONADO VIVIAO PASSANHA",
      "house": "19",
      "postcode": "7900-567",
      "city": "FERREIRA DO ALENTEJO",
      "lon": "-8.11233382692523",
      "lat": "38.058866438843765"
    }
  ]
}