{
  "data": {
    "distrito": "Santar√©m",
    "concelho": "Alcanena",
    "freguesia": "Monsanto",
    "OBJECTID": 139,
    "BGRI2021": "14020800105",
    "DT21": "14",
    "DTMN21": "1402",
    "DTMNFR21": "140208",
    "DTMNFRSEC21": "140208001",
    "SECNUM21": "001",
    "SSNUM21": "05",
    "SECSSNUM21": "00105",
    "OBJECTID_1": 148128,
    "DT": "14",
    "CC": "02",
    "fr": "08",
    "SEC": "001",
    "SS": "05"
  },
  "addresses": [
    {
      "id": "pt.ine.add.PTCONT.4418149",
      "street": "R SOLDEIAS",
      "house": "148",
      "postcode": "2380-575",
      "city": "MONSANTO ACN",
      "lon": "-8.710524372830948",
      "lat": "39.46020720764115"
    },
    {
      "id": "pt.ine.add.PTCONT.4429506",
      "street": "R LIBERDADE",
      "house": "1053",
      "postcode": "2380-575",
      "city": "MONSANTO ACN",
      "lon": "-8.71068532499393",
      "lat": "39.45999924854589"
    },
    {
      "id": "pt.ine.add.PTCONT.4430459",
      "street": "R BOCAGE",
      "house": "19",
      "postcode": "2380-575",
      "city": "MONSANTO ACN",
      "lon": "-8.711200428441066",
      "lat": "39.46046505058436"
    },
    {
      "id": "pt.ine.add.PTCONT.4473844",
      "street": "R BOCAGE",
      "house": "53",
      "postcode": "2380-575",
      "city": "MONSANTO ACN",
      "lon": "-8.71110561469486",
      "lat": "39.46024034810963"
    },
    {
      "id": "pt.ine.add.PTCONT.4489882",
      "street": "R BOCAGE",
      "house": "1",
      "postcode": "2380-575",
      "city": "MONSANTO ACN",
      "lon": "-8.711294646641102",
      "lat": "39.4606177003398"
    },
    {
      "id": "pt.ine.add.PTCONT.4491801",
      "street": "R SOLDEIAS",
      "house": "116",
      "postcode": "2380-575",
      "city": "MONSANTO ACN",
      "lon": "-8.71085178636306",
      "lat": "39.46045777615741"
    },
    {
      "id": "pt.ine.add.PTCONT.4548225",
      "street": "R SOLDEIAS",
      "house": "128",
      "postcode": "2380-575",
      "city": "MONSANTO ACN",
      "lon": "-8.710641678142654",
      "lat": "39.46034172940679"
    },
    {
      "id": "pt.ine.add.PTCONT.4582745",
      "street": "R BOCAGE",
      "house": "",
      "postcode": "2380-575",
      "city": "MONSANTO ACN",
      "lon": "-8.711492168704506",
      "lat": "39.46061671815977"
    },
    {
      "id": "pt.ine.add.PTCONT.4602947",
      "street": "R LIBERDADE",
      "house": "1033",
      "postcode": "2380-575",
      "city": "MONSANTO ACN",
      "lon": "-8.71078974567786",
      "lat": "39.459980716003734"
    },
    {
      "id": "pt.ine.add.PTCONT.4621283",
      "street": "R LIBERDADE",
      "house": "",
      "postcode": "2380-575",
      "city": "MONSANTO ACN",
      "lon": "-8.710487879062399",
      "lat": "39.46000923592377"
    },
    {
      "id": "pt.ine.add.PTCONT.4629503",
      "street": "R MACHADAS",
      "house": "63",
      "postcode": "2380-575",
      "city": "MONSANTO ACN",
      "lon": "-8.711828968906085",
      "lat": "39.46059702874631"
    },
    {
      "id": "pt.ine.add.PTCONT.4637697",
      "street": "R LIBERDADE",
      "house": "1023",
      "postcode": "2380-575",
      "city": "MONSANTO ACN",
      "lon": "-8.71097520025401",
      "lat": "39.45992575294653"
    }
  ]
}