{
  "data": {
    "distrito": "Setúbal",
    "concelho": "Almada",
    "freguesia": "União das freguesias de Charneca de Caparica e Sobreda",
    "OBJECTID": 818,
    "BGRI2021": "15031402911",
    "DT21": "15",
    "DTMN21": "1503",
    "DTMNFR21": "150314",
    "DTMNFRSEC21": "150314029",
    "SECNUM21": "029",
    "SSNUM21": "11",
    "SECSSNUM21": "02911",
    "OBJECTID_1": 161525,
    "DT": "15",
    "CC": "03",
    "fr": "14",
    "SEC": "029",
    "SS": "11"
  },
  "addresses": [
    {
      "id": "pt.ine.add.PTCONT.4670899",
      "street": "PTO PATEO MANUEL CÂNDIDO",
      "house": "",
      "postcode": "2820-287",
      "city": "CHARNECA DA CAPARICA",
      "lon": "-9.189361839375621",
      "lat": "38.611393247209655"
    },
    {
      "id": "pt.ine.add.PTCONT.4745368",
      "street": "PTO PATEO MANUEL CÂNDIDO",
      "house": "",
      "postcode": "2820-287",
      "city": "CHARNECA DA CAPARICA",
      "lon": "-9.189222898884395",
      "lat": "38.611313429285204"
    },
    {
      "id": "pt.ine.add.PTCONT.4745369",
      "street": "PTO PATEO MANUEL CÂNDIDO",
      "house": "",
      "postcode": "2820-287",
      "city": "CHARNECA DA CAPARICA",
      "lon": "-9.189222898884395",
      "lat": "38.611313429285204"
    },
    {
      "id": "pt.ine.add.PTCONT.4745370",
      "street": "PTO PATEO MANUEL CÂNDIDO",
      "house": "",
      "postcode": "2820-287",
      "city": "CHARNECA DA CAPARICA",
      "lon": "-9.189222898884395",
      "lat": "38.611313429285204"
    },
    {
      "id": "pt.ine.add.PTCONT.4769449",
      "street": "R ANTÓNIO ANDRADE",
      "house": "",
      "postcode": "2820-287",
      "city": "CHARNECA DA CAPARICA",
      "lon": "-9.189028014525972",
      "lat": "38.61133320419717"
    },
    {
      "id": "pt.ine.add.PTCONT.4816676",
      "street": "R GRAÇA PINA MORAIS",
      "house": "2",
      "postcode": "2820-497",
      "city": "CHARNECA DA CAPARICA",
      "lon": "-9.189314205156647",
      "lat": "38.61127657306181"
    },
    {
      "id": "pt.ine.add.PTCONT.4822294",
      "street": "PTO PATEO MANUEL CÂNDIDO",
      "house": "",
      "postcode": "2820-287",
      "city": "CHARNECA DA CAPARICA",
      "lon": "-9.189214456865182",
      "lat": "38.61152068974338"
    },
    {
      "id": "pt.ine.add.PTCONT.4849130",
      "street": "R ANTÓNIO ANDRADE",
      "house": "",
      "postcode": "2820-287",
      "city": "CHARNECA DA CAPARICA",
      "lon": "-9.18911206700939",
      "lat": "38.61158466995476"
    },
    {
      "id": "pt.ine.add.PTCONT.4849188",
      "street": "R ANTÓNIO ANDRADE",
      "house": "",
      "postcode": "2820-287",
      "city": "CHARNECA DA CAPARICA",
      "lon": "-9.18911206700939",
      "lat": "38.61158466995476"
    },
    {
      "id": "pt.ine.add.PTCONT.4922875",
      "street": "PTO PATEO MANUEL CÂNDIDO",
      "house": "",
      "postcode": "2820-287",
      "city": "CHARNECA DA CAPARICA",
      "lon": "-9.189269344410645",
      "lat": "38.61134904209827"
    },
    {
      "id": "pt.ine.add.PTCONT.4925268",
      "street": "R ANTÓNIO ANDRADE",
      "house": "",
      "postcode": "2820-287",
      "city": "CHARNECA DA CAPARICA",
      "lon": "-9.189064036944687",
      "lat": "38.61144097524586"
    },
    {
      "id": "pt.ine.add.PTCONT.4957081",
      "street": "PTO PATEO MANUEL CÂNDIDO",
      "house": "",
      "postcode": "2820-287",
      "city": "CHARNECA DA CAPARICA",
      "lon": "-9.189236094970841",
      "lat": "38.61143041432239"
    },
    {
      "id": "pt.ine.add.PTCONT.4990192",
      "street": "R GRACA PINA MORAIS",
      "house": "",
      "postcode": "2820-497",
      "city": "CHARNECA DA CAPARICA",
      "lon": "-9.189446805602948",
      "lat": "38.610924063561875"
    },
    {
      "id": "pt.ine.add.PTCONT.5045308",
      "street": "PTO MANUEL CANDIDO QUINTINHAS",
      "house": "QUINTINHAS",
      "postcode": "2820-287",
      "city": "CHARNECA DA CAPARICA",
      "lon": "-9.189429790775419",
      "lat": "38.61132957769213"
    }
  ]
}