{
  "data": {
    "distrito": "Coimbra",
    "concelho": "Vila Nova de Poiares",
    "freguesia": "Arrifana",
    "OBJECTID": 192,
    "BGRI2021": "06170100213",
    "DT21": "06",
    "DTMN21": "0617",
    "DTMNFR21": "061701",
    "DTMNFRSEC21": "061701002",
    "SECNUM21": "002",
    "SSNUM21": "13",
    "SECSSNUM21": "00213",
    "OBJECTID_1": 58152,
    "DT": "06",
    "CC": "17",
    "fr": "01",
    "SEC": "002",
    "SS": "13"
  },
  "addresses": [
    {
      "id": "pt.ine.add.PTCONT.1115855",
      "street": "QUELHAS",
      "house": "",
      "postcode": "3350-028",
      "city": "ARRIFANA PRS",
      "lon": "-8.288370753639317",
      "lat": "40.20873907322341"
    },
    {
      "id": "pt.ine.add.PTCONT.1139258",
      "street": "SIT MARCO ALGACA",
      "house": "",
      "postcode": "3350-011",
      "city": "ARRIFANA PRS",
      "lon": "-8.28830896187323",
      "lat": "40.207397281615755"
    },
    {
      "id": "pt.ine.add.PTCONT.1142591",
      "street": "SITIO PEREIRO DE BAIXO",
      "house": "",
      "postcode": "3350-028",
      "city": "ARRIFANA PRS",
      "lon": "-8.288980436962007",
      "lat": "40.21337627394155"
    },
    {
      "id": "pt.ine.add.PTCONT.1142592",
      "street": "SITIO PEREIRO DE BAIXO",
      "house": "",
      "postcode": "3350-028",
      "city": "ARRIFANA PRS",
      "lon": "-8.287886281591808",
      "lat": "40.21263926150699"
    },
    {
      "id": "pt.ine.add.PTCONT.1145739",
      "street": "SIT CORGO",
      "house": "",
      "postcode": "3350-011",
      "city": "ARRIFANA PRS",
      "lon": "-8.287489601264525",
      "lat": "40.20865919892061"
    },
    {
      "id": "pt.ine.add.PTCONT.1149162",
      "street": "SITIO PEREIRO DE BAIXO",
      "house": "",
      "postcode": "3350-028",
      "city": "ARRIFANA PRS",
      "lon": "-8.288086327966518",
      "lat": "40.2127920934981"
    },
    {
      "id": "pt.ine.add.PTCONT.1152074",
      "street": "SIT MARCO ALGACA",
      "house": "",
      "postcode": "3350-011",
      "city": "ARRIFANA PRS",
      "lon": "-8.288720134158565",
      "lat": "40.20742374722616"
    },
    {
      "id": "pt.ine.add.PTCONT.1165250",
      "street": "SITIO PEREIRO DE BAIXO",
      "house": "",
      "postcode": "3350-028",
      "city": "ARRIFANA PRS",
      "lon": "-8.2897678415802",
      "lat": "40.213528310593254"
    },
    {
      "id": "pt.ine.add.PTCONT.1195517",
      "street": "SIT MARCO ALGACA",
      "house": "",
      "postcode": "3350-011",
      "city": "ARRIFANA PRS",
      "lon": "-8.287204387808247",
      "lat": "40.207200628131744"
    },
    {
      "id": "pt.ine.add.PTCONT.1197334",
      "street": "SITIO PEREIRO DE BAIXO",
      "house": "",
      "postcode": "3350-028",
      "city": "ARRIFANA PRS",
      "lon": "-8.286274358426077",
      "lat": "40.211488655165766"
    },
    {
      "id": "pt.ine.add.PTCONT.1203280",
      "street": "SITIO PEREIRO DE BAIXO",
      "house": "",
      "postcode": "3350-028",
      "city": "ARRIFANA PRS",
      "lon": "-8.287271095311288",
      "lat": "40.21072183354892"
    },
    {
      "id": "pt.ine.add.PTCONT.1208652",
      "street": "QUELHAS",
      "house": "",
      "postcode": "3350-028",
      "city": "ARRIFANA PRS",
      "lon": "-8.290408329512145",
      "lat": "40.21110486508089"
    },
    {
      "id": "pt.ine.add.PTCONT.1208765",
      "street": "SITIO PEREIRO DE BAIXO",
      "house": "",
      "postcode": "3350-028",
      "city": "ARRIFANA PRS",
      "lon": "-8.287391420148003",
      "lat": "40.21198249418198"
    },
    {
      "id": "pt.ine.add.PTCONT.1209143",
      "street": "SITIO PEREIRO DE BAIXO CASA DA PONTINHA",
      "house": "",
      "postcode": "3350-028",
      "city": "ARRIFANA PRS",
      "lon": "-8.287447702710717",
      "lat": "40.21090171550536"
    },
    {
      "id": "pt.ine.add.PTCONT.1209144",
      "street": "SIT CORGO",
      "house": "",
      "postcode": "3350-071",
      "city": "ARRIFANA PRS",
      "lon": "-8.287911891971977",
      "lat": "40.20840647064881"
    },
    {
      "id": "pt.ine.add.PTCONT.1245263",
      "street": "SITIO PEREIRO DE BAIXO",
      "house": "",
      "postcode": "3350-028",
      "city": "ARRIFANA PRS",
      "lon": "-8.28855684367288",
      "lat": "40.21307064429595"
    },
    {
      "id": "pt.ine.add.PTCONT.1245264",
      "street": "QUELHAS",
      "house": "",
      "postcode": "3350-028",
      "city": "ARRIFANA PRS",
      "lon": "-8.290570802696703",
      "lat": "40.21024908703728"
    },
    {
      "id": "pt.ine.add.PTCONT.1262349",
      "street": "QUELHAS",
      "house": "",
      "postcode": "3350-028",
      "city": "ARRIFANA PRS",
      "lon": "-8.29015811601018",
      "lat": "40.20957420772998"
    },
    {
      "id": "pt.ine.add.PTCONT.1268129",
      "street": "SITIO PEREIRO DE BAIXO",
      "house": "",
      "postcode": "3350-028",
      "city": "ARRIFANA PRS",
      "lon": "-8.286822080048871",
      "lat": "40.209551668114635"
    },
    {
      "id": "pt.ine.add.PTCONT.1301463",
      "street": "SITIO PEREIRO DE BAIXO",
      "house": "",
      "postcode": "3350-028",
      "city": "ARRIFANA PRS",
      "lon": "-8.286145792693027",
      "lat": "40.21177701284283"
    },
    {
      "id": "pt.ine.add.PTCONT.1309800",
      "street": "SITIO PEREIRO DE BAIXO",
      "house": "",
      "postcode": "3350-028",
      "city": "ARRIFANA PRS",
      "lon": "-8.286544025299982",
      "lat": "40.211263151436306"
    },
    {
      "id": "pt.ine.add.PTCONT.1329691",
      "street": "SITIO PEREIRO DE BAIXO",
      "house": "",
      "postcode": "3350-028",
      "city": "ARRIFANA PRS",
      "lon": "-8.287004936652702",
      "lat": "40.21249634281877"
    },
    {
      "id": "pt.ine.add.PTCONT.1335499",
      "street": "SITIO PEREIRO DE BAIXO",
      "house": "",
      "postcode": "3350-028",
      "city": "ARRIFANA PRS",
      "lon": "-8.286965724723064",
      "lat": "40.21074025156392"
    }
  ]
}