{
  "data": {
    "ilha": "Ilha do Faial (AÃ§ores)",
    "concelho": "Horta",
    "freguesia": "Feteira",
    "OBJECTID": 234,
    "BGRI2021": "47010400211",
    "DT21": "47",
    "DTMN21": "4701",
    "DTMNFR21": "470104",
    "DTMNFRSEC21": "470104002",
    "SECNUM21": "002",
    "SSNUM21": "11",
    "SECSSNUM21": "00211",
    "OBJECTID_1": 209867,
    "DT": "47",
    "CC": "01",
    "fr": "04",
    "SEC": "002",
    "SS": "11",
    "BGRI2021_1": "47010400211"
  },
  "addresses": [
    {
      "id": "pt.ine.add.AC26.42530",
      "street": "R CIMO DE S PEDRO",
      "house": "10",
      "postcode": "9900-361",
      "city": "FETEIRA HRT",
      "lon": "-28.6849857893606",
      "lat": "38.53246201919159"
    },
    {
      "id": "pt.ine.add.AC26.42531",
      "street": "TV S PEDRO",
      "house": "1A",
      "postcode": "9900-361",
      "city": "FETEIRA HRT",
      "lon": "-28.684232823480684",
      "lat": "38.53116623122656"
    },
    {
      "id": "pt.ine.add.AC26.42532",
      "street": "TV S PEDRO",
      "house": "1",
      "postcode": "9900-361",
      "city": "FETEIRA HRT",
      "lon": "-28.684264287015402",
      "lat": "38.53103962171079"
    },
    {
      "id": "pt.ine.add.AC26.42533",
      "street": "TV S PEDRO",
      "house": "3",
      "postcode": "9900-361",
      "city": "FETEIRA HRT",
      "lon": "-28.68493586274446",
      "lat": "38.530813688263414"
    },
    {
      "id": "pt.ine.add.AC26.42534",
      "street": "TV S PEDRO",
      "house": "7",
      "postcode": "9900-361",
      "city": "FETEIRA HRT",
      "lon": "-28.685469117130395",
      "lat": "38.529084871952726"
    },
    {
      "id": "pt.ine.add.AC26.43198",
      "street": "R FARROBIM DO NORTE",
      "house": "",
      "postcode": "9900-361",
      "city": "FETEIRA HRT",
      "lon": "-28.691813091010214",
      "lat": "38.533498954963385"
    },
    {
      "id": "pt.ine.add.AC26.43199",
      "street": "R FARROBIM DO NORTE",
      "house": "17",
      "postcode": "9900-361",
      "city": "FETEIRA HRT",
      "lon": "-28.69267259271837",
      "lat": "38.53345949594272"
    },
    {
      "id": "pt.ine.add.AC26.43200",
      "street": "R FARROBIM DO NORTE",
      "house": "",
      "postcode": "9900-361",
      "city": "FETEIRA HRT",
      "lon": "-28.69273458006924",
      "lat": "38.53365684573253"
    },
    {
      "id": "pt.ine.add.AC26.43201",
      "street": "R FARROBIM DO NORTE",
      "house": "27",
      "postcode": "9900-361",
      "city": "FETEIRA HRT",
      "lon": "-28.693817628887835",
      "lat": "38.53434405157606"
    },
    {
      "id": "pt.ine.add.AC26.48342",
      "street": "R FARROBIM DO SUL",
      "house": "1A",
      "postcode": "9900-361",
      "city": "FETEIRA HRT",
      "lon": "-28.68809609698731",
      "lat": "38.53006528429623"
    },
    {
      "id": "pt.ine.add.AC26.52710",
      "street": "R CIMO DE S PEDRO",
      "house": "ZIA",
      "postcode": "9900-361",
      "city": "FETEIRA HRT",
      "lon": "-28.68720223516741",
      "lat": "38.53501630657836"
    },
    {
      "id": "pt.ine.add.AC26.64273",
      "street": "TV S PEDRO",
      "house": "9",
      "postcode": "9900-361",
      "city": "FETEIRA HRT",
      "lon": "-28.686130367205163",
      "lat": "38.52841753149052"
    },
    {
      "id": "pt.ine.add.AC26.70343",
      "street": "R FARROBIM DO NORTE",
      "house": "25",
      "postcode": "9900-361",
      "city": "FETEIRA HRT",
      "lon": "-28.693024037607064",
      "lat": "38.53376980503768"
    },
    {
      "id": "pt.ine.add.AC26.70344",
      "street": "R FARROBIM DO NORTE",
      "house": "",
      "postcode": "9900-361",
      "city": "FETEIRA HRT",
      "lon": "-28.692981542324283",
      "lat": "38.533914598665305"
    },
    {
      "id": "pt.ine.add.AC26.77560",
      "street": "TV S PEDRO",
      "house": "",
      "postcode": "9900-361",
      "city": "FETEIRA HRT",
      "lon": "-28.686243151570174",
      "lat": "38.52833480609"
    },
    {
      "id": "pt.ine.add.AC26.77561",
      "street": "R FARROBIM DO NORTE",
      "house": "",
      "postcode": "9900-361",
      "city": "FETEIRA HRT",
      "lon": "-28.689575017392496",
      "lat": "38.532476970628856"
    },
    {
      "id": "pt.ine.add.AC26.81097",
      "street": "TV S PEDRO",
      "house": "11",
      "postcode": "9900-361",
      "city": "FETEIRA HRT",
      "lon": "-28.684617067471496",
      "lat": "38.530917399723556"
    },
    {
      "id": "pt.ine.add.AC26.82688",
      "street": "R FARROBIM DO NORTE",
      "house": "21",
      "postcode": "9900-361",
      "city": "FETEIRA HRT",
      "lon": "-28.692824005338327",
      "lat": "38.53355642945994"
    },
    {
      "id": "pt.ine.add.AC26.85856",
      "street": "R CIMO DE S PEDRO",
      "house": "6",
      "postcode": "9900-361",
      "city": "FETEIRA HRT",
      "lon": "-28.684617751605995",
      "lat": "38.53242226031033"
    },
    {
      "id": "pt.ine.add.AC26.92628",
      "street": "R FARROBIM SUL",
      "house": "1A",
      "postcode": "9900-361",
      "city": "FETEIRA HRT",
      "lon": "-28.6890192453698",
      "lat": "38.531277490963376"
    },
    {
      "id": "pt.ine.add.AC26.92629",
      "street": "R FARROBIM DO NORTE",
      "house": "1",
      "postcode": "9900-361",
      "city": "FETEIRA HRT",
      "lon": "-28.68987243725096",
      "lat": "38.53195002814667"
    },
    {
      "id": "pt.ine.add.AC26.92630",
      "street": "R FARROBIM DO NORTE",
      "house": "3",
      "postcode": "9900-361",
      "city": "FETEIRA HRT",
      "lon": "-28.6901072827688",
      "lat": "38.532180928689456"
    },
    {
      "id": "pt.ine.add.AC26.92631",
      "street": "R FARROBIM DO NORTE",
      "house": "11",
      "postcode": "9900-361",
      "city": "FETEIRA HRT",
      "lon": "-28.690667459835506",
      "lat": "38.53258735428643"
    },
    {
      "id": "pt.ine.add.AC26.92632",
      "street": "R FARROBIM DO NORTE",
      "house": "13C",
      "postcode": "9900-361",
      "city": "FETEIRA HRT",
      "lon": "-28.692027193053725",
      "lat": "38.53333365895157"
    },
    {
      "id": "pt.ine.add.AC26.93554",
      "street": "R FARROBIM DO NORTE",
      "house": "13",
      "postcode": "9900-361",
      "city": "FETEIRA HRT",
      "lon": "-28.690869381184736",
      "lat": "38.53288180710142"
    },
    {
      "id": "pt.ine.add.AC26.94073",
      "street": "R FARROBIM DO SUL",
      "house": "1A",
      "postcode": "9900-361",
      "city": "FETEIRA HRT",
      "lon": "-28.68822519212407",
      "lat": "38.530189579357796"
    },
    {
      "id": "pt.ine.add.AC26.94074",
      "street": "R FARROBIM DO NORTE",
      "house": "13A",
      "postcode": "9900-361",
      "city": "FETEIRA HRT",
      "lon": "-28.691236580216554",
      "lat": "38.53288551361214"
    },
    {
      "id": "pt.ine.add.AC26.95166",
      "street": "R FARROBIM DO NORTE",
      "house": "23",
      "postcode": "9900-361",
      "city": "FETEIRA HRT",
      "lon": "-28.692929333241025",
      "lat": "38.533645018095186"
    },
    {
      "id": "pt.ine.add.AC26.95529",
      "street": "R FARROBIM DO NORTE",
      "house": "5",
      "postcode": "9900-361",
      "city": "FETEIRA HRT",
      "lon": "-28.68960048292065",
      "lat": "38.53258473739055"
    },
    {
      "id": "pt.ine.add.AC26.102772",
      "street": "TV S PEDRO",
      "house": "5",
      "postcode": "9900-361",
      "city": "FETEIRA HRT",
      "lon": "-28.68528025949132",
      "lat": "38.529348915891454"
    },
    {
      "id": "pt.ine.add.AC26.104141",
      "street": "R FARROBIM DO SUL",
      "house": "1A",
      "postcode": "9900-361",
      "city": "FETEIRA HRT",
      "lon": "-28.688008563872298",
      "lat": "38.530246770531434"
    },
    {
      "id": "pt.ine.add.AC26.104867",
      "street": "R CIMO DE S PEDRO",
      "house": "12",
      "postcode": "9900-361",
      "city": "FETEIRA HRT",
      "lon": "-28.685367397955876",
      "lat": "38.53259169350488"
    },
    {
      "id": "pt.ine.add.AC26.108246",
      "street": "TV S PEDRO",
      "house": "",
      "postcode": "9900-361",
      "city": "FETEIRA HRT",
      "lon": "-28.683786487946428",
      "lat": "38.53170431306353"
    }
  ]
}