{
  "data": {
    "distrito": "Viana do Castelo",
    "concelho": "Viana do Castelo",
    "freguesia": "Mujães",
    "OBJECTID": 824,
    "BGRI2021": "16092200111",
    "DT21": "16",
    "DTMN21": "1609",
    "DTMNFR21": "160922",
    "DTMNFRSEC21": "160922001",
    "SECNUM21": "001",
    "SSNUM21": "11",
    "SECSSNUM21": "00111",
    "OBJECTID_1": 178443,
    "DT": "16",
    "CC": "09",
    "fr": "22",
    "SEC": "001",
    "SS": "11"
  },
  "addresses": [
    {
      "id": "pt.ine.add.PTCONT.5138141",
      "street": "R CRUZEIRO DO BISPO",
      "house": "115",
      "postcode": "4905-513",
      "city": "MUJÃES",
      "lon": "-8.704501440792876",
      "lat": "41.65404368910526"
    },
    {
      "id": "pt.ine.add.PTCONT.5139151",
      "street": "R PADRE MANUEL LOPES VILAVERDE",
      "house": "",
      "postcode": "4905-513",
      "city": "MUJÃES",
      "lon": "-8.709063171295279",
      "lat": "41.655371454567586"
    },
    {
      "id": "pt.ine.add.PTCONT.5140132",
      "street": "TV CRUZEIRO BISPO",
      "house": "3",
      "postcode": "4905-513",
      "city": "MUJÃES",
      "lon": "-8.701570364840427",
      "lat": "41.65383313369558"
    },
    {
      "id": "pt.ine.add.PTCONT.5143674",
      "street": "R JORGE FARIA TORRES",
      "house": "687",
      "postcode": "4905-513",
      "city": "MUJÃES",
      "lon": "-8.698770143178836",
      "lat": "41.654855346898344"
    },
    {
      "id": "pt.ine.add.PTCONT.5143925",
      "street": "R FOJO",
      "house": "108",
      "postcode": "4905-513",
      "city": "MUJÃES",
      "lon": "-8.699634083680563",
      "lat": "41.654806074142265"
    },
    {
      "id": "pt.ine.add.PTCONT.5144614",
      "street": "CC CUNHAS",
      "house": "155",
      "postcode": "4905-513",
      "city": "MUJÃES",
      "lon": "-8.700071702170357",
      "lat": "41.65405662118099"
    },
    {
      "id": "pt.ine.add.PTCONT.5152812",
      "street": "R COSTA",
      "house": "1",
      "postcode": "4905-513",
      "city": "MUJÃES",
      "lon": "-8.698813247442958",
      "lat": "41.65566545473654"
    },
    {
      "id": "pt.ine.add.PTCONT.5155405",
      "street": "TV CRUZEIRO DO BISPO",
      "house": "19",
      "postcode": "4905-513",
      "city": "MUJÃES",
      "lon": "-8.70344520428405",
      "lat": "41.654066942098815"
    },
    {
      "id": "pt.ine.add.PTCONT.5157681",
      "street": "R CRUZEIRO DO BISPO",
      "house": "171",
      "postcode": "4905-513",
      "city": "MUJÃES",
      "lon": "-8.704022612685495",
      "lat": "41.65419912889885"
    },
    {
      "id": "pt.ine.add.PTCONT.5160045",
      "street": "R CRUZEIRO DO BISPO",
      "house": "303",
      "postcode": "4905-513",
      "city": "MUJÃES",
      "lon": "-8.702410835377162",
      "lat": "41.65384698104937"
    },
    {
      "id": "pt.ine.add.PTCONT.5160224",
      "street": "R JORGE FARIA TORRES",
      "house": "627",
      "postcode": "4905-513",
      "city": "MUJÃES",
      "lon": "-8.698430706327965",
      "lat": "41.65447886751143"
    },
    {
      "id": "pt.ine.add.PTCONT.5162840",
      "street": "",
      "house": "",
      "postcode": "4905-513",
      "city": "MUJÃES",
      "lon": "-8.69834754009713",
      "lat": "41.65457831564465"
    },
    {
      "id": "pt.ine.add.PTCONT.5164568",
      "street": "R COSTA",
      "house": "138",
      "postcode": "4905-513",
      "city": "MUJÃES",
      "lon": "-8.699672622417705",
      "lat": "41.655093997964336"
    },
    {
      "id": "pt.ine.add.PTCONT.5165523",
      "street": "R PADRE MANUEL LOPES VILAVERDE",
      "house": "",
      "postcode": "4905-513",
      "city": "MUJÃES",
      "lon": "-8.709281101910415",
      "lat": "41.65557744405411"
    },
    {
      "id": "pt.ine.add.PTCONT.5166435",
      "street": "CC CUNHAS",
      "house": "185",
      "postcode": "4905-513",
      "city": "MUJÃES",
      "lon": "-8.699640328984627",
      "lat": "41.654148783745825"
    },
    {
      "id": "pt.ine.add.PTCONT.5177077",
      "street": "TV CRUZEIRO DO BISPO",
      "house": "1",
      "postcode": "4905-513",
      "city": "MUJÃES",
      "lon": "-8.701677929902589",
      "lat": "41.65377858032217"
    },
    {
      "id": "pt.ine.add.PTCONT.5179272",
      "street": "R PADRE MANUEL LOPES VILAVERDE",
      "house": "91",
      "postcode": "4905-513",
      "city": "MUJÃES",
      "lon": "-8.708784737600388",
      "lat": "41.655111746380186"
    },
    {
      "id": "pt.ine.add.PTCONT.5181303",
      "street": "CC CUNHAS QTA",
      "house": "7",
      "postcode": "4905-513",
      "city": "MUJÃES",
      "lon": "-8.700274751948896",
      "lat": "41.65393857319106"
    },
    {
      "id": "pt.ine.add.PTCONT.5181559",
      "street": "R COSTA",
      "house": "117",
      "postcode": "4905-513",
      "city": "MUJÃES",
      "lon": "-8.699729952541885",
      "lat": "41.656156134797136"
    },
    {
      "id": "pt.ine.add.PTCONT.5182821",
      "street": "R COSTA",
      "house": "32",
      "postcode": "4905-513",
      "city": "MUJÃES",
      "lon": "-8.698862241057874",
      "lat": "41.65440471580482"
    },
    {
      "id": "pt.ine.add.PTCONT.5191691",
      "street": "R CRUZEIRO DO BISPO",
      "house": "251",
      "postcode": "4905-513",
      "city": "MUJÃES",
      "lon": "-8.7029998474292",
      "lat": "41.6539340977421"
    },
    {
      "id": "pt.ine.add.PTCONT.5198042",
      "street": "R FONTE DE MAMUA",
      "house": "9",
      "postcode": "4905-513",
      "city": "MUJÃES",
      "lon": "-8.705913664394911",
      "lat": "41.65626053789694"
    },
    {
      "id": "pt.ine.add.PTCONT.5200587",
      "street": "R COSTA",
      "house": "",
      "postcode": "4905-513",
      "city": "MUJÃES",
      "lon": "-8.699211398421381",
      "lat": "41.65452004291574"
    },
    {
      "id": "pt.ine.add.PTCONT.5212654",
      "street": "R CRUZEIRO DO BISPO",
      "house": "327",
      "postcode": "4905-513",
      "city": "MUJÃES",
      "lon": "-8.701919048582045",
      "lat": "41.65389443359147"
    },
    {
      "id": "pt.ine.add.PTCONT.5216269",
      "street": "R CRUZEIRO DO BISPO",
      "house": "253",
      "postcode": "4905-513",
      "city": "MUJÃES",
      "lon": "-8.702903494246964",
      "lat": "41.653898561204485"
    },
    {
      "id": "pt.ine.add.PTCONT.5217426",
      "street": "R CRUZEIRO DO BISPO",
      "house": "275",
      "postcode": "4905-513",
      "city": "MUJÃES",
      "lon": "-8.702806585833327",
      "lat": "41.653800002440235"
    },
    {
      "id": "pt.ine.add.PTCONT.5218354",
      "street": "R ALTO DO VIEIRA",
      "house": "",
      "postcode": "4905-513",
      "city": "MUJÃES",
      "lon": "-8.705762746956841",
      "lat": "41.6554869843332"
    },
    {
      "id": "pt.ine.add.PTCONT.5218431",
      "street": "R ADEGA COOPERATIVA",
      "house": "308",
      "postcode": "4905-516",
      "city": "MUJÃES",
      "lon": "-8.70868234464593",
      "lat": "41.6584435730726"
    },
    {
      "id": "pt.ine.add.PTCONT.5219665",
      "street": "TV CRUZEIRO DO BISPO",
      "house": "3",
      "postcode": "4905-513",
      "city": "MUJÃES",
      "lon": "-8.701366209914152",
      "lat": "41.65382513963938"
    },
    {
      "id": "pt.ine.add.PTCONT.5219666",
      "street": "TV CRUZEIRO DO BISPO",
      "house": "3",
      "postcode": "4905-513",
      "city": "MUJÃES",
      "lon": "-8.701366209914152",
      "lat": "41.65382513963938"
    },
    {
      "id": "pt.ine.add.PTCONT.5219667",
      "street": "TV CRUZEIRO DO BISPO",
      "house": "3",
      "postcode": "4905-513",
      "city": "MUJÃES",
      "lon": "-8.701366209914152",
      "lat": "41.65382513963938"
    },
    {
      "id": "pt.ine.add.PTCONT.5226517",
      "street": "CC CUNHAS",
      "house": "257",
      "postcode": "4905-513",
      "city": "MUJÃES",
      "lon": "-8.698992084812767",
      "lat": "41.65415197703551"
    },
    {
      "id": "pt.ine.add.PTCONT.5232279",
      "street": "R ALTO DO VIEIRA",
      "house": "157",
      "postcode": "4905-513",
      "city": "MUJÃES",
      "lon": "-8.706668215688273",
      "lat": "41.65605869695693"
    },
    {
      "id": "pt.ine.add.PTCONT.5233597",
      "street": "CAM NOGUEIRA",
      "house": "",
      "postcode": "4905-516",
      "city": "MUJÃES",
      "lon": "-8.706709576157348",
      "lat": "41.66207286056044"
    },
    {
      "id": "pt.ine.add.PTCONT.5235042",
      "street": "R CRUZEIRO DO BISPO",
      "house": "225",
      "postcode": "4905-513",
      "city": "MUJÃES",
      "lon": "-8.703180470236406",
      "lat": "41.653996226948706"
    },
    {
      "id": "pt.ine.add.PTCONT.5238619",
      "street": "R ALTO DO VIEIRA",
      "house": "277",
      "postcode": "4905-513",
      "city": "MUJÃES",
      "lon": "-8.705657175950048",
      "lat": "41.6557666204151"
    },
    {
      "id": "pt.ine.add.PTCONT.5239879",
      "street": "R CRUZEIRO DO BISPO",
      "house": "169",
      "postcode": "4905-513",
      "city": "MUJÃES",
      "lon": "-8.70406975615225",
      "lat": "41.65409985561057"
    },
    {
      "id": "pt.ine.add.PTCONT.5240371",
      "street": "R COSTA",
      "house": "128",
      "postcode": "4905-513",
      "city": "MUJÃES",
      "lon": "-8.69963597716346",
      "lat": "41.65502215014587"
    },
    {
      "id": "pt.ine.add.PTCONT.5243079",
      "street": "R ADEGA COOPERATIVA",
      "house": "",
      "postcode": "4905-516",
      "city": "MUJÃES",
      "lon": "-8.708925369431007",
      "lat": "41.65607442210511"
    },
    {
      "id": "pt.ine.add.PTCONT.5245487",
      "street": "R CRUZEIRO DO BISPO",
      "house": "277",
      "postcode": "4905-513",
      "city": "MUJÃES",
      "lon": "-8.702759440634626",
      "lat": "41.65389927522637"
    },
    {
      "id": "pt.ine.add.PTCONT.5246743",
      "street": "R CRUZEIRO DO BISPO",
      "house": "21",
      "postcode": "4905-513",
      "city": "MUJÃES",
      "lon": "-8.703373018471163",
      "lat": "41.65404929314831"
    },
    {
      "id": "pt.ine.add.PTCONT.5252807",
      "street": "CC CUNHAS",
      "house": "195",
      "postcode": "4905-513",
      "city": "MUJÃES",
      "lon": "-8.699436094396418",
      "lat": "41.654131783098315"
    },
    {
      "id": "pt.ine.add.PTCONT.5254647",
      "street": "R ALTO DO VIEIRA",
      "house": "",
      "postcode": "4905-513",
      "city": "MUJÃES",
      "lon": "-8.706942089835389",
      "lat": "41.655805230503965"
    },
    {
      "id": "pt.ine.add.PTCONT.5260036",
      "street": "R CANCELA DA SERRA",
      "house": "1",
      "postcode": "4905-513",
      "city": "MUJÃES",
      "lon": "-8.703710733510821",
      "lat": "41.654227688250664"
    },
    {
      "id": "pt.ine.add.PTCONT.5260648",
      "street": "LG MONTINHO",
      "house": "15",
      "postcode": "4905-513",
      "city": "MUJÃES",
      "lon": "-8.698813434985809",
      "lat": "41.65431492045665"
    },
    {
      "id": "pt.ine.add.PTCONT.5268877",
      "street": "R CRUZEIRO DO BISPO",
      "house": "3",
      "postcode": "4905-513",
      "city": "MUJÃES",
      "lon": "-8.700954658104022",
      "lat": "41.65344002059997"
    },
    {
      "id": "pt.ine.add.PTCONT.5268878",
      "street": "R CRUZEIRO DO BISPO",
      "house": "3",
      "postcode": "4905-513",
      "city": "MUJÃES",
      "lon": "-8.700954658104022",
      "lat": "41.65344002059997"
    },
    {
      "id": "pt.ine.add.PTCONT.5281244",
      "street": "R COSTA",
      "house": "66",
      "postcode": "4905-513",
      "city": "MUJÃES",
      "lon": "-8.699489081471516",
      "lat": "41.65469874607177"
    },
    {
      "id": "pt.ine.add.PTCONT.5284882",
      "street": "R ADEGA COOPERATIVA",
      "house": "106",
      "postcode": "4905-516",
      "city": "MUJÃES",
      "lon": "-8.709075523966177",
      "lat": "41.65675793969796"
    },
    {
      "id": "pt.ine.add.PTCONT.5284969",
      "street": "R CANCELA DA SERRA",
      "house": "4",
      "postcode": "4905-513",
      "city": "MUJÃES",
      "lon": "-8.703245494595603",
      "lat": "41.654563128458385"
    },
    {
      "id": "pt.ine.add.PTCONT.5285505",
      "street": "R CRUZEIRO DO BISPO",
      "house": "137",
      "postcode": "4905-513",
      "city": "MUJÃES",
      "lon": "-8.704285678108937",
      "lat": "41.654080775720914"
    }
  ]
}