{
  "data": {
    "distrito": "Santarém",
    "concelho": "Santarém",
    "freguesia": "União das freguesias de São Vicente do Paul e Vale de Figueira",
    "OBJECTID": 1007,
    "BGRI2021": "14163400102",
    "DT21": "14",
    "DTMN21": "1416",
    "DTMNFR21": "141634",
    "DTMNFRSEC21": "141634001",
    "SECNUM21": "001",
    "SSNUM21": "02",
    "SECSSNUM21": "00102",
    "OBJECTID_1": 153860,
    "DT": "14",
    "CC": "16",
    "fr": "34",
    "SEC": "001",
    "SS": "02"
  },
  "addresses": [
    {
      "id": "pt.ine.add.PTCONT.4440724",
      "street": "R OCIDENTAL",
      "house": "1",
      "postcode": "2000-747",
      "city": "VALE DE FIGUEIRA STR",
      "lon": "-8.629321656319737",
      "lat": "39.30520968582635"
    },
    {
      "id": "pt.ine.add.PTCONT.4450139",
      "street": "R BELA VISTA",
      "house": "2",
      "postcode": "2000-722",
      "city": "VALE DE FIGUEIRA STR",
      "lon": "-8.629005648090006",
      "lat": "39.304787693311305"
    },
    {
      "id": "pt.ine.add.PTCONT.4471011",
      "street": "R OCIDENTAL",
      "house": "4",
      "postcode": "2000-747",
      "city": "VALE DE FIGUEIRA STR",
      "lon": "-8.629215662730186",
      "lat": "39.30497595002765"
    },
    {
      "id": "pt.ine.add.PTCONT.4483501",
      "street": "R 13 DE MARCO",
      "house": "3",
      "postcode": "2000-750",
      "city": "VALE DE FIGUEIRA STR",
      "lon": "-8.629295734809293",
      "lat": "39.30482248617297"
    },
    {
      "id": "pt.ine.add.PTCONT.4494246",
      "street": "R OCIDENTAL",
      "house": "10",
      "postcode": "2000-747",
      "city": "VALE DE FIGUEIRA STR",
      "lon": "-8.62908769115585",
      "lat": "39.30491344479726"
    },
    {
      "id": "pt.ine.add.PTCONT.4494837",
      "street": "R BELA VISTA",
      "house": "12",
      "postcode": "2000-722",
      "city": "VALE DE FIGUEIRA STR",
      "lon": "-8.62865549916091",
      "lat": "39.30445591735989"
    },
    {
      "id": "pt.ine.add.PTCONT.4515272",
      "street": "LG TERREIRINHO DAS FLORES",
      "house": "11",
      "postcode": "2000-715",
      "city": "VALE DE FIGUEIRA STR",
      "lon": "-8.628880345970321",
      "lat": "39.30510347941235"
    },
    {
      "id": "pt.ine.add.PTCONT.4518726",
      "street": "LG POÇO DA PEREIRA",
      "house": "1",
      "postcode": "2000-714",
      "city": "VALE DE FIGUEIRA STR",
      "lon": "-8.62935529147252",
      "lat": "39.30504741264022"
    },
    {
      "id": "pt.ine.add.PTCONT.4521386",
      "street": "R BELA VISTA",
      "house": "4",
      "postcode": "2000-722",
      "city": "VALE DE FIGUEIRA STR",
      "lon": "-8.62897035975223",
      "lat": "39.304715785913736"
    },
    {
      "id": "pt.ine.add.PTCONT.4523742",
      "street": "TV INDEPENDÊNCIA",
      "house": "",
      "postcode": "2000-748",
      "city": "VALE DE FIGUEIRA STR",
      "lon": "-8.62910150957998",
      "lat": "39.305228638360575"
    },
    {
      "id": "pt.ine.add.PTCONT.4531185",
      "street": "R BELA VISTA",
      "house": "14",
      "postcode": "2000-722",
      "city": "VALE DE FIGUEIRA STR",
      "lon": "-8.62870142746329",
      "lat": "39.30439267136276"
    },
    {
      "id": "pt.ine.add.PTCONT.4539215",
      "street": "LG TERREIRINHO DAS FLORES",
      "house": "6",
      "postcode": "2000-715",
      "city": "VALE DE FIGUEIRA STR",
      "lon": "-8.628985575919891",
      "lat": "39.305229132220674"
    },
    {
      "id": "pt.ine.add.PTCONT.4574972",
      "street": "R OCIDENTAL",
      "house": "7",
      "postcode": "2000-747",
      "city": "VALE DE FIGUEIRA STR",
      "lon": "-8.629112022148378",
      "lat": "39.30507547096442"
    },
    {
      "id": "pt.ine.add.PTCONT.4624446",
      "street": "LG POÇO DA PEREIRA",
      "house": "",
      "postcode": "2000-714",
      "city": "VALE DE FIGUEIRA STR",
      "lon": "-8.62924082074718",
      "lat": "39.30525506639937"
    },
    {
      "id": "pt.ine.add.PTCONT.4650450",
      "street": "R OCIDENTAL",
      "house": "",
      "postcode": "2000-747",
      "city": "VALE DE FIGUEIRA STR",
      "lon": "-8.629030678066723",
      "lat": "39.30504879585987"
    },
    {
      "id": "pt.ine.add.PTCONT.4655311",
      "street": "LG TERREIRINHO DAS FLORES",
      "house": "12",
      "postcode": "2000-715",
      "city": "VALE DE FIGUEIRA STR",
      "lon": "-8.628810404671489",
      "lat": "39.30504973395777"
    }
  ]
}