{
  "data": {
    "distrito": "Lisboa",
    "concelho": "Sintra",
    "freguesia": "União das freguesias de Almargem do Bispo, Pêro Pinheiro e Montelavar",
    "OBJECTID": 2407,
    "BGRI2021": "11112301111",
    "DT21": "11",
    "DTMN21": "1111",
    "DTMNFR21": "111123",
    "DTMNFRSEC21": "111123011",
    "SECNUM21": "011",
    "SSNUM21": "11",
    "SECSSNUM21": "01111",
    "OBJECTID_1": 111922,
    "DT": "11",
    "CC": "11",
    "fr": "23",
    "SEC": "011",
    "SS": "11"
  },
  "addresses": [
    {
      "id": "pt.ine.add.PTCONT.2281868",
      "street": "TV ALBARDEIROS",
      "house": "1",
      "postcode": "2715-364",
      "city": "ALMARGEM DO BISPO",
      "lon": "-9.296869383862587",
      "lat": "38.82485761067192"
    },
    {
      "id": "pt.ine.add.PTCONT.2290632",
      "street": "R DOS FRADES",
      "house": "",
      "postcode": "2715-379",
      "city": "ALMARGEM DO BISPO",
      "lon": "-9.297913604328013",
      "lat": "38.82399190657489"
    },
    {
      "id": "pt.ine.add.PTCONT.2343736",
      "street": "R ALTO DA PENA",
      "house": "10",
      "postcode": "2715-366",
      "city": "ALMARGEM DO BISPO",
      "lon": "-9.297755299621722",
      "lat": "38.82455235301399"
    },
    {
      "id": "pt.ine.add.PTCONT.2343737",
      "street": "AV GEN BARNABE ANTONIO FERREIRA",
      "house": "38",
      "postcode": "2715-454",
      "city": "ALMARGEM DO BISPO",
      "lon": "-9.297582188377136",
      "lat": "38.82489683505813"
    },
    {
      "id": "pt.ine.add.PTCONT.2462949",
      "street": "AV GEN BARNABE ANTÓNIO FERREIRA",
      "house": "44",
      "postcode": "2715-454",
      "city": "ALMARGEM DO BISPO",
      "lon": "-9.297343699626254",
      "lat": "38.82490555091905"
    },
    {
      "id": "pt.ine.add.PTCONT.2469713",
      "street": "AV GEN BARNABE ANTÓNIO FERREIRA",
      "house": "54",
      "postcode": "2715-455",
      "city": "ALMARGEM DO BISPO",
      "lon": "-9.296872825219362",
      "lat": "38.824894430170566"
    },
    {
      "id": "pt.ine.add.PTCONT.2469714",
      "street": "AV GEN BARNABE ANTÓNIO FERREIRA",
      "house": "68",
      "postcode": "2715-455",
      "city": "ALMARGEM DO BISPO",
      "lon": "-9.296383927886957",
      "lat": "38.82474534701175"
    },
    {
      "id": "pt.ine.add.PTCONT.2502122",
      "street": "AZ COXOS",
      "house": "26A",
      "postcode": "2715-371",
      "city": "ALMARGEM DO BISPO",
      "lon": "-9.2969741777793",
      "lat": "38.82482625595035"
    },
    {
      "id": "pt.ine.add.PTCONT.2502461",
      "street": "R ALTO DA PENA",
      "house": "",
      "postcode": "2715-366",
      "city": "ALMARGEM DO BISPO",
      "lon": "-9.297840310584368",
      "lat": "38.824224294532534"
    },
    {
      "id": "pt.ine.add.PTCONT.2518016",
      "street": "AV GEN BARNABÉ ANTÓNIO FERREIRA",
      "house": "36",
      "postcode": "2715-454",
      "city": "ALMARGEM DO BISPO",
      "lon": "-9.297941717025253",
      "lat": "38.82494600627835"
    },
    {
      "id": "pt.ine.add.PTCONT.2518017",
      "street": "AV GEN BARNABÉ ANTÓNIO FERREIRA",
      "house": "36",
      "postcode": "2715-454",
      "city": "ALMARGEM DO BISPO",
      "lon": "-9.297941717025253",
      "lat": "38.82494600627835"
    },
    {
      "id": "pt.ine.add.PTCONT.2518018",
      "street": "AV GEN BARNABÉ ANTÓNIO FERREIRA",
      "house": "36",
      "postcode": "2715-454",
      "city": "ALMARGEM DO BISPO",
      "lon": "-9.297941717025253",
      "lat": "38.82494600627835"
    },
    {
      "id": "pt.ine.add.PTCONT.2518019",
      "street": "AV GEN BARNABÉ ANTÓNIO FERREIRA",
      "house": "36",
      "postcode": "2715-454",
      "city": "ALMARGEM DO BISPO",
      "lon": "-9.297941717025253",
      "lat": "38.82494600627835"
    },
    {
      "id": "pt.ine.add.PTCONT.2518020",
      "street": "AV GEN BARNABÉ ANTÓNIO FERREIRA",
      "house": "36",
      "postcode": "2715-454",
      "city": "ALMARGEM DO BISPO",
      "lon": "-9.297941717025253",
      "lat": "38.82494600627835"
    },
    {
      "id": "pt.ine.add.PTCONT.2522736",
      "street": "AV GEN BARNABÉ ANTÓNIO FERREIRA",
      "house": "36",
      "postcode": "2715-454",
      "city": "ALMARGEM DO BISPO",
      "lon": "-9.297941717025253",
      "lat": "38.82494600627835"
    },
    {
      "id": "pt.ine.add.PTCONT.2613562",
      "street": "R ALTO PENA",
      "house": "6 A",
      "postcode": "2715-366",
      "city": "ALMARGEM DO BISPO",
      "lon": "-9.29772076672162",
      "lat": "38.82481309503674"
    },
    {
      "id": "pt.ine.add.PTCONT.2678530",
      "street": "AV GEN BARNABE ANTÓNIO FERREIRA",
      "house": "68B",
      "postcode": "2715-455",
      "city": "ALMARGEM DO BISPO",
      "lon": "-9.296302017227298",
      "lat": "38.82466509408877"
    },
    {
      "id": "pt.ine.add.PTCONT.2690079",
      "street": "AV GEN BARNABE ANTÓNIO FERREIRA",
      "house": "42",
      "postcode": "2715-454",
      "city": "ALMARGEM DO BISPO",
      "lon": "-9.29745743250203",
      "lat": "38.824905796384996"
    },
    {
      "id": "pt.ine.add.PTCONT.2697979",
      "street": "R ALTO DA PENA",
      "house": "4",
      "postcode": "2715-366",
      "city": "ALMARGEM DO BISPO",
      "lon": "-9.297702279463515",
      "lat": "38.82487931962851"
    },
    {
      "id": "pt.ine.add.PTCONT.2814565",
      "street": "TV COXOS",
      "house": "23",
      "postcode": "2715-372",
      "city": "ALMARGEM DO BISPO",
      "lon": "-9.297240570685974",
      "lat": "38.82470611951728"
    },
    {
      "id": "pt.ine.add.PTCONT.2839429",
      "street": "TV COXOS",
      "house": "1",
      "postcode": "2715-372",
      "city": "ALMARGEM DO BISPO",
      "lon": "-9.296610239828661",
      "lat": "38.824795670554266"
    },
    {
      "id": "pt.ine.add.PTCONT.2883893",
      "street": "AZ COXOS",
      "house": "1 3",
      "postcode": "2715-371",
      "city": "ALMARGEM DO BISPO",
      "lon": "-9.29670453513713",
      "lat": "38.824634062336514"
    },
    {
      "id": "pt.ine.add.PTCONT.2930260",
      "street": "R POMARINHO",
      "house": "10",
      "postcode": "2715-424",
      "city": "ALMARGEM DO BISPO",
      "lon": "-9.295528004505865",
      "lat": "38.82451066176935"
    },
    {
      "id": "pt.ine.add.PTCONT.2935572",
      "street": "AZ COXOS",
      "house": "4",
      "postcode": "2715-371",
      "city": "ALMARGEM DO BISPO",
      "lon": "-9.296833671539861",
      "lat": "38.82478590548133"
    },
    {
      "id": "pt.ine.add.PTCONT.3012780",
      "street": "R ALTO DA PENA PICADEIRO",
      "house": "5",
      "postcode": "2715-366",
      "city": "ALMARGEM DO BISPO",
      "lon": "-9.297578208007112",
      "lat": "38.82454428760608"
    },
    {
      "id": "pt.ine.add.PTCONT.3155400",
      "street": "AZ COXOS",
      "house": "9",
      "postcode": "2715-371",
      "city": "ALMARGEM DO BISPO",
      "lon": "-9.296818932750405",
      "lat": "38.82458788462705"
    },
    {
      "id": "pt.ine.add.PTCONT.3169512",
      "street": "TV COXOS",
      "house": "19",
      "postcode": "2715-372",
      "city": "ALMARGEM DO BISPO",
      "lon": "-9.297211694551809",
      "lat": "38.824612640647075"
    },
    {
      "id": "pt.ine.add.PTCONT.3169513",
      "street": "AZ COXOS",
      "house": "6",
      "postcode": "2715-371",
      "city": "ALMARGEM DO BISPO",
      "lon": "-9.296902679275153",
      "lat": "38.82407361580862"
    },
    {
      "id": "pt.ine.add.PTCONT.3201685",
      "street": "AV GEN BARNABE ANTÓNIO FERREIRA",
      "house": "68A",
      "postcode": "2715-455",
      "city": "ALMARGEM DO BISPO",
      "lon": "-9.296280896277146",
      "lat": "38.824782403496606"
    },
    {
      "id": "pt.ine.add.PTCONT.3293754",
      "street": "TV COXOS",
      "house": "2",
      "postcode": "2715-372",
      "city": "ALMARGEM DO BISPO",
      "lon": "-9.296761203486923",
      "lat": "38.824814495192534"
    },
    {
      "id": "pt.ine.add.PTCONT.3305889",
      "street": "TV COXOS",
      "house": "9",
      "postcode": "2715-372",
      "city": "ALMARGEM DO BISPO",
      "lon": "-9.296962227639273",
      "lat": "38.82458425464056"
    },
    {
      "id": "pt.ine.add.PTCONT.3327943",
      "street": "TV COXOS",
      "house": "15",
      "postcode": "2715-372",
      "city": "ALMARGEM DO BISPO",
      "lon": "-9.297007987973847",
      "lat": "38.82473877393713"
    },
    {
      "id": "pt.ine.add.PTCONT.3328153",
      "street": "TV COXOS",
      "house": "9",
      "postcode": "2715-372",
      "city": "ALMARGEM DO BISPO",
      "lon": "-9.2969884359161",
      "lat": "38.82465725520569"
    },
    {
      "id": "pt.ine.add.PTCONT.3355243",
      "street": "TV COXOS",
      "house": "21",
      "postcode": "2715-372",
      "city": "ALMARGEM DO BISPO",
      "lon": "-9.297246411557294",
      "lat": "38.824652838873625"
    },
    {
      "id": "pt.ine.add.PTCONT.3360256",
      "street": "TV COXOS",
      "house": "25",
      "postcode": "2715-372",
      "city": "ALMARGEM DO BISPO",
      "lon": "-9.297227046559044",
      "lat": "38.82474862434705"
    },
    {
      "id": "pt.ine.add.PTCONT.3378872",
      "street": "AV GEN BARNABE ANTÓNIO FERREIRA",
      "house": "62",
      "postcode": "2715-455",
      "city": "ALMARGEM DO BISPO",
      "lon": "-9.296303827884868",
      "lat": "38.824880097011494"
    },
    {
      "id": "pt.ine.add.PTCONT.3383615",
      "street": "R ESCUSAS",
      "house": "48",
      "postcode": "2715-374",
      "city": "ALMARGEM DO BISPO",
      "lon": "-9.296267391913913",
      "lat": "38.822217545801"
    },
    {
      "id": "pt.ine.add.PTCONT.3389227",
      "street": "AV GEN BARNABE ANTÓNIO FERREIRA",
      "house": "50",
      "postcode": "2715-454",
      "city": "ALMARGEM DO BISPO",
      "lon": "-9.297042071577245",
      "lat": "38.82490442047674"
    },
    {
      "id": "pt.ine.add.PTCONT.3419517",
      "street": "R ESCUSAS",
      "house": "38",
      "postcode": "2715-374",
      "city": "ALMARGEM DO BISPO",
      "lon": "-9.295527280076858",
      "lat": "38.822349593849104"
    },
    {
      "id": "pt.ine.add.PTCONT.3445215",
      "street": "AV GEN BARNABE ANTÓNIO FERREIRA",
      "house": "56",
      "postcode": "2715-455",
      "city": "ALMARGEM DO BISPO",
      "lon": "-9.29672463000875",
      "lat": "38.82489133603403"
    }
  ]
}