{
  "data": {
    "distrito": "Leiria",
    "concelho": "Leiria",
    "freguesia": "Uni√£o das freguesias de Monte Real e Carvide",
    "OBJECTID": 1181,
    "BGRI2021": "10093500305",
    "DT21": "10",
    "DTMN21": "1009",
    "DTMNFR21": "100935",
    "DTMNFRSEC21": "100935003",
    "SECNUM21": "003",
    "SSNUM21": "05",
    "SECSSNUM21": "00305",
    "OBJECTID_1": 90330,
    "DT": "10",
    "CC": "09",
    "fr": "35",
    "SEC": "003",
    "SS": "05"
  },
  "addresses": [
    {
      "id": "pt.ine.add.PTCONT.1997651",
      "street": "R JOAQUIM DUARTE CABRAL",
      "house": "17",
      "postcode": "2425-374",
      "city": "CARVIDE",
      "lon": "-8.906173883651304",
      "lat": "39.850659407870744"
    },
    {
      "id": "pt.ine.add.PTCONT.2015662",
      "street": "R JOAQUIM DUARTE CABRAL",
      "house": "33",
      "postcode": "2425-374",
      "city": "CARVIDE",
      "lon": "-8.905998422208226",
      "lat": "39.8506425645086"
    },
    {
      "id": "pt.ine.add.PTCONT.2022042",
      "street": "R JOAQUIM DUARTE CABRAL",
      "house": "46",
      "postcode": "2425-374",
      "city": "CARVIDE",
      "lon": "-8.905714574387202",
      "lat": "39.850338241748574"
    },
    {
      "id": "pt.ine.add.PTCONT.2026561",
      "street": "R JOAQUIM DUARTE CABRAL",
      "house": "115",
      "postcode": "2425-374",
      "city": "CARVIDE",
      "lon": "-8.9052867096468",
      "lat": "39.85073736718822"
    },
    {
      "id": "pt.ine.add.PTCONT.2027985",
      "street": "R PADRE BONIFACIO PEDROSA RIBEIRO",
      "house": "64",
      "postcode": "2425-366",
      "city": "CARVIDE",
      "lon": "-8.905560009417897",
      "lat": "39.85218555903512"
    },
    {
      "id": "pt.ine.add.PTCONT.2031027",
      "street": "R JOAQUIM DUARTE CABRAL",
      "house": "33",
      "postcode": "2425-374",
      "city": "CARVIDE",
      "lon": "-8.905741980883674",
      "lat": "39.85069831055335"
    },
    {
      "id": "pt.ine.add.PTCONT.2033453",
      "street": "R CAMINHO FUNDO",
      "house": "273",
      "postcode": "2425-367",
      "city": "CARVIDE",
      "lon": "-8.906510859535832",
      "lat": "39.84945031959069"
    },
    {
      "id": "pt.ine.add.PTCONT.2055326",
      "street": "R CAMINHO FUNDO",
      "house": "15",
      "postcode": "2425-367",
      "city": "CARVIDE",
      "lon": "-8.90604529207193",
      "lat": "39.8516959872689"
    },
    {
      "id": "pt.ine.add.PTCONT.2063407",
      "street": "R PORTO DAS VACAS",
      "house": "187",
      "postcode": "2425-383",
      "city": "CARVIDE",
      "lon": "-8.90535477290084",
      "lat": "39.849512059413414"
    },
    {
      "id": "pt.ine.add.PTCONT.2071871",
      "street": "R CAMINHO FUNDO",
      "house": "275",
      "postcode": "2425-367",
      "city": "CARVIDE",
      "lon": "-8.906347084856005",
      "lat": "39.84943339882505"
    },
    {
      "id": "pt.ine.add.PTCONT.2093666",
      "street": "R SERRADITA",
      "house": "34",
      "postcode": "2425-296",
      "city": "CARVIDE",
      "lon": "-8.905531391823429",
      "lat": "39.85171742296002"
    },
    {
      "id": "pt.ine.add.PTCONT.2109000",
      "street": "R CAMINHO FUNDO",
      "house": "79",
      "postcode": "2425-367",
      "city": "CARVIDE",
      "lon": "-8.905793664542902",
      "lat": "39.851139274163536"
    },
    {
      "id": "pt.ine.add.PTCONT.2125273",
      "street": "R JOAQUIM DUARTE CABRAL",
      "house": "78",
      "postcode": "2425-374",
      "city": "CARVIDE",
      "lon": "-8.90553207317544",
      "lat": "39.85073573361515"
    },
    {
      "id": "pt.ine.add.PTCONT.2149159",
      "street": "R SARITA",
      "house": "44",
      "postcode": "2425-383",
      "city": "CARVIDE",
      "lon": "-8.905533259420189",
      "lat": "39.84979907216902"
    },
    {
      "id": "pt.ine.add.PTCONT.2179662",
      "street": "R JOAQUIM DUARTE CABRAL",
      "house": "62",
      "postcode": "2425-374",
      "city": "CARVIDE",
      "lon": "-8.905495305338766",
      "lat": "39.85058287162"
    },
    {
      "id": "pt.ine.add.PTCONT.2184068",
      "street": "R PORTO DAS VACAS",
      "house": "167",
      "postcode": "2425-383",
      "city": "CARVIDE",
      "lon": "-8.905554911075967",
      "lat": "39.84964582114921"
    },
    {
      "id": "pt.ine.add.PTCONT.2190807",
      "street": "R PORTO DAS VACAS",
      "house": "123",
      "postcode": "2425-383",
      "city": "CARVIDE",
      "lon": "-8.906111591559569",
      "lat": "39.84927285520141"
    },
    {
      "id": "pt.ine.add.PTCONT.2190808",
      "street": "R JOAQUIM DUARTE CABRAL",
      "house": "98",
      "postcode": "2425-374",
      "city": "CARVIDE",
      "lon": "-8.905674098164393",
      "lat": "39.85089690090665"
    },
    {
      "id": "pt.ine.add.PTCONT.2190809",
      "street": "R JOAQUIM DUARTE CABRAL",
      "house": "98",
      "postcode": "2425-374",
      "city": "CARVIDE",
      "lon": "-8.905674098164393",
      "lat": "39.85089690090665"
    },
    {
      "id": "pt.ine.add.PTCONT.2211173",
      "street": "R PORTO DAS VACAS",
      "house": "143",
      "postcode": "2425-383",
      "city": "CARVIDE",
      "lon": "-8.905645251926401",
      "lat": "39.8493660246944"
    },
    {
      "id": "pt.ine.add.PTCONT.2234076",
      "street": "R CAMINHO FUNDO",
      "house": "235",
      "postcode": "2425-367",
      "city": "CARVIDE",
      "lon": "-8.906537158008424",
      "lat": "39.84971132650864"
    },
    {
      "id": "pt.ine.add.PTCONT.2236909",
      "street": "R JOAQUIM DUARTE CABRAL",
      "house": "135",
      "postcode": "2425-374",
      "city": "CARVIDE",
      "lon": "-8.905132598388882",
      "lat": "39.850540254718375"
    },
    {
      "id": "pt.ine.add.PTCONT.2236916",
      "street": "R SERRADITA",
      "house": "16",
      "postcode": "2425-296",
      "city": "CARVIDE",
      "lon": "-8.905768204916585",
      "lat": "39.851995040542555"
    },
    {
      "id": "pt.ine.add.PTCONT.2239319",
      "street": "R PORTO DAS VACAS",
      "house": "203",
      "postcode": "2425-383",
      "city": "CARVIDE",
      "lon": "-8.905098032585844",
      "lat": "39.8495407871686"
    },
    {
      "id": "pt.ine.add.PTCONT.2239320",
      "street": "R JOAQUIM DUARTE CABRAL",
      "house": "49",
      "postcode": "2425-374",
      "city": "CARVIDE",
      "lon": "-8.905717199440385",
      "lat": "39.85057238764214"
    },
    {
      "id": "pt.ine.add.PTCONT.2243513",
      "street": "R PORTO DAS VACAS",
      "house": "223",
      "postcode": "2425-383",
      "city": "CARVIDE",
      "lon": "-8.90494735381811",
      "lat": "39.84964986526712"
    }
  ]
}