{
  "data": {
    "distrito": "Leiria",
    "concelho": "Leiria",
    "freguesia": "Uni√£o das freguesias de Monte Real e Carvide",
    "OBJECTID": 1219,
    "BGRI2021": "10093500314",
    "DT21": "10",
    "DTMN21": "1009",
    "DTMNFR21": "100935",
    "DTMNFRSEC21": "100935003",
    "SECNUM21": "003",
    "SSNUM21": "14",
    "SECSSNUM21": "00314",
    "OBJECTID_1": 90961,
    "DT": "10",
    "CC": "09",
    "fr": "35",
    "SEC": "003",
    "SS": "14"
  },
  "addresses": [
    {
      "id": "pt.ine.add.PTCONT.1990612",
      "street": "R MATA NACIONAL",
      "house": "275",
      "postcode": "2425-361",
      "city": "CARVIDE",
      "lon": "-8.907213060688997",
      "lat": "39.86099168143576"
    },
    {
      "id": "pt.ine.add.PTCONT.2031073",
      "street": "R CENTRAL",
      "house": "329",
      "postcode": "2425-419",
      "city": "CARVIDE",
      "lon": "-8.907692096027782",
      "lat": "39.857863308049446"
    },
    {
      "id": "pt.ine.add.PTCONT.2033451",
      "street": "R PINHAL",
      "house": "28",
      "postcode": "2425-470",
      "city": "CARVIDE",
      "lon": "-8.905613430612464",
      "lat": "39.86111942740306"
    },
    {
      "id": "pt.ine.add.PTCONT.2037588",
      "street": "R PINHAL",
      "house": "",
      "postcode": "2425-397",
      "city": "CARVIDE",
      "lon": "-8.905183682528522",
      "lat": "39.861356451664165"
    },
    {
      "id": "pt.ine.add.PTCONT.2063242",
      "street": "R PINHAL",
      "house": "98",
      "postcode": "2425-470",
      "city": "CARVIDE",
      "lon": "-8.906169090826667",
      "lat": "39.860647399482616"
    },
    {
      "id": "pt.ine.add.PTCONT.2078977",
      "street": "R PINHAL",
      "house": "90",
      "postcode": "2425-470",
      "city": "CARVIDE",
      "lon": "-8.905983332744313",
      "lat": "39.860756712576574"
    },
    {
      "id": "pt.ine.add.PTCONT.2104542",
      "street": "R MATA NACIONAL",
      "house": "119",
      "postcode": "2425-361",
      "city": "CARVIDE",
      "lon": "-8.9057257735122",
      "lat": "39.861758124103474"
    },
    {
      "id": "pt.ine.add.PTCONT.2104543",
      "street": "R MATA NACIONAL",
      "house": "119",
      "postcode": "2425-361",
      "city": "CARVIDE",
      "lon": "-8.9057257735122",
      "lat": "39.861758124103474"
    },
    {
      "id": "pt.ine.add.PTCONT.2126724",
      "street": "R AREIA BRANCA",
      "house": "37",
      "postcode": "2425-468",
      "city": "CARVIDE",
      "lon": "-8.907382880550777",
      "lat": "39.86050420953918"
    },
    {
      "id": "pt.ine.add.PTCONT.2130957",
      "street": "R PINHAL",
      "house": "775",
      "postcode": "2425-397",
      "city": "CARVIDE",
      "lon": "-8.905252787782949",
      "lat": "39.86126592898776"
    },
    {
      "id": "pt.ine.add.PTCONT.2139490",
      "street": "R MATA NACIONAL",
      "house": "273",
      "postcode": "2425-361",
      "city": "CARVIDE",
      "lon": "-8.907097215389701",
      "lat": "39.86108251717003"
    },
    {
      "id": "pt.ine.add.PTCONT.2197061",
      "street": "R CENTRAL",
      "house": "663",
      "postcode": "2425-470",
      "city": "CARVIDE",
      "lon": "-8.905638792714804",
      "lat": "39.86025465674896"
    },
    {
      "id": "pt.ine.add.PTCONT.2217753",
      "street": "R CENTRAL",
      "house": "685",
      "postcode": "2425-397",
      "city": "CARVIDE",
      "lon": "-8.90562902588555",
      "lat": "39.86042584090167"
    },
    {
      "id": "pt.ine.add.PTCONT.2217797",
      "street": "R CENTRAL",
      "house": "517",
      "postcode": "2425-419",
      "city": "CARVIDE",
      "lon": "-8.906258494890968",
      "lat": "39.85924182562544"
    },
    {
      "id": "pt.ine.add.PTCONT.2236946",
      "street": "R CENTRAL",
      "house": "333",
      "postcode": "2425-419",
      "city": "CARVIDE",
      "lon": "-8.907705198710637",
      "lat": "39.85798930835422"
    }
  ]
}