{
  "data": {
    "distrito": "Guarda",
    "concelho": "Gouveia",
    "freguesia": "Gouveia",
    "OBJECTID": 320,
    "BGRI2021": "09062500111",
    "DT21": "09",
    "DTMN21": "0906",
    "DTMNFR21": "090625",
    "DTMNFRSEC21": "090625001",
    "SECNUM21": "001",
    "SSNUM21": "11",
    "SECSSNUM21": "00111",
    "OBJECTID_1": 77534,
    "DT": "09",
    "CC": "06",
    "fr": "25",
    "SEC": "001",
    "SS": "11"
  },
  "addresses": [
    {
      "id": "pt.ine.add.PTCONT.1910028",
      "street": "R ESCADAS DOS BELINOS",
      "house": "",
      "postcode": "6290-354",
      "city": "GOUVEIA",
      "lon": "-7.594350818852667",
      "lat": "40.4917067504079"
    },
    {
      "id": "pt.ine.add.PTCONT.1913947",
      "street": "ESC BELLINOS",
      "house": "3",
      "postcode": "6290-354",
      "city": "GOUVEIA",
      "lon": "-7.5944804194357385",
      "lat": "40.491725365229"
    },
    {
      "id": "pt.ine.add.PTCONT.1914796",
      "street": "TV FORNO",
      "house": "22",
      "postcode": "6290-355",
      "city": "GOUVEIA",
      "lon": "-7.594429495077739",
      "lat": "40.4921934070082"
    },
    {
      "id": "pt.ine.add.PTCONT.1919960",
      "street": "R DR ANTÓNIO MENDES",
      "house": "17",
      "postcode": "6290-321",
      "city": "GOUVEIA",
      "lon": "-7.594406697129089",
      "lat": "40.49209424170146"
    },
    {
      "id": "pt.ine.add.PTCONT.1925786",
      "street": "TV FORNO",
      "house": "",
      "postcode": "6290-355",
      "city": "GOUVEIA",
      "lon": "-7.593849014692881",
      "lat": "40.49250588776834"
    },
    {
      "id": "pt.ine.add.PTCONT.1932831",
      "street": "R DR ANTÓNIO MENDES",
      "house": "19",
      "postcode": "6290-321",
      "city": "GOUVEIA",
      "lon": "-7.594688122424629",
      "lat": "40.4923026765949"
    },
    {
      "id": "pt.ine.add.PTCONT.1953022",
      "street": "TV FORNO",
      "house": "12",
      "postcode": "6290-355",
      "city": "GOUVEIA",
      "lon": "-7.594263572054334",
      "lat": "40.492291692559576"
    },
    {
      "id": "pt.ine.add.PTCONT.1956851",
      "street": "R DR ANTÓNIO MENDES",
      "house": "15",
      "postcode": "6290-321",
      "city": "GOUVEIA",
      "lon": "-7.594430719249188",
      "lat": "40.492040321465254"
    },
    {
      "id": "pt.ine.add.PTCONT.1957888",
      "street": "TV FORNO",
      "house": "16",
      "postcode": "6290-355",
      "city": "GOUVEIA",
      "lon": "-7.594440930081128",
      "lat": "40.492238487143545"
    },
    {
      "id": "pt.ine.add.PTCONT.1962419",
      "street": "TV FORNO",
      "house": "24",
      "postcode": "6290-355",
      "city": "GOUVEIA",
      "lon": "-7.5944886863239525",
      "lat": "40.492166666782076"
    },
    {
      "id": "pt.ine.add.PTCONT.1854110",
      "street": "R DR ANTÓNIO MENDES",
      "house": "3",
      "postcode": "6290-321",
      "city": "GOUVEIA",
      "lon": "-7.594609948106873",
      "lat": "40.49175298493798"
    },
    {
      "id": "pt.ine.add.PTCONT.1861627",
      "street": "R ESCADAS DOS BELINOS",
      "house": "2",
      "postcode": "6290-354",
      "city": "GOUVEIA",
      "lon": "-7.59425458630537",
      "lat": "40.491940441329575"
    },
    {
      "id": "pt.ine.add.PTCONT.1861628",
      "street": "R ESCADAS DOS BELINOS",
      "house": "2",
      "postcode": "6290-354",
      "city": "GOUVEIA",
      "lon": "-7.59425458630537",
      "lat": "40.491940441329575"
    },
    {
      "id": "pt.ine.add.PTCONT.1874961",
      "street": "TV FORNO",
      "house": "10",
      "postcode": "6290-355",
      "city": "GOUVEIA",
      "lon": "-7.594263139857002",
      "lat": "40.49234572274782"
    },
    {
      "id": "pt.ine.add.PTCONT.1874962",
      "street": "TV FORNO",
      "house": "3",
      "postcode": "6290-355",
      "city": "GOUVEIA",
      "lon": "-7.594393461797638",
      "lat": "40.49227428735727"
    },
    {
      "id": "pt.ine.add.PTCONT.1888552",
      "street": "R DR ANTÓNIO MENDES",
      "house": "5",
      "postcode": "6290-321",
      "city": "GOUVEIA",
      "lon": "-7.59457333936205",
      "lat": "40.491905905612704"
    },
    {
      "id": "pt.ine.add.PTCONT.1896819",
      "street": "R ESCADAS DOS BELINOS",
      "house": "8",
      "postcode": "6290-354",
      "city": "GOUVEIA",
      "lon": "-7.594218552954519",
      "lat": "40.49202132162719"
    }
  ]
}