{
  "data": {
    "distrito": "Portalegre",
    "concelho": "Portalegre",
    "freguesia": "Urra",
    "OBJECTID": 276,
    "BGRI2021": "12141000232",
    "DT21": "12",
    "DTMN21": "1214",
    "DTMNFR21": "121410",
    "DTMNFRSEC21": "121410002",
    "SECNUM21": "002",
    "SSNUM21": "32",
    "SECSSNUM21": "00232",
    "OBJECTID_1": 124812,
    "DT": "12",
    "CC": "14",
    "fr": "10",
    "SEC": "002",
    "SS": "32"
  },
  "addresses": [
    {
      "id": "pt.ine.add.PTCONT.3459913",
      "street": "R BOA FE",
      "house": "19",
      "postcode": "7300-594",
      "city": "PORTALEGRE",
      "lon": "-7.396994911227786",
      "lat": "39.22799769688233"
    },
    {
      "id": "pt.ine.add.PTCONT.3465759",
      "street": "R CAMPO FUTEBOL",
      "house": "6",
      "postcode": "7300-605",
      "city": "PORTALEGRE",
      "lon": "-7.397055246762699",
      "lat": "39.2278296047796"
    },
    {
      "id": "pt.ine.add.PTCONT.3466685",
      "street": "R CAMPO DE FUTEBOL",
      "house": "2",
      "postcode": "7300-605",
      "city": "PORTALEGRE",
      "lon": "-7.396849067853508",
      "lat": "39.227671354010766"
    },
    {
      "id": "pt.ine.add.PTCONT.3472420",
      "street": "R CAMPO DE FUTEBOL",
      "house": "4",
      "postcode": "7300-605",
      "city": "PORTALEGRE",
      "lon": "-7.396952441624757",
      "lat": "39.227753072623464"
    },
    {
      "id": "pt.ine.add.PTCONT.3473789",
      "street": "LG JOSE ELIAS MARISA",
      "house": "28",
      "postcode": "7300-570",
      "city": "PORTALEGRE",
      "lon": "-7.397184787166568",
      "lat": "39.22804645675454"
    },
    {
      "id": "pt.ine.add.PTCONT.3477825",
      "street": "R BOA FE",
      "house": "5",
      "postcode": "7300-594",
      "city": "PORTALEGRE",
      "lon": "-7.3969139226977525",
      "lat": "39.22794658861514"
    },
    {
      "id": "pt.ine.add.PTCONT.3496239",
      "street": "R BOA FE",
      "house": "3",
      "postcode": "7300-594",
      "city": "PORTALEGRE",
      "lon": "-7.396801976823297",
      "lat": "39.22783591692583"
    },
    {
      "id": "pt.ine.add.PTCONT.3510885",
      "street": "R CAMPO DE FUTEBOL",
      "house": "10",
      "postcode": "7300-605",
      "city": "PORTALEGRE",
      "lon": "-7.397201507812413",
      "lat": "39.22799366192129"
    },
    {
      "id": "pt.ine.add.PTCONT.3515334",
      "street": "R BOA FE",
      "house": "1",
      "postcode": "7300-594",
      "city": "PORTALEGRE",
      "lon": "-7.396744641076379",
      "lat": "39.227781510980414"
    },
    {
      "id": "pt.ine.add.PTCONT.3519508",
      "street": "AV LIBERDADE",
      "house": "30",
      "postcode": "7300-575",
      "city": "PORTALEGRE",
      "lon": "-7.3971337674314634",
      "lat": "39.22807329665867"
    },
    {
      "id": "pt.ine.add.PTCONT.3524445",
      "street": "R CAMPO DE FUTEBOL",
      "house": "8",
      "postcode": "7300-605",
      "city": "PORTALEGRE",
      "lon": "-7.3971240688217605",
      "lat": "39.22789309039899"
    }
  ]
}