{
  "data": {
    "distrito": "Aveiro",
    "concelho": "Ovar",
    "freguesia": "União das freguesias de Ovar, São João, Arada e São Vicente de Pereira Jusã",
    "OBJECTID": 378,
    "BGRI2021": "01150901418",
    "DT21": "01",
    "DTMN21": "0115",
    "DTMNFR21": "011509",
    "DTMNFRSEC21": "011509014",
    "SECNUM21": "014",
    "SSNUM21": "18",
    "SECSSNUM21": "01418",
    "OBJECTID_1": 10745,
    "DT": "01",
    "CC": "15",
    "fr": "09",
    "SEC": "014",
    "SS": "18"
  },
  "addresses": [
    {
      "id": "pt.ine.add.PTCONT.301890",
      "street": "TV RELVAS",
      "house": "119",
      "postcode": "3885-162",
      "city": "ARADA",
      "lon": "-8.597858824586877",
      "lat": "40.9135097149703"
    },
    {
      "id": "pt.ine.add.PTCONT.304465",
      "street": "R CRUZINHA",
      "house": "99",
      "postcode": "3885-152",
      "city": "ARADA",
      "lon": "-8.598776910078131",
      "lat": "40.91578420722676"
    },
    {
      "id": "pt.ine.add.PTCONT.312208",
      "street": "R ESTRADA NOVA",
      "house": "800",
      "postcode": "3885-154",
      "city": "ARADA",
      "lon": "-8.597743360330503",
      "lat": "40.91227653228498"
    },
    {
      "id": "pt.ine.add.PTCONT.347497",
      "street": "R RELVAS",
      "house": "197",
      "postcode": "3885-159",
      "city": "ARADA",
      "lon": "-8.597365145800918",
      "lat": "40.914205067538234"
    },
    {
      "id": "pt.ine.add.PTCONT.1205",
      "street": "R CALVÁRIO",
      "house": "697",
      "postcode": "3885-108",
      "city": "ARADA",
      "lon": "-8.597270661137058",
      "lat": "40.9159703742249"
    },
    {
      "id": "pt.ine.add.PTCONT.15010",
      "street": "TV RELVAS",
      "house": "19",
      "postcode": "3885-162",
      "city": "ARADA",
      "lon": "-8.5979593958629",
      "lat": "40.914310730408346"
    },
    {
      "id": "pt.ine.add.PTCONT.16840",
      "street": "R RELVAS",
      "house": "",
      "postcode": "3885-159",
      "city": "ARADA",
      "lon": "-8.598020511548528",
      "lat": "40.91456261639814"
    },
    {
      "id": "pt.ine.add.PTCONT.22617",
      "street": "R RELVAS",
      "house": "122",
      "postcode": "3885-159",
      "city": "ARADA",
      "lon": "-8.597842084290427",
      "lat": "40.914509307224534"
    },
    {
      "id": "pt.ine.add.PTCONT.23886",
      "street": "R FÁBRICA",
      "house": "325",
      "postcode": "3885-064",
      "city": "ARADA",
      "lon": "-8.596289010170988",
      "lat": "40.9147856973686"
    },
    {
      "id": "pt.ine.add.PTCONT.23888",
      "street": "R FÁBRICA",
      "house": "325",
      "postcode": "3885-064",
      "city": "ARADA",
      "lon": "-8.596289010170988",
      "lat": "40.9147856973686"
    },
    {
      "id": "pt.ine.add.PTCONT.47504",
      "street": "TV RELVAS",
      "house": "89",
      "postcode": "3885-162",
      "city": "ARADA",
      "lon": "-8.597943174139337",
      "lat": "40.913689469574976"
    },
    {
      "id": "pt.ine.add.PTCONT.52424",
      "street": "R ESTRADA NOVA",
      "house": "742",
      "postcode": "3885-154",
      "city": "ARADA",
      "lon": "-8.597527251618029",
      "lat": "40.911926218287995"
    },
    {
      "id": "pt.ine.add.PTCONT.56181",
      "street": "R FÁBRICA",
      "house": "221",
      "postcode": "3885-064",
      "city": "ARADA",
      "lon": "-8.59592619173773",
      "lat": "40.91382364818022"
    },
    {
      "id": "pt.ine.add.PTCONT.56182",
      "street": "R FÁBRICA",
      "house": "221",
      "postcode": "3885-064",
      "city": "ARADA",
      "lon": "-8.59592619173773",
      "lat": "40.91382364818022"
    },
    {
      "id": "pt.ine.add.PTCONT.59694",
      "street": "TV RELVAS",
      "house": "39",
      "postcode": "3885-162",
      "city": "ARADA",
      "lon": "-8.597886599999368",
      "lat": "40.914085905633144"
    },
    {
      "id": "pt.ine.add.PTCONT.66935",
      "street": "R FÁBRICA",
      "house": "381",
      "postcode": "3885-064",
      "city": "ARADA",
      "lon": "-8.596340198464034",
      "lat": "40.915316770624464"
    },
    {
      "id": "pt.ine.add.PTCONT.95753",
      "street": "R PREGUICA",
      "house": "396",
      "postcode": "3885-132",
      "city": "ARADA",
      "lon": "-8.596709139609102",
      "lat": "40.91205557628599"
    },
    {
      "id": "pt.ine.add.PTCONT.100687",
      "street": "R CRUZINHA",
      "house": "167",
      "postcode": "3885-152",
      "city": "ARADA",
      "lon": "-8.599356522636157",
      "lat": "40.91549371405448"
    },
    {
      "id": "pt.ine.add.PTCONT.123315",
      "street": "R FÁBRICA",
      "house": "81",
      "postcode": "3885-064",
      "city": "ARADA",
      "lon": "-8.595680448449205",
      "lat": "40.912627005143115"
    },
    {
      "id": "pt.ine.add.PTCONT.127282",
      "street": "R ESTRADA NOVA",
      "house": "1084",
      "postcode": "3885-154",
      "city": "ARADA",
      "lon": "-8.599149355983158",
      "lat": "40.91472914976069"
    },
    {
      "id": "pt.ine.add.PTCONT.128790",
      "street": "R FÁBRICA",
      "house": "373",
      "postcode": "3885-064",
      "city": "ARADA",
      "lon": "-8.596457956045864",
      "lat": "40.91518122664812"
    },
    {
      "id": "pt.ine.add.PTCONT.154873",
      "street": "R RELVAS",
      "house": "140",
      "postcode": "3885-159",
      "city": "ARADA",
      "lon": "-8.597841012320785",
      "lat": "40.91435623118229"
    },
    {
      "id": "pt.ine.add.PTCONT.156288",
      "street": "TV RELVAS",
      "house": "109",
      "postcode": "3885-162",
      "city": "ARADA",
      "lon": "-8.59787126185784",
      "lat": "40.9135907074037"
    },
    {
      "id": "pt.ine.add.PTCONT.182133",
      "street": "R ESTRADA NOVA",
      "house": "982",
      "postcode": "3885-154",
      "city": "ARADA",
      "lon": "-8.598656181526254",
      "lat": "40.91380365484888"
    },
    {
      "id": "pt.ine.add.PTCONT.184147",
      "street": "R FÁBRICA",
      "house": "50",
      "postcode": "3885-064",
      "city": "ARADA",
      "lon": "-8.595654701082047",
      "lat": "40.912338957036894"
    },
    {
      "id": "pt.ine.add.PTCONT.186949",
      "street": "R FÁBRICA",
      "house": "75",
      "postcode": "3885-064",
      "city": "ARADA",
      "lon": "-8.59566801404127",
      "lat": "40.912546012444615"
    },
    {
      "id": "pt.ine.add.PTCONT.211117",
      "street": "R ESTRADA NOVA",
      "house": "964",
      "postcode": "3885-154",
      "city": "ARADA",
      "lon": "-8.598608197086866",
      "lat": "40.9137318107265"
    },
    {
      "id": "pt.ine.add.PTCONT.213558",
      "street": "TV RELVAS",
      "house": "31",
      "postcode": "3885-162",
      "city": "ARADA",
      "lon": "-8.597935151542607",
      "lat": "40.914238790314066"
    },
    {
      "id": "pt.ine.add.PTCONT.219603",
      "street": "R FÁBRICA",
      "house": "295",
      "postcode": "3885-064",
      "city": "ARADA",
      "lon": "-8.596121197154963",
      "lat": "40.91455224835738"
    },
    {
      "id": "pt.ine.add.PTCONT.224813",
      "street": "R CALVÁRIO",
      "house": "747",
      "postcode": "3885-108",
      "city": "ARADA",
      "lon": "-8.597700194065837",
      "lat": "40.91628380991131"
    },
    {
      "id": "pt.ine.add.PTCONT.240181",
      "street": "ESTR NOVA",
      "house": "54",
      "postcode": "3885-154",
      "city": "ARADA",
      "lon": "-8.598775763985078",
      "lat": "40.9139292382253"
    },
    {
      "id": "pt.ine.add.PTCONT.240182",
      "street": "ESTR NOVA",
      "house": "54",
      "postcode": "3885-154",
      "city": "ARADA",
      "lon": "-8.598775763985078",
      "lat": "40.9139292382253"
    },
    {
      "id": "pt.ine.add.PTCONT.245690",
      "street": "R RELVAS",
      "house": "223",
      "postcode": "3885-159",
      "city": "ARADA",
      "lon": "-8.59691503489179",
      "lat": "40.914341949627385"
    },
    {
      "id": "pt.ine.add.PTCONT.246526",
      "street": "R FÁBRICA",
      "house": "201",
      "postcode": "3885-064",
      "city": "ARADA",
      "lon": "-8.595877331183289",
      "lat": "40.913625740231964"
    },
    {
      "id": "pt.ine.add.PTCONT.250907",
      "street": "R CRUZINHA",
      "house": "33",
      "postcode": "3885-152",
      "city": "ARADA",
      "lon": "-8.598032245221647",
      "lat": "40.916237448063946"
    },
    {
      "id": "pt.ine.add.PTCONT.276981",
      "street": "R CRUZINHA",
      "house": "95",
      "postcode": "3885-152",
      "city": "ARADA",
      "lon": "-8.598695082584557",
      "lat": "40.915964632118396"
    },
    {
      "id": "pt.ine.add.PTCONT.285843",
      "street": "R RELVAS",
      "house": "60",
      "postcode": "3885-159",
      "city": "ARADA",
      "lon": "-8.598220533269458",
      "lat": "40.91430967748114"
    },
    {
      "id": "pt.ine.add.PTCONT.285844",
      "street": "R RELVAS",
      "house": "60",
      "postcode": "3885-159",
      "city": "ARADA",
      "lon": "-8.598220533269458",
      "lat": "40.91430967748114"
    }
  ]
}