{
  "data": {
    "distrito": "Leiria",
    "concelho": "Peniche",
    "freguesia": "Atouguia da Baleia",
    "OBJECTID": 333,
    "BGRI2021": "10140201009",
    "DT21": "10",
    "DTMN21": "1014",
    "DTMNFR21": "101402",
    "DTMNFRSEC21": "101402010",
    "SECNUM21": "010",
    "SSNUM21": "09",
    "SECSSNUM21": "01009",
    "OBJECTID_1": 94524,
    "DT": "10",
    "CC": "14",
    "fr": "02",
    "SEC": "010",
    "SS": "09"
  },
  "addresses": [
    {
      "id": "pt.ine.add.PTCONT.1987763",
      "street": "R ALBERTO HIPOLITO",
      "house": "8",
      "postcode": "2525-753",
      "city": "ATOUGUIA DA BALEIA",
      "lon": "-9.34234652253659",
      "lat": "39.30991247607149"
    },
    {
      "id": "pt.ine.add.PTCONT.1993452",
      "street": "R FR DOMINGOS SANCHES",
      "house": "6",
      "postcode": "2525-771",
      "city": "ATOUGUIA DA BALEIA",
      "lon": "-9.340524877338765",
      "lat": "39.30983231022112"
    },
    {
      "id": "pt.ine.add.PTCONT.2004853",
      "street": "R FR DOMINGOS SANCHES",
      "house": "3",
      "postcode": "2525-771",
      "city": "ATOUGUIA DA BALEIA",
      "lon": "-9.340978646961824",
      "lat": "39.309251162601804"
    },
    {
      "id": "pt.ine.add.PTCONT.2014158",
      "street": "R FR DOMINGOS SANCHES",
      "house": "19",
      "postcode": "2525-771",
      "city": "ATOUGUIA DA BALEIA",
      "lon": "-9.339801398372247",
      "lat": "39.310911630314166"
    },
    {
      "id": "pt.ine.add.PTCONT.2018403",
      "street": "R ALBERTO HIPOLITO",
      "house": "7",
      "postcode": "2525-753",
      "city": "ATOUGUIA DA BALEIA",
      "lon": "-9.342568940840561",
      "lat": "39.31003626148746"
    },
    {
      "id": "pt.ine.add.PTCONT.2018808",
      "street": "R ALBERTO HIPOLITO",
      "house": "7",
      "postcode": "2525-753",
      "city": "ATOUGUIA DA BALEIA",
      "lon": "-9.342568940840561",
      "lat": "39.31003626148746"
    },
    {
      "id": "pt.ine.add.PTCONT.2024975",
      "street": "TV ULMEIROS",
      "house": "2",
      "postcode": "2525-771",
      "city": "ATOUGUIA DA BALEIA",
      "lon": "-9.340549333333842",
      "lat": "39.311255142336385"
    },
    {
      "id": "pt.ine.add.PTCONT.2027516",
      "street": "TV ULMEIROS CASA DA VINHA",
      "house": "6",
      "postcode": "2525-771",
      "city": "ATOUGUIA DA BALEIA",
      "lon": "-9.34048440710073",
      "lat": "39.31085050658959"
    },
    {
      "id": "pt.ine.add.PTCONT.2033667",
      "street": "R FR DOMINGOS SANCHES",
      "house": "",
      "postcode": "2525-771",
      "city": "ATOUGUIA DA BALEIA",
      "lon": "-9.340865824535285",
      "lat": "39.309432470735736"
    },
    {
      "id": "pt.ine.add.PTCONT.2058252",
      "street": "R FR DOMINGOS SANCHES",
      "house": "7",
      "postcode": "2525-771",
      "city": "ATOUGUIA DA BALEIA",
      "lon": "-9.34065130555049",
      "lat": "39.30976795063123"
    },
    {
      "id": "pt.ine.add.PTCONT.2079689",
      "street": "R REI D DINIS",
      "house": "",
      "postcode": "2525-524",
      "city": "ATOUGUIA DA BALEIA",
      "lon": "-9.3360711862137",
      "lat": "39.311094350205494"
    },
    {
      "id": "pt.ine.add.PTCONT.2083882",
      "street": "R FR DOMINGOS SANCHES",
      "house": "L B",
      "postcode": "2525-771",
      "city": "ATOUGUIA DA BALEIA",
      "lon": "-9.340670774353859",
      "lat": "39.3095515837031"
    },
    {
      "id": "pt.ine.add.PTCONT.2086500",
      "street": "R GATO CINZENTO",
      "house": "3",
      "postcode": "2525-367",
      "city": "ATOUGUIA DA BALEIA",
      "lon": "-9.336412428153809",
      "lat": "39.312063565432176"
    },
    {
      "id": "pt.ine.add.PTCONT.2088608",
      "street": "TV ULMEIROS",
      "house": "20",
      "postcode": "2525-771",
      "city": "ATOUGUIA DA BALEIA",
      "lon": "-9.34037557443131",
      "lat": "39.30991492066721"
    },
    {
      "id": "pt.ine.add.PTCONT.2101714",
      "street": "LG CRUZEIRO",
      "house": "2",
      "postcode": "2525-751",
      "city": "ATOUGUIA DA BALEIA",
      "lon": "-9.341141397875642",
      "lat": "39.30927649430524"
    },
    {
      "id": "pt.ine.add.PTCONT.2116276",
      "street": "R ALBERTO HIPOLITO",
      "house": "6",
      "postcode": "2525-753",
      "city": "ATOUGUIA DA BALEIA",
      "lon": "-9.342143104319929",
      "lat": "39.30954530732415"
    },
    {
      "id": "pt.ine.add.PTCONT.2136895",
      "street": "R FR DOMINGOS SANCHES",
      "house": "8",
      "postcode": "2525-771",
      "city": "ATOUGUIA DA BALEIA",
      "lon": "-9.340813128664612",
      "lat": "39.30973925117239"
    },
    {
      "id": "pt.ine.add.PTCONT.2147711",
      "street": "R FR DOMINGOS SANCHES",
      "house": "9",
      "postcode": "2525-771",
      "city": "ATOUGUIA DA BALEIA",
      "lon": "-9.341015900037354",
      "lat": "39.30939488601287"
    },
    {
      "id": "pt.ine.add.PTCONT.2162982",
      "street": "R FR DOMINGOS SANCHES",
      "house": "1",
      "postcode": "2525-771",
      "city": "ATOUGUIA DA BALEIA",
      "lon": "-9.341116975287433",
      "lat": "39.30920469277133"
    },
    {
      "id": "pt.ine.add.PTCONT.2171755",
      "street": "R ALBERTO HIPOLITO CASAÇ DOS PATOSCOS",
      "house": "2",
      "postcode": "2525-753",
      "city": "ATOUGUIA DA BALEIA",
      "lon": "-9.341933984764738",
      "lat": "39.309520458568365"
    },
    {
      "id": "pt.ine.add.PTCONT.2171756",
      "street": "R ALBERTO HIPOLITO CASAÇ DOS PATOSCOS",
      "house": "2",
      "postcode": "2525-753",
      "city": "ATOUGUIA DA BALEIA",
      "lon": "-9.341933984764738",
      "lat": "39.309520458568365"
    },
    {
      "id": "pt.ine.add.PTCONT.2171757",
      "street": "R ALBERTO HIPOLITO CASAÇ DOS PATOSCOS",
      "house": "2",
      "postcode": "2525-753",
      "city": "ATOUGUIA DA BALEIA",
      "lon": "-9.341933984764738",
      "lat": "39.309520458568365"
    },
    {
      "id": "pt.ine.add.PTCONT.2171758",
      "street": "R ALBERTO HIPOLITO CASAÇ DOS PATOSCOS",
      "house": "2",
      "postcode": "2525-753",
      "city": "ATOUGUIA DA BALEIA",
      "lon": "-9.341933984764738",
      "lat": "39.309520458568365"
    },
    {
      "id": "pt.ine.add.PTCONT.2171759",
      "street": "R ALBERTO HIPOLITO CASAÇ DOS PATOSCOS",
      "house": "2",
      "postcode": "2525-753",
      "city": "ATOUGUIA DA BALEIA",
      "lon": "-9.341933984764738",
      "lat": "39.309520458568365"
    },
    {
      "id": "pt.ine.add.PTCONT.2171760",
      "street": "R ALBERTO HIPOLITO CASAÇ DOS PATOSCOS",
      "house": "2",
      "postcode": "2525-753",
      "city": "ATOUGUIA DA BALEIA",
      "lon": "-9.341933984764738",
      "lat": "39.309520458568365"
    },
    {
      "id": "pt.ine.add.PTCONT.2180389",
      "street": "TV ULMEIROS",
      "house": "ZZ",
      "postcode": "2525-771",
      "city": "ATOUGUIA DA BALEIA",
      "lon": "-9.340351307140155",
      "lat": "39.309852124239846"
    },
    {
      "id": "pt.ine.add.PTCONT.2184773",
      "street": "R FR DOMINGOS SANCHES",
      "house": "2 A",
      "postcode": "2525-771",
      "city": "ATOUGUIA DA BALEIA",
      "lon": "-9.340715903669954",
      "lat": "39.309479060535004"
    },
    {
      "id": "pt.ine.add.PTCONT.2211860",
      "street": "R FR DOMINGOS SANCHES",
      "house": "5",
      "postcode": "2525-771",
      "city": "ATOUGUIA DA BALEIA",
      "lon": "-9.341003069426762",
      "lat": "39.30932296416612"
    },
    {
      "id": "pt.ine.add.PTCONT.2235509",
      "street": "R FR DOMINGOS SANCHES",
      "house": "1 B",
      "postcode": "2525-771",
      "city": "ATOUGUIA DA BALEIA",
      "lon": "-9.340808793851362",
      "lat": "39.30948710369397"
    },
    {
      "id": "pt.ine.add.PTCONT.2242290",
      "street": "R ALBERTO HIPOLITO",
      "house": "6",
      "postcode": "2525-753",
      "city": "ATOUGUIA DA BALEIA",
      "lon": "-9.342272320522667",
      "lat": "39.309643040726044"
    },
    {
      "id": "pt.ine.add.PTCONT.2249010",
      "street": "R ALBERTO HIPOLITO",
      "house": "12 17",
      "postcode": "2525-753",
      "city": "ATOUGUIA DA BALEIA",
      "lon": "-9.342898014425062",
      "lat": "39.3102940410991"
    },
    {
      "id": "pt.ine.add.PTCONT.2249011",
      "street": "R ALBERTO HIPOLITO",
      "house": "12 17",
      "postcode": "2525-753",
      "city": "ATOUGUIA DA BALEIA",
      "lon": "-9.342898014425062",
      "lat": "39.3102940410991"
    },
    {
      "id": "pt.ine.add.PTCONT.2249012",
      "street": "R ALBERTO HIPOLITO",
      "house": "12 17",
      "postcode": "2525-753",
      "city": "ATOUGUIA DA BALEIA",
      "lon": "-9.342898014425062",
      "lat": "39.3102940410991"
    },
    {
      "id": "pt.ine.add.PTCONT.2249013",
      "street": "R ALBERTO HIPOLITO",
      "house": "12 17",
      "postcode": "2525-753",
      "city": "ATOUGUIA DA BALEIA",
      "lon": "-9.342898014425062",
      "lat": "39.3102940410991"
    },
    {
      "id": "pt.ine.add.PTCONT.2249014",
      "street": "R ALBERTO HIPOLITO",
      "house": "12 17",
      "postcode": "2525-753",
      "city": "ATOUGUIA DA BALEIA",
      "lon": "-9.342898014425062",
      "lat": "39.3102940410991"
    },
    {
      "id": "pt.ine.add.PTCONT.2249015",
      "street": "R ALBERTO HIPOLITO",
      "house": "12 17",
      "postcode": "2525-753",
      "city": "ATOUGUIA DA BALEIA",
      "lon": "-9.342898014425062",
      "lat": "39.3102940410991"
    },
    {
      "id": "pt.ine.add.PTCONT.2249016",
      "street": "R ALBERTO HIPOLITO",
      "house": "12 17",
      "postcode": "2525-753",
      "city": "ATOUGUIA DA BALEIA",
      "lon": "-9.342898014425062",
      "lat": "39.3102940410991"
    },
    {
      "id": "pt.ine.add.PTCONT.2249017",
      "street": "R ALBERTO HIPOLITO",
      "house": "12 17",
      "postcode": "2525-753",
      "city": "ATOUGUIA DA BALEIA",
      "lon": "-9.342898014425062",
      "lat": "39.3102940410991"
    },
    {
      "id": "pt.ine.add.PTCONT.2255067",
      "street": "LG CRUZEIRO",
      "house": "4",
      "postcode": "2525-751",
      "city": "ATOUGUIA DA BALEIA",
      "lon": "-9.341060719206878",
      "lat": "39.30930435218266"
    },
    {
      "id": "pt.ine.add.PTCONT.2255921",
      "street": "R FR DOMINGOS SANCHES",
      "house": "21",
      "postcode": "2525-771",
      "city": "ATOUGUIA DA BALEIA",
      "lon": "-9.339465689608089",
      "lat": "39.31094213061117"
    }
  ]
}