{
  "data": {
    "distrito": "Guarda",
    "concelho": "Celorico da Beira",
    "freguesia": "Vale de Azares",
    "OBJECTID": 464,
    "BGRI2021": "09031800108",
    "DT21": "09",
    "DTMN21": "0903",
    "DTMNFR21": "090318",
    "DTMNFRSEC21": "090318001",
    "SECNUM21": "001",
    "SSNUM21": "08",
    "SECSSNUM21": "00108",
    "OBJECTID_1": 76007,
    "DT": "09",
    "CC": "03",
    "fr": "18",
    "SEC": "001",
    "SS": "08"
  },
  "addresses": [
    {
      "id": "pt.ine.add.PTCONT.1900994",
      "street": "R JOSÉ RESENDE",
      "house": "",
      "postcode": "6360-181",
      "city": "VALE DE AZARES",
      "lon": "-7.370231278011154",
      "lat": "40.60057851569305"
    },
    {
      "id": "pt.ine.add.PTCONT.1906477",
      "street": "R ESCURA",
      "house": "2",
      "postcode": "6360-181",
      "city": "VALE DE AZARES",
      "lon": "-7.369307129562477",
      "lat": "40.59977095077178"
    },
    {
      "id": "pt.ine.add.PTCONT.1907365",
      "street": "R JOSÉ RESENDE",
      "house": "",
      "postcode": "6360-182",
      "city": "VALE DE AZARES",
      "lon": "-7.37032234841749",
      "lat": "40.60192088249461"
    },
    {
      "id": "pt.ine.add.PTCONT.1922045",
      "street": "R ESCURA",
      "house": "4",
      "postcode": "6360-181",
      "city": "VALE DE AZARES",
      "lon": "-7.3694359498154345",
      "lat": "40.599870859101514"
    },
    {
      "id": "pt.ine.add.PTCONT.1925843",
      "street": "R JOSÉ RESENDE",
      "house": "13",
      "postcode": "6360-182",
      "city": "VALE DE AZARES",
      "lon": "-7.370661311918116",
      "lat": "40.60328289588383"
    },
    {
      "id": "pt.ine.add.PTCONT.1929700",
      "street": "R ESCURA",
      "house": "8",
      "postcode": "6360-181",
      "city": "VALE DE AZARES",
      "lon": "-7.369506215569608",
      "lat": "40.599925354494275"
    },
    {
      "id": "pt.ine.add.PTCONT.1937025",
      "street": "R DA LADEIRA",
      "house": "82",
      "postcode": "6360-180",
      "city": "VALE DE AZARES",
      "lon": "-7.367642983149032",
      "lat": "40.60273162860418"
    },
    {
      "id": "pt.ine.add.PTCONT.1941128",
      "street": "R JOSÉ RESENDE",
      "house": "6",
      "postcode": "6360-182",
      "city": "VALE DE AZARES",
      "lon": "-7.368800048022855",
      "lat": "40.603837917395914"
    },
    {
      "id": "pt.ine.add.PTCONT.1952101",
      "street": "R DA IGREJA",
      "house": "8",
      "postcode": "6360-182",
      "city": "VALE DE AZARES",
      "lon": "-7.369919383944686",
      "lat": "40.60307087771956"
    },
    {
      "id": "pt.ine.add.PTCONT.1957183",
      "street": "LG JÚLIO MAGALHÃES DE CASTRO",
      "house": "1",
      "postcode": "6360-182",
      "city": "VALE DE AZARES",
      "lon": "-7.370234573625741",
      "lat": "40.603406149916715"
    },
    {
      "id": "pt.ine.add.PTCONT.1962871",
      "street": "LG JÚLIO MAGALHÃES DE CASTRO",
      "house": "7",
      "postcode": "6360-182",
      "city": "VALE DE AZARES",
      "lon": "-7.370196469461394",
      "lat": "40.603640031685124"
    },
    {
      "id": "pt.ine.add.PTCONT.1971837",
      "street": "R JOSÉ RESENDE",
      "house": "14",
      "postcode": "6360-182",
      "city": "VALE DE AZARES",
      "lon": "-7.370993229773524",
      "lat": "40.6031860300389"
    },
    {
      "id": "pt.ine.add.PTCONT.1849150",
      "street": "R JOSÉ RESENDE",
      "house": "15",
      "postcode": "6360-182",
      "city": "VALE DE AZARES",
      "lon": "-7.370543888006502",
      "lat": "40.603219084735855"
    },
    {
      "id": "pt.ine.add.PTCONT.1853116",
      "street": "R DO FUNDO",
      "house": "6",
      "postcode": "6360-182",
      "city": "VALE DE AZARES",
      "lon": "-7.370436538337597",
      "lat": "40.60330842725913"
    },
    {
      "id": "pt.ine.add.PTCONT.1854873",
      "street": "R JOSÉ RESENDE",
      "house": "",
      "postcode": "6360-182",
      "city": "VALE DE AZARES",
      "lon": "-7.370047047319085",
      "lat": "40.602234243742394"
    },
    {
      "id": "pt.ine.add.PTCONT.1856087",
      "street": "R DA IGREJA",
      "house": "10",
      "postcode": "6360-182",
      "city": "VALE DE AZARES",
      "lon": "-7.370426361965796",
      "lat": "40.60316427792743"
    },
    {
      "id": "pt.ine.add.PTCONT.1860879",
      "street": "LG JÚLIO MAGALHÃES DE CASTRO",
      "house": "9",
      "postcode": "6360-182",
      "city": "VALE DE AZARES",
      "lon": "-7.370007034388528",
      "lat": "40.603674800770776"
    },
    {
      "id": "pt.ine.add.PTCONT.1862058",
      "street": "R JOSÉ RESENDE",
      "house": "21",
      "postcode": "6360-181",
      "city": "VALE DE AZARES",
      "lon": "-7.370294175039468",
      "lat": "40.601281331783866"
    },
    {
      "id": "pt.ine.add.PTCONT.1864072",
      "street": "LG JÚLIO MAGALHÃES DE CASTRO",
      "house": "5",
      "postcode": "6360-182",
      "city": "VALE DE AZARES",
      "lon": "-7.370162563048254",
      "lat": "40.60350473072426"
    },
    {
      "id": "pt.ine.add.PTCONT.1868217",
      "street": "LG JÚLIO MAGALHÃES DE CASTRO",
      "house": "3",
      "postcode": "6360-182",
      "city": "VALE DE AZARES",
      "lon": "-7.370010004302481",
      "lat": "40.60341367154315"
    },
    {
      "id": "pt.ine.add.PTCONT.1873643",
      "street": "R JOSÉ RESENDE",
      "house": "11",
      "postcode": "6360-182",
      "city": "VALE DE AZARES",
      "lon": "-7.3706367629313325",
      "lat": "40.603363780024765"
    },
    {
      "id": "pt.ine.add.PTCONT.1876918",
      "street": "R DA IGREJA",
      "house": "4",
      "postcode": "6360-182",
      "city": "VALE DE AZARES",
      "lon": "-7.370061049409151",
      "lat": "40.60308081885646"
    },
    {
      "id": "pt.ine.add.PTCONT.1882734",
      "street": "CRZT DA ESCOLA",
      "house": "",
      "postcode": "6360-181",
      "city": "VALE DE AZARES",
      "lon": "-7.3679724324529055",
      "lat": "40.60181528787144"
    },
    {
      "id": "pt.ine.add.PTCONT.1883464",
      "street": "R JOSÉ RESENDE",
      "house": "2",
      "postcode": "6360-182",
      "city": "VALE DE AZARES",
      "lon": "-7.370421756016804",
      "lat": "40.603569478504745"
    },
    {
      "id": "pt.ine.add.PTCONT.1888605",
      "street": "LG JÚLIO MAGALHÃES DE CASTRO",
      "house": "11",
      "postcode": "6360-182",
      "city": "VALE DE AZARES",
      "lon": "-7.369653328766369",
      "lat": "40.60360942736353"
    },
    {
      "id": "pt.ine.add.PTCONT.1894667",
      "street": "R DA IGREJA",
      "house": "",
      "postcode": "6360-182",
      "city": "VALE DE AZARES",
      "lon": "-7.370358651155425",
      "lat": "40.60288467164469"
    },
    {
      "id": "pt.ine.add.PTCONT.1897016",
      "street": "R DO FUNDO",
      "house": "4",
      "postcode": "6360-182",
      "city": "VALE DE AZARES",
      "lon": "-7.370517701434859",
      "lat": "40.60344404017111"
    }
  ]
}