{
  "data": {
    "distrito": "Guarda",
    "concelho": "Celorico da Beira",
    "freguesia": "Vale de Azares",
    "OBJECTID": 297,
    "BGRI2021": "09031800112",
    "DT21": "09",
    "DTMN21": "0903",
    "DTMNFR21": "090318",
    "DTMNFRSEC21": "090318001",
    "SECNUM21": "001",
    "SSNUM21": "12",
    "SECSSNUM21": "00112",
    "OBJECTID_1": 76080,
    "DT": "09",
    "CC": "03",
    "fr": "18",
    "SEC": "001",
    "SS": "12"
  },
  "addresses": [
    {
      "id": "pt.ine.add.PTCONT.1904135",
      "street": "R DO CASTELO",
      "house": "2",
      "postcode": "6360-180",
      "city": "VALE DE AZARES",
      "lon": "-7.364904544675676",
      "lat": "40.60456850424189"
    },
    {
      "id": "pt.ine.add.PTCONT.1906431",
      "street": "R DR JOSÉ ALBERTO REIS",
      "house": "34",
      "postcode": "6360-180",
      "city": "VALE DE AZARES",
      "lon": "-7.36484578280608",
      "lat": "40.60454109799973"
    },
    {
      "id": "pt.ine.add.PTCONT.1916758",
      "street": "R DE S BRÁS",
      "house": "6",
      "postcode": "6360-180",
      "city": "VALE DE AZARES",
      "lon": "-7.36433508823383",
      "lat": "40.60477183322376"
    },
    {
      "id": "pt.ine.add.PTCONT.1917985",
      "street": "R DE S BRÁS",
      "house": "32",
      "postcode": "6360-180",
      "city": "VALE DE AZARES",
      "lon": "-7.364384408721563",
      "lat": "40.604592058915195"
    },
    {
      "id": "pt.ine.add.PTCONT.1921980",
      "street": "R DOS SANTOS",
      "house": "1",
      "postcode": "6360-180",
      "city": "VALE DE AZARES",
      "lon": "-7.364040970023761",
      "lat": "40.60466181360112"
    },
    {
      "id": "pt.ine.add.PTCONT.1922044",
      "street": "R ESTREITA",
      "house": "6",
      "postcode": "6360-180",
      "city": "VALE DE AZARES",
      "lon": "-7.3646325077958705",
      "lat": "40.60459370993011"
    },
    {
      "id": "pt.ine.add.PTCONT.1924879",
      "street": "R DO CASTELO",
      "house": "13",
      "postcode": "6360-180",
      "city": "VALE DE AZARES",
      "lon": "-7.364616568009868",
      "lat": "40.60495380903664"
    },
    {
      "id": "pt.ine.add.PTCONT.1925798",
      "street": "R DR JOSÉ ALBERTO REIS",
      "house": "30",
      "postcode": "6360-180",
      "city": "VALE DE AZARES",
      "lon": "-7.364312904201412",
      "lat": "40.604645613753476"
    },
    {
      "id": "pt.ine.add.PTCONT.1939008",
      "street": "R DO CASTELO",
      "house": "6",
      "postcode": "6360-180",
      "city": "VALE DE AZARES",
      "lon": "-7.364749000289812",
      "lat": "40.604738567033216"
    },
    {
      "id": "pt.ine.add.PTCONT.1946083",
      "street": "R DO CASTELO",
      "house": "10",
      "postcode": "6360-180",
      "city": "VALE DE AZARES",
      "lon": "-7.364664856561736",
      "lat": "40.604864079036666"
    },
    {
      "id": "pt.ine.add.PTCONT.1961598",
      "street": "R DO CASTELO",
      "house": "4",
      "postcode": "6360-180",
      "city": "VALE DE AZARES",
      "lon": "-7.364797288505994",
      "lat": "40.604648836971535"
    },
    {
      "id": "pt.ine.add.PTCONT.1962831",
      "street": "R DE S BRÁS",
      "house": "8",
      "postcode": "6360-180",
      "city": "VALE DE AZARES",
      "lon": "-7.364145234259665",
      "lat": "40.604842610399146"
    },
    {
      "id": "pt.ine.add.PTCONT.1967728",
      "street": "R DE S BRÁS",
      "house": "2",
      "postcode": "6360-180",
      "city": "VALE DE AZARES",
      "lon": "-7.364490840048831",
      "lat": "40.6045837621154"
    },
    {
      "id": "pt.ine.add.PTCONT.1973778",
      "street": "R ESTREITA",
      "house": "12",
      "postcode": "6360-180",
      "city": "VALE DE AZARES",
      "lon": "-7.364594795960041",
      "lat": "40.60479157184802"
    },
    {
      "id": "pt.ine.add.PTCONT.1974757",
      "street": "R DO CASTELO",
      "house": "8",
      "postcode": "6360-180",
      "city": "VALE DE AZARES",
      "lon": "-7.36471293873095",
      "lat": "40.604792357900024"
    },
    {
      "id": "pt.ine.add.PTCONT.1974758",
      "street": "R ESTREITA",
      "house": "9",
      "postcode": "6360-180",
      "city": "VALE DE AZARES",
      "lon": "-7.364642775015349",
      "lat": "40.60472885518285"
    },
    {
      "id": "pt.ine.add.PTCONT.1854124",
      "street": "R DOS SANTOS",
      "house": "3",
      "postcode": "6360-180",
      "city": "VALE DE AZARES",
      "lon": "-7.364087194937977",
      "lat": "40.60475217268056"
    },
    {
      "id": "pt.ine.add.PTCONT.1862050",
      "street": "R DR JOSÉ ALBERTO REIS",
      "house": "",
      "postcode": "6360-180",
      "city": "VALE DE AZARES",
      "lon": "-7.364111649126948",
      "lat": "40.60468029446936"
    },
    {
      "id": "pt.ine.add.PTCONT.1863086",
      "street": "R ESTREITA",
      "house": "4",
      "postcode": "6360-180",
      "city": "VALE DE AZARES",
      "lon": "-7.364690857108849",
      "lat": "40.604657134053056"
    },
    {
      "id": "pt.ine.add.PTCONT.1873644",
      "street": "R ESTREITA",
      "house": "4",
      "postcode": "6360-180",
      "city": "VALE DE AZARES",
      "lon": "-7.364548467184916",
      "lat": "40.604710217408716"
    },
    {
      "id": "pt.ine.add.PTCONT.1884757",
      "street": "R ESTREITA",
      "house": "1",
      "postcode": "6360-180",
      "city": "VALE DE AZARES",
      "lon": "-7.364488570626316",
      "lat": "40.60478185985532"
    },
    {
      "id": "pt.ine.add.PTCONT.1886208",
      "street": "R ESTREITA",
      "house": "2",
      "postcode": "6360-180",
      "city": "VALE DE AZARES",
      "lon": "-7.364738629733147",
      "lat": "40.60461242623156"
    }
  ]
}