{
  "data": {
    "distrito": "Setúbal",
    "concelho": "Almada",
    "freguesia": "União das freguesias de Laranjeiro e Feijó",
    "OBJECTID": 309,
    "BGRI2021": "15031502506",
    "DT21": "15",
    "DTMN21": "1503",
    "DTMNFR21": "150315",
    "DTMNFRSEC21": "150315025",
    "SECNUM21": "025",
    "SSNUM21": "06",
    "SECSSNUM21": "02506",
    "OBJECTID_1": 162250,
    "DT": "15",
    "CC": "03",
    "fr": "15",
    "SEC": "025",
    "SS": "06"
  },
  "addresses": [
    {
      "id": "pt.ine.add.PTCONT.4668095",
      "street": "R LARANJEIRAS",
      "house": "26",
      "postcode": "2810-308",
      "city": "ALMADA",
      "lon": "-9.149475963555169",
      "lat": "38.65684057027208"
    },
    {
      "id": "pt.ine.add.PTCONT.4668096",
      "street": "R LARANJEIRAS",
      "house": "26",
      "postcode": "2810-308",
      "city": "ALMADA",
      "lon": "-9.149475963555169",
      "lat": "38.65684057027208"
    },
    {
      "id": "pt.ine.add.PTCONT.4668110",
      "street": "R 4",
      "house": "",
      "postcode": "2810-330",
      "city": "ALMADA",
      "lon": "-9.148972547526714",
      "lat": "38.65779978821762"
    },
    {
      "id": "pt.ine.add.PTCONT.4675409",
      "street": "R LARANJEIRAS",
      "house": "3",
      "postcode": "2810-308",
      "city": "ALMADA",
      "lon": "-9.148736449604955",
      "lat": "38.65735144013571"
    },
    {
      "id": "pt.ine.add.PTCONT.4678902",
      "street": "R LARANJEIRAS",
      "house": "28",
      "postcode": "2810-308",
      "city": "ALMADA",
      "lon": "-9.149647500541628",
      "lat": "38.656785031776224"
    },
    {
      "id": "pt.ine.add.PTCONT.4682613",
      "street": "R LARANJEIRAS",
      "house": "18",
      "postcode": "2810-308",
      "city": "ALMADA",
      "lon": "-9.14914628432981",
      "lat": "38.657086649685354"
    },
    {
      "id": "pt.ine.add.PTCONT.4715156",
      "street": "R 4",
      "house": "25",
      "postcode": "2810-330",
      "city": "ALMADA",
      "lon": "-9.149888721575136",
      "lat": "38.65678293510113"
    },
    {
      "id": "pt.ine.add.PTCONT.4715139",
      "street": "R LARANJEIRAS",
      "house": "8 8 A",
      "postcode": "2810-308",
      "city": "ALMADA",
      "lon": "-9.14891858460916",
      "lat": "38.65723275490219"
    },
    {
      "id": "pt.ine.add.PTCONT.4715140",
      "street": "R LARANJEIRAS CASAN",
      "house": "CASAN 2",
      "postcode": "2810-308",
      "city": "ALMADA",
      "lon": "-9.149736338429808",
      "lat": "38.65656806841291"
    },
    {
      "id": "pt.ine.add.PTCONT.4715141",
      "street": "R LARANJEIRAS",
      "house": "42",
      "postcode": "2810-308",
      "city": "ALMADA",
      "lon": "-9.149918724490389",
      "lat": "38.65646739537981"
    },
    {
      "id": "pt.ine.add.PTCONT.4716619",
      "street": "R 4",
      "house": "25",
      "postcode": "2810-330",
      "city": "ALMADA",
      "lon": "-9.149888721575136",
      "lat": "38.65678293510113"
    },
    {
      "id": "pt.ine.add.PTCONT.4735994",
      "street": "R 4",
      "house": "ANEXO 2",
      "postcode": "2810-330",
      "city": "ALMADA",
      "lon": "-9.149866512204948",
      "lat": "38.65683717597466"
    },
    {
      "id": "pt.ine.add.PTCONT.4735995",
      "street": "R 4",
      "house": "ANEXO 2",
      "postcode": "2810-330",
      "city": "ALMADA",
      "lon": "-9.149866512204948",
      "lat": "38.65683717597466"
    },
    {
      "id": "pt.ine.add.PTCONT.4755357",
      "street": "AZ RATO",
      "house": "9",
      "postcode": "2810-272",
      "city": "ALMADA",
      "lon": "-9.14902489224833",
      "lat": "38.65743901487263"
    },
    {
      "id": "pt.ine.add.PTCONT.4755358",
      "street": "AZ RATO",
      "house": "9",
      "postcode": "2810-272",
      "city": "ALMADA",
      "lon": "-9.14902489224833",
      "lat": "38.65743901487263"
    },
    {
      "id": "pt.ine.add.PTCONT.4761505",
      "street": "R LARANJEIRAS",
      "house": "32",
      "postcode": "2810-308",
      "city": "ALMADA",
      "lon": "-9.150042912615344",
      "lat": "38.656313180250685"
    },
    {
      "id": "pt.ine.add.PTCONT.4761506",
      "street": "R LARANJEIRAS",
      "house": "32",
      "postcode": "2810-308",
      "city": "ALMADA",
      "lon": "-9.150042912615344",
      "lat": "38.656313180250685"
    },
    {
      "id": "pt.ine.add.PTCONT.4761507",
      "street": "R LARANJEIRAS",
      "house": "32",
      "postcode": "2810-308",
      "city": "ALMADA",
      "lon": "-9.150042912615344",
      "lat": "38.656313180250685"
    },
    {
      "id": "pt.ine.add.PTCONT.4770454",
      "street": "R LARANJEIRAS",
      "house": "2",
      "postcode": "2810-308",
      "city": "ALMADA",
      "lon": "-9.150247888677995",
      "lat": "38.65618528639294"
    },
    {
      "id": "pt.ine.add.PTCONT.4781462",
      "street": "R 4 VIL BELO",
      "house": "VIL BELO",
      "postcode": "2810-330",
      "city": "ALMADA",
      "lon": "-9.149458463703832",
      "lat": "38.65722806497322"
    },
    {
      "id": "pt.ine.add.PTCONT.4781463",
      "street": "R 4",
      "house": "",
      "postcode": "2810-330",
      "city": "ALMADA",
      "lon": "-9.149458463703832",
      "lat": "38.65722806497322"
    },
    {
      "id": "pt.ine.add.PTCONT.4781464",
      "street": "R 4",
      "house": "",
      "postcode": "2810-330",
      "city": "ALMADA",
      "lon": "-9.149458463703832",
      "lat": "38.65722806497322"
    },
    {
      "id": "pt.ine.add.PTCONT.4782510",
      "street": "R 4",
      "house": "",
      "postcode": "2810-330",
      "city": "ALMADA",
      "lon": "-9.149458463703832",
      "lat": "38.65722806497322"
    },
    {
      "id": "pt.ine.add.PTCONT.4783864",
      "street": "R LARANJEIRAS",
      "house": "B",
      "postcode": "2810-308",
      "city": "ALMADA",
      "lon": "-9.14885055439233",
      "lat": "38.65729640148239"
    },
    {
      "id": "pt.ine.add.PTCONT.4783865",
      "street": "R LARANJEIRAS",
      "house": "",
      "postcode": "2810-308",
      "city": "ALMADA",
      "lon": "-9.14891807570292",
      "lat": "38.65719672744825"
    },
    {
      "id": "pt.ine.add.PTCONT.4783866",
      "street": "R LARANJEIRAS",
      "house": "6",
      "postcode": "2810-308",
      "city": "ALMADA",
      "lon": "-9.15039887101114",
      "lat": "38.656301076951316"
    },
    {
      "id": "pt.ine.add.PTCONT.4783867",
      "street": "R 5",
      "house": "",
      "postcode": "2810-330",
      "city": "ALMADA",
      "lon": "-9.14907033055422",
      "lat": "38.65740258833223"
    },
    {
      "id": "pt.ine.add.PTCONT.4785747",
      "street": "R LARANJEIRAS",
      "house": "12",
      "postcode": "2810-308",
      "city": "ALMADA",
      "lon": "-9.14891807570292",
      "lat": "38.65719672744825"
    },
    {
      "id": "pt.ine.add.PTCONT.4785823",
      "street": "R LARANJEIRAS",
      "house": "12",
      "postcode": "2810-308",
      "city": "ALMADA",
      "lon": "-9.14891807570292",
      "lat": "38.65719672744825"
    },
    {
      "id": "pt.ine.add.PTCONT.4804800",
      "street": "R 4",
      "house": "3",
      "postcode": "2810-330",
      "city": "ALMADA",
      "lon": "-9.14910975382849",
      "lat": "38.65775355663712"
    },
    {
      "id": "pt.ine.add.PTCONT.4808928",
      "street": "R LARANJEIRAS",
      "house": "16",
      "postcode": "2810-308",
      "city": "ALMADA",
      "lon": "-9.14906625869698",
      "lat": "38.6571143687163"
    },
    {
      "id": "pt.ine.add.PTCONT.4846177",
      "street": "R LARANJEIRAS",
      "house": "22",
      "postcode": "2810-308",
      "city": "ALMADA",
      "lon": "-9.149259370232247",
      "lat": "38.656959555736776"
    },
    {
      "id": "pt.ine.add.PTCONT.4860213",
      "street": "R JOÃO DE DEUS",
      "house": "2",
      "postcode": "2810-330",
      "city": "ALMADA",
      "lon": "-9.150703513528486",
      "lat": "38.656721801504105"
    },
    {
      "id": "pt.ine.add.PTCONT.4865820",
      "street": "R 4",
      "house": "",
      "postcode": "2810-330",
      "city": "ALMADA",
      "lon": "-9.14943689033659",
      "lat": "38.65732734007677"
    },
    {
      "id": "pt.ine.add.PTCONT.4890770",
      "street": "R 4",
      "house": "110",
      "postcode": "2810-330",
      "city": "ALMADA",
      "lon": "-9.15001087252683",
      "lat": "38.656484610220666"
    },
    {
      "id": "pt.ine.add.PTCONT.4919093",
      "street": "R 4",
      "house": "11",
      "postcode": "2810-330",
      "city": "ALMADA",
      "lon": "-9.149357500965676",
      "lat": "38.6574000936176"
    },
    {
      "id": "pt.ine.add.PTCONT.4944173",
      "street": "R 4",
      "house": "2 ANEXO",
      "postcode": "2810-330",
      "city": "ALMADA",
      "lon": "-9.149231400522293",
      "lat": "38.657419205103494"
    },
    {
      "id": "pt.ine.add.PTCONT.4951276",
      "street": "R LARANJEIRAS",
      "house": "24",
      "postcode": "2810-308",
      "city": "ALMADA",
      "lon": "-9.149408570635241",
      "lat": "38.65694925148171"
    },
    {
      "id": "pt.ine.add.PTCONT.4951301",
      "street": "R 5",
      "house": "8",
      "postcode": "2810-330",
      "city": "ALMADA",
      "lon": "-9.149071094033937",
      "lat": "38.65745662950858"
    },
    {
      "id": "pt.ine.add.PTCONT.4964392",
      "street": "R LARANJEIRAS",
      "house": "JT 1",
      "postcode": "2810-308",
      "city": "ALMADA",
      "lon": "-9.1496231266685",
      "lat": "38.65668615594885"
    },
    {
      "id": "pt.ine.add.PTCONT.4964393",
      "street": "R LARANJEIRAS",
      "house": "JT 1",
      "postcode": "2810-308",
      "city": "ALMADA",
      "lon": "-9.1496231266685",
      "lat": "38.65668615594885"
    },
    {
      "id": "pt.ine.add.PTCONT.4967771",
      "street": "R 4",
      "house": "",
      "postcode": "2810-330",
      "city": "ALMADA",
      "lon": "-9.149413280283817",
      "lat": "38.65728250538536"
    },
    {
      "id": "pt.ine.add.PTCONT.4967772",
      "street": "R 4",
      "house": "",
      "postcode": "2810-330",
      "city": "ALMADA",
      "lon": "-9.149413280283817",
      "lat": "38.65728250538536"
    },
    {
      "id": "pt.ine.add.PTCONT.4979835",
      "street": "R 4",
      "house": "7",
      "postcode": "2810-330",
      "city": "ALMADA",
      "lon": "-9.149142941877376",
      "lat": "38.657663188673766"
    },
    {
      "id": "pt.ine.add.PTCONT.4987714",
      "street": "R LARANJEIRAS",
      "house": "24",
      "postcode": "2810-308",
      "city": "ALMADA",
      "lon": "-9.149373473992858",
      "lat": "38.65690451658355"
    },
    {
      "id": "pt.ine.add.PTCONT.5007171",
      "street": "R LARANJEIRAS",
      "house": "10",
      "postcode": "2810-308",
      "city": "ALMADA",
      "lon": "-9.150526880521296",
      "lat": "38.656417067138904"
    },
    {
      "id": "pt.ine.add.PTCONT.5011348",
      "street": "R 4",
      "house": "",
      "postcode": "2810-330",
      "city": "ALMADA",
      "lon": "-9.149074402469706",
      "lat": "38.657690807933534"
    },
    {
      "id": "pt.ine.add.PTCONT.5011349",
      "street": "R 4",
      "house": "",
      "postcode": "2810-330",
      "city": "ALMADA",
      "lon": "-9.149074402469706",
      "lat": "38.657690807933534"
    },
    {
      "id": "pt.ine.add.PTCONT.5020097",
      "street": "R LARANJEIRAS",
      "house": "10 ESQ",
      "postcode": "2810-308",
      "city": "ALMADA",
      "lon": "-9.14898814152886",
      "lat": "38.657277190642695"
    },
    {
      "id": "pt.ine.add.PTCONT.5020129",
      "street": "R LARANJEIRAS",
      "house": "10 ESQ",
      "postcode": "2810-308",
      "city": "ALMADA",
      "lon": "-9.14898814152886",
      "lat": "38.657277190642695"
    },
    {
      "id": "pt.ine.add.PTCONT.5024482",
      "street": "R 4",
      "house": "",
      "postcode": "2810-330",
      "city": "ALMADA",
      "lon": "-9.149775255072038",
      "lat": "38.65688300905835"
    },
    {
      "id": "pt.ine.add.PTCONT.5024483",
      "street": "R 4",
      "house": "",
      "postcode": "2810-330",
      "city": "ALMADA",
      "lon": "-9.149775255072038",
      "lat": "38.65688300905835"
    },
    {
      "id": "pt.ine.add.PTCONT.5028242",
      "street": "R 4",
      "house": "111",
      "postcode": "2810-330",
      "city": "ALMADA",
      "lon": "-9.14987392391732",
      "lat": "38.65654885655105"
    },
    {
      "id": "pt.ine.add.PTCONT.5028243",
      "street": "R 4",
      "house": "111",
      "postcode": "2810-330",
      "city": "ALMADA",
      "lon": "-9.14987392391732",
      "lat": "38.65654885655105"
    },
    {
      "id": "pt.ine.add.PTCONT.5030911",
      "street": "R LARANJEIRAS",
      "house": "20",
      "postcode": "2810-308",
      "city": "ALMADA",
      "lon": "-9.149214441349521",
      "lat": "38.65703200980008"
    },
    {
      "id": "pt.ine.add.PTCONT.5030912",
      "street": "R 5",
      "house": "3B",
      "postcode": "2810-330",
      "city": "ALMADA",
      "lon": "-9.148912314100983",
      "lat": "38.657602136051835"
    },
    {
      "id": "pt.ine.add.PTCONT.5030913",
      "street": "R 5",
      "house": "3",
      "postcode": "2810-330",
      "city": "ALMADA",
      "lon": "-9.148912314100983",
      "lat": "38.657602136051835"
    },
    {
      "id": "pt.ine.add.PTCONT.5053955",
      "street": "R LARANJEIRAS",
      "house": "8",
      "postcode": "2810-308",
      "city": "ALMADA",
      "lon": "-9.150479914555405",
      "lat": "38.65634541190819"
    },
    {
      "id": "pt.ine.add.PTCONT.5064631",
      "street": "R LARANJEIRAS",
      "house": "4 4A",
      "postcode": "2810-308",
      "city": "ALMADA",
      "lon": "-9.150317700168738",
      "lat": "38.6562477350755"
    },
    {
      "id": "pt.ine.add.PTCONT.5064632",
      "street": "R 4",
      "house": "4",
      "postcode": "2810-330",
      "city": "ALMADA",
      "lon": "-9.149289852810735",
      "lat": "38.6574907610343"
    },
    {
      "id": "pt.ine.add.PTCONT.5073284",
      "street": "R 4",
      "house": "17",
      "postcode": "2810-330",
      "city": "ALMADA",
      "lon": "-9.149753427576295",
      "lat": "38.65696427049566"
    },
    {
      "id": "pt.ine.add.PTCONT.5103721",
      "street": "R 5",
      "house": "10",
      "postcode": "2810-330",
      "city": "ALMADA",
      "lon": "-9.149127637385742",
      "lat": "38.65739308258308"
    },
    {
      "id": "pt.ine.add.PTCONT.5110726",
      "street": "R LARANJEIRAS",
      "house": "1",
      "postcode": "2810-308",
      "city": "ALMADA",
      "lon": "-9.148668037526347",
      "lat": "38.65738806602075"
    },
    {
      "id": "pt.ine.add.PTCONT.5110727",
      "street": "R LARANJEIRAS",
      "house": "14",
      "postcode": "2810-308",
      "city": "ALMADA",
      "lon": "-9.14901035169387",
      "lat": "38.65722294992913"
    },
    {
      "id": "pt.ine.add.PTCONT.5118149",
      "street": "AZ RATO V AFONSO",
      "house": "V AFONSO",
      "postcode": "2810-272",
      "city": "ALMADA",
      "lon": "-9.148775235164527",
      "lat": "38.657657374262925"
    },
    {
      "id": "pt.ine.add.PTCONT.5118150",
      "street": "AZ RATO",
      "house": "",
      "postcode": "2810-272",
      "city": "ALMADA",
      "lon": "-9.148775235164527",
      "lat": "38.657657374262925"
    },
    {
      "id": "pt.ine.add.PTCONT.5118151",
      "street": "AZ RATO",
      "house": "",
      "postcode": "2810-272",
      "city": "ALMADA",
      "lon": "-9.148775235164527",
      "lat": "38.657657374262925"
    }
  ]
}