{
  "data": {
    "distrito": "Setúbal",
    "concelho": "Sesimbra",
    "freguesia": "Quinta do Conde",
    "OBJECTID": 841,
    "BGRI2021": "15110301851",
    "DT21": "15",
    "DTMN21": "1511",
    "DTMNFR21": "151103",
    "DTMNFRSEC21": "151103018",
    "SECNUM21": "018",
    "SSNUM21": "51",
    "SECSSNUM21": "01851",
    "OBJECTID_1": 169595,
    "DT": "15",
    "CC": "11",
    "fr": "03",
    "SEC": "018",
    "SS": "51"
  },
  "addresses": [
    {
      "id": "pt.ine.add.PTCONT.4673579",
      "street": "R SANTO ANTÓNIO",
      "house": "973",
      "postcode": "2975-050",
      "city": "QUINTA DO CONDE",
      "lon": "-9.073496628863213",
      "lat": "38.55947713289201"
    },
    {
      "id": "pt.ine.add.PTCONT.4713456",
      "street": "R SANTO ANTÓNIO",
      "house": "",
      "postcode": "2975-050",
      "city": "QUINTA DO CONDE",
      "lon": "-9.07522794584415",
      "lat": "38.55851735456482"
    },
    {
      "id": "pt.ine.add.PTCONT.4754109",
      "street": "R SANTO ANTÓNIO",
      "house": "",
      "postcode": "2975-050",
      "city": "QUINTA DO CONDE",
      "lon": "-9.073969425274457",
      "lat": "38.55966250502735"
    },
    {
      "id": "pt.ine.add.PTCONT.4797400",
      "street": "AV CASAL DO SAPO",
      "house": "",
      "postcode": "2975-008",
      "city": "QUINTA DO CONDE",
      "lon": "-9.073149903428373",
      "lat": "38.55928173830601"
    },
    {
      "id": "pt.ine.add.PTCONT.4797401",
      "street": "AV CASAL DO SAPO",
      "house": "",
      "postcode": "2975-008",
      "city": "QUINTA DO CONDE",
      "lon": "-9.073149903428373",
      "lat": "38.55928173830601"
    },
    {
      "id": "pt.ine.add.PTCONT.4839090",
      "street": "R SANTO ANTÓNIO",
      "house": "",
      "postcode": "2975-050",
      "city": "QUINTA DO CONDE",
      "lon": "-9.07339150788094",
      "lat": "38.55933384678107"
    },
    {
      "id": "pt.ine.add.PTCONT.4850767",
      "street": "R MARIA DA FONTE",
      "house": "",
      "postcode": "2975-069",
      "city": "QUINTA DO CONDE",
      "lon": "-9.076599646313964",
      "lat": "38.560767354291244"
    },
    {
      "id": "pt.ine.add.PTCONT.4856686",
      "street": "R RIBEIRO VICENTE",
      "house": "",
      "postcode": "2975-049",
      "city": "QUINTA DO CONDE",
      "lon": "-9.075024165972165",
      "lat": "38.55872618217138"
    },
    {
      "id": "pt.ine.add.PTCONT.4880569",
      "street": "R RIBEIRO VICENTE",
      "house": "",
      "postcode": "2975-049",
      "city": "QUINTA DO CONDE",
      "lon": "-9.074780799545893",
      "lat": "38.55853896882117"
    },
    {
      "id": "pt.ine.add.PTCONT.4888117",
      "street": "R COMÉRCIO",
      "house": "",
      "postcode": "2975-065",
      "city": "QUINTA DO CONDE",
      "lon": "-9.076116831471467",
      "lat": "38.55981638019937"
    },
    {
      "id": "pt.ine.add.PTCONT.4904100",
      "street": "R RIBEIRO VICENTE",
      "house": "1041",
      "postcode": "2975-049",
      "city": "QUINTA DO CONDE",
      "lon": "-9.075883340390375",
      "lat": "38.558629183968485"
    },
    {
      "id": "pt.ine.add.PTCONT.4910653",
      "street": "AV EZEQUIEL LINO",
      "house": "",
      "postcode": "2975-006",
      "city": "QUINTA DO CONDE",
      "lon": "-9.073779962434868",
      "lat": "38.5609702107296"
    },
    {
      "id": "pt.ine.add.PTCONT.4945094",
      "street": "AV CASAL DO SAPO",
      "house": "",
      "postcode": "2975-008",
      "city": "QUINTA DO CONDE",
      "lon": "-9.073131744547593",
      "lat": "38.55876841895215"
    },
    {
      "id": "pt.ine.add.PTCONT.4945726",
      "street": "R SANTO ANTÓNIO",
      "house": "975",
      "postcode": "2975-050",
      "city": "QUINTA DO CONDE",
      "lon": "-9.07344722204835",
      "lat": "38.559207284985185"
    },
    {
      "id": "pt.ine.add.PTCONT.5007297",
      "street": "R SANTO ANTÓNIO",
      "house": "953",
      "postcode": "2975-050",
      "city": "QUINTA DO CONDE",
      "lon": "-9.073649599221259",
      "lat": "38.55889037345374"
    },
    {
      "id": "pt.ine.add.PTCONT.5054988",
      "street": "R COMÉRCIO",
      "house": "1090",
      "postcode": "2975-065",
      "city": "QUINTA DO CONDE",
      "lon": "-9.076400205152014",
      "lat": "38.55955286040431"
    },
    {
      "id": "pt.ine.add.PTCONT.5054989",
      "street": "R COMÉRCIO",
      "house": "1090",
      "postcode": "2975-065",
      "city": "QUINTA DO CONDE",
      "lon": "-9.076400205152014",
      "lat": "38.55955286040431"
    },
    {
      "id": "pt.ine.add.PTCONT.5054990",
      "street": "R COMÉRCIO",
      "house": "1090",
      "postcode": "2975-065",
      "city": "QUINTA DO CONDE",
      "lon": "-9.076400205152014",
      "lat": "38.55955286040431"
    },
    {
      "id": "pt.ine.add.PTCONT.5108810",
      "street": "R SANTO ANTÓNIO",
      "house": "",
      "postcode": "2975-050",
      "city": "QUINTA DO CONDE",
      "lon": "-9.07369853697261",
      "lat": "38.55912419241375"
    },
    {
      "id": "pt.ine.add.PTCONT.5126014",
      "street": "R MARIA DA FONTE",
      "house": "",
      "postcode": "2975-069",
      "city": "QUINTA DO CONDE",
      "lon": "-9.076599646313964",
      "lat": "38.560767354291244"
    }
  ]
}