{
  "data": {
    "distrito": "Braga",
    "concelho": "Barcelos",
    "freguesia": "União das freguesias de Gamil e Midões",
    "OBJECTID": 623,
    "BGRI2021": "03029900115",
    "DT21": "03",
    "DTMN21": "0302",
    "DTMNFR21": "030299",
    "DTMNFRSEC21": "030299001",
    "SECNUM21": "001",
    "SSNUM21": "15",
    "SECSSNUM21": "00115",
    "OBJECTID_1": 20952,
    "DT": "03",
    "CC": "02",
    "fr": "99",
    "SEC": "001",
    "SS": "15"
  },
  "addresses": [
    {
      "id": "pt.ine.add.PTCONT.485860",
      "street": "R SANTA CRUZ",
      "house": "",
      "postcode": "4755-223",
      "city": "GAMIL",
      "lon": "-8.598355224922523",
      "lat": "41.51570358240198"
    },
    {
      "id": "pt.ine.add.PTCONT.527509",
      "street": "R SANTA CRUZ",
      "house": "1301",
      "postcode": "4755-223",
      "city": "GAMIL",
      "lon": "-8.598257845072679",
      "lat": "41.51548788533415"
    },
    {
      "id": "pt.ine.add.PTCONT.572791",
      "street": "R MONTE",
      "house": "26",
      "postcode": "4755-222",
      "city": "GAMIL",
      "lon": "-8.599026441663753",
      "lat": "41.515754887862144"
    },
    {
      "id": "pt.ine.add.PTCONT.591821",
      "street": "R SANTA CRUZ",
      "house": "",
      "postcode": "4755-223",
      "city": "GAMIL",
      "lon": "-8.598669778330322",
      "lat": "41.516134491387845"
    },
    {
      "id": "pt.ine.add.PTCONT.611517",
      "street": "R MONTE",
      "house": "152",
      "postcode": "4755-222",
      "city": "GAMIL",
      "lon": "-8.599116107719794",
      "lat": "41.516564865595534"
    },
    {
      "id": "pt.ine.add.PTCONT.641893",
      "street": "R SANTA CRUZ",
      "house": "1259",
      "postcode": "4755-223",
      "city": "GAMIL",
      "lon": "-8.598075646223995",
      "lat": "41.515137474261586"
    },
    {
      "id": "pt.ine.add.PTCONT.641894",
      "street": "R MONTE",
      "house": "37",
      "postcode": "4755-222",
      "city": "GAMIL",
      "lon": "-8.599362825801041",
      "lat": "41.51588858145294"
    },
    {
      "id": "pt.ine.add.PTCONT.641895",
      "street": "R MONTE",
      "house": "78",
      "postcode": "4755-222",
      "city": "GAMIL",
      "lon": "-8.599124793207807",
      "lat": "41.516105637168614"
    },
    {
      "id": "pt.ine.add.PTCONT.703878",
      "street": "R LAVADOUROS",
      "house": "",
      "postcode": "4755-606",
      "city": "GAMIL",
      "lon": "-8.607802981754137",
      "lat": "41.51575191523332"
    },
    {
      "id": "pt.ine.add.PTCONT.709796",
      "street": "R MONTE",
      "house": "",
      "postcode": "4755-222",
      "city": "GAMIL",
      "lon": "-8.599160020249414",
      "lat": "41.5160064527384"
    },
    {
      "id": "pt.ine.add.PTCONT.754900",
      "street": "R SANTA CRUZ",
      "house": "",
      "postcode": "4755-223",
      "city": "GAMIL",
      "lon": "-8.601498131668919",
      "lat": "41.514637381765866"
    },
    {
      "id": "pt.ine.add.PTCONT.761864",
      "street": "R SANTA CRUZ",
      "house": "1383",
      "postcode": "4755-223",
      "city": "GAMIL",
      "lon": "-8.598502714846415",
      "lat": "41.51622520545047"
    },
    {
      "id": "pt.ine.add.PTCONT.782843",
      "street": "R SANTA CRUZ",
      "house": "1231",
      "postcode": "4755-223",
      "city": "GAMIL",
      "lon": "-8.605439382254234",
      "lat": "41.51959135301922"
    },
    {
      "id": "pt.ine.add.PTCONT.803590",
      "street": "R TRAS-DA-AGRA",
      "house": "20",
      "postcode": "4755-222",
      "city": "GAMIL",
      "lon": "-8.599096185217247",
      "lat": "41.5154574802246"
    },
    {
      "id": "pt.ine.add.PTCONT.824252",
      "street": "R MONTE",
      "house": "",
      "postcode": "4755-222",
      "city": "GAMIL",
      "lon": "-8.59857536408259",
      "lat": "41.51633295690936"
    },
    {
      "id": "pt.ine.add.PTCONT.835832",
      "street": "R MONTE",
      "house": "",
      "postcode": "4755-222",
      "city": "GAMIL",
      "lon": "-8.600145352535506",
      "lat": "41.51642563366183"
    }
  ]
}