{
  "data": {
    "distrito": "Setúbal",
    "concelho": "Almada",
    "freguesia": "União das freguesias de Charneca de Caparica e Sobreda",
    "OBJECTID": 922,
    "BGRI2021": "15031402008",
    "DT21": "15",
    "DTMN21": "1503",
    "DTMNFR21": "150314",
    "DTMNFRSEC21": "150314020",
    "SECNUM21": "020",
    "SSNUM21": "08",
    "SECSSNUM21": "02008",
    "OBJECTID_1": 161975,
    "DT": "15",
    "CC": "03",
    "fr": "14",
    "SEC": "020",
    "SS": "08"
  },
  "addresses": [
    {
      "id": "pt.ine.add.PTCONT.4665499",
      "street": "R JACINTOS",
      "house": "44",
      "postcode": "2820-558",
      "city": "CHARNECA DA CAPARICA",
      "lon": "-9.182233055925039",
      "lat": "38.572020162126975"
    },
    {
      "id": "pt.ine.add.PTCONT.4675408",
      "street": "R GARDENIAS",
      "house": "6",
      "postcode": "2820-537",
      "city": "CHARNECA DA CAPARICA",
      "lon": "-9.180018448860727",
      "lat": "38.5743910994369"
    },
    {
      "id": "pt.ine.add.PTCONT.4676786",
      "street": "R BEGONIAS",
      "house": "2A",
      "postcode": "2820-534",
      "city": "CHARNECA DA CAPARICA",
      "lon": "-9.17547017013803",
      "lat": "38.57807095610213"
    },
    {
      "id": "pt.ine.add.PTCONT.4678834",
      "street": "R BEGONIAS",
      "house": "6",
      "postcode": "2820-534",
      "city": "CHARNECA DA CAPARICA",
      "lon": "-9.175864339580539",
      "lat": "38.577553984875365"
    },
    {
      "id": "pt.ine.add.PTCONT.4678959",
      "street": "R JACINTOS",
      "house": "46",
      "postcode": "2820-558",
      "city": "CHARNECA DA CAPARICA",
      "lon": "-9.182413873892132",
      "lat": "38.57182937163744"
    },
    {
      "id": "pt.ine.add.PTCONT.4682528",
      "street": "R BEGONIAS",
      "house": "24",
      "postcode": "2820-534",
      "city": "CHARNECA DA CAPARICA",
      "lon": "-9.173177735068048",
      "lat": "38.577460785613326"
    },
    {
      "id": "pt.ine.add.PTCONT.4690057",
      "street": "R JACINTOS",
      "house": "18",
      "postcode": "2820-558",
      "city": "CHARNECA DA CAPARICA",
      "lon": "-9.178422042281458",
      "lat": "38.572711850128975"
    },
    {
      "id": "pt.ine.add.PTCONT.4693028",
      "street": "R ALOES",
      "house": "14",
      "postcode": "2820-531",
      "city": "CHARNECA DA CAPARICA",
      "lon": "-9.185201388279665",
      "lat": "38.57492114039674"
    },
    {
      "id": "pt.ine.add.PTCONT.4700941",
      "street": "R JACINTOS",
      "house": "54",
      "postcode": "2820-558",
      "city": "CHARNECA DA CAPARICA",
      "lon": "-9.18300844323212",
      "lat": "38.570896207992796"
    },
    {
      "id": "pt.ine.add.PTCONT.4711535",
      "street": "R ALELUIAS",
      "house": "10",
      "postcode": "2820-529",
      "city": "CHARNECA DA CAPARICA",
      "lon": "-9.17485221223889",
      "lat": "38.57977898320222"
    },
    {
      "id": "pt.ine.add.PTCONT.4718947",
      "street": "R GIRASSOIS",
      "house": "19",
      "postcode": "2820-538",
      "city": "CHARNECA DA CAPARICA",
      "lon": "-9.177870828244657",
      "lat": "38.575058871175074"
    },
    {
      "id": "pt.ine.add.PTCONT.4726722",
      "street": "R ALELUIAS",
      "house": "5",
      "postcode": "2820-529",
      "city": "CHARNECA DA CAPARICA",
      "lon": "-9.174394438134254",
      "lat": "38.57907141957568"
    },
    {
      "id": "pt.ine.add.PTCONT.4726865",
      "street": "R JACINTOS",
      "house": "16",
      "postcode": "2820-558",
      "city": "CHARNECA DA CAPARICA",
      "lon": "-9.178101314236901",
      "lat": "38.572750746448015"
    },
    {
      "id": "pt.ine.add.PTCONT.4726866",
      "street": "R JACINTOS",
      "house": "52",
      "postcode": "2820-558",
      "city": "CHARNECA DA CAPARICA",
      "lon": "-9.182839626362636",
      "lat": "38.57112292407849"
    },
    {
      "id": "pt.ine.add.PTCONT.4731187",
      "street": "R BEGONIAS",
      "house": "1",
      "postcode": "2820-534",
      "city": "CHARNECA DA CAPARICA",
      "lon": "-9.176880438222522",
      "lat": "38.577986322855566"
    },
    {
      "id": "pt.ine.add.PTCONT.4737500",
      "street": "R ALELUIAS",
      "house": "4",
      "postcode": "2820-529",
      "city": "CHARNECA DA CAPARICA",
      "lon": "-9.174445306378349",
      "lat": "38.57862056351307"
    },
    {
      "id": "pt.ine.add.PTCONT.4737596",
      "street": "R JACINTOS",
      "house": "30",
      "postcode": "2820-558",
      "city": "CHARNECA DA CAPARICA",
      "lon": "-9.180234678478822",
      "lat": "38.5726866391829"
    },
    {
      "id": "pt.ine.add.PTCONT.4737597",
      "street": "R JACINTOS",
      "house": "60",
      "postcode": "2820-558",
      "city": "CHARNECA DA CAPARICA",
      "lon": "-9.183491941942599",
      "lat": "38.57021626423465"
    },
    {
      "id": "pt.ine.add.PTCONT.4740491",
      "street": "R GIRASSOIS",
      "house": "15",
      "postcode": "2820-538",
      "city": "CHARNECA DA CAPARICA",
      "lon": "-9.178708791768038",
      "lat": "38.575078412266315"
    },
    {
      "id": "pt.ine.add.PTCONT.4742649",
      "street": "R JACINTOS",
      "house": "22",
      "postcode": "2820-558",
      "city": "CHARNECA DA CAPARICA",
      "lon": "-9.179088141595628",
      "lat": "38.57275093961224"
    },
    {
      "id": "pt.ine.add.PTCONT.4759575",
      "street": "R JACINTOS",
      "house": "38",
      "postcode": "2820-558",
      "city": "CHARNECA DA CAPARICA",
      "lon": "-9.181519153139906",
      "lat": "38.57263910817232"
    },
    {
      "id": "pt.ine.add.PTCONT.4759576",
      "street": "R JACINTOS",
      "house": "64",
      "postcode": "2820-558",
      "city": "CHARNECA DA CAPARICA",
      "lon": "-9.183772071571195",
      "lat": "38.569754338038905"
    },
    {
      "id": "pt.ine.add.PTCONT.4766795",
      "street": "R BEGONIAS",
      "house": "30",
      "postcode": "2820-534",
      "city": "CHARNECA DA CAPARICA",
      "lon": "-9.173600414712054",
      "lat": "38.578123625952585"
    },
    {
      "id": "pt.ine.add.PTCONT.4766889",
      "street": "R ALOES",
      "house": "4",
      "postcode": "2820-531",
      "city": "CHARNECA DA CAPARICA",
      "lon": "-9.185995402007128",
      "lat": "38.57271603121522"
    },
    {
      "id": "pt.ine.add.PTCONT.4770403",
      "street": "R JACINTOS",
      "house": "4",
      "postcode": "2820-558",
      "city": "CHARNECA DA CAPARICA",
      "lon": "-9.17502032597606",
      "lat": "38.57394025602695"
    },
    {
      "id": "pt.ine.add.PTCONT.4770448",
      "street": "R GARDENIAS",
      "house": "7",
      "postcode": "2820-537",
      "city": "CHARNECA DA CAPARICA",
      "lon": "-9.180506612910966",
      "lat": "38.574819119308124"
    },
    {
      "id": "pt.ine.add.PTCONT.4770453",
      "street": "R GIRASSOIS",
      "house": "5",
      "postcode": "2820-538",
      "city": "CHARNECA DA CAPARICA",
      "lon": "-9.179929828698668",
      "lat": "38.575400796136684"
    },
    {
      "id": "pt.ine.add.PTCONT.4773849",
      "street": "R BEGONIAS",
      "house": "20",
      "postcode": "2820-534",
      "city": "CHARNECA DA CAPARICA",
      "lon": "-9.17361040664625",
      "lat": "38.57643001953112"
    },
    {
      "id": "pt.ine.add.PTCONT.4799228",
      "street": "R GIRASSOIS",
      "house": "24",
      "postcode": "2820-538",
      "city": "CHARNECA DA CAPARICA",
      "lon": "-9.177442132156127",
      "lat": "38.57477443882106"
    },
    {
      "id": "pt.ine.add.PTCONT.4802939",
      "street": "R JACINTOS",
      "house": "32",
      "postcode": "2820-558",
      "city": "CHARNECA DA CAPARICA",
      "lon": "-9.180533112514206",
      "lat": "38.57269297691082"
    },
    {
      "id": "pt.ine.add.PTCONT.4802940",
      "street": "R JACINTOS",
      "house": "66",
      "postcode": "2820-558",
      "city": "CHARNECA DA CAPARICA",
      "lon": "-9.18394088237479",
      "lat": "38.569527620642866"
    },
    {
      "id": "pt.ine.add.PTCONT.4812036",
      "street": "R GIRASSOIS",
      "house": "8",
      "postcode": "2820-538",
      "city": "CHARNECA DA CAPARICA",
      "lon": "-9.178710114521738",
      "lat": "38.57596119146884"
    },
    {
      "id": "pt.ine.add.PTCONT.4823233",
      "street": "R JACINTOS",
      "house": "14",
      "postcode": "2820-558",
      "city": "CHARNECA DA CAPARICA",
      "lon": "-9.177565724576489",
      "lat": "38.5730077532965"
    },
    {
      "id": "pt.ine.add.PTCONT.4829416",
      "street": "R GIRASSOIS",
      "house": "12",
      "postcode": "2820-538",
      "city": "CHARNECA DA CAPARICA",
      "lon": "-9.180149822019041",
      "lat": "38.576326659501014"
    },
    {
      "id": "pt.ine.add.PTCONT.4840688",
      "street": "R LOTUS",
      "house": "10",
      "postcode": "2820-541",
      "city": "CHARNECA DA CAPARICA",
      "lon": "-9.175578174913312",
      "lat": "38.576016153862135"
    },
    {
      "id": "pt.ine.add.PTCONT.4840782",
      "street": "R ALOES",
      "house": "2",
      "postcode": "2820-531",
      "city": "CHARNECA DA CAPARICA",
      "lon": "-9.186706553500441",
      "lat": "38.57426802768377"
    },
    {
      "id": "pt.ine.add.PTCONT.4860162",
      "street": "R GIRASSOIS",
      "house": "17",
      "postcode": "2820-538",
      "city": "CHARNECA DA CAPARICA",
      "lon": "-9.177864834335782",
      "lat": "38.57543726372819"
    },
    {
      "id": "pt.ine.add.PTCONT.4860163",
      "street": "R GIRASSOIS",
      "house": "10",
      "postcode": "2820-538",
      "city": "CHARNECA DA CAPARICA",
      "lon": "-9.178681291251655",
      "lat": "38.57555608575817"
    },
    {
      "id": "pt.ine.add.PTCONT.4861733",
      "street": "R LOTUS",
      "house": "15",
      "postcode": "2820-541",
      "city": "CHARNECA DA CAPARICA",
      "lon": "-9.176886439820775",
      "lat": "38.57681522023173"
    },
    {
      "id": "pt.ine.add.PTCONT.4869007",
      "street": "R BEGONIAS",
      "house": "16",
      "postcode": "2820-534",
      "city": "CHARNECA DA CAPARICA",
      "lon": "-9.174059965657436",
      "lat": "38.57657015115122"
    },
    {
      "id": "pt.ine.add.PTCONT.4869008",
      "street": "R BEGONIAS",
      "house": "22",
      "postcode": "2820-534",
      "city": "CHARNECA DA CAPARICA",
      "lon": "-9.17358469121376",
      "lat": "38.57703378904346"
    },
    {
      "id": "pt.ine.add.PTCONT.4869009",
      "street": "R GIRASSOIS",
      "house": "1",
      "postcode": "2820-538",
      "city": "CHARNECA DA CAPARICA",
      "lon": "-9.179116658901073",
      "lat": "38.576299865458594"
    },
    {
      "id": "pt.ine.add.PTCONT.4869010",
      "street": "R ALOES",
      "house": "",
      "postcode": "2820-531",
      "city": "CHARNECA DA CAPARICA",
      "lon": "-9.185874514469967",
      "lat": "38.57465385362691"
    },
    {
      "id": "pt.ine.add.PTCONT.4869117",
      "street": "R JACINTOS",
      "house": "62",
      "postcode": "2820-558",
      "city": "CHARNECA DA CAPARICA",
      "lon": "-9.183603915521642",
      "lat": "38.570026089695354"
    },
    {
      "id": "pt.ine.add.PTCONT.4870707",
      "street": "R GIRASSOIS",
      "house": "2",
      "postcode": "2820-538",
      "city": "CHARNECA DA CAPARICA",
      "lon": "-9.179208710432967",
      "lat": "38.57631705887173"
    },
    {
      "id": "pt.ine.add.PTCONT.4876576",
      "street": "R LOTUS",
      "house": "14",
      "postcode": "2820-541",
      "city": "CHARNECA DA CAPARICA",
      "lon": "-9.176446523701319",
      "lat": "38.576548900551984"
    },
    {
      "id": "pt.ine.add.PTCONT.4876580",
      "street": "R JACINTOS",
      "house": "42",
      "postcode": "2820-558",
      "city": "CHARNECA DA CAPARICA",
      "lon": "-9.182087049312557",
      "lat": "38.572237664571574"
    },
    {
      "id": "pt.ine.add.PTCONT.4881798",
      "street": "R DAS BEGÓNIAS",
      "house": "2",
      "postcode": "2820-020",
      "city": "CHARNECA DA CAPARICA",
      "lon": "-9.176552060487364",
      "lat": "38.577998892300464"
    },
    {
      "id": "pt.ine.add.PTCONT.4887690",
      "street": "R BEGONIAS",
      "house": "23",
      "postcode": "2820-534",
      "city": "CHARNECA DA CAPARICA",
      "lon": "-9.17358910930096",
      "lat": "38.577340024229116"
    },
    {
      "id": "pt.ine.add.PTCONT.4887691",
      "street": "R ALOES",
      "house": "1",
      "postcode": "2820-531",
      "city": "CHARNECA DA CAPARICA",
      "lon": "-9.186476266244346",
      "lat": "38.57499975400637"
    },
    {
      "id": "pt.ine.add.PTCONT.4888594",
      "street": "R JACINTOS",
      "house": "26",
      "postcode": "2820-558",
      "city": "CHARNECA DA CAPARICA",
      "lon": "-9.1796260759569",
      "lat": "38.57265605021493"
    },
    {
      "id": "pt.ine.add.PTCONT.4890752",
      "street": "R ALOES",
      "house": "3",
      "postcode": "2820-531",
      "city": "CHARNECA DA CAPARICA",
      "lon": "-9.18662889854815",
      "lat": "38.57366518609761"
    },
    {
      "id": "pt.ine.add.PTCONT.4890790",
      "street": "R JACINTOS",
      "house": "40",
      "postcode": "2820-558",
      "city": "CHARNECA DA CAPARICA",
      "lon": "-9.181837390537689",
      "lat": "38.57242907140518"
    },
    {
      "id": "pt.ine.add.PTCONT.4895356",
      "street": "R GIRASSOIS",
      "house": "4",
      "postcode": "2820-538",
      "city": "CHARNECA DA CAPARICA",
      "lon": "-9.180109647511472",
      "lat": "38.575930663828046"
    },
    {
      "id": "pt.ine.add.PTCONT.4896886",
      "street": "R LOTUS",
      "house": "6",
      "postcode": "2820-541",
      "city": "CHARNECA DA CAPARICA",
      "lon": "-9.175560452326184",
      "lat": "38.57558392420089"
    },
    {
      "id": "pt.ine.add.PTCONT.4906086",
      "street": "R DAS BEGÓNIAS",
      "house": "40",
      "postcode": "2820-571",
      "city": "CHARNECA DA CAPARICA",
      "lon": "-9.17686687845516",
      "lat": "38.577842314676865"
    },
    {
      "id": "pt.ine.add.PTCONT.4908338",
      "street": "R BEGONIAS",
      "house": "21",
      "postcode": "2820-534",
      "city": "CHARNECA DA CAPARICA",
      "lon": "-9.1736143049672",
      "lat": "38.576700227074454"
    },
    {
      "id": "pt.ine.add.PTCONT.4911627",
      "street": "R JACINTOS",
      "house": "48",
      "postcode": "2820-558",
      "city": "CHARNECA DA CAPARICA",
      "lon": "-9.182570696537418",
      "lat": "38.571566731423516"
    },
    {
      "id": "pt.ine.add.PTCONT.4919092",
      "street": "R GARDENIAS",
      "house": "",
      "postcode": "2820-537",
      "city": "CHARNECA DA CAPARICA",
      "lon": "-9.18062958952938",
      "lat": "38.57538552719208"
    },
    {
      "id": "pt.ine.add.PTCONT.4926091",
      "street": "R BEGONIAS",
      "house": "29",
      "postcode": "2820-534",
      "city": "CHARNECA DA CAPARICA",
      "lon": "-9.173697703312635",
      "lat": "38.57770838971127"
    },
    {
      "id": "pt.ine.add.PTCONT.4938693",
      "street": "R DAS BEGONIAS",
      "house": "3",
      "postcode": "2819-505",
      "city": "SOBREDA",
      "lon": "-9.176201384332076",
      "lat": "38.577848247772685"
    },
    {
      "id": "pt.ine.add.PTCONT.4944070",
      "street": "R BEGONIAS",
      "house": "2",
      "postcode": "2820-534",
      "city": "CHARNECA DA CAPARICA",
      "lon": "-9.176162793638522",
      "lat": "38.577560333464824"
    },
    {
      "id": "pt.ine.add.PTCONT.4944113",
      "street": "R BEGONIAS",
      "house": "27",
      "postcode": "2820-534",
      "city": "CHARNECA DA CAPARICA",
      "lon": "-9.173239996892871",
      "lat": "38.57620811012723"
    },
    {
      "id": "pt.ine.add.PTCONT.4944172",
      "street": "R GIRASSOIS",
      "house": "",
      "postcode": "2820-538",
      "city": "CHARNECA DA CAPARICA",
      "lon": "-9.17958394737015",
      "lat": "38.576079494552985"
    },
    {
      "id": "pt.ine.add.PTCONT.4951214",
      "street": "R LOTUS",
      "house": "12",
      "postcode": "2820-541",
      "city": "CHARNECA DA CAPARICA",
      "lon": "-9.17556134613133",
      "lat": "38.57643968316753"
    },
    {
      "id": "pt.ine.add.PTCONT.4962376",
      "street": "R ALOES",
      "house": "15",
      "postcode": "2820-531",
      "city": "CHARNECA DA CAPARICA",
      "lon": "-9.184995566847931",
      "lat": "38.574184328725345"
    },
    {
      "id": "pt.ine.add.PTCONT.4972978",
      "street": "R LOTUS",
      "house": "11",
      "postcode": "2820-541",
      "city": "CHARNECA DA CAPARICA",
      "lon": "-9.175971668496578",
      "lat": "38.576246858227336"
    },
    {
      "id": "pt.ine.add.PTCONT.4973109",
      "street": "R ALOES",
      "house": "13",
      "postcode": "2820-531",
      "city": "CHARNECA DA CAPARICA",
      "lon": "-9.184413521184347",
      "lat": "38.57518945402182"
    },
    {
      "id": "pt.ine.add.PTCONT.4979788",
      "street": "R GARDENIAS",
      "house": "5",
      "postcode": "2820-537",
      "city": "CHARNECA DA CAPARICA",
      "lon": "-9.181350156897173",
      "lat": "38.57443322834799"
    },
    {
      "id": "pt.ine.add.PTCONT.4984095",
      "street": "R JACINTOS",
      "house": "24",
      "postcode": "2820-558",
      "city": "CHARNECA DA CAPARICA",
      "lon": "-9.17934016042978",
      "lat": "38.57272166287438"
    },
    {
      "id": "pt.ine.add.PTCONT.4987628",
      "street": "R LOTUS",
      "house": "9",
      "postcode": "2820-541",
      "city": "CHARNECA DA CAPARICA",
      "lon": "-9.175132520494119",
      "lat": "38.57614623549257"
    },
    {
      "id": "pt.ine.add.PTCONT.4987636",
      "street": "R ALELUIAS",
      "house": "7",
      "postcode": "2820-529",
      "city": "CHARNECA DA CAPARICA",
      "lon": "-9.175278475057333",
      "lat": "38.57909958312478"
    },
    {
      "id": "pt.ine.add.PTCONT.5002219",
      "street": "R GIRASSOIS",
      "house": "25",
      "postcode": "2820-538",
      "city": "CHARNECA DA CAPARICA",
      "lon": "-9.176872886515405",
      "lat": "38.57508579124625"
    },
    {
      "id": "pt.ine.add.PTCONT.5012359",
      "street": "R JACINTOS",
      "house": "20",
      "postcode": "2820-558",
      "city": "CHARNECA DA CAPARICA",
      "lon": "-9.178743553360562",
      "lat": "38.57272699439169"
    },
    {
      "id": "pt.ine.add.PTCONT.5020074",
      "street": "R BEGONIAS",
      "house": "8",
      "postcode": "2820-534",
      "city": "CHARNECA DA CAPARICA",
      "lon": "-9.17538765768374",
      "lat": "38.57712584352947"
    },
    {
      "id": "pt.ine.add.PTCONT.5024377",
      "street": "R BEGONIAS",
      "house": "34",
      "postcode": "2820-534",
      "city": "CHARNECA DA CAPARICA",
      "lon": "-9.174017772047986",
      "lat": "38.57841718111632"
    },
    {
      "id": "pt.ine.add.PTCONT.5028136",
      "street": "R LOTUS",
      "house": "5",
      "postcode": "2820-541",
      "city": "CHARNECA DA CAPARICA",
      "lon": "-9.176067117655327",
      "lat": "38.575705523338655"
    },
    {
      "id": "pt.ine.add.PTCONT.5029637",
      "street": "R BEGONIAS",
      "house": "17",
      "postcode": "2820-534",
      "city": "CHARNECA DA CAPARICA",
      "lon": "-9.174078103278571",
      "lat": "38.57623669112041"
    },
    {
      "id": "pt.ine.add.PTCONT.5032589",
      "street": "R GIRASSOIS",
      "house": "26",
      "postcode": "2820-538",
      "city": "CHARNECA DA CAPARICA",
      "lon": "-9.176593213641688",
      "lat": "38.57558372907173"
    },
    {
      "id": "pt.ine.add.PTCONT.5032590",
      "street": "R BEGONIAS",
      "house": "13",
      "postcode": "2820-534",
      "city": "CHARNECA DA CAPARICA",
      "lon": "-9.174429989618408",
      "lat": "38.576765037138436"
    },
    {
      "id": "pt.ine.add.PTCONT.5042598",
      "street": "R LOTUS CASA DAS PALMEIRAS",
      "house": "16",
      "postcode": "2820-541",
      "city": "CHARNECA DA CAPARICA",
      "lon": "-9.17647559556116",
      "lat": "38.57697202073493"
    },
    {
      "id": "pt.ine.add.PTCONT.5042613",
      "street": "R LOTUS",
      "house": "8",
      "postcode": "2820-541",
      "city": "CHARNECA DA CAPARICA",
      "lon": "-9.17473981057867",
      "lat": "38.575969569751564"
    },
    {
      "id": "pt.ine.add.PTCONT.5042631",
      "street": "R GARDENIAS",
      "house": "8",
      "postcode": "2820-537",
      "city": "CHARNECA DA CAPARICA",
      "lon": "-9.182570204903895",
      "lat": "38.57547623912995"
    },
    {
      "id": "pt.ine.add.PTCONT.5042632",
      "street": "R GIRASSOIS",
      "house": "11",
      "postcode": "2820-538",
      "city": "CHARNECA DA CAPARICA",
      "lon": "-9.179172568640697",
      "lat": "38.57540756675142"
    },
    {
      "id": "pt.ine.add.PTCONT.5053848",
      "street": "R ALELUIAS",
      "house": "6",
      "postcode": "2820-529",
      "city": "CHARNECA DA CAPARICA",
      "lon": "-9.174874534557983",
      "lat": "38.578941034149075"
    },
    {
      "id": "pt.ine.add.PTCONT.5053849",
      "street": "R ALELUIAS",
      "house": "3",
      "postcode": "2820-529",
      "city": "CHARNECA DA CAPARICA",
      "lon": "-9.174680670168037",
      "lat": "38.57823112211561"
    },
    {
      "id": "pt.ine.add.PTCONT.5055514",
      "street": "R GIRASSOIS",
      "house": "3",
      "postcode": "2820-538",
      "city": "CHARNECA DA CAPARICA",
      "lon": "-9.179276769233445",
      "lat": "38.57626240211662"
    },
    {
      "id": "pt.ine.add.PTCONT.5060936",
      "street": "R BEGONIAS",
      "house": "25",
      "postcode": "2820-534",
      "city": "CHARNECA DA CAPARICA",
      "lon": "-9.17318466275399",
      "lat": "38.577145441511234"
    },
    {
      "id": "pt.ine.add.PTCONT.5071098",
      "street": "R BEGONIAS",
      "house": "14",
      "postcode": "2820-534",
      "city": "CHARNECA DA CAPARICA",
      "lon": "-9.174422157046305",
      "lat": "38.577017332852215"
    },
    {
      "id": "pt.ine.add.PTCONT.5071102",
      "street": "R JACINTOS",
      "house": "28",
      "postcode": "2820-558",
      "city": "CHARNECA DA CAPARICA",
      "lon": "-9.17986805879743",
      "lat": "38.572725950904"
    },
    {
      "id": "pt.ine.add.PTCONT.5076420",
      "street": "R LOTUS",
      "house": "2",
      "postcode": "2820-541",
      "city": "CHARNECA DA CAPARICA",
      "lon": "-9.177605380304852",
      "lat": "38.57653856420439"
    },
    {
      "id": "pt.ine.add.PTCONT.5076421",
      "street": "R BEGONIAS",
      "house": "",
      "postcode": "2820-534",
      "city": "CHARNECA DA CAPARICA",
      "lon": "-9.173583171003685",
      "lat": "38.57613299522424"
    },
    {
      "id": "pt.ine.add.PTCONT.5080530",
      "street": "R GIRASSOIS",
      "house": "9",
      "postcode": "2820-538",
      "city": "CHARNECA DA CAPARICA",
      "lon": "-9.178328348719809",
      "lat": "38.575748407748065"
    },
    {
      "id": "pt.ine.add.PTCONT.5085959",
      "street": "R BEGONIAS",
      "house": "15",
      "postcode": "2820-534",
      "city": "CHARNECA DA CAPARICA",
      "lon": "-9.174052391796252",
      "lat": "38.57684046069929"
    },
    {
      "id": "pt.ine.add.PTCONT.5089574",
      "street": "R ALELUIAS",
      "house": "9",
      "postcode": "2820-529",
      "city": "CHARNECA DA CAPARICA",
      "lon": "-9.174422979083761",
      "lat": "38.579458512598194"
    },
    {
      "id": "pt.ine.add.PTCONT.5091400",
      "street": "R DAS GARDÉNIAS",
      "house": "8",
      "postcode": "2819-505",
      "city": "SOBREDA",
      "lon": "-9.18141952138932",
      "lat": "38.574468639368085"
    },
    {
      "id": "pt.ine.add.PTCONT.5093180",
      "street": "R LOTUS",
      "house": "17",
      "postcode": "2820-541",
      "city": "CHARNECA DA CAPARICA",
      "lon": "-9.176868966878423",
      "lat": "38.57719371502392"
    },
    {
      "id": "pt.ine.add.PTCONT.5093220",
      "street": "R BEGONIAS",
      "house": "26",
      "postcode": "2820-534",
      "city": "CHARNECA DA CAPARICA",
      "lon": "-9.173203194192165",
      "lat": "38.576839002346254"
    },
    {
      "id": "pt.ine.add.PTCONT.5099525",
      "street": "R ALELUIAS",
      "house": "2",
      "postcode": "2820-529",
      "city": "CHARNECA DA CAPARICA",
      "lon": "-9.175386057748804",
      "lat": "38.57860318130193"
    },
    {
      "id": "pt.ine.add.PTCONT.5099527",
      "street": "R GIRASSOIS",
      "house": "",
      "postcode": "2820-538",
      "city": "CHARNECA DA CAPARICA",
      "lon": "-9.178772279481525",
      "lat": "38.57470851409447"
    },
    {
      "id": "pt.ine.add.PTCONT.5103713",
      "street": "R GARDENIAS",
      "house": "4",
      "postcode": "2820-537",
      "city": "CHARNECA DA CAPARICA",
      "lon": "-9.182168310634426",
      "lat": "38.574669115817095"
    },
    {
      "id": "pt.ine.add.PTCONT.5103753",
      "street": "R JACINTOS",
      "house": "34",
      "postcode": "2820-558",
      "city": "CHARNECA DA CAPARICA",
      "lon": "-9.18099099378655",
      "lat": "38.57261681377674"
    },
    {
      "id": "pt.ine.add.PTCONT.5108050",
      "street": "R BEGONIAS",
      "house": "12",
      "postcode": "2820-534",
      "city": "CHARNECA DA CAPARICA",
      "lon": "-9.174459599375037",
      "lat": "38.57643147499685"
    },
    {
      "id": "pt.ine.add.PTCONT.5110745",
      "street": "R JACINTOS",
      "house": "12",
      "postcode": "2820-558",
      "city": "CHARNECA DA CAPARICA",
      "lon": "-9.177144342644347",
      "lat": "38.573227706695825"
    },
    {
      "id": "pt.ine.add.PTCONT.5115218",
      "street": "R BEGONIAS",
      "house": "7",
      "postcode": "2820-534",
      "city": "CHARNECA DA CAPARICA",
      "lon": "-9.175871255514174",
      "lat": "38.5772386407841"
    },
    {
      "id": "pt.ine.add.PTCONT.5115222",
      "street": "R ALOES",
      "house": "6",
      "postcode": "2820-531",
      "city": "CHARNECA DA CAPARICA",
      "lon": "-9.185794894170892",
      "lat": "38.57391590812971"
    },
    {
      "id": "pt.ine.add.PTCONT.5115223",
      "street": "R GIRASSOIS",
      "house": "13",
      "postcode": "2820-538",
      "city": "CHARNECA DA CAPARICA",
      "lon": "-9.179627201414997",
      "lat": "38.57510623613885"
    },
    {
      "id": "pt.ine.add.PTCONT.5118052",
      "street": "R LOTUS",
      "house": "3",
      "postcode": "2820-541",
      "city": "CHARNECA DA CAPARICA",
      "lon": "-9.177095968709592",
      "lat": "38.576227826784"
    },
    {
      "id": "pt.ine.add.PTCONT.5129240",
      "street": "R ALOES",
      "house": "",
      "postcode": "2820-531",
      "city": "CHARNECA DA CAPARICA",
      "lon": "-9.183661178432448",
      "lat": "38.57474580604161"
    }
  ]
}