{
  "data": {
    "distrito": "Vila Real",
    "concelho": "Peso da Régua",
    "freguesia": "União das freguesias de Peso da Régua e Godim",
    "OBJECTID": 327,
    "BGRI2021": "17081500701",
    "DT21": "17",
    "DTMN21": "1708",
    "DTMNFR21": "170815",
    "DTMNFRSEC21": "170815007",
    "SECNUM21": "007",
    "SSNUM21": "01",
    "SECSSNUM21": "00701",
    "OBJECTID_1": 184277,
    "DT": "17",
    "CC": "08",
    "fr": "15",
    "SEC": "007",
    "SS": "01"
  },
  "addresses": [
    {
      "id": "pt.ine.add.PTCONT.5286935",
      "street": "AV DIOCESE DE VILA REAL",
      "house": "",
      "postcode": "5050-221",
      "city": "PESO DA RÉGUA",
      "lon": "-7.778292690787432",
      "lat": "41.158229956022666"
    },
    {
      "id": "pt.ine.add.PTCONT.5286936",
      "street": "AV DIOCESE DE VILA REAL",
      "house": "",
      "postcode": "5050-221",
      "city": "PESO DA RÉGUA",
      "lon": "-7.778292690787432",
      "lat": "41.158229956022666"
    },
    {
      "id": "pt.ine.add.PTCONT.5286937",
      "street": "AV DIOCESE DE VILA REAL",
      "house": "",
      "postcode": "5050-221",
      "city": "PESO DA RÉGUA",
      "lon": "-7.778292690787432",
      "lat": "41.158229956022666"
    },
    {
      "id": "pt.ine.add.PTCONT.5286938",
      "street": "AV DIOCESE DE VILA REAL",
      "house": "",
      "postcode": "5050-221",
      "city": "PESO DA RÉGUA",
      "lon": "-7.778292690787432",
      "lat": "41.158229956022666"
    },
    {
      "id": "pt.ine.add.PTCONT.5286939",
      "street": "AV DIOCESE",
      "house": "1",
      "postcode": "5050-221",
      "city": "PESO DA RÉGUA",
      "lon": "-7.778292690787432",
      "lat": "41.158229956022666"
    },
    {
      "id": "pt.ine.add.PTCONT.5286940",
      "street": "AV DIOCESE DE VILA REAL",
      "house": "",
      "postcode": "5050-221",
      "city": "PESO DA RÉGUA",
      "lon": "-7.778292690787432",
      "lat": "41.158229956022666"
    },
    {
      "id": "pt.ine.add.PTCONT.5287483",
      "street": "AV DIOCESE",
      "house": "1",
      "postcode": "5050-221",
      "city": "PESO DA RÉGUA",
      "lon": "-7.778292690787432",
      "lat": "41.158229956022666"
    },
    {
      "id": "pt.ine.add.PTCONT.5287657",
      "street": "",
      "house": "",
      "postcode": "5050-207",
      "city": "PESO DA RÉGUA",
      "lon": "-7.779287697612869",
      "lat": "41.15708946226045"
    },
    {
      "id": "pt.ine.add.PTCONT.5287658",
      "street": "",
      "house": "",
      "postcode": "5050-207",
      "city": "PESO DA RÉGUA",
      "lon": "-7.779287407093664",
      "lat": "41.157143487565165"
    },
    {
      "id": "pt.ine.add.PTCONT.5292627",
      "street": "LUGAR JUNCAL DE CIMA",
      "house": "5",
      "postcode": "5050-207",
      "city": "PESO DA RÉGUA",
      "lon": "-7.779288230229362",
      "lat": "41.15699041586715"
    },
    {
      "id": "pt.ine.add.PTCONT.5293683",
      "street": "AV DIOCESE",
      "house": "4",
      "postcode": "5050-221",
      "city": "PESO DA RÉGUA",
      "lon": "-7.77824770602674",
      "lat": "41.157734577388716"
    },
    {
      "id": "pt.ine.add.PTCONT.5293684",
      "street": "AV DIOCESE",
      "house": "4",
      "postcode": "5050-221",
      "city": "PESO DA RÉGUA",
      "lon": "-7.77824770602674",
      "lat": "41.157734577388716"
    },
    {
      "id": "pt.ine.add.PTCONT.5293685",
      "street": "AV DIOCESE",
      "house": "4",
      "postcode": "5050-221",
      "city": "PESO DA RÉGUA",
      "lon": "-7.77824770602674",
      "lat": "41.157734577388716"
    },
    {
      "id": "pt.ine.add.PTCONT.5293686",
      "street": "AV DIOCESE",
      "house": "4",
      "postcode": "5050-221",
      "city": "PESO DA RÉGUA",
      "lon": "-7.77824770602674",
      "lat": "41.157734577388716"
    },
    {
      "id": "pt.ine.add.PTCONT.5293687",
      "street": "AV DIOCESE",
      "house": "4",
      "postcode": "5050-221",
      "city": "PESO DA RÉGUA",
      "lon": "-7.77824770602674",
      "lat": "41.157734577388716"
    },
    {
      "id": "pt.ine.add.PTCONT.5293770",
      "street": "",
      "house": "",
      "postcode": "5050-207",
      "city": "PESO DA RÉGUA",
      "lon": "-7.779742402312333",
      "lat": "41.15672167903113"
    },
    {
      "id": "pt.ine.add.PTCONT.5293771",
      "street": "",
      "house": "",
      "postcode": "5050-207",
      "city": "PESO DA RÉGUA",
      "lon": "-7.779742402312333",
      "lat": "41.15672167903113"
    },
    {
      "id": "pt.ine.add.PTCONT.5294606",
      "street": "AV DIOCESE DE VILA REAL",
      "house": "4",
      "postcode": "5050-221",
      "city": "PESO DA RÉGUA",
      "lon": "-7.77824770602674",
      "lat": "41.157734577388716"
    },
    {
      "id": "pt.ine.add.PTCONT.5299866",
      "street": "",
      "house": "",
      "postcode": "5050-207",
      "city": "PESO DA RÉGUA",
      "lon": "-7.779467613556708",
      "lat": "41.15686490559971"
    },
    {
      "id": "pt.ine.add.PTCONT.5299883",
      "street": "LUGAR JUNCAL DE CIMA",
      "house": "",
      "postcode": "5050-205",
      "city": "PESO DA RÉGUA",
      "lon": "-7.779990414876941",
      "lat": "41.157127636089484"
    },
    {
      "id": "pt.ine.add.PTCONT.5300915",
      "street": "AV DIOCESE DE VILA REAL",
      "house": "",
      "postcode": "5050-221",
      "city": "PESO DA RÉGUA",
      "lon": "-7.77777864043795",
      "lat": "41.15634645900525"
    },
    {
      "id": "pt.ine.add.PTCONT.5301818",
      "street": "AV DIOCESE DE VILA REAL",
      "house": "",
      "postcode": "5050-221",
      "city": "PESO DA RÉGUA",
      "lon": "-7.77777864043795",
      "lat": "41.15634645900525"
    },
    {
      "id": "pt.ine.add.PTCONT.5303975",
      "street": "",
      "house": "",
      "postcode": "5050-207",
      "city": "PESO DA RÉGUA",
      "lon": "-7.778028631703767",
      "lat": "41.15638324736306"
    },
    {
      "id": "pt.ine.add.PTCONT.5303976",
      "street": "",
      "house": "",
      "postcode": "5050-207",
      "city": "PESO DA RÉGUA",
      "lon": "-7.778184625708805",
      "lat": "41.1561766276724"
    },
    {
      "id": "pt.ine.add.PTCONT.5303977",
      "street": "",
      "house": "",
      "postcode": "5050-207",
      "city": "PESO DA RÉGUA",
      "lon": "-7.778184625708805",
      "lat": "41.1561766276724"
    },
    {
      "id": "pt.ine.add.PTCONT.5308597",
      "street": "ILHA DO ARROCHELA",
      "house": "",
      "postcode": "5050-207",
      "city": "PESO DA RÉGUA",
      "lon": "-7.777969987041213",
      "lat": "41.15621198359283"
    },
    {
      "id": "pt.ine.add.PTCONT.5310472",
      "street": "",
      "house": "",
      "postcode": "5050-207",
      "city": "PESO DA RÉGUA",
      "lon": "-7.779287939711604",
      "lat": "41.157044441172815"
    },
    {
      "id": "pt.ine.add.PTCONT.5313574",
      "street": "AV DIOCESE DE VILA REAL",
      "house": "",
      "postcode": "5050-221",
      "city": "PESO DA RÉGUA",
      "lon": "-7.777773437432319",
      "lat": "41.157309910163384"
    },
    {
      "id": "pt.ine.add.PTCONT.5313575",
      "street": "AV DIOCESE DE VILA REAL",
      "house": "",
      "postcode": "5050-221",
      "city": "PESO DA RÉGUA",
      "lon": "-7.777773437432319",
      "lat": "41.157309910163384"
    },
    {
      "id": "pt.ine.add.PTCONT.5313576",
      "street": "AV DIOCESE DE VILA REAL",
      "house": "",
      "postcode": "5050-221",
      "city": "PESO DA RÉGUA",
      "lon": "-7.777773437432319",
      "lat": "41.157309910163384"
    },
    {
      "id": "pt.ine.add.PTCONT.5313577",
      "street": "AV DIOCESE DE VILA REAL",
      "house": "",
      "postcode": "5050-221",
      "city": "PESO DA RÉGUA",
      "lon": "-7.777773437432319",
      "lat": "41.157309910163384"
    },
    {
      "id": "pt.ine.add.PTCONT.5313578",
      "street": "AV DIOCESE DE VILA REAL",
      "house": "",
      "postcode": "5050-221",
      "city": "PESO DA RÉGUA",
      "lon": "-7.777773437432319",
      "lat": "41.157309910163384"
    },
    {
      "id": "pt.ine.add.PTCONT.5313579",
      "street": "AV DIOCESE DE VILA REAL",
      "house": "",
      "postcode": "5050-221",
      "city": "PESO DA RÉGUA",
      "lon": "-7.777773437432319",
      "lat": "41.157309910163384"
    },
    {
      "id": "pt.ine.add.PTCONT.5313611",
      "street": "URB COLINA SOL",
      "house": "6",
      "postcode": "5050-221",
      "city": "PESO DA RÉGUA",
      "lon": "-7.778559455550637",
      "lat": "41.15736635839079"
    },
    {
      "id": "pt.ine.add.PTCONT.5313612",
      "street": "URB COLINA SOL",
      "house": "6",
      "postcode": "5050-221",
      "city": "PESO DA RÉGUA",
      "lon": "-7.778559455550637",
      "lat": "41.15736635839079"
    },
    {
      "id": "pt.ine.add.PTCONT.5313613",
      "street": "URB COLINA SOL",
      "house": "6",
      "postcode": "5050-221",
      "city": "PESO DA RÉGUA",
      "lon": "-7.778559455550637",
      "lat": "41.15736635839079"
    },
    {
      "id": "pt.ine.add.PTCONT.5313614",
      "street": "LUGAR JUNCAL DE CIMA",
      "house": "6",
      "postcode": "5050-207",
      "city": "PESO DA RÉGUA",
      "lon": "-7.778559455550637",
      "lat": "41.15736635839079"
    },
    {
      "id": "pt.ine.add.PTCONT.5313615",
      "street": "LUGAR JUNCAL DE CIMA",
      "house": "6",
      "postcode": "5050-207",
      "city": "PESO DA RÉGUA",
      "lon": "-7.778559455550637",
      "lat": "41.15736635839079"
    },
    {
      "id": "pt.ine.add.PTCONT.5313616",
      "street": "URB COLINA SOL",
      "house": "",
      "postcode": "5050-221",
      "city": "PESO DA RÉGUA",
      "lon": "-7.778559455550637",
      "lat": "41.15736635839079"
    },
    {
      "id": "pt.ine.add.PTCONT.5313617",
      "street": "LUGAR JUNCAL DE CIMA",
      "house": "6",
      "postcode": "5050-207",
      "city": "PESO DA RÉGUA",
      "lon": "-7.778559455550637",
      "lat": "41.15736635839079"
    },
    {
      "id": "pt.ine.add.PTCONT.5313618",
      "street": "AV DIOCESE",
      "house": "",
      "postcode": "5050-221",
      "city": "PESO DA RÉGUA",
      "lon": "-7.778559455550637",
      "lat": "41.15736635839079"
    },
    {
      "id": "pt.ine.add.PTCONT.5314415",
      "street": "LUGAR JUNCAL DE CIMA",
      "house": "6",
      "postcode": "5050-207",
      "city": "PESO DA RÉGUA",
      "lon": "-7.778559455550637",
      "lat": "41.15736635839079"
    },
    {
      "id": "pt.ine.add.PTCONT.5320113",
      "street": "",
      "house": "",
      "postcode": "5050-207",
      "city": "PESO DA RÉGUA",
      "lon": "-7.779884399621294",
      "lat": "41.15690220188427"
    },
    {
      "id": "pt.ine.add.PTCONT.5321416",
      "street": "",
      "house": "",
      "postcode": "5050-207",
      "city": "PESO DA RÉGUA",
      "lon": "-7.778279691495946",
      "lat": "41.15622194238938"
    },
    {
      "id": "pt.ine.add.PTCONT.5321417",
      "street": "",
      "house": "",
      "postcode": "5050-207",
      "city": "PESO DA RÉGUA",
      "lon": "-7.779765165869119",
      "lat": "41.15691984492832"
    },
    {
      "id": "pt.ine.add.PTCONT.5326818",
      "street": "JUNCAL CIMA",
      "house": "",
      "postcode": "5050-221",
      "city": "PESO DA RÉGUA",
      "lon": "-7.777933954688633",
      "lat": "41.15626589870061"
    },
    {
      "id": "pt.ine.add.PTCONT.5328230",
      "street": "",
      "house": "",
      "postcode": "5050-207",
      "city": "PESO DA RÉGUA",
      "lon": "-7.780015305412304",
      "lat": "41.156929616329066"
    },
    {
      "id": "pt.ine.add.PTCONT.5328246",
      "street": "",
      "house": "",
      "postcode": "5050-207",
      "city": "PESO DA RÉGUA",
      "lon": "-7.779564422958996",
      "lat": "41.15658606740123"
    },
    {
      "id": "pt.ine.add.PTCONT.5333516",
      "street": "AV DIOCESE DE VILA REAL",
      "house": "821",
      "postcode": "5050-221",
      "city": "PESO DA RÉGUA",
      "lon": "-7.7795905849847795",
      "lat": "41.158369012096195"
    },
    {
      "id": "pt.ine.add.PTCONT.5335066",
      "street": "",
      "house": "",
      "postcode": "5050-207",
      "city": "PESO DA RÉGUA",
      "lon": "-7.779298788238422",
      "lat": "41.15724257055033"
    },
    {
      "id": "pt.ine.add.PTCONT.5341373",
      "street": "URB COLINA SOL",
      "house": "2",
      "postcode": "5050-221",
      "city": "PESO DA RÉGUA",
      "lon": "-7.778778898130982",
      "lat": "41.15643958387859"
    },
    {
      "id": "pt.ine.add.PTCONT.5341435",
      "street": "LUGAR JUNCAL DE CIMA",
      "house": "BIOCO 2",
      "postcode": "5050-207",
      "city": "PESO DA RÉGUA",
      "lon": "-7.778778898130982",
      "lat": "41.15643958387859"
    },
    {
      "id": "pt.ine.add.PTCONT.5341436",
      "street": "LUGAR JUNCAL DE CIMA",
      "house": "BIOCO 2",
      "postcode": "5050-207",
      "city": "PESO DA RÉGUA",
      "lon": "-7.778778898130982",
      "lat": "41.15643958387859"
    },
    {
      "id": "pt.ine.add.PTCONT.5341437",
      "street": "URB COLINA SOL",
      "house": "2",
      "postcode": "5050-221",
      "city": "PESO DA RÉGUA",
      "lon": "-7.778778898130982",
      "lat": "41.15643958387859"
    },
    {
      "id": "pt.ine.add.PTCONT.5341438",
      "street": "URB COLINA SOL",
      "house": "2",
      "postcode": "5050-221",
      "city": "PESO DA RÉGUA",
      "lon": "-7.778778898130982",
      "lat": "41.15643958387859"
    },
    {
      "id": "pt.ine.add.PTCONT.5341439",
      "street": "JUNCAL CIMA",
      "house": "",
      "postcode": "5050-207",
      "city": "PESO DA RÉGUA",
      "lon": "-7.778778898130982",
      "lat": "41.15643958387859"
    },
    {
      "id": "pt.ine.add.PTCONT.5341440",
      "street": "LUGAR JUNCAL DE CIMA",
      "house": "BIOCO 2",
      "postcode": "5050-207",
      "city": "PESO DA RÉGUA",
      "lon": "-7.778778898130982",
      "lat": "41.15643958387859"
    },
    {
      "id": "pt.ine.add.PTCONT.5341912",
      "street": "LUGAR JUNCAL DE CIMA",
      "house": "BIOCO 2",
      "postcode": "5050-207",
      "city": "PESO DA RÉGUA",
      "lon": "-7.778778898130982",
      "lat": "41.15643958387859"
    },
    {
      "id": "pt.ine.add.PTCONT.5347637",
      "street": "",
      "house": "",
      "postcode": "5050-207",
      "city": "PESO DA RÉGUA",
      "lon": "-7.7783510758789065",
      "lat": "41.1562401709944"
    },
    {
      "id": "pt.ine.add.PTCONT.5346522",
      "street": "AV DIOCESE",
      "house": "3",
      "postcode": "5050-221",
      "city": "PESO DA RÉGUA",
      "lon": "-7.778127547321866",
      "lat": "41.157923298816755"
    },
    {
      "id": "pt.ine.add.PTCONT.5346573",
      "street": "AV DIOCESE",
      "house": "3",
      "postcode": "5050-221",
      "city": "PESO DA RÉGUA",
      "lon": "-7.778127547321866",
      "lat": "41.157923298816755"
    },
    {
      "id": "pt.ine.add.PTCONT.5346574",
      "street": "AV DIOCESE",
      "house": "3",
      "postcode": "5050-221",
      "city": "PESO DA RÉGUA",
      "lon": "-7.778127547321866",
      "lat": "41.157923298816755"
    },
    {
      "id": "pt.ine.add.PTCONT.5346575",
      "street": "AV DIOCESE",
      "house": "3",
      "postcode": "5050-221",
      "city": "PESO DA RÉGUA",
      "lon": "-7.778127547321866",
      "lat": "41.157923298816755"
    },
    {
      "id": "pt.ine.add.PTCONT.5346576",
      "street": "AV DIOCESE",
      "house": "3",
      "postcode": "5050-221",
      "city": "PESO DA RÉGUA",
      "lon": "-7.778127547321866",
      "lat": "41.157923298816755"
    },
    {
      "id": "pt.ine.add.PTCONT.5347080",
      "street": "AV DIOCESE",
      "house": "3",
      "postcode": "5050-221",
      "city": "PESO DA RÉGUA",
      "lon": "-7.778127547321866",
      "lat": "41.157923298816755"
    },
    {
      "id": "pt.ine.add.PTCONT.5347116",
      "street": "AV DIOCESE",
      "house": "3",
      "postcode": "5050-221",
      "city": "PESO DA RÉGUA",
      "lon": "-7.778127547321866",
      "lat": "41.157923298816755"
    },
    {
      "id": "pt.ine.add.PTCONT.5352638",
      "street": "AV DIOCESE DE VILA REAL",
      "house": "",
      "postcode": "5050-221",
      "city": "PESO DA RÉGUA",
      "lon": "-7.777779369811087",
      "lat": "41.156211395745814"
    },
    {
      "id": "pt.ine.add.PTCONT.5359510",
      "street": "AV DIOCESE",
      "house": "5",
      "postcode": "5050-221",
      "city": "PESO DA RÉGUA",
      "lon": "-7.778367038746403",
      "lat": "41.15769892749427"
    },
    {
      "id": "pt.ine.add.PTCONT.5359511",
      "street": "AV DIOCESE",
      "house": "5",
      "postcode": "5050-221",
      "city": "PESO DA RÉGUA",
      "lon": "-7.778367038746403",
      "lat": "41.15769892749427"
    },
    {
      "id": "pt.ine.add.PTCONT.5359512",
      "street": "AV DIOCESE",
      "house": "5",
      "postcode": "5050-221",
      "city": "PESO DA RÉGUA",
      "lon": "-7.778367038746403",
      "lat": "41.15769892749427"
    },
    {
      "id": "pt.ine.add.PTCONT.5359513",
      "street": "AV DIOCESE",
      "house": "5",
      "postcode": "5050-221",
      "city": "PESO DA RÉGUA",
      "lon": "-7.778367038746403",
      "lat": "41.15769892749427"
    },
    {
      "id": "pt.ine.add.PTCONT.5359514",
      "street": "AV DIOCESE",
      "house": "5",
      "postcode": "5050-221",
      "city": "PESO DA RÉGUA",
      "lon": "-7.778367038746403",
      "lat": "41.15769892749427"
    },
    {
      "id": "pt.ine.add.PTCONT.5359515",
      "street": "AV DIOCESE",
      "house": "5",
      "postcode": "5050-221",
      "city": "PESO DA RÉGUA",
      "lon": "-7.778367038746403",
      "lat": "41.15769892749427"
    },
    {
      "id": "pt.ine.add.PTCONT.5359516",
      "street": "AV DIOCESE",
      "house": "5",
      "postcode": "5050-221",
      "city": "PESO DA RÉGUA",
      "lon": "-7.778367038746403",
      "lat": "41.15769892749427"
    },
    {
      "id": "pt.ine.add.PTCONT.5359517",
      "street": "AV DIOCESE",
      "house": "5",
      "postcode": "5050-221",
      "city": "PESO DA RÉGUA",
      "lon": "-7.778367038746403",
      "lat": "41.15769892749427"
    },
    {
      "id": "pt.ine.add.PTCONT.5360122",
      "street": "LUGAR JUNCAL DE CIMA",
      "house": "4",
      "postcode": "5050-207",
      "city": "PESO DA RÉGUA",
      "lon": "-7.778633169715675",
      "lat": "41.156952384421004"
    },
    {
      "id": "pt.ine.add.PTCONT.5360123",
      "street": "LUGAR JUNCAL DE CIMA",
      "house": "4",
      "postcode": "5050-207",
      "city": "PESO DA RÉGUA",
      "lon": "-7.778633169715675",
      "lat": "41.156952384421004"
    },
    {
      "id": "pt.ine.add.PTCONT.5360124",
      "street": "URB COLINA SOL",
      "house": "4",
      "postcode": "5050-221",
      "city": "PESO DA RÉGUA",
      "lon": "-7.778633169715675",
      "lat": "41.156952384421004"
    },
    {
      "id": "pt.ine.add.PTCONT.5360125",
      "street": "LUGAR JUNCAL DE CIMA",
      "house": "4",
      "postcode": "5050-207",
      "city": "PESO DA RÉGUA",
      "lon": "-7.778633169715675",
      "lat": "41.156952384421004"
    },
    {
      "id": "pt.ine.add.PTCONT.5360143",
      "street": "LUGAR JUNCAL DE CIMA",
      "house": "4",
      "postcode": "5050-207",
      "city": "PESO DA RÉGUA",
      "lon": "-7.778633169715675",
      "lat": "41.156952384421004"
    },
    {
      "id": "pt.ine.add.PTCONT.5360144",
      "street": "LUGAR JUNCAL DE CIMA",
      "house": "4",
      "postcode": "5050-207",
      "city": "PESO DA RÉGUA",
      "lon": "-7.778633169715675",
      "lat": "41.156952384421004"
    },
    {
      "id": "pt.ine.add.PTCONT.5360145",
      "street": "LUGAR JUNCAL DE CIMA",
      "house": "4",
      "postcode": "5050-207",
      "city": "PESO DA RÉGUA",
      "lon": "-7.778633169715675",
      "lat": "41.156952384421004"
    },
    {
      "id": "pt.ine.add.PTCONT.5360146",
      "street": "LUGAR JUNCAL DE CIMA",
      "house": "4",
      "postcode": "5050-207",
      "city": "PESO DA RÉGUA",
      "lon": "-7.778633169715675",
      "lat": "41.156952384421004"
    },
    {
      "id": "pt.ine.add.PTCONT.5360147",
      "street": "URB COLINA SOL",
      "house": "4",
      "postcode": "5050-221",
      "city": "PESO DA RÉGUA",
      "lon": "-7.778633169715675",
      "lat": "41.156952384421004"
    },
    {
      "id": "pt.ine.add.PTCONT.5360148",
      "street": "LUGAR JUNCAL DE CIMA",
      "house": "4",
      "postcode": "5050-207",
      "city": "PESO DA RÉGUA",
      "lon": "-7.778633169715675",
      "lat": "41.156952384421004"
    },
    {
      "id": "pt.ine.add.PTCONT.5364860",
      "street": "",
      "house": "",
      "postcode": "5050-207",
      "city": "PESO DA RÉGUA",
      "lon": "-7.779288520746332",
      "lat": "41.156936390560986"
    },
    {
      "id": "pt.ine.add.PTCONT.5386968",
      "street": "",
      "house": "",
      "postcode": "5050-221",
      "city": "PESO DA RÉGUA",
      "lon": "-7.778006408082637",
      "lat": "41.156086034730926"
    },
    {
      "id": "pt.ine.add.PTCONT.5372034",
      "street": "LUGAR JUNCAL DE CIMA",
      "house": "7",
      "postcode": "5050-207",
      "city": "PESO DA RÉGUA",
      "lon": "-7.7789648635667",
      "lat": "41.157304574956456"
    },
    {
      "id": "pt.ine.add.PTCONT.5372035",
      "street": "LUGAR JUNCAL DE CIMA",
      "house": "7",
      "postcode": "5050-207",
      "city": "PESO DA RÉGUA",
      "lon": "-7.7789648635667",
      "lat": "41.157304574956456"
    },
    {
      "id": "pt.ine.add.PTCONT.5372036",
      "street": "LUGAR JUNCAL DE CIMA",
      "house": "7",
      "postcode": "5050-207",
      "city": "PESO DA RÉGUA",
      "lon": "-7.7789648635667",
      "lat": "41.157304574956456"
    },
    {
      "id": "pt.ine.add.PTCONT.5372037",
      "street": "URB COLINA SOL",
      "house": "2 DTO",
      "postcode": "5050-221",
      "city": "PESO DA RÉGUA",
      "lon": "-7.7789648635667",
      "lat": "41.157304574956456"
    },
    {
      "id": "pt.ine.add.PTCONT.5372038",
      "street": "URB COLINA SOL",
      "house": "7",
      "postcode": "5050-221",
      "city": "PESO DA RÉGUA",
      "lon": "-7.7789648635667",
      "lat": "41.157304574956456"
    },
    {
      "id": "pt.ine.add.PTCONT.5372050",
      "street": "LUGAR JUNCAL DE CIMA",
      "house": "7",
      "postcode": "5050-207",
      "city": "PESO DA RÉGUA",
      "lon": "-7.7789648635667",
      "lat": "41.157304574956456"
    },
    {
      "id": "pt.ine.add.PTCONT.5372051",
      "street": "URB COLINA SOL",
      "house": "7",
      "postcode": "5050-221",
      "city": "PESO DA RÉGUA",
      "lon": "-7.7789648635667",
      "lat": "41.157304574956456"
    },
    {
      "id": "pt.ine.add.PTCONT.5372052",
      "street": "LUGAR JUNCAL DE CIMA",
      "house": "7",
      "postcode": "5050-207",
      "city": "PESO DA RÉGUA",
      "lon": "-7.7789648635667",
      "lat": "41.157304574956456"
    },
    {
      "id": "pt.ine.add.PTCONT.5372053",
      "street": "LUGAR JUNCAL DE CIMA",
      "house": "7",
      "postcode": "5050-207",
      "city": "PESO DA RÉGUA",
      "lon": "-7.7789648635667",
      "lat": "41.157304574956456"
    },
    {
      "id": "pt.ine.add.PTCONT.5377325",
      "street": "AV DIOCESE",
      "house": "31004",
      "postcode": "5050-221",
      "city": "PESO DA RÉGUA",
      "lon": "-7.77828640960345",
      "lat": "41.15718543031993"
    },
    {
      "id": "pt.ine.add.PTCONT.5377326",
      "street": "AV DIOCESE",
      "house": "4",
      "postcode": "5050-221",
      "city": "PESO DA RÉGUA",
      "lon": "-7.77828640960345",
      "lat": "41.15718543031993"
    },
    {
      "id": "pt.ine.add.PTCONT.5377327",
      "street": "AV DIOCESE DE VILA REAL",
      "house": "",
      "postcode": "5050-221",
      "city": "PESO DA RÉGUA",
      "lon": "-7.77828640960345",
      "lat": "41.15718543031993"
    },
    {
      "id": "pt.ine.add.PTCONT.5377328",
      "street": "AV DIOCESE",
      "house": "4",
      "postcode": "5050-221",
      "city": "PESO DA RÉGUA",
      "lon": "-7.77828640960345",
      "lat": "41.15718543031993"
    },
    {
      "id": "pt.ine.add.PTCONT.5377329",
      "street": "AV DIOCESE",
      "house": "4",
      "postcode": "5050-221",
      "city": "PESO DA RÉGUA",
      "lon": "-7.77828640960345",
      "lat": "41.15718543031993"
    },
    {
      "id": "pt.ine.add.PTCONT.5377330",
      "street": "AV DIOCESE DE VILA REAL",
      "house": "",
      "postcode": "5050-221",
      "city": "PESO DA RÉGUA",
      "lon": "-7.77828640960345",
      "lat": "41.15718543031993"
    },
    {
      "id": "pt.ine.add.PTCONT.5377331",
      "street": "AV DIOCESE DE VILA REAL",
      "house": "",
      "postcode": "5050-221",
      "city": "PESO DA RÉGUA",
      "lon": "-7.77828640960345",
      "lat": "41.15718543031993"
    },
    {
      "id": "pt.ine.add.PTCONT.5377352",
      "street": "AV DIOCESE DE VILA REAL",
      "house": "",
      "postcode": "5050-221",
      "city": "PESO DA RÉGUA",
      "lon": "-7.77828640960345",
      "lat": "41.15718543031993"
    },
    {
      "id": "pt.ine.add.PTCONT.5377353",
      "street": "AV DIOCESE DE VILA REAL",
      "house": "",
      "postcode": "5050-221",
      "city": "PESO DA RÉGUA",
      "lon": "-7.77828640960345",
      "lat": "41.15718543031993"
    },
    {
      "id": "pt.ine.add.PTCONT.5377354",
      "street": "AV DIOCESE DE VILA REAL",
      "house": "",
      "postcode": "5050-221",
      "city": "PESO DA RÉGUA",
      "lon": "-7.77828640960345",
      "lat": "41.15718543031993"
    },
    {
      "id": "pt.ine.add.PTCONT.5377355",
      "street": "AV DIOCESE DE VILA REAL",
      "house": "",
      "postcode": "5050-221",
      "city": "PESO DA RÉGUA",
      "lon": "-7.77828640960345",
      "lat": "41.15718543031993"
    },
    {
      "id": "pt.ine.add.PTCONT.5377356",
      "street": "AV DIOCESE DE VILA REAL",
      "house": "",
      "postcode": "5050-221",
      "city": "PESO DA RÉGUA",
      "lon": "-7.77828640960345",
      "lat": "41.15718543031993"
    },
    {
      "id": "pt.ine.add.PTCONT.5377369",
      "street": "",
      "house": "",
      "postcode": "5050-207",
      "city": "PESO DA RÉGUA",
      "lon": "-7.778553121597996",
      "lat": "41.15633083674694"
    },
    {
      "id": "pt.ine.add.PTCONT.5378344",
      "street": "",
      "house": "",
      "postcode": "5050-207",
      "city": "PESO DA RÉGUA",
      "lon": "-7.778553121597996",
      "lat": "41.15633083674694"
    },
    {
      "id": "pt.ine.add.PTCONT.5380651",
      "street": "LUGAR JUNCAL DE CIMA",
      "house": "8",
      "postcode": "5050-207",
      "city": "PESO DA RÉGUA",
      "lon": "-7.7790136331957465",
      "lat": "41.1570976244683"
    },
    {
      "id": "pt.ine.add.PTCONT.5380652",
      "street": "AV DIOCESE",
      "house": "8",
      "postcode": "5050-221",
      "city": "PESO DA RÉGUA",
      "lon": "-7.7790136331957465",
      "lat": "41.1570976244683"
    },
    {
      "id": "pt.ine.add.PTCONT.5380653",
      "street": "URB COLINA SOL",
      "house": "8",
      "postcode": "5050-221",
      "city": "PESO DA RÉGUA",
      "lon": "-7.7790136331957465",
      "lat": "41.1570976244683"
    },
    {
      "id": "pt.ine.add.PTCONT.5380654",
      "street": "AV DIOCESE",
      "house": "8",
      "postcode": "5050-221",
      "city": "PESO DA RÉGUA",
      "lon": "-7.7790136331957465",
      "lat": "41.1570976244683"
    },
    {
      "id": "pt.ine.add.PTCONT.5380655",
      "street": "URB COLINA SOL",
      "house": "",
      "postcode": "5050-221",
      "city": "PESO DA RÉGUA",
      "lon": "-7.7790136331957465",
      "lat": "41.1570976244683"
    },
    {
      "id": "pt.ine.add.PTCONT.5380656",
      "street": "URB COLINA SOL",
      "house": "",
      "postcode": "5050-221",
      "city": "PESO DA RÉGUA",
      "lon": "-7.7790136331957465",
      "lat": "41.1570976244683"
    },
    {
      "id": "pt.ine.add.PTCONT.5380657",
      "street": "AV DIOCESE",
      "house": "8",
      "postcode": "5050-221",
      "city": "PESO DA RÉGUA",
      "lon": "-7.7790136331957465",
      "lat": "41.1570976244683"
    },
    {
      "id": "pt.ine.add.PTCONT.5380658",
      "street": "LUGAR JUNCAL DE CIMA",
      "house": "8",
      "postcode": "5050-207",
      "city": "PESO DA RÉGUA",
      "lon": "-7.7790136331957465",
      "lat": "41.1570976244683"
    },
    {
      "id": "pt.ine.add.PTCONT.5381457",
      "street": "LUGAR JUNCAL DE CIMA",
      "house": "8",
      "postcode": "5050-207",
      "city": "PESO DA RÉGUA",
      "lon": "-7.7790136331957465",
      "lat": "41.1570976244683"
    },
    {
      "id": "pt.ine.add.PTCONT.5382730",
      "street": "LUGAR JUNCAL DE CIMA",
      "house": "1",
      "postcode": "5050-207",
      "city": "PESO DA RÉGUA",
      "lon": "-7.779135483247011",
      "lat": "41.1565937544468"
    },
    {
      "id": "pt.ine.add.PTCONT.5382754",
      "street": "LUGAR JUNCAL DE CIMA",
      "house": "1",
      "postcode": "5050-207",
      "city": "PESO DA RÉGUA",
      "lon": "-7.779135483247011",
      "lat": "41.1565937544468"
    },
    {
      "id": "pt.ine.add.PTCONT.5382755",
      "street": "LUGAR JUNCAL DE CIMA",
      "house": "1",
      "postcode": "5050-207",
      "city": "PESO DA RÉGUA",
      "lon": "-7.779135483247011",
      "lat": "41.1565937544468"
    },
    {
      "id": "pt.ine.add.PTCONT.5382756",
      "street": "LUGAR JUNCAL DE CIMA",
      "house": "1",
      "postcode": "5050-207",
      "city": "PESO DA RÉGUA",
      "lon": "-7.779135483247011",
      "lat": "41.1565937544468"
    },
    {
      "id": "pt.ine.add.PTCONT.5382757",
      "street": "JUNCAL CIMA",
      "house": "",
      "postcode": "5050-207",
      "city": "PESO DA RÉGUA",
      "lon": "-7.779135483247011",
      "lat": "41.1565937544468"
    },
    {
      "id": "pt.ine.add.PTCONT.5382758",
      "street": "LUGAR JUNCAL DE CIMA",
      "house": "1",
      "postcode": "5050-207",
      "city": "PESO DA RÉGUA",
      "lon": "-7.779135483247011",
      "lat": "41.1565937544468"
    },
    {
      "id": "pt.ine.add.PTCONT.5382759",
      "street": "LUGAR JUNCAL DE CIMA",
      "house": "1",
      "postcode": "5050-207",
      "city": "PESO DA RÉGUA",
      "lon": "-7.779135483247011",
      "lat": "41.1565937544468"
    },
    {
      "id": "pt.ine.add.PTCONT.5382760",
      "street": "",
      "house": "",
      "postcode": "5050-207",
      "city": "PESO DA RÉGUA",
      "lon": "-7.779287164993714",
      "lat": "41.15718850865205"
    },
    {
      "id": "pt.ine.add.PTCONT.5384322",
      "street": "AV DIOCESE DE VILA REAL",
      "house": "",
      "postcode": "5050-221",
      "city": "PESO DA RÉGUA",
      "lon": "-7.777777862434469",
      "lat": "41.15649052647847"
    },
    {
      "id": "pt.ine.add.PTCONT.5384323",
      "street": "AV DIOCESE",
      "house": "51",
      "postcode": "5050-221",
      "city": "PESO DA RÉGUA",
      "lon": "-7.777777862434469",
      "lat": "41.15649052647847"
    },
    {
      "id": "pt.ine.add.PTCONT.5386965",
      "street": "",
      "house": "",
      "postcode": "5050-221",
      "city": "PESO DA RÉGUA",
      "lon": "-7.778006408082637",
      "lat": "41.156086034730926"
    },
    {
      "id": "pt.ine.add.PTCONT.5386966",
      "street": "",
      "house": "",
      "postcode": "5050-221",
      "city": "PESO DA RÉGUA",
      "lon": "-7.778006408082637",
      "lat": "41.156086034730926"
    },
    {
      "id": "pt.ine.add.PTCONT.5386967",
      "street": "JUNCAL CIMA",
      "house": "2",
      "postcode": "5050-221",
      "city": "PESO DA RÉGUA",
      "lon": "-7.778006408082637",
      "lat": "41.156086034730926"
    },
    {
      "id": "pt.ine.add.PTCONT.5387033",
      "street": "LUGAR JUNCAL DE CIMA",
      "house": "",
      "postcode": "5050-205",
      "city": "PESO DA RÉGUA",
      "lon": "-7.779882707783919",
      "lat": "41.15721734951849"
    },
    {
      "id": "pt.ine.add.PTCONT.5390119",
      "street": "URB LIBERTOSONHO",
      "house": "",
      "postcode": "5050-091",
      "city": "GODIM",
      "lon": "-7.778010886834016",
      "lat": "41.15746371661943"
    },
    {
      "id": "pt.ine.add.PTCONT.5390120",
      "street": "URB LIBERTOSONHO",
      "house": "",
      "postcode": "5050-091",
      "city": "GODIM",
      "lon": "-7.778010886834016",
      "lat": "41.15746371661943"
    },
    {
      "id": "pt.ine.add.PTCONT.5390121",
      "street": "URB LIBERTOSONHO",
      "house": "",
      "postcode": "5050-091",
      "city": "GODIM",
      "lon": "-7.778010886834016",
      "lat": "41.15746371661943"
    },
    {
      "id": "pt.ine.add.PTCONT.5390122",
      "street": "URB LIBERTOSONHO",
      "house": "",
      "postcode": "5050-091",
      "city": "GODIM",
      "lon": "-7.778010886834016",
      "lat": "41.15746371661943"
    },
    {
      "id": "pt.ine.add.PTCONT.5390123",
      "street": "URB LIBERTOSONHO",
      "house": "",
      "postcode": "5050-091",
      "city": "GODIM",
      "lon": "-7.778010886834016",
      "lat": "41.15746371661943"
    },
    {
      "id": "pt.ine.add.PTCONT.5390124",
      "street": "URB LIBERTOSONHO",
      "house": "",
      "postcode": "5050-091",
      "city": "GODIM",
      "lon": "-7.778010886834016",
      "lat": "41.15746371661943"
    },
    {
      "id": "pt.ine.add.PTCONT.5390125",
      "street": "URB LIBERTOSONHO",
      "house": "",
      "postcode": "5050-091",
      "city": "GODIM",
      "lon": "-7.778010886834016",
      "lat": "41.15746371661943"
    },
    {
      "id": "pt.ine.add.PTCONT.5390126",
      "street": "URB LIBERTOSONHO",
      "house": "",
      "postcode": "5050-091",
      "city": "GODIM",
      "lon": "-7.778010886834016",
      "lat": "41.15746371661943"
    },
    {
      "id": "pt.ine.add.PTCONT.5390127",
      "street": "URB LIBERTOSONHO",
      "house": "",
      "postcode": "5050-091",
      "city": "GODIM",
      "lon": "-7.778010886834016",
      "lat": "41.15746371661943"
    },
    {
      "id": "pt.ine.add.PTCONT.5390128",
      "street": "URB LIBERTOSONHO",
      "house": "",
      "postcode": "5050-091",
      "city": "GODIM",
      "lon": "-7.778010886834016",
      "lat": "41.15746371661943"
    },
    {
      "id": "pt.ine.add.PTCONT.5390129",
      "street": "URB LIBERTOSONHO",
      "house": "",
      "postcode": "5050-091",
      "city": "GODIM",
      "lon": "-7.778010886834016",
      "lat": "41.15746371661943"
    },
    {
      "id": "pt.ine.add.PTCONT.5390130",
      "street": "URB LIBERTOSONHO",
      "house": "",
      "postcode": "5050-091",
      "city": "GODIM",
      "lon": "-7.778010886834016",
      "lat": "41.15746371661943"
    },
    {
      "id": "pt.ine.add.PTCONT.5390131",
      "street": "URB LIBERTOSONHO",
      "house": "",
      "postcode": "5050-091",
      "city": "GODIM",
      "lon": "-7.778010886834016",
      "lat": "41.15746371661943"
    },
    {
      "id": "pt.ine.add.PTCONT.5390132",
      "street": "URB LIBERTOSONHO",
      "house": "",
      "postcode": "5050-091",
      "city": "GODIM",
      "lon": "-7.778010886834016",
      "lat": "41.15746371661943"
    },
    {
      "id": "pt.ine.add.PTCONT.5390243",
      "street": "LUGAR JUNCAL DE CIMA",
      "house": "",
      "postcode": "5050-207",
      "city": "PESO DA RÉGUA",
      "lon": "-7.777921700864368",
      "lat": "41.15632889148749"
    },
    {
      "id": "pt.ine.add.PTCONT.5392258",
      "street": "",
      "house": "",
      "postcode": "5050-207",
      "city": "PESO DA RÉGUA",
      "lon": "-7.778434228282183",
      "lat": "41.15628544889232"
    },
    {
      "id": "pt.ine.add.PTCONT.5395380",
      "street": "",
      "house": "",
      "postcode": "5050-207",
      "city": "PESO DA RÉGUA",
      "lon": "-7.77928905335872",
      "lat": "41.15683734416504"
    },
    {
      "id": "pt.ine.add.PTCONT.5398705",
      "street": "JUNCAL CIMA",
      "house": "5",
      "postcode": "5050-207",
      "city": "PESO DA RÉGUA",
      "lon": "-7.7785842534533804",
      "lat": "41.15718634739892"
    },
    {
      "id": "pt.ine.add.PTCONT.5398706",
      "street": "JUNCAL CIMA",
      "house": "5",
      "postcode": "5050-207",
      "city": "PESO DA RÉGUA",
      "lon": "-7.7785842534533804",
      "lat": "41.15718634739892"
    },
    {
      "id": "pt.ine.add.PTCONT.5398707",
      "street": "URB COLINA SOL",
      "house": "",
      "postcode": "5050-221",
      "city": "PESO DA RÉGUA",
      "lon": "-7.7785842534533804",
      "lat": "41.15718634739892"
    },
    {
      "id": "pt.ine.add.PTCONT.5398708",
      "street": "JUNCAL CIMA",
      "house": "5",
      "postcode": "5050-207",
      "city": "PESO DA RÉGUA",
      "lon": "-7.7785842534533804",
      "lat": "41.15718634739892"
    },
    {
      "id": "pt.ine.add.PTCONT.5398709",
      "street": "JUNCAL CIMA",
      "house": "5",
      "postcode": "5050-207",
      "city": "PESO DA RÉGUA",
      "lon": "-7.7785842534533804",
      "lat": "41.15718634739892"
    },
    {
      "id": "pt.ine.add.PTCONT.5398710",
      "street": "LUGAR JUNCAL DE CIMA COLINA DO SOL",
      "house": "",
      "postcode": "5050-207",
      "city": "PESO DA RÉGUA",
      "lon": "-7.7785842534533804",
      "lat": "41.15718634739892"
    },
    {
      "id": "pt.ine.add.PTCONT.5398711",
      "street": "JUNCAL CIMA",
      "house": "5",
      "postcode": "5050-207",
      "city": "PESO DA RÉGUA",
      "lon": "-7.7785842534533804",
      "lat": "41.15718634739892"
    },
    {
      "id": "pt.ine.add.PTCONT.5398712",
      "street": "JUNCAL CIMA",
      "house": "5",
      "postcode": "5050-207",
      "city": "PESO DA RÉGUA",
      "lon": "-7.7785842534533804",
      "lat": "41.15718634739892"
    },
    {
      "id": "pt.ine.add.PTCONT.5398713",
      "street": "JUNCAL CIMA",
      "house": "5",
      "postcode": "5050-207",
      "city": "PESO DA RÉGUA",
      "lon": "-7.7785842534533804",
      "lat": "41.15718634739892"
    },
    {
      "id": "pt.ine.add.PTCONT.5398714",
      "street": "JUNCAL CIMA",
      "house": "5",
      "postcode": "5050-207",
      "city": "PESO DA RÉGUA",
      "lon": "-7.7785842534533804",
      "lat": "41.15718634739892"
    },
    {
      "id": "pt.ine.add.PTCONT.5402316",
      "street": "",
      "house": "",
      "postcode": "5050-207",
      "city": "PESO DA RÉGUA",
      "lon": "-7.7780766748108014",
      "lat": "41.156311360511914"
    },
    {
      "id": "pt.ine.add.PTCONT.5402317",
      "street": "",
      "house": "",
      "postcode": "5050-207",
      "city": "PESO DA RÉGUA",
      "lon": "-7.7780888799010075",
      "lat": "41.15625737192536"
    },
    {
      "id": "pt.ine.add.PTCONT.5402318",
      "street": "URB COLINA SOL",
      "house": "",
      "postcode": "5050-221",
      "city": "PESO DA RÉGUA",
      "lon": "-7.778669735420719",
      "lat": "41.15679942271017"
    },
    {
      "id": "pt.ine.add.PTCONT.5402319",
      "street": "URB COLINA SOL",
      "house": "13",
      "postcode": "5050-221",
      "city": "PESO DA RÉGUA",
      "lon": "-7.778669735420719",
      "lat": "41.15679942271017"
    },
    {
      "id": "pt.ine.add.PTCONT.5402320",
      "street": "LUGAR JUNCAL DE CIMA",
      "house": "",
      "postcode": "5050-207",
      "city": "PESO DA RÉGUA",
      "lon": "-7.778669735420719",
      "lat": "41.15679942271017"
    },
    {
      "id": "pt.ine.add.PTCONT.5402321",
      "street": "URB COLINA SOL",
      "house": "3",
      "postcode": "5050-221",
      "city": "PESO DA RÉGUA",
      "lon": "-7.778669735420719",
      "lat": "41.15679942271017"
    },
    {
      "id": "pt.ine.add.PTCONT.5402354",
      "street": "URB COLINA SOL",
      "house": "3",
      "postcode": "5050-221",
      "city": "PESO DA RÉGUA",
      "lon": "-7.778669735420719",
      "lat": "41.15679942271017"
    },
    {
      "id": "pt.ine.add.PTCONT.5402355",
      "street": "LUGAR JUNCAL DE CIMA",
      "house": "",
      "postcode": "5050-207",
      "city": "PESO DA RÉGUA",
      "lon": "-7.778669735420719",
      "lat": "41.15679942271017"
    },
    {
      "id": "pt.ine.add.PTCONT.5402356",
      "street": "LUGAR JUNCAL DE CIMA",
      "house": "",
      "postcode": "5050-207",
      "city": "PESO DA RÉGUA",
      "lon": "-7.778669735420719",
      "lat": "41.15679942271017"
    },
    {
      "id": "pt.ine.add.PTCONT.5402357",
      "street": "LUGAR JUNCAL DE CIMA",
      "house": "",
      "postcode": "5050-207",
      "city": "PESO DA RÉGUA",
      "lon": "-7.778669735420719",
      "lat": "41.15679942271017"
    },
    {
      "id": "pt.ine.add.PTCONT.5402912",
      "street": "JUNCAL CIMA",
      "house": "3",
      "postcode": "5050-207",
      "city": "PESO DA RÉGUA",
      "lon": "-7.778669735420719",
      "lat": "41.15679942271017"
    },
    {
      "id": "pt.ine.add.PTCONT.5402964",
      "street": "LUGAR JUNCAL DE CIMA",
      "house": "",
      "postcode": "5050-207",
      "city": "PESO DA RÉGUA",
      "lon": "-7.778669735420719",
      "lat": "41.15679942271017"
    },
    {
      "id": "pt.ine.add.PTCONT.5415880",
      "street": "BR MARCAL",
      "house": "",
      "postcode": "5050-229",
      "city": "PESO DA RÉGUA",
      "lon": "-7.777778202811687",
      "lat": "41.15642749695938"
    },
    {
      "id": "pt.ine.add.PTCONT.5415881",
      "street": "BR MARCAL",
      "house": "",
      "postcode": "5050-229",
      "city": "PESO DA RÉGUA",
      "lon": "-7.777778202811687",
      "lat": "41.15642749695938"
    },
    {
      "id": "pt.ine.add.PTCONT.5418106",
      "street": "AV DIOCESE DE VILA REAL",
      "house": "",
      "postcode": "5050-091",
      "city": "GODIM",
      "lon": "-7.778154921138647",
      "lat": "41.15726606450677"
    },
    {
      "id": "pt.ine.add.PTCONT.5418107",
      "street": "AV DIOCESE DE VILA REAL",
      "house": "",
      "postcode": "5050-091",
      "city": "GODIM",
      "lon": "-7.778154921138647",
      "lat": "41.15726606450677"
    },
    {
      "id": "pt.ine.add.PTCONT.5418108",
      "street": "AV DIOCESE DE VILA REAL",
      "house": "",
      "postcode": "5050-091",
      "city": "GODIM",
      "lon": "-7.778154921138647",
      "lat": "41.15726606450677"
    },
    {
      "id": "pt.ine.add.PTCONT.5418109",
      "street": "AV DIOCESE DE VILA REAL",
      "house": "",
      "postcode": "5050-091",
      "city": "GODIM",
      "lon": "-7.778154921138647",
      "lat": "41.15726606450677"
    },
    {
      "id": "pt.ine.add.PTCONT.5418110",
      "street": "AV DIOCESE DE VILA REAL",
      "house": "",
      "postcode": "5050-091",
      "city": "GODIM",
      "lon": "-7.778154921138647",
      "lat": "41.15726606450677"
    },
    {
      "id": "pt.ine.add.PTCONT.5418111",
      "street": "AV DIOCESE DE VILA REAL",
      "house": "",
      "postcode": "5050-091",
      "city": "GODIM",
      "lon": "-7.778154921138647",
      "lat": "41.15726606450677"
    },
    {
      "id": "pt.ine.add.PTCONT.5418112",
      "street": "AV DIOCESE DE VILA REAL",
      "house": "",
      "postcode": "5050-091",
      "city": "GODIM",
      "lon": "-7.778154921138647",
      "lat": "41.15726606450677"
    },
    {
      "id": "pt.ine.add.PTCONT.5418113",
      "street": "AV DIOCESE DE VILA REAL",
      "house": "",
      "postcode": "5050-091",
      "city": "GODIM",
      "lon": "-7.778154921138647",
      "lat": "41.15726606450677"
    },
    {
      "id": "pt.ine.add.PTCONT.5418114",
      "street": "AV DIOCESE DE VILA REAL",
      "house": "",
      "postcode": "5050-091",
      "city": "GODIM",
      "lon": "-7.778154921138647",
      "lat": "41.15726606450677"
    },
    {
      "id": "pt.ine.add.PTCONT.5418115",
      "street": "AV DIOCESE DE VILA REAL",
      "house": "",
      "postcode": "5050-091",
      "city": "GODIM",
      "lon": "-7.778154921138647",
      "lat": "41.15726606450677"
    },
    {
      "id": "pt.ine.add.PTCONT.5418116",
      "street": "AV DIOCESE DE VILA REAL",
      "house": "",
      "postcode": "5050-091",
      "city": "GODIM",
      "lon": "-7.778154921138647",
      "lat": "41.15726606450677"
    },
    {
      "id": "pt.ine.add.PTCONT.5418117",
      "street": "AV DIOCESE DE VILA REAL",
      "house": "",
      "postcode": "5050-091",
      "city": "GODIM",
      "lon": "-7.778154921138647",
      "lat": "41.15726606450677"
    },
    {
      "id": "pt.ine.add.PTCONT.5418292",
      "street": "LG PONTE",
      "house": "4",
      "postcode": "5050-207",
      "city": "PESO DA RÉGUA",
      "lon": "-7.779288811262511",
      "lat": "41.156882365254326"
    },
    {
      "id": "pt.ine.add.PTCONT.5420136",
      "street": "AV DIOCESE DE VILA REAL",
      "house": "",
      "postcode": "5050-221",
      "city": "PESO DA RÉGUA",
      "lon": "-7.777779029437573",
      "lat": "41.156274425267284"
    },
    {
      "id": "pt.ine.add.PTCONT.5421495",
      "street": "AV DIOCESE DE VILA REAL",
      "house": "",
      "postcode": "5050-221",
      "city": "PESO DA RÉGUA",
      "lon": "-7.7781983020894145",
      "lat": "41.15805858231305"
    },
    {
      "id": "pt.ine.add.PTCONT.5421496",
      "street": "AV DIOCESE DE VILA REAL",
      "house": "",
      "postcode": "5050-221",
      "city": "PESO DA RÉGUA",
      "lon": "-7.7781983020894145",
      "lat": "41.15805858231305"
    },
    {
      "id": "pt.ine.add.PTCONT.5421497",
      "street": "AV DIOCESE DE VILA REAL",
      "house": "",
      "postcode": "5050-221",
      "city": "PESO DA RÉGUA",
      "lon": "-7.7781983020894145",
      "lat": "41.15805858231305"
    },
    {
      "id": "pt.ine.add.PTCONT.5421498",
      "street": "AV DIOCESE DE VILA REAL",
      "house": "",
      "postcode": "5050-221",
      "city": "PESO DA RÉGUA",
      "lon": "-7.7781983020894145",
      "lat": "41.15805858231305"
    },
    {
      "id": "pt.ine.add.PTCONT.5421499",
      "street": "AV DIOCESE DE VILA REAL",
      "house": "",
      "postcode": "5050-221",
      "city": "PESO DA RÉGUA",
      "lon": "-7.7781983020894145",
      "lat": "41.15805858231305"
    },
    {
      "id": "pt.ine.add.PTCONT.5421507",
      "street": "AV DIOCESE DE VILA REAL",
      "house": "",
      "postcode": "5050-221",
      "city": "PESO DA RÉGUA",
      "lon": "-7.7781983020894145",
      "lat": "41.15805858231305"
    },
    {
      "id": "pt.ine.add.PTCONT.5421508",
      "street": "AV DIOCESE DE VILA REAL",
      "house": "",
      "postcode": "5050-221",
      "city": "PESO DA RÉGUA",
      "lon": "-7.7781983020894145",
      "lat": "41.15805858231305"
    },
    {
      "id": "pt.ine.add.PTCONT.5421535",
      "street": "LUGAR JUNCAL DE CIMA",
      "house": "",
      "postcode": "5050-221",
      "city": "PESO DA RÉGUA",
      "lon": "-7.777768428756794",
      "lat": "41.15603127464427"
    },
    {
      "id": "pt.ine.add.PTCONT.5421536",
      "street": "LUGAR JUNCAL DE CIMA",
      "house": "",
      "postcode": "5050-221",
      "city": "PESO DA RÉGUA",
      "lon": "-7.777768428756794",
      "lat": "41.15603127464427"
    },
    {
      "id": "pt.ine.add.PTCONT.5422447",
      "street": "LUGAR JUNCAL DE CIMA",
      "house": "",
      "postcode": "5050-221",
      "city": "PESO DA RÉGUA",
      "lon": "-7.777768428756794",
      "lat": "41.15603127464427"
    },
    {
      "id": "pt.ine.add.PTCONT.5422475",
      "street": "LUGAR JUNCAL DE CIMA",
      "house": "",
      "postcode": "5050-221",
      "city": "PESO DA RÉGUA",
      "lon": "-7.777768428756794",
      "lat": "41.15603127464427"
    },
    {
      "id": "pt.ine.add.PTCONT.5422477",
      "street": "AV DIOCESE DE VILA REAL",
      "house": "",
      "postcode": "5050-221",
      "city": "PESO DA RÉGUA",
      "lon": "-7.7781983020894145",
      "lat": "41.15805858231305"
    },
    {
      "id": "pt.ine.add.PTCONT.5422804",
      "street": "AV DIOCESE",
      "house": "4",
      "postcode": "5050-221",
      "city": "PESO DA RÉGUA",
      "lon": "-7.77824770602674",
      "lat": "41.157734577388716"
    },
    {
      "id": "pt.ine.add.PTCONT.5422938",
      "street": "AV DIOCESE DE VILA REAL",
      "house": "",
      "postcode": "5050-221",
      "city": "PESO DA RÉGUA",
      "lon": "-7.778292690787432",
      "lat": "41.158229956022666"
    },
    {
      "id": "pt.ine.add.PTCONT.5423541",
      "street": "AV DIOCESE DE VILA REAL",
      "house": "3",
      "postcode": "5050-221",
      "city": "PESO DA RÉGUA",
      "lon": "-7.778127547321866",
      "lat": "41.157923298816755"
    },
    {
      "id": "pt.ine.add.PTCONT.5424960",
      "street": "LUGAR JUNCAL DE CIMA",
      "house": "7",
      "postcode": "5050-207",
      "city": "PESO DA RÉGUA",
      "lon": "-7.7789648635667",
      "lat": "41.157304574956456"
    },
    {
      "id": "pt.ine.add.PTCONT.5425043",
      "street": "AV DIOCESE",
      "house": "8",
      "postcode": "5050-221",
      "city": "PESO DA RÉGUA",
      "lon": "-7.7790136331957465",
      "lat": "41.1570976244683"
    },
    {
      "id": "pt.ine.add.PTCONT.5425275",
      "street": "LUGAR JUNCAL DE CIMA",
      "house": "1",
      "postcode": "5050-207",
      "city": "PESO DA RÉGUA",
      "lon": "-7.779135483247011",
      "lat": "41.1565937544468"
    },
    {
      "id": "pt.ine.add.PTCONT.5425578",
      "street": "URB LIBERTOSONHO",
      "house": "",
      "postcode": "5050-091",
      "city": "GODIM",
      "lon": "-7.778010886834016",
      "lat": "41.15746371661943"
    },
    {
      "id": "pt.ine.add.PTCONT.5426055",
      "street": "",
      "house": "",
      "postcode": "5050-207",
      "city": "PESO DA RÉGUA",
      "lon": "-7.780134539116957",
      "lat": "41.15691197302592"
    },
    {
      "id": "pt.ine.add.PTCONT.5426346",
      "street": "URB COLINA SOL",
      "house": "6",
      "postcode": "5050-221",
      "city": "PESO DA RÉGUA",
      "lon": "-7.778559455550637",
      "lat": "41.15736635839079"
    }
  ]
}