{
  "data": {
    "distrito": "Leiria",
    "concelho": "Alcobaça",
    "freguesia": "Alfeizerão",
    "OBJECTID": 684,
    "BGRI2021": "10010200109",
    "DT21": "10",
    "DTMN21": "1001",
    "DTMNFR21": "100102",
    "DTMNFRSEC21": "100102001",
    "SECNUM21": "001",
    "SSNUM21": "09",
    "SECSSNUM21": "00109",
    "OBJECTID_1": 84540,
    "DT": "10",
    "CC": "01",
    "fr": "02",
    "SEC": "001",
    "SS": "09"
  },
  "addresses": [
    {
      "id": "pt.ine.add.PTCONT.1981480",
      "street": "R ESCOLA NOVA",
      "house": "6",
      "postcode": "2460-207",
      "city": "ALFEIZERÃO",
      "lon": "-9.098487537954567",
      "lat": "39.469171480324626"
    },
    {
      "id": "pt.ine.add.PTCONT.1981849",
      "street": "R JOÃO XXI",
      "house": "74",
      "postcode": "2460-207",
      "city": "ALFEIZERÃO",
      "lon": "-9.097974846634724",
      "lat": "39.46823002389416"
    },
    {
      "id": "pt.ine.add.PTCONT.2001835",
      "street": "R BAIXO",
      "house": "5",
      "postcode": "2460-207",
      "city": "ALFEIZERÃO",
      "lon": "-9.098296029541338",
      "lat": "39.468767765096636"
    },
    {
      "id": "pt.ine.add.PTCONT.2023350",
      "street": "R S QUITERIA",
      "house": "7",
      "postcode": "2460-207",
      "city": "ALFEIZERÃO",
      "lon": "-9.098796528321452",
      "lat": "39.46882665715263"
    },
    {
      "id": "pt.ine.add.PTCONT.2029138",
      "street": "R S QUITERIA",
      "house": "5",
      "postcode": "2460-207",
      "city": "ALFEIZERÃO",
      "lon": "-9.098840017270689",
      "lat": "39.46861013332918"
    },
    {
      "id": "pt.ine.add.PTCONT.2030153",
      "street": "R BAIXO",
      "house": "9",
      "postcode": "2460-207",
      "city": "ALFEIZERÃO",
      "lon": "-9.098352508038634",
      "lat": "39.468650208184194"
    },
    {
      "id": "pt.ine.add.PTCONT.2070820",
      "street": "R VALE SIMAO",
      "house": "6",
      "postcode": "2460-207",
      "city": "ALFEIZERÃO",
      "lon": "-9.098484053144254",
      "lat": "39.46891931949984"
    },
    {
      "id": "pt.ine.add.PTCONT.2104602",
      "street": "R BAIXO",
      "house": "11",
      "postcode": "2460-207",
      "city": "ALFEIZERÃO",
      "lon": "-9.098397740479706",
      "lat": "39.46855976493236"
    },
    {
      "id": "pt.ine.add.PTCONT.2138486",
      "street": "R S QUITERIA",
      "house": "3",
      "postcode": "2460-207",
      "city": "ALFEIZERÃO",
      "lon": "-9.09881877082424",
      "lat": "39.46875441821689"
    },
    {
      "id": "pt.ine.add.PTCONT.2146349",
      "street": "R BAIXO",
      "house": "1",
      "postcode": "2460-207",
      "city": "ALFEIZERÃO",
      "lon": "-9.09824017298342",
      "lat": "39.46893035070467"
    },
    {
      "id": "pt.ine.add.PTCONT.2150545",
      "street": "R VALE SIMAO",
      "house": "9",
      "postcode": "2460-207",
      "city": "ALFEIZERÃO",
      "lon": "-9.09809285469486",
      "lat": "39.46920177664764"
    },
    {
      "id": "pt.ine.add.PTCONT.2198175",
      "street": "R ESCOLA NOVA",
      "house": "2",
      "postcode": "2460-207",
      "city": "ALFEIZERÃO",
      "lon": "-9.0987740367861",
      "lat": "39.4688808845974"
    },
    {
      "id": "pt.ine.add.PTCONT.2231883",
      "street": "R ESCOLA NOVA",
      "house": "4",
      "postcode": "2460-207",
      "city": "ALFEIZERÃO",
      "lon": "-9.098705317118325",
      "lat": "39.46895350947281"
    },
    {
      "id": "pt.ine.add.PTCONT.2250021",
      "street": "R BAIXO",
      "house": "13",
      "postcode": "2460-207",
      "city": "ALFEIZERÃO",
      "lon": "-9.09841985887061",
      "lat": "39.46847852032079"
    },
    {
      "id": "pt.ine.add.PTCONT.2263588",
      "street": "R BAIXO",
      "house": "15",
      "postcode": "2460-207",
      "city": "ALFEIZERÃO",
      "lon": "-9.098430482480671",
      "lat": "39.468406377906255"
    }
  ]
}