{
  "data": {
    "distrito": "Lisboa",
    "concelho": "Vila Franca de Xira",
    "freguesia": "Vila Franca de Xira",
    "OBJECTID": 1125,
    "BGRI2021": "11140901610",
    "DT21": "11",
    "DTMN21": "1114",
    "DTMNFR21": "111409",
    "DTMNFRSEC21": "111409016",
    "SECNUM21": "016",
    "SSNUM21": "10",
    "SECSSNUM21": "01610",
    "OBJECTID_1": 117971,
    "DT": "11",
    "CC": "14",
    "fr": "09",
    "SEC": "016",
    "SS": "10"
  },
  "addresses": [
    {
      "id": "pt.ine.add.PTCONT.2292077",
      "street": "R ARMANDO CORTEZ",
      "house": "",
      "postcode": "2600-057",
      "city": "VILA FRANCA DE XIRA",
      "lon": "-9.013592618444417",
      "lat": "38.95417361207171"
    },
    {
      "id": "pt.ine.add.PTCONT.2310304",
      "street": "ESTR MINEIRO",
      "house": "14",
      "postcode": "2600-013",
      "city": "VILA FRANCA DE XIRA",
      "lon": "-9.017495926414618",
      "lat": "38.95543218472171"
    },
    {
      "id": "pt.ine.add.PTCONT.2410704",
      "street": "R FERNANDO CURADO RIBEIRO",
      "house": "17",
      "postcode": "2600-057",
      "city": "VILA FRANCA DE XIRA",
      "lon": "-9.014363456821892",
      "lat": "38.95400565723108"
    },
    {
      "id": "pt.ine.add.PTCONT.2410705",
      "street": "R FERNANDO CURADO RIBEIRO",
      "house": "",
      "postcode": "2600-057",
      "city": "VILA FRANCA DE XIRA",
      "lon": "-9.014095029550823",
      "lat": "38.95375547106473"
    },
    {
      "id": "pt.ine.add.PTCONT.2420126",
      "street": "LG FONTE DE BAIXO",
      "house": "",
      "postcode": "2600-011",
      "city": "VILA FRANCA DE XIRA",
      "lon": "-9.012426983852436",
      "lat": "38.953200571932605"
    },
    {
      "id": "pt.ine.add.PTCONT.2420127",
      "street": "LG FONTE DE BAIXO",
      "house": "",
      "postcode": "2600-011",
      "city": "VILA FRANCA DE XIRA",
      "lon": "-9.012426983852436",
      "lat": "38.953200571932605"
    },
    {
      "id": "pt.ine.add.PTCONT.2420128",
      "street": "LG FONTE DE BAIXO",
      "house": "",
      "postcode": "2600-011",
      "city": "VILA FRANCA DE XIRA",
      "lon": "-9.012426983852436",
      "lat": "38.953200571932605"
    },
    {
      "id": "pt.ine.add.PTCONT.2420129",
      "street": "LG FONTE DE BAIXO",
      "house": "",
      "postcode": "2600-011",
      "city": "VILA FRANCA DE XIRA",
      "lon": "-9.012426983852436",
      "lat": "38.953200571932605"
    },
    {
      "id": "pt.ine.add.PTCONT.2429086",
      "street": "ESTR MINEIRO",
      "house": "6",
      "postcode": "2600-013",
      "city": "VILA FRANCA DE XIRA",
      "lon": "-9.016053600343048",
      "lat": "38.95447929291956"
    },
    {
      "id": "pt.ine.add.PTCONT.2429122",
      "street": "R FERNANDO CURADO RIBEIRO",
      "house": "",
      "postcode": "2600-057",
      "city": "VILA FRANCA DE XIRA",
      "lon": "-9.013971044084027",
      "lat": "38.95399060449064"
    },
    {
      "id": "pt.ine.add.PTCONT.2483002",
      "street": "R ADRIANO CORREIA DE OLIVEIRA",
      "house": "14",
      "postcode": "2600-011",
      "city": "VILA FRANCA DE XIRA",
      "lon": "-9.014420395547251",
      "lat": "38.953014391397005"
    },
    {
      "id": "pt.ine.add.PTCONT.2483003",
      "street": "R ADRIANO CORREIA DE OLIVEIRA",
      "house": "14",
      "postcode": "2600-011",
      "city": "VILA FRANCA DE XIRA",
      "lon": "-9.014420395547251",
      "lat": "38.953014391397005"
    },
    {
      "id": "pt.ine.add.PTCONT.2483004",
      "street": "R ADRIANO CORREIA DE OLIVEIRA",
      "house": "14",
      "postcode": "2600-011",
      "city": "VILA FRANCA DE XIRA",
      "lon": "-9.014420395547251",
      "lat": "38.953014391397005"
    },
    {
      "id": "pt.ine.add.PTCONT.2493842",
      "street": "ESTR MINEIRO",
      "house": "16",
      "postcode": "2600-013",
      "city": "VILA FRANCA DE XIRA",
      "lon": "-9.018236532917616",
      "lat": "38.95561572956848"
    },
    {
      "id": "pt.ine.add.PTCONT.2528141",
      "street": "R FERNANDO CURADO RIBEIRO",
      "house": "",
      "postcode": "2600-057",
      "city": "VILA FRANCA DE XIRA",
      "lon": "-9.014724389427524",
      "lat": "38.95427315919663"
    },
    {
      "id": "pt.ine.add.PTCONT.2546737",
      "street": "R FERNANDO CURADO RIBEIRO",
      "house": "18",
      "postcode": "2600-057",
      "city": "VILA FRANCA DE XIRA",
      "lon": "-9.014526620266894",
      "lat": "38.954139539036106"
    },
    {
      "id": "pt.ine.add.PTCONT.2582939",
      "street": "R FERNANDO CURADO RIBEIRO URBANIZAÇÃO CASAL REMEDIOS",
      "house": "30",
      "postcode": "2600-057",
      "city": "VILA FRANCA DE XIRA",
      "lon": "-9.014806250739403",
      "lat": "38.95436261675159"
    },
    {
      "id": "pt.ine.add.PTCONT.2582950",
      "street": "R ADRIANO CORREIA DE OLIVEIRA CASAL FONTE BAIXO",
      "house": "",
      "postcode": "2600-011",
      "city": "VILA FRANCA DE XIRA",
      "lon": "-9.01324852162482",
      "lat": "38.953401554058715"
    },
    {
      "id": "pt.ine.add.PTCONT.2591415",
      "street": "LG FONTE DE BAIXO",
      "house": "",
      "postcode": "2600-011",
      "city": "VILA FRANCA DE XIRA",
      "lon": "-9.012671442714321",
      "lat": "38.95337888183263"
    },
    {
      "id": "pt.ine.add.PTCONT.2607556",
      "street": "R ADRIANO CORREIA DE OLIVEIRA CASAL MINAV",
      "house": "6",
      "postcode": "2600-011",
      "city": "VILA FRANCA DE XIRA",
      "lon": "-9.013943788179454",
      "lat": "38.9527207386989"
    },
    {
      "id": "pt.ine.add.PTCONT.2636541",
      "street": "ESTR MINEIRO",
      "house": "18",
      "postcode": "2600-013",
      "city": "VILA FRANCA DE XIRA",
      "lon": "-9.01854731186983",
      "lat": "38.955559326551985"
    },
    {
      "id": "pt.ine.add.PTCONT.2636543",
      "street": "LG FONTE DE BAIXO",
      "house": "2",
      "postcode": "2600-011",
      "city": "VILA FRANCA DE XIRA",
      "lon": "-9.012610205812607",
      "lat": "38.95309110012097"
    },
    {
      "id": "pt.ine.add.PTCONT.2636544",
      "street": "LG FONTE DE BAIXO",
      "house": "2",
      "postcode": "2600-011",
      "city": "VILA FRANCA DE XIRA",
      "lon": "-9.012610205812607",
      "lat": "38.95309110012097"
    },
    {
      "id": "pt.ine.add.PTCONT.2636545",
      "street": "LG FONTE DE BAIXO",
      "house": "2",
      "postcode": "2600-011",
      "city": "VILA FRANCA DE XIRA",
      "lon": "-9.012610205812607",
      "lat": "38.95309110012097"
    },
    {
      "id": "pt.ine.add.PTCONT.2636546",
      "street": "LG FONTE DE BAIXO",
      "house": "2",
      "postcode": "2600-011",
      "city": "VILA FRANCA DE XIRA",
      "lon": "-9.012610205812607",
      "lat": "38.95309110012097"
    },
    {
      "id": "pt.ine.add.PTCONT.2706013",
      "street": "ESTR MINEIRO CASAI REMEDIOS",
      "house": "29",
      "postcode": "2600-011",
      "city": "VILA FRANCA DE XIRA",
      "lon": "-9.01460796543121",
      "lat": "38.95325618000327"
    },
    {
      "id": "pt.ine.add.PTCONT.2715695",
      "street": "R ARMANDO CORTEZ",
      "house": "4",
      "postcode": "2600-057",
      "city": "VILA FRANCA DE XIRA",
      "lon": "-9.014071130001183",
      "lat": "38.954620380882446"
    },
    {
      "id": "pt.ine.add.PTCONT.2724620",
      "street": "R ARMANDO CORTEZ",
      "house": "",
      "postcode": "2600-057",
      "city": "VILA FRANCA DE XIRA",
      "lon": "-9.014245829448743",
      "lat": "38.95475417598209"
    },
    {
      "id": "pt.ine.add.PTCONT.2724621",
      "street": "R ARMANDO CORTEZ",
      "house": "",
      "postcode": "2600-057",
      "city": "VILA FRANCA DE XIRA",
      "lon": "-9.013662720270453",
      "lat": "38.9542451439584"
    },
    {
      "id": "pt.ine.add.PTCONT.2760017",
      "street": "R ADRIANO CORREIA DE OLIVEIRA",
      "house": "",
      "postcode": "2600-011",
      "city": "VILA FRANCA DE XIRA",
      "lon": "-9.01404882780028",
      "lat": "38.9528190294826"
    },
    {
      "id": "pt.ine.add.PTCONT.2760018",
      "street": "R ADRIANO CORREIA DE OLIVEIRA",
      "house": "",
      "postcode": "2600-011",
      "city": "VILA FRANCA DE XIRA",
      "lon": "-9.012636572119627",
      "lat": "38.95242433895553"
    },
    {
      "id": "pt.ine.add.PTCONT.2803902",
      "street": "EN 248",
      "house": "",
      "postcode": "2600-012",
      "city": "VILA FRANCA DE XIRA",
      "lon": "-9.01832489961943",
      "lat": "38.95622757567389"
    },
    {
      "id": "pt.ine.add.PTCONT.2815129",
      "street": "R FERNANDO CURADO RIBEIRO",
      "house": "19",
      "postcode": "2600-057",
      "city": "VILA FRANCA DE XIRA",
      "lon": "-9.014631328058734",
      "lat": "38.9542108089734"
    },
    {
      "id": "pt.ine.add.PTCONT.2826376",
      "street": "R ADRIANO CORREIA DE OLIVEIRA CASAI MINAU",
      "house": "6",
      "postcode": "2600-011",
      "city": "VILA FRANCA DE XIRA",
      "lon": "-9.013850395098533",
      "lat": "38.952631367527765"
    },
    {
      "id": "pt.ine.add.PTCONT.2878372",
      "street": "ESTR MINEIRO",
      "house": "26",
      "postcode": "2600-011",
      "city": "VILA FRANCA DE XIRA",
      "lon": "-9.015120077019558",
      "lat": "38.95362162240666"
    },
    {
      "id": "pt.ine.add.PTCONT.2904961",
      "street": "R FERNANDO CURADO RIBEIRO",
      "house": "",
      "postcode": "2600-057",
      "city": "VILA FRANCA DE XIRA",
      "lon": "-9.014612275008117",
      "lat": "38.95453522639427"
    },
    {
      "id": "pt.ine.add.PTCONT.2931732",
      "street": "CSL BAIXINHOS CASAL BAIXINHOS",
      "house": "",
      "postcode": "2600-013",
      "city": "VILA FRANCA DE XIRA",
      "lon": "-9.019506306715742",
      "lat": "38.955678153057995"
    },
    {
      "id": "pt.ine.add.PTCONT.2931746",
      "street": "R FERNANDO CURADO RIBEIRO",
      "house": "10",
      "postcode": "2600-057",
      "city": "VILA FRANCA DE XIRA",
      "lon": "-9.01444888735679",
      "lat": "38.95438333122035"
    },
    {
      "id": "pt.ine.add.PTCONT.2959591",
      "street": "EN 248",
      "house": "",
      "postcode": "2600-012",
      "city": "VILA FRANCA DE XIRA",
      "lon": "-9.016403994485712",
      "lat": "38.95575572002542"
    },
    {
      "id": "pt.ine.add.PTCONT.2977783",
      "street": "R FERNANDO CURADO RIBEIRO",
      "house": "",
      "postcode": "2600-057",
      "city": "VILA FRANCA DE XIRA",
      "lon": "-9.014344179487402",
      "lat": "38.954312061122295"
    },
    {
      "id": "pt.ine.add.PTCONT.2982179",
      "street": "R ADRIANO CORREIA DE OLIVEIRA",
      "house": "",
      "postcode": "2600-011",
      "city": "VILA FRANCA DE XIRA",
      "lon": "-9.014001908099802",
      "lat": "38.95275633043395"
    },
    {
      "id": "pt.ine.add.PTCONT.3005968",
      "street": "R FERNANDO CURADO RIBEIRO",
      "house": "",
      "postcode": "2600-057",
      "city": "VILA FRANCA DE XIRA",
      "lon": "-9.014519101816624",
      "lat": "38.954463869332535"
    },
    {
      "id": "pt.ine.add.PTCONT.3032834",
      "street": "ESTR MINEIRO",
      "house": "28",
      "postcode": "2600-011",
      "city": "VILA FRANCA DE XIRA",
      "lon": "-9.014724876428653",
      "lat": "38.95338140329337"
    },
    {
      "id": "pt.ine.add.PTCONT.3033847",
      "street": "R FERNANDO CURADO RIBEIRO",
      "house": "",
      "postcode": "2600-057",
      "city": "VILA FRANCA DE XIRA",
      "lon": "-9.014122894795808",
      "lat": "38.95414258744397"
    },
    {
      "id": "pt.ine.add.PTCONT.3107086",
      "street": "CSL BAIXINHOS CASAL DOS BAIXINHOS",
      "house": "",
      "postcode": "2600-013",
      "city": "VILA FRANCA DE XIRA",
      "lon": "-9.019657162734875",
      "lat": "38.9557490679237"
    },
    {
      "id": "pt.ine.add.PTCONT.3107087",
      "street": "R FERNANDO CURADO RIBEIRO",
      "house": "13",
      "postcode": "2600-057",
      "city": "VILA FRANCA DE XIRA",
      "lon": "-9.014064327618312",
      "lat": "38.954070968765734"
    },
    {
      "id": "pt.ine.add.PTCONT.3117789",
      "street": "CSL DOS REMÉDIOS",
      "house": "",
      "postcode": "2601-502",
      "city": "VILA FRANCA DE XIRA",
      "lon": "-9.014585118844126",
      "lat": "38.95327436776129"
    },
    {
      "id": "pt.ine.add.PTCONT.3128051",
      "street": "R ADRIANO CORREIA DE OLIVEIRA QTA NOSSA SENHORA OLIVEIRA",
      "house": "",
      "postcode": "2600-011",
      "city": "VILA FRANCA DE XIRA",
      "lon": "-9.013983409934823",
      "lat": "38.95312578165161"
    },
    {
      "id": "pt.ine.add.PTCONT.3128052",
      "street": "R ADRIANO CORREIA DE OLIVEIRA QTA NOSSA SENHORA OLIVEIRA",
      "house": "",
      "postcode": "2600-011",
      "city": "VILA FRANCA DE XIRA",
      "lon": "-9.013983409934823",
      "lat": "38.95312578165161"
    },
    {
      "id": "pt.ine.add.PTCONT.3128084",
      "street": "R ADRIANO CORREIA DE OLIVEIRA QTA NOSSA SENHORA OLIVEIRA",
      "house": "",
      "postcode": "2600-011",
      "city": "VILA FRANCA DE XIRA",
      "lon": "-9.013983409934823",
      "lat": "38.95312578165161"
    },
    {
      "id": "pt.ine.add.PTCONT.3181904",
      "street": "LG FONTE DE BAIXO",
      "house": "2",
      "postcode": "2600-011",
      "city": "VILA FRANCA DE XIRA",
      "lon": "-9.012670663378213",
      "lat": "38.95331583450604"
    },
    {
      "id": "pt.ine.add.PTCONT.3196669",
      "street": "ESTR MINEIRO",
      "house": "27",
      "postcode": "2600-011",
      "city": "VILA FRANCA DE XIRA",
      "lon": "-9.014991964908795",
      "lat": "38.953523506958035"
    },
    {
      "id": "pt.ine.add.PTCONT.3237402",
      "street": "LG FONTE DE BAIXO",
      "house": "",
      "postcode": "2600-011",
      "city": "VILA FRANCA DE XIRA",
      "lon": "-9.012876064110309",
      "lat": "38.953134134326376"
    },
    {
      "id": "pt.ine.add.PTCONT.3246469",
      "street": "EN 248 QTA SOSSEGO",
      "house": "",
      "postcode": "2600-011",
      "city": "VILA FRANCA DE XIRA",
      "lon": "-9.015197325764442",
      "lat": "38.954269585617105"
    },
    {
      "id": "pt.ine.add.PTCONT.3254967",
      "street": "ESTR MINEIRO BR ENFERMEIRO",
      "house": "",
      "postcode": "2600-013",
      "city": "VILA FRANCA DE XIRA",
      "lon": "-9.016647816119775",
      "lat": "38.95495219843225"
    },
    {
      "id": "pt.ine.add.PTCONT.3282948",
      "street": "ESTR MINEIRO",
      "house": "",
      "postcode": "2600-013",
      "city": "VILA FRANCA DE XIRA",
      "lon": "-9.0177854266161",
      "lat": "38.9555200664881"
    },
    {
      "id": "pt.ine.add.PTCONT.3306327",
      "street": "EN 248",
      "house": "",
      "postcode": "2600-012",
      "city": "VILA FRANCA DE XIRA",
      "lon": "-9.016277441925924",
      "lat": "38.95578370056646"
    },
    {
      "id": "pt.ine.add.PTCONT.3366632",
      "street": "EN 248",
      "house": "5",
      "postcode": "2600-011",
      "city": "VILA FRANCA DE XIRA",
      "lon": "-9.01372151013534",
      "lat": "38.95433477635289"
    },
    {
      "id": "pt.ine.add.PTCONT.3402932",
      "street": "R ARMANDO CORTEZ",
      "house": "3",
      "postcode": "2600-057",
      "city": "VILA FRANCA DE XIRA",
      "lon": "-9.014164191430092",
      "lat": "38.954682731547535"
    },
    {
      "id": "pt.ine.add.PTCONT.3402933",
      "street": "R ADRIANO CORREIA DE OLIVEIRA",
      "house": "12",
      "postcode": "2600-011",
      "city": "VILA FRANCA DE XIRA",
      "lon": "-9.014270777350868",
      "lat": "38.95304254393469"
    },
    {
      "id": "pt.ine.add.PTCONT.3404105",
      "street": "R ADRIANO CORREIA DE OLIVEIRA",
      "house": "12",
      "postcode": "2600-011",
      "city": "VILA FRANCA DE XIRA",
      "lon": "-9.014270777350868",
      "lat": "38.95304254393469"
    },
    {
      "id": "pt.ine.add.PTCONT.3409780",
      "street": "R ADRIANO CORREIA DE OLIVEIRA",
      "house": "",
      "postcode": "2600-011",
      "city": "VILA FRANCA DE XIRA",
      "lon": "-9.014188249110692",
      "lat": "38.95289904541114"
    },
    {
      "id": "pt.ine.add.PTCONT.3422909",
      "street": "ESTR MINEIRO",
      "house": "8",
      "postcode": "2600-011",
      "city": "VILA FRANCA DE XIRA",
      "lon": "-9.015945426436993",
      "lat": "38.954128814984024"
    },
    {
      "id": "pt.ine.add.PTCONT.3422910",
      "street": "ESTR MINEIRO",
      "house": "8",
      "postcode": "2600-011",
      "city": "VILA FRANCA DE XIRA",
      "lon": "-9.015945426436993",
      "lat": "38.954128814984024"
    },
    {
      "id": "pt.ine.add.PTCONT.3429853",
      "street": "R FERNANDO CURADO RIBEIRO",
      "house": "",
      "postcode": "2600-057",
      "city": "VILA FRANCA DE XIRA",
      "lon": "-9.013866448757904",
      "lat": "38.95392834070399"
    },
    {
      "id": "pt.ine.add.PTCONT.3440144",
      "street": "R ARMANDO CORTEZ",
      "house": "1",
      "postcode": "2600-057",
      "city": "VILA FRANCA DE XIRA",
      "lon": "-9.01431570941169",
      "lat": "38.95480769394574"
    }
  ]
}