{
  "data": {
    "distrito": "Lisboa",
    "concelho": "Vila Franca de Xira",
    "freguesia": "Vila Franca de Xira",
    "OBJECTID": 847,
    "BGRI2021": "11140901623",
    "DT21": "11",
    "DTMN21": "1114",
    "DTMNFR21": "111409",
    "DTMNFRSEC21": "111409016",
    "SECNUM21": "016",
    "SSNUM21": "23",
    "SECSSNUM21": "01623",
    "OBJECTID_1": 118299,
    "DT": "11",
    "CC": "14",
    "fr": "09",
    "SEC": "016",
    "SS": "23"
  },
  "addresses": [
    {
      "id": "pt.ine.add.PTCONT.2272841",
      "street": "CASAI PAIYART",
      "house": "",
      "postcode": "2600-043",
      "city": "VILA FRANCA DE XIRA",
      "lon": "-9.014948062353369",
      "lat": "38.96208105119327"
    },
    {
      "id": "pt.ine.add.PTCONT.2346999",
      "street": "ESTR FARROBO",
      "house": "",
      "postcode": "2600-043",
      "city": "VILA FRANCA DE XIRA",
      "lon": "-9.015243524317924",
      "lat": "38.9654386466084"
    },
    {
      "id": "pt.ine.add.PTCONT.2392272",
      "street": "CSL PERDILHAO",
      "house": "",
      "postcode": "2600-043",
      "city": "VILA FRANCA DE XIRA",
      "lon": "-9.015137938134025",
      "lat": "38.96436754253557"
    },
    {
      "id": "pt.ine.add.PTCONT.2401520",
      "street": "CSL FARROBO",
      "house": "",
      "postcode": "2600-079",
      "city": "VILA FRANCA DE XIRA",
      "lon": "-9.007743903379149",
      "lat": "38.95981130839871"
    },
    {
      "id": "pt.ine.add.PTCONT.2447119",
      "street": "ESTR FARROBO",
      "house": "",
      "postcode": "2600-043",
      "city": "VILA FRANCA DE XIRA",
      "lon": "-9.01355853446363",
      "lat": "38.96633411450988"
    },
    {
      "id": "pt.ine.add.PTCONT.2591371",
      "street": "CSL PAISART",
      "house": "",
      "postcode": "2600-043",
      "city": "VILA FRANCA DE XIRA",
      "lon": "-9.014994765861653",
      "lat": "38.96212573619781"
    },
    {
      "id": "pt.ine.add.PTCONT.2613665",
      "street": "CSL FARROBO",
      "house": "",
      "postcode": "2600-079",
      "city": "VILA FRANCA DE XIRA",
      "lon": "-9.007662376629682",
      "lat": "38.95974886623166"
    },
    {
      "id": "pt.ine.add.PTCONT.2624116",
      "street": "ESTR FARROBO",
      "house": "",
      "postcode": "2600-043",
      "city": "VILA FRANCA DE XIRA",
      "lon": "-9.01328398734392",
      "lat": "38.966525344769636"
    },
    {
      "id": "pt.ine.add.PTCONT.2650534",
      "street": "CSL NOVO DO FARROBO",
      "house": "",
      "postcode": "2600-079",
      "city": "VILA FRANCA DE XIRA",
      "lon": "-9.007567764112492",
      "lat": "38.95956041575643"
    },
    {
      "id": "pt.ine.add.PTCONT.2650535",
      "street": "CSL NOVO DO FARROBO",
      "house": "",
      "postcode": "2600-079",
      "city": "VILA FRANCA DE XIRA",
      "lon": "-9.007567764112492",
      "lat": "38.95956041575643"
    },
    {
      "id": "pt.ine.add.PTCONT.2650536",
      "street": "CSL NOVO DO FARROBO",
      "house": "",
      "postcode": "2600-079",
      "city": "VILA FRANCA DE XIRA",
      "lon": "-9.007567764112492",
      "lat": "38.95956041575643"
    },
    {
      "id": "pt.ine.add.PTCONT.2650537",
      "street": "CSL NOVO DO FARROBO",
      "house": "",
      "postcode": "2600-079",
      "city": "VILA FRANCA DE XIRA",
      "lon": "-9.007567764112492",
      "lat": "38.95956041575643"
    },
    {
      "id": "pt.ine.add.PTCONT.2680077",
      "street": "CSL PAISART SN",
      "house": "SN",
      "postcode": "2600-043",
      "city": "VILA FRANCA DE XIRA",
      "lon": "-9.015061415264565",
      "lat": "38.96191805804677"
    },
    {
      "id": "pt.ine.add.PTCONT.2705891",
      "street": "ESTR FARROBO",
      "house": "",
      "postcode": "2600-043",
      "city": "VILA FRANCA DE XIRA",
      "lon": "-9.015681030194068",
      "lat": "38.96536327795315"
    },
    {
      "id": "pt.ine.add.PTCONT.2705892",
      "street": "CSL BOA VISTA",
      "house": "",
      "postcode": "2600-043",
      "city": "VILA FRANCA DE XIRA",
      "lon": "-9.014264207854211",
      "lat": "38.9636895668098"
    },
    {
      "id": "pt.ine.add.PTCONT.2742068",
      "street": "ESTR FARROBO",
      "house": "",
      "postcode": "2600-043",
      "city": "VILA FRANCA DE XIRA",
      "lon": "-9.015013680885856",
      "lat": "38.965512444457566"
    },
    {
      "id": "pt.ine.add.PTCONT.2751948",
      "street": "ESTR FARROBO QTA DA FONTE",
      "house": "",
      "postcode": "2600-079",
      "city": "VILA FRANCA DE XIRA",
      "lon": "-9.009985239378814",
      "lat": "38.96287508447275"
    },
    {
      "id": "pt.ine.add.PTCONT.2771103",
      "street": "ESTR FARROBO",
      "house": "",
      "postcode": "2600-043",
      "city": "VILA FRANCA DE XIRA",
      "lon": "-9.013155854147481",
      "lat": "38.96642722776012"
    },
    {
      "id": "pt.ine.add.PTCONT.2803608",
      "street": "CSL FARROBO",
      "house": "",
      "postcode": "2600-079",
      "city": "VILA FRANCA DE XIRA",
      "lon": "-9.009905715439281",
      "lat": "38.96391155440389"
    },
    {
      "id": "pt.ine.add.PTCONT.2808968",
      "street": "CSL FARROBO C",
      "house": "C",
      "postcode": "2600-079",
      "city": "VILA FRANCA DE XIRA",
      "lon": "-9.007557446022037",
      "lat": "38.95965957659489"
    },
    {
      "id": "pt.ine.add.PTCONT.2950940",
      "street": "",
      "house": "",
      "postcode": "2600-043",
      "city": "VILA FRANCA DE XIRA",
      "lon": "-9.015667593433845",
      "lat": "38.965210250706605"
    },
    {
      "id": "pt.ine.add.PTCONT.2950939",
      "street": "",
      "house": "",
      "postcode": "2600-043",
      "city": "VILA FRANCA DE XIRA",
      "lon": "-9.015667593433845",
      "lat": "38.965210250706605"
    },
    {
      "id": "pt.ine.add.PTCONT.2977709",
      "street": "ESTR FARROBO",
      "house": "",
      "postcode": "2600-079",
      "city": "VILA FRANCA DE XIRA",
      "lon": "-9.008677969009268",
      "lat": "38.96165086033286"
    },
    {
      "id": "pt.ine.add.PTCONT.2982000",
      "street": "ESTR ARRUDA CAJAL DOS BAIRROS",
      "house": "",
      "postcode": "2600-085",
      "city": "VILA FRANCA DE XIRA",
      "lon": "-9.009435807587845",
      "lat": "38.96042013977826"
    },
    {
      "id": "pt.ine.add.PTCONT.2982176",
      "street": "CSL FARROBO",
      "house": "",
      "postcode": "2600-065",
      "city": "VILA FRANCA DE XIRA",
      "lon": "-9.01100247144375",
      "lat": "38.96396636201587"
    },
    {
      "id": "pt.ine.add.PTCONT.3050714",
      "street": "CSL PALYART",
      "house": "8",
      "postcode": "2600-043",
      "city": "VILA FRANCA DE XIRA",
      "lon": "-9.01506242030002",
      "lat": "38.961999118723156"
    },
    {
      "id": "pt.ine.add.PTCONT.3079535",
      "street": "QTA NSA SRA DOS BAIRROS",
      "house": "",
      "postcode": "2600-085",
      "city": "VILA FRANCA DE XIRA",
      "lon": "-9.009234814031185",
      "lat": "38.96002531487486"
    },
    {
      "id": "pt.ine.add.PTCONT.3097994",
      "street": "CSL COXA",
      "house": "",
      "postcode": "2600-043",
      "city": "VILA FRANCA DE XIRA",
      "lon": "-9.01561999341403",
      "lat": "38.96509351213872"
    },
    {
      "id": "pt.ine.add.PTCONT.3125561",
      "street": "R CONDE DE FARROBO QTA DO FARROBO",
      "house": "",
      "postcode": "2600-155",
      "city": "VILA FRANCA DE XIRA",
      "lon": "-9.009457370341465",
      "lat": "38.96966175900764"
    },
    {
      "id": "pt.ine.add.PTCONT.3154647",
      "street": "QTA PRILH√ÉO",
      "house": "",
      "postcode": "2600-043",
      "city": "VILA FRANCA DE XIRA",
      "lon": "-9.014525266868619",
      "lat": "38.964273088231764"
    },
    {
      "id": "pt.ine.add.PTCONT.3163371",
      "street": "ESTR FARROBO",
      "house": "",
      "postcode": "2600-043",
      "city": "VILA FRANCA DE XIRA",
      "lon": "-9.01311416965795",
      "lat": "38.964923276059366"
    },
    {
      "id": "pt.ine.add.PTCONT.3191523",
      "street": "CSL BOAVISTA VIVENDA LOURO",
      "house": "1",
      "postcode": "2600-043",
      "city": "VILA FRANCA DE XIRA",
      "lon": "-9.014574244003073",
      "lat": "38.963570126820585"
    },
    {
      "id": "pt.ine.add.PTCONT.3206045",
      "street": "CSL PERDILHAO",
      "house": "",
      "postcode": "2600-043",
      "city": "VILA FRANCA DE XIRA",
      "lon": "-9.013435190955052",
      "lat": "38.96289414850069"
    },
    {
      "id": "pt.ine.add.PTCONT.3218500",
      "street": "CSL MANUEL VENDA",
      "house": "",
      "postcode": "2600-043",
      "city": "VILA FRANCA DE XIRA",
      "lon": "-9.01389737998557",
      "lat": "38.963881495298295"
    },
    {
      "id": "pt.ine.add.PTCONT.3219832",
      "street": "CSL BOA VISTA",
      "house": "1",
      "postcode": "2600-043",
      "city": "VILA FRANCA DE XIRA",
      "lon": "-9.01389737998557",
      "lat": "38.963881495298295"
    },
    {
      "id": "pt.ine.add.PTCONT.3228142",
      "street": "ESTR FARROBO",
      "house": "",
      "postcode": "2600-043",
      "city": "VILA FRANCA DE XIRA",
      "lon": "-9.015783855672883",
      "lat": "38.96528143202188"
    },
    {
      "id": "pt.ine.add.PTCONT.3228143",
      "street": "ESTR FARROBO",
      "house": "",
      "postcode": "2600-043",
      "city": "VILA FRANCA DE XIRA",
      "lon": "-9.015783855672883",
      "lat": "38.96528143202188"
    },
    {
      "id": "pt.ine.add.PTCONT.3292212",
      "street": "CSL FARROBO",
      "house": "",
      "postcode": "2600-079",
      "city": "VILA FRANCA DE XIRA",
      "lon": "-9.00765839056007",
      "lat": "38.95942462275032"
    },
    {
      "id": "pt.ine.add.PTCONT.3306325",
      "street": "CSL PALYARTE",
      "house": "B",
      "postcode": "2600-043",
      "city": "VILA FRANCA DE XIRA",
      "lon": "-9.014952193684676",
      "lat": "38.96241430063412"
    },
    {
      "id": "pt.ine.add.PTCONT.3328657",
      "street": "CSL COXA",
      "house": "1",
      "postcode": "2600-043",
      "city": "VILA FRANCA DE XIRA",
      "lon": "-9.015374034076691",
      "lat": "38.96479812174746"
    },
    {
      "id": "pt.ine.add.PTCONT.3338808",
      "street": "ESTR FARROBO",
      "house": "",
      "postcode": "2600-079",
      "city": "VILA FRANCA DE XIRA",
      "lon": "-9.009710473673628",
      "lat": "38.963048292888274"
    }
  ]
}