{
  "data": {
    "distrito": "Faro",
    "concelho": "Monchique",
    "freguesia": "Monchique",
    "OBJECTID": 157,
    "BGRI2021": "08090300308",
    "DT21": "08",
    "DTMN21": "0809",
    "DTMNFR21": "080903",
    "DTMNFRSEC21": "080903003",
    "SECNUM21": "003",
    "SSNUM21": "08",
    "SECSSNUM21": "00308",
    "OBJECTID_1": 70099,
    "DT": "08",
    "CC": "09",
    "fr": "03",
    "SEC": "003",
    "SS": "08"
  },
  "addresses": [
    {
      "id": "pt.ine.add.PTCONT.1467006",
      "street": "EN 267",
      "house": "",
      "postcode": "8550-307",
      "city": "MONCHIQUE",
      "lon": "-8.563043323669525",
      "lat": "37.30684330124597"
    },
    {
      "id": "pt.ine.add.PTCONT.1470629",
      "street": "ESTR FOIA",
      "house": "",
      "postcode": "8550-245",
      "city": "MONCHIQUE",
      "lon": "-8.562171619672448",
      "lat": "37.31224362529821"
    },
    {
      "id": "pt.ine.add.PTCONT.1482410",
      "street": "",
      "house": "",
      "postcode": "8550-307",
      "city": "MONCHIQUE",
      "lon": "-8.563089409759051",
      "lat": "37.30503206557551"
    },
    {
      "id": "pt.ine.add.PTCONT.1483658",
      "street": "EN 267",
      "house": "51 N",
      "postcode": "8550-307",
      "city": "MONCHIQUE",
      "lon": "-8.56258849915936",
      "lat": "37.306205222190506"
    },
    {
      "id": "pt.ine.add.PTCONT.1485172",
      "street": "",
      "house": "",
      "postcode": "8550-245",
      "city": "MONCHIQUE",
      "lon": "-8.565668770239593",
      "lat": "37.30832944165307"
    },
    {
      "id": "pt.ine.add.PTCONT.1489241",
      "street": "EN 267",
      "house": "",
      "postcode": "8550-307",
      "city": "MONCHIQUE",
      "lon": "-8.561424062056034",
      "lat": "37.30773218104476"
    },
    {
      "id": "pt.ine.add.PTCONT.1490629",
      "street": "",
      "house": "",
      "postcode": "8550-257",
      "city": "MONCHIQUE",
      "lon": "-8.567490634420475",
      "lat": "37.30933192024663"
    },
    {
      "id": "pt.ine.add.PTCONT.1494028",
      "street": "ESTR VELHA",
      "house": "",
      "postcode": "8550-307",
      "city": "MONCHIQUE",
      "lon": "-8.55981639855364",
      "lat": "37.30868406884173"
    },
    {
      "id": "pt.ine.add.PTCONT.1494049",
      "street": "",
      "house": "",
      "postcode": "8550-274",
      "city": "MONCHIQUE",
      "lon": "-8.568721507782724",
      "lat": "37.30760643156586"
    },
    {
      "id": "pt.ine.add.PTCONT.1501778",
      "street": "",
      "house": "",
      "postcode": "8550-307",
      "city": "MONCHIQUE",
      "lon": "-8.56285239162391",
      "lat": "37.30897042241848"
    },
    {
      "id": "pt.ine.add.PTCONT.1505702",
      "street": "",
      "house": "",
      "postcode": "8550-307",
      "city": "MONCHIQUE",
      "lon": "-8.563586698805143",
      "lat": "37.30718371690649"
    },
    {
      "id": "pt.ine.add.PTCONT.1519054",
      "street": "QTA SANTA BARBARA",
      "house": "",
      "postcode": "8550-274",
      "city": "MONCHIQUE",
      "lon": "-8.570176142045563",
      "lat": "37.30557375377586"
    },
    {
      "id": "pt.ine.add.PTCONT.1525831",
      "street": "ESTR FOIA",
      "house": "",
      "postcode": "8550-245",
      "city": "MONCHIQUE",
      "lon": "-8.562314884957585",
      "lat": "37.31164842723392"
    },
    {
      "id": "pt.ine.add.PTCONT.1525832",
      "street": "ESTR FOIA",
      "house": "",
      "postcode": "8550-245",
      "city": "MONCHIQUE",
      "lon": "-8.562314884957585",
      "lat": "37.31164842723392"
    },
    {
      "id": "pt.ine.add.PTCONT.1532001",
      "street": "",
      "house": "",
      "postcode": "8550-307",
      "city": "MONCHIQUE",
      "lon": "-8.563942067784495",
      "lat": "37.30422704865579"
    },
    {
      "id": "pt.ine.add.PTCONT.1532002",
      "street": "",
      "house": "",
      "postcode": "8550-307",
      "city": "MONCHIQUE",
      "lon": "-8.563829789073935",
      "lat": "37.304317560263826"
    },
    {
      "id": "pt.ine.add.PTCONT.1534623",
      "street": "QTA SANTA BARBARA",
      "house": "",
      "postcode": "8550-274",
      "city": "MONCHIQUE",
      "lon": "-8.570345907676062",
      "lat": "37.305672239852505"
    },
    {
      "id": "pt.ine.add.PTCONT.1538027",
      "street": "",
      "house": "",
      "postcode": "8550-307",
      "city": "MONCHIQUE",
      "lon": "-8.563255572505819",
      "lat": "37.30449985455441"
    },
    {
      "id": "pt.ine.add.PTCONT.1549862",
      "street": "",
      "house": "",
      "postcode": "8550-319",
      "city": "MONCHIQUE",
      "lon": "-8.568005960863296",
      "lat": "37.30087837609686"
    },
    {
      "id": "pt.ine.add.PTCONT.1558667",
      "street": "HOTEL DOS GATOS",
      "house": "",
      "postcode": "8550-274",
      "city": "MONCHIQUE",
      "lon": "-8.569190094890315",
      "lat": "37.304757454984255"
    },
    {
      "id": "pt.ine.add.PTCONT.1560759",
      "street": "",
      "house": "",
      "postcode": "8550-245",
      "city": "MONCHIQUE",
      "lon": "-8.565266510958397",
      "lat": "37.3089976723691"
    },
    {
      "id": "pt.ine.add.PTCONT.1569763",
      "street": "",
      "house": "",
      "postcode": "8550-307",
      "city": "MONCHIQUE",
      "lon": "-8.558666499302982",
      "lat": "37.31080562650727"
    },
    {
      "id": "pt.ine.add.PTCONT.1572598",
      "street": "EN 267",
      "house": "",
      "postcode": "8550-307",
      "city": "MONCHIQUE",
      "lon": "-8.562368695734326",
      "lat": "37.307224182294476"
    },
    {
      "id": "pt.ine.add.PTCONT.1578480",
      "street": "EN 267",
      "house": "",
      "postcode": "8550-307",
      "city": "MONCHIQUE",
      "lon": "-8.560993643140481",
      "lat": "37.30741837798287"
    },
    {
      "id": "pt.ine.add.PTCONT.1584133",
      "street": "EN 267",
      "house": "",
      "postcode": "8550-307",
      "city": "MONCHIQUE",
      "lon": "-8.561277578093836",
      "lat": "37.30775974198011"
    },
    {
      "id": "pt.ine.add.PTCONT.1590367",
      "street": "",
      "house": "",
      "postcode": "8550-274",
      "city": "MONCHIQUE",
      "lon": "-8.567506591307266",
      "lat": "37.30622331316713"
    },
    {
      "id": "pt.ine.add.PTCONT.1590507",
      "street": "",
      "house": "",
      "postcode": "8550-307",
      "city": "MONCHIQUE",
      "lon": "-8.564134432302346",
      "lat": "37.30433447171562"
    },
    {
      "id": "pt.ine.add.PTCONT.1591093",
      "street": "",
      "house": "",
      "postcode": "8550-274",
      "city": "MONCHIQUE",
      "lon": "-8.567630147926108",
      "lat": "37.306132756695916"
    },
    {
      "id": "pt.ine.add.PTCONT.1592786",
      "street": "ESTR FOIA",
      "house": "",
      "postcode": "8550-245",
      "city": "MONCHIQUE",
      "lon": "-8.56845089038917",
      "lat": "37.30958067957067"
    },
    {
      "id": "pt.ine.add.PTCONT.1605153",
      "street": "",
      "house": "",
      "postcode": "8550-307",
      "city": "MONCHIQUE",
      "lon": "-8.560787085006371",
      "lat": "37.308788688285276"
    },
    {
      "id": "pt.ine.add.PTCONT.1612524",
      "street": "ESTR FOIA",
      "house": "",
      "postcode": "8550-245",
      "city": "MONCHIQUE",
      "lon": "-8.561065572667736",
      "lat": "37.31214851726854"
    },
    {
      "id": "pt.ine.add.PTCONT.1635135",
      "street": "",
      "house": "",
      "postcode": "8550-257",
      "city": "MONCHIQUE",
      "lon": "-8.568591970657016",
      "lat": "37.30861606019433"
    },
    {
      "id": "pt.ine.add.PTCONT.1652985",
      "street": "ESTR FOIA",
      "house": "",
      "postcode": "8550-245",
      "city": "MONCHIQUE",
      "lon": "-8.562506138813022",
      "lat": "37.311557630603616"
    },
    {
      "id": "pt.ine.add.PTCONT.1663767",
      "street": "EN 267",
      "house": "",
      "postcode": "8550-307",
      "city": "MONCHIQUE",
      "lon": "-8.562414992765847",
      "lat": "37.307431250975796"
    },
    {
      "id": "pt.ine.add.PTCONT.1667057",
      "street": "ESTR FOIA",
      "house": "",
      "postcode": "8550-245",
      "city": "MONCHIQUE",
      "lon": "-8.566505445768385",
      "lat": "37.30866877134293"
    },
    {
      "id": "pt.ine.add.PTCONT.1671137",
      "street": "EN 267",
      "house": "",
      "postcode": "8550-307",
      "city": "MONCHIQUE",
      "lon": "-8.563355905567033",
      "lat": "37.30429225312338"
    },
    {
      "id": "pt.ine.add.PTCONT.1674007",
      "street": "",
      "house": "",
      "postcode": "8550-307",
      "city": "MONCHIQUE",
      "lon": "-8.563502844181414",
      "lat": "37.30434578059434"
    },
    {
      "id": "pt.ine.add.PTCONT.1679618",
      "street": "",
      "house": "",
      "postcode": "8550-257",
      "city": "MONCHIQUE",
      "lon": "-8.566074277240403",
      "lat": "37.30822884563259"
    },
    {
      "id": "pt.ine.add.PTCONT.1687971",
      "street": "",
      "house": "",
      "postcode": "8550-274",
      "city": "MONCHIQUE",
      "lon": "-8.567787127909238",
      "lat": "37.30596999503179"
    },
    {
      "id": "pt.ine.add.PTCONT.1690612",
      "street": "EN 267",
      "house": "",
      "postcode": "8550-307",
      "city": "MONCHIQUE",
      "lon": "-8.562258268498978",
      "lat": "37.30565679246216"
    },
    {
      "id": "pt.ine.add.PTCONT.1693646",
      "street": "",
      "house": "",
      "postcode": "8550-307",
      "city": "MONCHIQUE",
      "lon": "-8.565155073071995",
      "lat": "37.30332159736057"
    },
    {
      "id": "pt.ine.add.PTCONT.1702376",
      "street": "",
      "house": "",
      "postcode": "8550-274",
      "city": "MONCHIQUE",
      "lon": "-8.569115154715952",
      "lat": "37.307406755649"
    },
    {
      "id": "pt.ine.add.PTCONT.1716636",
      "street": "",
      "house": "",
      "postcode": "8550-307",
      "city": "MONCHIQUE",
      "lon": "-8.563356624223669",
      "lat": "37.3044183945993"
    },
    {
      "id": "pt.ine.add.PTCONT.1719342",
      "street": "EN 267",
      "house": "",
      "postcode": "8550-307",
      "city": "MONCHIQUE",
      "lon": "-8.562160131930922",
      "lat": "37.30625182742744"
    },
    {
      "id": "pt.ine.add.PTCONT.1720415",
      "street": "",
      "house": "",
      "postcode": "8550-274",
      "city": "MONCHIQUE",
      "lon": "-8.567126038313818",
      "lat": "37.30673829580924"
    },
    {
      "id": "pt.ine.add.PTCONT.1722015",
      "street": "",
      "house": "",
      "postcode": "8550-319",
      "city": "MONCHIQUE",
      "lon": "-8.568061887644435",
      "lat": "37.30079707791001"
    },
    {
      "id": "pt.ine.add.PTCONT.1725047",
      "street": "",
      "house": "",
      "postcode": "8550-274",
      "city": "MONCHIQUE",
      "lon": "-8.564791876465758",
      "lat": "37.30884622983521"
    },
    {
      "id": "pt.ine.add.PTCONT.1739512",
      "street": "ESTR FOIA",
      "house": "",
      "postcode": "8550-245",
      "city": "MONCHIQUE",
      "lon": "-8.563565773081633",
      "lat": "37.311427637004236"
    },
    {
      "id": "pt.ine.add.PTCONT.1742871",
      "street": "",
      "house": "",
      "postcode": "8550-290",
      "city": "MONCHIQUE",
      "lon": "-8.570160619504156",
      "lat": "37.300942521252296"
    },
    {
      "id": "pt.ine.add.PTCONT.1751665",
      "street": "",
      "house": "",
      "postcode": "8550-245",
      "city": "MONCHIQUE",
      "lon": "-8.563429998211369",
      "lat": "37.31135604855457"
    },
    {
      "id": "pt.ine.add.PTCONT.1763988",
      "street": "EN 267",
      "house": "",
      "postcode": "8550-307",
      "city": "MONCHIQUE",
      "lon": "-8.562380641324955",
      "lat": "37.30734127270733"
    },
    {
      "id": "pt.ine.add.PTCONT.1773190",
      "street": "ESTR FOIA",
      "house": "",
      "postcode": "8550-245",
      "city": "MONCHIQUE",
      "lon": "-8.563818847169358",
      "lat": "37.310309441211196"
    },
    {
      "id": "pt.ine.add.PTCONT.1773191",
      "street": "",
      "house": "",
      "postcode": "8550-274",
      "city": "MONCHIQUE",
      "lon": "-8.56831893813088",
      "lat": "37.304301136998745"
    },
    {
      "id": "pt.ine.add.PTCONT.1779282",
      "street": "",
      "house": "",
      "postcode": "8550-307",
      "city": "MONCHIQUE",
      "lon": "-8.563300484407328",
      "lat": "37.30446365014053"
    },
    {
      "id": "pt.ine.add.PTCONT.1784361",
      "street": "",
      "house": "",
      "postcode": "8550-307",
      "city": "MONCHIQUE",
      "lon": "-8.565038997104015",
      "lat": "37.30669186970885"
    },
    {
      "id": "pt.ine.add.PTCONT.1790781",
      "street": "ESTR FOIA CEICEIRA CORTE PEREIRO CCI",
      "house": "CCI 111E",
      "postcode": "8550-274",
      "city": "MONCHIQUE",
      "lon": "-8.5688842564415",
      "lat": "37.30648855690086"
    },
    {
      "id": "pt.ine.add.PTCONT.1790782",
      "street": "CORGA ERVILHAS CASA AGOSTO CCI",
      "house": "CCI111 D",
      "postcode": "8550-274",
      "city": "MONCHIQUE",
      "lon": "-8.564844103245626",
      "lat": "37.30811620620313"
    },
    {
      "id": "pt.ine.add.PTCONT.1797603",
      "street": "",
      "house": "",
      "postcode": "8550-274",
      "city": "MONCHIQUE",
      "lon": "-8.565410571267913",
      "lat": "37.30854663197158"
    },
    {
      "id": "pt.ine.add.PTCONT.1808507",
      "street": "",
      "house": "",
      "postcode": "8550-245",
      "city": "MONCHIQUE",
      "lon": "-8.564872896990718",
      "lat": "37.309206345643275"
    },
    {
      "id": "pt.ine.add.PTCONT.1818331",
      "street": "",
      "house": "",
      "postcode": "8550-307",
      "city": "MONCHIQUE",
      "lon": "-8.56327725861177",
      "lat": "37.30434660076816"
    },
    {
      "id": "pt.ine.add.PTCONT.1828648",
      "street": "",
      "house": "",
      "postcode": "8550-307",
      "city": "MONCHIQUE",
      "lon": "-8.563524683801218",
      "lat": "37.304219557078596"
    },
    {
      "id": "pt.ine.add.PTCONT.1840037",
      "street": "EN 267",
      "house": "",
      "postcode": "8550-307",
      "city": "MONCHIQUE",
      "lon": "-8.562368951835133",
      "lat": "37.30726923280537"
    },
    {
      "id": "pt.ine.add.PTCONT.1842238",
      "street": "",
      "house": "",
      "postcode": "8550-245",
      "city": "MONCHIQUE",
      "lon": "-8.565605064891633",
      "lat": "37.30902346641576"
    },
    {
      "id": "pt.ine.add.PTCONT.1843517",
      "street": "EN 267",
      "house": "",
      "postcode": "8550-307",
      "city": "MONCHIQUE",
      "lon": "-8.561988563142194",
      "lat": "37.30782023949585"
    },
    {
      "id": "pt.ine.add.PTCONT.1846428",
      "street": "",
      "house": "",
      "postcode": "8550-319",
      "city": "MONCHIQUE",
      "lon": "-8.567870304629317",
      "lat": "37.30082481273115"
    },
    {
      "id": "pt.ine.add.PTCONT.1846582",
      "street": "",
      "house": "",
      "postcode": "8550-307",
      "city": "MONCHIQUE",
      "lon": "-8.563649680267284",
      "lat": "37.30438128767102"
    }
  ]
}