{
  "data": {
    "distrito": "Santarém",
    "concelho": "Tomar",
    "freguesia": "União das freguesias de Tomar (São João Baptista) e Santa Maria dos Olivais",
    "OBJECTID": 692,
    "BGRI2021": "14182100509",
    "DT21": "14",
    "DTMN21": "1418",
    "DTMNFR21": "141821",
    "DTMNFRSEC21": "141821005",
    "SECNUM21": "005",
    "SSNUM21": "09",
    "SECSSNUM21": "00509",
    "OBJECTID_1": 155728,
    "DT": "14",
    "CC": "18",
    "fr": "21",
    "SEC": "005",
    "SS": "09"
  },
  "addresses": [
    {
      "id": "pt.ine.add.PTCONT.4394445",
      "street": "R TILEIRA",
      "house": "13",
      "postcode": "2300-316",
      "city": "TOMAR",
      "lon": "-8.408163077944819",
      "lat": "39.61023548315115"
    },
    {
      "id": "pt.ine.add.PTCONT.4396556",
      "street": "R BACELOS",
      "house": "2-4",
      "postcode": "2300-470",
      "city": "TOMAR",
      "lon": "-8.40752761547329",
      "lat": "39.611497935748055"
    },
    {
      "id": "pt.ine.add.PTCONT.4396598",
      "street": "R BACELOS",
      "house": "16",
      "postcode": "2300-470",
      "city": "TOMAR",
      "lon": "-8.405894191944366",
      "lat": "39.61069117166539"
    },
    {
      "id": "pt.ine.add.PTCONT.4402661",
      "street": "CSL BAPTISTA",
      "house": "5",
      "postcode": "2300-316",
      "city": "TOMAR",
      "lon": "-8.407932255852703",
      "lat": "39.61075842294697"
    },
    {
      "id": "pt.ine.add.PTCONT.4402683",
      "street": "R BACELOS",
      "house": "",
      "postcode": "2300-470",
      "city": "TOMAR",
      "lon": "-8.407284429213602",
      "lat": "39.611840767682445"
    },
    {
      "id": "pt.ine.add.PTCONT.4423221",
      "street": "R PONTE VALA",
      "house": "12",
      "postcode": "2300-316",
      "city": "TOMAR",
      "lon": "-8.407737360373924",
      "lat": "39.61153346728877"
    },
    {
      "id": "pt.ine.add.PTCONT.4423234",
      "street": "CSL BAPTISTA",
      "house": "",
      "postcode": "2300-316",
      "city": "TOMAR",
      "lon": "-8.407664113032972",
      "lat": "39.61067799583881"
    },
    {
      "id": "pt.ine.add.PTCONT.4427481",
      "street": "R JOÃO CASTILHO",
      "house": "23",
      "postcode": "2300-498",
      "city": "TOMAR",
      "lon": "-8.407286623515692",
      "lat": "39.6094449575148"
    },
    {
      "id": "pt.ine.add.PTCONT.4427482",
      "street": "R JOÃO CASTILHO",
      "house": "23",
      "postcode": "2300-498",
      "city": "TOMAR",
      "lon": "-8.407286623515692",
      "lat": "39.6094449575148"
    },
    {
      "id": "pt.ine.add.PTCONT.4427483",
      "street": "AZ BACELOS",
      "house": "7",
      "postcode": "2300-439",
      "city": "TOMAR",
      "lon": "-8.407658527806163",
      "lat": "39.609263943531"
    },
    {
      "id": "pt.ine.add.PTCONT.4428761",
      "street": "AZ BACELOS",
      "house": "9",
      "postcode": "2300-439",
      "city": "TOMAR",
      "lon": "-8.407588662532993",
      "lat": "39.6092641086046"
    },
    {
      "id": "pt.ine.add.PTCONT.4428763",
      "street": "R BACELOS",
      "house": "",
      "postcode": "2300-470",
      "city": "TOMAR",
      "lon": "-8.407458850019076",
      "lat": "39.61177730845556"
    },
    {
      "id": "pt.ine.add.PTCONT.4442795",
      "street": "R TILEIRA",
      "house": "14",
      "postcode": "2300-316",
      "city": "TOMAR",
      "lon": "-8.40760389898214",
      "lat": "39.610173758101695"
    },
    {
      "id": "pt.ine.add.PTCONT.4446606",
      "street": "TV BAIRRO B 5",
      "house": "7",
      "postcode": "2300-316",
      "city": "TOMAR",
      "lon": "-8.407992615292713",
      "lat": "39.611298687254305"
    },
    {
      "id": "pt.ine.add.PTCONT.4455709",
      "street": "AZ BACELOS",
      "house": "5",
      "postcode": "2300-439",
      "city": "TOMAR",
      "lon": "-8.40770510465462",
      "lat": "39.60926383345859"
    },
    {
      "id": "pt.ine.add.PTCONT.4469106",
      "street": "TV BAIRRO B 5",
      "house": "1 B",
      "postcode": "2300-316",
      "city": "TOMAR",
      "lon": "-8.407502832950673",
      "lat": "39.611119709326836"
    },
    {
      "id": "pt.ine.add.PTCONT.4469107",
      "street": "R TIMOTEO VERDIER",
      "house": "FM",
      "postcode": "2300-518",
      "city": "TOMAR",
      "lon": "-8.407262837717086",
      "lat": "39.60931891861628"
    },
    {
      "id": "pt.ine.add.PTCONT.4470687",
      "street": "CSL D RAQUEL DOS SANTOS",
      "house": "9",
      "postcode": "2300-316",
      "city": "TOMAR",
      "lon": "-8.407663899577578",
      "lat": "39.61062395562958"
    },
    {
      "id": "pt.ine.add.PTCONT.4472162",
      "street": "CSL D RAQUEL DOS SANTOS",
      "house": "10",
      "postcode": "2300-316",
      "city": "TOMAR",
      "lon": "-8.407652006117598",
      "lat": "39.61056093623459"
    },
    {
      "id": "pt.ine.add.PTCONT.4474930",
      "street": "TV BAIRRO B 5",
      "house": "1",
      "postcode": "2300-316",
      "city": "TOMAR",
      "lon": "-8.407932968071774",
      "lat": "39.610938556967554"
    },
    {
      "id": "pt.ine.add.PTCONT.4476555",
      "street": "R TIMOTEO VERDIER",
      "house": "ALD",
      "postcode": "2300-518",
      "city": "TOMAR",
      "lon": "-8.407566227585939",
      "lat": "39.609480324506194"
    },
    {
      "id": "pt.ine.add.PTCONT.4476556",
      "street": "R TIMOTEO VERDIER",
      "house": "ALD",
      "postcode": "2300-518",
      "city": "TOMAR",
      "lon": "-8.407566227585939",
      "lat": "39.609480324506194"
    },
    {
      "id": "pt.ine.add.PTCONT.4481140",
      "street": "R TIMOTEO VERDIER",
      "house": "CRG",
      "postcode": "2300-518",
      "city": "TOMAR",
      "lon": "-8.407577658455136",
      "lat": "39.609426256778185"
    },
    {
      "id": "pt.ine.add.PTCONT.4481141",
      "street": "R TIMOTEO VERDIER",
      "house": "CRG",
      "postcode": "2300-518",
      "city": "TOMAR",
      "lon": "-8.407577658455136",
      "lat": "39.609426256778185"
    },
    {
      "id": "pt.ine.add.PTCONT.4489159",
      "street": "R BACELOS",
      "house": "18",
      "postcode": "2300-470",
      "city": "TOMAR",
      "lon": "-8.406056436197478",
      "lat": "39.61049264133191"
    },
    {
      "id": "pt.ine.add.PTCONT.4489160",
      "street": "R DR JOSE TAMAGNINI",
      "house": "",
      "postcode": "2300-506",
      "city": "TOMAR",
      "lon": "-8.406207141299687",
      "lat": "39.610321158249214"
    },
    {
      "id": "pt.ine.add.PTCONT.4489161",
      "street": "R DR JOSE TAMAGNINI",
      "house": "",
      "postcode": "2300-506",
      "city": "TOMAR",
      "lon": "-8.406207141299687",
      "lat": "39.610321158249214"
    },
    {
      "id": "pt.ine.add.PTCONT.4492537",
      "street": "R PONTE VALA",
      "house": "14",
      "postcode": "2300-316",
      "city": "TOMAR",
      "lon": "-8.407702889164307",
      "lat": "39.611650636959034"
    },
    {
      "id": "pt.ine.add.PTCONT.4504584",
      "street": "PTE VALA",
      "house": "16B",
      "postcode": "2300-316",
      "city": "TOMAR",
      "lon": "-8.407528219983613",
      "lat": "39.61165104965153"
    },
    {
      "id": "pt.ine.add.PTCONT.4514096",
      "street": "PTE VALA",
      "house": "15",
      "postcode": "2300-316",
      "city": "TOMAR",
      "lon": "-8.407854838749083",
      "lat": "39.61179438627544"
    },
    {
      "id": "pt.ine.add.PTCONT.4515552",
      "street": "TV BAIRRO B 5",
      "house": "3",
      "postcode": "2300-316",
      "city": "TOMAR",
      "lon": "-8.407945146755306",
      "lat": "39.61107362993433"
    },
    {
      "id": "pt.ine.add.PTCONT.4521109",
      "street": "R BACELOS",
      "house": "20",
      "postcode": "2300-470",
      "city": "TOMAR",
      "lon": "-8.406021326124641",
      "lat": "39.6104476898791"
    },
    {
      "id": "pt.ine.add.PTCONT.4531544",
      "street": "CSL BAPTISTA",
      "house": "",
      "postcode": "2300-316",
      "city": "TOMAR",
      "lon": "-8.407651757098373",
      "lat": "39.61049788932245"
    },
    {
      "id": "pt.ine.add.PTCONT.4532623",
      "street": "R DR JOSE TAMAGNINI",
      "house": "",
      "postcode": "2300-506",
      "city": "TOMAR",
      "lon": "-8.40616031607257",
      "lat": "39.61025822080091"
    },
    {
      "id": "pt.ine.add.PTCONT.4543814",
      "street": "R BACELOS",
      "house": "2-4",
      "postcode": "2300-470",
      "city": "TOMAR",
      "lon": "-8.406584474787408",
      "lat": "39.61151817314"
    },
    {
      "id": "pt.ine.add.PTCONT.4546903",
      "street": "CSL D RAQUEL DOS SANTOS",
      "house": "2",
      "postcode": "2300-316",
      "city": "TOMAR",
      "lon": "-8.407943223684072",
      "lat": "39.61058726807776"
    },
    {
      "id": "pt.ine.add.PTCONT.4549228",
      "street": "TV BAIRRO B 5",
      "house": "9",
      "postcode": "2300-316",
      "city": "TOMAR",
      "lon": "-8.407783511633356",
      "lat": "39.61142527677764"
    },
    {
      "id": "pt.ine.add.PTCONT.4551426",
      "street": "R TIMOTEO VERDIER",
      "house": "FP",
      "postcode": "2300-518",
      "city": "TOMAR",
      "lon": "-8.40744925190212",
      "lat": "39.609345498959875"
    },
    {
      "id": "pt.ine.add.PTCONT.4551427",
      "street": "R TIMOTEO VERDIER",
      "house": "FP",
      "postcode": "2300-518",
      "city": "TOMAR",
      "lon": "-8.40744925190212",
      "lat": "39.609345498959875"
    },
    {
      "id": "pt.ine.add.PTCONT.4551428",
      "street": "R TIMOTEO VERDIER",
      "house": "FP",
      "postcode": "2300-518",
      "city": "TOMAR",
      "lon": "-8.40744925190212",
      "lat": "39.609345498959875"
    },
    {
      "id": "pt.ine.add.PTCONT.4551443",
      "street": "R BACELOS",
      "house": "14A",
      "postcode": "2300-470",
      "city": "TOMAR",
      "lon": "-8.4071215462219",
      "lat": "39.611877179084914"
    },
    {
      "id": "pt.ine.add.PTCONT.4552222",
      "street": "R TIMOTEO VERDIER",
      "house": "FP",
      "postcode": "2300-518",
      "city": "TOMAR",
      "lon": "-8.40744925190212",
      "lat": "39.609345498959875"
    },
    {
      "id": "pt.ine.add.PTCONT.4561947",
      "street": "R BACELOS",
      "house": "2-4F",
      "postcode": "2300-470",
      "city": "TOMAR",
      "lon": "-8.406642555962843",
      "lat": "39.61148200927438"
    },
    {
      "id": "pt.ine.add.PTCONT.4566132",
      "street": "TV BAIRRO B 5",
      "house": "5",
      "postcode": "2300-316",
      "city": "TOMAR",
      "lon": "-8.407968898793115",
      "lat": "39.6111906619482"
    },
    {
      "id": "pt.ine.add.PTCONT.4566151",
      "street": "R BACELOS",
      "house": "2-4",
      "postcode": "2300-470",
      "city": "TOMAR",
      "lon": "-8.40645624260546",
      "lat": "39.61148244776847"
    },
    {
      "id": "pt.ine.add.PTCONT.4568202",
      "street": "CSL BAPTISTA",
      "house": "3",
      "postcode": "2300-416",
      "city": "TOMAR",
      "lon": "-8.407955117412552",
      "lat": "39.61065028744172"
    },
    {
      "id": "pt.ine.add.PTCONT.4568203",
      "street": "CSL D RAQUEL DOS SANTOS",
      "house": "1",
      "postcode": "2300-316",
      "city": "TOMAR",
      "lon": "-8.407954618823451",
      "lat": "39.61052419362186"
    },
    {
      "id": "pt.ine.add.PTCONT.4580623",
      "street": "CSL BAPTISTA",
      "house": "7",
      "postcode": "2300-316",
      "city": "TOMAR",
      "lon": "-8.407664362064997",
      "lat": "39.610741042748955"
    },
    {
      "id": "pt.ine.add.PTCONT.4582705",
      "street": "CSL BAPTISTA",
      "house": "6",
      "postcode": "2300-316",
      "city": "TOMAR",
      "lon": "-8.40750137518423",
      "lat": "39.61075043457689"
    },
    {
      "id": "pt.ine.add.PTCONT.4589057",
      "street": "R TIMOTEO VERDIER",
      "house": "APS",
      "postcode": "2300-518",
      "city": "TOMAR",
      "lon": "-8.407531685970877",
      "lat": "39.609579480758065"
    },
    {
      "id": "pt.ine.add.PTCONT.4589058",
      "street": "R TIMOTEO VERDIER",
      "house": "APS",
      "postcode": "2300-518",
      "city": "TOMAR",
      "lon": "-8.407531685970877",
      "lat": "39.609579480758065"
    },
    {
      "id": "pt.ine.add.PTCONT.4611748",
      "street": "R BACELOS",
      "house": "4",
      "postcode": "2300-470",
      "city": "TOMAR",
      "lon": "-8.406340044592927",
      "lat": "39.61154576858392"
    },
    {
      "id": "pt.ine.add.PTCONT.4613884",
      "street": "CSL BAPTISTA",
      "house": "4",
      "postcode": "2300-416",
      "city": "TOMAR",
      "lon": "-8.407943686641401",
      "lat": "39.61070435519512"
    },
    {
      "id": "pt.ine.add.PTCONT.4626927",
      "street": "R JOÃO CASTILHO",
      "house": "21",
      "postcode": "2300-498",
      "city": "TOMAR",
      "lon": "-8.40735677324916",
      "lat": "39.60951684625093"
    },
    {
      "id": "pt.ine.add.PTCONT.4626928",
      "street": "R JOÃO CASTILHO",
      "house": "21",
      "postcode": "2300-498",
      "city": "TOMAR",
      "lon": "-8.40735677324916",
      "lat": "39.60951684625093"
    },
    {
      "id": "pt.ine.add.PTCONT.4630611",
      "street": "R BACELOS",
      "house": "22",
      "postcode": "2300-470",
      "city": "TOMAR",
      "lon": "-8.405927675919258",
      "lat": "39.61032181481502"
    },
    {
      "id": "pt.ine.add.PTCONT.4636733",
      "street": "TV BAIRRO B 5",
      "house": "2",
      "postcode": "2300-316",
      "city": "TOMAR",
      "lon": "-8.407921644066448",
      "lat": "39.61101964481869"
    },
    {
      "id": "pt.ine.add.PTCONT.4637315",
      "street": "R BACELOS",
      "house": "MM",
      "postcode": "2300-470",
      "city": "TOMAR",
      "lon": "-8.40642109635525",
      "lat": "39.61142848974552"
    },
    {
      "id": "pt.ine.add.PTCONT.4642515",
      "street": "R TIMOTEO VERDIER",
      "house": "ASV",
      "postcode": "2300-518",
      "city": "TOMAR",
      "lon": "-8.407508681876179",
      "lat": "39.60965158938834"
    },
    {
      "id": "pt.ine.add.PTCONT.4642516",
      "street": "R TIMOTEO VERDIER",
      "house": "ASV",
      "postcode": "2300-518",
      "city": "TOMAR",
      "lon": "-8.407508681876179",
      "lat": "39.60965158938834"
    },
    {
      "id": "pt.ine.add.PTCONT.4644942",
      "street": "R TILEIRA",
      "house": "15",
      "postcode": "2300-316",
      "city": "TOMAR",
      "lon": "-8.408150613888397",
      "lat": "39.61002835657197"
    },
    {
      "id": "pt.ine.add.PTCONT.4650399",
      "street": "R BACELOS",
      "house": "",
      "postcode": "2300-470",
      "city": "TOMAR",
      "lon": "-8.407714284690657",
      "lat": "39.611587562536904"
    },
    {
      "id": "pt.ine.add.PTCONT.4655254",
      "street": "TV BAIRRO B 5",
      "house": "6",
      "postcode": "2300-316",
      "city": "TOMAR",
      "lon": "-8.407980757033577",
      "lat": "39.61124467460214"
    },
    {
      "id": "pt.ine.add.PTCONT.4655266",
      "street": "TV BAIRRO B 5",
      "house": "1 A",
      "postcode": "2300-416",
      "city": "TOMAR",
      "lon": "-8.407793412126965",
      "lat": "39.61098392091913"
    },
    {
      "id": "pt.ine.add.PTCONT.4655998",
      "street": "CSL BATISTA",
      "house": "13",
      "postcode": "2300-316",
      "city": "TOMAR",
      "lon": "-8.407688220251403",
      "lat": "39.61088509493249"
    },
    {
      "id": "pt.ine.add.PTCONT.4656769",
      "street": "R BACELOS",
      "house": "2-4",
      "postcode": "2300-470",
      "city": "TOMAR",
      "lon": "-8.40651471352641",
      "lat": "39.6115453576786"
    },
    {
      "id": "pt.ine.add.PTCONT.4659718",
      "street": "TV BAIRRO B 5",
      "house": "4",
      "postcode": "2300-316",
      "city": "TOMAR",
      "lon": "-8.407957040571313",
      "lat": "39.61113664929248"
    },
    {
      "id": "pt.ine.add.PTCONT.4662587",
      "street": "R TIMOTEO VERDIER",
      "house": "FM",
      "postcode": "2300-518",
      "city": "TOMAR",
      "lon": "-8.407262837717086",
      "lat": "39.60931891861628"
    }
  ]
}