{
  "data": {
    "distrito": "Aveiro",
    "concelho": "√Ågueda",
    "freguesia": "Fermentelos",
    "OBJECTID": 61,
    "BGRI2021": "01010900211",
    "DT21": "01",
    "DTMN21": "0101",
    "DTMNFR21": "010109",
    "DTMNFRSEC21": "010109002",
    "SECNUM21": "002",
    "SSNUM21": "11",
    "SECSSNUM21": "00211",
    "OBJECTID_1": 1193,
    "DT": "01",
    "CC": "01",
    "fr": "09",
    "SEC": "002",
    "SS": "11"
  },
  "addresses": [
    {
      "id": "pt.ine.add.PTCONT.292646",
      "street": "LG CARVALHAL",
      "house": "22",
      "postcode": "3750-423",
      "city": "FERMENTELOS",
      "lon": "-8.523062868844601",
      "lat": "40.56640056041286"
    },
    {
      "id": "pt.ine.add.PTCONT.292647",
      "street": "R CABECO",
      "house": "8",
      "postcode": "3750-450",
      "city": "FERMENTELOS",
      "lon": "-8.52377793982442",
      "lat": "40.565497616245196"
    },
    {
      "id": "pt.ine.add.PTCONT.297689",
      "street": "TV PICARO",
      "house": "8",
      "postcode": "3750-489",
      "city": "FERMENTELOS",
      "lon": "-8.525039311043495",
      "lat": "40.56513313253524"
    },
    {
      "id": "pt.ine.add.PTCONT.297690",
      "street": "TV PICARO",
      "house": "5",
      "postcode": "3750-489",
      "city": "FERMENTELOS",
      "lon": "-8.525263559603703",
      "lat": "40.56511436097833"
    },
    {
      "id": "pt.ine.add.PTCONT.300347",
      "street": "R IGREJA",
      "house": "8",
      "postcode": "3750-437",
      "city": "FERMENTELOS",
      "lon": "-8.524264683321125",
      "lat": "40.56797242160835"
    },
    {
      "id": "pt.ine.add.PTCONT.300348",
      "street": "TV CACHEIRA",
      "house": "6",
      "postcode": "3750-469",
      "city": "FERMENTELOS",
      "lon": "-8.523832294500538",
      "lat": "40.56672215083181"
    },
    {
      "id": "pt.ine.add.PTCONT.303564",
      "street": "LG CRUZEIRO",
      "house": "1",
      "postcode": "3750-424",
      "city": "FERMENTELOS",
      "lon": "-8.525081524924195",
      "lat": "40.56832085887119"
    },
    {
      "id": "pt.ine.add.PTCONT.305480",
      "street": "LG CRUZEIRO",
      "house": "5",
      "postcode": "3750-424",
      "city": "FERMENTELOS",
      "lon": "-8.525235930889984",
      "lat": "40.568473424610794"
    },
    {
      "id": "pt.ine.add.PTCONT.305481",
      "street": "LG CRUZEIRO",
      "house": "5",
      "postcode": "3750-424",
      "city": "FERMENTELOS",
      "lon": "-8.525235930889984",
      "lat": "40.568473424610794"
    },
    {
      "id": "pt.ine.add.PTCONT.305482",
      "street": "LG CRUZEIRO",
      "house": "5",
      "postcode": "3750-424",
      "city": "FERMENTELOS",
      "lon": "-8.525235930889984",
      "lat": "40.568473424610794"
    },
    {
      "id": "pt.ine.add.PTCONT.305483",
      "street": "LG CRUZEIRO",
      "house": "5",
      "postcode": "3750-424",
      "city": "FERMENTELOS",
      "lon": "-8.525235930889984",
      "lat": "40.568473424610794"
    },
    {
      "id": "pt.ine.add.PTCONT.305484",
      "street": "LG CRUZEIRO",
      "house": "5",
      "postcode": "3750-424",
      "city": "FERMENTELOS",
      "lon": "-8.525235930889984",
      "lat": "40.568473424610794"
    },
    {
      "id": "pt.ine.add.PTCONT.310305",
      "street": "R ESCOLA",
      "house": "34C",
      "postcode": "3750-432",
      "city": "FERMENTELOS",
      "lon": "-8.52708649267171",
      "lat": "40.565873607726616"
    },
    {
      "id": "pt.ine.add.PTCONT.310306",
      "street": "R FONTE ROQUE",
      "house": "11",
      "postcode": "3750-435",
      "city": "FERMENTELOS",
      "lon": "-8.526556709284923",
      "lat": "40.56816275447188"
    },
    {
      "id": "pt.ine.add.PTCONT.312893",
      "street": "R CABECO",
      "house": "2",
      "postcode": "3750-450",
      "city": "FERMENTELOS",
      "lon": "-8.523179592665088",
      "lat": "40.566166029019875"
    },
    {
      "id": "pt.ine.add.PTCONT.318515",
      "street": "LG CARVALHAL",
      "house": "20",
      "postcode": "3750-423",
      "city": "FERMENTELOS",
      "lon": "-8.523075304370954",
      "lat": "40.56650858182055"
    },
    {
      "id": "pt.ine.add.PTCONT.318683",
      "street": "R FONTE ROQUE",
      "house": "5",
      "postcode": "3750-435",
      "city": "FERMENTELOS",
      "lon": "-8.526368983767581",
      "lat": "40.56837051506969"
    },
    {
      "id": "pt.ine.add.PTCONT.323782",
      "street": "R ESCOLA",
      "house": "24",
      "postcode": "3750-432",
      "city": "FERMENTELOS",
      "lon": "-8.526541785519768",
      "lat": "40.565614310849554"
    },
    {
      "id": "pt.ine.add.PTCONT.326358",
      "street": "R FONTE ROQUE",
      "house": "13",
      "postcode": "3750-435",
      "city": "FERMENTELOS",
      "lon": "-8.526745066793183",
      "lat": "40.56806305475706"
    },
    {
      "id": "pt.ine.add.PTCONT.326741",
      "street": "R CABECO",
      "house": "24",
      "postcode": "3750-450",
      "city": "FERMENTELOS",
      "lon": "-8.524246543974375",
      "lat": "40.564856655501906"
    },
    {
      "id": "pt.ine.add.PTCONT.326742",
      "street": "R ESCOLA",
      "house": "26",
      "postcode": "3750-432",
      "city": "FERMENTELOS",
      "lon": "-8.526636672834847",
      "lat": "40.56568602992797"
    },
    {
      "id": "pt.ine.add.PTCONT.330903",
      "street": "R CABECO DA IGREJA",
      "house": "11",
      "postcode": "3750-425",
      "city": "FERMENTELOS",
      "lon": "-8.52489956378762",
      "lat": "40.56749299040796"
    },
    {
      "id": "pt.ine.add.PTCONT.330904",
      "street": "R CABECO DA IGREJA",
      "house": "11",
      "postcode": "3750-425",
      "city": "FERMENTELOS",
      "lon": "-8.52489956378762",
      "lat": "40.56749299040796"
    },
    {
      "id": "pt.ine.add.PTCONT.330905",
      "street": "R CABECO DA IGREJA",
      "house": "11",
      "postcode": "3750-425",
      "city": "FERMENTELOS",
      "lon": "-8.52489956378762",
      "lat": "40.56749299040796"
    },
    {
      "id": "pt.ine.add.PTCONT.330906",
      "street": "R CABECO DA IGREJA",
      "house": "11",
      "postcode": "3750-425",
      "city": "FERMENTELOS",
      "lon": "-8.52489956378762",
      "lat": "40.56749299040796"
    },
    {
      "id": "pt.ine.add.PTCONT.330907",
      "street": "R CABECO DA IGREJA",
      "house": "11",
      "postcode": "3750-425",
      "city": "FERMENTELOS",
      "lon": "-8.52489956378762",
      "lat": "40.56749299040796"
    },
    {
      "id": "pt.ine.add.PTCONT.330908",
      "street": "R CABECO DA IGREJA",
      "house": "11",
      "postcode": "3750-425",
      "city": "FERMENTELOS",
      "lon": "-8.52489956378762",
      "lat": "40.56749299040796"
    },
    {
      "id": "pt.ine.add.PTCONT.336860",
      "street": "R ESCOLA",
      "house": "34",
      "postcode": "3750-432",
      "city": "FERMENTELOS",
      "lon": "-8.526813953885572",
      "lat": "40.5657124417537"
    },
    {
      "id": "pt.ine.add.PTCONT.337611",
      "street": "TV PICARO",
      "house": "3",
      "postcode": "3750-489",
      "city": "FERMENTELOS",
      "lon": "-8.525311738114604",
      "lat": "40.565276292531706"
    },
    {
      "id": "pt.ine.add.PTCONT.337612",
      "street": "R CABECO DA IGREJA",
      "house": "4",
      "postcode": "3750-425",
      "city": "FERMENTELOS",
      "lon": "-8.524532765660231",
      "lat": "40.567368159851156"
    },
    {
      "id": "pt.ine.add.PTCONT.340153",
      "street": "R ESCOLA",
      "house": "40",
      "postcode": "3750-432",
      "city": "FERMENTELOS",
      "lon": "-8.527287549323301",
      "lat": "40.56592695358651"
    },
    {
      "id": "pt.ine.add.PTCONT.340155",
      "street": "R IGREJA",
      "house": "18",
      "postcode": "3750-437",
      "city": "FERMENTELOS",
      "lon": "-8.52373130719491",
      "lat": "40.56763202569519"
    },
    {
      "id": "pt.ine.add.PTCONT.340157",
      "street": "R ESCOLA",
      "house": "20",
      "postcode": "3750-432",
      "city": "FERMENTELOS",
      "lon": "-8.526470092956135",
      "lat": "40.56547047045468"
    },
    {
      "id": "pt.ine.add.PTCONT.342532",
      "street": "R ESCOLA",
      "house": "20",
      "postcode": "3750-432",
      "city": "FERMENTELOS",
      "lon": "-8.526470092956135",
      "lat": "40.56547047045468"
    },
    {
      "id": "pt.ine.add.PTCONT.344895",
      "street": "TV CACHEIRA",
      "house": "4",
      "postcode": "3750-469",
      "city": "FERMENTELOS",
      "lon": "-8.523655325993726",
      "lat": "40.56674976506917"
    },
    {
      "id": "pt.ine.add.PTCONT.347469",
      "street": "LG CRUZEIRO",
      "house": "5",
      "postcode": "3750-424",
      "city": "FERMENTELOS",
      "lon": "-8.525235930889984",
      "lat": "40.568473424610794"
    },
    {
      "id": "pt.ine.add.PTCONT.351408",
      "street": "R IGREJA",
      "house": "34",
      "postcode": "3750-437",
      "city": "FERMENTELOS",
      "lon": "-8.523207601178774",
      "lat": "40.566922378120616"
    },
    {
      "id": "pt.ine.add.PTCONT.2385",
      "street": "R FONTE ROQUE",
      "house": "25",
      "postcode": "3750-435",
      "city": "FERMENTELOS",
      "lon": "-8.527639506117962",
      "lat": "40.567546702710146"
    },
    {
      "id": "pt.ine.add.PTCONT.5070",
      "street": "R FONTE ROQUE",
      "house": "33",
      "postcode": "3750-435",
      "city": "FERMENTELOS",
      "lon": "-8.528075415077858",
      "lat": "40.56737411290713"
    },
    {
      "id": "pt.ine.add.PTCONT.5340",
      "street": "R IGREJA",
      "house": "30",
      "postcode": "3750-437",
      "city": "FERMENTELOS",
      "lon": "-8.5233026437127",
      "lat": "40.56702111524261"
    },
    {
      "id": "pt.ine.add.PTCONT.7851",
      "street": "R CABECO",
      "house": "12",
      "postcode": "3750-450",
      "city": "FERMENTELOS",
      "lon": "-8.523788753110246",
      "lat": "40.565326479291784"
    },
    {
      "id": "pt.ine.add.PTCONT.10760",
      "street": "R IGREJA",
      "house": "20",
      "postcode": "3750-437",
      "city": "FERMENTELOS",
      "lon": "-8.523659775490893",
      "lat": "40.56751519889846"
    },
    {
      "id": "pt.ine.add.PTCONT.10761",
      "street": "R IGREJA",
      "house": "26",
      "postcode": "3750-437",
      "city": "FERMENTELOS",
      "lon": "-8.523457618171003",
      "lat": "40.567272739570114"
    },
    {
      "id": "pt.ine.add.PTCONT.20792",
      "street": "R LADEIRA DA PETA",
      "house": "4",
      "postcode": "3750-467",
      "city": "FERMENTELOS",
      "lon": "-8.528470862223022",
      "lat": "40.56634615828004"
    },
    {
      "id": "pt.ine.add.PTCONT.23052",
      "street": "R CABECO DA IGREJA",
      "house": "18",
      "postcode": "3750-425",
      "city": "FERMENTELOS",
      "lon": "-8.525052864191697",
      "lat": "40.56745644928732"
    },
    {
      "id": "pt.ine.add.PTCONT.23053",
      "street": "TV PICARO",
      "house": "5",
      "postcode": "3750-489",
      "city": "FERMENTELOS",
      "lon": "-8.524792653569278",
      "lat": "40.5653591011565"
    },
    {
      "id": "pt.ine.add.PTCONT.23389",
      "street": "TV PICARO",
      "house": "7",
      "postcode": "3750-489",
      "city": "FERMENTELOS",
      "lon": "-8.524934403625261",
      "lat": "40.56536762576247"
    },
    {
      "id": "pt.ine.add.PTCONT.29025",
      "street": "TV PADRE ZE MATIAS",
      "house": "7",
      "postcode": "3750-488",
      "city": "FERMENTELOS",
      "lon": "-8.526532772029855",
      "lat": "40.566091621509514"
    },
    {
      "id": "pt.ine.add.PTCONT.29026",
      "street": "R FONTE ROQUE",
      "house": "19",
      "postcode": "3750-435",
      "city": "FERMENTELOS",
      "lon": "-8.527180189109936",
      "lat": "40.56775539183318"
    },
    {
      "id": "pt.ine.add.PTCONT.30067",
      "street": "TV PICARO",
      "house": "2",
      "postcode": "3750-489",
      "city": "FERMENTELOS",
      "lon": "-8.525285756616025",
      "lat": "40.56487114296371"
    },
    {
      "id": "pt.ine.add.PTCONT.30068",
      "street": "TV PICARO",
      "house": "2",
      "postcode": "3750-489",
      "city": "FERMENTELOS",
      "lon": "-8.525285756616025",
      "lat": "40.56487114296371"
    },
    {
      "id": "pt.ine.add.PTCONT.31732",
      "street": "R ESCOLA",
      "house": "22",
      "postcode": "3750-432",
      "city": "FERMENTELOS",
      "lon": "-8.526341942579695",
      "lat": "40.565768081057136"
    },
    {
      "id": "pt.ine.add.PTCONT.45763",
      "street": "R FONTE ROQUE",
      "house": "29",
      "postcode": "3750-435",
      "city": "FERMENTELOS",
      "lon": "-8.527969403401574",
      "lat": "40.567419501696136"
    },
    {
      "id": "pt.ine.add.PTCONT.45767",
      "street": "R CABECO",
      "house": "18",
      "postcode": "3750-450",
      "city": "FERMENTELOS",
      "lon": "-8.52402329142119",
      "lat": "40.565046522113526"
    },
    {
      "id": "pt.ine.add.PTCONT.50517",
      "street": "R LADEIRA DA PETA",
      "house": "8",
      "postcode": "3750-467",
      "city": "FERMENTELOS",
      "lon": "-8.528507400022951",
      "lat": "40.566535144135294"
    },
    {
      "id": "pt.ine.add.PTCONT.55930",
      "street": "R LADEIRA DA PETA",
      "house": "6",
      "postcode": "3750-467",
      "city": "FERMENTELOS",
      "lon": "-8.528518572384307",
      "lat": "40.566427042524"
    },
    {
      "id": "pt.ine.add.PTCONT.56846",
      "street": "R ESCOLA",
      "house": "2",
      "postcode": "3750-432",
      "city": "FERMENTELOS",
      "lon": "-8.525640418737904",
      "lat": "40.56494198073124"
    },
    {
      "id": "pt.ine.add.PTCONT.58985",
      "street": "R LADEIRA DA PETA",
      "house": "2",
      "postcode": "3750-467",
      "city": "FERMENTELOS",
      "lon": "-8.528305175286013",
      "lat": "40.56628368821652"
    },
    {
      "id": "pt.ine.add.PTCONT.68070",
      "street": "TV CACHEIRA",
      "house": "2",
      "postcode": "3750-469",
      "city": "FERMENTELOS",
      "lon": "-8.523466496638923",
      "lat": "40.566768413831916"
    },
    {
      "id": "pt.ine.add.PTCONT.69329",
      "street": "TV PADRE ZE MATIAS",
      "house": "2",
      "postcode": "3750-488",
      "city": "FERMENTELOS",
      "lon": "-8.526321382888101",
      "lat": "40.56629045739923"
    },
    {
      "id": "pt.ine.add.PTCONT.72493",
      "street": "R ESCOLA",
      "house": "10",
      "postcode": "3750-432",
      "city": "FERMENTELOS",
      "lon": "-8.526007310930067",
      "lat": "40.56508481808487"
    },
    {
      "id": "pt.ine.add.PTCONT.75226",
      "street": "LG CRUZEIRO",
      "house": "25",
      "postcode": "3750-424",
      "city": "FERMENTELOS",
      "lon": "-8.525839068213156",
      "lat": "40.568624465537354"
    },
    {
      "id": "pt.ine.add.PTCONT.80675",
      "street": "R CABECO",
      "house": "16",
      "postcode": "3750-450",
      "city": "FERMENTELOS",
      "lon": "-8.523929560138445",
      "lat": "40.56517291321315"
    },
    {
      "id": "pt.ine.add.PTCONT.84802",
      "street": "R ESCOLA",
      "house": "348",
      "postcode": "3750-432",
      "city": "FERMENTELOS",
      "lon": "-8.527039154212728",
      "lat": "40.5658557585895"
    },
    {
      "id": "pt.ine.add.PTCONT.91246",
      "street": "R CABECO DA IGREJA",
      "house": "8",
      "postcode": "3750-425",
      "city": "FERMENTELOS",
      "lon": "-8.525208056427328",
      "lat": "40.56774409161796"
    },
    {
      "id": "pt.ine.add.PTCONT.91247",
      "street": "R FONTE ROQUE",
      "house": "3",
      "postcode": "3750-435",
      "city": "FERMENTELOS",
      "lon": "-8.526215576627068",
      "lat": "40.56838904773912"
    },
    {
      "id": "pt.ine.add.PTCONT.109646",
      "street": "R CABECO DA IGREJA",
      "house": "4",
      "postcode": "3750-425",
      "city": "FERMENTELOS",
      "lon": "-8.525162608940244",
      "lat": "40.56805042535937"
    },
    {
      "id": "pt.ine.add.PTCONT.111930",
      "street": "R CABECO DA IGREJA",
      "house": "12",
      "postcode": "3750-425",
      "city": "FERMENTELOS",
      "lon": "-8.525277173062095",
      "lat": "40.567446682777266"
    },
    {
      "id": "pt.ine.add.PTCONT.111931",
      "street": "R FONTE ROQUE",
      "house": "17",
      "postcode": "3750-435",
      "city": "FERMENTELOS",
      "lon": "-8.526992149884093",
      "lat": "40.567909122850345"
    },
    {
      "id": "pt.ine.add.PTCONT.112695",
      "street": "R IGREJA",
      "house": "24",
      "postcode": "3750-437",
      "city": "FERMENTELOS",
      "lon": "-8.523705229492501",
      "lat": "40.56720886568979"
    },
    {
      "id": "pt.ine.add.PTCONT.112796",
      "street": "TV TI JOLINA",
      "house": "3",
      "postcode": "3750-479",
      "city": "FERMENTELOS",
      "lon": "-8.52507373718108",
      "lat": "40.56496191534502"
    },
    {
      "id": "pt.ine.add.PTCONT.115293",
      "street": "R CABECO",
      "house": "30C",
      "postcode": "3750-450",
      "city": "FERMENTELOS",
      "lon": "-8.525095777228952",
      "lat": "40.564691682039125"
    },
    {
      "id": "pt.ine.add.PTCONT.120178",
      "street": "TV CACHEIRA",
      "house": "8",
      "postcode": "3750-469",
      "city": "FERMENTELOS",
      "lon": "-8.523630767076957",
      "lat": "40.56658775302194"
    },
    {
      "id": "pt.ine.add.PTCONT.125800",
      "street": "R LADEIRA DA PETA",
      "house": "18",
      "postcode": "3750-467",
      "city": "FERMENTELOS",
      "lon": "-8.528262549929629",
      "lat": "40.56706729345011"
    },
    {
      "id": "pt.ine.add.PTCONT.128119",
      "street": "R IGREJA",
      "house": "28",
      "postcode": "3750-437",
      "city": "FERMENTELOS",
      "lon": "-8.523362522743874",
      "lat": "40.56716499747848"
    },
    {
      "id": "pt.ine.add.PTCONT.130488",
      "street": "R ESCOLA",
      "house": "6",
      "postcode": "3750-432",
      "city": "FERMENTELOS",
      "lon": "-8.525735093655399",
      "lat": "40.56497768014734"
    },
    {
      "id": "pt.ine.add.PTCONT.130516",
      "street": "R IGREJA",
      "house": "4",
      "postcode": "3750-437",
      "city": "FERMENTELOS",
      "lon": "-8.524441917055066",
      "lat": "40.567989831938256"
    },
    {
      "id": "pt.ine.add.PTCONT.130517",
      "street": "TV CACHEIRA",
      "house": "12",
      "postcode": "3750-469",
      "city": "FERMENTELOS",
      "lon": "-8.523984231604471",
      "lat": "40.56645147841353"
    },
    {
      "id": "pt.ine.add.PTCONT.136622",
      "street": "R ESCOLA",
      "house": "4",
      "postcode": "3750-432",
      "city": "FERMENTELOS",
      "lon": "-8.525511319014267",
      "lat": "40.565077498563674"
    },
    {
      "id": "pt.ine.add.PTCONT.137077",
      "street": "R IGREJA",
      "house": "10",
      "postcode": "3750-437",
      "city": "FERMENTELOS",
      "lon": "-8.524193674527767",
      "lat": "40.56794564617573"
    },
    {
      "id": "pt.ine.add.PTCONT.142033",
      "street": "LG CARVALHAL",
      "house": "6",
      "postcode": "3750-423",
      "city": "FERMENTELOS",
      "lon": "-8.523041185956403",
      "lat": "40.56673382902781"
    },
    {
      "id": "pt.ine.add.PTCONT.149167",
      "street": "R CABECO",
      "house": "20",
      "postcode": "3750-450",
      "city": "FERMENTELOS",
      "lon": "-8.524069737744718",
      "lat": "40.564911285679955"
    },
    {
      "id": "pt.ine.add.PTCONT.150767",
      "street": "TV PADRE ZE MATIAS",
      "house": "4",
      "postcode": "3750-488",
      "city": "FERMENTELOS",
      "lon": "-8.526498823594565",
      "lat": "40.56634388500536"
    },
    {
      "id": "pt.ine.add.PTCONT.154600",
      "street": "TV PADRE ZE MATIAS",
      "house": "12",
      "postcode": "3750-488",
      "city": "FERMENTELOS",
      "lon": "-8.5268908725174",
      "lat": "40.56674778699175"
    },
    {
      "id": "pt.ine.add.PTCONT.163151",
      "street": "LG CARVALHAL",
      "house": "18",
      "postcode": "3750-423",
      "city": "FERMENTELOS",
      "lon": "-8.523016628525676",
      "lat": "40.566571816842696"
    },
    {
      "id": "pt.ine.add.PTCONT.165439",
      "street": "R ESCOLA",
      "house": "46",
      "postcode": "3750-432",
      "city": "FERMENTELOS",
      "lon": "-8.527796308061141",
      "lat": "40.56609631693008"
    },
    {
      "id": "pt.ine.add.PTCONT.168173",
      "street": "R LADEIRA DA PETA",
      "house": "10",
      "postcode": "3750-467",
      "city": "FERMENTELOS",
      "lon": "-8.52849649260058",
      "lat": "40.56668827124055"
    },
    {
      "id": "pt.ine.add.PTCONT.168464",
      "street": "R CABECO",
      "house": "28",
      "postcode": "3750-450",
      "city": "FERMENTELOS",
      "lon": "-8.524505743850575",
      "lat": "40.564756719518094"
    },
    {
      "id": "pt.ine.add.PTCONT.170682",
      "street": "R CABECO",
      "house": "28",
      "postcode": "3750-450",
      "city": "FERMENTELOS",
      "lon": "-8.524505743850575",
      "lat": "40.564756719518094"
    },
    {
      "id": "pt.ine.add.PTCONT.176508",
      "street": "R CABECO",
      "house": "30",
      "postcode": "3750-450",
      "city": "FERMENTELOS",
      "lon": "-8.52478887392721",
      "lat": "40.56471073352916"
    },
    {
      "id": "pt.ine.add.PTCONT.178698",
      "street": "TV PADRE ZE MATIAS",
      "house": "5",
      "postcode": "3750-488",
      "city": "FERMENTELOS",
      "lon": "-8.526638360643304",
      "lat": "40.565974193214316"
    },
    {
      "id": "pt.ine.add.PTCONT.183002",
      "street": "R CABECO DA IGREJA",
      "house": "5",
      "postcode": "3750-425",
      "city": "FERMENTELOS",
      "lon": "-8.5247820037365",
      "lat": "40.567583441838124"
    },
    {
      "id": "pt.ine.add.PTCONT.183891",
      "street": "R ESCOLA",
      "house": "38",
      "postcode": "3750-432",
      "city": "FERMENTELOS",
      "lon": "-8.526899144596028",
      "lat": "40.56614440494401"
    },
    {
      "id": "pt.ine.add.PTCONT.183892",
      "street": "R ESCOLA",
      "house": "42",
      "postcode": "3750-432",
      "city": "FERMENTELOS",
      "lon": "-8.527489029159359",
      "lat": "40.56605233990637"
    },
    {
      "id": "pt.ine.add.PTCONT.184415",
      "street": "R CABECO",
      "house": "14",
      "postcode": "3750-450",
      "city": "FERMENTELOS",
      "lon": "-8.523847374778455",
      "lat": "40.56525423876563"
    },
    {
      "id": "pt.ine.add.PTCONT.191820",
      "street": "R FONTE ROQUE",
      "house": "1",
      "postcode": "3750-435",
      "city": "FERMENTELOS",
      "lon": "-8.52601514541154",
      "lat": "40.56844376125914"
    },
    {
      "id": "pt.ine.add.PTCONT.194968",
      "street": "R CABECO DA IGREJA",
      "house": "1",
      "postcode": "3750-425",
      "city": "FERMENTELOS",
      "lon": "-8.524901086708327",
      "lat": "40.56775413835928"
    },
    {
      "id": "pt.ine.add.PTCONT.202873",
      "street": "R ESCOLA",
      "house": "44",
      "postcode": "3750-432",
      "city": "FERMENTELOS",
      "lon": "-8.527584446816945",
      "lat": "40.566214109205134"
    },
    {
      "id": "pt.ine.add.PTCONT.205031",
      "street": "LG CARVALHAL",
      "house": "12",
      "postcode": "3750-423",
      "city": "FERMENTELOS",
      "lon": "-8.523052471677607",
      "lat": "40.56664373811857"
    },
    {
      "id": "pt.ine.add.PTCONT.205537",
      "street": "R ESCOLA",
      "house": "36",
      "postcode": "3750-432",
      "city": "FERMENTELOS",
      "lon": "-8.527063404252424",
      "lat": "40.56596373928368"
    },
    {
      "id": "pt.ine.add.PTCONT.208379",
      "street": "R CABECO DA IGREJA",
      "house": "3",
      "postcode": "3750-425",
      "city": "FERMENTELOS",
      "lon": "-8.524652634833252",
      "lat": "40.567673933171264"
    },
    {
      "id": "pt.ine.add.PTCONT.211423",
      "street": "R IGREJA",
      "house": "22",
      "postcode": "3750-437",
      "city": "FERMENTELOS",
      "lon": "-8.523612122721458",
      "lat": "40.56744331774302"
    },
    {
      "id": "pt.ine.add.PTCONT.216805",
      "street": "R CABECO DA IGREJA",
      "house": "10",
      "postcode": "3750-425",
      "city": "FERMENTELOS",
      "lon": "-8.525219181728195",
      "lat": "40.56762698522133"
    },
    {
      "id": "pt.ine.add.PTCONT.219652",
      "street": "R CABECO DA IGREJA",
      "house": "6",
      "postcode": "3750-425",
      "city": "FERMENTELOS",
      "lon": "-8.525173208850736",
      "lat": "40.56784326796211"
    },
    {
      "id": "pt.ine.add.PTCONT.219653",
      "street": "R CABECO DA IGREJA",
      "house": "11",
      "postcode": "3750-425",
      "city": "FERMENTELOS",
      "lon": "-8.525429894715888",
      "lat": "40.567311085039016"
    },
    {
      "id": "pt.ine.add.PTCONT.235293",
      "street": "R ESCOLA",
      "house": "50",
      "postcode": "3750-432",
      "city": "FERMENTELOS",
      "lon": "-8.528068427257226",
      "lat": "40.56618543975217"
    },
    {
      "id": "pt.ine.add.PTCONT.238499",
      "street": "R ESCOLA",
      "house": "30",
      "postcode": "3750-432",
      "city": "FERMENTELOS",
      "lon": "-8.526684644070125",
      "lat": "40.565811940464734"
    },
    {
      "id": "pt.ine.add.PTCONT.240738",
      "street": "R FONTE ROQUE",
      "house": "31",
      "postcode": "3750-435",
      "city": "FERMENTELOS",
      "lon": "-8.528169512236165",
      "lat": "40.56731075420547"
    },
    {
      "id": "pt.ine.add.PTCONT.243590",
      "street": "R ESCOLA",
      "house": "18",
      "postcode": "3750-432",
      "city": "FERMENTELOS",
      "lon": "-8.526257967868636",
      "lat": "40.56554323479442"
    },
    {
      "id": "pt.ine.add.PTCONT.246272",
      "street": "R FONTE ROQUE",
      "house": "9",
      "postcode": "3750-435",
      "city": "FERMENTELOS",
      "lon": "-8.52641553304382",
      "lat": "40.56825328798056"
    },
    {
      "id": "pt.ine.add.PTCONT.247704",
      "street": "LG CARVALHAL",
      "house": "24",
      "postcode": "3750-423",
      "city": "FERMENTELOS",
      "lon": "-8.523097666539698",
      "lat": "40.566292379563755"
    },
    {
      "id": "pt.ine.add.PTCONT.247705",
      "street": "TV PICARO",
      "house": "1",
      "postcode": "3750-489",
      "city": "FERMENTELOS",
      "lon": "-8.525453435472258",
      "lat": "40.56527581139654"
    },
    {
      "id": "pt.ine.add.PTCONT.257381",
      "street": "TV PICARO",
      "house": "10",
      "postcode": "3750-489",
      "city": "FERMENTELOS",
      "lon": "-8.524792023620398",
      "lat": "40.56525103989036"
    },
    {
      "id": "pt.ine.add.PTCONT.257382",
      "street": "R ESCOLA",
      "house": "16",
      "postcode": "3750-432",
      "city": "FERMENTELOS",
      "lon": "-8.526327604679171",
      "lat": "40.56533587628316"
    },
    {
      "id": "pt.ine.add.PTCONT.268230",
      "street": "R ESCOLA",
      "house": "48",
      "postcode": "3750-432",
      "city": "FERMENTELOS",
      "lon": "-8.527914602261424",
      "lat": "40.56613193385351"
    },
    {
      "id": "pt.ine.add.PTCONT.273690",
      "street": "TV CACHEIRA",
      "house": "10",
      "postcode": "3750-469",
      "city": "FERMENTELOS",
      "lon": "-8.523854863787088",
      "lat": "40.5665419688659"
    },
    {
      "id": "pt.ine.add.PTCONT.273691",
      "street": "R ESCOLA",
      "house": "8",
      "postcode": "3750-432",
      "city": "FERMENTELOS",
      "lon": "-8.525877158860022",
      "lat": "40.56504023422949"
    },
    {
      "id": "pt.ine.add.PTCONT.281606",
      "street": "R CABECO DA IGREJA",
      "house": "16",
      "postcode": "3750-425",
      "city": "FERMENTELOS",
      "lon": "-8.525216921788344",
      "lat": "40.5672397658472"
    },
    {
      "id": "pt.ine.add.PTCONT.281611",
      "street": "R ESCOLA",
      "house": "12",
      "postcode": "3750-432",
      "city": "FERMENTELOS",
      "lon": "-8.526043472449016",
      "lat": "40.56521076906626"
    }
  ]
}