{
  "data": {
    "ilha": "Ilha da Madeira (Madeira)",
    "concelho": "Calheta",
    "freguesia": "Estreito da Calheta",
    "OBJECTID": 103,
    "BGRI2021": "31010300209",
    "DT21": "31",
    "DTMN21": "3101",
    "DTMNFR21": "310103",
    "DTMNFRSEC21": "310103002",
    "SECNUM21": "002",
    "SSNUM21": "09",
    "SECSSNUM21": "00209",
    "OBJECTID_1": 203410,
    "DT": "31",
    "CC": "01",
    "fr": "03",
    "SEC": "002",
    "SS": "09",
    "BGRI2021_1": "31010300209"
  },
  "addresses": [
    {
      "id": "pt.ine.add.MAD.26216",
      "street": "VR TENDA",
      "house": "",
      "postcode": "9370-244",
      "city": "ESTREITO DA CALHETA",
      "lon": "-17.186562993589153",
      "lat": "32.74235531331932"
    },
    {
      "id": "pt.ine.add.MAD.26217",
      "street": "CAM IGREJA",
      "house": "172",
      "postcode": "9370-244",
      "city": "ESTREITO DA CALHETA",
      "lon": "-17.187296882119238",
      "lat": "32.7426942050513"
    },
    {
      "id": "pt.ine.add.MAD.26218",
      "street": "CAM IGREJA",
      "house": "178",
      "postcode": "9370-244",
      "city": "ESTREITO DA CALHETA",
      "lon": "-17.187165052422444",
      "lat": "32.742976064598274"
    },
    {
      "id": "pt.ine.add.MAD.26219",
      "street": "IMP PALHEIRO",
      "house": "110",
      "postcode": "9370-245",
      "city": "ESTREITO DA CALHETA",
      "lon": "-17.186213024308636",
      "lat": "32.74331732917006"
    },
    {
      "id": "pt.ine.add.MAD.26220",
      "street": "IMP PALHEIRO",
      "house": "13",
      "postcode": "9370-245",
      "city": "ESTREITO DA CALHETA",
      "lon": "-17.18587280599469",
      "lat": "32.74336835554004"
    },
    {
      "id": "pt.ine.add.MAD.26389",
      "street": "CAM SERROES",
      "house": "195",
      "postcode": "9370-240",
      "city": "ESTREITO DA CALHETA",
      "lon": "-17.18508432532356",
      "lat": "32.74560053924725"
    },
    {
      "id": "pt.ine.add.MAD.26390",
      "street": "VR TENDA",
      "house": "6",
      "postcode": "9370-244",
      "city": "ESTREITO DA CALHETA",
      "lon": "-17.186094000577985",
      "lat": "32.74193965128157"
    },
    {
      "id": "pt.ine.add.MAD.61851",
      "street": "CAM IGREJA",
      "house": "182",
      "postcode": "9370-244",
      "city": "ESTREITO DA CALHETA",
      "lon": "-17.186848371463785",
      "lat": "32.74311686269967"
    },
    {
      "id": "pt.ine.add.MAD.77176",
      "street": "VR TENDA",
      "house": "8",
      "postcode": "9370-244",
      "city": "ESTREITO DA CALHETA",
      "lon": "-17.186098184663624",
      "lat": "32.7421109203875"
    },
    {
      "id": "pt.ine.add.MAD.79359",
      "street": "CAM SERROES",
      "house": "169",
      "postcode": "9370-240",
      "city": "ESTREITO DA CALHETA",
      "lon": "-17.184836657334873",
      "lat": "32.74419804986325"
    },
    {
      "id": "pt.ine.add.MAD.119412",
      "street": "CAM SERRÃ•ES",
      "house": "137",
      "postcode": "9370-240",
      "city": "ESTREITO DA CALHETA",
      "lon": "-17.185467465863116",
      "lat": "32.74250068035117"
    },
    {
      "id": "pt.ine.add.MAD.129935",
      "street": "CAM SERROES",
      "house": "",
      "postcode": "9370-240",
      "city": "ESTREITO DA CALHETA",
      "lon": "-17.185223806015674",
      "lat": "32.74300993887543"
    }
  ]
}