{
  "data": {
    "distrito": "Aveiro",
    "concelho": "Estarreja",
    "freguesia": "União das freguesias de Beduído e Veiros",
    "OBJECTID": 454,
    "BGRI2021": "01080800105",
    "DT21": "01",
    "DTMN21": "0108",
    "DTMNFR21": "010808",
    "DTMNFRSEC21": "010808001",
    "SECNUM21": "001",
    "SSNUM21": "05",
    "SECSSNUM21": "00105",
    "OBJECTID_1": 5169,
    "DT": "01",
    "CC": "08",
    "fr": "08",
    "SEC": "001",
    "SS": "05"
  },
  "addresses": [
    {
      "id": "pt.ine.add.PTCONT.323747",
      "street": "R ALFERES",
      "house": "3",
      "postcode": "3860-331",
      "city": "ESTARREJA",
      "lon": "-8.544554038564538",
      "lat": "40.76454681396987"
    },
    {
      "id": "pt.ine.add.PTCONT.33033",
      "street": "R CANTO DO SOUTO",
      "house": "8",
      "postcode": "3860-330",
      "city": "ESTARREJA",
      "lon": "-8.543193776853393",
      "lat": "40.76483080957645"
    },
    {
      "id": "pt.ine.add.PTCONT.57208",
      "street": "R CANTO DO SOUTO",
      "house": "",
      "postcode": "3860-330",
      "city": "ESTARREJA",
      "lon": "-8.542674770775301",
      "lat": "40.76517484147882"
    },
    {
      "id": "pt.ine.add.PTCONT.85051",
      "street": "R ALFERES",
      "house": "",
      "postcode": "3860-331",
      "city": "ESTARREJA",
      "lon": "-8.544328072669856",
      "lat": "40.76439453486208"
    },
    {
      "id": "pt.ine.add.PTCONT.85052",
      "street": "R PADRE JOAQUIM DE PINHO",
      "house": "",
      "postcode": "3860-332",
      "city": "ESTARREJA",
      "lon": "-8.545177175093157",
      "lat": "40.765724241634096"
    },
    {
      "id": "pt.ine.add.PTCONT.169143",
      "street": "R PADRE JOAQUIM DE PINHO",
      "house": "17",
      "postcode": "3860-332",
      "city": "ESTARREJA",
      "lon": "-8.544946979117448",
      "lat": "40.76488760124938"
    },
    {
      "id": "pt.ine.add.PTCONT.201825",
      "street": "R PADRE JOAQUIM DE PINHO",
      "house": "",
      "postcode": "3860-332",
      "city": "ESTARREJA",
      "lon": "-8.545288996182787",
      "lat": "40.766570309242724"
    },
    {
      "id": "pt.ine.add.PTCONT.233670",
      "street": "R ALFERES",
      "house": "",
      "postcode": "3860-331",
      "city": "ESTARREJA",
      "lon": "-8.544886317372978",
      "lat": "40.76465368850117"
    },
    {
      "id": "pt.ine.add.PTCONT.255360",
      "street": "R NSA SRA DAS FEBRES",
      "house": "",
      "postcode": "3860-333",
      "city": "ESTARREJA",
      "lon": "-8.544484794706898",
      "lat": "40.766762283000936"
    },
    {
      "id": "pt.ine.add.PTCONT.274132",
      "street": "R PADRE JOAQUIM DE PINHO",
      "house": "9",
      "postcode": "3860-332",
      "city": "ESTARREJA",
      "lon": "-8.544998522032563",
      "lat": "40.765562789964555"
    },
    {
      "id": "pt.ine.add.PTCONT.278629",
      "street": "R ALFERES",
      "house": "7",
      "postcode": "3860-331",
      "city": "ESTARREJA",
      "lon": "-8.543666839908092",
      "lat": "40.76429371102322"
    }
  ]
}