{
  "data": {
    "distrito": "Setúbal",
    "concelho": "Seixal",
    "freguesia": "União das freguesias do Seixal, Arrentela e Aldeia de Paio Pires",
    "OBJECTID": 1719,
    "BGRI2021": "15100703203",
    "DT21": "15",
    "DTMN21": "1510",
    "DTMNFR21": "151007",
    "DTMNFRSEC21": "151007032",
    "SECNUM21": "032",
    "SSNUM21": "03",
    "SECSSNUM21": "03203",
    "OBJECTID_1": 168318,
    "DT": "15",
    "CC": "10",
    "fr": "07",
    "SEC": "032",
    "SS": "03"
  },
  "addresses": [
    {
      "id": "pt.ine.add.PTCONT.4690477",
      "street": "R DIOGO CÃO",
      "house": "4",
      "postcode": "2840-384",
      "city": "SEIXAL",
      "lon": "-9.10052910183773",
      "lat": "38.628105696900235"
    },
    {
      "id": "pt.ine.add.PTCONT.4704658",
      "street": "AV LUIS CAMOES",
      "house": "19",
      "postcode": "2840-393",
      "city": "SEIXAL",
      "lon": "-9.100750655644436",
      "lat": "38.62835608980231"
    },
    {
      "id": "pt.ine.add.PTCONT.4706332",
      "street": "TV PERO DA COVILHÃ",
      "house": "4",
      "postcode": "2840-393",
      "city": "SEIXAL",
      "lon": "-9.100750655644436",
      "lat": "38.62835608980231"
    },
    {
      "id": "pt.ine.add.PTCONT.4715579",
      "street": "R BOA HORA",
      "house": "20",
      "postcode": "2840-368",
      "city": "SEIXAL",
      "lon": "-9.10073891216488",
      "lat": "38.627482406909955"
    },
    {
      "id": "pt.ine.add.PTCONT.4720842",
      "street": "R QUINTA DO CABRAL",
      "house": "5",
      "postcode": "2840-391",
      "city": "SEIXAL",
      "lon": "-9.100569358987116",
      "lat": "38.628537749971464"
    },
    {
      "id": "pt.ine.add.PTCONT.4749165",
      "street": "R MARIA LAMAS",
      "house": "3",
      "postcode": "2840-387",
      "city": "SEIXAL",
      "lon": "-9.100407637458568",
      "lat": "38.62846702287421"
    },
    {
      "id": "pt.ine.add.PTCONT.4767319",
      "street": "R PAULO DA GAMA",
      "house": "34",
      "postcode": "2840-250",
      "city": "SEIXAL",
      "lon": "-9.10106404718193",
      "lat": "38.627749958587515"
    },
    {
      "id": "pt.ine.add.PTCONT.4770906",
      "street": "R BOA HORA",
      "house": "16",
      "postcode": "2840-368",
      "city": "SEIXAL",
      "lon": "-9.100554470550383",
      "lat": "38.62742988398817"
    },
    {
      "id": "pt.ine.add.PTCONT.4774322",
      "street": "R PAULO DA GAMA",
      "house": "26",
      "postcode": "2840-250",
      "city": "SEIXAL",
      "lon": "-9.101141661084132",
      "lat": "38.62839789536783"
    },
    {
      "id": "pt.ine.add.PTCONT.4782344",
      "street": "R DIOGO CÃO",
      "house": "6",
      "postcode": "2840-384",
      "city": "SEIXAL",
      "lon": "-9.100573820617127",
      "lat": "38.628015246697174"
    },
    {
      "id": "pt.ine.add.PTCONT.4788063",
      "street": "R MARIA LAMAS",
      "house": "7",
      "postcode": "2840-387",
      "city": "SEIXAL",
      "lon": "-9.100368228469122",
      "lat": "38.628098019015354"
    },
    {
      "id": "pt.ine.add.PTCONT.4791678",
      "street": "R MARIA LAMAS",
      "house": "1",
      "postcode": "2840-387",
      "city": "SEIXAL",
      "lon": "-9.100443173846916",
      "lat": "38.628547801420105"
    },
    {
      "id": "pt.ine.add.PTCONT.4793966",
      "street": "R DIOGO CÃO",
      "house": "3",
      "postcode": "2840-384",
      "city": "SEIXAL",
      "lon": "-9.100992269368321",
      "lat": "38.628390123341994"
    },
    {
      "id": "pt.ine.add.PTCONT.4832802",
      "street": "TV RUI DE SEQUEIRA",
      "house": "1",
      "postcode": "2840-394",
      "city": "SEIXAL",
      "lon": "-9.100464791467685",
      "lat": "38.62759277028879"
    },
    {
      "id": "pt.ine.add.PTCONT.4859559",
      "street": "R PAULO DA GAMA",
      "house": "38",
      "postcode": "2840-250",
      "city": "SEIXAL",
      "lon": "-9.101060898444013",
      "lat": "38.627515775554706"
    },
    {
      "id": "pt.ine.add.PTCONT.4877369",
      "street": "TV RUI DE SEQUEIRA",
      "house": "6",
      "postcode": "2840-394",
      "city": "SEIXAL",
      "lon": "-9.100559433271687",
      "lat": "38.62779917267317"
    },
    {
      "id": "pt.ine.add.PTCONT.4894332",
      "street": "R BOA HORA",
      "house": "14",
      "postcode": "2840-368",
      "city": "SEIXAL",
      "lon": "-9.100473611009862",
      "lat": "38.62739452043493"
    },
    {
      "id": "pt.ine.add.PTCONT.4903939",
      "street": "R MARIA LAMAS",
      "house": "13",
      "postcode": "2840-387",
      "city": "SEIXAL",
      "lon": "-9.100348638006107",
      "lat": "38.62749464217543"
    },
    {
      "id": "pt.ine.add.PTCONT.4919467",
      "street": "TV RUI DE SEQUEIRA",
      "house": "2",
      "postcode": "2840-394",
      "city": "SEIXAL",
      "lon": "-9.100636661735377",
      "lat": "38.627564324935726"
    },
    {
      "id": "pt.ine.add.PTCONT.4919472",
      "street": "R PAULO DA GAMA",
      "house": "24",
      "postcode": "2840-250",
      "city": "SEIXAL",
      "lon": "-9.101120028649998",
      "lat": "38.62849716280367"
    },
    {
      "id": "pt.ine.add.PTCONT.4937502",
      "street": "TV RUI DE SEQUEIRA",
      "house": "3",
      "postcode": "2840-394",
      "city": "SEIXAL",
      "lon": "-9.100717158360343",
      "lat": "38.62757266724958"
    },
    {
      "id": "pt.ine.add.PTCONT.4938523",
      "street": "R PAULO DA GAMA",
      "house": "40",
      "postcode": "2840-250",
      "city": "SEIXAL",
      "lon": "-9.101024877501597",
      "lat": "38.62739896902415"
    },
    {
      "id": "pt.ine.add.PTCONT.4940979",
      "street": "R PAULO DA GAMA",
      "house": "36",
      "postcode": "2840-250",
      "city": "SEIXAL",
      "lon": "-9.10105099057539",
      "lat": "38.62763296207071"
    },
    {
      "id": "pt.ine.add.PTCONT.4951634",
      "street": "R DIOGO CÃO",
      "house": "7",
      "postcode": "2840-384",
      "city": "SEIXAL",
      "lon": "-9.100977517378249",
      "lat": "38.628147028283024"
    },
    {
      "id": "pt.ine.add.PTCONT.4966253",
      "street": "R BOA HORA",
      "house": "18",
      "postcode": "2840-368",
      "city": "SEIXAL",
      "lon": "-9.100624090061329",
      "lat": "38.627483356522696"
    },
    {
      "id": "pt.ine.add.PTCONT.4973507",
      "street": "TV RUI DE SEQUEIRA",
      "house": "5",
      "postcode": "2840-394",
      "city": "SEIXAL",
      "lon": "-9.100959980357352",
      "lat": "38.62769677129705"
    },
    {
      "id": "pt.ine.add.PTCONT.4999246",
      "street": "R DIOGO CÃO",
      "house": "3",
      "postcode": "2840-384",
      "city": "SEIXAL",
      "lon": "-9.100753077043736",
      "lat": "38.628536230588224"
    },
    {
      "id": "pt.ine.add.PTCONT.5002624",
      "street": "R PAULO DA GAMA",
      "house": "30",
      "postcode": "2840-250",
      "city": "SEIXAL",
      "lon": "-9.101092098305836",
      "lat": "38.62812806423206"
    },
    {
      "id": "pt.ine.add.PTCONT.5006041",
      "street": "TV PERO DA COVILHÃ",
      "house": "2",
      "postcode": "2840-393",
      "city": "SEIXAL",
      "lon": "-9.10057866249347",
      "lat": "38.62837552830317"
    },
    {
      "id": "pt.ine.add.PTCONT.5006046",
      "street": "R DIOGO CÃO",
      "house": "9",
      "postcode": "2840-384",
      "city": "SEIXAL",
      "lon": "-9.100906928254966",
      "lat": "38.62802149966073"
    },
    {
      "id": "pt.ine.add.PTCONT.5009746",
      "street": "R DIOGO CÃO",
      "house": "1",
      "postcode": "2840-384",
      "city": "SEIXAL",
      "lon": "-9.100982361297586",
      "lat": "38.62850730983789"
    },
    {
      "id": "pt.ine.add.PTCONT.5009762",
      "street": "R PAULO DA GAMA",
      "house": "32",
      "postcode": "2840-250",
      "city": "SEIXAL",
      "lon": "-9.101044958006584",
      "lat": "38.62803837384391"
    },
    {
      "id": "pt.ine.add.PTCONT.5024892",
      "street": "R MARIA LAMAS",
      "house": "5",
      "postcode": "2840-387",
      "city": "SEIXAL",
      "lon": "-9.10040594308601",
      "lat": "38.6283409243103"
    },
    {
      "id": "pt.ine.add.PTCONT.5032516",
      "street": "R DIOGO CÃO",
      "house": "5",
      "postcode": "2840-384",
      "city": "SEIXAL",
      "lon": "-9.100990937273812",
      "lat": "38.62829104591495"
    },
    {
      "id": "pt.ine.add.PTCONT.5032517",
      "street": "R DIOGO CÃO",
      "house": "8",
      "postcode": "2840-384",
      "city": "SEIXAL",
      "lon": "-9.10054952455655",
      "lat": "38.62791635915222"
    },
    {
      "id": "pt.ine.add.PTCONT.5043031",
      "street": "TV RUI SEQUEIRA",
      "house": "4",
      "postcode": "2840-394",
      "city": "SEIXAL",
      "lon": "-9.100947408294086",
      "lat": "38.627615802925554"
    },
    {
      "id": "pt.ine.add.PTCONT.5066167",
      "street": "R DIOGO CÃO",
      "house": "13",
      "postcode": "2840-384",
      "city": "SEIXAL",
      "lon": "-9.10108931276362",
      "lat": "38.627920902334054"
    },
    {
      "id": "pt.ine.add.PTCONT.5083304",
      "street": "R MARIA LAMAS",
      "house": "9",
      "postcode": "2840-387",
      "city": "SEIXAL",
      "lon": "-9.100411858218585",
      "lat": "38.6279265055027"
    },
    {
      "id": "pt.ine.add.PTCONT.5086451",
      "street": "TV RUI DE SEQUEIRA",
      "house": "11",
      "postcode": "2840-394",
      "city": "SEIXAL",
      "lon": "-9.100352752561104",
      "lat": "38.62780088158966"
    },
    {
      "id": "pt.ine.add.PTCONT.5086452",
      "street": "R MARIA LAMAS",
      "house": "17",
      "postcode": "2840-387",
      "city": "SEIXAL",
      "lon": "-9.100334372485763",
      "lat": "38.62728757513679"
    },
    {
      "id": "pt.ine.add.PTCONT.5093706",
      "street": "R MARIA LAMAS",
      "house": "11",
      "postcode": "2840-387",
      "city": "SEIXAL",
      "lon": "-9.100384415866051",
      "lat": "38.62759343484284"
    },
    {
      "id": "pt.ine.add.PTCONT.5093721",
      "street": "R DIOGO CÃO",
      "house": "11",
      "postcode": "2840-384",
      "city": "SEIXAL",
      "lon": "-9.100882873904174",
      "lat": "38.62794062627054"
    },
    {
      "id": "pt.ine.add.PTCONT.5104112",
      "street": "R MARIA LAMAS",
      "house": "15",
      "postcode": "2840-387",
      "city": "SEIXAL",
      "lon": "-9.10034742785477",
      "lat": "38.62740457175634"
    },
    {
      "id": "pt.ine.add.PTCONT.5113624",
      "street": "R BOA HORA",
      "house": "22",
      "postcode": "2840-368",
      "city": "SEIXAL",
      "lon": "-9.10094510757798",
      "lat": "38.62744466916194"
    },
    {
      "id": "pt.ine.add.PTCONT.5118563",
      "street": "R PAULO DA GAMA",
      "house": "28",
      "postcode": "2840-250",
      "city": "SEIXAL",
      "lon": "-9.10110576065305",
      "lat": "38.62829009592559"
    }
  ]
}