{
  "data": {
    "distrito": "Aveiro",
    "concelho": "Santa Maria da Feira",
    "freguesia": "São Paio de Oleiros",
    "OBJECTID": 276,
    "BGRI2021": "01091800113",
    "DT21": "01",
    "DTMN21": "0109",
    "DTMNFR21": "010918",
    "DTMNFRSEC21": "010918001",
    "SECNUM21": "001",
    "SSNUM21": "13",
    "SECSSNUM21": "00113",
    "OBJECTID_1": 5275,
    "DT": "01",
    "CC": "09",
    "fr": "18",
    "SEC": "001",
    "SS": "13"
  },
  "addresses": [
    {
      "id": "pt.ine.add.PTCONT.306719",
      "street": "R AGRO VELHO",
      "house": "170",
      "postcode": "4535-458",
      "city": "SÃO PAIO DE OLEIROS",
      "lon": "-8.60143590437834",
      "lat": "40.9930964914172"
    },
    {
      "id": "pt.ine.add.PTCONT.350280",
      "street": "R AGRO VELHO",
      "house": "35",
      "postcode": "4535-458",
      "city": "SÃO PAIO DE OLEIROS",
      "lon": "-8.600126569508053",
      "lat": "40.99112079005927"
    },
    {
      "id": "pt.ine.add.PTCONT.11846",
      "street": "R LAMEIRO",
      "house": "200",
      "postcode": "4535-467",
      "city": "SÃO PAIO DE OLEIROS",
      "lon": "-8.600998765876778",
      "lat": "40.99009973256519"
    },
    {
      "id": "pt.ine.add.PTCONT.27698",
      "street": "R COVAS DA BOLA",
      "house": "23",
      "postcode": "4535-440",
      "city": "SÃO PAIO DE OLEIROS",
      "lon": "-8.600658916233476",
      "lat": "40.99077645707227"
    },
    {
      "id": "pt.ine.add.PTCONT.38551",
      "street": "R BARREDAS",
      "house": "74",
      "postcode": "4535-453",
      "city": "SÃO PAIO DE OLEIROS",
      "lon": "-8.603534465481843",
      "lat": "40.98905388272881"
    },
    {
      "id": "pt.ine.add.PTCONT.41253",
      "street": "R AGRO VELHO",
      "house": "1",
      "postcode": "4535-458",
      "city": "SÃO PAIO DE OLEIROS",
      "lon": "-8.600192978253236",
      "lat": "40.990427166191324"
    },
    {
      "id": "pt.ine.add.PTCONT.52622",
      "street": "R AGRO VELHO",
      "house": "204",
      "postcode": "4535-458",
      "city": "SÃO PAIO DE OLEIROS",
      "lon": "-8.602063140078995",
      "lat": "40.992724752698194"
    },
    {
      "id": "pt.ine.add.PTCONT.67476",
      "street": "R AGRO VELHO",
      "house": "157",
      "postcode": "4535-458",
      "city": "SÃO PAIO DE OLEIROS",
      "lon": "-8.600673038365969",
      "lat": "40.99277542238794"
    },
    {
      "id": "pt.ine.add.PTCONT.74799",
      "street": "R AGRO VELHO",
      "house": "209",
      "postcode": "4535-458",
      "city": "SÃO PAIO DE OLEIROS",
      "lon": "-8.602084355612048",
      "lat": "40.99236448219666"
    },
    {
      "id": "pt.ine.add.PTCONT.79040",
      "street": "R AGRO VELHO",
      "house": "29",
      "postcode": "4535-458",
      "city": "SÃO PAIO DE OLEIROS",
      "lon": "-8.600125679973871",
      "lat": "40.99099472915803"
    },
    {
      "id": "pt.ine.add.PTCONT.90768",
      "street": "R AGRO VELHO",
      "house": "7",
      "postcode": "4535-458",
      "city": "SÃO PAIO DE OLEIROS",
      "lon": "-8.600193550166969",
      "lat": "40.99050820534967"
    },
    {
      "id": "pt.ine.add.PTCONT.121765",
      "street": "R LAMEIRO",
      "house": "174",
      "postcode": "4535-467",
      "city": "SÃO PAIO DE OLEIROS",
      "lon": "-8.600548720674608",
      "lat": "40.99031766893865"
    },
    {
      "id": "pt.ine.add.PTCONT.125398",
      "street": "R LAMEIRO",
      "house": "198",
      "postcode": "4535-467",
      "city": "SÃO PAIO DE OLEIROS",
      "lon": "-8.600880185843277",
      "lat": "40.99013623223182"
    },
    {
      "id": "pt.ine.add.PTCONT.135122",
      "street": "R COVAS BOLA",
      "house": "53",
      "postcode": "4535-440",
      "city": "SÃO PAIO DE OLEIROS",
      "lon": "-8.600445647586149",
      "lat": "40.99086736794128"
    },
    {
      "id": "pt.ine.add.PTCONT.140812",
      "street": "R AGRO VELHO",
      "house": "160",
      "postcode": "4535-458",
      "city": "SÃO PAIO DE OLEIROS",
      "lon": "-8.600924065057969",
      "lat": "40.99298150984834"
    },
    {
      "id": "pt.ine.add.PTCONT.166063",
      "street": "R AGRO VELHO",
      "house": "149",
      "postcode": "4535-458",
      "city": "SÃO PAIO DE OLEIROS",
      "lon": "-8.600732967060665",
      "lat": "40.992847216137406"
    },
    {
      "id": "pt.ine.add.PTCONT.194394",
      "street": "R COVAS DA BOLA",
      "house": "11",
      "postcode": "4535-440",
      "city": "SÃO PAIO DE OLEIROS",
      "lon": "-8.60047983590674",
      "lat": "40.99066012335481"
    },
    {
      "id": "pt.ine.add.PTCONT.209455",
      "street": "R AGRO VELHO",
      "house": "45",
      "postcode": "4535-458",
      "city": "SÃO PAIO DE OLEIROS",
      "lon": "-8.600115257696409",
      "lat": "40.99120187735173"
    },
    {
      "id": "pt.ine.add.PTCONT.260431",
      "street": "R AGRO VELHO",
      "house": "155",
      "postcode": "4535-458",
      "city": "SÃO PAIO DE OLEIROS",
      "lon": "-8.600863245038816",
      "lat": "40.992783655352945"
    },
    {
      "id": "pt.ine.add.PTCONT.262372",
      "street": "R AGRO VELHO",
      "house": "15",
      "postcode": "4535-458",
      "city": "SÃO PAIO DE OLEIROS",
      "lon": "-8.600315245830238",
      "lat": "40.990912919556656"
    },
    {
      "id": "pt.ine.add.PTCONT.285170",
      "street": "R AGRO VELHO",
      "house": "217",
      "postcode": "4535-458",
      "city": "SÃO PAIO DE OLEIROS",
      "lon": "-8.602346247503212",
      "lat": "40.9924264486902"
    },
    {
      "id": "pt.ine.add.PTCONT.287929",
      "street": "R AGRO VELHO",
      "house": "201",
      "postcode": "4535-458",
      "city": "SÃO PAIO DE OLEIROS",
      "lon": "-8.601847953846367",
      "lat": "40.99254553579804"
    }
  ]
}