{
  "data": {
    "distrito": "Coimbra",
    "concelho": "Lousã",
    "freguesia": "União das freguesias de Lousã e Vilarinho",
    "OBJECTID": 165,
    "BGRI2021": "06070800311",
    "DT21": "06",
    "DTMN21": "0607",
    "DTMNFR21": "060708",
    "DTMNFRSEC21": "060708003",
    "SECNUM21": "003",
    "SSNUM21": "11",
    "SECSSNUM21": "00311",
    "OBJECTID_1": 52805,
    "DT": "06",
    "CC": "07",
    "fr": "08",
    "SEC": "003",
    "SS": "11"
  },
  "addresses": [
    {
      "id": "pt.ine.add.PTCONT.1101756",
      "street": "R FALCÃO TRIGOSO",
      "house": "",
      "postcode": "3200-095",
      "city": "LOUSÃ",
      "lon": "-8.269047993299099",
      "lat": "40.10861724430103"
    },
    {
      "id": "pt.ine.add.PTCONT.1102950",
      "street": "R CARLOS RAMOS",
      "house": "",
      "postcode": "3200-095",
      "city": "LOUSÃ",
      "lon": "-8.268227960060342",
      "lat": "40.1091225412351"
    },
    {
      "id": "pt.ine.add.PTCONT.1117931",
      "street": "VALE PEREIRA AREAL",
      "house": "49",
      "postcode": "3200-129",
      "city": "LOUSÃ",
      "lon": "-8.26917344157206",
      "lat": "40.10682489768712"
    },
    {
      "id": "pt.ine.add.PTCONT.1137824",
      "street": "R FALCÃO TRIGOSO",
      "house": "6",
      "postcode": "3200-095",
      "city": "LOUSÃ",
      "lon": "-8.269690009057314",
      "lat": "40.107076458488585"
    },
    {
      "id": "pt.ine.add.PTCONT.1138839",
      "street": "VALE PEREIRA AREAL",
      "house": "4",
      "postcode": "3200-095",
      "city": "LOUSÃ",
      "lon": "-8.268438941136905",
      "lat": "40.10905024671931"
    },
    {
      "id": "pt.ine.add.PTCONT.1146907",
      "street": "",
      "house": "",
      "postcode": "3200-129",
      "city": "LOUSÃ",
      "lon": "-8.267278911277831",
      "lat": "40.10963698787125"
    },
    {
      "id": "pt.ine.add.PTCONT.1154176",
      "street": "BR COVA AREIA",
      "house": "33",
      "postcode": "3200-095",
      "city": "LOUSÃ",
      "lon": "-8.269010404587618",
      "lat": "40.107410480893705"
    },
    {
      "id": "pt.ine.add.PTCONT.1172241",
      "street": "COVA AREIA",
      "house": "7",
      "postcode": "3200-095",
      "city": "LOUSÃ",
      "lon": "-8.269916229161138",
      "lat": "40.10876031843677"
    },
    {
      "id": "pt.ine.add.PTCONT.1203542",
      "street": "",
      "house": "",
      "postcode": "3200-129",
      "city": "LOUSÃ",
      "lon": "-8.26906223253624",
      "lat": "40.10987807099344"
    },
    {
      "id": "pt.ine.add.PTCONT.1214201",
      "street": "R FALCÃO TRIGOSO",
      "house": "31",
      "postcode": "3200-095",
      "city": "LOUSÃ",
      "lon": "-8.26891725469884",
      "lat": "40.107752819174735"
    },
    {
      "id": "pt.ine.add.PTCONT.1216987",
      "street": "R CARRANCA REDONDO",
      "house": "1",
      "postcode": "3200-129",
      "city": "LOUSÃ",
      "lon": "-8.267595865524",
      "lat": "40.10977171063601"
    },
    {
      "id": "pt.ine.add.PTCONT.1217070",
      "street": "R CARRANCA REDONDO",
      "house": "1",
      "postcode": "3200-129",
      "city": "LOUSÃ",
      "lon": "-8.267595865524",
      "lat": "40.10977171063601"
    },
    {
      "id": "pt.ine.add.PTCONT.1221024",
      "street": "R FALCÃO TRIGOSO",
      "house": "",
      "postcode": "3200-095",
      "city": "LOUSÃ",
      "lon": "-8.268989025653562",
      "lat": "40.10845520503602"
    },
    {
      "id": "pt.ine.add.PTCONT.1226413",
      "street": "R CARLOS RAMOS",
      "house": "",
      "postcode": "3200-095",
      "city": "LOUSÃ",
      "lon": "-8.268016960743767",
      "lat": "40.109185829362644"
    },
    {
      "id": "pt.ine.add.PTCONT.1228479",
      "street": "R FALCÃO TRIGOSO",
      "house": "35",
      "postcode": "3200-095",
      "city": "LOUSÃ",
      "lon": "-8.269303229670715",
      "lat": "40.10721200434323"
    },
    {
      "id": "pt.ine.add.PTCONT.1238617",
      "street": "R FALCÃO TRIGOSO",
      "house": "43",
      "postcode": "3200-095",
      "city": "LOUSÃ",
      "lon": "-8.26950215117898",
      "lat": "40.10697761355118"
    },
    {
      "id": "pt.ine.add.PTCONT.1240612",
      "street": "R COVA DA AREIA",
      "house": "21",
      "postcode": "3200-129",
      "city": "LOUSÃ",
      "lon": "-8.26734880840874",
      "lat": "40.10939374423349"
    },
    {
      "id": "pt.ine.add.PTCONT.1246892",
      "street": "R FALCÃO TRIGOSO",
      "house": "",
      "postcode": "3200-095",
      "city": "LOUSÃ",
      "lon": "-8.269842753302123",
      "lat": "40.10721136868656"
    },
    {
      "id": "pt.ine.add.PTCONT.1257511",
      "street": "R CARLOS RAMOS",
      "house": "",
      "postcode": "3200-095",
      "city": "LOUSÃ",
      "lon": "-8.268661668721602",
      "lat": "40.10898694409662"
    },
    {
      "id": "pt.ine.add.PTCONT.1267623",
      "street": "URB MEIRAL",
      "house": "46",
      "postcode": "3200-095",
      "city": "LOUSÃ",
      "lon": "-8.26999564256835",
      "lat": "40.10741832672565"
    },
    {
      "id": "pt.ine.add.PTCONT.1275630",
      "street": "R FALCÃO TRIGOSO",
      "house": "34 A",
      "postcode": "3200-095",
      "city": "LOUSÃ",
      "lon": "-8.269080203634628",
      "lat": "40.10712220609852"
    },
    {
      "id": "pt.ine.add.PTCONT.1275631",
      "street": "R FALCÃO TRIGOSO",
      "house": "41",
      "postcode": "3200-095",
      "city": "LOUSÃ",
      "lon": "-8.268985692643843",
      "lat": "40.10678008794839"
    },
    {
      "id": "pt.ine.add.PTCONT.1283877",
      "street": "R FALCÃO TRIGOSO",
      "house": "29",
      "postcode": "3200-095",
      "city": "LOUSÃ",
      "lon": "-8.268859308563634",
      "lat": "40.10810412213279"
    },
    {
      "id": "pt.ine.add.PTCONT.1298691",
      "street": "",
      "house": "",
      "postcode": "3200-129",
      "city": "LOUSÃ",
      "lon": "-8.269941762554266",
      "lat": "40.10979598106028"
    },
    {
      "id": "pt.ine.add.PTCONT.1322611",
      "street": "R FALCÃO TRIGOSO",
      "house": "",
      "postcode": "3200-095",
      "city": "LOUSÃ",
      "lon": "-8.26891832932821",
      "lat": "40.10829317948923"
    },
    {
      "id": "pt.ine.add.PTCONT.1341377",
      "street": "COVA AREIA",
      "house": "",
      "postcode": "3200-095",
      "city": "LOUSÃ",
      "lon": "-8.269045178696782",
      "lat": "40.10720330145809"
    },
    {
      "id": "pt.ine.add.PTCONT.1342663",
      "street": "R FALCÃO TRIGOSO",
      "house": "37",
      "postcode": "3200-095",
      "city": "LOUSÃ",
      "lon": "-8.269573621366842",
      "lat": "40.10752689703958"
    },
    {
      "id": "pt.ine.add.PTCONT.1365664",
      "street": "R FALCÃO TRIGOSO",
      "house": "",
      "postcode": "3200-095",
      "city": "LOUSÃ",
      "lon": "-8.269491195821772",
      "lat": "40.10736488563525"
    }
  ]
}