{
  "data": {
    "distrito": "Bragança",
    "concelho": "Macedo de Cavaleiros",
    "freguesia": "União das freguesias de Talhinhas e Bagueixe",
    "OBJECTID": 958,
    "BGRI2021": "04054400118",
    "DT21": "04",
    "DTMN21": "0405",
    "DTMNFR21": "040544",
    "DTMNFRSEC21": "040544001",
    "SECNUM21": "001",
    "SSNUM21": "18",
    "SECSSNUM21": "00118",
    "OBJECTID_1": 35793,
    "DT": "04",
    "CC": "05",
    "fr": "44",
    "SEC": "001",
    "SS": "18"
  },
  "addresses": [
    {
      "id": "pt.ine.add.PTCONT.849708",
      "street": "R SANTIAGO",
      "house": "8",
      "postcode": "5340-451",
      "city": "TALHINHAS",
      "lon": "-6.73636166131694",
      "lat": "41.53477674660403"
    },
    {
      "id": "pt.ine.add.PTCONT.867766",
      "street": "R FRANCISCO ANTÓNIO ANES",
      "house": "24",
      "postcode": "5340-451",
      "city": "TALHINHAS",
      "lon": "-6.735584688034852",
      "lat": "41.53246241703551"
    },
    {
      "id": "pt.ine.add.PTCONT.876384",
      "street": "R SANTIAGO",
      "house": "7",
      "postcode": "5340-451",
      "city": "TALHINHAS",
      "lon": "-6.73641884714364",
      "lat": "41.534903489840225"
    },
    {
      "id": "pt.ine.add.PTCONT.878512",
      "street": "R SANTIAGO",
      "house": "10",
      "postcode": "5340-451",
      "city": "TALHINHAS",
      "lon": "-6.736011770648581",
      "lat": "41.53433132564323"
    },
    {
      "id": "pt.ine.add.PTCONT.894017",
      "street": "R SANTIAGO",
      "house": "9",
      "postcode": "5340-451",
      "city": "TALHINHAS",
      "lon": "-6.736094270173228",
      "lat": "41.534395352347865"
    },
    {
      "id": "pt.ine.add.PTCONT.902968",
      "street": "R NATIVIDADE TEIGA",
      "house": "19",
      "postcode": "5340-451",
      "city": "TALHINHAS",
      "lon": "-6.735269319932984",
      "lat": "41.53319686804063"
    },
    {
      "id": "pt.ine.add.PTCONT.921689",
      "street": "BR SANTIAGO",
      "house": "6",
      "postcode": "5340-451",
      "city": "TALHINHAS",
      "lon": "-6.7366257636041444",
      "lat": "41.53531115923536"
    },
    {
      "id": "pt.ine.add.PTCONT.947575",
      "street": "LG BARREIRO",
      "house": "25",
      "postcode": "5340-451",
      "city": "TALHINHAS",
      "lon": "-6.7356671848051075",
      "lat": "41.53252644402341"
    }
  ]
}