{
  "data": {
    "distrito": "Faro",
    "concelho": "Vila do Bispo",
    "freguesia": "Barão de São Miguel",
    "OBJECTID": 89,
    "BGRI2021": "08150100102",
    "DT21": "08",
    "DTMN21": "0815",
    "DTMNFR21": "081501",
    "DTMNFRSEC21": "081501001",
    "SECNUM21": "001",
    "SSNUM21": "02",
    "SECSSNUM21": "00102",
    "OBJECTID_1": 74309,
    "DT": "08",
    "CC": "15",
    "fr": "01",
    "SEC": "001",
    "SS": "02"
  },
  "addresses": [
    {
      "id": "pt.ine.add.PTCONT.1477602",
      "street": "",
      "house": "",
      "postcode": "8650-030",
      "city": "BARÃO DE SÃO MIGUEL",
      "lon": "-8.801990860481087",
      "lat": "37.0944502356946"
    },
    {
      "id": "pt.ine.add.PTCONT.1538818",
      "street": "",
      "house": "",
      "postcode": "8650-030",
      "city": "BARÃO DE SÃO MIGUEL",
      "lon": "-8.80367927670009",
      "lat": "37.09458486816469"
    },
    {
      "id": "pt.ine.add.PTCONT.1660536",
      "street": "MONTE RUI VAZ",
      "house": "3",
      "postcode": "8650-030",
      "city": "BARÃO DE SÃO MIGUEL",
      "lon": "-8.802475697883299",
      "lat": "37.09458265759488"
    },
    {
      "id": "pt.ine.add.PTCONT.1674834",
      "street": "",
      "house": "9",
      "postcode": "8650-030",
      "city": "BARÃO DE SÃO MIGUEL",
      "lon": "-8.803126273488168",
      "lat": "37.09693072628284"
    },
    {
      "id": "pt.ine.add.PTCONT.1676820",
      "street": "URB MONTE RUI VAZ",
      "house": "6",
      "postcode": "8650-030",
      "city": "BARÃO DE SÃO MIGUEL",
      "lon": "-8.803092749841571",
      "lat": "37.09567845509963"
    },
    {
      "id": "pt.ine.add.PTCONT.1686152",
      "street": "MONTE RUI VAZ",
      "house": "8",
      "postcode": "8650-030",
      "city": "BARÃO DE SÃO MIGUEL",
      "lon": "-8.803178784232376",
      "lat": "37.0965069357295"
    },
    {
      "id": "pt.ine.add.PTCONT.1694511",
      "street": "QTA THE PHOENIX NEST",
      "house": "",
      "postcode": "8650-030",
      "city": "BARÃO DE SÃO MIGUEL",
      "lon": "-8.805256654347504",
      "lat": "37.09488229516178"
    },
    {
      "id": "pt.ine.add.PTCONT.1700299",
      "street": "CASAL DOS MOORES",
      "house": "",
      "postcode": "8650-030",
      "city": "BARÃO DE SÃO MIGUEL",
      "lon": "-8.80284187476432",
      "lat": "37.09401292787825"
    },
    {
      "id": "pt.ine.add.PTCONT.1708588",
      "street": "",
      "house": "",
      "postcode": "8650-030",
      "city": "BARÃO DE SÃO MIGUEL",
      "lon": "-8.803243097772333",
      "lat": "37.09614615198227"
    },
    {
      "id": "pt.ine.add.PTCONT.1746527",
      "street": "MONTE RUI VAZ",
      "house": "5",
      "postcode": "8650-030",
      "city": "BARÃO DE SÃO MIGUEL",
      "lon": "-8.802557998515596",
      "lat": "37.09498766597477"
    },
    {
      "id": "pt.ine.add.PTCONT.1806898",
      "street": "",
      "house": "",
      "postcode": "8650-030",
      "city": "BARÃO DE SÃO MIGUEL",
      "lon": "-8.805449059354405",
      "lat": "37.095016362053904"
    }
  ]
}