{
  "data": {
    "distrito": "Setúbal",
    "concelho": "Barreiro",
    "freguesia": "Santo António da Charneca",
    "OBJECTID": 253,
    "BGRI2021": "15040700102",
    "DT21": "15",
    "DTMN21": "1504",
    "DTMNFR21": "150407",
    "DTMNFRSEC21": "150407001",
    "SECNUM21": "001",
    "SSNUM21": "02",
    "SECSSNUM21": "00102",
    "OBJECTID_1": 162985,
    "DT": "15",
    "CC": "04",
    "fr": "07",
    "SEC": "001",
    "SS": "02"
  },
  "addresses": [
    {
      "id": "pt.ine.add.PTCONT.4665807",
      "street": "R GIL EANES",
      "house": "5",
      "postcode": "2835-721",
      "city": "SANTO ANTÓNIO DA CHARNECA",
      "lon": "-9.02806173602891",
      "lat": "38.62856538047907"
    },
    {
      "id": "pt.ine.add.PTCONT.4704718",
      "street": "R GIL EANES",
      "house": "",
      "postcode": "2835-721",
      "city": "SANTO ANTÓNIO DA CHARNECA",
      "lon": "-9.027812812576922",
      "lat": "38.628864551063735"
    },
    {
      "id": "pt.ine.add.PTCONT.4737322",
      "street": "R GIL EANES",
      "house": "",
      "postcode": "2835-721",
      "city": "SANTO ANTÓNIO DA CHARNECA",
      "lon": "-9.028016253430636",
      "lat": "38.62860176071875"
    },
    {
      "id": "pt.ine.add.PTCONT.4766559",
      "street": "R GIL EANES",
      "house": "",
      "postcode": "2835-721",
      "city": "SANTO ANTÓNIO DA CHARNECA",
      "lon": "-9.028117865789458",
      "lat": "38.62753802967727"
    },
    {
      "id": "pt.ine.add.PTCONT.4816891",
      "street": "R GIL EANES",
      "house": "",
      "postcode": "2835-721",
      "city": "SANTO ANTÓNIO DA CHARNECA",
      "lon": "-9.027912958944738",
      "lat": "38.62953038315492"
    },
    {
      "id": "pt.ine.add.PTCONT.4849152",
      "street": "R GIL EANES",
      "house": "",
      "postcode": "2835-721",
      "city": "SANTO ANTÓNIO DA CHARNECA",
      "lon": "-9.027984554832859",
      "lat": "38.62789937275328"
    },
    {
      "id": "pt.ine.add.PTCONT.4883267",
      "street": "R GIL EANES",
      "house": "",
      "postcode": "2835-721",
      "city": "SANTO ANTÓNIO DA CHARNECA",
      "lon": "-9.028040287840815",
      "lat": "38.62776382520187"
    },
    {
      "id": "pt.ine.add.PTCONT.4930758",
      "street": "R GIL EANES QTA DC CORVO",
      "house": "",
      "postcode": "2835-721",
      "city": "SANTO ANTÓNIO DA CHARNECA",
      "lon": "-9.02784591717788",
      "lat": "38.62875620091415"
    },
    {
      "id": "pt.ine.add.PTCONT.4951128",
      "street": "R GIL EANES",
      "house": "",
      "postcode": "2835-721",
      "city": "SANTO ANTÓNIO DA CHARNECA",
      "lon": "-9.028147265795706",
      "lat": "38.62897909793547"
    },
    {
      "id": "pt.ine.add.PTCONT.4987414",
      "street": "R GIL EANES PATEO ADEUINO",
      "house": "5",
      "postcode": "2835-721",
      "city": "SANTO ANTÓNIO DA CHARNECA",
      "lon": "-9.027969763101206",
      "lat": "38.628557075911495"
    },
    {
      "id": "pt.ine.add.PTCONT.5002075",
      "street": "R GIL EANES",
      "house": "",
      "postcode": "2835-721",
      "city": "SANTO ANTÓNIO DA CHARNECA",
      "lon": "-9.027855272758993",
      "lat": "38.62858497580977"
    },
    {
      "id": "pt.ine.add.PTCONT.5002076",
      "street": "R GIL EANES",
      "house": "",
      "postcode": "2835-721",
      "city": "SANTO ANTÓNIO DA CHARNECA",
      "lon": "-9.027855272758993",
      "lat": "38.62858497580977"
    },
    {
      "id": "pt.ine.add.PTCONT.5031211",
      "street": "R LUIS SOARES",
      "house": "",
      "postcode": "2835-662",
      "city": "SANTO ANTÓNIO DA CHARNECA",
      "lon": "-9.02896583645902",
      "lat": "38.62831524283031"
    },
    {
      "id": "pt.ine.add.PTCONT.5031212",
      "street": "R GIL EANES TOMASIA",
      "house": "",
      "postcode": "2835-721",
      "city": "SANTO ANTÓNIO DA CHARNECA",
      "lon": "-9.028284834010876",
      "lat": "38.6289600292548"
    },
    {
      "id": "pt.ine.add.PTCONT.5038776",
      "street": "R GIL EANES PATEO ADEVINO",
      "house": "2-3",
      "postcode": "2835-721",
      "city": "SANTO ANTÓNIO DA CHARNECA",
      "lon": "-9.027854713006695",
      "lat": "38.62853993968054"
    },
    {
      "id": "pt.ine.add.PTCONT.5060795",
      "street": "R GIL EANES PAATIODA TOMASIA",
      "house": "",
      "postcode": "2835-721",
      "city": "SANTO ANTÓNIO DA CHARNECA",
      "lon": "-9.02828214588543",
      "lat": "38.62874385587049"
    },
    {
      "id": "pt.ine.add.PTCONT.5064358",
      "street": "R LUIS SOARES",
      "house": "",
      "postcode": "2835-662",
      "city": "SANTO ANTÓNIO DA CHARNECA",
      "lon": "-9.028761891793506",
      "lat": "38.62761417387966"
    },
    {
      "id": "pt.ine.add.PTCONT.5066183",
      "street": "R LUIS SOARES",
      "house": "",
      "postcode": "2835-662",
      "city": "SANTO ANTÓNIO DA CHARNECA",
      "lon": "-9.028761891793506",
      "lat": "38.62761417387966"
    },
    {
      "id": "pt.ine.add.PTCONT.5085794",
      "street": "R GIL EANES",
      "house": "",
      "postcode": "2835-721",
      "city": "SANTO ANTÓNIO DA CHARNECA",
      "lon": "-9.028059496512192",
      "lat": "38.62838523596953"
    },
    {
      "id": "pt.ine.add.PTCONT.5092984",
      "street": "R GIL EANES",
      "house": "",
      "postcode": "2835-721",
      "city": "SANTO ANTÓNIO DA CHARNECA",
      "lon": "-9.027867762953111",
      "lat": "38.62866595302417"
    },
    {
      "id": "pt.ine.add.PTCONT.5093068",
      "street": "R GIL EANES PATIO DO TOMASIA",
      "house": "",
      "postcode": "2835-721",
      "city": "SANTO ANTÓNIO DA CHARNECA",
      "lon": "-9.028478919304572",
      "lat": "38.62886846324448"
    },
    {
      "id": "pt.ine.add.PTCONT.5098142",
      "street": "R GIL EANES",
      "house": "",
      "postcode": "2835-721",
      "city": "SANTO ANTÓNIO DA CHARNECA",
      "lon": "-9.02791111847422",
      "lat": "38.62845843555224"
    },
    {
      "id": "pt.ine.add.PTCONT.5113963",
      "street": "R GIL EANES",
      "house": "4",
      "postcode": "2835-721",
      "city": "SANTO ANTÓNIO DA CHARNECA",
      "lon": "-9.02791268587803",
      "lat": "38.62858453671303"
    },
    {
      "id": "pt.ine.add.PTCONT.5124323",
      "street": "R GIL EANES",
      "house": "9 A",
      "postcode": "2835-721",
      "city": "SANTO ANTÓNIO DA CHARNECA",
      "lon": "-9.027908543474963",
      "lat": "38.628251269353484"
    }
  ]
}