{
  "data": {
    "distrito": "Coimbra",
    "concelho": "Lousã",
    "freguesia": "União das freguesias de Lousã e Vilarinho",
    "OBJECTID": 80,
    "BGRI2021": "06070800710",
    "DT21": "06",
    "DTMN21": "0607",
    "DTMNFR21": "060708",
    "DTMNFRSEC21": "060708007",
    "SECNUM21": "007",
    "SSNUM21": "10",
    "SECSSNUM21": "00710",
    "OBJECTID_1": 52888,
    "DT": "06",
    "CC": "07",
    "fr": "08",
    "SEC": "007",
    "SS": "10"
  },
  "addresses": [
    {
      "id": "pt.ine.add.PTCONT.1115413",
      "street": "R PADRE JOAQUIM JOSE DOS SANTOS",
      "house": "",
      "postcode": "3200-378",
      "city": "VILARINHO LSA",
      "lon": "-8.24137068312039",
      "lat": "40.12545164282985"
    },
    {
      "id": "pt.ine.add.PTCONT.1121647",
      "street": "R PADRE JOAQUIM JOSE DOS SANTOS",
      "house": "",
      "postcode": "3200-378",
      "city": "VILARINHO LSA",
      "lon": "-8.241088561298653",
      "lat": "40.12510067217519"
    },
    {
      "id": "pt.ine.add.PTCONT.1132178",
      "street": "R PADRE JOAQUIM JOSE DOS SANTOS",
      "house": "19",
      "postcode": "3200-378",
      "city": "VILARINHO LSA",
      "lon": "-8.241887490534168",
      "lat": "40.12582941058247"
    },
    {
      "id": "pt.ine.add.PTCONT.1156294",
      "street": "R PADRE JOAQUIM JOSE DOS SANTOS",
      "house": "21",
      "postcode": "3200-378",
      "city": "VILARINHO LSA",
      "lon": "-8.242005083427651",
      "lat": "40.126000414070774"
    },
    {
      "id": "pt.ine.add.PTCONT.1156295",
      "street": "R PADRE JOAQUIM JOSE DOS SANTOS",
      "house": "21",
      "postcode": "3200-378",
      "city": "VILARINHO LSA",
      "lon": "-8.242005083427651",
      "lat": "40.126000414070774"
    },
    {
      "id": "pt.ine.add.PTCONT.1161023",
      "street": "R JOÃO PEDRO TOMAS PIPPA",
      "house": "",
      "postcode": "3200-378",
      "city": "VILARINHO LSA",
      "lon": "-8.242543976278302",
      "lat": "40.12551358210344"
    },
    {
      "id": "pt.ine.add.PTCONT.1170240",
      "street": "R JOÃO PEDRO TOMAS PIPPA",
      "house": "",
      "postcode": "3200-378",
      "city": "VILARINHO LSA",
      "lon": "-8.242930883635612",
      "lat": "40.12536011384862"
    },
    {
      "id": "pt.ine.add.PTCONT.1204574",
      "street": "R JOÃO PEDRO TOMAS PIPPA",
      "house": "10",
      "postcode": "3200-378",
      "city": "VILARINHO LSA",
      "lon": "-8.242742507663552",
      "lat": "40.12494601627745"
    },
    {
      "id": "pt.ine.add.PTCONT.1204829",
      "street": "R PADRE JOAQUIM JOSE DOS SANTOS",
      "house": "5",
      "postcode": "3200-378",
      "city": "VILARINHO LSA",
      "lon": "-8.241159052271406",
      "lat": "40.12516364843921"
    },
    {
      "id": "pt.ine.add.PTCONT.1205139",
      "street": "R PADRE JOAQUIM JOSE DOS SANTOS",
      "house": "9",
      "postcode": "3200-378",
      "city": "VILARINHO LSA",
      "lon": "-8.241229700318911",
      "lat": "40.12532569052326"
    },
    {
      "id": "pt.ine.add.PTCONT.1234591",
      "street": "R JOÃO PEDRO TOMAS PIPPA",
      "house": "8",
      "postcode": "3200-378",
      "city": "VILARINHO LSA",
      "lon": "-8.242496052549486",
      "lat": "40.12489221330993"
    },
    {
      "id": "pt.ine.add.PTCONT.1237776",
      "street": "R PADRE JOAQUIM JOSE DOS SANTOS",
      "house": "7",
      "postcode": "3200-378",
      "city": "VILARINHO LSA",
      "lon": "-8.241206079609489",
      "lat": "40.12522664656226"
    },
    {
      "id": "pt.ine.add.PTCONT.1240988",
      "street": "R DR ANTÓNIO JOSE DE ALMEIDA CASA OLINDA",
      "house": "",
      "postcode": "3200-378",
      "city": "VILARINHO LSA",
      "lon": "-8.2415216387204",
      "lat": "40.12446984746524"
    },
    {
      "id": "pt.ine.add.PTCONT.1240989",
      "street": "R DR ANTÓNIO JOSE DE ALMEIDA CASA OLINDA",
      "house": "",
      "postcode": "3200-378",
      "city": "VILARINHO LSA",
      "lon": "-8.2415216387204",
      "lat": "40.12446984746524"
    },
    {
      "id": "pt.ine.add.PTCONT.1244736",
      "street": "R DR ANTÓNIO JOSE DE ALMEIDA",
      "house": "",
      "postcode": "3200-378",
      "city": "VILARINHO LSA",
      "lon": "-8.241405035723202",
      "lat": "40.124920256649226"
    },
    {
      "id": "pt.ine.add.PTCONT.1332760",
      "street": "R PADRE MANUEL PEIXOTO",
      "house": "3",
      "postcode": "3200-378",
      "city": "VILARINHO LSA",
      "lon": "-8.242662567808205",
      "lat": "40.1263059979715"
    },
    {
      "id": "pt.ine.add.PTCONT.1338606",
      "street": "R JOÃO PEDRO TOMAS PIPPA",
      "house": "24",
      "postcode": "3200-378",
      "city": "VILARINHO LSA",
      "lon": "-8.243001565095305",
      "lat": "40.125540166813764"
    },
    {
      "id": "pt.ine.add.PTCONT.1340799",
      "street": "R JOÃO PEDRO TOMAS PIPPA",
      "house": "26",
      "postcode": "3200-378",
      "city": "VILARINHO LSA",
      "lon": "-8.243001869631481",
      "lat": "40.12572929253077"
    },
    {
      "id": "pt.ine.add.PTCONT.1340802",
      "street": "R JOÃO PEDRO TOMAS PIPPA",
      "house": "4",
      "postcode": "3200-378",
      "city": "VILARINHO LSA",
      "lon": "-8.242284231411878",
      "lat": "40.1244871431021"
    },
    {
      "id": "pt.ine.add.PTCONT.1340803",
      "street": "R JOÃO PEDRO TOMAS PIPPA",
      "house": "4",
      "postcode": "3200-378",
      "city": "VILARINHO LSA",
      "lon": "-8.242284231411878",
      "lat": "40.1244871431021"
    },
    {
      "id": "pt.ine.add.PTCONT.1340804",
      "street": "R JOÃO PEDRO TOMAS PIPPA",
      "house": "4",
      "postcode": "3200-378",
      "city": "VILARINHO LSA",
      "lon": "-8.242284231411878",
      "lat": "40.1244871431021"
    },
    {
      "id": "pt.ine.add.PTCONT.1340805",
      "street": "R JOÃO PEDRO TOMAS PIPPA",
      "house": "4",
      "postcode": "3200-378",
      "city": "VILARINHO LSA",
      "lon": "-8.242284231411878",
      "lat": "40.1244871431021"
    },
    {
      "id": "pt.ine.add.PTCONT.1340806",
      "street": "R JOÃO PEDRO TOMAS PIPPA",
      "house": "4",
      "postcode": "3200-378",
      "city": "VILARINHO LSA",
      "lon": "-8.242284231411878",
      "lat": "40.1244871431021"
    },
    {
      "id": "pt.ine.add.PTCONT.1340807",
      "street": "R JOÃO PEDRO TOMAS PIPPA",
      "house": "4",
      "postcode": "3200-378",
      "city": "VILARINHO LSA",
      "lon": "-8.242284231411878",
      "lat": "40.1244871431021"
    },
    {
      "id": "pt.ine.add.PTCONT.1340808",
      "street": "R JOÃO PEDRO TOMAS PIPPA",
      "house": "4",
      "postcode": "3200-378",
      "city": "VILARINHO LSA",
      "lon": "-8.242284231411878",
      "lat": "40.1244871431021"
    },
    {
      "id": "pt.ine.add.PTCONT.1340809",
      "street": "R JOÃO PEDRO TOMAS PIPPA",
      "house": "4",
      "postcode": "3200-378",
      "city": "VILARINHO LSA",
      "lon": "-8.242284231411878",
      "lat": "40.1244871431021"
    },
    {
      "id": "pt.ine.add.PTCONT.1340810",
      "street": "R JOÃO PEDRO TOMAS PIPPA",
      "house": "4",
      "postcode": "3200-378",
      "city": "VILARINHO LSA",
      "lon": "-8.242284231411878",
      "lat": "40.1244871431021"
    },
    {
      "id": "pt.ine.add.PTCONT.1341342",
      "street": "R JOÃO PEDRO TOMAS PIPPA",
      "house": "4",
      "postcode": "3200-378",
      "city": "VILARINHO LSA",
      "lon": "-8.242284231411878",
      "lat": "40.1244871431021"
    },
    {
      "id": "pt.ine.add.PTCONT.1341424",
      "street": "R JOÃO PEDRO TOMAS PIPPA",
      "house": "4",
      "postcode": "3200-378",
      "city": "VILARINHO LSA",
      "lon": "-8.242284231411878",
      "lat": "40.1244871431021"
    },
    {
      "id": "pt.ine.add.PTCONT.1342765",
      "street": "R PADRE JOAQUIM JOSE DOS SANTOS",
      "house": "",
      "postcode": "3200-378",
      "city": "VILARINHO LSA",
      "lon": "-8.24211100015294",
      "lat": "40.126117898564424"
    },
    {
      "id": "pt.ine.add.PTCONT.1342767",
      "street": "R JOAO PEDRO TOMAS PIPPA",
      "house": "14",
      "postcode": "3200-378",
      "city": "VILARINHO LSA",
      "lon": "-8.24286031841258",
      "lat": "40.125252108732006"
    },
    {
      "id": "pt.ine.add.PTCONT.1344449",
      "street": "R JOÃO PEDRO TOMAS PIPPA",
      "house": "IB",
      "postcode": "3200-378",
      "city": "VILARINHO LSA",
      "lon": "-8.242379700401631",
      "lat": "40.12549572521425"
    },
    {
      "id": "pt.ine.add.PTCONT.1357392",
      "street": "R PADRE JOAQUIM JOSE DOS SANTOS",
      "house": "15",
      "postcode": "3200-378",
      "city": "VILARINHO LSA",
      "lon": "-8.241276713560174",
      "lat": "40.12537968262816"
    },
    {
      "id": "pt.ine.add.PTCONT.1359956",
      "street": "R JOÃO PEDRO TOMAS PIPPA",
      "house": "",
      "postcode": "3200-378",
      "city": "VILARINHO LSA",
      "lon": "-8.242778571484486",
      "lat": "40.12548634218946"
    }
  ]
}