{
  "data": {
    "distrito": "Leiria",
    "concelho": "Caldas da Rainha",
    "freguesia": "União das freguesias de Caldas da Rainha - Nossa Senhora do Pópulo, Coto e São Gregório",
    "OBJECTID": 871,
    "BGRI2021": "10061700808",
    "DT21": "10",
    "DTMN21": "1006",
    "DTMNFR21": "100617",
    "DTMNFRSEC21": "100617008",
    "SECNUM21": "008",
    "SSNUM21": "08",
    "SECSSNUM21": "00808",
    "OBJECTID_1": 87929,
    "DT": "10",
    "CC": "06",
    "fr": "17",
    "SEC": "008",
    "SS": "08"
  },
  "addresses": [
    {
      "id": "pt.ine.add.PTCONT.1982256",
      "street": "R ESTUFAS",
      "house": "2",
      "postcode": "2500-128",
      "city": "CALDAS DA RAINHA",
      "lon": "-9.133351556244568",
      "lat": "39.41572769092259"
    },
    {
      "id": "pt.ine.add.PTCONT.1982257",
      "street": "R ESTUFAS",
      "house": "2",
      "postcode": "2500-128",
      "city": "CALDAS DA RAINHA",
      "lon": "-9.133351556244568",
      "lat": "39.41572769092259"
    },
    {
      "id": "pt.ine.add.PTCONT.1982258",
      "street": "R ESTUFAS",
      "house": "2",
      "postcode": "2500-128",
      "city": "CALDAS DA RAINHA",
      "lon": "-9.133351556244568",
      "lat": "39.41572769092259"
    },
    {
      "id": "pt.ine.add.PTCONT.1982259",
      "street": "R ESTUFAS",
      "house": "2C",
      "postcode": "2500-128",
      "city": "CALDAS DA RAINHA",
      "lon": "-9.133351556244568",
      "lat": "39.41572769092259"
    },
    {
      "id": "pt.ine.add.PTCONT.1982260",
      "street": "R ESTUFAS",
      "house": "2",
      "postcode": "2500-128",
      "city": "CALDAS DA RAINHA",
      "lon": "-9.133351556244568",
      "lat": "39.41572769092259"
    },
    {
      "id": "pt.ine.add.PTCONT.1983864",
      "street": "R ESTUFAS",
      "house": "2",
      "postcode": "2500-128",
      "city": "CALDAS DA RAINHA",
      "lon": "-9.133351556244568",
      "lat": "39.41572769092259"
    },
    {
      "id": "pt.ine.add.PTCONT.1986637",
      "street": "R DR ARTUR FIGUEIROA REGO",
      "house": "53",
      "postcode": "2500-186",
      "city": "CALDAS DA RAINHA",
      "lon": "-9.133169780530565",
      "lat": "39.41600846583729"
    },
    {
      "id": "pt.ine.add.PTCONT.1991093",
      "street": "R DR ARTUR FIGUEIROA REGO",
      "house": "51",
      "postcode": "2500-186",
      "city": "CALDAS DA RAINHA",
      "lon": "-9.133329365268859",
      "lat": "39.4157999364478"
    },
    {
      "id": "pt.ine.add.PTCONT.1991094",
      "street": "R DR ARTUR FIGUEIROA REGO",
      "house": "49",
      "postcode": "2500-186",
      "city": "CALDAS DA RAINHA",
      "lon": "-9.133329365268859",
      "lat": "39.4157999364478"
    },
    {
      "id": "pt.ine.add.PTCONT.2004075",
      "street": "R CHICO FALAU",
      "house": "10",
      "postcode": "2500-288",
      "city": "CALDAS DA RAINHA",
      "lon": "-9.13407306970005",
      "lat": "39.415838573445924"
    },
    {
      "id": "pt.ine.add.PTCONT.2006124",
      "street": "R DR ARTUR FIGUEIROA REGO",
      "house": "65",
      "postcode": "2500-186",
      "city": "CALDAS DA RAINHA",
      "lon": "-9.132809312198255",
      "lat": "39.41678615240571"
    },
    {
      "id": "pt.ine.add.PTCONT.2006125",
      "street": "R DR ARTUR FIGUEIROA REGO",
      "house": "65",
      "postcode": "2500-186",
      "city": "CALDAS DA RAINHA",
      "lon": "-9.132809312198255",
      "lat": "39.41678615240571"
    },
    {
      "id": "pt.ine.add.PTCONT.2012950",
      "street": "R DR ARTUR FIGUEIROA REGO",
      "house": "67 C",
      "postcode": "2500-186",
      "city": "CALDAS DA RAINHA",
      "lon": "-9.133071048077177",
      "lat": "39.417225237729966"
    },
    {
      "id": "pt.ine.add.PTCONT.2015212",
      "street": "R PALHAGUEIRA",
      "house": "",
      "postcode": "2500-068",
      "city": "CALDAS DA RAINHA",
      "lon": "-9.134145531262515",
      "lat": "39.41765733097858"
    },
    {
      "id": "pt.ine.add.PTCONT.2019136",
      "street": "R DR ARTUR FIGUEIROA REGO",
      "house": "71",
      "postcode": "2500-186",
      "city": "CALDAS DA RAINHA",
      "lon": "-9.132467556168054",
      "lat": "39.41724843773368"
    },
    {
      "id": "pt.ine.add.PTCONT.2039294",
      "street": "R DR ARTUR FIGUEIROA REGO",
      "house": "67 D",
      "postcode": "2500-186",
      "city": "CALDAS DA RAINHA",
      "lon": "-9.133187668433019",
      "lat": "39.41726026249644"
    },
    {
      "id": "pt.ine.add.PTCONT.2039299",
      "street": "R DR ARTUR FIGUEIROA REGO",
      "house": "67 D",
      "postcode": "2500-186",
      "city": "CALDAS DA RAINHA",
      "lon": "-9.133187668433019",
      "lat": "39.41726026249644"
    },
    {
      "id": "pt.ine.add.PTCONT.2039300",
      "street": "R DR ARTUR FIGUEIROA REGO",
      "house": "67",
      "postcode": "2500-186",
      "city": "CALDAS DA RAINHA",
      "lon": "-9.133187668433019",
      "lat": "39.41726026249644"
    },
    {
      "id": "pt.ine.add.PTCONT.2039301",
      "street": "R DR ARTUR FIGUEIROA REGO",
      "house": "67 D",
      "postcode": "2500-186",
      "city": "CALDAS DA RAINHA",
      "lon": "-9.133187668433019",
      "lat": "39.41726026249644"
    },
    {
      "id": "pt.ine.add.PTCONT.2045898",
      "street": "R CHICO FALAU",
      "house": "5",
      "postcode": "2500-288",
      "city": "CALDAS DA RAINHA",
      "lon": "-9.134954680726649",
      "lat": "39.415776942816414"
    },
    {
      "id": "pt.ine.add.PTCONT.2045899",
      "street": "R CHICO FALAU",
      "house": "5",
      "postcode": "2500-288",
      "city": "CALDAS DA RAINHA",
      "lon": "-9.134954680726649",
      "lat": "39.415776942816414"
    },
    {
      "id": "pt.ine.add.PTCONT.2045900",
      "street": "R CHICO FALAU",
      "house": "5",
      "postcode": "2500-288",
      "city": "CALDAS DA RAINHA",
      "lon": "-9.134954680726649",
      "lat": "39.415776942816414"
    },
    {
      "id": "pt.ine.add.PTCONT.2053692",
      "street": "R DR ARTUR FIGUEIROA REGO",
      "house": "67 E",
      "postcode": "2500-186",
      "city": "CALDAS DA RAINHA",
      "lon": "-9.133245849952417",
      "lat": "39.41726876910501"
    },
    {
      "id": "pt.ine.add.PTCONT.2063227",
      "street": "R DR ARTUR FIGUEIROA REGO",
      "house": "67 B",
      "postcode": "2500-186",
      "city": "CALDAS DA RAINHA",
      "lon": "-9.132989388162654",
      "lat": "39.41719891917668"
    },
    {
      "id": "pt.ine.add.PTCONT.2065861",
      "street": "R CHICO FALAU",
      "house": "3",
      "postcode": "2500-288",
      "city": "CALDAS DA RAINHA",
      "lon": "-9.134686354750098",
      "lat": "39.41568918510111"
    },
    {
      "id": "pt.ine.add.PTCONT.2065862",
      "street": "R CHICO FALAU",
      "house": "3",
      "postcode": "2500-288",
      "city": "CALDAS DA RAINHA",
      "lon": "-9.134686354750098",
      "lat": "39.41568918510111"
    },
    {
      "id": "pt.ine.add.PTCONT.2065863",
      "street": "R CHICO FALAU",
      "house": "3",
      "postcode": "2500-288",
      "city": "CALDAS DA RAINHA",
      "lon": "-9.134686354750098",
      "lat": "39.41568918510111"
    },
    {
      "id": "pt.ine.add.PTCONT.2065864",
      "street": "R CHICO FALAU",
      "house": "3",
      "postcode": "2500-288",
      "city": "CALDAS DA RAINHA",
      "lon": "-9.134686354750098",
      "lat": "39.41568918510111"
    },
    {
      "id": "pt.ine.add.PTCONT.2067788",
      "street": "R DR ARTUR FIGUEIROA REGO",
      "house": "67 F",
      "postcode": "2500-186",
      "city": "CALDAS DA RAINHA",
      "lon": "-9.13337343744535",
      "lat": "39.41725866520526"
    },
    {
      "id": "pt.ine.add.PTCONT.2069280",
      "street": "R PALHAGUEIRA",
      "house": "SIN",
      "postcode": "2500-186",
      "city": "CALDAS DA RAINHA",
      "lon": "-9.134128750884056",
      "lat": "39.41810781715289"
    },
    {
      "id": "pt.ine.add.PTCONT.2084910",
      "street": "R PALHAGUEIRA",
      "house": "32",
      "postcode": "2500-186",
      "city": "CALDAS DA RAINHA",
      "lon": "-9.133162617308557",
      "lat": "39.41794499742907"
    },
    {
      "id": "pt.ine.add.PTCONT.2101866",
      "street": "R DR ARTUR FIGUEIROA REGO",
      "house": "77",
      "postcode": "2500-186",
      "city": "CALDAS DA RAINHA",
      "lon": "-9.132528052564926",
      "lat": "39.41741904788083"
    },
    {
      "id": "pt.ine.add.PTCONT.2120198",
      "street": "R DR ARTUR FIGUEIROA REGO",
      "house": "67 A",
      "postcode": "2500-186",
      "city": "CALDAS DA RAINHA",
      "lon": "-9.132987200812195",
      "lat": "39.41704582174751"
    },
    {
      "id": "pt.ine.add.PTCONT.2120199",
      "street": "R DR ARTUR FIGUEIROA REGO",
      "house": "67 4",
      "postcode": "2500-186",
      "city": "CALDAS DA RAINHA",
      "lon": "-9.13320612781293",
      "lat": "39.4169268508203"
    },
    {
      "id": "pt.ine.add.PTCONT.2140321",
      "street": "R CHICO FALAU",
      "house": "6",
      "postcode": "2500-128",
      "city": "CALDAS DA RAINHA",
      "lon": "-9.133653553004034",
      "lat": "39.415734100563796"
    },
    {
      "id": "pt.ine.add.PTCONT.2161872",
      "street": "R DR ARTUR FIGUEIROA REGO",
      "house": "68",
      "postcode": "2500-186",
      "city": "CALDAS DA RAINHA",
      "lon": "-9.132730611456473",
      "lat": "39.41696696550044"
    },
    {
      "id": "pt.ine.add.PTCONT.2161873",
      "street": "R DR ARTUR FIGUEIROA REGO",
      "house": "N 67",
      "postcode": "2500-186",
      "city": "CALDAS DA RAINHA",
      "lon": "-9.132730611456473",
      "lat": "39.41696696550044"
    },
    {
      "id": "pt.ine.add.PTCONT.2161874",
      "street": "R DR ARTUR FIGUEIROA REGO",
      "house": "67",
      "postcode": "2500-186",
      "city": "CALDAS DA RAINHA",
      "lon": "-9.132730611456473",
      "lat": "39.41696696550044"
    },
    {
      "id": "pt.ine.add.PTCONT.2161875",
      "street": "R DR ARTUR FIGUEIROA REGO",
      "house": "67",
      "postcode": "2500-186",
      "city": "CALDAS DA RAINHA",
      "lon": "-9.132730611456473",
      "lat": "39.41696696550044"
    },
    {
      "id": "pt.ine.add.PTCONT.2161876",
      "street": "R DR ARTUR FIGUEIROA REGO",
      "house": "67",
      "postcode": "2500-186",
      "city": "CALDAS DA RAINHA",
      "lon": "-9.132730611456473",
      "lat": "39.41696696550044"
    },
    {
      "id": "pt.ine.add.PTCONT.2183078",
      "street": "R CHICO FALAÚ",
      "house": "30",
      "postcode": "2500-066",
      "city": "CALDAS DA RAINHA",
      "lon": "-9.135689356123741",
      "lat": "39.416806399296306"
    },
    {
      "id": "pt.ine.add.PTCONT.2188070",
      "street": "R DR ARTUR FIGUEIROA REGO",
      "house": "69",
      "postcode": "2500-186",
      "city": "CALDAS DA RAINHA",
      "lon": "-9.132512969568968",
      "lat": "39.417175992867946"
    },
    {
      "id": "pt.ine.add.PTCONT.2188071",
      "street": "R DR ARTUR FIGUEIROA REGO",
      "house": "70",
      "postcode": "2500-186",
      "city": "CALDAS DA RAINHA",
      "lon": "-9.132512969568968",
      "lat": "39.417175992867946"
    },
    {
      "id": "pt.ine.add.PTCONT.2188072",
      "street": "R DR ARTUR FIGUEIROA REGO",
      "house": "69",
      "postcode": "2500-186",
      "city": "CALDAS DA RAINHA",
      "lon": "-9.132512969568968",
      "lat": "39.417175992867946"
    },
    {
      "id": "pt.ine.add.PTCONT.2188121",
      "street": "R CHICO FALAU",
      "house": "8",
      "postcode": "2500-288",
      "city": "CALDAS DA RAINHA",
      "lon": "-9.133863697521788",
      "lat": "39.415813354388554"
    },
    {
      "id": "pt.ine.add.PTCONT.2188122",
      "street": "R CHICO FALAU",
      "house": "8",
      "postcode": "2500-288",
      "city": "CALDAS DA RAINHA",
      "lon": "-9.133863697521788",
      "lat": "39.415813354388554"
    },
    {
      "id": "pt.ine.add.PTCONT.2191962",
      "street": "R DR ARTUR FIGUEIROA REGO",
      "house": "73",
      "postcode": "2500-186",
      "city": "CALDAS DA RAINHA",
      "lon": "-9.132445878222557",
      "lat": "39.41735670601853"
    },
    {
      "id": "pt.ine.add.PTCONT.2192658",
      "street": "R DR ARTUR FIGUEIROA REGO",
      "house": "74",
      "postcode": "2500-186",
      "city": "CALDAS DA RAINHA",
      "lon": "-9.132470771217239",
      "lat": "39.41747358103828"
    },
    {
      "id": "pt.ine.add.PTCONT.2192659",
      "street": "R DR ARTUR FIGUEIROA REGO",
      "house": "74",
      "postcode": "2500-186",
      "city": "CALDAS DA RAINHA",
      "lon": "-9.132470771217239",
      "lat": "39.41747358103828"
    },
    {
      "id": "pt.ine.add.PTCONT.2192660",
      "street": "R DR ARTUR FIGUEIROA REGO",
      "house": "74",
      "postcode": "2500-186",
      "city": "CALDAS DA RAINHA",
      "lon": "-9.132470771217239",
      "lat": "39.41747358103828"
    },
    {
      "id": "pt.ine.add.PTCONT.2203540",
      "street": "R DR ARTUR FIGUEIROA REGO",
      "house": "61",
      "postcode": "2500-186",
      "city": "CALDAS DA RAINHA",
      "lon": "-9.132921300031823",
      "lat": "39.416496971095356"
    },
    {
      "id": "pt.ine.add.PTCONT.2203541",
      "street": "R DR ARTUR FIGUEIROA REGO",
      "house": "61",
      "postcode": "2500-186",
      "city": "CALDAS DA RAINHA",
      "lon": "-9.132921300031823",
      "lat": "39.416496971095356"
    },
    {
      "id": "pt.ine.add.PTCONT.2205416",
      "street": "R DR ARTUR FIGUEIROA REGO",
      "house": "61",
      "postcode": "2500-186",
      "city": "CALDAS DA RAINHA",
      "lon": "-9.132921300031823",
      "lat": "39.416496971095356"
    },
    {
      "id": "pt.ine.add.PTCONT.2208489",
      "street": "R CHICO FALAU",
      "house": "2",
      "postcode": "2500-288",
      "city": "CALDAS DA RAINHA",
      "lon": "-9.135700708572859",
      "lat": "39.41678828777725"
    },
    {
      "id": "pt.ine.add.PTCONT.2229611",
      "street": "R DR ARTUR FIGUEIROA REGO",
      "house": "81",
      "postcode": "2500-186",
      "city": "CALDAS DA RAINHA",
      "lon": "-9.1324950212677",
      "lat": "39.41754542739038"
    },
    {
      "id": "pt.ine.add.PTCONT.2264566",
      "street": "R DR ARTUR FIGUEIROA REGO",
      "house": "7I",
      "postcode": "2500-186",
      "city": "CALDAS DA RAINHA",
      "lon": "-9.13256134097457",
      "lat": "39.41731067982473"
    },
    {
      "id": "pt.ine.add.PTCONT.2266847",
      "street": "R CHICO FALAU",
      "house": "5",
      "postcode": "2500-288",
      "city": "CALDAS DA RAINHA",
      "lon": "-9.134954680726649",
      "lat": "39.415776942816414"
    }
  ]
}