{
  "data": {
    "distrito": "Coimbra",
    "concelho": "Montemor-O-Velho",
    "freguesia": "União das freguesias de Abrunheira, Verride e Vila Nova da Barca",
    "OBJECTID": 620,
    "BGRI2021": "06101500120",
    "DT21": "06",
    "DTMN21": "0610",
    "DTMNFR21": "061015",
    "DTMNFRSEC21": "061015001",
    "SECNUM21": "001",
    "SSNUM21": "20",
    "SECSSNUM21": "00120",
    "OBJECTID_1": 54312,
    "DT": "06",
    "CC": "10",
    "fr": "15",
    "SEC": "001",
    "SS": "20"
  },
  "addresses": [
    {
      "id": "pt.ine.add.PTCONT.1122561",
      "street": "R LADEIRA DO RIO",
      "house": "",
      "postcode": "3140-609",
      "city": "VERRIDE",
      "lon": "-8.707354719458252",
      "lat": "40.13994699557368"
    },
    {
      "id": "pt.ine.add.PTCONT.1143020",
      "street": "R S SEBASTIÃO",
      "house": "1",
      "postcode": "3140-601",
      "city": "VERRIDE",
      "lon": "-8.707402417234707",
      "lat": "40.13446216129103"
    },
    {
      "id": "pt.ine.add.PTCONT.1149410",
      "street": "R S SEBASTIÃO",
      "house": "25",
      "postcode": "3140-601",
      "city": "VERRIDE",
      "lon": "-8.70638513573411",
      "lat": "40.134881473646715"
    },
    {
      "id": "pt.ine.add.PTCONT.1188821",
      "street": "R S SEBASTIÃO",
      "house": "15",
      "postcode": "3140-601",
      "city": "VERRIDE",
      "lon": "-8.706828943971008",
      "lat": "40.13463611615321"
    },
    {
      "id": "pt.ine.add.PTCONT.1190769",
      "street": "BC MINA D AGUA",
      "house": "17",
      "postcode": "3140-601",
      "city": "VERRIDE",
      "lon": "-8.705685145521132",
      "lat": "40.136758166093045"
    },
    {
      "id": "pt.ine.add.PTCONT.1202532",
      "street": "R MARTIM LONGO",
      "house": "",
      "postcode": "3140-601",
      "city": "VERRIDE",
      "lon": "-8.705897831960852",
      "lat": "40.13972906340793"
    },
    {
      "id": "pt.ine.add.PTCONT.1205373",
      "street": "R S SEBASTIÃO",
      "house": "5",
      "postcode": "3140-601",
      "city": "VERRIDE",
      "lon": "-8.707191982815619",
      "lat": "40.13455326380019"
    },
    {
      "id": "pt.ine.add.PTCONT.1208943",
      "street": "R ASSOCIAÇÃO FILARMÓNICA VERRIDENSE",
      "house": "12",
      "postcode": "3140-608",
      "city": "VERRIDE",
      "lon": "-8.707463128755341",
      "lat": "40.13470501981052"
    },
    {
      "id": "pt.ine.add.PTCONT.1214006",
      "street": "R S SEBASTIÃO",
      "house": "21",
      "postcode": "3140-601",
      "city": "VERRIDE",
      "lon": "-8.706735156236643",
      "lat": "40.13464558667315"
    },
    {
      "id": "pt.ine.add.PTCONT.1217128",
      "street": "R ASSOCIAÇÃO FILARMÓNICA VERRIDENSE",
      "house": "18",
      "postcode": "3140-608",
      "city": "VERRIDE",
      "lon": "-8.707558508865345",
      "lat": "40.13488466493962"
    },
    {
      "id": "pt.ine.add.PTCONT.1224599",
      "street": "R S SEBASTIÃO",
      "house": "3",
      "postcode": "3140-601",
      "city": "VERRIDE",
      "lon": "-8.707262152947754",
      "lat": "40.13452589818471"
    },
    {
      "id": "pt.ine.add.PTCONT.1235351",
      "street": "R ASSOCIAÇÃO FILARMÓNICA VERRIDENSE",
      "house": "14",
      "postcode": "3140-608",
      "city": "VERRIDE",
      "lon": "-8.707522551704463",
      "lat": "40.134794784188486"
    },
    {
      "id": "pt.ine.add.PTCONT.1244983",
      "street": "R LADEIRA DO RIO",
      "house": "",
      "postcode": "3140-609",
      "city": "VERRIDE",
      "lon": "-8.708508165388468",
      "lat": "40.138968632359365"
    },
    {
      "id": "pt.ine.add.PTCONT.1249264",
      "street": "BC MINA D AGUA",
      "house": "",
      "postcode": "3140-601",
      "city": "VERRIDE",
      "lon": "-8.705288781517044",
      "lat": "40.13706632609684"
    },
    {
      "id": "pt.ine.add.PTCONT.1261713",
      "street": "R MELHOR VISTA",
      "house": "",
      "postcode": "3140-601",
      "city": "VERRIDE",
      "lon": "-8.705059429936174",
      "lat": "40.13630195682634"
    },
    {
      "id": "pt.ine.add.PTCONT.1274038",
      "street": "R S SEBASTIÃO",
      "house": "9",
      "postcode": "3140-601",
      "city": "VERRIDE",
      "lon": "-8.707157920696163",
      "lat": "40.13468852132874"
    },
    {
      "id": "pt.ine.add.PTCONT.1284712",
      "street": "R ASSOCIAÇÃO FILARMÓNICA VERRIDENSE",
      "house": "24",
      "postcode": "3140-608",
      "city": "VERRIDE",
      "lon": "-8.708224969108105",
      "lat": "40.13599808987537"
    },
    {
      "id": "pt.ine.add.PTCONT.1286262",
      "street": "BC MINA D AGUA",
      "house": "13",
      "postcode": "3140-601",
      "city": "VERRIDE",
      "lon": "-8.705533595001196",
      "lat": "40.136875992136034"
    },
    {
      "id": "pt.ine.add.PTCONT.1314406",
      "street": "R MELHOR VISTA",
      "house": "13",
      "postcode": "3140-601",
      "city": "VERRIDE",
      "lon": "-8.7049590397611",
      "lat": "40.13692386034421"
    },
    {
      "id": "pt.ine.add.PTCONT.1318703",
      "street": "R LADEIRA DO RIO",
      "house": "",
      "postcode": "3140-609",
      "city": "VERRIDE",
      "lon": "-8.708587565980082",
      "lat": "40.138644025227855"
    },
    {
      "id": "pt.ine.add.PTCONT.1324457",
      "street": "R MELHOR VISTA",
      "house": "17",
      "postcode": "3140-601",
      "city": "VERRIDE",
      "lon": "-8.704971829993868",
      "lat": "40.13704987990402"
    },
    {
      "id": "pt.ine.add.PTCONT.1329407",
      "street": "R S SEBASTIAO",
      "house": "29",
      "postcode": "3140-601",
      "city": "VERRIDE",
      "lon": "-8.706127842324683",
      "lat": "40.13498181209396"
    },
    {
      "id": "pt.ine.add.PTCONT.1344466",
      "street": "R MELHOR VISTA",
      "house": "7",
      "postcode": "3140-601",
      "city": "VERRIDE",
      "lon": "-8.70507508943725",
      "lat": "40.13677018676573"
    },
    {
      "id": "pt.ine.add.PTCONT.1357614",
      "street": "R S SEBASTIÃO",
      "house": "21",
      "postcode": "3140-601",
      "city": "VERRIDE",
      "lon": "-8.706641671305045",
      "lat": "40.13469107926446"
    }
  ]
}