{
  "data": {
    "ilha": "Ilha da Madeira (Madeira)",
    "concelho": "Ribeira Brava",
    "freguesia": "Ribeira Brava",
    "OBJECTID": 55,
    "BGRI2021": "31070200606",
    "DT21": "31",
    "DTMN21": "3107",
    "DTMNFR21": "310702",
    "DTMNFRSEC21": "310702006",
    "SECNUM21": "006",
    "SSNUM21": "06",
    "SECSSNUM21": "00606",
    "OBJECTID_1": 204942,
    "DT": "31",
    "CC": "07",
    "fr": "02",
    "SEC": "006",
    "SS": "06",
    "BGRI2021_1": "31070200606"
  },
  "addresses": [
    {
      "id": "pt.ine.add.MAD.37734",
      "street": "R INF D HENRIQUE",
      "house": "12",
      "postcode": "9350-218",
      "city": "RIBEIRA BRAVA",
      "lon": "-17.064005621172548",
      "lat": "32.672305552322854"
    },
    {
      "id": "pt.ine.add.MAD.37735",
      "street": "R INF D HENRIQUE",
      "house": "1",
      "postcode": "9350-218",
      "city": "RIBEIRA BRAVA",
      "lon": "-17.063842216789983",
      "lat": "32.672154928398264"
    },
    {
      "id": "pt.ine.add.MAD.37736",
      "street": "R VISCONDE",
      "house": "81",
      "postcode": "9350-213",
      "city": "RIBEIRA BRAVA",
      "lon": "-17.063986253265274",
      "lat": "32.67192709858083"
    },
    {
      "id": "pt.ine.add.MAD.37737",
      "street": "R VISCONDE",
      "house": "81",
      "postcode": "9350-213",
      "city": "RIBEIRA BRAVA",
      "lon": "-17.063986253265274",
      "lat": "32.67192709858083"
    },
    {
      "id": "pt.ine.add.MAD.37738",
      "street": "R VISCONDE",
      "house": "81",
      "postcode": "9350-213",
      "city": "RIBEIRA BRAVA",
      "lon": "-17.063986253265274",
      "lat": "32.67192709858083"
    },
    {
      "id": "pt.ine.add.MAD.37739",
      "street": "R VISCONDE",
      "house": "81",
      "postcode": "9350-213",
      "city": "RIBEIRA BRAVA",
      "lon": "-17.063986253265274",
      "lat": "32.67192709858083"
    },
    {
      "id": "pt.ine.add.MAD.37740",
      "street": "R VISCONDE",
      "house": "3",
      "postcode": "9350-213",
      "city": "RIBEIRA BRAVA",
      "lon": "-17.063986253265274",
      "lat": "32.67192709858083"
    },
    {
      "id": "pt.ine.add.MAD.37741",
      "street": "R VISCONDE",
      "house": "81",
      "postcode": "9350-213",
      "city": "RIBEIRA BRAVA",
      "lon": "-17.063986253265274",
      "lat": "32.67192709858083"
    },
    {
      "id": "pt.ine.add.MAD.38504",
      "street": "R VISCONDE",
      "house": "61",
      "postcode": "9350-213",
      "city": "RIBEIRA BRAVA",
      "lon": "-17.064159361418813",
      "lat": "32.67157253271864"
    },
    {
      "id": "pt.ine.add.MAD.38505",
      "street": "R VISCONDE",
      "house": "49",
      "postcode": "9350-213",
      "city": "RIBEIRA BRAVA",
      "lon": "-17.064241104205713",
      "lat": "32.67141787486122"
    },
    {
      "id": "pt.ine.add.MAD.38506",
      "street": "R MANUEL ARRIAGA",
      "house": "9",
      "postcode": "9350-221",
      "city": "RIBEIRA BRAVA",
      "lon": "-17.064271628064976",
      "lat": "32.6713542437912"
    },
    {
      "id": "pt.ine.add.MAD.38507",
      "street": "R MAJOR JOÃO AUGUSTO PEREIRA",
      "house": "18",
      "postcode": "9350-220",
      "city": "RIBEIRA BRAVA",
      "lon": "-17.064426861909237",
      "lat": "32.67161322235658"
    },
    {
      "id": "pt.ine.add.MAD.38508",
      "street": "R S BENTO",
      "house": "16",
      "postcode": "9350-223",
      "city": "RIBEIRA BRAVA",
      "lon": "-17.064068121329672",
      "lat": "32.67224139512146"
    },
    {
      "id": "pt.ine.add.MAD.55879",
      "street": "R VISCONDE",
      "house": "97",
      "postcode": "9350-213",
      "city": "RIBEIRA BRAVA",
      "lon": "-17.063893436305005",
      "lat": "32.67206390171575"
    },
    {
      "id": "pt.ine.add.MAD.55880",
      "street": "R S BENTO",
      "house": "14",
      "postcode": "9350-223",
      "city": "RIBEIRA BRAVA",
      "lon": "-17.064242059239366",
      "lat": "32.671922889064234"
    },
    {
      "id": "pt.ine.add.MAD.55881",
      "street": "R S BENTO",
      "house": "14",
      "postcode": "9350-223",
      "city": "RIBEIRA BRAVA",
      "lon": "-17.064242059239366",
      "lat": "32.671922889064234"
    },
    {
      "id": "pt.ine.add.MAD.55882",
      "street": "R S BENTO",
      "house": "14",
      "postcode": "9350-223",
      "city": "RIBEIRA BRAVA",
      "lon": "-17.064242059239366",
      "lat": "32.671922889064234"
    },
    {
      "id": "pt.ine.add.MAD.55883",
      "street": "R S BENTO",
      "house": "14",
      "postcode": "9350-223",
      "city": "RIBEIRA BRAVA",
      "lon": "-17.064242059239366",
      "lat": "32.671922889064234"
    },
    {
      "id": "pt.ine.add.MAD.55884",
      "street": "R S BENTO",
      "house": "14",
      "postcode": "9350-223",
      "city": "RIBEIRA BRAVA",
      "lon": "-17.064242059239366",
      "lat": "32.671922889064234"
    },
    {
      "id": "pt.ine.add.MAD.55885",
      "street": "R S BENTO",
      "house": "14",
      "postcode": "9350-223",
      "city": "RIBEIRA BRAVA",
      "lon": "-17.064242059239366",
      "lat": "32.671922889064234"
    },
    {
      "id": "pt.ine.add.MAD.55886",
      "street": "R S BENTO",
      "house": "14",
      "postcode": "9350-223",
      "city": "RIBEIRA BRAVA",
      "lon": "-17.064242059239366",
      "lat": "32.671922889064234"
    },
    {
      "id": "pt.ine.add.MAD.55887",
      "street": "R S BENTO",
      "house": "14",
      "postcode": "9350-223",
      "city": "RIBEIRA BRAVA",
      "lon": "-17.064242059239366",
      "lat": "32.671922889064234"
    },
    {
      "id": "pt.ine.add.MAD.56078",
      "street": "R S BENTO",
      "house": "14",
      "postcode": "9350-223",
      "city": "RIBEIRA BRAVA",
      "lon": "-17.064242059239366",
      "lat": "32.671922889064234"
    },
    {
      "id": "pt.ine.add.MAD.56079",
      "street": "R S BENTO",
      "house": "14",
      "postcode": "9350-223",
      "city": "RIBEIRA BRAVA",
      "lon": "-17.064242059239366",
      "lat": "32.671922889064234"
    },
    {
      "id": "pt.ine.add.MAD.56080",
      "street": "R S BENTO",
      "house": "14",
      "postcode": "9350-223",
      "city": "RIBEIRA BRAVA",
      "lon": "-17.064242059239366",
      "lat": "32.671922889064234"
    },
    {
      "id": "pt.ine.add.MAD.56081",
      "street": "R S BENTO",
      "house": "14",
      "postcode": "9350-223",
      "city": "RIBEIRA BRAVA",
      "lon": "-17.064242059239366",
      "lat": "32.671922889064234"
    },
    {
      "id": "pt.ine.add.MAD.56082",
      "street": "R S BENTO",
      "house": "14",
      "postcode": "9350-223",
      "city": "RIBEIRA BRAVA",
      "lon": "-17.064242059239366",
      "lat": "32.671922889064234"
    },
    {
      "id": "pt.ine.add.MAD.56083",
      "street": "R S BENTO",
      "house": "14",
      "postcode": "9350-223",
      "city": "RIBEIRA BRAVA",
      "lon": "-17.064242059239366",
      "lat": "32.671922889064234"
    },
    {
      "id": "pt.ine.add.MAD.56084",
      "street": "R S BENTO",
      "house": "14",
      "postcode": "9350-223",
      "city": "RIBEIRA BRAVA",
      "lon": "-17.064242059239366",
      "lat": "32.671922889064234"
    },
    {
      "id": "pt.ine.add.MAD.56085",
      "street": "R S BENTO",
      "house": "14",
      "postcode": "9350-223",
      "city": "RIBEIRA BRAVA",
      "lon": "-17.064242059239366",
      "lat": "32.671922889064234"
    },
    {
      "id": "pt.ine.add.MAD.56086",
      "street": "R S BENTO",
      "house": "14",
      "postcode": "9350-223",
      "city": "RIBEIRA BRAVA",
      "lon": "-17.064242059239366",
      "lat": "32.671922889064234"
    },
    {
      "id": "pt.ine.add.MAD.56087",
      "street": "R S BENTO",
      "house": "14",
      "postcode": "9350-223",
      "city": "RIBEIRA BRAVA",
      "lon": "-17.064242059239366",
      "lat": "32.671922889064234"
    },
    {
      "id": "pt.ine.add.MAD.56088",
      "street": "R S BENTO",
      "house": "14",
      "postcode": "9350-223",
      "city": "RIBEIRA BRAVA",
      "lon": "-17.064242059239366",
      "lat": "32.671922889064234"
    },
    {
      "id": "pt.ine.add.MAD.56089",
      "street": "R S BENTO",
      "house": "14",
      "postcode": "9350-223",
      "city": "RIBEIRA BRAVA",
      "lon": "-17.064242059239366",
      "lat": "32.671922889064234"
    },
    {
      "id": "pt.ine.add.MAD.56090",
      "street": "R S BENTO",
      "house": "14",
      "postcode": "9350-223",
      "city": "RIBEIRA BRAVA",
      "lon": "-17.064242059239366",
      "lat": "32.671922889064234"
    },
    {
      "id": "pt.ine.add.MAD.56091",
      "street": "R S BENTO",
      "house": "14",
      "postcode": "9350-223",
      "city": "RIBEIRA BRAVA",
      "lon": "-17.064242059239366",
      "lat": "32.671922889064234"
    },
    {
      "id": "pt.ine.add.MAD.56279",
      "street": "R S BENTO",
      "house": "14",
      "postcode": "9350-223",
      "city": "RIBEIRA BRAVA",
      "lon": "-17.064242059239366",
      "lat": "32.671922889064234"
    },
    {
      "id": "pt.ine.add.MAD.57848",
      "street": "R MAJOR JOÃO AUGUSTO PEREIRA",
      "house": "11",
      "postcode": "9350-220",
      "city": "RIBEIRA BRAVA",
      "lon": "-17.064424995280635",
      "lat": "32.671532087558134"
    },
    {
      "id": "pt.ine.add.MAD.72572",
      "street": "BC CAVALEIROS",
      "house": "2",
      "postcode": "9350-202",
      "city": "RIBEIRA BRAVA",
      "lon": "-17.063929559260153",
      "lat": "32.67224367516855"
    },
    {
      "id": "pt.ine.add.MAD.72573",
      "street": "R VISCONDE",
      "house": "79",
      "postcode": "9350-213",
      "city": "RIBEIRA BRAVA",
      "lon": "-17.064016362733238",
      "lat": "32.6718454376044"
    },
    {
      "id": "pt.ine.add.MAD.87751",
      "street": "R MAJOR JOÃO AUGUSTO PEREIRA",
      "house": "10",
      "postcode": "9350-220",
      "city": "RIBEIRA BRAVA",
      "lon": "-17.06421016554378",
      "lat": "32.671463475966995"
    },
    {
      "id": "pt.ine.add.MAD.95277",
      "street": "R MAJOR JOÃO AUGUSTO PEREIRA",
      "house": "4",
      "postcode": "9350-220",
      "city": "RIBEIRA BRAVA",
      "lon": "-17.064297922432306",
      "lat": "32.671570252459226"
    },
    {
      "id": "pt.ine.add.MAD.97355",
      "street": "R MAJOR JOÃO AUGUSTO PEREIRA",
      "house": "9",
      "postcode": "9350-220",
      "city": "RIBEIRA BRAVA",
      "lon": "-17.064328446296265",
      "lat": "32.67150662137636"
    },
    {
      "id": "pt.ine.add.MAD.100091",
      "street": "R S BENTO",
      "house": "14",
      "postcode": "9350-223",
      "city": "RIBEIRA BRAVA",
      "lon": "-17.064242059239366",
      "lat": "32.671922889064234"
    },
    {
      "id": "pt.ine.add.MAD.100092",
      "street": "R S BENTO",
      "house": "14",
      "postcode": "9350-223",
      "city": "RIBEIRA BRAVA",
      "lon": "-17.064242059239366",
      "lat": "32.671922889064234"
    },
    {
      "id": "pt.ine.add.MAD.100713",
      "street": "R MAJOR JOÃO AUGUSTO PEREIRA",
      "house": "10",
      "postcode": "9350-220",
      "city": "RIBEIRA BRAVA",
      "lon": "-17.06421016554378",
      "lat": "32.671463475966995"
    },
    {
      "id": "pt.ine.add.MAD.100982",
      "street": "R MANUEL ARRIAGA",
      "house": "",
      "postcode": "9350-221",
      "city": "RIBEIRA BRAVA",
      "lon": "-17.0645188479593",
      "lat": "32.67144035895997"
    },
    {
      "id": "pt.ine.add.MAD.101034",
      "street": "R S BENTO",
      "house": "14",
      "postcode": "9350-223",
      "city": "RIBEIRA BRAVA",
      "lon": "-17.064242059239366",
      "lat": "32.671922889064234"
    },
    {
      "id": "pt.ine.add.MAD.101160",
      "street": "BC CAVALEIROS",
      "house": "2",
      "postcode": "9350-202",
      "city": "RIBEIRA BRAVA",
      "lon": "-17.063929559260153",
      "lat": "32.67224367516855"
    },
    {
      "id": "pt.ine.add.MAD.103449",
      "street": "R S BENTO",
      "house": "14",
      "postcode": "9350-223",
      "city": "RIBEIRA BRAVA",
      "lon": "-17.064242059239366",
      "lat": "32.671922889064234"
    },
    {
      "id": "pt.ine.add.MAD.104440",
      "street": "R VISCONDE",
      "house": "65",
      "postcode": "9350-213",
      "city": "RIBEIRA BRAVA",
      "lon": "-17.06410793506046",
      "lat": "32.67165454451505"
    }
  ]
}