{
  "data": {
    "distrito": "Guarda",
    "concelho": "Gouveia",
    "freguesia": "União das freguesias de Aldeias e Mangualde da Serra",
    "OBJECTID": 24,
    "BGRI2021": "09062300111",
    "DT21": "09",
    "DTMN21": "0906",
    "DTMNFR21": "090623",
    "DTMNFRSEC21": "090623001",
    "SECNUM21": "001",
    "SSNUM21": "11",
    "SECSSNUM21": "00111",
    "OBJECTID_1": 77321,
    "DT": "09",
    "CC": "06",
    "fr": "23",
    "SEC": "001",
    "SS": "11"
  },
  "addresses": [
    {
      "id": "pt.ine.add.PTCONT.1906848",
      "street": "R OUTEIRO",
      "house": "",
      "postcode": "6290-111",
      "city": "MANGUALDE DA SERRA",
      "lon": "-7.620881454782339",
      "lat": "40.46496428957698"
    },
    {
      "id": "pt.ine.add.PTCONT.1913330",
      "street": "LG AMOREIRAS",
      "house": "14",
      "postcode": "6290-111",
      "city": "MANGUALDE DA SERRA",
      "lon": "-7.620514790681406",
      "lat": "40.465115756198955"
    },
    {
      "id": "pt.ine.add.PTCONT.1914760",
      "street": "LG ESPERANÇA",
      "house": "7",
      "postcode": "6290-111",
      "city": "MANGUALDE DA SERRA",
      "lon": "-7.620739012795781",
      "lat": "40.46508973408051"
    },
    {
      "id": "pt.ine.add.PTCONT.1919018",
      "street": "TV 1A DO OUTEIRO",
      "house": "1",
      "postcode": "6290-111",
      "city": "MANGUALDE DA SERRA",
      "lon": "-7.6207279751634465",
      "lat": "40.46499062558195"
    },
    {
      "id": "pt.ine.add.PTCONT.1923872",
      "street": "ESC OUTEIRO",
      "house": "4",
      "postcode": "6290-111",
      "city": "MANGUALDE DA SERRA",
      "lon": "-7.6208357985694555",
      "lat": "40.464765968094426"
    },
    {
      "id": "pt.ine.add.PTCONT.1930744",
      "street": "LG ESPERANÇA",
      "house": "9",
      "postcode": "6290-111",
      "city": "MANGUALDE DA SERRA",
      "lon": "-7.620798375091312",
      "lat": "40.465035964707354"
    },
    {
      "id": "pt.ine.add.PTCONT.1930745",
      "street": "LG ESPERANÇA",
      "house": "9",
      "postcode": "6290-111",
      "city": "MANGUALDE DA SERRA",
      "lon": "-7.620798375091312",
      "lat": "40.465035964707354"
    },
    {
      "id": "pt.ine.add.PTCONT.1932837",
      "street": "ESC OUTEIRO",
      "house": "6",
      "postcode": "6290-111",
      "city": "MANGUALDE DA SERRA",
      "lon": "-7.620765193625491",
      "lat": "40.464747644329606"
    },
    {
      "id": "pt.ine.add.PTCONT.1933855",
      "street": "LG ESPERANÇA",
      "house": "5",
      "postcode": "6290-111",
      "city": "MANGUALDE DA SERRA",
      "lon": "-7.620643937108547",
      "lat": "40.46518837216856"
    },
    {
      "id": "pt.ine.add.PTCONT.1945717",
      "street": "LG AMOREIRAS",
      "house": "18",
      "postcode": "6290-111",
      "city": "MANGUALDE DA SERRA",
      "lon": "-7.620596228041919",
      "lat": "40.46526020396135"
    },
    {
      "id": "pt.ine.add.PTCONT.1949013",
      "street": "R OUTEIRO",
      "house": "2",
      "postcode": "6290-111",
      "city": "MANGUALDE DA SERRA",
      "lon": "-7.620788021589202",
      "lat": "40.46484680508736"
    },
    {
      "id": "pt.ine.add.PTCONT.1958891",
      "street": "R OUTEIRO",
      "house": "1",
      "postcode": "6290-111",
      "city": "MANGUALDE DA SERRA",
      "lon": "-7.62066970784411",
      "lat": "40.46490031312281"
    },
    {
      "id": "pt.ine.add.PTCONT.1974738",
      "street": "ESC OUTEIRO",
      "house": "1",
      "postcode": "6290-111",
      "city": "MANGUALDE DA SERRA",
      "lon": "-7.620943552850872",
      "lat": "40.46455031560654"
    },
    {
      "id": "pt.ine.add.PTCONT.1860465",
      "street": "ESC OUTEIRO",
      "house": "2",
      "postcode": "6290-111",
      "city": "MANGUALDE DA SERRA",
      "lon": "-7.620917988644235",
      "lat": "40.46481135940014"
    },
    {
      "id": "pt.ine.add.PTCONT.1874726",
      "street": "TV SEGUNDA TRAVESSA DO OUTEIRO",
      "house": "1",
      "postcode": "6290-111",
      "city": "MANGUALDE DA SERRA",
      "lon": "-7.620621999011864",
      "lat": "40.46497214493121"
    },
    {
      "id": "pt.ine.add.PTCONT.1876853",
      "street": "LG AMOREIRAS",
      "house": "16",
      "postcode": "6290-111",
      "city": "MANGUALDE DA SERRA",
      "lon": "-7.62056154140805",
      "lat": "40.465169996004725"
    }
  ]
}