{
  "data": {
    "distrito": "Braga",
    "concelho": "Braga",
    "freguesia": "União das freguesias de Braga (Maximinos, Sé e Cividade)",
    "OBJECTID": 952,
    "BGRI2021": "03036401105",
    "DT21": "03",
    "DTMN21": "0303",
    "DTMNFR21": "030364",
    "DTMNFRSEC21": "030364011",
    "SECNUM21": "011",
    "SSNUM21": "05",
    "SECSSNUM21": "01105",
    "OBJECTID_1": 21777,
    "DT": "03",
    "CC": "03",
    "fr": "64",
    "SEC": "011",
    "SS": "05"
  },
  "addresses": [
    {
      "id": "pt.ine.add.PTCONT.462532",
      "street": "R D FR CAETANO BRANDÃO",
      "house": "184",
      "postcode": "4700-031",
      "city": "BRAGA",
      "lon": "-8.428453621185653",
      "lat": "41.54847004709896"
    },
    {
      "id": "pt.ine.add.PTCONT.501137",
      "street": "R CONS JERONIMO PIMENTEL",
      "house": "17",
      "postcode": "4700-027",
      "city": "BRAGA",
      "lon": "-8.428826013511928",
      "lat": "41.54817385583987"
    },
    {
      "id": "pt.ine.add.PTCONT.501138",
      "street": "R CONS JERONIMO PIMENTEL",
      "house": "17",
      "postcode": "4700-027",
      "city": "BRAGA",
      "lon": "-8.428826013511928",
      "lat": "41.54817385583987"
    },
    {
      "id": "pt.ine.add.PTCONT.501139",
      "street": "R CONS JERONIMO PIMENTEL",
      "house": "17",
      "postcode": "4700-027",
      "city": "BRAGA",
      "lon": "-8.428826013511928",
      "lat": "41.54817385583987"
    },
    {
      "id": "pt.ine.add.PTCONT.528188",
      "street": "R CONS JERONIMO PIMENTEL",
      "house": "28A",
      "postcode": "4700-027",
      "city": "BRAGA",
      "lon": "-8.428372181899379",
      "lat": "41.547963991866894"
    },
    {
      "id": "pt.ine.add.PTCONT.528189",
      "street": "R CONS JERONIMO PIMENTEL",
      "house": "28",
      "postcode": "4700-027",
      "city": "BRAGA",
      "lon": "-8.428372181899379",
      "lat": "41.547963991866894"
    },
    {
      "id": "pt.ine.add.PTCONT.537038",
      "street": "R D FR CAETANO BRANDÃO",
      "house": "176",
      "postcode": "4700-031",
      "city": "BRAGA",
      "lon": "-8.428460930678586",
      "lat": "41.54856026941468"
    },
    {
      "id": "pt.ine.add.PTCONT.550632",
      "street": "R D AFONSO HENRIQUES",
      "house": "4 - 6 - 8",
      "postcode": "4700-030",
      "city": "BRAGA",
      "lon": "-8.428747177393204",
      "lat": "41.54849628693709"
    },
    {
      "id": "pt.ine.add.PTCONT.550633",
      "street": "R D AFONSO HENRIQUES",
      "house": "4 - 6 - 8",
      "postcode": "4700-030",
      "city": "BRAGA",
      "lon": "-8.428747177393204",
      "lat": "41.54849628693709"
    },
    {
      "id": "pt.ine.add.PTCONT.563551",
      "street": "R D FR CAETANO BRANDÃO",
      "house": "216",
      "postcode": "4700-031",
      "city": "BRAGA",
      "lon": "-8.428430435962612",
      "lat": "41.54812546158968"
    },
    {
      "id": "pt.ine.add.PTCONT.563552",
      "street": "R D FR CAETANO BRANDÃO",
      "house": "216",
      "postcode": "4700-031",
      "city": "BRAGA",
      "lon": "-8.428430435962612",
      "lat": "41.54812546158968"
    },
    {
      "id": "pt.ine.add.PTCONT.563553",
      "street": "R D FR CAETANO BRANDÃO",
      "house": "216",
      "postcode": "4700-031",
      "city": "BRAGA",
      "lon": "-8.428430435962612",
      "lat": "41.54812546158968"
    },
    {
      "id": "pt.ine.add.PTCONT.563554",
      "street": "R D FR CAETANO BRANDÃO",
      "house": "216",
      "postcode": "4700-031",
      "city": "BRAGA",
      "lon": "-8.428430435962612",
      "lat": "41.54812546158968"
    },
    {
      "id": "pt.ine.add.PTCONT.563555",
      "street": "R D FR CAETANO BRANDÃO",
      "house": "216",
      "postcode": "4700-031",
      "city": "BRAGA",
      "lon": "-8.428430435962612",
      "lat": "41.54812546158968"
    },
    {
      "id": "pt.ine.add.PTCONT.563556",
      "street": "R D FR CAETANO BRANDÃO",
      "house": "216",
      "postcode": "4700-031",
      "city": "BRAGA",
      "lon": "-8.428430435962612",
      "lat": "41.54812546158968"
    },
    {
      "id": "pt.ine.add.PTCONT.563557",
      "street": "R D FR CAETANO BRANDÃO",
      "house": "216",
      "postcode": "4700-031",
      "city": "BRAGA",
      "lon": "-8.428430435962612",
      "lat": "41.54812546158968"
    },
    {
      "id": "pt.ine.add.PTCONT.563558",
      "street": "R D FR CAETANO BRANDÃO",
      "house": "216",
      "postcode": "4700-031",
      "city": "BRAGA",
      "lon": "-8.428430435962612",
      "lat": "41.54812546158968"
    },
    {
      "id": "pt.ine.add.PTCONT.580184",
      "street": "R D FR CAETANO BRANDÃO",
      "house": "210",
      "postcode": "4700-031",
      "city": "BRAGA",
      "lon": "-8.428454907308993",
      "lat": "41.54821198160742"
    },
    {
      "id": "pt.ine.add.PTCONT.580185",
      "street": "R D FR CAETANO BRANDÃO",
      "house": "210",
      "postcode": "4700-031",
      "city": "BRAGA",
      "lon": "-8.428454907308993",
      "lat": "41.54821198160742"
    },
    {
      "id": "pt.ine.add.PTCONT.580337",
      "street": "R D FR CAETANO BRANDÃO",
      "house": "210",
      "postcode": "4700-031",
      "city": "BRAGA",
      "lon": "-8.428454907308993",
      "lat": "41.54821198160742"
    },
    {
      "id": "pt.ine.add.PTCONT.580338",
      "street": "R D FR CAETANO BRANDÃO",
      "house": "210",
      "postcode": "4700-031",
      "city": "BRAGA",
      "lon": "-8.428454907308993",
      "lat": "41.54821198160742"
    },
    {
      "id": "pt.ine.add.PTCONT.589527",
      "street": "R CONS JERONIMO PIMENTEL",
      "house": "26",
      "postcode": "4700-027",
      "city": "BRAGA",
      "lon": "-8.428705093971724",
      "lat": "41.54794006894414"
    },
    {
      "id": "pt.ine.add.PTCONT.589528",
      "street": "R CONS JERONIMO PIMENTEL",
      "house": "26",
      "postcode": "4700-027",
      "city": "BRAGA",
      "lon": "-8.428705093971724",
      "lat": "41.54794006894414"
    },
    {
      "id": "pt.ine.add.PTCONT.591125",
      "street": "LG PAULO OROSIO",
      "house": "",
      "postcode": "4700-036",
      "city": "BRAGA",
      "lon": "-8.428524167146414",
      "lat": "41.54768842856068"
    },
    {
      "id": "pt.ine.add.PTCONT.604298",
      "street": "R CONS JERONIMO PIMENTEL",
      "house": "30",
      "postcode": "4700-027",
      "city": "BRAGA",
      "lon": "-8.42839879517625",
      "lat": "41.548039245395195"
    },
    {
      "id": "pt.ine.add.PTCONT.609974",
      "street": "R CONS JERONIMO PIMENTEL",
      "house": "28",
      "postcode": "4700-027",
      "city": "BRAGA",
      "lon": "-8.428659118244202",
      "lat": "41.54784303563204"
    },
    {
      "id": "pt.ine.add.PTCONT.645423",
      "street": "R CONS JERONIMO PIMENTEL",
      "house": "22",
      "postcode": "4700-027",
      "city": "BRAGA",
      "lon": "-8.428765512612499",
      "lat": "41.54804795875377"
    },
    {
      "id": "pt.ine.add.PTCONT.645443",
      "street": "R CONS JERONIMO PIMENTEL",
      "house": "22",
      "postcode": "4700-027",
      "city": "BRAGA",
      "lon": "-8.428765512612499",
      "lat": "41.54804795875377"
    },
    {
      "id": "pt.ine.add.PTCONT.645444",
      "street": "R CONS JERONIMO PIMENTEL",
      "house": "22",
      "postcode": "4700-027",
      "city": "BRAGA",
      "lon": "-8.428765512612499",
      "lat": "41.54804795875377"
    },
    {
      "id": "pt.ine.add.PTCONT.647183",
      "street": "R CONS JERONIMO PIMENTEL",
      "house": "22",
      "postcode": "4700-027",
      "city": "BRAGA",
      "lon": "-8.428765512612499",
      "lat": "41.54804795875377"
    },
    {
      "id": "pt.ine.add.PTCONT.663926",
      "street": "R CONS JERONIMO PIMENTEL",
      "house": "27",
      "postcode": "4700-027",
      "city": "BRAGA",
      "lon": "-8.428692821623617",
      "lat": "41.54787707416059"
    },
    {
      "id": "pt.ine.add.PTCONT.698594",
      "street": "R D FR CAETANO BRANDÃO",
      "house": "180",
      "postcode": "4700-031",
      "city": "BRAGA",
      "lon": "-8.42844171496527",
      "lat": "41.548511437352126"
    },
    {
      "id": "pt.ine.add.PTCONT.698595",
      "street": "R D FR CAETANO BRANDÃO",
      "house": "180",
      "postcode": "4700-031",
      "city": "BRAGA",
      "lon": "-8.42844171496527",
      "lat": "41.548511437352126"
    },
    {
      "id": "pt.ine.add.PTCONT.698596",
      "street": "R D FR CAETANO BRANDÃO",
      "house": "180",
      "postcode": "4700-031",
      "city": "BRAGA",
      "lon": "-8.42844171496527",
      "lat": "41.548511437352126"
    },
    {
      "id": "pt.ine.add.PTCONT.710389",
      "street": "R CONS JERONIMO PIMENTEL",
      "house": "14",
      "postcode": "4700-027",
      "city": "BRAGA",
      "lon": "-8.428886268425432",
      "lat": "41.54824573095921"
    },
    {
      "id": "pt.ine.add.PTCONT.710390",
      "street": "R CONS JERONIMO PIMENTEL",
      "house": "14",
      "postcode": "4700-027",
      "city": "BRAGA",
      "lon": "-8.428886268425432",
      "lat": "41.54824573095921"
    },
    {
      "id": "pt.ine.add.PTCONT.710391",
      "street": "R CONS JERONIMO PIMENTEL",
      "house": "14",
      "postcode": "4700-027",
      "city": "BRAGA",
      "lon": "-8.428886268425432",
      "lat": "41.54824573095921"
    },
    {
      "id": "pt.ine.add.PTCONT.727407",
      "street": "R CONS JERONIMO PIMENTEL",
      "house": "24",
      "postcode": "4700-027",
      "city": "BRAGA",
      "lon": "-8.428741295912223",
      "lat": "41.54799399844712"
    },
    {
      "id": "pt.ine.add.PTCONT.727408",
      "street": "R CONS JERONIMO PIMENTEL",
      "house": "24",
      "postcode": "4700-027",
      "city": "BRAGA",
      "lon": "-8.428741295912223",
      "lat": "41.54799399844712"
    },
    {
      "id": "pt.ine.add.PTCONT.727426",
      "street": "R CONS JERONIMO PIMENTEL",
      "house": "24",
      "postcode": "4700-027",
      "city": "BRAGA",
      "lon": "-8.428741295912223",
      "lat": "41.54799399844712"
    },
    {
      "id": "pt.ine.add.PTCONT.762232",
      "street": "R D FR CAETANO BRANDÃO",
      "house": "186",
      "postcode": "4700-031",
      "city": "BRAGA",
      "lon": "-8.428465183804905",
      "lat": "41.548424794213126"
    },
    {
      "id": "pt.ine.add.PTCONT.785430",
      "street": "R D AFONSO HENRIQUES",
      "house": "2",
      "postcode": "4700-030",
      "city": "BRAGA",
      "lon": "-8.428564058059683",
      "lat": "41.548552687136294"
    },
    {
      "id": "pt.ine.add.PTCONT.800418",
      "street": "R CONS JERONIMO PIMENTEL",
      "house": "19",
      "postcode": "4700-027",
      "city": "BRAGA",
      "lon": "-8.428801755688811",
      "lat": "41.54811089189191"
    },
    {
      "id": "pt.ine.add.PTCONT.800419",
      "street": "R CONS JERONIMO PIMENTEL",
      "house": "19",
      "postcode": "4700-027",
      "city": "BRAGA",
      "lon": "-8.428801755688811",
      "lat": "41.54811089189191"
    },
    {
      "id": "pt.ine.add.PTCONT.800420",
      "street": "R CONS JERONIMO PIMENTEL",
      "house": "19",
      "postcode": "4700-027",
      "city": "BRAGA",
      "lon": "-8.428801755688811",
      "lat": "41.54811089189191"
    },
    {
      "id": "pt.ine.add.PTCONT.800421",
      "street": "R CONS JERONIMO PIMENTEL",
      "house": "19",
      "postcode": "4700-027",
      "city": "BRAGA",
      "lon": "-8.428801755688811",
      "lat": "41.54811089189191"
    },
    {
      "id": "pt.ine.add.PTCONT.805461",
      "street": "R D FR CAETANO BRANDÃO",
      "house": "194",
      "postcode": "4700-031",
      "city": "BRAGA",
      "lon": "-8.428467604733378",
      "lat": "41.54835629458708"
    },
    {
      "id": "pt.ine.add.PTCONT.805462",
      "street": "R D FR CAETANO BRANDÃO",
      "house": "194",
      "postcode": "4700-031",
      "city": "BRAGA",
      "lon": "-8.428467604733378",
      "lat": "41.54835629458708"
    },
    {
      "id": "pt.ine.add.PTCONT.805463",
      "street": "R D FR CAETANO BRANDÃO",
      "house": "194",
      "postcode": "4700-031",
      "city": "BRAGA",
      "lon": "-8.428467604733378",
      "lat": "41.54835629458708"
    },
    {
      "id": "pt.ine.add.PTCONT.805464",
      "street": "R D FR CAETANO BRANDÃO",
      "house": "194",
      "postcode": "4700-031",
      "city": "BRAGA",
      "lon": "-8.428467604733378",
      "lat": "41.54835629458708"
    },
    {
      "id": "pt.ine.add.PTCONT.805465",
      "street": "R D FR CAETANO BRANDÃO",
      "house": "194",
      "postcode": "4700-031",
      "city": "BRAGA",
      "lon": "-8.428467604733378",
      "lat": "41.54835629458708"
    },
    {
      "id": "pt.ine.add.PTCONT.805466",
      "street": "R D FR CAETANO BRANDÃO",
      "house": "194",
      "postcode": "4700-031",
      "city": "BRAGA",
      "lon": "-8.428467604733378",
      "lat": "41.54835629458708"
    },
    {
      "id": "pt.ine.add.PTCONT.805467",
      "street": "R D FR CAETANO BRANDÃO",
      "house": "194",
      "postcode": "4700-031",
      "city": "BRAGA",
      "lon": "-8.428467604733378",
      "lat": "41.54835629458708"
    },
    {
      "id": "pt.ine.add.PTCONT.805468",
      "street": "R D FR CAETANO BRANDÃO",
      "house": "194",
      "postcode": "4700-031",
      "city": "BRAGA",
      "lon": "-8.428467604733378",
      "lat": "41.54835629458708"
    },
    {
      "id": "pt.ine.add.PTCONT.836428",
      "street": "R D FR CAETANO BRANDÃO",
      "house": "204",
      "postcode": "4700-031",
      "city": "BRAGA",
      "lon": "-8.428467205760906",
      "lat": "41.54828048484664"
    },
    {
      "id": "pt.ine.add.PTCONT.836429",
      "street": "R D FR CAETANO BRANDÃO",
      "house": "204",
      "postcode": "4700-031",
      "city": "BRAGA",
      "lon": "-8.428467205760906",
      "lat": "41.54828048484664"
    },
    {
      "id": "pt.ine.add.PTCONT.836430",
      "street": "R D FR CAETANO BRANDÃO",
      "house": "204",
      "postcode": "4700-031",
      "city": "BRAGA",
      "lon": "-8.428467205760906",
      "lat": "41.54828048484664"
    },
    {
      "id": "pt.ine.add.PTCONT.836431",
      "street": "R D FR CAETANO BRANDÃO",
      "house": "204",
      "postcode": "4700-031",
      "city": "BRAGA",
      "lon": "-8.428467205760906",
      "lat": "41.54828048484664"
    },
    {
      "id": "pt.ine.add.PTCONT.836432",
      "street": "R D FR CAETANO BRANDÃO",
      "house": "204",
      "postcode": "4700-031",
      "city": "BRAGA",
      "lon": "-8.428467205760906",
      "lat": "41.54828048484664"
    },
    {
      "id": "pt.ine.add.PTCONT.836433",
      "street": "R D FR CAETANO BRANDÃO",
      "house": "204",
      "postcode": "4700-031",
      "city": "BRAGA",
      "lon": "-8.428467205760906",
      "lat": "41.54828048484664"
    },
    {
      "id": "pt.ine.add.PTCONT.836434",
      "street": "R D FR CAETANO BRANDÃO",
      "house": "204",
      "postcode": "4700-031",
      "city": "BRAGA",
      "lon": "-8.428467205760906",
      "lat": "41.54828048484664"
    },
    {
      "id": "pt.ine.add.PTCONT.838260",
      "street": "R D FR CAETANO BRANDÃO",
      "house": "204",
      "postcode": "4700-031",
      "city": "BRAGA",
      "lon": "-8.428467205760906",
      "lat": "41.54828048484664"
    }
  ]
}