{
  "data": {
    "distrito": "Leiria",
    "concelho": "Batalha",
    "freguesia": "Reguengo do Fetal",
    "OBJECTID": 452,
    "BGRI2021": "10040200138",
    "DT21": "10",
    "DTMN21": "1004",
    "DTMNFR21": "100402",
    "DTMNFRSEC21": "100402001",
    "SECNUM21": "001",
    "SSNUM21": "38",
    "SECSSNUM21": "00138",
    "OBJECTID_1": 87023,
    "DT": "10",
    "CC": "04",
    "fr": "02",
    "SEC": "001",
    "SS": "38"
  },
  "addresses": [
    {
      "id": "pt.ine.add.PTCONT.1979979",
      "street": "R FONTE ESPADA",
      "house": "39",
      "postcode": "2440-206",
      "city": "REGUENGO DO FETAL",
      "lon": "-8.787059988252992",
      "lat": "39.647215135964444"
    },
    {
      "id": "pt.ine.add.PTCONT.2065509",
      "street": "R FONTE ESPADA",
      "house": "311",
      "postcode": "2440-206",
      "city": "REGUENGO DO FETAL",
      "lon": "-8.788703563391783",
      "lat": "39.64607103436897"
    },
    {
      "id": "pt.ine.add.PTCONT.2083370",
      "street": "ESTR ALQUEID√ÉO DA SERRA",
      "house": "",
      "postcode": "2440-206",
      "city": "REGUENGO DO FETAL",
      "lon": "-8.78555625821393",
      "lat": "39.642170866063765"
    },
    {
      "id": "pt.ine.add.PTCONT.2157425",
      "street": "R FONTE ESPADA",
      "house": "57",
      "postcode": "2440-206",
      "city": "REGUENGO DO FETAL",
      "lon": "-8.78717776064696",
      "lat": "39.647349572398575"
    },
    {
      "id": "pt.ine.add.PTCONT.2181326",
      "street": "R CAMPOS",
      "house": "",
      "postcode": "2440-206",
      "city": "REGUENGO DO FETAL",
      "lon": "-8.786971764868857",
      "lat": "39.64527019850742"
    },
    {
      "id": "pt.ine.add.PTCONT.2181327",
      "street": "R CAMPOS",
      "house": "",
      "postcode": "2440-206",
      "city": "REGUENGO DO FETAL",
      "lon": "-8.78715052230479",
      "lat": "39.64445859435072"
    },
    {
      "id": "pt.ine.add.PTCONT.2194870",
      "street": "R CAMPOS",
      "house": "279",
      "postcode": "2440-206",
      "city": "REGUENGO DO FETAL",
      "lon": "-8.787105849917905",
      "lat": "39.64589990845808"
    },
    {
      "id": "pt.ine.add.PTCONT.2204180",
      "street": "R OUTEIRO REDONDO",
      "house": "155",
      "postcode": "2440-206",
      "city": "REGUENGO DO FETAL",
      "lon": "-8.786943773774542",
      "lat": "39.64229816378995"
    }
  ]
}