{
  "data": {
    "distrito": "Beja",
    "concelho": "Ourique",
    "freguesia": "Ourique",
    "OBJECTID": 135,
    "BGRI2021": "02120300137",
    "DT21": "02",
    "DTMN21": "0212",
    "DTMNFR21": "021203",
    "DTMNFRSEC21": "021203001",
    "SECNUM21": "001",
    "SSNUM21": "37",
    "SECSSNUM21": "00137",
    "OBJECTID_1": 18432,
    "DT": "02",
    "CC": "12",
    "fr": "03",
    "SEC": "001",
    "SS": "37"
  },
  "addresses": [
    {
      "id": "pt.ine.add.PTCONT.457012",
      "street": "MTE GUERREAO",
      "house": "",
      "postcode": "7670-202",
      "city": "OURIQUE",
      "lon": "-8.180971536946542",
      "lat": "37.61192243250638"
    },
    {
      "id": "pt.ine.add.PTCONT.353556",
      "street": "MTE MOINHO DE S BRÁS",
      "house": "",
      "postcode": "7670-202",
      "city": "OURIQUE",
      "lon": "-8.209338645299004",
      "lat": "37.596671777645966"
    },
    {
      "id": "pt.ine.add.PTCONT.372913",
      "street": "CASA DA COLINA COLINA",
      "house": "",
      "postcode": "7670-202",
      "city": "OURIQUE",
      "lon": "-8.205886181065186",
      "lat": "37.63279458139432"
    },
    {
      "id": "pt.ine.add.PTCONT.375030",
      "street": "MTE CHAMINÉ ALTA",
      "house": "",
      "postcode": "7670-202",
      "city": "OURIQUE",
      "lon": "-8.182194584421044",
      "lat": "37.61169668289056"
    },
    {
      "id": "pt.ine.add.PTCONT.387545",
      "street": "MTE BEIRAO",
      "house": "40",
      "postcode": "7670-202",
      "city": "OURIQUE",
      "lon": "-8.20073442605514",
      "lat": "37.61105682279968"
    },
    {
      "id": "pt.ine.add.PTCONT.390685",
      "street": "MTE GUERREAO",
      "house": "",
      "postcode": "7670-202",
      "city": "OURIQUE",
      "lon": "-8.180552908505208",
      "lat": "37.612598343205946"
    },
    {
      "id": "pt.ine.add.PTCONT.409394",
      "street": "MTE BEIRAO",
      "house": "",
      "postcode": "7670-202",
      "city": "OURIQUE",
      "lon": "-8.200223318053451",
      "lat": "37.60944434408879"
    },
    {
      "id": "pt.ine.add.PTCONT.420630",
      "street": "MTE GUERREAO HONTE",
      "house": "",
      "postcode": "7670-202",
      "city": "OURIQUE",
      "lon": "-8.180835718458523",
      "lat": "37.61206664573956"
    },
    {
      "id": "pt.ine.add.PTCONT.423241",
      "street": "MTE ESTRADA",
      "house": "",
      "postcode": "7670-202",
      "city": "OURIQUE",
      "lon": "-8.17965871712538",
      "lat": "37.61349968806997"
    },
    {
      "id": "pt.ine.add.PTCONT.424647",
      "street": "MTE CORAL",
      "house": "",
      "postcode": "7670-202",
      "city": "OURIQUE",
      "lon": "-8.17954537184628",
      "lat": "37.61336458442136"
    },
    {
      "id": "pt.ine.add.PTCONT.436192",
      "street": "MTE ESTRADA",
      "house": "",
      "postcode": "7670-202",
      "city": "OURIQUE",
      "lon": "-8.17993028424664",
      "lat": "37.61308512582491"
    },
    {
      "id": "pt.ine.add.PTCONT.443478",
      "street": "MTE BEIRAO",
      "house": "",
      "postcode": "7670-202",
      "city": "OURIQUE",
      "lon": "-8.199635346807588",
      "lat": "37.610516854086974"
    },
    {
      "id": "pt.ine.add.PTCONT.446843",
      "street": "MTE GUERREAO",
      "house": "",
      "postcode": "7670-202",
      "city": "OURIQUE",
      "lon": "-8.180971536946542",
      "lat": "37.61192243250638"
    }
  ]
}