{
  "data": {
    "distrito": "Porto",
    "concelho": "Penafiel",
    "freguesia": "Recezinhos (São Mamede)",
    "OBJECTID": 1281,
    "BGRI2021": "13113200113",
    "DT21": "13",
    "DTMN21": "1311",
    "DTMNFR21": "131132",
    "DTMNFRSEC21": "131132001",
    "SECNUM21": "001",
    "SSNUM21": "13",
    "SECSSNUM21": "00113",
    "OBJECTID_1": 136940,
    "DT": "13",
    "CC": "11",
    "fr": "32",
    "SEC": "001",
    "SS": "13"
  },
  "addresses": [
    {
      "id": "pt.ine.add.PTCONT.3561855",
      "street": "TV ALDEIA NOVA",
      "house": "33",
      "postcode": "4560-800",
      "city": "SÃO MAMEDE RECEZINHOS",
      "lon": "-8.214722190322977",
      "lat": "41.23644583086922"
    },
    {
      "id": "pt.ine.add.PTCONT.3645271",
      "street": "AV RECESINHOS",
      "house": "1662",
      "postcode": "4560-800",
      "city": "SÃO MAMEDE RECEZINHOS",
      "lon": "-8.214255648326468",
      "lat": "41.23536564882965"
    },
    {
      "id": "pt.ine.add.PTCONT.3723263",
      "street": "R PADARIA",
      "house": "22",
      "postcode": "4560-800",
      "city": "SÃO MAMEDE RECEZINHOS",
      "lon": "-8.213707296071153",
      "lat": "41.23564516618175"
    },
    {
      "id": "pt.ine.add.PTCONT.3755129",
      "street": "AV RECESINHOS",
      "house": "1660",
      "postcode": "4560-800",
      "city": "SÃO MAMEDE RECEZINHOS",
      "lon": "-8.214136188871986",
      "lat": "41.235221664701726"
    },
    {
      "id": "pt.ine.add.PTCONT.3768120",
      "street": "AV RECESINHOS",
      "house": "3326",
      "postcode": "4560-800",
      "city": "SÃO MAMEDE RECEZINHOS",
      "lon": "-8.214935811406335",
      "lat": "41.2355722656037"
    },
    {
      "id": "pt.ine.add.PTCONT.3826541",
      "street": "R PADARIA",
      "house": "39",
      "postcode": "4560-800",
      "city": "SÃO MAMEDE RECEZINHOS",
      "lon": "-8.213515871005384",
      "lat": "41.23517707820485"
    },
    {
      "id": "pt.ine.add.PTCONT.4048805",
      "street": "TV ALDEIA NOVA",
      "house": "23",
      "postcode": "4560-800",
      "city": "SÃO MAMEDE RECEZINHOS",
      "lon": "-8.214662694061841",
      "lat": "41.23656292845184"
    },
    {
      "id": "pt.ine.add.PTCONT.4105043",
      "street": "R PADARIA",
      "house": "22",
      "postcode": "4560-800",
      "city": "SÃO MAMEDE RECEZINHOS",
      "lon": "-8.213754887157908",
      "lat": "41.23554608594305"
    },
    {
      "id": "pt.ine.add.PTCONT.4105044",
      "street": "R PADARIA",
      "house": "22",
      "postcode": "4560-800",
      "city": "SÃO MAMEDE RECEZINHOS",
      "lon": "-8.213754887157908",
      "lat": "41.23554608594305"
    },
    {
      "id": "pt.ine.add.PTCONT.4196726",
      "street": "R ALDEIA NOVA",
      "house": "75",
      "postcode": "4560-800",
      "city": "SÃO MAMEDE RECEZINHOS",
      "lon": "-8.213456450918263",
      "lat": "41.2353572049966"
    },
    {
      "id": "pt.ine.add.PTCONT.4223018",
      "street": "AV RECESINHOS",
      "house": "3326",
      "postcode": "4560-800",
      "city": "SÃO MAMEDE RECEZINHOS",
      "lon": "-8.215805967958353",
      "lat": "41.23509441788878"
    },
    {
      "id": "pt.ine.add.PTCONT.4242589",
      "street": "R PADARIA",
      "house": "30",
      "postcode": "4560-800",
      "city": "SÃO MAMEDE RECEZINHOS",
      "lon": "-8.213873736791161",
      "lat": "41.23519483628654"
    },
    {
      "id": "pt.ine.add.PTCONT.4242590",
      "street": "R PADARIA",
      "house": "30",
      "postcode": "4560-800",
      "city": "SÃO MAMEDE RECEZINHOS",
      "lon": "-8.213873736791161",
      "lat": "41.23519483628654"
    },
    {
      "id": "pt.ine.add.PTCONT.4245702",
      "street": "",
      "house": "",
      "postcode": "4560-800",
      "city": "SÃO MAMEDE RECEZINHOS",
      "lon": "-8.213873736791161",
      "lat": "41.23519483628654"
    },
    {
      "id": "pt.ine.add.PTCONT.4255559",
      "street": "R ALDEIA NOVA",
      "house": "217",
      "postcode": "4560-800",
      "city": "SÃO MAMEDE RECEZINHOS",
      "lon": "-8.214769623564901",
      "lat": "41.23622069063959"
    },
    {
      "id": "pt.ine.add.PTCONT.4268808",
      "street": "R ALDEIA NOVA",
      "house": "",
      "postcode": "4560-800",
      "city": "SÃO MAMEDE RECEZINHOS",
      "lon": "-8.214089387603964",
      "lat": "41.2359600473723"
    },
    {
      "id": "pt.ine.add.PTCONT.4302603",
      "street": "R PADARIA",
      "house": "30",
      "postcode": "4560-800",
      "city": "SÃO MAMEDE RECEZINHOS",
      "lon": "-8.21389773716186",
      "lat": "41.235311874904944"
    },
    {
      "id": "pt.ine.add.PTCONT.4348269",
      "street": "R PADARIA",
      "house": "30",
      "postcode": "4560-800",
      "city": "SÃO MAMEDE RECEZINHOS",
      "lon": "-8.213802367367407",
      "lat": "41.23535696310555"
    }
  ]
}