{
  "data": {
    "distrito": "Braga",
    "concelho": "Guimarães",
    "freguesia": "Infantas",
    "OBJECTID": 1381,
    "BGRI2021": "03082400112",
    "DT21": "03",
    "DTMN21": "0308",
    "DTMNFR21": "030824",
    "DTMNFRSEC21": "030824001",
    "SECNUM21": "001",
    "SSNUM21": "12",
    "SECSSNUM21": "00112",
    "OBJECTID_1": 27680,
    "DT": "03",
    "CC": "08",
    "fr": "24",
    "SEC": "001",
    "SS": "12"
  },
  "addresses": [
    {
      "id": "pt.ine.add.PTCONT.481130",
      "street": "R SERVICARIA",
      "house": "",
      "postcode": "4810-625",
      "city": "INFANTAS",
      "lon": "-8.241518380882455",
      "lat": "41.42686972648069"
    },
    {
      "id": "pt.ine.add.PTCONT.493665",
      "street": "R SERVICARIA",
      "house": "311",
      "postcode": "4810-625",
      "city": "INFANTAS",
      "lon": "-8.242632207594095",
      "lat": "41.42761600053899"
    },
    {
      "id": "pt.ine.add.PTCONT.493666",
      "street": "R SERVICARIA",
      "house": "311",
      "postcode": "4810-625",
      "city": "INFANTAS",
      "lon": "-8.242632207594095",
      "lat": "41.42761600053899"
    },
    {
      "id": "pt.ine.add.PTCONT.531335",
      "street": "R 25 DE ABRIL",
      "house": "",
      "postcode": "4810-690",
      "city": "INFANTAS",
      "lon": "-8.2399381853652",
      "lat": "41.426222919134666"
    },
    {
      "id": "pt.ine.add.PTCONT.558276",
      "street": "R SERVICARIA",
      "house": "505",
      "postcode": "4810-625",
      "city": "INFANTAS",
      "lon": "-8.241723164572631",
      "lat": "41.42771590590169"
    },
    {
      "id": "pt.ine.add.PTCONT.559507",
      "street": "R SERVICARIA",
      "house": "505",
      "postcode": "4810-625",
      "city": "INFANTAS",
      "lon": "-8.241723164572631",
      "lat": "41.42771590590169"
    },
    {
      "id": "pt.ine.add.PTCONT.578641",
      "street": "R SERVICARIA",
      "house": "459",
      "postcode": "4810-625",
      "city": "INFANTAS",
      "lon": "-8.241674561486034",
      "lat": "41.42726575361835"
    },
    {
      "id": "pt.ine.add.PTCONT.579648",
      "street": "R SERVICARIA",
      "house": "459",
      "postcode": "4810-625",
      "city": "INFANTAS",
      "lon": "-8.241674561486034",
      "lat": "41.42726575361835"
    },
    {
      "id": "pt.ine.add.PTCONT.590191",
      "street": "R SERVICARIA",
      "house": "561",
      "postcode": "4810-625",
      "city": "INFANTAS",
      "lon": "-8.24131514225606",
      "lat": "41.42695095348232"
    },
    {
      "id": "pt.ine.add.PTCONT.590192",
      "street": "R SERVICARIA",
      "house": "567 A",
      "postcode": "4810-625",
      "city": "INFANTAS",
      "lon": "-8.24131514225606",
      "lat": "41.42695095348232"
    },
    {
      "id": "pt.ine.add.PTCONT.590195",
      "street": "R SERVICARIA",
      "house": "561 B",
      "postcode": "4810-625",
      "city": "INFANTAS",
      "lon": "-8.24131514225606",
      "lat": "41.42695095348232"
    },
    {
      "id": "pt.ine.add.PTCONT.590196",
      "street": "R SERVICARIA",
      "house": "561 B",
      "postcode": "4810-625",
      "city": "INFANTAS",
      "lon": "-8.24131514225606",
      "lat": "41.42695095348232"
    },
    {
      "id": "pt.ine.add.PTCONT.593173",
      "street": "R SERVICARIA",
      "house": "SOS",
      "postcode": "4810-625",
      "city": "INFANTAS",
      "lon": "-8.241506852047447",
      "lat": "41.427130852296756"
    },
    {
      "id": "pt.ine.add.PTCONT.593174",
      "street": "R SERVIÇARIA",
      "house": "505",
      "postcode": "4810-625",
      "city": "INFANTAS",
      "lon": "-8.241506852047447",
      "lat": "41.427130852296756"
    },
    {
      "id": "pt.ine.add.PTCONT.596786",
      "street": "R SERVIÇARIA",
      "house": "561",
      "postcode": "4810-625",
      "city": "INFANTAS",
      "lon": "-8.241279536768934",
      "lat": "41.42712206227713"
    },
    {
      "id": "pt.ine.add.PTCONT.619323",
      "street": "R SERVICARIA",
      "house": "511",
      "postcode": "4810-625",
      "city": "INFANTAS",
      "lon": "-8.24148274602833",
      "lat": "41.42702282744059"
    },
    {
      "id": "pt.ine.add.PTCONT.619324",
      "street": "R SERVICARIA",
      "house": "527 A",
      "postcode": "4810-625",
      "city": "INFANTAS",
      "lon": "-8.24148274602833",
      "lat": "41.42702282744059"
    },
    {
      "id": "pt.ine.add.PTCONT.619325",
      "street": "R SERVICARIA",
      "house": "527 B",
      "postcode": "4810-625",
      "city": "INFANTAS",
      "lon": "-8.24148274602833",
      "lat": "41.42702282744059"
    },
    {
      "id": "pt.ine.add.PTCONT.630053",
      "street": "R BALUZAL",
      "house": "325",
      "postcode": "4810-577",
      "city": "INFANTAS",
      "lon": "-8.241126015224653",
      "lat": "41.42832873752759"
    },
    {
      "id": "pt.ine.add.PTCONT.640407",
      "street": "R BALUZAL",
      "house": "",
      "postcode": "4810-577",
      "city": "INFANTAS",
      "lon": "-8.240850916670112",
      "lat": "41.42836501132512"
    },
    {
      "id": "pt.ine.add.PTCONT.681049",
      "street": "R BALUZAL",
      "house": "258",
      "postcode": "4810-577",
      "city": "INFANTAS",
      "lon": "-8.240994522213073",
      "lat": "41.428391888638586"
    },
    {
      "id": "pt.ine.add.PTCONT.816059",
      "street": "R SERVICARIA",
      "house": "505",
      "postcode": "4810-625",
      "city": "INFANTAS",
      "lon": "-8.241507076683735",
      "lat": "41.427265911539116"
    },
    {
      "id": "pt.ine.add.PTCONT.828090",
      "street": "R BALUZAL",
      "house": "",
      "postcode": "4810-577",
      "city": "INFANTAS",
      "lon": "-8.240635605140875",
      "lat": "41.42838322067986"
    },
    {
      "id": "pt.ine.add.PTCONT.837194",
      "street": "R SERVICARIA",
      "house": "391",
      "postcode": "4810-625",
      "city": "INFANTAS",
      "lon": "-8.242285107016317",
      "lat": "41.42751728684451"
    }
  ]
}