{
  "data": {
    "distrito": "Setúbal",
    "concelho": "Moita",
    "freguesia": "Alhos Vedros",
    "OBJECTID": 122,
    "BGRI2021": "15060101017",
    "DT21": "15",
    "DTMN21": "1506",
    "DTMNFR21": "150601",
    "DTMNFRSEC21": "150601010",
    "SECNUM21": "010",
    "SSNUM21": "17",
    "SECSSNUM21": "01017",
    "OBJECTID_1": 164251,
    "DT": "15",
    "CC": "06",
    "fr": "01",
    "SEC": "010",
    "SS": "17"
  },
  "addresses": [
    {
      "id": "pt.ine.add.PTCONT.4665193",
      "street": "R LUISA TODY",
      "house": "13B",
      "postcode": "2860-229",
      "city": "ALHOS VEDROS",
      "lon": "-9.006930942401286",
      "lat": "38.618095553545466"
    },
    {
      "id": "pt.ine.add.PTCONT.4674734",
      "street": "EM PINHAL DO FORNO",
      "house": "",
      "postcode": "2860-023",
      "city": "ALHOS VEDROS",
      "lon": "-8.997856614701826",
      "lat": "38.61684778655409"
    },
    {
      "id": "pt.ine.add.PTCONT.4678221",
      "street": "EM PINHAL DO FORNO",
      "house": "",
      "postcode": "2860-023",
      "city": "ALHOS VEDROS",
      "lon": "-8.99868149216532",
      "lat": "38.618607277626325"
    },
    {
      "id": "pt.ine.add.PTCONT.4687330",
      "street": "EM PINHAL DO FORNO",
      "house": "",
      "postcode": "2860-023",
      "city": "ALHOS VEDROS",
      "lon": "-8.998443860561846",
      "lat": "38.61794243494655"
    },
    {
      "id": "pt.ine.add.PTCONT.4703915",
      "street": "R CAMPO DA BOLA QTA DOS LASCADOS",
      "house": "",
      "postcode": "2860-221",
      "city": "ALHOS VEDROS",
      "lon": "-9.008880722756794",
      "lat": "38.616972978377056"
    },
    {
      "id": "pt.ine.add.PTCONT.4703916",
      "street": "AZ STO IZIDRO",
      "house": "3",
      "postcode": "2860-207",
      "city": "ALHOS VEDROS",
      "lon": "-9.001583835437561",
      "lat": "38.615532020175145"
    },
    {
      "id": "pt.ine.add.PTCONT.4708388",
      "street": "",
      "house": "",
      "postcode": "2860-229",
      "city": "ALHOS VEDROS",
      "lon": "-8.999929390948752",
      "lat": "38.62116535066057"
    },
    {
      "id": "pt.ine.add.PTCONT.4718230",
      "street": "R LUISA TODY",
      "house": "11",
      "postcode": "2860-229",
      "city": "ALHOS VEDROS",
      "lon": "-9.008214517423317",
      "lat": "38.61789679011537"
    },
    {
      "id": "pt.ine.add.PTCONT.4722074",
      "street": "EM PINHAL DO FORNO",
      "house": "",
      "postcode": "2860-023",
      "city": "ALHOS VEDROS",
      "lon": "-8.99724224430969",
      "lat": "38.61827560772061"
    },
    {
      "id": "pt.ine.add.PTCONT.4728469",
      "street": "R FREDERICO DE FREITAS",
      "house": "9",
      "postcode": "2860-256",
      "city": "ALHOS VEDROS",
      "lon": "-9.00460131366808",
      "lat": "38.62009471263685"
    },
    {
      "id": "pt.ine.add.PTCONT.4736891",
      "street": "EM PINHAL DO FORNO",
      "house": "",
      "postcode": "2860-023",
      "city": "ALHOS VEDROS",
      "lon": "-8.99671815715051",
      "lat": "38.62053150532824"
    },
    {
      "id": "pt.ine.add.PTCONT.4745009",
      "street": "EM PINHAL DO FORNO",
      "house": "",
      "postcode": "2860-023",
      "city": "ALHOS VEDROS",
      "lon": "-8.997692456827496",
      "lat": "38.6203891881819"
    },
    {
      "id": "pt.ine.add.PTCONT.4745010",
      "street": "ESTR MISERICÓRDIA",
      "house": "1",
      "postcode": "2860-209",
      "city": "ALHOS VEDROS",
      "lon": "-9.010024344012407",
      "lat": "38.61754093186784"
    },
    {
      "id": "pt.ine.add.PTCONT.4773083",
      "street": "ESTR NSA SRA ATALAINHA CCI",
      "house": "CCI 1715",
      "postcode": "2860-231",
      "city": "ALHOS VEDROS",
      "lon": "-8.99862291527082",
      "lat": "38.61564404111165"
    },
    {
      "id": "pt.ine.add.PTCONT.4786933",
      "street": "R LUISA TODY",
      "house": "12 A",
      "postcode": "2860-229",
      "city": "ALHOS VEDROS",
      "lon": "-9.007298225558943",
      "lat": "38.618083801883515"
    },
    {
      "id": "pt.ine.add.PTCONT.4790626",
      "street": "ESTR MISERICÓRDIA",
      "house": "10",
      "postcode": "2860-209",
      "city": "ALHOS VEDROS",
      "lon": "-9.010102480746943",
      "lat": "38.616414332591845"
    },
    {
      "id": "pt.ine.add.PTCONT.4799899",
      "street": "R LUISA TODY",
      "house": "1908",
      "postcode": "2860-229",
      "city": "ALHOS VEDROS",
      "lon": "-9.005149093850731",
      "lat": "38.61791967702066"
    },
    {
      "id": "pt.ine.add.PTCONT.4812670",
      "street": "R PADRE ABILIO SILVA MENDES",
      "house": "5",
      "postcode": "2860-232",
      "city": "ALHOS VEDROS",
      "lon": "-9.008100792149335",
      "lat": "38.61704187024276"
    },
    {
      "id": "pt.ine.add.PTCONT.4814129",
      "street": "R CAMPO BOLA",
      "house": "9",
      "postcode": "2860-221",
      "city": "ALHOS VEDROS",
      "lon": "-9.009424788297013",
      "lat": "38.6163923858066"
    },
    {
      "id": "pt.ine.add.PTCONT.4816309",
      "street": "R LUISA TODY",
      "house": "",
      "postcode": "2860-229",
      "city": "ALHOS VEDROS",
      "lon": "-9.001770020383683",
      "lat": "38.62144896719657"
    },
    {
      "id": "pt.ine.add.PTCONT.4834224",
      "street": "ESTR MISERICÓRDIA",
      "house": "",
      "postcode": "2860-209",
      "city": "ALHOS VEDROS",
      "lon": "-9.01007655795596",
      "lat": "38.6161713079139"
    },
    {
      "id": "pt.ine.add.PTCONT.4848259",
      "street": "AZ STO IZIDRO",
      "house": "",
      "postcode": "2860-207",
      "city": "ALHOS VEDROS",
      "lon": "-8.999024846313453",
      "lat": "38.61565007540218"
    },
    {
      "id": "pt.ine.add.PTCONT.4852051",
      "street": "EM PINHAL DO FORNO",
      "house": "",
      "postcode": "2860-023",
      "city": "ALHOS VEDROS",
      "lon": "-8.996715564590295",
      "lat": "38.62031532979901"
    },
    {
      "id": "pt.ine.add.PTCONT.4852052",
      "street": "AZ SANTO IZIDRO",
      "house": "",
      "postcode": "2860-207",
      "city": "ALHOS VEDROS",
      "lon": "-8.999335257190582",
      "lat": "38.61568381024159"
    },
    {
      "id": "pt.ine.add.PTCONT.4869157",
      "street": "EM PINHAL DO FORNO",
      "house": "",
      "postcode": "2860-023",
      "city": "ALHOS VEDROS",
      "lon": "-8.998759911135307",
      "lat": "38.61844455144111"
    },
    {
      "id": "pt.ine.add.PTCONT.4872629",
      "street": "EM PINHAL DO FORNO",
      "house": "",
      "postcode": "2860-023",
      "city": "ALHOS VEDROS",
      "lon": "-8.997806006566474",
      "lat": "38.618370531957716"
    },
    {
      "id": "pt.ine.add.PTCONT.4882799",
      "street": "R CAMPO DA BOLA QTA DO SOBREIRO",
      "house": "",
      "postcode": "2860-221",
      "city": "ALHOS VEDROS",
      "lon": "-9.009562476395988",
      "lat": "38.61732819790565"
    },
    {
      "id": "pt.ine.add.PTCONT.4918370",
      "street": "EM PINHAL DO FORNO",
      "house": "",
      "postcode": "2860-023",
      "city": "ALHOS VEDROS",
      "lon": "-8.998495196467449",
      "lat": "38.618392460944335"
    },
    {
      "id": "pt.ine.add.PTCONT.4936399",
      "street": "AZ SANTO IZIDRO",
      "house": "",
      "postcode": "2860-207",
      "city": "ALHOS VEDROS",
      "lon": "-8.999918385619027",
      "lat": "38.615481313193165"
    },
    {
      "id": "pt.ine.add.PTCONT.4952631",
      "street": "R CAMPO DA BOLA",
      "house": "",
      "postcode": "2860-221",
      "city": "ALHOS VEDROS",
      "lon": "-9.009207092562177",
      "lat": "38.61643004847939"
    },
    {
      "id": "pt.ine.add.PTCONT.4958151",
      "street": "R LUISA TODY CCI",
      "house": "CCI 1911",
      "postcode": "2860-229",
      "city": "ALHOS VEDROS",
      "lon": "-9.005010231415397",
      "lat": "38.61783063078161"
    },
    {
      "id": "pt.ine.add.PTCONT.4961633",
      "street": "R LUISA TODY",
      "house": "",
      "postcode": "2860-229",
      "city": "ALHOS VEDROS",
      "lon": "-9.001757017611062",
      "lat": "38.62132295023624"
    },
    {
      "id": "pt.ine.add.PTCONT.4972385",
      "street": "ESTR MISERICÓRDIA",
      "house": "",
      "postcode": "2860-209",
      "city": "ALHOS VEDROS",
      "lon": "-9.010055606045468",
      "lat": "38.617279462418196"
    },
    {
      "id": "pt.ine.add.PTCONT.4980121",
      "street": "R LUISA TODY",
      "house": "",
      "postcode": "2860-229",
      "city": "ALHOS VEDROS",
      "lon": "-9.007607337889448",
      "lat": "38.6180094270942"
    },
    {
      "id": "pt.ine.add.PTCONT.5004769",
      "street": "ESTR MARQUES DE RIO MAIOR",
      "house": "",
      "postcode": "2860-215",
      "city": "ALHOS VEDROS",
      "lon": "-9.005840067222115",
      "lat": "38.61619397586901"
    },
    {
      "id": "pt.ine.add.PTCONT.5008522",
      "street": "R LUISA TODY",
      "house": "",
      "postcode": "2860-229",
      "city": "ALHOS VEDROS",
      "lon": "-9.005159702288557",
      "lat": "38.61784753307184"
    },
    {
      "id": "pt.ine.add.PTCONT.5008523",
      "street": "R LUISA TODY",
      "house": "13A",
      "postcode": "2860-229",
      "city": "ALHOS VEDROS",
      "lon": "-9.006724611898683",
      "lat": "38.61812411862683"
    },
    {
      "id": "pt.ine.add.PTCONT.5012734",
      "street": "EM PINHAL DO FORNO",
      "house": "",
      "postcode": "2860-023",
      "city": "ALHOS VEDROS",
      "lon": "-8.997713905578825",
      "lat": "38.62026291613613"
    },
    {
      "id": "pt.ine.add.PTCONT.5038283",
      "street": "R LUISA TODY CCI",
      "house": "CCI 1907",
      "postcode": "2860-229",
      "city": "ALHOS VEDROS",
      "lon": "-9.00628920674222",
      "lat": "38.61819943365555"
    },
    {
      "id": "pt.ine.add.PTCONT.5051748",
      "street": "R PADRE ABILIO SILVA MENDES",
      "house": "7",
      "postcode": "2860-232",
      "city": "ALHOS VEDROS",
      "lon": "-9.008002708388771",
      "lat": "38.61652914139431"
    },
    {
      "id": "pt.ine.add.PTCONT.5060235",
      "street": "R PADRE ABILIO SILVA MENDES QTA SILVANO",
      "house": "",
      "postcode": "2860-232",
      "city": "ALHOS VEDROS",
      "lon": "-9.007834216499422",
      "lat": "38.616836676913394"
    },
    {
      "id": "pt.ine.add.PTCONT.5063985",
      "street": "ESTR NSA SRA ATALAINHA CCI",
      "house": "CCI 1713",
      "postcode": "2860-231",
      "city": "ALHOS VEDROS",
      "lon": "-9.000224133112098",
      "lat": "38.615127731197255"
    },
    {
      "id": "pt.ine.add.PTCONT.5076463",
      "street": "EM PINHAL DO FORNO",
      "house": "",
      "postcode": "2860-023",
      "city": "ALHOS VEDROS",
      "lon": "-8.997467433342074",
      "lat": "38.617904611693696"
    },
    {
      "id": "pt.ine.add.PTCONT.5078314",
      "street": "R LUISA TODY",
      "house": "",
      "postcode": "2860-229",
      "city": "ALHOS VEDROS",
      "lon": "-9.007939739794526",
      "lat": "38.61796190168476"
    },
    {
      "id": "pt.ine.add.PTCONT.5080506",
      "street": "EM PINHAL DO FORNO",
      "house": "",
      "postcode": "2860-023",
      "city": "ALHOS VEDROS",
      "lon": "-8.997565788984405",
      "lat": "38.617489511784626"
    },
    {
      "id": "pt.ine.add.PTCONT.5082814",
      "street": "EM PINHAL DO FORNO",
      "house": "",
      "postcode": "2860-023",
      "city": "ALHOS VEDROS",
      "lon": "-9.00094004078118",
      "lat": "38.6192751639718"
    },
    {
      "id": "pt.ine.add.PTCONT.5132266",
      "street": "R PADRE ABILIO SILVA MENDES CASA DO BOSQUE",
      "house": "",
      "postcode": "2860-232",
      "city": "ALHOS VEDROS",
      "lon": "-9.00851999959349",
      "lat": "38.61657932094252"
    }
  ]
}