{
  "data": {
    "distrito": "Setúbal",
    "concelho": "Almada",
    "freguesia": "União das freguesias de Charneca de Caparica e Sobreda",
    "OBJECTID": 586,
    "BGRI2021": "15031403314",
    "DT21": "15",
    "DTMN21": "1503",
    "DTMNFR21": "150314",
    "DTMNFRSEC21": "150314033",
    "SECNUM21": "033",
    "SSNUM21": "14",
    "SECSSNUM21": "03314",
    "OBJECTID_1": 161950,
    "DT": "15",
    "CC": "03",
    "fr": "14",
    "SEC": "033",
    "SS": "14"
  },
  "addresses": [
    {
      "id": "pt.ine.add.PTCONT.4696506",
      "street": "R BEATO INÁCIO DE AZEVEDO",
      "house": "22",
      "postcode": "2820-245",
      "city": "CHARNECA DA CAPARICA",
      "lon": "-9.186401004606287",
      "lat": "38.62011266454319"
    },
    {
      "id": "pt.ine.add.PTCONT.4696507",
      "street": "R BEATO INÁCIO DE AZEVEDO",
      "house": "",
      "postcode": "2820-245",
      "city": "CHARNECA DA CAPARICA",
      "lon": "-9.186771565856018",
      "lat": "38.61954182391226"
    },
    {
      "id": "pt.ine.add.PTCONT.4700026",
      "street": "R MÁRIO CASIMIRO",
      "house": "",
      "postcode": "2820-181",
      "city": "CHARNECA DA CAPARICA",
      "lon": "-9.18802163717884",
      "lat": "38.618656783342665"
    },
    {
      "id": "pt.ine.add.PTCONT.4717935",
      "street": "R CRUZEIRO",
      "house": "49",
      "postcode": "2820-637",
      "city": "CHARNECA DA CAPARICA",
      "lon": "-9.187028226383854",
      "lat": "38.61981876022187"
    },
    {
      "id": "pt.ine.add.PTCONT.4776975",
      "street": "R BEATO INÁCIO DE AZEVEDO",
      "house": "30",
      "postcode": "2820-245",
      "city": "CHARNECA DA CAPARICA",
      "lon": "-9.186704526958845",
      "lat": "38.61966853963848"
    },
    {
      "id": "pt.ine.add.PTCONT.4778607",
      "street": "R BEATO INÁCIO DE AZEVEDO",
      "house": "30",
      "postcode": "2820-245",
      "city": "CHARNECA DA CAPARICA",
      "lon": "-9.186704526958845",
      "lat": "38.61966853963848"
    },
    {
      "id": "pt.ine.add.PTCONT.4798899",
      "street": "R BEATO INÁCIO DE AZEVEDO",
      "house": "20",
      "postcode": "2820-245",
      "city": "CHARNECA DA CAPARICA",
      "lon": "-9.186299522287712",
      "lat": "38.620239690107766"
    },
    {
      "id": "pt.ine.add.PTCONT.4802040",
      "street": "PCT CRUZEIRO",
      "house": "",
      "postcode": "2820-637",
      "city": "CHARNECA DA CAPARICA",
      "lon": "-9.187081806746576",
      "lat": "38.61955704554985"
    },
    {
      "id": "pt.ine.add.PTCONT.4811917",
      "street": "R MARIO CASIMIRO",
      "house": "59 59A",
      "postcode": "2820-181",
      "city": "CHARNECA DA CAPARICA",
      "lon": "-9.186667465639113",
      "lat": "38.618705017232124"
    },
    {
      "id": "pt.ine.add.PTCONT.4825771",
      "street": "R CRUZEIRO",
      "house": "14A",
      "postcode": "2820-637",
      "city": "CHARNECA DA CAPARICA",
      "lon": "-9.187643962357994",
      "lat": "38.61952495607366"
    },
    {
      "id": "pt.ine.add.PTCONT.4838670",
      "street": "R CRUZEIRO",
      "house": "43A",
      "postcode": "2820-637",
      "city": "CHARNECA DA CAPARICA",
      "lon": "-9.186803884541899",
      "lat": "38.62018110087201"
    },
    {
      "id": "pt.ine.add.PTCONT.4848966",
      "street": "R CRUZEIRO",
      "house": "",
      "postcode": "2820-637",
      "city": "CHARNECA DA CAPARICA",
      "lon": "-9.187319076308786",
      "lat": "38.61929367587243"
    },
    {
      "id": "pt.ine.add.PTCONT.4885073",
      "street": "R CRUZEIRO",
      "house": "",
      "postcode": "2820-637",
      "city": "CHARNECA DA CAPARICA",
      "lon": "-9.187355364162565",
      "lat": "38.619419460907366"
    },
    {
      "id": "pt.ine.add.PTCONT.4895224",
      "street": "R CRUZEIRO",
      "house": "35",
      "postcode": "2820-637",
      "city": "CHARNECA DA CAPARICA",
      "lon": "-9.186950366061579",
      "lat": "38.61999061356081"
    },
    {
      "id": "pt.ine.add.PTCONT.4912947",
      "street": "R CRUZEIRO",
      "house": "",
      "postcode": "2820-637",
      "city": "CHARNECA DA CAPARICA",
      "lon": "-9.188691994577379",
      "lat": "38.618957009248895"
    },
    {
      "id": "pt.ine.add.PTCONT.4918217",
      "street": "R MÁRIO CASIMIRO",
      "house": "55",
      "postcode": "2820-181",
      "city": "CHARNECA DA CAPARICA",
      "lon": "-9.18706994243042",
      "lat": "38.618746432324855"
    },
    {
      "id": "pt.ine.add.PTCONT.4918218",
      "street": "R MÁRIO CASIMIRO",
      "house": "45",
      "postcode": "2820-181",
      "city": "CHARNECA DA CAPARICA",
      "lon": "-9.188551455917152",
      "lat": "38.61876910910922"
    },
    {
      "id": "pt.ine.add.PTCONT.4922168",
      "street": "PCT CRUZEIRO",
      "house": "1",
      "postcode": "2820-637",
      "city": "CHARNECA DA CAPARICA",
      "lon": "-9.18710687733485",
      "lat": "38.6197009477077"
    },
    {
      "id": "pt.ine.add.PTCONT.4939732",
      "street": "R MÁRIO CASIMIRO",
      "house": "57",
      "postcode": "2820-181",
      "city": "CHARNECA DA CAPARICA",
      "lon": "-9.186839541429586",
      "lat": "38.61869445959517"
    },
    {
      "id": "pt.ine.add.PTCONT.4945567",
      "street": "R CRUZEIRO",
      "house": "41",
      "postcode": "2820-637",
      "city": "CHARNECA DA CAPARICA",
      "lon": "-9.186864056137175",
      "lat": "38.62036972693845"
    },
    {
      "id": "pt.ine.add.PTCONT.4948659",
      "street": "R BEATO INÁCIO DE AZEVEDO",
      "house": "",
      "postcode": "2820-245",
      "city": "CHARNECA DA CAPARICA",
      "lon": "-9.186716945698418",
      "lat": "38.61894778771367"
    },
    {
      "id": "pt.ine.add.PTCONT.4954043",
      "street": "R MÁRIO CASIMIRO",
      "house": "",
      "postcode": "2820-181",
      "city": "CHARNECA DA CAPARICA",
      "lon": "-9.187769725861418",
      "lat": "38.61870409440542"
    },
    {
      "id": "pt.ine.add.PTCONT.4954044",
      "street": "R MÁRIO CASIMIRO",
      "house": "",
      "postcode": "2820-181",
      "city": "CHARNECA DA CAPARICA",
      "lon": "-9.187769725861418",
      "lat": "38.61870409440542"
    },
    {
      "id": "pt.ine.add.PTCONT.4965028",
      "street": "R DIOGO DE ANDRADE",
      "house": "5",
      "postcode": "2820-245",
      "city": "CHARNECA DA CAPARICA",
      "lon": "-9.18616478275447",
      "lat": "38.62044808692247"
    },
    {
      "id": "pt.ine.add.PTCONT.4972218",
      "street": "R BEATO INÁCIO DE AZEVEDO",
      "house": "24",
      "postcode": "2820-245",
      "city": "CHARNECA DA CAPARICA",
      "lon": "-9.186456827230655",
      "lat": "38.62000406597758"
    },
    {
      "id": "pt.ine.add.PTCONT.4983069",
      "street": "R MÁRIO CASIMIRO",
      "house": "16",
      "postcode": "2820-181",
      "city": "CHARNECA DA CAPARICA",
      "lon": "-9.187831085923758",
      "lat": "38.618973781309485"
    },
    {
      "id": "pt.ine.add.PTCONT.4986729",
      "street": "R MÁRIO CASIMIRO",
      "house": "43",
      "postcode": "2820-181",
      "city": "CHARNECA DA CAPARICA",
      "lon": "-9.188689089999173",
      "lat": "38.61875885944256"
    },
    {
      "id": "pt.ine.add.PTCONT.4997767",
      "street": "R QUINTA DA SAUDADE",
      "house": "50",
      "postcode": "2820-245",
      "city": "CHARNECA DA CAPARICA",
      "lon": "-9.186348909572216",
      "lat": "38.61890606137941"
    },
    {
      "id": "pt.ine.add.PTCONT.5001360",
      "street": "R BEATO INÁCIO DE AZEVEDO",
      "house": "38",
      "postcode": "2820-245",
      "city": "CHARNECA DA CAPARICA",
      "lon": "-9.186973472035612",
      "lat": "38.61921571739"
    },
    {
      "id": "pt.ine.add.PTCONT.5015955",
      "street": "R CRUZEIRO",
      "house": "",
      "postcode": "2820-637",
      "city": "CHARNECA DA CAPARICA",
      "lon": "-9.187426621545715",
      "lat": "38.61958096281151"
    },
    {
      "id": "pt.ine.add.PTCONT.5019952",
      "street": "R BEATO INÁCIO DE AZEVEDO",
      "house": "44",
      "postcode": "2820-245",
      "city": "CHARNECA DA CAPARICA",
      "lon": "-9.186521381165619",
      "lat": "38.61892252465069"
    },
    {
      "id": "pt.ine.add.PTCONT.5052978",
      "street": "R BEATO INÁCIO DE AZEVEDO",
      "house": "",
      "postcode": "2820-245",
      "city": "CHARNECA DA CAPARICA",
      "lon": "-9.186602782250585",
      "lat": "38.6197775518314"
    },
    {
      "id": "pt.ine.add.PTCONT.5062528",
      "street": "R BEATO INÁCIO DE AZEVEDO",
      "house": "",
      "postcode": "2820-245",
      "city": "CHARNECA DA CAPARICA",
      "lon": "-9.186850216938863",
      "lat": "38.61942401156347"
    },
    {
      "id": "pt.ine.add.PTCONT.5075700",
      "street": "R DIOGO DE ANDRADE",
      "house": "11",
      "postcode": "2820-245",
      "city": "CHARNECA DA CAPARICA",
      "lon": "-9.186657797592227",
      "lat": "38.620398608443416"
    },
    {
      "id": "pt.ine.add.PTCONT.5099413",
      "street": "R BEATO INÁCIO DE AZEVEDO",
      "house": "36",
      "postcode": "2820-245",
      "city": "CHARNECA DA CAPARICA",
      "lon": "-9.186906170176071",
      "lat": "38.61932441960193"
    },
    {
      "id": "pt.ine.add.PTCONT.5117206",
      "street": "R BEATO INÁCIO DE AZEVEDO",
      "house": "26",
      "postcode": "2820-245",
      "city": "CHARNECA DA CAPARICA",
      "lon": "-9.186535347559293",
      "lat": "38.61987724702108"
    }
  ]
}