{
  "data": {
    "distrito": "Setúbal",
    "concelho": "Setúbal",
    "freguesia": "Gâmbia-Pontes-Alto da Guerra",
    "OBJECTID": 498,
    "BGRI2021": "15120700501",
    "DT21": "15",
    "DTMN21": "1512",
    "DTMNFR21": "151207",
    "DTMNFRSEC21": "151207005",
    "SECNUM21": "005",
    "SSNUM21": "01",
    "SECSSNUM21": "00501",
    "OBJECTID_1": 170956,
    "DT": "15",
    "CC": "12",
    "fr": "07",
    "SEC": "005",
    "SS": "01"
  },
  "addresses": [
    {
      "id": "pt.ine.add.PTCONT.4675979",
      "street": "R LIMOEIROS",
      "house": "274",
      "postcode": "2910-272",
      "city": "SETÚBAL",
      "lon": "-8.859559497290146",
      "lat": "38.53847959008716"
    },
    {
      "id": "pt.ine.add.PTCONT.4821086",
      "street": "R LIMOEIROS",
      "house": "",
      "postcode": "2910-337",
      "city": "SETÚBAL",
      "lon": "-8.859037155893825",
      "lat": "38.537861256999335"
    },
    {
      "id": "pt.ine.add.PTCONT.4837683",
      "street": "R LIMOEIROS",
      "house": "281",
      "postcode": "2910-272",
      "city": "SETÚBAL",
      "lon": "-8.85994617178981",
      "lat": "38.5381528913543"
    },
    {
      "id": "pt.ine.add.PTCONT.4898916",
      "street": "R LIMOEIROS",
      "house": "279",
      "postcode": "2910-737",
      "city": "SETÚBAL",
      "lon": "-8.860028175297876",
      "lat": "38.53832353999349"
    },
    {
      "id": "pt.ine.add.PTCONT.5030792",
      "street": "R NOGUEIRAS",
      "house": "",
      "postcode": "2910-411",
      "city": "SETÚBAL",
      "lon": "-8.858955998130893",
      "lat": "38.53891573158514"
    },
    {
      "id": "pt.ine.add.PTCONT.5043903",
      "street": "R LIMOEIROS",
      "house": "",
      "postcode": "2910-337",
      "city": "SETÚBAL",
      "lon": "-8.858598835561247",
      "lat": "38.53875579586273"
    },
    {
      "id": "pt.ine.add.PTCONT.5080300",
      "street": "R LIMOEIROS",
      "house": "13",
      "postcode": "2910-337",
      "city": "SETÚBAL",
      "lon": "-8.858497516170221",
      "lat": "38.53894559799422"
    },
    {
      "id": "pt.ine.add.PTCONT.5100289",
      "street": "R NOGUEIRAS",
      "house": "",
      "postcode": "2910-411",
      "city": "SETÚBAL",
      "lon": "-8.859149700559282",
      "lat": "38.538788414322205"
    },
    {
      "id": "pt.ine.add.PTCONT.5127238",
      "street": "R URBANIZAÇÃO QTA DA AMIZADE",
      "house": "",
      "postcode": "2910-271",
      "city": "SETÚBAL",
      "lon": "-8.859124499209777",
      "lat": "38.53856336304417"
    }
  ]
}