{
  "data": {
    "distrito": "Lisboa",
    "concelho": "Sintra",
    "freguesia": "União das freguesias de São João das Lampas e Terrugem",
    "OBJECTID": 2807,
    "BGRI2021": "11112700201",
    "DT21": "11",
    "DTMN21": "1111",
    "DTMNFR21": "111127",
    "DTMNFRSEC21": "111127002",
    "SECNUM21": "002",
    "SSNUM21": "01",
    "SECSSNUM21": "00201",
    "OBJECTID_1": 114317,
    "DT": "11",
    "CC": "11",
    "fr": "27",
    "SEC": "002",
    "SS": "01"
  },
  "addresses": [
    {
      "id": "pt.ine.add.PTCONT.2336080",
      "street": "LG DENISOS",
      "house": "14 14A",
      "postcode": "2705-726",
      "city": "SÃO JOÃO DAS LAMPAS",
      "lon": "-9.412501575835158",
      "lat": "38.84861721071846"
    },
    {
      "id": "pt.ine.add.PTCONT.2344215",
      "street": "LG DENISOS",
      "house": "3",
      "postcode": "2705-726",
      "city": "SÃO JOÃO DAS LAMPAS",
      "lon": "-9.412105435604573",
      "lat": "38.84900887233436"
    },
    {
      "id": "pt.ine.add.PTCONT.2354131",
      "street": "R JULIO",
      "house": "14",
      "postcode": "2705-726",
      "city": "SÃO JOÃO DAS LAMPAS",
      "lon": "-9.41191294724546",
      "lat": "38.848551597538446"
    },
    {
      "id": "pt.ine.add.PTCONT.2427957",
      "street": "R RATO",
      "house": "7",
      "postcode": "2705-726",
      "city": "SÃO JOÃO DAS LAMPAS",
      "lon": "-9.411777474944543",
      "lat": "38.84899757322503"
    },
    {
      "id": "pt.ine.add.PTCONT.2484229",
      "street": "R NSA SRA DO O",
      "house": "27",
      "postcode": "2705-726",
      "city": "SÃO JOÃO DAS LAMPAS",
      "lon": "-9.41310167359066",
      "lat": "38.84739462221851"
    },
    {
      "id": "pt.ine.add.PTCONT.2714760",
      "street": "LG DENISOS",
      "house": "9",
      "postcode": "2705-726",
      "city": "SÃO JOÃO DAS LAMPAS",
      "lon": "-9.412471705078344",
      "lat": "38.848878755529675"
    },
    {
      "id": "pt.ine.add.PTCONT.2723524",
      "street": "R RATO",
      "house": "4",
      "postcode": "2705-726",
      "city": "SÃO JOÃO DAS LAMPAS",
      "lon": "-9.411737015773335",
      "lat": "38.84911430575884"
    },
    {
      "id": "pt.ine.add.PTCONT.2776677",
      "street": "LG FONTANARIO",
      "house": "1",
      "postcode": "2705-726",
      "city": "SÃO JOÃO DAS LAMPAS",
      "lon": "-9.412132016973029",
      "lat": "38.84920674628501"
    },
    {
      "id": "pt.ine.add.PTCONT.2791937",
      "street": "LG PALMEIRAS",
      "house": "15",
      "postcode": "2705-726",
      "city": "SÃO JOÃO DAS LAMPAS",
      "lon": "-9.411425478105604",
      "lat": "38.8489892943854"
    },
    {
      "id": "pt.ine.add.PTCONT.2859078",
      "street": "R EIRA DO ANTÓNIO PEDRO",
      "house": "12",
      "postcode": "2705-726",
      "city": "SÃO JOÃO DAS LAMPAS",
      "lon": "-9.41271738232025",
      "lat": "38.84780417107293"
    },
    {
      "id": "pt.ine.add.PTCONT.2867178",
      "street": "R EIRA DO ANTÓNIO PEDRO",
      "house": "2",
      "postcode": "2705-726",
      "city": "SÃO JOÃO DAS LAMPAS",
      "lon": "-9.412160824895832",
      "lat": "38.848242627940145"
    },
    {
      "id": "pt.ine.add.PTCONT.2874248",
      "street": "R EIRA DO ANTÓNIO PEDRO",
      "house": "10",
      "postcode": "2705-726",
      "city": "SÃO JOÃO DAS LAMPAS",
      "lon": "-9.41259005757364",
      "lat": "38.84776953603562"
    },
    {
      "id": "pt.ine.add.PTCONT.2930656",
      "street": "R RATO",
      "house": "8",
      "postcode": "2705-726",
      "city": "SÃO JOÃO DAS LAMPAS",
      "lon": "-9.411978592779658",
      "lat": "38.849001253879194"
    },
    {
      "id": "pt.ine.add.PTCONT.2930657",
      "street": "TV BACALHAU",
      "house": "1",
      "postcode": "2705-726",
      "city": "SÃO JOÃO DAS LAMPAS",
      "lon": "-9.411650614691393",
      "lat": "38.849053447593064"
    },
    {
      "id": "pt.ine.add.PTCONT.2979116",
      "street": "LG DENISOS",
      "house": "13",
      "postcode": "2705-726",
      "city": "SÃO JOÃO DAS LAMPAS",
      "lon": "-9.412793682432818",
      "lat": "38.848848205442835"
    },
    {
      "id": "pt.ine.add.PTCONT.2982464",
      "street": "LG DENISOS",
      "house": "16",
      "postcode": "2705-726",
      "city": "SÃO JOÃO DAS LAMPAS",
      "lon": "-9.41280858775031",
      "lat": "38.849037199669596"
    },
    {
      "id": "pt.ine.add.PTCONT.2994772",
      "street": "R EIRA DO ANTÓNIO PEDRO",
      "house": "8",
      "postcode": "2705-726",
      "city": "SÃO JOÃO DAS LAMPAS",
      "lon": "-9.412327118270111",
      "lat": "38.847880506431814"
    },
    {
      "id": "pt.ine.add.PTCONT.3013234",
      "street": "R RATO",
      "house": "10",
      "postcode": "2705-726",
      "city": "SÃO JOÃO DAS LAMPAS",
      "lon": "-9.412008465384933",
      "lat": "38.848739709168"
    },
    {
      "id": "pt.ine.add.PTCONT.3049538",
      "street": "LG DENISOS",
      "house": "6",
      "postcode": "2705-726",
      "city": "SÃO JOÃO DAS LAMPAS",
      "lon": "-9.412382315656377",
      "lat": "38.84903286226757"
    },
    {
      "id": "pt.ine.add.PTCONT.3162482",
      "street": "R EIRA DO ANTÓNIO PEDRO",
      "house": "18",
      "postcode": "2705-726",
      "city": "SÃO JOÃO DAS LAMPAS",
      "lon": "-9.41297451079048",
      "lat": "38.847368993324636"
    },
    {
      "id": "pt.ine.add.PTCONT.3245450",
      "street": "R EIRA DO ANTÓNIO PEDRO",
      "house": "6",
      "postcode": "2705-726",
      "city": "SÃO JOÃO DAS LAMPAS",
      "lon": "-9.412281375584785",
      "lat": "38.84789902246427"
    },
    {
      "id": "pt.ine.add.PTCONT.3254028",
      "street": "R EIRA DO ANTÓNIO PEDRO",
      "house": "14",
      "postcode": "2705-726",
      "city": "SÃO JOÃO DAS LAMPAS",
      "lon": "-9.412822158668622",
      "lat": "38.84786607555922"
    },
    {
      "id": "pt.ine.add.PTCONT.3272634",
      "street": "R NSA SRA DO O",
      "house": "29",
      "postcode": "2705-726",
      "city": "SÃO JOÃO DAS LAMPAS",
      "lon": "-9.413065833694333",
      "lat": "38.84732295497762"
    },
    {
      "id": "pt.ine.add.PTCONT.3428810",
      "street": "R EIRA ANTONIO PEDRO",
      "house": "4 A",
      "postcode": "2705-726",
      "city": "SÃO JOÃO DAS LAMPAS",
      "lon": "-9.412110566060734",
      "lat": "38.84800898325099"
    },
    {
      "id": "pt.ine.add.PTCONT.3428811",
      "street": "R EIRA DO ANTONIO PEDRO",
      "house": "4",
      "postcode": "2705-726",
      "city": "SÃO JOÃO DAS LAMPAS",
      "lon": "-9.412110566060734",
      "lat": "38.84800898325099"
    }
  ]
}