{
  "data": {
    "distrito": "Porto",
    "concelho": "Gondomar",
    "freguesia": "União das freguesias de Gondomar (São Cosme), Valbom e Jovim",
    "OBJECTID": 1099,
    "BGRI2021": "13041503417",
    "DT21": "13",
    "DTMN21": "1304",
    "DTMNFR21": "130415",
    "DTMNFRSEC21": "130415034",
    "SECNUM21": "034",
    "SSNUM21": "17",
    "SECSSNUM21": "03417",
    "OBJECTID_1": 128758,
    "DT": "13",
    "CC": "04",
    "fr": "15",
    "SEC": "034",
    "SS": "17"
  },
  "addresses": [
    {
      "id": "pt.ine.add.PTCONT.3615664",
      "street": "R MIGUEL TORGA",
      "house": "183",
      "postcode": "4420-504",
      "city": "VALBOM GDM",
      "lon": "-8.563909516055586",
      "lat": "41.12867959713393"
    },
    {
      "id": "pt.ine.add.PTCONT.3622492",
      "street": "R SETE CAPELAS",
      "house": "160",
      "postcode": "4420-365",
      "city": "VALBOM GDM",
      "lon": "-8.563174305925916",
      "lat": "41.12915957724694"
    },
    {
      "id": "pt.ine.add.PTCONT.3622493",
      "street": "R SETE CAPELAS",
      "house": "160",
      "postcode": "4420-365",
      "city": "VALBOM GDM",
      "lon": "-8.563174305925916",
      "lat": "41.12915957724694"
    },
    {
      "id": "pt.ine.add.PTCONT.3676154",
      "street": "R VINHA",
      "house": "",
      "postcode": "4420-578",
      "city": "VALBOM GDM",
      "lon": "-8.566080223782127",
      "lat": "41.130994593799564"
    },
    {
      "id": "pt.ine.add.PTCONT.3742796",
      "street": "R SETE CAPELAS",
      "house": "44",
      "postcode": "4420-365",
      "city": "VALBOM GDM",
      "lon": "-8.5629987922177",
      "lat": "41.12963746543623"
    },
    {
      "id": "pt.ine.add.PTCONT.3793067",
      "street": "R SETE CAPELAS",
      "house": "100",
      "postcode": "4420-365",
      "city": "VALBOM GDM",
      "lon": "-8.562998439580815",
      "lat": "41.12958344036431"
    },
    {
      "id": "pt.ine.add.PTCONT.3818386",
      "street": "R MARCENEIROS",
      "house": "853",
      "postcode": "4420-496",
      "city": "VALBOM GDM",
      "lon": "-8.568777829995659",
      "lat": "41.131920880594336"
    },
    {
      "id": "pt.ine.add.PTCONT.4090487",
      "street": "R SETE CAPELAS",
      "house": "114",
      "postcode": "4420-365",
      "city": "VALBOM GDM",
      "lon": "-8.562961949643904",
      "lat": "41.12946651934886"
    },
    {
      "id": "pt.ine.add.PTCONT.4139070",
      "street": "R MARCENEIROS",
      "house": "777",
      "postcode": "4420-496",
      "city": "VALBOM GDM",
      "lon": "-8.568216081182568",
      "lat": "41.13161685426276"
    },
    {
      "id": "pt.ine.add.PTCONT.4143029",
      "street": "R SETE CAPELAS",
      "house": "156",
      "postcode": "4420-365",
      "city": "VALBOM GDM",
      "lon": "-8.563531033574735",
      "lat": "41.12907720540083"
    },
    {
      "id": "pt.ine.add.PTCONT.4155995",
      "street": "R VINHA",
      "house": "131",
      "postcode": "4420-578",
      "city": "VALBOM GDM",
      "lon": "-8.56508082083149",
      "lat": "41.13114241592"
    },
    {
      "id": "pt.ine.add.PTCONT.4155996",
      "street": "R VINHA",
      "house": "131",
      "postcode": "4420-578",
      "city": "VALBOM GDM",
      "lon": "-8.56508082083149",
      "lat": "41.13114241592"
    },
    {
      "id": "pt.ine.add.PTCONT.4210739",
      "street": "R VINHA QTA DA VINHA",
      "house": "",
      "postcode": "4420-578",
      "city": "VALBOM GDM",
      "lon": "-8.565649551717101",
      "lat": "41.130699066565974"
    },
    {
      "id": "pt.ine.add.PTCONT.4221442",
      "street": "R SETE CAPELAS",
      "house": "156",
      "postcode": "4420-365",
      "city": "VALBOM GDM",
      "lon": "-8.56343688289705",
      "lat": "41.12924864070259"
    },
    {
      "id": "pt.ine.add.PTCONT.4225610",
      "street": "R SETE CAPELAS",
      "house": "156",
      "postcode": "4420-365",
      "city": "VALBOM GDM",
      "lon": "-8.56343688289705",
      "lat": "41.12924864070259"
    },
    {
      "id": "pt.ine.add.PTCONT.4247935",
      "street": "R SETE CAPELAS",
      "house": "126",
      "postcode": "4420-365",
      "city": "VALBOM GDM",
      "lon": "-8.5629611856686",
      "lat": "41.129349465021704"
    },
    {
      "id": "pt.ine.add.PTCONT.4253986",
      "street": "R S ROQUE",
      "house": "105",
      "postcode": "4420-550",
      "city": "VALBOM GDM",
      "lon": "-8.56341151110613",
      "lat": "41.13083350938611"
    },
    {
      "id": "pt.ine.add.PTCONT.4278149",
      "street": "R S ROQUE",
      "house": "33",
      "postcode": "4420-550",
      "city": "VALBOM GDM",
      "lon": "-8.563084151532985",
      "lat": "41.129943296398615"
    },
    {
      "id": "pt.ine.add.PTCONT.4278150",
      "street": "R S ROQUE",
      "house": "33",
      "postcode": "4420-550",
      "city": "VALBOM GDM",
      "lon": "-8.563084151532985",
      "lat": "41.129943296398615"
    },
    {
      "id": "pt.ine.add.PTCONT.4287426",
      "street": "R MARCENEIROS",
      "house": "1109",
      "postcode": "4420-496",
      "city": "VALBOM GDM",
      "lon": "-8.568598122228645",
      "lat": "41.131759480989814"
    },
    {
      "id": "pt.ine.add.PTCONT.4334094",
      "street": "R S ROQUE",
      "house": "13",
      "postcode": "4420-550",
      "city": "VALBOM GDM",
      "lon": "-8.56301146495083",
      "lat": "41.12975447531778"
    }
  ]
}