{
  "data": {
    "distrito": "Santarém",
    "concelho": "Alcanena",
    "freguesia": "Minde",
    "OBJECTID": 301,
    "BGRI2021": "14020600227",
    "DT21": "14",
    "DTMN21": "1402",
    "DTMNFR21": "140206",
    "DTMNFRSEC21": "140206002",
    "SECNUM21": "002",
    "SSNUM21": "27",
    "SECSSNUM21": "00227",
    "OBJECTID_1": 147958,
    "DT": "14",
    "CC": "02",
    "fr": "06",
    "SEC": "002",
    "SS": "27"
  },
  "addresses": [
    {
      "id": "pt.ine.add.PTCONT.4395420",
      "street": "R DR ANTÓNIO AUGUSTO FERREIRA SILVA TOTTA",
      "house": "19",
      "postcode": "2395-182",
      "city": "MINDE",
      "lon": "-8.689039469856256",
      "lat": "39.51412821276113"
    },
    {
      "id": "pt.ine.add.PTCONT.4395421",
      "street": "R ANTÓNIO JESUS SILVA",
      "house": "4",
      "postcode": "2395-137",
      "city": "MINDE",
      "lon": "-8.688220427433635",
      "lat": "39.51349263845718"
    },
    {
      "id": "pt.ine.add.PTCONT.4420124",
      "street": "R D NUNO ÁLVARES PEREIRA",
      "house": "15",
      "postcode": "2395-178",
      "city": "MINDE",
      "lon": "-8.688431377020313",
      "lat": "39.51369878911143"
    },
    {
      "id": "pt.ine.add.PTCONT.4440779",
      "street": "R D NUNO ÁLVARES PEREIRA",
      "house": "11",
      "postcode": "2395-178",
      "city": "MINDE",
      "lon": "-8.688560287287057",
      "lat": "39.5138242695076"
    },
    {
      "id": "pt.ine.add.PTCONT.4440780",
      "street": "R D NUNO ÁLVARES PEREIRA",
      "house": "11",
      "postcode": "2395-178",
      "city": "MINDE",
      "lon": "-8.688560287287057",
      "lat": "39.5138242695076"
    },
    {
      "id": "pt.ine.add.PTCONT.4448958",
      "street": "R D NUNO ÁLVARES PEREIRA CASA DA TOSA",
      "house": "17",
      "postcode": "2395-178",
      "city": "MINDE",
      "lon": "-8.68839599160636",
      "lat": "39.513635910012205"
    },
    {
      "id": "pt.ine.add.PTCONT.4450998",
      "street": "R JORNAL DE MINDE",
      "house": "2",
      "postcode": "2395-170",
      "city": "MINDE",
      "lon": "-8.688433241457313",
      "lat": "39.51393295893438"
    },
    {
      "id": "pt.ine.add.PTCONT.4452753",
      "street": "R JORNAL DE MINDE",
      "house": "2",
      "postcode": "2395-170",
      "city": "MINDE",
      "lon": "-8.688433241457313",
      "lat": "39.51393295893438"
    },
    {
      "id": "pt.ine.add.PTCONT.4470206",
      "street": "LG EIRAS",
      "house": "12",
      "postcode": "2395-126",
      "city": "MINDE",
      "lon": "-8.68815259581998",
      "lat": "39.513736147941955"
    },
    {
      "id": "pt.ine.add.PTCONT.4470207",
      "street": "LG EIRAS",
      "house": "12",
      "postcode": "2395-126",
      "city": "MINDE",
      "lon": "-8.68815259581998",
      "lat": "39.513736147941955"
    },
    {
      "id": "pt.ine.add.PTCONT.4473809",
      "street": "R JORNAL DE MINDE",
      "house": "1",
      "postcode": "2395-170",
      "city": "MINDE",
      "lon": "-8.68832794538606",
      "lat": "39.51385239999492"
    },
    {
      "id": "pt.ine.add.PTCONT.4475626",
      "street": "R JORNAL DE MINDE",
      "house": "1",
      "postcode": "2395-170",
      "city": "MINDE",
      "lon": "-8.68832794538606",
      "lat": "39.51385239999492"
    },
    {
      "id": "pt.ine.add.PTCONT.4480038",
      "street": "R DR ANTÓNIO AUGUSTO FERREIRA SILVA TOTTA",
      "house": "5",
      "postcode": "2395-182",
      "city": "MINDE",
      "lon": "-8.688701543331248",
      "lat": "39.514039759494636"
    },
    {
      "id": "pt.ine.add.PTCONT.4525217",
      "street": "R ANTÓNIO JESUS SILVA",
      "house": "2",
      "postcode": "2395-137",
      "city": "MINDE",
      "lon": "-8.688058928191651",
      "lat": "39.51365553323587"
    },
    {
      "id": "pt.ine.add.PTCONT.4525218",
      "street": "R ANTÓNIO JESUS SILVA",
      "house": "2",
      "postcode": "2395-137",
      "city": "MINDE",
      "lon": "-8.688058928191651",
      "lat": "39.51365553323587"
    },
    {
      "id": "pt.ine.add.PTCONT.4533474",
      "street": "LG EIRAS",
      "house": "15",
      "postcode": "2395-126",
      "city": "MINDE",
      "lon": "-8.688234564133001",
      "lat": "39.5138078115622"
    },
    {
      "id": "pt.ine.add.PTCONT.4533475",
      "street": "LG EIRAS",
      "house": "15",
      "postcode": "2395-126",
      "city": "MINDE",
      "lon": "-8.688234564133001",
      "lat": "39.5138078115622"
    },
    {
      "id": "pt.ine.add.PTCONT.4533771",
      "street": "LG EIRAS",
      "house": "15",
      "postcode": "2395-126",
      "city": "MINDE",
      "lon": "-8.688234564133001",
      "lat": "39.5138078115622"
    },
    {
      "id": "pt.ine.add.PTCONT.4654120",
      "street": "R DR ANTÓNIO AUGUSTO FERREIRA SILVA TOTTA",
      "house": "3",
      "postcode": "2395-182",
      "city": "MINDE",
      "lon": "-8.688608161590611",
      "lat": "39.51399517136693"
    }
  ]
}