{
  "data": {
    "distrito": "Castelo Branco",
    "concelho": "Castelo Branco",
    "freguesia": "Alcains",
    "OBJECTID": 1248,
    "BGRI2021": "05020100106",
    "DT21": "05",
    "DTMN21": "0502",
    "DTMNFR21": "050201",
    "DTMNFRSEC21": "050201001",
    "SECNUM21": "001",
    "SSNUM21": "06",
    "SECSSNUM21": "00106",
    "OBJECTID_1": 40627,
    "DT": "05",
    "CC": "02",
    "fr": "01",
    "SEC": "001",
    "SS": "06"
  },
  "addresses": [
    {
      "id": "pt.ine.add.PTCONT.951758",
      "street": "LG VIRIATO",
      "house": "5",
      "postcode": "6005-016",
      "city": "ALCAINS",
      "lon": "-7.45438282903532",
      "lat": "39.91430308044963"
    },
    {
      "id": "pt.ine.add.PTCONT.951759",
      "street": "R PADRAO",
      "house": "27",
      "postcode": "6005-083",
      "city": "ALCAINS",
      "lon": "-7.454599710543778",
      "lat": "39.91439397151079"
    },
    {
      "id": "pt.ine.add.PTCONT.951760",
      "street": "R PADRAO",
      "house": "27",
      "postcode": "6005-083",
      "city": "ALCAINS",
      "lon": "-7.454599710543778",
      "lat": "39.91439397151079"
    },
    {
      "id": "pt.ine.add.PTCONT.951773",
      "street": "R DR VICENTE SANCHES",
      "house": "21",
      "postcode": "6005-048",
      "city": "ALCAINS",
      "lon": "-7.454575398895986",
      "lat": "39.91482132024868"
    },
    {
      "id": "pt.ine.add.PTCONT.953956",
      "street": "TV DR VICENTE SANCHES",
      "house": "21",
      "postcode": "6005-105",
      "city": "ALCAINS",
      "lon": "-7.454128885744607",
      "lat": "39.91469742700328"
    },
    {
      "id": "pt.ine.add.PTCONT.953957",
      "street": "TV DR VICENTE SANCHES",
      "house": "1",
      "postcode": "6005-105",
      "city": "ALCAINS",
      "lon": "-7.454128174294882",
      "lat": "39.91476947258768"
    },
    {
      "id": "pt.ine.add.PTCONT.955180",
      "street": "R SIMÕES CARREGA",
      "house": "13",
      "postcode": "6005-093",
      "city": "ALCAINS",
      "lon": "-7.455017090269265",
      "lat": "39.91476566802147"
    },
    {
      "id": "pt.ine.add.PTCONT.960154",
      "street": "R DR VICENTE SANCHES",
      "house": "25",
      "postcode": "6005-048",
      "city": "ALCAINS",
      "lon": "-7.454642047498479",
      "lat": "39.91484453019163"
    },
    {
      "id": "pt.ine.add.PTCONT.961780",
      "street": "R REDUTO",
      "house": "36",
      "postcode": "6005-094",
      "city": "ALCAINS",
      "lon": "-7.4542029687513045",
      "lat": "39.91430158712956"
    },
    {
      "id": "pt.ine.add.PTCONT.971359",
      "street": "R PADRE MESTRE",
      "house": "17",
      "postcode": "6005-085",
      "city": "ALCAINS",
      "lon": "-7.454362165057279",
      "lat": "39.91476183626903"
    },
    {
      "id": "pt.ine.add.PTCONT.972018",
      "street": "R PADRE MESTRE",
      "house": "15",
      "postcode": "6005-085",
      "city": "ALCAINS",
      "lon": "-7.454303867414662",
      "lat": "39.914743482571716"
    },
    {
      "id": "pt.ine.add.PTCONT.978479",
      "street": "R PADRAO",
      "house": "3",
      "postcode": "6005-083",
      "city": "ALCAINS",
      "lon": "-7.454991857053139",
      "lat": "39.91461810216075"
    },
    {
      "id": "pt.ine.add.PTCONT.979423",
      "street": "TV DR VICENTE SANCHES",
      "house": "21",
      "postcode": "6005-105",
      "city": "ALCAINS",
      "lon": "-7.454223958003209",
      "lat": "39.9145448779376"
    },
    {
      "id": "pt.ine.add.PTCONT.979438",
      "street": "R PADRAO",
      "house": "25",
      "postcode": "6005-083",
      "city": "ALCAINS",
      "lon": "-7.454713256647322",
      "lat": "39.91446336682646"
    },
    {
      "id": "pt.ine.add.PTCONT.980636",
      "street": "R HOSPITAL VELHO",
      "house": "5",
      "postcode": "6005-062",
      "city": "ALCAINS",
      "lon": "-7.454584905040502",
      "lat": "39.91470910254907"
    },
    {
      "id": "pt.ine.add.PTCONT.981769",
      "street": "R HOSPITAL VELHO",
      "house": "15",
      "postcode": "6005-062",
      "city": "ALCAINS",
      "lon": "-7.454726934245207",
      "lat": "39.91453881539241"
    },
    {
      "id": "pt.ine.add.PTCONT.985851",
      "street": "R HOSPITAL VELHO",
      "house": "20",
      "postcode": "6005-062",
      "city": "ALCAINS",
      "lon": "-7.4548958453830085",
      "lat": "39.91470550438147"
    },
    {
      "id": "pt.ine.add.PTCONT.986727",
      "street": "R DR VICENTE SANCHES",
      "house": "33",
      "postcode": "6005-048",
      "city": "ALCAINS",
      "lon": "-7.454840242449182",
      "lat": "39.91490873320937"
    },
    {
      "id": "pt.ine.add.PTCONT.991737",
      "street": "R HOSPITAL VELHO",
      "house": "27",
      "postcode": "6005-062",
      "city": "ALCAINS",
      "lon": "-7.454971464563314",
      "lat": "39.914648320351915"
    },
    {
      "id": "pt.ine.add.PTCONT.991927",
      "street": "TV DR VICENTE SANCHES",
      "house": "2",
      "postcode": "6005-105",
      "city": "ALCAINS",
      "lon": "-7.45424672570632",
      "lat": "39.91460805476646"
    },
    {
      "id": "pt.ine.add.PTCONT.992778",
      "street": "R REDUTO",
      "house": "34",
      "postcode": "6005-094",
      "city": "ALCAINS",
      "lon": "-7.454179134108468",
      "lat": "39.91434647867597"
    },
    {
      "id": "pt.ine.add.PTCONT.995208",
      "street": "R PADRAO",
      "house": "9",
      "postcode": "6005-083",
      "city": "ALCAINS",
      "lon": "-7.454917188308008",
      "lat": "39.91457893242226"
    },
    {
      "id": "pt.ine.add.PTCONT.1004379",
      "street": "LG VIRIATO",
      "house": "4",
      "postcode": "6005-016",
      "city": "ALCAINS",
      "lon": "-7.45445793909346",
      "lat": "39.91431987265992"
    },
    {
      "id": "pt.ine.add.PTCONT.1005673",
      "street": "TV DR VICENTE SANCHES",
      "house": "22",
      "postcode": "6005-105",
      "city": "ALCAINS",
      "lon": "-7.4541658384329335",
      "lat": "39.914508512775086"
    },
    {
      "id": "pt.ine.add.PTCONT.1006834",
      "street": "R SIMÕES CARREGA",
      "house": "17",
      "postcode": "6005-093",
      "city": "ALCAINS",
      "lon": "-7.455029673495563",
      "lat": "39.9146756794145"
    },
    {
      "id": "pt.ine.add.PTCONT.1009633",
      "street": "R PADRAO",
      "house": "21",
      "postcode": "6005-083",
      "city": "ALCAINS",
      "lon": "-7.454773714465143",
      "lat": "39.91453908906327"
    },
    {
      "id": "pt.ine.add.PTCONT.1009675",
      "street": "R PADRAO",
      "house": "21",
      "postcode": "6005-083",
      "city": "ALCAINS",
      "lon": "-7.454773714465143",
      "lat": "39.91453908906327"
    },
    {
      "id": "pt.ine.add.PTCONT.1012444",
      "street": "LG VIRIATO",
      "house": "6",
      "postcode": "6005-016",
      "city": "ALCAINS",
      "lon": "-7.454315716235631",
      "lat": "39.91429141181195"
    },
    {
      "id": "pt.ine.add.PTCONT.1012445",
      "street": "LG VIRIATO",
      "house": "6",
      "postcode": "6005-016",
      "city": "ALCAINS",
      "lon": "-7.454315716235631",
      "lat": "39.91429141181195"
    },
    {
      "id": "pt.ine.add.PTCONT.1013909",
      "street": "TV DR VICENTE SANCHES",
      "house": "12",
      "postcode": "6005-105",
      "city": "ALCAINS",
      "lon": "-7.454222713145569",
      "lat": "39.91467095771553"
    },
    {
      "id": "pt.ine.add.PTCONT.1032285",
      "street": "R HOSPITAL VELHO",
      "house": "10",
      "postcode": "6005-062",
      "city": "ALCAINS",
      "lon": "-7.454690249651382",
      "lat": "39.91470071271387"
    },
    {
      "id": "pt.ine.add.PTCONT.1032286",
      "street": "R HOSPITAL VELHO",
      "house": "18",
      "postcode": "6005-062",
      "city": "ALCAINS",
      "lon": "-7.45484306201222",
      "lat": "39.91468088515809"
    },
    {
      "id": "pt.ine.add.PTCONT.1036148",
      "street": "TV DR VICENTE SANCHES",
      "house": "18",
      "postcode": "6005-105",
      "city": "ALCAINS",
      "lon": "-7.454157972431993",
      "lat": "39.91459267126385"
    },
    {
      "id": "pt.ine.add.PTCONT.1036398",
      "street": "TV DR VICENTE SANCHES",
      "house": "19",
      "postcode": "6005-105",
      "city": "ALCAINS",
      "lon": "-7.4543409085523695",
      "lat": "39.914545562586696"
    },
    {
      "id": "pt.ine.add.PTCONT.1036406",
      "street": "R REDUTO",
      "house": "38",
      "postcode": "6005-094",
      "city": "ALCAINS",
      "lon": "-7.454243706233723",
      "lat": "39.91428154452865"
    },
    {
      "id": "pt.ine.add.PTCONT.1037530",
      "street": "R HOSPITAL VELHO",
      "house": "23",
      "postcode": "6005-062",
      "city": "ALCAINS",
      "lon": "-7.454901560608336",
      "lat": "39.914620892858366"
    },
    {
      "id": "pt.ine.add.PTCONT.1038611",
      "street": "R HOSPITAL VELHO",
      "house": "A1",
      "postcode": "6005-062",
      "city": "ALCAINS",
      "lon": "-7.454644180230373",
      "lat": "39.91462839341551"
    },
    {
      "id": "pt.ine.add.PTCONT.1038622",
      "street": "R DR VICENTE SANCHES",
      "house": "32",
      "postcode": "6005-048",
      "city": "ALCAINS",
      "lon": "-7.454166107763737",
      "lat": "39.91440104944237"
    },
    {
      "id": "pt.ine.add.PTCONT.1038647",
      "street": "R DR VICENTE SANCHES",
      "house": "31",
      "postcode": "6005-048",
      "city": "ALCAINS",
      "lon": "-7.454793817355519",
      "lat": "39.91487243676707"
    },
    {
      "id": "pt.ine.add.PTCONT.1051169",
      "street": "R HOSPITAL VELHO",
      "house": "24",
      "postcode": "6005-062",
      "city": "ALCAINS",
      "lon": "-7.454951334220954",
      "lat": "39.914732237852604"
    },
    {
      "id": "pt.ine.add.PTCONT.1052242",
      "street": "R SIMÕES CARREGA",
      "house": "9",
      "postcode": "6005-093",
      "city": "ALCAINS",
      "lon": "-7.45500459582523",
      "lat": "39.9148466509259"
    },
    {
      "id": "pt.ine.add.PTCONT.1060803",
      "street": "R HOSPITAL VELHO",
      "house": "8",
      "postcode": "6005-062",
      "city": "ALCAINS",
      "lon": "-7.454643113867303",
      "lat": "39.914736461804594"
    },
    {
      "id": "pt.ine.add.PTCONT.1061395",
      "street": "R HOSPITAL VELHO",
      "house": "3J",
      "postcode": "6005-062",
      "city": "ALCAINS",
      "lon": "-7.4542194959130486",
      "lat": "39.914444563960295"
    },
    {
      "id": "pt.ine.add.PTCONT.1062967",
      "street": "R HOSPITAL VELHO",
      "house": "2",
      "postcode": "6005-062",
      "city": "ALCAINS",
      "lon": "-7.454479560405245",
      "lat": "39.914717492288325"
    },
    {
      "id": "pt.ine.add.PTCONT.1064868",
      "street": "R PADRAO",
      "house": "13",
      "postcode": "6005-083",
      "city": "ALCAINS",
      "lon": "-7.454843839045228",
      "lat": "39.914544137469484"
    },
    {
      "id": "pt.ine.add.PTCONT.1066805",
      "street": "R PADRAO",
      "house": "2",
      "postcode": "6005-083",
      "city": "ALCAINS",
      "lon": "-7.4545286550336884",
      "lat": "39.914345205823125"
    },
    {
      "id": "pt.ine.add.PTCONT.1066874",
      "street": "R DR VICENTE SANCHES",
      "house": "35",
      "postcode": "6005-048",
      "city": "ALCAINS",
      "lon": "-7.454910235499665",
      "lat": "39.914927155041575"
    },
    {
      "id": "pt.ine.add.PTCONT.1066875",
      "street": "R SIMÕES CARREGA",
      "house": "3",
      "postcode": "6005-093",
      "city": "ALCAINS",
      "lon": "-7.4550040629235195",
      "lat": "39.914900685122674"
    },
    {
      "id": "pt.ine.add.PTCONT.1070639",
      "street": "R PADRAO",
      "house": "5",
      "postcode": "6005-083",
      "city": "ALCAINS",
      "lon": "-7.4549485185327",
      "lat": "39.914603155059694"
    },
    {
      "id": "pt.ine.add.PTCONT.1072807",
      "street": "R PADRE MESTRE",
      "house": "19",
      "postcode": "6005-085",
      "city": "ALCAINS",
      "lon": "-7.454163413910721",
      "lat": "39.91477631561098"
    },
    {
      "id": "pt.ine.add.PTCONT.1074392",
      "street": "R HOSPITAL VELHO",
      "house": "9",
      "postcode": "6005-062",
      "city": "ALCAINS",
      "lon": "-7.4546188096816195",
      "lat": "39.914668468543795"
    },
    {
      "id": "pt.ine.add.PTCONT.1075024",
      "street": "TV DR VICENTE SANCHES",
      "house": "20",
      "postcode": "6005-105",
      "city": "ALCAINS",
      "lon": "-7.45428243327729",
      "lat": "39.914545220276885"
    },
    {
      "id": "pt.ine.add.PTCONT.1075034",
      "street": "R PADRAO",
      "house": "1",
      "postcode": "6005-083",
      "city": "ALCAINS",
      "lon": "-7.455061162439294",
      "lat": "39.914648235170596"
    },
    {
      "id": "pt.ine.add.PTCONT.1077303",
      "street": "R HOSPITAL VELHO",
      "house": "13",
      "postcode": "6005-062",
      "city": "ALCAINS",
      "lon": "-7.454656852777905",
      "lat": "39.91452939915143"
    },
    {
      "id": "pt.ine.add.PTCONT.1080444",
      "street": "R PADRE MESTRE",
      "house": "11",
      "postcode": "6005-085",
      "city": "ALCAINS",
      "lon": "-7.454222001794822",
      "lat": "39.91474300330163"
    },
    {
      "id": "pt.ine.add.PTCONT.1084049",
      "street": "R HOSPITAL VELHO",
      "house": "14",
      "postcode": "6005-062",
      "city": "ALCAINS",
      "lon": "-7.4547487250636335",
      "lat": "39.91470105481914"
    },
    {
      "id": "pt.ine.add.PTCONT.1085275",
      "street": "R DR VICENTE SANCHES",
      "house": "27",
      "postcode": "6005-048",
      "city": "ALCAINS",
      "lon": "-7.454723913246326",
      "lat": "39.91484500916618"
    },
    {
      "id": "pt.ine.add.PTCONT.1088679",
      "street": "R PADRAO",
      "house": "23",
      "postcode": "6005-083",
      "city": "ALCAINS",
      "lon": "-7.454762463647774",
      "lat": "39.91449399214949"
    },
    {
      "id": "pt.ine.add.PTCONT.1088709",
      "street": "R HOSPITAL VELHO",
      "house": "16",
      "postcode": "6005-062",
      "city": "ALCAINS",
      "lon": "-7.454773896892843",
      "lat": "39.914658709833354"
    },
    {
      "id": "pt.ine.add.PTCONT.1090643",
      "street": "R PADRE MESTRE",
      "house": "19",
      "postcode": "6005-085",
      "city": "ALCAINS",
      "lon": "-7.4544203738382135",
      "lat": "39.91478919563574"
    },
    {
      "id": "pt.ine.add.PTCONT.1090949",
      "street": "R DR VICENTE SANCHES",
      "house": "37",
      "postcode": "6005-048",
      "city": "ALCAINS",
      "lon": "-7.455038348961164",
      "lat": "39.914981941590085"
    }
  ]
}