{
  "data": {
    "distrito": "Leiria",
    "concelho": "Batalha",
    "freguesia": "Golpilheira",
    "OBJECTID": 483,
    "BGRI2021": "10040400139",
    "DT21": "10",
    "DTMN21": "1004",
    "DTMNFR21": "100404",
    "DTMNFRSEC21": "100404001",
    "SECNUM21": "001",
    "SSNUM21": "39",
    "SECSSNUM21": "00139",
    "OBJECTID_1": 86603,
    "DT": "10",
    "CC": "04",
    "fr": "04",
    "SEC": "001",
    "SS": "39"
  },
  "addresses": [
    {
      "id": "pt.ine.add.PTCONT.1979995",
      "street": "R ADRIAO",
      "house": "579",
      "postcode": "2440-232",
      "city": "GOLPILHEIRA",
      "lon": "-8.818530927035432",
      "lat": "39.693489687141"
    },
    {
      "id": "pt.ine.add.PTCONT.1982219",
      "street": "TV CHOPPICO",
      "house": "10",
      "postcode": "2440-232",
      "city": "GOLPILHEIRA",
      "lon": "-8.817903282525647",
      "lat": "39.69250266905993"
    },
    {
      "id": "pt.ine.add.PTCONT.1982220",
      "street": "R LEIRIA",
      "house": "635",
      "postcode": "2440-231",
      "city": "GOLPILHEIRA",
      "lon": "-8.820325627169266",
      "lat": "39.69224518116392"
    },
    {
      "id": "pt.ine.add.PTCONT.1988841",
      "street": "R LEIRIA",
      "house": "497",
      "postcode": "2440-231",
      "city": "GOLPILHEIRA",
      "lon": "-8.820080054829312",
      "lat": "39.693345434182355"
    },
    {
      "id": "pt.ine.add.PTCONT.1991071",
      "street": "TV RELVEIRO",
      "house": "79",
      "postcode": "2440-232",
      "city": "GOLPILHEIRA",
      "lon": "-8.818969461126567",
      "lat": "39.693036769888955"
    },
    {
      "id": "pt.ine.add.PTCONT.1991072",
      "street": "SIT CIVIDADE",
      "house": "211",
      "postcode": "2440-232",
      "city": "GOLPILHEIRA",
      "lon": "-8.818054295763233",
      "lat": "39.69244773902606"
    },
    {
      "id": "pt.ine.add.PTCONT.1994035",
      "street": "R ADRIAO",
      "house": "563",
      "postcode": "2440-232",
      "city": "GOLPILHEIRA",
      "lon": "-8.81846000143041",
      "lat": "39.69339103366465"
    },
    {
      "id": "pt.ine.add.PTCONT.2001654",
      "street": "TV RELVEIRO",
      "house": "4I",
      "postcode": "2440-232",
      "city": "GOLPILHEIRA",
      "lon": "-8.81872304836368",
      "lat": "39.69287610707041"
    },
    {
      "id": "pt.ine.add.PTCONT.2001687",
      "street": "R CHOUPICO",
      "house": "",
      "postcode": "2440-232",
      "city": "GOLPILHEIRA",
      "lon": "-8.818544176878401",
      "lat": "39.692471867995295"
    },
    {
      "id": "pt.ine.add.PTCONT.2010786",
      "street": "PTO DA ESCALEIRA",
      "house": "2",
      "postcode": "2440-231",
      "city": "GOLPILHEIRA",
      "lon": "-8.819734756236386",
      "lat": "39.69261794544714"
    },
    {
      "id": "pt.ine.add.PTCONT.2028213",
      "street": "TV RELVEIRO",
      "house": "27",
      "postcode": "2440-232",
      "city": "GOLPILHEIRA",
      "lon": "-8.81868647206935",
      "lat": "39.69271420500022"
    },
    {
      "id": "pt.ine.add.PTCONT.2048628",
      "street": "R COMBATENTES",
      "house": "74",
      "postcode": "2440-231",
      "city": "GOLPILHEIRA",
      "lon": "-8.819582613161664",
      "lat": "39.693735657976156"
    },
    {
      "id": "pt.ine.add.PTCONT.2048629",
      "street": "R CHOUPICO",
      "house": "177",
      "postcode": "2440-232",
      "city": "GOLPILHEIRA",
      "lon": "-8.818496745371393",
      "lat": "39.69239108895078"
    },
    {
      "id": "pt.ine.add.PTCONT.2049463",
      "street": "R ADRIAO",
      "house": "723",
      "postcode": "2440-232",
      "city": "GOLPILHEIRA",
      "lon": "-8.819582613161664",
      "lat": "39.693735657976156"
    },
    {
      "id": "pt.ine.add.PTCONT.2065522",
      "street": "TV RELVEIRO",
      "house": "21",
      "postcode": "2440-232",
      "city": "GOLPILHEIRA",
      "lon": "-8.818615457971587",
      "lat": "39.692606545569255"
    },
    {
      "id": "pt.ine.add.PTCONT.2071169",
      "street": "R LEIRIA",
      "house": "48S",
      "postcode": "2440-231",
      "city": "GOLPILHEIRA",
      "lon": "-8.819883303264104",
      "lat": "39.69349070292975"
    },
    {
      "id": "pt.ine.add.PTCONT.2080916",
      "street": "R COMBATENTES",
      "house": "41",
      "postcode": "2440-231",
      "city": "GOLPILHEIRA",
      "lon": "-8.819786918804295",
      "lat": "39.69317604349835"
    },
    {
      "id": "pt.ine.add.PTCONT.2086956",
      "street": "R CHOUPICO",
      "house": "129",
      "postcode": "2440-232",
      "city": "GOLPILHEIRA",
      "lon": "-8.818974166592508",
      "lat": "39.69233423063145"
    },
    {
      "id": "pt.ine.add.PTCONT.2101429",
      "street": "R ADRIAO",
      "house": "701",
      "postcode": "2440-232",
      "city": "GOLPILHEIRA",
      "lon": "-8.819350529580927",
      "lat": "39.69384510847091"
    },
    {
      "id": "pt.ine.add.PTCONT.2110089",
      "street": "R LEIRIA",
      "house": "475",
      "postcode": "2440-231",
      "city": "GOLPILHEIRA",
      "lon": "-8.819943287388579",
      "lat": "39.6936614726925"
    },
    {
      "id": "pt.ine.add.PTCONT.2113895",
      "street": "TV RELVEIRO",
      "house": "14",
      "postcode": "2440-232",
      "city": "GOLPILHEIRA",
      "lon": "-8.818406068241647",
      "lat": "39.69265281431227"
    },
    {
      "id": "pt.ine.add.PTCONT.2124841",
      "street": "R ADRIAO",
      "house": "441",
      "postcode": "2440-232",
      "city": "GOLPILHEIRA",
      "lon": "-8.817693892614592",
      "lat": "39.69254893652087"
    },
    {
      "id": "pt.ine.add.PTCONT.2124845",
      "street": "R LEIRIA",
      "house": "543",
      "postcode": "2440-232",
      "city": "GOLPILHEIRA",
      "lon": "-8.820146339942683",
      "lat": "39.69297577320776"
    },
    {
      "id": "pt.ine.add.PTCONT.2133448",
      "street": "R ADRIAO",
      "house": "589",
      "postcode": "2440-232",
      "city": "GOLPILHEIRA",
      "lon": "-8.818601763760238",
      "lat": "39.69357933454053"
    },
    {
      "id": "pt.ine.add.PTCONT.2140249",
      "street": "R LEIRIA",
      "house": "576",
      "postcode": "2440-232",
      "city": "GOLPILHEIRA",
      "lon": "-8.82028337304337",
      "lat": "39.69268675252589"
    },
    {
      "id": "pt.ine.add.PTCONT.2140250",
      "street": "R COMBATENTES",
      "house": "51",
      "postcode": "2440-231",
      "city": "GOLPILHEIRA",
      "lon": "-8.819541306506688",
      "lat": "39.693096436701175"
    },
    {
      "id": "pt.ine.add.PTCONT.2150884",
      "street": "R ADRIAO",
      "house": "575",
      "postcode": "2440-232",
      "city": "GOLPILHEIRA",
      "lon": "-8.81849533060362",
      "lat": "39.69342685136291"
    },
    {
      "id": "pt.ine.add.PTCONT.2155281",
      "street": "R CHOUPICO",
      "house": "71",
      "postcode": "2440-232",
      "city": "GOLPILHEIRA",
      "lon": "-8.819721403446444",
      "lat": "39.6924468998172"
    },
    {
      "id": "pt.ine.add.PTCONT.2181751",
      "street": "R LEIRIA",
      "house": "585",
      "postcode": "2440-232",
      "city": "GOLPILHEIRA",
      "lon": "-8.820305884343249",
      "lat": "39.69260556029214"
    },
    {
      "id": "pt.ine.add.PTCONT.2181752",
      "street": "R COMBATENTES",
      "house": "74",
      "postcode": "2440-231",
      "city": "GOLPILHEIRA",
      "lon": "-8.819573513797957",
      "lat": "39.69281704304696"
    },
    {
      "id": "pt.ine.add.PTCONT.2192026",
      "street": "R COMBATENTES",
      "house": "94",
      "postcode": "2440-231",
      "city": "GOLPILHEIRA",
      "lon": "-8.81936269721827",
      "lat": "39.69271921703792"
    },
    {
      "id": "pt.ine.add.PTCONT.2204662",
      "street": "PTO PATIO DA ESCALEIRA",
      "house": "1",
      "postcode": "2440-231",
      "city": "GOLPILHEIRA",
      "lon": "-8.82002637223314",
      "lat": "39.69263423381176"
    },
    {
      "id": "pt.ine.add.PTCONT.2216647",
      "street": "TV RELVEIRO",
      "house": "61",
      "postcode": "2440-232",
      "city": "GOLPILHEIRA",
      "lon": "-8.818747878161206",
      "lat": "39.693029071927654"
    },
    {
      "id": "pt.ine.add.PTCONT.2217263",
      "street": "R LEIRIA",
      "house": "557",
      "postcode": "2440-232",
      "city": "GOLPILHEIRA",
      "lon": "-8.820075323315972",
      "lat": "39.69286811469637"
    },
    {
      "id": "pt.ine.add.PTCONT.2219171",
      "street": "R CHOUPICO",
      "house": "107",
      "postcode": "2440-232",
      "city": "GOLPILHEIRA",
      "lon": "-8.819218705622864",
      "lat": "39.69230576629774"
    },
    {
      "id": "pt.ine.add.PTCONT.2219172",
      "street": "R LEIRIA",
      "house": "605",
      "postcode": "2440-231",
      "city": "GOLPILHEIRA",
      "lon": "-8.820362564256888",
      "lat": "39.69244310681413"
    },
    {
      "id": "pt.ine.add.PTCONT.2230777",
      "street": "R REGUEIRO",
      "house": "235",
      "postcode": "2440-232",
      "city": "GOLPILHEIRA",
      "lon": "-8.817692291299492",
      "lat": "39.69238682791734"
    },
    {
      "id": "pt.ine.add.PTCONT.2230902",
      "street": "R LEIRIA",
      "house": "517",
      "postcode": "2440-231",
      "city": "GOLPILHEIRA",
      "lon": "-8.820113777782787",
      "lat": "39.693219142882924"
    }
  ]
}