{
  "data": {
    "distrito": "Leiria",
    "concelho": "Porto de Mós",
    "freguesia": "São Bento",
    "OBJECTID": 29,
    "BGRI2021": "10161000182",
    "DT21": "10",
    "DTMN21": "1016",
    "DTMNFR21": "101610",
    "DTMNFRSEC21": "101610001",
    "SECNUM21": "001",
    "SSNUM21": "82",
    "SECSSNUM21": "00182",
    "OBJECTID_1": 97941,
    "DT": "10",
    "CC": "16",
    "fr": "10",
    "SEC": "001",
    "SS": "82"
  },
  "addresses": [
    {
      "id": "pt.ine.add.PTCONT.2021851",
      "street": "R EIRINHA",
      "house": "S N",
      "postcode": "2480-123",
      "city": "SÃO BENTO",
      "lon": "-8.79126816273812",
      "lat": "39.53058128493338"
    },
    {
      "id": "pt.ine.add.PTCONT.2086983",
      "street": "R LUÍS DE CAMÕES",
      "house": "",
      "postcode": "2480-142",
      "city": "SÃO BENTO",
      "lon": "-8.790187636100784",
      "lat": "39.52823661847437"
    },
    {
      "id": "pt.ine.add.PTCONT.2103234",
      "street": "R TAPADINHAS",
      "house": "S N",
      "postcode": "2480-142",
      "city": "SÃO BENTO",
      "lon": "-8.789937885271234",
      "lat": "39.52888652093062"
    },
    {
      "id": "pt.ine.add.PTCONT.2122039",
      "street": "R LUIS DE CAMÕES",
      "house": "",
      "postcode": "2480-142",
      "city": "SÃO BENTO",
      "lon": "-8.790325583225181",
      "lat": "39.52806470905496"
    },
    {
      "id": "pt.ine.add.PTCONT.2137218",
      "street": "LG IGREJA",
      "house": "S N",
      "postcode": "2480-142",
      "city": "SÃO BENTO",
      "lon": "-8.789566664458409",
      "lat": "39.52775375866525"
    },
    {
      "id": "pt.ine.add.PTCONT.2167838",
      "street": "LG IGREJA",
      "house": "S N",
      "postcode": "2480-142",
      "city": "SÃO BENTO",
      "lon": "-8.78962226972182",
      "lat": "39.5274832400149"
    },
    {
      "id": "pt.ine.add.PTCONT.2216549",
      "street": "R COVAO NOGUEIRA S BENTO",
      "house": "",
      "postcode": "2480-142",
      "city": "SÃO BENTO",
      "lon": "-8.787933056124455",
      "lat": "39.52718653606598"
    },
    {
      "id": "pt.ine.add.PTCONT.2233652",
      "street": "R LUIS DE CAMÕES",
      "house": "",
      "postcode": "2480-142",
      "city": "SÃO BENTO",
      "lon": "-8.790204953630806",
      "lat": "39.52760604318719"
    },
    {
      "id": "pt.ine.add.PTCONT.2262825",
      "street": "R LUIS DE CAMÕES",
      "house": "",
      "postcode": "2480-142",
      "city": "SÃO BENTO",
      "lon": "-8.790342138104647",
      "lat": "39.528587010973325"
    }
  ]
}