{
  "data": {
    "distrito": "Setúbal",
    "concelho": "Seixal",
    "freguesia": "Fernão Ferro",
    "OBJECTID": 1134,
    "BGRI2021": "15100600624",
    "DT21": "15",
    "DTMN21": "1510",
    "DTMNFR21": "151006",
    "DTMNFRSEC21": "151006006",
    "SECNUM21": "006",
    "SSNUM21": "24",
    "SECSSNUM21": "00624",
    "OBJECTID_1": 167561,
    "DT": "15",
    "CC": "10",
    "fr": "06",
    "SEC": "006",
    "SS": "24"
  },
  "addresses": [
    {
      "id": "pt.ine.add.PTCONT.4664118",
      "street": "R LUIS DE CAMÕES",
      "house": "",
      "postcode": "2865-601",
      "city": "FERNÃO FERRO",
      "lon": "-9.09605743543914",
      "lat": "38.56677047115434"
    },
    {
      "id": "pt.ine.add.PTCONT.4676141",
      "street": "R LUIS DE CAMÕES",
      "house": "87",
      "postcode": "2865-601",
      "city": "FERNÃO FERRO",
      "lon": "-9.096792882143369",
      "lat": "38.56685449978305"
    },
    {
      "id": "pt.ine.add.PTCONT.4699579",
      "street": "R EÇA DE QUEIROZ",
      "house": "",
      "postcode": "2865-083",
      "city": "FERNÃO FERRO",
      "lon": "-9.097124503465126",
      "lat": "38.56677069580884"
    },
    {
      "id": "pt.ine.add.PTCONT.4788406",
      "street": "R GIL VICENTE",
      "house": "38-A",
      "postcode": "2865-661",
      "city": "FERNÃO FERRO",
      "lon": "-9.096053348079382",
      "lat": "38.56646422815027"
    },
    {
      "id": "pt.ine.add.PTCONT.4792054",
      "street": "R LUIS DE CAMÕES",
      "house": "",
      "postcode": "2865-601",
      "city": "FERNÃO FERRO",
      "lon": "-9.096538922001711",
      "lat": "38.566739484635654"
    },
    {
      "id": "pt.ine.add.PTCONT.4871734",
      "street": "R JOSE REGIO",
      "house": "",
      "postcode": "2865-093",
      "city": "FERNÃO FERRO",
      "lon": "-9.096727579457156",
      "lat": "38.566260500444194"
    },
    {
      "id": "pt.ine.add.PTCONT.4922671",
      "street": "R JOSE REGIO",
      "house": "4",
      "postcode": "2865-093",
      "city": "FERNÃO FERRO",
      "lon": "-9.09647458366246",
      "lat": "38.566217542288946"
    },
    {
      "id": "pt.ine.add.PTCONT.4924464",
      "street": "R JOSÉ REGIO",
      "house": "",
      "postcode": "2865-093",
      "city": "FERNÃO FERRO",
      "lon": "-9.09647458366246",
      "lat": "38.566217542288946"
    },
    {
      "id": "pt.ine.add.PTCONT.4929574",
      "street": "R GIL VICENTE",
      "house": "38",
      "postcode": "2865-661",
      "city": "FERNÃO FERRO",
      "lon": "-9.095930155483785",
      "lat": "38.56669044497438"
    },
    {
      "id": "pt.ine.add.PTCONT.4944900",
      "street": "R GIL VICENTE",
      "house": "30",
      "postcode": "2865-665",
      "city": "",
      "lon": "-9.096109027513402",
      "lat": "38.56633765616275"
    },
    {
      "id": "pt.ine.add.PTCONT.4955807",
      "street": "R GIL VICENTE",
      "house": "",
      "postcode": "2865-665",
      "city": "",
      "lon": "-9.096209754993808",
      "lat": "38.56614765653759"
    },
    {
      "id": "pt.ine.add.PTCONT.5000964",
      "street": "R LUIS DE CAMÕES",
      "house": "",
      "postcode": "2865-601",
      "city": "FERNÃO FERRO",
      "lon": "-9.096329169291268",
      "lat": "38.5664979912435"
    }
  ]
}