{
  "data": {
    "distrito": "Setúbal",
    "concelho": "Barreiro",
    "freguesia": "Santo António da Charneca",
    "OBJECTID": 337,
    "BGRI2021": "15040700423",
    "DT21": "15",
    "DTMN21": "1504",
    "DTMNFR21": "150407",
    "DTMNFRSEC21": "150407004",
    "SECNUM21": "004",
    "SSNUM21": "23",
    "SECSSNUM21": "00423",
    "OBJECTID_1": 163073,
    "DT": "15",
    "CC": "04",
    "fr": "07",
    "SEC": "004",
    "SS": "23"
  },
  "addresses": [
    {
      "id": "pt.ine.add.PTCONT.4682357",
      "street": "R MARIA LAMAS",
      "house": "43A",
      "postcode": "2835-677",
      "city": "SANTO ANTÓNIO DA CHARNECA",
      "lon": "-9.02471945516619",
      "lat": "38.621105177409824"
    },
    {
      "id": "pt.ine.add.PTCONT.4682374",
      "street": "R LUIS DE CAMÕES",
      "house": "63",
      "postcode": "2835-655",
      "city": "SANTO ANTÓNIO DA CHARNECA",
      "lon": "-9.022759525167467",
      "lat": "38.61860683737022"
    },
    {
      "id": "pt.ine.add.PTCONT.4697274",
      "street": "R LUIS DE CAMÕES",
      "house": "",
      "postcode": "2835-655",
      "city": "SANTO ANTÓNIO DA CHARNECA",
      "lon": "-9.022944780096045",
      "lat": "38.618731542009556"
    },
    {
      "id": "pt.ine.add.PTCONT.4706860",
      "street": "R LUIS DE CAMÕES",
      "house": "62",
      "postcode": "2835-655",
      "city": "SANTO ANTÓNIO DA CHARNECA",
      "lon": "-9.022740346295604",
      "lat": "38.61891325858329"
    },
    {
      "id": "pt.ine.add.PTCONT.4718752",
      "street": "R MARIA LAMAS",
      "house": "16",
      "postcode": "2835-677",
      "city": "SANTO ANTÓNIO DA CHARNECA",
      "lon": "-9.023122866413194",
      "lat": "38.62106328478338"
    },
    {
      "id": "pt.ine.add.PTCONT.4722754",
      "street": "R JOSE DIAS COELHO",
      "house": "",
      "postcode": "2835-666",
      "city": "SANTO ANTÓNIO DA CHARNECA",
      "lon": "-9.024517009743569",
      "lat": "38.61588202254844"
    },
    {
      "id": "pt.ine.add.PTCONT.4734731",
      "street": "R MARIA LAMAS",
      "house": "",
      "postcode": "2835-677",
      "city": "SANTO ANTÓNIO DA CHARNECA",
      "lon": "-9.023599620378118",
      "lat": "38.62154609434993"
    },
    {
      "id": "pt.ine.add.PTCONT.4755739",
      "street": "R MARIA LAMAS",
      "house": "53",
      "postcode": "2835-677",
      "city": "SANTO ANTÓNIO DA CHARNECA",
      "lon": "-9.023962348554564",
      "lat": "38.621164993081265"
    },
    {
      "id": "pt.ine.add.PTCONT.4759290",
      "street": "R LUIS DE CAMÕES",
      "house": "",
      "postcode": "2835-655",
      "city": "SANTO ANTÓNIO DA CHARNECA",
      "lon": "-9.022803964506888",
      "lat": "38.62034506246607"
    },
    {
      "id": "pt.ine.add.PTCONT.4762736",
      "street": "R FRONTEIRA",
      "house": "",
      "postcode": "2835-482",
      "city": "SANTO ANTÓNIO DA CHARNECA",
      "lon": "-9.02120164361818",
      "lat": "38.62449195126722"
    },
    {
      "id": "pt.ine.add.PTCONT.4762750",
      "street": "R FRONTEIRA",
      "house": "116",
      "postcode": "2835-482",
      "city": "SANTO ANTÓNIO DA CHARNECA",
      "lon": "-9.019645770613812",
      "lat": "38.61936913602075"
    },
    {
      "id": "pt.ine.add.PTCONT.4810242",
      "street": "R EN PROJECTADA A RUA FRONTEIRA",
      "house": "",
      "postcode": "2835-482",
      "city": "SANTO ANTÓNIO DA CHARNECA",
      "lon": "-9.021677741022435",
      "lat": "38.62492072478586"
    },
    {
      "id": "pt.ine.add.PTCONT.4815233",
      "street": "R ACESSO PARTICULAR",
      "house": "",
      "postcode": "2835-708",
      "city": "SANTO ANTÓNIO DA CHARNECA",
      "lon": "-9.02455180537096",
      "lat": "38.621475786754964"
    },
    {
      "id": "pt.ine.add.PTCONT.4815234",
      "street": "R SEM NOME",
      "house": "",
      "postcode": "2835-708",
      "city": "SANTO ANTÓNIO DA CHARNECA",
      "lon": "-9.02289351993404",
      "lat": "38.62387555446723"
    },
    {
      "id": "pt.ine.add.PTCONT.4823066",
      "street": "R LUIS DE CAMÕES",
      "house": "",
      "postcode": "2835-655",
      "city": "SANTO ANTÓNIO DA CHARNECA",
      "lon": "-9.022928847243488",
      "lat": "38.61837133918955"
    },
    {
      "id": "pt.ine.add.PTCONT.4826543",
      "street": "R LUIS DE CAMÕES",
      "house": "",
      "postcode": "2835-655",
      "city": "SANTO ANTÓNIO DA CHARNECA",
      "lon": "-9.023693039333912",
      "lat": "38.620743662806355"
    },
    {
      "id": "pt.ine.add.PTCONT.4830773",
      "street": "R LUIS CAMOES",
      "house": "",
      "postcode": "2835-655",
      "city": "SANTO ANTÓNIO DA CHARNECA",
      "lon": "-9.023750446266153",
      "lat": "38.62074322582626"
    },
    {
      "id": "pt.ine.add.PTCONT.4838567",
      "street": "R FRONTEIRA",
      "house": "",
      "postcode": "2835-482",
      "city": "SANTO ANTÓNIO DA CHARNECA",
      "lon": "-9.0202422442341",
      "lat": "38.62118425091848"
    },
    {
      "id": "pt.ine.add.PTCONT.4855509",
      "street": "R LUIS DE CAMÕES",
      "house": "",
      "postcode": "2835-655",
      "city": "SANTO ANTÓNIO DA CHARNECA",
      "lon": "-9.023969484063606",
      "lat": "38.6208136230244"
    },
    {
      "id": "pt.ine.add.PTCONT.4857863",
      "street": "R FRONTEIRA",
      "house": "",
      "postcode": "2835-482",
      "city": "SANTO ANTÓNIO DA CHARNECA",
      "lon": "-9.019143680566785",
      "lat": "38.62148984257436"
    },
    {
      "id": "pt.ine.add.PTCONT.4874241",
      "street": "R DIU",
      "house": "44",
      "postcode": "2835-676",
      "city": "SANTO ANTÓNIO DA CHARNECA",
      "lon": "-9.025325627784875",
      "lat": "38.62091138649573"
    },
    {
      "id": "pt.ine.add.PTCONT.4874242",
      "street": "R MARIA LAMAS",
      "house": "",
      "postcode": "2835-677",
      "city": "SANTO ANTÓNIO DA CHARNECA",
      "lon": "-9.023403098234128",
      "lat": "38.62143949276931"
    },
    {
      "id": "pt.ine.add.PTCONT.4874983",
      "street": "R LUIS DE CAMÕES",
      "house": "62A",
      "postcode": "2835-655",
      "city": "SANTO ANTÓNIO DA CHARNECA",
      "lon": "-9.02297197166476",
      "lat": "38.61907364297984"
    },
    {
      "id": "pt.ine.add.PTCONT.4874984",
      "street": "R LUIS DE CAMÕES",
      "house": "62A",
      "postcode": "2835-655",
      "city": "SANTO ANTÓNIO DA CHARNECA",
      "lon": "-9.02297197166476",
      "lat": "38.61907364297984"
    },
    {
      "id": "pt.ine.add.PTCONT.4877155",
      "street": "R DIU",
      "house": "38",
      "postcode": "2835-676",
      "city": "SANTO ANTÓNIO DA CHARNECA",
      "lon": "-9.025437331828336",
      "lat": "38.62158614169845"
    },
    {
      "id": "pt.ine.add.PTCONT.4877286",
      "street": "R FRONTEIRA",
      "house": "118",
      "postcode": "2835-482",
      "city": "SANTO ANTÓNIO DA CHARNECA",
      "lon": "-9.01964044809619",
      "lat": "38.6189367875172"
    },
    {
      "id": "pt.ine.add.PTCONT.4878594",
      "street": "R JOSÉ DIAS COELHO",
      "house": "107",
      "postcode": "2835-666",
      "city": "SANTO ANTÓNIO DA CHARNECA",
      "lon": "-9.02463950922016",
      "lat": "38.61650264829054"
    },
    {
      "id": "pt.ine.add.PTCONT.4885094",
      "street": "R MARIA LAMAS",
      "house": "53A",
      "postcode": "2835-677",
      "city": "SANTO ANTÓNIO DA CHARNECA",
      "lon": "-9.024166674053223",
      "lat": "38.62097426715528"
    },
    {
      "id": "pt.ine.add.PTCONT.4902845",
      "street": "QTA RIBA COSTA",
      "house": "",
      "postcode": "2835-708",
      "city": "SANTO ANTÓNIO DA CHARNECA",
      "lon": "-9.021194547592001",
      "lat": "38.618330467173905"
    },
    {
      "id": "pt.ine.add.PTCONT.4909020",
      "street": "R FRONTEIRA",
      "house": "",
      "postcode": "2835-482",
      "city": "SANTO ANTÓNIO DA CHARNECA",
      "lon": "-9.020841148531543",
      "lat": "38.62412535532263"
    },
    {
      "id": "pt.ine.add.PTCONT.4909023",
      "street": "R LUIS DE CAMÕES",
      "house": "61",
      "postcode": "2835-655",
      "city": "SANTO ANTÓNIO DA CHARNECA",
      "lon": "-9.022963050463733",
      "lat": "38.61928089710249"
    },
    {
      "id": "pt.ine.add.PTCONT.4921144",
      "street": "R LUIS DE CAMÕES",
      "house": "",
      "postcode": "2835-655",
      "city": "SANTO ANTÓNIO DA CHARNECA",
      "lon": "-9.02293787977514",
      "lat": "38.61817309229173"
    },
    {
      "id": "pt.ine.add.PTCONT.4923339",
      "street": "R LUIS DE CAMÕES",
      "house": "",
      "postcode": "2835-655",
      "city": "SANTO ANTÓNIO DA CHARNECA",
      "lon": "-9.024152517669188",
      "lat": "38.6207581806712"
    },
    {
      "id": "pt.ine.add.PTCONT.4940437",
      "street": "QTA RIBA COSTA",
      "house": "",
      "postcode": "2835-708",
      "city": "SANTO ANTÓNIO DA CHARNECA",
      "lon": "-9.02061217182867",
      "lat": "38.61765927844769"
    },
    {
      "id": "pt.ine.add.PTCONT.4958593",
      "street": "R FRONTEIRA",
      "house": "122",
      "postcode": "2835-482",
      "city": "SANTO ANTÓNIO DA CHARNECA",
      "lon": "-9.019474169372478",
      "lat": "38.618487642218064"
    },
    {
      "id": "pt.ine.add.PTCONT.4958638",
      "street": "R CAMÕES",
      "house": "1",
      "postcode": "2835-675",
      "city": "SANTO ANTÓNIO DA CHARNECA",
      "lon": "-9.02483995078093",
      "lat": "38.620635838154705"
    },
    {
      "id": "pt.ine.add.PTCONT.4969276",
      "street": "R MARIA LAMAS",
      "house": "",
      "postcode": "2835-677",
      "city": "SANTO ANTÓNIO DA CHARNECA",
      "lon": "-9.023456273613565",
      "lat": "38.62109678050462"
    },
    {
      "id": "pt.ine.add.PTCONT.4976674",
      "street": "R MARIA LAMAS",
      "house": "",
      "postcode": "2835-677",
      "city": "SANTO ANTÓNIO DA CHARNECA",
      "lon": "-9.024504987343972",
      "lat": "38.62140407870082"
    },
    {
      "id": "pt.ine.add.PTCONT.4987427",
      "street": "R FRONTEIRA",
      "house": "98",
      "postcode": "2835-482",
      "city": "SANTO ANTÓNIO DA CHARNECA",
      "lon": "-9.019148401303921",
      "lat": "38.62094031285674"
    },
    {
      "id": "pt.ine.add.PTCONT.5005412",
      "street": "R MARIA LAMAS",
      "house": "4",
      "postcode": "2835-677",
      "city": "SANTO ANTÓNIO DA CHARNECA",
      "lon": "-9.024396525455533",
      "lat": "38.62099053261985"
    },
    {
      "id": "pt.ine.add.PTCONT.5038847",
      "street": "R LUIS DE CAMÕES",
      "house": "54A",
      "postcode": "2835-655",
      "city": "SANTO ANTÓNIO DA CHARNECA",
      "lon": "-9.024496290275849",
      "lat": "38.62070151353779"
    },
    {
      "id": "pt.ine.add.PTCONT.5057346",
      "street": "R SEM NOME",
      "house": "",
      "postcode": "2835-708",
      "city": "SANTO ANTÓNIO DA CHARNECA",
      "lon": "-9.02272118031251",
      "lat": "38.62386785690498"
    },
    {
      "id": "pt.ine.add.PTCONT.5057349",
      "street": "R JOSE DIAS COELHO",
      "house": "105",
      "postcode": "2835-666",
      "city": "SANTO ANTÓNIO DA CHARNECA",
      "lon": "-9.024769365534429",
      "lat": "38.61678991802257"
    },
    {
      "id": "pt.ine.add.PTCONT.5072399",
      "street": "R FRONTEIRA",
      "house": "28",
      "postcode": "2835-482",
      "city": "SANTO ANTÓNIO DA CHARNECA",
      "lon": "-9.021252015931225",
      "lat": "38.62485189255693"
    },
    {
      "id": "pt.ine.add.PTCONT.5075545",
      "street": "R MARIA LAMAS",
      "house": "31",
      "postcode": "2835-677",
      "city": "SANTO ANTÓNIO DA CHARNECA",
      "lon": "-9.022625381432594",
      "lat": "38.6207607927535"
    },
    {
      "id": "pt.ine.add.PTCONT.5075740",
      "street": "EM 510",
      "house": "",
      "postcode": "2835-804",
      "city": "SANTO ANTÓNIO DA CHARNECA",
      "lon": "-9.01930208316705",
      "lat": "38.616633276464825"
    },
    {
      "id": "pt.ine.add.PTCONT.5085795",
      "street": "R FRONTEIRA",
      "house": "",
      "postcode": "2835-482",
      "city": "SANTO ANTÓNIO DA CHARNECA",
      "lon": "-9.02106208236238",
      "lat": "38.62434888107361"
    },
    {
      "id": "pt.ine.add.PTCONT.5097233",
      "street": "R MARIA LAMAS",
      "house": "",
      "postcode": "2835-677",
      "city": "SANTO ANTÓNIO DA CHARNECA",
      "lon": "-9.024206357139139",
      "lat": "38.6213973454014"
    },
    {
      "id": "pt.ine.add.PTCONT.5101748",
      "street": "R DA FRONTEIRA",
      "house": "58",
      "postcode": "2835-471",
      "city": "SANTO ANTÓNIO DA CHARNECA",
      "lon": "-9.021016154483542",
      "lat": "38.624349229632024"
    },
    {
      "id": "pt.ine.add.PTCONT.5103473",
      "street": "R FRONTEIRA QTA MANUEL MARTINS",
      "house": "",
      "postcode": "2835-482",
      "city": "SANTO ANTÓNIO DA CHARNECA",
      "lon": "-9.01964503769406",
      "lat": "38.62210760345243"
    },
    {
      "id": "pt.ine.add.PTCONT.5107855",
      "street": "R FRONTEIRA",
      "house": "132",
      "postcode": "2835-482",
      "city": "SANTO ANTÓNIO DA CHARNECA",
      "lon": "-9.019403129400846",
      "lat": "38.61738018373721"
    },
    {
      "id": "pt.ine.add.PTCONT.5112136",
      "street": "R MARIA LAMAS",
      "house": "42A",
      "postcode": "2835-677",
      "city": "SANTO ANTÓNIO DA CHARNECA",
      "lon": "-9.024841958538728",
      "lat": "38.62079796857124"
    },
    {
      "id": "pt.ine.add.PTCONT.5117897",
      "street": "R FRONTEIRA",
      "house": "28",
      "postcode": "2835-482",
      "city": "SANTO ANTÓNIO DA CHARNECA",
      "lon": "-9.021228162980186",
      "lat": "38.624780008894525"
    },
    {
      "id": "pt.ine.add.PTCONT.5125324",
      "street": "EM 510",
      "house": "",
      "postcode": "2835-804",
      "city": "SANTO ANTÓNIO DA CHARNECA",
      "lon": "-9.019579727526056",
      "lat": "38.61680232725379"
    },
    {
      "id": "pt.ine.add.PTCONT.5128318",
      "street": "QTA AMASSADORES",
      "house": "",
      "postcode": "2835-708",
      "city": "SANTO ANTÓNIO DA CHARNECA",
      "lon": "-9.025090989539432",
      "lat": "38.62143564503029"
    }
  ]
}