{
  "data": {
    "distrito": "Porto",
    "concelho": "Marco de Canaveses",
    "freguesia": "Tabuado",
    "OBJECTID": 805,
    "BGRI2021": "13072400115",
    "DT21": "13",
    "DTMN21": "1307",
    "DTMNFR21": "130724",
    "DTMNFRSEC21": "130724001",
    "SECNUM21": "001",
    "SSNUM21": "15",
    "SECSSNUM21": "00115",
    "OBJECTID_1": 130992,
    "DT": "13",
    "CC": "07",
    "fr": "24",
    "SEC": "001",
    "SS": "15"
  },
  "addresses": [
    {
      "id": "pt.ine.add.PTCONT.3612025",
      "street": "PCT CRUZES",
      "house": "76",
      "postcode": "4635-426",
      "city": "TABUADO",
      "lon": "-8.124216902464859",
      "lat": "41.18381722696535"
    },
    {
      "id": "pt.ine.add.PTCONT.3679226",
      "street": "R PADRE JOAQUIM PEREIRA DA CUNHA",
      "house": "43",
      "postcode": "4635-488",
      "city": "TABUADO",
      "lon": "-8.12129659227809",
      "lat": "41.1849425078397"
    },
    {
      "id": "pt.ine.add.PTCONT.3789422",
      "street": "R DR AMADEU ENCARNAÇÃO",
      "house": "200",
      "postcode": "4635-485",
      "city": "TABUADO",
      "lon": "-8.124788990434968",
      "lat": "41.18393432622674"
    },
    {
      "id": "pt.ine.add.PTCONT.3789423",
      "street": "R DR AMADEU ENCARNAÇÃO",
      "house": "276",
      "postcode": "4635-485",
      "city": "TABUADO",
      "lon": "-8.124312184250416",
      "lat": "41.18433048207282"
    },
    {
      "id": "pt.ine.add.PTCONT.3790544",
      "street": "R DR AMADEU ENCARNAÇÃO",
      "house": "276",
      "postcode": "4635-485",
      "city": "TABUADO",
      "lon": "-8.124312184250416",
      "lat": "41.18433048207282"
    },
    {
      "id": "pt.ine.add.PTCONT.3800030",
      "street": "R DR AMADEU ENCARNAÇÃO",
      "house": "232",
      "postcode": "4635-485",
      "city": "TABUADO",
      "lon": "-8.124777051063962",
      "lat": "41.18409640361528"
    },
    {
      "id": "pt.ine.add.PTCONT.3876420",
      "street": "R DR AMADEU ENCARNAÇÃO",
      "house": "524",
      "postcode": "4635-485",
      "city": "TABUADO",
      "lon": "-8.121749438488308",
      "lat": "41.18538376632011"
    },
    {
      "id": "pt.ine.add.PTCONT.3945943",
      "street": "R PADRE JOAQUIM PEREIRA DA CUNHA",
      "house": "27",
      "postcode": "4635-488",
      "city": "TABUADO",
      "lon": "-8.121165509322454",
      "lat": "41.18479842478674"
    },
    {
      "id": "pt.ine.add.PTCONT.3955882",
      "street": "R DR AMADEU ENCARNAÇÃO",
      "house": "430",
      "postcode": "4635-485",
      "city": "TABUADO",
      "lon": "-8.122810302565911",
      "lat": "41.1849696661675"
    },
    {
      "id": "pt.ine.add.PTCONT.4111945",
      "street": "R DR AMADEU ENCARNAÇÃO",
      "house": "490",
      "postcode": "4635-485",
      "city": "TABUADO",
      "lon": "-8.122071291769087",
      "lat": "41.185158688979186"
    },
    {
      "id": "pt.ine.add.PTCONT.4123740",
      "street": "R DR AMADEU ENCARNAÇÃO",
      "house": "306",
      "postcode": "4635-485",
      "city": "TABUADO",
      "lon": "-8.124121526149962",
      "lat": "41.18400631085981"
    },
    {
      "id": "pt.ine.add.PTCONT.4150141",
      "street": "R DR AMADEU ENCARNAÇÃO",
      "house": "536",
      "postcode": "4635-485",
      "city": "TABUADO",
      "lon": "-8.121606398355722",
      "lat": "41.18544678253997"
    },
    {
      "id": "pt.ine.add.PTCONT.4215684",
      "street": "R DR AMADEU ENCARNAÇÃO",
      "house": "450",
      "postcode": "4635-485",
      "city": "TABUADO",
      "lon": "-8.12261959254833",
      "lat": "41.185005666341006"
    },
    {
      "id": "pt.ine.add.PTCONT.4215685",
      "street": "R DR AMADEU ENCARNAÇÃO",
      "house": "450",
      "postcode": "4635-485",
      "city": "TABUADO",
      "lon": "-8.12261959254833",
      "lat": "41.185005666341006"
    },
    {
      "id": "pt.ine.add.PTCONT.4222074",
      "street": "R CALVÁRIO",
      "house": "20",
      "postcode": "4635-426",
      "city": "TABUADO",
      "lon": "-8.123191978702863",
      "lat": "41.183195843263505"
    },
    {
      "id": "pt.ine.add.PTCONT.4228335",
      "street": "R DR AMADEU ENCARNAÇÃO",
      "house": "326",
      "postcode": "4635-485",
      "city": "TABUADO",
      "lon": "-8.123704290669018",
      "lat": "41.1845375340158"
    },
    {
      "id": "pt.ine.add.PTCONT.4228336",
      "street": "R DR AMADEU ENCARNAÇÃO",
      "house": "326",
      "postcode": "4635-485",
      "city": "TABUADO",
      "lon": "-8.123704290669018",
      "lat": "41.1845375340158"
    },
    {
      "id": "pt.ine.add.PTCONT.4254650",
      "street": "R SOBREIROS",
      "house": "20",
      "postcode": "4635-480",
      "city": "TABUADO",
      "lon": "-8.122500617367686",
      "lat": "41.18367301211956"
    },
    {
      "id": "pt.ine.add.PTCONT.4314903",
      "street": "R DR AMADEU ENCARNAÇÃO",
      "house": "514",
      "postcode": "4635-485",
      "city": "TABUADO",
      "lon": "-8.121868644804605",
      "lat": "41.185293734562606"
    },
    {
      "id": "pt.ine.add.PTCONT.4342437",
      "street": "R CALVARIO",
      "house": "128",
      "postcode": "4635-426",
      "city": "TABUADO",
      "lon": "-8.12369242719181",
      "lat": "41.18415034613457"
    }
  ]
}