{
  "data": {
    "distrito": "Porto",
    "concelho": "Marco de Canaveses",
    "freguesia": "Tabuado",
    "OBJECTID": 890,
    "BGRI2021": "13072400122",
    "DT21": "13",
    "DTMN21": "1307",
    "DTMNFR21": "130724",
    "DTMNFRSEC21": "130724001",
    "SECNUM21": "001",
    "SSNUM21": "22",
    "SECSSNUM21": "00122",
    "OBJECTID_1": 132078,
    "DT": "13",
    "CC": "07",
    "fr": "24",
    "SEC": "001",
    "SS": "22"
  },
  "addresses": [
    {
      "id": "pt.ine.add.PTCONT.3547597",
      "street": "TV PRADINHOS",
      "house": "151",
      "postcode": "4635-465",
      "city": "TABUADO",
      "lon": "-8.118078261435006",
      "lat": "41.18580654995586"
    },
    {
      "id": "pt.ine.add.PTCONT.3560873",
      "street": "R OUTEIRO",
      "house": "481",
      "postcode": "4635-457",
      "city": "TABUADO",
      "lon": "-8.114240713122674",
      "lat": "41.18432927255397"
    },
    {
      "id": "pt.ine.add.PTCONT.3593864",
      "street": "TV CHELES",
      "house": "6",
      "postcode": "4635-440",
      "city": "TABUADO",
      "lon": "-8.112905395013302",
      "lat": "41.18563467619801"
    },
    {
      "id": "pt.ine.add.PTCONT.3615920",
      "street": "TV CHELES",
      "house": "",
      "postcode": "4635-440",
      "city": "TABUADO",
      "lon": "-8.11263112582856",
      "lat": "41.18604882760316"
    },
    {
      "id": "pt.ine.add.PTCONT.3644340",
      "street": "R IGREJA",
      "house": "514",
      "postcode": "4635-449",
      "city": "TABUADO",
      "lon": "-8.119615824929788",
      "lat": "41.18585176206324"
    },
    {
      "id": "pt.ine.add.PTCONT.3684718",
      "street": "R COR FERNANDO MONTERROSO",
      "house": "48A",
      "postcode": "4635-502",
      "city": "TABUADO",
      "lon": "-8.11595635106447",
      "lat": "41.18694980513759"
    },
    {
      "id": "pt.ine.add.PTCONT.3735398",
      "street": "R IGREJA",
      "house": "590",
      "postcode": "4635-449",
      "city": "TABUADO",
      "lon": "-8.119889855536966",
      "lat": "41.18640105882196"
    },
    {
      "id": "pt.ine.add.PTCONT.3873236",
      "street": "TV CHELES",
      "house": "40",
      "postcode": "4635-440",
      "city": "TABUADO",
      "lon": "-8.11273861638816",
      "lat": "41.18534650778478"
    },
    {
      "id": "pt.ine.add.PTCONT.3935425",
      "street": "R IGREJA",
      "house": "504",
      "postcode": "4635-449",
      "city": "TABUADO",
      "lon": "-8.120187971962174",
      "lat": "41.18571676250018"
    },
    {
      "id": "pt.ine.add.PTCONT.4007819",
      "street": "R IGREJA",
      "house": "702",
      "postcode": "4635-449",
      "city": "TABUADO",
      "lon": "-8.119293689224415",
      "lat": "41.18736445353602"
    },
    {
      "id": "pt.ine.add.PTCONT.4009891",
      "street": "R IGREJA",
      "house": "702",
      "postcode": "4635-449",
      "city": "TABUADO",
      "lon": "-8.119293689224415",
      "lat": "41.18736445353602"
    },
    {
      "id": "pt.ine.add.PTCONT.4051090",
      "street": "R IGREJA",
      "house": "684",
      "postcode": "4635-449",
      "city": "TABUADO",
      "lon": "-8.119508276605544",
      "lat": "41.187184392231416"
    },
    {
      "id": "pt.ine.add.PTCONT.4130092",
      "street": "R OLIVEIRA",
      "house": "175",
      "postcode": "4635-449",
      "city": "TABUADO",
      "lon": "-8.118710259407065",
      "lat": "41.18451900929203"
    },
    {
      "id": "pt.ine.add.PTCONT.4150144",
      "street": "R IGREJA",
      "house": "476",
      "postcode": "4635-449",
      "city": "TABUADO",
      "lon": "-8.120271425371437",
      "lat": "41.18561772404006"
    },
    {
      "id": "pt.ine.add.PTCONT.4215686",
      "street": "R IGREJA",
      "house": "472",
      "postcode": "4635-449",
      "city": "TABUADO",
      "lon": "-8.120045035188788",
      "lat": "41.18524852043747"
    },
    {
      "id": "pt.ine.add.PTCONT.4228331",
      "street": "R COR FERNANDO MONTERROSO",
      "house": "48A",
      "postcode": "4635-502",
      "city": "TABUADO",
      "lon": "-8.115527275218776",
      "lat": "41.186868701355145"
    },
    {
      "id": "pt.ine.add.PTCONT.4254649",
      "street": "TV CHELES",
      "house": "",
      "postcode": "4635-440",
      "city": "TABUADO",
      "lon": "-8.11511064986034",
      "lat": "41.184851663866695"
    },
    {
      "id": "pt.ine.add.PTCONT.4347346",
      "street": "R OLIVEIRA",
      "house": "199",
      "postcode": "4635-449",
      "city": "TABUADO",
      "lon": "-8.118495752605066",
      "lat": "41.18436590838449"
    },
    {
      "id": "pt.ine.add.PTCONT.4366847",
      "street": "R PANCHORRA",
      "house": "14",
      "postcode": "4635-459",
      "city": "TABUADO",
      "lon": "-8.1164445272542",
      "lat": "41.18899386222438"
    },
    {
      "id": "pt.ine.add.PTCONT.4366848",
      "street": "R COR FERNANDO MONTERROSO",
      "house": "268",
      "postcode": "4635-502",
      "city": "TABUADO",
      "lon": "-8.1164445272542",
      "lat": "41.18899386222438"
    },
    {
      "id": "pt.ine.add.PTCONT.4372346",
      "street": "TV CHELES",
      "house": "78",
      "postcode": "4635-440",
      "city": "TABUADO",
      "lon": "-8.11292939914107",
      "lat": "41.18509441969832"
    }
  ]
}