{
  "data": {
    "distrito": "Castelo Branco",
    "concelho": "Covilhã",
    "freguesia": "Orjais",
    "OBJECTID": 730,
    "BGRI2021": "05031200107",
    "DT21": "05",
    "DTMN21": "0503",
    "DTMNFR21": "050312",
    "DTMNFRSEC21": "050312001",
    "SECNUM21": "001",
    "SSNUM21": "07",
    "SECSSNUM21": "00107",
    "OBJECTID_1": 42210,
    "DT": "05",
    "CC": "03",
    "fr": "12",
    "SEC": "001",
    "SS": "07"
  },
  "addresses": [
    {
      "id": "pt.ine.add.PTCONT.950876",
      "street": "QTA CARROS",
      "house": "",
      "postcode": "6200-580",
      "city": "ORJAIS",
      "lon": "-7.4270649893789225",
      "lat": "40.325231605235786"
    },
    {
      "id": "pt.ine.add.PTCONT.953123",
      "street": "QTA CARROCA",
      "house": "",
      "postcode": "6200-580",
      "city": "ORJAIS",
      "lon": "-7.419375468419148",
      "lat": "40.33363164010882"
    },
    {
      "id": "pt.ine.add.PTCONT.957164",
      "street": "",
      "house": "",
      "postcode": "6200-581",
      "city": "ORJAIS",
      "lon": "-7.415210591587221",
      "lat": "40.33243514278573"
    },
    {
      "id": "pt.ine.add.PTCONT.958636",
      "street": "QTA RECTA GRANVANCINHA",
      "house": "",
      "postcode": "6200-580",
      "city": "ORJAIS",
      "lon": "-7.4180017365096065",
      "lat": "40.329993912341585"
    },
    {
      "id": "pt.ine.add.PTCONT.959600",
      "street": "QTA GRAVANCINHA",
      "house": "",
      "postcode": "6200-580",
      "city": "ORJAIS",
      "lon": "-7.422231394911045",
      "lat": "40.33061435115379"
    },
    {
      "id": "pt.ine.add.PTCONT.968603",
      "street": "SIT CASARÃO",
      "house": "",
      "postcode": "6200-581",
      "city": "ORJAIS",
      "lon": "-7.414856488666221",
      "lat": "40.33475637958163"
    },
    {
      "id": "pt.ine.add.PTCONT.968604",
      "street": "QTA CARROCA",
      "house": "",
      "postcode": "6200-580",
      "city": "ORJAIS",
      "lon": "-7.42145419661614",
      "lat": "40.33514837713074"
    },
    {
      "id": "pt.ine.add.PTCONT.971344",
      "street": "QTA CHAO NOVO",
      "house": "",
      "postcode": "6200-580",
      "city": "ORJAIS",
      "lon": "-7.414919190543491",
      "lat": "40.33217217250303"
    },
    {
      "id": "pt.ine.add.PTCONT.974142",
      "street": "QTA CARROCA",
      "house": "59",
      "postcode": "6200-580",
      "city": "ORJAIS",
      "lon": "-7.421705713791331",
      "lat": "40.333609973015776"
    },
    {
      "id": "pt.ine.add.PTCONT.995515",
      "street": "QTA GRAVANCINHA",
      "house": "",
      "postcode": "6200-580",
      "city": "ORJAIS",
      "lon": "-7.4210699510150056",
      "lat": "40.331399697503265"
    },
    {
      "id": "pt.ine.add.PTCONT.996524",
      "street": "QTA GRAVACINHA",
      "house": "",
      "postcode": "6200-580",
      "city": "ORJAIS",
      "lon": "-7.419056440940325",
      "lat": "40.32928898791671"
    },
    {
      "id": "pt.ine.add.PTCONT.997430",
      "street": "QTA RETA",
      "house": "",
      "postcode": "6200-580",
      "city": "ORJAIS",
      "lon": "-7.419056440940325",
      "lat": "40.32928898791671"
    },
    {
      "id": "pt.ine.add.PTCONT.1010420",
      "street": "QTA RECTA GRANVANCINA",
      "house": "",
      "postcode": "6200-580",
      "city": "ORJAIS",
      "lon": "-7.418427035562214",
      "lat": "40.32983444059749"
    },
    {
      "id": "pt.ine.add.PTCONT.1012804",
      "street": "QTA GRAVANCINHA",
      "house": "",
      "postcode": "6200-580",
      "city": "ORJAIS",
      "lon": "-7.420799387202354",
      "lat": "40.33027233563014"
    },
    {
      "id": "pt.ine.add.PTCONT.1014512",
      "street": "QTA GRANVANCINHA",
      "house": "",
      "postcode": "6200-580",
      "city": "ORJAIS",
      "lon": "-7.418143978226808",
      "lat": "40.329895730362054"
    },
    {
      "id": "pt.ine.add.PTCONT.1021796",
      "street": "QTA GRAVANCINHA",
      "house": "",
      "postcode": "6200-580",
      "city": "ORJAIS",
      "lon": "-7.4207684691492695",
      "lat": "40.33097457958828"
    },
    {
      "id": "pt.ine.add.PTCONT.1029829",
      "street": "QTA CARROCA",
      "house": "1",
      "postcode": "6200-580",
      "city": "ORJAIS",
      "lon": "-7.42182976136363",
      "lat": "40.33412405302702"
    },
    {
      "id": "pt.ine.add.PTCONT.1032249",
      "street": "QTA CARROCA",
      "house": "",
      "postcode": "6200-580",
      "city": "ORJAIS",
      "lon": "-7.4180941962022064",
      "lat": "40.33349764911301"
    },
    {
      "id": "pt.ine.add.PTCONT.1041277",
      "street": "QTA GRAVANCINHA",
      "house": "",
      "postcode": "6200-580",
      "city": "ORJAIS",
      "lon": "-7.421712168018566",
      "lat": "40.328512861055245"
    },
    {
      "id": "pt.ine.add.PTCONT.1050507",
      "street": "QTA GRAVANCINHA",
      "house": "",
      "postcode": "6200-580",
      "city": "ORJAIS",
      "lon": "-7.422864202000852",
      "lat": "40.33198708480963"
    },
    {
      "id": "pt.ine.add.PTCONT.1054920",
      "street": "QTA CARROCA",
      "house": "",
      "postcode": "6200-580",
      "city": "ORJAIS",
      "lon": "-7.4200668779835395",
      "lat": "40.33390607125124"
    },
    {
      "id": "pt.ine.add.PTCONT.1065152",
      "street": "QTA GRAVANCINHA",
      "house": "",
      "postcode": "6200-580",
      "city": "ORJAIS",
      "lon": "-7.420429418168764",
      "lat": "40.330765363044364"
    },
    {
      "id": "pt.ine.add.PTCONT.1071993",
      "street": "QTA GRANVANCINHA",
      "house": "",
      "postcode": "6200-580",
      "city": "ORJAIS",
      "lon": "-7.423772689753875",
      "lat": "40.326139037738315"
    },
    {
      "id": "pt.ine.add.PTCONT.1071994",
      "street": "QTA CARROS",
      "house": "",
      "postcode": "6200-580",
      "city": "ORJAIS",
      "lon": "-7.426851895277395",
      "lat": "40.32535638248761"
    },
    {
      "id": "pt.ine.add.PTCONT.1082089",
      "street": "QTA GRAVANCINHA",
      "house": "",
      "postcode": "6200-580",
      "city": "ORJAIS",
      "lon": "-7.419936196544196",
      "lat": "40.332905647978"
    },
    {
      "id": "pt.ine.add.PTCONT.1082091",
      "street": "QTA GRANVANCINHA",
      "house": "",
      "postcode": "6200-580",
      "city": "ORJAIS",
      "lon": "-7.4230806831414355",
      "lat": "40.32592766391286"
    },
    {
      "id": "pt.ine.add.PTCONT.1083154",
      "street": "QTA GRAVANCINHA",
      "house": "",
      "postcode": "6200-580",
      "city": "ORJAIS",
      "lon": "-7.420668252058699",
      "lat": "40.33043362826694"
    },
    {
      "id": "pt.ine.add.PTCONT.1088925",
      "street": "QTA CHAO NOVO",
      "house": "",
      "postcode": "6200-581",
      "city": "ORJAIS",
      "lon": "-7.416858703266309",
      "lat": "40.332373315380046"
    },
    {
      "id": "pt.ine.add.PTCONT.1091216",
      "street": "QTA RETA",
      "house": "",
      "postcode": "6200-580",
      "city": "ORJAIS",
      "lon": "-7.418628962622438",
      "lat": "40.32965557664265"
    },
    {
      "id": "pt.ine.add.PTCONT.1091217",
      "street": "QTA RETA",
      "house": "",
      "postcode": "6200-580",
      "city": "ORJAIS",
      "lon": "-7.418628962622438",
      "lat": "40.32965557664265"
    },
    {
      "id": "pt.ine.add.PTCONT.1091223",
      "street": "QTA CHAO NOVO",
      "house": "",
      "postcode": "6200-581",
      "city": "ORJAIS",
      "lon": "-7.414777034867138",
      "lat": "40.332261345425486"
    },
    {
      "id": "pt.ine.add.PTCONT.1092334",
      "street": "QTA GRAVANCINHA",
      "house": "",
      "postcode": "6200-580",
      "city": "ORJAIS",
      "lon": "-7.4236786189896895",
      "lat": "40.32838084896147"
    }
  ]
}