{
  "data": {
    "distrito": "Guarda",
    "concelho": "Sabugal",
    "freguesia": "União das freguesias de Santo Estêvão e Moita",
    "OBJECTID": 112,
    "BGRI2021": "09114600124",
    "DT21": "09",
    "DTMN21": "0911",
    "DTMNFR21": "091146",
    "DTMNFRSEC21": "091146001",
    "SECNUM21": "001",
    "SSNUM21": "24",
    "SECSSNUM21": "00124",
    "OBJECTID_1": 80865,
    "DT": "09",
    "CC": "11",
    "fr": "46",
    "SEC": "001",
    "SS": "24"
  },
  "addresses": [
    {
      "id": "pt.ine.add.PTCONT.1906460",
      "street": "R SORTELHOS",
      "house": "16",
      "postcode": "6320-511",
      "city": "SANTO ESTEVÃO SBG",
      "lon": "-7.167251499723669",
      "lat": "40.29736409755912"
    },
    {
      "id": "pt.ine.add.PTCONT.1914672",
      "street": "R EIRAS DA TELHA",
      "house": "6",
      "postcode": "6320-511",
      "city": "SANTO ESTEVÃO SBG",
      "lon": "-7.16793306421736",
      "lat": "40.2974058078777"
    },
    {
      "id": "pt.ine.add.PTCONT.1943937",
      "street": "R CHÃO GRANDE",
      "house": "4",
      "postcode": "6320-511",
      "city": "SANTO ESTEVÃO SBG",
      "lon": "-7.167601990929782",
      "lat": "40.29752912261998"
    },
    {
      "id": "pt.ine.add.PTCONT.1952405",
      "street": "R EIRAS DA TELHA",
      "house": "10",
      "postcode": "6320-511",
      "city": "SANTO ESTEVÃO SBG",
      "lon": "-7.168039031952881",
      "lat": "40.29739768638295"
    },
    {
      "id": "pt.ine.add.PTCONT.1953376",
      "street": "R CRUZINHA",
      "house": "1",
      "postcode": "6320-511",
      "city": "SANTO ESTEVÃO SBG",
      "lon": "-7.166839773325243",
      "lat": "40.297369664935715"
    },
    {
      "id": "pt.ine.add.PTCONT.1957666",
      "street": "R CHÃO GRANDE",
      "house": "2",
      "postcode": "6320-511",
      "city": "SANTO ESTEVÃO SBG",
      "lon": "-7.167650568923508",
      "lat": "40.29742146175194"
    },
    {
      "id": "pt.ine.add.PTCONT.1960846",
      "street": "AV S SEBASTIÃO",
      "house": "14",
      "postcode": "6320-511",
      "city": "SANTO ESTEVÃO SBG",
      "lon": "-7.168273718717571",
      "lat": "40.297435665989916"
    },
    {
      "id": "pt.ine.add.PTCONT.1963144",
      "street": "R SORTELHOS",
      "house": "24",
      "postcode": "6320-511",
      "city": "SANTO ESTEVÃO SBG",
      "lon": "-7.1675685055835565",
      "lat": "40.29740276583039"
    },
    {
      "id": "pt.ine.add.PTCONT.1966036",
      "street": "R SORTELHOS",
      "house": "18",
      "postcode": "6320-511",
      "city": "SANTO ESTEVÃO SBG",
      "lon": "-7.1673218029744605",
      "lat": "40.29738269553056"
    },
    {
      "id": "pt.ine.add.PTCONT.1970162",
      "street": "R CRUZINHA",
      "house": "",
      "postcode": "6320-511",
      "city": "SANTO ESTEVÃO SBG",
      "lon": "-7.167600258850035",
      "lat": "40.29930319594391"
    },
    {
      "id": "pt.ine.add.PTCONT.1977159",
      "street": "R CRUZINHA",
      "house": "3",
      "postcode": "6320-511",
      "city": "SANTO ESTEVÃO SBG",
      "lon": "-7.167051324123684",
      "lat": "40.29738043720975"
    },
    {
      "id": "pt.ine.add.PTCONT.1859421",
      "street": "R EIRAS DA TELHA",
      "house": "12",
      "postcode": "6320-511",
      "city": "SANTO ESTEVÃO SBG",
      "lon": "-7.168179767117173",
      "lat": "40.297425876876936"
    },
    {
      "id": "pt.ine.add.PTCONT.1892900",
      "street": "R EIRAS DA TELHA",
      "house": "2",
      "postcode": "6320-511",
      "city": "SANTO ESTEVÃO SBG",
      "lon": "-7.167768168511991",
      "lat": "40.297422443099954"
    },
    {
      "id": "pt.ine.add.PTCONT.1893881",
      "street": "R SORTELHOS",
      "house": "20",
      "postcode": "6320-511",
      "city": "SANTO ESTEVÃO SBG",
      "lon": "-7.167427642533087",
      "lat": "40.297383579049225"
    }
  ]
}