{
  "data": {
    "distrito": "Guarda",
    "concelho": "Sabugal",
    "freguesia": "União das freguesias de Santo Estêvão e Moita",
    "OBJECTID": 295,
    "BGRI2021": "09114600132",
    "DT21": "09",
    "DTMN21": "0911",
    "DTMNFR21": "091146",
    "DTMNFRSEC21": "091146001",
    "SECNUM21": "001",
    "SSNUM21": "32",
    "SECSSNUM21": "00132",
    "OBJECTID_1": 81103,
    "DT": "09",
    "CC": "11",
    "fr": "46",
    "SEC": "001",
    "SS": "32"
  },
  "addresses": [
    {
      "id": "pt.ine.add.PTCONT.1900295",
      "street": "BC RIBEIRO",
      "house": "8",
      "postcode": "6320-511",
      "city": "SANTO ESTEVÃO SBG",
      "lon": "-7.164564189843443",
      "lat": "40.2977648901006"
    },
    {
      "id": "pt.ine.add.PTCONT.1904165",
      "street": "R FONTE DO MEIO",
      "house": "2",
      "postcode": "6320-511",
      "city": "SANTO ESTEVÃO SBG",
      "lon": "-7.165314064326214",
      "lat": "40.29714077909192"
    },
    {
      "id": "pt.ine.add.PTCONT.1926989",
      "street": "TV FONTE DO MEIO",
      "house": "10",
      "postcode": "6320-511",
      "city": "SANTO ESTEVÃO SBG",
      "lon": "-7.16500406561297",
      "lat": "40.29743536761161"
    },
    {
      "id": "pt.ine.add.PTCONT.1927430",
      "street": "R DIREITA",
      "house": "32",
      "postcode": "6320-511",
      "city": "SANTO ESTEVÃO SBG",
      "lon": "-7.165065178668883",
      "lat": "40.2972737796027"
    },
    {
      "id": "pt.ine.add.PTCONT.1930082",
      "street": "R STA MARIA",
      "house": "1O",
      "postcode": "6320-511",
      "city": "SANTO ESTEVÃO SBG",
      "lon": "-7.1636049363806515",
      "lat": "40.29822514229278"
    },
    {
      "id": "pt.ine.add.PTCONT.1937376",
      "street": "R DIREITA",
      "house": "38",
      "postcode": "6320-511",
      "city": "SANTO ESTEVÃO SBG",
      "lon": "-7.165160671597065",
      "lat": "40.29717551787038"
    },
    {
      "id": "pt.ine.add.PTCONT.1938384",
      "street": "R STA MARIA",
      "house": "12",
      "postcode": "6320-511",
      "city": "SANTO ESTEVÃO SBG",
      "lon": "-7.163769834944504",
      "lat": "40.29820851304201"
    },
    {
      "id": "pt.ine.add.PTCONT.1940353",
      "street": "R DIREITA",
      "house": "10",
      "postcode": "6320-511",
      "city": "SANTO ESTEVÃO SBG",
      "lon": "-7.16456611860702",
      "lat": "40.29762982342603"
    },
    {
      "id": "pt.ine.add.PTCONT.1942396",
      "street": "R DIREITA",
      "house": "14",
      "postcode": "6320-511",
      "city": "SANTO ESTEVÃO SBG",
      "lon": "-7.164696378399262",
      "lat": "40.29756787523722"
    },
    {
      "id": "pt.ine.add.PTCONT.1942783",
      "street": "R DIREITA",
      "house": "24",
      "postcode": "6320-511",
      "city": "SANTO ESTEVÃO SBG",
      "lon": "-7.164934405640932",
      "lat": "40.29737174600639"
    },
    {
      "id": "pt.ine.add.PTCONT.1953389",
      "street": "R DIREITA",
      "house": "44",
      "postcode": "6320-511",
      "city": "SANTO ESTEVÃO SBG",
      "lon": "-7.1652794270552755",
      "lat": "40.29709546171455"
    },
    {
      "id": "pt.ine.add.PTCONT.1967119",
      "street": "R DIREITA",
      "house": "46",
      "postcode": "6320-511",
      "city": "SANTO ESTEVÃO SBG",
      "lon": "-7.165292214828285",
      "lat": "40.29702352451191"
    },
    {
      "id": "pt.ine.add.PTCONT.1974078",
      "street": "R LUIS CARMONA",
      "house": "6",
      "postcode": "6320-511",
      "city": "SANTO ESTEVÃO SBG",
      "lon": "-7.165454540833273",
      "lat": "40.29718698177918"
    },
    {
      "id": "pt.ine.add.PTCONT.1975863",
      "street": "R BICA",
      "house": "1",
      "postcode": "6320-511",
      "city": "SANTO ESTEVÃO SBG",
      "lon": "-7.165583971014228",
      "lat": "40.29800756680999"
    },
    {
      "id": "pt.ine.add.PTCONT.1977233",
      "street": "R DIREITA",
      "house": "18",
      "postcode": "6320-511",
      "city": "SANTO ESTEVÃO SBG",
      "lon": "-7.164791229512035",
      "lat": "40.297514636054835"
    },
    {
      "id": "pt.ine.add.PTCONT.1977327",
      "street": "R STA MARIA",
      "house": "8",
      "postcode": "6320-511",
      "city": "SANTO ESTEVÃO SBG",
      "lon": "-7.163451154153442",
      "lat": "40.29828689208286"
    },
    {
      "id": "pt.ine.add.PTCONT.1852435",
      "street": "R DIREITA",
      "house": "42",
      "postcode": "6320-511",
      "city": "SANTO ESTEVÃO SBG",
      "lon": "-7.165208739197372",
      "lat": "40.297103875853864"
    },
    {
      "id": "pt.ine.add.PTCONT.1865423",
      "street": "TV FONTE DO MEIO",
      "house": "22",
      "postcode": "6320-511",
      "city": "SANTO ESTEVÃO SBG",
      "lon": "-7.164886723178704",
      "lat": "40.29741637456132"
    },
    {
      "id": "pt.ine.add.PTCONT.1873861",
      "street": "R FONTE DO MEIO",
      "house": "6",
      "postcode": "6320-511",
      "city": "SANTO ESTEVÃO SBG",
      "lon": "-7.165193638343359",
      "lat": "40.297337893097115"
    },
    {
      "id": "pt.ine.add.PTCONT.1875281",
      "street": "R FONTE CIMA",
      "house": "",
      "postcode": "6320-511",
      "city": "SANTO ESTEVÃO SBG",
      "lon": "-7.1636740811290816",
      "lat": "40.29832478245154"
    },
    {
      "id": "pt.ine.add.PTCONT.1883054",
      "street": "R DIREITA",
      "house": "12",
      "postcode": "6320-511",
      "city": "SANTO ESTEVÃO SBG",
      "lon": "-7.164637064234957",
      "lat": "40.2976034007969"
    },
    {
      "id": "pt.ine.add.PTCONT.1883055",
      "street": "BC RIBEIRO",
      "house": "4",
      "postcode": "6320-511",
      "city": "SANTO ESTEVÃO SBG",
      "lon": "-7.164470881368142",
      "lat": "40.297710075752995"
    },
    {
      "id": "pt.ine.add.PTCONT.1883073",
      "street": "R LUIS CARMONA",
      "house": "2",
      "postcode": "6320-511",
      "city": "SANTO ESTEVÃO SBG",
      "lon": "-7.165387193185048",
      "lat": "40.29696128037336"
    },
    {
      "id": "pt.ine.add.PTCONT.1884065",
      "street": "R STA MARIA",
      "house": "416",
      "postcode": "6320-511",
      "city": "SANTO ESTEVÃO SBG",
      "lon": "-7.163402440139391",
      "lat": "40.29840355552709"
    },
    {
      "id": "pt.ine.add.PTCONT.1885661",
      "street": "R LUIS CARMONA",
      "house": "4",
      "postcode": "6320-511",
      "city": "SANTO ESTEVÃO SBG",
      "lon": "-7.16540955670679",
      "lat": "40.297042517145535"
    },
    {
      "id": "pt.ine.add.PTCONT.1891024",
      "street": "R DIREITA",
      "house": "2",
      "postcode": "6320-511",
      "city": "SANTO ESTEVÃO SBG",
      "lon": "-7.164328603859458",
      "lat": "40.29778993409068"
    },
    {
      "id": "pt.ine.add.PTCONT.1891025",
      "street": "R DIREITA",
      "house": "16",
      "postcode": "6320-511",
      "city": "SANTO ESTEVÃO SBG",
      "lon": "-7.1647551782684165",
      "lat": "40.297568367429"
    },
    {
      "id": "pt.ine.add.PTCONT.1891028",
      "street": "R FONTE DO MEIO",
      "house": "8",
      "postcode": "6320-511",
      "city": "SANTO ESTEVÃO SBG",
      "lon": "-7.165191967849164",
      "lat": "40.29745495090957"
    },
    {
      "id": "pt.ine.add.PTCONT.1894488",
      "street": "R FONTE CIMA",
      "house": "",
      "postcode": "6320-511",
      "city": "SANTO ESTEVÃO SBG",
      "lon": "-7.163742067806364",
      "lat": "40.29850546254389"
    },
    {
      "id": "pt.ine.add.PTCONT.1895642",
      "street": "R DIREITA",
      "house": "34",
      "postcode": "6320-511",
      "city": "SANTO ESTEVÃO SBG",
      "lon": "-7.165124749337278",
      "lat": "40.29722024492112"
    },
    {
      "id": "pt.ine.add.PTCONT.1896323",
      "street": "R DIREITA",
      "house": "26",
      "postcode": "6320-511",
      "city": "SANTO ESTEVÃO SBG",
      "lon": "-7.1650058649542725",
      "lat": "40.297309305358546"
    },
    {
      "id": "pt.ine.add.PTCONT.1897732",
      "street": "R STA MARIA",
      "house": "2",
      "postcode": "6320-511",
      "city": "SANTO ESTEVÃO SBG",
      "lon": "-7.163237669784443",
      "lat": "40.298411179806685"
    }
  ]
}