{
  "data": {
    "distrito": "Santarém",
    "concelho": "Chamusca",
    "freguesia": "União das freguesias da Chamusca e Pinheiro Grande",
    "OBJECTID": 189,
    "BGRI2021": "14070800209",
    "DT21": "14",
    "DTMN21": "1407",
    "DTMNFR21": "140708",
    "DTMNFRSEC21": "140708002",
    "SECNUM21": "002",
    "SSNUM21": "09",
    "SECSSNUM21": "00209",
    "OBJECTID_1": 149954,
    "DT": "14",
    "CC": "07",
    "fr": "08",
    "SEC": "002",
    "SS": "09"
  },
  "addresses": [
    {
      "id": "pt.ine.add.PTCONT.4426713",
      "street": "TV MISERICÓRDIA",
      "house": "7 A",
      "postcode": "2140-151",
      "city": "CHAMUSCA",
      "lon": "-8.482982610223825",
      "lat": "39.35582151088089"
    },
    {
      "id": "pt.ine.add.PTCONT.4435862",
      "street": "R MIGUEL BOMBARDA",
      "house": "30",
      "postcode": "2140-134",
      "city": "CHAMUSCA",
      "lon": "-8.48298040882766",
      "lat": "39.35538016625926"
    },
    {
      "id": "pt.ine.add.PTCONT.4445164",
      "street": "R MIGUEL BOMBARDA",
      "house": "34",
      "postcode": "2140-134",
      "city": "CHAMUSCA",
      "lon": "-8.483026322054428",
      "lat": "39.355280949369956"
    },
    {
      "id": "pt.ine.add.PTCONT.4470402",
      "street": "R VISC DE STA MARGARIDA",
      "house": "16",
      "postcode": "2140-143",
      "city": "CHAMUSCA",
      "lon": "-8.48377648000749",
      "lat": "39.35448606062332"
    },
    {
      "id": "pt.ine.add.PTCONT.4516562",
      "street": "TV IGREJA",
      "house": "JN",
      "postcode": "2140-098",
      "city": "CHAMUSCA",
      "lon": "-8.483350994029585",
      "lat": "39.35524394407437"
    },
    {
      "id": "pt.ine.add.PTCONT.4524747",
      "street": "R MIGUEL BOMBARDA",
      "house": "64",
      "postcode": "2140-134",
      "city": "CHAMUSCA",
      "lon": "-8.483509280495245",
      "lat": "39.35441480804576"
    },
    {
      "id": "pt.ine.add.PTCONT.4531346",
      "street": "R MIGUEL BOMBARDA",
      "house": "22",
      "postcode": "2140-134",
      "city": "CHAMUSCA",
      "lon": "-8.482831066454882",
      "lat": "39.35567785167569"
    },
    {
      "id": "pt.ine.add.PTCONT.4534760",
      "street": "R MIGUEL BOMBARDA",
      "house": "16",
      "postcode": "2140-134",
      "city": "CHAMUSCA",
      "lon": "-8.482739149016087",
      "lat": "39.35585827120642"
    },
    {
      "id": "pt.ine.add.PTCONT.4550552",
      "street": "R MIGUEL BOMBARDA",
      "house": "20",
      "postcode": "2140-134",
      "city": "CHAMUSCA",
      "lon": "-8.482773460960617",
      "lat": "39.35575908927572"
    },
    {
      "id": "pt.ine.add.PTCONT.4552708",
      "street": "R DIREITA DE S PEDRO",
      "house": "141",
      "postcode": "2140-098",
      "city": "CHAMUSCA",
      "lon": "-8.483408688395453",
      "lat": "39.35518072025285"
    },
    {
      "id": "pt.ine.add.PTCONT.4556934",
      "street": "R MIGUEL BOMBARDA",
      "house": "17 B",
      "postcode": "2140-134",
      "city": "CHAMUSCA",
      "lon": "-8.483130019609144",
      "lat": "39.35513652284391"
    },
    {
      "id": "pt.ine.add.PTCONT.4575526",
      "street": "R MIGUEL BOMBARDA",
      "house": "28",
      "postcode": "2140-134",
      "city": "CHAMUSCA",
      "lon": "-8.482934540392149",
      "lat": "39.35548839016265"
    },
    {
      "id": "pt.ine.add.PTCONT.4586098",
      "street": "R MIGUEL BOMBARDA",
      "house": "60",
      "postcode": "2140-134",
      "city": "CHAMUSCA",
      "lon": "-8.483463458484033",
      "lat": "39.354532039203356"
    },
    {
      "id": "pt.ine.add.PTCONT.4619455",
      "street": "R MIGUEL BOMBARDA",
      "house": "24",
      "postcode": "2140-134",
      "city": "CHAMUSCA",
      "lon": "-8.482877204650277",
      "lat": "39.355623670014545"
    },
    {
      "id": "pt.ine.add.PTCONT.4620935",
      "street": "R MIGUEL BOMBARDA",
      "house": "24",
      "postcode": "2140-134",
      "city": "CHAMUSCA",
      "lon": "-8.482877204650277",
      "lat": "39.355623670014545"
    },
    {
      "id": "pt.ine.add.PTCONT.4629747",
      "street": "R MIGUEL BOMBARDA",
      "house": "46",
      "postcode": "2140-134",
      "city": "CHAMUSCA",
      "lon": "-8.48326825237873",
      "lat": "39.354937949306986"
    },
    {
      "id": "pt.ine.add.PTCONT.4637963",
      "street": "R DIREITA DE S PEDRO",
      "house": "155",
      "postcode": "2140-098",
      "city": "CHAMUSCA",
      "lon": "-8.483627097888032",
      "lat": "39.35477474004957"
    },
    {
      "id": "pt.ine.add.PTCONT.4648263",
      "street": "R DIREITA DE S PEDRO",
      "house": "143",
      "postcode": "2140-098",
      "city": "CHAMUSCA",
      "lon": "-8.48341997535676",
      "lat": "39.355117636098164"
    }
  ]
}