{
  "data": {
    "distrito": "Porto",
    "concelho": "Vila do Conde",
    "freguesia": "União das freguesias de Rio Mau e Arcos",
    "OBJECTID": 568,
    "BGRI2021": "13163500206",
    "DT21": "13",
    "DTMN21": "1316",
    "DTMNFR21": "131635",
    "DTMNFRSEC21": "131635002",
    "SECNUM21": "002",
    "SSNUM21": "06",
    "SECSSNUM21": "00206",
    "OBJECTID_1": 143419,
    "DT": "13",
    "CC": "16",
    "fr": "35",
    "SEC": "002",
    "SS": "06"
  },
  "addresses": [
    {
      "id": "pt.ine.add.PTCONT.3717239",
      "street": "R D SALVINA GONÇALVES FERREIRA",
      "house": "181",
      "postcode": "4480-033",
      "city": "ARCOS VCD",
      "lon": "-8.669146077214453",
      "lat": "41.39558089786673"
    },
    {
      "id": "pt.ine.add.PTCONT.3757635",
      "street": "R D SALVINA GONÇALVES FERREIRA",
      "house": "119",
      "postcode": "4480-033",
      "city": "ARCOS VCD",
      "lon": "-8.668500257565949",
      "lat": "41.39556589672196"
    },
    {
      "id": "pt.ine.add.PTCONT.3820756",
      "street": "R D SALVINA GONÇALVES FERREIRA",
      "house": "113",
      "postcode": "4480-033",
      "city": "ARCOS VCD",
      "lon": "-8.66812863431741",
      "lat": "41.395450573720815"
    },
    {
      "id": "pt.ine.add.PTCONT.3860054",
      "street": "TV VÁRZEA",
      "house": "119",
      "postcode": "4480-466",
      "city": "RIO MAU VCD",
      "lon": "-8.681694959426624",
      "lat": "41.394828448492774"
    },
    {
      "id": "pt.ine.add.PTCONT.3937229",
      "street": "R DR ANTÓNIO BENTO MARTINS JUNIOR",
      "house": "241",
      "postcode": "4480-028",
      "city": "ARCOS VCD",
      "lon": "-8.666641786227311",
      "lat": "41.39494425148668"
    },
    {
      "id": "pt.ine.add.PTCONT.3975532",
      "street": "R D SALVINA GONÇALVES FERREIRA",
      "house": "181",
      "postcode": "4480-033",
      "city": "ARCOS VCD",
      "lon": "-8.668907383131339",
      "lat": "41.39563603338301"
    },
    {
      "id": "pt.ine.add.PTCONT.4303299",
      "street": "R D SALVINA GONÇALVES FERREIRA",
      "house": "33",
      "postcode": "4480-033",
      "city": "ARCOS VCD",
      "lon": "-8.66763751769958",
      "lat": "41.39534480864426"
    },
    {
      "id": "pt.ine.add.PTCONT.4389701",
      "street": "TV ALDEIA",
      "house": "37",
      "postcode": "4480-034",
      "city": "ARCOS VCD",
      "lon": "-8.666781438000354",
      "lat": "41.39447539759143"
    }
  ]
}