{
  "data": {
    "distrito": "Setúbal",
    "concelho": "Setúbal",
    "freguesia": "União das freguesias de Azeitão (São Lourenço e São Simão)",
    "OBJECTID": 42,
    "BGRI2021": "15120900118",
    "DT21": "15",
    "DTMN21": "1512",
    "DTMNFR21": "151209",
    "DTMNFRSEC21": "151209001",
    "SECNUM21": "001",
    "SSNUM21": "18",
    "SECSSNUM21": "00118",
    "OBJECTID_1": 170351,
    "DT": "15",
    "CC": "12",
    "fr": "09",
    "SEC": "001",
    "SS": "18"
  },
  "addresses": [
    {
      "id": "pt.ine.add.PTCONT.4664662",
      "street": "R ESTEVAM ESTEVES",
      "house": "2",
      "postcode": "2925-139",
      "city": "AZEITÃO",
      "lon": "-9.026493500724861",
      "lat": "38.53448720194872"
    },
    {
      "id": "pt.ine.add.PTCONT.4675991",
      "street": "R MIRANDA GAGO",
      "house": "9",
      "postcode": "2925-191",
      "city": "AZEITÃO",
      "lon": "-9.027775693932721",
      "lat": "38.536152940528325"
    },
    {
      "id": "pt.ine.add.PTCONT.4683292",
      "street": "R CRUZ NATARIO",
      "house": "7",
      "postcode": "2925-128",
      "city": "AZEITÃO",
      "lon": "-9.02735203173266",
      "lat": "38.535282379656635"
    },
    {
      "id": "pt.ine.add.PTCONT.4701541",
      "street": "R SANTOS MEIAS",
      "house": "20",
      "postcode": "2925-237",
      "city": "AZEITÃO",
      "lon": "-9.027750614851657",
      "lat": "38.535054129078425"
    },
    {
      "id": "pt.ine.add.PTCONT.4719592",
      "street": "R SANTOS MEIAS",
      "house": "",
      "postcode": "2925-237",
      "city": "AZEITÃO",
      "lon": "-9.02704049247109",
      "lat": "38.5342037718942"
    },
    {
      "id": "pt.ine.add.PTCONT.4727546",
      "street": "R MIRANDA GAGO",
      "house": "27",
      "postcode": "2925-191",
      "city": "AZEITÃO",
      "lon": "-9.028585448952782",
      "lat": "38.53578642109742"
    },
    {
      "id": "pt.ine.add.PTCONT.4756392",
      "street": "R MIRANDA GAGO",
      "house": "13",
      "postcode": "2925-191",
      "city": "AZEITÃO",
      "lon": "-9.02792399570528",
      "lat": "38.53608874962977"
    },
    {
      "id": "pt.ine.add.PTCONT.4763809",
      "street": "R SANTOS MEIAS",
      "house": "22A",
      "postcode": "2925-237",
      "city": "AZEITÃO",
      "lon": "-9.027901146062494",
      "lat": "38.53517008562637"
    },
    {
      "id": "pt.ine.add.PTCONT.4767557",
      "street": "R SANTOS MEIAS",
      "house": "10",
      "postcode": "2925-237",
      "city": "AZEITÃO",
      "lon": "-9.0271449272831",
      "lat": "38.534302064939936"
    },
    {
      "id": "pt.ine.add.PTCONT.4774467",
      "street": "R MIGUEL FERNANDES CALEIRO",
      "house": "",
      "postcode": "2925-189",
      "city": "AZEITÃO",
      "lon": "-9.02853611593515",
      "lat": "38.53550754354014"
    },
    {
      "id": "pt.ine.add.PTCONT.4774472",
      "street": "R SANTOS CLARO",
      "house": "",
      "postcode": "2925-234",
      "city": "AZEITÃO",
      "lon": "-9.026659284920076",
      "lat": "38.53490932334363"
    },
    {
      "id": "pt.ine.add.PTCONT.4775228",
      "street": "R MIRANDA GAGO",
      "house": "23",
      "postcode": "2925-191",
      "city": "AZEITÃO",
      "lon": "-9.028505732271158",
      "lat": "38.53583207188608"
    },
    {
      "id": "pt.ine.add.PTCONT.4791915",
      "street": "R ALFREDO CAINETA",
      "house": "9",
      "postcode": "2925-501",
      "city": "AZEITÃO",
      "lon": "-9.02736507934009",
      "lat": "38.536336241968726"
    },
    {
      "id": "pt.ine.add.PTCONT.4791916",
      "street": "R ALFREDO CAINETA",
      "house": "1",
      "postcode": "2925-501",
      "city": "AZEITÃO",
      "lon": "-9.02736507934009",
      "lat": "38.536336241968726"
    },
    {
      "id": "pt.ine.add.PTCONT.4792626",
      "street": "R JOAQUIM GOMES DE OLIVEIRA",
      "house": "8",
      "postcode": "2925-653",
      "city": "AZEITÃO",
      "lon": "-9.026824725357384",
      "lat": "38.53437657537773"
    },
    {
      "id": "pt.ine.add.PTCONT.4794182",
      "street": "R MIGUEL FERNANDES CALEIRO",
      "house": "63",
      "postcode": "2925-189",
      "city": "AZEITÃO",
      "lon": "-9.027531967630951",
      "lat": "38.53592058896335"
    },
    {
      "id": "pt.ine.add.PTCONT.4794183",
      "street": "R MIGUEL FERNANDES CALEIRO",
      "house": "63",
      "postcode": "2925-189",
      "city": "AZEITÃO",
      "lon": "-9.027531967630951",
      "lat": "38.53592058896335"
    },
    {
      "id": "pt.ine.add.PTCONT.4810240",
      "street": "R SANTOS MEIAS",
      "house": "14",
      "postcode": "2925-237",
      "city": "AZEITÃO",
      "lon": "-9.027423272813861",
      "lat": "38.53455216941908"
    },
    {
      "id": "pt.ine.add.PTCONT.4812406",
      "street": "R MIGUEL FERNANDES CALEIRO",
      "house": "",
      "postcode": "2925-189",
      "city": "AZEITÃO",
      "lon": "-9.028125506961889",
      "lat": "38.53569084759996"
    },
    {
      "id": "pt.ine.add.PTCONT.4812407",
      "street": "R MIGUEL FERNANDES CALEIRO",
      "house": "",
      "postcode": "2925-189",
      "city": "AZEITÃO",
      "lon": "-9.028125506961889",
      "lat": "38.53569084759996"
    },
    {
      "id": "pt.ine.add.PTCONT.4875354",
      "street": "R CRUZ NATARIO",
      "house": "",
      "postcode": "2925-128",
      "city": "AZEITÃO",
      "lon": "-9.027661773299126",
      "lat": "38.53528902169905"
    },
    {
      "id": "pt.ine.add.PTCONT.4882060",
      "street": "R MIGUEL FERNANDES CALEIRO",
      "house": "57",
      "postcode": "2925-189",
      "city": "AZEITÃO",
      "lon": "-9.027413720032124",
      "lat": "38.53563322914817"
    },
    {
      "id": "pt.ine.add.PTCONT.4912469",
      "street": "R MIRANDA GAGO",
      "house": "35",
      "postcode": "2925-191",
      "city": "AZEITÃO",
      "lon": "-9.028779397226977",
      "lat": "38.53570386354133"
    },
    {
      "id": "pt.ine.add.PTCONT.4951859",
      "street": "R JOAQUIM GOMES DE OLIVEIRA",
      "house": "10",
      "postcode": "2925-653",
      "city": "AZEITÃO",
      "lon": "-9.0268409852683",
      "lat": "38.534763804896265"
    },
    {
      "id": "pt.ine.add.PTCONT.4959460",
      "street": "R JOAQUIM GOMES DE OLIVEIRA",
      "house": "",
      "postcode": "2925-653",
      "city": "AZEITÃO",
      "lon": "-9.026597712382921",
      "lat": "38.534567480733834"
    },
    {
      "id": "pt.ine.add.PTCONT.4963023",
      "street": "R CRUZ NATARIO",
      "house": "72",
      "postcode": "2925-128",
      "city": "AZEITÃO",
      "lon": "-9.027154515208688",
      "lat": "38.53507669896894"
    },
    {
      "id": "pt.ine.add.PTCONT.4977531",
      "street": "R MIRANDA GAGO",
      "house": "3",
      "postcode": "2925-191",
      "city": "AZEITÃO",
      "lon": "-9.027592988114378",
      "lat": "38.5362173940914"
    },
    {
      "id": "pt.ine.add.PTCONT.4980925",
      "street": "R CRUZ NATARIO",
      "house": "",
      "postcode": "2925-128",
      "city": "AZEITÃO",
      "lon": "-9.026914807111808",
      "lat": "38.5351686114113"
    },
    {
      "id": "pt.ine.add.PTCONT.4980926",
      "street": "R CRUZ NATARIO",
      "house": "",
      "postcode": "2925-128",
      "city": "AZEITÃO",
      "lon": "-9.026914807111808",
      "lat": "38.5351686114113"
    },
    {
      "id": "pt.ine.add.PTCONT.4980927",
      "street": "R ESTEVAM ESTEVES",
      "house": "4",
      "postcode": "2925-139",
      "city": "AZEITÃO",
      "lon": "-9.026708934675204",
      "lat": "38.53428737694297"
    },
    {
      "id": "pt.ine.add.PTCONT.4984581",
      "street": "R MIGUEL FERNANDES CALEIRO",
      "house": "52",
      "postcode": "2925-189",
      "city": "AZEITÃO",
      "lon": "-9.027294264447844",
      "lat": "38.53617463485187"
    },
    {
      "id": "pt.ine.add.PTCONT.4994313",
      "street": "R JOAQUIM GOMES DE OLIVEIRA",
      "house": "11",
      "postcode": "2925-653",
      "city": "AZEITÃO",
      "lon": "-9.026748129304908",
      "lat": "38.5346744314349"
    },
    {
      "id": "pt.ine.add.PTCONT.5012589",
      "street": "R SANTOS MEIAS",
      "house": "16",
      "postcode": "2925-237",
      "city": "AZEITÃO",
      "lon": "-9.027483176289289",
      "lat": "38.53475890097756"
    },
    {
      "id": "pt.ine.add.PTCONT.5028909",
      "street": "R CRUZ NATARIO",
      "house": "",
      "postcode": "2925-128",
      "city": "AZEITÃO",
      "lon": "-9.027313725547875",
      "lat": "38.53496738442302"
    },
    {
      "id": "pt.ine.add.PTCONT.5036266",
      "street": "R JOAQUIM GOMES DE OLIVEIRA",
      "house": "6",
      "postcode": "2925-653",
      "city": "AZEITÃO",
      "lon": "-9.027079688821237",
      "lat": "38.53459082625967"
    },
    {
      "id": "pt.ine.add.PTCONT.5036267",
      "street": "R ESTEVAM ESTEVES",
      "house": "",
      "postcode": "2925-139",
      "city": "AZEITÃO",
      "lon": "-9.026890410475888",
      "lat": "38.534123843675495"
    },
    {
      "id": "pt.ine.add.PTCONT.5039707",
      "street": "R MIRANDA GAGO",
      "house": "33",
      "postcode": "2925-191",
      "city": "AZEITÃO",
      "lon": "-9.028699680760628",
      "lat": "38.5357495144601"
    },
    {
      "id": "pt.ine.add.PTCONT.5046911",
      "street": "R SANTOS MEIAS",
      "house": "18",
      "postcode": "2925-237",
      "city": "AZEITÃO",
      "lon": "-9.027623131118462",
      "lat": "38.534947004471015"
    },
    {
      "id": "pt.ine.add.PTCONT.5065257",
      "street": "R SANTOS CLARO",
      "house": "94",
      "postcode": "2925-234",
      "city": "AZEITÃO",
      "lon": "-9.026763943140333",
      "lat": "38.53502563145739"
    },
    {
      "id": "pt.ine.add.PTCONT.5068924",
      "street": "R JOAQUIM GOMES DE OLIVEIRA",
      "house": "7",
      "postcode": "2925-653",
      "city": "AZEITÃO",
      "lon": "-9.026975030741813",
      "lat": "38.534474518418136"
    },
    {
      "id": "pt.ine.add.PTCONT.5079721",
      "street": "R SANTOS MEIAS",
      "house": "2",
      "postcode": "2925-237",
      "city": "AZEITÃO",
      "lon": "-9.027283876800688",
      "lat": "38.53440910252143"
    },
    {
      "id": "pt.ine.add.PTCONT.5081054",
      "street": "R MIGUEL FERNANDES CALEIRO",
      "house": "57",
      "postcode": "2925-189",
      "city": "AZEITÃO",
      "lon": "-9.02734324029609",
      "lat": "38.535498644146664"
    },
    {
      "id": "pt.ine.add.PTCONT.5099938",
      "street": "R SANTOS CLARO",
      "house": "",
      "postcode": "2925-234",
      "city": "AZEITÃO",
      "lon": "-9.026531023166909",
      "lat": "38.534739145905796"
    },
    {
      "id": "pt.ine.add.PTCONT.5111367",
      "street": "R MIRANDA GAGO",
      "house": "12",
      "postcode": "2925-191",
      "city": "AZEITÃO",
      "lon": "-9.028083765106127",
      "lat": "38.536024470883774"
    },
    {
      "id": "pt.ine.add.PTCONT.5129650",
      "street": "R MIRANDA GAGO",
      "house": "71",
      "postcode": "2925-191",
      "city": "AZEITÃO",
      "lon": "-9.028334607446189",
      "lat": "38.53590544625552"
    }
  ]
}