{
  "data": {
    "distrito": "Lisboa",
    "concelho": "Sintra",
    "freguesia": "União das freguesias de Almargem do Bispo, Pêro Pinheiro e Montelavar",
    "OBJECTID": 1520,
    "BGRI2021": "11112300423",
    "DT21": "11",
    "DTMN21": "1111",
    "DTMNFR21": "111123",
    "DTMNFRSEC21": "111123004",
    "SECNUM21": "004",
    "SSNUM21": "23",
    "SECSSNUM21": "00423",
    "OBJECTID_1": 113142,
    "DT": "11",
    "CC": "11",
    "fr": "23",
    "SEC": "004",
    "SS": "23"
  },
  "addresses": [
    {
      "id": "pt.ine.add.PTCONT.2299622",
      "street": "R CEMITÉRIO",
      "house": "21",
      "postcode": "2715-217",
      "city": "ALMARGEM DO BISPO",
      "lon": "-9.270201383812754",
      "lat": "38.848783273622374"
    },
    {
      "id": "pt.ine.add.PTCONT.2368492",
      "street": "R IGREJA",
      "house": "26",
      "postcode": "2715-228",
      "city": "ALMARGEM DO BISPO",
      "lon": "-9.273329481955146",
      "lat": "38.845582099488034"
    },
    {
      "id": "pt.ine.add.PTCONT.2381094",
      "street": "R IGREJA",
      "house": "32",
      "postcode": "2715-228",
      "city": "ALMARGEM DO BISPO",
      "lon": "-9.273528282875947",
      "lat": "38.84576931824552"
    },
    {
      "id": "pt.ine.add.PTCONT.2384137",
      "street": "R IGREJA",
      "house": "32",
      "postcode": "2715-228",
      "city": "ALMARGEM DO BISPO",
      "lon": "-9.273528282875947",
      "lat": "38.84576931824552"
    },
    {
      "id": "pt.ine.add.PTCONT.2384145",
      "street": "R IGREJA",
      "house": "32",
      "postcode": "2715-228",
      "city": "ALMARGEM DO BISPO",
      "lon": "-9.273528282875947",
      "lat": "38.84576931824552"
    },
    {
      "id": "pt.ine.add.PTCONT.2442426",
      "street": "R IGREJA",
      "house": "46",
      "postcode": "2715-228",
      "city": "ALMARGEM DO BISPO",
      "lon": "-9.273106608743875",
      "lat": "38.84677327914537"
    },
    {
      "id": "pt.ine.add.PTCONT.2563033",
      "street": "R FIGUEIRAS",
      "house": "11 A",
      "postcode": "2715-221",
      "city": "ALMARGEM DO BISPO",
      "lon": "-9.27260322124994",
      "lat": "38.845544149396765"
    },
    {
      "id": "pt.ine.add.PTCONT.2581353",
      "street": "R IGREJA",
      "house": "30",
      "postcode": "2715-228",
      "city": "ALMARGEM DO BISPO",
      "lon": "-9.27351604733107",
      "lat": "38.845724399683036"
    },
    {
      "id": "pt.ine.add.PTCONT.2743054",
      "street": "R IGREJA",
      "house": "80",
      "postcode": "2715-228",
      "city": "ALMARGEM DO BISPO",
      "lon": "-9.273184159347716",
      "lat": "38.848745187439"
    },
    {
      "id": "pt.ine.add.PTCONT.2755761",
      "street": "R CEMITÉRIO",
      "house": "17",
      "postcode": "2715-217",
      "city": "ALMARGEM DO BISPO",
      "lon": "-9.269334362375393",
      "lat": "38.84786392838606"
    },
    {
      "id": "pt.ine.add.PTCONT.2813561",
      "street": "R FIGUEIRAS",
      "house": "11",
      "postcode": "2715-221",
      "city": "ALMARGEM DO BISPO",
      "lon": "-9.272615887230192",
      "lat": "38.845616086682696"
    },
    {
      "id": "pt.ine.add.PTCONT.2821456",
      "street": "R IGREJA",
      "house": "66",
      "postcode": "2715-228",
      "city": "ALMARGEM DO BISPO",
      "lon": "-9.273113652481245",
      "lat": "38.847214583046444"
    },
    {
      "id": "pt.ine.add.PTCONT.2821458",
      "street": "R SERRA CASA VERDE",
      "house": "",
      "postcode": "2715-239",
      "city": "ALMARGEM DO BISPO",
      "lon": "-9.272132766511511",
      "lat": "38.84565682968608"
    },
    {
      "id": "pt.ine.add.PTCONT.2866698",
      "street": "R IGREJA",
      "house": "68",
      "postcode": "2715-228",
      "city": "ALMARGEM DO BISPO",
      "lon": "-9.272891077432272",
      "lat": "38.84770316601495"
    },
    {
      "id": "pt.ine.add.PTCONT.2866699",
      "street": "TV CELEIRO",
      "house": "6",
      "postcode": "2715-427",
      "city": "ALMARGEM DO BISPO",
      "lon": "-9.270720082327239",
      "lat": "38.84880524520222"
    },
    {
      "id": "pt.ine.add.PTCONT.2912167",
      "street": "R CEMITÉRIO",
      "house": "9",
      "postcode": "2715-217",
      "city": "ALMARGEM DO BISPO",
      "lon": "-9.272203014896172",
      "lat": "38.845728205438235"
    },
    {
      "id": "pt.ine.add.PTCONT.2921708",
      "street": "R CEMITÉRIO",
      "house": "19",
      "postcode": "2715-217",
      "city": "ALMARGEM DO BISPO",
      "lon": "-9.269687322955784",
      "lat": "38.84832888955561"
    },
    {
      "id": "pt.ine.add.PTCONT.2949258",
      "street": "R SERRA QTA DA GALELA",
      "house": "43 43A",
      "postcode": "2715-239",
      "city": "ALMARGEM DO BISPO",
      "lon": "-9.272224468091597",
      "lat": "38.845628912518634"
    },
    {
      "id": "pt.ine.add.PTCONT.2976053",
      "street": "R IGREJA",
      "house": "58",
      "postcode": "2715-228",
      "city": "ALMARGEM DO BISPO",
      "lon": "-9.273031741165157",
      "lat": "38.84713431410024"
    },
    {
      "id": "pt.ine.add.PTCONT.3012757",
      "street": "R IGREJA",
      "house": "44",
      "postcode": "2715-228",
      "city": "ALMARGEM DO BISPO",
      "lon": "-9.273083000292102",
      "lat": "38.84673747915805"
    },
    {
      "id": "pt.ine.add.PTCONT.3040022",
      "street": "R FIGUEIRAS",
      "house": "19",
      "postcode": "2715-221",
      "city": "ALMARGEM DO BISPO",
      "lon": "-9.272305083972167",
      "lat": "38.84562812623146"
    },
    {
      "id": "pt.ine.add.PTCONT.3040023",
      "street": "R FIGUEIRAS",
      "house": "19",
      "postcode": "2715-221",
      "city": "ALMARGEM DO BISPO",
      "lon": "-9.272305083972167",
      "lat": "38.84562812623146"
    },
    {
      "id": "pt.ine.add.PTCONT.3040024",
      "street": "R FIGUEIRAS",
      "house": "17",
      "postcode": "2715-221",
      "city": "ALMARGEM DO BISPO",
      "lon": "-9.272305083972167",
      "lat": "38.84562812623146"
    },
    {
      "id": "pt.ine.add.PTCONT.3124211",
      "street": "R FIGUEIRAS",
      "house": "17",
      "postcode": "2715-221",
      "city": "ALMARGEM DO BISPO",
      "lon": "-9.272420393166168",
      "lat": "38.845636009073885"
    },
    {
      "id": "pt.ine.add.PTCONT.3153066",
      "street": "R FIGUEIRAS",
      "house": "15",
      "postcode": "2715-221",
      "city": "ALMARGEM DO BISPO",
      "lon": "-9.272375188847107",
      "lat": "38.84569049567177"
    },
    {
      "id": "pt.ine.add.PTCONT.3180158",
      "street": "R CEMITERIO",
      "house": "9B",
      "postcode": "2715-217",
      "city": "ALMARGEM DO BISPO",
      "lon": "-9.271116651991395",
      "lat": "38.84694581506527"
    },
    {
      "id": "pt.ine.add.PTCONT.3197778",
      "street": "R IGREJA",
      "house": "56",
      "postcode": "2715-228",
      "city": "ALMARGEM DO BISPO",
      "lon": "-9.273030016282844",
      "lat": "38.8470262396741"
    },
    {
      "id": "pt.ine.add.PTCONT.3272197",
      "street": "R IGREJA",
      "house": "28",
      "postcode": "2715-228",
      "city": "ALMARGEM DO BISPO",
      "lon": "-9.273401025459695",
      "lat": "38.84573453033274"
    },
    {
      "id": "pt.ine.add.PTCONT.3348609",
      "street": "R FIGUEIRAS",
      "house": "9",
      "postcode": "2715-221",
      "city": "ALMARGEM DO BISPO",
      "lon": "-9.272912586900993",
      "lat": "38.845442047010565"
    },
    {
      "id": "pt.ine.add.PTCONT.3355167",
      "street": "R FIGUEIRAS",
      "house": "13",
      "postcode": "2715-221",
      "city": "ALMARGEM DO BISPO",
      "lon": "-9.27246789600495",
      "lat": "38.84572562175748"
    },
    {
      "id": "pt.ine.add.PTCONT.3367302",
      "street": "R IGREJA",
      "house": "86",
      "postcode": "2715-228",
      "city": "ALMARGEM DO BISPO",
      "lon": "-9.273305512586301",
      "lat": "38.849131329666626"
    },
    {
      "id": "pt.ine.add.PTCONT.3372857",
      "street": "R IGREJA",
      "house": "20",
      "postcode": "2715-228",
      "city": "ALMARGEM DO BISPO",
      "lon": "-9.273029045700019",
      "lat": "38.84552197889415"
    },
    {
      "id": "pt.ine.add.PTCONT.3401377",
      "street": "R IGREJA",
      "house": "26",
      "postcode": "2715-228",
      "city": "ALMARGEM DO BISPO",
      "lon": "-9.27307798660443",
      "lat": "38.84570165336383"
    }
  ]
}