{
  "data": {
    "distrito": "Beja",
    "concelho": "Cuba",
    "freguesia": "Cuba",
    "OBJECTID": 104,
    "BGRI2021": "02070100139",
    "DT21": "02",
    "DTMN21": "0207",
    "DTMNFR21": "020701",
    "DTMNFRSEC21": "020701001",
    "SECNUM21": "001",
    "SSNUM21": "39",
    "SECSSNUM21": "00139",
    "OBJECTID_1": 14818,
    "DT": "02",
    "CC": "07",
    "fr": "01",
    "SEC": "001",
    "SS": "39"
  },
  "addresses": [
    {
      "id": "pt.ine.add.PTCONT.360624",
      "street": "R MANUEL DA FONSECA",
      "house": "19",
      "postcode": "7940-164",
      "city": "CUBA",
      "lon": "-7.887682681252681",
      "lat": "38.16877530709109"
    },
    {
      "id": "pt.ine.add.PTCONT.362628",
      "street": "R COMEND MANUEL RUI AZINHAIS NABEIRO",
      "house": "8",
      "postcode": "7940-028",
      "city": "CUBA",
      "lon": "-7.885743404034101",
      "lat": "38.16685988168371"
    },
    {
      "id": "pt.ine.add.PTCONT.363874",
      "street": "BR S VICENTE",
      "house": "7",
      "postcode": "7940-106",
      "city": "CUBA",
      "lon": "-7.888918061157959",
      "lat": "38.16895952660117"
    },
    {
      "id": "pt.ine.add.PTCONT.370467",
      "street": "R MANUEL DA FONSECA",
      "house": "28",
      "postcode": "7940-164",
      "city": "CUBA",
      "lon": "-7.887109241463038",
      "lat": "38.169144002163236"
    },
    {
      "id": "pt.ine.add.PTCONT.383298",
      "street": "R MANUEL DA FONSECA",
      "house": "25",
      "postcode": "7940-164",
      "city": "CUBA",
      "lon": "-7.887474650288629",
      "lat": "38.16907269489866"
    },
    {
      "id": "pt.ine.add.PTCONT.384947",
      "street": "R MANUEL DA FONSECA",
      "house": "15",
      "postcode": "7940-164",
      "city": "CUBA",
      "lon": "-7.887875711382325",
      "lat": "38.16857803720436"
    },
    {
      "id": "pt.ine.add.PTCONT.384948",
      "street": "R MANUEL DA FONSECA",
      "house": "27",
      "postcode": "7940-164",
      "city": "CUBA",
      "lon": "-7.887405879131805",
      "lat": "38.169162641189516"
    },
    {
      "id": "pt.ine.add.PTCONT.384970",
      "street": "R COMEND MANUEL RUI AZINHAIS NABEIRO",
      "house": "6",
      "postcode": "7940-028",
      "city": "CUBA",
      "lon": "-7.885611944256807",
      "lat": "38.16699741296694"
    },
    {
      "id": "pt.ine.add.PTCONT.388111",
      "street": "ESTR VIDIGUEIRA HORTA DAS PRESAS",
      "house": "",
      "postcode": "7940-111",
      "city": "CUBA",
      "lon": "-7.881384691104672",
      "lat": "38.17459082335229"
    },
    {
      "id": "pt.ine.add.PTCONT.397583",
      "street": "R MANUEL DA FONSECA",
      "house": "31",
      "postcode": "7940-164",
      "city": "CUBA",
      "lon": "-7.887222781110685",
      "lat": "38.16931541122747"
    },
    {
      "id": "pt.ine.add.PTCONT.397585",
      "street": "ESTR VIDIGUEIRA",
      "house": "",
      "postcode": "7940-111",
      "city": "CUBA",
      "lon": "-7.882340248906299",
      "lat": "38.175503285403"
    },
    {
      "id": "pt.ine.add.PTCONT.400005",
      "street": "R MANUEL DA FONSECA",
      "house": "26",
      "postcode": "7940-164",
      "city": "CUBA",
      "lon": "-7.887006235347334",
      "lat": "38.16923387650085"
    },
    {
      "id": "pt.ine.add.PTCONT.405120",
      "street": "BR S VICENTE",
      "house": "2",
      "postcode": "7940-106",
      "city": "CUBA",
      "lon": "-7.888643462917298",
      "lat": "38.168789547069665"
    },
    {
      "id": "pt.ine.add.PTCONT.405941",
      "street": "BR S VICENTE",
      "house": "6",
      "postcode": "7940-106",
      "city": "CUBA",
      "lon": "-7.8888683367368975",
      "lat": "38.16892665650707"
    },
    {
      "id": "pt.ine.add.PTCONT.405942",
      "street": "R JOSE CORREIA MALTEZ",
      "house": "",
      "postcode": "7940-155",
      "city": "CUBA",
      "lon": "-7.889213208875432",
      "lat": "38.168433097169505"
    },
    {
      "id": "pt.ine.add.PTCONT.409119",
      "street": "BR S VICENTE",
      "house": "1",
      "postcode": "7940-106",
      "city": "CUBA",
      "lon": "-7.888605377645766",
      "lat": "38.16877775696376"
    },
    {
      "id": "pt.ine.add.PTCONT.409975",
      "street": "R MANUEL DA FONSECA",
      "house": "21",
      "postcode": "7940-164",
      "city": "CUBA",
      "lon": "-7.887612252526496",
      "lat": "38.16887478428529"
    },
    {
      "id": "pt.ine.add.PTCONT.413954",
      "street": "R MANUEL DA FONSECA",
      "house": "23",
      "postcode": "7940-164",
      "city": "CUBA",
      "lon": "-7.887543451500834",
      "lat": "38.168973739613286"
    },
    {
      "id": "pt.ine.add.PTCONT.416648",
      "street": "R MANUEL DA FONSECA",
      "house": "29",
      "postcode": "7940-164",
      "city": "CUBA",
      "lon": "-7.887314284836888",
      "lat": "38.16925253967259"
    },
    {
      "id": "pt.ine.add.PTCONT.417185",
      "street": "EN 387",
      "house": "",
      "postcode": "7940-100",
      "city": "CUBA",
      "lon": "-7.888242349607037",
      "lat": "38.1695810606124"
    },
    {
      "id": "pt.ine.add.PTCONT.423506",
      "street": "BR S VICENTE",
      "house": "3",
      "postcode": "7940-106",
      "city": "CUBA",
      "lon": "-7.8887078998614175",
      "lat": "38.168832024462496"
    },
    {
      "id": "pt.ine.add.PTCONT.423505",
      "street": "R MANUEL DA FONSECA",
      "house": "33",
      "postcode": "7940-164",
      "city": "CUBA",
      "lon": "-7.887142446534351",
      "lat": "38.169450378221896"
    },
    {
      "id": "pt.ine.add.PTCONT.429198",
      "street": "R TULIO ESPANCA",
      "house": "1",
      "postcode": "7940-028",
      "city": "CUBA",
      "lon": "-7.886893302430141",
      "lat": "38.16888228818956"
    },
    {
      "id": "pt.ine.add.PTCONT.434982",
      "street": "R MANUEL DA FONSECA",
      "house": "13",
      "postcode": "7940-164",
      "city": "CUBA",
      "lon": "-7.887940564077552",
      "lat": "38.16846519954627"
    },
    {
      "id": "pt.ine.add.PTCONT.435025",
      "street": "ESTR VIDIGUEIRA HORTA DPS PRESAS",
      "house": "",
      "postcode": "7940-111",
      "city": "CUBA",
      "lon": "-7.8813001145482176",
      "lat": "38.174470555581394"
    },
    {
      "id": "pt.ine.add.PTCONT.436498",
      "street": "BR S VICENTE",
      "house": "5",
      "postcode": "7940-106",
      "city": "CUBA",
      "lon": "-7.888809684368641",
      "lat": "38.16888786241008"
    },
    {
      "id": "pt.ine.add.PTCONT.443193",
      "street": "ESTR VIDIGUEIRA",
      "house": "1",
      "postcode": "7940-111",
      "city": "CUBA",
      "lon": "-7.88909612841574",
      "lat": "38.16876075963253"
    },
    {
      "id": "pt.ine.add.PTCONT.445530",
      "street": "R MANUEL DA FONSECA",
      "house": "17",
      "postcode": "7940-164",
      "city": "CUBA",
      "lon": "-7.887783894902428",
      "lat": "38.16866073559482"
    },
    {
      "id": "pt.ine.add.PTCONT.446273",
      "street": "BR S VICENTE",
      "house": "4",
      "postcode": "7940-106",
      "city": "CUBA",
      "lon": "-7.88876079434231",
      "lat": "38.16885940121647"
    }
  ]
}