{
  "data": {
    "distrito": "Coimbra",
    "concelho": "Penela",
    "freguesia": "União das freguesias de São Miguel, Santa Eufémia e Rabaçal",
    "OBJECTID": 249,
    "BGRI2021": "06140700404",
    "DT21": "06",
    "DTMN21": "0614",
    "DTMNFR21": "061407",
    "DTMNFRSEC21": "061407004",
    "SECNUM21": "004",
    "SSNUM21": "04",
    "SECSSNUM21": "00404",
    "OBJECTID_1": 56405,
    "DT": "06",
    "CC": "14",
    "fr": "07",
    "SEC": "004",
    "SS": "04"
  },
  "addresses": [
    {
      "id": "pt.ine.add.PTCONT.1172996",
      "street": "ESTR CHAS",
      "house": "",
      "postcode": "3230-224",
      "city": "PENELA",
      "lon": "-8.352478402197432",
      "lat": "40.003162931997714"
    },
    {
      "id": "pt.ine.add.PTCONT.1197118",
      "street": "ESTR TORRE CHÃO PEREIRO",
      "house": "",
      "postcode": "3230-340",
      "city": "PENELA",
      "lon": "-8.355957416022552",
      "lat": "39.9962215303631"
    },
    {
      "id": "pt.ine.add.PTCONT.1215121",
      "street": "",
      "house": "",
      "postcode": "3230-340",
      "city": "PENELA",
      "lon": "-8.356025975925025",
      "lat": "39.99569903930828"
    },
    {
      "id": "pt.ine.add.PTCONT.1217099",
      "street": "ESTR CHÃS",
      "house": "",
      "postcode": "3230-224",
      "city": "PENELA",
      "lon": "-8.352000987621652",
      "lat": "40.00401942193516"
    },
    {
      "id": "pt.ine.add.PTCONT.1249369",
      "street": "ESTR SANTO ESTEVÃO",
      "house": "",
      "postcode": "3230-307",
      "city": "PENELA",
      "lon": "-8.351284995154419",
      "lat": "39.99983289618561"
    },
    {
      "id": "pt.ine.add.PTCONT.1256235",
      "street": "ESTR CHAS",
      "house": "",
      "postcode": "3230-224",
      "city": "PENELA",
      "lon": "-8.351871418770948",
      "lat": "40.00378550585936"
    },
    {
      "id": "pt.ine.add.PTCONT.1264549",
      "street": "",
      "house": "",
      "postcode": "3230-224",
      "city": "PENELA",
      "lon": "-8.35505017499034",
      "lat": "40.005346537523856"
    },
    {
      "id": "pt.ine.add.PTCONT.1267993",
      "street": "ESTR SANTO ESTEVÃO",
      "house": "",
      "postcode": "3230-307",
      "city": "PENELA",
      "lon": "-8.351086520910984",
      "lat": "40.00002239957437"
    },
    {
      "id": "pt.ine.add.PTCONT.1278066",
      "street": "ESTR SANTO ESTEVÃO",
      "house": "",
      "postcode": "3230-307",
      "city": "PENELA",
      "lon": "-8.350794248009612",
      "lat": "40.00017605408104"
    },
    {
      "id": "pt.ine.add.PTCONT.1284671",
      "street": "ESTR TORRE CHÃO PEREIRO",
      "house": "",
      "postcode": "3230-340",
      "city": "PENELA",
      "lon": "-8.356180340048855",
      "lat": "39.99635619442011"
    },
    {
      "id": "pt.ine.add.PTCONT.1302846",
      "street": "ESTR CHÃS",
      "house": "",
      "postcode": "3230-224",
      "city": "PENELA",
      "lon": "-8.352153720494695",
      "lat": "40.00417223845033"
    }
  ]
}