{
  "data": {
    "distrito": "Viseu",
    "concelho": "Viseu",
    "freguesia": "Orgens",
    "OBJECTID": 177,
    "BGRI2021": "18231900204",
    "DT21": "18",
    "DTMN21": "1823",
    "DTMNFR21": "182319",
    "DTMNFRSEC21": "182319002",
    "SECNUM21": "002",
    "SSNUM21": "04",
    "SECSSNUM21": "00204",
    "OBJECTID_1": 202126,
    "DT": "18",
    "CC": "23",
    "fr": "19",
    "SEC": "002",
    "SS": "04"
  },
  "addresses": [
    {
      "id": "pt.ine.add.PTCONT.5429407",
      "street": "R ROMﾃグ LOUREIRO",
      "house": "34",
      "postcode": "3510-687",
      "city": "VISEU",
      "lon": "-7.943819152419613",
      "lat": "40.67021156755468"
    },
    {
      "id": "pt.ine.add.PTCONT.5448925",
      "street": "R CANTO",
      "house": "8",
      "postcode": "3510-685",
      "city": "VISEU",
      "lon": "-7.945640104014881",
      "lat": "40.67034961557543"
    },
    {
      "id": "pt.ine.add.PTCONT.5456926",
      "street": "R CANTO",
      "house": "7",
      "postcode": "3510-685",
      "city": "VISEU",
      "lon": "-7.945699011326232",
      "lat": "40.67043075750414"
    },
    {
      "id": "pt.ine.add.PTCONT.5458683",
      "street": "R SERRADINHO",
      "house": "2",
      "postcode": "3510-691",
      "city": "VISEU",
      "lon": "-7.9458640331614925",
      "lat": "40.67062913840926"
    },
    {
      "id": "pt.ine.add.PTCONT.5461347",
      "street": "R ROMﾃグ LOUREIRO",
      "house": "42",
      "postcode": "3510-687",
      "city": "VISEU",
      "lon": "-7.94476742600405",
      "lat": "40.66945668600995"
    },
    {
      "id": "pt.ine.add.PTCONT.5461348",
      "street": "R PRINCIPAL",
      "house": "",
      "postcode": "3510-685",
      "city": "VISEU",
      "lon": "-7.9449204134429365",
      "lat": "40.66972708982926"
    },
    {
      "id": "pt.ine.add.PTCONT.5463940",
      "street": "R CANTO",
      "house": "9",
      "postcode": "3510-685",
      "city": "VISEU",
      "lon": "-7.9456398518247475",
      "lat": "40.67043966661254"
    },
    {
      "id": "pt.ine.add.PTCONT.5464974",
      "street": "R PRINCIPAL",
      "house": "46",
      "postcode": "3510-685",
      "city": "VISEU",
      "lon": "-7.945498610955232",
      "lat": "40.67019629829885"
    },
    {
      "id": "pt.ine.add.PTCONT.5473139",
      "street": "R ROMﾃグ LOUREIRO",
      "house": "",
      "postcode": "3510-687",
      "city": "VISEU",
      "lon": "-7.944447521837186",
      "lat": "40.66966328211085"
    },
    {
      "id": "pt.ine.add.PTCONT.5476728",
      "street": "R CANTO",
      "house": "6",
      "postcode": "3510-685",
      "city": "VISEU",
      "lon": "-7.945699187803682",
      "lat": "40.670367721778014"
    },
    {
      "id": "pt.ine.add.PTCONT.5478537",
      "street": "R PRINCIPAL",
      "house": "",
      "postcode": "3510-685",
      "city": "VISEU",
      "lon": "-7.946053917680138",
      "lat": "40.670395312424134"
    },
    {
      "id": "pt.ine.add.PTCONT.5478555",
      "street": "R CANTO",
      "house": "12",
      "postcode": "3510-685",
      "city": "VISEU",
      "lon": "-7.945568991591047",
      "lat": "40.6704035309637"
    },
    {
      "id": "pt.ine.add.PTCONT.5484390",
      "street": "R PRINCIPAL",
      "house": "52",
      "postcode": "3510-685",
      "city": "VISEU",
      "lon": "-7.945994934455329",
      "lat": "40.67034118598711"
    },
    {
      "id": "pt.ine.add.PTCONT.5493687",
      "street": "R CANTO",
      "house": "5",
      "postcode": "3510-685",
      "city": "VISEU",
      "lon": "-7.945793575781919",
      "lat": "40.67044892124099"
    },
    {
      "id": "pt.ine.add.PTCONT.5495679",
      "street": "R SERRADINHO",
      "house": "20",
      "postcode": "3510-691",
      "city": "VISEU",
      "lon": "-7.944158952806511",
      "lat": "40.67133776710509"
    },
    {
      "id": "pt.ine.add.PTCONT.5500112",
      "street": "R PRINCIPAL",
      "house": "44",
      "postcode": "3510-685",
      "city": "VISEU",
      "lon": "-7.945344887620334",
      "lat": "40.67018704327866"
    },
    {
      "id": "pt.ine.add.PTCONT.5509639",
      "street": "R CANTO",
      "house": "5",
      "postcode": "3510-685",
      "city": "VISEU",
      "lon": "-7.945935195947659",
      "lat": "40.67055721263421"
    },
    {
      "id": "pt.ine.add.PTCONT.5510666",
      "street": "R CANTO",
      "house": "4",
      "postcode": "3510-685",
      "city": "VISEU",
      "lon": "-7.94578207652105",
      "lat": "40.670331835704786"
    },
    {
      "id": "pt.ine.add.PTCONT.5533819",
      "street": "R ROMﾃグ LOUREIRO",
      "house": "22",
      "postcode": "3510-687",
      "city": "VISEU",
      "lon": "-7.943922412494461",
      "lat": "40.67133737978036"
    },
    {
      "id": "pt.ine.add.PTCONT.5547922",
      "street": "R PRINCIPAL",
      "house": "48",
      "postcode": "3510-685",
      "city": "VISEU",
      "lon": "-7.945770552098336",
      "lat": "40.670223755269184"
    },
    {
      "id": "pt.ine.add.PTCONT.5567135",
      "street": "R DO CANTO",
      "house": "",
      "postcode": "3510-685",
      "city": "VISEU",
      "lon": "-7.945958749000569",
      "lat": "40.670593271389926"
    },
    {
      "id": "pt.ine.add.PTCONT.5580751",
      "street": "R PRINCIPAL",
      "house": "50",
      "postcode": "3510-685",
      "city": "VISEU",
      "lon": "-7.94593590096763",
      "lat": "40.67030506972769"
    },
    {
      "id": "pt.ine.add.PTCONT.5587386",
      "street": "R SERRADINHO",
      "house": "16",
      "postcode": "3510-691",
      "city": "VISEU",
      "lon": "-7.944561071347535",
      "lat": "40.67133842444502"
    },
    {
      "id": "pt.ine.add.PTCONT.5591834",
      "street": "R SERRADINHO",
      "house": "8",
      "postcode": "3510-691",
      "city": "VISEU",
      "lon": "-7.945343043717564",
      "lat": "40.6708444158245"
    },
    {
      "id": "pt.ine.add.PTCONT.5604458",
      "street": "LG EIRO",
      "house": "2",
      "postcode": "3510-685",
      "city": "VISEU",
      "lon": "-7.9460064340901395",
      "lat": "40.670458271502774"
    },
    {
      "id": "pt.ine.add.PTCONT.5637770",
      "street": "R SERRADINHO",
      "house": "4",
      "postcode": "3510-691",
      "city": "VISEU",
      "lon": "-7.945591661495463",
      "lat": "40.6707547684124"
    }
  ]
}