{
  "data": {
    "distrito": "Viseu",
    "concelho": "Viseu",
    "freguesia": "Orgens",
    "OBJECTID": 388,
    "BGRI2021": "18231900211",
    "DT21": "18",
    "DTMN21": "1823",
    "DTMNFR21": "182319",
    "DTMNFRSEC21": "182319002",
    "SECNUM21": "002",
    "SSNUM21": "11",
    "SECSSNUM21": "00211",
    "OBJECTID_1": 201864,
    "DT": "18",
    "CC": "23",
    "fr": "19",
    "SEC": "002",
    "SS": "11"
  },
  "addresses": [
    {
      "id": "pt.ine.add.PTCONT.5444081",
      "street": "R BUCAQUEIRA",
      "house": "",
      "postcode": "3510-683",
      "city": "VISEU",
      "lon": "-7.949325208748844",
      "lat": "40.67212955318674"
    },
    {
      "id": "pt.ine.add.PTCONT.5450644",
      "street": "LEVADA",
      "house": "",
      "postcode": "3510-683",
      "city": "VISEU",
      "lon": "-7.9480081109531815",
      "lat": "40.67367633349368"
    },
    {
      "id": "pt.ine.add.PTCONT.5475038",
      "street": "R FLORESTA",
      "house": "100",
      "postcode": "3510-680",
      "city": "VISEU",
      "lon": "-7.950235161959328",
      "lat": "40.672401152232695"
    },
    {
      "id": "pt.ine.add.PTCONT.5488246",
      "street": "R FLORESTA",
      "house": "108",
      "postcode": "3510-685",
      "city": "VISEU",
      "lon": "-7.94928569620676",
      "lat": "40.67359732828411"
    },
    {
      "id": "pt.ine.add.PTCONT.5491327",
      "street": "R FLORESTA",
      "house": "93",
      "postcode": "3510-680",
      "city": "VISEU",
      "lon": "-7.951063899219363",
      "lat": "40.67209628699305"
    },
    {
      "id": "pt.ine.add.PTCONT.5494724",
      "street": "R FLORESTA",
      "house": "104",
      "postcode": "3510-685",
      "city": "VISEU",
      "lon": "-7.949736569008467",
      "lat": "40.6730757470743"
    },
    {
      "id": "pt.ine.add.PTCONT.5533727",
      "street": "R FLORESTA",
      "house": "58",
      "postcode": "3510-685",
      "city": "VISEU",
      "lon": "-7.950721009895297",
      "lat": "40.67205972530213"
    },
    {
      "id": "pt.ine.add.PTCONT.5553512",
      "street": "R FLORESTA",
      "house": "102",
      "postcode": "3510-680",
      "city": "VISEU",
      "lon": "-7.950068866926951",
      "lat": "40.67266203784009"
    },
    {
      "id": "pt.ine.add.PTCONT.5571722",
      "street": "R FLORESTA",
      "house": "106",
      "postcode": "3510-680",
      "city": "VISEU",
      "lon": "-7.949594147301355",
      "lat": "40.6732556236133"
    },
    {
      "id": "pt.ine.add.PTCONT.5571723",
      "street": "R FLORESTA",
      "house": "90",
      "postcode": "3510-680",
      "city": "VISEU",
      "lon": "-7.951452289096038",
      "lat": "40.672799299757656"
    },
    {
      "id": "pt.ine.add.PTCONT.5604455",
      "street": "R FLORESTA",
      "house": "95",
      "postcode": "3510-680",
      "city": "VISEU",
      "lon": "-7.950838790949945",
      "lat": "40.67224001413608"
    },
    {
      "id": "pt.ine.add.PTCONT.5631237",
      "street": "R FLORESTA",
      "house": "56",
      "postcode": "3510-680",
      "city": "VISEU",
      "lon": "-7.950709575362616",
      "lat": "40.67191562495855"
    },
    {
      "id": "pt.ine.add.PTCONT.5633090",
      "street": "R FLORESTA",
      "house": "97",
      "postcode": "3510-680",
      "city": "VISEU",
      "lon": "-7.9506842522684975",
      "lat": "40.67252793462172"
    },
    {
      "id": "pt.ine.add.PTCONT.5636043",
      "street": "BESSADINHA",
      "house": "",
      "postcode": "3510-779",
      "city": "VISEU",
      "lon": "-7.949924647916975",
      "lat": "40.67349928721887"
    },
    {
      "id": "pt.ine.add.PTCONT.5637767",
      "street": "R FLORESTA",
      "house": "110",
      "postcode": "3510-680",
      "city": "VISEU",
      "lon": "-7.950243421904894",
      "lat": "40.673706910738716"
    }
  ]
}