{
  "data": {
    "distrito": "Leiria",
    "concelho": "Pedrógão Grande",
    "freguesia": "Graça",
    "OBJECTID": 72,
    "BGRI2021": "10130100128",
    "DT21": "10",
    "DTMN21": "1013",
    "DTMNFR21": "101301",
    "DTMNFRSEC21": "101301001",
    "SECNUM21": "001",
    "SSNUM21": "28",
    "SECSSNUM21": "00128",
    "OBJECTID_1": 93798,
    "DT": "10",
    "CC": "13",
    "fr": "01",
    "SEC": "001",
    "SS": "28"
  },
  "addresses": [
    {
      "id": "pt.ine.add.PTCONT.1989908",
      "street": "JORGE SILVA SIMÕES",
      "house": "",
      "postcode": "3270-023",
      "city": "GRAÇA",
      "lon": "-8.209556353628848",
      "lat": "39.896891153995355"
    },
    {
      "id": "pt.ine.add.PTCONT.1994411",
      "street": "ARMIN LUDWIG DURR",
      "house": "",
      "postcode": "3270-023",
      "city": "GRAÇA",
      "lon": "-8.209300417111878",
      "lat": "39.89807115523564"
    },
    {
      "id": "pt.ine.add.PTCONT.2048572",
      "street": "MARCOLINO NASCIMENTO RODRIGUES",
      "house": "",
      "postcode": "3270-023",
      "city": "GRAÇA",
      "lon": "-8.209511102334835",
      "lat": "39.89826015010994"
    },
    {
      "id": "pt.ine.add.PTCONT.2070426",
      "street": "",
      "house": "",
      "postcode": "3270-023",
      "city": "GRAÇA",
      "lon": "-8.208971501799958",
      "lat": "39.89670240451808"
    },
    {
      "id": "pt.ine.add.PTCONT.2111926",
      "street": "MANUEL ANTÓNIO SILVA",
      "house": "",
      "postcode": "3270-023",
      "city": "GRAÇA",
      "lon": "-8.209217987795547",
      "lat": "39.897548840663724"
    },
    {
      "id": "pt.ine.add.PTCONT.2122518",
      "street": "GISELA TUCWERT",
      "house": "",
      "postcode": "3270-023",
      "city": "GRAÇA",
      "lon": "-8.21133671051384",
      "lat": "39.899564854514914"
    },
    {
      "id": "pt.ine.add.PTCONT.2162864",
      "street": "DAVID NUNES",
      "house": "",
      "postcode": "3270-023",
      "city": "GRAÇA",
      "lon": "-8.2116606889417",
      "lat": "39.89655651249866"
    },
    {
      "id": "pt.ine.add.PTCONT.2196046",
      "street": "JULIA SILVA",
      "house": "",
      "postcode": "3270-023",
      "city": "GRAÇA",
      "lon": "-8.209709995309566",
      "lat": "39.898359088825515"
    },
    {
      "id": "pt.ine.add.PTCONT.2216013",
      "street": "PHILIP VINCENT",
      "house": "",
      "postcode": "3270-023",
      "city": "GRAÇA",
      "lon": "-8.211801280758348",
      "lat": "39.89679958886663"
    },
    {
      "id": "pt.ine.add.PTCONT.2233182",
      "street": "ALMERINDO COELHO ASSUNÇÃO",
      "house": "",
      "postcode": "3270-023",
      "city": "GRAÇA",
      "lon": "-8.209640016949349",
      "lat": "39.89852124943138"
    }
  ]
}