{
  "data": {
    "distrito": "Porto",
    "concelho": "Pa√ßos de Ferreira",
    "freguesia": "Raimonda",
    "OBJECTID": 99,
    "BGRI2021": "13091400205",
    "DT21": "13",
    "DTMN21": "1309",
    "DTMNFR21": "130914",
    "DTMNFRSEC21": "130914002",
    "SECNUM21": "002",
    "SSNUM21": "05",
    "SECSSNUM21": "00205",
    "OBJECTID_1": 134312,
    "DT": "13",
    "CC": "09",
    "fr": "14",
    "SEC": "002",
    "SS": "05"
  },
  "addresses": [
    {
      "id": "pt.ine.add.PTCONT.3564555",
      "street": "R PARADA",
      "house": "455",
      "postcode": "4590-698",
      "city": "RAIMONDA",
      "lon": "-8.329381332833432",
      "lat": "41.317390251221205"
    },
    {
      "id": "pt.ine.add.PTCONT.3599803",
      "street": "R PARADA",
      "house": "421",
      "postcode": "4590-698",
      "city": "RAIMONDA",
      "lon": "-8.329094484128388",
      "lat": "41.31731870693049"
    },
    {
      "id": "pt.ine.add.PTCONT.3689657",
      "street": "R PARADA",
      "house": "521",
      "postcode": "4590-698",
      "city": "RAIMONDA",
      "lon": "-8.330841349633388",
      "lat": "41.31836920263308"
    },
    {
      "id": "pt.ine.add.PTCONT.3774704",
      "street": "R PARADA CASA DE VILA FLOR",
      "house": "14",
      "postcode": "4590-698",
      "city": "RAIMONDA",
      "lon": "-8.329186682268615",
      "lat": "41.31620203752593"
    },
    {
      "id": "pt.ine.add.PTCONT.3808712",
      "street": "R PARADA",
      "house": "455",
      "postcode": "4590-698",
      "city": "RAIMONDA",
      "lon": "-8.329262226389616",
      "lat": "41.31749850382537"
    },
    {
      "id": "pt.ine.add.PTCONT.3808713",
      "street": "R GUIDE",
      "house": "49",
      "postcode": "4590-695",
      "city": "RAIMONDA",
      "lon": "-8.33048082572664",
      "lat": "41.31763148271735"
    },
    {
      "id": "pt.ine.add.PTCONT.3815718",
      "street": "R PARADA",
      "house": "511",
      "postcode": "4590-698",
      "city": "RAIMONDA",
      "lon": "-8.330518420919637",
      "lat": "41.31821668671229"
    },
    {
      "id": "pt.ine.add.PTCONT.3815719",
      "street": "R PARADA",
      "house": "413",
      "postcode": "4590-698",
      "city": "RAIMONDA",
      "lon": "-8.329165548684204",
      "lat": "41.317120495019296"
    },
    {
      "id": "pt.ine.add.PTCONT.3890113",
      "street": "R PARADA",
      "house": "397",
      "postcode": "4590-698",
      "city": "RAIMONDA",
      "lon": "-8.329152715362941",
      "lat": "41.31682338052689"
    },
    {
      "id": "pt.ine.add.PTCONT.3904429",
      "street": "R PARADA",
      "house": "383",
      "postcode": "4590-698",
      "city": "RAIMONDA",
      "lon": "-8.329176007613935",
      "lat": "41.3166252499458"
    },
    {
      "id": "pt.ine.add.PTCONT.3936090",
      "street": "R PARADA",
      "house": "379",
      "postcode": "4590-698",
      "city": "RAIMONDA",
      "lon": "-8.329163552079542",
      "lat": "41.316454192643725"
    },
    {
      "id": "pt.ine.add.PTCONT.3967970",
      "street": "R PARADA AID",
      "house": "417",
      "postcode": "4590-698",
      "city": "RAIMONDA",
      "lon": "-8.32928532955364",
      "lat": "41.31723734464828"
    },
    {
      "id": "pt.ine.add.PTCONT.4058754",
      "street": "R PARADA",
      "house": "477",
      "postcode": "4590-698",
      "city": "RAIMONDA",
      "lon": "-8.32986051655721",
      "lat": "41.31787565620948"
    },
    {
      "id": "pt.ine.add.PTCONT.4255190",
      "street": "R GUIDE",
      "house": "70",
      "postcode": "4590-695",
      "city": "RAIMONDA",
      "lon": "-8.33078046374016",
      "lat": "41.317982129626216"
    },
    {
      "id": "pt.ine.add.PTCONT.4308861",
      "street": "R PARADA",
      "house": "517",
      "postcode": "4590-698",
      "city": "RAIMONDA",
      "lon": "-8.330959883216368",
      "lat": "41.318071862670244"
    },
    {
      "id": "pt.ine.add.PTCONT.4308862",
      "street": "R PARADA",
      "house": "493",
      "postcode": "4590-698",
      "city": "RAIMONDA",
      "lon": "-8.330147558359561",
      "lat": "41.31801022716329"
    },
    {
      "id": "pt.ine.add.PTCONT.4360869",
      "street": "R PARADA",
      "house": "539",
      "postcode": "4590-698",
      "city": "RAIMONDA",
      "lon": "-8.330925278846438",
      "lat": "41.31847710797953"
    },
    {
      "id": "pt.ine.add.PTCONT.4371837",
      "street": "R PARADA",
      "house": "505",
      "postcode": "4590-698",
      "city": "RAIMONDA",
      "lon": "-8.330386747186923",
      "lat": "41.31811786703189"
    }
  ]
}