{
  "data": {
    "distrito": "Porto",
    "concelho": "Paredes",
    "freguesia": "Vilela",
    "OBJECTID": 118,
    "BGRI2021": "13102400302",
    "DT21": "13",
    "DTMN21": "1310",
    "DTMNFR21": "131024",
    "DTMNFRSEC21": "131024003",
    "SECNUM21": "003",
    "SSNUM21": "02",
    "SECSSNUM21": "00302",
    "OBJECTID_1": 135407,
    "DT": "13",
    "CC": "10",
    "fr": "24",
    "SEC": "003",
    "SS": "02"
  },
  "addresses": [
    {
      "id": "pt.ine.add.PTCONT.3574391",
      "street": "R SEIXOSO",
      "house": "",
      "postcode": "4580-098",
      "city": "VILELA PRD",
      "lon": "-8.385186428431235",
      "lat": "41.23232700368457"
    },
    {
      "id": "pt.ine.add.PTCONT.3593682",
      "street": "TV ESTRADA VELHA",
      "house": "48",
      "postcode": "4580-657",
      "city": "VILELA PRD",
      "lon": "-8.384482740469148",
      "lat": "41.232337546255955"
    },
    {
      "id": "pt.ine.add.PTCONT.3593683",
      "street": "TV ESTRADA VELHA",
      "house": "63",
      "postcode": "4580-657",
      "city": "VILELA PRD",
      "lon": "-8.384005743682199",
      "lat": "41.232365599339005"
    },
    {
      "id": "pt.ine.add.PTCONT.3618814",
      "street": "TV ESTRADA VELHA",
      "house": "33",
      "postcode": "4580-657",
      "city": "VILELA PRD",
      "lon": "-8.384124157695151",
      "lat": "41.232140234765914"
    },
    {
      "id": "pt.ine.add.PTCONT.3636215",
      "street": "TV ESTRADA VELHA",
      "house": "32",
      "postcode": "4580-657",
      "city": "VILELA PRD",
      "lon": "-8.384757072995157",
      "lat": "41.23233694705716"
    },
    {
      "id": "pt.ine.add.PTCONT.3661759",
      "street": "TV ESTRADA VELHA",
      "house": "32",
      "postcode": "4580-657",
      "city": "VILELA PRD",
      "lon": "-8.384732734633541",
      "lat": "41.23221094060305"
    },
    {
      "id": "pt.ine.add.PTCONT.3664200",
      "street": "TV ESTRADA VELHA",
      "house": "109",
      "postcode": "4580-657",
      "city": "VILELA PRD",
      "lon": "-8.383732270734955",
      "lat": "41.23259130137224"
    },
    {
      "id": "pt.ine.add.PTCONT.3713979",
      "street": "TV ESTRADA VELHA",
      "house": "74",
      "postcode": "4580-657",
      "city": "VILELA PRD",
      "lon": "-8.383994229269058",
      "lat": "41.23247367554541"
    },
    {
      "id": "pt.ine.add.PTCONT.3881830",
      "street": "TV ESTRADA VELHA",
      "house": "74",
      "postcode": "4580-657",
      "city": "VILELA PRD",
      "lon": "-8.384245086371374",
      "lat": "41.23257217556789"
    },
    {
      "id": "pt.ine.add.PTCONT.3943934",
      "street": "TV ESTRADA VELHA",
      "house": "34",
      "postcode": "4580-657",
      "city": "VILELA PRD",
      "lon": "-8.384567268071683",
      "lat": "41.23260748949215"
    },
    {
      "id": "pt.ine.add.PTCONT.3978869",
      "street": "R SANTO TIRSO",
      "house": "12",
      "postcode": "4580-098",
      "city": "VILELA PRD",
      "lon": "-8.385187362312271",
      "lat": "41.23257011665269"
    },
    {
      "id": "pt.ine.add.PTCONT.4005043",
      "street": "TV ESTRADA VELHA",
      "house": "31",
      "postcode": "4580-657",
      "city": "VILELA PRD",
      "lon": "-8.383969238321736",
      "lat": "41.23217658941142"
    },
    {
      "id": "pt.ine.add.PTCONT.4124565",
      "street": "TV DA ESTRADA VELHA",
      "house": "88",
      "postcode": "4580-657",
      "city": "VILELA PRD",
      "lon": "-8.38403039057371",
      "lat": "41.23257264360926"
    },
    {
      "id": "pt.ine.add.PTCONT.4147528",
      "street": "R SEIXOSO",
      "house": "6",
      "postcode": "4580-657",
      "city": "VILELA PRD",
      "lon": "-8.385580347659884",
      "lat": "41.23240717901033"
    },
    {
      "id": "pt.ine.add.PTCONT.4321417",
      "street": "TV ESTRADA",
      "house": "20",
      "postcode": "4580-657",
      "city": "VILELA PRD",
      "lon": "-8.38357710950568",
      "lat": "41.2325646261971"
    },
    {
      "id": "pt.ine.add.PTCONT.4381594",
      "street": "TRAVESSINHA DA ESTRADA",
      "house": "18",
      "postcode": "4580-657",
      "city": "VILELA PRD",
      "lon": "-8.38357710950568",
      "lat": "41.2325646261971"
    }
  ]
}