{
  "data": {
    "distrito": "Setúbal",
    "concelho": "Santiago do Cacém",
    "freguesia": "União das freguesias de Santiago do Cacém, Santa Cruz e São Bartolomeu da Serra",
    "OBJECTID": 196,
    "BGRI2021": "15091200711",
    "DT21": "15",
    "DTMN21": "1509",
    "DTMNFR21": "150912",
    "DTMNFRSEC21": "150912007",
    "SECNUM21": "007",
    "SSNUM21": "11",
    "SECSSNUM21": "00711",
    "OBJECTID_1": 166785,
    "DT": "15",
    "CC": "09",
    "fr": "12",
    "SEC": "007",
    "SS": "11"
  },
  "addresses": [
    {
      "id": "pt.ine.add.PTCONT.4701080",
      "street": "R FIRMINA FIGUEIRA",
      "house": "1",
      "postcode": "7540-110",
      "city": "SANTIAGO DO CACÉM",
      "lon": "-8.701791982408569",
      "lat": "38.01633942992535"
    },
    {
      "id": "pt.ine.add.PTCONT.4701081",
      "street": "R FIRMINA FIGUEIRA",
      "house": "1",
      "postcode": "7540-110",
      "city": "SANTIAGO DO CACÉM",
      "lon": "-8.701791982408569",
      "lat": "38.01633942992535"
    },
    {
      "id": "pt.ine.add.PTCONT.4701082",
      "street": "R FIRMINA FIGUEIRA",
      "house": "1",
      "postcode": "7540-110",
      "city": "SANTIAGO DO CACÉM",
      "lon": "-8.701791982408569",
      "lat": "38.01633942992535"
    },
    {
      "id": "pt.ine.add.PTCONT.4701083",
      "street": "R FIRMINA FIGUEIRA",
      "house": "1",
      "postcode": "7540-110",
      "city": "SANTIAGO DO CACÉM",
      "lon": "-8.701791982408569",
      "lat": "38.01633942992535"
    },
    {
      "id": "pt.ine.add.PTCONT.4770582",
      "street": "LG RECONQUISTA",
      "house": "",
      "postcode": "7540-110",
      "city": "SANTIAGO DO CACÉM",
      "lon": "-8.701896218905473",
      "lat": "38.01668337573073"
    },
    {
      "id": "pt.ine.add.PTCONT.4771873",
      "street": "R S PEDRO",
      "house": "26",
      "postcode": "7540-110",
      "city": "SANTIAGO DO CACÉM",
      "lon": "-8.701880312655419",
      "lat": "38.01608986694599"
    },
    {
      "id": "pt.ine.add.PTCONT.4797224",
      "street": "R POR DO SOL",
      "house": "",
      "postcode": "7540-119",
      "city": "SANTIAGO DO CACÉM",
      "lon": "-8.702430516489944",
      "lat": "38.016245581771045"
    },
    {
      "id": "pt.ine.add.PTCONT.4812366",
      "street": "R FIRMINA FIGUEIRA",
      "house": "",
      "postcode": "7540-110",
      "city": "SANTIAGO DO CACÉM",
      "lon": "-8.701837973596243",
      "lat": "38.0162705693902"
    },
    {
      "id": "pt.ine.add.PTCONT.4835587",
      "street": "R FIRMINA FIGUEIRA",
      "house": "",
      "postcode": "7540-110",
      "city": "SANTIAGO DO CACÉM",
      "lon": "-8.70204368789598",
      "lat": "38.01651453874462"
    },
    {
      "id": "pt.ine.add.PTCONT.4866608",
      "street": "R FIRMINA FIGUEIRA",
      "house": "5",
      "postcode": "7540-110",
      "city": "SANTIAGO DO CACÉM",
      "lon": "-8.701833489834026",
      "lat": "38.016498485025416"
    },
    {
      "id": "pt.ine.add.PTCONT.4917558",
      "street": "R S PEDRO",
      "house": "30",
      "postcode": "7540-110",
      "city": "SANTIAGO DO CACÉM",
      "lon": "-8.702326055615426",
      "lat": "38.015875661388776"
    },
    {
      "id": "pt.ine.add.PTCONT.4955143",
      "street": "R S PEDRO",
      "house": "",
      "postcode": "7540-110",
      "city": "SANTIAGO DO CACÉM",
      "lon": "-8.701776506279908",
      "lat": "38.01613734278411"
    },
    {
      "id": "pt.ine.add.PTCONT.4966065",
      "street": "R FIRMINA FIGUEIRA",
      "house": "",
      "postcode": "7540-110",
      "city": "SANTIAGO DO CACÉM",
      "lon": "-8.701813198173275",
      "lat": "38.016418480910765"
    },
    {
      "id": "pt.ine.add.PTCONT.5040799",
      "street": "R S PEDRO",
      "house": "28",
      "postcode": "7540-110",
      "city": "SANTIAGO DO CACÉM",
      "lon": "-8.702005903346889",
      "lat": "38.01602307448684"
    },
    {
      "id": "pt.ine.add.PTCONT.5093421",
      "street": "R POR DO SOL",
      "house": "",
      "postcode": "7540-119",
      "city": "SANTIAGO DO CACÉM",
      "lon": "-8.70224685021287",
      "lat": "38.01641154575118"
    },
    {
      "id": "pt.ine.add.PTCONT.5097099",
      "street": "R POR DO SOL",
      "house": "13",
      "postcode": "7540-119",
      "city": "SANTIAGO DO CACÉM",
      "lon": "-8.702468847618812",
      "lat": "38.0161029676378"
    },
    {
      "id": "pt.ine.add.PTCONT.5105030",
      "street": "R FIRMINA FIGUEIRA",
      "house": "",
      "postcode": "7540-110",
      "city": "SANTIAGO DO CACÉM",
      "lon": "-8.70215197485922",
      "lat": "38.016513348078426"
    }
  ]
}