{
  "data": {
    "distrito": "Aveiro",
    "concelho": "Vale de Cambra",
    "freguesia": "São Pedro de Castelões",
    "OBJECTID": 129,
    "BGRI2021": "01190200618",
    "DT21": "01",
    "DTMN21": "0119",
    "DTMNFR21": "011902",
    "DTMNFRSEC21": "011902006",
    "SECNUM21": "006",
    "SSNUM21": "18",
    "SECSSNUM21": "00618",
    "OBJECTID_1": 11895,
    "DT": "01",
    "CC": "19",
    "fr": "02",
    "SEC": "006",
    "SS": "18"
  },
  "addresses": [
    {
      "id": "pt.ine.add.PTCONT.297137",
      "street": "R VENDA",
      "house": "99",
      "postcode": "3730-043",
      "city": "VALE DE CAMBRA",
      "lon": "-8.387507033025976",
      "lat": "40.82004710006707"
    },
    {
      "id": "pt.ine.add.PTCONT.310191",
      "street": "ESTR N 238",
      "house": "",
      "postcode": "3730-043",
      "city": "VALE DE CAMBRA",
      "lon": "-8.38641546524883",
      "lat": "40.81665465165503"
    },
    {
      "id": "pt.ine.add.PTCONT.311837",
      "street": "ESTR N 238",
      "house": "",
      "postcode": "3730-043",
      "city": "VALE DE CAMBRA",
      "lon": "-8.38634301340718",
      "lat": "40.81630361919259"
    },
    {
      "id": "pt.ine.add.PTCONT.335385",
      "street": "ESTR N 238",
      "house": "",
      "postcode": "3730-043",
      "city": "VALE DE CAMBRA",
      "lon": "-8.386509978736035",
      "lat": "40.81657339992529"
    },
    {
      "id": "pt.ine.add.PTCONT.344363",
      "street": "R FERREIRO",
      "house": "",
      "postcode": "3730-043",
      "city": "VALE DE CAMBRA",
      "lon": "-8.38789095759328",
      "lat": "40.81815522261118"
    },
    {
      "id": "pt.ine.add.PTCONT.12902",
      "street": "TV FERREIRO",
      "house": "12",
      "postcode": "3730-043",
      "city": "VALE DE CAMBRA",
      "lon": "-8.387878691174844",
      "lat": "40.81804719080588"
    },
    {
      "id": "pt.ine.add.PTCONT.15408",
      "street": "R VENDA",
      "house": "",
      "postcode": "3730-043",
      "city": "VALE DE CAMBRA",
      "lon": "-8.386890831104031",
      "lat": "40.82009348163955"
    },
    {
      "id": "pt.ine.add.PTCONT.17426",
      "street": "R CARTAGINESES",
      "house": "84",
      "postcode": "3730-043",
      "city": "VALE DE CAMBRA",
      "lon": "-8.389929545160225",
      "lat": "40.81504400899232"
    },
    {
      "id": "pt.ine.add.PTCONT.26118",
      "street": "ESTR N 238",
      "house": "",
      "postcode": "3730-043",
      "city": "VALE DE CAMBRA",
      "lon": "-8.386923164641376",
      "lat": "40.81924694941402"
    },
    {
      "id": "pt.ine.add.PTCONT.31373",
      "street": "R VENDA",
      "house": "38",
      "postcode": "3730-043",
      "city": "VALE DE CAMBRA",
      "lon": "-8.386759380925952",
      "lat": "40.81981461865216"
    },
    {
      "id": "pt.ine.add.PTCONT.45212",
      "street": "R CARTAGINESES",
      "house": "",
      "postcode": "3730-043",
      "city": "VALE DE CAMBRA",
      "lon": "-8.389638263560064",
      "lat": "40.81635036911632"
    },
    {
      "id": "pt.ine.add.PTCONT.47860",
      "street": "ESTR N 238",
      "house": "",
      "postcode": "3730-043",
      "city": "VALE DE CAMBRA",
      "lon": "-8.386426632914777",
      "lat": "40.81647452893198"
    },
    {
      "id": "pt.ine.add.PTCONT.55715",
      "street": "R PADRES DA BOUCA",
      "house": "",
      "postcode": "3730-043",
      "city": "VALE DE CAMBRA",
      "lon": "-8.3885931552065",
      "lat": "40.815812393412045"
    },
    {
      "id": "pt.ine.add.PTCONT.64512",
      "street": "R JOAQUIM HENRIQUES TAVARES BASTOS",
      "house": "131",
      "postcode": "3730-043",
      "city": "VALE DE CAMBRA",
      "lon": "-8.38748884997579",
      "lat": "40.818390237460854"
    },
    {
      "id": "pt.ine.add.PTCONT.82832",
      "street": "ESTR N 238",
      "house": "",
      "postcode": "3730-043",
      "city": "VALE DE CAMBRA",
      "lon": "-8.386163923074731",
      "lat": "40.81596182550955"
    },
    {
      "id": "pt.ine.add.PTCONT.93410",
      "street": "R PADRES DA BOUCA",
      "house": "",
      "postcode": "3730-043",
      "city": "VALE DE CAMBRA",
      "lon": "-8.3892482681691",
      "lat": "40.81664839759665"
    },
    {
      "id": "pt.ine.add.PTCONT.96155",
      "street": "R ALTO JOGO",
      "house": "99",
      "postcode": "3730-046",
      "city": "VALE DE CAMBRA",
      "lon": "-8.387020950332722",
      "lat": "40.816914463137735"
    },
    {
      "id": "pt.ine.add.PTCONT.99743",
      "street": "R VENDA",
      "house": "",
      "postcode": "3730-043",
      "city": "VALE DE CAMBRA",
      "lon": "-8.387421892977168",
      "lat": "40.81947997874268"
    },
    {
      "id": "pt.ine.add.PTCONT.113051",
      "street": "R CARTAGINESES",
      "house": "110",
      "postcode": "3730-043",
      "city": "VALE DE CAMBRA",
      "lon": "-8.389704626282368",
      "lat": "40.81511654871565"
    },
    {
      "id": "pt.ine.add.PTCONT.117449",
      "street": "R FERREIRO",
      "house": "",
      "postcode": "3730-043",
      "city": "VALE DE CAMBRA",
      "lon": "-8.387901914771165",
      "lat": "40.81792107081243"
    },
    {
      "id": "pt.ine.add.PTCONT.117450",
      "street": "R FERREIRO",
      "house": "",
      "postcode": "3730-043",
      "city": "VALE DE CAMBRA",
      "lon": "-8.387901914771165",
      "lat": "40.81792107081243"
    },
    {
      "id": "pt.ine.add.PTCONT.117451",
      "street": "R FERREIRO",
      "house": "",
      "postcode": "3730-043",
      "city": "VALE DE CAMBRA",
      "lon": "-8.387903361872796",
      "lat": "40.81829927373821"
    },
    {
      "id": "pt.ine.add.PTCONT.125497",
      "street": "R PADRES DA BOUCA",
      "house": "385",
      "postcode": "3730-043",
      "city": "VALE DE CAMBRA",
      "lon": "-8.389447892839828",
      "lat": "40.81616168910773"
    },
    {
      "id": "pt.ine.add.PTCONT.136190",
      "street": "R VALE DA GALEGA",
      "house": "",
      "postcode": "3730-070",
      "city": "VALE DE CAMBRA",
      "lon": "-8.389794934077523",
      "lat": "40.813945709144235"
    },
    {
      "id": "pt.ine.add.PTCONT.144100",
      "street": "ESTR N 238",
      "house": "",
      "postcode": "3730-043",
      "city": "VALE DE CAMBRA",
      "lon": "-8.387333866600892",
      "lat": "40.81815645146622"
    },
    {
      "id": "pt.ine.add.PTCONT.148358",
      "street": "R JOAQUIM HENRIQUES TAVARES BASTOS",
      "house": "9",
      "postcode": "3730-043",
      "city": "VALE DE CAMBRA",
      "lon": "-8.386429270459761",
      "lat": "40.81716790119727"
    },
    {
      "id": "pt.ine.add.PTCONT.148359",
      "street": "R JOAQUIM HENRIQUES TAVARES BASTOS",
      "house": "9",
      "postcode": "3730-043",
      "city": "VALE DE CAMBRA",
      "lon": "-8.386429270459761",
      "lat": "40.81716790119727"
    },
    {
      "id": "pt.ine.add.PTCONT.156653",
      "street": "ESTR N 238",
      "house": "",
      "postcode": "3730-043",
      "city": "VALE DE CAMBRA",
      "lon": "-8.386722504640183",
      "lat": "40.816356815116954"
    },
    {
      "id": "pt.ine.add.PTCONT.192341",
      "street": "FONTENARIO CARTIM",
      "house": "116",
      "postcode": "3730-043",
      "city": "VALE DE CAMBRA",
      "lon": "-8.38801565784244",
      "lat": "40.8197668254037"
    },
    {
      "id": "pt.ine.add.PTCONT.197185",
      "street": "R FONTANARIO",
      "house": "60",
      "postcode": "3730-046",
      "city": "VALE DE CAMBRA",
      "lon": "-8.387729767202947",
      "lat": "40.81939825556336"
    },
    {
      "id": "pt.ine.add.PTCONT.207792",
      "street": "ALTO JOGO",
      "house": "99",
      "postcode": "3730-043",
      "city": "VALE DE CAMBRA",
      "lon": "-8.387632187872152",
      "lat": "40.818678078368755"
    },
    {
      "id": "pt.ine.add.PTCONT.210648",
      "street": "R JOAQUIM HENRIQUES TAVARES",
      "house": "251",
      "postcode": "3730-043",
      "city": "VALE DE CAMBRA",
      "lon": "-8.386805661931579",
      "lat": "40.81951735501949"
    },
    {
      "id": "pt.ine.add.PTCONT.229732",
      "street": "R VENDA",
      "house": "",
      "postcode": "3730-043",
      "city": "VALE DE CAMBRA",
      "lon": "-8.38677192030226",
      "lat": "40.8199946891834"
    },
    {
      "id": "pt.ine.add.PTCONT.235066",
      "street": "R VENDA",
      "house": "",
      "postcode": "3730-043",
      "city": "VALE DE CAMBRA",
      "lon": "-8.38788692552518",
      "lat": "40.82019934517431"
    },
    {
      "id": "pt.ine.add.PTCONT.240561",
      "street": "ESTR N 238",
      "house": "",
      "postcode": "3730-043",
      "city": "VALE DE CAMBRA",
      "lon": "-8.387393681779045",
      "lat": "40.81830039817261"
    },
    {
      "id": "pt.ine.add.PTCONT.275360",
      "street": "R CARTAGINESES",
      "house": "",
      "postcode": "3730-043",
      "city": "VALE DE CAMBRA",
      "lon": "-8.389449140659629",
      "lat": "40.816485863105704"
    },
    {
      "id": "pt.ine.add.PTCONT.283575",
      "street": "R VENDA",
      "house": "59",
      "postcode": "3730-043",
      "city": "VALE DE CAMBRA",
      "lon": "-8.387316417060525",
      "lat": "40.81979538287157"
    }
  ]
}