{
  "data": {
    "distrito": "Faro",
    "concelho": "Loul√©",
    "freguesia": "Almancil",
    "OBJECTID": 916,
    "BGRI2021": "08080100309",
    "DT21": "08",
    "DTMN21": "0808",
    "DTMNFR21": "080801",
    "DTMNFRSEC21": "080801003",
    "SECNUM21": "003",
    "SSNUM21": "09",
    "SECSSNUM21": "00309",
    "OBJECTID_1": 68705,
    "DT": "08",
    "CC": "08",
    "fr": "01",
    "SEC": "003",
    "SS": "09"
  },
  "addresses": [
    {
      "id": "pt.ine.add.PTCONT.1470227",
      "street": "R PEQUENA CASA LINDA",
      "house": "624",
      "postcode": "8135-034",
      "city": "ALMANCIL",
      "lon": "-8.060947468906907",
      "lat": "37.04942296226959"
    },
    {
      "id": "pt.ine.add.PTCONT.1496437",
      "street": "R COLINA",
      "house": "474",
      "postcode": "8135-034",
      "city": "ALMANCIL",
      "lon": "-8.061679787167565",
      "lat": "37.04771136328055"
    },
    {
      "id": "pt.ine.add.PTCONT.1496438",
      "street": "R COLINA",
      "house": "170",
      "postcode": "8135-034",
      "city": "ALMANCIL",
      "lon": "-8.061746915623907",
      "lat": "37.048053812144516"
    },
    {
      "id": "pt.ine.add.PTCONT.1513569",
      "street": "ESTR HORTA",
      "house": "449",
      "postcode": "8135-034",
      "city": "ALMANCIL",
      "lon": "-8.059396473012297",
      "lat": "37.04904355740069"
    },
    {
      "id": "pt.ine.add.PTCONT.1513570",
      "street": "R COLINA MON AMOUR",
      "house": "467",
      "postcode": "8135-034",
      "city": "ALMANCIL",
      "lon": "-8.060847796539656",
      "lat": "37.047837009958386"
    },
    {
      "id": "pt.ine.add.PTCONT.1519102",
      "street": "R PEQUENA",
      "house": "631",
      "postcode": "8135-034",
      "city": "ALMANCIL",
      "lon": "-8.05937351021335",
      "lat": "37.049539134211244"
    },
    {
      "id": "pt.ine.add.PTCONT.1525455",
      "street": "R COLINA",
      "house": "471",
      "postcode": "8135-034",
      "city": "ALMANCIL",
      "lon": "-8.061162712156024",
      "lat": "37.04767500785409"
    },
    {
      "id": "pt.ine.add.PTCONT.1538112",
      "street": "R PEQUENA CASA JOLIE",
      "house": "627",
      "postcode": "8135-034",
      "city": "ALMANCIL",
      "lon": "-8.059846097577669",
      "lat": "37.049088889635655"
    },
    {
      "id": "pt.ine.add.PTCONT.1564326",
      "street": "TV EUCALIPTOS CASA ALEXANDA",
      "house": "199",
      "postcode": "8135-034",
      "city": "ALMANCIL",
      "lon": "-8.060373503229524",
      "lat": "37.05008940700229"
    },
    {
      "id": "pt.ine.add.PTCONT.1564327",
      "street": "R PEQUENA VENTOS DO MAR",
      "house": "620",
      "postcode": "8135-034",
      "city": "ALMANCIL",
      "lon": "-8.061487428651235",
      "lat": "37.04904483808049"
    },
    {
      "id": "pt.ine.add.PTCONT.1569498",
      "street": "TV EUCALIPTOS",
      "house": "",
      "postcode": "8135-034",
      "city": "ALMANCIL",
      "lon": "-8.061318175183308",
      "lat": "37.04971153105471"
    },
    {
      "id": "pt.ine.add.PTCONT.1598233",
      "street": "R PEQUENA",
      "house": "625",
      "postcode": "8135-034",
      "city": "ALMANCIL",
      "lon": "-8.060228479187943",
      "lat": "37.04891792094282"
    },
    {
      "id": "pt.ine.add.PTCONT.1612211",
      "street": "R PEQUENA TOSCANA",
      "house": "618",
      "postcode": "8135-034",
      "city": "ALMANCIL",
      "lon": "-8.061802701930338",
      "lat": "37.04850438311446"
    },
    {
      "id": "pt.ine.add.PTCONT.1632506",
      "street": "R COLINA",
      "house": "473",
      "postcode": "8135-034",
      "city": "ALMANCIL",
      "lon": "-8.061353809093745",
      "lat": "37.04768413433125"
    },
    {
      "id": "pt.ine.add.PTCONT.1663446",
      "street": "R PEQUENA",
      "house": "628",
      "postcode": "8135-034",
      "city": "ALMANCIL",
      "lon": "-8.06019403011861",
      "lat": "37.049674802519064"
    },
    {
      "id": "pt.ine.add.PTCONT.1667530",
      "street": "ESTR HORTA",
      "house": "450",
      "postcode": "8135-034",
      "city": "ALMANCIL",
      "lon": "-8.059531529931075",
      "lat": "37.04888144778098"
    },
    {
      "id": "pt.ine.add.PTCONT.1670771",
      "street": "R COLINA",
      "house": "472",
      "postcode": "8135-034",
      "city": "ALMANCIL",
      "lon": "-8.061859533269699",
      "lat": "37.04783762185032"
    },
    {
      "id": "pt.ine.add.PTCONT.1685864",
      "street": "TV EUCALIPTOS",
      "house": "498",
      "postcode": "8135-034",
      "city": "ALMANCIL",
      "lon": "-8.060857150529745",
      "lat": "37.049828390892465"
    },
    {
      "id": "pt.ine.add.PTCONT.1685865",
      "street": "R COLINA",
      "house": "464",
      "postcode": "8135-034",
      "city": "ALMANCIL",
      "lon": "-8.061207210676757",
      "lat": "37.04817062602939"
    },
    {
      "id": "pt.ine.add.PTCONT.1687535",
      "street": "R COLINA",
      "house": "475",
      "postcode": "8135-034",
      "city": "ALMANCIL",
      "lon": "-8.06155616449173",
      "lat": "37.04767524579203"
    },
    {
      "id": "pt.ine.add.PTCONT.1690212",
      "street": "R PEQUENA",
      "house": "630",
      "postcode": "8135-034",
      "city": "ALMANCIL",
      "lon": "-8.059800342152842",
      "lat": "37.049908839313794"
    },
    {
      "id": "pt.ine.add.PTCONT.1690214",
      "street": "R COLINA",
      "house": "454 456",
      "postcode": "8135-034",
      "city": "ALMANCIL",
      "lon": "-8.060521217600042",
      "lat": "37.04844053076771"
    },
    {
      "id": "pt.ine.add.PTCONT.1704493",
      "street": "R COLINA",
      "house": "",
      "postcode": "8135-034",
      "city": "ALMANCIL",
      "lon": "-8.059677862645284",
      "lat": "37.048683301990955"
    },
    {
      "id": "pt.ine.add.PTCONT.1724640",
      "street": "R PEQUENA TORRE PEQUENA",
      "house": "619",
      "postcode": "8135-034",
      "city": "ALMANCIL",
      "lon": "-8.061240451138158",
      "lat": "37.04868425882359"
    },
    {
      "id": "pt.ine.add.PTCONT.1735960",
      "street": "TV EUCALIPTOS",
      "house": "500",
      "postcode": "8135-034",
      "city": "ALMANCIL",
      "lon": "-8.059710121219606",
      "lat": "37.05020613814191"
    },
    {
      "id": "pt.ine.add.PTCONT.1739095",
      "street": "R PEQUENA",
      "house": "626",
      "postcode": "8135-034",
      "city": "ALMANCIL",
      "lon": "-8.060542740067472",
      "lat": "37.04944974765256"
    },
    {
      "id": "pt.ine.add.PTCONT.1751355",
      "street": "R COLINA",
      "house": "193",
      "postcode": "8135-034",
      "city": "ALMANCIL",
      "lon": "-8.062185386427648",
      "lat": "37.048000010571954"
    },
    {
      "id": "pt.ine.add.PTCONT.1757469",
      "street": "R COLINA",
      "house": "465",
      "postcode": "8135-034",
      "city": "ALMANCIL",
      "lon": "-8.060836452503215",
      "lat": "37.04794513203802"
    },
    {
      "id": "pt.ine.add.PTCONT.1768177",
      "street": "R PEQUENA CASA DAS FELICIDADES",
      "house": "622",
      "postcode": "8135-034",
      "city": "ALMANCIL",
      "lon": "-8.06125114914052",
      "lat": "37.04926095314272"
    },
    {
      "id": "pt.ine.add.PTCONT.1828278",
      "street": "R COLINA",
      "house": "469",
      "postcode": "8135-034",
      "city": "ALMANCIL",
      "lon": "-8.061016538631144",
      "lat": "37.047710962121805"
    },
    {
      "id": "pt.ine.add.PTCONT.1830446",
      "street": "R PEQUENA RASA BORGIA",
      "house": "621",
      "postcode": "8135-034",
      "city": "ALMANCIL",
      "lon": "-8.060869365871632",
      "lat": "37.04880117317891"
    },
    {
      "id": "pt.ine.add.PTCONT.1841369",
      "street": "ESTR HORTA",
      "house": "629",
      "postcode": "8135-034",
      "city": "ALMANCIL",
      "lon": "-8.05948617160109",
      "lat": "37.049286903267934"
    }
  ]
}