{
  "data": {
    "distrito": "Setúbal",
    "concelho": "Seixal",
    "freguesia": "Fernão Ferro",
    "OBJECTID": 841,
    "BGRI2021": "15100601410",
    "DT21": "15",
    "DTMN21": "1510",
    "DTMNFR21": "151006",
    "DTMNFRSEC21": "151006014",
    "SECNUM21": "014",
    "SSNUM21": "10",
    "SECSSNUM21": "01410",
    "OBJECTID_1": 168423,
    "DT": "15",
    "CC": "10",
    "fr": "06",
    "SEC": "014",
    "SS": "10"
  },
  "addresses": [
    {
      "id": "pt.ine.add.PTCONT.4698155",
      "street": "R D DINIS",
      "house": "",
      "postcode": "2865-636",
      "city": "FERNÃO FERRO",
      "lon": "-9.084905576609797",
      "lat": "38.57204136424001"
    },
    {
      "id": "pt.ine.add.PTCONT.4704531",
      "street": "AV SEIXAL",
      "house": "",
      "postcode": "2865-684",
      "city": "FERNÃO FERRO",
      "lon": "-9.084875608170716",
      "lat": "38.57324869785812"
    },
    {
      "id": "pt.ine.add.PTCONT.4719865",
      "street": "R D DINIS",
      "house": "",
      "postcode": "2865-636",
      "city": "FERNÃO FERRO",
      "lon": "-9.085077021858956",
      "lat": "38.57285971012508"
    },
    {
      "id": "pt.ine.add.PTCONT.4788388",
      "street": "R D DINIS",
      "house": "",
      "postcode": "2865-636",
      "city": "FERNÃO FERRO",
      "lon": "-9.084885244340684",
      "lat": "38.57223970853714"
    },
    {
      "id": "pt.ine.add.PTCONT.4806655",
      "street": "R D DINIS",
      "house": "",
      "postcode": "2865-636",
      "city": "FERNÃO FERRO",
      "lon": "-9.084802607031017",
      "lat": "38.57293400680131"
    },
    {
      "id": "pt.ine.add.PTCONT.4848338",
      "street": "PCT CIDADE DE SEIA",
      "house": "",
      "postcode": "2865-586",
      "city": "FERNÃO FERRO",
      "lon": "-9.083902638793056",
      "lat": "38.57168919031474"
    },
    {
      "id": "pt.ine.add.PTCONT.4870721",
      "street": "PCT CIDADE DE SEIA",
      "house": "",
      "postcode": "2865-586",
      "city": "FERNÃO FERRO",
      "lon": "-9.08457047089693",
      "lat": "38.57186392610766"
    },
    {
      "id": "pt.ine.add.PTCONT.4908143",
      "street": "PCT CIDADE DE SEIA",
      "house": "",
      "postcode": "2865-586",
      "city": "FERNÃO FERRO",
      "lon": "-9.084685442599548",
      "lat": "38.571881007713216"
    },
    {
      "id": "pt.ine.add.PTCONT.4919808",
      "street": "R D DINIS",
      "house": "",
      "postcode": "2865-636",
      "city": "FERNÃO FERRO",
      "lon": "-9.085110315312853",
      "lat": "38.571904577126745"
    },
    {
      "id": "pt.ine.add.PTCONT.5014520",
      "street": "PCT CIDADE DE SEIA",
      "house": "",
      "postcode": "2865-586",
      "city": "FERNÃO FERRO",
      "lon": "-9.083776075482682",
      "lat": "38.571663193951586"
    },
    {
      "id": "pt.ine.add.PTCONT.5043400",
      "street": "R D DINIS",
      "house": "",
      "postcode": "2865-636",
      "city": "FERNÃO FERRO",
      "lon": "-9.084863961218547",
      "lat": "38.57236599548371"
    }
  ]
}