{
  "data": {
    "distrito": "Portalegre",
    "concelho": "Elvas",
    "freguesia": "São Brás e São Lourenço",
    "OBJECTID": 529,
    "BGRI2021": "12070700206",
    "DT21": "12",
    "DTMN21": "1207",
    "DTMNFR21": "120707",
    "DTMNFRSEC21": "120707002",
    "SECNUM21": "002",
    "SSNUM21": "06",
    "SECSSNUM21": "00206",
    "OBJECTID_1": 121812,
    "DT": "12",
    "CC": "07",
    "fr": "07",
    "SEC": "002",
    "SS": "06"
  },
  "addresses": [
    {
      "id": "pt.ine.add.PTCONT.3534875",
      "street": "R ABOBODA",
      "house": "18",
      "postcode": "7350-422",
      "city": "ELVAS",
      "lon": "-7.209460402712212",
      "lat": "38.86577226343563"
    },
    {
      "id": "pt.ine.add.PTCONT.3535292",
      "street": "R ALTO DA GIRALDINHA",
      "house": "16",
      "postcode": "7350-422",
      "city": "ELVAS",
      "lon": "-7.210477711930066",
      "lat": "38.86461831042007"
    },
    {
      "id": "pt.ine.add.PTCONT.3536796",
      "street": "R ABOBODA",
      "house": "4",
      "postcode": "7350-422",
      "city": "ELVAS",
      "lon": "-7.209251962498999",
      "lat": "38.866743447134105"
    },
    {
      "id": "pt.ine.add.PTCONT.3458936",
      "street": "ALTO DA GIRALDINHA",
      "house": "10",
      "postcode": "7350-422",
      "city": "ELVAS",
      "lon": "-7.210475150768113",
      "lat": "38.86481645982845"
    },
    {
      "id": "pt.ine.add.PTCONT.3460221",
      "street": "ALTO DA GIRALDINHA",
      "house": "4",
      "postcode": "7350-422",
      "city": "ELVAS",
      "lon": "-7.209745518683701",
      "lat": "38.865107947605004"
    },
    {
      "id": "pt.ine.add.PTCONT.3461785",
      "street": "ALTO DA GIRALDINHA",
      "house": "12",
      "postcode": "7350-422",
      "city": "ELVAS",
      "lon": "-7.210315261934227",
      "lat": "38.86470710400342"
    },
    {
      "id": "pt.ine.add.PTCONT.3461955",
      "street": "ALTO DA GIRALDINHA",
      "house": "12A",
      "postcode": "7350-422",
      "city": "ELVAS",
      "lon": "-7.210200407126612",
      "lat": "38.86467917325918"
    },
    {
      "id": "pt.ine.add.PTCONT.3463401",
      "street": "ALTO DA TRINCHEIRINHA",
      "house": "1",
      "postcode": "7350-474",
      "city": "ELVAS",
      "lon": "-7.212104347528304",
      "lat": "38.86710476099537"
    },
    {
      "id": "pt.ine.add.PTCONT.3466416",
      "street": "ALTO DA GIRALDINHA",
      "house": "8",
      "postcode": "7350-422",
      "city": "ELVAS",
      "lon": "-7.210416500775298",
      "lat": "38.86489706585257"
    },
    {
      "id": "pt.ine.add.PTCONT.3467610",
      "street": "ALTO DA TRINCHEIRINHA",
      "house": "11",
      "postcode": "7350-422",
      "city": "ELVAS",
      "lon": "-7.211462811130665",
      "lat": "38.866598777441844"
    },
    {
      "id": "pt.ine.add.PTCONT.3468192",
      "street": "ALTO DA TRINCHEIRINHA",
      "house": "5",
      "postcode": "7350-474",
      "city": "ELVAS",
      "lon": "-7.211638966402494",
      "lat": "38.86659115982506"
    },
    {
      "id": "pt.ine.add.PTCONT.3468195",
      "street": "TAPADA DA ABOBODA",
      "house": "",
      "postcode": "7350-422",
      "city": "ELVAS",
      "lon": "-7.210112533949353",
      "lat": "38.866128720063635"
    },
    {
      "id": "pt.ine.add.PTCONT.3478730",
      "street": "R TRACO DO GORGULHÃO",
      "house": "2",
      "postcode": "7350-422",
      "city": "ELVAS",
      "lon": "-7.20969757250288",
      "lat": "38.865251691859385"
    },
    {
      "id": "pt.ine.add.PTCONT.3481521",
      "street": "ALTO DA TRINCHEIRINHA",
      "house": "5",
      "postcode": "7350-422",
      "city": "ELVAS",
      "lon": "-7.211926100831726",
      "lat": "38.867264332754964"
    },
    {
      "id": "pt.ine.add.PTCONT.3482498",
      "street": "ALTO DA GIRALDINHA",
      "house": "16",
      "postcode": "7350-422",
      "city": "ELVAS",
      "lon": "-7.210586866179518",
      "lat": "38.8647002421277"
    },
    {
      "id": "pt.ine.add.PTCONT.3489097",
      "street": "ALTO DA GIRALDINHA",
      "house": "10",
      "postcode": "7350-422",
      "city": "ELVAS",
      "lon": "-7.210499821429878",
      "lat": "38.864690546780075"
    },
    {
      "id": "pt.ine.add.PTCONT.3491951",
      "street": "ALTO DA TRINCHEIRINHA",
      "house": "5",
      "postcode": "7350-474",
      "city": "ELVAS",
      "lon": "-7.2121084106950635",
      "lat": "38.86682005577012"
    },
    {
      "id": "pt.ine.add.PTCONT.3493672",
      "street": "ALTO DA GIRALDINA",
      "house": "18",
      "postcode": "7350-422",
      "city": "ELVAS",
      "lon": "-7.211239105491347",
      "lat": "38.86454325381811"
    },
    {
      "id": "pt.ine.add.PTCONT.3493673",
      "street": "ALTO GIRALDINA",
      "house": "18 A",
      "postcode": "7350-422",
      "city": "ELVAS",
      "lon": "-7.211239105491347",
      "lat": "38.86454325381811"
    },
    {
      "id": "pt.ine.add.PTCONT.3501195",
      "street": "ALTO DA GIRALDINHA",
      "house": "12",
      "postcode": "7350-422",
      "city": "ELVAS",
      "lon": "-7.210474219430245",
      "lat": "38.86488851415704"
    },
    {
      "id": "pt.ine.add.PTCONT.3502269",
      "street": "R ABOBODA",
      "house": "10",
      "postcode": "7350-422",
      "city": "ELVAS",
      "lon": "-7.209276752623238",
      "lat": "38.86660852763451"
    },
    {
      "id": "pt.ine.add.PTCONT.3503939",
      "street": "ALTO DA TRINCHEIRINHA",
      "house": "4",
      "postcode": "7350-422",
      "city": "ELVAS",
      "lon": "-7.211954483541565",
      "lat": "38.86722590095937"
    },
    {
      "id": "pt.ine.add.PTCONT.3507653",
      "street": "ALTO DA TRINCHEIRINHA",
      "house": "14",
      "postcode": "7350-422",
      "city": "ELVAS",
      "lon": "-7.2114612543679835",
      "lat": "38.867038159369685"
    },
    {
      "id": "pt.ine.add.PTCONT.3509333",
      "street": "BR ABOBODA",
      "house": "14",
      "postcode": "7350-422",
      "city": "ELVAS",
      "lon": "-7.209352987430703",
      "lat": "38.866059660498784"
    },
    {
      "id": "pt.ine.add.PTCONT.3509336",
      "street": "ALTO DA TRINCHEIRINHA",
      "house": "13",
      "postcode": "7350-474",
      "city": "ELVAS",
      "lon": "-7.2112023867773924",
      "lat": "38.86701345178455"
    },
    {
      "id": "pt.ine.add.PTCONT.3511768",
      "street": "ALTO DA TRINCHEIRINHA",
      "house": "8",
      "postcode": "7350-474",
      "city": "ELVAS",
      "lon": "-7.211777331363163",
      "lat": "38.86658324380751"
    },
    {
      "id": "pt.ine.add.PTCONT.3512376",
      "street": "BR ABOBODA",
      "house": "2",
      "postcode": "7350-422",
      "city": "ELVAS",
      "lon": "-7.209261384829735",
      "lat": "38.86690566040303"
    },
    {
      "id": "pt.ine.add.PTCONT.3512377",
      "street": "R ABOBODA",
      "house": "3",
      "postcode": "7350-422",
      "city": "ELVAS",
      "lon": "-7.209486124430311",
      "lat": "38.86556528956138"
    },
    {
      "id": "pt.ine.add.PTCONT.3513566",
      "street": "ALTO DA TRINCHEIRINHA",
      "house": "11",
      "postcode": "7350-422",
      "city": "ELVAS",
      "lon": "-7.211455565218104",
      "lat": "38.86651765087754"
    },
    {
      "id": "pt.ine.add.PTCONT.3514199",
      "street": "ALTO DA TRINCHEIRINHA",
      "house": "",
      "postcode": "7350-422",
      "city": "ELVAS",
      "lon": "-7.211855070168437",
      "lat": "38.866809049809916"
    },
    {
      "id": "pt.ine.add.PTCONT.3514201",
      "street": "ALTO DA TRINCHEIRINHA",
      "house": "2",
      "postcode": "7350-422",
      "city": "ELVAS",
      "lon": "-7.212057683157665",
      "lat": "38.86714943150508"
    },
    {
      "id": "pt.ine.add.PTCONT.3514824",
      "street": "ALTO GIRALDINA",
      "house": "22",
      "postcode": "7350-422",
      "city": "ELVAS",
      "lon": "-7.211159742365356",
      "lat": "38.864443542482476"
    },
    {
      "id": "pt.ine.add.PTCONT.3516070",
      "street": "ALTO DA TRINCHEIRINHA",
      "house": "6",
      "postcode": "7350-474",
      "city": "ELVAS",
      "lon": "-7.2122239669436325",
      "lat": "38.86679394392387"
    },
    {
      "id": "pt.ine.add.PTCONT.3524140",
      "street": "ALTO DA TRINCHEIRINHA",
      "house": "3",
      "postcode": "7350-422",
      "city": "ELVAS",
      "lon": "-7.211989612234643",
      "lat": "38.867182299696914"
    },
    {
      "id": "pt.ine.add.PTCONT.3525368",
      "street": "R ABOBODA",
      "house": "8",
      "postcode": "7350-422",
      "city": "ELVAS",
      "lon": "-7.209289905377138",
      "lat": "38.866482523775396"
    },
    {
      "id": "pt.ine.add.PTCONT.3526694",
      "street": "ALTO DA TRINCHEIRINHA",
      "house": "15",
      "postcode": "7350-474",
      "city": "ELVAS",
      "lon": "-7.211425080276482",
      "lat": "38.8670939036205"
    },
    {
      "id": "pt.ine.add.PTCONT.3527974",
      "street": "R ABOBODA",
      "house": "12",
      "postcode": "7350-422",
      "city": "ELVAS",
      "lon": "-7.2093398348808835",
      "lat": "38.86618566437635"
    },
    {
      "id": "pt.ine.add.PTCONT.3528689",
      "street": "R ABOBODA",
      "house": "16",
      "postcode": "7350-422",
      "city": "ELVAS",
      "lon": "-7.209378243340965",
      "lat": "38.86588871381023"
    },
    {
      "id": "pt.ine.add.PTCONT.3531706",
      "street": "R ABOBODA",
      "house": "10",
      "postcode": "7350-422",
      "city": "ELVAS",
      "lon": "-7.20929153740092",
      "lat": "38.86635642877634"
    }
  ]
}