{
  "data": {
    "distrito": "Portalegre",
    "concelho": "Elvas",
    "freguesia": "São Brás e São Lourenço",
    "OBJECTID": 21,
    "BGRI2021": "12070700225",
    "DT21": "12",
    "DTMN21": "1207",
    "DTMNFR21": "120707",
    "DTMNFRSEC21": "120707002",
    "SECNUM21": "002",
    "SSNUM21": "25",
    "SECSSNUM21": "00225",
    "OBJECTID_1": 121614,
    "DT": "12",
    "CC": "07",
    "fr": "07",
    "SEC": "002",
    "SS": "25"
  },
  "addresses": [
    {
      "id": "pt.ine.add.PTCONT.3534899",
      "street": "PINHEIRO DE BAIXO",
      "house": "4",
      "postcode": "7350-422",
      "city": "ELVAS",
      "lon": "-7.207739833231706",
      "lat": "38.86255068789786"
    },
    {
      "id": "pt.ine.add.PTCONT.3538346",
      "street": "QTA MALVAR",
      "house": "",
      "postcode": "7350-422",
      "city": "ELVAS",
      "lon": "-7.207893561061141",
      "lat": "38.86398534179979"
    },
    {
      "id": "pt.ine.add.PTCONT.3539797",
      "street": "VILA BEATRIZ DE CIMA",
      "house": "23",
      "postcode": "7350-422",
      "city": "ELVAS",
      "lon": "-7.2112164090762105",
      "lat": "38.86362428799124"
    },
    {
      "id": "pt.ine.add.PTCONT.3539850",
      "street": "VL BEATRIZ CIMA",
      "house": "21",
      "postcode": "7350-422",
      "city": "ELVAS",
      "lon": "-7.211204074590328",
      "lat": "38.86368724461357"
    },
    {
      "id": "pt.ine.add.PTCONT.3468781",
      "street": "",
      "house": "",
      "postcode": "7350-422",
      "city": "ELVAS",
      "lon": "-7.20981162566255",
      "lat": "38.86445090740038"
    },
    {
      "id": "pt.ine.add.PTCONT.3461985",
      "street": "ALDEIA DA PARTEIRA",
      "house": "12",
      "postcode": "7350-422",
      "city": "ELVAS",
      "lon": "-7.210313072813794",
      "lat": "38.86403011935684"
    },
    {
      "id": "pt.ine.add.PTCONT.3466417",
      "street": "BC PINAS",
      "house": "1",
      "postcode": "7350-422",
      "city": "ELVAS",
      "lon": "-7.207419827541655",
      "lat": "38.86408968023019"
    },
    {
      "id": "pt.ine.add.PTCONT.3467615",
      "street": "GIRALDINHA",
      "house": "25",
      "postcode": "7350-422",
      "city": "ELVAS",
      "lon": "-7.211264234740195",
      "lat": "38.86348954981815"
    },
    {
      "id": "pt.ine.add.PTCONT.3469706",
      "street": "R VILA BEATRIZ",
      "house": "19",
      "postcode": "7350-422",
      "city": "ELVAS",
      "lon": "-7.211143112883849",
      "lat": "38.86385562734967"
    },
    {
      "id": "pt.ine.add.PTCONT.3469749",
      "street": "R VILA BEATRIZ",
      "house": "19",
      "postcode": "7350-422",
      "city": "ELVAS",
      "lon": "-7.211143112883849",
      "lat": "38.86385562734967"
    },
    {
      "id": "pt.ine.add.PTCONT.3473465",
      "street": "BC PINAS",
      "house": "5",
      "postcode": "7350-422",
      "city": "ELVAS",
      "lon": "-7.207791629714437",
      "lat": "38.863849418547126"
    },
    {
      "id": "pt.ine.add.PTCONT.3473466",
      "street": "MTE CEREJEIRA",
      "house": "3",
      "postcode": "7350-422",
      "city": "ELVAS",
      "lon": "-7.209492030251499",
      "lat": "38.864904250545855"
    },
    {
      "id": "pt.ine.add.PTCONT.3478758",
      "street": "ALDEIA DA PARTEIRA",
      "house": "8",
      "postcode": "7350-422",
      "city": "ELVAS",
      "lon": "-7.2101501418445935",
      "lat": "38.86411129020096"
    },
    {
      "id": "pt.ine.add.PTCONT.3479939",
      "street": "HORTA DA NOGUEIRA",
      "house": "",
      "postcode": "7350-422",
      "city": "ELVAS",
      "lon": "-7.20598625603862",
      "lat": "38.86332249286053"
    },
    {
      "id": "pt.ine.add.PTCONT.3480369",
      "street": "PINHEIRO DE BAIXO",
      "house": "12",
      "postcode": "7350-422",
      "city": "ELVAS",
      "lon": "-7.207796786113509",
      "lat": "38.86279459421357"
    },
    {
      "id": "pt.ine.add.PTCONT.3482862",
      "street": "",
      "house": "13",
      "postcode": "7350-422",
      "city": "ELVAS",
      "lon": "-7.210932825565562",
      "lat": "38.86417151950809"
    },
    {
      "id": "pt.ine.add.PTCONT.3486700",
      "street": "",
      "house": "",
      "postcode": "7350-422",
      "city": "ELVAS",
      "lon": "-7.210282228379352",
      "lat": "38.86280621566638"
    },
    {
      "id": "pt.ine.add.PTCONT.3490018",
      "street": "QTA TESOUREIRO GERAL",
      "house": "",
      "postcode": "7350-422",
      "city": "ELVAS",
      "lon": "-7.209453445211635",
      "lat": "38.864529144453215"
    },
    {
      "id": "pt.ine.add.PTCONT.3491028",
      "street": "QTA MALVAR",
      "house": "2",
      "postcode": "7350-422",
      "city": "ELVAS",
      "lon": "-7.20805379068182",
      "lat": "38.86439000880607"
    },
    {
      "id": "pt.ine.add.PTCONT.3491851",
      "street": "R PINHEIRO DE BAIXO",
      "house": "2",
      "postcode": "7350-422",
      "city": "ELVAS",
      "lon": "-7.207623653368016",
      "lat": "38.86258700785368"
    },
    {
      "id": "pt.ine.add.PTCONT.3492392",
      "street": "BC PINAS",
      "house": "",
      "postcode": "7350-422",
      "city": "ELVAS",
      "lon": "-7.207329417245428",
      "lat": "38.86395384790082"
    },
    {
      "id": "pt.ine.add.PTCONT.3494843",
      "street": "",
      "house": "",
      "postcode": "7350-422",
      "city": "ELVAS",
      "lon": "-7.2107681677127715",
      "lat": "38.86264791565845"
    },
    {
      "id": "pt.ine.add.PTCONT.3495961",
      "street": "BC PINAS",
      "house": "3",
      "postcode": "7350-422",
      "city": "ELVAS",
      "lon": "-7.207605203449581",
      "lat": "38.86401008007472"
    },
    {
      "id": "pt.ine.add.PTCONT.3496812",
      "street": "",
      "house": "",
      "postcode": "7350-422",
      "city": "ELVAS",
      "lon": "-7.2102920591587685",
      "lat": "38.86288502797239"
    },
    {
      "id": "pt.ine.add.PTCONT.3501689",
      "street": "BC PINAS",
      "house": "",
      "postcode": "7350-422",
      "city": "ELVAS",
      "lon": "-7.207318714641491",
      "lat": "38.86389070908421"
    },
    {
      "id": "pt.ine.add.PTCONT.3502278",
      "street": "QTA MALVAR",
      "house": "",
      "postcode": "7350-422",
      "city": "ELVAS",
      "lon": "-7.207958506210568",
      "lat": "38.8643861112185"
    },
    {
      "id": "pt.ine.add.PTCONT.3503048",
      "street": "QTA MALVAR",
      "house": "",
      "postcode": "7350-422",
      "city": "ELVAS",
      "lon": "-7.207835375868253",
      "lat": "38.86402991936888"
    },
    {
      "id": "pt.ine.add.PTCONT.3503597",
      "street": "ALDEIA DA VILA BEATRIZ",
      "house": "14",
      "postcode": "7350-422",
      "city": "ELVAS",
      "lon": "-7.210374579145524",
      "lat": "38.863996513859846"
    },
    {
      "id": "pt.ine.add.PTCONT.3504153",
      "street": "BC PINAS",
      "house": "4",
      "postcode": "7350-422",
      "city": "ELVAS",
      "lon": "-7.20771139022129",
      "lat": "38.863903147893915"
    },
    {
      "id": "pt.ine.add.PTCONT.3506741",
      "street": "PINHEIRO DE BAIXO",
      "house": "1",
      "postcode": "7350-422",
      "city": "ELVAS",
      "lon": "-7.20741617540362",
      "lat": "38.86259437118436"
    },
    {
      "id": "pt.ine.add.PTCONT.3507595",
      "street": "ALTO DA GIRALDINHA",
      "house": "9",
      "postcode": "7350-422",
      "city": "ELVAS",
      "lon": "-7.210275700970603",
      "lat": "38.86420235956212"
    },
    {
      "id": "pt.ine.add.PTCONT.3508131",
      "street": "BC PINAS",
      "house": "",
      "postcode": "7350-422",
      "city": "ELVAS",
      "lon": "-7.207578038813913",
      "lat": "38.86373908670433"
    },
    {
      "id": "pt.ine.add.PTCONT.3508132",
      "street": "R MALVAR",
      "house": "1",
      "postcode": "7350-422",
      "city": "ELVAS",
      "lon": "-7.209459721095916",
      "lat": "38.86493454106"
    },
    {
      "id": "pt.ine.add.PTCONT.3509337",
      "street": "",
      "house": "",
      "postcode": "7350-422",
      "city": "ELVAS",
      "lon": "-7.2106639050235435",
      "lat": "38.86269213074141"
    },
    {
      "id": "pt.ine.add.PTCONT.3509338",
      "street": "",
      "house": "",
      "postcode": "7350-422",
      "city": "ELVAS",
      "lon": "-7.2075199727805455",
      "lat": "38.86258618617164"
    },
    {
      "id": "pt.ine.add.PTCONT.3509671",
      "street": "ALTO DA GIRALDINHA",
      "house": "7",
      "postcode": "7350-422",
      "city": "ELVAS",
      "lon": "-7.210169805348495",
      "lat": "38.86437266923829"
    },
    {
      "id": "pt.ine.add.PTCONT.3509685",
      "street": "VILA BEATRIZ",
      "house": "19",
      "postcode": "7350-422",
      "city": "ELVAS",
      "lon": "-7.211156830307546",
      "lat": "38.86377694878234"
    },
    {
      "id": "pt.ine.add.PTCONT.3516072",
      "street": "GIRALDINHA",
      "house": "5",
      "postcode": "7350-422",
      "city": "ELVAS",
      "lon": "-7.2100415672599345",
      "lat": "38.86448875595004"
    },
    {
      "id": "pt.ine.add.PTCONT.3517363",
      "street": "PINHEIRO DE BAIXO",
      "house": "10",
      "postcode": "7350-422",
      "city": "ELVAS",
      "lon": "-7.207783010133812",
      "lat": "38.86271824198246"
    },
    {
      "id": "pt.ine.add.PTCONT.3518909",
      "street": "QTA VILA BATRIZ",
      "house": "2",
      "postcode": "7350-422",
      "city": "ELVAS",
      "lon": "-7.209547356283037",
      "lat": "38.864394771506724"
    },
    {
      "id": "pt.ine.add.PTCONT.3524142",
      "street": "BC PINAS",
      "house": "2",
      "postcode": "7350-422",
      "city": "ELVAS",
      "lon": "-7.207512457152967",
      "lat": "38.86405438358241"
    },
    {
      "id": "pt.ine.add.PTCONT.3529065",
      "street": "QTA MALVAR",
      "house": "",
      "postcode": "7350-422",
      "city": "ELVAS",
      "lon": "-7.208257075900041",
      "lat": "38.86438456043156"
    },
    {
      "id": "pt.ine.add.PTCONT.3529523",
      "street": "ALDEIA DA PARTEIRA",
      "house": "10",
      "postcode": "7350-422",
      "city": "ELVAS",
      "lon": "-7.210219729548819",
      "lat": "38.86407580929415"
    },
    {
      "id": "pt.ine.add.PTCONT.3529784",
      "street": "BC PINAS",
      "house": "",
      "postcode": "7350-422",
      "city": "ELVAS",
      "lon": "-7.207493387397869",
      "lat": "38.86374797027788"
    },
    {
      "id": "pt.ine.add.PTCONT.3529785",
      "street": "ALTO DA GIRALDINHA",
      "house": "11",
      "postcode": "7350-422",
      "city": "ELVAS",
      "lon": "-7.210516813147712",
      "lat": "38.8642673185804"
    },
    {
      "id": "pt.ine.add.PTCONT.3531037",
      "street": "MTE CEREJEIRA",
      "house": "",
      "postcode": "7350-422",
      "city": "ELVAS",
      "lon": "-7.209520353327974",
      "lat": "38.86470082012148"
    },
    {
      "id": "pt.ine.add.PTCONT.3531719",
      "street": "PINHEIRO DE BAIXO",
      "house": "8",
      "postcode": "7350-422",
      "city": "ELVAS",
      "lon": "-7.207754276636119",
      "lat": "38.86265660513412"
    }
  ]
}