{
  "data": {
    "distrito": "Braga",
    "concelho": "Guimarães",
    "freguesia": "União das freguesias de Sande São Lourenço e Balazar",
    "OBJECTID": 886,
    "BGRI2021": "03088600106",
    "DT21": "03",
    "DTMN21": "0308",
    "DTMNFR21": "030886",
    "DTMNFRSEC21": "030886001",
    "SECNUM21": "001",
    "SSNUM21": "06",
    "SECSSNUM21": "00106",
    "OBJECTID_1": 28550,
    "DT": "03",
    "CC": "08",
    "fr": "86",
    "SEC": "001",
    "SS": "06"
  },
  "addresses": [
    {
      "id": "pt.ine.add.PTCONT.488253",
      "street": "R VEIGA",
      "house": "208",
      "postcode": "4805-500",
      "city": "SÃO LOURENÇO SANDE",
      "lon": "-8.34837001428238",
      "lat": "41.50191999374987"
    },
    {
      "id": "pt.ine.add.PTCONT.522530",
      "street": "R MELRE",
      "house": "998",
      "postcode": "4805-500",
      "city": "SÃO LOURENÇO SANDE",
      "lon": "-8.340442474516966",
      "lat": "41.50229471121682"
    },
    {
      "id": "pt.ine.add.PTCONT.535544",
      "street": "R VEIGA",
      "house": "249",
      "postcode": "4805-500",
      "city": "SÃO LOURENÇO SANDE",
      "lon": "-8.348216847715316",
      "lat": "41.502685606696154"
    },
    {
      "id": "pt.ine.add.PTCONT.535545",
      "street": "R VEIGA",
      "house": "249",
      "postcode": "4805-500",
      "city": "SÃO LOURENÇO SANDE",
      "lon": "-8.348216847715316",
      "lat": "41.502685606696154"
    },
    {
      "id": "pt.ine.add.PTCONT.549685",
      "street": "R VEIGA",
      "house": "794",
      "postcode": "4805-500",
      "city": "SÃO LOURENÇO SANDE",
      "lon": "-8.345571488519335",
      "lat": "41.50316772724448"
    },
    {
      "id": "pt.ine.add.PTCONT.567643",
      "street": "R MELRE",
      "house": "",
      "postcode": "4805-496",
      "city": "SÃO LOURENÇO SANDE",
      "lon": "-8.340689821014488",
      "lat": "41.50098870806721"
    },
    {
      "id": "pt.ine.add.PTCONT.610419",
      "street": "R VEIGA",
      "house": "244",
      "postcode": "4805-500",
      "city": "SÃO LOURENÇO SANDE",
      "lon": "-8.348659101243667",
      "lat": "41.50241466353618"
    },
    {
      "id": "pt.ine.add.PTCONT.620696",
      "street": "R VEIGA",
      "house": "",
      "postcode": "4805-500",
      "city": "SÃO LOURENÇO SANDE",
      "lon": "-8.34650446063857",
      "lat": "41.50278783878471"
    },
    {
      "id": "pt.ine.add.PTCONT.626429",
      "street": "R S BRÁS",
      "house": "184",
      "postcode": "4805-500",
      "city": "SÃO LOURENÇO SANDE",
      "lon": "-8.347541234268407",
      "lat": "41.50120123461205"
    },
    {
      "id": "pt.ine.add.PTCONT.638066",
      "street": "R VEIGA",
      "house": "",
      "postcode": "4805-500",
      "city": "SÃO LOURENÇO SANDE",
      "lon": "-8.346912597690725",
      "lat": "41.50306619982246"
    },
    {
      "id": "pt.ine.add.PTCONT.658311",
      "street": "R VEIGA",
      "house": "1082",
      "postcode": "4805-500",
      "city": "SÃO LOURENÇO SANDE",
      "lon": "-8.345822477201938",
      "lat": "41.50300519423141"
    },
    {
      "id": "pt.ine.add.PTCONT.658312",
      "street": "R VEIGA",
      "house": "390",
      "postcode": "4805-500",
      "city": "SÃO LOURENÇO SANDE",
      "lon": "-8.347212261923415",
      "lat": "41.50313767308927"
    },
    {
      "id": "pt.ine.add.PTCONT.678148",
      "street": "R VEIGA",
      "house": "298",
      "postcode": "4805-500",
      "city": "SÃO LOURENÇO SANDE",
      "lon": "-8.348133157588519",
      "lat": "41.502730782383686"
    },
    {
      "id": "pt.ine.add.PTCONT.678281",
      "street": "R VEIGA",
      "house": "298",
      "postcode": "4805-500",
      "city": "SÃO LOURENÇO SANDE",
      "lon": "-8.348133157588519",
      "lat": "41.502730782383686"
    },
    {
      "id": "pt.ine.add.PTCONT.699427",
      "street": "R VEIGA",
      "house": "794",
      "postcode": "4805-500",
      "city": "SÃO LOURENÇO SANDE",
      "lon": "-8.345572224300739",
      "lat": "41.50339282184717"
    },
    {
      "id": "pt.ine.add.PTCONT.702402",
      "street": "R MELRE",
      "house": "1094",
      "postcode": "4805-500",
      "city": "SÃO LOURENÇO SANDE",
      "lon": "-8.343720289602256",
      "lat": "41.50479182274481"
    },
    {
      "id": "pt.ine.add.PTCONT.771285",
      "street": "R VEIGA",
      "house": "",
      "postcode": "4805-500",
      "city": "SÃO LOURENÇO SANDE",
      "lon": "-8.346276985692274",
      "lat": "41.50281527212738"
    },
    {
      "id": "pt.ine.add.PTCONT.801234",
      "street": "R VEIGA",
      "house": "",
      "postcode": "4805-500",
      "city": "SÃO LOURENÇO SANDE",
      "lon": "-8.344679556236725",
      "lat": "41.501440634124144"
    },
    {
      "id": "pt.ine.add.PTCONT.820212",
      "street": "R VEIGA",
      "house": "749",
      "postcode": "4805-500",
      "city": "SÃO LOURENÇO SANDE",
      "lon": "-8.3451887795424",
      "lat": "41.50333950650328"
    }
  ]
}