{
  "data": {
    "distrito": "Lisboa",
    "concelho": "Oeiras",
    "freguesia": "Uni√£o das freguesias de Carnaxide e Queijas",
    "OBJECTID": 68,
    "BGRI2021": "11101302510",
    "DT21": "11",
    "DTMN21": "1110",
    "DTMNFR21": "111013",
    "DTMNFRSEC21": "111013025",
    "SECNUM21": "025",
    "SSNUM21": "10",
    "SECSSNUM21": "02510",
    "OBJECTID_1": 110029,
    "DT": "11",
    "CC": "10",
    "fr": "13",
    "SEC": "025",
    "SS": "10"
  },
  "addresses": [
    {
      "id": "pt.ine.add.PTCONT.2353652",
      "street": "TV CARAMBOLA",
      "house": "116",
      "postcode": "2790-322",
      "city": "QUEIJAS",
      "lon": "-9.25458099741519",
      "lat": "38.71576427076615"
    },
    {
      "id": "pt.ine.add.PTCONT.2362564",
      "street": "TV CARAMBOLA",
      "house": "3",
      "postcode": "2790-322",
      "city": "QUEIJAS",
      "lon": "-9.254729034526797",
      "lat": "38.7156727724853"
    },
    {
      "id": "pt.ine.add.PTCONT.2556920",
      "street": "TV CARAMBOLA",
      "house": "6 A",
      "postcode": "2790-322",
      "city": "QUEIJAS",
      "lon": "-9.254673385755677",
      "lat": "38.715790407922945"
    },
    {
      "id": "pt.ine.add.PTCONT.2563278",
      "street": "TV CARAMBOLA",
      "house": "6",
      "postcode": "2790-322",
      "city": "QUEIJAS",
      "lon": "-9.254743064181195",
      "lat": "38.71583477851205"
    },
    {
      "id": "pt.ine.add.PTCONT.2563279",
      "street": "R VISC MOREIRA DE REY",
      "house": "37",
      "postcode": "2790-447",
      "city": "QUEIJAS",
      "lon": "-9.254743064181195",
      "lat": "38.71583477851205"
    },
    {
      "id": "pt.ine.add.PTCONT.2650617",
      "street": "AV TOMAS RIBEIRO",
      "house": "122",
      "postcode": "2790-426",
      "city": "QUEIJAS",
      "lon": "-9.254681925443148",
      "lat": "38.71560116193156"
    },
    {
      "id": "pt.ine.add.PTCONT.2650618",
      "street": "AV TOMAS RIBEIRO",
      "house": "122",
      "postcode": "2790-426",
      "city": "QUEIJAS",
      "lon": "-9.254681925443148",
      "lat": "38.71560116193156"
    },
    {
      "id": "pt.ine.add.PTCONT.2663870",
      "street": "AV TOMAS RIBEIRO",
      "house": "120",
      "postcode": "2790-426",
      "city": "QUEIJAS",
      "lon": "-9.254602018353237",
      "lat": "38.71563795974049"
    },
    {
      "id": "pt.ine.add.PTCONT.2792713",
      "street": "TV GODINHO",
      "house": "1",
      "postcode": "2790-354",
      "city": "QUEIJAS",
      "lon": "-9.254340430859045",
      "lat": "38.7158206250541"
    },
    {
      "id": "pt.ine.add.PTCONT.2858455",
      "street": "TV GODINHO",
      "house": "3",
      "postcode": "2790-354",
      "city": "QUEIJAS",
      "lon": "-9.254387258296363",
      "lat": "38.71587422281998"
    },
    {
      "id": "pt.ine.add.PTCONT.3021803",
      "street": "AV TOMAS RIBEIRO",
      "house": "124",
      "postcode": "2790-426",
      "city": "QUEIJAS",
      "lon": "-9.25480753378284",
      "lat": "38.71554590996977"
    },
    {
      "id": "pt.ine.add.PTCONT.3031245",
      "street": "BC JERONIMOS",
      "house": "2",
      "postcode": "2790-364",
      "city": "QUEIJAS",
      "lon": "-9.254864590021493",
      "lat": "38.71551833909006"
    },
    {
      "id": "pt.ine.add.PTCONT.3216675",
      "street": "TV CARAMBOLA",
      "house": "1",
      "postcode": "2790-322",
      "city": "QUEIJAS",
      "lon": "-9.254739826406405",
      "lat": "38.71562762988543"
    },
    {
      "id": "pt.ine.add.PTCONT.3281264",
      "street": "AV TOMAS RIBEIRO",
      "house": "118",
      "postcode": "2790-468",
      "city": "QUEIJAS",
      "lon": "-9.254488327658336",
      "lat": "38.7157201206096"
    },
    {
      "id": "pt.ine.add.PTCONT.3281265",
      "street": "TV CARAMBOLA",
      "house": "2",
      "postcode": "2790-322",
      "city": "QUEIJAS",
      "lon": "-9.254488327658336",
      "lat": "38.7157201206096"
    },
    {
      "id": "pt.ine.add.PTCONT.3290448",
      "street": "BC JERONIMOS",
      "house": "B",
      "postcode": "2790-364",
      "city": "QUEIJAS",
      "lon": "-9.254900907463245",
      "lat": "38.7156350921836"
    },
    {
      "id": "pt.ine.add.PTCONT.3428236",
      "street": "BC JERONIMOS",
      "house": "4",
      "postcode": "2790-364",
      "city": "QUEIJAS",
      "lon": "-9.254888426194254",
      "lat": "38.71557215725598"
    },
    {
      "id": "pt.ine.add.PTCONT.3428237",
      "street": "BC JERONIMOS",
      "house": "4",
      "postcode": "2790-364",
      "city": "QUEIJAS",
      "lon": "-9.254888426194254",
      "lat": "38.71557215725598"
    },
    {
      "id": "pt.ine.add.PTCONT.3438741",
      "street": "AV TOMAS RIBEIRO",
      "house": "114",
      "postcode": "2790-468",
      "city": "QUEIJAS",
      "lon": "-9.25445665515578",
      "lat": "38.7159005806552"
    }
  ]
}