{
  "data": {
    "distrito": "Lisboa",
    "concelho": "Oeiras",
    "freguesia": "União das freguesias de Carnaxide e Queijas",
    "OBJECTID": 1057,
    "BGRI2021": "11101302524",
    "DT21": "11",
    "DTMN21": "1110",
    "DTMNFR21": "111013",
    "DTMNFRSEC21": "111013025",
    "SECNUM21": "025",
    "SSNUM21": "24",
    "SECSSNUM21": "02524",
    "OBJECTID_1": 110669,
    "DT": "11",
    "CC": "10",
    "fr": "13",
    "SEC": "025",
    "SS": "24"
  },
  "addresses": [
    {
      "id": "pt.ine.add.PTCONT.2302907",
      "street": "R ALVES CRESPO",
      "house": "17",
      "postcode": "2790-305",
      "city": "QUEIJAS",
      "lon": "-9.261867553043098",
      "lat": "38.717045317660286"
    },
    {
      "id": "pt.ine.add.PTCONT.2302908",
      "street": "R ALVES CRESPO",
      "house": "17",
      "postcode": "2790-305",
      "city": "QUEIJAS",
      "lon": "-9.261867553043098",
      "lat": "38.717045317660286"
    },
    {
      "id": "pt.ine.add.PTCONT.2308705",
      "street": "R ALVES CRESPO",
      "house": "3",
      "postcode": "2790-305",
      "city": "QUEIJAS",
      "lon": "-9.261899510813189",
      "lat": "38.71615323626415"
    },
    {
      "id": "pt.ine.add.PTCONT.2320814",
      "street": "PCT VÁRZEAS",
      "house": "5",
      "postcode": "2790-445",
      "city": "QUEIJAS",
      "lon": "-9.262668014954459",
      "lat": "38.7167673522655"
    },
    {
      "id": "pt.ine.add.PTCONT.2342883",
      "street": "ESTR VÁRZEAS",
      "house": "14",
      "postcode": "2790-444",
      "city": "QUEIJAS",
      "lon": "-9.263224781862863",
      "lat": "38.71707724470986"
    },
    {
      "id": "pt.ine.add.PTCONT.2342884",
      "street": "ESTR VÁRZEAS",
      "house": "14",
      "postcode": "2790-444",
      "city": "QUEIJAS",
      "lon": "-9.263224781862863",
      "lat": "38.71707724470986"
    },
    {
      "id": "pt.ine.add.PTCONT.2342885",
      "street": "ESTR VÁRZEAS",
      "house": "14",
      "postcode": "2790-444",
      "city": "QUEIJAS",
      "lon": "-9.263224781862863",
      "lat": "38.71707724470986"
    },
    {
      "id": "pt.ine.add.PTCONT.2342886",
      "street": "ESTR VÁRZEAS",
      "house": "14",
      "postcode": "2790-444",
      "city": "QUEIJAS",
      "lon": "-9.263224781862863",
      "lat": "38.71707724470986"
    },
    {
      "id": "pt.ine.add.PTCONT.2342887",
      "street": "ESTR VÁRZEAS",
      "house": "14",
      "postcode": "2790-444",
      "city": "QUEIJAS",
      "lon": "-9.263224781862863",
      "lat": "38.71707724470986"
    },
    {
      "id": "pt.ine.add.PTCONT.2342888",
      "street": "ESTR VÁRZEAS",
      "house": "14",
      "postcode": "2790-444",
      "city": "QUEIJAS",
      "lon": "-9.263224781862863",
      "lat": "38.71707724470986"
    },
    {
      "id": "pt.ine.add.PTCONT.2343072",
      "street": "ESTR VÁRZEAS",
      "house": "14",
      "postcode": "2790-444",
      "city": "QUEIJAS",
      "lon": "-9.263224781862863",
      "lat": "38.71707724470986"
    },
    {
      "id": "pt.ine.add.PTCONT.2343073",
      "street": "ESTR VÁRZEAS",
      "house": "4C",
      "postcode": "2790-444",
      "city": "QUEIJAS",
      "lon": "-9.263164189109549",
      "lat": "38.71615002645018"
    },
    {
      "id": "pt.ine.add.PTCONT.2347468",
      "street": "ESTR VÁRZEAS",
      "house": "14",
      "postcode": "2790-444",
      "city": "QUEIJAS",
      "lon": "-9.263224781862863",
      "lat": "38.71707724470986"
    },
    {
      "id": "pt.ine.add.PTCONT.2399993",
      "street": "R ALVES CRESPO",
      "house": "15 A",
      "postcode": "2790-305",
      "city": "QUEIJAS",
      "lon": "-9.2620504960797",
      "lat": "38.7169804965551"
    },
    {
      "id": "pt.ine.add.PTCONT.2403560",
      "street": "R JOÃO XXI",
      "house": "8",
      "postcode": "2790-369",
      "city": "QUEIJAS",
      "lon": "-9.26311620494184",
      "lat": "38.717483645442016"
    },
    {
      "id": "pt.ine.add.PTCONT.2403561",
      "street": "R JOÃO XXI",
      "house": "8",
      "postcode": "2790-369",
      "city": "QUEIJAS",
      "lon": "-9.26311620494184",
      "lat": "38.717483645442016"
    },
    {
      "id": "pt.ine.add.PTCONT.2403562",
      "street": "R JOÃO XXI",
      "house": "8",
      "postcode": "2790-369",
      "city": "QUEIJAS",
      "lon": "-9.26311620494184",
      "lat": "38.717483645442016"
    },
    {
      "id": "pt.ine.add.PTCONT.2403563",
      "street": "R JOÃO XXI",
      "house": "8",
      "postcode": "2790-369",
      "city": "QUEIJAS",
      "lon": "-9.26311620494184",
      "lat": "38.717483645442016"
    },
    {
      "id": "pt.ine.add.PTCONT.2403564",
      "street": "R JOÃO XXI",
      "house": "8",
      "postcode": "2790-369",
      "city": "QUEIJAS",
      "lon": "-9.26311620494184",
      "lat": "38.717483645442016"
    },
    {
      "id": "pt.ine.add.PTCONT.2403565",
      "street": "R JOÃO XXI",
      "house": "8",
      "postcode": "2790-369",
      "city": "QUEIJAS",
      "lon": "-9.26311620494184",
      "lat": "38.717483645442016"
    },
    {
      "id": "pt.ine.add.PTCONT.2403566",
      "street": "R JOÃO XXI",
      "house": "8",
      "postcode": "2790-369",
      "city": "QUEIJAS",
      "lon": "-9.26311620494184",
      "lat": "38.717483645442016"
    },
    {
      "id": "pt.ine.add.PTCONT.2403567",
      "street": "R JOÃO XXI",
      "house": "8",
      "postcode": "2790-369",
      "city": "QUEIJAS",
      "lon": "-9.26311620494184",
      "lat": "38.717483645442016"
    },
    {
      "id": "pt.ine.add.PTCONT.2418507",
      "street": "R JULIO DINIZ",
      "house": "15",
      "postcode": "2790-375",
      "city": "QUEIJAS",
      "lon": "-9.262889414572786",
      "lat": "38.71695437683557"
    },
    {
      "id": "pt.ine.add.PTCONT.2418510",
      "street": "PCT VÁRZEAS",
      "house": "12",
      "postcode": "2790-445",
      "city": "QUEIJAS",
      "lon": "-9.262270777328718",
      "lat": "38.71636583836624"
    },
    {
      "id": "pt.ine.add.PTCONT.2436150",
      "street": "R GARCIA DE RESENDE",
      "house": "40",
      "postcode": "2790-349",
      "city": "QUEIJAS",
      "lon": "-9.261558012651095",
      "lat": "38.717102352710334"
    },
    {
      "id": "pt.ine.add.PTCONT.2454587",
      "street": "PCT VÁRZEAS",
      "house": "3",
      "postcode": "2790-445",
      "city": "QUEIJAS",
      "lon": "-9.262816610704139",
      "lat": "38.7167118696252"
    },
    {
      "id": "pt.ine.add.PTCONT.2481228",
      "street": "R JOÃO XXI",
      "house": "10",
      "postcode": "2790-369",
      "city": "QUEIJAS",
      "lon": "-9.263095198568998",
      "lat": "38.71760995774171"
    },
    {
      "id": "pt.ine.add.PTCONT.2481229",
      "street": "R JOÃO XXI",
      "house": "10",
      "postcode": "2790-369",
      "city": "QUEIJAS",
      "lon": "-9.263095198568998",
      "lat": "38.71760995774171"
    },
    {
      "id": "pt.ine.add.PTCONT.2481231",
      "street": "R JOÃO XXI",
      "house": "10",
      "postcode": "2790-369",
      "city": "QUEIJAS",
      "lon": "-9.263095198568998",
      "lat": "38.71760995774171"
    },
    {
      "id": "pt.ine.add.PTCONT.2481232",
      "street": "R JOÃO XXI",
      "house": "10",
      "postcode": "2790-369",
      "city": "QUEIJAS",
      "lon": "-9.263095198568998",
      "lat": "38.71760995774171"
    },
    {
      "id": "pt.ine.add.PTCONT.2481233",
      "street": "R JOÃO XXI",
      "house": "10",
      "postcode": "2790-369",
      "city": "QUEIJAS",
      "lon": "-9.263095198568998",
      "lat": "38.71760995774171"
    },
    {
      "id": "pt.ine.add.PTCONT.2481234",
      "street": "R JOÃO XXI",
      "house": "10",
      "postcode": "2790-369",
      "city": "QUEIJAS",
      "lon": "-9.263095198568998",
      "lat": "38.71760995774171"
    },
    {
      "id": "pt.ine.add.PTCONT.2481235",
      "street": "R JOÃO XXI",
      "house": "10",
      "postcode": "2790-369",
      "city": "QUEIJAS",
      "lon": "-9.263095198568998",
      "lat": "38.71760995774171"
    },
    {
      "id": "pt.ine.add.PTCONT.2535730",
      "street": "PCT VÁRZEAS",
      "house": "14",
      "postcode": "2790-445",
      "city": "QUEIJAS",
      "lon": "-9.26249899276598",
      "lat": "38.71625554026138"
    },
    {
      "id": "pt.ine.add.PTCONT.2539389",
      "street": "R CAMILO CASTELO BRANCO",
      "house": "30",
      "postcode": "2790-320",
      "city": "QUEIJAS",
      "lon": "-9.262424348381517",
      "lat": "38.71589594905612"
    },
    {
      "id": "pt.ine.add.PTCONT.2539390",
      "street": "R CAMILO CASTELO BRANCO",
      "house": "30",
      "postcode": "2790-320",
      "city": "QUEIJAS",
      "lon": "-9.262424348381517",
      "lat": "38.71589594905612"
    },
    {
      "id": "pt.ine.add.PTCONT.2563280",
      "street": "R JOÃO XXI",
      "house": "4",
      "postcode": "2790-369",
      "city": "QUEIJAS",
      "lon": "-9.263192705353022",
      "lat": "38.71723068745853"
    },
    {
      "id": "pt.ine.add.PTCONT.2563281",
      "street": "R JOÃO XXI",
      "house": "4",
      "postcode": "2790-369",
      "city": "QUEIJAS",
      "lon": "-9.263192705353022",
      "lat": "38.71723068745853"
    },
    {
      "id": "pt.ine.add.PTCONT.2563282",
      "street": "R JOÃO XXI",
      "house": "4",
      "postcode": "2790-369",
      "city": "QUEIJAS",
      "lon": "-9.263192705353022",
      "lat": "38.71723068745853"
    },
    {
      "id": "pt.ine.add.PTCONT.2563283",
      "street": "R JOÃO XXI",
      "house": "4",
      "postcode": "2790-369",
      "city": "QUEIJAS",
      "lon": "-9.263192705353022",
      "lat": "38.71723068745853"
    },
    {
      "id": "pt.ine.add.PTCONT.2563284",
      "street": "R JOÃO XXI",
      "house": "4",
      "postcode": "2790-369",
      "city": "QUEIJAS",
      "lon": "-9.263192705353022",
      "lat": "38.71723068745853"
    },
    {
      "id": "pt.ine.add.PTCONT.2563285",
      "street": "R JOÃO XXI",
      "house": "4",
      "postcode": "2790-369",
      "city": "QUEIJAS",
      "lon": "-9.263192705353022",
      "lat": "38.71723068745853"
    },
    {
      "id": "pt.ine.add.PTCONT.2563286",
      "street": "R JOÃO XXI",
      "house": "4",
      "postcode": "2790-369",
      "city": "QUEIJAS",
      "lon": "-9.263192705353022",
      "lat": "38.71723068745853"
    },
    {
      "id": "pt.ine.add.PTCONT.2563396",
      "street": "R JOÃO XXI",
      "house": "4",
      "postcode": "2790-369",
      "city": "QUEIJAS",
      "lon": "-9.263192705353022",
      "lat": "38.71723068745853"
    },
    {
      "id": "pt.ine.add.PTCONT.2563397",
      "street": "R JOÃO XXI",
      "house": "4",
      "postcode": "2790-369",
      "city": "QUEIJAS",
      "lon": "-9.263192705353022",
      "lat": "38.71723068745853"
    },
    {
      "id": "pt.ine.add.PTCONT.2563398",
      "street": "PCT VÁRZEAS",
      "house": "13",
      "postcode": "2790-445",
      "city": "QUEIJAS",
      "lon": "-9.262350397697151",
      "lat": "38.71631102249164"
    },
    {
      "id": "pt.ine.add.PTCONT.2565771",
      "street": "R JOÃO XXI",
      "house": "4",
      "postcode": "2790-369",
      "city": "QUEIJAS",
      "lon": "-9.263192705353022",
      "lat": "38.71723068745853"
    },
    {
      "id": "pt.ine.add.PTCONT.2589741",
      "street": "R ALVES CRESPO",
      "house": "12",
      "postcode": "2790-305",
      "city": "QUEIJAS",
      "lon": "-9.261718389224713",
      "lat": "38.71706477335914"
    },
    {
      "id": "pt.ine.add.PTCONT.2589742",
      "street": "R ALVES CRESPO",
      "house": "12",
      "postcode": "2790-305",
      "city": "QUEIJAS",
      "lon": "-9.261718389224713",
      "lat": "38.71706477335914"
    },
    {
      "id": "pt.ine.add.PTCONT.2614055",
      "street": "R ALVES CRESPO",
      "house": "10",
      "postcode": "2790-305",
      "city": "QUEIJAS",
      "lon": "-9.261679651920794",
      "lat": "38.71679491313031"
    },
    {
      "id": "pt.ine.add.PTCONT.2678383",
      "street": "R ALVES CRESPO",
      "house": "8",
      "postcode": "2790-305",
      "city": "QUEIJAS",
      "lon": "-9.261642756292721",
      "lat": "38.71664213658358"
    },
    {
      "id": "pt.ine.add.PTCONT.2678400",
      "street": "PCT VÁRZEAS",
      "house": "10",
      "postcode": "2790-445",
      "city": "QUEIJAS",
      "lon": "-9.262216274218652",
      "lat": "38.716555528703566"
    },
    {
      "id": "pt.ine.add.PTCONT.2769256",
      "street": "R JULIO DINIZ",
      "house": "5",
      "postcode": "2790-375",
      "city": "QUEIJAS",
      "lon": "-9.261984921073074",
      "lat": "38.71719731710407"
    },
    {
      "id": "pt.ine.add.PTCONT.2797161",
      "street": "PCT VÁRZEAS",
      "house": "17",
      "postcode": "2790-445",
      "city": "QUEIJAS",
      "lon": "-9.263213150850376",
      "lat": "38.71633871710021"
    },
    {
      "id": "pt.ine.add.PTCONT.2828502",
      "street": "ESTR VARZEAS",
      "house": "2 2A",
      "postcode": "2790-444",
      "city": "QUEIJAS",
      "lon": "-9.26303504098819",
      "lat": "38.715980126410116"
    },
    {
      "id": "pt.ine.add.PTCONT.2839314",
      "street": "R JULIO DINIZ",
      "house": "11",
      "postcode": "2790-375",
      "city": "QUEIJAS",
      "lon": "-9.262568521287372",
      "lat": "38.71702053207307"
    },
    {
      "id": "pt.ine.add.PTCONT.2869691",
      "street": "PCT VÁRZEAS",
      "house": "16",
      "postcode": "2790-445",
      "city": "QUEIJAS",
      "lon": "-9.262844717598092",
      "lat": "38.71630624675399"
    },
    {
      "id": "pt.ine.add.PTCONT.2881777",
      "street": "R ALVES CRESPO",
      "house": "5",
      "postcode": "2790-305",
      "city": "QUEIJAS",
      "lon": "-9.261913131729804",
      "lat": "38.71628822185507"
    },
    {
      "id": "pt.ine.add.PTCONT.2892673",
      "street": "AV TOMAS RIBEIRO",
      "house": "172",
      "postcode": "2790-469",
      "city": "QUEIJAS",
      "lon": "-9.262884036384719",
      "lat": "38.715882499889716"
    },
    {
      "id": "pt.ine.add.PTCONT.2918349",
      "street": "R JOÃO XXI",
      "house": "6",
      "postcode": "2790-369",
      "city": "QUEIJAS",
      "lon": "-9.263160486876151",
      "lat": "38.71737512376313"
    },
    {
      "id": "pt.ine.add.PTCONT.2918350",
      "street": "R JOÃO XXI",
      "house": "6",
      "postcode": "2790-369",
      "city": "QUEIJAS",
      "lon": "-9.263160486876151",
      "lat": "38.71737512376313"
    },
    {
      "id": "pt.ine.add.PTCONT.2918351",
      "street": "R JOÃO XXI",
      "house": "6",
      "postcode": "2790-369",
      "city": "QUEIJAS",
      "lon": "-9.263160486876151",
      "lat": "38.71737512376313"
    },
    {
      "id": "pt.ine.add.PTCONT.2918352",
      "street": "R JOÃO XXI",
      "house": "6",
      "postcode": "2790-369",
      "city": "QUEIJAS",
      "lon": "-9.263160486876151",
      "lat": "38.71737512376313"
    },
    {
      "id": "pt.ine.add.PTCONT.2918353",
      "street": "R JOÃO XXI",
      "house": "6",
      "postcode": "2790-369",
      "city": "QUEIJAS",
      "lon": "-9.263160486876151",
      "lat": "38.71737512376313"
    },
    {
      "id": "pt.ine.add.PTCONT.2918354",
      "street": "R JOÃO XXI",
      "house": "6",
      "postcode": "2790-369",
      "city": "QUEIJAS",
      "lon": "-9.263160486876151",
      "lat": "38.71737512376313"
    },
    {
      "id": "pt.ine.add.PTCONT.2923712",
      "street": "R JOÃO XXI",
      "house": "6",
      "postcode": "2790-369",
      "city": "QUEIJAS",
      "lon": "-9.263160486876151",
      "lat": "38.71737512376313"
    },
    {
      "id": "pt.ine.add.PTCONT.2983468",
      "street": "R CAMILO CASTELO BRANCO",
      "house": "34A",
      "postcode": "2790-320",
      "city": "QUEIJAS",
      "lon": "-9.262663632524546",
      "lat": "38.715758520288155"
    },
    {
      "id": "pt.ine.add.PTCONT.2983469",
      "street": "ESTR VARZEAS",
      "house": "4",
      "postcode": "2790-444",
      "city": "QUEIJAS",
      "lon": "-9.26316319628769",
      "lat": "38.71608698140275"
    },
    {
      "id": "pt.ine.add.PTCONT.2987666",
      "street": "R CAMILO CASTELO BRANCO",
      "house": "34",
      "postcode": "2790-320",
      "city": "QUEIJAS",
      "lon": "-9.262663632524546",
      "lat": "38.715758520288155"
    },
    {
      "id": "pt.ine.add.PTCONT.3012674",
      "street": "R GARCIA DE RESENDE",
      "house": "42",
      "postcode": "2790-349",
      "city": "QUEIJAS",
      "lon": "-9.26149826689653",
      "lat": "38.716958804487305"
    },
    {
      "id": "pt.ine.add.PTCONT.3021796",
      "street": "R ALVES CRESPO",
      "house": "7",
      "postcode": "2790-305",
      "city": "QUEIJAS",
      "lon": "-9.261915256871173",
      "lat": "38.716423318437975"
    },
    {
      "id": "pt.ine.add.PTCONT.3031222",
      "street": "R ALVES CRESPO",
      "house": "13",
      "postcode": "2790-305",
      "city": "QUEIJAS",
      "lon": "-9.261978261749482",
      "lat": "38.71677401453314"
    },
    {
      "id": "pt.ine.add.PTCONT.3031223",
      "street": "R ALVES CRESPO",
      "house": "13",
      "postcode": "2790-305",
      "city": "QUEIJAS",
      "lon": "-9.261978261749482",
      "lat": "38.71677401453314"
    },
    {
      "id": "pt.ine.add.PTCONT.3031224",
      "street": "R ALVES CRESPO",
      "house": "13",
      "postcode": "2790-305",
      "city": "QUEIJAS",
      "lon": "-9.261978261749482",
      "lat": "38.71677401453314"
    },
    {
      "id": "pt.ine.add.PTCONT.3034008",
      "street": "R ALVES CRESPO",
      "house": "13",
      "postcode": "2790-305",
      "city": "QUEIJAS",
      "lon": "-9.261978261749482",
      "lat": "38.71677401453314"
    },
    {
      "id": "pt.ine.add.PTCONT.3058843",
      "street": "R JOÃO XXI",
      "house": "12",
      "postcode": "2790-369",
      "city": "QUEIJAS",
      "lon": "-9.263062554261904",
      "lat": "38.71772737471627"
    },
    {
      "id": "pt.ine.add.PTCONT.3058844",
      "street": "R JOÃO XXI",
      "house": "12",
      "postcode": "2790-369",
      "city": "QUEIJAS",
      "lon": "-9.263062554261904",
      "lat": "38.71772737471627"
    },
    {
      "id": "pt.ine.add.PTCONT.3058845",
      "street": "R JOÃO XXI",
      "house": "12",
      "postcode": "2790-369",
      "city": "QUEIJAS",
      "lon": "-9.263062554261904",
      "lat": "38.71772737471627"
    },
    {
      "id": "pt.ine.add.PTCONT.3058846",
      "street": "R JOÃO XXI",
      "house": "12",
      "postcode": "2790-369",
      "city": "QUEIJAS",
      "lon": "-9.263062554261904",
      "lat": "38.71772737471627"
    },
    {
      "id": "pt.ine.add.PTCONT.3058847",
      "street": "R JOÃO XXI",
      "house": "12",
      "postcode": "2790-369",
      "city": "QUEIJAS",
      "lon": "-9.263062554261904",
      "lat": "38.71772737471627"
    },
    {
      "id": "pt.ine.add.PTCONT.3058848",
      "street": "R JOÃO XXI",
      "house": "12",
      "postcode": "2790-369",
      "city": "QUEIJAS",
      "lon": "-9.263062554261904",
      "lat": "38.71772737471627"
    },
    {
      "id": "pt.ine.add.PTCONT.3058849",
      "street": "R JOÃO XXI",
      "house": "12",
      "postcode": "2790-369",
      "city": "QUEIJAS",
      "lon": "-9.263062554261904",
      "lat": "38.71772737471627"
    },
    {
      "id": "pt.ine.add.PTCONT.3058871",
      "street": "R JULIO DINIZ",
      "house": "7",
      "postcode": "2790-375",
      "city": "QUEIJAS",
      "lon": "-9.262260115390777",
      "lat": "38.71714962046245"
    },
    {
      "id": "pt.ine.add.PTCONT.3058872",
      "street": "R GARCIA DE RESENDE",
      "house": "46",
      "postcode": "2790-349",
      "city": "QUEIJAS",
      "lon": "-9.261379342566002",
      "lat": "38.71670773368849"
    },
    {
      "id": "pt.ine.add.PTCONT.3061855",
      "street": "R JOÃO XXI",
      "house": "12",
      "postcode": "2790-369",
      "city": "QUEIJAS",
      "lon": "-9.263062554261904",
      "lat": "38.71772737471627"
    },
    {
      "id": "pt.ine.add.PTCONT.3068147",
      "street": "R GARCIA DE RESENDE",
      "house": "38",
      "postcode": "2790-349",
      "city": "QUEIJAS",
      "lon": "-9.26164103387492",
      "lat": "38.717263691830965"
    },
    {
      "id": "pt.ine.add.PTCONT.3068148",
      "street": "PCT VÁRZEAS",
      "house": "15",
      "postcode": "2790-445",
      "city": "QUEIJAS",
      "lon": "-9.262648721742162",
      "lat": "38.716272109339286"
    },
    {
      "id": "pt.ine.add.PTCONT.3096414",
      "street": "R ALVES CRESPO",
      "house": "15",
      "postcode": "2790-305",
      "city": "QUEIJAS",
      "lon": "-9.26199188296057",
      "lat": "38.71690900009676"
    },
    {
      "id": "pt.ine.add.PTCONT.3105734",
      "street": "R JULIO DINIZ",
      "house": "3",
      "postcode": "2790-375",
      "city": "QUEIJAS",
      "lon": "-9.261812765054799",
      "lat": "38.71721699493613"
    },
    {
      "id": "pt.ine.add.PTCONT.3105735",
      "street": "R ALVES CRESPO",
      "house": "1",
      "postcode": "2790-305",
      "city": "QUEIJAS",
      "lon": "-9.261873969178152",
      "lat": "38.71599134234164"
    },
    {
      "id": "pt.ine.add.PTCONT.3108696",
      "street": "PCT VÁRZEAS",
      "house": "4",
      "postcode": "2790-445",
      "city": "QUEIJAS",
      "lon": "-9.262747919015874",
      "lat": "38.71673054899329"
    },
    {
      "id": "pt.ine.add.PTCONT.3117881",
      "street": "PCT VÁRZEAS",
      "house": "8",
      "postcode": "2790-445",
      "city": "QUEIJAS",
      "lon": "-9.262243375769556",
      "lat": "38.716816493330505"
    },
    {
      "id": "pt.ine.add.PTCONT.3117882",
      "street": "PCT VÁRZEAS",
      "house": "8",
      "postcode": "2790-445",
      "city": "QUEIJAS",
      "lon": "-9.262243375769556",
      "lat": "38.716816493330505"
    },
    {
      "id": "pt.ine.add.PTCONT.3117883",
      "street": "PCT VÁRZEAS",
      "house": "8",
      "postcode": "2790-445",
      "city": "QUEIJAS",
      "lon": "-9.262243375769556",
      "lat": "38.716816493330505"
    },
    {
      "id": "pt.ine.add.PTCONT.3117912",
      "street": "PCT VÁRZEAS",
      "house": "8",
      "postcode": "2790-445",
      "city": "QUEIJAS",
      "lon": "-9.262243375769556",
      "lat": "38.716816493330505"
    },
    {
      "id": "pt.ine.add.PTCONT.3133246",
      "street": "R GARCIA DE RESENDE",
      "house": "44",
      "postcode": "2790-349",
      "city": "QUEIJAS",
      "lon": "-9.26141581282422",
      "lat": "38.71683349100565"
    },
    {
      "id": "pt.ine.add.PTCONT.3133249",
      "street": "PCT VÁRZEAS",
      "house": "9",
      "postcode": "2790-445",
      "city": "QUEIJAS",
      "lon": "-9.26224054138757",
      "lat": "38.716636364585085"
    },
    {
      "id": "pt.ine.add.PTCONT.3133258",
      "street": "ESTR VÁRZEAS",
      "house": "10",
      "postcode": "2790-444",
      "city": "QUEIJAS",
      "lon": "-9.263175535865727",
      "lat": "38.71687054122793"
    },
    {
      "id": "pt.ine.add.PTCONT.3153774",
      "street": "R JULIO DINIZ",
      "house": "13",
      "postcode": "2790-375",
      "city": "QUEIJAS",
      "lon": "-9.262729180678946",
      "lat": "38.71700096421642"
    },
    {
      "id": "pt.ine.add.PTCONT.3161852",
      "street": "ESTR VÁRZEAS",
      "house": "8",
      "postcode": "2790-444",
      "city": "QUEIJAS",
      "lon": "-9.263137644201713",
      "lat": "38.71665472016211"
    },
    {
      "id": "pt.ine.add.PTCONT.3226228",
      "street": "R JULIO DINIZ",
      "house": "9",
      "postcode": "2790-375",
      "city": "QUEIJAS",
      "lon": "-9.262431704129375",
      "lat": "38.71709391623134"
    },
    {
      "id": "pt.ine.add.PTCONT.3226258",
      "street": "PCT VÁRZEAS",
      "house": "6",
      "postcode": "2790-445",
      "city": "QUEIJAS",
      "lon": "-9.262599323172598",
      "lat": "38.7167860315475"
    },
    {
      "id": "pt.ine.add.PTCONT.3244817",
      "street": "ESTR VÁRZEAS",
      "house": "6",
      "postcode": "2790-444",
      "city": "QUEIJAS",
      "lon": "-9.26321244165609",
      "lat": "38.716293684925766"
    },
    {
      "id": "pt.ine.add.PTCONT.3290416",
      "street": "R ALVES CRESPO",
      "house": "11",
      "postcode": "2790-305",
      "city": "QUEIJAS",
      "lon": "-9.261942073904752",
      "lat": "38.71666627028121"
    },
    {
      "id": "pt.ine.add.PTCONT.3348937",
      "street": "PCT VÁRZEAS",
      "house": "11",
      "postcode": "2790-445",
      "city": "QUEIJAS",
      "lon": "-9.262249486305025",
      "lat": "38.71647413768003"
    },
    {
      "id": "pt.ine.add.PTCONT.3365271",
      "street": "R ALVES CRESPO",
      "house": "9",
      "postcode": "2790-305",
      "city": "QUEIJAS",
      "lon": "-9.261939948694465",
      "lat": "38.716531173705185"
    },
    {
      "id": "pt.ine.add.PTCONT.3409490",
      "street": "R JOÃO XXI",
      "house": "14",
      "postcode": "2790-369",
      "city": "QUEIJAS",
      "lon": "-9.263030051676147",
      "lat": "38.7178537981141"
    },
    {
      "id": "pt.ine.add.PTCONT.3409491",
      "street": "R JOÃO XXI",
      "house": "14",
      "postcode": "2790-369",
      "city": "QUEIJAS",
      "lon": "-9.263030051676147",
      "lat": "38.7178537981141"
    },
    {
      "id": "pt.ine.add.PTCONT.3409492",
      "street": "R JOÃO XXI",
      "house": "14",
      "postcode": "2790-369",
      "city": "QUEIJAS",
      "lon": "-9.263030051676147",
      "lat": "38.7178537981141"
    },
    {
      "id": "pt.ine.add.PTCONT.3409493",
      "street": "R JOÃO XXI",
      "house": "14",
      "postcode": "2790-369",
      "city": "QUEIJAS",
      "lon": "-9.263030051676147",
      "lat": "38.7178537981141"
    },
    {
      "id": "pt.ine.add.PTCONT.3409663",
      "street": "R JOÃO XXI",
      "house": "14",
      "postcode": "2790-369",
      "city": "QUEIJAS",
      "lon": "-9.263030051676147",
      "lat": "38.7178537981141"
    },
    {
      "id": "pt.ine.add.PTCONT.3409664",
      "street": "R JOÃO XXI",
      "house": "14",
      "postcode": "2790-369",
      "city": "QUEIJAS",
      "lon": "-9.263030051676147",
      "lat": "38.7178537981141"
    },
    {
      "id": "pt.ine.add.PTCONT.3422331",
      "street": "PCT VÁRZEAS",
      "house": "7",
      "postcode": "2790-445",
      "city": "QUEIJAS",
      "lon": "-9.262519135462687",
      "lat": "38.716804821847305"
    },
    {
      "id": "pt.ine.add.PTCONT.3435277",
      "street": "ESTR VÁRZEAS",
      "house": "14",
      "postcode": "2790-444",
      "city": "QUEIJAS",
      "lon": "-9.263224781862863",
      "lat": "38.71707724470986"
    },
    {
      "id": "pt.ine.add.PTCONT.3437646",
      "street": "R JOÃO XXI",
      "house": "6",
      "postcode": "2790-369",
      "city": "QUEIJAS",
      "lon": "-9.263160486876151",
      "lat": "38.71737512376313"
    },
    {
      "id": "pt.ine.add.PTCONT.3453356",
      "street": "R JOÃO XXI",
      "house": "4",
      "postcode": "2790-369",
      "city": "QUEIJAS",
      "lon": "-9.263192705353022",
      "lat": "38.71723068745853"
    },
    {
      "id": "pt.ine.add.PTCONT.3455982",
      "street": "R JOÃO XXI",
      "house": "10",
      "postcode": "2790-369",
      "city": "QUEIJAS",
      "lon": "-9.263095198568998",
      "lat": "38.71760995774171"
    }
  ]
}