{
  "data": {
    "distrito": "Leiria",
    "concelho": "Bombarral",
    "freguesia": "Uni√£o das freguesias do Bombarral e Vale Covo",
    "OBJECTID": 300,
    "BGRI2021": "10050600209",
    "DT21": "10",
    "DTMN21": "1005",
    "DTMNFR21": "100506",
    "DTMNFRSEC21": "100506002",
    "SECNUM21": "002",
    "SSNUM21": "09",
    "SECSSNUM21": "00209",
    "OBJECTID_1": 87330,
    "DT": "10",
    "CC": "05",
    "fr": "06",
    "SEC": "002",
    "SS": "09"
  },
  "addresses": [
    {
      "id": "pt.ine.add.PTCONT.2010406",
      "street": "PC REPUBLICA",
      "house": "1",
      "postcode": "2540-041",
      "city": "BOMBARRAL",
      "lon": "-9.159849732034386",
      "lat": "39.266702225592184"
    },
    {
      "id": "pt.ine.add.PTCONT.2010407",
      "street": "PC REPUBLICA",
      "house": "1",
      "postcode": "2540-041",
      "city": "BOMBARRAL",
      "lon": "-9.159849732034386",
      "lat": "39.266702225592184"
    },
    {
      "id": "pt.ine.add.PTCONT.2010408",
      "street": "PC REPUBLICA",
      "house": "1",
      "postcode": "2540-041",
      "city": "BOMBARRAL",
      "lon": "-9.159849732034386",
      "lat": "39.266702225592184"
    },
    {
      "id": "pt.ine.add.PTCONT.2010409",
      "street": "PC REPUBLICA",
      "house": "1",
      "postcode": "2540-041",
      "city": "BOMBARRAL",
      "lon": "-9.159849732034386",
      "lat": "39.266702225592184"
    },
    {
      "id": "pt.ine.add.PTCONT.2010448",
      "street": "PC REPUBLICA",
      "house": "1",
      "postcode": "2540-041",
      "city": "BOMBARRAL",
      "lon": "-9.159849732034386",
      "lat": "39.266702225592184"
    },
    {
      "id": "pt.ine.add.PTCONT.2018945",
      "street": "PC REPUBLICA",
      "house": "12",
      "postcode": "2540-041",
      "city": "BOMBARRAL",
      "lon": "-9.160322374381023",
      "lat": "39.26653593019281"
    },
    {
      "id": "pt.ine.add.PTCONT.2023694",
      "street": "R COTOVELO",
      "house": "11",
      "postcode": "2540-078",
      "city": "BOMBARRAL",
      "lon": "-9.159737840301098",
      "lat": "39.2661808033171"
    },
    {
      "id": "pt.ine.add.PTCONT.2023695",
      "street": "R COTOVELO",
      "house": "11",
      "postcode": "2540-078",
      "city": "BOMBARRAL",
      "lon": "-9.159737840301098",
      "lat": "39.2661808033171"
    },
    {
      "id": "pt.ine.add.PTCONT.2023696",
      "street": "R COTOVELO",
      "house": "11",
      "postcode": "2540-078",
      "city": "BOMBARRAL",
      "lon": "-9.159737840301098",
      "lat": "39.2661808033171"
    },
    {
      "id": "pt.ine.add.PTCONT.2071577",
      "street": "TV FORMIGA",
      "house": "10",
      "postcode": "2540-145",
      "city": "BOMBARRAL",
      "lon": "-9.16023575384295",
      "lat": "39.26615839824747"
    },
    {
      "id": "pt.ine.add.PTCONT.2076230",
      "street": "R COTOVELO",
      "house": "17",
      "postcode": "2540-078",
      "city": "BOMBARRAL",
      "lon": "-9.159670166815086",
      "lat": "39.26630749863741"
    },
    {
      "id": "pt.ine.add.PTCONT.2101667",
      "street": "TV FORMIGA",
      "house": "4",
      "postcode": "2540-145",
      "city": "BOMBARRAL",
      "lon": "-9.159818544565418",
      "lat": "39.26615307060366"
    },
    {
      "id": "pt.ine.add.PTCONT.2120563",
      "street": "R COTOVELO",
      "house": "19",
      "postcode": "2540-078",
      "city": "BOMBARRAL",
      "lon": "-9.159742439431783",
      "lat": "39.266496009485984"
    },
    {
      "id": "pt.ine.add.PTCONT.2122171",
      "street": "R COTOVELO",
      "house": "19",
      "postcode": "2540-078",
      "city": "BOMBARRAL",
      "lon": "-9.159742439431783",
      "lat": "39.266496009485984"
    },
    {
      "id": "pt.ine.add.PTCONT.2146657",
      "street": "R COTOVELO",
      "house": "23",
      "postcode": "2540-078",
      "city": "BOMBARRAL",
      "lon": "-9.159825903780295",
      "lat": "39.26665740045511"
    },
    {
      "id": "pt.ine.add.PTCONT.2146658",
      "street": "R COTOVELO",
      "house": "23",
      "postcode": "2540-078",
      "city": "BOMBARRAL",
      "lon": "-9.159825903780295",
      "lat": "39.26665740045511"
    },
    {
      "id": "pt.ine.add.PTCONT.2146659",
      "street": "R COTOVELO",
      "house": "23",
      "postcode": "2540-078",
      "city": "BOMBARRAL",
      "lon": "-9.159825903780295",
      "lat": "39.26665740045511"
    },
    {
      "id": "pt.ine.add.PTCONT.2146660",
      "street": "R COTOVELO",
      "house": "23",
      "postcode": "2540-078",
      "city": "BOMBARRAL",
      "lon": "-9.159825903780295",
      "lat": "39.26665740045511"
    },
    {
      "id": "pt.ine.add.PTCONT.2198581",
      "street": "R COTOVELO",
      "house": "13",
      "postcode": "2540-078",
      "city": "BOMBARRAL",
      "lon": "-9.159820778593264",
      "lat": "39.2663061707419"
    },
    {
      "id": "pt.ine.add.PTCONT.2198582",
      "street": "R MISERICORDIA",
      "house": "74",
      "postcode": "2540-123",
      "city": "BOMBARRAL",
      "lon": "-9.159820778593264",
      "lat": "39.2663061707419"
    },
    {
      "id": "pt.ine.add.PTCONT.2198583",
      "street": "R COTOVELO",
      "house": "13",
      "postcode": "2540-078",
      "city": "BOMBARRAL",
      "lon": "-9.159820778593264",
      "lat": "39.2663061707419"
    },
    {
      "id": "pt.ine.add.PTCONT.2221616",
      "street": "TV FORMIGA",
      "house": "8",
      "postcode": "2540-145",
      "city": "BOMBARRAL",
      "lon": "-9.160085668189334",
      "lat": "39.2661957502348"
    },
    {
      "id": "pt.ine.add.PTCONT.2223699",
      "street": "R FRANCISCO ROSADO",
      "house": "3Y",
      "postcode": "2540-097",
      "city": "BOMBARRAL",
      "lon": "-9.160274060060448",
      "lat": "39.26640125066594"
    },
    {
      "id": "pt.ine.add.PTCONT.2242889",
      "street": "PC REPUBLICA",
      "house": "9",
      "postcode": "2540-041",
      "city": "BOMBARRAL",
      "lon": "-9.160045635434486",
      "lat": "39.26662844164265"
    },
    {
      "id": "pt.ine.add.PTCONT.2252117",
      "street": "TV FORMIGA",
      "house": "6",
      "postcode": "2540-145",
      "city": "BOMBARRAL",
      "lon": "-9.1600040439276",
      "lat": "39.266160441902294"
    }
  ]
}