{
  "data": {
    "distrito": "Ã‰vora",
    "concelho": "Estremoz",
    "freguesia": "Veiros",
    "OBJECTID": 330,
    "BGRI2021": "07041300138",
    "DT21": "07",
    "DTMN21": "0704",
    "DTMNFR21": "070413",
    "DTMNFRSEC21": "070413001",
    "SECNUM21": "001",
    "SSNUM21": "38",
    "SECSSNUM21": "00138",
    "OBJECTID_1": 59590,
    "DT": "07",
    "CC": "04",
    "fr": "13",
    "SEC": "001",
    "SS": "38"
  },
  "addresses": [
    {
      "id": "pt.ine.add.PTCONT.1370878",
      "street": "MTE PONTE",
      "house": "",
      "postcode": "7100-709",
      "city": "VEIROS ETZ",
      "lon": "-7.514252879118789",
      "lat": "38.95153046979272"
    },
    {
      "id": "pt.ine.add.PTCONT.1381356",
      "street": "TAPADA DA ROSA",
      "house": "",
      "postcode": "7100-709",
      "city": "VEIROS ETZ",
      "lon": "-7.513619839156298",
      "lat": "38.963291176988854"
    },
    {
      "id": "pt.ine.add.PTCONT.1397930",
      "street": "MTE COMENDADEIRA",
      "house": "",
      "postcode": "7100-709",
      "city": "VEIROS ETZ",
      "lon": "-7.5193688349094465",
      "lat": "38.956232488066995"
    },
    {
      "id": "pt.ine.add.PTCONT.1425047",
      "street": "MTE FRANCISCOAS",
      "house": "",
      "postcode": "7100-709",
      "city": "VEIROS ETZ",
      "lon": "-7.51922131758105",
      "lat": "38.95609051275257"
    },
    {
      "id": "pt.ine.add.PTCONT.1436503",
      "street": "MTE PIPA",
      "house": "",
      "postcode": "7100-709",
      "city": "VEIROS ETZ",
      "lon": "-7.51357254820972",
      "lat": "38.95414810526663"
    },
    {
      "id": "pt.ine.add.PTCONT.1443169",
      "street": "MTE LOPES",
      "house": "",
      "postcode": "7100-709",
      "city": "VEIROS ETZ",
      "lon": "-7.514939853741978",
      "lat": "38.962748706818694"
    },
    {
      "id": "pt.ine.add.PTCONT.1452369",
      "street": "MTE FORGENCIA",
      "house": "",
      "postcode": "7100-709",
      "city": "VEIROS ETZ",
      "lon": "-7.516615059631463",
      "lat": "38.95716378381136"
    },
    {
      "id": "pt.ine.add.PTCONT.1462141",
      "street": "MTE COUTADAS",
      "house": "",
      "postcode": "7100-709",
      "city": "VEIROS ETZ",
      "lon": "-7.532171655322561",
      "lat": "38.97158518502136"
    }
  ]
}