{
  "data": {
    "distrito": "Porto",
    "concelho": "Baião",
    "freguesia": "União das freguesias de Campelo e Ovil",
    "OBJECTID": 342,
    "BGRI2021": "13022300402",
    "DT21": "13",
    "DTMN21": "1302",
    "DTMNFR21": "130223",
    "DTMNFRSEC21": "130223004",
    "SECNUM21": "004",
    "SSNUM21": "02",
    "SECSSNUM21": "00402",
    "OBJECTID_1": 126796,
    "DT": "13",
    "CC": "02",
    "fr": "23",
    "SEC": "004",
    "SS": "02"
  },
  "addresses": [
    {
      "id": "pt.ine.add.PTCONT.3543070",
      "street": "",
      "house": "",
      "postcode": "4640-134",
      "city": "BAIÃO",
      "lon": "-8.043143383098494",
      "lat": "41.15899341544996"
    },
    {
      "id": "pt.ine.add.PTCONT.3559799",
      "street": "R ANTÓNIO FERREIRA CABRAL PAIS DO AMARAL",
      "house": "547",
      "postcode": "4640-144",
      "city": "BAIÃO",
      "lon": "-8.045872986570805",
      "lat": "41.15806806323611"
    },
    {
      "id": "pt.ine.add.PTCONT.3577415",
      "street": "R ANTIGA DO TIJELINHO",
      "house": "",
      "postcode": "4640-189",
      "city": "BAIÃO",
      "lon": "-8.038797931116962",
      "lat": "41.156711829767254"
    },
    {
      "id": "pt.ine.add.PTCONT.3581922",
      "street": "R INGILDE",
      "house": "7",
      "postcode": "4640-175",
      "city": "BAIÃO",
      "lon": "-8.045789934215644",
      "lat": "41.15780687309167"
    },
    {
      "id": "pt.ine.add.PTCONT.3630342",
      "street": "R REBOLFE",
      "house": "",
      "postcode": "4640-134",
      "city": "BAIÃO",
      "lon": "-8.043702767659713",
      "lat": "41.15942606144938"
    },
    {
      "id": "pt.ine.add.PTCONT.3604628",
      "street": "R REBOLFE",
      "house": "18",
      "postcode": "4640-134",
      "city": "BAIÃO",
      "lon": "-8.043440798699082",
      "lat": "41.159317805206726"
    },
    {
      "id": "pt.ine.add.PTCONT.3618838",
      "street": "R REBOLFE",
      "house": "",
      "postcode": "4640-144",
      "city": "BAIÃO",
      "lon": "-8.04561095956219",
      "lat": "41.15800483379348"
    },
    {
      "id": "pt.ine.add.PTCONT.3635355",
      "street": "TAPADOS",
      "house": "",
      "postcode": "4640-176",
      "city": "BAIÃO",
      "lon": "-8.040933341322361",
      "lat": "41.15469657491734"
    },
    {
      "id": "pt.ine.add.PTCONT.3636858",
      "street": "R REBOLFE",
      "house": "",
      "postcode": "4640-134",
      "city": "BAIÃO",
      "lon": "-8.044191707250953",
      "lat": "41.159093277676085"
    },
    {
      "id": "pt.ine.add.PTCONT.3666194",
      "street": "",
      "house": "",
      "postcode": "4640-125",
      "city": "BAIÃO",
      "lon": "-8.040290963997117",
      "lat": "41.15402072968504"
    },
    {
      "id": "pt.ine.add.PTCONT.3683794",
      "street": "R INGILDE E",
      "house": "E 33",
      "postcode": "4640-175",
      "city": "BAIÃO",
      "lon": "-8.045540613326285",
      "lat": "41.15714936353801"
    },
    {
      "id": "pt.ine.add.PTCONT.3683795",
      "street": "R INGILDE",
      "house": "33",
      "postcode": "4640-175",
      "city": "BAIÃO",
      "lon": "-8.045540613326285",
      "lat": "41.15714936353801"
    },
    {
      "id": "pt.ine.add.PTCONT.3683796",
      "street": "R INGILDE",
      "house": "33",
      "postcode": "4640-175",
      "city": "BAIÃO",
      "lon": "-8.045540613326285",
      "lat": "41.15714936353801"
    },
    {
      "id": "pt.ine.add.PTCONT.3686077",
      "street": "R INGILDE",
      "house": "33",
      "postcode": "4640-175",
      "city": "BAIÃO",
      "lon": "-8.045540613326285",
      "lat": "41.15714936353801"
    },
    {
      "id": "pt.ine.add.PTCONT.3686470",
      "street": "R INGILDE",
      "house": "33",
      "postcode": "4640-175",
      "city": "BAIÃO",
      "lon": "-8.045540613326285",
      "lat": "41.15714936353801"
    },
    {
      "id": "pt.ine.add.PTCONT.3686602",
      "street": "R INGILDE",
      "house": "33B1",
      "postcode": "4640-175",
      "city": "BAIÃO",
      "lon": "-8.045540613326285",
      "lat": "41.15714936353801"
    },
    {
      "id": "pt.ine.add.PTCONT.3701651",
      "street": "R INGILDE",
      "house": "BC",
      "postcode": "4640-175",
      "city": "BAIÃO",
      "lon": "-8.045075583291924",
      "lat": "41.157437149492196"
    },
    {
      "id": "pt.ine.add.PTCONT.3701652",
      "street": "R INGILDE",
      "house": "BC",
      "postcode": "4640-175",
      "city": "BAIÃO",
      "lon": "-8.045075583291924",
      "lat": "41.157437149492196"
    },
    {
      "id": "pt.ine.add.PTCONT.3701653",
      "street": "R INGILDE",
      "house": "ENT 33 C",
      "postcode": "4640-175",
      "city": "BAIÃO",
      "lon": "-8.045075583291924",
      "lat": "41.157437149492196"
    },
    {
      "id": "pt.ine.add.PTCONT.3701654",
      "street": "R INGILDE",
      "house": "BC",
      "postcode": "4640-175",
      "city": "BAIÃO",
      "lon": "-8.045075583291924",
      "lat": "41.157437149492196"
    },
    {
      "id": "pt.ine.add.PTCONT.3706395",
      "street": "R INGILDE",
      "house": "BC",
      "postcode": "4640-175",
      "city": "BAIÃO",
      "lon": "-8.045075583291924",
      "lat": "41.157437149492196"
    },
    {
      "id": "pt.ine.add.PTCONT.3706620",
      "street": "R INGILDE",
      "house": "BC",
      "postcode": "4640-175",
      "city": "BAIÃO",
      "lon": "-8.045075583291924",
      "lat": "41.157437149492196"
    },
    {
      "id": "pt.ine.add.PTCONT.3727778",
      "street": "",
      "house": "",
      "postcode": "4640-125",
      "city": "BAIÃO",
      "lon": "-8.04104046218499",
      "lat": "41.154768695717884"
    },
    {
      "id": "pt.ine.add.PTCONT.3759789",
      "street": "R REBOLFE",
      "house": "",
      "postcode": "4640-134",
      "city": "BAIÃO",
      "lon": "-8.043643636579578",
      "lat": "41.159101857691184"
    },
    {
      "id": "pt.ine.add.PTCONT.3759795",
      "street": "",
      "house": "",
      "postcode": "4640-175",
      "city": "BAIÃO",
      "lon": "-8.038893229270004",
      "lat": "41.156720912140266"
    },
    {
      "id": "pt.ine.add.PTCONT.3777349",
      "street": "SIT BAIAO",
      "house": "120",
      "postcode": "4640-175",
      "city": "BAIÃO",
      "lon": "-8.043191360232397",
      "lat": "41.158759338894605"
    },
    {
      "id": "pt.ine.add.PTCONT.3793269",
      "street": "R INGILDE",
      "house": "33 B2",
      "postcode": "4640-175",
      "city": "BAIÃO",
      "lon": "-8.04545699967989",
      "lat": "41.15731137892673"
    },
    {
      "id": "pt.ine.add.PTCONT.3793270",
      "street": "R INGILDE",
      "house": "33 B2",
      "postcode": "4640-175",
      "city": "BAIÃO",
      "lon": "-8.04545699967989",
      "lat": "41.15731137892673"
    },
    {
      "id": "pt.ine.add.PTCONT.3793271",
      "street": "R INGILDE",
      "house": "33 BL 2",
      "postcode": "4640-175",
      "city": "BAIÃO",
      "lon": "-8.04545699967989",
      "lat": "41.15731137892673"
    },
    {
      "id": "pt.ine.add.PTCONT.3793272",
      "street": "R INGILDE",
      "house": "33",
      "postcode": "4640-175",
      "city": "BAIÃO",
      "lon": "-8.04545699967989",
      "lat": "41.15731137892673"
    },
    {
      "id": "pt.ine.add.PTCONT.3793273",
      "street": "R INGILDE B",
      "house": "B2",
      "postcode": "4640-175",
      "city": "BAIÃO",
      "lon": "-8.04545699967989",
      "lat": "41.15731137892673"
    },
    {
      "id": "pt.ine.add.PTCONT.3810376",
      "street": "R BARROCA",
      "house": "1",
      "postcode": "4640-125",
      "city": "BAIÃO",
      "lon": "-8.039978616062243",
      "lat": "41.15585737341053"
    },
    {
      "id": "pt.ine.add.PTCONT.3851781",
      "street": "SIT BAIAO",
      "house": "437",
      "postcode": "4640-134",
      "city": "BAIÃO",
      "lon": "-8.043571623769159",
      "lat": "41.15948899027591"
    },
    {
      "id": "pt.ine.add.PTCONT.3863233",
      "street": "R REBOLFE",
      "house": "10",
      "postcode": "4640-134",
      "city": "BAIÃO",
      "lon": "-8.044286839420831",
      "lat": "41.15922841684367"
    },
    {
      "id": "pt.ine.add.PTCONT.3897040",
      "street": "R INGILDE",
      "house": "",
      "postcode": "4640-175",
      "city": "BAIÃO",
      "lon": "-8.045838295182586",
      "lat": "41.15727565088277"
    },
    {
      "id": "pt.ine.add.PTCONT.3897041",
      "street": "R INGILDE",
      "house": "",
      "postcode": "4640-175",
      "city": "BAIÃO",
      "lon": "-8.045838295182586",
      "lat": "41.15727565088277"
    },
    {
      "id": "pt.ine.add.PTCONT.3897042",
      "street": "R INGILDE",
      "house": "",
      "postcode": "4640-175",
      "city": "BAIÃO",
      "lon": "-8.045838295182586",
      "lat": "41.15727565088277"
    },
    {
      "id": "pt.ine.add.PTCONT.3897043",
      "street": "R INGILDE",
      "house": "",
      "postcode": "4640-175",
      "city": "BAIÃO",
      "lon": "-8.045838295182586",
      "lat": "41.15727565088277"
    },
    {
      "id": "pt.ine.add.PTCONT.3897044",
      "street": "R INGILDE",
      "house": "",
      "postcode": "4640-175",
      "city": "BAIÃO",
      "lon": "-8.045838295182586",
      "lat": "41.15727565088277"
    },
    {
      "id": "pt.ine.add.PTCONT.3897045",
      "street": "R INGILDE",
      "house": "",
      "postcode": "4640-175",
      "city": "BAIÃO",
      "lon": "-8.045838295182586",
      "lat": "41.15727565088277"
    },
    {
      "id": "pt.ine.add.PTCONT.3917721",
      "street": "SIT BAIAO",
      "house": "26",
      "postcode": "4640-134",
      "city": "BAIÃO",
      "lon": "-8.043262267831704",
      "lat": "41.159182600323135"
    },
    {
      "id": "pt.ine.add.PTCONT.3990103",
      "street": "",
      "house": "",
      "postcode": "4640-175",
      "city": "BAIÃO",
      "lon": "-8.039333901762689",
      "lat": "41.15682031999943"
    },
    {
      "id": "pt.ine.add.PTCONT.3928405",
      "street": "R INGILDE",
      "house": "",
      "postcode": "4640-175",
      "city": "BAIÃO",
      "lon": "-8.045421017704218",
      "lat": "41.1574914392941"
    },
    {
      "id": "pt.ine.add.PTCONT.3928406",
      "street": "R INGILDE",
      "house": "33 BL3",
      "postcode": "4640-175",
      "city": "BAIÃO",
      "lon": "-8.045421017704218",
      "lat": "41.1574914392941"
    },
    {
      "id": "pt.ine.add.PTCONT.3928407",
      "street": "R INGILDE",
      "house": "3",
      "postcode": "4640-175",
      "city": "BAIÃO",
      "lon": "-8.045421017704218",
      "lat": "41.1574914392941"
    },
    {
      "id": "pt.ine.add.PTCONT.3928408",
      "street": "R INGILDE",
      "house": "",
      "postcode": "4640-175",
      "city": "BAIÃO",
      "lon": "-8.045421017704218",
      "lat": "41.1574914392941"
    },
    {
      "id": "pt.ine.add.PTCONT.3928409",
      "street": "R INGILDE",
      "house": "33 B3",
      "postcode": "4640-175",
      "city": "BAIÃO",
      "lon": "-8.045421017704218",
      "lat": "41.1574914392941"
    },
    {
      "id": "pt.ine.add.PTCONT.3928410",
      "street": "R INGILDE",
      "house": "1",
      "postcode": "4640-175",
      "city": "BAIÃO",
      "lon": "-8.045802326217789",
      "lat": "41.15744670699292"
    },
    {
      "id": "pt.ine.add.PTCONT.3928411",
      "street": "R INGILDE",
      "house": "",
      "postcode": "4640-175",
      "city": "BAIÃO",
      "lon": "-8.045802326217789",
      "lat": "41.15744670699292"
    },
    {
      "id": "pt.ine.add.PTCONT.3928412",
      "street": "R INGILDE",
      "house": "",
      "postcode": "4640-175",
      "city": "BAIÃO",
      "lon": "-8.045802326217789",
      "lat": "41.15744670699292"
    },
    {
      "id": "pt.ine.add.PTCONT.3928413",
      "street": "R INGILDE",
      "house": "",
      "postcode": "4640-175",
      "city": "BAIÃO",
      "lon": "-8.045802326217789",
      "lat": "41.15744670699292"
    },
    {
      "id": "pt.ine.add.PTCONT.3928467",
      "street": "R INGILDE",
      "house": "",
      "postcode": "4640-175",
      "city": "BAIÃO",
      "lon": "-8.045802326217789",
      "lat": "41.15744670699292"
    },
    {
      "id": "pt.ine.add.PTCONT.3932926",
      "street": "R INGILDE",
      "house": "",
      "postcode": "4640-175",
      "city": "BAIÃO",
      "lon": "-8.045802326217789",
      "lat": "41.15744670699292"
    },
    {
      "id": "pt.ine.add.PTCONT.3966209",
      "street": "R LEIRAS",
      "house": "93",
      "postcode": "4640-117",
      "city": "BAIÃO",
      "lon": "-8.04141579778436",
      "lat": "41.159001057602644"
    },
    {
      "id": "pt.ine.add.PTCONT.4030705",
      "street": "R CIDADE DO PORTO",
      "house": "",
      "postcode": "4640-151",
      "city": "BAIÃO",
      "lon": "-8.043287239716848",
      "lat": "41.158345211953495"
    },
    {
      "id": "pt.ine.add.PTCONT.4053185",
      "street": "R REBOLFE",
      "house": "",
      "postcode": "4640-134",
      "city": "BAIÃO",
      "lon": "-8.0435365425891",
      "lat": "41.159002726229176"
    },
    {
      "id": "pt.ine.add.PTCONT.4070408",
      "street": "R INGILDE",
      "house": "41",
      "postcode": "4640-175",
      "city": "BAIÃO",
      "lon": "-8.045672169464034",
      "lat": "41.15677127916206"
    },
    {
      "id": "pt.ine.add.PTCONT.4109499",
      "street": "REBOLFE",
      "house": "40",
      "postcode": "4640-134",
      "city": "BAIÃO",
      "lon": "-8.044132367047693",
      "lat": "41.158922148538636"
    },
    {
      "id": "pt.ine.add.PTCONT.4109500",
      "street": "REBOLFE CAMPELO",
      "house": "40",
      "postcode": "4640-134",
      "city": "BAIÃO",
      "lon": "-8.044132367047693",
      "lat": "41.158922148538636"
    },
    {
      "id": "pt.ine.add.PTCONT.4116255",
      "street": "R INGILDE",
      "house": "121",
      "postcode": "4640-175",
      "city": "BAIÃO",
      "lon": "-8.046352080608493",
      "lat": "41.15615049039695"
    },
    {
      "id": "pt.ine.add.PTCONT.4155536",
      "street": "R ANTÓNIO FERREIRA CABRAL PAIS DO AMARAL",
      "house": "399",
      "postcode": "4640-144",
      "city": "BAIÃO",
      "lon": "-8.043105792546882",
      "lat": "41.16034404368516"
    },
    {
      "id": "pt.ine.add.PTCONT.4155537",
      "street": "R ANTÓNIO FERREIRA CABRAL PAIS DO AMARAL",
      "house": "399",
      "postcode": "4640-144",
      "city": "BAIÃO",
      "lon": "-8.043105792546882",
      "lat": "41.16034404368516"
    },
    {
      "id": "pt.ine.add.PTCONT.4155553",
      "street": "R INGILDE",
      "house": "39",
      "postcode": "4640-175",
      "city": "BAIÃO",
      "lon": "-8.045957852462596",
      "lat": "41.15696058781608"
    },
    {
      "id": "pt.ine.add.PTCONT.4193063",
      "street": "R REBOLFE",
      "house": "",
      "postcode": "4640-134",
      "city": "BAIÃO",
      "lon": "-8.043941421240062",
      "lat": "41.15915611489792"
    },
    {
      "id": "pt.ine.add.PTCONT.4194597",
      "street": "R CIDADE DO PORTO",
      "house": "199",
      "postcode": "4640-151",
      "city": "BAIÃO",
      "lon": "-8.041237322235446",
      "lat": "41.15882983207753"
    },
    {
      "id": "pt.ine.add.PTCONT.4233542",
      "street": "SIT BAIAO",
      "house": "85",
      "postcode": "4640-175",
      "city": "BAIÃO",
      "lon": "-8.039750351698565",
      "lat": "41.15719884256967"
    },
    {
      "id": "pt.ine.add.PTCONT.4327454",
      "street": "R REBOLFE",
      "house": "",
      "postcode": "4640-134",
      "city": "BAIÃO",
      "lon": "-8.045717684305956",
      "lat": "41.15838309904033"
    },
    {
      "id": "pt.ine.add.PTCONT.4327455",
      "street": "R INGILDE",
      "house": "33",
      "postcode": "4640-175",
      "city": "BAIÃO",
      "lon": "-8.045301661167104",
      "lat": "41.15765342734568"
    },
    {
      "id": "pt.ine.add.PTCONT.4327456",
      "street": "R INGILDE",
      "house": "33",
      "postcode": "4640-175",
      "city": "BAIÃO",
      "lon": "-8.045301661167104",
      "lat": "41.15765342734568"
    },
    {
      "id": "pt.ine.add.PTCONT.4327457",
      "street": "R INGILDE",
      "house": "33 B",
      "postcode": "4640-175",
      "city": "BAIÃO",
      "lon": "-8.045301661167104",
      "lat": "41.15765342734568"
    },
    {
      "id": "pt.ine.add.PTCONT.4327458",
      "street": "R INGILDE",
      "house": "33",
      "postcode": "4640-175",
      "city": "BAIÃO",
      "lon": "-8.045301661167104",
      "lat": "41.15765342734568"
    },
    {
      "id": "pt.ine.add.PTCONT.4327511",
      "street": "R INGILDE",
      "house": "33 B4",
      "postcode": "4640-175",
      "city": "BAIÃO",
      "lon": "-8.045301661167104",
      "lat": "41.15765342734568"
    },
    {
      "id": "pt.ine.add.PTCONT.4359241",
      "street": "R INGILDE",
      "house": "133",
      "postcode": "4640-175",
      "city": "BAIÃO",
      "lon": "-8.046149332123978",
      "lat": "41.15631241652869"
    },
    {
      "id": "pt.ine.add.PTCONT.4373689",
      "street": "R INGILDE B",
      "house": "B3",
      "postcode": "4640-175",
      "city": "BAIÃO",
      "lon": "-8.045421017704218",
      "lat": "41.1574914392941"
    },
    {
      "id": "pt.ine.add.PTCONT.4381027",
      "street": "R INGILDE",
      "house": "33",
      "postcode": "4640-175",
      "city": "BAIÃO",
      "lon": "-8.045301661167104",
      "lat": "41.15765342734568"
    },
    {
      "id": "pt.ine.add.PTCONT.4390816",
      "street": "R INGILDE B",
      "house": "B2",
      "postcode": "4640-175",
      "city": "BAIÃO",
      "lon": "-8.04545699967989",
      "lat": "41.15731137892673"
    }
  ]
}