{
  "data": {
    "distrito": "Porto",
    "concelho": "Baião",
    "freguesia": "União das freguesias de Campelo e Ovil",
    "OBJECTID": 389,
    "BGRI2021": "13022300411",
    "DT21": "13",
    "DTMN21": "1302",
    "DTMNFR21": "130223",
    "DTMNFRSEC21": "130223004",
    "SECNUM21": "004",
    "SSNUM21": "11",
    "SECSSNUM21": "00411",
    "OBJECTID_1": 126747,
    "DT": "13",
    "CC": "02",
    "fr": "23",
    "SEC": "004",
    "SS": "11"
  },
  "addresses": [
    {
      "id": "pt.ine.add.PTCONT.3572389",
      "street": "CAM EIDO BAIXO",
      "house": "214",
      "postcode": "4640-101",
      "city": "BAIÃO",
      "lon": "-8.057883987264999",
      "lat": "41.177552989141766"
    },
    {
      "id": "pt.ine.add.PTCONT.3741688",
      "street": "CAM PIOLAIS",
      "house": "",
      "postcode": "4640-172",
      "city": "BAIÃO",
      "lon": "-8.055235743365063",
      "lat": "41.16961838570048"
    },
    {
      "id": "pt.ine.add.PTCONT.3793028",
      "street": "R ALMOFRELA",
      "house": "",
      "postcode": "4640-101",
      "city": "BAIÃO",
      "lon": "-8.057395249061141",
      "lat": "41.17765171682654"
    },
    {
      "id": "pt.ine.add.PTCONT.3856285",
      "street": "CAM CURRAIS",
      "house": "",
      "postcode": "4640-171",
      "city": "BAIÃO",
      "lon": "-8.052692633296765",
      "lat": "41.173668602784"
    },
    {
      "id": "pt.ine.add.PTCONT.3971467",
      "street": "CAM VALE DA PEDRA",
      "house": "31",
      "postcode": "4640-101",
      "city": "BAIÃO",
      "lon": "-8.057480661345732",
      "lat": "41.17592293628168"
    },
    {
      "id": "pt.ine.add.PTCONT.3998116",
      "street": "CAM EIDO BAIXO",
      "house": "161",
      "postcode": "4640-101",
      "city": "BAIÃO",
      "lon": "-8.058039482299792",
      "lat": "41.17705785096744"
    },
    {
      "id": "pt.ine.add.PTCONT.4030699",
      "street": "CAM PIOLAIS",
      "house": "127",
      "postcode": "4640-172",
      "city": "BAIÃO",
      "lon": "-8.054914219440057",
      "lat": "41.16943808049968"
    },
    {
      "id": "pt.ine.add.PTCONT.4052599",
      "street": "CAM EIDO BAIXO",
      "house": "13",
      "postcode": "4640-101",
      "city": "BAIÃO",
      "lon": "-8.057278180338717",
      "lat": "41.17582375520481"
    },
    {
      "id": "pt.ine.add.PTCONT.4140454",
      "street": "CAM FOLGUEIRAO",
      "house": "506",
      "postcode": "4640-172",
      "city": "BAIÃO",
      "lon": "-8.05168918990994",
      "lat": "41.16599617601989"
    },
    {
      "id": "pt.ine.add.PTCONT.4155567",
      "street": "R ALMOFRELA",
      "house": "1131",
      "postcode": "4640-101",
      "city": "BAIÃO",
      "lon": "-8.05709952419551",
      "lat": "41.17573359385445"
    },
    {
      "id": "pt.ine.add.PTCONT.4169465",
      "street": "CAM EIDO BAIXO",
      "house": "163",
      "postcode": "4640-101",
      "city": "BAIÃO",
      "lon": "-8.057741553309139",
      "lat": "41.177048652048406"
    },
    {
      "id": "pt.ine.add.PTCONT.4212070",
      "street": "CAM EIDO BAIXO",
      "house": "",
      "postcode": "4640-101",
      "city": "BAIÃO",
      "lon": "-8.057968203246322",
      "lat": "41.1768597086274"
    },
    {
      "id": "pt.ine.add.PTCONT.4227168",
      "street": "CAM EIDO BAIXO",
      "house": "29",
      "postcode": "4640-101",
      "city": "BAIÃO",
      "lon": "-8.057445002497623",
      "lat": "41.1758418736313"
    },
    {
      "id": "pt.ine.add.PTCONT.4266608",
      "street": "R ALMOFRELA",
      "house": "1423",
      "postcode": "4640-101",
      "city": "BAIÃO",
      "lon": "-8.058050608398531",
      "lat": "41.177751193680166"
    },
    {
      "id": "pt.ine.add.PTCONT.4283318",
      "street": "R ALMOFRELA",
      "house": "1423",
      "postcode": "4640-101",
      "city": "BAIÃO",
      "lon": "-8.057824141203252",
      "lat": "41.17777805894618"
    }
  ]
}