{
  "data": {
    "distrito": "Setúbal",
    "concelho": "Barreiro",
    "freguesia": "União das freguesias de Barreiro e Lavradio",
    "OBJECTID": 432,
    "BGRI2021": "15041001803",
    "DT21": "15",
    "DTMN21": "1504",
    "DTMNFR21": "150410",
    "DTMNFRSEC21": "150410018",
    "SECNUM21": "018",
    "SSNUM21": "03",
    "SECSSNUM21": "01803",
    "OBJECTID_1": 162791,
    "DT": "15",
    "CC": "04",
    "fr": "10",
    "SEC": "018",
    "SS": "03"
  },
  "addresses": [
    {
      "id": "pt.ine.add.PTCONT.4763085",
      "street": "TV LOUREIRO",
      "house": "43",
      "postcode": "2830-392",
      "city": "BARREIRO",
      "lon": "-9.077797410802699",
      "lat": "38.663539870309705"
    },
    {
      "id": "pt.ine.add.PTCONT.4795418",
      "street": "R AMOREIRA",
      "house": "26",
      "postcode": "2830-329",
      "city": "BARREIRO",
      "lon": "-9.0777071631544",
      "lat": "38.66366671121624"
    },
    {
      "id": "pt.ine.add.PTCONT.4829486",
      "street": "R AMOREIRA",
      "house": "28 32",
      "postcode": "2830-329",
      "city": "BARREIRO",
      "lon": "-9.0776488945391",
      "lat": "38.663604125778846"
    },
    {
      "id": "pt.ine.add.PTCONT.4912553",
      "street": "R ALM REIS",
      "house": "88",
      "postcode": "2830-326",
      "city": "BARREIRO",
      "lon": "-9.078029065656786",
      "lat": "38.66368212704121"
    },
    {
      "id": "pt.ine.add.PTCONT.4926195",
      "street": "R ALM REIS",
      "house": "20 94",
      "postcode": "2830-326",
      "city": "BARREIRO",
      "lon": "-9.07780036948142",
      "lat": "38.66376504644264"
    },
    {
      "id": "pt.ine.add.PTCONT.4948380",
      "street": "R AMOREIRA",
      "house": "34",
      "postcode": "2830-329",
      "city": "BARREIRO",
      "lon": "-9.077602350713558",
      "lat": "38.6635594616342"
    },
    {
      "id": "pt.ine.add.PTCONT.4965976",
      "street": "R ALM REIS",
      "house": "92",
      "postcode": "2830-326",
      "city": "BARREIRO",
      "lon": "-9.077937516231952",
      "lat": "38.66370989062788"
    },
    {
      "id": "pt.ine.add.PTCONT.5009209",
      "street": "TV LOUREIRO",
      "house": "41",
      "postcode": "2830-392",
      "city": "BARREIRO",
      "lon": "-9.077855324430617",
      "lat": "38.66357543453701"
    },
    {
      "id": "pt.ine.add.PTCONT.5029615",
      "street": "R AMOREIRA",
      "house": "22 24",
      "postcode": "2830-329",
      "city": "BARREIRO",
      "lon": "-9.077753943798589",
      "lat": "38.663729389407344"
    },
    {
      "id": "pt.ine.add.PTCONT.5105153",
      "street": "TV PRIOR",
      "house": "10",
      "postcode": "2830-396",
      "city": "BARREIRO",
      "lon": "-9.077647711260195",
      "lat": "38.66351405532033"
    },
    {
      "id": "pt.ine.add.PTCONT.5110605",
      "street": "TV LOUREIRO",
      "house": "27 31",
      "postcode": "2830-392",
      "city": "BARREIRO",
      "lon": "-9.078028473776913",
      "lat": "38.66363709181768"
    },
    {
      "id": "pt.ine.add.PTCONT.5118039",
      "street": "TV LOUREIRO",
      "house": "33 38",
      "postcode": "2830-392",
      "city": "BARREIRO",
      "lon": "-9.077971033488984",
      "lat": "38.663637555857875"
    },
    {
      "id": "pt.ine.add.PTCONT.5127496",
      "street": "TV LOUREIRO",
      "house": "37 39",
      "postcode": "2830-392",
      "city": "BARREIRO",
      "lon": "-9.077935859130545",
      "lat": "38.66358379199831"
    }
  ]
}