{
  "data": {
    "distrito": "Faro",
    "concelho": "Loulé",
    "freguesia": "Almancil",
    "OBJECTID": 1359,
    "BGRI2021": "08080101416",
    "DT21": "08",
    "DTMN21": "0808",
    "DTMNFR21": "080801",
    "DTMNFRSEC21": "080801014",
    "SECNUM21": "014",
    "SSNUM21": "16",
    "SECSSNUM21": "01416",
    "OBJECTID_1": 68722,
    "DT": "08",
    "CC": "08",
    "fr": "01",
    "SEC": "014",
    "SS": "16"
  },
  "addresses": [
    {
      "id": "pt.ine.add.PTCONT.1468471",
      "street": "R FIGUEIRAL B",
      "house": "B",
      "postcode": "8135-117",
      "city": "ALMANCIL",
      "lon": "-8.033926715414845",
      "lat": "37.080562524916694"
    },
    {
      "id": "pt.ine.add.PTCONT.1476056",
      "street": "R CRISTÓVÃO PIRES NORTE",
      "house": "",
      "postcode": "8135-117",
      "city": "ALMANCIL",
      "lon": "-8.03636675939337",
      "lat": "37.08088892537744"
    },
    {
      "id": "pt.ine.add.PTCONT.1496407",
      "street": "R CRISTÓVÃO PIRES NORTE VILA ALEGRE",
      "house": "3",
      "postcode": "8135-117",
      "city": "ALMANCIL",
      "lon": "-8.035680591235387",
      "lat": "37.08099649207614"
    },
    {
      "id": "pt.ine.add.PTCONT.1500473",
      "street": "R FIGUEIRAL",
      "house": "228N",
      "postcode": "8135-117",
      "city": "ALMANCIL",
      "lon": "-8.033780701063844",
      "lat": "37.08041823156101"
    },
    {
      "id": "pt.ine.add.PTCONT.1500474",
      "street": "R FIGUEIRAL",
      "house": "S N",
      "postcode": "8135-117",
      "city": "ALMANCIL",
      "lon": "-8.033780701063844",
      "lat": "37.08041823156101"
    },
    {
      "id": "pt.ine.add.PTCONT.1505294",
      "street": "R CRISTÓVÃO PIRES NORTE",
      "house": "2",
      "postcode": "8135-117",
      "city": "ALMANCIL",
      "lon": "-8.035906577694869",
      "lat": "37.08016769330507"
    },
    {
      "id": "pt.ine.add.PTCONT.1528984",
      "street": "PTO FIGUEIRAL",
      "house": "FR C",
      "postcode": "8135-117",
      "city": "ALMANCIL",
      "lon": "-8.03617617876687",
      "lat": "37.08041120279862"
    },
    {
      "id": "pt.ine.add.PTCONT.1530923",
      "street": "BARROS ALMANCIL",
      "house": "D",
      "postcode": "8135-117",
      "city": "ALMANCIL",
      "lon": "-8.036367034175498",
      "lat": "37.080672668862185"
    },
    {
      "id": "pt.ine.add.PTCONT.1532958",
      "street": "R CRISTÓVÃO PIRES NORTE",
      "house": "443",
      "postcode": "8135-117",
      "city": "ALMANCIL",
      "lon": "-8.036591687198005",
      "lat": "37.08088910862962"
    },
    {
      "id": "pt.ine.add.PTCONT.1532969",
      "street": "R CRISTÓVÃO PIRES NORTE",
      "house": "443",
      "postcode": "8135-117",
      "city": "ALMANCIL",
      "lon": "-8.036591687198005",
      "lat": "37.08088910862962"
    },
    {
      "id": "pt.ine.add.PTCONT.1534171",
      "street": "R FIGUEIRAL",
      "house": "C",
      "postcode": "8135-117",
      "city": "ALMANCIL",
      "lon": "-8.034106680307158",
      "lat": "37.08054465387764"
    },
    {
      "id": "pt.ine.add.PTCONT.1540402",
      "street": "R FIGUEIRAL",
      "house": "",
      "postcode": "8135-117",
      "city": "ALMANCIL",
      "lon": "-8.034206574693478",
      "lat": "37.08156294596863"
    },
    {
      "id": "pt.ine.add.PTCONT.1540403",
      "street": "R CRISTÓVÃO PIRES NORTE",
      "house": "341",
      "postcode": "8135-117",
      "city": "ALMANCIL",
      "lon": "-8.036287954451673",
      "lat": "37.08095193595369"
    },
    {
      "id": "pt.ine.add.PTCONT.1548356",
      "street": "R FIGUEIRAL",
      "house": "D",
      "postcode": "8135-117",
      "city": "ALMANCIL",
      "lon": "-8.034241601268288",
      "lat": "37.08057179851463"
    },
    {
      "id": "pt.ine.add.PTCONT.1566404",
      "street": "R FIGUEIRAL CASA B",
      "house": "CASA B",
      "postcode": "8135-117",
      "city": "ALMANCIL",
      "lon": "-8.036153559909781",
      "lat": "37.08051030198822"
    },
    {
      "id": "pt.ine.add.PTCONT.1595126",
      "street": "R CRISTÓVÃO PIRES NORTE",
      "house": "5",
      "postcode": "8135-117",
      "city": "ALMANCIL",
      "lon": "-8.035895619030004",
      "lat": "37.07994241685991"
    },
    {
      "id": "pt.ine.add.PTCONT.1595127",
      "street": "R CRISTÓVÃO PIRES NORTE",
      "house": "366",
      "postcode": "8135-117",
      "city": "ALMANCIL",
      "lon": "-8.03663797430663",
      "lat": "37.07986192670287"
    },
    {
      "id": "pt.ine.add.PTCONT.1604014",
      "street": "R CRISTÓVÃO PIRES NORTE",
      "house": "363",
      "postcode": "8135-117",
      "city": "ALMANCIL",
      "lon": "-8.036974872256195",
      "lat": "37.08024966028747"
    },
    {
      "id": "pt.ine.add.PTCONT.1604015",
      "street": "R CRISTÓVÃO PIRES NORTE",
      "house": "363",
      "postcode": "8135-117",
      "city": "ALMANCIL",
      "lon": "-8.036974872256195",
      "lat": "37.08024966028747"
    },
    {
      "id": "pt.ine.add.PTCONT.1604016",
      "street": "R CRISTÓVÃO PIRES NORTE",
      "house": "343N",
      "postcode": "8135-117",
      "city": "ALMANCIL",
      "lon": "-8.036501670342487",
      "lat": "37.080925078131855"
    },
    {
      "id": "pt.ine.add.PTCONT.1604017",
      "street": "R CRISTÓVÃO PIRES NORTE",
      "house": "343N",
      "postcode": "8135-117",
      "city": "ALMANCIL",
      "lon": "-8.036501670342487",
      "lat": "37.080925078131855"
    },
    {
      "id": "pt.ine.add.PTCONT.1622884",
      "street": "R CRISTÓVÃO PIRES NORTE",
      "house": "335",
      "postcode": "8135-117",
      "city": "ALMANCIL",
      "lon": "-8.035984117753706",
      "lat": "37.0810958586871"
    },
    {
      "id": "pt.ine.add.PTCONT.1625665",
      "street": "BARROS ALMANCIL",
      "house": "E",
      "postcode": "8135-117",
      "city": "ALMANCIL",
      "lon": "-8.036389629910566",
      "lat": "37.080591591011135"
    },
    {
      "id": "pt.ine.add.PTCONT.1663102",
      "street": "R CRISTÓVÃO PIRES NORTE",
      "house": "A",
      "postcode": "8135-117",
      "city": "ALMANCIL",
      "lon": "-8.036130940993539",
      "lat": "37.08060940117177"
    },
    {
      "id": "pt.ine.add.PTCONT.1672552",
      "street": "R CRISTÓVÃO PIRES NORTE",
      "house": "315N",
      "postcode": "8135-117",
      "city": "ALMANCIL",
      "lon": "-8.035038768467981",
      "lat": "37.08159967978566"
    },
    {
      "id": "pt.ine.add.PTCONT.1672553",
      "street": "R CRISTÓVÃO PIRES NORTE",
      "house": "315N",
      "postcode": "8135-117",
      "city": "ALMANCIL",
      "lon": "-8.035038768467981",
      "lat": "37.08159967978566"
    },
    {
      "id": "pt.ine.add.PTCONT.1673533",
      "street": "R FIGUEIRAL",
      "house": "",
      "postcode": "8135-117",
      "city": "ALMANCIL",
      "lon": "-8.034217294500484",
      "lat": "37.081968436218915"
    },
    {
      "id": "pt.ine.add.PTCONT.1673534",
      "street": "R FIGUEIRAL",
      "house": "3",
      "postcode": "8135-117",
      "city": "ALMANCIL",
      "lon": "-8.034217294500484",
      "lat": "37.081968436218915"
    },
    {
      "id": "pt.ine.add.PTCONT.1673535",
      "street": "R FIGUEIRAL",
      "house": "3",
      "postcode": "8135-117",
      "city": "ALMANCIL",
      "lon": "-8.034217294500484",
      "lat": "37.081968436218915"
    },
    {
      "id": "pt.ine.add.PTCONT.1674975",
      "street": "R FIGUEIRAL",
      "house": "3",
      "postcode": "8135-117",
      "city": "ALMANCIL",
      "lon": "-8.034217294500484",
      "lat": "37.081968436218915"
    },
    {
      "id": "pt.ine.add.PTCONT.1679201",
      "street": "R CRISTOVAO PIRES NORTE E",
      "house": "E",
      "postcode": "8135-117",
      "city": "ALMANCIL",
      "lon": "-8.035387791466329",
      "lat": "37.08130261488692"
    },
    {
      "id": "pt.ine.add.PTCONT.1679202",
      "street": "R CRISTOVAO PIRES NORTE B",
      "house": "B",
      "postcode": "8135-117",
      "city": "ALMANCIL",
      "lon": "-8.035387791466329",
      "lat": "37.08130261488692"
    },
    {
      "id": "pt.ine.add.PTCONT.1683068",
      "street": "R SEM NOME CASA AILSA",
      "house": "2",
      "postcode": "8135-117",
      "city": "ALMANCIL",
      "lon": "-8.035771161511237",
      "lat": "37.08052801017268"
    },
    {
      "id": "pt.ine.add.PTCONT.1690190",
      "street": "R CRISTÓVÃO PIRES NORTE",
      "house": "339N",
      "postcode": "8135-117",
      "city": "ALMANCIL",
      "lon": "-8.036343957407746",
      "lat": "37.08113219559881"
    },
    {
      "id": "pt.ine.add.PTCONT.1693276",
      "street": "R CRISTÓVÃO PIRES NORTE",
      "house": "337",
      "postcode": "8135-117",
      "city": "ALMANCIL",
      "lon": "-8.036028908116302",
      "lat": "37.08124907720357"
    },
    {
      "id": "pt.ine.add.PTCONT.1693280",
      "street": "R FIGUEIRAL",
      "house": "E",
      "postcode": "8135-117",
      "city": "ALMANCIL",
      "lon": "-8.034399050065518",
      "lat": "37.08057192965618"
    },
    {
      "id": "pt.ine.add.PTCONT.1694644",
      "street": "R CRISTÓVÃO PIRES NORTE",
      "house": "337",
      "postcode": "8135-117",
      "city": "ALMANCIL",
      "lon": "-8.036028908116302",
      "lat": "37.08124907720357"
    },
    {
      "id": "pt.ine.add.PTCONT.1696522",
      "street": "R CRISTÓVÃO PIRES NORTE",
      "house": "359",
      "postcode": "8135-117",
      "city": "ALMANCIL",
      "lon": "-8.03664788490133",
      "lat": "37.08091618644009"
    },
    {
      "id": "pt.ine.add.PTCONT.1696646",
      "street": "R CRISTÓVÃO PIRES NORTE",
      "house": "343N",
      "postcode": "8135-117",
      "city": "ALMANCIL",
      "lon": "-8.0365694229236",
      "lat": "37.08070887656036"
    },
    {
      "id": "pt.ine.add.PTCONT.1696647",
      "street": "R CRISTÓVÃO PIRES NORTE CASA DOS VITRAIS",
      "house": "",
      "postcode": "8135-117",
      "city": "ALMANCIL",
      "lon": "-8.035310142731507",
      "lat": "37.080464556041726"
    },
    {
      "id": "pt.ine.add.PTCONT.1696648",
      "street": "R CRISTOVAO PIRES NORTE A",
      "house": "A",
      "postcode": "8135-117",
      "city": "ALMANCIL",
      "lon": "-8.035376637548655",
      "lat": "37.08123052012314"
    },
    {
      "id": "pt.ine.add.PTCONT.1697405",
      "street": "R CRISTOVAO PIRES NORTE D",
      "house": "D",
      "postcode": "8135-117",
      "city": "ALMANCIL",
      "lon": "-8.035376637548655",
      "lat": "37.08123052012314"
    },
    {
      "id": "pt.ine.add.PTCONT.1707455",
      "street": "R CRISTÓVÃO PIRES NORTE CASA FREESIA",
      "house": "1",
      "postcode": "8135-117",
      "city": "ALMANCIL",
      "lon": "-8.03590607153688",
      "lat": "37.080564163605445"
    },
    {
      "id": "pt.ine.add.PTCONT.1716280",
      "street": "R CRISTOVAO PIRES NORTE",
      "house": "",
      "postcode": "8135-117",
      "city": "ALMANCIL",
      "lon": "-8.035398956969036",
      "lat": "37.08136569896182"
    },
    {
      "id": "pt.ine.add.PTCONT.1716281",
      "street": "R CRISTOVAO PIRES NORTE",
      "house": "8",
      "postcode": "8135-117",
      "city": "ALMANCIL",
      "lon": "-8.035398956969036",
      "lat": "37.08136569896182"
    },
    {
      "id": "pt.ine.add.PTCONT.1727594",
      "street": "R CRISTÓVÃO PIRES NORTE",
      "house": "341",
      "postcode": "8135-117",
      "city": "ALMANCIL",
      "lon": "-8.036265392884681",
      "lat": "37.08100598171688"
    },
    {
      "id": "pt.ine.add.PTCONT.1730478",
      "street": "R FIGUEIRAL",
      "house": "",
      "postcode": "8135-117",
      "city": "ALMANCIL",
      "lon": "-8.033758302486813",
      "lat": "37.08034612721781"
    },
    {
      "id": "pt.ine.add.PTCONT.1734178",
      "street": "R CRISTÓVÃO PIRES NORTE VILA NOVA",
      "house": "",
      "postcode": "8135-117",
      "city": "ALMANCIL",
      "lon": "-8.035378233695972",
      "lat": "37.07998704516083"
    },
    {
      "id": "pt.ine.add.PTCONT.1739040",
      "street": "R FIGUEIRAL",
      "house": "1",
      "postcode": "8135-117",
      "city": "ALMANCIL",
      "lon": "-8.034295844919805",
      "lat": "37.08210366211904"
    },
    {
      "id": "pt.ine.add.PTCONT.1745255",
      "street": "R FIGUEIRAL",
      "house": "A",
      "postcode": "8135-117",
      "city": "ALMANCIL",
      "lon": "-8.033791818091034",
      "lat": "37.08051735854599"
    },
    {
      "id": "pt.ine.add.PTCONT.1745258",
      "street": "R CRISTÓVÃO PIRES NORTE",
      "house": "361",
      "postcode": "8135-117",
      "city": "ALMANCIL",
      "lon": "-8.03668233162245",
      "lat": "37.08035755119197"
    },
    {
      "id": "pt.ine.add.PTCONT.1745265",
      "street": "PTO FIGUEIRAL",
      "house": "F",
      "postcode": "8135-117",
      "city": "ALMANCIL",
      "lon": "-8.03642350625895",
      "lat": "37.080483490257215"
    },
    {
      "id": "pt.ine.add.PTCONT.1751298",
      "street": "R CRISTÓVÃO PIRES NORTE",
      "house": "305",
      "postcode": "8135-117",
      "city": "ALMANCIL",
      "lon": "-8.034824666311168",
      "lat": "37.081923887609754"
    },
    {
      "id": "pt.ine.add.PTCONT.1760467",
      "street": "R CRISTÓVÃO PIRES NORTE VILLA MISOFIA",
      "house": "",
      "postcode": "8135-117",
      "city": "ALMANCIL",
      "lon": "-8.035851301600859",
      "lat": "37.07941975997938"
    },
    {
      "id": "pt.ine.add.PTCONT.1790362",
      "street": "R CRISTÓVÃO PIRES NORTE",
      "house": "4",
      "postcode": "8135-117",
      "city": "ALMANCIL",
      "lon": "-8.035906784756643",
      "lat": "37.080005500901805"
    },
    {
      "id": "pt.ine.add.PTCONT.1797230",
      "street": "R FIGUEIRAL",
      "house": "",
      "postcode": "8135-117",
      "city": "ALMANCIL",
      "lon": "-8.034263520743773",
      "lat": "37.08101334095197"
    },
    {
      "id": "pt.ine.add.PTCONT.1797231",
      "street": "R CRISTÓVÃO PIRES NORTE",
      "house": "3",
      "postcode": "8135-117",
      "city": "ALMANCIL",
      "lon": "-8.035906681225965",
      "lat": "37.080086597104"
    },
    {
      "id": "pt.ine.add.PTCONT.1798428",
      "street": "R CRISTÓVÃO PIRES NORTE",
      "house": "333",
      "postcode": "8135-117",
      "city": "ALMANCIL",
      "lon": "-8.035803875607115",
      "lat": "37.08132998906749"
    },
    {
      "id": "pt.ine.add.PTCONT.1799119",
      "street": "R CRISTÓVÃO PIRES NORTE",
      "house": "333",
      "postcode": "8135-117",
      "city": "ALMANCIL",
      "lon": "-8.035803875607115",
      "lat": "37.08132998906749"
    },
    {
      "id": "pt.ine.add.PTCONT.1802357",
      "street": "R CRISTÓVÃO PIRES NORTE",
      "house": "1",
      "postcode": "8135-117",
      "city": "ALMANCIL",
      "lon": "-8.03591775496539",
      "lat": "37.08022176665475"
    },
    {
      "id": "pt.ine.add.PTCONT.1806778",
      "street": "R FIGUEIRAL VILA DEL SOL",
      "house": "APT 3357",
      "postcode": "8135-117",
      "city": "ALMANCIL",
      "lon": "-8.034161307681956",
      "lat": "37.081779164915545"
    },
    {
      "id": "pt.ine.add.PTCONT.1808072",
      "street": "R CRISTÓVÃO PIRES NORTE",
      "house": "343N",
      "postcode": "8135-117",
      "city": "ALMANCIL",
      "lon": "-8.036434214851877",
      "lat": "37.08090700177383"
    },
    {
      "id": "pt.ine.add.PTCONT.1828236",
      "street": "R CRISTÓVÃO PIRES NORTE",
      "house": "6",
      "postcode": "8135-117",
      "city": "ALMANCIL",
      "lon": "-8.035895699562644",
      "lat": "37.07987934203457"
    },
    {
      "id": "pt.ine.add.PTCONT.1833851",
      "street": "R FIGUEIRAL",
      "house": "224N",
      "postcode": "8135-117",
      "city": "ALMANCIL",
      "lon": "-8.034060546174524",
      "lat": "37.08142766366484"
    },
    {
      "id": "pt.ine.add.PTCONT.1833854",
      "street": "R CRISTÓVÃO PIRES NORTE",
      "house": "359",
      "postcode": "8135-117",
      "city": "ALMANCIL",
      "lon": "-8.036738015731123",
      "lat": "37.080790109945205"
    },
    {
      "id": "pt.ine.add.PTCONT.1833857",
      "street": "R CRISTÓVÃO PIRES NORTE",
      "house": "365",
      "postcode": "8135-117",
      "city": "ALMANCIL",
      "lon": "-8.036795284868857",
      "lat": "37.07997018293592"
    },
    {
      "id": "pt.ine.add.PTCONT.1833858",
      "street": "R CRISTÓVÃO PIRES NORTE",
      "house": "365",
      "postcode": "8135-117",
      "city": "ALMANCIL",
      "lon": "-8.036795284868857",
      "lat": "37.07997018293592"
    },
    {
      "id": "pt.ine.add.PTCONT.1839547",
      "street": "R CRISTÓVÃO PIRES NORTE",
      "house": "",
      "postcode": "8135-117",
      "city": "ALMANCIL",
      "lon": "-8.035297507304971",
      "lat": "37.08154582926876"
    }
  ]
}