{
  "data": {
    "distrito": "Évora",
    "concelho": "Montemor-O-Novo",
    "freguesia": "União das freguesias de Nossa Senhora da Vila, Nossa Senhora do Bispo e Silveiras",
    "OBJECTID": 201,
    "BGRI2021": "07061200316",
    "DT21": "07",
    "DTMN21": "0706",
    "DTMNFR21": "070612",
    "DTMNFRSEC21": "070612003",
    "SECNUM21": "003",
    "SSNUM21": "16",
    "SECSSNUM21": "00316",
    "OBJECTID_1": 61955,
    "DT": "07",
    "CC": "06",
    "fr": "12",
    "SEC": "003",
    "SS": "16"
  },
  "addresses": [
    {
      "id": "pt.ine.add.PTCONT.1374984",
      "street": "R LUIS FREITAS BRANCO",
      "house": "25",
      "postcode": "7050-259",
      "city": "MONTEMOR-O-NOVO",
      "lon": "-8.220485889451487",
      "lat": "38.65278561477375"
    },
    {
      "id": "pt.ine.add.PTCONT.1374985",
      "street": "R LUIS FREITAS BRANCO",
      "house": "15",
      "postcode": "7050-259",
      "city": "MONTEMOR-O-NOVO",
      "lon": "-8.220485889451487",
      "lat": "38.65278561477375"
    },
    {
      "id": "pt.ine.add.PTCONT.1384457",
      "street": "R CARLOS OLIVEIRA",
      "house": "22",
      "postcode": "7050-159",
      "city": "MONTEMOR-O-NOVO",
      "lon": "-8.219984211225897",
      "lat": "38.65230821316209"
    },
    {
      "id": "pt.ine.add.PTCONT.1385386",
      "street": "R CARLOS OLIVEIRA",
      "house": "28",
      "postcode": "7050-159",
      "city": "MONTEMOR-O-NOVO",
      "lon": "-8.219567219740775",
      "lat": "38.65200903434303"
    },
    {
      "id": "pt.ine.add.PTCONT.1408521",
      "street": "R JOSE HILARIO BRITO CORREIA",
      "house": "7",
      "postcode": "7050-257",
      "city": "MONTEMOR-O-NOVO",
      "lon": "-8.220336100708044",
      "lat": "38.65213628486218"
    },
    {
      "id": "pt.ine.add.PTCONT.1408522",
      "street": "R JOSE HILARIO BRITO CORREIA",
      "house": "7",
      "postcode": "7050-257",
      "city": "MONTEMOR-O-NOVO",
      "lon": "-8.220336100708044",
      "lat": "38.65213628486218"
    },
    {
      "id": "pt.ine.add.PTCONT.1414564",
      "street": "R LUIS DE FREITAS BRANCO",
      "house": "17",
      "postcode": "7050-259",
      "city": "MONTEMOR-O-NOVO",
      "lon": "-8.220638249449298",
      "lat": "38.652767343768105"
    },
    {
      "id": "pt.ine.add.PTCONT.1417768",
      "street": "R CARLOS OLIVEIRA",
      "house": "26",
      "postcode": "7050-159",
      "city": "MONTEMOR-O-NOVO",
      "lon": "-8.21971327449396",
      "lat": "38.65210294040797"
    },
    {
      "id": "pt.ine.add.PTCONT.1428090",
      "street": "R JOSE HILARIO BRITO CORREIA",
      "house": "9",
      "postcode": "7050-257",
      "city": "MONTEMOR-O-NOVO",
      "lon": "-8.220225840001875",
      "lat": "38.65203304916492"
    },
    {
      "id": "pt.ine.add.PTCONT.1439551",
      "street": "R CARLOS OLIVEIRA",
      "house": "24",
      "postcode": "7050-159",
      "city": "MONTEMOR-O-NOVO",
      "lon": "-8.219848896120567",
      "lat": "38.65219850794707"
    },
    {
      "id": "pt.ine.add.PTCONT.1440316",
      "street": "R JOSE HILARIO BRITO CORREIA",
      "house": "1",
      "postcode": "7050-257",
      "city": "MONTEMOR-O-NOVO",
      "lon": "-8.220578109264153",
      "lat": "38.65254064114766"
    }
  ]
}