{
  "data": {
    "distrito": "Viana do Castelo",
    "concelho": "Viana do Castelo",
    "freguesia": "Afife",
    "OBJECTID": 709,
    "BGRI2021": "16090100218",
    "DT21": "16",
    "DTMN21": "1609",
    "DTMNFR21": "160901",
    "DTMNFRSEC21": "160901002",
    "SECNUM21": "002",
    "SSNUM21": "18",
    "SECSSNUM21": "00218",
    "OBJECTID_1": 178694,
    "DT": "16",
    "CC": "09",
    "fr": "01",
    "SEC": "002",
    "SS": "18"
  },
  "addresses": [
    {
      "id": "pt.ine.add.PTCONT.5145640",
      "street": "CAM MONTE AGUDO",
      "house": "166",
      "postcode": "4900-012",
      "city": "AFIFE",
      "lon": "-8.865767355725463",
      "lat": "41.78970171370311"
    },
    {
      "id": "pt.ine.add.PTCONT.5146848",
      "street": "ESTR PEDRO HOMEM DE MELLO",
      "house": "2437",
      "postcode": "4900-012",
      "city": "AFIFE",
      "lon": "-8.86465747947597",
      "lat": "41.78942968411725"
    },
    {
      "id": "pt.ine.add.PTCONT.5163029",
      "street": "CAM MONTE AGUDO CASA DO ELISEU",
      "house": "404",
      "postcode": "4900-012",
      "city": "AFIFE",
      "lon": "-8.866290185489042",
      "lat": "41.7891311693736"
    },
    {
      "id": "pt.ine.add.PTCONT.5169642",
      "street": "ESTR PEDRO HOMEM DE MELLO",
      "house": "",
      "postcode": "4900-012",
      "city": "AFIFE",
      "lon": "-8.863876457219565",
      "lat": "41.7884532938454"
    },
    {
      "id": "pt.ine.add.PTCONT.5187389",
      "street": "CAM FONTE GATENHA",
      "house": "",
      "postcode": "4900-012",
      "city": "AFIFE",
      "lon": "-8.864591813694",
      "lat": "41.786828144275766"
    },
    {
      "id": "pt.ine.add.PTCONT.5188880",
      "street": "CAM FONTE GATENHA",
      "house": "34",
      "postcode": "4900-012",
      "city": "AFIFE",
      "lon": "-8.864998746525066",
      "lat": "41.78664548611151"
    },
    {
      "id": "pt.ine.add.PTCONT.5209879",
      "street": "CAM MONTE AGUDO",
      "house": "258",
      "postcode": "4900-012",
      "city": "AFIFE",
      "lon": "-8.865383789214686",
      "lat": "41.78876781479268"
    },
    {
      "id": "pt.ine.add.PTCONT.5222798",
      "street": "ESTR PEDRO HOMEM DE MELLO",
      "house": "2335",
      "postcode": "4900-012",
      "city": "AFIFE",
      "lon": "-8.86402254553955",
      "lat": "41.788605420796955"
    },
    {
      "id": "pt.ine.add.PTCONT.5224719",
      "street": "CAM MONTE AGUDO",
      "house": "242",
      "postcode": "4900-012",
      "city": "AFIFE",
      "lon": "-8.86543457009481",
      "lat": "41.78900157723667"
    },
    {
      "id": "pt.ine.add.PTCONT.5228580",
      "street": "CC FONTE GATENHA",
      "house": "14",
      "postcode": "4900-012",
      "city": "AFIFE",
      "lon": "-8.86473472682485",
      "lat": "41.78670118776458"
    },
    {
      "id": "pt.ine.add.PTCONT.5229680",
      "street": "ESTR PEDRO HOMEM DE MELLO",
      "house": "2247",
      "postcode": "4900-012",
      "city": "AFIFE",
      "lon": "-8.863606603360598",
      "lat": "41.78799584106692"
    },
    {
      "id": "pt.ine.add.PTCONT.5229681",
      "street": "CAM FONTE GATENHA",
      "house": "",
      "postcode": "4900-012",
      "city": "AFIFE",
      "lon": "-8.863660309348475",
      "lat": "41.78742829065761"
    },
    {
      "id": "pt.ine.add.PTCONT.5230885",
      "street": "CAM MONTE AGUDO",
      "house": "",
      "postcode": "4900-012",
      "city": "AFIFE",
      "lon": "-8.865162859215495",
      "lat": "41.788382080362126"
    },
    {
      "id": "pt.ine.add.PTCONT.5230886",
      "street": "CAM MONTE AGUDO",
      "house": "",
      "postcode": "4900-012",
      "city": "AFIFE",
      "lon": "-8.865162859215495",
      "lat": "41.788382080362126"
    },
    {
      "id": "pt.ine.add.PTCONT.5236753",
      "street": "ESTR PEDRO HOMEM DE MELO",
      "house": "2561",
      "postcode": "4900-067",
      "city": "AFIFE",
      "lon": "-8.865294273868715",
      "lat": "41.79041599152925"
    },
    {
      "id": "pt.ine.add.PTCONT.5240312",
      "street": "CAM MONTE AGUDO",
      "house": "377",
      "postcode": "4900-012",
      "city": "AFIFE",
      "lon": "-8.864978633463705",
      "lat": "41.78805013153666"
    },
    {
      "id": "pt.ine.add.PTCONT.5240313",
      "street": "CAM MONTE AGUDO",
      "house": "377",
      "postcode": "4900-012",
      "city": "AFIFE",
      "lon": "-8.864978633463705",
      "lat": "41.78805013153666"
    },
    {
      "id": "pt.ine.add.PTCONT.5248071",
      "street": "ESTR PEDRO HOMEM DE MELLO",
      "house": "2359",
      "postcode": "4900-012",
      "city": "AFIFE",
      "lon": "-8.864132751491752",
      "lat": "41.78877578252693"
    },
    {
      "id": "pt.ine.add.PTCONT.5252215",
      "street": "CAM MONTE AGUDO",
      "house": "220",
      "postcode": "4900-012",
      "city": "AFIFE",
      "lon": "-8.865496765806887",
      "lat": "41.78918124699766"
    },
    {
      "id": "pt.ine.add.PTCONT.5253488",
      "street": "CAM MONTE AGUDO",
      "house": "340",
      "postcode": "4900-012",
      "city": "AFIFE",
      "lon": "-8.865051934384468",
      "lat": "41.78814870099014"
    },
    {
      "id": "pt.ine.add.PTCONT.5253489",
      "street": "CAM MONTE AGUDO",
      "house": "357",
      "postcode": "4900-012",
      "city": "AFIFE",
      "lon": "-8.865051934384468",
      "lat": "41.78814870099014"
    },
    {
      "id": "pt.ine.add.PTCONT.5259112",
      "street": "CAM MONTE AGUDO",
      "house": "301",
      "postcode": "4900-012",
      "city": "AFIFE",
      "lon": "-8.865224131649049",
      "lat": "41.78848072634893"
    },
    {
      "id": "pt.ine.add.PTCONT.5259113",
      "street": "CAM MONTE AGUDO",
      "house": "301",
      "postcode": "4900-012",
      "city": "AFIFE",
      "lon": "-8.865224131649049",
      "lat": "41.78848072634893"
    },
    {
      "id": "pt.ine.add.PTCONT.5264387",
      "street": "CAM MONTE AGUDO CASA DO SOLARIO",
      "house": "200",
      "postcode": "4900-012",
      "city": "AFIFE",
      "lon": "-8.86554693255614",
      "lat": "41.789360993413496"
    },
    {
      "id": "pt.ine.add.PTCONT.5281759",
      "street": "ESTR PEDRO HOMEM DE MELLO",
      "house": "",
      "postcode": "4900-012",
      "city": "AFIFE",
      "lon": "-8.864755863922888",
      "lat": "41.78961812712443"
    },
    {
      "id": "pt.ine.add.PTCONT.5285460",
      "street": "CAM MONTE AGUDO CASAL BORLIDO E CUSTA",
      "house": "144",
      "postcode": "4900-012",
      "city": "AFIFE",
      "lon": "-8.865950872598349",
      "lat": "41.78997064249584"
    }
  ]
}