{
  "data": {
    "distrito": "Santarém",
    "concelho": "Ourém",
    "freguesia": "Fátima",
    "OBJECTID": 551,
    "BGRI2021": "14210601001",
    "DT21": "14",
    "DTMN21": "1421",
    "DTMNFR21": "142106",
    "DTMNFRSEC21": "142106010",
    "SECNUM21": "010",
    "SSNUM21": "01",
    "SECSSNUM21": "01001",
    "OBJECTID_1": 159442,
    "DT": "14",
    "CC": "21",
    "fr": "06",
    "SEC": "010",
    "SS": "01"
  },
  "addresses": [
    {
      "id": "pt.ine.add.PTCONT.4405379",
      "street": "ESTR MINDE",
      "house": "776",
      "postcode": "2495-301",
      "city": "FÁTIMA",
      "lon": "-8.661012790292185",
      "lat": "39.616639181289734"
    },
    {
      "id": "pt.ine.add.PTCONT.4407576",
      "street": "ESTR MINDE",
      "house": "764",
      "postcode": "2495-301",
      "city": "FÁTIMA",
      "lon": "-8.66079791275096",
      "lat": "39.61594663972723"
    },
    {
      "id": "pt.ine.add.PTCONT.4419760",
      "street": "ESTR MINDE",
      "house": "707",
      "postcode": "2495-301",
      "city": "FÁTIMA",
      "lon": "-8.660869902904079",
      "lat": "39.6162255211769"
    },
    {
      "id": "pt.ine.add.PTCONT.4512943",
      "street": "R CENTEEIRA",
      "house": "7",
      "postcode": "2495-301",
      "city": "FÁTIMA",
      "lon": "-8.660519390375743",
      "lat": "39.61607399861383"
    },
    {
      "id": "pt.ine.add.PTCONT.4515090",
      "street": "R CENTEEIRA",
      "house": "11",
      "postcode": "2495-301",
      "city": "FÁTIMA",
      "lon": "-8.6601717482727",
      "lat": "39.61630074439725"
    },
    {
      "id": "pt.ine.add.PTCONT.4516403",
      "street": "ESTR MINDE",
      "house": "709",
      "postcode": "2495-301",
      "city": "FÁTIMA",
      "lon": "-8.660905795597035",
      "lat": "39.616351452258634"
    },
    {
      "id": "pt.ine.add.PTCONT.4591631",
      "street": "ESTR MINDE",
      "house": "774",
      "postcode": "2495-301",
      "city": "FÁTIMA",
      "lon": "-8.660755093932938",
      "lat": "39.61644220404403"
    },
    {
      "id": "pt.ine.add.PTCONT.4610276",
      "street": "R ALJUSTREL",
      "house": "6",
      "postcode": "2495-301",
      "city": "FÁTIMA",
      "lon": "-8.660690283428051",
      "lat": "39.617108995913085"
    },
    {
      "id": "pt.ine.add.PTCONT.4639239",
      "street": "R ALJUSTREL",
      "house": "14",
      "postcode": "2495-301",
      "city": "FÁTIMA",
      "lon": "-8.659653454104536",
      "lat": "39.617059659399416"
    }
  ]
}