{
  "data": {
    "distrito": "Leiria",
    "concelho": "Caldas da Rainha",
    "freguesia": "União das freguesias de Caldas da Rainha - Nossa Senhora do Pópulo, Coto e São Gregório",
    "OBJECTID": 847,
    "BGRI2021": "10061700605",
    "DT21": "10",
    "DTMN21": "1006",
    "DTMNFR21": "100617",
    "DTMNFRSEC21": "100617006",
    "SECNUM21": "006",
    "SSNUM21": "05",
    "SECSSNUM21": "00605",
    "OBJECTID_1": 88334,
    "DT": "10",
    "CC": "06",
    "fr": "17",
    "SEC": "006",
    "SS": "05"
  },
  "addresses": [
    {
      "id": "pt.ine.add.PTCONT.1986924",
      "street": "BC FLORES",
      "house": "11",
      "postcode": "2500-278",
      "city": "CALDAS DA RAINHA",
      "lon": "-9.13164578294582",
      "lat": "39.389757556385554"
    },
    {
      "id": "pt.ine.add.PTCONT.2004445",
      "street": "R ORFEAO CALDENSE",
      "house": "1",
      "postcode": "2500-278",
      "city": "CALDAS DA RAINHA",
      "lon": "-9.13206192976318",
      "lat": "39.389636894591575"
    },
    {
      "id": "pt.ine.add.PTCONT.2004446",
      "street": "R ORFEAO CALDENSE",
      "house": "1",
      "postcode": "2500-278",
      "city": "CALDAS DA RAINHA",
      "lon": "-9.13206192976318",
      "lat": "39.389636894591575"
    },
    {
      "id": "pt.ine.add.PTCONT.2008888",
      "street": "R ADELAIDE PEREIRA",
      "house": "1",
      "postcode": "2500-120",
      "city": "CALDAS DA RAINHA",
      "lon": "-9.132126638167612",
      "lat": "39.39010469666385"
    },
    {
      "id": "pt.ine.add.PTCONT.2013248",
      "street": "BC FLORES",
      "house": "2-12",
      "postcode": "2500-278",
      "city": "CALDAS DA RAINHA",
      "lon": "-9.131752676330054",
      "lat": "39.38992776961107"
    },
    {
      "id": "pt.ine.add.PTCONT.2015470",
      "street": "BC FLORES",
      "house": "10",
      "postcode": "2500-278",
      "city": "CALDAS DA RAINHA",
      "lon": "-9.131576018523887",
      "lat": "39.38974914824602"
    },
    {
      "id": "pt.ine.add.PTCONT.2015471",
      "street": "R ORFEAO CALDENSE",
      "house": "7",
      "postcode": "2500-278",
      "city": "CALDAS DA RAINHA",
      "lon": "-9.131864756347973",
      "lat": "39.38964759426913"
    },
    {
      "id": "pt.ine.add.PTCONT.2015472",
      "street": "R ORFEAO CALDENSE",
      "house": "9",
      "postcode": "2500-278",
      "city": "CALDAS DA RAINHA",
      "lon": "-9.131864756347973",
      "lat": "39.38964759426913"
    },
    {
      "id": "pt.ine.add.PTCONT.2055155",
      "street": "R BERNARDINO SIMÕES",
      "house": "16",
      "postcode": "2500-138",
      "city": "CALDAS DA RAINHA",
      "lon": "-9.131849119755751",
      "lat": "39.390179134343406"
    },
    {
      "id": "pt.ine.add.PTCONT.2087785",
      "street": "R S CRISTÓVÃO",
      "house": "23",
      "postcode": "2500-278",
      "city": "CALDAS DA RAINHA",
      "lon": "-9.131345438314998",
      "lat": "39.38985920940752"
    },
    {
      "id": "pt.ine.add.PTCONT.2104213",
      "street": "R ORFEAO CALDENSE",
      "house": "",
      "postcode": "2500-278",
      "city": "CALDAS DA RAINHA",
      "lon": "-9.131725227692595",
      "lat": "39.389630778208165"
    },
    {
      "id": "pt.ine.add.PTCONT.2112949",
      "street": "R BERNARDINO SIMÕES",
      "house": "9 A",
      "postcode": "2500-138",
      "city": "CALDAS DA RAINHA",
      "lon": "-9.131384491531072",
      "lat": "39.39015610132397"
    },
    {
      "id": "pt.ine.add.PTCONT.2112950",
      "street": "R BERNARDINO SIMÕES",
      "house": "9 A",
      "postcode": "2500-138",
      "city": "CALDAS DA RAINHA",
      "lon": "-9.131384491531072",
      "lat": "39.39015610132397"
    },
    {
      "id": "pt.ine.add.PTCONT.2112951",
      "street": "R BERNARDINO SIMÕES",
      "house": "9 A",
      "postcode": "2500-138",
      "city": "CALDAS DA RAINHA",
      "lon": "-9.131384491531072",
      "lat": "39.39015610132397"
    },
    {
      "id": "pt.ine.add.PTCONT.2112952",
      "street": "R BERNARDINO SIMÕES",
      "house": "9 A",
      "postcode": "2500-138",
      "city": "CALDAS DA RAINHA",
      "lon": "-9.131384491531072",
      "lat": "39.39015610132397"
    },
    {
      "id": "pt.ine.add.PTCONT.2123701",
      "street": "R ORFEAO CALDENSE",
      "house": "14",
      "postcode": "2500-278",
      "city": "CALDAS DA RAINHA",
      "lon": "-9.131562102051957",
      "lat": "39.389587143850356"
    },
    {
      "id": "pt.ine.add.PTCONT.2131066",
      "street": "R ORFEAO CALDENSE",
      "house": "5",
      "postcode": "2500-278",
      "city": "CALDAS DA RAINHA",
      "lon": "-9.131969210264417",
      "lat": "39.389646697539554"
    },
    {
      "id": "pt.ine.add.PTCONT.2131067",
      "street": "R ORFEAO CALDENSE",
      "house": "5",
      "postcode": "2500-278",
      "city": "CALDAS DA RAINHA",
      "lon": "-9.131969210264417",
      "lat": "39.389646697539554"
    },
    {
      "id": "pt.ine.add.PTCONT.2133783",
      "street": "BC FLORES",
      "house": "9",
      "postcode": "2500-278",
      "city": "CALDAS DA RAINHA",
      "lon": "-9.131401928385104",
      "lat": "39.389750642158134"
    },
    {
      "id": "pt.ine.add.PTCONT.2198308",
      "street": "R ADELAIDE PEREIRA",
      "house": "3",
      "postcode": "2500-120",
      "city": "CALDAS DA RAINHA",
      "lon": "-9.132112848766479",
      "lat": "39.38995169813675"
    },
    {
      "id": "pt.ine.add.PTCONT.2198309",
      "street": "R ADELAIDE PEREIRA",
      "house": "3",
      "postcode": "2500-120",
      "city": "CALDAS DA RAINHA",
      "lon": "-9.132112848766479",
      "lat": "39.38995169813675"
    },
    {
      "id": "pt.ine.add.PTCONT.2199797",
      "street": "R ORFEAO CALDENSE",
      "house": "11",
      "postcode": "2500-278",
      "city": "CALDAS DA RAINHA",
      "lon": "-9.13178325763529",
      "lat": "39.38963028010644"
    },
    {
      "id": "pt.ine.add.PTCONT.2219551",
      "street": "BC FLORES",
      "house": "12",
      "postcode": "2500-278",
      "city": "CALDAS DA RAINHA",
      "lon": "-9.131737475587975",
      "lat": "39.389675707476165"
    },
    {
      "id": "pt.ine.add.PTCONT.2236745",
      "street": "R ORFEAO CALDENSE",
      "house": "13",
      "postcode": "2500-278",
      "city": "CALDAS DA RAINHA",
      "lon": "-9.131643600662851",
      "lat": "39.389604458169444"
    },
    {
      "id": "pt.ine.add.PTCONT.2246489",
      "street": "R BERNARDINO SIMÕES",
      "house": "14",
      "postcode": "2500-138",
      "city": "CALDAS DA RAINHA",
      "lon": "-9.131616484689747",
      "lat": "39.39014510362425"
    },
    {
      "id": "pt.ine.add.PTCONT.2263365",
      "street": "R ADELAIDE PEREIRA",
      "house": "5",
      "postcode": "2500-120",
      "city": "CALDAS DA RAINHA",
      "lon": "-9.131982999277986",
      "lat": "39.38979969609639"
    }
  ]
}