{
  "data": {
    "distrito": "Set√∫bal",
    "concelho": "Sesimbra",
    "freguesia": "Sesimbra (Santiago)",
    "OBJECTID": 528,
    "BGRI2021": "15110200403",
    "DT21": "15",
    "DTMN21": "1511",
    "DTMNFR21": "151102",
    "DTMNFRSEC21": "151102004",
    "SECNUM21": "004",
    "SSNUM21": "03",
    "SECSSNUM21": "00403",
    "OBJECTID_1": 169074,
    "DT": "15",
    "CC": "11",
    "fr": "02",
    "SEC": "004",
    "SS": "03"
  },
  "addresses": [
    {
      "id": "pt.ine.add.PTCONT.4672605",
      "street": "R DR ANTONIO COSTA MARQUES",
      "house": "146",
      "postcode": "2970-750",
      "city": "SESIMBRA",
      "lon": "-9.102754567862313",
      "lat": "38.44853633736063"
    },
    {
      "id": "pt.ine.add.PTCONT.4672606",
      "street": "R DR ANTONIO COSTA MARQUES",
      "house": "150",
      "postcode": "2970-750",
      "city": "SESIMBRA",
      "lon": "-9.102754567862313",
      "lat": "38.44853633736063"
    },
    {
      "id": "pt.ine.add.PTCONT.4672607",
      "street": "R DR ANTONIO COSTA MARQUES",
      "house": "149",
      "postcode": "2970-750",
      "city": "SESIMBRA",
      "lon": "-9.102754567862313",
      "lat": "38.44853633736063"
    },
    {
      "id": "pt.ine.add.PTCONT.4672608",
      "street": "R DR ANTONIO COSTA MARQUES",
      "house": "145",
      "postcode": "2970-750",
      "city": "SESIMBRA",
      "lon": "-9.102754567862313",
      "lat": "38.44853633736063"
    },
    {
      "id": "pt.ine.add.PTCONT.4672609",
      "street": "R DR ANTONIO COSTA MARQUES",
      "house": "126",
      "postcode": "2970-750",
      "city": "SESIMBRA",
      "lon": "-9.102754567862313",
      "lat": "38.44853633736063"
    },
    {
      "id": "pt.ine.add.PTCONT.4672610",
      "street": "R DR ANTONIO COSTA MARQUES",
      "house": "136",
      "postcode": "2970-750",
      "city": "SESIMBRA",
      "lon": "-9.102754567862313",
      "lat": "38.44853633736063"
    },
    {
      "id": "pt.ine.add.PTCONT.4672611",
      "street": "R DR ANTONIO COSTA MARQUES",
      "house": "125",
      "postcode": "2970-750",
      "city": "SESIMBRA",
      "lon": "-9.102754567862313",
      "lat": "38.44853633736063"
    },
    {
      "id": "pt.ine.add.PTCONT.4672612",
      "street": "R DR ANTONIO COSTA MARQUES",
      "house": "135",
      "postcode": "2970-750",
      "city": "SESIMBRA",
      "lon": "-9.102754567862313",
      "lat": "38.44853633736063"
    },
    {
      "id": "pt.ine.add.PTCONT.4676071",
      "street": "R CONS RAMADA CURTO",
      "house": "23 A",
      "postcode": "2970-726",
      "city": "SESIMBRA",
      "lon": "-9.102715749504773",
      "lat": "38.44734756170475"
    },
    {
      "id": "pt.ine.add.PTCONT.4676072",
      "street": "R CONS RAMADA CURTO",
      "house": "23 A",
      "postcode": "2970-726",
      "city": "SESIMBRA",
      "lon": "-9.102715749504773",
      "lat": "38.44734756170475"
    },
    {
      "id": "pt.ine.add.PTCONT.4676126",
      "street": "R CONS RAMADA CURTO",
      "house": "23 A",
      "postcode": "2970-726",
      "city": "SESIMBRA",
      "lon": "-9.102715749504773",
      "lat": "38.44734756170475"
    },
    {
      "id": "pt.ine.add.PTCONT.4676127",
      "street": "R CONS RAMADA CURTO",
      "house": "23 A",
      "postcode": "2970-726",
      "city": "SESIMBRA",
      "lon": "-9.102715749504773",
      "lat": "38.44734756170475"
    },
    {
      "id": "pt.ine.add.PTCONT.4676128",
      "street": "R CONS RAMADA CURTO",
      "house": "23 A",
      "postcode": "2970-726",
      "city": "SESIMBRA",
      "lon": "-9.102715749504773",
      "lat": "38.44734756170475"
    },
    {
      "id": "pt.ine.add.PTCONT.4676818",
      "street": "R CONS RAMADA CURTO",
      "house": "23 A",
      "postcode": "2970-726",
      "city": "SESIMBRA",
      "lon": "-9.102715749504773",
      "lat": "38.44734756170475"
    },
    {
      "id": "pt.ine.add.PTCONT.4676845",
      "street": "R CONS RAMADA CURTO",
      "house": "23 A",
      "postcode": "2970-726",
      "city": "SESIMBRA",
      "lon": "-9.102715749504773",
      "lat": "38.44734756170475"
    },
    {
      "id": "pt.ine.add.PTCONT.4686533",
      "street": "R CONS RAMADA CURTO",
      "house": "45",
      "postcode": "2970-726",
      "city": "SESIMBRA",
      "lon": "-9.103262755851967",
      "lat": "38.44884742113361"
    },
    {
      "id": "pt.ine.add.PTCONT.4698107",
      "street": "R CONS RAMADA CURTO",
      "house": "41",
      "postcode": "2970-726",
      "city": "SESIMBRA",
      "lon": "-9.103202351075568",
      "lat": "38.44861370528832"
    },
    {
      "id": "pt.ine.add.PTCONT.4698108",
      "street": "R CONS RAMADA CURTO",
      "house": "41",
      "postcode": "2970-726",
      "city": "SESIMBRA",
      "lon": "-9.103202351075568",
      "lat": "38.44861370528832"
    },
    {
      "id": "pt.ine.add.PTCONT.4698109",
      "street": "R CONS RAMADA CURTO",
      "house": "41",
      "postcode": "2970-726",
      "city": "SESIMBRA",
      "lon": "-9.103202351075568",
      "lat": "38.44861370528832"
    },
    {
      "id": "pt.ine.add.PTCONT.4698110",
      "street": "R CONS RAMADA CURTO",
      "house": "41",
      "postcode": "2970-726",
      "city": "SESIMBRA",
      "lon": "-9.103202351075568",
      "lat": "38.44861370528832"
    },
    {
      "id": "pt.ine.add.PTCONT.4698111",
      "street": "R CONS RAMADA CURTO",
      "house": "41",
      "postcode": "2970-726",
      "city": "SESIMBRA",
      "lon": "-9.103202351075568",
      "lat": "38.44861370528832"
    },
    {
      "id": "pt.ine.add.PTCONT.4698112",
      "street": "R CONS RAMADA CURTO",
      "house": "41",
      "postcode": "2970-726",
      "city": "SESIMBRA",
      "lon": "-9.103202351075568",
      "lat": "38.44861370528832"
    },
    {
      "id": "pt.ine.add.PTCONT.4698693",
      "street": "R CONS RAMADA CURTO",
      "house": "41",
      "postcode": "2970-726",
      "city": "SESIMBRA",
      "lon": "-9.103202351075568",
      "lat": "38.44861370528832"
    },
    {
      "id": "pt.ine.add.PTCONT.4698885",
      "street": "R CONS RAMADA CURTO",
      "house": "41",
      "postcode": "2970-726",
      "city": "SESIMBRA",
      "lon": "-9.103202351075568",
      "lat": "38.44861370528832"
    },
    {
      "id": "pt.ine.add.PTCONT.4723814",
      "street": "R CONS RAMADA CURTO",
      "house": "23 B",
      "postcode": "2970-726",
      "city": "SESIMBRA",
      "lon": "-9.10274022367774",
      "lat": "38.44746446719674"
    },
    {
      "id": "pt.ine.add.PTCONT.4723815",
      "street": "R CONS RAMADA CURTO",
      "house": "23 B",
      "postcode": "2970-726",
      "city": "SESIMBRA",
      "lon": "-9.10274022367774",
      "lat": "38.44746446719674"
    },
    {
      "id": "pt.ine.add.PTCONT.4723816",
      "street": "R CONS RAMADA CURTO",
      "house": "23 B",
      "postcode": "2970-726",
      "city": "SESIMBRA",
      "lon": "-9.10274022367774",
      "lat": "38.44746446719674"
    },
    {
      "id": "pt.ine.add.PTCONT.4723817",
      "street": "R CONS RAMADA CURTO",
      "house": "23 B",
      "postcode": "2970-726",
      "city": "SESIMBRA",
      "lon": "-9.10274022367774",
      "lat": "38.44746446719674"
    },
    {
      "id": "pt.ine.add.PTCONT.4723818",
      "street": "R CONS RAMADA CURTO",
      "house": "23 B",
      "postcode": "2970-726",
      "city": "SESIMBRA",
      "lon": "-9.10274022367774",
      "lat": "38.44746446719674"
    },
    {
      "id": "pt.ine.add.PTCONT.4723819",
      "street": "R CONS RAMADA CURTO",
      "house": "23 B",
      "postcode": "2970-726",
      "city": "SESIMBRA",
      "lon": "-9.10274022367774",
      "lat": "38.44746446719674"
    },
    {
      "id": "pt.ine.add.PTCONT.4723820",
      "street": "R CONS RAMADA CURTO",
      "house": "23 B",
      "postcode": "2970-726",
      "city": "SESIMBRA",
      "lon": "-9.10274022367774",
      "lat": "38.44746446719674"
    },
    {
      "id": "pt.ine.add.PTCONT.4723821",
      "street": "R CONS RAMADA CURTO",
      "house": "23 B",
      "postcode": "2970-726",
      "city": "SESIMBRA",
      "lon": "-9.10274022367774",
      "lat": "38.44746446719674"
    },
    {
      "id": "pt.ine.add.PTCONT.4746335",
      "street": "R CONS RAMADA CURTO",
      "house": "43",
      "postcode": "2970-726",
      "city": "SESIMBRA",
      "lon": "-9.10323840092698",
      "lat": "38.44873952310522"
    },
    {
      "id": "pt.ine.add.PTCONT.4746336",
      "street": "R CONS RAMADA CURTO",
      "house": "43",
      "postcode": "2970-726",
      "city": "SESIMBRA",
      "lon": "-9.10323840092698",
      "lat": "38.44873952310522"
    },
    {
      "id": "pt.ine.add.PTCONT.4746337",
      "street": "R CONS RAMADA CURTO",
      "house": "43",
      "postcode": "2970-726",
      "city": "SESIMBRA",
      "lon": "-9.10323840092698",
      "lat": "38.44873952310522"
    },
    {
      "id": "pt.ine.add.PTCONT.4746338",
      "street": "R CONS RAMADA CURTO",
      "house": "43",
      "postcode": "2970-726",
      "city": "SESIMBRA",
      "lon": "-9.10323840092698",
      "lat": "38.44873952310522"
    },
    {
      "id": "pt.ine.add.PTCONT.4746339",
      "street": "R CONS RAMADA CURTO",
      "house": "43",
      "postcode": "2970-726",
      "city": "SESIMBRA",
      "lon": "-9.10323840092698",
      "lat": "38.44873952310522"
    },
    {
      "id": "pt.ine.add.PTCONT.4746340",
      "street": "R CONS RAMADA CURTO",
      "house": "43",
      "postcode": "2970-726",
      "city": "SESIMBRA",
      "lon": "-9.10323840092698",
      "lat": "38.44873952310522"
    },
    {
      "id": "pt.ine.add.PTCONT.4746341",
      "street": "R CONS RAMADA CURTO",
      "house": "43",
      "postcode": "2970-726",
      "city": "SESIMBRA",
      "lon": "-9.10323840092698",
      "lat": "38.44873952310522"
    },
    {
      "id": "pt.ine.add.PTCONT.4746342",
      "street": "R CONS RAMADA CURTO",
      "house": "43",
      "postcode": "2970-726",
      "city": "SESIMBRA",
      "lon": "-9.10323840092698",
      "lat": "38.44873952310522"
    },
    {
      "id": "pt.ine.add.PTCONT.4746343",
      "street": "R CONS RAMADA CURTO",
      "house": "43",
      "postcode": "2970-726",
      "city": "SESIMBRA",
      "lon": "-9.10323840092698",
      "lat": "38.44873952310522"
    },
    {
      "id": "pt.ine.add.PTCONT.4746344",
      "street": "R CONS RAMADA CURTO",
      "house": "43",
      "postcode": "2970-726",
      "city": "SESIMBRA",
      "lon": "-9.10323840092698",
      "lat": "38.44873952310522"
    },
    {
      "id": "pt.ine.add.PTCONT.4746538",
      "street": "R CONS RAMADA CURTO",
      "house": "43",
      "postcode": "2970-726",
      "city": "SESIMBRA",
      "lon": "-9.10323840092698",
      "lat": "38.44873952310522"
    },
    {
      "id": "pt.ine.add.PTCONT.4760266",
      "street": "R CONS RAMADA CURTO",
      "house": "21 B",
      "postcode": "2970-726",
      "city": "SESIMBRA",
      "lon": "-9.102571075420498",
      "lat": "38.446808260240545"
    },
    {
      "id": "pt.ine.add.PTCONT.4760267",
      "street": "R CONS RAMADA CURTO",
      "house": "21 B",
      "postcode": "2970-726",
      "city": "SESIMBRA",
      "lon": "-9.102571075420498",
      "lat": "38.446808260240545"
    },
    {
      "id": "pt.ine.add.PTCONT.4761082",
      "street": "R CONS RAMADA CURTO",
      "house": "21 B",
      "postcode": "2970-726",
      "city": "SESIMBRA",
      "lon": "-9.102571075420498",
      "lat": "38.446808260240545"
    },
    {
      "id": "pt.ine.add.PTCONT.4771262",
      "street": "R DR ANT√ìNIO DA COSTA MARQUES",
      "house": "",
      "postcode": "2970-750",
      "city": "SESIMBRA",
      "lon": "-9.103020778299332",
      "lat": "38.44874132491858"
    },
    {
      "id": "pt.ine.add.PTCONT.4771278",
      "street": "R DR ANTONIO COSTA MARQUES",
      "house": "116",
      "postcode": "2970-750",
      "city": "SESIMBRA",
      "lon": "-9.102509217764405",
      "lat": "38.44817803531785"
    },
    {
      "id": "pt.ine.add.PTCONT.4771279",
      "street": "R DR ANTONIO COSTA MARQUES",
      "house": "115",
      "postcode": "2970-750",
      "city": "SESIMBRA",
      "lon": "-9.102509217764405",
      "lat": "38.44817803531785"
    },
    {
      "id": "pt.ine.add.PTCONT.4771280",
      "street": "R DR ANTONIO COSTA MARQUES",
      "house": "120",
      "postcode": "2970-750",
      "city": "SESIMBRA",
      "lon": "-9.102509217764405",
      "lat": "38.44817803531785"
    },
    {
      "id": "pt.ine.add.PTCONT.4771281",
      "street": "R DR ANTONIO COSTA MARQUES",
      "house": "119",
      "postcode": "2970-750",
      "city": "SESIMBRA",
      "lon": "-9.102509217764405",
      "lat": "38.44817803531785"
    },
    {
      "id": "pt.ine.add.PTCONT.4771282",
      "street": "R DR ANTONIO DA COSTA MARQUES",
      "house": "",
      "postcode": "2970-750",
      "city": "SESIMBRA",
      "lon": "-9.102509217764405",
      "lat": "38.44817803531785"
    },
    {
      "id": "pt.ine.add.PTCONT.4771283",
      "street": "R DR ANTONIO COSTA MARQUES",
      "house": "129",
      "postcode": "2970-750",
      "city": "SESIMBRA",
      "lon": "-9.102509217764405",
      "lat": "38.44817803531785"
    },
    {
      "id": "pt.ine.add.PTCONT.4771284",
      "street": "R DR ANTONIO COSTA MARQUES",
      "house": "139",
      "postcode": "2970-750",
      "city": "SESIMBRA",
      "lon": "-9.102509217764405",
      "lat": "38.44817803531785"
    },
    {
      "id": "pt.ine.add.PTCONT.4771285",
      "street": "R DR ANTONIO DA COSTA MARQUES",
      "house": "",
      "postcode": "2970-750",
      "city": "SESIMBRA",
      "lon": "-9.102509217764405",
      "lat": "38.44817803531785"
    },
    {
      "id": "pt.ine.add.PTCONT.4793825",
      "street": "R DR ANT√ìNIO DA COSTA MARQUES",
      "house": "26",
      "postcode": "2970-750",
      "city": "SESIMBRA",
      "lon": "-9.102593130074144",
      "lat": "38.44845659857622"
    },
    {
      "id": "pt.ine.add.PTCONT.4793826",
      "street": "R DR ANT√ìNIO DA COSTA MARQUES",
      "house": "26",
      "postcode": "2970-750",
      "city": "SESIMBRA",
      "lon": "-9.102593130074144",
      "lat": "38.44845659857622"
    },
    {
      "id": "pt.ine.add.PTCONT.4793827",
      "street": "R DR ANT√ìNIO DA COSTA MARQUES",
      "house": "26",
      "postcode": "2970-750",
      "city": "SESIMBRA",
      "lon": "-9.102593130074144",
      "lat": "38.44845659857622"
    },
    {
      "id": "pt.ine.add.PTCONT.4793828",
      "street": "R DR ANT√ìNIO DA COSTA MARQUES",
      "house": "26",
      "postcode": "2970-750",
      "city": "SESIMBRA",
      "lon": "-9.102593130074144",
      "lat": "38.44845659857622"
    },
    {
      "id": "pt.ine.add.PTCONT.4796499",
      "street": "R DR ANT√ìNIO DA COSTA MARQUES",
      "house": "26",
      "postcode": "2970-750",
      "city": "SESIMBRA",
      "lon": "-9.102593130074144",
      "lat": "38.44845659857622"
    },
    {
      "id": "pt.ine.add.PTCONT.4796508",
      "street": "R DR ANT√ìNIO DA COSTA MARQUES",
      "house": "26",
      "postcode": "2970-750",
      "city": "SESIMBRA",
      "lon": "-9.102593130074144",
      "lat": "38.44845659857622"
    },
    {
      "id": "pt.ine.add.PTCONT.4820602",
      "street": "",
      "house": "",
      "postcode": "2970-726",
      "city": "SESIMBRA",
      "lon": "-9.102255195808665",
      "lat": "38.447171206072156"
    },
    {
      "id": "pt.ine.add.PTCONT.4820603",
      "street": "",
      "house": "",
      "postcode": "2970-726",
      "city": "SESIMBRA",
      "lon": "-9.102255195808665",
      "lat": "38.447171206072156"
    },
    {
      "id": "pt.ine.add.PTCONT.4820620",
      "street": "R CONS RAMADA CURTO",
      "house": "1 DTO",
      "postcode": "2970-726",
      "city": "SESIMBRA",
      "lon": "-9.102255195808665",
      "lat": "38.447171206072156"
    },
    {
      "id": "pt.ine.add.PTCONT.4821373",
      "street": "",
      "house": "4",
      "postcode": "2970-726",
      "city": "SESIMBRA",
      "lon": "-9.102255195808665",
      "lat": "38.447171206072156"
    },
    {
      "id": "pt.ine.add.PTCONT.4830849",
      "street": "R DR ANT√ìNIO DA COSTA MARQUES",
      "house": "8",
      "postcode": "2970-750",
      "city": "SESIMBRA",
      "lon": "-9.102482213062867",
      "lat": "38.44787197621574"
    },
    {
      "id": "pt.ine.add.PTCONT.4830850",
      "street": "R DR ANT√ìNIO DA COSTA MARQUES",
      "house": "8",
      "postcode": "2970-750",
      "city": "SESIMBRA",
      "lon": "-9.102482213062867",
      "lat": "38.44787197621574"
    },
    {
      "id": "pt.ine.add.PTCONT.4830851",
      "street": "R DR ANT√ìNIO DA COSTA MARQUES",
      "house": "8",
      "postcode": "2970-750",
      "city": "SESIMBRA",
      "lon": "-9.102482213062867",
      "lat": "38.44787197621574"
    },
    {
      "id": "pt.ine.add.PTCONT.4830852",
      "street": "R DR ANT√ìNIO DA COSTA MARQUES",
      "house": "8",
      "postcode": "2970-750",
      "city": "SESIMBRA",
      "lon": "-9.102482213062867",
      "lat": "38.44787197621574"
    },
    {
      "id": "pt.ine.add.PTCONT.4830853",
      "street": "R DR ANT√ìNIO DA COSTA MARQUES",
      "house": "8",
      "postcode": "2970-750",
      "city": "SESIMBRA",
      "lon": "-9.102482213062867",
      "lat": "38.44787197621574"
    },
    {
      "id": "pt.ine.add.PTCONT.4834439",
      "street": "R CONS RAMADA CURTO ALLDEIA DO CASTELO",
      "house": "33",
      "postcode": "2970-726",
      "city": "SESIMBRA",
      "lon": "-9.102911424648582",
      "lat": "38.44827379809226"
    },
    {
      "id": "pt.ine.add.PTCONT.4834440",
      "street": "R CONS RAMADA CURTO ALLDEIA DO CASTELO",
      "house": "33",
      "postcode": "2970-726",
      "city": "SESIMBRA",
      "lon": "-9.102911424648582",
      "lat": "38.44827379809226"
    },
    {
      "id": "pt.ine.add.PTCONT.4834441",
      "street": "R ALDEIA CASTELO",
      "house": "33",
      "postcode": "2970-685",
      "city": "SESIMBRA",
      "lon": "-9.102911424648582",
      "lat": "38.44827379809226"
    },
    {
      "id": "pt.ine.add.PTCONT.4841588",
      "street": "R CONS RAMADA CURTO",
      "house": "37",
      "postcode": "2970-726",
      "city": "SESIMBRA",
      "lon": "-9.103143032016913",
      "lat": "38.44846105519293"
    },
    {
      "id": "pt.ine.add.PTCONT.4841589",
      "street": "R CONS RAMADA CURTO",
      "house": "37",
      "postcode": "2970-726",
      "city": "SESIMBRA",
      "lon": "-9.103143032016913",
      "lat": "38.44846105519293"
    },
    {
      "id": "pt.ine.add.PTCONT.4841590",
      "street": "R CONS RAMADA CURTO",
      "house": "37",
      "postcode": "2970-726",
      "city": "SESIMBRA",
      "lon": "-9.103143032016913",
      "lat": "38.44846105519293"
    },
    {
      "id": "pt.ine.add.PTCONT.4841591",
      "street": "R CONS RAMADA CURTO",
      "house": "37",
      "postcode": "2970-726",
      "city": "SESIMBRA",
      "lon": "-9.103143032016913",
      "lat": "38.44846105519293"
    },
    {
      "id": "pt.ine.add.PTCONT.4841592",
      "street": "R CONS RAMADA CURTO",
      "house": "37",
      "postcode": "2970-726",
      "city": "SESIMBRA",
      "lon": "-9.103143032016913",
      "lat": "38.44846105519293"
    },
    {
      "id": "pt.ine.add.PTCONT.4842218",
      "street": "R CONS RAMADA CURTO",
      "house": "37",
      "postcode": "2970-726",
      "city": "SESIMBRA",
      "lon": "-9.103143032016913",
      "lat": "38.44846105519293"
    },
    {
      "id": "pt.ine.add.PTCONT.4866472",
      "street": "R DR ANTONIO COSTA MARQUES",
      "house": "128",
      "postcode": "2970-750",
      "city": "SESIMBRA",
      "lon": "-9.10289321895587",
      "lat": "38.44862527284783"
    },
    {
      "id": "pt.ine.add.PTCONT.4866473",
      "street": "R DR ANTONIO COSTA MARQUES",
      "house": "127",
      "postcode": "2970-750",
      "city": "SESIMBRA",
      "lon": "-9.10289321895587",
      "lat": "38.44862527284783"
    },
    {
      "id": "pt.ine.add.PTCONT.4866474",
      "street": "R DR ANTONIO COSTA MARQUES",
      "house": "138",
      "postcode": "2970-750",
      "city": "SESIMBRA",
      "lon": "-9.10289321895587",
      "lat": "38.44862527284783"
    },
    {
      "id": "pt.ine.add.PTCONT.4866558",
      "street": "R DR ANTONIO COSTA MARQUES",
      "house": "137",
      "postcode": "2970-750",
      "city": "SESIMBRA",
      "lon": "-9.10289321895587",
      "lat": "38.44862527284783"
    },
    {
      "id": "pt.ine.add.PTCONT.4866559",
      "street": "R DR ANTONIO COSTA MARQUES",
      "house": "147",
      "postcode": "2970-750",
      "city": "SESIMBRA",
      "lon": "-9.10289321895587",
      "lat": "38.44862527284783"
    },
    {
      "id": "pt.ine.add.PTCONT.4866560",
      "street": "R DR ANTONIO COSTA MARQUES",
      "house": "148",
      "postcode": "2970-750",
      "city": "SESIMBRA",
      "lon": "-9.10289321895587",
      "lat": "38.44862527284783"
    },
    {
      "id": "pt.ine.add.PTCONT.4866561",
      "street": "R DR ANTONIO COSTA MARQUES",
      "house": "152",
      "postcode": "2970-750",
      "city": "SESIMBRA",
      "lon": "-9.10289321895587",
      "lat": "38.44862527284783"
    },
    {
      "id": "pt.ine.add.PTCONT.4866562",
      "street": "R DR ANTONIO COSTA MARQUES",
      "house": "151",
      "postcode": "2970-750",
      "city": "SESIMBRA",
      "lon": "-9.10289321895587",
      "lat": "38.44862527284783"
    },
    {
      "id": "pt.ine.add.PTCONT.4897580",
      "street": "R CONS RAMADA CURTO",
      "house": "33",
      "postcode": "2970-726",
      "city": "SESIMBRA",
      "lon": "-9.103070933071454",
      "lat": "38.448209419465215"
    },
    {
      "id": "pt.ine.add.PTCONT.4897581",
      "street": "R CONS RAMADA CURTO",
      "house": "33",
      "postcode": "2970-726",
      "city": "SESIMBRA",
      "lon": "-9.103070933071454",
      "lat": "38.448209419465215"
    },
    {
      "id": "pt.ine.add.PTCONT.4897582",
      "street": "R CONS RAMADA CURTO",
      "house": "33",
      "postcode": "2970-726",
      "city": "SESIMBRA",
      "lon": "-9.103070933071454",
      "lat": "38.448209419465215"
    },
    {
      "id": "pt.ine.add.PTCONT.4984683",
      "street": "R CONS RAMADA CURTO",
      "house": "21 C",
      "postcode": "2970-726",
      "city": "SESIMBRA",
      "lon": "-9.10266692193306",
      "lat": "38.44712275800929"
    },
    {
      "id": "pt.ine.add.PTCONT.4984684",
      "street": "R CONS RAMADA CURTO",
      "house": "21 C",
      "postcode": "2970-726",
      "city": "SESIMBRA",
      "lon": "-9.10266692193306",
      "lat": "38.44712275800929"
    },
    {
      "id": "pt.ine.add.PTCONT.4984685",
      "street": "R CONS RAMADA CURTO",
      "house": "21 C",
      "postcode": "2970-726",
      "city": "SESIMBRA",
      "lon": "-9.10266692193306",
      "lat": "38.44712275800929"
    },
    {
      "id": "pt.ine.add.PTCONT.4984686",
      "street": "R CONS RAMADA CURTO",
      "house": "21 C",
      "postcode": "2970-726",
      "city": "SESIMBRA",
      "lon": "-9.10266692193306",
      "lat": "38.44712275800929"
    },
    {
      "id": "pt.ine.add.PTCONT.4999432",
      "street": "R DR ANT√ìNIO DA COSTA MARQUES",
      "house": "6",
      "postcode": "2970-750",
      "city": "SESIMBRA",
      "lon": "-9.102491859147232",
      "lat": "38.44773677174872"
    },
    {
      "id": "pt.ine.add.PTCONT.4999443",
      "street": "R DR ANT√ìNIO DA COSTA MARQUES",
      "house": "6",
      "postcode": "2970-750",
      "city": "SESIMBRA",
      "lon": "-9.102491859147232",
      "lat": "38.44773677174872"
    },
    {
      "id": "pt.ine.add.PTCONT.4999444",
      "street": "R DR ANT√ìNIO DA COSTA MARQUES",
      "house": "6",
      "postcode": "2970-750",
      "city": "SESIMBRA",
      "lon": "-9.102491859147232",
      "lat": "38.44773677174872"
    },
    {
      "id": "pt.ine.add.PTCONT.4999445",
      "street": "R DR ANT√ìNIO DA COSTA MARQUES",
      "house": "6",
      "postcode": "2970-750",
      "city": "SESIMBRA",
      "lon": "-9.102491859147232",
      "lat": "38.44773677174872"
    },
    {
      "id": "pt.ine.add.PTCONT.5000123",
      "street": "R DR ANT√ìNIO DA COSTA MARQUES",
      "house": "6",
      "postcode": "2970-750",
      "city": "SESIMBRA",
      "lon": "-9.102491859147232",
      "lat": "38.44773677174872"
    },
    {
      "id": "pt.ine.add.PTCONT.5020331",
      "street": "R DR ANTONIO COSTA MARQUES",
      "house": "132",
      "postcode": "2970-750",
      "city": "SESIMBRA",
      "lon": "-9.102511266451128",
      "lat": "38.44833115963106"
    },
    {
      "id": "pt.ine.add.PTCONT.5020332",
      "street": "R DR ANTONIO COSTA MARQUES",
      "house": "141",
      "postcode": "2970-750",
      "city": "SESIMBRA",
      "lon": "-9.102511266451128",
      "lat": "38.44833115963106"
    },
    {
      "id": "pt.ine.add.PTCONT.5020333",
      "street": "R DR ANTONIO COSTA MARQUES",
      "house": "142",
      "postcode": "2970-750",
      "city": "SESIMBRA",
      "lon": "-9.102511266451128",
      "lat": "38.44833115963106"
    },
    {
      "id": "pt.ine.add.PTCONT.5022065",
      "street": "R DR ANTONIO COSTA MARQUES",
      "house": "118",
      "postcode": "2970-750",
      "city": "SESIMBRA",
      "lon": "-9.102511266451128",
      "lat": "38.44833115963106"
    },
    {
      "id": "pt.ine.add.PTCONT.5022066",
      "street": "R DR ANTONIO COSTA MARQUES",
      "house": "117",
      "postcode": "2970-750",
      "city": "SESIMBRA",
      "lon": "-9.102511266451128",
      "lat": "38.44833115963106"
    },
    {
      "id": "pt.ine.add.PTCONT.5022067",
      "street": "R DR ANTONIO COSTA MARQUES",
      "house": "122",
      "postcode": "2970-750",
      "city": "SESIMBRA",
      "lon": "-9.102511266451128",
      "lat": "38.44833115963106"
    },
    {
      "id": "pt.ine.add.PTCONT.5022068",
      "street": "R DR ANTONIO COSTA MARQUES",
      "house": "121",
      "postcode": "2970-750",
      "city": "SESIMBRA",
      "lon": "-9.102511266451128",
      "lat": "38.44833115963106"
    },
    {
      "id": "pt.ine.add.PTCONT.5022252",
      "street": "R DR ANTONIO COSTA MARQUES",
      "house": "131",
      "postcode": "2970-750",
      "city": "SESIMBRA",
      "lon": "-9.102511266451128",
      "lat": "38.44833115963106"
    },
    {
      "id": "pt.ine.add.PTCONT.5025121",
      "street": "R CONS RAMADA CURTO",
      "house": "23 C",
      "postcode": "2970-726",
      "city": "SESIMBRA",
      "lon": "-9.102776272115277",
      "lat": "38.447590285198345"
    },
    {
      "id": "pt.ine.add.PTCONT.5025122",
      "street": "R CONS RAMADA CURTO",
      "house": "23 C",
      "postcode": "2970-726",
      "city": "SESIMBRA",
      "lon": "-9.102776272115277",
      "lat": "38.447590285198345"
    },
    {
      "id": "pt.ine.add.PTCONT.5025123",
      "street": "R CONS RAMADA CURTO",
      "house": "23 C",
      "postcode": "2970-726",
      "city": "SESIMBRA",
      "lon": "-9.102776272115277",
      "lat": "38.447590285198345"
    },
    {
      "id": "pt.ine.add.PTCONT.5025141",
      "street": "R CONS RAMADA CURTO",
      "house": "23 C",
      "postcode": "2970-726",
      "city": "SESIMBRA",
      "lon": "-9.102776272115277",
      "lat": "38.447590285198345"
    },
    {
      "id": "pt.ine.add.PTCONT.5025142",
      "street": "R CONS RAMADA CURTO",
      "house": "23 C",
      "postcode": "2970-726",
      "city": "SESIMBRA",
      "lon": "-9.102776272115277",
      "lat": "38.447590285198345"
    },
    {
      "id": "pt.ine.add.PTCONT.5025143",
      "street": "R CONS RAMADA CURTO",
      "house": "23 C",
      "postcode": "2970-726",
      "city": "SESIMBRA",
      "lon": "-9.102776272115277",
      "lat": "38.447590285198345"
    },
    {
      "id": "pt.ine.add.PTCONT.5026223",
      "street": "R CONS RAMADA CURTO",
      "house": "23 C",
      "postcode": "2970-726",
      "city": "SESIMBRA",
      "lon": "-9.102776272115277",
      "lat": "38.447590285198345"
    },
    {
      "id": "pt.ine.add.PTCONT.5026745",
      "street": "R CONS RAMADA CURTO",
      "house": "23 C",
      "postcode": "2970-726",
      "city": "SESIMBRA",
      "lon": "-9.102776272115277",
      "lat": "38.447590285198345"
    },
    {
      "id": "pt.ine.add.PTCONT.5039827",
      "street": "R DR ANT√ìNIO DA COSTA MARQUES",
      "house": "10",
      "postcode": "2970-750",
      "city": "SESIMBRA",
      "lon": "-9.102472566947856",
      "lat": "38.44800718067933"
    },
    {
      "id": "pt.ine.add.PTCONT.5039828",
      "street": "R DR ANT√ìNIO DA COSTA MARQUES",
      "house": "10",
      "postcode": "2970-750",
      "city": "SESIMBRA",
      "lon": "-9.102472566947856",
      "lat": "38.44800718067933"
    },
    {
      "id": "pt.ine.add.PTCONT.5039829",
      "street": "R DR ANT√ìNIO DA COSTA MARQUES",
      "house": "10",
      "postcode": "2970-750",
      "city": "SESIMBRA",
      "lon": "-9.102472566947856",
      "lat": "38.44800718067933"
    },
    {
      "id": "pt.ine.add.PTCONT.5039830",
      "street": "R DR ANT√ìNIO DA COSTA MARQUES",
      "house": "10",
      "postcode": "2970-750",
      "city": "SESIMBRA",
      "lon": "-9.102472566947856",
      "lat": "38.44800718067933"
    },
    {
      "id": "pt.ine.add.PTCONT.5039831",
      "street": "R DR ANT√ìNIO DA COSTA MARQUES",
      "house": "10",
      "postcode": "2970-750",
      "city": "SESIMBRA",
      "lon": "-9.102472566947856",
      "lat": "38.44800718067933"
    },
    {
      "id": "pt.ine.add.PTCONT.5050717",
      "street": "R CONS RAMADA CURTO",
      "house": "23 A",
      "postcode": "2970-726",
      "city": "SESIMBRA",
      "lon": "-9.102871276741986",
      "lat": "38.44784173154721"
    },
    {
      "id": "pt.ine.add.PTCONT.5050718",
      "street": "R CONS RAMADA CURTO CASAS DA CAMARA",
      "house": "23 E",
      "postcode": "2970-726",
      "city": "SESIMBRA",
      "lon": "-9.102871276741986",
      "lat": "38.44784173154721"
    },
    {
      "id": "pt.ine.add.PTCONT.5050719",
      "street": "R CONS RAMADA CURTO CASAS DA CAMARA",
      "house": "23 E",
      "postcode": "2970-726",
      "city": "SESIMBRA",
      "lon": "-9.102871276741986",
      "lat": "38.44784173154721"
    },
    {
      "id": "pt.ine.add.PTCONT.5050720",
      "street": "R CONS RAMADA CURTO CASAS DA CAMARA",
      "house": "23 E",
      "postcode": "2970-726",
      "city": "SESIMBRA",
      "lon": "-9.102871276741986",
      "lat": "38.44784173154721"
    },
    {
      "id": "pt.ine.add.PTCONT.5050721",
      "street": "R CONS RAMADA CURTO CASAS DA CAMARA",
      "house": "23 E",
      "postcode": "2970-726",
      "city": "SESIMBRA",
      "lon": "-9.102871276741986",
      "lat": "38.44784173154721"
    },
    {
      "id": "pt.ine.add.PTCONT.5050722",
      "street": "R CONS RAMADA CURTO CASAS DA CAMARA",
      "house": "23 E",
      "postcode": "2970-726",
      "city": "SESIMBRA",
      "lon": "-9.102871276741986",
      "lat": "38.44784173154721"
    },
    {
      "id": "pt.ine.add.PTCONT.5051790",
      "street": "R CONS RAMADA CURTO CASAS DA CAMARA",
      "house": "23 E",
      "postcode": "2970-726",
      "city": "SESIMBRA",
      "lon": "-9.102871276741986",
      "lat": "38.44784173154721"
    },
    {
      "id": "pt.ine.add.PTCONT.5065411",
      "street": "",
      "house": "",
      "postcode": "2970-726",
      "city": "SESIMBRA",
      "lon": "-9.102251581594572",
      "lat": "38.446900986618985"
    },
    {
      "id": "pt.ine.add.PTCONT.5065412",
      "street": "BR BOMBEIROSS",
      "house": "5",
      "postcode": "2970-726",
      "city": "SESIMBRA",
      "lon": "-9.102251581594572",
      "lat": "38.446900986618985"
    },
    {
      "id": "pt.ine.add.PTCONT.5065413",
      "street": "BR BOMBEIROS",
      "house": "815",
      "postcode": "2970-726",
      "city": "SESIMBRA",
      "lon": "-9.102251581594572",
      "lat": "38.446900986618985"
    },
    {
      "id": "pt.ine.add.PTCONT.5065414",
      "street": "BR BOMBEIROS",
      "house": "5",
      "postcode": "2970-726",
      "city": "SESIMBRA",
      "lon": "-9.102251581594572",
      "lat": "38.446900986618985"
    },
    {
      "id": "pt.ine.add.PTCONT.5090479",
      "street": "R CONS RAMADA CURTO",
      "house": "25",
      "postcode": "2970-726",
      "city": "SESIMBRA",
      "lon": "-9.102884177093209",
      "lat": "38.447949724486655"
    },
    {
      "id": "pt.ine.add.PTCONT.5090480",
      "street": "R CONS RAMADA CURTO",
      "house": "25",
      "postcode": "2970-726",
      "city": "SESIMBRA",
      "lon": "-9.102884177093209",
      "lat": "38.447949724486655"
    },
    {
      "id": "pt.ine.add.PTCONT.5090487",
      "street": "R CONS RAMADA CURTO",
      "house": "25",
      "postcode": "2970-726",
      "city": "SESIMBRA",
      "lon": "-9.102884177093209",
      "lat": "38.447949724486655"
    },
    {
      "id": "pt.ine.add.PTCONT.5090488",
      "street": "R CONS RAMADA CURTO",
      "house": "25",
      "postcode": "2970-726",
      "city": "SESIMBRA",
      "lon": "-9.102884177093209",
      "lat": "38.447949724486655"
    },
    {
      "id": "pt.ine.add.PTCONT.5090489",
      "street": "R CONS RAMADA CURTO",
      "house": "25",
      "postcode": "2970-726",
      "city": "SESIMBRA",
      "lon": "-9.102884177093209",
      "lat": "38.447949724486655"
    },
    {
      "id": "pt.ine.add.PTCONT.5090490",
      "street": "R CONS RAMADA CURTO",
      "house": "27",
      "postcode": "2970-726",
      "city": "SESIMBRA",
      "lon": "-9.102966161478154",
      "lat": "38.448084170488066"
    },
    {
      "id": "pt.ine.add.PTCONT.5090491",
      "street": "R CONS RAMADA CURTO",
      "house": "27",
      "postcode": "2970-726",
      "city": "SESIMBRA",
      "lon": "-9.102966161478154",
      "lat": "38.448084170488066"
    },
    {
      "id": "pt.ine.add.PTCONT.5090492",
      "street": "R CONS RAMADA CURTO",
      "house": "27",
      "postcode": "2970-726",
      "city": "SESIMBRA",
      "lon": "-9.102966161478154",
      "lat": "38.448084170488066"
    },
    {
      "id": "pt.ine.add.PTCONT.5090493",
      "street": "R CONS RAMADA CURTO",
      "house": "27",
      "postcode": "2970-726",
      "city": "SESIMBRA",
      "lon": "-9.102966161478154",
      "lat": "38.448084170488066"
    },
    {
      "id": "pt.ine.add.PTCONT.5090494",
      "street": "R CONS RAMADA CURTO",
      "house": "27",
      "postcode": "2970-726",
      "city": "SESIMBRA",
      "lon": "-9.102966161478154",
      "lat": "38.448084170488066"
    },
    {
      "id": "pt.ine.add.PTCONT.5091497",
      "street": "R CONS RAMADA CURTO",
      "house": "25",
      "postcode": "2970-726",
      "city": "SESIMBRA",
      "lon": "-9.102884177093209",
      "lat": "38.447949724486655"
    },
    {
      "id": "pt.ine.add.PTCONT.5091800",
      "street": "R CONS RAMADA CURTO",
      "house": "27",
      "postcode": "2970-726",
      "city": "SESIMBRA",
      "lon": "-9.102966161478154",
      "lat": "38.448084170488066"
    },
    {
      "id": "pt.ine.add.PTCONT.5094046",
      "street": "R CONS RAMADA CURTO",
      "house": "21A",
      "postcode": "2970-726",
      "city": "SESIMBRA",
      "lon": "-9.102520561626983",
      "lat": "38.44645735404105"
    },
    {
      "id": "pt.ine.add.PTCONT.5094047",
      "street": "R CONS RAMADA CURTO",
      "house": "21A",
      "postcode": "2970-726",
      "city": "SESIMBRA",
      "lon": "-9.102520561626983",
      "lat": "38.44645735404105"
    },
    {
      "id": "pt.ine.add.PTCONT.5094048",
      "street": "R CONS RAMADA CURTO",
      "house": "21A",
      "postcode": "2970-726",
      "city": "SESIMBRA",
      "lon": "-9.102520561626983",
      "lat": "38.44645735404105"
    },
    {
      "id": "pt.ine.add.PTCONT.5094049",
      "street": "R CONS RAMADA CURTO",
      "house": "21A",
      "postcode": "2970-726",
      "city": "SESIMBRA",
      "lon": "-9.102520561626983",
      "lat": "38.44645735404105"
    },
    {
      "id": "pt.ine.add.PTCONT.5101493",
      "street": "R CONS RAMADA CURTO",
      "house": "23 D",
      "postcode": "2970-726",
      "city": "SESIMBRA",
      "lon": "-9.10282377434408",
      "lat": "38.44771600838481"
    },
    {
      "id": "pt.ine.add.PTCONT.5101494",
      "street": "R CONS RAMADA CURTO",
      "house": "23 D",
      "postcode": "2970-726",
      "city": "SESIMBRA",
      "lon": "-9.10282377434408",
      "lat": "38.44771600838481"
    },
    {
      "id": "pt.ine.add.PTCONT.5101495",
      "street": "R CONS RAMADA CURTO",
      "house": "23 D",
      "postcode": "2970-726",
      "city": "SESIMBRA",
      "lon": "-9.10282377434408",
      "lat": "38.44771600838481"
    },
    {
      "id": "pt.ine.add.PTCONT.5101496",
      "street": "R CONS RAMADA CURTO",
      "house": "23 D",
      "postcode": "2970-726",
      "city": "SESIMBRA",
      "lon": "-9.10282377434408",
      "lat": "38.44771600838481"
    },
    {
      "id": "pt.ine.add.PTCONT.5101497",
      "street": "R CONS RAMADA CURTO",
      "house": "23 D",
      "postcode": "2970-726",
      "city": "SESIMBRA",
      "lon": "-9.10282377434408",
      "lat": "38.44771600838481"
    },
    {
      "id": "pt.ine.add.PTCONT.5101498",
      "street": "R CONS RAMADA CURTO",
      "house": "23 D",
      "postcode": "2970-726",
      "city": "SESIMBRA",
      "lon": "-9.10282377434408",
      "lat": "38.44771600838481"
    },
    {
      "id": "pt.ine.add.PTCONT.5101499",
      "street": "R CONS RAMADA CURTO",
      "house": "23 D",
      "postcode": "2970-726",
      "city": "SESIMBRA",
      "lon": "-9.10282377434408",
      "lat": "38.44771600838481"
    },
    {
      "id": "pt.ine.add.PTCONT.5101608",
      "street": "R CONS RAMADA CURTO",
      "house": "23 D",
      "postcode": "2970-726",
      "city": "SESIMBRA",
      "lon": "-9.10282377434408",
      "lat": "38.44771600838481"
    },
    {
      "id": "pt.ine.add.PTCONT.5124684",
      "street": "R CONS RAMADA CURTO",
      "house": "23 A",
      "postcode": "2970-726",
      "city": "SESIMBRA",
      "lon": "-9.102715749504773",
      "lat": "38.44734756170475"
    },
    {
      "id": "pt.ine.add.PTCONT.5129131",
      "street": "R CONS RAMADA CURTO CASAS DA CAMARA",
      "house": "23 E",
      "postcode": "2970-726",
      "city": "SESIMBRA",
      "lon": "-9.102871276741986",
      "lat": "38.44784173154721"
    },
    {
      "id": "pt.ine.add.PTCONT.5132524",
      "street": "R CONS RAMADA CURTO",
      "house": "43",
      "postcode": "2970-726",
      "city": "SESIMBRA",
      "lon": "-9.10323840092698",
      "lat": "38.44873952310522"
    },
    {
      "id": "pt.ine.add.PTCONT.5133204",
      "street": "R CONS RAMADA CURTO",
      "house": "21 B",
      "postcode": "2970-726",
      "city": "SESIMBRA",
      "lon": "-9.102571075420498",
      "lat": "38.446808260240545"
    }
  ]
}