{
  "data": {
    "distrito": "Castelo Branco",
    "concelho": "Idanha-A-Nova",
    "freguesia": "União das freguesias de Idanha-a-Nova e Alcafozes",
    "OBJECTID": 74,
    "BGRI2021": "05051800505",
    "DT21": "05",
    "DTMN21": "0505",
    "DTMNFR21": "050518",
    "DTMNFRSEC21": "050518005",
    "SECNUM21": "005",
    "SSNUM21": "05",
    "SECSSNUM21": "00505",
    "OBJECTID_1": 44631,
    "DT": "05",
    "CC": "05",
    "fr": "18",
    "SEC": "005",
    "SS": "05"
  },
  "addresses": [
    {
      "id": "pt.ine.add.PTCONT.954594",
      "street": "R DR APRÍGIO MELO LEÃO DE MEIRELES",
      "house": "63",
      "postcode": "6060-159",
      "city": "IDANHA-A-NOVA",
      "lon": "-7.241453040081514",
      "lat": "39.92470384019082"
    },
    {
      "id": "pt.ine.add.PTCONT.955762",
      "street": "R NOVA DE EXPANSÃO",
      "house": "2",
      "postcode": "6060-101",
      "city": "IDANHA-A-NOVA",
      "lon": "-7.242256084411466",
      "lat": "39.92411560902024"
    },
    {
      "id": "pt.ine.add.PTCONT.968950",
      "street": "R DR APRÍGIO MELO LEÃO DE MEIRELES",
      "house": "68",
      "postcode": "6060-159",
      "city": "IDANHA-A-NOVA",
      "lon": "-7.241262512414165",
      "lat": "39.92496355233007"
    },
    {
      "id": "pt.ine.add.PTCONT.974570",
      "street": "R DR FIRMINO CRESPO",
      "house": "73",
      "postcode": "6060-709",
      "city": "IDANHA-A-NOVA",
      "lon": "-7.241822413380485",
      "lat": "39.92508493731899"
    },
    {
      "id": "pt.ine.add.PTCONT.977079",
      "street": "R ENG ANTÓNIO BELO DE ALMEIDA",
      "house": "75 D",
      "postcode": "6060-711",
      "city": "IDANHA-A-NOVA",
      "lon": "-7.242304644237124",
      "lat": "39.924881502516214"
    },
    {
      "id": "pt.ine.add.PTCONT.981238",
      "street": "R DR APRÍGIO MELO LEÃO DE MEIRELES",
      "house": "64",
      "postcode": "6060-159",
      "city": "IDANHA-A-NOVA",
      "lon": "-7.241393858146483",
      "lat": "39.92475742177549"
    },
    {
      "id": "pt.ine.add.PTCONT.982447",
      "street": "R ENG ANTÓNIO BELO DE ALMEIDA",
      "house": "76",
      "postcode": "6060-711",
      "city": "IDANHA-A-NOVA",
      "lon": "-7.242352829621841",
      "lat": "39.92477379925254"
    },
    {
      "id": "pt.ine.add.PTCONT.983626",
      "street": "R DR APRÍGIO MELO LEÃO DE MEIRELES",
      "house": "67",
      "postcode": "6060-159",
      "city": "IDANHA-A-NOVA",
      "lon": "-7.241286605968261",
      "lat": "39.92490970092784"
    },
    {
      "id": "pt.ine.add.PTCONT.984742",
      "street": "R DR APRÍGIO MELO LEÃO DE MEIRELES",
      "house": "66",
      "postcode": "6060-159",
      "city": "IDANHA-A-NOVA",
      "lon": "-7.241322278851633",
      "lat": "39.92486494470422"
    },
    {
      "id": "pt.ine.add.PTCONT.991886",
      "street": "R ENG ANTÓNIO BELO DE ALMEIDA",
      "house": "75 B",
      "postcode": "6060-711",
      "city": "IDANHA-A-NOVA",
      "lon": "-7.242256225254213",
      "lat": "39.92500721620576"
    },
    {
      "id": "pt.ine.add.PTCONT.1000855",
      "street": "R DR FIRMINO CRESPO",
      "house": "74",
      "postcode": "6060-709",
      "city": "IDANHA-A-NOVA",
      "lon": "-7.2418923573547245",
      "lat": "39.925103487212716"
    },
    {
      "id": "pt.ine.add.PTCONT.1001599",
      "street": "R DR APRÍGIO MELO LEÃO DE MEIRELES",
      "house": "60",
      "postcode": "6060-159",
      "city": "IDANHA-A-NOVA",
      "lon": "-7.241560291564084",
      "lat": "39.924551560871535"
    },
    {
      "id": "pt.ine.add.PTCONT.1001603",
      "street": "R ENG ANTÓNIO BELO DE ALMEIDA",
      "house": "75",
      "postcode": "6060-711",
      "city": "IDANHA-A-NOVA",
      "lon": "-7.242195876367183",
      "lat": "39.925150850446144"
    },
    {
      "id": "pt.ine.add.PTCONT.1007504",
      "street": "R NOVA DE EXPANSÃO",
      "house": "1",
      "postcode": "6060-101",
      "city": "IDANHA-A-NOVA",
      "lon": "-7.242177013279923",
      "lat": "39.923898854504735"
    },
    {
      "id": "pt.ine.add.PTCONT.1011339",
      "street": "R DR FIRMINO CRESPO",
      "house": "71",
      "postcode": "6060-709",
      "city": "IDANHA-A-NOVA",
      "lon": "-7.241659249856981",
      "lat": "39.925038652329825"
    },
    {
      "id": "pt.ine.add.PTCONT.1012770",
      "street": "R NOVA DE EXPANSÃO",
      "house": "3",
      "postcode": "6060-101",
      "city": "IDANHA-A-NOVA",
      "lon": "-7.24228883838756",
      "lat": "39.924295983133675"
    },
    {
      "id": "pt.ine.add.PTCONT.1020208",
      "street": "R ENG ANTÓNIO BELO DE ALMEIDA",
      "house": "75 C",
      "postcode": "6060-711",
      "city": "IDANHA-A-NOVA",
      "lon": "-7.242280434768296",
      "lat": "39.924944359364076"
    },
    {
      "id": "pt.ine.add.PTCONT.1027065",
      "street": "R DR APRÍGIO MELO LEÃO DE MEIRELES",
      "house": "62",
      "postcode": "6060-159",
      "city": "IDANHA-A-NOVA",
      "lon": "-7.241488829569448",
      "lat": "39.92465007868864"
    },
    {
      "id": "pt.ine.add.PTCONT.1030567",
      "street": "R ENG ANTÓNIO BELO DE ALMEIDA",
      "house": "75 A",
      "postcode": "6060-711",
      "city": "IDANHA-A-NOVA",
      "lon": "-7.242196810211551",
      "lat": "39.92507880865066"
    },
    {
      "id": "pt.ine.add.PTCONT.1032095",
      "street": "R DR FIRMINO CRESPO",
      "house": "72",
      "postcode": "6060-709",
      "city": "IDANHA-A-NOVA",
      "lon": "-7.241729193738475",
      "lat": "39.92505720232113"
    },
    {
      "id": "pt.ine.add.PTCONT.1052150",
      "street": "R ENG ANTÓNIO BELO DE ALMEIDA",
      "house": "75 E",
      "postcode": "6060-711",
      "city": "IDANHA-A-NOVA",
      "lon": "-7.242328736948704",
      "lat": "39.92482765088734"
    },
    {
      "id": "pt.ine.add.PTCONT.1052855",
      "street": "R DR APRÍGIO MELO LEÃO DE MEIRELES",
      "house": "65",
      "postcode": "6060-159",
      "city": "IDANHA-A-NOVA",
      "lon": "-7.241358068527345",
      "lat": "39.92481118324592"
    },
    {
      "id": "pt.ine.add.PTCONT.1059035",
      "street": "R NOVA DE EXPANSÃO",
      "house": "4",
      "postcode": "6060-101",
      "city": "IDANHA-A-NOVA",
      "lon": "-7.242332938547187",
      "lat": "39.924503462770595"
    },
    {
      "id": "pt.ine.add.PTCONT.1059707",
      "street": "R DR APRÍGIO MELO LEÃO DE MEIRELES",
      "house": "59",
      "postcode": "6060-159",
      "city": "IDANHA-A-NOVA",
      "lon": "-7.241607777038926",
      "lat": "39.924497889265425"
    },
    {
      "id": "pt.ine.add.PTCONT.1085907",
      "street": "R DR FIRMINO CRESPO",
      "house": "69",
      "postcode": "6060-709",
      "city": "IDANHA-A-NOVA",
      "lon": "-7.241484273498108",
      "lat": "39.92500128239136"
    },
    {
      "id": "pt.ine.add.PTCONT.1091533",
      "street": "R DR APRÍGIO MELO LEÃO DE MEIRELES",
      "house": "61",
      "postcode": "6060-159",
      "city": "IDANHA-A-NOVA",
      "lon": "-7.241524502184379",
      "lat": "39.92460532239789"
    },
    {
      "id": "pt.ine.add.PTCONT.1093876",
      "street": "R DR APRÍGIO MELO LEÃO DE MEIRELES",
      "house": "97",
      "postcode": "6060-159",
      "city": "IDANHA-A-NOVA",
      "lon": "-7.241715378222463",
      "lat": "39.92431859411689"
    },
    {
      "id": "pt.ine.add.PTCONT.1098397",
      "street": "R DR FIRMINO CRESPO",
      "house": "70",
      "postcode": "6060-709",
      "city": "IDANHA-A-NOVA",
      "lon": "-7.241589422823591",
      "lat": "39.92501109707355"
    }
  ]
}