{
  "data": {
    "distrito": "Aveiro",
    "concelho": "Oliveira de Azeméis",
    "freguesia": "União das freguesias de Oliveira de Azeméis, Santiago da Riba-Ul, Ul, Macinhata da Seixa e Madail",
    "OBJECTID": 768,
    "BGRI2021": "01132101120",
    "DT21": "01",
    "DTMN21": "0113",
    "DTMNFR21": "011321",
    "DTMNFRSEC21": "011321011",
    "SECNUM21": "011",
    "SSNUM21": "20",
    "SECSSNUM21": "01120",
    "OBJECTID_1": 8994,
    "DT": "01",
    "CC": "13",
    "fr": "21",
    "SEC": "011",
    "SS": "20"
  },
  "addresses": [
    {
      "id": "pt.ine.add.PTCONT.299174",
      "street": "R AUGUSTO BARROS",
      "house": "118",
      "postcode": "3720-202",
      "city": "OLIVEIRA DE AZEMÉIS",
      "lon": "-8.46753166817959",
      "lat": "40.83934746747684"
    },
    {
      "id": "pt.ine.add.PTCONT.303642",
      "street": "R AUGUSTO BARROS",
      "house": "64",
      "postcode": "3720-202",
      "city": "OLIVEIRA DE AZEMÉIS",
      "lon": "-8.467865467526241",
      "lat": "40.839706693949886"
    },
    {
      "id": "pt.ine.add.PTCONT.314836",
      "street": "R GRUPO FOLCLORICO DE CIDACOS",
      "house": "79",
      "postcode": "3720-205",
      "city": "OLIVEIRA DE AZEMÉIS",
      "lon": "-8.468268143526265",
      "lat": "40.83961547614176"
    },
    {
      "id": "pt.ine.add.PTCONT.328358",
      "street": "R ANTÓNIO PEREIRA DA COSTA",
      "house": "151",
      "postcode": "3720-207",
      "city": "OLIVEIRA DE AZEMÉIS",
      "lon": "-8.470126594107125",
      "lat": "40.83666547058637"
    },
    {
      "id": "pt.ine.add.PTCONT.328359",
      "street": "R ANTÓNIO PEREIRA DA COSTA",
      "house": "85",
      "postcode": "3720-207",
      "city": "OLIVEIRA DE AZEMÉIS",
      "lon": "-8.469498169552663",
      "lat": "40.8366582998201"
    },
    {
      "id": "pt.ine.add.PTCONT.328360",
      "street": "R ANTÓNIO PEREIRA DA COSTA",
      "house": "85",
      "postcode": "3720-207",
      "city": "OLIVEIRA DE AZEMÉIS",
      "lon": "-8.469498169552663",
      "lat": "40.8366582998201"
    },
    {
      "id": "pt.ine.add.PTCONT.328985",
      "street": "R NSA SRA DO CARMO",
      "house": "",
      "postcode": "3720-207",
      "city": "OLIVEIRA DE AZEMÉIS",
      "lon": "-8.469742458158295",
      "lat": "40.83573008568075"
    },
    {
      "id": "pt.ine.add.PTCONT.336766",
      "street": "R NSA SRA DO CARMO",
      "house": "119",
      "postcode": "3720-207",
      "city": "OLIVEIRA DE AZEMÉIS",
      "lon": "-8.46941201180478",
      "lat": "40.83837848072423"
    },
    {
      "id": "pt.ine.add.PTCONT.341729",
      "street": "R CERCA DO MOSTEIRO",
      "house": "107",
      "postcode": "3720-204",
      "city": "OLIVEIRA DE AZEMÉIS",
      "lon": "-8.467764861924552",
      "lat": "40.83856336794313"
    },
    {
      "id": "pt.ine.add.PTCONT.341730",
      "street": "R GRUPO FOLCLORICO DE CIDACOS",
      "house": "47",
      "postcode": "3720-205",
      "city": "OLIVEIRA DE AZEMÉIS",
      "lon": "-8.468269685660365",
      "lat": "40.839921637046054"
    },
    {
      "id": "pt.ine.add.PTCONT.6896",
      "street": "R GRUPO FOLCLORICO DE CIDACOS",
      "house": "39",
      "postcode": "3720-205",
      "city": "OLIVEIRA DE AZEMÉIS",
      "lon": "-8.468270093876303",
      "lat": "40.84000267963563"
    },
    {
      "id": "pt.ine.add.PTCONT.14790",
      "street": "R ANTÓNIO PEREIRA DA COSTA",
      "house": "",
      "postcode": "3720-207",
      "city": "OLIVEIRA DE AZEMÉIS",
      "lon": "-8.46975850501773",
      "lat": "40.83655848686868"
    },
    {
      "id": "pt.ine.add.PTCONT.28150",
      "street": "R AUGUSTO BARROS",
      "house": "152",
      "postcode": "3720-202",
      "city": "OLIVEIRA DE AZEMÉIS",
      "lon": "-8.467210362043",
      "lat": "40.83911427194891"
    },
    {
      "id": "pt.ine.add.PTCONT.30168",
      "street": "CAM FUNDO",
      "house": "SN",
      "postcode": "3720-207",
      "city": "OLIVEIRA DE AZEMÉIS",
      "lon": "-8.467603665559466",
      "lat": "40.837159076135585"
    },
    {
      "id": "pt.ine.add.PTCONT.30169",
      "street": "CAM FUNDO",
      "house": "SN",
      "postcode": "3720-207",
      "city": "OLIVEIRA DE AZEMÉIS",
      "lon": "-8.467603665559466",
      "lat": "40.837159076135585"
    },
    {
      "id": "pt.ine.add.PTCONT.51564",
      "street": "R AUGUSTO BARROS",
      "house": "80",
      "postcode": "3720-202",
      "city": "OLIVEIRA DE AZEMÉIS",
      "lon": "-8.467746356569942",
      "lat": "40.839598981143425"
    },
    {
      "id": "pt.ine.add.PTCONT.57403",
      "street": "R ANTÓNIO PEREIRA DA COSTA",
      "house": "137",
      "postcode": "3720-207",
      "city": "OLIVEIRA DE AZEMÉIS",
      "lon": "-8.470007940854792",
      "lat": "40.836647807408895"
    },
    {
      "id": "pt.ine.add.PTCONT.58593",
      "street": "R CERCA DO MOSTEIRO",
      "house": "3",
      "postcode": "3720-204",
      "city": "OLIVEIRA DE AZEMÉIS",
      "lon": "-8.468231711640458",
      "lat": "40.83944448955102"
    },
    {
      "id": "pt.ine.add.PTCONT.74057",
      "street": "CAM FUNDO DO LUGAR",
      "house": "68",
      "postcode": "3720-207",
      "city": "OLIVEIRA DE AZEMÉIS",
      "lon": "-8.469152748038146",
      "lat": "40.83634413607679"
    },
    {
      "id": "pt.ine.add.PTCONT.76738",
      "street": "R CERCA DO MOSTEIRO",
      "house": "52",
      "postcode": "3720-204",
      "city": "OLIVEIRA DE AZEMÉIS",
      "lon": "-8.467802424419224",
      "lat": "40.83895947307282"
    },
    {
      "id": "pt.ine.add.PTCONT.80431",
      "street": "R CERCA DO MOSTEIRO",
      "house": "115",
      "postcode": "3720-204",
      "city": "OLIVEIRA DE AZEMÉIS",
      "lon": "-8.4677525525254",
      "lat": "40.8384733549875"
    },
    {
      "id": "pt.ine.add.PTCONT.80432",
      "street": "R CERCA DO MOSTEIRO",
      "house": "115",
      "postcode": "3720-204",
      "city": "OLIVEIRA DE AZEMÉIS",
      "lon": "-8.4677525525254",
      "lat": "40.8384733549875"
    },
    {
      "id": "pt.ine.add.PTCONT.97806",
      "street": "R CERCA DO MOSTEIRO",
      "house": "258",
      "postcode": "3720-204",
      "city": "OLIVEIRA DE AZEMÉIS",
      "lon": "-8.468816551236085",
      "lat": "40.83785793275898"
    },
    {
      "id": "pt.ine.add.PTCONT.101251",
      "street": "R ANTÓNIO PEREIRA DA COSTA",
      "house": "41",
      "postcode": "3720-207",
      "city": "OLIVEIRA DE AZEMÉIS",
      "lon": "-8.469853855758553",
      "lat": "40.8366572621446"
    },
    {
      "id": "pt.ine.add.PTCONT.101252",
      "street": "R ANTÓNIO PEREIRA DA COSTA",
      "house": "41",
      "postcode": "3720-207",
      "city": "OLIVEIRA DE AZEMÉIS",
      "lon": "-8.469853855758553",
      "lat": "40.8366572621446"
    },
    {
      "id": "pt.ine.add.PTCONT.112488",
      "street": "R NSA SRA DO CARMO",
      "house": "28",
      "postcode": "3720-207",
      "city": "OLIVEIRA DE AZEMÉIS",
      "lon": "-8.469634205592909",
      "lat": "40.83542423590516"
    },
    {
      "id": "pt.ine.add.PTCONT.112489",
      "street": "R NSA SRA DO CARMO",
      "house": "28",
      "postcode": "3720-207",
      "city": "OLIVEIRA DE AZEMÉIS",
      "lon": "-8.469634205592909",
      "lat": "40.83542423590516"
    },
    {
      "id": "pt.ine.add.PTCONT.113254",
      "street": "R CERCA DO MOSTEIRO",
      "house": "25",
      "postcode": "3720-204",
      "city": "OLIVEIRA DE AZEMÉIS",
      "lon": "-8.468088615203232",
      "lat": "40.83928281757636"
    },
    {
      "id": "pt.ine.add.PTCONT.132823",
      "street": "R CERCA DO MOSTEIRO",
      "house": "248-256",
      "postcode": "3720-204",
      "city": "OLIVEIRA DE AZEMÉIS",
      "lon": "-8.468758086688982",
      "lat": "40.83802019048027"
    },
    {
      "id": "pt.ine.add.PTCONT.132824",
      "street": "R CERCA DO MOSTEIRO",
      "house": "248-256",
      "postcode": "3720-204",
      "city": "OLIVEIRA DE AZEMÉIS",
      "lon": "-8.468758086688982",
      "lat": "40.83802019048027"
    },
    {
      "id": "pt.ine.add.PTCONT.135565",
      "street": "R NSA SRA DO CARMO",
      "house": "",
      "postcode": "3720-207",
      "city": "OLIVEIRA DE AZEMÉIS",
      "lon": "-8.46959681645319",
      "lat": "40.83506415011828"
    },
    {
      "id": "pt.ine.add.PTCONT.149929",
      "street": "R CERCA DO MOSTEIRO",
      "house": "240",
      "postcode": "3720-204",
      "city": "OLIVEIRA DE AZEMÉIS",
      "lon": "-8.468782344673798",
      "lat": "40.83812817830216"
    },
    {
      "id": "pt.ine.add.PTCONT.192655",
      "street": "R NSA SRA DO CARMO",
      "house": "",
      "postcode": "3720-207",
      "city": "OLIVEIRA DE AZEMÉIS",
      "lon": "-8.469890700379533",
      "lat": "40.83690929091513"
    },
    {
      "id": "pt.ine.add.PTCONT.199217",
      "street": "R D DIVA ABREU FREIRE",
      "house": "",
      "postcode": "3720-127",
      "city": "OLIVEIRA DE AZEMÉIS",
      "lon": "-8.469197307607567",
      "lat": "40.83577669946827"
    },
    {
      "id": "pt.ine.add.PTCONT.205540",
      "street": "R ANTÓNIO PEREIRA DA COSTA",
      "house": "75",
      "postcode": "3720-207",
      "city": "OLIVEIRA DE AZEMÉIS",
      "lon": "-8.469403774949825",
      "lat": "40.8367486237107"
    },
    {
      "id": "pt.ine.add.PTCONT.209992",
      "street": "R ANTÓNIO PEREIRA DA COSTA",
      "house": "141",
      "postcode": "3720-207",
      "city": "OLIVEIRA DE AZEMÉIS",
      "lon": "-8.47004382861342",
      "lat": "40.83671073668329"
    },
    {
      "id": "pt.ine.add.PTCONT.231771",
      "street": "R GRUPO FOLCLORICO DE CIDACOS",
      "house": "71",
      "postcode": "3720-205",
      "city": "OLIVEIRA DE AZEMÉIS",
      "lon": "-8.468268642449408",
      "lat": "40.83971452820081"
    },
    {
      "id": "pt.ine.add.PTCONT.239965",
      "street": "R GRUPO FOLCLORICO DE CIDACOS",
      "house": "63",
      "postcode": "3720-205",
      "city": "OLIVEIRA DE AZEMÉIS",
      "lon": "-8.46826900530416",
      "lat": "40.839786566060866"
    },
    {
      "id": "pt.ine.add.PTCONT.245450",
      "street": "R NSA SRA CARMO SN",
      "house": "SN",
      "postcode": "3720-207",
      "city": "OLIVEIRA DE AZEMÉIS",
      "lon": "-8.469783174087413",
      "lat": "40.836747517126256"
    },
    {
      "id": "pt.ine.add.PTCONT.245454",
      "street": "R CERCA DO MOSTEIRO",
      "house": "",
      "postcode": "3720-204",
      "city": "OLIVEIRA DE AZEMÉIS",
      "lon": "-8.467694718733668",
      "lat": "40.838761678450034"
    },
    {
      "id": "pt.ine.add.PTCONT.250706",
      "street": "R NSA SRA DO CARMO",
      "house": "192",
      "postcode": "3720-207",
      "city": "OLIVEIRA DE AZEMÉIS",
      "lon": "-8.469057089226418",
      "lat": "40.838532597547946"
    },
    {
      "id": "pt.ine.add.PTCONT.250710",
      "street": "R GRUPO FOLCLORICO DE CIDACOS",
      "house": "55",
      "postcode": "3720-205",
      "city": "OLIVEIRA DE AZEMÉIS",
      "lon": "-8.468269322803147",
      "lat": "40.83984959918769"
    },
    {
      "id": "pt.ine.add.PTCONT.269717",
      "street": "CAM FUNDO DO LUGAR",
      "house": "351",
      "postcode": "3720-207",
      "city": "OLIVEIRA DE AZEMÉIS",
      "lon": "-8.469662972399563",
      "lat": "40.83642369256558"
    },
    {
      "id": "pt.ine.add.PTCONT.280526",
      "street": "R GRUPO FOLCLORICO DE CIDACOS",
      "house": "93",
      "postcode": "3720-205",
      "city": "OLIVEIRA DE AZEMÉIS",
      "lon": "-8.468232119803288",
      "lat": "40.83952553214764"
    },
    {
      "id": "pt.ine.add.PTCONT.285624",
      "street": "R ANTÓNIO PEREIRA DA COSTA",
      "house": "17",
      "postcode": "3720-207",
      "city": "OLIVEIRA DE AZEMÉIS",
      "lon": "-8.469925539911028",
      "lat": "40.836765111306754"
    }
  ]
}