{
  "data": {
    "distrito": "Set√∫bal",
    "concelho": "Seixal",
    "freguesia": "Amora",
    "OBJECTID": 485,
    "BGRI2021": "15100202916",
    "DT21": "15",
    "DTMN21": "1510",
    "DTMNFR21": "151002",
    "DTMNFRSEC21": "151002029",
    "SECNUM21": "029",
    "SSNUM21": "16",
    "SECSSNUM21": "02916",
    "OBJECTID_1": 167584,
    "DT": "15",
    "CC": "10",
    "fr": "02",
    "SEC": "029",
    "SS": "16"
  },
  "addresses": [
    {
      "id": "pt.ine.add.PTCONT.4669669",
      "street": "R NENUFARES",
      "house": "5",
      "postcode": "2845-516",
      "city": "AMORA",
      "lon": "-9.138089001330728",
      "lat": "38.600746948759756"
    },
    {
      "id": "pt.ine.add.PTCONT.4672342",
      "street": "R NENUFARES",
      "house": "11",
      "postcode": "2845-516",
      "city": "AMORA",
      "lon": "-9.138489091331705",
      "lat": "38.600626407206725"
    },
    {
      "id": "pt.ine.add.PTCONT.4675919",
      "street": "R ORQUIDEAS",
      "house": "21",
      "postcode": "2845-502",
      "city": "AMORA",
      "lon": "-9.138217860803696",
      "lat": "38.59928653618829"
    },
    {
      "id": "pt.ine.add.PTCONT.4679587",
      "street": "R JASMINS",
      "house": "17",
      "postcode": "2845-513",
      "city": "AMORA",
      "lon": "-9.138541453441187",
      "lat": "38.60026563492449"
    },
    {
      "id": "pt.ine.add.PTCONT.4701398",
      "street": "R NENUFARES",
      "house": "29",
      "postcode": "2845-516",
      "city": "AMORA",
      "lon": "-9.138608350077583",
      "lat": "38.59930119762525"
    },
    {
      "id": "pt.ine.add.PTCONT.4715672",
      "street": "R NENUFARES",
      "house": "25",
      "postcode": "2845-516",
      "city": "AMORA",
      "lon": "-9.138969561267368",
      "lat": "38.599685439925146"
    },
    {
      "id": "pt.ine.add.PTCONT.4723522",
      "street": "R NENUFARES",
      "house": "3",
      "postcode": "2845-516",
      "city": "AMORA",
      "lon": "-9.137905984172956",
      "lat": "38.60079356072275"
    },
    {
      "id": "pt.ine.add.PTCONT.4793690",
      "street": "R JASMINS",
      "house": "7",
      "postcode": "2845-513",
      "city": "AMORA",
      "lon": "-9.137823755622144",
      "lat": "38.600659145873124"
    },
    {
      "id": "pt.ine.add.PTCONT.4802280",
      "street": "R ORQUIDEAS",
      "house": "23",
      "postcode": "2845-502",
      "city": "AMORA",
      "lon": "-9.138468985471116",
      "lat": "38.59918529025298"
    },
    {
      "id": "pt.ine.add.PTCONT.4809446",
      "street": "R JASMINS",
      "house": "23",
      "postcode": "2845-513",
      "city": "AMORA",
      "lon": "-9.138720572354613",
      "lat": "38.599939805606475"
    },
    {
      "id": "pt.ine.add.PTCONT.4827197",
      "street": "R JASMINS",
      "house": "31",
      "postcode": "2845-513",
      "city": "AMORA",
      "lon": "-9.138427096064465",
      "lat": "38.59947390810391"
    },
    {
      "id": "pt.ine.add.PTCONT.4851491",
      "street": "R JASMINS",
      "house": "21",
      "postcode": "2845-513",
      "city": "AMORA",
      "lon": "-9.138676295523053",
      "lat": "38.60005729088216"
    },
    {
      "id": "pt.ine.add.PTCONT.4896697",
      "street": "R NENUFARES",
      "house": "15",
      "postcode": "2845-516",
      "city": "AMORA",
      "lon": "-9.138681574424984",
      "lat": "38.60043558403722"
    },
    {
      "id": "pt.ine.add.PTCONT.4910825",
      "street": "R NENUFARES",
      "house": "9",
      "postcode": "2845-516",
      "city": "AMORA",
      "lon": "-9.138340256877669",
      "lat": "38.60065471003481"
    },
    {
      "id": "pt.ine.add.PTCONT.4926690",
      "street": "R NENUFARES",
      "house": "21",
      "postcode": "2845-516",
      "city": "AMORA",
      "lon": "-9.138849592516511",
      "lat": "38.600136874104535"
    },
    {
      "id": "pt.ine.add.PTCONT.4941063",
      "street": "R JASMINS",
      "house": "29",
      "postcode": "2845-513",
      "city": "AMORA",
      "lon": "-9.138520676301965",
      "lat": "38.599599216963746"
    },
    {
      "id": "pt.ine.add.PTCONT.4951741",
      "street": "R JASMINS",
      "house": "19",
      "postcode": "2845-513",
      "city": "AMORA",
      "lon": "-9.138631515823574",
      "lat": "38.600138748220104"
    },
    {
      "id": "pt.ine.add.PTCONT.4977440",
      "street": "R JASMINS",
      "house": "116-15",
      "postcode": "2845-513",
      "city": "AMORA",
      "lon": "-9.138440038641649",
      "lat": "38.600401627150745"
    },
    {
      "id": "pt.ine.add.PTCONT.4988164",
      "street": "R JASMINS",
      "house": "9",
      "postcode": "2845-513",
      "city": "AMORA",
      "lon": "-9.138018124688086",
      "lat": "38.60060342849315"
    },
    {
      "id": "pt.ine.add.PTCONT.4991742",
      "street": "R NENUFARES",
      "house": "13",
      "postcode": "2845-516",
      "city": "AMORA",
      "lon": "-9.138613964624065",
      "lat": "38.600526245609075"
    },
    {
      "id": "pt.ine.add.PTCONT.4999241",
      "street": "R JASMINS",
      "house": "27",
      "postcode": "2845-513",
      "city": "AMORA",
      "lon": "-9.138590421834822",
      "lat": "38.599661674121386"
    },
    {
      "id": "pt.ine.add.PTCONT.5022382",
      "street": "R NENUFARES",
      "house": "17",
      "postcode": "2845-516",
      "city": "AMORA",
      "lon": "-9.13877176246413",
      "lat": "38.600317704208585"
    },
    {
      "id": "pt.ine.add.PTCONT.5032118",
      "street": "R NENUFARES",
      "house": "19",
      "postcode": "2845-516",
      "city": "AMORA",
      "lon": "-9.138782360304221",
      "lat": "38.60025455671018"
    },
    {
      "id": "pt.ine.add.PTCONT.5044222",
      "street": "R NENUFARES",
      "house": "23",
      "postcode": "2845-516",
      "city": "AMORA",
      "lon": "-9.138915567346865",
      "lat": "38.59992912166442"
    },
    {
      "id": "pt.ine.add.PTCONT.5079598",
      "street": "R NENUFARES",
      "house": "7",
      "postcode": "2845-516",
      "city": "AMORA",
      "lon": "-9.138237710445111",
      "lat": "38.60070963926739"
    },
    {
      "id": "pt.ine.add.PTCONT.5082358",
      "street": "R JASMINS",
      "house": "25",
      "postcode": "2845-513",
      "city": "AMORA",
      "lon": "-9.13869585733418",
      "lat": "38.59981390514914"
    },
    {
      "id": "pt.ine.add.PTCONT.5122771",
      "street": "R JASMINS",
      "house": "33",
      "postcode": "2845-513",
      "city": "AMORA",
      "lon": "-9.138322541117608",
      "lat": "38.59938472568655"
    }
  ]
}