{
  "data": {
    "distrito": "Viseu",
    "concelho": "Castro Daire",
    "freguesia": "União das freguesias de Reriz e Gafanhão",
    "OBJECTID": 776,
    "BGRI2021": "18032700116",
    "DT21": "18",
    "DTMN21": "1803",
    "DTMNFR21": "180327",
    "DTMNFRSEC21": "180327001",
    "SECNUM21": "001",
    "SSNUM21": "16",
    "SECSSNUM21": "00116",
    "OBJECTID_1": 189006,
    "DT": "18",
    "CC": "03",
    "fr": "27",
    "SEC": "001",
    "SS": "16"
  },
  "addresses": [
    {
      "id": "pt.ine.add.PTCONT.5463579",
      "street": "BC A ARRABALDE",
      "house": "2",
      "postcode": "3600-598",
      "city": "RERIZ",
      "lon": "-7.996518440324162",
      "lat": "40.90212781327595"
    },
    {
      "id": "pt.ine.add.PTCONT.5466264",
      "street": "BC ARRABALDE",
      "house": "16",
      "postcode": "3600-598",
      "city": "RERIZ",
      "lon": "-7.996399870955078",
      "lat": "40.90207364407499"
    },
    {
      "id": "pt.ine.add.PTCONT.5472613",
      "street": "R ARRABALDE",
      "house": "",
      "postcode": "3600-598",
      "city": "RERIZ",
      "lon": "-7.996351545541425",
      "lat": "40.90248780690332"
    },
    {
      "id": "pt.ine.add.PTCONT.5476337",
      "street": "R PAQUITA",
      "house": "12",
      "postcode": "3600-598",
      "city": "RERIZ",
      "lon": "-7.995163292354799",
      "lat": "40.90317976015464"
    },
    {
      "id": "pt.ine.add.PTCONT.5497049",
      "street": "BC ARRABALDE",
      "house": "22",
      "postcode": "3600-598",
      "city": "RERIZ",
      "lon": "-7.99382286035192",
      "lat": "40.90285397685273"
    },
    {
      "id": "pt.ine.add.PTCONT.5505446",
      "street": "R BALSEIRA",
      "house": "",
      "postcode": "3600-598",
      "city": "RERIZ",
      "lon": "-7.996719272469341",
      "lat": "40.902578290213455"
    },
    {
      "id": "pt.ine.add.PTCONT.5505447",
      "street": "R DIREITA",
      "house": "211",
      "postcode": "3600-598",
      "city": "RERIZ",
      "lon": "-7.996171684954393",
      "lat": "40.903379067124526"
    },
    {
      "id": "pt.ine.add.PTCONT.5515405",
      "street": "BC ARRABALDE",
      "house": "",
      "postcode": "3600-598",
      "city": "RERIZ",
      "lon": "-7.996577725081338",
      "lat": "40.902154897830634"
    },
    {
      "id": "pt.ine.add.PTCONT.5547260",
      "street": "BC ARRABALDE",
      "house": "6",
      "postcode": "3600-598",
      "city": "RERIZ",
      "lon": "-7.996411479450362",
      "lat": "40.90219972483161"
    },
    {
      "id": "pt.ine.add.PTCONT.5558466",
      "street": "R DIREITA",
      "house": "245",
      "postcode": "3600-598",
      "city": "RERIZ",
      "lon": "-7.996409643966505",
      "lat": "40.90309119634062"
    },
    {
      "id": "pt.ine.add.PTCONT.5572294",
      "street": "R ARRABALDE",
      "house": "",
      "postcode": "3600-598",
      "city": "RERIZ",
      "lon": "-7.996494240985769",
      "lat": "40.902352904246385"
    },
    {
      "id": "pt.ine.add.PTCONT.5587605",
      "street": "R ARRABALDE",
      "house": "",
      "postcode": "3600-598",
      "city": "RERIZ",
      "lon": "-7.996399500127048",
      "lat": "40.90225373934434"
    },
    {
      "id": "pt.ine.add.PTCONT.5589241",
      "street": "LG PAQUETA",
      "house": "10",
      "postcode": "3600-598",
      "city": "RERIZ",
      "lon": "-7.995305487058994",
      "lat": "40.90328798755045"
    },
    {
      "id": "pt.ine.add.PTCONT.5594954",
      "street": "R DIREITA",
      "house": "24511",
      "postcode": "3600-598",
      "city": "RERIZ",
      "lon": "-7.99698042699244",
      "lat": "40.90255158440556"
    },
    {
      "id": "pt.ine.add.PTCONT.5595008",
      "street": "BC ARRABALDE",
      "house": "",
      "postcode": "3600-598",
      "city": "RERIZ",
      "lon": "-7.993716084451985",
      "lat": "40.90283583827948"
    },
    {
      "id": "pt.ine.add.PTCONT.5595009",
      "street": "R ARRABALDE",
      "house": "92",
      "postcode": "3600-598",
      "city": "RERIZ",
      "lon": "-7.996269396619452",
      "lat": "40.902037470198344"
    },
    {
      "id": "pt.ine.add.PTCONT.5606034",
      "street": "R ARRABALDE",
      "house": "62",
      "postcode": "3600-598",
      "city": "RERIZ",
      "lon": "-7.9958424262405785",
      "lat": "40.90190189102123"
    },
    {
      "id": "pt.ine.add.PTCONT.5606035",
      "street": "R PONTE",
      "house": "205",
      "postcode": "3600-598",
      "city": "RERIZ",
      "lon": "-7.995506893023525",
      "lat": "40.90345931891441"
    },
    {
      "id": "pt.ine.add.PTCONT.5607940",
      "street": "R PONTE",
      "house": "151",
      "postcode": "3600-598",
      "city": "RERIZ",
      "lon": "-7.994036865022935",
      "lat": "40.902674139424306"
    },
    {
      "id": "pt.ine.add.PTCONT.5614790",
      "street": "R ARRABALDE",
      "house": "182",
      "postcode": "3600-598",
      "city": "RERIZ",
      "lon": "-7.995756090051009",
      "lat": "40.90347762553419"
    },
    {
      "id": "pt.ine.add.PTCONT.5628305",
      "street": "R PONTE",
      "house": "175",
      "postcode": "3600-598",
      "city": "RERIZ",
      "lon": "-7.99441642035998",
      "lat": "40.902782653904914"
    },
    {
      "id": "pt.ine.add.PTCONT.5632630",
      "street": "R PONTE",
      "house": "189",
      "postcode": "3600-598",
      "city": "RERIZ",
      "lon": "-7.994618029115482",
      "lat": "40.90285493445245"
    },
    {
      "id": "pt.ine.add.PTCONT.5643948",
      "street": "R ARRABALDE",
      "house": "",
      "postcode": "3600-598",
      "city": "RERIZ",
      "lon": "-7.996589445022586",
      "lat": "40.902226949987735"
    },
    {
      "id": "pt.ine.add.PTCONT.5660636",
      "street": "BC ARRABALDE",
      "house": "14",
      "postcode": "3600-598",
      "city": "RERIZ",
      "lon": "-7.995934040170294",
      "lat": "40.903513856461814"
    },
    {
      "id": "pt.ine.add.PTCONT.5665817",
      "street": "LG PAQUETA",
      "house": "1",
      "postcode": "3600-598",
      "city": "RERIZ",
      "lon": "-7.995507079656498",
      "lat": "40.90336927130269"
    }
  ]
}