{
  "data": {
    "distrito": "Viseu",
    "concelho": "São Pedro do Sul",
    "freguesia": "União das freguesias de São Pedro do Sul, Várzea e Baiões",
    "OBJECTID": 340,
    "BGRI2021": "18162300314",
    "DT21": "18",
    "DTMN21": "1816",
    "DTMNFR21": "181623",
    "DTMNFRSEC21": "181623003",
    "SECNUM21": "003",
    "SSNUM21": "14",
    "SECSSNUM21": "00314",
    "OBJECTID_1": 196537,
    "DT": "18",
    "CC": "16",
    "fr": "23",
    "SEC": "003",
    "SS": "14"
  },
  "addresses": [
    {
      "id": "pt.ine.add.PTCONT.5427216",
      "street": "R CANHOES",
      "house": "",
      "postcode": "3660-685",
      "city": "VÁRZEA SPS",
      "lon": "-8.07915601920431",
      "lat": "40.755803367558705"
    },
    {
      "id": "pt.ine.add.PTCONT.5429648",
      "street": "R PRINCIPAL QUINTELA",
      "house": "750",
      "postcode": "3660-691",
      "city": "VÁRZEA SPS",
      "lon": "-8.092460292037073",
      "lat": "40.746497623886825"
    },
    {
      "id": "pt.ine.add.PTCONT.5435106",
      "street": "R ANCIAES",
      "house": "",
      "postcode": "3660-682",
      "city": "VÁRZEA SPS",
      "lon": "-8.07537614472798",
      "lat": "40.758421998243975"
    },
    {
      "id": "pt.ine.add.PTCONT.5436963",
      "street": "VALE DE ALEM",
      "house": "",
      "postcode": "3660-018",
      "city": "BAIÕES",
      "lon": "-8.086059542672334",
      "lat": "40.75634668930319"
    },
    {
      "id": "pt.ine.add.PTCONT.5437025",
      "street": "R ANCIAES",
      "house": "471",
      "postcode": "3660-681",
      "city": "VÁRZEA SPS",
      "lon": "-8.07444145849547",
      "lat": "40.75743097533181"
    },
    {
      "id": "pt.ine.add.PTCONT.5440639",
      "street": "R PINHAL",
      "house": "67",
      "postcode": "3660-691",
      "city": "VÁRZEA SPS",
      "lon": "-8.091157419972687",
      "lat": "40.747181540127414"
    },
    {
      "id": "pt.ine.add.PTCONT.5441399",
      "street": "R ANCIAES",
      "house": "727",
      "postcode": "3660-682",
      "city": "VÁRZEA SPS",
      "lon": "-8.076263771857949",
      "lat": "40.75907980479688"
    },
    {
      "id": "pt.ine.add.PTCONT.5444441",
      "street": "R CANHOES",
      "house": "700",
      "postcode": "3660-685",
      "city": "VÁRZEA SPS",
      "lon": "-8.08068421413279",
      "lat": "40.75507466533388"
    },
    {
      "id": "pt.ine.add.PTCONT.5446271",
      "street": "R IGREJA",
      "house": "219",
      "postcode": "3660-694",
      "city": "VÁRZEA SPS",
      "lon": "-8.075903289206455",
      "lat": "40.75133531067728"
    },
    {
      "id": "pt.ine.add.PTCONT.5447254",
      "street": "R ANCIAES",
      "house": "673",
      "postcode": "3660-682",
      "city": "VÁRZEA SPS",
      "lon": "-8.075991831127704",
      "lat": "40.758566384797966"
    },
    {
      "id": "pt.ine.add.PTCONT.5449360",
      "street": "R CANHOES",
      "house": "",
      "postcode": "3660-685",
      "city": "VÁRZEA SPS",
      "lon": "-8.080814679667883",
      "lat": "40.754813578965745"
    },
    {
      "id": "pt.ine.add.PTCONT.5451888",
      "street": "R ALTO DE ANCIAES",
      "house": "21",
      "postcode": "3660-681",
      "city": "VÁRZEA SPS",
      "lon": "-8.074334734875592",
      "lat": "40.7575930113022"
    },
    {
      "id": "pt.ine.add.PTCONT.5451889",
      "street": "R ALTO ANCIAES",
      "house": "9",
      "postcode": "3660-681",
      "city": "VÁRZEA SPS",
      "lon": "-8.074334734875592",
      "lat": "40.7575930113022"
    },
    {
      "id": "pt.ine.add.PTCONT.5451890",
      "street": "R ALTO ANCIAES",
      "house": "9",
      "postcode": "3660-681",
      "city": "VÁRZEA SPS",
      "lon": "-8.074334734875592",
      "lat": "40.7575930113022"
    },
    {
      "id": "pt.ine.add.PTCONT.5452735",
      "street": "R ALTO",
      "house": "N 148",
      "postcode": "3660-681",
      "city": "VÁRZEA SPS",
      "lon": "-8.075068889921281",
      "lat": "40.75767442796482"
    },
    {
      "id": "pt.ine.add.PTCONT.5455459",
      "street": "ALTO ANCIAES",
      "house": "131",
      "postcode": "3660-681",
      "city": "VÁRZEA SPS",
      "lon": "-8.075282083645783",
      "lat": "40.75763851492049"
    },
    {
      "id": "pt.ine.add.PTCONT.5455477",
      "street": "ANCIAES",
      "house": "18",
      "postcode": "3660-681",
      "city": "VÁRZEA SPS",
      "lon": "-8.078717379700338",
      "lat": "40.756397492816454"
    },
    {
      "id": "pt.ine.add.PTCONT.5463322",
      "street": "R ANCIÃES",
      "house": "459",
      "postcode": "3660-681",
      "city": "VÁRZEA SPS",
      "lon": "-8.073979663929777",
      "lat": "40.75736770456282"
    },
    {
      "id": "pt.ine.add.PTCONT.5464283",
      "street": "R CANHOES",
      "house": "",
      "postcode": "3660-685",
      "city": "VÁRZEA SPS",
      "lon": "-8.079025866328012",
      "lat": "40.75566823137539"
    },
    {
      "id": "pt.ine.add.PTCONT.5466306",
      "street": "R CEMITÉRIO",
      "house": "365",
      "postcode": "3660-693",
      "city": "VÁRZEA SPS",
      "lon": "-8.084004829260412",
      "lat": "40.74843942303926"
    },
    {
      "id": "pt.ine.add.PTCONT.5469895",
      "street": "R IGREJA",
      "house": "277",
      "postcode": "3660-694",
      "city": "VÁRZEA SPS",
      "lon": "-8.075109605514177",
      "lat": "40.75170412056753"
    },
    {
      "id": "pt.ine.add.PTCONT.5471202",
      "street": "R CRUZEIRO",
      "house": "123",
      "postcode": "3660-694",
      "city": "VÁRZEA SPS",
      "lon": "-8.076377229530337",
      "lat": "40.75099335365886"
    },
    {
      "id": "pt.ine.add.PTCONT.5475187",
      "street": "R VALDEIRAS",
      "house": "301",
      "postcode": "3660-693",
      "city": "VÁRZEA SPS",
      "lon": "-8.084300564278758",
      "lat": "40.74882676472798"
    },
    {
      "id": "pt.ine.add.PTCONT.5478895",
      "street": "R VILA POUCA",
      "house": "",
      "postcode": "3660-021",
      "city": "BAIÕES",
      "lon": "-8.082462761201128",
      "lat": "40.75209479743877"
    },
    {
      "id": "pt.ine.add.PTCONT.5480735",
      "street": "R ALTO DE ANCIAES",
      "house": "44",
      "postcode": "3660-681",
      "city": "VÁRZEA SPS",
      "lon": "-8.07474944539892",
      "lat": "40.7573320763096"
    },
    {
      "id": "pt.ine.add.PTCONT.5480759",
      "street": "R FONTE MONINHO",
      "house": "90",
      "postcode": "3660-694",
      "city": "VÁRZEA SPS",
      "lon": "-8.078554489965706",
      "lat": "40.75284943821932"
    },
    {
      "id": "pt.ine.add.PTCONT.5482488",
      "street": "R CANHOES",
      "house": "100",
      "postcode": "3660-681",
      "city": "VÁRZEA SPS",
      "lon": "-8.075530944037634",
      "lat": "40.75744052901132"
    },
    {
      "id": "pt.ine.add.PTCONT.5484468",
      "street": "R FONTE MONINHO",
      "house": "",
      "postcode": "3660-694",
      "city": "VÁRZEA SPS",
      "lon": "-8.078483057695433",
      "lat": "40.75331766557703"
    },
    {
      "id": "pt.ine.add.PTCONT.5484546",
      "street": "R VALDEIRAS",
      "house": "",
      "postcode": "3660-693",
      "city": "VÁRZEA SPS",
      "lon": "-8.084028166434496",
      "lat": "40.748907694474305"
    },
    {
      "id": "pt.ine.add.PTCONT.5484547",
      "street": "R PRINCIPAL QUINTELA",
      "house": "450",
      "postcode": "3660-691",
      "city": "VÁRZEA SPS",
      "lon": "-8.090448330525893",
      "lat": "40.745083107504094"
    },
    {
      "id": "pt.ine.add.PTCONT.5485014",
      "street": "PCT ALF FIGUEIREDO",
      "house": "30",
      "postcode": "3660-681",
      "city": "VÁRZEA SPS",
      "lon": "-8.075400226865678",
      "lat": "40.75796275457756"
    },
    {
      "id": "pt.ine.add.PTCONT.5486280",
      "street": "R MOITA",
      "house": "",
      "postcode": "3660-694",
      "city": "VÁRZEA SPS",
      "lon": "-8.077380962836457",
      "lat": "40.75430769099483"
    },
    {
      "id": "pt.ine.add.PTCONT.5486281",
      "street": "R REGUENGO",
      "house": "291",
      "postcode": "3660-694",
      "city": "VÁRZEA SPS",
      "lon": "-8.081978361676883",
      "lat": "40.75066278493067"
    },
    {
      "id": "pt.ine.add.PTCONT.5486282",
      "street": "R VILA POUCA",
      "house": "",
      "postcode": "3660-021",
      "city": "BAIÕES",
      "lon": "-8.088050759016289",
      "lat": "40.75377204838756"
    },
    {
      "id": "pt.ine.add.PTCONT.5486731",
      "street": "R VILA NOVA",
      "house": "76",
      "postcode": "3660-018",
      "city": "BAIÕES",
      "lon": "-8.085216806421686",
      "lat": "40.75905685217091"
    },
    {
      "id": "pt.ine.add.PTCONT.5487145",
      "street": "R PRINCIPAL QUINTELA",
      "house": "1136",
      "postcode": "3660-691",
      "city": "VÁRZEA SPS",
      "lon": "-8.093311307195595",
      "lat": "40.74900131897209"
    },
    {
      "id": "pt.ine.add.PTCONT.5489677",
      "street": "R VILA POUCA",
      "house": "",
      "postcode": "3660-021",
      "city": "BAIÕES",
      "lon": "-8.089311122680977",
      "lat": "40.74592915478782"
    },
    {
      "id": "pt.ine.add.PTCONT.5494620",
      "street": "R COSTA",
      "house": "49",
      "postcode": "3660-694",
      "city": "VÁRZEA SPS",
      "lon": "-8.07773724674369",
      "lat": "40.753065169571"
    },
    {
      "id": "pt.ine.add.PTCONT.5500454",
      "street": "TV VILA POUCA",
      "house": "",
      "postcode": "3660-021",
      "city": "BAIÕES",
      "lon": "-8.088086381221386",
      "lat": "40.75362798194912"
    },
    {
      "id": "pt.ine.add.PTCONT.5500469",
      "street": "R CANHOES",
      "house": "550",
      "postcode": "3660-685",
      "city": "VÁRZEA SPS",
      "lon": "-8.079593921613204",
      "lat": "40.756118747045605"
    },
    {
      "id": "pt.ine.add.PTCONT.5508029",
      "street": "R PRINCIPAL QUINTELA",
      "house": "",
      "postcode": "3660-691",
      "city": "VÁRZEA SPS",
      "lon": "-8.09137005921332",
      "lat": "40.74796505490467"
    },
    {
      "id": "pt.ine.add.PTCONT.5508095",
      "street": "R COSTA",
      "house": "309",
      "postcode": "3660-694",
      "city": "VÁRZEA SPS",
      "lon": "-8.080579026161576",
      "lat": "40.75330963352692"
    },
    {
      "id": "pt.ine.add.PTCONT.5509973",
      "street": "R MOITA",
      "house": "285",
      "postcode": "3660-694",
      "city": "VÁRZEA SPS",
      "lon": "-8.07742901351928",
      "lat": "40.75348825730226"
    },
    {
      "id": "pt.ine.add.PTCONT.5513489",
      "street": "R VILA POUCA",
      "house": "",
      "postcode": "3660-018",
      "city": "BAIÕES",
      "lon": "-8.087718524685137",
      "lat": "40.75475346542411"
    },
    {
      "id": "pt.ine.add.PTCONT.5515983",
      "street": "R MOITA",
      "house": "535",
      "postcode": "3660-685",
      "city": "VÁRZEA SPS",
      "lon": "-8.076574670201655",
      "lat": "40.75554999149708"
    },
    {
      "id": "pt.ine.add.PTCONT.5516082",
      "street": "CAM DEGONTILHA",
      "house": "97",
      "postcode": "3660-691",
      "city": "VÁRZEA SPS",
      "lon": "-8.092517709014157",
      "lat": "40.749433283965324"
    },
    {
      "id": "pt.ine.add.PTCONT.5517356",
      "street": "R AIDO",
      "house": "59",
      "postcode": "3660-694",
      "city": "VÁRZEA SPS",
      "lon": "-8.081352234634636",
      "lat": "40.74878946017634"
    },
    {
      "id": "pt.ine.add.PTCONT.5519299",
      "street": "R DEGONTILHA",
      "house": "",
      "postcode": "3660-691",
      "city": "VÁRZEA SPS",
      "lon": "-8.085932130934353",
      "lat": "40.752312388242785"
    },
    {
      "id": "pt.ine.add.PTCONT.5523464",
      "street": "R PRINCIPAL QUINTELA",
      "house": "824",
      "postcode": "3660-691",
      "city": "VÁRZEA SPS",
      "lon": "-8.092341552784841",
      "lat": "40.74704688896964"
    },
    {
      "id": "pt.ine.add.PTCONT.5523542",
      "street": "R PRINCIPAL QUINTELA",
      "house": "824",
      "postcode": "3660-691",
      "city": "VÁRZEA SPS",
      "lon": "-8.092341552784841",
      "lat": "40.74704688896964"
    },
    {
      "id": "pt.ine.add.PTCONT.5523555",
      "street": "R VILA POUCA",
      "house": "",
      "postcode": "3660-691",
      "city": "VÁRZEA SPS",
      "lon": "-8.089462020197569",
      "lat": "40.750557797262616"
    },
    {
      "id": "pt.ine.add.PTCONT.5524938",
      "street": "R MIMOSAS",
      "house": "",
      "postcode": "3660-685",
      "city": "VÁRZEA SPS",
      "lon": "-8.078989128114383",
      "lat": "40.757163046941706"
    },
    {
      "id": "pt.ine.add.PTCONT.5532419",
      "street": "R FONTE MONINHO",
      "house": "90",
      "postcode": "3660-694",
      "city": "VÁRZEA SPS",
      "lon": "-8.078198955857644",
      "lat": "40.75320046548221"
    },
    {
      "id": "pt.ine.add.PTCONT.5536747",
      "street": "R POCA",
      "house": "215",
      "postcode": "3660-694",
      "city": "VÁRZEA SPS",
      "lon": "-8.082404942932422",
      "lat": "40.75026675196619"
    },
    {
      "id": "pt.ine.add.PTCONT.5539337",
      "street": "R COSTA",
      "house": "",
      "postcode": "3660-694",
      "city": "VÁRZEA SPS",
      "lon": "-8.07996266842903",
      "lat": "40.75405676810821"
    },
    {
      "id": "pt.ine.add.PTCONT.5539300",
      "street": "PCT ALF FIGUEIREDO",
      "house": "40",
      "postcode": "3660-681",
      "city": "VÁRZEA SPS",
      "lon": "-8.075980289258542",
      "lat": "40.758215183553816"
    },
    {
      "id": "pt.ine.add.PTCONT.5543907",
      "street": "R MIMOSAS",
      "house": "17",
      "postcode": "3660-685",
      "city": "VÁRZEA SPS",
      "lon": "-8.078575303502642",
      "lat": "40.756361405705654"
    },
    {
      "id": "pt.ine.add.PTCONT.5543908",
      "street": "R COSTA",
      "house": "368",
      "postcode": "3660-694",
      "city": "VÁRZEA SPS",
      "lon": "-8.080258604492395",
      "lat": "40.75419197930547"
    },
    {
      "id": "pt.ine.add.PTCONT.5546152",
      "street": "R PRINCIPAL",
      "house": "",
      "postcode": "3660-691",
      "city": "VÁRZEA SPS",
      "lon": "-8.086287392259218",
      "lat": "40.75228551783812"
    },
    {
      "id": "pt.ine.add.PTCONT.5550253",
      "street": "R CARVALHAL",
      "house": "",
      "postcode": "3660-694",
      "city": "VÁRZEA SPS",
      "lon": "-8.082202058689766",
      "lat": "40.75234682340223"
    },
    {
      "id": "pt.ine.add.PTCONT.5553905",
      "street": "CAM DEGONTILHA",
      "house": "79",
      "postcode": "3660-691",
      "city": "VÁRZEA SPS",
      "lon": "-8.092825545315767",
      "lat": "40.74947841695544"
    },
    {
      "id": "pt.ine.add.PTCONT.5555387",
      "street": "QTA PEREIRA",
      "house": "511",
      "postcode": "3660-685",
      "city": "VÁRZEA SPS",
      "lon": "-8.077344369144559",
      "lat": "40.75558638602564"
    },
    {
      "id": "pt.ine.add.PTCONT.5555388",
      "street": "QTA PEREIRA",
      "house": "511",
      "postcode": "3660-685",
      "city": "VÁRZEA SPS",
      "lon": "-8.077344369144559",
      "lat": "40.75558638602564"
    },
    {
      "id": "pt.ine.add.PTCONT.5559086",
      "street": "R CANHOES",
      "house": "575",
      "postcode": "3660-685",
      "city": "VÁRZEA SPS",
      "lon": "-8.079369219261437",
      "lat": "40.7557494369188"
    },
    {
      "id": "pt.ine.add.PTCONT.5561900",
      "street": "R CRUZEIRO",
      "house": "151",
      "postcode": "3660-694",
      "city": "VÁRZEA SPS",
      "lon": "-8.076234928249546",
      "lat": "40.75123641930137"
    },
    {
      "id": "pt.ine.add.PTCONT.5561902",
      "street": "R PRINCIPAL QUINTELA",
      "house": "",
      "postcode": "3660-691",
      "city": "VÁRZEA SPS",
      "lon": "-8.09261273122814",
      "lat": "40.74894704581213"
    },
    {
      "id": "pt.ine.add.PTCONT.5566334",
      "street": "R PRINCIPAL QUINTELA",
      "house": "",
      "postcode": "3660-691",
      "city": "VÁRZEA SPS",
      "lon": "-8.091038186410175",
      "lat": "40.74849623117503"
    },
    {
      "id": "pt.ine.add.PTCONT.5568155",
      "street": "R PRINCIPAL QUINTELA",
      "house": "36",
      "postcode": "3660-691",
      "city": "VÁRZEA SPS",
      "lon": "-8.092967863672207",
      "lat": "40.74910025535401"
    },
    {
      "id": "pt.ine.add.PTCONT.5572154",
      "street": "R FONTE MONINHO",
      "house": "105",
      "postcode": "3660-694",
      "city": "VÁRZEA SPS",
      "lon": "-8.078246181496299",
      "lat": "40.75337158335204"
    },
    {
      "id": "pt.ine.add.PTCONT.5573663",
      "street": "R IGREJA",
      "house": "277",
      "postcode": "3660-694",
      "city": "VÁRZEA SPS",
      "lon": "-8.075192533698782",
      "lat": "40.75165913708987"
    },
    {
      "id": "pt.ine.add.PTCONT.5579259",
      "street": "R MOITA",
      "house": "67",
      "postcode": "3660-694",
      "city": "VÁRZEA SPS",
      "lon": "-8.075097224193568",
      "lat": "40.7523254609728"
    },
    {
      "id": "pt.ine.add.PTCONT.5586570",
      "street": "R REGUENGO",
      "house": "",
      "postcode": "3660-694",
      "city": "VÁRZEA SPS",
      "lon": "-8.08219111028557",
      "lat": "40.75117616543379"
    },
    {
      "id": "pt.ine.add.PTCONT.5586586",
      "street": "R CIMO",
      "house": "",
      "postcode": "3660-691",
      "city": "VÁRZEA SPS",
      "lon": "-8.094187108310768",
      "lat": "40.74972201988125"
    },
    {
      "id": "pt.ine.add.PTCONT.5586587",
      "street": "CAM DEGONTILHA",
      "house": "61",
      "postcode": "3660-691",
      "city": "VÁRZEA SPS",
      "lon": "-8.093003191439065",
      "lat": "40.749424448652356"
    },
    {
      "id": "pt.ine.add.PTCONT.5587813",
      "street": "R BOUCO",
      "house": "57",
      "postcode": "3660-021",
      "city": "BAIÕES",
      "lon": "-8.089934033388992",
      "lat": "40.75307938157187"
    },
    {
      "id": "pt.ine.add.PTCONT.5589255",
      "street": "R BOUCO",
      "house": "57",
      "postcode": "3660-021",
      "city": "BAIÕES",
      "lon": "-8.089934033388992",
      "lat": "40.75307938157187"
    },
    {
      "id": "pt.ine.add.PTCONT.5590295",
      "street": "R PINHAL",
      "house": "",
      "postcode": "3660-691",
      "city": "VÁRZEA SPS",
      "lon": "-8.091204985467288",
      "lat": "40.746857376263335"
    },
    {
      "id": "pt.ine.add.PTCONT.5590392",
      "street": "R CANHOES",
      "house": "1",
      "postcode": "3660-685",
      "city": "VÁRZEA SPS",
      "lon": "-8.078362159946412",
      "lat": "40.75634329476495"
    },
    {
      "id": "pt.ine.add.PTCONT.5592128",
      "street": "R VALDEIRAS",
      "house": "242",
      "postcode": "3660-693",
      "city": "VÁRZEA SPS",
      "lon": "-8.0836137982413",
      "lat": "40.748826472267524"
    },
    {
      "id": "pt.ine.add.PTCONT.5594087",
      "street": "R ALTO ANCIAES",
      "house": "",
      "postcode": "3660-681",
      "city": "VÁRZEA SPS",
      "lon": "-8.074252029052436",
      "lat": "40.757376848794884"
    },
    {
      "id": "pt.ine.add.PTCONT.5594714",
      "street": "R CANHOES",
      "house": "",
      "postcode": "3660-685",
      "city": "VÁRZEA SPS",
      "lon": "-8.07883627705676",
      "lat": "40.75581222266488"
    },
    {
      "id": "pt.ine.add.PTCONT.5597868",
      "street": "R MOITA",
      "house": "39",
      "postcode": "3660-694",
      "city": "VÁRZEA SPS",
      "lon": "-8.075262933734642",
      "lat": "40.75240658935093"
    },
    {
      "id": "pt.ine.add.PTCONT.5601441",
      "street": "R ANCIAES",
      "house": "645",
      "postcode": "3660-682",
      "city": "VÁRZEA SPS",
      "lon": "-8.075648413549462",
      "lat": "40.758548204306706"
    },
    {
      "id": "pt.ine.add.PTCONT.5603217",
      "street": "R ANCIAES",
      "house": "",
      "postcode": "3660-685",
      "city": "VÁRZEA SPS",
      "lon": "-8.078065616603464",
      "lat": "40.75693748480355"
    },
    {
      "id": "pt.ine.add.PTCONT.5605054",
      "street": "R VILA NOVA",
      "house": "84",
      "postcode": "3660-018",
      "city": "BAIÕES",
      "lon": "-8.084778564670188",
      "lat": "40.75914671961328"
    },
    {
      "id": "pt.ine.add.PTCONT.5605057",
      "street": "R MOITA",
      "house": "",
      "postcode": "3660-685",
      "city": "VÁRZEA SPS",
      "lon": "-8.076633171450284",
      "lat": "40.756387486759735"
    },
    {
      "id": "pt.ine.add.PTCONT.5610409",
      "street": "R PRINCIPAL QUINTELA",
      "house": "960",
      "postcode": "3660-691",
      "city": "VÁRZEA SPS",
      "lon": "-8.0913224599064",
      "lat": "40.74834324894038"
    },
    {
      "id": "pt.ine.add.PTCONT.5617062",
      "street": "R PRINCIPAL QUINTELA",
      "house": "888",
      "postcode": "3660-691",
      "city": "VÁRZEA SPS",
      "lon": "-8.091678167397069",
      "lat": "40.74755993953635"
    },
    {
      "id": "pt.ine.add.PTCONT.5618210",
      "street": "R MIMOSAS",
      "house": "",
      "postcode": "3660-685",
      "city": "VÁRZEA SPS",
      "lon": "-8.079095796019866",
      "lat": "40.75705503672212"
    },
    {
      "id": "pt.ine.add.PTCONT.5620025",
      "street": "R PRINCIPAL QUINTELA",
      "house": "1130",
      "postcode": "3660-691",
      "city": "VÁRZEA SPS",
      "lon": "-8.092742974764754",
      "lat": "40.74895609646453"
    },
    {
      "id": "pt.ine.add.PTCONT.5620782",
      "street": "R PRINCIPAL QUINTELA",
      "house": "480",
      "postcode": "3660-691",
      "city": "VÁRZEA SPS",
      "lon": "-8.090211620482538",
      "lat": "40.74493893921439"
    },
    {
      "id": "pt.ine.add.PTCONT.5621937",
      "street": "R MOITA",
      "house": "255",
      "postcode": "3660-694",
      "city": "VÁRZEA SPS",
      "lon": "-8.077168663932243",
      "lat": "40.75329002093697"
    },
    {
      "id": "pt.ine.add.PTCONT.5626599",
      "street": "R ALTO DE ANCIAES",
      "house": "31",
      "postcode": "3660-681",
      "city": "VÁRZEA SPS",
      "lon": "-8.07450082034624",
      "lat": "40.757259910201896"
    },
    {
      "id": "pt.ine.add.PTCONT.5629437",
      "street": "R POCA",
      "house": "210",
      "postcode": "3660-694",
      "city": "VÁRZEA SPS",
      "lon": "-8.082440643795321",
      "lat": "40.75003263695066"
    },
    {
      "id": "pt.ine.add.PTCONT.5629544",
      "street": "R MOITA",
      "house": "393",
      "postcode": "3660-685",
      "city": "VÁRZEA SPS",
      "lon": "-8.077213941316613",
      "lat": "40.75578443332778"
    },
    {
      "id": "pt.ine.add.PTCONT.5634438",
      "street": "R ALTO DE ANCIAES",
      "house": "",
      "postcode": "3660-681",
      "city": "VÁRZEA SPS",
      "lon": "-8.077732905817333",
      "lat": "40.758297082895986"
    },
    {
      "id": "pt.ine.add.PTCONT.5637159",
      "street": "R ALTO DE ANCIAES",
      "house": "173",
      "postcode": "3660-682",
      "city": "VÁRZEA SPS",
      "lon": "-8.074500385383807",
      "lat": "40.75775518580487"
    },
    {
      "id": "pt.ine.add.PTCONT.5637272",
      "street": "R POCA",
      "house": "",
      "postcode": "3660-694",
      "city": "VÁRZEA SPS",
      "lon": "-8.081089091747392",
      "lat": "40.75218423672393"
    },
    {
      "id": "pt.ine.add.PTCONT.5639132",
      "street": "R MOITA",
      "house": "433",
      "postcode": "3660-685",
      "city": "VÁRZEA SPS",
      "lon": "-8.077546402701119",
      "lat": "40.75472200166542"
    },
    {
      "id": "pt.ine.add.PTCONT.5641346",
      "street": "R ALTO DE ANCIAES",
      "house": "168",
      "postcode": "3660-681",
      "city": "VÁRZEA SPS",
      "lon": "-8.074689973760812",
      "lat": "40.757629211718246"
    },
    {
      "id": "pt.ine.add.PTCONT.5642813",
      "street": "R ANCIAES",
      "house": "583",
      "postcode": "3660-682",
      "city": "VÁRZEA SPS",
      "lon": "-8.075127663592935",
      "lat": "40.758178738309084"
    },
    {
      "id": "pt.ine.add.PTCONT.5642841",
      "street": "R MOITA",
      "house": "695",
      "postcode": "3660-685",
      "city": "VÁRZEA SPS",
      "lon": "-8.076881719696647",
      "lat": "40.75654969841329"
    },
    {
      "id": "pt.ine.add.PTCONT.5646564",
      "street": "R PRINCIPAL QUINTELA",
      "house": "",
      "postcode": "3660-691",
      "city": "VÁRZEA SPS",
      "lon": "-8.091026453529857",
      "lat": "40.74832513133617"
    },
    {
      "id": "pt.ine.add.PTCONT.5649334",
      "street": "R VALDEIRAS",
      "house": "179",
      "postcode": "3660-693",
      "city": "VÁRZEA SPS",
      "lon": "-8.08360245162964",
      "lat": "40.748160095233736"
    },
    {
      "id": "pt.ine.add.PTCONT.5653222",
      "street": "R ALTO DE ANCIAES",
      "house": "",
      "postcode": "3660-681",
      "city": "VÁRZEA SPS",
      "lon": "-8.077673506441094",
      "lat": "40.758522179721766"
    },
    {
      "id": "pt.ine.add.PTCONT.5653224",
      "street": "R MIMOSAS",
      "house": "2",
      "postcode": "3660-685",
      "city": "VÁRZEA SPS",
      "lon": "-8.078231807702442",
      "lat": "40.756451293060934"
    },
    {
      "id": "pt.ine.add.PTCONT.5657099",
      "street": "R CANHOES",
      "house": "441",
      "postcode": "3660-681",
      "city": "VÁRZEA SPS",
      "lon": "-8.074169228327893",
      "lat": "40.75726874635695"
    },
    {
      "id": "pt.ine.add.PTCONT.5657100",
      "street": "R COSTA",
      "house": "320",
      "postcode": "3660-694",
      "city": "VÁRZEA SPS",
      "lon": "-8.080211701410589",
      "lat": "40.753606631469346"
    },
    {
      "id": "pt.ine.add.PTCONT.5660240",
      "street": "R MOITA",
      "house": "745",
      "postcode": "3660-685",
      "city": "VÁRZEA SPS",
      "lon": "-8.077615941269967",
      "lat": "40.75654104875468"
    },
    {
      "id": "pt.ine.add.PTCONT.5661391",
      "street": "R MOITA",
      "house": "269",
      "postcode": "3660-694",
      "city": "VÁRZEA SPS",
      "lon": "-8.077287072243658",
      "lat": "40.75329908328794"
    },
    {
      "id": "pt.ine.add.PTCONT.5662219",
      "street": "R ANCIAES",
      "house": "533",
      "postcode": "3660-682",
      "city": "VÁRZEA SPS",
      "lon": "-8.074772641955724",
      "lat": "40.75789039895567"
    },
    {
      "id": "pt.ine.add.PTCONT.5665592",
      "street": "R MOITA",
      "house": "",
      "postcode": "3660-694",
      "city": "VÁRZEA SPS",
      "lon": "-8.077440449561802",
      "lat": "40.75397453395049"
    },
    {
      "id": "pt.ine.add.PTCONT.5665615",
      "street": "R POCA",
      "house": "209",
      "postcode": "3660-694",
      "city": "VÁRZEA SPS",
      "lon": "-8.082345799320201",
      "lat": "40.750185680730056"
    },
    {
      "id": "pt.ine.add.PTCONT.5665786",
      "street": "R ALTO DE ANCIAES",
      "house": "32",
      "postcode": "3660-681",
      "city": "VÁRZEA SPS",
      "lon": "-8.074701957977135",
      "lat": "40.75746712751507"
    },
    {
      "id": "pt.ine.add.PTCONT.5667863",
      "street": "R CANHOES",
      "house": "336",
      "postcode": "3660-685",
      "city": "VÁRZEA SPS",
      "lon": "-8.077627319281621",
      "lat": "40.75709936522473"
    }
  ]
}