{
  "data": {
    "distrito": "Viseu",
    "concelho": "Tondela",
    "freguesia": "Parada de Gonta",
    "OBJECTID": 1371,
    "BGRI2021": "18211600113",
    "DT21": "18",
    "DTMN21": "1821",
    "DTMNFR21": "182116",
    "DTMNFRSEC21": "182116001",
    "SECNUM21": "001",
    "SSNUM21": "13",
    "SECSSNUM21": "00113",
    "OBJECTID_1": 200232,
    "DT": "18",
    "CC": "21",
    "fr": "16",
    "SEC": "001",
    "SS": "13"
  },
  "addresses": [
    {
      "id": "pt.ine.add.PTCONT.5433599",
      "street": "AV POETA TOMAS RIBEIRO",
      "house": "108",
      "postcode": "3460-376",
      "city": "PARADA DE GONTA",
      "lon": "-7.996084795066272",
      "lat": "40.58215136060007"
    },
    {
      "id": "pt.ine.add.PTCONT.5444638",
      "street": "R PASSADICO",
      "house": "26",
      "postcode": "3460-404",
      "city": "PARADA DE GONTA",
      "lon": "-7.995871197400872",
      "lat": "40.58263739246675"
    },
    {
      "id": "pt.ine.add.PTCONT.5447176",
      "street": "AV POETA TOMAS RIBEIRO",
      "house": "214",
      "postcode": "3460-376",
      "city": "PARADA DE GONTA",
      "lon": "-7.997524849298585",
      "lat": "40.58261232933492"
    },
    {
      "id": "pt.ine.add.PTCONT.5461713",
      "street": "LG POCA VELHA",
      "house": "22",
      "postcode": "3460-377",
      "city": "PARADA DE GONTA",
      "lon": "-7.996272822015209",
      "lat": "40.58261985833333"
    },
    {
      "id": "pt.ine.add.PTCONT.5467656",
      "street": "R PASSADICO",
      "house": "10",
      "postcode": "3460-404",
      "city": "PARADA DE GONTA",
      "lon": "-7.995859496429263",
      "lat": "40.58258334685335"
    },
    {
      "id": "pt.ine.add.PTCONT.5470063",
      "street": "R DIREITA",
      "house": "",
      "postcode": "3460-397",
      "city": "PARADA DE GONTA",
      "lon": "-7.995669352832865",
      "lat": "40.583150453733566"
    },
    {
      "id": "pt.ine.add.PTCONT.5479091",
      "street": "R DIREITA",
      "house": "63",
      "postcode": "3460-397",
      "city": "PARADA DE GONTA",
      "lon": "-7.995800623572588",
      "lat": "40.58249322403638"
    },
    {
      "id": "pt.ine.add.PTCONT.5480957",
      "street": "R DIREITA",
      "house": "",
      "postcode": "3460-397",
      "city": "PARADA DE GONTA",
      "lon": "-7.995871583897351",
      "lat": "40.58244828193202"
    },
    {
      "id": "pt.ine.add.PTCONT.5487927",
      "street": "R LEIRA",
      "house": "5",
      "postcode": "3460-390",
      "city": "PARADA DE GONTA",
      "lon": "-7.995857784615268",
      "lat": "40.58342083629705"
    },
    {
      "id": "pt.ine.add.PTCONT.5491789",
      "street": "LG AMOREIRAS",
      "house": "48",
      "postcode": "3460-378",
      "city": "PARADA DE GONTA",
      "lon": "-7.995705229584076",
      "lat": "40.582934369581665"
    },
    {
      "id": "pt.ine.add.PTCONT.5499133",
      "street": "LG AMOREIRAS",
      "house": "70",
      "postcode": "3460-378",
      "city": "PARADA DE GONTA",
      "lon": "-7.995717556957376",
      "lat": "40.582682236263835"
    },
    {
      "id": "pt.ine.add.PTCONT.5502900",
      "street": "R DIREITA",
      "house": "133",
      "postcode": "3460-397",
      "city": "PARADA DE GONTA",
      "lon": "-7.995622291219901",
      "lat": "40.58306034488647"
    },
    {
      "id": "pt.ine.add.PTCONT.5514334",
      "street": "LG AMOREIRAS",
      "house": "66",
      "postcode": "3460-378",
      "city": "PARADA DE GONTA",
      "lon": "-7.99584696711922",
      "lat": "40.58293453808469"
    },
    {
      "id": "pt.ine.add.PTCONT.5516381",
      "street": "LG AMOREIRAS",
      "house": "74",
      "postcode": "3460-378",
      "city": "PARADA DE GONTA",
      "lon": "-7.995976929975536",
      "lat": "40.58291668186704"
    },
    {
      "id": "pt.ine.add.PTCONT.5525607",
      "street": "LG AMOREIRAS",
      "house": "54",
      "postcode": "3460-378",
      "city": "PARADA DE GONTA",
      "lon": "-7.995658278673723",
      "lat": "40.582790229167685"
    },
    {
      "id": "pt.ine.add.PTCONT.5527553",
      "street": "LG POCA VELHA",
      "house": "62",
      "postcode": "3460-377",
      "city": "PARADA DE GONTA",
      "lon": "-7.996697849704444",
      "lat": "40.58271041386503"
    },
    {
      "id": "pt.ine.add.PTCONT.5528832",
      "street": "LG AMOREIRAS",
      "house": "14",
      "postcode": "3460-378",
      "city": "PARADA DE GONTA",
      "lon": "-7.995776448284927",
      "lat": "40.58276335385707"
    },
    {
      "id": "pt.ine.add.PTCONT.5533532",
      "street": "LG AMOREIRAS",
      "house": "58",
      "postcode": "3460-378",
      "city": "PARADA DE GONTA",
      "lon": "-7.995788388627096",
      "lat": "40.58270033105569"
    },
    {
      "id": "pt.ine.add.PTCONT.5538140",
      "street": "LG AMOREIRAS",
      "house": "6",
      "postcode": "3460-378",
      "city": "PARADA DE GONTA",
      "lon": "-7.9955401274174305",
      "lat": "40.58280809909413"
    },
    {
      "id": "pt.ine.add.PTCONT.5546478",
      "street": "R DIREITA",
      "house": "71",
      "postcode": "3460-397",
      "city": "PARADA DE GONTA",
      "lon": "-7.995776890301811",
      "lat": "40.58254722753674"
    },
    {
      "id": "pt.ine.add.PTCONT.5546574",
      "street": "R PASSADICO",
      "house": "35",
      "postcode": "3460-404",
      "city": "PARADA DE GONTA",
      "lon": "-7.995953785296396",
      "lat": "40.58268251697896"
    },
    {
      "id": "pt.ine.add.PTCONT.5550211",
      "street": "R DIREITA",
      "house": "137",
      "postcode": "3460-397",
      "city": "PARADA DE GONTA",
      "lon": "-7.995681053748922",
      "lat": "40.583204499360804"
    },
    {
      "id": "pt.ine.add.PTCONT.5551564",
      "street": "LG AMOREIRAS",
      "house": "32",
      "postcode": "3460-378",
      "city": "PARADA DE GONTA",
      "lon": "-7.995634508309781",
      "lat": "40.58286224316163"
    },
    {
      "id": "pt.ine.add.PTCONT.5558609",
      "street": "R DIREITA",
      "house": "107",
      "postcode": "3460-397",
      "city": "PARADA DE GONTA",
      "lon": "-7.995563621172912",
      "lat": "40.58287116406458"
    },
    {
      "id": "pt.ine.add.PTCONT.5564427",
      "street": "R DIREITA",
      "house": "121",
      "postcode": "3460-397",
      "city": "PARADA DE GONTA",
      "lon": "-7.99559885266789",
      "lat": "40.58297026414154"
    },
    {
      "id": "pt.ine.add.PTCONT.5571513",
      "street": "LG AMOREIRAS",
      "house": "49",
      "postcode": "3460-378",
      "city": "PARADA DE GONTA",
      "lon": "-7.995871013353643",
      "lat": "40.58272744510015"
    },
    {
      "id": "pt.ine.add.PTCONT.5573836",
      "street": "R DIREITA",
      "house": "143",
      "postcode": "3460-397",
      "city": "PARADA DE GONTA",
      "lon": "-7.9956454717401275",
      "lat": "40.5832764992993"
    },
    {
      "id": "pt.ine.add.PTCONT.5584956",
      "street": "R DIREITA",
      "house": "129",
      "postcode": "3460-397",
      "city": "PARADA DE GONTA",
      "lon": "-7.995740258673379",
      "lat": "40.58313252750405"
    },
    {
      "id": "pt.ine.add.PTCONT.5584957",
      "street": "R PASSADICO",
      "house": "22",
      "postcode": "3460-404",
      "city": "PARADA DE GONTA",
      "lon": "-7.995906723627622",
      "lat": "40.58259240824035"
    },
    {
      "id": "pt.ine.add.PTCONT.5590630",
      "street": "LG AMOREIRAS",
      "house": "106",
      "postcode": "3460-378",
      "city": "PARADA DE GONTA",
      "lon": "-7.995776356197476",
      "lat": "40.582808380172786"
    },
    {
      "id": "pt.ine.add.PTCONT.5596031",
      "street": "R DIREITA",
      "house": "153",
      "postcode": "3460-397",
      "city": "PARADA DE GONTA",
      "lon": "-7.995550905777254",
      "lat": "40.583312407866714"
    },
    {
      "id": "pt.ine.add.PTCONT.5596032",
      "street": "LG AMOREIRAS",
      "house": "96",
      "postcode": "3460-378",
      "city": "PARADA DE GONTA",
      "lon": "-7.995870792495868",
      "lat": "40.58283550825837"
    },
    {
      "id": "pt.ine.add.PTCONT.5603431",
      "street": "R DIREITA",
      "house": "89",
      "postcode": "3460-397",
      "city": "PARADA DE GONTA",
      "lon": "-7.995670403448123",
      "lat": "40.58263715374635"
    },
    {
      "id": "pt.ine.add.PTCONT.5603432",
      "street": "R DIREITA",
      "house": "18",
      "postcode": "3460-397",
      "city": "PARADA DE GONTA",
      "lon": "-7.995824356805086",
      "lat": "40.58243922053058"
    },
    {
      "id": "pt.ine.add.PTCONT.5610743",
      "street": "AV POETA TOMAS RIBEIRO",
      "house": "134",
      "postcode": "3460-376",
      "city": "PARADA DE GONTA",
      "lon": "-7.996438749886044",
      "lat": "40.5823408909096"
    },
    {
      "id": "pt.ine.add.PTCONT.5612879",
      "street": "R DR RODRIGO VITOR E MELO",
      "house": "275",
      "postcode": "3460-390",
      "city": "PARADA DE GONTA",
      "lon": "-7.997843122339491",
      "lat": "40.5829278874343"
    },
    {
      "id": "pt.ine.add.PTCONT.5618471",
      "street": "LG POCA VELHA",
      "house": "20",
      "postcode": "3460-377",
      "city": "PARADA DE GONTA",
      "lon": "-7.996414577221648",
      "lat": "40.58261102087525"
    },
    {
      "id": "pt.ine.add.PTCONT.5620308",
      "street": "LG POCA VELHA",
      "house": "38",
      "postcode": "3460-377",
      "city": "PARADA DE GONTA",
      "lon": "-7.996131323948683",
      "lat": "40.582502621926714"
    },
    {
      "id": "pt.ine.add.PTCONT.5622604",
      "street": "AV POETA TOMAS RIBEIRO",
      "house": "246",
      "postcode": "3460-376",
      "city": "PARADA DE GONTA",
      "lon": "-7.997855332852931",
      "lat": "40.58272978545946"
    },
    {
      "id": "pt.ine.add.PTCONT.5629762",
      "street": "LG AMOREIRAS",
      "house": "",
      "postcode": "3460-378",
      "city": "PARADA DE GONTA",
      "lon": "-7.9956348586031005",
      "lat": "40.58269114316267"
    },
    {
      "id": "pt.ine.add.PTCONT.5631632",
      "street": "LG AMOREIRAS",
      "house": "2",
      "postcode": "3460-378",
      "city": "PARADA DE GONTA",
      "lon": "-7.995587502272956",
      "lat": "40.582745118506914"
    },
    {
      "id": "pt.ine.add.PTCONT.5647392",
      "street": "R DIREITA",
      "house": "57",
      "postcode": "3460-397",
      "city": "PARADA DE GONTA",
      "lon": "-7.99587143666103",
      "lat": "40.582520324041205"
    },
    {
      "id": "pt.ine.add.PTCONT.5653328",
      "street": "R DIREITA",
      "house": "75",
      "postcode": "3460-397",
      "city": "PARADA DE GONTA",
      "lon": "-7.995729571034788",
      "lat": "40.58258319241406"
    },
    {
      "id": "pt.ine.add.PTCONT.5667268",
      "street": "R CAPELA",
      "house": "17",
      "postcode": "3460-382",
      "city": "PARADA DE GONTA",
      "lon": "-7.996060694565027",
      "lat": "40.58238546944295"
    }
  ]
}