{
  "data": {
    "distrito": "Viseu",
    "concelho": "Mortágua",
    "freguesia": "União das freguesias de Mortágua, Vale de Remígio, Cortegaça e Almaça",
    "OBJECTID": 132,
    "BGRI2021": "18081100215",
    "DT21": "18",
    "DTMN21": "1808",
    "DTMNFR21": "180811",
    "DTMNFRSEC21": "180811002",
    "SECNUM21": "002",
    "SSNUM21": "15",
    "SECSSNUM21": "00215",
    "OBJECTID_1": 193207,
    "DT": "18",
    "CC": "08",
    "fr": "11",
    "SEC": "002",
    "SS": "15"
  },
  "addresses": [
    {
      "id": "pt.ine.add.PTCONT.5427552",
      "street": "AV BOMBEIROS VOLUNTARIOS",
      "house": "6",
      "postcode": "3450-122",
      "city": "MORTÁGUA",
      "lon": "-8.2279421482541",
      "lat": "40.39811366601454"
    },
    {
      "id": "pt.ine.add.PTCONT.5427553",
      "street": "AV BOMBEIROS VOLUNTARIOS",
      "house": "6",
      "postcode": "3450-122",
      "city": "MORTÁGUA",
      "lon": "-8.2279421482541",
      "lat": "40.39811366601454"
    },
    {
      "id": "pt.ine.add.PTCONT.5427554",
      "street": "AV BOMBEIROS VOLUNTARIOS",
      "house": "6",
      "postcode": "3450-122",
      "city": "MORTÁGUA",
      "lon": "-8.2279421482541",
      "lat": "40.39811366601454"
    },
    {
      "id": "pt.ine.add.PTCONT.5427555",
      "street": "AV BOMBEIROS VOLUNTARIOS",
      "house": "6",
      "postcode": "3450-122",
      "city": "MORTÁGUA",
      "lon": "-8.2279421482541",
      "lat": "40.39811366601454"
    },
    {
      "id": "pt.ine.add.PTCONT.5427643",
      "street": "AV BOMBEIROS VOLUNTARIOS",
      "house": "6",
      "postcode": "3450-122",
      "city": "MORTÁGUA",
      "lon": "-8.2279421482541",
      "lat": "40.39811366601454"
    },
    {
      "id": "pt.ine.add.PTCONT.5427644",
      "street": "AV BOMBEIROS VOLUNTARIOS",
      "house": "6",
      "postcode": "3450-122",
      "city": "MORTÁGUA",
      "lon": "-8.2279421482541",
      "lat": "40.39811366601454"
    },
    {
      "id": "pt.ine.add.PTCONT.5427645",
      "street": "AV BOMBEIROS VOLUNTARIOS",
      "house": "6",
      "postcode": "3450-122",
      "city": "MORTÁGUA",
      "lon": "-8.2279421482541",
      "lat": "40.39811366601454"
    },
    {
      "id": "pt.ine.add.PTCONT.5427646",
      "street": "AV BOMBEIROS VOLUNTARIOS",
      "house": "6",
      "postcode": "3450-122",
      "city": "MORTÁGUA",
      "lon": "-8.2279421482541",
      "lat": "40.39811366601454"
    },
    {
      "id": "pt.ine.add.PTCONT.5427647",
      "street": "R DR VIRIATO GOUVEIA",
      "house": "28",
      "postcode": "3450-234",
      "city": "MORTÁGUA",
      "lon": "-8.227482083582668",
      "lat": "40.397627741296155"
    },
    {
      "id": "pt.ine.add.PTCONT.5465205",
      "street": "AV BOMBEIROS VOLUNTARIOS",
      "house": "22",
      "postcode": "3450-122",
      "city": "MORTÁGUA",
      "lon": "-8.22634156682143",
      "lat": "40.399114586434784"
    },
    {
      "id": "pt.ine.add.PTCONT.5465206",
      "street": "AV BOMBEIROS VOLUNTARIOS",
      "house": "2",
      "postcode": "3450-122",
      "city": "MORTÁGUA",
      "lon": "-8.228365803106149",
      "lat": "40.39783414493613"
    },
    {
      "id": "pt.ine.add.PTCONT.5465207",
      "street": "AV BOMBEIROS VOLUNTARIOS",
      "house": "2",
      "postcode": "3450-122",
      "city": "MORTÁGUA",
      "lon": "-8.228365803106149",
      "lat": "40.39783414493613"
    },
    {
      "id": "pt.ine.add.PTCONT.5465208",
      "street": "AV BOMBEIROS VOLUNTARIOS",
      "house": "2",
      "postcode": "3450-122",
      "city": "MORTÁGUA",
      "lon": "-8.228365803106149",
      "lat": "40.39783414493613"
    },
    {
      "id": "pt.ine.add.PTCONT.5465209",
      "street": "AV BOMBEIROS VOLUNTARIOS",
      "house": "2",
      "postcode": "3450-122",
      "city": "MORTÁGUA",
      "lon": "-8.228365803106149",
      "lat": "40.39783414493613"
    },
    {
      "id": "pt.ine.add.PTCONT.5465211",
      "street": "R DR VIRIATO GOUVEIA",
      "house": "9",
      "postcode": "3450-234",
      "city": "MORTÁGUA",
      "lon": "-8.227034855679461",
      "lat": "40.397898272721626"
    },
    {
      "id": "pt.ine.add.PTCONT.5471758",
      "street": "QTA S DOMINGUES",
      "house": "12",
      "postcode": "3450-166",
      "city": "MORTÁGUA",
      "lon": "-8.228188698994552",
      "lat": "40.39753710667465"
    },
    {
      "id": "pt.ine.add.PTCONT.5471759",
      "street": "PC MUNICIPIO",
      "house": "",
      "postcode": "3450-166",
      "city": "MORTÁGUA",
      "lon": "-8.228188698994552",
      "lat": "40.39753710667465"
    },
    {
      "id": "pt.ine.add.PTCONT.5471760",
      "street": "PC MUNICIPIO",
      "house": "",
      "postcode": "3450-166",
      "city": "MORTÁGUA",
      "lon": "-8.228188698994552",
      "lat": "40.39753710667465"
    },
    {
      "id": "pt.ine.add.PTCONT.5471761",
      "street": "PC MUNICIPIO",
      "house": "",
      "postcode": "3450-166",
      "city": "MORTÁGUA",
      "lon": "-8.228188698994552",
      "lat": "40.39753710667465"
    },
    {
      "id": "pt.ine.add.PTCONT.5471762",
      "street": "PC MUNICIPIO",
      "house": "",
      "postcode": "3450-166",
      "city": "MORTÁGUA",
      "lon": "-8.228188698994552",
      "lat": "40.39753710667465"
    },
    {
      "id": "pt.ine.add.PTCONT.5471763",
      "street": "PC MUNICIPIO",
      "house": "",
      "postcode": "3450-166",
      "city": "MORTÁGUA",
      "lon": "-8.228188698994552",
      "lat": "40.39753710667465"
    },
    {
      "id": "pt.ine.add.PTCONT.5471764",
      "street": "PC MUNICIPIO",
      "house": "",
      "postcode": "3450-166",
      "city": "MORTÁGUA",
      "lon": "-8.228188698994552",
      "lat": "40.39753710667465"
    },
    {
      "id": "pt.ine.add.PTCONT.5471865",
      "street": "PC MUNICIPIO",
      "house": "",
      "postcode": "3450-166",
      "city": "MORTÁGUA",
      "lon": "-8.228188698994552",
      "lat": "40.39753710667465"
    },
    {
      "id": "pt.ine.add.PTCONT.5471866",
      "street": "PC MUNICIPIO",
      "house": "",
      "postcode": "3450-166",
      "city": "MORTÁGUA",
      "lon": "-8.228188698994552",
      "lat": "40.39753710667465"
    },
    {
      "id": "pt.ine.add.PTCONT.5472437",
      "street": "PC MUNICIPIO",
      "house": "",
      "postcode": "3450-166",
      "city": "MORTÁGUA",
      "lon": "-8.228188698994552",
      "lat": "40.39753710667465"
    },
    {
      "id": "pt.ine.add.PTCONT.5491026",
      "street": "R DR VIRIATO GOUVEIA",
      "house": "11",
      "postcode": "3450-234",
      "city": "MORTÁGUA",
      "lon": "-8.227176116933968",
      "lat": "40.39783511885946"
    },
    {
      "id": "pt.ine.add.PTCONT.5526883",
      "street": "PC MUNICIPIO",
      "house": "",
      "postcode": "3450-166",
      "city": "MORTÁGUA",
      "lon": "-8.228271367672669",
      "lat": "40.39769013347143"
    },
    {
      "id": "pt.ine.add.PTCONT.5526884",
      "street": "PC MUNICIPIO",
      "house": "",
      "postcode": "3450-166",
      "city": "MORTÁGUA",
      "lon": "-8.228271367672669",
      "lat": "40.39769013347143"
    },
    {
      "id": "pt.ine.add.PTCONT.5526885",
      "street": "PC MUNICIPIO",
      "house": "",
      "postcode": "3450-166",
      "city": "MORTÁGUA",
      "lon": "-8.228271367672669",
      "lat": "40.39769013347143"
    },
    {
      "id": "pt.ine.add.PTCONT.5526886",
      "street": "PC MUNICIPIO",
      "house": "",
      "postcode": "3450-166",
      "city": "MORTÁGUA",
      "lon": "-8.228271367672669",
      "lat": "40.39769013347143"
    },
    {
      "id": "pt.ine.add.PTCONT.5526887",
      "street": "PC MUNICIPIO",
      "house": "",
      "postcode": "3450-166",
      "city": "MORTÁGUA",
      "lon": "-8.228271367672669",
      "lat": "40.39769013347143"
    },
    {
      "id": "pt.ine.add.PTCONT.5526888",
      "street": "PC MUNICIPIO",
      "house": "",
      "postcode": "3450-166",
      "city": "MORTÁGUA",
      "lon": "-8.228271367672669",
      "lat": "40.39769013347143"
    },
    {
      "id": "pt.ine.add.PTCONT.5526889",
      "street": "PC MUNICIPIO",
      "house": "11",
      "postcode": "3450-166",
      "city": "MORTÁGUA",
      "lon": "-8.228271367672669",
      "lat": "40.39769013347143"
    },
    {
      "id": "pt.ine.add.PTCONT.5526890",
      "street": "PC MUNICIPIO",
      "house": "",
      "postcode": "3450-166",
      "city": "MORTÁGUA",
      "lon": "-8.228271367672669",
      "lat": "40.39769013347143"
    },
    {
      "id": "pt.ine.add.PTCONT.5535659",
      "street": "R DR VIRIATO GOUVEIA",
      "house": "39",
      "postcode": "3450-234",
      "city": "MORTÁGUA",
      "lon": "-8.227694484282305",
      "lat": "40.39789773504149"
    },
    {
      "id": "pt.ine.add.PTCONT.5536890",
      "street": "AV BOMBEIROS VOLUNTARIOS",
      "house": "22",
      "postcode": "3450-122",
      "city": "MORTÁGUA",
      "lon": "-8.22648268196803",
      "lat": "40.39894336665679"
    },
    {
      "id": "pt.ine.add.PTCONT.5536891",
      "street": "R LUIS DE CAMÕES",
      "house": "7",
      "postcode": "3450-157",
      "city": "MORTÁGUA",
      "lon": "-8.226704542552941",
      "lat": "40.397538317497904"
    },
    {
      "id": "pt.ine.add.PTCONT.5545756",
      "street": "R LUIS DE CAMÕES",
      "house": "5",
      "postcode": "3450-157",
      "city": "MORTÁGUA",
      "lon": "-8.22697533494118",
      "lat": "40.39744804222984"
    },
    {
      "id": "pt.ine.add.PTCONT.5554057",
      "street": "R DR VIRIATO GOUVEIA",
      "house": "30",
      "postcode": "3450-234",
      "city": "MORTÁGUA",
      "lon": "-8.227446658492683",
      "lat": "40.39756473116655"
    },
    {
      "id": "pt.ine.add.PTCONT.5587790",
      "street": "AV BOMBEIROS VOLUNTARIOS",
      "house": "24",
      "postcode": "3450-122",
      "city": "MORTÁGUA",
      "lon": "-8.22628283174184",
      "lat": "40.39923170624103"
    },
    {
      "id": "pt.ine.add.PTCONT.5589759",
      "street": "R DR VIRIATO GOUVEIA",
      "house": "38",
      "postcode": "3450-234",
      "city": "MORTÁGUA",
      "lon": "-8.227612093665083",
      "lat": "40.39794283028613"
    },
    {
      "id": "pt.ine.add.PTCONT.5597296",
      "street": "R DR VIRIATO GOUVEIA",
      "house": "13",
      "postcode": "3450-234",
      "city": "MORTÁGUA",
      "lon": "-8.227105254648297",
      "lat": "40.39770009283905"
    },
    {
      "id": "pt.ine.add.PTCONT.5602635",
      "street": "R LUIS DE CAMÕES",
      "house": "19",
      "postcode": "3450-157",
      "city": "MORTÁGUA",
      "lon": "-8.225279968838223",
      "lat": "40.39804377407033"
    },
    {
      "id": "pt.ine.add.PTCONT.5606261",
      "street": "R DR VIRIATO GOUVEIA",
      "house": "15",
      "postcode": "3450-234",
      "city": "MORTÁGUA",
      "lon": "-8.22704618418635",
      "lat": "40.39757406276989"
    },
    {
      "id": "pt.ine.add.PTCONT.5634416",
      "street": "R DR VIRIATO GOUVEIA",
      "house": "3",
      "postcode": "3450-234",
      "city": "MORTÁGUA",
      "lon": "-8.226740041788332",
      "lat": "40.397655361254635"
    },
    {
      "id": "pt.ine.add.PTCONT.5644061",
      "street": "R DR VIRIATO GOUVEIA",
      "house": "20",
      "postcode": "3450-234",
      "city": "MORTÁGUA",
      "lon": "-8.227470895457385",
      "lat": "40.398051012507665"
    }
  ]
}