{
  "data": {
    "distrito": "Porto",
    "concelho": "Marco de Canaveses",
    "freguesia": "Bem Viver",
    "OBJECTID": 302,
    "BGRI2021": "13073400104",
    "DT21": "13",
    "DTMN21": "1307",
    "DTMNFR21": "130734",
    "DTMNFRSEC21": "130734001",
    "SECNUM21": "001",
    "SSNUM21": "04",
    "SECSSNUM21": "00104",
    "OBJECTID_1": 132115,
    "DT": "13",
    "CC": "07",
    "fr": "34",
    "SEC": "001",
    "SS": "04"
  },
  "addresses": [
    {
      "id": "pt.ine.add.PTCONT.3670075",
      "street": "R BARCA DA SEARA",
      "house": "989",
      "postcode": "4625-141",
      "city": "MAGRELOS",
      "lon": "-8.215470249338704",
      "lat": "41.09096156429671"
    },
    {
      "id": "pt.ine.add.PTCONT.3715499",
      "street": "R VENDINHA",
      "house": "",
      "postcode": "4625-187",
      "city": "MAGRELOS",
      "lon": "-8.214912430193646",
      "lat": "41.09223159489977"
    },
    {
      "id": "pt.ine.add.PTCONT.4088684",
      "street": "R QUINTA",
      "house": "416",
      "postcode": "4625-171",
      "city": "MAGRELOS",
      "lon": "-8.215934879643074",
      "lat": "41.09132141091444"
    },
    {
      "id": "pt.ine.add.PTCONT.4097879",
      "street": "R BARCA DA SEARA",
      "house": "1143",
      "postcode": "4625-141",
      "city": "MAGRELOS",
      "lon": "-8.213508197714146",
      "lat": "41.09242167756861"
    },
    {
      "id": "pt.ine.add.PTCONT.4097880",
      "street": "R BARCA DA SEARA",
      "house": "1143",
      "postcode": "4625-141",
      "city": "MAGRELOS",
      "lon": "-8.213508197714146",
      "lat": "41.09242167756861"
    },
    {
      "id": "pt.ine.add.PTCONT.4234732",
      "street": "R BARCA DA SEARA",
      "house": "1161",
      "postcode": "4625-141",
      "city": "MAGRELOS",
      "lon": "-8.213092284672284",
      "lat": "41.09297124087679"
    },
    {
      "id": "pt.ine.add.PTCONT.4308235",
      "street": "R SALGUEIRO",
      "house": "4",
      "postcode": "4625-176",
      "city": "MAGRELOS",
      "lon": "-8.215614222332928",
      "lat": "41.09187991940393"
    },
    {
      "id": "pt.ine.add.PTCONT.4357703",
      "street": "R QUINTA",
      "house": "440",
      "postcode": "4625-171",
      "city": "MAGRELOS",
      "lon": "-8.21542304593047",
      "lat": "41.09128575972948"
    }
  ]
}