{
  "data": {
    "distrito": "Lisboa",
    "concelho": "Lourinhã",
    "freguesia": "União das freguesias de Miragaia e Marteleira",
    "OBJECTID": 96,
    "BGRI2021": "11081300318",
    "DT21": "11",
    "DTMN21": "1108",
    "DTMNFR21": "110813",
    "DTMNFRSEC21": "110813003",
    "SECNUM21": "003",
    "SSNUM21": "18",
    "SECSSNUM21": "00318",
    "OBJECTID_1": 107839,
    "DT": "11",
    "CC": "08",
    "fr": "13",
    "SEC": "003",
    "SS": "18"
  },
  "addresses": [
    {
      "id": "pt.ine.add.PTCONT.2361782",
      "street": "R VALONGOS",
      "house": "7",
      "postcode": "2530-381",
      "city": "MARTELEIRA",
      "lon": "-9.276676471246377",
      "lat": "39.222154642790294"
    },
    {
      "id": "pt.ine.add.PTCONT.2525621",
      "street": "R VALONGO",
      "house": "6",
      "postcode": "2530-392",
      "city": "MARTELEIRA",
      "lon": "-9.27641766841256",
      "lat": "39.22190498618699"
    },
    {
      "id": "pt.ine.add.PTCONT.2614034",
      "street": "TV FILIPES",
      "house": "11",
      "postcode": "2530-392",
      "city": "MARTELEIRA",
      "lon": "-9.27620839204464",
      "lat": "39.22185299795185"
    },
    {
      "id": "pt.ine.add.PTCONT.2681621",
      "street": "TV FILIPES",
      "house": "4",
      "postcode": "2530-392",
      "city": "MARTELEIRA",
      "lon": "-9.276714013897099",
      "lat": "39.22161385147143"
    },
    {
      "id": "pt.ine.add.PTCONT.2824381",
      "street": "LG S SEBASTIÃO",
      "house": "8",
      "postcode": "2530-361",
      "city": "MARTELEIRA",
      "lon": "-9.27676573227806",
      "lat": "39.22194660434835"
    },
    {
      "id": "pt.ine.add.PTCONT.2865693",
      "street": "LG S SEBASTIÃO",
      "house": "9",
      "postcode": "2530-361",
      "city": "MARTELEIRA",
      "lon": "-9.27701208157174",
      "lat": "39.22214234020813"
    },
    {
      "id": "pt.ine.add.PTCONT.2877234",
      "street": "AV 1 DE JANEIRO",
      "house": "189",
      "postcode": "2530-356",
      "city": "MARTELEIRA",
      "lon": "-9.273728999940404",
      "lat": "39.221769219878595"
    },
    {
      "id": "pt.ine.add.PTCONT.2911397",
      "street": "AV 1 DE JANEIRO",
      "house": "173",
      "postcode": "2530-356",
      "city": "MARTELEIRA",
      "lon": "-9.276479537211557",
      "lat": "39.22143601249765"
    },
    {
      "id": "pt.ine.add.PTCONT.2911404",
      "street": "TV FILIPES",
      "house": "7",
      "postcode": "2530-392",
      "city": "MARTELEIRA",
      "lon": "-9.276658901839198",
      "lat": "39.22178552643528"
    },
    {
      "id": "pt.ine.add.PTCONT.2966184",
      "street": "CSL JACINTO ANTUNES",
      "house": "",
      "postcode": "2530-392",
      "city": "MARTELEIRA",
      "lon": "-9.277016437842335",
      "lat": "39.22312406521587"
    },
    {
      "id": "pt.ine.add.PTCONT.3024896",
      "street": "TV FILIPES",
      "house": "9",
      "postcode": "2530-392",
      "city": "MARTELEIRA",
      "lon": "-9.276520261057511",
      "lat": "39.221804901607605"
    },
    {
      "id": "pt.ine.add.PTCONT.3058019",
      "street": "R INSTRUTOR",
      "house": "27",
      "postcode": "2530-381",
      "city": "MARTELEIRA",
      "lon": "-9.27729481582811",
      "lat": "39.22529202789525"
    },
    {
      "id": "pt.ine.add.PTCONT.3086930",
      "street": "R ALTOS DE S LOURENÇO",
      "house": "6",
      "postcode": "2530-357",
      "city": "MARTELEIRA",
      "lon": "-9.27193218261733",
      "lat": "39.22236325288227"
    },
    {
      "id": "pt.ine.add.PTCONT.3106908",
      "street": "R CAMPO DA BOLA",
      "house": "10",
      "postcode": "2530-357",
      "city": "MARTELEIRA",
      "lon": "-9.269585401340084",
      "lat": "39.2233229076016"
    },
    {
      "id": "pt.ine.add.PTCONT.3215982",
      "street": "AV 1 DE JANEIRO",
      "house": "191",
      "postcode": "2530-357",
      "city": "MARTELEIRA",
      "lon": "-9.272837657862665",
      "lat": "39.22178695221052"
    },
    {
      "id": "pt.ine.add.PTCONT.3440642",
      "street": "R VALONGOS",
      "house": "1",
      "postcode": "2530-381",
      "city": "MARTELEIRA",
      "lon": "-9.276849699928162",
      "lat": "39.222125920751516"
    }
  ]
}