{
  "data": {
    "distrito": "Viseu",
    "concelho": "São Pedro do Sul",
    "freguesia": "União das freguesias de Carvalhais e Candal",
    "OBJECTID": 632,
    "BGRI2021": "18162000102",
    "DT21": "18",
    "DTMN21": "1816",
    "DTMNFR21": "181620",
    "DTMNFRSEC21": "181620001",
    "SECNUM21": "001",
    "SSNUM21": "02",
    "SECSSNUM21": "00102",
    "OBJECTID_1": 197105,
    "DT": "18",
    "CC": "16",
    "fr": "20",
    "SEC": "001",
    "SS": "02"
  },
  "addresses": [
    {
      "id": "pt.ine.add.PTCONT.5429554",
      "street": "R FONTE",
      "house": "",
      "postcode": "3660-055",
      "city": "CARVALHAIS SPS",
      "lon": "-8.113214155295172",
      "lat": "40.79403143391632"
    },
    {
      "id": "pt.ine.add.PTCONT.5433177",
      "street": "CC LAGES",
      "house": "",
      "postcode": "3660-055",
      "city": "CARVALHAIS SPS",
      "lon": "-8.112964976161235",
      "lat": "40.795202035163214"
    },
    {
      "id": "pt.ine.add.PTCONT.5442987",
      "street": "TV PASSADOUROS",
      "house": "",
      "postcode": "3660-055",
      "city": "CARVALHAIS SPS",
      "lon": "-8.114624517584899",
      "lat": "40.79276196917157"
    },
    {
      "id": "pt.ine.add.PTCONT.5444196",
      "street": "LG FURRIEL MARTINS",
      "house": "",
      "postcode": "3660-055",
      "city": "CARVALHAIS SPS",
      "lon": "-8.11444680372392",
      "lat": "40.79270791080544"
    },
    {
      "id": "pt.ine.add.PTCONT.5460690",
      "street": "R CORTE",
      "house": "",
      "postcode": "3660-055",
      "city": "CARVALHAIS SPS",
      "lon": "-8.117633647859543",
      "lat": "40.79454539383566"
    },
    {
      "id": "pt.ine.add.PTCONT.5487324",
      "street": "LG POVO",
      "house": "",
      "postcode": "3660-055",
      "city": "CARVALHAIS SPS",
      "lon": "-8.115181372686498",
      "lat": "40.79287011655009"
    },
    {
      "id": "pt.ine.add.PTCONT.5498837",
      "street": "R FONTE",
      "house": "",
      "postcode": "3660-055",
      "city": "CARVALHAIS SPS",
      "lon": "-8.114221527417723",
      "lat": "40.793248171758336"
    },
    {
      "id": "pt.ine.add.PTCONT.5509774",
      "street": "R FONTE",
      "house": "",
      "postcode": "3660-055",
      "city": "CARVALHAIS SPS",
      "lon": "-8.113036382243406",
      "lat": "40.794166477505115"
    },
    {
      "id": "pt.ine.add.PTCONT.5517264",
      "street": "R FONTE",
      "house": "",
      "postcode": "3660-055",
      "city": "CARVALHAIS SPS",
      "lon": "-8.114020125551386",
      "lat": "40.793158089020956"
    },
    {
      "id": "pt.ine.add.PTCONT.5524786",
      "street": "LG FURRIEL MARTINS",
      "house": "",
      "postcode": "3660-055",
      "city": "CARVALHAIS SPS",
      "lon": "-8.114553466099244",
      "lat": "40.792617878400016"
    },
    {
      "id": "pt.ine.add.PTCONT.5532416",
      "street": "R VINHA",
      "house": "",
      "postcode": "3660-055",
      "city": "CARVALHAIS SPS",
      "lon": "-8.115939519579964",
      "lat": "40.7935095839854"
    },
    {
      "id": "pt.ine.add.PTCONT.5535753",
      "street": "LG FURRIEL MARTINS",
      "house": "",
      "postcode": "3660-055",
      "city": "CARVALHAIS SPS",
      "lon": "-8.114790422723045",
      "lat": "40.792671946022345"
    },
    {
      "id": "pt.ine.add.PTCONT.5536833",
      "street": "R CORTE",
      "house": "",
      "postcode": "3660-055",
      "city": "CARVALHAIS SPS",
      "lon": "-8.1173138252811",
      "lat": "40.79413112243566"
    },
    {
      "id": "pt.ine.add.PTCONT.5539139",
      "street": "R CORTE",
      "house": "",
      "postcode": "3660-055",
      "city": "CARVALHAIS SPS",
      "lon": "-8.117183531042754",
      "lat": "40.79395100535905"
    },
    {
      "id": "pt.ine.add.PTCONT.5555198",
      "street": "LG FURRIEL MARTINS",
      "house": "",
      "postcode": "3660-055",
      "city": "CARVALHAIS SPS",
      "lon": "-8.114790462320439",
      "lat": "40.792527866657785"
    },
    {
      "id": "pt.ine.add.PTCONT.5556939",
      "street": "R NOSSA SENHORA DE FÁTIMA",
      "house": "",
      "postcode": "3660-055",
      "city": "CARVALHAIS SPS",
      "lon": "-8.112182954127274",
      "lat": "40.79515687121609"
    },
    {
      "id": "pt.ine.add.PTCONT.5561898",
      "street": "R NOSSA SENHORA DE FÁTIMA",
      "house": "",
      "postcode": "3660-055",
      "city": "CARVALHAIS SPS",
      "lon": "-8.112277799802643",
      "lat": "40.79498579419767"
    },
    {
      "id": "pt.ine.add.PTCONT.5568021",
      "street": "CC LAGES",
      "house": "",
      "postcode": "3660-055",
      "city": "CARVALHAIS SPS",
      "lon": "-8.112621426178059",
      "lat": "40.79496784580378"
    },
    {
      "id": "pt.ine.add.PTCONT.5573454",
      "street": "LG POVO",
      "house": "",
      "postcode": "3660-055",
      "city": "CARVALHAIS SPS",
      "lon": "-8.11505107203795",
      "lat": "40.792744026788554"
    },
    {
      "id": "pt.ine.add.PTCONT.5575358",
      "street": "R CORTE",
      "house": "",
      "postcode": "3660-055",
      "city": "CARVALHAIS SPS",
      "lon": "-8.11749133847659",
      "lat": "40.79506766218343"
    },
    {
      "id": "pt.ine.add.PTCONT.5587915",
      "street": "LG POVO",
      "house": "",
      "postcode": "3660-055",
      "city": "CARVALHAIS SPS",
      "lon": "-8.115015584915922",
      "lat": "40.79252790217495"
    },
    {
      "id": "pt.ine.add.PTCONT.5596104",
      "street": "R FONTE",
      "house": "",
      "postcode": "3660-055",
      "city": "CARVALHAIS SPS",
      "lon": "-8.113593483800681",
      "lat": "40.79346418628214"
    },
    {
      "id": "pt.ine.add.PTCONT.5602138",
      "street": "LG PACO",
      "house": "",
      "postcode": "3660-055",
      "city": "CARVALHAIS SPS",
      "lon": "-8.112230465885457",
      "lat": "40.79478767658754"
    },
    {
      "id": "pt.ine.add.PTCONT.5603027",
      "street": "LG POVO",
      "house": "",
      "postcode": "3660-055",
      "city": "CARVALHAIS SPS",
      "lon": "-8.115370972150687",
      "lat": "40.79278910120687"
    },
    {
      "id": "pt.ine.add.PTCONT.5603028",
      "street": "LG POVO",
      "house": "",
      "postcode": "3660-055",
      "city": "CARVALHAIS SPS",
      "lon": "-8.115157757907182",
      "lat": "40.792563944222074"
    },
    {
      "id": "pt.ine.add.PTCONT.5625594",
      "street": "R CORTE",
      "house": "",
      "postcode": "3660-055",
      "city": "CARVALHAIS SPS",
      "lon": "-8.117372856887778",
      "lat": "40.79503162625994"
    },
    {
      "id": "pt.ine.add.PTCONT.5625595",
      "street": "R VINHA",
      "house": "",
      "postcode": "3660-055",
      "city": "CARVALHAIS SPS",
      "lon": "-8.115631525741447",
      "lat": "40.79323038400525"
    },
    {
      "id": "pt.ine.add.PTCONT.5627735",
      "street": "R CORTE",
      "house": "",
      "postcode": "3660-055",
      "city": "CARVALHAIS SPS",
      "lon": "-8.11762164200661",
      "lat": "40.795220764009166"
    },
    {
      "id": "pt.ine.add.PTCONT.5627736",
      "street": "R FONTE",
      "house": "",
      "postcode": "3660-055",
      "city": "CARVALHAIS SPS",
      "lon": "-8.112597800249281",
      "lat": "40.79473371272122"
    },
    {
      "id": "pt.ine.add.PTCONT.5636750",
      "street": "R NOSSA SENHORA DE FÁTIMA",
      "house": "",
      "postcode": "3660-055",
      "city": "CARVALHAIS SPS",
      "lon": "-8.111815550923927",
      "lat": "40.795417947742216"
    },
    {
      "id": "pt.ine.add.PTCONT.5646478",
      "street": "R CORTE",
      "house": "",
      "postcode": "3660-055",
      "city": "CARVALHAIS SPS",
      "lon": "-8.116934732239153",
      "lat": "40.79384291125115"
    },
    {
      "id": "pt.ine.add.PTCONT.5647795",
      "street": "R VINHA",
      "house": "",
      "postcode": "3660-055",
      "city": "CARVALHAIS SPS",
      "lon": "-8.115276139951467",
      "lat": "40.79295117587561"
    },
    {
      "id": "pt.ine.add.PTCONT.5647890",
      "street": "R FONTE",
      "house": "",
      "postcode": "3660-055",
      "city": "CARVALHAIS SPS",
      "lon": "-8.11333275309159",
      "lat": "40.79366225099495"
    },
    {
      "id": "pt.ine.add.PTCONT.5650728",
      "street": "R BELA VISTA",
      "house": "",
      "postcode": "3660-055",
      "city": "CARVALHAIS SPS",
      "lon": "-8.114481531579402",
      "lat": "40.79563452783636"
    },
    {
      "id": "pt.ine.add.PTCONT.5658399",
      "street": "R CORTE",
      "house": "",
      "postcode": "3660-055",
      "city": "CARVALHAIS SPS",
      "lon": "-8.117373024848456",
      "lat": "40.79432023464469"
    },
    {
      "id": "pt.ine.add.PTCONT.5665596",
      "street": "R CORTE",
      "house": "",
      "postcode": "3660-055",
      "city": "CARVALHAIS SPS",
      "lon": "-8.115856655372486",
      "lat": "40.793212407963274"
    },
    {
      "id": "pt.ine.add.PTCONT.5667895",
      "street": "TV PASSADOUROS",
      "house": "",
      "postcode": "3660-055",
      "city": "CARVALHAIS SPS",
      "lon": "-8.114351941518104",
      "lat": "40.792969039273885"
    }
  ]
}