{
  "data": {
    "distrito": "Viseu",
    "concelho": "São Pedro do Sul",
    "freguesia": "União das freguesias de Carvalhais e Candal",
    "OBJECTID": 634,
    "BGRI2021": "18162000103",
    "DT21": "18",
    "DTMN21": "1816",
    "DTMNFR21": "181620",
    "DTMNFRSEC21": "181620001",
    "SECNUM21": "001",
    "SSNUM21": "03",
    "SECSSNUM21": "00103",
    "OBJECTID_1": 196516,
    "DT": "18",
    "CC": "16",
    "fr": "20",
    "SEC": "001",
    "SS": "03"
  },
  "addresses": [
    {
      "id": "pt.ine.add.PTCONT.5443077",
      "street": "R BARREIROS",
      "house": "",
      "postcode": "3660-057",
      "city": "CARVALHAIS SPS",
      "lon": "-8.103853959610122",
      "lat": "40.79317396943205"
    },
    {
      "id": "pt.ine.add.PTCONT.5461972",
      "street": "R FONTE",
      "house": "",
      "postcode": "3660-057",
      "city": "CARVALHAIS SPS",
      "lon": "-8.104931853723523",
      "lat": "40.79396667406367"
    },
    {
      "id": "pt.ine.add.PTCONT.5476969",
      "street": "R BARREIROS",
      "house": "",
      "postcode": "3660-057",
      "city": "CARVALHAIS SPS",
      "lon": "-8.104611916532978",
      "lat": "40.79401162028979"
    },
    {
      "id": "pt.ine.add.PTCONT.5482402",
      "street": "TV CAETANO DE MATOS",
      "house": "",
      "postcode": "3660-057",
      "city": "CARVALHAIS SPS",
      "lon": "-8.104991204156748",
      "lat": "40.79371454969863"
    },
    {
      "id": "pt.ine.add.PTCONT.5508007",
      "street": "LG FAVARREL",
      "house": "",
      "postcode": "3660-057",
      "city": "CARVALHAIS SPS",
      "lon": "-8.105002870651639",
      "lat": "40.79414679054885"
    },
    {
      "id": "pt.ine.add.PTCONT.5508008",
      "street": "R BARREIROS",
      "house": "",
      "postcode": "3660-057",
      "city": "CARVALHAIS SPS",
      "lon": "-8.104410595150618",
      "lat": "40.79375943155736"
    },
    {
      "id": "pt.ine.add.PTCONT.5524849",
      "street": "TV CAETANO DE MATOS",
      "house": "",
      "postcode": "3660-057",
      "city": "CARVALHAIS SPS",
      "lon": "-8.10532286829441",
      "lat": "40.79395776392083"
    },
    {
      "id": "pt.ine.add.PTCONT.5548148",
      "street": "R BARREIROS",
      "house": "",
      "postcode": "3660-057",
      "city": "CARVALHAIS SPS",
      "lon": "-8.104765916735841",
      "lat": "40.794092702842605"
    },
    {
      "id": "pt.ine.add.PTCONT.5553901",
      "street": "TV COLMEIAS",
      "house": "",
      "postcode": "3660-057",
      "city": "CARVALHAIS SPS",
      "lon": "-8.105689755408868",
      "lat": "40.79499342181143"
    },
    {
      "id": "pt.ine.add.PTCONT.5559084",
      "street": "R BARREIROS",
      "house": "",
      "postcode": "3660-057",
      "city": "CARVALHAIS SPS",
      "lon": "-8.103522344706406",
      "lat": "40.792840701366956"
    },
    {
      "id": "pt.ine.add.PTCONT.5587917",
      "street": "R BARROCA",
      "house": "",
      "postcode": "3660-057",
      "city": "CARVALHAIS SPS",
      "lon": "-8.105452790451706",
      "lat": "40.79495734543454"
    },
    {
      "id": "pt.ine.add.PTCONT.5618126",
      "street": "R BARROCA",
      "house": "",
      "postcode": "3660-057",
      "city": "CARVALHAIS SPS",
      "lon": "-8.105050175045928",
      "lat": "40.79436292105272"
    },
    {
      "id": "pt.ine.add.PTCONT.5629416",
      "street": "LG FAVARREL",
      "house": "",
      "postcode": "3660-057",
      "city": "CARVALHAIS SPS",
      "lon": "-8.104837044123897",
      "lat": "40.79401167566613"
    },
    {
      "id": "pt.ine.add.PTCONT.5651980",
      "street": "R NOVA",
      "house": "",
      "postcode": "3660-060",
      "city": "CARVALHAIS SPS",
      "lon": "-8.103830966351723",
      "lat": "40.791571080555414"
    },
    {
      "id": "pt.ine.add.PTCONT.5660203",
      "street": "R CIMO DO POVO",
      "house": "",
      "postcode": "3660-071",
      "city": "CARVALHAIS SPS",
      "lon": "-8.107374280678009",
      "lat": "40.789897001939096"
    }
  ]
}