{
  "data": {
    "distrito": "Viseu",
    "concelho": "São Pedro do Sul",
    "freguesia": "União das freguesias de Carvalhais e Candal",
    "OBJECTID": 104,
    "BGRI2021": "18162000130",
    "DT21": "18",
    "DTMN21": "1816",
    "DTMNFR21": "181620",
    "DTMNFRSEC21": "181620001",
    "SECNUM21": "001",
    "SSNUM21": "30",
    "SECSSNUM21": "00130",
    "OBJECTID_1": 196786,
    "DT": "18",
    "CC": "16",
    "fr": "20",
    "SEC": "001",
    "SS": "30"
  },
  "addresses": [
    {
      "id": "pt.ine.add.PTCONT.5427215",
      "street": "TV CARRIL",
      "house": "8",
      "postcode": "3660-042",
      "city": "CANDAL",
      "lon": "-8.176703628026745",
      "lat": "40.85363742751201"
    },
    {
      "id": "pt.ine.add.PTCONT.5433198",
      "street": "R PRINCIPAL",
      "house": "22",
      "postcode": "3660-042",
      "city": "CANDAL",
      "lon": "-8.176370351370949",
      "lat": "40.85177354566705"
    },
    {
      "id": "pt.ine.add.PTCONT.5434989",
      "street": "R PRINCIPAL",
      "house": "53",
      "postcode": "3660-044",
      "city": "CANDAL",
      "lon": "-8.164996836234595",
      "lat": "40.8504535345821"
    },
    {
      "id": "pt.ine.add.PTCONT.5440563",
      "street": "R OUTEIRINHO",
      "house": "1",
      "postcode": "3660-042",
      "city": "CANDAL",
      "lon": "-8.177711414265032",
      "lat": "40.853240828189485"
    },
    {
      "id": "pt.ine.add.PTCONT.5446109",
      "street": "R PRINCIPAL",
      "house": "89",
      "postcode": "3660-044",
      "city": "CANDAL",
      "lon": "-8.162969034323512",
      "lat": "40.85059815521746"
    },
    {
      "id": "pt.ine.add.PTCONT.5453554",
      "street": "R AIDO",
      "house": "",
      "postcode": "3660-044",
      "city": "CANDAL",
      "lon": "-8.164818983253484",
      "lat": "40.850516617697764"
    },
    {
      "id": "pt.ine.add.PTCONT.5476930",
      "street": "R FUNDO DO POVO",
      "house": "32",
      "postcode": "3660-042",
      "city": "CANDAL",
      "lon": "-8.177320468291137",
      "lat": "40.8538623143649"
    },
    {
      "id": "pt.ine.add.PTCONT.5482350",
      "street": "R QUINTA",
      "house": "10",
      "postcode": "3660-042",
      "city": "CANDAL",
      "lon": "-8.176917145306591",
      "lat": "40.85370938554094"
    },
    {
      "id": "pt.ine.add.PTCONT.5491410",
      "street": "R PRINCIPAL",
      "house": "14",
      "postcode": "3660-042",
      "city": "CANDAL",
      "lon": "-8.176085500167018",
      "lat": "40.85141345742098"
    },
    {
      "id": "pt.ine.add.PTCONT.5491411",
      "street": "CC SOUTO",
      "house": "9",
      "postcode": "3660-042",
      "city": "CANDAL",
      "lon": "-8.1771425880916",
      "lat": "40.85388039213131"
    },
    {
      "id": "pt.ine.add.PTCONT.5498738",
      "street": "R QUINTA",
      "house": "7",
      "postcode": "3660-042",
      "city": "CANDAL",
      "lon": "-8.177213685243233",
      "lat": "40.85379031632553"
    },
    {
      "id": "pt.ine.add.PTCONT.5520892",
      "street": "R FUNDO DO POVO",
      "house": "24",
      "postcode": "3660-042",
      "city": "CANDAL",
      "lon": "-8.177332196035403",
      "lat": "40.85366420284881"
    },
    {
      "id": "pt.ine.add.PTCONT.5534557",
      "street": "R PRINCIPAL",
      "house": "83",
      "postcode": "3660-044",
      "city": "CANDAL",
      "lon": "-8.163229938164623",
      "lat": "40.85061609712706"
    },
    {
      "id": "pt.ine.add.PTCONT.5545786",
      "street": "R AIDO",
      "house": "",
      "postcode": "3660-044",
      "city": "CANDAL",
      "lon": "-8.16471227472568",
      "lat": "40.85056167133013"
    },
    {
      "id": "pt.ine.add.PTCONT.5558961",
      "street": "R PRINCIPAL",
      "house": "87",
      "postcode": "3660-044",
      "city": "CANDAL",
      "lon": "-8.16309949028676",
      "lat": "40.85061613111471"
    },
    {
      "id": "pt.ine.add.PTCONT.5611289",
      "street": "R FUNDO DO POVO",
      "house": "26",
      "postcode": "3660-042",
      "city": "CANDAL",
      "lon": "-8.177332279863835",
      "lat": "40.85379027092153"
    },
    {
      "id": "pt.ine.add.PTCONT.5633171",
      "street": "R FUNDO DO POVO",
      "house": "14",
      "postcode": "3660-042",
      "city": "CANDAL",
      "lon": "-8.177616557431271",
      "lat": "40.85326787942298"
    },
    {
      "id": "pt.ine.add.PTCONT.5667210",
      "street": "R PRINCIPAL",
      "house": "9",
      "postcode": "3660-044",
      "city": "CANDAL",
      "lon": "-8.166395601413846",
      "lat": "40.849291511106465"
    }
  ]
}