{
  "data": {
    "distrito": "Lisboa",
    "concelho": "Loures",
    "freguesia": "União das freguesias de Santo Antão e São Julião do Tojal",
    "OBJECTID": 1743,
    "BGRI2021": "11072900304",
    "DT21": "11",
    "DTMN21": "1107",
    "DTMNFR21": "110729",
    "DTMNFRSEC21": "110729003",
    "SECNUM21": "003",
    "SSNUM21": "04",
    "SECSSNUM21": "00304",
    "OBJECTID_1": 106934,
    "DT": "11",
    "CC": "07",
    "fr": "29",
    "SEC": "003",
    "SS": "04"
  },
  "addresses": [
    {
      "id": "pt.ine.add.PTCONT.2937730",
      "street": "R PADRE ADRIANO SEBOL",
      "house": "",
      "postcode": "2660-109",
      "city": "SANTO ANTÃO DO TOJAL",
      "lon": "-9.139609689998123",
      "lat": "38.8445680781718"
    },
    {
      "id": "pt.ine.add.PTCONT.3011628",
      "street": "R DIOGO CÃO",
      "house": "4",
      "postcode": "2660-507",
      "city": "SÃO JULIÃO DO TOJAL",
      "lon": "-9.13381911033833",
      "lat": "38.847257088872446"
    },
    {
      "id": "pt.ine.add.PTCONT.3020739",
      "street": "R D JOÃO II",
      "house": "2",
      "postcode": "2660-507",
      "city": "SÃO JULIÃO DO TOJAL",
      "lon": "-9.133958295598562",
      "lat": "38.84814765778054"
    },
    {
      "id": "pt.ine.add.PTCONT.3030032",
      "street": "R PERO DA COVILHÃ",
      "house": "5",
      "postcode": "2660-507",
      "city": "SÃO JULIÃO DO TOJAL",
      "lon": "-9.134531796119738",
      "lat": "38.847151895808814"
    },
    {
      "id": "pt.ine.add.PTCONT.3069125",
      "street": "R DIOGO CÃO",
      "house": "7",
      "postcode": "2660-507",
      "city": "SÃO JULIÃO DO TOJAL",
      "lon": "-9.134142731845973",
      "lat": "38.847335384878846"
    },
    {
      "id": "pt.ine.add.PTCONT.3132162",
      "street": "R PERO DA COVILHÃ",
      "house": "4",
      "postcode": "2660-507",
      "city": "SÃO JULIÃO DO TOJAL",
      "lon": "-9.13481010644843",
      "lat": "38.84728462461202"
    },
    {
      "id": "pt.ine.add.PTCONT.3270886",
      "street": "R DIOGO GOMES",
      "house": "7",
      "postcode": "2660-507",
      "city": "SÃO JULIÃO DO TOJAL",
      "lon": "-9.133440804132785",
      "lat": "38.847386437278736"
    },
    {
      "id": "pt.ine.add.PTCONT.3298064",
      "street": "R DIOGO CÃO",
      "house": "5",
      "postcode": "2660-507",
      "city": "SÃO JULIÃO DO TOJAL",
      "lon": "-9.134179303649823",
      "lat": "38.847479194505354"
    },
    {
      "id": "pt.ine.add.PTCONT.3427083",
      "street": "SEM NOME",
      "house": "",
      "postcode": "2660-519",
      "city": "SÃO JULIÃO DO TOJAL",
      "lon": "-9.134478034428435",
      "lat": "38.84249537782214"
    },
    {
      "id": "pt.ine.add.PTCONT.2268890",
      "street": "R DIOGO GOMES",
      "house": "5",
      "postcode": "2660-507",
      "city": "SÃO JULIÃO DO TOJAL",
      "lon": "-9.133370186379645",
      "lat": "38.84727894976298"
    },
    {
      "id": "pt.ine.add.PTCONT.2268891",
      "street": "R DIOGO GOMES",
      "house": "5",
      "postcode": "2660-507",
      "city": "SÃO JULIÃO DO TOJAL",
      "lon": "-9.133370186379645",
      "lat": "38.84727894976298"
    },
    {
      "id": "pt.ine.add.PTCONT.2334501",
      "street": "R PERO DA COVILHÃ",
      "house": "1",
      "postcode": "2660-507",
      "city": "SÃO JULIÃO DO TOJAL",
      "lon": "-9.134035794079356",
      "lat": "38.847102101351965"
    },
    {
      "id": "pt.ine.add.PTCONT.2352613",
      "street": "R DIOGO CÃO",
      "house": "6",
      "postcode": "2660-507",
      "city": "SÃO JULIÃO DO TOJAL",
      "lon": "-9.133717851643095",
      "lat": "38.84742910257443"
    },
    {
      "id": "pt.ine.add.PTCONT.2389407",
      "street": "R PERO DA COVILHÃ",
      "house": "2",
      "postcode": "2660-507",
      "city": "SÃO JULIÃO DO TOJAL",
      "lon": "-9.134411418793126",
      "lat": "38.84760331249001"
    },
    {
      "id": "pt.ine.add.PTCONT.2398885",
      "street": "R PERO DA COVILHÃ",
      "house": "",
      "postcode": "2660-507",
      "city": "SÃO JULIÃO DO TOJAL",
      "lon": "-9.134648611111315",
      "lat": "38.847267994173556"
    },
    {
      "id": "pt.ine.add.PTCONT.2443710",
      "street": "SEM NOME",
      "house": "",
      "postcode": "2660-519",
      "city": "SÃO JULIÃO DO TOJAL",
      "lon": "-9.134599639689824",
      "lat": "38.84295372786227"
    },
    {
      "id": "pt.ine.add.PTCONT.2473434",
      "street": "R PADRE ADRIANO",
      "house": "",
      "postcode": "2660-109",
      "city": "SANTO ANTÃO DO TOJAL",
      "lon": "-9.13942588999508",
      "lat": "38.84705578483123"
    },
    {
      "id": "pt.ine.add.PTCONT.2507816",
      "street": "R DIOGO CÃO",
      "house": "11",
      "postcode": "2660-507",
      "city": "SÃO JULIÃO DO TOJAL",
      "lon": "-9.133548371195252",
      "lat": "38.84766475441883"
    },
    {
      "id": "pt.ine.add.PTCONT.2516684",
      "street": "R PERO DA COVILHÃ",
      "house": "4",
      "postcode": "2660-507",
      "city": "SÃO JULIÃO DO TOJAL",
      "lon": "-9.1346303755177",
      "lat": "38.84761044284653"
    },
    {
      "id": "pt.ine.add.PTCONT.2525389",
      "street": "R DIOGO GOMES",
      "house": "3",
      "postcode": "2660-507",
      "city": "SÃO JULIÃO DO TOJAL",
      "lon": "-9.133346394918247",
      "lat": "38.847225107354326"
    },
    {
      "id": "pt.ine.add.PTCONT.2588917",
      "street": "R DIOGO GOMES",
      "house": "15",
      "postcode": "2660-507",
      "city": "SÃO JULIÃO DO TOJAL",
      "lon": "-9.133738075441473",
      "lat": "38.84805046007882"
    },
    {
      "id": "pt.ine.add.PTCONT.2604422",
      "street": "R PERO DA COVILHÃ",
      "house": "",
      "postcode": "2660-507",
      "city": "SÃO JULIÃO DO TOJAL",
      "lon": "-9.134862514024345",
      "lat": "38.84691485973427"
    },
    {
      "id": "pt.ine.add.PTCONT.2610720",
      "street": "R PERO DA COVILHÃ",
      "house": "3",
      "postcode": "2660-507",
      "city": "SÃO JULIÃO DO TOJAL",
      "lon": "-9.134349130816316",
      "lat": "38.84712186376485"
    },
    {
      "id": "pt.ine.add.PTCONT.2795759",
      "street": "R DIOGO CÃO",
      "house": "8",
      "postcode": "2660-507",
      "city": "SÃO JULIÃO DO TOJAL",
      "lon": "-9.133756441566202",
      "lat": "38.847717018123646"
    },
    {
      "id": "pt.ine.add.PTCONT.2838301",
      "street": "R DIOGO GOMES",
      "house": "9",
      "postcode": "2660-507",
      "city": "SÃO JULIÃO DO TOJAL",
      "lon": "-9.133512052856997",
      "lat": "38.847538957808"
    },
    {
      "id": "pt.ine.add.PTCONT.2838302",
      "street": "R DIOGO CÃO",
      "house": "2",
      "postcode": "2660-507",
      "city": "SÃO JULIÃO DO TOJAL",
      "lon": "-9.133702170521923",
      "lat": "38.84713198304742"
    }
  ]
}