{
  "data": {
    "distrito": "Portalegre",
    "concelho": "Castelo de Vide",
    "freguesia": "Santa Maria da Devesa",
    "OBJECTID": 74,
    "BGRI2021": "12050200225",
    "DT21": "12",
    "DTMN21": "1205",
    "DTMNFR21": "120502",
    "DTMNFRSEC21": "120502002",
    "SECNUM21": "002",
    "SSNUM21": "25",
    "SECSSNUM21": "00225",
    "OBJECTID_1": 121374,
    "DT": "12",
    "CC": "05",
    "fr": "02",
    "SEC": "002",
    "SS": "25"
  },
  "addresses": [
    {
      "id": "pt.ine.add.PTCONT.3538524",
      "street": "",
      "house": "",
      "postcode": "7320-201",
      "city": "CASTELO DE VIDE",
      "lon": "-7.418327269505365",
      "lat": "39.413742850157966"
    },
    {
      "id": "pt.ine.add.PTCONT.3487141",
      "street": "",
      "house": "",
      "postcode": "7320-201",
      "city": "CASTELO DE VIDE",
      "lon": "-7.420258316482293",
      "lat": "39.416817069692925"
    },
    {
      "id": "pt.ine.add.PTCONT.3464430",
      "street": "",
      "house": "",
      "postcode": "7320-201",
      "city": "CASTELO DE VIDE",
      "lon": "-7.416205216161301",
      "lat": "39.40779419400264"
    },
    {
      "id": "pt.ine.add.PTCONT.3468613",
      "street": "",
      "house": "",
      "postcode": "7320-201",
      "city": "CASTELO DE VIDE",
      "lon": "-7.420296565583517",
      "lat": "39.41306139648926"
    },
    {
      "id": "pt.ine.add.PTCONT.3473917",
      "street": "",
      "house": "",
      "postcode": "7320-201",
      "city": "CASTELO DE VIDE",
      "lon": "-7.41870512424116",
      "lat": "39.41540245417456"
    },
    {
      "id": "pt.ine.add.PTCONT.3478819",
      "street": "",
      "house": "",
      "postcode": "7320-201",
      "city": "CASTELO DE VIDE",
      "lon": "-7.417294358908539",
      "lat": "39.41255658537112"
    },
    {
      "id": "pt.ine.add.PTCONT.3483725",
      "street": "",
      "house": "",
      "postcode": "7320-201",
      "city": "CASTELO DE VIDE",
      "lon": "-7.423609221829296",
      "lat": "39.41501814698955"
    },
    {
      "id": "pt.ine.add.PTCONT.3489615",
      "street": "",
      "house": "",
      "postcode": "7320-201",
      "city": "CASTELO DE VIDE",
      "lon": "-7.41707366192596",
      "lat": "39.411429355184"
    },
    {
      "id": "pt.ine.add.PTCONT.3490682",
      "street": "",
      "house": "",
      "postcode": "7320-201",
      "city": "CASTELO DE VIDE",
      "lon": "-7.416080895236267",
      "lat": "39.40972992862153"
    },
    {
      "id": "pt.ine.add.PTCONT.3492510",
      "street": "",
      "house": "",
      "postcode": "7320-201",
      "city": "CASTELO DE VIDE",
      "lon": "-7.416450277876388",
      "lat": "39.413344002241914"
    },
    {
      "id": "pt.ine.add.PTCONT.3499004",
      "street": "",
      "house": "",
      "postcode": "7320-201",
      "city": "CASTELO DE VIDE",
      "lon": "-7.414878690375781",
      "lat": "39.407254214480915"
    },
    {
      "id": "pt.ine.add.PTCONT.3502689",
      "street": "CAM PAINEL DA AMIEIRA",
      "house": "CP 4",
      "postcode": "7320-201",
      "city": "CASTELO DE VIDE",
      "lon": "-7.417388724917908",
      "lat": "39.41354793316819"
    },
    {
      "id": "pt.ine.add.PTCONT.3511592",
      "street": "",
      "house": "",
      "postcode": "7320-201",
      "city": "CASTELO DE VIDE",
      "lon": "-7.41512014258909",
      "lat": "39.40830990723608"
    },
    {
      "id": "pt.ine.add.PTCONT.3514680",
      "street": "",
      "house": "",
      "postcode": "7320-201",
      "city": "CASTELO DE VIDE",
      "lon": "-7.424784967172854",
      "lat": "39.412431302785265"
    },
    {
      "id": "pt.ine.add.PTCONT.3515471",
      "street": "",
      "house": "",
      "postcode": "7320-201",
      "city": "CASTELO DE VIDE",
      "lon": "-7.420195302698598",
      "lat": "39.409322879966346"
    }
  ]
}