{
  "data": {
    "distrito": "Lisboa",
    "concelho": "Alenquer",
    "freguesia": "Uni√£o das freguesias de Carregado e Cadafais",
    "OBJECTID": 48,
    "BGRI2021": "11012000814",
    "DT21": "11",
    "DTMN21": "1101",
    "DTMNFR21": "110120",
    "DTMNFRSEC21": "110120008",
    "SECNUM21": "008",
    "SSNUM21": "14",
    "SECSSNUM21": "00814",
    "OBJECTID_1": 99218,
    "DT": "11",
    "CC": "01",
    "fr": "20",
    "SEC": "008",
    "SS": "14"
  },
  "addresses": [
    {
      "id": "pt.ine.add.PTCONT.2342369",
      "street": "R 1 MAIO",
      "house": "8",
      "postcode": "2580-133",
      "city": "CADAFAIS",
      "lon": "-9.013307438328168",
      "lat": "39.02059742385601"
    },
    {
      "id": "pt.ine.add.PTCONT.2347571",
      "street": "R 1 MAIO",
      "house": "8",
      "postcode": "2580-133",
      "city": "CADAFAIS",
      "lon": "-9.013307438328168",
      "lat": "39.02059742385601"
    },
    {
      "id": "pt.ine.add.PTCONT.2444670",
      "street": "R 1 MAIO",
      "house": "14",
      "postcode": "2580-133",
      "city": "CADAFAIS",
      "lon": "-9.0138224938943",
      "lat": "39.02116100862333"
    },
    {
      "id": "pt.ine.add.PTCONT.2571440",
      "street": "TV FAMILIA",
      "house": "9",
      "postcode": "2580-133",
      "city": "CADAFAIS",
      "lon": "-9.01305811987512",
      "lat": "39.02097761976847"
    },
    {
      "id": "pt.ine.add.PTCONT.2585961",
      "street": "TV FAMILIA",
      "house": "5",
      "postcode": "2580-133",
      "city": "CADAFAIS",
      "lon": "-9.013508855593876",
      "lat": "39.021010248748304"
    },
    {
      "id": "pt.ine.add.PTCONT.2608773",
      "street": "R 1 MAIO",
      "house": "6",
      "postcode": "2580-133",
      "city": "CADAFAIS",
      "lon": "-9.013478838180035",
      "lat": "39.02045201043864"
    },
    {
      "id": "pt.ine.add.PTCONT.2657700",
      "street": "TV FAMILIA",
      "house": "3",
      "postcode": "2580-133",
      "city": "CADAFAIS",
      "lon": "-9.013577125379166",
      "lat": "39.02092866599332"
    },
    {
      "id": "pt.ine.add.PTCONT.2887080",
      "street": "R COMISSAO",
      "house": "2",
      "postcode": "2580-133",
      "city": "CADAFAIS",
      "lon": "-9.012616861798861",
      "lat": "39.01984600274814"
    },
    {
      "id": "pt.ine.add.PTCONT.2887890",
      "street": "R 1 MAIO",
      "house": "16",
      "postcode": "2580-133",
      "city": "CADAFAIS",
      "lon": "-9.013615784966236",
      "lat": "39.02125264408139"
    },
    {
      "id": "pt.ine.add.PTCONT.2908243",
      "street": "R 1 MAIO",
      "house": "14A",
      "postcode": "2580-133",
      "city": "CADAFAIS",
      "lon": "-9.013833257538325",
      "lat": "39.02109787487768"
    },
    {
      "id": "pt.ine.add.PTCONT.2940309",
      "street": "R PRINCIPAL",
      "house": "4",
      "postcode": "2580-133",
      "city": "CADAFAIS",
      "lon": "-9.012828925653785",
      "lat": "39.02018668862806"
    },
    {
      "id": "pt.ine.add.PTCONT.3008450",
      "street": "TV FAMILIA",
      "house": "2",
      "postcode": "2580-133",
      "city": "CADAFAIS",
      "lon": "-9.013608746497194",
      "lat": "39.02068522487974"
    },
    {
      "id": "pt.ine.add.PTCONT.3110756",
      "street": "TV FAMILIA",
      "house": "4",
      "postcode": "2580-133",
      "city": "CADAFAIS",
      "lon": "-9.013494628759094",
      "lat": "39.02079417618394"
    },
    {
      "id": "pt.ine.add.PTCONT.3120064",
      "street": "R 1 MAIO",
      "house": "2",
      "postcode": "2580-133",
      "city": "CADAFAIS",
      "lon": "-9.012926538297036",
      "lat": "39.02060930486942"
    },
    {
      "id": "pt.ine.add.PTCONT.3168507",
      "street": "R 1 MAIO",
      "house": "12",
      "postcode": "2580-133",
      "city": "CADAFAIS",
      "lon": "-9.013648523340729",
      "lat": "39.02109926950837"
    },
    {
      "id": "pt.ine.add.PTCONT.3212947",
      "street": "TV FAMILIA",
      "house": "1",
      "postcode": "2580-133",
      "city": "CADAFAIS",
      "lon": "-9.013714223151561",
      "lat": "39.02081053363564"
    },
    {
      "id": "pt.ine.add.PTCONT.3260904",
      "street": "R PORTELA",
      "house": "9",
      "postcode": "2580-133",
      "city": "CADAFAIS",
      "lon": "-9.011891551766356",
      "lat": "39.01908583156452"
    },
    {
      "id": "pt.ine.add.PTCONT.3305051",
      "street": "TV FAMILIA",
      "house": "7",
      "postcode": "2580-133",
      "city": "CADAFAIS",
      "lon": "-9.013105531587414",
      "lat": "39.02107634457933"
    },
    {
      "id": "pt.ine.add.PTCONT.3305052",
      "street": "R COMISSAO",
      "house": "4",
      "postcode": "2580-133",
      "city": "CADAFAIS",
      "lon": "-9.01201035276118",
      "lat": "39.01935516154841"
    }
  ]
}