{
  "data": {
    "distrito": "Lisboa",
    "concelho": "Alenquer",
    "freguesia": "União das freguesias de Carregado e Cadafais",
    "OBJECTID": 265,
    "BGRI2021": "11012000818",
    "DT21": "11",
    "DTMN21": "1101",
    "DTMNFR21": "110120",
    "DTMNFRSEC21": "110120008",
    "SECNUM21": "008",
    "SSNUM21": "18",
    "SECSSNUM21": "00818",
    "OBJECTID_1": 98916,
    "DT": "11",
    "CC": "01",
    "fr": "20",
    "SEC": "008",
    "SS": "18"
  },
  "addresses": [
    {
      "id": "pt.ine.add.PTCONT.2286615",
      "street": "TV RIO",
      "house": "11",
      "postcode": "2580-134",
      "city": "CADAFAIS",
      "lon": "-9.022439570455365",
      "lat": "39.026932482929666"
    },
    {
      "id": "pt.ine.add.PTCONT.2286622",
      "street": "R JOÃO CARLOS HENRIQUES",
      "house": "",
      "postcode": "2580-134",
      "city": "CADAFAIS",
      "lon": "-9.021876412881511",
      "lat": "39.02622518396632"
    },
    {
      "id": "pt.ine.add.PTCONT.2295758",
      "street": "R JOA CARLOS HENRIQUES",
      "house": "4",
      "postcode": "2580-134",
      "city": "CADAFAIS",
      "lon": "-9.022020162492792",
      "lat": "39.02663843288705"
    },
    {
      "id": "pt.ine.add.PTCONT.2295766",
      "street": "R CASTELO",
      "house": "6",
      "postcode": "2580-134",
      "city": "CADAFAIS",
      "lon": "-9.021964499966776",
      "lat": "39.02588222831571"
    },
    {
      "id": "pt.ine.add.PTCONT.2444672",
      "street": "CSL GUIMAROA CASA DA PERGULA",
      "house": "",
      "postcode": "2580-134",
      "city": "CADAFAIS",
      "lon": "-9.025223476950526",
      "lat": "39.02056995338706"
    },
    {
      "id": "pt.ine.add.PTCONT.2460917",
      "street": "ESTR CASAL DAS EIRAS VELHA",
      "house": "",
      "postcode": "2580-134",
      "city": "CADAFAIS",
      "lon": "-9.024852863314736",
      "lat": "39.02415776798923"
    },
    {
      "id": "pt.ine.add.PTCONT.2561991",
      "street": "R JOÃO CARLOS HENRIQUES",
      "house": "10",
      "postcode": "2580-134",
      "city": "CADAFAIS",
      "lon": "-9.021924291628517",
      "lat": "39.02635993142317"
    },
    {
      "id": "pt.ine.add.PTCONT.2608662",
      "street": "R CASTELO",
      "house": "18",
      "postcode": "2580-134",
      "city": "CADAFAIS",
      "lon": "-9.022867847703472",
      "lat": "39.026091520798026"
    },
    {
      "id": "pt.ine.add.PTCONT.2608775",
      "street": "ESTR GUIMAROA",
      "house": "28",
      "postcode": "2580-134",
      "city": "CADAFAIS",
      "lon": "-9.025000599292369",
      "lat": "39.0202924254394"
    },
    {
      "id": "pt.ine.add.PTCONT.2608776",
      "street": "ESTR GUIMAROA",
      "house": "28",
      "postcode": "2580-134",
      "city": "CADAFAIS",
      "lon": "-9.025000599292369",
      "lat": "39.0202924254394"
    },
    {
      "id": "pt.ine.add.PTCONT.2641480",
      "street": "TV RIO",
      "house": "11A",
      "postcode": "2580-134",
      "city": "CADAFAIS",
      "lon": "-9.022633947072084",
      "lat": "39.02677787355766"
    },
    {
      "id": "pt.ine.add.PTCONT.2737495",
      "street": "R JOÃO CARLOS HENRIQUES",
      "house": "8",
      "postcode": "2580-134",
      "city": "CADAFAIS",
      "lon": "-9.021900634218529",
      "lat": "39.02631507426178"
    },
    {
      "id": "pt.ine.add.PTCONT.2940306",
      "street": "TV RIO",
      "house": "13",
      "postcode": "2580-134",
      "city": "CADAFAIS",
      "lon": "-9.022821066787628",
      "lat": "39.02696560359846"
    },
    {
      "id": "pt.ine.add.PTCONT.2954194",
      "street": "R CASTELO",
      "house": "20",
      "postcode": "2580-134",
      "city": "CADAFAIS",
      "lon": "-9.023019648463372",
      "lat": "39.02622547504476"
    },
    {
      "id": "pt.ine.add.PTCONT.3212988",
      "street": "R CASTELO",
      "house": "10",
      "postcode": "2580-134",
      "city": "CADAFAIS",
      "lon": "-9.02212750678286",
      "lat": "39.02598907588837"
    },
    {
      "id": "pt.ine.add.PTCONT.3212989",
      "street": "R CASTELO",
      "house": "10",
      "postcode": "2580-134",
      "city": "CADAFAIS",
      "lon": "-9.02212750678286",
      "lat": "39.02598907588837"
    },
    {
      "id": "pt.ine.add.PTCONT.3231688",
      "street": "TV RIO",
      "house": "23",
      "postcode": "2580-134",
      "city": "CADAFAIS",
      "lon": "-9.023446967507367",
      "lat": "39.02714998496215"
    },
    {
      "id": "pt.ine.add.PTCONT.3256295",
      "street": "R JOA CARLOS HENRIQUES",
      "house": "4",
      "postcode": "2580-134",
      "city": "CADAFAIS",
      "lon": "-9.021960962232003",
      "lat": "39.02652178671912"
    },
    {
      "id": "pt.ine.add.PTCONT.3268326",
      "street": "R CASTELO",
      "house": "",
      "postcode": "2580-134",
      "city": "CADAFAIS",
      "lon": "-9.02263510808189",
      "lat": "39.02594917612458"
    },
    {
      "id": "pt.ine.add.PTCONT.3379033",
      "street": "CSL GUIMAROA",
      "house": "28",
      "postcode": "2580-134",
      "city": "CADAFAIS",
      "lon": "-9.025830864048915",
      "lat": "39.01928624266581"
    },
    {
      "id": "pt.ine.add.PTCONT.3386505",
      "street": "CSL CURVACEIRA QTA DA ROTA DOS MOINHOS",
      "house": "",
      "postcode": "2580-134",
      "city": "CADAFAIS",
      "lon": "-9.035425309651714",
      "lat": "39.02467095793558"
    },
    {
      "id": "pt.ine.add.PTCONT.3436375",
      "street": "CSL HORTA DE CIMA",
      "house": "",
      "postcode": "2580-134",
      "city": "CADAFAIS",
      "lon": "-9.026059088285514",
      "lat": "39.02182460847977"
    },
    {
      "id": "pt.ine.add.PTCONT.3451342",
      "street": "LG PERO DA PACIENCIA",
      "house": "5",
      "postcode": "2580-134",
      "city": "CADAFAIS",
      "lon": "-9.021897927158196",
      "lat": "39.02609891524448"
    },
    {
      "id": "pt.ine.add.PTCONT.3455316",
      "street": "LG PERO DA PACIENCIA",
      "house": "5",
      "postcode": "2580-134",
      "city": "CADAFAIS",
      "lon": "-9.021804538719685",
      "lat": "39.02601855942134"
    }
  ]
}