{
  "data": {
    "distrito": "Porto",
    "concelho": "Vila Nova de Gaia",
    "freguesia": "União das freguesias de Grijó e Sermonde",
    "OBJECTID": 2039,
    "BGRI2021": "13172500605",
    "DT21": "13",
    "DTMN21": "1317",
    "DTMNFR21": "131725",
    "DTMNFRSEC21": "131725006",
    "SECNUM21": "006",
    "SSNUM21": "05",
    "SECSSNUM21": "00605",
    "OBJECTID_1": 143775,
    "DT": "13",
    "CC": "17",
    "fr": "25",
    "SEC": "006",
    "SS": "05"
  },
  "addresses": [
    {
      "id": "pt.ine.add.PTCONT.3551283",
      "street": "R D RODRIGO SANCHES",
      "house": "517A",
      "postcode": "4415-453",
      "city": "GRIJÓ VNG",
      "lon": "-8.583849305221051",
      "lat": "41.02656458933166"
    },
    {
      "id": "pt.ine.add.PTCONT.3579772",
      "street": "R D RODRIGO SANCHES",
      "house": "5",
      "postcode": "4415-453",
      "city": "GRIJÓ VNG",
      "lon": "-8.584001480326735",
      "lat": "41.02621281646088"
    },
    {
      "id": "pt.ine.add.PTCONT.3592345",
      "street": "R D RODRIGO SANCHES BAIRROS COTESI",
      "house": "3",
      "postcode": "4415-453",
      "city": "GRIJÓ VNG",
      "lon": "-8.584085078754008",
      "lat": "41.02626651672514"
    },
    {
      "id": "pt.ine.add.PTCONT.3614277",
      "street": "R D RODRIGO SANCHES",
      "house": "11",
      "postcode": "4415-453",
      "city": "GRIJÓ VNG",
      "lon": "-8.583892812588644",
      "lat": "41.02597011851293"
    },
    {
      "id": "pt.ine.add.PTCONT.3680139",
      "street": "R D RODRIGO SANCHES",
      "house": "353",
      "postcode": "4415-453",
      "city": "GRIJÓ VNG",
      "lon": "-8.583112490471253",
      "lat": "41.026621495773696"
    },
    {
      "id": "pt.ine.add.PTCONT.3718952",
      "street": "R D RODRIGO SANCHES",
      "house": "9",
      "postcode": "4415-453",
      "city": "GRIJÓ VNG",
      "lon": "-8.58391726794789",
      "lat": "41.026069072978835"
    },
    {
      "id": "pt.ine.add.PTCONT.3732499",
      "street": "R D RODRIGO SANCHES",
      "house": "357",
      "postcode": "4415-453",
      "city": "GRIJÓ VNG",
      "lon": "-8.583266263967795",
      "lat": "41.02650383607349"
    },
    {
      "id": "pt.ine.add.PTCONT.3764269",
      "street": "R D RODRIGO SANCHES",
      "house": "7",
      "postcode": "4415-453",
      "city": "GRIJÓ VNG",
      "lon": "-8.583988976163885",
      "lat": "41.0261228198199"
    },
    {
      "id": "pt.ine.add.PTCONT.3772844",
      "street": "R D RODRIGO SANCHES",
      "house": "517B",
      "postcode": "4415-453",
      "city": "GRIJÓ VNG",
      "lon": "-8.583764908551322",
      "lat": "41.02639383280189"
    },
    {
      "id": "pt.ine.add.PTCONT.3803548",
      "street": "R D RODRIGO SANCHES",
      "house": "387",
      "postcode": "4415-453",
      "city": "GRIJÓ VNG",
      "lon": "-8.583314805329511",
      "lat": "41.02664771936049"
    },
    {
      "id": "pt.ine.add.PTCONT.3813653",
      "street": "R D RODRIGO SANCHES",
      "house": "527",
      "postcode": "4415-453",
      "city": "GRIJÓ VNG",
      "lon": "-8.583548372661026",
      "lat": "41.02602549246403"
    },
    {
      "id": "pt.ine.add.PTCONT.3919163",
      "street": "R D RODRIGO SANCHES",
      "house": "195",
      "postcode": "4415-453",
      "city": "GRIJÓ VNG",
      "lon": "-8.58356376016208",
      "lat": "41.026538691995384"
    },
    {
      "id": "pt.ine.add.PTCONT.3919164",
      "street": "R D RODRIGO SANCHES",
      "house": "195",
      "postcode": "4415-453",
      "city": "GRIJÓ VNG",
      "lon": "-8.58356376016208",
      "lat": "41.026538691995384"
    },
    {
      "id": "pt.ine.add.PTCONT.3919165",
      "street": "R D RODRIGO SANCHES",
      "house": "195",
      "postcode": "4415-453",
      "city": "GRIJÓ VNG",
      "lon": "-8.58356376016208",
      "lat": "41.026538691995384"
    },
    {
      "id": "pt.ine.add.PTCONT.3919166",
      "street": "R D RODRIGO SANCHES",
      "house": "195",
      "postcode": "4415-453",
      "city": "GRIJÓ VNG",
      "lon": "-8.58356376016208",
      "lat": "41.026538691995384"
    },
    {
      "id": "pt.ine.add.PTCONT.4081457",
      "street": "R CENTRO SOCIAL DE S SALVADOR",
      "house": "265",
      "postcode": "4415-440",
      "city": "GRIJÓ VNG",
      "lon": "-8.58281947177844",
      "lat": "41.02549706993151"
    },
    {
      "id": "pt.ine.add.PTCONT.4166738",
      "street": "R D RODRIGO SANCHES",
      "house": "321",
      "postcode": "4415-453",
      "city": "GRIJÓ VNG",
      "lon": "-8.582862125453293",
      "lat": "41.026523422897796"
    },
    {
      "id": "pt.ine.add.PTCONT.4231702",
      "street": "R D RODRIGO SANCHES",
      "house": "1",
      "postcode": "4415-453",
      "city": "GRIJÓ VNG",
      "lon": "-8.584085693074108",
      "lat": "41.026356559875886"
    },
    {
      "id": "pt.ine.add.PTCONT.4292510",
      "street": "R D RODRIGO SANCHES",
      "house": "NR 391",
      "postcode": "4415-453",
      "city": "GRIJÓ VNG",
      "lon": "-8.58343364454515",
      "lat": "41.026638250549844"
    },
    {
      "id": "pt.ine.add.PTCONT.4375882",
      "street": "R D RODRIGO SANCHES",
      "house": "195",
      "postcode": "4415-453",
      "city": "GRIJÓ VNG",
      "lon": "-8.58356376016208",
      "lat": "41.026538691995384"
    }
  ]
}