{
  "data": {
    "distrito": "Porto",
    "concelho": "Baião",
    "freguesia": "União das freguesias de Baião (Santa Leocádia) e Mesquinhata",
    "OBJECTID": 372,
    "BGRI2021": "13022200103",
    "DT21": "13",
    "DTMN21": "1302",
    "DTMNFR21": "130222",
    "DTMNFRSEC21": "130222001",
    "SECNUM21": "001",
    "SSNUM21": "03",
    "SECSSNUM21": "00103",
    "OBJECTID_1": 126941,
    "DT": "13",
    "CC": "02",
    "fr": "22",
    "SEC": "001",
    "SS": "03"
  },
  "addresses": [
    {
      "id": "pt.ine.add.PTCONT.3559742",
      "street": "R BALDE",
      "house": "154",
      "postcode": "4640-444",
      "city": "BAIÃO (SANTA LEOCÁDIA)",
      "lon": "-8.078224825898348",
      "lat": "41.10926602457942"
    },
    {
      "id": "pt.ine.add.PTCONT.3559829",
      "street": "R BALDE",
      "house": "",
      "postcode": "4640-402",
      "city": "RIBADOURO",
      "lon": "-8.08158527707595",
      "lat": "41.10523357502551"
    },
    {
      "id": "pt.ine.add.PTCONT.3617834",
      "street": "R LEIRAS CASA DO VAL",
      "house": "699",
      "postcode": "4640-444",
      "city": "BAIÃO (SANTA LEOCÁDIA)",
      "lon": "-8.080524382842622",
      "lat": "41.10697095824763"
    },
    {
      "id": "pt.ine.add.PTCONT.3630270",
      "street": "TV BALDE",
      "house": "86",
      "postcode": "4640-444",
      "city": "BAIÃO (SANTA LEOCÁDIA)",
      "lon": "-8.078296602226201",
      "lat": "41.10885185338952"
    },
    {
      "id": "pt.ine.add.PTCONT.3656528",
      "street": "R BALDE",
      "house": "1007",
      "postcode": "4640-444",
      "city": "BAIÃO (SANTA LEOCÁDIA)",
      "lon": "-8.078236783684831",
      "lat": "41.10920299902667"
    },
    {
      "id": "pt.ine.add.PTCONT.3666292",
      "street": "R BALDE",
      "house": "14",
      "postcode": "4640-402",
      "city": "RIBADOURO",
      "lon": "-8.080251350044518",
      "lat": "41.1059983507282"
    },
    {
      "id": "pt.ine.add.PTCONT.3776136",
      "street": "R LAGE",
      "house": "42",
      "postcode": "4640-445",
      "city": "BAIÃO (SANTA LEOCÁDIA)",
      "lon": "-8.080720546512255",
      "lat": "41.11479592465429"
    },
    {
      "id": "pt.ine.add.PTCONT.3777432",
      "street": "TV LAGE",
      "house": "16",
      "postcode": "4640-445",
      "city": "BAIÃO (SANTA LEOCÁDIA)",
      "lon": "-8.081054193497948",
      "lat": "41.11445390656759"
    },
    {
      "id": "pt.ine.add.PTCONT.3796989",
      "street": "R BALDE",
      "house": "1137",
      "postcode": "4640-444",
      "city": "BAIÃO (SANTA LEOCÁDIA)",
      "lon": "-8.07868835236341",
      "lat": "41.110211713091836"
    },
    {
      "id": "pt.ine.add.PTCONT.3822994",
      "street": "TV LAGE",
      "house": "50",
      "postcode": "4640-445",
      "city": "BAIÃO (SANTA LEOCÁDIA)",
      "lon": "-8.080530203606402",
      "lat": "41.11459773992577"
    },
    {
      "id": "pt.ine.add.PTCONT.3830922",
      "street": "CAM LACEIRAS CASA DAS CERDEIRINHAS",
      "house": "169",
      "postcode": "4640-451",
      "city": "BAIÃO (SANTA LEOCÁDIA)",
      "lon": "-8.077638312986384",
      "lat": "41.113011599491415"
    },
    {
      "id": "pt.ine.add.PTCONT.3840817",
      "street": "R BALDE",
      "house": "171",
      "postcode": "4640-444",
      "city": "BAIÃO (SANTA LEOCÁDIA)",
      "lon": "-8.078355739437113",
      "lat": "41.10932011364998"
    },
    {
      "id": "pt.ine.add.PTCONT.3863143",
      "street": "R BALDE",
      "house": "1005",
      "postcode": "4640-444",
      "city": "BAIÃO (SANTA LEOCÁDIA)",
      "lon": "-8.078224938370168",
      "lat": "41.10913095767157"
    },
    {
      "id": "pt.ine.add.PTCONT.3870104",
      "street": "R BALDE",
      "house": "65",
      "postcode": "4640-402",
      "city": "RIBADOURO",
      "lon": "-8.080965683177773",
      "lat": "41.10593564493564"
    },
    {
      "id": "pt.ine.add.PTCONT.3900448",
      "street": "R ERMIDAS",
      "house": "84",
      "postcode": "4640-402",
      "city": "RIBADOURO",
      "lon": "-8.08065754353219",
      "lat": "41.104197642242205"
    },
    {
      "id": "pt.ine.add.PTCONT.3901769",
      "street": "TV LAGE",
      "house": "14",
      "postcode": "4640-445",
      "city": "BAIÃO (SANTA LEOCÁDIA)",
      "lon": "-8.081185339607831",
      "lat": "41.11422885434361"
    },
    {
      "id": "pt.ine.add.PTCONT.3901770",
      "street": "R LEIRAS",
      "house": "56",
      "postcode": "4640-444",
      "city": "BAIÃO (SANTA LEOCÁDIA)",
      "lon": "-8.080000320714552",
      "lat": "41.10727686976973"
    },
    {
      "id": "pt.ine.add.PTCONT.3928098",
      "street": "TV BALDE",
      "house": "65",
      "postcode": "4640-444",
      "city": "BAIÃO (SANTA LEOCÁDIA)",
      "lon": "-8.079380118191242",
      "lat": "41.10868127892517"
    },
    {
      "id": "pt.ine.add.PTCONT.3962090",
      "street": "R BALDE",
      "house": "151",
      "postcode": "4640-444",
      "city": "BAIÃO (SANTA LEOCÁDIA)",
      "lon": "-8.07835579179896",
      "lat": "41.10925708242715"
    },
    {
      "id": "pt.ine.add.PTCONT.3964662",
      "street": "CAM LACEIRAS",
      "house": "61",
      "postcode": "4640-451",
      "city": "BAIÃO (SANTA LEOCÁDIA)",
      "lon": "-8.077282491107875",
      "lat": "41.11140863386547"
    },
    {
      "id": "pt.ine.add.PTCONT.3986853",
      "street": "TV LAGE",
      "house": "14",
      "postcode": "4640-445",
      "city": "BAIÃO (SANTA LEOCÁDIA)",
      "lon": "-8.081090040187842",
      "lat": "41.114291842549164"
    },
    {
      "id": "pt.ine.add.PTCONT.3987088",
      "street": "TV LAGE",
      "house": "14",
      "postcode": "4640-445",
      "city": "BAIÃO (SANTA LEOCÁDIA)",
      "lon": "-8.081090040187842",
      "lat": "41.114291842549164"
    },
    {
      "id": "pt.ine.add.PTCONT.4037255",
      "street": "TV BALDE",
      "house": "",
      "postcode": "4640-444",
      "city": "BAIÃO (SANTA LEOCÁDIA)",
      "lon": "-8.078594024597107",
      "lat": "41.109104119503066"
    },
    {
      "id": "pt.ine.add.PTCONT.4052415",
      "street": "R BALDE",
      "house": "",
      "postcode": "4640-444",
      "city": "BAIÃO (SANTA LEOCÁDIA)",
      "lon": "-8.078177452306376",
      "lat": "41.10896885468377"
    },
    {
      "id": "pt.ine.add.PTCONT.4056875",
      "street": "R LAGE",
      "house": "7",
      "postcode": "4640-445",
      "city": "BAIÃO (SANTA LEOCÁDIA)",
      "lon": "-8.081446986758822",
      "lat": "41.114598154658104"
    },
    {
      "id": "pt.ine.add.PTCONT.4089937",
      "street": "R BALDE",
      "house": "1003",
      "postcode": "4640-444",
      "city": "BAIÃO (SANTA LEOCÁDIA)",
      "lon": "-8.078189290037248",
      "lat": "41.109049900506484"
    },
    {
      "id": "pt.ine.add.PTCONT.4109108",
      "street": "R ESTIVADAS QTA DA ERMIDA",
      "house": "126",
      "postcode": "4640-402",
      "city": "RIBADOURO",
      "lon": "-8.081145680553647",
      "lat": "41.10412582764596"
    },
    {
      "id": "pt.ine.add.PTCONT.4122469",
      "street": "TV BALDE CASA DE VIELA",
      "house": "183",
      "postcode": "4640-444",
      "city": "BAIÃO (SANTA LEOCÁDIA)",
      "lon": "-8.078546276748737",
      "lat": "41.10925717279151"
    },
    {
      "id": "pt.ine.add.PTCONT.4128810",
      "street": "TV LAGE",
      "house": "4",
      "postcode": "4640-445",
      "city": "BAIÃO (SANTA LEOCÁDIA)",
      "lon": "-8.081244650956194",
      "lat": "41.11450801919563"
    },
    {
      "id": "pt.ine.add.PTCONT.4139639",
      "street": "CAM LACEIRAS",
      "house": "",
      "postcode": "4640-451",
      "city": "BAIÃO (SANTA LEOCÁDIA)",
      "lon": "-8.07812533154968",
      "lat": "41.11436250149699"
    },
    {
      "id": "pt.ine.add.PTCONT.4155465",
      "street": "R LACEIRAS",
      "house": "983",
      "postcode": "4640-451",
      "city": "BAIÃO (SANTA LEOCÁDIA)",
      "lon": "-8.079015800557467",
      "lat": "41.11740642833965"
    },
    {
      "id": "pt.ine.add.PTCONT.4169660",
      "street": "R BALDE",
      "house": "",
      "postcode": "4640-444",
      "city": "BAIÃO (SANTA LEOCÁDIA)",
      "lon": "-8.07890293986032",
      "lat": "41.10986064019983"
    },
    {
      "id": "pt.ine.add.PTCONT.4169661",
      "street": "R LEIRAS",
      "house": "128",
      "postcode": "4640-444",
      "city": "BAIÃO (SANTA LEOCÁDIA)",
      "lon": "-8.080726300958265",
      "lat": "41.107556340590904"
    },
    {
      "id": "pt.ine.add.PTCONT.4181588",
      "street": "R LAGE",
      "house": "",
      "postcode": "4640-445",
      "city": "BAIÃO (SANTA LEOCÁDIA)",
      "lon": "-8.080267298013107",
      "lat": "41.115804216580244"
    },
    {
      "id": "pt.ine.add.PTCONT.4211758",
      "street": "R SOBREPOSTA",
      "house": "",
      "postcode": "4640-445",
      "city": "BAIÃO (SANTA LEOCÁDIA)",
      "lon": "-8.081710210047383",
      "lat": "41.1129504567574"
    },
    {
      "id": "pt.ine.add.PTCONT.4233400",
      "street": "QTA PACO",
      "house": "",
      "postcode": "4640-452",
      "city": "BAIÃO (SANTA LEOCÁDIA)",
      "lon": "-8.086593224416593",
      "lat": "41.11073743446168"
    },
    {
      "id": "pt.ine.add.PTCONT.4248091",
      "street": "TV BALDE CASA DOS MOREIRAS",
      "house": "103",
      "postcode": "4640-444",
      "city": "BAIÃO (SANTA LEOCÁDIA)",
      "lon": "-8.078379886541153",
      "lat": "41.10891492423247"
    },
    {
      "id": "pt.ine.add.PTCONT.4253472",
      "street": "R LACEIRAS",
      "house": "",
      "postcode": "4640-451",
      "city": "BAIÃO (SANTA LEOCÁDIA)",
      "lon": "-8.078253736543738",
      "lat": "41.11744208582971"
    },
    {
      "id": "pt.ine.add.PTCONT.4253474",
      "street": "R LACEIRAS",
      "house": "525",
      "postcode": "4640-451",
      "city": "BAIÃO (SANTA LEOCÁDIA)",
      "lon": "-8.076767020327008",
      "lat": "41.11553242442074"
    },
    {
      "id": "pt.ine.add.PTCONT.4253585",
      "street": "R ESTIVADAS",
      "house": "31",
      "postcode": "4640-402",
      "city": "RIBADOURO",
      "lon": "-8.080670644085115",
      "lat": "41.10269390118676"
    },
    {
      "id": "pt.ine.add.PTCONT.4277294",
      "street": "R LAGE",
      "house": "42",
      "postcode": "4640-445",
      "city": "BAIÃO (SANTA LEOCÁDIA)",
      "lon": "-8.080792070160408",
      "lat": "41.11468790368876"
    },
    {
      "id": "pt.ine.add.PTCONT.4277297",
      "street": "R SOBREPOSTA",
      "house": "165 CAS",
      "postcode": "4640-445",
      "city": "BAIÃO (SANTA LEOCÁDIA)",
      "lon": "-8.082757709019177",
      "lat": "41.1132480664127"
    },
    {
      "id": "pt.ine.add.PTCONT.4285102",
      "street": "R ESTIVADAS QTA DAS ESTIVADAS",
      "house": "",
      "postcode": "4640-402",
      "city": "RIBADOURO",
      "lon": "-8.081800849135963",
      "lat": "41.1035768484337"
    },
    {
      "id": "pt.ine.add.PTCONT.4286838",
      "street": "TV BALDE",
      "house": "133",
      "postcode": "4640-444",
      "city": "BAIÃO (SANTA LEOCÁDIA)",
      "lon": "-8.078439218590537",
      "lat": "41.109149068473734"
    },
    {
      "id": "pt.ine.add.PTCONT.4327213",
      "street": "R BALDE",
      "house": "971",
      "postcode": "4640-444",
      "city": "BAIÃO (SANTA LEOCÁDIA)",
      "lon": "-8.078248928818478",
      "lat": "41.1089148619521"
    },
    {
      "id": "pt.ine.add.PTCONT.4342783",
      "street": "R LEIRAS",
      "house": "233",
      "postcode": "4640-402",
      "city": "RIBADOURO",
      "lon": "-8.081012675765914",
      "lat": "41.106728059433784"
    },
    {
      "id": "pt.ine.add.PTCONT.4342924",
      "street": "TV LAGE",
      "house": "28",
      "postcode": "4640-445",
      "city": "BAIÃO (SANTA LEOCÁDIA)",
      "lon": "-8.080923203370112",
      "lat": "41.11448086067841"
    },
    {
      "id": "pt.ine.add.PTCONT.4359137",
      "street": "R SOBREPOSTA",
      "house": "165",
      "postcode": "4640-445",
      "city": "BAIÃO (SANTA LEOCÁDIA)",
      "lon": "-8.082912466848283",
      "lat": "41.113275147314454"
    },
    {
      "id": "pt.ine.add.PTCONT.4359268",
      "street": "R BALDE",
      "house": "81",
      "postcode": "4640-400",
      "city": "RIBADOURO",
      "lon": "-8.079838344908419",
      "lat": "41.101468910752004"
    }
  ]
}