{
  "data": {
    "distrito": "Viseu",
    "concelho": "Santa Comba Dão",
    "freguesia": "União das freguesias de Ovoa e Vimieiro",
    "OBJECTID": 422,
    "BGRI2021": "18141000137",
    "DT21": "18",
    "DTMN21": "1814",
    "DTMNFR21": "181410",
    "DTMNFRSEC21": "181410001",
    "SECNUM21": "001",
    "SSNUM21": "37",
    "SECSSNUM21": "00137",
    "OBJECTID_1": 195811,
    "DT": "18",
    "CC": "14",
    "fr": "10",
    "SEC": "001",
    "SS": "37"
  },
  "addresses": [
    {
      "id": "pt.ine.add.PTCONT.5430082",
      "street": "R NSA SRA DA PIEDADE",
      "house": "6",
      "postcode": "3440-002",
      "city": "ÓVOA",
      "lon": "-8.122992809701987",
      "lat": "40.379708658578764"
    },
    {
      "id": "pt.ine.add.PTCONT.5462959",
      "street": "R NSA SRA DA PIEDADE",
      "house": "4",
      "postcode": "3440-002",
      "city": "ÓVOA",
      "lon": "-8.123039940232635",
      "lat": "40.37952855055934"
    },
    {
      "id": "pt.ine.add.PTCONT.5462960",
      "street": "R NSA SRA DA PIEDADE",
      "house": "4",
      "postcode": "3440-002",
      "city": "ÓVOA",
      "lon": "-8.123039940232635",
      "lat": "40.37952855055934"
    },
    {
      "id": "pt.ine.add.PTCONT.5467850",
      "street": "R FOZ DO DAO",
      "house": "3",
      "postcode": "3440-002",
      "city": "ÓVOA",
      "lon": "-8.123840696375003",
      "lat": "40.379564639929534"
    },
    {
      "id": "pt.ine.add.PTCONT.5473692",
      "street": "R QUINTA DA CANADA",
      "house": "2",
      "postcode": "3440-002",
      "city": "ÓVOA",
      "lon": "-8.124158607663336",
      "lat": "40.3798528443767"
    },
    {
      "id": "pt.ine.add.PTCONT.5528646",
      "street": "R FOZ DO DAO",
      "house": "1",
      "postcode": "3440-002",
      "city": "ÓVOA",
      "lon": "-8.124017317995873",
      "lat": "40.37969073244123"
    },
    {
      "id": "pt.ine.add.PTCONT.5530590",
      "street": "R NSA SRA DA PIEDADE",
      "house": "8",
      "postcode": "3440-002",
      "city": "ÓVOA",
      "lon": "-8.123028125410842",
      "lat": "40.37978971212015"
    },
    {
      "id": "pt.ine.add.PTCONT.5541046",
      "street": "R FOZ DO DAO",
      "house": "7",
      "postcode": "3440-002",
      "city": "ÓVOA",
      "lon": "-8.12340501504092",
      "lat": "40.3793754864504"
    },
    {
      "id": "pt.ine.add.PTCONT.5575870",
      "street": "QTA CANADA",
      "house": "8",
      "postcode": "3440-002",
      "city": "ÓVOA",
      "lon": "-8.123558039061301",
      "lat": "40.37981677391466"
    },
    {
      "id": "pt.ine.add.PTCONT.5585063",
      "street": "R NSA SRA DA PIEDADE",
      "house": "1",
      "postcode": "3440-002",
      "city": "ÓVOA",
      "lon": "-8.123310781977525",
      "lat": "40.379555590642475"
    },
    {
      "id": "pt.ine.add.PTCONT.5586959",
      "street": "R FOZ DO DAO",
      "house": "5",
      "postcode": "3440-002",
      "city": "ÓVOA",
      "lon": "-8.123640519865683",
      "lat": "40.37946556203996"
    },
    {
      "id": "pt.ine.add.PTCONT.5633704",
      "street": "R RICA",
      "house": "1",
      "postcode": "3440-002",
      "city": "ÓVOA",
      "lon": "-8.123075334722085",
      "lat": "40.379078273280015"
    },
    {
      "id": "pt.ine.add.PTCONT.5667381",
      "street": "R NSA SRA DA PIEDADE",
      "house": "2",
      "postcode": "3440-002",
      "city": "ÓVOA",
      "lon": "-8.123028193862357",
      "lat": "40.37933042618404"
    }
  ]
}