{
  "data": {
    "distrito": "Bragança",
    "concelho": "Bragança",
    "freguesia": "União das freguesias de Izeda, Calvelhe e Paradinha Nova",
    "OBJECTID": 915,
    "BGRI2021": "04025200133",
    "DT21": "04",
    "DTMN21": "0402",
    "DTMNFR21": "040252",
    "DTMNFRSEC21": "040252001",
    "SECNUM21": "001",
    "SSNUM21": "33",
    "SECSSNUM21": "00133",
    "OBJECTID_1": 33776,
    "DT": "04",
    "CC": "02",
    "fr": "52",
    "SEC": "001",
    "SS": "33"
  },
  "addresses": [
    {
      "id": "pt.ine.add.PTCONT.853273",
      "street": "R CENTRAL",
      "house": "8",
      "postcode": "5300-441",
      "city": "CALVELHE",
      "lon": "-6.707867675252545",
      "lat": "41.60510378778575"
    },
    {
      "id": "pt.ine.add.PTCONT.853274",
      "street": "R IGREJA",
      "house": "9",
      "postcode": "5300-441",
      "city": "CALVELHE",
      "lon": "-6.7075349723752895",
      "lat": "41.606594218087565"
    },
    {
      "id": "pt.ine.add.PTCONT.854216",
      "street": "TV RUA DA IGREJA",
      "house": "2",
      "postcode": "5300-441",
      "city": "CALVELHE",
      "lon": "-6.707381249133105",
      "lat": "41.606493274605"
    },
    {
      "id": "pt.ine.add.PTCONT.854865",
      "street": "R EIRO",
      "house": "3",
      "postcode": "5300-441",
      "city": "CALVELHE",
      "lon": "-6.707299383523088",
      "lat": "41.606942426570214"
    },
    {
      "id": "pt.ine.add.PTCONT.856189",
      "street": "R IGREJA",
      "house": "13",
      "postcode": "5300-441",
      "city": "CALVELHE",
      "lon": "-6.707494634722747",
      "lat": "41.60679179147028"
    },
    {
      "id": "pt.ine.add.PTCONT.857938",
      "street": "R FREIXO",
      "house": "8",
      "postcode": "5300-441",
      "city": "CALVELHE",
      "lon": "-6.7069038249881405",
      "lat": "41.606928515838824"
    },
    {
      "id": "pt.ine.add.PTCONT.867843",
      "street": "R BOAVISTA",
      "house": "2",
      "postcode": "5300-441",
      "city": "CALVELHE",
      "lon": "-6.7052521663691",
      "lat": "41.6051253472396"
    },
    {
      "id": "pt.ine.add.PTCONT.868682",
      "street": "R FREIXO",
      "house": "1",
      "postcode": "5300-441",
      "city": "CALVELHE",
      "lon": "-6.707456675049843",
      "lat": "41.606881354144456"
    },
    {
      "id": "pt.ine.add.PTCONT.871614",
      "street": "R CENTRAL",
      "house": "6",
      "postcode": "5300-441",
      "city": "CALVELHE",
      "lon": "-6.707961830674099",
      "lat": "41.60518598538492"
    },
    {
      "id": "pt.ine.add.PTCONT.872407",
      "street": "R VALADARES",
      "house": "3",
      "postcode": "5300-441",
      "city": "CALVELHE",
      "lon": "-6.705009541493698",
      "lat": "41.60524837994281"
    },
    {
      "id": "pt.ine.add.PTCONT.875318",
      "street": "TV RUA CENTRAL",
      "house": "8",
      "postcode": "5300-441",
      "city": "CALVELHE",
      "lon": "-6.707171725911027",
      "lat": "41.60511316298912"
    },
    {
      "id": "pt.ine.add.PTCONT.878450",
      "street": "R FREIXO",
      "house": "5",
      "postcode": "5300-441",
      "city": "CALVELHE",
      "lon": "-6.707014137611176",
      "lat": "41.60682184435743"
    },
    {
      "id": "pt.ine.add.PTCONT.882215",
      "street": "R IGREJA",
      "house": "7",
      "postcode": "5300-441",
      "city": "CALVELHE",
      "lon": "-6.707525357901641",
      "lat": "41.60648605865548"
    },
    {
      "id": "pt.ine.add.PTCONT.889778",
      "street": "TV RUA CENTRAL",
      "house": "5",
      "postcode": "5300-441",
      "city": "CALVELHE",
      "lon": "-6.707211666942989",
      "lat": "41.60493359144777"
    },
    {
      "id": "pt.ine.add.PTCONT.895521",
      "street": "TV RUA CENTRAL",
      "house": "4",
      "postcode": "5300-441",
      "city": "CALVELHE",
      "lon": "-6.707363800787025",
      "lat": "41.60510654226439"
    },
    {
      "id": "pt.ine.add.PTCONT.895522",
      "street": "R FREIXO",
      "house": "13",
      "postcode": "5300-441",
      "city": "CALVELHE",
      "lon": "-6.706643953198343",
      "lat": "41.60674522410859"
    },
    {
      "id": "pt.ine.add.PTCONT.905377",
      "street": "TV RUA CENTRAL",
      "house": "12",
      "postcode": "5300-441",
      "city": "CALVELHE",
      "lon": "-6.70656170550436",
      "lat": "41.605033566948904"
    },
    {
      "id": "pt.ine.add.PTCONT.906703",
      "street": "R FREIXO",
      "house": "7",
      "postcode": "5300-441",
      "city": "CALVELHE",
      "lon": "-6.706894608064389",
      "lat": "41.60680235459927"
    },
    {
      "id": "pt.ine.add.PTCONT.908433",
      "street": "R BOAVISTA",
      "house": "6",
      "postcode": "5300-441",
      "city": "CALVELHE",
      "lon": "-6.704839862368274",
      "lat": "41.60532730181402"
    },
    {
      "id": "pt.ine.add.PTCONT.910703",
      "street": "TV RUA CENTRAL",
      "house": "2",
      "postcode": "5300-441",
      "city": "CALVELHE",
      "lon": "-6.707724956547459",
      "lat": "41.605047997955275"
    },
    {
      "id": "pt.ine.add.PTCONT.911498",
      "street": "TV RUA CENTRAL",
      "house": "8",
      "postcode": "5300-441",
      "city": "CALVELHE",
      "lon": "-6.7072150364459775",
      "lat": "41.60478057627292"
    },
    {
      "id": "pt.ine.add.PTCONT.913689",
      "street": "R FREIXO",
      "house": "3",
      "postcode": "5300-441",
      "city": "CALVELHE",
      "lon": "-6.70712425163734",
      "lat": "41.60672417365184"
    },
    {
      "id": "pt.ine.add.PTCONT.915902",
      "street": "R FREIXO",
      "house": "6",
      "postcode": "5300-441",
      "city": "CALVELHE",
      "lon": "-6.707084110881657",
      "lat": "41.60691274597609"
    },
    {
      "id": "pt.ine.add.PTCONT.921318",
      "street": "R IGREJA",
      "house": "11",
      "postcode": "5300-441",
      "city": "CALVELHE",
      "lon": "-6.707532990636369",
      "lat": "41.60668422699853"
    },
    {
      "id": "pt.ine.add.PTCONT.922821",
      "street": "TV RUA CENTRAL",
      "house": "3",
      "postcode": "5300-441",
      "city": "CALVELHE",
      "lon": "-6.707201656764122",
      "lat": "41.604843433755924"
    },
    {
      "id": "pt.ine.add.PTCONT.925862",
      "street": "R IGREJA",
      "house": "3",
      "postcode": "5300-441",
      "city": "CALVELHE",
      "lon": "-6.707873724051111",
      "lat": "41.60537396332216"
    },
    {
      "id": "pt.ine.add.PTCONT.931384",
      "street": "R FREIXO",
      "house": "15",
      "postcode": "5300-441",
      "city": "CALVELHE",
      "lon": "-6.706522837393263",
      "lat": "41.6067977410647"
    },
    {
      "id": "pt.ine.add.PTCONT.932154",
      "street": "TV RUA CENTRAL",
      "house": "10",
      "postcode": "5300-441",
      "city": "CALVELHE",
      "lon": "-6.707083121910556",
      "lat": "41.604778939781944"
    },
    {
      "id": "pt.ine.add.PTCONT.935164",
      "street": "R FREIXO",
      "house": "11",
      "postcode": "5300-441",
      "city": "CALVELHE",
      "lon": "-6.706729487633655",
      "lat": "41.60667425878737"
    },
    {
      "id": "pt.ine.add.PTCONT.936788",
      "street": "TV RUA CENTRAL",
      "house": "1",
      "postcode": "5300-441",
      "city": "CALVELHE",
      "lon": "-6.70735795229668",
      "lat": "41.604827365829664"
    },
    {
      "id": "pt.ine.add.PTCONT.937486",
      "street": "R FREIXO",
      "house": "9",
      "postcode": "5300-441",
      "city": "CALVELHE",
      "lon": "-6.706801244833931",
      "lat": "41.606684152580016"
    },
    {
      "id": "pt.ine.add.PTCONT.939801",
      "street": "R FREIXO",
      "house": "10",
      "postcode": "5300-441",
      "city": "CALVELHE",
      "lon": "-6.706844060125523",
      "lat": "41.606918770916664"
    },
    {
      "id": "pt.ine.add.PTCONT.944504",
      "street": "R VALADARES",
      "house": "1",
      "postcode": "5300-441",
      "city": "CALVELHE",
      "lon": "-6.705119258749102",
      "lat": "41.605168712905304"
    },
    {
      "id": "pt.ine.add.PTCONT.944505",
      "street": "R CABECINHO",
      "house": "4",
      "postcode": "5300-441",
      "city": "CALVELHE",
      "lon": "-6.705119258749102",
      "lat": "41.605168712905304"
    },
    {
      "id": "pt.ine.add.PTCONT.946925",
      "street": "TV RUA DA IGREJA",
      "house": "4",
      "postcode": "5300-441",
      "city": "CALVELHE",
      "lon": "-6.70715339071842",
      "lat": "41.60649044807887"
    },
    {
      "id": "pt.ine.add.PTCONT.948632",
      "street": "R EIRO",
      "house": "7",
      "postcode": "5300-441",
      "city": "CALVELHE",
      "lon": "-6.70747669661472",
      "lat": "41.60706166944092"
    },
    {
      "id": "pt.ine.add.PTCONT.950186",
      "street": "R EIRO",
      "house": "5",
      "postcode": "5300-441",
      "city": "CALVELHE",
      "lon": "-6.707381944566676",
      "lat": "41.607006474106875"
    }
  ]
}