{
  "data": {
    "distrito": "Lisboa",
    "concelho": "Sintra",
    "freguesia": "União das freguesias de São João das Lampas e Terrugem",
    "OBJECTID": 2868,
    "BGRI2021": "11112700114",
    "DT21": "11",
    "DTMN21": "1111",
    "DTMNFR21": "111127",
    "DTMNFRSEC21": "111127001",
    "SECNUM21": "001",
    "SSNUM21": "14",
    "SECSSNUM21": "00114",
    "OBJECTID_1": 112539,
    "DT": "11",
    "CC": "11",
    "fr": "27",
    "SEC": "001",
    "SS": "14"
  },
  "addresses": [
    {
      "id": "pt.ine.add.PTCONT.2324726",
      "street": "R LUIS DE CAMÕES",
      "house": "23",
      "postcode": "2705-873",
      "city": "TERRUGEM SNT",
      "lon": "-9.368054006504934",
      "lat": "38.83547625812489"
    },
    {
      "id": "pt.ine.add.PTCONT.2419099",
      "street": "LG FLORES",
      "house": "2",
      "postcode": "2705-886",
      "city": "TERRUGEM SNT",
      "lon": "-9.367498196719971",
      "lat": "38.835968541431285"
    },
    {
      "id": "pt.ine.add.PTCONT.2428054",
      "street": "R LUIS DE CAMÕES",
      "house": "17",
      "postcode": "2705-873",
      "city": "TERRUGEM SNT",
      "lon": "-9.368236837676768",
      "lat": "38.83539325689163"
    },
    {
      "id": "pt.ine.add.PTCONT.2428055",
      "street": "R LUIS DE CAMÕES",
      "house": "17",
      "postcode": "2705-873",
      "city": "TERRUGEM SNT",
      "lon": "-9.368236837676768",
      "lat": "38.83539325689163"
    },
    {
      "id": "pt.ine.add.PTCONT.2509467",
      "street": "AV GEN HUMBERTO DELGADO",
      "house": "116",
      "postcode": "2705-887",
      "city": "TERRUGEM SNT",
      "lon": "-9.369209508829462",
      "lat": "38.83569823159144"
    },
    {
      "id": "pt.ine.add.PTCONT.2792390",
      "street": "AV GEN HUMBERTO DELGADO",
      "house": "118",
      "postcode": "2705-887",
      "city": "TERRUGEM SNT",
      "lon": "-9.367884090152698",
      "lat": "38.83564019054219"
    },
    {
      "id": "pt.ine.add.PTCONT.2803989",
      "street": "LG FLORES",
      "house": "10",
      "postcode": "2705-886",
      "city": "TERRUGEM SNT",
      "lon": "-9.367453849736227",
      "lat": "38.836068093205064"
    },
    {
      "id": "pt.ine.add.PTCONT.2805636",
      "street": "LG FLORES",
      "house": "11",
      "postcode": "2705-886",
      "city": "TERRUGEM SNT",
      "lon": "-9.367453849736227",
      "lat": "38.836068093205064"
    },
    {
      "id": "pt.ine.add.PTCONT.3068378",
      "street": "R INFANCIA",
      "house": "5",
      "postcode": "2705-888",
      "city": "TERRUGEM SNT",
      "lon": "-9.36894467418514",
      "lat": "38.83570103403808"
    },
    {
      "id": "pt.ine.add.PTCONT.3097099",
      "street": "R BELA VISTA",
      "house": "25",
      "postcode": "2705-875",
      "city": "TERRUGEM SNT",
      "lon": "-9.368170085708137",
      "lat": "38.83552907608332"
    },
    {
      "id": "pt.ine.add.PTCONT.3133957",
      "street": "R LUIS DE CAMÕES",
      "house": "33",
      "postcode": "2705-873",
      "city": "TERRUGEM SNT",
      "lon": "-9.367554836144082",
      "lat": "38.83591389749982"
    },
    {
      "id": "pt.ine.add.PTCONT.3272738",
      "street": "R BELA VISTA",
      "house": "54",
      "postcode": "2705-875",
      "city": "TERRUGEM SNT",
      "lon": "-9.368447524259413",
      "lat": "38.83558919497882"
    },
    {
      "id": "pt.ine.add.PTCONT.3272740",
      "street": "LG ESCOLA",
      "house": "15",
      "postcode": "2705-888",
      "city": "TERRUGEM SNT",
      "lon": "-9.368447524259413",
      "lat": "38.83558919497882"
    },
    {
      "id": "pt.ine.add.PTCONT.3275208",
      "street": "R BELA VISTA",
      "house": "54",
      "postcode": "2705-875",
      "city": "TERRUGEM SNT",
      "lon": "-9.368447524259413",
      "lat": "38.83558919497882"
    },
    {
      "id": "pt.ine.add.PTCONT.3384194",
      "street": "LG ESCOLA",
      "house": "",
      "postcode": "2705-888",
      "city": "TERRUGEM SNT",
      "lon": "-9.368585542947079",
      "lat": "38.83557872759141"
    },
    {
      "id": "pt.ine.add.PTCONT.3456600",
      "street": "LG FLORES",
      "house": "1",
      "postcode": "2705-886",
      "city": "TERRUGEM SNT",
      "lon": "-9.367498196719971",
      "lat": "38.835968541431285"
    }
  ]
}