{
  "data": {
    "distrito": "Viseu",
    "concelho": "Cinf√£es",
    "freguesia": "Tarouquela",
    "OBJECTID": 459,
    "BGRI2021": "18041500102",
    "DT21": "18",
    "DTMN21": "1804",
    "DTMNFR21": "180415",
    "DTMNFRSEC21": "180415001",
    "SECNUM21": "001",
    "SSNUM21": "02",
    "SECSSNUM21": "00102",
    "OBJECTID_1": 189998,
    "DT": "18",
    "CC": "04",
    "fr": "15",
    "SEC": "001",
    "SS": "02"
  },
  "addresses": [
    {
      "id": "pt.ine.add.PTCONT.5459698",
      "street": "R CORTES",
      "house": "495",
      "postcode": "4690-705",
      "city": "TAROUQUELA",
      "lon": "-8.188919541589543",
      "lat": "41.06598996204534"
    },
    {
      "id": "pt.ine.add.PTCONT.5476433",
      "street": "R CORTES",
      "house": "177",
      "postcode": "4690-705",
      "city": "TAROUQUELA",
      "lon": "-8.189730402336576",
      "lat": "41.06812364012663"
    },
    {
      "id": "pt.ine.add.PTCONT.5498985",
      "street": "R CORTES",
      "house": "430",
      "postcode": "4690-705",
      "city": "TAROUQUELA",
      "lon": "-8.189514709087732",
      "lat": "41.06633184446242"
    },
    {
      "id": "pt.ine.add.PTCONT.5510703",
      "street": "R CORTES",
      "house": "394",
      "postcode": "4690-705",
      "city": "TAROUQUELA",
      "lon": "-8.18972901198677",
      "lat": "41.06650282545904"
    },
    {
      "id": "pt.ine.add.PTCONT.5556487",
      "street": "R CORTES",
      "house": "221",
      "postcode": "4690-705",
      "city": "TAROUQUELA",
      "lon": "-8.18978972165352",
      "lat": "41.06792551133543"
    },
    {
      "id": "pt.ine.add.PTCONT.5569376",
      "street": "CORTES",
      "house": "526",
      "postcode": "4690-705",
      "city": "TAROUQUELA",
      "lon": "-8.189157201097427",
      "lat": "41.06564767448074"
    },
    {
      "id": "pt.ine.add.PTCONT.5574865",
      "street": "R AZABHL",
      "house": "44",
      "postcode": "4690-719",
      "city": "TAROUQUELA",
      "lon": "-8.186387575772349",
      "lat": "41.06871953298978"
    },
    {
      "id": "pt.ine.add.PTCONT.5589743",
      "street": "CC BELA VISTA",
      "house": "168",
      "postcode": "4690-714",
      "city": "TAROUQUELA",
      "lon": "-8.188825661274391",
      "lat": "41.06752978220893"
    },
    {
      "id": "pt.ine.add.PTCONT.5591577",
      "street": "R STA MARIA MAIOR",
      "house": "36",
      "postcode": "4690-714",
      "city": "TAROUQUELA",
      "lon": "-8.189754607684318",
      "lat": "41.06860086821911"
    },
    {
      "id": "pt.ine.add.PTCONT.5602588",
      "street": "R CORTES",
      "house": "621",
      "postcode": "4690-694",
      "city": "TAROUQUELA",
      "lon": "-8.187896311543089",
      "lat": "41.06593642586995"
    },
    {
      "id": "pt.ine.add.PTCONT.5606121",
      "street": "CPO RIBEIRO",
      "house": "233",
      "postcode": "4690-705",
      "city": "TAROUQUELA",
      "lon": "-8.189777584146498",
      "lat": "41.06764637690629"
    },
    {
      "id": "pt.ine.add.PTCONT.5614897",
      "street": "R AZABHL",
      "house": "98",
      "postcode": "4690-719",
      "city": "TAROUQUELA",
      "lon": "-8.186399153880494",
      "lat": "41.06832332840844"
    },
    {
      "id": "pt.ine.add.PTCONT.5615502",
      "street": "R CORTES",
      "house": "671",
      "postcode": "4690-705",
      "city": "TAROUQUELA",
      "lon": "-8.187765797006639",
      "lat": "41.0663687053626"
    },
    {
      "id": "pt.ine.add.PTCONT.5615503",
      "street": "CC BELA VISTA",
      "house": "144",
      "postcode": "4690-714",
      "city": "TAROUQUELA",
      "lon": "-8.18832615037219",
      "lat": "41.067764140398424"
    },
    {
      "id": "pt.ine.add.PTCONT.5617536",
      "street": "R CORTES",
      "house": "633",
      "postcode": "4690-694",
      "city": "TAROUQUELA",
      "lon": "-8.187920413086106",
      "lat": "41.06630560020584"
    },
    {
      "id": "pt.ine.add.PTCONT.5619434",
      "street": "R CORTES",
      "house": "735",
      "postcode": "4690-694",
      "city": "TAROUQUELA",
      "lon": "-8.186313959488908",
      "lat": "41.06595517636589"
    },
    {
      "id": "pt.ine.add.PTCONT.5630766",
      "street": "R CORTES",
      "house": "454",
      "postcode": "4690-705",
      "city": "TAROUQUELA",
      "lon": "-8.18918148551275",
      "lat": "41.06622395270842"
    },
    {
      "id": "pt.ine.add.PTCONT.5632713",
      "street": "R CORTES",
      "house": "482",
      "postcode": "4690-705",
      "city": "TAROUQUELA",
      "lon": "-8.189347951400093",
      "lat": "41.066106812678996"
    },
    {
      "id": "pt.ine.add.PTCONT.5648792",
      "street": "R COVA",
      "house": "224",
      "postcode": "4690-719",
      "city": "TAROUQUELA",
      "lon": "-8.185874464715418",
      "lat": "41.066846827034034"
    },
    {
      "id": "pt.ine.add.PTCONT.5667108",
      "street": "R COVA",
      "house": "224",
      "postcode": "4690-719",
      "city": "TAROUQUELA",
      "lon": "-8.185720032014206",
      "lat": "41.06714404714326"
    },
    {
      "id": "pt.ine.add.PTCONT.5668712",
      "street": "R CORTES",
      "house": "154",
      "postcode": "4690-705",
      "city": "TAROUQUELA",
      "lon": "-8.189932968742701",
      "lat": "41.06847471701657"
    }
  ]
}