{
  "data": {
    "distrito": "Porto",
    "concelho": "Santo Tirso",
    "freguesia": "União das freguesias de Areias, Sequeiró, Lama e Palmeira",
    "OBJECTID": 514,
    "BGRI2021": "13143300326",
    "DT21": "13",
    "DTMN21": "1314",
    "DTMNFR21": "131433",
    "DTMNFRSEC21": "131433003",
    "SECNUM21": "003",
    "SSNUM21": "26",
    "SECSSNUM21": "00326",
    "OBJECTID_1": 140811,
    "DT": "13",
    "CC": "14",
    "fr": "33",
    "SEC": "003",
    "SS": "26"
  },
  "addresses": [
    {
      "id": "pt.ine.add.PTCONT.3622580",
      "street": "R BEATO NUNO ÁLVARES PEREIRA",
      "house": "393",
      "postcode": "4780-273",
      "city": "LAMA STS",
      "lon": "-8.46751082099749",
      "lat": "41.35858968289566"
    },
    {
      "id": "pt.ine.add.PTCONT.3622581",
      "street": "R BEATO NUNO ÁLVARES PEREIRA",
      "house": "393",
      "postcode": "4780-273",
      "city": "LAMA STS",
      "lon": "-8.46751082099749",
      "lat": "41.35858968289566"
    },
    {
      "id": "pt.ine.add.PTCONT.3671634",
      "street": "R CIMO DA VILA",
      "house": "270",
      "postcode": "4780-292",
      "city": "LAMA STS",
      "lon": "-8.46593517685225",
      "lat": "41.35660435421998"
    },
    {
      "id": "pt.ine.add.PTCONT.3681522",
      "street": "R DR LUIS DE FONTELA",
      "house": "448",
      "postcode": "4780-301",
      "city": "LAMA STS",
      "lon": "-8.466559661779621",
      "lat": "41.35486476330122"
    },
    {
      "id": "pt.ine.add.PTCONT.3681523",
      "street": "R DR LUIS DE FONTELA",
      "house": "448",
      "postcode": "4780-301",
      "city": "LAMA STS",
      "lon": "-8.466559661779621",
      "lat": "41.35486476330122"
    },
    {
      "id": "pt.ine.add.PTCONT.3717069",
      "street": "R DR LUIS DE FONTELA",
      "house": "338",
      "postcode": "4780-301",
      "city": "LAMA STS",
      "lon": "-8.465954077214981",
      "lat": "41.3556228572747"
    },
    {
      "id": "pt.ine.add.PTCONT.3768614",
      "street": "R JOSE DIAS DA COSTA",
      "house": "517",
      "postcode": "4780-279",
      "city": "LAMA STS",
      "lon": "-8.466577677417432",
      "lat": "41.35605324683753"
    },
    {
      "id": "pt.ine.add.PTCONT.3807174",
      "street": "R DR LUIS DE FONTELA",
      "house": "336",
      "postcode": "4780-301",
      "city": "LAMA STS",
      "lon": "-8.465787191326443",
      "lat": "41.355704376334614"
    },
    {
      "id": "pt.ine.add.PTCONT.3865562",
      "street": "R BEATO NUNO ÁLVARES PEREIRA",
      "house": "417",
      "postcode": "4780-273",
      "city": "LAMA STS",
      "lon": "-8.467521619202405",
      "lat": "41.35836455017459"
    },
    {
      "id": "pt.ine.add.PTCONT.3924962",
      "street": "R DR LUIS DE FONTELA",
      "house": "256",
      "postcode": "4780-301",
      "city": "LAMA STS",
      "lon": "-8.46585042581233",
      "lat": "41.35638850191725"
    },
    {
      "id": "pt.ine.add.PTCONT.3924963",
      "street": "R AMÉRICO ALMEIDA",
      "house": "",
      "postcode": "4780-286",
      "city": "LAMA STS",
      "lon": "-8.466787948605734",
      "lat": "41.355107211242405"
    },
    {
      "id": "pt.ine.add.PTCONT.4000874",
      "street": "R JOSE DIAS DA COSTA",
      "house": "523",
      "postcode": "4780-279",
      "city": "LAMA STS",
      "lon": "-8.466624466148332",
      "lat": "41.35585502198301"
    },
    {
      "id": "pt.ine.add.PTCONT.4003017",
      "street": "R JOSE DIAS DA COSTA",
      "house": "523",
      "postcode": "4780-279",
      "city": "LAMA STS",
      "lon": "-8.466624466148332",
      "lat": "41.35585502198301"
    },
    {
      "id": "pt.ine.add.PTCONT.4013719",
      "street": "R AMÉRICO ALMEIDA",
      "house": "5",
      "postcode": "4780-286",
      "city": "LAMA STS",
      "lon": "-8.466932312222932",
      "lat": "41.35529587782686"
    },
    {
      "id": "pt.ine.add.PTCONT.4033523",
      "street": "R DR LUIS DE FONTELA",
      "house": "410",
      "postcode": "4780-301",
      "city": "LAMA STS",
      "lon": "-8.46625071270317",
      "lat": "41.355207812283496"
    },
    {
      "id": "pt.ine.add.PTCONT.4040020",
      "street": "R DR LUIS DE FONTELA",
      "house": "238",
      "postcode": "4780-301",
      "city": "LAMA STS",
      "lon": "-8.46589868456358",
      "lat": "41.356478402951176"
    },
    {
      "id": "pt.ine.add.PTCONT.4070034",
      "street": "R JOSE DIAS DA COSTA",
      "house": "311",
      "postcode": "4780-279",
      "city": "LAMA STS",
      "lon": "-8.466802066216632",
      "lat": "41.35787141579813"
    },
    {
      "id": "pt.ine.add.PTCONT.4079297",
      "street": "R DR LUIS DE FONTELA",
      "house": "340",
      "postcode": "4780-301",
      "city": "LAMA STS",
      "lon": "-8.46585815708775",
      "lat": "41.35556010623871"
    },
    {
      "id": "pt.ine.add.PTCONT.4092913",
      "street": "R JOSE DIAS DA COSTA",
      "house": "441",
      "postcode": "4780-279",
      "city": "LAMA STS",
      "lon": "-8.466605254092586",
      "lat": "41.356773491498004"
    },
    {
      "id": "pt.ine.add.PTCONT.4092914",
      "street": "R JOSE DIAS DA COSTA",
      "house": "435",
      "postcode": "4780-279",
      "city": "LAMA STS",
      "lon": "-8.466593993368203",
      "lat": "41.35690858497543"
    },
    {
      "id": "pt.ine.add.PTCONT.4099508",
      "street": "R DR LUIS DE FONTELA",
      "house": "390",
      "postcode": "4780-301",
      "city": "LAMA STS",
      "lon": "-8.46610740668413",
      "lat": "41.355226235140485"
    },
    {
      "id": "pt.ine.add.PTCONT.4190578",
      "street": "R DR LUIS DE FONTELA",
      "house": "374",
      "postcode": "4780-301",
      "city": "LAMA STS",
      "lon": "-8.466048391678253",
      "lat": "41.355370470825406"
    },
    {
      "id": "pt.ine.add.PTCONT.4243233",
      "street": "R DR LUIS DE FONTELA",
      "house": "318",
      "postcode": "4780-301",
      "city": "LAMA STS",
      "lon": "-8.46586017473228",
      "lat": "41.35595627896684"
    },
    {
      "id": "pt.ine.add.PTCONT.4264965",
      "street": "R JOSE DIAS DA COSTA",
      "house": "675",
      "postcode": "4780-279",
      "city": "LAMA STS",
      "lon": "-8.466702415232392",
      "lat": "41.354738292766804"
    },
    {
      "id": "pt.ine.add.PTCONT.4269418",
      "street": "R DR LUIS DE FONTELA",
      "house": "266",
      "postcode": "4780-301",
      "city": "LAMA STS",
      "lon": "-8.465837925536455",
      "lat": "41.35628048936996"
    },
    {
      "id": "pt.ine.add.PTCONT.4273948",
      "street": "R JOSE DIAS DA COSTA",
      "house": "473",
      "postcode": "4780-279",
      "city": "LAMA STS",
      "lon": "-8.466376502798491",
      "lat": "41.35644100404381"
    },
    {
      "id": "pt.ine.add.PTCONT.4273949",
      "street": "R JOSE DIAS DA COSTA",
      "house": "473",
      "postcode": "4780-279",
      "city": "LAMA STS",
      "lon": "-8.466376502798491",
      "lat": "41.35644100404381"
    },
    {
      "id": "pt.ine.add.PTCONT.4278661",
      "street": "R JOSE DIAS DA COSTA",
      "house": "473",
      "postcode": "4780-279",
      "city": "LAMA STS",
      "lon": "-8.466376502798491",
      "lat": "41.35644100404381"
    },
    {
      "id": "pt.ine.add.PTCONT.4281918",
      "street": "R JOSE DIAS DA COSTA",
      "house": "399",
      "postcode": "4780-279",
      "city": "LAMA STS",
      "lon": "-8.46658346791928",
      "lat": "41.35718774121427"
    },
    {
      "id": "pt.ine.add.PTCONT.4328815",
      "street": "R DR LUIS DE FONTELA",
      "house": "290",
      "postcode": "4780-301",
      "city": "LAMA STS",
      "lon": "-8.465873087701414",
      "lat": "41.35614532684363"
    }
  ]
}