{
  "data": {
    "distrito": "Porto",
    "concelho": "Santo Tirso",
    "freguesia": "União das freguesias de Areias, Sequeiró, Lama e Palmeira",
    "OBJECTID": 348,
    "BGRI2021": "13143300339",
    "DT21": "13",
    "DTMN21": "1314",
    "DTMNFR21": "131433",
    "DTMNFRSEC21": "131433003",
    "SECNUM21": "003",
    "SSNUM21": "39",
    "SECSSNUM21": "00339",
    "OBJECTID_1": 140260,
    "DT": "13",
    "CC": "14",
    "fr": "33",
    "SEC": "003",
    "SS": "39"
  },
  "addresses": [
    {
      "id": "pt.ine.add.PTCONT.3540038",
      "street": "R PALMEIRO",
      "house": "598",
      "postcode": "4780-664",
      "city": "PALMEIRA STS",
      "lon": "-8.49294120174756",
      "lat": "41.36500489709064"
    },
    {
      "id": "pt.ine.add.PTCONT.3549297",
      "street": "R PALMEIRO",
      "house": "592",
      "postcode": "4780-664",
      "city": "PALMEIRA STS",
      "lon": "-8.491897525156304",
      "lat": "41.36647581410635"
    },
    {
      "id": "pt.ine.add.PTCONT.3587604",
      "street": "R PALMEIRO",
      "house": "174",
      "postcode": "4780-664",
      "city": "PALMEIRA STS",
      "lon": "-8.491669500904697",
      "lat": "41.3663054480629"
    },
    {
      "id": "pt.ine.add.PTCONT.3610693",
      "street": "R S VALENTIM",
      "house": "509",
      "postcode": "4780-666",
      "city": "PALMEIRA STS",
      "lon": "-8.49491675249826",
      "lat": "41.36563798988695"
    },
    {
      "id": "pt.ine.add.PTCONT.3652097",
      "street": "R S VALENTIM",
      "house": "385",
      "postcode": "4780-666",
      "city": "PALMEIRA STS",
      "lon": "-8.494716764191542",
      "lat": "41.366214876944476"
    },
    {
      "id": "pt.ine.add.PTCONT.3682254",
      "street": "R S VALENTIM",
      "house": "473",
      "postcode": "4780-666",
      "city": "PALMEIRA STS",
      "lon": "-8.494822036548937",
      "lat": "41.36580036033204"
    },
    {
      "id": "pt.ine.add.PTCONT.3690577",
      "street": "R ALDEIA",
      "house": "20",
      "postcode": "4780-667",
      "city": "PALMEIRA STS",
      "lon": "-8.49151560960349",
      "lat": "41.36657604859408"
    },
    {
      "id": "pt.ine.add.PTCONT.3717023",
      "street": "R ALBINO SOUSA CRUZ",
      "house": "1732",
      "postcode": "4780-324",
      "city": "PALMEIRA STS",
      "lon": "-8.495248973996523",
      "lat": "41.36304378106312"
    },
    {
      "id": "pt.ine.add.PTCONT.3747020",
      "street": "R S VALENTIM",
      "house": "535",
      "postcode": "4780-666",
      "city": "PALMEIRA STS",
      "lon": "-8.495083227827438",
      "lat": "41.36548439771131"
    },
    {
      "id": "pt.ine.add.PTCONT.3801402",
      "street": "R S VALENTIM",
      "house": "206",
      "postcode": "4780-666",
      "city": "PALMEIRA STS",
      "lon": "-8.493326234294262",
      "lat": "41.365471902625224"
    },
    {
      "id": "pt.ine.add.PTCONT.3941563",
      "street": "R S VALENTIM",
      "house": "565",
      "postcode": "4780-666",
      "city": "PALMEIRA STS",
      "lon": "-8.495011817209125",
      "lat": "41.36553864653876"
    },
    {
      "id": "pt.ine.add.PTCONT.4017385",
      "street": "R ALBINO SOUSA CRUZ",
      "house": "1654",
      "postcode": "4780-324",
      "city": "PALMEIRA STS",
      "lon": "-8.494865687458507",
      "lat": "41.36289191780701"
    },
    {
      "id": "pt.ine.add.PTCONT.4131646",
      "street": "R S VALENTIM",
      "house": "573",
      "postcode": "4780-666",
      "city": "PALMEIRA STS",
      "lon": "-8.495165941132509",
      "lat": "41.36531306076578"
    },
    {
      "id": "pt.ine.add.PTCONT.4131647",
      "street": "R S VALENTIM",
      "house": "573",
      "postcode": "4780-666",
      "city": "PALMEIRA STS",
      "lon": "-8.495165941132509",
      "lat": "41.36531306076578"
    },
    {
      "id": "pt.ine.add.PTCONT.4151501",
      "street": "R PALMEIRO",
      "house": "22",
      "postcode": "4780-664",
      "city": "PALMEIRA STS",
      "lon": "-8.490358544206481",
      "lat": "41.36699383207672"
    },
    {
      "id": "pt.ine.add.PTCONT.4225995",
      "street": "R PALMEIRO",
      "house": "842",
      "postcode": "4780-664",
      "city": "PALMEIRA STS",
      "lon": "-8.492958308946127",
      "lat": "41.363771289926646"
    },
    {
      "id": "pt.ine.add.PTCONT.4225996",
      "street": "R PALMEIRO",
      "house": "842",
      "postcode": "4780-664",
      "city": "PALMEIRA STS",
      "lon": "-8.492958308946127",
      "lat": "41.363771289926646"
    },
    {
      "id": "pt.ine.add.PTCONT.4309758",
      "street": "R PALMEIRO",
      "house": "738",
      "postcode": "4780-664",
      "city": "PALMEIRA STS",
      "lon": "-8.49274576255334",
      "lat": "41.36424016452476"
    },
    {
      "id": "pt.ine.add.PTCONT.4372857",
      "street": "R ALBINO SOUSA CRUZ",
      "house": "1732",
      "postcode": "4780-324",
      "city": "PALMEIRA STS",
      "lon": "-8.495295530729857",
      "lat": "41.36281853346508"
    }
  ]
}