{
  "data": {
    "distrito": "Coimbra",
    "concelho": "Coimbra",
    "freguesia": "União das freguesias de Souselas e Botão",
    "OBJECTID": 275,
    "BGRI2021": "06033900119",
    "DT21": "06",
    "DTMN21": "0603",
    "DTMNFR21": "060339",
    "DTMNFRSEC21": "060339001",
    "SECNUM21": "001",
    "SSNUM21": "19",
    "SECSSNUM21": "00119",
    "OBJECTID_1": 49515,
    "DT": "06",
    "CC": "03",
    "fr": "39",
    "SEC": "001",
    "SS": "19"
  },
  "addresses": [
    {
      "id": "pt.ine.add.PTCONT.1106647",
      "street": "R ALAGOA",
      "house": "1",
      "postcode": "3020-808",
      "city": "SOUSELAS",
      "lon": "-8.441134484261285",
      "lat": "40.29764465700475"
    },
    {
      "id": "pt.ine.add.PTCONT.1131586",
      "street": "R ZAMBUJEIRO",
      "house": "13",
      "postcode": "3020-831",
      "city": "SOUSELAS",
      "lon": "-8.43890113860988",
      "lat": "40.29794776988033"
    },
    {
      "id": "pt.ine.add.PTCONT.1137617",
      "street": "R ZAMBUJEIRO",
      "house": "17",
      "postcode": "3020-831",
      "city": "SOUSELAS",
      "lon": "-8.439076830734178",
      "lat": "40.297785202552845"
    },
    {
      "id": "pt.ine.add.PTCONT.1140791",
      "street": "R DA FONTE",
      "house": "8",
      "postcode": "3020-750",
      "city": "SOUSELAS",
      "lon": "-8.438861407413228",
      "lat": "40.29688312934376"
    },
    {
      "id": "pt.ine.add.PTCONT.1141653",
      "street": "R 1 DE MAIO",
      "house": "",
      "postcode": "3020-825",
      "city": "SOUSELAS",
      "lon": "-8.438370328505826",
      "lat": "40.297606954503756"
    },
    {
      "id": "pt.ine.add.PTCONT.1147674",
      "street": "R FONTE",
      "house": "10",
      "postcode": "3020-817",
      "city": "SOUSELAS",
      "lon": "-8.43907305293258",
      "lat": "40.29694768115729"
    },
    {
      "id": "pt.ine.add.PTCONT.1174100",
      "street": "R ZAMBUJEIRO",
      "house": "19",
      "postcode": "3020-831",
      "city": "SOUSELAS",
      "lon": "-8.439112968487635",
      "lat": "40.29797422695283"
    },
    {
      "id": "pt.ine.add.PTCONT.1207640",
      "street": "R CENTO CULTURAL",
      "house": "",
      "postcode": "3020-813",
      "city": "SOUSELAS",
      "lon": "-8.441062893114326",
      "lat": "40.297419704749316"
    },
    {
      "id": "pt.ine.add.PTCONT.1223873",
      "street": "BC CAPELA",
      "house": "4",
      "postcode": "3020-811",
      "city": "SOUSELAS",
      "lon": "-8.43845055096777",
      "lat": "40.29713844569111"
    },
    {
      "id": "pt.ine.add.PTCONT.1228144",
      "street": "R 1 DE MAIO",
      "house": "13",
      "postcode": "3020-825",
      "city": "SOUSELAS",
      "lon": "-8.438228299334625",
      "lat": "40.297409203449334"
    },
    {
      "id": "pt.ine.add.PTCONT.1242131",
      "street": "LG NSA SRA DA NAZARE",
      "house": "26",
      "postcode": "3020-822",
      "city": "SOUSELAS",
      "lon": "-8.438179916896267",
      "lat": "40.297112142467725"
    },
    {
      "id": "pt.ine.add.PTCONT.1258207",
      "street": "R 1 DE MAIO",
      "house": "15",
      "postcode": "3020-825",
      "city": "SOUSELAS",
      "lon": "-8.438228542390037",
      "lat": "40.297463237091385"
    },
    {
      "id": "pt.ine.add.PTCONT.1277227",
      "street": "R CENTO CULTURAL",
      "house": "13",
      "postcode": "3020-813",
      "city": "SOUSELAS",
      "lon": "-8.439981490448396",
      "lat": "40.29756666948616"
    },
    {
      "id": "pt.ine.add.PTCONT.1277228",
      "street": "BC SERRAIPO",
      "house": "",
      "postcode": "3020-826",
      "city": "SOUSELAS",
      "lon": "-8.438204006797134",
      "lat": "40.29723815894487"
    },
    {
      "id": "pt.ine.add.PTCONT.1277229",
      "street": "R 1 DE MAIO",
      "house": "5",
      "postcode": "3020-825",
      "city": "SOUSELAS",
      "lon": "-8.438204006797134",
      "lat": "40.29723815894487"
    },
    {
      "id": "pt.ine.add.PTCONT.1289714",
      "street": "BC SERRAIPO",
      "house": "7",
      "postcode": "3020-826",
      "city": "SOUSELAS",
      "lon": "-8.43834514399415",
      "lat": "40.29723778668115"
    },
    {
      "id": "pt.ine.add.PTCONT.1291883",
      "street": "LG NSA SRA DA NAZARE",
      "house": "",
      "postcode": "3020-822",
      "city": "SOUSELAS",
      "lon": "-8.438273197893826",
      "lat": "40.296931782178945"
    },
    {
      "id": "pt.ine.add.PTCONT.1301662",
      "street": "R CENTO CULTURAL",
      "house": "2",
      "postcode": "3020-813",
      "city": "SOUSELAS",
      "lon": "-8.44108359476442",
      "lat": "40.29679825538331"
    },
    {
      "id": "pt.ine.add.PTCONT.1303714",
      "street": "BC SERRAIPO",
      "house": "3",
      "postcode": "3020-826",
      "city": "SOUSELAS",
      "lon": "-8.438344617177865",
      "lat": "40.29712071378612"
    },
    {
      "id": "pt.ine.add.PTCONT.1323791",
      "street": "BC SERRAIPO",
      "house": "5",
      "postcode": "3020-826",
      "city": "SOUSELAS",
      "lon": "-8.438344819799147",
      "lat": "40.297165741822965"
    },
    {
      "id": "pt.ine.add.PTCONT.1330296",
      "street": "R ALAGOA",
      "house": "13",
      "postcode": "3020-808",
      "city": "SOUSELAS",
      "lon": "-8.441547897633166",
      "lat": "40.298030801272816"
    },
    {
      "id": "pt.ine.add.PTCONT.1330297",
      "street": "R 1 DE MAIO",
      "house": "",
      "postcode": "3020-825",
      "city": "SOUSELAS",
      "lon": "-8.438216173303955",
      "lat": "40.29732818400202"
    },
    {
      "id": "pt.ine.add.PTCONT.1332016",
      "street": "R FONTE",
      "house": "6",
      "postcode": "3020-817",
      "city": "SOUSELAS",
      "lon": "-8.4386489130159",
      "lat": "40.2967866991534"
    },
    {
      "id": "pt.ine.add.PTCONT.1349832",
      "street": "R CENTO CULTURAL",
      "house": "7",
      "postcode": "3020-813",
      "city": "SOUSELAS",
      "lon": "-8.439430164570556",
      "lat": "40.29789233616293"
    },
    {
      "id": "pt.ine.add.PTCONT.1352513",
      "street": "R CENTO CULTURAL",
      "house": "28",
      "postcode": "3020-813",
      "city": "SOUSELAS",
      "lon": "-8.441061257708013",
      "lat": "40.297059480552335"
    }
  ]
}