{
  "data": {
    "distrito": "Porto",
    "concelho": "Vila do Conde",
    "freguesia": "Uni√£o das freguesias de Malta e Canidelo",
    "OBJECTID": 627,
    "BGRI2021": "13163300117",
    "DT21": "13",
    "DTMN21": "1316",
    "DTMNFR21": "131633",
    "DTMNFRSEC21": "131633001",
    "SECNUM21": "001",
    "SSNUM21": "17",
    "SECSSNUM21": "00117",
    "OBJECTID_1": 143152,
    "DT": "13",
    "CC": "16",
    "fr": "33",
    "SEC": "001",
    "SS": "17"
  },
  "addresses": [
    {
      "id": "pt.ine.add.PTCONT.3556213",
      "street": "R ABADE SOUSA MAIA",
      "house": "2",
      "postcode": "4485-060",
      "city": "CANIDELO VCD",
      "lon": "-8.649242704358246",
      "lat": "41.311574220062894"
    },
    {
      "id": "pt.ine.add.PTCONT.3594603",
      "street": "R CRUZEIRO",
      "house": "101",
      "postcode": "4485-060",
      "city": "CANIDELO VCD",
      "lon": "-8.646738016812414",
      "lat": "41.31349429257115"
    },
    {
      "id": "pt.ine.add.PTCONT.3633029",
      "street": "R CRUZEIRO",
      "house": "143",
      "postcode": "4485-060",
      "city": "CANIDELO VCD",
      "lon": "-8.64718255574906",
      "lat": "41.31383446375075"
    },
    {
      "id": "pt.ine.add.PTCONT.3664289",
      "street": "TV PADRAO",
      "house": "31",
      "postcode": "4485-060",
      "city": "CANIDELO VCD",
      "lon": "-8.648766794045878",
      "lat": "41.31331414399172"
    },
    {
      "id": "pt.ine.add.PTCONT.3679159",
      "street": "R CRUZEIRO",
      "house": "63",
      "postcode": "4485-060",
      "city": "CANIDELO VCD",
      "lon": "-8.646486953985633",
      "lat": "41.31345939620822"
    },
    {
      "id": "pt.ine.add.PTCONT.3682273",
      "street": "R S PEDRO",
      "house": "673",
      "postcode": "4485-060",
      "city": "CANIDELO VCD",
      "lon": "-8.648935825806747",
      "lat": "41.313547493143794"
    },
    {
      "id": "pt.ine.add.PTCONT.3697952",
      "street": "R COSTA MONTEIRO",
      "house": "230",
      "postcode": "4485-060",
      "city": "CANIDELO VCD",
      "lon": "-8.64907388965453",
      "lat": "41.31136788260311"
    },
    {
      "id": "pt.ine.add.PTCONT.3777903",
      "street": "R ABADE SOUSA MAIA",
      "house": "",
      "postcode": "4485-060",
      "city": "CANIDELO VCD",
      "lon": "-8.648543329362225",
      "lat": "41.312234653133714"
    },
    {
      "id": "pt.ine.add.PTCONT.3744285",
      "street": "TV PADRAO",
      "house": "58",
      "postcode": "4485-060",
      "city": "CANIDELO VCD",
      "lon": "-8.648672252195325",
      "lat": "41.313440624840965"
    },
    {
      "id": "pt.ine.add.PTCONT.3768913",
      "street": "R S LUZIA",
      "house": "89",
      "postcode": "4485-060",
      "city": "CANIDELO VCD",
      "lon": "-8.649993109099974",
      "lat": "41.31284043070907"
    },
    {
      "id": "pt.ine.add.PTCONT.3777899",
      "street": "R ABADE SOUSA MAIA",
      "house": "",
      "postcode": "4485-060",
      "city": "CANIDELO VCD",
      "lon": "-8.648543329362225",
      "lat": "41.312234653133714"
    },
    {
      "id": "pt.ine.add.PTCONT.3777900",
      "street": "R ABADE SOUSA MAIA",
      "house": "",
      "postcode": "4485-060",
      "city": "CANIDELO VCD",
      "lon": "-8.648543329362225",
      "lat": "41.312234653133714"
    },
    {
      "id": "pt.ine.add.PTCONT.3777901",
      "street": "R ABADE SOUSA MAIA",
      "house": "",
      "postcode": "4485-060",
      "city": "CANIDELO VCD",
      "lon": "-8.648543329362225",
      "lat": "41.312234653133714"
    },
    {
      "id": "pt.ine.add.PTCONT.3777902",
      "street": "R ABADE SOUSA MAIA",
      "house": "",
      "postcode": "4485-060",
      "city": "CANIDELO VCD",
      "lon": "-8.648543329362225",
      "lat": "41.312234653133714"
    },
    {
      "id": "pt.ine.add.PTCONT.3777898",
      "street": "R ABADE SOUSA MAIA",
      "house": "",
      "postcode": "4485-060",
      "city": "CANIDELO VCD",
      "lon": "-8.648543329362225",
      "lat": "41.312234653133714"
    },
    {
      "id": "pt.ine.add.PTCONT.3797314",
      "street": "R CRUZEIRO",
      "house": "41",
      "postcode": "4485-060",
      "city": "CANIDELO VCD",
      "lon": "-8.646294259259097",
      "lat": "41.313253161237114"
    },
    {
      "id": "pt.ine.add.PTCONT.3833990",
      "street": "TV PADRAO",
      "house": "27",
      "postcode": "4485-060",
      "city": "CANIDELO VCD",
      "lon": "-8.648885716044909",
      "lat": "41.313250582499535"
    },
    {
      "id": "pt.ine.add.PTCONT.3879774",
      "street": "R S PEDRO",
      "house": "615",
      "postcode": "4485-060",
      "city": "CANIDELO VCD",
      "lon": "-8.64854337362955",
      "lat": "41.313756345395774"
    },
    {
      "id": "pt.ine.add.PTCONT.3965772",
      "street": "R ABADE SOUSA MAIA",
      "house": "",
      "postcode": "4485-060",
      "city": "CANIDELO VCD",
      "lon": "-8.64966506563414",
      "lat": "41.3121305795779"
    },
    {
      "id": "pt.ine.add.PTCONT.3989319",
      "street": "R S PEDRO",
      "house": "583",
      "postcode": "4485-060",
      "city": "CANIDELO VCD",
      "lon": "-8.648187524588637",
      "lat": "41.314064077573086"
    },
    {
      "id": "pt.ine.add.PTCONT.4018921",
      "street": "TV PADRAO",
      "house": "46",
      "postcode": "4485-060",
      "city": "CANIDELO VCD",
      "lon": "-8.648623704288925",
      "lat": "41.313341797213766"
    },
    {
      "id": "pt.ine.add.PTCONT.4022299",
      "street": "R CRUZEIRO",
      "house": "27",
      "postcode": "4485-060",
      "city": "CANIDELO VCD",
      "lon": "-8.646221548946698",
      "lat": "41.31311842392038"
    },
    {
      "id": "pt.ine.add.PTCONT.4079535",
      "street": "TV PADRAO",
      "house": "3",
      "postcode": "4485-060",
      "city": "CANIDELO VCD",
      "lon": "-8.649052760208829",
      "lat": "41.31323182567955"
    },
    {
      "id": "pt.ine.add.PTCONT.4178089",
      "street": "R ABADE SOUSA MAIA",
      "house": "42",
      "postcode": "4485-060",
      "city": "CANIDELO VCD",
      "lon": "-8.649268789103838",
      "lat": "41.31185323017434"
    },
    {
      "id": "pt.ine.add.PTCONT.4190846",
      "street": "TV PADRAO",
      "house": "20",
      "postcode": "4485-060",
      "city": "CANIDELO VCD",
      "lon": "-8.648837096996557",
      "lat": "41.31314275118104"
    },
    {
      "id": "pt.ine.add.PTCONT.4208321",
      "street": "R ABADE SOUSA MAIA",
      "house": "204",
      "postcode": "4485-060",
      "city": "CANIDELO VCD",
      "lon": "-8.649242551671977",
      "lat": "41.31306890106836"
    },
    {
      "id": "pt.ine.add.PTCONT.4280418",
      "street": "R CRUZEIRO",
      "house": "53",
      "postcode": "4485-060",
      "city": "CANIDELO VCD",
      "lon": "-8.646378417384774",
      "lat": "41.31332481877739"
    },
    {
      "id": "pt.ine.add.PTCONT.4310138",
      "street": "R S PEDRO",
      "house": "551",
      "postcode": "4485-060",
      "city": "CANIDELO VCD",
      "lon": "-8.647880078025697",
      "lat": "41.31445262904249"
    },
    {
      "id": "pt.ine.add.PTCONT.4355660",
      "street": "TV PADRAO",
      "house": "34",
      "postcode": "4485-060",
      "city": "CANIDELO VCD",
      "lon": "-8.648598614674606",
      "lat": "41.3131888399291"
    },
    {
      "id": "pt.ine.add.PTCONT.4355661",
      "street": "TV PADRAO",
      "house": "34",
      "postcode": "4485-060",
      "city": "CANIDELO VCD",
      "lon": "-8.648598614674606",
      "lat": "41.3131888399291"
    },
    {
      "id": "pt.ine.add.PTCONT.4362104",
      "street": "R CRUZEIRO",
      "house": "99",
      "postcode": "4485-060",
      "city": "CANIDELO VCD",
      "lon": "-8.64658333713333",
      "lat": "41.31356701545825"
    },
    {
      "id": "pt.ine.add.PTCONT.4362105",
      "street": "R FARILHE",
      "house": "141",
      "postcode": "4485-060",
      "city": "CANIDELO VCD",
      "lon": "-8.646124108199157",
      "lat": "41.31287574760209"
    },
    {
      "id": "pt.ine.add.PTCONT.4370300",
      "street": "TV PADRAO",
      "house": "37",
      "postcode": "4485-060",
      "city": "CANIDELO VCD",
      "lon": "-8.648814632527714",
      "lat": "41.3133229337695"
    }
  ]
}