{
  "data": {
    "distrito": "Leiria",
    "concelho": "Caldas da Rainha",
    "freguesia": "Uni찾o das freguesias de Caldas da Rainha - Nossa Senhora do P처pulo, Coto e S찾o Greg처rio",
    "OBJECTID": 356,
    "BGRI2021": "10061701213",
    "DT21": "10",
    "DTMN21": "1006",
    "DTMNFR21": "100617",
    "DTMNFRSEC21": "100617012",
    "SECNUM21": "012",
    "SSNUM21": "13",
    "SECSSNUM21": "01213",
    "OBJECTID_1": 87645,
    "DT": "10",
    "CC": "06",
    "fr": "17",
    "SEC": "012",
    "SS": "13"
  },
  "addresses": [
    {
      "id": "pt.ine.add.PTCONT.2076275",
      "street": "R SOL NASCENTE",
      "house": "13",
      "postcode": "2500-298",
      "city": "CALDAS DA RAINHA",
      "lon": "-9.119052080722655",
      "lat": "39.40792373986906"
    },
    {
      "id": "pt.ine.add.PTCONT.2101990",
      "street": "R SOL NASCENTE",
      "house": "11",
      "postcode": "2500-298",
      "city": "CALDAS DA RAINHA",
      "lon": "-9.119019409621098",
      "lat": "39.408077133356095"
    },
    {
      "id": "pt.ine.add.PTCONT.2101991",
      "street": "R SOL NASCENTE",
      "house": "11",
      "postcode": "2500-298",
      "city": "CALDAS DA RAINHA",
      "lon": "-9.119019409621098",
      "lat": "39.408077133356095"
    },
    {
      "id": "pt.ine.add.PTCONT.2101992",
      "street": "R SOL NASCENTE",
      "house": "11",
      "postcode": "2500-298",
      "city": "CALDAS DA RAINHA",
      "lon": "-9.119019409621098",
      "lat": "39.408077133356095"
    },
    {
      "id": "pt.ine.add.PTCONT.2101993",
      "street": "R SOL NASCENTE",
      "house": "11",
      "postcode": "2500-298",
      "city": "CALDAS DA RAINHA",
      "lon": "-9.119019409621098",
      "lat": "39.408077133356095"
    },
    {
      "id": "pt.ine.add.PTCONT.2101994",
      "street": "R SOL NASCENTE",
      "house": "11",
      "postcode": "2500-298",
      "city": "CALDAS DA RAINHA",
      "lon": "-9.119019409621098",
      "lat": "39.408077133356095"
    },
    {
      "id": "pt.ine.add.PTCONT.2101995",
      "street": "R SOL NASCENTE",
      "house": "11",
      "postcode": "2500-298",
      "city": "CALDAS DA RAINHA",
      "lon": "-9.119019409621098",
      "lat": "39.408077133356095"
    },
    {
      "id": "pt.ine.add.PTCONT.2104518",
      "street": "R SOL NASCENTE",
      "house": "7",
      "postcode": "2500-298",
      "city": "CALDAS DA RAINHA",
      "lon": "-9.119074978286726",
      "lat": "39.40872515614579"
    },
    {
      "id": "pt.ine.add.PTCONT.2104519",
      "street": "R SOL NASCENTE",
      "house": "7",
      "postcode": "2500-298",
      "city": "CALDAS DA RAINHA",
      "lon": "-9.119074978286726",
      "lat": "39.40872515614579"
    },
    {
      "id": "pt.ine.add.PTCONT.2106318",
      "street": "R SOL NASCENTE",
      "house": "7",
      "postcode": "2500-298",
      "city": "CALDAS DA RAINHA",
      "lon": "-9.119074978286726",
      "lat": "39.40872515614579"
    },
    {
      "id": "pt.ine.add.PTCONT.2106319",
      "street": "R SOL NASCENTE",
      "house": "7",
      "postcode": "2500-298",
      "city": "CALDAS DA RAINHA",
      "lon": "-9.119074978286726",
      "lat": "39.40872515614579"
    },
    {
      "id": "pt.ine.add.PTCONT.2106320",
      "street": "R SOL NASCENTE",
      "house": "7",
      "postcode": "2500-298",
      "city": "CALDAS DA RAINHA",
      "lon": "-9.119074978286726",
      "lat": "39.40872515614579"
    },
    {
      "id": "pt.ine.add.PTCONT.2106321",
      "street": "R SOL NASCENTE",
      "house": "7",
      "postcode": "2500-298",
      "city": "CALDAS DA RAINHA",
      "lon": "-9.119074978286726",
      "lat": "39.40872515614579"
    },
    {
      "id": "pt.ine.add.PTCONT.2106322",
      "street": "R SOL NASCENTE",
      "house": "7",
      "postcode": "2500-298",
      "city": "CALDAS DA RAINHA",
      "lon": "-9.119074978286726",
      "lat": "39.40872515614579"
    },
    {
      "id": "pt.ine.add.PTCONT.2106323",
      "street": "R SOL NASCENTE",
      "house": "7",
      "postcode": "2500-298",
      "city": "CALDAS DA RAINHA",
      "lon": "-9.119074978286726",
      "lat": "39.40872515614579"
    },
    {
      "id": "pt.ine.add.PTCONT.2106324",
      "street": "R SOL NASCENTE",
      "house": "7",
      "postcode": "2500-298",
      "city": "CALDAS DA RAINHA",
      "lon": "-9.119074978286726",
      "lat": "39.40872515614579"
    },
    {
      "id": "pt.ine.add.PTCONT.2123805",
      "street": "TV PINTO MIRANDA",
      "house": "1",
      "postcode": "2500-298",
      "city": "CALDAS DA RAINHA",
      "lon": "-9.118590507102502",
      "lat": "39.4081258018545"
    },
    {
      "id": "pt.ine.add.PTCONT.2133502",
      "street": "R CROCHA",
      "house": "36",
      "postcode": "2500-288",
      "city": "CALDAS DA RAINHA",
      "lon": "-9.11979805949575",
      "lat": "39.41060145811139"
    },
    {
      "id": "pt.ine.add.PTCONT.2142062",
      "street": "R DR VIEIRA PEREIRA",
      "house": "45",
      "postcode": "2500-298",
      "city": "CALDAS DA RAINHA",
      "lon": "-9.120782165051352",
      "lat": "39.40875570841904"
    },
    {
      "id": "pt.ine.add.PTCONT.2154621",
      "street": "R SOL NASCENTE",
      "house": "13 A",
      "postcode": "2500-298",
      "city": "CALDAS DA RAINHA",
      "lon": "-9.119050558730228",
      "lat": "39.407815670466476"
    },
    {
      "id": "pt.ine.add.PTCONT.2169984",
      "street": "R CROCHA",
      "house": "50",
      "postcode": "2500-288",
      "city": "CALDAS DA RAINHA",
      "lon": "-9.11904997100954",
      "lat": "39.41189578099408"
    },
    {
      "id": "pt.ine.add.PTCONT.2185878",
      "street": "R SOL NASCENTE",
      "house": "9",
      "postcode": "2500-298",
      "city": "CALDAS DA RAINHA",
      "lon": "-9.119032794351586",
      "lat": "39.40820311593172"
    },
    {
      "id": "pt.ine.add.PTCONT.2185880",
      "street": "R SOL NASCENTE",
      "house": "9",
      "postcode": "2500-298",
      "city": "CALDAS DA RAINHA",
      "lon": "-9.119032794351586",
      "lat": "39.40820311593172"
    },
    {
      "id": "pt.ine.add.PTCONT.2185881",
      "street": "R SOL NASCENTE",
      "house": "9",
      "postcode": "2500-298",
      "city": "CALDAS DA RAINHA",
      "lon": "-9.119032794351586",
      "lat": "39.40820311593172"
    },
    {
      "id": "pt.ine.add.PTCONT.2185882",
      "street": "R SOL NASCENTE",
      "house": "31",
      "postcode": "2500-298",
      "city": "CALDAS DA RAINHA",
      "lon": "-9.119032794351586",
      "lat": "39.40820311593172"
    },
    {
      "id": "pt.ine.add.PTCONT.2185883",
      "street": "R SOL NASCENTE",
      "house": "9",
      "postcode": "2500-298",
      "city": "CALDAS DA RAINHA",
      "lon": "-9.119032794351586",
      "lat": "39.40820311593172"
    },
    {
      "id": "pt.ine.add.PTCONT.2185884",
      "street": "R SOL NASCENTE",
      "house": "9",
      "postcode": "2500-298",
      "city": "CALDAS DA RAINHA",
      "lon": "-9.119032794351586",
      "lat": "39.40820311593172"
    },
    {
      "id": "pt.ine.add.PTCONT.2188115",
      "street": "R CROCHA",
      "house": "34",
      "postcode": "2500-288",
      "city": "CALDAS DA RAINHA",
      "lon": "-9.118905844460496",
      "lat": "39.409906487726595"
    },
    {
      "id": "pt.ine.add.PTCONT.2208467",
      "street": "TV PINTO MIRANDA",
      "house": "",
      "postcode": "2500-298",
      "city": "CALDAS DA RAINHA",
      "lon": "-9.118497268286161",
      "lat": "39.412224710854574"
    },
    {
      "id": "pt.ine.add.PTCONT.2241162",
      "street": "R CROCHA",
      "house": "",
      "postcode": "2500-288",
      "city": "CALDAS DA RAINHA",
      "lon": "-9.119617003359908",
      "lat": "39.4109362472719"
    },
    {
      "id": "pt.ine.add.PTCONT.2266348",
      "street": "R CARREIRA DO GADO",
      "house": "207",
      "postcode": "2500-286",
      "city": "CALDAS DA RAINHA",
      "lon": "-9.118754516092338",
      "lat": "39.413177257705954"
    }
  ]
}