{
  "data": {
    "distrito": "Lisboa",
    "concelho": "Cascais",
    "freguesia": "Alcabideche",
    "OBJECTID": 609,
    "BGRI2021": "11050102009",
    "DT21": "11",
    "DTMN21": "1105",
    "DTMNFR21": "110501",
    "DTMNFRSEC21": "110501020",
    "SECNUM21": "020",
    "SSNUM21": "09",
    "SECSSNUM21": "02009",
    "OBJECTID_1": 101280,
    "DT": "11",
    "CC": "05",
    "fr": "01",
    "SEC": "020",
    "SS": "09"
  },
  "addresses": [
    {
      "id": "pt.ine.add.PTCONT.2961345",
      "street": "R ACÁCIAS",
      "house": "20",
      "postcode": "2755-012",
      "city": "ALCABIDECHE",
      "lon": "-9.418840850484749",
      "lat": "38.719414736421264"
    },
    {
      "id": "pt.ine.add.PTCONT.3034502",
      "street": "R ACUCENAS A S JOSE",
      "house": "36",
      "postcode": "2755-013",
      "city": "ALCABIDECHE",
      "lon": "-9.418583266982209",
      "lat": "38.7191563461709"
    },
    {
      "id": "pt.ine.add.PTCONT.3043314",
      "street": "R ACUCENAS A S JOSE",
      "house": "36",
      "postcode": "2755-013",
      "city": "ALCABIDECHE",
      "lon": "-9.418688825196966",
      "lat": "38.71927228534007"
    },
    {
      "id": "pt.ine.add.PTCONT.3045222",
      "street": "LG ABUXARDA",
      "house": "5",
      "postcode": "2755-011",
      "city": "ALCABIDECHE",
      "lon": "-9.418389454946052",
      "lat": "38.719248554080295"
    },
    {
      "id": "pt.ine.add.PTCONT.3083885",
      "street": "R ABUXARDA",
      "house": "16",
      "postcode": "2755-011",
      "city": "ALCABIDECHE",
      "lon": "-9.4184428589027",
      "lat": "38.71966232057838"
    },
    {
      "id": "pt.ine.add.PTCONT.3129771",
      "street": "R ABUXARDA",
      "house": "26",
      "postcode": "2755-011",
      "city": "ALCABIDECHE",
      "lon": "-9.418660631504633",
      "lat": "38.719623895219485"
    },
    {
      "id": "pt.ine.add.PTCONT.3268546",
      "street": "",
      "house": "",
      "postcode": "2755-013",
      "city": "ALCABIDECHE",
      "lon": "-9.418284219873554",
      "lat": "38.719150626462216"
    },
    {
      "id": "pt.ine.add.PTCONT.3312326",
      "street": "R ACUCENAS A S JOSE",
      "house": "52",
      "postcode": "2755-013",
      "city": "ALCABIDECHE",
      "lon": "-9.418814470152048",
      "lat": "38.71922586510749"
    },
    {
      "id": "pt.ine.add.PTCONT.3443617",
      "street": "R ACÁCIAS",
      "house": "20",
      "postcode": "2755-012",
      "city": "ALCABIDECHE",
      "lon": "-9.418884412195888",
      "lat": "38.71927914198475"
    },
    {
      "id": "pt.ine.add.PTCONT.3453797",
      "street": "R ACUCENAS A S JOSE",
      "house": "18 A",
      "postcode": "2755-013",
      "city": "ALCABIDECHE",
      "lon": "-9.418444997028415",
      "lat": "38.71913985114694"
    },
    {
      "id": "pt.ine.add.PTCONT.2327274",
      "street": "R ABUXARDA",
      "house": "9",
      "postcode": "2755-011",
      "city": "ALCABIDECHE",
      "lon": "-9.418495174335119",
      "lat": "38.719373499340065"
    },
    {
      "id": "pt.ine.add.PTCONT.2473486",
      "street": "ESTR ALVIDE",
      "house": "790",
      "postcode": "2755-029",
      "city": "ALCABIDECHE",
      "lon": "-9.418560074721057",
      "lat": "38.719787139363"
    },
    {
      "id": "pt.ine.add.PTCONT.2474517",
      "street": "ESTR ALVIDE",
      "house": "790",
      "postcode": "2755-029",
      "city": "ALCABIDECHE",
      "lon": "-9.418560074721057",
      "lat": "38.719787139363"
    },
    {
      "id": "pt.ine.add.PTCONT.2498993",
      "street": "R ABUXARDA",
      "house": "44",
      "postcode": "2755-011",
      "city": "ALCABIDECHE",
      "lon": "-9.418809107050835",
      "lat": "38.71956821623717"
    },
    {
      "id": "pt.ine.add.PTCONT.2523057",
      "street": "R ABUXARDA",
      "house": "35 A",
      "postcode": "2755-011",
      "city": "ALCABIDECHE",
      "lon": "-9.418726539502497",
      "lat": "38.71945202435117"
    },
    {
      "id": "pt.ine.add.PTCONT.2586297",
      "street": "R ACUCENAS A S JOSE",
      "house": "6",
      "postcode": "2755-013",
      "city": "ALCABIDECHE",
      "lon": "-9.418364205145181",
      "lat": "38.71912272404432"
    },
    {
      "id": "pt.ine.add.PTCONT.2592543",
      "street": "R ACUCENAS A S JOSE",
      "house": "23",
      "postcode": "2755-013",
      "city": "ALCABIDECHE",
      "lon": "-9.418547973421699",
      "lat": "38.71911169581522"
    },
    {
      "id": "pt.ine.add.PTCONT.2733403",
      "street": "LG ABUXARDA",
      "house": "7",
      "postcode": "2755-011",
      "city": "ALCABIDECHE",
      "lon": "-9.418448062410077",
      "lat": "38.719310963526205"
    },
    {
      "id": "pt.ine.add.PTCONT.2796890",
      "street": "R ABUXARDA",
      "house": "",
      "postcode": "2755-011",
      "city": "ALCABIDECHE",
      "lon": "-9.418546158742657",
      "lat": "38.71965217706548"
    },
    {
      "id": "pt.ine.add.PTCONT.2824701",
      "street": "R ACUCENAS A S JOSE",
      "house": "36",
      "postcode": "2755-013",
      "city": "ALCABIDECHE",
      "lon": "-9.4186090012494",
      "lat": "38.719309193894105"
    },
    {
      "id": "pt.ine.add.PTCONT.2825221",
      "street": "R ABUXARDA",
      "house": "4",
      "postcode": "2755-011",
      "city": "ALCABIDECHE",
      "lon": "-9.418292447036249",
      "lat": "38.71960992812809"
    },
    {
      "id": "pt.ine.add.PTCONT.2825222",
      "street": "R ABUXARDA",
      "house": "4",
      "postcode": "2755-011",
      "city": "ALCABIDECHE",
      "lon": "-9.418292447036249",
      "lat": "38.71960992812809"
    }
  ]
}