{
  "data": {
    "distrito": "Viana do Castelo",
    "concelho": "Ponte de Lima",
    "freguesia": "Rebordões (Souto)",
    "OBJECTID": 797,
    "BGRI2021": "16074700115",
    "DT21": "16",
    "DTMN21": "1607",
    "DTMNFR21": "160747",
    "DTMNFRSEC21": "160747001",
    "SECNUM21": "001",
    "SSNUM21": "15",
    "SECSSNUM21": "00115",
    "OBJECTID_1": 175708,
    "DT": "16",
    "CC": "07",
    "fr": "47",
    "SEC": "001",
    "SS": "15"
  },
  "addresses": [
    {
      "id": "pt.ine.add.PTCONT.5139850",
      "street": "R PORTELA",
      "house": "",
      "postcode": "4990-780",
      "city": "SOUTO REBORDÕES",
      "lon": "-8.575952959221326",
      "lat": "41.71555572611064"
    },
    {
      "id": "pt.ine.add.PTCONT.5151377",
      "street": "R ROSAL",
      "house": "195",
      "postcode": "4990-780",
      "city": "SOUTO REBORDÕES",
      "lon": "-8.576226567601747",
      "lat": "41.71340283898487"
    },
    {
      "id": "pt.ine.add.PTCONT.5159528",
      "street": "R PORTELA",
      "house": "585",
      "postcode": "4990-780",
      "city": "SOUTO REBORDÕES",
      "lon": "-8.57495272717671",
      "lat": "41.71689209140918"
    },
    {
      "id": "pt.ine.add.PTCONT.5161667",
      "street": "R PORTELA",
      "house": "1160",
      "postcode": "4990-780",
      "city": "SOUTO REBORDÕES",
      "lon": "-8.577494781708735",
      "lat": "41.71260563504803"
    },
    {
      "id": "pt.ine.add.PTCONT.5169461",
      "street": "R ROSAL",
      "house": "185",
      "postcode": "4990-780",
      "city": "SOUTO REBORDÕES",
      "lon": "-8.576287635958483",
      "lat": "41.7135466592385"
    },
    {
      "id": "pt.ine.add.PTCONT.5169479",
      "street": "R ALTO DA FONTE DO MURJAL",
      "house": "",
      "postcode": "4990-770",
      "city": "SOUTO REBORDÕES",
      "lon": "-8.57125958968088",
      "lat": "41.7127646299499"
    },
    {
      "id": "pt.ine.add.PTCONT.5171639",
      "street": "R PORTELA",
      "house": "",
      "postcode": "4990-780",
      "city": "SOUTO REBORDÕES",
      "lon": "-8.576895981187995",
      "lat": "41.71464273648239"
    },
    {
      "id": "pt.ine.add.PTCONT.5178788",
      "street": "R ROSAL",
      "house": "",
      "postcode": "4990-780",
      "city": "SOUTO REBORDÕES",
      "lon": "-8.576131470586072",
      "lat": "41.71530294056892"
    },
    {
      "id": "pt.ine.add.PTCONT.5188316",
      "street": "R PORTELA",
      "house": "1131",
      "postcode": "4990-780",
      "city": "SOUTO REBORDÕES",
      "lon": "-8.57722412413456",
      "lat": "41.71343500199387"
    },
    {
      "id": "pt.ine.add.PTCONT.5194162",
      "street": "R PORTELA",
      "house": "",
      "postcode": "4990-780",
      "city": "SOUTO REBORDÕES",
      "lon": "-8.576228175354284",
      "lat": "41.71363692337859"
    },
    {
      "id": "pt.ine.add.PTCONT.5201628",
      "street": "R ROSAL",
      "house": "",
      "postcode": "4990-780",
      "city": "SOUTO REBORDÕES",
      "lon": "-8.575867980964583",
      "lat": "41.71543000481901"
    },
    {
      "id": "pt.ine.add.PTCONT.5216344",
      "street": "R ROSSIO",
      "house": "",
      "postcode": "4990-780",
      "city": "SOUTO REBORDÕES",
      "lon": "-8.575777906097839",
      "lat": "41.71631269294892"
    },
    {
      "id": "pt.ine.add.PTCONT.5247958",
      "street": "R PORTELA",
      "house": "1200",
      "postcode": "4990-780",
      "city": "SOUTO REBORDÕES",
      "lon": "-8.577497634268028",
      "lat": "41.71301978433997"
    },
    {
      "id": "pt.ine.add.PTCONT.5270592",
      "street": "R PORTELA",
      "house": "",
      "postcode": "4990-780",
      "city": "SOUTO REBORDÕES",
      "lon": "-8.574388386528298",
      "lat": "41.71695728426126"
    }
  ]
}