{
  "data": {
    "distrito": "Faro",
    "concelho": "São Brás de Alportel",
    "freguesia": "São Brás de Alportel",
    "OBJECTID": 143,
    "BGRI2021": "08120101211",
    "DT21": "08",
    "DTMN21": "0812",
    "DTMNFR21": "081201",
    "DTMNFRSEC21": "081201012",
    "SECNUM21": "012",
    "SSNUM21": "11",
    "SECSSNUM21": "01211",
    "OBJECTID_1": 71709,
    "DT": "08",
    "CC": "12",
    "fr": "01",
    "SEC": "012",
    "SS": "11"
  },
  "addresses": [
    {
      "id": "pt.ine.add.PTCONT.1471148",
      "street": "ALMARGENS",
      "house": "280 A",
      "postcode": "8150-013",
      "city": "SÃO BRÁS DE ALPORTEL",
      "lon": "-7.886928207238379",
      "lat": "37.17361730650299"
    },
    {
      "id": "pt.ine.add.PTCONT.1480089",
      "street": "ALMARGENS",
      "house": "283 A",
      "postcode": "8150-013",
      "city": "SÃO BRÁS DE ALPORTEL",
      "lon": "-7.888544743753213",
      "lat": "37.17514343445218"
    },
    {
      "id": "pt.ine.add.PTCONT.1486282",
      "street": "ALMARGENS",
      "house": "287 A",
      "postcode": "8150-013",
      "city": "SÃO BRÁS DE ALPORTEL",
      "lon": "-7.8879415518395595",
      "lat": "37.17363742848749"
    },
    {
      "id": "pt.ine.add.PTCONT.1489168",
      "street": "SIT SITIO ALMARGEM",
      "house": "306 A",
      "postcode": "8150-013",
      "city": "SÃO BRÁS DE ALPORTEL",
      "lon": "-7.888902983998651",
      "lat": "37.175792931765486"
    },
    {
      "id": "pt.ine.add.PTCONT.1490506",
      "street": "SIT ALMARGENS",
      "house": "CP 503Z",
      "postcode": "8150-013",
      "city": "SÃO BRÁS DE ALPORTEL",
      "lon": "-7.887826737859296",
      "lat": "37.17432199166033"
    },
    {
      "id": "pt.ine.add.PTCONT.1506999",
      "street": "R ÂNGELO JOSE DE CARVALHO",
      "house": "284 A",
      "postcode": "8150-013",
      "city": "SÃO BRÁS DE ALPORTEL",
      "lon": "-7.887232490848911",
      "lat": "37.173536843434334"
    },
    {
      "id": "pt.ine.add.PTCONT.1526277",
      "street": "ALMARGENS",
      "house": "277 A",
      "postcode": "8150-013",
      "city": "SÃO BRÁS DE ALPORTEL",
      "lon": "-7.886387549989125",
      "lat": "37.173670245264084"
    },
    {
      "id": "pt.ine.add.PTCONT.1526279",
      "street": "R 25 DE ABRIL 285A",
      "house": "",
      "postcode": "8150-113",
      "city": "SÃO BRÁS DE ALPORTEL",
      "lon": "-7.888254506736741",
      "lat": "37.17435891849294"
    },
    {
      "id": "pt.ine.add.PTCONT.1549247",
      "street": "SEM DESIGNACAO",
      "house": "504 Z",
      "postcode": "8150-013",
      "city": "SÃO BRÁS DE ALPORTEL",
      "lon": "-7.887388292861009",
      "lat": "37.17410483042373"
    },
    {
      "id": "pt.ine.add.PTCONT.1556231",
      "street": "SIT ALMARGENS",
      "house": "",
      "postcode": "8150-013",
      "city": "SÃO BRÁS DE ALPORTEL",
      "lon": "-7.88875558372882",
      "lat": "37.17610799657588"
    },
    {
      "id": "pt.ine.add.PTCONT.1567476",
      "street": "ALMARGENS",
      "house": "300Z",
      "postcode": "8150-013",
      "city": "SÃO BRÁS DE ALPORTEL",
      "lon": "-7.888311505118714",
      "lat": "37.17414278338885"
    },
    {
      "id": "pt.ine.add.PTCONT.1568010",
      "street": "",
      "house": "",
      "postcode": "8150-013",
      "city": "SÃO BRÁS DE ALPORTEL",
      "lon": "-7.88406780495478",
      "lat": "37.17371945587277"
    },
    {
      "id": "pt.ine.add.PTCONT.1660155",
      "street": "SEM DESIGNACAO",
      "house": "275 A",
      "postcode": "8150-013",
      "city": "SÃO BRÁS DE ALPORTEL",
      "lon": "-7.886589615934925",
      "lat": "37.17385988707876"
    },
    {
      "id": "pt.ine.add.PTCONT.1675989",
      "street": "",
      "house": "",
      "postcode": "8150-013",
      "city": "SÃO BRÁS DE ALPORTEL",
      "lon": "-7.888298151874659",
      "lat": "37.17479151438391"
    },
    {
      "id": "pt.ine.add.PTCONT.1686468",
      "street": "ALMARGENS",
      "house": "300 Z",
      "postcode": "8150-013",
      "city": "SÃO BRÁS DE ALPORTEL",
      "lon": "-7.88876167739937",
      "lat": "37.174215796816014"
    },
    {
      "id": "pt.ine.add.PTCONT.1699893",
      "street": "ALMARGENS",
      "house": "501 Z",
      "postcode": "8150-013",
      "city": "SÃO BRÁS DE ALPORTEL",
      "lon": "-7.888557572235234",
      "lat": "37.17465689202502"
    },
    {
      "id": "pt.ine.add.PTCONT.1717045",
      "street": "CASA HELENA",
      "house": "303 A",
      "postcode": "8150-013",
      "city": "SÃO BRÁS DE ALPORTEL",
      "lon": "-7.88902071816077",
      "lat": "37.17419830961733"
    },
    {
      "id": "pt.ine.add.PTCONT.1737754",
      "street": "ALMARGENS",
      "house": "286 A",
      "postcode": "8150-013",
      "city": "SÃO BRÁS DE ALPORTEL",
      "lon": "-7.887784086144971",
      "lat": "37.17358303936894"
    },
    {
      "id": "pt.ine.add.PTCONT.1752380",
      "street": "ALMARGENS",
      "house": "301 Z",
      "postcode": "8150-013",
      "city": "SÃO BRÁS DE ALPORTEL",
      "lon": "-7.889254111116126",
      "lat": "37.175153906932785"
    },
    {
      "id": "pt.ine.add.PTCONT.1811966",
      "street": "ALMARGENS",
      "house": "289 A",
      "postcode": "8150-013",
      "city": "SÃO BRÁS DE ALPORTEL",
      "lon": "-7.888087961386857",
      "lat": "37.17362872077668"
    }
  ]
}