{
  "data": {
    "distrito": "Setúbal",
    "concelho": "Alcácer do Sal",
    "freguesia": "Comporta",
    "OBJECTID": 585,
    "BGRI2021": "15010600201",
    "DT21": "15",
    "DTMN21": "1501",
    "DTMNFR21": "150106",
    "DTMNFRSEC21": "150106002",
    "SECNUM21": "002",
    "SSNUM21": "01",
    "SECSSNUM21": "00201",
    "OBJECTID_1": 160206,
    "DT": "15",
    "CC": "01",
    "fr": "06",
    "SEC": "002",
    "SS": "01"
  },
  "addresses": [
    {
      "id": "pt.ine.add.PTCONT.4664925",
      "street": "LUGAR MONICA RITA BETTENCOURT",
      "house": "",
      "postcode": "7580-611",
      "city": "COMPORTA",
      "lon": "-8.762866720556172",
      "lat": "38.31903378811035"
    },
    {
      "id": "pt.ine.add.PTCONT.4666615",
      "street": "LUGAR JOANA ESPÍRITO SANTO",
      "house": "",
      "postcode": "7580-611",
      "city": "COMPORTA",
      "lon": "-8.761746624573867",
      "lat": "38.32174239956903"
    },
    {
      "id": "pt.ine.add.PTCONT.4666901",
      "street": "LUGAR JULIO DE BASTOS",
      "house": "",
      "postcode": "7580-611",
      "city": "COMPORTA",
      "lon": "-8.763292286404358",
      "lat": "38.31931978000109"
    },
    {
      "id": "pt.ine.add.PTCONT.4670619",
      "street": "LUGAR ANTÓNIO BEIRAO DA VEIGA",
      "house": "",
      "postcode": "7580-611",
      "city": "COMPORTA",
      "lon": "-8.762810074275253",
      "lat": "38.31777287730683"
    },
    {
      "id": "pt.ine.add.PTCONT.4687554",
      "street": "LUGAR MONICA RITA BETTENCOURT",
      "house": "",
      "postcode": "7580-611",
      "city": "COMPORTA",
      "lon": "-8.762920696885997",
      "lat": "38.318664142507785"
    },
    {
      "id": "pt.ine.add.PTCONT.4688869",
      "street": "LUGAR ANTÓNIO POSSER ANDRADE",
      "house": "",
      "postcode": "7580-611",
      "city": "COMPORTA",
      "lon": "-8.76335413774415",
      "lat": "38.319859968228265"
    },
    {
      "id": "pt.ine.add.PTCONT.4692186",
      "street": "LUGAR VERA ESPÍRITO SANTO SILVA",
      "house": "",
      "postcode": "7580-611",
      "city": "COMPORTA",
      "lon": "-8.762746104578104",
      "lat": "38.320953283609015"
    },
    {
      "id": "pt.ine.add.PTCONT.4703244",
      "street": "LUGAR JULIO TASSARA DE BASTOS",
      "house": "",
      "postcode": "7580-611",
      "city": "COMPORTA",
      "lon": "-8.76345244572962",
      "lat": "38.31932792804025"
    },
    {
      "id": "pt.ine.add.PTCONT.4707286",
      "street": "LUGAR ISABEL E S B V TABORDA FERREIRA",
      "house": "",
      "postcode": "7580-611",
      "city": "COMPORTA",
      "lon": "-8.762500729480024",
      "lat": "38.317702468265566"
    },
    {
      "id": "pt.ine.add.PTCONT.4709454",
      "street": "LUGAR FRIEDRICH BUDINGEN",
      "house": "",
      "postcode": "7580-611",
      "city": "COMPORTA",
      "lon": "-8.762853748794553",
      "lat": "38.320177959649676"
    },
    {
      "id": "pt.ine.add.PTCONT.4714017",
      "street": "LUGAR CARLOS MANUELM E S BEIRAO DA VEIGA",
      "house": "",
      "postcode": "7580-611",
      "city": "COMPORTA",
      "lon": "-8.762970619842237",
      "lat": "38.317826067338785"
    },
    {
      "id": "pt.ine.add.PTCONT.4720994",
      "street": "SIT ANTÓNIO BEIRÃO DA VEIGA",
      "house": "",
      "postcode": "7580-611",
      "city": "COMPORTA",
      "lon": "-8.76172367543543",
      "lat": "38.31643641149684"
    },
    {
      "id": "pt.ine.add.PTCONT.4729576",
      "street": "LUGAR DANIELE SHERER",
      "house": "",
      "postcode": "7580-611",
      "city": "COMPORTA",
      "lon": "-8.763367725574629",
      "lat": "38.31878786270668"
    },
    {
      "id": "pt.ine.add.PTCONT.4753637",
      "street": "LUGAR ISABEL E S B V TABORDA FERREIRA",
      "house": "",
      "postcode": "7580-611",
      "city": "COMPORTA",
      "lon": "-8.762433604276382",
      "lat": "38.317873993354425"
    },
    {
      "id": "pt.ine.add.PTCONT.4765586",
      "street": "LUGAR VITOR MARQUES SANTOS",
      "house": "",
      "postcode": "7580-611",
      "city": "COMPORTA",
      "lon": "-8.76216566266087",
      "lat": "38.321271701796235"
    },
    {
      "id": "pt.ine.add.PTCONT.4783980",
      "street": "LUGAR HOLSTEIN GUEDES",
      "house": "",
      "postcode": "7580-611",
      "city": "COMPORTA",
      "lon": "-8.762002308227649",
      "lat": "38.320894213497525"
    },
    {
      "id": "pt.ine.add.PTCONT.4790117",
      "street": "LUGAR ANTÓNIO BEIRAO DA VEIGA",
      "house": "",
      "postcode": "7580-611",
      "city": "COMPORTA",
      "lon": "-8.761884450669795",
      "lat": "38.31651662785325"
    },
    {
      "id": "pt.ine.add.PTCONT.4793451",
      "street": "LUGAR VERA ESPÍRITO SANTO SILVA",
      "house": "",
      "postcode": "7580-611",
      "city": "COMPORTA",
      "lon": "-8.762753409457279",
      "lat": "38.32047578463668"
    },
    {
      "id": "pt.ine.add.PTCONT.4799604",
      "street": "LUGAR MONICA RITA BETTENCOURT",
      "house": "",
      "postcode": "7580-611",
      "city": "COMPORTA",
      "lon": "-8.76269302409945",
      "lat": "38.3187824776435"
    },
    {
      "id": "pt.ine.add.PTCONT.4803060",
      "street": "LUGAR HOLSTEIN GUEDES",
      "house": "",
      "postcode": "7580-611",
      "city": "COMPORTA",
      "lon": "-8.762485444513603",
      "lat": "38.32122494286333"
    },
    {
      "id": "pt.ine.add.PTCONT.4836081",
      "street": "LUGAR JOANA ESPÍRITO SANTO",
      "house": "",
      "postcode": "7580-611",
      "city": "COMPORTA",
      "lon": "-8.761493348886088",
      "lat": "38.32154556599936"
    },
    {
      "id": "pt.ine.add.PTCONT.4887427",
      "street": "LUGAR ANTÓNIO BEIRAO DA VEIGA",
      "house": "",
      "postcode": "7580-611",
      "city": "COMPORTA",
      "lon": "-8.761977867521201",
      "lat": "38.316741344054606"
    },
    {
      "id": "pt.ine.add.PTCONT.4889537",
      "street": "LUGAR ANTÓNIO BEIRAO DA VEIGA",
      "house": "",
      "postcode": "7580-611",
      "city": "COMPORTA",
      "lon": "-8.76234227551692",
      "lat": "38.31656822472906"
    },
    {
      "id": "pt.ine.add.PTCONT.4903378",
      "street": "LUGAR VERA ESPÍRITO SANTO SILVA",
      "house": "",
      "postcode": "7580-611",
      "city": "COMPORTA",
      "lon": "-8.763031035067257",
      "lat": "38.32084364956111"
    },
    {
      "id": "pt.ine.add.PTCONT.4942905",
      "street": "LUGAR MARIA AMELIA SANTOS",
      "house": "",
      "postcode": "7580-611",
      "city": "COMPORTA",
      "lon": "-8.763380828447039",
      "lat": "38.3203012498958"
    },
    {
      "id": "pt.ine.add.PTCONT.4953662",
      "street": "LUGAR ANTÓNIO POSSER ANDRADE",
      "house": "",
      "postcode": "7580-611",
      "city": "COMPORTA",
      "lon": "-8.76349236543905",
      "lat": "38.319976338162625"
    },
    {
      "id": "pt.ine.add.PTCONT.4957531",
      "street": "LUGAR JOANA ESPÍRITO SANTO",
      "house": "",
      "postcode": "7580-611",
      "city": "COMPORTA",
      "lon": "-8.762315092292932",
      "lat": "38.32136098698507"
    },
    {
      "id": "pt.ine.add.PTCONT.4982615",
      "street": "LUGAR JOANA ESPÍRITO SANTO",
      "house": "",
      "postcode": "7580-611",
      "city": "COMPORTA",
      "lon": "-8.761519018058491",
      "lat": "38.32186974071984"
    },
    {
      "id": "pt.ine.add.PTCONT.5011985",
      "street": "LUGAR HOLSTEIN GUEDES",
      "house": "",
      "postcode": "7580-611",
      "city": "COMPORTA",
      "lon": "-8.76251842439491",
      "lat": "38.321071618424"
    },
    {
      "id": "pt.ine.add.PTCONT.5056460",
      "street": "LUGAR ANTÓNIO BEIRAO DA VEIGA",
      "house": "",
      "postcode": "7580-611",
      "city": "COMPORTA",
      "lon": "-8.76353518346655",
      "lat": "38.318318511503705"
    },
    {
      "id": "pt.ine.add.PTCONT.5096444",
      "street": "LUGAR ISABEL E S B V TABORDA FERREIRA",
      "house": "",
      "postcode": "7580-611",
      "city": "COMPORTA",
      "lon": "-8.762384908750517",
      "lat": "38.31753192480652"
    },
    {
      "id": "pt.ine.add.PTCONT.5109394",
      "street": "LUGAR CARLOS MANUEL E S BEIRAO DA VEIGA",
      "house": "",
      "postcode": "7580-611",
      "city": "COMPORTA",
      "lon": "-8.763048632219514",
      "lat": "38.31759142271845"
    }
  ]
}