{
  "data": {
    "distrito": "Setúbal",
    "concelho": "Alcácer do Sal",
    "freguesia": "Comporta",
    "OBJECTID": 452,
    "BGRI2021": "15010600204",
    "DT21": "15",
    "DTMN21": "1501",
    "DTMNFR21": "150106",
    "DTMNFRSEC21": "150106002",
    "SECNUM21": "002",
    "SSNUM21": "04",
    "SECSSNUM21": "00204",
    "OBJECTID_1": 160293,
    "DT": "15",
    "CC": "01",
    "fr": "06",
    "SEC": "002",
    "SS": "04"
  },
  "addresses": [
    {
      "id": "pt.ine.add.PTCONT.4664924",
      "street": "GERALDINE LINA GRINDA",
      "house": "",
      "postcode": "7580-611",
      "city": "COMPORTA",
      "lon": "-8.76955963235249",
      "lat": "38.322051600703624"
    },
    {
      "id": "pt.ine.add.PTCONT.4666879",
      "street": "WAVERLEY BLUE LE",
      "house": "",
      "postcode": "7580-611",
      "city": "COMPORTA",
      "lon": "-8.774245957687786",
      "lat": "38.32699885931975"
    },
    {
      "id": "pt.ine.add.PTCONT.4666915",
      "street": "LUGAR NYALEN VELGE",
      "house": "",
      "postcode": "7580-611",
      "city": "COMPORTA",
      "lon": "-8.768429857541987",
      "lat": "38.319697453904226"
    },
    {
      "id": "pt.ine.add.PTCONT.4778513",
      "street": "JOSE PARREIRA",
      "house": "",
      "postcode": "7580-611",
      "city": "COMPORTA",
      "lon": "-8.767786734530155",
      "lat": "38.32069188986686"
    },
    {
      "id": "pt.ine.add.PTCONT.4785653",
      "street": "MARIA MENDONÇA MENEZES",
      "house": "",
      "postcode": "7580-611",
      "city": "COMPORTA",
      "lon": "-8.769370612501671",
      "lat": "38.32135895864365"
    },
    {
      "id": "pt.ine.add.PTCONT.4812083",
      "street": "ANA SILVA",
      "house": "",
      "postcode": "7580-611",
      "city": "COMPORTA",
      "lon": "-8.772194967467001",
      "lat": "38.32394710790055"
    },
    {
      "id": "pt.ine.add.PTCONT.4818278",
      "street": "MAFALDA ESPÍRITO SANTO SILVA",
      "house": "",
      "postcode": "7580-611",
      "city": "COMPORTA",
      "lon": "-8.773794895304343",
      "lat": "38.32642476996454"
    },
    {
      "id": "pt.ine.add.PTCONT.4818328",
      "street": "MAFALDA ESPÍRITO SANTO SILVA",
      "house": "",
      "postcode": "7580-611",
      "city": "COMPORTA",
      "lon": "-8.773615514548887",
      "lat": "38.325533892191395"
    },
    {
      "id": "pt.ine.add.PTCONT.4825559",
      "street": "GERALDINE LINA GRINDA",
      "house": "",
      "postcode": "7580-611",
      "city": "COMPORTA",
      "lon": "-8.769616254921653",
      "lat": "38.321988232737766"
    },
    {
      "id": "pt.ine.add.PTCONT.4879588",
      "street": "LUDGERIO SOBRAL",
      "house": "",
      "postcode": "7580-611",
      "city": "COMPORTA",
      "lon": "-8.773341383503903",
      "lat": "38.32557142362112"
    },
    {
      "id": "pt.ine.add.PTCONT.4900063",
      "street": "CARLOS COIMBRA VILELA",
      "house": "",
      "postcode": "7580-611",
      "city": "COMPORTA",
      "lon": "-8.770877554002324",
      "lat": "38.322377762339"
    },
    {
      "id": "pt.ine.add.PTCONT.4917965",
      "street": "CARLOS COIMBRA VILELA",
      "house": "",
      "postcode": "7580-611",
      "city": "COMPORTA",
      "lon": "-8.770696805907127",
      "lat": "38.32263098778883"
    },
    {
      "id": "pt.ine.add.PTCONT.4923933",
      "street": "",
      "house": "",
      "postcode": "7580-611",
      "city": "COMPORTA",
      "lon": "-8.767890038579862",
      "lat": "38.32073637417163"
    },
    {
      "id": "pt.ine.add.PTCONT.4933162",
      "street": "EUNCA PORTUGAL",
      "house": "",
      "postcode": "7580-611",
      "city": "COMPORTA",
      "lon": "-8.770824878432485",
      "lat": "38.32289154286659"
    },
    {
      "id": "pt.ine.add.PTCONT.4945491",
      "street": "MARIA BRITO ANTUNES",
      "house": "",
      "postcode": "7580-611",
      "city": "COMPORTA",
      "lon": "-8.770017181797044",
      "lat": "38.32206713425358"
    },
    {
      "id": "pt.ine.add.PTCONT.4974621",
      "street": "JOÃO BRITO E CUNHA",
      "house": "",
      "postcode": "7580-611",
      "city": "COMPORTA",
      "lon": "-8.77182066533551",
      "lat": "38.32299422822175"
    },
    {
      "id": "pt.ine.add.PTCONT.4986436",
      "street": "JOÃO BRITO E CUNHA",
      "house": "",
      "postcode": "7580-611",
      "city": "COMPORTA",
      "lon": "-8.771273841735091",
      "lat": "38.323231430212616"
    },
    {
      "id": "pt.ine.add.PTCONT.5011984",
      "street": "MARIA MENDONÇA MENEZES",
      "house": "",
      "postcode": "7580-611",
      "city": "COMPORTA",
      "lon": "-8.769408617600662",
      "lat": "38.32178215998566"
    },
    {
      "id": "pt.ine.add.PTCONT.5020186",
      "street": "LUGAR MYALEN VEIGA",
      "house": "",
      "postcode": "7580-611",
      "city": "COMPORTA",
      "lon": "-8.768151305278243",
      "lat": "38.32053676905189"
    },
    {
      "id": "pt.ine.add.PTCONT.5044825",
      "street": "ANA ESPÍRITO SANTO SILVA",
      "house": "",
      "postcode": "7580-611",
      "city": "COMPORTA",
      "lon": "-8.771081012547494",
      "lat": "38.322106395734664"
    },
    {
      "id": "pt.ine.add.PTCONT.5045015",
      "street": "MARIA MENDONÇA MENEZES",
      "house": "",
      "postcode": "7580-611",
      "city": "COMPORTA",
      "lon": "-8.769270377075443",
      "lat": "38.32166579717197"
    },
    {
      "id": "pt.ine.add.PTCONT.5048729",
      "street": "JOÃO BRITO E CUNHA",
      "house": "",
      "postcode": "7580-611",
      "city": "COMPORTA",
      "lon": "-8.771223679249676",
      "lat": "38.32272721774976"
    },
    {
      "id": "pt.ine.add.PTCONT.5052681",
      "street": "MARIA BRITO ANTUNES",
      "house": "",
      "postcode": "7580-611",
      "city": "COMPORTA",
      "lon": "-8.769914820290147",
      "lat": "38.32213075076164"
    },
    {
      "id": "pt.ine.add.PTCONT.5085031",
      "street": "JOSE MARIA PARREIRA",
      "house": "",
      "postcode": "7580-611",
      "city": "COMPORTA",
      "lon": "-8.768004777354482",
      "lat": "38.32078079648681"
    },
    {
      "id": "pt.ine.add.PTCONT.5099661",
      "street": "GONÇALO GOMES DA CONCEIÇÃO",
      "house": "",
      "postcode": "7580-611",
      "city": "COMPORTA",
      "lon": "-8.770553516992038",
      "lat": "38.32324435608458"
    }
  ]
}