{
  "data": {
    "distrito": "Setúbal",
    "concelho": "Alcácer do Sal",
    "freguesia": "Comporta",
    "OBJECTID": 548,
    "BGRI2021": "15010600211",
    "DT21": "15",
    "DTMN21": "1501",
    "DTMNFR21": "150106",
    "DTMNFRSEC21": "150106002",
    "SECNUM21": "002",
    "SSNUM21": "11",
    "SECSSNUM21": "00211",
    "OBJECTID_1": 160387,
    "DT": "15",
    "CC": "01",
    "fr": "06",
    "SEC": "002",
    "SS": "11"
  },
  "addresses": [
    {
      "id": "pt.ine.add.PTCONT.4666878",
      "street": "ILIDIO SAINT BATISTA",
      "house": "",
      "postcode": "7580-611",
      "city": "COMPORTA",
      "lon": "-8.774979587063081",
      "lat": "38.32849028389169"
    },
    {
      "id": "pt.ine.add.PTCONT.4710505",
      "street": "BREJOS DA CARREGUEIRA BAIXO",
      "house": "",
      "postcode": "7580-611",
      "city": "COMPORTA",
      "lon": "-8.77458981482794",
      "lat": "38.334870542907865"
    },
    {
      "id": "pt.ine.add.PTCONT.4714028",
      "street": "BREJOS DA CARREGUEIRA",
      "house": "",
      "postcode": "7580-611",
      "city": "COMPORTA",
      "lon": "-8.775313672698006",
      "lat": "38.335244944393935"
    },
    {
      "id": "pt.ine.add.PTCONT.4721609",
      "street": "LUGAR PIERRE ANDRÉ ROCHELOIS",
      "house": "",
      "postcode": "7580-611",
      "city": "COMPORTA",
      "lon": "-8.774766598293192",
      "lat": "38.33027516339155"
    },
    {
      "id": "pt.ine.add.PTCONT.4739231",
      "street": "ILIDIO SAINT BATISTA",
      "house": "",
      "postcode": "7580-611",
      "city": "COMPORTA",
      "lon": "-8.77495592095466",
      "lat": "38.32840032683497"
    },
    {
      "id": "pt.ine.add.PTCONT.4863655",
      "street": "LUGAR ANDRÉ A BAGINSKI CHAMPALINALD",
      "house": "",
      "postcode": "7580-611",
      "city": "COMPORTA",
      "lon": "-8.775295122233713",
      "lat": "38.33055153879827"
    },
    {
      "id": "pt.ine.add.PTCONT.5077835",
      "street": "BREJOS DA CARREGUEIRA",
      "house": "",
      "postcode": "7580-611",
      "city": "COMPORTA",
      "lon": "-8.775493639970115",
      "lat": "38.33490163011559"
    },
    {
      "id": "pt.ine.add.PTCONT.5102498",
      "street": "LUGAR LOUIS ALBERT BROGLIE",
      "house": "",
      "postcode": "7580-611",
      "city": "COMPORTA",
      "lon": "-8.775472389607154",
      "lat": "38.33119919107372"
    },
    {
      "id": "pt.ine.add.PTCONT.5116927",
      "street": "LUGAR PEDRO FELISBELO BATISTA",
      "house": "",
      "postcode": "7580-611",
      "city": "COMPORTA",
      "lon": "-8.774833225393074",
      "lat": "38.328752335913414"
    }
  ]
}