{
  "data": {
    "distrito": "Leiria",
    "concelho": "Caldas da Rainha",
    "freguesia": "Uni찾o das freguesias de Caldas da Rainha - Nossa Senhora do P처pulo, Coto e S찾o Greg처rio",
    "OBJECTID": 716,
    "BGRI2021": "10061701001",
    "DT21": "10",
    "DTMN21": "1006",
    "DTMNFR21": "100617",
    "DTMNFRSEC21": "100617010",
    "SECNUM21": "010",
    "SSNUM21": "01",
    "SECSSNUM21": "01001",
    "OBJECTID_1": 87479,
    "DT": "10",
    "CC": "06",
    "fr": "17",
    "SEC": "010",
    "SS": "01"
  },
  "addresses": [
    {
      "id": "pt.ine.add.PTCONT.2004427",
      "street": "R GUILHERME ALBERTO",
      "house": "2",
      "postcode": "2500-293",
      "city": "CALDAS DA RAINHA",
      "lon": "-9.110104251328012",
      "lat": "39.39072404371599"
    },
    {
      "id": "pt.ine.add.PTCONT.2017471",
      "street": "ESTR PRINCIPAL DA LAGOA PARCEIRA",
      "house": "144",
      "postcode": "2500-293",
      "city": "CALDAS DA RAINHA",
      "lon": "-9.109882172626197",
      "lat": "39.39144645949546"
    },
    {
      "id": "pt.ine.add.PTCONT.2039437",
      "street": "R GUILHERME ALBERTO",
      "house": "1",
      "postcode": "2500-293",
      "city": "CALDAS DA RAINHA",
      "lon": "-9.109963919548639",
      "lat": "39.391481800704234"
    },
    {
      "id": "pt.ine.add.PTCONT.2043746",
      "street": "R GUILHERME ALBERTO",
      "house": "1",
      "postcode": "2500-293",
      "city": "CALDAS DA RAINHA",
      "lon": "-9.11004579215411",
      "lat": "39.39152614768753"
    },
    {
      "id": "pt.ine.add.PTCONT.2056465",
      "street": "R GUILHERME ALBERTO",
      "house": "2",
      "postcode": "2500-293",
      "city": "CALDAS DA RAINHA",
      "lon": "-9.110182857126539",
      "lat": "39.39053423892673"
    },
    {
      "id": "pt.ine.add.PTCONT.2059855",
      "street": "R CASAL DAS NESPEREIRAS",
      "house": "3",
      "postcode": "2500-293",
      "city": "CALDAS DA RAINHA",
      "lon": "-9.114716604258954",
      "lat": "39.39267574180888"
    },
    {
      "id": "pt.ine.add.PTCONT.2067880",
      "street": "R CASAL NESPEREIRAS",
      "house": "2",
      "postcode": "2500-293",
      "city": "CALDAS DA RAINHA",
      "lon": "-9.114678507438002",
      "lat": "39.39327051753036"
    },
    {
      "id": "pt.ine.add.PTCONT.2076378",
      "street": "R NESPEREIRAS",
      "house": "2",
      "postcode": "2500-293",
      "city": "CALDAS DA RAINHA",
      "lon": "-9.115015731548954",
      "lat": "39.39331270631469"
    },
    {
      "id": "pt.ine.add.PTCONT.2098101",
      "street": "ESTR PRINCIPAL DA LAGOA PARCEIRA",
      "house": "146",
      "postcode": "2500-293",
      "city": "CALDAS DA RAINHA",
      "lon": "-9.10971855346769",
      "lat": "39.39136677106752"
    },
    {
      "id": "pt.ine.add.PTCONT.2116738",
      "street": "R GUILHERME ALBERTO",
      "house": "11",
      "postcode": "2500-293",
      "city": "CALDAS DA RAINHA",
      "lon": "-9.110302688171638",
      "lat": "39.39080343917949"
    },
    {
      "id": "pt.ine.add.PTCONT.2170763",
      "street": "R LAVADOUROS",
      "house": "19",
      "postcode": "2500-293",
      "city": "CALDAS DA RAINHA",
      "lon": "-9.111390657673768",
      "lat": "39.39057813071616"
    },
    {
      "id": "pt.ine.add.PTCONT.2190418",
      "street": "ESTR PRINCIPAL DA LAGOA PARCEIRA",
      "house": "148",
      "postcode": "2500-293",
      "city": "CALDAS DA RAINHA",
      "lon": "-9.109531345394675",
      "lat": "39.39126025971535"
    },
    {
      "id": "pt.ine.add.PTCONT.2190419",
      "street": "ESTR PRINCIPAL DA LAGOA PARCEIRA",
      "house": "148",
      "postcode": "2500-293",
      "city": "CALDAS DA RAINHA",
      "lon": "-9.109531345394675",
      "lat": "39.39126025971535"
    },
    {
      "id": "pt.ine.add.PTCONT.2198886",
      "street": "R GUILHERME ALBERTO",
      "house": "2",
      "postcode": "2500-293",
      "city": "CALDAS DA RAINHA",
      "lon": "-9.11022488529668",
      "lat": "39.390218644826966"
    },
    {
      "id": "pt.ine.add.PTCONT.2199572",
      "street": "ESTR LAGOA PARCEIRA",
      "house": "150",
      "postcode": "2500-293",
      "city": "CALDAS DA RAINHA",
      "lon": "-9.109049964805019",
      "lat": "39.390867995621136"
    },
    {
      "id": "pt.ine.add.PTCONT.2206961",
      "street": "R LAVADOUROS",
      "house": "17",
      "postcode": "2500-293",
      "city": "CALDAS DA RAINHA",
      "lon": "-9.112125499304017",
      "lat": "39.390833149217116"
    },
    {
      "id": "pt.ine.add.PTCONT.2206962",
      "street": "R GUILHERME ALBERTO",
      "house": "13",
      "postcode": "2500-293",
      "city": "CALDAS DA RAINHA",
      "lon": "-9.11040412903665",
      "lat": "39.39058642177988"
    },
    {
      "id": "pt.ine.add.PTCONT.2219083",
      "street": "ESTR LAGOA PARCEIRA",
      "house": "70",
      "postcode": "2500-293",
      "city": "CALDAS DA RAINHA",
      "lon": "-9.113608173920007",
      "lat": "39.39309940527665"
    },
    {
      "id": "pt.ine.add.PTCONT.2230908",
      "street": "R GUILHERME ALBERTO",
      "house": "6",
      "postcode": "2500-293",
      "city": "CALDAS DA RAINHA",
      "lon": "-9.11097505658572",
      "lat": "39.39157238225403"
    },
    {
      "id": "pt.ine.add.PTCONT.2235441",
      "street": "R ALBERTINA MARIA",
      "house": "4",
      "postcode": "2500-293",
      "city": "CALDAS DA RAINHA",
      "lon": "-9.109891948301781",
      "lat": "39.39048264031757"
    }
  ]
}