{
  "data": {
    "distrito": "Leiria",
    "concelho": "Caldas da Rainha",
    "freguesia": "Landal",
    "OBJECTID": 170,
    "BGRI2021": "10060700140",
    "DT21": "10",
    "DTMN21": "1006",
    "DTMNFR21": "100607",
    "DTMNFRSEC21": "100607001",
    "SECNUM21": "001",
    "SSNUM21": "40",
    "SECSSNUM21": "00140",
    "OBJECTID_1": 88127,
    "DT": "10",
    "CC": "06",
    "fr": "07",
    "SEC": "001",
    "SS": "40"
  },
  "addresses": [
    {
      "id": "pt.ine.add.PTCONT.2007492",
      "street": "R PROJECTADA A D MARIA II",
      "house": "3",
      "postcode": "2500-532",
      "city": "LANDAL",
      "lon": "-8.99023870586773",
      "lat": "39.32100893672534"
    },
    {
      "id": "pt.ine.add.PTCONT.2068037",
      "street": "R PRINCIPAL",
      "house": "9",
      "postcode": "2500-532",
      "city": "LANDAL",
      "lon": "-8.992091911073258",
      "lat": "39.32177888945485"
    },
    {
      "id": "pt.ine.add.PTCONT.2069376",
      "street": "R PRINCIPAL",
      "house": "7",
      "postcode": "2500-532",
      "city": "LANDAL",
      "lon": "-8.991322883784543",
      "lat": "39.32147832214127"
    },
    {
      "id": "pt.ine.add.PTCONT.2080410",
      "street": "R JOSE JACINTO",
      "house": "L",
      "postcode": "2500-532",
      "city": "LANDAL",
      "lon": "-8.990326022170079",
      "lat": "39.31961220017146"
    },
    {
      "id": "pt.ine.add.PTCONT.2110093",
      "street": "R PROJECTADA A D MARIA II",
      "house": "9",
      "postcode": "2500-532",
      "city": "LANDAL",
      "lon": "-8.990969087378948",
      "lat": "39.32099454920209"
    },
    {
      "id": "pt.ine.add.PTCONT.2120694",
      "street": "ESTR D MARIA II",
      "house": "9",
      "postcode": "2500-532",
      "city": "LANDAL",
      "lon": "-8.988881200228663",
      "lat": "39.32094686838706"
    },
    {
      "id": "pt.ine.add.PTCONT.2122599",
      "street": "ESTR D MARIA SEGUNDA",
      "house": "15",
      "postcode": "2500-532",
      "city": "LANDAL",
      "lon": "-8.989720771100156",
      "lat": "39.321327996293604"
    },
    {
      "id": "pt.ine.add.PTCONT.2148982",
      "street": "R PRINCIPAL",
      "house": "11",
      "postcode": "2500-532",
      "city": "LANDAL",
      "lon": "-8.99232425637321",
      "lat": "39.3218132028436"
    },
    {
      "id": "pt.ine.add.PTCONT.2201990",
      "street": "R JOSE JACINTO",
      "house": "7",
      "postcode": "2500-532",
      "city": "LANDAL",
      "lon": "-8.989275213968297",
      "lat": "39.3209259568801"
    },
    {
      "id": "pt.ine.add.PTCONT.2219559",
      "street": "R JOSE JACINTO",
      "house": "5",
      "postcode": "2500-532",
      "city": "LANDAL",
      "lon": "-8.989192730837834",
      "lat": "39.320818478874465"
    },
    {
      "id": "pt.ine.add.PTCONT.2241391",
      "street": "R PRINCIPAL",
      "house": "17",
      "postcode": "2500-532",
      "city": "LANDAL",
      "lon": "-8.992556712116219",
      "lat": "39.321856522003884"
    }
  ]
}