{
  "data": {
    "distrito": "Santarém",
    "concelho": "Chamusca",
    "freguesia": "União das freguesias da Chamusca e Pinheiro Grande",
    "OBJECTID": 230,
    "BGRI2021": "14070800313",
    "DT21": "14",
    "DTMN21": "1407",
    "DTMNFR21": "140708",
    "DTMNFRSEC21": "140708003",
    "SECNUM21": "003",
    "SSNUM21": "13",
    "SECSSNUM21": "00313",
    "OBJECTID_1": 149942,
    "DT": "14",
    "CC": "07",
    "fr": "08",
    "SEC": "003",
    "SS": "13"
  },
  "addresses": [
    {
      "id": "pt.ine.add.PTCONT.4393684",
      "street": "R D MARIA MANUEL CID",
      "house": "11",
      "postcode": "2140-157",
      "city": "CHAMUSCA",
      "lon": "-8.478008037030289",
      "lat": "39.361096543610614"
    },
    {
      "id": "pt.ine.add.PTCONT.4414057",
      "street": "URB QUINTA DO NICHO III",
      "house": "",
      "postcode": "2140-186",
      "city": "CHAMUSCA",
      "lon": "-8.475885444660761",
      "lat": "39.36362481935465"
    },
    {
      "id": "pt.ine.add.PTCONT.4414058",
      "street": "URB QUINTA DO NICHO III",
      "house": "",
      "postcode": "2140-186",
      "city": "CHAMUSCA",
      "lon": "-8.475885444660761",
      "lat": "39.36362481935465"
    },
    {
      "id": "pt.ine.add.PTCONT.4414165",
      "street": "URB QUINTA DO NICHO III",
      "house": "",
      "postcode": "2140-186",
      "city": "CHAMUSCA",
      "lon": "-8.475885444660761",
      "lat": "39.36362481935465"
    },
    {
      "id": "pt.ine.add.PTCONT.4415776",
      "street": "URB QUINTA DO NICHO III",
      "house": "",
      "postcode": "2140-186",
      "city": "CHAMUSCA",
      "lon": "-8.475885444660761",
      "lat": "39.36362481935465"
    },
    {
      "id": "pt.ine.add.PTCONT.4415950",
      "street": "URB QUINTA DO NICHO III",
      "house": "",
      "postcode": "2140-186",
      "city": "CHAMUSCA",
      "lon": "-8.475885444660761",
      "lat": "39.36362481935465"
    },
    {
      "id": "pt.ine.add.PTCONT.4429801",
      "street": "URB QUINTA DO NICHO III",
      "house": "",
      "postcode": "2140-186",
      "city": "CHAMUSCA",
      "lon": "-8.476253883522546",
      "lat": "39.36303826832196"
    },
    {
      "id": "pt.ine.add.PTCONT.4429841",
      "street": "URB QUINTA DO NICHO III",
      "house": "",
      "postcode": "2140-186",
      "city": "CHAMUSCA",
      "lon": "-8.476253883522546",
      "lat": "39.36303826832196"
    },
    {
      "id": "pt.ine.add.PTCONT.4429842",
      "street": "URB QUINTA DO NICHO III",
      "house": "",
      "postcode": "2140-186",
      "city": "CHAMUSCA",
      "lon": "-8.476253883522546",
      "lat": "39.36303826832196"
    },
    {
      "id": "pt.ine.add.PTCONT.4429843",
      "street": "URB QUINTA DO NICHO III",
      "house": "",
      "postcode": "2140-186",
      "city": "CHAMUSCA",
      "lon": "-8.477079208852977",
      "lat": "39.36334207520276"
    },
    {
      "id": "pt.ine.add.PTCONT.4430194",
      "street": "URB QUINTA DO NICHO III",
      "house": "",
      "postcode": "2140-186",
      "city": "CHAMUSCA",
      "lon": "-8.476253883522546",
      "lat": "39.36303826832196"
    },
    {
      "id": "pt.ine.add.PTCONT.4430195",
      "street": "URB QUINTA DO NICHO III",
      "house": "",
      "postcode": "2140-186",
      "city": "CHAMUSCA",
      "lon": "-8.476253883522546",
      "lat": "39.36303826832196"
    },
    {
      "id": "pt.ine.add.PTCONT.4430337",
      "street": "URB QUINTA DO NICHO III",
      "house": "",
      "postcode": "2140-186",
      "city": "CHAMUSCA",
      "lon": "-8.476253883522546",
      "lat": "39.36303826832196"
    },
    {
      "id": "pt.ine.add.PTCONT.4451368",
      "street": "R DIREITA DE S PEDRO",
      "house": "",
      "postcode": "2140-098",
      "city": "CHAMUSCA",
      "lon": "-8.477589528120811",
      "lat": "39.363295529951394"
    },
    {
      "id": "pt.ine.add.PTCONT.4455557",
      "street": "R D MARIA MANUEL CID",
      "house": "4",
      "postcode": "2140-157",
      "city": "CHAMUSCA",
      "lon": "-8.477546136045682",
      "lat": "39.361548269612854"
    },
    {
      "id": "pt.ine.add.PTCONT.4466932",
      "street": "R D MARIA MANUEL CID",
      "house": "3",
      "postcode": "2140-157",
      "city": "CHAMUSCA",
      "lon": "-8.477338654462171",
      "lat": "39.36182810545826"
    },
    {
      "id": "pt.ine.add.PTCONT.4516323",
      "street": "R RONE",
      "house": "J",
      "postcode": "2140-107",
      "city": "CHAMUSCA",
      "lon": "-8.47308245730294",
      "lat": "39.359877055701496"
    },
    {
      "id": "pt.ine.add.PTCONT.4516324",
      "street": "R RONE",
      "house": "J",
      "postcode": "2140-107",
      "city": "CHAMUSCA",
      "lon": "-8.47308245730294",
      "lat": "39.359877055701496"
    },
    {
      "id": "pt.ine.add.PTCONT.4516325",
      "street": "R RONE",
      "house": "J",
      "postcode": "2140-107",
      "city": "CHAMUSCA",
      "lon": "-8.47308245730294",
      "lat": "39.359877055701496"
    },
    {
      "id": "pt.ine.add.PTCONT.4516326",
      "street": "R RONE",
      "house": "J",
      "postcode": "2140-107",
      "city": "CHAMUSCA",
      "lon": "-8.47308245730294",
      "lat": "39.359877055701496"
    },
    {
      "id": "pt.ine.add.PTCONT.4516327",
      "street": "R RONE",
      "house": "J",
      "postcode": "2140-107",
      "city": "CHAMUSCA",
      "lon": "-8.47308245730294",
      "lat": "39.359877055701496"
    },
    {
      "id": "pt.ine.add.PTCONT.4516328",
      "street": "R RONE",
      "house": "J",
      "postcode": "2140-107",
      "city": "CHAMUSCA",
      "lon": "-8.47308245730294",
      "lat": "39.359877055701496"
    },
    {
      "id": "pt.ine.add.PTCONT.4516329",
      "street": "R RONE",
      "house": "J",
      "postcode": "2140-107",
      "city": "CHAMUSCA",
      "lon": "-8.47308245730294",
      "lat": "39.359877055701496"
    },
    {
      "id": "pt.ine.add.PTCONT.4516449",
      "street": "R RONE",
      "house": "J",
      "postcode": "2140-107",
      "city": "CHAMUSCA",
      "lon": "-8.47308245730294",
      "lat": "39.359877055701496"
    },
    {
      "id": "pt.ine.add.PTCONT.4516450",
      "street": "R RONE",
      "house": "J",
      "postcode": "2140-107",
      "city": "CHAMUSCA",
      "lon": "-8.47308245730294",
      "lat": "39.359877055701496"
    },
    {
      "id": "pt.ine.add.PTCONT.4516451",
      "street": "R RONE",
      "house": "J",
      "postcode": "2140-107",
      "city": "CHAMUSCA",
      "lon": "-8.47308245730294",
      "lat": "39.359877055701496"
    },
    {
      "id": "pt.ine.add.PTCONT.4516452",
      "street": "QTA NICHO",
      "house": "",
      "postcode": "2140-120",
      "city": "CHAMUSCA",
      "lon": "-8.47343280882296",
      "lat": "39.36034440417451"
    },
    {
      "id": "pt.ine.add.PTCONT.4517212",
      "street": "R RONE",
      "house": "J",
      "postcode": "2140-107",
      "city": "CHAMUSCA",
      "lon": "-8.47308245730294",
      "lat": "39.359877055701496"
    },
    {
      "id": "pt.ine.add.PTCONT.4517295",
      "street": "AV DR CARLOS AMARO",
      "house": "",
      "postcode": "2140-054",
      "city": "CHAMUSCA",
      "lon": "-8.476892664924545",
      "lat": "39.36079360033771"
    },
    {
      "id": "pt.ine.add.PTCONT.4538379",
      "street": "R D MARIA MANUEL CID",
      "house": "1",
      "postcode": "2140-157",
      "city": "CHAMUSCA",
      "lon": "-8.47717696450766",
      "lat": "39.36198170531856"
    },
    {
      "id": "pt.ine.add.PTCONT.4544842",
      "street": "R RONE",
      "house": "",
      "postcode": "2140-107",
      "city": "CHAMUSCA",
      "lon": "-8.47290737057781",
      "lat": "39.359661395120476"
    },
    {
      "id": "pt.ine.add.PTCONT.4544843",
      "street": "R RONE",
      "house": "",
      "postcode": "2140-107",
      "city": "CHAMUSCA",
      "lon": "-8.47290737057781",
      "lat": "39.359661395120476"
    },
    {
      "id": "pt.ine.add.PTCONT.4544844",
      "street": "R RONE",
      "house": "",
      "postcode": "2140-107",
      "city": "CHAMUSCA",
      "lon": "-8.47290737057781",
      "lat": "39.359661395120476"
    },
    {
      "id": "pt.ine.add.PTCONT.4544845",
      "street": "R RONE",
      "house": "",
      "postcode": "2140-107",
      "city": "CHAMUSCA",
      "lon": "-8.47290737057781",
      "lat": "39.359661395120476"
    },
    {
      "id": "pt.ine.add.PTCONT.4544846",
      "street": "R RONE",
      "house": "",
      "postcode": "2140-107",
      "city": "CHAMUSCA",
      "lon": "-8.47290737057781",
      "lat": "39.359661395120476"
    },
    {
      "id": "pt.ine.add.PTCONT.4544847",
      "street": "R RONE",
      "house": "",
      "postcode": "2140-107",
      "city": "CHAMUSCA",
      "lon": "-8.47290737057781",
      "lat": "39.359661395120476"
    },
    {
      "id": "pt.ine.add.PTCONT.4544848",
      "street": "R RONE",
      "house": "",
      "postcode": "2140-107",
      "city": "CHAMUSCA",
      "lon": "-8.47290737057781",
      "lat": "39.359661395120476"
    },
    {
      "id": "pt.ine.add.PTCONT.4544849",
      "street": "R RONE",
      "house": "",
      "postcode": "2140-107",
      "city": "CHAMUSCA",
      "lon": "-8.47290737057781",
      "lat": "39.359661395120476"
    },
    {
      "id": "pt.ine.add.PTCONT.4544850",
      "street": "R RONE",
      "house": "",
      "postcode": "2140-107",
      "city": "CHAMUSCA",
      "lon": "-8.47290737057781",
      "lat": "39.359661395120476"
    },
    {
      "id": "pt.ine.add.PTCONT.4544962",
      "street": "R RONE",
      "house": "",
      "postcode": "2140-107",
      "city": "CHAMUSCA",
      "lon": "-8.47290737057781",
      "lat": "39.359661395120476"
    },
    {
      "id": "pt.ine.add.PTCONT.4545848",
      "street": "R RONE",
      "house": "",
      "postcode": "2140-107",
      "city": "CHAMUSCA",
      "lon": "-8.47290737057781",
      "lat": "39.359661395120476"
    },
    {
      "id": "pt.ine.add.PTCONT.4545977",
      "street": "R RONE",
      "house": "",
      "postcode": "2140-107",
      "city": "CHAMUSCA",
      "lon": "-8.47290737057781",
      "lat": "39.359661395120476"
    },
    {
      "id": "pt.ine.add.PTCONT.4546606",
      "street": "QTA NICHO",
      "house": "",
      "postcode": "2140-120",
      "city": "CHAMUSCA",
      "lon": "-8.475143325730848",
      "lat": "39.36134819163334"
    },
    {
      "id": "pt.ine.add.PTCONT.4556257",
      "street": "URB QUINTA DO NICHO III",
      "house": "",
      "postcode": "2140-186",
      "city": "CHAMUSCA",
      "lon": "-8.477520882232987",
      "lat": "39.36349389058504"
    },
    {
      "id": "pt.ine.add.PTCONT.4556914",
      "street": "URB QUINTA DO NICHO III",
      "house": "",
      "postcode": "2140-186",
      "city": "CHAMUSCA",
      "lon": "-8.475791738411358",
      "lat": "39.36344495217824"
    },
    {
      "id": "pt.ine.add.PTCONT.4556915",
      "street": "URB QUINTA DO NICHO III",
      "house": "",
      "postcode": "2140-186",
      "city": "CHAMUSCA",
      "lon": "-8.475791738411358",
      "lat": "39.36344495217824"
    },
    {
      "id": "pt.ine.add.PTCONT.4556916",
      "street": "URB QUINTA DO NICHO III",
      "house": "",
      "postcode": "2140-186",
      "city": "CHAMUSCA",
      "lon": "-8.475791738411358",
      "lat": "39.36344495217824"
    },
    {
      "id": "pt.ine.add.PTCONT.4556917",
      "street": "URB QUINTA DO NICHO III",
      "house": "",
      "postcode": "2140-186",
      "city": "CHAMUSCA",
      "lon": "-8.475791738411358",
      "lat": "39.36344495217824"
    },
    {
      "id": "pt.ine.add.PTCONT.4556918",
      "street": "URB QUINTA DO NICHO III",
      "house": "",
      "postcode": "2140-186",
      "city": "CHAMUSCA",
      "lon": "-8.475791738411358",
      "lat": "39.36344495217824"
    },
    {
      "id": "pt.ine.add.PTCONT.4558377",
      "street": "URB QUINTA DO NICHO III",
      "house": "",
      "postcode": "2140-186",
      "city": "CHAMUSCA",
      "lon": "-8.475791738411358",
      "lat": "39.36344495217824"
    },
    {
      "id": "pt.ine.add.PTCONT.4565396",
      "street": "AV DR CARLOS AMARO",
      "house": "",
      "postcode": "2140-054",
      "city": "CHAMUSCA",
      "lon": "-8.476786650970698",
      "lat": "39.36046965564307"
    },
    {
      "id": "pt.ine.add.PTCONT.4569510",
      "street": "URB QUINTA DO NICHO III",
      "house": "",
      "postcode": "2140-186",
      "city": "CHAMUSCA",
      "lon": "-8.476010525788247",
      "lat": "39.363102035735864"
    },
    {
      "id": "pt.ine.add.PTCONT.4569511",
      "street": "URB QUINTA DO NICHO III",
      "house": "",
      "postcode": "2140-186",
      "city": "CHAMUSCA",
      "lon": "-8.476010525788247",
      "lat": "39.363102035735864"
    },
    {
      "id": "pt.ine.add.PTCONT.4569512",
      "street": "URB QUINTA DO NICHO III",
      "house": "",
      "postcode": "2140-186",
      "city": "CHAMUSCA",
      "lon": "-8.476010525788247",
      "lat": "39.363102035735864"
    },
    {
      "id": "pt.ine.add.PTCONT.4569513",
      "street": "URB QUINTA DO NICHO III",
      "house": "",
      "postcode": "2140-186",
      "city": "CHAMUSCA",
      "lon": "-8.476010525788247",
      "lat": "39.363102035735864"
    },
    {
      "id": "pt.ine.add.PTCONT.4569514",
      "street": "URB QUINTA DO NICHO III",
      "house": "",
      "postcode": "2140-186",
      "city": "CHAMUSCA",
      "lon": "-8.476010525788247",
      "lat": "39.363102035735864"
    },
    {
      "id": "pt.ine.add.PTCONT.4569515",
      "street": "URB QUINTA DO NICHO III",
      "house": "",
      "postcode": "2140-186",
      "city": "CHAMUSCA",
      "lon": "-8.476010525788247",
      "lat": "39.363102035735864"
    },
    {
      "id": "pt.ine.add.PTCONT.4593750",
      "street": "R ENG SALDANHA PIMENTEL ROLIM",
      "house": "",
      "postcode": "2140-125",
      "city": "CHAMUSCA",
      "lon": "-8.47420734236752",
      "lat": "39.35975667104055"
    },
    {
      "id": "pt.ine.add.PTCONT.4612474",
      "street": "R D MARIA MANUEL CID",
      "house": "10",
      "postcode": "2140-157",
      "city": "CHAMUSCA",
      "lon": "-8.477915701593547",
      "lat": "39.36119589598769"
    },
    {
      "id": "pt.ine.add.PTCONT.4619476",
      "street": "VALE DA RAPOSA",
      "house": "2",
      "postcode": "2140-167",
      "city": "CHAMUSCA",
      "lon": "-8.478111797771756",
      "lat": "39.36096112864601"
    },
    {
      "id": "pt.ine.add.PTCONT.4621605",
      "street": "URB QUINTA DO NICHO III",
      "house": "",
      "postcode": "2140-186",
      "city": "CHAMUSCA",
      "lon": "-8.47727907133252",
      "lat": "39.36387290655329"
    },
    {
      "id": "pt.ine.add.PTCONT.4623607",
      "street": "URB QUINTA DO NICHO III",
      "house": "",
      "postcode": "2140-186",
      "city": "CHAMUSCA",
      "lon": "-8.476802056558256",
      "lat": "39.36361310876346"
    },
    {
      "id": "pt.ine.add.PTCONT.4632080",
      "street": "R D MARIA MANUEL",
      "house": "7",
      "postcode": "2140-157",
      "city": "CHAMUSCA",
      "lon": "-8.477789177095866",
      "lat": "39.36142144979791"
    },
    {
      "id": "pt.ine.add.PTCONT.4633959",
      "street": "URB QUINTA DO NICHO III",
      "house": "",
      "postcode": "2140-186",
      "city": "CHAMUSCA",
      "lon": "-8.47590697798801",
      "lat": "39.3632824839486"
    },
    {
      "id": "pt.ine.add.PTCONT.4633963",
      "street": "URB QUINTA DO NICHO III",
      "house": "",
      "postcode": "2140-186",
      "city": "CHAMUSCA",
      "lon": "-8.47590697798801",
      "lat": "39.3632824839486"
    },
    {
      "id": "pt.ine.add.PTCONT.4633964",
      "street": "URB QUINTA DO NICHO III",
      "house": "",
      "postcode": "2140-186",
      "city": "CHAMUSCA",
      "lon": "-8.47590697798801",
      "lat": "39.3632824839486"
    },
    {
      "id": "pt.ine.add.PTCONT.4633965",
      "street": "URB QUINTA DO NICHO III",
      "house": "",
      "postcode": "2140-186",
      "city": "CHAMUSCA",
      "lon": "-8.47590697798801",
      "lat": "39.3632824839486"
    },
    {
      "id": "pt.ine.add.PTCONT.4633966",
      "street": "URB QUINTA DO NICHO III",
      "house": "",
      "postcode": "2140-186",
      "city": "CHAMUSCA",
      "lon": "-8.47590697798801",
      "lat": "39.3632824839486"
    },
    {
      "id": "pt.ine.add.PTCONT.4635348",
      "street": "URB QUINTA DO NICHO III",
      "house": "",
      "postcode": "2140-186",
      "city": "CHAMUSCA",
      "lon": "-8.47590697798801",
      "lat": "39.3632824839486"
    },
    {
      "id": "pt.ine.add.PTCONT.4643257",
      "street": "QTA NICHO",
      "house": "",
      "postcode": "2140-120",
      "city": "CHAMUSCA",
      "lon": "-8.474164917860767",
      "lat": "39.36057644718664"
    },
    {
      "id": "pt.ine.add.PTCONT.4654432",
      "street": "QTA NICHO",
      "house": "",
      "postcode": "2140-120",
      "city": "CHAMUSCA",
      "lon": "-8.474840992855992",
      "lat": "39.361213972388335"
    },
    {
      "id": "pt.ine.add.PTCONT.4656218",
      "street": "R D MARIA MANUEL",
      "house": "9",
      "postcode": "2140-157",
      "city": "CHAMUSCA",
      "lon": "-8.477858440123285",
      "lat": "39.361349187355884"
    },
    {
      "id": "pt.ine.add.PTCONT.4656489",
      "street": "URB QUINTA DO NICHO III",
      "house": "",
      "postcode": "2140-186",
      "city": "CHAMUSCA",
      "lon": "-8.475885444660761",
      "lat": "39.36362481935465"
    },
    {
      "id": "pt.ine.add.PTCONT.4657074",
      "street": "R RONE",
      "house": "J",
      "postcode": "2140-107",
      "city": "CHAMUSCA",
      "lon": "-8.47308245730294",
      "lat": "39.359877055701496"
    },
    {
      "id": "pt.ine.add.PTCONT.4657997",
      "street": "R CHA",
      "house": "",
      "postcode": "2140-075",
      "city": "CHAMUSCA",
      "lon": "-8.472731543457293",
      "lat": "39.35929261463497"
    }
  ]
}