{
  "data": {
    "distrito": "Lisboa",
    "concelho": "Cascais",
    "freguesia": "União das freguesias de Carcavelos e Parede",
    "OBJECTID": 849,
    "BGRI2021": "11050702204",
    "DT21": "11",
    "DTMN21": "1105",
    "DTMNFR21": "110507",
    "DTMNFRSEC21": "110507022",
    "SECNUM21": "022",
    "SSNUM21": "04",
    "SECSSNUM21": "02204",
    "OBJECTID_1": 101169,
    "DT": "11",
    "CC": "05",
    "fr": "07",
    "SEC": "022",
    "SS": "04"
  },
  "addresses": [
    {
      "id": "pt.ine.add.PTCONT.2922500",
      "street": "AV ALM JOAO AZEVEDO COUTINHO",
      "house": "555",
      "postcode": "2775-101",
      "city": "PAREDE",
      "lon": "-9.364722992006628",
      "lat": "38.69948678343353"
    },
    {
      "id": "pt.ine.add.PTCONT.3009103",
      "street": "R PAPOILAS",
      "house": "26",
      "postcode": "2775-359",
      "city": "PAREDE",
      "lon": "-9.363570861350853",
      "lat": "38.69866119225045"
    },
    {
      "id": "pt.ine.add.PTCONT.3018566",
      "street": "R FLORBELA ESPANCA",
      "house": "61",
      "postcode": "2775-091",
      "city": "PAREDE",
      "lon": "-9.361690702296702",
      "lat": "38.69895119629951"
    },
    {
      "id": "pt.ine.add.PTCONT.3035159",
      "street": "R PINHAL",
      "house": "178",
      "postcode": "2775-354",
      "city": "PAREDE",
      "lon": "-9.364873443236569",
      "lat": "38.69820609671609"
    },
    {
      "id": "pt.ine.add.PTCONT.3035313",
      "street": "R PINHAL",
      "house": "178",
      "postcode": "2775-354",
      "city": "PAREDE",
      "lon": "-9.364873443236569",
      "lat": "38.69820609671609"
    },
    {
      "id": "pt.ine.add.PTCONT.3045710",
      "street": "R CIPRESTES",
      "house": "113",
      "postcode": "2775-357",
      "city": "PAREDE",
      "lon": "-9.363190986009522",
      "lat": "38.6972870017886"
    },
    {
      "id": "pt.ine.add.PTCONT.3045712",
      "street": "R CIPRESTES",
      "house": "113",
      "postcode": "2775-357",
      "city": "PAREDE",
      "lon": "-9.363190986009522",
      "lat": "38.6972870017886"
    },
    {
      "id": "pt.ine.add.PTCONT.3045713",
      "street": "R CIPRESTES",
      "house": "113",
      "postcode": "2775-357",
      "city": "PAREDE",
      "lon": "-9.363190986009522",
      "lat": "38.6972870017886"
    },
    {
      "id": "pt.ine.add.PTCONT.3045714",
      "street": "R CIPRESTES",
      "house": "113",
      "postcode": "2775-357",
      "city": "PAREDE",
      "lon": "-9.363190986009522",
      "lat": "38.6972870017886"
    },
    {
      "id": "pt.ine.add.PTCONT.3045715",
      "street": "R CIPRESTES",
      "house": "113",
      "postcode": "2775-357",
      "city": "PAREDE",
      "lon": "-9.363190986009522",
      "lat": "38.6972870017886"
    },
    {
      "id": "pt.ine.add.PTCONT.3045716",
      "street": "R CIPRESTES",
      "house": "113",
      "postcode": "2775-357",
      "city": "PAREDE",
      "lon": "-9.363190986009522",
      "lat": "38.6972870017886"
    },
    {
      "id": "pt.ine.add.PTCONT.3045717",
      "street": "R CIPRESTES",
      "house": "113",
      "postcode": "2775-357",
      "city": "PAREDE",
      "lon": "-9.363190986009522",
      "lat": "38.6972870017886"
    },
    {
      "id": "pt.ine.add.PTCONT.3045718",
      "street": "R CIPRESTES",
      "house": "113",
      "postcode": "2775-357",
      "city": "PAREDE",
      "lon": "-9.363190986009522",
      "lat": "38.6972870017886"
    },
    {
      "id": "pt.ine.add.PTCONT.3045719",
      "street": "R CIPRESTES",
      "house": "113",
      "postcode": "2775-357",
      "city": "PAREDE",
      "lon": "-9.363190986009522",
      "lat": "38.6972870017886"
    },
    {
      "id": "pt.ine.add.PTCONT.3045720",
      "street": "R CIPRESTES",
      "house": "113",
      "postcode": "2775-357",
      "city": "PAREDE",
      "lon": "-9.363190986009522",
      "lat": "38.6972870017886"
    },
    {
      "id": "pt.ine.add.PTCONT.3045721",
      "street": "R CIPRESTES",
      "house": "113",
      "postcode": "2775-357",
      "city": "PAREDE",
      "lon": "-9.363190986009522",
      "lat": "38.6972870017886"
    },
    {
      "id": "pt.ine.add.PTCONT.3045724",
      "street": "R MAJ CORREIA LEITE",
      "house": "8",
      "postcode": "2775-084",
      "city": "PAREDE",
      "lon": "-9.36305223080467",
      "lat": "38.69925215346676"
    },
    {
      "id": "pt.ine.add.PTCONT.3051669",
      "street": "R CIPRESTES",
      "house": "113",
      "postcode": "2775-357",
      "city": "PAREDE",
      "lon": "-9.363190986009522",
      "lat": "38.6972870017886"
    },
    {
      "id": "pt.ine.add.PTCONT.3074605",
      "street": "R PAPOILAS",
      "house": "1",
      "postcode": "2775-359",
      "city": "PAREDE",
      "lon": "-9.36333020867442",
      "lat": "38.69803318128973"
    },
    {
      "id": "pt.ine.add.PTCONT.3084363",
      "street": "AV ALM JOÃO DE AZEVEDO COUTINHO",
      "house": "",
      "postcode": "2775-101",
      "city": "PAREDE",
      "lon": "-9.363124735305998",
      "lat": "38.699458569219445"
    },
    {
      "id": "pt.ine.add.PTCONT.3093403",
      "street": "R BELA VISTA",
      "house": "58",
      "postcode": "2775-076",
      "city": "PAREDE",
      "lon": "-9.36267459506729",
      "lat": "38.69867962865549"
    },
    {
      "id": "pt.ine.add.PTCONT.3138903",
      "street": "R ENG ADELINO AMARO DA COSTA",
      "house": "297",
      "postcode": "2775-149",
      "city": "PAREDE",
      "lon": "-9.361973258943463",
      "lat": "38.69732682969601"
    },
    {
      "id": "pt.ine.add.PTCONT.3138904",
      "street": "R ENG ADELINO AMARO DA COSTA",
      "house": "297",
      "postcode": "2775-149",
      "city": "PAREDE",
      "lon": "-9.361973258943463",
      "lat": "38.69732682969601"
    },
    {
      "id": "pt.ine.add.PTCONT.3138905",
      "street": "R ENG ADELINO AMARO DA COSTA",
      "house": "297",
      "postcode": "2775-149",
      "city": "PAREDE",
      "lon": "-9.361973258943463",
      "lat": "38.69732682969601"
    },
    {
      "id": "pt.ine.add.PTCONT.3138906",
      "street": "R ENG ADELINO AMARO DA COSTA",
      "house": "297",
      "postcode": "2775-149",
      "city": "PAREDE",
      "lon": "-9.361973258943463",
      "lat": "38.69732682969601"
    },
    {
      "id": "pt.ine.add.PTCONT.3138907",
      "street": "R ENG ADELINO AMARO DA COSTA",
      "house": "297",
      "postcode": "2775-149",
      "city": "PAREDE",
      "lon": "-9.361973258943463",
      "lat": "38.69732682969601"
    },
    {
      "id": "pt.ine.add.PTCONT.3138908",
      "street": "R ENG ADELINO AMARO DA COSTA",
      "house": "297",
      "postcode": "2775-149",
      "city": "PAREDE",
      "lon": "-9.361973258943463",
      "lat": "38.69732682969601"
    },
    {
      "id": "pt.ine.add.PTCONT.3138909",
      "street": "R ENG ADELINO AMARO DA COSTA",
      "house": "297",
      "postcode": "2775-149",
      "city": "PAREDE",
      "lon": "-9.361973258943463",
      "lat": "38.69732682969601"
    },
    {
      "id": "pt.ine.add.PTCONT.3138911",
      "street": "R ENG ADELINO AMARO DA COSTA",
      "house": "297",
      "postcode": "2775-149",
      "city": "PAREDE",
      "lon": "-9.361973258943463",
      "lat": "38.69732682969601"
    },
    {
      "id": "pt.ine.add.PTCONT.3144939",
      "street": "R ENG ADELINO AMARO DA COSTA",
      "house": "297",
      "postcode": "2775-149",
      "city": "PAREDE",
      "lon": "-9.361973258943463",
      "lat": "38.69732682969601"
    },
    {
      "id": "pt.ine.add.PTCONT.3145358",
      "street": "R ENG ADELINO AMARO DA COSTA",
      "house": "297",
      "postcode": "2775-149",
      "city": "PAREDE",
      "lon": "-9.361973258943463",
      "lat": "38.69732682969601"
    },
    {
      "id": "pt.ine.add.PTCONT.3156443",
      "street": "R PINHAL",
      "house": "200",
      "postcode": "2775-354",
      "city": "PAREDE",
      "lon": "-9.36502346365475",
      "lat": "38.69824054721689"
    },
    {
      "id": "pt.ine.add.PTCONT.3156455",
      "street": "R PINHAL",
      "house": "200",
      "postcode": "2775-354",
      "city": "PAREDE",
      "lon": "-9.36502346365475",
      "lat": "38.69824054721689"
    },
    {
      "id": "pt.ine.add.PTCONT.3157156",
      "street": "AV ALM JOÃO DE AZEVEDO COUTINHO",
      "house": "615",
      "postcode": "2775-101",
      "city": "PAREDE",
      "lon": "-9.366564761931077",
      "lat": "38.699638515708735"
    },
    {
      "id": "pt.ine.add.PTCONT.3186204",
      "street": "R PINHAL",
      "house": "",
      "postcode": "2775-354",
      "city": "PAREDE",
      "lon": "-9.364390295311255",
      "lat": "38.69818416232889"
    },
    {
      "id": "pt.ine.add.PTCONT.3186223",
      "street": "R MAJOR CORREIA LEITE",
      "house": "73",
      "postcode": "2775-084",
      "city": "PAREDE",
      "lon": "-9.36270560007003",
      "lat": "38.69914770616122"
    },
    {
      "id": "pt.ine.add.PTCONT.3232430",
      "street": "R COR GARCEZ DE LENCASTRE",
      "house": "404",
      "postcode": "2775-378",
      "city": "PAREDE",
      "lon": "-9.36786483179022",
      "lat": "38.69970586327254"
    },
    {
      "id": "pt.ine.add.PTCONT.3241735",
      "street": "R BELA VISTA",
      "house": "103",
      "postcode": "2775-076",
      "city": "PAREDE",
      "lon": "-9.362898429231283",
      "lat": "38.69966812821191"
    },
    {
      "id": "pt.ine.add.PTCONT.3247766",
      "street": "R DO PINHAL",
      "house": "",
      "postcode": "2775-354",
      "city": "PAREDE",
      "lon": "-9.36607422907539",
      "lat": "38.698517719772546"
    },
    {
      "id": "pt.ine.add.PTCONT.3268930",
      "street": "R GIRASSOL",
      "house": "77",
      "postcode": "2775-665",
      "city": "CARCAVELOS",
      "lon": "-9.364354144661547",
      "lat": "38.699427613856855"
    },
    {
      "id": "pt.ine.add.PTCONT.3278270",
      "street": "R CIPRESTES",
      "house": "75",
      "postcode": "2775-357",
      "city": "PAREDE",
      "lon": "-9.36270352648113",
      "lat": "38.69701288836975"
    },
    {
      "id": "pt.ine.add.PTCONT.3278271",
      "street": "R CIPRESTES",
      "house": "75",
      "postcode": "2775-357",
      "city": "PAREDE",
      "lon": "-9.36270352648113",
      "lat": "38.69701288836975"
    },
    {
      "id": "pt.ine.add.PTCONT.3278272",
      "street": "R CIPRESTES",
      "house": "75",
      "postcode": "2775-357",
      "city": "PAREDE",
      "lon": "-9.36270352648113",
      "lat": "38.69701288836975"
    },
    {
      "id": "pt.ine.add.PTCONT.3278279",
      "street": "R CIPRESTES",
      "house": "75",
      "postcode": "2775-357",
      "city": "PAREDE",
      "lon": "-9.36270352648113",
      "lat": "38.69701288836975"
    },
    {
      "id": "pt.ine.add.PTCONT.3278280",
      "street": "R CIPRESTES",
      "house": "75",
      "postcode": "2775-357",
      "city": "PAREDE",
      "lon": "-9.36270352648113",
      "lat": "38.69701288836975"
    },
    {
      "id": "pt.ine.add.PTCONT.3278281",
      "street": "R CIPRESTES",
      "house": "75",
      "postcode": "2775-357",
      "city": "PAREDE",
      "lon": "-9.36270352648113",
      "lat": "38.69701288836975"
    },
    {
      "id": "pt.ine.add.PTCONT.3278282",
      "street": "R CIPRESTES",
      "house": "75",
      "postcode": "2775-357",
      "city": "PAREDE",
      "lon": "-9.36270352648113",
      "lat": "38.69701288836975"
    },
    {
      "id": "pt.ine.add.PTCONT.3278283",
      "street": "R CIPRESTES",
      "house": "75",
      "postcode": "2775-357",
      "city": "PAREDE",
      "lon": "-9.36270352648113",
      "lat": "38.69701288836975"
    },
    {
      "id": "pt.ine.add.PTCONT.3278284",
      "street": "R CIPRESTES",
      "house": "75",
      "postcode": "2775-357",
      "city": "PAREDE",
      "lon": "-9.36270352648113",
      "lat": "38.69701288836975"
    },
    {
      "id": "pt.ine.add.PTCONT.3278285",
      "street": "R CIPRESTES",
      "house": "75",
      "postcode": "2775-357",
      "city": "PAREDE",
      "lon": "-9.36270352648113",
      "lat": "38.69701288836975"
    },
    {
      "id": "pt.ine.add.PTCONT.3278286",
      "street": "R CIPRESTES",
      "house": "75",
      "postcode": "2775-357",
      "city": "PAREDE",
      "lon": "-9.36270352648113",
      "lat": "38.69701288836975"
    },
    {
      "id": "pt.ine.add.PTCONT.3278287",
      "street": "R CIPRESTES",
      "house": "75",
      "postcode": "2775-357",
      "city": "PAREDE",
      "lon": "-9.36270352648113",
      "lat": "38.69701288836975"
    },
    {
      "id": "pt.ine.add.PTCONT.3278288",
      "street": "R CIPRESTES",
      "house": "75",
      "postcode": "2775-357",
      "city": "PAREDE",
      "lon": "-9.36270352648113",
      "lat": "38.69701288836975"
    },
    {
      "id": "pt.ine.add.PTCONT.3278289",
      "street": "R CIPRESTES",
      "house": "75",
      "postcode": "2775-357",
      "city": "PAREDE",
      "lon": "-9.36270352648113",
      "lat": "38.69701288836975"
    },
    {
      "id": "pt.ine.add.PTCONT.3278290",
      "street": "R CIPRESTES",
      "house": "75",
      "postcode": "2775-357",
      "city": "PAREDE",
      "lon": "-9.36270352648113",
      "lat": "38.69701288836975"
    },
    {
      "id": "pt.ine.add.PTCONT.3278291",
      "street": "R CIPRESTES",
      "house": "75",
      "postcode": "2775-357",
      "city": "PAREDE",
      "lon": "-9.36270352648113",
      "lat": "38.69701288836975"
    },
    {
      "id": "pt.ine.add.PTCONT.3278294",
      "street": "R CIPRESTES",
      "house": "23",
      "postcode": "2775-357",
      "city": "PAREDE",
      "lon": "-9.36232613033071",
      "lat": "38.69712494969694"
    },
    {
      "id": "pt.ine.add.PTCONT.3278297",
      "street": "R CIPRESTES",
      "house": "23",
      "postcode": "2775-357",
      "city": "PAREDE",
      "lon": "-9.36232613033071",
      "lat": "38.69712494969694"
    },
    {
      "id": "pt.ine.add.PTCONT.3278298",
      "street": "R CIPRESTES",
      "house": "23",
      "postcode": "2775-357",
      "city": "PAREDE",
      "lon": "-9.36232613033071",
      "lat": "38.69712494969694"
    },
    {
      "id": "pt.ine.add.PTCONT.3278299",
      "street": "R CIPRESTES",
      "house": "23",
      "postcode": "2775-357",
      "city": "PAREDE",
      "lon": "-9.36232613033071",
      "lat": "38.69712494969694"
    },
    {
      "id": "pt.ine.add.PTCONT.3278300",
      "street": "R CIPRESTES",
      "house": "23",
      "postcode": "2775-357",
      "city": "PAREDE",
      "lon": "-9.36232613033071",
      "lat": "38.69712494969694"
    },
    {
      "id": "pt.ine.add.PTCONT.3278301",
      "street": "R CIPRESTES",
      "house": "23",
      "postcode": "2775-357",
      "city": "PAREDE",
      "lon": "-9.36232613033071",
      "lat": "38.69712494969694"
    },
    {
      "id": "pt.ine.add.PTCONT.3278302",
      "street": "R CIPRESTES",
      "house": "23",
      "postcode": "2775-357",
      "city": "PAREDE",
      "lon": "-9.36232613033071",
      "lat": "38.69712494969694"
    },
    {
      "id": "pt.ine.add.PTCONT.3278303",
      "street": "R CIPRESTES",
      "house": "23",
      "postcode": "2775-357",
      "city": "PAREDE",
      "lon": "-9.36232613033071",
      "lat": "38.69712494969694"
    },
    {
      "id": "pt.ine.add.PTCONT.3278304",
      "street": "R CIPRESTES",
      "house": "23",
      "postcode": "2775-357",
      "city": "PAREDE",
      "lon": "-9.36232613033071",
      "lat": "38.69712494969694"
    },
    {
      "id": "pt.ine.add.PTCONT.3284321",
      "street": "R CIPRESTES",
      "house": "75",
      "postcode": "2775-357",
      "city": "PAREDE",
      "lon": "-9.36270352648113",
      "lat": "38.69701288836975"
    },
    {
      "id": "pt.ine.add.PTCONT.3284325",
      "street": "R CIPRESTES",
      "house": "23",
      "postcode": "2775-357",
      "city": "PAREDE",
      "lon": "-9.36232613033071",
      "lat": "38.69712494969694"
    },
    {
      "id": "pt.ine.add.PTCONT.3299642",
      "street": "R PAPOILAS",
      "house": "49",
      "postcode": "2775-359",
      "city": "PAREDE",
      "lon": "-9.363910080765237",
      "lat": "38.69833334252065"
    },
    {
      "id": "pt.ine.add.PTCONT.3299762",
      "street": "R CIPRESTES",
      "house": "129",
      "postcode": "2775-357",
      "city": "PAREDE",
      "lon": "-9.363331208672777",
      "lat": "38.69742064294728"
    },
    {
      "id": "pt.ine.add.PTCONT.3299763",
      "street": "R CIPRESTES",
      "house": "129",
      "postcode": "2775-357",
      "city": "PAREDE",
      "lon": "-9.363331208672777",
      "lat": "38.69742064294728"
    },
    {
      "id": "pt.ine.add.PTCONT.3299764",
      "street": "R CIPRESTES",
      "house": "129",
      "postcode": "2775-357",
      "city": "PAREDE",
      "lon": "-9.363331208672777",
      "lat": "38.69742064294728"
    },
    {
      "id": "pt.ine.add.PTCONT.3299765",
      "street": "R CIPRESTES",
      "house": "129",
      "postcode": "2775-357",
      "city": "PAREDE",
      "lon": "-9.363331208672777",
      "lat": "38.69742064294728"
    },
    {
      "id": "pt.ine.add.PTCONT.3299904",
      "street": "R CIPRESTES",
      "house": "129",
      "postcode": "2775-357",
      "city": "PAREDE",
      "lon": "-9.363331208672777",
      "lat": "38.69742064294728"
    },
    {
      "id": "pt.ine.add.PTCONT.3299905",
      "street": "R CIPRESTES",
      "house": "129",
      "postcode": "2775-357",
      "city": "PAREDE",
      "lon": "-9.363331208672777",
      "lat": "38.69742064294728"
    },
    {
      "id": "pt.ine.add.PTCONT.3299906",
      "street": "R CIPRESTES",
      "house": "129",
      "postcode": "2775-357",
      "city": "PAREDE",
      "lon": "-9.363331208672777",
      "lat": "38.69742064294728"
    },
    {
      "id": "pt.ine.add.PTCONT.3299907",
      "street": "R CIPRESTES",
      "house": "129",
      "postcode": "2775-357",
      "city": "PAREDE",
      "lon": "-9.363331208672777",
      "lat": "38.69742064294728"
    },
    {
      "id": "pt.ine.add.PTCONT.3299908",
      "street": "R CIPRESTES",
      "house": "129",
      "postcode": "2775-357",
      "city": "PAREDE",
      "lon": "-9.363331208672777",
      "lat": "38.69742064294728"
    },
    {
      "id": "pt.ine.add.PTCONT.3299909",
      "street": "R CIPRESTES",
      "house": "129",
      "postcode": "2775-357",
      "city": "PAREDE",
      "lon": "-9.363331208672777",
      "lat": "38.69742064294728"
    },
    {
      "id": "pt.ine.add.PTCONT.3299910",
      "street": "R CIPRESTES",
      "house": "129",
      "postcode": "2775-357",
      "city": "PAREDE",
      "lon": "-9.363331208672777",
      "lat": "38.69742064294728"
    },
    {
      "id": "pt.ine.add.PTCONT.3299911",
      "street": "R CIPRESTES",
      "house": "129",
      "postcode": "2775-357",
      "city": "PAREDE",
      "lon": "-9.363331208672777",
      "lat": "38.69742064294728"
    },
    {
      "id": "pt.ine.add.PTCONT.3302807",
      "street": "R BELA VISTA",
      "house": "15",
      "postcode": "2775-076",
      "city": "PAREDE",
      "lon": "-9.362008488036475",
      "lat": "38.698713654877906"
    },
    {
      "id": "pt.ine.add.PTCONT.3309175",
      "street": "R MAJOR CORREIA LEITE",
      "house": "",
      "postcode": "2775-084",
      "city": "PAREDE",
      "lon": "-9.363048065437477",
      "lat": "38.69900898775792"
    },
    {
      "id": "pt.ine.add.PTCONT.3309577",
      "street": "R ENG ADELINO AMARO DA COSTA",
      "house": "337",
      "postcode": "2775-149",
      "city": "PAREDE",
      "lon": "-9.36188733064121",
      "lat": "38.69767903554393"
    },
    {
      "id": "pt.ine.add.PTCONT.3309578",
      "street": "R ENG ADELINO AMARO DA COSTA",
      "house": "337",
      "postcode": "2775-149",
      "city": "PAREDE",
      "lon": "-9.36188733064121",
      "lat": "38.69767903554393"
    },
    {
      "id": "pt.ine.add.PTCONT.3309579",
      "street": "R ENG ADELINO AMARO COSTA",
      "house": "15",
      "postcode": "2775-149",
      "city": "PAREDE",
      "lon": "-9.36188733064121",
      "lat": "38.69767903554393"
    },
    {
      "id": "pt.ine.add.PTCONT.3309580",
      "street": "R ENG ADELINO AMARO DA COSTA",
      "house": "337",
      "postcode": "2775-149",
      "city": "PAREDE",
      "lon": "-9.36188733064121",
      "lat": "38.69767903554393"
    },
    {
      "id": "pt.ine.add.PTCONT.3309757",
      "street": "R ENG ADELINO AMARO DA COSTA",
      "house": "337",
      "postcode": "2775-149",
      "city": "PAREDE",
      "lon": "-9.36188733064121",
      "lat": "38.69767903554393"
    },
    {
      "id": "pt.ine.add.PTCONT.3309758",
      "street": "R ENG ADELINO AMARO DA COSTA",
      "house": "337",
      "postcode": "2775-149",
      "city": "PAREDE",
      "lon": "-9.36188733064121",
      "lat": "38.69767903554393"
    },
    {
      "id": "pt.ine.add.PTCONT.3309759",
      "street": "R ENG ADELINO AMARO DA COSTA",
      "house": "337",
      "postcode": "2775-149",
      "city": "PAREDE",
      "lon": "-9.36188733064121",
      "lat": "38.69767903554393"
    },
    {
      "id": "pt.ine.add.PTCONT.3309760",
      "street": "R ENG ADELINO AMARO DA COSTA",
      "house": "337",
      "postcode": "2775-149",
      "city": "PAREDE",
      "lon": "-9.36188733064121",
      "lat": "38.69767903554393"
    },
    {
      "id": "pt.ine.add.PTCONT.3311813",
      "street": "R ENG ADELINO AMARO DA COSTA",
      "house": "337",
      "postcode": "2775-149",
      "city": "PAREDE",
      "lon": "-9.36188733064121",
      "lat": "38.69767903554393"
    },
    {
      "id": "pt.ine.add.PTCONT.3313210",
      "street": "R BELA VISTA",
      "house": "",
      "postcode": "2775-076",
      "city": "PAREDE",
      "lon": "-9.36229311114485",
      "lat": "38.69788194892861"
    },
    {
      "id": "pt.ine.add.PTCONT.3313211",
      "street": "R BELA VISTA",
      "house": "",
      "postcode": "2775-076",
      "city": "PAREDE",
      "lon": "-9.36229311114485",
      "lat": "38.69788194892861"
    },
    {
      "id": "pt.ine.add.PTCONT.3313212",
      "street": "R BELA VISTA",
      "house": "",
      "postcode": "2775-076",
      "city": "PAREDE",
      "lon": "-9.36229311114485",
      "lat": "38.69788194892861"
    },
    {
      "id": "pt.ine.add.PTCONT.3313213",
      "street": "R BELA VISTA",
      "house": "",
      "postcode": "2775-076",
      "city": "PAREDE",
      "lon": "-9.36229311114485",
      "lat": "38.69788194892861"
    },
    {
      "id": "pt.ine.add.PTCONT.3313214",
      "street": "R BELA VISTA",
      "house": "",
      "postcode": "2775-076",
      "city": "PAREDE",
      "lon": "-9.36229311114485",
      "lat": "38.69788194892861"
    },
    {
      "id": "pt.ine.add.PTCONT.3313215",
      "street": "R BELA VISTA",
      "house": "",
      "postcode": "2775-076",
      "city": "PAREDE",
      "lon": "-9.36229311114485",
      "lat": "38.69788194892861"
    },
    {
      "id": "pt.ine.add.PTCONT.3313216",
      "street": "R BELA VISTA",
      "house": "",
      "postcode": "2775-076",
      "city": "PAREDE",
      "lon": "-9.36229311114485",
      "lat": "38.69788194892861"
    },
    {
      "id": "pt.ine.add.PTCONT.3313217",
      "street": "R BELA VISTA",
      "house": "",
      "postcode": "2775-076",
      "city": "PAREDE",
      "lon": "-9.36229311114485",
      "lat": "38.69788194892861"
    },
    {
      "id": "pt.ine.add.PTCONT.3313218",
      "street": "R BELA VISTA",
      "house": "",
      "postcode": "2775-076",
      "city": "PAREDE",
      "lon": "-9.36229311114485",
      "lat": "38.69788194892861"
    },
    {
      "id": "pt.ine.add.PTCONT.3313219",
      "street": "R BELA VISTA",
      "house": "",
      "postcode": "2775-076",
      "city": "PAREDE",
      "lon": "-9.36229311114485",
      "lat": "38.69788194892861"
    },
    {
      "id": "pt.ine.add.PTCONT.3313231",
      "street": "R BELA VISTA",
      "house": "",
      "postcode": "2775-076",
      "city": "PAREDE",
      "lon": "-9.36229311114485",
      "lat": "38.69788194892861"
    },
    {
      "id": "pt.ine.add.PTCONT.3313232",
      "street": "R BELA VISTA",
      "house": "",
      "postcode": "2775-076",
      "city": "PAREDE",
      "lon": "-9.36229311114485",
      "lat": "38.69788194892861"
    },
    {
      "id": "pt.ine.add.PTCONT.3313346",
      "street": "R BELA VISTA",
      "house": "",
      "postcode": "2775-076",
      "city": "PAREDE",
      "lon": "-9.36229311114485",
      "lat": "38.69788194892861"
    },
    {
      "id": "pt.ine.add.PTCONT.3313354",
      "street": "R BELA VISTA",
      "house": "",
      "postcode": "2775-076",
      "city": "PAREDE",
      "lon": "-9.36229311114485",
      "lat": "38.69788194892861"
    },
    {
      "id": "pt.ine.add.PTCONT.3315195",
      "street": "R PINHAL",
      "house": "250",
      "postcode": "2775-354",
      "city": "PAREDE",
      "lon": "-9.365691883401595",
      "lat": "38.69834159585531"
    },
    {
      "id": "pt.ine.add.PTCONT.3333722",
      "street": "R PINHAL",
      "house": "208",
      "postcode": "2775-354",
      "city": "PAREDE",
      "lon": "-9.3651970873602",
      "lat": "38.698310779843176"
    },
    {
      "id": "pt.ine.add.PTCONT.3342920",
      "street": "R GIRASSOL",
      "house": "56",
      "postcode": "2775-358",
      "city": "PAREDE",
      "lon": "-9.364003651454182",
      "lat": "38.69909801710953"
    },
    {
      "id": "pt.ine.add.PTCONT.3342925",
      "street": "R BELA VISTA",
      "house": "7",
      "postcode": "2775-076",
      "city": "PAREDE",
      "lon": "-9.362762679814429",
      "lat": "38.69845350828455"
    },
    {
      "id": "pt.ine.add.PTCONT.3351756",
      "street": "R PAPOILAS",
      "house": "",
      "postcode": "2775-359",
      "city": "PAREDE",
      "lon": "-9.364293039881197",
      "lat": "38.6985454968746"
    },
    {
      "id": "pt.ine.add.PTCONT.3360400",
      "street": "R PINHAL",
      "house": "132",
      "postcode": "2775-354",
      "city": "PAREDE",
      "lon": "-9.364308303640547",
      "lat": "38.69809494812403"
    },
    {
      "id": "pt.ine.add.PTCONT.3370016",
      "street": "R BELA VISTA",
      "house": "2",
      "postcode": "2775-076",
      "city": "PAREDE",
      "lon": "-9.362278451428486",
      "lat": "38.698368522204106"
    },
    {
      "id": "pt.ine.add.PTCONT.3386527",
      "street": "R FLORBELA ESPANCA",
      "house": "11",
      "postcode": "2775-091",
      "city": "PAREDE",
      "lon": "-9.361520007834082",
      "lat": "38.69905207515551"
    },
    {
      "id": "pt.ine.add.PTCONT.3393872",
      "street": "R BELA VISTA",
      "house": "22",
      "postcode": "2775-076",
      "city": "PAREDE",
      "lon": "-9.362236952167814",
      "lat": "38.698630183555274"
    },
    {
      "id": "pt.ine.add.PTCONT.3398373",
      "street": "AV ALM JOÃO DE AZEVEDO COUTINHO",
      "house": "503",
      "postcode": "2775-101",
      "city": "PAREDE",
      "lon": "-9.365403224876145",
      "lat": "38.69960572471512"
    },
    {
      "id": "pt.ine.add.PTCONT.3406930",
      "street": "R ENG ADELINO AMARO DA COSTA",
      "house": "17",
      "postcode": "2775-149",
      "city": "PAREDE",
      "lon": "-9.36177077678443",
      "lat": "38.698256757205215"
    },
    {
      "id": "pt.ine.add.PTCONT.3406931",
      "street": "R ENG ADELINO AMARO DA COSTA",
      "house": "17",
      "postcode": "2775-149",
      "city": "PAREDE",
      "lon": "-9.36177077678443",
      "lat": "38.698256757205215"
    },
    {
      "id": "pt.ine.add.PTCONT.3406932",
      "street": "R ENG ADELINO AMARO DA COSTA",
      "house": "17",
      "postcode": "2775-149",
      "city": "PAREDE",
      "lon": "-9.36177077678443",
      "lat": "38.698256757205215"
    },
    {
      "id": "pt.ine.add.PTCONT.3406933",
      "street": "R ENG ADELINO AMARO DA COSTA",
      "house": "17",
      "postcode": "2775-149",
      "city": "PAREDE",
      "lon": "-9.36177077678443",
      "lat": "38.698256757205215"
    },
    {
      "id": "pt.ine.add.PTCONT.3406934",
      "street": "R ENG ADELINO AMARO COSTA",
      "house": "17 BLC",
      "postcode": "2775-149",
      "city": "PAREDE",
      "lon": "-9.36177077678443",
      "lat": "38.698256757205215"
    },
    {
      "id": "pt.ine.add.PTCONT.3413336",
      "street": "R ENG ADELINO AMARO DA COSTA",
      "house": "17",
      "postcode": "2775-149",
      "city": "PAREDE",
      "lon": "-9.36177077678443",
      "lat": "38.698256757205215"
    },
    {
      "id": "pt.ine.add.PTCONT.3424955",
      "street": "R FLORBELA ESPANCA",
      "house": "81",
      "postcode": "2775-091",
      "city": "PAREDE",
      "lon": "-9.361883456738278",
      "lat": "38.698796038792786"
    },
    {
      "id": "pt.ine.add.PTCONT.3436531",
      "street": "R PINHAL",
      "house": "124",
      "postcode": "2775-354",
      "city": "PAREDE",
      "lon": "-9.364079534919153",
      "lat": "38.69816041116365"
    },
    {
      "id": "pt.ine.add.PTCONT.3437854",
      "street": "R ENG ADELINO AMARO DA COSTA",
      "house": "357",
      "postcode": "2775-149",
      "city": "PAREDE",
      "lon": "-9.361832950800832",
      "lat": "38.69785976228587"
    },
    {
      "id": "pt.ine.add.PTCONT.3438444",
      "street": "R ENG ADELINO AMARO DA COSTA",
      "house": "",
      "postcode": "2775-149",
      "city": "PAREDE",
      "lon": "-9.361761749980833",
      "lat": "38.69840097625897"
    },
    {
      "id": "pt.ine.add.PTCONT.3440146",
      "street": "R CIPRESTES",
      "house": "83",
      "postcode": "2775-357",
      "city": "PAREDE",
      "lon": "-9.362865806928546",
      "lat": "38.69709225155523"
    },
    {
      "id": "pt.ine.add.PTCONT.3440634",
      "street": "R BELA VISTA",
      "house": "17",
      "postcode": "2775-076",
      "city": "PAREDE",
      "lon": "-9.36272079929876",
      "lat": "38.69802157616163"
    },
    {
      "id": "pt.ine.add.PTCONT.3444364",
      "street": "R CIPRESTES",
      "house": "129",
      "postcode": "2775-357",
      "city": "PAREDE",
      "lon": "-9.363331208672777",
      "lat": "38.69742064294728"
    },
    {
      "id": "pt.ine.add.PTCONT.3444752",
      "street": "R ENG ADELINO AMARO DA COSTA",
      "house": "17",
      "postcode": "2775-149",
      "city": "PAREDE",
      "lon": "-9.36177077678443",
      "lat": "38.698256757205215"
    },
    {
      "id": "pt.ine.add.PTCONT.3445612",
      "street": "R BELA VISTA",
      "house": "",
      "postcode": "2775-076",
      "city": "PAREDE",
      "lon": "-9.36229311114485",
      "lat": "38.69788194892861"
    },
    {
      "id": "pt.ine.add.PTCONT.3445694",
      "street": "AV ALM JOAO AZEVEDO COUTINHO",
      "house": "643",
      "postcode": "2775-101",
      "city": "PAREDE",
      "lon": "-9.36687475560235",
      "lat": "38.6996172295247"
    },
    {
      "id": "pt.ine.add.PTCONT.3446398",
      "street": "R CIPRESTES",
      "house": "113",
      "postcode": "2775-357",
      "city": "PAREDE",
      "lon": "-9.363190986009522",
      "lat": "38.6972870017886"
    },
    {
      "id": "pt.ine.add.PTCONT.3454161",
      "street": "R CIPRESTES",
      "house": "71",
      "postcode": "2775-357",
      "city": "PAREDE",
      "lon": "-9.362488256439823",
      "lat": "38.697195307265254"
    },
    {
      "id": "pt.ine.add.PTCONT.3457841",
      "street": "R ENG ADELINO AMARO DA COSTA",
      "house": "317",
      "postcode": "2775-149",
      "city": "PAREDE",
      "lon": "-9.36193021783043",
      "lat": "38.6974984295569"
    },
    {
      "id": "pt.ine.add.PTCONT.2296497",
      "street": "AV ALM JOÃO DE AZEVEDO COUTINHO",
      "house": "673",
      "postcode": "2775-101",
      "city": "PAREDE",
      "lon": "-9.367198873301511",
      "lat": "38.699748925300646"
    },
    {
      "id": "pt.ine.add.PTCONT.2305195",
      "street": "R ENG ADELINO AMARO DA COSTA",
      "house": "377",
      "postcode": "2775-149",
      "city": "PAREDE",
      "lon": "-9.361778570698181",
      "lat": "38.698040489001535"
    },
    {
      "id": "pt.ine.add.PTCONT.2305196",
      "street": "R ENG ADELINO AMARO DA COSTA",
      "house": "377",
      "postcode": "2775-149",
      "city": "PAREDE",
      "lon": "-9.361778570698181",
      "lat": "38.698040489001535"
    },
    {
      "id": "pt.ine.add.PTCONT.2305197",
      "street": "R ENG ADELINO AMARO DA COSTA",
      "house": "377",
      "postcode": "2775-149",
      "city": "PAREDE",
      "lon": "-9.361778570698181",
      "lat": "38.698040489001535"
    },
    {
      "id": "pt.ine.add.PTCONT.2305198",
      "street": "R ENG ADELINO AMARO DA COSTA",
      "house": "377",
      "postcode": "2775-149",
      "city": "PAREDE",
      "lon": "-9.361778570698181",
      "lat": "38.698040489001535"
    },
    {
      "id": "pt.ine.add.PTCONT.2305199",
      "street": "R ENG ADELINO AMARO DA COSTA",
      "house": "377",
      "postcode": "2775-149",
      "city": "PAREDE",
      "lon": "-9.361778570698181",
      "lat": "38.698040489001535"
    },
    {
      "id": "pt.ine.add.PTCONT.2305200",
      "street": "R ENG ADELINO AMARO DA COSTA",
      "house": "377",
      "postcode": "2775-149",
      "city": "PAREDE",
      "lon": "-9.361778570698181",
      "lat": "38.698040489001535"
    },
    {
      "id": "pt.ine.add.PTCONT.2305201",
      "street": "R ENG ADELINO AMARO DA COSTA",
      "house": "377",
      "postcode": "2775-149",
      "city": "PAREDE",
      "lon": "-9.361778570698181",
      "lat": "38.698040489001535"
    },
    {
      "id": "pt.ine.add.PTCONT.2305202",
      "street": "R ENG ADELINO AMARO DA COSTA",
      "house": "377",
      "postcode": "2775-149",
      "city": "PAREDE",
      "lon": "-9.361778570698181",
      "lat": "38.698040489001535"
    },
    {
      "id": "pt.ine.add.PTCONT.2305203",
      "street": "R ENG ADELINO AMARO DA COSTA",
      "house": "377",
      "postcode": "2775-149",
      "city": "PAREDE",
      "lon": "-9.361778570698181",
      "lat": "38.698040489001535"
    },
    {
      "id": "pt.ine.add.PTCONT.2314262",
      "street": "AV ALM JOÃO DE AZEVEDO COUTINHO",
      "house": "337",
      "postcode": "2775-101",
      "city": "PAREDE",
      "lon": "-9.363629796537754",
      "lat": "38.69941722384948"
    },
    {
      "id": "pt.ine.add.PTCONT.2350645",
      "street": "R PINHAL",
      "house": "21",
      "postcode": "2775-354",
      "city": "PAREDE",
      "lon": "-9.363673593593246",
      "lat": "38.6979484979609"
    },
    {
      "id": "pt.ine.add.PTCONT.2350688",
      "street": "R CIPRESTES",
      "house": "151",
      "postcode": "2775-357",
      "city": "PAREDE",
      "lon": "-9.363459785153438",
      "lat": "38.697545398719434"
    },
    {
      "id": "pt.ine.add.PTCONT.2350689",
      "street": "R CIPRESTES",
      "house": "151",
      "postcode": "2775-357",
      "city": "PAREDE",
      "lon": "-9.363459785153438",
      "lat": "38.697545398719434"
    },
    {
      "id": "pt.ine.add.PTCONT.2350690",
      "street": "R CIPRESTES",
      "house": "151",
      "postcode": "2775-357",
      "city": "PAREDE",
      "lon": "-9.363459785153438",
      "lat": "38.697545398719434"
    },
    {
      "id": "pt.ine.add.PTCONT.2350691",
      "street": "R CIPRESTES",
      "house": "151",
      "postcode": "2775-357",
      "city": "PAREDE",
      "lon": "-9.363459785153438",
      "lat": "38.697545398719434"
    },
    {
      "id": "pt.ine.add.PTCONT.2350692",
      "street": "R CIPRESTES",
      "house": "151",
      "postcode": "2775-357",
      "city": "PAREDE",
      "lon": "-9.363459785153438",
      "lat": "38.697545398719434"
    },
    {
      "id": "pt.ine.add.PTCONT.2350693",
      "street": "R CIPRESTES",
      "house": "151",
      "postcode": "2775-357",
      "city": "PAREDE",
      "lon": "-9.363459785153438",
      "lat": "38.697545398719434"
    },
    {
      "id": "pt.ine.add.PTCONT.2350694",
      "street": "R CIPRESTES",
      "house": "151",
      "postcode": "2775-357",
      "city": "PAREDE",
      "lon": "-9.363459785153438",
      "lat": "38.697545398719434"
    },
    {
      "id": "pt.ine.add.PTCONT.2350695",
      "street": "R CIPRESTES",
      "house": "151",
      "postcode": "2775-357",
      "city": "PAREDE",
      "lon": "-9.363459785153438",
      "lat": "38.697545398719434"
    },
    {
      "id": "pt.ine.add.PTCONT.2350696",
      "street": "R CIPRESTES",
      "house": "151",
      "postcode": "2775-357",
      "city": "PAREDE",
      "lon": "-9.363459785153438",
      "lat": "38.697545398719434"
    },
    {
      "id": "pt.ine.add.PTCONT.2350697",
      "street": "R CIPRESTES",
      "house": "151",
      "postcode": "2775-357",
      "city": "PAREDE",
      "lon": "-9.363459785153438",
      "lat": "38.697545398719434"
    },
    {
      "id": "pt.ine.add.PTCONT.2350698",
      "street": "R CIPRESTES",
      "house": "151",
      "postcode": "2775-357",
      "city": "PAREDE",
      "lon": "-9.363459785153438",
      "lat": "38.697545398719434"
    },
    {
      "id": "pt.ine.add.PTCONT.2350699",
      "street": "R CIPRESTES",
      "house": "151",
      "postcode": "2775-357",
      "city": "PAREDE",
      "lon": "-9.363459785153438",
      "lat": "38.697545398719434"
    },
    {
      "id": "pt.ine.add.PTCONT.2350708",
      "street": "R FLORBELA ESPANCA",
      "house": "495",
      "postcode": "2775-091",
      "city": "PAREDE",
      "lon": "-9.361461157979504",
      "lat": "38.69897162357688"
    },
    {
      "id": "pt.ine.add.PTCONT.2356591",
      "street": "R CIPRESTES",
      "house": "151",
      "postcode": "2775-357",
      "city": "PAREDE",
      "lon": "-9.363459785153438",
      "lat": "38.697545398719434"
    },
    {
      "id": "pt.ine.add.PTCONT.2367102",
      "street": "AV ALM JOÃO DE AZEVEDO COUTINHO",
      "house": "615",
      "postcode": "2775-101",
      "city": "PAREDE",
      "lon": "-9.365598446360668",
      "lat": "38.699594659257606"
    },
    {
      "id": "pt.ine.add.PTCONT.2377905",
      "street": "R PAPOILAS",
      "house": "5",
      "postcode": "2775-359",
      "city": "PAREDE",
      "lon": "-9.36378983758103",
      "lat": "38.698694918636185"
    },
    {
      "id": "pt.ine.add.PTCONT.2377906",
      "street": "R PINHAL",
      "house": "104",
      "postcode": "2775-354",
      "city": "PAREDE",
      "lon": "-9.363778877966098",
      "lat": "38.698055482976905"
    },
    {
      "id": "pt.ine.add.PTCONT.2387084",
      "street": "AV ALM JOÃO DE AZEVEDO COUTINHO",
      "house": "83",
      "postcode": "2775-101",
      "city": "PAREDE",
      "lon": "-9.367449700501576",
      "lat": "38.69962917675253"
    },
    {
      "id": "pt.ine.add.PTCONT.2396396",
      "street": "R PINHAL",
      "house": "230",
      "postcode": "2775-354",
      "city": "PAREDE",
      "lon": "-9.365381276549638",
      "lat": "38.698326854299566"
    },
    {
      "id": "pt.ine.add.PTCONT.2396420",
      "street": "R CIPRESTES",
      "house": "71",
      "postcode": "2775-357",
      "city": "PAREDE",
      "lon": "-9.362488256439823",
      "lat": "38.697195307265254"
    },
    {
      "id": "pt.ine.add.PTCONT.2396421",
      "street": "R CIPRESTES",
      "house": "71",
      "postcode": "2775-357",
      "city": "PAREDE",
      "lon": "-9.362488256439823",
      "lat": "38.697195307265254"
    },
    {
      "id": "pt.ine.add.PTCONT.2396422",
      "street": "R CIPRESTES",
      "house": "71",
      "postcode": "2775-357",
      "city": "PAREDE",
      "lon": "-9.362488256439823",
      "lat": "38.697195307265254"
    },
    {
      "id": "pt.ine.add.PTCONT.2396423",
      "street": "R CIPRESTES",
      "house": "71",
      "postcode": "2775-357",
      "city": "PAREDE",
      "lon": "-9.362488256439823",
      "lat": "38.697195307265254"
    },
    {
      "id": "pt.ine.add.PTCONT.2396424",
      "street": "R CIPRESTES",
      "house": "71",
      "postcode": "2775-357",
      "city": "PAREDE",
      "lon": "-9.362488256439823",
      "lat": "38.697195307265254"
    },
    {
      "id": "pt.ine.add.PTCONT.2396425",
      "street": "R CIPRESTES",
      "house": "71",
      "postcode": "2775-357",
      "city": "PAREDE",
      "lon": "-9.362488256439823",
      "lat": "38.697195307265254"
    },
    {
      "id": "pt.ine.add.PTCONT.2396426",
      "street": "R CIPRESTES",
      "house": "71",
      "postcode": "2775-357",
      "city": "PAREDE",
      "lon": "-9.362488256439823",
      "lat": "38.697195307265254"
    },
    {
      "id": "pt.ine.add.PTCONT.2396427",
      "street": "R CIPRESTES",
      "house": "71",
      "postcode": "2775-357",
      "city": "PAREDE",
      "lon": "-9.362488256439823",
      "lat": "38.697195307265254"
    },
    {
      "id": "pt.ine.add.PTCONT.2396428",
      "street": "R CIPRESTES",
      "house": "71",
      "postcode": "2775-357",
      "city": "PAREDE",
      "lon": "-9.362488256439823",
      "lat": "38.697195307265254"
    },
    {
      "id": "pt.ine.add.PTCONT.2396429",
      "street": "R CIPRESTES",
      "house": "71",
      "postcode": "2775-357",
      "city": "PAREDE",
      "lon": "-9.362488256439823",
      "lat": "38.697195307265254"
    },
    {
      "id": "pt.ine.add.PTCONT.2396430",
      "street": "R CIPRESTES",
      "house": "71",
      "postcode": "2775-357",
      "city": "PAREDE",
      "lon": "-9.362488256439823",
      "lat": "38.697195307265254"
    },
    {
      "id": "pt.ine.add.PTCONT.2396431",
      "street": "R CIPRESTES",
      "house": "71",
      "postcode": "2775-357",
      "city": "PAREDE",
      "lon": "-9.362488256439823",
      "lat": "38.697195307265254"
    },
    {
      "id": "pt.ine.add.PTCONT.2396432",
      "street": "R CIPRESTES",
      "house": "71",
      "postcode": "2775-357",
      "city": "PAREDE",
      "lon": "-9.362488256439823",
      "lat": "38.697195307265254"
    },
    {
      "id": "pt.ine.add.PTCONT.2396433",
      "street": "R CIPRESTES",
      "house": "71",
      "postcode": "2775-357",
      "city": "PAREDE",
      "lon": "-9.362488256439823",
      "lat": "38.697195307265254"
    },
    {
      "id": "pt.ine.add.PTCONT.2403030",
      "street": "R CIPRESTES",
      "house": "71",
      "postcode": "2775-357",
      "city": "PAREDE",
      "lon": "-9.362488256439823",
      "lat": "38.697195307265254"
    },
    {
      "id": "pt.ine.add.PTCONT.2414926",
      "street": "R PINHAL",
      "house": "110",
      "postcode": "2775-354",
      "city": "PAREDE",
      "lon": "-9.364031094731631",
      "lat": "38.698016796958456"
    },
    {
      "id": "pt.ine.add.PTCONT.2429971",
      "street": "R MAJ CORREIA LEITE",
      "house": "20A",
      "postcode": "2775-084",
      "city": "PAREDE",
      "lon": "-9.36278882494294",
      "lat": "38.699308970591616"
    },
    {
      "id": "pt.ine.add.PTCONT.2445419",
      "street": "R PAPOILAS",
      "house": "",
      "postcode": "2775-359",
      "city": "PAREDE",
      "lon": "-9.365159771230893",
      "lat": "38.69881560759152"
    },
    {
      "id": "pt.ine.add.PTCONT.2445554",
      "street": "R ENG ADELINO AMARO DA COSTA",
      "house": "317",
      "postcode": "2775-149",
      "city": "PAREDE",
      "lon": "-9.36193021783043",
      "lat": "38.6974984295569"
    },
    {
      "id": "pt.ine.add.PTCONT.2445555",
      "street": "R ENG ADELINO AMARO DA COSTA",
      "house": "317",
      "postcode": "2775-149",
      "city": "PAREDE",
      "lon": "-9.36193021783043",
      "lat": "38.6974984295569"
    },
    {
      "id": "pt.ine.add.PTCONT.2445556",
      "street": "R ENG ADELINO AMARO DA COSTA",
      "house": "317",
      "postcode": "2775-149",
      "city": "PAREDE",
      "lon": "-9.36193021783043",
      "lat": "38.6974984295569"
    },
    {
      "id": "pt.ine.add.PTCONT.2445557",
      "street": "R ENG ADELINO AMARO DA COSTA",
      "house": "317",
      "postcode": "2775-149",
      "city": "PAREDE",
      "lon": "-9.36193021783043",
      "lat": "38.6974984295569"
    },
    {
      "id": "pt.ine.add.PTCONT.2445558",
      "street": "R ENG ADELINO AMARO DA COSTA",
      "house": "317",
      "postcode": "2775-149",
      "city": "PAREDE",
      "lon": "-9.36193021783043",
      "lat": "38.6974984295569"
    },
    {
      "id": "pt.ine.add.PTCONT.2445559",
      "street": "R ENG ADELINO AMARO DA COSTA",
      "house": "317",
      "postcode": "2775-149",
      "city": "PAREDE",
      "lon": "-9.36193021783043",
      "lat": "38.6974984295569"
    },
    {
      "id": "pt.ine.add.PTCONT.2445560",
      "street": "R ENG ADELINO AMARO DA COSTA",
      "house": "317",
      "postcode": "2775-149",
      "city": "PAREDE",
      "lon": "-9.36193021783043",
      "lat": "38.6974984295569"
    },
    {
      "id": "pt.ine.add.PTCONT.2445561",
      "street": "R ENG ADELINO AMARO DA COSTA",
      "house": "317",
      "postcode": "2775-149",
      "city": "PAREDE",
      "lon": "-9.36193021783043",
      "lat": "38.6974984295569"
    },
    {
      "id": "pt.ine.add.PTCONT.2448385",
      "street": "R ENG ADELINO AMARO DA COSTA",
      "house": "317",
      "postcode": "2775-149",
      "city": "PAREDE",
      "lon": "-9.36193021783043",
      "lat": "38.6974984295569"
    },
    {
      "id": "pt.ine.add.PTCONT.2492934",
      "street": "R PINHAL",
      "house": "280",
      "postcode": "2775-354",
      "city": "PAREDE",
      "lon": "-9.36459725230696",
      "lat": "38.698857564736684"
    },
    {
      "id": "pt.ine.add.PTCONT.2492935",
      "street": "R ENG ADELINO AMARO DA COSTA",
      "house": "",
      "postcode": "2775-149",
      "city": "PAREDE",
      "lon": "-9.361718861887779",
      "lat": "38.69858158217273"
    },
    {
      "id": "pt.ine.add.PTCONT.2493021",
      "street": "R ENG ADELINO AMARO DA COSTA",
      "house": "",
      "postcode": "2775-149",
      "city": "PAREDE",
      "lon": "-9.361718861887779",
      "lat": "38.69858158217273"
    },
    {
      "id": "pt.ine.add.PTCONT.2493022",
      "street": "R ENG ADELINO AMARO DA COSTA",
      "house": "",
      "postcode": "2775-149",
      "city": "PAREDE",
      "lon": "-9.361718861887779",
      "lat": "38.69858158217273"
    },
    {
      "id": "pt.ine.add.PTCONT.2493023",
      "street": "R ENG ADELINO AMARO DA COSTA",
      "house": "",
      "postcode": "2775-149",
      "city": "PAREDE",
      "lon": "-9.361718861887779",
      "lat": "38.69858158217273"
    },
    {
      "id": "pt.ine.add.PTCONT.2493024",
      "street": "R ENG ADELINO AMARO DA COSTA",
      "house": "",
      "postcode": "2775-149",
      "city": "PAREDE",
      "lon": "-9.361718861887779",
      "lat": "38.69858158217273"
    },
    {
      "id": "pt.ine.add.PTCONT.2493421",
      "street": "R ENG ADELINO AMARO DA COSTA",
      "house": "",
      "postcode": "2775-149",
      "city": "PAREDE",
      "lon": "-9.361718861887779",
      "lat": "38.69858158217273"
    },
    {
      "id": "pt.ine.add.PTCONT.2493745",
      "street": "R ENG ADELINO AMARO DA COSTA",
      "house": "",
      "postcode": "2775-149",
      "city": "PAREDE",
      "lon": "-9.361718861887779",
      "lat": "38.69858158217273"
    },
    {
      "id": "pt.ine.add.PTCONT.2498321",
      "street": "R CIPRESTES",
      "house": "15",
      "postcode": "2775-357",
      "city": "PAREDE",
      "lon": "-9.362152203920674",
      "lat": "38.69703670041238"
    },
    {
      "id": "pt.ine.add.PTCONT.2498322",
      "street": "R CIPRESTES",
      "house": "15",
      "postcode": "2775-357",
      "city": "PAREDE",
      "lon": "-9.362152203920674",
      "lat": "38.69703670041238"
    },
    {
      "id": "pt.ine.add.PTCONT.2498323",
      "street": "R CIPRESTES",
      "house": "15",
      "postcode": "2775-357",
      "city": "PAREDE",
      "lon": "-9.362152203920674",
      "lat": "38.69703670041238"
    },
    {
      "id": "pt.ine.add.PTCONT.2498324",
      "street": "R CIPRESTES",
      "house": "15",
      "postcode": "2775-357",
      "city": "PAREDE",
      "lon": "-9.362152203920674",
      "lat": "38.69703670041238"
    },
    {
      "id": "pt.ine.add.PTCONT.2498325",
      "street": "R CIPRESTES",
      "house": "15",
      "postcode": "2775-357",
      "city": "PAREDE",
      "lon": "-9.362152203920674",
      "lat": "38.69703670041238"
    },
    {
      "id": "pt.ine.add.PTCONT.2498326",
      "street": "R CIPRESTES",
      "house": "15",
      "postcode": "2775-357",
      "city": "PAREDE",
      "lon": "-9.362152203920674",
      "lat": "38.69703670041238"
    },
    {
      "id": "pt.ine.add.PTCONT.2498403",
      "street": "R CIPRESTES",
      "house": "15",
      "postcode": "2775-357",
      "city": "PAREDE",
      "lon": "-9.362152203920674",
      "lat": "38.69703670041238"
    },
    {
      "id": "pt.ine.add.PTCONT.2498404",
      "street": "R CIPRESTES",
      "house": "15",
      "postcode": "2775-357",
      "city": "PAREDE",
      "lon": "-9.362152203920674",
      "lat": "38.69703670041238"
    },
    {
      "id": "pt.ine.add.PTCONT.2498405",
      "street": "R CIPRESTES",
      "house": "15",
      "postcode": "2775-357",
      "city": "PAREDE",
      "lon": "-9.362152203920674",
      "lat": "38.69703670041238"
    },
    {
      "id": "pt.ine.add.PTCONT.2498406",
      "street": "R CIPRESTES",
      "house": "15",
      "postcode": "2775-357",
      "city": "PAREDE",
      "lon": "-9.362152203920674",
      "lat": "38.69703670041238"
    },
    {
      "id": "pt.ine.add.PTCONT.2498407",
      "street": "R CIPRESTES",
      "house": "15",
      "postcode": "2775-357",
      "city": "PAREDE",
      "lon": "-9.362152203920674",
      "lat": "38.69703670041238"
    },
    {
      "id": "pt.ine.add.PTCONT.2514290",
      "street": "R PINHAL",
      "house": "164",
      "postcode": "2775-354",
      "city": "PAREDE",
      "lon": "-9.36466596053384",
      "lat": "38.69817225129044"
    },
    {
      "id": "pt.ine.add.PTCONT.2514323",
      "street": "AV ALM JOÃO DE AZEVEDO COUTINHO",
      "house": "309",
      "postcode": "2775-101",
      "city": "PAREDE",
      "lon": "-9.363309389992517",
      "lat": "38.69950166530478"
    },
    {
      "id": "pt.ine.add.PTCONT.2568528",
      "street": "R CIPRESTES",
      "house": "97",
      "postcode": "2775-357",
      "city": "PAREDE",
      "lon": "-9.363051226656882",
      "lat": "38.697180378871344"
    },
    {
      "id": "pt.ine.add.PTCONT.2568529",
      "street": "R CIPRESTES",
      "house": "97",
      "postcode": "2775-357",
      "city": "PAREDE",
      "lon": "-9.363051226656882",
      "lat": "38.697180378871344"
    },
    {
      "id": "pt.ine.add.PTCONT.2568688",
      "street": "R CIPRESTES",
      "house": "97",
      "postcode": "2775-357",
      "city": "PAREDE",
      "lon": "-9.363051226656882",
      "lat": "38.697180378871344"
    },
    {
      "id": "pt.ine.add.PTCONT.2568689",
      "street": "R CIPRESTES",
      "house": "97",
      "postcode": "2775-357",
      "city": "PAREDE",
      "lon": "-9.363051226656882",
      "lat": "38.697180378871344"
    },
    {
      "id": "pt.ine.add.PTCONT.2568690",
      "street": "R CIPRESTES",
      "house": "97",
      "postcode": "2775-357",
      "city": "PAREDE",
      "lon": "-9.363051226656882",
      "lat": "38.697180378871344"
    },
    {
      "id": "pt.ine.add.PTCONT.2568691",
      "street": "R CIPRESTES",
      "house": "97",
      "postcode": "2775-357",
      "city": "PAREDE",
      "lon": "-9.363051226656882",
      "lat": "38.697180378871344"
    },
    {
      "id": "pt.ine.add.PTCONT.2568692",
      "street": "R CIPRESTES",
      "house": "97",
      "postcode": "2775-357",
      "city": "PAREDE",
      "lon": "-9.363051226656882",
      "lat": "38.697180378871344"
    },
    {
      "id": "pt.ine.add.PTCONT.2568693",
      "street": "R CIPRESTES",
      "house": "97",
      "postcode": "2775-357",
      "city": "PAREDE",
      "lon": "-9.363051226656882",
      "lat": "38.697180378871344"
    },
    {
      "id": "pt.ine.add.PTCONT.2568694",
      "street": "R CIPRESTES",
      "house": "97",
      "postcode": "2775-357",
      "city": "PAREDE",
      "lon": "-9.363051226656882",
      "lat": "38.697180378871344"
    },
    {
      "id": "pt.ine.add.PTCONT.2568695",
      "street": "R CIPRESTES",
      "house": "97",
      "postcode": "2775-357",
      "city": "PAREDE",
      "lon": "-9.363051226656882",
      "lat": "38.697180378871344"
    },
    {
      "id": "pt.ine.add.PTCONT.2568696",
      "street": "R CIPRESTES",
      "house": "97",
      "postcode": "2775-357",
      "city": "PAREDE",
      "lon": "-9.363051226656882",
      "lat": "38.697180378871344"
    },
    {
      "id": "pt.ine.add.PTCONT.2568697",
      "street": "R CIPRESTES",
      "house": "97",
      "postcode": "2775-357",
      "city": "PAREDE",
      "lon": "-9.363051226656882",
      "lat": "38.697180378871344"
    },
    {
      "id": "pt.ine.add.PTCONT.2571027",
      "street": "AV ALM JOÃO DE AZEVEDO COUTINHO",
      "house": "585",
      "postcode": "2775-101",
      "city": "PAREDE",
      "lon": "-9.366057381384444",
      "lat": "38.69954478185821"
    },
    {
      "id": "pt.ine.add.PTCONT.2574753",
      "street": "R CIPRESTES",
      "house": "97",
      "postcode": "2775-357",
      "city": "PAREDE",
      "lon": "-9.363051226656882",
      "lat": "38.697180378871344"
    },
    {
      "id": "pt.ine.add.PTCONT.2586734",
      "street": "R BELA VISTA",
      "house": "12",
      "postcode": "2775-076",
      "city": "PAREDE",
      "lon": "-9.362281534879939",
      "lat": "38.69854864502424"
    },
    {
      "id": "pt.ine.add.PTCONT.2616635",
      "street": "R GIRASSOL",
      "house": "39",
      "postcode": "2775-665",
      "city": "CARCAVELOS",
      "lon": "-9.364429033382594",
      "lat": "38.69910254589286"
    },
    {
      "id": "pt.ine.add.PTCONT.2665167",
      "street": "R ENG ADELINO AMARO DA COSTA",
      "house": "",
      "postcode": "2775-149",
      "city": "PAREDE",
      "lon": "-9.361761749980833",
      "lat": "38.69840097625897"
    },
    {
      "id": "pt.ine.add.PTCONT.2665168",
      "street": "R ENG ADELINO AMARO DA COSTA",
      "house": "",
      "postcode": "2775-149",
      "city": "PAREDE",
      "lon": "-9.361761749980833",
      "lat": "38.69840097625897"
    },
    {
      "id": "pt.ine.add.PTCONT.2665169",
      "street": "R ENG ADELINO AMARO DA COSTA",
      "house": "",
      "postcode": "2775-149",
      "city": "PAREDE",
      "lon": "-9.361761749980833",
      "lat": "38.69840097625897"
    },
    {
      "id": "pt.ine.add.PTCONT.2665170",
      "street": "R ENG ADELINO AMARO DA COSTA",
      "house": "",
      "postcode": "2775-149",
      "city": "PAREDE",
      "lon": "-9.361761749980833",
      "lat": "38.69840097625897"
    },
    {
      "id": "pt.ine.add.PTCONT.2665171",
      "street": "R ENG ADELINO AMARO DA COSTA",
      "house": "",
      "postcode": "2775-149",
      "city": "PAREDE",
      "lon": "-9.361761749980833",
      "lat": "38.69840097625897"
    },
    {
      "id": "pt.ine.add.PTCONT.2665172",
      "street": "R ENG ADELINO AMARO DA COSTA",
      "house": "",
      "postcode": "2775-149",
      "city": "PAREDE",
      "lon": "-9.361761749980833",
      "lat": "38.69840097625897"
    },
    {
      "id": "pt.ine.add.PTCONT.2665173",
      "street": "R ENG ADELINO AMARO DA COSTA",
      "house": "",
      "postcode": "2775-149",
      "city": "PAREDE",
      "lon": "-9.361761749980833",
      "lat": "38.69840097625897"
    },
    {
      "id": "pt.ine.add.PTCONT.2727850",
      "street": "AV ALM JOÃO DE AZEVEDO COUTINHO",
      "house": "351",
      "postcode": "2775-101",
      "city": "PAREDE",
      "lon": "-9.363949584761537",
      "lat": "38.69929675699109"
    },
    {
      "id": "pt.ine.add.PTCONT.2747004",
      "street": "R ENG ADELINO AMARO DA COSTA",
      "house": "357",
      "postcode": "2775-149",
      "city": "PAREDE",
      "lon": "-9.361832950800832",
      "lat": "38.69785976228587"
    },
    {
      "id": "pt.ine.add.PTCONT.2747005",
      "street": "R ENG ADELINO AMARO DA COSTA",
      "house": "357",
      "postcode": "2775-149",
      "city": "PAREDE",
      "lon": "-9.361832950800832",
      "lat": "38.69785976228587"
    },
    {
      "id": "pt.ine.add.PTCONT.2747006",
      "street": "R ENG ADELINO AMARO DA COSTA",
      "house": "357",
      "postcode": "2775-149",
      "city": "PAREDE",
      "lon": "-9.361832950800832",
      "lat": "38.69785976228587"
    },
    {
      "id": "pt.ine.add.PTCONT.2747007",
      "street": "R ENG ADELINO AMARO DA COSTA",
      "house": "357",
      "postcode": "2775-149",
      "city": "PAREDE",
      "lon": "-9.361832950800832",
      "lat": "38.69785976228587"
    },
    {
      "id": "pt.ine.add.PTCONT.2747008",
      "street": "R ENG ADELINO AMARO DA COSTA",
      "house": "357",
      "postcode": "2775-149",
      "city": "PAREDE",
      "lon": "-9.361832950800832",
      "lat": "38.69785976228587"
    },
    {
      "id": "pt.ine.add.PTCONT.2747009",
      "street": "R ENG ADELINO AMARO DA COSTA",
      "house": "357",
      "postcode": "2775-149",
      "city": "PAREDE",
      "lon": "-9.361832950800832",
      "lat": "38.69785976228587"
    },
    {
      "id": "pt.ine.add.PTCONT.2747010",
      "street": "R ENG ADELINO AMARO DA COSTA",
      "house": "357",
      "postcode": "2775-149",
      "city": "PAREDE",
      "lon": "-9.361832950800832",
      "lat": "38.69785976228587"
    },
    {
      "id": "pt.ine.add.PTCONT.2747011",
      "street": "R ENG ADELINO AMARO DA COSTA",
      "house": "357",
      "postcode": "2775-149",
      "city": "PAREDE",
      "lon": "-9.361832950800832",
      "lat": "38.69785976228587"
    },
    {
      "id": "pt.ine.add.PTCONT.2747012",
      "street": "R ENG ADELINO AMARO DA COSTA",
      "house": "357",
      "postcode": "2775-149",
      "city": "PAREDE",
      "lon": "-9.361832950800832",
      "lat": "38.69785976228587"
    },
    {
      "id": "pt.ine.add.PTCONT.2760086",
      "street": "R CIPRESTES",
      "house": "83",
      "postcode": "2775-357",
      "city": "PAREDE",
      "lon": "-9.362865806928546",
      "lat": "38.69709225155523"
    },
    {
      "id": "pt.ine.add.PTCONT.2760087",
      "street": "R CIPRESTES",
      "house": "83",
      "postcode": "2775-357",
      "city": "PAREDE",
      "lon": "-9.362865806928546",
      "lat": "38.69709225155523"
    },
    {
      "id": "pt.ine.add.PTCONT.2760088",
      "street": "R CIPRESTES",
      "house": "83",
      "postcode": "2775-357",
      "city": "PAREDE",
      "lon": "-9.362865806928546",
      "lat": "38.69709225155523"
    },
    {
      "id": "pt.ine.add.PTCONT.2761520",
      "street": "AV ALM JOÃO DE AZEVEDO COUTINHO ALGANTA",
      "house": "687",
      "postcode": "2775-101",
      "city": "PAREDE",
      "lon": "-9.367509796228704",
      "lat": "38.69978167415855"
    },
    {
      "id": "pt.ine.add.PTCONT.2761842",
      "street": "R CIPRESTES",
      "house": "83",
      "postcode": "2775-357",
      "city": "PAREDE",
      "lon": "-9.362865806928546",
      "lat": "38.69709225155523"
    },
    {
      "id": "pt.ine.add.PTCONT.2761843",
      "street": "R CIPRESTES",
      "house": "83",
      "postcode": "2775-357",
      "city": "PAREDE",
      "lon": "-9.362865806928546",
      "lat": "38.69709225155523"
    },
    {
      "id": "pt.ine.add.PTCONT.2761844",
      "street": "R CIPRESTES",
      "house": "83",
      "postcode": "2775-357",
      "city": "PAREDE",
      "lon": "-9.362865806928546",
      "lat": "38.69709225155523"
    },
    {
      "id": "pt.ine.add.PTCONT.2761845",
      "street": "R CIPRESTES",
      "house": "83",
      "postcode": "2775-357",
      "city": "PAREDE",
      "lon": "-9.362865806928546",
      "lat": "38.69709225155523"
    },
    {
      "id": "pt.ine.add.PTCONT.2761846",
      "street": "R CIPRESTES",
      "house": "83",
      "postcode": "2775-357",
      "city": "PAREDE",
      "lon": "-9.362865806928546",
      "lat": "38.69709225155523"
    },
    {
      "id": "pt.ine.add.PTCONT.2761847",
      "street": "R CIPRESTES",
      "house": "83",
      "postcode": "2775-357",
      "city": "PAREDE",
      "lon": "-9.362865806928546",
      "lat": "38.69709225155523"
    },
    {
      "id": "pt.ine.add.PTCONT.2761848",
      "street": "R CIPRESTES",
      "house": "83",
      "postcode": "2775-357",
      "city": "PAREDE",
      "lon": "-9.362865806928546",
      "lat": "38.69709225155523"
    },
    {
      "id": "pt.ine.add.PTCONT.2761849",
      "street": "R CIPRESTES",
      "house": "83",
      "postcode": "2775-357",
      "city": "PAREDE",
      "lon": "-9.362865806928546",
      "lat": "38.69709225155523"
    },
    {
      "id": "pt.ine.add.PTCONT.2762147",
      "street": "R CIPRESTES",
      "house": "83",
      "postcode": "2775-357",
      "city": "PAREDE",
      "lon": "-9.362865806928546",
      "lat": "38.69709225155523"
    },
    {
      "id": "pt.ine.add.PTCONT.2762415",
      "street": "R CIPRESTES",
      "house": "83",
      "postcode": "2775-357",
      "city": "PAREDE",
      "lon": "-9.362865806928546",
      "lat": "38.69709225155523"
    },
    {
      "id": "pt.ine.add.PTCONT.2764483",
      "street": "R GIRASSOL",
      "house": "38",
      "postcode": "2775-358",
      "city": "PAREDE",
      "lon": "-9.364058026657593",
      "lat": "38.698917289469904"
    },
    {
      "id": "pt.ine.add.PTCONT.2764484",
      "street": "R FLORBELA ESPANCA",
      "house": "75",
      "postcode": "2775-091",
      "city": "PAREDE",
      "lon": "-9.361792748869497",
      "lat": "38.698869054128444"
    },
    {
      "id": "pt.ine.add.PTCONT.2886332",
      "street": "R BELA VISTA",
      "house": "17",
      "postcode": "2775-076",
      "city": "PAREDE",
      "lon": "-9.36272079929876",
      "lat": "38.69802157616163"
    },
    {
      "id": "pt.ine.add.PTCONT.2886333",
      "street": "R BELA VISTA",
      "house": "17",
      "postcode": "2775-076",
      "city": "PAREDE",
      "lon": "-9.36272079929876",
      "lat": "38.69802157616163"
    },
    {
      "id": "pt.ine.add.PTCONT.2886334",
      "street": "R BELA VISTA",
      "house": "17",
      "postcode": "2775-076",
      "city": "PAREDE",
      "lon": "-9.36272079929876",
      "lat": "38.69802157616163"
    },
    {
      "id": "pt.ine.add.PTCONT.2886417",
      "street": "R BELA VISTA",
      "house": "17",
      "postcode": "2775-076",
      "city": "PAREDE",
      "lon": "-9.36272079929876",
      "lat": "38.69802157616163"
    },
    {
      "id": "pt.ine.add.PTCONT.2886418",
      "street": "R BELA VISTA",
      "house": "17",
      "postcode": "2775-076",
      "city": "PAREDE",
      "lon": "-9.36272079929876",
      "lat": "38.69802157616163"
    },
    {
      "id": "pt.ine.add.PTCONT.2886419",
      "street": "R BELA VISTA",
      "house": "17",
      "postcode": "2775-076",
      "city": "PAREDE",
      "lon": "-9.36272079929876",
      "lat": "38.69802157616163"
    },
    {
      "id": "pt.ine.add.PTCONT.2886420",
      "street": "R BELA VISTA",
      "house": "17",
      "postcode": "2775-076",
      "city": "PAREDE",
      "lon": "-9.36272079929876",
      "lat": "38.69802157616163"
    },
    {
      "id": "pt.ine.add.PTCONT.2886421",
      "street": "R BELA VISTA",
      "house": "17",
      "postcode": "2775-076",
      "city": "PAREDE",
      "lon": "-9.36272079929876",
      "lat": "38.69802157616163"
    },
    {
      "id": "pt.ine.add.PTCONT.2886422",
      "street": "R BELA VISTA",
      "house": "17",
      "postcode": "2775-076",
      "city": "PAREDE",
      "lon": "-9.36272079929876",
      "lat": "38.69802157616163"
    },
    {
      "id": "pt.ine.add.PTCONT.2886423",
      "street": "R BELA VISTA",
      "house": "17",
      "postcode": "2775-076",
      "city": "PAREDE",
      "lon": "-9.36272079929876",
      "lat": "38.69802157616163"
    },
    {
      "id": "pt.ine.add.PTCONT.2886424",
      "street": "R BELA VISTA",
      "house": "17",
      "postcode": "2775-076",
      "city": "PAREDE",
      "lon": "-9.36272079929876",
      "lat": "38.69802157616163"
    },
    {
      "id": "pt.ine.add.PTCONT.2886425",
      "street": "R BELA VISTA",
      "house": "17",
      "postcode": "2775-076",
      "city": "PAREDE",
      "lon": "-9.36272079929876",
      "lat": "38.69802157616163"
    },
    {
      "id": "pt.ine.add.PTCONT.2886426",
      "street": "R BELA VISTA",
      "house": "17",
      "postcode": "2775-076",
      "city": "PAREDE",
      "lon": "-9.36272079929876",
      "lat": "38.69802157616163"
    },
    {
      "id": "pt.ine.add.PTCONT.2886427",
      "street": "R BELA VISTA",
      "house": "17",
      "postcode": "2775-076",
      "city": "PAREDE",
      "lon": "-9.36272079929876",
      "lat": "38.69802157616163"
    },
    {
      "id": "pt.ine.add.PTCONT.2886428",
      "street": "R BELA VISTA",
      "house": "17",
      "postcode": "2775-076",
      "city": "PAREDE",
      "lon": "-9.36272079929876",
      "lat": "38.69802157616163"
    },
    {
      "id": "pt.ine.add.PTCONT.2886429",
      "street": "R BELA VISTA",
      "house": "17",
      "postcode": "2775-076",
      "city": "PAREDE",
      "lon": "-9.36272079929876",
      "lat": "38.69802157616163"
    },
    {
      "id": "pt.ine.add.PTCONT.2886430",
      "street": "R BELA VISTA",
      "house": "17",
      "postcode": "2775-076",
      "city": "PAREDE",
      "lon": "-9.36272079929876",
      "lat": "38.69802157616163"
    },
    {
      "id": "pt.ine.add.PTCONT.2890782",
      "street": "R BELA VISTA",
      "house": "47",
      "postcode": "2775-076",
      "city": "PAREDE",
      "lon": "-9.362645052384634",
      "lat": "38.69896818767587"
    },
    {
      "id": "pt.ine.add.PTCONT.2900024",
      "street": "AV ALM JOÃO DE AZEVEDO COUTINHO",
      "house": "461",
      "postcode": "2775-101",
      "city": "PAREDE",
      "lon": "-9.36510395076382",
      "lat": "38.699581855257584"
    },
    {
      "id": "pt.ine.add.PTCONT.2908936",
      "street": "AV ALM JOÃO DE AZEVEDO COUTINHO",
      "house": "3",
      "postcode": "2775-101",
      "city": "PAREDE",
      "lon": "-9.362988674137435",
      "lat": "38.69956809361937"
    },
    {
      "id": "pt.ine.add.PTCONT.2908937",
      "street": "R MAJ CORREIA LEITE",
      "house": "7",
      "postcode": "2775-084",
      "city": "PAREDE",
      "lon": "-9.36291447307955",
      "lat": "38.69926261026851"
    },
    {
      "id": "pt.ine.add.PTCONT.2915303",
      "street": "AV ALM JOÃO AZEVEDO COUTINHO",
      "house": "325",
      "postcode": "2775-101",
      "city": "PAREDE",
      "lon": "-9.36349998168685",
      "lat": "38.69922041927827"
    }
  ]
}