{
  "data": {
    "distrito": "Lisboa",
    "concelho": "Mafra",
    "freguesia": "Milharado",
    "OBJECTID": 563,
    "BGRI2021": "11091100433",
    "DT21": "11",
    "DTMN21": "1109",
    "DTMNFR21": "110911",
    "DTMNFRSEC21": "110911004",
    "SECNUM21": "004",
    "SSNUM21": "33",
    "SECSSNUM21": "00433",
    "OBJECTID_1": 108114,
    "DT": "11",
    "CC": "09",
    "fr": "11",
    "SEC": "004",
    "SS": "33"
  },
  "addresses": [
    {
      "id": "pt.ine.add.PTCONT.2484118",
      "street": "R MOTORISTAS",
      "house": "1",
      "postcode": "2665-314",
      "city": "MILHARADO",
      "lon": "-9.20078493808686",
      "lat": "38.94706259062074"
    },
    {
      "id": "pt.ine.add.PTCONT.2508267",
      "street": "R MOTORISTAS",
      "house": "5",
      "postcode": "2665-314",
      "city": "MILHARADO",
      "lon": "-9.200801875905398",
      "lat": "38.94742273577431"
    },
    {
      "id": "pt.ine.add.PTCONT.2795447",
      "street": "R REPUBLICA",
      "house": "9",
      "postcode": "2665-314",
      "city": "MILHARADO",
      "lon": "-9.201518291497793",
      "lat": "38.947506254530495"
    },
    {
      "id": "pt.ine.add.PTCONT.2847031",
      "street": "R REPUBLICA",
      "house": "11",
      "postcode": "2665-314",
      "city": "MILHARADO",
      "lon": "-9.20205450458969",
      "lat": "38.947879659556584"
    },
    {
      "id": "pt.ine.add.PTCONT.2865890",
      "street": "R REPUBLICA",
      "house": "15",
      "postcode": "2665-314",
      "city": "MILHARADO",
      "lon": "-9.202185294994253",
      "lat": "38.94813967906968"
    },
    {
      "id": "pt.ine.add.PTCONT.2865891",
      "street": "R REPUBLICA",
      "house": "15",
      "postcode": "2665-314",
      "city": "MILHARADO",
      "lon": "-9.202185294994253",
      "lat": "38.94813967906968"
    },
    {
      "id": "pt.ine.add.PTCONT.3070385",
      "street": "R REPUBLICA LAR DOS ALEXANDRES",
      "house": "5",
      "postcode": "2665-314",
      "city": "MILHARADO",
      "lon": "-9.200826969265174",
      "lat": "38.94755761874127"
    },
    {
      "id": "pt.ine.add.PTCONT.3095855",
      "street": "R PORTELA IGREJA",
      "house": "4",
      "postcode": "2665-314",
      "city": "MILHARADO",
      "lon": "-9.200335952550144",
      "lat": "38.94712074220353"
    },
    {
      "id": "pt.ine.add.PTCONT.3244305",
      "street": "R MOTORISTAS",
      "house": "3",
      "postcode": "2665-314",
      "city": "MILHARADO",
      "lon": "-9.200799984287077",
      "lat": "38.947296648044926"
    },
    {
      "id": "pt.ine.add.PTCONT.3244306",
      "street": "R MOTORISTAS",
      "house": "3",
      "postcode": "2665-314",
      "city": "MILHARADO",
      "lon": "-9.200799984287077",
      "lat": "38.947296648044926"
    },
    {
      "id": "pt.ine.add.PTCONT.3277366",
      "street": "R REPUBLICA",
      "house": "3",
      "postcode": "2665-314",
      "city": "MILHARADO",
      "lon": "-9.200515299812427",
      "lat": "38.94754245467001"
    },
    {
      "id": "pt.ine.add.PTCONT.3391279",
      "street": "R REPUBLICA",
      "house": "13",
      "postcode": "2665-314",
      "city": "MILHARADO",
      "lon": "-9.20212559871434",
      "lat": "38.948005113382294"
    },
    {
      "id": "pt.ine.add.PTCONT.3427524",
      "street": "R REPUBLICA",
      "house": "1",
      "postcode": "2665-314",
      "city": "MILHARADO",
      "lon": "-9.200284768751354",
      "lat": "38.947553570373074"
    },
    {
      "id": "pt.ine.add.PTCONT.3427525",
      "street": "R REPUBLICA",
      "house": "1",
      "postcode": "2665-314",
      "city": "MILHARADO",
      "lon": "-9.200284768751354",
      "lat": "38.947553570373074"
    }
  ]
}