{
  "data": {
    "distrito": "Lisboa",
    "concelho": "Sintra",
    "freguesia": "União das freguesias de São João das Lampas e Terrugem",
    "OBJECTID": 1422,
    "BGRI2021": "11112701238",
    "DT21": "11",
    "DTMN21": "1111",
    "DTMNFR21": "111127",
    "DTMNFRSEC21": "111127012",
    "SECNUM21": "012",
    "SSNUM21": "38",
    "SECSSNUM21": "01238",
    "OBJECTID_1": 112193,
    "DT": "11",
    "CC": "11",
    "fr": "27",
    "SEC": "012",
    "SS": "38"
  },
  "addresses": [
    {
      "id": "pt.ine.add.PTCONT.2320558",
      "street": "R CERRADO DA AREIA",
      "house": "",
      "postcode": "2705-622",
      "city": "SÃO JOÃO DAS LAMPAS",
      "lon": "-9.437398289145442",
      "lat": "38.851404360808495"
    },
    {
      "id": "pt.ine.add.PTCONT.2323543",
      "street": "R PICADA",
      "house": "26",
      "postcode": "2705-622",
      "city": "SÃO JOÃO DAS LAMPAS",
      "lon": "-9.438561146282312",
      "lat": "38.850742829315884"
    },
    {
      "id": "pt.ine.add.PTCONT.2344211",
      "street": "R PICADA",
      "house": "32",
      "postcode": "2705-622",
      "city": "SÃO JOÃO DAS LAMPAS",
      "lon": "-9.438633703717574",
      "lat": "38.85093117530767"
    },
    {
      "id": "pt.ine.add.PTCONT.2344212",
      "street": "R CAMPO DA BOLA",
      "house": "20",
      "postcode": "2705-597",
      "city": "SÃO JOÃO DAS LAMPAS",
      "lon": "-9.43645837323382",
      "lat": "38.85039700890521"
    },
    {
      "id": "pt.ine.add.PTCONT.2362908",
      "street": "R BARROS",
      "house": "15",
      "postcode": "2705-614",
      "city": "SÃO JOÃO DAS LAMPAS",
      "lon": "-9.436253552169857",
      "lat": "38.84990388301655"
    },
    {
      "id": "pt.ine.add.PTCONT.2400527",
      "street": "R NORTE",
      "house": "11",
      "postcode": "2705-615",
      "city": "SÃO JOÃO DAS LAMPAS",
      "lon": "-9.436870348398132",
      "lat": "38.849617766962545"
    },
    {
      "id": "pt.ine.add.PTCONT.2400528",
      "street": "R NORTE",
      "house": "9",
      "postcode": "2705-615",
      "city": "SÃO JOÃO DAS LAMPAS",
      "lon": "-9.436860804831635",
      "lat": "38.84972596329907"
    },
    {
      "id": "pt.ine.add.PTCONT.2439346",
      "street": "R NORTE",
      "house": "13",
      "postcode": "2705-615",
      "city": "SÃO JOÃO DAS LAMPAS",
      "lon": "-9.43674350260463",
      "lat": "38.84961017547317"
    },
    {
      "id": "pt.ine.add.PTCONT.2553481",
      "street": "R PICADA",
      "house": "34",
      "postcode": "2705-622",
      "city": "SÃO JOÃO DAS LAMPAS",
      "lon": "-9.438782103454047",
      "lat": "38.85085745643437"
    },
    {
      "id": "pt.ine.add.PTCONT.2573252",
      "street": "R NORTE",
      "house": "9",
      "postcode": "2705-615",
      "city": "SÃO JOÃO DAS LAMPAS",
      "lon": "-9.437010190568056",
      "lat": "38.84970628055794"
    },
    {
      "id": "pt.ine.add.PTCONT.2635173",
      "street": "R PICADA",
      "house": "42",
      "postcode": "2705-622",
      "city": "SÃO JOÃO DAS LAMPAS",
      "lon": "-9.43892672608801",
      "lat": "38.85120713114097"
    },
    {
      "id": "pt.ine.add.PTCONT.2669818",
      "street": "R NORTE",
      "house": "7",
      "postcode": "2705-615",
      "city": "SÃO JOÃO DAS LAMPAS",
      "lon": "-9.437067444213648",
      "lat": "38.84968762634937"
    },
    {
      "id": "pt.ine.add.PTCONT.2685185",
      "street": "R BARROS",
      "house": "13",
      "postcode": "2705-614",
      "city": "SÃO JOÃO DAS LAMPAS",
      "lon": "-9.436065822297326",
      "lat": "38.85034734429348"
    },
    {
      "id": "pt.ine.add.PTCONT.2958252",
      "street": "R PICADA",
      "house": "36",
      "postcode": "2705-622",
      "city": "SÃO JOÃO DAS LAMPAS",
      "lon": "-9.438900069736421",
      "lat": "38.851009264648525"
    },
    {
      "id": "pt.ine.add.PTCONT.2967500",
      "street": "R CAMPO DA BOLA",
      "house": "",
      "postcode": "2705-597",
      "city": "SÃO JOÃO DAS LAMPAS",
      "lon": "-9.437463775317992",
      "lat": "38.84994441748867"
    },
    {
      "id": "pt.ine.add.PTCONT.3003438",
      "street": "R CAMPO DA BOLA",
      "house": "16",
      "postcode": "2705-597",
      "city": "SÃO JOÃO DAS LAMPAS",
      "lon": "-9.436962144660214",
      "lat": "38.8502292509574"
    },
    {
      "id": "pt.ine.add.PTCONT.3069559",
      "street": "R PICADA",
      "house": "44",
      "postcode": "2705-622",
      "city": "SÃO JOÃO DAS LAMPAS",
      "lon": "-9.438817980720394",
      "lat": "38.85155963869574"
    },
    {
      "id": "pt.ine.add.PTCONT.3096918",
      "street": "R CAMPO DA BOLA",
      "house": "26",
      "postcode": "2705-597",
      "city": "SÃO JOÃO DAS LAMPAS",
      "lon": "-9.437033375856483",
      "lat": "38.85097607663912"
    },
    {
      "id": "pt.ine.add.PTCONT.3115304",
      "street": "R PICADA",
      "house": "24",
      "postcode": "2705-622",
      "city": "SÃO JOÃO DAS LAMPAS",
      "lon": "-9.438615938798248",
      "lat": "38.85121961324444"
    },
    {
      "id": "pt.ine.add.PTCONT.3133745",
      "street": "R PICADA",
      "house": "28",
      "postcode": "2705-622",
      "city": "SÃO JOÃO DAS LAMPAS",
      "lon": "-9.438540253127266",
      "lat": "38.85086016010302"
    },
    {
      "id": "pt.ine.add.PTCONT.3133746",
      "street": "R PICADA",
      "house": "28",
      "postcode": "2705-622",
      "city": "SÃO JOÃO DAS LAMPAS",
      "lon": "-9.438540253127266",
      "lat": "38.85086016010302"
    },
    {
      "id": "pt.ine.add.PTCONT.3305909",
      "street": "R CAMPO DA BOLA",
      "house": "14",
      "postcode": "2705-597",
      "city": "SÃO JOÃO DAS LAMPAS",
      "lon": "-9.437213536093907",
      "lat": "38.850118354245225"
    },
    {
      "id": "pt.ine.add.PTCONT.3321608",
      "street": "R NORTE",
      "house": "17",
      "postcode": "2705-615",
      "city": "SÃO JOÃO DAS LAMPAS",
      "lon": "-9.436285801040277",
      "lat": "38.84977741840189"
    },
    {
      "id": "pt.ine.add.PTCONT.3365320",
      "street": "R CAMPO DA BOLA",
      "house": "22",
      "postcode": "2705-597",
      "city": "SÃO JOÃO DAS LAMPAS",
      "lon": "-9.436784948643297",
      "lat": "38.850618550849994"
    },
    {
      "id": "pt.ine.add.PTCONT.3419822",
      "street": "R PICADA",
      "house": "24",
      "postcode": "2705-622",
      "city": "SÃO JOÃO DAS LAMPAS",
      "lon": "-9.436937624781699",
      "lat": "38.85077898109093"
    },
    {
      "id": "pt.ine.add.PTCONT.3428705",
      "street": "R PICADA",
      "house": "16",
      "postcode": "2705-622",
      "city": "SÃO JOÃO DAS LAMPAS",
      "lon": "-9.43781897817223",
      "lat": "38.849841367469836"
    },
    {
      "id": "pt.ine.add.PTCONT.3452769",
      "street": "R CERRADO AREIA",
      "house": "",
      "postcode": "2705-622",
      "city": "SÃO JOÃO DAS LAMPAS",
      "lon": "-9.438035003092688",
      "lat": "38.8515773976314"
    }
  ]
}