{
  "data": {
    "distrito": "Aveiro",
    "concelho": "Águeda",
    "freguesia": "União das freguesias de Trofa, Segadães e Lamas do Vouga",
    "OBJECTID": 174,
    "BGRI2021": "01012600229",
    "DT21": "01",
    "DTMN21": "0101",
    "DTMNFR21": "010126",
    "DTMNFRSEC21": "010126002",
    "SECNUM21": "002",
    "SSNUM21": "29",
    "SECSSNUM21": "00229",
    "OBJECTID_1": 1174,
    "DT": "01",
    "CC": "01",
    "fr": "26",
    "SEC": "002",
    "SS": "29"
  },
  "addresses": [
    {
      "id": "pt.ine.add.PTCONT.292930",
      "street": "R COVAS",
      "house": "27",
      "postcode": "3750-552",
      "city": "LAMAS DO VOUGA",
      "lon": "-8.465385902034988",
      "lat": "40.62286364121319"
    },
    {
      "id": "pt.ine.add.PTCONT.305490",
      "street": "R LAPEIRA",
      "house": "12",
      "postcode": "3750-552",
      "city": "LAMAS DO VOUGA",
      "lon": "-8.464094687416441",
      "lat": "40.62465037883417"
    },
    {
      "id": "pt.ine.add.PTCONT.326222",
      "street": "R ALTO GIESTAL",
      "house": "13",
      "postcode": "3750-552",
      "city": "LAMAS DO VOUGA",
      "lon": "-8.462954462416553",
      "lat": "40.62110559086459"
    },
    {
      "id": "pt.ine.add.PTCONT.326748",
      "street": "TV LAPEIRA",
      "house": "10",
      "postcode": "3750-552",
      "city": "LAMAS DO VOUGA",
      "lon": "-8.46228241166307",
      "lat": "40.6238360850896"
    },
    {
      "id": "pt.ine.add.PTCONT.331246",
      "street": "R ESPANHA",
      "house": "11",
      "postcode": "3750-552",
      "city": "LAMAS DO VOUGA",
      "lon": "-8.470791448068551",
      "lat": "40.62844919578209"
    },
    {
      "id": "pt.ine.add.PTCONT.344049",
      "street": "TV LAPEIRA",
      "house": "2",
      "postcode": "3750-552",
      "city": "LAMAS DO VOUGA",
      "lon": "-8.462238673936348",
      "lat": "40.62455662585093"
    },
    {
      "id": "pt.ine.add.PTCONT.23172",
      "street": "R AVIZADA",
      "house": "3",
      "postcode": "3750-552",
      "city": "LAMAS DO VOUGA",
      "lon": "-8.468972267414548",
      "lat": "40.62865261488678"
    },
    {
      "id": "pt.ine.add.PTCONT.23964",
      "street": "R AREEIRO",
      "house": "5",
      "postcode": "3750-552",
      "city": "LAMAS DO VOUGA",
      "lon": "-8.467331007012397",
      "lat": "40.626613196991634"
    },
    {
      "id": "pt.ine.add.PTCONT.34000",
      "street": "R AVIZADA",
      "house": "2",
      "postcode": "3750-552",
      "city": "LAMAS DO VOUGA",
      "lon": "-8.469974694254367",
      "lat": "40.628208440798964"
    },
    {
      "id": "pt.ine.add.PTCONT.53559",
      "street": "R AREEIRO",
      "house": "11",
      "postcode": "3750-552",
      "city": "LAMAS DO VOUGA",
      "lon": "-8.467898722994747",
      "lat": "40.62669259942691"
    },
    {
      "id": "pt.ine.add.PTCONT.61616",
      "street": "R ESPANHA",
      "house": "3",
      "postcode": "3750-552",
      "city": "LAMAS DO VOUGA",
      "lon": "-8.46985329011092",
      "lat": "40.62756942604282"
    },
    {
      "id": "pt.ine.add.PTCONT.64867",
      "street": "R ALTO GIESTAL",
      "house": "1",
      "postcode": "3750-552",
      "city": "LAMAS DO VOUGA",
      "lon": "-8.462045755854273",
      "lat": "40.62136933350054"
    },
    {
      "id": "pt.ine.add.PTCONT.69725",
      "street": "R ESPANHA",
      "house": "55",
      "postcode": "3750-552",
      "city": "LAMAS DO VOUGA",
      "lon": "-8.469248301024836",
      "lat": "40.62712993390924"
    },
    {
      "id": "pt.ine.add.PTCONT.102327",
      "street": "R COSTA",
      "house": "1",
      "postcode": "3750-552",
      "city": "LAMAS DO VOUGA",
      "lon": "-8.469789158775654",
      "lat": "40.62892039211685"
    },
    {
      "id": "pt.ine.add.PTCONT.112698",
      "street": "R LAPEIRA",
      "house": "3",
      "postcode": "3750-552",
      "city": "LAMAS DO VOUGA",
      "lon": "-8.46504156574514",
      "lat": "40.62254044405316"
    },
    {
      "id": "pt.ine.add.PTCONT.112799",
      "street": "ESTR PRINCIPAL",
      "house": "",
      "postcode": "3750-552",
      "city": "LAMAS DO VOUGA",
      "lon": "-8.465040585043216",
      "lat": "40.62234233239027"
    },
    {
      "id": "pt.ine.add.PTCONT.118010",
      "street": "R LAPEIRA",
      "house": "18",
      "postcode": "3750-552",
      "city": "LAMAS DO VOUGA",
      "lon": "-8.462998832218053",
      "lat": "40.6253198990418"
    },
    {
      "id": "pt.ine.add.PTCONT.118011",
      "street": "ESTR PRINCIPAL",
      "house": "11",
      "postcode": "3750-552",
      "city": "LAMAS DO VOUGA",
      "lon": "-8.46389937087337",
      "lat": "40.62099482589835"
    },
    {
      "id": "pt.ine.add.PTCONT.118012",
      "street": "R ALTO GIESTAL",
      "house": "",
      "postcode": "3750-552",
      "city": "LAMAS DO VOUGA",
      "lon": "-8.46183726863791",
      "lat": "40.62223442679985"
    },
    {
      "id": "pt.ine.add.PTCONT.120658",
      "street": "R LAPEIRA",
      "house": "11",
      "postcode": "3750-552",
      "city": "LAMAS DO VOUGA",
      "lon": "-8.464219934188542",
      "lat": "40.62368646330169"
    },
    {
      "id": "pt.ine.add.PTCONT.124424",
      "street": "ESTR PRINCIPAL",
      "house": "15",
      "postcode": "3750-552",
      "city": "LAMAS DO VOUGA",
      "lon": "-8.46464822348402",
      "lat": "40.62186618356344"
    },
    {
      "id": "pt.ine.add.PTCONT.125779",
      "street": "LOTEAM MUNICIPAL DE PEDAÇÃES",
      "house": "",
      "postcode": "3750-991",
      "city": "SEGADÃES",
      "lon": "-8.469007725443104",
      "lat": "40.62865251176267"
    },
    {
      "id": "pt.ine.add.PTCONT.137276",
      "street": "R AVIZADA",
      "house": "5",
      "postcode": "3750-552",
      "city": "LAMAS DO VOUGA",
      "lon": "-8.47020994750204",
      "lat": "40.627982624503936"
    },
    {
      "id": "pt.ine.add.PTCONT.145175",
      "street": "R COVAS",
      "house": "23",
      "postcode": "3750-552",
      "city": "LAMAS DO VOUGA",
      "lon": "-8.466510839762307",
      "lat": "40.62567902703713"
    },
    {
      "id": "pt.ine.add.PTCONT.148948",
      "street": "R LAPEIRA",
      "house": "7",
      "postcode": "3750-552",
      "city": "LAMAS DO VOUGA",
      "lon": "-8.464382233982167",
      "lat": "40.62304662851277"
    },
    {
      "id": "pt.ine.add.PTCONT.152562",
      "street": "R LAPEIRA",
      "house": "5",
      "postcode": "3750-552",
      "city": "LAMAS DO VOUGA",
      "lon": "-8.464770413643986",
      "lat": "40.622676301094835"
    },
    {
      "id": "pt.ine.add.PTCONT.159302",
      "street": "R COVAS",
      "house": "9",
      "postcode": "3750-552",
      "city": "LAMAS DO VOUGA",
      "lon": "-8.46555680563688",
      "lat": "40.62396178404719"
    },
    {
      "id": "pt.ine.add.PTCONT.159303",
      "street": "TV LAPEIRA",
      "house": "6",
      "postcode": "3750-552",
      "city": "LAMAS DO VOUGA",
      "lon": "-8.46221344545062",
      "lat": "40.624232510506914"
    },
    {
      "id": "pt.ine.add.PTCONT.163156",
      "street": "R LAPEIRA",
      "house": "9",
      "postcode": "3750-552",
      "city": "LAMAS DO VOUGA",
      "lon": "-8.464207181903348",
      "lat": "40.62349739061877"
    },
    {
      "id": "pt.ine.add.PTCONT.165716",
      "street": "R COSTA",
      "house": "5",
      "postcode": "3750-552",
      "city": "LAMAS DO VOUGA",
      "lon": "-8.469756052105572",
      "lat": "40.62938875864054"
    },
    {
      "id": "pt.ine.add.PTCONT.172833",
      "street": "R AREEIRO",
      "house": "13",
      "postcode": "3750-552",
      "city": "LAMAS DO VOUGA",
      "lon": "-8.468430307677536",
      "lat": "40.62663702603193"
    },
    {
      "id": "pt.ine.add.PTCONT.173883",
      "street": "R COVAS",
      "house": "",
      "postcode": "3750-552",
      "city": "LAMAS DO VOUGA",
      "lon": "-8.465664690880665",
      "lat": "40.624267650278625"
    },
    {
      "id": "pt.ine.add.PTCONT.173884",
      "street": "TV LAPEIRA",
      "house": "13",
      "postcode": "3750-552",
      "city": "LAMAS DO VOUGA",
      "lon": "-8.462888654203889",
      "lat": "40.62454576649308"
    },
    {
      "id": "pt.ine.add.PTCONT.173885",
      "street": "R ALTO GIESTAL",
      "house": "7",
      "postcode": "3750-552",
      "city": "LAMAS DO VOUGA",
      "lon": "-8.462576683972106",
      "lat": "40.6211877160245"
    },
    {
      "id": "pt.ine.add.PTCONT.187034",
      "street": "R COVAS",
      "house": "7",
      "postcode": "3750-552",
      "city": "LAMAS DO VOUGA",
      "lon": "-8.46541435857681",
      "lat": "40.623836121180226"
    },
    {
      "id": "pt.ine.add.PTCONT.193970",
      "street": "R AVIZADA",
      "house": "4",
      "postcode": "3750-552",
      "city": "LAMAS DO VOUGA",
      "lon": "-8.469491324415856",
      "lat": "40.62845298994604"
    },
    {
      "id": "pt.ine.add.PTCONT.200376",
      "street": "R ALTO GIESTAL",
      "house": "11",
      "postcode": "3750-552",
      "city": "LAMAS DO VOUGA",
      "lon": "-8.4628244641976",
      "lat": "40.621105962062195"
    },
    {
      "id": "pt.ine.add.PTCONT.214003",
      "street": "TV LAPEIRA",
      "house": "14",
      "postcode": "3750-552",
      "city": "LAMAS DO VOUGA",
      "lon": "-8.46182051884344",
      "lat": "40.623639286201325"
    },
    {
      "id": "pt.ine.add.PTCONT.237051",
      "street": "ESTR PRINCIPAL",
      "house": "17",
      "postcode": "3750-552",
      "city": "LAMAS DO VOUGA",
      "lon": "-8.464755121306833",
      "lat": "40.621973939102894"
    },
    {
      "id": "pt.ine.add.PTCONT.243979",
      "street": "R AVIZADA",
      "house": "3A",
      "postcode": "3750-552",
      "city": "LAMAS DO VOUGA",
      "lon": "-8.469196338328093",
      "lat": "40.62855290590005"
    },
    {
      "id": "pt.ine.add.PTCONT.257387",
      "street": "R COVAS",
      "house": "11",
      "postcode": "3750-552",
      "city": "LAMAS DO VOUGA",
      "lon": "-8.465628431296215",
      "lat": "40.62410566106559"
    },
    {
      "id": "pt.ine.add.PTCONT.267422",
      "street": "R LAPEIRA",
      "house": "16",
      "postcode": "3750-552",
      "city": "LAMAS DO VOUGA",
      "lon": "-8.46315172255233",
      "lat": "40.62516637382907"
    },
    {
      "id": "pt.ine.add.PTCONT.267423",
      "street": "R LAPEIRA",
      "house": "1",
      "postcode": "3750-552",
      "city": "LAMAS DO VOUGA",
      "lon": "-8.465171254551183",
      "lat": "40.6224770348217"
    },
    {
      "id": "pt.ine.add.PTCONT.267424",
      "street": "ESTR PRINCIPAL",
      "house": "",
      "postcode": "3750-552",
      "city": "LAMAS DO VOUGA",
      "lon": "-8.46494541526019",
      "lat": "40.6222165330182"
    },
    {
      "id": "pt.ine.add.PTCONT.267425",
      "street": "ESTR PRINCIPAL",
      "house": "",
      "postcode": "3750-552",
      "city": "LAMAS DO VOUGA",
      "lon": "-8.464850245835326",
      "lat": "40.62209073356353"
    },
    {
      "id": "pt.ine.add.PTCONT.273695",
      "street": "R ESPANHA",
      "house": "7",
      "postcode": "3750-552",
      "city": "LAMAS DO VOUGA",
      "lon": "-8.470554064769086",
      "lat": "40.628251775370785"
    },
    {
      "id": "pt.ine.add.PTCONT.279052",
      "street": "R LAPEIRA",
      "house": "22",
      "postcode": "3750-552",
      "city": "LAMAS DO VOUGA",
      "lon": "-8.46185064602889",
      "lat": "40.62496296503359"
    },
    {
      "id": "pt.ine.add.PTCONT.279053",
      "street": "R LAPEIRA",
      "house": "22",
      "postcode": "3750-552",
      "city": "LAMAS DO VOUGA",
      "lon": "-8.46185064602889",
      "lat": "40.62496296503359"
    },
    {
      "id": "pt.ine.add.PTCONT.281135",
      "street": "R ESPANHA",
      "house": "9",
      "postcode": "3750-552",
      "city": "LAMAS DO VOUGA",
      "lon": "-8.47068480225527",
      "lat": "40.62839547639722"
    },
    {
      "id": "pt.ine.add.PTCONT.289565",
      "street": "TV LAPEIRA",
      "house": "8",
      "postcode": "3750-552",
      "city": "LAMAS DO VOUGA",
      "lon": "-8.462259216719206",
      "lat": "40.62392620321575"
    }
  ]
}