{
  "data": {
    "distrito": "Aveiro",
    "concelho": "Águeda",
    "freguesia": "União das freguesias de Trofa, Segadães e Lamas do Vouga",
    "OBJECTID": 855,
    "BGRI2021": "01012600232",
    "DT21": "01",
    "DTMN21": "0101",
    "DTMNFR21": "010126",
    "DTMNFRSEC21": "010126002",
    "SECNUM21": "002",
    "SSNUM21": "32",
    "SECSSNUM21": "00232",
    "OBJECTID_1": 100,
    "DT": "01",
    "CC": "01",
    "fr": "26",
    "SEC": "002",
    "SS": "32"
  },
  "addresses": [
    {
      "id": "pt.ine.add.PTCONT.303773",
      "street": "TV SOBREIRAS",
      "house": "4",
      "postcode": "3750-771",
      "city": "TROFA AGD",
      "lon": "-8.46106877598636",
      "lat": "40.62217357518017"
    },
    {
      "id": "pt.ine.add.PTCONT.5338",
      "street": "R MARNEL",
      "house": "2",
      "postcode": "3750-771",
      "city": "TROFA AGD",
      "lon": "-8.463188615906217",
      "lat": "40.62785882247881"
    },
    {
      "id": "pt.ine.add.PTCONT.115291",
      "street": "VLA CARVALHEIRAS",
      "house": "",
      "postcode": "3750-552",
      "city": "LAMAS DO VOUGA",
      "lon": "-8.456318713492198",
      "lat": "40.634623141186204"
    },
    {
      "id": "pt.ine.add.PTCONT.200379",
      "street": "TV SOBREIRAS",
      "house": "2",
      "postcode": "3750-771",
      "city": "TROFA AGD",
      "lon": "-8.46099632554797",
      "lat": "40.62185859871917"
    },
    {
      "id": "pt.ine.add.PTCONT.208378",
      "street": "VLA CARVALHEIRAS",
      "house": "4",
      "postcode": "3750-771",
      "city": "TROFA AGD",
      "lon": "-8.456910125540473",
      "lat": "40.634702531152996"
    },
    {
      "id": "pt.ine.add.PTCONT.224891",
      "street": "TV SOBREIRAS",
      "house": "6",
      "postcode": "3750-771",
      "city": "TROFA AGD",
      "lon": "-8.461116445276529",
      "lat": "40.62225448664738"
    },
    {
      "id": "pt.ine.add.PTCONT.249304",
      "street": "VLA CARVALHEIRAS",
      "house": "5",
      "postcode": "3750-552",
      "city": "LAMAS DO VOUGA",
      "lon": "-8.456141580932726",
      "lat": "40.63465965753669"
    },
    {
      "id": "pt.ine.add.PTCONT.251824",
      "street": "ESTR CARDANHO",
      "house": "1",
      "postcode": "3750-551",
      "city": "LAMAS DO VOUGA",
      "lon": "-8.468929681726268",
      "lat": "40.634307997457164"
    }
  ]
}