{
  "data": {
    "distrito": "Faro",
    "concelho": "Olhão",
    "freguesia": "União das freguesias de Moncarapacho e Fuseta",
    "OBJECTID": 222,
    "BGRI2021": "08100601101",
    "DT21": "08",
    "DTMN21": "0810",
    "DTMNFR21": "081006",
    "DTMNFRSEC21": "081006011",
    "SECNUM21": "011",
    "SSNUM21": "01",
    "SECSSNUM21": "01101",
    "OBJECTID_1": 70677,
    "DT": "08",
    "CC": "10",
    "fr": "06",
    "SEC": "011",
    "SS": "01"
  },
  "addresses": [
    {
      "id": "pt.ine.add.PTCONT.1505732",
      "street": "SIT QUATRIM DO SUL KAY E LISA ANDERSON",
      "house": "",
      "postcode": "8700-071",
      "city": "MONCARAPACHO",
      "lon": "-7.796840010292221",
      "lat": "37.03787616879306"
    },
    {
      "id": "pt.ine.add.PTCONT.1546062",
      "street": "SIT QUATRIM DO SUL",
      "house": "",
      "postcode": "8700-128",
      "city": "MONCARAPACHO",
      "lon": "-7.790531979329496",
      "lat": "37.03840777793186"
    },
    {
      "id": "pt.ine.add.PTCONT.1575710",
      "street": "SIT QUATRIM DO SUL",
      "house": "",
      "postcode": "8700-071",
      "city": "MONCARAPACHO",
      "lon": "-7.7862660198394495",
      "lat": "37.03971996016515"
    },
    {
      "id": "pt.ine.add.PTCONT.1582240",
      "street": "SIT QUATRIM DO SUL",
      "house": "",
      "postcode": "8700-071",
      "city": "MONCARAPACHO",
      "lon": "-7.796325682599588",
      "lat": "37.03726198084559"
    },
    {
      "id": "pt.ine.add.PTCONT.1602951",
      "street": "SIT QUATRIM DO SUL-FONTES SANTAS",
      "house": "",
      "postcode": "8700-128",
      "city": "MONCARAPACHO",
      "lon": "-7.786254246862421",
      "lat": "37.039837065079894"
    },
    {
      "id": "pt.ine.add.PTCONT.1631232",
      "street": "SIT QUATRIM DO SUL-PRAIA DOS CAVALOS",
      "house": "",
      "postcode": "8700-071",
      "city": "MONCARAPACHO",
      "lon": "-7.7968291280531465",
      "lat": "37.03779504144129"
    },
    {
      "id": "pt.ine.add.PTCONT.1639014",
      "street": "SIT QUATRIM DO SUL",
      "house": "",
      "postcode": "8700-128",
      "city": "MONCARAPACHO",
      "lon": "-7.790723017791061",
      "lat": "37.03841734006812"
    },
    {
      "id": "pt.ine.add.PTCONT.1662205",
      "street": "SIT QUATRIM DO SUL-FONTES SANTAS",
      "house": "",
      "postcode": "8700-128",
      "city": "MONCARAPACHO",
      "lon": "-7.794411159222017",
      "lat": "37.03810353927039"
    },
    {
      "id": "pt.ine.add.PTCONT.1662206",
      "street": "SIT QUATRIM DO SUL",
      "house": "",
      "postcode": "8700-071",
      "city": "MONCARAPACHO",
      "lon": "-7.785736543551978",
      "lat": "37.03997972202142"
    },
    {
      "id": "pt.ine.add.PTCONT.1671192",
      "street": "SIT QUATRIM DO SUL-PRAIA DOS CAVALOS",
      "house": "",
      "postcode": "8700-071",
      "city": "MONCARAPACHO",
      "lon": "-7.796649012099476",
      "lat": "37.03785760589713"
    },
    {
      "id": "pt.ine.add.PTCONT.1674047",
      "street": "SIT QUATRIM DO SUL-FONTES SANTAS",
      "house": "",
      "postcode": "8700-128",
      "city": "MONCARAPACHO",
      "lon": "-7.79602157140854",
      "lat": "37.03740528886431"
    },
    {
      "id": "pt.ine.add.PTCONT.1693696",
      "street": "SIT QUATRIM DO SUL-PRAIA DOS CAVALOS",
      "house": "",
      "postcode": "8700-071",
      "city": "MONCARAPACHO",
      "lon": "-7.79681935847509",
      "lat": "37.037461616975385"
    },
    {
      "id": "pt.ine.add.PTCONT.1693697",
      "street": "SIT QUATRIM DO SUL",
      "house": "",
      "postcode": "8700-128",
      "city": "MONCARAPACHO",
      "lon": "-7.786120226254985",
      "lat": "37.039647448148244"
    },
    {
      "id": "pt.ine.add.PTCONT.1702401",
      "street": "SIT QUATRIM DO SUL",
      "house": "",
      "postcode": "8700-128",
      "city": "MONCARAPACHO",
      "lon": "-7.791958685447513",
      "lat": "37.03858309226313"
    },
    {
      "id": "pt.ine.add.PTCONT.1716673",
      "street": "SIT QUATRIM DO SUL",
      "house": "",
      "postcode": "8700-071",
      "city": "MONCARAPACHO",
      "lon": "-7.7857824892724015",
      "lat": "37.03976359930819"
    },
    {
      "id": "pt.ine.add.PTCONT.1719398",
      "street": "SIT QUATRIM DO SUL",
      "house": "",
      "postcode": "8700-128",
      "city": "MONCARAPACHO",
      "lon": "-7.7937939272518255",
      "lat": "37.03788551843171"
    },
    {
      "id": "pt.ine.add.PTCONT.1725081",
      "street": "SIT QUATRIM DO SUL-FONTES SANTAS",
      "house": "CP 495 Z",
      "postcode": "8700-128",
      "city": "MONCARAPACHO",
      "lon": "-7.794636437093883",
      "lat": "37.037996053444786"
    },
    {
      "id": "pt.ine.add.PTCONT.1734707",
      "street": "SIT QUATRIM DO SUL",
      "house": "",
      "postcode": "8700-128",
      "city": "MONCARAPACHO",
      "lon": "-7.793895286435782",
      "lat": "37.03784075463306"
    },
    {
      "id": "pt.ine.add.PTCONT.1774210",
      "street": "SIT QUATRIM DO SUL",
      "house": "",
      "postcode": "8700-071",
      "city": "MONCARAPACHO",
      "lon": "-7.792633686805374",
      "lat": "37.038449870284616"
    },
    {
      "id": "pt.ine.add.PTCONT.1779344",
      "street": "SIT QUATRIM DO SUL",
      "house": "",
      "postcode": "8700-071",
      "city": "MONCARAPACHO",
      "lon": "-7.785264292325005",
      "lat": "37.04001438135104"
    },
    {
      "id": "pt.ine.add.PTCONT.1804875",
      "street": "SIT QUATRIM DO SUL",
      "house": "",
      "postcode": "8700-128",
      "city": "MONCARAPACHO",
      "lon": "-7.790363380286622",
      "lat": "37.038407291030396"
    },
    {
      "id": "pt.ine.add.PTCONT.1808569",
      "street": "SIT QUATRIM DO SUL",
      "house": "",
      "postcode": "8700-128",
      "city": "MONCARAPACHO",
      "lon": "-7.794208640865166",
      "lat": "37.038148014617896"
    },
    {
      "id": "pt.ine.add.PTCONT.1815956",
      "street": "SIT QUATRIM SUL",
      "house": "477",
      "postcode": "8700-128",
      "city": "MONCARAPACHO",
      "lon": "-7.794501198425773",
      "lat": "37.038076764086966"
    },
    {
      "id": "pt.ine.add.PTCONT.1819270",
      "street": "SIT QUATRIM DO SUL-FONTES SANTAS",
      "house": "",
      "postcode": "8700-128",
      "city": "MONCARAPACHO",
      "lon": "-7.7956944212676715",
      "lat": "37.03767468071273"
    },
    {
      "id": "pt.ine.add.PTCONT.1822860",
      "street": "SIT QUATRIM DO SUL",
      "house": "",
      "postcode": "8700-128",
      "city": "MONCARAPACHO",
      "lon": "-7.794052884816668",
      "lat": "37.037787140742616"
    },
    {
      "id": "pt.ine.add.PTCONT.1828691",
      "street": "SIT QUATRIM DO SUL",
      "house": "",
      "postcode": "8700-128",
      "city": "MONCARAPACHO",
      "lon": "-7.791351606272445",
      "lat": "37.03860837740134"
    },
    {
      "id": "pt.ine.add.PTCONT.1843235",
      "street": "SIT QUATRIM DO SUL-FONTES SANTAS",
      "house": "",
      "postcode": "8700-128",
      "city": "MONCARAPACHO",
      "lon": "-7.7956944212676715",
      "lat": "37.03767468071273"
    }
  ]
}