{
  "data": {
    "distrito": "Aveiro",
    "concelho": "Oliveira do Bairro",
    "freguesia": "Palhaça",
    "OBJECTID": 95,
    "BGRI2021": "01140500102",
    "DT21": "01",
    "DTMN21": "0114",
    "DTMNFR21": "011405",
    "DTMNFRSEC21": "011405001",
    "SECNUM21": "001",
    "SSNUM21": "02",
    "SECSSNUM21": "00102",
    "OBJECTID_1": 9672,
    "DT": "01",
    "CC": "14",
    "fr": "05",
    "SEC": "001",
    "SS": "02"
  },
  "addresses": [
    {
      "id": "pt.ine.add.PTCONT.296618",
      "street": "PC S PEDRO",
      "house": "54",
      "postcode": "3770-355",
      "city": "PALHAÇA",
      "lon": "-8.59935030048801",
      "lat": "40.524459345240594"
    },
    {
      "id": "pt.ine.add.PTCONT.318409",
      "street": "PC S PEDRO",
      "house": "62",
      "postcode": "3770-355",
      "city": "PALHAÇA",
      "lon": "-8.598879264512885",
      "lat": "40.52460533020338"
    },
    {
      "id": "pt.ine.add.PTCONT.328449",
      "street": "R CANOA",
      "house": "",
      "postcode": "3770-355",
      "city": "PALHAÇA",
      "lon": "-8.59806046268708",
      "lat": "40.52395123840131"
    },
    {
      "id": "pt.ine.add.PTCONT.328451",
      "street": "R CANOA",
      "house": "",
      "postcode": "3770-355",
      "city": "PALHAÇA",
      "lon": "-8.59806046268708",
      "lat": "40.52395123840131"
    },
    {
      "id": "pt.ine.add.PTCONT.328452",
      "street": "R CANOA",
      "house": "",
      "postcode": "3770-355",
      "city": "PALHAÇA",
      "lon": "-8.59806046268708",
      "lat": "40.52395123840131"
    },
    {
      "id": "pt.ine.add.PTCONT.328453",
      "street": "R CANOA",
      "house": "N 6",
      "postcode": "3770-355",
      "city": "PALHAÇA",
      "lon": "-8.59806046268708",
      "lat": "40.52395123840131"
    },
    {
      "id": "pt.ine.add.PTCONT.329418",
      "street": "R CANOA",
      "house": "",
      "postcode": "3770-355",
      "city": "PALHAÇA",
      "lon": "-8.59806046268708",
      "lat": "40.52395123840131"
    },
    {
      "id": "pt.ine.add.PTCONT.330467",
      "street": "PC S PEDRO",
      "house": "",
      "postcode": "3770-355",
      "city": "PALHAÇA",
      "lon": "-8.598396301050387",
      "lat": "40.52473335060807"
    },
    {
      "id": "pt.ine.add.PTCONT.335498",
      "street": "PC S PEDRO",
      "house": "82",
      "postcode": "3770-355",
      "city": "PALHAÇA",
      "lon": "-8.597983892302844",
      "lat": "40.524825063835124"
    },
    {
      "id": "pt.ine.add.PTCONT.347494",
      "street": "R CANOA",
      "house": "",
      "postcode": "3770-355",
      "city": "PALHAÇA",
      "lon": "-8.59806046268708",
      "lat": "40.52395123840131"
    },
    {
      "id": "pt.ine.add.PTCONT.351218",
      "street": "PC DE S PEDRO",
      "house": "84",
      "postcode": "3770-355",
      "city": "PALHAÇA",
      "lon": "-8.597889111886134",
      "lat": "40.52477141310951"
    },
    {
      "id": "pt.ine.add.PTCONT.9629",
      "street": "PC S PEDRO",
      "house": "58",
      "postcode": "3770-355",
      "city": "PALHAÇA",
      "lon": "-8.599162048515396",
      "lat": "40.52454115266731"
    },
    {
      "id": "pt.ine.add.PTCONT.9630",
      "street": "PC S PEDRO",
      "house": "58",
      "postcode": "3770-355",
      "city": "PALHAÇA",
      "lon": "-8.599162048515396",
      "lat": "40.52454115266731"
    },
    {
      "id": "pt.ine.add.PTCONT.30924",
      "street": "PC S PEDRO",
      "house": "70",
      "postcode": "3770-355",
      "city": "PALHAÇA",
      "lon": "-8.598502322136548",
      "lat": "40.524705907648745"
    },
    {
      "id": "pt.ine.add.PTCONT.30925",
      "street": "R CANOA",
      "house": "",
      "postcode": "3770-355",
      "city": "PALHAÇA",
      "lon": "-8.598073259054251",
      "lat": "40.52409527225774"
    },
    {
      "id": "pt.ine.add.PTCONT.30926",
      "street": "R CANOA",
      "house": "",
      "postcode": "3770-355",
      "city": "PALHAÇA",
      "lon": "-8.598073259054251",
      "lat": "40.52409527225774"
    },
    {
      "id": "pt.ine.add.PTCONT.30927",
      "street": "R CANOA",
      "house": "",
      "postcode": "3770-355",
      "city": "PALHAÇA",
      "lon": "-8.598073259054251",
      "lat": "40.52409527225774"
    },
    {
      "id": "pt.ine.add.PTCONT.30928",
      "street": "R CANOA",
      "house": "4",
      "postcode": "3770-355",
      "city": "PALHAÇA",
      "lon": "-8.598073259054251",
      "lat": "40.52409527225774"
    },
    {
      "id": "pt.ine.add.PTCONT.30929",
      "street": "R CANOA",
      "house": "",
      "postcode": "3770-355",
      "city": "PALHAÇA",
      "lon": "-8.598073259054251",
      "lat": "40.52409527225774"
    },
    {
      "id": "pt.ine.add.PTCONT.31485",
      "street": "R CANOA",
      "house": "4",
      "postcode": "3770-355",
      "city": "PALHAÇA",
      "lon": "-8.598073259054251",
      "lat": "40.52409527225774"
    },
    {
      "id": "pt.ine.add.PTCONT.41859",
      "street": "R DR JOSE CARVALHO",
      "house": "95",
      "postcode": "3770-355",
      "city": "PALHAÇA",
      "lon": "-8.599435283427825",
      "lat": "40.523099196837315"
    },
    {
      "id": "pt.ine.add.PTCONT.53469",
      "street": "PC S PEDRO",
      "house": "64",
      "postcode": "3770-355",
      "city": "PALHAÇA",
      "lon": "-8.598773181420455",
      "lat": "40.524623768425386"
    },
    {
      "id": "pt.ine.add.PTCONT.87551",
      "street": "R CANOA",
      "house": "2",
      "postcode": "3770-355",
      "city": "PALHAÇA",
      "lon": "-8.597968669642281",
      "lat": "40.52432983174424"
    },
    {
      "id": "pt.ine.add.PTCONT.102699",
      "street": "R PADRE MANUEL OLIVEIRA",
      "house": "5",
      "postcode": "3770-355",
      "city": "PALHAÇA",
      "lon": "-8.598500607420977",
      "lat": "40.52275175696332"
    },
    {
      "id": "pt.ine.add.PTCONT.126700",
      "street": "R DR JOSE CARVALHO",
      "house": "3",
      "postcode": "3770-355",
      "city": "PALHAÇA",
      "lon": "-8.599428787364904",
      "lat": "40.52386467650399"
    },
    {
      "id": "pt.ine.add.PTCONT.133974",
      "street": "PC S PEDRO",
      "house": "56",
      "postcode": "3770-355",
      "city": "PALHAÇA",
      "lon": "-8.599315334744373",
      "lat": "40.52452252365146"
    },
    {
      "id": "pt.ine.add.PTCONT.153050",
      "street": "R DR JOSE CARVALHO",
      "house": "9",
      "postcode": "3770-355",
      "city": "PALHAÇA",
      "lon": "-8.599333196039453",
      "lat": "40.523693960880074"
    },
    {
      "id": "pt.ine.add.PTCONT.165951",
      "street": "PC S PEDRO",
      "house": "80",
      "postcode": "3770-355",
      "city": "PALHAÇA",
      "lon": "-8.598113453260199",
      "lat": "40.52478852119398"
    },
    {
      "id": "pt.ine.add.PTCONT.165952",
      "street": "PC S PEDRO",
      "house": "80",
      "postcode": "3770-355",
      "city": "PALHAÇA",
      "lon": "-8.598113453260199",
      "lat": "40.52478852119398"
    },
    {
      "id": "pt.ine.add.PTCONT.165953",
      "street": "PC S PEDRO",
      "house": "80",
      "postcode": "3770-355",
      "city": "PALHAÇA",
      "lon": "-8.598113453260199",
      "lat": "40.52478852119398"
    },
    {
      "id": "pt.ine.add.PTCONT.165954",
      "street": "PC S PEDRO",
      "house": "80",
      "postcode": "3770-355",
      "city": "PALHAÇA",
      "lon": "-8.598113453260199",
      "lat": "40.52478852119398"
    },
    {
      "id": "pt.ine.add.PTCONT.191112",
      "street": "PC S PEDRO",
      "house": "50",
      "postcode": "3770-355",
      "city": "PALHAÇA",
      "lon": "-8.599443708580027",
      "lat": "40.52431488297583"
    },
    {
      "id": "pt.ine.add.PTCONT.210099",
      "street": "PC S PEDRO",
      "house": "52",
      "postcode": "3770-355",
      "city": "PALHAÇA",
      "lon": "-8.599432469453426",
      "lat": "40.524395976333544"
    },
    {
      "id": "pt.ine.add.PTCONT.215623",
      "street": "R DR JOSE CARVALHO",
      "house": "5",
      "postcode": "3770-355",
      "city": "PALHAÇA",
      "lon": "-8.599381085242454",
      "lat": "40.52379282632656"
    },
    {
      "id": "pt.ine.add.PTCONT.248320",
      "street": "PC S PEDRO",
      "house": "46",
      "postcode": "3770-355",
      "city": "PALHAÇA",
      "lon": "-8.599489413815617",
      "lat": "40.52409857050711"
    },
    {
      "id": "pt.ine.add.PTCONT.276224",
      "street": "PC S PEDRO",
      "house": "78",
      "postcode": "3770-355",
      "city": "PALHAÇA",
      "lon": "-8.598254877214044",
      "lat": "40.52476093598732"
    }
  ]
}