{
  "data": {
    "distrito": "Coimbra",
    "concelho": "Pampilhosa da Serra",
    "freguesia": "Pampilhosa da Serra",
    "OBJECTID": 160,
    "BGRI2021": "06120600116",
    "DT21": "06",
    "DTMN21": "0612",
    "DTMNFR21": "061206",
    "DTMNFRSEC21": "061206001",
    "SECNUM21": "001",
    "SSNUM21": "16",
    "SECSSNUM21": "00116",
    "OBJECTID_1": 55417,
    "DT": "06",
    "CC": "12",
    "fr": "06",
    "SEC": "001",
    "SS": "16"
  },
  "addresses": [
    {
      "id": "pt.ine.add.PTCONT.1107401",
      "street": "R ANTÓNIO SERRA",
      "house": "",
      "postcode": "3320-181",
      "city": "PAMPILHOSA DA SERRA",
      "lon": "-7.914021638906665",
      "lat": "40.061027901370636"
    },
    {
      "id": "pt.ine.add.PTCONT.1107402",
      "street": "ESCNH FORNO",
      "house": "",
      "postcode": "3320-181",
      "city": "PAMPILHOSA DA SERRA",
      "lon": "-7.914267574007703",
      "lat": "40.06109140881841"
    },
    {
      "id": "pt.ine.add.PTCONT.1113698",
      "street": "R BARROCO",
      "house": "7",
      "postcode": "3320-181",
      "city": "PAMPILHOSA DA SERRA",
      "lon": "-7.913928853655168",
      "lat": "40.06072151872622"
    },
    {
      "id": "pt.ine.add.PTCONT.1115638",
      "street": "R IGREJA",
      "house": "",
      "postcode": "3320-181",
      "city": "PAMPILHOSA DA SERRA",
      "lon": "-7.913797730986984",
      "lat": "40.06140573361496"
    },
    {
      "id": "pt.ine.add.PTCONT.1132396",
      "street": "R JOSE ALEXANDRE",
      "house": "",
      "postcode": "3320-181",
      "city": "PAMPILHOSA DA SERRA",
      "lon": "-7.91371837125292",
      "lat": "40.06056801676503"
    },
    {
      "id": "pt.ine.add.PTCONT.1137511",
      "street": "R FLORES",
      "house": "",
      "postcode": "3320-181",
      "city": "PAMPILHOSA DA SERRA",
      "lon": "-7.913705148441638",
      "lat": "40.06103630854909"
    },
    {
      "id": "pt.ine.add.PTCONT.1152440",
      "street": "R S LOURENÇO",
      "house": "",
      "postcode": "3320-181",
      "city": "PAMPILHOSA DA SERRA",
      "lon": "-7.91410454952344",
      "lat": "40.06075787534461"
    },
    {
      "id": "pt.ine.add.PTCONT.1162633",
      "street": "LG UNIAO",
      "house": "",
      "postcode": "3320-181",
      "city": "PAMPILHOSA DA SERRA",
      "lon": "-7.913586784340865",
      "lat": "40.061396328023605"
    },
    {
      "id": "pt.ine.add.PTCONT.1173520",
      "street": "R ESCADINHAS DO FORNO",
      "house": "",
      "postcode": "3320-181",
      "city": "PAMPILHOSA DA SERRA",
      "lon": "-7.914432759407909",
      "lat": "40.06074948919397"
    },
    {
      "id": "pt.ine.add.PTCONT.1178685",
      "street": "R ANDRE SIMAO",
      "house": "",
      "postcode": "3320-181",
      "city": "PAMPILHOSA DA SERRA",
      "lon": "-7.913999841629189",
      "lat": "40.06051451285813"
    },
    {
      "id": "pt.ine.add.PTCONT.1184213",
      "street": "R CAPELA",
      "house": "",
      "postcode": "3320-181",
      "city": "PAMPILHOSA DA SERRA",
      "lon": "-7.913824088700816",
      "lat": "40.06049616815852"
    },
    {
      "id": "pt.ine.add.PTCONT.1188871",
      "street": "R FLORES",
      "house": "",
      "postcode": "3320-181",
      "city": "PAMPILHOSA DA SERRA",
      "lon": "-7.9139752750287276",
      "lat": "40.06086570402136"
    },
    {
      "id": "pt.ine.add.PTCONT.1192718",
      "street": "R ESCADINHAS DA CAPELA",
      "house": "",
      "postcode": "3320-181",
      "city": "PAMPILHOSA DA SERRA",
      "lon": "-7.914385214070546",
      "lat": "40.06095653957844"
    },
    {
      "id": "pt.ine.add.PTCONT.1204662",
      "street": "R FLORES",
      "house": "",
      "postcode": "3320-181",
      "city": "PAMPILHOSA DA SERRA",
      "lon": "-7.914021869666447",
      "lat": "40.06095585306701"
    },
    {
      "id": "pt.ine.add.PTCONT.1214837",
      "street": "R FLORES",
      "house": "",
      "postcode": "3320-181",
      "city": "PAMPILHOSA DA SERRA",
      "lon": "-7.9138687489422646",
      "lat": "40.06118972181714"
    },
    {
      "id": "pt.ine.add.PTCONT.1218438",
      "street": "R MANUEL MARQUES",
      "house": "",
      "postcode": "3320-181",
      "city": "PAMPILHOSA DA SERRA",
      "lon": "-7.914081713589583",
      "lat": "40.060568704222796"
    },
    {
      "id": "pt.ine.add.PTCONT.1222844",
      "street": "R LOURENÇO ROQUE",
      "house": "",
      "postcode": "3320-181",
      "city": "PAMPILHOSA DA SERRA",
      "lon": "-7.913448447648",
      "lat": "40.060675578437625"
    },
    {
      "id": "pt.ine.add.PTCONT.1226307",
      "street": "R BARROCO",
      "house": "13",
      "postcode": "3320-181",
      "city": "PAMPILHOSA DA SERRA",
      "lon": "-7.913612855872045",
      "lat": "40.06057682300545"
    },
    {
      "id": "pt.ine.add.PTCONT.1232373",
      "street": "R ISAURA ANTÃO",
      "house": "",
      "postcode": "3320-181",
      "city": "PAMPILHOSA DA SERRA",
      "lon": "-7.913706275013149",
      "lat": "40.060685073068335"
    },
    {
      "id": "pt.ine.add.PTCONT.1255745",
      "street": "R ESCADINHAS DA CAPELA",
      "house": "",
      "postcode": "3320-181",
      "city": "PAMPILHOSA DA SERRA",
      "lon": "-7.91433884937745",
      "lat": "40.060794342370464"
    },
    {
      "id": "pt.ine.add.PTCONT.1259978",
      "street": "R LOURENÇO ROQUE",
      "house": "",
      "postcode": "3320-181",
      "city": "PAMPILHOSA DA SERRA",
      "lon": "-7.913530463908862",
      "lat": "40.060684739999274"
    },
    {
      "id": "pt.ine.add.PTCONT.1267907",
      "street": "R LOURENÇO ROQUE",
      "house": "",
      "postcode": "3320-181",
      "city": "PAMPILHOSA DA SERRA",
      "lon": "-7.91354201120203",
      "lat": "40.06073879844076"
    },
    {
      "id": "pt.ine.add.PTCONT.1267910",
      "street": "R BARROCO",
      "house": "",
      "postcode": "3320-181",
      "city": "PAMPILHOSA DA SERRA",
      "lon": "-7.914057464630505",
      "lat": "40.06082082898134"
    },
    {
      "id": "pt.ine.add.PTCONT.1271994",
      "street": "R S LOURENCO",
      "house": "13",
      "postcode": "3320-181",
      "city": "PAMPILHOSA DA SERRA",
      "lon": "-7.913481296581943",
      "lat": "40.06139612810245"
    },
    {
      "id": "pt.ine.add.PTCONT.1274069",
      "street": "R S MIGUEL",
      "house": "",
      "postcode": "3320-181",
      "city": "PAMPILHOSA DA SERRA",
      "lon": "-7.9138121370160235",
      "lat": "40.06056819428257"
    },
    {
      "id": "pt.ine.add.PTCONT.1280035",
      "street": "R ESCADINHAS DA CAPELA",
      "house": "",
      "postcode": "3320-181",
      "city": "PAMPILHOSA DA SERRA",
      "lon": "-7.91465507980014",
      "lat": "40.0608669878047"
    },
    {
      "id": "pt.ine.add.PTCONT.1286301",
      "street": "R FLORES",
      "house": "",
      "postcode": "3320-181",
      "city": "PAMPILHOSA DA SERRA",
      "lon": "-7.913869499436184",
      "lat": "40.06095556483598"
    },
    {
      "id": "pt.ine.add.PTCONT.1290430",
      "street": "R S LOURENÇO",
      "house": "",
      "postcode": "3320-181",
      "city": "PAMPILHOSA DA SERRA",
      "lon": "-7.914268553632348",
      "lat": "40.060785203520126"
    },
    {
      "id": "pt.ine.add.PTCONT.1296648",
      "street": "R FLORES",
      "house": "",
      "postcode": "3320-181",
      "city": "PAMPILHOSA DA SERRA",
      "lon": "-7.913869297380994",
      "lat": "40.06101860710107"
    },
    {
      "id": "pt.ine.add.PTCONT.1300558",
      "street": "R FLORES",
      "house": "",
      "postcode": "3320-181",
      "city": "PAMPILHOSA DA SERRA",
      "lon": "-7.913905152420933",
      "lat": "40.06080252872163"
    },
    {
      "id": "pt.ine.add.PTCONT.1304455",
      "street": "R S LOURENÇO",
      "house": "",
      "postcode": "3320-181",
      "city": "PAMPILHOSA DA SERRA",
      "lon": "-7.914104866694827",
      "lat": "40.060658808921715"
    },
    {
      "id": "pt.ine.add.PTCONT.1306353",
      "street": "R FLORES",
      "house": "",
      "postcode": "3320-181",
      "city": "PAMPILHOSA DA SERRA",
      "lon": "-7.913739242197778",
      "lat": "40.061369598517516"
    },
    {
      "id": "pt.ine.add.PTCONT.1309932",
      "street": "R FLORES",
      "house": "",
      "postcode": "3320-181",
      "city": "PAMPILHOSA DA SERRA",
      "lon": "-7.913729254362531",
      "lat": "40.0608292140677"
    },
    {
      "id": "pt.ine.add.PTCONT.1324487",
      "street": "R IGREJA",
      "house": "",
      "postcode": "3320-181",
      "city": "PAMPILHOSA DA SERRA",
      "lon": "-7.913845076340666",
      "lat": "40.061261725755614"
    },
    {
      "id": "pt.ine.add.PTCONT.1324488",
      "street": "R BARROCO",
      "house": "",
      "postcode": "3320-181",
      "city": "PAMPILHOSA DA SERRA",
      "lon": "-7.913835058811883",
      "lat": "40.060730347340865"
    },
    {
      "id": "pt.ine.add.PTCONT.1324489",
      "street": "R ESCADINHAS DO FORNO",
      "house": "",
      "postcode": "3320-235",
      "city": "PAMPILHOSA DA SERRA",
      "lon": "-7.914198891976397",
      "lat": "40.060577931778994"
    },
    {
      "id": "pt.ine.add.PTCONT.1328668",
      "street": "ESCNH FORNO",
      "house": "",
      "postcode": "3320-181",
      "city": "PAMPILHOSA DA SERRA",
      "lon": "-7.914092396238166",
      "lat": "40.060892943762404"
    },
    {
      "id": "pt.ine.add.PTCONT.1334711",
      "street": "R LOURENÇO ROQUE",
      "house": "",
      "postcode": "3320-181",
      "city": "PAMPILHOSA DA SERRA",
      "lon": "-7.913635546033452",
      "lat": "40.06081102440614"
    },
    {
      "id": "pt.ine.add.PTCONT.1342991",
      "street": "R CAPELA",
      "house": "",
      "postcode": "3320-181",
      "city": "PAMPILHOSA DA SERRA",
      "lon": "-7.913917940940481",
      "lat": "40.060469327474166"
    },
    {
      "id": "pt.ine.add.PTCONT.1346557",
      "street": "ESCNH FORNO",
      "house": "",
      "postcode": "3320-181",
      "city": "PAMPILHOSA DA SERRA",
      "lon": "-7.914325371515179",
      "lat": "40.06134368855714"
    },
    {
      "id": "pt.ine.add.PTCONT.1349990",
      "street": "R FORNO",
      "house": "",
      "postcode": "3320-181",
      "city": "PAMPILHOSA DA SERRA",
      "lon": "-7.914327416662868",
      "lat": "40.060704259852955"
    }
  ]
}