{
  "data": {
    "distrito": "Guarda",
    "concelho": "Aguiar da Beira",
    "freguesia": "Dornelas",
    "OBJECTID": 353,
    "BGRI2021": "09010500124",
    "DT21": "09",
    "DTMN21": "0901",
    "DTMNFR21": "090105",
    "DTMNFRSEC21": "090105001",
    "SECNUM21": "001",
    "SSNUM21": "24",
    "SECSSNUM21": "00124",
    "OBJECTID_1": 74848,
    "DT": "09",
    "CC": "01",
    "fr": "05",
    "SEC": "001",
    "SS": "24"
  },
  "addresses": [
    {
      "id": "pt.ine.add.PTCONT.1899554",
      "street": "R DA PONTINHA",
      "house": "5",
      "postcode": "3570-130",
      "city": "DORNELAS AGB",
      "lon": "-7.564058196084954",
      "lat": "40.730135703565914"
    },
    {
      "id": "pt.ine.add.PTCONT.1906901",
      "street": "R FREIXEIRO",
      "house": "5",
      "postcode": "3570-130",
      "city": "DORNELAS AGB",
      "lon": "-7.564073024632479",
      "lat": "40.72978458198671"
    },
    {
      "id": "pt.ine.add.PTCONT.1907335",
      "street": "R FREIXEIRO",
      "house": "15",
      "postcode": "3570-130",
      "city": "DORNELAS AGB",
      "lon": "-7.564607981412087",
      "lat": "40.729517068242394"
    },
    {
      "id": "pt.ine.add.PTCONT.1915285",
      "street": "AV DA PONTINHA",
      "house": "23",
      "postcode": "3570-130",
      "city": "DORNELAS AGB",
      "lon": "-7.5607514133421585",
      "lat": "40.73200139650015"
    },
    {
      "id": "pt.ine.add.PTCONT.1916078",
      "street": "AV DA PONTINHA",
      "house": "49",
      "postcode": "3570-130",
      "city": "DORNELAS AGB",
      "lon": "-7.564496467988139",
      "lat": "40.73010184345256"
    },
    {
      "id": "pt.ine.add.PTCONT.1921961",
      "street": "AV DA PONTINHA",
      "house": "21",
      "postcode": "3570-130",
      "city": "DORNELAS AGB",
      "lon": "-7.560335334537482",
      "lat": "40.73220644725266"
    },
    {
      "id": "pt.ine.add.PTCONT.1927378",
      "street": "AV DA PONTINHA",
      "house": "27",
      "postcode": "3570-130",
      "city": "DORNELAS AGB",
      "lon": "-7.561202846963666",
      "lat": "40.731814529393844"
    },
    {
      "id": "pt.ine.add.PTCONT.1930609",
      "street": "TV DA PONTINHA",
      "house": "9",
      "postcode": "3570-130",
      "city": "DORNELAS AGB",
      "lon": "-7.562417626489598",
      "lat": "40.73095606301273"
    },
    {
      "id": "pt.ine.add.PTCONT.1931644",
      "street": "TV DA LAGE DA PONTINHA",
      "house": "6",
      "postcode": "3570-130",
      "city": "DORNELAS AGB",
      "lon": "-7.563413397278163",
      "lat": "40.730789887238004"
    },
    {
      "id": "pt.ine.add.PTCONT.1941842",
      "street": "AV DA PONTINHA",
      "house": "41",
      "postcode": "3570-130",
      "city": "DORNELAS AGB",
      "lon": "-7.562806634340404",
      "lat": "40.73114709049558"
    },
    {
      "id": "pt.ine.add.PTCONT.1944921",
      "street": "R DA PONTINHA",
      "house": "7",
      "postcode": "3570-130",
      "city": "DORNELAS AGB",
      "lon": "-7.564367642201781",
      "lat": "40.72993911890397"
    },
    {
      "id": "pt.ine.add.PTCONT.1954855",
      "street": "TV DA PONTINHA",
      "house": "11",
      "postcode": "3570-130",
      "city": "DORNELAS AGB",
      "lon": "-7.562869894029215",
      "lat": "40.730670138560335"
    },
    {
      "id": "pt.ine.add.PTCONT.1955788",
      "street": "AV DA PONTINHA",
      "house": "17",
      "postcode": "3570-130",
      "city": "DORNELAS AGB",
      "lon": "-7.5600029641504936",
      "lat": "40.732312857294126"
    },
    {
      "id": "pt.ine.add.PTCONT.1962130",
      "street": "AV DA PONTINHA",
      "house": "31",
      "postcode": "3570-130",
      "city": "DORNELAS AGB",
      "lon": "-7.561844211711993",
      "lat": "40.73156556575914"
    },
    {
      "id": "pt.ine.add.PTCONT.1962131",
      "street": "AV DA PONTINHA",
      "house": "",
      "postcode": "3570-130",
      "city": "DORNELAS AGB",
      "lon": "-7.565161171607562",
      "lat": "40.72988899620085"
    },
    {
      "id": "pt.ine.add.PTCONT.1963900",
      "street": "R FREIXEIRO",
      "house": "11",
      "postcode": "3570-130",
      "city": "DORNELAS AGB",
      "lon": "-7.564112907185054",
      "lat": "40.729271494020146"
    },
    {
      "id": "pt.ine.add.PTCONT.1964608",
      "street": "AV DA PONTINHA",
      "house": "33",
      "postcode": "3570-130",
      "city": "DORNELAS AGB",
      "lon": "-7.562010470725434",
      "lat": "40.73150335357091"
    },
    {
      "id": "pt.ine.add.PTCONT.1968176",
      "street": "AV DA PONTINHA",
      "house": "19",
      "postcode": "3570-130",
      "city": "DORNELAS AGB",
      "lon": "-7.560169226716443",
      "lat": "40.73225064779019"
    },
    {
      "id": "pt.ine.add.PTCONT.1979064",
      "street": "TV DA LAGE DA PONTINHA",
      "house": "4",
      "postcode": "3570-130",
      "city": "DORNELAS AGB",
      "lon": "-7.563081730371103",
      "lat": "40.73081526475233"
    },
    {
      "id": "pt.ine.add.PTCONT.1851875",
      "street": "R PEIXEMAO",
      "house": "19",
      "postcode": "3570-130",
      "city": "DORNELAS AGB",
      "lon": "-7.560372699436581",
      "lat": "40.73199051295863"
    },
    {
      "id": "pt.ine.add.PTCONT.1857772",
      "street": "LOTEAM DA PONTINHA",
      "house": "",
      "postcode": "3570-130",
      "city": "DORNELAS AGB",
      "lon": "-7.564058196084954",
      "lat": "40.730135703565914"
    },
    {
      "id": "pt.ine.add.PTCONT.1870715",
      "street": "AV DA PONTINHA",
      "house": "39",
      "postcode": "3570-130",
      "city": "DORNELAS AGB",
      "lon": "-7.562545295664214",
      "lat": "40.7312538588315"
    },
    {
      "id": "pt.ine.add.PTCONT.1874824",
      "street": "TV DA PONTINHA",
      "house": "7",
      "postcode": "3570-130",
      "city": "DORNELAS AGB",
      "lon": "-7.562985343359193",
      "lat": "40.731012898488984"
    },
    {
      "id": "pt.ine.add.PTCONT.1882580",
      "street": "AV DA PONTINHA",
      "house": "47",
      "postcode": "3570-130",
      "city": "DORNELAS AGB",
      "lon": "-7.564211155489685",
      "lat": "40.73024451745485"
    }
  ]
}