{
  "data": {
    "distrito": "Coimbra",
    "concelho": "Soure",
    "freguesia": "Soure",
    "OBJECTID": 296,
    "BGRI2021": "06150900510",
    "DT21": "06",
    "DTMN21": "0615",
    "DTMNFR21": "061509",
    "DTMNFRSEC21": "061509005",
    "SECNUM21": "005",
    "SSNUM21": "10",
    "SECSSNUM21": "00510",
    "OBJECTID_1": 56800,
    "DT": "06",
    "CC": "15",
    "fr": "09",
    "SEC": "005",
    "SS": "10"
  },
  "addresses": [
    {
      "id": "pt.ine.add.PTCONT.1180050",
      "street": "R PRINCIPAL",
      "house": "",
      "postcode": "3130-501",
      "city": "SOURE",
      "lon": "-8.568351626795453",
      "lat": "40.07034217432816"
    },
    {
      "id": "pt.ine.add.PTCONT.1194143",
      "street": "R PRINCIPAL",
      "house": "",
      "postcode": "3130-501",
      "city": "SOURE",
      "lon": "-8.568187287592083",
      "lat": "40.070306767450234"
    },
    {
      "id": "pt.ine.add.PTCONT.1203686",
      "street": "R PRINCIPAL",
      "house": "",
      "postcode": "3130-501",
      "city": "SOURE",
      "lon": "-8.568269399860862",
      "lat": "40.070315465089436"
    },
    {
      "id": "pt.ine.add.PTCONT.1239279",
      "street": "R DAVID ANTÃ“NIO",
      "house": "",
      "postcode": "3130-501",
      "city": "SOURE",
      "lon": "-8.568691855758113",
      "lat": "40.07038592582244"
    },
    {
      "id": "pt.ine.add.PTCONT.1280453",
      "street": "R PRINCIPAL",
      "house": "",
      "postcode": "3130-501",
      "city": "SOURE",
      "lon": "-8.567111251599076",
      "lat": "40.07068905741086"
    },
    {
      "id": "pt.ine.add.PTCONT.1332210",
      "street": "R DULCELINA NEVES",
      "house": "",
      "postcode": "3130-501",
      "city": "SOURE",
      "lon": "-8.56896146519156",
      "lat": "40.070384911804496"
    },
    {
      "id": "pt.ine.add.PTCONT.1335101",
      "street": "R PRINCIPAL",
      "house": "",
      "postcode": "3130-501",
      "city": "SOURE",
      "lon": "-8.567334602555654",
      "lat": "40.070787286947045"
    },
    {
      "id": "pt.ine.add.PTCONT.1363344",
      "street": "R PRINCIPAL",
      "house": "",
      "postcode": "3130-501",
      "city": "SOURE",
      "lon": "-8.56801191376111",
      "lat": "40.07037947429594"
    }
  ]
}