{
  "data": {
    "distrito": "Coimbra",
    "concelho": "Soure",
    "freguesia": "Soure",
    "OBJECTID": 930,
    "BGRI2021": "06150900559",
    "DT21": "06",
    "DTMN21": "0615",
    "DTMNFR21": "061509",
    "DTMNFRSEC21": "061509005",
    "SECNUM21": "005",
    "SSNUM21": "59",
    "SECSSNUM21": "00559",
    "OBJECTID_1": 56565,
    "DT": "06",
    "CC": "15",
    "fr": "09",
    "SEC": "005",
    "SS": "59"
  },
  "addresses": [
    {
      "id": "pt.ine.add.PTCONT.1103494",
      "street": "R BAIRRO NOVO",
      "house": "",
      "postcode": "3130-541",
      "city": "SOURE",
      "lon": "-8.604808185679348",
      "lat": "40.0991988376718"
    },
    {
      "id": "pt.ine.add.PTCONT.1103544",
      "street": "R BAIRRO NOVO",
      "house": "",
      "postcode": "3130-541",
      "city": "SOURE",
      "lon": "-8.604478523702163",
      "lat": "40.0990110538745"
    },
    {
      "id": "pt.ine.add.PTCONT.1109737",
      "street": "R BAIRRO NOVO",
      "house": "",
      "postcode": "3130-541",
      "city": "SOURE",
      "lon": "-8.604333202496015",
      "lat": "40.09834520171557"
    },
    {
      "id": "pt.ine.add.PTCONT.1110035",
      "street": "R ASSOCIAÇÃO",
      "house": "",
      "postcode": "3130-541",
      "city": "SOURE",
      "lon": "-8.60551556284071",
      "lat": "40.098043187784256"
    },
    {
      "id": "pt.ine.add.PTCONT.1112763",
      "street": "TV QUINTAIS",
      "house": "",
      "postcode": "3130-541",
      "city": "SOURE",
      "lon": "-8.603136471966385",
      "lat": "40.10167327473087"
    },
    {
      "id": "pt.ine.add.PTCONT.1119963",
      "street": "R BAIRRO NOVO",
      "house": "",
      "postcode": "3130-541",
      "city": "SOURE",
      "lon": "-8.604947354938929",
      "lat": "40.098973121044594"
    },
    {
      "id": "pt.ine.add.PTCONT.1122002",
      "street": "R PRINCIPAL",
      "house": "",
      "postcode": "3130-541",
      "city": "SOURE",
      "lon": "-8.605025431737232",
      "lat": "40.100089545869785"
    },
    {
      "id": "pt.ine.add.PTCONT.1125076",
      "street": "R PRINCIPAL",
      "house": "",
      "postcode": "3130-541",
      "city": "SOURE",
      "lon": "-8.604175433515952",
      "lat": "40.100975592860465"
    },
    {
      "id": "pt.ine.add.PTCONT.1128290",
      "street": "R BAIRRO NOVO",
      "house": "",
      "postcode": "3130-541",
      "city": "SOURE",
      "lon": "-8.604958148833155",
      "lat": "40.09883798719265"
    },
    {
      "id": "pt.ine.add.PTCONT.1134673",
      "street": "R VALE POÇO",
      "house": "",
      "postcode": "3130-541",
      "city": "SOURE",
      "lon": "-8.60092794620021",
      "lat": "40.10113285050401"
    },
    {
      "id": "pt.ine.add.PTCONT.1134708",
      "street": "R BAIRRO NOVO",
      "house": "",
      "postcode": "3130-541",
      "city": "SOURE",
      "lon": "-8.603850538289532",
      "lat": "40.09807698449961"
    },
    {
      "id": "pt.ine.add.PTCONT.1137610",
      "street": "R BAIRRO NOVO",
      "house": "",
      "postcode": "3130-541",
      "city": "SOURE",
      "lon": "-8.604886729655076",
      "lat": "40.098685176236884"
    },
    {
      "id": "pt.ine.add.PTCONT.1137611",
      "street": "R QUINTAIS",
      "house": "",
      "postcode": "3130-541",
      "city": "SOURE",
      "lon": "-8.603147765609748",
      "lat": "40.101610186982846"
    },
    {
      "id": "pt.ine.add.PTCONT.1137612",
      "street": "R CAVADINHA",
      "house": "",
      "postcode": "3130-541",
      "city": "SOURE",
      "lon": "-8.601515481761336",
      "lat": "40.09959045161417"
    },
    {
      "id": "pt.ine.add.PTCONT.1143431",
      "street": "R PRINCIPAL",
      "house": "",
      "postcode": "3130-541",
      "city": "SOURE",
      "lon": "-8.604988570424773",
      "lat": "40.09984653430357"
    },
    {
      "id": "pt.ine.add.PTCONT.1156703",
      "street": "R VALE POÇO",
      "house": "",
      "postcode": "3130-541",
      "city": "SOURE",
      "lon": "-8.602105753833337",
      "lat": "40.10186657853943"
    },
    {
      "id": "pt.ine.add.PTCONT.1162811",
      "street": "R BAIRRO NOVO",
      "house": "",
      "postcode": "3130-541",
      "city": "SOURE",
      "lon": "-8.604697295548963",
      "lat": "40.09842477386287"
    },
    {
      "id": "pt.ine.add.PTCONT.1164716",
      "street": "R PRINCIPAL",
      "house": "",
      "postcode": "3130-541",
      "city": "SOURE",
      "lon": "-8.604921566583444",
      "lat": "40.10033313072956"
    },
    {
      "id": "pt.ine.add.PTCONT.1172700",
      "street": "R QUINTAIS",
      "house": "",
      "postcode": "3130-541",
      "city": "SOURE",
      "lon": "-8.603229051963455",
      "lat": "40.10149277923825"
    },
    {
      "id": "pt.ine.add.PTCONT.1172701",
      "street": "R QUINTAIS",
      "house": "",
      "postcode": "3130-541",
      "city": "SOURE",
      "lon": "-8.603229051963455",
      "lat": "40.10149277923825"
    },
    {
      "id": "pt.ine.add.PTCONT.1179811",
      "street": "R FONTE",
      "house": "",
      "postcode": "3130-541",
      "city": "SOURE",
      "lon": "-8.603763549373893",
      "lat": "40.10077012948116"
    },
    {
      "id": "pt.ine.add.PTCONT.1184574",
      "street": "R BAIRRO NOVO",
      "house": "",
      "postcode": "3130-541",
      "city": "SOURE",
      "lon": "-8.604429813719431",
      "lat": "40.09875007831378"
    },
    {
      "id": "pt.ine.add.PTCONT.1186402",
      "street": "R BAIRRO NOVO",
      "house": "",
      "postcode": "3130-541",
      "city": "SOURE",
      "lon": "-8.604751291555372",
      "lat": "40.099451237113826"
    },
    {
      "id": "pt.ine.add.PTCONT.1197516",
      "street": "R VALE POÇO",
      "house": "",
      "postcode": "3130-541",
      "city": "SOURE",
      "lon": "-8.601258102604922",
      "lat": "40.101392690252716"
    },
    {
      "id": "pt.ine.add.PTCONT.1203367",
      "street": "R S MARTA",
      "house": "",
      "postcode": "3130-541",
      "city": "SOURE",
      "lon": "-8.60466356755538",
      "lat": "40.100334181366755"
    },
    {
      "id": "pt.ine.add.PTCONT.1209397",
      "street": "R MINA",
      "house": "",
      "postcode": "3130-541",
      "city": "SOURE",
      "lon": "-8.60359210602852",
      "lat": "40.10141925720436"
    },
    {
      "id": "pt.ine.add.PTCONT.1227267",
      "street": "R ASSOCIAÇÃO",
      "house": "",
      "postcode": "3130-541",
      "city": "SOURE",
      "lon": "-8.60530684535737",
      "lat": "40.09838626657632"
    },
    {
      "id": "pt.ine.add.PTCONT.1228985",
      "street": "R MINA",
      "house": "",
      "postcode": "3130-541",
      "city": "SOURE",
      "lon": "-8.603416008744567",
      "lat": "40.10139295439672"
    },
    {
      "id": "pt.ine.add.PTCONT.1231603",
      "street": "TV QUINTAIS",
      "house": "",
      "postcode": "3130-541",
      "city": "SOURE",
      "lon": "-8.603312755858196",
      "lat": "40.1017265951681"
    },
    {
      "id": "pt.ine.add.PTCONT.1238958",
      "street": "R VALE POÇO",
      "house": "",
      "postcode": "3130-541",
      "city": "SOURE",
      "lon": "-8.601869967785195",
      "lat": "40.101687413251454"
    },
    {
      "id": "pt.ine.add.PTCONT.1238959",
      "street": "R CAVADINHA",
      "house": "",
      "postcode": "3130-541",
      "city": "SOURE",
      "lon": "-8.601353956796922",
      "lat": "40.09997836233632"
    },
    {
      "id": "pt.ine.add.PTCONT.1239063",
      "street": "R CAVADINHA",
      "house": "",
      "postcode": "3130-541",
      "city": "SOURE",
      "lon": "-8.601353956796922",
      "lat": "40.09997836233632"
    },
    {
      "id": "pt.ine.add.PTCONT.1249756",
      "street": "POUCA PENA",
      "house": "",
      "postcode": "3130-541",
      "city": "SOURE",
      "lon": "-8.603891304640085",
      "lat": "40.09888735818722"
    },
    {
      "id": "pt.ine.add.PTCONT.1250595",
      "street": "R QUINTAIS",
      "house": "",
      "postcode": "3130-541",
      "city": "SOURE",
      "lon": "-8.602995060936129",
      "lat": "40.101574782616666"
    },
    {
      "id": "pt.ine.add.PTCONT.1252193",
      "street": "R BAIRRO NOVO",
      "house": "",
      "postcode": "3130-541",
      "city": "SOURE",
      "lon": "-8.60450780074816",
      "lat": "40.09815536541855"
    },
    {
      "id": "pt.ine.add.PTCONT.1260142",
      "street": "TV FONTE",
      "house": "",
      "postcode": "3130-541",
      "city": "SOURE",
      "lon": "-8.604124922298483",
      "lat": "40.10045345088391"
    },
    {
      "id": "pt.ine.add.PTCONT.1260349",
      "street": "R PRINCIPAL",
      "house": "",
      "postcode": "3130-541",
      "city": "SOURE",
      "lon": "-8.604191559281826",
      "lat": "40.09991282046692"
    },
    {
      "id": "pt.ine.add.PTCONT.1264224",
      "street": "TV FONTE",
      "house": "",
      "postcode": "3130-541",
      "city": "SOURE",
      "lon": "-8.604065044203322",
      "lat": "40.10027357456082"
    },
    {
      "id": "pt.ine.add.PTCONT.1274208",
      "street": "R CAVADINHA",
      "house": "",
      "postcode": "3130-541",
      "city": "SOURE",
      "lon": "-8.601093054939632",
      "lat": "40.10126727336926"
    },
    {
      "id": "pt.ine.add.PTCONT.1276091",
      "street": "R FILIPES",
      "house": "",
      "postcode": "3130-541",
      "city": "SOURE",
      "lon": "-8.604183931197365",
      "lat": "40.10050724684889"
    },
    {
      "id": "pt.ine.add.PTCONT.1296802",
      "street": "R FONTE",
      "house": "",
      "postcode": "3130-541",
      "city": "SOURE",
      "lon": "-8.603949448081394",
      "lat": "40.10051720624467"
    },
    {
      "id": "pt.ine.add.PTCONT.1296803",
      "street": "TV QUINTAIS",
      "house": "",
      "postcode": "3130-541",
      "city": "SOURE",
      "lon": "-8.602890071392103",
      "lat": "40.101656262382306"
    },
    {
      "id": "pt.ine.add.PTCONT.1300688",
      "street": "R PRINCIPAL",
      "house": "",
      "postcode": "3130-541",
      "city": "SOURE",
      "lon": "-8.60497466590632",
      "lat": "40.09953138126697"
    },
    {
      "id": "pt.ine.add.PTCONT.1304776",
      "street": "R PRINCIPAL",
      "house": "",
      "postcode": "3130-541",
      "city": "SOURE",
      "lon": "-8.603161166407345",
      "lat": "40.10185329428055"
    },
    {
      "id": "pt.ine.add.PTCONT.1306502",
      "street": "R CAVADINHA",
      "house": "",
      "postcode": "3130-541",
      "city": "SOURE",
      "lon": "-8.600846851648908",
      "lat": "40.09956613560895"
    },
    {
      "id": "pt.ine.add.PTCONT.1307564",
      "street": "R FONTE",
      "house": "",
      "postcode": "3130-541",
      "city": "SOURE",
      "lon": "-8.603928724845973",
      "lat": "40.100913554022604"
    },
    {
      "id": "pt.ine.add.PTCONT.1310093",
      "street": "R CAVADINHA",
      "house": "",
      "postcode": "3130-541",
      "city": "SOURE",
      "lon": "-8.601124349646232",
      "lat": "40.10069976956907"
    },
    {
      "id": "pt.ine.add.PTCONT.1310094",
      "street": "R CAVADINHA",
      "house": "",
      "postcode": "3130-541",
      "city": "SOURE",
      "lon": "-8.601124349646232",
      "lat": "40.10069976956907"
    },
    {
      "id": "pt.ine.add.PTCONT.1312638",
      "street": "R FILIPES",
      "house": "",
      "postcode": "3130-541",
      "city": "SOURE",
      "lon": "-8.604278184115367",
      "lat": "40.100569905412"
    },
    {
      "id": "pt.ine.add.PTCONT.1316517",
      "street": "R FONTE",
      "house": "",
      "postcode": "3130-541",
      "city": "SOURE",
      "lon": "-8.603703858077795",
      "lat": "40.10061727019029"
    },
    {
      "id": "pt.ine.add.PTCONT.1316564",
      "street": "R BAIRRO NOVO",
      "house": "",
      "postcode": "3130-541",
      "city": "SOURE",
      "lon": "-8.604567553787975",
      "lat": "40.098317230102225"
    },
    {
      "id": "pt.ine.add.PTCONT.1321566",
      "street": "TV FONTE",
      "house": "",
      "postcode": "3130-541",
      "city": "SOURE",
      "lon": "-8.604369827635729",
      "lat": "40.10025432293929"
    },
    {
      "id": "pt.ine.add.PTCONT.1321567",
      "street": "R PRINCIPAL",
      "house": "",
      "postcode": "3130-541",
      "city": "SOURE",
      "lon": "-8.604161780889628",
      "lat": "40.10069646271533"
    },
    {
      "id": "pt.ine.add.PTCONT.1325005",
      "street": "R ASSOCIAÇÃO",
      "house": "",
      "postcode": "3130-541",
      "city": "SOURE",
      "lon": "-8.605280279187046",
      "lat": "40.097936075213745"
    },
    {
      "id": "pt.ine.add.PTCONT.1328820",
      "street": "R CAVADINHA",
      "house": "",
      "postcode": "3130-541",
      "city": "SOURE",
      "lon": "-8.601237487403294",
      "lat": "40.10009591099739"
    },
    {
      "id": "pt.ine.add.PTCONT.1341172",
      "street": "R HORTAS",
      "house": "",
      "postcode": "3130-541",
      "city": "SOURE",
      "lon": "-8.602245184824396",
      "lat": "40.101676888132495"
    },
    {
      "id": "pt.ine.add.PTCONT.1343134",
      "street": "R FONTE",
      "house": "",
      "postcode": "3130-541",
      "city": "SOURE",
      "lon": "-8.604105628366261",
      "lat": "40.10105693063418"
    },
    {
      "id": "pt.ine.add.PTCONT.1349296",
      "street": "R PRINCIPAL",
      "house": "",
      "postcode": "3130-541",
      "city": "SOURE",
      "lon": "-8.604256841588557",
      "lat": "40.100876195869446"
    },
    {
      "id": "pt.ine.add.PTCONT.1350379",
      "street": "R VALE POÇO",
      "house": "",
      "postcode": "3130-541",
      "city": "SOURE",
      "lon": "-8.601646960599718",
      "lat": "40.101661297592656"
    },
    {
      "id": "pt.ine.add.PTCONT.1354676",
      "street": "R HORTAS",
      "house": "",
      "postcode": "3130-541",
      "city": "SOURE",
      "lon": "-8.602222657679805",
      "lat": "40.10181206919686"
    },
    {
      "id": "pt.ine.add.PTCONT.1360988",
      "street": "R S MARTA",
      "house": "",
      "postcode": "3130-541",
      "city": "SOURE",
      "lon": "-8.604568320083827",
      "lat": "40.10012743131957"
    },
    {
      "id": "pt.ine.add.PTCONT.1361582",
      "street": "R CAVADINHA",
      "house": "",
      "postcode": "3130-541",
      "city": "SOURE",
      "lon": "-8.601504557442698",
      "lat": "40.0997075736836"
    },
    {
      "id": "pt.ine.add.PTCONT.1364708",
      "street": "R PRINCIPAL",
      "house": "",
      "postcode": "3130-541",
      "city": "SOURE",
      "lon": "-8.604778352408845",
      "lat": "40.099973474395476"
    }
  ]
}