{
  "data": {
    "distrito": "Lisboa",
    "concelho": "Alenquer",
    "freguesia": "União das freguesias de Ribafria e Pereiro de Palhacana",
    "OBJECTID": 111,
    "BGRI2021": "11012100203",
    "DT21": "11",
    "DTMN21": "1101",
    "DTMNFR21": "110121",
    "DTMNFRSEC21": "110121002",
    "SECNUM21": "002",
    "SSNUM21": "03",
    "SECSSNUM21": "00203",
    "OBJECTID_1": 99139,
    "DT": "11",
    "CC": "01",
    "fr": "21",
    "SEC": "002",
    "SS": "03"
  },
  "addresses": [
    {
      "id": "pt.ine.add.PTCONT.2331718",
      "street": "R ROSAS",
      "house": "3",
      "postcode": "2580-555",
      "city": "RIBAFRIA",
      "lon": "-9.087553854521232",
      "lat": "39.06609554176646"
    },
    {
      "id": "pt.ine.add.PTCONT.2405442",
      "street": "R S JOÃO",
      "house": "1",
      "postcode": "2580-555",
      "city": "RIBAFRIA",
      "lon": "-9.088227590093734",
      "lat": "39.06550454495065"
    },
    {
      "id": "pt.ine.add.PTCONT.2414286",
      "street": "TV S PEDRO",
      "house": "2",
      "postcode": "2580-555",
      "city": "RIBAFRIA",
      "lon": "-9.086488999505882",
      "lat": "39.06681583652785"
    },
    {
      "id": "pt.ine.add.PTCONT.2522874",
      "street": "QTA AREEIRAS",
      "house": "",
      "postcode": "2580-558",
      "city": "RIBAFRIA",
      "lon": "-9.075052145739459",
      "lat": "39.05827068280877"
    },
    {
      "id": "pt.ine.add.PTCONT.2559798",
      "street": "TV S JOSE",
      "house": "5",
      "postcode": "2580-555",
      "city": "RIBAFRIA",
      "lon": "-9.086857122796145",
      "lat": "39.06669573015625"
    },
    {
      "id": "pt.ine.add.PTCONT.2577059",
      "street": "CAM CATORZE CASAL DOS LIMOEIROS",
      "house": "",
      "postcode": "2580-557",
      "city": "RIBAFRIA",
      "lon": "-9.076884479643512",
      "lat": "39.05445474081056"
    },
    {
      "id": "pt.ine.add.PTCONT.2612566",
      "street": "CAM CATORZE",
      "house": "",
      "postcode": "2580-557",
      "city": "RIBAFRIA",
      "lon": "-9.077334937178385",
      "lat": "39.05531580612413"
    },
    {
      "id": "pt.ine.add.PTCONT.2630792",
      "street": "R VALE DE OLIVEIRA",
      "house": "6",
      "postcode": "2580-555",
      "city": "RIBAFRIA",
      "lon": "-9.086322773829249",
      "lat": "39.066483922010484"
    },
    {
      "id": "pt.ine.add.PTCONT.2640160",
      "street": "R PRIMAVERA EM FLOR",
      "house": "7",
      "postcode": "2580-555",
      "city": "RIBAFRIA",
      "lon": "-9.087411306501172",
      "lat": "39.066664173997054"
    },
    {
      "id": "pt.ine.add.PTCONT.2666056",
      "street": "R PRIMAVERA EM FLOR",
      "house": "1",
      "postcode": "2580-555",
      "city": "RIBAFRIA",
      "lon": "-9.087265482110778",
      "lat": "39.066989633316005"
    },
    {
      "id": "pt.ine.add.PTCONT.2666060",
      "street": "R VALE DE OLIVEIRA",
      "house": "2",
      "postcode": "2580-555",
      "city": "RIBAFRIA",
      "lon": "-9.08629029520372",
      "lat": "39.06664632052547"
    },
    {
      "id": "pt.ine.add.PTCONT.2674750",
      "street": "LG COMBATENTES",
      "house": "22",
      "postcode": "2580-555",
      "city": "RIBAFRIA",
      "lon": "-9.08648972649981",
      "lat": "39.06686987492282"
    },
    {
      "id": "pt.ine.add.PTCONT.2701454",
      "street": "R VALE DE OLIVEIRA",
      "house": "3",
      "postcode": "2580-555",
      "city": "RIBAFRIA",
      "lon": "-9.085948595925744",
      "lat": "39.06615370663245"
    },
    {
      "id": "pt.ine.add.PTCONT.2733001",
      "street": "R CRUZEIRO",
      "house": "18",
      "postcode": "2580-555",
      "city": "RIBAFRIA",
      "lon": "-9.086463227750428",
      "lat": "39.06661788465122"
    },
    {
      "id": "pt.ine.add.PTCONT.2746449",
      "street": "LG FONTE",
      "house": "1",
      "postcode": "2580-555",
      "city": "RIBAFRIA",
      "lon": "-9.08765052418416",
      "lat": "39.06641000914189"
    },
    {
      "id": "pt.ine.add.PTCONT.2746450",
      "street": "LG FONTE",
      "house": "1",
      "postcode": "2580-555",
      "city": "RIBAFRIA",
      "lon": "-9.08765052418416",
      "lat": "39.06641000914189"
    },
    {
      "id": "pt.ine.add.PTCONT.2760618",
      "street": "R VALE CUVE",
      "house": "",
      "postcode": "2580-557",
      "city": "RIBAFRIA",
      "lon": "-9.0755824934585",
      "lat": "39.05384375857514"
    },
    {
      "id": "pt.ine.add.PTCONT.2829311",
      "street": "R ROSAS",
      "house": "7",
      "postcode": "2580-555",
      "city": "RIBAFRIA",
      "lon": "-9.08807776677987",
      "lat": "39.06553279418401"
    },
    {
      "id": "pt.ine.add.PTCONT.2856581",
      "street": "LG COMBATENTES",
      "house": "18",
      "postcode": "2580-555",
      "city": "RIBAFRIA",
      "lon": "-9.086639553304666",
      "lat": "39.06684162769327"
    },
    {
      "id": "pt.ine.add.PTCONT.2871841",
      "street": "R ROSAS",
      "house": "5",
      "postcode": "2580-555",
      "city": "RIBAFRIA",
      "lon": "-9.087985950476419",
      "lat": "39.06557858302378"
    },
    {
      "id": "pt.ine.add.PTCONT.2926234",
      "street": "TV S JOSE",
      "house": "7",
      "postcode": "2580-555",
      "city": "RIBAFRIA",
      "lon": "-9.086925835144783",
      "lat": "39.066650131188005"
    },
    {
      "id": "pt.ine.add.PTCONT.2939932",
      "street": "R ROSAS",
      "house": "3",
      "postcode": "2580-555",
      "city": "RIBAFRIA",
      "lon": "-9.087647976657896",
      "lat": "39.06622087480629"
    },
    {
      "id": "pt.ine.add.PTCONT.3036146",
      "street": "R VALE CUVE",
      "house": "",
      "postcode": "2580-557",
      "city": "RIBAFRIA",
      "lon": "-9.0761410660558",
      "lat": "39.05328078334746"
    },
    {
      "id": "pt.ine.add.PTCONT.3073920",
      "street": "R VALE DE OLIVEIRA",
      "house": "8A",
      "postcode": "2580-555",
      "city": "RIBAFRIA",
      "lon": "-9.086469570862738",
      "lat": "39.066230515003376"
    },
    {
      "id": "pt.ine.add.PTCONT.3092776",
      "street": "R VALE DE OLIVEIRA",
      "house": "1",
      "postcode": "2580-555",
      "city": "RIBAFRIA",
      "lon": "-9.08612516092072",
      "lat": "39.066395463306606"
    },
    {
      "id": "pt.ine.add.PTCONT.3120116",
      "street": "CAM CATORZE",
      "house": "",
      "postcode": "2580-557",
      "city": "RIBAFRIA",
      "lon": "-9.07526079888775",
      "lat": "39.05484618095517"
    },
    {
      "id": "pt.ine.add.PTCONT.3120144",
      "street": "R PRIMAVERA EM FLOR",
      "house": "9",
      "postcode": "2580-555",
      "city": "RIBAFRIA",
      "lon": "-9.087628995145868",
      "lat": "39.06652728143887"
    },
    {
      "id": "pt.ine.add.PTCONT.3129512",
      "street": "R VALE CUVE",
      "house": "",
      "postcode": "2580-557",
      "city": "RIBAFRIA",
      "lon": "-9.07588886186518",
      "lat": "39.05342694112994"
    },
    {
      "id": "pt.ine.add.PTCONT.3157835",
      "street": "TV S PEDRO",
      "house": "5",
      "postcode": "2580-555",
      "city": "RIBAFRIA",
      "lon": "-9.086601864513632",
      "lat": "39.06661675112651"
    },
    {
      "id": "pt.ine.add.PTCONT.3157843",
      "street": "R VALE DE OLIVEIRA",
      "house": "8",
      "postcode": "2580-555",
      "city": "RIBAFRIA",
      "lon": "-9.086180503579282",
      "lat": "39.06621486317833"
    },
    {
      "id": "pt.ine.add.PTCONT.3185644",
      "street": "TV S JOSE",
      "house": "4",
      "postcode": "2580-555",
      "city": "RIBAFRIA",
      "lon": "-9.086949789843834",
      "lat": "39.06671298697431"
    },
    {
      "id": "pt.ine.add.PTCONT.3195200",
      "street": "TV S JOSE",
      "house": "3",
      "postcode": "2580-555",
      "city": "RIBAFRIA",
      "lon": "-9.086823190815116",
      "lat": "39.066750052020055"
    },
    {
      "id": "pt.ine.add.PTCONT.3213031",
      "street": "TV S PEDRO",
      "house": "1",
      "postcode": "2580-555",
      "city": "RIBAFRIA",
      "lon": "-9.08647623477221",
      "lat": "39.06672586699069"
    },
    {
      "id": "pt.ine.add.PTCONT.3213032",
      "street": "TV S PEDRO",
      "house": "1",
      "postcode": "2580-555",
      "city": "RIBAFRIA",
      "lon": "-9.08647623477221",
      "lat": "39.06672586699069"
    },
    {
      "id": "pt.ine.add.PTCONT.3259587",
      "street": "R VALE DE OLIVEIRA",
      "house": "4",
      "postcode": "2580-555",
      "city": "RIBAFRIA",
      "lon": "-9.08632386411788",
      "lat": "39.0665649796113"
    },
    {
      "id": "pt.ine.add.PTCONT.3259720",
      "street": "CAM CATORZE",
      "house": "",
      "postcode": "2580-557",
      "city": "RIBAFRIA",
      "lon": "-9.077310635174344",
      "lat": "39.05522592876485"
    },
    {
      "id": "pt.ine.add.PTCONT.3286576",
      "street": "TV S JOSE",
      "house": "1",
      "postcode": "2580-555",
      "city": "RIBAFRIA",
      "lon": "-9.086766516198384",
      "lat": "39.06683158203967"
    },
    {
      "id": "pt.ine.add.PTCONT.3363148",
      "street": "CAM CATORZE",
      "house": "",
      "postcode": "2580-557",
      "city": "RIBAFRIA",
      "lon": "-9.077319067702891",
      "lat": "39.05499166776744"
    },
    {
      "id": "pt.ine.add.PTCONT.3369730",
      "street": "TV S PEDRO",
      "house": "3",
      "postcode": "2580-555",
      "city": "RIBAFRIA",
      "lon": "-9.086544826227383",
      "lat": "39.06667126184445"
    }
  ]
}