{
  "data": {
    "distrito": "Leiria",
    "concelho": "Ansião",
    "freguesia": "Ansião",
    "OBJECTID": 158,
    "BGRI2021": "10030900341",
    "DT21": "10",
    "DTMN21": "1003",
    "DTMNFR21": "100309",
    "DTMNFRSEC21": "100309003",
    "SECNUM21": "003",
    "SSNUM21": "41",
    "SECSSNUM21": "00341",
    "OBJECTID_1": 86114,
    "DT": "10",
    "CC": "03",
    "fr": "09",
    "SEC": "003",
    "SS": "41"
  },
  "addresses": [
    {
      "id": "pt.ine.add.PTCONT.2012843",
      "street": "R NSA SRA DOS REMEDIOS",
      "house": "",
      "postcode": "3240-561",
      "city": "LAGARTEIRA",
      "lon": "-8.403893878708972",
      "lat": "39.9449370598042"
    },
    {
      "id": "pt.ine.add.PTCONT.2049591",
      "street": "R NSA SRA DOS REMEDIOS",
      "house": "",
      "postcode": "3240-561",
      "city": "LAGARTEIRA",
      "lon": "-8.404223815150159",
      "lat": "39.94552169605869"
    },
    {
      "id": "pt.ine.add.PTCONT.2056947",
      "street": "",
      "house": "",
      "postcode": "3240-561",
      "city": "LAGARTEIRA",
      "lon": "-8.404268485917948",
      "lat": "39.94498121560471"
    },
    {
      "id": "pt.ine.add.PTCONT.2098338",
      "street": "R FEITOSAS",
      "house": "",
      "postcode": "3240-706",
      "city": "TORRE DE VALE DE TODOS",
      "lon": "-8.406787563993465",
      "lat": "39.939949797668646"
    },
    {
      "id": "pt.ine.add.PTCONT.2101231",
      "street": "R NSA SRA DOS REMEDIOS",
      "house": "",
      "postcode": "3240-561",
      "city": "LAGARTEIRA",
      "lon": "-8.40417814846838",
      "lat": "39.945810003343915"
    },
    {
      "id": "pt.ine.add.PTCONT.2122234",
      "street": "R PRINCIPAL",
      "house": "",
      "postcode": "3240-558",
      "city": "LAGARTEIRA",
      "lon": "-8.407967672010686",
      "lat": "39.94539579935878"
    },
    {
      "id": "pt.ine.add.PTCONT.2131644",
      "street": "",
      "house": "",
      "postcode": "3240-562",
      "city": "LAGARTEIRA",
      "lon": "-8.404209483624758",
      "lat": "39.94485526584825"
    },
    {
      "id": "pt.ine.add.PTCONT.2132320",
      "street": "R FEITOSAS",
      "house": "",
      "postcode": "3240-706",
      "city": "TORRE DE VALE DE TODOS",
      "lon": "-8.406917126234346",
      "lat": "39.94016564234706"
    },
    {
      "id": "pt.ine.add.PTCONT.2148251",
      "street": "",
      "house": "",
      "postcode": "3240-561",
      "city": "LAGARTEIRA",
      "lon": "-8.404689861729546",
      "lat": "39.945016254383304"
    },
    {
      "id": "pt.ine.add.PTCONT.2157511",
      "street": "R PRINCIPAL",
      "house": "",
      "postcode": "3240-706",
      "city": "TORRE DE VALE DE TODOS",
      "lon": "-8.406836696805948",
      "lat": "39.94053508948274"
    },
    {
      "id": "pt.ine.add.PTCONT.2168075",
      "street": "R NSA SRA DOS REMEDIOS",
      "house": "",
      "postcode": "3240-561",
      "city": "LAGARTEIRA",
      "lon": "-8.404048086698712",
      "lat": "39.945468069260144"
    },
    {
      "id": "pt.ine.add.PTCONT.2170538",
      "street": "R NSA SRA DOS REMEDIOS",
      "house": "",
      "postcode": "3240-561",
      "city": "LAGARTEIRA",
      "lon": "-8.404034929182414",
      "lat": "39.94509884308506"
    },
    {
      "id": "pt.ine.add.PTCONT.2180907",
      "street": "R NSA SRA DOS REMEDIOS",
      "house": "",
      "postcode": "3240-561",
      "city": "LAGARTEIRA",
      "lon": "-8.406845166132246",
      "lat": "39.945596592933015"
    },
    {
      "id": "pt.ine.add.PTCONT.2183520",
      "street": "R NSA SRA DOS REMEDIOS",
      "house": "",
      "postcode": "3240-561",
      "city": "LAGARTEIRA",
      "lon": "-8.404080382831014",
      "lat": "39.9447564987156"
    },
    {
      "id": "pt.ine.add.PTCONT.2201192",
      "street": "R PRINCIPAL",
      "house": "",
      "postcode": "3240-558",
      "city": "LAGARTEIRA",
      "lon": "-8.408072656472907",
      "lat": "39.94531449402922"
    },
    {
      "id": "pt.ine.add.PTCONT.2204383",
      "street": "R NSA SRA DOS REMEDIOS",
      "house": "",
      "postcode": "3240-561",
      "city": "LAGARTEIRA",
      "lon": "-8.404360777369327",
      "lat": "39.944647767832485"
    },
    {
      "id": "pt.ine.add.PTCONT.2238598",
      "street": "R NSA SRA DOS REMEDIOS",
      "house": "",
      "postcode": "3240-561",
      "city": "LAGARTEIRA",
      "lon": "-8.404327808492502",
      "lat": "39.94518822097812"
    }
  ]
}