{
  "data": {
    "distrito": "Faro",
    "concelho": "Loulé",
    "freguesia": "Quarteira",
    "OBJECTID": 232,
    "BGRI2021": "08080501903",
    "DT21": "08",
    "DTMN21": "0808",
    "DTMNFR21": "080805",
    "DTMNFRSEC21": "080805019",
    "SECNUM21": "019",
    "SSNUM21": "03",
    "SECSSNUM21": "01903",
    "OBJECTID_1": 68125,
    "DT": "08",
    "CC": "08",
    "fr": "05",
    "SEC": "019",
    "SS": "03"
  },
  "addresses": [
    {
      "id": "pt.ine.add.PTCONT.1484059",
      "street": "R GAGO COUTINHO",
      "house": "36",
      "postcode": "8125-217",
      "city": "QUARTEIRA",
      "lon": "-8.106345775568222",
      "lat": "37.0698241667925"
    },
    {
      "id": "pt.ine.add.PTCONT.1484060",
      "street": "R GAGO COUTINHO",
      "house": "36",
      "postcode": "8125-217",
      "city": "QUARTEIRA",
      "lon": "-8.106345775568222",
      "lat": "37.0698241667925"
    },
    {
      "id": "pt.ine.add.PTCONT.1496597",
      "street": "R BARTOLOMEU DIAS",
      "house": "31",
      "postcode": "8125-178",
      "city": "QUARTEIRA",
      "lon": "-8.106660882588058",
      "lat": "37.06909436931123"
    },
    {
      "id": "pt.ine.add.PTCONT.1496598",
      "street": "R BARTOLOMEU DIAS",
      "house": "31",
      "postcode": "8125-178",
      "city": "QUARTEIRA",
      "lon": "-8.106660882588058",
      "lat": "37.06909436931123"
    },
    {
      "id": "pt.ine.add.PTCONT.1496599",
      "street": "R BARTOLOMEU DIAS",
      "house": "31",
      "postcode": "8125-178",
      "city": "QUARTEIRA",
      "lon": "-8.106660882588058",
      "lat": "37.06909436931123"
    },
    {
      "id": "pt.ine.add.PTCONT.1496600",
      "street": "R BARTOLOMEU DIAS",
      "house": "31",
      "postcode": "8125-178",
      "city": "QUARTEIRA",
      "lon": "-8.106660882588058",
      "lat": "37.06909436931123"
    },
    {
      "id": "pt.ine.add.PTCONT.1496601",
      "street": "R BARTOLOMEU DIAS",
      "house": "",
      "postcode": "8125-178",
      "city": "QUARTEIRA",
      "lon": "-8.106660882588058",
      "lat": "37.06909436931123"
    },
    {
      "id": "pt.ine.add.PTCONT.1496602",
      "street": "R BARTOLOMEU DIAS",
      "house": "",
      "postcode": "8125-178",
      "city": "QUARTEIRA",
      "lon": "-8.106660882588058",
      "lat": "37.06909436931123"
    },
    {
      "id": "pt.ine.add.PTCONT.1496604",
      "street": "R BARTOLOMEU DIAS EDIFICIOGAVETO",
      "house": "31",
      "postcode": "8125-178",
      "city": "QUARTEIRA",
      "lon": "-8.106660882588058",
      "lat": "37.06909436931123"
    },
    {
      "id": "pt.ine.add.PTCONT.1496605",
      "street": "R BARTOLOMEU DIAS",
      "house": "31",
      "postcode": "8125-178",
      "city": "QUARTEIRA",
      "lon": "-8.106660882588058",
      "lat": "37.06909436931123"
    },
    {
      "id": "pt.ine.add.PTCONT.1496606",
      "street": "R BARTOLOMEU DIAS",
      "house": "31",
      "postcode": "8125-178",
      "city": "QUARTEIRA",
      "lon": "-8.106660882588058",
      "lat": "37.06909436931123"
    },
    {
      "id": "pt.ine.add.PTCONT.1496607",
      "street": "R BARTOLOMEU DIAS",
      "house": "",
      "postcode": "8125-178",
      "city": "QUARTEIRA",
      "lon": "-8.106660882588058",
      "lat": "37.06909436931123"
    },
    {
      "id": "pt.ine.add.PTCONT.1496608",
      "street": "R BARTOLOMEU DIAS",
      "house": "",
      "postcode": "8125-178",
      "city": "QUARTEIRA",
      "lon": "-8.106660882588058",
      "lat": "37.06909436931123"
    },
    {
      "id": "pt.ine.add.PTCONT.1496609",
      "street": "LG MERCADO",
      "house": "GAVETO",
      "postcode": "8125-168",
      "city": "QUARTEIRA",
      "lon": "-8.106660882588058",
      "lat": "37.06909436931123"
    },
    {
      "id": "pt.ine.add.PTCONT.1496610",
      "street": "R BARTOLOMEU DIAS",
      "house": "31",
      "postcode": "8125-178",
      "city": "QUARTEIRA",
      "lon": "-8.106660882588058",
      "lat": "37.06909436931123"
    },
    {
      "id": "pt.ine.add.PTCONT.1496611",
      "street": "R BARTOLOMEU DIAS",
      "house": "31",
      "postcode": "8125-178",
      "city": "QUARTEIRA",
      "lon": "-8.106660882588058",
      "lat": "37.06909436931123"
    },
    {
      "id": "pt.ine.add.PTCONT.1496612",
      "street": "R BARTOLOMEU DIAS",
      "house": "31",
      "postcode": "8125-178",
      "city": "QUARTEIRA",
      "lon": "-8.106660882588058",
      "lat": "37.06909436931123"
    },
    {
      "id": "pt.ine.add.PTCONT.1496613",
      "street": "R BARTOLOMEU DIAS",
      "house": "31",
      "postcode": "8125-178",
      "city": "QUARTEIRA",
      "lon": "-8.106660882588058",
      "lat": "37.06909436931123"
    },
    {
      "id": "pt.ine.add.PTCONT.1496614",
      "street": "R BARTOLOMEU DIAS",
      "house": "GAVETO",
      "postcode": "8125-178",
      "city": "QUARTEIRA",
      "lon": "-8.106660882588058",
      "lat": "37.06909436931123"
    },
    {
      "id": "pt.ine.add.PTCONT.1496615",
      "street": "R BARTOLOMEU DIAS",
      "house": "ED GAVETO",
      "postcode": "8125-178",
      "city": "QUARTEIRA",
      "lon": "-8.106660882588058",
      "lat": "37.06909436931123"
    },
    {
      "id": "pt.ine.add.PTCONT.1496616",
      "street": "R BARTOLOMEU DIAS",
      "house": "31 GAVETO",
      "postcode": "8125-178",
      "city": "QUARTEIRA",
      "lon": "-8.106660882588058",
      "lat": "37.06909436931123"
    },
    {
      "id": "pt.ine.add.PTCONT.1496617",
      "street": "R BARTOLOMEU DIAS",
      "house": "31 GAVETO",
      "postcode": "8125-178",
      "city": "QUARTEIRA",
      "lon": "-8.106660882588058",
      "lat": "37.06909436931123"
    },
    {
      "id": "pt.ine.add.PTCONT.1496618",
      "street": "R BARTOLOMEU DIAS",
      "house": "31 GAVETO",
      "postcode": "8125-178",
      "city": "QUARTEIRA",
      "lon": "-8.106660882588058",
      "lat": "37.06909436931123"
    },
    {
      "id": "pt.ine.add.PTCONT.1496621",
      "street": "R BARTOLOMEU DIAS",
      "house": "GAVETO",
      "postcode": "8125-178",
      "city": "QUARTEIRA",
      "lon": "-8.106660882588058",
      "lat": "37.06909436931123"
    },
    {
      "id": "pt.ine.add.PTCONT.1497955",
      "street": "R BARTOLOMEU DIAS",
      "house": "31 GAVETO",
      "postcode": "8125-178",
      "city": "QUARTEIRA",
      "lon": "-8.106660882588058",
      "lat": "37.06909436931123"
    },
    {
      "id": "pt.ine.add.PTCONT.1499654",
      "street": "R GONÇALO VELHO",
      "house": "49",
      "postcode": "8125-221",
      "city": "QUARTEIRA",
      "lon": "-8.105828583873429",
      "lat": "37.069634823907194"
    },
    {
      "id": "pt.ine.add.PTCONT.1501645",
      "street": "R GAGO COUTINHO",
      "house": "28",
      "postcode": "8125-217",
      "city": "QUARTEIRA",
      "lon": "-8.106480675019617",
      "lat": "37.06993232576006"
    },
    {
      "id": "pt.ine.add.PTCONT.1501646",
      "street": "R GAGO COUTINHO",
      "house": "28",
      "postcode": "8125-217",
      "city": "QUARTEIRA",
      "lon": "-8.106480675019617",
      "lat": "37.06993232576006"
    },
    {
      "id": "pt.ine.add.PTCONT.1513755",
      "street": "R GAGO COUTINHO",
      "house": "46",
      "postcode": "8125-217",
      "city": "QUARTEIRA",
      "lon": "-8.106053382715375",
      "lat": "37.0699051969186"
    },
    {
      "id": "pt.ine.add.PTCONT.1543180",
      "street": "R BARTOLOMEU DIAS",
      "house": "17",
      "postcode": "8125-178",
      "city": "QUARTEIRA",
      "lon": "-8.106975618777197",
      "lat": "37.06942783564501"
    },
    {
      "id": "pt.ine.add.PTCONT.1545708",
      "street": "R BARTOLOMEU DIAS",
      "house": "27",
      "postcode": "8125-178",
      "city": "QUARTEIRA",
      "lon": "-8.106851992167403",
      "lat": "37.06923858326255"
    },
    {
      "id": "pt.ine.add.PTCONT.1545709",
      "street": "R BARTOLOMEU DIAS",
      "house": "27",
      "postcode": "8125-178",
      "city": "QUARTEIRA",
      "lon": "-8.106851992167403",
      "lat": "37.06923858326255"
    },
    {
      "id": "pt.ine.add.PTCONT.1554864",
      "street": "R GAGO COUTINHO",
      "house": "32",
      "postcode": "8125-217",
      "city": "QUARTEIRA",
      "lon": "-8.10653688638091",
      "lat": "37.0699683812342"
    },
    {
      "id": "pt.ine.add.PTCONT.1572143",
      "street": "R BARTOLOMEU DIAS",
      "house": "7",
      "postcode": "8125-178",
      "city": "QUARTEIRA",
      "lon": "-8.107110447683473",
      "lat": "37.06974324039578"
    },
    {
      "id": "pt.ine.add.PTCONT.1575691",
      "street": "R GAGO COUTINHO",
      "house": "24",
      "postcode": "8125-217",
      "city": "QUARTEIRA",
      "lon": "-8.106604383354485",
      "lat": "37.069887299879476"
    },
    {
      "id": "pt.ine.add.PTCONT.1612314",
      "street": "R GONÇALO VELHO",
      "house": "",
      "postcode": "8125-221",
      "city": "QUARTEIRA",
      "lon": "-8.106447215060909",
      "lat": "37.069148385790015"
    },
    {
      "id": "pt.ine.add.PTCONT.1612315",
      "street": "R GONÇALO VELHO",
      "house": "",
      "postcode": "8125-221",
      "city": "QUARTEIRA",
      "lon": "-8.106447215060909",
      "lat": "37.069148385790015"
    },
    {
      "id": "pt.ine.add.PTCONT.1635724",
      "street": "R GAGO COUTINHO",
      "house": "20",
      "postcode": "8125-217",
      "city": "QUARTEIRA",
      "lon": "-8.106649324914073",
      "lat": "37.06999543851979"
    },
    {
      "id": "pt.ine.add.PTCONT.1635725",
      "street": "R VASCO DA GAMA",
      "house": "87",
      "postcode": "8125-256",
      "city": "QUARTEIRA",
      "lon": "-8.10715538987679",
      "lat": "37.06985137884721"
    },
    {
      "id": "pt.ine.add.PTCONT.1650716",
      "street": "R GAGO COUTINHO",
      "house": "38",
      "postcode": "8125-217",
      "city": "QUARTEIRA",
      "lon": "-8.106244534492227",
      "lat": "37.06993227251539"
    },
    {
      "id": "pt.ine.add.PTCONT.1664802",
      "street": "R BARTOLOMEU DIAS",
      "house": "11",
      "postcode": "8125-178",
      "city": "QUARTEIRA",
      "lon": "-8.107009303514506",
      "lat": "37.069572014548285"
    },
    {
      "id": "pt.ine.add.PTCONT.1664803",
      "street": "R BARTOLOMEU DIAS",
      "house": "11",
      "postcode": "8125-178",
      "city": "QUARTEIRA",
      "lon": "-8.107009303514506",
      "lat": "37.069572014548285"
    },
    {
      "id": "pt.ine.add.PTCONT.1664804",
      "street": "R BARTOLOMEU DIAS",
      "house": "11",
      "postcode": "8125-178",
      "city": "QUARTEIRA",
      "lon": "-8.107009303514506",
      "lat": "37.069572014548285"
    },
    {
      "id": "pt.ine.add.PTCONT.1664914",
      "street": "R BARTOLOMEU DIAS",
      "house": "11",
      "postcode": "8125-178",
      "city": "QUARTEIRA",
      "lon": "-8.107009303514506",
      "lat": "37.069572014548285"
    },
    {
      "id": "pt.ine.add.PTCONT.1664915",
      "street": "R BARTOLOMEU DIAS",
      "house": "11",
      "postcode": "8125-178",
      "city": "QUARTEIRA",
      "lon": "-8.107009303514506",
      "lat": "37.069572014548285"
    },
    {
      "id": "pt.ine.add.PTCONT.1664916",
      "street": "R BARTOLOMEU DIAS",
      "house": "11",
      "postcode": "8125-178",
      "city": "QUARTEIRA",
      "lon": "-8.107009303514506",
      "lat": "37.069572014548285"
    },
    {
      "id": "pt.ine.add.PTCONT.1667648",
      "street": "R BARTOLOMEU DIAS",
      "house": "21",
      "postcode": "8125-178",
      "city": "QUARTEIRA",
      "lon": "-8.106908165999073",
      "lat": "37.06938276717496"
    },
    {
      "id": "pt.ine.add.PTCONT.1667649",
      "street": "R BARTOLOMEU DIAS",
      "house": "21 GAVETO",
      "postcode": "8125-178",
      "city": "QUARTEIRA",
      "lon": "-8.106908165999073",
      "lat": "37.06938276717496"
    },
    {
      "id": "pt.ine.add.PTCONT.1683763",
      "street": "R GAGO COUTINHO",
      "house": "32",
      "postcode": "8125-217",
      "city": "QUARTEIRA",
      "lon": "-8.106480703370645",
      "lat": "37.06985122931044"
    },
    {
      "id": "pt.ine.add.PTCONT.1684034",
      "street": "R GAGO COUTINHO",
      "house": "26",
      "postcode": "8125-217",
      "city": "QUARTEIRA",
      "lon": "-8.106480703370645",
      "lat": "37.06985122931044"
    },
    {
      "id": "pt.ine.add.PTCONT.1702133",
      "street": "R GAGO COUTINHO",
      "house": "30",
      "postcode": "8125-217",
      "city": "QUARTEIRA",
      "lon": "-8.106413209455543",
      "lat": "37.069923299878674"
    },
    {
      "id": "pt.ine.add.PTCONT.1704655",
      "street": "R GONÇALO VELHO",
      "house": "43",
      "postcode": "8125-221",
      "city": "QUARTEIRA",
      "lon": "-8.105907322818123",
      "lat": "37.06956275624736"
    },
    {
      "id": "pt.ine.add.PTCONT.1704656",
      "street": "R GONÇALO VELHO",
      "house": "43",
      "postcode": "8125-221",
      "city": "QUARTEIRA",
      "lon": "-8.105907322818123",
      "lat": "37.06956275624736"
    },
    {
      "id": "pt.ine.add.PTCONT.1721815",
      "street": "R BARTOLOMEU DIAS",
      "house": "9",
      "postcode": "8125-178",
      "city": "QUARTEIRA",
      "lon": "-8.107020520472428",
      "lat": "37.06965311347566"
    },
    {
      "id": "pt.ine.add.PTCONT.1721816",
      "street": "R BARTOLOMEU DIAS",
      "house": "9",
      "postcode": "8125-178",
      "city": "QUARTEIRA",
      "lon": "-8.107020520472428",
      "lat": "37.06965311347566"
    },
    {
      "id": "pt.ine.add.PTCONT.1721817",
      "street": "R BARTOLOMEU DIAS",
      "house": "9",
      "postcode": "8125-178",
      "city": "QUARTEIRA",
      "lon": "-8.107020520472428",
      "lat": "37.06965311347566"
    },
    {
      "id": "pt.ine.add.PTCONT.1721818",
      "street": "R BARTOLOMEU DIAS",
      "house": "9",
      "postcode": "8125-178",
      "city": "QUARTEIRA",
      "lon": "-8.107020520472428",
      "lat": "37.06965311347566"
    },
    {
      "id": "pt.ine.add.PTCONT.1721819",
      "street": "R BARTOLOMEU DIAS",
      "house": "9",
      "postcode": "8125-178",
      "city": "QUARTEIRA",
      "lon": "-8.107020520472428",
      "lat": "37.06965311347566"
    },
    {
      "id": "pt.ine.add.PTCONT.1721820",
      "street": "R BARTOLOMEU DIAS",
      "house": "9",
      "postcode": "8125-178",
      "city": "QUARTEIRA",
      "lon": "-8.107020520472428",
      "lat": "37.06965311347566"
    },
    {
      "id": "pt.ine.add.PTCONT.1730631",
      "street": "R GONÇALO VELHO",
      "house": "55",
      "postcode": "8125-221",
      "city": "QUARTEIRA",
      "lon": "-8.105772331053197",
      "lat": "37.06971590741562"
    },
    {
      "id": "pt.ine.add.PTCONT.1730632",
      "street": "R GONÇALO VELHO",
      "house": "55",
      "postcode": "8125-221",
      "city": "QUARTEIRA",
      "lon": "-8.105772331053197",
      "lat": "37.06971590741562"
    },
    {
      "id": "pt.ine.add.PTCONT.1730633",
      "street": "R GONÇALO VELHO",
      "house": "55",
      "postcode": "8125-221",
      "city": "QUARTEIRA",
      "lon": "-8.105772331053197",
      "lat": "37.06971590741562"
    },
    {
      "id": "pt.ine.add.PTCONT.1730634",
      "street": "R GONÇALO VELHO",
      "house": "55",
      "postcode": "8125-221",
      "city": "QUARTEIRA",
      "lon": "-8.105772331053197",
      "lat": "37.06971590741562"
    },
    {
      "id": "pt.ine.add.PTCONT.1730635",
      "street": "R GONÇALO VELHO",
      "house": "55",
      "postcode": "8125-221",
      "city": "QUARTEIRA",
      "lon": "-8.105772331053197",
      "lat": "37.06971590741562"
    },
    {
      "id": "pt.ine.add.PTCONT.1767253",
      "street": "R GONÇALO VELHO",
      "house": "33",
      "postcode": "8125-221",
      "city": "QUARTEIRA",
      "lon": "-8.106109785492992",
      "lat": "37.06940060957947"
    },
    {
      "id": "pt.ine.add.PTCONT.1767254",
      "street": "R GONÇALO VELHO",
      "house": "33",
      "postcode": "8125-221",
      "city": "QUARTEIRA",
      "lon": "-8.106109785492992",
      "lat": "37.06940060957947"
    },
    {
      "id": "pt.ine.add.PTCONT.1767255",
      "street": "R GONÇALO VELHO",
      "house": "29",
      "postcode": "8125-221",
      "city": "QUARTEIRA",
      "lon": "-8.106166028159201",
      "lat": "37.06934655805879"
    },
    {
      "id": "pt.ine.add.PTCONT.1767256",
      "street": "R GONÇALO VELHO",
      "house": "29",
      "postcode": "8125-221",
      "city": "QUARTEIRA",
      "lon": "-8.106166028159201",
      "lat": "37.06934655805879"
    },
    {
      "id": "pt.ine.add.PTCONT.1767257",
      "street": "R BARTOLOMEU DIAS",
      "house": "25",
      "postcode": "8125-178",
      "city": "QUARTEIRA",
      "lon": "-8.106908184595962",
      "lat": "37.06932870287014"
    },
    {
      "id": "pt.ine.add.PTCONT.1767258",
      "street": "R BARTOLOMEU DIAS",
      "house": "13",
      "postcode": "8125-178",
      "city": "QUARTEIRA",
      "lon": "-8.106964346228972",
      "lat": "37.06950892962288"
    },
    {
      "id": "pt.ine.add.PTCONT.1767259",
      "street": "R BARTOLOMEU DIAS",
      "house": "13",
      "postcode": "8125-178",
      "city": "QUARTEIRA",
      "lon": "-8.106964346228972",
      "lat": "37.06950892962288"
    },
    {
      "id": "pt.ine.add.PTCONT.1785721",
      "street": "R GONÇALO VELHO",
      "house": "23",
      "postcode": "8125-221",
      "city": "QUARTEIRA",
      "lon": "-8.106233521796696",
      "lat": "37.06927448762407"
    },
    {
      "id": "pt.ine.add.PTCONT.1787862",
      "street": "R GAGO COUTINHO",
      "house": "54",
      "postcode": "8125-217",
      "city": "QUARTEIRA",
      "lon": "-8.105929702963774",
      "lat": "37.069869125775256"
    },
    {
      "id": "pt.ine.add.PTCONT.1787863",
      "street": "R GAGO COUTINHO",
      "house": "54",
      "postcode": "8125-217",
      "city": "QUARTEIRA",
      "lon": "-8.105929702963774",
      "lat": "37.069869125775256"
    },
    {
      "id": "pt.ine.add.PTCONT.1788963",
      "street": "R GAGO COUTINHO",
      "house": "52",
      "postcode": "8125-217",
      "city": "QUARTEIRA",
      "lon": "-8.105929702963774",
      "lat": "37.069869125775256"
    },
    {
      "id": "pt.ine.add.PTCONT.1790556",
      "street": "R GONÇALO VELHO",
      "house": "35",
      "postcode": "8125-221",
      "city": "QUARTEIRA",
      "lon": "-8.10603105972052",
      "lat": "37.06943663450683"
    },
    {
      "id": "pt.ine.add.PTCONT.1790557",
      "street": "R GONÇALO VELHO",
      "house": "35",
      "postcode": "8125-221",
      "city": "QUARTEIRA",
      "lon": "-8.10603105972052",
      "lat": "37.06943663450683"
    },
    {
      "id": "pt.ine.add.PTCONT.1790558",
      "street": "R GONÇALO VELHO",
      "house": "35",
      "postcode": "8125-221",
      "city": "QUARTEIRA",
      "lon": "-8.10603105972052",
      "lat": "37.06943663450683"
    },
    {
      "id": "pt.ine.add.PTCONT.1790559",
      "street": "R GONÇALO VELHO",
      "house": "35",
      "postcode": "8125-221",
      "city": "QUARTEIRA",
      "lon": "-8.10603105972052",
      "lat": "37.06943663450683"
    },
    {
      "id": "pt.ine.add.PTCONT.1790560",
      "street": "R GONÇALO VELHO",
      "house": "35",
      "postcode": "8125-221",
      "city": "QUARTEIRA",
      "lon": "-8.10603105972052",
      "lat": "37.06943663450683"
    },
    {
      "id": "pt.ine.add.PTCONT.1808268",
      "street": "R GONÇALO VELHO",
      "house": "41",
      "postcode": "8125-221",
      "city": "QUARTEIRA",
      "lon": "-8.105986058405222",
      "lat": "37.06949969925147"
    },
    {
      "id": "pt.ine.add.PTCONT.1808262",
      "street": "R GONÇALO VELHO",
      "house": "41",
      "postcode": "8125-221",
      "city": "QUARTEIRA",
      "lon": "-8.105986058405222",
      "lat": "37.06949969925147"
    },
    {
      "id": "pt.ine.add.PTCONT.1808263",
      "street": "R GONÇALO VELHO",
      "house": "41",
      "postcode": "8125-221",
      "city": "QUARTEIRA",
      "lon": "-8.105986058405222",
      "lat": "37.06949969925147"
    },
    {
      "id": "pt.ine.add.PTCONT.1808264",
      "street": "R GONÇALO VELHO",
      "house": "41",
      "postcode": "8125-221",
      "city": "QUARTEIRA",
      "lon": "-8.105986058405222",
      "lat": "37.06949969925147"
    },
    {
      "id": "pt.ine.add.PTCONT.1808265",
      "street": "R GONÇALO VELHO",
      "house": "41",
      "postcode": "8125-221",
      "city": "QUARTEIRA",
      "lon": "-8.105986058405222",
      "lat": "37.06949969925147"
    },
    {
      "id": "pt.ine.add.PTCONT.1808267",
      "street": "R GONÇALO VELHO",
      "house": "41",
      "postcode": "8125-221",
      "city": "QUARTEIRA",
      "lon": "-8.105986058405222",
      "lat": "37.06949969925147"
    },
    {
      "id": "pt.ine.add.PTCONT.1809544",
      "street": "R GONÇALO VELHO",
      "house": "41",
      "postcode": "8125-221",
      "city": "QUARTEIRA",
      "lon": "-8.105986058405222",
      "lat": "37.06949969925147"
    },
    {
      "id": "pt.ine.add.PTCONT.1813975",
      "street": "R GONÇALO VELHO",
      "house": "19",
      "postcode": "8125-221",
      "city": "QUARTEIRA",
      "lon": "-8.106334739842332",
      "lat": "37.069229456921896"
    },
    {
      "id": "pt.ine.add.PTCONT.1813976",
      "street": "R GONÇALO VELHO",
      "house": "19",
      "postcode": "8125-221",
      "city": "QUARTEIRA",
      "lon": "-8.106334739842332",
      "lat": "37.069229456921896"
    },
    {
      "id": "pt.ine.add.PTCONT.1830243",
      "street": "R GAGO COUTINHO",
      "house": "58",
      "postcode": "8125-217",
      "city": "QUARTEIRA",
      "lon": "-8.105862250414257",
      "lat": "37.069824056713884"
    },
    {
      "id": "pt.ine.add.PTCONT.1830244",
      "street": "R GAGO COUTINHO",
      "house": "58",
      "postcode": "8125-217",
      "city": "QUARTEIRA",
      "lon": "-8.105862250414257",
      "lat": "37.069824056713884"
    },
    {
      "id": "pt.ine.add.PTCONT.1830245",
      "street": "R GAGO COUTINHO",
      "house": "64",
      "postcode": "8125-217",
      "city": "QUARTEIRA",
      "lon": "-8.105704826862398",
      "lat": "37.06981500973235"
    },
    {
      "id": "pt.ine.add.PTCONT.1830369",
      "street": "R GAGO COUTINHO",
      "house": "64",
      "postcode": "8125-217",
      "city": "QUARTEIRA",
      "lon": "-8.105704826862398",
      "lat": "37.06981500973235"
    },
    {
      "id": "pt.ine.add.PTCONT.1830370",
      "street": "R GAGO COUTINHO",
      "house": "64",
      "postcode": "8125-217",
      "city": "QUARTEIRA",
      "lon": "-8.105704826862398",
      "lat": "37.06981500973235"
    },
    {
      "id": "pt.ine.add.PTCONT.1830371",
      "street": "R BARTOLOMEU DIAS",
      "house": "31",
      "postcode": "8125-178",
      "city": "QUARTEIRA",
      "lon": "-8.10663830871396",
      "lat": "37.069337653671695"
    },
    {
      "id": "pt.ine.add.PTCONT.1832555",
      "street": "R GAGO COUTINHO",
      "house": "42",
      "postcode": "8125-217",
      "city": "QUARTEIRA",
      "lon": "-8.10615460170579",
      "lat": "37.06986016637532"
    },
    {
      "id": "pt.ine.add.PTCONT.1838844",
      "street": "R BARTOLOMEU DIAS",
      "house": "31",
      "postcode": "8125-178",
      "city": "QUARTEIRA",
      "lon": "-8.106660882588058",
      "lat": "37.06909436931123"
    },
    {
      "id": "pt.ine.add.PTCONT.1839275",
      "street": "R GONÇALO VELHO",
      "house": "49",
      "postcode": "8125-221",
      "city": "QUARTEIRA",
      "lon": "-8.105828583873429",
      "lat": "37.069634823907194"
    },
    {
      "id": "pt.ine.add.PTCONT.1846148",
      "street": "R GAGO COUTINHO",
      "house": "32",
      "postcode": "8125-217",
      "city": "QUARTEIRA",
      "lon": "-8.106480703370645",
      "lat": "37.06985122931044"
    }
  ]
}