{
  "data": {
    "distrito": "Guarda",
    "concelho": "Seia",
    "freguesia": "Sabugueiro",
    "OBJECTID": 109,
    "BGRI2021": "09121000121",
    "DT21": "09",
    "DTMN21": "0912",
    "DTMNFR21": "091210",
    "DTMNFRSEC21": "091210001",
    "SECNUM21": "001",
    "SSNUM21": "21",
    "SECSSNUM21": "00121",
    "OBJECTID_1": 81752,
    "DT": "09",
    "CC": "12",
    "fr": "10",
    "SEC": "001",
    "SS": "21"
  },
  "addresses": [
    {
      "id": "pt.ine.add.PTCONT.1899080",
      "street": "R DA FRAGA DA MOURA",
      "house": "11",
      "postcode": "6270-151",
      "city": "SABUGUEIRO SEI",
      "lon": "-7.638310046343513",
      "lat": "40.402001931304035"
    },
    {
      "id": "pt.ine.add.PTCONT.1921292",
      "street": "R DA FRAGA DA MOURA",
      "house": "18",
      "postcode": "6270-151",
      "city": "SABUGUEIRO SEI",
      "lon": "-7.637729754530588",
      "lat": "40.402422705953086"
    },
    {
      "id": "pt.ine.add.PTCONT.1923600",
      "street": "R SERRO",
      "house": "",
      "postcode": "6270-151",
      "city": "SABUGUEIRO SEI",
      "lon": "-7.638913428563679",
      "lat": "40.401644291016076"
    },
    {
      "id": "pt.ine.add.PTCONT.1934309",
      "street": "R DO SERRO",
      "house": "",
      "postcode": "6270-151",
      "city": "SABUGUEIRO SEI",
      "lon": "-7.638889013805929",
      "lat": "40.401761258397386"
    },
    {
      "id": "pt.ine.add.PTCONT.1937432",
      "street": "R DA FRAGA DA MOURA",
      "house": "12",
      "postcode": "6270-151",
      "city": "SABUGUEIRO SEI",
      "lon": "-7.638356504554208",
      "lat": "40.402092185270504"
    },
    {
      "id": "pt.ine.add.PTCONT.1963208",
      "street": "R DA PORTELA",
      "house": "11",
      "postcode": "6270-151",
      "city": "SABUGUEIRO SEI",
      "lon": "-7.635781639888721",
      "lat": "40.40302671843361"
    },
    {
      "id": "pt.ine.add.PTCONT.1867219",
      "street": "R DA FRAGA DA MOURA",
      "house": "",
      "postcode": "6270-151",
      "city": "SABUGUEIRO SEI",
      "lon": "-7.639066625453939",
      "lat": "40.40163594015583"
    },
    {
      "id": "pt.ine.add.PTCONT.1876288",
      "street": "R DA FRAGA DA MOURA",
      "house": "16",
      "postcode": "6270-151",
      "city": "SABUGUEIRO SEI",
      "lon": "-7.6378008272230655",
      "lat": "40.40236897732368"
    },
    {
      "id": "pt.ine.add.PTCONT.1880553",
      "street": "R ALTO DA PORTELA",
      "house": "5",
      "postcode": "6270-151",
      "city": "SABUGUEIRO SEI",
      "lon": "-7.63528563847061",
      "lat": "40.40319568880481"
    },
    {
      "id": "pt.ine.add.PTCONT.1885363",
      "street": "R FRAGA DA MOIRA",
      "house": "",
      "postcode": "6270-151",
      "city": "SABUGUEIRO SEI",
      "lon": "-7.638983643529077",
      "lat": "40.40170762971686"
    },
    {
      "id": "pt.ine.add.PTCONT.1886505",
      "street": "R ALTO DA PORTELA",
      "house": "7",
      "postcode": "6270-151",
      "city": "SABUGUEIRO SEI",
      "lon": "-7.635439701433138",
      "lat": "40.40307027479451"
    },
    {
      "id": "pt.ine.add.PTCONT.1889947",
      "street": "R ALTO DA PORTELA",
      "house": "3",
      "postcode": "6270-151",
      "city": "SABUGUEIRO SEI",
      "lon": "-7.635061494684175",
      "lat": "40.4032397511355"
    },
    {
      "id": "pt.ine.add.PTCONT.1890971",
      "street": "R DA FONTE DOS CASTELHANOS",
      "house": "7",
      "postcode": "6270-151",
      "city": "SABUGUEIRO SEI",
      "lon": "-7.638194099202971",
      "lat": "40.401749280597315"
    },
    {
      "id": "pt.ine.add.PTCONT.1897053",
      "street": "R DA FRAGA DA MOURA",
      "house": "14",
      "postcode": "6270-151",
      "city": "SABUGUEIRO SEI",
      "lon": "-7.637871833809053",
      "lat": "40.40232425388345"
    }
  ]
}