{
  "data": {
    "distrito": "Santarém",
    "concelho": "Torres Novas",
    "freguesia": "Meia Via",
    "OBJECTID": 885,
    "BGRI2021": "14191700125",
    "DT21": "14",
    "DTMN21": "1419",
    "DTMNFR21": "141917",
    "DTMNFRSEC21": "141917001",
    "SECNUM21": "001",
    "SSNUM21": "25",
    "SECSSNUM21": "00125",
    "OBJECTID_1": 157103,
    "DT": "14",
    "CC": "19",
    "fr": "17",
    "SEC": "001",
    "SS": "25"
  },
  "addresses": [
    {
      "id": "pt.ine.add.PTCONT.4399542",
      "street": "R 5 DE OUTUBRO",
      "house": "74",
      "postcode": "2350-300",
      "city": "MEIA VIA",
      "lon": "-8.501825580641267",
      "lat": "39.47507101398066"
    },
    {
      "id": "pt.ine.add.PTCONT.4408619",
      "street": "R FILARMONICA",
      "house": "",
      "postcode": "2350-632",
      "city": "MEIA VIA",
      "lon": "-8.503331388773317",
      "lat": "39.47412049679193"
    },
    {
      "id": "pt.ine.add.PTCONT.4408620",
      "street": "TV INF SANTO",
      "house": "",
      "postcode": "2350-646",
      "city": "MEIA VIA",
      "lon": "-8.502125355047687",
      "lat": "39.4768174168806"
    },
    {
      "id": "pt.ine.add.PTCONT.4416535",
      "street": "TV FORMIGOS",
      "house": "",
      "postcode": "2350-645",
      "city": "MEIA VIA",
      "lon": "-8.502866110646824",
      "lat": "39.47623861729778"
    },
    {
      "id": "pt.ine.add.PTCONT.4420917",
      "street": "R FEITOR",
      "house": "36",
      "postcode": "2350-639",
      "city": "MEIA VIA",
      "lon": "-8.502494161449546",
      "lat": "39.47403308941934"
    },
    {
      "id": "pt.ine.add.PTCONT.4422965",
      "street": "TV CASALITO",
      "house": "78",
      "postcode": "2350-642",
      "city": "MEIA VIA",
      "lon": "-8.500436724449195",
      "lat": "39.4739585437597"
    },
    {
      "id": "pt.ine.add.PTCONT.4422980",
      "street": "R BOA ESPERANÇA",
      "house": "",
      "postcode": "2350-625",
      "city": "MEIA VIA",
      "lon": "-8.500047460129009",
      "lat": "39.4750766383392"
    },
    {
      "id": "pt.ine.add.PTCONT.4425069",
      "street": "R FILARMONICA",
      "house": "32",
      "postcode": "2350-632",
      "city": "MEIA VIA",
      "lon": "-8.503446983367674",
      "lat": "39.47400303796733"
    },
    {
      "id": "pt.ine.add.PTCONT.4428774",
      "street": "TV BOA ESPERANÇA",
      "house": "1",
      "postcode": "2350-625",
      "city": "MEIA VIA",
      "lon": "-8.50035246590372",
      "lat": "39.475616094284796"
    },
    {
      "id": "pt.ine.add.PTCONT.4433282",
      "street": "R BOA ESPERANCA",
      "house": "",
      "postcode": "2350-625",
      "city": "MEIA VIA",
      "lon": "-8.503501398036267",
      "lat": "39.47549802332354"
    },
    {
      "id": "pt.ine.add.PTCONT.4433283",
      "street": "R BOA ESPERANÇA",
      "house": "1",
      "postcode": "2350-625",
      "city": "MEIA VIA",
      "lon": "-8.503501398036267",
      "lat": "39.47549802332354"
    },
    {
      "id": "pt.ine.add.PTCONT.4433284",
      "street": "R BOA ESPERANÇA",
      "house": "1",
      "postcode": "2350-625",
      "city": "MEIA VIA",
      "lon": "-8.503501398036267",
      "lat": "39.47549802332354"
    },
    {
      "id": "pt.ine.add.PTCONT.4434148",
      "street": "R BOA ESPERANÇA",
      "house": "1",
      "postcode": "2350-625",
      "city": "MEIA VIA",
      "lon": "-8.503501398036267",
      "lat": "39.47549802332354"
    },
    {
      "id": "pt.ine.add.PTCONT.4445636",
      "street": "TV CASALITO",
      "house": "8",
      "postcode": "2350-642",
      "city": "MEIA VIA",
      "lon": "-8.50082260535052",
      "lat": "39.47440767327491"
    },
    {
      "id": "pt.ine.add.PTCONT.4447744",
      "street": "TV SERRADINHA",
      "house": "13",
      "postcode": "2350-625",
      "city": "MEIA VIA",
      "lon": "-8.501476929599722",
      "lat": "39.47507211893889"
    },
    {
      "id": "pt.ine.add.PTCONT.4449804",
      "street": "TV INF SANTO",
      "house": "",
      "postcode": "2350-646",
      "city": "MEIA VIA",
      "lon": "-8.50266187296277",
      "lat": "39.47717599214555"
    },
    {
      "id": "pt.ine.add.PTCONT.4456870",
      "street": "TV INF SANTO",
      "house": "4",
      "postcode": "2350-646",
      "city": "MEIA VIA",
      "lon": "-8.502173461258678",
      "lat": "39.47712350142093"
    },
    {
      "id": "pt.ine.add.PTCONT.4466790",
      "street": "R BOA ESPERANCA",
      "house": "12",
      "postcode": "2350-625",
      "city": "MEIA VIA",
      "lon": "-8.50123420305782",
      "lat": "39.47532508300978"
    },
    {
      "id": "pt.ine.add.PTCONT.4473268",
      "street": "R FEITOR",
      "house": "6",
      "postcode": "2350-639",
      "city": "MEIA VIA",
      "lon": "-8.501099056024254",
      "lat": "39.473938435757056"
    },
    {
      "id": "pt.ine.add.PTCONT.4476443",
      "street": "R FILARMONICA",
      "house": "",
      "postcode": "2350-632",
      "city": "MEIA VIA",
      "lon": "-8.503181072271536",
      "lat": "39.47426508694535"
    },
    {
      "id": "pt.ine.add.PTCONT.4479586",
      "street": "TV INF SANTO",
      "house": "7",
      "postcode": "2350-646",
      "city": "MEIA VIA",
      "lon": "-8.501951833812138",
      "lat": "39.47697108600203"
    },
    {
      "id": "pt.ine.add.PTCONT.4480856",
      "street": "TV CASALITO",
      "house": "5",
      "postcode": "2350-642",
      "city": "MEIA VIA",
      "lon": "-8.503501398036267",
      "lat": "39.47549802332354"
    },
    {
      "id": "pt.ine.add.PTCONT.4483055",
      "street": "TV BOA ESPERANÇA",
      "house": "2",
      "postcode": "2350-625",
      "city": "MEIA VIA",
      "lon": "-8.49995793990556",
      "lat": "39.47573443028943"
    },
    {
      "id": "pt.ine.add.PTCONT.4483041",
      "street": "TV CASALITO",
      "house": "4",
      "postcode": "2350-642",
      "city": "MEIA VIA",
      "lon": "-8.500275348882246",
      "lat": "39.47421124887944"
    },
    {
      "id": "pt.ine.add.PTCONT.4484161",
      "street": "TV BOA ESPERANÇA",
      "house": "",
      "postcode": "2350-625",
      "city": "MEIA VIA",
      "lon": "-8.500608287534048",
      "lat": "39.47564230703536"
    },
    {
      "id": "pt.ine.add.PTCONT.4486656",
      "street": "R FEITOR",
      "house": "20",
      "postcode": "2350-639",
      "city": "MEIA VIA",
      "lon": "-8.5014714669474",
      "lat": "39.47403633347531"
    },
    {
      "id": "pt.ine.add.PTCONT.4486657",
      "street": "R BOA ESPERANÇA",
      "house": "5",
      "postcode": "2350-625",
      "city": "MEIA VIA",
      "lon": "-8.503501398036267",
      "lat": "39.47549802332354"
    },
    {
      "id": "pt.ine.add.PTCONT.4493843",
      "street": "TV SERRADINHA",
      "house": "18",
      "postcode": "2350-625",
      "city": "MEIA VIA",
      "lon": "-8.501501883216612",
      "lat": "39.47539629115278"
    },
    {
      "id": "pt.ine.add.PTCONT.4501950",
      "street": "TV SERRADINHA",
      "house": "16",
      "postcode": "2350-625",
      "city": "MEIA VIA",
      "lon": "-8.501443489445743",
      "lat": "39.475342434251296"
    },
    {
      "id": "pt.ine.add.PTCONT.4505444",
      "street": "R FILARMONICA",
      "house": "20",
      "postcode": "2350-632",
      "city": "MEIA VIA",
      "lon": "-8.502785891372634",
      "lat": "39.47425733690766"
    },
    {
      "id": "pt.ine.add.PTCONT.4508877",
      "street": "R PROF MATOS BRANCO",
      "house": "8",
      "postcode": "2350-642",
      "city": "MEIA VIA",
      "lon": "-8.500147085754366",
      "lat": "39.47413059095218"
    },
    {
      "id": "pt.ine.add.PTCONT.4508878",
      "street": "R GUADIANA",
      "house": "23",
      "postcode": "2350-625",
      "city": "MEIA VIA",
      "lon": "-8.503209111621254",
      "lat": "39.477363398244655"
    },
    {
      "id": "pt.ine.add.PTCONT.4517081",
      "street": "TV INF SANTO",
      "house": "13",
      "postcode": "2350-646",
      "city": "MEIA VIA",
      "lon": "-8.501764217543775",
      "lat": "39.47665643674765"
    },
    {
      "id": "pt.ine.add.PTCONT.4521192",
      "street": "TV FORMIGOS",
      "house": "",
      "postcode": "2350-645",
      "city": "MEIA VIA",
      "lon": "-8.50279733278024",
      "lat": "39.4764189755228"
    },
    {
      "id": "pt.ine.add.PTCONT.4521389",
      "street": "TV BOA ESPERANÇA",
      "house": "29",
      "postcode": "2350-625",
      "city": "MEIA VIA",
      "lon": "-8.500002865817756",
      "lat": "39.47543705823715"
    },
    {
      "id": "pt.ine.add.PTCONT.4526505",
      "street": "R PROF MATOS BRANCO",
      "house": "22",
      "postcode": "2350-642",
      "city": "MEIA VIA",
      "lon": "-8.500587377705212",
      "lat": "39.4738770049474"
    },
    {
      "id": "pt.ine.add.PTCONT.4526506",
      "street": "R GUADIANA CASAL GUADIANA",
      "house": "",
      "postcode": "2350-625",
      "city": "MEIA VIA",
      "lon": "-8.501801793638938",
      "lat": "39.477169715298054"
    },
    {
      "id": "pt.ine.add.PTCONT.4528577",
      "street": "R BOA ESPERANCA",
      "house": "",
      "postcode": "2350-625",
      "city": "MEIA VIA",
      "lon": "-8.500036311593",
      "lat": "39.47516674331718"
    },
    {
      "id": "pt.ine.add.PTCONT.4529627",
      "street": "TV INF SANTO",
      "house": "",
      "postcode": "2350-646",
      "city": "MEIA VIA",
      "lon": "-8.502173032897016",
      "lat": "39.477042439991614"
    },
    {
      "id": "pt.ine.add.PTCONT.4541078",
      "street": "R FILARMONICA",
      "house": "",
      "postcode": "2350-632",
      "city": "MEIA VIA",
      "lon": "-8.502925874712869",
      "lat": "39.47435596860696"
    },
    {
      "id": "pt.ine.add.PTCONT.4548942",
      "street": "TV INF SANTO",
      "house": "3",
      "postcode": "2350-646",
      "city": "MEIA VIA",
      "lon": "-8.501975886539224",
      "lat": "39.47712412831032"
    },
    {
      "id": "pt.ine.add.PTCONT.4551087",
      "street": "R FEITOR",
      "house": "16",
      "postcode": "2350-639",
      "city": "MEIA VIA",
      "lon": "-8.501343582639409",
      "lat": "39.4740277315189"
    },
    {
      "id": "pt.ine.add.PTCONT.4553173",
      "street": "TV CASALITO",
      "house": "9",
      "postcode": "2350-642",
      "city": "MEIA VIA",
      "lon": "-8.500660140041022",
      "lat": "39.47445322179738"
    },
    {
      "id": "pt.ine.add.PTCONT.4586583",
      "street": "TV CASALITO",
      "house": "",
      "postcode": "2350-642",
      "city": "MEIA VIA",
      "lon": "-8.500775739694527",
      "lat": "39.47433576561122"
    },
    {
      "id": "pt.ine.add.PTCONT.4586584",
      "street": "R FEITOR",
      "house": "22",
      "postcode": "2350-639",
      "city": "MEIA VIA",
      "lon": "-8.501541338650615",
      "lat": "39.4740631330679"
    },
    {
      "id": "pt.ine.add.PTCONT.4588737",
      "street": "TV SERRADINHA",
      "house": "",
      "postcode": "2350-625",
      "city": "MEIA VIA",
      "lon": "-8.501651492748307",
      "lat": "39.47511660073593"
    },
    {
      "id": "pt.ine.add.PTCONT.4590821",
      "street": "R FILARMONICA",
      "house": "18",
      "postcode": "2350-632",
      "city": "MEIA VIA",
      "lon": "-8.502646003731057",
      "lat": "39.4741767186954"
    },
    {
      "id": "pt.ine.add.PTCONT.4599103",
      "street": "TV INF SANTO",
      "house": "",
      "postcode": "2350-646",
      "city": "MEIA VIA",
      "lon": "-8.502124546035816",
      "lat": "39.47666430083755"
    },
    {
      "id": "pt.ine.add.PTCONT.4599109",
      "street": "TV CASALITO",
      "house": "",
      "postcode": "2350-642",
      "city": "MEIA VIA",
      "lon": "-8.5010800834857",
      "lat": "39.47474912408263"
    },
    {
      "id": "pt.ine.add.PTCONT.4603188",
      "street": "TV BOA ESPERANCA",
      "house": "9",
      "postcode": "2350-625",
      "city": "MEIA VIA",
      "lon": "-8.501303221314485",
      "lat": "39.47518975980815"
    },
    {
      "id": "pt.ine.add.PTCONT.4606215",
      "street": "TV CASALITO",
      "house": "",
      "postcode": "2350-642",
      "city": "MEIA VIA",
      "lon": "-8.500460393811414",
      "lat": "39.474039531826065"
    },
    {
      "id": "pt.ine.add.PTCONT.4606216",
      "street": "TV INF SANTO",
      "house": "",
      "postcode": "2350-646",
      "city": "MEIA VIA",
      "lon": "-8.502882882663078",
      "lat": "39.47721131747734"
    },
    {
      "id": "pt.ine.add.PTCONT.4609511",
      "street": "R BOA ESPERANCA",
      "house": "15",
      "postcode": "2350-625",
      "city": "MEIA VIA",
      "lon": "-8.500046986947822",
      "lat": "39.474986570031014"
    },
    {
      "id": "pt.ine.add.PTCONT.4611429",
      "street": "TV BOA ESPERANÇA",
      "house": "8",
      "postcode": "2350-625",
      "city": "MEIA VIA",
      "lon": "-8.50012159187752",
      "lat": "39.475914053480736"
    },
    {
      "id": "pt.ine.add.PTCONT.4613574",
      "street": "R FEITOR",
      "house": "2",
      "postcode": "2350-639",
      "city": "MEIA VIA",
      "lon": "-8.500784943270435",
      "lat": "39.473876380459735"
    },
    {
      "id": "pt.ine.add.PTCONT.4613585",
      "street": "R FILARMONICA",
      "house": "38",
      "postcode": "2350-632",
      "city": "MEIA VIA",
      "lon": "-8.503632211025895",
      "lat": "39.47386734321622"
    },
    {
      "id": "pt.ine.add.PTCONT.4615693",
      "street": "R PROF MATOS BRANCO",
      "house": "24",
      "postcode": "2350-642",
      "city": "MEIA VIA",
      "lon": "-8.500749841725595",
      "lat": "39.47383145652814"
    },
    {
      "id": "pt.ine.add.PTCONT.4630240",
      "street": "TV CASALITO",
      "house": "",
      "postcode": "2350-642",
      "city": "MEIA VIA",
      "lon": "-8.500693156230062",
      "lat": "39.47410184517276"
    },
    {
      "id": "pt.ine.add.PTCONT.4630266",
      "street": "TV CASALITO",
      "house": "2",
      "postcode": "2350-642",
      "city": "MEIA VIA",
      "lon": "-8.500963013158044",
      "lat": "39.4745873688224"
    },
    {
      "id": "pt.ine.add.PTCONT.4638469",
      "street": "TV FORMIGOS",
      "house": "2",
      "postcode": "2350-645",
      "city": "MEIA VIA",
      "lon": "-8.503308697419296",
      "lat": "39.476417348707436"
    },
    {
      "id": "pt.ine.add.PTCONT.4640584",
      "street": "TV CASALITO",
      "house": "23",
      "postcode": "2350-642",
      "city": "MEIA VIA",
      "lon": "-8.50088104528263",
      "lat": "39.47447053733364"
    },
    {
      "id": "pt.ine.add.PTCONT.4642447",
      "street": "R GUADIANA",
      "house": "31",
      "postcode": "2350-625",
      "city": "MEIA VIA",
      "lon": "-8.50434759666134",
      "lat": "39.47726969947567"
    },
    {
      "id": "pt.ine.add.PTCONT.4646488",
      "street": "TV CASALITO",
      "house": "25",
      "postcode": "2350-642",
      "city": "MEIA VIA",
      "lon": "-8.500916242094567",
      "lat": "39.474533474880225"
    },
    {
      "id": "pt.ine.add.PTCONT.4656314",
      "street": "TV FORMIGOS",
      "house": "",
      "postcode": "2350-645",
      "city": "MEIA VIA",
      "lon": "-8.502842103970902",
      "lat": "39.4760945819844"
    },
    {
      "id": "pt.ine.add.PTCONT.4657712",
      "street": "R PROF MATOS BRANCO",
      "house": "6",
      "postcode": "2350-642",
      "city": "MEIA VIA",
      "lon": "-8.500031201487472",
      "lat": "39.47419400552831"
    },
    {
      "id": "pt.ine.add.PTCONT.4662807",
      "street": "TV SERRADINHA",
      "house": "15",
      "postcode": "2350-625",
      "city": "MEIA VIA",
      "lon": "-8.501523748966703",
      "lat": "39.47513501947602"
    }
  ]
}