{
  "data": {
    "distrito": "Porto",
    "concelho": "Marco de Canaveses",
    "freguesia": "Constance",
    "OBJECTID": 336,
    "BGRI2021": "13070500102",
    "DT21": "13",
    "DTMN21": "1307",
    "DTMNFR21": "130705",
    "DTMNFRSEC21": "130705001",
    "SECNUM21": "001",
    "SSNUM21": "02",
    "SECSSNUM21": "00102",
    "OBJECTID_1": 131116,
    "DT": "13",
    "CC": "07",
    "fr": "05",
    "SEC": "001",
    "SS": "02"
  },
  "addresses": [
    {
      "id": "pt.ine.add.PTCONT.3554267",
      "street": "R ALTO MACADE",
      "house": "178",
      "postcode": "4635-772",
      "city": "CONSTANCE",
      "lon": "-8.174978253358033",
      "lat": "41.201188323714334"
    },
    {
      "id": "pt.ine.add.PTCONT.3662571",
      "street": "R CORUJEIRAS",
      "house": "248",
      "postcode": "4635-095",
      "city": "CONSTANCE",
      "lon": "-8.181418565826581",
      "lat": "41.204526403941564"
    },
    {
      "id": "pt.ine.add.PTCONT.3789082",
      "street": "R ALTO DE MACADE",
      "house": "181",
      "postcode": "4635-357",
      "city": "SOBRETÃ‚MEGA",
      "lon": "-8.174966274030943",
      "lat": "41.20109828486761"
    },
    {
      "id": "pt.ine.add.PTCONT.4104116",
      "street": "R ALTO DE MACADE",
      "house": "177",
      "postcode": "4635-772",
      "city": "CONSTANCE",
      "lon": "-8.175061655297984",
      "lat": "41.2011072544816"
    },
    {
      "id": "pt.ine.add.PTCONT.4185741",
      "street": "R CELORICO",
      "house": "73",
      "postcode": "4635-077",
      "city": "CONSTANCE",
      "lon": "-8.182312130616303",
      "lat": "41.20368862430893"
    },
    {
      "id": "pt.ine.add.PTCONT.4232260",
      "street": "R CELORICO",
      "house": "32",
      "postcode": "4635-077",
      "city": "CONSTANCE",
      "lon": "-8.182801215015369",
      "lat": "41.204039582625796"
    },
    {
      "id": "pt.ine.add.PTCONT.4267723",
      "street": "R CELORICO",
      "house": "105",
      "postcode": "4635-077",
      "city": "CONSTANCE",
      "lon": "-8.182788815848248",
      "lat": "41.20340928585886"
    },
    {
      "id": "pt.ine.add.PTCONT.4293990",
      "street": "R S PEDRO",
      "house": "",
      "postcode": "4635-118",
      "city": "CONSTANCE",
      "lon": "-8.178995015269285",
      "lat": "41.1998451495039"
    },
    {
      "id": "pt.ine.add.PTCONT.4293991",
      "street": "R ALTO DE MACADE",
      "house": "183",
      "postcode": "4635-772",
      "city": "CONSTANCE",
      "lon": "-8.174894805393592",
      "lat": "41.20119735834235"
    },
    {
      "id": "pt.ine.add.PTCONT.4366651",
      "street": "R ALTO DE MACADE",
      "house": "119",
      "postcode": "4635-772",
      "city": "CONSTANCE",
      "lon": "-8.176706542554019",
      "lat": "41.200593397259766"
    },
    {
      "id": "pt.ine.add.PTCONT.4388370",
      "street": "R ALTO DE MACADE",
      "house": "173",
      "postcode": "4635-772",
      "city": "CONSTANCE",
      "lon": "-8.175753051900948",
      "lat": "41.2009899443793"
    }
  ]
}