{
  "data": {
    "distrito": "Porto",
    "concelho": "Marco de Canaveses",
    "freguesia": "Constance",
    "OBJECTID": 521,
    "BGRI2021": "13070500112",
    "DT21": "13",
    "DTMN21": "1307",
    "DTMNFR21": "130705",
    "DTMNFRSEC21": "130705001",
    "SECNUM21": "001",
    "SSNUM21": "12",
    "SECSSNUM21": "00112",
    "OBJECTID_1": 132061,
    "DT": "13",
    "CC": "07",
    "fr": "05",
    "SEC": "001",
    "SS": "12"
  },
  "addresses": [
    {
      "id": "pt.ine.add.PTCONT.3586081",
      "street": "R RODRIGO PINTO JANEIRO",
      "house": "212 3",
      "postcode": "4635-131",
      "city": "CONSTANCE",
      "lon": "-8.169748803572391",
      "lat": "41.20887979043637"
    },
    {
      "id": "pt.ine.add.PTCONT.3650335",
      "street": "R COSTA",
      "house": "141",
      "postcode": "4635-086",
      "city": "CONSTANCE",
      "lon": "-8.169641157822939",
      "lat": "41.20827653596245"
    },
    {
      "id": "pt.ine.add.PTCONT.3697818",
      "street": "R RODRIGO PINTO JANEIRO",
      "house": "240",
      "postcode": "4635-131",
      "city": "CONSTANCE",
      "lon": "-8.169748858829509",
      "lat": "41.2089788378067"
    },
    {
      "id": "pt.ine.add.PTCONT.3722187",
      "street": "R COSTA",
      "house": "255",
      "postcode": "4635-086",
      "city": "CONSTANCE",
      "lon": "-8.168818806528682",
      "lat": "41.20892510411097"
    },
    {
      "id": "pt.ine.add.PTCONT.3795636",
      "street": "R COSTA",
      "house": "441",
      "postcode": "4635-086",
      "city": "CONSTANCE",
      "lon": "-8.16718583397487",
      "lat": "41.20994308561304"
    },
    {
      "id": "pt.ine.add.PTCONT.3809637",
      "street": "R COSTA",
      "house": "16S",
      "postcode": "4635-086",
      "city": "CONSTANCE",
      "lon": "-8.169521960335238",
      "lat": "41.2083396038761"
    },
    {
      "id": "pt.ine.add.PTCONT.3883468",
      "street": "TV COSTA",
      "house": "2",
      "postcode": "4635-117",
      "city": "CONSTANCE",
      "lon": "-8.16856847428331",
      "lat": "41.20903323315863"
    },
    {
      "id": "pt.ine.add.PTCONT.3948176",
      "street": "R COSTA",
      "house": "417",
      "postcode": "4635-086",
      "city": "CONSTANCE",
      "lon": "-8.167364630806762",
      "lat": "41.20983498088864"
    },
    {
      "id": "pt.ine.add.PTCONT.4097878",
      "street": "R VENDA NOVA",
      "house": "1247",
      "postcode": "4635-093",
      "city": "CONSTANCE",
      "lon": "-8.167305219469394",
      "lat": "41.210231188022604"
    },
    {
      "id": "pt.ine.add.PTCONT.4273627",
      "street": "R VENDA NOVA",
      "house": "1235",
      "postcode": "4635-093",
      "city": "CONSTANCE",
      "lon": "-8.167054800630666",
      "lat": "41.21018624058088"
    },
    {
      "id": "pt.ine.add.PTCONT.4288047",
      "street": "R COSTA",
      "house": "211",
      "postcode": "4635-086",
      "city": "CONSTANCE",
      "lon": "-8.169104750052673",
      "lat": "41.20852882552289"
    },
    {
      "id": "pt.ine.add.PTCONT.4308225",
      "street": "R COSTA",
      "house": "482",
      "postcode": "4635-086",
      "city": "CONSTANCE",
      "lon": "-8.16784179568311",
      "lat": "41.21025804035677"
    },
    {
      "id": "pt.ine.add.PTCONT.4308228",
      "street": "R RODRIGO PINTO JANEIRO",
      "house": "212",
      "postcode": "4635-131",
      "city": "CONSTANCE",
      "lon": "-8.169498263493711",
      "lat": "41.20860974062762"
    },
    {
      "id": "pt.ine.add.PTCONT.4318528",
      "street": "R RODRIGO PINTO JANEIRO",
      "house": "212",
      "postcode": "4635-131",
      "city": "CONSTANCE",
      "lon": "-8.169569883297013",
      "lat": "41.2087537869086"
    }
  ]
}