{
  "data": {
    "distrito": "Aveiro",
    "concelho": "Aveiro",
    "freguesia": "Oliveirinha",
    "OBJECTID": 726,
    "BGRI2021": "01050800415",
    "DT21": "01",
    "DTMN21": "0105",
    "DTMNFR21": "010508",
    "DTMNFRSEC21": "010508004",
    "SECNUM21": "004",
    "SSNUM21": "15",
    "SECSSNUM21": "00415",
    "OBJECTID_1": 3632,
    "DT": "01",
    "CC": "05",
    "fr": "08",
    "SEC": "004",
    "SS": "15"
  },
  "addresses": [
    {
      "id": "pt.ine.add.PTCONT.292960",
      "street": "TV PINHAL",
      "house": "21",
      "postcode": "3810-878",
      "city": "OLIVEIRINHA",
      "lon": "-8.599182010495658",
      "lat": "40.60912754909196"
    },
    {
      "id": "pt.ine.add.PTCONT.295519",
      "street": "TV PINHAL",
      "house": "15",
      "postcode": "3810-878",
      "city": "OLIVEIRINHA",
      "lon": "-8.598934880964995",
      "lat": "40.609272629291496"
    },
    {
      "id": "pt.ine.add.PTCONT.305032",
      "street": "R PINHAL",
      "house": "25",
      "postcode": "3810-877",
      "city": "OLIVEIRINHA",
      "lon": "-8.598510701291266",
      "lat": "40.60944543811932"
    },
    {
      "id": "pt.ine.add.PTCONT.319155",
      "street": "R PINHAL",
      "house": "53",
      "postcode": "3810-877",
      "city": "OLIVEIRINHA",
      "lon": "-8.597076152486503",
      "lat": "40.610459792186255"
    },
    {
      "id": "pt.ine.add.PTCONT.326279",
      "street": "R REGO VENDA",
      "house": "12",
      "postcode": "3810-885",
      "city": "OLIVEIRINHA",
      "lon": "-8.601795547452463",
      "lat": "40.609441160396216"
    },
    {
      "id": "pt.ine.add.PTCONT.329081",
      "street": "R MOITA",
      "house": "78",
      "postcode": "3810-871",
      "city": "OLIVEIRINHA",
      "lon": "-8.598771583192018",
      "lat": "40.61298342964063"
    },
    {
      "id": "pt.ine.add.PTCONT.332585",
      "street": "R MOITA",
      "house": "16",
      "postcode": "3810-871",
      "city": "OLIVEIRINHA",
      "lon": "-8.601480168358894",
      "lat": "40.609964741369545"
    },
    {
      "id": "pt.ine.add.PTCONT.336080",
      "street": "R MOITA",
      "house": "32",
      "postcode": "3810-871",
      "city": "OLIVEIRINHA",
      "lon": "-8.601605244837044",
      "lat": "40.61095480600039"
    },
    {
      "id": "pt.ine.add.PTCONT.1249",
      "street": "R MOITA",
      "house": "54",
      "postcode": "3810-871",
      "city": "OLIVEIRINHA",
      "lon": "-8.601023425668513",
      "lat": "40.61224490781369"
    },
    {
      "id": "pt.ine.add.PTCONT.10338",
      "street": "R PINHAL",
      "house": "37",
      "postcode": "3810-877",
      "city": "OLIVEIRINHA",
      "lon": "-8.59793472347829",
      "lat": "40.60988000722665"
    },
    {
      "id": "pt.ine.add.PTCONT.13834",
      "street": "TV PINHAL",
      "house": "1",
      "postcode": "3810-878",
      "city": "OLIVEIRINHA",
      "lon": "-8.600657970346363",
      "lat": "40.608977500521426"
    },
    {
      "id": "pt.ine.add.PTCONT.17124",
      "street": "R MOITA",
      "house": "10",
      "postcode": "3810-871",
      "city": "OLIVEIRINHA",
      "lon": "-8.601762616542368",
      "lat": "40.60980150204005"
    },
    {
      "id": "pt.ine.add.PTCONT.19012",
      "street": "R CIRCUNVALAÇÃO DA MOITA",
      "house": "16",
      "postcode": "3810-860",
      "city": "OLIVEIRINHA",
      "lon": "-8.598776771679933",
      "lat": "40.615432821463585"
    },
    {
      "id": "pt.ine.add.PTCONT.19015",
      "street": "R PINHAL",
      "house": "23",
      "postcode": "3810-877",
      "city": "OLIVEIRINHA",
      "lon": "-8.598569342781019",
      "lat": "40.60938216540016"
    },
    {
      "id": "pt.ine.add.PTCONT.21694",
      "street": "TV PINHAL",
      "house": "3",
      "postcode": "3810-878",
      "city": "OLIVEIRINHA",
      "lon": "-8.600104388327065",
      "lat": "40.60923188577123"
    },
    {
      "id": "pt.ine.add.PTCONT.35129",
      "street": "R MOITA",
      "house": "78",
      "postcode": "3810-871",
      "city": "OLIVEIRINHA",
      "lon": "-8.59897233679684",
      "lat": "40.61296460967402"
    },
    {
      "id": "pt.ine.add.PTCONT.40694",
      "street": "R PINHAL",
      "house": "39",
      "postcode": "3810-877",
      "city": "OLIVEIRINHA",
      "lon": "-8.597757610492872",
      "lat": "40.609898730283504"
    },
    {
      "id": "pt.ine.add.PTCONT.43518",
      "street": "R CIRCUNVALAÇÃO DA MOITA",
      "house": "",
      "postcode": "3810-860",
      "city": "OLIVEIRINHA",
      "lon": "-8.598858238803986",
      "lat": "40.61525238912441"
    },
    {
      "id": "pt.ine.add.PTCONT.64898",
      "street": "R REGO VENDA",
      "house": "10",
      "postcode": "3810-885",
      "city": "OLIVEIRINHA",
      "lon": "-8.601582297716796",
      "lat": "40.60936097874199"
    },
    {
      "id": "pt.ine.add.PTCONT.72929",
      "street": "R REGO VENDA",
      "house": "9",
      "postcode": "3810-885",
      "city": "OLIVEIRINHA",
      "lon": "-8.601746837529502",
      "lat": "40.60923423842652"
    },
    {
      "id": "pt.ine.add.PTCONT.72931",
      "street": "R CIRCUNVALAÇÃO DA MOITA",
      "house": "2",
      "postcode": "3810-860",
      "city": "OLIVEIRINHA",
      "lon": "-8.599471146658557",
      "lat": "40.61502478607208"
    },
    {
      "id": "pt.ine.add.PTCONT.96948",
      "street": "R CIRCUNVALAÇÃO DA MOITA",
      "house": "12",
      "postcode": "3810-860",
      "city": "OLIVEIRINHA",
      "lon": "-8.59895346114685",
      "lat": "40.61535106220454"
    },
    {
      "id": "pt.ine.add.PTCONT.102093",
      "street": "R CONS ARNALDO VIDAL",
      "house": "120",
      "postcode": "3810-861",
      "city": "OLIVEIRINHA",
      "lon": "-8.6020287784452",
      "lat": "40.60899895887891"
    },
    {
      "id": "pt.ine.add.PTCONT.102094",
      "street": "R CONS ARNALDO VIDAL",
      "house": "120",
      "postcode": "3810-861",
      "city": "OLIVEIRINHA",
      "lon": "-8.6020287784452",
      "lat": "40.60899895887891"
    },
    {
      "id": "pt.ine.add.PTCONT.121096",
      "street": "R MOITA",
      "house": "64",
      "postcode": "3810-871",
      "city": "OLIVEIRINHA",
      "lon": "-8.600021362712095",
      "lat": "40.612582155385425"
    },
    {
      "id": "pt.ine.add.PTCONT.121121",
      "street": "TV PINHAL",
      "house": "19",
      "postcode": "3810-878",
      "city": "OLIVEIRINHA",
      "lon": "-8.59931160786889",
      "lat": "40.60907299484683"
    },
    {
      "id": "pt.ine.add.PTCONT.129477",
      "street": "R PINHAL",
      "house": "19",
      "postcode": "3810-877",
      "city": "OLIVEIRINHA",
      "lon": "-8.598663556392125",
      "lat": "40.60933675967516"
    },
    {
      "id": "pt.ine.add.PTCONT.129478",
      "street": "R PINHAL",
      "house": "19",
      "postcode": "3810-877",
      "city": "OLIVEIRINHA",
      "lon": "-8.598663556392125",
      "lat": "40.60933675967516"
    },
    {
      "id": "pt.ine.add.PTCONT.129479",
      "street": "R PINHAL",
      "house": "19",
      "postcode": "3810-877",
      "city": "OLIVEIRINHA",
      "lon": "-8.598663556392125",
      "lat": "40.60933675967516"
    },
    {
      "id": "pt.ine.add.PTCONT.131727",
      "street": "R MOITA",
      "house": "98",
      "postcode": "3810-871",
      "city": "OLIVEIRINHA",
      "lon": "-8.599171973427678",
      "lat": "40.61448568214107"
    },
    {
      "id": "pt.ine.add.PTCONT.141500",
      "street": "R MOITA",
      "house": "6",
      "postcode": "3810-871",
      "city": "OLIVEIRINHA",
      "lon": "-8.601831686852291",
      "lat": "40.60954007094676"
    },
    {
      "id": "pt.ine.add.PTCONT.152835",
      "street": "R MOITA",
      "house": "30",
      "postcode": "3810-871",
      "city": "OLIVEIRINHA",
      "lon": "-8.601616180366769",
      "lat": "40.610828688863116"
    },
    {
      "id": "pt.ine.add.PTCONT.179211",
      "street": "R MOITA",
      "house": "74",
      "postcode": "3810-871",
      "city": "OLIVEIRINHA",
      "lon": "-8.59919584704383",
      "lat": "40.61281962478443"
    },
    {
      "id": "pt.ine.add.PTCONT.186477",
      "street": "R REGO VENDA",
      "house": "4",
      "postcode": "3810-885",
      "city": "OLIVEIRINHA",
      "lon": "-8.60146112252014",
      "lat": "40.60892922051403"
    },
    {
      "id": "pt.ine.add.PTCONT.197203",
      "street": "R MOITA",
      "house": "44",
      "postcode": "3810-871",
      "city": "OLIVEIRINHA",
      "lon": "-8.601467979354117",
      "lat": "40.611603736959566"
    },
    {
      "id": "pt.ine.add.PTCONT.201513",
      "street": "R REGO VENDA",
      "house": "8",
      "postcode": "3810-885",
      "city": "OLIVEIRINHA",
      "lon": "-8.601521647043963",
      "lat": "40.6091360947028"
    },
    {
      "id": "pt.ine.add.PTCONT.203310",
      "street": "R MOITA",
      "house": "62",
      "postcode": "3810-871",
      "city": "OLIVEIRINHA",
      "lon": "-8.600210110304738",
      "lat": "40.61253636621481"
    },
    {
      "id": "pt.ine.add.PTCONT.203312",
      "street": "R PINHAL",
      "house": "61",
      "postcode": "3810-877",
      "city": "OLIVEIRINHA",
      "lon": "-8.596570368471099",
      "lat": "40.61079501524862"
    },
    {
      "id": "pt.ine.add.PTCONT.211772",
      "street": "R CIRCUNVALAÇÃO DA MOITA",
      "house": "4",
      "postcode": "3810-860",
      "city": "OLIVEIRINHA",
      "lon": "-8.599330221963672",
      "lat": "40.61515142772153"
    },
    {
      "id": "pt.ine.add.PTCONT.238976",
      "street": "TV PINHAL",
      "house": "23",
      "postcode": "3810-878",
      "city": "OLIVEIRINHA",
      "lon": "-8.599040597186946",
      "lat": "40.609182150858246"
    },
    {
      "id": "pt.ine.add.PTCONT.246858",
      "street": "R MOITA",
      "house": "34",
      "postcode": "3810-871",
      "city": "OLIVEIRINHA",
      "lon": "-8.601629946115633",
      "lat": "40.611107794172554"
    },
    {
      "id": "pt.ine.add.PTCONT.263235",
      "street": "R VALE DA FONTE",
      "house": "11",
      "postcode": "3810-871",
      "city": "OLIVEIRINHA",
      "lon": "-8.597876009650586",
      "lat": "40.615049226463896"
    },
    {
      "id": "pt.ine.add.PTCONT.265898",
      "street": "R MOITA",
      "house": "76",
      "postcode": "3810-871",
      "city": "OLIVEIRINHA",
      "lon": "-8.599054551098263",
      "lat": "40.61289223646267"
    },
    {
      "id": "pt.ine.add.PTCONT.268723",
      "street": "R REGO VENDA",
      "house": "6",
      "postcode": "3810-885",
      "city": "OLIVEIRINHA",
      "lon": "-8.601485382581151",
      "lat": "40.60901917415166"
    },
    {
      "id": "pt.ine.add.PTCONT.277973",
      "street": "R CIRCUNVALAÇÃO DA MOITA",
      "house": "18",
      "postcode": "3810-860",
      "city": "OLIVEIRINHA",
      "lon": "-8.598623840463414",
      "lat": "40.61553249507839"
    },
    {
      "id": "pt.ine.add.PTCONT.278462",
      "street": "R CIRCUNVALAÇÃO DA MOITA",
      "house": "18",
      "postcode": "3810-860",
      "city": "OLIVEIRINHA",
      "lon": "-8.598623840463414",
      "lat": "40.61553249507839"
    },
    {
      "id": "pt.ine.add.PTCONT.279503",
      "street": "R MOITA",
      "house": "72",
      "postcode": "3810-871",
      "city": "OLIVEIRINHA",
      "lon": "-8.599372466544335",
      "lat": "40.61272885994462"
    },
    {
      "id": "pt.ine.add.PTCONT.287377",
      "street": "R MOITA",
      "house": "60",
      "postcode": "3810-871",
      "city": "OLIVEIRINHA",
      "lon": "-8.600434432025258",
      "lat": "40.61250844319372"
    },
    {
      "id": "pt.ine.add.PTCONT.287378",
      "street": "R MOITA",
      "house": "94",
      "postcode": "3810-871",
      "city": "OLIVEIRINHA",
      "lon": "-8.598993597681474",
      "lat": "40.61432430832067"
    },
    {
      "id": "pt.ine.add.PTCONT.287379",
      "street": "R MOITA",
      "house": "94",
      "postcode": "3810-871",
      "city": "OLIVEIRINHA",
      "lon": "-8.598993597681474",
      "lat": "40.61432430832067"
    }
  ]
}