{
  "data": {
    "distrito": "Santarém",
    "concelho": "Tomar",
    "freguesia": "São Pedro de Tomar",
    "OBJECTID": 554,
    "BGRI2021": "14181300350",
    "DT21": "14",
    "DTMN21": "1418",
    "DTMNFR21": "141813",
    "DTMNFRSEC21": "141813003",
    "SECNUM21": "003",
    "SSNUM21": "50",
    "SECSSNUM21": "00350",
    "OBJECTID_1": 156849,
    "DT": "14",
    "CC": "18",
    "fr": "13",
    "SEC": "003",
    "SS": "50"
  },
  "addresses": [
    {
      "id": "pt.ine.add.PTCONT.4430211",
      "street": "FORTES DE CIMA",
      "house": "1",
      "postcode": "2300-175",
      "city": "SÃO PEDRO DE TOMAR",
      "lon": "-8.349066761772184",
      "lat": "39.57256772944471"
    },
    {
      "id": "pt.ine.add.PTCONT.4447672",
      "street": "FORTES DE CIMA",
      "house": "2",
      "postcode": "2300-175",
      "city": "SÃO PEDRO DE TOMAR",
      "lon": "-8.349369492857592",
      "lat": "39.57261220074803"
    },
    {
      "id": "pt.ine.add.PTCONT.4453812",
      "street": "",
      "house": "",
      "postcode": "2300-173",
      "city": "SÃO PEDRO DE TOMAR",
      "lon": "-8.345974368190022",
      "lat": "39.569862371626535"
    },
    {
      "id": "pt.ine.add.PTCONT.4456952",
      "street": "R PRINCIPAL",
      "house": "28",
      "postcode": "2300-156",
      "city": "SÃO PEDRO DE TOMAR",
      "lon": "-8.346819825773643",
      "lat": "39.56852780503053"
    },
    {
      "id": "pt.ine.add.PTCONT.4461198",
      "street": "R PRINCIPAL",
      "house": "22A",
      "postcode": "2300-151",
      "city": "SÃO PEDRO DE TOMAR",
      "lon": "-8.349382638437946",
      "lat": "39.56935169491032"
    },
    {
      "id": "pt.ine.add.PTCONT.4474600",
      "street": "",
      "house": "",
      "postcode": "2300-175",
      "city": "SÃO PEDRO DE TOMAR",
      "lon": "-8.350137974437402",
      "lat": "39.57272785721596"
    },
    {
      "id": "pt.ine.add.PTCONT.4477063",
      "street": "",
      "house": "",
      "postcode": "2300-175",
      "city": "SÃO PEDRO DE TOMAR",
      "lon": "-8.34911300679505",
      "lat": "39.57246856812373"
    },
    {
      "id": "pt.ine.add.PTCONT.4485348",
      "street": "R S JOSE",
      "house": "14A",
      "postcode": "2300-153",
      "city": "SÃO PEDRO DE TOMAR",
      "lon": "-8.357040552914073",
      "lat": "39.57307503560118"
    },
    {
      "id": "pt.ine.add.PTCONT.4490635",
      "street": "BEBERRIQUEIRA",
      "house": "19",
      "postcode": "2300-156",
      "city": "SÃO PEDRO DE TOMAR",
      "lon": "-8.350512496669225",
      "lat": "39.569673833627974"
    },
    {
      "id": "pt.ine.add.PTCONT.4493702",
      "street": "R PRINCIPAL",
      "house": "24",
      "postcode": "2300-151",
      "city": "SÃO PEDRO DE TOMAR",
      "lon": "-8.348998905430797",
      "lat": "39.569451483821354"
    },
    {
      "id": "pt.ine.add.PTCONT.4514542",
      "street": "VERMOEIROS",
      "house": "111",
      "postcode": "2300-192",
      "city": "SÃO PEDRO DE TOMAR",
      "lon": "-8.356971476900549",
      "lat": "39.57330934679247"
    },
    {
      "id": "pt.ine.add.PTCONT.4515965",
      "street": "R PRINCIPAL",
      "house": "24A",
      "postcode": "2300-151",
      "city": "SÃO PEDRO DE TOMAR",
      "lon": "-8.349138388931054",
      "lat": "39.56939718348079"
    },
    {
      "id": "pt.ine.add.PTCONT.4528562",
      "street": "",
      "house": "",
      "postcode": "2300-173",
      "city": "SÃO PEDRO DE TOMAR",
      "lon": "-8.345940749475123",
      "lat": "39.57028575545118"
    },
    {
      "id": "pt.ine.add.PTCONT.4537892",
      "street": "R PRINCIPAL",
      "house": "22",
      "postcode": "2300-151",
      "city": "SÃO PEDRO DE TOMAR",
      "lon": "-8.34982548350431",
      "lat": "39.56954902079745"
    },
    {
      "id": "pt.ine.add.PTCONT.4556396",
      "street": "BEBERRIQUEIRA",
      "house": "48",
      "postcode": "2300-156",
      "city": "SÃO PEDRO DE TOMAR",
      "lon": "-8.351003983970628",
      "lat": "39.57053757132149"
    },
    {
      "id": "pt.ine.add.PTCONT.4604334",
      "street": "R PRINCIPAL",
      "house": "22B",
      "postcode": "2300-156",
      "city": "SÃO PEDRO DE TOMAR",
      "lon": "-8.34849798694769",
      "lat": "39.56929028985343"
    },
    {
      "id": "pt.ine.add.PTCONT.4611402",
      "street": "",
      "house": "",
      "postcode": "2300-175",
      "city": "SÃO PEDRO DE TOMAR",
      "lon": "-8.35025441211273",
      "lat": "39.57274565341241"
    },
    {
      "id": "pt.ine.add.PTCONT.4617796",
      "street": "R S JOSE",
      "house": "17A",
      "postcode": "2300-153",
      "city": "SÃO PEDRO DE TOMAR",
      "lon": "-8.356621490920887",
      "lat": "39.573048821790074"
    },
    {
      "id": "pt.ine.add.PTCONT.4644692",
      "street": "R S JOSE",
      "house": "17",
      "postcode": "2300-153",
      "city": "SÃO PEDRO DE TOMAR",
      "lon": "-8.35651654478443",
      "lat": "39.5729859756318"
    }
  ]
}