{
  "data": {
    "distrito": "Braga",
    "concelho": "Póvoa de Lanhoso",
    "freguesia": "Póvoa de Lanhoso (Nossa Senhora do Amparo)",
    "OBJECTID": 82,
    "BGRI2021": "03091900304",
    "DT21": "03",
    "DTMN21": "0309",
    "DTMNFR21": "030919",
    "DTMNFRSEC21": "030919003",
    "SECNUM21": "003",
    "SSNUM21": "04",
    "SECSSNUM21": "00304",
    "OBJECTID_1": 28759,
    "DT": "03",
    "CC": "09",
    "fr": "19",
    "SEC": "003",
    "SS": "04"
  },
  "addresses": [
    {
      "id": "pt.ine.add.PTCONT.463535",
      "street": "R MOINHOS NOVOS",
      "house": "468",
      "postcode": "4830-538",
      "city": "PÓVOA DE LANHOSO",
      "lon": "-8.265254237978198",
      "lat": "41.56875462043257"
    },
    {
      "id": "pt.ine.add.PTCONT.463536",
      "street": "R MOINHOS NOVOS",
      "house": "468",
      "postcode": "4830-538",
      "city": "PÓVOA DE LANHOSO",
      "lon": "-8.265254237978198",
      "lat": "41.56875462043257"
    },
    {
      "id": "pt.ine.add.PTCONT.463537",
      "street": "R MOINHOS NOVOS",
      "house": "468",
      "postcode": "4830-538",
      "city": "PÓVOA DE LANHOSO",
      "lon": "-8.265254237978198",
      "lat": "41.56875462043257"
    },
    {
      "id": "pt.ine.add.PTCONT.463538",
      "street": "R MOINHOS NOVOS",
      "house": "468",
      "postcode": "4830-538",
      "city": "PÓVOA DE LANHOSO",
      "lon": "-8.265254237978198",
      "lat": "41.56875462043257"
    },
    {
      "id": "pt.ine.add.PTCONT.463539",
      "street": "R MOINHOS NOVOS",
      "house": "468",
      "postcode": "4830-538",
      "city": "PÓVOA DE LANHOSO",
      "lon": "-8.265254237978198",
      "lat": "41.56875462043257"
    },
    {
      "id": "pt.ine.add.PTCONT.463540",
      "street": "R MOINHOS NOVOS",
      "house": "468",
      "postcode": "4830-538",
      "city": "PÓVOA DE LANHOSO",
      "lon": "-8.265254237978198",
      "lat": "41.56875462043257"
    },
    {
      "id": "pt.ine.add.PTCONT.463541",
      "street": "R MOINHOS NOVOS",
      "house": "468",
      "postcode": "4830-538",
      "city": "PÓVOA DE LANHOSO",
      "lon": "-8.265254237978198",
      "lat": "41.56875462043257"
    },
    {
      "id": "pt.ine.add.PTCONT.464315",
      "street": "R MOINHOS NOVOS",
      "house": "468",
      "postcode": "4830-538",
      "city": "PÓVOA DE LANHOSO",
      "lon": "-8.265254237978198",
      "lat": "41.56875462043257"
    },
    {
      "id": "pt.ine.add.PTCONT.478130",
      "street": "R MOINHOS NOVOS",
      "house": "350",
      "postcode": "4830-538",
      "city": "PÓVOA DE LANHOSO",
      "lon": "-8.26550819989955",
      "lat": "41.569825773288365"
    },
    {
      "id": "pt.ine.add.PTCONT.478131",
      "street": "R MOINHOS NOVOS",
      "house": "350",
      "postcode": "4830-538",
      "city": "PÓVOA DE LANHOSO",
      "lon": "-8.26550819989955",
      "lat": "41.569825773288365"
    },
    {
      "id": "pt.ine.add.PTCONT.478132",
      "street": "R MOINHOS NOVOS",
      "house": "350",
      "postcode": "4830-538",
      "city": "PÓVOA DE LANHOSO",
      "lon": "-8.26550819989955",
      "lat": "41.569825773288365"
    },
    {
      "id": "pt.ine.add.PTCONT.478133",
      "street": "R MOINHOS NOVOS",
      "house": "350",
      "postcode": "4830-538",
      "city": "PÓVOA DE LANHOSO",
      "lon": "-8.26550819989955",
      "lat": "41.569825773288365"
    },
    {
      "id": "pt.ine.add.PTCONT.478134",
      "street": "R MOINHOS NOVOS",
      "house": "350",
      "postcode": "4830-538",
      "city": "PÓVOA DE LANHOSO",
      "lon": "-8.26550819989955",
      "lat": "41.569825773288365"
    },
    {
      "id": "pt.ine.add.PTCONT.478135",
      "street": "R MOINHOS NOVOS",
      "house": "350",
      "postcode": "4830-538",
      "city": "PÓVOA DE LANHOSO",
      "lon": "-8.26550819989955",
      "lat": "41.569825773288365"
    },
    {
      "id": "pt.ine.add.PTCONT.478136",
      "street": "R MOINHOS NOVOS",
      "house": "350",
      "postcode": "4830-538",
      "city": "PÓVOA DE LANHOSO",
      "lon": "-8.26550819989955",
      "lat": "41.569825773288365"
    },
    {
      "id": "pt.ine.add.PTCONT.478137",
      "street": "R MOINHOS NOVOS",
      "house": "350",
      "postcode": "4830-538",
      "city": "PÓVOA DE LANHOSO",
      "lon": "-8.26550819989955",
      "lat": "41.569825773288365"
    },
    {
      "id": "pt.ine.add.PTCONT.479139",
      "street": "R MOINHOS NOVOS",
      "house": "350",
      "postcode": "4830-538",
      "city": "PÓVOA DE LANHOSO",
      "lon": "-8.26550819989955",
      "lat": "41.569825773288365"
    },
    {
      "id": "pt.ine.add.PTCONT.492250",
      "street": "R NEUVES MAISONS",
      "house": "13",
      "postcode": "4830-550",
      "city": "PÓVOA DE LANHOSO",
      "lon": "-8.26774513629291",
      "lat": "41.57314555434992"
    },
    {
      "id": "pt.ine.add.PTCONT.496560",
      "street": "R MOINHOS NOVOS",
      "house": "476",
      "postcode": "4830-538",
      "city": "PÓVOA DE LANHOSO",
      "lon": "-8.264990584235472",
      "lat": "41.56880894557634"
    },
    {
      "id": "pt.ine.add.PTCONT.496561",
      "street": "R MOINHOS NOVOS",
      "house": "476",
      "postcode": "4830-538",
      "city": "PÓVOA DE LANHOSO",
      "lon": "-8.264990584235472",
      "lat": "41.56880894557634"
    },
    {
      "id": "pt.ine.add.PTCONT.496562",
      "street": "R MOINHOS NOVOS",
      "house": "476",
      "postcode": "4830-538",
      "city": "PÓVOA DE LANHOSO",
      "lon": "-8.264990584235472",
      "lat": "41.56880894557634"
    },
    {
      "id": "pt.ine.add.PTCONT.496563",
      "street": "R MOINHOS NOVOS",
      "house": "476",
      "postcode": "4830-538",
      "city": "PÓVOA DE LANHOSO",
      "lon": "-8.264990584235472",
      "lat": "41.56880894557634"
    },
    {
      "id": "pt.ine.add.PTCONT.496564",
      "street": "R MOINHOS NOVOS",
      "house": "476",
      "postcode": "4830-538",
      "city": "PÓVOA DE LANHOSO",
      "lon": "-8.264990584235472",
      "lat": "41.56880894557634"
    },
    {
      "id": "pt.ine.add.PTCONT.497005",
      "street": "R MOINHOS NOVOS",
      "house": "476",
      "postcode": "4830-538",
      "city": "PÓVOA DE LANHOSO",
      "lon": "-8.264990584235472",
      "lat": "41.56880894557634"
    },
    {
      "id": "pt.ine.add.PTCONT.521254",
      "street": "R MOINHOS NOVOS",
      "house": "394",
      "postcode": "4830-538",
      "city": "PÓVOA DE LANHOSO",
      "lon": "-8.265447719760441",
      "lat": "41.569564734485645"
    },
    {
      "id": "pt.ine.add.PTCONT.521255",
      "street": "R MOINHOS NOVOS",
      "house": "394",
      "postcode": "4830-538",
      "city": "PÓVOA DE LANHOSO",
      "lon": "-8.265447719760441",
      "lat": "41.569564734485645"
    },
    {
      "id": "pt.ine.add.PTCONT.521256",
      "street": "R MOINHOS NOVOS",
      "house": "394",
      "postcode": "4830-538",
      "city": "PÓVOA DE LANHOSO",
      "lon": "-8.265447719760441",
      "lat": "41.569564734485645"
    },
    {
      "id": "pt.ine.add.PTCONT.521257",
      "street": "R MOINHOS NOVOS",
      "house": "394",
      "postcode": "4830-538",
      "city": "PÓVOA DE LANHOSO",
      "lon": "-8.265447719760441",
      "lat": "41.569564734485645"
    },
    {
      "id": "pt.ine.add.PTCONT.521258",
      "street": "R MOINHOS NOVOS",
      "house": "394",
      "postcode": "4830-538",
      "city": "PÓVOA DE LANHOSO",
      "lon": "-8.265447719760441",
      "lat": "41.569564734485645"
    },
    {
      "id": "pt.ine.add.PTCONT.521259",
      "street": "R MOINHOS NOVOS",
      "house": "394",
      "postcode": "4830-538",
      "city": "PÓVOA DE LANHOSO",
      "lon": "-8.265447719760441",
      "lat": "41.569564734485645"
    },
    {
      "id": "pt.ine.add.PTCONT.521260",
      "street": "R MOINHOS NOVOS",
      "house": "394",
      "postcode": "4830-538",
      "city": "PÓVOA DE LANHOSO",
      "lon": "-8.265447719760441",
      "lat": "41.569564734485645"
    },
    {
      "id": "pt.ine.add.PTCONT.521261",
      "street": "R MOINHOS NOVOS",
      "house": "394",
      "postcode": "4830-538",
      "city": "PÓVOA DE LANHOSO",
      "lon": "-8.265447719760441",
      "lat": "41.569564734485645"
    },
    {
      "id": "pt.ine.add.PTCONT.523576",
      "street": "R MOINHOS NOVOS",
      "house": "394",
      "postcode": "4830-538",
      "city": "PÓVOA DE LANHOSO",
      "lon": "-8.265447719760441",
      "lat": "41.569564734485645"
    },
    {
      "id": "pt.ine.add.PTCONT.543818",
      "street": "R MOINHOS NOVOS",
      "house": "446",
      "postcode": "4830-538",
      "city": "PÓVOA DE LANHOSO",
      "lon": "-8.265051080141719",
      "lat": "41.56907898837652"
    },
    {
      "id": "pt.ine.add.PTCONT.543819",
      "street": "R MOINHOS NOVOS",
      "house": "446",
      "postcode": "4830-538",
      "city": "PÓVOA DE LANHOSO",
      "lon": "-8.265051080141719",
      "lat": "41.56907898837652"
    },
    {
      "id": "pt.ine.add.PTCONT.543820",
      "street": "R MOINHOS NOVOS",
      "house": "446",
      "postcode": "4830-538",
      "city": "PÓVOA DE LANHOSO",
      "lon": "-8.265051080141719",
      "lat": "41.56907898837652"
    },
    {
      "id": "pt.ine.add.PTCONT.543821",
      "street": "R MOINHOS NOVOS",
      "house": "446",
      "postcode": "4830-538",
      "city": "PÓVOA DE LANHOSO",
      "lon": "-8.265051080141719",
      "lat": "41.56907898837652"
    },
    {
      "id": "pt.ine.add.PTCONT.543822",
      "street": "R MOINHOS NOVOS",
      "house": "446",
      "postcode": "4830-538",
      "city": "PÓVOA DE LANHOSO",
      "lon": "-8.265051080141719",
      "lat": "41.56907898837652"
    },
    {
      "id": "pt.ine.add.PTCONT.561771",
      "street": "R CMDT LUIS PINTO DA SILVA",
      "house": "97",
      "postcode": "4830-535",
      "city": "PÓVOA DE LANHOSO",
      "lon": "-8.268645219318138",
      "lat": "41.573540661141564"
    },
    {
      "id": "pt.ine.add.PTCONT.561772",
      "street": "R CMDT LUIS PINTO DA SILVA",
      "house": "97",
      "postcode": "4830-535",
      "city": "PÓVOA DE LANHOSO",
      "lon": "-8.268645219318138",
      "lat": "41.573540661141564"
    },
    {
      "id": "pt.ine.add.PTCONT.561773",
      "street": "R CMDT LUIS PINTO DA SILVA",
      "house": "97",
      "postcode": "4830-535",
      "city": "PÓVOA DE LANHOSO",
      "lon": "-8.268645219318138",
      "lat": "41.573540661141564"
    },
    {
      "id": "pt.ine.add.PTCONT.561774",
      "street": "R CMDT LUIS PINTO DA SILVA",
      "house": "97",
      "postcode": "4830-535",
      "city": "PÓVOA DE LANHOSO",
      "lon": "-8.268645219318138",
      "lat": "41.573540661141564"
    },
    {
      "id": "pt.ine.add.PTCONT.561775",
      "street": "R CMDT LUIS PINTO DA SILVA",
      "house": "97",
      "postcode": "4830-535",
      "city": "PÓVOA DE LANHOSO",
      "lon": "-8.268645219318138",
      "lat": "41.573540661141564"
    },
    {
      "id": "pt.ine.add.PTCONT.561776",
      "street": "R CMDT LUIS PINTO DA SILVA",
      "house": "97",
      "postcode": "4830-535",
      "city": "PÓVOA DE LANHOSO",
      "lon": "-8.268645219318138",
      "lat": "41.573540661141564"
    },
    {
      "id": "pt.ine.add.PTCONT.561777",
      "street": "R CMDT LUIS PINTO DA SILVA",
      "house": "97",
      "postcode": "4830-535",
      "city": "PÓVOA DE LANHOSO",
      "lon": "-8.268645219318138",
      "lat": "41.573540661141564"
    },
    {
      "id": "pt.ine.add.PTCONT.561778",
      "street": "R CMDT LUIS PINTO DA SILVA",
      "house": "97",
      "postcode": "4830-535",
      "city": "PÓVOA DE LANHOSO",
      "lon": "-8.268645219318138",
      "lat": "41.573540661141564"
    },
    {
      "id": "pt.ine.add.PTCONT.564494",
      "street": "R MOINHOS NOVOS",
      "house": "328",
      "postcode": "4830-538",
      "city": "PÓVOA DE LANHOSO",
      "lon": "-8.265292977064759",
      "lat": "41.570114140538756"
    },
    {
      "id": "pt.ine.add.PTCONT.564495",
      "street": "R MOINHOS NOVOS",
      "house": "328",
      "postcode": "4830-538",
      "city": "PÓVOA DE LANHOSO",
      "lon": "-8.265292977064759",
      "lat": "41.570114140538756"
    },
    {
      "id": "pt.ine.add.PTCONT.564499",
      "street": "R MOINHOS NOVOS",
      "house": "328",
      "postcode": "4830-538",
      "city": "PÓVOA DE LANHOSO",
      "lon": "-8.265292977064759",
      "lat": "41.570114140538756"
    },
    {
      "id": "pt.ine.add.PTCONT.564500",
      "street": "R MOINHOS NOVOS",
      "house": "328",
      "postcode": "4830-538",
      "city": "PÓVOA DE LANHOSO",
      "lon": "-8.265292977064759",
      "lat": "41.570114140538756"
    },
    {
      "id": "pt.ine.add.PTCONT.574251",
      "street": "R CMDT LUIS PINTO DA SILVA",
      "house": "109",
      "postcode": "4830-535",
      "city": "PÓVOA DE LANHOSO",
      "lon": "-8.26863287160514",
      "lat": "41.57336960477211"
    },
    {
      "id": "pt.ine.add.PTCONT.574252",
      "street": "R CMDT LUIS PINTO DA SILVA",
      "house": "109",
      "postcode": "4830-535",
      "city": "PÓVOA DE LANHOSO",
      "lon": "-8.26863287160514",
      "lat": "41.57336960477211"
    },
    {
      "id": "pt.ine.add.PTCONT.574585",
      "street": "R CMDT LUIS PINTO DA SILVA",
      "house": "109",
      "postcode": "4830-535",
      "city": "PÓVOA DE LANHOSO",
      "lon": "-8.26863287160514",
      "lat": "41.57336960477211"
    },
    {
      "id": "pt.ine.add.PTCONT.574586",
      "street": "R CMDT LUIS PINTO DA SILVA",
      "house": "109",
      "postcode": "4830-535",
      "city": "PÓVOA DE LANHOSO",
      "lon": "-8.26863287160514",
      "lat": "41.57336960477211"
    },
    {
      "id": "pt.ine.add.PTCONT.574587",
      "street": "R CMDT LUIS PINTO DA SILVA",
      "house": "109",
      "postcode": "4830-535",
      "city": "PÓVOA DE LANHOSO",
      "lon": "-8.26863287160514",
      "lat": "41.57336960477211"
    },
    {
      "id": "pt.ine.add.PTCONT.574588",
      "street": "R CMDT LUIS PINTO DA SILVA",
      "house": "109",
      "postcode": "4830-535",
      "city": "PÓVOA DE LANHOSO",
      "lon": "-8.26863287160514",
      "lat": "41.57336960477211"
    },
    {
      "id": "pt.ine.add.PTCONT.574589",
      "street": "R CMDT LUIS PINTO DA SILVA",
      "house": "109",
      "postcode": "4830-535",
      "city": "PÓVOA DE LANHOSO",
      "lon": "-8.26863287160514",
      "lat": "41.57336960477211"
    },
    {
      "id": "pt.ine.add.PTCONT.574590",
      "street": "R CMDT LUIS PINTO DA SILVA",
      "house": "109",
      "postcode": "4830-535",
      "city": "PÓVOA DE LANHOSO",
      "lon": "-8.26863287160514",
      "lat": "41.57336960477211"
    },
    {
      "id": "pt.ine.add.PTCONT.576605",
      "street": "R CMDT LUIS PINTO DA SILVA",
      "house": "109",
      "postcode": "4830-535",
      "city": "PÓVOA DE LANHOSO",
      "lon": "-8.26863287160514",
      "lat": "41.57336960477211"
    },
    {
      "id": "pt.ine.add.PTCONT.582184",
      "street": "R NEUVES MAISONS",
      "house": "160",
      "postcode": "4830-550",
      "city": "PÓVOA DE LANHOSO",
      "lon": "-8.267061330520844",
      "lat": "41.57296627833746"
    },
    {
      "id": "pt.ine.add.PTCONT.582419",
      "street": "R MOINHOS NOVOS",
      "house": "",
      "postcode": "4830-538",
      "city": "PÓVOA DE LANHOSO",
      "lon": "-8.26454318620277",
      "lat": "41.57285213582616"
    },
    {
      "id": "pt.ine.add.PTCONT.599735",
      "street": "CAM MOLEIRA",
      "house": "12",
      "postcode": "4830-583",
      "city": "PÓVOA DE LANHOSO",
      "lon": "-8.264942187875272",
      "lat": "41.56859291130363"
    },
    {
      "id": "pt.ine.add.PTCONT.599736",
      "street": "CAM MOLEIRA",
      "house": "12",
      "postcode": "4830-583",
      "city": "PÓVOA DE LANHOSO",
      "lon": "-8.264942187875272",
      "lat": "41.56859291130363"
    },
    {
      "id": "pt.ine.add.PTCONT.599737",
      "street": "CAM MOLEIRA",
      "house": "12",
      "postcode": "4830-583",
      "city": "PÓVOA DE LANHOSO",
      "lon": "-8.264942187875272",
      "lat": "41.56859291130363"
    },
    {
      "id": "pt.ine.add.PTCONT.599738",
      "street": "CAM MOLEIRA",
      "house": "12",
      "postcode": "4830-583",
      "city": "PÓVOA DE LANHOSO",
      "lon": "-8.264942187875272",
      "lat": "41.56859291130363"
    },
    {
      "id": "pt.ine.add.PTCONT.599739",
      "street": "CAM MOLEIRA",
      "house": "12",
      "postcode": "4830-583",
      "city": "PÓVOA DE LANHOSO",
      "lon": "-8.264942187875272",
      "lat": "41.56859291130363"
    },
    {
      "id": "pt.ine.add.PTCONT.599740",
      "street": "CAM MOLEIRA",
      "house": "32",
      "postcode": "4830-583",
      "city": "PÓVOA DE LANHOSO",
      "lon": "-8.265181458932242",
      "lat": "41.568340531978976"
    },
    {
      "id": "pt.ine.add.PTCONT.599741",
      "street": "CAM MOLEIRA",
      "house": "32",
      "postcode": "4830-583",
      "city": "PÓVOA DE LANHOSO",
      "lon": "-8.265181458932242",
      "lat": "41.568340531978976"
    },
    {
      "id": "pt.ine.add.PTCONT.599742",
      "street": "CAM MOLEIRA",
      "house": "32",
      "postcode": "4830-583",
      "city": "PÓVOA DE LANHOSO",
      "lon": "-8.265181458932242",
      "lat": "41.568340531978976"
    },
    {
      "id": "pt.ine.add.PTCONT.599743",
      "street": "CAM MOLEIRA",
      "house": "32",
      "postcode": "4830-583",
      "city": "PÓVOA DE LANHOSO",
      "lon": "-8.265181458932242",
      "lat": "41.568340531978976"
    },
    {
      "id": "pt.ine.add.PTCONT.599744",
      "street": "CAM MOLEIRA",
      "house": "32",
      "postcode": "4830-583",
      "city": "PÓVOA DE LANHOSO",
      "lon": "-8.265181458932242",
      "lat": "41.568340531978976"
    },
    {
      "id": "pt.ine.add.PTCONT.599987",
      "street": "CAM MOLEIRA",
      "house": "12",
      "postcode": "4830-583",
      "city": "PÓVOA DE LANHOSO",
      "lon": "-8.264942187875272",
      "lat": "41.56859291130363"
    },
    {
      "id": "pt.ine.add.PTCONT.620568",
      "street": "R MOINHOS NOVOS",
      "house": "386",
      "postcode": "4830-538",
      "city": "PÓVOA DE LANHOSO",
      "lon": "-8.26516004738963",
      "lat": "41.5696010801747"
    },
    {
      "id": "pt.ine.add.PTCONT.620569",
      "street": "R MOINHOS NOVOS",
      "house": "386",
      "postcode": "4830-538",
      "city": "PÓVOA DE LANHOSO",
      "lon": "-8.26516004738963",
      "lat": "41.5696010801747"
    },
    {
      "id": "pt.ine.add.PTCONT.620570",
      "street": "R MOINHOS NOVOS",
      "house": "386",
      "postcode": "4830-538",
      "city": "PÓVOA DE LANHOSO",
      "lon": "-8.26516004738963",
      "lat": "41.5696010801747"
    },
    {
      "id": "pt.ine.add.PTCONT.620571",
      "street": "R MOINHOS NOVOS",
      "house": "386",
      "postcode": "4830-538",
      "city": "PÓVOA DE LANHOSO",
      "lon": "-8.26516004738963",
      "lat": "41.5696010801747"
    },
    {
      "id": "pt.ine.add.PTCONT.620572",
      "street": "R MOINHOS NOVOS",
      "house": "386",
      "postcode": "4830-538",
      "city": "PÓVOA DE LANHOSO",
      "lon": "-8.26516004738963",
      "lat": "41.5696010801747"
    },
    {
      "id": "pt.ine.add.PTCONT.620573",
      "street": "R MOINHOS NOVOS",
      "house": "386",
      "postcode": "4830-538",
      "city": "PÓVOA DE LANHOSO",
      "lon": "-8.26516004738963",
      "lat": "41.5696010801747"
    },
    {
      "id": "pt.ine.add.PTCONT.626587",
      "street": "R MOINHOS NOVOS",
      "house": "158",
      "postcode": "4830-538",
      "city": "PÓVOA DE LANHOSO",
      "lon": "-8.264876747449295",
      "lat": "41.57178931334925"
    },
    {
      "id": "pt.ine.add.PTCONT.630775",
      "street": "R MOINHOS NOVOS",
      "house": "60",
      "postcode": "4830-538",
      "city": "PÓVOA DE LANHOSO",
      "lon": "-8.264650292604621",
      "lat": "41.57245584903678"
    },
    {
      "id": "pt.ine.add.PTCONT.640674",
      "street": "R NEUVES MAISONS",
      "house": "140",
      "postcode": "4830-550",
      "city": "PÓVOA DE LANHOSO",
      "lon": "-8.267301280248732",
      "lat": "41.57303802841784"
    },
    {
      "id": "pt.ine.add.PTCONT.647790",
      "street": "R NEUVES MAISONS",
      "house": "180",
      "postcode": "4830-550",
      "city": "PÓVOA DE LANHOSO",
      "lon": "-8.2668214370263",
      "lat": "41.572921538891215"
    },
    {
      "id": "pt.ine.add.PTCONT.656561",
      "street": "R NEUVES MAISONS",
      "house": "200",
      "postcode": "4830-550",
      "city": "PÓVOA DE LANHOSO",
      "lon": "-8.266401656596067",
      "lat": "41.57285900015068"
    },
    {
      "id": "pt.ine.add.PTCONT.656685",
      "street": "R NEUVES MAISONS",
      "house": "14",
      "postcode": "4830-550",
      "city": "PÓVOA DE LANHOSO",
      "lon": "-8.267961069827871",
      "lat": "41.5731993237031"
    },
    {
      "id": "pt.ine.add.PTCONT.670029",
      "street": "CAM LAMA DE MARCOS",
      "house": "133",
      "postcode": "4830-515",
      "city": "PÓVOA DE LANHOSO",
      "lon": "-8.26540512602166",
      "lat": "41.572193874710656"
    },
    {
      "id": "pt.ine.add.PTCONT.702553",
      "street": "R MOINHOS NOVOS",
      "house": "452",
      "postcode": "4830-538",
      "city": "PÓVOA DE LANHOSO",
      "lon": "-8.265302745626014",
      "lat": "41.56902467687944"
    },
    {
      "id": "pt.ine.add.PTCONT.702554",
      "street": "R MOINHOS NOVOS",
      "house": "452",
      "postcode": "4830-538",
      "city": "PÓVOA DE LANHOSO",
      "lon": "-8.265302745626014",
      "lat": "41.56902467687944"
    },
    {
      "id": "pt.ine.add.PTCONT.702555",
      "street": "R MOINHOS NOVOS",
      "house": "452",
      "postcode": "4830-538",
      "city": "PÓVOA DE LANHOSO",
      "lon": "-8.265302745626014",
      "lat": "41.56902467687944"
    },
    {
      "id": "pt.ine.add.PTCONT.702556",
      "street": "R MOINHOS NOVOS",
      "house": "452",
      "postcode": "4830-538",
      "city": "PÓVOA DE LANHOSO",
      "lon": "-8.265302745626014",
      "lat": "41.56902467687944"
    },
    {
      "id": "pt.ine.add.PTCONT.702557",
      "street": "R MOINHOS NOVOS",
      "house": "452",
      "postcode": "4830-538",
      "city": "PÓVOA DE LANHOSO",
      "lon": "-8.265302745626014",
      "lat": "41.56902467687944"
    },
    {
      "id": "pt.ine.add.PTCONT.702558",
      "street": "R MOINHOS NOVOS",
      "house": "452",
      "postcode": "4830-538",
      "city": "PÓVOA DE LANHOSO",
      "lon": "-8.265302745626014",
      "lat": "41.56902467687944"
    },
    {
      "id": "pt.ine.add.PTCONT.702559",
      "street": "R MOINHOS NOVOS",
      "house": "452",
      "postcode": "4830-538",
      "city": "PÓVOA DE LANHOSO",
      "lon": "-8.265302745626014",
      "lat": "41.56902467687944"
    },
    {
      "id": "pt.ine.add.PTCONT.702560",
      "street": "R MOINHOS NOVOS",
      "house": "452",
      "postcode": "4830-538",
      "city": "PÓVOA DE LANHOSO",
      "lon": "-8.265302745626014",
      "lat": "41.56902467687944"
    },
    {
      "id": "pt.ine.add.PTCONT.703212",
      "street": "R MOINHOS NOVOS",
      "house": "452",
      "postcode": "4830-538",
      "city": "PÓVOA DE LANHOSO",
      "lon": "-8.265302745626014",
      "lat": "41.56902467687944"
    },
    {
      "id": "pt.ine.add.PTCONT.711421",
      "street": "R MOINHOS NOVOS",
      "house": "408",
      "postcode": "4830-538",
      "city": "PÓVOA DE LANHOSO",
      "lon": "-8.265375195660699",
      "lat": "41.5692766982754"
    },
    {
      "id": "pt.ine.add.PTCONT.711422",
      "street": "R MOINHOS NOVOS",
      "house": "408",
      "postcode": "4830-538",
      "city": "PÓVOA DE LANHOSO",
      "lon": "-8.265375195660699",
      "lat": "41.5692766982754"
    },
    {
      "id": "pt.ine.add.PTCONT.711423",
      "street": "R MOINHOS NOVOS",
      "house": "408",
      "postcode": "4830-538",
      "city": "PÓVOA DE LANHOSO",
      "lon": "-8.265375195660699",
      "lat": "41.5692766982754"
    },
    {
      "id": "pt.ine.add.PTCONT.711424",
      "street": "R MOINHOS NOVOS",
      "house": "408",
      "postcode": "4830-538",
      "city": "PÓVOA DE LANHOSO",
      "lon": "-8.265375195660699",
      "lat": "41.5692766982754"
    },
    {
      "id": "pt.ine.add.PTCONT.711425",
      "street": "R MOINHOS NOVOS",
      "house": "408",
      "postcode": "4830-538",
      "city": "PÓVOA DE LANHOSO",
      "lon": "-8.265375195660699",
      "lat": "41.5692766982754"
    },
    {
      "id": "pt.ine.add.PTCONT.711426",
      "street": "R MOINHOS NOVOS",
      "house": "408",
      "postcode": "4830-538",
      "city": "PÓVOA DE LANHOSO",
      "lon": "-8.265375195660699",
      "lat": "41.5692766982754"
    },
    {
      "id": "pt.ine.add.PTCONT.711427",
      "street": "R MOINHOS NOVOS",
      "house": "408",
      "postcode": "4830-538",
      "city": "PÓVOA DE LANHOSO",
      "lon": "-8.265375195660699",
      "lat": "41.5692766982754"
    },
    {
      "id": "pt.ine.add.PTCONT.711428",
      "street": "R MOINHOS NOVOS",
      "house": "408",
      "postcode": "4830-538",
      "city": "PÓVOA DE LANHOSO",
      "lon": "-8.265375195660699",
      "lat": "41.5692766982754"
    },
    {
      "id": "pt.ine.add.PTCONT.711448",
      "street": "R MOINHOS NOVOS",
      "house": "98",
      "postcode": "4830-538",
      "city": "PÓVOA DE LANHOSO",
      "lon": "-8.264721501207466",
      "lat": "41.572095618156695"
    },
    {
      "id": "pt.ine.add.PTCONT.712107",
      "street": "R MOINHOS NOVOS",
      "house": "408",
      "postcode": "4830-538",
      "city": "PÓVOA DE LANHOSO",
      "lon": "-8.265375195660699",
      "lat": "41.5692766982754"
    },
    {
      "id": "pt.ine.add.PTCONT.768351",
      "street": "R CMDT LUIS PINTO DA SILVA",
      "house": "123",
      "postcode": "4830-535",
      "city": "PÓVOA DE LANHOSO",
      "lon": "-8.268848806618504",
      "lat": "41.57342337245379"
    },
    {
      "id": "pt.ine.add.PTCONT.768352",
      "street": "R CMDT LUIS PINTO DA SILVA",
      "house": "123",
      "postcode": "4830-535",
      "city": "PÓVOA DE LANHOSO",
      "lon": "-8.268848806618504",
      "lat": "41.57342337245379"
    },
    {
      "id": "pt.ine.add.PTCONT.768353",
      "street": "R CMDT LUIS PINTO DA SILVA",
      "house": "123",
      "postcode": "4830-535",
      "city": "PÓVOA DE LANHOSO",
      "lon": "-8.268848806618504",
      "lat": "41.57342337245379"
    },
    {
      "id": "pt.ine.add.PTCONT.768355",
      "street": "R CMDT LUIS PINTO DA SILVA",
      "house": "123",
      "postcode": "4830-535",
      "city": "PÓVOA DE LANHOSO",
      "lon": "-8.268848806618504",
      "lat": "41.57342337245379"
    },
    {
      "id": "pt.ine.add.PTCONT.768356",
      "street": "R CMDT LUIS PINTO DA SILVA",
      "house": "123",
      "postcode": "4830-535",
      "city": "PÓVOA DE LANHOSO",
      "lon": "-8.268848806618504",
      "lat": "41.57342337245379"
    },
    {
      "id": "pt.ine.add.PTCONT.768357",
      "street": "R CMDT LUIS PINTO DA SILVA",
      "house": "123",
      "postcode": "4830-535",
      "city": "PÓVOA DE LANHOSO",
      "lon": "-8.268848806618504",
      "lat": "41.57342337245379"
    },
    {
      "id": "pt.ine.add.PTCONT.769014",
      "street": "R CMDT LUIS PINTO DA SILVA",
      "house": "123",
      "postcode": "4830-535",
      "city": "PÓVOA DE LANHOSO",
      "lon": "-8.268848806618504",
      "lat": "41.57342337245379"
    },
    {
      "id": "pt.ine.add.PTCONT.771395",
      "street": "R MOINHOS NOVOS",
      "house": "356",
      "postcode": "4830-538",
      "city": "PÓVOA DE LANHOSO",
      "lon": "-8.265220471374802",
      "lat": "41.56983510797602"
    },
    {
      "id": "pt.ine.add.PTCONT.771396",
      "street": "R MOINHOS NOVOS",
      "house": "356",
      "postcode": "4830-538",
      "city": "PÓVOA DE LANHOSO",
      "lon": "-8.265220471374802",
      "lat": "41.56983510797602"
    },
    {
      "id": "pt.ine.add.PTCONT.771397",
      "street": "R MOINHOS NOVOS",
      "house": "356",
      "postcode": "4830-538",
      "city": "PÓVOA DE LANHOSO",
      "lon": "-8.265220471374802",
      "lat": "41.56983510797602"
    },
    {
      "id": "pt.ine.add.PTCONT.771398",
      "street": "R MOINHOS NOVOS",
      "house": "356",
      "postcode": "4830-538",
      "city": "PÓVOA DE LANHOSO",
      "lon": "-8.265220471374802",
      "lat": "41.56983510797602"
    },
    {
      "id": "pt.ine.add.PTCONT.774416",
      "street": "CAM LAMA DE MARCOS",
      "house": "35",
      "postcode": "4830-515",
      "city": "PÓVOA DE LANHOSO",
      "lon": "-8.266029855436738",
      "lat": "41.57280540815588"
    },
    {
      "id": "pt.ine.add.PTCONT.774424",
      "street": "R NEUVES MAISONS",
      "house": "12",
      "postcode": "4830-550",
      "city": "PÓVOA DE LANHOSO",
      "lon": "-8.267505223003802",
      "lat": "41.57309181262182"
    },
    {
      "id": "pt.ine.add.PTCONT.780622",
      "street": "R MOINHOS NOVOS",
      "house": "55",
      "postcode": "4830-538",
      "city": "PÓVOA DE LANHOSO",
      "lon": "-8.264662684435208",
      "lat": "41.57265391701697"
    },
    {
      "id": "pt.ine.add.PTCONT.782187",
      "street": "R MOINHOS NOVOS",
      "house": "80",
      "postcode": "4830-538",
      "city": "PÓVOA DE LANHOSO",
      "lon": "-8.264673907098167",
      "lat": "41.57227574732463"
    },
    {
      "id": "pt.ine.add.PTCONT.789169",
      "street": "R MOINHOS NOVOS",
      "house": "159",
      "postcode": "4830-538",
      "city": "PÓVOA DE LANHOSO",
      "lon": "-8.264852438531634",
      "lat": "41.57162727396086"
    },
    {
      "id": "pt.ine.add.PTCONT.797867",
      "street": "R MOINHOS NOVOS",
      "house": "336",
      "postcode": "4830-538",
      "city": "PÓVOA DE LANHOSO",
      "lon": "-8.26555672780798",
      "lat": "41.570104833291964"
    },
    {
      "id": "pt.ine.add.PTCONT.797935",
      "street": "R MOINHOS NOVOS",
      "house": "336",
      "postcode": "4830-538",
      "city": "PÓVOA DE LANHOSO",
      "lon": "-8.26555672780798",
      "lat": "41.570104833291964"
    },
    {
      "id": "pt.ine.add.PTCONT.797936",
      "street": "R MOINHOS NOVOS",
      "house": "336",
      "postcode": "4830-538",
      "city": "PÓVOA DE LANHOSO",
      "lon": "-8.26555672780798",
      "lat": "41.570104833291964"
    },
    {
      "id": "pt.ine.add.PTCONT.797937",
      "street": "R MOINHOS NOVOS",
      "house": "336",
      "postcode": "4830-538",
      "city": "PÓVOA DE LANHOSO",
      "lon": "-8.26555672780798",
      "lat": "41.570104833291964"
    },
    {
      "id": "pt.ine.add.PTCONT.797938",
      "street": "R MOINHOS NOVOS",
      "house": "336",
      "postcode": "4830-538",
      "city": "PÓVOA DE LANHOSO",
      "lon": "-8.26555672780798",
      "lat": "41.570104833291964"
    },
    {
      "id": "pt.ine.add.PTCONT.797939",
      "street": "R MOINHOS NOVOS",
      "house": "336",
      "postcode": "4830-538",
      "city": "PÓVOA DE LANHOSO",
      "lon": "-8.26555672780798",
      "lat": "41.570104833291964"
    },
    {
      "id": "pt.ine.add.PTCONT.797940",
      "street": "R MOINHOS NOVOS",
      "house": "336",
      "postcode": "4830-538",
      "city": "PÓVOA DE LANHOSO",
      "lon": "-8.26555672780798",
      "lat": "41.570104833291964"
    },
    {
      "id": "pt.ine.add.PTCONT.797941",
      "street": "R MOINHOS NOVOS",
      "house": "336",
      "postcode": "4830-538",
      "city": "PÓVOA DE LANHOSO",
      "lon": "-8.26555672780798",
      "lat": "41.570104833291964"
    },
    {
      "id": "pt.ine.add.PTCONT.799146",
      "street": "R MOINHOS NOVOS",
      "house": "336",
      "postcode": "4830-538",
      "city": "PÓVOA DE LANHOSO",
      "lon": "-8.26555672780798",
      "lat": "41.570104833291964"
    },
    {
      "id": "pt.ine.add.PTCONT.828367",
      "street": "CAM MOLEIRA",
      "house": "22",
      "postcode": "4830-583",
      "city": "PÓVOA DE LANHOSO",
      "lon": "-8.265193814888121",
      "lat": "41.56852059260359"
    },
    {
      "id": "pt.ine.add.PTCONT.828368",
      "street": "CAM MOLEIRA",
      "house": "22",
      "postcode": "4830-583",
      "city": "PÓVOA DE LANHOSO",
      "lon": "-8.265193814888121",
      "lat": "41.56852059260359"
    },
    {
      "id": "pt.ine.add.PTCONT.828369",
      "street": "CAM MOLEIRA",
      "house": "22",
      "postcode": "4830-583",
      "city": "PÓVOA DE LANHOSO",
      "lon": "-8.265193814888121",
      "lat": "41.56852059260359"
    },
    {
      "id": "pt.ine.add.PTCONT.828370",
      "street": "CAM MOLEIRA",
      "house": "22",
      "postcode": "4830-583",
      "city": "PÓVOA DE LANHOSO",
      "lon": "-8.265193814888121",
      "lat": "41.56852059260359"
    },
    {
      "id": "pt.ine.add.PTCONT.828371",
      "street": "CAM MOLEIRA",
      "house": "22",
      "postcode": "4830-583",
      "city": "PÓVOA DE LANHOSO",
      "lon": "-8.265193814888121",
      "lat": "41.56852059260359"
    },
    {
      "id": "pt.ine.add.PTCONT.828376",
      "street": "CAM MOLEIRA",
      "house": "22",
      "postcode": "4830-583",
      "city": "PÓVOA DE LANHOSO",
      "lon": "-8.265193814888121",
      "lat": "41.56852059260359"
    },
    {
      "id": "pt.ine.add.PTCONT.828377",
      "street": "CAM MOLEIRA",
      "house": "22",
      "postcode": "4830-583",
      "city": "PÓVOA DE LANHOSO",
      "lon": "-8.265193814888121",
      "lat": "41.56852059260359"
    },
    {
      "id": "pt.ine.add.PTCONT.828378",
      "street": "CAM MOLEIRA",
      "house": "22",
      "postcode": "4830-583",
      "city": "PÓVOA DE LANHOSO",
      "lon": "-8.265193814888121",
      "lat": "41.56852059260359"
    },
    {
      "id": "pt.ine.add.PTCONT.831586",
      "street": "R MOINHOS NOVOS",
      "house": "416",
      "postcode": "4830-538",
      "city": "PÓVOA DE LANHOSO",
      "lon": "-8.265087524526127",
      "lat": "41.56931304378301"
    },
    {
      "id": "pt.ine.add.PTCONT.831587",
      "street": "R MOINHOS NOVOS",
      "house": "416",
      "postcode": "4830-538",
      "city": "PÓVOA DE LANHOSO",
      "lon": "-8.265087524526127",
      "lat": "41.56931304378301"
    },
    {
      "id": "pt.ine.add.PTCONT.831588",
      "street": "R MOINHOS NOVOS",
      "house": "416",
      "postcode": "4830-538",
      "city": "PÓVOA DE LANHOSO",
      "lon": "-8.265087524526127",
      "lat": "41.56931304378301"
    },
    {
      "id": "pt.ine.add.PTCONT.831589",
      "street": "R MOINHOS NOVOS",
      "house": "416",
      "postcode": "4830-538",
      "city": "PÓVOA DE LANHOSO",
      "lon": "-8.265087524526127",
      "lat": "41.56931304378301"
    },
    {
      "id": "pt.ine.add.PTCONT.831590",
      "street": "R MOINHOS NOVOS",
      "house": "416",
      "postcode": "4830-538",
      "city": "PÓVOA DE LANHOSO",
      "lon": "-8.265087524526127",
      "lat": "41.56931304378301"
    },
    {
      "id": "pt.ine.add.PTCONT.831591",
      "street": "R MOINHOS NOVOS",
      "house": "416",
      "postcode": "4830-538",
      "city": "PÓVOA DE LANHOSO",
      "lon": "-8.265087524526127",
      "lat": "41.56931304378301"
    },
    {
      "id": "pt.ine.add.PTCONT.838170",
      "street": "CAM LAMA DE MARCOS",
      "house": "",
      "postcode": "4830-515",
      "city": "PÓVOA DE LANHOSO",
      "lon": "-8.26558140578331",
      "lat": "41.57044694690559"
    },
    {
      "id": "pt.ine.add.PTCONT.839131",
      "street": "R MOINHOS NOVOS",
      "house": "468",
      "postcode": "4830-538",
      "city": "PÓVOA DE LANHOSO",
      "lon": "-8.265254237978198",
      "lat": "41.56875462043257"
    },
    {
      "id": "pt.ine.add.PTCONT.841178",
      "street": "CAM MOLEIRA",
      "house": "32",
      "postcode": "4830-583",
      "city": "PÓVOA DE LANHOSO",
      "lon": "-8.265181458932242",
      "lat": "41.568340531978976"
    },
    {
      "id": "pt.ine.add.PTCONT.841720",
      "street": "R MOINHOS NOVOS",
      "house": "266",
      "postcode": "4830-538",
      "city": "PÓVOA DE LANHOSO",
      "lon": "-8.265126370467572",
      "lat": "41.57072658611518"
    },
    {
      "id": "pt.ine.add.PTCONT.842732",
      "street": "CAM MOLEIRA",
      "house": "22",
      "postcode": "4830-583",
      "city": "PÓVOA DE LANHOSO",
      "lon": "-8.265193814888121",
      "lat": "41.56852059260359"
    },
    {
      "id": "pt.ine.add.PTCONT.843974",
      "street": "R CMDT LUIS PINTO DA SILVA",
      "house": "123",
      "postcode": "4830-535",
      "city": "PÓVOA DE LANHOSO",
      "lon": "-8.268848806618504",
      "lat": "41.57342337245379"
    },
    {
      "id": "pt.ine.add.PTCONT.847688",
      "street": "R MOINHOS NOVOS",
      "house": "446",
      "postcode": "4830-538",
      "city": "PÓVOA DE LANHOSO",
      "lon": "-8.265051080141719",
      "lat": "41.56907898837652"
    }
  ]
}