{
  "data": {
    "distrito": "Faro",
    "concelho": "Faro",
    "freguesia": "Santa Bárbara de Nexe",
    "OBJECTID": 847,
    "BGRI2021": "08050300210",
    "DT21": "08",
    "DTMN21": "0805",
    "DTMNFR21": "080503",
    "DTMNFRSEC21": "080503002",
    "SECNUM21": "002",
    "SSNUM21": "10",
    "SECSSNUM21": "00210",
    "OBJECTID_1": 66710,
    "DT": "08",
    "CC": "05",
    "fr": "03",
    "SEC": "002",
    "SS": "10"
  },
  "addresses": [
    {
      "id": "pt.ine.add.PTCONT.1468585",
      "street": "ESTR VALADOS",
      "house": "",
      "postcode": "8005-512",
      "city": "FARO",
      "lon": "-7.978015816982121",
      "lat": "37.1052368907835"
    },
    {
      "id": "pt.ine.add.PTCONT.1481628",
      "street": "ESTR VALADOS",
      "house": "151C",
      "postcode": "8005-431",
      "city": "FARO",
      "lon": "-7.970738207775847",
      "lat": "37.104704530718216"
    },
    {
      "id": "pt.ine.add.PTCONT.1485029",
      "street": "ESTR VALADOS",
      "house": "",
      "postcode": "8005-512",
      "city": "FARO",
      "lon": "-7.978669284457885",
      "lat": "37.10476017896723"
    },
    {
      "id": "pt.ine.add.PTCONT.1495923",
      "street": "CAM VARGENS O MONTE DOS AVOS",
      "house": "",
      "postcode": "8005-431",
      "city": "FARO",
      "lon": "-7.969224171593327",
      "lat": "37.102521869068966"
    },
    {
      "id": "pt.ine.add.PTCONT.1512954",
      "street": "ESTR VALADOS",
      "house": "CP 263Z",
      "postcode": "8005-512",
      "city": "FARO",
      "lon": "-7.976374120703332",
      "lat": "37.104847273997095"
    },
    {
      "id": "pt.ine.add.PTCONT.1515933",
      "street": "ESTR VALADOS",
      "house": "251 Z",
      "postcode": "8005-512",
      "city": "FARO",
      "lon": "-7.975011608804769",
      "lat": "37.10545818971081"
    },
    {
      "id": "pt.ine.add.PTCONT.1545170",
      "street": "ESTR VALADOS JJSTINO SANTOS",
      "house": "",
      "postcode": "8005-512",
      "city": "FARO",
      "lon": "-7.975292484794415",
      "lat": "37.10563877694634"
    },
    {
      "id": "pt.ine.add.PTCONT.1547783",
      "street": "ESTR VALADOS",
      "house": "",
      "postcode": "8005-431",
      "city": "FARO",
      "lon": "-7.971143241865031",
      "lat": "37.10468706333973"
    },
    {
      "id": "pt.ine.add.PTCONT.1563813",
      "street": "ESTR VALADOS",
      "house": "",
      "postcode": "8005-512",
      "city": "FARO",
      "lon": "-7.978387249059362",
      "lat": "37.10514726947029"
    },
    {
      "id": "pt.ine.add.PTCONT.1565886",
      "street": "ESTR VALADOS NESTOR",
      "house": "",
      "postcode": "8005-512",
      "city": "FARO",
      "lon": "-7.974201759790496",
      "lat": "37.10538502194673"
    },
    {
      "id": "pt.ine.add.PTCONT.1575998",
      "street": "ESTR VALADOS CASA PE DO SERRO",
      "house": "",
      "postcode": "8005-512",
      "city": "FARO",
      "lon": "-7.975845226145811",
      "lat": "37.104918658966945"
    },
    {
      "id": "pt.ine.add.PTCONT.1577037",
      "street": "ESTR VALADOS FELICIO MARTINS",
      "house": "",
      "postcode": "8005-512",
      "city": "FARO",
      "lon": "-7.973065947528256",
      "lat": "37.105176249336"
    },
    {
      "id": "pt.ine.add.PTCONT.1578420",
      "street": "QTA ATLANTICO",
      "house": "",
      "postcode": "8005-512",
      "city": "FARO",
      "lon": "-7.982788241676752",
      "lat": "37.104008576966386"
    },
    {
      "id": "pt.ine.add.PTCONT.1581481",
      "street": "ESTR VALADOS CASA KARMA",
      "house": "",
      "postcode": "8005-512",
      "city": "FARO",
      "lon": "-7.973192197394304",
      "lat": "37.10398701319272"
    },
    {
      "id": "pt.ine.add.PTCONT.1586457",
      "street": "ESTR VALADOS",
      "house": "",
      "postcode": "8005-512",
      "city": "FARO",
      "lon": "-7.977194458847005",
      "lat": "37.1052898775664"
    },
    {
      "id": "pt.ine.add.PTCONT.1590780",
      "street": "ESTR VALADOS",
      "house": "",
      "postcode": "8005-431",
      "city": "FARO",
      "lon": "-7.971008723344866",
      "lat": "37.104461613152026"
    },
    {
      "id": "pt.ine.add.PTCONT.1597727",
      "street": "ESTR VALADOS MONTE PESTE",
      "house": "",
      "postcode": "8005-431",
      "city": "FARO",
      "lon": "-7.971458257616203",
      "lat": "37.1046784825489"
    },
    {
      "id": "pt.ine.add.PTCONT.1604352",
      "street": "CAM CRUZES",
      "house": "",
      "postcode": "8005-431",
      "city": "FARO",
      "lon": "-7.969357226757908",
      "lat": "37.10342311859461"
    },
    {
      "id": "pt.ine.add.PTCONT.1640794",
      "street": "ESTR VALADOS CASA LEÃO",
      "house": "",
      "postcode": "8005-512",
      "city": "FARO",
      "lon": "-7.979535344369824",
      "lat": "37.10485141034932"
    },
    {
      "id": "pt.ine.add.PTCONT.1656831",
      "street": "ESTR VALADOS",
      "house": "CP 249",
      "postcode": "8005-512",
      "city": "FARO",
      "lon": "-7.974528009315049",
      "lat": "37.105385458712355"
    },
    {
      "id": "pt.ine.add.PTCONT.1668620",
      "street": "ESTR VALADOS CASA DE JESUS",
      "house": "",
      "postcode": "8005-512",
      "city": "FARO",
      "lon": "-7.9735159834229785",
      "lat": "37.105158834586426"
    },
    {
      "id": "pt.ine.add.PTCONT.1687056",
      "street": "ESTR VALADOS",
      "house": "263 A",
      "postcode": "8005-512",
      "city": "FARO",
      "lon": "-7.976802042944175",
      "lat": "37.10464059377873"
    },
    {
      "id": "pt.ine.add.PTCONT.1689695",
      "street": "ESTR VALADOS",
      "house": "",
      "postcode": "8005-512",
      "city": "FARO",
      "lon": "-7.976698329951059",
      "lat": "37.1058388740735"
    },
    {
      "id": "pt.ine.add.PTCONT.1704010",
      "street": "ESTR VALADOS",
      "house": "",
      "postcode": "8005-431",
      "city": "FARO",
      "lon": "-7.971075358732075",
      "lat": "37.10486718368947"
    },
    {
      "id": "pt.ine.add.PTCONT.1712715",
      "street": "ESTR VALADOS",
      "house": "",
      "postcode": "8005-512",
      "city": "FARO",
      "lon": "-7.9738868734191115",
      "lat": "37.10533053561809"
    },
    {
      "id": "pt.ine.add.PTCONT.1756990",
      "street": "ESTR VALADOS",
      "house": "",
      "postcode": "8005-431",
      "city": "FARO",
      "lon": "-7.970772130479279",
      "lat": "37.10462348127222"
    },
    {
      "id": "pt.ine.add.PTCONT.1775097",
      "street": "",
      "house": "",
      "postcode": "8005-431",
      "city": "FARO",
      "lon": "-7.969749901726486",
      "lat": "37.103919246294474"
    },
    {
      "id": "pt.ine.add.PTCONT.1778294",
      "street": "CAM VARGENS",
      "house": "",
      "postcode": "8005-431",
      "city": "FARO",
      "lon": "-7.970945430790705",
      "lat": "37.10248819283204"
    },
    {
      "id": "pt.ine.add.PTCONT.1793011",
      "street": "ESTR VALADOS",
      "house": "",
      "postcode": "8005-431",
      "city": "FARO",
      "lon": "-7.970018447232291",
      "lat": "37.10459541509322"
    },
    {
      "id": "pt.ine.add.PTCONT.1813263",
      "street": "CAM VARGENS O MONTE DOS AVOS",
      "house": "",
      "postcode": "8005-431",
      "city": "FARO",
      "lon": "-7.969347877932005",
      "lat": "37.10254006128987"
    },
    {
      "id": "pt.ine.add.PTCONT.1821948",
      "street": "CAM ALCARIA",
      "house": "",
      "postcode": "8005-512",
      "city": "FARO",
      "lon": "-7.981526649932036",
      "lat": "37.10481793001686"
    },
    {
      "id": "pt.ine.add.PTCONT.1836215",
      "street": "ESTR VALADOS CASA BAILEY",
      "house": "",
      "postcode": "8005-431",
      "city": "FARO",
      "lon": "-7.970660228295416",
      "lat": "37.10434399771758"
    }
  ]
}