{
  "data": {
    "distrito": "Faro",
    "concelho": "Faro",
    "freguesia": "Santa Bárbara de Nexe",
    "OBJECTID": 849,
    "BGRI2021": "08050300212",
    "DT21": "08",
    "DTMN21": "0805",
    "DTMNFR21": "080503",
    "DTMNFRSEC21": "080503002",
    "SECNUM21": "002",
    "SSNUM21": "12",
    "SECSSNUM21": "00212",
    "OBJECTID_1": 65865,
    "DT": "08",
    "CC": "05",
    "fr": "03",
    "SEC": "002",
    "SS": "12"
  },
  "addresses": [
    {
      "id": "pt.ine.add.PTCONT.1468587",
      "street": "SIT POÇO MOURO",
      "house": "",
      "postcode": "8005-517",
      "city": "FARO",
      "lon": "-7.959375359181491",
      "lat": "37.10489567188874"
    },
    {
      "id": "pt.ine.add.PTCONT.1487187",
      "street": "SIT LARANJEIRA",
      "house": "",
      "postcode": "8005-491",
      "city": "FARO",
      "lon": "-7.959958549234898",
      "lat": "37.10568946232626"
    },
    {
      "id": "pt.ine.add.PTCONT.1498812",
      "street": "R S BRÁS",
      "house": "14",
      "postcode": "8005-497",
      "city": "FARO",
      "lon": "-7.961683721483964",
      "lat": "37.1039529128641"
    },
    {
      "id": "pt.ine.add.PTCONT.1558517",
      "street": "R S BRÁS CASA GUERREIRO",
      "house": "12",
      "postcode": "8005-497",
      "city": "FARO",
      "lon": "-7.961705855570517",
      "lat": "37.10411513664196"
    },
    {
      "id": "pt.ine.add.PTCONT.1573306",
      "street": "SIT LARANJEIRA",
      "house": "",
      "postcode": "8005-491",
      "city": "FARO",
      "lon": "-7.960037873409436",
      "lat": "37.10543727987744"
    },
    {
      "id": "pt.ine.add.PTCONT.1573307",
      "street": "R S BRÁS",
      "house": "22",
      "postcode": "8005-497",
      "city": "FARO",
      "lon": "-7.9615803605918645",
      "lat": "37.104889871399564"
    },
    {
      "id": "pt.ine.add.PTCONT.1583233",
      "street": "ESTR S BRÁS CASA CALFADA",
      "house": "",
      "postcode": "8005-497",
      "city": "FARO",
      "lon": "-7.961004576916137",
      "lat": "37.105790102340926"
    },
    {
      "id": "pt.ine.add.PTCONT.1605891",
      "street": "SIT POÇO MOURO",
      "house": "16 B",
      "postcode": "8005-517",
      "city": "FARO",
      "lon": "-7.959465337834481",
      "lat": "37.10490481434006"
    },
    {
      "id": "pt.ine.add.PTCONT.1617469",
      "street": "R S BRÁS",
      "house": "28",
      "postcode": "8005-497",
      "city": "FARO",
      "lon": "-7.961535035806977",
      "lat": "37.10503397627525"
    },
    {
      "id": "pt.ine.add.PTCONT.1620642",
      "street": "ESTR RELVA",
      "house": "14",
      "postcode": "8005-491",
      "city": "FARO",
      "lon": "-7.9586556547314515",
      "lat": "37.1047684660864"
    },
    {
      "id": "pt.ine.add.PTCONT.1675407",
      "street": "R JUNTA DE FREGUESIA",
      "house": "",
      "postcode": "8005-497",
      "city": "FARO",
      "lon": "-7.9610314185928335",
      "lat": "37.103870872161785"
    },
    {
      "id": "pt.ine.add.PTCONT.1675408",
      "street": "R JUNTA DE FREGUESIA",
      "house": "",
      "postcode": "8005-497",
      "city": "FARO",
      "lon": "-7.9610314185928335",
      "lat": "37.103870872161785"
    },
    {
      "id": "pt.ine.add.PTCONT.1675409",
      "street": "R JUNTA DE FREGUESIA",
      "house": "",
      "postcode": "8005-497",
      "city": "FARO",
      "lon": "-7.9610314185928335",
      "lat": "37.103870872161785"
    },
    {
      "id": "pt.ine.add.PTCONT.1675410",
      "street": "R JUNTA DE FREGUESIA",
      "house": "",
      "postcode": "8005-497",
      "city": "FARO",
      "lon": "-7.9610314185928335",
      "lat": "37.103870872161785"
    },
    {
      "id": "pt.ine.add.PTCONT.1675411",
      "street": "R JUNTA DE FREGUESIA",
      "house": "",
      "postcode": "8005-497",
      "city": "FARO",
      "lon": "-7.9610314185928335",
      "lat": "37.103870872161785"
    },
    {
      "id": "pt.ine.add.PTCONT.1675412",
      "street": "R JUNTA DE FREGUESIA",
      "house": "",
      "postcode": "8005-497",
      "city": "FARO",
      "lon": "-7.9610314185928335",
      "lat": "37.103870872161785"
    },
    {
      "id": "pt.ine.add.PTCONT.1675413",
      "street": "R JUNTA DE FREGUESIA",
      "house": "",
      "postcode": "8005-497",
      "city": "FARO",
      "lon": "-7.9610314185928335",
      "lat": "37.103870872161785"
    },
    {
      "id": "pt.ine.add.PTCONT.1704015",
      "street": "R S BRÁS",
      "house": "",
      "postcode": "8005-497",
      "city": "FARO",
      "lon": "-7.961603063549812",
      "lat": "37.10479979770584"
    },
    {
      "id": "pt.ine.add.PTCONT.1718482",
      "street": "R S BRÁS",
      "house": "14",
      "postcode": "8005-497",
      "city": "FARO",
      "lon": "-7.961637605346471",
      "lat": "37.104448432170145"
    },
    {
      "id": "pt.ine.add.PTCONT.1738462",
      "street": "R LOULE",
      "house": "",
      "postcode": "8005-497",
      "city": "FARO",
      "lon": "-7.960187339016158",
      "lat": "37.10402282537785"
    },
    {
      "id": "pt.ine.add.PTCONT.1749017",
      "street": "R S BRÁS",
      "house": "26",
      "postcode": "8005-497",
      "city": "FARO",
      "lon": "-7.961557677900386",
      "lat": "37.104970934463736"
    },
    {
      "id": "pt.ine.add.PTCONT.1799495",
      "street": "ESTR RELVAS",
      "house": "",
      "postcode": "8005-497",
      "city": "FARO",
      "lon": "-7.959781608062797",
      "lat": "37.10434661655423"
    },
    {
      "id": "pt.ine.add.PTCONT.1841383",
      "street": "R JUNTA DE FREGUESIA",
      "house": "",
      "postcode": "8005-497",
      "city": "FARO",
      "lon": "-7.9610314185928335",
      "lat": "37.103870872161785"
    }
  ]
}