{
  "data": {
    "distrito": "Viseu",
    "concelho": "Moimenta da Beira",
    "freguesia": "Vila da Rua",
    "OBJECTID": 289,
    "BGRI2021": "18071600116",
    "DT21": "18",
    "DTMN21": "1807",
    "DTMNFR21": "180716",
    "DTMNFRSEC21": "180716001",
    "SECNUM21": "001",
    "SSNUM21": "16",
    "SECSSNUM21": "00116",
    "OBJECTID_1": 192538,
    "DT": "18",
    "CC": "07",
    "fr": "16",
    "SEC": "001",
    "SS": "16"
  },
  "addresses": [
    {
      "id": "pt.ine.add.PTCONT.5428785",
      "street": "R DIVINO ESPÍRITO SANTO",
      "house": "",
      "postcode": "3620-464",
      "city": "RUA",
      "lon": "-7.566466562537417",
      "lat": "40.94948700855341"
    },
    {
      "id": "pt.ine.add.PTCONT.5428793",
      "street": "TV ESPÍRITO SANTO",
      "house": "",
      "postcode": "3620-464",
      "city": "RUA",
      "lon": "-7.565678045049257",
      "lat": "40.95003241440727"
    },
    {
      "id": "pt.ine.add.PTCONT.5445660",
      "street": "R DIVINO ESPIRITO SANTO",
      "house": "",
      "postcode": "3620-464",
      "city": "RUA",
      "lon": "-7.565968849672073",
      "lat": "40.94935849633102"
    },
    {
      "id": "pt.ine.add.PTCONT.5450281",
      "street": "R OUTEIRINHO",
      "house": "",
      "postcode": "3620-464",
      "city": "RUA",
      "lon": "-7.567079807844193",
      "lat": "40.94999428122682"
    },
    {
      "id": "pt.ine.add.PTCONT.5456669",
      "street": "LG CARVALHO",
      "house": "",
      "postcode": "3620-464",
      "city": "RUA",
      "lon": "-7.5667037745414545",
      "lat": "40.94952419270078"
    },
    {
      "id": "pt.ine.add.PTCONT.5476097",
      "street": "R DIVINO ESPÍRITO SANTO",
      "house": "",
      "postcode": "3620-464",
      "city": "RUA",
      "lon": "-7.566264747732291",
      "lat": "40.94947701190178"
    },
    {
      "id": "pt.ine.add.PTCONT.5481925",
      "street": "R LAMEIRINHA",
      "house": "",
      "postcode": "3620-464",
      "city": "RUA",
      "lon": "-7.565532600298277",
      "lat": "40.94898715892356"
    },
    {
      "id": "pt.ine.add.PTCONT.5486822",
      "street": "R OUTEIRINHO",
      "house": "",
      "postcode": "3620-464",
      "city": "RUA",
      "lon": "-7.566459557307245",
      "lat": "40.950306397400055"
    },
    {
      "id": "pt.ine.add.PTCONT.5504335",
      "street": "R VOLTA ATRAS",
      "house": "",
      "postcode": "3620-464",
      "city": "RUA",
      "lon": "-7.566631518126227",
      "lat": "40.94964089819568"
    },
    {
      "id": "pt.ine.add.PTCONT.5504336",
      "street": "R OUTEIRINHO",
      "house": "",
      "postcode": "3620-464",
      "city": "RUA",
      "lon": "-7.566255275686965",
      "lat": "40.95058453742096"
    },
    {
      "id": "pt.ine.add.PTCONT.5523092",
      "street": "R LAMEIRINHA",
      "house": "",
      "postcode": "3620-464",
      "city": "RUA",
      "lon": "-7.565746828915124",
      "lat": "40.94893418537242"
    },
    {
      "id": "pt.ine.add.PTCONT.5530732",
      "street": "R OUTEIRINHO",
      "house": "",
      "postcode": "3620-464",
      "city": "RUA",
      "lon": "-7.567187999575495",
      "lat": "40.949841733237015"
    },
    {
      "id": "pt.ine.add.PTCONT.5536274",
      "street": "LG CARVALHO",
      "house": "",
      "postcode": "3620-462",
      "city": "RUA",
      "lon": "-7.567062361385586",
      "lat": "40.9492558141196"
    },
    {
      "id": "pt.ine.add.PTCONT.5538300",
      "street": "R DIVINO ESPÍRITO SANTO",
      "house": "",
      "postcode": "3620-464",
      "city": "RUA",
      "lon": "-7.566394844670306",
      "lat": "40.94954068398382"
    },
    {
      "id": "pt.ine.add.PTCONT.5569444",
      "street": "LG CARVALHO",
      "house": "",
      "postcode": "3620-462",
      "city": "RUA",
      "lon": "-7.566801321314361",
      "lat": "40.94922751833032"
    },
    {
      "id": "pt.ine.add.PTCONT.5576814",
      "street": "R SABUGUEIRO",
      "house": "",
      "postcode": "3620-464",
      "city": "RUA",
      "lon": "-7.566988567739535",
      "lat": "40.949552605341516"
    },
    {
      "id": "pt.ine.add.PTCONT.5585674",
      "street": "TV ESPÍRITO SANTO",
      "house": "",
      "postcode": "3620-464",
      "city": "RUA",
      "lon": "-7.565782694685507",
      "lat": "40.950294064252915"
    },
    {
      "id": "pt.ine.add.PTCONT.5588873",
      "street": "R CARVALHO",
      "house": "",
      "postcode": "3620-462",
      "city": "RUA",
      "lon": "-7.566908666315375",
      "lat": "40.949174017601976"
    },
    {
      "id": "pt.ine.add.PTCONT.5589775",
      "street": "R VOLTA ATRAS",
      "house": "",
      "postcode": "3620-464",
      "city": "RUA",
      "lon": "-7.566618641644553",
      "lat": "40.949757895403785"
    },
    {
      "id": "pt.ine.add.PTCONT.5600875",
      "street": "R VOLTA ATRAS",
      "house": "",
      "postcode": "3620-464",
      "city": "RUA",
      "lon": "-7.566560723823427",
      "lat": "40.94958652244396"
    },
    {
      "id": "pt.ine.add.PTCONT.5609871",
      "street": "R LAMEIRINHA",
      "house": "",
      "postcode": "3620-464",
      "city": "RUA",
      "lon": "-7.565878003094317",
      "lat": "40.94887179820373"
    },
    {
      "id": "pt.ine.add.PTCONT.5613357",
      "street": "R VOLTA ATRAS",
      "house": "",
      "postcode": "3620-464",
      "city": "RUA",
      "lon": "-7.566773876458868",
      "lat": "40.949659606831226"
    },
    {
      "id": "pt.ine.add.PTCONT.5616384",
      "street": "LG CARVALHO",
      "house": "",
      "postcode": "3620-462",
      "city": "RUA",
      "lon": "-7.566682100187944",
      "lat": "40.94928096061536"
    },
    {
      "id": "pt.ine.add.PTCONT.5622585",
      "street": "R VOLTA ATRAS",
      "house": "",
      "postcode": "3620-464",
      "city": "RUA",
      "lon": "-7.566904897288647",
      "lat": "40.94961522705335"
    },
    {
      "id": "pt.ine.add.PTCONT.5623128",
      "street": "R OUTEIRINHO",
      "house": "",
      "postcode": "3620-464",
      "city": "RUA",
      "lon": "-7.566923957341151",
      "lat": "40.95016460439058"
    },
    {
      "id": "pt.ine.add.PTCONT.5627708",
      "street": "R LAMEIRINHA",
      "house": "",
      "postcode": "3620-464",
      "city": "RUA",
      "lon": "-7.565950105882749",
      "lat": "40.94877310171674"
    },
    {
      "id": "pt.ine.add.PTCONT.5628901",
      "street": "R OUTEIRINHO",
      "house": "",
      "postcode": "3620-464",
      "city": "RUA",
      "lon": "-7.566067336696183",
      "lat": "40.950340487727566"
    },
    {
      "id": "pt.ine.add.PTCONT.5640011",
      "street": "R DIVINO ESPÍRITO SANTO",
      "house": "",
      "postcode": "3620-464",
      "city": "RUA",
      "lon": "-7.566109666656875",
      "lat": "40.949557291243785"
    },
    {
      "id": "pt.ine.add.PTCONT.5642213",
      "street": "LG CARVALHO",
      "house": "",
      "postcode": "3620-464",
      "city": "RUA",
      "lon": "-7.566918003987733",
      "lat": "40.9494712169837"
    },
    {
      "id": "pt.ine.add.PTCONT.5643699",
      "street": "TV ESPÍRITO SANTO",
      "house": "",
      "postcode": "3620-464",
      "city": "RUA",
      "lon": "-7.56532176250568",
      "lat": "40.95003066045747"
    },
    {
      "id": "pt.ine.add.PTCONT.5653000",
      "street": "R OUTEIRINHO",
      "house": "",
      "postcode": "3620-464",
      "city": "RUA",
      "lon": "-7.567092529773056",
      "lat": "40.94989529251504"
    },
    {
      "id": "pt.ine.add.PTCONT.5655188",
      "street": "LG CARVALHO",
      "house": "",
      "postcode": "3620-464",
      "city": "RUA",
      "lon": "-7.566573831263496",
      "lat": "40.94944251241757"
    },
    {
      "id": "pt.ine.add.PTCONT.5664624",
      "street": "R DIVINO ESPÍRITO SANTO",
      "house": "",
      "postcode": "3620-464",
      "city": "RUA",
      "lon": "-7.566075194137086",
      "lat": "40.949422051937276"
    }
  ]
}