{
  "data": {
    "distrito": "Coimbra",
    "concelho": "Montemor-O-Velho",
    "freguesia": "Seixo de Gatões",
    "OBJECTID": 219,
    "BGRI2021": "06101000113",
    "DT21": "06",
    "DTMN21": "0610",
    "DTMNFR21": "061010",
    "DTMNFRSEC21": "061010001",
    "SECNUM21": "001",
    "SSNUM21": "13",
    "SECSSNUM21": "00113",
    "OBJECTID_1": 54029,
    "DT": "06",
    "CC": "10",
    "fr": "10",
    "SEC": "001",
    "SS": "13"
  },
  "addresses": [
    {
      "id": "pt.ine.add.PTCONT.1105242",
      "street": "R LEIRAS",
      "house": "S M",
      "postcode": "3140-449",
      "city": "SEIXO DE GATÕES",
      "lon": "-8.689734887161931",
      "lat": "40.2353868035399"
    },
    {
      "id": "pt.ine.add.PTCONT.1105245",
      "street": "R 5 OUTUBRO",
      "house": "",
      "postcode": "3140-449",
      "city": "SEIXO DE GATÕES",
      "lon": "-8.69002156315378",
      "lat": "40.2345208713688"
    },
    {
      "id": "pt.ine.add.PTCONT.1119601",
      "street": "R ESCOLA",
      "house": "",
      "postcode": "3140-449",
      "city": "SEIXO DE GATÕES",
      "lon": "-8.691178847594742",
      "lat": "40.23521774622915"
    },
    {
      "id": "pt.ine.add.PTCONT.1140496",
      "street": "R LOUREIROS",
      "house": "",
      "postcode": "3140-449",
      "city": "SEIXO DE GATÕES",
      "lon": "-8.689734249751064",
      "lat": "40.233873838637074"
    },
    {
      "id": "pt.ine.add.PTCONT.1140497",
      "street": "R 5 OUTUBRO",
      "house": "",
      "postcode": "3140-449",
      "city": "SEIXO DE GATÕES",
      "lon": "-8.690043219120433",
      "lat": "40.23429562311142"
    },
    {
      "id": "pt.ine.add.PTCONT.1192559",
      "street": "R LOUREIROS",
      "house": "",
      "postcode": "3140-449",
      "city": "SEIXO DE GATÕES",
      "lon": "-8.689353236894592",
      "lat": "40.23326327852909"
    },
    {
      "id": "pt.ine.add.PTCONT.1232271",
      "street": "R VERGIEIRA",
      "house": "",
      "postcode": "3140-449",
      "city": "SEIXO DE GATÕES",
      "lon": "-8.690887899671628",
      "lat": "40.23412945166027"
    },
    {
      "id": "pt.ine.add.PTCONT.1241086",
      "street": "R 5 OUTUBRO",
      "house": "",
      "postcode": "3140-449",
      "city": "SEIXO DE GATÕES",
      "lon": "-8.690051998679259",
      "lat": "40.23536726646093"
    },
    {
      "id": "pt.ine.add.PTCONT.1255589",
      "street": "R ESCOLA",
      "house": "",
      "postcode": "3140-449",
      "city": "SEIXO DE GATÕES",
      "lon": "-8.691365299445305",
      "lat": "40.235027726056266"
    },
    {
      "id": "pt.ine.add.PTCONT.1263909",
      "street": "R VERGIEIRA",
      "house": "",
      "postcode": "3140-449",
      "city": "SEIXO DE GATÕES",
      "lon": "-8.690277336381046",
      "lat": "40.23418642714273"
    },
    {
      "id": "pt.ine.add.PTCONT.1265943",
      "street": "TV RUA PRINCIPAL",
      "house": "",
      "postcode": "3140-449",
      "city": "SEIXO DE GATÕES",
      "lon": "-8.690689477177969",
      "lat": "40.2342925114761"
    },
    {
      "id": "pt.ine.add.PTCONT.1269780",
      "street": "R LEIRAS",
      "house": "",
      "postcode": "3140-449",
      "city": "SEIXO DE GATÕES",
      "lon": "-8.688640020845353",
      "lat": "40.23369898075656"
    },
    {
      "id": "pt.ine.add.PTCONT.1296479",
      "street": "R 5 OUTUBRO",
      "house": "",
      "postcode": "3140-449",
      "city": "SEIXO DE GATÕES",
      "lon": "-8.690570711801335",
      "lat": "40.23557190165115"
    },
    {
      "id": "pt.ine.add.PTCONT.1318203",
      "street": "R 5 OUTUBRO",
      "house": "",
      "postcode": "3140-449",
      "city": "SEIXO DE GATÕES",
      "lon": "-8.690357728777093",
      "lat": "40.23539281211524"
    },
    {
      "id": "pt.ine.add.PTCONT.1322633",
      "street": "R LOUREIROS",
      "house": "",
      "postcode": "3140-449",
      "city": "SEIXO DE GATÕES",
      "lon": "-8.689876946966011",
      "lat": "40.2340802848064"
    },
    {
      "id": "pt.ine.add.PTCONT.1322946",
      "street": "R ESCOLA",
      "house": "",
      "postcode": "3140-449",
      "city": "SEIXO DE GATÕES",
      "lon": "-8.690877403567157",
      "lat": "40.23571451617538"
    },
    {
      "id": "pt.ine.add.PTCONT.1328477",
      "street": "R 5 OUTUBRO",
      "house": "",
      "postcode": "3140-449",
      "city": "SEIXO DE GATÕES",
      "lon": "-8.690589707616343",
      "lat": "40.23502245876493"
    },
    {
      "id": "pt.ine.add.PTCONT.1350250",
      "street": "R 5 OUTUBRO",
      "house": "",
      "postcode": "3140-449",
      "city": "SEIXO DE GATÕES",
      "lon": "-8.691667032871408",
      "lat": "40.234566976442125"
    },
    {
      "id": "pt.ine.add.PTCONT.1357491",
      "street": "R 5 OUTUBRO",
      "house": "",
      "postcode": "3140-449",
      "city": "SEIXO DE GATÕES",
      "lon": "-8.690375176037792",
      "lat": "40.23465425571131"
    },
    {
      "id": "pt.ine.add.PTCONT.1362386",
      "street": "R VERGIEIRA",
      "house": "",
      "postcode": "3140-449",
      "city": "SEIXO DE GATÕES",
      "lon": "-8.69128851273728",
      "lat": "40.23426260670156"
    },
    {
      "id": "pt.ine.add.PTCONT.1363596",
      "street": "R VERGIEIRA",
      "house": "",
      "postcode": "3140-449",
      "city": "SEIXO DE GATÕES",
      "lon": "-8.691888954119397",
      "lat": "40.2344038015111"
    }
  ]
}