{
  "data": {
    "distrito": "Santarém",
    "concelho": "Santarém",
    "freguesia": "União das freguesias da cidade de Santarém",
    "OBJECTID": 591,
    "BGRI2021": "14163302209",
    "DT21": "14",
    "DTMN21": "1416",
    "DTMNFR21": "141633",
    "DTMNFRSEC21": "141633022",
    "SECNUM21": "022",
    "SSNUM21": "09",
    "SECSSNUM21": "02209",
    "OBJECTID_1": 154555,
    "DT": "14",
    "CC": "16",
    "fr": "33",
    "SEC": "022",
    "SS": "09"
  },
  "addresses": [
    {
      "id": "pt.ine.add.PTCONT.4392611",
      "street": "BR SUICO RUA 2",
      "house": "11",
      "postcode": "2005-519",
      "city": "SANTARÉM",
      "lon": "-8.70925084400885",
      "lat": "39.248888643394885"
    },
    {
      "id": "pt.ine.add.PTCONT.4394268",
      "street": "R GERMANOS",
      "house": "",
      "postcode": "2005-320",
      "city": "SANTARÉM",
      "lon": "-8.707367128873514",
      "lat": "39.24376379731594"
    },
    {
      "id": "pt.ine.add.PTCONT.4395028",
      "street": "R GERMANOS",
      "house": "",
      "postcode": "2005-320",
      "city": "SANTARÉM",
      "lon": "-8.707367128873514",
      "lat": "39.24376379731594"
    },
    {
      "id": "pt.ine.add.PTCONT.4396387",
      "street": "R ESPERANÇA",
      "house": "35",
      "postcode": "2005-318",
      "city": "SANTARÉM",
      "lon": "-8.70543555124868",
      "lat": "39.24269243083227"
    },
    {
      "id": "pt.ine.add.PTCONT.4405407",
      "street": "R S PEDRO",
      "house": "",
      "postcode": "2005-332",
      "city": "SANTARÉM",
      "lon": "-8.710486938978757",
      "lat": "39.249882329406994"
    },
    {
      "id": "pt.ine.add.PTCONT.4405489",
      "street": "R GERMANOS",
      "house": "",
      "postcode": "2005-320",
      "city": "SANTARÉM",
      "lon": "-8.707403126813096",
      "lat": "39.2439167436395"
    },
    {
      "id": "pt.ine.add.PTCONT.4410951",
      "street": "R GERMANOS QTA SANTO PADRE PIO",
      "house": "",
      "postcode": "2005-320",
      "city": "SANTARÉM",
      "lon": "-8.708237366621239",
      "lat": "39.24252550537304"
    },
    {
      "id": "pt.ine.add.PTCONT.4410952",
      "street": "BR SUICO RUA 2",
      "house": "5",
      "postcode": "2005-519",
      "city": "SANTARÉM",
      "lon": "-8.709207013908333",
      "lat": "39.249195107555956"
    },
    {
      "id": "pt.ine.add.PTCONT.4411777",
      "street": "R GERMANOS",
      "house": "",
      "postcode": "2005-320",
      "city": "SANTARÉM",
      "lon": "-8.70727527190732",
      "lat": "39.24386333030369"
    },
    {
      "id": "pt.ine.add.PTCONT.4412934",
      "street": "R ESPERANÇA",
      "house": "43",
      "postcode": "2005-318",
      "city": "SANTARÉM",
      "lon": "-8.705136809524038",
      "lat": "39.24299113887178"
    },
    {
      "id": "pt.ine.add.PTCONT.4416045",
      "street": "R GERMANOS",
      "house": "",
      "postcode": "2005-320",
      "city": "SANTARÉM",
      "lon": "-8.706913614950953",
      "lat": "39.24212670663868"
    },
    {
      "id": "pt.ine.add.PTCONT.4421005",
      "street": "R AMOREIRA",
      "house": "2",
      "postcode": "2005-315",
      "city": "SANTARÉM",
      "lon": "-8.705620531091633",
      "lat": "39.24834809445132"
    },
    {
      "id": "pt.ine.add.PTCONT.4421018",
      "street": "CASAIS ALAGOA",
      "house": "",
      "postcode": "2005-326",
      "city": "SANTARÉM",
      "lon": "-8.71229124159062",
      "lat": "39.2495310941437"
    },
    {
      "id": "pt.ine.add.PTCONT.4423084",
      "street": "BR SUICO RUA 1",
      "house": "10",
      "postcode": "2005-519",
      "city": "SANTARÉM",
      "lon": "-8.708625679737356",
      "lat": "39.24893677071793"
    },
    {
      "id": "pt.ine.add.PTCONT.4425155",
      "street": "R AMOREIRA",
      "house": "3",
      "postcode": "2005-315",
      "city": "SANTARÉM",
      "lon": "-8.705759390789511",
      "lat": "39.24832939722073"
    },
    {
      "id": "pt.ine.add.PTCONT.4425200",
      "street": "BR SUICO RUA 2",
      "house": "19",
      "postcode": "2005-519",
      "city": "SANTARÉM",
      "lon": "-8.709316735889676",
      "lat": "39.24844696091973"
    },
    {
      "id": "pt.ine.add.PTCONT.4430178",
      "street": "R AMOREIRA",
      "house": "",
      "postcode": "2005-315",
      "city": "SANTARÉM",
      "lon": "-8.704684798129538",
      "lat": "39.24866794518195"
    },
    {
      "id": "pt.ine.add.PTCONT.4434553",
      "street": "BR SUICO RUA 1",
      "house": "4",
      "postcode": "2005-519",
      "city": "SANTARÉM",
      "lon": "-8.708569968437354",
      "lat": "39.2492072642552"
    },
    {
      "id": "pt.ine.add.PTCONT.4441735",
      "street": "BR SUICO RUA 1",
      "house": "20",
      "postcode": "2005-519",
      "city": "SANTARÉM",
      "lon": "-8.708748537672951",
      "lat": "39.24837771245777"
    },
    {
      "id": "pt.ine.add.PTCONT.4441736",
      "street": "BR SUICO RUA 1",
      "house": "18",
      "postcode": "2005-519",
      "city": "SANTARÉM",
      "lon": "-8.708715111476023",
      "lat": "39.248540008631196"
    },
    {
      "id": "pt.ine.add.PTCONT.4447833",
      "street": "R ESPERANÇA",
      "house": "85",
      "postcode": "2005-318",
      "city": "SANTARÉM",
      "lon": "-8.70434762724662",
      "lat": "39.24566116813103"
    },
    {
      "id": "pt.ine.add.PTCONT.4449874",
      "street": "R REGENTES AGRICOLAS",
      "house": "",
      "postcode": "2005-328",
      "city": "SANTARÉM",
      "lon": "-8.705675289360169",
      "lat": "39.24938366203533"
    },
    {
      "id": "pt.ine.add.PTCONT.4462326",
      "street": "BR SUICO RUA 2",
      "house": "7",
      "postcode": "2005-519",
      "city": "SANTARÉM",
      "lon": "-8.709217713529505",
      "lat": "39.249086967332616"
    },
    {
      "id": "pt.ine.add.PTCONT.4462337",
      "street": "BR SUICO RUA 1",
      "house": "12",
      "postcode": "2005-519",
      "city": "SANTARÉM",
      "lon": "-8.708624722674292",
      "lat": "39.24881968086806"
    },
    {
      "id": "pt.ine.add.PTCONT.4471395",
      "street": "R AMOREIRA",
      "house": "",
      "postcode": "2005-315",
      "city": "SANTARÉM",
      "lon": "-8.705432605524388",
      "lat": "39.24375530494004"
    },
    {
      "id": "pt.ine.add.PTCONT.4466014",
      "street": "R CASAIS ALAGOA",
      "house": "",
      "postcode": "2005-328",
      "city": "SANTARÉM",
      "lon": "-8.706289095763147",
      "lat": "39.249362628263775"
    },
    {
      "id": "pt.ine.add.PTCONT.4468857",
      "street": "R ESPERANÇA",
      "house": "5",
      "postcode": "2005-318",
      "city": "SANTARÉM",
      "lon": "-8.705024417618949",
      "lat": "39.243415033219456"
    },
    {
      "id": "pt.ine.add.PTCONT.4468858",
      "street": "BR SUICO RUA 2",
      "house": "17",
      "postcode": "2005-519",
      "city": "SANTARÉM",
      "lon": "-8.709294821154282",
      "lat": "39.24860019302589"
    },
    {
      "id": "pt.ine.add.PTCONT.4479172",
      "street": "R CASAIS DA ALAGOA",
      "house": "4",
      "postcode": "2005-328",
      "city": "SANTARÉM",
      "lon": "-8.70592127155324",
      "lat": "39.24829257204854"
    },
    {
      "id": "pt.ine.add.PTCONT.4479173",
      "street": "R GERMANOS",
      "house": "",
      "postcode": "2005-320",
      "city": "SANTARÉM",
      "lon": "-8.707921279372915",
      "lat": "39.24353588164275"
    },
    {
      "id": "pt.ine.add.PTCONT.4480960",
      "street": "BR SUICO RUA 1",
      "house": "14",
      "postcode": "2005-519",
      "city": "SANTARÉM",
      "lon": "-8.708647227912456",
      "lat": "39.248738504176536"
    },
    {
      "id": "pt.ine.add.PTCONT.4485448",
      "street": "R ESPERANÇA",
      "house": "39",
      "postcode": "2005-318",
      "city": "SANTARÉM",
      "lon": "-8.705228595240555",
      "lat": "39.24288260061563"
    },
    {
      "id": "pt.ine.add.PTCONT.4493943",
      "street": "R ESPERANÇA",
      "house": "10",
      "postcode": "2005-318",
      "city": "SANTARÉM",
      "lon": "-8.705096476280328",
      "lat": "39.24372993431971"
    },
    {
      "id": "pt.ine.add.PTCONT.4506653",
      "street": "R ESPERANÇA",
      "house": "",
      "postcode": "2005-318",
      "city": "SANTARÉM",
      "lon": "-8.705665379018429",
      "lat": "39.24246611910058"
    },
    {
      "id": "pt.ine.add.PTCONT.4512391",
      "street": "R GERMANOS",
      "house": "1",
      "postcode": "2005-320",
      "city": "SANTARÉM",
      "lon": "-8.705404169339062",
      "lat": "39.24310692017079"
    },
    {
      "id": "pt.ine.add.PTCONT.4512392",
      "street": "R GERMANOS",
      "house": "1",
      "postcode": "2005-320",
      "city": "SANTARÉM",
      "lon": "-8.705404169339062",
      "lat": "39.24310692017079"
    },
    {
      "id": "pt.ine.add.PTCONT.4513701",
      "street": "R GERMANOS",
      "house": "",
      "postcode": "2005-320",
      "city": "SANTARÉM",
      "lon": "-8.707588530169275",
      "lat": "39.24392483657685"
    },
    {
      "id": "pt.ine.add.PTCONT.4527109",
      "street": "R ESPERANÇA",
      "house": "7",
      "postcode": "2005-318",
      "city": "SANTARÉM",
      "lon": "-8.705036805277043",
      "lat": "39.24351405252276"
    },
    {
      "id": "pt.ine.add.PTCONT.4539717",
      "street": "BR SUICO BARRACA CASA RUDIMENTAR",
      "house": "21",
      "postcode": "2005-519",
      "city": "SANTARÉM",
      "lon": "-8.709071485588101",
      "lat": "39.24820497757222"
    },
    {
      "id": "pt.ine.add.PTCONT.4542951",
      "street": "R ESPERANÇA",
      "house": "47-49",
      "postcode": "2005-318",
      "city": "SANTARÉM",
      "lon": "-8.70502310100663",
      "lat": "39.243252908554844"
    },
    {
      "id": "pt.ine.add.PTCONT.4545410",
      "street": "R GERMANOS",
      "house": "",
      "postcode": "2005-320",
      "city": "SANTARÉM",
      "lon": "-8.706169012978187",
      "lat": "39.243148195894875"
    },
    {
      "id": "pt.ine.add.PTCONT.4545411",
      "street": "R ESPERANÇA",
      "house": "45",
      "postcode": "2005-318",
      "city": "SANTARÉM",
      "lon": "-8.70505667966273",
      "lat": "39.24310862710196"
    },
    {
      "id": "pt.ine.add.PTCONT.4545412",
      "street": "R S PEDRO",
      "house": "",
      "postcode": "2005-332",
      "city": "SANTARÉM",
      "lon": "-8.710450561863274",
      "lat": "39.249684349728824"
    },
    {
      "id": "pt.ine.add.PTCONT.4549043",
      "street": "R ESPERANÇA",
      "house": "51",
      "postcode": "2005-318",
      "city": "SANTARÉM",
      "lon": "-8.705011883710283",
      "lat": "39.24329800006114"
    },
    {
      "id": "pt.ine.add.PTCONT.4549052",
      "street": "R ESPERANÇA",
      "house": "41",
      "postcode": "2005-318",
      "city": "SANTARÉM",
      "lon": "-8.705182629253112",
      "lat": "39.242927862826555"
    },
    {
      "id": "pt.ine.add.PTCONT.4551252",
      "street": "R GERMANOS",
      "house": "",
      "postcode": "2005-320",
      "city": "SANTARÉM",
      "lon": "-8.707666378689723",
      "lat": "39.243528132090745"
    },
    {
      "id": "pt.ine.add.PTCONT.4557569",
      "street": "R GERMANOS",
      "house": "",
      "postcode": "2005-320",
      "city": "SANTARÉM",
      "lon": "-8.705758250505074",
      "lat": "39.24391583539773"
    },
    {
      "id": "pt.ine.add.PTCONT.4559549",
      "street": "R ESPERANÇA",
      "house": "8",
      "postcode": "2005-318",
      "city": "SANTARÉM",
      "lon": "-8.705037244161227",
      "lat": "39.243568094075584"
    },
    {
      "id": "pt.ine.add.PTCONT.4561729",
      "street": "R CASAIS ALAGOA",
      "house": "",
      "postcode": "2005-328",
      "city": "SANTARÉM",
      "lon": "-8.704534865231771",
      "lat": "39.248749746400655"
    },
    {
      "id": "pt.ine.add.PTCONT.4561762",
      "street": "BR SUICO RUA 2",
      "house": "15",
      "postcode": "2005-519",
      "city": "SANTARÉM",
      "lon": "-8.709272464111594",
      "lat": "39.24869938366018"
    },
    {
      "id": "pt.ine.add.PTCONT.4563891",
      "street": "BR SUICO RUA 1",
      "house": "6",
      "postcode": "2005-519",
      "city": "SANTARÉM",
      "lon": "-8.708580889884804",
      "lat": "39.24912614481704"
    },
    {
      "id": "pt.ine.add.PTCONT.4565949",
      "street": "R GERMANOS",
      "house": "",
      "postcode": "2005-320",
      "city": "SANTARÉM",
      "lon": "-8.705705473498135",
      "lat": "39.24312345384207"
    },
    {
      "id": "pt.ine.add.PTCONT.4568038",
      "street": "R GERMANOS",
      "house": "",
      "postcode": "2005-320",
      "city": "SANTARÉM",
      "lon": "-8.705419338906",
      "lat": "39.2435482025901"
    },
    {
      "id": "pt.ine.add.PTCONT.4580456",
      "street": "BR SUICO RUA 2",
      "house": "1",
      "postcode": "2005-519",
      "city": "SANTARÉM",
      "lon": "-8.709162225466347",
      "lat": "39.24938448185985"
    },
    {
      "id": "pt.ine.add.PTCONT.4584586",
      "street": "R ESCOLA REGENTES AGRICOLAS CASAL VERDE PINHO",
      "house": "",
      "postcode": "2005-474",
      "city": "SANTARÉM",
      "lon": "-8.706427883930926",
      "lat": "39.249334923311466"
    },
    {
      "id": "pt.ine.add.PTCONT.4584611",
      "street": "R ESPERANÇA",
      "house": "",
      "postcode": "2005-318",
      "city": "SANTARÉM",
      "lon": "-8.705596613883067",
      "lat": "39.24255652998282"
    },
    {
      "id": "pt.ine.add.PTCONT.4588838",
      "street": "R PINHEIROS",
      "house": "6",
      "postcode": "2005-322",
      "city": "SANTARÉM",
      "lon": "-8.705923271412832",
      "lat": "39.24426630797419"
    },
    {
      "id": "pt.ine.add.PTCONT.4595077",
      "street": "R AMOREIRA",
      "house": "",
      "postcode": "2005-315",
      "city": "SANTARÉM",
      "lon": "-8.70480041778574",
      "lat": "39.248640355869206"
    },
    {
      "id": "pt.ine.add.PTCONT.4595101",
      "street": "BR SUICO RUA 2",
      "house": "13",
      "postcode": "2005-519",
      "city": "SANTARÉM",
      "lon": "-8.709261617223262",
      "lat": "39.24878951007336"
    },
    {
      "id": "pt.ine.add.PTCONT.4599219",
      "street": "BR SUICO RUA 2",
      "house": "4",
      "postcode": "2005-519",
      "city": "SANTARÉM",
      "lon": "-8.709251728414738",
      "lat": "39.24899672632013"
    },
    {
      "id": "pt.ine.add.PTCONT.4601290",
      "street": "R AMOREIRA",
      "house": "",
      "postcode": "2005-315",
      "city": "SANTARÉM",
      "lon": "-8.705077919218898",
      "lat": "39.24857594243595"
    },
    {
      "id": "pt.ine.add.PTCONT.4601334",
      "street": "BR SUICO RUA 1",
      "house": "16",
      "postcode": "2005-519",
      "city": "SANTARÉM",
      "lon": "-8.708669438598676",
      "lat": "39.248621299832635"
    },
    {
      "id": "pt.ine.add.PTCONT.4614567",
      "street": "R ESPERANÇA",
      "house": "53",
      "postcode": "2005-318",
      "city": "SANTARÉM",
      "lon": "-8.705035488631564",
      "lat": "39.24335192786128"
    },
    {
      "id": "pt.ine.add.PTCONT.4615814",
      "street": "R ESPERANÇA",
      "house": "57",
      "postcode": "2005-318",
      "city": "SANTARÉM",
      "lon": "-8.705024856492088",
      "lat": "39.24346907477331"
    },
    {
      "id": "pt.ine.add.PTCONT.4622183",
      "street": "R AMOREIRA",
      "house": "",
      "postcode": "2005-315",
      "city": "SANTARÉM",
      "lon": "-8.704593515867248",
      "lat": "39.24883953138982"
    },
    {
      "id": "pt.ine.add.PTCONT.4622202",
      "street": "BR SUICO RUA 2",
      "house": "3",
      "postcode": "2005-519",
      "city": "SANTARÉM",
      "lon": "-8.709184435484621",
      "lat": "39.249267277435536"
    },
    {
      "id": "pt.ine.add.PTCONT.4627023",
      "street": "R 1 DE MAIO",
      "house": "",
      "postcode": "2005-069",
      "city": "",
      "lon": "-8.708286895270993",
      "lat": "39.24149843018984"
    },
    {
      "id": "pt.ine.add.PTCONT.4629073",
      "street": "R ESPERANÇA",
      "house": "",
      "postcode": "2005-318",
      "city": "SANTARÉM",
      "lon": "-8.705274341641461",
      "lat": "39.242810317608026"
    },
    {
      "id": "pt.ine.add.PTCONT.4638561",
      "street": "R ESPERANÇA",
      "house": "67",
      "postcode": "2005-318",
      "city": "SANTARÉM",
      "lon": "-8.705108644628694",
      "lat": "39.243801932834074"
    },
    {
      "id": "pt.ine.add.PTCONT.4638584",
      "street": "BR SUICO RUA 1",
      "house": "2",
      "postcode": "2005-519",
      "city": "SANTARÉM",
      "lon": "-8.708536247017394",
      "lat": "39.24933353271651"
    },
    {
      "id": "pt.ine.add.PTCONT.4641356",
      "street": "BR SUICO RUA 1",
      "house": "8",
      "postcode": "2005-519",
      "city": "SANTARÉM",
      "lon": "-8.708603100795962",
      "lat": "39.24900894049183"
    },
    {
      "id": "pt.ine.add.PTCONT.4641521",
      "street": "S DOMINGOS",
      "house": "",
      "postcode": "2000-999",
      "city": "SANTARÉM",
      "lon": "-8.705723501141794",
      "lat": "39.24391600624605"
    },
    {
      "id": "pt.ine.add.PTCONT.4644765",
      "street": "R AMOREIRA",
      "house": "",
      "postcode": "2005-315",
      "city": "SANTARÉM",
      "lon": "-8.704939058844696",
      "lat": "39.24859463885816"
    },
    {
      "id": "pt.ine.add.PTCONT.4653022",
      "street": "R ESPERANÇA QTA DO VALBOM",
      "house": "",
      "postcode": "2005-318",
      "city": "SANTARÉM",
      "lon": "-8.705554571608214",
      "lat": "39.24593446790659"
    },
    {
      "id": "pt.ine.add.PTCONT.4653023",
      "street": "R ESPERANCA",
      "house": "11",
      "postcode": "2005-318",
      "city": "SANTARÉM",
      "lon": "-8.705095744727375",
      "lat": "39.24363986506817"
    },
    {
      "id": "pt.ine.add.PTCONT.4653024",
      "street": "R GERMANOS",
      "house": "",
      "postcode": "2005-320",
      "city": "SANTARÉM",
      "lon": "-8.705429750807301",
      "lat": "39.24340403487327"
    },
    {
      "id": "pt.ine.add.PTCONT.4655078",
      "street": "R PINHEIROS",
      "house": "6 A",
      "postcode": "2005-322",
      "city": "SANTARÉM",
      "lon": "-8.706293273314708",
      "lat": "39.24418342210634"
    },
    {
      "id": "pt.ine.add.PTCONT.4660997",
      "street": "R AMOREIRA",
      "house": "1",
      "postcode": "2005-315",
      "city": "SANTARÉM",
      "lon": "-8.705458723252118",
      "lat": "39.24839392612454"
    }
  ]
}