{
  "data": {
    "ilha": "Ilha das Flores (AÃ§ores)",
    "concelho": "Santa Cruz das Flores",
    "freguesia": "Santa Cruz das Flores",
    "OBJECTID": 53,
    "BGRI2021": "48020400111",
    "DT21": "48",
    "DTMN21": "4802",
    "DTMNFR21": "480204",
    "DTMNFRSEC21": "480204001",
    "SECNUM21": "001",
    "SSNUM21": "11",
    "SECSSNUM21": "00111",
    "OBJECTID_1": 210154,
    "DT": "48",
    "CC": "02",
    "fr": "04",
    "SEC": "001",
    "SS": "11",
    "BGRI2021_1": "48020400111"
  },
  "addresses": [
    {
      "id": "pt.ine.add.AC25.169",
      "street": "MTE CRUZES SN",
      "house": "SN",
      "postcode": "9970-380",
      "city": "SANTA CRUZ DAS FLORES",
      "lon": "-31.138382560441176",
      "lat": "39.45093440463704"
    },
    {
      "id": "pt.ine.add.AC25.170",
      "street": "VALES",
      "house": "",
      "postcode": "9970-380",
      "city": "SANTA CRUZ DAS FLORES",
      "lon": "-31.140541905815855",
      "lat": "39.45058154058112"
    },
    {
      "id": "pt.ine.add.AC25.171",
      "street": "VALES",
      "house": "S N",
      "postcode": "9970-380",
      "city": "SANTA CRUZ DAS FLORES",
      "lon": "-31.140541905815855",
      "lat": "39.45058154058112"
    },
    {
      "id": "pt.ine.add.AC25.803",
      "street": "R FLORES",
      "house": "",
      "postcode": "9970-323",
      "city": "SANTA CRUZ DAS FLORES",
      "lon": "-31.131091262599703",
      "lat": "39.45024080812835"
    },
    {
      "id": "pt.ine.add.AC25.804",
      "street": "R FLORES",
      "house": "",
      "postcode": "9970-323",
      "city": "SANTA CRUZ DAS FLORES",
      "lon": "-31.131132132403327",
      "lat": "39.450016221929936"
    },
    {
      "id": "pt.ine.add.AC25.805",
      "street": "R FLORES",
      "house": "",
      "postcode": "9970-323",
      "city": "SANTA CRUZ DAS FLORES",
      "lon": "-31.131132132403327",
      "lat": "39.450016221929936"
    },
    {
      "id": "pt.ine.add.AC25.806",
      "street": "R FLORES",
      "house": "16",
      "postcode": "9970-323",
      "city": "SANTA CRUZ DAS FLORES",
      "lon": "-31.13138931746793",
      "lat": "39.44952482065604"
    },
    {
      "id": "pt.ine.add.AC25.807",
      "street": "R FLORES",
      "house": "20",
      "postcode": "9970-323",
      "city": "SANTA CRUZ DAS FLORES",
      "lon": "-31.131663711869994",
      "lat": "39.449258938480874"
    },
    {
      "id": "pt.ine.add.AC25.808",
      "street": "R CRUZ",
      "house": "",
      "postcode": "9970-319",
      "city": "SANTA CRUZ DAS FLORES",
      "lon": "-31.13208688448434",
      "lat": "39.44864406652116"
    },
    {
      "id": "pt.ine.add.AC25.809",
      "street": "R CRUZ",
      "house": "",
      "postcode": "9970-319",
      "city": "SANTA CRUZ DAS FLORES",
      "lon": "-31.132146408695874",
      "lat": "39.448590964421385"
    },
    {
      "id": "pt.ine.add.AC25.810",
      "street": "R CRUZ",
      "house": "",
      "postcode": "9970-319",
      "city": "SANTA CRUZ DAS FLORES",
      "lon": "-31.132884231791017",
      "lat": "39.448377571979464"
    },
    {
      "id": "pt.ine.add.AC25.811",
      "street": "R TERCA",
      "house": "",
      "postcode": "9970-322",
      "city": "SANTA CRUZ DAS FLORES",
      "lon": "-31.134508150087754",
      "lat": "39.447619791878004"
    },
    {
      "id": "pt.ine.add.AC25.812",
      "street": "R BOAVISTA",
      "house": "",
      "postcode": "9970-210",
      "city": "SANTA CRUZ DAS FLORES",
      "lon": "-31.136183235593716",
      "lat": "39.44755655852361"
    },
    {
      "id": "pt.ine.add.AC25.813",
      "street": "R BOAVISTA",
      "house": "",
      "postcode": "9970-210",
      "city": "SANTA CRUZ DAS FLORES",
      "lon": "-31.1376906576493",
      "lat": "39.44767982006694"
    },
    {
      "id": "pt.ine.add.AC25.814",
      "street": "R BOAVISTA",
      "house": "",
      "postcode": "9970-210",
      "city": "SANTA CRUZ DAS FLORES",
      "lon": "-31.1379454872808",
      "lat": "39.447710930653955"
    },
    {
      "id": "pt.ine.add.AC25.815",
      "street": "R VALES",
      "house": "",
      "postcode": "9970-380",
      "city": "SANTA CRUZ DAS FLORES",
      "lon": "-31.13931515222399",
      "lat": "39.449516785515286"
    },
    {
      "id": "pt.ine.add.AC25.816",
      "street": "R CRUZ",
      "house": "",
      "postcode": "9970-319",
      "city": "SANTA CRUZ DAS FLORES",
      "lon": "-31.13277006349482",
      "lat": "39.44873612771785"
    },
    {
      "id": "pt.ine.add.AC25.877",
      "street": "R FLORES",
      "house": "",
      "postcode": "9970-323",
      "city": "SANTA CRUZ DAS FLORES",
      "lon": "-31.131915173775667",
      "lat": "39.4494161443828"
    },
    {
      "id": "pt.ine.add.AC25.878",
      "street": "R FLORES",
      "house": "18",
      "postcode": "9970-323",
      "city": "SANTA CRUZ DAS FLORES",
      "lon": "-31.131538160357",
      "lat": "39.44960830025257"
    },
    {
      "id": "pt.ine.add.AC25.943",
      "street": "R BOAVISTA",
      "house": "",
      "postcode": "9970-215",
      "city": "SANTA CRUZ DAS FLORES",
      "lon": "-31.13799459012715",
      "lat": "39.447612609930204"
    },
    {
      "id": "pt.ine.add.AC25.947",
      "street": "R BOAVISTA",
      "house": "",
      "postcode": "9970-215",
      "city": "SANTA CRUZ DAS FLORES",
      "lon": "-31.13842389778083",
      "lat": "39.447637503793125"
    },
    {
      "id": "pt.ine.add.AC25.948",
      "street": "R BOAVISTA",
      "house": "",
      "postcode": "9970-215",
      "city": "SANTA CRUZ DAS FLORES",
      "lon": "-31.138193019636212",
      "lat": "39.44757974858133"
    },
    {
      "id": "pt.ine.add.AC25.1065",
      "street": "R BOAVISTA",
      "house": "",
      "postcode": "9970-210",
      "city": "SANTA CRUZ DAS FLORES",
      "lon": "-31.13803001680079",
      "lat": "39.44802762511666"
    },
    {
      "id": "pt.ine.add.AC25.1066",
      "street": "R TERCA",
      "house": "102",
      "postcode": "9970-322",
      "city": "SANTA CRUZ DAS FLORES",
      "lon": "-31.13543581986333",
      "lat": "39.44813020758146"
    },
    {
      "id": "pt.ine.add.AC25.1068",
      "street": "MTE CRUZES",
      "house": "",
      "postcode": "9970-380",
      "city": "SANTA CRUZ DAS FLORES",
      "lon": "-31.136188345348845",
      "lat": "39.451286669390306"
    },
    {
      "id": "pt.ine.add.AC25.1111",
      "street": "R BOAVISTA",
      "house": "9970",
      "postcode": "9970-210",
      "city": "SANTA CRUZ DAS FLORES",
      "lon": "-31.136649070325202",
      "lat": "39.44751897632406"
    },
    {
      "id": "pt.ine.add.AC25.1407",
      "street": "R TERCA",
      "house": "",
      "postcode": "9970-322",
      "city": "SANTA CRUZ DAS FLORES",
      "lon": "-31.13434432614421",
      "lat": "39.44766221193652"
    },
    {
      "id": "pt.ine.add.AC25.1408",
      "street": "R TERCA",
      "house": "",
      "postcode": "9970-322",
      "city": "SANTA CRUZ DAS FLORES",
      "lon": "-31.13493681507523",
      "lat": "39.44810418467453"
    },
    {
      "id": "pt.ine.add.AC25.1470",
      "street": "R FLORES",
      "house": "24",
      "postcode": "9970-323",
      "city": "SANTA CRUZ DAS FLORES",
      "lon": "-31.13178902131864",
      "lat": "39.448918582383534"
    },
    {
      "id": "pt.ine.add.AC25.1566",
      "street": "R CRUZ",
      "house": "",
      "postcode": "9970-319",
      "city": "SANTA CRUZ DAS FLORES",
      "lon": "-31.133157894279936",
      "lat": "39.4481387035871"
    },
    {
      "id": "pt.ine.add.AC25.1567",
      "street": "R TERCA",
      "house": "",
      "postcode": "9970-322",
      "city": "SANTA CRUZ DAS FLORES",
      "lon": "-31.13500114316869",
      "lat": "39.447870963493344"
    },
    {
      "id": "pt.ine.add.AC25.1689",
      "street": "R BOAVISTA",
      "house": "",
      "postcode": "9970-210",
      "city": "SANTA CRUZ DAS FLORES",
      "lon": "-31.13837475809817",
      "lat": "39.448609768474526"
    },
    {
      "id": "pt.ine.add.AC25.1757",
      "street": "R TERCA",
      "house": "51",
      "postcode": "9970-215",
      "city": "SANTA CRUZ DAS FLORES",
      "lon": "-31.13805842771484",
      "lat": "39.44739739857373"
    },
    {
      "id": "pt.ine.add.AC25.1916",
      "street": "R TERCA",
      "house": "",
      "postcode": "9970-322",
      "city": "SANTA CRUZ DAS FLORES",
      "lon": "-31.134027572214794",
      "lat": "39.44777425538562"
    },
    {
      "id": "pt.ine.add.AC25.1987",
      "street": "R TERCA",
      "house": "",
      "postcode": "9970-322",
      "city": "SANTA CRUZ DAS FLORES",
      "lon": "-31.134799587007123",
      "lat": "39.44802089573386"
    },
    {
      "id": "pt.ine.add.AC25.2010",
      "street": "R BOAVISTA",
      "house": "",
      "postcode": "9970-215",
      "city": "SANTA CRUZ DAS FLORES",
      "lon": "-31.138329291494564",
      "lat": "39.447699057178156"
    },
    {
      "id": "pt.ine.add.AC25.2020",
      "street": "R BOAVISTA",
      "house": "",
      "postcode": "9970-215",
      "city": "SANTA CRUZ DAS FLORES",
      "lon": "-31.13778694417849",
      "lat": "39.44755522596594"
    },
    {
      "id": "pt.ine.add.AC25.2028",
      "street": "MTE CRUZES",
      "house": "",
      "postcode": "9970-380",
      "city": "SANTA CRUZ DAS FLORES",
      "lon": "-31.135955535462426",
      "lat": "39.45130095655022"
    },
    {
      "id": "pt.ine.add.AC25.2058",
      "street": "R FLORES",
      "house": "22",
      "postcode": "9970-323",
      "city": "SANTA CRUZ DAS FLORES",
      "lon": "-31.131782761913023",
      "lat": "39.4491527347325"
    }
  ]
}