{
  "data": {
    "distrito": "Santarém",
    "concelho": "Ourém",
    "freguesia": "Fátima",
    "OBJECTID": 59,
    "BGRI2021": "14210601127",
    "DT21": "14",
    "DTMN21": "1421",
    "DTMNFR21": "142106",
    "DTMNFRSEC21": "142106011",
    "SECNUM21": "011",
    "SSNUM21": "27",
    "SECSSNUM21": "01127",
    "OBJECTID_1": 158378,
    "DT": "14",
    "CC": "21",
    "fr": "06",
    "SEC": "011",
    "SS": "27"
  },
  "addresses": [
    {
      "id": "pt.ine.add.PTCONT.4397031",
      "street": "R CHARNECA",
      "house": "55",
      "postcode": "2495-650",
      "city": "FÁTIMA",
      "lon": "-8.679323252392715",
      "lat": "39.618599060943595"
    },
    {
      "id": "pt.ine.add.PTCONT.4403153",
      "street": "R LAINS",
      "house": "107",
      "postcode": "2495-650",
      "city": "FÁTIMA",
      "lon": "-8.678238806348793",
      "lat": "39.616937911911165"
    },
    {
      "id": "pt.ine.add.PTCONT.4407520",
      "street": "R PEDRINHAS",
      "house": "6J",
      "postcode": "2495-350",
      "city": "FÁTIMA",
      "lon": "-8.676947711071964",
      "lat": "39.61416088615892"
    },
    {
      "id": "pt.ine.add.PTCONT.4433997",
      "street": "R CENTRAL",
      "house": "141",
      "postcode": "2495-350",
      "city": "FÁTIMA",
      "lon": "-8.674803833064443",
      "lat": "39.614008780969854"
    },
    {
      "id": "pt.ine.add.PTCONT.4437722",
      "street": "R LAINS",
      "house": "186",
      "postcode": "2495-650",
      "city": "FÁTIMA",
      "lon": "-8.67834947754387",
      "lat": "39.61768495012984"
    },
    {
      "id": "pt.ine.add.PTCONT.4440207",
      "street": "LG BARREIRO",
      "house": "25",
      "postcode": "2495-350",
      "city": "FÁTIMA",
      "lon": "-8.67611689678884",
      "lat": "39.61513749830084"
    },
    {
      "id": "pt.ine.add.PTCONT.4441989",
      "street": "LG BARREIRO",
      "house": "9",
      "postcode": "2495-350",
      "city": "FÁTIMA",
      "lon": "-8.676362352950637",
      "lat": "39.61525343817473"
    },
    {
      "id": "pt.ine.add.PTCONT.4450564",
      "street": "R PRINCIPAL",
      "house": "35",
      "postcode": "2495-650",
      "city": "FÁTIMA",
      "lon": "-8.676837236028696",
      "lat": "39.616413083558"
    },
    {
      "id": "pt.ine.add.PTCONT.4457862",
      "street": "R LAINS",
      "house": "140",
      "postcode": "2495-650",
      "city": "FÁTIMA",
      "lon": "-8.678101607906331",
      "lat": "39.61726279745195"
    },
    {
      "id": "pt.ine.add.PTCONT.4460711",
      "street": "LG BARREIRO",
      "house": "11",
      "postcode": "2495-650",
      "city": "FÁTIMA",
      "lon": "-8.676619806957724",
      "lat": "39.61541435500307"
    },
    {
      "id": "pt.ine.add.PTCONT.4490447",
      "street": "R PEDREIRAS",
      "house": "",
      "postcode": "2495-650",
      "city": "FÁTIMA",
      "lon": "-8.680370143474788",
      "lat": "39.61696391844856"
    },
    {
      "id": "pt.ine.add.PTCONT.4496717",
      "street": "R CHARNECA",
      "house": "31",
      "postcode": "2495-650",
      "city": "FÁTIMA",
      "lon": "-8.67857618055276",
      "lat": "39.61837740311121"
    },
    {
      "id": "pt.ine.add.PTCONT.4499339",
      "street": "R PRINCIPAL",
      "house": "53",
      "postcode": "2495-650",
      "city": "FÁTIMA",
      "lon": "-8.677674124816136",
      "lat": "39.61769712447164"
    },
    {
      "id": "pt.ine.add.PTCONT.4504503",
      "street": "R PEDREIRAS",
      "house": "",
      "postcode": "2495-350",
      "city": "FÁTIMA",
      "lon": "-8.678973155271017",
      "lat": "39.617024531016476"
    },
    {
      "id": "pt.ine.add.PTCONT.4527076",
      "street": "R PRINCIPAL",
      "house": "145",
      "postcode": "2495-350",
      "city": "FÁTIMA",
      "lon": "-8.67500305562874",
      "lat": "39.61416997292896"
    },
    {
      "id": "pt.ine.add.PTCONT.4535582",
      "street": "R PRINCIPAL",
      "house": "13",
      "postcode": "2495-350",
      "city": "FÁTIMA",
      "lon": "-8.675437983832557",
      "lat": "39.6146903334026"
    },
    {
      "id": "pt.ine.add.PTCONT.4535583",
      "street": "TV GUILHERME",
      "house": "60",
      "postcode": "2495-650",
      "city": "FÁTIMA",
      "lon": "-8.675923967382536",
      "lat": "39.614291767976276"
    },
    {
      "id": "pt.ine.add.PTCONT.4539592",
      "street": "R PEDREIRAS",
      "house": "86",
      "postcode": "2495-350",
      "city": "FÁTIMA",
      "lon": "-8.676823195168557",
      "lat": "39.616106920799325"
    },
    {
      "id": "pt.ine.add.PTCONT.4547544",
      "street": "R LAINS",
      "house": "73",
      "postcode": "2495-650",
      "city": "FÁTIMA",
      "lon": "-8.67777102565781",
      "lat": "39.61668791779514"
    },
    {
      "id": "pt.ine.add.PTCONT.4560304",
      "street": "R JOSE RIBEIRO",
      "house": "36",
      "postcode": "2495-350",
      "city": "FÁTIMA",
      "lon": "-8.674941391796063",
      "lat": "39.613728931064166"
    },
    {
      "id": "pt.ine.add.PTCONT.4568668",
      "street": "R PRINCIPAL",
      "house": "39",
      "postcode": "2495-650",
      "city": "FÁTIMA",
      "lon": "-8.676966529470736",
      "lat": "39.61656559259901"
    },
    {
      "id": "pt.ine.add.PTCONT.4576799",
      "street": "R POUSO",
      "house": "30",
      "postcode": "2495-350",
      "city": "FÁTIMA",
      "lon": "-8.677013561281067",
      "lat": "39.61364719466189"
    },
    {
      "id": "pt.ine.add.PTCONT.4587413",
      "street": "R LAINS",
      "house": "141",
      "postcode": "2495-650",
      "city": "FÁTIMA",
      "lon": "-8.678613287836749",
      "lat": "39.617170328812705"
    },
    {
      "id": "pt.ine.add.PTCONT.4589534",
      "street": "R PRINCIPAL",
      "house": "5",
      "postcode": "2495-350",
      "city": "FÁTIMA",
      "lon": "-8.675214696568668",
      "lat": "39.61443018054879"
    },
    {
      "id": "pt.ine.add.PTCONT.4603974",
      "street": "R PRINCIPAL",
      "house": "41",
      "postcode": "2495-650",
      "city": "FÁTIMA",
      "lon": "-8.677108385103029",
      "lat": "39.61683513001426"
    },
    {
      "id": "pt.ine.add.PTCONT.4605777",
      "street": "R POUSO",
      "house": "18",
      "postcode": "2495-350",
      "city": "FÁTIMA",
      "lon": "-8.67659639976885",
      "lat": "39.613910341885756"
    },
    {
      "id": "pt.ine.add.PTCONT.4612447",
      "street": "R LAINS",
      "house": "235",
      "postcode": "2495-650",
      "city": "FÁTIMA",
      "lon": "-8.678574483803386",
      "lat": "39.61816124988996"
    },
    {
      "id": "pt.ine.add.PTCONT.4622834",
      "street": "R PEDREIRAS",
      "house": "13",
      "postcode": "2495-350",
      "city": "FÁTIMA",
      "lon": "-8.676957014267984",
      "lat": "39.61534972991792"
    },
    {
      "id": "pt.ine.add.PTCONT.4622835",
      "street": "R PRINCIPAL",
      "house": "21",
      "postcode": "2495-350",
      "city": "FÁTIMA",
      "lon": "-8.675847659514696",
      "lat": "39.614958621948986"
    },
    {
      "id": "pt.ine.add.PTCONT.4624940",
      "street": "R CENTRAL",
      "house": "141",
      "postcode": "2495-350",
      "city": "FÁTIMA",
      "lon": "-8.674909336759722",
      "lat": "39.61409835623736"
    },
    {
      "id": "pt.ine.add.PTCONT.4626245",
      "street": "R PRINCIPAL",
      "house": "43",
      "postcode": "2495-650",
      "city": "FÁTIMA",
      "lon": "-8.677155882092295",
      "lat": "39.61695199494162"
    },
    {
      "id": "pt.ine.add.PTCONT.4639183",
      "street": "R PRINCIPAL",
      "house": "45",
      "postcode": "2495-650",
      "city": "FÁTIMA",
      "lon": "-8.677308538043212",
      "lat": "39.617113400894944"
    },
    {
      "id": "pt.ine.add.PTCONT.4651883",
      "street": "R PRINCIPAL",
      "house": "15",
      "postcode": "2495-350",
      "city": "FÁTIMA",
      "lon": "-8.675531563457485",
      "lat": "39.61474393686279"
    }
  ]
}