{
  "data": {
    "distrito": "Vila Real",
    "concelho": "Chaves",
    "freguesia": "União das freguesias da Madalena e Samaiões",
    "OBJECTID": 1036,
    "BGRI2021": "17035400209",
    "DT21": "17",
    "DTMN21": "1703",
    "DTMNFR21": "170354",
    "DTMNFRSEC21": "170354002",
    "SECNUM21": "002",
    "SSNUM21": "09",
    "SECSSNUM21": "00209",
    "OBJECTID_1": 181314,
    "DT": "17",
    "CC": "03",
    "fr": "54",
    "SEC": "002",
    "SS": "09"
  },
  "addresses": [
    {
      "id": "pt.ine.add.PTCONT.5288218",
      "street": "R DO CANEIRO",
      "house": "",
      "postcode": "5400-167",
      "city": "CHAVES",
      "lon": "-7.46929928216148",
      "lat": "41.73362403630367"
    },
    {
      "id": "pt.ine.add.PTCONT.5296304",
      "street": "R DO CANTO DO JARDIM",
      "house": "8",
      "postcode": "5400-639",
      "city": "CHAVES",
      "lon": "-7.46597111667277",
      "lat": "41.73698104010907"
    },
    {
      "id": "pt.ine.add.PTCONT.5297351",
      "street": "R CANEIRO",
      "house": "47",
      "postcode": "5400-167",
      "city": "CHAVES",
      "lon": "-7.467830386920702",
      "lat": "41.73502907679838"
    },
    {
      "id": "pt.ine.add.PTCONT.5298108",
      "street": "R DO CANTO DO JARDIM",
      "house": "6",
      "postcode": "5400-639",
      "city": "CHAVES",
      "lon": "-7.465886326438834",
      "lat": "41.73704357163289"
    },
    {
      "id": "pt.ine.add.PTCONT.5299625",
      "street": "R DO CANEIRO",
      "house": "67",
      "postcode": "5400-167",
      "city": "CHAVES",
      "lon": "-7.467203893069646",
      "lat": "41.73516950234213"
    },
    {
      "id": "pt.ine.add.PTCONT.5301576",
      "street": "R DO CANEIRO",
      "house": "",
      "postcode": "5400-167",
      "city": "CHAVES",
      "lon": "-7.469493440978422",
      "lat": "41.733445089523144"
    },
    {
      "id": "pt.ine.add.PTCONT.5304588",
      "street": "R DO CANEIRO",
      "house": "27",
      "postcode": "5400-167",
      "city": "CHAVES",
      "lon": "-7.467989146319328",
      "lat": "41.73478690376778"
    },
    {
      "id": "pt.ine.add.PTCONT.5307882",
      "street": "R DO CANEIRO",
      "house": "63",
      "postcode": "5400-167",
      "city": "CHAVES",
      "lon": "-7.467324551670042",
      "lat": "41.73512518448039"
    },
    {
      "id": "pt.ine.add.PTCONT.5311795",
      "street": "R DO CANEIRO",
      "house": "61",
      "postcode": "5400-167",
      "city": "CHAVES",
      "lon": "-7.4674215432556466",
      "lat": "41.735044715734034"
    },
    {
      "id": "pt.ine.add.PTCONT.5312642",
      "street": "R DO CANEIRO",
      "house": "31",
      "postcode": "5400-167",
      "city": "CHAVES",
      "lon": "-7.46872779784234",
      "lat": "41.734259975735576"
    },
    {
      "id": "pt.ine.add.PTCONT.5312643",
      "street": "R DO CANEIRO",
      "house": "31",
      "postcode": "5400-167",
      "city": "CHAVES",
      "lon": "-7.46872779784234",
      "lat": "41.734259975735576"
    },
    {
      "id": "pt.ine.add.PTCONT.5314109",
      "street": "R DO CANEIRO",
      "house": "",
      "postcode": "5400-167",
      "city": "CHAVES",
      "lon": "-7.467385020363408",
      "lat": "41.735089521192194"
    },
    {
      "id": "pt.ine.add.PTCONT.5320265",
      "street": "R DO CANEIRO",
      "house": "1",
      "postcode": "5400-167",
      "city": "CHAVES",
      "lon": "-7.46943269695505",
      "lat": "41.733507762588005"
    },
    {
      "id": "pt.ine.add.PTCONT.5325960",
      "street": "R DO CANEIRO",
      "house": "",
      "postcode": "5400-167",
      "city": "CHAVES",
      "lon": "-7.4692626686811705",
      "lat": "41.733677845263564"
    },
    {
      "id": "pt.ine.add.PTCONT.5330726",
      "street": "R DO CANEIRO",
      "house": "41",
      "postcode": "5400-167",
      "city": "CHAVES",
      "lon": "-7.467965663240651",
      "lat": "41.734677584354834"
    },
    {
      "id": "pt.ine.add.PTCONT.5330727",
      "street": "R DO CANEIRO",
      "house": "41",
      "postcode": "5400-167",
      "city": "CHAVES",
      "lon": "-7.467965663240651",
      "lat": "41.734677584354834"
    },
    {
      "id": "pt.ine.add.PTCONT.5330728",
      "street": "R DO CANEIRO",
      "house": "41",
      "postcode": "5400-167",
      "city": "CHAVES",
      "lon": "-7.467965663240651",
      "lat": "41.734677584354834"
    },
    {
      "id": "pt.ine.add.PTCONT.5338248",
      "street": "R DO CANEIRO",
      "house": "85",
      "postcode": "5400-167",
      "city": "CHAVES",
      "lon": "-7.466381268655756",
      "lat": "41.73567792641556"
    },
    {
      "id": "pt.ine.add.PTCONT.5338249",
      "street": "R DO CANEIRO",
      "house": "85",
      "postcode": "5400-167",
      "city": "CHAVES",
      "lon": "-7.466381268655756",
      "lat": "41.73567792641556"
    },
    {
      "id": "pt.ine.add.PTCONT.5343904",
      "street": "AV D AFONSO BRAGANÇA",
      "house": "24",
      "postcode": "5400-025",
      "city": "CHAVES",
      "lon": "-7.472068399870956",
      "lat": "41.73435127004947"
    },
    {
      "id": "pt.ine.add.PTCONT.5343905",
      "street": "AV D AFONSO BRAGANÇA",
      "house": "24",
      "postcode": "5400-025",
      "city": "CHAVES",
      "lon": "-7.472068399870956",
      "lat": "41.73435127004947"
    },
    {
      "id": "pt.ine.add.PTCONT.5348632",
      "street": "AV D AFONSO DE BRAGANÇA",
      "house": "24",
      "postcode": "5400-025",
      "city": "CHAVES",
      "lon": "-7.472235561609703",
      "lat": "41.73446027256997"
    },
    {
      "id": "pt.ine.add.PTCONT.5351138",
      "street": "R CÂNDIDO SOTTO MAYOR",
      "house": "15",
      "postcode": "5400-165",
      "city": "CHAVES",
      "lon": "-7.465692705998331",
      "lat": "41.73716849485533"
    },
    {
      "id": "pt.ine.add.PTCONT.5351139",
      "street": "R CÂNDIDO SOTTO MAYOR",
      "house": "15",
      "postcode": "5400-165",
      "city": "CHAVES",
      "lon": "-7.465692705998331",
      "lat": "41.73716849485533"
    },
    {
      "id": "pt.ine.add.PTCONT.5355507",
      "street": "R DO CANEIRO",
      "house": "33",
      "postcode": "5400-167",
      "city": "CHAVES",
      "lon": "-7.468522821710039",
      "lat": "41.73432181425855"
    },
    {
      "id": "pt.ine.add.PTCONT.5355508",
      "street": "R DA SOLIDÃO",
      "house": "",
      "postcode": "5400-518",
      "city": "CHAVES",
      "lon": "-7.472477725287192",
      "lat": "41.735461043941115"
    },
    {
      "id": "pt.ine.add.PTCONT.5359613",
      "street": "R DO CANEIRO",
      "house": "65",
      "postcode": "5400-167",
      "city": "CHAVES",
      "lon": "-7.467251970552149",
      "lat": "41.73516978095774"
    },
    {
      "id": "pt.ine.add.PTCONT.5364023",
      "street": "R DA SOLIDÃO",
      "house": "",
      "postcode": "5400-518",
      "city": "CHAVES",
      "lon": "-7.471549263372124",
      "lat": "41.73457336762306"
    },
    {
      "id": "pt.ine.add.PTCONT.5366377",
      "street": "R DO CANEIRO",
      "house": "53",
      "postcode": "5400-167",
      "city": "CHAVES",
      "lon": "-7.467724071253349",
      "lat": "41.73484839295779"
    },
    {
      "id": "pt.ine.add.PTCONT.5371532",
      "street": "R DO CANEIRO",
      "house": "59",
      "postcode": "5400-167",
      "city": "CHAVES",
      "lon": "-7.467482104776036",
      "lat": "41.73500004952024"
    },
    {
      "id": "pt.ine.add.PTCONT.5373717",
      "street": "R DO CANEIRO",
      "house": "",
      "postcode": "5400-167",
      "city": "CHAVES",
      "lon": "-7.467542387369957",
      "lat": "41.73498239189349"
    },
    {
      "id": "pt.ine.add.PTCONT.5373737",
      "street": "R DA SOLIDÃO",
      "house": "21",
      "postcode": "5400-518",
      "city": "CHAVES",
      "lon": "-7.470605384773116",
      "lat": "41.73401872113773"
    },
    {
      "id": "pt.ine.add.PTCONT.5374740",
      "street": "R DO CANEIRO",
      "house": "13",
      "postcode": "5400-167",
      "city": "CHAVES",
      "lon": "-7.469093103144075",
      "lat": "41.733802913286354"
    },
    {
      "id": "pt.ine.add.PTCONT.5375838",
      "street": "CANTO CANEIRO",
      "house": "4",
      "postcode": "5400-166",
      "city": "CHAVES",
      "lon": "-7.467819761207995",
      "lat": "41.73489396409992"
    },
    {
      "id": "pt.ine.add.PTCONT.5379048",
      "street": "R DO CANEIRO",
      "house": "29",
      "postcode": "5400-167",
      "city": "CHAVES",
      "lon": "-7.468800469688259",
      "lat": "41.734206375427206"
    },
    {
      "id": "pt.ine.add.PTCONT.5379049",
      "street": "R DO CANEIRO",
      "house": "29",
      "postcode": "5400-167",
      "city": "CHAVES",
      "lon": "-7.468800469688259",
      "lat": "41.734206375427206"
    },
    {
      "id": "pt.ine.add.PTCONT.5382234",
      "street": "R DO CANEIRO",
      "house": "",
      "postcode": "5400-167",
      "city": "CHAVES",
      "lon": "-7.46904456299284",
      "lat": "41.73384764983761"
    },
    {
      "id": "pt.ine.add.PTCONT.5382562",
      "street": "AV D JOÃO I",
      "house": "199",
      "postcode": "5400-323",
      "city": "CHAVES",
      "lon": "-7.465946238680032",
      "lat": "41.73590048657463"
    },
    {
      "id": "pt.ine.add.PTCONT.5383287",
      "street": "R DO CANEIRO",
      "house": "",
      "postcode": "5400-167",
      "city": "CHAVES",
      "lon": "-7.467855313900812",
      "lat": "41.73475688321709"
    },
    {
      "id": "pt.ine.add.PTCONT.5386466",
      "street": "R DO CANEIRO",
      "house": "55",
      "postcode": "5400-167",
      "city": "CHAVES",
      "lon": "-7.467664273692238",
      "lat": "41.734886967514996"
    },
    {
      "id": "pt.ine.add.PTCONT.5388676",
      "street": "R DO CANEIRO",
      "house": "2",
      "postcode": "5400-167",
      "city": "CHAVES",
      "lon": "-7.469396269020961",
      "lat": "41.73354356583501"
    },
    {
      "id": "pt.ine.add.PTCONT.5389980",
      "street": "R DO CANEIRO",
      "house": "49",
      "postcode": "5400-167",
      "city": "CHAVES",
      "lon": "-7.467808305048379",
      "lat": "41.7347840003216"
    },
    {
      "id": "pt.ine.add.PTCONT.5393437",
      "street": "R DO CANEIRO",
      "house": "",
      "postcode": "5400-167",
      "city": "CHAVES",
      "lon": "-7.4692020169245605",
      "lat": "41.733731515322425"
    },
    {
      "id": "pt.ine.add.PTCONT.5395913",
      "street": "R DO CANEIRO",
      "house": "77",
      "postcode": "5400-167",
      "city": "CHAVES",
      "lon": "-7.466622774868783",
      "lat": "41.735571286580225"
    },
    {
      "id": "pt.ine.add.PTCONT.5395914",
      "street": "R DO CANEIRO",
      "house": "77",
      "postcode": "5400-167",
      "city": "CHAVES",
      "lon": "-7.466622774868783",
      "lat": "41.735571286580225"
    },
    {
      "id": "pt.ine.add.PTCONT.5395915",
      "street": "R DO CANEIRO",
      "house": "77",
      "postcode": "5400-167",
      "city": "CHAVES",
      "lon": "-7.466622774868783",
      "lat": "41.735571286580225"
    },
    {
      "id": "pt.ine.add.PTCONT.5396469",
      "street": "R DO CANEIRO",
      "house": "77",
      "postcode": "5400-167",
      "city": "CHAVES",
      "lon": "-7.466622774868783",
      "lat": "41.735571286580225"
    },
    {
      "id": "pt.ine.add.PTCONT.5397210",
      "street": "R DO CANTO DO JARDIM",
      "house": "3",
      "postcode": "5400-639",
      "city": "CHAVES",
      "lon": "-7.465813555768617",
      "lat": "41.737106172897384"
    },
    {
      "id": "pt.ine.add.PTCONT.5398242",
      "street": "R DO CANEIRO",
      "house": "20",
      "postcode": "5400-167",
      "city": "CHAVES",
      "lon": "-7.467626987405027",
      "lat": "41.73493786484068"
    },
    {
      "id": "pt.ine.add.PTCONT.5403731",
      "street": "R DO CANEIRO",
      "house": "51",
      "postcode": "5400-167",
      "city": "CHAVES",
      "lon": "-7.467784446553565",
      "lat": "41.734821732328115"
    },
    {
      "id": "pt.ine.add.PTCONT.5404769",
      "street": "R DO CANEIRO",
      "house": "47",
      "postcode": "5400-167",
      "city": "CHAVES",
      "lon": "-7.467857026912468",
      "lat": "41.734777135506135"
    },
    {
      "id": "pt.ine.add.PTCONT.5411430",
      "street": "R DO CANEIRO",
      "house": "3",
      "postcode": "5400-167",
      "city": "CHAVES",
      "lon": "-7.469347729276051",
      "lat": "41.7335883025193"
    },
    {
      "id": "pt.ine.add.PTCONT.5412351",
      "street": "R DO CANEIRO",
      "house": "39",
      "postcode": "5400-167",
      "city": "CHAVES",
      "lon": "-7.46789354929879",
      "lat": "41.73473232989186"
    },
    {
      "id": "pt.ine.add.PTCONT.5414828",
      "street": "R DA SOLIDÃO",
      "house": "33",
      "postcode": "5400-518",
      "city": "CHAVES",
      "lon": "-7.471622764637717",
      "lat": "41.7344387395851"
    },
    {
      "id": "pt.ine.add.PTCONT.5421052",
      "street": "R DO CANEIRO",
      "house": "43",
      "postcode": "5400-167",
      "city": "CHAVES",
      "lon": "-7.467941812243961",
      "lat": "41.73471460246772"
    },
    {
      "id": "pt.ine.add.PTCONT.5422135",
      "street": "R DO CANEIRO",
      "house": "",
      "postcode": "5400-167",
      "city": "CHAVES",
      "lon": "-7.469141735948056",
      "lat": "41.73374917383561"
    }
  ]
}