{
  "data": {
    "distrito": "Santarém",
    "concelho": "Rio Maior",
    "freguesia": "União das freguesias de Outeiro da Cortiçada e Arruda dos Pisões",
    "OBJECTID": 198,
    "BGRI2021": "14141700125",
    "DT21": "14",
    "DTMN21": "1414",
    "DTMNFR21": "141417",
    "DTMNFRSEC21": "141417001",
    "SECNUM21": "001",
    "SSNUM21": "25",
    "SECSSNUM21": "00125",
    "OBJECTID_1": 153115,
    "DT": "14",
    "CC": "14",
    "fr": "17",
    "SEC": "001",
    "SS": "25"
  },
  "addresses": [
    {
      "id": "pt.ine.add.PTCONT.4399407",
      "street": "R VALE DE RIO MAIOR",
      "house": "",
      "postcode": "2040-174",
      "city": "OUTEIRO DA CORTIÇADA",
      "lon": "-8.835650017963415",
      "lat": "39.3302951079575"
    },
    {
      "id": "pt.ine.add.PTCONT.4419367",
      "street": "R PORFIRIO AZENHA",
      "house": "",
      "postcode": "2040-174",
      "city": "OUTEIRO DA CORTIÇADA",
      "lon": "-8.833051030723569",
      "lat": "39.3290227492154"
    },
    {
      "id": "pt.ine.add.PTCONT.4421828",
      "street": "ESTR CASAL DA CHEIRA",
      "house": "313",
      "postcode": "2040-174",
      "city": "OUTEIRO DA CORTIÇADA",
      "lon": "-8.831012795989963",
      "lat": "39.332817972763266"
    },
    {
      "id": "pt.ine.add.PTCONT.4437383",
      "street": "R VALE JORGE",
      "house": "",
      "postcode": "2040-174",
      "city": "OUTEIRO DA CORTIÇADA",
      "lon": "-8.829796980468986",
      "lat": "39.33068156517486"
    },
    {
      "id": "pt.ine.add.PTCONT.4452330",
      "street": "VALE DE RIO MAIOR",
      "house": "",
      "postcode": "2040-174",
      "city": "OUTEIRO DA CORTIÇADA",
      "lon": "-8.834796876125747",
      "lat": "39.33080465206933"
    },
    {
      "id": "pt.ine.add.PTCONT.4466954",
      "street": "R FORNO DA CAL",
      "house": "",
      "postcode": "2040-174",
      "city": "OUTEIRO DA CORTIÇADA",
      "lon": "-8.832380696027766",
      "lat": "39.331584796664025"
    },
    {
      "id": "pt.ine.add.PTCONT.4485894",
      "street": "ESTR CASAL DA CHEIRA",
      "house": "123",
      "postcode": "2040-174",
      "city": "OUTEIRO DA CORTIÇADA",
      "lon": "-8.829955252975479",
      "lat": "39.33143721472429"
    },
    {
      "id": "pt.ine.add.PTCONT.4622552",
      "street": "R FERNANDA CUNHA FIGUEIREDO",
      "house": "",
      "postcode": "2040-174",
      "city": "OUTEIRO DA CORTIÇADA",
      "lon": "-8.835804066178266",
      "lat": "39.33525709133028"
    },
    {
      "id": "pt.ine.add.PTCONT.4622563",
      "street": "R FORNO DA CAL",
      "house": "208",
      "postcode": "2040-174",
      "city": "OUTEIRO DA CORTIÇADA",
      "lon": "-8.832478140109918",
      "lat": "39.33205258066406"
    },
    {
      "id": "pt.ine.add.PTCONT.4645173",
      "street": "ESTR CASAL DA CHEIRA",
      "house": "297",
      "postcode": "2040-174",
      "city": "OUTEIRO DA CORTIÇADA",
      "lon": "-8.830977197670139",
      "lat": "39.332737122268384"
    },
    {
      "id": "pt.ine.add.PTCONT.4646451",
      "street": "ESTR CASAL DA CHEIRA",
      "house": "189",
      "postcode": "2040-174",
      "city": "OUTEIRO DA CORTIÇADA",
      "lon": "-8.830539679698356",
      "lat": "39.33189307679789"
    },
    {
      "id": "pt.ine.add.PTCONT.4651112",
      "street": "ESTR CASAL DA CHEIRA",
      "house": "73",
      "postcode": "2040-174",
      "city": "OUTEIRO DA CORTIÇADA",
      "lon": "-8.829288403070406",
      "lat": "39.33085574316191"
    }
  ]
}