{
  "data": {
    "distrito": "Santarém",
    "concelho": "Rio Maior",
    "freguesia": "União das freguesias de Outeiro da Cortiçada e Arruda dos Pisões",
    "OBJECTID": 92,
    "BGRI2021": "14141700134",
    "DT21": "14",
    "DTMN21": "1414",
    "DTMNFR21": "141417",
    "DTMNFRSEC21": "141417001",
    "SECNUM21": "001",
    "SSNUM21": "34",
    "SECSSNUM21": "00134",
    "OBJECTID_1": 153047,
    "DT": "14",
    "CC": "14",
    "fr": "17",
    "SEC": "001",
    "SS": "34"
  },
  "addresses": [
    {
      "id": "pt.ine.add.PTCONT.4391839",
      "street": "R MANUEL SANTO",
      "house": "42",
      "postcode": "2040-172",
      "city": "OUTEIRO DA CORTIÇADA",
      "lon": "-8.796256407892464",
      "lat": "39.3442260233616"
    },
    {
      "id": "pt.ine.add.PTCONT.4399024",
      "street": "R FAIAS",
      "house": "",
      "postcode": "2040-172",
      "city": "OUTEIRO DA CORTIÇADA",
      "lon": "-8.798421991469883",
      "lat": "39.342619407545506"
    },
    {
      "id": "pt.ine.add.PTCONT.4407331",
      "street": "TV LADEIRA",
      "house": "5",
      "postcode": "2040-172",
      "city": "OUTEIRO DA CORTIÇADA",
      "lon": "-8.797716999692225",
      "lat": "39.342893648400064"
    },
    {
      "id": "pt.ine.add.PTCONT.4431880",
      "street": "TV LADEIRA",
      "house": "22",
      "postcode": "2040-172",
      "city": "OUTEIRO DA CORTIÇADA",
      "lon": "-8.797622414714484",
      "lat": "39.34270503934659"
    },
    {
      "id": "pt.ine.add.PTCONT.4455046",
      "street": "R MANUEL SANTO",
      "house": "24",
      "postcode": "2040-172",
      "city": "OUTEIRO DA CORTIÇADA",
      "lon": "-8.796597067944392",
      "lat": "39.34344947127685"
    },
    {
      "id": "pt.ine.add.PTCONT.4488554",
      "street": "R S PEDRO",
      "house": "",
      "postcode": "2040-172",
      "city": "OUTEIRO DA CORTIÇADA",
      "lon": "-8.79876535376397",
      "lat": "39.34213106080299"
    },
    {
      "id": "pt.ine.add.PTCONT.4543400",
      "street": "R MANUEL SANTO",
      "house": "18",
      "postcode": "2040-172",
      "city": "OUTEIRO DA CORTIÇADA",
      "lon": "-8.797070595321768",
      "lat": "39.34323060048019"
    },
    {
      "id": "pt.ine.add.PTCONT.4562267",
      "street": "R MANUEL SANTO",
      "house": "58",
      "postcode": "2040-172",
      "city": "OUTEIRO DA CORTIÇADA",
      "lon": "-8.796262536460164",
      "lat": "39.34487449955708"
    },
    {
      "id": "pt.ine.add.PTCONT.4570907",
      "street": "R MANUEL SANTO",
      "house": "18",
      "postcode": "2040-172",
      "city": "OUTEIRO DA CORTIÇADA",
      "lon": "-8.796921423268317",
      "lat": "39.343402586280085"
    },
    {
      "id": "pt.ine.add.PTCONT.4580976",
      "street": "R S PEDRO",
      "house": "35",
      "postcode": "2040-172",
      "city": "OUTEIRO DA CORTIÇADA",
      "lon": "-8.798268213995204",
      "lat": "39.34230503794012"
    },
    {
      "id": "pt.ine.add.PTCONT.4587244",
      "street": "R FAIAS CASAL MANU",
      "house": "",
      "postcode": "2040-172",
      "city": "OUTEIRO DA CORTIÇADA",
      "lon": "-8.797947875169797",
      "lat": "39.34277523749814"
    },
    {
      "id": "pt.ine.add.PTCONT.4589362",
      "street": "R S PEDRO",
      "house": "60",
      "postcode": "2040-172",
      "city": "OUTEIRO DA CORTIÇADA",
      "lon": "-8.798498659608711",
      "lat": "39.34214159289009"
    },
    {
      "id": "pt.ine.add.PTCONT.4605422",
      "street": "R FAIAS",
      "house": "",
      "postcode": "2040-172",
      "city": "OUTEIRO DA CORTIÇADA",
      "lon": "-8.79816749209832",
      "lat": "39.34269291887539"
    },
    {
      "id": "pt.ine.add.PTCONT.4608111",
      "street": "R FAIAS",
      "house": "394",
      "postcode": "2040-172",
      "city": "OUTEIRO DA CORTIÇADA",
      "lon": "-8.79967249440187",
      "lat": "39.33993714308037"
    },
    {
      "id": "pt.ine.add.PTCONT.4630906",
      "street": "R MANUEL SANTO",
      "house": "12",
      "postcode": "2040-172",
      "city": "OUTEIRO DA CORTIÇADA",
      "lon": "-8.797185395011176",
      "lat": "39.34310384611367"
    },
    {
      "id": "pt.ine.add.PTCONT.4642495",
      "street": "R MANUEL SANTO",
      "house": "",
      "postcode": "2040-172",
      "city": "OUTEIRO DA CORTIÇADA",
      "lon": "-8.797624461645551",
      "lat": "39.34292119808335"
    }
  ]
}