{
  "data": {
    "distrito": "Viseu",
    "concelho": "Tondela",
    "freguesia": "Santiago de Besteiros",
    "OBJECTID": 1204,
    "BGRI2021": "18211800144",
    "DT21": "18",
    "DTMN21": "1821",
    "DTMNFR21": "182118",
    "DTMNFRSEC21": "182118001",
    "SECNUM21": "001",
    "SSNUM21": "44",
    "SECSSNUM21": "00144",
    "OBJECTID_1": 200058,
    "DT": "18",
    "CC": "21",
    "fr": "18",
    "SEC": "001",
    "SS": "44"
  },
  "addresses": [
    {
      "id": "pt.ine.add.PTCONT.5431642",
      "street": "R PADRE JOSE SOUSA JUNIOR",
      "house": "515 A",
      "postcode": "3465-157",
      "city": "SANTIAGO DE BESTEIROS",
      "lon": "-8.12520618437961",
      "lat": "40.58513205888947"
    },
    {
      "id": "pt.ine.add.PTCONT.5461814",
      "street": "R PE JOSÉ SOUSA JÚNIOR",
      "house": "431 A",
      "postcode": "3465-157",
      "city": "SANTIAGO DE BESTEIROS",
      "lon": "-8.124934448611162",
      "lat": "40.585645341225366"
    },
    {
      "id": "pt.ine.add.PTCONT.5479034",
      "street": "R PADRE JOSE SOUSA JUNIOR",
      "house": "513",
      "postcode": "3465-157",
      "city": "SANTIAGO DE BESTEIROS",
      "lon": "-8.125678662638894",
      "lat": "40.58510507438777"
    },
    {
      "id": "pt.ine.add.PTCONT.5495807",
      "street": "R CHÃO DAS VINHAS",
      "house": "41",
      "postcode": "3465-157",
      "city": "SANTIAGO DE BESTEIROS",
      "lon": "-8.125147303280379",
      "lat": "40.58362817199075"
    },
    {
      "id": "pt.ine.add.PTCONT.5496785",
      "street": "R PADRE JOSE SOUSA JUNIOR",
      "house": "439",
      "postcode": "3465-157",
      "city": "SANTIAGO DE BESTEIROS",
      "lon": "-8.12530063859366",
      "lat": "40.58548327143153"
    },
    {
      "id": "pt.ine.add.PTCONT.5510112",
      "street": "R PADRE JOSE J SOUSA JUNIOR",
      "house": "485",
      "postcode": "3465-157",
      "city": "SANTIAGO DE BESTEIROS",
      "lon": "-8.125383344992343",
      "lat": "40.58528516072219"
    },
    {
      "id": "pt.ine.add.PTCONT.5532882",
      "street": "R ALAGOA",
      "house": "55",
      "postcode": "3465-157",
      "city": "SANTIAGO DE BESTEIROS",
      "lon": "-8.126045000396763",
      "lat": "40.58349315105075"
    },
    {
      "id": "pt.ine.add.PTCONT.5536764",
      "street": "R PADRE JOSE SOUSA JUNIOR",
      "house": "485",
      "postcode": "3465-157",
      "city": "SANTIAGO DE BESTEIROS",
      "lon": "-8.12564321198949",
      "lat": "40.58524015138212"
    },
    {
      "id": "pt.ine.add.PTCONT.5601578",
      "street": "R PADRE JOSE SOUSA JUNIOR",
      "house": "515",
      "postcode": "3465-157",
      "city": "SANTIAGO DE BESTEIROS",
      "lon": "-8.125678654667112",
      "lat": "40.585177116670245"
    },
    {
      "id": "pt.ine.add.PTCONT.5601579",
      "street": "R PRINCIPAL",
      "house": "431",
      "postcode": "3465-157",
      "city": "SANTIAGO DE BESTEIROS",
      "lon": "-8.124674625948076",
      "lat": "40.5853211322942"
    },
    {
      "id": "pt.ine.add.PTCONT.5610646",
      "street": "R PADRE JOSE SOUSA JUNIOR",
      "house": "431 B",
      "postcode": "3465-157",
      "city": "SANTIAGO DE BESTEIROS",
      "lon": "-8.124639151582448",
      "lat": "40.58562730938368"
    },
    {
      "id": "pt.ine.add.PTCONT.5637187",
      "street": "R PADRE JOSE SOUSA JUNIOR",
      "house": "553",
      "postcode": "3465-157",
      "city": "SANTIAGO DE BESTEIROS",
      "lon": "-8.125643265054038",
      "lat": "40.5847628712492"
    },
    {
      "id": "pt.ine.add.PTCONT.5643574",
      "street": "R PADRE JOSE SOUSA JUNIOR",
      "house": "611",
      "postcode": "3465-157",
      "city": "SANTIAGO DE BESTEIROS",
      "lon": "-8.125867758520808",
      "lat": "40.58412351019946"
    },
    {
      "id": "pt.ine.add.PTCONT.5652745",
      "street": "R ALAGOA",
      "house": "59",
      "postcode": "3465-157",
      "city": "SANTIAGO DE BESTEIROS",
      "lon": "-8.125962318284225",
      "lat": "40.58350215125354"
    },
    {
      "id": "pt.ine.add.PTCONT.5655932",
      "street": "R PADRE JOSE SOUSA JUNIOR",
      "house": "531",
      "postcode": "3465-157",
      "city": "SANTIAGO DE BESTEIROS",
      "lon": "-8.125513299416838",
      "lat": "40.58507804777742"
    },
    {
      "id": "pt.ine.add.PTCONT.5659688",
      "street": "TV OUTEIRO",
      "house": "9",
      "postcode": "3465-157",
      "city": "SANTIAGO DE BESTEIROS",
      "lon": "-8.126068613198381",
      "lat": "40.58359221065878"
    }
  ]
}