{
  "data": {
    "distrito": "Bragança",
    "concelho": "Macedo de Cavaleiros",
    "freguesia": "Cortiços",
    "OBJECTID": 611,
    "BGRI2021": "04051000104",
    "DT21": "04",
    "DTMN21": "0405",
    "DTMNFR21": "040510",
    "DTMNFRSEC21": "040510001",
    "SECNUM21": "001",
    "SSNUM21": "04",
    "SECSSNUM21": "00104",
    "OBJECTID_1": 35815,
    "DT": "04",
    "CC": "05",
    "fr": "10",
    "SEC": "001",
    "SS": "04"
  },
  "addresses": [
    {
      "id": "pt.ine.add.PTCONT.852701",
      "street": "R LADEIRA",
      "house": "",
      "postcode": "5340-101",
      "city": "CORTIÇOS",
      "lon": "-7.041385867356458",
      "lat": "41.50878871282501"
    },
    {
      "id": "pt.ine.add.PTCONT.853447",
      "street": "R DIREITA",
      "house": "",
      "postcode": "5340-101",
      "city": "CORTIÇOS",
      "lon": "-7.040448069198838",
      "lat": "41.507573318957505"
    },
    {
      "id": "pt.ine.add.PTCONT.868842",
      "street": "R LADEIRA",
      "house": "",
      "postcode": "5340-101",
      "city": "CORTIÇOS",
      "lon": "-7.041249718316424",
      "lat": "41.50833723845072"
    },
    {
      "id": "pt.ine.add.PTCONT.897469",
      "street": "LG PADRO",
      "house": "",
      "postcode": "5340-101",
      "city": "CORTIÇOS",
      "lon": "-7.04026737226111",
      "lat": "41.5076346273955"
    },
    {
      "id": "pt.ine.add.PTCONT.897470",
      "street": "R EIRA VILITA",
      "house": "",
      "postcode": "5340-101",
      "city": "CORTIÇOS",
      "lon": "-7.039175750818631",
      "lat": "41.50702100486798"
    },
    {
      "id": "pt.ine.add.PTCONT.910148",
      "street": "R LADEIRA",
      "house": "",
      "postcode": "5340-101",
      "city": "CORTIÇOS",
      "lon": "-7.041369477863049",
      "lat": "41.50833837544297"
    },
    {
      "id": "pt.ine.add.PTCONT.910149",
      "street": "R LADEIRA",
      "house": "",
      "postcode": "5340-101",
      "city": "CORTIÇOS",
      "lon": "-7.041272913908341",
      "lat": "41.50838247685884"
    },
    {
      "id": "pt.ine.add.PTCONT.910602",
      "street": "LG PADRO",
      "house": "1",
      "postcode": "5340-101",
      "city": "CORTIÇOS",
      "lon": "-7.040458228542119",
      "lat": "41.50768145912788"
    },
    {
      "id": "pt.ine.add.PTCONT.922242",
      "street": "LG PADRO",
      "house": "",
      "postcode": "5340-101",
      "city": "CORTIÇOS",
      "lon": "-7.040705634846876",
      "lat": "41.50792690774385"
    },
    {
      "id": "pt.ine.add.PTCONT.924521",
      "street": "R LADEIRA",
      "house": "",
      "postcode": "5340-101",
      "city": "CORTIÇOS",
      "lon": "-7.041288217615953",
      "lat": "41.50818454215914"
    },
    {
      "id": "pt.ine.add.PTCONT.939177",
      "street": "R EIRA VELHA",
      "house": "",
      "postcode": "5340-101",
      "city": "CORTIÇOS",
      "lon": "-7.0396391677156585",
      "lat": "41.507241499467995"
    },
    {
      "id": "pt.ine.add.PTCONT.942668",
      "street": "R LADEIRA",
      "house": "",
      "postcode": "5340-101",
      "city": "CORTIÇOS",
      "lon": "-7.041295958271378",
      "lat": "41.50843671746223"
    },
    {
      "id": "pt.ine.add.PTCONT.944709",
      "street": "R EIRA VILITA",
      "house": "",
      "postcode": "5340-101",
      "city": "CORTIÇOS",
      "lon": "-7.03883785419773",
      "lat": "41.506459564607916"
    }
  ]
}