{
  "data": {
    "distrito": "Guarda",
    "concelho": "Sabugal",
    "freguesia": "Sortelha",
    "OBJECTID": 555,
    "BGRI2021": "09113300111",
    "DT21": "09",
    "DTMN21": "0911",
    "DTMNFR21": "091133",
    "DTMNFRSEC21": "091133001",
    "SECNUM21": "001",
    "SSNUM21": "11",
    "SECSSNUM21": "00111",
    "OBJECTID_1": 81191,
    "DT": "09",
    "CC": "11",
    "fr": "33",
    "SEC": "001",
    "SS": "11"
  },
  "addresses": [
    {
      "id": "pt.ine.add.PTCONT.1900358",
      "street": "R TERRA MOLE",
      "house": "2",
      "postcode": "6320-536",
      "city": "SORTELHA",
      "lon": "-7.211962275854616",
      "lat": "40.33242698778656"
    },
    {
      "id": "pt.ine.add.PTCONT.1935902",
      "street": "LG S GENESIO",
      "house": "2",
      "postcode": "6320-536",
      "city": "SORTELHA",
      "lon": "-7.210755512094274",
      "lat": "40.33117461350717"
    },
    {
      "id": "pt.ine.add.PTCONT.1939779",
      "street": "R DR VICTOR MANUEL PEREIRA NEVES",
      "house": "",
      "postcode": "6320-536",
      "city": "SORTELHA",
      "lon": "-7.2117544036005095",
      "lat": "40.332137156492244"
    },
    {
      "id": "pt.ine.add.PTCONT.1942509",
      "street": "TV PALMEIROS",
      "house": "",
      "postcode": "6320-536",
      "city": "SORTELHA",
      "lon": "-7.212343566999081",
      "lat": "40.332078809602386"
    },
    {
      "id": "pt.ine.add.PTCONT.1956342",
      "street": "R STA CATARINA",
      "house": "1",
      "postcode": "6320-536",
      "city": "SORTELHA",
      "lon": "-7.2106619974532595",
      "lat": "40.331128840313816"
    },
    {
      "id": "pt.ine.add.PTCONT.1970256",
      "street": "LG S GENESIO",
      "house": "1",
      "postcode": "6320-536",
      "city": "SORTELHA",
      "lon": "-7.210732960973953",
      "lat": "40.33110238975455"
    },
    {
      "id": "pt.ine.add.PTCONT.1970716",
      "street": "R DR VICTOR MANUEL PEREIRA NEVES",
      "house": "2 A",
      "postcode": "6320-536",
      "city": "SORTELHA",
      "lon": "-7.211106162493316",
      "lat": "40.331348513446514"
    },
    {
      "id": "pt.ine.add.PTCONT.1972234",
      "street": "R TERRA MOLE",
      "house": "",
      "postcode": "6320-536",
      "city": "SORTELHA",
      "lon": "-7.211687244403373",
      "lat": "40.33274899475118"
    },
    {
      "id": "pt.ine.add.PTCONT.1976826",
      "street": "R DR VICTOR MANUEL PEREIRA NEVES",
      "house": "",
      "postcode": "6320-536",
      "city": "SORTELHA",
      "lon": "-7.211186686329042",
      "lat": "40.331484237640424"
    },
    {
      "id": "pt.ine.add.PTCONT.1864521",
      "street": "R DR VICTOR MANUEL PEREIRA NEVES",
      "house": "2",
      "postcode": "6320-536",
      "city": "SORTELHA",
      "lon": "-7.210943154622013",
      "lat": "40.331221137104485"
    },
    {
      "id": "pt.ine.add.PTCONT.1888042",
      "street": "LG S GENESIO",
      "house": "3",
      "postcode": "6320-536",
      "city": "SORTELHA",
      "lon": "-7.210814832260158",
      "lat": "40.33113906456054"
    },
    {
      "id": "pt.ine.add.PTCONT.1888999",
      "street": "R DR VICTOR MANUEL PEREIRA NEVES",
      "house": "8",
      "postcode": "6320-536",
      "city": "SORTELHA",
      "lon": "-7.211303121237565",
      "lat": "40.3315752205243"
    }
  ]
}