{
  "data": {
    "distrito": "Viana do Castelo",
    "concelho": "Caminha",
    "freguesia": "União das freguesias de Moledo e Cristelo",
    "OBJECTID": 243,
    "BGRI2021": "16022400307",
    "DT21": "16",
    "DTMN21": "1602",
    "DTMNFR21": "160224",
    "DTMNFRSEC21": "160224003",
    "SECNUM21": "003",
    "SSNUM21": "07",
    "SECSSNUM21": "00307",
    "OBJECTID_1": 172672,
    "DT": "16",
    "CC": "02",
    "fr": "24",
    "SEC": "003",
    "SS": "07"
  },
  "addresses": [
    {
      "id": "pt.ine.add.PTCONT.5135915",
      "street": "R SINO DOS MOUROS",
      "house": "41 CASA",
      "postcode": "4910-689",
      "city": "MOLEDO CMN",
      "lon": "-8.867262978870544",
      "lat": "41.840623677289166"
    },
    {
      "id": "pt.ine.add.PTCONT.5139386",
      "street": "TV MATO GRANDE",
      "house": "52",
      "postcode": "4910-211",
      "city": "MOLEDO CMN",
      "lon": "-8.864417034378075",
      "lat": "41.841281062737686"
    },
    {
      "id": "pt.ine.add.PTCONT.5140540",
      "street": "R ANDOREIRAS",
      "house": "487",
      "postcode": "4910-211",
      "city": "MOLEDO CMN",
      "lon": "-8.86156419928776",
      "lat": "41.842397586207674"
    },
    {
      "id": "pt.ine.add.PTCONT.5140541",
      "street": "R ANDOREIRAS",
      "house": "803",
      "postcode": "4910-211",
      "city": "MOLEDO CMN",
      "lon": "-8.864985741671738",
      "lat": "41.84152953076498"
    },
    {
      "id": "pt.ine.add.PTCONT.5144799",
      "street": "R ANDOREIRAS",
      "house": "",
      "postcode": "4910-211",
      "city": "MOLEDO CMN",
      "lon": "-8.861323414157992",
      "lat": "41.8423991131057"
    },
    {
      "id": "pt.ine.add.PTCONT.5144860",
      "street": "R ANDOREIRAS",
      "house": "317",
      "postcode": "4910-211",
      "city": "MOLEDO CMN",
      "lon": "-8.85933019052222",
      "lat": "41.84287990145445"
    },
    {
      "id": "pt.ine.add.PTCONT.5150944",
      "street": "R SINO DOS MOUROS",
      "house": "",
      "postcode": "4910-689",
      "city": "MOLEDO CMN",
      "lon": "-8.86687763093201",
      "lat": "41.84061713653764"
    },
    {
      "id": "pt.ine.add.PTCONT.5155506",
      "street": "R ANDOREIRAS",
      "house": "761",
      "postcode": "4910-211",
      "city": "MOLEDO CMN",
      "lon": "-8.864408993184464",
      "lat": "41.84163223999906"
    },
    {
      "id": "pt.ine.add.PTCONT.5166812",
      "street": "TV ANDOREIRAS",
      "house": "",
      "postcode": "4910-211",
      "city": "MOLEDO CMN",
      "lon": "-8.863405754930422",
      "lat": "41.8412874972968"
    },
    {
      "id": "pt.ine.add.PTCONT.5167753",
      "street": "R CESAR ALVES DE OLIVEIRA",
      "house": "88",
      "postcode": "4910-279",
      "city": "MOLEDO CMN",
      "lon": "-8.86051710452899",
      "lat": "41.8403064691272"
    },
    {
      "id": "pt.ine.add.PTCONT.5170089",
      "street": "R CESAR ALVES DE OLIVEIRA",
      "house": "78",
      "postcode": "4910-279",
      "city": "MOLEDO CMN",
      "lon": "-8.860506696993314",
      "lat": "41.84045058679819"
    },
    {
      "id": "pt.ine.add.PTCONT.5170376",
      "street": "R ANDOREIRAS",
      "house": "",
      "postcode": "4910-211",
      "city": "MOLEDO CMN",
      "lon": "-8.86626693510121",
      "lat": "41.840909139863356"
    },
    {
      "id": "pt.ine.add.PTCONT.5183912",
      "street": "R ANDOREIRAS",
      "house": "",
      "postcode": "4910-211",
      "city": "MOLEDO CMN",
      "lon": "-8.866362527348398",
      "lat": "41.840845507000644"
    },
    {
      "id": "pt.ine.add.PTCONT.5185092",
      "street": "R ANDOREIRAS",
      "house": "",
      "postcode": "4910-211",
      "city": "MOLEDO CMN",
      "lon": "-8.866566881101024",
      "lat": "41.84081719250078"
    },
    {
      "id": "pt.ine.add.PTCONT.5185093",
      "street": "R SINO DOS MOUROS",
      "house": "",
      "postcode": "4910-689",
      "city": "MOLEDO CMN",
      "lon": "-8.867622498792947",
      "lat": "41.84047732696142"
    },
    {
      "id": "pt.ine.add.PTCONT.5187558",
      "street": "R ANDOREIRAS",
      "house": "778",
      "postcode": "4910-211",
      "city": "MOLEDO CMN",
      "lon": "-8.864721599682653",
      "lat": "41.84159423623874"
    },
    {
      "id": "pt.ine.add.PTCONT.5190633",
      "street": "R ANDOREIRAS",
      "house": "851",
      "postcode": "4910-211",
      "city": "MOLEDO CMN",
      "lon": "-8.865537691478288",
      "lat": "41.84136395415293"
    },
    {
      "id": "pt.ine.add.PTCONT.5193061",
      "street": "R ANDOREIRAS",
      "house": "525",
      "postcode": "4910-211",
      "city": "MOLEDO CMN",
      "lon": "-8.861900991955345",
      "lat": "41.8423684399528"
    },
    {
      "id": "pt.ine.add.PTCONT.5201383",
      "street": "R ANDOREIRAS",
      "house": "",
      "postcode": "4910-211",
      "city": "MOLEDO CMN",
      "lon": "-8.865813562597006",
      "lat": "41.841272162281804"
    },
    {
      "id": "pt.ine.add.PTCONT.5201537",
      "street": "R CESAR ALVES DE OLIVEIRA",
      "house": "106",
      "postcode": "4910-279",
      "city": "MOLEDO CMN",
      "lon": "-8.860624128661685",
      "lat": "41.840188749214875"
    },
    {
      "id": "pt.ine.add.PTCONT.5203084",
      "street": "R ANDOREIRAS",
      "house": "",
      "postcode": "4910-211",
      "city": "MOLEDO CMN",
      "lon": "-8.866711245624309",
      "lat": "41.840807267279516"
    },
    {
      "id": "pt.ine.add.PTCONT.5216222",
      "street": "R CESAR ALVES DE OLIVEIRA",
      "house": "42",
      "postcode": "4910-279",
      "city": "MOLEDO CMN",
      "lon": "-8.86052363003318",
      "lat": "41.84088263481142"
    },
    {
      "id": "pt.ine.add.PTCONT.5216223",
      "street": "R PERRINCHÃO",
      "house": "24",
      "postcode": "4910-279",
      "city": "MOLEDO CMN",
      "lon": "-8.858842140461421",
      "lat": "41.841244397982976"
    },
    {
      "id": "pt.ine.add.PTCONT.5225773",
      "street": "TV ANDOREIRAS",
      "house": "",
      "postcode": "4910-211",
      "city": "MOLEDO CMN",
      "lon": "-8.866442379975673",
      "lat": "41.840457858158686"
    },
    {
      "id": "pt.ine.add.PTCONT.5226901",
      "street": "R ANDOREIRAS",
      "house": "831",
      "postcode": "4910-211",
      "city": "MOLEDO CMN",
      "lon": "-8.865201726835302",
      "lat": "41.84146513164701"
    },
    {
      "id": "pt.ine.add.PTCONT.5229126",
      "street": "R ANDOREIRAS",
      "house": "",
      "postcode": "4910-211",
      "city": "MOLEDO CMN",
      "lon": "-8.866015657826296",
      "lat": "41.841045792055766"
    },
    {
      "id": "pt.ine.add.PTCONT.5232673",
      "street": "R ANDOREIRAS",
      "house": "733",
      "postcode": "4910-211",
      "city": "MOLEDO CMN",
      "lon": "-8.864390598668178",
      "lat": "41.84107415670171"
    },
    {
      "id": "pt.ine.add.PTCONT.5238797",
      "street": "TV ANDOREIRAS",
      "house": "",
      "postcode": "4910-211",
      "city": "MOLEDO CMN",
      "lon": "-8.865494388101474",
      "lat": "41.84073400399648"
    },
    {
      "id": "pt.ine.add.PTCONT.5246714",
      "street": "R CRUZADOS",
      "house": "",
      "postcode": "4910-670",
      "city": "MOLEDO CMN",
      "lon": "-8.867056054131073",
      "lat": "41.84042692862673"
    },
    {
      "id": "pt.ine.add.PTCONT.5250385",
      "street": "R ANDOREIRAS",
      "house": "833",
      "postcode": "4910-211",
      "city": "MOLEDO CMN",
      "lon": "-8.865297628870845",
      "lat": "41.8414285073958"
    },
    {
      "id": "pt.ine.add.PTCONT.5251604",
      "street": "R CESAR ALVES OLIVEIRA",
      "house": "124",
      "postcode": "4910-279",
      "city": "MOLEDO CMN",
      "lon": "-8.860634841824927",
      "lat": "41.840071639297406"
    },
    {
      "id": "pt.ine.add.PTCONT.5254886",
      "street": "R DAS ANDOREIRAS",
      "house": "879",
      "postcode": "4910-211",
      "city": "MOLEDO CMN",
      "lon": "-8.865813562597006",
      "lat": "41.841272162281804"
    },
    {
      "id": "pt.ine.add.PTCONT.5265551",
      "street": "R ANDOREIRAS",
      "house": "",
      "postcode": "4910-211",
      "city": "MOLEDO CMN",
      "lon": "-8.866123289505376",
      "lat": "41.84098208256741"
    },
    {
      "id": "pt.ine.add.PTCONT.5271251",
      "street": "R ANDOREIRAS",
      "house": "",
      "postcode": "4910-211",
      "city": "MOLEDO CMN",
      "lon": "-8.859349789820318",
      "lat": "41.84248363533762"
    },
    {
      "id": "pt.ine.add.PTCONT.5276877",
      "street": "R CESAR ALVES DE OLIVEIRA",
      "house": "62",
      "postcode": "4910-279",
      "city": "MOLEDO CMN",
      "lon": "-8.860544343134542",
      "lat": "41.84058539689446"
    },
    {
      "id": "pt.ine.add.PTCONT.5280484",
      "street": "R SINO DOS MOUROS",
      "house": "",
      "postcode": "4910-689",
      "city": "MOLEDO CMN",
      "lon": "-8.86715493736801",
      "lat": "41.840651377534165"
    },
    {
      "id": "pt.ine.add.PTCONT.5283332",
      "street": "R SINO DOS MOUROS",
      "house": "",
      "postcode": "4910-689",
      "city": "MOLEDO CMN",
      "lon": "-8.86738367671951",
      "lat": "41.840649915428955"
    },
    {
      "id": "pt.ine.add.PTCONT.5283825",
      "street": "R ANDOREIRAS",
      "house": "",
      "postcode": "4910-211",
      "city": "MOLEDO CMN",
      "lon": "-8.861119154988764",
      "lat": "41.8424364209112"
    },
    {
      "id": "pt.ine.add.PTCONT.5284091",
      "street": "R CESAR ALVES DE OLIVEIRA",
      "house": "50",
      "postcode": "4910-279",
      "city": "MOLEDO CMN",
      "lon": "-8.860557707615746",
      "lat": "41.84070235429851"
    }
  ]
}