{
  "data": {
    "distrito": "Aveiro",
    "concelho": "Águeda",
    "freguesia": "União das freguesias de Trofa, Segadães e Lamas do Vouga",
    "OBJECTID": 355,
    "BGRI2021": "01012600321",
    "DT21": "01",
    "DTMN21": "0101",
    "DTMNFR21": "010126",
    "DTMNFRSEC21": "010126003",
    "SECNUM21": "003",
    "SSNUM21": "21",
    "SECSSNUM21": "00321",
    "OBJECTID_1": 196,
    "DT": "01",
    "CC": "01",
    "fr": "26",
    "SEC": "003",
    "SS": "21"
  },
  "addresses": [
    {
      "id": "pt.ine.add.PTCONT.299949",
      "street": "R VALE DA IGREJA",
      "house": "",
      "postcode": "3750-742",
      "city": "SEGADÃES",
      "lon": "-8.488740970978178",
      "lat": "40.60981757873245"
    },
    {
      "id": "pt.ine.add.PTCONT.300369",
      "street": "R FIDALGO",
      "house": "342",
      "postcode": "3750-742",
      "city": "SEGADÃES",
      "lon": "-8.487788549423243",
      "lat": "40.608469724203985"
    },
    {
      "id": "pt.ine.add.PTCONT.302866",
      "street": "R CESAR BARATA",
      "house": "168",
      "postcode": "3750-791",
      "city": "TROFA AGD",
      "lon": "-8.481877557314432",
      "lat": "40.61016269562943"
    },
    {
      "id": "pt.ine.add.PTCONT.305539",
      "street": "R ESCOLA",
      "house": "",
      "postcode": "3750-742",
      "city": "SEGADÃES",
      "lon": "-8.491320548004762",
      "lat": "40.608287724943246"
    },
    {
      "id": "pt.ine.add.PTCONT.305540",
      "street": "R AGARIMA",
      "house": "",
      "postcode": "3750-742",
      "city": "SEGADÃES",
      "lon": "-8.49622246412622",
      "lat": "40.60797524594861"
    },
    {
      "id": "pt.ine.add.PTCONT.305541",
      "street": "R ESCOLA",
      "house": "",
      "postcode": "3750-742",
      "city": "SEGADÃES",
      "lon": "-8.49608537855432",
      "lat": "40.60666091432453"
    },
    {
      "id": "pt.ine.add.PTCONT.318713",
      "street": "R ESCOLA",
      "house": "640",
      "postcode": "3750-742",
      "city": "SEGADÃES",
      "lon": "-8.496692504155437",
      "lat": "40.607496490512894"
    },
    {
      "id": "pt.ine.add.PTCONT.321018",
      "street": "R AGARIMA",
      "house": "16",
      "postcode": "3750-742",
      "city": "SEGADÃES",
      "lon": "-8.495289852981106",
      "lat": "40.608131262902596"
    },
    {
      "id": "pt.ine.add.PTCONT.330000",
      "street": "R VALE DA IGREJA",
      "house": "63",
      "postcode": "3750-742",
      "city": "SEGADÃES",
      "lon": "-8.487083689857924",
      "lat": "40.60924633559537"
    },
    {
      "id": "pt.ine.add.PTCONT.332176",
      "street": "R JUNQUEIRA",
      "house": "",
      "postcode": "3750-742",
      "city": "SEGADÃES",
      "lon": "-8.486174528955189",
      "lat": "40.609375191421776"
    },
    {
      "id": "pt.ine.add.PTCONT.348678",
      "street": "R FIDALGO",
      "house": "140",
      "postcode": "3750-742",
      "city": "SEGADÃES",
      "lon": "-8.485583401504815",
      "lat": "40.60931396034005"
    },
    {
      "id": "pt.ine.add.PTCONT.352079",
      "street": "R FIDALGO",
      "house": "",
      "postcode": "3750-742",
      "city": "SEGADÃES",
      "lon": "-8.486007542764996",
      "lat": "40.60907852944886"
    },
    {
      "id": "pt.ine.add.PTCONT.10801",
      "street": "R MADORNO",
      "house": "53",
      "postcode": "3750-742",
      "city": "SEGADÃES",
      "lon": "-8.489926387936194",
      "lat": "40.60831005078236"
    },
    {
      "id": "pt.ine.add.PTCONT.31211",
      "street": "R AGARIMA",
      "house": "100",
      "postcode": "3750-742",
      "city": "SEGADÃES",
      "lon": "-8.49625947096397",
      "lat": "40.608263296685756"
    },
    {
      "id": "pt.ine.add.PTCONT.34021",
      "street": "R FIDALGO",
      "house": "",
      "postcode": "3750-742",
      "city": "SEGADÃES",
      "lon": "-8.487423069278142",
      "lat": "40.60862393471587"
    },
    {
      "id": "pt.ine.add.PTCONT.43076",
      "street": "R VALE DA IGREJA",
      "house": "92",
      "postcode": "3750-742",
      "city": "SEGADÃES",
      "lon": "-8.487286319249495",
      "lat": "40.609578907587085"
    },
    {
      "id": "pt.ine.add.PTCONT.45830",
      "street": "R CESAR BARATA",
      "house": "412",
      "postcode": "3750-791",
      "city": "TROFA AGD",
      "lon": "-8.484592280054363",
      "lat": "40.60958713734179"
    },
    {
      "id": "pt.ine.add.PTCONT.59002",
      "street": "R ESCOLA",
      "house": "612",
      "postcode": "3750-742",
      "city": "SEGADÃES",
      "lon": "-8.4962559613488",
      "lat": "40.60761493175785"
    },
    {
      "id": "pt.ine.add.PTCONT.61652",
      "street": "R ESCOLA",
      "house": "510",
      "postcode": "3750-742",
      "city": "SEGADÃES",
      "lon": "-8.494911507952414",
      "lat": "40.60808742256496"
    },
    {
      "id": "pt.ine.add.PTCONT.65973",
      "street": "R ESCOLA",
      "house": "436",
      "postcode": "3750-742",
      "city": "SEGADÃES",
      "lon": "-8.494073417843254",
      "lat": "40.60824313357651"
    },
    {
      "id": "pt.ine.add.PTCONT.86479",
      "street": "R CESAR BARATA",
      "house": "108",
      "postcode": "3750-791",
      "city": "TROFA AGD",
      "lon": "-8.48127638665188",
      "lat": "40.61044367121452"
    },
    {
      "id": "pt.ine.add.PTCONT.94091",
      "street": "R ESCOLA",
      "house": "281",
      "postcode": "3750-742",
      "city": "SEGADÃES",
      "lon": "-8.492054568432364",
      "lat": "40.60855560278823"
    },
    {
      "id": "pt.ine.add.PTCONT.101167",
      "street": "TV VALE DA IGREJA",
      "house": "",
      "postcode": "3750-742",
      "city": "SEGADÃES",
      "lon": "-8.487618070260044",
      "lat": "40.60974898899438"
    },
    {
      "id": "pt.ine.add.PTCONT.101168",
      "street": "R AGARIMA",
      "house": "57",
      "postcode": "3750-742",
      "city": "SEGADÃES",
      "lon": "-8.495749740158331",
      "lat": "40.60795872069137"
    },
    {
      "id": "pt.ine.add.PTCONT.102390",
      "street": "R CAMPO",
      "house": "666",
      "postcode": "3750-742",
      "city": "SEGADÃES",
      "lon": "-8.495826266647597",
      "lat": "40.60681481712075"
    },
    {
      "id": "pt.ine.add.PTCONT.120682",
      "street": "R ESCOLA",
      "house": "598",
      "postcode": "3750-742",
      "city": "SEGADÃES",
      "lon": "-8.49552125363551",
      "lat": "40.607221009614584"
    },
    {
      "id": "pt.ine.add.PTCONT.158644",
      "street": "R JUNQUEIRA",
      "house": "41",
      "postcode": "3750-742",
      "city": "SEGADÃES",
      "lon": "-8.485430267551918",
      "lat": "40.60940447977116"
    },
    {
      "id": "pt.ine.add.PTCONT.173894",
      "street": "R ESCOLA",
      "house": "160",
      "postcode": "3750-742",
      "city": "SEGADÃES",
      "lon": "-8.490681826796",
      "lat": "40.60816363097979"
    },
    {
      "id": "pt.ine.add.PTCONT.175976",
      "street": "R ESCOLA",
      "house": "382",
      "postcode": "3750-742",
      "city": "SEGADÃES",
      "lon": "-8.493329124464207",
      "lat": "40.608263467691906"
    },
    {
      "id": "pt.ine.add.PTCONT.176540",
      "street": "R FIDALGO",
      "house": "",
      "postcode": "3750-742",
      "city": "SEGADÃES",
      "lon": "-8.487352554938646",
      "lat": "40.60869619278193"
    },
    {
      "id": "pt.ine.add.PTCONT.195005",
      "street": "R ESCOLA",
      "house": "532",
      "postcode": "3750-742",
      "city": "SEGADÃES",
      "lon": "-8.495217452057227",
      "lat": "40.60785232803495"
    },
    {
      "id": "pt.ine.add.PTCONT.211505",
      "street": "R ESCOLA",
      "house": "138",
      "postcode": "3750-742",
      "city": "SEGADÃES",
      "lon": "-8.490292579730848",
      "lat": "40.60829090848081"
    },
    {
      "id": "pt.ine.add.PTCONT.224909",
      "street": "R FIDALGO",
      "house": "166",
      "postcode": "3750-742",
      "city": "SEGADÃES",
      "lon": "-8.485854551974628",
      "lat": "40.609196064671586"
    },
    {
      "id": "pt.ine.add.PTCONT.230359",
      "street": "R VALE DA IGREJA",
      "house": "171",
      "postcode": "3750-742",
      "city": "SEGADÃES",
      "lon": "-8.488089423199899",
      "lat": "40.60950440034188"
    },
    {
      "id": "pt.ine.add.PTCONT.230365",
      "street": "R ESCOLA",
      "house": "398",
      "postcode": "3750-742",
      "city": "SEGADÃES",
      "lon": "-8.493506360253763",
      "lat": "40.60826291479964"
    },
    {
      "id": "pt.ine.add.PTCONT.232944",
      "street": "R FIDALGO",
      "house": "",
      "postcode": "3750-742",
      "city": "SEGADÃES",
      "lon": "-8.487021949966861",
      "lat": "40.60874223239137"
    },
    {
      "id": "pt.ine.add.PTCONT.232958",
      "street": "R AGARIMA",
      "house": "44",
      "postcode": "3750-742",
      "city": "SEGADÃES",
      "lon": "-8.495561857186765",
      "lat": "40.60817543575618"
    },
    {
      "id": "pt.ine.add.PTCONT.241099",
      "street": "R AGARIMA",
      "house": "90",
      "postcode": "3750-742",
      "city": "SEGADÃES",
      "lon": "-8.496070370791267",
      "lat": "40.60825488586593"
    },
    {
      "id": "pt.ine.add.PTCONT.244000",
      "street": "R ESCOLA",
      "house": "186",
      "postcode": "3750-742",
      "city": "SEGADÃES",
      "lon": "-8.490918477096697",
      "lat": "40.608225934660744"
    },
    {
      "id": "pt.ine.add.PTCONT.244001",
      "street": "R ESCOLA",
      "house": "",
      "postcode": "3750-742",
      "city": "SEGADÃES",
      "lon": "-8.494510599280229",
      "lat": "40.60824176646702"
    },
    {
      "id": "pt.ine.add.PTCONT.257414",
      "street": "R ESCOLA",
      "house": "648",
      "postcode": "3750-742",
      "city": "SEGADÃES",
      "lon": "-8.4957795402676",
      "lat": "40.606914021306864"
    },
    {
      "id": "pt.ine.add.PTCONT.262852",
      "street": "R ESCOLA",
      "house": "672",
      "postcode": "3750-742",
      "city": "SEGADÃES",
      "lon": "-8.495979429291824",
      "lat": "40.6067332890215"
    },
    {
      "id": "pt.ine.add.PTCONT.275884",
      "street": "R ESCOLA",
      "house": "434",
      "postcode": "3750-742",
      "city": "SEGADÃES",
      "lon": "-8.488649095648745",
      "lat": "40.60808885909942"
    },
    {
      "id": "pt.ine.add.PTCONT.276303",
      "street": "R VALE DA IGREJA",
      "house": "",
      "postcode": "3750-742",
      "city": "SEGADÃES",
      "lon": "-8.487817466006586",
      "lat": "40.60946921497707"
    },
    {
      "id": "pt.ine.add.PTCONT.279067",
      "street": "R FIDALGO",
      "house": "94",
      "postcode": "3750-742",
      "city": "SEGADÃES",
      "lon": "-8.48507588411726",
      "lat": "40.6094235706778"
    },
    {
      "id": "pt.ine.add.PTCONT.279078",
      "street": "R VALE DA IGREJA",
      "house": "117",
      "postcode": "3750-742",
      "city": "SEGADÃES",
      "lon": "-8.487474185381808",
      "lat": "40.60935320083299"
    },
    {
      "id": "pt.ine.add.PTCONT.284238",
      "street": "R ESCOLA",
      "house": "416",
      "postcode": "3750-742",
      "city": "SEGADÃES",
      "lon": "-8.493766644945648",
      "lat": "40.60832513889158"
    }
  ]
}