{
  "data": {
    "distrito": "Lisboa",
    "concelho": "Loures",
    "freguesia": "União das freguesias de Camarate, Unhos e Apelação",
    "OBJECTID": 210,
    "BGRI2021": "11073102504",
    "DT21": "11",
    "DTMN21": "1107",
    "DTMNFR21": "110731",
    "DTMNFRSEC21": "110731025",
    "SECNUM21": "025",
    "SSNUM21": "04",
    "SECSSNUM21": "02504",
    "OBJECTID_1": 105382,
    "DT": "11",
    "CC": "07",
    "fr": "31",
    "SEC": "025",
    "SS": "04"
  },
  "addresses": [
    {
      "id": "pt.ine.add.PTCONT.2984922",
      "street": "R 13 DE DEZEMBRO",
      "house": "",
      "postcode": "2680-371",
      "city": "UNHOS",
      "lon": "-9.121156160330601",
      "lat": "38.81699085613447"
    },
    {
      "id": "pt.ine.add.PTCONT.3038805",
      "street": "R 13 DE DEZEMBRO",
      "house": "",
      "postcode": "2680-371",
      "city": "UNHOS",
      "lon": "-9.121223866238289",
      "lat": "38.81689119828098"
    },
    {
      "id": "pt.ine.add.PTCONT.3038806",
      "street": "R 13 DE DEZEMBRO",
      "house": "",
      "postcode": "2680-371",
      "city": "UNHOS",
      "lon": "-9.121223866238289",
      "lat": "38.81689119828098"
    },
    {
      "id": "pt.ine.add.PTCONT.3038807",
      "street": "R 13 DE DEZEMBRO",
      "house": "",
      "postcode": "2680-371",
      "city": "UNHOS",
      "lon": "-9.121223866238289",
      "lat": "38.81689119828098"
    },
    {
      "id": "pt.ine.add.PTCONT.3038808",
      "street": "R 13 DEZEMBRO",
      "house": "",
      "postcode": "2680-371",
      "city": "UNHOS",
      "lon": "-9.121223866238289",
      "lat": "38.81689119828098"
    },
    {
      "id": "pt.ine.add.PTCONT.3042554",
      "street": "R 13 DEZEMBRO",
      "house": "",
      "postcode": "2680-371",
      "city": "UNHOS",
      "lon": "-9.121223866238289",
      "lat": "38.81689119828098"
    },
    {
      "id": "pt.ine.add.PTCONT.3042824",
      "street": "R 13 DE DEZEMBRO",
      "house": "",
      "postcode": "2680-371",
      "city": "UNHOS",
      "lon": "-9.121223866238289",
      "lat": "38.81689119828098"
    },
    {
      "id": "pt.ine.add.PTCONT.3086659",
      "street": "R AVENTUREIROS",
      "house": "",
      "postcode": "2680-338",
      "city": "UNHOS",
      "lon": "-9.120983721607363",
      "lat": "38.817010329917444"
    },
    {
      "id": "pt.ine.add.PTCONT.3086660",
      "street": "R AVENTUREIROS",
      "house": "",
      "postcode": "2680-338",
      "city": "UNHOS",
      "lon": "-9.120983721607363",
      "lat": "38.817010329917444"
    },
    {
      "id": "pt.ine.add.PTCONT.3123151",
      "street": "R 25 DE ABRIL",
      "house": "30",
      "postcode": "2680-373",
      "city": "UNHOS",
      "lon": "-9.121219634434068",
      "lat": "38.816584970705755"
    },
    {
      "id": "pt.ine.add.PTCONT.3132175",
      "street": "R 25 DE ABRIL",
      "house": "",
      "postcode": "2680-373",
      "city": "UNHOS",
      "lon": "-9.12104657449612",
      "lat": "38.81655941110019"
    },
    {
      "id": "pt.ine.add.PTCONT.3140947",
      "street": "R AVENTUREIROS",
      "house": "",
      "postcode": "2680-338",
      "city": "UNHOS",
      "lon": "-9.12095167272345",
      "lat": "38.81719075583749"
    },
    {
      "id": "pt.ine.add.PTCONT.3225109",
      "street": "R 13 DE DEZEMBRO",
      "house": "",
      "postcode": "2680-371",
      "city": "UNHOS",
      "lon": "-9.121193436026498",
      "lat": "38.817188711269054"
    },
    {
      "id": "pt.ine.add.PTCONT.3225110",
      "street": "R 13 DE DEZEMBRO",
      "house": "",
      "postcode": "2680-371",
      "city": "UNHOS",
      "lon": "-9.121193436026498",
      "lat": "38.817188711269054"
    },
    {
      "id": "pt.ine.add.PTCONT.3452863",
      "street": "R NASCENTE TRISTAO",
      "house": "TRISTAO",
      "postcode": "2680-360",
      "city": "UNHOS",
      "lon": "-9.121093805620834",
      "lat": "38.81747780174419"
    },
    {
      "id": "pt.ine.add.PTCONT.2269873",
      "street": "R AVENTUREIROS",
      "house": "",
      "postcode": "2680-338",
      "city": "UNHOS",
      "lon": "-9.120872951296715",
      "lat": "38.81732653765215"
    },
    {
      "id": "pt.ine.add.PTCONT.2269874",
      "street": "R AVENTUREIROS",
      "house": "",
      "postcode": "2680-338",
      "city": "UNHOS",
      "lon": "-9.120872951296715",
      "lat": "38.81732653765215"
    },
    {
      "id": "pt.ine.add.PTCONT.2488996",
      "street": "R 13 DE DEZEMBRO",
      "house": "",
      "postcode": "2680-371",
      "city": "UNHOS",
      "lon": "-9.121183043647408",
      "lat": "38.817269868875435"
    },
    {
      "id": "pt.ine.add.PTCONT.2488997",
      "street": "R 13 DEZEMBRO NEVES",
      "house": "NEVES",
      "postcode": "2680-371",
      "city": "UNHOS",
      "lon": "-9.121183043647408",
      "lat": "38.817269868875435"
    },
    {
      "id": "pt.ine.add.PTCONT.2563915",
      "street": "R AVENTUREIROS",
      "house": "",
      "postcode": "2680-338",
      "city": "UNHOS",
      "lon": "-9.120918006107411",
      "lat": "38.81725409473213"
    },
    {
      "id": "pt.ine.add.PTCONT.2642955",
      "street": "R AVENTUREIROS",
      "house": "",
      "postcode": "2680-338",
      "city": "UNHOS",
      "lon": "-9.121027905023988",
      "lat": "38.816874840099324"
    },
    {
      "id": "pt.ine.add.PTCONT.2642956",
      "street": "R AVENTUREIROS",
      "house": "",
      "postcode": "2680-338",
      "city": "UNHOS",
      "lon": "-9.12101452594893",
      "lat": "38.81673983704647"
    },
    {
      "id": "pt.ine.add.PTCONT.2677334",
      "street": "R 13 DE DEZEMBRO",
      "house": "",
      "postcode": "2680-371",
      "city": "UNHOS",
      "lon": "-9.121203330527546",
      "lat": "38.817071526889386"
    },
    {
      "id": "pt.ine.add.PTCONT.2677336",
      "street": "R 13 DEZEMBRO HORTENCIA",
      "house": "HORTENCIA",
      "postcode": "2680-371",
      "city": "UNHOS",
      "lon": "-9.121203330527546",
      "lat": "38.817071526889386"
    },
    {
      "id": "pt.ine.add.PTCONT.2788345",
      "street": "R NASCENTE",
      "house": "",
      "postcode": "2680-360",
      "city": "UNHOS",
      "lon": "-9.120966669443709",
      "lat": "38.81744284589781"
    }
  ]
}