{
  "data": {
    "distrito": "Évora",
    "concelho": "Arraiolos",
    "freguesia": "Arraiolos",
    "OBJECTID": 232,
    "BGRI2021": "07020100328",
    "DT21": "07",
    "DTMN21": "0702",
    "DTMNFR21": "070201",
    "DTMNFRSEC21": "070201003",
    "SECNUM21": "003",
    "SSNUM21": "28",
    "SECSSNUM21": "00328",
    "OBJECTID_1": 58834,
    "DT": "07",
    "CC": "02",
    "fr": "01",
    "SEC": "003",
    "SS": "28"
  },
  "addresses": [
    {
      "id": "pt.ine.add.PTCONT.1373001",
      "street": "QTA MARAFONAS",
      "house": "3",
      "postcode": "7040-130",
      "city": "ARRAIOLOS",
      "lon": "-7.978517048958313",
      "lat": "38.726995157250805"
    },
    {
      "id": "pt.ine.add.PTCONT.1376793",
      "street": "MTE OLIVAL",
      "house": "",
      "postcode": "7040-130",
      "city": "ARRAIOLOS",
      "lon": "-7.9777034431231915",
      "lat": "38.73097568738746"
    },
    {
      "id": "pt.ine.add.PTCONT.1381833",
      "street": "PASSAGEM NIVEL AO KM 141 903",
      "house": "",
      "postcode": "7040-130",
      "city": "ARRAIOLOS",
      "lon": "-7.96740563048655",
      "lat": "38.73312350358197"
    },
    {
      "id": "pt.ine.add.PTCONT.1383642",
      "street": "QTA MARAFONAS",
      "house": "4",
      "postcode": "7040-130",
      "city": "ARRAIOLOS",
      "lon": "-7.978505704538104",
      "lat": "38.726923076907454"
    },
    {
      "id": "pt.ine.add.PTCONT.1387194",
      "street": "MTE DA CARTAXA",
      "house": "",
      "postcode": "7040-130",
      "city": "ARRAIOLOS",
      "lon": "-7.957175468787517",
      "lat": "38.74026102780061"
    },
    {
      "id": "pt.ine.add.PTCONT.1392139",
      "street": "QTA MARAFONAS",
      "house": "1",
      "postcode": "7040-130",
      "city": "ARRAIOLOS",
      "lon": "-7.978574237101494",
      "lat": "38.727139363536715"
    },
    {
      "id": "pt.ine.add.PTCONT.1392140",
      "street": "MTE OLEIRITA",
      "house": "2",
      "postcode": "7040-130",
      "city": "ARRAIOLOS",
      "lon": "-7.96285518994826",
      "lat": "38.746034647937385"
    },
    {
      "id": "pt.ine.add.PTCONT.1395225",
      "street": "QTA MARAFONAS",
      "house": "2",
      "postcode": "7040-130",
      "city": "ARRAIOLOS",
      "lon": "-7.978551392868013",
      "lat": "38.72706726799888"
    },
    {
      "id": "pt.ine.add.PTCONT.1400710",
      "street": "CASA CANTONEIROS",
      "house": "",
      "postcode": "7040-130",
      "city": "ARRAIOLOS",
      "lon": "-7.94831938252768",
      "lat": "38.74012125037766"
    },
    {
      "id": "pt.ine.add.PTCONT.1403035",
      "street": "MTE DA BELA VISTA",
      "house": "",
      "postcode": "7040-130",
      "city": "ARRAIOLOS",
      "lon": "-7.977347656444491",
      "lat": "38.7253451102527"
    },
    {
      "id": "pt.ine.add.PTCONT.1405947",
      "street": "HRD DO MONTE NOVO",
      "house": "",
      "postcode": "7040-130",
      "city": "ARRAIOLOS",
      "lon": "-7.965834278542788",
      "lat": "38.73130161783589"
    },
    {
      "id": "pt.ine.add.PTCONT.1407588",
      "street": "QTA MARAFONAS",
      "house": "6",
      "postcode": "7040-130",
      "city": "ARRAIOLOS",
      "lon": "-7.9784257698230245",
      "lat": "38.72666173430425"
    },
    {
      "id": "pt.ine.add.PTCONT.1422289",
      "street": "QTA SECA",
      "house": "1",
      "postcode": "7040-130",
      "city": "ARRAIOLOS",
      "lon": "-7.974922522525434",
      "lat": "38.72477433950345"
    },
    {
      "id": "pt.ine.add.PTCONT.1428289",
      "street": "",
      "house": "",
      "postcode": "7040-000",
      "city": "",
      "lon": "-7.9620758246796814",
      "lat": "38.735205719815966"
    },
    {
      "id": "pt.ine.add.PTCONT.1433150",
      "street": "QTA MARAFONAS",
      "house": "5",
      "postcode": "7040-130",
      "city": "ARRAIOLOS",
      "lon": "-7.9784485943827015",
      "lat": "38.72674283801358"
    },
    {
      "id": "pt.ine.add.PTCONT.1437464",
      "street": "MTE OLEIRITA",
      "house": "1",
      "postcode": "7040-130",
      "city": "ARRAIOLOS",
      "lon": "-7.962314173652539",
      "lat": "38.7461960051945"
    },
    {
      "id": "pt.ine.add.PTCONT.1446823",
      "street": "HORTA DOS COITOS",
      "house": "",
      "postcode": "7040-130",
      "city": "ARRAIOLOS",
      "lon": "-7.986692896725084",
      "lat": "38.74413018510916"
    },
    {
      "id": "pt.ine.add.PTCONT.1446824",
      "street": "HORTA DO MONTE NOVO",
      "house": "",
      "postcode": "7040-130",
      "city": "ARRAIOLOS",
      "lon": "-7.966561958814963",
      "lat": "38.734896911439854"
    },
    {
      "id": "pt.ine.add.PTCONT.1447614",
      "street": "HORTA DA CABREIRA",
      "house": "",
      "postcode": "7040-130",
      "city": "ARRAIOLOS",
      "lon": "-7.979067024005494",
      "lat": "38.72793273254233"
    },
    {
      "id": "pt.ine.add.PTCONT.1455691",
      "street": "QTA SECA",
      "house": "9",
      "postcode": "7040-130",
      "city": "ARRAIOLOS",
      "lon": "-7.974325592279446",
      "lat": "38.724305105446234"
    },
    {
      "id": "pt.ine.add.PTCONT.1457503",
      "street": "MTE DO NOBRE",
      "house": "",
      "postcode": "7040-130",
      "city": "ARRAIOLOS",
      "lon": "-7.963055864985859",
      "lat": "38.74387298678673"
    },
    {
      "id": "pt.ine.add.PTCONT.1459153",
      "street": "MOINHO DA LIBERDADE",
      "house": "",
      "postcode": "7040-130",
      "city": "ARRAIOLOS",
      "lon": "-7.966666935132136",
      "lat": "38.74417545261846"
    },
    {
      "id": "pt.ine.add.PTCONT.1463564",
      "street": "FERRAGIAL PONTÃO SERROES",
      "house": "APT 7",
      "postcode": "7040-130",
      "city": "ARRAIOLOS",
      "lon": "-7.973683053293609",
      "lat": "38.72366465085373"
    },
    {
      "id": "pt.ine.add.PTCONT.1464319",
      "street": "HORTA DO DUQUE",
      "house": "",
      "postcode": "7040-130",
      "city": "ARRAIOLOS",
      "lon": "-7.984459269081986",
      "lat": "38.74516330239783"
    },
    {
      "id": "pt.ine.add.PTCONT.1464447",
      "street": "MTE OLEIRITA",
      "house": "3",
      "postcode": "7040-130",
      "city": "ARRAIOLOS",
      "lon": "-7.963073400670112",
      "lat": "38.74617909572971"
    },
    {
      "id": "pt.ine.add.PTCONT.1465339",
      "street": "MTE OLIVAL",
      "house": "",
      "postcode": "7040-130",
      "city": "ARRAIOLOS",
      "lon": "-7.977089103988813",
      "lat": "38.733190876465926"
    }
  ]
}