{
  "data": {
    "distrito": "Leiria",
    "concelho": "Nazaré",
    "freguesia": "Nazaré",
    "OBJECTID": 49,
    "BGRI2021": "10110201504",
    "DT21": "10",
    "DTMN21": "1011",
    "DTMNFR21": "101102",
    "DTMNFRSEC21": "101102015",
    "SECNUM21": "015",
    "SSNUM21": "04",
    "SECSSNUM21": "01504",
    "OBJECTID_1": 92980,
    "DT": "10",
    "CC": "11",
    "fr": "02",
    "SEC": "015",
    "SS": "04"
  },
  "addresses": [
    {
      "id": "pt.ine.add.PTCONT.1992145",
      "street": "R FORNO DA CAL",
      "house": "",
      "postcode": "2450-065",
      "city": "NAZARÉ",
      "lon": "-9.070900310749822",
      "lat": "39.60747874012074"
    },
    {
      "id": "pt.ine.add.PTCONT.1992146",
      "street": "R FORNO DA CAL",
      "house": "",
      "postcode": "2450-065",
      "city": "NAZARÉ",
      "lon": "-9.070900310749822",
      "lat": "39.60747874012074"
    },
    {
      "id": "pt.ine.add.PTCONT.1992147",
      "street": "R FORNO DA CAL",
      "house": "",
      "postcode": "2450-065",
      "city": "NAZARÉ",
      "lon": "-9.070900310749822",
      "lat": "39.60747874012074"
    },
    {
      "id": "pt.ine.add.PTCONT.1992148",
      "street": "R FORNO DA CAL",
      "house": "",
      "postcode": "2450-065",
      "city": "NAZARÉ",
      "lon": "-9.070900310749822",
      "lat": "39.60747874012074"
    },
    {
      "id": "pt.ine.add.PTCONT.1992149",
      "street": "R FORNO DA CAL",
      "house": "",
      "postcode": "2450-065",
      "city": "NAZARÉ",
      "lon": "-9.070900310749822",
      "lat": "39.60747874012074"
    },
    {
      "id": "pt.ine.add.PTCONT.1992766",
      "street": "R FORNO DA CAL",
      "house": "",
      "postcode": "2450-065",
      "city": "NAZARÉ",
      "lon": "-9.070900310749822",
      "lat": "39.60747874012074"
    },
    {
      "id": "pt.ine.add.PTCONT.2011781",
      "street": "R PROF VIRGILIA",
      "house": "B",
      "postcode": "2450-065",
      "city": "NAZARÉ",
      "lon": "-9.071498425405608",
      "lat": "39.60693351563337"
    },
    {
      "id": "pt.ine.add.PTCONT.2011782",
      "street": "R PROF VIRGILIA",
      "house": "B",
      "postcode": "2450-065",
      "city": "NAZARÉ",
      "lon": "-9.071498425405608",
      "lat": "39.60693351563337"
    },
    {
      "id": "pt.ine.add.PTCONT.2011784",
      "street": "R PROF VIRGILIA",
      "house": "B",
      "postcode": "2450-065",
      "city": "NAZARÉ",
      "lon": "-9.071498425405608",
      "lat": "39.60693351563337"
    },
    {
      "id": "pt.ine.add.PTCONT.2011785",
      "street": "R PROF VIRGILIA",
      "house": "B",
      "postcode": "2450-065",
      "city": "NAZARÉ",
      "lon": "-9.071498425405608",
      "lat": "39.60693351563337"
    },
    {
      "id": "pt.ine.add.PTCONT.2011786",
      "street": "R PROF VIRGILIA",
      "house": "B",
      "postcode": "2450-065",
      "city": "NAZARÉ",
      "lon": "-9.071498425405608",
      "lat": "39.60693351563337"
    },
    {
      "id": "pt.ine.add.PTCONT.2011787",
      "street": "R PROF VIRGILIA",
      "house": "B",
      "postcode": "2450-065",
      "city": "NAZARÉ",
      "lon": "-9.071498425405608",
      "lat": "39.60693351563337"
    },
    {
      "id": "pt.ine.add.PTCONT.2011788",
      "street": "R PROF VIRGILIA",
      "house": "B",
      "postcode": "2450-065",
      "city": "NAZARÉ",
      "lon": "-9.071498425405608",
      "lat": "39.60693351563337"
    },
    {
      "id": "pt.ine.add.PTCONT.2011789",
      "street": "R PROF VIRGILIA",
      "house": "B",
      "postcode": "2450-065",
      "city": "NAZARÉ",
      "lon": "-9.071498425405608",
      "lat": "39.60693351563337"
    },
    {
      "id": "pt.ine.add.PTCONT.2011790",
      "street": "R PROF VIRGILIA",
      "house": "1",
      "postcode": "2450-065",
      "city": "NAZARÉ",
      "lon": "-9.071498425405608",
      "lat": "39.60693351563337"
    },
    {
      "id": "pt.ine.add.PTCONT.2011791",
      "street": "R PROF VIRGILIA",
      "house": "B",
      "postcode": "2450-065",
      "city": "NAZARÉ",
      "lon": "-9.071498425405608",
      "lat": "39.60693351563337"
    },
    {
      "id": "pt.ine.add.PTCONT.2011792",
      "street": "R PROF VIRGILIA",
      "house": "B",
      "postcode": "2450-065",
      "city": "NAZARÉ",
      "lon": "-9.071498425405608",
      "lat": "39.60693351563337"
    },
    {
      "id": "pt.ine.add.PTCONT.2011793",
      "street": "R PROF VIRGILIA",
      "house": "B",
      "postcode": "2450-065",
      "city": "NAZARÉ",
      "lon": "-9.071498425405608",
      "lat": "39.60693351563337"
    },
    {
      "id": "pt.ine.add.PTCONT.2019320",
      "street": "R SERRACAO",
      "house": "",
      "postcode": "2450-065",
      "city": "NAZARÉ",
      "lon": "-9.07132831351722",
      "lat": "39.60813276485191"
    },
    {
      "id": "pt.ine.add.PTCONT.2019321",
      "street": "R FORNO DA CAL",
      "house": "",
      "postcode": "2450-065",
      "city": "NAZARÉ",
      "lon": "-9.070115419903841",
      "lat": "39.60798944175968"
    },
    {
      "id": "pt.ine.add.PTCONT.2022949",
      "street": "R SERRACAO",
      "house": "",
      "postcode": "2450-065",
      "city": "NAZARÉ",
      "lon": "-9.071452491753462",
      "lat": "39.607843551366514"
    },
    {
      "id": "pt.ine.add.PTCONT.2022950",
      "street": "R SERRACAO",
      "house": "",
      "postcode": "2450-065",
      "city": "NAZARÉ",
      "lon": "-9.071452491753462",
      "lat": "39.607843551366514"
    },
    {
      "id": "pt.ine.add.PTCONT.2022951",
      "street": "R SERRACAO",
      "house": "",
      "postcode": "2450-065",
      "city": "NAZARÉ",
      "lon": "-9.071452491753462",
      "lat": "39.607843551366514"
    },
    {
      "id": "pt.ine.add.PTCONT.2022952",
      "street": "R SERRACAO",
      "house": "",
      "postcode": "2450-065",
      "city": "NAZARÉ",
      "lon": "-9.071452491753462",
      "lat": "39.607843551366514"
    },
    {
      "id": "pt.ine.add.PTCONT.2026708",
      "street": "R MESTRE DE OBRAS",
      "house": "",
      "postcode": "2450-065",
      "city": "NAZARÉ",
      "lon": "-9.069977529734501",
      "lat": "39.608125652531236"
    },
    {
      "id": "pt.ine.add.PTCONT.2042462",
      "street": "R SERRACAO",
      "house": "",
      "postcode": "2450-065",
      "city": "NAZARÉ",
      "lon": "-9.071145070335747",
      "lat": "39.608359409054806"
    },
    {
      "id": "pt.ine.add.PTCONT.2042463",
      "street": "R SERRACAO",
      "house": "",
      "postcode": "2450-065",
      "city": "NAZARÉ",
      "lon": "-9.071145070335747",
      "lat": "39.608359409054806"
    },
    {
      "id": "pt.ine.add.PTCONT.2042468",
      "street": "R PROF VIRGILIA",
      "house": "A",
      "postcode": "2450-065",
      "city": "NAZARÉ",
      "lon": "-9.07171102842316",
      "lat": "39.60715696274179"
    },
    {
      "id": "pt.ine.add.PTCONT.2042469",
      "street": "R PROF VIRGILIA",
      "house": "A",
      "postcode": "2450-065",
      "city": "NAZARÉ",
      "lon": "-9.07171102842316",
      "lat": "39.60715696274179"
    },
    {
      "id": "pt.ine.add.PTCONT.2042470",
      "street": "R PROF VIRGILIA",
      "house": "A",
      "postcode": "2450-065",
      "city": "NAZARÉ",
      "lon": "-9.07171102842316",
      "lat": "39.60715696274179"
    },
    {
      "id": "pt.ine.add.PTCONT.2042471",
      "street": "R PROF VIRGILIA",
      "house": "A",
      "postcode": "2450-065",
      "city": "NAZARÉ",
      "lon": "-9.07171102842316",
      "lat": "39.60715696274179"
    },
    {
      "id": "pt.ine.add.PTCONT.2042472",
      "street": "R PROF VIRGILIA",
      "house": "A",
      "postcode": "2450-065",
      "city": "NAZARÉ",
      "lon": "-9.07171102842316",
      "lat": "39.60715696274179"
    },
    {
      "id": "pt.ine.add.PTCONT.2042473",
      "street": "R PROF VIRGILIA",
      "house": "",
      "postcode": "2450-065",
      "city": "NAZARÉ",
      "lon": "-9.07171102842316",
      "lat": "39.60715696274179"
    },
    {
      "id": "pt.ine.add.PTCONT.2042474",
      "street": "R PROF VIRGILIA",
      "house": "A",
      "postcode": "2450-065",
      "city": "NAZARÉ",
      "lon": "-9.07171102842316",
      "lat": "39.60715696274179"
    },
    {
      "id": "pt.ine.add.PTCONT.2042475",
      "street": "R PROF VIRGILIA",
      "house": "A",
      "postcode": "2450-065",
      "city": "NAZARÉ",
      "lon": "-9.07171102842316",
      "lat": "39.60715696274179"
    },
    {
      "id": "pt.ine.add.PTCONT.2042476",
      "street": "R PROF VIRGILIA",
      "house": "A",
      "postcode": "2450-065",
      "city": "NAZARÉ",
      "lon": "-9.07171102842316",
      "lat": "39.60715696274179"
    },
    {
      "id": "pt.ine.add.PTCONT.2042477",
      "street": "R PROF VIRGILIA",
      "house": "A",
      "postcode": "2450-065",
      "city": "NAZARÉ",
      "lon": "-9.07171102842316",
      "lat": "39.60715696274179"
    },
    {
      "id": "pt.ine.add.PTCONT.2042478",
      "street": "R PROF VIRGILIA",
      "house": "A",
      "postcode": "2450-065",
      "city": "NAZARÉ",
      "lon": "-9.07171102842316",
      "lat": "39.60715696274179"
    },
    {
      "id": "pt.ine.add.PTCONT.2043035",
      "street": "R PROF VIRGILIA",
      "house": "A",
      "postcode": "2450-065",
      "city": "NAZARÉ",
      "lon": "-9.07171102842316",
      "lat": "39.60715696274179"
    },
    {
      "id": "pt.ine.add.PTCONT.2044617",
      "street": "R FORNO DA CAL",
      "house": "",
      "postcode": "2450-065",
      "city": "NAZARÉ",
      "lon": "-9.070564500503254",
      "lat": "39.607616549056104"
    },
    {
      "id": "pt.ine.add.PTCONT.2044618",
      "street": "R FORNO DA CAL",
      "house": "",
      "postcode": "2450-065",
      "city": "NAZARÉ",
      "lon": "-9.070564500503254",
      "lat": "39.607616549056104"
    },
    {
      "id": "pt.ine.add.PTCONT.2044619",
      "street": "R FORNO DA CAL",
      "house": "",
      "postcode": "2450-065",
      "city": "NAZARÉ",
      "lon": "-9.070564500503254",
      "lat": "39.607616549056104"
    },
    {
      "id": "pt.ine.add.PTCONT.2048706",
      "street": "R FORNO DA CAL",
      "house": "",
      "postcode": "2450-065",
      "city": "NAZARÉ",
      "lon": "-9.070023371798143",
      "lat": "39.608071243356385"
    },
    {
      "id": "pt.ine.add.PTCONT.2055823",
      "street": "R SERRACAO",
      "house": "",
      "postcode": "2450-065",
      "city": "NAZARÉ",
      "lon": "-9.0716918779189",
      "lat": "39.60746334122758"
    },
    {
      "id": "pt.ine.add.PTCONT.2055824",
      "street": "R SERRACAO",
      "house": "",
      "postcode": "2450-065",
      "city": "NAZARÉ",
      "lon": "-9.0716918779189",
      "lat": "39.60746334122758"
    },
    {
      "id": "pt.ine.add.PTCONT.2055825",
      "street": "R SERRACAO",
      "house": "",
      "postcode": "2450-065",
      "city": "NAZARÉ",
      "lon": "-9.0716918779189",
      "lat": "39.60746334122758"
    },
    {
      "id": "pt.ine.add.PTCONT.2055826",
      "street": "R SERRACAO",
      "house": "",
      "postcode": "2450-065",
      "city": "NAZARÉ",
      "lon": "-9.0716918779189",
      "lat": "39.60746334122758"
    },
    {
      "id": "pt.ine.add.PTCONT.2055827",
      "street": "R SERRACAO",
      "house": "",
      "postcode": "2450-065",
      "city": "NAZARÉ",
      "lon": "-9.0716918779189",
      "lat": "39.60746334122758"
    },
    {
      "id": "pt.ine.add.PTCONT.2055828",
      "street": "R SERRACAO",
      "house": "",
      "postcode": "2450-065",
      "city": "NAZARÉ",
      "lon": "-9.0716918779189",
      "lat": "39.60746334122758"
    },
    {
      "id": "pt.ine.add.PTCONT.2055829",
      "street": "R SERRACAO",
      "house": "",
      "postcode": "2450-065",
      "city": "NAZARÉ",
      "lon": "-9.0716918779189",
      "lat": "39.60746334122758"
    },
    {
      "id": "pt.ine.add.PTCONT.2056556",
      "street": "R SERRACAO",
      "house": "",
      "postcode": "2450-065",
      "city": "NAZARÉ",
      "lon": "-9.0716918779189",
      "lat": "39.60746334122758"
    },
    {
      "id": "pt.ine.add.PTCONT.2075790",
      "street": "R SERRACAO",
      "house": "",
      "postcode": "2450-065",
      "city": "NAZARÉ",
      "lon": "-9.071419387613854",
      "lat": "39.60797891744997"
    },
    {
      "id": "pt.ine.add.PTCONT.2075791",
      "street": "R SERRACAO",
      "house": "",
      "postcode": "2450-065",
      "city": "NAZARÉ",
      "lon": "-9.071419387613854",
      "lat": "39.60797891744997"
    },
    {
      "id": "pt.ine.add.PTCONT.2075792",
      "street": "R SERRACAO",
      "house": "",
      "postcode": "2450-065",
      "city": "NAZARÉ",
      "lon": "-9.071419387613854",
      "lat": "39.60797891744997"
    },
    {
      "id": "pt.ine.add.PTCONT.2075793",
      "street": "R SERRACAO",
      "house": "",
      "postcode": "2450-065",
      "city": "NAZARÉ",
      "lon": "-9.071419387613854",
      "lat": "39.60797891744997"
    },
    {
      "id": "pt.ine.add.PTCONT.2075794",
      "street": "R SERRACAO",
      "house": "",
      "postcode": "2450-065",
      "city": "NAZARÉ",
      "lon": "-9.071419387613854",
      "lat": "39.60797891744997"
    },
    {
      "id": "pt.ine.add.PTCONT.2088438",
      "street": "R FORNO DA CAL",
      "house": "",
      "postcode": "2450-065",
      "city": "NAZARÉ",
      "lon": "-9.070093227312562",
      "lat": "39.608070679979384"
    },
    {
      "id": "pt.ine.add.PTCONT.2092233",
      "street": "R DOS MESTRES DE OBRAS",
      "house": "",
      "postcode": "2450-065",
      "city": "NAZARÉ",
      "lon": "-9.070442140534828",
      "lat": "39.60804084566118"
    },
    {
      "id": "pt.ine.add.PTCONT.2098719",
      "street": "R FORNO DA CAL",
      "house": "",
      "postcode": "2450-065",
      "city": "NAZARÉ",
      "lon": "-9.071175112122852",
      "lat": "39.607134271464865"
    },
    {
      "id": "pt.ine.add.PTCONT.2098720",
      "street": "R FORNO DA CAL",
      "house": "",
      "postcode": "2450-065",
      "city": "NAZARÉ",
      "lon": "-9.071175112122852",
      "lat": "39.607134271464865"
    },
    {
      "id": "pt.ine.add.PTCONT.2138757",
      "street": "R SERRACAO",
      "house": "",
      "postcode": "2450-065",
      "city": "NAZARÉ",
      "lon": "-9.071351112468188",
      "lat": "39.60809655440772"
    },
    {
      "id": "pt.ine.add.PTCONT.2138758",
      "street": "R FORNO DA CAL",
      "house": "",
      "postcode": "2450-065",
      "city": "NAZARÉ",
      "lon": "-9.070920922730389",
      "lat": "39.60728042893907"
    },
    {
      "id": "pt.ine.add.PTCONT.2139668",
      "street": "R FORNO DA CAL",
      "house": "",
      "postcode": "2450-065",
      "city": "NAZARÉ",
      "lon": "-9.070920922730389",
      "lat": "39.60728042893907"
    },
    {
      "id": "pt.ine.add.PTCONT.2153929",
      "street": "R FORNO DA CAL",
      "house": "",
      "postcode": "2450-065",
      "city": "NAZARÉ",
      "lon": "-9.070690260154613",
      "lat": "39.607444409154915"
    },
    {
      "id": "pt.ine.add.PTCONT.2156219",
      "street": "R MESTRE OBRAS",
      "house": "80 9",
      "postcode": "2450-065",
      "city": "NAZARÉ",
      "lon": "-9.070761956848802",
      "lat": "39.60844356100339"
    },
    {
      "id": "pt.ine.add.PTCONT.2156220",
      "street": "R MESTRE OBRAS",
      "house": "ED 9",
      "postcode": "2450-065",
      "city": "NAZARÉ",
      "lon": "-9.070761956848802",
      "lat": "39.60844356100339"
    },
    {
      "id": "pt.ine.add.PTCONT.2156221",
      "street": "R MESTRE DE OBRAS",
      "house": "",
      "postcode": "2450-065",
      "city": "NAZARÉ",
      "lon": "-9.070761956848802",
      "lat": "39.60844356100339"
    },
    {
      "id": "pt.ine.add.PTCONT.2156225",
      "street": "R MESTRE DE OBRAS",
      "house": "",
      "postcode": "2450-065",
      "city": "NAZARÉ",
      "lon": "-9.070761956848802",
      "lat": "39.60844356100339"
    },
    {
      "id": "pt.ine.add.PTCONT.2156226",
      "street": "R MESTRE DE OBRAS",
      "house": "",
      "postcode": "2450-065",
      "city": "NAZARÉ",
      "lon": "-9.070761956848802",
      "lat": "39.60844356100339"
    },
    {
      "id": "pt.ine.add.PTCONT.2156227",
      "street": "R MESTRE DE OBRAS",
      "house": "",
      "postcode": "2450-065",
      "city": "NAZARÉ",
      "lon": "-9.070761956848802",
      "lat": "39.60844356100339"
    },
    {
      "id": "pt.ine.add.PTCONT.2156228",
      "street": "R MESTRE DE OBRAS",
      "house": "",
      "postcode": "2450-065",
      "city": "NAZARÉ",
      "lon": "-9.070761956848802",
      "lat": "39.60844356100339"
    },
    {
      "id": "pt.ine.add.PTCONT.2156229",
      "street": "R MESTRE DE OBRAS",
      "house": "",
      "postcode": "2450-065",
      "city": "NAZARÉ",
      "lon": "-9.070761956848802",
      "lat": "39.60844356100339"
    },
    {
      "id": "pt.ine.add.PTCONT.2156230",
      "street": "R MESTRE DE OBRAS",
      "house": "",
      "postcode": "2450-065",
      "city": "NAZARÉ",
      "lon": "-9.070761956848802",
      "lat": "39.60844356100339"
    },
    {
      "id": "pt.ine.add.PTCONT.2156231",
      "street": "R MESTRE DE OBRAS",
      "house": "",
      "postcode": "2450-065",
      "city": "NAZARÉ",
      "lon": "-9.070761956848802",
      "lat": "39.60844356100339"
    },
    {
      "id": "pt.ine.add.PTCONT.2156232",
      "street": "R MESTRE DE OBRAS",
      "house": "",
      "postcode": "2450-065",
      "city": "NAZARÉ",
      "lon": "-9.070761956848802",
      "lat": "39.60844356100339"
    },
    {
      "id": "pt.ine.add.PTCONT.2156233",
      "street": "R MESTRE DE OBRAS",
      "house": "",
      "postcode": "2450-065",
      "city": "NAZARÉ",
      "lon": "-9.070761956848802",
      "lat": "39.60844356100339"
    },
    {
      "id": "pt.ine.add.PTCONT.2156234",
      "street": "R MESTRE OBRAS P",
      "house": "P",
      "postcode": "2450-065",
      "city": "NAZARÉ",
      "lon": "-9.070761956848802",
      "lat": "39.60844356100339"
    },
    {
      "id": "pt.ine.add.PTCONT.2156235",
      "street": "R MESTRE DE OBRAS",
      "house": "",
      "postcode": "2450-065",
      "city": "NAZARÉ",
      "lon": "-9.070761956848802",
      "lat": "39.60844356100339"
    },
    {
      "id": "pt.ine.add.PTCONT.2156236",
      "street": "R MESTRE DE OBRAS",
      "house": "",
      "postcode": "2450-065",
      "city": "NAZARÉ",
      "lon": "-9.070761956848802",
      "lat": "39.60844356100339"
    },
    {
      "id": "pt.ine.add.PTCONT.2156237",
      "street": "R MESTRE DE OBRAS",
      "house": "",
      "postcode": "2450-065",
      "city": "NAZARÉ",
      "lon": "-9.070761956848802",
      "lat": "39.60844356100339"
    },
    {
      "id": "pt.ine.add.PTCONT.2156238",
      "street": "R MESTRE DE OBRAS",
      "house": "",
      "postcode": "2450-065",
      "city": "NAZARÉ",
      "lon": "-9.070761956848802",
      "lat": "39.60844356100339"
    },
    {
      "id": "pt.ine.add.PTCONT.2156239",
      "street": "R MESTRE DE OBRAS",
      "house": "",
      "postcode": "2450-065",
      "city": "NAZARÉ",
      "lon": "-9.070761956848802",
      "lat": "39.60844356100339"
    },
    {
      "id": "pt.ine.add.PTCONT.2157042",
      "street": "R MESTRE DE OBRAS",
      "house": "",
      "postcode": "2450-065",
      "city": "NAZARÉ",
      "lon": "-9.070761956848802",
      "lat": "39.60844356100339"
    },
    {
      "id": "pt.ine.add.PTCONT.2157043",
      "street": "R MESTRE DE OBRAS",
      "house": "",
      "postcode": "2450-065",
      "city": "NAZARÉ",
      "lon": "-9.070761956848802",
      "lat": "39.60844356100339"
    },
    {
      "id": "pt.ine.add.PTCONT.2157044",
      "street": "R MESTRE DE OBRAS",
      "house": "",
      "postcode": "2450-065",
      "city": "NAZARÉ",
      "lon": "-9.070761956848802",
      "lat": "39.60844356100339"
    },
    {
      "id": "pt.ine.add.PTCONT.2160659",
      "street": "R MESTRE DE OBRAS",
      "house": "",
      "postcode": "2450-065",
      "city": "NAZARÉ",
      "lon": "-9.070326321863512",
      "lat": "39.60808681295556"
    },
    {
      "id": "pt.ine.add.PTCONT.2160671",
      "street": "R SERRACAO",
      "house": "",
      "postcode": "2450-065",
      "city": "NAZARÉ",
      "lon": "-9.071541498334065",
      "lat": "39.60753660868487"
    },
    {
      "id": "pt.ine.add.PTCONT.2160672",
      "street": "R SERRACAO",
      "house": "",
      "postcode": "2450-065",
      "city": "NAZARÉ",
      "lon": "-9.071541498334065",
      "lat": "39.60753660868487"
    },
    {
      "id": "pt.ine.add.PTCONT.2160673",
      "street": "R SERRACAO",
      "house": "",
      "postcode": "2450-065",
      "city": "NAZARÉ",
      "lon": "-9.071541498334065",
      "lat": "39.60753660868487"
    },
    {
      "id": "pt.ine.add.PTCONT.2160674",
      "street": "R SERRACAO",
      "house": "",
      "postcode": "2450-065",
      "city": "NAZARÉ",
      "lon": "-9.071541498334065",
      "lat": "39.60753660868487"
    },
    {
      "id": "pt.ine.add.PTCONT.2160675",
      "street": "R SERRACAO",
      "house": "",
      "postcode": "2450-065",
      "city": "NAZARÉ",
      "lon": "-9.071541498334065",
      "lat": "39.60753660868487"
    },
    {
      "id": "pt.ine.add.PTCONT.2160676",
      "street": "R SERRACAO",
      "house": "",
      "postcode": "2450-065",
      "city": "NAZARÉ",
      "lon": "-9.071541498334065",
      "lat": "39.60753660868487"
    },
    {
      "id": "pt.ine.add.PTCONT.2160677",
      "street": "R SERRACAO",
      "house": "",
      "postcode": "2450-065",
      "city": "NAZARÉ",
      "lon": "-9.071541498334065",
      "lat": "39.60753660868487"
    },
    {
      "id": "pt.ine.add.PTCONT.2160678",
      "street": "R SERRACAO",
      "house": "",
      "postcode": "2450-065",
      "city": "NAZARÉ",
      "lon": "-9.071541498334065",
      "lat": "39.60753660868487"
    },
    {
      "id": "pt.ine.add.PTCONT.2160683",
      "street": "R SERRACAO",
      "house": "",
      "postcode": "2450-065",
      "city": "NAZARÉ",
      "lon": "-9.071541498334065",
      "lat": "39.60753660868487"
    },
    {
      "id": "pt.ine.add.PTCONT.2160684",
      "street": "R SERRACAO",
      "house": "",
      "postcode": "2450-065",
      "city": "NAZARÉ",
      "lon": "-9.071541498334065",
      "lat": "39.60753660868487"
    },
    {
      "id": "pt.ine.add.PTCONT.2160685",
      "street": "R SERRACAO",
      "house": "",
      "postcode": "2450-065",
      "city": "NAZARÉ",
      "lon": "-9.071541498334065",
      "lat": "39.60753660868487"
    },
    {
      "id": "pt.ine.add.PTCONT.2160686",
      "street": "R SERRACAO",
      "house": "",
      "postcode": "2450-065",
      "city": "NAZARÉ",
      "lon": "-9.071541498334065",
      "lat": "39.60753660868487"
    },
    {
      "id": "pt.ine.add.PTCONT.2160687",
      "street": "R SERRACAO",
      "house": "",
      "postcode": "2450-065",
      "city": "NAZARÉ",
      "lon": "-9.071541498334065",
      "lat": "39.60753660868487"
    },
    {
      "id": "pt.ine.add.PTCONT.2160688",
      "street": "R SERRACAO",
      "house": "",
      "postcode": "2450-065",
      "city": "NAZARÉ",
      "lon": "-9.071541498334065",
      "lat": "39.60753660868487"
    },
    {
      "id": "pt.ine.add.PTCONT.2161261",
      "street": "R SERRACAO",
      "house": "",
      "postcode": "2450-065",
      "city": "NAZARÉ",
      "lon": "-9.071541498334065",
      "lat": "39.60753660868487"
    },
    {
      "id": "pt.ine.add.PTCONT.2164991",
      "street": "R MESTRE DE OBRAS",
      "house": "",
      "postcode": "2450-065",
      "city": "NAZARÉ",
      "lon": "-9.07014198288147",
      "lat": "39.6082324052029"
    },
    {
      "id": "pt.ine.add.PTCONT.2180179",
      "street": "R FORNO DA CAL",
      "house": "",
      "postcode": "2450-065",
      "city": "NAZARÉ",
      "lon": "-9.070382834746656",
      "lat": "39.60796026490718"
    },
    {
      "id": "pt.ine.add.PTCONT.2180180",
      "street": "R FORNO DA CAL",
      "house": "",
      "postcode": "2450-065",
      "city": "NAZARÉ",
      "lon": "-9.070382834746656",
      "lat": "39.60796026490718"
    },
    {
      "id": "pt.ine.add.PTCONT.2186764",
      "street": "R FORNO DA CAL",
      "house": "",
      "postcode": "2450-065",
      "city": "NAZARÉ",
      "lon": "-9.07149735986467",
      "lat": "39.607717096831905"
    },
    {
      "id": "pt.ine.add.PTCONT.2218251",
      "street": "R FORNO DA CAL",
      "house": "",
      "postcode": "2450-065",
      "city": "NAZARÉ",
      "lon": "-9.070356635333841",
      "lat": "39.607744318322055"
    },
    {
      "id": "pt.ine.add.PTCONT.2218252",
      "street": "R FORNO DA CAL",
      "house": "",
      "postcode": "2450-065",
      "city": "NAZARÉ",
      "lon": "-9.070356635333841",
      "lat": "39.607744318322055"
    },
    {
      "id": "pt.ine.add.PTCONT.2226696",
      "street": "R FORNO DA CAL",
      "house": "",
      "postcode": "2450-065",
      "city": "NAZARÉ",
      "lon": "-9.070288358599718",
      "lat": "39.60786195467844"
    },
    {
      "id": "pt.ine.add.PTCONT.2226697",
      "street": "R FORNO DA CAL",
      "house": "",
      "postcode": "2450-065",
      "city": "NAZARÉ",
      "lon": "-9.070288358599718",
      "lat": "39.60786195467844"
    },
    {
      "id": "pt.ine.add.PTCONT.2239840",
      "street": "R FORNO DA CAL",
      "house": "3",
      "postcode": "2450-065",
      "city": "NAZARÉ",
      "lon": "-9.07009128499985",
      "lat": "39.60792659034558"
    },
    {
      "id": "pt.ine.add.PTCONT.2239841",
      "street": "R FORNO DA CAL",
      "house": "3",
      "postcode": "2450-065",
      "city": "NAZARÉ",
      "lon": "-9.07009128499985",
      "lat": "39.60792659034558"
    },
    {
      "id": "pt.ine.add.PTCONT.2240472",
      "street": "R FORNO DA CAL",
      "house": "3",
      "postcode": "2450-065",
      "city": "NAZARÉ",
      "lon": "-9.07009128499985",
      "lat": "39.60792659034558"
    },
    {
      "id": "pt.ine.add.PTCONT.2257672",
      "street": "R FORNO DA CAL",
      "house": "",
      "postcode": "2450-065",
      "city": "NAZARÉ",
      "lon": "-9.070786680007918",
      "lat": "39.60768680867853"
    },
    {
      "id": "pt.ine.add.PTCONT.2265705",
      "street": "R SERRACAO",
      "house": "",
      "postcode": "2450-065",
      "city": "NAZARÉ",
      "lon": "-9.071541498334065",
      "lat": "39.60753660868487"
    }
  ]
}