{
  "data": {
    "distrito": "Bragança",
    "concelho": "Mirandela",
    "freguesia": "Mirandela",
    "OBJECTID": 284,
    "BGRI2021": "04072100709",
    "DT21": "04",
    "DTMN21": "0407",
    "DTMNFR21": "040721",
    "DTMNFRSEC21": "040721007",
    "SECNUM21": "007",
    "SSNUM21": "09",
    "SECSSNUM21": "00709",
    "OBJECTID_1": 37503,
    "DT": "04",
    "CC": "07",
    "fr": "21",
    "SEC": "007",
    "SS": "09"
  },
  "addresses": [
    {
      "id": "pt.ine.add.PTCONT.857746",
      "street": "R ROSA MOTA",
      "house": "140",
      "postcode": "5370-477",
      "city": "MIRANDELA",
      "lon": "-7.171444181562712",
      "lat": "41.484406346934186"
    },
    {
      "id": "pt.ine.add.PTCONT.861235",
      "street": "R MIRANTE",
      "house": "50",
      "postcode": "5370-392",
      "city": "MIRANDELA",
      "lon": "-7.171331926597727",
      "lat": "41.483090865323625"
    },
    {
      "id": "pt.ine.add.PTCONT.861564",
      "street": "R MIRANTE",
      "house": "50",
      "postcode": "5370-392",
      "city": "MIRANDELA",
      "lon": "-7.171331926597727",
      "lat": "41.483090865323625"
    },
    {
      "id": "pt.ine.add.PTCONT.866252",
      "street": "R ROSA MOTA",
      "house": "96",
      "postcode": "5370-477",
      "city": "MIRANDELA",
      "lon": "-7.171247047972379",
      "lat": "41.48397252000149"
    },
    {
      "id": "pt.ine.add.PTCONT.869057",
      "street": "R ROSA MOTA",
      "house": "110",
      "postcode": "5370-477",
      "city": "MIRANDELA",
      "lon": "-7.171400154045294",
      "lat": "41.484144870973644"
    },
    {
      "id": "pt.ine.add.PTCONT.871168",
      "street": "R VALE DA AZENHA",
      "house": "385",
      "postcode": "5370-404",
      "city": "MIRANDELA",
      "lon": "-7.174135268191182",
      "lat": "41.48135854748083"
    },
    {
      "id": "pt.ine.add.PTCONT.877804",
      "street": "R CARLOS MANUEL RESENDE",
      "house": "22",
      "postcode": "5370-315",
      "city": "MIRANDELA",
      "lon": "-7.171015052821326",
      "lat": "41.484276706015685"
    },
    {
      "id": "pt.ine.add.PTCONT.880225",
      "street": "R ROSA MOTA",
      "house": "62",
      "postcode": "5370-477",
      "city": "MIRANDELA",
      "lon": "-7.171612994404094",
      "lat": "41.483516390153966"
    },
    {
      "id": "pt.ine.add.PTCONT.880889",
      "street": "R VALE DA AZENHA",
      "house": "369",
      "postcode": "5370-404",
      "city": "MIRANDELA",
      "lon": "-7.174096566238531",
      "lat": "41.48154730297578"
    },
    {
      "id": "pt.ine.add.PTCONT.880890",
      "street": "R VALE DA AZENHA",
      "house": "369-361",
      "postcode": "5370-404",
      "city": "MIRANDELA",
      "lon": "-7.174096566238531",
      "lat": "41.48154730297578"
    },
    {
      "id": "pt.ine.add.PTCONT.880891",
      "street": "R ROSA MOTA",
      "house": "20",
      "postcode": "5370-477",
      "city": "MIRANDELA",
      "lon": "-7.171795100754694",
      "lat": "41.48334684170842"
    },
    {
      "id": "pt.ine.add.PTCONT.885066",
      "street": "R ROSA MOTA",
      "house": "154",
      "postcode": "5370-477",
      "city": "MIRANDELA",
      "lon": "-7.171454289946411",
      "lat": "41.484532483502626"
    },
    {
      "id": "pt.ine.add.PTCONT.885067",
      "street": "R ROSA MOTA",
      "house": "154",
      "postcode": "5370-477",
      "city": "MIRANDELA",
      "lon": "-7.171454289946411",
      "lat": "41.484532483502626"
    },
    {
      "id": "pt.ine.add.PTCONT.890413",
      "street": "R MIRANTE",
      "house": "20",
      "postcode": "5370-392",
      "city": "MIRANDELA",
      "lon": "-7.1718348750159375",
      "lat": "41.48308606626599"
    },
    {
      "id": "pt.ine.add.PTCONT.893443",
      "street": "R ROSA MOTA",
      "house": "88",
      "postcode": "5370-477",
      "city": "MIRANDELA",
      "lon": "-7.17117761301337",
      "lat": "41.483809872361675"
    },
    {
      "id": "pt.ine.add.PTCONT.896516",
      "street": "R ROSA MOTA",
      "house": "",
      "postcode": "5370-477",
      "city": "MIRANDELA",
      "lon": "-7.171410129189189",
      "lat": "41.48428001015525"
    },
    {
      "id": "pt.ine.add.PTCONT.896942",
      "street": "R ENG JOSE INÁCIO MENERES PIMENTEL",
      "house": "29",
      "postcode": "5370-597",
      "city": "MIRANDELA",
      "lon": "-7.17109526137853",
      "lat": "41.48452047731472"
    },
    {
      "id": "pt.ine.add.PTCONT.899665",
      "street": "R ROSA MOTA",
      "house": "66",
      "postcode": "5370-477",
      "city": "MIRANDELA",
      "lon": "-7.17155193714105",
      "lat": "41.48359691318563"
    },
    {
      "id": "pt.ine.add.PTCONT.904176",
      "street": "R MIRANTE",
      "house": "12",
      "postcode": "5370-392",
      "city": "MIRANDELA",
      "lon": "-7.171906306632925",
      "lat": "41.483113674418085"
    },
    {
      "id": "pt.ine.add.PTCONT.904820",
      "street": "R CARLOS MANUEL RESENDE",
      "house": "310",
      "postcode": "5370-315",
      "city": "MIRANDELA",
      "lon": "-7.170344753618687",
      "lat": "41.48426209328404"
    },
    {
      "id": "pt.ine.add.PTCONT.906480",
      "street": "R VALE DA AZENHA",
      "house": "379",
      "postcode": "5370-404",
      "city": "MIRANDELA",
      "lon": "-7.174121969362269",
      "lat": "41.48144847383139"
    },
    {
      "id": "pt.ine.add.PTCONT.906481",
      "street": "R CARLOS MANUEL RESENDE",
      "house": "367",
      "postcode": "5370-315",
      "city": "MIRANDELA",
      "lon": "-7.170226099867075",
      "lat": "41.48418907024879"
    },
    {
      "id": "pt.ine.add.PTCONT.906483",
      "street": "LUGAR DO RETIRO SERRA PELADA",
      "house": "",
      "postcode": "5370-404",
      "city": "MIRANDELA",
      "lon": "-7.167945781963334",
      "lat": "41.482936447738965"
    },
    {
      "id": "pt.ine.add.PTCONT.911071",
      "street": "R ROSA MOTA",
      "house": "10",
      "postcode": "5370-477",
      "city": "MIRANDELA",
      "lon": "-7.171819709749468",
      "lat": "41.483302028793986"
    },
    {
      "id": "pt.ine.add.PTCONT.911072",
      "street": "R ROSA MOTA",
      "house": "10",
      "postcode": "5370-477",
      "city": "MIRANDELA",
      "lon": "-7.171819709749468",
      "lat": "41.483302028793986"
    },
    {
      "id": "pt.ine.add.PTCONT.915525",
      "street": "R CARLOS MANUEL RESENDE",
      "house": "296",
      "postcode": "5370-315",
      "city": "MIRANDELA",
      "lon": "-7.170558784066714",
      "lat": "41.484362925595136"
    },
    {
      "id": "pt.ine.add.PTCONT.918472",
      "street": "R ROSA MOTA",
      "house": "80",
      "postcode": "5370-477",
      "city": "MIRANDELA",
      "lon": "-7.171381401993815",
      "lat": "41.48379356914908"
    },
    {
      "id": "pt.ine.add.PTCONT.921668",
      "street": "R VALE DA AZENHA",
      "house": "371",
      "postcode": "5370-404",
      "city": "MIRANDELA",
      "lon": "-7.173954899392475",
      "lat": "41.48141106580516"
    },
    {
      "id": "pt.ine.add.PTCONT.927007",
      "street": "R CARLOS MANUEL RESENDE",
      "house": "344",
      "postcode": "5370-315",
      "city": "MIRANDELA",
      "lon": "-7.170039747187937",
      "lat": "41.483836364972525"
    },
    {
      "id": "pt.ine.add.PTCONT.927830",
      "street": "R ROSA MOTA",
      "house": "102",
      "postcode": "5370-477",
      "city": "MIRANDELA",
      "lon": "-7.171377275088264",
      "lat": "41.48407264991839"
    },
    {
      "id": "pt.ine.add.PTCONT.927831",
      "street": "R ROSA MOTA",
      "house": "36",
      "postcode": "5370-477",
      "city": "MIRANDELA",
      "lon": "-7.171710632476772",
      "lat": "41.48339115427308"
    },
    {
      "id": "pt.ine.add.PTCONT.927832",
      "street": "R MIRANTE",
      "house": "19",
      "postcode": "5370-392",
      "city": "MIRANDELA",
      "lon": "-7.171483300454385",
      "lat": "41.483380250076124"
    },
    {
      "id": "pt.ine.add.PTCONT.927833",
      "street": "R MIRANTE",
      "house": "19",
      "postcode": "5370-392",
      "city": "MIRANDELA",
      "lon": "-7.171483300454385",
      "lat": "41.483380250076124"
    },
    {
      "id": "pt.ine.add.PTCONT.930982",
      "street": "R MIRANTE",
      "house": "61",
      "postcode": "5370-392",
      "city": "MIRANDELA",
      "lon": "-7.171325802617617",
      "lat": "41.48350498521458"
    },
    {
      "id": "pt.ine.add.PTCONT.930983",
      "street": "R MIRANTE",
      "house": "61",
      "postcode": "5370-392",
      "city": "MIRANDELA",
      "lon": "-7.171325802617617",
      "lat": "41.48350498521458"
    },
    {
      "id": "pt.ine.add.PTCONT.931247",
      "street": "R CARLOS MANUEL RESENDE",
      "house": "354",
      "postcode": "5370-315",
      "city": "MIRANDELA",
      "lon": "-7.170030174879334",
      "lat": "41.48367421788623"
    },
    {
      "id": "pt.ine.add.PTCONT.934006",
      "street": "R ROSA MOTA",
      "house": "72",
      "postcode": "5370-477",
      "city": "MIRANDELA",
      "lon": "-7.171429289684334",
      "lat": "41.483793969566804"
    },
    {
      "id": "pt.ine.add.PTCONT.939345",
      "street": "R MIRANTE",
      "house": "28",
      "postcode": "5370-392",
      "city": "MIRANDELA",
      "lon": "-7.171704382979249",
      "lat": "41.48300394207946"
    },
    {
      "id": "pt.ine.add.PTCONT.943353",
      "street": "R ROSA MOTA",
      "house": "86",
      "postcode": "5370-477",
      "city": "MIRANDELA",
      "lon": "-7.171323805639902",
      "lat": "41.483640024302844"
    },
    {
      "id": "pt.ine.add.PTCONT.943354",
      "street": "R ROSA MOTA",
      "house": "86",
      "postcode": "5370-477",
      "city": "MIRANDELA",
      "lon": "-7.171323805639902",
      "lat": "41.483640024302844"
    },
    {
      "id": "pt.ine.add.PTCONT.945762",
      "street": "R ROSA MOTA",
      "house": "174",
      "postcode": "5370-477",
      "city": "MIRANDELA",
      "lon": "-7.171454955537721",
      "lat": "41.484487470478854"
    },
    {
      "id": "pt.ine.add.PTCONT.945763",
      "street": "R CARLOS MANUEL RESENDE",
      "house": "74",
      "postcode": "5370-315",
      "city": "MIRANDELA",
      "lon": "-7.170949746898539",
      "lat": "41.483834977515166"
    },
    {
      "id": "pt.ine.add.PTCONT.947241",
      "street": "R MIRANTE",
      "house": "27",
      "postcode": "5370-392",
      "city": "MIRANDELA",
      "lon": "-7.171581071660239",
      "lat": "41.483246011695854"
    },
    {
      "id": "pt.ine.add.PTCONT.948817",
      "street": "R ROSA MOTA",
      "house": "30",
      "postcode": "5370-477",
      "city": "MIRANDELA",
      "lon": "-7.171735108472746",
      "lat": "41.4833553439852"
    }
  ]
}