{
  "data": {
    "distrito": "Lisboa",
    "concelho": "Loures",
    "freguesia": "União das freguesias de Santa Iria de Azoia, São João da Talha e Bobadela",
    "OBJECTID": 1786,
    "BGRI2021": "11072802113",
    "DT21": "11",
    "DTMN21": "1107",
    "DTMNFR21": "110728",
    "DTMNFRSEC21": "110728021",
    "SECNUM21": "021",
    "SSNUM21": "13",
    "SECSSNUM21": "02113",
    "OBJECTID_1": 106420,
    "DT": "11",
    "CC": "07",
    "fr": "28",
    "SEC": "021",
    "SS": "13"
  },
  "addresses": [
    {
      "id": "pt.ine.add.PTCONT.3052226",
      "street": "R CIDADE DE TONDELA",
      "house": "79",
      "postcode": "2690-475",
      "city": "SANTA IRIA DE AZÓIA",
      "lon": "-9.079549515510454",
      "lat": "38.852978975197225"
    },
    {
      "id": "pt.ine.add.PTCONT.3413453",
      "street": "R CIDADE DE TONDELA",
      "house": "11",
      "postcode": "2690-475",
      "city": "SANTA IRIA DE AZÓIA",
      "lon": "-9.079418157812821",
      "lat": "38.852628738670845"
    },
    {
      "id": "pt.ine.add.PTCONT.2539133",
      "street": "R CIDADE DE RIO MAIOR",
      "house": "8",
      "postcode": "2690-474",
      "city": "SANTA IRIA DE AZÓIA",
      "lon": "-9.0795487389374",
      "lat": "38.852051186715194"
    },
    {
      "id": "pt.ine.add.PTCONT.2575141",
      "street": "R CIDADE DE BRAGANÇA",
      "house": "28",
      "postcode": "2690-471",
      "city": "SANTA IRIA DE AZÓIA",
      "lon": "-9.079741269690675",
      "lat": "38.852671158811"
    },
    {
      "id": "pt.ine.add.PTCONT.2664293",
      "street": "R CIDADE DE BRAGANÇA",
      "house": "72",
      "postcode": "2690-471",
      "city": "SANTA IRIA DE AZÓIA",
      "lon": "-9.079632709578236",
      "lat": "38.85230272229578"
    },
    {
      "id": "pt.ine.add.PTCONT.2672825",
      "street": "R CIDADE DE TONDELA",
      "house": "1",
      "postcode": "2690-475",
      "city": "SANTA IRIA DE AZÓIA",
      "lon": "-9.079308167388952",
      "lat": "38.85215222083023"
    },
    {
      "id": "pt.ine.add.PTCONT.2708197",
      "street": "R CIDADE DE BRAGANÇA",
      "house": "32",
      "postcode": "2690-471",
      "city": "SANTA IRIA DE AZÓIA",
      "lon": "-9.079779406832614",
      "lat": "38.85294108116635"
    },
    {
      "id": "pt.ine.add.PTCONT.2851510",
      "street": "R CIDADE DE TONDELA",
      "house": "3",
      "postcode": "2690-475",
      "city": "SANTA IRIA DE AZÓIA",
      "lon": "-9.079321117761731",
      "lat": "38.852260208514785"
    }
  ]
}