{
  "data": {
    "distrito": "Coimbra",
    "concelho": "Cantanhede",
    "freguesia": "União das freguesias de Covões e Camarneira",
    "OBJECTID": 172,
    "BGRI2021": "06022100226",
    "DT21": "06",
    "DTMN21": "0602",
    "DTMNFR21": "060221",
    "DTMNFRSEC21": "060221002",
    "SECNUM21": "002",
    "SSNUM21": "26",
    "SECSSNUM21": "00226",
    "OBJECTID_1": 48082,
    "DT": "06",
    "CC": "02",
    "fr": "21",
    "SEC": "002",
    "SS": "26"
  },
  "addresses": [
    {
      "id": "pt.ine.add.PTCONT.1114517",
      "street": "EN 335",
      "house": "1196",
      "postcode": "3060-290",
      "city": "COVÕES",
      "lon": "-8.575937954702791",
      "lat": "40.449266328214534"
    },
    {
      "id": "pt.ine.add.PTCONT.1171252",
      "street": "R CIENCIA",
      "house": "414",
      "postcode": "3060-297",
      "city": "COVÕES",
      "lon": "-8.57663840909579",
      "lat": "40.44822801547563"
    },
    {
      "id": "pt.ine.add.PTCONT.1189591",
      "street": "EN 335",
      "house": "1216",
      "postcode": "3060-290",
      "city": "COVÕES",
      "lon": "-8.575703618362702",
      "lat": "40.44948335656574"
    },
    {
      "id": "pt.ine.add.PTCONT.1196759",
      "street": "EN 335",
      "house": "",
      "postcode": "3060-290",
      "city": "COVÕES",
      "lon": "-8.576275066049206",
      "lat": "40.44854459992702"
    },
    {
      "id": "pt.ine.add.PTCONT.1247984",
      "street": "EN 335",
      "house": "1146",
      "postcode": "3060-297",
      "city": "COVÕES",
      "lon": "-8.575675257963521",
      "lat": "40.4487540232957"
    },
    {
      "id": "pt.ine.add.PTCONT.1254447",
      "street": "R PRINCIPAL",
      "house": "1092",
      "postcode": "3060-290",
      "city": "COVÕES",
      "lon": "-8.57659327156685",
      "lat": "40.44853437415002"
    },
    {
      "id": "pt.ine.add.PTCONT.1262828",
      "street": "R PRINCIPAL",
      "house": "1206",
      "postcode": "3060-290",
      "city": "COVÕES",
      "lon": "-8.575726071336701",
      "lat": "40.44931216696217"
    },
    {
      "id": "pt.ine.add.PTCONT.1264830",
      "street": "R PRINCIPAL",
      "house": "1130B",
      "postcode": "3060-290",
      "city": "COVÕES",
      "lon": "-8.576323517854632",
      "lat": "40.44874253419259"
    },
    {
      "id": "pt.ine.add.PTCONT.1293360",
      "street": "R PRINCIPAL",
      "house": "1130A",
      "postcode": "3060-290",
      "city": "COVÕES",
      "lon": "-8.576464436660297",
      "lat": "40.44866094471703"
    },
    {
      "id": "pt.ine.add.PTCONT.1305166",
      "street": "EN 335",
      "house": "1148",
      "postcode": "3060-290",
      "city": "COVÕES",
      "lon": "-8.576030601008611",
      "lat": "40.449013820538674"
    },
    {
      "id": "pt.ine.add.PTCONT.1313316",
      "street": "R PRINCIPAL",
      "house": "1244",
      "postcode": "3060-290",
      "city": "COVÕES",
      "lon": "-8.575598650838005",
      "lat": "40.44965486203913"
    },
    {
      "id": "pt.ine.add.PTCONT.1322544",
      "street": "R ENCARNAÇÃO",
      "house": "84",
      "postcode": "3060-290",
      "city": "COVÕES",
      "lon": "-8.573633619744644",
      "lat": "40.450202694337975"
    },
    {
      "id": "pt.ine.add.PTCONT.1327325",
      "street": "R PRINCIPAL",
      "house": "1148",
      "postcode": "3060-290",
      "city": "COVÕES",
      "lon": "-8.576135921250204",
      "lat": "40.4488963460368"
    },
    {
      "id": "pt.ine.add.PTCONT.1331663",
      "street": "R PRINCIPAL",
      "house": "1140",
      "postcode": "3060-290",
      "city": "COVÕES",
      "lon": "-8.576253147047272",
      "lat": "40.448796836709086"
    }
  ]
}