{
  "data": {
    "distrito": "Viseu",
    "concelho": "Mangualde",
    "freguesia": "Uni√£o das freguesias de Mangualde, Mesquitela e Cunha Alta",
    "OBJECTID": 273,
    "BGRI2021": "18061900713",
    "DT21": "18",
    "DTMN21": "1806",
    "DTMNFR21": "180619",
    "DTMNFRSEC21": "180619007",
    "SECNUM21": "007",
    "SSNUM21": "13",
    "SECSSNUM21": "00713",
    "OBJECTID_1": 191944,
    "DT": "18",
    "CC": "06",
    "fr": "19",
    "SEC": "007",
    "SS": "13"
  },
  "addresses": [
    {
      "id": "pt.ine.add.PTCONT.5474887",
      "street": "EN 234 QTA DAS JOGADAS",
      "house": "",
      "postcode": "3530-503",
      "city": "MANGUALDE",
      "lon": "-7.768896129388425",
      "lat": "40.61435648710494"
    },
    {
      "id": "pt.ine.add.PTCONT.5476663",
      "street": "QTA TAPADA ESTRADA DE NELAS",
      "house": "",
      "postcode": "3530-108",
      "city": "MANGUALDE",
      "lon": "-7.771022811211067",
      "lat": "40.614426210332596"
    },
    {
      "id": "pt.ine.add.PTCONT.5476664",
      "street": "R ALEXANDRE HERCULANO",
      "house": "87",
      "postcode": "3530-144",
      "city": "MANGUALDE",
      "lon": "-7.766628782669369",
      "lat": "40.61407915860613"
    },
    {
      "id": "pt.ine.add.PTCONT.5482076",
      "street": "ESTR RODA",
      "house": "4",
      "postcode": "3530-108",
      "city": "MANGUALDE",
      "lon": "-7.771373738635253",
      "lat": "40.610708156285675"
    },
    {
      "id": "pt.ine.add.PTCONT.5527224",
      "street": "ESTR RODA QTA DA IGREJA",
      "house": "",
      "postcode": "3530-108",
      "city": "MANGUALDE",
      "lon": "-7.770634033217877",
      "lat": "40.612020598831364"
    },
    {
      "id": "pt.ine.add.PTCONT.5586255",
      "street": "SIT REGADA",
      "house": "",
      "postcode": "3530-301",
      "city": "MESQUITELA MGL",
      "lon": "-7.771040607048543",
      "lat": "40.61331862496856"
    },
    {
      "id": "pt.ine.add.PTCONT.5636053",
      "street": "SIT REGADA",
      "house": "",
      "postcode": "3530-301",
      "city": "MESQUITELA MGL",
      "lon": "-7.770933576858258",
      "lat": "40.613444362383994"
    },
    {
      "id": "pt.ine.add.PTCONT.5658377",
      "street": "QTA ROSETA",
      "house": "",
      "postcode": "3530-108",
      "city": "MANGUALDE",
      "lon": "-7.7719555283729",
      "lat": "40.61238494718114"
    },
    {
      "id": "pt.ine.add.PTCONT.5659160",
      "street": "ESTR RODA QTA DA IGREJA",
      "house": "",
      "postcode": "3530-108",
      "city": "MANGUALDE",
      "lon": "-7.770517865170613",
      "lat": "40.61165102035421"
    }
  ]
}