{
  "data": {
    "distrito": "Viseu",
    "concelho": "Mangualde",
    "freguesia": "União das freguesias de Mangualde, Mesquitela e Cunha Alta",
    "OBJECTID": 62,
    "BGRI2021": "18061900724",
    "DT21": "18",
    "DTMN21": "1806",
    "DTMNFR21": "180619",
    "DTMNFRSEC21": "180619007",
    "SECNUM21": "007",
    "SSNUM21": "24",
    "SECSSNUM21": "00724",
    "OBJECTID_1": 191955,
    "DT": "18",
    "CC": "06",
    "fr": "19",
    "SEC": "007",
    "SS": "24"
  },
  "addresses": [
    {
      "id": "pt.ine.add.PTCONT.5432764",
      "street": "R FONTE VELHA",
      "house": "39",
      "postcode": "3530-240",
      "city": "MANGUALDE",
      "lon": "-7.746023363997792",
      "lat": "40.62783491692239"
    },
    {
      "id": "pt.ine.add.PTCONT.5432875",
      "street": "EN 329",
      "house": "40",
      "postcode": "3530-239",
      "city": "MANGUALDE",
      "lon": "-7.74721865284324",
      "lat": "40.63167512541904"
    },
    {
      "id": "pt.ine.add.PTCONT.5440133",
      "street": "QTA LADEIRA",
      "house": "",
      "postcode": "3530-239",
      "city": "MANGUALDE",
      "lon": "-7.743183350513714",
      "lat": "40.630445871786094"
    },
    {
      "id": "pt.ine.add.PTCONT.5471943",
      "street": "R OUTEIRO",
      "house": "2",
      "postcode": "3530-246",
      "city": "MANGUALDE",
      "lon": "-7.738590569054387",
      "lat": "40.63359109155504"
    },
    {
      "id": "pt.ine.add.PTCONT.5473074",
      "street": "QTA BABARO",
      "house": "",
      "postcode": "3530-239",
      "city": "MANGUALDE",
      "lon": "-7.7443461261899165",
      "lat": "40.63171952246039"
    },
    {
      "id": "pt.ine.add.PTCONT.5496457",
      "street": "EN 329",
      "house": "38",
      "postcode": "3530-239",
      "city": "MANGUALDE",
      "lon": "-7.747624824607188",
      "lat": "40.63092905180848"
    },
    {
      "id": "pt.ine.add.PTCONT.5505769",
      "street": "R OUTEIRO",
      "house": "",
      "postcode": "3530-246",
      "city": "MANGUALDE",
      "lon": "-7.738577476800725",
      "lat": "40.633807171066024"
    },
    {
      "id": "pt.ine.add.PTCONT.5514650",
      "street": "R OUTEIRO",
      "house": "",
      "postcode": "3530-246",
      "city": "MANGUALDE",
      "lon": "-7.738376905063161",
      "lat": "40.633743449447046"
    },
    {
      "id": "pt.ine.add.PTCONT.5522058",
      "street": "R PRINCIPAL",
      "house": "10",
      "postcode": "3530-246",
      "city": "MANGUALDE",
      "lon": "-7.738469981817568",
      "lat": "40.633995912482995"
    },
    {
      "id": "pt.ine.add.PTCONT.5533104",
      "street": "R PRINCIPAL",
      "house": "4",
      "postcode": "3530-246",
      "city": "MANGUALDE",
      "lon": "-7.739217142152874",
      "lat": "40.6335752199799"
    },
    {
      "id": "pt.ine.add.PTCONT.5552835",
      "street": "QTA LAGES",
      "house": "11",
      "postcode": "3530-239",
      "city": "MANGUALDE",
      "lon": "-7.746328556850213",
      "lat": "40.630249329034726"
    },
    {
      "id": "pt.ine.add.PTCONT.5576936",
      "street": "EN 329",
      "house": "72",
      "postcode": "3530-246",
      "city": "MANGUALDE",
      "lon": "-7.742499769115419",
      "lat": "40.63213653577705"
    },
    {
      "id": "pt.ine.add.PTCONT.5582486",
      "street": "R CHAO POMAR",
      "house": "10",
      "postcode": "3530-239",
      "city": "MANGUALDE",
      "lon": "-7.747302632332726",
      "lat": "40.629406099908245"
    },
    {
      "id": "pt.ine.add.PTCONT.5582487",
      "street": "R CHAO DO POMAR",
      "house": "12",
      "postcode": "3530-239",
      "city": "MANGUALDE",
      "lon": "-7.747302632332726",
      "lat": "40.629406099908245"
    },
    {
      "id": "pt.ine.add.PTCONT.5589323",
      "street": "R CHÃO DO POMAR",
      "house": "5",
      "postcode": "3530-239",
      "city": "MANGUALDE",
      "lon": "-7.747348614503978",
      "lat": "40.62963138312206"
    },
    {
      "id": "pt.ine.add.PTCONT.5599144",
      "street": "R LUDARES",
      "house": "11",
      "postcode": "3530-246",
      "city": "MANGUALDE",
      "lon": "-7.7384285867615485",
      "lat": "40.632996196390934"
    },
    {
      "id": "pt.ine.add.PTCONT.5602750",
      "street": "R OUTEIRO",
      "house": "",
      "postcode": "3530-246",
      "city": "MANGUALDE",
      "lon": "-7.737976771362211",
      "lat": "40.63344491026082"
    },
    {
      "id": "pt.ine.add.PTCONT.5630976",
      "street": "EN 329",
      "house": "64",
      "postcode": "3530-246",
      "city": "MANGUALDE",
      "lon": "-7.7438459288449595",
      "lat": "40.63236621052536"
    },
    {
      "id": "pt.ine.add.PTCONT.5632903",
      "street": "R PRINCIPAL",
      "house": "16",
      "postcode": "3530-246",
      "city": "MANGUALDE",
      "lon": "-7.738350878130061",
      "lat": "40.63414859340901"
    },
    {
      "id": "pt.ine.add.PTCONT.5659105",
      "street": "ESTR NACIONAL",
      "house": "2",
      "postcode": "3530-246",
      "city": "MANGUALDE",
      "lon": "-7.739167003621923",
      "lat": "40.63406132848812"
    },
    {
      "id": "pt.ine.add.PTCONT.5667395",
      "street": "R CHAO POMAR",
      "house": "14",
      "postcode": "3530-239",
      "city": "MANGUALDE",
      "lon": "-7.746841727220128",
      "lat": "40.62939555407999"
    }
  ]
}