{
  "data": {
    "distrito": "Set√∫bal",
    "concelho": "Sines",
    "freguesia": "Sines",
    "OBJECTID": 292,
    "BGRI2021": "15130100617",
    "DT21": "15",
    "DTMN21": "1513",
    "DTMNFR21": "151301",
    "DTMNFRSEC21": "151301006",
    "SECNUM21": "006",
    "SSNUM21": "17",
    "SECSSNUM21": "00617",
    "OBJECTID_1": 171322,
    "DT": "15",
    "CC": "13",
    "fr": "01",
    "SEC": "006",
    "SS": "17"
  },
  "addresses": [
    {
      "id": "pt.ine.add.PTCONT.4810166",
      "street": "R AGOSTINHO RODRIGUES",
      "house": "9",
      "postcode": "7520-313",
      "city": "SINES",
      "lon": "-8.853788186352443",
      "lat": "37.95654151566249"
    },
    {
      "id": "pt.ine.add.PTCONT.4810167",
      "street": "R AGOSTINHO RODRIGUES",
      "house": "9",
      "postcode": "7520-313",
      "city": "SINES",
      "lon": "-8.853788186352443",
      "lat": "37.95654151566249"
    },
    {
      "id": "pt.ine.add.PTCONT.4810168",
      "street": "R AGOSTINHO RODRIGUES",
      "house": "9",
      "postcode": "7520-313",
      "city": "SINES",
      "lon": "-8.853788186352443",
      "lat": "37.95654151566249"
    },
    {
      "id": "pt.ine.add.PTCONT.4810169",
      "street": "R AGOSTINHO RODRIGUES A",
      "house": "A",
      "postcode": "7520-313",
      "city": "SINES",
      "lon": "-8.853788186352443",
      "lat": "37.95654151566249"
    },
    {
      "id": "pt.ine.add.PTCONT.4810170",
      "street": "R AGOSTINHO RODRIGUES",
      "house": "9",
      "postcode": "7520-313",
      "city": "SINES",
      "lon": "-8.853788186352443",
      "lat": "37.95654151566249"
    },
    {
      "id": "pt.ine.add.PTCONT.4810171",
      "street": "R AGOSTINHO RODRIGUES",
      "house": "9",
      "postcode": "7520-313",
      "city": "SINES",
      "lon": "-8.853788186352443",
      "lat": "37.95654151566249"
    },
    {
      "id": "pt.ine.add.PTCONT.4810172",
      "street": "R AGOSTINHO RODRIGUES",
      "house": "9",
      "postcode": "7520-313",
      "city": "SINES",
      "lon": "-8.853788186352443",
      "lat": "37.95654151566249"
    },
    {
      "id": "pt.ine.add.PTCONT.4810173",
      "street": "R AGOSTINHO RODRIGUES",
      "house": "9",
      "postcode": "7520-313",
      "city": "SINES",
      "lon": "-8.853788186352443",
      "lat": "37.95654151566249"
    },
    {
      "id": "pt.ine.add.PTCONT.4810174",
      "street": "R AGOSTINHO RODRIGUES",
      "house": "9",
      "postcode": "7520-313",
      "city": "SINES",
      "lon": "-8.853788186352443",
      "lat": "37.95654151566249"
    },
    {
      "id": "pt.ine.add.PTCONT.4810175",
      "street": "R AGOSTINHO RODRIGUES B",
      "house": "B 6 4 L4",
      "postcode": "7520-313",
      "city": "SINES",
      "lon": "-8.853788186352443",
      "lat": "37.95654151566249"
    },
    {
      "id": "pt.ine.add.PTCONT.4810176",
      "street": "R AGOSTINHO RODRIGUES",
      "house": "9",
      "postcode": "7520-313",
      "city": "SINES",
      "lon": "-8.853788186352443",
      "lat": "37.95654151566249"
    },
    {
      "id": "pt.ine.add.PTCONT.4810371",
      "street": "BR 25 ABRIL",
      "house": "9",
      "postcode": "7520-313",
      "city": "SINES",
      "lon": "-8.853788186352443",
      "lat": "37.95654151566249"
    },
    {
      "id": "pt.ine.add.PTCONT.4907871",
      "street": "R AGOSTINHO RODRIGUES",
      "house": "3",
      "postcode": "7520-313",
      "city": "SINES",
      "lon": "-8.853296792844093",
      "lat": "37.95636195187822"
    },
    {
      "id": "pt.ine.add.PTCONT.4907872",
      "street": "R AGOSTINHO RODRIGUES",
      "house": "3",
      "postcode": "7520-313",
      "city": "SINES",
      "lon": "-8.853296792844093",
      "lat": "37.95636195187822"
    },
    {
      "id": "pt.ine.add.PTCONT.4907873",
      "street": "R AGOSTINHO RODRIGUES",
      "house": "3",
      "postcode": "7520-313",
      "city": "SINES",
      "lon": "-8.853296792844093",
      "lat": "37.95636195187822"
    },
    {
      "id": "pt.ine.add.PTCONT.4907874",
      "street": "R AGOSTINHO RODRIGUES",
      "house": "3",
      "postcode": "7520-313",
      "city": "SINES",
      "lon": "-8.853296792844093",
      "lat": "37.95636195187822"
    },
    {
      "id": "pt.ine.add.PTCONT.4907875",
      "street": "R AGOSTINHO RODRIGUES",
      "house": "3",
      "postcode": "7520-313",
      "city": "SINES",
      "lon": "-8.853296792844093",
      "lat": "37.95636195187822"
    },
    {
      "id": "pt.ine.add.PTCONT.4907876",
      "street": "R AGOSTINHO RODRIGUES",
      "house": "3",
      "postcode": "7520-313",
      "city": "SINES",
      "lon": "-8.853296792844093",
      "lat": "37.95636195187822"
    },
    {
      "id": "pt.ine.add.PTCONT.4907877",
      "street": "R AGOSTINHO RODRIGUES",
      "house": "3",
      "postcode": "7520-313",
      "city": "SINES",
      "lon": "-8.853296792844093",
      "lat": "37.95636195187822"
    },
    {
      "id": "pt.ine.add.PTCONT.4907878",
      "street": "R AGOSTINHO RODRIGUES",
      "house": "3",
      "postcode": "7520-313",
      "city": "SINES",
      "lon": "-8.853296792844093",
      "lat": "37.95636195187822"
    },
    {
      "id": "pt.ine.add.PTCONT.4907879",
      "street": "R AGOSTINHO RODRIGUES",
      "house": "3",
      "postcode": "7520-313",
      "city": "SINES",
      "lon": "-8.853296792844093",
      "lat": "37.95636195187822"
    },
    {
      "id": "pt.ine.add.PTCONT.4907880",
      "street": "R AGOSTINHO RODRIGUES B",
      "house": "B 06 1",
      "postcode": "7520-313",
      "city": "SINES",
      "lon": "-8.853296792844093",
      "lat": "37.95636195187822"
    },
    {
      "id": "pt.ine.add.PTCONT.4907881",
      "street": "R AGOSTINHO RODRIGUES",
      "house": "3",
      "postcode": "7520-313",
      "city": "SINES",
      "lon": "-8.853296792844093",
      "lat": "37.95636195187822"
    },
    {
      "id": "pt.ine.add.PTCONT.4907882",
      "street": "R AGOSTINHO RODRIGUES",
      "house": "3",
      "postcode": "7520-313",
      "city": "SINES",
      "lon": "-8.853296792844093",
      "lat": "37.95636195187822"
    },
    {
      "id": "pt.ine.add.PTCONT.4907883",
      "street": "R AGOSTINHO RODRIGUES",
      "house": "3",
      "postcode": "7520-313",
      "city": "SINES",
      "lon": "-8.853296792844093",
      "lat": "37.95636195187822"
    },
    {
      "id": "pt.ine.add.PTCONT.4908027",
      "street": "R AGOSTINHO RODRIGUES",
      "house": "3",
      "postcode": "7520-313",
      "city": "SINES",
      "lon": "-8.853296792844093",
      "lat": "37.95636195187822"
    },
    {
      "id": "pt.ine.add.PTCONT.4908028",
      "street": "R AGOSTINHO RODRIGUES",
      "house": "3",
      "postcode": "7520-313",
      "city": "SINES",
      "lon": "-8.853296792844093",
      "lat": "37.95636195187822"
    },
    {
      "id": "pt.ine.add.PTCONT.4909786",
      "street": "R AGOSTINHO RODRIGUES",
      "house": "3",
      "postcode": "7520-313",
      "city": "SINES",
      "lon": "-8.853296792844093",
      "lat": "37.95636195187822"
    },
    {
      "id": "pt.ine.add.PTCONT.4948489",
      "street": "R AGOSTINHO RODRIGUES",
      "house": "5",
      "postcode": "7520-313",
      "city": "SINES",
      "lon": "-8.85348239279156",
      "lat": "37.956422380726046"
    },
    {
      "id": "pt.ine.add.PTCONT.4948490",
      "street": "R AGOSTINHO RODRIGUES",
      "house": "5",
      "postcode": "7520-313",
      "city": "SINES",
      "lon": "-8.85348239279156",
      "lat": "37.956422380726046"
    },
    {
      "id": "pt.ine.add.PTCONT.4948491",
      "street": "R AGOSTINHO RODRIGUES",
      "house": "5",
      "postcode": "7520-313",
      "city": "SINES",
      "lon": "-8.85348239279156",
      "lat": "37.956422380726046"
    },
    {
      "id": "pt.ine.add.PTCONT.4948492",
      "street": "R AGOSTINHO RODRIGUES",
      "house": "5",
      "postcode": "7520-313",
      "city": "SINES",
      "lon": "-8.85348239279156",
      "lat": "37.956422380726046"
    },
    {
      "id": "pt.ine.add.PTCONT.4948493",
      "street": "R AGOSTINHO RODRIGUES",
      "house": "5",
      "postcode": "7520-313",
      "city": "SINES",
      "lon": "-8.85348239279156",
      "lat": "37.956422380726046"
    },
    {
      "id": "pt.ine.add.PTCONT.4948494",
      "street": "R AGOSTINHO RODRIGUES",
      "house": "5",
      "postcode": "7520-313",
      "city": "SINES",
      "lon": "-8.85348239279156",
      "lat": "37.956422380726046"
    },
    {
      "id": "pt.ine.add.PTCONT.4948495",
      "street": "R AGOSTINHO RODRIGUES",
      "house": "5",
      "postcode": "7520-313",
      "city": "SINES",
      "lon": "-8.85348239279156",
      "lat": "37.956422380726046"
    },
    {
      "id": "pt.ine.add.PTCONT.4948496",
      "street": "R AGOSTINHO RODRIGUES",
      "house": "5",
      "postcode": "7520-313",
      "city": "SINES",
      "lon": "-8.85348239279156",
      "lat": "37.956422380726046"
    },
    {
      "id": "pt.ine.add.PTCONT.4974470",
      "street": "R AGOSTINHO RODRIGUES",
      "house": "7",
      "postcode": "7520-313",
      "city": "SINES",
      "lon": "-8.853632078787912",
      "lat": "37.9564809904623"
    },
    {
      "id": "pt.ine.add.PTCONT.4974471",
      "street": "R AGOSTINHO RODRIGUES",
      "house": "7",
      "postcode": "7520-313",
      "city": "SINES",
      "lon": "-8.853632078787912",
      "lat": "37.9564809904623"
    },
    {
      "id": "pt.ine.add.PTCONT.4974472",
      "street": "R AGOSTINHO RODRIGUES",
      "house": "7",
      "postcode": "7520-313",
      "city": "SINES",
      "lon": "-8.853632078787912",
      "lat": "37.9564809904623"
    },
    {
      "id": "pt.ine.add.PTCONT.4974473",
      "street": "R AGOSTINHO RODRIGUES",
      "house": "7",
      "postcode": "7520-313",
      "city": "SINES",
      "lon": "-8.853632078787912",
      "lat": "37.9564809904623"
    },
    {
      "id": "pt.ine.add.PTCONT.4974474",
      "street": "R AGOSTINHO RODRIGUES",
      "house": "7",
      "postcode": "7520-313",
      "city": "SINES",
      "lon": "-8.853632078787912",
      "lat": "37.9564809904623"
    },
    {
      "id": "pt.ine.add.PTCONT.4974475",
      "street": "R AGOSTINHO RODRIGUES",
      "house": "7",
      "postcode": "7520-313",
      "city": "SINES",
      "lon": "-8.853632078787912",
      "lat": "37.9564809904623"
    },
    {
      "id": "pt.ine.add.PTCONT.5036366",
      "street": "R AGOSTINHO RODRIGUES",
      "house": "9",
      "postcode": "7520-313",
      "city": "SINES",
      "lon": "-8.85396119644847",
      "lat": "37.956585243966174"
    },
    {
      "id": "pt.ine.add.PTCONT.5129937",
      "street": "URB QUINTA PASSARINHOS",
      "house": "7",
      "postcode": "7520-164",
      "city": "SINES",
      "lon": "-8.853632078787912",
      "lat": "37.9564809904623"
    },
    {
      "id": "pt.ine.add.PTCONT.5131574",
      "street": "R AGOSTINHO RODRIGUES",
      "house": "7",
      "postcode": "7520-313",
      "city": "SINES",
      "lon": "-8.853632078787912",
      "lat": "37.9564809904623"
    }
  ]
}