{
  "data": {
    "distrito": "Porto",
    "concelho": "Santo Tirso",
    "freguesia": "Água Longa",
    "OBJECTID": 96,
    "BGRI2021": "13140200242",
    "DT21": "13",
    "DTMN21": "1314",
    "DTMNFR21": "131402",
    "DTMNFRSEC21": "131402002",
    "SECNUM21": "002",
    "SSNUM21": "42",
    "SECSSNUM21": "00242",
    "OBJECTID_1": 140359,
    "DT": "13",
    "CC": "14",
    "fr": "02",
    "SEC": "002",
    "SS": "42"
  },
  "addresses": [
    {
      "id": "pt.ine.add.PTCONT.3549365",
      "street": "R NSA SRA DE LURDES",
      "house": "35",
      "postcode": "4825-094",
      "city": "ÁGUA LONGA",
      "lon": "-8.492418643802823",
      "lat": "41.26121601957475"
    },
    {
      "id": "pt.ine.add.PTCONT.3575069",
      "street": "R NSA SRA DE LURDES",
      "house": "65",
      "postcode": "4825-094",
      "city": "ÁGUA LONGA",
      "lon": "-8.492745320006648",
      "lat": "41.2620343820143"
    },
    {
      "id": "pt.ine.add.PTCONT.3607166",
      "street": "TV SOBRADELO",
      "house": "10",
      "postcode": "4825-130",
      "city": "ÁGUA LONGA",
      "lon": "-8.493666372789649",
      "lat": "41.26243669034037"
    },
    {
      "id": "pt.ine.add.PTCONT.3659112",
      "street": "R SOBRADELO",
      "house": "109",
      "postcode": "4825-118",
      "city": "ÁGUA LONGA",
      "lon": "-8.493767037237722",
      "lat": "41.26338181604634"
    },
    {
      "id": "pt.ine.add.PTCONT.3730485",
      "street": "R NSA SRA DE LURDES",
      "house": "53",
      "postcode": "4825-094",
      "city": "ÁGUA LONGA",
      "lon": "-8.492611886715364",
      "lat": "41.26163861385596"
    },
    {
      "id": "pt.ine.add.PTCONT.3730486",
      "street": "R NSA SRA DE LURDES",
      "house": "53",
      "postcode": "4825-094",
      "city": "ÁGUA LONGA",
      "lon": "-8.492611886715364",
      "lat": "41.26163861385596"
    },
    {
      "id": "pt.ine.add.PTCONT.3747011",
      "street": "R SOBRADELO",
      "house": "79",
      "postcode": "4825-118",
      "city": "ÁGUA LONGA",
      "lon": "-8.493177224650463",
      "lat": "41.26245622954057"
    },
    {
      "id": "pt.ine.add.PTCONT.3747012",
      "street": "R SOBRADELO",
      "house": "79",
      "postcode": "4825-118",
      "city": "ÁGUA LONGA",
      "lon": "-8.493177224650463",
      "lat": "41.26245622954057"
    },
    {
      "id": "pt.ine.add.PTCONT.3787259",
      "street": "R FONTE",
      "house": "7",
      "postcode": "4825-086",
      "city": "ÁGUA LONGA",
      "lon": "-8.493614235311746",
      "lat": "41.26380549195027"
    },
    {
      "id": "pt.ine.add.PTCONT.3853828",
      "street": "R SOBRADELO",
      "house": "89",
      "postcode": "4825-118",
      "city": "ÁGUA LONGA",
      "lon": "-8.493536448081514",
      "lat": "41.262680210559346"
    },
    {
      "id": "pt.ine.add.PTCONT.3859097",
      "street": "TV SOBRADELO",
      "house": "14",
      "postcode": "4825-130",
      "city": "ÁGUA LONGA",
      "lon": "-8.493414446605422",
      "lat": "41.262194365582815"
    },
    {
      "id": "pt.ine.add.PTCONT.3982415",
      "street": "R SOBRADELO",
      "house": "101",
      "postcode": "4825-118",
      "city": "ÁGUA LONGA",
      "lon": "-8.49363522920133",
      "lat": "41.26328318267132"
    },
    {
      "id": "pt.ine.add.PTCONT.3994378",
      "street": "R SOBRADELO",
      "house": "97",
      "postcode": "4825-118",
      "city": "ÁGUA LONGA",
      "lon": "-8.493597350474602",
      "lat": "41.262905124891105"
    },
    {
      "id": "pt.ine.add.PTCONT.3994379",
      "street": "R SOBRADELO",
      "house": "97",
      "postcode": "4825-118",
      "city": "ÁGUA LONGA",
      "lon": "-8.493597350474602",
      "lat": "41.262905124891105"
    },
    {
      "id": "pt.ine.add.PTCONT.4066587",
      "street": "R NSA SRA DE LURDES",
      "house": "651",
      "postcode": "4825-094",
      "city": "ÁGUA LONGA",
      "lon": "-8.492673031883756",
      "lat": "41.261908548971704"
    },
    {
      "id": "pt.ine.add.PTCONT.4066588",
      "street": "R NSA SRA DE LURDES",
      "house": "651",
      "postcode": "4825-094",
      "city": "ÁGUA LONGA",
      "lon": "-8.492673031883756",
      "lat": "41.261908548971704"
    },
    {
      "id": "pt.ine.add.PTCONT.4066609",
      "street": "R NSA SRA DE LURDES",
      "house": "41",
      "postcode": "4825-094",
      "city": "ÁGUA LONGA",
      "lon": "-8.492443397458125",
      "lat": "41.26137801796879"
    },
    {
      "id": "pt.ine.add.PTCONT.4099539",
      "street": "R NSA SRA DE LURDES",
      "house": "572",
      "postcode": "4825-094",
      "city": "ÁGUA LONGA",
      "lon": "-8.492444187141917",
      "lat": "41.26152208274271"
    },
    {
      "id": "pt.ine.add.PTCONT.4135792",
      "street": "R SOBRADELO",
      "house": "115",
      "postcode": "4825-118",
      "city": "ÁGUA LONGA",
      "lon": "-8.493505401731335",
      "lat": "41.26354471091472"
    },
    {
      "id": "pt.ine.add.PTCONT.4158241",
      "street": "R NSA SRA DE LURDES",
      "house": "71",
      "postcode": "4825-094",
      "city": "ÁGUA LONGA",
      "lon": "-8.492841523430156",
      "lat": "41.262169144489484"
    },
    {
      "id": "pt.ine.add.PTCONT.4171658",
      "street": "R FONTE",
      "house": "5",
      "postcode": "4825-086",
      "city": "ÁGUA LONGA",
      "lon": "-8.493529960957972",
      "lat": "41.2636706928198"
    },
    {
      "id": "pt.ine.add.PTCONT.4232047",
      "street": "R LEIJOSO",
      "house": "8",
      "postcode": "4825-449",
      "city": "ÁGUA LONGA",
      "lon": "-8.494016639297255",
      "lat": "41.26320094990294"
    },
    {
      "id": "pt.ine.add.PTCONT.4297789",
      "street": "R NSA SRA DE LURDES",
      "house": "27",
      "postcode": "4825-094",
      "city": "ÁGUA LONGA",
      "lon": "-8.492822179454244",
      "lat": "41.26081857458418"
    },
    {
      "id": "pt.ine.add.PTCONT.4371800",
      "street": "R NSA SRA DE LURDES",
      "house": "",
      "postcode": "4825-094",
      "city": "ÁGUA LONGA",
      "lon": "-8.492380329260467",
      "lat": "41.26075692477984"
    }
  ]
}