{
  "data": {
    "distrito": "Viseu",
    "concelho": "Oliveira de Frades",
    "freguesia": "Arcozelo das Maias",
    "OBJECTID": 105,
    "BGRI2021": "18100200154",
    "DT21": "18",
    "DTMN21": "1810",
    "DTMNFR21": "181002",
    "DTMNFRSEC21": "181002001",
    "SECNUM21": "001",
    "SSNUM21": "54",
    "SECSSNUM21": "00154",
    "OBJECTID_1": 194228,
    "DT": "18",
    "CC": "10",
    "fr": "02",
    "SEC": "001",
    "SS": "54"
  },
  "addresses": [
    {
      "id": "pt.ine.add.PTCONT.5434134",
      "street": "QTA VIERIS",
      "house": "",
      "postcode": "3680-014",
      "city": "ARCOZELO DAS MAIAS",
      "lon": "-8.27139719887868",
      "lat": "40.74892533445692"
    },
    {
      "id": "pt.ine.add.PTCONT.5450016",
      "street": "",
      "house": "",
      "postcode": "3680-026",
      "city": "ARCOZELO DAS MAIAS",
      "lon": "-8.26830113300289",
      "lat": "40.75199971532231"
    },
    {
      "id": "pt.ine.add.PTCONT.5450925",
      "street": "LG PÃ“VOACAO",
      "house": "",
      "postcode": "3680-026",
      "city": "ARCOZELO DAS MAIAS",
      "lon": "-8.26503625457353",
      "lat": "40.75368743208154"
    },
    {
      "id": "pt.ine.add.PTCONT.5454391",
      "street": "ESTR PRINCIPAL",
      "house": "",
      "postcode": "3680-026",
      "city": "ARCOZELO DAS MAIAS",
      "lon": "-8.26581681729765",
      "lat": "40.75319126119042"
    },
    {
      "id": "pt.ine.add.PTCONT.5473335",
      "street": "",
      "house": "",
      "postcode": "3680-026",
      "city": "ARCOZELO DAS MAIAS",
      "lon": "-8.264751753534755",
      "lat": "40.75353467162576"
    },
    {
      "id": "pt.ine.add.PTCONT.5505127",
      "street": "",
      "house": "",
      "postcode": "3680-014",
      "city": "ARCOZELO DAS MAIAS",
      "lon": "-8.271137241665867",
      "lat": "40.74918679135788"
    },
    {
      "id": "pt.ine.add.PTCONT.5515185",
      "street": "",
      "house": "",
      "postcode": "3680-026",
      "city": "ARCOZELO DAS MAIAS",
      "lon": "-8.26544985452284",
      "lat": "40.75325471768346"
    },
    {
      "id": "pt.ine.add.PTCONT.5518212",
      "street": "",
      "house": "",
      "postcode": "3680-014",
      "city": "ARCOZELO DAS MAIAS",
      "lon": "-8.270770900257261",
      "lat": "40.749538424842406"
    },
    {
      "id": "pt.ine.add.PTCONT.5519649",
      "street": "",
      "house": "",
      "postcode": "3680-016",
      "city": "ARCOZELO DAS MAIAS",
      "lon": "-8.2696906155171",
      "lat": "40.748188954470706"
    },
    {
      "id": "pt.ine.add.PTCONT.5534613",
      "street": "",
      "house": "",
      "postcode": "3680-014",
      "city": "ARCOZELO DAS MAIAS",
      "lon": "-8.271492447821302",
      "lat": "40.74917736099411"
    },
    {
      "id": "pt.ine.add.PTCONT.5574041",
      "street": "",
      "house": "",
      "postcode": "3680-026",
      "city": "ARCOZELO DAS MAIAS",
      "lon": "-8.265248797731337",
      "lat": "40.75338101831142"
    },
    {
      "id": "pt.ine.add.PTCONT.5585149",
      "street": "",
      "house": "",
      "postcode": "3680-026",
      "city": "ARCOZELO DAS MAIAS",
      "lon": "-8.267378469476089",
      "lat": "40.752478058466316"
    },
    {
      "id": "pt.ine.add.PTCONT.5596681",
      "street": "",
      "house": "",
      "postcode": "3680-014",
      "city": "ARCOZELO DAS MAIAS",
      "lon": "-8.272710565100317",
      "lat": "40.7484644970697"
    },
    {
      "id": "pt.ine.add.PTCONT.5649199",
      "street": "",
      "house": "",
      "postcode": "3680-014",
      "city": "ARCOZELO DAS MAIAS",
      "lon": "-8.272463677483893",
      "lat": "40.7493112677908"
    },
    {
      "id": "pt.ine.add.PTCONT.5652459",
      "street": "",
      "house": "",
      "postcode": "3680-026",
      "city": "ARCOZELO DAS MAIAS",
      "lon": "-8.266053450804677",
      "lat": "40.753091933651774"
    },
    {
      "id": "pt.ine.add.PTCONT.5662324",
      "street": "",
      "house": "",
      "postcode": "3680-026",
      "city": "ARCOZELO DAS MAIAS",
      "lon": "-8.268064597757322",
      "lat": "40.752144072472205"
    }
  ]
}