{
  "data": {
    "distrito": "Braga",
    "concelho": "Guimarães",
    "freguesia": "Brito",
    "OBJECTID": 1917,
    "BGRI2021": "03080700315",
    "DT21": "03",
    "DTMN21": "0308",
    "DTMNFR21": "030807",
    "DTMNFRSEC21": "030807003",
    "SECNUM21": "003",
    "SSNUM21": "15",
    "SECSSNUM21": "00315",
    "OBJECTID_1": 26654,
    "DT": "03",
    "CC": "08",
    "fr": "07",
    "SEC": "003",
    "SS": "15"
  },
  "addresses": [
    {
      "id": "pt.ine.add.PTCONT.483673",
      "street": "R CAMÕES",
      "house": "28",
      "postcode": "4805-019",
      "city": "BRITO",
      "lon": "-8.364244854229867",
      "lat": "41.45289008483612"
    },
    {
      "id": "pt.ine.add.PTCONT.483674",
      "street": "R CAMÕES",
      "house": "28",
      "postcode": "4805-019",
      "city": "BRITO",
      "lon": "-8.364244854229867",
      "lat": "41.45289008483612"
    },
    {
      "id": "pt.ine.add.PTCONT.491900",
      "street": "R CAMOES",
      "house": "30",
      "postcode": "4805-019",
      "city": "BRITO",
      "lon": "-8.36408924048936",
      "lat": "41.452881393472936"
    },
    {
      "id": "pt.ine.add.PTCONT.491901",
      "street": "R CAMOES",
      "house": "30",
      "postcode": "4805-019",
      "city": "BRITO",
      "lon": "-8.36408924048936",
      "lat": "41.452881393472936"
    },
    {
      "id": "pt.ine.add.PTCONT.497191",
      "street": "R CAMÕES",
      "house": "6",
      "postcode": "4805-019",
      "city": "BRITO",
      "lon": "-8.365552240503028",
      "lat": "41.453697802996274"
    },
    {
      "id": "pt.ine.add.PTCONT.504811",
      "street": "R CAMÕES",
      "house": "22",
      "postcode": "4805-019",
      "city": "BRITO",
      "lon": "-8.36453281819035",
      "lat": "41.453096595966066"
    },
    {
      "id": "pt.ine.add.PTCONT.514571",
      "street": "R SANTA HELENA",
      "house": "13",
      "postcode": "4805-030",
      "city": "BRITO",
      "lon": "-8.365682312380098",
      "lat": "41.453256348266414"
    },
    {
      "id": "pt.ine.add.PTCONT.534667",
      "street": "R PARDELHAS",
      "house": "3",
      "postcode": "4805-062",
      "city": "BRITO",
      "lon": "-8.364902540010869",
      "lat": "41.45273569496321"
    },
    {
      "id": "pt.ine.add.PTCONT.541693",
      "street": "R CAMÕES",
      "house": "26",
      "postcode": "4805-019",
      "city": "BRITO",
      "lon": "-8.364245205804993",
      "lat": "41.45298912720584"
    },
    {
      "id": "pt.ine.add.PTCONT.541832",
      "street": "R ESCOLAS PRIMÁRIAS",
      "house": "20",
      "postcode": "4805-020",
      "city": "BRITO",
      "lon": "-8.363894276756831",
      "lat": "41.451900357822055"
    },
    {
      "id": "pt.ine.add.PTCONT.555909",
      "street": "R CAMÕES",
      "house": "8",
      "postcode": "4805-019",
      "city": "BRITO",
      "lon": "-8.365468207605309",
      "lat": "41.45362594144135"
    },
    {
      "id": "pt.ine.add.PTCONT.593149",
      "street": "R CAMOES",
      "house": "18",
      "postcode": "4805-019",
      "city": "BRITO",
      "lon": "-8.36468872070822",
      "lat": "41.45318632138811"
    },
    {
      "id": "pt.ine.add.PTCONT.593150",
      "street": "R CAMOES",
      "house": "18",
      "postcode": "4805-019",
      "city": "BRITO",
      "lon": "-8.36468872070822",
      "lat": "41.45318632138811"
    },
    {
      "id": "pt.ine.add.PTCONT.593151",
      "street": "R CAMOES",
      "house": "18",
      "postcode": "4805-019",
      "city": "BRITO",
      "lon": "-8.36468872070822",
      "lat": "41.45318632138811"
    },
    {
      "id": "pt.ine.add.PTCONT.593152",
      "street": "R CAMOES",
      "house": "20",
      "postcode": "4805-019",
      "city": "BRITO",
      "lon": "-8.36468872070822",
      "lat": "41.45318632138811"
    },
    {
      "id": "pt.ine.add.PTCONT.599905",
      "street": "R PARDELHAS",
      "house": "5",
      "postcode": "4805-062",
      "city": "BRITO",
      "lon": "-8.364782317390478",
      "lat": "41.45258287055919"
    },
    {
      "id": "pt.ine.add.PTCONT.604984",
      "street": "R SANTA HELENA",
      "house": "19",
      "postcode": "4805-030",
      "city": "BRITO",
      "lon": "-8.365585861969251",
      "lat": "41.45305845707672"
    },
    {
      "id": "pt.ine.add.PTCONT.604985",
      "street": "R SANTA HELENA",
      "house": "17",
      "postcode": "4805-030",
      "city": "BRITO",
      "lon": "-8.365633958486418",
      "lat": "41.45312138728035"
    },
    {
      "id": "pt.ine.add.PTCONT.615191",
      "street": "R ESCOLAS PRIMÁRIAS",
      "house": "",
      "postcode": "4805-020",
      "city": "BRITO",
      "lon": "-8.362712527286359",
      "lat": "41.45276709854432"
    },
    {
      "id": "pt.ine.add.PTCONT.615192",
      "street": "R ESCOLAS PRIMÁRIAS",
      "house": "",
      "postcode": "4805-020",
      "city": "BRITO",
      "lon": "-8.362712527286359",
      "lat": "41.45276709854432"
    },
    {
      "id": "pt.ine.add.PTCONT.615193",
      "street": "R ESCOLAS PRIMÁRIAS",
      "house": "",
      "postcode": "4805-020",
      "city": "BRITO",
      "lon": "-8.362712527286359",
      "lat": "41.45276709854432"
    },
    {
      "id": "pt.ine.add.PTCONT.615194",
      "street": "R ESCOLAS PRIMÁRIAS",
      "house": "",
      "postcode": "4805-020",
      "city": "BRITO",
      "lon": "-8.362712527286359",
      "lat": "41.45276709854432"
    },
    {
      "id": "pt.ine.add.PTCONT.626890",
      "street": "R ESCOLAS PRIMÁRIAS",
      "house": "",
      "postcode": "4805-020",
      "city": "BRITO",
      "lon": "-8.362687353585981",
      "lat": "41.45241599603459"
    },
    {
      "id": "pt.ine.add.PTCONT.626891",
      "street": "R ESCOLAS PRIMÁRIAS",
      "house": "",
      "postcode": "4805-020",
      "city": "BRITO",
      "lon": "-8.362687353585981",
      "lat": "41.45241599603459"
    },
    {
      "id": "pt.ine.add.PTCONT.626892",
      "street": "R ESCOLAS PRIMÁRIAS",
      "house": "",
      "postcode": "4805-020",
      "city": "BRITO",
      "lon": "-8.362687353585981",
      "lat": "41.45241599603459"
    },
    {
      "id": "pt.ine.add.PTCONT.626893",
      "street": "R ESCOLAS PRIMÁRIAS",
      "house": "",
      "postcode": "4805-020",
      "city": "BRITO",
      "lon": "-8.362687353585981",
      "lat": "41.45241599603459"
    },
    {
      "id": "pt.ine.add.PTCONT.666737",
      "street": "R CAMÕES",
      "house": "12",
      "postcode": "4805-019",
      "city": "BRITO",
      "lon": "-8.365072655299906",
      "lat": "41.45345566532646"
    },
    {
      "id": "pt.ine.add.PTCONT.693313",
      "street": "R PARDELHAS",
      "house": "9",
      "postcode": "4805-062",
      "city": "BRITO",
      "lon": "-8.364602128565496",
      "lat": "41.45239415104329"
    },
    {
      "id": "pt.ine.add.PTCONT.693314",
      "street": "R PARDELHAS",
      "house": "9",
      "postcode": "4805-062",
      "city": "BRITO",
      "lon": "-8.364602128565496",
      "lat": "41.45239415104329"
    },
    {
      "id": "pt.ine.add.PTCONT.694411",
      "street": "R PARDELHAS",
      "house": "17",
      "postcode": "4805-062",
      "city": "BRITO",
      "lon": "-8.36442046949095",
      "lat": "41.45179125399086"
    },
    {
      "id": "pt.ine.add.PTCONT.699274",
      "street": "R CAMÕES",
      "house": "10",
      "postcode": "4805-019",
      "city": "BRITO",
      "lon": "-8.36528823864039",
      "lat": "41.4535002499988"
    },
    {
      "id": "pt.ine.add.PTCONT.717252",
      "street": "R CAMÕES",
      "house": "14",
      "postcode": "4805-019",
      "city": "BRITO",
      "lon": "-8.364879629974872",
      "lat": "41.45302386643628"
    },
    {
      "id": "pt.ine.add.PTCONT.729103",
      "street": "R SANTA HELENA",
      "house": "21",
      "postcode": "4805-030",
      "city": "BRITO",
      "lon": "-8.365417926436296",
      "lat": "41.45295074933729"
    },
    {
      "id": "pt.ine.add.PTCONT.748376",
      "street": "R ESCOLAS PRIMÁRIAS",
      "house": "",
      "postcode": "4805-020",
      "city": "BRITO",
      "lon": "-8.362687988496841",
      "lat": "41.4525960731038"
    },
    {
      "id": "pt.ine.add.PTCONT.748377",
      "street": "R ESCOLAS PRIMÁRIAS",
      "house": "",
      "postcode": "4805-020",
      "city": "BRITO",
      "lon": "-8.362687988496841",
      "lat": "41.4525960731038"
    },
    {
      "id": "pt.ine.add.PTCONT.748378",
      "street": "R ESCOLAS PRIMÁRIAS",
      "house": "",
      "postcode": "4805-020",
      "city": "BRITO",
      "lon": "-8.362687988496841",
      "lat": "41.4525960731038"
    },
    {
      "id": "pt.ine.add.PTCONT.748379",
      "street": "R ESCOLAS PRIMÁRIAS",
      "house": "",
      "postcode": "4805-020",
      "city": "BRITO",
      "lon": "-8.362687988496841",
      "lat": "41.4525960731038"
    },
    {
      "id": "pt.ine.add.PTCONT.750192",
      "street": "R SANTA HELENA",
      "house": "1",
      "postcode": "4805-030",
      "city": "BRITO",
      "lon": "-8.365635887731077",
      "lat": "41.45366161829223"
    },
    {
      "id": "pt.ine.add.PTCONT.760053",
      "street": "R ESCOLAS PRIMÁRIAS",
      "house": "22",
      "postcode": "4805-020",
      "city": "BRITO",
      "lon": "-8.364121342656752",
      "lat": "41.45180986289521"
    },
    {
      "id": "pt.ine.add.PTCONT.760060",
      "street": "R ESCOLAS PRIMÁRIAS",
      "house": "22",
      "postcode": "4805-020",
      "city": "BRITO",
      "lon": "-8.364121342656752",
      "lat": "41.45180986289521"
    },
    {
      "id": "pt.ine.add.PTCONT.760741",
      "street": "R S HELENA",
      "house": "15",
      "postcode": "4805-030",
      "city": "BRITO",
      "lon": "-8.365670151530583",
      "lat": "41.453202349358634"
    },
    {
      "id": "pt.ine.add.PTCONT.764764",
      "street": "R SANTA HELENA",
      "house": "9",
      "postcode": "4805-030",
      "city": "BRITO",
      "lon": "-8.365634794485981",
      "lat": "41.453355487391725"
    },
    {
      "id": "pt.ine.add.PTCONT.764765",
      "street": "R SANTA HELENA",
      "house": "9",
      "postcode": "4805-030",
      "city": "BRITO",
      "lon": "-8.365634794485981",
      "lat": "41.453355487391725"
    },
    {
      "id": "pt.ine.add.PTCONT.771089",
      "street": "R PARDELHAS",
      "house": "1",
      "postcode": "4805-062",
      "city": "BRITO",
      "lon": "-8.365130922838139",
      "lat": "41.45301435596302"
    },
    {
      "id": "pt.ine.add.PTCONT.771090",
      "street": "R SANTA HELENA",
      "house": "21 A",
      "postcode": "4805-030",
      "city": "BRITO",
      "lon": "-8.365525829834766",
      "lat": "41.45300455488255"
    },
    {
      "id": "pt.ine.add.PTCONT.788798",
      "street": "R PARDELHAS",
      "house": "11",
      "postcode": "4805-062",
      "city": "BRITO",
      "lon": "-8.364769228449077",
      "lat": "41.45226775983068"
    },
    {
      "id": "pt.ine.add.PTCONT.801078",
      "street": "R SANTA HELENA",
      "house": "7",
      "postcode": "4805-030",
      "city": "BRITO",
      "lon": "-8.365646923179622",
      "lat": "41.45340048245168"
    },
    {
      "id": "pt.ine.add.PTCONT.804591",
      "street": "R ESCOLAS PRIMARIAS",
      "house": "BLOCO 8",
      "postcode": "4805-020",
      "city": "BRITO",
      "lon": "-8.362686877406626",
      "lat": "41.45228093822895"
    },
    {
      "id": "pt.ine.add.PTCONT.804669",
      "street": "R ESCOLAS PRIMARIAS",
      "house": "81010 8",
      "postcode": "4805-020",
      "city": "BRITO",
      "lon": "-8.362686877406626",
      "lat": "41.45228093822895"
    },
    {
      "id": "pt.ine.add.PTCONT.804670",
      "street": "R ESCOLAS PRIMARIAS",
      "house": "BLOCO 8",
      "postcode": "4805-020",
      "city": "BRITO",
      "lon": "-8.362686877406626",
      "lat": "41.45228093822895"
    },
    {
      "id": "pt.ine.add.PTCONT.805083",
      "street": "R ESCOLAS PRIMARIAS",
      "house": "BLOCO 8",
      "postcode": "4805-020",
      "city": "BRITO",
      "lon": "-8.362686877406626",
      "lat": "41.45228093822895"
    },
    {
      "id": "pt.ine.add.PTCONT.822240",
      "street": "R CAMÕES",
      "house": "24",
      "postcode": "4805-019",
      "city": "BRITO",
      "lon": "-8.364365140118105",
      "lat": "41.45306091749854"
    },
    {
      "id": "pt.ine.add.PTCONT.848946",
      "street": "R CAMÕES",
      "house": "22",
      "postcode": "4805-019",
      "city": "BRITO",
      "lon": "-8.36453281819035",
      "lat": "41.453096595966066"
    }
  ]
}