{
  "data": {
    "distrito": "Lisboa",
    "concelho": "Cascais",
    "freguesia": "São Domingos de Rana",
    "OBJECTID": 1899,
    "BGRI2021": "11050601911",
    "DT21": "11",
    "DTMN21": "1105",
    "DTMNFR21": "110506",
    "DTMNFRSEC21": "110506019",
    "SECNUM21": "019",
    "SSNUM21": "11",
    "SECSSNUM21": "01911",
    "OBJECTID_1": 101848,
    "DT": "11",
    "CC": "05",
    "fr": "06",
    "SEC": "019",
    "SS": "11"
  },
  "addresses": [
    {
      "id": "pt.ine.add.PTCONT.2941553",
      "street": "R ORQUIDEAS",
      "house": "61",
      "postcode": "2785-288",
      "city": "SÃO DOMINGOS DE RANA",
      "lon": "-9.323278441395097",
      "lat": "38.70884271142523"
    },
    {
      "id": "pt.ine.add.PTCONT.2954894",
      "street": "R CACTOS",
      "house": "67",
      "postcode": "2785-288",
      "city": "SÃO DOMINGOS DE RANA",
      "lon": "-9.323747917718586",
      "lat": "38.70872983799481"
    },
    {
      "id": "pt.ine.add.PTCONT.2973023",
      "street": "R LILAZES",
      "house": "",
      "postcode": "2785-288",
      "city": "SÃO DOMINGOS DE RANA",
      "lon": "-9.323923620127239",
      "lat": "38.70892621957689"
    },
    {
      "id": "pt.ine.add.PTCONT.3018636",
      "street": "R MARGARIDAS",
      "house": "9S",
      "postcode": "2785-288",
      "city": "SÃO DOMINGOS DE RANA",
      "lon": "-9.324319226776984",
      "lat": "38.70990403680948"
    },
    {
      "id": "pt.ine.add.PTCONT.3018637",
      "street": "R MARGARIDAS",
      "house": "9S",
      "postcode": "2785-288",
      "city": "SÃO DOMINGOS DE RANA",
      "lon": "-9.324319226776984",
      "lat": "38.70990403680948"
    },
    {
      "id": "pt.ine.add.PTCONT.3018638",
      "street": "R MARGARIDAS",
      "house": "9S",
      "postcode": "2785-288",
      "city": "SÃO DOMINGOS DE RANA",
      "lon": "-9.324319226776984",
      "lat": "38.70990403680948"
    },
    {
      "id": "pt.ine.add.PTCONT.3024659",
      "street": "R MARGARIDAS",
      "house": "9S",
      "postcode": "2785-288",
      "city": "SÃO DOMINGOS DE RANA",
      "lon": "-9.324319226776984",
      "lat": "38.70990403680948"
    },
    {
      "id": "pt.ine.add.PTCONT.3045788",
      "street": "R MIMOSAS",
      "house": "68",
      "postcode": "2785-818",
      "city": "SÃO DOMINGOS DE RANA",
      "lon": "-9.324675407796565",
      "lat": "38.709891399429544"
    },
    {
      "id": "pt.ine.add.PTCONT.3055473",
      "street": "R MIMOSAS",
      "house": "180 A",
      "postcode": "2785-818",
      "city": "SÃO DOMINGOS DE RANA",
      "lon": "-9.325000267407603",
      "lat": "38.71076184189133"
    },
    {
      "id": "pt.ine.add.PTCONT.3066188",
      "street": "R ORQUIDEAS",
      "house": "",
      "postcode": "2785-288",
      "city": "SÃO DOMINGOS DE RANA",
      "lon": "-9.323364129156472",
      "lat": "38.70915711122034"
    },
    {
      "id": "pt.ine.add.PTCONT.3074844",
      "street": "R ORQUIDEAS",
      "house": "",
      "postcode": "2785-288",
      "city": "SÃO DOMINGOS DE RANA",
      "lon": "-9.323275006667258",
      "lat": "38.70863556756222"
    },
    {
      "id": "pt.ine.add.PTCONT.3074843",
      "street": "R ORQUIDEAS",
      "house": "",
      "postcode": "2785-288",
      "city": "SÃO DOMINGOS DE RANA",
      "lon": "-9.323275006667258",
      "lat": "38.70863556756222"
    },
    {
      "id": "pt.ine.add.PTCONT.3081745",
      "street": "LG TOPAZIOS",
      "house": "",
      "postcode": "2785-817",
      "city": "SÃO DOMINGOS DE RANA",
      "lon": "-9.325881046419946",
      "lat": "38.711185232239266"
    },
    {
      "id": "pt.ine.add.PTCONT.3081746",
      "street": "LG TOPAZIOS",
      "house": "",
      "postcode": "2785-817",
      "city": "SÃO DOMINGOS DE RANA",
      "lon": "-9.325881046419946",
      "lat": "38.711185232239266"
    },
    {
      "id": "pt.ine.add.PTCONT.3081747",
      "street": "LG TOPAZIOS",
      "house": "",
      "postcode": "2785-817",
      "city": "SÃO DOMINGOS DE RANA",
      "lon": "-9.325881046419946",
      "lat": "38.711185232239266"
    },
    {
      "id": "pt.ine.add.PTCONT.3081748",
      "street": "LG TOPAZIOS",
      "house": "",
      "postcode": "2785-817",
      "city": "SÃO DOMINGOS DE RANA",
      "lon": "-9.325881046419946",
      "lat": "38.711185232239266"
    },
    {
      "id": "pt.ine.add.PTCONT.3081749",
      "street": "LG TOPAZIOS",
      "house": "",
      "postcode": "2785-817",
      "city": "SÃO DOMINGOS DE RANA",
      "lon": "-9.325881046419946",
      "lat": "38.711185232239266"
    },
    {
      "id": "pt.ine.add.PTCONT.3081750",
      "street": "LG TOPAZIOS",
      "house": "",
      "postcode": "2785-817",
      "city": "SÃO DOMINGOS DE RANA",
      "lon": "-9.325881046419946",
      "lat": "38.711185232239266"
    },
    {
      "id": "pt.ine.add.PTCONT.3081751",
      "street": "LG TOPAZIOS",
      "house": "",
      "postcode": "2785-817",
      "city": "SÃO DOMINGOS DE RANA",
      "lon": "-9.325881046419946",
      "lat": "38.711185232239266"
    },
    {
      "id": "pt.ine.add.PTCONT.3081752",
      "street": "LG TOPAZIOS",
      "house": "",
      "postcode": "2785-817",
      "city": "SÃO DOMINGOS DE RANA",
      "lon": "-9.325881046419946",
      "lat": "38.711185232239266"
    },
    {
      "id": "pt.ine.add.PTCONT.3081753",
      "street": "LG TOPAZIOS",
      "house": "",
      "postcode": "2785-817",
      "city": "SÃO DOMINGOS DE RANA",
      "lon": "-9.325881046419946",
      "lat": "38.711185232239266"
    },
    {
      "id": "pt.ine.add.PTCONT.3081754",
      "street": "LG TOPAZIOS",
      "house": "",
      "postcode": "2785-817",
      "city": "SÃO DOMINGOS DE RANA",
      "lon": "-9.325881046419946",
      "lat": "38.711185232239266"
    },
    {
      "id": "pt.ine.add.PTCONT.3081755",
      "street": "LG TOPAZIOS",
      "house": "",
      "postcode": "2785-817",
      "city": "SÃO DOMINGOS DE RANA",
      "lon": "-9.325881046419946",
      "lat": "38.711185232239266"
    },
    {
      "id": "pt.ine.add.PTCONT.3081756",
      "street": "LG TOPAZIOS",
      "house": "",
      "postcode": "2785-817",
      "city": "SÃO DOMINGOS DE RANA",
      "lon": "-9.325881046419946",
      "lat": "38.711185232239266"
    },
    {
      "id": "pt.ine.add.PTCONT.3081757",
      "street": "LG TOPAZIOS",
      "house": "",
      "postcode": "2785-817",
      "city": "SÃO DOMINGOS DE RANA",
      "lon": "-9.325881046419946",
      "lat": "38.711185232239266"
    },
    {
      "id": "pt.ine.add.PTCONT.3081758",
      "street": "LG TOPAZIOS",
      "house": "",
      "postcode": "2785-817",
      "city": "SÃO DOMINGOS DE RANA",
      "lon": "-9.325881046419946",
      "lat": "38.711185232239266"
    },
    {
      "id": "pt.ine.add.PTCONT.3081992",
      "street": "LG TOPAZIOS",
      "house": "",
      "postcode": "2785-817",
      "city": "SÃO DOMINGOS DE RANA",
      "lon": "-9.325881046419946",
      "lat": "38.711185232239266"
    },
    {
      "id": "pt.ine.add.PTCONT.3093438",
      "street": "R MARGARIDAS",
      "house": "22",
      "postcode": "2785-288",
      "city": "SÃO DOMINGOS DE RANA",
      "lon": "-9.324171876781636",
      "lat": "38.70933804832928"
    },
    {
      "id": "pt.ine.add.PTCONT.3093439",
      "street": "R MARGARIDAS",
      "house": "22",
      "postcode": "2785-288",
      "city": "SÃO DOMINGOS DE RANA",
      "lon": "-9.324171876781636",
      "lat": "38.70933804832928"
    },
    {
      "id": "pt.ine.add.PTCONT.3120859",
      "street": "R BUGANVILIAS",
      "house": "",
      "postcode": "2785-288",
      "city": "SÃO DOMINGOS DE RANA",
      "lon": "-9.322398303232774",
      "lat": "38.708455325633125"
    },
    {
      "id": "pt.ine.add.PTCONT.3149606",
      "street": "R ORQUIDEAS",
      "house": "76",
      "postcode": "2785-288",
      "city": "SÃO DOMINGOS DE RANA",
      "lon": "-9.323004368152947",
      "lat": "38.708953594425004"
    },
    {
      "id": "pt.ine.add.PTCONT.3202551",
      "street": "LG TOPAZIOS",
      "house": "",
      "postcode": "2785-817",
      "city": "SÃO DOMINGOS DE RANA",
      "lon": "-9.325628611207721",
      "lat": "38.71121483069193"
    },
    {
      "id": "pt.ine.add.PTCONT.3202552",
      "street": "LG TOPAZIOS",
      "house": "",
      "postcode": "2785-817",
      "city": "SÃO DOMINGOS DE RANA",
      "lon": "-9.325628611207721",
      "lat": "38.71121483069193"
    },
    {
      "id": "pt.ine.add.PTCONT.3202553",
      "street": "LG TOPAZIOS",
      "house": "",
      "postcode": "2785-817",
      "city": "SÃO DOMINGOS DE RANA",
      "lon": "-9.325628611207721",
      "lat": "38.71121483069193"
    },
    {
      "id": "pt.ine.add.PTCONT.3202554",
      "street": "LG TOPAZIOS",
      "house": "",
      "postcode": "2785-817",
      "city": "SÃO DOMINGOS DE RANA",
      "lon": "-9.325628611207721",
      "lat": "38.71121483069193"
    },
    {
      "id": "pt.ine.add.PTCONT.3202555",
      "street": "LG TOPAZIOS",
      "house": "",
      "postcode": "2785-817",
      "city": "SÃO DOMINGOS DE RANA",
      "lon": "-9.325628611207721",
      "lat": "38.71121483069193"
    },
    {
      "id": "pt.ine.add.PTCONT.3202556",
      "street": "LG TOPAZIOS",
      "house": "",
      "postcode": "2785-817",
      "city": "SÃO DOMINGOS DE RANA",
      "lon": "-9.325628611207721",
      "lat": "38.71121483069193"
    },
    {
      "id": "pt.ine.add.PTCONT.3202557",
      "street": "LG TOPAZIOS",
      "house": "",
      "postcode": "2785-817",
      "city": "SÃO DOMINGOS DE RANA",
      "lon": "-9.325628611207721",
      "lat": "38.71121483069193"
    },
    {
      "id": "pt.ine.add.PTCONT.3202558",
      "street": "LG TOPAZIOS",
      "house": "",
      "postcode": "2785-817",
      "city": "SÃO DOMINGOS DE RANA",
      "lon": "-9.325628611207721",
      "lat": "38.71121483069193"
    },
    {
      "id": "pt.ine.add.PTCONT.3202559",
      "street": "LG TOPAZIOS",
      "house": "",
      "postcode": "2785-817",
      "city": "SÃO DOMINGOS DE RANA",
      "lon": "-9.325628611207721",
      "lat": "38.71121483069193"
    },
    {
      "id": "pt.ine.add.PTCONT.3202645",
      "street": "LG TOPAZIOS",
      "house": "",
      "postcode": "2785-817",
      "city": "SÃO DOMINGOS DE RANA",
      "lon": "-9.325628611207721",
      "lat": "38.71121483069193"
    },
    {
      "id": "pt.ine.add.PTCONT.3213682",
      "street": "R MARGARIDAS",
      "house": "92",
      "postcode": "2785-288",
      "city": "SÃO DOMINGOS DE RANA",
      "lon": "-9.323904975228848",
      "lat": "38.70988123349164"
    },
    {
      "id": "pt.ine.add.PTCONT.3232461",
      "street": "R MARGARIDAS",
      "house": "89",
      "postcode": "2785-288",
      "city": "SÃO DOMINGOS DE RANA",
      "lon": "-9.324329077096639",
      "lat": "38.70980485094599"
    },
    {
      "id": "pt.ine.add.PTCONT.3232465",
      "street": "R BUGANVILIAS",
      "house": "48",
      "postcode": "2785-288",
      "city": "SÃO DOMINGOS DE RANA",
      "lon": "-9.32242457486741",
      "lat": "38.708653229460175"
    },
    {
      "id": "pt.ine.add.PTCONT.3241802",
      "street": "PCT GOIVOS",
      "house": "7",
      "postcode": "2785-288",
      "city": "SÃO DOMINGOS DE RANA",
      "lon": "-9.324088576294036",
      "lat": "38.70916774922285"
    },
    {
      "id": "pt.ine.add.PTCONT.3241803",
      "street": "PCT GOIVOS",
      "house": "7",
      "postcode": "2785-288",
      "city": "SÃO DOMINGOS DE RANA",
      "lon": "-9.324088576294036",
      "lat": "38.70916774922285"
    },
    {
      "id": "pt.ine.add.PTCONT.3241804",
      "street": "PCT GOIVOS",
      "house": "7",
      "postcode": "2785-288",
      "city": "SÃO DOMINGOS DE RANA",
      "lon": "-9.324088576294036",
      "lat": "38.70916774922285"
    },
    {
      "id": "pt.ine.add.PTCONT.3241987",
      "street": "R ORQUIDEAS",
      "house": "L 1 15",
      "postcode": "2785-288",
      "city": "SÃO DOMINGOS DE RANA",
      "lon": "-9.323272019976104",
      "lat": "38.70845544245775"
    },
    {
      "id": "pt.ine.add.PTCONT.3260813",
      "street": "R CACTOS",
      "house": "63",
      "postcode": "2785-288",
      "city": "SÃO DOMINGOS DE RANA",
      "lon": "-9.323782998362962",
      "lat": "38.70876551183281"
    },
    {
      "id": "pt.ine.add.PTCONT.3268983",
      "street": "R BUGANVILIAS",
      "house": "37",
      "postcode": "2785-288",
      "city": "SÃO DOMINGOS DE RANA",
      "lon": "-9.322791796683015",
      "lat": "38.708613462211886"
    },
    {
      "id": "pt.ine.add.PTCONT.3303438",
      "street": "R DIAMANTES",
      "house": "",
      "postcode": "2785-817",
      "city": "SÃO DOMINGOS DE RANA",
      "lon": "-9.325946902437826",
      "lat": "38.71168899541499"
    },
    {
      "id": "pt.ine.add.PTCONT.3303439",
      "street": "R DIAMANTES",
      "house": "",
      "postcode": "2785-817",
      "city": "SÃO DOMINGOS DE RANA",
      "lon": "-9.325946902437826",
      "lat": "38.71168899541499"
    },
    {
      "id": "pt.ine.add.PTCONT.3303440",
      "street": "R DIAMANTES",
      "house": "",
      "postcode": "2785-817",
      "city": "SÃO DOMINGOS DE RANA",
      "lon": "-9.325946902437826",
      "lat": "38.71168899541499"
    },
    {
      "id": "pt.ine.add.PTCONT.3303441",
      "street": "R DIAMANTES",
      "house": "",
      "postcode": "2785-817",
      "city": "SÃO DOMINGOS DE RANA",
      "lon": "-9.325946902437826",
      "lat": "38.71168899541499"
    },
    {
      "id": "pt.ine.add.PTCONT.3303442",
      "street": "R DIAMANTES",
      "house": "",
      "postcode": "2785-817",
      "city": "SÃO DOMINGOS DE RANA",
      "lon": "-9.325946902437826",
      "lat": "38.71168899541499"
    },
    {
      "id": "pt.ine.add.PTCONT.3303443",
      "street": "R DIAMANTES",
      "house": "",
      "postcode": "2785-817",
      "city": "SÃO DOMINGOS DE RANA",
      "lon": "-9.325946902437826",
      "lat": "38.71168899541499"
    },
    {
      "id": "pt.ine.add.PTCONT.3303444",
      "street": "R DIAMANTES",
      "house": "",
      "postcode": "2785-817",
      "city": "SÃO DOMINGOS DE RANA",
      "lon": "-9.325946902437826",
      "lat": "38.71168899541499"
    },
    {
      "id": "pt.ine.add.PTCONT.3303445",
      "street": "R DIAMANTES",
      "house": "",
      "postcode": "2785-817",
      "city": "SÃO DOMINGOS DE RANA",
      "lon": "-9.325946902437826",
      "lat": "38.71168899541499"
    },
    {
      "id": "pt.ine.add.PTCONT.3303446",
      "street": "R DIAMANTES",
      "house": "",
      "postcode": "2785-817",
      "city": "SÃO DOMINGOS DE RANA",
      "lon": "-9.325946902437826",
      "lat": "38.71168899541499"
    },
    {
      "id": "pt.ine.add.PTCONT.3303448",
      "street": "R DIAMANTES",
      "house": "",
      "postcode": "2785-817",
      "city": "SÃO DOMINGOS DE RANA",
      "lon": "-9.325946902437826",
      "lat": "38.71168899541499"
    },
    {
      "id": "pt.ine.add.PTCONT.3303449",
      "street": "R DIAMANTES",
      "house": "",
      "postcode": "2785-817",
      "city": "SÃO DOMINGOS DE RANA",
      "lon": "-9.325946902437826",
      "lat": "38.71168899541499"
    },
    {
      "id": "pt.ine.add.PTCONT.3303450",
      "street": "R DIAMANTES",
      "house": "",
      "postcode": "2785-817",
      "city": "SÃO DOMINGOS DE RANA",
      "lon": "-9.325946902437826",
      "lat": "38.71168899541499"
    },
    {
      "id": "pt.ine.add.PTCONT.3303451",
      "street": "R DIAMANTES",
      "house": "",
      "postcode": "2785-817",
      "city": "SÃO DOMINGOS DE RANA",
      "lon": "-9.325946902437826",
      "lat": "38.71168899541499"
    },
    {
      "id": "pt.ine.add.PTCONT.3303452",
      "street": "R DIAMANTES",
      "house": "",
      "postcode": "2785-817",
      "city": "SÃO DOMINGOS DE RANA",
      "lon": "-9.325946902437826",
      "lat": "38.71168899541499"
    },
    {
      "id": "pt.ine.add.PTCONT.3303518",
      "street": "R DIAMANTES",
      "house": "",
      "postcode": "2785-817",
      "city": "SÃO DOMINGOS DE RANA",
      "lon": "-9.325946902437826",
      "lat": "38.71168899541499"
    },
    {
      "id": "pt.ine.add.PTCONT.3308777",
      "street": "R LILAZES",
      "house": "90",
      "postcode": "2785-288",
      "city": "SÃO DOMINGOS DE RANA",
      "lon": "-9.323811066796399",
      "lat": "38.70907149030864"
    },
    {
      "id": "pt.ine.add.PTCONT.3311470",
      "street": "R CACTOS",
      "house": "22",
      "postcode": "2785-288",
      "city": "SÃO DOMINGOS DE RANA",
      "lon": "-9.323467871259654",
      "lat": "38.70848047190302"
    },
    {
      "id": "pt.ine.add.PTCONT.3393422",
      "street": "LG JARDIM S PEDRO",
      "house": "70",
      "postcode": "2785-288",
      "city": "SÃO DOMINGOS DE RANA",
      "lon": "-9.324192773315765",
      "lat": "38.70921172661217"
    },
    {
      "id": "pt.ine.add.PTCONT.3393423",
      "street": "LG JARDIM S PEDRO",
      "house": "70",
      "postcode": "2785-288",
      "city": "SÃO DOMINGOS DE RANA",
      "lon": "-9.324192773315765",
      "lat": "38.70921172661217"
    },
    {
      "id": "pt.ine.add.PTCONT.3393424",
      "street": "LG JARDIM S PEDRO",
      "house": "2",
      "postcode": "2785-288",
      "city": "SÃO DOMINGOS DE RANA",
      "lon": "-9.324192773315765",
      "lat": "38.70921172661217"
    },
    {
      "id": "pt.ine.add.PTCONT.3398427",
      "street": "R CACTOS",
      "house": "1",
      "postcode": "2785-288",
      "city": "SÃO DOMINGOS DE RANA",
      "lon": "-9.32377538838447",
      "lat": "38.708999791472095"
    },
    {
      "id": "pt.ine.add.PTCONT.3398606",
      "street": "R CACTOS",
      "house": "42",
      "postcode": "2785-288",
      "city": "SÃO DOMINGOS DE RANA",
      "lon": "-9.323510419884641",
      "lat": "38.708966458538534"
    },
    {
      "id": "pt.ine.add.PTCONT.3408890",
      "street": "R MIMOSAS",
      "house": "136",
      "postcode": "2785-818",
      "city": "SÃO DOMINGOS DE RANA",
      "lon": "-9.324695724068434",
      "lat": "38.71042265091551"
    },
    {
      "id": "pt.ine.add.PTCONT.3408891",
      "street": "R CACTOS",
      "house": "57",
      "postcode": "2785-288",
      "city": "SÃO DOMINGOS DE RANA",
      "lon": "-9.323795239723651",
      "lat": "38.708810426037765"
    },
    {
      "id": "pt.ine.add.PTCONT.3408892",
      "street": "R ORQUIDEAS",
      "house": "",
      "postcode": "2785-288",
      "city": "SÃO DOMINGOS DE RANA",
      "lon": "-9.323041536604547",
      "lat": "38.70842175739039"
    },
    {
      "id": "pt.ine.add.PTCONT.3415989",
      "street": "R ORQUIDEAS",
      "house": "46",
      "postcode": "2785-288",
      "city": "SÃO DOMINGOS DE RANA",
      "lon": "-9.322977199001002",
      "lat": "38.708701653229966"
    },
    {
      "id": "pt.ine.add.PTCONT.3433556",
      "street": "LG TOPAZIOS",
      "house": "",
      "postcode": "2785-817",
      "city": "SÃO DOMINGOS DE RANA",
      "lon": "-9.325906580433259",
      "lat": "38.71133810381279"
    },
    {
      "id": "pt.ine.add.PTCONT.3440990",
      "street": "LG TOPAZIOS",
      "house": "105",
      "postcode": "2785-817",
      "city": "SÃO DOMINGOS DE RANA",
      "lon": "-9.325444844997785",
      "lat": "38.711225712756075"
    },
    {
      "id": "pt.ine.add.PTCONT.3441230",
      "street": "R ORQUIDEAS",
      "house": "51",
      "postcode": "2785-288",
      "city": "SÃO DOMINGOS DE RANA",
      "lon": "-9.323277246703146",
      "lat": "38.70877066138679"
    },
    {
      "id": "pt.ine.add.PTCONT.3445032",
      "street": "R DIAMANTES",
      "house": "",
      "postcode": "2785-817",
      "city": "SÃO DOMINGOS DE RANA",
      "lon": "-9.325946902437826",
      "lat": "38.71168899541499"
    },
    {
      "id": "pt.ine.add.PTCONT.3449635",
      "street": "LG TOPAZIOS",
      "house": "",
      "postcode": "2785-817",
      "city": "SÃO DOMINGOS DE RANA",
      "lon": "-9.325881046419946",
      "lat": "38.711185232239266"
    },
    {
      "id": "pt.ine.add.PTCONT.3456633",
      "street": "R DIAMANTES",
      "house": "",
      "postcode": "2785-817",
      "city": "SÃO DOMINGOS DE RANA",
      "lon": "-9.325706109965749",
      "lat": "38.71172748302139"
    },
    {
      "id": "pt.ine.add.PTCONT.2296563",
      "street": "PCT GOIVOS",
      "house": "17",
      "postcode": "2785-288",
      "city": "SÃO DOMINGOS DE RANA",
      "lon": "-9.323962137696794",
      "lat": "38.709169037157984"
    },
    {
      "id": "pt.ine.add.PTCONT.2311995",
      "street": "LG TOPAZIOS",
      "house": "",
      "postcode": "2785-817",
      "city": "SÃO DOMINGOS DE RANA",
      "lon": "-9.325906580433259",
      "lat": "38.71133810381279"
    },
    {
      "id": "pt.ine.add.PTCONT.2311996",
      "street": "LG TOPAZIOS",
      "house": "",
      "postcode": "2785-817",
      "city": "SÃO DOMINGOS DE RANA",
      "lon": "-9.325906580433259",
      "lat": "38.71133810381279"
    },
    {
      "id": "pt.ine.add.PTCONT.2311997",
      "street": "LG TOPAZIOS",
      "house": "",
      "postcode": "2785-817",
      "city": "SÃO DOMINGOS DE RANA",
      "lon": "-9.325906580433259",
      "lat": "38.71133810381279"
    },
    {
      "id": "pt.ine.add.PTCONT.2311998",
      "street": "LG TOPAZIOS",
      "house": "",
      "postcode": "2785-817",
      "city": "SÃO DOMINGOS DE RANA",
      "lon": "-9.325906580433259",
      "lat": "38.71133810381279"
    },
    {
      "id": "pt.ine.add.PTCONT.2311999",
      "street": "LG TOPAZIOS",
      "house": "",
      "postcode": "2785-817",
      "city": "SÃO DOMINGOS DE RANA",
      "lon": "-9.325906580433259",
      "lat": "38.71133810381279"
    },
    {
      "id": "pt.ine.add.PTCONT.2312000",
      "street": "LG TOPAZIOS",
      "house": "",
      "postcode": "2785-817",
      "city": "SÃO DOMINGOS DE RANA",
      "lon": "-9.325906580433259",
      "lat": "38.71133810381279"
    },
    {
      "id": "pt.ine.add.PTCONT.2312001",
      "street": "LG TOPAZIOS",
      "house": "",
      "postcode": "2785-817",
      "city": "SÃO DOMINGOS DE RANA",
      "lon": "-9.325906580433259",
      "lat": "38.71133810381279"
    },
    {
      "id": "pt.ine.add.PTCONT.2312002",
      "street": "LG TOPAZIOS",
      "house": "",
      "postcode": "2785-817",
      "city": "SÃO DOMINGOS DE RANA",
      "lon": "-9.325906580433259",
      "lat": "38.71133810381279"
    },
    {
      "id": "pt.ine.add.PTCONT.2312003",
      "street": "LG TOPAZIOS",
      "house": "",
      "postcode": "2785-817",
      "city": "SÃO DOMINGOS DE RANA",
      "lon": "-9.325906580433259",
      "lat": "38.71133810381279"
    },
    {
      "id": "pt.ine.add.PTCONT.2312133",
      "street": "LG TOPAZIOS",
      "house": "",
      "postcode": "2785-817",
      "city": "SÃO DOMINGOS DE RANA",
      "lon": "-9.325906580433259",
      "lat": "38.71133810381279"
    },
    {
      "id": "pt.ine.add.PTCONT.2332407",
      "street": "R BUGANVILIAS",
      "house": "88",
      "postcode": "2785-288",
      "city": "SÃO DOMINGOS DE RANA",
      "lon": "-9.322349934044542",
      "lat": "38.70900529197178"
    },
    {
      "id": "pt.ine.add.PTCONT.2387142",
      "street": "R ORQUIDEAS",
      "house": "32",
      "postcode": "2785-288",
      "city": "SÃO DOMINGOS DE RANA",
      "lon": "-9.323032431164222",
      "lat": "38.708565974473764"
    },
    {
      "id": "pt.ine.add.PTCONT.2387157",
      "street": "LG TOPAZIOS",
      "house": "74",
      "postcode": "2785-817",
      "city": "SÃO DOMINGOS DE RANA",
      "lon": "-9.32592061978177",
      "lat": "38.71149109265282"
    },
    {
      "id": "pt.ine.add.PTCONT.2387158",
      "street": "LG TOPAZIOS",
      "house": "74",
      "postcode": "2785-817",
      "city": "SÃO DOMINGOS DE RANA",
      "lon": "-9.32592061978177",
      "lat": "38.71149109265282"
    },
    {
      "id": "pt.ine.add.PTCONT.2387159",
      "street": "LG TOPAZIOS",
      "house": "101",
      "postcode": "2785-817",
      "city": "SÃO DOMINGOS DE RANA",
      "lon": "-9.32592061978177",
      "lat": "38.71149109265282"
    },
    {
      "id": "pt.ine.add.PTCONT.2387160",
      "street": "LG TOPAZIOS",
      "house": "74",
      "postcode": "2785-817",
      "city": "SÃO DOMINGOS DE RANA",
      "lon": "-9.32592061978177",
      "lat": "38.71149109265282"
    },
    {
      "id": "pt.ine.add.PTCONT.2387163",
      "street": "LG TOPAZIOS",
      "house": "101",
      "postcode": "2785-817",
      "city": "SÃO DOMINGOS DE RANA",
      "lon": "-9.32592061978177",
      "lat": "38.71149109265282"
    },
    {
      "id": "pt.ine.add.PTCONT.2387164",
      "street": "LG TOPAZIOS",
      "house": "74",
      "postcode": "2785-817",
      "city": "SÃO DOMINGOS DE RANA",
      "lon": "-9.32592061978177",
      "lat": "38.71149109265282"
    },
    {
      "id": "pt.ine.add.PTCONT.2387165",
      "street": "LG TOPAZIOS",
      "house": "74",
      "postcode": "2785-817",
      "city": "SÃO DOMINGOS DE RANA",
      "lon": "-9.32592061978177",
      "lat": "38.71149109265282"
    },
    {
      "id": "pt.ine.add.PTCONT.2387166",
      "street": "LG TOPAZIOS",
      "house": "101",
      "postcode": "2785-817",
      "city": "SÃO DOMINGOS DE RANA",
      "lon": "-9.32592061978177",
      "lat": "38.71149109265282"
    },
    {
      "id": "pt.ine.add.PTCONT.2387167",
      "street": "LG TOPAZIOS",
      "house": "101",
      "postcode": "2785-817",
      "city": "SÃO DOMINGOS DE RANA",
      "lon": "-9.32592061978177",
      "lat": "38.71149109265282"
    },
    {
      "id": "pt.ine.add.PTCONT.2387168",
      "street": "LG TOPAZIOS",
      "house": "101",
      "postcode": "2785-817",
      "city": "SÃO DOMINGOS DE RANA",
      "lon": "-9.32592061978177",
      "lat": "38.71149109265282"
    },
    {
      "id": "pt.ine.add.PTCONT.2387169",
      "street": "LG TOPAZIOS",
      "house": "101",
      "postcode": "2785-817",
      "city": "SÃO DOMINGOS DE RANA",
      "lon": "-9.32592061978177",
      "lat": "38.71149109265282"
    },
    {
      "id": "pt.ine.add.PTCONT.2402566",
      "street": "R ORQUIDEAS",
      "house": "88",
      "postcode": "2785-288",
      "city": "SÃO DOMINGOS DE RANA",
      "lon": "-9.323215299027613",
      "lat": "38.70919465740246"
    },
    {
      "id": "pt.ine.add.PTCONT.2422195",
      "street": "R DIAMANTES",
      "house": "",
      "postcode": "2785-817",
      "city": "SÃO DOMINGOS DE RANA",
      "lon": "-9.325706109965749",
      "lat": "38.71172748302139"
    },
    {
      "id": "pt.ine.add.PTCONT.2422196",
      "street": "R DIAMANTES",
      "house": "",
      "postcode": "2785-817",
      "city": "SÃO DOMINGOS DE RANA",
      "lon": "-9.325706109965749",
      "lat": "38.71172748302139"
    },
    {
      "id": "pt.ine.add.PTCONT.2422199",
      "street": "R DIAMANTES",
      "house": "",
      "postcode": "2785-817",
      "city": "SÃO DOMINGOS DE RANA",
      "lon": "-9.325706109965749",
      "lat": "38.71172748302139"
    },
    {
      "id": "pt.ine.add.PTCONT.2422200",
      "street": "R DIAMANTES",
      "house": "",
      "postcode": "2785-817",
      "city": "SÃO DOMINGOS DE RANA",
      "lon": "-9.325706109965749",
      "lat": "38.71172748302139"
    },
    {
      "id": "pt.ine.add.PTCONT.2422201",
      "street": "R DIAMANTES",
      "house": "",
      "postcode": "2785-817",
      "city": "SÃO DOMINGOS DE RANA",
      "lon": "-9.325706109965749",
      "lat": "38.71172748302139"
    },
    {
      "id": "pt.ine.add.PTCONT.2422202",
      "street": "R DIAMANTES",
      "house": "",
      "postcode": "2785-817",
      "city": "SÃO DOMINGOS DE RANA",
      "lon": "-9.325706109965749",
      "lat": "38.71172748302139"
    },
    {
      "id": "pt.ine.add.PTCONT.2422203",
      "street": "R DIAMANTES",
      "house": "",
      "postcode": "2785-817",
      "city": "SÃO DOMINGOS DE RANA",
      "lon": "-9.325706109965749",
      "lat": "38.71172748302139"
    },
    {
      "id": "pt.ine.add.PTCONT.2422204",
      "street": "R DIAMANTES",
      "house": "",
      "postcode": "2785-817",
      "city": "SÃO DOMINGOS DE RANA",
      "lon": "-9.325706109965749",
      "lat": "38.71172748302139"
    },
    {
      "id": "pt.ine.add.PTCONT.2422365",
      "street": "R DIAMANTES",
      "house": "",
      "postcode": "2785-817",
      "city": "SÃO DOMINGOS DE RANA",
      "lon": "-9.325706109965749",
      "lat": "38.71172748302139"
    },
    {
      "id": "pt.ine.add.PTCONT.2446043",
      "street": "R MARGARIDAS",
      "house": "",
      "postcode": "2785-288",
      "city": "SÃO DOMINGOS DE RANA",
      "lon": "-9.324207420073702",
      "lat": "38.71009433915898"
    },
    {
      "id": "pt.ine.add.PTCONT.2446044",
      "street": "R MIMOSAS",
      "house": "180",
      "postcode": "2785-818",
      "city": "SÃO DOMINGOS DE RANA",
      "lon": "-9.324975483352562",
      "lat": "38.7106540013032"
    },
    {
      "id": "pt.ine.add.PTCONT.2451447",
      "street": "R MARGARIDAS",
      "house": "41",
      "postcode": "2785-288",
      "city": "SÃO DOMINGOS DE RANA",
      "lon": "-9.324392064966132",
      "lat": "38.70944389823143"
    },
    {
      "id": "pt.ine.add.PTCONT.2451673",
      "street": "R ORQUIDEAS",
      "house": "18",
      "postcode": "2785-288",
      "city": "SÃO DOMINGOS DE RANA",
      "lon": "-9.32329187716624",
      "lat": "38.70895967572391"
    },
    {
      "id": "pt.ine.add.PTCONT.2451674",
      "street": "R ORQUIDEAS",
      "house": "",
      "postcode": "2785-288",
      "city": "SÃO DOMINGOS DE RANA",
      "lon": "-9.32329187716624",
      "lat": "38.70895967572391"
    },
    {
      "id": "pt.ine.add.PTCONT.2471969",
      "street": "PCT GOIVOS",
      "house": "23",
      "postcode": "2785-288",
      "city": "SÃO DOMINGOS DE RANA",
      "lon": "-9.323788974402364",
      "lat": "38.70912576194986"
    },
    {
      "id": "pt.ine.add.PTCONT.2492190",
      "street": "R MARGARIDAS",
      "house": "56",
      "postcode": "2785-288",
      "city": "SÃO DOMINGOS DE RANA",
      "lon": "-9.32403827706276",
      "lat": "38.709600634733704"
    },
    {
      "id": "pt.ine.add.PTCONT.2514380",
      "street": "R CACTOS",
      "house": "20",
      "postcode": "2785-288",
      "city": "SÃO DOMINGOS DE RANA",
      "lon": "-9.323450110130086",
      "lat": "38.70879592486555"
    },
    {
      "id": "pt.ine.add.PTCONT.2514599",
      "street": "R CACTOS",
      "house": "34",
      "postcode": "2785-288",
      "city": "SÃO DOMINGOS DE RANA",
      "lon": "-9.323450110130086",
      "lat": "38.70879592486555"
    },
    {
      "id": "pt.ine.add.PTCONT.2532605",
      "street": "R BUGANVILIAS",
      "house": "96",
      "postcode": "2785-288",
      "city": "SÃO DOMINGOS DE RANA",
      "lon": "-9.322293804977718",
      "lat": "38.709086932876104"
    },
    {
      "id": "pt.ine.add.PTCONT.2541723",
      "street": "R LILAZES",
      "house": "",
      "postcode": "2785-288",
      "city": "SÃO DOMINGOS DE RANA",
      "lon": "-9.323959149224622",
      "lat": "38.70898891211501"
    },
    {
      "id": "pt.ine.add.PTCONT.2597067",
      "street": "R MARGARIDAS",
      "house": "55",
      "postcode": "2785-288",
      "city": "SÃO DOMINGOS DE RANA",
      "lon": "-9.324370421338871",
      "lat": "38.709525188724314"
    },
    {
      "id": "pt.ine.add.PTCONT.2601418",
      "street": "R DAS BUGANVÍLIAS",
      "house": "",
      "postcode": "2785-821",
      "city": "SÃO DOMINGOS DE RANA",
      "lon": "-9.32280926210769",
      "lat": "38.708973595503736"
    },
    {
      "id": "pt.ine.add.PTCONT.2611080",
      "street": "R LILAZES",
      "house": "",
      "postcode": "2785-288",
      "city": "SÃO DOMINGOS DE RANA",
      "lon": "-9.324040357115262",
      "lat": "38.70903312380096"
    },
    {
      "id": "pt.ine.add.PTCONT.2611081",
      "street": "R LILAZES",
      "house": "",
      "postcode": "2785-288",
      "city": "SÃO DOMINGOS DE RANA",
      "lon": "-9.324040357115262",
      "lat": "38.70903312380096"
    },
    {
      "id": "pt.ine.add.PTCONT.2631428",
      "street": "R DIAMANTES",
      "house": "",
      "postcode": "2785-817",
      "city": "SÃO DOMINGOS DE RANA",
      "lon": "-9.325511146901457",
      "lat": "38.71175649495116"
    },
    {
      "id": "pt.ine.add.PTCONT.2631429",
      "street": "R DIAMANTES",
      "house": "",
      "postcode": "2785-817",
      "city": "SÃO DOMINGOS DE RANA",
      "lon": "-9.325511146901457",
      "lat": "38.71175649495116"
    },
    {
      "id": "pt.ine.add.PTCONT.2631430",
      "street": "R DIAMANTES",
      "house": "",
      "postcode": "2785-817",
      "city": "SÃO DOMINGOS DE RANA",
      "lon": "-9.325511146901457",
      "lat": "38.71175649495116"
    },
    {
      "id": "pt.ine.add.PTCONT.2631431",
      "street": "R DIAMANTES",
      "house": "",
      "postcode": "2785-817",
      "city": "SÃO DOMINGOS DE RANA",
      "lon": "-9.325511146901457",
      "lat": "38.71175649495116"
    },
    {
      "id": "pt.ine.add.PTCONT.2631432",
      "street": "R DIAMANTES",
      "house": "",
      "postcode": "2785-817",
      "city": "SÃO DOMINGOS DE RANA",
      "lon": "-9.325511146901457",
      "lat": "38.71175649495116"
    },
    {
      "id": "pt.ine.add.PTCONT.2631433",
      "street": "R DIAMANTES",
      "house": "",
      "postcode": "2785-817",
      "city": "SÃO DOMINGOS DE RANA",
      "lon": "-9.325511146901457",
      "lat": "38.71175649495116"
    },
    {
      "id": "pt.ine.add.PTCONT.2631434",
      "street": "R DIAMANTES",
      "house": "",
      "postcode": "2785-817",
      "city": "SÃO DOMINGOS DE RANA",
      "lon": "-9.325511146901457",
      "lat": "38.71175649495116"
    },
    {
      "id": "pt.ine.add.PTCONT.2631435",
      "street": "R DIAMANTES",
      "house": "",
      "postcode": "2785-817",
      "city": "SÃO DOMINGOS DE RANA",
      "lon": "-9.325511146901457",
      "lat": "38.71175649495116"
    },
    {
      "id": "pt.ine.add.PTCONT.2631436",
      "street": "R DIAMANTES",
      "house": "",
      "postcode": "2785-817",
      "city": "SÃO DOMINGOS DE RANA",
      "lon": "-9.325511146901457",
      "lat": "38.71175649495116"
    },
    {
      "id": "pt.ine.add.PTCONT.2637914",
      "street": "R DIAMANTES",
      "house": "",
      "postcode": "2785-817",
      "city": "SÃO DOMINGOS DE RANA",
      "lon": "-9.325511146901457",
      "lat": "38.71175649495116"
    },
    {
      "id": "pt.ine.add.PTCONT.2658402",
      "street": "R MIMOSAS",
      "house": "160",
      "postcode": "2785-818",
      "city": "SÃO DOMINGOS DE RANA",
      "lon": "-9.324927710106602",
      "lat": "38.71054639506331"
    },
    {
      "id": "pt.ine.add.PTCONT.2658404",
      "street": "R BUGANVILIAS",
      "house": "78",
      "postcode": "2785-288",
      "city": "SÃO DOMINGOS DE RANA",
      "lon": "-9.322360234664814",
      "lat": "38.708933124990864"
    },
    {
      "id": "pt.ine.add.PTCONT.2707692",
      "street": "R CACTOS",
      "house": "43",
      "postcode": "2785-288",
      "city": "SÃO DOMINGOS DE RANA",
      "lon": "-9.323751503219212",
      "lat": "38.7089459880719"
    },
    {
      "id": "pt.ine.add.PTCONT.2733324",
      "street": "R BUGANVILIAS",
      "house": "",
      "postcode": "2785-288",
      "city": "SÃO DOMINGOS DE RANA",
      "lon": "-9.322811053437984",
      "lat": "38.70838807186493"
    },
    {
      "id": "pt.ine.add.PTCONT.2747088",
      "street": "R BUGANVILIAS",
      "house": "81",
      "postcode": "2785-288",
      "city": "SÃO DOMINGOS DE RANA",
      "lon": "-9.322729846244476",
      "lat": "38.70903745802497"
    },
    {
      "id": "pt.ine.add.PTCONT.2774955",
      "street": "R MARGARIDAS",
      "house": "27",
      "postcode": "2785-288",
      "city": "SÃO DOMINGOS DE RANA",
      "lon": "-9.324390271214762",
      "lat": "38.70933582322831"
    },
    {
      "id": "pt.ine.add.PTCONT.2804792",
      "street": "R MARGARIDAS",
      "house": "63",
      "postcode": "2785-288",
      "city": "SÃO DOMINGOS DE RANA",
      "lon": "-9.324338030547326",
      "lat": "38.709651627580556"
    },
    {
      "id": "pt.ine.add.PTCONT.2804793",
      "street": "R ORQUIDEAS",
      "house": "86",
      "postcode": "2785-288",
      "city": "SÃO DOMINGOS DE RANA",
      "lon": "-9.323042136092635",
      "lat": "38.709151381082066"
    },
    {
      "id": "pt.ine.add.PTCONT.2804794",
      "street": "R ORQUIDEAS",
      "house": "86",
      "postcode": "2785-288",
      "city": "SÃO DOMINGOS DE RANA",
      "lon": "-9.323042136092635",
      "lat": "38.709151381082066"
    },
    {
      "id": "pt.ine.add.PTCONT.2818259",
      "street": "R BUGANVILIAS",
      "house": "2",
      "postcode": "2785-288",
      "city": "SÃO DOMINGOS DE RANA",
      "lon": "-9.32276716603082",
      "lat": "38.708514627309"
    },
    {
      "id": "pt.ine.add.PTCONT.2836109",
      "street": "R MARGARIDAS",
      "house": "38",
      "postcode": "2785-288",
      "city": "SÃO DOMINGOS DE RANA",
      "lon": "-9.324139784611122",
      "lat": "38.70948249964059"
    },
    {
      "id": "pt.ine.add.PTCONT.2849280",
      "street": "R CACTOS",
      "house": "66",
      "postcode": "2785-288",
      "city": "SÃO DOMINGOS DE RANA",
      "lon": "-9.32357072993551",
      "lat": "38.709136992171"
    },
    {
      "id": "pt.ine.add.PTCONT.2849281",
      "street": "R BUGANVILIAS",
      "house": "68",
      "postcode": "2785-288",
      "city": "SÃO DOMINGOS DE RANA",
      "lon": "-9.322381432744763",
      "lat": "38.70882481605564"
    },
    {
      "id": "pt.ine.add.PTCONT.2855555",
      "street": "R MARGARIDAS",
      "house": "81",
      "postcode": "2785-288",
      "city": "SÃO DOMINGOS DE RANA",
      "lon": "-9.324328030782334",
      "lat": "38.709741807196885"
    },
    {
      "id": "pt.ine.add.PTCONT.2855556",
      "street": "R CACTOS",
      "house": "91",
      "postcode": "2785-288",
      "city": "SÃO DOMINGOS DE RANA",
      "lon": "-9.323841964206206",
      "lat": "38.70885498904739"
    },
    {
      "id": "pt.ine.add.PTCONT.2863363",
      "street": "LG JRD DE S PEDRO",
      "house": "53",
      "postcode": "2785-288",
      "city": "SÃO DOMINGOS DE RANA",
      "lon": "-9.324388477473013",
      "lat": "38.709227748223164"
    },
    {
      "id": "pt.ine.add.PTCONT.2863364",
      "street": "R MARGARIDAS",
      "house": "17",
      "postcode": "2785-288",
      "city": "SÃO DOMINGOS DE RANA",
      "lon": "-9.324388477473013",
      "lat": "38.709227748223164"
    },
    {
      "id": "pt.ine.add.PTCONT.2869529",
      "street": "R BUGANVILIAS",
      "house": "58",
      "postcode": "2785-288",
      "city": "SÃO DOMINGOS DE RANA",
      "lon": "-9.32239158408708",
      "lat": "38.70874364281289"
    },
    {
      "id": "pt.ine.add.PTCONT.2900058",
      "street": "R BUGANVILIAS",
      "house": "",
      "postcode": "2785-288",
      "city": "SÃO DOMINGOS DE RANA",
      "lon": "-9.32241158825672",
      "lat": "38.70856328380653"
    },
    {
      "id": "pt.ine.add.PTCONT.2900054",
      "street": "PCT GOIVOS",
      "house": "19",
      "postcode": "2785-288",
      "city": "SÃO DOMINGOS DE RANA",
      "lon": "-9.323801514642398",
      "lat": "38.709188688655495"
    },
    {
      "id": "pt.ine.add.PTCONT.2909024",
      "street": "LG TOPAZIOS",
      "house": "105",
      "postcode": "2785-817",
      "city": "SÃO DOMINGOS DE RANA",
      "lon": "-9.325444844997785",
      "lat": "38.711225712756075"
    },
    {
      "id": "pt.ine.add.PTCONT.2909025",
      "street": "LG TOPAZIOS",
      "house": "105",
      "postcode": "2785-817",
      "city": "SÃO DOMINGOS DE RANA",
      "lon": "-9.325444844997785",
      "lat": "38.711225712756075"
    },
    {
      "id": "pt.ine.add.PTCONT.2909026",
      "street": "LG TOPAZIOS",
      "house": "105",
      "postcode": "2785-817",
      "city": "SÃO DOMINGOS DE RANA",
      "lon": "-9.325444844997785",
      "lat": "38.711225712756075"
    },
    {
      "id": "pt.ine.add.PTCONT.2909027",
      "street": "LG TOPAZIOS",
      "house": "105",
      "postcode": "2785-817",
      "city": "SÃO DOMINGOS DE RANA",
      "lon": "-9.325444844997785",
      "lat": "38.711225712756075"
    },
    {
      "id": "pt.ine.add.PTCONT.2909028",
      "street": "LG TOPAZIOS",
      "house": "105",
      "postcode": "2785-817",
      "city": "SÃO DOMINGOS DE RANA",
      "lon": "-9.325444844997785",
      "lat": "38.711225712756075"
    },
    {
      "id": "pt.ine.add.PTCONT.2909029",
      "street": "LG TOPAZIOS",
      "house": "105",
      "postcode": "2785-817",
      "city": "SÃO DOMINGOS DE RANA",
      "lon": "-9.325444844997785",
      "lat": "38.711225712756075"
    },
    {
      "id": "pt.ine.add.PTCONT.2909030",
      "street": "LG TOPAZIOS",
      "house": "105",
      "postcode": "2785-817",
      "city": "SÃO DOMINGOS DE RANA",
      "lon": "-9.325444844997785",
      "lat": "38.711225712756075"
    },
    {
      "id": "pt.ine.add.PTCONT.2909031",
      "street": "LG TOPAZIOS",
      "house": "105",
      "postcode": "2785-817",
      "city": "SÃO DOMINGOS DE RANA",
      "lon": "-9.325444844997785",
      "lat": "38.711225712756075"
    },
    {
      "id": "pt.ine.add.PTCONT.2914988",
      "street": "LG TOPAZIOS",
      "house": "105",
      "postcode": "2785-817",
      "city": "SÃO DOMINGOS DE RANA",
      "lon": "-9.325444844997785",
      "lat": "38.711225712756075"
    }
  ]
}