{
  "data": {
    "distrito": "Porto",
    "concelho": "Porto",
    "freguesia": "Uni√£o das freguesias de Aldoar, Foz do Douro e Nevogilde",
    "OBJECTID": 531,
    "BGRI2021": "13121602004",
    "DT21": "13",
    "DTMN21": "1312",
    "DTMNFR21": "131216",
    "DTMNFRSEC21": "131216020",
    "SECNUM21": "020",
    "SSNUM21": "04",
    "SECSSNUM21": "02004",
    "OBJECTID_1": 137827,
    "DT": "13",
    "CC": "12",
    "fr": "16",
    "SEC": "020",
    "SS": "04"
  },
  "addresses": [
    {
      "id": "pt.ine.add.PTCONT.3540739",
      "street": "R RORIZ",
      "house": "257",
      "postcode": "4100-436",
      "city": "PORTO",
      "lon": "-8.669523401478466",
      "lat": "41.16607252625911"
    },
    {
      "id": "pt.ine.add.PTCONT.3562179",
      "street": "R VILARINHA",
      "house": "355-8",
      "postcode": "4100-514",
      "city": "PORTO",
      "lon": "-8.665812344319074",
      "lat": "41.16541442500863"
    },
    {
      "id": "pt.ine.add.PTCONT.3568298",
      "street": "AV BOAVISTA",
      "house": "",
      "postcode": "4100-122",
      "city": "PORTO",
      "lon": "-8.666674540152945",
      "lat": "41.164473984513236"
    },
    {
      "id": "pt.ine.add.PTCONT.3581579",
      "street": "R VILARINHA",
      "house": "335-21",
      "postcode": "4100-514",
      "city": "PORTO",
      "lon": "-8.66715054758624",
      "lat": "41.16586744869958"
    },
    {
      "id": "pt.ine.add.PTCONT.3639374",
      "street": "R VILARINHA",
      "house": "413",
      "postcode": "4100-514",
      "city": "PORTO",
      "lon": "-8.666213200361549",
      "lat": "41.16635802431075"
    },
    {
      "id": "pt.ine.add.PTCONT.3651721",
      "street": "R VILARINHA",
      "house": "355-3",
      "postcode": "4100-514",
      "city": "PORTO",
      "lon": "-8.66526797142814",
      "lat": "41.165876161872205"
    },
    {
      "id": "pt.ine.add.PTCONT.3651733",
      "street": "R VILARINHA",
      "house": "355-26",
      "postcode": "4100-514",
      "city": "PORTO",
      "lon": "-8.66791501329549",
      "lat": "41.16609801410302"
    },
    {
      "id": "pt.ine.add.PTCONT.3664628",
      "street": "R RORIZ",
      "house": "181",
      "postcode": "4100-436",
      "city": "PORTO",
      "lon": "-8.668628305068117",
      "lat": "41.16589660489169"
    },
    {
      "id": "pt.ine.add.PTCONT.3671345",
      "street": "R VILARINHA",
      "house": "355",
      "postcode": "4100-514",
      "city": "PORTO",
      "lon": "-8.665767746906306",
      "lat": "41.16579281284167"
    },
    {
      "id": "pt.ine.add.PTCONT.3671366",
      "street": "R RORIZ",
      "house": "123",
      "postcode": "4100-436",
      "city": "PORTO",
      "lon": "-8.66790609979209",
      "lat": "41.16646723268971"
    },
    {
      "id": "pt.ine.add.PTCONT.3678867",
      "street": "R RORIZ",
      "house": "437",
      "postcode": "4100-436",
      "city": "PORTO",
      "lon": "-8.670440641017015",
      "lat": "41.16604123796225"
    },
    {
      "id": "pt.ine.add.PTCONT.3682177",
      "street": "R RORIZ",
      "house": "205",
      "postcode": "4100-436",
      "city": "PORTO",
      "lon": "-8.66885645092412",
      "lat": "41.16611164767381"
    },
    {
      "id": "pt.ine.add.PTCONT.3682372",
      "street": "AV BOAVISTA",
      "house": "",
      "postcode": "4100-122",
      "city": "PORTO",
      "lon": "-8.66645985499975",
      "lat": "41.16444796583128"
    },
    {
      "id": "pt.ine.add.PTCONT.3690313",
      "street": "R VILARINHA",
      "house": "355",
      "postcode": "4100-514",
      "city": "PORTO",
      "lon": "-8.666674968662743",
      "lat": "41.165995713256294"
    },
    {
      "id": "pt.ine.add.PTCONT.3704529",
      "street": "R VILARINHA",
      "house": "355",
      "postcode": "4100-514",
      "city": "PORTO",
      "lon": "-8.66788891374754",
      "lat": "41.16581900128739"
    },
    {
      "id": "pt.ine.add.PTCONT.3704730",
      "street": "AV BOAVISTA",
      "house": "3494",
      "postcode": "4100-122",
      "city": "PORTO",
      "lon": "-8.664538883389245",
      "lat": "41.1641236847608"
    },
    {
      "id": "pt.ine.add.PTCONT.3706670",
      "street": "R VILARINHA",
      "house": "157",
      "postcode": "4100-514",
      "city": "PORTO",
      "lon": "-8.663843034052794",
      "lat": "41.165009317049886"
    },
    {
      "id": "pt.ine.add.PTCONT.3710242",
      "street": "R VILARINHA",
      "house": "367",
      "postcode": "4100-514",
      "city": "PORTO",
      "lon": "-8.665890324983847",
      "lat": "41.16621544908682"
    },
    {
      "id": "pt.ine.add.PTCONT.3710258",
      "street": "R VILARINHA",
      "house": "355",
      "postcode": "4100-514",
      "city": "PORTO",
      "lon": "-8.666076370239084",
      "lat": "41.165647316031766"
    },
    {
      "id": "pt.ine.add.PTCONT.3710264",
      "street": "R RORIZ",
      "house": "87",
      "postcode": "4100-436",
      "city": "PORTO",
      "lon": "-8.667562170198291",
      "lat": "41.166666924140074"
    },
    {
      "id": "pt.ine.add.PTCONT.3716654",
      "street": "R VILARINHA",
      "house": "83",
      "postcode": "4100-514",
      "city": "PORTO",
      "lon": "-8.663837658052428",
      "lat": "41.16434302175148"
    },
    {
      "id": "pt.ine.add.PTCONT.3719474",
      "street": "AV DA BOAVISTA",
      "house": "3686",
      "postcode": "4100-057",
      "city": "PORTO",
      "lon": "-8.666637846395538",
      "lat": "41.16435709825862"
    },
    {
      "id": "pt.ine.add.PTCONT.3723439",
      "street": "AV BOAVISTA",
      "house": "3582",
      "postcode": "4100-122",
      "city": "PORTO",
      "lon": "-8.66556544463753",
      "lat": "41.16435305631971"
    },
    {
      "id": "pt.ine.add.PTCONT.3723595",
      "street": "R VILARINHA",
      "house": "355-24",
      "postcode": "4100-514",
      "city": "PORTO",
      "lon": "-8.667654052392455",
      "lat": "41.16624329464008"
    },
    {
      "id": "pt.ine.add.PTCONT.3736626",
      "street": "R RORIZ",
      "house": "457",
      "postcode": "4100-436",
      "city": "PORTO",
      "lon": "-8.670750285406891",
      "lat": "41.166021784390836"
    },
    {
      "id": "pt.ine.add.PTCONT.3742884",
      "street": "R VILARINHA",
      "house": "355",
      "postcode": "4100-514",
      "city": "PORTO",
      "lon": "-8.667649369279248",
      "lat": "41.16566703973235"
    },
    {
      "id": "pt.ine.add.PTCONT.3748504",
      "street": "R GUSTAVO DE SOUSA",
      "house": "146",
      "postcode": "4100-005",
      "city": "PORTO",
      "lon": "-8.669223396467741",
      "lat": "41.1658127976781"
    },
    {
      "id": "pt.ine.add.PTCONT.3774171",
      "street": "R RORIZ",
      "house": "125",
      "postcode": "4100-436",
      "city": "PORTO",
      "lon": "-8.667953540717201",
      "lat": "41.16643999944338"
    },
    {
      "id": "pt.ine.add.PTCONT.3782874",
      "street": "R VILARINHA",
      "house": "355",
      "postcode": "4100-514",
      "city": "PORTO",
      "lon": "-8.665409057401499",
      "lat": "41.16564139754214"
    },
    {
      "id": "pt.ine.add.PTCONT.3782875",
      "street": "R VILARINHA",
      "house": "355-10",
      "postcode": "4100-514",
      "city": "PORTO",
      "lon": "-8.66608514803799",
      "lat": "41.16526008949979"
    },
    {
      "id": "pt.ine.add.PTCONT.3782876",
      "street": "R GUSTAVO DE SOUSA",
      "house": "128",
      "postcode": "4100-005",
      "city": "PORTO",
      "lon": "-8.669174562271712",
      "lat": "41.165668955805344"
    },
    {
      "id": "pt.ine.add.PTCONT.3788430",
      "street": "R VILARINHA",
      "house": "355",
      "postcode": "4100-514",
      "city": "PORTO",
      "lon": "-8.66591007079735",
      "lat": "41.165711115669815"
    },
    {
      "id": "pt.ine.add.PTCONT.3796135",
      "street": "R VILARINHA",
      "house": "355-25",
      "postcode": "4100-514",
      "city": "PORTO",
      "lon": "-8.667796521272496",
      "lat": "41.16617960311685"
    },
    {
      "id": "pt.ine.add.PTCONT.3796136",
      "street": "R VILARINHA",
      "house": "153",
      "postcode": "4100-514",
      "city": "PORTO",
      "lon": "-8.663877979514195",
      "lat": "41.16491010845127"
    },
    {
      "id": "pt.ine.add.PTCONT.3826677",
      "street": "AV BOAVISTA",
      "house": "3630",
      "postcode": "4100-122",
      "city": "PORTO",
      "lon": "-8.666197437936205",
      "lat": "41.16441316334587"
    },
    {
      "id": "pt.ine.add.PTCONT.3839587",
      "street": "R VILARINHA",
      "house": "201",
      "postcode": "4100-514",
      "city": "PORTO",
      "lon": "-8.664119329777181",
      "lat": "41.165287177672475"
    },
    {
      "id": "pt.ine.add.PTCONT.3839588",
      "street": "AV BOAVISTA",
      "house": "3490",
      "postcode": "4100-122",
      "city": "PORTO",
      "lon": "-8.664395761233575",
      "lat": "41.16410633635459"
    },
    {
      "id": "pt.ine.add.PTCONT.3843724",
      "street": "R VILARINHA",
      "house": "125",
      "postcode": "4100-514",
      "city": "PORTO",
      "lon": "-8.66368545327646",
      "lat": "41.1646768830104"
    },
    {
      "id": "pt.ine.add.PTCONT.3851360",
      "street": "R VILARINHA",
      "house": "355",
      "postcode": "4100-514",
      "city": "PORTO",
      "lon": "-8.667374007865522",
      "lat": "41.165506239490234"
    },
    {
      "id": "pt.ine.add.PTCONT.3855831",
      "street": "R VILARINHA",
      "house": "355-34",
      "postcode": "4100-514",
      "city": "PORTO",
      "lon": "-8.667159465286122",
      "lat": "41.16549823010762"
    },
    {
      "id": "pt.ine.add.PTCONT.3865337",
      "street": "R VILARINHA",
      "house": "9",
      "postcode": "4100-514",
      "city": "PORTO",
      "lon": "-8.665942752398543",
      "lat": "41.16533278290074"
    },
    {
      "id": "pt.ine.add.PTCONT.3870472",
      "street": "AV BOAVISTA",
      "house": "",
      "postcode": "4100-122",
      "city": "PORTO",
      "lon": "-8.666972775149194",
      "lat": "41.16451762422758"
    },
    {
      "id": "pt.ine.add.PTCONT.3904676",
      "street": "R VILARINHA",
      "house": "477",
      "postcode": "4100-514",
      "city": "PORTO",
      "lon": "-8.666766117726604",
      "lat": "41.1669497491046"
    },
    {
      "id": "pt.ine.add.PTCONT.3904919",
      "street": "R GUSTAVO DE SOUSA",
      "house": "100",
      "postcode": "4100-005",
      "city": "PORTO",
      "lon": "-8.669161986858995",
      "lat": "41.165587975426895"
    },
    {
      "id": "pt.ine.add.PTCONT.3904920",
      "street": "R VILARINHA",
      "house": "271",
      "postcode": "4100-514",
      "city": "PORTO",
      "lon": "-8.664848615687282",
      "lat": "41.16558996024641"
    },
    {
      "id": "pt.ine.add.PTCONT.3913153",
      "street": "AV BOAVISTA",
      "house": "3516",
      "postcode": "4100-122",
      "city": "PORTO",
      "lon": "-8.66474194311395",
      "lat": "41.16418577798935"
    },
    {
      "id": "pt.ine.add.PTCONT.3949261",
      "street": "R VILARINHA",
      "house": "145",
      "postcode": "4100-514",
      "city": "PORTO",
      "lon": "-8.6638299567978",
      "lat": "41.16486530810826"
    },
    {
      "id": "pt.ine.add.PTCONT.3961944",
      "street": "R VILARINHA",
      "house": "173",
      "postcode": "4100-514",
      "city": "PORTO",
      "lon": "-8.663867372400123",
      "lat": "41.165072235174875"
    },
    {
      "id": "pt.ine.add.PTCONT.3968673",
      "street": "R RORIZ",
      "house": "277",
      "postcode": "4100-436",
      "city": "PORTO",
      "lon": "-8.669606806959866",
      "lat": "41.16607213780098"
    },
    {
      "id": "pt.ine.add.PTCONT.3974529",
      "street": "R RORIZ",
      "house": "169",
      "postcode": "4100-436",
      "city": "PORTO",
      "lon": "-8.66832107833636",
      "lat": "41.16621318415781"
    },
    {
      "id": "pt.ine.add.PTCONT.3974530",
      "street": "R VILARINHA",
      "house": "696",
      "postcode": "4100-514",
      "city": "PORTO",
      "lon": "-8.663826615037783",
      "lat": "41.16445112454224"
    },
    {
      "id": "pt.ine.add.PTCONT.3974531",
      "street": "AV BOAVISTA",
      "house": "3422",
      "postcode": "4100-122",
      "city": "PORTO",
      "lon": "-8.663715823055135",
      "lat": "41.1640104230018"
    },
    {
      "id": "pt.ine.add.PTCONT.3981448",
      "street": "AV BOAVISTA",
      "house": "3732",
      "postcode": "4100-122",
      "city": "PORTO",
      "lon": "-8.667187606935727",
      "lat": "41.16456164992217"
    },
    {
      "id": "pt.ine.add.PTCONT.3981648",
      "street": "AV BOAVISTA",
      "house": "3538",
      "postcode": "4100-122",
      "city": "PORTO",
      "lon": "-8.665088053002105",
      "lat": "41.164256214588114"
    },
    {
      "id": "pt.ine.add.PTCONT.3985107",
      "street": "R VILARINHA",
      "house": "355-30",
      "postcode": "4100-514",
      "city": "PORTO",
      "lon": "-8.667745274756982",
      "lat": "41.16573862919522"
    },
    {
      "id": "pt.ine.add.PTCONT.3994084",
      "street": "R MIGUEL TORGA",
      "house": "86",
      "postcode": "4100-345",
      "city": "PORTO",
      "lon": "-8.667904398186673",
      "lat": "41.16479243651678"
    },
    {
      "id": "pt.ine.add.PTCONT.4000636",
      "street": "R RORIZ",
      "house": "203",
      "postcode": "4100-436",
      "city": "PORTO",
      "lon": "-8.668796875537327",
      "lat": "41.16611192476219"
    },
    {
      "id": "pt.ine.add.PTCONT.4007238",
      "street": "R RORIZ",
      "house": "415",
      "postcode": "4100-436",
      "city": "PORTO",
      "lon": "-8.670333405462806",
      "lat": "41.1660417381733"
    },
    {
      "id": "pt.ine.add.PTCONT.4007470",
      "street": "AV BOAVISTA",
      "house": "",
      "postcode": "4100-122",
      "city": "PORTO",
      "lon": "-8.666841493255873",
      "lat": "41.164491219659624"
    },
    {
      "id": "pt.ine.add.PTCONT.4013508",
      "street": "AV BOAVISTA",
      "house": "3762",
      "postcode": "4100-122",
      "city": "PORTO",
      "lon": "-8.667330803908918",
      "lat": "41.164587998832985"
    },
    {
      "id": "pt.ine.add.PTCONT.4013538",
      "street": "R VILARINHA",
      "house": "355-22",
      "postcode": "4100-514",
      "city": "PORTO",
      "lon": "-8.66736531077229",
      "lat": "41.16590247004132"
    },
    {
      "id": "pt.ine.add.PTCONT.4013539",
      "street": "R RORIZ",
      "house": "89",
      "postcode": "4100-436",
      "city": "PORTO",
      "lon": "-8.667609538240848",
      "lat": "41.16663068705268"
    },
    {
      "id": "pt.ine.add.PTCONT.4017925",
      "street": "R VILARINHA",
      "house": "355HAB27",
      "postcode": "4100-514",
      "city": "PORTO",
      "lon": "-8.668045493313617",
      "lat": "41.16602537361405"
    },
    {
      "id": "pt.ine.add.PTCONT.4018072",
      "street": "R VILARINHA",
      "house": "355-15",
      "postcode": "4100-514",
      "city": "PORTO",
      "lon": "-8.666206632496683",
      "lat": "41.165547665656064"
    },
    {
      "id": "pt.ine.add.PTCONT.4025773",
      "street": "R VILARINHA",
      "house": "71",
      "postcode": "4100-514",
      "city": "PORTO",
      "lon": "-8.663419987887677",
      "lat": "41.164263906559924"
    },
    {
      "id": "pt.ine.add.PTCONT.4033203",
      "street": "R VILARINHA",
      "house": "355",
      "postcode": "4100-514",
      "city": "PORTO",
      "lon": "-8.667481827792926",
      "lat": "41.165577773910215"
    },
    {
      "id": "pt.ine.add.PTCONT.4033217",
      "street": "R RORIZ",
      "house": "143",
      "postcode": "4100-436",
      "city": "PORTO",
      "lon": "-8.668119473787023",
      "lat": "41.16633117695573"
    },
    {
      "id": "pt.ine.add.PTCONT.4039722",
      "street": "R RORIZ",
      "house": "111",
      "postcode": "4100-436",
      "city": "PORTO",
      "lon": "-8.667787460710187",
      "lat": "41.16653081372966"
    },
    {
      "id": "pt.ine.add.PTCONT.4046280",
      "street": "R RORIZ",
      "house": "95",
      "postcode": "4100-436",
      "city": "PORTO",
      "lon": "-8.667680736565286",
      "lat": "41.16659433934899"
    },
    {
      "id": "pt.ine.add.PTCONT.4046281",
      "street": "R RORIZ",
      "house": "101",
      "postcode": "4100-436",
      "city": "PORTO",
      "lon": "-8.667740092837779",
      "lat": "41.16656705088981"
    },
    {
      "id": "pt.ine.add.PTCONT.4050356",
      "street": "R VILARINHA",
      "house": "355-2",
      "postcode": "4100-514",
      "city": "PORTO",
      "lon": "-8.665387704751017",
      "lat": "41.16594764320817"
    },
    {
      "id": "pt.ine.add.PTCONT.4050357",
      "street": "R MIGUEL TORGA",
      "house": "55",
      "postcode": "4100-345",
      "city": "PORTO",
      "lon": "-8.667801409732295",
      "lat": "41.16531516543383"
    },
    {
      "id": "pt.ine.add.PTCONT.4050358",
      "street": "R RORIZ",
      "house": "157",
      "postcode": "4100-436",
      "city": "PORTO",
      "lon": "-8.668249807524099",
      "lat": "41.16624052827345"
    },
    {
      "id": "pt.ine.add.PTCONT.4059330",
      "street": "PCT ERNESTO VEIGA DE OLIVEIRA",
      "house": "13",
      "postcode": "4100-013",
      "city": "PORTO",
      "lon": "-8.664513613821226",
      "lat": "41.16542042414385"
    },
    {
      "id": "pt.ine.add.PTCONT.4059548",
      "street": "R VILARINHA",
      "house": "355",
      "postcode": "4100-514",
      "city": "PORTO",
      "lon": "-8.666279947002323",
      "lat": "41.165772434392935"
    },
    {
      "id": "pt.ine.add.PTCONT.4078996",
      "street": "AV BOAVISTA",
      "house": "3602",
      "postcode": "4100-122",
      "city": "PORTO",
      "lon": "-8.665815654697857",
      "lat": "41.16435189940136"
    },
    {
      "id": "pt.ine.add.PTCONT.4085646",
      "street": "R VILARINHA",
      "house": "355",
      "postcode": "4100-514",
      "city": "PORTO",
      "lon": "-8.666543318819265",
      "lat": "41.165924288450015"
    },
    {
      "id": "pt.ine.add.PTCONT.4099014",
      "street": "AV BOAVISTA",
      "house": "3448",
      "postcode": "4100-122",
      "city": "PORTO",
      "lon": "-8.66382305541357",
      "lat": "41.16400992897146"
    },
    {
      "id": "pt.ine.add.PTCONT.4112764",
      "street": "R RORIZ",
      "house": "171",
      "postcode": "4100-436",
      "city": "PORTO",
      "lon": "-8.668380287449462",
      "lat": "41.16616788740752"
    },
    {
      "id": "pt.ine.add.PTCONT.4112765",
      "street": "R RORIZ",
      "house": "301",
      "postcode": "4100-436",
      "city": "PORTO",
      "lon": "-8.669904536701209",
      "lat": "41.16605274199866"
    },
    {
      "id": "pt.ine.add.PTCONT.4114884",
      "street": "AV DA BOAVISTA",
      "house": "3722",
      "postcode": "4100-057",
      "city": "PORTO",
      "lon": "-8.666888421752981",
      "lat": "41.16440095894333"
    },
    {
      "id": "pt.ine.add.PTCONT.4131273",
      "street": "R VILARINHA",
      "house": "75",
      "postcode": "4100-514",
      "city": "PORTO",
      "lon": "-8.663456167717221",
      "lat": "41.164317765935316"
    },
    {
      "id": "pt.ine.add.PTCONT.4131435",
      "street": "R RORIZ",
      "house": "193",
      "postcode": "4100-436",
      "city": "PORTO",
      "lon": "-8.668641832908637",
      "lat": "41.16609463708527"
    },
    {
      "id": "pt.ine.add.PTCONT.4144667",
      "street": "R VILARINHA",
      "house": "175",
      "postcode": "4100-514",
      "city": "PORTO",
      "lon": "-8.66392745552452",
      "lat": "41.16513498856981"
    },
    {
      "id": "pt.ine.add.PTCONT.4164622",
      "street": "R RORIZ",
      "house": "233",
      "postcode": "4100-436",
      "city": "PORTO",
      "lon": "-8.66909460571988",
      "lat": "41.16609253105104"
    },
    {
      "id": "pt.ine.add.PTCONT.4172382",
      "street": "R VILARINHA",
      "house": "355-6",
      "postcode": "4100-514",
      "city": "PORTO",
      "lon": "-8.665527697213435",
      "lat": "41.165577818938026"
    },
    {
      "id": "pt.ine.add.PTCONT.4196854",
      "street": "R VILARINHA",
      "house": "81",
      "postcode": "4100-514",
      "city": "PORTO",
      "lon": "-8.663741613575949",
      "lat": "41.1642534209969"
    },
    {
      "id": "pt.ine.add.PTCONT.4204173",
      "street": "R VILARINHA",
      "house": "475",
      "postcode": "4100-514",
      "city": "PORTO",
      "lon": "-8.666608298368363",
      "lat": "41.16659030734387"
    },
    {
      "id": "pt.ine.add.PTCONT.4208419",
      "street": "AV BOAVISTA",
      "house": "3574",
      "postcode": "4100-122",
      "city": "PORTO",
      "lon": "-8.665314797464946",
      "lat": "41.164300188761075"
    },
    {
      "id": "pt.ine.add.PTCONT.4216875",
      "street": "R GUSTAVO DE SOUSA",
      "house": "138",
      "postcode": "4100-005",
      "city": "PORTO",
      "lon": "-8.669210894352064",
      "lat": "41.165740821288516"
    },
    {
      "id": "pt.ine.add.PTCONT.4231885",
      "street": "R RORIZ",
      "house": "255",
      "postcode": "4100-436",
      "city": "PORTO",
      "lon": "-8.669368652398084",
      "lat": "41.16609125548155"
    },
    {
      "id": "pt.ine.add.PTCONT.4242832",
      "street": "R VILARINHA",
      "house": "355-4",
      "postcode": "4100-514",
      "city": "PORTO",
      "lon": "-8.665148019873449",
      "lat": "41.16577766844873"
    },
    {
      "id": "pt.ine.add.PTCONT.4242844",
      "street": "R VILARINHA",
      "house": "355-23",
      "postcode": "4100-514",
      "city": "PORTO",
      "lon": "-8.66749974127373",
      "lat": "41.16631604525189"
    },
    {
      "id": "pt.ine.add.PTCONT.4255700",
      "street": "R VILARINHA",
      "house": "191",
      "postcode": "4100-514",
      "city": "PORTO",
      "lon": "-8.66397569651119",
      "lat": "41.165206800837005"
    },
    {
      "id": "pt.ine.add.PTCONT.4255815",
      "street": "R VILARINHA",
      "house": "355",
      "postcode": "4100-514",
      "city": "PORTO",
      "lon": "-8.668199876391064",
      "lat": "41.16596162625736"
    },
    {
      "id": "pt.ine.add.PTCONT.4255839",
      "street": "R RORIZ",
      "house": "141",
      "postcode": "4100-436",
      "city": "PORTO",
      "lon": "-8.66803636086604",
      "lat": "41.16636758026587"
    },
    {
      "id": "pt.ine.add.PTCONT.4255840",
      "street": "R RORIZ",
      "house": "235",
      "postcode": "4100-436",
      "city": "PORTO",
      "lon": "-8.669249501670595",
      "lat": "41.16609181015708"
    },
    {
      "id": "pt.ine.add.PTCONT.4268975",
      "street": "R VILARINHA",
      "house": "137",
      "postcode": "4100-514",
      "city": "PORTO",
      "lon": "-8.663757741251967",
      "lat": "41.16477559757862"
    },
    {
      "id": "pt.ine.add.PTCONT.4269127",
      "street": "R VILARINHA",
      "house": "355-17",
      "postcode": "4100-514",
      "city": "PORTO",
      "lon": "-8.666411669260931",
      "lat": "41.16585286349063"
    },
    {
      "id": "pt.ine.add.PTCONT.4275709",
      "street": "R VILARINHA",
      "house": "355-20",
      "postcode": "4100-514",
      "city": "PORTO",
      "lon": "-8.666936003850958",
      "lat": "41.16585943890827"
    },
    {
      "id": "pt.ine.add.PTCONT.4275710",
      "street": "R VILARINHA",
      "house": "109",
      "postcode": "4100-514",
      "city": "PORTO",
      "lon": "-8.663613165519019",
      "lat": "41.16457816839384"
    },
    {
      "id": "pt.ine.add.PTCONT.4302819",
      "street": "R VILARINHA",
      "house": "355",
      "postcode": "4100-514",
      "city": "PORTO",
      "lon": "-8.665519644928587",
      "lat": "41.16605508528609"
    },
    {
      "id": "pt.ine.add.PTCONT.4309416",
      "street": "AV DR ANTUNES GUIMARAES",
      "house": "89",
      "postcode": "4100-514",
      "city": "PORTO",
      "lon": "-8.662941729673916",
      "lat": "41.16405900799898"
    },
    {
      "id": "pt.ine.add.PTCONT.4309417",
      "street": "AV DR ANTUNES GUIMARAES",
      "house": "39",
      "postcode": "4100-514",
      "city": "PORTO",
      "lon": "-8.662941729673916",
      "lat": "41.16405900799898"
    },
    {
      "id": "pt.ine.add.PTCONT.4309418",
      "street": "AV DR ANTUNES GUIMARAES",
      "house": "39",
      "postcode": "4100-514",
      "city": "PORTO",
      "lon": "-8.662941729673916",
      "lat": "41.16405900799898"
    },
    {
      "id": "pt.ine.add.PTCONT.4309426",
      "street": "AV BOAVISTA",
      "house": "2453",
      "postcode": "4100-122",
      "city": "PORTO",
      "lon": "-8.664061567565616",
      "lat": "41.16403584274255"
    },
    {
      "id": "pt.ine.add.PTCONT.4309427",
      "street": "AV BOAVISTA",
      "house": "3528",
      "postcode": "4100-122",
      "city": "PORTO",
      "lon": "-8.664861163263634",
      "lat": "41.16419423198706"
    },
    {
      "id": "pt.ine.add.PTCONT.4309551",
      "street": "R RORIZ",
      "house": "113",
      "postcode": "4100-436",
      "city": "PORTO",
      "lon": "-8.667846816880765",
      "lat": "41.16650352521577"
    },
    {
      "id": "pt.ine.add.PTCONT.4309552",
      "street": "R ANT√ìNIO AROSO",
      "house": "84",
      "postcode": "4100-060",
      "city": "PORTO",
      "lon": "-8.67072571934683",
      "lat": "41.16593185583781"
    },
    {
      "id": "pt.ine.add.PTCONT.4322219",
      "street": "R RORIZ",
      "house": "155",
      "postcode": "4100-436",
      "city": "PORTO",
      "lon": "-8.668190671503838",
      "lat": "41.166294828938646"
    },
    {
      "id": "pt.ine.add.PTCONT.4325384",
      "street": "R VILARINHA",
      "house": "355-7",
      "postcode": "4100-514",
      "city": "PORTO",
      "lon": "-8.665658105971438",
      "lat": "41.165496177150615"
    },
    {
      "id": "pt.ine.add.PTCONT.4335813",
      "street": "AV DR ANTUNES GUIMAR√ÉES",
      "house": "15",
      "postcode": "4100-122",
      "city": "PORTO",
      "lon": "-8.663047946585662",
      "lat": "41.16393245879044"
    },
    {
      "id": "pt.ine.add.PTCONT.4335817",
      "street": "AV DR ANTUNES GUIMAR√ÉES",
      "house": "15",
      "postcode": "4100-122",
      "city": "PORTO",
      "lon": "-8.663047946585662",
      "lat": "41.16393245879044"
    },
    {
      "id": "pt.ine.add.PTCONT.4335818",
      "street": "AV DR ANTUNES GUIMAR√ÉES",
      "house": "15",
      "postcode": "4100-122",
      "city": "PORTO",
      "lon": "-8.663047946585662",
      "lat": "41.16393245879044"
    },
    {
      "id": "pt.ine.add.PTCONT.4335819",
      "street": "AV DR ANTUNES GUIMAR√ÉES",
      "house": "15",
      "postcode": "4100-122",
      "city": "PORTO",
      "lon": "-8.663047946585662",
      "lat": "41.16393245879044"
    },
    {
      "id": "pt.ine.add.PTCONT.4335820",
      "street": "AV DR ANTUNES GUIMAR√ÉES",
      "house": "15",
      "postcode": "4100-122",
      "city": "PORTO",
      "lon": "-8.663047946585662",
      "lat": "41.16393245879044"
    },
    {
      "id": "pt.ine.add.PTCONT.4339979",
      "street": "R GUSTAVO DE SOUSA",
      "house": "84",
      "postcode": "4100-005",
      "city": "PORTO",
      "lon": "-8.668816965697985",
      "lat": "41.16565261088268"
    },
    {
      "id": "pt.ine.add.PTCONT.4340182",
      "street": "R RORIZ",
      "house": "279",
      "postcode": "4100-436",
      "city": "PORTO",
      "lon": "-8.669785532985943",
      "lat": "41.16607130518736"
    },
    {
      "id": "pt.ine.add.PTCONT.4340184",
      "street": "R VILARINHA",
      "house": "113",
      "postcode": "4100-514",
      "city": "PORTO",
      "lon": "-8.66364934568168",
      "lat": "41.1646320277036"
    },
    {
      "id": "pt.ine.add.PTCONT.4348565",
      "street": "R VILARINHA",
      "house": "355",
      "postcode": "4100-514",
      "city": "PORTO",
      "lon": "-8.666215555471613",
      "lat": "41.16517844708478"
    },
    {
      "id": "pt.ine.add.PTCONT.4361504",
      "street": "R RORIZ",
      "house": "213",
      "postcode": "4100-436",
      "city": "PORTO",
      "lon": "-8.66898744341525",
      "lat": "41.1661020339902"
    },
    {
      "id": "pt.ine.add.PTCONT.4367957",
      "street": "R RORIZ",
      "house": "413",
      "postcode": "4100-436",
      "city": "PORTO",
      "lon": "-8.670154753049621",
      "lat": "41.16605157561565"
    },
    {
      "id": "pt.ine.add.PTCONT.4391095",
      "street": "R RORIZ",
      "house": "303",
      "postcode": "4100-436",
      "city": "PORTO",
      "lon": "-8.670059432537673",
      "lat": "41.166052020016124"
    }
  ]
}