{
  "data": {
    "distrito": "Viseu",
    "concelho": "Cinfães",
    "freguesia": "União das freguesias de Alhões, Bustelo, Gralheira e Ramires",
    "OBJECTID": 417,
    "BGRI2021": "18041800139",
    "DT21": "18",
    "DTMN21": "1804",
    "DTMNFR21": "180418",
    "DTMNFRSEC21": "180418001",
    "SECNUM21": "001",
    "SSNUM21": "39",
    "SECSSNUM21": "00139",
    "OBJECTID_1": 190018,
    "DT": "18",
    "CC": "04",
    "fr": "18",
    "SEC": "001",
    "SS": "39"
  },
  "addresses": [
    {
      "id": "pt.ine.add.PTCONT.5429011",
      "street": "R ESPECHINHO",
      "house": "",
      "postcode": "4690-300",
      "city": "GRALHEIRA",
      "lon": "-7.972199825264917",
      "lat": "41.0052273157104"
    },
    {
      "id": "pt.ine.add.PTCONT.5434375",
      "street": "R CENTRAL",
      "house": "",
      "postcode": "4690-300",
      "city": "GRALHEIRA",
      "lon": "-7.971306816150853",
      "lat": "41.00584738462303"
    },
    {
      "id": "pt.ine.add.PTCONT.5449499",
      "street": "ESTR JUNCAL",
      "house": "",
      "postcode": "4690-300",
      "city": "GRALHEIRA",
      "lon": "-7.972449398574585",
      "lat": "41.00524567306555"
    },
    {
      "id": "pt.ine.add.PTCONT.5540211",
      "street": "ESTR JUNCAL",
      "house": "",
      "postcode": "4690-300",
      "city": "GRALHEIRA",
      "lon": "-7.972411507811029",
      "lat": "41.00616409168476"
    },
    {
      "id": "pt.ine.add.PTCONT.5545615",
      "street": "R FONTE TORNO",
      "house": "",
      "postcode": "4690-300",
      "city": "GRALHEIRA",
      "lon": "-7.971947751232937",
      "lat": "41.00623548121049"
    },
    {
      "id": "pt.ine.add.PTCONT.5547569",
      "street": "R FONTE TORNO",
      "house": "",
      "postcode": "4690-300",
      "city": "GRALHEIRA",
      "lon": "-7.972517875971397",
      "lat": "41.00641636930869"
    },
    {
      "id": "pt.ine.add.PTCONT.5554656",
      "street": "R FONTE TORNO",
      "house": "",
      "postcode": "4690-300",
      "city": "GRALHEIRA",
      "lon": "-7.971947378286227",
      "lat": "41.006388559244925"
    },
    {
      "id": "pt.ine.add.PTCONT.5595322",
      "street": "R ESPECHINHO",
      "house": "",
      "postcode": "4690-300",
      "city": "GRALHEIRA",
      "lon": "-7.971879393835528",
      "lat": "41.00501976164977"
    },
    {
      "id": "pt.ine.add.PTCONT.5604388",
      "street": "R ESPECHINHO",
      "house": "",
      "postcode": "4690-300",
      "city": "GRALHEIRA",
      "lon": "-7.972128900534033",
      "lat": "41.00506513347469"
    },
    {
      "id": "pt.ine.add.PTCONT.5650442",
      "street": "ESTR JUNCAL",
      "house": "",
      "postcode": "4690-300",
      "city": "GRALHEIRA",
      "lon": "-7.97240121806681",
      "lat": "41.00550673995492"
    },
    {
      "id": "pt.ine.add.PTCONT.5651343",
      "street": "R FONTE TORNO",
      "house": "",
      "postcode": "4690-300",
      "city": "GRALHEIRA",
      "lon": "-7.972339246602807",
      "lat": "41.0065511896229"
    }
  ]
}