{
  "data": {
    "distrito": "Faro",
    "concelho": "Lagoa",
    "freguesia": "União das freguesias de Lagoa e Carvoeiro",
    "OBJECTID": 8,
    "BGRI2021": "08060801102",
    "DT21": "08",
    "DTMN21": "0806",
    "DTMNFR21": "080608",
    "DTMNFRSEC21": "080608011",
    "SECNUM21": "011",
    "SSNUM21": "02",
    "SECSSNUM21": "01102",
    "OBJECTID_1": 67321,
    "DT": "08",
    "CC": "06",
    "fr": "08",
    "SEC": "011",
    "SS": "02"
  },
  "addresses": [
    {
      "id": "pt.ine.add.PTCONT.1470057",
      "street": "EN 124 QTA DA VASSOURA",
      "house": "",
      "postcode": "8400-524",
      "city": "CARVOEIRO LGA",
      "lon": "-8.460216432309336",
      "lat": "37.10865357153056"
    },
    {
      "id": "pt.ine.add.PTCONT.1507969",
      "street": "BR MUNICIPAL JACINTO CORREIA",
      "house": "12",
      "postcode": "8400-557",
      "city": "CARVOEIRO LGA",
      "lon": "-8.45690345433508",
      "lat": "37.110041289457016"
    },
    {
      "id": "pt.ine.add.PTCONT.1507970",
      "street": "BR MUNICIPAL JACINTO CORREIA",
      "house": "12",
      "postcode": "8400-557",
      "city": "CARVOEIRO LGA",
      "lon": "-8.45690345433508",
      "lat": "37.110041289457016"
    },
    {
      "id": "pt.ine.add.PTCONT.1508036",
      "street": "BR MUNICIPAL JACINTO CORREIA",
      "house": "12",
      "postcode": "8400-557",
      "city": "CARVOEIRO LGA",
      "lon": "-8.45690345433508",
      "lat": "37.110041289457016"
    },
    {
      "id": "pt.ine.add.PTCONT.1508037",
      "street": "BR MUNICIPAL JACINTO CORREIA",
      "house": "12",
      "postcode": "8400-557",
      "city": "CARVOEIRO LGA",
      "lon": "-8.45690345433508",
      "lat": "37.110041289457016"
    },
    {
      "id": "pt.ine.add.PTCONT.1508038",
      "street": "BR MUNICIPAL JACINTO CORREIA",
      "house": "12",
      "postcode": "8400-557",
      "city": "CARVOEIRO LGA",
      "lon": "-8.45690345433508",
      "lat": "37.110041289457016"
    },
    {
      "id": "pt.ine.add.PTCONT.1508039",
      "street": "BR MUNICIPAL JACINTO CORREIA",
      "house": "12",
      "postcode": "8400-557",
      "city": "CARVOEIRO LGA",
      "lon": "-8.45690345433508",
      "lat": "37.110041289457016"
    },
    {
      "id": "pt.ine.add.PTCONT.1508040",
      "street": "BR MUNICIPAL JACINTO CORREIA",
      "house": "12",
      "postcode": "8400-557",
      "city": "CARVOEIRO LGA",
      "lon": "-8.45690345433508",
      "lat": "37.110041289457016"
    },
    {
      "id": "pt.ine.add.PTCONT.1516308",
      "street": "EN 124",
      "house": "",
      "postcode": "8400-524",
      "city": "CARVOEIRO LGA",
      "lon": "-8.458092584333867",
      "lat": "37.1092360912347"
    },
    {
      "id": "pt.ine.add.PTCONT.1522571",
      "street": "EN 124",
      "house": "",
      "postcode": "8400-524",
      "city": "CARVOEIRO LGA",
      "lon": "-8.458441231563649",
      "lat": "37.10920810327965"
    },
    {
      "id": "pt.ine.add.PTCONT.1540784",
      "street": "VALE DE ARGES CASA BARÃO",
      "house": "",
      "postcode": "8400-557",
      "city": "CARVOEIRO LGA",
      "lon": "-8.457711553086387",
      "lat": "37.1069484375707"
    },
    {
      "id": "pt.ine.add.PTCONT.1540785",
      "street": "QTA AVO",
      "house": "",
      "postcode": "8400-557",
      "city": "CARVOEIRO LGA",
      "lon": "-8.458631205806645",
      "lat": "37.106279130381"
    },
    {
      "id": "pt.ine.add.PTCONT.1540786",
      "street": "QTA AVO",
      "house": "",
      "postcode": "8400-557",
      "city": "CARVOEIRO LGA",
      "lon": "-8.458631205806645",
      "lat": "37.106279130381"
    },
    {
      "id": "pt.ine.add.PTCONT.1545510",
      "street": "VALE DE ARGES",
      "house": "",
      "postcode": "8400-524",
      "city": "CARVOEIRO LGA",
      "lon": "-8.460724826695039",
      "lat": "37.10653467227975"
    },
    {
      "id": "pt.ine.add.PTCONT.1557761",
      "street": "EN 124",
      "house": "",
      "postcode": "8400-524",
      "city": "CARVOEIRO LGA",
      "lon": "-8.461619414977138",
      "lat": "37.10788379018981"
    },
    {
      "id": "pt.ine.add.PTCONT.1557762",
      "street": "EN 124",
      "house": "",
      "postcode": "8400-524",
      "city": "CARVOEIRO LGA",
      "lon": "-8.461619414977138",
      "lat": "37.10788379018981"
    },
    {
      "id": "pt.ine.add.PTCONT.1571019",
      "street": "BR MUNICIPAL JACINTO CORREIA",
      "house": "4",
      "postcode": "8400-557",
      "city": "CARVOEIRO LGA",
      "lon": "-8.455894424351987",
      "lat": "37.11087301738487"
    },
    {
      "id": "pt.ine.add.PTCONT.1571020",
      "street": "BR MUNICIPAL JACINTO CORREIA",
      "house": "4",
      "postcode": "8400-557",
      "city": "CARVOEIRO LGA",
      "lon": "-8.455894424351987",
      "lat": "37.11087301738487"
    },
    {
      "id": "pt.ine.add.PTCONT.1571021",
      "street": "BR MUNICIPAL JACINTO CORREIA",
      "house": "4",
      "postcode": "8400-557",
      "city": "CARVOEIRO LGA",
      "lon": "-8.455894424351987",
      "lat": "37.11087301738487"
    },
    {
      "id": "pt.ine.add.PTCONT.1571022",
      "street": "BR MUNICIPAL JACINTO CORREIA",
      "house": "4",
      "postcode": "8400-557",
      "city": "CARVOEIRO LGA",
      "lon": "-8.455894424351987",
      "lat": "37.11087301738487"
    },
    {
      "id": "pt.ine.add.PTCONT.1571023",
      "street": "BR MUNICIPAL JACINTO CORREIA",
      "house": "4",
      "postcode": "8400-557",
      "city": "CARVOEIRO LGA",
      "lon": "-8.455894424351987",
      "lat": "37.11087301738487"
    },
    {
      "id": "pt.ine.add.PTCONT.1571415",
      "street": "BR MUNICIPAL JACINTO CORREIA",
      "house": "4",
      "postcode": "8400-557",
      "city": "CARVOEIRO LGA",
      "lon": "-8.455894424351987",
      "lat": "37.11087301738487"
    },
    {
      "id": "pt.ine.add.PTCONT.1577610",
      "street": "VALE DE ARGES",
      "house": "",
      "postcode": "8400-524",
      "city": "CARVOEIRO LGA",
      "lon": "-8.459979615395977",
      "lat": "37.105905985400504"
    },
    {
      "id": "pt.ine.add.PTCONT.1579543",
      "street": "VALE DARQUE CASA ANTIGA",
      "house": "",
      "postcode": "8400-530",
      "city": "CARVOEIRO LGA",
      "lon": "-8.461613421970055",
      "lat": "37.106496171298666"
    },
    {
      "id": "pt.ine.add.PTCONT.1589349",
      "street": "BR MUNICIPAL JACINTO CORREIA",
      "house": "5",
      "postcode": "8400-557",
      "city": "CARVOEIRO LGA",
      "lon": "-8.456075506308299",
      "lat": "37.111124821516576"
    },
    {
      "id": "pt.ine.add.PTCONT.1589350",
      "street": "BR MUNICIPAL JACINTO CORREIA",
      "house": "5",
      "postcode": "8400-557",
      "city": "CARVOEIRO LGA",
      "lon": "-8.456075506308299",
      "lat": "37.111124821516576"
    },
    {
      "id": "pt.ine.add.PTCONT.1589351",
      "street": "BR MUNICIPAL JACINTO CORREIA",
      "house": "5",
      "postcode": "8400-557",
      "city": "CARVOEIRO LGA",
      "lon": "-8.456075506308299",
      "lat": "37.111124821516576"
    },
    {
      "id": "pt.ine.add.PTCONT.1589352",
      "street": "BR MUNICIPAL JACINTO CORREIA",
      "house": "5",
      "postcode": "8400-557",
      "city": "CARVOEIRO LGA",
      "lon": "-8.456075506308299",
      "lat": "37.111124821516576"
    },
    {
      "id": "pt.ine.add.PTCONT.1589353",
      "street": "BR MUNICIPAL JACINTO CORREIA",
      "house": "5",
      "postcode": "8400-557",
      "city": "CARVOEIRO LGA",
      "lon": "-8.456075506308299",
      "lat": "37.111124821516576"
    },
    {
      "id": "pt.ine.add.PTCONT.1589354",
      "street": "BR MUNICIPAL JACINTO CORREIA",
      "house": "5",
      "postcode": "8400-557",
      "city": "CARVOEIRO LGA",
      "lon": "-8.456075506308299",
      "lat": "37.111124821516576"
    },
    {
      "id": "pt.ine.add.PTCONT.1598120",
      "street": "VALE DARQUE CASA LAR",
      "house": "",
      "postcode": "8400-530",
      "city": "CARVOEIRO LGA",
      "lon": "-8.46156939467635",
      "lat": "37.10672155879149"
    },
    {
      "id": "pt.ine.add.PTCONT.1609245",
      "street": "BR MUNICIPAL JACINTO CORREIA",
      "house": "14",
      "postcode": "8400-557",
      "city": "CARVOEIRO LGA",
      "lon": "-8.456578875012987",
      "lat": "37.11043864252198"
    },
    {
      "id": "pt.ine.add.PTCONT.1609246",
      "street": "BR MUNICIPAL JACINTO CORREIA",
      "house": "14",
      "postcode": "8400-557",
      "city": "CARVOEIRO LGA",
      "lon": "-8.456578875012987",
      "lat": "37.11043864252198"
    },
    {
      "id": "pt.ine.add.PTCONT.1609247",
      "street": "BR MUNICIPAL JACINTO CORREIA",
      "house": "14",
      "postcode": "8400-557",
      "city": "CARVOEIRO LGA",
      "lon": "-8.456578875012987",
      "lat": "37.11043864252198"
    },
    {
      "id": "pt.ine.add.PTCONT.1609248",
      "street": "BR MUNICIPAL JACINTO CORREIA",
      "house": "14",
      "postcode": "8400-557",
      "city": "CARVOEIRO LGA",
      "lon": "-8.456578875012987",
      "lat": "37.11043864252198"
    },
    {
      "id": "pt.ine.add.PTCONT.1609249",
      "street": "BR MUNICIPAL JACINTO CORREIA",
      "house": "14",
      "postcode": "8400-557",
      "city": "CARVOEIRO LGA",
      "lon": "-8.456578875012987",
      "lat": "37.11043864252198"
    },
    {
      "id": "pt.ine.add.PTCONT.1609250",
      "street": "BR MUNICIPAL JACINTO CORREIA",
      "house": "14",
      "postcode": "8400-557",
      "city": "CARVOEIRO LGA",
      "lon": "-8.456578875012987",
      "lat": "37.11043864252198"
    },
    {
      "id": "pt.ine.add.PTCONT.1610904",
      "street": "BR MUNICIPAL JACINTO CORREIA",
      "house": "14",
      "postcode": "8400-557",
      "city": "CARVOEIRO LGA",
      "lon": "-8.456578875012987",
      "lat": "37.11043864252198"
    },
    {
      "id": "pt.ine.add.PTCONT.1610949",
      "street": "BR MUNICIPAL JACINTO CORREIA",
      "house": "14",
      "postcode": "8400-557",
      "city": "CARVOEIRO LGA",
      "lon": "-8.456578875012987",
      "lat": "37.11043864252198"
    },
    {
      "id": "pt.ine.add.PTCONT.1626161",
      "street": "BR MUNICIPAL JACINTO CORREIA",
      "house": "3",
      "postcode": "8400-557",
      "city": "CARVOEIRO LGA",
      "lon": "-8.456174427730316",
      "lat": "37.1105749044562"
    },
    {
      "id": "pt.ine.add.PTCONT.1626162",
      "street": "BR MUNICIPAL JACINTO CORREIA",
      "house": "3",
      "postcode": "8400-557",
      "city": "CARVOEIRO LGA",
      "lon": "-8.456174427730316",
      "lat": "37.1105749044562"
    },
    {
      "id": "pt.ine.add.PTCONT.1626163",
      "street": "BR MUNICIPAL JACINTO CORREIA",
      "house": "3",
      "postcode": "8400-557",
      "city": "CARVOEIRO LGA",
      "lon": "-8.456174427730316",
      "lat": "37.1105749044562"
    },
    {
      "id": "pt.ine.add.PTCONT.1626164",
      "street": "BR MUNICIPAL JACINTO CORREIA",
      "house": "3",
      "postcode": "8400-557",
      "city": "CARVOEIRO LGA",
      "lon": "-8.456174427730316",
      "lat": "37.1105749044562"
    },
    {
      "id": "pt.ine.add.PTCONT.1626165",
      "street": "BR MUNICIPAL JACINTO CORREIA",
      "house": "3",
      "postcode": "8400-557",
      "city": "CARVOEIRO LGA",
      "lon": "-8.456174427730316",
      "lat": "37.1105749044562"
    },
    {
      "id": "pt.ine.add.PTCONT.1626166",
      "street": "BR MUNICIPAL JACINTO CORREIA",
      "house": "3",
      "postcode": "8400-557",
      "city": "CARVOEIRO LGA",
      "lon": "-8.456174427730316",
      "lat": "37.1105749044562"
    },
    {
      "id": "pt.ine.add.PTCONT.1634465",
      "street": "R JACINTO CORREIA",
      "house": "",
      "postcode": "8400-557",
      "city": "CARVOEIRO LGA",
      "lon": "-8.457056663381966",
      "lat": "37.10903168179117"
    },
    {
      "id": "pt.ine.add.PTCONT.1644267",
      "street": "ESTR POÇO PARTIDO",
      "house": "",
      "postcode": "8400-557",
      "city": "CARVOEIRO LGA",
      "lon": "-8.4568004118231",
      "lat": "37.10697796025083"
    },
    {
      "id": "pt.ine.add.PTCONT.1650407",
      "street": "EN 124",
      "house": "",
      "postcode": "8400-524",
      "city": "CARVOEIRO LGA",
      "lon": "-8.456245377019371",
      "lat": "37.11138566652846"
    },
    {
      "id": "pt.ine.add.PTCONT.1658199",
      "street": "BR MUNICIPAL JACINTO CORREIA",
      "house": "8",
      "postcode": "8400-557",
      "city": "CARVOEIRO LGA",
      "lon": "-8.45690660001838",
      "lat": "37.110780151408456"
    },
    {
      "id": "pt.ine.add.PTCONT.1658200",
      "street": "BR MUNICIPAL JACINTO CORREIA",
      "house": "8",
      "postcode": "8400-557",
      "city": "CARVOEIRO LGA",
      "lon": "-8.45690660001838",
      "lat": "37.110780151408456"
    },
    {
      "id": "pt.ine.add.PTCONT.1658201",
      "street": "BR MUNICIPAL JACINTO CORREIA",
      "house": "8",
      "postcode": "8400-557",
      "city": "CARVOEIRO LGA",
      "lon": "-8.45690660001838",
      "lat": "37.110780151408456"
    },
    {
      "id": "pt.ine.add.PTCONT.1658202",
      "street": "BR MUNICIPAL JACINTO CORREIA",
      "house": "8",
      "postcode": "8400-557",
      "city": "CARVOEIRO LGA",
      "lon": "-8.45690660001838",
      "lat": "37.110780151408456"
    },
    {
      "id": "pt.ine.add.PTCONT.1658203",
      "street": "BR MUNICIPAL JACINTO CORREIA",
      "house": "8",
      "postcode": "8400-557",
      "city": "CARVOEIRO LGA",
      "lon": "-8.45690660001838",
      "lat": "37.110780151408456"
    },
    {
      "id": "pt.ine.add.PTCONT.1658204",
      "street": "BR MUNICIPAL JACINTO CORREIA",
      "house": "8",
      "postcode": "8400-557",
      "city": "CARVOEIRO LGA",
      "lon": "-8.45690660001838",
      "lat": "37.110780151408456"
    },
    {
      "id": "pt.ine.add.PTCONT.1665159",
      "street": "R JACINTO CORREIA",
      "house": "",
      "postcode": "8400-557",
      "city": "CARVOEIRO LGA",
      "lon": "-8.456909641152704",
      "lat": "37.10885187100841"
    },
    {
      "id": "pt.ine.add.PTCONT.1681429",
      "street": "ESTR POÇO PARTIDO",
      "house": "",
      "postcode": "8400-557",
      "city": "CARVOEIRO LGA",
      "lon": "-8.458054329051125",
      "lat": "37.10818195369637"
    },
    {
      "id": "pt.ine.add.PTCONT.1693201",
      "street": "EN 124",
      "house": "",
      "postcode": "8400-524",
      "city": "CARVOEIRO LGA",
      "lon": "-8.46140655547705",
      "lat": "37.10809162397357"
    },
    {
      "id": "pt.ine.add.PTCONT.1693202",
      "street": "EN 124",
      "house": "",
      "postcode": "8400-524",
      "city": "CARVOEIRO LGA",
      "lon": "-8.46140655547705",
      "lat": "37.10809162397357"
    },
    {
      "id": "pt.ine.add.PTCONT.1694707",
      "street": "EN 124",
      "house": "",
      "postcode": "8400-524",
      "city": "CARVOEIRO LGA",
      "lon": "-8.46140655547705",
      "lat": "37.10809162397357"
    },
    {
      "id": "pt.ine.add.PTCONT.1701828",
      "street": "BR MUNICIPAL JACINTO CORREIA",
      "house": "2",
      "postcode": "8400-557",
      "city": "CARVOEIRO LGA",
      "lon": "-8.456194823678379",
      "lat": "37.11007926496491"
    },
    {
      "id": "pt.ine.add.PTCONT.1701829",
      "street": "BR MUNICIPAL JACINTO CORREIA",
      "house": "2",
      "postcode": "8400-557",
      "city": "CARVOEIRO LGA",
      "lon": "-8.456194823678379",
      "lat": "37.11007926496491"
    },
    {
      "id": "pt.ine.add.PTCONT.1701832",
      "street": "BR MUNICIPAL JACINTO CORREIA",
      "house": "2",
      "postcode": "8400-557",
      "city": "CARVOEIRO LGA",
      "lon": "-8.456194823678379",
      "lat": "37.11007926496491"
    },
    {
      "id": "pt.ine.add.PTCONT.1701833",
      "street": "BR MUNICIPAL JACINTO CORREIA",
      "house": "2",
      "postcode": "8400-557",
      "city": "CARVOEIRO LGA",
      "lon": "-8.456194823678379",
      "lat": "37.11007926496491"
    },
    {
      "id": "pt.ine.add.PTCONT.1713269",
      "street": "BR MUNICIPAL JACINTO CORREIA",
      "house": "10",
      "postcode": "8400-557",
      "city": "CARVOEIRO LGA",
      "lon": "-8.457230987062923",
      "lat": "37.11033774491351"
    },
    {
      "id": "pt.ine.add.PTCONT.1713270",
      "street": "BR MUNICIPAL JACINTO CORREIA",
      "house": "10",
      "postcode": "8400-557",
      "city": "CARVOEIRO LGA",
      "lon": "-8.457230987062923",
      "lat": "37.11033774491351"
    },
    {
      "id": "pt.ine.add.PTCONT.1713271",
      "street": "BR MUNICIPAL JACINTO CORREIA",
      "house": "10",
      "postcode": "8400-557",
      "city": "CARVOEIRO LGA",
      "lon": "-8.457230987062923",
      "lat": "37.11033774491351"
    },
    {
      "id": "pt.ine.add.PTCONT.1713272",
      "street": "BR MUNICIPAL JACINTO CORREIA",
      "house": "10",
      "postcode": "8400-557",
      "city": "CARVOEIRO LGA",
      "lon": "-8.457230987062923",
      "lat": "37.11033774491351"
    },
    {
      "id": "pt.ine.add.PTCONT.1713273",
      "street": "BR MUNICIPAL JACINTO CORREIA",
      "house": "10",
      "postcode": "8400-557",
      "city": "CARVOEIRO LGA",
      "lon": "-8.457230987062923",
      "lat": "37.11033774491351"
    },
    {
      "id": "pt.ine.add.PTCONT.1713274",
      "street": "BR MUNICIPAL JACINTO CORREIA",
      "house": "10",
      "postcode": "8400-557",
      "city": "CARVOEIRO LGA",
      "lon": "-8.457230987062923",
      "lat": "37.11033774491351"
    },
    {
      "id": "pt.ine.add.PTCONT.1713275",
      "street": "BR MUNICIPAL JACINTO CORREIA",
      "house": "10",
      "postcode": "8400-557",
      "city": "CARVOEIRO LGA",
      "lon": "-8.457230987062923",
      "lat": "37.11033774491351"
    },
    {
      "id": "pt.ine.add.PTCONT.1714638",
      "street": "BR MUNICIPAL JACINTO CORREIA",
      "house": "10",
      "postcode": "8400-557",
      "city": "CARVOEIRO LGA",
      "lon": "-8.457230987062923",
      "lat": "37.11033774491351"
    },
    {
      "id": "pt.ine.add.PTCONT.1716216",
      "street": "BR MUNICIPAL JACINTO CORREIA",
      "house": "1",
      "postcode": "8400-557",
      "city": "CARVOEIRO LGA",
      "lon": "-8.45648618840674",
      "lat": "37.10980815216214"
    },
    {
      "id": "pt.ine.add.PTCONT.1716217",
      "street": "BR MUNICIPAL JACINTO CORREIA",
      "house": "1",
      "postcode": "8400-557",
      "city": "CARVOEIRO LGA",
      "lon": "-8.45648618840674",
      "lat": "37.10980815216214"
    },
    {
      "id": "pt.ine.add.PTCONT.1716218",
      "street": "BR MUNICIPAL JACINTO CORREIA",
      "house": "1",
      "postcode": "8400-557",
      "city": "CARVOEIRO LGA",
      "lon": "-8.45648618840674",
      "lat": "37.10980815216214"
    },
    {
      "id": "pt.ine.add.PTCONT.1720681",
      "street": "BR MUNICIPAL JACINTO CORREIA",
      "house": "7",
      "postcode": "8400-557",
      "city": "CARVOEIRO LGA",
      "lon": "-8.45652411640515",
      "lat": "37.1107902059268"
    },
    {
      "id": "pt.ine.add.PTCONT.1720682",
      "street": "BR MUNICIPAL JACINTO CORREIA",
      "house": "7",
      "postcode": "8400-557",
      "city": "CARVOEIRO LGA",
      "lon": "-8.45652411640515",
      "lat": "37.1107902059268"
    },
    {
      "id": "pt.ine.add.PTCONT.1720683",
      "street": "BR MUNICIPAL JACINTO CORREIA",
      "house": "7",
      "postcode": "8400-557",
      "city": "CARVOEIRO LGA",
      "lon": "-8.45652411640515",
      "lat": "37.1107902059268"
    },
    {
      "id": "pt.ine.add.PTCONT.1720684",
      "street": "BR MUNICIPAL JACINTO CORREIA",
      "house": "7",
      "postcode": "8400-557",
      "city": "CARVOEIRO LGA",
      "lon": "-8.45652411640515",
      "lat": "37.1107902059268"
    },
    {
      "id": "pt.ine.add.PTCONT.1720694",
      "street": "BR MUNICIPAL JACINTO CORREIA",
      "house": "7",
      "postcode": "8400-557",
      "city": "CARVOEIRO LGA",
      "lon": "-8.45652411640515",
      "lat": "37.1107902059268"
    },
    {
      "id": "pt.ine.add.PTCONT.1738894",
      "street": "EN 124",
      "house": "",
      "postcode": "8400-524",
      "city": "CARVOEIRO LGA",
      "lon": "-8.458305956952936",
      "lat": "37.109145400042024"
    },
    {
      "id": "pt.ine.add.PTCONT.1742351",
      "street": "VALE DE ARGES MONTE VERDE",
      "house": "",
      "postcode": "8400-524",
      "city": "CARVOEIRO LGA",
      "lon": "-8.460019173940358",
      "lat": "37.1072574695561"
    },
    {
      "id": "pt.ine.add.PTCONT.1763068",
      "street": "EN 124",
      "house": "",
      "postcode": "8400-524",
      "city": "CARVOEIRO LGA",
      "lon": "-8.459819032660485",
      "lat": "37.10780766900664"
    },
    {
      "id": "pt.ine.add.PTCONT.1766492",
      "street": "VALE DE ARGES",
      "house": "",
      "postcode": "8400-524",
      "city": "CARVOEIRO LGA",
      "lon": "-8.460456222377525",
      "lat": "37.10685979648337"
    },
    {
      "id": "pt.ine.add.PTCONT.1774493",
      "street": "BR MUNICIPAL JACINTO CORREIA",
      "house": "6",
      "postcode": "8400-557",
      "city": "CARVOEIRO LGA",
      "lon": "-8.45646916574625",
      "lat": "37.11109671673332"
    },
    {
      "id": "pt.ine.add.PTCONT.1774494",
      "street": "BR MUNICIPAL JACINTO CORREIA",
      "house": "6",
      "postcode": "8400-557",
      "city": "CARVOEIRO LGA",
      "lon": "-8.45646916574625",
      "lat": "37.11109671673332"
    },
    {
      "id": "pt.ine.add.PTCONT.1774495",
      "street": "BR MUNICIPAL JACINTO CORREIA",
      "house": "6",
      "postcode": "8400-557",
      "city": "CARVOEIRO LGA",
      "lon": "-8.45646916574625",
      "lat": "37.11109671673332"
    },
    {
      "id": "pt.ine.add.PTCONT.1774496",
      "street": "BR MUNICIPAL JACINTO CORREIA",
      "house": "6",
      "postcode": "8400-557",
      "city": "CARVOEIRO LGA",
      "lon": "-8.45646916574625",
      "lat": "37.11109671673332"
    },
    {
      "id": "pt.ine.add.PTCONT.1774497",
      "street": "BR MUNICIPAL JACINTO CORREIA",
      "house": "6",
      "postcode": "8400-557",
      "city": "CARVOEIRO LGA",
      "lon": "-8.45646916574625",
      "lat": "37.11109671673332"
    },
    {
      "id": "pt.ine.add.PTCONT.1774519",
      "street": "BR MUNICIPAL JACINTO CORREIA",
      "house": "6",
      "postcode": "8400-557",
      "city": "CARVOEIRO LGA",
      "lon": "-8.45646916574625",
      "lat": "37.11109671673332"
    },
    {
      "id": "pt.ine.add.PTCONT.1778607",
      "street": "BR MUNICIPAL JACINTO CORREIA",
      "house": "13",
      "postcode": "8400-557",
      "city": "CARVOEIRO LGA",
      "lon": "-8.456679018644449",
      "lat": "37.1101770613958"
    },
    {
      "id": "pt.ine.add.PTCONT.1778608",
      "street": "BR MUNICIPAL JACINTO CORREIA",
      "house": "13",
      "postcode": "8400-557",
      "city": "CARVOEIRO LGA",
      "lon": "-8.456679018644449",
      "lat": "37.1101770613958"
    },
    {
      "id": "pt.ine.add.PTCONT.1778609",
      "street": "BR MUNICIPAL JACINTO CORREIA",
      "house": "13",
      "postcode": "8400-557",
      "city": "CARVOEIRO LGA",
      "lon": "-8.456679018644449",
      "lat": "37.1101770613958"
    },
    {
      "id": "pt.ine.add.PTCONT.1778610",
      "street": "BR MUNICIPAL JACINTO CORREIA",
      "house": "13",
      "postcode": "8400-557",
      "city": "CARVOEIRO LGA",
      "lon": "-8.456679018644449",
      "lat": "37.1101770613958"
    },
    {
      "id": "pt.ine.add.PTCONT.1778611",
      "street": "BR MUNICIPAL JACINTO CORREIA",
      "house": "13",
      "postcode": "8400-557",
      "city": "CARVOEIRO LGA",
      "lon": "-8.456679018644449",
      "lat": "37.1101770613958"
    },
    {
      "id": "pt.ine.add.PTCONT.1778612",
      "street": "BR MUNICIPAL JACINTO CORREIA",
      "house": "13",
      "postcode": "8400-557",
      "city": "CARVOEIRO LGA",
      "lon": "-8.456679018644449",
      "lat": "37.1101770613958"
    },
    {
      "id": "pt.ine.add.PTCONT.1785817",
      "street": "BR MUNICIPAL JACINTO CORREIA",
      "house": "9",
      "postcode": "8400-557",
      "city": "CARVOEIRO LGA",
      "lon": "-8.457175847596739",
      "lat": "37.11059920350064"
    },
    {
      "id": "pt.ine.add.PTCONT.1785818",
      "street": "BR MUNICIPAL JACINTO CORREIA",
      "house": "9",
      "postcode": "8400-557",
      "city": "CARVOEIRO LGA",
      "lon": "-8.457175847596739",
      "lat": "37.11059920350064"
    },
    {
      "id": "pt.ine.add.PTCONT.1785819",
      "street": "BR MUNICIPAL JACINTO CORREIA",
      "house": "9",
      "postcode": "8400-557",
      "city": "CARVOEIRO LGA",
      "lon": "-8.457175847596739",
      "lat": "37.11059920350064"
    },
    {
      "id": "pt.ine.add.PTCONT.1785820",
      "street": "BR MUNICIPAL JACINTO CORREIA",
      "house": "9",
      "postcode": "8400-557",
      "city": "CARVOEIRO LGA",
      "lon": "-8.457175847596739",
      "lat": "37.11059920350064"
    },
    {
      "id": "pt.ine.add.PTCONT.1785821",
      "street": "BR MUNICIPAL JACINTO CORREIA",
      "house": "9",
      "postcode": "8400-557",
      "city": "CARVOEIRO LGA",
      "lon": "-8.457175847596739",
      "lat": "37.11059920350064"
    },
    {
      "id": "pt.ine.add.PTCONT.1786173",
      "street": "BR MUNICIPAL JACINTO CORREIA",
      "house": "9",
      "postcode": "8400-557",
      "city": "CARVOEIRO LGA",
      "lon": "-8.457175847596739",
      "lat": "37.11059920350064"
    },
    {
      "id": "pt.ine.add.PTCONT.1819938",
      "street": "BR MUNICIPAL JACINTO CORREIA",
      "house": "11",
      "postcode": "8400-557",
      "city": "CARVOEIRO LGA",
      "lon": "-8.457095020507126",
      "lat": "37.11011285110023"
    },
    {
      "id": "pt.ine.add.PTCONT.1819939",
      "street": "BR MUNICIPAL JACINTO CORREIA",
      "house": "11",
      "postcode": "8400-557",
      "city": "CARVOEIRO LGA",
      "lon": "-8.457095020507126",
      "lat": "37.11011285110023"
    },
    {
      "id": "pt.ine.add.PTCONT.1819940",
      "street": "BR MUNICIPAL JACINTO CORREIA",
      "house": "11",
      "postcode": "8400-557",
      "city": "CARVOEIRO LGA",
      "lon": "-8.457095020507126",
      "lat": "37.11011285110023"
    },
    {
      "id": "pt.ine.add.PTCONT.1819941",
      "street": "BR MUNICIPAL JACINTO CORREIA",
      "house": "11",
      "postcode": "8400-557",
      "city": "CARVOEIRO LGA",
      "lon": "-8.457095020507126",
      "lat": "37.11011285110023"
    },
    {
      "id": "pt.ine.add.PTCONT.1821182",
      "street": "BR MUNICIPAL JACINTO CORREIA",
      "house": "11",
      "postcode": "8400-557",
      "city": "CARVOEIRO LGA",
      "lon": "-8.457095020507126",
      "lat": "37.11011285110023"
    },
    {
      "id": "pt.ine.add.PTCONT.1831258",
      "street": "ESTR POÇO PARTIDO",
      "house": "",
      "postcode": "8400-557",
      "city": "CARVOEIRO LGA",
      "lon": "-8.457231217017013",
      "lat": "37.10775169681585"
    },
    {
      "id": "pt.ine.add.PTCONT.1833775",
      "street": "EN 124",
      "house": "",
      "postcode": "8400-524",
      "city": "CARVOEIRO LGA",
      "lon": "-8.46116087671588",
      "lat": "37.10851580301664"
    },
    {
      "id": "pt.ine.add.PTCONT.1842662",
      "street": "EN 124",
      "house": "",
      "postcode": "8400-524",
      "city": "CARVOEIRO LGA",
      "lon": "-8.46154109148463",
      "lat": "37.107983123972446"
    },
    {
      "id": "pt.ine.add.PTCONT.1845229",
      "street": "BR MUNICIPAL JACINTO CORREIA",
      "house": "7",
      "postcode": "8400-557",
      "city": "CARVOEIRO LGA",
      "lon": "-8.45652411640515",
      "lat": "37.1107902059268"
    },
    {
      "id": "pt.ine.add.PTCONT.1846047",
      "street": "BR MUNICIPAL JACINTO CORREIA",
      "house": "1",
      "postcode": "8400-557",
      "city": "CARVOEIRO LGA",
      "lon": "-8.45648618840674",
      "lat": "37.10980815216214"
    }
  ]
}