{
  "data": {
    "distrito": "Faro",
    "concelho": "Lagoa",
    "freguesia": "Uni√£o das freguesias de Lagoa e Carvoeiro",
    "OBJECTID": 254,
    "BGRI2021": "08060801106",
    "DT21": "08",
    "DTMN21": "0806",
    "DTMNFR21": "080608",
    "DTMNFRSEC21": "080608011",
    "SECNUM21": "011",
    "SSNUM21": "06",
    "SECSSNUM21": "01106",
    "OBJECTID_1": 67110,
    "DT": "08",
    "CC": "06",
    "fr": "08",
    "SEC": "011",
    "SS": "06"
  },
  "addresses": [
    {
      "id": "pt.ine.add.PTCONT.1475964",
      "street": "URB CABECA PIAS",
      "house": "2",
      "postcode": "8400-561",
      "city": "CARVOEIRO LGA",
      "lon": "-8.479255528766936",
      "lat": "37.116799171533415"
    },
    {
      "id": "pt.ine.add.PTCONT.1479207",
      "street": "URB CABECA PIAS",
      "house": "",
      "postcode": "8400-561",
      "city": "CARVOEIRO LGA",
      "lon": "-8.47969372155521",
      "lat": "37.11666273238211"
    },
    {
      "id": "pt.ine.add.PTCONT.1490729",
      "street": "URB CABECA PIAS",
      "house": "29",
      "postcode": "8400-561",
      "city": "CARVOEIRO LGA",
      "lon": "-8.479945898777231",
      "lat": "37.11768019277005"
    },
    {
      "id": "pt.ine.add.PTCONT.1505184",
      "street": "URB CABECA PIAS",
      "house": "",
      "postcode": "8400-561",
      "city": "CARVOEIRO LGA",
      "lon": "-8.480717318614959",
      "lat": "37.11659666153382"
    },
    {
      "id": "pt.ine.add.PTCONT.1519795",
      "street": "URB CABECA PIAS",
      "house": "",
      "postcode": "8400-561",
      "city": "CARVOEIRO LGA",
      "lon": "-8.480969921529343",
      "lat": "37.1177042244698"
    },
    {
      "id": "pt.ine.add.PTCONT.1522400",
      "street": "CABECO PIAS",
      "house": "18",
      "postcode": "8400-561",
      "city": "CARVOEIRO LGA",
      "lon": "-8.480651415951698",
      "lat": "37.11694826816117"
    },
    {
      "id": "pt.ine.add.PTCONT.1529087",
      "street": "URB CABECA PIAS",
      "house": "4",
      "postcode": "8400-561",
      "city": "CARVOEIRO LGA",
      "lon": "-8.479423891014362",
      "lat": "37.11670857386117"
    },
    {
      "id": "pt.ine.add.PTCONT.1532250",
      "street": "URB CABECA PIAS",
      "house": "22",
      "postcode": "8400-561",
      "city": "CARVOEIRO LGA",
      "lon": "-8.479785541083269",
      "lat": "37.11705893037058"
    },
    {
      "id": "pt.ine.add.PTCONT.1534039",
      "street": "URB CABECA PIAS",
      "house": "",
      "postcode": "8400-561",
      "city": "CARVOEIRO LGA",
      "lon": "-8.479182673844033",
      "lat": "37.11809691062298"
    },
    {
      "id": "pt.ine.add.PTCONT.1548202",
      "street": "URB CABECA PIAS",
      "house": "",
      "postcode": "8400-561",
      "city": "CARVOEIRO LGA",
      "lon": "-8.479700252100805",
      "lat": "37.11809539869592"
    },
    {
      "id": "pt.ine.add.PTCONT.1548204",
      "street": "URB CABECA PIAS",
      "house": "16",
      "postcode": "8400-561",
      "city": "CARVOEIRO LGA",
      "lon": "-8.480684429141021",
      "lat": "37.1167859805742"
    },
    {
      "id": "pt.ine.add.PTCONT.1554569",
      "street": "URB CABECA PIAS",
      "house": "",
      "postcode": "8400-561",
      "city": "CARVOEIRO LGA",
      "lon": "-8.47935675132053",
      "lat": "37.11678986536477"
    },
    {
      "id": "pt.ine.add.PTCONT.1557757",
      "street": "URB CABECA PIAS",
      "house": "53",
      "postcode": "8400-561",
      "city": "CARVOEIRO LGA",
      "lon": "-8.481095009228794",
      "lat": "37.11799219655824"
    },
    {
      "id": "pt.ine.add.PTCONT.1573290",
      "street": "URB CABECA PIAS",
      "house": "51",
      "postcode": "8400-561",
      "city": "CARVOEIRO LGA",
      "lon": "-8.480489970674272",
      "lat": "37.11855262796824"
    },
    {
      "id": "pt.ine.add.PTCONT.1581749",
      "street": "URB CABECA PIAS",
      "house": "",
      "postcode": "8400-561",
      "city": "CARVOEIRO LGA",
      "lon": "-8.47934763340162",
      "lat": "37.11725844322664"
    },
    {
      "id": "pt.ine.add.PTCONT.1598085",
      "street": "URB CABECA PIAS",
      "house": "",
      "postcode": "8400-561",
      "city": "CARVOEIRO LGA",
      "lon": "-8.479143300713915",
      "lat": "37.116862573342885"
    },
    {
      "id": "pt.ine.add.PTCONT.1609256",
      "street": "URB CABECA PIAS CASA LOUCA",
      "house": "12",
      "postcode": "8400-561",
      "city": "CARVOEIRO LGA",
      "lon": "-8.480277605882486",
      "lat": "37.11639971667458"
    },
    {
      "id": "pt.ine.add.PTCONT.1619370",
      "street": "CABECO PIAS",
      "house": "17",
      "postcode": "8400-561",
      "city": "CARVOEIRO LGA",
      "lon": "-8.480684799840466",
      "lat": "37.116867074892916"
    },
    {
      "id": "pt.ine.add.PTCONT.1621068",
      "street": "URB CABECA PIAS",
      "house": "",
      "postcode": "8400-561",
      "city": "CARVOEIRO LGA",
      "lon": "-8.48114561713629",
      "lat": "37.116757595855304"
    },
    {
      "id": "pt.ine.add.PTCONT.1628207",
      "street": "URB CABECA PIAS JACARANDAS",
      "house": "30",
      "postcode": "8400-561",
      "city": "CARVOEIRO LGA",
      "lon": "-8.479640461867701",
      "lat": "37.11732066190723"
    },
    {
      "id": "pt.ine.add.PTCONT.1628208",
      "street": "URB CABECA PIAS",
      "house": "7",
      "postcode": "8400-561",
      "city": "CARVOEIRO LGA",
      "lon": "-8.479772276574248",
      "lat": "37.116617449715"
    },
    {
      "id": "pt.ine.add.PTCONT.1642192",
      "street": "URB CABECA PIAS",
      "house": "23",
      "postcode": "8400-561",
      "city": "CARVOEIRO LGA",
      "lon": "-8.48103635935306",
      "lat": "37.1174697539367"
    },
    {
      "id": "pt.ine.add.PTCONT.1654687",
      "street": "URB CABECA PIAS",
      "house": "9",
      "postcode": "8400-561",
      "city": "CARVOEIRO LGA",
      "lon": "-8.480030485102802",
      "lat": "37.116490546039984"
    },
    {
      "id": "pt.ine.add.PTCONT.1656586",
      "street": "URB CABECA PIAS",
      "house": "21",
      "postcode": "8400-561",
      "city": "CARVOEIRO LGA",
      "lon": "-8.481136427759129",
      "lat": "37.117208152842935"
    },
    {
      "id": "pt.ine.add.PTCONT.1676427",
      "street": "URB CABECA PIAS",
      "house": "",
      "postcode": "8400-561",
      "city": "CARVOEIRO LGA",
      "lon": "-8.479021009711541",
      "lat": "37.117187311825816"
    },
    {
      "id": "pt.ine.add.PTCONT.1690057",
      "street": "URB CABECA PIAS",
      "house": "47",
      "postcode": "8400-561",
      "city": "CARVOEIRO LGA",
      "lon": "-8.480004130236294",
      "lat": "37.1181125311653"
    },
    {
      "id": "pt.ine.add.PTCONT.1693164",
      "street": "URB CABECA PIAS",
      "house": "11",
      "postcode": "8400-561",
      "city": "CARVOEIRO LGA",
      "lon": "-8.480199257044807",
      "lat": "37.11649005207983"
    },
    {
      "id": "pt.ine.add.PTCONT.1698869",
      "street": "URB CABECA PIAS",
      "house": "",
      "postcode": "8400-561",
      "city": "CARVOEIRO LGA",
      "lon": "-8.480974950987338",
      "lat": "37.11880350271374"
    },
    {
      "id": "pt.ine.add.PTCONT.1716176",
      "street": "URB CABECA PIAS",
      "house": "",
      "postcode": "8400-561",
      "city": "CARVOEIRO LGA",
      "lon": "-8.480554310755627",
      "lat": "37.11785862334515"
    },
    {
      "id": "pt.ine.add.PTCONT.1724494",
      "street": "URB CABECA PIAS",
      "house": "43",
      "postcode": "8400-561",
      "city": "CARVOEIRO LGA",
      "lon": "-8.479408036189241",
      "lat": "37.118168337373724"
    },
    {
      "id": "pt.ine.add.PTCONT.1724511",
      "street": "URB CABECA PIAS",
      "house": "31",
      "postcode": "8400-561",
      "city": "CARVOEIRO LGA",
      "lon": "-8.479653602562705",
      "lat": "37.117735111090155"
    },
    {
      "id": "pt.ine.add.PTCONT.1727490",
      "street": "URB CABECA PIAS",
      "house": "",
      "postcode": "8400-561",
      "city": "CARVOEIRO LGA",
      "lon": "-8.480412417492039",
      "lat": "37.11635426884107"
    },
    {
      "id": "pt.ine.add.PTCONT.1730343",
      "street": "URB CABECA PIAS",
      "house": "",
      "postcode": "8400-561",
      "city": "CARVOEIRO LGA",
      "lon": "-8.480306239235402",
      "lat": "37.117742212278245"
    },
    {
      "id": "pt.ine.add.PTCONT.1740916",
      "street": "URB SERRO DAS PIAS",
      "house": "",
      "postcode": "8400-564",
      "city": "CARVOEIRO LGA",
      "lon": "-8.481064800472158",
      "lat": "37.118767196661175"
    },
    {
      "id": "pt.ine.add.PTCONT.1749316",
      "street": "URB CABECA PIAS",
      "house": "15",
      "postcode": "8400-561",
      "city": "CARVOEIRO LGA",
      "lon": "-8.480661637827138",
      "lat": "37.116722973182036"
    },
    {
      "id": "pt.ine.add.PTCONT.1751180",
      "street": "URB CABECA PIAS",
      "house": "39",
      "postcode": "8400-561",
      "city": "CARVOEIRO LGA",
      "lon": "-8.478967948803978",
      "lat": "37.11789029342172"
    },
    {
      "id": "pt.ine.add.PTCONT.1772691",
      "street": "URB CABECA PIAS RITA",
      "house": "28",
      "postcode": "8400-561",
      "city": "CARVOEIRO LGA",
      "lon": "-8.480146700978334",
      "lat": "37.11730115998421"
    },
    {
      "id": "pt.ine.add.PTCONT.1775516",
      "street": "URB CABECA PIAS",
      "house": "26",
      "postcode": "8400-561",
      "city": "CARVOEIRO LGA",
      "lon": "-8.480484413115903",
      "lat": "37.11733621339166"
    },
    {
      "id": "pt.ine.add.PTCONT.1775517",
      "street": "URB CABECA PIAS",
      "house": "",
      "postcode": "8400-561",
      "city": "CARVOEIRO LGA",
      "lon": "-8.479570078346674",
      "lat": "37.11669012556022"
    },
    {
      "id": "pt.ine.add.PTCONT.1778616",
      "street": "URB CABECA PIAS",
      "house": "8",
      "postcode": "8400-561",
      "city": "CARVOEIRO LGA",
      "lon": "-8.479862165156726",
      "lat": "37.116590155051796"
    },
    {
      "id": "pt.ine.add.PTCONT.1793427",
      "street": "URB CABECA PIAS",
      "house": "",
      "postcode": "8400-561",
      "city": "CARVOEIRO LGA",
      "lon": "-8.480108998622379",
      "lat": "37.116436252669374"
    },
    {
      "id": "pt.ine.add.PTCONT.1795999",
      "street": "URB CABECA PIAS",
      "house": "20",
      "postcode": "8400-561",
      "city": "CARVOEIRO LGA",
      "lon": "-8.481090225604937",
      "lat": "37.116946981053495"
    },
    {
      "id": "pt.ine.add.PTCONT.1798489",
      "street": "URB CABECA PIAS",
      "house": "35",
      "postcode": "8400-561",
      "city": "CARVOEIRO LGA",
      "lon": "-8.480623550442854",
      "lat": "37.11823686556393"
    },
    {
      "id": "pt.ine.add.PTCONT.1813679",
      "street": "URB CABECA PIAS",
      "house": "55",
      "postcode": "8400-561",
      "city": "CARVOEIRO LGA",
      "lon": "-8.481017360654302",
      "lat": "37.11823571060052"
    },
    {
      "id": "pt.ine.add.PTCONT.1819826",
      "street": "URB CABECA PIAS",
      "house": "37",
      "postcode": "8400-561",
      "city": "CARVOEIRO LGA",
      "lon": "-8.478865495494523",
      "lat": "37.117629284859476"
    },
    {
      "id": "pt.ine.add.PTCONT.1819827",
      "street": "URB CABECA PIAS",
      "house": "",
      "postcode": "8400-561",
      "city": "CARVOEIRO LGA",
      "lon": "-8.480077916838779",
      "lat": "37.11702203269306"
    },
    {
      "id": "pt.ine.add.PTCONT.1828086",
      "street": "URB CABECA PIAS",
      "house": "",
      "postcode": "8400-561",
      "city": "CARVOEIRO LGA",
      "lon": "-8.48028554623566",
      "lat": "37.118138739231625"
    },
    {
      "id": "pt.ine.add.PTCONT.1846229",
      "street": "URB CABECA PIAS",
      "house": "33",
      "postcode": "8400-561",
      "city": "CARVOEIRO LGA",
      "lon": "-8.479304760453113",
      "lat": "37.117727119620334"
    }
  ]
}