{
  "data": {
    "distrito": "Faro",
    "concelho": "Lagoa",
    "freguesia": "Uni√£o das freguesias de Lagoa e Carvoeiro",
    "OBJECTID": 368,
    "BGRI2021": "08060801113",
    "DT21": "08",
    "DTMN21": "0806",
    "DTMNFR21": "080608",
    "DTMNFRSEC21": "080608011",
    "SECNUM21": "011",
    "SSNUM21": "13",
    "SECSSNUM21": "01113",
    "OBJECTID_1": 66821,
    "DT": "08",
    "CC": "06",
    "fr": "08",
    "SEC": "011",
    "SS": "13"
  },
  "addresses": [
    {
      "id": "pt.ine.add.PTCONT.1469988",
      "street": "",
      "house": "",
      "postcode": "8400-428",
      "city": "LAGOA",
      "lon": "-8.45097651047185",
      "lat": "37.12401475824064"
    },
    {
      "id": "pt.ine.add.PTCONT.1475967",
      "street": "CURVA",
      "house": "",
      "postcode": "8400-428",
      "city": "LAGOA",
      "lon": "-8.45199688085968",
      "lat": "37.12583215830846"
    },
    {
      "id": "pt.ine.add.PTCONT.1475968",
      "street": "CURVA",
      "house": "",
      "postcode": "8400-428",
      "city": "LAGOA",
      "lon": "-8.45199688085968",
      "lat": "37.12583215830846"
    },
    {
      "id": "pt.ine.add.PTCONT.1479208",
      "street": "EN 124 N T",
      "house": "N T",
      "postcode": "8400-524",
      "city": "CARVOEIRO LGA",
      "lon": "-8.452434721032738",
      "lat": "37.12558769372218"
    },
    {
      "id": "pt.ine.add.PTCONT.1505186",
      "street": "",
      "house": "",
      "postcode": "8400-422",
      "city": "LAGOA",
      "lon": "-8.446768615714687",
      "lat": "37.121439923619675"
    },
    {
      "id": "pt.ine.add.PTCONT.1510813",
      "street": "ESTR CARVOEIRO",
      "house": "",
      "postcode": "8400-428",
      "city": "LAGOA",
      "lon": "-8.45312932438959",
      "lat": "37.12485596255448"
    },
    {
      "id": "pt.ine.add.PTCONT.1517984",
      "street": "QTA OLIVEIRAS",
      "house": "",
      "postcode": "8400-428",
      "city": "LAGOA",
      "lon": "-8.450669226995561",
      "lat": "37.12318660673509"
    },
    {
      "id": "pt.ine.add.PTCONT.1518895",
      "street": "QUNITA PASSARINHO C P",
      "house": "",
      "postcode": "8400-424",
      "city": "LAGOA",
      "lon": "-8.447563614365778",
      "lat": "37.12321290596197"
    },
    {
      "id": "pt.ine.add.PTCONT.1523227",
      "street": "EN 124",
      "house": "",
      "postcode": "8400-424",
      "city": "LAGOA",
      "lon": "-8.451246030480425",
      "lat": "37.12657304430929"
    },
    {
      "id": "pt.ine.add.PTCONT.1553051",
      "street": "",
      "house": "",
      "postcode": "8400-428",
      "city": "LAGOA",
      "lon": "-8.449867221633781",
      "lat": "37.12244988314115"
    },
    {
      "id": "pt.ine.add.PTCONT.1575643",
      "street": "",
      "house": "",
      "postcode": "8400-422",
      "city": "LAGOA",
      "lon": "-8.446818309618111",
      "lat": "37.12257512788411"
    },
    {
      "id": "pt.ine.add.PTCONT.1621070",
      "street": "",
      "house": "",
      "postcode": "8400-428",
      "city": "LAGOA",
      "lon": "-8.450795828550584",
      "lat": "37.12386206239645"
    },
    {
      "id": "pt.ine.add.PTCONT.1621071",
      "street": "URB VILAMAR",
      "house": "",
      "postcode": "8400-428",
      "city": "LAGOA",
      "lon": "-8.447200956729604",
      "lat": "37.12531333657726"
    },
    {
      "id": "pt.ine.add.PTCONT.1631093",
      "street": "",
      "house": "",
      "postcode": "8400-424",
      "city": "LAGOA",
      "lon": "-8.449369180676136",
      "lat": "37.12715474405094"
    },
    {
      "id": "pt.ine.add.PTCONT.1634107",
      "street": "",
      "house": "",
      "postcode": "8400-422",
      "city": "LAGOA",
      "lon": "-8.446931614762653",
      "lat": "37.12276405061561"
    },
    {
      "id": "pt.ine.add.PTCONT.1648090",
      "street": "",
      "house": "",
      "postcode": "8400-424",
      "city": "LAGOA",
      "lon": "-8.450301907472065",
      "lat": "37.12684589195436"
    },
    {
      "id": "pt.ine.add.PTCONT.1665845",
      "street": "SIT PASSARINHO",
      "house": "",
      "postcode": "8400-428",
      "city": "LAGOA",
      "lon": "-8.451463655728118",
      "lat": "37.12479737298654"
    },
    {
      "id": "pt.ine.add.PTCONT.1698876",
      "street": "",
      "house": "",
      "postcode": "8400-422",
      "city": "LAGOA",
      "lon": "-8.448751421437077",
      "lat": "37.12743571883602"
    },
    {
      "id": "pt.ine.add.PTCONT.1710189",
      "street": "",
      "house": "",
      "postcode": "8400-428",
      "city": "LAGOA",
      "lon": "-8.451673832394663",
      "lat": "37.12393179114488"
    },
    {
      "id": "pt.ine.add.PTCONT.1781713",
      "street": "",
      "house": "",
      "postcode": "8400-428",
      "city": "LAGOA",
      "lon": "-8.450911696423452",
      "lat": "37.12196952609747"
    },
    {
      "id": "pt.ine.add.PTCONT.1781714",
      "street": "",
      "house": "",
      "postcode": "8400-422",
      "city": "LAGOA",
      "lon": "-8.446932209917334",
      "lat": "37.122908218638415"
    },
    {
      "id": "pt.ine.add.PTCONT.1796793",
      "street": "",
      "house": "",
      "postcode": "8400-428",
      "city": "LAGOA",
      "lon": "-8.451768574721813",
      "lat": "37.12505786105238"
    },
    {
      "id": "pt.ine.add.PTCONT.1802237",
      "street": "QTA PASSARINHO",
      "house": "",
      "postcode": "8400-428",
      "city": "LAGOA",
      "lon": "-8.453907014833652",
      "lat": "37.1224840737073"
    },
    {
      "id": "pt.ine.add.PTCONT.1828089",
      "street": "SIT PASSARINHO",
      "house": "",
      "postcode": "8400-428",
      "city": "LAGOA",
      "lon": "-8.450007621515178",
      "lat": "37.12373802355848"
    },
    {
      "id": "pt.ine.add.PTCONT.1836622",
      "street": "QTA PASSARINHO",
      "house": "",
      "postcode": "8400-524",
      "city": "CARVOEIRO LGA",
      "lon": "-8.454048502769355",
      "lat": "37.12134835522341"
    },
    {
      "id": "pt.ine.add.PTCONT.1836623",
      "street": "SIT POCINHO",
      "house": "",
      "postcode": "8400-424",
      "city": "LAGOA",
      "lon": "-8.450706978875441",
      "lat": "37.126835796860085"
    }
  ]
}