{
  "data": {
    "distrito": "Aveiro",
    "concelho": "Sever do Vouga",
    "freguesia": "Rocas do Vouga",
    "OBJECTID": 375,
    "BGRI2021": "01170500125",
    "DT21": "01",
    "DTMN21": "0117",
    "DTMNFR21": "011705",
    "DTMNFRSEC21": "011705001",
    "SECNUM21": "001",
    "SSNUM21": "25",
    "SECSSNUM21": "00125",
    "OBJECTID_1": 11244,
    "DT": "01",
    "CC": "17",
    "fr": "05",
    "SEC": "001",
    "SS": "25"
  },
  "addresses": [
    {
      "id": "pt.ine.add.PTCONT.302220",
      "street": "SÃ‰RGIO",
      "house": "",
      "postcode": "3740-172",
      "city": "ROCAS DO VOUGA",
      "lon": "-8.360368527883303",
      "lat": "40.76230219424784"
    },
    {
      "id": "pt.ine.add.PTCONT.304754",
      "street": "CARLA",
      "house": "",
      "postcode": "3740-172",
      "city": "ROCAS DO VOUGA",
      "lon": "-8.362238437099776",
      "lat": "40.762306265568256"
    },
    {
      "id": "pt.ine.add.PTCONT.322486",
      "street": "VIRGILIO BASTOS",
      "house": "",
      "postcode": "3740-172",
      "city": "ROCAS DO VOUGA",
      "lon": "-8.358258214422577",
      "lat": "40.7620349441637"
    },
    {
      "id": "pt.ine.add.PTCONT.31304",
      "street": "MARCILIO BASTOS",
      "house": "",
      "postcode": "3740-172",
      "city": "ROCAS DO VOUGA",
      "lon": "-8.358510234290486",
      "lat": "40.763015996948404"
    },
    {
      "id": "pt.ine.add.PTCONT.97413",
      "street": "AMELIA",
      "house": "",
      "postcode": "3740-172",
      "city": "ROCAS DO VOUGA",
      "lon": "-8.361307267497748",
      "lat": "40.763604830008795"
    },
    {
      "id": "pt.ine.add.PTCONT.106567",
      "street": "ADRIANA",
      "house": "",
      "postcode": "3740-172",
      "city": "ROCAS DO VOUGA",
      "lon": "-8.358508196107334",
      "lat": "40.76241266612271"
    },
    {
      "id": "pt.ine.add.PTCONT.109512",
      "street": "BASTOS",
      "house": "",
      "postcode": "3740-172",
      "city": "ROCAS DO VOUGA",
      "lon": "-8.35852329443366",
      "lat": "40.76337617129466"
    },
    {
      "id": "pt.ine.add.PTCONT.136184",
      "street": "TANIA BASTOS",
      "house": "",
      "postcode": "3740-172",
      "city": "ROCAS DO VOUGA",
      "lon": "-8.36131994245173",
      "lat": "40.76384793981808"
    },
    {
      "id": "pt.ine.add.PTCONT.158409",
      "street": "CELESTINO MIRANDA",
      "house": "",
      "postcode": "3740-172",
      "city": "ROCAS DO VOUGA",
      "lon": "-8.358769780166561",
      "lat": "40.76271832485169"
    },
    {
      "id": "pt.ine.add.PTCONT.207749",
      "street": "SILVANA",
      "house": "",
      "postcode": "3740-172",
      "city": "ROCAS DO VOUGA",
      "lon": "-8.358199667492295",
      "lat": "40.762233168323185"
    },
    {
      "id": "pt.ine.add.PTCONT.224243",
      "street": "JOSE MACHADO",
      "house": "",
      "postcode": "3740-172",
      "city": "ROCAS DO VOUGA",
      "lon": "-8.358592589079349",
      "lat": "40.76285374613346"
    }
  ]
}