{
  "data": {
    "distrito": "Viseu",
    "concelho": "Nelas",
    "freguesia": "União das freguesias de Santar e Moreira",
    "OBJECTID": 26,
    "BGRI2021": "18091100133",
    "DT21": "18",
    "DTMN21": "1809",
    "DTMNFR21": "180911",
    "DTMNFRSEC21": "180911001",
    "SECNUM21": "001",
    "SSNUM21": "33",
    "SECSSNUM21": "00133",
    "OBJECTID_1": 193656,
    "DT": "18",
    "CC": "09",
    "fr": "11",
    "SEC": "001",
    "SS": "33"
  },
  "addresses": [
    {
      "id": "pt.ine.add.PTCONT.5457486",
      "street": "AV D DUARTE PIO DE BRAGANÇA",
      "house": "",
      "postcode": "3520-113",
      "city": "SANTAR NLS",
      "lon": "-7.894631038755746",
      "lat": "40.567235804624055"
    },
    {
      "id": "pt.ine.add.PTCONT.5460410",
      "street": "BC PADRE CRUZ",
      "house": "J",
      "postcode": "3520-145",
      "city": "SANTAR NLS",
      "lon": "-7.892469836702169",
      "lat": "40.570590299428275"
    },
    {
      "id": "pt.ine.add.PTCONT.5461872",
      "street": "AV D DUARTE PIO DE BRAGANÇA",
      "house": "",
      "postcode": "3520-113",
      "city": "SANTAR NLS",
      "lon": "-7.895553258394895",
      "lat": "40.56691351378197"
    },
    {
      "id": "pt.ine.add.PTCONT.5465328",
      "street": "AV D DUARTE PIO DE BRAGANÇA",
      "house": "",
      "postcode": "3520-113",
      "city": "SANTAR NLS",
      "lon": "-7.896164223787581",
      "lat": "40.56778828268701"
    },
    {
      "id": "pt.ine.add.PTCONT.5468651",
      "street": "AV D DUARTE PIO DE BRAGANÇA",
      "house": "",
      "postcode": "3520-113",
      "city": "SANTAR NLS",
      "lon": "-7.895207365869796",
      "lat": "40.56788537452455"
    },
    {
      "id": "pt.ine.add.PTCONT.5470151",
      "street": "R DIREITA",
      "house": "",
      "postcode": "3520-125",
      "city": "SANTAR NLS",
      "lon": "-7.892599093312178",
      "lat": "40.57077067450921"
    },
    {
      "id": "pt.ine.add.PTCONT.5484526",
      "street": "R DIREITA",
      "house": "7",
      "postcode": "3520-125",
      "city": "SANTAR NLS",
      "lon": "-7.89234054850956",
      "lat": "40.57041892942778"
    },
    {
      "id": "pt.ine.add.PTCONT.5487608",
      "street": "R OUTEIRO DE VEZ",
      "house": "",
      "postcode": "3520-125",
      "city": "SANTAR NLS",
      "lon": "-7.890997777429164",
      "lat": "40.566174627229955"
    },
    {
      "id": "pt.ine.add.PTCONT.5502659",
      "street": "R DIREITA",
      "house": "35",
      "postcode": "3520-125",
      "city": "SANTAR NLS",
      "lon": "-7.892575636027812",
      "lat": "40.57072559919409"
    },
    {
      "id": "pt.ine.add.PTCONT.5506517",
      "street": "LG TORRE",
      "house": "",
      "postcode": "3520-147",
      "city": "SANTAR NLS",
      "lon": "-7.892318834519477",
      "lat": "40.56988757168378"
    },
    {
      "id": "pt.ine.add.PTCONT.5511104",
      "street": "AV D DUARTE PIO DE BRAGANÇA",
      "house": "",
      "postcode": "3520-113",
      "city": "SANTAR NLS",
      "lon": "-7.895801365734912",
      "lat": "40.566878002482895"
    },
    {
      "id": "pt.ine.add.PTCONT.5514656",
      "street": "AV D DUARTE PIO DE BRAGANÇA",
      "house": "",
      "postcode": "3520-113",
      "city": "SANTAR NLS",
      "lon": "-7.89607305817349",
      "lat": "40.566851544346"
    },
    {
      "id": "pt.ine.add.PTCONT.5514657",
      "street": "AV D DUARTE PIO DE BRAGANÇA",
      "house": "25",
      "postcode": "3520-113",
      "city": "SANTAR NLS",
      "lon": "-7.895693911198662",
      "lat": "40.567210977867774"
    },
    {
      "id": "pt.ine.add.PTCONT.5518077",
      "street": "AV D DUARTE PIO DE BRAGANÇA",
      "house": "10",
      "postcode": "3520-113",
      "city": "SANTAR NLS",
      "lon": "-7.895784435770101",
      "lat": "40.56832782112395"
    },
    {
      "id": "pt.ine.add.PTCONT.5527016",
      "street": "AV D DUARTE PIO DE BRAGANÇA",
      "house": "",
      "postcode": "3520-113",
      "city": "SANTAR NLS",
      "lon": "-7.89289442122088",
      "lat": "40.57074427308254"
    },
    {
      "id": "pt.ine.add.PTCONT.5527017",
      "street": "R DIREITA",
      "house": "19",
      "postcode": "3520-125",
      "city": "SANTAR NLS",
      "lon": "-7.892399433123666",
      "lat": "40.57046407861484"
    },
    {
      "id": "pt.ine.add.PTCONT.5527741",
      "street": "AV D DUARTE PIO DE BRAGANÇA",
      "house": "",
      "postcode": "3520-113",
      "city": "SANTAR NLS",
      "lon": "-7.8956433664650225",
      "lat": "40.568147425247275"
    },
    {
      "id": "pt.ine.add.PTCONT.5527742",
      "street": "BC PADRE CRUZ",
      "house": "",
      "postcode": "3520-145",
      "city": "SANTAR NLS",
      "lon": "-7.892705892203944",
      "lat": "40.57062681207296"
    },
    {
      "id": "pt.ine.add.PTCONT.5533117",
      "street": "R DIREITA",
      "house": "ZS",
      "postcode": "3520-125",
      "city": "SANTAR NLS",
      "lon": "-7.892375492023246",
      "lat": "40.57055408168706"
    },
    {
      "id": "pt.ine.add.PTCONT.5536896",
      "street": "R DIREITA",
      "house": "",
      "postcode": "3520-125",
      "city": "SANTAR NLS",
      "lon": "-7.892646136913316",
      "lat": "40.57082480421135"
    },
    {
      "id": "pt.ine.add.PTCONT.5543048",
      "street": "R GAGO COUTINHO",
      "house": "",
      "postcode": "3520-142",
      "city": "SANTAR NLS",
      "lon": "-7.892693567328819",
      "lat": "40.57077087115418"
    },
    {
      "id": "pt.ine.add.PTCONT.5549359",
      "street": "AV D DUARTE PIO DE BRAGANÇA",
      "house": "11",
      "postcode": "3520-113",
      "city": "SANTAR NLS",
      "lon": "-7.895078075851145",
      "lat": "40.567714007502275"
    },
    {
      "id": "pt.ine.add.PTCONT.5559167",
      "street": "R GAGO COUTINHO",
      "house": "",
      "postcode": "3520-142",
      "city": "SANTAR NLS",
      "lon": "-7.892764390623265",
      "lat": "40.570780023815644"
    },
    {
      "id": "pt.ine.add.PTCONT.5559168",
      "street": "AV VISC DE TAVEIRO",
      "house": "48",
      "postcode": "3520-147",
      "city": "SANTAR NLS",
      "lon": "-7.890527162925029",
      "lat": "40.56569635896081"
    },
    {
      "id": "pt.ine.add.PTCONT.5562264",
      "street": "LG TORRE",
      "house": "",
      "postcode": "3520-147",
      "city": "SANTAR NLS",
      "lon": "-7.89231715607687",
      "lat": "40.57035584360068"
    },
    {
      "id": "pt.ine.add.PTCONT.5564033",
      "street": "R DIREITA",
      "house": "",
      "postcode": "3520-125",
      "city": "SANTAR NLS",
      "lon": "-7.892646749367232",
      "lat": "40.5706537048713"
    },
    {
      "id": "pt.ine.add.PTCONT.5573900",
      "street": "URB PACO",
      "house": "26",
      "postcode": "3520-128",
      "city": "SANTAR NLS",
      "lon": "-7.895575474693305",
      "lat": "40.567309792727634"
    },
    {
      "id": "pt.ine.add.PTCONT.5573901",
      "street": "URB PACO",
      "house": "26",
      "postcode": "3520-128",
      "city": "SANTAR NLS",
      "lon": "-7.895575474693305",
      "lat": "40.567309792727634"
    },
    {
      "id": "pt.ine.add.PTCONT.5579497",
      "street": "AV D DUARTE PIO DE BRAGANÇA",
      "house": "24",
      "postcode": "3520-113",
      "city": "SANTAR NLS",
      "lon": "-7.895800093436895",
      "lat": "40.56723821193294"
    },
    {
      "id": "pt.ine.add.PTCONT.5592495",
      "street": "AV D DUARTE PIO DE BRAGANÇA",
      "house": "",
      "postcode": "3520-113",
      "city": "SANTAR NLS",
      "lon": "-7.895031638763795",
      "lat": "40.56748877929798"
    },
    {
      "id": "pt.ine.add.PTCONT.5603472",
      "street": "AV D DUARTE PIO DE BRAGANÇA",
      "house": "",
      "postcode": "3520-113",
      "city": "SANTAR NLS",
      "lon": "-7.895281565506827",
      "lat": "40.56693997069485"
    },
    {
      "id": "pt.ine.add.PTCONT.5626050",
      "street": "BC PADRE CRUZ",
      "house": "",
      "postcode": "3520-145",
      "city": "SANTAR NLS",
      "lon": "-7.892552597984389",
      "lat": "40.57056345590287"
    },
    {
      "id": "pt.ine.add.PTCONT.5629849",
      "street": "R DIREITA",
      "house": "29",
      "postcode": "3520-125",
      "city": "SANTAR NLS",
      "lon": "-7.8925285280524005",
      "lat": "40.57068947991953"
    },
    {
      "id": "pt.ine.add.PTCONT.5640062",
      "street": "AV VISC DE TAVEIRO",
      "house": "",
      "postcode": "3520-147",
      "city": "SANTAR NLS",
      "lon": "-7.890181725084905",
      "lat": "40.5665241209373"
    },
    {
      "id": "pt.ine.add.PTCONT.5644930",
      "street": "AV D DUARTE PIO DE BRAGANÇA",
      "house": "",
      "postcode": "3520-113",
      "city": "SANTAR NLS",
      "lon": "-7.896283422118201",
      "lat": "40.567473341573766"
    },
    {
      "id": "pt.ine.add.PTCONT.5646944",
      "street": "R OUTEIRO DE VEZ",
      "house": "4",
      "postcode": "3520-147",
      "city": "SANTAR NLS",
      "lon": "-7.890963585378258",
      "lat": "40.565832354064945"
    },
    {
      "id": "pt.ine.add.PTCONT.5653728",
      "street": "LG TORRE",
      "house": "",
      "postcode": "3520-147",
      "city": "SANTAR NLS",
      "lon": "-7.892270113068028",
      "lat": "40.5703017137619"
    },
    {
      "id": "pt.ine.add.PTCONT.5661649",
      "street": "R DIREITA",
      "house": "",
      "postcode": "3520-125",
      "city": "SANTAR NLS",
      "lon": "-7.8925876387254945",
      "lat": "40.570671592410605"
    },
    {
      "id": "pt.ine.add.PTCONT.5663077",
      "street": "AV D DUARTE PIO DE BRAGANÇA",
      "house": "4",
      "postcode": "3520-113",
      "city": "SANTAR NLS",
      "lon": "-7.896331323292165",
      "lat": "40.56728432843496"
    },
    {
      "id": "pt.ine.add.PTCONT.5666858",
      "street": "R DIREITA",
      "house": "13",
      "postcode": "3520-125",
      "city": "SANTAR NLS",
      "lon": "-7.892363844169871",
      "lat": "40.57050903093546"
    }
  ]
}