{
  "data": {
    "distrito": "Aveiro",
    "concelho": "Ovar",
    "freguesia": "Esmoriz",
    "OBJECTID": 550,
    "BGRI2021": "01150300818",
    "DT21": "01",
    "DTMN21": "0115",
    "DTMNFR21": "011503",
    "DTMNFRSEC21": "011503008",
    "SECNUM21": "008",
    "SSNUM21": "18",
    "SECSSNUM21": "00818",
    "OBJECTID_1": 10212,
    "DT": "01",
    "CC": "15",
    "fr": "03",
    "SEC": "008",
    "SS": "18"
  },
  "addresses": [
    {
      "id": "pt.ine.add.PTCONT.344107",
      "street": "R GASPAR CORTE REAL",
      "house": "267",
      "postcode": "3885-580",
      "city": "ESMORIZ",
      "lon": "-8.64553840399862",
      "lat": "40.95928562280995"
    },
    {
      "id": "pt.ine.add.PTCONT.44788",
      "street": "R MIMOSAS",
      "house": "98",
      "postcode": "3885-489",
      "city": "ESMORIZ",
      "lon": "-8.64671514870834",
      "lat": "40.959388442510146"
    },
    {
      "id": "pt.ine.add.PTCONT.57054",
      "street": "R GASPAR CORTE REAL",
      "house": "301",
      "postcode": "3885-580",
      "city": "ESMORIZ",
      "lon": "-8.645647812187407",
      "lat": "40.95960930381791"
    },
    {
      "id": "pt.ine.add.PTCONT.74264",
      "street": "R JUNCAL",
      "house": "71",
      "postcode": "3885-534",
      "city": "ESMORIZ",
      "lon": "-8.64629628495927",
      "lat": "40.95898509850411"
    },
    {
      "id": "pt.ine.add.PTCONT.79705",
      "street": "R MIMOSAS",
      "house": "74",
      "postcode": "3885-489",
      "city": "ESMORIZ",
      "lon": "-8.646713752742125",
      "lat": "40.95920835576894"
    },
    {
      "id": "pt.ine.add.PTCONT.104152",
      "street": "R RATINHOS",
      "house": "94",
      "postcode": "3885-566",
      "city": "ESMORIZ",
      "lon": "-8.6462702280472",
      "lat": "40.95868806107242"
    },
    {
      "id": "pt.ine.add.PTCONT.126271",
      "street": "R JUNCAL",
      "house": "39",
      "postcode": "3885-534",
      "city": "ESMORIZ",
      "lon": "-8.646240103713652",
      "lat": "40.95939956237789"
    },
    {
      "id": "pt.ine.add.PTCONT.157939",
      "street": "R RATINHOS",
      "house": "36",
      "postcode": "3885-566",
      "city": "ESMORIZ",
      "lon": "-8.645640568329261",
      "lat": "40.958672852580946"
    },
    {
      "id": "pt.ine.add.PTCONT.180337",
      "street": "R GASPAR CORTE REAL",
      "house": "",
      "postcode": "3885-580",
      "city": "ESMORIZ",
      "lon": "-8.645622941958743",
      "lat": "40.95946534000987"
    },
    {
      "id": "pt.ine.add.PTCONT.181833",
      "street": "R MIMOSAS",
      "house": "71",
      "postcode": "3885-489",
      "city": "ESMORIZ",
      "lon": "-8.646673861912541",
      "lat": "40.95865924990174"
    },
    {
      "id": "pt.ine.add.PTCONT.204565",
      "street": "R JUNCAL",
      "house": "20",
      "postcode": "3885-534",
      "city": "ESMORIZ",
      "lon": "-8.64608262404841",
      "lat": "40.95900405862744"
    },
    {
      "id": "pt.ine.add.PTCONT.229315",
      "street": "R FRANCISCANOS",
      "house": "13",
      "postcode": "3885-559",
      "city": "ESMORIZ",
      "lon": "-8.645803827539655",
      "lat": "40.95981571704255"
    }
  ]
}