{
  "data": {
    "distrito": "Viseu",
    "concelho": "Mangualde",
    "freguesia": "Quintela de Azurara",
    "OBJECTID": 401,
    "BGRI2021": "18061400135",
    "DT21": "18",
    "DTMN21": "1806",
    "DTMNFR21": "180614",
    "DTMNFRSEC21": "180614001",
    "SECNUM21": "001",
    "SSNUM21": "35",
    "SECSSNUM21": "00135",
    "OBJECTID_1": 191914,
    "DT": "18",
    "CC": "06",
    "fr": "14",
    "SEC": "001",
    "SS": "35"
  },
  "addresses": [
    {
      "id": "pt.ine.add.PTCONT.5432770",
      "street": "R S VICENTE",
      "house": "19",
      "postcode": "3530-334",
      "city": "QUINTELA DE AZURARA",
      "lon": "-7.7050151477930235",
      "lat": "40.62705982609199"
    },
    {
      "id": "pt.ine.add.PTCONT.5438239",
      "street": "TV S VICENTE",
      "house": "9",
      "postcode": "3530-334",
      "city": "QUINTELA DE AZURARA",
      "lon": "-7.705298917164249",
      "lat": "40.627042867252655"
    },
    {
      "id": "pt.ine.add.PTCONT.5442276",
      "street": "QTA AVELEIRA",
      "house": "",
      "postcode": "3530-334",
      "city": "QUINTELA DE AZURARA",
      "lon": "-7.702001499981342",
      "lat": "40.62885865683131"
    },
    {
      "id": "pt.ine.add.PTCONT.5450613",
      "street": "TV S VICENTE",
      "house": "11",
      "postcode": "3530-334",
      "city": "QUINTELA DE AZURARA",
      "lon": "-7.705373078386859",
      "lat": "40.627034283549484"
    },
    {
      "id": "pt.ine.add.PTCONT.5453284",
      "street": "R CHANDEIRA",
      "house": "1",
      "postcode": "3530-332",
      "city": "QUINTELA DE AZURARA",
      "lon": "-7.706308885344295",
      "lat": "40.631774322335886"
    },
    {
      "id": "pt.ine.add.PTCONT.5481361",
      "street": "R IGREJA",
      "house": "20",
      "postcode": "3530-334",
      "city": "QUINTELA DE AZURARA",
      "lon": "-7.705223865527289",
      "lat": "40.627690962215745"
    },
    {
      "id": "pt.ine.add.PTCONT.5481958",
      "street": "R S VICENTE",
      "house": "37",
      "postcode": "3530-334",
      "city": "QUINTELA DE AZURARA",
      "lon": "-7.6996592516734745",
      "lat": "40.62733701968672"
    },
    {
      "id": "pt.ine.add.PTCONT.5483950",
      "street": "R IGREJA",
      "house": "2",
      "postcode": "3530-334",
      "city": "QUINTELA DE AZURARA",
      "lon": "-7.705333049160105",
      "lat": "40.627162639220366"
    },
    {
      "id": "pt.ine.add.PTCONT.5488476",
      "street": "BC S VICENTE",
      "house": "10",
      "postcode": "3530-334",
      "city": "QUINTELA DE AZURARA",
      "lon": "-7.7047068772788885",
      "lat": "40.627211771063365"
    },
    {
      "id": "pt.ine.add.PTCONT.5512239",
      "street": "R POMBALINHO",
      "house": "4",
      "postcode": "3530-332",
      "city": "QUINTELA DE AZURARA",
      "lon": "-7.706233608380402",
      "lat": "40.63245843729028"
    },
    {
      "id": "pt.ine.add.PTCONT.5512240",
      "street": "R S VICENTE",
      "house": "29",
      "postcode": "3530-334",
      "city": "QUINTELA DE AZURARA",
      "lon": "-7.702563713247059",
      "lat": "40.62781615343841"
    },
    {
      "id": "pt.ine.add.PTCONT.5514325",
      "street": "TV S VICENTE",
      "house": "4",
      "postcode": "3530-334",
      "city": "QUINTELA DE AZURARA",
      "lon": "-7.705014285282463",
      "lat": "40.62719490060885"
    },
    {
      "id": "pt.ine.add.PTCONT.5515873",
      "street": "BC ANTÓNIO GOUVEIA",
      "house": "1",
      "postcode": "3530-332",
      "city": "QUINTELA DE AZURARA",
      "lon": "-7.7061671628388595",
      "lat": "40.63175578814118"
    },
    {
      "id": "pt.ine.add.PTCONT.5518832",
      "street": "R FONTE",
      "house": "2",
      "postcode": "3530-332",
      "city": "QUINTELA DE AZURARA",
      "lon": "-7.707004992367384",
      "lat": "40.63197500664702"
    },
    {
      "id": "pt.ine.add.PTCONT.5536719",
      "street": "R TRAVESSA DE S VICENTE",
      "house": "10",
      "postcode": "3530-334",
      "city": "QUINTELA DE AZURARA",
      "lon": "-7.7051917420980525",
      "lat": "40.6271685427256"
    },
    {
      "id": "pt.ine.add.PTCONT.5547762",
      "street": "R IGREJA",
      "house": "12",
      "postcode": "3530-334",
      "city": "QUINTELA DE AZURARA",
      "lon": "-7.705309357030642",
      "lat": "40.627259030267666"
    },
    {
      "id": "pt.ine.add.PTCONT.5565873",
      "street": "BC S VICENTE",
      "house": "14",
      "postcode": "3530-334",
      "city": "QUINTELA DE AZURARA",
      "lon": "-7.7046593136908434",
      "lat": "40.627256620522054"
    },
    {
      "id": "pt.ine.add.PTCONT.5573282",
      "street": "R ANTÓNIO RODRIGUES ALBUQUERQUE",
      "house": "1",
      "postcode": "3530-332",
      "city": "QUINTELA DE AZURARA",
      "lon": "-7.706118335007119",
      "lat": "40.63199874731041"
    },
    {
      "id": "pt.ine.add.PTCONT.5580665",
      "street": "R POMBALINHO",
      "house": "2",
      "postcode": "3530-332",
      "city": "QUINTELA DE AZURARA",
      "lon": "-7.706247836785736",
      "lat": "40.632080272609784"
    },
    {
      "id": "pt.ine.add.PTCONT.5584230",
      "street": "R S VICENTE",
      "house": "9",
      "postcode": "3530-334",
      "city": "QUINTELA DE AZURARA",
      "lon": "-7.705204365705834",
      "lat": "40.62704251696457"
    },
    {
      "id": "pt.ine.add.PTCONT.5587695",
      "street": "R S VICENTE",
      "house": "13",
      "postcode": "3530-334",
      "city": "QUINTELA DE AZURARA",
      "lon": "-7.705097880338359",
      "lat": "40.62706013273396"
    },
    {
      "id": "pt.ine.add.PTCONT.5602792",
      "street": "R CHANDEIRA",
      "house": "7",
      "postcode": "3530-332",
      "city": "QUINTELA DE AZURARA",
      "lon": "-7.704769553624407",
      "lat": "40.63220087153159"
    },
    {
      "id": "pt.ine.add.PTCONT.5602793",
      "street": "R CHANDEIRA",
      "house": "7",
      "postcode": "3530-332",
      "city": "QUINTELA DE AZURARA",
      "lon": "-7.704769553624407",
      "lat": "40.63220087153159"
    },
    {
      "id": "pt.ine.add.PTCONT.5617786",
      "street": "R ANTÓNIO RODRIGUES ALBUQUERQUE",
      "house": "3",
      "postcode": "3530-332",
      "city": "QUINTELA DE AZURARA",
      "lon": "-7.705543070342181",
      "lat": "40.631384267109105"
    },
    {
      "id": "pt.ine.add.PTCONT.5619533",
      "street": "TV S VICENTE",
      "house": "7",
      "postcode": "3530-334",
      "city": "QUINTELA DE AZURARA",
      "lon": "-7.705085543983317",
      "lat": "40.627141133642844"
    },
    {
      "id": "pt.ine.add.PTCONT.5628971",
      "street": "BC S VICENTE",
      "house": "3",
      "postcode": "3530-334",
      "city": "QUINTELA DE AZURARA",
      "lon": "-7.7048491650005255",
      "lat": "40.62714025733902"
    },
    {
      "id": "pt.ine.add.PTCONT.5634174",
      "street": "",
      "house": "",
      "postcode": "3530-334",
      "city": "QUINTELA DE AZURARA",
      "lon": "-7.703567352980988",
      "lat": "40.627972978722646"
    },
    {
      "id": "pt.ine.add.PTCONT.5636434",
      "street": "BC S VICENTE",
      "house": "4",
      "postcode": "3530-334",
      "city": "QUINTELA DE AZURARA",
      "lon": "-7.704754613410319",
      "lat": "40.62713990668204"
    },
    {
      "id": "pt.ine.add.PTCONT.5662058",
      "street": "BC S VICENTE",
      "house": "I8",
      "postcode": "3530-334",
      "city": "QUINTELA DE AZURARA",
      "lon": "-7.70458776673464",
      "lat": "40.627355412056495"
    },
    {
      "id": "pt.ine.add.PTCONT.5663951",
      "street": "R IGREJA",
      "house": "22",
      "postcode": "3530-334",
      "city": "QUINTELA DE AZURARA",
      "lon": "-7.704951854932766",
      "lat": "40.62771696963948"
    }
  ]
}