{
  "data": {
    "distrito": "Beja",
    "concelho": "Alvito",
    "freguesia": "Vila Nova da Baronia",
    "OBJECTID": 61,
    "BGRI2021": "02030200132",
    "DT21": "02",
    "DTMN21": "0203",
    "DTMNFR21": "020302",
    "DTMNFRSEC21": "020302001",
    "SECNUM21": "001",
    "SSNUM21": "32",
    "SECSSNUM21": "00132",
    "OBJECTID_1": 13219,
    "DT": "02",
    "CC": "03",
    "fr": "02",
    "SEC": "001",
    "SS": "32"
  },
  "addresses": [
    {
      "id": "pt.ine.add.PTCONT.458422",
      "street": "HORTA VALE MARIANAS",
      "house": "",
      "postcode": "7920-301",
      "city": "VILA NOVA DA BARONIA",
      "lon": "-8.043423809441549",
      "lat": "38.28156481564526"
    },
    {
      "id": "pt.ine.add.PTCONT.356381",
      "street": "HORTA DOS POÇOS",
      "house": "",
      "postcode": "7920-301",
      "city": "VILA NOVA DA BARONIA",
      "lon": "-8.043271561379076",
      "lat": "38.275267503062146"
    },
    {
      "id": "pt.ine.add.PTCONT.358030",
      "street": "MTE VALE MARIANAS",
      "house": "",
      "postcode": "7920-301",
      "city": "VILA NOVA DA BARONIA",
      "lon": "-8.042544023476877",
      "lat": "38.28135693608417"
    },
    {
      "id": "pt.ine.add.PTCONT.365279",
      "street": "HORTA DO SOBRAL",
      "house": "",
      "postcode": "7920-301",
      "city": "VILA NOVA DA BARONIA",
      "lon": "-8.041869807936928",
      "lat": "38.28127533399597"
    },
    {
      "id": "pt.ine.add.PTCONT.365874",
      "street": "SIT DO PORTO DE BEJA",
      "house": "",
      "postcode": "7920-998",
      "city": "VILA NOVA DA BARONIA",
      "lon": "-8.039458814180716",
      "lat": "38.28085001795481"
    },
    {
      "id": "pt.ine.add.PTCONT.375123",
      "street": "ETAR CÂMARA MUNICIPAL DE ALVITO",
      "house": "",
      "postcode": "7920-301",
      "city": "VILA NOVA DA BARONIA",
      "lon": "-8.041532105739138",
      "lat": "38.28625696822231"
    },
    {
      "id": "pt.ine.add.PTCONT.375124",
      "street": "HORTA DOS POÇOS",
      "house": "",
      "postcode": "7920-301",
      "city": "VILA NOVA DA BARONIA",
      "lon": "-8.045121899506361",
      "lat": "38.27611573881084"
    },
    {
      "id": "pt.ine.add.PTCONT.384794",
      "street": "QTA DOMICILIAS",
      "house": "",
      "postcode": "7920-301",
      "city": "VILA NOVA DA BARONIA",
      "lon": "-8.03993966206584",
      "lat": "38.28020176279119"
    },
    {
      "id": "pt.ine.add.PTCONT.392719",
      "street": "HRD HERDADE DO OLIVALAO",
      "house": "",
      "postcode": "7920-301",
      "city": "VILA NOVA DA BARONIA",
      "lon": "-8.04308415050124",
      "lat": "38.27896099458132"
    },
    {
      "id": "pt.ine.add.PTCONT.399672",
      "street": "MTE SOBRAL",
      "house": "",
      "postcode": "7920-301",
      "city": "VILA NOVA DA BARONIA",
      "lon": "-8.039573786361466",
      "lat": "38.28031858688535"
    },
    {
      "id": "pt.ine.add.PTCONT.404691",
      "street": "MTE GUARDA SOBRAL",
      "house": "",
      "postcode": "7920-301",
      "city": "VILA NOVA DA BARONIA",
      "lon": "-8.04183078024611",
      "lat": "38.27593304736381"
    },
    {
      "id": "pt.ine.add.PTCONT.413779",
      "street": "MTE VALE MARIANAS",
      "house": "",
      "postcode": "7920-301",
      "city": "VILA NOVA DA BARONIA",
      "lon": "-8.04363868527433",
      "lat": "38.283420804442514"
    },
    {
      "id": "pt.ine.add.PTCONT.417033",
      "street": "MTE FREIXO DA CRUZ",
      "house": "",
      "postcode": "7920-301",
      "city": "VILA NOVA DA BARONIA",
      "lon": "-8.03893611651851",
      "lat": "38.27849828659174"
    },
    {
      "id": "pt.ine.add.PTCONT.421030",
      "street": "MTE SENHORA DA OLIVEIRA",
      "house": "",
      "postcode": "7920-301",
      "city": "VILA NOVA DA BARONIA",
      "lon": "-8.041238585389028",
      "lat": "38.2833558876699"
    },
    {
      "id": "pt.ine.add.PTCONT.425027",
      "street": "MTE ANJOS",
      "house": "",
      "postcode": "7920-301",
      "city": "VILA NOVA DA BARONIA",
      "lon": "-8.040440324391563",
      "lat": "38.28194086926247"
    },
    {
      "id": "pt.ine.add.PTCONT.429011",
      "street": "HORTA VALE MARIANAS",
      "house": "",
      "postcode": "7920-301",
      "city": "VILA NOVA DA BARONIA",
      "lon": "-8.045170576190527",
      "lat": "38.28313367918605"
    },
    {
      "id": "pt.ine.add.PTCONT.433083",
      "street": "HORTA DA FÁBRICA B",
      "house": "",
      "postcode": "7920-301",
      "city": "VILA NOVA DA BARONIA",
      "lon": "-8.046957477788622",
      "lat": "38.27981974448499"
    },
    {
      "id": "pt.ine.add.PTCONT.441430",
      "street": "HORTA DA FÁBRICA A",
      "house": "",
      "postcode": "7920-301",
      "city": "VILA NOVA DA BARONIA",
      "lon": "-8.046844201846975",
      "lat": "38.27896381927683"
    },
    {
      "id": "pt.ine.add.PTCONT.447046",
      "street": "MTE CANADA REAL",
      "house": "",
      "postcode": "7920-301",
      "city": "VILA NOVA DA BARONIA",
      "lon": "-8.047092381319013",
      "lat": "38.281720713098245"
    },
    {
      "id": "pt.ine.add.PTCONT.453702",
      "street": "MTE GUARDA DO SOBRAL",
      "house": "",
      "postcode": "7920-301",
      "city": "VILA NOVA DA BARONIA",
      "lon": "-8.039494512594528",
      "lat": "38.27975096538589"
    }
  ]
}