{
  "data": {
    "distrito": "Faro",
    "concelho": "Loulé",
    "freguesia": "Almancil",
    "OBJECTID": 1371,
    "BGRI2021": "08080101220",
    "DT21": "08",
    "DTMN21": "0808",
    "DTMNFR21": "080801",
    "DTMNFRSEC21": "080801012",
    "SECNUM21": "012",
    "SSNUM21": "20",
    "SECSSNUM21": "01220",
    "OBJECTID_1": 68464,
    "DT": "08",
    "CC": "08",
    "fr": "01",
    "SEC": "012",
    "SS": "20"
  },
  "addresses": [
    {
      "id": "pt.ine.add.PTCONT.1493601",
      "street": "SIT TROTO",
      "house": "CX 1117",
      "postcode": "8135-011",
      "city": "ALMANCIL",
      "lon": "-7.9955408708788855",
      "lat": "37.08169560381129"
    },
    {
      "id": "pt.ine.add.PTCONT.1494888",
      "street": "SIT TROTO GUERREIRO",
      "house": "",
      "postcode": "8135-011",
      "city": "ALMANCIL",
      "lon": "-7.9955408708788855",
      "lat": "37.08169560381129"
    },
    {
      "id": "pt.ine.add.PTCONT.1495221",
      "street": "SIT TROTO GUERREIRO",
      "house": "",
      "postcode": "8135-011",
      "city": "ALMANCIL",
      "lon": "-7.9955408708788855",
      "lat": "37.08169560381129"
    },
    {
      "id": "pt.ine.add.PTCONT.1496408",
      "street": "SIT TROTO CXP",
      "house": "CXP 129T",
      "postcode": "8135-011",
      "city": "ALMANCIL",
      "lon": "-7.992751574744944",
      "lat": "37.081782442650265"
    },
    {
      "id": "pt.ine.add.PTCONT.1498322",
      "street": "R JOAQUIM ISIDORO CONCEIÇÃO CAFÉ BARREIRO",
      "house": "",
      "postcode": "8135-017",
      "city": "ALMANCIL",
      "lon": "-7.99514481066481",
      "lat": "37.08303773678154"
    },
    {
      "id": "pt.ine.add.PTCONT.1498323",
      "street": "R JOAQUIM ISIDORO CONCEIÇÃO CAFÉ BARREIRO",
      "house": "",
      "postcode": "8135-017",
      "city": "ALMANCIL",
      "lon": "-7.99514481066481",
      "lat": "37.08303773678154"
    },
    {
      "id": "pt.ine.add.PTCONT.1498324",
      "street": "R JOAQUIM ISIDORO CONCEIÇÃO CAFÉ BARREIRO",
      "house": "",
      "postcode": "8135-017",
      "city": "ALMANCIL",
      "lon": "-7.99514481066481",
      "lat": "37.08303773678154"
    },
    {
      "id": "pt.ine.add.PTCONT.1498325",
      "street": "R JOAQUIM ISIDORO CONCEIÇÃO CAFÉ BARREIRO",
      "house": "",
      "postcode": "8135-017",
      "city": "ALMANCIL",
      "lon": "-7.99514481066481",
      "lat": "37.08303773678154"
    },
    {
      "id": "pt.ine.add.PTCONT.1498329",
      "street": "R JOAQUIM ISIDORO CONCEIÇÃO CAFÉ BARREIRO",
      "house": "",
      "postcode": "8135-017",
      "city": "ALMANCIL",
      "lon": "-7.99514481066481",
      "lat": "37.08303773678154"
    },
    {
      "id": "pt.ine.add.PTCONT.1545599",
      "street": "R JOAQUIM ISIDORO CONCEIÇÃO",
      "house": "",
      "postcode": "8135-017",
      "city": "ALMANCIL",
      "lon": "-7.994537538565174",
      "lat": "37.08300999674843"
    },
    {
      "id": "pt.ine.add.PTCONT.1576467",
      "street": "R JOAQUIM ISIDORO CONCEIÇÃO",
      "house": "",
      "postcode": "8135-017",
      "city": "ALMANCIL",
      "lon": "-7.993086964644862",
      "lat": "37.082873132720586"
    },
    {
      "id": "pt.ine.add.PTCONT.1592377",
      "street": "SIT TROTO",
      "house": "",
      "postcode": "8135-011",
      "city": "ALMANCIL",
      "lon": "-7.99339226171848",
      "lat": "37.08198143433888"
    },
    {
      "id": "pt.ine.add.PTCONT.1626723",
      "street": "SIT TROTO",
      "house": "",
      "postcode": "8135-011",
      "city": "ALMANCIL",
      "lon": "-7.995787594872316",
      "lat": "37.08208334949224"
    },
    {
      "id": "pt.ine.add.PTCONT.1626724",
      "street": "SIT TROTO",
      "house": "",
      "postcode": "8135-011",
      "city": "ALMANCIL",
      "lon": "-7.995787594872316",
      "lat": "37.08208334949224"
    },
    {
      "id": "pt.ine.add.PTCONT.1647741",
      "street": "SIT TROTO",
      "house": "1120",
      "postcode": "8135-011",
      "city": "ALMANCIL",
      "lon": "-7.995416475012654",
      "lat": "37.082073908531086"
    },
    {
      "id": "pt.ine.add.PTCONT.1653674",
      "street": "SIT TROTO",
      "house": "",
      "postcode": "8135-011",
      "city": "ALMANCIL",
      "lon": "-7.995889772005577",
      "lat": "37.08155183690411"
    },
    {
      "id": "pt.ine.add.PTCONT.1670742",
      "street": "SIT TROTO",
      "house": "1121",
      "postcode": "8135-011",
      "city": "ALMANCIL",
      "lon": "-7.995910024109962",
      "lat": "37.0827953357978"
    },
    {
      "id": "pt.ine.add.PTCONT.1673551",
      "street": "SIT TROTO CASA MARTINS",
      "house": "3733",
      "postcode": "8135-011",
      "city": "ALMANCIL",
      "lon": "-7.995248543646156",
      "lat": "37.08165021092062"
    },
    {
      "id": "pt.ine.add.PTCONT.1704467",
      "street": "R JOAQUIM ISIDORO CONCEIÇÃO",
      "house": "",
      "postcode": "8135-017",
      "city": "ALMANCIL",
      "lon": "-7.995011141617633",
      "lat": "37.08232573663445"
    },
    {
      "id": "pt.ine.add.PTCONT.1727598",
      "street": "SIT TROTO",
      "house": "3523",
      "postcode": "8135-011",
      "city": "ALMANCIL",
      "lon": "-7.996035878802989",
      "lat": "37.08160607000835"
    },
    {
      "id": "pt.ine.add.PTCONT.1775648",
      "street": "SIT TROTO CASA CAMPO DO SUL",
      "house": "3523",
      "postcode": "8135-011",
      "city": "ALMANCIL",
      "lon": "-7.995945355020097",
      "lat": "37.08191232889576"
    },
    {
      "id": "pt.ine.add.PTCONT.1777321",
      "street": "SIT TROTO",
      "house": "",
      "postcode": "8135-030",
      "city": "ALMANCIL",
      "lon": "-7.995516635445452",
      "lat": "37.08265971971311"
    },
    {
      "id": "pt.ine.add.PTCONT.1777876",
      "street": "SIT TROTO",
      "house": "",
      "postcode": "8135-030",
      "city": "ALMANCIL",
      "lon": "-7.995516635445452",
      "lat": "37.08265971971311"
    },
    {
      "id": "pt.ine.add.PTCONT.1777929",
      "street": "SIT TROTO",
      "house": "",
      "postcode": "8135-030",
      "city": "ALMANCIL",
      "lon": "-7.995516635445452",
      "lat": "37.08265971971311"
    },
    {
      "id": "pt.ine.add.PTCONT.1793563",
      "street": "SIT TROTO",
      "house": "",
      "postcode": "8135-011",
      "city": "ALMANCIL",
      "lon": "-7.994786570068799",
      "lat": "37.08212723972372"
    },
    {
      "id": "pt.ine.add.PTCONT.1802361",
      "street": "R JOAQUIM ISIDORO CONCEIÇÃO",
      "house": "",
      "postcode": "8135-017",
      "city": "ALMANCIL",
      "lon": "-7.994413775765927",
      "lat": "37.083036884154495"
    },
    {
      "id": "pt.ine.add.PTCONT.1822387",
      "street": "SIT TROTO",
      "house": "1112",
      "postcode": "8135-011",
      "city": "ALMANCIL",
      "lon": "-7.996258913392374",
      "lat": "37.08266057851256"
    },
    {
      "id": "pt.ine.add.PTCONT.1824259",
      "street": "SIT TROTO",
      "house": "1112",
      "postcode": "8135-011",
      "city": "ALMANCIL",
      "lon": "-7.996258913392374",
      "lat": "37.08266057851256"
    }
  ]
}