{
  "data": {
    "distrito": "Leiria",
    "concelho": "Marinha Grande",
    "freguesia": "Marinha Grande",
    "OBJECTID": 435,
    "BGRI2021": "10100102202",
    "DT21": "10",
    "DTMN21": "1010",
    "DTMNFR21": "101001",
    "DTMNFRSEC21": "101001022",
    "SECNUM21": "022",
    "SSNUM21": "02",
    "SECSSNUM21": "02202",
    "OBJECTID_1": 92344,
    "DT": "10",
    "CC": "10",
    "fr": "01",
    "SEC": "022",
    "SS": "02"
  },
  "addresses": [
    {
      "id": "pt.ine.add.PTCONT.1987404",
      "street": "AV 1 DE MAIO",
      "house": "159",
      "postcode": "2430-210",
      "city": "MARINHA GRANDE",
      "lon": "-8.927146117721616",
      "lat": "39.74286475408016"
    },
    {
      "id": "pt.ine.add.PTCONT.1993682",
      "street": "AV 1 DE MAIO",
      "house": "129",
      "postcode": "2430-210",
      "city": "MARINHA GRANDE",
      "lon": "-8.927775802984455",
      "lat": "39.74486888064699"
    },
    {
      "id": "pt.ine.add.PTCONT.2000821",
      "street": "BR MARIANO",
      "house": "11",
      "postcode": "2430-217",
      "city": "MARINHA GRANDE",
      "lon": "-8.927744839676242",
      "lat": "39.74522034362789"
    },
    {
      "id": "pt.ine.add.PTCONT.2002952",
      "street": "R BAIRRO MARIANO",
      "house": "49",
      "postcode": "2430-223",
      "city": "MARINHA GRANDE",
      "lon": "-8.92542186604178",
      "lat": "39.74307467775104"
    },
    {
      "id": "pt.ine.add.PTCONT.2002955",
      "street": "AV 1 DE MAIO",
      "house": "161",
      "postcode": "2430-210",
      "city": "MARINHA GRANDE",
      "lon": "-8.927075193414415",
      "lat": "39.742784181260205"
    },
    {
      "id": "pt.ine.add.PTCONT.2031379",
      "street": "R HELDER LUCIANO ROLDÃO",
      "house": "12",
      "postcode": "2430-226",
      "city": "MARINHA GRANDE",
      "lon": "-8.924864591407555",
      "lat": "39.7433126476354"
    },
    {
      "id": "pt.ine.add.PTCONT.2055640",
      "street": "BR MARIANO",
      "house": "1",
      "postcode": "2430-217",
      "city": "MARINHA GRANDE",
      "lon": "-8.928082431295389",
      "lat": "39.745154987005165"
    },
    {
      "id": "pt.ine.add.PTCONT.2057890",
      "street": "AV 1 MAIO",
      "house": "163",
      "postcode": "2430-210",
      "city": "MARINHA GRANDE",
      "lon": "-8.927085722110245",
      "lat": "39.74268503840525"
    },
    {
      "id": "pt.ine.add.PTCONT.2069605",
      "street": "AV 1 MAIO",
      "house": "123",
      "postcode": "2430-210",
      "city": "MARINHA GRANDE",
      "lon": "-8.927819466591346",
      "lat": "39.744607395055546"
    },
    {
      "id": "pt.ine.add.PTCONT.2079307",
      "street": "AV 1 DE MAIO",
      "house": "127",
      "postcode": "2430-210",
      "city": "MARINHA GRANDE",
      "lon": "-8.92791558819926",
      "lat": "39.744849910714755"
    },
    {
      "id": "pt.ine.add.PTCONT.2090452",
      "street": "LG CASAL DOS OSSOS",
      "house": "55",
      "postcode": "2430-223",
      "city": "MARINHA GRANDE",
      "lon": "-8.925014596795252",
      "lat": "39.74316752132843"
    },
    {
      "id": "pt.ine.add.PTCONT.2095000",
      "street": "AV 1 MAIO",
      "house": "125",
      "postcode": "2430-210",
      "city": "MARINHA GRANDE",
      "lon": "-8.927879038092843",
      "lat": "39.74471506442944"
    },
    {
      "id": "pt.ine.add.PTCONT.2102191",
      "street": "AV ENG ARALA PINT",
      "house": "45",
      "postcode": "2430-223",
      "city": "MARINHA GRANDE",
      "lon": "-8.925701120997648",
      "lat": "39.74300972622955"
    },
    {
      "id": "pt.ine.add.PTCONT.2110369",
      "street": "AV 1 DE MAIO",
      "house": "117",
      "postcode": "2430-210",
      "city": "MARINHA GRANDE",
      "lon": "-8.928105142405089",
      "lat": "39.74510079284634"
    },
    {
      "id": "pt.ine.add.PTCONT.2112208",
      "street": "R ENG ARALA PINTO",
      "house": "53",
      "postcode": "2430-223",
      "city": "MARINHA GRANDE",
      "lon": "-8.925142610551337",
      "lat": "39.74313962860515"
    },
    {
      "id": "pt.ine.add.PTCONT.2121829",
      "street": "BR MARIANO",
      "house": "21",
      "postcode": "2430-217",
      "city": "MARINHA GRANDE",
      "lon": "-8.927477761022422",
      "lat": "39.745330248915565"
    },
    {
      "id": "pt.ine.add.PTCONT.2127678",
      "street": "BR MARIANO",
      "house": "7",
      "postcode": "2430-217",
      "city": "MARINHA GRANDE",
      "lon": "-8.927896188203581",
      "lat": "39.745192288121515"
    },
    {
      "id": "pt.ine.add.PTCONT.2130674",
      "street": "R ENG ARALA PINTO",
      "house": "51",
      "postcode": "2430-223",
      "city": "MARINHA GRANDE",
      "lon": "-8.925317183969955",
      "lat": "39.74310241155062"
    },
    {
      "id": "pt.ine.add.PTCONT.2134248",
      "street": "AV ARALA PINTO",
      "house": "47",
      "postcode": "2430-069",
      "city": "MARINHA GRANDE",
      "lon": "-8.925596439139833",
      "lat": "39.7430374602792"
    },
    {
      "id": "pt.ine.add.PTCONT.2145785",
      "street": "R HELDER LUCIANO ROLDÃO",
      "house": "14",
      "postcode": "2430-226",
      "city": "MARINHA GRANDE",
      "lon": "-8.924840641464101",
      "lat": "39.74325877235299"
    },
    {
      "id": "pt.ine.add.PTCONT.2151656",
      "street": "BR MARIANO",
      "house": "19",
      "postcode": "2430-217",
      "city": "MARINHA GRANDE",
      "lon": "-8.927512242172387",
      "lat": "39.74528498075983"
    },
    {
      "id": "pt.ine.add.PTCONT.2154060",
      "street": "BR MARIANO",
      "house": "17",
      "postcode": "2430-217",
      "city": "MARINHA GRANDE",
      "lon": "-8.927582445552211",
      "lat": "39.745302513153106"
    },
    {
      "id": "pt.ine.add.PTCONT.2158265",
      "street": "BR MARIANO",
      "house": "9",
      "postcode": "2430-217",
      "city": "MARINHA GRANDE",
      "lon": "-8.927814939581976",
      "lat": "39.74522887015332"
    },
    {
      "id": "pt.ine.add.PTCONT.2158266",
      "street": "BR MARIANO",
      "house": "15",
      "postcode": "2430-217",
      "city": "MARINHA GRANDE",
      "lon": "-8.927640155337823",
      "lat": "39.745248079535344"
    },
    {
      "id": "pt.ine.add.PTCONT.2162673",
      "street": "R BAIRRO MARIANO",
      "house": "13",
      "postcode": "2430-217",
      "city": "MARINHA GRANDE",
      "lon": "-8.92771035871117",
      "lat": "39.74526561185141"
    },
    {
      "id": "pt.ine.add.PTCONT.2164850",
      "street": "AV 1 DE MAIO",
      "house": "119",
      "postcode": "2430-210",
      "city": "MARINHA GRANDE",
      "lon": "-8.928057650228093",
      "lat": "39.74502906661752"
    },
    {
      "id": "pt.ine.add.PTCONT.2182246",
      "street": "BR MARIANO",
      "house": "3",
      "postcode": "2430-217",
      "city": "MARINHA GRANDE",
      "lon": "-8.928024204478321",
      "lat": "39.74516439220416"
    },
    {
      "id": "pt.ine.add.PTCONT.2193581",
      "street": "R HELDER LUCIANO ROLDÃO",
      "house": "10",
      "postcode": "2430-226",
      "city": "MARINHA GRANDE",
      "lon": "-8.92494728257263",
      "lat": "39.74340214797681"
    },
    {
      "id": "pt.ine.add.PTCONT.2205612",
      "street": "AV 1 DE MAIO",
      "house": "121",
      "postcode": "2430-210",
      "city": "MARINHA GRANDE",
      "lon": "-8.927940265458638",
      "lat": "39.7449668254122"
    },
    {
      "id": "pt.ine.add.PTCONT.2209246",
      "street": "BR MARIANO",
      "house": "23",
      "postcode": "2430-217",
      "city": "MARINHA GRANDE",
      "lon": "-8.927372972999557",
      "lat": "39.745348978856086"
    },
    {
      "id": "pt.ine.add.PTCONT.2216728",
      "street": "BR MARIANO",
      "house": "5",
      "postcode": "2430-217",
      "city": "MARINHA GRANDE",
      "lon": "-8.927966184613577",
      "lat": "39.74519180882849"
    }
  ]
}