{
  "data": {
    "distrito": "Viseu",
    "concelho": "Carregal do Sal",
    "freguesia": "Beijós",
    "OBJECTID": 2,
    "BGRI2021": "18020100128",
    "DT21": "18",
    "DTMN21": "1802",
    "DTMNFR21": "180201",
    "DTMNFRSEC21": "180201001",
    "SECNUM21": "001",
    "SSNUM21": "28",
    "SECSSNUM21": "00128",
    "OBJECTID_1": 188709,
    "DT": "18",
    "CC": "02",
    "fr": "01",
    "SEC": "001",
    "SS": "28"
  },
  "addresses": [
    {
      "id": "pt.ine.add.PTCONT.5446952",
      "street": "PIZAO",
      "house": "",
      "postcode": "3430-538",
      "city": "BEIJÓS",
      "lon": "-7.961799740692539",
      "lat": "40.51135966103431"
    },
    {
      "id": "pt.ine.add.PTCONT.5534420",
      "street": "BR REDONDO",
      "house": "",
      "postcode": "3430-540",
      "city": "BEIJÓS",
      "lon": "-7.962829819020165",
      "lat": "40.509947336321744"
    },
    {
      "id": "pt.ine.add.PTCONT.5541984",
      "street": "BR TAPADA",
      "house": "",
      "postcode": "3430-540",
      "city": "BEIJÓS",
      "lon": "-7.964960679596851",
      "lat": "40.50710475033584"
    },
    {
      "id": "pt.ine.add.PTCONT.5546628",
      "street": "R REDONDO",
      "house": "",
      "postcode": "3430-540",
      "city": "BEIJÓS",
      "lon": "-7.963963958018697",
      "lat": "40.50936365105649"
    },
    {
      "id": "pt.ine.add.PTCONT.5585774",
      "street": "R REDONDO",
      "house": "",
      "postcode": "3430-540",
      "city": "BEIJÓS",
      "lon": "-7.964339930620681",
      "lat": "40.50999457854088"
    },
    {
      "id": "pt.ine.add.PTCONT.5600568",
      "street": "BR ESCRAVADA",
      "house": "",
      "postcode": "3430-535",
      "city": "BEIJÓS",
      "lon": "-7.965562630807136",
      "lat": "40.5070065651963"
    },
    {
      "id": "pt.ine.add.PTCONT.5617106",
      "street": "R REGO DOS FRADES",
      "house": "19",
      "postcode": "3430-534",
      "city": "BEIJÓS",
      "lon": "-7.96258072480853",
      "lat": "40.510469282002695"
    },
    {
      "id": "pt.ine.add.PTCONT.5635701",
      "street": "R REDONDO",
      "house": "",
      "postcode": "3430-540",
      "city": "BEIJÓS",
      "lon": "-7.963680113490894",
      "lat": "40.50963339718176"
    },
    {
      "id": "pt.ine.add.PTCONT.5638146",
      "street": "BR TAPADA",
      "house": "",
      "postcode": "3430-540",
      "city": "BEIJÓS",
      "lon": "-7.964582485723121",
      "lat": "40.507365356072086"
    },
    {
      "id": "pt.ine.add.PTCONT.5658670",
      "street": "R ABADE PAIS PINTO",
      "house": "187",
      "postcode": "3430-521",
      "city": "BEIJÓS",
      "lon": "-7.960993871464158",
      "lat": "40.512745294168376"
    },
    {
      "id": "pt.ine.add.PTCONT.5668490",
      "street": "PIZAO",
      "house": "",
      "postcode": "3430-538",
      "city": "BEIJÓS",
      "lon": "-7.961634189429112",
      "lat": "40.51150350181176"
    }
  ]
}