{
  "data": {
    "distrito": "Faro",
    "concelho": "Faro",
    "freguesia": "Santa BÃ¡rbara de Nexe",
    "OBJECTID": 423,
    "BGRI2021": "08050300408",
    "DT21": "08",
    "DTMN21": "0805",
    "DTMNFR21": "080503",
    "DTMNFRSEC21": "080503004",
    "SECNUM21": "004",
    "SSNUM21": "08",
    "SECSSNUM21": "00408",
    "OBJECTID_1": 66606,
    "DT": "08",
    "CC": "05",
    "fr": "03",
    "SEC": "004",
    "SS": "08"
  },
  "addresses": [
    {
      "id": "pt.ine.add.PTCONT.1481612",
      "street": "SIT RAPOSEIRAS II",
      "house": "8",
      "postcode": "8005-527",
      "city": "FARO",
      "lon": "-7.938655675584586",
      "lat": "37.1346346171135"
    },
    {
      "id": "pt.ine.add.PTCONT.1531881",
      "street": "R OLIVEIRAS CASA ALMEDINA",
      "house": "",
      "postcode": "8005-527",
      "city": "FARO",
      "lon": "-7.935728319827993",
      "lat": "37.1351073410428"
    },
    {
      "id": "pt.ine.add.PTCONT.1547762",
      "street": "CASA DO MONTE",
      "house": "",
      "postcode": "8005-527",
      "city": "FARO",
      "lon": "-7.9357974603979144",
      "lat": "37.134485724463644"
    },
    {
      "id": "pt.ine.add.PTCONT.1563468",
      "street": "R DIOGO MARTINS",
      "house": "",
      "postcode": "8005-527",
      "city": "FARO",
      "lon": "-7.938916435522705",
      "lat": "37.133887164322644"
    },
    {
      "id": "pt.ine.add.PTCONT.1565844",
      "street": "R FRANCISCA MARTINS",
      "house": "9",
      "postcode": "8005-527",
      "city": "FARO",
      "lon": "-7.938859358449173",
      "lat": "37.13420244200709"
    },
    {
      "id": "pt.ine.add.PTCONT.1565845",
      "street": "",
      "house": "",
      "postcode": "8005-527",
      "city": "FARO",
      "lon": "-7.936608886069799",
      "lat": "37.134054563243886"
    },
    {
      "id": "pt.ine.add.PTCONT.1581103",
      "street": "SIT RAPOSEIRAS II",
      "house": "",
      "postcode": "8005-527",
      "city": "FARO",
      "lon": "-7.938362994747648",
      "lat": "37.13466116846246"
    },
    {
      "id": "pt.ine.add.PTCONT.1590400",
      "street": "R OLIVEIRAS",
      "house": "",
      "postcode": "8005-527",
      "city": "FARO",
      "lon": "-7.934749449384331",
      "lat": "37.13500659047534"
    },
    {
      "id": "pt.ine.add.PTCONT.1590401",
      "street": "R OLIVEIRAS",
      "house": "",
      "postcode": "8005-527",
      "city": "FARO",
      "lon": "-7.934749449384331",
      "lat": "37.13500659047534"
    },
    {
      "id": "pt.ine.add.PTCONT.1619606",
      "street": "R DIOGO MARTINS CASA MURPHY",
      "house": "16",
      "postcode": "8005-527",
      "city": "FARO",
      "lon": "-7.938140243885402",
      "lat": "37.13375073117034"
    },
    {
      "id": "pt.ine.add.PTCONT.1629112",
      "street": "R DIOGO MARTINS",
      "house": "17",
      "postcode": "8005-527",
      "city": "FARO",
      "lon": "-7.93846659143778",
      "lat": "37.13376027807118"
    },
    {
      "id": "pt.ine.add.PTCONT.1663046",
      "street": "R SOBREIRAS",
      "house": "",
      "postcode": "8005-527",
      "city": "FARO",
      "lon": "-7.936528078658517",
      "lat": "37.13483835188047"
    },
    {
      "id": "pt.ine.add.PTCONT.1668178",
      "street": "R TENIS",
      "house": "",
      "postcode": "8005-527",
      "city": "FARO",
      "lon": "-7.934919815622872",
      "lat": "37.134412175560364"
    },
    {
      "id": "pt.ine.add.PTCONT.1678684",
      "street": "R DIOGO MARTINS",
      "house": "19",
      "postcode": "8005-527",
      "city": "FARO",
      "lon": "-7.938692735099732",
      "lat": "37.133346161276364"
    },
    {
      "id": "pt.ine.add.PTCONT.1684872",
      "street": "R OLIVEIRAS CASA BELA VISTA",
      "house": "",
      "postcode": "8005-527",
      "city": "FARO",
      "lon": "-7.93515437101251",
      "lat": "37.135097373385406"
    },
    {
      "id": "pt.ine.add.PTCONT.1687055",
      "street": "R OLIVEIRAS CASA DA AJO",
      "house": "",
      "postcode": "8005-527",
      "city": "FARO",
      "lon": "-7.9349825953597986",
      "lat": "37.13623242234567"
    },
    {
      "id": "pt.ine.add.PTCONT.1689654",
      "street": "R OLIVEIRAS",
      "house": "",
      "postcode": "8005-527",
      "city": "FARO",
      "lon": "-7.9350067253621805",
      "lat": "37.135610731117005"
    },
    {
      "id": "pt.ine.add.PTCONT.1706932",
      "street": "SIT RAPOSEIRAS II",
      "house": "B",
      "postcode": "8005-527",
      "city": "FARO",
      "lon": "-7.937901823302085",
      "lat": "37.13456129328473"
    },
    {
      "id": "pt.ine.add.PTCONT.1753159",
      "street": "CASA DAS ANDORINHAS",
      "house": "",
      "postcode": "8005-527",
      "city": "FARO",
      "lon": "-7.936908119755202",
      "lat": "37.13584816908447"
    },
    {
      "id": "pt.ine.add.PTCONT.1775080",
      "street": "CASA BEL AIR",
      "house": "",
      "postcode": "8005-527",
      "city": "FARO",
      "lon": "-7.9373037676403895",
      "lat": "37.135173028029634"
    },
    {
      "id": "pt.ine.add.PTCONT.1785053",
      "street": "R DIOGO MARTINS",
      "house": "15",
      "postcode": "8005-527",
      "city": "FARO",
      "lon": "-7.937836265807308",
      "lat": "37.133795283857495"
    },
    {
      "id": "pt.ine.add.PTCONT.1795497",
      "street": "R OLIVEIRAS",
      "house": "",
      "postcode": "8005-527",
      "city": "FARO",
      "lon": "-7.934703043897997",
      "lat": "37.13553813840431"
    },
    {
      "id": "pt.ine.add.PTCONT.1799091",
      "street": "R OLIVEIRAS CASA BRANCA",
      "house": "",
      "postcode": "8005-527",
      "city": "FARO",
      "lon": "-7.934532437916144",
      "lat": "37.136222658505865"
    },
    {
      "id": "pt.ine.add.PTCONT.1810348",
      "street": "R OLIVEIRAS CASA MJORE",
      "house": "",
      "postcode": "8005-527",
      "city": "FARO",
      "lon": "-7.935556740137944",
      "lat": "37.13617030635483"
    },
    {
      "id": "pt.ine.add.PTCONT.1810349",
      "street": "R OLIVEIRAS",
      "house": "232",
      "postcode": "8005-527",
      "city": "FARO",
      "lon": "-7.93622339489365",
      "lat": "37.13515321736139"
    }
  ]
}