{
  "data": {
    "distrito": "Faro",
    "concelho": "Faro",
    "freguesia": "Santa BÃ¡rbara de Nexe",
    "OBJECTID": 885,
    "BGRI2021": "08050300413",
    "DT21": "08",
    "DTMN21": "0805",
    "DTMNFR21": "080503",
    "DTMNFRSEC21": "080503004",
    "SECNUM21": "004",
    "SSNUM21": "13",
    "SECSSNUM21": "00413",
    "OBJECTID_1": 66091,
    "DT": "08",
    "CC": "05",
    "fr": "03",
    "SEC": "004",
    "SS": "13"
  },
  "addresses": [
    {
      "id": "pt.ine.add.PTCONT.1468327",
      "street": "ESTR FONTE DA MURRA",
      "house": "",
      "postcode": "8005-488",
      "city": "FARO",
      "lon": "-7.9482466671545975",
      "lat": "37.138317277411076"
    },
    {
      "id": "pt.ine.add.PTCONT.1487227",
      "street": "CAM CAMINHO DA EUROPA CASA SECLUDA",
      "house": "",
      "postcode": "8005-488",
      "city": "FARO",
      "lon": "-7.946785902061458",
      "lat": "37.13735085601334"
    },
    {
      "id": "pt.ine.add.PTCONT.1498527",
      "street": "",
      "house": "",
      "postcode": "8005-488",
      "city": "FARO",
      "lon": "-7.942762083502956",
      "lat": "37.139696229445555"
    },
    {
      "id": "pt.ine.add.PTCONT.1504808",
      "street": "",
      "house": "",
      "postcode": "8005-488",
      "city": "FARO",
      "lon": "-7.936938091250831",
      "lat": "37.137316946739865"
    },
    {
      "id": "pt.ine.add.PTCONT.1507663",
      "street": "CAM EUROPA VILLA ORQUIDEA",
      "house": "",
      "postcode": "8005-488",
      "city": "FARO",
      "lon": "-7.941903109842093",
      "lat": "37.13664926423947"
    },
    {
      "id": "pt.ine.add.PTCONT.1521697",
      "street": "CAM CAMINHO DA EUROPA",
      "house": "",
      "postcode": "8005-488",
      "city": "FARO",
      "lon": "-7.946874724926801",
      "lat": "37.13784657867247"
    },
    {
      "id": "pt.ine.add.PTCONT.1545169",
      "street": "CAM CAMINHO DA EUROPA CASA MANJERICAO",
      "house": "",
      "postcode": "8005-488",
      "city": "FARO",
      "lon": "-7.943332623071025",
      "lat": "37.1365794766099"
    },
    {
      "id": "pt.ine.add.PTCONT.1558039",
      "street": "CASA ANSATO",
      "house": "",
      "postcode": "8005-488",
      "city": "FARO",
      "lon": "-7.940165692742573",
      "lat": "37.138304399569485"
    },
    {
      "id": "pt.ine.add.PTCONT.1558040",
      "street": "CASA ALFARROBA",
      "house": "",
      "postcode": "8005-488",
      "city": "FARO",
      "lon": "-7.948195962969985",
      "lat": "37.13602850535163"
    },
    {
      "id": "pt.ine.add.PTCONT.1561248",
      "street": "CAM EUROPA CASA BALLERINA",
      "house": "",
      "postcode": "8005-488",
      "city": "FARO",
      "lon": "-7.941091777361219",
      "lat": "37.13704441925823"
    },
    {
      "id": "pt.ine.add.PTCONT.1569009",
      "street": "CASA O MONTE",
      "house": "",
      "postcode": "8005-488",
      "city": "FARO",
      "lon": "-7.94704118412173",
      "lat": "37.13421556672912"
    },
    {
      "id": "pt.ine.add.PTCONT.1573149",
      "street": "",
      "house": "",
      "postcode": "8005-488",
      "city": "FARO",
      "lon": "-7.937017525189401",
      "lat": "37.137064781350624"
    },
    {
      "id": "pt.ine.add.PTCONT.1578149",
      "street": "CASA KIM",
      "house": "803",
      "postcode": "8005-488",
      "city": "FARO",
      "lon": "-7.947254375464128",
      "lat": "37.13447720875361"
    },
    {
      "id": "pt.ine.add.PTCONT.1580998",
      "street": "CAM CAMINHO DA EUROPA CASA TRAVESSA DO PASTOR",
      "house": "",
      "postcode": "8005-488",
      "city": "FARO",
      "lon": "-7.943238578434893",
      "lat": "37.13818321303453"
    },
    {
      "id": "pt.ine.add.PTCONT.1581102",
      "street": "CAM CAMINHO DA EUROPA CASA POR DO SOL",
      "house": "",
      "postcode": "8005-488",
      "city": "FARO",
      "lon": "-7.942869177347511",
      "lat": "37.13738067731464"
    },
    {
      "id": "pt.ine.add.PTCONT.1597751",
      "street": "CASA JESSICA",
      "house": "",
      "postcode": "8005-488",
      "city": "FARO",
      "lon": "-7.937607692091436",
      "lat": "37.139525649688245"
    },
    {
      "id": "pt.ine.add.PTCONT.1600272",
      "street": "ESTR FONTE DA MURRA CASA CLARA",
      "house": "",
      "postcode": "8005-488",
      "city": "FARO",
      "lon": "-7.948336903113228",
      "lat": "37.13823632269555"
    },
    {
      "id": "pt.ine.add.PTCONT.1615457",
      "street": "ESTR FONTE DA MURTA CASA BENTO",
      "house": "",
      "postcode": "8005-488",
      "city": "FARO",
      "lon": "-7.946770360241461",
      "lat": "37.13909888807304"
    },
    {
      "id": "pt.ine.add.PTCONT.1620671",
      "street": "CASA ALEGRE",
      "house": "",
      "postcode": "8005-488",
      "city": "FARO",
      "lon": "-7.939758867672405",
      "lat": "37.13895249980487"
    },
    {
      "id": "pt.ine.add.PTCONT.1620672",
      "street": "GORJOES",
      "house": "346",
      "postcode": "8005-488",
      "city": "FARO",
      "lon": "-7.937296197716207",
      "lat": "37.13811047161843"
    },
    {
      "id": "pt.ine.add.PTCONT.1620678",
      "street": "CAM CAMINHO DA EUROPA CASA DOS MANINHO",
      "house": "",
      "postcode": "8005-488",
      "city": "FARO",
      "lon": "-7.94408728530824",
      "lat": "37.13633739610379"
    },
    {
      "id": "pt.ine.add.PTCONT.1628202",
      "street": "ESTR FONTE DA MURTA CASA MARIA",
      "house": "",
      "postcode": "8005-488",
      "city": "FARO",
      "lon": "-7.9457680913914475",
      "lat": "37.13933158385813"
    },
    {
      "id": "pt.ine.add.PTCONT.1633022",
      "street": "QTA ROSAS",
      "house": "",
      "postcode": "8005-488",
      "city": "FARO",
      "lon": "-7.94411452678473",
      "lat": "37.138959524420066"
    },
    {
      "id": "pt.ine.add.PTCONT.1633023",
      "street": "QTA ASSAS",
      "house": "",
      "postcode": "8005-488",
      "city": "FARO",
      "lon": "-7.94411452678473",
      "lat": "37.138959524420066"
    },
    {
      "id": "pt.ine.add.PTCONT.1636082",
      "street": "CAM CAMINHO DA EUROPA MONPARNASSE",
      "house": "",
      "postcode": "8005-488",
      "city": "FARO",
      "lon": "-7.945772557124991",
      "lat": "37.13752046031262"
    },
    {
      "id": "pt.ine.add.PTCONT.1640780",
      "street": "CASA HOWARD",
      "house": "",
      "postcode": "8005-488",
      "city": "FARO",
      "lon": "-7.939115703088381",
      "lat": "37.13959120141798"
    },
    {
      "id": "pt.ine.add.PTCONT.1648279",
      "street": "CAM CAMINHO DA EUROPA MONTE VALDO",
      "house": "",
      "postcode": "8005-488",
      "city": "FARO",
      "lon": "-7.944691567491327",
      "lat": "37.13773500144198"
    },
    {
      "id": "pt.ine.add.PTCONT.1656441",
      "street": "CAM CAMINHO DA EUROPA CASA LOLINA SONNLENTA",
      "house": "",
      "postcode": "8005-488",
      "city": "FARO",
      "lon": "-7.944275791030681",
      "lat": "37.137473032406994"
    },
    {
      "id": "pt.ine.add.PTCONT.1658723",
      "street": "CASA 3 PALMEIRAS",
      "house": "",
      "postcode": "8005-488",
      "city": "FARO",
      "lon": "-7.94650308296184",
      "lat": "37.13335871321076"
    },
    {
      "id": "pt.ine.add.PTCONT.1663044",
      "street": "CAM CAMINHO DA EUROPA QTA DO GROU",
      "house": "",
      "postcode": "8005-488",
      "city": "FARO",
      "lon": "-7.943971666998896",
      "lat": "37.13757166415983"
    },
    {
      "id": "pt.ine.add.PTCONT.1663045",
      "street": "CAM CAMINHO DA EUROPA CASA HELENA",
      "house": "",
      "postcode": "8005-488",
      "city": "FARO",
      "lon": "-7.942519490559236",
      "lat": "37.13769548663058"
    },
    {
      "id": "pt.ine.add.PTCONT.1665448",
      "street": "CAM EUROPA MONTE COTOVIO",
      "house": "",
      "postcode": "8005-488",
      "city": "FARO",
      "lon": "-7.9428362481369765",
      "lat": "37.13704723220969"
    },
    {
      "id": "pt.ine.add.PTCONT.1668177",
      "street": "CAM CAMINHO DA EUROPA",
      "house": "",
      "postcode": "8005-488",
      "city": "FARO",
      "lon": "-7.9447962547707816",
      "lat": "37.136365556296006"
    },
    {
      "id": "pt.ine.add.PTCONT.1687097",
      "street": "",
      "house": "",
      "postcode": "8005-488",
      "city": "FARO",
      "lon": "-7.944667367674022",
      "lat": "37.13387842452742"
    },
    {
      "id": "pt.ine.add.PTCONT.1696355",
      "street": "CAM CAMINHO DA EUROPA VILLA FLORINDO",
      "house": "",
      "postcode": "8005-488",
      "city": "FARO",
      "lon": "-7.945997096835567",
      "lat": "37.137746079987956"
    },
    {
      "id": "pt.ine.add.PTCONT.1709789",
      "street": "CAM CAMINHO DA EUROPA CASA SOL POENTE",
      "house": "",
      "postcode": "8005-488",
      "city": "FARO",
      "lon": "-7.942924977210782",
      "lat": "37.137569989475"
    },
    {
      "id": "pt.ine.add.PTCONT.1712765",
      "street": "SIT GORJOES SANTA BARBARA NEXE",
      "house": "",
      "postcode": "8005-488",
      "city": "FARO",
      "lon": "-7.944665191695185",
      "lat": "37.13929379326731"
    },
    {
      "id": "pt.ine.add.PTCONT.1712768",
      "street": "CASA SAPPHIRE",
      "house": "",
      "postcode": "8005-488",
      "city": "FARO",
      "lon": "-7.946700484612541",
      "lat": "37.135467505649245"
    },
    {
      "id": "pt.ine.add.PTCONT.1712769",
      "street": "ESTR FONTE DA MURTA",
      "house": "",
      "postcode": "8005-488",
      "city": "FARO",
      "lon": "-7.948274941762353",
      "lat": "37.13594753308821"
    },
    {
      "id": "pt.ine.add.PTCONT.1718509",
      "street": "CAM CAMINHO DA EUROPA MONTE S MIGUEL",
      "house": "",
      "postcode": "8005-488",
      "city": "FARO",
      "lon": "-7.946010969802302",
      "lat": "37.13668285086194"
    },
    {
      "id": "pt.ine.add.PTCONT.1721038",
      "street": "CASA FRANCO",
      "house": "",
      "postcode": "8005-488",
      "city": "FARO",
      "lon": "-7.940502766753247",
      "lat": "37.138530212722884"
    },
    {
      "id": "pt.ine.add.PTCONT.1729990",
      "street": "CAM CAMINHO DA EUROPA ARVORE TORTA",
      "house": "",
      "postcode": "8005-488",
      "city": "FARO",
      "lon": "-7.944693086925407",
      "lat": "37.13712228296314"
    },
    {
      "id": "pt.ine.add.PTCONT.1741785",
      "street": "ESTR FONTE DA MURTA",
      "house": "",
      "postcode": "8005-488",
      "city": "FARO",
      "lon": "-7.948117927309854",
      "lat": "37.13572202305387"
    },
    {
      "id": "pt.ine.add.PTCONT.1744744",
      "street": "CASA MONTE VELHO",
      "house": "",
      "postcode": "8005-488",
      "city": "FARO",
      "lon": "-7.939703602262384",
      "lat": "37.13855594330647"
    },
    {
      "id": "pt.ine.add.PTCONT.1748382",
      "street": "",
      "house": "",
      "postcode": "8005-488",
      "city": "FARO",
      "lon": "-7.947162974216099",
      "lat": "37.13503572297647"
    },
    {
      "id": "pt.ine.add.PTCONT.1748383",
      "street": "",
      "house": "",
      "postcode": "8005-488",
      "city": "FARO",
      "lon": "-7.947162974216099",
      "lat": "37.13503572297647"
    },
    {
      "id": "pt.ine.add.PTCONT.1757016",
      "street": "",
      "house": "",
      "postcode": "8005-488",
      "city": "FARO",
      "lon": "-7.944854941222901",
      "lat": "37.13993384723196"
    },
    {
      "id": "pt.ine.add.PTCONT.1769287",
      "street": "CAM CAMINHO DA EUROPA QTA MIRAGE",
      "house": "",
      "postcode": "8005-488",
      "city": "FARO",
      "lon": "-7.947023861687586",
      "lat": "37.13669345583481"
    },
    {
      "id": "pt.ine.add.PTCONT.1781385",
      "street": "",
      "house": "",
      "postcode": "8005-488",
      "city": "FARO",
      "lon": "-7.94228876064026",
      "lat": "37.13993875456654"
    },
    {
      "id": "pt.ine.add.PTCONT.1801810",
      "street": "ESTR FONTE DA MURRA",
      "house": "",
      "postcode": "8005-488",
      "city": "FARO",
      "lon": "-7.947315732201584",
      "lat": "37.13700027414489"
    },
    {
      "id": "pt.ine.add.PTCONT.1801811",
      "street": "ESTR FONTE DA MURRA",
      "house": "",
      "postcode": "8005-488",
      "city": "FARO",
      "lon": "-7.947315732201584",
      "lat": "37.13700027414489"
    },
    {
      "id": "pt.ine.add.PTCONT.1801812",
      "street": "CAM CAMINHO DA EUROPA",
      "house": "",
      "postcode": "8005-488",
      "city": "FARO",
      "lon": "-7.944593874048597",
      "lat": "37.13628413919541"
    },
    {
      "id": "pt.ine.add.PTCONT.1816812",
      "street": "CASA VELHA DA PALMEIRA",
      "house": "",
      "postcode": "8005-488",
      "city": "FARO",
      "lon": "-7.947477413795132",
      "lat": "37.13531554455258"
    },
    {
      "id": "pt.ine.add.PTCONT.1831376",
      "street": "CAM EUROPA CASA MARIANNE",
      "house": "",
      "postcode": "8005-488",
      "city": "FARO",
      "lon": "-7.942172201105451",
      "lat": "37.137055175064596"
    },
    {
      "id": "pt.ine.add.PTCONT.1833462",
      "street": "",
      "house": "",
      "postcode": "8005-488",
      "city": "FARO",
      "lon": "-7.93746353482123",
      "lat": "37.13868742625007"
    },
    {
      "id": "pt.ine.add.PTCONT.1840870",
      "street": "MTE VERDE",
      "house": "",
      "postcode": "8005-488",
      "city": "FARO",
      "lon": "-7.9421382564190335",
      "lat": "37.1326489345682"
    }
  ]
}