{
  "data": {
    "distrito": "Santarém",
    "concelho": "Constância",
    "freguesia": "Santa Margarida da Coutada",
    "OBJECTID": 8,
    "BGRI2021": "14080300215",
    "DT21": "14",
    "DTMN21": "1408",
    "DTMNFR21": "140803",
    "DTMNFRSEC21": "140803002",
    "SECNUM21": "002",
    "SSNUM21": "15",
    "SECSSNUM21": "00215",
    "OBJECTID_1": 150287,
    "DT": "14",
    "CC": "08",
    "fr": "03",
    "SEC": "002",
    "SS": "15"
  },
  "addresses": [
    {
      "id": "pt.ine.add.PTCONT.4409274",
      "street": "TV 23 DE SETEMBRO",
      "house": "8",
      "postcode": "2250-342",
      "city": "STA MARGARIDA DA COUTADA",
      "lon": "-8.322436867205763",
      "lat": "39.45627145261643"
    },
    {
      "id": "pt.ine.add.PTCONT.4410597",
      "street": "R FUNDADORES DA SOCIEDADE RECREATIVA PORTELENSE",
      "house": "16",
      "postcode": "2250-342",
      "city": "STA MARGARIDA DA COUTADA",
      "lon": "-8.325071808804996",
      "lat": "39.45958172142288"
    },
    {
      "id": "pt.ine.add.PTCONT.4421909",
      "street": "R PEREIRO",
      "house": "8",
      "postcode": "2250-320",
      "city": "STA MARGARIDA DA COUTADA",
      "lon": "-8.323234121376535",
      "lat": "39.458909212836076"
    },
    {
      "id": "pt.ine.add.PTCONT.4422770",
      "street": "R PEREIRO",
      "house": "2",
      "postcode": "2250-320",
      "city": "STA MARGARIDA DA COUTADA",
      "lon": "-8.32198604822387",
      "lat": "39.457127853941394"
    },
    {
      "id": "pt.ine.add.PTCONT.4437119",
      "street": "TV 23 DE SETEMBRO",
      "house": "2",
      "postcode": "2250-342",
      "city": "STA MARGARIDA DA COUTADA",
      "lon": "-8.323263391408293",
      "lat": "39.45685556146866"
    },
    {
      "id": "pt.ine.add.PTCONT.4445429",
      "street": "R PEREIRO",
      "house": "4",
      "postcode": "2250-320",
      "city": "STA MARGARIDA DA COUTADA",
      "lon": "-8.322790563116557",
      "lat": "39.45816235345022"
    },
    {
      "id": "pt.ine.add.PTCONT.4495754",
      "street": "TV ESPERANÇA",
      "house": "",
      "postcode": "2250-342",
      "city": "STA MARGARIDA DA COUTADA",
      "lon": "-8.325000831685852",
      "lat": "39.45912247999901"
    },
    {
      "id": "pt.ine.add.PTCONT.4497406",
      "street": "R PEREIRO",
      "house": "6",
      "postcode": "2250-320",
      "city": "STA MARGARIDA DA COUTADA",
      "lon": "-8.323164063313826",
      "lat": "39.45878322890309"
    },
    {
      "id": "pt.ine.add.PTCONT.4518183",
      "street": "R PEREIRO",
      "house": "10",
      "postcode": "2250-320",
      "city": "STA MARGARIDA DA COUTADA",
      "lon": "-8.322844668840577",
      "lat": "39.46097245867392"
    },
    {
      "id": "pt.ine.add.PTCONT.4540107",
      "street": "TV 23 DE SETEMBRO",
      "house": "6",
      "postcode": "2250-342",
      "city": "STA MARGARIDA DA COUTADA",
      "lon": "-8.323077391903134",
      "lat": "39.45681983729031"
    },
    {
      "id": "pt.ine.add.PTCONT.4617845",
      "street": "TV BARROCA",
      "house": "1",
      "postcode": "2250-342",
      "city": "STA MARGARIDA DA COUTADA",
      "lon": "-8.324008646009817",
      "lat": "39.45745781186979"
    },
    {
      "id": "pt.ine.add.PTCONT.4648491",
      "street": "R PEREIRO",
      "house": "10A",
      "postcode": "2250-320",
      "city": "STA MARGARIDA DA COUTADA",
      "lon": "-8.32311196708394",
      "lat": "39.46099003634134"
    },
    {
      "id": "pt.ine.add.PTCONT.4651565",
      "street": "R COMBATENTES",
      "house": "1",
      "postcode": "2250-320",
      "city": "STA MARGARIDA DA COUTADA",
      "lon": "-8.323356467762242",
      "lat": "39.46116977719322"
    }
  ]
}