{
  "data": {
    "ilha": "Ilha da Madeira (Madeira)",
    "concelho": "Câmara de Lobos",
    "freguesia": "Estreito de Câmara de Lobos",
    "OBJECTID": 108,
    "BGRI2021": "31020300607",
    "DT21": "31",
    "DTMN21": "3102",
    "DTMNFR21": "310203",
    "DTMNFRSEC21": "310203006",
    "SECNUM21": "006",
    "SSNUM21": "07",
    "SECSSNUM21": "00607",
    "OBJECTID_1": 203484,
    "DT": "31",
    "CC": "02",
    "fr": "03",
    "SEC": "006",
    "SS": "07",
    "BGRI2021_1": "31020300607"
  },
  "addresses": [
    {
      "id": "pt.ine.add.MAD.625",
      "street": "CAM FRANCELHEIRA",
      "house": "16",
      "postcode": "9325-060",
      "city": "ESTREITO CÂMARA DE LOBOS",
      "lon": "-16.992806947701876",
      "lat": "32.67359220046555"
    },
    {
      "id": "pt.ine.add.MAD.626",
      "street": "CAM FRANCELHEIRA",
      "house": "14",
      "postcode": "9325-060",
      "city": "ESTREITO CÂMARA DE LOBOS",
      "lon": "-16.992644856608663",
      "lat": "32.67349557143627"
    },
    {
      "id": "pt.ine.add.MAD.627",
      "street": "CAM FRANCELHEIRA",
      "house": "10",
      "postcode": "9325-060",
      "city": "ESTREITO CÂMARA DE LOBOS",
      "lon": "-16.992344796386742",
      "lat": "32.673428189386115"
    },
    {
      "id": "pt.ine.add.MAD.628",
      "street": "CAM FRANCELHEIRA",
      "house": "4",
      "postcode": "9325-060",
      "city": "ESTREITO CÂMARA DE LOBOS",
      "lon": "-16.992050992549395",
      "lat": "32.67316229896157"
    },
    {
      "id": "pt.ine.add.MAD.629",
      "street": "CAM FRANCELHEIRA",
      "house": "2A",
      "postcode": "9325-060",
      "city": "ESTREITO CÂMARA DE LOBOS",
      "lon": "-16.99188990367158",
      "lat": "32.67311074579193"
    },
    {
      "id": "pt.ine.add.MAD.630",
      "street": "R PADRE ANTÓNIO SOUSA DA COSTA",
      "house": "731",
      "postcode": "9325-370",
      "city": "ESTREITO CÂMARA DE LOBOS",
      "lon": "-16.9913436833522",
      "lat": "32.673002177252975"
    },
    {
      "id": "pt.ine.add.MAD.631",
      "street": "R PADRE ANTÓNIO SOUSA DA COSTA",
      "house": "78",
      "postcode": "9325-370",
      "city": "ESTREITO CÂMARA DE LOBOS",
      "lon": "-16.990693731288317",
      "lat": "32.672543528672136"
    },
    {
      "id": "pt.ine.add.MAD.632",
      "street": "ESTR RIBEIRA GARCIA",
      "house": "26",
      "postcode": "9325-378",
      "city": "ESTREITO CÂMARA DE LOBOS",
      "lon": "-16.995666928720894",
      "lat": "32.67225707757673"
    },
    {
      "id": "pt.ine.add.MAD.646",
      "street": "CAM QUINTA SANTO ANTONIO",
      "house": "2",
      "postcode": "9325-082",
      "city": "ESTREITO CÂMARA DE LOBOS",
      "lon": "-16.98279867010272",
      "lat": "32.67282189245418"
    },
    {
      "id": "pt.ine.add.MAD.1420",
      "street": "ESTR RIBEIRA GARCIA",
      "house": "34S",
      "postcode": "9325-378",
      "city": "ESTREITO CÂMARA DE LOBOS",
      "lon": "-16.994671989475467",
      "lat": "32.67258855232427"
    },
    {
      "id": "pt.ine.add.MAD.1421",
      "street": "1 IMPASSE DA ESTRADA DA RIBEIRA GARCIA",
      "house": "5",
      "postcode": "9325-378",
      "city": "ESTREITO CÂMARA DE LOBOS",
      "lon": "-16.994067825348864",
      "lat": "32.67275147370488"
    },
    {
      "id": "pt.ine.add.MAD.1422",
      "street": "1 IMPASSE DA ESTRADA DA RIBEIRA GARCIA",
      "house": "6",
      "postcode": "9325-378",
      "city": "ESTREITO CÂMARA DE LOBOS",
      "lon": "-16.994150694240027",
      "lat": "32.67264193364188"
    },
    {
      "id": "pt.ine.add.MAD.1423",
      "street": "VR FURNEIRA",
      "house": "43",
      "postcode": "9325-371",
      "city": "ESTREITO CÂMARA DE LOBOS",
      "lon": "-16.994274596474924",
      "lat": "32.67245959271849"
    },
    {
      "id": "pt.ine.add.MAD.1424",
      "street": "VR FURNEIRA",
      "house": "62",
      "postcode": "9325-371",
      "city": "ESTREITO CÂMARA DE LOBOS",
      "lon": "-16.993456805170013",
      "lat": "32.67308585373233"
    },
    {
      "id": "pt.ine.add.MAD.1425",
      "street": "VR FURNEIRA",
      "house": "64",
      "postcode": "9325-371",
      "city": "ESTREITO CÂMARA DE LOBOS",
      "lon": "-16.993298920072217",
      "lat": "32.67317854836571"
    },
    {
      "id": "pt.ine.add.MAD.1426",
      "street": "CAM CORREGO",
      "house": "8",
      "postcode": "9325-331",
      "city": "ESTREITO CÂMARA DE LOBOS",
      "lon": "-16.992532507355396",
      "lat": "32.67275783445622"
    },
    {
      "id": "pt.ine.add.MAD.1427",
      "street": "CAM CORREGO",
      "house": "14",
      "postcode": "9325-331",
      "city": "ESTREITO CÂMARA DE LOBOS",
      "lon": "-16.99314568613762",
      "lat": "32.67300061221738"
    },
    {
      "id": "pt.ine.add.MAD.1428",
      "street": "CAM CÓRREGO",
      "house": "13",
      "postcode": "9325-331",
      "city": "ESTREITO CÂMARA DE LOBOS",
      "lon": "-16.99344093855875",
      "lat": "32.67285162344438"
    },
    {
      "id": "pt.ine.add.MAD.1429",
      "street": "CAM CORREGO",
      "house": "4",
      "postcode": "9325-331",
      "city": "ESTREITO CÂMARA DE LOBOS",
      "lon": "-16.993374780547477",
      "lat": "32.67275347070958"
    },
    {
      "id": "pt.ine.add.MAD.1430",
      "street": "R PADRE ANTONIO SOUSA COSTA",
      "house": "6",
      "postcode": "9325-331",
      "city": "ESTREITO CÂMARA DE LOBOS",
      "lon": "-16.993605075499115",
      "lat": "32.67256042105706"
    },
    {
      "id": "pt.ine.add.MAD.1431",
      "street": "VR LOMBINHO DO CORREGO",
      "house": "2",
      "postcode": "9325-331",
      "city": "ESTREITO CÂMARA DE LOBOS",
      "lon": "-16.992765206789706",
      "lat": "32.67267297080231"
    },
    {
      "id": "pt.ine.add.MAD.1432",
      "street": "VR LOMBINHO DO CORREGO",
      "house": "4",
      "postcode": "9325-331",
      "city": "ESTREITO CÂMARA DE LOBOS",
      "lon": "-16.993083178811162",
      "lat": "32.67258675183181"
    },
    {
      "id": "pt.ine.add.MAD.1433",
      "street": "TV LOMBINHO CORREGO",
      "house": "9",
      "postcode": "9325-331",
      "city": "ESTREITO CÂMARA DE LOBOS",
      "lon": "-16.99313226919522",
      "lat": "32.67239658211466"
    },
    {
      "id": "pt.ine.add.MAD.2214",
      "street": "VR LOMBINHO DO CORREGO",
      "house": "5",
      "postcode": "9325-331",
      "city": "ESTREITO CÂMARA DE LOBOS",
      "lon": "-16.99284547436463",
      "lat": "32.672446231644955"
    },
    {
      "id": "pt.ine.add.MAD.2215",
      "street": "TV N 1 DA RUA PADRE ANTÓNIO SOUSA DA COSTA",
      "house": "3",
      "postcode": "9325-370",
      "city": "ESTREITO CÂMARA DE LOBOS",
      "lon": "-16.992011861584636",
      "lat": "32.672360268638094"
    },
    {
      "id": "pt.ine.add.MAD.2216",
      "street": "TV N 1 DA RUA PADRE ANTÓNIO SOUSA DA COSTA",
      "house": "10",
      "postcode": "9325-370",
      "city": "ESTREITO CÂMARA DE LOBOS",
      "lon": "-16.991875694624802",
      "lat": "32.672470653710064"
    },
    {
      "id": "pt.ine.add.MAD.2217",
      "street": "R PADRE ANTONIO SOUSA COSTA",
      "house": "127 129",
      "postcode": "9325-370",
      "city": "ESTREITO CÂMARA DE LOBOS",
      "lon": "-16.99116733464501",
      "lat": "32.67274343849122"
    },
    {
      "id": "pt.ine.add.MAD.2218",
      "street": "R PADRE ANTÓNIO SOUSA DA COSTA",
      "house": "119",
      "postcode": "9325-370",
      "city": "ESTREITO CÂMARA DE LOBOS",
      "lon": "-16.991616874141876",
      "lat": "32.67233948501254"
    },
    {
      "id": "pt.ine.add.MAD.2219",
      "street": "R PADRE ANTÓNIO SOUSA DA COSTA",
      "house": "111",
      "postcode": "9325-370",
      "city": "ESTREITO CÂMARA DE LOBOS",
      "lon": "-16.992295654235253",
      "lat": "32.67217539030757"
    },
    {
      "id": "pt.ine.add.MAD.2220",
      "street": "R PADRE ANTÓNIO SOUSA DA COSTA",
      "house": "111",
      "postcode": "9325-370",
      "city": "ESTREITO CÂMARA DE LOBOS",
      "lon": "-16.992295654235253",
      "lat": "32.67217539030757"
    },
    {
      "id": "pt.ine.add.MAD.2221",
      "street": "R PADRE ANTÓNIO SOUSA DA COSTA",
      "house": "103",
      "postcode": "9325-370",
      "city": "ESTREITO CÂMARA DE LOBOS",
      "lon": "-16.992657262331168",
      "lat": "32.67213357215975"
    },
    {
      "id": "pt.ine.add.MAD.2236",
      "street": "CAM QUINTA SANTO ANTONIO",
      "house": "25",
      "postcode": "9325-082",
      "city": "ESTREITO CÂMARA DE LOBOS",
      "lon": "-16.983420487922505",
      "lat": "32.672009408086375"
    },
    {
      "id": "pt.ine.add.MAD.3009",
      "street": "R PADRE ANTÓNIO SOUSA DA COSTA",
      "house": "60",
      "postcode": "9325-370",
      "city": "ESTREITO CÂMARA DE LOBOS",
      "lon": "-16.993020318289",
      "lat": "32.6716768763055"
    },
    {
      "id": "pt.ine.add.MAD.3010",
      "street": "VR LEVADA DO NORTE",
      "house": "2",
      "postcode": "9325-090",
      "city": "ESTREITO CÂMARA DE LOBOS",
      "lon": "-16.99204409079636",
      "lat": "32.67189079169736"
    },
    {
      "id": "pt.ine.add.MAD.3011",
      "street": "TV N 4 DA RUA PADRE ANTÓNIO SOUSA DA COSTA",
      "house": "2",
      "postcode": "9325-370",
      "city": "ESTREITO CÂMARA DE LOBOS",
      "lon": "-16.991502679806466",
      "lat": "32.671998592765576"
    },
    {
      "id": "pt.ine.add.MAD.3012",
      "street": "R PADRE ANTÓNIO SOUSA DA COSTA",
      "house": "291",
      "postcode": "9325-370",
      "city": "ESTREITO CÂMARA DE LOBOS",
      "lon": "-16.99162638665448",
      "lat": "32.67180723888303"
    },
    {
      "id": "pt.ine.add.MAD.3013",
      "street": "VR LEVADA DO NORTE",
      "house": "285",
      "postcode": "9325-089",
      "city": "ESTREITO CÂMARA DE LOBOS",
      "lon": "-16.991158388720592",
      "lat": "32.671859761452566"
    },
    {
      "id": "pt.ine.add.MAD.3014",
      "street": "CAM ESCOLA DO GARACHICO",
      "house": "",
      "postcode": "9325-060",
      "city": "ESTREITO CÂMARA DE LOBOS",
      "lon": "-16.990616776650448",
      "lat": "32.671958543341056"
    },
    {
      "id": "pt.ine.add.MAD.3015",
      "street": "CAM ESCOLA DO GARACHICO",
      "house": "",
      "postcode": "9325-060",
      "city": "ESTREITO CÂMARA DE LOBOS",
      "lon": "-16.990500586836582",
      "lat": "32.6715274960901"
    },
    {
      "id": "pt.ine.add.MAD.3016",
      "street": "EM GARACHICO",
      "house": "56",
      "postcode": "9325-363",
      "city": "ESTREITO CÂMARA DE LOBOS",
      "lon": "-16.99079763934252",
      "lat": "32.671459652035075"
    },
    {
      "id": "pt.ine.add.MAD.3017",
      "street": "EM GARACHICO",
      "house": "60",
      "postcode": "9325-363",
      "city": "ESTREITO CÂMARA DE LOBOS",
      "lon": "-16.991057456287628",
      "lat": "32.6716358995241"
    },
    {
      "id": "pt.ine.add.MAD.3018",
      "street": "VR FURNEIRA",
      "house": "42",
      "postcode": "9325-371",
      "city": "ESTREITO CÂMARA DE LOBOS",
      "lon": "-16.994823258206242",
      "lat": "32.672198348974376"
    },
    {
      "id": "pt.ine.add.MAD.3019",
      "street": "VR FURNEIRA",
      "house": "27",
      "postcode": "9325-371",
      "city": "ESTREITO CÂMARA DE LOBOS",
      "lon": "-16.994090987475964",
      "lat": "32.67235428908568"
    },
    {
      "id": "pt.ine.add.MAD.3020",
      "street": "VR LEVADA DO NORTE",
      "house": "336",
      "postcode": "9325-089",
      "city": "ESTREITO CÂMARA DE LOBOS",
      "lon": "-16.993299855989754",
      "lat": "32.67178065722784"
    },
    {
      "id": "pt.ine.add.MAD.3036",
      "street": "ESTR JOÃO GONÇALVES ZARCO",
      "house": "662",
      "postcode": "9325-087",
      "city": "ESTREITO CÂMARA DE LOBOS",
      "lon": "-16.982402788323117",
      "lat": "32.67227801618632"
    },
    {
      "id": "pt.ine.add.MAD.3824",
      "street": "R PADRE ANTÓNIO SOUSA DA COSTA",
      "house": "93",
      "postcode": "9325-370",
      "city": "ESTREITO CÂMARA DE LOBOS",
      "lon": "-16.992813840489582",
      "lat": "32.67102180195986"
    },
    {
      "id": "pt.ine.add.MAD.3853",
      "street": "ESTR JOÃO GONÇALVES ZARCO",
      "house": "672",
      "postcode": "9325-087",
      "city": "ESTREITO CÂMARA DE LOBOS",
      "lon": "-16.982556603397846",
      "lat": "32.671518024313166"
    },
    {
      "id": "pt.ine.add.MAD.5451",
      "street": "VR LOMBO DO GATO",
      "house": "25",
      "postcode": "9325-377",
      "city": "ESTREITO CÂMARA DE LOBOS",
      "lon": "-16.994995278639557",
      "lat": "32.671302776395954"
    },
    {
      "id": "pt.ine.add.MAD.5452",
      "street": "VR LEVADA DO NORTE",
      "house": "356",
      "postcode": "9325-090",
      "city": "ESTREITO CÂMARA DE LOBOS",
      "lon": "-16.99454423426315",
      "lat": "32.67067865021296"
    },
    {
      "id": "pt.ine.add.MAD.5453",
      "street": "VR LEVADA DO NORTE",
      "house": "354",
      "postcode": "9325-090",
      "city": "ESTREITO CÂMARA DE LOBOS",
      "lon": "-16.994374894111036",
      "lat": "32.67073545402664"
    },
    {
      "id": "pt.ine.add.MAD.5454",
      "street": "VR LOMBO DO GATO",
      "house": "15",
      "postcode": "9325-377",
      "city": "ESTREITO CÂMARA DE LOBOS",
      "lon": "-16.993997383641034",
      "lat": "32.67102103081831"
    },
    {
      "id": "pt.ine.add.MAD.5518",
      "street": "2 IMPASSE DA VEREDA DA ACHADA DO FORO",
      "house": "1",
      "postcode": "9325-193",
      "city": "JARDIM DA SERRA",
      "lon": "-16.989114381268905",
      "lat": "32.67825929628689"
    },
    {
      "id": "pt.ine.add.MAD.6231",
      "street": "VR LOMBO DO GATO",
      "house": "13",
      "postcode": "9325-377",
      "city": "ESTREITO CÂMARA DE LOBOS",
      "lon": "-16.993784605460696",
      "lat": "32.67104245011812"
    },
    {
      "id": "pt.ine.add.MAD.6232",
      "street": "R PADRE ANTÓNIO SOUSA DA COSTA",
      "house": "81",
      "postcode": "9325-370",
      "city": "ESTREITO CÂMARA DE LOBOS",
      "lon": "-16.993466083310942",
      "lat": "32.67062364023071"
    },
    {
      "id": "pt.ine.add.MAD.6233",
      "street": "TV N 3 DA RUA PADRE ANTÓNIO SOUSA DA COSTA",
      "house": "20",
      "postcode": "9325-370",
      "city": "ESTREITO CÂMARA DE LOBOS",
      "lon": "-16.992770549107505",
      "lat": "32.66955246434428"
    },
    {
      "id": "pt.ine.add.MAD.6234",
      "street": "CAM VELHO DA IGREJA",
      "house": "16",
      "postcode": "9325-374",
      "city": "ESTREITO CÂMARA DE LOBOS",
      "lon": "-16.990065206963404",
      "lat": "32.66824262707949"
    },
    {
      "id": "pt.ine.add.MAD.6235",
      "street": "CAM VELHO DA IGREJA",
      "house": "38",
      "postcode": "9325-374",
      "city": "ESTREITO CÂMARA DE LOBOS",
      "lon": "-16.992664509876857",
      "lat": "32.66813823451415"
    },
    {
      "id": "pt.ine.add.MAD.6975",
      "street": "ESTR RIBEIRA GARCIA",
      "house": "62",
      "postcode": "9325-373",
      "city": "ESTREITO CÂMARA DE LOBOS",
      "lon": "-16.993962190475198",
      "lat": "32.6756751640766"
    },
    {
      "id": "pt.ine.add.MAD.7003",
      "street": "EM GARACHICO",
      "house": "53",
      "postcode": "9325-363",
      "city": "ESTREITO CÂMARA DE LOBOS",
      "lon": "-16.988910331185036",
      "lat": "32.6704975483625"
    },
    {
      "id": "pt.ine.add.MAD.7004",
      "street": "IMP GARACHICO",
      "house": "8",
      "postcode": "9325-363",
      "city": "ESTREITO CÂMARA DE LOBOS",
      "lon": "-16.988852771529025",
      "lat": "32.670787055196726"
    },
    {
      "id": "pt.ine.add.MAD.7742",
      "street": "ESTR RIBEIRA GARCIA",
      "house": "64",
      "postcode": "9325-373",
      "city": "ESTREITO CÂMARA DE LOBOS",
      "lon": "-16.994642029607558",
      "lat": "32.67507814902407"
    },
    {
      "id": "pt.ine.add.MAD.7743",
      "street": "ESTR RIBEIRA GARCIA",
      "house": "54",
      "postcode": "9325-373",
      "city": "ESTREITO CÂMARA DE LOBOS",
      "lon": "-16.994453967772394",
      "lat": "32.67525249197245"
    },
    {
      "id": "pt.ine.add.MAD.7744",
      "street": "ESTR RIBEIRA GARCIA",
      "house": "64",
      "postcode": "9325-378",
      "city": "ESTREITO CÂMARA DE LOBOS",
      "lon": "-16.994067743664207",
      "lat": "32.6761063764647"
    },
    {
      "id": "pt.ine.add.MAD.7778",
      "street": "R PADRE ANTONIO SOUSA COSTA",
      "house": "10",
      "postcode": "9325-363",
      "city": "ESTREITO CÂMARA DE LOBOS",
      "lon": "-16.9878722227062",
      "lat": "32.67032461377668"
    },
    {
      "id": "pt.ine.add.MAD.7779",
      "street": "ESTR JOÃO GONÇALVES ZARCO",
      "house": "718",
      "postcode": "9325-087",
      "city": "ESTREITO CÂMARA DE LOBOS",
      "lon": "-16.98689367975003",
      "lat": "32.66995231839479"
    },
    {
      "id": "pt.ine.add.MAD.7780",
      "street": "ESTR JOÃO GONÇALVES ZARCO",
      "house": "718",
      "postcode": "9325-087",
      "city": "ESTREITO CÂMARA DE LOBOS",
      "lon": "-16.98689367975003",
      "lat": "32.66995231839479"
    },
    {
      "id": "pt.ine.add.MAD.7781",
      "street": "VR ROSAL",
      "house": "718 A",
      "postcode": "9325-368",
      "city": "ESTREITO CÂMARA DE LOBOS",
      "lon": "-16.98787297105856",
      "lat": "32.66939568896684"
    },
    {
      "id": "pt.ine.add.MAD.7782",
      "street": "IMP ROSAL",
      "house": "14",
      "postcode": "9325-363",
      "city": "ESTREITO CÂMARA DE LOBOS",
      "lon": "-16.988692827814464",
      "lat": "32.669824604040414"
    },
    {
      "id": "pt.ine.add.MAD.7783",
      "street": "EM GARACHICO",
      "house": "32",
      "postcode": "9325-363",
      "city": "ESTREITO CÂMARA DE LOBOS",
      "lon": "-16.9905715803108",
      "lat": "32.66992106493676"
    },
    {
      "id": "pt.ine.add.MAD.7784",
      "street": "IMP ROSAL",
      "house": "8",
      "postcode": "9325-363",
      "city": "ESTREITO CÂMARA DE LOBOS",
      "lon": "-16.98951395726979",
      "lat": "32.66982962064643"
    },
    {
      "id": "pt.ine.add.MAD.7785",
      "street": "IMP ROSAL",
      "house": "1",
      "postcode": "9325-363",
      "city": "ESTREITO CÂMARA DE LOBOS",
      "lon": "-16.98770949499432",
      "lat": "32.66923594513325"
    },
    {
      "id": "pt.ine.add.MAD.7786",
      "street": "CAM CASA DA VELHA",
      "house": "2",
      "postcode": "9325-363",
      "city": "ESTREITO CÂMARA DE LOBOS",
      "lon": "-16.98718425738043",
      "lat": "32.667666015985375"
    },
    {
      "id": "pt.ine.add.MAD.7787",
      "street": "CAM CASA DA VELHA",
      "house": "10",
      "postcode": "9325-363",
      "city": "ESTREITO CÂMARA DE LOBOS",
      "lon": "-16.987192042483734",
      "lat": "32.668017617143015"
    },
    {
      "id": "pt.ine.add.MAD.7788",
      "street": "CAM CASA DA VELHA",
      "house": "16",
      "postcode": "9325-368",
      "city": "ESTREITO CÂMARA DE LOBOS",
      "lon": "-16.987791321572498",
      "lat": "32.66811634533747"
    },
    {
      "id": "pt.ine.add.MAD.7789",
      "street": "CAM VELHO DA IGREJA",
      "house": "4",
      "postcode": "9325-374",
      "city": "ESTREITO CÂMARA DE LOBOS",
      "lon": "-16.98871175946526",
      "lat": "32.668273109617274"
    },
    {
      "id": "pt.ine.add.MAD.7790",
      "street": "EM GARACHICO",
      "house": "4",
      "postcode": "9325-363",
      "city": "ESTREITO CÂMARA DE LOBOS",
      "lon": "-16.988928928312838",
      "lat": "32.66845003801363"
    },
    {
      "id": "pt.ine.add.MAD.7791",
      "street": "EM GARACHICO",
      "house": "4",
      "postcode": "9325-363",
      "city": "ESTREITO CÂMARA DE LOBOS",
      "lon": "-16.988928928312838",
      "lat": "32.66845003801363"
    },
    {
      "id": "pt.ine.add.MAD.8559",
      "street": "R PROF JOAO DANTAS",
      "house": "14",
      "postcode": "9325-055",
      "city": "ESTREITO CÂMARA DE LOBOS",
      "lon": "-16.989692074004598",
      "lat": "32.677862335299885"
    },
    {
      "id": "pt.ine.add.MAD.8560",
      "street": "1 IMPASSE DA TRAVESSA DOS DANTAS",
      "house": "7",
      "postcode": "9325-046",
      "city": "ESTREITO CÂMARA DE LOBOS",
      "lon": "-16.989399262031938",
      "lat": "32.67764151603406"
    },
    {
      "id": "pt.ine.add.MAD.8561",
      "street": "TV DANTAS",
      "house": "19",
      "postcode": "9325-046",
      "city": "ESTREITO CÂMARA DE LOBOS",
      "lon": "-16.98911058335025",
      "lat": "32.6780880038979"
    },
    {
      "id": "pt.ine.add.MAD.8562",
      "street": "TV DANTAS",
      "house": "17",
      "postcode": "9325-046",
      "city": "ESTREITO CÂMARA DE LOBOS",
      "lon": "-16.9891506239748",
      "lat": "32.67797012761945"
    },
    {
      "id": "pt.ine.add.MAD.8563",
      "street": "TV DANTAS",
      "house": "7",
      "postcode": "9325-046",
      "city": "ESTREITO CÂMARA DE LOBOS",
      "lon": "-16.989134767026503",
      "lat": "32.67773589655609"
    },
    {
      "id": "pt.ine.add.MAD.8564",
      "street": "3 IMPASSE DA ESTRADA PROF JOÃO DANTAS",
      "house": "",
      "postcode": "9325-046",
      "city": "ESTREITO CÂMARA DE LOBOS",
      "lon": "-16.98959419986964",
      "lat": "32.677295718703654"
    },
    {
      "id": "pt.ine.add.MAD.8587",
      "street": "R PADRE ANTÓNIO SOUSA DA COSTA",
      "house": "57",
      "postcode": "9325-370",
      "city": "ESTREITO CÂMARA DE LOBOS",
      "lon": "-16.991311353138688",
      "lat": "32.66914274558596"
    },
    {
      "id": "pt.ine.add.MAD.8588",
      "street": "R PADRE ANTÓNIO SOUSA DA COSTA",
      "house": "3",
      "postcode": "9325-370",
      "city": "ESTREITO CÂMARA DE LOBOS",
      "lon": "-16.991157530268183",
      "lat": "32.66893776030813"
    },
    {
      "id": "pt.ine.add.MAD.8589",
      "street": "R PADRE ANTÓNIO SOUSA DA COSTA",
      "house": "49",
      "postcode": "9325-370",
      "city": "ESTREITO CÂMARA DE LOBOS",
      "lon": "-16.990873745014255",
      "lat": "32.66912263584634"
    },
    {
      "id": "pt.ine.add.MAD.8590",
      "street": "R PADRE ANTÓNIO SOUSA DA COSTA",
      "house": "47",
      "postcode": "9325-370",
      "city": "ESTREITO CÂMARA DE LOBOS",
      "lon": "-16.99068894691043",
      "lat": "32.668963234400536"
    },
    {
      "id": "pt.ine.add.MAD.8591",
      "street": "R PADRE ANTÓNIO SOUSA DA COSTA",
      "house": "39",
      "postcode": "9325-370",
      "city": "ESTREITO CÂMARA DE LOBOS",
      "lon": "-16.99006054563713",
      "lat": "32.66851325810295"
    },
    {
      "id": "pt.ine.add.MAD.8592",
      "street": "R PADRE ANTÓNIO SOUSA DA COSTA",
      "house": "27",
      "postcode": "9325-370",
      "city": "ESTREITO CÂMARA DE LOBOS",
      "lon": "-16.989266608461776",
      "lat": "32.66829136789285"
    },
    {
      "id": "pt.ine.add.MAD.11674",
      "street": "CAM VELHO FORO CCI",
      "house": "CCI 203",
      "postcode": "9325-055",
      "city": "ESTREITO CÂMARA DE LOBOS",
      "lon": "-16.98893370098156",
      "lat": "32.67443829142471"
    },
    {
      "id": "pt.ine.add.MAD.11675",
      "street": "VR FIGUEIRA DE LAMEIRO CAMINHO VELHO DO FORO",
      "house": "222",
      "postcode": "9325-058",
      "city": "ESTREITO CÂMARA DE LOBOS",
      "lon": "-16.98889612734594",
      "lat": "32.67418636740994"
    },
    {
      "id": "pt.ine.add.MAD.11676",
      "street": "CAM ESTALEIRO",
      "house": "44",
      "postcode": "9325-056",
      "city": "ESTREITO CÂMARA DE LOBOS",
      "lon": "-16.987344330875747",
      "lat": "32.67393138795036"
    },
    {
      "id": "pt.ine.add.MAD.11677",
      "street": "CAM ESTALEIRO",
      "house": "36",
      "postcode": "9325-056",
      "city": "ESTREITO CÂMARA DE LOBOS",
      "lon": "-16.987313950313258",
      "lat": "32.67400401783935"
    },
    {
      "id": "pt.ine.add.MAD.11678",
      "street": "CAM ESTALEIRO",
      "house": "45",
      "postcode": "9325-056",
      "city": "ESTREITO CÂMARA DE LOBOS",
      "lon": "-16.987128748409603",
      "lat": "32.67382658059571"
    },
    {
      "id": "pt.ine.add.MAD.11679",
      "street": "CAM ESTALEIRO",
      "house": "38",
      "postcode": "9325-056",
      "city": "ESTREITO CÂMARA DE LOBOS",
      "lon": "-16.98719729660856",
      "lat": "32.6740329217096"
    },
    {
      "id": "pt.ine.add.MAD.11680",
      "street": "CAM ESTALEIRO",
      "house": "34",
      "postcode": "9325-056",
      "city": "ESTREITO CÂMARA DE LOBOS",
      "lon": "-16.987027745398642",
      "lat": "32.67408070059058"
    },
    {
      "id": "pt.ine.add.MAD.11681",
      "street": "CAM ESTALEIRO",
      "house": "41",
      "postcode": "9325-056",
      "city": "ESTREITO CÂMARA DE LOBOS",
      "lon": "-16.98686246510524",
      "lat": "32.673839817372524"
    },
    {
      "id": "pt.ine.add.MAD.11682",
      "street": "CAM ESTALEIRO",
      "house": "39",
      "postcode": "9325-056",
      "city": "ESTREITO CÂMARA DE LOBOS",
      "lon": "-16.98681783156082",
      "lat": "32.67375033866177"
    },
    {
      "id": "pt.ine.add.MAD.12452",
      "street": "3 IMPASSE DO CAMINHO DO ESTALEIRO",
      "house": "9",
      "postcode": "9325-056",
      "city": "ESTREITO CÂMARA DE LOBOS",
      "lon": "-16.986549552410704",
      "lat": "32.673673420677986"
    },
    {
      "id": "pt.ine.add.MAD.12453",
      "street": "3 IMPASSE DO CAMINHO DO ESTALEIRO",
      "house": "25",
      "postcode": "9325-056",
      "city": "ESTREITO CÂMARA DE LOBOS",
      "lon": "-16.98729358363555",
      "lat": "32.67308444648188"
    },
    {
      "id": "pt.ine.add.MAD.12454",
      "street": "3 IMPASSE DO CAMINHO DO ESTALEIRO",
      "house": "17",
      "postcode": "9325-056",
      "city": "ESTREITO CÂMARA DE LOBOS",
      "lon": "-16.986688003627943",
      "lat": "32.67318422507807"
    },
    {
      "id": "pt.ine.add.MAD.12456",
      "street": "ESTR JOÃO GONÇALVES ZARCO",
      "house": "708",
      "postcode": "9325-087",
      "city": "ESTREITO CÂMARA DE LOBOS",
      "lon": "-16.986384883091553",
      "lat": "32.67105162389178"
    },
    {
      "id": "pt.ine.add.MAD.12457",
      "street": "ESTR JOÃO GONÇALVES ZARCO CASA TROPICAL",
      "house": "716",
      "postcode": "9325-087",
      "city": "ESTREITO CÂMARA DE LOBOS",
      "lon": "-16.98664205831487",
      "lat": "32.6701456937129"
    },
    {
      "id": "pt.ine.add.MAD.12458",
      "street": "VR JOSE PINTO",
      "house": "3",
      "postcode": "9325-363",
      "city": "ESTREITO CÂMARA DE LOBOS",
      "lon": "-16.987706273226216",
      "lat": "32.670534670650866"
    },
    {
      "id": "pt.ine.add.MAD.12459",
      "street": "EM GARACHICO",
      "house": "46",
      "postcode": "9325-363",
      "city": "ESTREITO CÂMARA DE LOBOS",
      "lon": "-16.989146290863616",
      "lat": "32.67152192363229"
    },
    {
      "id": "pt.ine.add.MAD.12461",
      "street": "CAM ESCOLA DO GARACHICO",
      "house": "14",
      "postcode": "9325-060",
      "city": "ESTREITO CÂMARA DE LOBOS",
      "lon": "-16.99031472326616",
      "lat": "32.67180100224956"
    },
    {
      "id": "pt.ine.add.MAD.12478",
      "street": "ESTR JOÃO GONÇALVES ZARCO",
      "house": "696",
      "postcode": "9325-087",
      "city": "ESTREITO CÂMARA DE LOBOS",
      "lon": "-16.98470924433533",
      "lat": "32.67194393067629"
    },
    {
      "id": "pt.ine.add.MAD.12479",
      "street": "ESTR JOÃO GONÇALVES ZARCO",
      "house": "696",
      "postcode": "9325-087",
      "city": "ESTREITO CÂMARA DE LOBOS",
      "lon": "-16.98470924433533",
      "lat": "32.67194393067629"
    },
    {
      "id": "pt.ine.add.MAD.12480",
      "street": "ESTR JOÃO GONÇALVES ZARCO",
      "house": "696",
      "postcode": "9325-087",
      "city": "ESTREITO CÂMARA DE LOBOS",
      "lon": "-16.98470924433533",
      "lat": "32.67194393067629"
    },
    {
      "id": "pt.ine.add.MAD.54457",
      "street": "TV DANTAS",
      "house": "11",
      "postcode": "9325-046",
      "city": "ESTREITO CÂMARA DE LOBOS",
      "lon": "-16.98912810504209",
      "lat": "32.67791637339638"
    },
    {
      "id": "pt.ine.add.MAD.54633",
      "street": "CAM FRANCELHEIRA",
      "house": "17",
      "postcode": "9325-060",
      "city": "ESTREITO CÂMARA DE LOBOS",
      "lon": "-16.992933256804328",
      "lat": "32.67351804523571"
    },
    {
      "id": "pt.ine.add.MAD.54634",
      "street": "R PADRE ANTONIO SOUSA COSTA",
      "house": "6",
      "postcode": "9325-331",
      "city": "ESTREITO CÂMARA DE LOBOS",
      "lon": "-16.991668115031818",
      "lat": "32.67272646951256"
    },
    {
      "id": "pt.ine.add.MAD.54635",
      "street": "VR LOMBINHO DO CORREGO",
      "house": "11",
      "postcode": "9325-331",
      "city": "ESTREITO CÂMARA DE LOBOS",
      "lon": "-16.99302327525132",
      "lat": "32.672290091254816"
    },
    {
      "id": "pt.ine.add.MAD.54636",
      "street": "CAM ESCOLA DO GARACHICO",
      "house": "17A",
      "postcode": "9325-060",
      "city": "ESTREITO CÂMARA DE LOBOS",
      "lon": "-16.99068413109816",
      "lat": "32.67211079001672"
    },
    {
      "id": "pt.ine.add.MAD.54637",
      "street": "R PADRE ANTÓNIO SOUSA DA COSTA",
      "house": "91",
      "postcode": "9325-370",
      "city": "ESTREITO CÂMARA DE LOBOS",
      "lon": "-16.992723964367066",
      "lat": "32.67081580289184"
    },
    {
      "id": "pt.ine.add.MAD.54984",
      "street": "CAM QUINTA DE STO ANTÓNIO",
      "house": "17",
      "postcode": "9325-082",
      "city": "ESTREITO CÂMARA DE LOBOS",
      "lon": "-16.98265213218414",
      "lat": "32.67246346550789"
    },
    {
      "id": "pt.ine.add.MAD.59384",
      "street": "3 IMPASSE DA ESTRADA PROF JOÃO DANTAS",
      "house": "15",
      "postcode": "9325-046",
      "city": "ESTREITO CÂMARA DE LOBOS",
      "lon": "-16.989667144566923",
      "lat": "32.67625742724756"
    },
    {
      "id": "pt.ine.add.MAD.59385",
      "street": "ESTR PROF JOÃO DANTAS",
      "house": "26",
      "postcode": "9325-046",
      "city": "ESTREITO CÂMARA DE LOBOS",
      "lon": "-16.988955483212543",
      "lat": "32.67686393934689"
    },
    {
      "id": "pt.ine.add.MAD.59386",
      "street": "IMP GARACHICO",
      "house": "13",
      "postcode": "9325-363",
      "city": "ESTREITO CÂMARA DE LOBOS",
      "lon": "-16.98853440159415",
      "lat": "32.67085523256712"
    },
    {
      "id": "pt.ine.add.MAD.59388",
      "street": "BC CORREGO",
      "house": "4",
      "postcode": "9325-331",
      "city": "ESTREITO CÂMARA DE LOBOS",
      "lon": "-16.9930279272116",
      "lat": "32.67201946061329"
    },
    {
      "id": "pt.ine.add.MAD.59400",
      "street": "ESTR JOÃO GONÇALVES ZARCO",
      "house": "680",
      "postcode": "9325-087",
      "city": "ESTREITO CÂMARA DE LOBOS",
      "lon": "-16.98313548039653",
      "lat": "32.67117518628774"
    },
    {
      "id": "pt.ine.add.MAD.59786",
      "street": "IMP ROSAL",
      "house": "16",
      "postcode": "9325-363",
      "city": "ESTREITO CÂMARA DE LOBOS",
      "lon": "-16.988846047443072",
      "lat": "32.670002546267646"
    },
    {
      "id": "pt.ine.add.MAD.59787",
      "street": "CAM CASA DA VELHA",
      "house": "8",
      "postcode": "9325-363",
      "city": "ESTREITO CÂMARA DE LOBOS",
      "lon": "-16.98713595475846",
      "lat": "32.667892245554505"
    },
    {
      "id": "pt.ine.add.MAD.59788",
      "street": "R PADRE ANTÓNIO SOUSA DA COSTA",
      "house": "71",
      "postcode": "9325-370",
      "city": "ESTREITO CÂMARA DE LOBOS",
      "lon": "-16.992624529126978",
      "lat": "32.669699080926826"
    },
    {
      "id": "pt.ine.add.MAD.61104",
      "street": "CAM QUINTA DE SANTO ANTÓNIO",
      "house": "11",
      "postcode": "9325-082",
      "city": "ESTREITO CÂMARA DE LOBOS",
      "lon": "-16.98261756511046",
      "lat": "32.67234677031702"
    },
    {
      "id": "pt.ine.add.MAD.61107",
      "street": "VR ROSAL",
      "house": "3",
      "postcode": "9325-368",
      "city": "ESTREITO CÂMARA DE LOBOS",
      "lon": "-16.98805756559687",
      "lat": "32.66954607930475"
    },
    {
      "id": "pt.ine.add.MAD.61289",
      "street": "R PADRE ANTÓNIO SOUSA DA COSTA",
      "house": "67",
      "postcode": "9325-370",
      "city": "ESTREITO CÂMARA DE LOBOS",
      "lon": "-16.992154741731248",
      "lat": "32.66967046833046"
    },
    {
      "id": "pt.ine.add.MAD.61290",
      "street": "CAM VELHO DA IGREJA",
      "house": "14",
      "postcode": "9325-374",
      "city": "ESTREITO CÂMARA DE LOBOS",
      "lon": "-16.989724730248643",
      "lat": "32.668275083694965"
    },
    {
      "id": "pt.ine.add.MAD.63308",
      "street": "ESTR RIBEIRA GARCIA",
      "house": "56",
      "postcode": "9325-373",
      "city": "ESTREITO CÂMARA DE LOBOS",
      "lon": "-16.99441493723893",
      "lat": "32.67541544649441"
    },
    {
      "id": "pt.ine.add.MAD.63309",
      "street": "1 IMPASSE DA TRAVESSA DOS DANTAS",
      "house": "12",
      "postcode": "9325-046",
      "city": "ESTREITO CÂMARA DE LOBOS",
      "lon": "-16.989650434599103",
      "lat": "32.6779080886336"
    },
    {
      "id": "pt.ine.add.MAD.63310",
      "street": "TV DANTAS",
      "house": "13",
      "postcode": "9325-046",
      "city": "ESTREITO CÂMARA DE LOBOS",
      "lon": "-16.989257022019977",
      "lat": "32.67795942161798"
    },
    {
      "id": "pt.ine.add.MAD.63472",
      "street": "VR LOMBINHO DO CORREGO",
      "house": "15",
      "postcode": "9325-331",
      "city": "ESTREITO CÂMARA DE LOBOS",
      "lon": "-16.9936401005486",
      "lat": "32.67221715925929"
    },
    {
      "id": "pt.ine.add.MAD.63473",
      "street": "R PADRE ANTÓNIO SOUSA DA COSTA",
      "house": "95",
      "postcode": "9325-370",
      "city": "ESTREITO CÂMARA DE LOBOS",
      "lon": "-16.99318024950703",
      "lat": "32.671196351542456"
    },
    {
      "id": "pt.ine.add.MAD.63831",
      "street": "R FUNDACAO D JACINTA ORNELAS",
      "house": "4",
      "postcode": "9325-030",
      "city": "ESTREITO CÂMARA DE LOBOS",
      "lon": "-16.98141427279652",
      "lat": "32.67241989497987"
    },
    {
      "id": "pt.ine.add.MAD.63836",
      "street": "R PADRE ANTÓNIO SOUSA DA COSTA",
      "house": "85",
      "postcode": "9325-370",
      "city": "ESTREITO CÂMARA DE LOBOS",
      "lon": "-16.993293137955675",
      "lat": "32.67051816582821"
    },
    {
      "id": "pt.ine.add.MAD.65678",
      "street": "R PADRE ANTÓNIO SOUSA DA COSTA",
      "house": "74",
      "postcode": "9325-370",
      "city": "ESTREITO CÂMARA DE LOBOS",
      "lon": "-16.991132412919903",
      "lat": "32.67213073064806"
    },
    {
      "id": "pt.ine.add.MAD.65679",
      "street": "CAM ESCOLA DO GARACHICO",
      "house": "20",
      "postcode": "9325-060",
      "city": "ESTREITO CÂMARA DE LOBOS",
      "lon": "-16.99087545268338",
      "lat": "32.671602714065116"
    },
    {
      "id": "pt.ine.add.MAD.66031",
      "street": "ESTR JOÃO GONÇALVES ZARCO",
      "house": "662A",
      "postcode": "9325-087",
      "city": "ESTREITO CÂMARA DE LOBOS",
      "lon": "-16.982474813143803",
      "lat": "32.67215963632191"
    },
    {
      "id": "pt.ine.add.MAD.66032",
      "street": "ESTR JOÃO GONÇALVES ZARCO",
      "house": "676",
      "postcode": "9325-087",
      "city": "ESTREITO CÂMARA DE LOBOS",
      "lon": "-16.982660206244883",
      "lat": "32.67138110808802"
    },
    {
      "id": "pt.ine.add.MAD.66033",
      "street": "ESTR JOÃO GONÇALVES ZARCO",
      "house": "678",
      "postcode": "9325-087",
      "city": "ESTREITO CÂMARA DE LOBOS",
      "lon": "-16.982764605582066",
      "lat": "32.67128025352099"
    },
    {
      "id": "pt.ine.add.MAD.68734",
      "street": "VR CORREGO",
      "house": "20",
      "postcode": "9325-042",
      "city": "ESTREITO CÂMARA DE LOBOS",
      "lon": "-16.993869349996356",
      "lat": "32.67245701643377"
    },
    {
      "id": "pt.ine.add.MAD.73998",
      "street": "IMP GARACHICO",
      "house": "5",
      "postcode": "9325-363",
      "city": "ESTREITO CÂMARA DE LOBOS",
      "lon": "-16.989323763540945",
      "lat": "32.670869772364306"
    },
    {
      "id": "pt.ine.add.MAD.73999",
      "street": "CAM ESCOLA DO GARACHICO",
      "house": "17",
      "postcode": "9325-060",
      "city": "ESTREITO CÂMARA DE LOBOS",
      "lon": "-16.99056754075364",
      "lat": "32.67166171207762"
    },
    {
      "id": "pt.ine.add.MAD.74459",
      "street": "VR LEVADA DO NORTE",
      "house": "374",
      "postcode": "9325-090",
      "city": "ESTREITO CÂMARA DE LOBOS",
      "lon": "-16.99293027830584",
      "lat": "32.66906292446075"
    },
    {
      "id": "pt.ine.add.MAD.74461",
      "street": "R PADRE ANTONIO SOUSA COSTA",
      "house": "47 A",
      "postcode": "9325-370",
      "city": "ESTREITO CÂMARA DE LOBOS",
      "lon": "-16.990846027727134",
      "lat": "32.668834481607014"
    },
    {
      "id": "pt.ine.add.MAD.76131",
      "street": "2 IMPASSE DA VEREDA DA ACHADA DO FORO",
      "house": "3",
      "postcode": "9325-046",
      "city": "ESTREITO CÂMARA DE LOBOS",
      "lon": "-16.989367418331543",
      "lat": "32.67812902328122"
    },
    {
      "id": "pt.ine.add.MAD.76820",
      "street": "VR JOSE PINTO",
      "house": "20",
      "postcode": "9325-363",
      "city": "ESTREITO CÂMARA DE LOBOS",
      "lon": "-16.987035039562024",
      "lat": "32.670076339317255"
    },
    {
      "id": "pt.ine.add.MAD.76821",
      "street": "EM GARACHICO",
      "house": "30",
      "postcode": "9325-363",
      "city": "ESTREITO CÂMARA DE LOBOS",
      "lon": "-16.990634933350744",
      "lat": "32.669893003899176"
    },
    {
      "id": "pt.ine.add.MAD.77688",
      "street": "R PADRE ANTÓNIO SOUSA DA COSTA",
      "house": "121",
      "postcode": "9325-370",
      "city": "ESTREITO CÂMARA DE LOBOS",
      "lon": "-16.991489565061624",
      "lat": "32.67236856198633"
    },
    {
      "id": "pt.ine.add.MAD.77861",
      "street": "VR LOMBINHO DO CORREGO",
      "house": "23",
      "postcode": "9325-331",
      "city": "ESTREITO CÂMARA DE LOBOS",
      "lon": "-16.99412781374478",
      "lat": "32.67209216554832"
    },
    {
      "id": "pt.ine.add.MAD.78282",
      "street": "CAM DA QUINTA DE STO ANTÓNIO",
      "house": "4-6",
      "postcode": "9325-082",
      "city": "ESTREITO CÂMARA DE LOBOS",
      "lon": "-16.98239311822972",
      "lat": "32.673288250105735"
    },
    {
      "id": "pt.ine.add.MAD.82456",
      "street": "1 IMPASSE DA TRAVESSA DOS DANTAS",
      "house": "Z",
      "postcode": "9325-046",
      "city": "ESTREITO CÂMARA DE LOBOS",
      "lon": "-16.98911624592069",
      "lat": "32.67786245011488"
    },
    {
      "id": "pt.ine.add.MAD.82458",
      "street": "CAM FRANCELHEIRA",
      "house": "6",
      "postcode": "9325-060",
      "city": "ESTREITO CÂMARA DE LOBOS",
      "lon": "-16.992266778840367",
      "lat": "32.67327611308069"
    },
    {
      "id": "pt.ine.add.MAD.82459",
      "street": "R PADRE ANTÓNIO SOUSA DA COSTA",
      "house": "70",
      "postcode": "9325-370",
      "city": "ESTREITO CÂMARA DE LOBOS",
      "lon": "-16.99184336979455",
      "lat": "32.67197514620044"
    },
    {
      "id": "pt.ine.add.MAD.82462",
      "street": "ESTR JOÃO GONÇALVES ZARCO",
      "house": "688",
      "postcode": "9325-087",
      "city": "ESTREITO CÂMARA DE LOBOS",
      "lon": "-16.983505455555076",
      "lat": "32.670547054494"
    },
    {
      "id": "pt.ine.add.MAD.82465",
      "street": "VR JOSE PINTO",
      "house": "4",
      "postcode": "9325-363",
      "city": "ESTREITO CÂMARA DE LOBOS",
      "lon": "-16.988037298927576",
      "lat": "32.67055648053047"
    },
    {
      "id": "pt.ine.add.MAD.83912",
      "street": "3 IMPASSE DA ESTRADA PROF JOÃO DANTAS",
      "house": "S",
      "postcode": "9325-046",
      "city": "ESTREITO CÂMARA DE LOBOS",
      "lon": "-16.9891636793754",
      "lat": "32.67663517369675"
    },
    {
      "id": "pt.ine.add.MAD.83913",
      "street": "VR LOMBO DO GATO",
      "house": "34",
      "postcode": "9325-377",
      "city": "ESTREITO CÂMARA DE LOBOS",
      "lon": "-16.995398881933312",
      "lat": "32.671711210178884"
    },
    {
      "id": "pt.ine.add.MAD.83914",
      "street": "CAM FRANCELHEIRA",
      "house": "11B",
      "postcode": "9325-060",
      "city": "ESTREITO CÂMARA DE LOBOS",
      "lon": "-16.992628591570096",
      "lat": "32.67324331022721"
    },
    {
      "id": "pt.ine.add.MAD.83915",
      "street": "CAM ESCOLA DO GARACHICO",
      "house": "283",
      "postcode": "9325-060",
      "city": "ESTREITO CÂMARA DE LOBOS",
      "lon": "-16.991029879930842",
      "lat": "32.6718347456176"
    },
    {
      "id": "pt.ine.add.MAD.84314",
      "street": "ESTR JOÃO GONÇALVES ZARCO",
      "house": "690",
      "postcode": "9325-087",
      "city": "ESTREITO CÂMARA DE LOBOS",
      "lon": "-16.98373935456418",
      "lat": "32.670516300033654"
    },
    {
      "id": "pt.ine.add.MAD.84316",
      "street": "ESTR RIBEIRA GARCIA",
      "house": "16",
      "postcode": "9325-378",
      "city": "ESTREITO CÂMARA DE LOBOS",
      "lon": "-16.995400657203074",
      "lat": "32.66939341352214"
    },
    {
      "id": "pt.ine.add.MAD.86700",
      "street": "VR JOSE PINTO",
      "house": "102",
      "postcode": "9325-363",
      "city": "ESTREITO CÂMARA DE LOBOS",
      "lon": "-16.98666908321277",
      "lat": "32.670884788798574"
    },
    {
      "id": "pt.ine.add.MAD.86701",
      "street": "VR JOSE PINTO",
      "house": "1",
      "postcode": "9325-363",
      "city": "ESTREITO CÂMARA DE LOBOS",
      "lon": "-16.987859092837276",
      "lat": "32.67069458328049"
    },
    {
      "id": "pt.ine.add.MAD.86703",
      "street": "TV LOMBO",
      "house": "12",
      "postcode": "9325-331",
      "city": "ESTREITO CÂMARA DE LOBOS",
      "lon": "-16.99209227958597",
      "lat": "32.67262052973801"
    },
    {
      "id": "pt.ine.add.MAD.86704",
      "street": "CAM ESCOLA DO GARACHICO",
      "house": "13",
      "postcode": "9325-060",
      "city": "ESTREITO CÂMARA DE LOBOS",
      "lon": "-16.990817098849245",
      "lat": "32.67185615998098"
    },
    {
      "id": "pt.ine.add.MAD.86705",
      "street": "TV LUIS LIBERATO SOUSA",
      "house": "30",
      "postcode": "9325-373",
      "city": "ESTREITO CÂMARA DE LOBOS",
      "lon": "-16.99490566282409",
      "lat": "32.67830259636746"
    },
    {
      "id": "pt.ine.add.MAD.86943",
      "street": "ESTR JOÃO GONÇALVES ZARCO",
      "house": "664",
      "postcode": "9325-087",
      "city": "ESTREITO CÂMARA DE LOBOS",
      "lon": "-16.982513864475116",
      "lat": "32.67199668465415"
    },
    {
      "id": "pt.ine.add.MAD.86945",
      "street": "VR LEVADA NORTE",
      "house": "321",
      "postcode": "9325-090",
      "city": "ESTREITO CÂMARA DE LOBOS",
      "lon": "-16.99325945085122",
      "lat": "32.66948156675272"
    },
    {
      "id": "pt.ine.add.MAD.87084",
      "street": "EM DO GARACHICO",
      "house": "22",
      "postcode": "9325-363",
      "city": "ESTREITO CÂMARA DE LOBOS",
      "lon": "-16.99010045533386",
      "lat": "32.66935135182344"
    },
    {
      "id": "pt.ine.add.MAD.87085",
      "street": "R PADRE ANTÓNIO SOUSA DA COSTA",
      "house": "47 B",
      "postcode": "9325-370",
      "city": "ESTREITO CÂMARA DE LOBOS",
      "lon": "-16.990760158175693",
      "lat": "32.66880878867017"
    },
    {
      "id": "pt.ine.add.MAD.87086",
      "street": "R PADRE ANTÓNIO SOUSA DA COSTA",
      "house": "",
      "postcode": "9325-370",
      "city": "ESTREITO CÂMARA DE LOBOS",
      "lon": "-16.989460062859937",
      "lat": "32.66836044855291"
    },
    {
      "id": "pt.ine.add.MAD.91254",
      "street": "VR LEVADA DO NORTE",
      "house": "214",
      "postcode": "9325-090",
      "city": "ESTREITO CÂMARA DE LOBOS",
      "lon": "-16.98895608405375",
      "lat": "32.675448015604154"
    },
    {
      "id": "pt.ine.add.MAD.91656",
      "street": "ESTR JOÃO GONÇALVES ZARCO",
      "house": "686",
      "postcode": "9325-087",
      "city": "ESTREITO CÂMARA DE LOBOS",
      "lon": "-16.983370077284835",
      "lat": "32.6706934923803"
    },
    {
      "id": "pt.ine.add.MAD.91659",
      "street": "VR LOMBO DO GATO",
      "house": "3",
      "postcode": "9325-377",
      "city": "ESTREITO CÂMARA DE LOBOS",
      "lon": "-16.993214474954367",
      "lat": "32.67081702824306"
    },
    {
      "id": "pt.ine.add.MAD.91661",
      "street": "VR RIBEIRO",
      "house": "4",
      "postcode": "9325-368",
      "city": "ESTREITO CÂMARA DE LOBOS",
      "lon": "-16.987530246383894",
      "lat": "32.66836398358184"
    },
    {
      "id": "pt.ine.add.MAD.93109",
      "street": "ESTR JOÃO GONÇALVES ZARCO",
      "house": "",
      "postcode": "9325-087",
      "city": "ESTREITO CÂMARA DE LOBOS",
      "lon": "-16.986424525574055",
      "lat": "32.67091571751434"
    },
    {
      "id": "pt.ine.add.MAD.93110",
      "street": "VR JOSE PINTO",
      "house": "5",
      "postcode": "9325-363",
      "city": "ESTREITO CÂMARA DE LOBOS",
      "lon": "-16.98755465221168",
      "lat": "32.67042885026176"
    },
    {
      "id": "pt.ine.add.MAD.93111",
      "street": "ESTR RIBEIRA GARCIA",
      "house": "42",
      "postcode": "9325-378",
      "city": "ESTREITO CÂMARA DE LOBOS",
      "lon": "-16.99357060784097",
      "lat": "32.67340871305978"
    },
    {
      "id": "pt.ine.add.MAD.93112",
      "street": "VR LOMBO DO GATO",
      "house": "38",
      "postcode": "9325-377",
      "city": "ESTREITO CÂMARA DE LOBOS",
      "lon": "-16.995517734928743",
      "lat": "32.67178146788006"
    },
    {
      "id": "pt.ine.add.MAD.93113",
      "street": "VR FURNEIRA",
      "house": "48",
      "postcode": "9325-371",
      "city": "ESTREITO CÂMARA DE LOBOS",
      "lon": "-16.994207035385983",
      "lat": "32.67229833285674"
    },
    {
      "id": "pt.ine.add.MAD.93304",
      "street": "ESTR JOÃO GONÇALVES ZARCO",
      "house": "660",
      "postcode": "9325-087",
      "city": "ESTREITO CÂMARA DE LOBOS",
      "lon": "-16.982231739469775",
      "lat": "32.67274066700551"
    },
    {
      "id": "pt.ine.add.MAD.94247",
      "street": "TV DANTAS",
      "house": "19",
      "postcode": "9325-193",
      "city": "JARDIM DA SERRA",
      "lon": "-16.989048823211775",
      "lat": "32.67818818748743"
    },
    {
      "id": "pt.ine.add.MAD.96063",
      "street": "CAM ESTALEIRO",
      "house": "32",
      "postcode": "9325-056",
      "city": "ESTREITO CÂMARA DE LOBOS",
      "lon": "-16.987113818806623",
      "lat": "32.67411541131517"
    },
    {
      "id": "pt.ine.add.MAD.96074",
      "street": "TV LOMBO",
      "house": "7",
      "postcode": "9325-370",
      "city": "ESTREITO CÂMARA DE LOBOS",
      "lon": "-16.991685031000642",
      "lat": "32.6725277925971"
    },
    {
      "id": "pt.ine.add.MAD.96463",
      "street": "CAM CASA DA VELHA",
      "house": "12",
      "postcode": "9325-363",
      "city": "ESTREITO CÂMARA DE LOBOS",
      "lon": "-16.987460382327903",
      "lat": "32.667616548705226"
    },
    {
      "id": "pt.ine.add.MAD.96918",
      "street": "IMP GARACHICO",
      "house": "1",
      "postcode": "9325-363",
      "city": "ESTREITO CÂMARA DE LOBOS",
      "lon": "-16.989359404300124",
      "lat": "32.67055355726216"
    },
    {
      "id": "pt.ine.add.MAD.97164",
      "street": "ESTR RIBEIRA GARCIA",
      "house": "64",
      "postcode": "9325-373",
      "city": "ESTREITO CÂMARA DE LOBOS",
      "lon": "-16.994167926868855",
      "lat": "32.67581619010198"
    },
    {
      "id": "pt.ine.add.MAD.97272",
      "street": "BC CORREGO",
      "house": "2",
      "postcode": "9325-331",
      "city": "ESTREITO CÂMARA DE LOBOS",
      "lon": "-16.99299434815732",
      "lat": "32.67194784567409"
    },
    {
      "id": "pt.ine.add.MAD.97296",
      "street": "CAM ESTALEIRO",
      "house": "40",
      "postcode": "9325-056",
      "city": "ESTREITO CÂMARA DE LOBOS",
      "lon": "-16.987142003299926",
      "lat": "32.67394361200546"
    },
    {
      "id": "pt.ine.add.MAD.97680",
      "street": "ESTR JOÃO GONÇALVES ZARCO",
      "house": "708",
      "postcode": "9325-087",
      "city": "ESTREITO CÂMARA DE LOBOS",
      "lon": "-16.986268232829254",
      "lat": "32.671080526773586"
    },
    {
      "id": "pt.ine.add.MAD.97823",
      "street": "R PADRE ANTÓNIO SOUSA DA COSTA",
      "house": "53",
      "postcode": "9325-370",
      "city": "ESTREITO CÂMARA DE LOBOS",
      "lon": "-16.991162330894305",
      "lat": "32.66915412968702"
    },
    {
      "id": "pt.ine.add.MAD.99248",
      "street": "ESTR RIBEIRA GARCIA",
      "house": "28",
      "postcode": "9325-378",
      "city": "ESTREITO CÂMARA DE LOBOS",
      "lon": "-16.99553176907833",
      "lat": "32.6724125432492"
    },
    {
      "id": "pt.ine.add.MAD.99260",
      "street": "VR FORO DE BAIXO",
      "house": "5",
      "postcode": "9325-046",
      "city": "ESTREITO CÂMARA DE LOBOS",
      "lon": "-16.988141838520367",
      "lat": "32.67479355072054"
    },
    {
      "id": "pt.ine.add.MAD.99292",
      "street": "1 IMPASSE DA TRAVESSA DOS DANTAS",
      "house": "13",
      "postcode": "9325-046",
      "city": "ESTREITO CÂMARA DE LOBOS",
      "lon": "-16.98973151392217",
      "lat": "32.67771741270679"
    },
    {
      "id": "pt.ine.add.MAD.99319",
      "street": "VR LOMBINHO DO CORREGO",
      "house": "22",
      "postcode": "9325-331",
      "city": "ESTREITO CÂMARA DE LOBOS",
      "lon": "-16.99395947233415",
      "lat": "32.67219404575588"
    },
    {
      "id": "pt.ine.add.MAD.99346",
      "street": "CAM ESTALEIRO",
      "house": "30",
      "postcode": "9325-056",
      "city": "ESTREITO CÂMARA DE LOBOS",
      "lon": "-16.987159251497847",
      "lat": "32.67424095151834"
    },
    {
      "id": "pt.ine.add.MAD.99412",
      "street": "ESTR RIBEIRA GARCIA",
      "house": "64",
      "postcode": "9325-373",
      "city": "ESTREITO CÂMARA DE LOBOS",
      "lon": "-16.994059528473596",
      "lat": "32.675736746501705"
    },
    {
      "id": "pt.ine.add.MAD.99467",
      "street": "ESTR JOÃO GONÇALVES ZARCO",
      "house": "690",
      "postcode": "9325-087",
      "city": "ESTREITO CÂMARA DE LOBOS",
      "lon": "-16.98373935456418",
      "lat": "32.670516300033654"
    },
    {
      "id": "pt.ine.add.MAD.99646",
      "street": "TV LUIS LIBERATO SOUSA",
      "house": "32",
      "postcode": "9325-373",
      "city": "ESTREITO CÂMARA DE LOBOS",
      "lon": "-16.994755423360452",
      "lat": "32.67825989315123"
    },
    {
      "id": "pt.ine.add.MAD.99751",
      "street": "CAM FRANCELHEIRA",
      "house": "15",
      "postcode": "9325-060",
      "city": "ESTREITO CÂMARA DE LOBOS",
      "lon": "-16.992684290165997",
      "lat": "32.67335064807864"
    },
    {
      "id": "pt.ine.add.MAD.99934",
      "street": "CAM LUIS LIBERATO SOUSA",
      "house": "6",
      "postcode": "9325-373",
      "city": "ESTREITO CÂMARA DE LOBOS",
      "lon": "-16.994652378247604",
      "lat": "32.67650291523671"
    },
    {
      "id": "pt.ine.add.MAD.100222",
      "street": "TV LOMBO",
      "house": "14",
      "postcode": "9325-331",
      "city": "ESTREITO CÂMARA DE LOBOS",
      "lon": "-16.99209953621999",
      "lat": "32.67246709898533"
    },
    {
      "id": "pt.ine.add.MAD.101685",
      "street": "R PADRE ANTONIO SOUSA DA COSTA",
      "house": "125",
      "postcode": "9325-370",
      "city": "ESTREITO CÂMARA DE LOBOS",
      "lon": "-16.991300902037423",
      "lat": "32.67251585413912"
    },
    {
      "id": "pt.ine.add.MAD.102147",
      "street": "CAM FRANCELHEIRA",
      "house": "2",
      "postcode": "9325-060",
      "city": "ESTREITO CÂMARA DE LOBOS",
      "lon": "-16.991267268409306",
      "lat": "32.67292222331221"
    },
    {
      "id": "pt.ine.add.MAD.102341",
      "street": "CAM CÓRREGO",
      "house": "13",
      "postcode": "9325-331",
      "city": "ESTREITO CÂMARA DE LOBOS",
      "lon": "-16.99344093855875",
      "lat": "32.67285162344438"
    },
    {
      "id": "pt.ine.add.MAD.102828",
      "street": "TV LOMBO",
      "house": "5",
      "postcode": "9325-331",
      "city": "ESTREITO CÂMARA DE LOBOS",
      "lon": "-16.99244182918593",
      "lat": "32.6725157737676"
    },
    {
      "id": "pt.ine.add.MAD.102843",
      "street": "2 IMPASSE DA VEREDA DA ACHADA DO FORO",
      "house": "5",
      "postcode": "9325-046",
      "city": "ESTREITO CÂMARA DE LOBOS",
      "lon": "-16.989314918908796",
      "lat": "32.67816593020084"
    },
    {
      "id": "pt.ine.add.MAD.107197",
      "street": "3 IMPASSE DO CAMINHO DO ESTALEIRO",
      "house": "27",
      "postcode": "9325-056",
      "city": "ESTREITO CÂMARA DE LOBOS",
      "lon": "-16.987431354850564",
      "lat": "32.673046189386596"
    },
    {
      "id": "pt.ine.add.MAD.107429",
      "street": "R PADRE ANTONIO SOUSA COSTA CCI 613",
      "house": "325",
      "postcode": "9325-370",
      "city": "ESTREITO CÂMARA DE LOBOS",
      "lon": "-16.991363111532177",
      "lat": "32.671955715742264"
    },
    {
      "id": "pt.ine.add.MAD.107478",
      "street": "CAM LUIS LIBERATO SOUSA",
      "house": "28",
      "postcode": "9325-373",
      "city": "ESTREITO CÂMARA DE LOBOS",
      "lon": "-16.995045042132908",
      "lat": "32.67833645360147"
    },
    {
      "id": "pt.ine.add.MAD.107596",
      "street": "CAM CASA DA VELHA",
      "house": "14",
      "postcode": "9325-363",
      "city": "ESTREITO CÂMARA DE LOBOS",
      "lon": "-16.987559903289018",
      "lat": "32.667777306300344"
    },
    {
      "id": "pt.ine.add.MAD.107963",
      "street": "R PADRE ANTÓNIO SOUSA DA COSTA",
      "house": "63",
      "postcode": "9325-370",
      "city": "ESTREITO CÂMARA DE LOBOS",
      "lon": "-16.99193316139282",
      "lat": "32.669295207421904"
    },
    {
      "id": "pt.ine.add.MAD.108656",
      "street": "ESTR RIBEIRA GARCIA",
      "house": "60",
      "postcode": "9325-373",
      "city": "ESTREITO CÂMARA DE LOBOS",
      "lon": "-16.994421951360152",
      "lat": "32.67573098421696"
    },
    {
      "id": "pt.ine.add.MAD.108718",
      "street": "3 IMPASSE DA ESTRADA PROF JOÃO DANTAS",
      "house": "7",
      "postcode": "9325-046",
      "city": "ESTREITO CÂMARA DE LOBOS",
      "lon": "-16.989289396151342",
      "lat": "32.676533975717916"
    },
    {
      "id": "pt.ine.add.MAD.108719",
      "street": "ESTR PROF JOÃO DANTAS",
      "house": "24",
      "postcode": "9325-046",
      "city": "ESTREITO CÂMARA DE LOBOS",
      "lon": "-16.989011379854787",
      "lat": "32.67698029424619"
    },
    {
      "id": "pt.ine.add.MAD.108720",
      "street": "4 IMPASSE DA ESTRADA PROF JOÃO DANTAS",
      "house": "S",
      "postcode": "9325-046",
      "city": "ESTREITO CÂMARA DE LOBOS",
      "lon": "-16.989047022983215",
      "lat": "32.67666407938599"
    },
    {
      "id": "pt.ine.add.MAD.108721",
      "street": "4 IMPASSE DA ESTRADA PROF JOÃO DANTAS",
      "house": "10",
      "postcode": "9325-046",
      "city": "ESTREITO CÂMARA DE LOBOS",
      "lon": "-16.989480134100727",
      "lat": "32.675998855390624"
    },
    {
      "id": "pt.ine.add.MAD.108722",
      "street": "VR FORO DE BAIXO",
      "house": "15",
      "postcode": "9325-046",
      "city": "ESTREITO CÂMARA DE LOBOS",
      "lon": "-16.988438963460624",
      "lat": "32.67569069723025"
    },
    {
      "id": "pt.ine.add.MAD.108723",
      "street": "VR FORO BAIXO",
      "house": "224",
      "postcode": "9325-046",
      "city": "ESTREITO CÂMARA DE LOBOS",
      "lon": "-16.988535168516425",
      "lat": "32.67522020673703"
    },
    {
      "id": "pt.ine.add.MAD.108724",
      "street": "VR LEVADA DO NORTE",
      "house": "212",
      "postcode": "9325-090",
      "city": "ESTREITO CÂMARA DE LOBOS",
      "lon": "-16.988957483032898",
      "lat": "32.67551112335952"
    },
    {
      "id": "pt.ine.add.MAD.108963",
      "street": "VR FORO DE BAIXO",
      "house": "7",
      "postcode": "9325-046",
      "city": "ESTREITO CÂMARA DE LOBOS",
      "lon": "-16.988196534051113",
      "lat": "32.674855813717585"
    },
    {
      "id": "pt.ine.add.MAD.108964",
      "street": "VR FORO DE BAIXO",
      "house": "3",
      "postcode": "9325-046",
      "city": "ESTREITO CÂMARA DE LOBOS",
      "lon": "-16.988291070455684",
      "lat": "32.67479118524002"
    },
    {
      "id": "pt.ine.add.MAD.111992",
      "street": "VR LEVADA DO NORTE",
      "house": "206",
      "postcode": "9325-090",
      "city": "ESTREITO CÂMARA DE LOBOS",
      "lon": "-16.9883920000811",
      "lat": "32.67501504941939"
    },
    {
      "id": "pt.ine.add.MAD.113101",
      "street": "3 IMPASSE DA ESTRADA PROF JOÃO DANTAS",
      "house": "6",
      "postcode": "9325-046",
      "city": "ESTREITO CÂMARA DE LOBOS",
      "lon": "-16.989379470865906",
      "lat": "32.67674899254448"
    },
    {
      "id": "pt.ine.add.MAD.113194",
      "street": "1 IMPASSE DA TRAVESSA DOS DANTAS",
      "house": "6",
      "postcode": "9325-046",
      "city": "ESTREITO CÂMARA DE LOBOS",
      "lon": "-16.989234503027557",
      "lat": "32.677905667416304"
    },
    {
      "id": "pt.ine.add.MAD.113542",
      "street": "CAM VELHO FORO",
      "house": "",
      "postcode": "9325-055",
      "city": "ESTREITO CÂMARA DE LOBOS",
      "lon": "-16.989184333367206",
      "lat": "32.677085774165356"
    },
    {
      "id": "pt.ine.add.MAD.113733",
      "street": "1 IMPASSE DA TRAVESSA DOS DANTAS",
      "house": "11",
      "postcode": "9325-046",
      "city": "ESTREITO CÂMARA DE LOBOS",
      "lon": "-16.989625915995862",
      "lat": "32.67776418064482"
    },
    {
      "id": "pt.ine.add.MAD.114418",
      "street": "1 IMPASSE DA TRAVESSA DOS DANTAS",
      "house": "12",
      "postcode": "9325-046",
      "city": "ESTREITO CÂMARA DE LOBOS",
      "lon": "-16.989503596740914",
      "lat": "32.67801864057506"
    },
    {
      "id": "pt.ine.add.MAD.115397",
      "street": "CAM QUINTA DE SANTO ANTÓNIO",
      "house": "2",
      "postcode": "9325-082",
      "city": "ESTREITO CÂMARA DE LOBOS",
      "lon": "-16.982443028537013",
      "lat": "32.673134145434624"
    },
    {
      "id": "pt.ine.add.MAD.115398",
      "street": "CAM QUINTA DE SANTO ANTÓNIO",
      "house": "14",
      "postcode": "9325-082",
      "city": "ESTREITO CÂMARA DE LOBOS",
      "lon": "-16.98266757216759",
      "lat": "32.67267966740174"
    },
    {
      "id": "pt.ine.add.MAD.115399",
      "street": "CAM QUINTA DE SANTO ANTÓNIO",
      "house": "18",
      "postcode": "9325-082",
      "city": "ESTREITO CÂMARA DE LOBOS",
      "lon": "-16.983217666543794",
      "lat": "32.67248158110678"
    },
    {
      "id": "pt.ine.add.MAD.115422",
      "street": "CAM QUINTA DE SANTO ANTÓNIO",
      "house": "19",
      "postcode": "9325-082",
      "city": "ESTREITO CÂMARA DE LOBOS",
      "lon": "-16.982821882248068",
      "lat": "32.672424707992256"
    },
    {
      "id": "pt.ine.add.MAD.115423",
      "street": "CAM QUINTA DE SANTO ANTÓNIO",
      "house": "9",
      "postcode": "9325-082",
      "city": "ESTREITO CÂMARA DE LOBOS",
      "lon": "-16.98243795261695",
      "lat": "32.672421757750556"
    },
    {
      "id": "pt.ine.add.MAD.115424",
      "street": "CAM QUINTA DE SANTO ANTÓNIO",
      "house": "3",
      "postcode": "9325-082",
      "city": "ESTREITO CÂMARA DE LOBOS",
      "lon": "-16.98213211747692",
      "lat": "32.67305789162649"
    },
    {
      "id": "pt.ine.add.MAD.115427",
      "street": "R PADRE ANTÓNIO SOUSA DA COSTA VEREDA LEVADA DO NORTE",
      "house": "287",
      "postcode": "9325-370",
      "city": "ESTREITO CÂMARA DE LOBOS",
      "lon": "-16.991307215379948",
      "lat": "32.67183936180067"
    },
    {
      "id": "pt.ine.add.MAD.115428",
      "street": "CAM QUINTA DE SANTO ANTÓNIO",
      "house": "39",
      "postcode": "9325-082",
      "city": "ESTREITO CÂMARA DE LOBOS",
      "lon": "-16.983831402398877",
      "lat": "32.67082147607343"
    },
    {
      "id": "pt.ine.add.MAD.115429",
      "street": "CAM QUINTA DE SANTO ANTÓNIO",
      "house": "33",
      "postcode": "9325-082",
      "city": "ESTREITO CÂMARA DE LOBOS",
      "lon": "-16.983572500441674",
      "lat": "32.6711682764214"
    },
    {
      "id": "pt.ine.add.MAD.115430",
      "street": "CAM LOMBO DA QUINTA SANTO ANTÓNIO",
      "house": "",
      "postcode": "9325-091",
      "city": "ESTREITO CÂMARA DE LOBOS",
      "lon": "-16.983502869124525",
      "lat": "32.671394842000694"
    },
    {
      "id": "pt.ine.add.MAD.115431",
      "street": "CAM LOMBO DA QUINTA SANTO ANTÓNIO",
      "house": "9",
      "postcode": "9325-091",
      "city": "ESTREITO CÂMARA DE LOBOS",
      "lon": "-16.983163572618302",
      "lat": "32.671481373921516"
    },
    {
      "id": "pt.ine.add.MAD.115432",
      "street": "CAM LOMBO DA QUINTA SANTO ANTÓNIO",
      "house": "3",
      "postcode": "9325-091",
      "city": "ESTREITO CÂMARA DE LOBOS",
      "lon": "-16.982761117763378",
      "lat": "32.671604977605405"
    },
    {
      "id": "pt.ine.add.MAD.115482",
      "street": "ESTR QUINTA DE SANTO ANTÓNIO",
      "house": "48",
      "postcode": "9325-058",
      "city": "ESTREITO CÂMARA DE LOBOS",
      "lon": "-16.988061229799197",
      "lat": "32.67452427140344"
    },
    {
      "id": "pt.ine.add.MAD.115490",
      "street": "CAM ESTALEIRO",
      "house": "16",
      "postcode": "9325-056",
      "city": "ESTREITO CÂMARA DE LOBOS",
      "lon": "-16.98622362185173",
      "lat": "32.67436399354861"
    },
    {
      "id": "pt.ine.add.MAD.115494",
      "street": "CAM ESTALEIRO",
      "house": "18",
      "postcode": "9325-056",
      "city": "ESTREITO CÂMARA DE LOBOS",
      "lon": "-16.98654519982354",
      "lat": "32.674440068067554"
    },
    {
      "id": "pt.ine.add.MAD.115495",
      "street": "CAM QUINTA DE SANTO ANTÓNIO",
      "house": "123",
      "postcode": "9325-082",
      "city": "ESTREITO CÂMARA DE LOBOS",
      "lon": "-16.98665698376016",
      "lat": "32.67467278042594"
    },
    {
      "id": "pt.ine.add.MAD.115496",
      "street": "CAM QUINTA DE SANTO ANTÓNIO",
      "house": "123",
      "postcode": "9325-082",
      "city": "ESTREITO CÂMARA DE LOBOS",
      "lon": "-16.98665698376016",
      "lat": "32.67467278042594"
    },
    {
      "id": "pt.ine.add.MAD.115497",
      "street": "CAM ESTALEIRO",
      "house": "20",
      "postcode": "9325-056",
      "city": "ESTREITO CÂMARA DE LOBOS",
      "lon": "-16.986232085949187",
      "lat": "32.67426465524408"
    },
    {
      "id": "pt.ine.add.MAD.115498",
      "street": "CAM ESTALEIRO",
      "house": "25",
      "postcode": "9325-056",
      "city": "ESTREITO CÂMARA DE LOBOS",
      "lon": "-16.986091718065875",
      "lat": "32.67418571076247"
    },
    {
      "id": "pt.ine.add.MAD.115513",
      "street": "TV CAPELA",
      "house": "24",
      "postcode": "9325-116",
      "city": "ESTREITO CÂMARA DE LOBOS",
      "lon": "-16.983785090497403",
      "lat": "32.67210284680414"
    },
    {
      "id": "pt.ine.add.MAD.115514",
      "street": "ENT N 1 DO CAMINHO DA QUINTA DE SANTO ANTÓNIO",
      "house": "1",
      "postcode": "9325-082",
      "city": "ESTREITO CÂMARA DE LOBOS",
      "lon": "-16.983986218711042",
      "lat": "32.67203653575104"
    },
    {
      "id": "pt.ine.add.MAD.115515",
      "street": "ESTR JOÃO GONÇALVES ZARCO",
      "house": "693",
      "postcode": "9325-087",
      "city": "ESTREITO CÂMARA DE LOBOS",
      "lon": "-16.984899712336425",
      "lat": "32.67187778684755"
    },
    {
      "id": "pt.ine.add.MAD.116019",
      "street": "CAM QUINTA DE SANTO ANTÓNIO",
      "house": "8",
      "postcode": "9325-082",
      "city": "ESTREITO CÂMARA DE LOBOS",
      "lon": "-16.982502402811946",
      "lat": "32.67292577968228"
    },
    {
      "id": "pt.ine.add.MAD.116020",
      "street": "CAM QUINTA DE SANTO ANTÓNIO",
      "house": "8",
      "postcode": "9325-082",
      "city": "ESTREITO CÂMARA DE LOBOS",
      "lon": "-16.982502402811946",
      "lat": "32.67292577968228"
    },
    {
      "id": "pt.ine.add.MAD.116144",
      "street": "CAM QUINTA DE SANTO ANTÓNIO",
      "house": "22",
      "postcode": "9325-082",
      "city": "ESTREITO CÂMARA DE LOBOS",
      "lon": "-16.9838237407841",
      "lat": "32.671921863966034"
    },
    {
      "id": "pt.ine.add.MAD.116146",
      "street": "CAM QUINTA DE SANTO ANTÓNIO",
      "house": "1 6",
      "postcode": "9325-082",
      "city": "ESTREITO CÂMARA DE LOBOS",
      "lon": "-16.982806739522108",
      "lat": "32.67270452335459"
    },
    {
      "id": "pt.ine.add.MAD.116147",
      "street": "CAM QUINTA DE SANTO ANTÓNIO",
      "house": "15",
      "postcode": "9325-082",
      "city": "ESTREITO CÂMARA DE LOBOS",
      "lon": "-16.982675044153666",
      "lat": "32.67253525200529"
    },
    {
      "id": "pt.ine.add.MAD.116174",
      "street": "CAM LOMBO DA QUINTA SANTO ANTÓNIO",
      "house": "4",
      "postcode": "9325-091",
      "city": "ESTREITO CÂMARA DE LOBOS",
      "lon": "-16.982933057581945",
      "lat": "32.671665389755496"
    },
    {
      "id": "pt.ine.add.MAD.116218",
      "street": "CAM ESTALEIRO",
      "house": "24",
      "postcode": "9325-056",
      "city": "ESTREITO CÂMARA DE LOBOS",
      "lon": "-16.986561728087985",
      "lat": "32.6742233606259"
    },
    {
      "id": "pt.ine.add.MAD.116221",
      "street": "CAM LOMBO DA QUINTA SANTO ANTÓNIO",
      "house": "7",
      "postcode": "9325-091",
      "city": "ESTREITO CÂMARA DE LOBOS",
      "lon": "-16.98292987007359",
      "lat": "32.67152114284035"
    },
    {
      "id": "pt.ine.add.MAD.116260",
      "street": "CAM QUINTA DE SANTO ANTÓNIO",
      "house": "37",
      "postcode": "9325-082",
      "city": "ESTREITO CÂMARA DE LOBOS",
      "lon": "-16.983676898477277",
      "lat": "32.67106742114068"
    },
    {
      "id": "pt.ine.add.MAD.116298",
      "street": "CAM ESTALEIRO",
      "house": "27",
      "postcode": "9325-056",
      "city": "ESTREITO CÂMARA DE LOBOS",
      "lon": "-16.986228693251803",
      "lat": "32.67411139326698"
    },
    {
      "id": "pt.ine.add.MAD.116299",
      "street": "TV CAPELA",
      "house": "20A",
      "postcode": "9325-116",
      "city": "ESTREITO CÂMARA DE LOBOS",
      "lon": "-16.98375072143537",
      "lat": "32.67199516739797"
    },
    {
      "id": "pt.ine.add.MAD.116300",
      "street": "ENT N 1 DO CAMINHO DA QUINTA DE SANTO ANTÓNIO",
      "house": "3",
      "postcode": "9325-082",
      "city": "ESTREITO CÂMARA DE LOBOS",
      "lon": "-16.984200597276438",
      "lat": "32.67208725629821"
    },
    {
      "id": "pt.ine.add.MAD.116359",
      "street": "CAM QUINTA DE SANTO ANTÓNIO",
      "house": "5",
      "postcode": "9325-082",
      "city": "ESTREITO CÂMARA DE LOBOS",
      "lon": "-16.982183422211712",
      "lat": "32.67296689508212"
    },
    {
      "id": "pt.ine.add.MAD.116360",
      "street": "CAM LOMBO DA QUINTA SANTO ANTÓNIO",
      "house": "1",
      "postcode": "9325-091",
      "city": "ESTREITO CÂMARA DE LOBOS",
      "lon": "-16.98267445076069",
      "lat": "32.67154321742061"
    },
    {
      "id": "pt.ine.add.MAD.116394",
      "street": "3 IMPASSE DO CAMINHO DO ESTALEIRO",
      "house": "5",
      "postcode": "9325-056",
      "city": "ESTREITO CÂMARA DE LOBOS",
      "lon": "-16.986478929134538",
      "lat": "32.67385491056266"
    },
    {
      "id": "pt.ine.add.MAD.116400",
      "street": "CAM QUINTA DE SANTO ANTÓNIO",
      "house": "24",
      "postcode": "9325-082",
      "city": "ESTREITO CÂMARA DE LOBOS",
      "lon": "-16.983895364789422",
      "lat": "32.671785452509155"
    },
    {
      "id": "pt.ine.add.MAD.116417",
      "street": "CAM QUINTA DE SANTO ANTÓNIO",
      "house": "13",
      "postcode": "9325-082",
      "city": "ESTREITO CÂMARA DE LOBOS",
      "lon": "-16.982558191416786",
      "lat": "32.67255513611688"
    },
    {
      "id": "pt.ine.add.MAD.116423",
      "street": "CAM QUINTA DE SANTO ANTÓNIO",
      "house": "23",
      "postcode": "9325-082",
      "city": "ESTREITO CÂMARA DE LOBOS",
      "lon": "-16.983327345474073",
      "lat": "32.67213714094574"
    },
    {
      "id": "pt.ine.add.MAD.116434",
      "street": "ENT N 1 DO CAMINHO DA QUINTA DE SANTO ANTÓNIO",
      "house": "2",
      "postcode": "9325-082",
      "city": "ESTREITO CÂMARA DE LOBOS",
      "lon": "-16.98406342395392",
      "lat": "32.67215255612091"
    },
    {
      "id": "pt.ine.add.MAD.116447",
      "street": "TV CAPELA",
      "house": "20",
      "postcode": "9325-116",
      "city": "ESTREITO CÂMARA DE LOBOS",
      "lon": "-16.983801529656972",
      "lat": "32.672364125599024"
    },
    {
      "id": "pt.ine.add.MAD.119350",
      "street": "VR PASSADA",
      "house": "30",
      "postcode": "9325-374",
      "city": "ESTREITO CÂMARA DE LOBOS",
      "lon": "-16.99212607162881",
      "lat": "32.668859252943264"
    },
    {
      "id": "pt.ine.add.MAD.122012",
      "street": "1 IMPASSE DO CAMINHO DO ESTALEIRO",
      "house": "13",
      "postcode": "9325-056",
      "city": "ESTREITO CÂMARA DE LOBOS",
      "lon": "-16.98532093945716",
      "lat": "32.67356661273004"
    },
    {
      "id": "pt.ine.add.MAD.122049",
      "street": "ESTR JOÃO GONÇALVES ZARCO",
      "house": "652",
      "postcode": "9325-087",
      "city": "ESTREITO CÂMARA DE LOBOS",
      "lon": "-16.98182100778911",
      "lat": "32.67297262158985"
    },
    {
      "id": "pt.ine.add.MAD.122137",
      "street": "ENT N 1 CAMINHO DA FRANCELHEIRA",
      "house": "4",
      "postcode": "9325-060",
      "city": "ESTREITO CÂMARA DE LOBOS",
      "lon": "-16.993153250514787",
      "lat": "32.67382118058927"
    },
    {
      "id": "pt.ine.add.MAD.122151",
      "street": "ESTR RIBEIRA GARCIA",
      "house": "40",
      "postcode": "9325-371",
      "city": "ESTREITO CÂMARA DE LOBOS",
      "lon": "-16.993880968960024",
      "lat": "32.672979907928166"
    },
    {
      "id": "pt.ine.add.MAD.122166",
      "street": "TV LOMBO",
      "house": "7",
      "postcode": "9325-370",
      "city": "ESTREITO CÂMARA DE LOBOS",
      "lon": "-16.991685031000642",
      "lat": "32.6725277925971"
    },
    {
      "id": "pt.ine.add.MAD.122167",
      "street": "R PADRE ANTÓNIO SOUSA DA COSTA",
      "house": "115",
      "postcode": "9325-370",
      "city": "ESTREITO CÂMARA DE LOBOS",
      "lon": "-16.99192138538613",
      "lat": "32.67212722287066"
    },
    {
      "id": "pt.ine.add.MAD.122182",
      "street": "VR LOMBINHO DO CORREGO",
      "house": "17",
      "postcode": "9325-331",
      "city": "ESTREITO CÂMARA DE LOBOS",
      "lon": "-16.993401394926025",
      "lat": "32.672031563245625"
    },
    {
      "id": "pt.ine.add.MAD.122199",
      "street": "R PADRE ANTÓNIO SOUSA DA COSTA",
      "house": "340",
      "postcode": "9325-370",
      "city": "ESTREITO CÂMARA DE LOBOS",
      "lon": "-16.993678773946574",
      "lat": "32.67155818997246"
    },
    {
      "id": "pt.ine.add.MAD.122222",
      "street": "ESTR RIBEIRA GARCIA",
      "house": "24",
      "postcode": "9325-378",
      "city": "ESTREITO CÂMARA DE LOBOS",
      "lon": "-16.995770142695907",
      "lat": "32.67162413680841"
    },
    {
      "id": "pt.ine.add.MAD.122231",
      "street": "R PADRE ANTÓNIO SOUSA DA COSTA",
      "house": "89",
      "postcode": "9325-370",
      "city": "ESTREITO CÂMARA DE LOBOS",
      "lon": "-16.992966316471602",
      "lat": "32.67068569282046"
    },
    {
      "id": "pt.ine.add.MAD.122250",
      "street": "ESTR RIBEIRA GARCIA",
      "house": "64",
      "postcode": "9325-373",
      "city": "ESTREITO CÂMARA DE LOBOS",
      "lon": "-16.99412873483508",
      "lat": "32.67549214537889"
    },
    {
      "id": "pt.ine.add.MAD.122262",
      "street": "IMP ROSAL",
      "house": "21",
      "postcode": "9325-363",
      "city": "ESTREITO CÂMARA DE LOBOS",
      "lon": "-16.989274799549015",
      "lat": "32.67010397056129"
    },
    {
      "id": "pt.ine.add.MAD.123024",
      "street": "CAM FRANCELHEIRA",
      "house": "17",
      "postcode": "9325-060",
      "city": "ESTREITO CÂMARA DE LOBOS",
      "lon": "-16.992933256804328",
      "lat": "32.67351804523571"
    },
    {
      "id": "pt.ine.add.MAD.123144",
      "street": "R PADRE ANTONIO SOUSA COSTA",
      "house": "101",
      "postcode": "9325-370",
      "city": "ESTREITO CÂMARA DE LOBOS",
      "lon": "-16.993496168898954",
      "lat": "32.67149796222652"
    },
    {
      "id": "pt.ine.add.MAD.123151",
      "street": "R PADRE ANTÓNIO SOUSA DA COSTA",
      "house": "37",
      "postcode": "9325-370",
      "city": "ESTREITO CÂMARA DE LOBOS",
      "lon": "-16.989983736029938",
      "lat": "32.66841527233772"
    },
    {
      "id": "pt.ine.add.MAD.123193",
      "street": "ESTR RIBEIRA GARCIA",
      "house": "38",
      "postcode": "9325-378",
      "city": "ESTREITO CÂMARA DE LOBOS",
      "lon": "-16.9942192573331",
      "lat": "32.67284827036232"
    },
    {
      "id": "pt.ine.add.MAD.123194",
      "street": "R PADRE ANTÓNIO SOUSA DA COSTA",
      "house": "127",
      "postcode": "9325-370",
      "city": "ESTREITO CÂMARA DE LOBOS",
      "lon": "-16.991218029671852",
      "lat": "32.67262539245097"
    },
    {
      "id": "pt.ine.add.MAD.123228",
      "street": "CAM ESCOLA DO GARACHICO",
      "house": "19",
      "postcode": "9325-060",
      "city": "ESTREITO CÂMARA DE LOBOS",
      "lon": "-16.99076254491551",
      "lat": "32.672280898253405"
    },
    {
      "id": "pt.ine.add.MAD.123403",
      "street": "EM GARACHICO",
      "house": "68",
      "postcode": "9325-363",
      "city": "ESTREITO CÂMARA DE LOBOS",
      "lon": "-16.991666221474418",
      "lat": "32.671680346542516"
    },
    {
      "id": "pt.ine.add.MAD.123514",
      "street": "EM GARACHICO",
      "house": "6",
      "postcode": "9325-363",
      "city": "ESTREITO CÂMARA DE LOBOS",
      "lon": "-16.989058630598116",
      "lat": "32.66852914864363"
    },
    {
      "id": "pt.ine.add.MAD.123992",
      "street": "VR FURNEIRA",
      "house": "4",
      "postcode": "9325-371",
      "city": "ESTREITO CÂMARA DE LOBOS",
      "lon": "-16.995535177505456",
      "lat": "32.66968888595586"
    },
    {
      "id": "pt.ine.add.MAD.124095",
      "street": "CAM FRANCELHEIRA",
      "house": "711",
      "postcode": "9325-060",
      "city": "ESTREITO CÂMARA DE LOBOS",
      "lon": "-16.99242246321363",
      "lat": "32.67308425054273"
    },
    {
      "id": "pt.ine.add.MAD.124171",
      "street": "EM GARACHICO",
      "house": "64",
      "postcode": "9325-363",
      "city": "ESTREITO CÂMARA DE LOBOS",
      "lon": "-16.991472358108723",
      "lat": "32.671593238893074"
    },
    {
      "id": "pt.ine.add.MAD.124357",
      "street": "ESTR RIBEIRA GARCIA",
      "house": "30",
      "postcode": "9325-378",
      "city": "ESTREITO CÂMARA DE LOBOS",
      "lon": "-16.995318787652856",
      "lat": "32.6724249498993"
    },
    {
      "id": "pt.ine.add.MAD.124437",
      "street": "CAM VELHO DA IGREJA",
      "house": "36",
      "postcode": "9325-374",
      "city": "ESTREITO CÂMARA DE LOBOS",
      "lon": "-16.992256681016404",
      "lat": "32.668018452245086"
    },
    {
      "id": "pt.ine.add.MAD.124470",
      "street": "R PADRE ANTÓNIO SOUSA DA COSTA",
      "house": "41",
      "postcode": "9325-370",
      "city": "ESTREITO CÂMARA DE LOBOS",
      "lon": "-16.990212565939256",
      "lat": "32.66863710629629"
    },
    {
      "id": "pt.ine.add.MAD.125078",
      "street": "CAM LOMBO DA QUINTA SANTO ANTÓNIO",
      "house": "2",
      "postcode": "9325-091",
      "city": "ESTREITO CÂMARA DE LOBOS",
      "lon": "-16.983002590475298",
      "lat": "32.67191681082341"
    },
    {
      "id": "pt.ine.add.MAD.125392",
      "street": "ESTR RIBEIRA GARCIA",
      "house": "20",
      "postcode": "9325-378",
      "city": "ESTREITO CÂMARA DE LOBOS",
      "lon": "-16.99649661561272",
      "lat": "32.67072875817211"
    },
    {
      "id": "pt.ine.add.MAD.125625",
      "street": "ESTR RIBEIRA GARCIA",
      "house": "64",
      "postcode": "9325-373",
      "city": "ESTREITO CÂMARA DE LOBOS",
      "lon": "-16.99378743145191",
      "lat": "32.67548855253546"
    },
    {
      "id": "pt.ine.add.MAD.125653",
      "street": "3 IMPASSE DA ESTRADA PROF JOÃO DANTAS",
      "house": "10",
      "postcode": "9325-046",
      "city": "ESTREITO CÂMARA DE LOBOS",
      "lon": "-16.989512848396064",
      "lat": "32.6765123944382"
    },
    {
      "id": "pt.ine.add.MAD.125727",
      "street": "R PADRE ANTONIO SOUSA COSTA",
      "house": "8",
      "postcode": "9325-331",
      "city": "ESTREITO CÂMARA DE LOBOS",
      "lon": "-16.99188069775894",
      "lat": "32.67269603825401"
    },
    {
      "id": "pt.ine.add.MAD.125822",
      "street": "IMP ROSAL",
      "house": "12",
      "postcode": "9325-363",
      "city": "ESTREITO CÂMARA DE LOBOS",
      "lon": "-16.989150957634347",
      "lat": "32.66980832163561"
    },
    {
      "id": "pt.ine.add.MAD.126028",
      "street": "3 IMPASSE DO CAMINHO DO ESTALEIRO",
      "house": "20",
      "postcode": "9325-056",
      "city": "ESTREITO CÂMARA DE LOBOS",
      "lon": "-16.98724388145487",
      "lat": "32.673247568168286"
    },
    {
      "id": "pt.ine.add.MAD.126466",
      "street": "R PADRE ANTÓNIO SOUSA DA COSTA",
      "house": "64",
      "postcode": "9325-370",
      "city": "ESTREITO CÂMARA DE LOBOS",
      "lon": "-16.992841517473554",
      "lat": "32.67178793977101"
    },
    {
      "id": "pt.ine.add.MAD.126813",
      "street": "IMP GARACHICO",
      "house": "6",
      "postcode": "9325-363",
      "city": "ESTREITO CÂMARA DE LOBOS",
      "lon": "-16.988988340481644",
      "lat": "32.67064962713371"
    },
    {
      "id": "pt.ine.add.MAD.126848",
      "street": "VR LOMBINHO",
      "house": "13",
      "postcode": "9325-331",
      "city": "ESTREITO CÂMARA DE LOBOS",
      "lon": "-16.993195222558626",
      "lat": "32.67235048900723"
    },
    {
      "id": "pt.ine.add.MAD.127071",
      "street": "3 IMPASSE DO CAMINHO DO ESTALEIRO",
      "house": "1",
      "postcode": "9325-056",
      "city": "ESTREITO CÂMARA DE LOBOS",
      "lon": "-16.98633269226964",
      "lat": "32.67399250498185"
    },
    {
      "id": "pt.ine.add.MAD.127131",
      "street": "VR LOMBINHO DO CORREGO",
      "house": "1",
      "postcode": "9325-331",
      "city": "ESTREITO CÂMARA DE LOBOS",
      "lon": "-16.992655211894938",
      "lat": "32.67252140273617"
    },
    {
      "id": "pt.ine.add.MAD.127132",
      "street": "R PADRE ANTÓNIO SOUSA DA COSTA",
      "house": "107",
      "postcode": "9325-370",
      "city": "ESTREITO CÂMARA DE LOBOS",
      "lon": "-16.992496575394107",
      "lat": "32.67210005046114"
    },
    {
      "id": "pt.ine.add.MAD.127482",
      "street": "3 IMPASSE DO CAMINHO DO ESTALEIRO",
      "house": "8",
      "postcode": "9325-056",
      "city": "ESTREITO CÂMARA DE LOBOS",
      "lon": "-16.986689520616853",
      "lat": "32.673734333851435"
    },
    {
      "id": "pt.ine.add.MAD.127491",
      "street": "EM GARACHICO",
      "house": "8",
      "postcode": "9325-363",
      "city": "ESTREITO CÂMARA DE LOBOS",
      "lon": "-16.989199990922213",
      "lat": "32.66865316712274"
    },
    {
      "id": "pt.ine.add.MAD.127505",
      "street": "TV CÓRREGO",
      "house": "1",
      "postcode": "9325-331",
      "city": "ESTREITO CÂMARA DE LOBOS",
      "lon": "-16.993098443657207",
      "lat": "32.67279393608818"
    },
    {
      "id": "pt.ine.add.MAD.127514",
      "street": "IMP GARACHICO",
      "house": "15",
      "postcode": "9325-363",
      "city": "ESTREITO CÂMARA DE LOBOS",
      "lon": "-16.988288646365053",
      "lat": "32.670832072469786"
    },
    {
      "id": "pt.ine.add.MAD.127769",
      "street": "ESTR RIBEIRA GARCIA",
      "house": "46",
      "postcode": "9325-378",
      "city": "ESTREITO CÂMARA DE LOBOS",
      "lon": "-16.993300677880832",
      "lat": "32.67373767086119"
    },
    {
      "id": "pt.ine.add.MAD.127838",
      "street": "EM GARACHICO",
      "house": "14",
      "postcode": "9325-363",
      "city": "ESTREITO CÂMARA DE LOBOS",
      "lon": "-16.98969528741855",
      "lat": "32.6688707763022"
    },
    {
      "id": "pt.ine.add.MAD.127869",
      "street": "VR DO LOMBINHO DO CÓRREGO RUA PADRE ANTÓNIO SOUSA COSTA",
      "house": "3 CCI 606",
      "postcode": "9325-331",
      "city": "ESTREITO CÂMARA DE LOBOS",
      "lon": "-16.992868995060046",
      "lat": "32.672545062093334"
    },
    {
      "id": "pt.ine.add.MAD.128375",
      "street": "ESTR RIBEIRA GARCIA",
      "house": "55",
      "postcode": "9325-373",
      "city": "ESTREITO CÂMARA DE LOBOS",
      "lon": "-16.994598753475746",
      "lat": "32.67552976470921"
    },
    {
      "id": "pt.ine.add.MAD.129432",
      "street": "R PADRE ANTONIO SOUSA COSTA",
      "house": "125",
      "postcode": "9325-370",
      "city": "ESTREITO CÂMARA DE LOBOS",
      "lon": "-16.991372514865272",
      "lat": "32.67237943884471"
    },
    {
      "id": "pt.ine.add.MAD.129447",
      "street": "R PADRE ANTÓNIO SOUSA DA COSTA",
      "house": "79",
      "postcode": "9325-370",
      "city": "ESTREITO CÂMARA DE LOBOS",
      "lon": "-16.993429300253787",
      "lat": "32.67040777936711"
    },
    {
      "id": "pt.ine.add.MAD.129477",
      "street": "CAM CASA DA VELHA",
      "house": "18",
      "postcode": "9325-368",
      "city": "ESTREITO CÂMARA DE LOBOS",
      "lon": "-16.988037668364846",
      "lat": "32.66816655293936"
    },
    {
      "id": "pt.ine.add.MAD.130079",
      "street": "R PADRE ANTÓNIO SOUSA DA COSTA",
      "house": "89",
      "postcode": "9325-370",
      "city": "ESTREITO CÂMARA DE LOBOS",
      "lon": "-16.993148118567277",
      "lat": "32.67070985991356"
    },
    {
      "id": "pt.ine.add.MAD.130167",
      "street": "VR LOMBINHO DO CORREGO",
      "house": "14",
      "postcode": "9325-331",
      "city": "ESTREITO CÂMARA DE LOBOS",
      "lon": "-16.993436576561447",
      "lat": "32.672175301051816"
    }
  ]
}