{
  "data": {
    "distrito": "Aveiro",
    "concelho": "Ovar",
    "freguesia": "Válega",
    "OBJECTID": 415,
    "BGRI2021": "01150700210",
    "DT21": "01",
    "DTMN21": "0115",
    "DTMNFR21": "011507",
    "DTMNFRSEC21": "011507002",
    "SECNUM21": "002",
    "SSNUM21": "10",
    "SECSSNUM21": "00210",
    "OBJECTID_1": 10637,
    "DT": "01",
    "CC": "15",
    "fr": "07",
    "SEC": "002",
    "SS": "10"
  },
  "addresses": [
    {
      "id": "pt.ine.add.PTCONT.294057",
      "street": "R CADAVAL",
      "house": "371",
      "postcode": "3880-583",
      "city": "VÁLEGA",
      "lon": "-8.598923655167583",
      "lat": "40.84532121332579"
    },
    {
      "id": "pt.ine.add.PTCONT.302431",
      "street": "R PONTE DE PEDRA",
      "house": "",
      "postcode": "3880-549",
      "city": "VÁLEGA",
      "lon": "-8.600817106058269",
      "lat": "40.841405452799464"
    },
    {
      "id": "pt.ine.add.PTCONT.331618",
      "street": "R CADAVAL",
      "house": "345",
      "postcode": "3880-583",
      "city": "VÁLEGA",
      "lon": "-8.598770389260501",
      "lat": "40.84544789978412"
    },
    {
      "id": "pt.ine.add.PTCONT.331619",
      "street": "R SERRADO",
      "house": "15",
      "postcode": "3880-599",
      "city": "VÁLEGA",
      "lon": "-8.600786345820921",
      "lat": "40.84208994532582"
    },
    {
      "id": "pt.ine.add.PTCONT.331742",
      "street": "R SERRADO",
      "house": "15",
      "postcode": "3880-599",
      "city": "VÁLEGA",
      "lon": "-8.600786345820921",
      "lat": "40.84208994532582"
    },
    {
      "id": "pt.ine.add.PTCONT.351067",
      "street": "R TOMADIAS",
      "house": "177",
      "postcode": "3880-568",
      "city": "VÁLEGA",
      "lon": "-8.601420533645793",
      "lat": "40.84290681287378"
    },
    {
      "id": "pt.ine.add.PTCONT.12577",
      "street": "R AUGUSTO PINHO DOS SANTOS",
      "house": "345",
      "postcode": "3880-523",
      "city": "VÁLEGA",
      "lon": "-8.597953977515786",
      "lat": "40.84570332779042"
    },
    {
      "id": "pt.ine.add.PTCONT.12905",
      "street": "R AUGUSTO PINHO DOS SANTOS",
      "house": "345",
      "postcode": "3880-523",
      "city": "VÁLEGA",
      "lon": "-8.597953977515786",
      "lat": "40.84570332779042"
    },
    {
      "id": "pt.ine.add.PTCONT.32142",
      "street": "R CADAVAL",
      "house": "701",
      "postcode": "3880-583",
      "city": "VÁLEGA",
      "lon": "-8.599622241018285",
      "lat": "40.84517431301433"
    },
    {
      "id": "pt.ine.add.PTCONT.39353",
      "street": "R TOMADIAS",
      "house": "299",
      "postcode": "3880-568",
      "city": "VÁLEGA",
      "lon": "-8.601936798920551",
      "lat": "40.84381420446218"
    },
    {
      "id": "pt.ine.add.PTCONT.63432",
      "street": "R PONTE DE PEDRA",
      "house": "258",
      "postcode": "3880-549",
      "city": "VÁLEGA",
      "lon": "-8.602355576602037",
      "lat": "40.8409849825121"
    },
    {
      "id": "pt.ine.add.PTCONT.74378",
      "street": "R PONTE DE PEDRA",
      "house": "284",
      "postcode": "3880-549",
      "city": "VÁLEGA",
      "lon": "-8.602698724271253",
      "lat": "40.84088453296799"
    },
    {
      "id": "pt.ine.add.PTCONT.79787",
      "street": "R SERRADO",
      "house": "27",
      "postcode": "3880-599",
      "city": "VÁLEGA",
      "lon": "-8.600585789379311",
      "lat": "40.84223483563676"
    },
    {
      "id": "pt.ine.add.PTCONT.86440",
      "street": "R CADAVAL",
      "house": "545",
      "postcode": "3880-583",
      "city": "VÁLEGA",
      "lon": "-8.600948575084416",
      "lat": "40.84492581117739"
    },
    {
      "id": "pt.ine.add.PTCONT.106526",
      "street": "R CADAVAL",
      "house": "495",
      "postcode": "3880-583",
      "city": "VÁLEGA",
      "lon": "-8.600309219187242",
      "lat": "40.84506347482254"
    },
    {
      "id": "pt.ine.add.PTCONT.117098",
      "street": "R REAL QTA M R DE PINHO",
      "house": "1055",
      "postcode": "3880-574",
      "city": "VÁLEGA",
      "lon": "-8.598896099380486",
      "lat": "40.843079120357544"
    },
    {
      "id": "pt.ine.add.PTCONT.119774",
      "street": "R TOMADIAS",
      "house": "401",
      "postcode": "3880-568",
      "city": "VÁLEGA",
      "lon": "-8.60187238052312",
      "lat": "40.84476897881327"
    },
    {
      "id": "pt.ine.add.PTCONT.119777",
      "street": "R CADAVAL",
      "house": "327",
      "postcode": "3880-583",
      "city": "VÁLEGA",
      "lon": "-8.598640837987269",
      "lat": "40.84557449033915"
    },
    {
      "id": "pt.ine.add.PTCONT.122491",
      "street": "R CADAVAL",
      "house": "525",
      "postcode": "3880-583",
      "city": "VÁLEGA",
      "lon": "-8.600664818044597",
      "lat": "40.84504402445092"
    },
    {
      "id": "pt.ine.add.PTCONT.178212",
      "street": "R CADAVAL",
      "house": "405",
      "postcode": "3880-583",
      "city": "VÁLEGA",
      "lon": "-8.599421672787289",
      "lat": "40.84531920128821"
    },
    {
      "id": "pt.ine.add.PTCONT.181902",
      "street": "R CADAVAL",
      "house": "295",
      "postcode": "3880-583",
      "city": "VÁLEGA",
      "lon": "-8.598131590227899",
      "lat": "40.8456665926204"
    },
    {
      "id": "pt.ine.add.PTCONT.199751",
      "street": "R ANTÓNIO COENTRO DE PINHO QTA DOS PINHEIROS BRAVOS",
      "house": "",
      "postcode": "3880-493",
      "city": "VÁLEGA",
      "lon": "-8.598766994088777",
      "lat": "40.84326874316324"
    },
    {
      "id": "pt.ine.add.PTCONT.215865",
      "street": "R ANTÓNIO COENTRO DE PINHO",
      "house": "144",
      "postcode": "3880-493",
      "city": "VÁLEGA",
      "lon": "-8.600050351974863",
      "lat": "40.84365976854254"
    },
    {
      "id": "pt.ine.add.PTCONT.218696",
      "street": "R CADAVAL",
      "house": "395",
      "postcode": "3880-583",
      "city": "VÁLEGA",
      "lon": "-8.599196757631802",
      "lat": "40.84537413923928"
    },
    {
      "id": "pt.ine.add.PTCONT.259269",
      "street": "R CADAVAL",
      "house": "485",
      "postcode": "3880-583",
      "city": "VÁLEGA",
      "lon": "-8.600227481108671",
      "lat": "40.84524390251885"
    },
    {
      "id": "pt.ine.add.PTCONT.264560",
      "street": "R CADAVAL",
      "house": "",
      "postcode": "3880-583",
      "city": "VÁLEGA",
      "lon": "-8.600475856988256",
      "lat": "40.84515284817467"
    },
    {
      "id": "pt.ine.add.PTCONT.264562",
      "street": "R TOMADIAS",
      "house": "274",
      "postcode": "3880-568",
      "city": "VÁLEGA",
      "lon": "-8.601247808867093",
      "lat": "40.84363690574577"
    },
    {
      "id": "pt.ine.add.PTCONT.278420",
      "street": "R CADAVAL",
      "house": "95",
      "postcode": "3880-583",
      "city": "VÁLEGA",
      "lon": "-8.599717164459577",
      "lat": "40.84518293394066"
    },
    {
      "id": "pt.ine.add.PTCONT.281192",
      "street": "R TOMADIAS DE BAIXO",
      "house": "51",
      "postcode": "3880-596",
      "city": "VÁLEGA",
      "lon": "-8.602357964716854",
      "lat": "40.84468596111359"
    },
    {
      "id": "pt.ine.add.PTCONT.285919",
      "street": "R TOMADIAS",
      "house": "152",
      "postcode": "3880-568",
      "city": "VÁLEGA",
      "lon": "-8.601039585574297",
      "lat": "40.84269224260198"
    }
  ]
}