{
  "data": {
    "distrito": "Aveiro",
    "concelho": "Santa Maria da Feira",
    "freguesia": "Uni√£o das freguesias de Santa Maria da Feira, Travanca, Sanfins e Espargo",
    "OBJECTID": 741,
    "BGRI2021": "01093501302",
    "DT21": "01",
    "DTMN21": "0109",
    "DTMNFR21": "010935",
    "DTMNFRSEC21": "010935013",
    "SECNUM21": "013",
    "SSNUM21": "02",
    "SECSSNUM21": "01302",
    "OBJECTID_1": 6646,
    "DT": "01",
    "CC": "09",
    "fr": "35",
    "SEC": "013",
    "SS": "02"
  },
  "addresses": [
    {
      "id": "pt.ine.add.PTCONT.298825",
      "street": "R CENTRAL",
      "house": "280",
      "postcode": "4520-818",
      "city": "TRAVANCA VFR",
      "lon": "-8.572139654068042",
      "lat": "40.89606024533905"
    },
    {
      "id": "pt.ine.add.PTCONT.305370",
      "street": "R CENTRALCENTRAL REIS DO FIDALGO",
      "house": "220",
      "postcode": "4520-818",
      "city": "TRAVANCA VFR",
      "lon": "-8.571715249495192",
      "lat": "40.89648508386705"
    },
    {
      "id": "pt.ine.add.PTCONT.312173",
      "street": "R CENTRAL",
      "house": "294",
      "postcode": "4520-818",
      "city": "TRAVANCA VFR",
      "lon": "-8.57223363466063",
      "lat": "40.89591581137662"
    },
    {
      "id": "pt.ine.add.PTCONT.14452",
      "street": "R CENTRAL REIS DO FIDALGO",
      "house": "200",
      "postcode": "4520-818",
      "city": "TRAVANCA VFR",
      "lon": "-8.571573681006955",
      "lat": "40.89661168880583"
    },
    {
      "id": "pt.ine.add.PTCONT.64743",
      "street": "R CENTRAL",
      "house": "100",
      "postcode": "4520-818",
      "city": "TRAVANCA VFR",
      "lon": "-8.570937625438633",
      "lat": "40.897334485946516"
    },
    {
      "id": "pt.ine.add.PTCONT.99964",
      "street": "R CENTRAL",
      "house": "250",
      "postcode": "4520-818",
      "city": "TRAVANCA VFR",
      "lon": "-8.57191537750446",
      "lat": "40.89624119408123"
    },
    {
      "id": "pt.ine.add.PTCONT.121869",
      "street": "R NSA SRA DOS NAVEGANTES",
      "house": "",
      "postcode": "4520-818",
      "city": "TRAVANCA VFR",
      "lon": "-8.571618319594924",
      "lat": "40.89798024239188"
    },
    {
      "id": "pt.ine.add.PTCONT.175736",
      "street": "R CENTRAL",
      "house": "82",
      "postcode": "4520-818",
      "city": "TRAVANCA VFR",
      "lon": "-8.570772082438982",
      "lat": "40.897425161865094"
    },
    {
      "id": "pt.ine.add.PTCONT.185267",
      "street": "R CENTRAL",
      "house": "284",
      "postcode": "4520-818",
      "city": "TRAVANCA VFR",
      "lon": "-8.572270663740518",
      "lat": "40.89613178463225"
    },
    {
      "id": "pt.ine.add.PTCONT.196166",
      "street": "R NSA SRA DOS NAVEGANTES",
      "house": "294",
      "postcode": "4520-818",
      "city": "TRAVANCA VFR",
      "lon": "-8.571914340183133",
      "lat": "40.89788006414417"
    },
    {
      "id": "pt.ine.add.PTCONT.209580",
      "street": "R CENTRAL",
      "house": "12",
      "postcode": "4520-818",
      "city": "TRAVANCA VFR",
      "lon": "-8.570430610711014",
      "lat": "40.89783167132194"
    },
    {
      "id": "pt.ine.add.PTCONT.239627",
      "street": "R NSA SRA DOS NAVEGANTES",
      "house": "100",
      "postcode": "4520-818",
      "city": "TRAVANCA VFR",
      "lon": "-8.571957225870639",
      "lat": "40.89718653458891"
    },
    {
      "id": "pt.ine.add.PTCONT.242281",
      "street": "R CENTRAL",
      "house": "270",
      "postcode": "4520-818",
      "city": "TRAVANCA VFR",
      "lon": "-8.572057063594249",
      "lat": "40.89613259778977"
    },
    {
      "id": "pt.ine.add.PTCONT.245124",
      "street": "R NSA SRA DOS NAVEGANTES",
      "house": "88",
      "postcode": "4520-818",
      "city": "TRAVANCA VFR",
      "lon": "-8.572202857488088",
      "lat": "40.896645314120654"
    },
    {
      "id": "pt.ine.add.PTCONT.250403",
      "street": "TV URGUEIRAIS",
      "house": "61",
      "postcode": "4520-818",
      "city": "TRAVANCA VFR",
      "lon": "-8.570186797726564",
      "lat": "40.89865202850084"
    }
  ]
}