{
  "data": {
    "distrito": "Braga",
    "concelho": "Braga",
    "freguesia": "Esporões",
    "OBJECTID": 1471,
    "BGRI2021": "03031300117",
    "DT21": "03",
    "DTMN21": "0303",
    "DTMNFR21": "030313",
    "DTMNFRSEC21": "030313001",
    "SECNUM21": "001",
    "SSNUM21": "17",
    "SECSSNUM21": "00117",
    "OBJECTID_1": 22096,
    "DT": "03",
    "CC": "03",
    "fr": "13",
    "SEC": "001",
    "SS": "17"
  },
  "addresses": [
    {
      "id": "pt.ine.add.PTCONT.462083",
      "street": "R NOVA DE 10 DE OUTUBRO",
      "house": "7",
      "postcode": "4705-474",
      "city": "ESPORÕES",
      "lon": "-8.414727399224127",
      "lat": "41.5114017496318"
    },
    {
      "id": "pt.ine.add.PTCONT.503162",
      "street": "R NOVA DE 10 DE OUTUBRO",
      "house": "8",
      "postcode": "4705-474",
      "city": "ESPORÕES",
      "lon": "-8.414631882864493",
      "lat": "41.51147401403541"
    },
    {
      "id": "pt.ine.add.PTCONT.538968",
      "street": "R GRACIOSA",
      "house": "32",
      "postcode": "4705-474",
      "city": "ESPORÕES",
      "lon": "-8.41402580265878",
      "lat": "41.51259196955953"
    },
    {
      "id": "pt.ine.add.PTCONT.559376",
      "street": "R COVELINHOS",
      "house": "1",
      "postcode": "4705-474",
      "city": "ESPORÕES",
      "lon": "-8.412869405199952",
      "lat": "41.51110015426971"
    },
    {
      "id": "pt.ine.add.PTCONT.562532",
      "street": "LOTEAM COVELINHOS",
      "house": "",
      "postcode": "4705-774",
      "city": "ESPORÕES",
      "lon": "-8.412798813097464",
      "lat": "41.51139745203337"
    },
    {
      "id": "pt.ine.add.PTCONT.569466",
      "street": "R PADRE MANUEL CARVALHO",
      "house": "22",
      "postcode": "4705-474",
      "city": "ESPORÕES",
      "lon": "-8.414898535023722",
      "lat": "41.5121936665554"
    },
    {
      "id": "pt.ine.add.PTCONT.595762",
      "street": "R GRACIOSA",
      "house": "28",
      "postcode": "4705-474",
      "city": "ESPORÕES",
      "lon": "-8.414553297684565",
      "lat": "41.51268972191999"
    },
    {
      "id": "pt.ine.add.PTCONT.668660",
      "street": "R PADRE MANUEL CARVALHO",
      "house": "26",
      "postcode": "4705-474",
      "city": "ESPORÕES",
      "lon": "-8.414839656533118",
      "lat": "41.51242791008117"
    },
    {
      "id": "pt.ine.add.PTCONT.676429",
      "street": "R 10 OUTUBRO",
      "house": "16",
      "postcode": "4705-474",
      "city": "ESPORÕES",
      "lon": "-8.413419600534414",
      "lat": "41.510909734385116"
    },
    {
      "id": "pt.ine.add.PTCONT.736951",
      "street": "R 10 DE OUTUBRO",
      "house": "13",
      "postcode": "4705-474",
      "city": "ESPORÕES",
      "lon": "-8.413672120161236",
      "lat": "41.51113421416973"
    },
    {
      "id": "pt.ine.add.PTCONT.748976",
      "street": "R 10 DE OUTUBRO",
      "house": "11",
      "postcode": "4705-474",
      "city": "ESPORÕES",
      "lon": "-8.413757097430363",
      "lat": "41.511395117627764"
    },
    {
      "id": "pt.ine.add.PTCONT.761957",
      "street": "R PADRE MANUEL CARVALHO",
      "house": "",
      "postcode": "4705-474",
      "city": "ESPORÕES",
      "lon": "-8.414981721929141",
      "lat": "41.512040397787395"
    },
    {
      "id": "pt.ine.add.PTCONT.769879",
      "street": "R GRACIOSA",
      "house": "68",
      "postcode": "4705-474",
      "city": "ESPORÕES",
      "lon": "-8.412426007174787",
      "lat": "41.511056212864375"
    },
    {
      "id": "pt.ine.add.PTCONT.775300",
      "street": "R GRACIOSA",
      "house": "38",
      "postcode": "4705-474",
      "city": "ESPORÕES",
      "lon": "-8.41367694084878",
      "lat": "41.51225067603868"
    },
    {
      "id": "pt.ine.add.PTCONT.782088",
      "street": "R GRACIOSA",
      "house": "",
      "postcode": "4705-474",
      "city": "ESPORÕES",
      "lon": "-8.413520362772546",
      "lat": "41.51205297388954"
    },
    {
      "id": "pt.ine.add.PTCONT.814810",
      "street": "R GRACIOSA",
      "house": "64",
      "postcode": "4705-474",
      "city": "ESPORÕES",
      "lon": "-8.41263041616287",
      "lat": "41.511235792662895"
    },
    {
      "id": "pt.ine.add.PTCONT.814857",
      "street": "R PADRE MANUEL CARVALHO",
      "house": "28",
      "postcode": "4705-474",
      "city": "ESPORÕES",
      "lon": "-8.414647411462983",
      "lat": "41.51229332357028"
    },
    {
      "id": "pt.ine.add.PTCONT.817967",
      "street": "R PADRE MANUEL CARVALHO",
      "house": "32",
      "postcode": "4705-474",
      "city": "ESPORÕES",
      "lon": "-8.414588922021961",
      "lat": "41.51261760419319"
    },
    {
      "id": "pt.ine.add.PTCONT.820394",
      "street": "R PADRE MANUEL CARVALHO",
      "house": "32",
      "postcode": "4705-474",
      "city": "ESPORÕES",
      "lon": "-8.414588922021961",
      "lat": "41.51261760419319"
    },
    {
      "id": "pt.ine.add.PTCONT.847216",
      "street": "R 10 DE OUTUBRO",
      "house": "31",
      "postcode": "4705-474",
      "city": "ESPORÕES",
      "lon": "-8.412508346777766",
      "lat": "41.51070486384584"
    }
  ]
}