{
  "data": {
    "ilha": "Ilha de São Miguel (Açores)",
    "concelho": "Povoação",
    "freguesia": "Furnas",
    "OBJECTID": 92,
    "BGRI2021": "42040300207",
    "DT21": "42",
    "DTMN21": "4204",
    "DTMNFR21": "420403",
    "DTMNFRSEC21": "420403002",
    "SECNUM21": "002",
    "SSNUM21": "07",
    "SECSSNUM21": "00207",
    "OBJECTID_1": 207188,
    "DT": "42",
    "CC": "04",
    "fr": "03",
    "SEC": "002",
    "SS": "07",
    "BGRI2021_1": "42040300207"
  },
  "addresses": [
    {
      "id": "pt.ine.add.AC26.27341",
      "street": "LOMBA DAS BARRACAS",
      "house": "8",
      "postcode": "9675-044",
      "city": "FURNAS",
      "lon": "-25.319174040251916",
      "lat": "37.76954285712307"
    },
    {
      "id": "pt.ine.add.AC26.27342",
      "street": "LOMBA DAS BARRACAS",
      "house": "18",
      "postcode": "9675-044",
      "city": "FURNAS",
      "lon": "-25.32018217688683",
      "lat": "37.769142671342216"
    },
    {
      "id": "pt.ine.add.AC26.27343",
      "street": "LOMBA BARRACAS",
      "house": "12",
      "postcode": "9675-031",
      "city": "FURNAS",
      "lon": "-25.319607698857773",
      "lat": "37.76994558356992"
    },
    {
      "id": "pt.ine.add.AC26.38645",
      "street": "R PADRE JOSE TAVARES",
      "house": "10",
      "postcode": "9675-062",
      "city": "FURNAS",
      "lon": "-25.31628538732722",
      "lat": "37.77276405054484"
    },
    {
      "id": "pt.ine.add.AC26.38646",
      "street": "LG MARQUES DA PRAIA E MONFORTE",
      "house": "4",
      "postcode": "9675-037",
      "city": "FURNAS",
      "lon": "-25.316333443950867",
      "lat": "37.77264757788131"
    },
    {
      "id": "pt.ine.add.AC26.38647",
      "street": "LG MARQUES DA PRAIA E MONFORTE",
      "house": "2",
      "postcode": "9675-037",
      "city": "FURNAS",
      "lon": "-25.31639182865917",
      "lat": "37.77257631413813"
    },
    {
      "id": "pt.ine.add.AC26.38648",
      "street": "R IGREJA VELHA",
      "house": "2",
      "postcode": "9675-041",
      "city": "FURNAS",
      "lon": "-25.316485693490062",
      "lat": "37.772442471514466"
    },
    {
      "id": "pt.ine.add.AC26.38649",
      "street": "R IGREJA VELHA",
      "house": "4",
      "postcode": "9675-041",
      "city": "FURNAS",
      "lon": "-25.31654387356025",
      "lat": "37.772380217035156"
    },
    {
      "id": "pt.ine.add.AC26.38650",
      "street": "R IGREJA VELHA",
      "house": "14",
      "postcode": "9675-041",
      "city": "FURNAS",
      "lon": "-25.316732419019218",
      "lat": "37.77207649402471"
    },
    {
      "id": "pt.ine.add.AC26.38651",
      "street": "R IGREJA VELHA",
      "house": "16",
      "postcode": "9675-041",
      "city": "FURNAS",
      "lon": "-25.316802561357377",
      "lat": "37.77198737351952"
    },
    {
      "id": "pt.ine.add.AC26.38652",
      "street": "R IGREJA VELHA",
      "house": "26",
      "postcode": "9675-041",
      "city": "FURNAS",
      "lon": "-25.317090802256246",
      "lat": "37.77179322150971"
    },
    {
      "id": "pt.ine.add.AC26.39435",
      "street": "R IGREJA VELHA",
      "house": "32",
      "postcode": "9675-041",
      "city": "FURNAS",
      "lon": "-25.31710664568209",
      "lat": "37.77159517788437"
    },
    {
      "id": "pt.ine.add.AC26.39436",
      "street": "R IGREJA VELHA",
      "house": "34",
      "postcode": "9675-041",
      "city": "FURNAS",
      "lon": "-25.317153270484102",
      "lat": "37.77154177028729"
    },
    {
      "id": "pt.ine.add.AC26.39437",
      "street": "R IGREJA VELHA",
      "house": "36",
      "postcode": "9675-041",
      "city": "FURNAS",
      "lon": "-25.317344583708728",
      "lat": "37.771616601136174"
    },
    {
      "id": "pt.ine.add.AC26.39438",
      "street": "R IGREJA VELHA",
      "house": "40",
      "postcode": "9675-041",
      "city": "FURNAS",
      "lon": "-25.31734928081871",
      "lat": "37.771409385991596"
    },
    {
      "id": "pt.ine.add.AC26.39439",
      "street": "R IGREJA VELHA",
      "house": "42",
      "postcode": "9675-041",
      "city": "FURNAS",
      "lon": "-25.317471559696965",
      "lat": "37.771023604752386"
    },
    {
      "id": "pt.ine.add.AC26.39440",
      "street": "R IGREJA VELHA",
      "house": "46",
      "postcode": "9675-041",
      "city": "FURNAS",
      "lon": "-25.317635560724142",
      "lat": "37.77080064007191"
    },
    {
      "id": "pt.ine.add.AC26.39441",
      "street": "R IGREJA VELHA",
      "house": "52",
      "postcode": "9675-041",
      "city": "FURNAS",
      "lon": "-25.31773289185141",
      "lat": "37.770513637237016"
    },
    {
      "id": "pt.ine.add.AC26.39442",
      "street": "CAN GRILA",
      "house": "4",
      "postcode": "9675-025",
      "city": "FURNAS",
      "lon": "-25.318863242569762",
      "lat": "37.77023236767819"
    },
    {
      "id": "pt.ine.add.AC26.39443",
      "street": "R IGREJA VELHA",
      "house": "58",
      "postcode": "9675-041",
      "city": "FURNAS",
      "lon": "-25.317806297992192",
      "lat": "37.77028036632125"
    },
    {
      "id": "pt.ine.add.AC26.39444",
      "street": "R IGREJA VELHA",
      "house": "60",
      "postcode": "9675-041",
      "city": "FURNAS",
      "lon": "-25.317830426340933",
      "lat": "37.77021762493201"
    },
    {
      "id": "pt.ine.add.AC26.39445",
      "street": "R IGREJA VELHA",
      "house": "62",
      "postcode": "9675-041",
      "city": "FURNAS",
      "lon": "-25.31789954481861",
      "lat": "37.770173550466346"
    },
    {
      "id": "pt.ine.add.AC26.39446",
      "street": "R IGREJA VELHA",
      "house": "64",
      "postcode": "9675-041",
      "city": "FURNAS",
      "lon": "-25.31796886735126",
      "lat": "37.770120466598755"
    },
    {
      "id": "pt.ine.add.AC26.39447",
      "street": "R IGREJA VELHA",
      "house": "66",
      "postcode": "9675-041",
      "city": "FURNAS",
      "lon": "-25.31804913113511",
      "lat": "37.77008556344346"
    },
    {
      "id": "pt.ine.add.AC26.39448",
      "street": "R AGUA QUENTE",
      "house": "4",
      "postcode": "9675-040",
      "city": "FURNAS",
      "lon": "-25.31823358229388",
      "lat": "37.76996202483862"
    },
    {
      "id": "pt.ine.add.AC26.39449",
      "street": "R AGUA QUENTE",
      "house": "12",
      "postcode": "9675-040",
      "city": "FURNAS",
      "lon": "-25.31846526778938",
      "lat": "37.769758049661604"
    },
    {
      "id": "pt.ine.add.AC26.39450",
      "street": "LOMBA DAS BARRACAS",
      "house": "",
      "postcode": "9675-044",
      "city": "FURNAS",
      "lon": "-25.319178731906263",
      "lat": "37.769335641710654"
    },
    {
      "id": "pt.ine.add.AC26.39451",
      "street": "LOMBA DAS BARRACAS",
      "house": "10A",
      "postcode": "9675-044",
      "city": "FURNAS",
      "lon": "-25.319137543775703",
      "lat": "37.76965048372411"
    },
    {
      "id": "pt.ine.add.AC26.45484",
      "street": "R AGUA QUENTE",
      "house": "8",
      "postcode": "9675-040",
      "city": "FURNAS",
      "lon": "-25.318394313287023",
      "lat": "37.7698832087332"
    },
    {
      "id": "pt.ine.add.AC26.45485",
      "street": "LOMBA DAS BARRACAS",
      "house": "14",
      "postcode": "9675-044",
      "city": "FURNAS",
      "lon": "-25.319894973830333",
      "lat": "37.76929178459318"
    },
    {
      "id": "pt.ine.add.AC26.51131",
      "street": "R IGREJA VELHA",
      "house": "48",
      "postcode": "9675-041",
      "city": "FURNAS",
      "lon": "-25.317671039105026",
      "lat": "37.77073806080612"
    },
    {
      "id": "pt.ine.add.AC26.51222",
      "street": "R AGUA QUENTE",
      "house": "22",
      "postcode": "9675-040",
      "city": "FURNAS",
      "lon": "-25.318619341789766",
      "lat": "37.76947185589299"
    },
    {
      "id": "pt.ine.add.AC26.55485",
      "street": "CAN GRILA",
      "house": "2",
      "postcode": "9675-025",
      "city": "FURNAS",
      "lon": "-25.317994546680907",
      "lat": "37.7704903364447"
    },
    {
      "id": "pt.ine.add.AC26.57703",
      "street": "R IGREJA VELHA",
      "house": "12",
      "postcode": "9675-041",
      "city": "FURNAS",
      "lon": "-25.316662276510108",
      "lat": "37.77216561448279"
    },
    {
      "id": "pt.ine.add.AC26.64494",
      "street": "R PADRE JOSE TAVARES",
      "house": "4",
      "postcode": "9675-062",
      "city": "FURNAS",
      "lon": "-25.316191112967097",
      "lat": "37.77291591167673"
    },
    {
      "id": "pt.ine.add.AC26.64892",
      "street": "R IGREJA VELHA",
      "house": "18",
      "postcode": "9675-041",
      "city": "FURNAS",
      "lon": "-25.316849186630765",
      "lat": "37.77193396605735"
    },
    {
      "id": "pt.ine.add.AC26.64893",
      "street": "R AGUA QUENTE",
      "house": "16",
      "postcode": "9675-040",
      "city": "FURNAS",
      "lon": "-25.31854777564824",
      "lat": "37.76962404316373"
    },
    {
      "id": "pt.ine.add.AC26.67615",
      "street": "R IGREJA VELHA",
      "house": "10",
      "postcode": "9675-041",
      "city": "FURNAS",
      "lon": "-25.316626183617178",
      "lat": "37.772255221442535"
    },
    {
      "id": "pt.ine.add.AC26.67616",
      "street": "ESTR REGIONAL SUL",
      "house": "9",
      "postcode": "9675-031",
      "city": "FURNAS",
      "lon": "-25.317356954652613",
      "lat": "37.77157171647524"
    },
    {
      "id": "pt.ine.add.AC26.67617",
      "street": "LOMBA DAS BARRACAS",
      "house": "16",
      "postcode": "9675-044",
      "city": "FURNAS",
      "lon": "-25.320032594939352",
      "lat": "37.76923066119326"
    },
    {
      "id": "pt.ine.add.AC26.70209",
      "street": "R IGREJA VELHA",
      "house": "50",
      "postcode": "9675-041",
      "city": "FURNAS",
      "lon": "-25.317695576077867",
      "lat": "37.77065730074147"
    },
    {
      "id": "pt.ine.add.AC26.70210",
      "street": "R IGREJA VELHA",
      "house": "56",
      "postcode": "9675-041",
      "city": "FURNAS",
      "lon": "-25.317770615795055",
      "lat": "37.770351954998276"
    },
    {
      "id": "pt.ine.add.AC26.72167",
      "street": "R IGREJA VELHA",
      "house": "28",
      "postcode": "9675-041",
      "city": "FURNAS",
      "lon": "-25.317047649675352",
      "lat": "37.77169347008549"
    },
    {
      "id": "pt.ine.add.AC26.79383",
      "street": "R AGUA QUENTE",
      "house": "20",
      "postcode": "9675-040",
      "city": "FURNAS",
      "lon": "-25.318583660785794",
      "lat": "37.76954344485371"
    },
    {
      "id": "pt.ine.add.AC26.80402",
      "street": "R AGUA QUENTE",
      "house": "14",
      "postcode": "9675-040",
      "city": "FURNAS",
      "lon": "-25.318512094497322",
      "lat": "37.76969563209759"
    },
    {
      "id": "pt.ine.add.AC26.81709",
      "street": "R IGREJA VELHA",
      "house": "22",
      "postcode": "9675-041",
      "city": "FURNAS",
      "lon": "-25.316919941519227",
      "lat": "37.77181781741906"
    },
    {
      "id": "pt.ine.add.AC26.84015",
      "street": "R PADRE JOSE TAVARES",
      "house": "8",
      "postcode": "9675-062",
      "city": "FURNAS",
      "lon": "-25.316261461138257",
      "lat": "37.77281778219351"
    },
    {
      "id": "pt.ine.add.AC26.84693",
      "street": "R IGREJA VELHA",
      "house": "20",
      "postcode": "9675-041",
      "city": "FURNAS",
      "lon": "-25.316896016115862",
      "lat": "37.771871549223206"
    },
    {
      "id": "pt.ine.add.AC26.98669",
      "street": "R AGUA QUENTE",
      "house": "6",
      "postcode": "9675-040",
      "city": "FURNAS",
      "lon": "-25.318314049879053",
      "lat": "37.769918112133965"
    },
    {
      "id": "pt.ine.add.AC26.98735",
      "street": "R PADRE JOSE TAVARES",
      "house": "6",
      "postcode": "9675-062",
      "city": "FURNAS",
      "lon": "-25.316226184892287",
      "lat": "37.77287135161456"
    },
    {
      "id": "pt.ine.add.AC26.106632",
      "street": "R IGREJA VELHA",
      "house": "54",
      "postcode": "9675-041",
      "city": "FURNAS",
      "lon": "-25.31773493352685",
      "lat": "37.77042354366198"
    },
    {
      "id": "pt.ine.add.AC26.106940",
      "street": "LOMBA DAS BARRACAS",
      "house": "10",
      "postcode": "9675-044",
      "city": "FURNAS",
      "lon": "-25.319161670784407",
      "lat": "37.769587742023965"
    }
  ]
}