{
  "data": {
    "distrito": "Lisboa",
    "concelho": "Lisboa",
    "freguesia": "Santa Clara",
    "OBJECTID": 2651,
    "BGRI2021": "11066401111",
    "DT21": "11",
    "DTMN21": "1106",
    "DTMNFR21": "110664",
    "DTMNFRSEC21": "110664011",
    "SECNUM21": "011",
    "SSNUM21": "11",
    "SECSSNUM21": "01111",
    "OBJECTID_1": 103152,
    "DT": "11",
    "CC": "06",
    "fr": "64",
    "SEC": "011",
    "SS": "11"
  },
  "addresses": [
    {
      "id": "pt.ine.add.PTCONT.2274069",
      "street": "R INTERIOR MALHA",
      "house": "36",
      "postcode": "1750-480",
      "city": "LISBOA",
      "lon": "-9.149001658981117",
      "lat": "38.78572933024771"
    },
    {
      "id": "pt.ine.add.PTCONT.2314832",
      "street": "R ANTONIO DUARTE",
      "house": "21",
      "postcode": "1750-481",
      "city": "LISBOA",
      "lon": "-9.149073387714292",
      "lat": "38.78591786991205"
    },
    {
      "id": "pt.ine.add.PTCONT.2328963",
      "street": "ESTR FORTE DA AMEIXOEIRA",
      "house": "",
      "postcode": "1750-113",
      "city": "LISBOA",
      "lon": "-9.147224394524967",
      "lat": "38.786195157023855"
    },
    {
      "id": "pt.ine.add.PTCONT.2406701",
      "street": "URB ALTO LUMIAR MALHA",
      "house": "41",
      "postcode": "1750-480",
      "city": "LISBOA",
      "lon": "-9.14913348155582",
      "lat": "38.786097502916455"
    },
    {
      "id": "pt.ine.add.PTCONT.2491723",
      "street": "URB ALTO DO LUMIAR MALHA 271",
      "house": "",
      "postcode": "1750-480",
      "city": "LISBOA",
      "lon": "-9.148953073148661",
      "lat": "38.78554959711682"
    },
    {
      "id": "pt.ine.add.PTCONT.2497685",
      "street": "URB ALTO DO LUMIAR MALHA 27.1.49",
      "house": "",
      "postcode": "1750-480",
      "city": "LISBOA",
      "lon": "-9.148440096877046",
      "lat": "38.785896351065944"
    },
    {
      "id": "pt.ine.add.PTCONT.2497686",
      "street": "URB ALTO DO LUMIAR MALHA 27.1.49",
      "house": "",
      "postcode": "1750-480",
      "city": "LISBOA",
      "lon": "-9.148440096877046",
      "lat": "38.785896351065944"
    },
    {
      "id": "pt.ine.add.PTCONT.2497860",
      "street": "URB ALTO DO LUMIAR MALHA 27.1.49",
      "house": "",
      "postcode": "1750-480",
      "city": "LISBOA",
      "lon": "-9.148440096877046",
      "lat": "38.785896351065944"
    },
    {
      "id": "pt.ine.add.PTCONT.2497861",
      "street": "URB ALTO DO LUMIAR MALHA 27.1.49",
      "house": "",
      "postcode": "1750-480",
      "city": "LISBOA",
      "lon": "-9.148440096877046",
      "lat": "38.785896351065944"
    },
    {
      "id": "pt.ine.add.PTCONT.2497862",
      "street": "URB ALTO DO LUMIAR MALHA 27.1.49",
      "house": "",
      "postcode": "1750-480",
      "city": "LISBOA",
      "lon": "-9.148440096877046",
      "lat": "38.785896351065944"
    },
    {
      "id": "pt.ine.add.PTCONT.2497863",
      "street": "URB ALTO DO LUMIAR MALHA 27.1.49",
      "house": "",
      "postcode": "1750-480",
      "city": "LISBOA",
      "lon": "-9.148440096877046",
      "lat": "38.785896351065944"
    },
    {
      "id": "pt.ine.add.PTCONT.2502278",
      "street": "URB ALTO DO LUMIAR MALHA 27.1.49",
      "house": "",
      "postcode": "1750-480",
      "city": "LISBOA",
      "lon": "-9.148440096877046",
      "lat": "38.785896351065944"
    },
    {
      "id": "pt.ine.add.PTCONT.2502813",
      "street": "URB ALTO DO LUMIAR MALHA 27.1.49",
      "house": "",
      "postcode": "1750-480",
      "city": "LISBOA",
      "lon": "-9.148440096877046",
      "lat": "38.785896351065944"
    },
    {
      "id": "pt.ine.add.PTCONT.2506312",
      "street": "URB ALTO DO LUMIAR MALHA 271",
      "house": "",
      "postcode": "1750-480",
      "city": "LISBOA",
      "lon": "-9.149025696341244",
      "lat": "38.78580118347319"
    },
    {
      "id": "pt.ine.add.PTCONT.2687705",
      "street": "URB ALTO DO LUMIAR MALHA 27.1",
      "house": "",
      "postcode": "1750-480",
      "city": "LISBOA",
      "lon": "-9.149206873083855",
      "lat": "38.78640312910037"
    },
    {
      "id": "pt.ine.add.PTCONT.2690501",
      "street": "URB ALTO DO LUMIAR",
      "house": "",
      "postcode": "1750-480",
      "city": "LISBOA",
      "lon": "-9.148300091962232",
      "lat": "38.78576245086248"
    },
    {
      "id": "pt.ine.add.PTCONT.2690502",
      "street": "URB ALTO DO LUMIAR",
      "house": "",
      "postcode": "1750-480",
      "city": "LISBOA",
      "lon": "-9.148300091962232",
      "lat": "38.78576245086248"
    },
    {
      "id": "pt.ine.add.PTCONT.2690503",
      "street": "URB ALTO DO LUMIAR",
      "house": "",
      "postcode": "1750-480",
      "city": "LISBOA",
      "lon": "-9.148300091962232",
      "lat": "38.78576245086248"
    },
    {
      "id": "pt.ine.add.PTCONT.2690504",
      "street": "URB ALTO DO LUMIAR",
      "house": "",
      "postcode": "1750-480",
      "city": "LISBOA",
      "lon": "-9.148300091962232",
      "lat": "38.78576245086248"
    },
    {
      "id": "pt.ine.add.PTCONT.2690505",
      "street": "URB ALTO DO LUMIAR",
      "house": "",
      "postcode": "1750-480",
      "city": "LISBOA",
      "lon": "-9.148300091962232",
      "lat": "38.78576245086248"
    },
    {
      "id": "pt.ine.add.PTCONT.2690506",
      "street": "URB ALTO DO LUMIAR",
      "house": "",
      "postcode": "1750-480",
      "city": "LISBOA",
      "lon": "-9.148300091962232",
      "lat": "38.78576245086248"
    },
    {
      "id": "pt.ine.add.PTCONT.2690507",
      "street": "URB ALTO DO LUMIAR",
      "house": "",
      "postcode": "1750-480",
      "city": "LISBOA",
      "lon": "-9.148300091962232",
      "lat": "38.78576245086248"
    },
    {
      "id": "pt.ine.add.PTCONT.2690508",
      "street": "URB ALTO DO LUMIAR",
      "house": "",
      "postcode": "1750-480",
      "city": "LISBOA",
      "lon": "-9.148300091962232",
      "lat": "38.78576245086248"
    },
    {
      "id": "pt.ine.add.PTCONT.2690509",
      "street": "URB ALTO DO LUMIAR",
      "house": "",
      "postcode": "1750-480",
      "city": "LISBOA",
      "lon": "-9.148300091962232",
      "lat": "38.78576245086248"
    },
    {
      "id": "pt.ine.add.PTCONT.2692238",
      "street": "URB ALTO DO LUMIAR",
      "house": "",
      "postcode": "1750-480",
      "city": "LISBOA",
      "lon": "-9.148300091962232",
      "lat": "38.78576245086248"
    },
    {
      "id": "pt.ine.add.PTCONT.2747677",
      "street": "URB ALTO DO LUMIAR MALHA 27.1",
      "house": "",
      "postcode": "1750-480",
      "city": "LISBOA",
      "lon": "-9.149170688621492",
      "lat": "38.78628634267097"
    },
    {
      "id": "pt.ine.add.PTCONT.2760477",
      "street": "URB ALTO LUMIAR MALHA",
      "house": "40",
      "postcode": "1750-480",
      "city": "LISBOA",
      "lon": "-9.149109571819018",
      "lat": "38.786034656383535"
    },
    {
      "id": "pt.ine.add.PTCONT.2797067",
      "street": "R F2 PER13 MALHA 271",
      "house": "",
      "postcode": "1750-480",
      "city": "LISBOA",
      "lon": "-9.148707961898047",
      "lat": "38.78611921763193"
    },
    {
      "id": "pt.ine.add.PTCONT.2818857",
      "street": "URB ALTO DO LUMIAR MALHA 27.1",
      "house": "",
      "postcode": "1750-480",
      "city": "LISBOA",
      "lon": "-9.149194470651384",
      "lat": "38.7863401825236"
    },
    {
      "id": "pt.ine.add.PTCONT.2849720",
      "street": "URB ALTO DO LUMIAR MALHA 271",
      "house": "",
      "postcode": "1750-480",
      "city": "LISBOA",
      "lon": "-9.14908566212531",
      "lat": "38.78597180984446"
    },
    {
      "id": "pt.ine.add.PTCONT.3009750",
      "street": "URB ALTO DO LUMIAR MALHA 271",
      "house": "",
      "postcode": "1750-480",
      "city": "LISBOA",
      "lon": "-9.148965347400013",
      "lat": "38.7856035370673"
    },
    {
      "id": "pt.ine.add.PTCONT.3149150",
      "street": "URB ALTA LISBOA MALHA",
      "house": "",
      "postcode": "1750-480",
      "city": "LISBOA",
      "lon": "-9.149219275539334",
      "lat": "38.78646607567488"
    },
    {
      "id": "pt.ine.add.PTCONT.3159136",
      "street": "URB ALTO DO LUMIAR MALHA 271",
      "house": "",
      "postcode": "1750-480",
      "city": "LISBOA",
      "lon": "-9.149157391335716",
      "lat": "38.786160349443236"
    },
    {
      "id": "pt.ine.add.PTCONT.3173239",
      "street": "URB ALTO DO LUMIAR MALHA 27.1",
      "house": "",
      "postcode": "1750-480",
      "city": "LISBOA",
      "lon": "-9.148977749489585",
      "lat": "38.7856664836807"
    },
    {
      "id": "pt.ine.add.PTCONT.3242404",
      "street": "R ANTÓNIO DUARTE",
      "house": "1",
      "postcode": "1750-481",
      "city": "LISBOA",
      "lon": "-9.149243441236976",
      "lat": "38.786546935503154"
    },
    {
      "id": "pt.ine.add.PTCONT.3278903",
      "street": "R 7 CÉUS MALHA 27.1.49",
      "house": "B",
      "postcode": "1750-286",
      "city": "LISBOA",
      "lon": "-9.14842565121503",
      "lat": "38.78568929773124"
    },
    {
      "id": "pt.ine.add.PTCONT.3278904",
      "street": "R 7 CÉUS MALHA 27.1.49",
      "house": "B",
      "postcode": "1750-286",
      "city": "LISBOA",
      "lon": "-9.14842565121503",
      "lat": "38.78568929773124"
    },
    {
      "id": "pt.ine.add.PTCONT.3278905",
      "street": "R 7 CÉUS MALHA 27.1.49",
      "house": "B",
      "postcode": "1750-286",
      "city": "LISBOA",
      "lon": "-9.14842565121503",
      "lat": "38.78568929773124"
    },
    {
      "id": "pt.ine.add.PTCONT.3278906",
      "street": "R 7 CÉUS MALHA 27.1.49",
      "house": "B",
      "postcode": "1750-286",
      "city": "LISBOA",
      "lon": "-9.14842565121503",
      "lat": "38.78568929773124"
    },
    {
      "id": "pt.ine.add.PTCONT.3278907",
      "street": "R 7 CÉUS MALHA 27.1.49",
      "house": "B",
      "postcode": "1750-286",
      "city": "LISBOA",
      "lon": "-9.14842565121503",
      "lat": "38.78568929773124"
    },
    {
      "id": "pt.ine.add.PTCONT.3278908",
      "street": "R 7 CÉUS MALHA 27.1.49",
      "house": "B",
      "postcode": "1750-286",
      "city": "LISBOA",
      "lon": "-9.14842565121503",
      "lat": "38.78568929773124"
    },
    {
      "id": "pt.ine.add.PTCONT.3278909",
      "street": "R 7 CÉUS MALHA 27.1.49",
      "house": "B",
      "postcode": "1750-286",
      "city": "LISBOA",
      "lon": "-9.14842565121503",
      "lat": "38.78568929773124"
    },
    {
      "id": "pt.ine.add.PTCONT.3278910",
      "street": "R 7 CÉUS MALHA 27.1.49",
      "house": "B",
      "postcode": "1750-286",
      "city": "LISBOA",
      "lon": "-9.14842565121503",
      "lat": "38.78568929773124"
    },
    {
      "id": "pt.ine.add.PTCONT.3278911",
      "street": "R 7 CÉUS MALHA 27.1.49",
      "house": "B",
      "postcode": "1750-286",
      "city": "LISBOA",
      "lon": "-9.14842565121503",
      "lat": "38.78568929773124"
    },
    {
      "id": "pt.ine.add.PTCONT.3278912",
      "street": "R 7 CÉUS MALHA 27.1.49",
      "house": "B",
      "postcode": "1750-286",
      "city": "LISBOA",
      "lon": "-9.14842565121503",
      "lat": "38.78568929773124"
    },
    {
      "id": "pt.ine.add.PTCONT.3278913",
      "street": "R 7 CÉUS MALHA 27.1.49",
      "house": "B",
      "postcode": "1750-286",
      "city": "LISBOA",
      "lon": "-9.14842565121503",
      "lat": "38.78568929773124"
    },
    {
      "id": "pt.ine.add.PTCONT.3278914",
      "street": "R 7 CÉUS MALHA 27.1.49",
      "house": "B",
      "postcode": "1750-286",
      "city": "LISBOA",
      "lon": "-9.14842565121503",
      "lat": "38.78568929773124"
    },
    {
      "id": "pt.ine.add.PTCONT.3284358",
      "street": "R 7 CÉUS MALHA 27.1.49",
      "house": "B",
      "postcode": "1750-286",
      "city": "LISBOA",
      "lon": "-9.14842565121503",
      "lat": "38.78568929773124"
    },
    {
      "id": "pt.ine.add.PTCONT.3286360",
      "street": "R 7 CÉUS MALHA 27.1.49",
      "house": "B",
      "postcode": "1750-286",
      "city": "LISBOA",
      "lon": "-9.14842565121503",
      "lat": "38.78568929773124"
    },
    {
      "id": "pt.ine.add.PTCONT.3286382",
      "street": "R 7 CÉUS MALHA 27.1.49",
      "house": "B",
      "postcode": "1750-286",
      "city": "LISBOA",
      "lon": "-9.14842565121503",
      "lat": "38.78568929773124"
    },
    {
      "id": "pt.ine.add.PTCONT.3287920",
      "street": "R 7 CEUS 27.1.49",
      "house": "",
      "postcode": "1750-286",
      "city": "LISBOA",
      "lon": "-9.148597750742324",
      "lat": "38.78565177112253"
    },
    {
      "id": "pt.ine.add.PTCONT.3287921",
      "street": "R 7 CEUS 27.1.49",
      "house": "",
      "postcode": "1750-286",
      "city": "LISBOA",
      "lon": "-9.148597750742324",
      "lat": "38.78565177112253"
    },
    {
      "id": "pt.ine.add.PTCONT.3287922",
      "street": "R 7 CEUS 27.1.49",
      "house": "",
      "postcode": "1750-286",
      "city": "LISBOA",
      "lon": "-9.148597750742324",
      "lat": "38.78565177112253"
    },
    {
      "id": "pt.ine.add.PTCONT.3287923",
      "street": "R 7 CEUS 27.1.49",
      "house": "",
      "postcode": "1750-286",
      "city": "LISBOA",
      "lon": "-9.148597750742324",
      "lat": "38.78565177112253"
    },
    {
      "id": "pt.ine.add.PTCONT.3287924",
      "street": "R 7 CEUS 27.1.49",
      "house": "",
      "postcode": "1750-286",
      "city": "LISBOA",
      "lon": "-9.148597750742324",
      "lat": "38.78565177112253"
    },
    {
      "id": "pt.ine.add.PTCONT.3287925",
      "street": "R 7 CEUS 27.1.49",
      "house": "",
      "postcode": "1750-286",
      "city": "LISBOA",
      "lon": "-9.148597750742324",
      "lat": "38.78565177112253"
    },
    {
      "id": "pt.ine.add.PTCONT.3287926",
      "street": "R 7 CEUS 27.1.49",
      "house": "",
      "postcode": "1750-286",
      "city": "LISBOA",
      "lon": "-9.148597750742324",
      "lat": "38.78565177112253"
    },
    {
      "id": "pt.ine.add.PTCONT.3287927",
      "street": "R 7 CEUS 27.1.49",
      "house": "",
      "postcode": "1750-286",
      "city": "LISBOA",
      "lon": "-9.148597750742324",
      "lat": "38.78565177112253"
    },
    {
      "id": "pt.ine.add.PTCONT.3287928",
      "street": "R 7 CEUS 27.1.49",
      "house": "",
      "postcode": "1750-286",
      "city": "LISBOA",
      "lon": "-9.148597750742324",
      "lat": "38.78565177112253"
    },
    {
      "id": "pt.ine.add.PTCONT.3287929",
      "street": "R 7 CEUS 27.1.49",
      "house": "",
      "postcode": "1750-286",
      "city": "LISBOA",
      "lon": "-9.148597750742324",
      "lat": "38.78565177112253"
    },
    {
      "id": "pt.ine.add.PTCONT.3293500",
      "street": "R 7 CEUS 27.1.49",
      "house": "",
      "postcode": "1750-286",
      "city": "LISBOA",
      "lon": "-9.148597750742324",
      "lat": "38.78565177112253"
    },
    {
      "id": "pt.ine.add.PTCONT.3343514",
      "street": "R ANTÓNIO DUARTE URB ALTO DO LUMIAR",
      "house": "",
      "postcode": "1750-481",
      "city": "LISBOA",
      "lon": "-9.149158158399151",
      "lat": "38.786214389424856"
    },
    {
      "id": "pt.ine.add.PTCONT.3442803",
      "street": "R 7 CÉUS MALHA 27.1.49",
      "house": "B",
      "postcode": "1750-286",
      "city": "LISBOA",
      "lon": "-9.14842565121503",
      "lat": "38.78568929773124"
    }
  ]
}