{
  "data": {
    "distrito": "Viana do Castelo",
    "concelho": "Viana do Castelo",
    "freguesia": "Alvarães",
    "OBJECTID": 673,
    "BGRI2021": "16090200108",
    "DT21": "16",
    "DTMN21": "1609",
    "DTMNFR21": "160902",
    "DTMNFRSEC21": "160902001",
    "SECNUM21": "001",
    "SSNUM21": "08",
    "SECSSNUM21": "00108",
    "OBJECTID_1": 178551,
    "DT": "16",
    "CC": "09",
    "fr": "02",
    "SEC": "001",
    "SS": "08"
  },
  "addresses": [
    {
      "id": "pt.ine.add.PTCONT.5143492",
      "street": "R LAMELA",
      "house": "115",
      "postcode": "4905-195",
      "city": "ALVARÃES",
      "lon": "-8.753846812033565",
      "lat": "41.63828366327026"
    },
    {
      "id": "pt.ine.add.PTCONT.5146796",
      "street": "R CORREDOURAS",
      "house": "222",
      "postcode": "4905-197",
      "city": "ALVARÃES",
      "lon": "-8.757776576471251",
      "lat": "41.645024052014854"
    },
    {
      "id": "pt.ine.add.PTCONT.5149205",
      "street": "R CRUZEIRO",
      "house": "1446",
      "postcode": "4905-205",
      "city": "ALVARÃES",
      "lon": "-8.757451536199756",
      "lat": "41.6349778364951"
    },
    {
      "id": "pt.ine.add.PTCONT.5149206",
      "street": "R CRUZEIRO",
      "house": "1446",
      "postcode": "4905-205",
      "city": "ALVARÃES",
      "lon": "-8.757451536199756",
      "lat": "41.6349778364951"
    },
    {
      "id": "pt.ine.add.PTCONT.5156150",
      "street": "R PACO",
      "house": "713",
      "postcode": "4905-208",
      "city": "ALVARÃES",
      "lon": "-8.757882426481306",
      "lat": "41.64604087888673"
    },
    {
      "id": "pt.ine.add.PTCONT.5158317",
      "street": "R CORREDOURAS",
      "house": "38",
      "postcode": "4905-197",
      "city": "ALVARÃES",
      "lon": "-8.757056398694798",
      "lat": "41.646270454709146"
    },
    {
      "id": "pt.ine.add.PTCONT.5168492",
      "street": "R CRUZEIRO",
      "house": "1622",
      "postcode": "4905-205",
      "city": "ALVARÃES",
      "lon": "-8.755003999569391",
      "lat": "41.63630562608379"
    },
    {
      "id": "pt.ine.add.PTCONT.5169633",
      "street": "R NOVAINHO",
      "house": "41",
      "postcode": "4905-194",
      "city": "ALVARÃES",
      "lon": "-8.753435481643823",
      "lat": "41.63794374807736"
    },
    {
      "id": "pt.ine.add.PTCONT.5169634",
      "street": "R CRUZEIRO",
      "house": "1586",
      "postcode": "4905-205",
      "city": "ALVARÃES",
      "lon": "-8.754850581251047",
      "lat": "41.636576563216444"
    },
    {
      "id": "pt.ine.add.PTCONT.5171737",
      "street": "R CORREDOURAS",
      "house": "6",
      "postcode": "4905-197",
      "city": "ALVARÃES",
      "lon": "-8.757034651246098",
      "lat": "41.64650466526133"
    },
    {
      "id": "pt.ine.add.PTCONT.5175342",
      "street": "R CRUZEIRO",
      "house": "1926",
      "postcode": "4905-205",
      "city": "ALVARÃES",
      "lon": "-8.757319179524067",
      "lat": "41.634942541007554"
    },
    {
      "id": "pt.ine.add.PTCONT.5181886",
      "street": "R CORREDOURAS",
      "house": "54",
      "postcode": "4905-197",
      "city": "ALVARÃES",
      "lon": "-8.757053619033961",
      "lat": "41.64598235593494"
    },
    {
      "id": "pt.ine.add.PTCONT.5184936",
      "street": "R LAMELA",
      "house": "129",
      "postcode": "4905-195",
      "city": "ALVARÃES",
      "lon": "-8.753945156711573",
      "lat": "41.63852622856242"
    },
    {
      "id": "pt.ine.add.PTCONT.5189780",
      "street": "R CRUZEIRO",
      "house": "1890",
      "postcode": "4905-205",
      "city": "ALVARÃES",
      "lon": "-8.756946893312472",
      "lat": "41.63491755130851"
    },
    {
      "id": "pt.ine.add.PTCONT.5203571",
      "street": "R CRUZEIRO",
      "house": "1776",
      "postcode": "4905-205",
      "city": "ALVARÃES",
      "lon": "-8.75586794539151",
      "lat": "41.63504044825933"
    },
    {
      "id": "pt.ine.add.PTCONT.5203572",
      "street": "R CRUZEIRO",
      "house": "1842",
      "postcode": "4905-205",
      "city": "ALVARÃES",
      "lon": "-8.756442338084092",
      "lat": "41.63486626700476"
    },
    {
      "id": "pt.ine.add.PTCONT.5214480",
      "street": "R CORREDOURAS",
      "house": "166",
      "postcode": "4905-197",
      "city": "ALVARÃES",
      "lon": "-8.757214534729338",
      "lat": "41.645243190496366"
    },
    {
      "id": "pt.ine.add.PTCONT.5214529",
      "street": "R CRUZEIRO",
      "house": "1830",
      "postcode": "4905-205",
      "city": "ALVARÃES",
      "lon": "-8.756310415805798",
      "lat": "41.634875985877564"
    },
    {
      "id": "pt.ine.add.PTCONT.5222772",
      "street": "R LAMELA",
      "house": "",
      "postcode": "4905-195",
      "city": "ALVARÃES",
      "lon": "-8.753512498139333",
      "lat": "41.63846553955714"
    },
    {
      "id": "pt.ine.add.PTCONT.5239414",
      "street": "R CRUZEIRO",
      "house": "1434",
      "postcode": "4905-205",
      "city": "ALVARÃES",
      "lon": "-8.753815379665415",
      "lat": "41.63750952584371"
    },
    {
      "id": "pt.ine.add.PTCONT.5242764",
      "street": "R CRUZEIRO",
      "house": "1508",
      "postcode": "4905-205",
      "city": "ALVARÃES",
      "lon": "-8.754568954149006",
      "lat": "41.63724435056078"
    },
    {
      "id": "pt.ine.add.PTCONT.5243889",
      "street": "R CRUZEIRO",
      "house": "1952",
      "postcode": "4905-205",
      "city": "ALVARÃES",
      "lon": "-8.75800479212785",
      "lat": "41.63510088022655"
    },
    {
      "id": "pt.ine.add.PTCONT.5249063",
      "street": "R NOVAINHO",
      "house": "93",
      "postcode": "4905-194",
      "city": "ALVARÃES",
      "lon": "-8.753618525232767",
      "lat": "41.63825788511894"
    },
    {
      "id": "pt.ine.add.PTCONT.5252626",
      "street": "R CRUZEIRO",
      "house": "1860",
      "postcode": "4905-205",
      "city": "ALVARÃES",
      "lon": "-8.756623651908207",
      "lat": "41.635000337289746"
    },
    {
      "id": "pt.ine.add.PTCONT.5261358",
      "street": "R NOVAINHO",
      "house": "9",
      "postcode": "4905-194",
      "city": "ALVARÃES",
      "lon": "-8.753432632586266",
      "lat": "41.63764664558007"
    },
    {
      "id": "pt.ine.add.PTCONT.5269616",
      "street": "R ESTRADA VELHA",
      "house": "105",
      "postcode": "4905-205",
      "city": "ALVARÃES",
      "lon": "-8.761351631206564",
      "lat": "41.6349385799472"
    },
    {
      "id": "pt.ine.add.PTCONT.5273796",
      "street": "R CRUZEIRO",
      "house": "1728",
      "postcode": "4905-205",
      "city": "ALVARÃES",
      "lon": "-8.755558088788318",
      "lat": "41.63526721593755"
    },
    {
      "id": "pt.ine.add.PTCONT.5276508",
      "street": "R CRUZEIRO",
      "house": "2134",
      "postcode": "4905-205",
      "city": "ALVARÃES",
      "lon": "-8.759873349419014",
      "lat": "41.6347215604571"
    },
    {
      "id": "pt.ine.add.PTCONT.5284517",
      "street": "R CRUZEIRO",
      "house": "",
      "postcode": "4905-205",
      "city": "ALVARÃES",
      "lon": "-8.756130663598363",
      "lat": "41.63490397099753"
    }
  ]
}