{
  "data": {
    "distrito": "Lisboa",
    "concelho": "Arruda dos Vinhos",
    "freguesia": "Arranhó",
    "OBJECTID": 53,
    "BGRI2021": "11020100105",
    "DT21": "11",
    "DTMN21": "1102",
    "DTMNFR21": "110201",
    "DTMNFRSEC21": "110201001",
    "SECNUM21": "001",
    "SSNUM21": "05",
    "SECSSNUM21": "00105",
    "OBJECTID_1": 99519,
    "DT": "11",
    "CC": "02",
    "fr": "01",
    "SEC": "001",
    "SS": "05"
  },
  "addresses": [
    {
      "id": "pt.ine.add.PTCONT.2277691",
      "street": "R 5 OUTUBRO",
      "house": "18",
      "postcode": "2630-028",
      "city": "ARRANHÓ",
      "lon": "-9.133847944568439",
      "lat": "38.9544204083505"
    },
    {
      "id": "pt.ine.add.PTCONT.2284621",
      "street": "R 5 DE OUTUBRO",
      "house": "16",
      "postcode": "2630-028",
      "city": "ARRANHÓ",
      "lon": "-9.133847944568439",
      "lat": "38.9544204083505"
    },
    {
      "id": "pt.ine.add.PTCONT.2405418",
      "street": "R REPUBLICA",
      "house": "8",
      "postcode": "2630-065",
      "city": "ARRANHÓ",
      "lon": "-9.134297162703291",
      "lat": "38.95437151776114"
    },
    {
      "id": "pt.ine.add.PTCONT.2477125",
      "street": "R 5 DE OUTUBRO",
      "house": "14",
      "postcode": "2630-028",
      "city": "ARRANHÓ",
      "lon": "-9.133781016602859",
      "lat": "38.95458311781902"
    },
    {
      "id": "pt.ine.add.PTCONT.2484415",
      "street": "R 5 DE OUTUBRO",
      "house": "14",
      "postcode": "2630-028",
      "city": "ARRANHÓ",
      "lon": "-9.133781016602859",
      "lat": "38.95458311781902"
    },
    {
      "id": "pt.ine.add.PTCONT.2492033",
      "street": "R REPUBLICA",
      "house": "2",
      "postcode": "2630-065",
      "city": "ARRANHÓ",
      "lon": "-9.133972545414082",
      "lat": "38.9542572042464"
    },
    {
      "id": "pt.ine.add.PTCONT.2497607",
      "street": "R ESPARGAL",
      "house": "12",
      "postcode": "2630-048",
      "city": "ARRANHÓ",
      "lon": "-9.133121103407444",
      "lat": "38.95605700195681"
    },
    {
      "id": "pt.ine.add.PTCONT.2595236",
      "street": "R FIGUEIRINHAS",
      "house": "12",
      "postcode": "2630-099",
      "city": "ARRANHÓ",
      "lon": "-9.131959040757499",
      "lat": "38.95463475622183"
    },
    {
      "id": "pt.ine.add.PTCONT.2640382",
      "street": "TV VIDEIRAS",
      "house": "1",
      "postcode": "2630-015",
      "city": "ARRANHÓ",
      "lon": "-9.13332444018897",
      "lat": "38.954929318045714"
    },
    {
      "id": "pt.ine.add.PTCONT.2657735",
      "street": "R REPUBLICA",
      "house": "4",
      "postcode": "2630-065",
      "city": "ARRANHÓ",
      "lon": "-9.134032752559804",
      "lat": "38.954436838531734"
    },
    {
      "id": "pt.ine.add.PTCONT.2701546",
      "street": "R ESPARGAL",
      "house": "2",
      "postcode": "2630-048",
      "city": "ARRANHÓ",
      "lon": "-9.134366243879635",
      "lat": "38.954361917568924"
    },
    {
      "id": "pt.ine.add.PTCONT.2922402",
      "street": "R 5 DE OUTUBRO",
      "house": "2",
      "postcode": "2630-028",
      "city": "ARRANHÓ",
      "lon": "-9.132398244918042",
      "lat": "38.95469404903336"
    },
    {
      "id": "pt.ine.add.PTCONT.2926214",
      "street": "R FIGUEIRINHAS",
      "house": "10",
      "postcode": "2630-099",
      "city": "ARRANHÓ",
      "lon": "-9.13155633717702",
      "lat": "38.95471026247864"
    },
    {
      "id": "pt.ine.add.PTCONT.2970225",
      "street": "R 5 DE OUTUBRO",
      "house": "10",
      "postcode": "2630-028",
      "city": "ARRANHÓ",
      "lon": "-9.133623077096807",
      "lat": "38.9548366828534"
    },
    {
      "id": "pt.ine.add.PTCONT.3024833",
      "street": "R FIGUEIRINHAS",
      "house": "8",
      "postcode": "2630-099",
      "city": "ARRANHÓ",
      "lon": "-9.131211180025728",
      "lat": "38.95477626766552"
    },
    {
      "id": "pt.ine.add.PTCONT.3054689",
      "street": "R FIGUEIRINHAS",
      "house": "2",
      "postcode": "2630-099",
      "city": "ARRANHÓ",
      "lon": "-9.130432545783778",
      "lat": "38.95436857775144"
    },
    {
      "id": "pt.ine.add.PTCONT.3110803",
      "street": "R ESPARGAL",
      "house": "4",
      "postcode": "2630-048",
      "city": "ARRANHÓ",
      "lon": "-9.134139732359031",
      "lat": "38.95466110925188"
    },
    {
      "id": "pt.ine.add.PTCONT.3167323",
      "street": "R ESPARGAL",
      "house": "10",
      "postcode": "2630-048",
      "city": "ARRANHÓ",
      "lon": "-9.133731449542896",
      "lat": "38.95516002483994"
    },
    {
      "id": "pt.ine.add.PTCONT.3212993",
      "street": "R ESPARGAL",
      "house": "6",
      "postcode": "2630-048",
      "city": "ARRANHÓ",
      "lon": "-9.133924120263135",
      "lat": "38.954915169362124"
    },
    {
      "id": "pt.ine.add.PTCONT.3222183",
      "street": "R 5 DE OUTUBRO",
      "house": "4A",
      "postcode": "2630-028",
      "city": "ARRANHÓ",
      "lon": "-9.132966989574522",
      "lat": "38.954941388592296"
    },
    {
      "id": "pt.ine.add.PTCONT.3314501",
      "street": "TV VIDEIRAS",
      "house": "7",
      "postcode": "2630-015",
      "city": "ARRANHÓ",
      "lon": "-9.132825516620244",
      "lat": "38.95554610519194"
    },
    {
      "id": "pt.ine.add.PTCONT.3324094",
      "street": "R 5 DE OUTUBRO",
      "house": "4",
      "postcode": "2630-028",
      "city": "ARRANHÓ",
      "lon": "-9.132940629443931",
      "lat": "38.95470741859616"
    },
    {
      "id": "pt.ine.add.PTCONT.3330842",
      "street": "R 5 DE OUTUBRO",
      "house": "4",
      "postcode": "2630-028",
      "city": "ARRANHÓ",
      "lon": "-9.132940629443931",
      "lat": "38.95470741859616"
    },
    {
      "id": "pt.ine.add.PTCONT.3369984",
      "street": "R ESPARGAL",
      "house": "8",
      "postcode": "2630-048",
      "city": "ARRANHÓ",
      "lon": "-9.13382195434854",
      "lat": "38.955033143372"
    },
    {
      "id": "pt.ine.add.PTCONT.3412259",
      "street": "R ESPARGAL",
      "house": "2B",
      "postcode": "2630-048",
      "city": "ARRANHÓ",
      "lon": "-9.134182956630312",
      "lat": "38.95445356525446"
    }
  ]
}