{
  "data": {
    "distrito": "Santar√©m",
    "concelho": "Abrantes",
    "freguesia": "Mouriscas",
    "OBJECTID": 1176,
    "BGRI2021": "14010600303",
    "DT21": "14",
    "DTMN21": "1401",
    "DTMNFR21": "140106",
    "DTMNFRSEC21": "140106003",
    "SECNUM21": "003",
    "SSNUM21": "03",
    "SECSSNUM21": "00303",
    "OBJECTID_1": 147244,
    "DT": "14",
    "CC": "01",
    "fr": "06",
    "SEC": "003",
    "SS": "03"
  },
  "addresses": [
    {
      "id": "pt.ine.add.PTCONT.4412497",
      "street": "QTA ARCANJO JUNTO",
      "house": "",
      "postcode": "2200-711",
      "city": "",
      "lon": "-8.122681043981915",
      "lat": "39.49119217635949"
    },
    {
      "id": "pt.ine.add.PTCONT.4438309",
      "street": "R COTOVELO",
      "house": "",
      "postcode": "2200-702",
      "city": "MOURISCAS",
      "lon": "-8.111425810294863",
      "lat": "39.49954910367524"
    },
    {
      "id": "pt.ine.add.PTCONT.4441254",
      "street": "R CARVALHEIROS",
      "house": "",
      "postcode": "2200-711",
      "city": "",
      "lon": "-8.124413147986653",
      "lat": "39.49091310206471"
    },
    {
      "id": "pt.ine.add.PTCONT.4461085",
      "street": "R FONTE SAPO",
      "house": "",
      "postcode": "2200-712",
      "city": "MOURISCAS",
      "lon": "-8.10857804722112",
      "lat": "39.497810190777216"
    },
    {
      "id": "pt.ine.add.PTCONT.4469729",
      "street": "R FONTE DOS CARVALHEIROS",
      "house": "",
      "postcode": "2200-711",
      "city": "",
      "lon": "-8.126935582129148",
      "lat": "39.492039137134086"
    },
    {
      "id": "pt.ine.add.PTCONT.4480521",
      "street": "R FONTE DOS CARVALHEIROS",
      "house": "",
      "postcode": "2200-711",
      "city": "",
      "lon": "-8.126505478537531",
      "lat": "39.491904008661024"
    },
    {
      "id": "pt.ine.add.PTCONT.4503798",
      "street": "R FONTE DOS CARVALHEIROS",
      "house": "",
      "postcode": "2200-711",
      "city": "",
      "lon": "-8.1270983211095",
      "lat": "39.492129215554215"
    },
    {
      "id": "pt.ine.add.PTCONT.4513722",
      "street": "R COTOVELO",
      "house": "",
      "postcode": "2200-702",
      "city": "MOURISCAS",
      "lon": "-8.110088928284084",
      "lat": "39.4992155884963"
    },
    {
      "id": "pt.ine.add.PTCONT.4567579",
      "street": "R FONTE DOS CARVALHEIROS",
      "house": "",
      "postcode": "2200-711",
      "city": "",
      "lon": "-8.126796115877736",
      "lat": "39.491696864034"
    },
    {
      "id": "pt.ine.add.PTCONT.4575633",
      "street": "R COTOVELO",
      "house": "",
      "postcode": "2200-702",
      "city": "MOURISCAS",
      "lon": "-8.109554124947172",
      "lat": "39.49924250231977"
    },
    {
      "id": "pt.ine.add.PTCONT.4579951",
      "street": "R FONTE DOS CARVALHEIROS",
      "house": "",
      "postcode": "2200-711",
      "city": "",
      "lon": "-8.127016950780833",
      "lat": "39.49209318336222"
    },
    {
      "id": "pt.ine.add.PTCONT.4588325",
      "street": "R FONTE DOS CARVALHEIROS",
      "house": "",
      "postcode": "2200-711",
      "city": "",
      "lon": "-8.126865857692744",
      "lat": "39.491768923719256"
    },
    {
      "id": "pt.ine.add.PTCONT.4615324",
      "street": "R FONTE DOS CARVALHEIROS",
      "house": "",
      "postcode": "2200-711",
      "city": "",
      "lon": "-8.126365972906322",
      "lat": "39.49199407055213"
    },
    {
      "id": "pt.ine.add.PTCONT.4621734",
      "street": "R COTOVELO",
      "house": "",
      "postcode": "2200-702",
      "city": "MOURISCAS",
      "lon": "-8.10810090506561",
      "lat": "39.49917014301688"
    },
    {
      "id": "pt.ine.add.PTCONT.4636120",
      "street": "R COTOVELO",
      "house": "",
      "postcode": "2200-702",
      "city": "MOURISCAS",
      "lon": "-8.109902963819062",
      "lat": "39.499062432897674"
    },
    {
      "id": "pt.ine.add.PTCONT.4651872",
      "street": "CSL MEIRINHA",
      "house": "",
      "postcode": "2200-702",
      "city": "MOURISCAS",
      "lon": "-8.116437992028493",
      "lat": "39.49382148961964"
    }
  ]
}