{
  "data": {
    "distrito": "Set√∫bal",
    "concelho": "Sesimbra",
    "freguesia": "Sesimbra (Castelo)",
    "OBJECTID": 340,
    "BGRI2021": "15110102007",
    "DT21": "15",
    "DTMN21": "1511",
    "DTMNFR21": "151101",
    "DTMNFRSEC21": "151101020",
    "SECNUM21": "020",
    "SSNUM21": "07",
    "SECSSNUM21": "02007",
    "OBJECTID_1": 169669,
    "DT": "15",
    "CC": "11",
    "fr": "01",
    "SEC": "020",
    "SS": "07"
  },
  "addresses": [
    {
      "id": "pt.ine.add.PTCONT.4673351",
      "street": "R AMADEO DE SOUZA-CARDOSO",
      "house": "",
      "postcode": "2970-873",
      "city": "SESIMBRA",
      "lon": "-9.114504124942174",
      "lat": "38.464356153735714"
    },
    {
      "id": "pt.ine.add.PTCONT.4687398",
      "street": "R AMADEO DE SOUZA-CARDOSO",
      "house": "",
      "postcode": "2970-873",
      "city": "SESIMBRA",
      "lon": "-9.114398821603734",
      "lat": "38.46419488687509"
    },
    {
      "id": "pt.ine.add.PTCONT.4712662",
      "street": "R AMADEO DE SOUZA-CARDOSO",
      "house": "",
      "postcode": "2970-873",
      "city": "SESIMBRA",
      "lon": "-9.112719022680432",
      "lat": "38.463677457608334"
    },
    {
      "id": "pt.ine.add.PTCONT.4741824",
      "street": "RAM DA SERRA",
      "house": "",
      "postcode": "2970-135",
      "city": "SESIMBRA",
      "lon": "-9.114287310442664",
      "lat": "38.4644210278864"
    },
    {
      "id": "pt.ine.add.PTCONT.4792164",
      "street": "R AMADEO DE SOUZA-CARDOSO",
      "house": "",
      "postcode": "2970-873",
      "city": "SESIMBRA",
      "lon": "-9.114388341833125",
      "lat": "38.464267040889126"
    },
    {
      "id": "pt.ine.add.PTCONT.4797821",
      "street": "R AMADEO DE SOUZA-CARDOSO",
      "house": "",
      "postcode": "2970-873",
      "city": "SESIMBRA",
      "lon": "-9.113626863586386",
      "lat": "38.46387705279612"
    },
    {
      "id": "pt.ine.add.PTCONT.4827538",
      "street": "CASA JOSE CORREIA MATEUS",
      "house": "",
      "postcode": "2970-135",
      "city": "SESIMBRA",
      "lon": "-9.112728161372377",
      "lat": "38.46435300217343"
    },
    {
      "id": "pt.ine.add.PTCONT.4830002",
      "street": "URB MARIA CORREIA BOTAS",
      "house": "",
      "postcode": "2970-873",
      "city": "SESIMBRA",
      "lon": "-9.113329490578746",
      "lat": "38.46391557459712"
    },
    {
      "id": "pt.ine.add.PTCONT.4834534",
      "street": "R AMADEO DE SOUZA-CARDOSO",
      "house": "",
      "postcode": "2970-873",
      "city": "SESIMBRA",
      "lon": "-9.114516557785588",
      "lat": "38.46442811580193"
    },
    {
      "id": "pt.ine.add.PTCONT.4873717",
      "street": "R LUIS DOURDIL",
      "house": "8",
      "postcode": "2970-042",
      "city": "SESIMBRA",
      "lon": "-9.112975202569533",
      "lat": "38.46482837480314"
    },
    {
      "id": "pt.ine.add.PTCONT.4891516",
      "street": "",
      "house": "",
      "postcode": "2970-873",
      "city": "SESIMBRA",
      "lon": "-9.112796653866711",
      "lat": "38.46518119102006"
    },
    {
      "id": "pt.ine.add.PTCONT.4909785",
      "street": "R LUIS DOURDIL",
      "house": "4",
      "postcode": "2970-042",
      "city": "SESIMBRA",
      "lon": "-9.112676606813702",
      "lat": "38.464776822402655"
    },
    {
      "id": "pt.ine.add.PTCONT.4919920",
      "street": "URB MARIA CORREIA BOTAS",
      "house": "",
      "postcode": "2970-873",
      "city": "SESIMBRA",
      "lon": "-9.113285738450559",
      "lat": "38.464069081442105"
    },
    {
      "id": "pt.ine.add.PTCONT.4927088",
      "street": "",
      "house": "",
      "postcode": "2970-873",
      "city": "SESIMBRA",
      "lon": "-9.112589829661347",
      "lat": "38.465137879150355"
    },
    {
      "id": "pt.ine.add.PTCONT.4948478",
      "street": "URB MARIA CORREIA BOTAS",
      "house": "",
      "postcode": "2970-873",
      "city": "SESIMBRA",
      "lon": "-9.11329609737728",
      "lat": "38.4639879202507"
    },
    {
      "id": "pt.ine.add.PTCONT.4955888",
      "street": "R AMADEO DE SOUZA-CARDOSO",
      "house": "",
      "postcode": "2970-873",
      "city": "SESIMBRA",
      "lon": "-9.112611649398474",
      "lat": "38.46420984397721"
    },
    {
      "id": "pt.ine.add.PTCONT.4963263",
      "street": "R AMADEO DE SOUZA-CARDOSO",
      "house": "",
      "postcode": "2970-873",
      "city": "SESIMBRA",
      "lon": "-9.11261432980698",
      "lat": "38.46440800371291"
    },
    {
      "id": "pt.ine.add.PTCONT.4966657",
      "street": "R AMADEO DE SOUZA-CARDOSO",
      "house": "",
      "postcode": "2970-873",
      "city": "SESIMBRA",
      "lon": "-9.114472807897297",
      "lat": "38.46458162304764"
    },
    {
      "id": "pt.ine.add.PTCONT.4967160",
      "street": "R LUIS DOURDIL",
      "house": "3",
      "postcode": "2970-042",
      "city": "SESIMBRA",
      "lon": "-9.112748513022401",
      "lat": "38.46501043633405"
    },
    {
      "id": "pt.ine.add.PTCONT.4970412",
      "street": "R LUIS DOURDIL",
      "house": "5",
      "postcode": "2970-042",
      "city": "SESIMBRA",
      "lon": "-9.113012618793565",
      "lat": "38.46505326877976"
    },
    {
      "id": "pt.ine.add.PTCONT.4974106",
      "street": "R AMADEO DE SOUZA-CARDOSO",
      "house": "",
      "postcode": "2970-873",
      "city": "SESIMBRA",
      "lon": "-9.113570314408706",
      "lat": "38.46393157578504"
    },
    {
      "id": "pt.ine.add.PTCONT.4994625",
      "street": "R AMADEO DE SOUZA-CARDOSO",
      "house": "",
      "postcode": "2970-873",
      "city": "SESIMBRA",
      "lon": "-9.112359605707423",
      "lat": "38.46505872941072"
    },
    {
      "id": "pt.ine.add.PTCONT.4999563",
      "street": "R LUIS DOURDIL",
      "house": "6",
      "postcode": "2970-042",
      "city": "SESIMBRA",
      "lon": "-9.112780079322517",
      "lat": "38.46480298194456"
    },
    {
      "id": "pt.ine.add.PTCONT.4999564",
      "street": "",
      "house": "",
      "postcode": "2970-873",
      "city": "SESIMBRA",
      "lon": "-9.114414305834218",
      "lat": "38.464492030349945"
    },
    {
      "id": "pt.ine.add.PTCONT.5033192",
      "street": "URB MARIA CORREIA BOTAS",
      "house": "",
      "postcode": "2970-873",
      "city": "SESIMBRA",
      "lon": "-9.113339605588033",
      "lat": "38.46381639888166"
    },
    {
      "id": "pt.ine.add.PTCONT.5036337",
      "street": "R AMADEO DE SOUZA-CARDOSO",
      "house": "",
      "postcode": "2970-873",
      "city": "SESIMBRA",
      "lon": "-9.112461007555364",
      "lat": "38.464931765806874"
    },
    {
      "id": "pt.ine.add.PTCONT.5039960",
      "street": "R LUIS DOURDIL",
      "house": "10",
      "postcode": "2970-042",
      "city": "SESIMBRA",
      "lon": "-9.113230533616624",
      "lat": "38.46506946227649"
    },
    {
      "id": "pt.ine.add.PTCONT.5047129",
      "street": "URB MARIA CORREIA BOTAS",
      "house": "",
      "postcode": "2970-873",
      "city": "SESIMBRA",
      "lon": "-9.113263923277893",
      "lat": "38.4641503384875"
    },
    {
      "id": "pt.ine.add.PTCONT.5071743",
      "street": "R AMADEO DE SOUZA-CARDOSO",
      "house": "",
      "postcode": "2970-873",
      "city": "SESIMBRA",
      "lon": "-9.112857592508988",
      "lat": "38.46460415154498"
    },
    {
      "id": "pt.ine.add.PTCONT.5076542",
      "street": "R AMADEO DE SOUZA-CARDOSO",
      "house": "",
      "postcode": "2970-873",
      "city": "SESIMBRA",
      "lon": "-9.113916074010195",
      "lat": "38.464081822121685"
    },
    {
      "id": "pt.ine.add.PTCONT.5100370",
      "street": "R AMADEO DE SOUZA-CARDOSO",
      "house": "",
      "postcode": "2970-873",
      "city": "SESIMBRA",
      "lon": "-9.112538034435902",
      "lat": "38.46469690656809"
    },
    {
      "id": "pt.ine.add.PTCONT.5119288",
      "street": "RAM RAMAL DA SERRA",
      "house": "",
      "postcode": "2970-135",
      "city": "SESIMBRA",
      "lon": "-9.114207604735864",
      "lat": "38.46445772857439"
    },
    {
      "id": "pt.ine.add.PTCONT.5126117",
      "street": "R LUIS DOURDIL",
      "house": "2",
      "postcode": "2970-042",
      "city": "SESIMBRA",
      "lon": "-9.112516461900785",
      "lat": "38.46479617799977"
    },
    {
      "id": "pt.ine.add.PTCONT.5127959",
      "street": "RAM RAMAL DA SERRA",
      "house": "",
      "postcode": "2970-135",
      "city": "SESIMBRA",
      "lon": "-9.113556182666859",
      "lat": "38.46458029014711"
    },
    {
      "id": "pt.ine.add.PTCONT.5130391",
      "street": "R AMADEO DE SOUZA-CARDOSO",
      "house": "",
      "postcode": "2970-873",
      "city": "SESIMBRA",
      "lon": "-9.112605188431667",
      "lat": "38.464579237453115"
    },
    {
      "id": "pt.ine.add.PTCONT.5130872",
      "street": "",
      "house": "",
      "postcode": "2970-873",
      "city": "SESIMBRA",
      "lon": "-9.113060760289043",
      "lat": "38.46522402334732"
    }
  ]
}