{
  "data": {
    "distrito": "Porto",
    "concelho": "Póvoa de Varzim",
    "freguesia": "União das freguesias de Aver-o-Mar, Amorim e Terroso",
    "OBJECTID": 450,
    "BGRI2021": "13131301005",
    "DT21": "13",
    "DTMN21": "1313",
    "DTMNFR21": "131313",
    "DTMNFRSEC21": "131313010",
    "SECNUM21": "010",
    "SSNUM21": "05",
    "SECSSNUM21": "01005",
    "OBJECTID_1": 140211,
    "DT": "13",
    "CC": "13",
    "fr": "13",
    "SEC": "010",
    "SS": "05"
  },
  "addresses": [
    {
      "id": "pt.ine.add.PTCONT.3570971",
      "street": "R SALVADOR",
      "house": "179",
      "postcode": "4495-564",
      "city": "TERROSO",
      "lon": "-8.7257252454657",
      "lat": "41.41105130312443"
    },
    {
      "id": "pt.ine.add.PTCONT.3611448",
      "street": "TV SALVADOR",
      "house": "187",
      "postcode": "4495-592",
      "city": "TERROSO",
      "lon": "-8.724922696876778",
      "lat": "41.41223494868824"
    },
    {
      "id": "pt.ine.add.PTCONT.3677392",
      "street": "R CERTAINHA",
      "house": "ILO",
      "postcode": "4495-519",
      "city": "TERROSO",
      "lon": "-8.725145494601886",
      "lat": "41.41306216378914"
    },
    {
      "id": "pt.ine.add.PTCONT.3732601",
      "street": "TV SALVADOR",
      "house": "26",
      "postcode": "4495-592",
      "city": "TERROSO",
      "lon": "-8.725987694137725",
      "lat": "41.41229249321229"
    },
    {
      "id": "pt.ine.add.PTCONT.3768549",
      "street": "R CARLOTO",
      "house": "87",
      "postcode": "4495-552",
      "city": "TERROSO",
      "lon": "-8.726032586126514",
      "lat": "41.41196812046612"
    },
    {
      "id": "pt.ine.add.PTCONT.3772134",
      "street": "R BELAVISTA",
      "house": "125",
      "postcode": "4495-517",
      "city": "TERROSO",
      "lon": "-8.724871098920913",
      "lat": "41.41182103337266"
    },
    {
      "id": "pt.ine.add.PTCONT.3780716",
      "street": "R CERTAINHA",
      "house": "94",
      "postcode": "4495-519",
      "city": "TERROSO",
      "lon": "-8.72526468551982",
      "lat": "41.41301653077634"
    },
    {
      "id": "pt.ine.add.PTCONT.3807163",
      "street": "R BELAVISTA",
      "house": "27",
      "postcode": "4495-517",
      "city": "TERROSO",
      "lon": "-8.725521441388455",
      "lat": "41.410998329090944"
    },
    {
      "id": "pt.ine.add.PTCONT.3811631",
      "street": "R BELAVISTA",
      "house": "89",
      "postcode": "4495-517",
      "city": "TERROSO",
      "lon": "-8.725036328638483",
      "lat": "41.41157707735383"
    },
    {
      "id": "pt.ine.add.PTCONT.3859038",
      "street": "TV SALVADOR",
      "house": "180",
      "postcode": "4495-592",
      "city": "TERROSO",
      "lon": "-8.726249008630985",
      "lat": "41.41209305995484"
    },
    {
      "id": "pt.ine.add.PTCONT.3890247",
      "street": "R BELAVISTA",
      "house": "39",
      "postcode": "4495-517",
      "city": "TERROSO",
      "lon": "-8.725391357845712",
      "lat": "41.41116106954031"
    },
    {
      "id": "pt.ine.add.PTCONT.3898771",
      "street": "R CERTAINHA",
      "house": "136",
      "postcode": "4495-519",
      "city": "TERROSO",
      "lon": "-8.724810942091722",
      "lat": "41.41309990050657"
    },
    {
      "id": "pt.ine.add.PTCONT.3936920",
      "street": "R BELAVISTA",
      "house": "227",
      "postcode": "4495-517",
      "city": "TERROSO",
      "lon": "-8.724807592239209",
      "lat": "41.412730756723164"
    },
    {
      "id": "pt.ine.add.PTCONT.3972696",
      "street": "R SALVADOR",
      "house": "163",
      "postcode": "4495-564",
      "city": "TERROSO",
      "lon": "-8.725821004145832",
      "lat": "41.41105981379355"
    },
    {
      "id": "pt.ine.add.PTCONT.4000857",
      "street": "R BELAVISTA",
      "house": "71",
      "postcode": "4495-517",
      "city": "TERROSO",
      "lon": "-8.725166577387292",
      "lat": "41.41143234432358"
    },
    {
      "id": "pt.ine.add.PTCONT.4085975",
      "street": "R CARLOTO",
      "house": "129",
      "postcode": "4495-552",
      "city": "TERROSO",
      "lon": "-8.725671583786493",
      "lat": "41.41172687420174"
    },
    {
      "id": "pt.ine.add.PTCONT.4177803",
      "street": "TV SALVADOR",
      "house": "50",
      "postcode": "4495-592",
      "city": "TERROSO",
      "lon": "-8.725701394574111",
      "lat": "41.41237500350019"
    },
    {
      "id": "pt.ine.add.PTCONT.4262549",
      "street": "TV SALVADOR",
      "house": "131",
      "postcode": "4495-592",
      "city": "TERROSO",
      "lon": "-8.726298977400257",
      "lat": "41.41232690446795"
    },
    {
      "id": "pt.ine.add.PTCONT.4297438",
      "street": "PC CRUZEIRO",
      "house": "245",
      "postcode": "4495-511",
      "city": "TERROSO",
      "lon": "-8.72631323071542",
      "lat": "41.41257894095161"
    },
    {
      "id": "pt.ine.add.PTCONT.4297440",
      "street": "R BELAVISTA",
      "house": "51",
      "postcode": "4495-517",
      "city": "TERROSO",
      "lon": "-8.725320417780818",
      "lat": "41.411251473997616"
    },
    {
      "id": "pt.ine.add.PTCONT.4336096",
      "street": "R BELAVISTA",
      "house": "63",
      "postcode": "4495-517",
      "city": "TERROSO",
      "lon": "-8.725249559280174",
      "lat": "41.4113508819197"
    },
    {
      "id": "pt.ine.add.PTCONT.4339673",
      "street": "R SALVADOR",
      "house": "81",
      "postcode": "4495-564",
      "city": "TERROSO",
      "lon": "-8.7264614993469",
      "lat": "41.411785830756834"
    },
    {
      "id": "pt.ine.add.PTCONT.4374177",
      "street": "TV SALVADOR",
      "house": "217",
      "postcode": "4495-592",
      "city": "TERROSO",
      "lon": "-8.726323716188535",
      "lat": "41.412416816196284"
    },
    {
      "id": "pt.ine.add.PTCONT.4380511",
      "street": "R CERTAINHA",
      "house": "36",
      "postcode": "4495-519",
      "city": "TERROSO",
      "lon": "-8.725991705549907",
      "lat": "41.412733664987805"
    },
    {
      "id": "pt.ine.add.PTCONT.4388418",
      "street": "TV SALVADOR",
      "house": "19",
      "postcode": "4495-592",
      "city": "TERROSO",
      "lon": "-8.726060271879305",
      "lat": "41.41238215847562"
    }
  ]
}