{
  "data": {
    "distrito": "Setúbal",
    "concelho": "Sesimbra",
    "freguesia": "Sesimbra (Castelo)",
    "OBJECTID": 657,
    "BGRI2021": "15110100115",
    "DT21": "15",
    "DTMN21": "1511",
    "DTMNFR21": "151101",
    "DTMNFRSEC21": "151101001",
    "SECNUM21": "001",
    "SSNUM21": "15",
    "SECSSNUM21": "00115",
    "OBJECTID_1": 169334,
    "DT": "15",
    "CC": "11",
    "fr": "01",
    "SEC": "001",
    "SS": "15"
  },
  "addresses": [
    {
      "id": "pt.ine.add.PTCONT.4666156",
      "street": "R CABECO O NOSSO SONNO",
      "house": "2920",
      "postcode": "2970-171",
      "city": "SESIMBRA",
      "lon": "-9.184573572940476",
      "lat": "38.43245348770103"
    },
    {
      "id": "pt.ine.add.PTCONT.4666157",
      "street": "R PAZ",
      "house": "",
      "postcode": "2970-167",
      "city": "SESIMBRA",
      "lon": "-9.185382668905254",
      "lat": "38.4321759759257"
    },
    {
      "id": "pt.ine.add.PTCONT.4673506",
      "street": "R BOTEQUIM",
      "house": "2111",
      "postcode": "2970-181",
      "city": "SESIMBRA",
      "lon": "-9.180903034927935",
      "lat": "38.43522488594285"
    },
    {
      "id": "pt.ine.add.PTCONT.4673946",
      "street": "BC RUIVO",
      "house": "1973",
      "postcode": "2970-161",
      "city": "SESIMBRA",
      "lon": "-9.184347645703843",
      "lat": "38.431878984853086"
    },
    {
      "id": "pt.ine.add.PTCONT.4676948",
      "street": "R RIBEIRO",
      "house": "1573",
      "postcode": "2970-174",
      "city": "SESIMBRA",
      "lon": "-9.186784840233086",
      "lat": "38.430154528473906"
    },
    {
      "id": "pt.ine.add.PTCONT.4688112",
      "street": "R RIBEIRO",
      "house": "1915",
      "postcode": "2970-174",
      "city": "SESIMBRA",
      "lon": "-9.187214797893281",
      "lat": "38.43058305890004"
    },
    {
      "id": "pt.ine.add.PTCONT.4706310",
      "street": "EN 379",
      "house": "",
      "postcode": "2970-181",
      "city": "SESIMBRA",
      "lon": "-9.184111878206139",
      "lat": "38.432205398002665"
    },
    {
      "id": "pt.ine.add.PTCONT.4706311",
      "street": "R CABECO",
      "house": "",
      "postcode": "2970-171",
      "city": "SESIMBRA",
      "lon": "-9.185861835351567",
      "lat": "38.43283828449646"
    },
    {
      "id": "pt.ine.add.PTCONT.4708950",
      "street": "R CABECO CCI",
      "house": "CCI 1929",
      "postcode": "2970-171",
      "city": "SESIMBRA",
      "lon": "-9.185764530866754",
      "lat": "38.433235523001585"
    },
    {
      "id": "pt.ine.add.PTCONT.4713439",
      "street": "EN 379 QTA DO ESPICHEU",
      "house": "2719",
      "postcode": "2970-181",
      "city": "SESIMBRA",
      "lon": "-9.182167363096731",
      "lat": "38.43474514231924"
    },
    {
      "id": "pt.ine.add.PTCONT.4724860",
      "street": "R MARINHEIROS",
      "house": "1904",
      "postcode": "2970-176",
      "city": "SESIMBRA",
      "lon": "-9.184730181298352",
      "lat": "38.43140712156087"
    },
    {
      "id": "pt.ine.add.PTCONT.4735654",
      "street": "EN 379",
      "house": "",
      "postcode": "2970-181",
      "city": "SESIMBRA",
      "lon": "-9.180823135409067",
      "lat": "38.435243616978624"
    },
    {
      "id": "pt.ine.add.PTCONT.4739367",
      "street": "R PAZ",
      "house": "1909",
      "postcode": "2970-167",
      "city": "SESIMBRA",
      "lon": "-9.185209336600108",
      "lat": "38.432069433043935"
    },
    {
      "id": "pt.ine.add.PTCONT.4743007",
      "street": "EN 379",
      "house": "",
      "postcode": "2970-181",
      "city": "SESIMBRA",
      "lon": "-9.184379255495111",
      "lat": "38.431689527328956"
    },
    {
      "id": "pt.ine.add.PTCONT.4746805",
      "street": "EN 379",
      "house": "1976",
      "postcode": "2970-181",
      "city": "SESIMBRA",
      "lon": "-9.18415546196634",
      "lat": "38.43205186626954"
    },
    {
      "id": "pt.ine.add.PTCONT.4757531",
      "street": "EN 379",
      "house": "",
      "postcode": "2970-181",
      "city": "SESIMBRA",
      "lon": "-9.184288954752086",
      "lat": "38.4317804202917"
    },
    {
      "id": "pt.ine.add.PTCONT.4760374",
      "street": "R RATO CCI",
      "house": "CCI 2004",
      "postcode": "2970-173",
      "city": "SESIMBRA",
      "lon": "-9.183826668268274",
      "lat": "38.43544192825838"
    },
    {
      "id": "pt.ine.add.PTCONT.4760375",
      "street": "R RATO CCI",
      "house": "CCI 2004",
      "postcode": "2970-173",
      "city": "SESIMBRA",
      "lon": "-9.183826668268274",
      "lat": "38.43544192825838"
    },
    {
      "id": "pt.ine.add.PTCONT.4761196",
      "street": "R CABECO",
      "house": "1921",
      "postcode": "2970-171",
      "city": "SESIMBRA",
      "lon": "-9.18468951972408",
      "lat": "38.432551538265955"
    },
    {
      "id": "pt.ine.add.PTCONT.4772055",
      "street": "R PAZ",
      "house": "1910",
      "postcode": "2970-167",
      "city": "SESIMBRA",
      "lon": "-9.18444957347441",
      "lat": "38.434958902010216"
    },
    {
      "id": "pt.ine.add.PTCONT.4782582",
      "street": "R CABECO",
      "house": "1919",
      "postcode": "2970-171",
      "city": "SESIMBRA",
      "lon": "-9.184366671957932",
      "lat": "38.432401294491555"
    },
    {
      "id": "pt.ine.add.PTCONT.4785957",
      "street": "EN 379",
      "house": "",
      "postcode": "2970-181",
      "city": "SESIMBRA",
      "lon": "-9.18123356303728",
      "lat": "38.43511383036672"
    },
    {
      "id": "pt.ine.add.PTCONT.4785989",
      "street": "R PAZ SANTO ANTÓNIO",
      "house": "",
      "postcode": "2970-167",
      "city": "SESIMBRA",
      "lon": "-9.184459411382504",
      "lat": "38.43168880814656"
    },
    {
      "id": "pt.ine.add.PTCONT.4785990",
      "street": "R PAZ SANTO ANTÓNIO",
      "house": "",
      "postcode": "2970-167",
      "city": "SESIMBRA",
      "lon": "-9.184459411382504",
      "lat": "38.43168880814656"
    },
    {
      "id": "pt.ine.add.PTCONT.4796396",
      "street": "EN 379",
      "house": "1903",
      "postcode": "2970-181",
      "city": "SESIMBRA",
      "lon": "-9.184887617654454",
      "lat": "38.43120752625807"
    },
    {
      "id": "pt.ine.add.PTCONT.4796860",
      "street": "EN 379",
      "house": "1903",
      "postcode": "2970-181",
      "city": "SESIMBRA",
      "lon": "-9.184887617654454",
      "lat": "38.43120752625807"
    },
    {
      "id": "pt.ine.add.PTCONT.4803588",
      "street": "EN 379",
      "house": "",
      "postcode": "2970-181",
      "city": "SESIMBRA",
      "lon": "-9.18098293440436",
      "lat": "38.43520615485312"
    },
    {
      "id": "pt.ine.add.PTCONT.4817823",
      "street": "R RIBEIRO",
      "house": "CCI 1512",
      "postcode": "2970-174",
      "city": "SESIMBRA",
      "lon": "-9.187543538157954",
      "lat": "38.4311386145174"
    },
    {
      "id": "pt.ine.add.PTCONT.4839072",
      "street": "R PAZ",
      "house": "",
      "postcode": "2970-167",
      "city": "SESIMBRA",
      "lon": "-9.184154450114905",
      "lat": "38.43514171526825"
    },
    {
      "id": "pt.ine.add.PTCONT.4839071",
      "street": "R PAZ",
      "house": "",
      "postcode": "2970-167",
      "city": "SESIMBRA",
      "lon": "-9.18430266506274",
      "lat": "38.43509534425785"
    },
    {
      "id": "pt.ine.add.PTCONT.4870932",
      "street": "EN 379",
      "house": "1877",
      "postcode": "2970-181",
      "city": "SESIMBRA",
      "lon": "-9.185171272601139",
      "lat": "38.431024814100766"
    },
    {
      "id": "pt.ine.add.PTCONT.4870933",
      "street": "EN 379",
      "house": "1877",
      "postcode": "2970-181",
      "city": "SESIMBRA",
      "lon": "-9.185171272601139",
      "lat": "38.431024814100766"
    },
    {
      "id": "pt.ine.add.PTCONT.4874661",
      "street": "R CABECO",
      "house": "1901",
      "postcode": "2970-171",
      "city": "SESIMBRA",
      "lon": "-9.185279009942079",
      "lat": "38.43292459407386"
    },
    {
      "id": "pt.ine.add.PTCONT.4879951",
      "street": "R RATO CCI",
      "house": "CCI 2002",
      "postcode": "2970-173",
      "city": "SESIMBRA",
      "lon": "-9.183894724046757",
      "lat": "38.435396276562344"
    },
    {
      "id": "pt.ine.add.PTCONT.4895979",
      "street": "EN 379",
      "house": "",
      "postcode": "2970-181",
      "city": "SESIMBRA",
      "lon": "-9.184234834698174",
      "lat": "38.43199710457203"
    },
    {
      "id": "pt.ine.add.PTCONT.4938773",
      "street": "R PAZ",
      "house": "1817",
      "postcode": "2970-167",
      "city": "SESIMBRA",
      "lon": "-9.185117025006363",
      "lat": "38.431232491661326"
    },
    {
      "id": "pt.ine.add.PTCONT.4938774",
      "street": "R PAZ",
      "house": "1817",
      "postcode": "2970-167",
      "city": "SESIMBRA",
      "lon": "-9.185117025006363",
      "lat": "38.431232491661326"
    },
    {
      "id": "pt.ine.add.PTCONT.4942237",
      "street": "EN 379",
      "house": "1811",
      "postcode": "2970-181",
      "city": "SESIMBRA",
      "lon": "-9.186545948295715",
      "lat": "38.4302647758344"
    },
    {
      "id": "pt.ine.add.PTCONT.4942238",
      "street": "EN 379",
      "house": "1811",
      "postcode": "2970-181",
      "city": "SESIMBRA",
      "lon": "-9.186545948295715",
      "lat": "38.4302647758344"
    },
    {
      "id": "pt.ine.add.PTCONT.4949361",
      "street": "R PAZ",
      "house": "",
      "postcode": "2970-167",
      "city": "SESIMBRA",
      "lon": "-9.18467802252561",
      "lat": "38.43175891268066"
    },
    {
      "id": "pt.ine.add.PTCONT.4949362",
      "street": "R PAZ",
      "house": "",
      "postcode": "2970-167",
      "city": "SESIMBRA",
      "lon": "-9.18467802252561",
      "lat": "38.43175891268066"
    },
    {
      "id": "pt.ine.add.PTCONT.4952882",
      "street": "R PAZ",
      "house": "",
      "postcode": "2970-167",
      "city": "SESIMBRA",
      "lon": "-9.184549973058862",
      "lat": "38.431615929276056"
    },
    {
      "id": "pt.ine.add.PTCONT.4960422",
      "street": "R MARINHEIROS",
      "house": "1903",
      "postcode": "2970-176",
      "city": "SESIMBRA",
      "lon": "-9.18524729706397",
      "lat": "38.431528595291546"
    },
    {
      "id": "pt.ine.add.PTCONT.4964049",
      "street": "R PAZ",
      "house": "1928",
      "postcode": "2970-167",
      "city": "SESIMBRA",
      "lon": "-9.18508128553612",
      "lat": "38.43192645025034"
    },
    {
      "id": "pt.ine.add.PTCONT.4974863",
      "street": "R MARINHEIROS",
      "house": "",
      "postcode": "2970-176",
      "city": "SESIMBRA",
      "lon": "-9.184916138204706",
      "lat": "38.431594626390954"
    },
    {
      "id": "pt.ine.add.PTCONT.4974867",
      "street": "R CABECO",
      "house": "1931",
      "postcode": "2970-171",
      "city": "SESIMBRA",
      "lon": "-9.185669522015973",
      "lat": "38.43300216124876"
    },
    {
      "id": "pt.ine.add.PTCONT.4996659",
      "street": "R CABECO",
      "house": "1422",
      "postcode": "2970-171",
      "city": "SESIMBRA",
      "lon": "-9.184897858824227",
      "lat": "38.43270280907746"
    },
    {
      "id": "pt.ine.add.PTCONT.5003030",
      "street": "EN 379",
      "house": "2109",
      "postcode": "2970-181",
      "city": "SESIMBRA",
      "lon": "-9.180732305123316",
      "lat": "38.435298478811056"
    },
    {
      "id": "pt.ine.add.PTCONT.5003031",
      "street": "EN 379",
      "house": "",
      "postcode": "2970-181",
      "city": "SESIMBRA",
      "lon": "-9.180732305123316",
      "lat": "38.435298478811056"
    },
    {
      "id": "pt.ine.add.PTCONT.5003816",
      "street": "EN 379",
      "house": "2173",
      "postcode": "2970-181",
      "city": "SESIMBRA",
      "lon": "-9.181073894597354",
      "lat": "38.43516029994462"
    },
    {
      "id": "pt.ine.add.PTCONT.5007290",
      "street": "BC RUIVO",
      "house": "1975",
      "postcode": "2970-161",
      "city": "SESIMBRA",
      "lon": "-9.186244036853395",
      "lat": "38.43313212312298"
    },
    {
      "id": "pt.ine.add.PTCONT.5022434",
      "street": "R RIBEIRO",
      "house": "1575",
      "postcode": "2970-174",
      "city": "SESIMBRA",
      "lon": "-9.187872071563826",
      "lat": "38.430892434021004"
    },
    {
      "id": "pt.ine.add.PTCONT.5026180",
      "street": "EN 379",
      "house": "1314",
      "postcode": "2970-181",
      "city": "SESIMBRA",
      "lon": "-9.184198131430538",
      "lat": "38.43183528474353"
    },
    {
      "id": "pt.ine.add.PTCONT.5026181",
      "street": "EN 379",
      "house": "1314",
      "postcode": "2970-181",
      "city": "SESIMBRA",
      "lon": "-9.184198131430538",
      "lat": "38.43183528474353"
    },
    {
      "id": "pt.ine.add.PTCONT.5075466",
      "street": "R PAZ",
      "house": "1905",
      "postcode": "2970-167",
      "city": "SESIMBRA",
      "lon": "-9.184975483266333",
      "lat": "38.431738226174964"
    },
    {
      "id": "pt.ine.add.PTCONT.5033342",
      "street": "R PAZ",
      "house": "",
      "postcode": "2970-167",
      "city": "SESIMBRA",
      "lon": "-9.184286254077024",
      "lat": "38.43238399940228"
    },
    {
      "id": "pt.ine.add.PTCONT.5041226",
      "street": "EN 379",
      "house": "1803",
      "postcode": "2970-181",
      "city": "SESIMBRA",
      "lon": "-9.185501513399142",
      "lat": "38.43089573255535"
    },
    {
      "id": "pt.ine.add.PTCONT.5048015",
      "street": "R PAZ",
      "house": "",
      "postcode": "2970-167",
      "city": "SESIMBRA",
      "lon": "-9.184756349284562",
      "lat": "38.431632093760925"
    },
    {
      "id": "pt.ine.add.PTCONT.5075465",
      "street": "R PAZ N",
      "house": "N",
      "postcode": "2970-167",
      "city": "SESIMBRA",
      "lon": "-9.184975483266333",
      "lat": "38.431738226174964"
    },
    {
      "id": "pt.ine.add.PTCONT.5101887",
      "street": "R PAZ",
      "house": "",
      "postcode": "2970-167",
      "city": "SESIMBRA",
      "lon": "-9.184213013106724",
      "lat": "38.43523127269946"
    },
    {
      "id": "pt.ine.add.PTCONT.5131109",
      "street": "R PAZ",
      "house": "1907",
      "postcode": "2970-167",
      "city": "SESIMBRA",
      "lon": "-9.184425973170763",
      "lat": "38.43175216614667"
    },
    {
      "id": "pt.ine.add.PTCONT.5133967",
      "street": "R PAZ CCI",
      "house": "CCI 1906",
      "postcode": "2970-167",
      "city": "SESIMBRA",
      "lon": "-9.18455297758361",
      "lat": "38.431823092805544"
    }
  ]
}