{
  "data": {
    "distrito": "Faro",
    "concelho": "Lagos",
    "freguesia": "União das freguesias de Bensafrim e Barão de São João",
    "OBJECTID": 105,
    "BGRI2021": "08070700309",
    "DT21": "08",
    "DTMN21": "0807",
    "DTMNFR21": "080707",
    "DTMNFRSEC21": "080707003",
    "SECNUM21": "003",
    "SSNUM21": "09",
    "SECSSNUM21": "00309",
    "OBJECTID_1": 67578,
    "DT": "08",
    "CC": "07",
    "fr": "07",
    "SEC": "003",
    "SS": "09"
  },
  "addresses": [
    {
      "id": "pt.ine.add.PTCONT.1485366",
      "street": "EN 120",
      "house": "",
      "postcode": "8600-069",
      "city": "BENSAFRIM",
      "lon": "-8.735623492998913",
      "lat": "37.155131292695124"
    },
    {
      "id": "pt.ine.add.PTCONT.1487512",
      "street": "EN 120",
      "house": "",
      "postcode": "8600-069",
      "city": "BENSAFRIM",
      "lon": "-8.735793202749235",
      "lat": "37.155238555206616"
    },
    {
      "id": "pt.ine.add.PTCONT.1490208",
      "street": "R MESTRE ROMÃO",
      "house": "",
      "postcode": "8600-069",
      "city": "BENSAFRIM",
      "lon": "-8.736936522156377",
      "lat": "37.15462002484794"
    },
    {
      "id": "pt.ine.add.PTCONT.1548117",
      "street": "EN 120",
      "house": "",
      "postcode": "8600-069",
      "city": "BENSAFRIM",
      "lon": "-8.73563567926281",
      "lat": "37.155248366611346"
    },
    {
      "id": "pt.ine.add.PTCONT.1551334",
      "street": "R INF D HENRIQUE",
      "house": "",
      "postcode": "8600-069",
      "city": "BENSAFRIM",
      "lon": "-8.736825674600219",
      "lat": "37.154836840399405"
    },
    {
      "id": "pt.ine.add.PTCONT.1553191",
      "street": "EN 120",
      "house": "",
      "postcode": "8600-069",
      "city": "BENSAFRIM",
      "lon": "-8.736153348275991",
      "lat": "37.15522771275141"
    },
    {
      "id": "pt.ine.add.PTCONT.1561510",
      "street": "R INF D HENRIQUE",
      "house": "",
      "postcode": "8600-069",
      "city": "BENSAFRIM",
      "lon": "-8.736938170173453",
      "lat": "37.154827256840186"
    },
    {
      "id": "pt.ine.add.PTCONT.1577238",
      "street": "EN 120",
      "house": "",
      "postcode": "8600-069",
      "city": "BENSAFRIM",
      "lon": "-8.73593904019499",
      "lat": "37.15517474032632"
    },
    {
      "id": "pt.ine.add.PTCONT.1596830",
      "street": "R DEL REIS",
      "house": "",
      "postcode": "8600-069",
      "city": "BENSAFRIM",
      "lon": "-8.73557610668014",
      "lat": "37.1548341886792"
    },
    {
      "id": "pt.ine.add.PTCONT.1628619",
      "street": "R MESTRE ROMÃO",
      "house": "",
      "postcode": "8600-069",
      "city": "BENSAFRIM",
      "lon": "-8.737026504015661",
      "lat": "37.15461055590968"
    },
    {
      "id": "pt.ine.add.PTCONT.1654526",
      "street": "EN 120",
      "house": "",
      "postcode": "8600-069",
      "city": "BENSAFRIM",
      "lon": "-8.73562284951757",
      "lat": "37.15505020190094"
    },
    {
      "id": "pt.ine.add.PTCONT.1675117",
      "street": "R MESTRE ROMÃO",
      "house": "",
      "postcode": "8600-069",
      "city": "BENSAFRIM",
      "lon": "-8.736733901723289",
      "lat": "37.15462105701391"
    },
    {
      "id": "pt.ine.add.PTCONT.1679043",
      "street": "R MESTRE ROMÃO",
      "house": "",
      "postcode": "8600-069",
      "city": "BENSAFRIM",
      "lon": "-8.73633913012081",
      "lat": "37.154523952045516"
    },
    {
      "id": "pt.ine.add.PTCONT.1680847",
      "street": "R INF D HENRIQUE",
      "house": "63",
      "postcode": "8600-069",
      "city": "BENSAFRIM",
      "lon": "-8.73652159986493",
      "lat": "37.15482036806759"
    },
    {
      "id": "pt.ine.add.PTCONT.1683538",
      "street": "R INF D HENRIQUE",
      "house": "",
      "postcode": "8600-069",
      "city": "BENSAFRIM",
      "lon": "-8.736386447622829",
      "lat": "37.15481204565958"
    },
    {
      "id": "pt.ine.add.PTCONT.1685059",
      "street": "R MESTRE ROMÃO",
      "house": "",
      "postcode": "8600-069",
      "city": "BENSAFRIM",
      "lon": "-8.736610149734046",
      "lat": "37.154630697698806"
    },
    {
      "id": "pt.ine.add.PTCONT.1707275",
      "street": "R INF D HENRIQUE",
      "house": "",
      "postcode": "8600-069",
      "city": "BENSAFRIM",
      "lon": "-8.737061994104263",
      "lat": "37.15482662589686"
    },
    {
      "id": "pt.ine.add.PTCONT.1711957",
      "street": "R INF D HENRIQUE",
      "house": "",
      "postcode": "8600-069",
      "city": "BENSAFRIM",
      "lon": "-8.736623125200364",
      "lat": "37.15484688246795"
    },
    {
      "id": "pt.ine.add.PTCONT.1735756",
      "street": "R MESTRE ROMÃO",
      "house": "",
      "postcode": "8600-069",
      "city": "BENSAFRIM",
      "lon": "-8.736452198057766",
      "lat": "37.15458644965273"
    },
    {
      "id": "pt.ine.add.PTCONT.1751129",
      "street": "EN 120",
      "house": "12",
      "postcode": "8600-069",
      "city": "BENSAFRIM",
      "lon": "-8.735655547264967",
      "lat": "37.15491487888693"
    },
    {
      "id": "pt.ine.add.PTCONT.1769617",
      "street": "R MESTRE ROMÃO",
      "house": "",
      "postcode": "8600-069",
      "city": "BENSAFRIM",
      "lon": "-8.737138999226019",
      "lat": "37.15460097216266"
    },
    {
      "id": "pt.ine.add.PTCONT.1787489",
      "street": "R INF D HENRIQUE",
      "house": "",
      "postcode": "8600-069",
      "city": "BENSAFRIM",
      "lon": "-8.73674687753975",
      "lat": "37.154837241766735"
    },
    {
      "id": "pt.ine.add.PTCONT.1799861",
      "street": "R INF D HENRIQUE",
      "house": "",
      "postcode": "8600-069",
      "city": "BENSAFRIM",
      "lon": "-8.737152047869703",
      "lat": "37.15482616694774"
    },
    {
      "id": "pt.ine.add.PTCONT.1813593",
      "street": "EN 120",
      "house": "",
      "postcode": "8600-069",
      "city": "BENSAFRIM",
      "lon": "-8.735611163782503",
      "lat": "37.15499619859818"
    },
    {
      "id": "pt.ine.add.PTCONT.1827214",
      "street": "R MESTRE ROMÃO",
      "house": "",
      "postcode": "8600-069",
      "city": "BENSAFRIM",
      "lon": "-8.736835211941125",
      "lat": "37.154620540974214"
    },
    {
      "id": "pt.ine.add.PTCONT.1830438",
      "street": "R DEL REIS",
      "house": "",
      "postcode": "8600-069",
      "city": "BENSAFRIM",
      "lon": "-8.73579077113912",
      "lat": "37.15493221221563"
    }
  ]
}