{
  "data": {
    "distrito": "Coimbra",
    "concelho": "Cantanhede",
    "freguesia": "Febres",
    "OBJECTID": 78,
    "BGRI2021": "06020700215",
    "DT21": "06",
    "DTMN21": "0602",
    "DTMNFR21": "060207",
    "DTMNFRSEC21": "060207002",
    "SECNUM21": "002",
    "SSNUM21": "15",
    "SECSSNUM21": "00215",
    "OBJECTID_1": 48131,
    "DT": "06",
    "CC": "02",
    "fr": "07",
    "SEC": "002",
    "SS": "15"
  },
  "addresses": [
    {
      "id": "pt.ine.add.PTCONT.1103774",
      "street": "R DC CANTO DO PINHAL",
      "house": "6",
      "postcode": "3060-312",
      "city": "FEBRES",
      "lon": "-8.626896290501643",
      "lat": "40.4088234230096"
    },
    {
      "id": "pt.ine.add.PTCONT.1110329",
      "street": "R STA TERESINHA",
      "house": "",
      "postcode": "3060-354",
      "city": "FEBRES",
      "lon": "-8.618327231099862",
      "lat": "40.406581306532686"
    },
    {
      "id": "pt.ine.add.PTCONT.1116951",
      "street": "R LAURA ABRANTES COSTA SOARES",
      "house": "",
      "postcode": "3060-318",
      "city": "FEBRES",
      "lon": "-8.626036284506057",
      "lat": "40.405594114632606"
    },
    {
      "id": "pt.ine.add.PTCONT.1120576",
      "street": "R STA TERESINHA",
      "house": "",
      "postcode": "3060-354",
      "city": "FEBRES",
      "lon": "-8.619043037705676",
      "lat": "40.4061910634342"
    },
    {
      "id": "pt.ine.add.PTCONT.1132860",
      "street": "R VASCO VIRIATO",
      "house": "39",
      "postcode": "3060-312",
      "city": "FEBRES",
      "lon": "-8.627284512690728",
      "lat": "40.40713773439044"
    },
    {
      "id": "pt.ine.add.PTCONT.1141092",
      "street": "R VASCO VIRIATO",
      "house": "33",
      "postcode": "3060-312",
      "city": "FEBRES",
      "lon": "-8.62763016099635",
      "lat": "40.40768559263775"
    },
    {
      "id": "pt.ine.add.PTCONT.1141116",
      "street": "R 1 MAIO",
      "house": "38",
      "postcode": "3060-350",
      "city": "FEBRES",
      "lon": "-8.624446507726446",
      "lat": "40.40567292519148"
    },
    {
      "id": "pt.ine.add.PTCONT.1157299",
      "street": "R 1 DE MAIO",
      "house": "4",
      "postcode": "3060-354",
      "city": "FEBRES",
      "lon": "-8.619702205522573",
      "lat": "40.40611624721127"
    },
    {
      "id": "pt.ine.add.PTCONT.1157322",
      "street": "R SECULO XVI",
      "house": "26",
      "postcode": "3060-350",
      "city": "FEBRES",
      "lon": "-8.624854745161915",
      "lat": "40.40511284793831"
    },
    {
      "id": "pt.ine.add.PTCONT.1159414",
      "street": "R CANTO DO PINHAL",
      "house": "",
      "postcode": "3060-312",
      "city": "FEBRES",
      "lon": "-8.626120153158546",
      "lat": "40.40901585063883"
    },
    {
      "id": "pt.ine.add.PTCONT.1166324",
      "street": "R 1 MAIO",
      "house": "28",
      "postcode": "3060-350",
      "city": "FEBRES",
      "lon": "-8.62338839678603",
      "lat": "40.405965593037635"
    },
    {
      "id": "pt.ine.add.PTCONT.1181590",
      "street": "R VASCO VIRIATO",
      "house": "37",
      "postcode": "3060-312",
      "city": "FEBRES",
      "lon": "-8.627438907990644",
      "lat": "40.407308179086925"
    },
    {
      "id": "pt.ine.add.PTCONT.1193125",
      "street": "R 1 MAIO",
      "house": "34",
      "postcode": "3060-350",
      "city": "FEBRES",
      "lon": "-8.624034861304693",
      "lat": "40.40576472881562"
    },
    {
      "id": "pt.ine.add.PTCONT.1203715",
      "street": "R VASCO VIRIATO",
      "house": "27",
      "postcode": "3060-312",
      "city": "FEBRES",
      "lon": "-8.627964034482696",
      "lat": "40.40823350018578"
    },
    {
      "id": "pt.ine.add.PTCONT.1205854",
      "street": "R VASCO VIRIATO",
      "house": "53",
      "postcode": "3060-312",
      "city": "FEBRES",
      "lon": "-8.626357828609507",
      "lat": "40.40607003552576"
    },
    {
      "id": "pt.ine.add.PTCONT.1217083",
      "street": "R 1 MAIO",
      "house": "30",
      "postcode": "3060-350",
      "city": "FEBRES",
      "lon": "-8.623587938960407",
      "lat": "40.4058656861304"
    },
    {
      "id": "pt.ine.add.PTCONT.1219846",
      "street": "R VASCO VIRIATO",
      "house": "25",
      "postcode": "3060-312",
      "city": "FEBRES",
      "lon": "-8.62802412414291",
      "lat": "40.408395342129644"
    },
    {
      "id": "pt.ine.add.PTCONT.1241612",
      "street": "R CANTO DO PINHAL",
      "house": "2",
      "postcode": "3060-312",
      "city": "FEBRES",
      "lon": "-8.627508484416204",
      "lat": "40.40876677389921"
    },
    {
      "id": "pt.ine.add.PTCONT.1254027",
      "street": "R CANTO DO PINHAL",
      "house": "14",
      "postcode": "3060-312",
      "city": "FEBRES",
      "lon": "-8.626015244643238",
      "lat": "40.4091693915254"
    },
    {
      "id": "pt.ine.add.PTCONT.1262820",
      "street": "R VASCO VIRIATO",
      "house": "43",
      "postcode": "3060-312",
      "city": "FEBRES",
      "lon": "-8.627035283782302",
      "lat": "40.40688664504051"
    },
    {
      "id": "pt.ine.add.PTCONT.1268648",
      "street": "R 1 DE MAIO",
      "house": "6",
      "postcode": "3060-354",
      "city": "FEBRES",
      "lon": "-8.619985447137642",
      "lat": "40.40618709898863"
    },
    {
      "id": "pt.ine.add.PTCONT.1274780",
      "street": "R SÃ‰CULO XVI",
      "house": "28",
      "postcode": "3060-350",
      "city": "FEBRES",
      "lon": "-8.625066718169874",
      "lat": "40.405102940735794"
    },
    {
      "id": "pt.ine.add.PTCONT.1285004",
      "street": "R CANTO DO PINHAL",
      "house": "8",
      "postcode": "3060-312",
      "city": "FEBRES",
      "lon": "-8.626743537936305",
      "lat": "40.408878108298445"
    },
    {
      "id": "pt.ine.add.PTCONT.1289196",
      "street": "R DC CANTO DO PINHAL",
      "house": "4",
      "postcode": "3060-312",
      "city": "FEBRES",
      "lon": "-8.627331644367674",
      "lat": "40.40874951890334"
    },
    {
      "id": "pt.ine.add.PTCONT.1291239",
      "street": "R VASCO VIRIATO",
      "house": "35",
      "postcode": "3060-312",
      "city": "FEBRES",
      "lon": "-8.627499127335897",
      "lat": "40.407488031796085"
    },
    {
      "id": "pt.ine.add.PTCONT.1295398",
      "street": "R STA TERESINHA",
      "house": "",
      "postcode": "3060-354",
      "city": "FEBRES",
      "lon": "-8.618926466714637",
      "lat": "40.40636265801987"
    },
    {
      "id": "pt.ine.add.PTCONT.1299035",
      "street": "R D LAURA ABRANTES COSTA SOARES",
      "house": "46",
      "postcode": "3060-355",
      "city": "FEBRES",
      "lon": "-8.626202387423556",
      "lat": "40.40575550561336"
    },
    {
      "id": "pt.ine.add.PTCONT.1311160",
      "street": "R STA TERESINHA",
      "house": "",
      "postcode": "3060-354",
      "city": "FEBRES",
      "lon": "-8.619065561691695",
      "lat": "40.406046880567246"
    },
    {
      "id": "pt.ine.add.PTCONT.1311172",
      "street": "R D LAURA ABRANTES COSTA SOARES",
      "house": "42",
      "postcode": "3060-350",
      "city": "FEBRES",
      "lon": "-8.62558510019976",
      "lat": "40.405109739521336"
    },
    {
      "id": "pt.ine.add.PTCONT.1314821",
      "street": "R STA TERESINHA",
      "house": "27",
      "postcode": "3060-354",
      "city": "FEBRES",
      "lon": "-8.618033437303705",
      "lat": "40.40668159968627"
    },
    {
      "id": "pt.ine.add.PTCONT.1333503",
      "street": "R SECULO XVI",
      "house": "32",
      "postcode": "3060-350",
      "city": "FEBRES",
      "lon": "-8.625383135837959",
      "lat": "40.404876456208136"
    },
    {
      "id": "pt.ine.add.PTCONT.1339717",
      "street": "R SECULO XVI",
      "house": "22",
      "postcode": "3060-350",
      "city": "FEBRES",
      "lon": "-8.624644016719817",
      "lat": "40.405293854208395"
    }
  ]
}