{
  "data": {
    "distrito": "Lisboa",
    "concelho": "Sintra",
    "freguesia": "Colares",
    "OBJECTID": 2977,
    "BGRI2021": "11110500126",
    "DT21": "11",
    "DTMN21": "1111",
    "DTMNFR21": "111105",
    "DTMNFRSEC21": "111105001",
    "SECNUM21": "001",
    "SSNUM21": "26",
    "SECSSNUM21": "00126",
    "OBJECTID_1": 113686,
    "DT": "11",
    "CC": "11",
    "fr": "05",
    "SEC": "001",
    "SS": "26"
  },
  "addresses": [
    {
      "id": "pt.ine.add.PTCONT.2357408",
      "street": "R 10 DE AGOSTO",
      "house": "25",
      "postcode": "2705-100",
      "city": "COLARES",
      "lon": "-9.46086416194905",
      "lat": "38.839709448048765"
    },
    {
      "id": "pt.ine.add.PTCONT.2357409",
      "street": "R 10 DE AGOSTO",
      "house": "25",
      "postcode": "2705-100",
      "city": "COLARES",
      "lon": "-9.46086416194905",
      "lat": "38.839709448048765"
    },
    {
      "id": "pt.ine.add.PTCONT.2400276",
      "street": "R JOSE DOS REIS",
      "house": "9",
      "postcode": "2705-105",
      "city": "COLARES",
      "lon": "-9.461524316035653",
      "lat": "38.83928759731014"
    },
    {
      "id": "pt.ine.add.PTCONT.2400277",
      "street": "R JOSE DOS REIS",
      "house": "9",
      "postcode": "2705-105",
      "city": "COLARES",
      "lon": "-9.461524316035653",
      "lat": "38.83928759731014"
    },
    {
      "id": "pt.ine.add.PTCONT.2400278",
      "street": "R JOSE DOS REIS",
      "house": "9",
      "postcode": "2705-105",
      "city": "COLARES",
      "lon": "-9.461524316035653",
      "lat": "38.83928759731014"
    },
    {
      "id": "pt.ine.add.PTCONT.2400279",
      "street": "R JOSE DOS REIS",
      "house": "9",
      "postcode": "2705-105",
      "city": "COLARES",
      "lon": "-9.461524316035653",
      "lat": "38.83928759731014"
    },
    {
      "id": "pt.ine.add.PTCONT.2403043",
      "street": "R JOSE DOS REIS",
      "house": "9",
      "postcode": "2705-105",
      "city": "COLARES",
      "lon": "-9.461524316035653",
      "lat": "38.83928759731014"
    },
    {
      "id": "pt.ine.add.PTCONT.2458277",
      "street": "R JOSE DOS REIS",
      "house": "15",
      "postcode": "2705-105",
      "city": "COLARES",
      "lon": "-9.461506812674587",
      "lat": "38.839585043191775"
    },
    {
      "id": "pt.ine.add.PTCONT.2458278",
      "street": "R JOSE DOS REIS",
      "house": "15",
      "postcode": "2705-105",
      "city": "COLARES",
      "lon": "-9.461506812674587",
      "lat": "38.839585043191775"
    },
    {
      "id": "pt.ine.add.PTCONT.2464554",
      "street": "R 10 DE AGOSTO",
      "house": "7",
      "postcode": "2705-100",
      "city": "COLARES",
      "lon": "-9.461280330534553",
      "lat": "38.839173274903985"
    },
    {
      "id": "pt.ine.add.PTCONT.2468236",
      "street": "R 10 DE AGOSTO",
      "house": "9",
      "postcode": "2705-100",
      "city": "COLARES",
      "lon": "-9.461199392843547",
      "lat": "38.83915618032855"
    },
    {
      "id": "pt.ine.add.PTCONT.2526613",
      "street": "R 10 DE AGOSTO",
      "house": "11",
      "postcode": "2705-100",
      "city": "COLARES",
      "lon": "-9.461086756961668",
      "lat": "38.83929257326627"
    },
    {
      "id": "pt.ine.add.PTCONT.2589928",
      "street": "R 10 DE AGOSTO",
      "house": "40",
      "postcode": "2705-100",
      "city": "COLARES",
      "lon": "-9.461028549460924",
      "lat": "38.839878721215456"
    },
    {
      "id": "pt.ine.add.PTCONT.2589929",
      "street": "R 10 DE AGOSTO",
      "house": "40",
      "postcode": "2705-100",
      "city": "COLARES",
      "lon": "-9.461028549460924",
      "lat": "38.839878721215456"
    },
    {
      "id": "pt.ine.add.PTCONT.2589939",
      "street": "R 10 DE AGOSTO",
      "house": "40",
      "postcode": "2705-100",
      "city": "COLARES",
      "lon": "-9.461028549460924",
      "lat": "38.839878721215456"
    },
    {
      "id": "pt.ine.add.PTCONT.2603995",
      "street": "R 10 DE AGOSTO",
      "house": "19",
      "postcode": "2705-100",
      "city": "COLARES",
      "lon": "-9.460729800794912",
      "lat": "38.83929663138536"
    },
    {
      "id": "pt.ine.add.PTCONT.2603996",
      "street": "R 10 DE AGOSTO",
      "house": "19",
      "postcode": "2705-100",
      "city": "COLARES",
      "lon": "-9.460729800794912",
      "lat": "38.83929663138536"
    },
    {
      "id": "pt.ine.add.PTCONT.2603997",
      "street": "R 10 DE AGOSTO",
      "house": "19",
      "postcode": "2705-100",
      "city": "COLARES",
      "lon": "-9.460729800794912",
      "lat": "38.83929663138536"
    },
    {
      "id": "pt.ine.add.PTCONT.2615122",
      "street": "R JOSE DOS REIS",
      "house": "11",
      "postcode": "2705-105",
      "city": "COLARES",
      "lon": "-9.461491781352118",
      "lat": "38.83939605710101"
    },
    {
      "id": "pt.ine.add.PTCONT.2661476",
      "street": "R 10 DE AGOSTO",
      "house": "15",
      "postcode": "2705-100",
      "city": "COLARES",
      "lon": "-9.460855625800027",
      "lat": "38.839250163648366"
    },
    {
      "id": "pt.ine.add.PTCONT.2684192",
      "street": "R 10 DE AGOSTO",
      "house": "17",
      "postcode": "2705-100",
      "city": "COLARES",
      "lon": "-9.46075132398229",
      "lat": "38.83921531940916"
    },
    {
      "id": "pt.ine.add.PTCONT.2695693",
      "street": "R JOSE DOS REIS",
      "house": "8",
      "postcode": "2705-105",
      "city": "COLARES",
      "lon": "-9.46117188013809",
      "lat": "38.83953480730303"
    },
    {
      "id": "pt.ine.add.PTCONT.2714471",
      "street": "R 10 DE AGOSTO",
      "house": "3",
      "postcode": "2705-100",
      "city": "COLARES",
      "lon": "-9.461473401106735",
      "lat": "38.839026959505084"
    },
    {
      "id": "pt.ine.add.PTCONT.2851999",
      "street": "R JOSE DOS REIS",
      "house": "6",
      "postcode": "2705-105",
      "city": "COLARES",
      "lon": "-9.461284013938556",
      "lat": "38.839371397559624"
    },
    {
      "id": "pt.ine.add.PTCONT.2852000",
      "street": "R JOSE DOS REIS",
      "house": "6",
      "postcode": "2705-105",
      "city": "COLARES",
      "lon": "-9.461284013938556",
      "lat": "38.839371397559624"
    },
    {
      "id": "pt.ine.add.PTCONT.2858641",
      "street": "R JOSE DOS REIS",
      "house": "3",
      "postcode": "2705-105",
      "city": "COLARES",
      "lon": "-9.461683344770519",
      "lat": "38.83916869119"
    },
    {
      "id": "pt.ine.add.PTCONT.2858642",
      "street": "R 10 DE AGOSTO",
      "house": "5",
      "postcode": "2705-100",
      "city": "COLARES",
      "lon": "-9.461336062234269",
      "lat": "38.839073558844646"
    },
    {
      "id": "pt.ine.add.PTCONT.2879614",
      "street": "R 10 DE AGOSTO",
      "house": "19 A",
      "postcode": "2705-100",
      "city": "COLARES",
      "lon": "-9.460555908691507",
      "lat": "38.83923555555452"
    },
    {
      "id": "pt.ine.add.PTCONT.2879615",
      "street": "R 10 DE AGOSTO",
      "house": "19 A",
      "postcode": "2705-100",
      "city": "COLARES",
      "lon": "-9.460555908691507",
      "lat": "38.83923555555452"
    },
    {
      "id": "pt.ine.add.PTCONT.2958060",
      "street": "R 10 DE AGOSTO",
      "house": "1",
      "postcode": "2705-100",
      "city": "COLARES",
      "lon": "-9.461736731132468",
      "lat": "38.83894289691219"
    },
    {
      "id": "pt.ine.add.PTCONT.3031381",
      "street": "LG MARCELINO QTA DE NOSSA SENHORA CONC",
      "house": "",
      "postcode": "2705-092",
      "city": "COLARES",
      "lon": "-9.46219468229189",
      "lat": "38.83941508284804"
    },
    {
      "id": "pt.ine.add.PTCONT.3114997",
      "street": "R 10 DE AGOSTO",
      "house": "23",
      "postcode": "2705-100",
      "city": "COLARES",
      "lon": "-9.46078255427039",
      "lat": "38.83965633088952"
    },
    {
      "id": "pt.ine.add.PTCONT.3133449",
      "street": "R 10 DE AGOSTO",
      "house": "13",
      "postcode": "2705-100",
      "city": "COLARES",
      "lon": "-9.460936228755179",
      "lat": "38.8392492473083"
    },
    {
      "id": "pt.ine.add.PTCONT.3162069",
      "street": "R JOSE DOS REIS",
      "house": "7",
      "postcode": "2705-105",
      "city": "COLARES",
      "lon": "-9.46169871149495",
      "lat": "38.83937568840241"
    },
    {
      "id": "pt.ine.add.PTCONT.3229173",
      "street": "R JOSE DOS REIS",
      "house": "5",
      "postcode": "2705-105",
      "city": "COLARES",
      "lon": "-9.46188344958794",
      "lat": "38.83940060921245"
    },
    {
      "id": "pt.ine.add.PTCONT.3253697",
      "street": "R JOSE DOS REIS",
      "house": "13",
      "postcode": "2705-105",
      "city": "COLARES",
      "lon": "-9.461413355033805",
      "lat": "38.83951404629577"
    },
    {
      "id": "pt.ine.add.PTCONT.3373299",
      "street": "R JOSE DOS REIS",
      "house": "1",
      "postcode": "2705-105",
      "city": "COLARES",
      "lon": "-9.461589552584767",
      "lat": "38.83907968327504"
    }
  ]
}