{
  "data": {
    "distrito": "Bragança",
    "concelho": "Vinhais",
    "freguesia": "União das freguesias de Curopos e Vale de Janeiro",
    "OBJECTID": 151,
    "BGRI2021": "04123600139",
    "DT21": "04",
    "DTMN21": "0412",
    "DTMNFR21": "041236",
    "DTMNFRSEC21": "041236001",
    "SECNUM21": "001",
    "SSNUM21": "39",
    "SECSSNUM21": "00139",
    "OBJECTID_1": 40056,
    "DT": "04",
    "CC": "12",
    "fr": "36",
    "SEC": "001",
    "SS": "39"
  },
  "addresses": [
    {
      "id": "pt.ine.add.PTCONT.858810",
      "street": "LG DO FORNO",
      "house": "",
      "postcode": "5335-051",
      "city": "CUROPOS",
      "lon": "-7.09378078617051",
      "lat": "41.802029743474854"
    },
    {
      "id": "pt.ine.add.PTCONT.862232",
      "street": "R DO CALVÁRIO",
      "house": "",
      "postcode": "5335-051",
      "city": "CUROPOS",
      "lon": "-7.095160626575107",
      "lat": "41.80376183285338"
    },
    {
      "id": "pt.ine.add.PTCONT.866127",
      "street": "R PRINCIPAL",
      "house": "",
      "postcode": "5335-051",
      "city": "CUROPOS",
      "lon": "-7.09600760740665",
      "lat": "41.80272511114709"
    },
    {
      "id": "pt.ine.add.PTCONT.880640",
      "street": "TV DO PELOURINHO",
      "house": "",
      "postcode": "5335-051",
      "city": "CUROPOS",
      "lon": "-7.093565252384193",
      "lat": "41.801964770631436"
    },
    {
      "id": "pt.ine.add.PTCONT.909987",
      "street": "R PRINCIPAL",
      "house": "",
      "postcode": "5335-051",
      "city": "CUROPOS",
      "lon": "-7.0942876746161065",
      "lat": "41.80193529346023"
    },
    {
      "id": "pt.ine.add.PTCONT.915100",
      "street": "TV DO PELOURINHO",
      "house": "",
      "postcode": "5335-051",
      "city": "CUROPOS",
      "lon": "-7.093710784407721",
      "lat": "41.80189406193747"
    },
    {
      "id": "pt.ine.add.PTCONT.921061",
      "street": "R PRINCIPAL",
      "house": "",
      "postcode": "5335-051",
      "city": "CUROPOS",
      "lon": "-7.096186763472923",
      "lat": "41.802807757442096"
    },
    {
      "id": "pt.ine.add.PTCONT.929534",
      "street": "R PRINCIPAL",
      "house": "",
      "postcode": "5335-051",
      "city": "CUROPOS",
      "lon": "-7.096342003413636",
      "lat": "41.80288118438798"
    },
    {
      "id": "pt.ine.add.PTCONT.938045",
      "street": "TV DO PELOURINHO",
      "house": "",
      "postcode": "5335-051",
      "city": "CUROPOS",
      "lon": "-7.0939160329766455",
      "lat": "41.80185090295305"
    },
    {
      "id": "pt.ine.add.PTCONT.938046",
      "street": "R PRINCIPAL",
      "house": "",
      "postcode": "5335-051",
      "city": "CUROPOS",
      "lon": "-7.0958043901846315",
      "lat": "41.80264224728962"
    }
  ]
}