{
  "data": {
    "distrito": "Braga",
    "concelho": "Barcelos",
    "freguesia": "União das freguesias de Barcelos, Vila Boa e Vila Frescainha (São Martinho e São Pedro)",
    "OBJECTID": 496,
    "BGRI2021": "03029300606",
    "DT21": "03",
    "DTMN21": "0302",
    "DTMNFR21": "030293",
    "DTMNFRSEC21": "030293006",
    "SECNUM21": "006",
    "SSNUM21": "06",
    "SECSSNUM21": "00606",
    "OBJECTID_1": 21377,
    "DT": "03",
    "CC": "02",
    "fr": "93",
    "SEC": "006",
    "SS": "06"
  },
  "addresses": [
    {
      "id": "pt.ine.add.PTCONT.465061",
      "street": "R S JOSE",
      "house": "35",
      "postcode": "4750-307",
      "city": "BARCELOS",
      "lon": "-8.62417549278065",
      "lat": "41.535323492672006"
    },
    {
      "id": "pt.ine.add.PTCONT.467791",
      "street": "TV OLHAL",
      "house": "817",
      "postcode": "4750-344",
      "city": "BARCELOS",
      "lon": "-8.628511471362538",
      "lat": "41.536646454534456"
    },
    {
      "id": "pt.ine.add.PTCONT.479955",
      "street": "TV TERREIRO",
      "house": "",
      "postcode": "4750-830",
      "city": "BARCELOS",
      "lon": "-8.627447201268954",
      "lat": "41.53851481093801"
    },
    {
      "id": "pt.ine.add.PTCONT.485985",
      "street": "R S JOSE",
      "house": "309",
      "postcode": "4750-307",
      "city": "BARCELOS",
      "lon": "-8.623921066041257",
      "lat": "41.53495542487597"
    },
    {
      "id": "pt.ine.add.PTCONT.486002",
      "street": "R QUEIMADO",
      "house": "224",
      "postcode": "4750-827",
      "city": "BARCELOS",
      "lon": "-8.62802361600087",
      "lat": "41.533956432537444"
    },
    {
      "id": "pt.ine.add.PTCONT.506502",
      "street": "R S JOSÉ",
      "house": "2",
      "postcode": "4750-307",
      "city": "BARCELOS",
      "lon": "-8.623553006017717",
      "lat": "41.53540718295067"
    },
    {
      "id": "pt.ine.add.PTCONT.527666",
      "street": "R CARREGAL",
      "house": "350",
      "postcode": "4750-816",
      "city": "BARCELOS",
      "lon": "-8.626560987950478",
      "lat": "41.53859064712697"
    },
    {
      "id": "pt.ine.add.PTCONT.539041",
      "street": "R QUEIMADO QTA ST ANTÓNIO",
      "house": "464",
      "postcode": "4750-827",
      "city": "BARCELOS",
      "lon": "-8.630553601177848",
      "lat": "41.53729491283809"
    },
    {
      "id": "pt.ine.add.PTCONT.539042",
      "street": "R QUEIMADO QTA ST ANTÓNIO",
      "house": "464",
      "postcode": "4750-827",
      "city": "BARCELOS",
      "lon": "-8.630553601177848",
      "lat": "41.53729491283809"
    },
    {
      "id": "pt.ine.add.PTCONT.539548",
      "street": "R CASTRO NEVES",
      "house": "80",
      "postcode": "4750-819",
      "city": "BARCELOS",
      "lon": "-8.629139424578447",
      "lat": "41.53414070392771"
    },
    {
      "id": "pt.ine.add.PTCONT.580809",
      "street": "AV S JOSE",
      "house": "411",
      "postcode": "4750-307",
      "city": "BARCELOS",
      "lon": "-8.623783943295514",
      "lat": "41.535838378042506"
    },
    {
      "id": "pt.ine.add.PTCONT.583275",
      "street": "AV S JOSÉ",
      "house": "1",
      "postcode": "4750-307",
      "city": "BARCELOS",
      "lon": "-8.623422420394684",
      "lat": "41.535569807392854"
    },
    {
      "id": "pt.ine.add.PTCONT.598099",
      "street": "R S JOSE",
      "house": "L3",
      "postcode": "4750-307",
      "city": "BARCELOS",
      "lon": "-8.623647983154878",
      "lat": "41.53528972903214"
    },
    {
      "id": "pt.ine.add.PTCONT.606086",
      "street": "TV CUSTÓDIO",
      "house": "23",
      "postcode": "4750-827",
      "city": "BARCELOS",
      "lon": "-8.628576868098984",
      "lat": "41.534224162880136"
    },
    {
      "id": "pt.ine.add.PTCONT.606854",
      "street": "R S JOSE",
      "house": "",
      "postcode": "4750-307",
      "city": "BARCELOS",
      "lon": "-8.624352439717818",
      "lat": "41.53495358295607"
    },
    {
      "id": "pt.ine.add.PTCONT.613238",
      "street": "R QUEIMADO",
      "house": "272",
      "postcode": "4750-827",
      "city": "BARCELOS",
      "lon": "-8.62797884309792",
      "lat": "41.534370798010805"
    },
    {
      "id": "pt.ine.add.PTCONT.615199",
      "street": "R QUEIMADO",
      "house": "272",
      "postcode": "4750-827",
      "city": "BARCELOS",
      "lon": "-8.62797884309792",
      "lat": "41.534370798010805"
    },
    {
      "id": "pt.ine.add.PTCONT.628647",
      "street": "TV OLHAL",
      "house": "",
      "postcode": "4750-344",
      "city": "BARCELOS",
      "lon": "-8.628434559278467",
      "lat": "41.53598951187784"
    },
    {
      "id": "pt.ine.add.PTCONT.642035",
      "street": "R CARREGAL",
      "house": "345",
      "postcode": "4750-816",
      "city": "BARCELOS",
      "lon": "-8.626284073147438",
      "lat": "41.538420763798"
    },
    {
      "id": "pt.ine.add.PTCONT.644970",
      "street": "R QUEIMADO",
      "house": "439",
      "postcode": "4750-827",
      "city": "BARCELOS",
      "lon": "-8.62888605482743",
      "lat": "41.535483356058364"
    },
    {
      "id": "pt.ine.add.PTCONT.693398",
      "street": "R QUEIMADO",
      "house": "193",
      "postcode": "4750-827",
      "city": "BARCELOS",
      "lon": "-8.62834652300527",
      "lat": "41.53387400858601"
    },
    {
      "id": "pt.ine.add.PTCONT.706864",
      "street": "R FILIPA BORGES",
      "house": "400",
      "postcode": "4750-822",
      "city": "BARCELOS",
      "lon": "-8.625375470648162",
      "lat": "41.53238313733734"
    },
    {
      "id": "pt.ine.add.PTCONT.709951",
      "street": "TV OLHAL",
      "house": "",
      "postcode": "4750-344",
      "city": "BARCELOS",
      "lon": "-8.62855665455267",
      "lat": "41.53628610976972"
    },
    {
      "id": "pt.ine.add.PTCONT.722327",
      "street": "R QUEIMADO",
      "house": "187",
      "postcode": "4750-827",
      "city": "BARCELOS",
      "lon": "-8.62837014440268",
      "lat": "41.533828888074346"
    },
    {
      "id": "pt.ine.add.PTCONT.725066",
      "street": "AV S JOSE",
      "house": "263",
      "postcode": "4750-307",
      "city": "BARCELOS",
      "lon": "-8.624362719186493",
      "lat": "41.53472844514573"
    },
    {
      "id": "pt.ine.add.PTCONT.742267",
      "street": "AV S JOSÉ",
      "house": "55",
      "postcode": "4750-307",
      "city": "BARCELOS",
      "lon": "-8.625332251684432",
      "lat": "41.5330045817126"
    },
    {
      "id": "pt.ine.add.PTCONT.742268",
      "street": "AV S JOSÉ",
      "house": "55",
      "postcode": "4750-307",
      "city": "BARCELOS",
      "lon": "-8.625332251684432",
      "lat": "41.5330045817126"
    },
    {
      "id": "pt.ine.add.PTCONT.742269",
      "street": "AV S JOSÉ",
      "house": "55",
      "postcode": "4750-307",
      "city": "BARCELOS",
      "lon": "-8.625332251684432",
      "lat": "41.5330045817126"
    },
    {
      "id": "pt.ine.add.PTCONT.742270",
      "street": "AV S JOSÉ",
      "house": "55",
      "postcode": "4750-307",
      "city": "BARCELOS",
      "lon": "-8.625332251684432",
      "lat": "41.5330045817126"
    },
    {
      "id": "pt.ine.add.PTCONT.742271",
      "street": "AV S JOSÉ",
      "house": "55",
      "postcode": "4750-307",
      "city": "BARCELOS",
      "lon": "-8.625332251684432",
      "lat": "41.5330045817126"
    },
    {
      "id": "pt.ine.add.PTCONT.742272",
      "street": "AV S JOSÉ",
      "house": "55",
      "postcode": "4750-307",
      "city": "BARCELOS",
      "lon": "-8.625332251684432",
      "lat": "41.5330045817126"
    },
    {
      "id": "pt.ine.add.PTCONT.742273",
      "street": "AV S JOSÉ",
      "house": "55",
      "postcode": "4750-307",
      "city": "BARCELOS",
      "lon": "-8.625332251684432",
      "lat": "41.5330045817126"
    },
    {
      "id": "pt.ine.add.PTCONT.742274",
      "street": "AV S JOSÉ",
      "house": "55",
      "postcode": "4750-307",
      "city": "BARCELOS",
      "lon": "-8.625332251684432",
      "lat": "41.5330045817126"
    },
    {
      "id": "pt.ine.add.PTCONT.742275",
      "street": "AV S JOSÉ",
      "house": "55",
      "postcode": "4750-307",
      "city": "BARCELOS",
      "lon": "-8.625332251684432",
      "lat": "41.5330045817126"
    },
    {
      "id": "pt.ine.add.PTCONT.742290",
      "street": "AV S JOSÉ",
      "house": "55",
      "postcode": "4750-307",
      "city": "BARCELOS",
      "lon": "-8.625332251684432",
      "lat": "41.5330045817126"
    },
    {
      "id": "pt.ine.add.PTCONT.752524",
      "street": "AV S JOSE",
      "house": "245",
      "postcode": "4750-307",
      "city": "BARCELOS",
      "lon": "-8.62459855357202",
      "lat": "41.534223227091516"
    },
    {
      "id": "pt.ine.add.PTCONT.762095",
      "street": "R CARREGAL",
      "house": "350",
      "postcode": "4750-816",
      "city": "BARCELOS",
      "lon": "-8.625924575992098",
      "lat": "41.53842230498598"
    },
    {
      "id": "pt.ine.add.PTCONT.762098",
      "street": "R CASTRO NEVES",
      "house": "58",
      "postcode": "4750-819",
      "city": "BARCELOS",
      "lon": "-8.629041983272394",
      "lat": "41.53393403779076"
    },
    {
      "id": "pt.ine.add.PTCONT.762175",
      "street": "R QUEIMADO",
      "house": "",
      "postcode": "4750-827",
      "city": "BARCELOS",
      "lon": "-8.628346866382216",
      "lat": "41.533919025890995"
    },
    {
      "id": "pt.ine.add.PTCONT.775972",
      "street": "R CASTRO NEVES",
      "house": "10",
      "postcode": "4750-819",
      "city": "BARCELOS",
      "lon": "-8.628645601856455",
      "lat": "41.53380969392129"
    },
    {
      "id": "pt.ine.add.PTCONT.798438",
      "street": "R S JOSE",
      "house": "",
      "postcode": "4750-307",
      "city": "BARCELOS",
      "lon": "-8.624081197429769",
      "lat": "41.535530981663385"
    },
    {
      "id": "pt.ine.add.PTCONT.799924",
      "street": "R FILIPA BORGES",
      "house": "",
      "postcode": "4750-822",
      "city": "BARCELOS",
      "lon": "-8.626391488777333",
      "lat": "41.53205464831167"
    },
    {
      "id": "pt.ine.add.PTCONT.821017",
      "street": "R CASTRO NEVES",
      "house": "70",
      "postcode": "4750-819",
      "city": "BARCELOS",
      "lon": "-8.629162426418077",
      "lat": "41.53401455212105"
    },
    {
      "id": "pt.ine.add.PTCONT.823419",
      "street": "R S JOSE",
      "house": "15",
      "postcode": "4750-307",
      "city": "BARCELOS",
      "lon": "-8.624233907747252",
      "lat": "41.535125160593516"
    },
    {
      "id": "pt.ine.add.PTCONT.826030",
      "street": "R CASTRO NEVES",
      "house": "67",
      "postcode": "4750-819",
      "city": "BARCELOS",
      "lon": "-8.629114152829176",
      "lat": "41.53396974156067"
    },
    {
      "id": "pt.ine.add.PTCONT.832907",
      "street": "R FILIPA BORGES",
      "house": "",
      "postcode": "4750-822",
      "city": "BARCELOS",
      "lon": "-8.625829698227438",
      "lat": "41.532237131909966"
    },
    {
      "id": "pt.ine.add.PTCONT.835962",
      "street": "AV S JOSE",
      "house": "",
      "postcode": "4750-307",
      "city": "BARCELOS",
      "lon": "-8.6251361692677",
      "lat": "41.53242918024481"
    }
  ]
}