{
  "data": {
    "distrito": "Braga",
    "concelho": "Vila Nova de Famalicão",
    "freguesia": "Ribeirão",
    "OBJECTID": 520,
    "BGRI2021": "03123500502",
    "DT21": "03",
    "DTMN21": "0312",
    "DTMNFR21": "031235",
    "DTMNFRSEC21": "031235005",
    "SECNUM21": "005",
    "SSNUM21": "02",
    "SECSSNUM21": "00502",
    "OBJECTID_1": 30281,
    "DT": "03",
    "CC": "12",
    "fr": "35",
    "SEC": "005",
    "SS": "02"
  },
  "addresses": [
    {
      "id": "pt.ine.add.PTCONT.487887",
      "street": "R JOÃO DE DEUS",
      "house": "27",
      "postcode": "4760-708",
      "city": "RIBEIRÃO",
      "lon": "-8.553360275292354",
      "lat": "41.359874912825475"
    },
    {
      "id": "pt.ine.add.PTCONT.487888",
      "street": "R JOÃO DE DEUS",
      "house": "27",
      "postcode": "4760-708",
      "city": "RIBEIRÃO",
      "lon": "-8.553360275292354",
      "lat": "41.359874912825475"
    },
    {
      "id": "pt.ine.add.PTCONT.487889",
      "street": "R JOÃO DE DEUS",
      "house": "27",
      "postcode": "4760-708",
      "city": "RIBEIRÃO",
      "lon": "-8.553360275292354",
      "lat": "41.359874912825475"
    },
    {
      "id": "pt.ine.add.PTCONT.488199",
      "street": "R JOÃO DE DEUS",
      "house": "27",
      "postcode": "4760-708",
      "city": "RIBEIRÃO",
      "lon": "-8.553360275292354",
      "lat": "41.359874912825475"
    },
    {
      "id": "pt.ine.add.PTCONT.488495",
      "street": "R JOÃO DE DEUS",
      "house": "27",
      "postcode": "4760-708",
      "city": "RIBEIRÃO",
      "lon": "-8.553360275292354",
      "lat": "41.359874912825475"
    },
    {
      "id": "pt.ine.add.PTCONT.492655",
      "street": "R DR JOSE LEITE DOS SANTOS",
      "house": "46",
      "postcode": "4760-726",
      "city": "RIBEIRÃO",
      "lon": "-8.554621049655646",
      "lat": "41.35894288575655"
    },
    {
      "id": "pt.ine.add.PTCONT.492656",
      "street": "R DR JOSE LEITE DOS SANTOS",
      "house": "46",
      "postcode": "4760-726",
      "city": "RIBEIRÃO",
      "lon": "-8.554621049655646",
      "lat": "41.35894288575655"
    },
    {
      "id": "pt.ine.add.PTCONT.492803",
      "street": "R DR JOSE LEITE DOS SANTOS",
      "house": "46",
      "postcode": "4760-726",
      "city": "RIBEIRÃO",
      "lon": "-8.554621049655646",
      "lat": "41.35894288575655"
    },
    {
      "id": "pt.ine.add.PTCONT.492804",
      "street": "R DR JOSE LEITE DOS SANTOS",
      "house": "46",
      "postcode": "4760-726",
      "city": "RIBEIRÃO",
      "lon": "-8.554621049655646",
      "lat": "41.35894288575655"
    },
    {
      "id": "pt.ine.add.PTCONT.492805",
      "street": "R DR JOSE LEITE DOS SANTOS",
      "house": "46",
      "postcode": "4760-726",
      "city": "RIBEIRÃO",
      "lon": "-8.554621049655646",
      "lat": "41.35894288575655"
    },
    {
      "id": "pt.ine.add.PTCONT.492806",
      "street": "R DR JOSE LEITE DOS SANTOS",
      "house": "46",
      "postcode": "4760-726",
      "city": "RIBEIRÃO",
      "lon": "-8.554621049655646",
      "lat": "41.35894288575655"
    },
    {
      "id": "pt.ine.add.PTCONT.493913",
      "street": "R DR JOSE LEITE DOS SANTOS",
      "house": "46",
      "postcode": "4760-726",
      "city": "RIBEIRÃO",
      "lon": "-8.554621049655646",
      "lat": "41.35894288575655"
    },
    {
      "id": "pt.ine.add.PTCONT.496397",
      "street": "R CAMILO CASTELO BRANCO",
      "house": "22",
      "postcode": "4760-720",
      "city": "RIBEIRÃO",
      "lon": "-8.554987817595562",
      "lat": "41.360220115562576"
    },
    {
      "id": "pt.ine.add.PTCONT.505560",
      "street": "R DR JOSE LEITE DOS SANTOS",
      "house": "50",
      "postcode": "4760-726",
      "city": "RIBEIRÃO",
      "lon": "-8.554574990775878",
      "lat": "41.359213175680644"
    },
    {
      "id": "pt.ine.add.PTCONT.505561",
      "street": "R DR JOSE LEITE DOS SANTOS",
      "house": "50",
      "postcode": "4760-726",
      "city": "RIBEIRÃO",
      "lon": "-8.554574990775878",
      "lat": "41.359213175680644"
    },
    {
      "id": "pt.ine.add.PTCONT.505562",
      "street": "R DR JOSE LEITE DOS SANTOS",
      "house": "50",
      "postcode": "4760-726",
      "city": "RIBEIRÃO",
      "lon": "-8.554574990775878",
      "lat": "41.359213175680644"
    },
    {
      "id": "pt.ine.add.PTCONT.505563",
      "street": "R DR JOSE LEITE DOS SANTOS",
      "house": "50",
      "postcode": "4760-726",
      "city": "RIBEIRÃO",
      "lon": "-8.554574990775878",
      "lat": "41.359213175680644"
    },
    {
      "id": "pt.ine.add.PTCONT.505564",
      "street": "R DR JOSE LEITE DOS SANTOS",
      "house": "50",
      "postcode": "4760-726",
      "city": "RIBEIRÃO",
      "lon": "-8.554574990775878",
      "lat": "41.359213175680644"
    },
    {
      "id": "pt.ine.add.PTCONT.505565",
      "street": "R DR JOSE LEITE DOS SANTOS",
      "house": "50",
      "postcode": "4760-726",
      "city": "RIBEIRÃO",
      "lon": "-8.554574990775878",
      "lat": "41.359213175680644"
    },
    {
      "id": "pt.ine.add.PTCONT.506035",
      "street": "R DR JOSE LEITE DOS SANTOS",
      "house": "50",
      "postcode": "4760-726",
      "city": "RIBEIRÃO",
      "lon": "-8.554574990775878",
      "lat": "41.359213175680644"
    },
    {
      "id": "pt.ine.add.PTCONT.506036",
      "street": "R DR JOSE LEITE DOS SANTOS",
      "house": "50",
      "postcode": "4760-726",
      "city": "RIBEIRÃO",
      "lon": "-8.554574990775878",
      "lat": "41.359213175680644"
    },
    {
      "id": "pt.ine.add.PTCONT.538528",
      "street": "R JOÃO DE DEUS",
      "house": "63",
      "postcode": "4760-708",
      "city": "RIBEIRÃO",
      "lon": "-8.553468757236685",
      "lat": "41.36001858127076"
    },
    {
      "id": "pt.ine.add.PTCONT.538529",
      "street": "R JOÃO DE DEUS",
      "house": "63",
      "postcode": "4760-708",
      "city": "RIBEIRÃO",
      "lon": "-8.553468757236685",
      "lat": "41.36001858127076"
    },
    {
      "id": "pt.ine.add.PTCONT.538530",
      "street": "R JOÃO DE DEUS",
      "house": "63",
      "postcode": "4760-708",
      "city": "RIBEIRÃO",
      "lon": "-8.553468757236685",
      "lat": "41.36001858127076"
    },
    {
      "id": "pt.ine.add.PTCONT.538531",
      "street": "R JOÃO DE DEUS",
      "house": "63",
      "postcode": "4760-708",
      "city": "RIBEIRÃO",
      "lon": "-8.553468757236685",
      "lat": "41.36001858127076"
    },
    {
      "id": "pt.ine.add.PTCONT.538534",
      "street": "R JOÃO DE DEUS",
      "house": "63",
      "postcode": "4760-708",
      "city": "RIBEIRÃO",
      "lon": "-8.553468757236685",
      "lat": "41.36001858127076"
    },
    {
      "id": "pt.ine.add.PTCONT.538535",
      "street": "R NOVA CANDEEIRA",
      "house": "7",
      "postcode": "4760-708",
      "city": "RIBEIRÃO",
      "lon": "-8.553228124392941",
      "lat": "41.35976734684243"
    },
    {
      "id": "pt.ine.add.PTCONT.538536",
      "street": "R NOVA CANDEEIRA A",
      "house": "A15",
      "postcode": "4760-708",
      "city": "RIBEIRÃO",
      "lon": "-8.553228124392941",
      "lat": "41.35976734684243"
    },
    {
      "id": "pt.ine.add.PTCONT.538537",
      "street": "R NOVA CANDEEIRA",
      "house": "23",
      "postcode": "4760-708",
      "city": "RIBEIRÃO",
      "lon": "-8.553228124392941",
      "lat": "41.35976734684243"
    },
    {
      "id": "pt.ine.add.PTCONT.538777",
      "street": "R JOÃO DE DEUS",
      "house": "63",
      "postcode": "4760-708",
      "city": "RIBEIRÃO",
      "lon": "-8.553468757236685",
      "lat": "41.36001858127076"
    },
    {
      "id": "pt.ine.add.PTCONT.538876",
      "street": "R NOVA CANDEEIRA",
      "house": "23",
      "postcode": "4760-708",
      "city": "RIBEIRÃO",
      "lon": "-8.553228124392941",
      "lat": "41.35976734684243"
    },
    {
      "id": "pt.ine.add.PTCONT.553286",
      "street": "R JOÃO DE DEUS",
      "house": "247",
      "postcode": "4760-708",
      "city": "RIBEIRÃO",
      "lon": "-8.554314470153638",
      "lat": "41.36143812718173"
    },
    {
      "id": "pt.ine.add.PTCONT.559535",
      "street": "R PINHEIRO DA ERA",
      "house": "21",
      "postcode": "4760-710",
      "city": "RIBEIRÃO",
      "lon": "-8.55404308106897",
      "lat": "41.360124530512174"
    },
    {
      "id": "pt.ine.add.PTCONT.562149",
      "street": "R JOÃO DE DEUS",
      "house": "22",
      "postcode": "4760-708",
      "city": "RIBEIRÃO",
      "lon": "-8.553119817062974",
      "lat": "41.35965068964738"
    },
    {
      "id": "pt.ine.add.PTCONT.562192",
      "street": "R S CRISTÓVÃO",
      "house": "36",
      "postcode": "4760-708",
      "city": "RIBEIRÃO",
      "lon": "-8.554247917987524",
      "lat": "41.358530065877694"
    },
    {
      "id": "pt.ine.add.PTCONT.566495",
      "street": "R PINHEIRO DA ERA",
      "house": "19",
      "postcode": "4760-710",
      "city": "RIBEIRÃO",
      "lon": "-8.554281860762371",
      "lat": "41.36008764073587"
    },
    {
      "id": "pt.ine.add.PTCONT.572245",
      "street": "R CENTRAL DA CANDIEIRA",
      "house": "25",
      "postcode": "4760-708",
      "city": "RIBEIRÃO",
      "lon": "-8.553343980785856",
      "lat": "41.35919966927688"
    },
    {
      "id": "pt.ine.add.PTCONT.617710",
      "street": "R CAMILO CASTELO BRANCO",
      "house": "32",
      "postcode": "4760-720",
      "city": "RIBEIRÃO",
      "lon": "-8.554955338050732",
      "lat": "41.36074246888248"
    },
    {
      "id": "pt.ine.add.PTCONT.622543",
      "street": "R DR JOSE LEITE DOS SANTOS",
      "house": "48",
      "postcode": "4760-726",
      "city": "RIBEIRÃO",
      "lon": "-8.554441910124142",
      "lat": "41.35896154982411"
    },
    {
      "id": "pt.ine.add.PTCONT.622544",
      "street": "R DR JOSE LEITE DOS SANTOS",
      "house": "48",
      "postcode": "4760-726",
      "city": "RIBEIRÃO",
      "lon": "-8.554441910124142",
      "lat": "41.35896154982411"
    },
    {
      "id": "pt.ine.add.PTCONT.622612",
      "street": "R DR JOSE LEITE DOS SANTOS",
      "house": "48",
      "postcode": "4760-726",
      "city": "RIBEIRÃO",
      "lon": "-8.554441910124142",
      "lat": "41.35896154982411"
    },
    {
      "id": "pt.ine.add.PTCONT.622613",
      "street": "R DR JOSE LEITE DOS SANTOS",
      "house": "48",
      "postcode": "4760-726",
      "city": "RIBEIRÃO",
      "lon": "-8.554441910124142",
      "lat": "41.35896154982411"
    },
    {
      "id": "pt.ine.add.PTCONT.622614",
      "street": "R DR JOSE LEITE DOS SANTOS",
      "house": "48",
      "postcode": "4760-726",
      "city": "RIBEIRÃO",
      "lon": "-8.554441910124142",
      "lat": "41.35896154982411"
    },
    {
      "id": "pt.ine.add.PTCONT.622615",
      "street": "R DR JOSE LEITE DOS SANTOS",
      "house": "48",
      "postcode": "4760-726",
      "city": "RIBEIRÃO",
      "lon": "-8.554441910124142",
      "lat": "41.35896154982411"
    },
    {
      "id": "pt.ine.add.PTCONT.623542",
      "street": "R DR JOSE LEITE DOS SANTOS",
      "house": "48",
      "postcode": "4760-726",
      "city": "RIBEIRÃO",
      "lon": "-8.554441910124142",
      "lat": "41.35896154982411"
    },
    {
      "id": "pt.ine.add.PTCONT.623550",
      "street": "R DR JOSE LEITE DOS SANTOS",
      "house": "48",
      "postcode": "4760-726",
      "city": "RIBEIRÃO",
      "lon": "-8.554441910124142",
      "lat": "41.35896154982411"
    },
    {
      "id": "pt.ine.add.PTCONT.673759",
      "street": "R MANUEL VENTURA",
      "house": "9",
      "postcode": "4760-726",
      "city": "RIBEIRÃO",
      "lon": "-8.554186408452088",
      "lat": "41.359573949376"
    },
    {
      "id": "pt.ine.add.PTCONT.685191",
      "street": "R CERCO",
      "house": "6",
      "postcode": "4760-710",
      "city": "RIBEIRÃO",
      "lon": "-8.55474365410248",
      "lat": "41.36127448288303"
    },
    {
      "id": "pt.ine.add.PTCONT.685192",
      "street": "R CERCO",
      "house": "6",
      "postcode": "4760-710",
      "city": "RIBEIRÃO",
      "lon": "-8.55474365410248",
      "lat": "41.36127448288303"
    },
    {
      "id": "pt.ine.add.PTCONT.697061",
      "street": "R JOÃO DE DEUS",
      "house": "45",
      "postcode": "4760-708",
      "city": "RIBEIRÃO",
      "lon": "-8.553408598851867",
      "lat": "41.3599557727127"
    },
    {
      "id": "pt.ine.add.PTCONT.697062",
      "street": "R JOÃO DE DEUS",
      "house": "45",
      "postcode": "4760-708",
      "city": "RIBEIRÃO",
      "lon": "-8.553408598851867",
      "lat": "41.3599557727127"
    },
    {
      "id": "pt.ine.add.PTCONT.697063",
      "street": "R JOÃO DE DEUS",
      "house": "45",
      "postcode": "4760-708",
      "city": "RIBEIRÃO",
      "lon": "-8.553408598851867",
      "lat": "41.3599557727127"
    },
    {
      "id": "pt.ine.add.PTCONT.697064",
      "street": "R JOÃO DE DEUS",
      "house": "45",
      "postcode": "4760-708",
      "city": "RIBEIRÃO",
      "lon": "-8.553408598851867",
      "lat": "41.3599557727127"
    },
    {
      "id": "pt.ine.add.PTCONT.697065",
      "street": "R JOÃO DE DEUS",
      "house": "45",
      "postcode": "4760-708",
      "city": "RIBEIRÃO",
      "lon": "-8.553408598851867",
      "lat": "41.3599557727127"
    },
    {
      "id": "pt.ine.add.PTCONT.697668",
      "street": "R JOÃO DE DEUS",
      "house": "45",
      "postcode": "4760-708",
      "city": "RIBEIRÃO",
      "lon": "-8.553408598851867",
      "lat": "41.3599557727127"
    },
    {
      "id": "pt.ine.add.PTCONT.700012",
      "street": "R PINHEIRO DA ERA",
      "house": "",
      "postcode": "4760-710",
      "city": "RIBEIRÃO",
      "lon": "-8.553645465576409",
      "lat": "41.3596217579139"
    },
    {
      "id": "pt.ine.add.PTCONT.702961",
      "street": "R DR JOSÉ LEITE DOS SANTOS",
      "house": "52",
      "postcode": "4760-726",
      "city": "RIBEIRÃO",
      "lon": "-8.554765732694618",
      "lat": "41.359140444650365"
    },
    {
      "id": "pt.ine.add.PTCONT.702962",
      "street": "R DR JOSÉ LEITE DOS SANTOS",
      "house": "52",
      "postcode": "4760-726",
      "city": "RIBEIRÃO",
      "lon": "-8.554765732694618",
      "lat": "41.359140444650365"
    },
    {
      "id": "pt.ine.add.PTCONT.702963",
      "street": "R DR JOSÉ LEITE DOS SANTOS",
      "house": "52",
      "postcode": "4760-726",
      "city": "RIBEIRÃO",
      "lon": "-8.554765732694618",
      "lat": "41.359140444650365"
    },
    {
      "id": "pt.ine.add.PTCONT.702964",
      "street": "R DR JOSÉ LEITE DOS SANTOS",
      "house": "52",
      "postcode": "4760-726",
      "city": "RIBEIRÃO",
      "lon": "-8.554765732694618",
      "lat": "41.359140444650365"
    },
    {
      "id": "pt.ine.add.PTCONT.702968",
      "street": "R DR JOSÉ LEITE DOS SANTOS",
      "house": "52",
      "postcode": "4760-726",
      "city": "RIBEIRÃO",
      "lon": "-8.554765732694618",
      "lat": "41.359140444650365"
    },
    {
      "id": "pt.ine.add.PTCONT.702969",
      "street": "R DR JOSÉ LEITE DOS SANTOS",
      "house": "52",
      "postcode": "4760-726",
      "city": "RIBEIRÃO",
      "lon": "-8.554765732694618",
      "lat": "41.359140444650365"
    },
    {
      "id": "pt.ine.add.PTCONT.703339",
      "street": "R DR JOSÉ LEITE DOS SANTOS",
      "house": "52",
      "postcode": "4760-726",
      "city": "RIBEIRÃO",
      "lon": "-8.554765732694618",
      "lat": "41.359140444650365"
    },
    {
      "id": "pt.ine.add.PTCONT.703537",
      "street": "R DR JOSÉ LEITE DOS SANTOS",
      "house": "52",
      "postcode": "4760-726",
      "city": "RIBEIRÃO",
      "lon": "-8.554765732694618",
      "lat": "41.359140444650365"
    },
    {
      "id": "pt.ine.add.PTCONT.708876",
      "street": "R CAMILO CASTELO BRANCO",
      "house": "",
      "postcode": "4760-720",
      "city": "RIBEIRÃO",
      "lon": "-8.554978541702093",
      "lat": "41.36063433536185"
    },
    {
      "id": "pt.ine.add.PTCONT.726855",
      "street": "R JOÃO DE DEUS",
      "house": "258",
      "postcode": "4760-708",
      "city": "RIBEIRÃO",
      "lon": "-8.554280068952766",
      "lat": "41.36166335402026"
    },
    {
      "id": "pt.ine.add.PTCONT.735859",
      "street": "R CAMILO CASTELO BRANCO",
      "house": "",
      "postcode": "4760-720",
      "city": "RIBEIRÃO",
      "lon": "-8.554977204336396",
      "lat": "41.360427247370225"
    },
    {
      "id": "pt.ine.add.PTCONT.794568",
      "street": "R PINHEIRO DA ERA",
      "house": "16",
      "postcode": "4760-710",
      "city": "RIBEIRÃO",
      "lon": "-8.554519130050311",
      "lat": "41.35981665095821"
    },
    {
      "id": "pt.ine.add.PTCONT.797499",
      "street": "R MANUEL VENTURA",
      "house": "10",
      "postcode": "4760-726",
      "city": "RIBEIRÃO",
      "lon": "-8.553736721626223",
      "lat": "41.35894612133659"
    },
    {
      "id": "pt.ine.add.PTCONT.828807",
      "street": "R CAMILO CASTELO BRANCO",
      "house": "",
      "postcode": "4760-720",
      "city": "RIBEIRÃO",
      "lon": "-8.554971680582625",
      "lat": "41.359571883846975"
    },
    {
      "id": "pt.ine.add.PTCONT.831424",
      "street": "R DR JOSE LEITE DOS SANTOS",
      "house": "34",
      "postcode": "4760-726",
      "city": "RIBEIRÃO",
      "lon": "-8.554127022360918",
      "lat": "41.35831441120391"
    }
  ]
}