{
  "data": {
    "distrito": "Setúbal",
    "concelho": "Santiago do Cacém",
    "freguesia": "Cercal",
    "OBJECTID": 468,
    "BGRI2021": "15090300305",
    "DT21": "15",
    "DTMN21": "1509",
    "DTMNFR21": "150903",
    "DTMNFRSEC21": "150903003",
    "SECNUM21": "003",
    "SSNUM21": "05",
    "SECSSNUM21": "00305",
    "OBJECTID_1": 166514,
    "DT": "15",
    "CC": "09",
    "fr": "03",
    "SEC": "003",
    "SS": "05"
  },
  "addresses": [
    {
      "id": "pt.ine.add.PTCONT.4668270",
      "street": "R PARREIRA",
      "house": "34",
      "postcode": "7555-119",
      "city": "CERCAL DO ALENTEJO",
      "lon": "-8.673947071288207",
      "lat": "37.80178606857569"
    },
    {
      "id": "pt.ine.add.PTCONT.4668275",
      "street": "R CENTENARIOS INDEPENDENC IA",
      "house": "8",
      "postcode": "7555-101",
      "city": "CERCAL DO ALENTEJO",
      "lon": "-8.673337364370576",
      "lat": "37.80163317474179"
    },
    {
      "id": "pt.ine.add.PTCONT.4669447",
      "street": "R CENTENARIOS INDEPENDENCIA",
      "house": "8",
      "postcode": "7555-101",
      "city": "CERCAL DO ALENTEJO",
      "lon": "-8.673337364370576",
      "lat": "37.80163317474179"
    },
    {
      "id": "pt.ine.add.PTCONT.4690183",
      "street": "R PARREIRA",
      "house": "44",
      "postcode": "7555-119",
      "city": "CERCAL DO ALENTEJO",
      "lon": "-8.674390887118395",
      "lat": "37.80206217596211"
    },
    {
      "id": "pt.ine.add.PTCONT.4693904",
      "street": "R PARREIRA",
      "house": "28",
      "postcode": "7555-119",
      "city": "CERCAL DO ALENTEJO",
      "lon": "-8.673781253587762",
      "lat": "37.80170031599847"
    },
    {
      "id": "pt.ine.add.PTCONT.4751695",
      "street": "R CENTENARIOS DA INDEPENDÊNCIA",
      "house": "6",
      "postcode": "7555-101",
      "city": "CERCAL DO ALENTEJO",
      "lon": "-8.673241561599136",
      "lat": "37.801753071869655"
    },
    {
      "id": "pt.ine.add.PTCONT.4763178",
      "street": "R PARREIRA",
      "house": "42A",
      "postcode": "7555-119",
      "city": "CERCAL DO ALENTEJO",
      "lon": "-8.674181948118216",
      "lat": "37.80192559768487"
    },
    {
      "id": "pt.ine.add.PTCONT.4767036",
      "street": "R DR TEÓFILO BRAGA",
      "house": "53",
      "postcode": "7555-138",
      "city": "CERCAL DO ALENTEJO",
      "lon": "-8.67369821219848",
      "lat": "37.802074035376855"
    },
    {
      "id": "pt.ine.add.PTCONT.4840880",
      "street": "R DR TEOFILO BRAGA",
      "house": "45-47",
      "postcode": "7555-138",
      "city": "CERCAL DO ALENTEJO",
      "lon": "-8.673551542129074",
      "lat": "37.8019643572856"
    },
    {
      "id": "pt.ine.add.PTCONT.4842203",
      "street": "R DR TEOFILO BRAGA",
      "house": "45-47-49",
      "postcode": "7555-138",
      "city": "CERCAL DO ALENTEJO",
      "lon": "-8.673551542129074",
      "lat": "37.8019643572856"
    },
    {
      "id": "pt.ine.add.PTCONT.4858472",
      "street": "R PARREIRA",
      "house": "42",
      "postcode": "7555-119",
      "city": "CERCAL DO ALENTEJO",
      "lon": "-8.67410036951493",
      "lat": "37.80191305181579"
    },
    {
      "id": "pt.ine.add.PTCONT.4858583",
      "street": "R PARREIRA",
      "house": "42",
      "postcode": "7555-119",
      "city": "CERCAL DO ALENTEJO",
      "lon": "-8.67410036951493",
      "lat": "37.80191305181579"
    },
    {
      "id": "pt.ine.add.PTCONT.4858584",
      "street": "R PARREIRA",
      "house": "42",
      "postcode": "7555-119",
      "city": "CERCAL DO ALENTEJO",
      "lon": "-8.67410036951493",
      "lat": "37.80191305181579"
    },
    {
      "id": "pt.ine.add.PTCONT.4858585",
      "street": "R PARREIRA",
      "house": "42",
      "postcode": "7555-119",
      "city": "CERCAL DO ALENTEJO",
      "lon": "-8.67410036951493",
      "lat": "37.80191305181579"
    },
    {
      "id": "pt.ine.add.PTCONT.4860709",
      "street": "R PARREIRA",
      "house": "42",
      "postcode": "7555-119",
      "city": "CERCAL DO ALENTEJO",
      "lon": "-8.67410036951493",
      "lat": "37.80191305181579"
    },
    {
      "id": "pt.ine.add.PTCONT.4860784",
      "street": "R PARREIRA",
      "house": "42",
      "postcode": "7555-119",
      "city": "CERCAL DO ALENTEJO",
      "lon": "-8.67410036951493",
      "lat": "37.80191305181579"
    },
    {
      "id": "pt.ine.add.PTCONT.4875306",
      "street": "R GUERRA JUNQUEIRO",
      "house": "12",
      "postcode": "7555-142",
      "city": "CERCAL DO ALENTEJO",
      "lon": "-8.674235033948166",
      "lat": "37.802250282294196"
    },
    {
      "id": "pt.ine.add.PTCONT.4875307",
      "street": "R GUERRA JUNQUEIRO",
      "house": "12",
      "postcode": "7555-142",
      "city": "CERCAL DO ALENTEJO",
      "lon": "-8.674235033948166",
      "lat": "37.802250282294196"
    },
    {
      "id": "pt.ine.add.PTCONT.4875308",
      "street": "R DR TEÓFILO BRAGA",
      "house": "43",
      "postcode": "7555-138",
      "city": "CERCAL DO ALENTEJO",
      "lon": "-8.673430415067498",
      "lat": "37.80191361912013"
    },
    {
      "id": "pt.ine.add.PTCONT.4880944",
      "street": "R DR TEÓFILO BRAGA",
      "house": "41",
      "postcode": "7555-138",
      "city": "CERCAL DO ALENTEJO",
      "lon": "-8.673342067932735",
      "lat": "37.80185148305559"
    },
    {
      "id": "pt.ine.add.PTCONT.4887179",
      "street": "R PARREIRA",
      "house": "30",
      "postcode": "7555-119",
      "city": "CERCAL DO ALENTEJO",
      "lon": "-8.673839713654463",
      "lat": "37.80172655092525"
    },
    {
      "id": "pt.ine.add.PTCONT.4904667",
      "street": "R PARREIRA",
      "house": "32",
      "postcode": "7555-119",
      "city": "CERCAL DO ALENTEJO",
      "lon": "-8.673902217163162",
      "lat": "37.801756055728355"
    },
    {
      "id": "pt.ine.add.PTCONT.4921337",
      "street": "R DR TEÓFILO BRAGA",
      "house": "63 65",
      "postcode": "7555-138",
      "city": "CERCAL DO ALENTEJO",
      "lon": "-8.673857627382334",
      "lat": "37.80215258012227"
    },
    {
      "id": "pt.ine.add.PTCONT.4977027",
      "street": "R PARREIRA",
      "house": "36",
      "postcode": "7555-119",
      "city": "CERCAL DO ALENTEJO",
      "lon": "-8.673994763321694",
      "lat": "37.801818929792695"
    },
    {
      "id": "pt.ine.add.PTCONT.5003754",
      "street": "R DR TEÓFILO BRAGA",
      "house": "67A",
      "postcode": "7555-138",
      "city": "CERCAL DO ALENTEJO",
      "lon": "-8.673941672888457",
      "lat": "37.80219290192606"
    },
    {
      "id": "pt.ine.add.PTCONT.5039157",
      "street": "R GUERRA JUNQUEIRO",
      "house": "6",
      "postcode": "7555-142",
      "city": "CERCAL DO ALENTEJO",
      "lon": "-8.674360574542026",
      "lat": "37.802139353646915"
    },
    {
      "id": "pt.ine.add.PTCONT.5050165",
      "street": "R DR TEÓFILO BRAGA",
      "house": "61",
      "postcode": "7555-138",
      "city": "CERCAL DO ALENTEJO",
      "lon": "-8.673799648717035",
      "lat": "37.8021182876058"
    },
    {
      "id": "pt.ine.add.PTCONT.5058503",
      "street": "R GUERRA JUNQUEIRO",
      "house": "10",
      "postcode": "7555-142",
      "city": "CERCAL DO ALENTEJO",
      "lon": "-8.674292285180893",
      "lat": "37.80220802693893"
    },
    {
      "id": "pt.ine.add.PTCONT.5071789",
      "street": "R GUERRA JUNQUEIRO",
      "house": "14",
      "postcode": "7555-142",
      "city": "CERCAL DO ALENTEJO",
      "lon": "-8.674182872682815",
      "lat": "37.8022974757742"
    },
    {
      "id": "pt.ine.add.PTCONT.5079201",
      "street": "R DR TEOFILO BRAGA",
      "house": "51",
      "postcode": "7555-138",
      "city": "CERCAL DO ALENTEJO",
      "lon": "-8.673630095218078",
      "lat": "37.802018579137695"
    },
    {
      "id": "pt.ine.add.PTCONT.5079202",
      "street": "R DR TEOFILO BRAGA",
      "house": "51-51A",
      "postcode": "7555-138",
      "city": "CERCAL DO ALENTEJO",
      "lon": "-8.673630095218078",
      "lat": "37.802018579137695"
    },
    {
      "id": "pt.ine.add.PTCONT.5108461",
      "street": "R PARREIRA",
      "house": "18",
      "postcode": "7555-119",
      "city": "CERCAL DO ALENTEJO",
      "lon": "-8.673432990016472",
      "lat": "37.80157348432325"
    }
  ]
}