{
  "data": {
    "distrito": "Setúbal",
    "concelho": "Santiago do Cacém",
    "freguesia": "Cercal",
    "OBJECTID": 126,
    "BGRI2021": "15090300308",
    "DT21": "15",
    "DTMN21": "1509",
    "DTMNFR21": "150903",
    "DTMNFRSEC21": "150903003",
    "SECNUM21": "003",
    "SSNUM21": "08",
    "SECSSNUM21": "00308",
    "OBJECTID_1": 166744,
    "DT": "15",
    "CC": "09",
    "fr": "03",
    "SEC": "003",
    "SS": "08"
  },
  "addresses": [
    {
      "id": "pt.ine.add.PTCONT.4664211",
      "street": "R OLIVEIRAS",
      "house": "18",
      "postcode": "7555-120",
      "city": "CERCAL DO ALENTEJO",
      "lon": "-8.672773531631297",
      "lat": "37.80346354186384"
    },
    {
      "id": "pt.ine.add.PTCONT.4668287",
      "street": "R ACÁCIO GUERREIRO DE MELO",
      "house": "",
      "postcode": "7555-109",
      "city": "CERCAL DO ALENTEJO",
      "lon": "-8.669614563981787",
      "lat": "37.79973616397217"
    },
    {
      "id": "pt.ine.add.PTCONT.4691540",
      "street": "R ACACIO GUERREIRO DE MELO",
      "house": "",
      "postcode": "7555-109",
      "city": "CERCAL DO ALENTEJO",
      "lon": "-8.66940569878578",
      "lat": "37.80020442255502"
    },
    {
      "id": "pt.ine.add.PTCONT.4697576",
      "street": "R SERPA PINTO",
      "house": "6",
      "postcode": "7555-146",
      "city": "CERCAL DO ALENTEJO",
      "lon": "-8.67285861101439",
      "lat": "37.8017748938883"
    },
    {
      "id": "pt.ine.add.PTCONT.4718358",
      "street": "EN 390",
      "house": "",
      "postcode": "7555-211",
      "city": "CERCAL DO ALENTEJO",
      "lon": "-8.664285523126502",
      "lat": "37.80029969569189"
    },
    {
      "id": "pt.ine.add.PTCONT.4723155",
      "street": "LG CAEIROS",
      "house": "34",
      "postcode": "7555-115",
      "city": "CERCAL DO ALENTEJO",
      "lon": "-8.670976758453158",
      "lat": "37.80024497272605"
    },
    {
      "id": "pt.ine.add.PTCONT.4723156",
      "street": "LG CAEIROS",
      "house": "34",
      "postcode": "7555-115",
      "city": "CERCAL DO ALENTEJO",
      "lon": "-8.670976758453158",
      "lat": "37.80024497272605"
    },
    {
      "id": "pt.ine.add.PTCONT.4723157",
      "street": "LG CAEIROS",
      "house": "34",
      "postcode": "7555-115",
      "city": "CERCAL DO ALENTEJO",
      "lon": "-8.670976758453158",
      "lat": "37.80024497272605"
    },
    {
      "id": "pt.ine.add.PTCONT.4742321",
      "street": "R OLIVEIRAS",
      "house": "16",
      "postcode": "7555-120",
      "city": "CERCAL DO ALENTEJO",
      "lon": "-8.672711763959772",
      "lat": "37.80315154394391"
    },
    {
      "id": "pt.ine.add.PTCONT.4746487",
      "street": "R OLIVEIRAS",
      "house": "18",
      "postcode": "7555-120",
      "city": "CERCAL DO ALENTEJO",
      "lon": "-8.672761454510738",
      "lat": "37.803381615276855"
    },
    {
      "id": "pt.ine.add.PTCONT.4748922",
      "street": "R SERPA PINTO",
      "house": "35",
      "postcode": "7555-146",
      "city": "CERCAL DO ALENTEJO",
      "lon": "-8.673196061815856",
      "lat": "37.802112279251574"
    },
    {
      "id": "pt.ine.add.PTCONT.4751696",
      "street": "R OLIVEIRAS",
      "house": "",
      "postcode": "7555-120",
      "city": "CERCAL DO ALENTEJO",
      "lon": "-8.672813732051427",
      "lat": "37.8029149838764"
    },
    {
      "id": "pt.ine.add.PTCONT.4759664",
      "street": "LG AUGUSTO FUCHINI",
      "house": "34",
      "postcode": "7555-112",
      "city": "CERCAL DO ALENTEJO",
      "lon": "-8.673211236311111",
      "lat": "37.802198820690464"
    },
    {
      "id": "pt.ine.add.PTCONT.4773180",
      "street": "",
      "house": "",
      "postcode": "7555-109",
      "city": "CERCAL DO ALENTEJO",
      "lon": "-8.667412507670093",
      "lat": "37.800925229923735"
    },
    {
      "id": "pt.ine.add.PTCONT.4774058",
      "street": "LG AUGUSTO FUCHINI",
      "house": "29",
      "postcode": "7555-112",
      "city": "CERCAL DO ALENTEJO",
      "lon": "-8.67323923066482",
      "lat": "37.802372403569734"
    },
    {
      "id": "pt.ine.add.PTCONT.4787818",
      "street": "LG CAEIROS",
      "house": "3",
      "postcode": "7555-115",
      "city": "CERCAL DO ALENTEJO",
      "lon": "-8.670503501926836",
      "lat": "37.80002518339006"
    },
    {
      "id": "pt.ine.add.PTCONT.4796350",
      "street": "LG CAEIROS",
      "house": "",
      "postcode": "7555-115",
      "city": "CERCAL DO ALENTEJO",
      "lon": "-8.670422550142876",
      "lat": "37.799988133463565"
    },
    {
      "id": "pt.ine.add.PTCONT.4797775",
      "street": "R SERPA PINTO",
      "house": "16",
      "postcode": "7555-146",
      "city": "CERCAL DO ALENTEJO",
      "lon": "-8.67313502471019",
      "lat": "37.802004873033724"
    },
    {
      "id": "pt.ine.add.PTCONT.4801831",
      "street": "R DR TEÓFILO BRAGA",
      "house": "",
      "postcode": "7555-137",
      "city": "CERCAL DO ALENTEJO",
      "lon": "-8.672115864736934",
      "lat": "37.80110386592769"
    },
    {
      "id": "pt.ine.add.PTCONT.4813027",
      "street": "LG CAEIROS",
      "house": "43",
      "postcode": "7555-115",
      "city": "CERCAL DO ALENTEJO",
      "lon": "-8.671453061580161",
      "lat": "37.800569999719826"
    },
    {
      "id": "pt.ine.add.PTCONT.4820011",
      "street": "R DR TEÓFILO BRAGA",
      "house": "30",
      "postcode": "7555-137",
      "city": "CERCAL DO ALENTEJO",
      "lon": "-8.672581715928786",
      "lat": "37.80154406038206"
    },
    {
      "id": "pt.ine.add.PTCONT.4830109",
      "street": "R OLIVEIRAS",
      "house": "161",
      "postcode": "7555-120",
      "city": "CERCAL DO ALENTEJO",
      "lon": "-8.672723874215604",
      "lat": "37.803255360761526"
    },
    {
      "id": "pt.ine.add.PTCONT.4838609",
      "street": "R OLIVEIRAS",
      "house": "",
      "postcode": "7555-120",
      "city": "CERCAL DO ALENTEJO",
      "lon": "-8.673030122038874",
      "lat": "37.802730978811766"
    },
    {
      "id": "pt.ine.add.PTCONT.4872144",
      "street": "R DR TEÓFILO BRAGA",
      "house": "",
      "postcode": "7555-137",
      "city": "CERCAL DO ALENTEJO",
      "lon": "-8.672680098038702",
      "lat": "37.80163985379631"
    },
    {
      "id": "pt.ine.add.PTCONT.4886861",
      "street": "EN 390",
      "house": "",
      "postcode": "7555-211",
      "city": "CERCAL DO ALENTEJO",
      "lon": "-8.665756154087374",
      "lat": "37.80112193000772"
    },
    {
      "id": "pt.ine.add.PTCONT.4894050",
      "street": "LG AUGUSTO FUCHINI",
      "house": "25",
      "postcode": "7555-112",
      "city": "CERCAL DO ALENTEJO",
      "lon": "-8.673270608568778",
      "lat": "37.8025894408468"
    },
    {
      "id": "pt.ine.add.PTCONT.4906999",
      "street": "R DR TEOFILO BRAGA",
      "house": "24",
      "postcode": "7555-137",
      "city": "CERCAL DO ALENTEJO",
      "lon": "-8.672428069361523",
      "lat": "37.80140790417069"
    },
    {
      "id": "pt.ine.add.PTCONT.4909682",
      "street": "R ACACIO GUERREIRO DE MELO",
      "house": "7",
      "postcode": "7555-109",
      "city": "CERCAL DO ALENTEJO",
      "lon": "-8.66895832238699",
      "lat": "37.79963189254045"
    },
    {
      "id": "pt.ine.add.PTCONT.4914994",
      "street": "",
      "house": "",
      "postcode": "7555-109",
      "city": "CERCAL DO ALENTEJO",
      "lon": "-8.666920127729755",
      "lat": "37.80035085384834"
    },
    {
      "id": "pt.ine.add.PTCONT.4917243",
      "street": "R ACACIO GUERREIRO DE MELO",
      "house": "13",
      "postcode": "7555-109",
      "city": "CERCAL DO ALENTEJO",
      "lon": "-8.670066901062732",
      "lat": "37.79988864585803"
    },
    {
      "id": "pt.ine.add.PTCONT.4921338",
      "street": "R OLIVEIRAS",
      "house": "8",
      "postcode": "7555-120",
      "city": "CERCAL DO ALENTEJO",
      "lon": "-8.672876892503524",
      "lat": "37.80281858479132"
    },
    {
      "id": "pt.ine.add.PTCONT.4926301",
      "street": "LG CAEIROS",
      "house": "39",
      "postcode": "7555-115",
      "city": "CERCAL DO ALENTEJO",
      "lon": "-8.671287732449745",
      "lat": "37.800446432092016"
    },
    {
      "id": "pt.ine.add.PTCONT.4926302",
      "street": "LG CAEIROS",
      "house": "33",
      "postcode": "7555-115",
      "city": "CERCAL DO ALENTEJO",
      "lon": "-8.670848296182776",
      "lat": "37.80017634366499"
    },
    {
      "id": "pt.ine.add.PTCONT.4940721",
      "street": "R ACACIO GUERREIRO DE MELO",
      "house": "",
      "postcode": "7555-109",
      "city": "CERCAL DO ALENTEJO",
      "lon": "-8.669943454928466",
      "lat": "37.799831862958634"
    },
    {
      "id": "pt.ine.add.PTCONT.4950809",
      "street": "",
      "house": "",
      "postcode": "7555-243",
      "city": "CERCAL DO ALENTEJO",
      "lon": "-8.667617799790614",
      "lat": "37.80262709430022"
    },
    {
      "id": "pt.ine.add.PTCONT.4977052",
      "street": "LG CAEIROS",
      "house": "30",
      "postcode": "7555-115",
      "city": "CERCAL DO ALENTEJO",
      "lon": "-8.670676984599801",
      "lat": "37.80009656612951"
    },
    {
      "id": "pt.ine.add.PTCONT.4984215",
      "street": "LG CAEIROS",
      "house": "53",
      "postcode": "7555-115",
      "city": "CERCAL DO ALENTEJO",
      "lon": "-8.671841309387446",
      "lat": "37.80089747532331"
    },
    {
      "id": "pt.ine.add.PTCONT.4984216",
      "street": "R ACACIO GUERREIRO DE MELO",
      "house": "",
      "postcode": "7555-109",
      "city": "CERCAL DO ALENTEJO",
      "lon": "-8.669478185622632",
      "lat": "37.79971876595603"
    },
    {
      "id": "pt.ine.add.PTCONT.4987805",
      "street": "R DR TEÓFILO BRAGA",
      "house": "",
      "postcode": "7555-137",
      "city": "CERCAL DO ALENTEJO",
      "lon": "-8.672268613746986",
      "lat": "37.80126619926152"
    },
    {
      "id": "pt.ine.add.PTCONT.4994920",
      "street": "LG CAEIROS",
      "house": "",
      "postcode": "7555-115",
      "city": "CERCAL DO ALENTEJO",
      "lon": "-8.671546926689743",
      "lat": "37.800690080935446"
    },
    {
      "id": "pt.ine.add.PTCONT.4996373",
      "street": "LG CAEIROS",
      "house": "48",
      "postcode": "7555-115",
      "city": "CERCAL DO ALENTEJO",
      "lon": "-8.671632722455012",
      "lat": "37.80071523792087"
    },
    {
      "id": "pt.ine.add.PTCONT.5031700",
      "street": "LG CAEIROS",
      "house": "51",
      "postcode": "7555-115",
      "city": "CERCAL DO ALENTEJO",
      "lon": "-8.671762621663774",
      "lat": "37.800816083826064"
    },
    {
      "id": "pt.ine.add.PTCONT.5035224",
      "street": "R SERPA PINTO",
      "house": "4A",
      "postcode": "7555-146",
      "city": "CERCAL DO ALENTEJO",
      "lon": "-8.672802678640611",
      "lat": "37.80171680282048"
    },
    {
      "id": "pt.ine.add.PTCONT.5050186",
      "street": "LG CAEIROS",
      "house": "",
      "postcode": "7555-115",
      "city": "CERCAL DO ALENTEJO",
      "lon": "-8.671688086630795",
      "lat": "37.80076098553692"
    },
    {
      "id": "pt.ine.add.PTCONT.5058412",
      "street": "",
      "house": "",
      "postcode": "7555-109",
      "city": "CERCAL DO ALENTEJO",
      "lon": "-8.668983095938833",
      "lat": "37.801431637818716"
    },
    {
      "id": "pt.ine.add.PTCONT.5058651",
      "street": "LG CAEIROS",
      "house": "",
      "postcode": "7555-115",
      "city": "CERCAL DO ALENTEJO",
      "lon": "-8.671931808526574",
      "lat": "37.80097514587803"
    },
    {
      "id": "pt.ine.add.PTCONT.5071790",
      "street": "LG AUGUSTO FUCHINI",
      "house": "26",
      "postcode": "7555-112",
      "city": "CERCAL DO ALENTEJO",
      "lon": "-8.67325430928438",
      "lat": "37.80246276005982"
    },
    {
      "id": "pt.ine.add.PTCONT.5075124",
      "street": "NORADIA",
      "house": "",
      "postcode": "7555-109",
      "city": "CERCAL DO ALENTEJO",
      "lon": "-8.669365603291576",
      "lat": "37.80251103724817"
    },
    {
      "id": "pt.ine.add.PTCONT.5108490",
      "street": "EN 390 NORADIA",
      "house": "",
      "postcode": "7555-211",
      "city": "CERCAL DO ALENTEJO",
      "lon": "-8.668243747870768",
      "lat": "37.799678145636236"
    },
    {
      "id": "pt.ine.add.PTCONT.5118282",
      "street": "ACACIO MELO",
      "house": "7",
      "postcode": "7555-109",
      "city": "CERCAL DO ALENTEJO",
      "lon": "-8.670297178229527",
      "lat": "37.79992277816919"
    },
    {
      "id": "pt.ine.add.PTCONT.5118283",
      "street": "R COLOS",
      "house": "7",
      "postcode": "7555-125",
      "city": "CERCAL DO ALENTEJO",
      "lon": "-8.670297178229527",
      "lat": "37.79992277816919"
    },
    {
      "id": "pt.ine.add.PTCONT.5132182",
      "street": "R SERPA PINTO",
      "house": "12",
      "postcode": "7555-146",
      "city": "CERCAL DO ALENTEJO",
      "lon": "-8.672960328012037",
      "lat": "37.80185780531852"
    },
    {
      "id": "pt.ine.add.PTCONT.5132820",
      "street": "LG CAEIROS",
      "house": "34",
      "postcode": "7555-115",
      "city": "CERCAL DO ALENTEJO",
      "lon": "-8.670976758453158",
      "lat": "37.80024497272605"
    }
  ]
}