{
  "data": {
    "distrito": "Lisboa",
    "concelho": "Mafra",
    "freguesia": "Mafra",
    "OBJECTID": 54,
    "BGRI2021": "11090900303",
    "DT21": "11",
    "DTMN21": "1109",
    "DTMNFR21": "110909",
    "DTMNFRSEC21": "110909003",
    "SECNUM21": "003",
    "SSNUM21": "03",
    "SECSSNUM21": "00303",
    "OBJECTID_1": 109043,
    "DT": "11",
    "CC": "09",
    "fr": "09",
    "SEC": "003",
    "SS": "03"
  },
  "addresses": [
    {
      "id": "pt.ine.add.PTCONT.2307926",
      "street": "R VIEIRA LUSITANO",
      "house": "2",
      "postcode": "2640-543",
      "city": "MAFRA",
      "lon": "-9.33472509961044",
      "lat": "38.944247155622065"
    },
    {
      "id": "pt.ine.add.PTCONT.2307927",
      "street": "R VIEIRA LUSITANO",
      "house": "2",
      "postcode": "2640-543",
      "city": "MAFRA",
      "lon": "-9.33472509961044",
      "lat": "38.944247155622065"
    },
    {
      "id": "pt.ine.add.PTCONT.2307928",
      "street": "R VIEIRA LUSITANO",
      "house": "2",
      "postcode": "2640-543",
      "city": "MAFRA",
      "lon": "-9.33472509961044",
      "lat": "38.944247155622065"
    },
    {
      "id": "pt.ine.add.PTCONT.2307929",
      "street": "R VIEIRA LUSITANO",
      "house": "2",
      "postcode": "2640-543",
      "city": "MAFRA",
      "lon": "-9.33472509961044",
      "lat": "38.944247155622065"
    },
    {
      "id": "pt.ine.add.PTCONT.2307930",
      "street": "R VIEIRA LUSITANO",
      "house": "2",
      "postcode": "2640-543",
      "city": "MAFRA",
      "lon": "-9.33472509961044",
      "lat": "38.944247155622065"
    },
    {
      "id": "pt.ine.add.PTCONT.2307931",
      "street": "R VIEIRA LUSITANO",
      "house": "2",
      "postcode": "2640-543",
      "city": "MAFRA",
      "lon": "-9.33472509961044",
      "lat": "38.944247155622065"
    },
    {
      "id": "pt.ine.add.PTCONT.2307932",
      "street": "R VIEIRA LUSITANO",
      "house": "2",
      "postcode": "2640-543",
      "city": "MAFRA",
      "lon": "-9.33472509961044",
      "lat": "38.944247155622065"
    },
    {
      "id": "pt.ine.add.PTCONT.2307933",
      "street": "R VIEIRA LUSITANO",
      "house": "2",
      "postcode": "2640-543",
      "city": "MAFRA",
      "lon": "-9.33472509961044",
      "lat": "38.944247155622065"
    },
    {
      "id": "pt.ine.add.PTCONT.2435913",
      "street": "R VIEIRA LUSITANO",
      "house": "6",
      "postcode": "2640-543",
      "city": "MAFRA",
      "lon": "-9.334727965342562",
      "lat": "38.943733703229896"
    },
    {
      "id": "pt.ine.add.PTCONT.2436109",
      "street": "R VIEIRA LUSITANO",
      "house": "6",
      "postcode": "2640-543",
      "city": "MAFRA",
      "lon": "-9.334727965342562",
      "lat": "38.943733703229896"
    },
    {
      "id": "pt.ine.add.PTCONT.2436110",
      "street": "R VIEIRA LUSITANO",
      "house": "6",
      "postcode": "2640-543",
      "city": "MAFRA",
      "lon": "-9.334727965342562",
      "lat": "38.943733703229896"
    },
    {
      "id": "pt.ine.add.PTCONT.2436111",
      "street": "R VIEIRA LUSITANO",
      "house": "6",
      "postcode": "2640-543",
      "city": "MAFRA",
      "lon": "-9.334727965342562",
      "lat": "38.943733703229896"
    },
    {
      "id": "pt.ine.add.PTCONT.2436112",
      "street": "R VIEIRA LUSITANO",
      "house": "6",
      "postcode": "2640-543",
      "city": "MAFRA",
      "lon": "-9.334727965342562",
      "lat": "38.943733703229896"
    },
    {
      "id": "pt.ine.add.PTCONT.2436113",
      "street": "R VIEIRA LUSITANO",
      "house": "6",
      "postcode": "2640-543",
      "city": "MAFRA",
      "lon": "-9.334727965342562",
      "lat": "38.943733703229896"
    },
    {
      "id": "pt.ine.add.PTCONT.2436114",
      "street": "R VIEIRA LUSITANO",
      "house": "6",
      "postcode": "2640-543",
      "city": "MAFRA",
      "lon": "-9.334727965342562",
      "lat": "38.943733703229896"
    },
    {
      "id": "pt.ine.add.PTCONT.2436115",
      "street": "R VIEIRA LUSITANO",
      "house": "6",
      "postcode": "2640-543",
      "city": "MAFRA",
      "lon": "-9.334727965342562",
      "lat": "38.943733703229896"
    },
    {
      "id": "pt.ine.add.PTCONT.2436116",
      "street": "R VIEIRA LUSITANO",
      "house": "6",
      "postcode": "2640-543",
      "city": "MAFRA",
      "lon": "-9.334727965342562",
      "lat": "38.943733703229896"
    },
    {
      "id": "pt.ine.add.PTCONT.2436117",
      "street": "R VIEIRA LUSITANO",
      "house": "6",
      "postcode": "2640-543",
      "city": "MAFRA",
      "lon": "-9.334727965342562",
      "lat": "38.943733703229896"
    },
    {
      "id": "pt.ine.add.PTCONT.2439583",
      "street": "R VIEIRA LUSITANO",
      "house": "6",
      "postcode": "2640-543",
      "city": "MAFRA",
      "lon": "-9.334727965342562",
      "lat": "38.943733703229896"
    },
    {
      "id": "pt.ine.add.PTCONT.2457835",
      "street": "R NORMANDO CORREIA LEITÃO",
      "house": "8",
      "postcode": "2640-512",
      "city": "MAFRA",
      "lon": "-9.335065439409167",
      "lat": "38.943910376497165"
    },
    {
      "id": "pt.ine.add.PTCONT.2457836",
      "street": "R NORMANDO CORREIA LEITÃO",
      "house": "8",
      "postcode": "2640-512",
      "city": "MAFRA",
      "lon": "-9.335065439409167",
      "lat": "38.943910376497165"
    },
    {
      "id": "pt.ine.add.PTCONT.2457837",
      "street": "R NORMANDO CORREIA LEITÃO",
      "house": "8",
      "postcode": "2640-512",
      "city": "MAFRA",
      "lon": "-9.335065439409167",
      "lat": "38.943910376497165"
    },
    {
      "id": "pt.ine.add.PTCONT.2457838",
      "street": "R NORMANDO CORREIA LEITÃO",
      "house": "8",
      "postcode": "2640-512",
      "city": "MAFRA",
      "lon": "-9.335065439409167",
      "lat": "38.943910376497165"
    },
    {
      "id": "pt.ine.add.PTCONT.2457839",
      "street": "R NORMANDO CORREIA LEITÃO",
      "house": "8",
      "postcode": "2640-512",
      "city": "MAFRA",
      "lon": "-9.335065439409167",
      "lat": "38.943910376497165"
    },
    {
      "id": "pt.ine.add.PTCONT.2457840",
      "street": "R NORMANDO CORREIA LEITÃO",
      "house": "8",
      "postcode": "2640-512",
      "city": "MAFRA",
      "lon": "-9.335065439409167",
      "lat": "38.943910376497165"
    },
    {
      "id": "pt.ine.add.PTCONT.2457841",
      "street": "R NORMANDO CORREIA LEITÃO",
      "house": "8",
      "postcode": "2640-512",
      "city": "MAFRA",
      "lon": "-9.335065439409167",
      "lat": "38.943910376497165"
    },
    {
      "id": "pt.ine.add.PTCONT.2740128",
      "street": "R NORMANDO CORREIA LEITÃO",
      "house": "6",
      "postcode": "2640-512",
      "city": "MAFRA",
      "lon": "-9.334981824735413",
      "lat": "38.94374009664175"
    },
    {
      "id": "pt.ine.add.PTCONT.2740129",
      "street": "R NORMANDO CORREIA LEITÃO",
      "house": "6",
      "postcode": "2640-512",
      "city": "MAFRA",
      "lon": "-9.334981824735413",
      "lat": "38.94374009664175"
    },
    {
      "id": "pt.ine.add.PTCONT.2740130",
      "street": "R NORMANDO CORREIA LEITÃO",
      "house": "6",
      "postcode": "2640-512",
      "city": "MAFRA",
      "lon": "-9.334981824735413",
      "lat": "38.94374009664175"
    },
    {
      "id": "pt.ine.add.PTCONT.2740131",
      "street": "R NORMANDO CORREIA LEITÃO",
      "house": "6",
      "postcode": "2640-512",
      "city": "MAFRA",
      "lon": "-9.334981824735413",
      "lat": "38.94374009664175"
    },
    {
      "id": "pt.ine.add.PTCONT.2740132",
      "street": "R NORMANDO CORREIA LEITÃO",
      "house": "6",
      "postcode": "2640-512",
      "city": "MAFRA",
      "lon": "-9.334981824735413",
      "lat": "38.94374009664175"
    },
    {
      "id": "pt.ine.add.PTCONT.2740133",
      "street": "R NORMANDO CORREIA LEITÃO",
      "house": "6",
      "postcode": "2640-512",
      "city": "MAFRA",
      "lon": "-9.334981824735413",
      "lat": "38.94374009664175"
    },
    {
      "id": "pt.ine.add.PTCONT.2740134",
      "street": "R NORMANDO CORREIA LEITÃO",
      "house": "6",
      "postcode": "2640-512",
      "city": "MAFRA",
      "lon": "-9.334981824735413",
      "lat": "38.94374009664175"
    },
    {
      "id": "pt.ine.add.PTCONT.2740135",
      "street": "R NORMANDO CORREIA LEITÃO",
      "house": "6",
      "postcode": "2640-512",
      "city": "MAFRA",
      "lon": "-9.334981824735413",
      "lat": "38.94374009664175"
    },
    {
      "id": "pt.ine.add.PTCONT.2744553",
      "street": "R NORMANDO CORREIA LEITÃO",
      "house": "6",
      "postcode": "2640-512",
      "city": "MAFRA",
      "lon": "-9.334981824735413",
      "lat": "38.94374009664175"
    },
    {
      "id": "pt.ine.add.PTCONT.2746285",
      "street": "R NORMANDO CORREIA LEITÃO",
      "house": "6",
      "postcode": "2640-512",
      "city": "MAFRA",
      "lon": "-9.334981824735413",
      "lat": "38.94374009664175"
    },
    {
      "id": "pt.ine.add.PTCONT.3048225",
      "street": "R NORMANDO CORREIA LEITÃO",
      "house": "12",
      "postcode": "2640-512",
      "city": "MAFRA",
      "lon": "-9.33510551122914",
      "lat": "38.944234230867565"
    },
    {
      "id": "pt.ine.add.PTCONT.3048226",
      "street": "R NORMANDO CORREIA LEITÃO",
      "house": "12",
      "postcode": "2640-512",
      "city": "MAFRA",
      "lon": "-9.33510551122914",
      "lat": "38.944234230867565"
    },
    {
      "id": "pt.ine.add.PTCONT.3048227",
      "street": "R NORMANDO CORREIA LEITÃO",
      "house": "12",
      "postcode": "2640-512",
      "city": "MAFRA",
      "lon": "-9.33510551122914",
      "lat": "38.944234230867565"
    },
    {
      "id": "pt.ine.add.PTCONT.3048228",
      "street": "R NORMANDO CORREIA LEITÃO",
      "house": "12",
      "postcode": "2640-512",
      "city": "MAFRA",
      "lon": "-9.33510551122914",
      "lat": "38.944234230867565"
    },
    {
      "id": "pt.ine.add.PTCONT.3048229",
      "street": "R NORMANDO CORREIA LEITÃO",
      "house": "12",
      "postcode": "2640-512",
      "city": "MAFRA",
      "lon": "-9.33510551122914",
      "lat": "38.944234230867565"
    },
    {
      "id": "pt.ine.add.PTCONT.3048230",
      "street": "R NORMANDO CORREIA LEITÃO",
      "house": "12",
      "postcode": "2640-512",
      "city": "MAFRA",
      "lon": "-9.33510551122914",
      "lat": "38.944234230867565"
    },
    {
      "id": "pt.ine.add.PTCONT.3069472",
      "street": "R MIGUEL ESTEVES MEDEIROS",
      "house": "15",
      "postcode": "2640-543",
      "city": "MAFRA",
      "lon": "-9.334819486278043",
      "lat": "38.944372287638664"
    },
    {
      "id": "pt.ine.add.PTCONT.3069473",
      "street": "R MIGUEL ESTEVES MEDEIROS",
      "house": "15",
      "postcode": "2640-543",
      "city": "MAFRA",
      "lon": "-9.334819486278043",
      "lat": "38.944372287638664"
    },
    {
      "id": "pt.ine.add.PTCONT.3069474",
      "street": "R MIGUEL ESTEVES MEDEIROS",
      "house": "15",
      "postcode": "2640-543",
      "city": "MAFRA",
      "lon": "-9.334819486278043",
      "lat": "38.944372287638664"
    },
    {
      "id": "pt.ine.add.PTCONT.3069475",
      "street": "R MIGUEL ESTEVES MEDEIROS",
      "house": "15",
      "postcode": "2640-543",
      "city": "MAFRA",
      "lon": "-9.334819486278043",
      "lat": "38.944372287638664"
    },
    {
      "id": "pt.ine.add.PTCONT.3069476",
      "street": "R MIGUEL ESTEVES MEDEIROS",
      "house": "15",
      "postcode": "2640-543",
      "city": "MAFRA",
      "lon": "-9.334819486278043",
      "lat": "38.944372287638664"
    },
    {
      "id": "pt.ine.add.PTCONT.3069477",
      "street": "R MIGUEL ESTEVES MEDEIROS",
      "house": "15",
      "postcode": "2640-543",
      "city": "MAFRA",
      "lon": "-9.334819486278043",
      "lat": "38.944372287638664"
    },
    {
      "id": "pt.ine.add.PTCONT.3069478",
      "street": "R MIGUEL ESTEVES MEDEIROS",
      "house": "15",
      "postcode": "2640-543",
      "city": "MAFRA",
      "lon": "-9.334819486278043",
      "lat": "38.944372287638664"
    },
    {
      "id": "pt.ine.add.PTCONT.3069479",
      "street": "R MIGUEL ESTEVES MEDEIROS",
      "house": "15",
      "postcode": "2640-543",
      "city": "MAFRA",
      "lon": "-9.334819486278043",
      "lat": "38.944372287638664"
    },
    {
      "id": "pt.ine.add.PTCONT.3069480",
      "street": "R MIGUEL ESTEVES MEDEIROS",
      "house": "15",
      "postcode": "2640-543",
      "city": "MAFRA",
      "lon": "-9.334819486278043",
      "lat": "38.944372287638664"
    },
    {
      "id": "pt.ine.add.PTCONT.3069481",
      "street": "R MIGUEL ESTEVES MEDEIROS",
      "house": "15",
      "postcode": "2640-543",
      "city": "MAFRA",
      "lon": "-9.334819486278043",
      "lat": "38.944372287638664"
    },
    {
      "id": "pt.ine.add.PTCONT.3069482",
      "street": "R MIGUEL ESTEVES MEDEIROS",
      "house": "15",
      "postcode": "2640-543",
      "city": "MAFRA",
      "lon": "-9.334819486278043",
      "lat": "38.944372287638664"
    },
    {
      "id": "pt.ine.add.PTCONT.3071367",
      "street": "R MIGUEL ESTEVES MEDEIROS",
      "house": "15",
      "postcode": "2640-543",
      "city": "MAFRA",
      "lon": "-9.334819486278043",
      "lat": "38.944372287638664"
    },
    {
      "id": "pt.ine.add.PTCONT.3141321",
      "street": "R MIGUEL ESTEVES MEDEIROS",
      "house": "17",
      "postcode": "2640-543",
      "city": "MAFRA",
      "lon": "-9.33500415442439",
      "lat": "38.944379393417435"
    },
    {
      "id": "pt.ine.add.PTCONT.3141322",
      "street": "R MIGUEL ESTEVES MEDEIROS",
      "house": "17",
      "postcode": "2640-543",
      "city": "MAFRA",
      "lon": "-9.33500415442439",
      "lat": "38.944379393417435"
    },
    {
      "id": "pt.ine.add.PTCONT.3141323",
      "street": "R MIGUEL ESTEVES MEDEIROS",
      "house": "17",
      "postcode": "2640-543",
      "city": "MAFRA",
      "lon": "-9.33500415442439",
      "lat": "38.944379393417435"
    },
    {
      "id": "pt.ine.add.PTCONT.3141324",
      "street": "R MIGUEL ESTEVES MEDEIROS",
      "house": "17",
      "postcode": "2640-543",
      "city": "MAFRA",
      "lon": "-9.33500415442439",
      "lat": "38.944379393417435"
    },
    {
      "id": "pt.ine.add.PTCONT.3141325",
      "street": "R MIGUEL ESTEVES MEDEIROS",
      "house": "17",
      "postcode": "2640-543",
      "city": "MAFRA",
      "lon": "-9.33500415442439",
      "lat": "38.944379393417435"
    },
    {
      "id": "pt.ine.add.PTCONT.3141326",
      "street": "R MIGUEL ESTEVES MEDEIROS",
      "house": "17",
      "postcode": "2640-543",
      "city": "MAFRA",
      "lon": "-9.33500415442439",
      "lat": "38.944379393417435"
    },
    {
      "id": "pt.ine.add.PTCONT.3141327",
      "street": "R MIGUEL ESTEVES MEDEIROS",
      "house": "17",
      "postcode": "2640-543",
      "city": "MAFRA",
      "lon": "-9.33500415442439",
      "lat": "38.944379393417435"
    },
    {
      "id": "pt.ine.add.PTCONT.3141328",
      "street": "R MIGUEL ESTEVES MEDEIROS",
      "house": "17",
      "postcode": "2640-543",
      "city": "MAFRA",
      "lon": "-9.33500415442439",
      "lat": "38.944379393417435"
    },
    {
      "id": "pt.ine.add.PTCONT.3141334",
      "street": "R MIGUEL ESTEVES MEDEIROS",
      "house": "17",
      "postcode": "2640-543",
      "city": "MAFRA",
      "lon": "-9.33500415442439",
      "lat": "38.944379393417435"
    },
    {
      "id": "pt.ine.add.PTCONT.3141335",
      "street": "R MIGUEL ESTEVES MEDEIROS",
      "house": "17",
      "postcode": "2640-543",
      "city": "MAFRA",
      "lon": "-9.33500415442439",
      "lat": "38.944379393417435"
    },
    {
      "id": "pt.ine.add.PTCONT.3141336",
      "street": "R MIGUEL ESTEVES MEDEIROS",
      "house": "17",
      "postcode": "2640-543",
      "city": "MAFRA",
      "lon": "-9.33500415442439",
      "lat": "38.944379393417435"
    },
    {
      "id": "pt.ine.add.PTCONT.3144980",
      "street": "R MIGUEL ESTEVES MEDEIROS",
      "house": "17",
      "postcode": "2640-543",
      "city": "MAFRA",
      "lon": "-9.33500415442439",
      "lat": "38.944379393417435"
    },
    {
      "id": "pt.ine.add.PTCONT.3216040",
      "street": "R VIEIRA LUSITANO",
      "house": "4",
      "postcode": "2640-543",
      "city": "MAFRA",
      "lon": "-9.334708397955373",
      "lat": "38.94394107533767"
    },
    {
      "id": "pt.ine.add.PTCONT.3216041",
      "street": "R VIEIRA LUSITANO",
      "house": "4",
      "postcode": "2640-543",
      "city": "MAFRA",
      "lon": "-9.334708397955373",
      "lat": "38.94394107533767"
    },
    {
      "id": "pt.ine.add.PTCONT.3216042",
      "street": "R VIEIRA LUSITANO",
      "house": "4",
      "postcode": "2640-543",
      "city": "MAFRA",
      "lon": "-9.334708397955373",
      "lat": "38.94394107533767"
    },
    {
      "id": "pt.ine.add.PTCONT.3216043",
      "street": "R VIEIRA LUSITANO",
      "house": "4",
      "postcode": "2640-543",
      "city": "MAFRA",
      "lon": "-9.334708397955373",
      "lat": "38.94394107533767"
    },
    {
      "id": "pt.ine.add.PTCONT.3216044",
      "street": "R VIEIRA LUSITANO",
      "house": "4",
      "postcode": "2640-543",
      "city": "MAFRA",
      "lon": "-9.334708397955373",
      "lat": "38.94394107533767"
    },
    {
      "id": "pt.ine.add.PTCONT.3216045",
      "street": "R VIEIRA LUSITANO",
      "house": "4",
      "postcode": "2640-543",
      "city": "MAFRA",
      "lon": "-9.334708397955373",
      "lat": "38.94394107533767"
    },
    {
      "id": "pt.ine.add.PTCONT.3216047",
      "street": "R VIEIRA LUSITANO",
      "house": "4",
      "postcode": "2640-543",
      "city": "MAFRA",
      "lon": "-9.334708397955373",
      "lat": "38.94394107533767"
    },
    {
      "id": "pt.ine.add.PTCONT.3216048",
      "street": "R VIEIRA LUSITANO",
      "house": "4",
      "postcode": "2640-543",
      "city": "MAFRA",
      "lon": "-9.334708397955373",
      "lat": "38.94394107533767"
    },
    {
      "id": "pt.ine.add.PTCONT.3216049",
      "street": "R VIEIRA LUSITANO",
      "house": "4",
      "postcode": "2640-543",
      "city": "MAFRA",
      "lon": "-9.334708397955373",
      "lat": "38.94394107533767"
    },
    {
      "id": "pt.ine.add.PTCONT.3219727",
      "street": "R VIEIRA LUSITANO",
      "house": "4",
      "postcode": "2640-543",
      "city": "MAFRA",
      "lon": "-9.334708397955373",
      "lat": "38.94394107533767"
    },
    {
      "id": "pt.ine.add.PTCONT.3220190",
      "street": "R VIEIRA LUSITANO",
      "house": "4",
      "postcode": "2640-543",
      "city": "MAFRA",
      "lon": "-9.334708397955373",
      "lat": "38.94394107533767"
    },
    {
      "id": "pt.ine.add.PTCONT.3220191",
      "street": "R VIEIRA LUSITANO",
      "house": "4",
      "postcode": "2640-543",
      "city": "MAFRA",
      "lon": "-9.334708397955373",
      "lat": "38.94394107533767"
    },
    {
      "id": "pt.ine.add.PTCONT.3244177",
      "street": "R NORMANDO CORREIA LEITÃO",
      "house": "10",
      "postcode": "2640-512",
      "city": "MAFRA",
      "lon": "-9.33513782647747",
      "lat": "38.9440987867624"
    },
    {
      "id": "pt.ine.add.PTCONT.3244178",
      "street": "R NORMANDO CORREIA LEITÃO",
      "house": "10",
      "postcode": "2640-512",
      "city": "MAFRA",
      "lon": "-9.33513782647747",
      "lat": "38.9440987867624"
    },
    {
      "id": "pt.ine.add.PTCONT.3244179",
      "street": "R NORMANDO CORREIA LEITÃO",
      "house": "10",
      "postcode": "2640-512",
      "city": "MAFRA",
      "lon": "-9.33513782647747",
      "lat": "38.9440987867624"
    },
    {
      "id": "pt.ine.add.PTCONT.3244180",
      "street": "R NORMANDO CORREIA LEITÃO",
      "house": "10",
      "postcode": "2640-512",
      "city": "MAFRA",
      "lon": "-9.33513782647747",
      "lat": "38.9440987867624"
    },
    {
      "id": "pt.ine.add.PTCONT.3244181",
      "street": "R NORMANDO CORREIA LEITÃO",
      "house": "10",
      "postcode": "2640-512",
      "city": "MAFRA",
      "lon": "-9.33513782647747",
      "lat": "38.9440987867624"
    },
    {
      "id": "pt.ine.add.PTCONT.3244185",
      "street": "R NORMANDO CORREIA LEITÃO",
      "house": "10",
      "postcode": "2640-512",
      "city": "MAFRA",
      "lon": "-9.33513782647747",
      "lat": "38.9440987867624"
    }
  ]
}