{
  "data": {
    "distrito": "Santarém",
    "concelho": "Ourém",
    "freguesia": "Urqueira",
    "OBJECTID": 1142,
    "BGRI2021": "14211400206",
    "DT21": "14",
    "DTMN21": "1421",
    "DTMNFR21": "142114",
    "DTMNFRSEC21": "142114002",
    "SECNUM21": "002",
    "SSNUM21": "06",
    "SECSSNUM21": "00206",
    "OBJECTID_1": 158205,
    "DT": "14",
    "CC": "21",
    "fr": "14",
    "SEC": "002",
    "SS": "06"
  },
  "addresses": [
    {
      "id": "pt.ine.add.PTCONT.4413546",
      "street": "ESTR LAGOA",
      "house": "22",
      "postcode": "2435-692",
      "city": "URQUEIRA",
      "lon": "-8.591006616032162",
      "lat": "39.73237445017798"
    },
    {
      "id": "pt.ine.add.PTCONT.4419646",
      "street": "ESTR LAGOA",
      "house": "20",
      "postcode": "2435-692",
      "city": "URQUEIRA",
      "lon": "-8.591216102961722",
      "lat": "39.73230157120915"
    },
    {
      "id": "pt.ine.add.PTCONT.4434687",
      "street": "TV MOCHO",
      "house": "3",
      "postcode": "2435-718",
      "city": "URQUEIRA",
      "lon": "-8.588919490455476",
      "lat": "39.72896917526405"
    },
    {
      "id": "pt.ine.add.PTCONT.4462973",
      "street": "TV MOCHO",
      "house": "1",
      "postcode": "2435-718",
      "city": "URQUEIRA",
      "lon": "-8.588731975747942",
      "lat": "39.728834812812075"
    },
    {
      "id": "pt.ine.add.PTCONT.4516977",
      "street": "ESTR ARNEIROS",
      "house": "16",
      "postcode": "2435-695",
      "city": "URQUEIRA",
      "lon": "-8.5900579727843",
      "lat": "39.731801767986674"
    },
    {
      "id": "pt.ine.add.PTCONT.4521074",
      "street": "TV MOCHO",
      "house": "5",
      "postcode": "2435-718",
      "city": "URQUEIRA",
      "lon": "-8.58879254923802",
      "lat": "39.729176824664314"
    },
    {
      "id": "pt.ine.add.PTCONT.4521075",
      "street": "ESTR ARNEIROS",
      "house": "37",
      "postcode": "2435-695",
      "city": "URQUEIRA",
      "lon": "-8.589782718127278",
      "lat": "39.73251436958676"
    },
    {
      "id": "pt.ine.add.PTCONT.4566590",
      "street": "R COVÃO",
      "house": "",
      "postcode": "2435-695",
      "city": "URQUEIRA",
      "lon": "-8.588613438445115",
      "lat": "39.72854706776219"
    },
    {
      "id": "pt.ine.add.PTCONT.4599836",
      "street": "ESTR ARNEIROS",
      "house": "",
      "postcode": "2435-695",
      "city": "URQUEIRA",
      "lon": "-8.590288590810257",
      "lat": "39.729630277777595"
    },
    {
      "id": "pt.ine.add.PTCONT.4599837",
      "street": "R PAZ",
      "house": "",
      "postcode": "2435-704",
      "city": "URQUEIRA",
      "lon": "-8.590461710056713",
      "lat": "39.732880965661"
    },
    {
      "id": "pt.ine.add.PTCONT.4612161",
      "street": "ESTR ARNEIROS",
      "house": "31",
      "postcode": "2435-695",
      "city": "URQUEIRA",
      "lon": "-8.590629179162189",
      "lat": "39.731745478867126"
    },
    {
      "id": "pt.ine.add.PTCONT.4662762",
      "street": "ESTR ARNEIROS",
      "house": "10",
      "postcode": "2435-695",
      "city": "URQUEIRA",
      "lon": "-8.589596839127932",
      "lat": "39.729092605811445"
    }
  ]
}