{
  "data": {
    "distrito": "Santarém",
    "concelho": "Ourém",
    "freguesia": "Urqueira",
    "OBJECTID": 1081,
    "BGRI2021": "14211400229",
    "DT21": "14",
    "DTMN21": "1421",
    "DTMNFR21": "142114",
    "DTMNFRSEC21": "142114002",
    "SECNUM21": "002",
    "SSNUM21": "29",
    "SECSSNUM21": "00229",
    "OBJECTID_1": 159701,
    "DT": "14",
    "CC": "21",
    "fr": "14",
    "SEC": "002",
    "SS": "29"
  },
  "addresses": [
    {
      "id": "pt.ine.add.PTCONT.4444135",
      "street": "R BREJO REDONDO",
      "house": "20",
      "postcode": "2435-689",
      "city": "URQUEIRA",
      "lon": "-8.565413713545436",
      "lat": "39.75291744906183"
    },
    {
      "id": "pt.ine.add.PTCONT.4446300",
      "street": "R BREJO REDONDO",
      "house": "8",
      "postcode": "2435-689",
      "city": "URQUEIRA",
      "lon": "-8.566693392151533",
      "lat": "39.75416458448541"
    },
    {
      "id": "pt.ine.add.PTCONT.4455744",
      "street": "R BREJO REDONDO",
      "house": "2",
      "postcode": "2435-689",
      "city": "URQUEIRA",
      "lon": "-8.567501791085114",
      "lat": "39.75468394095632"
    },
    {
      "id": "pt.ine.add.PTCONT.4464981",
      "street": "R BREJO REDONDO",
      "house": "14",
      "postcode": "2435-689",
      "city": "URQUEIRA",
      "lon": "-8.56650421466538",
      "lat": "39.75376900345262"
    },
    {
      "id": "pt.ine.add.PTCONT.4466595",
      "street": "R BREJO REDONDO",
      "house": "6",
      "postcode": "2435-689",
      "city": "URQUEIRA",
      "lon": "-8.567150832846421",
      "lat": "39.754541149298205"
    },
    {
      "id": "pt.ine.add.PTCONT.4467925",
      "street": "R OUTEIRINHO",
      "house": "",
      "postcode": "2435-689",
      "city": "URQUEIRA",
      "lon": "-8.568067936632573",
      "lat": "39.751934827562785"
    },
    {
      "id": "pt.ine.add.PTCONT.4494600",
      "street": "R BREJO REDONDO",
      "house": "4",
      "postcode": "2435-689",
      "city": "URQUEIRA",
      "lon": "-8.567302748696077",
      "lat": "39.75457660727039"
    },
    {
      "id": "pt.ine.add.PTCONT.4502606",
      "street": "R BREJO REDONDO",
      "house": "16",
      "postcode": "2435-689",
      "city": "URQUEIRA",
      "lon": "-8.566153206722502",
      "lat": "39.753617202394494"
    },
    {
      "id": "pt.ine.add.PTCONT.4505131",
      "street": "R BREJO REDONDO",
      "house": "IB",
      "postcode": "2435-689",
      "city": "URQUEIRA",
      "lon": "-8.565825085992385",
      "lat": "39.753393262664225"
    },
    {
      "id": "pt.ine.add.PTCONT.4514129",
      "street": "R CARVALHEIRAS",
      "house": "2",
      "postcode": "2435-689",
      "city": "URQUEIRA",
      "lon": "-8.568914138345626",
      "lat": "39.75104901289404"
    },
    {
      "id": "pt.ine.add.PTCONT.4535457",
      "street": "R BREJO REDONDO",
      "house": "12",
      "postcode": "2435-689",
      "city": "URQUEIRA",
      "lon": "-8.566516786090252",
      "lat": "39.75391306107216"
    },
    {
      "id": "pt.ine.add.PTCONT.4537467",
      "street": "R OUTEIRINHO",
      "house": "XXX",
      "postcode": "2435-689",
      "city": "URQUEIRA",
      "lon": "-8.568219620552036",
      "lat": "39.75193425907889"
    },
    {
      "id": "pt.ine.add.PTCONT.4564521",
      "street": "R BREJO REDONDO",
      "house": "10",
      "postcode": "2435-689",
      "city": "URQUEIRA",
      "lon": "-8.566611092508255",
      "lat": "39.75406581999722"
    },
    {
      "id": "pt.ine.add.PTCONT.4582620",
      "street": "R CARVALHEIRAS",
      "house": "3",
      "postcode": "2435-689",
      "city": "URQUEIRA",
      "lon": "-8.568621591555925",
      "lat": "39.75091501279008"
    },
    {
      "id": "pt.ine.add.PTCONT.4587741",
      "street": "R OUTEIRINHO",
      "house": "9",
      "postcode": "2435-689",
      "city": "URQUEIRA",
      "lon": "-8.568581668603276",
      "lat": "39.751986940611395"
    },
    {
      "id": "pt.ine.add.PTCONT.4604181",
      "street": "R OUTEIRINHO",
      "house": "5",
      "postcode": "2435-689",
      "city": "URQUEIRA",
      "lon": "-8.568172612160227",
      "lat": "39.75373574250033"
    },
    {
      "id": "pt.ine.add.PTCONT.4635062",
      "street": "R BREJO REDONDO",
      "house": "32",
      "postcode": "2435-689",
      "city": "URQUEIRA",
      "lon": "-8.567161201086883",
      "lat": "39.754333960248985"
    }
  ]
}