{
  "data": {
    "distrito": "Guarda",
    "concelho": "Aguiar da Beira",
    "freguesia": "Uni√£o das freguesias de Souto de Aguiar da Beira e Valverde",
    "OBJECTID": 274,
    "BGRI2021": "09011600107",
    "DT21": "09",
    "DTMN21": "0901",
    "DTMNFR21": "090116",
    "DTMNFRSEC21": "090116001",
    "SECNUM21": "001",
    "SSNUM21": "07",
    "SECSSNUM21": "00107",
    "OBJECTID_1": 74947,
    "DT": "09",
    "CC": "01",
    "fr": "16",
    "SEC": "001",
    "SS": "07"
  },
  "addresses": [
    {
      "id": "pt.ine.add.PTCONT.1900711",
      "street": "TV DO CASTELO",
      "house": "3",
      "postcode": "3570-212",
      "city": "VALVERDE AGB",
      "lon": "-7.521078928184268",
      "lat": "40.784116543990336"
    },
    {
      "id": "pt.ine.add.PTCONT.1947900",
      "street": "LG DO CURRAL DO CONCELHO",
      "house": "4",
      "postcode": "3570-212",
      "city": "VALVERDE AGB",
      "lon": "-7.5212121309598965",
      "lat": "40.783802078976514"
    },
    {
      "id": "pt.ine.add.PTCONT.1960787",
      "street": "TV DO CASTELO",
      "house": "7",
      "postcode": "3570-212",
      "city": "VALVERDE AGB",
      "lon": "-7.5211374988817905",
      "lat": "40.784188893805975"
    },
    {
      "id": "pt.ine.add.PTCONT.1962728",
      "street": "R DA TULHA",
      "house": "4",
      "postcode": "3570-212",
      "city": "VALVERDE AGB",
      "lon": "-7.520783099355333",
      "lat": "40.784078954988836"
    },
    {
      "id": "pt.ine.add.PTCONT.1968424",
      "street": "LG DO CURRAL DO CONCELHO",
      "house": "2",
      "postcode": "3570-212",
      "city": "VALVERDE AGB",
      "lon": "-7.521378640552018",
      "lat": "40.78373092261937"
    },
    {
      "id": "pt.ine.add.PTCONT.1968425",
      "street": "R DAS PORTELINHAS",
      "house": "1",
      "postcode": "3570-212",
      "city": "VALVERDE AGB",
      "lon": "-7.521223564082733",
      "lat": "40.78384716409251"
    },
    {
      "id": "pt.ine.add.PTCONT.1976736",
      "street": "R DO RIBEIRO",
      "house": "2",
      "postcode": "3570-212",
      "city": "VALVERDE AGB",
      "lon": "-7.522348471458482",
      "lat": "40.78390715292201"
    },
    {
      "id": "pt.ine.add.PTCONT.1850002",
      "street": "TV DO CASTELO",
      "house": "9",
      "postcode": "3570-212",
      "city": "VALVERDE AGB",
      "lon": "-7.521361836851799",
      "lat": "40.78427112740689"
    },
    {
      "id": "pt.ine.add.PTCONT.1851932",
      "street": "R DO CASTELO",
      "house": "",
      "postcode": "3570-212",
      "city": "VALVERDE AGB",
      "lon": "-7.5208416696974325",
      "lat": "40.78415130495258"
    },
    {
      "id": "pt.ine.add.PTCONT.1855579",
      "street": "TV DO CASTELO",
      "house": "1",
      "postcode": "3570-212",
      "city": "VALVERDE AGB",
      "lon": "-7.521173864570974",
      "lat": "40.784099037684534"
    },
    {
      "id": "pt.ine.add.PTCONT.1874533",
      "street": "LG DO CURRAL DO CONCELHO",
      "house": "3",
      "postcode": "3570-212",
      "city": "VALVERDE AGB",
      "lon": "-7.521295385800136",
      "lat": "40.783766500828406"
    },
    {
      "id": "pt.ine.add.PTCONT.1877690",
      "street": "R DO CASTELO",
      "house": "1",
      "postcode": "3570-212",
      "city": "VALVERDE AGB",
      "lon": "-7.521006609792505",
      "lat": "40.78425123386341"
    },
    {
      "id": "pt.ine.add.PTCONT.1882367",
      "street": "R DAS CORTELINHAS",
      "house": "1",
      "postcode": "3570-212",
      "city": "VALVERDE AGB",
      "lon": "-7.521460160418989",
      "lat": "40.78388443801569"
    }
  ]
}