{
  "data": {
    "distrito": "Viseu",
    "concelho": "Tondela",
    "freguesia": "União das freguesias de Tondela e Nandufe",
    "OBJECTID": 535,
    "BGRI2021": "18213200208",
    "DT21": "18",
    "DTMN21": "1821",
    "DTMNFR21": "182132",
    "DTMNFRSEC21": "182132002",
    "SECNUM21": "002",
    "SSNUM21": "08",
    "SECSSNUM21": "00208",
    "OBJECTID_1": 199611,
    "DT": "18",
    "CC": "21",
    "fr": "32",
    "SEC": "002",
    "SS": "08"
  },
  "addresses": [
    {
      "id": "pt.ine.add.PTCONT.5442419",
      "street": "R DR MARIA DO CEU BEATO OLIVEIRA E SOUSA",
      "house": "36",
      "postcode": "3460-590",
      "city": "TONDELA",
      "lon": "-8.082767192352497",
      "lat": "40.52060713788363"
    },
    {
      "id": "pt.ine.add.PTCONT.5444506",
      "street": "R CMDT JOÃO MATOS FERREIRA",
      "house": "1",
      "postcode": "3460-549",
      "city": "TONDELA",
      "lon": "-8.082589859697306",
      "lat": "40.52103931899388"
    },
    {
      "id": "pt.ine.add.PTCONT.5444507",
      "street": "R CMDT JOÃO MATOS FERREIRA",
      "house": "1",
      "postcode": "3460-549",
      "city": "TONDELA",
      "lon": "-8.082589859697306",
      "lat": "40.52103931899388"
    },
    {
      "id": "pt.ine.add.PTCONT.5444508",
      "street": "R CMDT JOÃO MATOS FERREIRA",
      "house": "1",
      "postcode": "3460-549",
      "city": "TONDELA",
      "lon": "-8.082589859697306",
      "lat": "40.52103931899388"
    },
    {
      "id": "pt.ine.add.PTCONT.5444509",
      "street": "R CMDT JOÃO MATOS FERREIRA",
      "house": "1",
      "postcode": "3460-549",
      "city": "TONDELA",
      "lon": "-8.082589859697306",
      "lat": "40.52103931899388"
    },
    {
      "id": "pt.ine.add.PTCONT.5444510",
      "street": "R CMDT JOÃO MATOS FERREIRA",
      "house": "1",
      "postcode": "3460-549",
      "city": "TONDELA",
      "lon": "-8.082589859697306",
      "lat": "40.52103931899388"
    },
    {
      "id": "pt.ine.add.PTCONT.5444511",
      "street": "R CMDT JOÃO MATOS FERREIRA",
      "house": "1",
      "postcode": "3460-549",
      "city": "TONDELA",
      "lon": "-8.082589859697306",
      "lat": "40.52103931899388"
    },
    {
      "id": "pt.ine.add.PTCONT.5444512",
      "street": "R CMDT JOÃO MATOS FERREIRA",
      "house": "1",
      "postcode": "3460-549",
      "city": "TONDELA",
      "lon": "-8.082589859697306",
      "lat": "40.52103931899388"
    },
    {
      "id": "pt.ine.add.PTCONT.5444513",
      "street": "R CMDT JOÃO MATOS FERREIRA",
      "house": "1",
      "postcode": "3460-549",
      "city": "TONDELA",
      "lon": "-8.082589859697306",
      "lat": "40.52103931899388"
    },
    {
      "id": "pt.ine.add.PTCONT.5444514",
      "street": "R CMDT JOÃO MATOS FERREIRA",
      "house": "1",
      "postcode": "3460-549",
      "city": "TONDELA",
      "lon": "-8.082589859697306",
      "lat": "40.52103931899388"
    },
    {
      "id": "pt.ine.add.PTCONT.5444515",
      "street": "R CMDT JOÃO MATOS FERREIRA",
      "house": "1",
      "postcode": "3460-549",
      "city": "TONDELA",
      "lon": "-8.082589859697306",
      "lat": "40.52103931899388"
    },
    {
      "id": "pt.ine.add.PTCONT.5444516",
      "street": "R CMDT JOÃO MATOS FERREIRA",
      "house": "1",
      "postcode": "3460-549",
      "city": "TONDELA",
      "lon": "-8.082589859697306",
      "lat": "40.52103931899388"
    },
    {
      "id": "pt.ine.add.PTCONT.5445177",
      "street": "R CMDT JOÃO MATOS FERREIRA",
      "house": "1",
      "postcode": "3460-549",
      "city": "TONDELA",
      "lon": "-8.082589859697306",
      "lat": "40.52103931899388"
    },
    {
      "id": "pt.ine.add.PTCONT.5445265",
      "street": "R DR MARIA DO CEU BEATO OLIVEIRA E SOUSA",
      "house": "32",
      "postcode": "3460-590",
      "city": "TONDELA",
      "lon": "-8.08275543223607",
      "lat": "40.52055310044512"
    },
    {
      "id": "pt.ine.add.PTCONT.5457302",
      "street": "R DR ANTÓNIO MARQUES DA COSTA",
      "house": "630",
      "postcode": "3460-575",
      "city": "TONDELA",
      "lon": "-8.083226866240027",
      "lat": "40.52134577880662"
    },
    {
      "id": "pt.ine.add.PTCONT.5459083",
      "street": "R JOÃO CARDOSO",
      "house": "211",
      "postcode": "3460-603",
      "city": "TONDELA",
      "lon": "-8.08234237275507",
      "lat": "40.52060695203429"
    },
    {
      "id": "pt.ine.add.PTCONT.5462337",
      "street": "R DR ANTÓNIO MARQUES DA COSTA",
      "house": "556",
      "postcode": "3460-575",
      "city": "TONDELA",
      "lon": "-8.083109374688961",
      "lat": "40.520652313373986"
    },
    {
      "id": "pt.ine.add.PTCONT.5464366",
      "street": "R ENG SÉRGIO PEREIRA DA SILVA",
      "house": "51",
      "postcode": "3460-593",
      "city": "TONDELA",
      "lon": "-8.082613967711957",
      "lat": "40.520363925611"
    },
    {
      "id": "pt.ine.add.PTCONT.5477156",
      "street": "R DR MARIA DO CEU BEATO OLIVEIRA E SOUSA",
      "house": "46",
      "postcode": "3460-590",
      "city": "TONDELA",
      "lon": "-8.082778905343604",
      "lat": "40.52072421299925"
    },
    {
      "id": "pt.ine.add.PTCONT.5491651",
      "street": "R DR MARIA DO CEU BEATO OLIVEIRA E SOUSA",
      "house": "42",
      "postcode": "3460-590",
      "city": "TONDELA",
      "lon": "-8.08276714519741",
      "lat": "40.520670175563"
    },
    {
      "id": "pt.ine.add.PTCONT.5495162",
      "street": "R ENG SÉRGIO PEREIRA DA SILVA",
      "house": "41",
      "postcode": "3460-593",
      "city": "TONDELA",
      "lon": "-8.082731979470724",
      "lat": "40.52035497173166"
    },
    {
      "id": "pt.ine.add.PTCONT.5519388",
      "street": "R JOÃO CARDOSO",
      "house": "207",
      "postcode": "3460-603",
      "city": "TONDELA",
      "lon": "-8.082425078298387",
      "lat": "40.520471907550906"
    },
    {
      "id": "pt.ine.add.PTCONT.5527786",
      "street": "R DR ANTÓNIO MARQUES DA COSTA",
      "house": "572",
      "postcode": "3460-575",
      "city": "TONDELA",
      "lon": "-8.083121034770187",
      "lat": "40.52084143151475"
    },
    {
      "id": "pt.ine.add.PTCONT.5554006",
      "street": "R JOÃO CARDOSO",
      "house": "205",
      "postcode": "3460-603",
      "city": "TONDELA",
      "lon": "-8.082484121547333",
      "lat": "40.52041790111622"
    },
    {
      "id": "pt.ine.add.PTCONT.5560814",
      "street": "R JOÃO CARDOSO",
      "house": "221",
      "postcode": "3460-603",
      "city": "TONDELA",
      "lon": "-8.082306937132014",
      "lat": "40.52065196338992"
    },
    {
      "id": "pt.ine.add.PTCONT.5562607",
      "street": "R DR ANTÓNIO MARQUES DA COSTA",
      "house": "560",
      "postcode": "3460-575",
      "city": "TONDELA",
      "lon": "-8.083109281019542",
      "lat": "40.52077838873165"
    },
    {
      "id": "pt.ine.add.PTCONT.5583005",
      "street": "R CMDT JOÃO MATOS FERREIRA",
      "house": "114",
      "postcode": "3460-549",
      "city": "TONDELA",
      "lon": "-8.082283165996943",
      "lat": "40.52087708757443"
    },
    {
      "id": "pt.ine.add.PTCONT.5583006",
      "street": "R CMDT JOÃO MATOS FERREIRA",
      "house": "114",
      "postcode": "3460-549",
      "city": "TONDELA",
      "lon": "-8.082283165996943",
      "lat": "40.52087708757443"
    },
    {
      "id": "pt.ine.add.PTCONT.5583007",
      "street": "R CMDT JOÃO MATOS FERREIRA",
      "house": "114",
      "postcode": "3460-549",
      "city": "TONDELA",
      "lon": "-8.082283165996943",
      "lat": "40.52087708757443"
    },
    {
      "id": "pt.ine.add.PTCONT.5583008",
      "street": "R CMDT JOÃO MATOS FERREIRA",
      "house": "114",
      "postcode": "3460-549",
      "city": "TONDELA",
      "lon": "-8.082283165996943",
      "lat": "40.52087708757443"
    },
    {
      "id": "pt.ine.add.PTCONT.5583009",
      "street": "R CMDT JOÃO MATOS FERREIRA",
      "house": "114",
      "postcode": "3460-549",
      "city": "TONDELA",
      "lon": "-8.082283165996943",
      "lat": "40.52087708757443"
    },
    {
      "id": "pt.ine.add.PTCONT.5583010",
      "street": "R CMDT JOÃO MATOS FERREIRA",
      "house": "114",
      "postcode": "3460-549",
      "city": "TONDELA",
      "lon": "-8.082283165996943",
      "lat": "40.52087708757443"
    },
    {
      "id": "pt.ine.add.PTCONT.5583011",
      "street": "R CMDT JOÃO MATOS FERREIRA",
      "house": "114",
      "postcode": "3460-549",
      "city": "TONDELA",
      "lon": "-8.082283165996943",
      "lat": "40.52087708757443"
    },
    {
      "id": "pt.ine.add.PTCONT.5583012",
      "street": "R CMDT JOÃO MATOS FERREIRA",
      "house": "114",
      "postcode": "3460-549",
      "city": "TONDELA",
      "lon": "-8.082283165996943",
      "lat": "40.52087708757443"
    },
    {
      "id": "pt.ine.add.PTCONT.5583013",
      "street": "R CMDT JOÃO MATOS FERREIRA",
      "house": "114",
      "postcode": "3460-549",
      "city": "TONDELA",
      "lon": "-8.082283165996943",
      "lat": "40.52087708757443"
    },
    {
      "id": "pt.ine.add.PTCONT.5583014",
      "street": "R CMDT JOÃO MATOS FERREIRA",
      "house": "114",
      "postcode": "3460-549",
      "city": "TONDELA",
      "lon": "-8.082283165996943",
      "lat": "40.52087708757443"
    },
    {
      "id": "pt.ine.add.PTCONT.5583015",
      "street": "R CMDT JOÃO MATOS FERREIRA",
      "house": "114",
      "postcode": "3460-549",
      "city": "TONDELA",
      "lon": "-8.082283165996943",
      "lat": "40.52087708757443"
    },
    {
      "id": "pt.ine.add.PTCONT.5583617",
      "street": "R CMDT JOÃO MATOS FERREIRA",
      "house": "114",
      "postcode": "3460-549",
      "city": "TONDELA",
      "lon": "-8.082283165996943",
      "lat": "40.52087708757443"
    },
    {
      "id": "pt.ine.add.PTCONT.5627048",
      "street": "R ENG SÉRGIO PEREIRA DA SILVA",
      "house": "1",
      "postcode": "3460-593",
      "city": "TONDELA",
      "lon": "-8.083026985275175",
      "lat": "40.520364105347355"
    },
    {
      "id": "pt.ine.add.PTCONT.5631508",
      "street": "R JOÃO CARDOSO",
      "house": "209",
      "postcode": "3460-603",
      "city": "TONDELA",
      "lon": "-8.082389629227958",
      "lat": "40.52053492969878"
    },
    {
      "id": "pt.ine.add.PTCONT.5663620",
      "street": "R DR ANTÓNIO MARQUES DA COSTA",
      "house": "548",
      "postcode": "3460-575",
      "city": "TONDELA",
      "lon": "-8.083097620982093",
      "lat": "40.52058927058766"
    },
    {
      "id": "pt.ine.add.PTCONT.5665232",
      "street": "R ENG SÉRGIO PEREIRA DA SILVA",
      "house": "1",
      "postcode": "3460-593",
      "city": "TONDELA",
      "lon": "-8.083026985275175",
      "lat": "40.520364105347355"
    }
  ]
}