{
  "data": {
    "distrito": "Setúbal",
    "concelho": "Montijo",
    "freguesia": "União das freguesias de Atalaia e Alto Estanqueiro-Jardia",
    "OBJECTID": 554,
    "BGRI2021": "15070900405",
    "DT21": "15",
    "DTMN21": "1507",
    "DTMNFR21": "150709",
    "DTMNFRSEC21": "150709004",
    "SECNUM21": "004",
    "SSNUM21": "05",
    "SECSSNUM21": "00405",
    "OBJECTID_1": 165033,
    "DT": "15",
    "CC": "07",
    "fr": "09",
    "SEC": "004",
    "SS": "05"
  },
  "addresses": [
    {
      "id": "pt.ine.add.PTCONT.4690351",
      "street": "ESTR VALE PORRIM",
      "house": "",
      "postcode": "2870-741",
      "city": "ATALAIA MTJ",
      "lon": "-8.927029872049898",
      "lat": "38.6995125820348"
    },
    {
      "id": "pt.ine.add.PTCONT.4697711",
      "street": "ESTR PEIXE",
      "house": "",
      "postcode": "2870-701",
      "city": "ATALAIA MTJ",
      "lon": "-8.928723553826623",
      "lat": "38.69778954521667"
    },
    {
      "id": "pt.ine.add.PTCONT.4697712",
      "street": "ESTR PEIXE",
      "house": "",
      "postcode": "2870-701",
      "city": "ATALAIA MTJ",
      "lon": "-8.928723553826623",
      "lat": "38.69778954521667"
    },
    {
      "id": "pt.ine.add.PTCONT.4701253",
      "street": "R OFICINA",
      "house": "",
      "postcode": "2870-756",
      "city": "ATALAIA MTJ",
      "lon": "-8.928030282002945",
      "lat": "38.69538911600323"
    },
    {
      "id": "pt.ine.add.PTCONT.4704340",
      "street": "R SOPHIA MELLO BREYNER",
      "house": "113",
      "postcode": "2870-760",
      "city": "ATALAIA MTJ",
      "lon": "-8.926652341532375",
      "lat": "38.69343472348979"
    },
    {
      "id": "pt.ine.add.PTCONT.4711965",
      "street": "R OFICINA",
      "house": "5",
      "postcode": "2870-756",
      "city": "ATALAIA MTJ",
      "lon": "-8.92757954080678",
      "lat": "38.69516697841958"
    },
    {
      "id": "pt.ine.add.PTCONT.4733996",
      "street": "ESTR VALE PORRIM",
      "house": "",
      "postcode": "2870-741",
      "city": "ATALAIA MTJ",
      "lon": "-8.927159078077631",
      "lat": "38.69768307503154"
    },
    {
      "id": "pt.ine.add.PTCONT.4751880",
      "street": "ESTR VALE PORRIM FAZENDA TIA BALBINA",
      "house": "",
      "postcode": "2870-741",
      "city": "ATALAIA MTJ",
      "lon": "-8.924957915940707",
      "lat": "38.6950856721249"
    },
    {
      "id": "pt.ine.add.PTCONT.4770858",
      "street": "R SOPHIA DE MELLO BREYNER",
      "house": "86",
      "postcode": "2870-760",
      "city": "ATALAIA MTJ",
      "lon": "-8.927714972042054",
      "lat": "38.69494085738678"
    },
    {
      "id": "pt.ine.add.PTCONT.4775185",
      "street": "R OFICINA",
      "house": "8",
      "postcode": "2870-756",
      "city": "ATALAIA MTJ",
      "lon": "-8.927223140884399",
      "lat": "38.695160391245146"
    },
    {
      "id": "pt.ine.add.PTCONT.4783501",
      "street": "R SOPHIA DE MELLO BREYNER",
      "house": "50",
      "postcode": "2870-760",
      "city": "ATALAIA MTJ",
      "lon": "-8.927312399935676",
      "lat": "38.69491656815336"
    },
    {
      "id": "pt.ine.add.PTCONT.4783502",
      "street": "R OFICINA",
      "house": "",
      "postcode": "2870-756",
      "city": "ATALAIA MTJ",
      "lon": "-8.927786325179484",
      "lat": "38.695156565298774"
    },
    {
      "id": "pt.ine.add.PTCONT.4796379",
      "street": "R EMIGRANTE",
      "house": "27",
      "postcode": "2870-757",
      "city": "ATALAIA MTJ",
      "lon": "-8.9276901580774",
      "lat": "38.69581480516102"
    },
    {
      "id": "pt.ine.add.PTCONT.4816721",
      "street": "R EMIGRANTE",
      "house": "1",
      "postcode": "2870-757",
      "city": "ATALAIA MTJ",
      "lon": "-8.928035566111282",
      "lat": "38.69586650578032"
    },
    {
      "id": "pt.ine.add.PTCONT.4816723",
      "street": "R SOPHIA MELLO BREYNER",
      "house": "103",
      "postcode": "2870-760",
      "city": "ATALAIA MTJ",
      "lon": "-8.92794195157138",
      "lat": "38.69467808182759"
    },
    {
      "id": "pt.ine.add.PTCONT.4827007",
      "street": "ESTR VALE PORRIM",
      "house": "",
      "postcode": "2870-741",
      "city": "ATALAIA MTJ",
      "lon": "-8.923570374935034",
      "lat": "38.696428248838416"
    },
    {
      "id": "pt.ine.add.PTCONT.4832757",
      "street": "ESTR VALE PORRIM",
      "house": "",
      "postcode": "2870-741",
      "city": "ATALAIA MTJ",
      "lon": "-8.926309671734513",
      "lat": "38.69675200475188"
    },
    {
      "id": "pt.ine.add.PTCONT.4832758",
      "street": "R SOPHIA DE MELLO BREYNER",
      "house": "68",
      "postcode": "2870-760",
      "city": "ATALAIA MTJ",
      "lon": "-8.927519482534569",
      "lat": "38.69493317758127"
    },
    {
      "id": "pt.ine.add.PTCONT.4856115",
      "street": "R OFICINA",
      "house": "",
      "postcode": "2870-756",
      "city": "ATALAIA MTJ",
      "lon": "-8.927065019232934",
      "lat": "38.6954136898686"
    },
    {
      "id": "pt.ine.add.PTCONT.4864308",
      "street": "R EMIGRANTE",
      "house": "",
      "postcode": "2870-757",
      "city": "ATALAIA MTJ",
      "lon": "-8.928575868267892",
      "lat": "38.69587183959193"
    },
    {
      "id": "pt.ine.add.PTCONT.4867795",
      "street": "ESTR PEIXE",
      "house": "",
      "postcode": "2870-701",
      "city": "ATALAIA MTJ",
      "lon": "-8.928835100095078",
      "lat": "38.69748251323199"
    },
    {
      "id": "pt.ine.add.PTCONT.4873485",
      "street": "R SOPHIA MELLO BREYNER",
      "house": "85",
      "postcode": "2870-760",
      "city": "ATALAIA MTJ",
      "lon": "-8.927734969283694",
      "lat": "38.69467048049677"
    },
    {
      "id": "pt.ine.add.PTCONT.4875602",
      "street": "R SOPHIA MELLO BREYNER",
      "house": "31",
      "postcode": "2870-760",
      "city": "ATALAIA MTJ",
      "lon": "-8.927102628749179",
      "lat": "38.6946567597017"
    },
    {
      "id": "pt.ine.add.PTCONT.4880175",
      "street": "R SOPHIA MELLO BREYNER",
      "house": "121",
      "postcode": "2870-760",
      "city": "ATALAIA MTJ",
      "lon": "-8.92814883418522",
      "lat": "38.69467667543604"
    },
    {
      "id": "pt.ine.add.PTCONT.4891050",
      "street": "R OFICINA",
      "house": "16",
      "postcode": "2870-756",
      "city": "ATALAIA MTJ",
      "lon": "-8.927523966077874",
      "lat": "38.695338508608586"
    },
    {
      "id": "pt.ine.add.PTCONT.4906275",
      "street": "R OFICINA",
      "house": "",
      "postcode": "2870-756",
      "city": "ATALAIA MTJ",
      "lon": "-8.928271148789657",
      "lat": "38.69534243819914"
    },
    {
      "id": "pt.ine.add.PTCONT.4909750",
      "street": "R OFICINA",
      "house": "",
      "postcode": "2870-756",
      "city": "ATALAIA MTJ",
      "lon": "-8.926950083239616",
      "lat": "38.695414470189625"
    },
    {
      "id": "pt.ine.add.PTCONT.4912613",
      "street": "R OFICINA",
      "house": "",
      "postcode": "2870-756",
      "city": "ATALAIA MTJ",
      "lon": "-8.92778841820793",
      "lat": "38.695345719762265"
    },
    {
      "id": "pt.ine.add.PTCONT.4929049",
      "street": "R SOPHIA DE MELLO BREYNER",
      "house": "104",
      "postcode": "2870-760",
      "city": "ATALAIA MTJ",
      "lon": "-8.927921955107998",
      "lat": "38.6949484587444"
    },
    {
      "id": "pt.ine.add.PTCONT.4940857",
      "street": "ESTR VALE PORRIM",
      "house": "",
      "postcode": "2870-741",
      "city": "ATALAIA MTJ",
      "lon": "-8.922263240122884",
      "lat": "38.6977702663679"
    },
    {
      "id": "pt.ine.add.PTCONT.4940939",
      "street": "R SOPHIA MELLO BREYNER",
      "house": "49",
      "postcode": "2870-760",
      "city": "ATALAIA MTJ",
      "lon": "-8.927527987033496",
      "lat": "38.69466287879908"
    },
    {
      "id": "pt.ine.add.PTCONT.4941981",
      "street": "ESTR PEIXE",
      "house": "",
      "postcode": "2870-701",
      "city": "ATALAIA MTJ",
      "lon": "-8.928704058610174",
      "lat": "38.698104958847296"
    },
    {
      "id": "pt.ine.add.PTCONT.4942120",
      "street": "ESTR PEIXE",
      "house": "",
      "postcode": "2870-701",
      "city": "ATALAIA MTJ",
      "lon": "-8.928704058610174",
      "lat": "38.698104958847296"
    },
    {
      "id": "pt.ine.add.PTCONT.4948226",
      "street": "ESTR PEIXE",
      "house": "",
      "postcode": "2870-701",
      "city": "ATALAIA MTJ",
      "lon": "-8.92841455791313",
      "lat": "38.69583690468709"
    },
    {
      "id": "pt.ine.add.PTCONT.4951582",
      "street": "R OFICINA",
      "house": "6",
      "postcode": "2870-756",
      "city": "ATALAIA MTJ",
      "lon": "-8.927325188371453",
      "lat": "38.695033585730506"
    },
    {
      "id": "pt.ine.add.PTCONT.4962708",
      "street": "R EMIGRANTES",
      "house": "",
      "postcode": "2870-701",
      "city": "ATALAIA MTJ",
      "lon": "-8.92841046825129",
      "lat": "38.69546760319703"
    },
    {
      "id": "pt.ine.add.PTCONT.4962709",
      "street": "R EMIGRANTES",
      "house": "",
      "postcode": "2870-760",
      "city": "ATALAIA MTJ",
      "lon": "-8.927445702741592",
      "lat": "38.695537216989045"
    },
    {
      "id": "pt.ine.add.PTCONT.4966204",
      "street": "R SOPHIA MELLO BREYNER",
      "house": "140",
      "postcode": "2870-760",
      "city": "ATALAIA MTJ",
      "lon": "-8.928335721880845",
      "lat": "38.69494564564968"
    },
    {
      "id": "pt.ine.add.PTCONT.4969787",
      "street": "R EMIGRANTE",
      "house": "37",
      "postcode": "2870-757",
      "city": "ATALAIA MTJ",
      "lon": "-8.927908637324178",
      "lat": "38.69582232841383"
    },
    {
      "id": "pt.ine.add.PTCONT.4988013",
      "street": "R EMIGRANTES",
      "house": "",
      "postcode": "2870-701",
      "city": "ATALAIA MTJ",
      "lon": "-8.92759631551174",
      "lat": "38.695644290177306"
    },
    {
      "id": "pt.ine.add.PTCONT.5009648",
      "street": "R EMIGRANTES",
      "house": "26",
      "postcode": "2870-701",
      "city": "ATALAIA MTJ",
      "lon": "-8.927987198754527",
      "lat": "38.6956506418066"
    },
    {
      "id": "pt.ine.add.PTCONT.5017326",
      "street": "R JULIO DINIS",
      "house": "179",
      "postcode": "2870-758",
      "city": "ATALAIA MTJ",
      "lon": "-8.926935503234613",
      "lat": "38.69513532014158"
    },
    {
      "id": "pt.ine.add.PTCONT.5022276",
      "street": "R SOPHIA MELLO BREYNER",
      "house": "",
      "postcode": "2870-760",
      "city": "ATALAIA MTJ",
      "lon": "-8.927309610949733",
      "lat": "38.694664362152984"
    },
    {
      "id": "pt.ine.add.PTCONT.5042891",
      "street": "ESTR PEIXE",
      "house": "",
      "postcode": "2870-701",
      "city": "ATALAIA MTJ",
      "lon": "-8.928659143819415",
      "lat": "38.70027619878001"
    },
    {
      "id": "pt.ine.add.PTCONT.5042892",
      "street": "ESTR VALE PORRIM",
      "house": "",
      "postcode": "2870-741",
      "city": "ATALAIA MTJ",
      "lon": "-8.926148250902235",
      "lat": "38.698788914315784"
    },
    {
      "id": "pt.ine.add.PTCONT.5044309",
      "street": "ESTR PEIXE",
      "house": "",
      "postcode": "2870-701",
      "city": "ATALAIA MTJ",
      "lon": "-8.928659143819415",
      "lat": "38.70027619878001"
    },
    {
      "id": "pt.ine.add.PTCONT.5046585",
      "street": "ESTR PEIXE",
      "house": "",
      "postcode": "2870-760",
      "city": "ATALAIA MTJ",
      "lon": "-8.928051004149298",
      "lat": "38.69414586653321"
    },
    {
      "id": "pt.ine.add.PTCONT.5050292",
      "street": "R EMIGRANTE",
      "house": "",
      "postcode": "2870-757",
      "city": "ATALAIA MTJ",
      "lon": "-8.928279725650041",
      "lat": "38.6961170706085"
    },
    {
      "id": "pt.ine.add.PTCONT.5058636",
      "street": "ESTR PEIXE",
      "house": "",
      "postcode": "2870-701",
      "city": "ATALAIA MTJ",
      "lon": "-8.928443752051145",
      "lat": "38.695359280437096"
    },
    {
      "id": "pt.ine.add.PTCONT.5058637",
      "street": "ESTR PEIXE",
      "house": "",
      "postcode": "2870-701",
      "city": "ATALAIA MTJ",
      "lon": "-8.928443752051145",
      "lat": "38.695359280437096"
    },
    {
      "id": "pt.ine.add.PTCONT.5059155",
      "street": "ESTR PEIXE",
      "house": "",
      "postcode": "2870-701",
      "city": "ATALAIA MTJ",
      "lon": "-8.928443752051145",
      "lat": "38.695359280437096"
    },
    {
      "id": "pt.ine.add.PTCONT.5086379",
      "street": "R OFICINA",
      "house": "",
      "postcode": "2870-756",
      "city": "ATALAIA MTJ",
      "lon": "-8.928360803442198",
      "lat": "38.695134643767744"
    },
    {
      "id": "pt.ine.add.PTCONT.5095755",
      "street": "R EMIGRANTES",
      "house": "28",
      "postcode": "2870-701",
      "city": "ATALAIA MTJ",
      "lon": "-8.927721549556345",
      "lat": "38.69553534285473"
    },
    {
      "id": "pt.ine.add.PTCONT.5104051",
      "street": "R SOPHIA MELLO BREYNER",
      "house": "139",
      "postcode": "2870-760",
      "city": "ATALAIA MTJ",
      "lon": "-8.928355816521886",
      "lat": "38.694684276033605"
    },
    {
      "id": "pt.ine.add.PTCONT.5111108",
      "street": "R FORCAS ARMADAS",
      "house": "29",
      "postcode": "2870-701",
      "city": "ATALAIA MTJ",
      "lon": "-8.927859472954102",
      "lat": "38.6955344055436"
    },
    {
      "id": "pt.ine.add.PTCONT.5113580",
      "street": "ESTR VALE PORRIM",
      "house": "",
      "postcode": "2870-741",
      "city": "ATALAIA MTJ",
      "lon": "-8.924678489745359",
      "lat": "38.69893399343792"
    },
    {
      "id": "pt.ine.add.PTCONT.5122636",
      "street": "R OFICINA",
      "house": "9",
      "postcode": "2870-756",
      "city": "ATALAIA MTJ",
      "lon": "-8.927108205300833",
      "lat": "38.69516117171734"
    },
    {
      "id": "pt.ine.add.PTCONT.5124555",
      "street": "ESTR PEIXE",
      "house": "",
      "postcode": "2870-701",
      "city": "ATALAIA MTJ",
      "lon": "-8.928723553826623",
      "lat": "38.69778954521667"
    }
  ]
}