{
  "data": {
    "distrito": "Portalegre",
    "concelho": "Avis",
    "freguesia": "União das freguesias de Alcórrego e Maranhão",
    "OBJECTID": 303,
    "BGRI2021": "12030900125",
    "DT21": "12",
    "DTMN21": "1203",
    "DTMNFR21": "120309",
    "DTMNFRSEC21": "120309001",
    "SECNUM21": "001",
    "SSNUM21": "25",
    "SECSSNUM21": "00125",
    "OBJECTID_1": 120929,
    "DT": "12",
    "CC": "03",
    "fr": "09",
    "SEC": "001",
    "SS": "25"
  },
  "addresses": [
    {
      "id": "pt.ine.add.PTCONT.3535171",
      "street": "R DA LIBERDADE",
      "house": "18",
      "postcode": "7480-028",
      "city": "ALCÓRREGO",
      "lon": "-7.908847602861235",
      "lat": "39.01795569147209"
    },
    {
      "id": "pt.ine.add.PTCONT.3536760",
      "street": "R DA LIBERDADE",
      "house": "",
      "postcode": "7480-028",
      "city": "ALCÓRREGO",
      "lon": "-7.90610269630373",
      "lat": "39.01695052665383"
    },
    {
      "id": "pt.ine.add.PTCONT.3537364",
      "street": "R DA LIBERDADE",
      "house": "8",
      "postcode": "7480-028",
      "city": "ALCÓRREGO",
      "lon": "-7.909593916261013",
      "lat": "39.01795860281261"
    },
    {
      "id": "pt.ine.add.PTCONT.3539215",
      "street": "TV PARREIRAS",
      "house": "3",
      "postcode": "7480-028",
      "city": "ALCÓRREGO",
      "lon": "-7.910475963771337",
      "lat": "39.01786873324976"
    },
    {
      "id": "pt.ine.add.PTCONT.3462126",
      "street": "LG 1 DE MAIO",
      "house": "7",
      "postcode": "7480-028",
      "city": "ALCÓRREGO",
      "lon": "-7.9107397386887515",
      "lat": "39.01774279869725"
    },
    {
      "id": "pt.ine.add.PTCONT.3462127",
      "street": "R LIBERDADE",
      "house": "",
      "postcode": "7480-028",
      "city": "ALCÓRREGO",
      "lon": "-7.907612110876269",
      "lat": "39.017953309904826"
    },
    {
      "id": "pt.ine.add.PTCONT.3463908",
      "street": "TV PARREIRAS",
      "house": "5",
      "postcode": "7480-028",
      "city": "ALCÓRREGO",
      "lon": "-7.910429607690302",
      "lat": "39.01792269104031"
    },
    {
      "id": "pt.ine.add.PTCONT.3472638",
      "street": "COURELA DAS ALMAS",
      "house": "",
      "postcode": "7480-012",
      "city": "ALCÓRREGO",
      "lon": "-7.907305192797272",
      "lat": "39.01643041302269"
    },
    {
      "id": "pt.ine.add.PTCONT.3477308",
      "street": "LG 1 DE MAIO",
      "house": "11",
      "postcode": "7480-028",
      "city": "ALCÓRREGO",
      "lon": "-7.910927072108174",
      "lat": "39.01761737735117"
    },
    {
      "id": "pt.ine.add.PTCONT.3483245",
      "street": "TV PARREIRAS",
      "house": "",
      "postcode": "7480-028",
      "city": "ALCÓRREGO",
      "lon": "-7.910441860607902",
      "lat": "39.017697521656"
    },
    {
      "id": "pt.ine.add.PTCONT.3485910",
      "street": "R DA LIBERDADE",
      "house": "22",
      "postcode": "7480-028",
      "city": "ALCÓRREGO",
      "lon": "-7.908501117733478",
      "lat": "39.01798204802942"
    },
    {
      "id": "pt.ine.add.PTCONT.3487525",
      "street": "LG 1 DE MAIO",
      "house": "9",
      "postcode": "7480-028",
      "city": "ALCÓRREGO",
      "lon": "-7.910846104903114",
      "lat": "39.01766226167683"
    },
    {
      "id": "pt.ine.add.PTCONT.3489727",
      "street": "R DA LIBERDADE - CASA REDONDO",
      "house": "",
      "postcode": "7480-028",
      "city": "ALCÓRREGO",
      "lon": "-7.906931374879207",
      "lat": "39.017789853323414"
    },
    {
      "id": "pt.ine.add.PTCONT.3501419",
      "street": "R DA LIBERDADE",
      "house": "",
      "postcode": "7480-028",
      "city": "ALCÓRREGO",
      "lon": "-7.9059883840001675",
      "lat": "39.0165899956877"
    },
    {
      "id": "pt.ine.add.PTCONT.3508079",
      "street": "LG 1 DE MAIO",
      "house": "6",
      "postcode": "7480-028",
      "city": "ALCÓRREGO",
      "lon": "-7.910645900999917",
      "lat": "39.01778003152057"
    },
    {
      "id": "pt.ine.add.PTCONT.3508082",
      "street": "R DA LIBERDADE",
      "house": "10",
      "postcode": "7480-028",
      "city": "ALCÓRREGO",
      "lon": "-7.9094133321966105",
      "lat": "39.0179747930406"
    },
    {
      "id": "pt.ine.add.PTCONT.3508083",
      "street": "R DA LIBERDADE",
      "house": "10",
      "postcode": "7480-028",
      "city": "ALCÓRREGO",
      "lon": "-7.9094133321966105",
      "lat": "39.0179747930406"
    },
    {
      "id": "pt.ine.add.PTCONT.3518877",
      "street": "R DA LIBERDADE",
      "house": "",
      "postcode": "7480-028",
      "city": "ALCÓRREGO",
      "lon": "-7.906183205036656",
      "lat": "39.01704976811091"
    },
    {
      "id": "pt.ine.add.PTCONT.3519187",
      "street": "R DA LIBERDADE",
      "house": "24",
      "postcode": "7480-028",
      "city": "ALCÓRREGO",
      "lon": "-7.906505472212317",
      "lat": "39.01737467213239"
    },
    {
      "id": "pt.ine.add.PTCONT.3519188",
      "street": "R DA LIBERDADE",
      "house": "24",
      "postcode": "7480-028",
      "city": "ALCÓRREGO",
      "lon": "-7.906505472212317",
      "lat": "39.01737467213239"
    },
    {
      "id": "pt.ine.add.PTCONT.3526666",
      "street": "R DA LIBERDADE",
      "house": "4",
      "postcode": "7480-028",
      "city": "ALCÓRREGO",
      "lon": "-7.9099908066676194",
      "lat": "39.017930860355435"
    },
    {
      "id": "pt.ine.add.PTCONT.3530619",
      "street": "LG 1 DE MAIO",
      "house": "5",
      "postcode": "7480-028",
      "city": "ALCÓRREGO",
      "lon": "-7.910564961667077",
      "lat": "39.01781590799174"
    },
    {
      "id": "pt.ine.add.PTCONT.3531664",
      "street": "LG 1 DE MAIO",
      "house": "12",
      "postcode": "7480-028",
      "city": "ALCÓRREGO",
      "lon": "-7.911216497252526",
      "lat": "39.01737471999361"
    }
  ]
}