{
  "data": {
    "distrito": "Coimbra",
    "concelho": "Cantanhede",
    "freguesia": "Cadima",
    "OBJECTID": 557,
    "BGRI2021": "06020300128",
    "DT21": "06",
    "DTMN21": "0602",
    "DTMNFR21": "060203",
    "DTMNFRSEC21": "060203001",
    "SECNUM21": "001",
    "SSNUM21": "28",
    "SECSSNUM21": "00128",
    "OBJECTID_1": 48247,
    "DT": "06",
    "CC": "02",
    "fr": "03",
    "SEC": "001",
    "SS": "28"
  },
  "addresses": [
    {
      "id": "pt.ine.add.PTCONT.1110280",
      "street": "R PRINCIPAL",
      "house": "541",
      "postcode": "3060-114",
      "city": "CADIMA",
      "lon": "-8.66358595004086",
      "lat": "40.340245737048896"
    },
    {
      "id": "pt.ine.add.PTCONT.1112386",
      "street": "R PRINCIPAL",
      "house": "315",
      "postcode": "3060-114",
      "city": "CADIMA",
      "lon": "-8.6618670645183",
      "lat": "40.338659615106415"
    },
    {
      "id": "pt.ine.add.PTCONT.1114437",
      "street": "R CABEÇO",
      "house": "373",
      "postcode": "3060-114",
      "city": "CADIMA",
      "lon": "-8.667750202226351",
      "lat": "40.34148734836476"
    },
    {
      "id": "pt.ine.add.PTCONT.1132761",
      "street": "R DR ARISTIDES GONFALVES SALVADOR",
      "house": "358",
      "postcode": "3060-099",
      "city": "CADIMA",
      "lon": "-8.663459435225635",
      "lat": "40.33611274313383"
    },
    {
      "id": "pt.ine.add.PTCONT.1133169",
      "street": "R CABEÇO",
      "house": "735",
      "postcode": "3060-114",
      "city": "CADIMA",
      "lon": "-8.671526873865199",
      "lat": "40.34281166440584"
    },
    {
      "id": "pt.ine.add.PTCONT.1147168",
      "street": "R PRINCIPAL",
      "house": "381",
      "postcode": "3060-114",
      "city": "CADIMA",
      "lon": "-8.662529044978964",
      "lat": "40.33903482260039"
    },
    {
      "id": "pt.ine.add.PTCONT.1150160",
      "street": "R PORTO SOBREIRO",
      "house": "363",
      "postcode": "3060-109",
      "city": "CADIMA",
      "lon": "-8.671555906825557",
      "lat": "40.34054211789727"
    },
    {
      "id": "pt.ine.add.PTCONT.1159367",
      "street": "R PORTO SOBREIRO",
      "house": "177",
      "postcode": "3060-114",
      "city": "CADIMA",
      "lon": "-8.671873782307623",
      "lat": "40.34203556750326"
    },
    {
      "id": "pt.ine.add.PTCONT.1166517",
      "street": "R PRINCIPAL",
      "house": "59",
      "postcode": "3060-114",
      "city": "CADIMA",
      "lon": "-8.659993594248515",
      "lat": "40.33685803663215"
    },
    {
      "id": "pt.ine.add.PTCONT.1168370",
      "street": "R CABEÇO",
      "house": "187",
      "postcode": "3060-114",
      "city": "CADIMA",
      "lon": "-8.665837569475896",
      "lat": "40.34072169135247"
    },
    {
      "id": "pt.ine.add.PTCONT.1171173",
      "street": "R CANTO RODEIRO",
      "house": "25",
      "postcode": "3060-109",
      "city": "CADIMA",
      "lon": "-8.671617112721606",
      "lat": "40.340839017830895"
    },
    {
      "id": "pt.ine.add.PTCONT.1174671",
      "street": "R CABEÇO",
      "house": "295",
      "postcode": "3060-114",
      "city": "CADIMA",
      "lon": "-8.666971049902356",
      "lat": "40.34118475669356"
    },
    {
      "id": "pt.ine.add.PTCONT.1179603",
      "street": "R CABEÇO",
      "house": "645",
      "postcode": "3060-114",
      "city": "CADIMA",
      "lon": "-8.670757742732748",
      "lat": "40.34229291733037"
    },
    {
      "id": "pt.ine.add.PTCONT.1191479",
      "street": "R CABEÇO",
      "house": "669",
      "postcode": "3060-114",
      "city": "CADIMA",
      "lon": "-8.670958958386242",
      "lat": "40.34243607144693"
    },
    {
      "id": "pt.ine.add.PTCONT.1191480",
      "street": "R CABEÇO",
      "house": "267",
      "postcode": "3060-114",
      "city": "CADIMA",
      "lon": "-8.666699234195747",
      "lat": "40.34104192129595"
    },
    {
      "id": "pt.ine.add.PTCONT.1216018",
      "street": "R CABEÇO",
      "house": "241",
      "postcode": "3060-114",
      "city": "CADIMA",
      "lon": "-8.666391900899399",
      "lat": "40.34087223220333"
    },
    {
      "id": "pt.ine.add.PTCONT.1225620",
      "street": "R CABEÇO",
      "house": "523",
      "postcode": "3060-114",
      "city": "CADIMA",
      "lon": "-8.669295118903012",
      "lat": "40.34188544912178"
    },
    {
      "id": "pt.ine.add.PTCONT.1251595",
      "street": "R CABEÇO",
      "house": "343",
      "postcode": "3060-114",
      "city": "CADIMA",
      "lon": "-8.66745498829183",
      "lat": "40.341362634109935"
    },
    {
      "id": "pt.ine.add.PTCONT.1253449",
      "street": "R PORTO SOBREIRO",
      "house": "149",
      "postcode": "3060-114",
      "city": "CADIMA",
      "lon": "-8.671663375177825",
      "lat": "40.34221665936708"
    },
    {
      "id": "pt.ine.add.PTCONT.1270700",
      "street": "R CABEÇO",
      "house": "253",
      "postcode": "3060-114",
      "city": "CADIMA",
      "lon": "-8.666557158704704",
      "lat": "40.340934509388454"
    },
    {
      "id": "pt.ine.add.PTCONT.1276615",
      "street": "R CABEÇO",
      "house": "215",
      "postcode": "3060-114",
      "city": "CADIMA",
      "lon": "-8.666097684302205",
      "lat": "40.3408735883093"
    },
    {
      "id": "pt.ine.add.PTCONT.1322909",
      "street": "R PORTO SOBREIRO",
      "house": "449",
      "postcode": "3060-109",
      "city": "CADIMA",
      "lon": "-8.670939005406073",
      "lat": "40.33992360139483"
    },
    {
      "id": "pt.ine.add.PTCONT.1325241",
      "street": "R DR ARISTIDES GONFALVES SALVADOR",
      "house": "214",
      "postcode": "3060-099",
      "city": "CADIMA",
      "lon": "-8.661732302937505",
      "lat": "40.336471867990696"
    },
    {
      "id": "pt.ine.add.PTCONT.1336402",
      "street": "R CABEÇO",
      "house": "723",
      "postcode": "3060-114",
      "city": "CADIMA",
      "lon": "-8.671361678543196",
      "lat": "40.34275839966659"
    },
    {
      "id": "pt.ine.add.PTCONT.1341753",
      "street": "R CABEÇO",
      "house": "83",
      "postcode": "3060-114",
      "city": "CADIMA",
      "lon": "-8.664869571355846",
      "lat": "40.340347910227905"
    },
    {
      "id": "pt.ine.add.PTCONT.1347853",
      "street": "R PRINCIPAL",
      "house": "203",
      "postcode": "3060-114",
      "city": "CADIMA",
      "lon": "-8.661025198939402",
      "lat": "40.33785295570485"
    },
    {
      "id": "pt.ine.add.PTCONT.1361272",
      "street": "R PRINCIPAL",
      "house": "559",
      "postcode": "3060-114",
      "city": "CADIMA",
      "lon": "-8.663716250824104",
      "lat": "40.34035320664516"
    }
  ]
}