{
  "data": {
    "distrito": "Guarda",
    "concelho": "Guarda",
    "freguesia": "Guarda",
    "OBJECTID": 1156,
    "BGRI2021": "09075802218",
    "DT21": "09",
    "DTMN21": "0907",
    "DTMNFR21": "090758",
    "DTMNFRSEC21": "090758022",
    "SECNUM21": "022",
    "SSNUM21": "18",
    "SECSSNUM21": "02218",
    "OBJECTID_1": 78546,
    "DT": "09",
    "CC": "07",
    "fr": "58",
    "SEC": "022",
    "SS": "18"
  },
  "addresses": [
    {
      "id": "pt.ine.add.PTCONT.1936079",
      "street": "LG DO FORNO",
      "house": "",
      "postcode": "6300-651",
      "city": "GUARDA",
      "lon": "-7.263105200144355",
      "lat": "40.52525855646089"
    },
    {
      "id": "pt.ine.add.PTCONT.1946258",
      "street": "R DO FUNDO DO POVO",
      "house": "",
      "postcode": "6300-651",
      "city": "GUARDA",
      "lon": "-7.262852704666894",
      "lat": "40.524707336853425"
    },
    {
      "id": "pt.ine.add.PTCONT.1957523",
      "street": "LG DO SERRADO",
      "house": "",
      "postcode": "6300-651",
      "city": "GUARDA",
      "lon": "-7.261372833811691",
      "lat": "40.52598392705501"
    },
    {
      "id": "pt.ine.add.PTCONT.1958031",
      "street": "QTA DA TAPADA DO TRENO",
      "house": "",
      "postcode": "6300-651",
      "city": "GUARDA",
      "lon": "-7.259389371701013",
      "lat": "40.52514046598377"
    },
    {
      "id": "pt.ine.add.PTCONT.1961830",
      "street": "LG DO FORNO",
      "house": "",
      "postcode": "6300-651",
      "city": "GUARDA",
      "lon": "-7.263151235863305",
      "lat": "40.525348955232694"
    },
    {
      "id": "pt.ine.add.PTCONT.1969965",
      "street": "R DO FUNDO DO POVO",
      "house": "",
      "postcode": "6300-651",
      "city": "GUARDA",
      "lon": "-7.262872810559611",
      "lat": "40.52497764475758"
    },
    {
      "id": "pt.ine.add.PTCONT.1849499",
      "street": "QTA DA BRIOLANSA",
      "house": "",
      "postcode": "6300-651",
      "city": "GUARDA",
      "lon": "-7.2571516789913995",
      "lat": "40.522980282360585"
    },
    {
      "id": "pt.ine.add.PTCONT.1859973",
      "street": "LG FORNO",
      "house": "",
      "postcode": "6300-651",
      "city": "GUARDA",
      "lon": "-7.262895012920801",
      "lat": "40.525085874560126"
    },
    {
      "id": "pt.ine.add.PTCONT.1867321",
      "street": "QTA ABADE",
      "house": "",
      "postcode": "6300-651",
      "city": "GUARDA",
      "lon": "-7.258508939093471",
      "lat": "40.524782601693296"
    },
    {
      "id": "pt.ine.add.PTCONT.1876066",
      "street": "R DO FUNDO DO POVO",
      "house": "",
      "postcode": "6300-651",
      "city": "GUARDA",
      "lon": "-7.262744758323529",
      "lat": "40.524841602017915"
    },
    {
      "id": "pt.ine.add.PTCONT.1876067",
      "street": "R DO FUNDO DO POVO",
      "house": "",
      "postcode": "6300-651",
      "city": "GUARDA",
      "lon": "-7.26292199014832",
      "lat": "40.52482492647928"
    },
    {
      "id": "pt.ine.add.PTCONT.1879596",
      "street": "ESTR DE NOEME",
      "house": "",
      "postcode": "6300-651",
      "city": "GUARDA",
      "lon": "-7.262701286189562",
      "lat": "40.524553107638084"
    },
    {
      "id": "pt.ine.add.PTCONT.1881949",
      "street": "LG DO SERRADO",
      "house": "",
      "postcode": "6300-651",
      "city": "GUARDA",
      "lon": "-7.261560352696087",
      "lat": "40.52608439900459"
    },
    {
      "id": "pt.ine.add.PTCONT.1884935",
      "street": "QTA DO REDUTO",
      "house": "",
      "postcode": "6300-651",
      "city": "GUARDA",
      "lon": "-7.256549872741043",
      "lat": "40.525695293176035"
    }
  ]
}