{
  "data": {
    "distrito": "Set√∫bal",
    "concelho": "Alcochete",
    "freguesia": "Alcochete",
    "OBJECTID": 152,
    "BGRI2021": "15020100201",
    "DT21": "15",
    "DTMN21": "1502",
    "DTMNFR21": "150201",
    "DTMNFRSEC21": "150201002",
    "SECNUM21": "002",
    "SSNUM21": "01",
    "SECSSNUM21": "00201",
    "OBJECTID_1": 160709,
    "DT": "15",
    "CC": "02",
    "fr": "01",
    "SEC": "002",
    "SS": "01"
  },
  "addresses": [
    {
      "id": "pt.ine.add.PTCONT.4696236",
      "street": "",
      "house": "",
      "postcode": "2890-164",
      "city": "ALCOCHETE",
      "lon": "-8.946191326033011",
      "lat": "38.72886408191774"
    },
    {
      "id": "pt.ine.add.PTCONT.4732948",
      "street": "ESTR LAGOA CHEIA",
      "house": "",
      "postcode": "2890-499",
      "city": "ALCOCHETE",
      "lon": "-8.951154527691513",
      "lat": "38.72744222966988"
    },
    {
      "id": "pt.ine.add.PTCONT.4739982",
      "street": "ESTR LAGOA CHEIA",
      "house": "",
      "postcode": "2890-167",
      "city": "ALCOCHETE",
      "lon": "-8.950713266225296",
      "lat": "38.728075874594"
    },
    {
      "id": "pt.ine.add.PTCONT.4784857",
      "street": "",
      "house": "",
      "postcode": "2890-164",
      "city": "ALCOCHETE",
      "lon": "-8.946695643117035",
      "lat": "38.72871644572056"
    },
    {
      "id": "pt.ine.add.PTCONT.4822101",
      "street": "ESTR LAGOA CHEIA",
      "house": "",
      "postcode": "2890-499",
      "city": "ALCOCHETE",
      "lon": "-8.950968289873419",
      "lat": "38.72724535730405"
    },
    {
      "id": "pt.ine.add.PTCONT.4917972",
      "street": "",
      "house": "",
      "postcode": "2890-164",
      "city": "ALCOCHETE",
      "lon": "-8.946273452094522",
      "lat": "38.72900763826271"
    },
    {
      "id": "pt.ine.add.PTCONT.4949912",
      "street": "",
      "house": "",
      "postcode": "2890-164",
      "city": "ALCOCHETE",
      "lon": "-8.946135873355045",
      "lat": "38.729044627035705"
    },
    {
      "id": "pt.ine.add.PTCONT.4971959",
      "street": "CM 1004",
      "house": "",
      "postcode": "2890-499",
      "city": "ALCOCHETE",
      "lon": "-8.946856933942621",
      "lat": "38.72874234704891"
    },
    {
      "id": "pt.ine.add.PTCONT.5007988",
      "street": "CM 1004",
      "house": "",
      "postcode": "2890-499",
      "city": "ALCOCHETE",
      "lon": "-8.948548283844252",
      "lat": "38.725784954236694"
    },
    {
      "id": "pt.ine.add.PTCONT.5045016",
      "street": "ESTR LAGOA CHEIA",
      "house": "",
      "postcode": "2890-499",
      "city": "ALCOCHETE",
      "lon": "-8.95107321541704",
      "lat": "38.72737073483651"
    },
    {
      "id": "pt.ine.add.PTCONT.5063374",
      "street": "",
      "house": "",
      "postcode": "2890-164",
      "city": "ALCOCHETE",
      "lon": "-8.946298492199748",
      "lat": "38.729187623536895"
    },
    {
      "id": "pt.ine.add.PTCONT.5077829",
      "street": "CM 1004",
      "house": "",
      "postcode": "2890-499",
      "city": "ALCOCHETE",
      "lon": "-8.947384041971787",
      "lat": "38.728576533298146"
    },
    {
      "id": "pt.ine.add.PTCONT.5109395",
      "street": "CM 1004",
      "house": "",
      "postcode": "2890-499",
      "city": "ALCOCHETE",
      "lon": "-8.94872236948811",
      "lat": "38.72693676070843"
    }
  ]
}