{
  "data": {
    "distrito": "Set√∫bal",
    "concelho": "Alcochete",
    "freguesia": "Alcochete",
    "OBJECTID": 8,
    "BGRI2021": "15020100219",
    "DT21": "15",
    "DTMN21": "1502",
    "DTMNFR21": "150201",
    "DTMNFRSEC21": "150201002",
    "SECNUM21": "002",
    "SSNUM21": "19",
    "SECSSNUM21": "00219",
    "OBJECTID_1": 160624,
    "DT": "15",
    "CC": "02",
    "fr": "01",
    "SEC": "002",
    "SS": "19"
  },
  "addresses": [
    {
      "id": "pt.ine.add.PTCONT.4664961",
      "street": "R JOSE SARAMAGO",
      "house": "331",
      "postcode": "2890-117",
      "city": "ALCOCHETE",
      "lon": "-8.950186502547979",
      "lat": "38.75408874542427"
    },
    {
      "id": "pt.ine.add.PTCONT.4665092",
      "street": "AV CANTO DO PINHEIRO",
      "house": "3",
      "postcode": "2890-121",
      "city": "ALCOCHETE",
      "lon": "-8.949416991988175",
      "lat": "38.754622360890096"
    },
    {
      "id": "pt.ine.add.PTCONT.4666232",
      "street": "AV CANTO DO PINHEIRO",
      "house": "",
      "postcode": "2890-121",
      "city": "ALCOCHETE",
      "lon": "-8.949269093930948",
      "lat": "38.7547675206341"
    },
    {
      "id": "pt.ine.add.PTCONT.4666766",
      "street": "R JOSE CARDOSO PIRES",
      "house": "",
      "postcode": "2890-119",
      "city": "ALCOCHETE",
      "lon": "-8.951052455638841",
      "lat": "38.752773309040805"
    },
    {
      "id": "pt.ine.add.PTCONT.4670642",
      "street": "AV CANTO DO PINHEIRO",
      "house": "1A",
      "postcode": "2890-121",
      "city": "ALCOCHETE",
      "lon": "-8.949349204911236",
      "lat": "38.754730929483046"
    },
    {
      "id": "pt.ine.add.PTCONT.4674226",
      "street": "AV CANTO DO PINHEIRO",
      "house": "",
      "postcode": "2890-121",
      "city": "ALCOCHETE",
      "lon": "-8.947586205824745",
      "lat": "38.753464101348165"
    },
    {
      "id": "pt.ine.add.PTCONT.4674227",
      "street": "AV CANTO DO PINHEIRO",
      "house": "",
      "postcode": "2890-121",
      "city": "ALCOCHETE",
      "lon": "-8.947586205824745",
      "lat": "38.753464101348165"
    },
    {
      "id": "pt.ine.add.PTCONT.4681423",
      "street": "R FERNANDO PESSOA",
      "house": "",
      "postcode": "2890-118",
      "city": "ALCOCHETE",
      "lon": "-8.951267010829307",
      "lat": "38.75342938656736"
    },
    {
      "id": "pt.ine.add.PTCONT.4688903",
      "street": "R JOSE SARAMAGO",
      "house": "",
      "postcode": "2890-117",
      "city": "ALCOCHETE",
      "lon": "-8.950499814056055",
      "lat": "38.75374102398782"
    },
    {
      "id": "pt.ine.add.PTCONT.4696263",
      "street": "AV CANTO DO PINHEIRO",
      "house": "",
      "postcode": "2890-152",
      "city": "ALCOCHETE",
      "lon": "-8.946812344907435",
      "lat": "38.753190245265294"
    },
    {
      "id": "pt.ine.add.PTCONT.4698705",
      "street": "R JOSE SARAMAGO",
      "house": "",
      "postcode": "2890-117",
      "city": "ALCOCHETE",
      "lon": "-8.950754213330297",
      "lat": "38.753856347766686"
    },
    {
      "id": "pt.ine.add.PTCONT.4699732",
      "street": "EN 109",
      "house": "",
      "postcode": "2890-121",
      "city": "ALCOCHETE",
      "lon": "-8.949776665040641",
      "lat": "38.754890086334754"
    },
    {
      "id": "pt.ine.add.PTCONT.4699811",
      "street": "R FERNANDO PESSOA",
      "house": "",
      "postcode": "2890-118",
      "city": "ALCOCHETE",
      "lon": "-8.951141919062373",
      "lat": "38.75355637317902"
    },
    {
      "id": "pt.ine.add.PTCONT.4703247",
      "street": "AV CANTO DO PINHEIRO",
      "house": "4",
      "postcode": "2890-121",
      "city": "ALCOCHETE",
      "lon": "-8.949439485034787",
      "lat": "38.754577164134645"
    },
    {
      "id": "pt.ine.add.PTCONT.4709481",
      "street": "R FERNANDO PESSOA",
      "house": "",
      "postcode": "2890-118",
      "city": "ALCOCHETE",
      "lon": "-8.951198610764154",
      "lat": "38.75348391293161"
    },
    {
      "id": "pt.ine.add.PTCONT.4710506",
      "street": "AV CANTO DO PINHEIRO",
      "house": "",
      "postcode": "2890-121",
      "city": "ALCOCHETE",
      "lon": "-8.948520190647905",
      "lat": "38.75365576390282"
    },
    {
      "id": "pt.ine.add.PTCONT.4717533",
      "street": "R JOSE SARAMAGO",
      "house": "7",
      "postcode": "2890-117",
      "city": "ALCOCHETE",
      "lon": "-8.950696030089183",
      "lat": "38.754244439069446"
    },
    {
      "id": "pt.ine.add.PTCONT.4717534",
      "street": "R JOSE SARAMAGO",
      "house": "295",
      "postcode": "2890-117",
      "city": "ALCOCHETE",
      "lon": "-8.950696030089183",
      "lat": "38.754244439069446"
    },
    {
      "id": "pt.ine.add.PTCONT.4717602",
      "street": "AV CANTO DO PINHEIRO",
      "house": "8",
      "postcode": "2890-121",
      "city": "ALCOCHETE",
      "lon": "-8.949507682267665",
      "lat": "38.75450462435266"
    },
    {
      "id": "pt.ine.add.PTCONT.4720809",
      "street": "R FERNANDO PESSOA",
      "house": "",
      "postcode": "2890-118",
      "city": "ALCOCHETE",
      "lon": "-8.951075369230843",
      "lat": "38.75377302931376"
    },
    {
      "id": "pt.ine.add.PTCONT.4728384",
      "street": "AV CANTO DO PINHEIRO",
      "house": "",
      "postcode": "2890-152",
      "city": "ALCOCHETE",
      "lon": "-8.946417569841724",
      "lat": "38.752868707180035"
    },
    {
      "id": "pt.ine.add.PTCONT.4729863",
      "street": "AV CANTO DO PINHEIRO",
      "house": "6",
      "postcode": "2890-121",
      "city": "ALCOCHETE",
      "lon": "-8.949508092703361",
      "lat": "38.75454065321551"
    },
    {
      "id": "pt.ine.add.PTCONT.4732907",
      "street": "AV CANTO DO PINHEIRO",
      "house": "",
      "postcode": "2890-121",
      "city": "ALCOCHETE",
      "lon": "-8.94914431993995",
      "lat": "38.75391263821098"
    },
    {
      "id": "pt.ine.add.PTCONT.4735429",
      "street": "AV CANTO DO PINHEIRO",
      "house": "",
      "postcode": "2890-121",
      "city": "ALCOCHETE",
      "lon": "-8.94914431993995",
      "lat": "38.75391263821098"
    },
    {
      "id": "pt.ine.add.PTCONT.4736305",
      "street": "AV CANTO DO PINHEIRO",
      "house": "2",
      "postcode": "2890-121",
      "city": "ALCOCHETE",
      "lon": "-8.949371287664436",
      "lat": "38.75464970387748"
    },
    {
      "id": "pt.ine.add.PTCONT.4736320",
      "street": "R FERNANDO PESSOA",
      "house": "",
      "postcode": "2890-118",
      "city": "ALCOCHETE",
      "lon": "-8.95131240515185",
      "lat": "38.753375021209145"
    },
    {
      "id": "pt.ine.add.PTCONT.4739937",
      "street": "R FERNANDO PESSOA",
      "house": "105",
      "postcode": "2890-118",
      "city": "ALCOCHETE",
      "lon": "-8.950676298380888",
      "lat": "38.754423911506436"
    },
    {
      "id": "pt.ine.add.PTCONT.4739950",
      "street": "R FERNANDO PESSOA",
      "house": "",
      "postcode": "2890-118",
      "city": "ALCOCHETE",
      "lon": "-8.951053699870487",
      "lat": "38.75389028408234"
    },
    {
      "id": "pt.ine.add.PTCONT.4747570",
      "street": "AV CANTO DO PINHEIRO",
      "house": "1",
      "postcode": "2890-121",
      "city": "ALCOCHETE",
      "lon": "-8.949371800626126",
      "lat": "38.75469473995641"
    },
    {
      "id": "pt.ine.add.PTCONT.4755691",
      "street": "AV CANTO DO PINHEIRO",
      "house": "",
      "postcode": "2890-121",
      "city": "ALCOCHETE",
      "lon": "-8.949679816827828",
      "lat": "38.7544673901746"
    },
    {
      "id": "pt.ine.add.PTCONT.4755692",
      "street": "AV CANTO DO PINHEIRO",
      "house": "",
      "postcode": "2890-121",
      "city": "ALCOCHETE",
      "lon": "-8.949679816827828",
      "lat": "38.7544673901746"
    },
    {
      "id": "pt.ine.add.PTCONT.4755693",
      "street": "AV CANTO DO PINHEIRO QTA DO RIO",
      "house": "",
      "postcode": "2890-152",
      "city": "ALCOCHETE",
      "lon": "-8.94746452478499",
      "lat": "38.75287943338793"
    },
    {
      "id": "pt.ine.add.PTCONT.4772507",
      "street": "R FERNANDO PESSOA",
      "house": "44",
      "postcode": "2890-118",
      "city": "ALCOCHETE",
      "lon": "-8.951740561308755",
      "lat": "38.7525883330353"
    },
    {
      "id": "pt.ine.add.PTCONT.4782407",
      "street": "R GOIABAS",
      "house": "",
      "postcode": "2890-556",
      "city": "ALCOCHETE",
      "lon": "-8.948165259725082",
      "lat": "38.749757802598545"
    },
    {
      "id": "pt.ine.add.PTCONT.4784442",
      "street": "AV CANTO DO PINHEIRO",
      "house": "5",
      "postcode": "2890-121",
      "city": "ALCOCHETE",
      "lon": "-8.949462080656668",
      "lat": "38.75454097459064"
    },
    {
      "id": "pt.ine.add.PTCONT.4798762",
      "street": "R FERNANDO PESSOA",
      "house": "",
      "postcode": "2890-118",
      "city": "ALCOCHETE",
      "lon": "-8.95152591867702",
      "lat": "38.75293213764386"
    },
    {
      "id": "pt.ine.add.PTCONT.4798764",
      "street": "R GOIABAS",
      "house": "",
      "postcode": "2890-556",
      "city": "ALCOCHETE",
      "lon": "-8.948108362979204",
      "lat": "38.74981224696958"
    },
    {
      "id": "pt.ine.add.PTCONT.4801076",
      "street": "R FERNANDO PESSOA",
      "house": "75",
      "postcode": "2890-118",
      "city": "ALCOCHETE",
      "lon": "-8.95056216353556",
      "lat": "38.75461896404784"
    },
    {
      "id": "pt.ine.add.PTCONT.4807055",
      "street": "R FERNANDO PESSOA",
      "house": "",
      "postcode": "2890-118",
      "city": "ALCOCHETE",
      "lon": "-8.951086255287844",
      "lat": "38.75371890553405"
    },
    {
      "id": "pt.ine.add.PTCONT.4811277",
      "street": "AV CANTO PINHEIRO",
      "house": "10",
      "postcode": "2890-121",
      "city": "ALCOCHETE",
      "lon": "-8.949564171137794",
      "lat": "38.754414150451986"
    },
    {
      "id": "pt.ine.add.PTCONT.4811279",
      "street": "R JOSE CARDOSO PIRES",
      "house": "",
      "postcode": "2890-119",
      "city": "ALCOCHETE",
      "lon": "-8.950919048067536",
      "lat": "38.75317959957075"
    },
    {
      "id": "pt.ine.add.PTCONT.4833102",
      "street": "R JOSE CARDOSO PIRES",
      "house": "",
      "postcode": "2890-119",
      "city": "ALCOCHETE",
      "lon": "-8.950872317482979",
      "lat": "38.75311687098848"
    },
    {
      "id": "pt.ine.add.PTCONT.4838654",
      "street": "R JOSE SARAMAGO",
      "house": "313",
      "postcode": "2890-117",
      "city": "ALCOCHETE",
      "lon": "-8.950329577694754",
      "lat": "38.75416001850635"
    },
    {
      "id": "pt.ine.add.PTCONT.4839595",
      "street": "R FERNANDO PESSOA",
      "house": "9",
      "postcode": "2890-118",
      "city": "ALCOCHETE",
      "lon": "-8.950239687202432",
      "lat": "38.755217943053815"
    },
    {
      "id": "pt.ine.add.PTCONT.4839596",
      "street": "R JOSE SARAMAGO",
      "house": "301",
      "postcode": "2890-117",
      "city": "ALCOCHETE",
      "lon": "-8.950608682713728",
      "lat": "38.75420867509434"
    },
    {
      "id": "pt.ine.add.PTCONT.4848867",
      "street": "R FERNANDO PESSOA",
      "house": "",
      "postcode": "2890-118",
      "city": "ALCOCHETE",
      "lon": "-8.951674219889762",
      "lat": "38.75282300394391"
    },
    {
      "id": "pt.ine.add.PTCONT.4870589",
      "street": "AV CANTO DO PINHEIRO",
      "house": "",
      "postcode": "2890-152",
      "city": "ALCOCHETE",
      "lon": "-8.946986421250557",
      "lat": "38.75332415231132"
    },
    {
      "id": "pt.ine.add.PTCONT.4882309",
      "street": "R JOSE SARAMAGO",
      "house": "307",
      "postcode": "2890-117",
      "city": "ALCOCHETE",
      "lon": "-8.950420059215464",
      "lat": "38.75418585655369"
    },
    {
      "id": "pt.ine.add.PTCONT.4887674",
      "street": "R FERNANDO PESSOA",
      "house": "",
      "postcode": "2890-118",
      "city": "ALCOCHETE",
      "lon": "-8.951108541388603",
      "lat": "38.75365569403811"
    },
    {
      "id": "pt.ine.add.PTCONT.4889601",
      "street": "R JOSE CARDOSO PIRES",
      "house": "",
      "postcode": "2890-119",
      "city": "ALCOCHETE",
      "lon": "-8.95113801228755",
      "lat": "38.75321409905465"
    },
    {
      "id": "pt.ine.add.PTCONT.4909608",
      "street": "R GOIABAS",
      "house": "",
      "postcode": "2890-556",
      "city": "ALCOCHETE",
      "lon": "-8.94818744481696",
      "lat": "38.749685584376316"
    },
    {
      "id": "pt.ine.add.PTCONT.4913094",
      "street": "R FERNANDO PESSOA",
      "house": "67",
      "postcode": "2890-118",
      "city": "ALCOCHETE",
      "lon": "-8.950515321400415",
      "lat": "38.754700019826544"
    },
    {
      "id": "pt.ine.add.PTCONT.4913194",
      "street": "R JOSE SARAMAGO",
      "house": "",
      "postcode": "2890-117",
      "city": "ALCOCHETE",
      "lon": "-8.950707585194056",
      "lat": "38.7538026263431"
    },
    {
      "id": "pt.ine.add.PTCONT.4923935",
      "street": "R FERNANDO PESSOA",
      "house": "59",
      "postcode": "2890-118",
      "city": "ALCOCHETE",
      "lon": "-8.950457919522435",
      "lat": "38.754810717064174"
    },
    {
      "id": "pt.ine.add.PTCONT.4923936",
      "street": "AV CANTO PINHEIRO",
      "house": "VIVENDA",
      "postcode": "2890-121",
      "city": "ALCOCHETE",
      "lon": "-8.947634776449103",
      "lat": "38.753688961253296"
    },
    {
      "id": "pt.ine.add.PTCONT.4931383",
      "street": "LAGOA DO LAPARO",
      "house": "",
      "postcode": "2890-110",
      "city": "ALCOCHETE",
      "lon": "-8.946932425417861",
      "lat": "38.750595123201236"
    },
    {
      "id": "pt.ine.add.PTCONT.4933623",
      "street": "R FERNANDO PESSOA",
      "house": "",
      "postcode": "2890-118",
      "city": "ALCOCHETE",
      "lon": "-8.95111953021235",
      "lat": "38.75361057746824"
    },
    {
      "id": "pt.ine.add.PTCONT.4949947",
      "street": "AV CANTO DO PINHEIRO",
      "house": "",
      "postcode": "2890-121",
      "city": "ALCOCHETE",
      "lon": "-8.94907653309937",
      "lat": "38.75402120665607"
    },
    {
      "id": "pt.ine.add.PTCONT.4949948",
      "street": "AV CANTO DO PINHEIRO",
      "house": "",
      "postcode": "2890-121",
      "city": "ALCOCHETE",
      "lon": "-8.94907653309937",
      "lat": "38.75402120665607"
    },
    {
      "id": "pt.ine.add.PTCONT.4949949",
      "street": "AV CANTO DO PINHEIRO",
      "house": "",
      "postcode": "2890-121",
      "city": "ALCOCHETE",
      "lon": "-8.94907653309937",
      "lat": "38.75402120665607"
    },
    {
      "id": "pt.ine.add.PTCONT.4949950",
      "street": "AV CANTO DO PINHEIRO",
      "house": "",
      "postcode": "2890-121",
      "city": "ALCOCHETE",
      "lon": "-8.94907653309937",
      "lat": "38.75402120665607"
    },
    {
      "id": "pt.ine.add.PTCONT.4949951",
      "street": "AV CANTO DO PINHEIRO",
      "house": "",
      "postcode": "2890-121",
      "city": "ALCOCHETE",
      "lon": "-8.94907653309937",
      "lat": "38.75402120665607"
    },
    {
      "id": "pt.ine.add.PTCONT.4952580",
      "street": "AV CANTO DO PINHEIRO",
      "house": "",
      "postcode": "2890-121",
      "city": "ALCOCHETE",
      "lon": "-8.94907653309937",
      "lat": "38.75402120665607"
    },
    {
      "id": "pt.ine.add.PTCONT.4953671",
      "street": "AV CANTO DO PINHEIRO",
      "house": "",
      "postcode": "2890-121",
      "city": "ALCOCHETE",
      "lon": "-8.948838764935665",
      "lat": "38.75435615981886"
    },
    {
      "id": "pt.ine.add.PTCONT.4956595",
      "street": "AV CANTO DO PINHEIRO",
      "house": "",
      "postcode": "2890-121",
      "city": "ALCOCHETE",
      "lon": "-8.947666111492605",
      "lat": "38.7534094969059"
    },
    {
      "id": "pt.ine.add.PTCONT.4961013",
      "street": "AV CANTO DO PINHEIRO",
      "house": "360",
      "postcode": "2890-121",
      "city": "ALCOCHETE",
      "lon": "-8.949952575819875",
      "lat": "38.75509920220484"
    },
    {
      "id": "pt.ine.add.PTCONT.4961014",
      "street": "R FERNANDO PESSOA",
      "house": "93",
      "postcode": "2890-118",
      "city": "ALCOCHETE",
      "lon": "-8.950645326413483",
      "lat": "38.75450327543744"
    },
    {
      "id": "pt.ine.add.PTCONT.4961127",
      "street": "R JOSE CARDOSO PIRES",
      "house": "",
      "postcode": "2890-119",
      "city": "ALCOCHETE",
      "lon": "-8.951068892722443",
      "lat": "38.75320557484493"
    },
    {
      "id": "pt.ine.add.PTCONT.4990025",
      "street": "R JOSE CARDOSO PIRES",
      "house": "",
      "postcode": "2890-119",
      "city": "ALCOCHETE",
      "lon": "-8.951207337503908",
      "lat": "38.75324063765109"
    },
    {
      "id": "pt.ine.add.PTCONT.4995799",
      "street": "R FERNANDO PESSOA",
      "house": "",
      "postcode": "2890-118",
      "city": "ALCOCHETE",
      "lon": "-8.950775921804613",
      "lat": "38.75431195675144"
    },
    {
      "id": "pt.ine.add.PTCONT.5001133",
      "street": "R JOSE SARAMAGO",
      "house": "",
      "postcode": "2890-117",
      "city": "ALCOCHETE",
      "lon": "-8.950638362358418",
      "lat": "38.75378509467097"
    },
    {
      "id": "pt.ine.add.PTCONT.5004231",
      "street": "R FERNANDO PESSOA",
      "house": "",
      "postcode": "2890-118",
      "city": "ALCOCHETE",
      "lon": "-8.951707699288177",
      "lat": "38.752732690135524"
    },
    {
      "id": "pt.ine.add.PTCONT.5023246",
      "street": "AV CANTO DO PINHEIRO QTA DO TEJO",
      "house": "",
      "postcode": "2890-152",
      "city": "ALCOCHETE",
      "lon": "-8.947615391289453",
      "lat": "38.75299548533662"
    },
    {
      "id": "pt.ine.add.PTCONT.5023247",
      "street": "R JOSE CARDOSO PIRES",
      "house": "",
      "postcode": "2890-119",
      "city": "ALCOCHETE",
      "lon": "-8.95078039801195",
      "lat": "38.753126521989905"
    },
    {
      "id": "pt.ine.add.PTCONT.5031002",
      "street": "R JOSE CARDOSO PIRES",
      "house": "252",
      "postcode": "2890-119",
      "city": "ALCOCHETE",
      "lon": "-8.951190899573787",
      "lat": "38.7528083718782"
    },
    {
      "id": "pt.ine.add.PTCONT.5037769",
      "street": "AV CANTO DO PINHEIRO",
      "house": "",
      "postcode": "2890-121",
      "city": "ALCOCHETE",
      "lon": "-8.94956509468006",
      "lat": "38.75449521539316"
    },
    {
      "id": "pt.ine.add.PTCONT.5037770",
      "street": "AV CANTO PINHEIRO",
      "house": "7",
      "postcode": "2890-121",
      "city": "ALCOCHETE",
      "lon": "-8.94956509468006",
      "lat": "38.75449521539316"
    },
    {
      "id": "pt.ine.add.PTCONT.5045051",
      "street": "AV CANTO DO PINHEIRO",
      "house": "",
      "postcode": "2890-121",
      "city": "ALCOCHETE",
      "lon": "-8.947750829100908",
      "lat": "38.75377823180319"
    },
    {
      "id": "pt.ine.add.PTCONT.5052697",
      "street": "AV CANTO DO PINHEIRO",
      "house": "",
      "postcode": "2890-121",
      "city": "ALCOCHETE",
      "lon": "-8.949453450512967",
      "lat": "38.75479325696875"
    },
    {
      "id": "pt.ine.add.PTCONT.5052711",
      "street": "R JOSE SARAMAGO",
      "house": "",
      "postcode": "2890-117",
      "city": "ALCOCHETE",
      "lon": "-8.950812344443476",
      "lat": "38.753909988697714"
    },
    {
      "id": "pt.ine.add.PTCONT.5056245",
      "street": "AV CANTO DO PINHEIRO",
      "house": "",
      "postcode": "2890-121",
      "city": "ALCOCHETE",
      "lon": "-8.94893983090849",
      "lat": "38.754139264036446"
    },
    {
      "id": "pt.ine.add.PTCONT.5056246",
      "street": "AV CANTO PINHEIRO",
      "house": "2700115",
      "postcode": "2890-121",
      "city": "ALCOCHETE",
      "lon": "-8.94893983090849",
      "lat": "38.754139264036446"
    },
    {
      "id": "pt.ine.add.PTCONT.5070517",
      "street": "AV CANTO DO PINHEIRO",
      "house": "",
      "postcode": "2890-121",
      "city": "ALCOCHETE",
      "lon": "-8.947633343266979",
      "lat": "38.7535628601551"
    },
    {
      "id": "pt.ine.add.PTCONT.5073419",
      "street": "AV CANTO DO PINHEIRO",
      "house": "",
      "postcode": "2890-121",
      "city": "ALCOCHETE",
      "lon": "-8.947633343266979",
      "lat": "38.7535628601551"
    },
    {
      "id": "pt.ine.add.PTCONT.5074780",
      "street": "EN 119",
      "house": "",
      "postcode": "2890-498",
      "city": "ALCOCHETE",
      "lon": "-8.948642804204667",
      "lat": "38.75432149554122"
    },
    {
      "id": "pt.ine.add.PTCONT.5074781",
      "street": "R JOSE CARDOSO PIRES",
      "house": "",
      "postcode": "2890-119",
      "city": "ALCOCHETE",
      "lon": "-8.950999567590046",
      "lat": "38.753179036165264"
    },
    {
      "id": "pt.ine.add.PTCONT.5077850",
      "street": "AV CANTO DO PINHEIRO",
      "house": "",
      "postcode": "2890-121",
      "city": "ALCOCHETE",
      "lon": "-8.94951846700262",
      "lat": "38.754441493495804"
    },
    {
      "id": "pt.ine.add.PTCONT.5088381",
      "street": "R FERNANDO PESSOA",
      "house": "",
      "postcode": "2890-118",
      "city": "ALCOCHETE",
      "lon": "-8.951052980265484",
      "lat": "38.7538272335895"
    },
    {
      "id": "pt.ine.add.PTCONT.5092007",
      "street": "R ABACATES",
      "house": "19",
      "postcode": "2890-565",
      "city": "ALCOCHETE",
      "lon": "-8.94830441354022",
      "lat": "38.74985591953226"
    },
    {
      "id": "pt.ine.add.PTCONT.5092044",
      "street": "R JOSE SARAMAGO",
      "house": "325",
      "postcode": "2890-117",
      "city": "ALCOCHETE",
      "lon": "-8.950127208255811",
      "lat": "38.75407926199332"
    },
    {
      "id": "pt.ine.add.PTCONT.5102500",
      "street": "AV CANTO DO PINHEIRO",
      "house": "348",
      "postcode": "2890-121",
      "city": "ALCOCHETE",
      "lon": "-8.950093949568998",
      "lat": "38.755159826560224"
    },
    {
      "id": "pt.ine.add.PTCONT.5102562",
      "street": "R JOSE SARAMAGO",
      "house": "",
      "postcode": "2890-117",
      "city": "ALCOCHETE",
      "lon": "-8.950557739409625",
      "lat": "38.75377665062052"
    },
    {
      "id": "pt.ine.add.PTCONT.5109311",
      "street": "R GOIABAS",
      "house": "",
      "postcode": "2890-556",
      "city": "ALCOCHETE",
      "lon": "-8.948209527437557",
      "lat": "38.74960435892325"
    },
    {
      "id": "pt.ine.add.PTCONT.5113768",
      "street": "R JOSE SARAMAGO",
      "house": "319",
      "postcode": "2890-117",
      "city": "ALCOCHETE",
      "lon": "-8.95024882458041",
      "lat": "38.75412475583708"
    },
    {
      "id": "pt.ine.add.PTCONT.5121015",
      "street": "R JOSE SARAMAGO",
      "house": "",
      "postcode": "2890-117",
      "city": "ALCOCHETE",
      "lon": "-8.950418985730542",
      "lat": "38.7537145654112"
    },
    {
      "id": "pt.ine.add.PTCONT.5124379",
      "street": "AV CANTO DO PINHEIRO",
      "house": "",
      "postcode": "2890-121",
      "city": "ALCOCHETE",
      "lon": "-8.949269093930948",
      "lat": "38.7547675206341"
    },
    {
      "id": "pt.ine.add.PTCONT.5128622",
      "street": "R JOSE CARDOSO PIRES",
      "house": "40",
      "postcode": "2890-119",
      "city": "ALCOCHETE",
      "lon": "-8.95134105204186",
      "lat": "38.752861368455385"
    }
  ]
}