{
  "data": {
    "distrito": "Leiria",
    "concelho": "Alcobaça",
    "freguesia": "União das freguesias de Pataias e Martingança",
    "OBJECTID": 54,
    "BGRI2021": "10012300819",
    "DT21": "10",
    "DTMN21": "1001",
    "DTMNFR21": "100123",
    "DTMNFRSEC21": "100123008",
    "SECNUM21": "008",
    "SSNUM21": "19",
    "SECSSNUM21": "00819",
    "OBJECTID_1": 84185,
    "DT": "10",
    "CC": "01",
    "fr": "23",
    "SEC": "008",
    "SS": "19"
  },
  "addresses": [
    {
      "id": "pt.ine.add.PTCONT.1988461",
      "street": "R RAINHA STA ISABEL",
      "house": "50",
      "postcode": "2445-047",
      "city": "PATAIAS",
      "lon": "-8.979220138205855",
      "lat": "39.69755465903011"
    },
    {
      "id": "pt.ine.add.PTCONT.1988703",
      "street": "R RAINHA STA ISABEL",
      "house": "32",
      "postcode": "2445-047",
      "city": "PATAIAS",
      "lon": "-8.978674423685804",
      "lat": "39.69678407646568"
    },
    {
      "id": "pt.ine.add.PTCONT.1999229",
      "street": "R CALHANDRA",
      "house": "14",
      "postcode": "2445-024",
      "city": "PATAIAS",
      "lon": "-8.979072321117942",
      "lat": "39.69881664414977"
    },
    {
      "id": "pt.ine.add.PTCONT.2008240",
      "street": "R CALHANDRA",
      "house": "4 A",
      "postcode": "2445-024",
      "city": "PATAIAS",
      "lon": "-8.979221567016767",
      "lat": "39.6986264204763"
    },
    {
      "id": "pt.ine.add.PTCONT.2008451",
      "street": "R RAINHA STA ISABEL",
      "house": "14",
      "postcode": "2445-047",
      "city": "PATAIAS",
      "lon": "-8.977927137856703",
      "lat": "39.69573575678539"
    },
    {
      "id": "pt.ine.add.PTCONT.2012507",
      "street": "R RAINHA STA ISABEL",
      "house": "30",
      "postcode": "2445-047",
      "city": "PATAIAS",
      "lon": "-8.978580392359591",
      "lat": "39.696721715777585"
    },
    {
      "id": "pt.ine.add.PTCONT.2059357",
      "street": "R RAINHA STA ISABEL",
      "house": "54",
      "postcode": "2445-047",
      "city": "PATAIAS",
      "lon": "-8.979303393193986",
      "lat": "39.697689149616664"
    },
    {
      "id": "pt.ine.add.PTCONT.2065220",
      "street": "R RAINHA STA ISABEL",
      "house": "60",
      "postcode": "2445-047",
      "city": "PATAIAS",
      "lon": "-8.979577026184161",
      "lat": "39.69813747942334"
    },
    {
      "id": "pt.ine.add.PTCONT.2065664",
      "street": "R RAINHA STA ISABEL",
      "house": "20",
      "postcode": "2445-047",
      "city": "PATAIAS",
      "lon": "-8.978236386087577",
      "lat": "39.696237869754185"
    },
    {
      "id": "pt.ine.add.PTCONT.2067237",
      "street": "R CALHANDRA",
      "house": "26",
      "postcode": "2445-024",
      "city": "PATAIAS",
      "lon": "-8.977858230716775",
      "lat": "39.69869038622981"
    },
    {
      "id": "pt.ine.add.PTCONT.2095917",
      "street": "R RAINHA STA ISABEL",
      "house": "26",
      "postcode": "2445-047",
      "city": "PATAIAS",
      "lon": "-8.978403218923305",
      "lat": "39.69653386947397"
    },
    {
      "id": "pt.ine.add.PTCONT.2101748",
      "street": "R PINHAL DO REI",
      "house": "24",
      "postcode": "2445-329",
      "city": "PATAIAS",
      "lon": "-8.974610648413384",
      "lat": "39.69400387442949"
    },
    {
      "id": "pt.ine.add.PTCONT.2117454",
      "street": "R RAINHA STA ISABEL",
      "house": "10 B",
      "postcode": "2445-047",
      "city": "PATAIAS",
      "lon": "-8.97771334955166",
      "lat": "39.695413078419904"
    },
    {
      "id": "pt.ine.add.PTCONT.2120434",
      "street": "R RAINHA S ISABEL",
      "house": "62",
      "postcode": "2445-047",
      "city": "PATAIAS",
      "lon": "-8.979461766323386",
      "lat": "39.698246397464175"
    },
    {
      "id": "pt.ine.add.PTCONT.2122313",
      "street": "R RAINHA STA ISABEL",
      "house": "64-66",
      "postcode": "2445-047",
      "city": "PATAIAS",
      "lon": "-8.979649834893236",
      "lat": "39.69837111724088"
    },
    {
      "id": "pt.ine.add.PTCONT.2130550",
      "street": "R RAINHA STA ISABEL",
      "house": "2",
      "postcode": "2445-047",
      "city": "PATAIAS",
      "lon": "-8.97704594004639",
      "lat": "39.69422006779513"
    },
    {
      "id": "pt.ine.add.PTCONT.2137336",
      "street": "R RAINHA STA ISABEL",
      "house": "28",
      "postcode": "2445-047",
      "city": "PATAIAS",
      "lon": "-8.978462935841057",
      "lat": "39.696650519073515"
    },
    {
      "id": "pt.ine.add.PTCONT.2146514",
      "street": "R RAINHA STA ISABEL",
      "house": "10 A",
      "postcode": "2445-047",
      "city": "PATAIAS",
      "lon": "-8.977700923657604",
      "lat": "39.695350123368485"
    },
    {
      "id": "pt.ine.add.PTCONT.2146517",
      "street": "R CALHANDRA",
      "house": "4",
      "postcode": "2445-024",
      "city": "PATAIAS",
      "lon": "-8.97946671659798",
      "lat": "39.69865165323028"
    },
    {
      "id": "pt.ine.add.PTCONT.2155152",
      "street": "R RAINHA STA ISABEL",
      "house": "40",
      "postcode": "2445-047",
      "city": "PATAIAS",
      "lon": "-8.97896938577251",
      "lat": "39.69707013569081"
    },
    {
      "id": "pt.ine.add.PTCONT.2161726",
      "street": "R RAINHA STA ISABEL",
      "house": "12 A",
      "postcode": "2445-047",
      "city": "PATAIAS",
      "lon": "-8.977737872099363",
      "lat": "39.695511971439245"
    },
    {
      "id": "pt.ine.add.PTCONT.2161727",
      "street": "R RAINHA STA ISABEL",
      "house": "16",
      "postcode": "2445-047",
      "city": "PATAIAS",
      "lon": "-8.977941869792273",
      "lat": "39.695987831320934"
    },
    {
      "id": "pt.ine.add.PTCONT.2187897",
      "street": "R RAINHA STA ISABEL",
      "house": "56",
      "postcode": "2445-047",
      "city": "PATAIAS",
      "lon": "-8.979374990569656",
      "lat": "39.69782372510579"
    },
    {
      "id": "pt.ine.add.PTCONT.2191930",
      "street": "R RAINHA STA ISABEL",
      "house": "68",
      "postcode": "2445-047",
      "city": "PATAIAS",
      "lon": "-8.979780934454151",
      "lat": "39.69860432996125"
    },
    {
      "id": "pt.ine.add.PTCONT.2207904",
      "street": "R DA CALHANDRA",
      "house": "20",
      "postcode": "2445-024",
      "city": "PATAIAS",
      "lon": "-8.978170632173718",
      "lat": "39.698832429282696"
    },
    {
      "id": "pt.ine.add.PTCONT.2208260",
      "street": "R RAINHA STA ISABEL",
      "house": "46",
      "postcode": "2445-047",
      "city": "PATAIAS",
      "lon": "-8.979111918458026",
      "lat": "39.697285252968896"
    },
    {
      "id": "pt.ine.add.PTCONT.2210432",
      "street": "R CALHANDRA",
      "house": "18",
      "postcode": "2445-024",
      "city": "PATAIAS",
      "lon": "-8.97817475655336",
      "lat": "39.69883218671185"
    },
    {
      "id": "pt.ine.add.PTCONT.2227767",
      "street": "R RAINHA STA ISABEL",
      "house": "12 B",
      "postcode": "2445-047",
      "city": "PATAIAS",
      "lon": "-8.977762065398087",
      "lat": "39.69558384737475"
    },
    {
      "id": "pt.ine.add.PTCONT.2235789",
      "street": "R JOSE MARIA CUSTÓDIO",
      "house": "",
      "postcode": "2445-000",
      "city": "",
      "lon": "-8.975722159845022",
      "lat": "39.6965713696292"
    },
    {
      "id": "pt.ine.add.PTCONT.2250002",
      "street": "R CALHANDRA",
      "house": "14",
      "postcode": "2445-024",
      "city": "PATAIAS",
      "lon": "-8.978862695038218",
      "lat": "39.69883618424108"
    },
    {
      "id": "pt.ine.add.PTCONT.2264705",
      "street": "R RAINHA STA ISABEL",
      "house": "34",
      "postcode": "2445-047",
      "city": "PATAIAS",
      "lon": "-8.978711704927617",
      "lat": "39.69697294121806"
    }
  ]
}