{
  "data": {
    "distrito": "Set√∫bal",
    "concelho": "Palmela",
    "freguesia": "Quinta do Anjo",
    "OBJECTID": 133,
    "BGRI2021": "15080400231",
    "DT21": "15",
    "DTMN21": "1508",
    "DTMNFR21": "150804",
    "DTMNFRSEC21": "150804002",
    "SECNUM21": "002",
    "SSNUM21": "31",
    "SECSSNUM21": "00231",
    "OBJECTID_1": 165444,
    "DT": "15",
    "CC": "08",
    "fr": "04",
    "SEC": "002",
    "SS": "31"
  },
  "addresses": [
    {
      "id": "pt.ine.add.PTCONT.4667544",
      "street": "",
      "house": "",
      "postcode": "2950-555",
      "city": "QUINTA DO ANJO",
      "lon": "-8.980768580718243",
      "lat": "38.62439552035379"
    },
    {
      "id": "pt.ine.add.PTCONT.4689594",
      "street": "",
      "house": "",
      "postcode": "2950-555",
      "city": "QUINTA DO ANJO",
      "lon": "-8.978400579311735",
      "lat": "38.623205565098615"
    },
    {
      "id": "pt.ine.add.PTCONT.4759037",
      "street": "",
      "house": "",
      "postcode": "2950-555",
      "city": "QUINTA DO ANJO",
      "lon": "-8.980497495814332",
      "lat": "38.62380294852829"
    },
    {
      "id": "pt.ine.add.PTCONT.4781330",
      "street": "",
      "house": "",
      "postcode": "2950-555",
      "city": "QUINTA DO ANJO",
      "lon": "-8.976271255536812",
      "lat": "38.62277953167048"
    },
    {
      "id": "pt.ine.add.PTCONT.4781331",
      "street": "",
      "house": "",
      "postcode": "2950-555",
      "city": "QUINTA DO ANJO",
      "lon": "-8.980316045118856",
      "lat": "38.623020556556426"
    },
    {
      "id": "pt.ine.add.PTCONT.4787129",
      "street": "",
      "house": "",
      "postcode": "2950-555",
      "city": "QUINTA DO ANJO",
      "lon": "-8.978677731971427",
      "lat": "38.623338684168566"
    },
    {
      "id": "pt.ine.add.PTCONT.4822731",
      "street": "",
      "house": "",
      "postcode": "2950-555",
      "city": "QUINTA DO ANJO",
      "lon": "-8.97946372830574",
      "lat": "38.62084676062306"
    },
    {
      "id": "pt.ine.add.PTCONT.4832765",
      "street": "",
      "house": "",
      "postcode": "2950-555",
      "city": "QUINTA DO ANJO",
      "lon": "-8.978032062083878",
      "lat": "38.62213626096984"
    },
    {
      "id": "pt.ine.add.PTCONT.4857905",
      "street": "",
      "house": "",
      "postcode": "2950-555",
      "city": "QUINTA DO ANJO",
      "lon": "-8.978423393149647",
      "lat": "38.622214507384136"
    },
    {
      "id": "pt.ine.add.PTCONT.4866345",
      "street": "",
      "house": "",
      "postcode": "2950-555",
      "city": "QUINTA DO ANJO",
      "lon": "-8.977378523142516",
      "lat": "38.621240166743405"
    },
    {
      "id": "pt.ine.add.PTCONT.4876631",
      "street": "",
      "house": "",
      "postcode": "2950-555",
      "city": "QUINTA DO ANJO",
      "lon": "-8.978735622029449",
      "lat": "38.62240142163421"
    },
    {
      "id": "pt.ine.add.PTCONT.4880079",
      "street": "",
      "house": "",
      "postcode": "2950-555",
      "city": "QUINTA DO ANJO",
      "lon": "-8.97922272586062",
      "lat": "38.62281227344654"
    },
    {
      "id": "pt.ine.add.PTCONT.4896667",
      "street": "PINHAL FORMAS",
      "house": "",
      "postcode": "2950-555",
      "city": "QUINTA DO ANJO",
      "lon": "-8.977632775699833",
      "lat": "38.620400576617435"
    },
    {
      "id": "pt.ine.add.PTCONT.4915118",
      "street": "",
      "house": "",
      "postcode": "2950-555",
      "city": "QUINTA DO ANJO",
      "lon": "-8.979080340549654",
      "lat": "38.62339883060382"
    },
    {
      "id": "pt.ine.add.PTCONT.4968898",
      "street": "PINHAL DAS FORMAS",
      "house": "30",
      "postcode": "2950-555",
      "city": "QUINTA DO ANJO",
      "lon": "-8.976789522077981",
      "lat": "38.6229109174156"
    },
    {
      "id": "pt.ine.add.PTCONT.4995374",
      "street": "PINHAL DAS FORMAS",
      "house": "28",
      "postcode": "2950-555",
      "city": "QUINTA DO ANJO",
      "lon": "-8.977687115566555",
      "lat": "38.62307559573073"
    },
    {
      "id": "pt.ine.add.PTCONT.5016449",
      "street": "",
      "house": "",
      "postcode": "2950-555",
      "city": "QUINTA DO ANJO",
      "lon": "-8.975888558922103",
      "lat": "38.6224579966673"
    },
    {
      "id": "pt.ine.add.PTCONT.5027728",
      "street": "PINHAL DAS FORMAS",
      "house": "LCTE 39",
      "postcode": "2950-555",
      "city": "QUINTA DO ANJO",
      "lon": "-8.976610962909701",
      "lat": "38.622371717760814"
    },
    {
      "id": "pt.ine.add.PTCONT.5042116",
      "street": "",
      "house": "",
      "postcode": "2950-555",
      "city": "QUINTA DO ANJO",
      "lon": "-8.97795450565199",
      "lat": "38.62139815527217"
    },
    {
      "id": "pt.ine.add.PTCONT.5049466",
      "street": "PINHAL DAS FORMAS",
      "house": "27 A",
      "postcode": "2950-555",
      "city": "QUINTA DO ANJO",
      "lon": "-8.97798744165358",
      "lat": "38.62322656539785"
    },
    {
      "id": "pt.ine.add.PTCONT.5057636",
      "street": "PINHAL FORMAS",
      "house": "",
      "postcode": "2950-555",
      "city": "QUINTA DO ANJO",
      "lon": "-8.978449757649512",
      "lat": "38.62054781485592"
    },
    {
      "id": "pt.ine.add.PTCONT.5113586",
      "street": "R EMIGRANTE",
      "house": "42",
      "postcode": "2950-555",
      "city": "QUINTA DO ANJO",
      "lon": "-8.979011450295486",
      "lat": "38.6214445672409"
    },
    {
      "id": "pt.ine.add.PTCONT.5131212",
      "street": "PINHAL DAS FORMAS",
      "house": "LCIE 41",
      "postcode": "2950-555",
      "city": "QUINTA DO ANJO",
      "lon": "-8.979315265333714",
      "lat": "38.621892776232"
    }
  ]
}