{
  "data": {
    "distrito": "Braga",
    "concelho": "Celorico de Basto",
    "freguesia": "Basto (São Clemente)",
    "OBJECTID": 440,
    "BGRI2021": "03052000106",
    "DT21": "03",
    "DTMN21": "0305",
    "DTMNFR21": "030520",
    "DTMNFRSEC21": "030520001",
    "SECNUM21": "001",
    "SSNUM21": "06",
    "SECSSNUM21": "00106",
    "OBJECTID_1": 24143,
    "DT": "03",
    "CC": "05",
    "fr": "20",
    "SEC": "001",
    "SS": "06"
  },
  "addresses": [
    {
      "id": "pt.ine.add.PTCONT.462670",
      "street": "",
      "house": "",
      "postcode": "4890-542",
      "city": "BASTO (SÃO CLEMENTE)",
      "lon": "-8.043932246350858",
      "lat": "41.455122606181895"
    },
    {
      "id": "pt.ine.add.PTCONT.468538",
      "street": "",
      "house": "",
      "postcode": "4890-542",
      "city": "BASTO (SÃO CLEMENTE)",
      "lon": "-8.03516860385592",
      "lat": "41.45699729795738"
    },
    {
      "id": "pt.ine.add.PTCONT.489532",
      "street": "",
      "house": "",
      "postcode": "4890-542",
      "city": "BASTO (SÃO CLEMENTE)",
      "lon": "-8.033744195252163",
      "lat": "41.45708611561243"
    },
    {
      "id": "pt.ine.add.PTCONT.492020",
      "street": "",
      "house": "",
      "postcode": "4890-542",
      "city": "BASTO (SÃO CLEMENTE)",
      "lon": "-8.051833645527978",
      "lat": "41.45328265582486"
    },
    {
      "id": "pt.ine.add.PTCONT.498360",
      "street": "",
      "house": "",
      "postcode": "4890-542",
      "city": "BASTO (SÃO CLEMENTE)",
      "lon": "-8.036820652652858",
      "lat": "41.456746582909446"
    },
    {
      "id": "pt.ine.add.PTCONT.504245",
      "street": "",
      "house": "",
      "postcode": "4890-542",
      "city": "BASTO (SÃO CLEMENTE)",
      "lon": "-8.052274270211097",
      "lat": "41.455047735022816"
    },
    {
      "id": "pt.ine.add.PTCONT.513927",
      "street": "",
      "house": "",
      "postcode": "4890-542",
      "city": "BASTO (SÃO CLEMENTE)",
      "lon": "-8.048969596476132",
      "lat": "41.45614384369031"
    },
    {
      "id": "pt.ine.add.PTCONT.528361",
      "street": "R FORNADEIROS",
      "house": "",
      "postcode": "4890-542",
      "city": "BASTO (SÃO CLEMENTE)",
      "lon": "-8.04019599655168",
      "lat": "41.45661429981007"
    },
    {
      "id": "pt.ine.add.PTCONT.537207",
      "street": "",
      "house": "",
      "postcode": "4890-542",
      "city": "BASTO (SÃO CLEMENTE)",
      "lon": "-8.038615344622881",
      "lat": "41.45716225127892"
    },
    {
      "id": "pt.ine.add.PTCONT.537208",
      "street": "",
      "house": "",
      "postcode": "4890-542",
      "city": "BASTO (SÃO CLEMENTE)",
      "lon": "-8.04626424417144",
      "lat": "41.45649298601874"
    },
    {
      "id": "pt.ine.add.PTCONT.545988",
      "street": "",
      "house": "",
      "postcode": "4890-542",
      "city": "BASTO (SÃO CLEMENTE)",
      "lon": "-8.041443240692043",
      "lat": "41.454832524364626"
    },
    {
      "id": "pt.ine.add.PTCONT.546003",
      "street": "",
      "house": "",
      "postcode": "4890-542",
      "city": "BASTO (SÃO CLEMENTE)",
      "lon": "-8.0516985415288",
      "lat": "41.45604676415413"
    },
    {
      "id": "pt.ine.add.PTCONT.550506",
      "street": "",
      "house": "",
      "postcode": "4890-542",
      "city": "BASTO (SÃO CLEMENTE)",
      "lon": "-8.032832828074467",
      "lat": "41.45821981823407"
    },
    {
      "id": "pt.ine.add.PTCONT.560932",
      "street": "",
      "house": "",
      "postcode": "4890-542",
      "city": "BASTO (SÃO CLEMENTE)",
      "lon": "-8.038510399866949",
      "lat": "41.45525333429803"
    },
    {
      "id": "pt.ine.add.PTCONT.569075",
      "street": "R ESTRADA VELHA",
      "house": "",
      "postcode": "4890-542",
      "city": "BASTO (SÃO CLEMENTE)",
      "lon": "-8.049042093483921",
      "lat": "41.45561266544803"
    },
    {
      "id": "pt.ine.add.PTCONT.572966",
      "street": "",
      "house": "",
      "postcode": "4890-542",
      "city": "BASTO (SÃO CLEMENTE)",
      "lon": "-8.037107939371143",
      "lat": "41.45671981125872"
    },
    {
      "id": "pt.ine.add.PTCONT.604428",
      "street": "OLEIROS",
      "house": "1",
      "postcode": "4890-542",
      "city": "BASTO (SÃO CLEMENTE)",
      "lon": "-8.0444081702706",
      "lat": "41.45718487153291"
    },
    {
      "id": "pt.ine.add.PTCONT.604429",
      "street": "OLEIROS",
      "house": "1",
      "postcode": "4890-542",
      "city": "BASTO (SÃO CLEMENTE)",
      "lon": "-8.0444081702706",
      "lat": "41.45718487153291"
    },
    {
      "id": "pt.ine.add.PTCONT.604430",
      "street": "OLEIROS",
      "house": "1",
      "postcode": "4890-542",
      "city": "BASTO (SÃO CLEMENTE)",
      "lon": "-8.0444081702706",
      "lat": "41.45718487153291"
    },
    {
      "id": "pt.ine.add.PTCONT.604431",
      "street": "OLEIROS",
      "house": "1",
      "postcode": "4890-542",
      "city": "BASTO (SÃO CLEMENTE)",
      "lon": "-8.0444081702706",
      "lat": "41.45718487153291"
    },
    {
      "id": "pt.ine.add.PTCONT.604438",
      "street": "",
      "house": "",
      "postcode": "4890-542",
      "city": "BASTO (SÃO CLEMENTE)",
      "lon": "-8.050071813631503",
      "lat": "41.45527126435942"
    },
    {
      "id": "pt.ine.add.PTCONT.625058",
      "street": "",
      "house": "",
      "postcode": "4890-542",
      "city": "BASTO (SÃO CLEMENTE)",
      "lon": "-8.040593224866052",
      "lat": "41.45502092624989"
    },
    {
      "id": "pt.ine.add.PTCONT.639865",
      "street": "",
      "house": "",
      "postcode": "4890-542",
      "city": "BASTO (SÃO CLEMENTE)",
      "lon": "-8.049163217139412",
      "lat": "41.454496267733035"
    },
    {
      "id": "pt.ine.add.PTCONT.644082",
      "street": "R FORNADEIROS",
      "house": "",
      "postcode": "4890-542",
      "city": "BASTO (SÃO CLEMENTE)",
      "lon": "-8.040554657669386",
      "lat": "41.45689371037935"
    },
    {
      "id": "pt.ine.add.PTCONT.645630",
      "street": "ESTR VELHA",
      "house": "",
      "postcode": "4890-542",
      "city": "BASTO (SÃO CLEMENTE)",
      "lon": "-8.043597455116029",
      "lat": "41.45488824423519"
    },
    {
      "id": "pt.ine.add.PTCONT.645639",
      "street": "",
      "house": "",
      "postcode": "4890-542",
      "city": "BASTO (SÃO CLEMENTE)",
      "lon": "-8.050311924944998",
      "lat": "41.45468618257031"
    },
    {
      "id": "pt.ine.add.PTCONT.654250",
      "street": "TV OLEIROS",
      "house": "",
      "postcode": "4890-542",
      "city": "BASTO (SÃO CLEMENTE)",
      "lon": "-8.044791608492684",
      "lat": "41.45686102551612"
    },
    {
      "id": "pt.ine.add.PTCONT.660343",
      "street": "OLEIROS",
      "house": "2",
      "postcode": "4890-542",
      "city": "BASTO (SÃO CLEMENTE)",
      "lon": "-8.04414492031506",
      "lat": "41.45713964866626"
    },
    {
      "id": "pt.ine.add.PTCONT.660344",
      "street": "OLEIROS",
      "house": "2",
      "postcode": "4890-542",
      "city": "BASTO (SÃO CLEMENTE)",
      "lon": "-8.04414492031506",
      "lat": "41.45713964866626"
    },
    {
      "id": "pt.ine.add.PTCONT.661607",
      "street": "OLEIROS",
      "house": "2",
      "postcode": "4890-542",
      "city": "BASTO (SÃO CLEMENTE)",
      "lon": "-8.04414492031506",
      "lat": "41.45713964866626"
    },
    {
      "id": "pt.ine.add.PTCONT.661722",
      "street": "OLEIROS",
      "house": "2",
      "postcode": "4890-542",
      "city": "BASTO (SÃO CLEMENTE)",
      "lon": "-8.04414492031506",
      "lat": "41.45713964866626"
    },
    {
      "id": "pt.ine.add.PTCONT.666228",
      "street": "",
      "house": "",
      "postcode": "4890-542",
      "city": "BASTO (SÃO CLEMENTE)",
      "lon": "-8.032988589805523",
      "lat": "41.45811190691928"
    },
    {
      "id": "pt.ine.add.PTCONT.674865",
      "street": "",
      "house": "",
      "postcode": "4890-542",
      "city": "BASTO (SÃO CLEMENTE)",
      "lon": "-8.051093841723535",
      "lat": "41.45152636542601"
    },
    {
      "id": "pt.ine.add.PTCONT.674854",
      "street": "TV OLEIROS",
      "house": "",
      "postcode": "4890-542",
      "city": "BASTO (SÃO CLEMENTE)",
      "lon": "-8.04485156156466",
      "lat": "41.45678003626753"
    },
    {
      "id": "pt.ine.add.PTCONT.678250",
      "street": "R 19 ABRIL",
      "house": "",
      "postcode": "4890-542",
      "city": "BASTO (SÃO CLEMENTE)",
      "lon": "-8.032928634613565",
      "lat": "41.45818388604572"
    },
    {
      "id": "pt.ine.add.PTCONT.685528",
      "street": "",
      "house": "",
      "postcode": "4890-542",
      "city": "BASTO (SÃO CLEMENTE)",
      "lon": "-8.049425534127517",
      "lat": "41.45526179213073"
    },
    {
      "id": "pt.ine.add.PTCONT.698722",
      "street": "",
      "house": "",
      "postcode": "4890-542",
      "city": "BASTO (SÃO CLEMENTE)",
      "lon": "-8.051405181782071",
      "lat": "41.451382524142154"
    },
    {
      "id": "pt.ine.add.PTCONT.706098",
      "street": "",
      "house": "",
      "postcode": "4890-542",
      "city": "BASTO (SÃO CLEMENTE)",
      "lon": "-8.050048991089943",
      "lat": "41.454397867541736"
    },
    {
      "id": "pt.ine.add.PTCONT.710593",
      "street": "",
      "house": "",
      "postcode": "4890-542",
      "city": "BASTO (SÃO CLEMENTE)",
      "lon": "-8.03352769853659",
      "lat": "41.457779229976104"
    },
    {
      "id": "pt.ine.add.PTCONT.732837",
      "street": "",
      "house": "",
      "postcode": "4890-542",
      "city": "BASTO (SÃO CLEMENTE)",
      "lon": "-8.035851396186693",
      "lat": "41.45661070878601"
    },
    {
      "id": "pt.ine.add.PTCONT.734485",
      "street": "ESTR VELHA",
      "house": "",
      "postcode": "4890-542",
      "city": "BASTO (SÃO CLEMENTE)",
      "lon": "-8.041694624929365",
      "lat": "41.454796708714"
    },
    {
      "id": "pt.ine.add.PTCONT.758363",
      "street": "",
      "house": "",
      "postcode": "4890-542",
      "city": "BASTO (SÃO CLEMENTE)",
      "lon": "-8.043775509220897",
      "lat": "41.455959849112425"
    },
    {
      "id": "pt.ine.add.PTCONT.753163",
      "street": "",
      "house": "",
      "postcode": "4890-542",
      "city": "BASTO (SÃO CLEMENTE)",
      "lon": "-8.049761016806855",
      "lat": "41.45497391022295"
    },
    {
      "id": "pt.ine.add.PTCONT.753164",
      "street": "",
      "house": "",
      "postcode": "4890-542",
      "city": "BASTO (SÃO CLEMENTE)",
      "lon": "-8.049761016806855",
      "lat": "41.45497391022295"
    },
    {
      "id": "pt.ine.add.PTCONT.755624",
      "street": "",
      "house": "",
      "postcode": "4890-542",
      "city": "BASTO (SÃO CLEMENTE)",
      "lon": "-8.03831469819322",
      "lat": "41.45814343080573"
    },
    {
      "id": "pt.ine.add.PTCONT.758374",
      "street": "",
      "house": "",
      "postcode": "4890-542",
      "city": "BASTO (SÃO CLEMENTE)",
      "lon": "-8.051554806787548",
      "lat": "41.4561367015381"
    },
    {
      "id": "pt.ine.add.PTCONT.767541",
      "street": "",
      "house": "",
      "postcode": "4890-542",
      "city": "BASTO (SÃO CLEMENTE)",
      "lon": "-8.049545598987716",
      "lat": "41.45496475002724"
    },
    {
      "id": "pt.ine.add.PTCONT.770502",
      "street": "",
      "house": "",
      "postcode": "4890-542",
      "city": "BASTO (SÃO CLEMENTE)",
      "lon": "-8.03310843063955",
      "lat": "41.458012968087225"
    },
    {
      "id": "pt.ine.add.PTCONT.812863",
      "street": "",
      "house": "",
      "postcode": "4890-542",
      "city": "BASTO (SÃO CLEMENTE)",
      "lon": "-8.033923821496922",
      "lat": "41.45702324320516"
    },
    {
      "id": "pt.ine.add.PTCONT.825137",
      "street": "",
      "house": "",
      "postcode": "4890-542",
      "city": "BASTO (SÃO CLEMENTE)",
      "lon": "-8.04391858824102",
      "lat": "41.456356132557794"
    }
  ]
}