{
  "data": {
    "distrito": "Porto",
    "concelho": "Lousada",
    "freguesia": "União das freguesias de Nespereira e Casais",
    "OBJECTID": 290,
    "BGRI2021": "13053100113",
    "DT21": "13",
    "DTMN21": "1305",
    "DTMNFR21": "130531",
    "DTMNFRSEC21": "130531001",
    "SECNUM21": "001",
    "SSNUM21": "13",
    "SECSSNUM21": "00113",
    "OBJECTID_1": 130052,
    "DT": "13",
    "CC": "05",
    "fr": "31",
    "SEC": "001",
    "SS": "13"
  },
  "addresses": [
    {
      "id": "pt.ine.add.PTCONT.3656084",
      "street": "R CHAMUSCA",
      "house": "40",
      "postcode": "4620-402",
      "city": "NESPEREIRA LSD",
      "lon": "-8.295230324094595",
      "lat": "41.257223458222256"
    },
    {
      "id": "pt.ine.add.PTCONT.3688571",
      "street": "R CHAMUSCA",
      "house": "90",
      "postcode": "4620-402",
      "city": "NESPEREIRA LSD",
      "lon": "-8.294383411132806",
      "lat": "41.25733269835245"
    },
    {
      "id": "pt.ine.add.PTCONT.3734856",
      "street": "R CHAMUSCA",
      "house": "64",
      "postcode": "4620-402",
      "city": "NESPEREIRA LSD",
      "lon": "-8.294609633370653",
      "lat": "41.25713428824757"
    },
    {
      "id": "pt.ine.add.PTCONT.3742971",
      "street": "R DR AFONSO QUINTELA",
      "house": "175",
      "postcode": "4620-914",
      "city": "NESPEREIRA LSD",
      "lon": "-8.293511639774328",
      "lat": "41.25703677663673"
    },
    {
      "id": "pt.ine.add.PTCONT.3889372",
      "street": "R CRUZEIRO",
      "house": "729",
      "postcode": "4620-404",
      "city": "NESPEREIRA LSD",
      "lon": "-8.293671368168802",
      "lat": "41.25404714950296"
    },
    {
      "id": "pt.ine.add.PTCONT.3902516",
      "street": "R CHAMUSCA",
      "house": "80",
      "postcode": "4620-402",
      "city": "NESPEREIRA LSD",
      "lon": "-8.294466736499976",
      "lat": "41.25725154355851"
    },
    {
      "id": "pt.ine.add.PTCONT.3958334",
      "street": "R OUTEIRO",
      "house": "130",
      "postcode": "4620-402",
      "city": "NESPEREIRA LSD",
      "lon": "-8.295527979601758",
      "lat": "41.256961916109105"
    },
    {
      "id": "pt.ine.add.PTCONT.4031426",
      "street": "R CHAMUSCA",
      "house": "62",
      "postcode": "4620-402",
      "city": "NESPEREIRA LSD",
      "lon": "-8.294848319366857",
      "lat": "41.25715196165599"
    },
    {
      "id": "pt.ine.add.PTCONT.4051072",
      "street": "R CRUZEIRO",
      "house": "657",
      "postcode": "4620-404",
      "city": "NESPEREIRA LSD",
      "lon": "-8.293527176667977",
      "lat": "41.25363315576693"
    },
    {
      "id": "pt.ine.add.PTCONT.4077347",
      "street": "R D ANTÓNIO DE CASTRO MEIRELES",
      "house": "10",
      "postcode": "4620-912",
      "city": "NESPEREIRA LSD",
      "lon": "-8.29544691271724",
      "lat": "41.25313523222605"
    },
    {
      "id": "pt.ine.add.PTCONT.4121169",
      "street": "R DR AFONSO QUINTELA",
      "house": "185",
      "postcode": "4620-914",
      "city": "NESPEREIRA LSD",
      "lon": "-8.293512102371258",
      "lat": "41.25722586477889"
    },
    {
      "id": "pt.ine.add.PTCONT.4162777",
      "street": "R CRUZEIRO",
      "house": "731",
      "postcode": "4620-404",
      "city": "NESPEREIRA LSD",
      "lon": "-8.294136586784251",
      "lat": "41.25400147864691"
    },
    {
      "id": "pt.ine.add.PTCONT.4221590",
      "street": "R JOAQUIM PINTO",
      "house": "",
      "postcode": "4620-912",
      "city": "NESPEREIRA LSD",
      "lon": "-8.295308079620646",
      "lat": "41.25489125326674"
    },
    {
      "id": "pt.ine.add.PTCONT.4344646",
      "street": "R CHAMUSCA",
      "house": "46",
      "postcode": "4620-402",
      "city": "NESPEREIRA LSD",
      "lon": "-8.295122556998773",
      "lat": "41.25707053804261"
    },
    {
      "id": "pt.ine.add.PTCONT.4352959",
      "street": "R CHAMUSCA",
      "house": "154",
      "postcode": "4620-402",
      "city": "NESPEREIRA LSD",
      "lon": "-8.293787114302217",
      "lat": "41.25745959123561"
    },
    {
      "id": "pt.ine.add.PTCONT.4366213",
      "street": "R CHAMUSCA",
      "house": "48",
      "postcode": "4620-402",
      "city": "NESPEREIRA LSD",
      "lon": "-8.29499103748538",
      "lat": "41.256962672296694"
    }
  ]
}