{
  "data": {
    "distrito": "Bragança",
    "concelho": "Bragança",
    "freguesia": "Gostei",
    "OBJECTID": 802,
    "BGRI2021": "04021800118",
    "DT21": "04",
    "DTMN21": "0402",
    "DTMNFR21": "040218",
    "DTMNFRSEC21": "040218001",
    "SECNUM21": "001",
    "SSNUM21": "18",
    "SECSSNUM21": "00118",
    "OBJECTID_1": 34313,
    "DT": "04",
    "CC": "02",
    "fr": "18",
    "SEC": "001",
    "SS": "18"
  },
  "addresses": [
    {
      "id": "pt.ine.add.PTCONT.877361",
      "street": "EN 518",
      "house": "",
      "postcode": "5300-574",
      "city": "BRAGANÇA",
      "lon": "-6.802985226039812",
      "lat": "41.78850576514621"
    },
    {
      "id": "pt.ine.add.PTCONT.877676",
      "street": "EN 518",
      "house": "",
      "postcode": "5300-574",
      "city": "BRAGANÇA",
      "lon": "-6.802134158777399",
      "lat": "41.793591671192566"
    },
    {
      "id": "pt.ine.add.PTCONT.886028",
      "street": "ESTR GOSTEI",
      "house": "",
      "postcode": "5300-574",
      "city": "BRAGANÇA",
      "lon": "-6.802860882280077",
      "lat": "41.79161040134536"
    },
    {
      "id": "pt.ine.add.PTCONT.888675",
      "street": "EN 518",
      "house": "",
      "postcode": "5300-574",
      "city": "BRAGANÇA",
      "lon": "-6.802339683701459",
      "lat": "41.7883092224211"
    },
    {
      "id": "pt.ine.add.PTCONT.889326",
      "street": "EN 518",
      "house": "",
      "postcode": "5300-574",
      "city": "BRAGANÇA",
      "lon": "-6.8016976167997765",
      "lat": "41.79375767104375"
    },
    {
      "id": "pt.ine.add.PTCONT.907390",
      "street": "BR OUTORELO",
      "house": "",
      "postcode": "5300-574",
      "city": "BRAGANÇA",
      "lon": "-6.803529219858805",
      "lat": "41.79012362189073"
    },
    {
      "id": "pt.ine.add.PTCONT.917079",
      "street": "CAM CAVADA",
      "house": "",
      "postcode": "5300-574",
      "city": "BRAGANÇA",
      "lon": "-6.802883473556955",
      "lat": "41.78993608298117"
    },
    {
      "id": "pt.ine.add.PTCONT.922829",
      "street": "EN 518",
      "house": "",
      "postcode": "5300-574",
      "city": "BRAGANÇA",
      "lon": "-6.8020790483378",
      "lat": "41.793347948505925"
    },
    {
      "id": "pt.ine.add.PTCONT.924066",
      "street": "EM 518",
      "house": "274",
      "postcode": "5300-574",
      "city": "BRAGANÇA",
      "lon": "-6.80361885707588",
      "lat": "41.79277157599513"
    },
    {
      "id": "pt.ine.add.PTCONT.944515",
      "street": "CAM LADEIRA GRANDE",
      "house": "",
      "postcode": "5300-574",
      "city": "BRAGANÇA",
      "lon": "-6.805415167043722",
      "lat": "41.791423879744784"
    },
    {
      "id": "pt.ine.add.PTCONT.944516",
      "street": "BR OUTORELO",
      "house": "",
      "postcode": "5300-574",
      "city": "BRAGANÇA",
      "lon": "-6.8033410097658225",
      "lat": "41.78875296884234"
    },
    {
      "id": "pt.ine.add.PTCONT.947711",
      "street": "ESTR GOSTEI",
      "house": "",
      "postcode": "5300-574",
      "city": "BRAGANÇA",
      "lon": "-6.801986837697041",
      "lat": "41.78966460515632"
    }
  ]
}