{
  "data": {
    "distrito": "Leiria",
    "concelho": "Figueiró dos Vinhos",
    "freguesia": "União das freguesias de Figueiró dos Vinhos e Bairradas",
    "OBJECTID": 176,
    "BGRI2021": "10080600211",
    "DT21": "10",
    "DTMN21": "1008",
    "DTMNFR21": "100806",
    "DTMNFRSEC21": "100806002",
    "SECNUM21": "002",
    "SSNUM21": "11",
    "SECSSNUM21": "00211",
    "OBJECTID_1": 89336,
    "DT": "10",
    "CC": "08",
    "fr": "06",
    "SEC": "002",
    "SS": "11"
  },
  "addresses": [
    {
      "id": "pt.ine.add.PTCONT.1981386",
      "street": "R DR JOSE MARTINHO SIMÕES",
      "house": "",
      "postcode": "3260-421",
      "city": "FIGUEIRÓ DOS VINHOS",
      "lon": "-8.276685486272392",
      "lat": "39.90266359030187"
    },
    {
      "id": "pt.ine.add.PTCONT.1982600",
      "street": "R DR JOSE MARTINHO SIMÕES",
      "house": "74",
      "postcode": "3260-421",
      "city": "FIGUEIRÓ DOS VINHOS",
      "lon": "-8.276814155926598",
      "lat": "39.90268144362107"
    },
    {
      "id": "pt.ine.add.PTCONT.2046221",
      "street": "R DR MANUEL DE VASCONCELOS",
      "house": "4",
      "postcode": "3260-423",
      "city": "FIGUEIRÓ DOS VINHOS",
      "lon": "-8.277224156741545",
      "lat": "39.90302317595787"
    },
    {
      "id": "pt.ine.add.PTCONT.2053805",
      "street": "R DR ANTÓNIO JOSE DE ALMEIDA",
      "house": "7",
      "postcode": "3260-420",
      "city": "FIGUEIRÓ DOS VINHOS",
      "lon": "-8.276334859172742",
      "lat": "39.902754087324844"
    },
    {
      "id": "pt.ine.add.PTCONT.2053806",
      "street": "R DR ANTÓNIO JOSE DE ALMEIDA",
      "house": "7",
      "postcode": "3260-420",
      "city": "FIGUEIRÓ DOS VINHOS",
      "lon": "-8.276334859172742",
      "lat": "39.902754087324844"
    },
    {
      "id": "pt.ine.add.PTCONT.2086446",
      "street": "R DR JOSE MARTINHO SIMÕES",
      "house": "104",
      "postcode": "3260-421",
      "city": "FIGUEIRÓ DOS VINHOS",
      "lon": "-8.277200618055176",
      "lat": "39.902951154446356"
    },
    {
      "id": "pt.ine.add.PTCONT.2087842",
      "street": "R DR ANTÓNIO JOSE DE ALMEIDA",
      "house": "49",
      "postcode": "3260-420",
      "city": "FIGUEIRÓ DOS VINHOS",
      "lon": "-8.277037016950828",
      "lat": "39.90300539567663"
    },
    {
      "id": "pt.ine.add.PTCONT.2104057",
      "street": "R DR JOSE MARTINHO SIMÕES",
      "house": "102",
      "postcode": "3260-421",
      "city": "FIGUEIRÓ DOS VINHOS",
      "lon": "-8.277153710563764",
      "lat": "39.90288816830309"
    },
    {
      "id": "pt.ine.add.PTCONT.2109847",
      "street": "TV FORNO",
      "house": "2",
      "postcode": "3260-421",
      "city": "FIGUEIRÓ DOS VINHOS",
      "lon": "-8.276919513308131",
      "lat": "39.902735351090975"
    },
    {
      "id": "pt.ine.add.PTCONT.2113153",
      "street": "TV FORNO",
      "house": "4",
      "postcode": "3260-421",
      "city": "FIGUEIRÓ DOS VINHOS",
      "lon": "-8.276837769386614",
      "lat": "39.90278949050384"
    },
    {
      "id": "pt.ine.add.PTCONT.2123820",
      "street": "R DR JOSE MARTINHO SIMOES",
      "house": "64",
      "postcode": "3260-421",
      "city": "FIGUEIRÓ DOS VINHOS",
      "lon": "-8.276603310149731",
      "lat": "39.902510584133616"
    },
    {
      "id": "pt.ine.add.PTCONT.2143761",
      "street": "R DR ANTÓNIO JOSE DE ALMEIDA",
      "house": "43",
      "postcode": "3260-420",
      "city": "FIGUEIRÓ DOS VINHOS",
      "lon": "-8.276966778340816",
      "lat": "39.90296945744753"
    },
    {
      "id": "pt.ine.add.PTCONT.2145635",
      "street": "R DR ANTÓNIO JOSE DE ALMEIDA",
      "house": "55",
      "postcode": "3260-420",
      "city": "FIGUEIRÓ DOS VINHOS",
      "lon": "-8.277095561749672",
      "lat": "39.90304134838255"
    },
    {
      "id": "pt.ine.add.PTCONT.2146976",
      "street": "R DR ANTÓNIO JOSE DE ALMEIDA",
      "house": "37",
      "postcode": "3260-420",
      "city": "FIGUEIRÓ DOS VINHOS",
      "lon": "-8.27672100019084",
      "lat": "39.90287069227408"
    },
    {
      "id": "pt.ine.add.PTCONT.2149046",
      "street": "R DR ANTÓNIO JOSE DE ALMEIDA",
      "house": "31",
      "postcode": "3260-420",
      "city": "FIGUEIRÓ DOS VINHOS",
      "lon": "-8.27663908682531",
      "lat": "39.90284377464793"
    },
    {
      "id": "pt.ine.add.PTCONT.2160069",
      "street": "R DR ANTÓNIO JOSE DE ALMEIDA",
      "house": "27",
      "postcode": "3260-420",
      "city": "FIGUEIRÓ DOS VINHOS",
      "lon": "-8.276545479677134",
      "lat": "39.90281687142782"
    },
    {
      "id": "pt.ine.add.PTCONT.2164373",
      "street": "R DR JOSE MARTINHO SIMÕES",
      "house": "100",
      "postcode": "3260-421",
      "city": "FIGUEIRÓ DOS VINHOS",
      "lon": "-8.277071759312028",
      "lat": "39.90284323833919"
    },
    {
      "id": "pt.ine.add.PTCONT.2168842",
      "street": "R DR LUIS QUARESMA",
      "house": "16",
      "postcode": "3260-422",
      "city": "FIGUEIRÓ DOS VINHOS",
      "lon": "-8.276346215447644",
      "lat": "39.90259195907717"
    },
    {
      "id": "pt.ine.add.PTCONT.2170972",
      "street": "TV FORNO",
      "house": "1",
      "postcode": "3260-421",
      "city": "FIGUEIRÓ DOS VINHOS",
      "lon": "-8.277001520849751",
      "lat": "39.90280730012986"
    },
    {
      "id": "pt.ine.add.PTCONT.2193885",
      "street": "TV FORNO",
      "house": "7",
      "postcode": "3260-421",
      "city": "FIGUEIRÓ DOS VINHOS",
      "lon": "-8.276873133249019",
      "lat": "39.90292454184933"
    },
    {
      "id": "pt.ine.add.PTCONT.2229257",
      "street": "R DR ANTÓNIO JOSE DE ALMEIDA",
      "house": "15",
      "postcode": "3260-420",
      "city": "FIGUEIRÓ DOS VINHOS",
      "lon": "-8.276440178759879",
      "lat": "39.902789982585475"
    },
    {
      "id": "pt.ine.add.PTCONT.2229258",
      "street": "R DR LUIS QUARESMA",
      "house": "8",
      "postcode": "3260-422",
      "city": "FIGUEIRÓ DOS VINHOS",
      "lon": "-8.27652134093072",
      "lat": "39.90245664745361"
    },
    {
      "id": "pt.ine.add.PTCONT.2251542",
      "street": "R DR LUIS QUARESMA",
      "house": "18",
      "postcode": "3260-422",
      "city": "FIGUEIRÓ DOS VINHOS",
      "lon": "-8.276416246961093",
      "lat": "39.90252882813704"
    }
  ]
}