{
  "data": {
    "distrito": "Leiria",
    "concelho": "Figueiró dos Vinhos",
    "freguesia": "União das freguesias de Figueiró dos Vinhos e Bairradas",
    "OBJECTID": 434,
    "BGRI2021": "10080600226",
    "DT21": "10",
    "DTMN21": "1008",
    "DTMNFR21": "100806",
    "DTMNFRSEC21": "100806002",
    "SECNUM21": "002",
    "SSNUM21": "26",
    "SECSSNUM21": "00226",
    "OBJECTID_1": 89123,
    "DT": "10",
    "CC": "08",
    "fr": "06",
    "SEC": "002",
    "SS": "26"
  },
  "addresses": [
    {
      "id": "pt.ine.add.PTCONT.2000406",
      "street": "R AREAL",
      "house": "34",
      "postcode": "3260-403",
      "city": "FIGUEIRÓ DOS VINHOS",
      "lon": "-8.27559846054396",
      "lat": "39.90453480749015"
    },
    {
      "id": "pt.ine.add.PTCONT.2002458",
      "street": "R AREAL",
      "house": "28",
      "postcode": "3260-403",
      "city": "FIGUEIRÓ DOS VINHOS",
      "lon": "-8.275774670432126",
      "lat": "39.90495927591966"
    },
    {
      "id": "pt.ine.add.PTCONT.2032981",
      "street": "R AREAL",
      "house": "42",
      "postcode": "3260-403",
      "city": "FIGUEIRÓ DOS VINHOS",
      "lon": "-8.275633369164135",
      "lat": "39.904601012548056"
    },
    {
      "id": "pt.ine.add.PTCONT.2043973",
      "street": "BR AREAL",
      "house": "54",
      "postcode": "3260-403",
      "city": "FIGUEIRÓ DOS VINHOS",
      "lon": "-8.275712189388242",
      "lat": "39.904801957030486"
    },
    {
      "id": "pt.ine.add.PTCONT.2050411",
      "street": "R TEÓFILO BRAGA",
      "house": "19",
      "postcode": "3260-407",
      "city": "FIGUEIRÓ DOS VINHOS",
      "lon": "-8.274351234200456",
      "lat": "39.90486400470971"
    },
    {
      "id": "pt.ine.add.PTCONT.2057385",
      "street": "R AREAL",
      "house": "56",
      "postcode": "3260-403",
      "city": "FIGUEIRÓ DOS VINHOS",
      "lon": "-8.275729319383332",
      "lat": "39.904848354653204"
    },
    {
      "id": "pt.ine.add.PTCONT.2059666",
      "street": "R AREAL",
      "house": "30",
      "postcode": "3260-403",
      "city": "FIGUEIRÓ DOS VINHOS",
      "lon": "-8.27555890933525",
      "lat": "39.904385557933324"
    },
    {
      "id": "pt.ine.add.PTCONT.2075625",
      "street": "R D DIOGO DE SOUSA",
      "house": "105",
      "postcode": "3260-418",
      "city": "FIGUEIRÓ DOS VINHOS",
      "lon": "-8.275121507772976",
      "lat": "39.904115537537436"
    },
    {
      "id": "pt.ine.add.PTCONT.2078844",
      "street": "R AREAL",
      "house": "58",
      "postcode": "3260-403",
      "city": "FIGUEIRÓ DOS VINHOS",
      "lon": "-8.275745864647787",
      "lat": "39.904881761343525"
    },
    {
      "id": "pt.ine.add.PTCONT.2094861",
      "street": "R AREAL",
      "house": "48",
      "postcode": "3260-403",
      "city": "FIGUEIRÓ DOS VINHOS",
      "lon": "-8.275867472697152",
      "lat": "39.90512562773543"
    },
    {
      "id": "pt.ine.add.PTCONT.2098609",
      "street": "R AREAL",
      "house": "18",
      "postcode": "3260-403",
      "city": "FIGUEIRÓ DOS VINHOS",
      "lon": "-8.275504406679653",
      "lat": "39.90410322377117"
    },
    {
      "id": "pt.ine.add.PTCONT.2117149",
      "street": "R AREAL",
      "house": "40",
      "postcode": "3260-403",
      "city": "FIGUEIRÓ DOS VINHOS",
      "lon": "-8.275656369450033",
      "lat": "39.90464341766187"
    },
    {
      "id": "pt.ine.add.PTCONT.2133840",
      "street": "R AREAL",
      "house": "42",
      "postcode": "3260-403",
      "city": "FIGUEIRÓ DOS VINHOS",
      "lon": "-8.275822802544093",
      "lat": "39.905043716899584"
    },
    {
      "id": "pt.ine.add.PTCONT.2151258",
      "street": "R AREAL",
      "house": "101",
      "postcode": "3260-403",
      "city": "FIGUEIRÓ DOS VINHOS",
      "lon": "-8.275478345169553",
      "lat": "39.90403144458923"
    },
    {
      "id": "pt.ine.add.PTCONT.2153886",
      "street": "R AREAL",
      "house": "52",
      "postcode": "3260-403",
      "city": "FIGUEIRÓ DOS VINHOS",
      "lon": "-8.275696268126158",
      "lat": "39.904769999588794"
    },
    {
      "id": "pt.ine.add.PTCONT.2155607",
      "street": "R AREAL",
      "house": "74",
      "postcode": "3260-403",
      "city": "FIGUEIRÓ DOS VINHOS",
      "lon": "-8.275544256787272",
      "lat": "39.90424673504563"
    },
    {
      "id": "pt.ine.add.PTCONT.2162220",
      "street": "R MISERICÓRDIA",
      "house": "5",
      "postcode": "3260-414",
      "city": "FIGUEIRÓ DOS VINHOS",
      "lon": "-8.274843819400022",
      "lat": "39.905556892039755"
    },
    {
      "id": "pt.ine.add.PTCONT.2165803",
      "street": "R DA MISERICÓRDIA",
      "house": "3",
      "postcode": "3260-414",
      "city": "FIGUEIRÓ DOS VINHOS",
      "lon": "-8.27478313400572",
      "lat": "39.905704537795316"
    },
    {
      "id": "pt.ine.add.PTCONT.2170939",
      "street": "R AREAL",
      "house": "22",
      "postcode": "3260-403",
      "city": "FIGUEIRÓ DOS VINHOS",
      "lon": "-8.275527918841265",
      "lat": "39.90416309969128"
    },
    {
      "id": "pt.ine.add.PTCONT.2170945",
      "street": "R AREAL",
      "house": "44",
      "postcode": "3260-403",
      "city": "FIGUEIRÓ DOS VINHOS",
      "lon": "-8.275848857953553",
      "lat": "39.90508176634762"
    },
    {
      "id": "pt.ine.add.PTCONT.2170946",
      "street": "R TEÓFILO BRAGA",
      "house": "",
      "postcode": "3260-407",
      "city": "FIGUEIRÓ DOS VINHOS",
      "lon": "-8.27436098645137",
      "lat": "39.90391832680454"
    },
    {
      "id": "pt.ine.add.PTCONT.2181775",
      "street": "R AREAL",
      "house": "36",
      "postcode": "3260-403",
      "city": "FIGUEIRÓ DOS VINHOS",
      "lon": "-8.275612107859951",
      "lat": "39.9045682177621"
    },
    {
      "id": "pt.ine.add.PTCONT.2182916",
      "street": "R AREAL",
      "house": "46",
      "postcode": "3260-403",
      "city": "FIGUEIRÓ DOS VINHOS",
      "lon": "-8.275676563317003",
      "lat": "39.90472934396739"
    },
    {
      "id": "pt.ine.add.PTCONT.2207419",
      "street": "R AREAL",
      "house": "60",
      "postcode": "3260-403",
      "city": "FIGUEIRÓ DOS VINHOS",
      "lon": "-8.275765657330023",
      "lat": "39.904924711659895"
    },
    {
      "id": "pt.ine.add.PTCONT.2218943",
      "street": "R AREAL",
      "house": "26",
      "postcode": "3260-403",
      "city": "FIGUEIRÓ DOS VINHOS",
      "lon": "-8.275541049001694",
      "lat": "39.9043268873342"
    },
    {
      "id": "pt.ine.add.PTCONT.2235352",
      "street": "R MISERICÓRDIA",
      "house": "9",
      "postcode": "3260-414",
      "city": "FIGUEIRÓ DOS VINHOS",
      "lon": "-8.275065955588412",
      "lat": "39.90552960130828"
    },
    {
      "id": "pt.ine.add.PTCONT.2238127",
      "street": "R AREAL",
      "house": "32",
      "postcode": "3260-403",
      "city": "FIGUEIRÓ DOS VINHOS",
      "lon": "-8.275571113174726",
      "lat": "39.90444193976119"
    },
    {
      "id": "pt.ine.add.PTCONT.2239127",
      "street": "BR TEOFILO BRAGA",
      "house": "35",
      "postcode": "3260-407",
      "city": "FIGUEIRÓ DOS VINHOS",
      "lon": "-8.274375473448071",
      "lat": "39.90527826691959"
    },
    {
      "id": "pt.ine.add.PTCONT.2239128",
      "street": "BR TEOFILO BRAGA",
      "house": "35",
      "postcode": "3260-407",
      "city": "FIGUEIRÓ DOS VINHOS",
      "lon": "-8.274375473448071",
      "lat": "39.90527826691959"
    },
    {
      "id": "pt.ine.add.PTCONT.2239129",
      "street": "R TEOFILO BRAGA",
      "house": "35",
      "postcode": "3260-407",
      "city": "FIGUEIRÓ DOS VINHOS",
      "lon": "-8.274375473448071",
      "lat": "39.90527826691959"
    },
    {
      "id": "pt.ine.add.PTCONT.2239130",
      "street": "BR TEOFILO BRAGA",
      "house": "35",
      "postcode": "3260-407",
      "city": "FIGUEIRÓ DOS VINHOS",
      "lon": "-8.274375473448071",
      "lat": "39.90527826691959"
    },
    {
      "id": "pt.ine.add.PTCONT.2244277",
      "street": "R AREAL",
      "house": "62",
      "postcode": "3260-403",
      "city": "FIGUEIRÓ DOS VINHOS",
      "lon": "-8.275658840559545",
      "lat": "39.90469708612175"
    },
    {
      "id": "pt.ine.add.PTCONT.2246434",
      "street": "BR TEÓFILO BRAGA",
      "house": "5",
      "postcode": "3260-407",
      "city": "FIGUEIRÓ DOS VINHOS",
      "lon": "-8.274619626310763",
      "lat": "39.90458448089175"
    },
    {
      "id": "pt.ine.add.PTCONT.2263866",
      "street": "R AREAL",
      "house": "38",
      "postcode": "3260-403",
      "city": "FIGUEIRÓ DOS VINHOS",
      "lon": "-8.275804675302425",
      "lat": "39.90500596030336"
    }
  ]
}