{
  "data": {
    "distrito": "Coimbra",
    "concelho": "Montemor-O-Velho",
    "freguesia": "União das freguesias de Montemor-o-Velho e Gatões",
    "OBJECTID": 492,
    "BGRI2021": "06101600218",
    "DT21": "06",
    "DTMN21": "0610",
    "DTMNFR21": "061016",
    "DTMNFRSEC21": "061016002",
    "SECNUM21": "002",
    "SSNUM21": "18",
    "SECSSNUM21": "00218",
    "OBJECTID_1": 54405,
    "DT": "06",
    "CC": "10",
    "fr": "16",
    "SEC": "002",
    "SS": "18"
  },
  "addresses": [
    {
      "id": "pt.ine.add.PTCONT.1112734",
      "street": "R DO ALEMÃO",
      "house": "74",
      "postcode": "3140-207",
      "city": "MONTEMOR-O-VELHO",
      "lon": "-8.667940911793318",
      "lat": "40.18356209033379"
    },
    {
      "id": "pt.ine.add.PTCONT.1112735",
      "street": "R DO ALEMÃO",
      "house": "74",
      "postcode": "3140-207",
      "city": "MONTEMOR-O-VELHO",
      "lon": "-8.667940911793318",
      "lat": "40.18356209033379"
    },
    {
      "id": "pt.ine.add.PTCONT.1112736",
      "street": "R DO ALEMÃO",
      "house": "74",
      "postcode": "3140-207",
      "city": "MONTEMOR-O-VELHO",
      "lon": "-8.667940911793318",
      "lat": "40.18356209033379"
    },
    {
      "id": "pt.ine.add.PTCONT.1112737",
      "street": "R DO ALEMÃO",
      "house": "74",
      "postcode": "3140-207",
      "city": "MONTEMOR-O-VELHO",
      "lon": "-8.667940911793318",
      "lat": "40.18356209033379"
    },
    {
      "id": "pt.ine.add.PTCONT.1112738",
      "street": "R DO ALEMÃO",
      "house": "74",
      "postcode": "3140-207",
      "city": "MONTEMOR-O-VELHO",
      "lon": "-8.667940911793318",
      "lat": "40.18356209033379"
    },
    {
      "id": "pt.ine.add.PTCONT.1112739",
      "street": "R DO ALEMÃO",
      "house": "74",
      "postcode": "3140-207",
      "city": "MONTEMOR-O-VELHO",
      "lon": "-8.667940911793318",
      "lat": "40.18356209033379"
    },
    {
      "id": "pt.ine.add.PTCONT.1113992",
      "street": "R DO ALEMÃO",
      "house": "74",
      "postcode": "3140-207",
      "city": "MONTEMOR-O-VELHO",
      "lon": "-8.667940911793318",
      "lat": "40.18356209033379"
    },
    {
      "id": "pt.ine.add.PTCONT.1114151",
      "street": "R DO ALEMÃO",
      "house": "74",
      "postcode": "3140-207",
      "city": "MONTEMOR-O-VELHO",
      "lon": "-8.667940911793318",
      "lat": "40.18356209033379"
    },
    {
      "id": "pt.ine.add.PTCONT.1147080",
      "street": "URB QTA LOBO",
      "house": "",
      "postcode": "3140-202",
      "city": "MONTEMOR-O-VELHO",
      "lon": "-8.667974650857834",
      "lat": "40.18337281169062"
    },
    {
      "id": "pt.ine.add.PTCONT.1147081",
      "street": "URB QTA LOBO",
      "house": "",
      "postcode": "3140-202",
      "city": "MONTEMOR-O-VELHO",
      "lon": "-8.667974650857834",
      "lat": "40.18337281169062"
    },
    {
      "id": "pt.ine.add.PTCONT.1147082",
      "street": "URB QTA LOBO",
      "house": "",
      "postcode": "3140-202",
      "city": "MONTEMOR-O-VELHO",
      "lon": "-8.667974650857834",
      "lat": "40.18337281169062"
    },
    {
      "id": "pt.ine.add.PTCONT.1147083",
      "street": "URB QTA LOBO",
      "house": "",
      "postcode": "3140-202",
      "city": "MONTEMOR-O-VELHO",
      "lon": "-8.667974650857834",
      "lat": "40.18337281169062"
    },
    {
      "id": "pt.ine.add.PTCONT.1147084",
      "street": "URB QTA LOBO",
      "house": "",
      "postcode": "3140-202",
      "city": "MONTEMOR-O-VELHO",
      "lon": "-8.667974650857834",
      "lat": "40.18337281169062"
    },
    {
      "id": "pt.ine.add.PTCONT.1147085",
      "street": "URB QTA LOBO",
      "house": "",
      "postcode": "3140-202",
      "city": "MONTEMOR-O-VELHO",
      "lon": "-8.667974650857834",
      "lat": "40.18337281169062"
    },
    {
      "id": "pt.ine.add.PTCONT.1147090",
      "street": "URB QTA LOBO",
      "house": "",
      "postcode": "3140-202",
      "city": "MONTEMOR-O-VELHO",
      "lon": "-8.667974650857834",
      "lat": "40.18337281169062"
    },
    {
      "id": "pt.ine.add.PTCONT.1147094",
      "street": "URB QTA LOBO",
      "house": "",
      "postcode": "3140-202",
      "city": "MONTEMOR-O-VELHO",
      "lon": "-8.667974650857834",
      "lat": "40.18337281169062"
    },
    {
      "id": "pt.ine.add.PTCONT.1197875",
      "street": "R 25 ABRIL",
      "house": "",
      "postcode": "3140-202",
      "city": "MONTEMOR-O-VELHO",
      "lon": "-8.671121985321175",
      "lat": "40.18343928080578"
    },
    {
      "id": "pt.ine.add.PTCONT.1220573",
      "street": "EN 111",
      "house": "",
      "postcode": "3140-274",
      "city": "MONTEMOR-O-VELHO",
      "lon": "-8.67028512780556",
      "lat": "40.18452386821921"
    },
    {
      "id": "pt.ine.add.PTCONT.1257760",
      "street": "R 25 ABRIL",
      "house": "",
      "postcode": "3140-202",
      "city": "MONTEMOR-O-VELHO",
      "lon": "-8.670193135819698",
      "lat": "40.18328148839978"
    },
    {
      "id": "pt.ine.add.PTCONT.1261999",
      "street": "VALE LOURO",
      "house": "1",
      "postcode": "3140-202",
      "city": "MONTEMOR-O-VELHO",
      "lon": "-8.667935747420676",
      "lat": "40.184399657828216"
    },
    {
      "id": "pt.ine.add.PTCONT.1263939",
      "street": "URB QUINTA DO LOBO",
      "house": "",
      "postcode": "3140-207",
      "city": "MONTEMOR-O-VELHO",
      "lon": "-8.667831279340959",
      "lat": "40.183058269342766"
    },
    {
      "id": "pt.ine.add.PTCONT.1263940",
      "street": "URB QUINTA DO LOBO",
      "house": "",
      "postcode": "3140-207",
      "city": "MONTEMOR-O-VELHO",
      "lon": "-8.667831279340959",
      "lat": "40.183058269342766"
    },
    {
      "id": "pt.ine.add.PTCONT.1263941",
      "street": "URB QUINTA DO LOBO",
      "house": "",
      "postcode": "3140-207",
      "city": "MONTEMOR-O-VELHO",
      "lon": "-8.667831279340959",
      "lat": "40.183058269342766"
    },
    {
      "id": "pt.ine.add.PTCONT.1263942",
      "street": "URB QUINTA DO LOBO",
      "house": "",
      "postcode": "3140-207",
      "city": "MONTEMOR-O-VELHO",
      "lon": "-8.667831279340959",
      "lat": "40.183058269342766"
    },
    {
      "id": "pt.ine.add.PTCONT.1263943",
      "street": "URB QUINTA DO LOBO",
      "house": "",
      "postcode": "3140-207",
      "city": "MONTEMOR-O-VELHO",
      "lon": "-8.667831279340959",
      "lat": "40.183058269342766"
    },
    {
      "id": "pt.ine.add.PTCONT.1263944",
      "street": "URB QUINTA DO LOBO",
      "house": "",
      "postcode": "3140-207",
      "city": "MONTEMOR-O-VELHO",
      "lon": "-8.667831279340959",
      "lat": "40.183058269342766"
    },
    {
      "id": "pt.ine.add.PTCONT.1263945",
      "street": "URB QUINTA DO LOBO",
      "house": "",
      "postcode": "3140-207",
      "city": "MONTEMOR-O-VELHO",
      "lon": "-8.667831279340959",
      "lat": "40.183058269342766"
    },
    {
      "id": "pt.ine.add.PTCONT.1264704",
      "street": "URB QUINTA DO LOBO",
      "house": "",
      "postcode": "3140-207",
      "city": "MONTEMOR-O-VELHO",
      "lon": "-8.667831279340959",
      "lat": "40.183058269342766"
    },
    {
      "id": "pt.ine.add.PTCONT.1281987",
      "street": "URB QUINTA DO LOBO",
      "house": "",
      "postcode": "3140-207",
      "city": "MONTEMOR-O-VELHO",
      "lon": "-8.667727657285322",
      "lat": "40.18331991746008"
    },
    {
      "id": "pt.ine.add.PTCONT.1281993",
      "street": "URB QUINTA DO LOBO",
      "house": "",
      "postcode": "3140-207",
      "city": "MONTEMOR-O-VELHO",
      "lon": "-8.667727657285322",
      "lat": "40.18331991746008"
    },
    {
      "id": "pt.ine.add.PTCONT.1281994",
      "street": "URB QUINTA DO LOBO",
      "house": "",
      "postcode": "3140-207",
      "city": "MONTEMOR-O-VELHO",
      "lon": "-8.667727657285322",
      "lat": "40.18331991746008"
    },
    {
      "id": "pt.ine.add.PTCONT.1281995",
      "street": "URB QUINTA DO LOBO",
      "house": "",
      "postcode": "3140-207",
      "city": "MONTEMOR-O-VELHO",
      "lon": "-8.667727657285322",
      "lat": "40.18331991746008"
    },
    {
      "id": "pt.ine.add.PTCONT.1281996",
      "street": "URB QUINTA DO LOBO",
      "house": "",
      "postcode": "3140-207",
      "city": "MONTEMOR-O-VELHO",
      "lon": "-8.667727657285322",
      "lat": "40.18331991746008"
    },
    {
      "id": "pt.ine.add.PTCONT.1281997",
      "street": "URB QTA DO LOBO",
      "house": "",
      "postcode": "3140-207",
      "city": "MONTEMOR-O-VELHO",
      "lon": "-8.667583650967702",
      "lat": "40.182924325106825"
    },
    {
      "id": "pt.ine.add.PTCONT.1281998",
      "street": "URB QTA DO LOBO",
      "house": "",
      "postcode": "3140-207",
      "city": "MONTEMOR-O-VELHO",
      "lon": "-8.667583650967702",
      "lat": "40.182924325106825"
    },
    {
      "id": "pt.ine.add.PTCONT.1282000",
      "street": "URB QTA DO LOBO",
      "house": "",
      "postcode": "3140-207",
      "city": "MONTEMOR-O-VELHO",
      "lon": "-8.667583650967702",
      "lat": "40.182924325106825"
    },
    {
      "id": "pt.ine.add.PTCONT.1282490",
      "street": "URB QUINTA DO LOBO",
      "house": "",
      "postcode": "3140-207",
      "city": "MONTEMOR-O-VELHO",
      "lon": "-8.667727657285322",
      "lat": "40.18331991746008"
    },
    {
      "id": "pt.ine.add.PTCONT.1282567",
      "street": "URB QTA DO LOBO",
      "house": "",
      "postcode": "3140-207",
      "city": "MONTEMOR-O-VELHO",
      "lon": "-8.667583650967702",
      "lat": "40.182924325106825"
    },
    {
      "id": "pt.ine.add.PTCONT.1282766",
      "street": "URB QTA DO LOBO",
      "house": "",
      "postcode": "3140-207",
      "city": "MONTEMOR-O-VELHO",
      "lon": "-8.667583650967702",
      "lat": "40.182924325106825"
    },
    {
      "id": "pt.ine.add.PTCONT.1282778",
      "street": "URB QTA DO LOBO",
      "house": "",
      "postcode": "3140-207",
      "city": "MONTEMOR-O-VELHO",
      "lon": "-8.667583650967702",
      "lat": "40.182924325106825"
    },
    {
      "id": "pt.ine.add.PTCONT.1308731",
      "street": "R TRAZ CEMITERIO",
      "house": "",
      "postcode": "3140-202",
      "city": "MONTEMOR-O-VELHO",
      "lon": "-8.668282687139286",
      "lat": "40.18372261614994"
    },
    {
      "id": "pt.ine.add.PTCONT.1316205",
      "street": "URB QUINTA DO LOBO",
      "house": "",
      "postcode": "3140-207",
      "city": "MONTEMOR-O-VELHO",
      "lon": "-8.667264728200124",
      "lat": "40.18268263912885"
    },
    {
      "id": "pt.ine.add.PTCONT.1316206",
      "street": "URB QUINTA DO LOBO",
      "house": "",
      "postcode": "3140-207",
      "city": "MONTEMOR-O-VELHO",
      "lon": "-8.667264728200124",
      "lat": "40.18268263912885"
    },
    {
      "id": "pt.ine.add.PTCONT.1316207",
      "street": "URB QUINTA DO LOBO",
      "house": "",
      "postcode": "3140-207",
      "city": "MONTEMOR-O-VELHO",
      "lon": "-8.667264728200124",
      "lat": "40.18268263912885"
    },
    {
      "id": "pt.ine.add.PTCONT.1316719",
      "street": "URB QUINTA DO LOBO",
      "house": "",
      "postcode": "3140-207",
      "city": "MONTEMOR-O-VELHO",
      "lon": "-8.667264728200124",
      "lat": "40.18268263912885"
    },
    {
      "id": "pt.ine.add.PTCONT.1316923",
      "street": "URB QUINTA DO LOBO",
      "house": "",
      "postcode": "3140-207",
      "city": "MONTEMOR-O-VELHO",
      "lon": "-8.667264728200124",
      "lat": "40.18268263912885"
    },
    {
      "id": "pt.ine.add.PTCONT.1321735",
      "street": "URB QTA DO LOBO",
      "house": "",
      "postcode": "3140-207",
      "city": "MONTEMOR-O-VELHO",
      "lon": "-8.667670505394204",
      "lat": "40.18351830998896"
    },
    {
      "id": "pt.ine.add.PTCONT.1321736",
      "street": "URB QTA DO LOBO",
      "house": "",
      "postcode": "3140-207",
      "city": "MONTEMOR-O-VELHO",
      "lon": "-8.667670505394204",
      "lat": "40.18351830998896"
    },
    {
      "id": "pt.ine.add.PTCONT.1321737",
      "street": "URB QTA DO LOBO",
      "house": "",
      "postcode": "3140-207",
      "city": "MONTEMOR-O-VELHO",
      "lon": "-8.667670505394204",
      "lat": "40.18351830998896"
    },
    {
      "id": "pt.ine.add.PTCONT.1321738",
      "street": "URB QTA DO LOBO",
      "house": "",
      "postcode": "3140-207",
      "city": "MONTEMOR-O-VELHO",
      "lon": "-8.667670505394204",
      "lat": "40.18351830998896"
    },
    {
      "id": "pt.ine.add.PTCONT.1321870",
      "street": "URB QTA DO LOBO",
      "house": "",
      "postcode": "3140-207",
      "city": "MONTEMOR-O-VELHO",
      "lon": "-8.667670505394204",
      "lat": "40.18351830998896"
    },
    {
      "id": "pt.ine.add.PTCONT.1323025",
      "street": "URB QTA DO LOBO",
      "house": "",
      "postcode": "3140-207",
      "city": "MONTEMOR-O-VELHO",
      "lon": "-8.667670505394204",
      "lat": "40.18351830998896"
    },
    {
      "id": "pt.ine.add.PTCONT.1326336",
      "street": "QTA LOBO",
      "house": "",
      "postcode": "3140-202",
      "city": "MONTEMOR-O-VELHO",
      "lon": "-8.668316920723315",
      "lat": "40.183596376050616"
    },
    {
      "id": "pt.ine.add.PTCONT.1334590",
      "street": "AV 25 DE ABRIL",
      "house": "",
      "postcode": "3140-202",
      "city": "MONTEMOR-O-VELHO",
      "lon": "-8.67145216837948",
      "lat": "40.18361786281648"
    },
    {
      "id": "pt.ine.add.PTCONT.1363124",
      "street": "URB QUINTA DO LOBO",
      "house": "",
      "postcode": "3140-207",
      "city": "MONTEMOR-O-VELHO",
      "lon": "-8.667264728200124",
      "lat": "40.18268263912885"
    }
  ]
}