{
  "data": {
    "distrito": "Viseu",
    "concelho": "Carregal do Sal",
    "freguesia": "Oliveira do Conde",
    "OBJECTID": 123,
    "BGRI2021": "18020400402",
    "DT21": "18",
    "DTMN21": "1802",
    "DTMNFR21": "180204",
    "DTMNFRSEC21": "180204004",
    "SECNUM21": "004",
    "SSNUM21": "02",
    "SECSSNUM21": "00402",
    "OBJECTID_1": 188857,
    "DT": "18",
    "CC": "02",
    "fr": "04",
    "SEC": "004",
    "SS": "02"
  },
  "addresses": [
    {
      "id": "pt.ine.add.PTCONT.5434278",
      "street": "R CERRADO",
      "house": "10",
      "postcode": "3430-407",
      "city": "CARREGAL DO SAL",
      "lon": "-7.958959538107045",
      "lat": "40.455305570063054"
    },
    {
      "id": "pt.ine.add.PTCONT.5458179",
      "street": "R CERRADO",
      "house": "",
      "postcode": "3430-407",
      "city": "CARREGAL DO SAL",
      "lon": "-7.960884696334133",
      "lat": "40.45392160993453"
    },
    {
      "id": "pt.ine.add.PTCONT.5472563",
      "street": "QTA SAMPAIO",
      "house": "",
      "postcode": "3430-414",
      "city": "CARREGAL DO SAL",
      "lon": "-7.96639763737444",
      "lat": "40.45564073369838"
    },
    {
      "id": "pt.ine.add.PTCONT.5474456",
      "street": "R SALGUEIRINHO AO SAMPAIO",
      "house": "",
      "postcode": "3430-414",
      "city": "CARREGAL DO SAL",
      "lon": "-7.966634975678902",
      "lat": "40.455010691979176"
    },
    {
      "id": "pt.ine.add.PTCONT.5499591",
      "street": "QTA FONTE PRATA",
      "house": "",
      "postcode": "3430-411",
      "city": "CARREGAL DO SAL",
      "lon": "-7.961723029751807",
      "lat": "40.45340053778279"
    },
    {
      "id": "pt.ine.add.PTCONT.5540350",
      "street": "R CERRADO",
      "house": "8",
      "postcode": "3430-407",
      "city": "CARREGAL DO SAL",
      "lon": "-7.959621346941842",
      "lat": "40.45467618143409"
    },
    {
      "id": "pt.ine.add.PTCONT.5572840",
      "street": "R SALGUEIRINHO AO SAMPAIO",
      "house": "",
      "postcode": "3430-414",
      "city": "CARREGAL DO SAL",
      "lon": "-7.96735620788458",
      "lat": "40.45415620745493"
    },
    {
      "id": "pt.ine.add.PTCONT.5585788",
      "street": "R CERRADO",
      "house": "",
      "postcode": "3430-407",
      "city": "CARREGAL DO SAL",
      "lon": "-7.968024318237207",
      "lat": "40.4509151882892"
    },
    {
      "id": "pt.ine.add.PTCONT.5598506",
      "street": "R CERRADO",
      "house": "4",
      "postcode": "3430-407",
      "city": "CARREGAL DO SAL",
      "lon": "-7.964297029848222",
      "lat": "40.451783337770784"
    }
  ]
}