{
  "data": {
    "distrito": "Lisboa",
    "concelho": "Cascais",
    "freguesia": "São Domingos de Rana",
    "OBJECTID": 854,
    "BGRI2021": "11050602210",
    "DT21": "11",
    "DTMN21": "1105",
    "DTMNFR21": "110506",
    "DTMNFRSEC21": "110506022",
    "SECNUM21": "022",
    "SSNUM21": "10",
    "SECSSNUM21": "02210",
    "OBJECTID_1": 101562,
    "DT": "11",
    "CC": "05",
    "fr": "06",
    "SEC": "022",
    "SS": "10"
  },
  "addresses": [
    {
      "id": "pt.ine.add.PTCONT.2924915",
      "street": "R ANTÓNIO DOS SANTOS",
      "house": "261",
      "postcode": "2785-549",
      "city": "SÃO DOMINGOS DE RANA",
      "lon": "-9.35172527798121",
      "lat": "38.704397089579885"
    },
    {
      "id": "pt.ine.add.PTCONT.2924916",
      "street": "R ANTÓNIO DOS SANTOS",
      "house": "261",
      "postcode": "2785-549",
      "city": "SÃO DOMINGOS DE RANA",
      "lon": "-9.35172527798121",
      "lat": "38.704397089579885"
    },
    {
      "id": "pt.ine.add.PTCONT.2939843",
      "street": "R LUIS ANTÓNIO VERNEY",
      "house": "210",
      "postcode": "2785-284",
      "city": "SÃO DOMINGOS DE RANA",
      "lon": "-9.35148210931978",
      "lat": "38.70361594858305"
    },
    {
      "id": "pt.ine.add.PTCONT.2969690",
      "street": "PCT MIRA SOL",
      "house": "301",
      "postcode": "2785-280",
      "city": "SÃO DOMINGOS DE RANA",
      "lon": "-9.348808357660658",
      "lat": "38.70457158005589"
    },
    {
      "id": "pt.ine.add.PTCONT.2973094",
      "street": "R DIOGO BARBOSA MACHADO",
      "house": "79",
      "postcode": "2785-821",
      "city": "SÃO DOMINGOS DE RANA",
      "lon": "-9.351707057795235",
      "lat": "38.70400093799498"
    },
    {
      "id": "pt.ine.add.PTCONT.2973095",
      "street": "R DIOGO BARBOSA MACHADO",
      "house": "79",
      "postcode": "2785-821",
      "city": "SÃO DOMINGOS DE RANA",
      "lon": "-9.351707057795235",
      "lat": "38.70400093799498"
    },
    {
      "id": "pt.ine.add.PTCONT.2973096",
      "street": "R DIOGO BARBOSA MACHADO",
      "house": "79",
      "postcode": "2785-821",
      "city": "SÃO DOMINGOS DE RANA",
      "lon": "-9.351707057795235",
      "lat": "38.70400093799498"
    },
    {
      "id": "pt.ine.add.PTCONT.2973099",
      "street": "R DIOGO BARBOSA MACHADO",
      "house": "79",
      "postcode": "2785-821",
      "city": "SÃO DOMINGOS DE RANA",
      "lon": "-9.351707057795235",
      "lat": "38.70400093799498"
    },
    {
      "id": "pt.ine.add.PTCONT.2973100",
      "street": "R DIOGO BARBOSA MACHADO",
      "house": "79",
      "postcode": "2785-821",
      "city": "SÃO DOMINGOS DE RANA",
      "lon": "-9.351707057795235",
      "lat": "38.70400093799498"
    },
    {
      "id": "pt.ine.add.PTCONT.2978782",
      "street": "R DIOGO BARBOSA MACHADO",
      "house": "79",
      "postcode": "2785-821",
      "city": "SÃO DOMINGOS DE RANA",
      "lon": "-9.351707057795235",
      "lat": "38.70400093799498"
    },
    {
      "id": "pt.ine.add.PTCONT.2982067",
      "street": "PCT MIRA SOL",
      "house": "27",
      "postcode": "2785-280",
      "city": "SÃO DOMINGOS DE RANA",
      "lon": "-9.34997658030299",
      "lat": "38.70431621755464"
    },
    {
      "id": "pt.ine.add.PTCONT.2990961",
      "street": "R PAX JULIA",
      "house": "",
      "postcode": "2785-567",
      "city": "SÃO DOMINGOS DE RANA",
      "lon": "-9.348987930674197",
      "lat": "38.704993077558846"
    },
    {
      "id": "pt.ine.add.PTCONT.3016331",
      "street": "R LUIS ANTÓNIO VERNEY",
      "house": "198",
      "postcode": "2785-284",
      "city": "SÃO DOMINGOS DE RANA",
      "lon": "-9.351263887281714",
      "lat": "38.70362723017271"
    },
    {
      "id": "pt.ine.add.PTCONT.3016332",
      "street": "R LUIS ANTÓNIO VERNEY",
      "house": "198",
      "postcode": "2785-284",
      "city": "SÃO DOMINGOS DE RANA",
      "lon": "-9.351263887281714",
      "lat": "38.70362723017271"
    },
    {
      "id": "pt.ine.add.PTCONT.3018699",
      "street": "R LUIS ANTÓNIO VERNEY",
      "house": "178 A",
      "postcode": "2785-284",
      "city": "SÃO DOMINGOS DE RANA",
      "lon": "-9.351208559578108",
      "lat": "38.703753915282476"
    },
    {
      "id": "pt.ine.add.PTCONT.3018701",
      "street": "PCT MIRA SOL",
      "house": "24",
      "postcode": "2785-280",
      "city": "SÃO DOMINGOS DE RANA",
      "lon": "-9.349834566665857",
      "lat": "38.70421137150713"
    },
    {
      "id": "pt.ine.add.PTCONT.3027912",
      "street": "PCT MIRA SOL",
      "house": "72",
      "postcode": "2785-280",
      "city": "SÃO DOMINGOS DE RANA",
      "lon": "-9.349457845356287",
      "lat": "38.70423153771658"
    },
    {
      "id": "pt.ine.add.PTCONT.3036833",
      "street": "R DIOGO BARBOSA MACHADO",
      "house": "15",
      "postcode": "2785-821",
      "city": "SÃO DOMINGOS DE RANA",
      "lon": "-9.352301200454104",
      "lat": "38.70378756542166"
    },
    {
      "id": "pt.ine.add.PTCONT.3036834",
      "street": "R DIOGO BARBOSA MACHADO",
      "house": "15",
      "postcode": "2785-821",
      "city": "SÃO DOMINGOS DE RANA",
      "lon": "-9.352301200454104",
      "lat": "38.70378756542166"
    },
    {
      "id": "pt.ine.add.PTCONT.3036835",
      "street": "R DIOGO BARBOSA MACHADO",
      "house": "15",
      "postcode": "2785-821",
      "city": "SÃO DOMINGOS DE RANA",
      "lon": "-9.352301200454104",
      "lat": "38.70378756542166"
    },
    {
      "id": "pt.ine.add.PTCONT.3036836",
      "street": "R DIOGO BARBOSA MACHADO",
      "house": "15",
      "postcode": "2785-821",
      "city": "SÃO DOMINGOS DE RANA",
      "lon": "-9.352301200454104",
      "lat": "38.70378756542166"
    },
    {
      "id": "pt.ine.add.PTCONT.3036837",
      "street": "R DIOGO BARBOSA MACHADO",
      "house": "15",
      "postcode": "2785-821",
      "city": "SÃO DOMINGOS DE RANA",
      "lon": "-9.352301200454104",
      "lat": "38.70378756542166"
    },
    {
      "id": "pt.ine.add.PTCONT.3036838",
      "street": "R DIOGO BARBOSA MACHADO",
      "house": "15",
      "postcode": "2785-821",
      "city": "SÃO DOMINGOS DE RANA",
      "lon": "-9.352301200454104",
      "lat": "38.70378756542166"
    },
    {
      "id": "pt.ine.add.PTCONT.3130294",
      "street": "AV JOSE MARIA DA SILVA",
      "house": "315",
      "postcode": "2785-284",
      "city": "SÃO DOMINGOS DE RANA",
      "lon": "-9.350452436138784",
      "lat": "38.703905914628976"
    },
    {
      "id": "pt.ine.add.PTCONT.3139021",
      "street": "R QUIRINO EVANGELISTA",
      "house": "406",
      "postcode": "2785-569",
      "city": "SÃO DOMINGOS DE RANA",
      "lon": "-9.352650440368642",
      "lat": "38.704045148180924"
    },
    {
      "id": "pt.ine.add.PTCONT.3139030",
      "street": "R LUIS ANTÓNIO VERNEY",
      "house": "265",
      "postcode": "2785-284",
      "city": "SÃO DOMINGOS DE RANA",
      "lon": "-9.350168653493093",
      "lat": "38.70344046533273"
    },
    {
      "id": "pt.ine.add.PTCONT.3148235",
      "street": "R LUIS ANTÓNIO VERNEY",
      "house": "142",
      "postcode": "2785-284",
      "city": "SÃO DOMINGOS DE RANA",
      "lon": "-9.350655652615826",
      "lat": "38.70368761227543"
    },
    {
      "id": "pt.ine.add.PTCONT.3200693",
      "street": "BC BELA VISTA",
      "house": "381",
      "postcode": "2785-681",
      "city": "SÃO DOMINGOS DE RANA",
      "lon": "-9.348865313741504",
      "lat": "38.705219546695595"
    },
    {
      "id": "pt.ine.add.PTCONT.3209301",
      "street": "R ANTÓNIO DOS SANTOS",
      "house": "25",
      "postcode": "2785-549",
      "city": "SÃO DOMINGOS DE RANA",
      "lon": "-9.350022969042016",
      "lat": "38.70501834014778"
    },
    {
      "id": "pt.ine.add.PTCONT.3209302",
      "street": "R ANTÓNIO DOS SANTOS",
      "house": "25",
      "postcode": "2785-549",
      "city": "SÃO DOMINGOS DE RANA",
      "lon": "-9.350022969042016",
      "lat": "38.70501834014778"
    },
    {
      "id": "pt.ine.add.PTCONT.3222925",
      "street": "R LUIS ANTÓNIO VERNEY",
      "house": "287",
      "postcode": "2785-284",
      "city": "SÃO DOMINGOS DE RANA",
      "lon": "-9.350310697048148",
      "lat": "38.703682196252196"
    },
    {
      "id": "pt.ine.add.PTCONT.3222926",
      "street": "R LUIS ANTÓNIO VERNEY",
      "house": "287",
      "postcode": "2785-284",
      "city": "SÃO DOMINGOS DE RANA",
      "lon": "-9.350310697048148",
      "lat": "38.703682196252196"
    },
    {
      "id": "pt.ine.add.PTCONT.3232512",
      "street": "R PAX JULIA",
      "house": "1",
      "postcode": "2785-567",
      "city": "SÃO DOMINGOS DE RANA",
      "lon": "-9.349097527705585",
      "lat": "38.704676666079784"
    },
    {
      "id": "pt.ine.add.PTCONT.3232525",
      "street": "R LUIS ANTÓNIO VERNEY",
      "house": "116",
      "postcode": "2785-284",
      "city": "SÃO DOMINGOS DE RANA",
      "lon": "-9.350467939776145",
      "lat": "38.7034643728275"
    },
    {
      "id": "pt.ine.add.PTCONT.3241862",
      "street": "PCT MIRA SOL",
      "house": "27 4",
      "postcode": "2785-280",
      "city": "SÃO DOMINGOS DE RANA",
      "lon": "-9.349891906836149",
      "lat": "38.70436697928018"
    },
    {
      "id": "pt.ine.add.PTCONT.3250547",
      "street": "R ANTÓNIO DOS SANTOS",
      "house": "41",
      "postcode": "2785-549",
      "city": "SÃO DOMINGOS DE RANA",
      "lon": "-9.349862058024602",
      "lat": "38.705020014855165"
    },
    {
      "id": "pt.ine.add.PTCONT.3250558",
      "street": "PCT MIRA SOL",
      "house": "63",
      "postcode": "2785-280",
      "city": "SÃO DOMINGOS DE RANA",
      "lon": "-9.349325568569688",
      "lat": "38.70456620099288"
    },
    {
      "id": "pt.ine.add.PTCONT.3283940",
      "street": "R PAX JULIA",
      "house": "25",
      "postcode": "2785-567",
      "city": "SÃO DOMINGOS DE RANA",
      "lon": "-9.34951404390821",
      "lat": "38.70483447311549"
    },
    {
      "id": "pt.ine.add.PTCONT.3343059",
      "street": "R ANTÓNIO DOS SANTOS",
      "house": "33",
      "postcode": "2785-549",
      "city": "SÃO DOMINGOS DE RANA",
      "lon": "-9.349821579803107",
      "lat": "38.70479580505202"
    },
    {
      "id": "pt.ine.add.PTCONT.3343060",
      "street": "R ANTÓNIO DOS SANTOS",
      "house": "33",
      "postcode": "2785-549",
      "city": "SÃO DOMINGOS DE RANA",
      "lon": "-9.349821579803107",
      "lat": "38.70479580505202"
    },
    {
      "id": "pt.ine.add.PTCONT.3361938",
      "street": "R LUIS ANTÓNIO VERNEY",
      "house": "",
      "postcode": "2785-284",
      "city": "SÃO DOMINGOS DE RANA",
      "lon": "-9.352146739066505",
      "lat": "38.703491919869236"
    },
    {
      "id": "pt.ine.add.PTCONT.3406799",
      "street": "R ANTÓNIO DOS SANTOS",
      "house": "289",
      "postcode": "2785-549",
      "city": "SÃO DOMINGOS DE RANA",
      "lon": "-9.352467462569967",
      "lat": "38.7041011031982"
    },
    {
      "id": "pt.ine.add.PTCONT.3437858",
      "street": "PCT MIRA SOL",
      "house": "60",
      "postcode": "2785-280",
      "city": "SÃO DOMINGOS DE RANA",
      "lon": "-9.34956556011251",
      "lat": "38.70448263441114"
    },
    {
      "id": "pt.ine.add.PTCONT.3439127",
      "street": "R DIOGO BARBOSA MACHADO",
      "house": "47",
      "postcode": "2785-821",
      "city": "SÃO DOMINGOS DE RANA",
      "lon": "-9.351969266935296",
      "lat": "38.70387209612113"
    },
    {
      "id": "pt.ine.add.PTCONT.2305397",
      "street": "R ANTÓNIO DOS SANTOS",
      "house": "111",
      "postcode": "2785-549",
      "city": "SÃO DOMINGOS DE RANA",
      "lon": "-9.350753215416265",
      "lat": "38.704695465576584"
    },
    {
      "id": "pt.ine.add.PTCONT.2424318",
      "street": "AV JOSE MARIA DA SILVA",
      "house": "325",
      "postcode": "2785-284",
      "city": "SÃO DOMINGOS DE RANA",
      "lon": "-9.35059203780167",
      "lat": "38.704003546407684"
    },
    {
      "id": "pt.ine.add.PTCONT.2451558",
      "street": "R ANTÓNIO DOS SANTOS",
      "house": "193",
      "postcode": "2785-549",
      "city": "SÃO DOMINGOS DE RANA",
      "lon": "-9.351610954077081",
      "lat": "38.70443431215008"
    },
    {
      "id": "pt.ine.add.PTCONT.2473225",
      "street": "R QUIRINO EVANGELISTA",
      "house": "392",
      "postcode": "2785-569",
      "city": "SÃO DOMINGOS DE RANA",
      "lon": "-9.352567844242296",
      "lat": "38.70391990103989"
    },
    {
      "id": "pt.ine.add.PTCONT.2521515",
      "street": "R DIOGO BARBOSA MACHADO",
      "house": "63",
      "postcode": "2785-821",
      "city": "SÃO DOMINGOS DE RANA",
      "lon": "-9.351843603428186",
      "lat": "38.70391844489172"
    },
    {
      "id": "pt.ine.add.PTCONT.2521516",
      "street": "R DIOGO BARBOSA MACHADO",
      "house": "63",
      "postcode": "2785-821",
      "city": "SÃO DOMINGOS DE RANA",
      "lon": "-9.351843603428186",
      "lat": "38.70391844489172"
    },
    {
      "id": "pt.ine.add.PTCONT.2521517",
      "street": "R DIOGO BARBOSA MACHADO",
      "house": "63",
      "postcode": "2785-821",
      "city": "SÃO DOMINGOS DE RANA",
      "lon": "-9.351843603428186",
      "lat": "38.70391844489172"
    },
    {
      "id": "pt.ine.add.PTCONT.2521518",
      "street": "R DIOGO BARBOSA MACHADO",
      "house": "63",
      "postcode": "2785-821",
      "city": "SÃO DOMINGOS DE RANA",
      "lon": "-9.351843603428186",
      "lat": "38.70391844489172"
    },
    {
      "id": "pt.ine.add.PTCONT.2521519",
      "street": "R DIOGO BARBOSA MACHADO",
      "house": "63",
      "postcode": "2785-821",
      "city": "SÃO DOMINGOS DE RANA",
      "lon": "-9.351843603428186",
      "lat": "38.70391844489172"
    },
    {
      "id": "pt.ine.add.PTCONT.2521520",
      "street": "R DIOGO BARBOSA MACHADO",
      "house": "63",
      "postcode": "2785-821",
      "city": "SÃO DOMINGOS DE RANA",
      "lon": "-9.351843603428186",
      "lat": "38.70391844489172"
    },
    {
      "id": "pt.ine.add.PTCONT.2521521",
      "street": "R LUIS ANTÓNIO VERNEY",
      "house": "16 4",
      "postcode": "2785-284",
      "city": "SÃO DOMINGOS DE RANA",
      "lon": "-9.351025411610443",
      "lat": "38.703800812514935"
    },
    {
      "id": "pt.ine.add.PTCONT.2521522",
      "street": "R LUIS ANTÓNIO VERNEY",
      "house": "16 4",
      "postcode": "2785-284",
      "city": "SÃO DOMINGOS DE RANA",
      "lon": "-9.351025411610443",
      "lat": "38.703800812514935"
    },
    {
      "id": "pt.ine.add.PTCONT.2596378",
      "street": "R LUIS ANTÓNIO VERNEY",
      "house": "112",
      "postcode": "2785-284",
      "city": "SÃO DOMINGOS DE RANA",
      "lon": "-9.350408640279484",
      "lat": "38.70335689708167"
    },
    {
      "id": "pt.ine.add.PTCONT.2596379",
      "street": "AV JOSE MARIA DA SILVA",
      "house": "340",
      "postcode": "2785-284",
      "city": "SÃO DOMINGOS DE RANA",
      "lon": "-9.350206450917824",
      "lat": "38.704313824859"
    },
    {
      "id": "pt.ine.add.PTCONT.2621458",
      "street": "R BELA VISTA",
      "house": "",
      "postcode": "2785-280",
      "city": "SÃO DOMINGOS DE RANA",
      "lon": "-9.348980250545853",
      "lat": "38.70521835147318"
    },
    {
      "id": "pt.ine.add.PTCONT.2629326",
      "street": "R ANTÓNIO DOS SANTOS",
      "house": "213",
      "postcode": "2785-549",
      "city": "SÃO DOMINGOS DE RANA",
      "lon": "-9.351838378602753",
      "lat": "38.7042878175628"
    },
    {
      "id": "pt.ine.add.PTCONT.2629327",
      "street": "R ANTÓNIO DOS SANTOS",
      "house": "213",
      "postcode": "2785-549",
      "city": "SÃO DOMINGOS DE RANA",
      "lon": "-9.351838378602753",
      "lat": "38.7042878175628"
    },
    {
      "id": "pt.ine.add.PTCONT.2629328",
      "street": "R ANTÓNIO DOS SANTOS",
      "house": "213",
      "postcode": "2785-549",
      "city": "SÃO DOMINGOS DE RANA",
      "lon": "-9.351838378602753",
      "lat": "38.7042878175628"
    },
    {
      "id": "pt.ine.add.PTCONT.2666862",
      "street": "PCT MIRA SOL",
      "house": "323",
      "postcode": "2785-280",
      "city": "SÃO DOMINGOS DE RANA",
      "lon": "-9.348776164617233",
      "lat": "38.70470703123188"
    },
    {
      "id": "pt.ine.add.PTCONT.2692906",
      "street": "R LUIS ANTÓNIO VERNEY",
      "house": "256",
      "postcode": "2785-284",
      "city": "SÃO DOMINGOS DE RANA",
      "lon": "-9.351915800947554",
      "lat": "38.70343127315927"
    },
    {
      "id": "pt.ine.add.PTCONT.2702510",
      "street": "R ANTÓNIO DOS SANTOS",
      "house": "285",
      "postcode": "2785-549",
      "city": "SÃO DOMINGOS DE RANA",
      "lon": "-9.352294754364952",
      "lat": "38.70408488875567"
    },
    {
      "id": "pt.ine.add.PTCONT.2707700",
      "street": "R ANTÓNIO DOS SANTOS",
      "house": "285",
      "postcode": "2785-549",
      "city": "SÃO DOMINGOS DE RANA",
      "lon": "-9.352294754364952",
      "lat": "38.70408488875567"
    },
    {
      "id": "pt.ine.add.PTCONT.2761074",
      "street": "R PAX JULIA",
      "house": "2",
      "postcode": "2785-567",
      "city": "SÃO DOMINGOS DE RANA",
      "lon": "-9.34912249812656",
      "lat": "38.70479350728388"
    },
    {
      "id": "pt.ine.add.PTCONT.2765512",
      "street": "R LUIS ANTÓNIO VERNEY",
      "house": "271",
      "postcode": "2785-284",
      "city": "SÃO DOMINGOS DE RANA",
      "lon": "-9.350228105394931",
      "lat": "38.70355694737721"
    },
    {
      "id": "pt.ine.add.PTCONT.2779118",
      "street": "R LUIS ANTÓNIO VERNEY",
      "house": "130",
      "postcode": "2785-284",
      "city": "SÃO DOMINGOS DE RANA",
      "lon": "-9.350573060360682",
      "lat": "38.703562363654164"
    },
    {
      "id": "pt.ine.add.PTCONT.2810595",
      "street": "R PAX JÚLIA",
      "house": "25 B",
      "postcode": "2785-567",
      "city": "SÃO DOMINGOS DE RANA",
      "lon": "-9.349584379142863",
      "lat": "38.704914811183215"
    },
    {
      "id": "pt.ine.add.PTCONT.2810596",
      "street": "R DIOGO BARBOSA MACHADO",
      "house": "31",
      "postcode": "2785-821",
      "city": "SÃO DOMINGOS DE RANA",
      "lon": "-9.352152244563992",
      "lat": "38.70381614188466"
    },
    {
      "id": "pt.ine.add.PTCONT.2810597",
      "street": "R DIOGO BARBOSA MACHADO",
      "house": "31",
      "postcode": "2785-821",
      "city": "SÃO DOMINGOS DE RANA",
      "lon": "-9.352152244563992",
      "lat": "38.70381614188466"
    },
    {
      "id": "pt.ine.add.PTCONT.2810598",
      "street": "R DIOGO BARBOSA MACHADO",
      "house": "31",
      "postcode": "2785-821",
      "city": "SÃO DOMINGOS DE RANA",
      "lon": "-9.352152244563992",
      "lat": "38.70381614188466"
    },
    {
      "id": "pt.ine.add.PTCONT.2810599",
      "street": "R DIOGO BARBOSA MACHADO",
      "house": "31",
      "postcode": "2785-821",
      "city": "SÃO DOMINGOS DE RANA",
      "lon": "-9.352152244563992",
      "lat": "38.70381614188466"
    },
    {
      "id": "pt.ine.add.PTCONT.2810600",
      "street": "R DIOGO BARBOSA MACHADO",
      "house": "31",
      "postcode": "2785-821",
      "city": "SÃO DOMINGOS DE RANA",
      "lon": "-9.352152244563992",
      "lat": "38.70381614188466"
    },
    {
      "id": "pt.ine.add.PTCONT.2810601",
      "street": "R DIOGO BARBOSA MACHADO",
      "house": "31",
      "postcode": "2785-821",
      "city": "SÃO DOMINGOS DE RANA",
      "lon": "-9.352152244563992",
      "lat": "38.70381614188466"
    },
    {
      "id": "pt.ine.add.PTCONT.2810602",
      "street": "AV JOSE MARIA DA SILVA",
      "house": "301 A",
      "postcode": "2785-284",
      "city": "SÃO DOMINGOS DE RANA",
      "lon": "-9.350415665034975",
      "lat": "38.70377118104225"
    },
    {
      "id": "pt.ine.add.PTCONT.2836228",
      "street": "R DIOGO BARBOSA MACHADO",
      "house": "95",
      "postcode": "2785-821",
      "city": "SÃO DOMINGOS DE RANA",
      "lon": "-9.35153450282895",
      "lat": "38.70399372859067"
    },
    {
      "id": "pt.ine.add.PTCONT.2836229",
      "street": "R DIOGO BARBOSA MACHADO",
      "house": "95",
      "postcode": "2785-821",
      "city": "SÃO DOMINGOS DE RANA",
      "lon": "-9.35153450282895",
      "lat": "38.70399372859067"
    },
    {
      "id": "pt.ine.add.PTCONT.2836230",
      "street": "R DIOGO BARBOSA MACHADO",
      "house": "95",
      "postcode": "2785-821",
      "city": "SÃO DOMINGOS DE RANA",
      "lon": "-9.35153450282895",
      "lat": "38.70399372859067"
    },
    {
      "id": "pt.ine.add.PTCONT.2836231",
      "street": "R DIOGO BARBOSA MACHADO",
      "house": "95",
      "postcode": "2785-821",
      "city": "SÃO DOMINGOS DE RANA",
      "lon": "-9.35153450282895",
      "lat": "38.70399372859067"
    },
    {
      "id": "pt.ine.add.PTCONT.2841838",
      "street": "R DIOGO BARBOSA MACHADO",
      "house": "95",
      "postcode": "2785-821",
      "city": "SÃO DOMINGOS DE RANA",
      "lon": "-9.35153450282895",
      "lat": "38.70399372859067"
    },
    {
      "id": "pt.ine.add.PTCONT.2842113",
      "street": "R DIOGO BARBOSA MACHADO",
      "house": "95",
      "postcode": "2785-821",
      "city": "SÃO DOMINGOS DE RANA",
      "lon": "-9.35153450282895",
      "lat": "38.70399372859067"
    },
    {
      "id": "pt.ine.add.PTCONT.2860987",
      "street": "R DIOGO BARBOSA MACHADO",
      "house": "47",
      "postcode": "2785-821",
      "city": "SÃO DOMINGOS DE RANA",
      "lon": "-9.351969266935296",
      "lat": "38.70387209612113"
    },
    {
      "id": "pt.ine.add.PTCONT.2860988",
      "street": "R DIOGO BARBOSA MACHADO",
      "house": "47",
      "postcode": "2785-821",
      "city": "SÃO DOMINGOS DE RANA",
      "lon": "-9.351969266935296",
      "lat": "38.70387209612113"
    },
    {
      "id": "pt.ine.add.PTCONT.2860989",
      "street": "R DIOGO BARBOSA MACHADO",
      "house": "47",
      "postcode": "2785-821",
      "city": "SÃO DOMINGOS DE RANA",
      "lon": "-9.351969266935296",
      "lat": "38.70387209612113"
    },
    {
      "id": "pt.ine.add.PTCONT.2860990",
      "street": "R DIOGO BARBOSA MACHADO",
      "house": "47",
      "postcode": "2785-821",
      "city": "SÃO DOMINGOS DE RANA",
      "lon": "-9.351969266935296",
      "lat": "38.70387209612113"
    },
    {
      "id": "pt.ine.add.PTCONT.2860991",
      "street": "R DIOGO BARBOSA MACHADO",
      "house": "47",
      "postcode": "2785-821",
      "city": "SÃO DOMINGOS DE RANA",
      "lon": "-9.351969266935296",
      "lat": "38.70387209612113"
    }
  ]
}