{
  "data": {
    "distrito": "Porto",
    "concelho": "Lousada",
    "freguesia": "Uni√£o das freguesias de Silvares, Pias, Nogueira e Alvarenga",
    "OBJECTID": 79,
    "BGRI2021": "13053200419",
    "DT21": "13",
    "DTMN21": "1305",
    "DTMNFR21": "130532",
    "DTMNFRSEC21": "130532004",
    "SECNUM21": "004",
    "SSNUM21": "19",
    "SECSSNUM21": "00419",
    "OBJECTID_1": 129786,
    "DT": "13",
    "CC": "05",
    "fr": "32",
    "SEC": "004",
    "SS": "19"
  },
  "addresses": [
    {
      "id": "pt.ine.add.PTCONT.3560534",
      "street": "R CANCELA NOVA",
      "house": "923",
      "postcode": "4620-641",
      "city": "LOUSADA",
      "lon": "-8.284906781172518",
      "lat": "41.29231789780098"
    },
    {
      "id": "pt.ine.add.PTCONT.3566847",
      "street": "R SERRA DAS PANELAS",
      "house": "156",
      "postcode": "4620-679",
      "city": "LOUSADA",
      "lon": "-8.28833530533952",
      "lat": "41.29323175142711"
    },
    {
      "id": "pt.ine.add.PTCONT.3592057",
      "street": "R CANCELA NOVA",
      "house": "941",
      "postcode": "4620-641",
      "city": "LOUSADA",
      "lon": "-8.285216763683525",
      "lat": "41.2921374051692"
    },
    {
      "id": "pt.ine.add.PTCONT.3631099",
      "street": "R CANCELA NOVA",
      "house": "624",
      "postcode": "4620-641",
      "city": "LOUSADA",
      "lon": "-8.282091631944176",
      "lat": "41.29334805114787"
    },
    {
      "id": "pt.ine.add.PTCONT.3684861",
      "street": "R LAGARES",
      "house": "919",
      "postcode": "4620-646",
      "city": "LOUSADA",
      "lon": "-8.280705486424054",
      "lat": "41.29279157802183"
    },
    {
      "id": "pt.ine.add.PTCONT.3741731",
      "street": "R CANCELA NOVA",
      "house": "669",
      "postcode": "4620-641",
      "city": "LOUSADA",
      "lon": "-8.28262895487643",
      "lat": "41.2933833711962"
    },
    {
      "id": "pt.ine.add.PTCONT.3766797",
      "street": "R LAGARES",
      "house": "961",
      "postcode": "4620-646",
      "city": "LOUSADA",
      "lon": "-8.281135417833765",
      "lat": "41.29285405520352"
    },
    {
      "id": "pt.ine.add.PTCONT.3779929",
      "street": "R SALGUEIRO",
      "house": "60",
      "postcode": "4620-641",
      "city": "LOUSADA",
      "lon": "-8.284655885277852",
      "lat": "41.29223719080238"
    },
    {
      "id": "pt.ine.add.PTCONT.3870070",
      "street": "R CANCELA NOVA",
      "house": "1057",
      "postcode": "4620-641",
      "city": "LOUSADA",
      "lon": "-8.286637250342785",
      "lat": "41.2920544819477"
    },
    {
      "id": "pt.ine.add.PTCONT.3895269",
      "street": "R CANCELA NOVA",
      "house": "957",
      "postcode": "4620-641",
      "city": "LOUSADA",
      "lon": "-8.285443573472321",
      "lat": "41.29212810108735"
    },
    {
      "id": "pt.ine.add.PTCONT.3980284",
      "street": "R CANCELA NOVA",
      "house": "687",
      "postcode": "4620-641",
      "city": "LOUSADA",
      "lon": "-8.282927360280425",
      "lat": "41.29335597071562"
    },
    {
      "id": "pt.ine.add.PTCONT.3986901",
      "street": "R LAGARES",
      "house": "971",
      "postcode": "4620-646",
      "city": "LOUSADA",
      "lon": "-8.281207497403244",
      "lat": "41.29305205429082"
    },
    {
      "id": "pt.ine.add.PTCONT.4031628",
      "street": "R LAGARES",
      "house": "1035",
      "postcode": "4620-646",
      "city": "LOUSADA",
      "lon": "-8.281769410170847",
      "lat": "41.29340249273561"
    },
    {
      "id": "pt.ine.add.PTCONT.4035665",
      "street": "R LAGARES",
      "house": "1035",
      "postcode": "4620-646",
      "city": "LOUSADA",
      "lon": "-8.281769410170847",
      "lat": "41.29340249273561"
    },
    {
      "id": "pt.ine.add.PTCONT.4097636",
      "street": "R LAGARES",
      "house": "869",
      "postcode": "4620-646",
      "city": "LOUSADA",
      "lon": "-8.280096093259363",
      "lat": "41.29255824922813"
    },
    {
      "id": "pt.ine.add.PTCONT.4103862",
      "street": "R SALGUEIRO",
      "house": "31",
      "postcode": "4620-641",
      "city": "LOUSADA",
      "lon": "-8.284214992668115",
      "lat": "41.2925979372888"
    },
    {
      "id": "pt.ine.add.PTCONT.4110052",
      "street": "R CANCELA NOVA",
      "house": "977",
      "postcode": "4620-641",
      "city": "LOUSADA",
      "lon": "-8.285682384588434",
      "lat": "41.29214579317378"
    },
    {
      "id": "pt.ine.add.PTCONT.4114752",
      "street": "R CANCELA NOVA",
      "house": "977",
      "postcode": "4620-641",
      "city": "LOUSADA",
      "lon": "-8.285682384588434",
      "lat": "41.29214579317378"
    },
    {
      "id": "pt.ine.add.PTCONT.4182293",
      "street": "VIADUTO DE MOS",
      "house": "18",
      "postcode": "4620-679",
      "city": "LOUSADA",
      "lon": "-8.28697148445631",
      "lat": "41.29203602736613"
    },
    {
      "id": "pt.ine.add.PTCONT.4203683",
      "street": "R CANCELA NOVA",
      "house": "641",
      "postcode": "4620-641",
      "city": "LOUSADA",
      "lon": "-8.282354262429347",
      "lat": "41.29333870678931"
    },
    {
      "id": "pt.ine.add.PTCONT.4234477",
      "street": "R LAGARES",
      "house": "1015",
      "postcode": "4620-646",
      "city": "LOUSADA",
      "lon": "-8.28157786028953",
      "lat": "41.293168631467786"
    },
    {
      "id": "pt.ine.add.PTCONT.4264953",
      "street": "R CANCELA NOVA",
      "house": "599",
      "postcode": "4620-641",
      "city": "LOUSADA",
      "lon": "-8.281888715260921",
      "lat": "41.29336632192026"
    },
    {
      "id": "pt.ine.add.PTCONT.4301191",
      "street": "R SALGUEIRO",
      "house": "74",
      "postcode": "4620-641",
      "city": "LOUSADA",
      "lon": "-8.284607610583615",
      "lat": "41.292012150003636"
    },
    {
      "id": "pt.ine.add.PTCONT.4334368",
      "street": "R CANCELA NOVA",
      "house": "935",
      "postcode": "4620-641",
      "city": "LOUSADA",
      "lon": "-8.28507360664141",
      "lat": "41.29218261510169"
    },
    {
      "id": "pt.ine.add.PTCONT.4353968",
      "street": "R CANCELA NOVA",
      "house": "1043",
      "postcode": "4620-641",
      "city": "LOUSADA",
      "lon": "-8.286458215854196",
      "lat": "41.29207272892383"
    },
    {
      "id": "pt.ine.add.PTCONT.4389332",
      "street": "R SALGUEIRO",
      "house": "47",
      "postcode": "4620-641",
      "city": "LOUSADA",
      "lon": "-8.284286021103103",
      "lat": "41.29233672301635"
    }
  ]
}