{
  "data": {
    "distrito": "Leiria",
    "concelho": "Alcobaça",
    "freguesia": "Évora de Alcobaça",
    "OBJECTID": 1124,
    "BGRI2021": "10010800126",
    "DT21": "10",
    "DTMN21": "1001",
    "DTMNFR21": "100108",
    "DTMNFRSEC21": "100108001",
    "SECNUM21": "001",
    "SSNUM21": "26",
    "SECSSNUM21": "00126",
    "OBJECTID_1": 83934,
    "DT": "10",
    "CC": "01",
    "fr": "08",
    "SEC": "001",
    "SS": "26"
  },
  "addresses": [
    {
      "id": "pt.ine.add.PTCONT.1982042",
      "street": "ESTR D MARIA PIA",
      "house": "133",
      "postcode": "2460-500",
      "city": "ALCOBAÇA",
      "lon": "-8.917225225034372",
      "lat": "39.50929141628491"
    },
    {
      "id": "pt.ine.add.PTCONT.1984261",
      "street": "R D MARIA PIA",
      "house": "117",
      "postcode": "2460-500",
      "city": "ALCOBAÇA",
      "lon": "-8.91752447710108",
      "lat": "39.509019193503235"
    },
    {
      "id": "pt.ine.add.PTCONT.2018909",
      "street": "R CHÃO DO CEPO",
      "house": "10",
      "postcode": "2460-500",
      "city": "ALCOBAÇA",
      "lon": "-8.916364860228953",
      "lat": "39.50929721607751"
    },
    {
      "id": "pt.ine.add.PTCONT.2021579",
      "street": "TV SEIXEIRINHA",
      "house": "",
      "postcode": "2460-500",
      "city": "ALCOBAÇA",
      "lon": "-8.91588231462455",
      "lat": "39.507742289455884"
    },
    {
      "id": "pt.ine.add.PTCONT.2035771",
      "street": "R D MARIA PIA",
      "house": "119",
      "postcode": "2460-500",
      "city": "ALCOBAÇA",
      "lon": "-8.917709386887262",
      "lat": "39.50891887090122"
    },
    {
      "id": "pt.ine.add.PTCONT.2045693",
      "street": "TV SEIXEIRINHA",
      "house": "",
      "postcode": "2460-500",
      "city": "ALCOBAÇA",
      "lon": "-8.91514731825227",
      "lat": "39.50855784822528"
    },
    {
      "id": "pt.ine.add.PTCONT.2054729",
      "street": "ESTR D MARIA PIA",
      "house": "129",
      "postcode": "2460-500",
      "city": "ALCOBAÇA",
      "lon": "-8.918167047395121",
      "lat": "39.508258284822894"
    },
    {
      "id": "pt.ine.add.PTCONT.2077955",
      "street": "R D MARIA PIA",
      "house": "135",
      "postcode": "2460-500",
      "city": "ALCOBAÇA",
      "lon": "-8.91845050812517",
      "lat": "39.507616887394654"
    },
    {
      "id": "pt.ine.add.PTCONT.2089526",
      "street": "R D MARIA PIA",
      "house": "137",
      "postcode": "2460-500",
      "city": "ALCOBAÇA",
      "lon": "-8.918483054922078",
      "lat": "39.507409511075814"
    },
    {
      "id": "pt.ine.add.PTCONT.2089527",
      "street": "R D MARIA PIA",
      "house": "123",
      "postcode": "2460-500",
      "city": "ALCOBAÇA",
      "lon": "-8.917847283692751",
      "lat": "39.5087738313547"
    },
    {
      "id": "pt.ine.add.PTCONT.2091896",
      "street": "ESTR D MARIA PIA",
      "house": "133",
      "postcode": "2460-500",
      "city": "ALCOBAÇA",
      "lon": "-8.918267224674787",
      "lat": "39.5078613090307"
    },
    {
      "id": "pt.ine.add.PTCONT.2100144",
      "street": "R CHÃO DO CEPO",
      "house": "14",
      "postcode": "2460-500",
      "city": "ALCOBAÇA",
      "lon": "-8.916098258215438",
      "lat": "39.509371066376076"
    },
    {
      "id": "pt.ine.add.PTCONT.2104605",
      "street": "TV VENDA",
      "house": "2",
      "postcode": "2460-500",
      "city": "ALCOBAÇA",
      "lon": "-8.916998248251222",
      "lat": "39.50875253893736"
    },
    {
      "id": "pt.ine.add.PTCONT.2108670",
      "street": "TV SEIXEIRINHA",
      "house": "",
      "postcode": "2460-500",
      "city": "ALCOBAÇA",
      "lon": "-8.91732264232127",
      "lat": "39.50657971174715"
    },
    {
      "id": "pt.ine.add.PTCONT.2113761",
      "street": "TV VENDA",
      "house": "1",
      "postcode": "2460-500",
      "city": "ALCOBAÇA",
      "lon": "-8.916945074637262",
      "lat": "39.50919423069872"
    },
    {
      "id": "pt.ine.add.PTCONT.2124319",
      "street": "R SEIXEIRINHA",
      "house": "7",
      "postcode": "2460-500",
      "city": "ALCOBAÇA",
      "lon": "-8.91851850785099",
      "lat": "39.50642753002138"
    },
    {
      "id": "pt.ine.add.PTCONT.2135440",
      "street": "R SEIXEIRINHA",
      "house": "11",
      "postcode": "2460-500",
      "city": "ALCOBAÇA",
      "lon": "-8.918064888463428",
      "lat": "39.50641258008228"
    },
    {
      "id": "pt.ine.add.PTCONT.2138353",
      "street": "ESTR D MARIA PIA",
      "house": "141",
      "postcode": "2460-500",
      "city": "ALCOBAÇA",
      "lon": "-8.9190265454399",
      "lat": "39.507144640972854"
    },
    {
      "id": "pt.ine.add.PTCONT.2152891",
      "street": "R LAJA",
      "house": "3",
      "postcode": "2460-500",
      "city": "ALCOBAÇA",
      "lon": "-8.9144925810609",
      "lat": "39.509273788059886"
    },
    {
      "id": "pt.ine.add.PTCONT.2152892",
      "street": "ESTR D MARIA PIA",
      "house": "111",
      "postcode": "2460-500",
      "city": "ALCOBAÇA",
      "lon": "-8.917053559546943",
      "lat": "39.5095357576045"
    },
    {
      "id": "pt.ine.add.PTCONT.2185335",
      "street": "R CHÃO DO CEPO",
      "house": "4",
      "postcode": "2460-500",
      "city": "ALCOBAÇA",
      "lon": "-8.916913332080886",
      "lat": "39.50947365551935"
    },
    {
      "id": "pt.ine.add.PTCONT.2185673",
      "street": "TV SEIXEIRINHA",
      "house": "1",
      "postcode": "2460-500",
      "city": "ALCOBAÇA",
      "lon": "-8.917184748676195",
      "lat": "39.50672475069341"
    },
    {
      "id": "pt.ine.add.PTCONT.2242847",
      "street": "R CHÃO DO CEPO",
      "house": "8",
      "postcode": "2460-500",
      "city": "ALCOBAÇA",
      "lon": "-8.916610029394768",
      "lat": "39.50938563202271"
    }
  ]
}