{
  "data": {
    "distrito": "Santarém",
    "concelho": "Cartaxo",
    "freguesia": "União das freguesias do Cartaxo e Vale da Pinta",
    "OBJECTID": 453,
    "BGRI2021": "14060901121",
    "DT21": "14",
    "DTMN21": "1406",
    "DTMNFR21": "140609",
    "DTMNFRSEC21": "140609011",
    "SECNUM21": "011",
    "SSNUM21": "21",
    "SECSSNUM21": "01121",
    "OBJECTID_1": 149670,
    "DT": "14",
    "CC": "06",
    "fr": "09",
    "SEC": "011",
    "SS": "21"
  },
  "addresses": [
    {
      "id": "pt.ine.add.PTCONT.4406009",
      "street": "R VALE MOSQUEIRO",
      "house": "",
      "postcode": "2070-229",
      "city": "CARTAXO",
      "lon": "-8.799972592955543",
      "lat": "39.16488875125509"
    },
    {
      "id": "pt.ine.add.PTCONT.4431530",
      "street": "R ALTO PEDRAO",
      "house": "",
      "postcode": "2070-229",
      "city": "CARTAXO",
      "lon": "-8.804480533995442",
      "lat": "39.16075550470752"
    },
    {
      "id": "pt.ine.add.PTCONT.4436731",
      "street": "EN 365-2",
      "house": "",
      "postcode": "2070-604",
      "city": "VALE DA PINTA",
      "lon": "-8.802735623721317",
      "lat": "39.15854072147025"
    },
    {
      "id": "pt.ine.add.PTCONT.4438876",
      "street": "R VALE MOSQUEIRO",
      "house": "",
      "postcode": "2070-229",
      "city": "CARTAXO",
      "lon": "-8.79990104727289",
      "lat": "39.16466397634147"
    },
    {
      "id": "pt.ine.add.PTCONT.4440580",
      "street": "ALTO MOINHO",
      "house": "",
      "postcode": "2070-229",
      "city": "CARTAXO",
      "lon": "-8.799920101030054",
      "lat": "39.16545651606438"
    },
    {
      "id": "pt.ine.add.PTCONT.4440581",
      "street": "ALTO MOINHO",
      "house": "",
      "postcode": "2070-229",
      "city": "CARTAXO",
      "lon": "-8.799920101030054",
      "lat": "39.16545651606438"
    },
    {
      "id": "pt.ine.add.PTCONT.4440582",
      "street": "ALTO MOINHO",
      "house": "",
      "postcode": "2070-229",
      "city": "CARTAXO",
      "lon": "-8.799920101030054",
      "lat": "39.16545651606438"
    },
    {
      "id": "pt.ine.add.PTCONT.4440583",
      "street": "ALTO MOINHO",
      "house": "",
      "postcode": "2070-229",
      "city": "CARTAXO",
      "lon": "-8.799920101030054",
      "lat": "39.16545651606438"
    },
    {
      "id": "pt.ine.add.PTCONT.4441808",
      "street": "EM 512",
      "house": "",
      "postcode": "2070-551",
      "city": "VALE DA PINTA",
      "lon": "-8.803500284850239",
      "lat": "39.16596740967501"
    },
    {
      "id": "pt.ine.add.PTCONT.4442132",
      "street": "EM 512",
      "house": "",
      "postcode": "2070-558",
      "city": "VALE DA PINTA",
      "lon": "-8.8040242096564",
      "lat": "39.16509067955368"
    },
    {
      "id": "pt.ine.add.PTCONT.4442959",
      "street": "R VALE PINTA",
      "house": "",
      "postcode": "2070-240",
      "city": "CARTAXO",
      "lon": "-8.801410952707824",
      "lat": "39.166492830650775"
    },
    {
      "id": "pt.ine.add.PTCONT.4447064",
      "street": "EM 512",
      "house": "2",
      "postcode": "2070-551",
      "city": "VALE DA PINTA",
      "lon": "-8.803789623149564",
      "lat": "39.165974752163166"
    },
    {
      "id": "pt.ine.add.PTCONT.4468902",
      "street": "R VALE MOSQUEIRO",
      "house": "",
      "postcode": "2070-229",
      "city": "CARTAXO",
      "lon": "-8.802050916227655",
      "lat": "39.164426470837974"
    },
    {
      "id": "pt.ine.add.PTCONT.4469302",
      "street": "EM 512 CASAL DO SOL POSTO",
      "house": "",
      "postcode": "2070-558",
      "city": "VALE DA PINTA",
      "lon": "-8.804055906849442",
      "lat": "39.16599123404389"
    },
    {
      "id": "pt.ine.add.PTCONT.4474072",
      "street": "FAMILIA SIMÕES",
      "house": "",
      "postcode": "2070-601",
      "city": "VALE DA PINTA",
      "lon": "-8.811753574901955",
      "lat": "39.16270400672372"
    },
    {
      "id": "pt.ine.add.PTCONT.4491312",
      "street": "URB VAPOR",
      "house": "",
      "postcode": "2070-240",
      "city": "CARTAXO",
      "lon": "-8.800738859101022",
      "lat": "39.166388594697494"
    },
    {
      "id": "pt.ine.add.PTCONT.4495423",
      "street": "R ALTO PEDRAO",
      "house": "",
      "postcode": "2070-229",
      "city": "CARTAXO",
      "lon": "-8.802645974007097",
      "lat": "39.16128848715298"
    },
    {
      "id": "pt.ine.add.PTCONT.4495442",
      "street": "EM 512",
      "house": "",
      "postcode": "2070-558",
      "city": "VALE DA PINTA",
      "lon": "-8.80395641548584",
      "lat": "39.16526220988505"
    },
    {
      "id": "pt.ine.add.PTCONT.4499552",
      "street": "R VALE PINTA",
      "house": "",
      "postcode": "2070-240",
      "city": "CARTAXO",
      "lon": "-8.80264046813885",
      "lat": "39.166810038230444"
    },
    {
      "id": "pt.ine.add.PTCONT.4501362",
      "street": "URB VAPOR",
      "house": "",
      "postcode": "2070-240",
      "city": "CARTAXO",
      "lon": "-8.80017089896148",
      "lat": "39.166283758815446"
    },
    {
      "id": "pt.ine.add.PTCONT.4504811",
      "street": "EM 512 QTA LAGOA DO SOL POSTO",
      "house": "",
      "postcode": "2070-558",
      "city": "VALE DA PINTA",
      "lon": "-8.80487164087447",
      "lat": "39.16659903554766"
    },
    {
      "id": "pt.ine.add.PTCONT.4507427",
      "street": "R VALE MOSQUEIRO CASA BRANCA",
      "house": "",
      "postcode": "2070-229",
      "city": "CARTAXO",
      "lon": "-8.800996780951316",
      "lat": "39.16429740658938"
    },
    {
      "id": "pt.ine.add.PTCONT.4511147",
      "street": "R VALE MOSQUEIRO",
      "house": "C FAGOTE",
      "postcode": "2070-229",
      "city": "CARTAXO",
      "lon": "-8.802824376989983",
      "lat": "39.15935988307676"
    },
    {
      "id": "pt.ine.add.PTCONT.4511715",
      "street": "R ALTO PEDRAO",
      "house": "",
      "postcode": "2070-229",
      "city": "CARTAXO",
      "lon": "-8.806172598898538",
      "lat": "39.16348398612564"
    },
    {
      "id": "pt.ine.add.PTCONT.4521890",
      "street": "R VALE PINTA",
      "house": "",
      "postcode": "2070-240",
      "city": "CARTAXO",
      "lon": "-8.801121016036056",
      "lat": "39.16642243410526"
    },
    {
      "id": "pt.ine.add.PTCONT.4525229",
      "street": "ESTR VALE PINTA CASA DO MOINHO",
      "house": "",
      "postcode": "2070-240",
      "city": "CARTAXO",
      "lon": "-8.799798357615597",
      "lat": "39.16604269175371"
    },
    {
      "id": "pt.ine.add.PTCONT.4531613",
      "street": "R ALTO PEDRAO",
      "house": "",
      "postcode": "2070-229",
      "city": "CARTAXO",
      "lon": "-8.803227432198085",
      "lat": "39.16160040320552"
    },
    {
      "id": "pt.ine.add.PTCONT.4538259",
      "street": "EM 512 CASA PATUSCA",
      "house": "",
      "postcode": "2070-551",
      "city": "VALE DA PINTA",
      "lon": "-8.803614874221354",
      "lat": "39.16584965459943"
    },
    {
      "id": "pt.ine.add.PTCONT.4538308",
      "street": "",
      "house": "",
      "postcode": "2070-550",
      "city": "VALE DA PINTA",
      "lon": "-8.817249371620802",
      "lat": "39.16269889416678"
    },
    {
      "id": "pt.ine.add.PTCONT.4540106",
      "street": "SIT FAGOTE",
      "house": "",
      "postcode": "2070-229",
      "city": "CARTAXO",
      "lon": "-8.803673362394866",
      "lat": "39.15982338475892"
    },
    {
      "id": "pt.ine.add.PTCONT.4550043",
      "street": "SIT DO FAGOTE DE BAIXO",
      "house": "",
      "postcode": "2070-243",
      "city": "CARTAXO",
      "lon": "-8.804370932414532",
      "lat": "39.16017966391751"
    },
    {
      "id": "pt.ine.add.PTCONT.4554815",
      "street": "R ALTO PEDRAO CASALINHO",
      "house": "",
      "postcode": "2070-229",
      "city": "CARTAXO",
      "lon": "-8.80235042501796",
      "lat": "39.16062363887071"
    },
    {
      "id": "pt.ine.add.PTCONT.4558921",
      "street": "FAMILIA SANTOS",
      "house": "",
      "postcode": "2070-601",
      "city": "VALE DA PINTA",
      "lon": "-8.81173208011639",
      "lat": "39.162875271949595"
    },
    {
      "id": "pt.ine.add.PTCONT.4563166",
      "street": "",
      "house": "",
      "postcode": "2070-601",
      "city": "VALE DA PINTA",
      "lon": "-8.812827208797964",
      "lat": "39.16485951802655"
    },
    {
      "id": "pt.ine.add.PTCONT.4565290",
      "street": "FAMILIA RIBEIRO",
      "house": "",
      "postcode": "2070-601",
      "city": "VALE DA PINTA",
      "lon": "-8.81148911882993",
      "lat": "39.16287668655117"
    },
    {
      "id": "pt.ine.add.PTCONT.4568904",
      "street": "R VALE MOSQUEIRO",
      "house": "",
      "postcode": "2070-229",
      "city": "CARTAXO",
      "lon": "-8.801542524265235",
      "lat": "39.16450144705919"
    },
    {
      "id": "pt.ine.add.PTCONT.4579785",
      "street": "R LATO PEDRAO",
      "house": "",
      "postcode": "2070-229",
      "city": "CARTAXO",
      "lon": "-8.804370932414532",
      "lat": "39.16017966391751"
    },
    {
      "id": "pt.ine.add.PTCONT.4581300",
      "street": "R ALTO PEDRAO",
      "house": "",
      "postcode": "2070-229",
      "city": "CARTAXO",
      "lon": "-8.803006588538185",
      "lat": "39.16149358440553"
    },
    {
      "id": "pt.ine.add.PTCONT.4586018",
      "street": "EM 512",
      "house": "",
      "postcode": "2070-558",
      "city": "VALE DA PINTA",
      "lon": "-8.804060631005177",
      "lat": "39.16527061726676"
    },
    {
      "id": "pt.ine.add.PTCONT.4594384",
      "street": "R ALTO PEDRAO VILA SILVA",
      "house": "",
      "postcode": "2070-229",
      "city": "CARTAXO",
      "lon": "-8.805252594767172",
      "lat": "39.16407477533793"
    },
    {
      "id": "pt.ine.add.PTCONT.4610616",
      "street": "R ALTO PEDRÃO",
      "house": "",
      "postcode": "2070-229",
      "city": "CARTAXO",
      "lon": "-8.802517686826956",
      "lat": "39.161181135610946"
    },
    {
      "id": "pt.ine.add.PTCONT.4619331",
      "street": "EM 512 SITIO DO SISLDO",
      "house": "",
      "postcode": "2070-558",
      "city": "VALE DA PINTA",
      "lon": "-8.808157526192547",
      "lat": "39.165364052600175"
    },
    {
      "id": "pt.ine.add.PTCONT.4626443",
      "street": "",
      "house": "",
      "postcode": "2070-550",
      "city": "VALE DA PINTA",
      "lon": "-8.817231869475748",
      "lat": "39.162086495779334"
    },
    {
      "id": "pt.ine.add.PTCONT.4626444",
      "street": "",
      "house": "",
      "postcode": "2070-550",
      "city": "VALE DA PINTA",
      "lon": "-8.817231869475748",
      "lat": "39.162086495779334"
    },
    {
      "id": "pt.ine.add.PTCONT.4633901",
      "street": "SIT SIZUDO",
      "house": "",
      "postcode": "2070-601",
      "city": "VALE DA PINTA",
      "lon": "-8.810690135679447",
      "lat": "39.16401626361318"
    },
    {
      "id": "pt.ine.add.PTCONT.4635884",
      "street": "",
      "house": "",
      "postcode": "2070-550",
      "city": "VALE DA PINTA",
      "lon": "-8.814924849249145",
      "lat": "39.162811598665776"
    },
    {
      "id": "pt.ine.add.PTCONT.4640248",
      "street": "R VALE MOSQUEIRO QTA DA ROCHA",
      "house": "107",
      "postcode": "2070-229",
      "city": "CARTAXO",
      "lon": "-8.802382003699652",
      "lat": "39.163956186435236"
    },
    {
      "id": "pt.ine.add.PTCONT.4640249",
      "street": "R VALE MOSQUEIRO QTA DA ROCHA",
      "house": "107",
      "postcode": "2070-229",
      "city": "CARTAXO",
      "lon": "-8.802382003699652",
      "lat": "39.163956186435236"
    },
    {
      "id": "pt.ine.add.PTCONT.4640250",
      "street": "R VALE MOSQUEIRO QTA DA ROCHA",
      "house": "107",
      "postcode": "2070-229",
      "city": "CARTAXO",
      "lon": "-8.802382003699652",
      "lat": "39.163956186435236"
    },
    {
      "id": "pt.ine.add.PTCONT.4644133",
      "street": "EN 365-2 QTA DO REFUGIO",
      "house": "",
      "postcode": "2070-604",
      "city": "VALE DA PINTA",
      "lon": "-8.804196915302365",
      "lat": "39.157694629291036"
    },
    {
      "id": "pt.ine.add.PTCONT.4648150",
      "street": "EM 512",
      "house": "",
      "postcode": "2070-558",
      "city": "VALE DA PINTA",
      "lon": "-8.812468623029714",
      "lat": "39.16727558310387"
    },
    {
      "id": "pt.ine.add.PTCONT.4654349",
      "street": "CSL SOUSAS",
      "house": "VIVENDA",
      "postcode": "2070-550",
      "city": "VALE DA PINTA",
      "lon": "-8.813100955438573",
      "lat": "39.159642652909575"
    },
    {
      "id": "pt.ine.add.PTCONT.4654350",
      "street": "",
      "house": "",
      "postcode": "2070-550",
      "city": "VALE DA PINTA",
      "lon": "-8.81591435770038",
      "lat": "39.16343632090789"
    }
  ]
}