{
  "data": {
    "distrito": "Braga",
    "concelho": "Guimarães",
    "freguesia": "União das freguesias de Atães e Rendufe",
    "OBJECTID": 561,
    "BGRI2021": "03087800117",
    "DT21": "03",
    "DTMN21": "0308",
    "DTMNFR21": "030878",
    "DTMNFRSEC21": "030878001",
    "SECNUM21": "001",
    "SSNUM21": "17",
    "SECSSNUM21": "00117",
    "OBJECTID_1": 26395,
    "DT": "03",
    "CC": "08",
    "fr": "78",
    "SEC": "001",
    "SS": "17"
  },
  "addresses": [
    {
      "id": "pt.ine.add.PTCONT.465973",
      "street": "R 24 DE JUNHO",
      "house": "218",
      "postcode": "4800-250",
      "city": "ATÃES GMR",
      "lon": "-8.257599161251148",
      "lat": "41.45938467817475"
    },
    {
      "id": "pt.ine.add.PTCONT.513623",
      "street": "R NSA SRA DA GUIA",
      "house": "169",
      "postcode": "4800-241",
      "city": "ATÃES GMR",
      "lon": "-8.256331153063273",
      "lat": "41.459764207715295"
    },
    {
      "id": "pt.ine.add.PTCONT.513624",
      "street": "R NSA SRA DA GUIA",
      "house": "104",
      "postcode": "4800-241",
      "city": "ATÃES GMR",
      "lon": "-8.256618378837342",
      "lat": "41.459745891867485"
    },
    {
      "id": "pt.ine.add.PTCONT.540438",
      "street": "TV CRUZ",
      "house": "143",
      "postcode": "4800-236",
      "city": "ATÃES GMR",
      "lon": "-8.25788030080798",
      "lat": "41.46243669908298"
    },
    {
      "id": "pt.ine.add.PTCONT.565760",
      "street": "R CRUZ",
      "house": "573",
      "postcode": "4800-236",
      "city": "ATÃES GMR",
      "lon": "-8.256934184194563",
      "lat": "41.46216760415313"
    },
    {
      "id": "pt.ine.add.PTCONT.578491",
      "street": "R NSA SRA GUIA",
      "house": "2",
      "postcode": "4800-250",
      "city": "ATÃES GMR",
      "lon": "-8.257168840110555",
      "lat": "41.4596822721592"
    },
    {
      "id": "pt.ine.add.PTCONT.587203",
      "street": "TV CRUZ",
      "house": "239",
      "postcode": "4800-236",
      "city": "ATÃES GMR",
      "lon": "-8.258227178499187",
      "lat": "41.462310267614235"
    },
    {
      "id": "pt.ine.add.PTCONT.598888",
      "street": "TV CRUZ",
      "house": "291",
      "postcode": "4800-236",
      "city": "ATÃES GMR",
      "lon": "-8.258502237191875",
      "lat": "41.4621839134056"
    },
    {
      "id": "pt.ine.add.PTCONT.702133",
      "street": "R 24 JUNHO",
      "house": "175",
      "postcode": "4800-250",
      "city": "ATÃES GMR",
      "lon": "-8.257852047784995",
      "lat": "41.4601857523762"
    },
    {
      "id": "pt.ine.add.PTCONT.728960",
      "street": "R ROUPEIRO",
      "house": "76",
      "postcode": "4800-244",
      "city": "ATÃES GMR",
      "lon": "-8.256307061375525",
      "lat": "41.45968319831134"
    },
    {
      "id": "pt.ine.add.PTCONT.745263",
      "street": "R NSA SRA DA GUIA",
      "house": "163",
      "postcode": "4800-241",
      "city": "ATÃES GMR",
      "lon": "-8.25612805160412",
      "lat": "41.45996251114886"
    },
    {
      "id": "pt.ine.add.PTCONT.750058",
      "street": "R 24 JUNHO",
      "house": "210",
      "postcode": "4800-250",
      "city": "ATÃES GMR",
      "lon": "-8.25810181132452",
      "lat": "41.459357121379746"
    },
    {
      "id": "pt.ine.add.PTCONT.750059",
      "street": "R 24 JUNHO",
      "house": "212",
      "postcode": "4800-250",
      "city": "ATÃES GMR",
      "lon": "-8.25810181132452",
      "lat": "41.459357121379746"
    },
    {
      "id": "pt.ine.add.PTCONT.753181",
      "street": "R CRUZ",
      "house": "649",
      "postcode": "4800-236",
      "city": "ATÃES GMR",
      "lon": "-8.257066329959201",
      "lat": "41.462419571254195"
    },
    {
      "id": "pt.ine.add.PTCONT.760975",
      "street": "TV CRUZ",
      "house": "377",
      "postcode": "4800-236",
      "city": "ATÃES GMR",
      "lon": "-8.25884897318141",
      "lat": "41.46198544894573"
    },
    {
      "id": "pt.ine.add.PTCONT.770857",
      "street": "R CRUZ",
      "house": "511",
      "postcode": "4800-236",
      "city": "ATÃES GMR",
      "lon": "-8.256885894857398",
      "lat": "41.461951562324224"
    },
    {
      "id": "pt.ine.add.PTCONT.803020",
      "street": "R CRUZ",
      "house": "493",
      "postcode": "4800-236",
      "city": "ATÃES GMR",
      "lon": "-8.256801680153417",
      "lat": "41.46172655519279"
    },
    {
      "id": "pt.ine.add.PTCONT.826099",
      "street": "R 24 JUNHO",
      "house": "216",
      "postcode": "4800-250",
      "city": "ATÃES GMR",
      "lon": "-8.257898457635603",
      "lat": "41.45942036954135"
    },
    {
      "id": "pt.ine.add.PTCONT.826100",
      "street": "R 24-JUN",
      "house": "214",
      "postcode": "4800-250",
      "city": "ATÃES GMR",
      "lon": "-8.257898457635603",
      "lat": "41.45942036954135"
    }
  ]
}