{
  "data": {
    "distrito": "Évora",
    "concelho": "Reguengos de Monsaraz",
    "freguesia": "Reguengos de Monsaraz",
    "OBJECTID": 80,
    "BGRI2021": "07110400527",
    "DT21": "07",
    "DTMN21": "0711",
    "DTMNFR21": "071104",
    "DTMNFRSEC21": "071104005",
    "SECNUM21": "005",
    "SSNUM21": "27",
    "SECSSNUM21": "00527",
    "OBJECTID_1": 63244,
    "DT": "07",
    "CC": "11",
    "fr": "04",
    "SEC": "005",
    "SS": "27"
  },
  "addresses": [
    {
      "id": "pt.ine.add.PTCONT.1367772",
      "street": "R MANUEL AUGUSTO PAPANCA",
      "house": "",
      "postcode": "7200-480",
      "city": "REGUENGOS DE MONSARAZ",
      "lon": "-7.543744042641919",
      "lat": "38.42935804445498"
    },
    {
      "id": "pt.ine.add.PTCONT.1382745",
      "street": "R MANUEL AUGUSTO PAPANCA",
      "house": "",
      "postcode": "7200-480",
      "city": "REGUENGOS DE MONSARAZ",
      "lon": "-7.5436902198338975",
      "lat": "38.429301622711456"
    },
    {
      "id": "pt.ine.add.PTCONT.1390755",
      "street": "R DR JOAQUIM FIADEIRO",
      "house": "",
      "postcode": "7200-480",
      "city": "REGUENGOS DE MONSARAZ",
      "lon": "-7.5437679662157535",
      "lat": "38.4295992950501"
    },
    {
      "id": "pt.ine.add.PTCONT.1399536",
      "street": "R MANUEL AUGUSTO PAPANCA",
      "house": "",
      "postcode": "7200-480",
      "city": "REGUENGOS DE MONSARAZ",
      "lon": "-7.543849682480967",
      "lat": "38.4294085496005"
    },
    {
      "id": "pt.ine.add.PTCONT.1406785",
      "street": "R MANUEL AUGUSTO PAPANÇA",
      "house": "",
      "postcode": "7200-480",
      "city": "REGUENGOS DE MONSARAZ",
      "lon": "-7.543902367563201",
      "lat": "38.42945040236889"
    },
    {
      "id": "pt.ine.add.PTCONT.1425406",
      "street": "R DR JOAQUIM FIADEIRO",
      "house": "",
      "postcode": "7200-480",
      "city": "REGUENGOS DE MONSARAZ",
      "lon": "-7.543691521819853",
      "lat": "38.429546214307706"
    },
    {
      "id": "pt.ine.add.PTCONT.1428278",
      "street": "R DR JOAQUIM FIADEIRO",
      "house": "",
      "postcode": "7200-480",
      "city": "REGUENGOS DE MONSARAZ",
      "lon": "-7.543519239239766",
      "lat": "38.42941466276492"
    },
    {
      "id": "pt.ine.add.PTCONT.1446649",
      "street": "R DR JOAQUIM FIADEIRO",
      "house": "",
      "postcode": "7200-480",
      "city": "REGUENGOS DE MONSARAZ",
      "lon": "-7.543597287245064",
      "lat": "38.42946330868297"
    }
  ]
}