{
  "data": {
    "distrito": "Aveiro",
    "concelho": "Ovar",
    "freguesia": "União das freguesias de Ovar, São João, Arada e São Vicente de Pereira Jusã",
    "OBJECTID": 324,
    "BGRI2021": "01150901203",
    "DT21": "01",
    "DTMN21": "0115",
    "DTMNFR21": "011509",
    "DTMNFRSEC21": "011509012",
    "SECNUM21": "012",
    "SSNUM21": "03",
    "SECSSNUM21": "01203",
    "OBJECTID_1": 10357,
    "DT": "01",
    "CC": "15",
    "fr": "09",
    "SEC": "012",
    "SS": "03"
  },
  "addresses": [
    {
      "id": "pt.ine.add.PTCONT.293099",
      "street": "R ROSA BRITES",
      "house": "18",
      "postcode": "3880-012",
      "city": "OVAR",
      "lon": "-8.647813308815545",
      "lat": "40.86518516058455"
    },
    {
      "id": "pt.ine.add.PTCONT.293100",
      "street": "R AUGUSTO SERENO",
      "house": "30",
      "postcode": "3880-010",
      "city": "OVAR",
      "lon": "-8.647985993650725",
      "lat": "40.86450903031264"
    },
    {
      "id": "pt.ine.add.PTCONT.304383",
      "street": "AV REGUA",
      "house": "2",
      "postcode": "3880-001",
      "city": "OVAR",
      "lon": "-8.649754036776008",
      "lat": "40.86460017752284"
    },
    {
      "id": "pt.ine.add.PTCONT.320623",
      "street": "R DR JOÃO CORTE REAL",
      "house": "61",
      "postcode": "3880-003",
      "city": "OVAR",
      "lon": "-8.647605817737471",
      "lat": "40.86442968351334"
    },
    {
      "id": "pt.ine.add.PTCONT.325440",
      "street": "R AUGUSTO SERENO",
      "house": "47",
      "postcode": "3880-010",
      "city": "OVAR",
      "lon": "-8.647882940963479",
      "lat": "40.864986744379436"
    },
    {
      "id": "pt.ine.add.PTCONT.331587",
      "street": "R MARIA ALBERTINA",
      "house": "34",
      "postcode": "3880-010",
      "city": "OVAR",
      "lon": "-8.648020251235428",
      "lat": "40.86433778628449"
    },
    {
      "id": "pt.ine.add.PTCONT.63500",
      "street": "R AUGUSTO SERENO",
      "house": "92",
      "postcode": "3880-010",
      "city": "OVAR",
      "lon": "-8.648507244832283",
      "lat": "40.86442565928107"
    },
    {
      "id": "pt.ine.add.PTCONT.77158",
      "street": "AV REGUA",
      "house": "",
      "postcode": "3880-001",
      "city": "OVAR",
      "lon": "-8.648445567230196",
      "lat": "40.864119771811716"
    },
    {
      "id": "pt.ine.add.PTCONT.89811",
      "street": "R AUGUSTO SERENO",
      "house": "22 23",
      "postcode": "3880-010",
      "city": "OVAR",
      "lon": "-8.648391497525935",
      "lat": "40.864795372991594"
    },
    {
      "id": "pt.ine.add.PTCONT.101611",
      "street": "AV REGUA",
      "house": "1436",
      "postcode": "3880-001",
      "city": "OVAR",
      "lon": "-8.649621677850684",
      "lat": "40.86435764082581"
    },
    {
      "id": "pt.ine.add.PTCONT.113736",
      "street": "R AUGUSTO SERENO",
      "house": "25",
      "postcode": "3880-010",
      "city": "OVAR",
      "lon": "-8.648413683899005",
      "lat": "40.8645971683959"
    },
    {
      "id": "pt.ine.add.PTCONT.166908",
      "street": "R AUGUSTO SERENO",
      "house": "62",
      "postcode": "3880-010",
      "city": "OVAR",
      "lon": "-8.648186582427368",
      "lat": "40.86437306284743"
    },
    {
      "id": "pt.ine.add.PTCONT.175041",
      "street": "R ROSA BRITES",
      "house": "17",
      "postcode": "3880-012",
      "city": "OVAR",
      "lon": "-8.64759981047881",
      "lat": "40.86518611305889"
    },
    {
      "id": "pt.ine.add.PTCONT.226960",
      "street": "AV REGUA RESTAURANTE SOL E SOMBRA",
      "house": "51",
      "postcode": "3880-001",
      "city": "OVAR",
      "lon": "-8.649871246010276",
      "lat": "40.86441955658881"
    },
    {
      "id": "pt.ine.add.PTCONT.240330",
      "street": "R AUGUSTO SERENO",
      "house": "44",
      "postcode": "3880-010",
      "city": "OVAR",
      "lon": "-8.647951666160258",
      "lat": "40.86467126984306"
    },
    {
      "id": "pt.ine.add.PTCONT.243103",
      "street": "R DR JOÃO CORTE REAL",
      "house": "13",
      "postcode": "3880-003",
      "city": "OVAR",
      "lon": "-8.64750206569829",
      "lat": "40.864817352423835"
    },
    {
      "id": "pt.ine.add.PTCONT.253781",
      "street": "AV REGUA",
      "house": "",
      "postcode": "3880-001",
      "city": "OVAR",
      "lon": "-8.647982437054539",
      "lat": "40.86404980162285"
    },
    {
      "id": "pt.ine.add.PTCONT.264631",
      "street": "R DR JOÃO CORTE REAL",
      "house": "",
      "postcode": "3880-003",
      "city": "OVAR",
      "lon": "-8.64768751967726",
      "lat": "40.864258227950685"
    },
    {
      "id": "pt.ine.add.PTCONT.280887",
      "street": "R ROSA BRITES",
      "house": "16",
      "postcode": "3880-012",
      "city": "OVAR",
      "lon": "-8.647373893858738",
      "lat": "40.86511508215092"
    }
  ]
}