{
  "data": {
    "distrito": "Leiria",
    "concelho": "Caldas da Rainha",
    "freguesia": "Salir de Matos",
    "OBJECTID": 1017,
    "BGRI2021": "10060900224",
    "DT21": "10",
    "DTMN21": "1006",
    "DTMNFR21": "100609",
    "DTMNFRSEC21": "100609002",
    "SECNUM21": "002",
    "SSNUM21": "24",
    "SECSSNUM21": "00224",
    "OBJECTID_1": 88280,
    "DT": "10",
    "CC": "06",
    "fr": "09",
    "SEC": "002",
    "SS": "24"
  },
  "addresses": [
    {
      "id": "pt.ine.add.PTCONT.1984675",
      "street": "R TAXEIRA",
      "house": "7",
      "postcode": "2500-621",
      "city": "SALIR DE MATOS",
      "lon": "-9.11010969874576",
      "lat": "39.44517940113337"
    },
    {
      "id": "pt.ine.add.PTCONT.1986179",
      "street": "GUISADO",
      "house": "3",
      "postcode": "2500-643",
      "city": "SALIR DE MATOS",
      "lon": "-9.103996536996283",
      "lat": "39.44414077064984"
    },
    {
      "id": "pt.ine.add.PTCONT.1986922",
      "street": "R PRINCIPAL",
      "house": "12",
      "postcode": "2500-621",
      "city": "SALIR DE MATOS",
      "lon": "-9.109989404257243",
      "lat": "39.44737807212983"
    },
    {
      "id": "pt.ine.add.PTCONT.1989134",
      "street": "R VALE DO POÇO",
      "house": "1",
      "postcode": "2500-633",
      "city": "SALIR DE MATOS",
      "lon": "-9.103578257272412",
      "lat": "39.4432976213082"
    },
    {
      "id": "pt.ine.add.PTCONT.1995896",
      "street": "R CONVENTO",
      "house": "",
      "postcode": "2500-621",
      "city": "SALIR DE MATOS",
      "lon": "-9.10467128629408",
      "lat": "39.44672009020202"
    },
    {
      "id": "pt.ine.add.PTCONT.2007816",
      "street": "R VALE DO POÇO",
      "house": "19",
      "postcode": "2500-633",
      "city": "SALIR DE MATOS",
      "lon": "-9.106443979564759",
      "lat": "39.442210869557236"
    },
    {
      "id": "pt.ine.add.PTCONT.2032572",
      "street": "R CASAL DA TABUA",
      "house": "15",
      "postcode": "2500-621",
      "city": "SALIR DE MATOS",
      "lon": "-9.108584523213711",
      "lat": "39.44576863921244"
    },
    {
      "id": "pt.ine.add.PTCONT.2039587",
      "street": "R PRINCIPAL",
      "house": "79",
      "postcode": "2500-633",
      "city": "SALIR DE MATOS",
      "lon": "-9.103352213513487",
      "lat": "39.444587481440664"
    },
    {
      "id": "pt.ine.add.PTCONT.2043924",
      "street": "R CANTO",
      "house": "15",
      "postcode": "2500-633",
      "city": "SALIR DE MATOS",
      "lon": "-9.105611562831463",
      "lat": "39.44165941052861"
    },
    {
      "id": "pt.ine.add.PTCONT.2043925",
      "street": "R CANTO",
      "house": "13",
      "postcode": "2500-633",
      "city": "SALIR DE MATOS",
      "lon": "-9.105367027791777",
      "lat": "39.44161642093429"
    },
    {
      "id": "pt.ine.add.PTCONT.2043926",
      "street": "R CANTO",
      "house": "13",
      "postcode": "2500-633",
      "city": "SALIR DE MATOS",
      "lon": "-9.105367027791777",
      "lat": "39.44161642093429"
    },
    {
      "id": "pt.ine.add.PTCONT.2046143",
      "street": "R CASAL DA TEIXEIRA",
      "house": "8",
      "postcode": "2500-621",
      "city": "SALIR DE MATOS",
      "lon": "-9.110772332299266",
      "lat": "39.4435526073022"
    },
    {
      "id": "pt.ine.add.PTCONT.2052902",
      "street": "R CASAL DA TEIXEIRA",
      "house": "5",
      "postcode": "2500-621",
      "city": "SALIR DE MATOS",
      "lon": "-9.110497097101295",
      "lat": "39.44380711131737"
    },
    {
      "id": "pt.ine.add.PTCONT.2057322",
      "street": "R PRINCIPAL",
      "house": "14",
      "postcode": "2500-621",
      "city": "SALIR DE MATOS",
      "lon": "-9.109838149219227",
      "lat": "39.44736132892158"
    },
    {
      "id": "pt.ine.add.PTCONT.2057323",
      "street": "CSL TEIXEIRA",
      "house": "3",
      "postcode": "2500-621",
      "city": "SALIR DE MATOS",
      "lon": "-9.110649729613224",
      "lat": "39.44392291702621"
    },
    {
      "id": "pt.ine.add.PTCONT.2060067",
      "street": "R CANTO",
      "house": "19",
      "postcode": "2500-633",
      "city": "SALIR DE MATOS",
      "lon": "-9.106021085026946",
      "lat": "39.44187214903437"
    },
    {
      "id": "pt.ine.add.PTCONT.2061369",
      "street": "R VALE DO POÇO",
      "house": "11",
      "postcode": "2500-633",
      "city": "SALIR DE MATOS",
      "lon": "-9.104985396340902",
      "lat": "39.442574332919534"
    },
    {
      "id": "pt.ine.add.PTCONT.2072511",
      "street": "R PRINCIPAL",
      "house": "77",
      "postcode": "2500-633",
      "city": "SALIR DE MATOS",
      "lon": "-9.103360204387107",
      "lat": "39.444326217241134"
    },
    {
      "id": "pt.ine.add.PTCONT.2072512",
      "street": "R CANTO",
      "house": "25",
      "postcode": "2500-633",
      "city": "SALIR DE MATOS",
      "lon": "-9.106717969572353",
      "lat": "39.441866317321136"
    },
    {
      "id": "pt.ine.add.PTCONT.2074357",
      "street": "R VALE DO POÇO",
      "house": "7",
      "postcode": "2500-633",
      "city": "SALIR DE MATOS",
      "lon": "-9.104835279208842",
      "lat": "39.442638634956566"
    },
    {
      "id": "pt.ine.add.PTCONT.2078799",
      "street": "R CANTO",
      "house": "17",
      "postcode": "2500-633",
      "city": "SALIR DE MATOS",
      "lon": "-9.105822632110954",
      "lat": "39.44180175446264"
    },
    {
      "id": "pt.ine.add.PTCONT.2080417",
      "street": "R PRINCIPAL",
      "house": "8",
      "postcode": "2500-621",
      "city": "SALIR DE MATOS",
      "lon": "-9.110511100940398",
      "lat": "39.44730163443308"
    },
    {
      "id": "pt.ine.add.PTCONT.2084644",
      "street": "BC FONTE",
      "house": "2",
      "postcode": "2500-633",
      "city": "SALIR DE MATOS",
      "lon": "-9.103560412161738",
      "lat": "39.44452269668453"
    },
    {
      "id": "pt.ine.add.PTCONT.2094378",
      "street": "BC FONTE",
      "house": "8",
      "postcode": "2500-633",
      "city": "SALIR DE MATOS",
      "lon": "-9.10503854584332",
      "lat": "39.444726516817475"
    },
    {
      "id": "pt.ine.add.PTCONT.2096349",
      "street": "R TAXEIRA",
      "house": "9",
      "postcode": "2500-621",
      "city": "SALIR DE MATOS",
      "lon": "-9.110287361572006",
      "lat": "39.44459246604481"
    },
    {
      "id": "pt.ine.add.PTCONT.2101133",
      "street": "R TAXEIRA",
      "house": "3",
      "postcode": "2500-621",
      "city": "SALIR DE MATOS",
      "lon": "-9.11048714650698",
      "lat": "39.44641916893305"
    },
    {
      "id": "pt.ine.add.PTCONT.2105728",
      "street": "BC FONTE",
      "house": "7",
      "postcode": "2500-633",
      "city": "SALIR DE MATOS",
      "lon": "-9.104499490870069",
      "lat": "39.444388761627124"
    },
    {
      "id": "pt.ine.add.PTCONT.2108801",
      "street": "R DA TEIXEIRA",
      "house": "1",
      "postcode": "2500-621",
      "city": "SALIR DE MATOS",
      "lon": "-9.11055340825156",
      "lat": "39.44700405434269"
    },
    {
      "id": "pt.ine.add.PTCONT.2114233",
      "street": "BC FONTE",
      "house": "4A",
      "postcode": "2500-633",
      "city": "SALIR DE MATOS",
      "lon": "-9.10430503537743",
      "lat": "39.444606549084114"
    },
    {
      "id": "pt.ine.add.PTCONT.2116540",
      "street": "R CASAL DA TABUA",
      "house": "12",
      "postcode": "2500-621",
      "city": "SALIR DE MATOS",
      "lon": "-9.109073451526603",
      "lat": "39.446674224682674"
    },
    {
      "id": "pt.ine.add.PTCONT.2116541",
      "street": "BC 2",
      "house": "",
      "postcode": "2500-621",
      "city": "SALIR DE MATOS",
      "lon": "-9.1073227685955",
      "lat": "39.44692307981981"
    },
    {
      "id": "pt.ine.add.PTCONT.2130081",
      "street": "R PRINCIPAL",
      "house": "81",
      "postcode": "2500-633",
      "city": "SALIR DE MATOS",
      "lon": "-9.103401548936283",
      "lat": "39.44479422650861"
    },
    {
      "id": "pt.ine.add.PTCONT.2142538",
      "street": "R CASAL DA TABUA",
      "house": "",
      "postcode": "2500-621",
      "city": "SALIR DE MATOS",
      "lon": "-9.109006649762543",
      "lat": "39.4468819417678"
    },
    {
      "id": "pt.ine.add.PTCONT.2148976",
      "street": "BC FONTE",
      "house": "3",
      "postcode": "2500-633",
      "city": "SALIR DE MATOS",
      "lon": "-9.103963942570946",
      "lat": "39.44430316535203"
    },
    {
      "id": "pt.ine.add.PTCONT.2151202",
      "street": "R CANTO",
      "house": "4",
      "postcode": "2500-633",
      "city": "SALIR DE MATOS",
      "lon": "-9.105212781375187",
      "lat": "39.44138353308275"
    },
    {
      "id": "pt.ine.add.PTCONT.2154022",
      "street": "R MOINHO",
      "house": "8",
      "postcode": "2500-633",
      "city": "SALIR DE MATOS",
      "lon": "-9.105927340204211",
      "lat": "39.44014362463224"
    },
    {
      "id": "pt.ine.add.PTCONT.2156958",
      "street": "R CANTO",
      "house": "24",
      "postcode": "2500-633",
      "city": "SALIR DE MATOS",
      "lon": "-9.10653029817407",
      "lat": "39.44257041965314"
    },
    {
      "id": "pt.ine.add.PTCONT.2157719",
      "street": "BC FONTE",
      "house": "6",
      "postcode": "2500-633",
      "city": "SALIR DE MATOS",
      "lon": "-9.104736174596853",
      "lat": "39.444702022902774"
    },
    {
      "id": "pt.ine.add.PTCONT.2160004",
      "street": "BC 2",
      "house": "5",
      "postcode": "2500-621",
      "city": "SALIR DE MATOS",
      "lon": "-9.107598906266489",
      "lat": "39.446731623435056"
    },
    {
      "id": "pt.ine.add.PTCONT.2166581",
      "street": "R CASAL DA TABUA",
      "house": "4",
      "postcode": "2500-621",
      "city": "SALIR DE MATOS",
      "lon": "-9.109206503449842",
      "lat": "39.4470513938689"
    },
    {
      "id": "pt.ine.add.PTCONT.2170902",
      "street": "R PRINCIPAL",
      "house": "9",
      "postcode": "2500-633",
      "city": "SALIR DE MATOS",
      "lon": "-9.104592492957677",
      "lat": "39.442721724532"
    },
    {
      "id": "pt.ine.add.PTCONT.2177291",
      "street": "R CASAL DA TABUA",
      "house": "2",
      "postcode": "2500-621",
      "city": "SALIR DE MATOS",
      "lon": "-9.10942921203718",
      "lat": "39.44719363334305"
    },
    {
      "id": "pt.ine.add.PTCONT.2179442",
      "street": "R CANTO",
      "house": "21",
      "postcode": "2500-633",
      "city": "SALIR DE MATOS",
      "lon": "-9.106042560168165",
      "lat": "39.44174587398867"
    },
    {
      "id": "pt.ine.add.PTCONT.2188331",
      "street": "R CANTO",
      "house": "11",
      "postcode": "2500-633",
      "city": "SALIR DE MATOS",
      "lon": "-9.105308202982334",
      "lat": "39.441562871783574"
    },
    {
      "id": "pt.ine.add.PTCONT.2190564",
      "street": "CSL TEIXEIRA",
      "house": "6",
      "postcode": "2500-621",
      "city": "SALIR DE MATOS",
      "lon": "-9.110797577204577",
      "lat": "39.44369650402843"
    },
    {
      "id": "pt.ine.add.PTCONT.2194184",
      "street": "R CANTO",
      "house": "",
      "postcode": "2500-633",
      "city": "SALIR DE MATOS",
      "lon": "-9.105327926298985",
      "lat": "39.44131051608936"
    },
    {
      "id": "pt.ine.add.PTCONT.2195246",
      "street": "R CASAL DA TABUA",
      "house": "11",
      "postcode": "2500-621",
      "city": "SALIR DE MATOS",
      "lon": "-9.108644736402795",
      "lat": "39.4459212498712"
    },
    {
      "id": "pt.ine.add.PTCONT.2198346",
      "street": "R CASAL DA TABUA",
      "house": "",
      "postcode": "2500-621",
      "city": "SALIR DE MATOS",
      "lon": "-9.10898241293815",
      "lat": "39.446810090701604"
    },
    {
      "id": "pt.ine.add.PTCONT.2215345",
      "street": "CSL TEIXEIRA",
      "house": "",
      "postcode": "2500-621",
      "city": "SALIR DE MATOS",
      "lon": "-9.109890723944474",
      "lat": "39.44364107624101"
    },
    {
      "id": "pt.ine.add.PTCONT.2215341",
      "street": "R CASAL DA TEIXEIRA",
      "house": "4",
      "postcode": "2500-621",
      "city": "SALIR DE MATOS",
      "lon": "-9.110822192545118",
      "lat": "39.443795371994604"
    },
    {
      "id": "pt.ine.add.PTCONT.2215344",
      "street": "R PRINCIPAL",
      "house": "10",
      "postcode": "2500-621",
      "city": "SALIR DE MATOS",
      "lon": "-9.110348482107824",
      "lat": "39.44730300099858"
    },
    {
      "id": "pt.ine.add.PTCONT.2215347",
      "street": "R PRINCIPAL",
      "house": "",
      "postcode": "2500-633",
      "city": "SALIR DE MATOS",
      "lon": "-9.10335195608614",
      "lat": "39.44373183644572"
    },
    {
      "id": "pt.ine.add.PTCONT.2226051",
      "street": "R CONVENTO",
      "house": "20",
      "postcode": "2500-621",
      "city": "SALIR DE MATOS",
      "lon": "-9.104023675738516",
      "lat": "39.44609502191326"
    },
    {
      "id": "pt.ine.add.PTCONT.2226052",
      "street": "R CONVENTO",
      "house": "20",
      "postcode": "2500-621",
      "city": "SALIR DE MATOS",
      "lon": "-9.104023675738516",
      "lat": "39.44609502191326"
    },
    {
      "id": "pt.ine.add.PTCONT.2236743",
      "street": "R CANTO",
      "house": "13A",
      "postcode": "2500-633",
      "city": "SALIR DE MATOS",
      "lon": "-9.105435088009399",
      "lat": "39.44149876336298"
    },
    {
      "id": "pt.ine.add.PTCONT.2241385",
      "street": "R CANTO",
      "house": "23",
      "postcode": "2500-633",
      "city": "SALIR DE MATOS",
      "lon": "-9.106417114525115",
      "lat": "39.44194989679207"
    },
    {
      "id": "pt.ine.add.PTCONT.2241386",
      "street": "R FONTE",
      "house": "1",
      "postcode": "2500-633",
      "city": "SALIR DE MATOS",
      "lon": "-9.103563152193384",
      "lat": "39.44388319017953"
    },
    {
      "id": "pt.ine.add.PTCONT.2243695",
      "street": "R VALE DO POÇO",
      "house": "",
      "postcode": "2500-633",
      "city": "SALIR DE MATOS",
      "lon": "-9.104918836388158",
      "lat": "39.442800059437886"
    },
    {
      "id": "pt.ine.add.PTCONT.2246541",
      "street": "R PRINCIPAL",
      "house": "16",
      "postcode": "2500-621",
      "city": "SALIR DE MATOS",
      "lon": "-9.109605962146997",
      "lat": "39.44737228549447"
    },
    {
      "id": "pt.ine.add.PTCONT.2247990",
      "street": "R PRINCIPAL",
      "house": "85",
      "postcode": "2500-633",
      "city": "SALIR DE MATOS",
      "lon": "-9.103546306908864",
      "lat": "39.44518031157585"
    },
    {
      "id": "pt.ine.add.PTCONT.2247991",
      "street": "R FONTE",
      "house": "1A",
      "postcode": "2500-633",
      "city": "SALIR DE MATOS",
      "lon": "-9.103599747525207",
      "lat": "39.44400898018453"
    },
    {
      "id": "pt.ine.add.PTCONT.2252417",
      "street": "BC FONTE",
      "house": "5",
      "postcode": "2500-633",
      "city": "SALIR DE MATOS",
      "lon": "-9.104150785667134",
      "lat": "39.444373659980236"
    },
    {
      "id": "pt.ine.add.PTCONT.2255766",
      "street": "R CASAL DA TABUA",
      "house": "16",
      "postcode": "2500-621",
      "city": "SALIR DE MATOS",
      "lon": "-9.109059321587885",
      "lat": "39.44649420714931"
    },
    {
      "id": "pt.ine.add.PTCONT.2259133",
      "street": "",
      "house": "",
      "postcode": "2500-633",
      "city": "SALIR DE MATOS",
      "lon": "-9.108078148460253",
      "lat": "39.44027873046534"
    },
    {
      "id": "pt.ine.add.PTCONT.2264353",
      "street": "R CONVENTO",
      "house": "",
      "postcode": "2500-621",
      "city": "SALIR DE MATOS",
      "lon": "-9.10728157699661",
      "lat": "39.44730171069628"
    },
    {
      "id": "pt.ine.add.PTCONT.2267042",
      "street": "BC FONTE",
      "house": "4",
      "postcode": "2500-633",
      "city": "SALIR DE MATOS",
      "lon": "-9.1041185667278",
      "lat": "39.44456307201654"
    }
  ]
}