{
  "data": {
    "distrito": "Faro",
    "concelho": "Olhão",
    "freguesia": "Pechão",
    "OBJECTID": 346,
    "BGRI2021": "08100400324",
    "DT21": "08",
    "DTMN21": "0810",
    "DTMNFR21": "081004",
    "DTMNFRSEC21": "081004003",
    "SECNUM21": "003",
    "SSNUM21": "24",
    "SECSSNUM21": "00324",
    "OBJECTID_1": 70562,
    "DT": "08",
    "CC": "10",
    "fr": "04",
    "SEC": "003",
    "SS": "24"
  },
  "addresses": [
    {
      "id": "pt.ine.add.PTCONT.1477953",
      "street": "SIT QUEIJEIRA",
      "house": "",
      "postcode": "8700-176",
      "city": "OLHÃO",
      "lon": "-7.864902927048853",
      "lat": "37.05892738477764"
    },
    {
      "id": "pt.ine.add.PTCONT.1485393",
      "street": "",
      "house": "",
      "postcode": "8700-176",
      "city": "OLHÃO",
      "lon": "-7.864123976382806",
      "lat": "37.05982669173364"
    },
    {
      "id": "pt.ine.add.PTCONT.1505850",
      "street": "MTE ALGUEIRÃO",
      "house": "",
      "postcode": "8700-176",
      "city": "OLHÃO",
      "lon": "-7.864852688849759",
      "lat": "37.06042304835805"
    },
    {
      "id": "pt.ine.add.PTCONT.1585958",
      "street": "SIT QUEIJEIRA",
      "house": "37",
      "postcode": "8700-176",
      "city": "OLHÃO",
      "lon": "-7.8588201847456185",
      "lat": "37.058985562208775"
    },
    {
      "id": "pt.ine.add.PTCONT.1640699",
      "street": "SIT CHARNECA",
      "house": "",
      "postcode": "8700-178",
      "city": "OLHÃO",
      "lon": "-7.864938480329927",
      "lat": "37.061603644532966"
    },
    {
      "id": "pt.ine.add.PTCONT.1669510",
      "street": "",
      "house": "",
      "postcode": "8700-176",
      "city": "OLHÃO",
      "lon": "-7.863933479097959",
      "lat": "37.059646045525504"
    },
    {
      "id": "pt.ine.add.PTCONT.1671277",
      "street": "SIT CHARNECA",
      "house": "",
      "postcode": "8700-176",
      "city": "OLHÃO",
      "lon": "-7.863172175710466",
      "lat": "37.06190600230934"
    },
    {
      "id": "pt.ine.add.PTCONT.1678439",
      "street": "SIT CHARNECA PRÉ FABRICADO",
      "house": "29R",
      "postcode": "8700-176",
      "city": "OLHÃO",
      "lon": "-7.863932746955975",
      "lat": "37.05985329009211"
    },
    {
      "id": "pt.ine.add.PTCONT.1686260",
      "street": "SIT QUEIJEIRA SITIO DA QUEIJEIRA",
      "house": "469 Z",
      "postcode": "8700-181",
      "city": "OLHÃO",
      "lon": "-7.865744163230413",
      "lat": "37.05949695824223"
    },
    {
      "id": "pt.ine.add.PTCONT.1695917",
      "street": "",
      "house": "",
      "postcode": "8700-176",
      "city": "OLHÃO",
      "lon": "-7.864381870207153",
      "lat": "37.06002551173376"
    },
    {
      "id": "pt.ine.add.PTCONT.1705016",
      "street": "",
      "house": "",
      "postcode": "8700-176",
      "city": "OLHÃO",
      "lon": "-7.864045560547184",
      "lat": "37.05974541755377"
    },
    {
      "id": "pt.ine.add.PTCONT.1719500",
      "street": "SIT CHARNECA",
      "house": "CP 431 Z",
      "postcode": "8700-176",
      "city": "OLHÃO",
      "lon": "-7.864351533176391",
      "lat": "37.06225108678127"
    },
    {
      "id": "pt.ine.add.PTCONT.1756255",
      "street": "SIT CHARNECA",
      "house": "CP 409 Z",
      "postcode": "8700-176",
      "city": "OLHÃO",
      "lon": "-7.861449900787025",
      "lat": "37.05931599875651"
    },
    {
      "id": "pt.ine.add.PTCONT.1759184",
      "street": "CAM TRANSVERSAL Á R CLUBE ORIENTAL DE PECHÃO",
      "house": "",
      "postcode": "8700-176",
      "city": "OLHÃO",
      "lon": "-7.863843311033975",
      "lat": "37.05970891583456"
    },
    {
      "id": "pt.ine.add.PTCONT.1768910",
      "street": "SIT DA CHARNECA",
      "house": "",
      "postcode": "8700-176",
      "city": "OLHÃO",
      "lon": "-7.863811939280791",
      "lat": "37.062222830951185"
    },
    {
      "id": "pt.ine.add.PTCONT.1789548",
      "street": "SIT CHARNECA",
      "house": "",
      "postcode": "8700-176",
      "city": "OLHÃO",
      "lon": "-7.863060219996091",
      "lat": "37.061770586965615"
    },
    {
      "id": "pt.ine.add.PTCONT.1790912",
      "street": "SIT CHARNECA",
      "house": "",
      "postcode": "8700-176",
      "city": "OLHÃO",
      "lon": "-7.863720050477645",
      "lat": "37.059591496818065"
    },
    {
      "id": "pt.ine.add.PTCONT.1796857",
      "street": "SIT CHARNECA",
      "house": "",
      "postcode": "8700-176",
      "city": "OLHÃO",
      "lon": "-7.864070349463472",
      "lat": "37.06227748150681"
    },
    {
      "id": "pt.ine.add.PTCONT.1847488",
      "street": "",
      "house": "",
      "postcode": "8700-176",
      "city": "OLHÃO",
      "lon": "-7.864123626474393",
      "lat": "37.05992580869971"
    }
  ]
}