{
  "data": {
    "distrito": "Braga",
    "concelho": "Terras de Bouro",
    "freguesia": "Moimenta",
    "OBJECTID": 65,
    "BGRI2021": "03101000119",
    "DT21": "03",
    "DTMN21": "0310",
    "DTMNFR21": "031010",
    "DTMNFRSEC21": "031010001",
    "SECNUM21": "001",
    "SSNUM21": "19",
    "SECSSNUM21": "00119",
    "OBJECTID_1": 29047,
    "DT": "03",
    "CC": "10",
    "fr": "10",
    "SEC": "001",
    "SS": "19"
  },
  "addresses": [
    {
      "id": "pt.ine.add.PTCONT.463586",
      "street": "R MONTE",
      "house": "13",
      "postcode": "4840-100",
      "city": "TERRAS DE BOURO",
      "lon": "-8.307851233315246",
      "lat": "41.71946339097308"
    },
    {
      "id": "pt.ine.add.PTCONT.466416",
      "street": "R MONTE",
      "house": "20",
      "postcode": "4840-100",
      "city": "TERRAS DE BOURO",
      "lon": "-8.307647476864174",
      "lat": "41.71966177765992"
    },
    {
      "id": "pt.ine.add.PTCONT.472472",
      "street": "TV MONTE",
      "house": "57",
      "postcode": "4840-100",
      "city": "TERRAS DE BOURO",
      "lon": "-8.308321200313344",
      "lat": "41.719939860927866"
    },
    {
      "id": "pt.ine.add.PTCONT.475676",
      "street": "AV 20 DE OUTUBRO",
      "house": "295",
      "postcode": "4840-100",
      "city": "TERRAS DE BOURO",
      "lon": "-8.307263314182302",
      "lat": "41.71980641652259"
    },
    {
      "id": "pt.ine.add.PTCONT.484117",
      "street": "R MONTE",
      "house": "151",
      "postcode": "4840-100",
      "city": "TERRAS DE BOURO",
      "lon": "-8.308500235586296",
      "lat": "41.719489412755614"
    },
    {
      "id": "pt.ine.add.PTCONT.496217",
      "street": "R MONTE",
      "house": "129",
      "postcode": "4840-100",
      "city": "TERRAS DE BOURO",
      "lon": "-8.30869295201216",
      "lat": "41.71965118147963"
    },
    {
      "id": "pt.ine.add.PTCONT.497314",
      "street": "R MONTE",
      "house": "129",
      "postcode": "4840-100",
      "city": "TERRAS DE BOURO",
      "lon": "-8.30869295201216",
      "lat": "41.71965118147963"
    },
    {
      "id": "pt.ine.add.PTCONT.505162",
      "street": "R PRAÇA DE ESPECTACULOS",
      "house": "76",
      "postcode": "4840-100",
      "city": "TERRAS DE BOURO",
      "lon": "-8.309197528412543",
      "lat": "41.71959638839665"
    },
    {
      "id": "pt.ine.add.PTCONT.507888",
      "street": "R MONTE",
      "house": "124",
      "postcode": "4840-100",
      "city": "TERRAS DE BOURO",
      "lon": "-8.30873018035922",
      "lat": "41.72008329263075"
    },
    {
      "id": "pt.ine.add.PTCONT.549835",
      "street": "R S BRÁS",
      "house": "102",
      "postcode": "4840-100",
      "city": "TERRAS DE BOURO",
      "lon": "-8.307393947186284",
      "lat": "41.71922999437906"
    },
    {
      "id": "pt.ine.add.PTCONT.556074",
      "street": "R MONTE",
      "house": "45",
      "postcode": "4840-100",
      "city": "TERRAS DE BOURO",
      "lon": "-8.307971893468844",
      "lat": "41.71964327745837"
    },
    {
      "id": "pt.ine.add.PTCONT.568557",
      "street": "R MONTE",
      "house": "335",
      "postcode": "4840-100",
      "city": "TERRAS DE BOURO",
      "lon": "-8.30804306901822",
      "lat": "41.71930103607327"
    },
    {
      "id": "pt.ine.add.PTCONT.568558",
      "street": "R MONTE",
      "house": "335",
      "postcode": "4840-100",
      "city": "TERRAS DE BOURO",
      "lon": "-8.30804306901822",
      "lat": "41.71930103607327"
    },
    {
      "id": "pt.ine.add.PTCONT.568559",
      "street": "R MONTE",
      "house": "1",
      "postcode": "4840-100",
      "city": "TERRAS DE BOURO",
      "lon": "-8.308020401861711",
      "lat": "41.71980526665389"
    },
    {
      "id": "pt.ine.add.PTCONT.599287",
      "street": "R MONTE",
      "house": "351",
      "postcode": "4840-100",
      "city": "TERRAS DE BOURO",
      "lon": "-8.307862762676463",
      "lat": "41.719283303407416"
    },
    {
      "id": "pt.ine.add.PTCONT.617308",
      "street": "R MONTE",
      "house": "149",
      "postcode": "4840-100",
      "city": "TERRAS DE BOURO",
      "lon": "-8.308656606270777",
      "lat": "41.7195431949932"
    },
    {
      "id": "pt.ine.add.PTCONT.618542",
      "street": "LG PADRE MARTINS CAPELA",
      "house": "1",
      "postcode": "4840-100",
      "city": "TERRAS DE BOURO",
      "lon": "-8.307586343473218",
      "lat": "41.71927471993058"
    },
    {
      "id": "pt.ine.add.PTCONT.635769",
      "street": "R MONTE",
      "house": "41",
      "postcode": "4840-100",
      "city": "TERRAS DE BOURO",
      "lon": "-8.308019547367367",
      "lat": "41.7194901454117"
    },
    {
      "id": "pt.ine.add.PTCONT.642966",
      "street": "R MONTE",
      "house": "48",
      "postcode": "4840-100",
      "city": "TERRAS DE BOURO",
      "lon": "-8.30786454331248",
      "lat": "41.71994055629355"
    },
    {
      "id": "pt.ine.add.PTCONT.648127",
      "street": "AV DR ALVES COSTA",
      "house": "78",
      "postcode": "4840-100",
      "city": "TERRAS DE BOURO",
      "lon": "-8.309234391347424",
      "lat": "41.7198934474372"
    },
    {
      "id": "pt.ine.add.PTCONT.652125",
      "street": "AV DR ALVES COSTA",
      "house": "80",
      "postcode": "4840-100",
      "city": "TERRAS DE BOURO",
      "lon": "-8.309197970826311",
      "lat": "41.719758450738695"
    },
    {
      "id": "pt.ine.add.PTCONT.655122",
      "street": "R MONTE",
      "house": "101",
      "postcode": "4840-100",
      "city": "TERRAS DE BOURO",
      "lon": "-8.30854884314001",
      "lat": "41.71968741558521"
    },
    {
      "id": "pt.ine.add.PTCONT.662566",
      "street": "R MONTE",
      "house": "49",
      "postcode": "4840-100",
      "city": "TERRAS DE BOURO",
      "lon": "-8.307888041181805",
      "lat": "41.71974244353652"
    },
    {
      "id": "pt.ine.add.PTCONT.676402",
      "street": "R MONTE",
      "house": "126",
      "postcode": "4840-100",
      "city": "TERRAS DE BOURO",
      "lon": "-8.308934082052374",
      "lat": "41.71993892482183"
    },
    {
      "id": "pt.ine.add.PTCONT.681508",
      "street": "R MONTE",
      "house": "47",
      "postcode": "4840-100",
      "city": "TERRAS DE BOURO",
      "lon": "-8.307646234409304",
      "lat": "41.719202600966334"
    },
    {
      "id": "pt.ine.add.PTCONT.690621",
      "street": "R MONTE",
      "house": "100",
      "postcode": "4840-100",
      "city": "TERRAS DE BOURO",
      "lon": "-8.308453096797157",
      "lat": "41.71983161773737"
    },
    {
      "id": "pt.ine.add.PTCONT.718805",
      "street": "R MONTE",
      "house": "315",
      "postcode": "4840-100",
      "city": "TERRAS DE BOURO",
      "lon": "-8.308307471219377",
      "lat": "41.719309636773055"
    },
    {
      "id": "pt.ine.add.PTCONT.723782",
      "street": "R MONTE",
      "house": "122",
      "postcode": "4840-100",
      "city": "TERRAS DE BOURO",
      "lon": "-8.308777514016985",
      "lat": "41.71981311526077"
    },
    {
      "id": "pt.ine.add.PTCONT.761195",
      "street": "R MONTE",
      "house": "18",
      "postcode": "4840-100",
      "city": "TERRAS DE BOURO",
      "lon": "-8.307622857780606",
      "lat": "41.71944573101665"
    },
    {
      "id": "pt.ine.add.PTCONT.792276",
      "street": "R S BRÁS",
      "house": "58",
      "postcode": "4840-100",
      "city": "TERRAS DE BOURO",
      "lon": "-8.306804548835437",
      "lat": "41.719023806226815"
    },
    {
      "id": "pt.ine.add.PTCONT.793530",
      "street": "AV DR ALVES DA COSTA",
      "house": "82",
      "postcode": "4840-100",
      "city": "TERRAS DE BOURO",
      "lon": "-8.309353998336128",
      "lat": "41.71968618353634"
    },
    {
      "id": "pt.ine.add.PTCONT.797481",
      "street": "R MONTE",
      "house": "30",
      "postcode": "4840-100",
      "city": "TERRAS DE BOURO",
      "lon": "-8.308248778775752",
      "lat": "41.71982292581649"
    }
  ]
}