{
  "data": {
    "distrito": "Lisboa",
    "concelho": "Sintra",
    "freguesia": "Colares",
    "OBJECTID": 2781,
    "BGRI2021": "11110500717",
    "DT21": "11",
    "DTMN21": "1111",
    "DTMNFR21": "111105",
    "DTMNFRSEC21": "111105007",
    "SECNUM21": "007",
    "SSNUM21": "17",
    "SECSSNUM21": "00717",
    "OBJECTID_1": 113703,
    "DT": "11",
    "CC": "11",
    "fr": "05",
    "SEC": "007",
    "SS": "17"
  },
  "addresses": [
    {
      "id": "pt.ine.add.PTCONT.2317828",
      "street": "ESTR NOVA CASA DO VENTO",
      "house": "69",
      "postcode": "2705-080",
      "city": "COLARES",
      "lon": "-9.476811600267698",
      "lat": "38.7794559759372"
    },
    {
      "id": "pt.ine.add.PTCONT.2427762",
      "street": "CAM FONTE",
      "house": "15",
      "postcode": "2705-080",
      "city": "COLARES",
      "lon": "-9.475820947205348",
      "lat": "38.78062933844728"
    },
    {
      "id": "pt.ine.add.PTCONT.2650433",
      "street": "R CERRADO DOS FRADES BICA D AGUA",
      "house": "8",
      "postcode": "2705-080",
      "city": "COLARES",
      "lon": "-9.476523805965728",
      "lat": "38.779450277575044"
    },
    {
      "id": "pt.ine.add.PTCONT.2803527",
      "street": "ESTR NOVA CASA DOS CEDROS",
      "house": "59",
      "postcode": "2705-080",
      "city": "COLARES",
      "lon": "-9.47659044373914",
      "lat": "38.78054843296141"
    },
    {
      "id": "pt.ine.add.PTCONT.2982442",
      "street": "CAM FONTE",
      "house": "23",
      "postcode": "2705-080",
      "city": "COLARES",
      "lon": "-9.476398235099207",
      "lat": "38.78073079385755"
    },
    {
      "id": "pt.ine.add.PTCONT.3133631",
      "street": "CAM FONTE",
      "house": "21",
      "postcode": "2705-080",
      "city": "COLARES",
      "lon": "-9.47613074298401",
      "lat": "38.78058074030897"
    },
    {
      "id": "pt.ine.add.PTCONT.3180426",
      "street": "CAM FONTE",
      "house": "",
      "postcode": "2705-080",
      "city": "COLARES",
      "lon": "-9.476289788140262",
      "lat": "38.780470821502824"
    },
    {
      "id": "pt.ine.add.PTCONT.3272414",
      "street": "ESTR NOVA",
      "house": "71",
      "postcode": "2705-080",
      "city": "COLARES",
      "lon": "-9.476716517968102",
      "lat": "38.779294933334285"
    }
  ]
}