{
  "data": {
    "distrito": "Lisboa",
    "concelho": "Sintra",
    "freguesia": "Colares",
    "OBJECTID": 861,
    "BGRI2021": "11110500723",
    "DT21": "11",
    "DTMN21": "1111",
    "DTMNFR21": "111105",
    "DTMNFRSEC21": "111105007",
    "SECNUM21": "007",
    "SSNUM21": "23",
    "SECSSNUM21": "00723",
    "OBJECTID_1": 111559,
    "DT": "11",
    "CC": "11",
    "fr": "05",
    "SEC": "007",
    "SS": "23"
  },
  "addresses": [
    {
      "id": "pt.ine.add.PTCONT.2282028",
      "street": "ESTR NOVA",
      "house": "18",
      "postcode": "2705-349",
      "city": "COLARES",
      "lon": "-9.476148248588213",
      "lat": "38.78396737818572"
    },
    {
      "id": "pt.ine.add.PTCONT.2290834",
      "street": "LG IGREJA CASA SANTA ISABEL",
      "house": "",
      "postcode": "2705-349",
      "city": "COLARES",
      "lon": "-9.475922304443008",
      "lat": "38.786032703315534"
    },
    {
      "id": "pt.ine.add.PTCONT.2409516",
      "street": "ESTR NOVA",
      "house": "24",
      "postcode": "2705-349",
      "city": "COLARES",
      "lon": "-9.476667708695695",
      "lat": "38.78343896834409"
    },
    {
      "id": "pt.ine.add.PTCONT.2418807",
      "street": "ESTR NOVA",
      "house": "28",
      "postcode": "2705-349",
      "city": "COLARES",
      "lon": "-9.476927774011813",
      "lat": "38.783192773799925"
    },
    {
      "id": "pt.ine.add.PTCONT.2563165",
      "street": "LG IGREJA",
      "house": "2",
      "postcode": "2705-349",
      "city": "COLARES",
      "lon": "-9.475728747406738",
      "lat": "38.785530505065"
    },
    {
      "id": "pt.ine.add.PTCONT.2598233",
      "street": "R VIOLETAS",
      "house": "",
      "postcode": "2705-349",
      "city": "COLARES",
      "lon": "-9.477184434237625",
      "lat": "38.784604006631554"
    },
    {
      "id": "pt.ine.add.PTCONT.2635028",
      "street": "LG FLORES",
      "house": "",
      "postcode": "2705-349",
      "city": "COLARES",
      "lon": "-9.475613011836352",
      "lat": "38.785495804733976"
    },
    {
      "id": "pt.ine.add.PTCONT.2663920",
      "street": "R ESPANADEIRA QTA DE S DOMINGOS",
      "house": "1",
      "postcode": "2705-349",
      "city": "COLARES",
      "lon": "-9.4767539848973",
      "lat": "38.784356746124836"
    },
    {
      "id": "pt.ine.add.PTCONT.2714601",
      "street": "ESTR NOVA",
      "house": "",
      "postcode": "2705-349",
      "city": "COLARES",
      "lon": "-9.475825543918795",
      "lat": "38.785169090879435"
    },
    {
      "id": "pt.ine.add.PTCONT.2723277",
      "street": "LG IGREJA",
      "house": "9",
      "postcode": "2705-349",
      "city": "COLARES",
      "lon": "-9.476619779732241",
      "lat": "38.78579048921815"
    },
    {
      "id": "pt.ine.add.PTCONT.2741673",
      "street": "LG IGREJA CASA MARQUES",
      "house": "",
      "postcode": "2705-349",
      "city": "COLARES",
      "lon": "-9.475718423873639",
      "lat": "38.785593676515916"
    },
    {
      "id": "pt.ine.add.PTCONT.2741674",
      "street": "R PALMEIRAS",
      "house": "",
      "postcode": "2705-349",
      "city": "COLARES",
      "lon": "-9.476664113422764",
      "lat": "38.7856999039813"
    },
    {
      "id": "pt.ine.add.PTCONT.2803344",
      "street": "ESTR NOVA CASA DA ROSA",
      "house": "12",
      "postcode": "2705-349",
      "city": "COLARES",
      "lon": "-9.475916257568631",
      "lat": "38.78448347479669"
    },
    {
      "id": "pt.ine.add.PTCONT.2812574",
      "street": "LG IGREJA",
      "house": "12",
      "postcode": "2705-349",
      "city": "COLARES",
      "lon": "-9.47622620882082",
      "lat": "38.78566890843284"
    },
    {
      "id": "pt.ine.add.PTCONT.2821799",
      "street": "ESTR NOVA",
      "house": "",
      "postcode": "2705-349",
      "city": "COLARES",
      "lon": "-9.475873257057398",
      "lat": "38.78525861802904"
    },
    {
      "id": "pt.ine.add.PTCONT.2845485",
      "street": "ESTR NOVA",
      "house": "16 16A",
      "postcode": "2705-349",
      "city": "COLARES",
      "lon": "-9.475991222977349",
      "lat": "38.784185364155036"
    },
    {
      "id": "pt.ine.add.PTCONT.2866946",
      "street": "LG IGREJA",
      "house": "",
      "postcode": "2705-349",
      "city": "COLARES",
      "lon": "-9.47600269475744",
      "lat": "38.78541025872649"
    },
    {
      "id": "pt.ine.add.PTCONT.2930450",
      "street": "R ZAMBUJEIRO VILA ROCA",
      "house": "9",
      "postcode": "2705-349",
      "city": "COLARES",
      "lon": "-9.477827407540104",
      "lat": "38.78452454815489"
    },
    {
      "id": "pt.ine.add.PTCONT.2948696",
      "street": "ESTR NOVA",
      "house": "20",
      "postcode": "2705-349",
      "city": "COLARES",
      "lon": "-9.47632794668624",
      "lat": "38.78373111626762"
    },
    {
      "id": "pt.ine.add.PTCONT.2958148",
      "street": "R ZAMBUJEIRO",
      "house": "19",
      "postcode": "2705-349",
      "city": "COLARES",
      "lon": "-9.478357687708455",
      "lat": "38.78395997618497"
    },
    {
      "id": "pt.ine.add.PTCONT.3068741",
      "street": "ESTR NOVA",
      "house": "",
      "postcode": "2705-349",
      "city": "COLARES",
      "lon": "-9.475901355051146",
      "lat": "38.784916008338456"
    },
    {
      "id": "pt.ine.add.PTCONT.3105394",
      "street": "R PALMEIRAS",
      "house": "3 3A",
      "postcode": "2705-349",
      "city": "COLARES",
      "lon": "-9.476666480027992",
      "lat": "38.785825982401256"
    },
    {
      "id": "pt.ine.add.PTCONT.3105395",
      "street": "ESTR NOVA",
      "house": "26 26A",
      "postcode": "2705-349",
      "city": "COLARES",
      "lon": "-9.47678022956408",
      "lat": "38.78330256120385"
    },
    {
      "id": "pt.ine.add.PTCONT.3115134",
      "street": "R ESPANADEIRA",
      "house": "9",
      "postcode": "2705-349",
      "city": "COLARES",
      "lon": "-9.476715061450633",
      "lat": "38.78473551069711"
    },
    {
      "id": "pt.ine.add.PTCONT.3192964",
      "street": "LG IGREJA",
      "house": "",
      "postcode": "2705-349",
      "city": "COLARES",
      "lon": "-9.476595584429536",
      "lat": "38.78572771461072"
    },
    {
      "id": "pt.ine.add.PTCONT.3205625",
      "street": "R ESPANADEIRA QTA DE S DOMINGOS",
      "house": "",
      "postcode": "2705-349",
      "city": "COLARES",
      "lon": "-9.476768364512562",
      "lat": "38.78450970906457"
    },
    {
      "id": "pt.ine.add.PTCONT.3236029",
      "street": "LG FLORES ROSEIRAL",
      "house": "",
      "postcode": "2705-349",
      "city": "COLARES",
      "lon": "-9.47563399687168",
      "lat": "38.78538747305632"
    },
    {
      "id": "pt.ine.add.PTCONT.3319161",
      "street": "LG IGREJA",
      "house": "",
      "postcode": "2705-349",
      "city": "COLARES",
      "lon": "-9.476343296973193",
      "lat": "38.78577565296626"
    },
    {
      "id": "pt.ine.add.PTCONT.3337672",
      "street": "LG IGREJA",
      "house": "7",
      "postcode": "2705-349",
      "city": "COLARES",
      "lon": "-9.476551588693903",
      "lat": "38.78583631102646"
    },
    {
      "id": "pt.ine.add.PTCONT.3346429",
      "street": "LG IGREJA",
      "house": "13",
      "postcode": "2705-349",
      "city": "COLARES",
      "lon": "-9.476571051109236",
      "lat": "38.785646928792964"
    },
    {
      "id": "pt.ine.add.PTCONT.3346430",
      "street": "LG IGREJA",
      "house": "13",
      "postcode": "2705-349",
      "city": "COLARES",
      "lon": "-9.476571051109236",
      "lat": "38.785646928792964"
    },
    {
      "id": "pt.ine.add.PTCONT.3355444",
      "street": "LG IGREJA",
      "house": "13",
      "postcode": "2705-349",
      "city": "COLARES",
      "lon": "-9.47605007035669",
      "lat": "38.78548177458507"
    },
    {
      "id": "pt.ine.add.PTCONT.3364152",
      "street": "LG IGREJA",
      "house": "",
      "postcode": "2705-349",
      "city": "COLARES",
      "lon": "-9.475715045426774",
      "lat": "38.78541356440933"
    },
    {
      "id": "pt.ine.add.PTCONT.3419709",
      "street": "R ESPANADEIRA",
      "house": "",
      "postcode": "2705-349",
      "city": "COLARES",
      "lon": "-9.476562780875922",
      "lat": "38.78459314097137"
    },
    {
      "id": "pt.ine.add.PTCONT.3428568",
      "street": "ESTR NOVA CASAL DO PERU",
      "house": "10",
      "postcode": "2705-349",
      "city": "COLARES",
      "lon": "-9.475931649095289",
      "lat": "38.78469047150286"
    }
  ]
}