{
  "data": {
    "distrito": "Lisboa",
    "concelho": "Sintra",
    "freguesia": "Colares",
    "OBJECTID": 882,
    "BGRI2021": "11110500724",
    "DT21": "11",
    "DTMN21": "1111",
    "DTMNFR21": "111105",
    "DTMNFRSEC21": "111105007",
    "SECNUM21": "007",
    "SSNUM21": "24",
    "SECSSNUM21": "00724",
    "OBJECTID_1": 114183,
    "DT": "11",
    "CC": "11",
    "fr": "05",
    "SEC": "007",
    "SS": "24"
  },
  "addresses": [
    {
      "id": "pt.ine.add.PTCONT.2353924",
      "street": "R HORTENCIAS",
      "house": "7",
      "postcode": "2705-349",
      "city": "COLARES",
      "lon": "-9.475750539233395",
      "lat": "38.786692228020414"
    },
    {
      "id": "pt.ine.add.PTCONT.2400400",
      "street": "TV ALECRIM",
      "house": "7",
      "postcode": "2705-349",
      "city": "COLARES",
      "lon": "-9.476389476733717",
      "lat": "38.78639664266866"
    },
    {
      "id": "pt.ine.add.PTCONT.2409509",
      "street": "R ROSAS",
      "house": "7",
      "postcode": "2705-349",
      "city": "COLARES",
      "lon": "-9.476196914321925",
      "lat": "38.78656099214214"
    },
    {
      "id": "pt.ine.add.PTCONT.2442446",
      "street": "R ROSAS",
      "house": "1",
      "postcode": "2705-349",
      "city": "COLARES",
      "lon": "-9.475986424249436",
      "lat": "38.78638326065178"
    },
    {
      "id": "pt.ine.add.PTCONT.2487317",
      "street": "LG FLORES",
      "house": "10",
      "postcode": "2705-349",
      "city": "COLARES",
      "lon": "-9.475661380967804",
      "lat": "38.78623386772895"
    },
    {
      "id": "pt.ine.add.PTCONT.2604003",
      "street": "TV ESTRELICIAS",
      "house": "",
      "postcode": "2705-349",
      "city": "COLARES",
      "lon": "-9.476159861089387",
      "lat": "38.786426304896295"
    },
    {
      "id": "pt.ine.add.PTCONT.2705534",
      "street": "LG FLORES",
      "house": "4",
      "postcode": "2705-349",
      "city": "COLARES",
      "lon": "-9.47619201366912",
      "lat": "38.786299829680296"
    },
    {
      "id": "pt.ine.add.PTCONT.2729034",
      "street": "TV ESTRELICIAS",
      "house": "",
      "postcode": "2705-349",
      "city": "COLARES",
      "lon": "-9.47610216143785",
      "lat": "38.78641796057885"
    },
    {
      "id": "pt.ine.add.PTCONT.2729035",
      "street": "TV ESTRELICIAS",
      "house": "",
      "postcode": "2705-349",
      "city": "COLARES",
      "lon": "-9.47610216143785",
      "lat": "38.78641796057885"
    },
    {
      "id": "pt.ine.add.PTCONT.2839586",
      "street": "R FLORES",
      "house": "11",
      "postcode": "2705-349",
      "city": "COLARES",
      "lon": "-9.476547350926259",
      "lat": "38.78622368418543"
    },
    {
      "id": "pt.ine.add.PTCONT.2839588",
      "street": "LG FLORES",
      "house": "11",
      "postcode": "2705-349",
      "city": "COLARES",
      "lon": "-9.475671704627283",
      "lat": "38.78617069628729"
    },
    {
      "id": "pt.ine.add.PTCONT.2866931",
      "street": "R LIRIOS",
      "house": "3",
      "postcode": "2705-349",
      "city": "COLARES",
      "lon": "-9.475899443751048",
      "lat": "38.78665448664947"
    },
    {
      "id": "pt.ine.add.PTCONT.2878680",
      "street": "LG FLORES",
      "house": "12",
      "postcode": "2705-349",
      "city": "COLARES",
      "lon": "-9.475776948829768",
      "lat": "38.78625956238211"
    },
    {
      "id": "pt.ine.add.PTCONT.2912369",
      "street": "R PALMEIRAS",
      "house": "2",
      "postcode": "2705-349",
      "city": "COLARES",
      "lon": "-9.47655513832733",
      "lat": "38.7860254286596"
    },
    {
      "id": "pt.ine.add.PTCONT.2921582",
      "street": "LG FLORES",
      "house": "13",
      "postcode": "2705-349",
      "city": "COLARES",
      "lon": "-9.475950385250835",
      "lat": "38.786302606946116"
    },
    {
      "id": "pt.ine.add.PTCONT.2936196",
      "street": "R FLORES",
      "house": "9",
      "postcode": "2705-349",
      "city": "COLARES",
      "lon": "-9.476453949965885",
      "lat": "38.78615269771614"
    },
    {
      "id": "pt.ine.add.PTCONT.2936197",
      "street": "R FLORES",
      "house": "15",
      "postcode": "2705-349",
      "city": "COLARES",
      "lon": "-9.476536859005494",
      "lat": "38.78627785008917"
    },
    {
      "id": "pt.ine.add.PTCONT.2976343",
      "street": "R PAS ROSAS",
      "house": "4",
      "postcode": "2705-349",
      "city": "COLARES",
      "lon": "-9.4758628978628",
      "lat": "38.78654681611185"
    },
    {
      "id": "pt.ine.add.PTCONT.3126964",
      "street": "R FLORES",
      "house": "6",
      "postcode": "2705-349",
      "city": "COLARES",
      "lon": "-9.476433642054083",
      "lat": "38.78629705191504"
    },
    {
      "id": "pt.ine.add.PTCONT.3169910",
      "street": "LG FLORES",
      "house": "5",
      "postcode": "2705-349",
      "city": "COLARES",
      "lon": "-9.476534323561298",
      "lat": "38.78614276607099"
    },
    {
      "id": "pt.ine.add.PTCONT.3173362",
      "street": "LG FLORES",
      "house": "5",
      "postcode": "2705-349",
      "city": "COLARES",
      "lon": "-9.476534323561298",
      "lat": "38.78614276607099"
    },
    {
      "id": "pt.ine.add.PTCONT.3205410",
      "street": "LG FLORES",
      "house": "14",
      "postcode": "2705-349",
      "city": "COLARES",
      "lon": "-9.475983720873948",
      "lat": "38.786239171002336"
    },
    {
      "id": "pt.ine.add.PTCONT.3272422",
      "street": "R ROSAS",
      "house": "8",
      "postcode": "2705-349",
      "city": "COLARES",
      "lon": "-9.476001816547562",
      "lat": "38.78659025727215"
    },
    {
      "id": "pt.ine.add.PTCONT.3290791",
      "street": "TV MADRESSILVA",
      "house": "4",
      "postcode": "2705-349",
      "city": "COLARES",
      "lon": "-9.476127032481397",
      "lat": "38.78651675769393"
    },
    {
      "id": "pt.ine.add.PTCONT.3364151",
      "street": "TV ESTRELICIAS",
      "house": "4",
      "postcode": "2705-349",
      "city": "COLARES",
      "lon": "-9.476330932058437",
      "lat": "38.78634327045601"
    },
    {
      "id": "pt.ine.add.PTCONT.3373300",
      "street": "R ROSAS",
      "house": "6",
      "postcode": "2705-349",
      "city": "COLARES",
      "lon": "-9.475977452531039",
      "lat": "38.78651847693746"
    },
    {
      "id": "pt.ine.add.PTCONT.3419702",
      "street": "R FLORES",
      "house": "13",
      "postcode": "2705-349",
      "city": "COLARES",
      "lon": "-9.476420614801546",
      "lat": "38.786216133786844"
    },
    {
      "id": "pt.ine.add.PTCONT.3449751",
      "street": "R ROSAS",
      "house": "2",
      "postcode": "2705-349",
      "city": "COLARES",
      "lon": "-9.475826858914562",
      "lat": "38.786466162369244"
    }
  ]
}