{
  "data": {
    "distrito": "Lisboa",
    "concelho": "Sintra",
    "freguesia": "Colares",
    "OBJECTID": 3465,
    "BGRI2021": "11110500727",
    "DT21": "11",
    "DTMN21": "1111",
    "DTMNFR21": "111105",
    "DTMNFRSEC21": "111105007",
    "SECNUM21": "007",
    "SSNUM21": "27",
    "SECSSNUM21": "00727",
    "OBJECTID_1": 111971,
    "DT": "11",
    "CC": "11",
    "fr": "05",
    "SEC": "007",
    "SS": "27"
  },
  "addresses": [
    {
      "id": "pt.ine.add.PTCONT.2368525",
      "street": "R PALHEIRAS",
      "house": "",
      "postcode": "2705-349",
      "city": "COLARES",
      "lon": "-9.477024688907068",
      "lat": "38.78590293070834"
    },
    {
      "id": "pt.ine.add.PTCONT.2487316",
      "street": "TV FLORES HAFARICA",
      "house": "21",
      "postcode": "2705-349",
      "city": "COLARES",
      "lon": "-9.476737027357432",
      "lat": "38.786518752089485"
    },
    {
      "id": "pt.ine.add.PTCONT.2509140",
      "street": "TV PALMEIRAS EIRA DOS FRADES",
      "house": "9",
      "postcode": "2705-349",
      "city": "COLARES",
      "lon": "-9.477750415598363",
      "lat": "38.78593961880651"
    },
    {
      "id": "pt.ine.add.PTCONT.2875639",
      "street": "TV PALMEIRAS",
      "house": "11",
      "postcode": "2705-349",
      "city": "COLARES",
      "lon": "-9.477848216573209",
      "lat": "38.78624474973263"
    },
    {
      "id": "pt.ine.add.PTCONT.2885334",
      "street": "TV PALHEIRAS",
      "house": "",
      "postcode": "2705-349",
      "city": "COLARES",
      "lon": "-9.477574269296234",
      "lat": "38.78636500038375"
    },
    {
      "id": "pt.ine.add.PTCONT.2921580",
      "street": "TV PALHEIRAS",
      "house": "5",
      "postcode": "2705-349",
      "city": "COLARES",
      "lon": "-9.477482055221563",
      "lat": "38.785744540891216"
    },
    {
      "id": "pt.ine.add.PTCONT.3049358",
      "street": "R PALMEIRAS",
      "house": "22",
      "postcode": "2705-349",
      "city": "COLARES",
      "lon": "-9.477668014940933",
      "lat": "38.785228971036965"
    },
    {
      "id": "pt.ine.add.PTCONT.3087903",
      "street": "R FLORES",
      "house": "",
      "postcode": "2705-349",
      "city": "COLARES",
      "lon": "-9.478337735122206",
      "lat": "38.786572393848004"
    },
    {
      "id": "pt.ine.add.PTCONT.3164660",
      "street": "TV FLORES",
      "house": "4",
      "postcode": "2705-349",
      "city": "COLARES",
      "lon": "-9.476663764294482",
      "lat": "38.78629440596001"
    },
    {
      "id": "pt.ine.add.PTCONT.3290787",
      "street": "R PALMEIRAS QTA DA BALDEIRA",
      "house": "",
      "postcode": "2705-349",
      "city": "COLARES",
      "lon": "-9.480446049897548",
      "lat": "38.78607970883301"
    },
    {
      "id": "pt.ine.add.PTCONT.3328307",
      "street": "TV PALMEIRAS CASA O O CANAVIAL",
      "house": "7",
      "postcode": "2705-349",
      "city": "COLARES",
      "lon": "-9.476925361414512",
      "lat": "38.7861292617559"
    },
    {
      "id": "pt.ine.add.PTCONT.3410911",
      "street": "TV FLORES QTA DA BARROQUELA",
      "house": "24",
      "postcode": "2705-349",
      "city": "COLARES",
      "lon": "-9.477937388812217",
      "lat": "38.78670310810359"
    },
    {
      "id": "pt.ine.add.PTCONT.3428562",
      "street": "TV PALMEIRAS",
      "house": "7",
      "postcode": "2705-349",
      "city": "COLARES",
      "lon": "-9.4778966102534",
      "lat": "38.78575778538039"
    }
  ]
}