{
  "data": {
    "distrito": "Lisboa",
    "concelho": "Sintra",
    "freguesia": "Colares",
    "OBJECTID": 127,
    "BGRI2021": "11110500729",
    "DT21": "11",
    "DTMN21": "1111",
    "DTMNFR21": "111105",
    "DTMNFRSEC21": "111105007",
    "SECNUM21": "007",
    "SSNUM21": "29",
    "SECSSNUM21": "00729",
    "OBJECTID_1": 113640,
    "DT": "11",
    "CC": "11",
    "fr": "05",
    "SEC": "007",
    "SS": "29"
  },
  "addresses": [
    {
      "id": "pt.ine.add.PTCONT.2317841",
      "street": "R ARRABALDE",
      "house": "",
      "postcode": "2705-349",
      "city": "COLARES",
      "lon": "-9.475071650094415",
      "lat": "38.78731254036747"
    },
    {
      "id": "pt.ine.add.PTCONT.2368524",
      "street": "R ARRABALDE CASA DO VENTO NORTE",
      "house": "16",
      "postcode": "2705-349",
      "city": "COLARES",
      "lon": "-9.474322192061578",
      "lat": "38.78785259097444"
    },
    {
      "id": "pt.ine.add.PTCONT.2381594",
      "street": "CAM LOUREIRA",
      "house": "8",
      "postcode": "2705-349",
      "city": "COLARES",
      "lon": "-9.475336463455562",
      "lat": "38.78731850610183"
    },
    {
      "id": "pt.ine.add.PTCONT.2390905",
      "street": "R HORTENCIAS",
      "house": "6",
      "postcode": "2705-349",
      "city": "COLARES",
      "lon": "-9.475504517984524",
      "lat": "38.786460858681316"
    },
    {
      "id": "pt.ine.add.PTCONT.2400397",
      "street": "R ARRABALDE",
      "house": "",
      "postcode": "2705-349",
      "city": "COLARES",
      "lon": "-9.474658127024504",
      "lat": "38.78674080626736"
    },
    {
      "id": "pt.ine.add.PTCONT.2418789",
      "street": "R ARRABALDE",
      "house": "",
      "postcode": "2705-349",
      "city": "COLARES",
      "lon": "-9.47401951650204",
      "lat": "38.787054393533644"
    },
    {
      "id": "pt.ine.add.PTCONT.2427777",
      "street": "LG FLORES",
      "house": "",
      "postcode": "2705-349",
      "city": "COLARES",
      "lon": "-9.47522431774004",
      "lat": "38.78624789650531"
    },
    {
      "id": "pt.ine.add.PTCONT.2442447",
      "street": "LG FLORES",
      "house": "3 A",
      "postcode": "2705-349",
      "city": "COLARES",
      "lon": "-9.475161046069648",
      "lat": "38.785942366707744"
    },
    {
      "id": "pt.ine.add.PTCONT.2536067",
      "street": "R HORTENCIAS",
      "house": "4",
      "postcode": "2705-349",
      "city": "COLARES",
      "lon": "-9.475491491744316",
      "lat": "38.786379940433505"
    },
    {
      "id": "pt.ine.add.PTCONT.2545331",
      "street": "LG FLORES",
      "house": "",
      "postcode": "2705-349",
      "city": "COLARES",
      "lon": "-9.475441076015947",
      "lat": "38.78614632346574"
    },
    {
      "id": "pt.ine.add.PTCONT.2581640",
      "street": "R HORTENCIAS",
      "house": "16",
      "postcode": "2705-349",
      "city": "COLARES",
      "lon": "-9.475416353320592",
      "lat": "38.78666904511888"
    },
    {
      "id": "pt.ine.add.PTCONT.2603802",
      "street": "R JASMINS",
      "house": "8",
      "postcode": "2705-349",
      "city": "COLARES",
      "lon": "-9.475223450175923",
      "lat": "38.78681538182361"
    },
    {
      "id": "pt.ine.add.PTCONT.2618924",
      "street": "R CAMELIAS CASAL DO SAPO",
      "house": "8",
      "postcode": "2705-349",
      "city": "COLARES",
      "lon": "-9.475249525248556",
      "lat": "38.78636470504424"
    },
    {
      "id": "pt.ine.add.PTCONT.2635021",
      "street": "CAM LOUREIRA",
      "house": "4",
      "postcode": "2705-349",
      "city": "COLARES",
      "lon": "-9.47535592938121",
      "lat": "38.787129124053"
    },
    {
      "id": "pt.ine.add.PTCONT.2643200",
      "street": "R CAMELIAS",
      "house": "",
      "postcode": "2705-349",
      "city": "COLARES",
      "lon": "-9.475094180324728",
      "lat": "38.78667274592004"
    },
    {
      "id": "pt.ine.add.PTCONT.2661566",
      "street": "R HORTENCIAS",
      "house": "18",
      "postcode": "2705-349",
      "city": "COLARES",
      "lon": "-9.475533104154735",
      "lat": "38.78675777923044"
    },
    {
      "id": "pt.ine.add.PTCONT.2661567",
      "street": "CAM LOUREIRA",
      "house": "6",
      "postcode": "2705-349",
      "city": "COLARES",
      "lon": "-9.475372164531969",
      "lat": "38.787381148779076"
    },
    {
      "id": "pt.ine.add.PTCONT.2714596",
      "street": "R ARRABALDE",
      "house": "23",
      "postcode": "2705-349",
      "city": "COLARES",
      "lon": "-9.474443361332705",
      "lat": "38.78756295858167"
    },
    {
      "id": "pt.ine.add.PTCONT.2728891",
      "street": "R CAMELIAS",
      "house": "11",
      "postcode": "2705-349",
      "city": "COLARES",
      "lon": "-9.475145946218973",
      "lat": "38.78697840787229"
    },
    {
      "id": "pt.ine.add.PTCONT.2782979",
      "street": "CAM LOUREIRA",
      "house": "2",
      "postcode": "2705-349",
      "city": "COLARES",
      "lon": "-9.475443925853513",
      "lat": "38.786911932059596"
    },
    {
      "id": "pt.ine.add.PTCONT.2803343",
      "street": "R JASMINS",
      "house": "10",
      "postcode": "2705-349",
      "city": "COLARES",
      "lon": "-9.475327850396061",
      "lat": "38.786859220282544"
    },
    {
      "id": "pt.ine.add.PTCONT.2812572",
      "street": "R JASMINS CASA DA ANA",
      "house": "",
      "postcode": "2705-349",
      "city": "COLARES",
      "lon": "-9.475144088769829",
      "lat": "38.78687934621469"
    },
    {
      "id": "pt.ine.add.PTCONT.2845296",
      "street": "R CAMELIAS QTA DA MERCADORA",
      "house": "10",
      "postcode": "2705-349",
      "city": "COLARES",
      "lon": "-9.474820590939263",
      "lat": "38.78619848801916"
    },
    {
      "id": "pt.ine.add.PTCONT.3031535",
      "street": "R HORTENCIAS LIMBREIRA",
      "house": "8",
      "postcode": "2705-349",
      "city": "COLARES",
      "lon": "-9.475552569449762",
      "lat": "38.786568397143135"
    },
    {
      "id": "pt.ine.add.PTCONT.3059200",
      "street": "R CAMELIAS MIRA SERRA",
      "house": "12 14",
      "postcode": "2705-349",
      "city": "COLARES",
      "lon": "-9.474948145479374",
      "lat": "38.78686358157792"
    },
    {
      "id": "pt.ine.add.PTCONT.3096815",
      "street": "LG FLORES",
      "house": "2",
      "postcode": "2705-349",
      "city": "COLARES",
      "lon": "-9.475410295031446",
      "lat": "38.78573232997446"
    },
    {
      "id": "pt.ine.add.PTCONT.3096816",
      "street": "LG FLORES",
      "house": "2",
      "postcode": "2705-349",
      "city": "COLARES",
      "lon": "-9.475410295031446",
      "lat": "38.78573232997446"
    },
    {
      "id": "pt.ine.add.PTCONT.3152585",
      "street": "R ARRABALDE",
      "house": "",
      "postcode": "2705-349",
      "city": "COLARES",
      "lon": "-9.474918717535564",
      "lat": "38.78652163281502"
    },
    {
      "id": "pt.ine.add.PTCONT.3169908",
      "street": "CAM LOUREIRA",
      "house": "",
      "postcode": "2705-349",
      "city": "COLARES",
      "lon": "-9.475380968565458",
      "lat": "38.7872369269331"
    },
    {
      "id": "pt.ine.add.PTCONT.3169909",
      "street": "CAM LOUREIRA",
      "house": "4",
      "postcode": "2705-349",
      "city": "COLARES",
      "lon": "-9.475361840463822",
      "lat": "38.78744432018936"
    },
    {
      "id": "pt.ine.add.PTCONT.3180434",
      "street": "R JASMINS",
      "house": "",
      "postcode": "2705-349",
      "city": "COLARES",
      "lon": "-9.475096544247172",
      "lat": "38.78679882440011"
    },
    {
      "id": "pt.ine.add.PTCONT.3205624",
      "street": "LG FLORES",
      "house": "6",
      "postcode": "2705-349",
      "city": "COLARES",
      "lon": "-9.475495735212927",
      "lat": "38.785992567220724"
    },
    {
      "id": "pt.ine.add.PTCONT.3236028",
      "street": "LG FLORES",
      "house": "3",
      "postcode": "2705-349",
      "city": "COLARES",
      "lon": "-9.475217056619774",
      "lat": "38.78586065543399"
    },
    {
      "id": "pt.ine.add.PTCONT.3328306",
      "street": "R HORTENCIAS",
      "house": "14",
      "postcode": "2705-349",
      "city": "COLARES",
      "lon": "-9.475565426889146",
      "lat": "38.786640309775635"
    },
    {
      "id": "pt.ine.add.PTCONT.3346423",
      "street": "CAM LOUREIRA",
      "house": "2",
      "postcode": "2705-349",
      "city": "COLARES",
      "lon": "-9.475191103471014",
      "lat": "38.78754536447058"
    },
    {
      "id": "pt.ine.add.PTCONT.3355438",
      "street": "LG FLORES",
      "house": "",
      "postcode": "2705-349",
      "city": "COLARES",
      "lon": "-9.475497255293394",
      "lat": "38.78607361766861"
    },
    {
      "id": "pt.ine.add.PTCONT.3401652",
      "street": "LG FLORES",
      "house": "2",
      "postcode": "2705-349",
      "city": "COLARES",
      "lon": "-9.475320779926808",
      "lat": "38.785868471505765"
    },
    {
      "id": "pt.ine.add.PTCONT.3410910",
      "street": "R JASMINS",
      "house": "5",
      "postcode": "2705-349",
      "city": "COLARES",
      "lon": "-9.47533682336726",
      "lat": "38.78672400403175"
    },
    {
      "id": "pt.ine.add.PTCONT.3450232",
      "street": "R ARRABALDE",
      "house": "12",
      "postcode": "2705-349",
      "city": "COLARES",
      "lon": "-9.473989215633624",
      "lat": "38.787279929909744"
    },
    {
      "id": "pt.ine.add.PTCONT.3453559",
      "street": "R CAMELIAS",
      "house": "1",
      "postcode": "2705-349",
      "city": "COLARES",
      "lon": "-9.475232277674259",
      "lat": "38.78605864660925"
    }
  ]
}