{
  "data": {
    "distrito": "Lisboa",
    "concelho": "Sintra",
    "freguesia": "Colares",
    "OBJECTID": 2005,
    "BGRI2021": "11110500730",
    "DT21": "11",
    "DTMN21": "1111",
    "DTMNFR21": "111105",
    "DTMNFRSEC21": "111105007",
    "SECNUM21": "007",
    "SSNUM21": "30",
    "SECSSNUM21": "00730",
    "OBJECTID_1": 114132,
    "DT": "11",
    "CC": "11",
    "fr": "05",
    "SEC": "007",
    "SS": "30"
  },
  "addresses": [
    {
      "id": "pt.ine.add.PTCONT.2317823",
      "street": "EN 247 QTA MOINHOS VELHOS",
      "house": "CASA 2",
      "postcode": "2705-080",
      "city": "COLARES",
      "lon": "-9.459399382146763",
      "lat": "38.78932002627956"
    },
    {
      "id": "pt.ine.add.PTCONT.2335812",
      "street": "QTA CAMELIAS",
      "house": "",
      "postcode": "2705-255",
      "city": "COLARES",
      "lon": "-9.45965720296678",
      "lat": "38.78956931084458"
    },
    {
      "id": "pt.ine.add.PTCONT.2463600",
      "street": "",
      "house": "",
      "postcode": "2705-255",
      "city": "COLARES",
      "lon": "-9.460258708828302",
      "lat": "38.78911210232279"
    },
    {
      "id": "pt.ine.add.PTCONT.2678800",
      "street": "2 RUA CASAL DA TAPADA",
      "house": "",
      "postcode": "2705-255",
      "city": "COLARES",
      "lon": "-9.459894503166787",
      "lat": "38.78933241998407"
    },
    {
      "id": "pt.ine.add.PTCONT.2723251",
      "street": "EN 247 CASAL S JOSE URCA",
      "house": "",
      "postcode": "2705-080",
      "city": "COLARES",
      "lon": "-9.45767371902598",
      "lat": "38.78873609612757"
    },
    {
      "id": "pt.ine.add.PTCONT.2803526",
      "street": "EN 247 CASA ALTO",
      "house": "",
      "postcode": "2705-255",
      "city": "COLARES",
      "lon": "-9.460122632917816",
      "lat": "38.78922173854573"
    },
    {
      "id": "pt.ine.add.PTCONT.2996954",
      "street": "",
      "house": "",
      "postcode": "2705-255",
      "city": "COLARES",
      "lon": "-9.460364589590837",
      "lat": "38.78861548414123"
    },
    {
      "id": "pt.ine.add.PTCONT.3003311",
      "street": "EN 247 CASA DO CELEIRO",
      "house": "",
      "postcode": "2705-080",
      "city": "COLARES",
      "lon": "-9.460608341820686",
      "lat": "38.786865249239916"
    },
    {
      "id": "pt.ine.add.PTCONT.3054321",
      "street": "EN 247",
      "house": "",
      "postcode": "2705-080",
      "city": "COLARES",
      "lon": "-9.460816185541383",
      "lat": "38.78876348169565"
    },
    {
      "id": "pt.ine.add.PTCONT.3126926",
      "street": "QTA EIRA",
      "house": "S N",
      "postcode": "2705-255",
      "city": "COLARES",
      "lon": "-9.460453987669611",
      "lat": "38.78909186891719"
    },
    {
      "id": "pt.ine.add.PTCONT.3133624",
      "street": "",
      "house": "",
      "postcode": "2705-255",
      "city": "COLARES",
      "lon": "-9.460515678134865",
      "lat": "38.78869483571155"
    },
    {
      "id": "pt.ine.add.PTCONT.3152915",
      "street": "CAM ALEGRE",
      "house": "39",
      "postcode": "2705-255",
      "city": "COLARES",
      "lon": "-9.459804286118276",
      "lat": "38.789432527515444"
    },
    {
      "id": "pt.ine.add.PTCONT.3272410",
      "street": "2 RUA DIREITA QTA DOS MOINHOS VELHOS",
      "house": "CASA 3",
      "postcode": "2705-255",
      "city": "COLARES",
      "lon": "-9.459443406087127",
      "lat": "38.78921143588853"
    },
    {
      "id": "pt.ine.add.PTCONT.3290779",
      "street": "EN 247 QTA MOINHOS VELHOS",
      "house": "CASA 1",
      "postcode": "2705-080",
      "city": "COLARES",
      "lon": "-9.459374533008878",
      "lat": "38.78922122525841"
    },
    {
      "id": "pt.ine.add.PTCONT.3355415",
      "street": "",
      "house": "",
      "postcode": "2705-255",
      "city": "COLARES",
      "lon": "-9.459840475690026",
      "lat": "38.78952219211131"
    },
    {
      "id": "pt.ine.add.PTCONT.3428545",
      "street": "EN 247 TORRE BRANCA",
      "house": "",
      "postcode": "2705-080",
      "city": "COLARES",
      "lon": "-9.459518788533963",
      "lat": "38.7895528671721"
    },
    {
      "id": "pt.ine.add.PTCONT.3433357",
      "street": "ESTR CRUZAMENTO CAPUCHOS 2 DIREITAESTRADA NACIONAL 247 TAPADA DOS CEDROS",
      "house": "",
      "postcode": "2705-255",
      "city": "COLARES",
      "lon": "-9.460068940078736",
      "lat": "38.789429522083275"
    }
  ]
}