{
  "data": {
    "distrito": "Set√∫bal",
    "concelho": "Sines",
    "freguesia": "Sines",
    "OBJECTID": 214,
    "BGRI2021": "15130100128",
    "DT21": "15",
    "DTMN21": "1513",
    "DTMNFR21": "151301",
    "DTMNFRSEC21": "151301001",
    "SECNUM21": "001",
    "SSNUM21": "28",
    "SECSSNUM21": "00128",
    "OBJECTID_1": 171420,
    "DT": "15",
    "CC": "13",
    "fr": "01",
    "SEC": "001",
    "SS": "28"
  },
  "addresses": [
    {
      "id": "pt.ine.add.PTCONT.4776949",
      "street": "R ALEXANDRE MASSAI",
      "house": "",
      "postcode": "7520-169",
      "city": "SINES",
      "lon": "-8.875071154296505",
      "lat": "37.95316786163187"
    },
    {
      "id": "pt.ine.add.PTCONT.4817167",
      "street": "R ALEXANDRE MASSAI",
      "house": "7",
      "postcode": "7520-169",
      "city": "SINES",
      "lon": "-8.875005049993469",
      "lat": "37.9531192027957"
    },
    {
      "id": "pt.ine.add.PTCONT.4988994",
      "street": "R ALEXANDRE MASSAI",
      "house": "13",
      "postcode": "7520-169",
      "city": "SINES",
      "lon": "-8.875201834225212",
      "lat": "37.953261923905835"
    },
    {
      "id": "pt.ine.add.PTCONT.5055309",
      "street": "LG NSA SRA DAS SALVAS",
      "house": "",
      "postcode": "7520-147",
      "city": "SINES",
      "lon": "-8.874810175028541",
      "lat": "37.9528527354121"
    },
    {
      "id": "pt.ine.add.PTCONT.5055310",
      "street": "LG NSA SRA DAS SALVAS",
      "house": "",
      "postcode": "7520-147",
      "city": "SINES",
      "lon": "-8.874810175028541",
      "lat": "37.9528527354121"
    },
    {
      "id": "pt.ine.add.PTCONT.5055483",
      "street": "LG NSA SRA DAS SALVAS",
      "house": "",
      "postcode": "7520-147",
      "city": "SINES",
      "lon": "-8.874810175028541",
      "lat": "37.9528527354121"
    },
    {
      "id": "pt.ine.add.PTCONT.5069507",
      "street": "R ALEXANDRE MASSAI",
      "house": "3",
      "postcode": "7520-169",
      "city": "SINES",
      "lon": "-8.8748822118454",
      "lat": "37.95303076573993"
    },
    {
      "id": "pt.ine.add.PTCONT.5100390",
      "street": "R ALEXANDRE MASSAI",
      "house": "",
      "postcode": "7520-169",
      "city": "SINES",
      "lon": "-8.875846595059885",
      "lat": "37.95334771452675"
    },
    {
      "id": "pt.ine.add.PTCONT.5107111",
      "street": "R ALEXANDRE MASSAI",
      "house": "11",
      "postcode": "7520-169",
      "city": "SINES",
      "lon": "-8.875152547763625",
      "lat": "37.95322257997088"
    },
    {
      "id": "pt.ine.add.PTCONT.5107112",
      "street": "R ALEXANDRE MASSAI",
      "house": "5",
      "postcode": "7520-169",
      "city": "SINES",
      "lon": "-8.874943010399114",
      "lat": "37.95307918782668"
    }
  ]
}