{
  "data": {
    "distrito": "Setúbal",
    "concelho": "Almada",
    "freguesia": "União das freguesias de Charneca de Caparica e Sobreda",
    "OBJECTID": 37,
    "BGRI2021": "15031401924",
    "DT21": "15",
    "DTMN21": "1503",
    "DTMNFR21": "150314",
    "DTMNFRSEC21": "150314019",
    "SECNUM21": "019",
    "SSNUM21": "24",
    "SECSSNUM21": "01924",
    "OBJECTID_1": 162187,
    "DT": "15",
    "CC": "03",
    "fr": "14",
    "SEC": "019",
    "SS": "24"
  },
  "addresses": [
    {
      "id": "pt.ine.add.PTCONT.4693002",
      "street": "R FLORBELA ESPANCA",
      "house": "10",
      "postcode": "2820-202",
      "city": "CHARNECA DA CAPARICA",
      "lon": "-9.19242763232255",
      "lat": "38.62078790150472"
    },
    {
      "id": "pt.ine.add.PTCONT.4762034",
      "street": "R FLORBELA ESPANCA",
      "house": "3",
      "postcode": "2820-202",
      "city": "CHARNECA DA CAPARICA",
      "lon": "-9.192021697698525",
      "lat": "38.6205123283439"
    },
    {
      "id": "pt.ine.add.PTCONT.4762035",
      "street": "R FLORBELA ESPANCA",
      "house": "3",
      "postcode": "2820-202",
      "city": "CHARNECA DA CAPARICA",
      "lon": "-9.192021697698525",
      "lat": "38.6205123283439"
    },
    {
      "id": "pt.ine.add.PTCONT.4762036",
      "street": "R FLORBELA ESPANCA",
      "house": "3",
      "postcode": "2820-202",
      "city": "CHARNECA DA CAPARICA",
      "lon": "-9.192021697698525",
      "lat": "38.6205123283439"
    },
    {
      "id": "pt.ine.add.PTCONT.4808105",
      "street": "R OSCAR DE PRATT",
      "house": "32",
      "postcode": "2820-667",
      "city": "CHARNECA DA CAPARICA",
      "lon": "-9.19190675751566",
      "lat": "38.62050436058084"
    },
    {
      "id": "pt.ine.add.PTCONT.4839878",
      "street": "R OSCAR DE PRATT",
      "house": "34",
      "postcode": "2820-667",
      "city": "CHARNECA DA CAPARICA",
      "lon": "-9.192135578185168",
      "lat": "38.620448241618824"
    },
    {
      "id": "pt.ine.add.PTCONT.4863899",
      "street": "R FLORBELA ESPANCA",
      "house": "4",
      "postcode": "2820-202",
      "city": "CHARNECA DA CAPARICA",
      "lon": "-9.192275599545889",
      "lat": "38.620600110035014"
    },
    {
      "id": "pt.ine.add.PTCONT.4867953",
      "street": "R FLORBELA ESPANCA",
      "house": "2",
      "postcode": "2820-202",
      "city": "CHARNECA DA CAPARICA",
      "lon": "-9.19203437054453",
      "lat": "38.6205932856076"
    },
    {
      "id": "pt.ine.add.PTCONT.4867970",
      "street": "R FLORBELA ESPANCA",
      "house": "2",
      "postcode": "2820-202",
      "city": "CHARNECA DA CAPARICA",
      "lon": "-9.19203437054453",
      "lat": "38.6205932856076"
    },
    {
      "id": "pt.ine.add.PTCONT.4879016",
      "street": "R OSCAR DE PRATT",
      "house": "36",
      "postcode": "2820-667",
      "city": "CHARNECA DA CAPARICA",
      "lon": "-9.19234143698067",
      "lat": "38.6203923300964"
    },
    {
      "id": "pt.ine.add.PTCONT.5133212",
      "street": "R FLORBELA ESPANCA",
      "house": "12",
      "postcode": "2820-202",
      "city": "CHARNECA DA CAPARICA",
      "lon": "-9.192267695778968",
      "lat": "38.62084339746342"
    }
  ]
}