{
  "data": {
    "distrito": "Lisboa",
    "concelho": "Sintra",
    "freguesia": "Algueir√£o-Mem Martins",
    "OBJECTID": 2570,
    "BGRI2021": "11110204904",
    "DT21": "11",
    "DTMN21": "1111",
    "DTMNFR21": "111102",
    "DTMNFRSEC21": "111102049",
    "SECNUM21": "049",
    "SSNUM21": "04",
    "SECSSNUM21": "04904",
    "OBJECTID_1": 113185,
    "DT": "11",
    "CC": "11",
    "fr": "02",
    "SEC": "049",
    "SS": "04"
  },
  "addresses": [
    {
      "id": "pt.ine.add.PTCONT.2268750",
      "street": "R REINALDO DOS SANTOS",
      "house": "28",
      "postcode": "2725-120",
      "city": "MEM MARTINS",
      "lon": "-9.341040917358818",
      "lat": "38.80646604254439"
    },
    {
      "id": "pt.ine.add.PTCONT.2293507",
      "street": "BR PINHEIRO",
      "house": "55",
      "postcode": "2725-521",
      "city": "MEM MARTINS",
      "lon": "-9.344618033389239",
      "lat": "38.809680750512776"
    },
    {
      "id": "pt.ine.add.PTCONT.2299476",
      "street": "R DR FERNANDES",
      "house": "20",
      "postcode": "2725-514",
      "city": "MEM MARTINS",
      "lon": "-9.341833774196793",
      "lat": "38.810466230530245"
    },
    {
      "id": "pt.ine.add.PTCONT.2308643",
      "street": "ESTR SACOTES",
      "house": "4",
      "postcode": "2725-525",
      "city": "MEM MARTINS",
      "lon": "-9.340963075009707",
      "lat": "38.81071844157307"
    },
    {
      "id": "pt.ine.add.PTCONT.2317357",
      "street": "ESTR AZEITEIRA",
      "house": "38",
      "postcode": "2725-508",
      "city": "MEM MARTINS",
      "lon": "-9.340160466327836",
      "lat": "38.80750201106735"
    },
    {
      "id": "pt.ine.add.PTCONT.2323123",
      "street": "R PROF VITOR HUGO MOREIRA FONTES",
      "house": "9 A",
      "postcode": "2725-114",
      "city": "MEM MARTINS",
      "lon": "-9.340898587529956",
      "lat": "38.806899879725265"
    },
    {
      "id": "pt.ine.add.PTCONT.2323124",
      "street": "ESTR AZEITEIRA",
      "house": "52",
      "postcode": "2725-508",
      "city": "MEM MARTINS",
      "lon": "-9.339954308663598",
      "lat": "38.8068826152962"
    },
    {
      "id": "pt.ine.add.PTCONT.2326045",
      "street": "R DR FERNANDES",
      "house": "9",
      "postcode": "2725-514",
      "city": "MEM MARTINS",
      "lon": "-9.341330654936758",
      "lat": "38.81066960247171"
    },
    {
      "id": "pt.ine.add.PTCONT.2326046",
      "street": "R DR FERNANDES",
      "house": "9",
      "postcode": "2725-514",
      "city": "MEM MARTINS",
      "lon": "-9.341330654936758",
      "lat": "38.81066960247171"
    },
    {
      "id": "pt.ine.add.PTCONT.2326047",
      "street": "R DR FERNANDES",
      "house": "9",
      "postcode": "2725-514",
      "city": "MEM MARTINS",
      "lon": "-9.341330654936758",
      "lat": "38.81066960247171"
    },
    {
      "id": "pt.ine.add.PTCONT.2326048",
      "street": "R DR FERNANDES",
      "house": "9",
      "postcode": "2725-514",
      "city": "MEM MARTINS",
      "lon": "-9.341330654936758",
      "lat": "38.81066960247171"
    },
    {
      "id": "pt.ine.add.PTCONT.2335456",
      "street": "R REINALDO DOS SANTOS",
      "house": "26",
      "postcode": "2725-120",
      "city": "MEM MARTINS",
      "lon": "-9.340868267902717",
      "lat": "38.806467827523925"
    },
    {
      "id": "pt.ine.add.PTCONT.2345090",
      "street": "R PROF VITOR HUGO MOREIRA FONTES",
      "house": "9",
      "postcode": "2725-114",
      "city": "MEM MARTINS",
      "lon": "-9.340920238865547",
      "lat": "38.80681858732829"
    },
    {
      "id": "pt.ine.add.PTCONT.2418438",
      "street": "R DR FERNANDES",
      "house": "39",
      "postcode": "2725-514",
      "city": "MEM MARTINS",
      "lon": "-9.343285866851042",
      "lat": "38.809874710202074"
    },
    {
      "id": "pt.ine.add.PTCONT.2437751",
      "street": "ESTR AZEITEIRA",
      "house": "",
      "postcode": "2725-508",
      "city": "MEM MARTINS",
      "lon": "-9.341265998812283",
      "lat": "38.80888676379837"
    },
    {
      "id": "pt.ine.add.PTCONT.2439455",
      "street": "ESTR AZEITEIRA",
      "house": "",
      "postcode": "2725-508",
      "city": "MEM MARTINS",
      "lon": "-9.341265998812283",
      "lat": "38.80888676379837"
    },
    {
      "id": "pt.ine.add.PTCONT.2488873",
      "street": "R REINALDO DOS SANTOS",
      "house": "3",
      "postcode": "2725-080",
      "city": "MEM MARTINS",
      "lon": "-9.34278188097901",
      "lat": "38.80730375242226"
    },
    {
      "id": "pt.ine.add.PTCONT.2517814",
      "street": "R REINALDO DOS SANTOS",
      "house": "",
      "postcode": "2725-120",
      "city": "MEM MARTINS",
      "lon": "-9.340408781367104",
      "lat": "38.8065266225069"
    },
    {
      "id": "pt.ine.add.PTCONT.2517823",
      "street": "R DR FERNANDES",
      "house": "3",
      "postcode": "2725-514",
      "city": "MEM MARTINS",
      "lon": "-9.34117072306073",
      "lat": "38.81074331731785"
    },
    {
      "id": "pt.ine.add.PTCONT.2526359",
      "street": "R DR FERNANDES",
      "house": "47",
      "postcode": "2725-514",
      "city": "MEM MARTINS",
      "lon": "-9.34364086310677",
      "lat": "38.80976294093119"
    },
    {
      "id": "pt.ine.add.PTCONT.2544916",
      "street": "R DR FERNANDES",
      "house": "69",
      "postcode": "2725-514",
      "city": "MEM MARTINS",
      "lon": "-9.345144614786973",
      "lat": "38.809504143885725"
    },
    {
      "id": "pt.ine.add.PTCONT.2562718",
      "street": "R PROF VITOR HUGO MOREIRA FONTES",
      "house": "19",
      "postcode": "2725-114",
      "city": "MEM MARTINS",
      "lon": "-9.34065494585851",
      "lat": "38.80746987819266"
    },
    {
      "id": "pt.ine.add.PTCONT.2562870",
      "street": "R PROF VITOR HUGO MOREIRA FONTES",
      "house": "15",
      "postcode": "2725-114",
      "city": "MEM MARTINS",
      "lon": "-9.340580563655909",
      "lat": "38.80715538040774"
    },
    {
      "id": "pt.ine.add.PTCONT.2565604",
      "street": "ESTR AZEITEIRA",
      "house": "28",
      "postcode": "2725-508",
      "city": "MEM MARTINS",
      "lon": "-9.34027104969499",
      "lat": "38.807915218829834"
    },
    {
      "id": "pt.ine.add.PTCONT.2565867",
      "street": "ESTR AZEITEIRA",
      "house": "18",
      "postcode": "2725-508",
      "city": "MEM MARTINS",
      "lon": "-9.340380722272922",
      "lat": "38.80827439017027"
    },
    {
      "id": "pt.ine.add.PTCONT.2581211",
      "street": "ESTR AZEITEIRA",
      "house": "",
      "postcode": "2725-508",
      "city": "MEM MARTINS",
      "lon": "-9.340679625477843",
      "lat": "38.8096134354934"
    },
    {
      "id": "pt.ine.add.PTCONT.2589675",
      "street": "R DR FERNANDES",
      "house": "55 B",
      "postcode": "2725-514",
      "city": "MEM MARTINS",
      "lon": "-9.34490548980376",
      "lat": "38.80965975390923"
    },
    {
      "id": "pt.ine.add.PTCONT.2598727",
      "street": "R DR FERNANDES",
      "house": "45",
      "postcode": "2725-514",
      "city": "MEM MARTINS",
      "lon": "-9.34366838220944",
      "lat": "38.80934830564705"
    },
    {
      "id": "pt.ine.add.PTCONT.2625075",
      "street": "BR PINHEIRO",
      "house": "55",
      "postcode": "2725-521",
      "city": "MEM MARTINS",
      "lon": "-9.34482491657726",
      "lat": "38.80966058965368"
    },
    {
      "id": "pt.ine.add.PTCONT.2634589",
      "street": "R PROF VITOR HUGO MOREIRA FONTES",
      "house": "11",
      "postcode": "2725-114",
      "city": "MEM MARTINS",
      "lon": "-9.340797278216959",
      "lat": "38.80703604130821"
    },
    {
      "id": "pt.ine.add.PTCONT.2669272",
      "street": "ESTR AZEITEIRA",
      "house": "26",
      "postcode": "2725-508",
      "city": "MEM MARTINS",
      "lon": "-9.340330424846648",
      "lat": "38.80802269668528"
    },
    {
      "id": "pt.ine.add.PTCONT.2678280",
      "street": "ESTR AZEITEIRA",
      "house": "54",
      "postcode": "2725-508",
      "city": "MEM MARTINS",
      "lon": "-9.339929769028915",
      "lat": "38.806792792611645"
    },
    {
      "id": "pt.ine.add.PTCONT.2697448",
      "street": "ESTR AZEITEIRA",
      "house": "46",
      "postcode": "2725-508",
      "city": "MEM MARTINS",
      "lon": "-9.34003943803228",
      "lat": "38.80715196439524"
    },
    {
      "id": "pt.ine.add.PTCONT.2714094",
      "street": "BR LOPES",
      "house": "",
      "postcode": "2725-080",
      "city": "MEM MARTINS",
      "lon": "-9.342597414930902",
      "lat": "38.80728764709192"
    },
    {
      "id": "pt.ine.add.PTCONT.2714128",
      "street": "R DR FERNANDES",
      "house": "25",
      "postcode": "2725-514",
      "city": "MEM MARTINS",
      "lon": "-9.342299465659098",
      "lat": "38.81009209921619"
    },
    {
      "id": "pt.ine.add.PTCONT.2730430",
      "street": "ESTR AZEITEIRA",
      "house": "50",
      "postcode": "2725-508",
      "city": "MEM MARTINS",
      "lon": "-9.340001868461032",
      "lat": "38.80697220016337"
    },
    {
      "id": "pt.ine.add.PTCONT.2741641",
      "street": "R DR FERNANDES",
      "house": "15",
      "postcode": "2725-514",
      "city": "MEM MARTINS",
      "lon": "-9.34152085740948",
      "lat": "38.810343361168115"
    },
    {
      "id": "pt.ine.add.PTCONT.2741642",
      "street": "R DR FERNANDES",
      "house": "15",
      "postcode": "2725-514",
      "city": "MEM MARTINS",
      "lon": "-9.341493879768505",
      "lat": "38.8101094423059"
    },
    {
      "id": "pt.ine.add.PTCONT.2757759",
      "street": "R REINALDO DOS SANTOS",
      "house": "32",
      "postcode": "2725-120",
      "city": "MEM MARTINS",
      "lon": "-9.34131746071491",
      "lat": "38.80648119813548"
    },
    {
      "id": "pt.ine.add.PTCONT.2768521",
      "street": "ESTR AZEITEIRA",
      "house": "34",
      "postcode": "2725-508",
      "city": "MEM MARTINS",
      "lon": "-9.340209394775853",
      "lat": "38.80767265024732"
    },
    {
      "id": "pt.ine.add.PTCONT.2779407",
      "street": "R DR FERNANDES",
      "house": "67",
      "postcode": "2725-514",
      "city": "MEM MARTINS",
      "lon": "-9.345331529454363",
      "lat": "38.809664341506156"
    },
    {
      "id": "pt.ine.add.PTCONT.2792059",
      "street": "ESTR AZEITEIRA",
      "house": "24",
      "postcode": "2725-508",
      "city": "MEM MARTINS",
      "lon": "-9.340331488941079",
      "lat": "38.80808573900206"
    },
    {
      "id": "pt.ine.add.PTCONT.2796603",
      "street": "ESTR AZEITEIRA",
      "house": "20",
      "postcode": "2725-508",
      "city": "MEM MARTINS",
      "lon": "-9.340441010075573",
      "lat": "38.80843590422212"
    },
    {
      "id": "pt.ine.add.PTCONT.2800233",
      "street": "R PROF VITOR HUGO MOREIRA FONTES",
      "house": "17 17A",
      "postcode": "2725-114",
      "city": "MEM MARTINS",
      "lon": "-9.340630253079365",
      "lat": "38.80737104963618"
    },
    {
      "id": "pt.ine.add.PTCONT.2800236",
      "street": "ESTR AZEITEIRA",
      "house": "30",
      "postcode": "2725-508",
      "city": "MEM MARTINS",
      "lon": "-9.340235455091388",
      "lat": "38.807852533308946"
    },
    {
      "id": "pt.ine.add.PTCONT.2800237",
      "street": "ESTR AZEITEIRA",
      "house": "36",
      "postcode": "2725-508",
      "city": "MEM MARTINS",
      "lon": "-9.340173192387468",
      "lat": "38.80757394051634"
    },
    {
      "id": "pt.ine.add.PTCONT.2821266",
      "street": "R REINALDO DOS SANTOS",
      "house": "30",
      "postcode": "2725-120",
      "city": "MEM MARTINS",
      "lon": "-9.3411333012743",
      "lat": "38.80648310254107"
    },
    {
      "id": "pt.ine.add.PTCONT.2866430",
      "street": "R PROF VITOR HUGO MOREIRA FONTES",
      "house": "6",
      "postcode": "2725-114",
      "city": "MEM MARTINS",
      "lon": "-9.340343977715316",
      "lat": "38.80677950548332"
    },
    {
      "id": "pt.ine.add.PTCONT.2882031",
      "street": "R REINALDO DOS SANTOS",
      "house": "4",
      "postcode": "2725-080",
      "city": "MEM MARTINS",
      "lon": "-9.342885471791826",
      "lat": "38.80730267974929"
    },
    {
      "id": "pt.ine.add.PTCONT.2912010",
      "street": "R REINALDO DOS SANTOS",
      "house": "5",
      "postcode": "2725-080",
      "city": "MEM MARTINS",
      "lon": "-9.343023592866986",
      "lat": "38.80730124937586"
    },
    {
      "id": "pt.ine.add.PTCONT.2918519",
      "street": "ESTR AZEITEIRA",
      "house": "44",
      "postcode": "2725-508",
      "city": "MEM MARTINS",
      "lon": "-9.340052011925161",
      "lat": "38.807214887817096"
    },
    {
      "id": "pt.ine.add.PTCONT.2930013",
      "street": "R DR FERNANDES",
      "house": "63A",
      "postcode": "2725-514",
      "city": "MEM MARTINS",
      "lon": "-9.345055125786962",
      "lat": "38.80965820166501"
    },
    {
      "id": "pt.ine.add.PTCONT.2930012",
      "street": "R DR FERNANDES",
      "house": "63A",
      "postcode": "2725-514",
      "city": "MEM MARTINS",
      "lon": "-9.345055125786962",
      "lat": "38.80965820166501"
    },
    {
      "id": "pt.ine.add.PTCONT.2930014",
      "street": "R DR FERNANDES",
      "house": "63",
      "postcode": "2725-514",
      "city": "MEM MARTINS",
      "lon": "-9.345055125786962",
      "lat": "38.80965820166501"
    },
    {
      "id": "pt.ine.add.PTCONT.2930015",
      "street": "R DR FERNANDES",
      "house": "63",
      "postcode": "2725-514",
      "city": "MEM MARTINS",
      "lon": "-9.345055125786962",
      "lat": "38.80965820166501"
    },
    {
      "id": "pt.ine.add.PTCONT.2933064",
      "street": "R DR FERNANDES",
      "house": "63",
      "postcode": "2725-514",
      "city": "MEM MARTINS",
      "lon": "-9.345055125786962",
      "lat": "38.80965820166501"
    },
    {
      "id": "pt.ine.add.PTCONT.2935013",
      "street": "R DR FERNANDES",
      "house": "27",
      "postcode": "2725-514",
      "city": "MEM MARTINS",
      "lon": "-9.342482720539802",
      "lat": "38.810036156614494"
    },
    {
      "id": "pt.ine.add.PTCONT.2951016",
      "street": "R DR FERNANDES",
      "house": "17",
      "postcode": "2725-514",
      "city": "MEM MARTINS",
      "lon": "-9.341742145979214",
      "lat": "38.81049420136837"
    },
    {
      "id": "pt.ine.add.PTCONT.2966913",
      "street": "ESTR AZEITEIRA",
      "house": "40",
      "postcode": "2725-508",
      "city": "MEM MARTINS",
      "lon": "-9.3401239601314",
      "lat": "38.80738528922198"
    },
    {
      "id": "pt.ine.add.PTCONT.3039829",
      "street": "R REINALDO DOS SANTOS",
      "house": "22",
      "postcode": "2725-120",
      "city": "MEM MARTINS",
      "lon": "-9.340580518775214",
      "lat": "38.806470801923076"
    },
    {
      "id": "pt.ine.add.PTCONT.3039830",
      "street": "R REINALDO DOS SANTOS",
      "house": "22",
      "postcode": "2725-120",
      "city": "MEM MARTINS",
      "lon": "-9.340580518775214",
      "lat": "38.806470801923076"
    },
    {
      "id": "pt.ine.add.PTCONT.3039831",
      "street": "R REINALDO DOS SANTOS",
      "house": "22",
      "postcode": "2725-120",
      "city": "MEM MARTINS",
      "lon": "-9.340580518775214",
      "lat": "38.806470801923076"
    },
    {
      "id": "pt.ine.add.PTCONT.3039832",
      "street": "R DR FERNANDES",
      "house": "37",
      "postcode": "2725-514",
      "city": "MEM MARTINS",
      "lon": "-9.343029450773484",
      "lat": "38.80832805676154"
    },
    {
      "id": "pt.ine.add.PTCONT.3039859",
      "street": "ESTR SACOTES",
      "house": "16",
      "postcode": "2725-525",
      "city": "MEM MARTINS",
      "lon": "-9.340659189615293",
      "lat": "38.809766776158206"
    },
    {
      "id": "pt.ine.add.PTCONT.3049007",
      "street": "R PROF VITOR HUGO MOREIRA FONTES",
      "house": "4",
      "postcode": "2725-114",
      "city": "MEM MARTINS",
      "lon": "-9.340329579582344",
      "lat": "38.80660850952229"
    },
    {
      "id": "pt.ine.add.PTCONT.3049010",
      "street": "R DR FERNANDES",
      "house": "15",
      "postcode": "2725-514",
      "city": "MEM MARTINS",
      "lon": "-9.341507216391081",
      "lat": "38.81021739570131"
    },
    {
      "id": "pt.ine.add.PTCONT.3058798",
      "street": "R PROF VITOR HUGO MOREIRA FONTES",
      "house": "21",
      "postcode": "2725-114",
      "city": "MEM MARTINS",
      "lon": "-9.340681311315779",
      "lat": "38.80766777323361"
    },
    {
      "id": "pt.ine.add.PTCONT.3077965",
      "street": "R DR FERNANDES",
      "house": "41",
      "postcode": "2725-514",
      "city": "MEM MARTINS",
      "lon": "-9.343295243803748",
      "lat": "38.809748506506985"
    },
    {
      "id": "pt.ine.add.PTCONT.3077966",
      "street": "R DR FERNANDES",
      "house": "41",
      "postcode": "2725-514",
      "city": "MEM MARTINS",
      "lon": "-9.343295243803748",
      "lat": "38.809748506506985"
    },
    {
      "id": "pt.ine.add.PTCONT.3080886",
      "street": "R DR FERNANDES",
      "house": "41",
      "postcode": "2725-514",
      "city": "MEM MARTINS",
      "lon": "-9.343295243803748",
      "lat": "38.809748506506985"
    },
    {
      "id": "pt.ine.add.PTCONT.3104985",
      "street": "ESTR AZEITEIRA",
      "house": "17",
      "postcode": "2725-508",
      "city": "MEM MARTINS",
      "lon": "-9.340356485616532",
      "lat": "38.80820257970241"
    },
    {
      "id": "pt.ine.add.PTCONT.3108352",
      "street": "ESTR AZEITEIRA",
      "house": "18",
      "postcode": "2725-508",
      "city": "MEM MARTINS",
      "lon": "-9.34046539893449",
      "lat": "38.8085167207111"
    },
    {
      "id": "pt.ine.add.PTCONT.3133128",
      "street": "R REINALDO DOS SANTOS",
      "house": "48",
      "postcode": "2725-120",
      "city": "MEM MARTINS",
      "lon": "-9.342398483486058",
      "lat": "38.806415967647204"
    },
    {
      "id": "pt.ine.add.PTCONT.3133129",
      "street": "R REINALDO DOS SANTOS",
      "house": "24",
      "postcode": "2725-120",
      "city": "MEM MARTINS",
      "lon": "-9.340764830281243",
      "lat": "38.806477904435496"
    },
    {
      "id": "pt.ine.add.PTCONT.3161817",
      "street": "ESTR AZEITEIRA",
      "house": "32",
      "postcode": "2725-508",
      "city": "MEM MARTINS",
      "lon": "-9.340233479092287",
      "lat": "38.807735454711256"
    },
    {
      "id": "pt.ine.add.PTCONT.3161818",
      "street": "ESTR AZEITEIRA",
      "house": "48",
      "postcode": "2725-508",
      "city": "MEM MARTINS",
      "lon": "-9.34002610431393",
      "lat": "38.80704401073203"
    },
    {
      "id": "pt.ine.add.PTCONT.3164511",
      "street": "R DR FERNANDES",
      "house": "35",
      "postcode": "2725-514",
      "city": "MEM MARTINS",
      "lon": "-9.34303431178981",
      "lat": "38.80997639950949"
    },
    {
      "id": "pt.ine.add.PTCONT.3171223",
      "street": "R DR FERNANDES",
      "house": "61",
      "postcode": "2725-514",
      "city": "MEM MARTINS",
      "lon": "-9.345023646674067",
      "lat": "38.80983868043275"
    },
    {
      "id": "pt.ine.add.PTCONT.3216590",
      "street": "ESTR AZEITEIRA",
      "house": "42",
      "postcode": "2725-508",
      "city": "MEM MARTINS",
      "lon": "-9.340111234159684",
      "lat": "38.80731335976402"
    },
    {
      "id": "pt.ine.add.PTCONT.3253464",
      "street": "R REINALDO DOS SANTOS",
      "house": "4",
      "postcode": "2725-120",
      "city": "MEM MARTINS",
      "lon": "-9.340315181528888",
      "lat": "38.80643751355349"
    },
    {
      "id": "pt.ine.add.PTCONT.3272028",
      "street": "BR LOPES",
      "house": "",
      "postcode": "2725-080",
      "city": "MEM MARTINS",
      "lon": "-9.342610295687553",
      "lat": "38.807368582277995"
    },
    {
      "id": "pt.ine.add.PTCONT.3328143",
      "street": "R DR FERNANDES",
      "house": "13",
      "postcode": "2725-514",
      "city": "MEM MARTINS",
      "lon": "-9.34159326899259",
      "lat": "38.81054077958385"
    },
    {
      "id": "pt.ine.add.PTCONT.3328144",
      "street": "R DR FERNANDES",
      "house": "13",
      "postcode": "2725-514",
      "city": "MEM MARTINS",
      "lon": "-9.34159326899259",
      "lat": "38.81054077958385"
    },
    {
      "id": "pt.ine.add.PTCONT.3328299",
      "street": "R DR FERNANDES",
      "house": "13",
      "postcode": "2725-514",
      "city": "MEM MARTINS",
      "lon": "-9.34159326899259",
      "lat": "38.81054077958385"
    },
    {
      "id": "pt.ine.add.PTCONT.3328300",
      "street": "R DR FERNANDES",
      "house": "13",
      "postcode": "2725-514",
      "city": "MEM MARTINS",
      "lon": "-9.34159326899259",
      "lat": "38.81054077958385"
    },
    {
      "id": "pt.ine.add.PTCONT.3337183",
      "street": "R REINALDO DOS SANTOS",
      "house": "6",
      "postcode": "2725-080",
      "city": "MEM MARTINS",
      "lon": "-9.343161866298157",
      "lat": "38.80730882487618"
    },
    {
      "id": "pt.ine.add.PTCONT.3411694",
      "street": "R DR FERNANDES",
      "house": "43",
      "postcode": "2725-514",
      "city": "MEM MARTINS",
      "lon": "-9.343424145285084",
      "lat": "38.80988228530823"
    }
  ]
}