{
  "data": {
    "distrito": "Vila Real",
    "concelho": "Chaves",
    "freguesia": "Vidago (União das freguesias de Vidago, Arcossó, Selhariz e Vilarinho das Paranheiras)",
    "OBJECTID": 635,
    "BGRI2021": "17036100207",
    "DT21": "17",
    "DTMN21": "1703",
    "DTMNFR21": "170361",
    "DTMNFRSEC21": "170361002",
    "SECNUM21": "002",
    "SSNUM21": "07",
    "SECSSNUM21": "00207",
    "OBJECTID_1": 180960,
    "DT": "17",
    "CC": "03",
    "fr": "61",
    "SEC": "002",
    "SS": "07"
  },
  "addresses": [
    {
      "id": "pt.ine.add.PTCONT.5291122",
      "street": "R ARMINDO TEIXEIRA",
      "house": "62",
      "postcode": "5425-272",
      "city": "SELHARIZ",
      "lon": "-7.534362087488122",
      "lat": "41.63521305471499"
    },
    {
      "id": "pt.ine.add.PTCONT.5297193",
      "street": "R DO REBOREDO",
      "house": "60",
      "postcode": "5425-272",
      "city": "SELHARIZ",
      "lon": "-7.533532687835841",
      "lat": "41.635352788846824"
    },
    {
      "id": "pt.ine.add.PTCONT.5297912",
      "street": "R COR FERREIRA",
      "house": "67",
      "postcode": "5425-272",
      "city": "SELHARIZ",
      "lon": "-7.534729869630053",
      "lat": "41.635674152396156"
    },
    {
      "id": "pt.ine.add.PTCONT.5315031",
      "street": "R ARMINDO TEIXEIRA",
      "house": "63",
      "postcode": "5425-272",
      "city": "SELHARIZ",
      "lon": "-7.534433176656339",
      "lat": "41.63531246436191"
    },
    {
      "id": "pt.ine.add.PTCONT.5316065",
      "street": "QTA DO REBOREDO",
      "house": "",
      "postcode": "5425-272",
      "city": "SELHARIZ",
      "lon": "-7.529913936334395",
      "lat": "41.6360271320553"
    },
    {
      "id": "pt.ine.add.PTCONT.5332764",
      "street": "R SENHORA TORRES DA VEIGA",
      "house": "23",
      "postcode": "5425-272",
      "city": "SELHARIZ",
      "lon": "-7.534744785177839",
      "lat": "41.63535910474602"
    },
    {
      "id": "pt.ine.add.PTCONT.5342285",
      "street": "R ENG VEIGA SARMENTO",
      "house": "73",
      "postcode": "5425-272",
      "city": "SELHARIZ",
      "lon": "-7.535077233535746",
      "lat": "41.63574798873952"
    },
    {
      "id": "pt.ine.add.PTCONT.5346795",
      "street": "LG DA CAPELA",
      "house": "107",
      "postcode": "5425-272",
      "city": "SELHARIZ",
      "lon": "-7.528282884189132",
      "lat": "41.63590151504126"
    },
    {
      "id": "pt.ine.add.PTCONT.5365425",
      "street": "R TORRES DA VEIGA",
      "house": "19",
      "postcode": "5425-272",
      "city": "SELHARIZ",
      "lon": "-7.535330253646149",
      "lat": "41.63564126185827"
    },
    {
      "id": "pt.ine.add.PTCONT.5366940",
      "street": "R ENG VEIGA SARMENTO",
      "house": "69",
      "postcode": "5425-272",
      "city": "SELHARIZ",
      "lon": "-7.535017977453837",
      "lat": "41.63566664822468"
    },
    {
      "id": "pt.ine.add.PTCONT.5369188",
      "street": "LG DO PRADO",
      "house": "65 B",
      "postcode": "5425-272",
      "city": "SELHARIZ",
      "lon": "-7.533730448207966",
      "lat": "41.63602908864354"
    },
    {
      "id": "pt.ine.add.PTCONT.5374521",
      "street": "R COR FERREIRA",
      "house": "65",
      "postcode": "5425-272",
      "city": "SELHARIZ",
      "lon": "-7.5343215848385645",
      "lat": "41.63569903704897"
    },
    {
      "id": "pt.ine.add.PTCONT.5377622",
      "street": "R ARMINDO TEIXEIRA",
      "house": "64",
      "postcode": "5425-272",
      "city": "SELHARIZ",
      "lon": "-7.534598108245436",
      "lat": "41.63564645568712"
    },
    {
      "id": "pt.ine.add.PTCONT.5378324",
      "street": "R ARMINDO TEIXEIRA",
      "house": "63 B",
      "postcode": "5425-272",
      "city": "SELHARIZ",
      "lon": "-7.534694532792273",
      "lat": "41.635601939805"
    },
    {
      "id": "pt.ine.add.PTCONT.5401409",
      "street": "R DO REBOREDO",
      "house": "61",
      "postcode": "5425-272",
      "city": "SELHARIZ",
      "lon": "-7.533785625496444",
      "lat": "41.63525506850991"
    },
    {
      "id": "pt.ine.add.PTCONT.5406292",
      "street": "R COR FERREIRA",
      "house": "65 A",
      "postcode": "5425-272",
      "city": "SELHARIZ",
      "lon": "-7.5344281777079765",
      "lat": "41.63585265310508"
    },
    {
      "id": "pt.ine.add.PTCONT.5407703",
      "street": "R ENG VEIGA SARMENTO",
      "house": "68",
      "postcode": "5425-272",
      "city": "SELHARIZ",
      "lon": "-7.534837712329645",
      "lat": "41.63569272088884"
    },
    {
      "id": "pt.ine.add.PTCONT.5419453",
      "street": "R SENHORA TORRES DA VEIGA",
      "house": "28",
      "postcode": "5425-272",
      "city": "SELHARIZ",
      "lon": "-7.534589522263794",
      "lat": "41.63527726420754"
    },
    {
      "id": "pt.ine.add.PTCONT.5424876",
      "street": "R ARMINDO TEIXEIRA",
      "house": "66 A",
      "postcode": "5425-272",
      "city": "SELHARIZ",
      "lon": "-7.534645446031135",
      "lat": "41.63571873078864"
    }
  ]
}