{
  "data": {
    "ilha": "Ilha de São Miguel (Açores)",
    "concelho": "Lagoa (Açores)",
    "freguesia": "Lagoa (Santa Cruz)",
    "OBJECTID": 141,
    "BGRI2021": "42010400211",
    "DT21": "42",
    "DTMN21": "4201",
    "DTMNFR21": "420104",
    "DTMNFRSEC21": "420104002",
    "SECNUM21": "002",
    "SSNUM21": "11",
    "SECSSNUM21": "00211",
    "OBJECTID_1": 206105,
    "DT": "42",
    "CC": "01",
    "fr": "04",
    "SEC": "002",
    "SS": "11",
    "BGRI2021_1": "42010400211"
  },
  "addresses": [
    {
      "id": "pt.ine.add.AC26.19000",
      "street": "R ESTRELA D ALVA",
      "house": "6",
      "postcode": "9560-096",
      "city": "LAGOA (SÃO MIGUEL)",
      "lon": "-25.570133563137308",
      "lat": "37.747485612832364"
    },
    {
      "id": "pt.ine.add.AC26.19001",
      "street": "R ESTRELA D ALVA",
      "house": "10",
      "postcode": "9560-096",
      "city": "LAGOA (SÃO MIGUEL)",
      "lon": "-25.56998812646471",
      "lat": "37.7473756971324"
    },
    {
      "id": "pt.ine.add.AC26.19002",
      "street": "R ESTRELA D ALVA",
      "house": "12",
      "postcode": "9560-096",
      "city": "LAGOA (SÃO MIGUEL)",
      "lon": "-25.569909561121918",
      "lat": "37.747329680836955"
    },
    {
      "id": "pt.ine.add.AC26.19003",
      "street": "R ESTRELA D ALVA",
      "house": "24",
      "postcode": "9560-096",
      "city": "LAGOA (SÃO MIGUEL)",
      "lon": "-25.569325217173613",
      "lat": "37.747025173005774"
    },
    {
      "id": "pt.ine.add.AC26.19822",
      "street": "AV CONS POCAS FALCÃO",
      "house": "20",
      "postcode": "9560-018",
      "city": "LAGOA (SÃO MIGUEL)",
      "lon": "-25.570381648126652",
      "lat": "37.747569735949845"
    },
    {
      "id": "pt.ine.add.AC26.19823",
      "street": "AV CONS POCAS FALCÃO",
      "house": "12",
      "postcode": "9560-016",
      "city": "LAGOA (SÃO MIGUEL)",
      "lon": "-25.571012520619757",
      "lat": "37.74722589715695"
    },
    {
      "id": "pt.ine.add.AC26.19824",
      "street": "AV CONS POCAS FALCAO",
      "house": "23",
      "postcode": "9560-017",
      "city": "LAGOA (SÃO MIGUEL)",
      "lon": "-25.571324619862324",
      "lat": "37.74693226618743"
    },
    {
      "id": "pt.ine.add.AC26.19825",
      "street": "R ESTRELA D ALVA",
      "house": "32",
      "postcode": "9560-096",
      "city": "LAGOA (SÃO MIGUEL)",
      "lon": "-25.56939139346363",
      "lat": "37.74712511475156"
    },
    {
      "id": "pt.ine.add.AC26.46587",
      "street": "R ESTRELA D ALVA",
      "house": "16",
      "postcode": "9560-096",
      "city": "LAGOA (SÃO MIGUEL)",
      "lon": "-25.56960508704465",
      "lat": "37.747226847133916"
    },
    {
      "id": "pt.ine.add.AC26.49441",
      "street": "R ESTRELA D ALVA",
      "house": "30",
      "postcode": "9560-096",
      "city": "LAGOA (SÃO MIGUEL)",
      "lon": "-25.56913543401931",
      "lat": "37.74686064240161"
    },
    {
      "id": "pt.ine.add.AC26.54106",
      "street": "R ESTRELA D ALVA",
      "house": "28",
      "postcode": "9560-096",
      "city": "LAGOA (SÃO MIGUEL)",
      "lon": "-25.569202303943484",
      "lat": "37.74692454236481"
    },
    {
      "id": "pt.ine.add.AC26.54107",
      "street": "R ESTRELA D ALVA",
      "house": "34",
      "postcode": "9560-096",
      "city": "LAGOA (SÃO MIGUEL)",
      "lon": "-25.569068217162794",
      "lat": "37.74681476334334"
    },
    {
      "id": "pt.ine.add.AC26.62440",
      "street": "R DR JOSE PACHECO VIEIRA",
      "house": "1A",
      "postcode": "9560-096",
      "city": "LAGOA (SÃO MIGUEL)",
      "lon": "-25.569121067987336",
      "lat": "37.746427864227186"
    },
    {
      "id": "pt.ine.add.AC26.71801",
      "street": "R DR JOSE PACHECO VIEIRA",
      "house": "1C",
      "postcode": "9560-096",
      "city": "LAGOA (SÃO MIGUEL)",
      "lon": "-25.569048992861628",
      "lat": "37.74663427835353"
    },
    {
      "id": "pt.ine.add.AC26.75640",
      "street": "R DR JOSE PACHECO VIEIRA",
      "house": "1B",
      "postcode": "9560-096",
      "city": "LAGOA (SÃO MIGUEL)",
      "lon": "-25.569096291079706",
      "lat": "37.746535714317595"
    },
    {
      "id": "pt.ine.add.AC26.76989",
      "street": "AV CONS POCAS FALCÃO",
      "house": "29",
      "postcode": "9560-017",
      "city": "LAGOA (SÃO MIGUEL)",
      "lon": "-25.570805492980693",
      "lat": "37.74736758778234"
    },
    {
      "id": "pt.ine.add.AC26.76990",
      "street": "AV INF D HENRIQUE",
      "house": "39",
      "postcode": "9560-022",
      "city": "LAGOA (SÃO MIGUEL)",
      "lon": "-25.571187757584486",
      "lat": "37.746966657178525"
    },
    {
      "id": "pt.ine.add.AC26.83544",
      "street": "R ESTRELA D ALVA",
      "house": "14",
      "postcode": "9560-096",
      "city": "LAGOA (SÃO MIGUEL)",
      "lon": "-25.569808127479124",
      "lat": "37.74729239953074"
    },
    {
      "id": "pt.ine.add.AC26.86014",
      "street": "R ESTRELA D ALVA",
      "house": "18",
      "postcode": "9560-096",
      "city": "LAGOA (SÃO MIGUEL)",
      "lon": "-25.5700079711581",
      "lat": "37.746934321618234"
    },
    {
      "id": "pt.ine.add.AC26.87408",
      "street": "R ESTRELA D ALVA",
      "house": "26",
      "postcode": "9560-096",
      "city": "LAGOA (SÃO MIGUEL)",
      "lon": "-25.5692695209824",
      "lat": "37.74697042134947"
    },
    {
      "id": "pt.ine.add.AC26.89186",
      "street": "R ESTRELA D ALVA",
      "house": "22",
      "postcode": "9560-096",
      "city": "LAGOA (SÃO MIGUEL)",
      "lon": "-25.569369739487666",
      "lat": "37.74707077640702"
    },
    {
      "id": "pt.ine.add.AC26.104670",
      "street": "AV CONS POCAS FALCÃO",
      "house": "18",
      "postcode": "9560-018",
      "city": "LAGOA (SÃO MIGUEL)",
      "lon": "-25.570493483722352",
      "lat": "37.74706638825104"
    }
  ]
}