{
  "data": {
    "distrito": "Viseu",
    "concelho": "SÃ£o Pedro do Sul",
    "freguesia": "Serrazes",
    "OBJECTID": 408,
    "BGRI2021": "18161500133",
    "DT21": "18",
    "DTMN21": "1816",
    "DTMNFR21": "181615",
    "DTMNFRSEC21": "181615001",
    "SECNUM21": "001",
    "SSNUM21": "33",
    "SECSSNUM21": "00133",
    "OBJECTID_1": 196492,
    "DT": "18",
    "CC": "16",
    "fr": "15",
    "SEC": "001",
    "SS": "33"
  },
  "addresses": [
    {
      "id": "pt.ine.add.PTCONT.5450022",
      "street": "R FERRARIA",
      "house": "27",
      "postcode": "3660-604",
      "city": "SERRAZES",
      "lon": "-8.126346640914909",
      "lat": "40.75471716758765"
    },
    {
      "id": "pt.ine.add.PTCONT.5467901",
      "street": "TV VALADO",
      "house": "29",
      "postcode": "3660-604",
      "city": "SERRAZES",
      "lon": "-8.12633457149367",
      "lat": "40.75695941643367"
    },
    {
      "id": "pt.ine.add.PTCONT.5491474",
      "street": "R CURRO",
      "house": "",
      "postcode": "3660-604",
      "city": "SERRAZES",
      "lon": "-8.128040010112219",
      "lat": "40.75490635979053"
    },
    {
      "id": "pt.ine.add.PTCONT.5545103",
      "street": "R OUTEIRO",
      "house": "47",
      "postcode": "3660-604",
      "city": "SERRAZES",
      "lon": "-8.126915181405469",
      "lat": "40.753294406152826"
    },
    {
      "id": "pt.ine.add.PTCONT.5553573",
      "street": "R CURRO",
      "house": "1",
      "postcode": "3660-604",
      "city": "SERRAZES",
      "lon": "-8.129922811766118",
      "lat": "40.75609508959912"
    },
    {
      "id": "pt.ine.add.PTCONT.5557001",
      "street": "TV VALADO",
      "house": "9",
      "postcode": "3660-604",
      "city": "SERRAZES",
      "lon": "-8.1258607957978",
      "lat": "40.757751829054996"
    },
    {
      "id": "pt.ine.add.PTCONT.5591113",
      "street": "R 15 DE AGOSTO",
      "house": "282",
      "postcode": "3660-604",
      "city": "SERRAZES",
      "lon": "-8.126985850131994",
      "lat": "40.75744572369268"
    },
    {
      "id": "pt.ine.add.PTCONT.5612520",
      "street": "R 15 DE AGOSTO",
      "house": "312",
      "postcode": "3660-604",
      "city": "SERRAZES",
      "lon": "-8.125505490497389",
      "lat": "40.75804897169309"
    },
    {
      "id": "pt.ine.add.PTCONT.5620014",
      "street": "R OUTEIRO",
      "house": "19",
      "postcode": "3660-604",
      "city": "SERRAZES",
      "lon": "-8.127696708133891",
      "lat": "40.753519570995515"
    },
    {
      "id": "pt.ine.add.PTCONT.5629436",
      "street": "R CURRO",
      "house": "53",
      "postcode": "3660-604",
      "city": "SERRAZES",
      "lon": "-8.12801633803861",
      "lat": "40.75475327341077"
    },
    {
      "id": "pt.ine.add.PTCONT.5634145",
      "street": "R 15 DE AGOSTO",
      "house": "256",
      "postcode": "3660-604",
      "city": "SERRAZES",
      "lon": "-8.128726701797884",
      "lat": "40.75699555210621"
    },
    {
      "id": "pt.ine.add.PTCONT.5639021",
      "street": "R 15 DE AGOSTO",
      "house": "304",
      "postcode": "3660-604",
      "city": "SERRAZES",
      "lon": "-8.126002859311768",
      "lat": "40.7581750735918"
    },
    {
      "id": "pt.ine.add.PTCONT.5644578",
      "street": "R 15 DE AGOSTO",
      "house": "296",
      "postcode": "3660-604",
      "city": "SERRAZES",
      "lon": "-8.126298941861203",
      "lat": "40.757967976100296"
    }
  ]
}