{
  "data": {
    "distrito": "Santar√©m",
    "concelho": "Tomar",
    "freguesia": "Olalhas",
    "OBJECTID": 1242,
    "BGRI2021": "14180800226",
    "DT21": "14",
    "DTMN21": "1418",
    "DTMNFR21": "141808",
    "DTMNFRSEC21": "141808002",
    "SECNUM21": "002",
    "SSNUM21": "26",
    "SECSSNUM21": "00226",
    "OBJECTID_1": 156640,
    "DT": "14",
    "CC": "18",
    "fr": "08",
    "SEC": "002",
    "SS": "26"
  },
  "addresses": [
    {
      "id": "pt.ine.add.PTCONT.4407007",
      "street": "R SERRADA",
      "house": "4",
      "postcode": "2300-107",
      "city": "OLALHAS",
      "lon": "-8.299206612802152",
      "lat": "39.63990349973023"
    },
    {
      "id": "pt.ine.add.PTCONT.4471357",
      "street": "R ALTINHO DAS VENDAS",
      "house": "2",
      "postcode": "2300-106",
      "city": "OLALHAS",
      "lon": "-8.306062294760984",
      "lat": "39.63755173863615"
    },
    {
      "id": "pt.ine.add.PTCONT.4473050",
      "street": "R HATAGOSA",
      "house": "8",
      "postcode": "2300-107",
      "city": "OLALHAS",
      "lon": "-8.298788200265227",
      "lat": "39.640309401109356"
    },
    {
      "id": "pt.ine.add.PTCONT.4485627",
      "street": "ESTR PRINCIPAL",
      "house": "1",
      "postcode": "2300-106",
      "city": "OLALHAS",
      "lon": "-8.306505093017416",
      "lat": "39.63760511905418"
    },
    {
      "id": "pt.ine.add.PTCONT.4485628",
      "street": "R ALTINHO DAS VENDAS",
      "house": "1",
      "postcode": "2300-106",
      "city": "OLALHAS",
      "lon": "-8.306505093017416",
      "lat": "39.63760511905418"
    },
    {
      "id": "pt.ine.add.PTCONT.4512583",
      "street": "R HATAGOSA",
      "house": "9",
      "postcode": "2300-107",
      "city": "OLALHAS",
      "lon": "-8.298905770592826",
      "lat": "39.64075957094244"
    },
    {
      "id": "pt.ine.add.PTCONT.4553529",
      "street": "R ALTINHO DAS VENDAS",
      "house": "4",
      "postcode": "2300-106",
      "city": "OLALHAS",
      "lon": "-8.305654802326966",
      "lat": "39.63764241218271"
    },
    {
      "id": "pt.ine.add.PTCONT.4616039",
      "street": "R HATAGOSA",
      "house": "",
      "postcode": "2300-107",
      "city": "OLALHAS",
      "lon": "-8.299278664837521",
      "lat": "39.640804071868914"
    },
    {
      "id": "pt.ine.add.PTCONT.4647687",
      "street": "R SERRADA",
      "house": "3",
      "postcode": "2300-106",
      "city": "OLALHAS",
      "lon": "-8.300265952341546",
      "lat": "39.63958674382655"
    }
  ]
}