{
  "data": {
    "distrito": "Faro",
    "concelho": "Loulé",
    "freguesia": "Loulé (São Sebastião)",
    "OBJECTID": 1771,
    "BGRI2021": "08080900803",
    "DT21": "08",
    "DTMN21": "0808",
    "DTMNFR21": "080809",
    "DTMNFRSEC21": "080809008",
    "SECNUM21": "008",
    "SSNUM21": "03",
    "SECSSNUM21": "00803",
    "OBJECTID_1": 69713,
    "DT": "08",
    "CC": "08",
    "fr": "09",
    "SEC": "008",
    "SS": "03"
  },
  "addresses": [
    {
      "id": "pt.ine.add.PTCONT.1488248",
      "street": "R BARROCALINHO",
      "house": "",
      "postcode": "8100-337",
      "city": "LOULÉ",
      "lon": "-8.093212444511762",
      "lat": "37.15453863218239"
    },
    {
      "id": "pt.ine.add.PTCONT.1497943",
      "street": "R BARROCALINHO",
      "house": "",
      "postcode": "8100-337",
      "city": "LOULÉ",
      "lon": "-8.093381271049584",
      "lat": "37.154601763008245"
    },
    {
      "id": "pt.ine.add.PTCONT.1498714",
      "street": "R BARROCALINHO",
      "house": "306Z",
      "postcode": "8100-337",
      "city": "LOULÉ",
      "lon": "-8.093538798286932",
      "lat": "37.15474598511135"
    },
    {
      "id": "pt.ine.add.PTCONT.1501772",
      "street": "",
      "house": "",
      "postcode": "8100-329",
      "city": "LOULÉ",
      "lon": "-8.087955906016585",
      "lat": "37.15349151788167"
    },
    {
      "id": "pt.ine.add.PTCONT.1505833",
      "street": "ESTR PARRAGIL",
      "house": "",
      "postcode": "8100-329",
      "city": "LOULÉ",
      "lon": "-8.089643730157924",
      "lat": "37.154798684204714"
    },
    {
      "id": "pt.ine.add.PTCONT.1514091",
      "street": "",
      "house": "",
      "postcode": "8100-337",
      "city": "LOULÉ",
      "lon": "-8.094292500695795",
      "lat": "37.155800473024115"
    },
    {
      "id": "pt.ine.add.PTCONT.1531725",
      "street": "EM 524 1",
      "house": "",
      "postcode": "8100-337",
      "city": "LOULÉ",
      "lon": "-8.095835997558554",
      "lat": "37.153314046168695"
    },
    {
      "id": "pt.ine.add.PTCONT.1534749",
      "street": "EM 524 1",
      "house": "",
      "postcode": "8100-337",
      "city": "LOULÉ",
      "lon": "-8.094417866569898",
      "lat": "37.15279097747286"
    },
    {
      "id": "pt.ine.add.PTCONT.1548816",
      "street": "R BARROCALINHO",
      "house": "",
      "postcode": "8100-337",
      "city": "LOULÉ",
      "lon": "-8.095924704345828",
      "lat": "37.15607131392659"
    },
    {
      "id": "pt.ine.add.PTCONT.1548817",
      "street": "",
      "house": "",
      "postcode": "8100-337",
      "city": "LOULÉ",
      "lon": "-8.096757563140008",
      "lat": "37.156486059232776"
    },
    {
      "id": "pt.ine.add.PTCONT.1562526",
      "street": "R BARROCALINHO",
      "house": "",
      "postcode": "8100-337",
      "city": "LOULÉ",
      "lon": "-8.093719154001262",
      "lat": "37.15428650519566"
    },
    {
      "id": "pt.ine.add.PTCONT.1569866",
      "street": "EM 524 1",
      "house": "",
      "postcode": "8100-337",
      "city": "LOULÉ",
      "lon": "-8.095700952052164",
      "lat": "37.15323290831245"
    },
    {
      "id": "pt.ine.add.PTCONT.1572595",
      "street": "ESTR PARRAGIL",
      "house": "",
      "postcode": "8100-329",
      "city": "LOULÉ",
      "lon": "-8.090746758517136",
      "lat": "37.15514148590316"
    },
    {
      "id": "pt.ine.add.PTCONT.1572596",
      "street": "",
      "house": "",
      "postcode": "8100-329",
      "city": "LOULÉ",
      "lon": "-8.088664963859282",
      "lat": "37.15373507179896"
    },
    {
      "id": "pt.ine.add.PTCONT.1584257",
      "street": "ESTR PARRAGIL",
      "house": "",
      "postcode": "8100-291",
      "city": "LOULÉ",
      "lon": "-8.095755353785643",
      "lat": "37.157062425027185"
    },
    {
      "id": "pt.ine.add.PTCONT.1586681",
      "street": "R BARROCALINHO",
      "house": "",
      "postcode": "8100-337",
      "city": "LOULÉ",
      "lon": "-8.095429422210069",
      "lat": "37.15597204105838"
    },
    {
      "id": "pt.ine.add.PTCONT.1595595",
      "street": "ESTR PARRAGIL",
      "house": "",
      "postcode": "8100-291",
      "city": "LOULÉ",
      "lon": "-8.089655039063006",
      "lat": "37.15470858247539"
    },
    {
      "id": "pt.ine.add.PTCONT.1642328",
      "street": "R BARROCALINHO",
      "house": "",
      "postcode": "8100-337",
      "city": "LOULÉ",
      "lon": "-8.093707639584032",
      "lat": "37.154782083712185"
    },
    {
      "id": "pt.ine.add.PTCONT.1648149",
      "street": "EN 270",
      "house": "",
      "postcode": "8100-336",
      "city": "LOULÉ",
      "lon": "-8.086348381178272",
      "lat": "37.149841604726205"
    },
    {
      "id": "pt.ine.add.PTCONT.1651003",
      "street": "ESTR PARRAGIL",
      "house": "",
      "postcode": "8100-291",
      "city": "LOULÉ",
      "lon": "-8.094629686557841",
      "lat": "37.15686383204795"
    },
    {
      "id": "pt.ine.add.PTCONT.1659764",
      "street": "ZIMBRAL",
      "house": "",
      "postcode": "8100-337",
      "city": "LOULÉ",
      "lon": "-8.09685901912394",
      "lat": "37.15619775157424"
    },
    {
      "id": "pt.ine.add.PTCONT.1674103",
      "street": "",
      "house": "",
      "postcode": "8100-337",
      "city": "LOULÉ",
      "lon": "-8.096915156538092",
      "lat": "37.15651313921933"
    },
    {
      "id": "pt.ine.add.PTCONT.1674104",
      "street": "EN 270",
      "house": "",
      "postcode": "8100-336",
      "city": "LOULÉ",
      "lon": "-8.085357890576981",
      "lat": "37.14969704030313"
    },
    {
      "id": "pt.ine.add.PTCONT.1677539",
      "street": "EM 524 1",
      "house": "",
      "postcode": "8100-337",
      "city": "LOULÉ",
      "lon": "-8.096252362353372",
      "lat": "37.15362053642717"
    },
    {
      "id": "pt.ine.add.PTCONT.1677540",
      "street": "EM 524",
      "house": "",
      "postcode": "8100-336",
      "city": "LOULÉ",
      "lon": "-8.09017510750528",
      "lat": "37.15076213328192"
    },
    {
      "id": "pt.ine.add.PTCONT.1681689",
      "street": "EN 270",
      "house": "",
      "postcode": "8100-336",
      "city": "LOULÉ",
      "lon": "-8.089409991232626",
      "lat": "37.15016715444965"
    },
    {
      "id": "pt.ine.add.PTCONT.1691820",
      "street": "EN 270",
      "house": "",
      "postcode": "8100-336",
      "city": "LOULÉ",
      "lon": "-8.085706884037375",
      "lat": "37.1496341062222"
    },
    {
      "id": "pt.ine.add.PTCONT.1704996",
      "street": "ESTR PARRAGIL",
      "house": "",
      "postcode": "8100-329",
      "city": "LOULÉ",
      "lon": "-8.090645441993617",
      "lat": "37.15514144964687"
    },
    {
      "id": "pt.ine.add.PTCONT.1716731",
      "street": "EM 524 1",
      "house": "",
      "postcode": "8100-337",
      "city": "LOULÉ",
      "lon": "-8.094654433310582",
      "lat": "37.15245766259482"
    },
    {
      "id": "pt.ine.add.PTCONT.1722417",
      "street": "ESTR PARRAGIL",
      "house": "",
      "postcode": "8100-329",
      "city": "LOULÉ",
      "lon": "-8.09131008442254",
      "lat": "37.1543127118421"
    },
    {
      "id": "pt.ine.add.PTCONT.1745732",
      "street": "EM 524 1",
      "house": "",
      "postcode": "8100-337",
      "city": "LOULÉ",
      "lon": "-8.096477357901216",
      "lat": "37.15392696621606"
    },
    {
      "id": "pt.ine.add.PTCONT.1748014",
      "street": "ESTR PARRAGIL",
      "house": "",
      "postcode": "8100-291",
      "city": "LOULÉ",
      "lon": "-8.094247129468577",
      "lat": "37.156467241493836"
    },
    {
      "id": "pt.ine.add.PTCONT.1756120",
      "street": "ESTR PARRAGIL",
      "house": "",
      "postcode": "8100-303",
      "city": "LOULÉ",
      "lon": "-8.093965527171541",
      "lat": "37.15678251929471"
    },
    {
      "id": "pt.ine.add.PTCONT.1790889",
      "street": "ESTR PARRAGIL",
      "house": "",
      "postcode": "8100-291",
      "city": "LOULÉ",
      "lon": "-8.095113950267047",
      "lat": "37.15649455430482"
    },
    {
      "id": "pt.ine.add.PTCONT.1794100",
      "street": "ESTR PARRAGIL",
      "house": "",
      "postcode": "8100-291",
      "city": "LOULÉ",
      "lon": "-8.094967547245862",
      "lat": "37.15660263430089"
    },
    {
      "id": "pt.ine.add.PTCONT.1794101",
      "street": "ESTR PARRAGIL",
      "house": "",
      "postcode": "8100-303",
      "city": "LOULÉ",
      "lon": "-8.093064897347931",
      "lat": "37.15681826075897"
    },
    {
      "id": "pt.ine.add.PTCONT.1794102",
      "street": "ESTR PARRAGIL",
      "house": "",
      "postcode": "8100-303",
      "city": "LOULÉ",
      "lon": "-8.093064897347931",
      "lat": "37.15681826075897"
    },
    {
      "id": "pt.ine.add.PTCONT.1808627",
      "street": "ESTR PARRAGIL",
      "house": "",
      "postcode": "8100-291",
      "city": "LOULÉ",
      "lon": "-8.095361406766227",
      "lat": "37.156918130862095"
    },
    {
      "id": "pt.ine.add.PTCONT.1821069",
      "street": "R BARROCALINHO",
      "house": "",
      "postcode": "8100-337",
      "city": "LOULÉ",
      "lon": "-8.093876620706522",
      "lat": "37.15454786448318"
    },
    {
      "id": "pt.ine.add.PTCONT.1822920",
      "street": "EN 270",
      "house": "",
      "postcode": "8100-336",
      "city": "LOULÉ",
      "lon": "-8.085819444170246",
      "lat": "37.14964316177979"
    },
    {
      "id": "pt.ine.add.PTCONT.1834415",
      "street": "ESTR PARRAGIL",
      "house": "",
      "postcode": "8100-291",
      "city": "LOULÉ",
      "lon": "-8.094438476350678",
      "lat": "37.15653037817656"
    },
    {
      "id": "pt.ine.add.PTCONT.1834417",
      "street": "EN 270",
      "house": "",
      "postcode": "8100-336",
      "city": "LOULÉ",
      "lon": "-8.08686609175012",
      "lat": "37.14999498795318"
    },
    {
      "id": "pt.ine.add.PTCONT.1837279",
      "street": "ESTR PARRAGIL",
      "house": "",
      "postcode": "8100-291",
      "city": "LOULÉ",
      "lon": "-8.096633391996052",
      "lat": "37.157188846685024"
    },
    {
      "id": "pt.ine.add.PTCONT.1837280",
      "street": "ESTR PARRAGIL",
      "house": "",
      "postcode": "8100-303",
      "city": "LOULÉ",
      "lon": "-8.09345893358649",
      "lat": "37.15678235089874"
    }
  ]
}