{
  "data": {
    "distrito": "Faro",
    "concelho": "Loulé",
    "freguesia": "Loulé (São Sebastião)",
    "OBJECTID": 10,
    "BGRI2021": "08080900818",
    "DT21": "08",
    "DTMN21": "0808",
    "DTMNFR21": "080809",
    "DTMNFRSEC21": "080809008",
    "SECNUM21": "008",
    "SSNUM21": "18",
    "SECSSNUM21": "00818",
    "OBJECTID_1": 69716,
    "DT": "08",
    "CC": "08",
    "fr": "09",
    "SEC": "008",
    "SS": "18"
  },
  "addresses": [
    {
      "id": "pt.ine.add.PTCONT.1476644",
      "street": "VALE DA BOA HORA",
      "house": "",
      "postcode": "8100-330",
      "city": "LOULÉ",
      "lon": "-8.096293209908332",
      "lat": "37.162243677019404"
    },
    {
      "id": "pt.ine.add.PTCONT.1488210",
      "street": "VALE DA BOA HORA",
      "house": "",
      "postcode": "8100-330",
      "city": "LOULÉ",
      "lon": "-8.095763792576717",
      "lat": "37.16279315650822"
    },
    {
      "id": "pt.ine.add.PTCONT.1508640",
      "street": "PARRAGIL CASA CLCLD",
      "house": "",
      "postcode": "8100-314",
      "city": "LOULÉ",
      "lon": "-8.08917910337632",
      "lat": "37.160114757151135"
    },
    {
      "id": "pt.ine.add.PTCONT.1523836",
      "street": "VALE DA BOA HORA",
      "house": "",
      "postcode": "8100-330",
      "city": "LOULÉ",
      "lon": "-8.096451041350724",
      "lat": "37.16180220768427"
    },
    {
      "id": "pt.ine.add.PTCONT.1523837",
      "street": "VALE DA BOA HORA",
      "house": "",
      "postcode": "8100-330",
      "city": "LOULÉ",
      "lon": "-8.097059331901754",
      "lat": "37.16109055864352"
    },
    {
      "id": "pt.ine.add.PTCONT.1571392",
      "street": "PARRAGIL CASA NATASHA",
      "house": "",
      "postcode": "8100-314",
      "city": "LOULÉ",
      "lon": "-8.095641340764098",
      "lat": "37.15997280704231"
    },
    {
      "id": "pt.ine.add.PTCONT.1584236",
      "street": "VALE DA BOA HORA",
      "house": "",
      "postcode": "8100-330",
      "city": "LOULÉ",
      "lon": "-8.095808875386382",
      "lat": "37.1626940543742"
    },
    {
      "id": "pt.ine.add.PTCONT.1602128",
      "street": "VALE DA BOA HORA",
      "house": "",
      "postcode": "8100-330",
      "city": "LOULÉ",
      "lon": "-8.095819722259552",
      "lat": "37.16353204126772"
    },
    {
      "id": "pt.ine.add.PTCONT.1607367",
      "street": "VALE DA BOA HORA",
      "house": "",
      "postcode": "8100-330",
      "city": "LOULÉ",
      "lon": "-8.096067566152444",
      "lat": "37.16321674887864"
    },
    {
      "id": "pt.ine.add.PTCONT.1619096",
      "street": "VALE DA BOA HORA CASA PEREIRA",
      "house": "",
      "postcode": "8100-330",
      "city": "LOULÉ",
      "lon": "-8.096214173066198",
      "lat": "37.162712202394225"
    },
    {
      "id": "pt.ine.add.PTCONT.1652506",
      "street": "SIT PARRAGIL",
      "house": "",
      "postcode": "8100-314",
      "city": "LOULÉ",
      "lon": "-8.09179123448995",
      "lat": "37.159665167608246"
    },
    {
      "id": "pt.ine.add.PTCONT.1671240",
      "street": "PARRAGIL CASA LICINIO 01",
      "house": "",
      "postcode": "8100-314",
      "city": "LOULÉ",
      "lon": "-8.088908950256213",
      "lat": "37.16004257207008"
    },
    {
      "id": "pt.ine.add.PTCONT.1674088",
      "street": "VALE DA BOA HORA CASA COELHO",
      "house": "",
      "postcode": "8100-330",
      "city": "LOULÉ",
      "lon": "-8.096090131667648",
      "lat": "37.16311763960466"
    },
    {
      "id": "pt.ine.add.PTCONT.1688026",
      "street": "VALE DA BOA HORA",
      "house": "",
      "postcode": "8100-330",
      "city": "LOULÉ",
      "lon": "-8.096406887794215",
      "lat": "37.15998205717053"
    },
    {
      "id": "pt.ine.add.PTCONT.1722203",
      "street": "PARRAGIL",
      "house": "",
      "postcode": "8100-314",
      "city": "LOULÉ",
      "lon": "-8.093964008053565",
      "lat": "37.159728979239425"
    },
    {
      "id": "pt.ine.add.PTCONT.1725133",
      "street": "PARRAGIL",
      "house": "",
      "postcode": "8100-314",
      "city": "LOULÉ",
      "lon": "-8.093828929835576",
      "lat": "37.15969289222625"
    },
    {
      "id": "pt.ine.add.PTCONT.1760973",
      "street": "PARRAGIL",
      "house": "",
      "postcode": "8100-314",
      "city": "LOULÉ",
      "lon": "-8.094120436420273",
      "lat": "37.1620357388755"
    },
    {
      "id": "pt.ine.add.PTCONT.1767592",
      "street": "PARRAGIL",
      "house": "",
      "postcode": "8100-314",
      "city": "LOULÉ",
      "lon": "-8.0913860185233",
      "lat": "37.15952986694214"
    },
    {
      "id": "pt.ine.add.PTCONT.1773257",
      "street": "PARRAGIL",
      "house": "",
      "postcode": "8100-314",
      "city": "LOULÉ",
      "lon": "-8.09101425832262",
      "lat": "37.15997125390441"
    },
    {
      "id": "pt.ine.add.PTCONT.1779376",
      "street": "VALE DA BOA HORA",
      "house": "",
      "postcode": "8100-330",
      "city": "LOULÉ",
      "lon": "-8.095954953794205",
      "lat": "37.16327077707679"
    },
    {
      "id": "pt.ine.add.PTCONT.1783436",
      "street": "VALE DA BOA HORA",
      "house": "",
      "postcode": "8100-330",
      "city": "LOULÉ",
      "lon": "-8.096101456134676",
      "lat": "37.162982484514075"
    },
    {
      "id": "pt.ine.add.PTCONT.1784354",
      "street": "VALE DA BOA HORA",
      "house": "",
      "postcode": "8100-330",
      "city": "LOULÉ",
      "lon": "-8.095887318261088",
      "lat": "37.16344195677246"
    },
    {
      "id": "pt.ine.add.PTCONT.1790873",
      "street": "VALE DA BOA HORA",
      "house": "",
      "postcode": "8100-330",
      "city": "LOULÉ",
      "lon": "-8.095719086889531",
      "lat": "37.16212635978473"
    },
    {
      "id": "pt.ine.add.PTCONT.1808611",
      "street": "PARRAGIL",
      "house": "",
      "postcode": "8100-314",
      "city": "LOULÉ",
      "lon": "-8.093142377502371",
      "lat": "37.15933223947287"
    },
    {
      "id": "pt.ine.add.PTCONT.1819505",
      "street": "VALE DA BOA HORA",
      "house": "",
      "postcode": "8100-330",
      "city": "LOULÉ",
      "lon": "-8.096439691569083",
      "lat": "37.16199142628852"
    },
    {
      "id": "pt.ine.add.PTCONT.1819506",
      "street": "PARRAGIL",
      "house": "",
      "postcode": "8100-314",
      "city": "LOULÉ",
      "lon": "-8.094110339849044",
      "lat": "37.159774080382164"
    },
    {
      "id": "pt.ine.add.PTCONT.1828724",
      "street": "VALE DA BOA HORA",
      "house": "",
      "postcode": "8100-330",
      "city": "LOULÉ",
      "lon": "-8.096124017145646",
      "lat": "37.1628923858037"
    },
    {
      "id": "pt.ine.add.PTCONT.1838284",
      "street": "PARRAGIL",
      "house": "",
      "postcode": "8100-314",
      "city": "LOULÉ",
      "lon": "-8.090665559232743",
      "lat": "37.159430494733044"
    },
    {
      "id": "pt.ine.add.PTCONT.1840822",
      "street": "PARRAGIL FRANCI LIENNE CORREIA",
      "house": "",
      "postcode": "8100-314",
      "city": "LOULÉ",
      "lon": "-8.09504448482025",
      "lat": "37.16032402945119"
    },
    {
      "id": "pt.ine.add.PTCONT.1843174",
      "street": "VALE DA BOA HORA",
      "house": "",
      "postcode": "8100-330",
      "city": "LOULÉ",
      "lon": "-8.09657498760353",
      "lat": "37.16158599210411"
    }
  ]
}