{
  "data": {
    "distrito": "Viseu",
    "concelho": "Vouzela",
    "freguesia": "União das freguesias de Vouzela e Paços de Vilharigues",
    "OBJECTID": 546,
    "BGRI2021": "18241500114",
    "DT21": "18",
    "DTMN21": "1824",
    "DTMNFR21": "182415",
    "DTMNFRSEC21": "182415001",
    "SECNUM21": "001",
    "SSNUM21": "14",
    "SECSSNUM21": "00114",
    "OBJECTID_1": 202772,
    "DT": "18",
    "CC": "24",
    "fr": "15",
    "SEC": "001",
    "SS": "14"
  },
  "addresses": [
    {
      "id": "pt.ine.add.PTCONT.5430331",
      "street": "R STO AMARO",
      "house": "",
      "postcode": "3670-272",
      "city": "VOUZELA",
      "lon": "-8.141723051621543",
      "lat": "40.70709830112305"
    },
    {
      "id": "pt.ine.add.PTCONT.5475900",
      "street": "R PRINCIPAL",
      "house": "86",
      "postcode": "3670-151",
      "city": "PAÇOS DE VILHARIGUES",
      "lon": "-8.141687365363115",
      "lat": "40.70564848337221"
    },
    {
      "id": "pt.ine.add.PTCONT.5481314",
      "street": "R REGADAS",
      "house": "31",
      "postcode": "3670-151",
      "city": "PAÇOS DE VILHARIGUES",
      "lon": "-8.141498216943269",
      "lat": "40.70709831768195"
    },
    {
      "id": "pt.ine.add.PTCONT.5533464",
      "street": "R PRINCIPAL",
      "house": "92",
      "postcode": "3670-151",
      "city": "PAÇOS DE VILHARIGUES",
      "lon": "-8.142622266027095",
      "lat": "40.70622473627965"
    },
    {
      "id": "pt.ine.add.PTCONT.5543453",
      "street": "R PRINCIPAL",
      "house": "",
      "postcode": "3670-151",
      "city": "PAÇOS DE VILHARIGUES",
      "lon": "-8.142717057565257",
      "lat": "40.707098222667966"
    },
    {
      "id": "pt.ine.add.PTCONT.5566875",
      "street": "R REGADAS",
      "house": "",
      "postcode": "3670-151",
      "city": "PAÇOS DE VILHARIGUES",
      "lon": "-8.141450843996564",
      "lat": "40.706783142796475"
    },
    {
      "id": "pt.ine.add.PTCONT.5574227",
      "street": "R PRINCIPAL",
      "house": "100",
      "postcode": "3670-151",
      "city": "PAÇOS DE VILHARIGUES",
      "lon": "-8.142799890088282",
      "lat": "40.707089210649244"
    },
    {
      "id": "pt.ine.add.PTCONT.5581714",
      "street": "R TRAVESSO",
      "house": "1",
      "postcode": "3670-151",
      "city": "PAÇOS DE VILHARIGUES",
      "lon": "-8.141699424158471",
      "lat": "40.70740447609098"
    },
    {
      "id": "pt.ine.add.PTCONT.5632270",
      "street": "R PRINCIPAL",
      "house": "98",
      "postcode": "3670-151",
      "city": "PAÇOS DE VILHARIGUES",
      "lon": "-8.142622374954387",
      "lat": "40.70699016937407"
    }
  ]
}