{
  "data": {
    "distrito": "Porto",
    "concelho": "Paredes",
    "freguesia": "Astromil",
    "OBJECTID": 359,
    "BGRI2021": "13100200108",
    "DT21": "13",
    "DTMN21": "1310",
    "DTMNFR21": "131002",
    "DTMNFRSEC21": "131002001",
    "SECNUM21": "001",
    "SSNUM21": "08",
    "SECSSNUM21": "00108",
    "OBJECTID_1": 134773,
    "DT": "13",
    "CC": "10",
    "fr": "02",
    "SEC": "001",
    "SS": "08"
  },
  "addresses": [
    {
      "id": "pt.ine.add.PTCONT.3548309",
      "street": "R ALTO DO CARREIRO",
      "house": "82",
      "postcode": "4585-810",
      "city": "ASTROMIL",
      "lon": "-8.415828992357783",
      "lat": "41.19645480872574"
    },
    {
      "id": "pt.ine.add.PTCONT.3835795",
      "street": "R QUINTA DA MANCANA",
      "house": "40",
      "postcode": "4585-802",
      "city": "ASTROMIL",
      "lon": "-8.416590457213621",
      "lat": "41.19611077302947"
    },
    {
      "id": "pt.ine.add.PTCONT.3914729",
      "street": "R ALTO DO CARREIRO",
      "house": "76",
      "postcode": "4585-810",
      "city": "ASTROMIL",
      "lon": "-8.416211355211239",
      "lat": "41.196660968646604"
    },
    {
      "id": "pt.ine.add.PTCONT.3931813",
      "street": "R QUINTA DA MANCANA",
      "house": "12",
      "postcode": "4585-802",
      "city": "ASTROMIL",
      "lon": "-8.41593457560379",
      "lat": "41.196058359699435"
    },
    {
      "id": "pt.ine.add.PTCONT.3936143",
      "street": "TV SALVADOR LEITE",
      "house": "3",
      "postcode": "4585-804",
      "city": "ASTROMIL",
      "lon": "-8.417187241427921",
      "lat": "41.19628038448224"
    },
    {
      "id": "pt.ine.add.PTCONT.3973752",
      "street": "TV SALVADOR LEITE",
      "house": "9",
      "postcode": "4585-804",
      "city": "ASTROMIL",
      "lon": "-8.417007999646255",
      "lat": "41.19618177902034"
    },
    {
      "id": "pt.ine.add.PTCONT.4045675",
      "street": "R ALTO DO CARREIRO",
      "house": "19",
      "postcode": "4585-810",
      "city": "ASTROMIL",
      "lon": "-8.417044501644948",
      "lat": "41.19635277098566"
    },
    {
      "id": "pt.ine.add.PTCONT.4050925",
      "street": "R QUINTA DA MANCANA",
      "house": "8",
      "postcode": "4585-802",
      "city": "ASTROMIL",
      "lon": "-8.415374874307032",
      "lat": "41.19619479753223"
    },
    {
      "id": "pt.ine.add.PTCONT.4148587",
      "street": "R ALTO DO CARREIRO",
      "house": "76",
      "postcode": "4585-810",
      "city": "ASTROMIL",
      "lon": "-8.416127636774942",
      "lat": "41.19659814422053"
    },
    {
      "id": "pt.ine.add.PTCONT.4288678",
      "street": "R ALTO DO CARREIRO",
      "house": "44",
      "postcode": "4585-810",
      "city": "ASTROMIL",
      "lon": "-8.416674913791047",
      "lat": "41.196344677259376"
    },
    {
      "id": "pt.ine.add.PTCONT.4308903",
      "street": "R ALTO DO CARREIRO",
      "house": "52",
      "postcode": "4585-810",
      "city": "ASTROMIL",
      "lon": "-8.416497148326627",
      "lat": "41.19658823126391"
    },
    {
      "id": "pt.ine.add.PTCONT.4332227",
      "street": "R ALTO DO CARREIRO",
      "house": "104",
      "postcode": "4585-810",
      "city": "ASTROMIL",
      "lon": "-8.415494199479111",
      "lat": "41.196221517957355"
    }
  ]
}