{
  "data": {
    "distrito": "Bragança",
    "concelho": "Bragança",
    "freguesia": "União das freguesias de Sé, Santa Maria e Meixedo",
    "OBJECTID": 235,
    "BGRI2021": "04025702408",
    "DT21": "04",
    "DTMN21": "0402",
    "DTMNFR21": "040257",
    "DTMNFRSEC21": "040257024",
    "SECNUM21": "024",
    "SSNUM21": "08",
    "SECSSNUM21": "02408",
    "OBJECTID_1": 34129,
    "DT": "04",
    "CC": "02",
    "fr": "57",
    "SEC": "024",
    "SS": "08"
  },
  "addresses": [
    {
      "id": "pt.ine.add.PTCONT.849505",
      "street": "PC SE",
      "house": "20",
      "postcode": "5300-265",
      "city": "BRAGANÇA",
      "lon": "-6.756211073286316",
      "lat": "41.80604180207623"
    },
    {
      "id": "pt.ine.add.PTCONT.854933",
      "street": "TV MISERICÓRDIA",
      "house": "",
      "postcode": "5300-202",
      "city": "BRAGANÇA",
      "lon": "-6.756707660099509",
      "lat": "41.80645289256384"
    },
    {
      "id": "pt.ine.add.PTCONT.864767",
      "street": "R EMÍDIO NAVARRO",
      "house": "13",
      "postcode": "5300-210",
      "city": "BRAGANÇA",
      "lon": "-6.755623801670655",
      "lat": "41.80649391712785"
    },
    {
      "id": "pt.ine.add.PTCONT.864768",
      "street": "R EMÍDIO NAVARRO",
      "house": "13",
      "postcode": "5300-210",
      "city": "BRAGANÇA",
      "lon": "-6.755623801670655",
      "lat": "41.80649391712785"
    },
    {
      "id": "pt.ine.add.PTCONT.864769",
      "street": "R EMÍDIO NAVARRO",
      "house": "13",
      "postcode": "5300-210",
      "city": "BRAGANÇA",
      "lon": "-6.755623801670655",
      "lat": "41.80649391712785"
    },
    {
      "id": "pt.ine.add.PTCONT.864770",
      "street": "R EMÍDIO NAVARRO",
      "house": "13",
      "postcode": "5300-210",
      "city": "BRAGANÇA",
      "lon": "-6.755623801670655",
      "lat": "41.80649391712785"
    },
    {
      "id": "pt.ine.add.PTCONT.870174",
      "street": "R 1 DE DEZEMBRO",
      "house": "27",
      "postcode": "5300-235",
      "city": "BRAGANÇA",
      "lon": "-6.7552877326325",
      "lat": "41.806453873770316"
    },
    {
      "id": "pt.ine.add.PTCONT.870175",
      "street": "R 1 DE DEZEMBRO",
      "house": "11",
      "postcode": "5300-235",
      "city": "BRAGANÇA",
      "lon": "-6.755332309263107",
      "lat": "41.80605827320059"
    },
    {
      "id": "pt.ine.add.PTCONT.871547",
      "street": "R EMÍDIO NAVARRO",
      "house": "10",
      "postcode": "5300-210",
      "city": "BRAGANÇA",
      "lon": "-6.755035295307049",
      "lat": "41.80644184213098"
    },
    {
      "id": "pt.ine.add.PTCONT.871548",
      "street": "R EMÍDIO NAVARRO",
      "house": "10",
      "postcode": "5300-210",
      "city": "BRAGANÇA",
      "lon": "-6.755035295307049",
      "lat": "41.80644184213098"
    },
    {
      "id": "pt.ine.add.PTCONT.871549",
      "street": "R EMÍDIO NAVARRO",
      "house": "10",
      "postcode": "5300-210",
      "city": "BRAGANÇA",
      "lon": "-6.755035295307049",
      "lat": "41.80644184213098"
    },
    {
      "id": "pt.ine.add.PTCONT.879681",
      "street": "R ALM REIS",
      "house": "5",
      "postcode": "5300-077",
      "city": "BRAGANÇA",
      "lon": "-6.756891770929014",
      "lat": "41.80628404032917"
    },
    {
      "id": "pt.ine.add.PTCONT.885272",
      "street": "R EMIDIO NAVARRO",
      "house": "37",
      "postcode": "5300-210",
      "city": "BRAGANÇA",
      "lon": "-6.756426536996241",
      "lat": "41.80665659402074"
    },
    {
      "id": "pt.ine.add.PTCONT.885273",
      "street": "R EMIDIO NAVARRO",
      "house": "37",
      "postcode": "5300-210",
      "city": "BRAGANÇA",
      "lon": "-6.756426536996241",
      "lat": "41.80665659402074"
    },
    {
      "id": "pt.ine.add.PTCONT.885274",
      "street": "R EMIDIO NAVARRO",
      "house": "37",
      "postcode": "5300-210",
      "city": "BRAGANÇA",
      "lon": "-6.756426536996241",
      "lat": "41.80665659402074"
    },
    {
      "id": "pt.ine.add.PTCONT.885275",
      "street": "R EMIDIO NAVARRO",
      "house": "37",
      "postcode": "5300-210",
      "city": "BRAGANÇA",
      "lon": "-6.756426536996241",
      "lat": "41.80665659402074"
    },
    {
      "id": "pt.ine.add.PTCONT.885276",
      "street": "R EMIDIO NAVARRO",
      "house": "37",
      "postcode": "5300-210",
      "city": "BRAGANÇA",
      "lon": "-6.756426536996241",
      "lat": "41.80665659402074"
    },
    {
      "id": "pt.ine.add.PTCONT.885277",
      "street": "R EMIDIO NAVARRO",
      "house": "37",
      "postcode": "5300-210",
      "city": "BRAGANÇA",
      "lon": "-6.756426536996241",
      "lat": "41.80665659402074"
    },
    {
      "id": "pt.ine.add.PTCONT.885286",
      "street": "R EMIDIO NAVARRO",
      "house": "37",
      "postcode": "5300-210",
      "city": "BRAGANÇA",
      "lon": "-6.756426536996241",
      "lat": "41.80665659402074"
    },
    {
      "id": "pt.ine.add.PTCONT.885287",
      "street": "R EMIDIO NAVARRO",
      "house": "37",
      "postcode": "5300-210",
      "city": "BRAGANÇA",
      "lon": "-6.756426536996241",
      "lat": "41.80665659402074"
    },
    {
      "id": "pt.ine.add.PTCONT.885288",
      "street": "R EMIDIO NAVARRO",
      "house": "37",
      "postcode": "5300-210",
      "city": "BRAGANÇA",
      "lon": "-6.756426536996241",
      "lat": "41.80665659402074"
    },
    {
      "id": "pt.ine.add.PTCONT.885292",
      "street": "R EMIDIO NAVARRO",
      "house": "37",
      "postcode": "5300-210",
      "city": "BRAGANÇA",
      "lon": "-6.756426536996241",
      "lat": "41.80665659402074"
    },
    {
      "id": "pt.ine.add.PTCONT.886983",
      "street": "R 1 DE DEZEMBRO",
      "house": "37",
      "postcode": "5300-235",
      "city": "BRAGANÇA",
      "lon": "-6.755444122803479",
      "lat": "41.80645574975055"
    },
    {
      "id": "pt.ine.add.PTCONT.886984",
      "street": "R 1 DE DEZEMBRO",
      "house": "37",
      "postcode": "5300-235",
      "city": "BRAGANÇA",
      "lon": "-6.755444122803479",
      "lat": "41.80645574975055"
    },
    {
      "id": "pt.ine.add.PTCONT.887772",
      "street": "TV MISERICÓRDIA",
      "house": "",
      "postcode": "5300-202",
      "city": "BRAGANÇA",
      "lon": "-6.756781381617669",
      "lat": "41.80638175140098"
    },
    {
      "id": "pt.ine.add.PTCONT.889194",
      "street": "R 1 DE DEZEMBRO",
      "house": "15",
      "postcode": "5300-235",
      "city": "BRAGANÇA",
      "lon": "-6.755329994754759",
      "lat": "41.80616628234175"
    },
    {
      "id": "pt.ine.add.PTCONT.890925",
      "street": "R ABILIO BECA",
      "house": "101",
      "postcode": "5300-011",
      "city": "BRAGANÇA",
      "lon": "-6.755465024308385",
      "lat": "41.806041858994114"
    },
    {
      "id": "pt.ine.add.PTCONT.903920",
      "street": "R 1 DE DEZEMBRO",
      "house": "29",
      "postcode": "5300-235",
      "city": "BRAGANÇA",
      "lon": "-6.755289275702352",
      "lat": "41.80638186768132"
    },
    {
      "id": "pt.ine.add.PTCONT.910227",
      "street": "R ALM REIS",
      "house": "1",
      "postcode": "5300-077",
      "city": "BRAGANÇA",
      "lon": "-6.756736729840399",
      "lat": "41.80621916095791"
    },
    {
      "id": "pt.ine.add.PTCONT.911538",
      "street": "PC SE",
      "house": "22",
      "postcode": "5300-265",
      "city": "BRAGANÇA",
      "lon": "-6.756665320744403",
      "lat": "41.80618229289674"
    },
    {
      "id": "pt.ine.add.PTCONT.917304",
      "street": "R ABILIO BECA",
      "house": "97",
      "postcode": "5300-011",
      "city": "BRAGANÇA",
      "lon": "-6.755405260357083",
      "lat": "41.8060231359808"
    },
    {
      "id": "pt.ine.add.PTCONT.917475",
      "street": "PC SE",
      "house": "8-10",
      "postcode": "5300-265",
      "city": "BRAGANÇA",
      "lon": "-6.755777417058922",
      "lat": "41.80606361175624"
    },
    {
      "id": "pt.ine.add.PTCONT.920460",
      "street": "R EMÍDIO NAVARRO",
      "house": "11",
      "postcode": "5300-210",
      "city": "BRAGANÇA",
      "lon": "-6.755540170067292",
      "lat": "41.806465904856154"
    },
    {
      "id": "pt.ine.add.PTCONT.922908",
      "street": "TV MISERICÓRDIA",
      "house": "41",
      "postcode": "5300-202",
      "city": "BRAGANÇA",
      "lon": "-6.756573980960366",
      "lat": "41.80651431202662"
    },
    {
      "id": "pt.ine.add.PTCONT.933612",
      "street": "R EMIDIO NAVARRO",
      "house": "35",
      "postcode": "5300-210",
      "city": "BRAGANÇA",
      "lon": "-6.756126556688873",
      "lat": "41.8066169856797"
    },
    {
      "id": "pt.ine.add.PTCONT.933613",
      "street": "R EMIDIO NAVARRO",
      "house": "37",
      "postcode": "5300-210",
      "city": "BRAGANÇA",
      "lon": "-6.756126556688873",
      "lat": "41.8066169856797"
    },
    {
      "id": "pt.ine.add.PTCONT.935220",
      "street": "R 1 DE DEZEMBRO",
      "house": "25",
      "postcode": "5300-235",
      "city": "BRAGANÇA",
      "lon": "-6.75531584313353",
      "lat": "41.80626514640902"
    },
    {
      "id": "pt.ine.add.PTCONT.942574",
      "street": "PC SE",
      "house": "4-6",
      "postcode": "5300-265",
      "city": "BRAGANÇA",
      "lon": "-6.755657503302078",
      "lat": "41.8060441675472"
    },
    {
      "id": "pt.ine.add.PTCONT.945845",
      "street": "R ABILIO BECA",
      "house": "103",
      "postcode": "5300-011",
      "city": "BRAGANÇA",
      "lon": "-6.755561456645396",
      "lat": "41.806034012548196"
    },
    {
      "id": "pt.ine.add.PTCONT.950138",
      "street": "R 1 DE DEZEMBRO",
      "house": "27",
      "postcode": "5300-235",
      "city": "BRAGANÇA",
      "lon": "-6.7552877326325",
      "lat": "41.806453873770316"
    }
  ]
}