{
  "data": {
    "distrito": "Faro",
    "concelho": "Silves",
    "freguesia": "Armação de Pêra",
    "OBJECTID": 409,
    "BGRI2021": "08130301613",
    "DT21": "08",
    "DTMN21": "0813",
    "DTMNFR21": "081303",
    "DTMNFRSEC21": "081303016",
    "SECNUM21": "016",
    "SSNUM21": "13",
    "SECSSNUM21": "01613",
    "OBJECTID_1": 72564,
    "DT": "08",
    "CC": "13",
    "fr": "03",
    "SEC": "016",
    "SS": "13"
  },
  "addresses": [
    {
      "id": "pt.ine.add.PTCONT.1474118",
      "street": "CASA KAHO",
      "house": "",
      "postcode": "8365-184",
      "city": "ARMAÇÃO DE PÊRA",
      "lon": "-8.367220624066839",
      "lat": "37.119812558362405"
    },
    {
      "id": "pt.ine.add.PTCONT.1488669",
      "street": "SIT TORRE",
      "house": "",
      "postcode": "8365-184",
      "city": "ARMAÇÃO DE PÊRA",
      "lon": "-8.362003597167055",
      "lat": "37.12112928538122"
    },
    {
      "id": "pt.ine.add.PTCONT.1498615",
      "street": "SIT TORRE",
      "house": "",
      "postcode": "8365-184",
      "city": "ARMAÇÃO DE PÊRA",
      "lon": "-8.361068213348297",
      "lat": "37.1168960946973"
    },
    {
      "id": "pt.ine.add.PTCONT.1509164",
      "street": "SIT TORRE",
      "house": "",
      "postcode": "8365-184",
      "city": "ARMAÇÃO DE PÊRA",
      "lon": "-8.360880390458927",
      "lat": "37.118049815750204"
    },
    {
      "id": "pt.ine.add.PTCONT.1509186",
      "street": "CASA JENNE",
      "house": "",
      "postcode": "8365-184",
      "city": "ARMAÇÃO DE PÊRA",
      "lon": "-8.36379089129471",
      "lat": "37.116818743539234"
    },
    {
      "id": "pt.ine.add.PTCONT.1511799",
      "street": "SIT TORRE CERRO DA TORRE",
      "house": "",
      "postcode": "8365-184",
      "city": "ARMAÇÃO DE PÊRA",
      "lon": "-8.363183748880342",
      "lat": "37.12068548064889"
    },
    {
      "id": "pt.ine.add.PTCONT.1514405",
      "street": "SIT TORRE DOMINGOS",
      "house": "",
      "postcode": "8365-184",
      "city": "ARMAÇÃO DE PÊRA",
      "lon": "-8.362008881031507",
      "lat": "37.119146938485386"
    },
    {
      "id": "pt.ine.add.PTCONT.1535408",
      "street": "SIT TORRE",
      "house": "",
      "postcode": "8365-184",
      "city": "ARMAÇÃO DE PÊRA",
      "lon": "-8.361053071995688",
      "lat": "37.11559859346002"
    },
    {
      "id": "pt.ine.add.PTCONT.1549333",
      "street": "SIT TORRE",
      "house": "",
      "postcode": "8365-184",
      "city": "ARMAÇÃO DE PÊRA",
      "lon": "-8.361316722048237",
      "lat": "37.12096841835747"
    },
    {
      "id": "pt.ine.add.PTCONT.1567610",
      "street": "SIT TORRE PEDRO S VILLA I",
      "house": "611E",
      "postcode": "8365-184",
      "city": "ARMAÇÃO DE PÊRA",
      "lon": "-8.363522762232174",
      "lat": "37.12116238512414"
    },
    {
      "id": "pt.ine.add.PTCONT.1572566",
      "street": "SIT TORRE",
      "house": "",
      "postcode": "8365-184",
      "city": "ARMAÇÃO DE PÊRA",
      "lon": "-8.361233825047949",
      "lat": "37.11584153277736"
    },
    {
      "id": "pt.ine.add.PTCONT.1584688",
      "street": "SIT TORRE CASA SANTOS E SILVA",
      "house": "",
      "postcode": "8365-184",
      "city": "ARMAÇÃO DE PÊRA",
      "lon": "-8.362021082530388",
      "lat": "37.11946228671877"
    },
    {
      "id": "pt.ine.add.PTCONT.1587411",
      "street": "SIT TORRE EDMUNDO GRAÇA",
      "house": "",
      "postcode": "8365-184",
      "city": "ARMAÇÃO DE PÊRA",
      "lon": "-8.361524179941425",
      "lat": "37.118859533353934"
    },
    {
      "id": "pt.ine.add.PTCONT.1610500",
      "street": "SIT TORRE",
      "house": "9",
      "postcode": "8365-184",
      "city": "ARMAÇÃO DE PÊRA",
      "lon": "-8.361924261791025",
      "lat": "37.12094021550515"
    },
    {
      "id": "pt.ine.add.PTCONT.1618699",
      "street": "SIT TORRE CASA MEIA LUA",
      "house": "",
      "postcode": "8365-184",
      "city": "ARMAÇÃO DE PÊRA",
      "lon": "-8.36161123031027",
      "lat": "37.12161661571626"
    },
    {
      "id": "pt.ine.add.PTCONT.1646794",
      "street": "QTA MATOSO",
      "house": "",
      "postcode": "8365-184",
      "city": "ARMAÇÃO DE PÊRA",
      "lon": "-8.36078195807708",
      "lat": "37.11523868922997"
    },
    {
      "id": "pt.ine.add.PTCONT.1651624",
      "street": "SIT TORRE CASA MARTINA",
      "house": "",
      "postcode": "8365-184",
      "city": "ARMAÇÃO DE PÊRA",
      "lon": "-8.3633390148779",
      "lat": "37.11993729770587"
    },
    {
      "id": "pt.ine.add.PTCONT.1658079",
      "street": "SIT TORRE",
      "house": "",
      "postcode": "8365-184",
      "city": "ARMAÇÃO DE PÊRA",
      "lon": "-8.361298248900768",
      "lat": "37.11856261783325"
    },
    {
      "id": "pt.ine.add.PTCONT.1660264",
      "street": "SIT TORRE",
      "house": "57 55",
      "postcode": "8365-184",
      "city": "ARMAÇÃO DE PÊRA",
      "lon": "-8.361056056323118",
      "lat": "37.120347186989626"
    },
    {
      "id": "pt.ine.add.PTCONT.1660311",
      "street": "TORRE ALD TORRE",
      "house": "",
      "postcode": "8365-184",
      "city": "ARMAÇÃO DE PÊRA",
      "lon": "-8.364712701283429",
      "lat": "37.1165466276422"
    },
    {
      "id": "pt.ine.add.PTCONT.1660312",
      "street": "TORRE ALD TORRE",
      "house": "",
      "postcode": "8365-184",
      "city": "ARMAÇÃO DE PÊRA",
      "lon": "-8.364712701283429",
      "lat": "37.1165466276422"
    },
    {
      "id": "pt.ine.add.PTCONT.1660313",
      "street": "TORRE ALD TORRE",
      "house": "",
      "postcode": "8365-184",
      "city": "ARMAÇÃO DE PÊRA",
      "lon": "-8.364712701283429",
      "lat": "37.1165466276422"
    },
    {
      "id": "pt.ine.add.PTCONT.1660314",
      "street": "TORRE ALD TORRE",
      "house": "",
      "postcode": "8365-184",
      "city": "ARMAÇÃO DE PÊRA",
      "lon": "-8.364712701283429",
      "lat": "37.1165466276422"
    },
    {
      "id": "pt.ine.add.PTCONT.1660777",
      "street": "SIT TORRE",
      "house": "",
      "postcode": "8365-184",
      "city": "ARMAÇÃO DE PÊRA",
      "lon": "-8.362836346517106",
      "lat": "37.12115470655375"
    },
    {
      "id": "pt.ine.add.PTCONT.1662506",
      "street": "SIT TORRE",
      "house": "",
      "postcode": "8365-184",
      "city": "ARMAÇÃO DE PÊRA",
      "lon": "-8.360749226549563",
      "lat": "37.11933858685764"
    },
    {
      "id": "pt.ine.add.PTCONT.1668273",
      "street": "TORRE CASA CHRISTA",
      "house": "",
      "postcode": "8365-184",
      "city": "ARMAÇÃO DE PÊRA",
      "lon": "-8.368268097464117",
      "lat": "37.12014387830357"
    },
    {
      "id": "pt.ine.add.PTCONT.1685763",
      "street": "SIT TORRE BASA SOFIA",
      "house": "",
      "postcode": "8365-184",
      "city": "ARMAÇÃO DE PÊRA",
      "lon": "-8.358576654669118",
      "lat": "37.119027366587396"
    },
    {
      "id": "pt.ine.add.PTCONT.1685764",
      "street": "SIT TORRE BASA SOFIA",
      "house": "",
      "postcode": "8365-184",
      "city": "ARMAÇÃO DE PÊRA",
      "lon": "-8.358576654669118",
      "lat": "37.119027366587396"
    },
    {
      "id": "pt.ine.add.PTCONT.1719887",
      "street": "SIT TORRE",
      "house": "",
      "postcode": "8365-184",
      "city": "ARMAÇÃO DE PÊRA",
      "lon": "-8.362248376923569",
      "lat": "37.12020972925046"
    },
    {
      "id": "pt.ine.add.PTCONT.1737128",
      "street": "SIT TORRE CASA SONHO",
      "house": "",
      "postcode": "8365-184",
      "city": "ARMAÇÃO DE PÊRA",
      "lon": "-8.360762636990703",
      "lat": "37.12005941088574"
    },
    {
      "id": "pt.ine.add.PTCONT.1740278",
      "street": "SIT TORRE CHSA PAPOILAS",
      "house": "",
      "postcode": "8365-184",
      "city": "ARMAÇÃO DE PÊRA",
      "lon": "-8.361191703876472",
      "lat": "37.12055417039095"
    },
    {
      "id": "pt.ine.add.PTCONT.1740279",
      "street": "SIT TORRE",
      "house": "",
      "postcode": "8365-184",
      "city": "ARMAÇÃO DE PÊRA",
      "lon": "-8.360289913784163",
      "lat": "37.12001526454798"
    },
    {
      "id": "pt.ine.add.PTCONT.1805834",
      "street": "SIT TORRE",
      "house": "",
      "postcode": "8365-184",
      "city": "ARMAÇÃO DE PÊRA",
      "lon": "-8.361972742822267",
      "lat": "37.122093481190724"
    },
    {
      "id": "pt.ine.add.PTCONT.1817646",
      "street": "SIT TORRE",
      "house": "",
      "postcode": "8365-184",
      "city": "ARMAÇÃO DE PÊRA",
      "lon": "-8.361109572397677",
      "lat": "37.115679580476964"
    }
  ]
}