{
  "data": {
    "distrito": "Viana do Castelo",
    "concelho": "Ponte de Lima",
    "freguesia": "Ribeira",
    "OBJECTID": 5,
    "BGRI2021": "16073900219",
    "DT21": "16",
    "DTMN21": "1607",
    "DTMNFR21": "160739",
    "DTMNFRSEC21": "160739002",
    "SECNUM21": "002",
    "SSNUM21": "19",
    "SECSSNUM21": "00219",
    "OBJECTID_1": 176387,
    "DT": "16",
    "CC": "07",
    "fr": "39",
    "SEC": "002",
    "SS": "19"
  },
  "addresses": [
    {
      "id": "pt.ine.add.PTCONT.5149559",
      "street": "R RAPOSA",
      "house": "",
      "postcode": "4990-374",
      "city": "PONTE DE LIMA",
      "lon": "-8.573885527852418",
      "lat": "41.77347377656965"
    },
    {
      "id": "pt.ine.add.PTCONT.5151521",
      "street": "R LOBO",
      "house": "",
      "postcode": "4990-374",
      "city": "PONTE DE LIMA",
      "lon": "-8.573177843967448",
      "lat": "41.773755594563475"
    },
    {
      "id": "pt.ine.add.PTCONT.5153657",
      "street": "R RAPOSA",
      "house": "",
      "postcode": "4990-374",
      "city": "PONTE DE LIMA",
      "lon": "-8.572692090827069",
      "lat": "41.77307319642426"
    },
    {
      "id": "pt.ine.add.PTCONT.5158418",
      "street": "R RAPOSA",
      "house": "",
      "postcode": "4990-374",
      "city": "PONTE DE LIMA",
      "lon": "-8.573151451498633",
      "lat": "41.773413566799576"
    },
    {
      "id": "pt.ine.add.PTCONT.5158432",
      "street": "R RAPOSA",
      "house": "53",
      "postcode": "4990-374",
      "city": "PONTE DE LIMA",
      "lon": "-8.573450524608303",
      "lat": "41.77317833274165"
    },
    {
      "id": "pt.ine.add.PTCONT.5164003",
      "street": "R LEBRE",
      "house": "54",
      "postcode": "4990-374",
      "city": "PONTE DE LIMA",
      "lon": "-8.57347346999414",
      "lat": "41.77301618374635"
    },
    {
      "id": "pt.ine.add.PTCONT.5198841",
      "street": "R RAPOSA",
      "house": "52",
      "postcode": "4990-374",
      "city": "PONTE DE LIMA",
      "lon": "-8.573739293956601",
      "lat": "41.77319523238124"
    },
    {
      "id": "pt.ine.add.PTCONT.5198842",
      "street": "R RAPOSA",
      "house": "52",
      "postcode": "4990-374",
      "city": "PONTE DE LIMA",
      "lon": "-8.573739293956601",
      "lat": "41.77319523238124"
    },
    {
      "id": "pt.ine.add.PTCONT.5207466",
      "street": "",
      "house": "",
      "postcode": "4990-372",
      "city": "PONTE DE LIMA",
      "lon": "-8.572426884604505",
      "lat": "41.772984176917085"
    },
    {
      "id": "pt.ine.add.PTCONT.5207467",
      "street": "",
      "house": "",
      "postcode": "4990-372",
      "city": "PONTE DE LIMA",
      "lon": "-8.572738600013512",
      "lat": "41.7728389302735"
    },
    {
      "id": "pt.ine.add.PTCONT.5208577",
      "street": "R ONCA PINTADA",
      "house": "",
      "postcode": "4990-374",
      "city": "PONTE DE LIMA",
      "lon": "-8.573918218382797",
      "lat": "41.772978464622"
    },
    {
      "id": "pt.ine.add.PTCONT.5210051",
      "street": "R RAPOSA",
      "house": "",
      "postcode": "4990-374",
      "city": "PONTE DE LIMA",
      "lon": "-8.57339217552545",
      "lat": "41.773439654711815"
    },
    {
      "id": "pt.ine.add.PTCONT.5210593",
      "street": "R RAPOSA",
      "house": "",
      "postcode": "4990-374",
      "city": "PONTE DE LIMA",
      "lon": "-8.572836598139405",
      "lat": "41.77309965360251"
    },
    {
      "id": "pt.ine.add.PTCONT.5212518",
      "street": "R RAPOSA",
      "house": "",
      "postcode": "4990-374",
      "city": "PONTE DE LIMA",
      "lon": "-8.573633084555176",
      "lat": "41.773492751582964"
    },
    {
      "id": "pt.ine.add.PTCONT.5221455",
      "street": "",
      "house": "",
      "postcode": "4990-372",
      "city": "PONTE DE LIMA",
      "lon": "-8.573076151888968",
      "lat": "41.7729546822153"
    },
    {
      "id": "pt.ine.add.PTCONT.5265132",
      "street": "R RAPOSA",
      "house": "6",
      "postcode": "4990-374",
      "city": "PONTE DE LIMA",
      "lon": "-8.572862558319944",
      "lat": "41.77337865937533"
    }
  ]
}