{
  "data": {
    "distrito": "Viseu",
    "concelho": "Tondela",
    "freguesia": "Lobão da Beira",
    "OBJECTID": 233,
    "BGRI2021": "18211000141",
    "DT21": "18",
    "DTMN21": "1821",
    "DTMNFR21": "182110",
    "DTMNFRSEC21": "182110001",
    "SECNUM21": "001",
    "SSNUM21": "41",
    "SECSSNUM21": "00141",
    "OBJECTID_1": 200030,
    "DT": "18",
    "CC": "21",
    "fr": "10",
    "SEC": "001",
    "SS": "41"
  },
  "addresses": [
    {
      "id": "pt.ine.add.PTCONT.5440957",
      "street": "R POMBAL",
      "house": "52",
      "postcode": "3460-202",
      "city": "TONDELA",
      "lon": "-8.028304657159216",
      "lat": "40.53011627665825"
    },
    {
      "id": "pt.ine.add.PTCONT.5464533",
      "street": "AV DR LUCAS SEABRA SILVA",
      "house": "180",
      "postcode": "3460-202",
      "city": "TONDELA",
      "lon": "-8.0270298779194",
      "lat": "40.530205167099766"
    },
    {
      "id": "pt.ine.add.PTCONT.5479089",
      "street": "R UIVADO",
      "house": "53",
      "postcode": "3460-202",
      "city": "TONDELA",
      "lon": "-8.026819828347259",
      "lat": "40.52869207191269"
    },
    {
      "id": "pt.ine.add.PTCONT.5480954",
      "street": "R UIVADO",
      "house": "166",
      "postcode": "3460-202",
      "city": "TONDELA",
      "lon": "-8.026464142616138",
      "lat": "40.52971835641778"
    },
    {
      "id": "pt.ine.add.PTCONT.5482646",
      "street": "R FRANCISCO JOSE GOUVEIA",
      "house": "453",
      "postcode": "3460-202",
      "city": "TONDELA",
      "lon": "-8.024329515830397",
      "lat": "40.5287527919957"
    },
    {
      "id": "pt.ine.add.PTCONT.5482750",
      "street": "R FRANCISCO JOSE GOUVEIA",
      "house": "299",
      "postcode": "3460-202",
      "city": "TONDELA",
      "lon": "-8.026867690283481",
      "lat": "40.528277868837094"
    },
    {
      "id": "pt.ine.add.PTCONT.5510698",
      "street": "R POMBAL",
      "house": "122",
      "postcode": "3460-202",
      "city": "TONDELA",
      "lon": "-8.026971534611361",
      "lat": "40.52978186117263"
    },
    {
      "id": "pt.ine.add.PTCONT.5523775",
      "street": "R FRANCISCO JOSE GOUVEIA",
      "house": "163",
      "postcode": "3460-202",
      "city": "TONDELA",
      "lon": "-8.028283480245534",
      "lat": "40.528558328391945"
    },
    {
      "id": "pt.ine.add.PTCONT.5530425",
      "street": "AV COMEND REINALDO FARIA",
      "house": "3",
      "postcode": "3460-202",
      "city": "TONDELA",
      "lon": "-8.02992289800769",
      "lat": "40.5292442121886"
    },
    {
      "id": "pt.ine.add.PTCONT.5537552",
      "street": "R POMBAL",
      "house": "123",
      "postcode": "3460-202",
      "city": "TONDELA",
      "lon": "-8.027301640394043",
      "lat": "40.53000729814658"
    },
    {
      "id": "pt.ine.add.PTCONT.5545913",
      "street": "AV DR CÂNDIDO FIGUEIREDO",
      "house": "86",
      "postcode": "3460-202",
      "city": "TONDELA",
      "lon": "-8.028788407599688",
      "lat": "40.530206768094"
    },
    {
      "id": "pt.ine.add.PTCONT.5548458",
      "street": "AV DR CÂNDIDO FIGUEIREDO",
      "house": "68",
      "postcode": "3460-202",
      "city": "TONDELA",
      "lon": "-8.029036449111901",
      "lat": "40.53008091659475"
    },
    {
      "id": "pt.ine.add.PTCONT.5549926",
      "street": "R CUMES",
      "house": "68",
      "postcode": "3460-202",
      "city": "TONDELA",
      "lon": "-8.027987601976685",
      "lat": "40.52908937649424"
    },
    {
      "id": "pt.ine.add.PTCONT.5549927",
      "street": "R POMBAL",
      "house": "98",
      "postcode": "3460-202",
      "city": "TONDELA",
      "lon": "-8.027844596929782",
      "lat": "40.52997177256458"
    },
    {
      "id": "pt.ine.add.PTCONT.5550990",
      "street": "R POMBAL",
      "house": "144",
      "postcode": "3460-202",
      "city": "TONDELA",
      "lon": "-8.027172128414396",
      "lat": "40.52980906135818"
    },
    {
      "id": "pt.ine.add.PTCONT.5550991",
      "street": "R POMBAL",
      "house": "144",
      "postcode": "3460-202",
      "city": "TONDELA",
      "lon": "-8.027172128414396",
      "lat": "40.52980906135818"
    },
    {
      "id": "pt.ine.add.PTCONT.5573833",
      "street": "R POMBAL",
      "house": "2",
      "postcode": "3460-202",
      "city": "TONDELA",
      "lon": "-8.028776479692914",
      "lat": "40.53028780564461"
    },
    {
      "id": "pt.ine.add.PTCONT.5584954",
      "street": "R POMBAL",
      "house": "6",
      "postcode": "3460-202",
      "city": "TONDELA",
      "lon": "-8.02868211778916",
      "lat": "40.530251698930414"
    },
    {
      "id": "pt.ine.add.PTCONT.5604808",
      "street": "AV DR CÂNDIDO FIGUEIREDO",
      "house": "42",
      "postcode": "3460-202",
      "city": "TONDELA",
      "lon": "-8.029142821917338",
      "lat": "40.52998195329001"
    },
    {
      "id": "pt.ine.add.PTCONT.5624132",
      "street": "AV COMEND REINALDO FARIA",
      "house": "188",
      "postcode": "3460-202",
      "city": "TONDELA",
      "lon": "-8.030076545251713",
      "lat": "40.52910026336124"
    },
    {
      "id": "pt.ine.add.PTCONT.5637480",
      "street": "R CUMES",
      "house": "30",
      "postcode": "3460-202",
      "city": "TONDELA",
      "lon": "-8.02808262261463",
      "lat": "40.5287022319475"
    },
    {
      "id": "pt.ine.add.PTCONT.5639347",
      "street": "AV COMEND REINALDO FARIA",
      "house": "246",
      "postcode": "3460-202",
      "city": "TONDELA",
      "lon": "-8.02978106600687",
      "lat": "40.52937916600351"
    },
    {
      "id": "pt.ine.add.PTCONT.5646861",
      "street": "R POMBAL",
      "house": "16",
      "postcode": "3460-202",
      "city": "TONDELA",
      "lon": "-8.028528884904956",
      "lat": "40.53012548518275"
    },
    {
      "id": "pt.ine.add.PTCONT.5646862",
      "street": "R POMBAL",
      "house": "70",
      "postcode": "3460-202",
      "city": "TONDELA",
      "lon": "-8.028009756989148",
      "lat": "40.530016949749196"
    },
    {
      "id": "pt.ine.add.PTCONT.5652296",
      "street": "R POMBAL",
      "house": "104",
      "postcode": "3460-202",
      "city": "TONDELA",
      "lon": "-8.02763238374708",
      "lat": "40.52982749313924"
    },
    {
      "id": "pt.ine.add.PTCONT.5654127",
      "street": "AV DR CÂNDIDO FIGUEIREDO",
      "house": "82",
      "postcode": "3460-202",
      "city": "TONDELA",
      "lon": "-8.028941906089422",
      "lat": "40.53016187972666"
    }
  ]
}