{
  "data": {
    "distrito": "Viana do Castelo",
    "concelho": "Viana do Castelo",
    "freguesia": "União das freguesias de Viana do Castelo (Santa Maria Maior e Monserrate) e Meadela",
    "OBJECTID": 689,
    "BGRI2021": "16094801003",
    "DT21": "16",
    "DTMN21": "1609",
    "DTMNFR21": "160948",
    "DTMNFRSEC21": "160948010",
    "SECNUM21": "010",
    "SSNUM21": "03",
    "SECSSNUM21": "01003",
    "OBJECTID_1": 178058,
    "DT": "16",
    "CC": "09",
    "fr": "48",
    "SEC": "010",
    "SS": "03"
  },
  "addresses": [
    {
      "id": "pt.ine.add.PTCONT.5134714",
      "street": "R VILA NOVA DE CERVEIRA",
      "house": "4",
      "postcode": "4900-447",
      "city": "VIANA DO CASTELO",
      "lon": "-8.825859818021563",
      "lat": "41.7010588354939"
    },
    {
      "id": "pt.ine.add.PTCONT.5140157",
      "street": "R PADRE AMÉRICO",
      "house": "4",
      "postcode": "4900-465",
      "city": "VIANA DO CASTELO",
      "lon": "-8.825368002563733",
      "lat": "41.700008394475624"
    },
    {
      "id": "pt.ine.add.PTCONT.5142634",
      "street": "R PAREDES DE COURA",
      "house": "3",
      "postcode": "4900-455",
      "city": "VIANA DO CASTELO",
      "lon": "-8.824527206014762",
      "lat": "41.70002245974337"
    },
    {
      "id": "pt.ine.add.PTCONT.5147040",
      "street": "R PADRE AMÉRICO",
      "house": "24",
      "postcode": "4900-465",
      "city": "VIANA DO CASTELO",
      "lon": "-8.826095340603409",
      "lat": "41.70061624599774"
    },
    {
      "id": "pt.ine.add.PTCONT.5147041",
      "street": "R PADRE AMÉRICO",
      "house": "16",
      "postcode": "4900-465",
      "city": "VIANA DO CASTELO",
      "lon": "-8.825792410242931",
      "lat": "41.700374978946236"
    },
    {
      "id": "pt.ine.add.PTCONT.5148091",
      "street": "LG BAIRRO JARDIM",
      "house": "4",
      "postcode": "4900-467",
      "city": "VIANA DO CASTELO",
      "lon": "-8.825688641975225",
      "lat": "41.70078076003565"
    },
    {
      "id": "pt.ine.add.PTCONT.5149035",
      "street": "R VILA NOVA DE CERVEIRA",
      "house": "6",
      "postcode": "4900-447",
      "city": "VIANA DO CASTELO",
      "lon": "-8.82591920630987",
      "lat": "41.70099545326439"
    },
    {
      "id": "pt.ine.add.PTCONT.5149036",
      "street": "R MONÇÃO",
      "house": "9",
      "postcode": "4900-456",
      "city": "VIANA DO CASTELO",
      "lon": "-8.825408193024845",
      "lat": "41.70039530113563"
    },
    {
      "id": "pt.ine.add.PTCONT.5152807",
      "street": "R MONÇÃO",
      "house": "31",
      "postcode": "4900-456",
      "city": "VIANA DO CASTELO",
      "lon": "-8.825418718720556",
      "lat": "41.701376614726364"
    },
    {
      "id": "pt.ine.add.PTCONT.5157320",
      "street": "R MONÇÃO",
      "house": "21",
      "postcode": "4900-456",
      "city": "VIANA DO CASTELO",
      "lon": "-8.824928211779547",
      "lat": "41.70156864129829"
    },
    {
      "id": "pt.ine.add.PTCONT.5160116",
      "street": "R MONÇÃO",
      "house": "16",
      "postcode": "4900-456",
      "city": "VIANA DO CASTELO",
      "lon": "-8.825632441344625",
      "lat": "41.70114123706974"
    },
    {
      "id": "pt.ine.add.PTCONT.5166453",
      "street": "R PADRE AMÉRICO",
      "house": "28",
      "postcode": "4900-465",
      "city": "VIANA DO CASTELO",
      "lon": "-8.82622864228144",
      "lat": "41.700723483583836"
    },
    {
      "id": "pt.ine.add.PTCONT.5195016",
      "street": "R MONCAO",
      "house": "21",
      "postcode": "4900-456",
      "city": "VIANA DO CASTELO",
      "lon": "-8.825490120731292",
      "lat": "41.70131316034504"
    },
    {
      "id": "pt.ine.add.PTCONT.5195080",
      "street": "R MONCAO",
      "house": "29",
      "postcode": "4900-456",
      "city": "VIANA DO CASTELO",
      "lon": "-8.825490120731292",
      "lat": "41.70131316034504"
    },
    {
      "id": "pt.ine.add.PTCONT.5197880",
      "street": "R MONÇÃO",
      "house": "20",
      "postcode": "4900-456",
      "city": "VIANA DO CASTELO",
      "lon": "-8.825036039653199",
      "lat": "41.701540981737594"
    },
    {
      "id": "pt.ine.add.PTCONT.5197924",
      "street": "R PADRE AMÉRICO",
      "house": "26",
      "postcode": "4900-465",
      "city": "VIANA DO CASTELO",
      "lon": "-8.826156081617619",
      "lat": "41.70067890391038"
    },
    {
      "id": "pt.ine.add.PTCONT.5205044",
      "street": "R PADRE AMÉRICO",
      "house": "12",
      "postcode": "4900-465",
      "city": "VIANA DO CASTELO",
      "lon": "-8.825634794620141",
      "lat": "41.70024087699058"
    },
    {
      "id": "pt.ine.add.PTCONT.5206030",
      "street": "R MONÇÃO",
      "house": "19",
      "postcode": "4900-456",
      "city": "VIANA DO CASTELO",
      "lon": "-8.825180003076879",
      "lat": "41.701522107919715"
    },
    {
      "id": "pt.ine.add.PTCONT.5207208",
      "street": "R MONÇÃO",
      "house": "4",
      "postcode": "4900-456",
      "city": "VIANA DO CASTELO",
      "lon": "-8.824805236098856",
      "lat": "41.70018284889418"
    },
    {
      "id": "pt.ine.add.PTCONT.5210179",
      "street": "R VILA NOVA DE CERVEIRA",
      "house": "8",
      "postcode": "4900-447",
      "city": "VIANA DO CASTELO",
      "lon": "-8.825990897347944",
      "lat": "41.7009590072022"
    },
    {
      "id": "pt.ine.add.PTCONT.5211179",
      "street": "R MONÇÃO",
      "house": "17",
      "postcode": "4900-456",
      "city": "VIANA DO CASTELO",
      "lon": "-8.825561232838366",
      "lat": "41.70122269729125"
    },
    {
      "id": "pt.ine.add.PTCONT.5211180",
      "street": "R PADRE AMÉRICO",
      "house": "30",
      "postcode": "4900-465",
      "city": "VIANA DO CASTELO",
      "lon": "-8.826289190150833",
      "lat": "41.70076813567214"
    },
    {
      "id": "pt.ine.add.PTCONT.5213036",
      "street": "R PADRE AMERICO",
      "house": "2",
      "postcode": "4900-465",
      "city": "VIANA DO CASTELO",
      "lon": "-8.824815126328282",
      "lat": "41.699984713242095"
    },
    {
      "id": "pt.ine.add.PTCONT.5214819",
      "street": "R MONÇÃO",
      "house": "8",
      "postcode": "4900-456",
      "city": "VIANA DO CASTELO",
      "lon": "-8.825311318004363",
      "lat": "41.70032385701956"
    },
    {
      "id": "pt.ine.add.PTCONT.5214820",
      "street": "R MONÇÃO",
      "house": "12",
      "postcode": "4900-456",
      "city": "VIANA DO CASTELO",
      "lon": "-8.825602523256661",
      "lat": "41.70059220637795"
    },
    {
      "id": "pt.ine.add.PTCONT.5218359",
      "street": "R PADRE AMÉRICO",
      "house": "2",
      "postcode": "4900-465",
      "city": "VIANA DO CASTELO",
      "lon": "-8.825283527095024",
      "lat": "41.69997288947671"
    },
    {
      "id": "pt.ine.add.PTCONT.5224209",
      "street": "R VILA NOVA DE CERVEIRA",
      "house": "3",
      "postcode": "4900-447",
      "city": "VIANA DO CASTELO",
      "lon": "-8.825856629293158",
      "lat": "41.700761740582784"
    },
    {
      "id": "pt.ine.add.PTCONT.5227631",
      "street": "R MONCAO",
      "house": "14",
      "postcode": "4900-456",
      "city": "VIANA DO CASTELO",
      "lon": "-8.825702393783597",
      "lat": "41.700942739413115"
    },
    {
      "id": "pt.ine.add.PTCONT.5227632",
      "street": "R VILA NOVA CERVEIRA",
      "house": "14",
      "postcode": "4900-447",
      "city": "VIANA DO CASTELO",
      "lon": "-8.825702393783597",
      "lat": "41.700942739413115"
    },
    {
      "id": "pt.ine.add.PTCONT.5227663",
      "street": "R MONÇÃO",
      "house": "11",
      "postcode": "4900-456",
      "city": "VIANA DO CASTELO",
      "lon": "-8.825541203363164",
      "lat": "41.70047553090303"
    },
    {
      "id": "pt.ine.add.PTCONT.5227735",
      "street": "R PAREDES DE COURA",
      "house": "1",
      "postcode": "4900-455",
      "city": "VIANA DO CASTELO",
      "lon": "-8.824073805144655",
      "lat": "41.700313297502106"
    },
    {
      "id": "pt.ine.add.PTCONT.5231027",
      "street": "R MONÇÃO",
      "house": "15",
      "postcode": "4900-456",
      "city": "VIANA DO CASTELO",
      "lon": "-8.825691540116265",
      "lat": "41.701050846327846"
    },
    {
      "id": "pt.ine.add.PTCONT.5231052",
      "street": "R PADRE AMÉRICO",
      "house": "8",
      "postcode": "4900-465",
      "city": "VIANA DO CASTELO",
      "lon": "-8.825489385574567",
      "lat": "41.70012470819076"
    },
    {
      "id": "pt.ine.add.PTCONT.5231270",
      "street": "R MONÇÃO",
      "house": "15",
      "postcode": "4900-456",
      "city": "VIANA DO CASTELO",
      "lon": "-8.825691540116265",
      "lat": "41.701050846327846"
    },
    {
      "id": "pt.ine.add.PTCONT.5232280",
      "street": "R PADRE AMÉRICO",
      "house": "6",
      "postcode": "4900-465",
      "city": "VIANA DO CASTELO",
      "lon": "-8.825428838862425",
      "lat": "41.70008005566728"
    },
    {
      "id": "pt.ine.add.PTCONT.5233511",
      "street": "R MONÇÃO",
      "house": "9",
      "postcode": "4900-456",
      "city": "VIANA DO CASTELO",
      "lon": "-8.825663360373133",
      "lat": "41.700663867432006"
    },
    {
      "id": "pt.ine.add.PTCONT.5238374",
      "street": "R MONÇÃO",
      "house": "5",
      "postcode": "4900-456",
      "city": "VIANA DO CASTELO",
      "lon": "-8.824913447694986",
      "lat": "41.70019120097565"
    },
    {
      "id": "pt.ine.add.PTCONT.5240727",
      "street": "R PADRE AMÉRICO",
      "house": "2C",
      "postcode": "4900-465",
      "city": "VIANA DO CASTELO",
      "lon": "-8.825019150097445",
      "lat": "41.69996547810126"
    },
    {
      "id": "pt.ine.add.PTCONT.5240898",
      "street": "R VALENCA",
      "house": "3",
      "postcode": "4900-449",
      "city": "VIANA DO CASTELO",
      "lon": "-8.824552871069548",
      "lat": "41.70017536414656"
    },
    {
      "id": "pt.ine.add.PTCONT.5241900",
      "street": "R PAREDES DE COURA",
      "house": "3",
      "postcode": "4900-455",
      "city": "VIANA DO CASTELO",
      "lon": "-8.824146363973602",
      "lat": "41.70035787850728"
    },
    {
      "id": "pt.ine.add.PTCONT.5244064",
      "street": "R MONÇÃO",
      "house": "8",
      "postcode": "4900-456",
      "city": "VIANA DO CASTELO",
      "lon": "-8.825275431534545",
      "lat": "41.701458508975534"
    },
    {
      "id": "pt.ine.add.PTCONT.5244228",
      "street": "R PADRE AMÉRICO",
      "house": "14",
      "postcode": "4900-465",
      "city": "VIANA DO CASTELO",
      "lon": "-8.825719753664895",
      "lat": "41.70032139611206"
    },
    {
      "id": "pt.ine.add.PTCONT.5252429",
      "street": "R PADRE AMÉRICO",
      "house": "22",
      "postcode": "4900-465",
      "city": "VIANA DO CASTELO",
      "lon": "-8.826010670645212",
      "lat": "41.70056273579368"
    },
    {
      "id": "pt.ine.add.PTCONT.5254670",
      "street": "R MONÇÃO",
      "house": "6",
      "postcode": "4900-456",
      "city": "VIANA DO CASTELO",
      "lon": "-8.82510603842245",
      "lat": "41.70022605526526"
    },
    {
      "id": "pt.ine.add.PTCONT.5257218",
      "street": "R PADRE AMÉRICO",
      "house": "2D",
      "postcode": "4900-465",
      "city": "VIANA DO CASTELO",
      "lon": "-8.82513908452941",
      "lat": "41.699946749008106"
    },
    {
      "id": "pt.ine.add.PTCONT.5262710",
      "street": "R VILA NOVA DE CERVEIRA",
      "house": "10",
      "postcode": "4900-447",
      "city": "VIANA DO CASTELO",
      "lon": "-8.826062491648068",
      "lat": "41.700913558219995"
    },
    {
      "id": "pt.ine.add.PTCONT.5262729",
      "street": "R PADRE AMÉRICO",
      "house": "20",
      "postcode": "4900-465",
      "city": "VIANA DO CASTELO",
      "lon": "-8.825901588601463",
      "lat": "41.7004733588621"
    },
    {
      "id": "pt.ine.add.PTCONT.5263968",
      "street": "R PADRE AMÉRICO",
      "house": "10",
      "postcode": "4900-465",
      "city": "VIANA DO CASTELO",
      "lon": "-8.82556213832407",
      "lat": "41.700187294053336"
    },
    {
      "id": "pt.ine.add.PTCONT.5263969",
      "street": "R PADRE AMÉRICO",
      "house": "10",
      "postcode": "4900-465",
      "city": "VIANA DO CASTELO",
      "lon": "-8.82556213832407",
      "lat": "41.700187294053336"
    },
    {
      "id": "pt.ine.add.PTCONT.5271027",
      "street": "R VILA NOVA DE CERVEIRA",
      "house": "5",
      "postcode": "4900-447",
      "city": "VIANA DO CASTELO",
      "lon": "-8.825952732446963",
      "lat": "41.70076116121537"
    },
    {
      "id": "pt.ine.add.PTCONT.5273970",
      "street": "R MONÇÃO",
      "house": "10",
      "postcode": "4900-456",
      "city": "VIANA DO CASTELO",
      "lon": "-8.82545682375658",
      "lat": "41.70044902891727"
    },
    {
      "id": "pt.ine.add.PTCONT.5275810",
      "street": "R MONÇÃO",
      "house": "7",
      "postcode": "4900-456",
      "city": "VIANA DO CASTELO",
      "lon": "-8.825202526931506",
      "lat": "41.7002614880451"
    },
    {
      "id": "pt.ine.add.PTCONT.5280140",
      "street": "R PADRE AMÉRICO",
      "house": "18",
      "postcode": "4900-465",
      "city": "VIANA DO CASTELO",
      "lon": "-8.82585286085772",
      "lat": "41.70041062839497"
    },
    {
      "id": "pt.ine.add.PTCONT.5282447",
      "street": "R PADRE AMÉRICO",
      "house": "2B",
      "postcode": "4900-465",
      "city": "VIANA DO CASTELO",
      "lon": "-8.824911035360623",
      "lat": "41.69996612899561"
    }
  ]
}