{
  "data": {
    "distrito": "Set√∫bal",
    "concelho": "Seixal",
    "freguesia": "Corroios",
    "OBJECTID": 1073,
    "BGRI2021": "15100503513",
    "DT21": "15",
    "DTMN21": "1510",
    "DTMNFR21": "151005",
    "DTMNFRSEC21": "151005035",
    "SECNUM21": "035",
    "SSNUM21": "13",
    "SECSSNUM21": "03513",
    "OBJECTID_1": 168382,
    "DT": "15",
    "CC": "10",
    "fr": "05",
    "SEC": "035",
    "SS": "13"
  },
  "addresses": [
    {
      "id": "pt.ine.add.PTCONT.4744794",
      "street": "R VIEIRA PORTUENSE",
      "house": "18",
      "postcode": "2855-564",
      "city": "CORROIOS",
      "lon": "-9.16297306523048",
      "lat": "38.60456619303834"
    },
    {
      "id": "pt.ine.add.PTCONT.4820957",
      "street": "R VIEIRA PORTUENSE",
      "house": "22",
      "postcode": "2855-564",
      "city": "CORROIOS",
      "lon": "-9.163143952662699",
      "lat": "38.60447460850433"
    },
    {
      "id": "pt.ine.add.PTCONT.4827751",
      "street": "R VIEIRA PORTUENSE",
      "house": "12",
      "postcode": "2855-564",
      "city": "CORROIOS",
      "lon": "-9.162730218094405",
      "lat": "38.60444221760965"
    },
    {
      "id": "pt.ine.add.PTCONT.4947193",
      "street": "R VIEIRA PORTUENSE",
      "house": "16",
      "postcode": "2855-564",
      "city": "CORROIOS",
      "lon": "-9.16288226837621",
      "lat": "38.60463905643726"
    },
    {
      "id": "pt.ine.add.PTCONT.4947194",
      "street": "AL DIEGO VELASQUEZ",
      "house": "203",
      "postcode": "2855-513",
      "city": "CORROIOS",
      "lon": "-9.162769286928578",
      "lat": "38.60476616321117"
    },
    {
      "id": "pt.ine.add.PTCONT.4956209",
      "street": "R VIEIRA PORTUENSE",
      "house": "8",
      "postcode": "2855-564",
      "city": "CORROIOS",
      "lon": "-9.162634401796833",
      "lat": "38.60416381146922"
    },
    {
      "id": "pt.ine.add.PTCONT.5032421",
      "street": "R VIEIRA PORTUENSE",
      "house": "24",
      "postcode": "2855-564",
      "city": "CORROIOS",
      "lon": "-9.163211792419244",
      "lat": "38.60440194700314"
    },
    {
      "id": "pt.ine.add.PTCONT.5123447",
      "street": "R VIEIRA PORTUENSE",
      "house": "10",
      "postcode": "2855-564",
      "city": "CORROIOS",
      "lon": "-9.162682116790245",
      "lat": "38.60428950419247"
    }
  ]
}