{
  "data": {
    "distrito": "Setúbal",
    "concelho": "Seixal",
    "freguesia": "Corroios",
    "OBJECTID": 1471,
    "BGRI2021": "15100503520",
    "DT21": "15",
    "DTMN21": "1510",
    "DTMNFR21": "151005",
    "DTMNFRSEC21": "151005035",
    "SECNUM21": "035",
    "SSNUM21": "20",
    "SECSSNUM21": "03520",
    "OBJECTID_1": 167704,
    "DT": "15",
    "CC": "10",
    "fr": "05",
    "SEC": "035",
    "SS": "20"
  },
  "addresses": [
    {
      "id": "pt.ine.add.PTCONT.4664245",
      "street": "R AFONSO LOPES VIEIRA",
      "house": "20",
      "postcode": "2855-526",
      "city": "CORROIOS",
      "lon": "-9.159926682152475",
      "lat": "38.60426867596084"
    },
    {
      "id": "pt.ine.add.PTCONT.4701958",
      "street": "R ARMINDO RODRIGUES",
      "house": "83",
      "postcode": "2855-359",
      "city": "CORROIOS",
      "lon": "-9.159883024942514",
      "lat": "38.60523291933285"
    },
    {
      "id": "pt.ine.add.PTCONT.4702240",
      "street": "R AFONSO LOPES VIEIRA",
      "house": "22",
      "postcode": "2855-526",
      "city": "CORROIOS",
      "lon": "-9.1599018001639",
      "lat": "38.60413377369086"
    },
    {
      "id": "pt.ine.add.PTCONT.4739272",
      "street": "R AFONSO LOPES VIEIRA",
      "house": "32",
      "postcode": "2855-526",
      "city": "CORROIOS",
      "lon": "-9.159834012494718",
      "lat": "38.60340471714665"
    },
    {
      "id": "pt.ine.add.PTCONT.4743389",
      "street": "R ARMINDO RODRIGUES",
      "house": "10",
      "postcode": "2855-359",
      "city": "CORROIOS",
      "lon": "-9.15968627943408",
      "lat": "38.604315825502034"
    },
    {
      "id": "pt.ine.add.PTCONT.4764776",
      "street": "R AFONSO LOPES VIEIRA",
      "house": "4",
      "postcode": "2855-526",
      "city": "CORROIOS",
      "lon": "-9.160182748789607",
      "lat": "38.60532036929163"
    },
    {
      "id": "pt.ine.add.PTCONT.4793978",
      "street": "R AFONSO LOPES VIEIRA",
      "house": "42",
      "postcode": "2855-526",
      "city": "CORROIOS",
      "lon": "-9.159778602766757",
      "lat": "38.6027386081685"
    },
    {
      "id": "pt.ine.add.PTCONT.4805265",
      "street": "R AFONSO LOPES VIEIRA",
      "house": "36",
      "postcode": "2855-526",
      "city": "CORROIOS",
      "lon": "-9.159749430258184",
      "lat": "38.603108193874775"
    },
    {
      "id": "pt.ine.add.PTCONT.4810027",
      "street": "R ARMINDO RODRIGUES",
      "house": "87",
      "postcode": "2855-359",
      "city": "CORROIOS",
      "lon": "-9.159846792582318",
      "lat": "38.60510712471124"
    },
    {
      "id": "pt.ine.add.PTCONT.4845806",
      "street": "R ARMINDO RODRIGUES",
      "house": "89",
      "postcode": "2855-359",
      "city": "CORROIOS",
      "lon": "-9.159833003772965",
      "lat": "38.60494510098849"
    },
    {
      "id": "pt.ine.add.PTCONT.4861811",
      "street": "R AFONSO LOPES VIEIRA",
      "house": "6",
      "postcode": "2855-526",
      "city": "CORROIOS",
      "lon": "-9.160157865915318",
      "lat": "38.60518546711168"
    },
    {
      "id": "pt.ine.add.PTCONT.4927386",
      "street": "R AFONSO LOPES VIEIRA",
      "house": "40",
      "postcode": "2855-526",
      "city": "CORROIOS",
      "lon": "-9.159745580245104",
      "lat": "38.60283798637123"
    },
    {
      "id": "pt.ine.add.PTCONT.4946993",
      "street": "TV LUIS LEITÃO",
      "house": "",
      "postcode": "2855-682",
      "city": "CORROIOS",
      "lon": "-9.159760723927645",
      "lat": "38.60390080247779"
    },
    {
      "id": "pt.ine.add.PTCONT.4956206",
      "street": "R AFONSO LOPES VIEIRA",
      "house": "30",
      "postcode": "2855-526",
      "city": "CORROIOS",
      "lon": "-9.15982356109167",
      "lat": "38.6034768731864"
    },
    {
      "id": "pt.ine.add.PTCONT.5003278",
      "street": "R AFONSO LOPES VIEIRA",
      "house": "18",
      "postcode": "2855-526",
      "city": "CORROIOS",
      "lon": "-9.160017760248278",
      "lat": "38.60454583689846"
    },
    {
      "id": "pt.ine.add.PTCONT.5029576",
      "street": "R AFONSO LOPES VIEIRA",
      "house": "34",
      "postcode": "2855-526",
      "city": "CORROIOS",
      "lon": "-9.159877486474441",
      "lat": "38.60323318288175"
    },
    {
      "id": "pt.ine.add.PTCONT.5043781",
      "street": "AL DIEGO VELASQUEZ",
      "house": "179",
      "postcode": "2855-513",
      "city": "CORROIOS",
      "lon": "-9.160163001769686",
      "lat": "38.60554574358872"
    },
    {
      "id": "pt.ine.add.PTCONT.5065826",
      "street": "R AFONSO LOPES VIEIRA",
      "house": "38",
      "postcode": "2855-526",
      "city": "CORROIOS",
      "lon": "-9.159760010026064",
      "lat": "38.6030450447535"
    },
    {
      "id": "pt.ine.add.PTCONT.5090886",
      "street": "R ARMINDO RODRIGUES",
      "house": "11",
      "postcode": "2855-359",
      "city": "CORROIOS",
      "lon": "-9.159710647747087",
      "lat": "38.60441470015987"
    }
  ]
}