{
  "data": {
    "distrito": "Setúbal",
    "concelho": "Seixal",
    "freguesia": "Corroios",
    "OBJECTID": 285,
    "BGRI2021": "15100503539",
    "DT21": "15",
    "DTMN21": "1510",
    "DTMNFR21": "151005",
    "DTMNFRSEC21": "151005035",
    "SECNUM21": "035",
    "SSNUM21": "39",
    "SECSSNUM21": "03539",
    "OBJECTID_1": 168388,
    "DT": "15",
    "CC": "10",
    "fr": "05",
    "SEC": "035",
    "SS": "39"
  },
  "addresses": [
    {
      "id": "pt.ine.add.PTCONT.4666265",
      "street": "R NORBERTO ARAÚJO",
      "house": "30",
      "postcode": "2855-546",
      "city": "CORROIOS",
      "lon": "-9.162219784501694",
      "lat": "38.60728423950405"
    },
    {
      "id": "pt.ine.add.PTCONT.4695420",
      "street": "R NORBERTO ARAÚJO",
      "house": "6",
      "postcode": "2855-546",
      "city": "CORROIOS",
      "lon": "-9.160968382473898",
      "lat": "38.60647550762758"
    },
    {
      "id": "pt.ine.add.PTCONT.4712964",
      "street": "PCT SIDÓNIO MURALHA",
      "house": "12",
      "postcode": "2855-522",
      "city": "CORROIOS",
      "lon": "-9.160761895223901",
      "lat": "38.606486329320965"
    },
    {
      "id": "pt.ine.add.PTCONT.4789456",
      "street": "R NORBERTO ARAÚJO",
      "house": "10",
      "postcode": "2855-546",
      "city": "CORROIOS",
      "lon": "-9.161075288782857",
      "lat": "38.60672679350668"
    },
    {
      "id": "pt.ine.add.PTCONT.4793400",
      "street": "AV MARISOL",
      "house": "302",
      "postcode": "2855-515",
      "city": "CORROIOS",
      "lon": "-9.16234929441064",
      "lat": "38.606706586145215"
    },
    {
      "id": "pt.ine.add.PTCONT.4793434",
      "street": "AV MARISOL",
      "house": "302",
      "postcode": "2855-515",
      "city": "CORROIOS",
      "lon": "-9.16234929441064",
      "lat": "38.606706586145215"
    },
    {
      "id": "pt.ine.add.PTCONT.4824972",
      "street": "R NORBERTO ARAÚJO",
      "house": "4",
      "postcode": "2855-546",
      "city": "CORROIOS",
      "lon": "-9.160999605775627",
      "lat": "38.60625003242771"
    },
    {
      "id": "pt.ine.add.PTCONT.4898237",
      "street": "TV LUIS MAGALHÃES",
      "house": "2",
      "postcode": "2855-570",
      "city": "CORROIOS",
      "lon": "-9.16206801718823",
      "lat": "38.60630369832594"
    },
    {
      "id": "pt.ine.add.PTCONT.4903013",
      "street": "R NORBERTO ARAÚJO",
      "house": "8",
      "postcode": "2855-546",
      "city": "CORROIOS",
      "lon": "-9.161004617526716",
      "lat": "38.60660130183624"
    },
    {
      "id": "pt.ine.add.PTCONT.4920685",
      "street": "R NORBERTO ARAÚJO",
      "house": "36",
      "postcode": "2855-546",
      "city": "CORROIOS",
      "lon": "-9.162190522693098",
      "lat": "38.60684310313964"
    },
    {
      "id": "pt.ine.add.PTCONT.4942315",
      "street": "R NORBERTO ARAÚJO",
      "house": "12",
      "postcode": "2855-546",
      "city": "CORROIOS",
      "lon": "-9.161123002868367",
      "lat": "38.60685248682564"
    },
    {
      "id": "pt.ine.add.PTCONT.4963562",
      "street": "PCT SIDÓNIO MURALHA",
      "house": "13",
      "postcode": "2855-522",
      "city": "CORROIOS",
      "lon": "-9.160787165171982",
      "lat": "38.60664825204561"
    },
    {
      "id": "pt.ine.add.PTCONT.4970702",
      "street": "AV MARISOL",
      "house": "300",
      "postcode": "2855-515",
      "city": "CORROIOS",
      "lon": "-9.162362831941893",
      "lat": "38.606850595633496"
    },
    {
      "id": "pt.ine.add.PTCONT.5003277",
      "street": "AL MIGUEL TORGA",
      "house": "267",
      "postcode": "2855-514",
      "city": "CORROIOS",
      "lon": "-9.162497591648064",
      "lat": "38.60744394047534"
    },
    {
      "id": "pt.ine.add.PTCONT.5026107",
      "street": "AV MARISOL",
      "house": "292",
      "postcode": "2855-675",
      "city": "CORROIOS",
      "lon": "-9.162588006242629",
      "lat": "38.607344056649076"
    },
    {
      "id": "pt.ine.add.PTCONT.5026253",
      "street": "R NORBERTO ARAÚJO",
      "house": "32",
      "postcode": "2855-546",
      "city": "CORROIOS",
      "lon": "-9.16218328965014",
      "lat": "38.60714043191344"
    },
    {
      "id": "pt.ine.add.PTCONT.5066500",
      "street": "R NORBERTO ARAÚJO",
      "house": "40",
      "postcode": "2855-546",
      "city": "CORROIOS",
      "lon": "-9.16212901240442",
      "lat": "38.60655538694912"
    },
    {
      "id": "pt.ine.add.PTCONT.5080723",
      "street": "R NORBERTO ARAÚJO",
      "house": "14",
      "postcode": "2855-546",
      "city": "CORROIOS",
      "lon": "-9.16111345199548",
      "lat": "38.606987691275116"
    },
    {
      "id": "pt.ine.add.PTCONT.5084443",
      "street": "R NORBERTO ARAÚJO",
      "house": "34",
      "postcode": "2855-546",
      "city": "CORROIOS",
      "lon": "-9.1621698810649",
      "lat": "38.607005429310924"
    },
    {
      "id": "pt.ine.add.PTCONT.5114762",
      "street": "PCT SIDÓNIO MURALHA",
      "house": "14",
      "postcode": "2855-522",
      "city": "CORROIOS",
      "lon": "-9.160779283931694",
      "lat": "38.60690054628338"
    }
  ]
}