{
  "data": {
    "distrito": "Porto",
    "concelho": "Lousada",
    "freguesia": "Uni√£o das freguesias de Nespereira e Casais",
    "OBJECTID": 506,
    "BGRI2021": "13053100218",
    "DT21": "13",
    "DTMN21": "1305",
    "DTMNFR21": "130531",
    "DTMNFRSEC21": "130531002",
    "SECNUM21": "002",
    "SSNUM21": "18",
    "SECSSNUM21": "00218",
    "OBJECTID_1": 129984,
    "DT": "13",
    "CC": "05",
    "fr": "31",
    "SEC": "002",
    "SS": "18"
  },
  "addresses": [
    {
      "id": "pt.ine.add.PTCONT.3701910",
      "street": "R PARQUE DE LAZER",
      "house": "250",
      "postcode": "4620-093",
      "city": "CASAIS LSD",
      "lon": "-8.308501483075776",
      "lat": "41.271583739019846"
    },
    {
      "id": "pt.ine.add.PTCONT.3760285",
      "street": "TV COURELA",
      "house": "2",
      "postcode": "4620-007",
      "city": "CASAIS LSD",
      "lon": "-8.31185422667874",
      "lat": "41.275621468766765"
    },
    {
      "id": "pt.ine.add.PTCONT.3760289",
      "street": "R PACO",
      "house": "351",
      "postcode": "4620-012",
      "city": "CASAIS LSD",
      "lon": "-8.305375703585852",
      "lat": "41.27201165609875"
    },
    {
      "id": "pt.ine.add.PTCONT.3776640",
      "street": "R PORTELA",
      "house": "38",
      "postcode": "4620-090",
      "city": "CASAIS LSD",
      "lon": "-8.30909887099609",
      "lat": "41.27182594090161"
    },
    {
      "id": "pt.ine.add.PTCONT.3831554",
      "street": "R COURELA",
      "house": "36",
      "postcode": "4620-007",
      "city": "CASAIS LSD",
      "lon": "-8.311570057038395",
      "lat": "41.27645929995021"
    },
    {
      "id": "pt.ine.add.PTCONT.3831558",
      "street": "R PARQUE LAZER",
      "house": "2",
      "postcode": "4620-093",
      "city": "CASAIS LSD",
      "lon": "-8.305518423470723",
      "lat": "41.27182235417608"
    },
    {
      "id": "pt.ine.add.PTCONT.3841791",
      "street": "R COURELA",
      "house": "328",
      "postcode": "4620-007",
      "city": "CASAIS LSD",
      "lon": "-8.312081737763625",
      "lat": "41.275891241240195"
    },
    {
      "id": "pt.ine.add.PTCONT.3915919",
      "street": "R PORTELA",
      "house": "24",
      "postcode": "4620-090",
      "city": "CASAIS LSD",
      "lon": "-8.309003296366477",
      "lat": "41.27179007014357"
    },
    {
      "id": "pt.ine.add.PTCONT.3934835",
      "street": "R RIBEIRA",
      "house": "192",
      "postcode": "4620-012",
      "city": "CASAIS LSD",
      "lon": "-8.306295240592226",
      "lat": "41.276737481603824"
    },
    {
      "id": "pt.ine.add.PTCONT.3943988",
      "street": "R PORTELA",
      "house": "20",
      "postcode": "4620-090",
      "city": "CASAIS LSD",
      "lon": "-8.30888406974557",
      "lat": "41.27183527325524"
    },
    {
      "id": "pt.ine.add.PTCONT.4004732",
      "street": "R COURELA",
      "house": "308",
      "postcode": "4620-007",
      "city": "CASAIS LSD",
      "lon": "-8.312057276603067",
      "lat": "41.27567517852272"
    },
    {
      "id": "pt.ine.add.PTCONT.4031362",
      "street": "TV COURELA",
      "house": "14",
      "postcode": "4620-007",
      "city": "CASAIS LSD",
      "lon": "-8.311460724989768",
      "lat": "41.275757142003805"
    },
    {
      "id": "pt.ine.add.PTCONT.4064490",
      "street": "R CARCERE",
      "house": "10",
      "postcode": "4620-090",
      "city": "CASAIS LSD",
      "lon": "-8.311286772796892",
      "lat": "41.27323623546016"
    },
    {
      "id": "pt.ine.add.PTCONT.4162661",
      "street": "R COURELA",
      "house": "296",
      "postcode": "4620-007",
      "city": "CASAIS LSD",
      "lon": "-8.312128348042394",
      "lat": "41.27547697567802"
    },
    {
      "id": "pt.ine.add.PTCONT.4188472",
      "street": "R PORTELA",
      "house": "",
      "postcode": "4620-090",
      "city": "CASAIS LSD",
      "lon": "-8.308633223012942",
      "lat": "41.27175461812779"
    },
    {
      "id": "pt.ine.add.PTCONT.4295969",
      "street": "R HORTAS",
      "house": "",
      "postcode": "4620-091",
      "city": "CASAIS LSD",
      "lon": "-8.311099848366487",
      "lat": "41.27472221767211"
    },
    {
      "id": "pt.ine.add.PTCONT.4379238",
      "street": "R COURELA",
      "house": "",
      "postcode": "4620-007",
      "city": "CASAIS LSD",
      "lon": "-8.311856191782795",
      "lat": "41.27634180149597"
    }
  ]
}