{
  "data": {
    "distrito": "Évora",
    "concelho": "Évora",
    "freguesia": "União das freguesias de Malagueira e Horta das Figueiras",
    "OBJECTID": 1528,
    "BGRI2021": "07052401306",
    "DT21": "07",
    "DTMN21": "0705",
    "DTMNFR21": "070524",
    "DTMNFRSEC21": "070524013",
    "SECNUM21": "013",
    "SSNUM21": "06",
    "SECSSNUM21": "01306",
    "OBJECTID_1": 61050,
    "DT": "07",
    "CC": "05",
    "fr": "24",
    "SEC": "013",
    "SS": "06"
  },
  "addresses": [
    {
      "id": "pt.ine.add.PTCONT.1371702",
      "street": "AZ 4 OLHOS - QUINTA DA SENHORA DO Ó - MONTE DO COTÃO",
      "house": "",
      "postcode": "7000-171",
      "city": "ÉVORA",
      "lon": "-7.950610338220161",
      "lat": "38.558166499670364"
    },
    {
      "id": "pt.ine.add.PTCONT.1400744",
      "street": "QTA QUATRO OLHOS",
      "house": "",
      "postcode": "7000-171",
      "city": "ÉVORA",
      "lon": "-7.953621106648647",
      "lat": "38.55619830889796"
    },
    {
      "id": "pt.ine.add.PTCONT.1400746",
      "street": "QTA QUATRO OLHOS",
      "house": "",
      "postcode": "7000-171",
      "city": "ÉVORA",
      "lon": "-7.953621106648647",
      "lat": "38.55619830889796"
    },
    {
      "id": "pt.ine.add.PTCONT.1408770",
      "street": "ESTR STO ANTONICO - QUINTA DA ADOA",
      "house": "",
      "postcode": "7000-171",
      "city": "ÉVORA",
      "lon": "-7.950143060858587",
      "lat": "38.556940624327076"
    },
    {
      "id": "pt.ine.add.PTCONT.1419708",
      "street": "AZ DOS 4 OLHOS - QUINTA DA SENHORA DO Ó",
      "house": "",
      "postcode": "7000-171",
      "city": "ÉVORA",
      "lon": "-7.95276165672622",
      "lat": "38.56039491430182"
    },
    {
      "id": "pt.ine.add.PTCONT.1433388",
      "street": "QTA ARGENTE",
      "house": "",
      "postcode": "7000-173",
      "city": "",
      "lon": "-7.959192727409164",
      "lat": "38.55712042991851"
    },
    {
      "id": "pt.ine.add.PTCONT.1437119",
      "street": "QTA HOMEM MORTO",
      "house": "",
      "postcode": "7000-171",
      "city": "ÉVORA",
      "lon": "-7.94864195114091",
      "lat": "38.55623561129656"
    },
    {
      "id": "pt.ine.add.PTCONT.1437120",
      "street": "QTA HOMEM MORTO",
      "house": "",
      "postcode": "7000-171",
      "city": "ÉVORA",
      "lon": "-7.94864195114091",
      "lat": "38.55623561129656"
    }
  ]
}