{
  "data": {
    "distrito": "Santarém",
    "concelho": "Abrantes",
    "freguesia": "União das freguesias de Abrantes (São Vicente e São João) e Alferrarede",
    "OBJECTID": 1053,
    "BGRI2021": "14012001612",
    "DT21": "14",
    "DTMN21": "1401",
    "DTMNFR21": "140120",
    "DTMNFRSEC21": "140120016",
    "SECNUM21": "016",
    "SSNUM21": "12",
    "SECSSNUM21": "01612",
    "OBJECTID_1": 147455,
    "DT": "14",
    "CC": "01",
    "fr": "20",
    "SEC": "016",
    "SS": "12"
  },
  "addresses": [
    {
      "id": "pt.ine.add.PTCONT.4424683",
      "street": "R SANTO CONDESTAVEL",
      "house": "120",
      "postcode": "2200-164",
      "city": "ABRANTES",
      "lon": "-8.201192273079872",
      "lat": "39.47774327401621"
    },
    {
      "id": "pt.ine.add.PTCONT.4424684",
      "street": "R STO CONDESTAVEL",
      "house": "76 A",
      "postcode": "2200-164",
      "city": "ABRANTES",
      "lon": "-8.201192273079872",
      "lat": "39.47774327401621"
    },
    {
      "id": "pt.ine.add.PTCONT.4435622",
      "street": "R SANTO CONDESTAVEL",
      "house": "116",
      "postcode": "2200-164",
      "city": "ABRANTES",
      "lon": "-8.200715389348458",
      "lat": "39.477365257790034"
    },
    {
      "id": "pt.ine.add.PTCONT.4435623",
      "street": "R STO CONDESTAVEL",
      "house": "",
      "postcode": "2200-164",
      "city": "ABRANTES",
      "lon": "-8.200715389348458",
      "lat": "39.477365257790034"
    },
    {
      "id": "pt.ine.add.PTCONT.4439132",
      "street": "R MARTIM MONIZ",
      "house": "127",
      "postcode": "2200-169",
      "city": "ABRANTES",
      "lon": "-8.200739000305942",
      "lat": "39.47774353851578"
    },
    {
      "id": "pt.ine.add.PTCONT.4439133",
      "street": "R MARTIM MONIZ",
      "house": "127",
      "postcode": "2200-169",
      "city": "ABRANTES",
      "lon": "-8.200739000305942",
      "lat": "39.47774353851578"
    },
    {
      "id": "pt.ine.add.PTCONT.4448858",
      "street": "R STO CONDESTÁVEL",
      "house": "115",
      "postcode": "2200-164",
      "city": "ABRANTES",
      "lon": "-8.200599044333575",
      "lat": "39.47723922721519"
    },
    {
      "id": "pt.ine.add.PTCONT.4448871",
      "street": "R STO CONDESTÁVEL",
      "house": "115",
      "postcode": "2200-164",
      "city": "ABRANTES",
      "lon": "-8.200599044333575",
      "lat": "39.47723922721519"
    },
    {
      "id": "pt.ine.add.PTCONT.4452845",
      "street": "QTA DA CHAINÇA",
      "house": "",
      "postcode": "2200-164",
      "city": "ABRANTES",
      "lon": "-8.202064742966735",
      "lat": "39.478544383806586"
    },
    {
      "id": "pt.ine.add.PTCONT.4452846",
      "street": "QTA DA CHAINÇA",
      "house": "",
      "postcode": "2200-164",
      "city": "ABRANTES",
      "lon": "-8.202064742966735",
      "lat": "39.478544383806586"
    },
    {
      "id": "pt.ine.add.PTCONT.4457046",
      "street": "R STO CONDESTÁVEL",
      "house": "164",
      "postcode": "2200-164",
      "city": "ABRANTES",
      "lon": "-8.201808808476466",
      "lat": "39.478301346035884"
    },
    {
      "id": "pt.ine.add.PTCONT.4458490",
      "street": "R MARTIM MONIZ",
      "house": "124",
      "postcode": "2200-169",
      "city": "ABRANTES",
      "lon": "-8.200401682279994",
      "lat": "39.47746451687146"
    },
    {
      "id": "pt.ine.add.PTCONT.4458491",
      "street": "R MARTIM MONIZ",
      "house": "124",
      "postcode": "2200-169",
      "city": "ABRANTES",
      "lon": "-8.200401682279994",
      "lat": "39.47746451687146"
    },
    {
      "id": "pt.ine.add.PTCONT.4465448",
      "street": "R STO CONDESTÁVEL",
      "house": "121",
      "postcode": "2200-164",
      "city": "ABRANTES",
      "lon": "-8.201320216013753",
      "lat": "39.47784227615246"
    },
    {
      "id": "pt.ine.add.PTCONT.4465449",
      "street": "R STO CONDESTÁVEL",
      "house": "121",
      "postcode": "2200-164",
      "city": "ABRANTES",
      "lon": "-8.201320216013753",
      "lat": "39.47784227615246"
    },
    {
      "id": "pt.ine.add.PTCONT.4471713",
      "street": "R STO CONDESTÁVEL",
      "house": "117",
      "postcode": "2200-164",
      "city": "ABRANTES",
      "lon": "-8.20083170858141",
      "lat": "39.47746426722778"
    },
    {
      "id": "pt.ine.add.PTCONT.4471714",
      "street": "R STO CONDESTÁVEL",
      "house": "117",
      "postcode": "2200-164",
      "city": "ABRANTES",
      "lon": "-8.20083170858141",
      "lat": "39.47746426722778"
    },
    {
      "id": "pt.ine.add.PTCONT.4476028",
      "street": "R MARTIM MONIZ",
      "house": "123",
      "postcode": "2200-169",
      "city": "ABRANTES",
      "lon": "-8.200285346328647",
      "lat": "39.47734749299071"
    },
    {
      "id": "pt.ine.add.PTCONT.4476029",
      "street": "R MARTIM MONIZ",
      "house": "123",
      "postcode": "2200-169",
      "city": "ABRANTES",
      "lon": "-8.200285346328647",
      "lat": "39.47734749299071"
    },
    {
      "id": "pt.ine.add.PTCONT.4506105",
      "street": "R MARTIM MONIZ",
      "house": "168",
      "postcode": "2200-169",
      "city": "ABRANTES",
      "lon": "-8.201460213668552",
      "lat": "39.478382614544564"
    },
    {
      "id": "pt.ine.add.PTCONT.4506106",
      "street": "R MARTIM MONIZ",
      "house": "168",
      "postcode": "2200-169",
      "city": "ABRANTES",
      "lon": "-8.201460213668552",
      "lat": "39.478382614544564"
    },
    {
      "id": "pt.ine.add.PTCONT.4517938",
      "street": "R MARTIM MONIZ",
      "house": "170",
      "postcode": "2200-169",
      "city": "ABRANTES",
      "lon": "-8.201681217761312",
      "lat": "39.47856262461838"
    },
    {
      "id": "pt.ine.add.PTCONT.4517939",
      "street": "R MARTIM MONIZ",
      "house": "170",
      "postcode": "2200-169",
      "city": "ABRANTES",
      "lon": "-8.201681217761312",
      "lat": "39.47856262461838"
    },
    {
      "id": "pt.ine.add.PTCONT.4533905",
      "street": "R STO CONDESTÁVEL",
      "house": "118",
      "postcode": "2200-164",
      "city": "ABRANTES",
      "lon": "-8.200948019395181",
      "lat": "39.477554269541486"
    },
    {
      "id": "pt.ine.add.PTCONT.4533919",
      "street": "R STO CONDESTÁVEL",
      "house": "118",
      "postcode": "2200-164",
      "city": "ABRANTES",
      "lon": "-8.200948019395181",
      "lat": "39.477554269541486"
    },
    {
      "id": "pt.ine.add.PTCONT.4540445",
      "street": "R MARTIM MONIZ",
      "house": "129",
      "postcode": "2200-169",
      "city": "ABRANTES",
      "lon": "-8.20099488525375",
      "lat": "39.477941543644"
    },
    {
      "id": "pt.ine.add.PTCONT.4565487",
      "street": "R MARTIM MONIZ",
      "house": "125",
      "postcode": "2200-169",
      "city": "ABRANTES",
      "lon": "-8.200517992540624",
      "lat": "39.47755451961572"
    },
    {
      "id": "pt.ine.add.PTCONT.4565488",
      "street": "R MARTIM MONIZ",
      "house": "125",
      "postcode": "2200-169",
      "city": "ABRANTES",
      "lon": "-8.200517992540624",
      "lat": "39.47755451961572"
    },
    {
      "id": "pt.ine.add.PTCONT.4577800",
      "street": "R MARTIM MONIZ",
      "house": "128",
      "postcode": "2200-169",
      "city": "ABRANTES",
      "lon": "-8.200878547513524",
      "lat": "39.47782452036791"
    },
    {
      "id": "pt.ine.add.PTCONT.4600725",
      "street": "R MARTIM MONIZ",
      "house": "130",
      "postcode": "2200-169",
      "city": "ABRANTES",
      "lon": "-8.201122828271759",
      "lat": "39.47804054599396"
    },
    {
      "id": "pt.ine.add.PTCONT.4600827",
      "street": "R MARTIM MONIZ",
      "house": "130",
      "postcode": "2200-169",
      "city": "ABRANTES",
      "lon": "-8.201122828271759",
      "lat": "39.47804054599396"
    },
    {
      "id": "pt.ine.add.PTCONT.4602321",
      "street": "R STO CONDESTÁVEL",
      "house": "163",
      "postcode": "2200-164",
      "city": "ABRANTES",
      "lon": "-8.201936753306876",
      "lat": "39.478400347482605"
    },
    {
      "id": "pt.ine.add.PTCONT.4602322",
      "street": "R STO CONDESTÁVEL",
      "house": "163",
      "postcode": "2200-164",
      "city": "ABRANTES",
      "lon": "-8.201936753306876",
      "lat": "39.478400347482605"
    },
    {
      "id": "pt.ine.add.PTCONT.4627260",
      "street": "R STO CONDESTÁVEL",
      "house": "122",
      "postcode": "2200-164",
      "city": "ABRANTES",
      "lon": "-8.20145979935228",
      "lat": "39.47795928532505"
    },
    {
      "id": "pt.ine.add.PTCONT.4627261",
      "street": "R STO CONDESTÁVEL",
      "house": "122",
      "postcode": "2200-164",
      "city": "ABRANTES",
      "lon": "-8.20145979935228",
      "lat": "39.47795928532505"
    },
    {
      "id": "pt.ine.add.PTCONT.4629352",
      "street": "R STO CONDESTÁVEL",
      "house": "119",
      "postcode": "2200-164",
      "city": "ABRANTES",
      "lon": "-8.201064321744683",
      "lat": "39.47763526473163"
    },
    {
      "id": "pt.ine.add.PTCONT.4629353",
      "street": "R STO CONDESTÁVEL",
      "house": "119",
      "postcode": "2200-164",
      "city": "ABRANTES",
      "lon": "-8.201064321744683",
      "lat": "39.47763526473163"
    },
    {
      "id": "pt.ine.add.PTCONT.4633992",
      "street": "R MARTIM MONIZ",
      "house": "169",
      "postcode": "2200-169",
      "city": "ABRANTES",
      "lon": "-8.201576517992166",
      "lat": "39.47846360920915"
    },
    {
      "id": "pt.ine.add.PTCONT.4633993",
      "street": "R MARTIM MONIZ",
      "house": "169",
      "postcode": "2200-169",
      "city": "ABRANTES",
      "lon": "-8.201576517992166",
      "lat": "39.47846360920915"
    }
  ]
}