{
  "data": {
    "distrito": "Coimbra",
    "concelho": "Penacova",
    "freguesia": "União das freguesias de São Pedro de Alva e São Paio de Mondego",
    "OBJECTID": 412,
    "BGRI2021": "06131400113",
    "DT21": "06",
    "DTMN21": "0613",
    "DTMNFR21": "061314",
    "DTMNFRSEC21": "061314001",
    "SECNUM21": "001",
    "SSNUM21": "13",
    "SECSSNUM21": "00113",
    "OBJECTID_1": 55566,
    "DT": "06",
    "CC": "13",
    "fr": "14",
    "SEC": "001",
    "SS": "13"
  },
  "addresses": [
    {
      "id": "pt.ine.add.PTCONT.1103398",
      "street": "R DAVID UBALDO LEITÃO",
      "house": "11",
      "postcode": "3360-258",
      "city": "SÃO PEDRO DE ALVA",
      "lon": "-8.166006647950383",
      "lat": "40.29954496305191"
    },
    {
      "id": "pt.ine.add.PTCONT.1109624",
      "street": "LG ENG MAURÍCIO VIEIRA DE BRITO",
      "house": "2",
      "postcode": "3360-253",
      "city": "SÃO PEDRO DE ALVA",
      "lon": "-8.165361176962174",
      "lat": "40.30257106976766"
    },
    {
      "id": "pt.ine.add.PTCONT.1130268",
      "street": "R VALE DA RIBEIRA",
      "house": "6",
      "postcode": "3360-263",
      "city": "SÃO PEDRO DE ALVA",
      "lon": "-8.164443841617231",
      "lat": "40.30287751656022"
    },
    {
      "id": "pt.ine.add.PTCONT.1132453",
      "street": "R PRINCIPAL",
      "house": "",
      "postcode": "3360-255",
      "city": "SÃO PEDRO DE ALVA",
      "lon": "-8.163359009400473",
      "lat": "40.29687998846626"
    },
    {
      "id": "pt.ine.add.PTCONT.1136581",
      "street": "BR CASAL NOVO",
      "house": "",
      "postcode": "3360-243",
      "city": "SÃO PEDRO DE ALVA",
      "lon": "-8.162667319654242",
      "lat": "40.302022440019286"
    },
    {
      "id": "pt.ine.add.PTCONT.1142457",
      "street": "AV OLIVEIRA MATOS",
      "house": "6",
      "postcode": "3360-258",
      "city": "SÃO PEDRO DE ALVA",
      "lon": "-8.165478651749755",
      "lat": "40.302255836514775"
    },
    {
      "id": "pt.ine.add.PTCONT.1142458",
      "street": "R PACO VELHO",
      "house": "9",
      "postcode": "3360-258",
      "city": "SÃO PEDRO DE ALVA",
      "lon": "-8.16684101978575",
      "lat": "40.29807678838028"
    },
    {
      "id": "pt.ine.add.PTCONT.1142459",
      "street": "R PACO VELHO",
      "house": "15",
      "postcode": "3360-258",
      "city": "SÃO PEDRO DE ALVA",
      "lon": "-8.167181970111352",
      "lat": "40.29779751071946"
    },
    {
      "id": "pt.ine.add.PTCONT.1148450",
      "street": "R PACO VELHO",
      "house": "17",
      "postcode": "3360-258",
      "city": "SÃO PEDRO DE ALVA",
      "lon": "-8.167393626001612",
      "lat": "40.29768937938174"
    },
    {
      "id": "pt.ine.add.PTCONT.1162698",
      "street": "R PACO VELHO",
      "house": "5",
      "postcode": "3360-258",
      "city": "SÃO PEDRO DE ALVA",
      "lon": "-8.166558915584524",
      "lat": "40.29843709962384"
    },
    {
      "id": "pt.ine.add.PTCONT.1167322",
      "street": "R ALMAS",
      "house": "1",
      "postcode": "3360-258",
      "city": "SÃO PEDRO DE ALVA",
      "lon": "-8.166135429169666",
      "lat": "40.298311141020434"
    },
    {
      "id": "pt.ine.add.PTCONT.1179920",
      "street": "R VALE DA RIBEIRA",
      "house": "2",
      "postcode": "3360-263",
      "city": "SÃO PEDRO DE ALVA",
      "lon": "-8.164984835476977",
      "lat": "40.30269725424223"
    },
    {
      "id": "pt.ine.add.PTCONT.1205286",
      "street": "BR CASAL NOVO",
      "house": "11",
      "postcode": "3360-243",
      "city": "SÃO PEDRO DE ALVA",
      "lon": "-8.162302769658973",
      "lat": "40.302220658587665"
    },
    {
      "id": "pt.ine.add.PTCONT.1220191",
      "street": "R VALE DA RIBEIRA",
      "house": "16",
      "postcode": "3360-263",
      "city": "SÃO PEDRO DE ALVA",
      "lon": "-8.162220888588118",
      "lat": "40.303283354947595"
    },
    {
      "id": "pt.ine.add.PTCONT.1227153",
      "street": "R PRINCIPAL",
      "house": "8",
      "postcode": "3360-255",
      "city": "SÃO PEDRO DE ALVA",
      "lon": "-8.163111901614824",
      "lat": "40.29661888647079"
    },
    {
      "id": "pt.ine.add.PTCONT.1246500",
      "street": "R PRINCIPAL",
      "house": "",
      "postcode": "3360-255",
      "city": "SÃO PEDRO DE ALVA",
      "lon": "-8.162994457314575",
      "lat": "40.29700616350508"
    },
    {
      "id": "pt.ine.add.PTCONT.1252243",
      "street": "BR CASAL NOVO",
      "house": "9",
      "postcode": "3360-243",
      "city": "SÃO PEDRO DE ALVA",
      "lon": "-8.16205582712915",
      "lat": "40.302382823726624"
    },
    {
      "id": "pt.ine.add.PTCONT.1255806",
      "street": "LG ENG MAURÍCIO VIEIRA DE BRITO",
      "house": "4",
      "postcode": "3360-258",
      "city": "SÃO PEDRO DE ALVA",
      "lon": "-8.16527886065885",
      "lat": "40.30261612131942"
    },
    {
      "id": "pt.ine.add.PTCONT.1294949",
      "street": "R EIRA DA LAGE",
      "house": "3",
      "postcode": "3360-258",
      "city": "SÃO PEDRO DE ALVA",
      "lon": "-8.16711105684444",
      "lat": "40.29711309574441"
    },
    {
      "id": "pt.ine.add.PTCONT.1300614",
      "street": "AV OLIVEIRA MATOS",
      "house": "",
      "postcode": "3360-258",
      "city": "SÃO PEDRO DE ALVA",
      "lon": "-8.165219655713564",
      "lat": "40.301787610853445"
    },
    {
      "id": "pt.ine.add.PTCONT.1302166",
      "street": "R QUINTA",
      "house": "2",
      "postcode": "3360-258",
      "city": "SÃO PEDRO DE ALVA",
      "lon": "-8.165806702660644",
      "lat": "40.299563031195774"
    },
    {
      "id": "pt.ine.add.PTCONT.1306426",
      "street": "BR CASAL NOVO",
      "house": "7",
      "postcode": "3360-243",
      "city": "SÃO PEDRO DE ALVA",
      "lon": "-8.161961815324043",
      "lat": "40.3025899789296"
    },
    {
      "id": "pt.ine.add.PTCONT.1308509",
      "street": "R QUINTA",
      "house": "4",
      "postcode": "3360-258",
      "city": "SÃO PEDRO DE ALVA",
      "lon": "-8.165594969378882",
      "lat": "40.299527067915896"
    },
    {
      "id": "pt.ine.add.PTCONT.1310088",
      "street": "R PACO VELHO",
      "house": "11",
      "postcode": "3360-258",
      "city": "SÃO PEDRO DE ALVA",
      "lon": "-8.166982093249498",
      "lat": "40.297941661155896"
    },
    {
      "id": "pt.ine.add.PTCONT.1312533",
      "street": "R PRINCIPAL",
      "house": "10",
      "postcode": "3360-255",
      "city": "SÃO PEDRO DE ALVA",
      "lon": "-8.162700155129514",
      "lat": "40.29640285484343"
    },
    {
      "id": "pt.ine.add.PTCONT.1314505",
      "street": "BR CASAL NOVO",
      "house": "2",
      "postcode": "3360-243",
      "city": "SÃO PEDRO DE ALVA",
      "lon": "-8.162020804566135",
      "lat": "40.30300422761921"
    },
    {
      "id": "pt.ine.add.PTCONT.1326537",
      "street": "AV OLIVEIRA MATOS",
      "house": "4",
      "postcode": "3360-258",
      "city": "SÃO PEDRO DE ALVA",
      "lon": "-8.16546678615778",
      "lat": "40.302039702376405"
    },
    {
      "id": "pt.ine.add.PTCONT.1326538",
      "street": "R PRINCIPAL",
      "house": "",
      "postcode": "3360-255",
      "city": "SÃO PEDRO DE ALVA",
      "lon": "-8.163194291968114",
      "lat": "40.29675395111519"
    },
    {
      "id": "pt.ine.add.PTCONT.1332891",
      "street": "R VALE DA RIBEIRA",
      "house": "8",
      "postcode": "3360-263",
      "city": "SÃO PEDRO DE ALVA",
      "lon": "-8.164255656937046",
      "lat": "40.30291359028086"
    },
    {
      "id": "pt.ine.add.PTCONT.1332892",
      "street": "R PACO VELHO",
      "house": "13",
      "postcode": "3360-258",
      "city": "SÃO PEDRO DE ALVA",
      "lon": "-8.167052618503876",
      "lat": "40.29785158314625"
    },
    {
      "id": "pt.ine.add.PTCONT.1354588",
      "street": "LG ENG MAURÍCIO VIEIRA DE BRITO",
      "house": "10",
      "postcode": "3360-258",
      "city": "SÃO PEDRO DE ALVA",
      "lon": "-8.165419903765823",
      "lat": "40.302390938843715"
    }
  ]
}