{
  "data": {
    "distrito": "Coimbra",
    "concelho": "Penacova",
    "freguesia": "União das freguesias de São Pedro de Alva e São Paio de Mondego",
    "OBJECTID": 174,
    "BGRI2021": "06131400147",
    "DT21": "06",
    "DTMN21": "0613",
    "DTMNFR21": "061314",
    "DTMNFRSEC21": "061314001",
    "SECNUM21": "001",
    "SSNUM21": "47",
    "SECSSNUM21": "00147",
    "OBJECTID_1": 55627,
    "DT": "06",
    "CC": "13",
    "fr": "14",
    "SEC": "001",
    "SS": "47"
  },
  "addresses": [
    {
      "id": "pt.ine.add.PTCONT.1105462",
      "street": "R CABEGO SANTO",
      "house": "",
      "postcode": "3360-260",
      "city": "SÃO PEDRO DE ALVA",
      "lon": "-8.161761035311486",
      "lat": "40.328490440833214"
    },
    {
      "id": "pt.ine.add.PTCONT.1107473",
      "street": "LG FONTE",
      "house": "6",
      "postcode": "3360-260",
      "city": "SÃO PEDRO DE ALVA",
      "lon": "-8.159065169434333",
      "lat": "40.32531206900587"
    },
    {
      "id": "pt.ine.add.PTCONT.1107475",
      "street": "R PRINCIPAL",
      "house": "30",
      "postcode": "3360-260",
      "city": "SÃO PEDRO DE ALVA",
      "lon": "-8.157994212271747",
      "lat": "40.3247449457714"
    },
    {
      "id": "pt.ine.add.PTCONT.1128218",
      "street": "R PRINCIPAL",
      "house": "26",
      "postcode": "3360-260",
      "city": "SÃO PEDRO DE ALVA",
      "lon": "-8.15782932208692",
      "lat": "40.32430370219046"
    },
    {
      "id": "pt.ine.add.PTCONT.1134597",
      "street": "R PRINCIPAL",
      "house": "",
      "postcode": "3360-260",
      "city": "SÃO PEDRO DE ALVA",
      "lon": "-8.157899330150817",
      "lat": "40.32269166795424"
    },
    {
      "id": "pt.ine.add.PTCONT.1148479",
      "street": "R PRINCIPAL",
      "house": "28",
      "postcode": "3360-260",
      "city": "SÃO PEDRO DE ALVA",
      "lon": "-8.15791174218935",
      "lat": "40.324456781325345"
    },
    {
      "id": "pt.ine.add.PTCONT.1182786",
      "street": "R PRINCIPAL",
      "house": "22",
      "postcode": "3360-260",
      "city": "SÃO PEDRO DE ALVA",
      "lon": "-8.156829499059945",
      "lat": "40.32519547505948"
    },
    {
      "id": "pt.ine.add.PTCONT.1182787",
      "street": "R PRINCIPAL",
      "house": "22",
      "postcode": "3360-260",
      "city": "SÃO PEDRO DE ALVA",
      "lon": "-8.156829499059945",
      "lat": "40.32519547505948"
    },
    {
      "id": "pt.ine.add.PTCONT.1186227",
      "street": "LG FONTE",
      "house": "4",
      "postcode": "3360-260",
      "city": "SÃO PEDRO DE ALVA",
      "lon": "-8.15885337638932",
      "lat": "40.325321122026"
    },
    {
      "id": "pt.ine.add.PTCONT.1190907",
      "street": "R CABEGO SANTO",
      "house": "13",
      "postcode": "3360-260",
      "city": "SÃO PEDRO DE ALVA",
      "lon": "-8.161431419410269",
      "lat": "40.3281573116032"
    },
    {
      "id": "pt.ine.add.PTCONT.1205199",
      "street": "LG FONTE",
      "house": "2",
      "postcode": "3360-260",
      "city": "SÃO PEDRO DE ALVA",
      "lon": "-8.158818022306011",
      "lat": "40.32517703882608"
    },
    {
      "id": "pt.ine.add.PTCONT.1220186",
      "street": "R CABEGO SANTO",
      "house": "6",
      "postcode": "3360-260",
      "city": "SÃO PEDRO DE ALVA",
      "lon": "-8.15965384573284",
      "lat": "40.32621250447951"
    },
    {
      "id": "pt.ine.add.PTCONT.1250069",
      "street": "R CABEGO SANTO",
      "house": "",
      "postcode": "3360-260",
      "city": "SÃO PEDRO DE ALVA",
      "lon": "-8.15947715008602",
      "lat": "40.32570822623488"
    },
    {
      "id": "pt.ine.add.PTCONT.1264150",
      "street": "R PRINCIPAL",
      "house": "20",
      "postcode": "3360-260",
      "city": "SÃO PEDRO DE ALVA",
      "lon": "-8.157746646970738",
      "lat": "40.3234481789393"
    },
    {
      "id": "pt.ine.add.PTCONT.1268011",
      "street": "R BOGUEIRA",
      "house": "3",
      "postcode": "3360-260",
      "city": "SÃO PEDRO DE ALVA",
      "lon": "-8.157594028718666",
      "lat": "40.32439380916127"
    },
    {
      "id": "pt.ine.add.PTCONT.1272088",
      "street": "R CABEÇO",
      "house": "",
      "postcode": "3360-260",
      "city": "SÃO PEDRO DE ALVA",
      "lon": "-8.157393278536299",
      "lat": "40.32237657594655"
    },
    {
      "id": "pt.ine.add.PTCONT.1286389",
      "street": "R PRINCIPAL",
      "house": "34",
      "postcode": "3360-260",
      "city": "SÃO PEDRO DE ALVA",
      "lon": "-8.158382556286526",
      "lat": "40.32488895265087"
    },
    {
      "id": "pt.ine.add.PTCONT.1287248",
      "street": "R PRINCIPAL",
      "house": "12",
      "postcode": "3360-260",
      "city": "SÃO PEDRO DE ALVA",
      "lon": "-8.157887623405314",
      "lat": "40.32285377297765"
    },
    {
      "id": "pt.ine.add.PTCONT.1296734",
      "street": "R PRINCIPAL",
      "house": "16",
      "postcode": "3360-260",
      "city": "SÃO PEDRO DE ALVA",
      "lon": "-8.15775825916184",
      "lat": "40.323024908820834"
    },
    {
      "id": "pt.ine.add.PTCONT.1308431",
      "street": "TV POETA",
      "house": "2",
      "postcode": "3360-260",
      "city": "SÃO PEDRO DE ALVA",
      "lon": "-8.158347320824054",
      "lat": "40.3250600684889"
    },
    {
      "id": "pt.ine.add.PTCONT.1309935",
      "street": "R PRINCIPAL",
      "house": "10",
      "postcode": "3360-260",
      "city": "SÃO PEDRO DE ALVA",
      "lon": "-8.157899359799815",
      "lat": "40.3227727192061"
    },
    {
      "id": "pt.ine.add.PTCONT.1309936",
      "street": "R PRINCIPAL",
      "house": "10",
      "postcode": "3360-260",
      "city": "SÃO PEDRO DE ALVA",
      "lon": "-8.157899359799815",
      "lat": "40.3227727192061"
    },
    {
      "id": "pt.ine.add.PTCONT.1312571",
      "street": "R BOGUEIRA",
      "house": "",
      "postcode": "3360-260",
      "city": "SÃO PEDRO DE ALVA",
      "lon": "-8.157664440577175",
      "lat": "40.323880469725864"
    },
    {
      "id": "pt.ine.add.PTCONT.1320526",
      "street": "R BOGUEIRA",
      "house": "1",
      "postcode": "3360-260",
      "city": "SÃO PEDRO DE ALVA",
      "lon": "-8.157723431970805",
      "lat": "40.32432173615629"
    },
    {
      "id": "pt.ine.add.PTCONT.1326570",
      "street": "R PRINCIPAL",
      "house": "18",
      "postcode": "3360-260",
      "city": "SÃO PEDRO DE ALVA",
      "lon": "-8.157781915901962",
      "lat": "40.32336712017356"
    },
    {
      "id": "pt.ine.add.PTCONT.1349236",
      "street": "R PRINCIPAL",
      "house": "36",
      "postcode": "3360-223",
      "city": "SÃO PAIO DE MONDEGO",
      "lon": "-8.158582601961193",
      "lat": "40.32493393723138"
    },
    {
      "id": "pt.ine.add.PTCONT.1359637",
      "street": "TV POETA",
      "house": "1",
      "postcode": "3360-260",
      "city": "SÃO PEDRO DE ALVA",
      "lon": "-8.158535559996249",
      "lat": "40.32499698742397"
    },
    {
      "id": "pt.ine.add.PTCONT.1365993",
      "street": "R PRINCIPAL",
      "house": "32",
      "postcode": "3360-260",
      "city": "SÃO PEDRO DE ALVA",
      "lon": "-8.158347216846499",
      "lat": "40.32478089206169"
    }
  ]
}