{
  "data": {
    "distrito": "Coimbra",
    "concelho": "Figueira da Foz",
    "freguesia": "Marinha das Ondas",
    "OBJECTID": 1078,
    "BGRI2021": "06050800105",
    "DT21": "06",
    "DTMN21": "0605",
    "DTMNFR21": "060508",
    "DTMNFRSEC21": "060508001",
    "SECNUM21": "001",
    "SSNUM21": "05",
    "SECSSNUM21": "00105",
    "OBJECTID_1": 51160,
    "DT": "06",
    "CC": "05",
    "fr": "08",
    "SEC": "001",
    "SS": "05"
  },
  "addresses": [
    {
      "id": "pt.ine.add.PTCONT.1104871",
      "street": "R D FILOMENA",
      "house": "11",
      "postcode": "3090-769",
      "city": "MARINHA DAS ONDAS",
      "lon": "-8.798185669995977",
      "lat": "40.02261752273929"
    },
    {
      "id": "pt.ine.add.PTCONT.1118039",
      "street": "R COURELAS",
      "house": "28",
      "postcode": "3090-769",
      "city": "MARINHA DAS ONDAS",
      "lon": "-8.79986040654095",
      "lat": "40.02137406877237"
    },
    {
      "id": "pt.ine.add.PTCONT.1119190",
      "street": "R COZINHEIROS",
      "house": "",
      "postcode": "3090-769",
      "city": "MARINHA DAS ONDAS",
      "lon": "-8.80246405279467",
      "lat": "40.016901058280034"
    },
    {
      "id": "pt.ine.add.PTCONT.1123166",
      "street": "R COZINHEIROS",
      "house": "48",
      "postcode": "3090-769",
      "city": "MARINHA DAS ONDAS",
      "lon": "-8.801027414974772",
      "lat": "40.01852143300674"
    },
    {
      "id": "pt.ine.add.PTCONT.1129603",
      "street": "TV LOUREIROS",
      "house": "1",
      "postcode": "3090-769",
      "city": "MARINHA DAS ONDAS",
      "lon": "-8.799486746513262",
      "lat": "40.02270010864908"
    },
    {
      "id": "pt.ine.add.PTCONT.1141796",
      "street": "TV COURELAS",
      "house": "7",
      "postcode": "3090-769",
      "city": "MARINHA DAS ONDAS",
      "lon": "-8.800089900426292",
      "lat": "40.01967960878809"
    },
    {
      "id": "pt.ine.add.PTCONT.1143386",
      "street": "R COURELAS",
      "house": "6",
      "postcode": "3090-769",
      "city": "MARINHA DAS ONDAS",
      "lon": "-8.798489862409498",
      "lat": "40.02137294041411"
    },
    {
      "id": "pt.ine.add.PTCONT.1146239",
      "street": "R ALMINHAS",
      "house": "12",
      "postcode": "3090-769",
      "city": "MARINHA DAS ONDAS",
      "lon": "-8.798852712278077",
      "lat": "40.02134383820269"
    },
    {
      "id": "pt.ine.add.PTCONT.1156058",
      "street": "R COZINHEIROS",
      "house": "40",
      "postcode": "3090-769",
      "city": "MARINHA DAS ONDAS",
      "lon": "-8.80044738897675",
      "lat": "40.01910116268842"
    },
    {
      "id": "pt.ine.add.PTCONT.1179765",
      "street": "R D FILOMENA",
      "house": "7",
      "postcode": "3090-769",
      "city": "MARINHA DAS ONDAS",
      "lon": "-8.797925874744575",
      "lat": "40.02240286812246"
    },
    {
      "id": "pt.ine.add.PTCONT.1186610",
      "street": "TV LOUREIROS",
      "house": "5",
      "postcode": "3090-769",
      "city": "MARINHA DAS ONDAS",
      "lon": "-8.799360788436529",
      "lat": "40.022998032788315"
    },
    {
      "id": "pt.ine.add.PTCONT.1190190",
      "street": "R COZINHEIROS",
      "house": "44",
      "postcode": "3090-769",
      "city": "MARINHA DAS ONDAS",
      "lon": "-8.8006560274604",
      "lat": "40.01887480944328"
    },
    {
      "id": "pt.ine.add.PTCONT.1216152",
      "street": "R COZINHEIROS",
      "house": "34",
      "postcode": "3090-769",
      "city": "MARINHA DAS ONDAS",
      "lon": "-8.799301122720443",
      "lat": "40.020476679443114"
    },
    {
      "id": "pt.ine.add.PTCONT.1223048",
      "street": "TV DAS COURELAS",
      "house": "2",
      "postcode": "3090-769",
      "city": "MARINHA DAS ONDAS",
      "lon": "-8.799448400325142",
      "lat": "40.01996248719759"
    },
    {
      "id": "pt.ine.add.PTCONT.1226644",
      "street": "R COURELAS",
      "house": "5",
      "postcode": "3090-769",
      "city": "MARINHA DAS ONDAS",
      "lon": "-8.7988399486709",
      "lat": "40.02123583881792"
    },
    {
      "id": "pt.ine.add.PTCONT.1237644",
      "street": "TV COURELAS",
      "house": "9",
      "postcode": "3090-769",
      "city": "MARINHA DAS ONDAS",
      "lon": "-8.79999987861084",
      "lat": "40.020058381459805"
    },
    {
      "id": "pt.ine.add.PTCONT.1252558",
      "street": "R COURELAS",
      "house": "18",
      "postcode": "3090-769",
      "city": "MARINHA DAS ONDAS",
      "lon": "-8.799227888153395",
      "lat": "40.02137770641628"
    },
    {
      "id": "pt.ine.add.PTCONT.1257300",
      "street": "R COURELAS",
      "house": "14",
      "postcode": "3090-769",
      "city": "MARINHA DAS ONDAS",
      "lon": "-8.798958482138596",
      "lat": "40.021379254734846"
    },
    {
      "id": "pt.ine.add.PTCONT.1257301",
      "street": "R COURELAS",
      "house": "14",
      "postcode": "3090-769",
      "city": "MARINHA DAS ONDAS",
      "lon": "-8.798958482138596",
      "lat": "40.021379254734846"
    },
    {
      "id": "pt.ine.add.PTCONT.1269414",
      "street": "R COURELAS",
      "house": "11",
      "postcode": "3090-769",
      "city": "MARINHA DAS ONDAS",
      "lon": "-8.799249913488874",
      "lat": "40.02123348285868"
    },
    {
      "id": "pt.ine.add.PTCONT.1303865",
      "street": "R COURELAS",
      "house": "7",
      "postcode": "3090-769",
      "city": "MARINHA DAS ONDAS",
      "lon": "-8.79906258856131",
      "lat": "40.02124356560475"
    },
    {
      "id": "pt.ine.add.PTCONT.1307984",
      "street": "R COURELAS",
      "house": "27",
      "postcode": "3090-769",
      "city": "MARINHA DAS ONDAS",
      "lon": "-8.800734339840423",
      "lat": "40.02090072199248"
    },
    {
      "id": "pt.ine.add.PTCONT.1317809",
      "street": "R RIBEIRO",
      "house": "",
      "postcode": "3090-769",
      "city": "MARINHA DAS ONDAS",
      "lon": "-8.799807657662196",
      "lat": "40.02317558376739"
    },
    {
      "id": "pt.ine.add.PTCONT.1323979",
      "street": "R COURELAS",
      "house": "34",
      "postcode": "3090-769",
      "city": "MARINHA DAS ONDAS",
      "lon": "-8.800457083005712",
      "lat": "40.02129858562232"
    },
    {
      "id": "pt.ine.add.PTCONT.1324914",
      "street": "R DAS COURELAS",
      "house": "26",
      "postcode": "3090-765",
      "city": "MARINHA DAS ONDAS",
      "lon": "-8.799583931347348",
      "lat": "40.02185298032499"
    },
    {
      "id": "pt.ine.add.PTCONT.1340418",
      "street": "LG MANUEL FRAZAO",
      "house": "3",
      "postcode": "3090-769",
      "city": "MARINHA DAS ONDAS",
      "lon": "-8.797840034886885",
      "lat": "40.02200709400123"
    },
    {
      "id": "pt.ine.add.PTCONT.1348580",
      "street": "R D FILOMENA",
      "house": "13",
      "postcode": "3090-769",
      "city": "MARINHA DAS ONDAS",
      "lon": "-8.79836198504518",
      "lat": "40.02267955307013"
    },
    {
      "id": "pt.ine.add.PTCONT.1361432",
      "street": "R D FILOMENA",
      "house": "15",
      "postcode": "3090-769",
      "city": "MARINHA DAS ONDAS",
      "lon": "-8.798561902476575",
      "lat": "40.022759459708496"
    }
  ]
}