{
  "data": {
    "distrito": "Santarém",
    "concelho": "Santarém",
    "freguesia": "União das freguesias da cidade de Santarém",
    "OBJECTID": 165,
    "BGRI2021": "14163302006",
    "DT21": "14",
    "DTMN21": "1416",
    "DTMNFR21": "141633",
    "DTMNFRSEC21": "141633020",
    "SECNUM21": "020",
    "SSNUM21": "06",
    "SECSSNUM21": "02006",
    "OBJECTID_1": 154551,
    "DT": "14",
    "CC": "16",
    "fr": "33",
    "SEC": "020",
    "SS": "06"
  },
  "addresses": [
    {
      "id": "pt.ine.add.PTCONT.4392843",
      "street": "AV ANTÓNIO MARIA BAPTISTA",
      "house": "48",
      "postcode": "2005-160",
      "city": "SANTARÉM",
      "lon": "-8.691664123404134",
      "lat": "39.23700362722742"
    },
    {
      "id": "pt.ine.add.PTCONT.4396479",
      "street": "ESTR S DOMINGOS",
      "house": "27 C",
      "postcode": "2005-324",
      "city": "",
      "lon": "-8.690581401822671",
      "lat": "39.2377654274577"
    },
    {
      "id": "pt.ine.add.PTCONT.4396480",
      "street": "ESTR S DOMINGOS",
      "house": "27 C",
      "postcode": "2005-324",
      "city": "",
      "lon": "-8.690581401822671",
      "lat": "39.2377654274577"
    },
    {
      "id": "pt.ine.add.PTCONT.4396493",
      "street": "ESTR S DOMINGOS",
      "house": "27 C",
      "postcode": "2005-324",
      "city": "",
      "lon": "-8.690581401822671",
      "lat": "39.2377654274577"
    },
    {
      "id": "pt.ine.add.PTCONT.4397251",
      "street": "ESTR S DOMINGOS",
      "house": "27 C",
      "postcode": "2005-324",
      "city": "",
      "lon": "-8.690581401822671",
      "lat": "39.2377654274577"
    },
    {
      "id": "pt.ine.add.PTCONT.4398568",
      "street": "R FR LUIS DE SOUSA",
      "house": "4 C",
      "postcode": "2005-137",
      "city": "SANTARÉM",
      "lon": "-8.690799037883059",
      "lat": "39.23745813746141"
    },
    {
      "id": "pt.ine.add.PTCONT.4398569",
      "street": "R FR LUIS DE SOUSA",
      "house": "4 C",
      "postcode": "2005-137",
      "city": "SANTARÉM",
      "lon": "-8.690799037883059",
      "lat": "39.23745813746141"
    },
    {
      "id": "pt.ine.add.PTCONT.4399309",
      "street": "R FR LUIS DE SOUSA",
      "house": "4 C",
      "postcode": "2005-137",
      "city": "SANTARÉM",
      "lon": "-8.690799037883059",
      "lat": "39.23745813746141"
    },
    {
      "id": "pt.ine.add.PTCONT.4411003",
      "street": "R FR LUIS DE SOUSA",
      "house": "56",
      "postcode": "2005-137",
      "city": "SANTARÉM",
      "lon": "-8.692929712215957",
      "lat": "39.23739387235787"
    },
    {
      "id": "pt.ine.add.PTCONT.4411015",
      "street": "R FR LUIS DE SOUSA",
      "house": "2 C",
      "postcode": "2005-137",
      "city": "SANTARÉM",
      "lon": "-8.690266617970392",
      "lat": "39.23750572200358"
    },
    {
      "id": "pt.ine.add.PTCONT.4411016",
      "street": "R FR LUIS DE SOUSA",
      "house": "2 C",
      "postcode": "2005-137",
      "city": "SANTARÉM",
      "lon": "-8.690266617970392",
      "lat": "39.23750572200358"
    },
    {
      "id": "pt.ine.add.PTCONT.4411017",
      "street": "R FR LUIS DE SOUSA",
      "house": "2 C",
      "postcode": "2005-137",
      "city": "SANTARÉM",
      "lon": "-8.690266617970392",
      "lat": "39.23750572200358"
    },
    {
      "id": "pt.ine.add.PTCONT.4411018",
      "street": "R FR LUIS DE SOUSA",
      "house": "2 C",
      "postcode": "2005-137",
      "city": "SANTARÉM",
      "lon": "-8.690266617970392",
      "lat": "39.23750572200358"
    },
    {
      "id": "pt.ine.add.PTCONT.4411019",
      "street": "R FR LUIS DE SOUSA",
      "house": "2 C",
      "postcode": "2005-137",
      "city": "SANTARÉM",
      "lon": "-8.690266617970392",
      "lat": "39.23750572200358"
    },
    {
      "id": "pt.ine.add.PTCONT.4411020",
      "street": "R FR LUIS DE SOUSA",
      "house": "2 C",
      "postcode": "2005-137",
      "city": "SANTARÉM",
      "lon": "-8.690266617970392",
      "lat": "39.23750572200358"
    },
    {
      "id": "pt.ine.add.PTCONT.4411021",
      "street": "R FR LUIS DE SOUSA",
      "house": "2 C",
      "postcode": "2005-137",
      "city": "SANTARÉM",
      "lon": "-8.690266617970392",
      "lat": "39.23750572200358"
    },
    {
      "id": "pt.ine.add.PTCONT.4411022",
      "street": "R FR LUIS DE SOUSA",
      "house": "2 C",
      "postcode": "2005-137",
      "city": "SANTARÉM",
      "lon": "-8.690266617970392",
      "lat": "39.23750572200358"
    },
    {
      "id": "pt.ine.add.PTCONT.4411023",
      "street": "AV ANTÓNIO MARIA BAPTISTA",
      "house": "66",
      "postcode": "2005-160",
      "city": "SANTARÉM",
      "lon": "-8.692451414099525",
      "lat": "39.236963819929606"
    },
    {
      "id": "pt.ine.add.PTCONT.4412995",
      "street": "R FR LUIS DE SOUSA",
      "house": "12",
      "postcode": "2005-172",
      "city": "SANTARÉM",
      "lon": "-8.692338525835604",
      "lat": "39.23733366122895"
    },
    {
      "id": "pt.ine.add.PTCONT.4415207",
      "street": "R FR LUIS DE SOUSA",
      "house": "16",
      "postcode": "2005-137",
      "city": "SANTARÉM",
      "lon": "-8.691435624375224",
      "lat": "39.237401043908335"
    },
    {
      "id": "pt.ine.add.PTCONT.4415208",
      "street": "R FR LUIS DE SOUSA",
      "house": "16",
      "postcode": "2005-137",
      "city": "SANTARÉM",
      "lon": "-8.691435624375224",
      "lat": "39.237401043908335"
    },
    {
      "id": "pt.ine.add.PTCONT.4421081",
      "street": "ESTR S DOMINGOS",
      "house": "47",
      "postcode": "2005-324",
      "city": "",
      "lon": "-8.69125195260311",
      "lat": "39.237609092060964"
    },
    {
      "id": "pt.ine.add.PTCONT.4421082",
      "street": "ESTR S DOMINGOS",
      "house": "47",
      "postcode": "2005-324",
      "city": "",
      "lon": "-8.69125195260311",
      "lat": "39.237609092060964"
    },
    {
      "id": "pt.ine.add.PTCONT.4421083",
      "street": "ESTR S DOMINGOS",
      "house": "47",
      "postcode": "2005-324",
      "city": "",
      "lon": "-8.69125195260311",
      "lat": "39.237609092060964"
    },
    {
      "id": "pt.ine.add.PTCONT.4421084",
      "street": "ESTR S DOMINGOS",
      "house": "47",
      "postcode": "2005-324",
      "city": "",
      "lon": "-8.69125195260311",
      "lat": "39.237609092060964"
    },
    {
      "id": "pt.ine.add.PTCONT.4421085",
      "street": "ESTR S DOMINGOS",
      "house": "47",
      "postcode": "2005-324",
      "city": "",
      "lon": "-8.69125195260311",
      "lat": "39.237609092060964"
    },
    {
      "id": "pt.ine.add.PTCONT.4421086",
      "street": "ESTR S DOMINGOS",
      "house": "47",
      "postcode": "2005-324",
      "city": "",
      "lon": "-8.69125195260311",
      "lat": "39.237609092060964"
    },
    {
      "id": "pt.ine.add.PTCONT.4425280",
      "street": "R FR LUIS DE SOUSA",
      "house": "27 29",
      "postcode": "2005-137",
      "city": "SANTARÉM",
      "lon": "-8.691828200500895",
      "lat": "39.23724603734605"
    },
    {
      "id": "pt.ine.add.PTCONT.4427351",
      "street": "R FR LUIS DE SOUSA",
      "house": "20",
      "postcode": "2005-137",
      "city": "SANTARÉM",
      "lon": "-8.69163251970256",
      "lat": "39.237400099916606"
    },
    {
      "id": "pt.ine.add.PTCONT.4427352",
      "street": "R FR LUIS DE SOUSA",
      "house": "20",
      "postcode": "2005-137",
      "city": "SANTARÉM",
      "lon": "-8.69163251970256",
      "lat": "39.237400099916606"
    },
    {
      "id": "pt.ine.add.PTCONT.4427353",
      "street": "R FR LUIS DE SOUSA",
      "house": "20",
      "postcode": "2005-137",
      "city": "SANTARÉM",
      "lon": "-8.69163251970256",
      "lat": "39.237400099916606"
    },
    {
      "id": "pt.ine.add.PTCONT.4431676",
      "street": "R FR LUIS DE SOUSA",
      "house": "43",
      "postcode": "2005-137",
      "city": "SANTARÉM",
      "lon": "-8.692823469600448",
      "lat": "39.23714217860278"
    },
    {
      "id": "pt.ine.add.PTCONT.4431677",
      "street": "R FR LUIS DE SOUSA",
      "house": "43",
      "postcode": "2005-137",
      "city": "SANTARÉM",
      "lon": "-8.692823469600448",
      "lat": "39.23714217860278"
    },
    {
      "id": "pt.ine.add.PTCONT.4431678",
      "street": "R FR LUIS DE SOUSA",
      "house": "43",
      "postcode": "2005-137",
      "city": "SANTARÉM",
      "lon": "-8.692823469600448",
      "lat": "39.23714217860278"
    },
    {
      "id": "pt.ine.add.PTCONT.4432268",
      "street": "R FR LUIS DE SOUSA",
      "house": "43",
      "postcode": "2005-137",
      "city": "SANTARÉM",
      "lon": "-8.692823469600448",
      "lat": "39.23714217860278"
    },
    {
      "id": "pt.ine.add.PTCONT.4434888",
      "street": "R FR LUIS DE SOUSA",
      "house": "5",
      "postcode": "2005-137",
      "city": "SANTARÉM",
      "lon": "-8.692004432547964",
      "lat": "39.23756044728064"
    },
    {
      "id": "pt.ine.add.PTCONT.4434889",
      "street": "R FR LUIS DE SOUSA",
      "house": "5",
      "postcode": "2005-137",
      "city": "SANTARÉM",
      "lon": "-8.692004432547964",
      "lat": "39.23756044728064"
    },
    {
      "id": "pt.ine.add.PTCONT.4438065",
      "street": "R FR LUIS DE SOUSA",
      "house": "54",
      "postcode": "2005-137",
      "city": "SANTARÉM",
      "lon": "-8.692883598651065",
      "lat": "39.23742111588112"
    },
    {
      "id": "pt.ine.add.PTCONT.4438066",
      "street": "R GEN HUMBERTO DELGADO",
      "house": "16",
      "postcode": "2005-154",
      "city": "SANTARÉM",
      "lon": "-8.693904866490218",
      "lat": "39.23621823252119"
    },
    {
      "id": "pt.ine.add.PTCONT.4449969",
      "street": "R FR LUIS DE SOUSA",
      "house": "3",
      "postcode": "2005-137",
      "city": "SANTARÉM",
      "lon": "-8.691922786183886",
      "lat": "39.23748878064209"
    },
    {
      "id": "pt.ine.add.PTCONT.4449970",
      "street": "R FR LUIS DE SOUSA",
      "house": "3",
      "postcode": "2005-137",
      "city": "SANTARÉM",
      "lon": "-8.691922786183886",
      "lat": "39.23748878064209"
    },
    {
      "id": "pt.ine.add.PTCONT.4455609",
      "street": "R FR LUIS DE SOUSA",
      "house": "1 2",
      "postcode": "2005-137",
      "city": "SANTARÉM",
      "lon": "-8.69221198101064",
      "lat": "39.237442356316"
    },
    {
      "id": "pt.ine.add.PTCONT.4460835",
      "street": "R GEN HUMBERTO DELGADO",
      "house": "28",
      "postcode": "2005-154",
      "city": "SANTARÉM",
      "lon": "-8.69421442046444",
      "lat": "39.235820420517385"
    },
    {
      "id": "pt.ine.add.PTCONT.4464500",
      "street": "R FR LUIS DE SOUSA",
      "house": "24",
      "postcode": "2005-137",
      "city": "SANTARÉM",
      "lon": "-8.691759851122788",
      "lat": "39.23739048196545"
    },
    {
      "id": "pt.ine.add.PTCONT.4464508",
      "street": "R FR LUIS DE SOUSA",
      "house": "9",
      "postcode": "2005-137",
      "city": "SANTARÉM",
      "lon": "-8.692375202867147",
      "lat": "39.237576682171614"
    },
    {
      "id": "pt.ine.add.PTCONT.4464509",
      "street": "R FR LUIS DE SOUSA",
      "house": "9",
      "postcode": "2005-137",
      "city": "SANTARÉM",
      "lon": "-8.692375202867147",
      "lat": "39.237576682171614"
    },
    {
      "id": "pt.ine.add.PTCONT.4466763",
      "street": "R FR LUIS DE SOUSA",
      "house": "",
      "postcode": "2005-137",
      "city": "SANTARÉM",
      "lon": "-8.690660052812829",
      "lat": "39.23745880284935"
    },
    {
      "id": "pt.ine.add.PTCONT.4468952",
      "street": "R FR LUIS DE SOUSA",
      "house": "33",
      "postcode": "2005-137",
      "city": "SANTARÉM",
      "lon": "-8.692256450419094",
      "lat": "39.23720795309159"
    },
    {
      "id": "pt.ine.add.PTCONT.4468953",
      "street": "R FR LUIS DE SOUSA",
      "house": "33",
      "postcode": "2005-137",
      "city": "SANTARÉM",
      "lon": "-8.692256450419094",
      "lat": "39.23720795309159"
    },
    {
      "id": "pt.ine.add.PTCONT.4479490",
      "street": "R FR LUIS DE SOUSA",
      "house": "25",
      "postcode": "2005-137",
      "city": "SANTARÉM",
      "lon": "-8.69171245140568",
      "lat": "39.23725559982429"
    },
    {
      "id": "pt.ine.add.PTCONT.4479557",
      "street": "R GEN HUMBERTO DELGADO",
      "house": "20",
      "postcode": "2005-154",
      "city": "SANTARÉM",
      "lon": "-8.693915659600131",
      "lat": "39.23611910026085"
    },
    {
      "id": "pt.ine.add.PTCONT.4479976",
      "street": "R FR LUIS DE SOUSA",
      "house": "25",
      "postcode": "2005-137",
      "city": "SANTARÉM",
      "lon": "-8.69171245140568",
      "lat": "39.23725559982429"
    },
    {
      "id": "pt.ine.add.PTCONT.4481012",
      "street": "R FR LUIS DE SOUSA",
      "house": "18",
      "postcode": "2005-137",
      "city": "SANTARÉM",
      "lon": "-8.691505116844754",
      "lat": "39.23740071077279"
    },
    {
      "id": "pt.ine.add.PTCONT.4485504",
      "street": "R FR LUIS DE SOUSA",
      "house": "12",
      "postcode": "2005-137",
      "city": "SANTARÉM",
      "lon": "-8.691227432422425",
      "lat": "39.23743807089192"
    },
    {
      "id": "pt.ine.add.PTCONT.4485505",
      "street": "R FR LUIS DE SOUSA",
      "house": "12",
      "postcode": "2005-137",
      "city": "SANTARÉM",
      "lon": "-8.691227432422425",
      "lat": "39.23743807089192"
    },
    {
      "id": "pt.ine.add.PTCONT.4485506",
      "street": "R FR LUIS DE SOUSA",
      "house": "12",
      "postcode": "2005-137",
      "city": "SANTARÉM",
      "lon": "-8.691227432422425",
      "lat": "39.23743807089192"
    },
    {
      "id": "pt.ine.add.PTCONT.4485507",
      "street": "R FR LUIS DE SOUSA",
      "house": "12",
      "postcode": "2005-137",
      "city": "SANTARÉM",
      "lon": "-8.691227432422425",
      "lat": "39.23743807089192"
    },
    {
      "id": "pt.ine.add.PTCONT.4487823",
      "street": "R FR LUIS SOUSA",
      "house": "6D",
      "postcode": "2005-137",
      "city": "SANTARÉM",
      "lon": "-8.690961044462426",
      "lat": "39.23743934705231"
    },
    {
      "id": "pt.ine.add.PTCONT.4487824",
      "street": "R FR LUIS DE SOUSA",
      "house": "8C 6D",
      "postcode": "2005-137",
      "city": "SANTARÉM",
      "lon": "-8.690961044462426",
      "lat": "39.23743934705231"
    },
    {
      "id": "pt.ine.add.PTCONT.4487825",
      "street": "R FR LUIS SOUSA",
      "house": "8C",
      "postcode": "2005-137",
      "city": "SANTARÉM",
      "lon": "-8.690961044462426",
      "lat": "39.23743934705231"
    },
    {
      "id": "pt.ine.add.PTCONT.4487930",
      "street": "R FR LUIS DE SOUSA",
      "house": "10",
      "postcode": "2005-137",
      "city": "SANTARÉM",
      "lon": "-8.692363048671846",
      "lat": "39.23750468214788"
    },
    {
      "id": "pt.ine.add.PTCONT.4487931",
      "street": "R GEN HUMBERTO DELGADO",
      "house": "8",
      "postcode": "2005-154",
      "city": "SANTARÉM",
      "lon": "-8.693767246002723",
      "lat": "39.236390033728156"
    },
    {
      "id": "pt.ine.add.PTCONT.4487932",
      "street": "R GEN HUMBERTO DELGADO",
      "house": "8",
      "postcode": "2005-154",
      "city": "SANTARÉM",
      "lon": "-8.693767246002723",
      "lat": "39.236390033728156"
    },
    {
      "id": "pt.ine.add.PTCONT.4487933",
      "street": "R GEN HUMBERTO DELGADO",
      "house": "8",
      "postcode": "2005-154",
      "city": "SANTARÉM",
      "lon": "-8.693767246002723",
      "lat": "39.236390033728156"
    },
    {
      "id": "pt.ine.add.PTCONT.4487934",
      "street": "R GEN HUMBERTO DELGADO",
      "house": "8",
      "postcode": "2005-154",
      "city": "SANTARÉM",
      "lon": "-8.693767246002723",
      "lat": "39.236390033728156"
    },
    {
      "id": "pt.ine.add.PTCONT.4487935",
      "street": "R GEN HUMBERTO DELGADO",
      "house": "8",
      "postcode": "2005-154",
      "city": "SANTARÉM",
      "lon": "-8.693767246002723",
      "lat": "39.236390033728156"
    },
    {
      "id": "pt.ine.add.PTCONT.4487936",
      "street": "R GEN HUMBERTO DELGADO",
      "house": "8",
      "postcode": "2005-154",
      "city": "SANTARÉM",
      "lon": "-8.693767246002723",
      "lat": "39.236390033728156"
    },
    {
      "id": "pt.ine.add.PTCONT.4487937",
      "street": "R GEN HUMBERTO DELGADO",
      "house": "ZOA 1",
      "postcode": "2005-154",
      "city": "SANTARÉM",
      "lon": "-8.69399615890734",
      "lat": "39.236046654249165"
    },
    {
      "id": "pt.ine.add.PTCONT.4488503",
      "street": "R FR LUIS DE SOUSA",
      "house": "8C 6D",
      "postcode": "2005-137",
      "city": "SANTARÉM",
      "lon": "-8.690961044462426",
      "lat": "39.23743934705231"
    },
    {
      "id": "pt.ine.add.PTCONT.4488669",
      "street": "R GEN HUMBERTO DELGADO",
      "house": "8",
      "postcode": "2005-154",
      "city": "SANTARÉM",
      "lon": "-8.693767246002723",
      "lat": "39.236390033728156"
    },
    {
      "id": "pt.ine.add.PTCONT.4488677",
      "street": "R GEN HUMBERTO DELGADO",
      "house": "8",
      "postcode": "2005-154",
      "city": "SANTARÉM",
      "lon": "-8.693767246002723",
      "lat": "39.236390033728156"
    },
    {
      "id": "pt.ine.add.PTCONT.4488854",
      "street": "AV ANTÓNIO MARIA BAPTISTA",
      "house": "68",
      "postcode": "2005-160",
      "city": "SANTARÉM",
      "lon": "-8.692613419075283",
      "lat": "39.23694502723199"
    },
    {
      "id": "pt.ine.add.PTCONT.4492413",
      "street": "R FR LUIS DE SOUSA",
      "house": "26",
      "postcode": "2005-137",
      "city": "SANTARÉM",
      "lon": "-8.69183077243602",
      "lat": "39.23757028774463"
    },
    {
      "id": "pt.ine.add.PTCONT.4513975",
      "street": "R FR LUIS SOUSA",
      "house": "10 B",
      "postcode": "2005-137",
      "city": "SANTARÉM",
      "lon": "-8.691123265009908",
      "lat": "39.23744757728812"
    },
    {
      "id": "pt.ine.add.PTCONT.4513976",
      "street": "R FR LUIS DE SOUSA",
      "house": "10B 6D",
      "postcode": "2005-137",
      "city": "SANTARÉM",
      "lon": "-8.691123265009908",
      "lat": "39.23744757728812"
    },
    {
      "id": "pt.ine.add.PTCONT.4513977",
      "street": "R FR LUIS DE SOUSA",
      "house": "10B 6D",
      "postcode": "2005-137",
      "city": "SANTARÉM",
      "lon": "-8.691123265009908",
      "lat": "39.23744757728812"
    },
    {
      "id": "pt.ine.add.PTCONT.4513978",
      "street": "AV ANTONIO MARIA BAPTISTA",
      "house": "60",
      "postcode": "2005-160",
      "city": "SANTARÉM",
      "lon": "-8.692184956501624",
      "lat": "39.23695609192076"
    },
    {
      "id": "pt.ine.add.PTCONT.4513979",
      "street": "AV ANTONIO MARIA BAPTISTA",
      "house": "60 60A",
      "postcode": "2005-160",
      "city": "SANTARÉM",
      "lon": "-8.692184956501624",
      "lat": "39.23695609192076"
    },
    {
      "id": "pt.ine.add.PTCONT.4513980",
      "street": "R GEN HUMBERTO DELGADO",
      "house": "20 A 2",
      "postcode": "2005-154",
      "city": "SANTARÉM",
      "lon": "-8.694100897668974",
      "lat": "39.23610920093186"
    },
    {
      "id": "pt.ine.add.PTCONT.4515183",
      "street": "R FR LUIS DE SOUSA",
      "house": "10B 6D",
      "postcode": "2005-137",
      "city": "SANTARÉM",
      "lon": "-8.691123265009908",
      "lat": "39.23744757728812"
    },
    {
      "id": "pt.ine.add.PTCONT.4517050",
      "street": "R ÁLVARO CUNHAL",
      "house": "41",
      "postcode": "2005-141",
      "city": "SANTARÉM",
      "lon": "-8.69082391360555",
      "lat": "39.237674193510905"
    },
    {
      "id": "pt.ine.add.PTCONT.4517051",
      "street": "R ÁLVARO CUNHAL",
      "house": "41",
      "postcode": "2005-141",
      "city": "SANTARÉM",
      "lon": "-8.69082391360555",
      "lat": "39.237674193510905"
    },
    {
      "id": "pt.ine.add.PTCONT.4517052",
      "street": "R ÁLVARO CUNHAL",
      "house": "41",
      "postcode": "2005-141",
      "city": "SANTARÉM",
      "lon": "-8.69082391360555",
      "lat": "39.237674193510905"
    },
    {
      "id": "pt.ine.add.PTCONT.4517053",
      "street": "R ÁLVARO CUNHAL",
      "house": "41",
      "postcode": "2005-141",
      "city": "SANTARÉM",
      "lon": "-8.69082391360555",
      "lat": "39.237674193510905"
    },
    {
      "id": "pt.ine.add.PTCONT.4517054",
      "street": "R ÁLVARO CUNHAL",
      "house": "41",
      "postcode": "2005-141",
      "city": "SANTARÉM",
      "lon": "-8.69082391360555",
      "lat": "39.237674193510905"
    },
    {
      "id": "pt.ine.add.PTCONT.4517055",
      "street": "R FR LUIS DE SOUSA",
      "house": "30",
      "postcode": "2005-137",
      "city": "SANTARÉM",
      "lon": "-8.692049188600118",
      "lat": "39.23736207195582"
    },
    {
      "id": "pt.ine.add.PTCONT.4517494",
      "street": "R ÁLVARO CUNHAL",
      "house": "41",
      "postcode": "2005-141",
      "city": "SANTARÉM",
      "lon": "-8.69082391360555",
      "lat": "39.237674193510905"
    },
    {
      "id": "pt.ine.add.PTCONT.4521097",
      "street": "R FR LUIS DE SOUSA",
      "house": "2 E",
      "postcode": "2005-137",
      "city": "SANTARÉM",
      "lon": "-8.690509699470336",
      "lat": "39.23748654437146"
    },
    {
      "id": "pt.ine.add.PTCONT.4521098",
      "street": "R FR LUIS DE SOUSA",
      "house": "2 E",
      "postcode": "2005-137",
      "city": "SANTARÉM",
      "lon": "-8.690509699470336",
      "lat": "39.23748654437146"
    },
    {
      "id": "pt.ine.add.PTCONT.4521099",
      "street": "R FR LUIS DE SOUSA",
      "house": "2 E",
      "postcode": "2005-137",
      "city": "SANTARÉM",
      "lon": "-8.690509699470336",
      "lat": "39.23748654437146"
    },
    {
      "id": "pt.ine.add.PTCONT.4527209",
      "street": "R FR LUIS DE SOUSA",
      "house": "11",
      "postcode": "2005-137",
      "city": "SANTARÉM",
      "lon": "-8.692339240912611",
      "lat": "39.237423730776754"
    },
    {
      "id": "pt.ine.add.PTCONT.4532510",
      "street": "R FR LUIS DE SOUSA",
      "house": "48",
      "postcode": "2005-137",
      "city": "SANTARÉM",
      "lon": "-8.69281331892539",
      "lat": "39.23732237334458"
    },
    {
      "id": "pt.ine.add.PTCONT.4532511",
      "street": "R FR LUIS DE SOUSA",
      "house": "48",
      "postcode": "2005-137",
      "city": "SANTARÉM",
      "lon": "-8.69281331892539",
      "lat": "39.23732237334458"
    },
    {
      "id": "pt.ine.add.PTCONT.4532512",
      "street": "R FR LUIS DE SOUSA",
      "house": "48",
      "postcode": "2005-137",
      "city": "SANTARÉM",
      "lon": "-8.69281331892539",
      "lat": "39.23732237334458"
    },
    {
      "id": "pt.ine.add.PTCONT.4533727",
      "street": "R FR LUIS DE SOUSA",
      "house": "48",
      "postcode": "2005-137",
      "city": "SANTARÉM",
      "lon": "-8.69281331892539",
      "lat": "39.23732237334458"
    },
    {
      "id": "pt.ine.add.PTCONT.4535233",
      "street": "R GEN HUMBERTO DELGADO",
      "house": "2",
      "postcode": "2005-154",
      "city": "SANTARÉM",
      "lon": "-8.69346783598948",
      "lat": "39.2366076497391"
    },
    {
      "id": "pt.ine.add.PTCONT.4535234",
      "street": "R GEN HUMBERTO DELGADO",
      "house": "2",
      "postcode": "2005-154",
      "city": "SANTARÉM",
      "lon": "-8.69346783598948",
      "lat": "39.2366076497391"
    },
    {
      "id": "pt.ine.add.PTCONT.4535235",
      "street": "R GEN HUMBERTO DELGADO",
      "house": "2",
      "postcode": "2005-154",
      "city": "SANTARÉM",
      "lon": "-8.69346783598948",
      "lat": "39.2366076497391"
    },
    {
      "id": "pt.ine.add.PTCONT.4535706",
      "street": "R GEN HUMBERTO DELGADO",
      "house": "2",
      "postcode": "2005-154",
      "city": "SANTARÉM",
      "lon": "-8.69346783598948",
      "lat": "39.2366076497391"
    },
    {
      "id": "pt.ine.add.PTCONT.4543047",
      "street": "AV ANTÓNIO MARIA BAPTISTA",
      "house": "70",
      "postcode": "2005-160",
      "city": "SANTARÉM",
      "lon": "-8.692740534853131",
      "lat": "39.23690838735001"
    },
    {
      "id": "pt.ine.add.PTCONT.4543048",
      "street": "R GEN HUMBERTO DELGADO",
      "house": "6",
      "postcode": "2005-154",
      "city": "SANTARÉM",
      "lon": "-8.693605672632154",
      "lat": "39.23646286974674"
    },
    {
      "id": "pt.ine.add.PTCONT.4543711",
      "street": "R GEN HUMBERTO DELGADO",
      "house": "6",
      "postcode": "2005-154",
      "city": "SANTARÉM",
      "lon": "-8.693605672632154",
      "lat": "39.23646286974674"
    },
    {
      "id": "pt.ine.add.PTCONT.4549150",
      "street": "RAMP FR LUIS SOUSA",
      "house": "5",
      "postcode": "2005-140",
      "city": "SANTARÉM",
      "lon": "-8.69041975070366",
      "lat": "39.23782925212913"
    },
    {
      "id": "pt.ine.add.PTCONT.4549151",
      "street": "RAMP FR LUIS SOUSA",
      "house": "3",
      "postcode": "2005-140",
      "city": "SANTARÉM",
      "lon": "-8.69041975070366",
      "lat": "39.23782925212913"
    },
    {
      "id": "pt.ine.add.PTCONT.4557644",
      "street": "R FR LUIS DE SOUSA",
      "house": "38",
      "postcode": "2005-172",
      "city": "SANTARÉM",
      "lon": "-8.692512685993394",
      "lat": "39.23738686869409"
    },
    {
      "id": "pt.ine.add.PTCONT.4557651",
      "street": "R GEN HUMBERTO DELGADO",
      "house": "10",
      "postcode": "2005-154",
      "city": "SANTARÉM",
      "lon": "-8.69387062275761",
      "lat": "39.23628144848498"
    },
    {
      "id": "pt.ine.add.PTCONT.4557652",
      "street": "R GEN HUMBERTO DELGADO",
      "house": "10",
      "postcode": "2005-154",
      "city": "SANTARÉM",
      "lon": "-8.69387062275761",
      "lat": "39.23628144848498"
    },
    {
      "id": "pt.ine.add.PTCONT.4557653",
      "street": "R GEN HUMBERTO DELGADO",
      "house": "10",
      "postcode": "2005-154",
      "city": "SANTARÉM",
      "lon": "-8.69387062275761",
      "lat": "39.23628144848498"
    },
    {
      "id": "pt.ine.add.PTCONT.4557654",
      "street": "R GEN HUMBERTO DELGADO",
      "house": "10",
      "postcode": "2005-154",
      "city": "SANTARÉM",
      "lon": "-8.69387062275761",
      "lat": "39.23628144848498"
    },
    {
      "id": "pt.ine.add.PTCONT.4557655",
      "street": "R GEN HUMBERTO DELGADO",
      "house": "10",
      "postcode": "2005-154",
      "city": "SANTARÉM",
      "lon": "-8.69387062275761",
      "lat": "39.23628144848498"
    },
    {
      "id": "pt.ine.add.PTCONT.4557656",
      "street": "R GEN HUMBERTO DELGADO",
      "house": "10",
      "postcode": "2005-154",
      "city": "SANTARÉM",
      "lon": "-8.69387062275761",
      "lat": "39.23628144848498"
    },
    {
      "id": "pt.ine.add.PTCONT.4563965",
      "street": "R FR LUIS DE SOUSA",
      "house": "6",
      "postcode": "2005-137",
      "city": "SANTARÉM",
      "lon": "-8.692085435795482",
      "lat": "39.237551051266365"
    },
    {
      "id": "pt.ine.add.PTCONT.4563966",
      "street": "R FR LUIS DE SOUSA",
      "house": "6",
      "postcode": "2005-137",
      "city": "SANTARÉM",
      "lon": "-8.692085435795482",
      "lat": "39.237551051266365"
    },
    {
      "id": "pt.ine.add.PTCONT.4566020",
      "street": "R FR LUIS DE SOUSA",
      "house": "22",
      "postcode": "2005-137",
      "city": "SANTARÉM",
      "lon": "-8.691668765802357",
      "lat": "39.237589079363524"
    },
    {
      "id": "pt.ine.add.PTCONT.4566021",
      "street": "R FR LUIS DE SOUSA",
      "house": "22",
      "postcode": "2005-137",
      "city": "SANTARÉM",
      "lon": "-8.691668765802357",
      "lat": "39.237589079363524"
    },
    {
      "id": "pt.ine.add.PTCONT.4566033",
      "street": "R FR LUIS DE SOUSA",
      "house": "37",
      "postcode": "2005-137",
      "city": "SANTARÉM",
      "lon": "-8.692383852911941",
      "lat": "39.2372073414161"
    },
    {
      "id": "pt.ine.add.PTCONT.4566034",
      "street": "R FR LUIS DE SOUSA",
      "house": "37",
      "postcode": "2005-137",
      "city": "SANTARÉM",
      "lon": "-8.692383852911941",
      "lat": "39.2372073414161"
    },
    {
      "id": "pt.ine.add.PTCONT.4574733",
      "street": "R FR LUIS DE SOUSA",
      "house": "28",
      "postcode": "2005-137",
      "city": "SANTARÉM",
      "lon": "-8.691910203749048",
      "lat": "39.2373627388341"
    },
    {
      "id": "pt.ine.add.PTCONT.4574734",
      "street": "R FR LUIS DE SOUSA",
      "house": "28",
      "postcode": "2005-137",
      "city": "SANTARÉM",
      "lon": "-8.691910203749048",
      "lat": "39.2373627388341"
    },
    {
      "id": "pt.ine.add.PTCONT.4574735",
      "street": "R FR LUIS DE SOUSA",
      "house": "28",
      "postcode": "2005-137",
      "city": "SANTARÉM",
      "lon": "-8.691910203749048",
      "lat": "39.2373627388341"
    },
    {
      "id": "pt.ine.add.PTCONT.4574736",
      "street": "R FR LUIS DE SOUSA",
      "house": "28",
      "postcode": "2005-137",
      "city": "SANTARÉM",
      "lon": "-8.691910203749048",
      "lat": "39.2373627388341"
    },
    {
      "id": "pt.ine.add.PTCONT.4574737",
      "street": "R FR LUIS DE SOUSA",
      "house": "28",
      "postcode": "2005-137",
      "city": "SANTARÉM",
      "lon": "-8.691910203749048",
      "lat": "39.2373627388341"
    },
    {
      "id": "pt.ine.add.PTCONT.4574738",
      "street": "R FR LUIS DE SOUSA",
      "house": "28",
      "postcode": "2005-137",
      "city": "SANTARÉM",
      "lon": "-8.691910203749048",
      "lat": "39.2373627388341"
    },
    {
      "id": "pt.ine.add.PTCONT.4576212",
      "street": "ESTR S DOMINGOS",
      "house": "29",
      "postcode": "2005-324",
      "city": "",
      "lon": "-8.690720030991494",
      "lat": "39.237719727375804"
    },
    {
      "id": "pt.ine.add.PTCONT.4576213",
      "street": "ESTR S DOMINGOS",
      "house": "29",
      "postcode": "2005-324",
      "city": "",
      "lon": "-8.690720030991494",
      "lat": "39.237719727375804"
    },
    {
      "id": "pt.ine.add.PTCONT.4576214",
      "street": "ESTR S DOMINGOS",
      "house": "29",
      "postcode": "2005-324",
      "city": "",
      "lon": "-8.690720030991494",
      "lat": "39.237719727375804"
    },
    {
      "id": "pt.ine.add.PTCONT.4576215",
      "street": "ESTR S DOMINGOS",
      "house": "29",
      "postcode": "2005-324",
      "city": "",
      "lon": "-8.690720030991494",
      "lat": "39.237719727375804"
    },
    {
      "id": "pt.ine.add.PTCONT.4577192",
      "street": "ESTR S DOMINGOS",
      "house": "29",
      "postcode": "2005-324",
      "city": "",
      "lon": "-8.690720030991494",
      "lat": "39.237719727375804"
    },
    {
      "id": "pt.ine.add.PTCONT.4577248",
      "street": "ESTR S DOMINGOS",
      "house": "29",
      "postcode": "2005-324",
      "city": "",
      "lon": "-8.690720030991494",
      "lat": "39.237719727375804"
    },
    {
      "id": "pt.ine.add.PTCONT.4584657",
      "street": "R FR LUIS DE SOUSA",
      "house": "4",
      "postcode": "2005-137",
      "city": "SANTARÉM",
      "lon": "-8.691935011383302",
      "lat": "39.23756978767034"
    },
    {
      "id": "pt.ine.add.PTCONT.4585406",
      "street": "R FR LUIS DE SOUSA",
      "house": "4",
      "postcode": "2005-137",
      "city": "SANTARÉM",
      "lon": "-8.691935011383302",
      "lat": "39.23756978767034"
    },
    {
      "id": "pt.ine.add.PTCONT.4591004",
      "street": "R GEN HUMBERTO DELGADO",
      "house": "26 26A",
      "postcode": "2005-154",
      "city": "SANTARÉM",
      "lon": "-8.694133993372706",
      "lat": "39.235901873633516"
    },
    {
      "id": "pt.ine.add.PTCONT.4591005",
      "street": "R GEN HUMBERTO DELGADO",
      "house": "26 26A",
      "postcode": "2005-154",
      "city": "SANTARÉM",
      "lon": "-8.694133993372706",
      "lat": "39.235901873633516"
    },
    {
      "id": "pt.ine.add.PTCONT.4591006",
      "street": "R GEN HUMBERTO DELGADO",
      "house": "26 26A",
      "postcode": "2005-154",
      "city": "SANTARÉM",
      "lon": "-8.694133993372706",
      "lat": "39.235901873633516"
    },
    {
      "id": "pt.ine.add.PTCONT.4595920",
      "street": "R GEN HUMBERTO DELGADO",
      "house": "22",
      "postcode": "2005-154",
      "city": "SANTARÉM",
      "lon": "-8.694041912533457",
      "lat": "39.23597437551718"
    },
    {
      "id": "pt.ine.add.PTCONT.4596330",
      "street": "R FR LUIS DE SOUSA",
      "house": "32",
      "postcode": "2005-137",
      "city": "SANTARÉM",
      "lon": "-8.69219954104745",
      "lat": "39.23733432845208"
    },
    {
      "id": "pt.ine.add.PTCONT.4596331",
      "street": "AV ANTÓNIO MARIA BAPTISTA",
      "house": "50",
      "postcode": "2005-160",
      "city": "SANTARÉM",
      "lon": "-8.691791454103578",
      "lat": "39.23699400924626"
    },
    {
      "id": "pt.ine.add.PTCONT.4596332",
      "street": "AV ANTÓNIO MARIA BAPTISTA",
      "house": "50",
      "postcode": "2005-160",
      "city": "SANTARÉM",
      "lon": "-8.691791454103578",
      "lat": "39.23699400924626"
    },
    {
      "id": "pt.ine.add.PTCONT.4606325",
      "street": "R GEN HUMBERTO DELGADO",
      "house": "18",
      "postcode": "2005-154",
      "city": "SANTARÉM",
      "lon": "-8.693846526910017",
      "lat": "39.236164469597355"
    },
    {
      "id": "pt.ine.add.PTCONT.4607693",
      "street": "R FR LUIS DE SOUSA",
      "house": "8",
      "postcode": "2005-137",
      "city": "SANTARÉM",
      "lon": "-8.692235931620312",
      "lat": "39.23754132162332"
    },
    {
      "id": "pt.ine.add.PTCONT.4607694",
      "street": "R FR LUIS DE SOUSA",
      "house": "8",
      "postcode": "2005-137",
      "city": "SANTARÉM",
      "lon": "-8.692235931620312",
      "lat": "39.23754132162332"
    },
    {
      "id": "pt.ine.add.PTCONT.4607704",
      "street": "RAMP FR LUIS DE SOUSA",
      "house": "1",
      "postcode": "2005-140",
      "city": "SANTARÉM",
      "lon": "-8.690279126249909",
      "lat": "39.23762275704951"
    },
    {
      "id": "pt.ine.add.PTCONT.4607705",
      "street": "RAMP FR LUIS DE SOUSA",
      "house": "1",
      "postcode": "2005-140",
      "city": "SANTARÉM",
      "lon": "-8.690279126249909",
      "lat": "39.23762275704951"
    },
    {
      "id": "pt.ine.add.PTCONT.4607706",
      "street": "RAMP FR LUIS DE SOUSA",
      "house": "1",
      "postcode": "2005-140",
      "city": "SANTARÉM",
      "lon": "-8.690279126249909",
      "lat": "39.23762275704951"
    },
    {
      "id": "pt.ine.add.PTCONT.4615942",
      "street": "R FR LUIS DE SOUSA",
      "house": "36",
      "postcode": "2005-172",
      "city": "SANTARÉM",
      "lon": "-8.692477367568584",
      "lat": "39.23731497993068"
    },
    {
      "id": "pt.ine.add.PTCONT.4617584",
      "street": "R GEN HUMBERTO DELGADO",
      "house": "20A 3",
      "postcode": "2005-154",
      "city": "SANTARÉM",
      "lon": "-8.694113412038483",
      "lat": "39.23622623554966"
    },
    {
      "id": "pt.ine.add.PTCONT.4622261",
      "street": "ESTR S DOMINGOS",
      "house": "43",
      "postcode": "2005-324",
      "city": "",
      "lon": "-8.691113109948892",
      "lat": "39.23762777190403"
    },
    {
      "id": "pt.ine.add.PTCONT.4622262",
      "street": "ESTR S DOMINGOS",
      "house": "43",
      "postcode": "2005-324",
      "city": "",
      "lon": "-8.691113109948892",
      "lat": "39.23762777190403"
    },
    {
      "id": "pt.ine.add.PTCONT.4622263",
      "street": "ESTR S DOMINGOS",
      "house": "43",
      "postcode": "2005-324",
      "city": "",
      "lon": "-8.691113109948892",
      "lat": "39.23762777190403"
    },
    {
      "id": "pt.ine.add.PTCONT.4622264",
      "street": "ESTR S DOMINGOS",
      "house": "43",
      "postcode": "2005-324",
      "city": "",
      "lon": "-8.691113109948892",
      "lat": "39.23762777190403"
    },
    {
      "id": "pt.ine.add.PTCONT.4622276",
      "street": "ESTR S DOMINGOS",
      "house": "43",
      "postcode": "2005-324",
      "city": "",
      "lon": "-8.691113109948892",
      "lat": "39.23762777190403"
    },
    {
      "id": "pt.ine.add.PTCONT.4628329",
      "street": "TV RAFOA",
      "house": "5",
      "postcode": "2005-153",
      "city": "SANTARÉM",
      "lon": "-8.691387796955478",
      "lat": "39.237212119892305"
    },
    {
      "id": "pt.ine.add.PTCONT.4628330",
      "street": "TV RAFOA",
      "house": "5",
      "postcode": "2005-153",
      "city": "SANTARÉM",
      "lon": "-8.691387796955478",
      "lat": "39.237212119892305"
    },
    {
      "id": "pt.ine.add.PTCONT.4628331",
      "street": "TV RAFOA",
      "house": "5",
      "postcode": "2005-153",
      "city": "SANTARÉM",
      "lon": "-8.691387796955478",
      "lat": "39.237212119892305"
    },
    {
      "id": "pt.ine.add.PTCONT.4628381",
      "street": "TV RAFOA",
      "house": "5",
      "postcode": "2005-153",
      "city": "SANTARÉM",
      "lon": "-8.691387796955478",
      "lat": "39.237212119892305"
    },
    {
      "id": "pt.ine.add.PTCONT.4628382",
      "street": "TV RAFOA",
      "house": "5",
      "postcode": "2005-153",
      "city": "SANTARÉM",
      "lon": "-8.691387796955478",
      "lat": "39.237212119892305"
    },
    {
      "id": "pt.ine.add.PTCONT.4629174",
      "street": "TV RAFOA",
      "house": "5",
      "postcode": "2005-153",
      "city": "SANTARÉM",
      "lon": "-8.691387796955478",
      "lat": "39.237212119892305"
    },
    {
      "id": "pt.ine.add.PTCONT.4630455",
      "street": "ESTR S DOMINGOS",
      "house": "39",
      "postcode": "2005-324",
      "city": "",
      "lon": "-8.690974267219122",
      "lat": "39.237646451582044"
    },
    {
      "id": "pt.ine.add.PTCONT.4630456",
      "street": "ESTR S DOMINGOS",
      "house": "39",
      "postcode": "2005-324",
      "city": "",
      "lon": "-8.690974267219122",
      "lat": "39.237646451582044"
    },
    {
      "id": "pt.ine.add.PTCONT.4630457",
      "street": "ESTR S DOMINGOS",
      "house": "39",
      "postcode": "2005-324",
      "city": "",
      "lon": "-8.690974267219122",
      "lat": "39.237646451582044"
    },
    {
      "id": "pt.ine.add.PTCONT.4630458",
      "street": "ESTR S DOMINGOS",
      "house": "39",
      "postcode": "2005-324",
      "city": "",
      "lon": "-8.690974267219122",
      "lat": "39.237646451582044"
    },
    {
      "id": "pt.ine.add.PTCONT.4630459",
      "street": "ESTR S DOMINGOS",
      "house": "39",
      "postcode": "2005-324",
      "city": "",
      "lon": "-8.690974267219122",
      "lat": "39.237646451582044"
    },
    {
      "id": "pt.ine.add.PTCONT.4630460",
      "street": "R FR LUIS DE SOUSA",
      "house": "52",
      "postcode": "2005-137",
      "city": "SANTARÉM",
      "lon": "-8.692860076621338",
      "lat": "39.23737619243536"
    },
    {
      "id": "pt.ine.add.PTCONT.4630461",
      "street": "R FR LUIS DE SOUSA",
      "house": "52",
      "postcode": "2005-137",
      "city": "SANTARÉM",
      "lon": "-8.692860076621338",
      "lat": "39.23737619243536"
    },
    {
      "id": "pt.ine.add.PTCONT.4631171",
      "street": "ESTR S DOMINGOS",
      "house": "39",
      "postcode": "2005-324",
      "city": "",
      "lon": "-8.690974267219122",
      "lat": "39.237646451582044"
    },
    {
      "id": "pt.ine.add.PTCONT.4631453",
      "street": "R FR LUIS DE SOUSA",
      "house": "52",
      "postcode": "2005-137",
      "city": "SANTARÉM",
      "lon": "-8.692860076621338",
      "lat": "39.23737619243536"
    },
    {
      "id": "pt.ine.add.PTCONT.4636658",
      "street": "R GEN HUMBERTO DELGADO",
      "house": "36",
      "postcode": "2005-154",
      "city": "SANTARÉM",
      "lon": "-8.692790369495864",
      "lat": "39.23734950551681"
    },
    {
      "id": "pt.ine.add.PTCONT.4636659",
      "street": "AV ANTÓNIO MARIA BAPTISTA",
      "house": "44",
      "postcode": "2005-160",
      "city": "SANTARÉM",
      "lon": "-8.691455718566774",
      "lat": "39.237013633742585"
    },
    {
      "id": "pt.ine.add.PTCONT.4636660",
      "street": "AV ANTÓNIO MARIA BAPTISTA",
      "house": "44",
      "postcode": "2005-160",
      "city": "SANTARÉM",
      "lon": "-8.691455718566774",
      "lat": "39.237013633742585"
    },
    {
      "id": "pt.ine.add.PTCONT.4636661",
      "street": "AV ANTÓNIO MARIA BAPTISTA",
      "house": "44",
      "postcode": "2005-160",
      "city": "SANTARÉM",
      "lon": "-8.691455718566774",
      "lat": "39.237013633742585"
    },
    {
      "id": "pt.ine.add.PTCONT.4636662",
      "street": "AV ANTÓNIO MARIA BAPTISTA",
      "house": "44",
      "postcode": "2005-160",
      "city": "SANTARÉM",
      "lon": "-8.691455718566774",
      "lat": "39.237013633742585"
    },
    {
      "id": "pt.ine.add.PTCONT.4636663",
      "street": "AV ANTÓNIO MARIA BAPTISTA",
      "house": "44",
      "postcode": "2005-160",
      "city": "SANTARÉM",
      "lon": "-8.691455718566774",
      "lat": "39.237013633742585"
    },
    {
      "id": "pt.ine.add.PTCONT.4637585",
      "street": "AV ANTÓNIO MARIA BAPTISTA",
      "house": "44",
      "postcode": "2005-160",
      "city": "SANTARÉM",
      "lon": "-8.691455718566774",
      "lat": "39.237013633742585"
    },
    {
      "id": "pt.ine.add.PTCONT.4641840",
      "street": "R FR LUIS DE SOUSA",
      "house": "7",
      "postcode": "2005-137",
      "city": "SANTARÉM",
      "lon": "-8.692154928405293",
      "lat": "39.23755071774208"
    },
    {
      "id": "pt.ine.add.PTCONT.4641841",
      "street": "R FR LUIS DE SOUSA",
      "house": "7",
      "postcode": "2005-137",
      "city": "SANTARÉM",
      "lon": "-8.692154928405293",
      "lat": "39.23755071774208"
    },
    {
      "id": "pt.ine.add.PTCONT.4641842",
      "street": "R FR LUIS DE SOUSA",
      "house": "40",
      "postcode": "2005-137",
      "city": "SANTARÉM",
      "lon": "-8.692524911851399",
      "lat": "39.23746787565706"
    },
    {
      "id": "pt.ine.add.PTCONT.4641843",
      "street": "R FR LUIS DE SOUSA",
      "house": "40",
      "postcode": "2005-137",
      "city": "SANTARÉM",
      "lon": "-8.692524911851399",
      "lat": "39.23746787565706"
    },
    {
      "id": "pt.ine.add.PTCONT.4641844",
      "street": "R FR LUIS DE SOUSA",
      "house": "40",
      "postcode": "2005-137",
      "city": "SANTARÉM",
      "lon": "-8.692524911851399",
      "lat": "39.23746787565706"
    },
    {
      "id": "pt.ine.add.PTCONT.4641845",
      "street": "R FR LUIS DE SOUSA",
      "house": "50",
      "postcode": "2005-137",
      "city": "SANTARÉM",
      "lon": "-8.692952590019598",
      "lat": "39.237357733204846"
    },
    {
      "id": "pt.ine.add.PTCONT.4643558",
      "street": "R FR LUIS DE SOUSA",
      "house": "40",
      "postcode": "2005-137",
      "city": "SANTARÉM",
      "lon": "-8.692524911851399",
      "lat": "39.23746787565706"
    },
    {
      "id": "pt.ine.add.PTCONT.4647422",
      "street": "R FR LUIS SOUSA",
      "house": "2 D",
      "postcode": "2005-137",
      "city": "SANTARÉM",
      "lon": "-8.690405531881698",
      "lat": "39.23749605012691"
    },
    {
      "id": "pt.ine.add.PTCONT.4647423",
      "street": "R FR LUIS SOUSA",
      "house": "2 D",
      "postcode": "2005-137",
      "city": "SANTARÉM",
      "lon": "-8.690405531881698",
      "lat": "39.23749605012691"
    },
    {
      "id": "pt.ine.add.PTCONT.4647424",
      "street": "R FR LUIS SOUSA",
      "house": "2D",
      "postcode": "2005-137",
      "city": "SANTARÉM",
      "lon": "-8.690405531881698",
      "lat": "39.23749605012691"
    },
    {
      "id": "pt.ine.add.PTCONT.4647705",
      "street": "R FR LUIS SOUSA",
      "house": "2 D",
      "postcode": "2005-137",
      "city": "SANTARÉM",
      "lon": "-8.690405531881698",
      "lat": "39.23749605012691"
    },
    {
      "id": "pt.ine.add.PTCONT.4650183",
      "street": "AV ANTÓNIO MARIA BAPTISTA",
      "house": "64",
      "postcode": "2005-160",
      "city": "SANTARÉM",
      "lon": "-8.692312358540509",
      "lat": "39.23695548032674"
    },
    {
      "id": "pt.ine.add.PTCONT.4650184",
      "street": "AV ANTÓNIO MARIA BAPTISTA",
      "house": "64",
      "postcode": "2005-160",
      "city": "SANTARÉM",
      "lon": "-8.692312358540509",
      "lat": "39.23695548032674"
    },
    {
      "id": "pt.ine.add.PTCONT.4656748",
      "street": "AV ANTÓNIO MARIA BAPTISTA",
      "house": "48",
      "postcode": "2005-160",
      "city": "SANTARÉM",
      "lon": "-8.691664123404134",
      "lat": "39.23700362722742"
    },
    {
      "id": "pt.ine.add.PTCONT.4657575",
      "street": "R FR LUIS DE SOUSA",
      "house": "48",
      "postcode": "2005-137",
      "city": "SANTARÉM",
      "lon": "-8.69281331892539",
      "lat": "39.23732237334458"
    },
    {
      "id": "pt.ine.add.PTCONT.4658254",
      "street": "R FR LUIS SOUSA",
      "house": "6",
      "postcode": "2005-137",
      "city": "SANTARÉM",
      "lon": "-8.691123265009908",
      "lat": "39.23744757728812"
    }
  ]
}