{
  "data": {
    "distrito": "Lisboa",
    "concelho": "Torres Vedras",
    "freguesia": "Santa Maria, São Pedro e Matacães",
    "OBJECTID": 161,
    "BGRI2021": "11132601608",
    "DT21": "11",
    "DTMN21": "1113",
    "DTMNFR21": "111326",
    "DTMNFRSEC21": "111326016",
    "SECNUM21": "016",
    "SSNUM21": "08",
    "SECSSNUM21": "01608",
    "OBJECTID_1": 116455,
    "DT": "11",
    "CC": "13",
    "fr": "26",
    "SEC": "016",
    "SS": "08"
  },
  "addresses": [
    {
      "id": "pt.ine.add.PTCONT.2318791",
      "street": "AV 5 DE OUTUBRO",
      "house": "",
      "postcode": "2560-270",
      "city": "TORRES VEDRAS",
      "lon": "-9.257080354219179",
      "lat": "39.091804704090336"
    },
    {
      "id": "pt.ine.add.PTCONT.2318792",
      "street": "AV 5 DE OUTUBRO",
      "house": "",
      "postcode": "2560-270",
      "city": "TORRES VEDRAS",
      "lon": "-9.257080354219179",
      "lat": "39.091804704090336"
    },
    {
      "id": "pt.ine.add.PTCONT.2318793",
      "street": "AV 5 DE OUTUBRO",
      "house": "",
      "postcode": "2560-270",
      "city": "TORRES VEDRAS",
      "lon": "-9.257080354219179",
      "lat": "39.091804704090336"
    },
    {
      "id": "pt.ine.add.PTCONT.2318794",
      "street": "AV 5 DE OUTUBRO",
      "house": "",
      "postcode": "2560-270",
      "city": "TORRES VEDRAS",
      "lon": "-9.257080354219179",
      "lat": "39.091804704090336"
    },
    {
      "id": "pt.ine.add.PTCONT.2322369",
      "street": "AV 5 DE OUTUBRO",
      "house": "",
      "postcode": "2560-270",
      "city": "TORRES VEDRAS",
      "lon": "-9.257080354219179",
      "lat": "39.091804704090336"
    },
    {
      "id": "pt.ine.add.PTCONT.2428462",
      "street": "AV 5 DE OUTUBRO",
      "house": "",
      "postcode": "2560-270",
      "city": "TORRES VEDRAS",
      "lon": "-9.25815994329246",
      "lat": "39.09137095010295"
    },
    {
      "id": "pt.ine.add.PTCONT.2428463",
      "street": "AV 5 DE OUTUBRO",
      "house": "",
      "postcode": "2560-270",
      "city": "TORRES VEDRAS",
      "lon": "-9.25815994329246",
      "lat": "39.09137095010295"
    },
    {
      "id": "pt.ine.add.PTCONT.2428464",
      "street": "AV 5 DE OUTUBRO",
      "house": "",
      "postcode": "2560-270",
      "city": "TORRES VEDRAS",
      "lon": "-9.25815994329246",
      "lat": "39.09137095010295"
    },
    {
      "id": "pt.ine.add.PTCONT.2455606",
      "street": "AV 5 DE OUTUBRO",
      "house": "",
      "postcode": "2560-270",
      "city": "TORRES VEDRAS",
      "lon": "-9.257551168948728",
      "lat": "39.09161101179482"
    },
    {
      "id": "pt.ine.add.PTCONT.2455607",
      "street": "AV 5 DE OUTUBRO",
      "house": "",
      "postcode": "2560-270",
      "city": "TORRES VEDRAS",
      "lon": "-9.257551168948728",
      "lat": "39.09161101179482"
    },
    {
      "id": "pt.ine.add.PTCONT.2455608",
      "street": "AV 5 DE OUTUBRO",
      "house": "",
      "postcode": "2560-270",
      "city": "TORRES VEDRAS",
      "lon": "-9.257551168948728",
      "lat": "39.09161101179482"
    },
    {
      "id": "pt.ine.add.PTCONT.2455609",
      "street": "AV 5 DE OUTUBRO",
      "house": "",
      "postcode": "2560-270",
      "city": "TORRES VEDRAS",
      "lon": "-9.257551168948728",
      "lat": "39.09161101179482"
    },
    {
      "id": "pt.ine.add.PTCONT.2455610",
      "street": "AV 5 DE OUTUBRO",
      "house": "",
      "postcode": "2560-270",
      "city": "TORRES VEDRAS",
      "lon": "-9.257551168948728",
      "lat": "39.09161101179482"
    },
    {
      "id": "pt.ine.add.PTCONT.2536997",
      "street": "R 1 DE DEZEMBRO",
      "house": "",
      "postcode": "2560-300",
      "city": "TORRES VEDRAS",
      "lon": "-9.257975502272677",
      "lat": "39.09212933891878"
    },
    {
      "id": "pt.ine.add.PTCONT.2536998",
      "street": "R 1 DE DEZEMBRO",
      "house": "",
      "postcode": "2560-300",
      "city": "TORRES VEDRAS",
      "lon": "-9.257975502272677",
      "lat": "39.09212933891878"
    },
    {
      "id": "pt.ine.add.PTCONT.2574247",
      "street": "AV 5 DE OUTUBRO",
      "house": "10",
      "postcode": "2560-270",
      "city": "TORRES VEDRAS",
      "lon": "-9.256091919089053",
      "lat": "39.092156504850536"
    },
    {
      "id": "pt.ine.add.PTCONT.2695232",
      "street": "AV TEN VALADIM",
      "house": "15",
      "postcode": "2560-275",
      "city": "TORRES VEDRAS",
      "lon": "-9.257239597801043",
      "lat": "39.0923706255467"
    },
    {
      "id": "pt.ine.add.PTCONT.2774219",
      "street": "AV 5 DE OUTUBRO",
      "house": "",
      "postcode": "2560-270",
      "city": "TORRES VEDRAS",
      "lon": "-9.257838508035974",
      "lat": "39.09150916031817"
    },
    {
      "id": "pt.ine.add.PTCONT.2774220",
      "street": "AV 5 DE OUTUBRO",
      "house": "",
      "postcode": "2560-270",
      "city": "TORRES VEDRAS",
      "lon": "-9.257838508035974",
      "lat": "39.09150916031817"
    },
    {
      "id": "pt.ine.add.PTCONT.2774221",
      "street": "AV 5 DE OUTUBRO",
      "house": "",
      "postcode": "2560-270",
      "city": "TORRES VEDRAS",
      "lon": "-9.257838508035974",
      "lat": "39.09150916031817"
    },
    {
      "id": "pt.ine.add.PTCONT.2774222",
      "street": "AV 5 DE OUTUBRO",
      "house": "",
      "postcode": "2560-270",
      "city": "TORRES VEDRAS",
      "lon": "-9.257838508035974",
      "lat": "39.09150916031817"
    },
    {
      "id": "pt.ine.add.PTCONT.2774223",
      "street": "AV 5 DE OUTUBRO",
      "house": "",
      "postcode": "2560-270",
      "city": "TORRES VEDRAS",
      "lon": "-9.257838508035974",
      "lat": "39.09150916031817"
    },
    {
      "id": "pt.ine.add.PTCONT.2774224",
      "street": "AV 5 DE OUTUBRO",
      "house": "",
      "postcode": "2560-270",
      "city": "TORRES VEDRAS",
      "lon": "-9.257838508035974",
      "lat": "39.09150916031817"
    },
    {
      "id": "pt.ine.add.PTCONT.2774225",
      "street": "AV 5 DE OUTUBRO",
      "house": "",
      "postcode": "2560-270",
      "city": "TORRES VEDRAS",
      "lon": "-9.257838508035974",
      "lat": "39.09150916031817"
    },
    {
      "id": "pt.ine.add.PTCONT.2774226",
      "street": "AV 5 DE OUTUBRO",
      "house": "",
      "postcode": "2560-270",
      "city": "TORRES VEDRAS",
      "lon": "-9.257838508035974",
      "lat": "39.09150916031817"
    },
    {
      "id": "pt.ine.add.PTCONT.2848474",
      "street": "PTO CAPOTE",
      "house": "",
      "postcode": "2560-300",
      "city": "TORRES VEDRAS",
      "lon": "-9.257732384572979",
      "lat": "39.092104662653384"
    },
    {
      "id": "pt.ine.add.PTCONT.2848475",
      "street": "PTO CAPOTE",
      "house": "",
      "postcode": "2560-300",
      "city": "TORRES VEDRAS",
      "lon": "-9.257732384572979",
      "lat": "39.092104662653384"
    },
    {
      "id": "pt.ine.add.PTCONT.2848476",
      "street": "PTO CAPOTE",
      "house": "",
      "postcode": "2560-300",
      "city": "TORRES VEDRAS",
      "lon": "-9.257732384572979",
      "lat": "39.092104662653384"
    },
    {
      "id": "pt.ine.add.PTCONT.2848477",
      "street": "PTO CAPOTE",
      "house": "",
      "postcode": "2560-300",
      "city": "TORRES VEDRAS",
      "lon": "-9.257732384572979",
      "lat": "39.092104662653384"
    },
    {
      "id": "pt.ine.add.PTCONT.2851050",
      "street": "PTO CAPOTE",
      "house": "",
      "postcode": "2560-300",
      "city": "TORRES VEDRAS",
      "lon": "-9.257732384572979",
      "lat": "39.092104662653384"
    },
    {
      "id": "pt.ine.add.PTCONT.2859657",
      "street": "AV 5 DE OUTUBRO",
      "house": "26",
      "postcode": "2560-270",
      "city": "TORRES VEDRAS",
      "lon": "-9.257333025203968",
      "lat": "39.0917031880813"
    },
    {
      "id": "pt.ine.add.PTCONT.2859658",
      "street": "AV 5 DE OUTUBRO",
      "house": "26",
      "postcode": "2560-270",
      "city": "TORRES VEDRAS",
      "lon": "-9.257333025203968",
      "lat": "39.0917031880813"
    },
    {
      "id": "pt.ine.add.PTCONT.2859659",
      "street": "AV 5 DE OUTUBRO",
      "house": "26",
      "postcode": "2560-270",
      "city": "TORRES VEDRAS",
      "lon": "-9.257333025203968",
      "lat": "39.0917031880813"
    },
    {
      "id": "pt.ine.add.PTCONT.2859660",
      "street": "AV 5 DE OUTUBRO",
      "house": "26",
      "postcode": "2560-270",
      "city": "TORRES VEDRAS",
      "lon": "-9.257333025203968",
      "lat": "39.0917031880813"
    },
    {
      "id": "pt.ine.add.PTCONT.2859661",
      "street": "AV 5 DE OUTUBRO",
      "house": "26",
      "postcode": "2560-270",
      "city": "TORRES VEDRAS",
      "lon": "-9.257333025203968",
      "lat": "39.0917031880813"
    },
    {
      "id": "pt.ine.add.PTCONT.2859662",
      "street": "AV 5 DE OUTUBRO",
      "house": "26",
      "postcode": "2560-270",
      "city": "TORRES VEDRAS",
      "lon": "-9.257333025203968",
      "lat": "39.0917031880813"
    },
    {
      "id": "pt.ine.add.PTCONT.2862446",
      "street": "R 1º DE DEZEMBRO PÁTIO CAPOTE",
      "house": "",
      "postcode": "2560-300",
      "city": "TORRES VEDRAS",
      "lon": "-9.257569591022902",
      "lat": "39.09204318217048"
    },
    {
      "id": "pt.ine.add.PTCONT.2862447",
      "street": "R 1º DE DEZEMBRO PÁTIO CAPOTE",
      "house": "",
      "postcode": "2560-300",
      "city": "TORRES VEDRAS",
      "lon": "-9.257569591022902",
      "lat": "39.09204318217048"
    },
    {
      "id": "pt.ine.add.PTCONT.2862497",
      "street": "R 1º DE DEZEMBRO PÁTIO CAPOTE",
      "house": "",
      "postcode": "2560-300",
      "city": "TORRES VEDRAS",
      "lon": "-9.257569591022902",
      "lat": "39.09204318217048"
    },
    {
      "id": "pt.ine.add.PTCONT.2931213",
      "street": "AV TEN VALADIM",
      "house": "21",
      "postcode": "2560-275",
      "city": "TORRES VEDRAS",
      "lon": "-9.257704295191758",
      "lat": "39.09251926713059"
    },
    {
      "id": "pt.ine.add.PTCONT.2959049",
      "street": "R 1 DE DEZEMBRO",
      "house": "4",
      "postcode": "2560-300",
      "city": "TORRES VEDRAS",
      "lon": "-9.258071927460533",
      "lat": "39.09165102422288"
    },
    {
      "id": "pt.ine.add.PTCONT.2959050",
      "street": "R 1 DE DEZEMBRO",
      "house": "4",
      "postcode": "2560-300",
      "city": "TORRES VEDRAS",
      "lon": "-9.258071927460533",
      "lat": "39.09165102422288"
    },
    {
      "id": "pt.ine.add.PTCONT.2959052",
      "street": "R 1 DE DEZEMBRO",
      "house": "4",
      "postcode": "2560-300",
      "city": "TORRES VEDRAS",
      "lon": "-9.258071927460533",
      "lat": "39.09165102422288"
    },
    {
      "id": "pt.ine.add.PTCONT.2959053",
      "street": "R 1 DE DEZEMBRO",
      "house": "4",
      "postcode": "2560-300",
      "city": "TORRES VEDRAS",
      "lon": "-9.258071927460533",
      "lat": "39.09165102422288"
    },
    {
      "id": "pt.ine.add.PTCONT.2959054",
      "street": "R 1 DE DEZEMBRO",
      "house": "4",
      "postcode": "2560-300",
      "city": "TORRES VEDRAS",
      "lon": "-9.258071927460533",
      "lat": "39.09165102422288"
    },
    {
      "id": "pt.ine.add.PTCONT.2959055",
      "street": "R 1 DE DEZEMBRO",
      "house": "4",
      "postcode": "2560-300",
      "city": "TORRES VEDRAS",
      "lon": "-9.258071927460533",
      "lat": "39.09165102422288"
    },
    {
      "id": "pt.ine.add.PTCONT.2959056",
      "street": "R 1 DE DEZEMBRO",
      "house": "4",
      "postcode": "2560-300",
      "city": "TORRES VEDRAS",
      "lon": "-9.258071927460533",
      "lat": "39.09165102422288"
    },
    {
      "id": "pt.ine.add.PTCONT.2959057",
      "street": "R 1 DE DEZEMBRO",
      "house": "4",
      "postcode": "2560-300",
      "city": "TORRES VEDRAS",
      "lon": "-9.258071927460533",
      "lat": "39.09165102422288"
    },
    {
      "id": "pt.ine.add.PTCONT.2960857",
      "street": "R 1 DE DEZEMBRO",
      "house": "4",
      "postcode": "2560-300",
      "city": "TORRES VEDRAS",
      "lon": "-9.258071927460533",
      "lat": "39.09165102422288"
    },
    {
      "id": "pt.ine.add.PTCONT.2961038",
      "street": "R 1 DE DEZEMBRO",
      "house": "4",
      "postcode": "2560-300",
      "city": "TORRES VEDRAS",
      "lon": "-9.258071927460533",
      "lat": "39.09165102422288"
    },
    {
      "id": "pt.ine.add.PTCONT.3050189",
      "street": "R 1 DE DEZEMBRO",
      "house": "",
      "postcode": "2560-300",
      "city": "TORRES VEDRAS",
      "lon": "-9.257919579320403",
      "lat": "39.09224697273764"
    },
    {
      "id": "pt.ine.add.PTCONT.3050190",
      "street": "R 1 DE DEZEMBRO",
      "house": "",
      "postcode": "2560-300",
      "city": "TORRES VEDRAS",
      "lon": "-9.257919579320403",
      "lat": "39.09224697273764"
    },
    {
      "id": "pt.ine.add.PTCONT.3050191",
      "street": "R 1 DE DEZEMBRO",
      "house": "",
      "postcode": "2560-300",
      "city": "TORRES VEDRAS",
      "lon": "-9.257919579320403",
      "lat": "39.09224697273764"
    },
    {
      "id": "pt.ine.add.PTCONT.3050192",
      "street": "R 1 DE DEZEMBRO",
      "house": "",
      "postcode": "2560-300",
      "city": "TORRES VEDRAS",
      "lon": "-9.257919579320403",
      "lat": "39.09224697273764"
    },
    {
      "id": "pt.ine.add.PTCONT.3079027",
      "street": "AV 5 DE OUTUBRO",
      "house": "12",
      "postcode": "2560-270",
      "city": "TORRES VEDRAS",
      "lon": "-9.256275967590383",
      "lat": "39.09210068836365"
    },
    {
      "id": "pt.ine.add.PTCONT.3106030",
      "street": "AV TEN VALADIM",
      "house": "23",
      "postcode": "2560-275",
      "city": "TORRES VEDRAS",
      "lon": "-9.257865802289986",
      "lat": "39.0924996945764"
    },
    {
      "id": "pt.ine.add.PTCONT.3134408",
      "street": "AV TEN VALADIM",
      "house": "",
      "postcode": "2560-277",
      "city": "TORRES VEDRAS",
      "lon": "-9.256302081128776",
      "lat": "39.09228958906311"
    },
    {
      "id": "pt.ine.add.PTCONT.3134410",
      "street": "AV TEN VALADIM",
      "house": "",
      "postcode": "2560-277",
      "city": "TORRES VEDRAS",
      "lon": "-9.256302081128776",
      "lat": "39.09228958906311"
    },
    {
      "id": "pt.ine.add.PTCONT.3134411",
      "street": "AV TEN VALADIM",
      "house": "",
      "postcode": "2560-277",
      "city": "TORRES VEDRAS",
      "lon": "-9.256302081128776",
      "lat": "39.09228958906311"
    },
    {
      "id": "pt.ine.add.PTCONT.3134412",
      "street": "AV TEN VALADIM",
      "house": "",
      "postcode": "2560-277",
      "city": "TORRES VEDRAS",
      "lon": "-9.256302081128776",
      "lat": "39.09228958906311"
    },
    {
      "id": "pt.ine.add.PTCONT.3134413",
      "street": "AV TEN VALADIM",
      "house": "",
      "postcode": "2560-277",
      "city": "TORRES VEDRAS",
      "lon": "-9.256302081128776",
      "lat": "39.09228958906311"
    },
    {
      "id": "pt.ine.add.PTCONT.3261853",
      "street": "AV TEN VALADIM",
      "house": "9",
      "postcode": "2560-277",
      "city": "TORRES VEDRAS",
      "lon": "-9.256856370412812",
      "lat": "39.0922572258411"
    },
    {
      "id": "pt.ine.add.PTCONT.3261854",
      "street": "AV TEN VALADIM",
      "house": "9",
      "postcode": "2560-277",
      "city": "TORRES VEDRAS",
      "lon": "-9.256856370412812",
      "lat": "39.0922572258411"
    },
    {
      "id": "pt.ine.add.PTCONT.3261855",
      "street": "AV TEN VALADIM",
      "house": "9",
      "postcode": "2560-277",
      "city": "TORRES VEDRAS",
      "lon": "-9.256856370412812",
      "lat": "39.0922572258411"
    },
    {
      "id": "pt.ine.add.PTCONT.3261856",
      "street": "AV TEN VALADIM",
      "house": "9",
      "postcode": "2560-277",
      "city": "TORRES VEDRAS",
      "lon": "-9.256856370412812",
      "lat": "39.0922572258411"
    },
    {
      "id": "pt.ine.add.PTCONT.3261857",
      "street": "AV TEN VALADIM",
      "house": "9",
      "postcode": "2560-277",
      "city": "TORRES VEDRAS",
      "lon": "-9.256856370412812",
      "lat": "39.0922572258411"
    },
    {
      "id": "pt.ine.add.PTCONT.3261858",
      "street": "AV TEN VALADIM",
      "house": "9",
      "postcode": "2560-277",
      "city": "TORRES VEDRAS",
      "lon": "-9.256856370412812",
      "lat": "39.0922572258411"
    },
    {
      "id": "pt.ine.add.PTCONT.3261859",
      "street": "AV TEN VALADIM",
      "house": "9",
      "postcode": "2560-277",
      "city": "TORRES VEDRAS",
      "lon": "-9.256856370412812",
      "lat": "39.0922572258411"
    },
    {
      "id": "pt.ine.add.PTCONT.3261860",
      "street": "AV TEN VALADIM",
      "house": "9",
      "postcode": "2560-277",
      "city": "TORRES VEDRAS",
      "lon": "-9.256856370412812",
      "lat": "39.0922572258411"
    },
    {
      "id": "pt.ine.add.PTCONT.3261861",
      "street": "AV TEN VALADIM",
      "house": "9",
      "postcode": "2560-277",
      "city": "TORRES VEDRAS",
      "lon": "-9.256856370412812",
      "lat": "39.0922572258411"
    },
    {
      "id": "pt.ine.add.PTCONT.3261862",
      "street": "AV TEN VALADIM",
      "house": "9",
      "postcode": "2560-277",
      "city": "TORRES VEDRAS",
      "lon": "-9.256856370412812",
      "lat": "39.0922572258411"
    },
    {
      "id": "pt.ine.add.PTCONT.3261863",
      "street": "AV TEN VALADIM",
      "house": "9",
      "postcode": "2560-277",
      "city": "TORRES VEDRAS",
      "lon": "-9.256856370412812",
      "lat": "39.0922572258411"
    },
    {
      "id": "pt.ine.add.PTCONT.3265802",
      "street": "AV TEN VALADIM",
      "house": "9",
      "postcode": "2560-277",
      "city": "TORRES VEDRAS",
      "lon": "-9.256856370412812",
      "lat": "39.0922572258411"
    },
    {
      "id": "pt.ine.add.PTCONT.3273206",
      "street": "AV 5 DE OUTUBRO",
      "house": "20",
      "postcode": "2560-270",
      "city": "TORRES VEDRAS",
      "lon": "-9.25674707240568",
      "lat": "39.09192501101352"
    },
    {
      "id": "pt.ine.add.PTCONT.3273207",
      "street": "AV 5 DE OUTUBRO",
      "house": "20",
      "postcode": "2560-270",
      "city": "TORRES VEDRAS",
      "lon": "-9.25674707240568",
      "lat": "39.09192501101352"
    },
    {
      "id": "pt.ine.add.PTCONT.3273208",
      "street": "AV 5 DE OUTUBRO",
      "house": "20",
      "postcode": "2560-270",
      "city": "TORRES VEDRAS",
      "lon": "-9.25674707240568",
      "lat": "39.09192501101352"
    },
    {
      "id": "pt.ine.add.PTCONT.3273209",
      "street": "AV 5 DE OUTUBRO",
      "house": "20",
      "postcode": "2560-270",
      "city": "TORRES VEDRAS",
      "lon": "-9.25674707240568",
      "lat": "39.09192501101352"
    },
    {
      "id": "pt.ine.add.PTCONT.3273210",
      "street": "AV 5 DE OUTUBRO",
      "house": "20",
      "postcode": "2560-270",
      "city": "TORRES VEDRAS",
      "lon": "-9.25674707240568",
      "lat": "39.09192501101352"
    },
    {
      "id": "pt.ine.add.PTCONT.3273211",
      "street": "AV 5 DE OUTUBRO",
      "house": "20",
      "postcode": "2560-270",
      "city": "TORRES VEDRAS",
      "lon": "-9.25674707240568",
      "lat": "39.09192501101352"
    },
    {
      "id": "pt.ine.add.PTCONT.3273212",
      "street": "AV 5 DE OUTUBRO",
      "house": "20",
      "postcode": "2560-270",
      "city": "TORRES VEDRAS",
      "lon": "-9.25674707240568",
      "lat": "39.09192501101352"
    },
    {
      "id": "pt.ine.add.PTCONT.3273213",
      "street": "AV 5 DE OUTUBRO",
      "house": "20",
      "postcode": "2560-270",
      "city": "TORRES VEDRAS",
      "lon": "-9.25674707240568",
      "lat": "39.09192501101352"
    },
    {
      "id": "pt.ine.add.PTCONT.3273214",
      "street": "AV 5 OUTUBRO",
      "house": "20 BL C",
      "postcode": "2560-270",
      "city": "TORRES VEDRAS",
      "lon": "-9.25674707240568",
      "lat": "39.09192501101352"
    },
    {
      "id": "pt.ine.add.PTCONT.3273226",
      "street": "AV 5 DE OUTUBRO",
      "house": "20",
      "postcode": "2560-270",
      "city": "TORRES VEDRAS",
      "lon": "-9.25674707240568",
      "lat": "39.09192501101352"
    },
    {
      "id": "pt.ine.add.PTCONT.3273227",
      "street": "AV 5 DE OUTUBRO",
      "house": "20",
      "postcode": "2560-270",
      "city": "TORRES VEDRAS",
      "lon": "-9.25674707240568",
      "lat": "39.09192501101352"
    },
    {
      "id": "pt.ine.add.PTCONT.3273228",
      "street": "AV 5 DE OUTUBRO",
      "house": "20",
      "postcode": "2560-270",
      "city": "TORRES VEDRAS",
      "lon": "-9.25674707240568",
      "lat": "39.09192501101352"
    },
    {
      "id": "pt.ine.add.PTCONT.3273229",
      "street": "AV 5 DE OUTUBRO",
      "house": "20",
      "postcode": "2560-270",
      "city": "TORRES VEDRAS",
      "lon": "-9.25674707240568",
      "lat": "39.09192501101352"
    },
    {
      "id": "pt.ine.add.PTCONT.3275027",
      "street": "AV 5 DE OUTUBRO",
      "house": "20",
      "postcode": "2560-270",
      "city": "TORRES VEDRAS",
      "lon": "-9.25674707240568",
      "lat": "39.09192501101352"
    },
    {
      "id": "pt.ine.add.PTCONT.3366584",
      "street": "AV TEN VALADIM",
      "house": "",
      "postcode": "2560-275",
      "city": "TORRES VEDRAS",
      "lon": "-9.257077661882695",
      "lat": "39.092363179615106"
    },
    {
      "id": "pt.ine.add.PTCONT.3366585",
      "street": "AV TEN VALADIM",
      "house": "",
      "postcode": "2560-275",
      "city": "TORRES VEDRAS",
      "lon": "-9.257077661882695",
      "lat": "39.092363179615106"
    },
    {
      "id": "pt.ine.add.PTCONT.3366586",
      "street": "AV TEN VALADIM",
      "house": "",
      "postcode": "2560-275",
      "city": "TORRES VEDRAS",
      "lon": "-9.257077661882695",
      "lat": "39.092363179615106"
    },
    {
      "id": "pt.ine.add.PTCONT.3366587",
      "street": "AV TEN VALADIM",
      "house": "",
      "postcode": "2560-275",
      "city": "TORRES VEDRAS",
      "lon": "-9.257077661882695",
      "lat": "39.092363179615106"
    },
    {
      "id": "pt.ine.add.PTCONT.3367376",
      "street": "AV TEN VALADIM",
      "house": "",
      "postcode": "2560-275",
      "city": "TORRES VEDRAS",
      "lon": "-9.257077661882695",
      "lat": "39.092363179615106"
    },
    {
      "id": "pt.ine.add.PTCONT.3402436",
      "street": "AV TEN VALADIM",
      "house": "7",
      "postcode": "2560-277",
      "city": "TORRES VEDRAS",
      "lon": "-9.256602124724177",
      "lat": "39.09225967623415"
    },
    {
      "id": "pt.ine.add.PTCONT.3402438",
      "street": "AV TEN VALADIM",
      "house": "7 B",
      "postcode": "2560-277",
      "city": "TORRES VEDRAS",
      "lon": "-9.256602124724177",
      "lat": "39.09225967623415"
    },
    {
      "id": "pt.ine.add.PTCONT.3402439",
      "street": "AV TEN VALADIM",
      "house": "7",
      "postcode": "2560-277",
      "city": "TORRES VEDRAS",
      "lon": "-9.256602124724177",
      "lat": "39.09225967623415"
    },
    {
      "id": "pt.ine.add.PTCONT.3402440",
      "street": "AV TEN VALADIM",
      "house": "7",
      "postcode": "2560-277",
      "city": "TORRES VEDRAS",
      "lon": "-9.256602124724177",
      "lat": "39.09225967623415"
    },
    {
      "id": "pt.ine.add.PTCONT.3402441",
      "street": "AV TEN VALADIM",
      "house": "7",
      "postcode": "2560-277",
      "city": "TORRES VEDRAS",
      "lon": "-9.256602124724177",
      "lat": "39.09225967623415"
    },
    {
      "id": "pt.ine.add.PTCONT.3402442",
      "street": "AV TEN VALADIM",
      "house": "7",
      "postcode": "2560-277",
      "city": "TORRES VEDRAS",
      "lon": "-9.256602124724177",
      "lat": "39.09225967623415"
    },
    {
      "id": "pt.ine.add.PTCONT.3402443",
      "street": "AV TEN VALADIM",
      "house": "7",
      "postcode": "2560-277",
      "city": "TORRES VEDRAS",
      "lon": "-9.256602124724177",
      "lat": "39.09225967623415"
    },
    {
      "id": "pt.ine.add.PTCONT.3402444",
      "street": "AV TEN VALADIM",
      "house": "7",
      "postcode": "2560-277",
      "city": "TORRES VEDRAS",
      "lon": "-9.256602124724177",
      "lat": "39.09225967623415"
    },
    {
      "id": "pt.ine.add.PTCONT.3402445",
      "street": "R TEN VALADIM",
      "house": "7",
      "postcode": "2560-275",
      "city": "TORRES VEDRAS",
      "lon": "-9.256602124724177",
      "lat": "39.09225967623415"
    },
    {
      "id": "pt.ine.add.PTCONT.3402446",
      "street": "AV TEN VALADIM",
      "house": "7",
      "postcode": "2560-277",
      "city": "TORRES VEDRAS",
      "lon": "-9.256602124724177",
      "lat": "39.09225967623415"
    },
    {
      "id": "pt.ine.add.PTCONT.3402447",
      "street": "AV TEN VALADIM",
      "house": "7",
      "postcode": "2560-277",
      "city": "TORRES VEDRAS",
      "lon": "-9.256602124724177",
      "lat": "39.09225967623415"
    },
    {
      "id": "pt.ine.add.PTCONT.3402448",
      "street": "R TEN VALADIM",
      "house": "7",
      "postcode": "2560-275",
      "city": "TORRES VEDRAS",
      "lon": "-9.256602124724177",
      "lat": "39.09225967623415"
    },
    {
      "id": "pt.ine.add.PTCONT.3402449",
      "street": "AV TEN VALADIM",
      "house": "7",
      "postcode": "2560-277",
      "city": "TORRES VEDRAS",
      "lon": "-9.256602124724177",
      "lat": "39.09225967623415"
    },
    {
      "id": "pt.ine.add.PTCONT.3404098",
      "street": "AV TEN VALADIM",
      "house": "7",
      "postcode": "2560-277",
      "city": "TORRES VEDRAS",
      "lon": "-9.256602124724177",
      "lat": "39.09225967623415"
    },
    {
      "id": "pt.ine.add.PTCONT.3405831",
      "street": "AV TEN VALADIM",
      "house": "7",
      "postcode": "2560-277",
      "city": "TORRES VEDRAS",
      "lon": "-9.256602124724177",
      "lat": "39.09225967623415"
    },
    {
      "id": "pt.ine.add.PTCONT.3435782",
      "street": "R 1º DE DEZEMBRO PÁTIO CAPOTE",
      "house": "",
      "postcode": "2560-300",
      "city": "TORRES VEDRAS",
      "lon": "-9.257569591022902",
      "lat": "39.09204318217048"
    },
    {
      "id": "pt.ine.add.PTCONT.3443036",
      "street": "AV 5 DE OUTUBRO",
      "house": "20",
      "postcode": "2560-270",
      "city": "TORRES VEDRAS",
      "lon": "-9.25674707240568",
      "lat": "39.09192501101352"
    },
    {
      "id": "pt.ine.add.PTCONT.3443861",
      "street": "R 1 DE DEZEMBRO",
      "house": "12",
      "postcode": "2560-300",
      "city": "TORRES VEDRAS",
      "lon": "-9.257898898401693",
      "lat": "39.09240029552124"
    },
    {
      "id": "pt.ine.add.PTCONT.3445708",
      "street": "AV TEN VALADIM",
      "house": "",
      "postcode": "2560-275",
      "city": "TORRES VEDRAS",
      "lon": "-9.257077661882695",
      "lat": "39.092363179615106"
    },
    {
      "id": "pt.ine.add.PTCONT.3453176",
      "street": "AV 5 DE OUTUBRO",
      "house": "",
      "postcode": "2560-270",
      "city": "TORRES VEDRAS",
      "lon": "-9.257551168948728",
      "lat": "39.09161101179482"
    }
  ]
}