{
  "data": {
    "distrito": "Viseu",
    "concelho": "Lamego",
    "freguesia": "Lamego (Almacave e Sé)",
    "OBJECTID": 41,
    "BGRI2021": "18052500711",
    "DT21": "18",
    "DTMN21": "1805",
    "DTMNFR21": "180525",
    "DTMNFRSEC21": "180525007",
    "SECNUM21": "007",
    "SSNUM21": "11",
    "SECSSNUM21": "00711",
    "OBJECTID_1": 190966,
    "DT": "18",
    "CC": "05",
    "fr": "25",
    "SEC": "007",
    "SS": "11"
  },
  "addresses": [
    {
      "id": "pt.ine.add.PTCONT.5461935",
      "street": "",
      "house": "",
      "postcode": "5100-194",
      "city": "LAMEGO",
      "lon": "-7.822112418834127",
      "lat": "41.09528064527726"
    },
    {
      "id": "pt.ine.add.PTCONT.5496450",
      "street": "LUGAR DA BARREIRINHA",
      "house": "",
      "postcode": "5100-084",
      "city": "LAMEGO",
      "lon": "-7.82484930528785",
      "lat": "41.095441075861736"
    },
    {
      "id": "pt.ine.add.PTCONT.5569269",
      "street": "QTA PACO",
      "house": "6",
      "postcode": "5100-161",
      "city": "LAMEGO",
      "lon": "-7.821826203492022",
      "lat": "41.095396930482885"
    },
    {
      "id": "pt.ine.add.PTCONT.5582164",
      "street": "PACO",
      "house": "",
      "postcode": "5100-194",
      "city": "LAMEGO",
      "lon": "-7.822684719333956",
      "lat": "41.095075085778404"
    },
    {
      "id": "pt.ine.add.PTCONT.5582165",
      "street": "PACO",
      "house": "",
      "postcode": "5100-194",
      "city": "LAMEGO",
      "lon": "-7.822684719333956",
      "lat": "41.095075085778404"
    },
    {
      "id": "pt.ine.add.PTCONT.5591144",
      "street": "QTA PACO",
      "house": "",
      "postcode": "5100-194",
      "city": "LAMEGO",
      "lon": "-7.823277521376044",
      "lat": "41.09557192709234"
    },
    {
      "id": "pt.ine.add.PTCONT.5621158",
      "street": "QTA DO PAÇO",
      "house": "",
      "postcode": "5100-162",
      "city": "LAMEGO",
      "lon": "-7.8215281695810575",
      "lat": "41.09549517407996"
    },
    {
      "id": "pt.ine.add.PTCONT.5626824",
      "street": "QTA PACO",
      "house": "4",
      "postcode": "5100-161",
      "city": "LAMEGO",
      "lon": "-7.821707049565278",
      "lat": "41.09542362192064"
    },
    {
      "id": "pt.ine.add.PTCONT.5655022",
      "street": "LUGAR DA QUINTA DO PACO",
      "house": "",
      "postcode": "5100-194",
      "city": "LAMEGO",
      "lon": "-7.8223861365628595",
      "lat": "41.09529038821159"
    }
  ]
}