{
  "data": {
    "distrito": "Viseu",
    "concelho": "Lamego",
    "freguesia": "Lamego (Almacave e Sé)",
    "OBJECTID": 905,
    "BGRI2021": "18052500721",
    "DT21": "18",
    "DTMN21": "1805",
    "DTMNFR21": "180525",
    "DTMNFRSEC21": "180525007",
    "SECNUM21": "007",
    "SSNUM21": "21",
    "SECSSNUM21": "00721",
    "OBJECTID_1": 191194,
    "DT": "18",
    "CC": "05",
    "fr": "25",
    "SEC": "007",
    "SS": "21"
  },
  "addresses": [
    {
      "id": "pt.ine.add.PTCONT.5445138",
      "street": "LUGAR DA PREZA",
      "house": "",
      "postcode": "5100-185",
      "city": "LAMEGO",
      "lon": "-7.8223959400587875",
      "lat": "41.09826188838603"
    },
    {
      "id": "pt.ine.add.PTCONT.5472231",
      "street": "LUGAR DAS AMOREIRAS",
      "house": "",
      "postcode": "5100-090",
      "city": "LAMEGO",
      "lon": "-7.822017800610718",
      "lat": "41.09767557788839"
    },
    {
      "id": "pt.ine.add.PTCONT.5473389",
      "street": "URB AMOREIRAS",
      "house": "",
      "postcode": "5100-185",
      "city": "LAMEGO",
      "lon": "-7.822185165107546",
      "lat": "41.09752295374517"
    },
    {
      "id": "pt.ine.add.PTCONT.5474534",
      "street": "URB AMOREIRAS",
      "house": "",
      "postcode": "5100-185",
      "city": "LAMEGO",
      "lon": "-7.82463202475243",
      "lat": "41.0960888160314"
    },
    {
      "id": "pt.ine.add.PTCONT.5484780",
      "street": "URB AMOREIRAS",
      "house": "24",
      "postcode": "5100-185",
      "city": "LAMEGO",
      "lon": "-7.823906040625988",
      "lat": "41.09606886117525"
    },
    {
      "id": "pt.ine.add.PTCONT.5499668",
      "street": "URB AMOREIRAS",
      "house": "30",
      "postcode": "5100-185",
      "city": "LAMEGO",
      "lon": "-7.822689415867086",
      "lat": "41.09660585788406"
    },
    {
      "id": "pt.ine.add.PTCONT.5513453",
      "street": "LUGAR DAS AMOREIRAS",
      "house": "",
      "postcode": "5100-090",
      "city": "LAMEGO",
      "lon": "-7.822788235596023",
      "lat": "41.0983709991742"
    },
    {
      "id": "pt.ine.add.PTCONT.5527420",
      "street": "LUGAR DAS AMOREIRAS",
      "house": "",
      "postcode": "5100-185",
      "city": "LAMEGO",
      "lon": "-7.823561096469045",
      "lat": "41.09855316737443"
    },
    {
      "id": "pt.ine.add.PTCONT.5531850",
      "street": "URB AMOREIRAS",
      "house": "",
      "postcode": "5100-185",
      "city": "LAMEGO",
      "lon": "-7.822532006802837",
      "lat": "41.097172715039285"
    },
    {
      "id": "pt.ine.add.PTCONT.5564003",
      "street": "URB AMOREIRAS",
      "house": "",
      "postcode": "5100-185",
      "city": "LAMEGO",
      "lon": "-7.822376589418447",
      "lat": "41.097316367452024"
    },
    {
      "id": "pt.ine.add.PTCONT.5564004",
      "street": "URB AMOREIRAS",
      "house": "",
      "postcode": "5100-185",
      "city": "LAMEGO",
      "lon": "-7.822557763521762",
      "lat": "41.096758579045854"
    },
    {
      "id": "pt.ine.add.PTCONT.5565640",
      "street": "URB AMOREIRAS",
      "house": "23",
      "postcode": "5100-185",
      "city": "LAMEGO",
      "lon": "-7.824191833415738",
      "lat": "41.09604261435613"
    },
    {
      "id": "pt.ine.add.PTCONT.5574704",
      "street": "LUGAR DAS AMOREIRAS",
      "house": "",
      "postcode": "5100-090",
      "city": "LAMEGO",
      "lon": "-7.822087052712876",
      "lat": "41.09813499251236"
    },
    {
      "id": "pt.ine.add.PTCONT.5579986",
      "street": "LUGAR DA PRESA",
      "house": "",
      "postcode": "5100-011",
      "city": "LAMEGO",
      "lon": "-7.82167120871948",
      "lat": "41.09797178890308"
    },
    {
      "id": "pt.ine.add.PTCONT.5580312",
      "street": "AMOREIRAS",
      "house": "29",
      "postcode": "5100-185",
      "city": "LAMEGO",
      "lon": "-7.822844873256938",
      "lat": "41.096453200670894"
    },
    {
      "id": "pt.ine.add.PTCONT.5581746",
      "street": "MARTIR DE S.SEBASTIÃO",
      "house": "",
      "postcode": "5100-194",
      "city": "LAMEGO",
      "lon": "-7.819355117565978",
      "lat": "41.09691198297367"
    },
    {
      "id": "pt.ine.add.PTCONT.5600676",
      "street": "URB AMOREIRAS",
      "house": "",
      "postcode": "5100-185",
      "city": "LAMEGO",
      "lon": "-7.82300032992608",
      "lat": "41.09630054324142"
    },
    {
      "id": "pt.ine.add.PTCONT.5600677",
      "street": "URB AMOREIRAS",
      "house": "",
      "postcode": "5100-185",
      "city": "LAMEGO",
      "lon": "-7.823191197947105",
      "lat": "41.09621101211882"
    },
    {
      "id": "pt.ine.add.PTCONT.5611758",
      "street": "",
      "house": "",
      "postcode": "5100-161",
      "city": "LAMEGO",
      "lon": "-7.8216670037488045",
      "lat": "41.096341969337686"
    },
    {
      "id": "pt.ine.add.PTCONT.5617393",
      "street": "URB AMOREIRAS",
      "house": "",
      "postcode": "5100-185",
      "city": "LAMEGO",
      "lon": "-7.823703566962017",
      "lat": "41.096095331052105"
    },
    {
      "id": "pt.ine.add.PTCONT.5634046",
      "street": "MARTIR DE S.SEBASTIÃO",
      "house": "",
      "postcode": "5100-194",
      "city": "LAMEGO",
      "lon": "-7.820917468035432",
      "lat": "41.09626790518954"
    },
    {
      "id": "pt.ine.add.PTCONT.5653380",
      "street": "URB AMOREIRAS",
      "house": "13",
      "postcode": "5100-185",
      "city": "LAMEGO",
      "lon": "-7.823453355207431",
      "lat": "41.096148685689016"
    }
  ]
}