{
  "data": {
    "ilha": "Ilha da Madeira (Madeira)",
    "concelho": "Funchal",
    "freguesia": "Monte",
    "OBJECTID": 694,
    "BGRI2021": "31030200311",
    "DT21": "31",
    "DTMN21": "3103",
    "DTMNFR21": "310302",
    "DTMNFRSEC21": "310302003",
    "SECNUM21": "003",
    "SSNUM21": "11",
    "SECSSNUM21": "00311",
    "OBJECTID_1": 204004,
    "DT": "31",
    "CC": "03",
    "fr": "02",
    "SEC": "003",
    "SS": "11",
    "BGRI2021_1": "31030200311"
  },
  "addresses": [
    {
      "id": "pt.ine.add.MAD.5638",
      "street": "ESTR CURRAL DOS ROMEIROS",
      "house": "",
      "postcode": "9060-086",
      "city": "FUNCHAL",
      "lon": "-16.891283646223375",
      "lat": "32.6761470870928"
    },
    {
      "id": "pt.ine.add.MAD.5639",
      "street": "ESTR CURRAL DOS ROMEIROS",
      "house": "",
      "postcode": "9060-086",
      "city": "FUNCHAL",
      "lon": "-16.891296206918636",
      "lat": "32.6762370855073"
    },
    {
      "id": "pt.ine.add.MAD.6409",
      "street": "ESTR CURRAL DOS ROMEIROS",
      "house": "CCI 124",
      "postcode": "9060-086",
      "city": "FUNCHAL",
      "lon": "-16.891664546675834",
      "lat": "32.67651111326502"
    },
    {
      "id": "pt.ine.add.MAD.6410",
      "street": "SIT CURRAL DOS ROMEIROS MARIA T NUNES CASTANHA",
      "house": "",
      "postcode": "9060-086",
      "city": "FUNCHAL",
      "lon": "-16.891555283195316",
      "lat": "32.67638649811721"
    },
    {
      "id": "pt.ine.add.MAD.6411",
      "street": "SIT CURRAL DOS ROMEIROS LAURINDA NONES VIVEIROS CCI",
      "house": "",
      "postcode": "9060-086",
      "city": "FUNCHAL",
      "lon": "-16.891518930839958",
      "lat": "32.67617961437521"
    },
    {
      "id": "pt.ine.add.MAD.6412",
      "street": "SIT CURRAL ROMEIROS",
      "house": "141",
      "postcode": "9060-086",
      "city": "FUNCHAL",
      "lon": "-16.891548440467545",
      "lat": "32.67606192522988"
    },
    {
      "id": "pt.ine.add.MAD.6413",
      "street": "SIT CURRAL DOS ROMEIROS DELFINO N VIVEIROS",
      "house": "",
      "postcode": "9060-086",
      "city": "FUNCHAL",
      "lon": "-16.891599840604513",
      "lat": "32.67597096230081"
    },
    {
      "id": "pt.ine.add.MAD.6414",
      "street": "SIT CURRAL DOS ROMEIROS MARIA S C JARDIM",
      "house": "",
      "postcode": "9060-086",
      "city": "FUNCHAL",
      "lon": "-16.891889200346743",
      "lat": "32.67553369685907"
    },
    {
      "id": "pt.ine.add.MAD.6417",
      "street": "SIT CURRAL DOS ROMEIROS",
      "house": "C",
      "postcode": "9060-086",
      "city": "FUNCHAL",
      "lon": "-16.892358245593336",
      "lat": "32.67552662152924"
    },
    {
      "id": "pt.ine.add.MAD.6418",
      "street": "SIT CURRAL DOS ROMEIROS MARIA VERA VIEIRA",
      "house": "",
      "postcode": "9060-086",
      "city": "FUNCHAL",
      "lon": "-16.892267058111536",
      "lat": "32.67575346666478"
    },
    {
      "id": "pt.ine.add.MAD.6419",
      "street": "CAM CURRAL DOS ROMEIROS MARIA E G NUNA",
      "house": "",
      "postcode": "9060-086",
      "city": "FUNCHAL",
      "lon": "-16.892236979090466",
      "lat": "32.675844108214804"
    },
    {
      "id": "pt.ine.add.MAD.6420",
      "street": "CURRAL DOS ROBEIROS",
      "house": "",
      "postcode": "9060-086",
      "city": "FUNCHAL",
      "lon": "-16.89222993162416",
      "lat": "32.67601557132653"
    },
    {
      "id": "pt.ine.add.MAD.6421",
      "street": "SIT CURRAL DOS ROBEIROS JOSE J C SPINOLA",
      "house": "",
      "postcode": "9050-284",
      "city": "FUNCHAL",
      "lon": "-16.89212236645118",
      "lat": "32.676477151664955"
    },
    {
      "id": "pt.ine.add.MAD.59830",
      "street": "",
      "house": "",
      "postcode": "9060-086",
      "city": "FUNCHAL",
      "lon": "-16.891447920680825",
      "lat": "32.67635204200032"
    },
    {
      "id": "pt.ine.add.MAD.60354",
      "street": "SIT CURRAL DOS ROMEIROS MARIA SOSE P DIAS",
      "house": "",
      "postcode": "9060-086",
      "city": "FUNCHAL",
      "lon": "-16.892295996198413",
      "lat": "32.67560872964555"
    },
    {
      "id": "pt.ine.add.MAD.63156",
      "street": "ESTR CURRAL DOS ROMEIROS JOSE C R RODRIGUES",
      "house": "",
      "postcode": "9060-086",
      "city": "FUNCHAL",
      "lon": "-16.8920841245058",
      "lat": "32.67567505720431"
    },
    {
      "id": "pt.ine.add.MAD.75639",
      "street": "CAM CURRAL DOS ROMEIROS PEDRO T DIAS FREITAS",
      "house": "",
      "postcode": "9060-086",
      "city": "FUNCHAL",
      "lon": "-16.891866725159762",
      "lat": "32.6759849748335"
    },
    {
      "id": "pt.ine.add.MAD.82723",
      "street": "SIT CURRAL DOS ROMEIROS",
      "house": "",
      "postcode": "9060-086",
      "city": "FUNCHAL",
      "lon": "-16.891953731405362",
      "lat": "32.67555977988177"
    },
    {
      "id": "pt.ine.add.MAD.84318",
      "street": "SIT CURRAL DOS ROMEIROS",
      "house": "",
      "postcode": "9060-086",
      "city": "FUNCHAL",
      "lon": "-16.892377093835364",
      "lat": "32.675409093047634"
    },
    {
      "id": "pt.ine.add.MAD.91271",
      "street": "SIT CURRAL DOS ROMEIROS ALBERTO F ABRUNHO",
      "house": "",
      "postcode": "9060-086",
      "city": "FUNCHAL",
      "lon": "-16.892004750629727",
      "lat": "32.67545078498082"
    },
    {
      "id": "pt.ine.add.MAD.93979",
      "street": "SIT CURRAL DOS ROMEIROS MARIA NUNES VIUEIROS",
      "house": "",
      "postcode": "9060-086",
      "city": "FUNCHAL",
      "lon": "-16.891547490097384",
      "lat": "32.67601684566077"
    },
    {
      "id": "pt.ine.add.MAD.104634",
      "street": "SIT CURRAL DOS ROMEIROS",
      "house": "",
      "postcode": "9060-086",
      "city": "FUNCHAL",
      "lon": "-16.891953731405362",
      "lat": "32.67555977988177"
    }
  ]
}