{
  "data": {
    "ilha": "Ilha da Madeira (Madeira)",
    "concelho": "Machico",
    "freguesia": "Machico",
    "OBJECTID": 135,
    "BGRI2021": "31040300401",
    "DT21": "31",
    "DTMN21": "3104",
    "DTMNFR21": "310403",
    "DTMNFRSEC21": "310403004",
    "SECNUM21": "004",
    "SSNUM21": "01",
    "SECSSNUM21": "00401",
    "OBJECTID_1": 204451,
    "DT": "31",
    "CC": "04",
    "fr": "03",
    "SEC": "004",
    "SS": "01",
    "BGRI2021_1": "31040300401"
  },
  "addresses": [
    {
      "id": "pt.ine.add.MAD.29643",
      "street": "R TORRE",
      "house": "131",
      "postcode": "9200-401",
      "city": "MACHICO",
      "lon": "-16.77680753148489",
      "lat": "32.72775904203985"
    },
    {
      "id": "pt.ine.add.MAD.29644",
      "street": "R TORRE",
      "house": "127",
      "postcode": "9200-401",
      "city": "MACHICO",
      "lon": "-16.776548660960394",
      "lat": "32.727618408306"
    },
    {
      "id": "pt.ine.add.MAD.29645",
      "street": "R TORRE",
      "house": "125",
      "postcode": "9200-401",
      "city": "MACHICO",
      "lon": "-16.77643966567311",
      "lat": "32.72750270674583"
    },
    {
      "id": "pt.ine.add.MAD.29646",
      "street": "VR TORRE K",
      "house": "13",
      "postcode": "9200-129",
      "city": "MACHICO",
      "lon": "-16.77667577057437",
      "lat": "32.727571511778585"
    },
    {
      "id": "pt.ine.add.MAD.29660",
      "street": "TV PIQUINHO",
      "house": "37",
      "postcode": "9200-120",
      "city": "MACHICO",
      "lon": "-16.776966885150504",
      "lat": "32.72395980161371"
    },
    {
      "id": "pt.ine.add.MAD.29661",
      "street": "TV PIQUINHO",
      "house": "35",
      "postcode": "9200-120",
      "city": "MACHICO",
      "lon": "-16.77679800882543",
      "lat": "32.72405238522464"
    },
    {
      "id": "pt.ine.add.MAD.29662",
      "street": "TV PIQUINHO",
      "house": "27",
      "postcode": "9200-120",
      "city": "MACHICO",
      "lon": "-16.77651251503163",
      "lat": "32.724182697351154"
    },
    {
      "id": "pt.ine.add.MAD.29663",
      "street": "TV PIQUINHO",
      "house": "",
      "postcode": "9200-120",
      "city": "MACHICO",
      "lon": "-16.776360857854137",
      "lat": "32.7240676002254"
    },
    {
      "id": "pt.ine.add.MAD.29664",
      "street": "TV PIQUINHO",
      "house": "17",
      "postcode": "9200-120",
      "city": "MACHICO",
      "lon": "-16.775952191514474",
      "lat": "32.72444316859829"
    },
    {
      "id": "pt.ine.add.MAD.29665",
      "street": "TV PIQUINHO",
      "house": "15",
      "postcode": "9200-120",
      "city": "MACHICO",
      "lon": "-16.77579981945788",
      "lat": "32.72429200507143"
    },
    {
      "id": "pt.ine.add.MAD.29666",
      "street": "TV PIQUINHO",
      "house": "5",
      "postcode": "9200-120",
      "city": "MACHICO",
      "lon": "-16.77571770439723",
      "lat": "32.72445550973349"
    },
    {
      "id": "pt.ine.add.MAD.30468",
      "street": "TV PIQUINHO",
      "house": "7",
      "postcode": "9200-120",
      "city": "MACHICO",
      "lon": "-16.775673250210286",
      "lat": "32.724365949879086"
    },
    {
      "id": "pt.ine.add.MAD.30469",
      "street": "ESTR D MANUEL I",
      "house": "82",
      "postcode": "9200-120",
      "city": "MACHICO",
      "lon": "-16.776827146504527",
      "lat": "32.723907668812174"
    },
    {
      "id": "pt.ine.add.MAD.33877",
      "street": "VR LEVADA DAS FIGUEIRAS",
      "house": "62",
      "postcode": "9200-120",
      "city": "MACHICO",
      "lon": "-16.776162019050663",
      "lat": "32.72641534768798"
    },
    {
      "id": "pt.ine.add.MAD.33878",
      "street": "R TORRE",
      "house": "119",
      "postcode": "9200-401",
      "city": "MACHICO",
      "lon": "-16.77607621005798",
      "lat": "32.72693064429077"
    },
    {
      "id": "pt.ine.add.MAD.35607",
      "street": "BC S JOSÃ‰",
      "house": "83",
      "postcode": "9200-129",
      "city": "MACHICO",
      "lon": "-16.777108107393392",
      "lat": "32.72731285179865"
    },
    {
      "id": "pt.ine.add.MAD.35608",
      "street": "VR LEVADA DAS FIGUEIRAS",
      "house": "77",
      "postcode": "9200-120",
      "city": "MACHICO",
      "lon": "-16.776958054212958",
      "lat": "32.72727890343392"
    },
    {
      "id": "pt.ine.add.MAD.35609",
      "street": "VR TORRE M",
      "house": "",
      "postcode": "9200-129",
      "city": "MACHICO",
      "lon": "-16.77694452465037",
      "lat": "32.72713479194864"
    },
    {
      "id": "pt.ine.add.MAD.35610",
      "street": "SIT TORRE",
      "house": "",
      "postcode": "9200-129",
      "city": "MACHICO",
      "lon": "-16.77655937599007",
      "lat": "32.726545000529164"
    },
    {
      "id": "pt.ine.add.MAD.37344",
      "street": "R S JOSE",
      "house": "9",
      "postcode": "9200-141",
      "city": "MACHICO",
      "lon": "-16.77722430094474",
      "lat": "32.726715953191764"
    },
    {
      "id": "pt.ine.add.MAD.37345",
      "street": "VR TORRE M",
      "house": "23",
      "postcode": "9200-129",
      "city": "MACHICO",
      "lon": "-16.776618368768286",
      "lat": "32.72629163352623"
    },
    {
      "id": "pt.ine.add.MAD.37346",
      "street": "TV S JOSE",
      "house": "11",
      "postcode": "9200-129",
      "city": "MACHICO",
      "lon": "-16.776927349477383",
      "lat": "32.72626921558467"
    },
    {
      "id": "pt.ine.add.MAD.37347",
      "street": "VR TORRE M",
      "house": "13",
      "postcode": "9200-129",
      "city": "MACHICO",
      "lon": "-16.776164638678495",
      "lat": "32.72600945740724"
    },
    {
      "id": "pt.ine.add.MAD.37348",
      "street": "VR LEVADA DAS FIGUEIRAS",
      "house": "49",
      "postcode": "9200-120",
      "city": "MACHICO",
      "lon": "-16.775777891197095",
      "lat": "32.725338515293515"
    },
    {
      "id": "pt.ine.add.MAD.38188",
      "street": "AZ TORRE",
      "house": "30",
      "postcode": "9200-129",
      "city": "MACHICO",
      "lon": "-16.775834382573255",
      "lat": "32.72495891856756"
    },
    {
      "id": "pt.ine.add.MAD.38189",
      "street": "AZ OA TORRE",
      "house": "32",
      "postcode": "9200-120",
      "city": "MACHICO",
      "lon": "-16.775955649739434",
      "lat": "32.725155617545326"
    },
    {
      "id": "pt.ine.add.MAD.38190",
      "street": "TV PIQUINHO",
      "house": "14",
      "postcode": "9200-120",
      "city": "MACHICO",
      "lon": "-16.776520270109422",
      "lat": "32.725111540356444"
    },
    {
      "id": "pt.ine.add.MAD.38191",
      "street": "TV PIQUINHO",
      "house": "16",
      "postcode": "9200-120",
      "city": "MACHICO",
      "lon": "-16.776783896766123",
      "lat": "32.72495448127162"
    },
    {
      "id": "pt.ine.add.MAD.38192",
      "street": "ESTR D MANUEL I",
      "house": "90",
      "postcode": "9200-120",
      "city": "MACHICO",
      "lon": "-16.777774215397848",
      "lat": "32.72431813098838"
    },
    {
      "id": "pt.ine.add.MAD.38193",
      "street": "ESTR D MANUEL 1",
      "house": "",
      "postcode": "9200-120",
      "city": "MACHICO",
      "lon": "-16.777277468024202",
      "lat": "32.72401853088951"
    },
    {
      "id": "pt.ine.add.MAD.38194",
      "street": "VR TORRE",
      "house": "",
      "postcode": "9200-129",
      "city": "MACHICO",
      "lon": "-16.77563719731847",
      "lat": "32.726314556255524"
    },
    {
      "id": "pt.ine.add.MAD.38195",
      "street": "R TORRE",
      "house": "",
      "postcode": "9200-401",
      "city": "MACHICO",
      "lon": "-16.775426005246807",
      "lat": "32.726425775489936"
    },
    {
      "id": "pt.ine.add.MAD.38196",
      "street": "R TORRE",
      "house": "103",
      "postcode": "9200-401",
      "city": "MACHICO",
      "lon": "-16.775207663356163",
      "lat": "32.72617633720859"
    },
    {
      "id": "pt.ine.add.MAD.38197",
      "street": "R TORRE",
      "house": "95",
      "postcode": "9200-401",
      "city": "MACHICO",
      "lon": "-16.774716934638338",
      "lat": "32.72564214879527"
    },
    {
      "id": "pt.ine.add.MAD.38198",
      "street": "AZ TORRE",
      "house": "15",
      "postcode": "9200-129",
      "city": "MACHICO",
      "lon": "-16.77486466132537",
      "lat": "32.725558886358165"
    },
    {
      "id": "pt.ine.add.MAD.38199",
      "street": "AZ TORRE",
      "house": "15C",
      "postcode": "9200-129",
      "city": "MACHICO",
      "lon": "-16.774744289308412",
      "lat": "32.725407268438246"
    },
    {
      "id": "pt.ine.add.MAD.39001",
      "street": "AZ TORRE",
      "house": "17G",
      "postcode": "9200-129",
      "city": "MACHICO",
      "lon": "-16.77479672964936",
      "lat": "32.72536143109215"
    },
    {
      "id": "pt.ine.add.MAD.39002",
      "street": "AZ TORRE",
      "house": "25",
      "postcode": "9200-129",
      "city": "MACHICO",
      "lon": "-16.775244018013414",
      "lat": "32.72531902095671"
    },
    {
      "id": "pt.ine.add.MAD.55858",
      "street": "R TORRE",
      "house": "119",
      "postcode": "9200-401",
      "city": "MACHICO",
      "lon": "-16.776013996672077",
      "lat": "32.7270217154422"
    },
    {
      "id": "pt.ine.add.MAD.56058",
      "street": "SIT PIQUINHO",
      "house": "",
      "postcode": "9200-129",
      "city": "MACHICO",
      "lon": "-16.776449308920796",
      "lat": "32.726375200375266"
    },
    {
      "id": "pt.ine.add.MAD.56062",
      "street": "AZ TORRE",
      "house": "20",
      "postcode": "9200-129",
      "city": "MACHICO",
      "lon": "-16.77515391511976",
      "lat": "32.72561792282858"
    },
    {
      "id": "pt.ine.add.MAD.56067",
      "street": "ESTR PIQUINHO",
      "house": "64",
      "postcode": "9200-120",
      "city": "MACHICO",
      "lon": "-16.776261460989026",
      "lat": "32.72389764855868"
    },
    {
      "id": "pt.ine.add.MAD.59921",
      "street": "ESTR PIQUINHO",
      "house": "62",
      "postcode": "9200-120",
      "city": "MACHICO",
      "lon": "-16.776177558979",
      "lat": "32.7239709892112"
    },
    {
      "id": "pt.ine.add.MAD.62759",
      "street": "R TORRE",
      "house": "115",
      "postcode": "9200-401",
      "city": "MACHICO",
      "lon": "-16.775883668969204",
      "lat": "32.72690631563375"
    },
    {
      "id": "pt.ine.add.MAD.67430",
      "street": "VR TORRE M",
      "house": "8",
      "postcode": "9200-129",
      "city": "MACHICO",
      "lon": "-16.776002552518797",
      "lat": "32.72644466424501"
    },
    {
      "id": "pt.ine.add.MAD.70865",
      "street": "R TORRE",
      "house": "121",
      "postcode": "9200-401",
      "city": "MACHICO",
      "lon": "-16.77613330010114",
      "lat": "32.727119233413774"
    },
    {
      "id": "pt.ine.add.MAD.70866",
      "street": "VR TORRE",
      "house": "9",
      "postcode": "9200-129",
      "city": "MACHICO",
      "lon": "-16.775862452838417",
      "lat": "32.72637449764959"
    },
    {
      "id": "pt.ine.add.MAD.70869",
      "street": "AZ TORRE",
      "house": "",
      "postcode": "9200-129",
      "city": "MACHICO",
      "lon": "-16.774938256515846",
      "lat": "32.72550373042954"
    },
    {
      "id": "pt.ine.add.MAD.70870",
      "street": "VR LEVADA DAS FIGUEIRAS",
      "house": "44",
      "postcode": "9200-120",
      "city": "MACHICO",
      "lon": "-16.77546301451812",
      "lat": "32.72506338811951"
    },
    {
      "id": "pt.ine.add.MAD.73168",
      "street": "VR TORRE M",
      "house": "24",
      "postcode": "9200-129",
      "city": "MACHICO",
      "lon": "-16.77689309049308",
      "lat": "32.726693592258144"
    },
    {
      "id": "pt.ine.add.MAD.74862",
      "street": "VR TORRE K",
      "house": "14",
      "postcode": "9200-129",
      "city": "MACHICO",
      "lon": "-16.77671575519563",
      "lat": "32.727435660636544"
    },
    {
      "id": "pt.ine.add.MAD.74865",
      "street": "R TORRE",
      "house": "",
      "postcode": "9200-401",
      "city": "MACHICO",
      "lon": "-16.774520644808074",
      "lat": "32.725428472823175"
    },
    {
      "id": "pt.ine.add.MAD.74866",
      "street": "AZ TORRE",
      "house": "26",
      "postcode": "9200-129",
      "city": "MACHICO",
      "lon": "-16.775628199323517",
      "lat": "32.72532259805188"
    },
    {
      "id": "pt.ine.add.MAD.81003",
      "street": "VR LEVADA FIGUEIRAS",
      "house": "",
      "postcode": "9200-120",
      "city": "MACHICO",
      "lon": "-16.776239727314913",
      "lat": "32.72656756876484"
    },
    {
      "id": "pt.ine.add.MAD.81006",
      "street": "R TORRE",
      "house": "83",
      "postcode": "9200-401",
      "city": "MACHICO",
      "lon": "-16.774570405371005",
      "lat": "32.725247389056044"
    },
    {
      "id": "pt.ine.add.MAD.81007",
      "street": "AZ TORRE",
      "house": "17H",
      "postcode": "9200-129",
      "city": "MACHICO",
      "lon": "-16.774742323848713",
      "lat": "32.72530808767385"
    },
    {
      "id": "pt.ine.add.MAD.85219",
      "street": "SIT TORRE",
      "house": "",
      "postcode": "9200-129",
      "city": "MACHICO",
      "lon": "-16.776810438783084",
      "lat": "32.7268300483215"
    },
    {
      "id": "pt.ine.add.MAD.85221",
      "street": "AZ TORRE",
      "house": "15B",
      "postcode": "9200-129",
      "city": "MACHICO",
      "lon": "-16.774820564749636",
      "lat": "32.72548735907079"
    },
    {
      "id": "pt.ine.add.MAD.89129",
      "street": "VR LEVADA DAS FIGUEIRAS",
      "house": "68",
      "postcode": "9200-120",
      "city": "MACHICO",
      "lon": "-16.776329175836285",
      "lat": "32.7267737371473"
    },
    {
      "id": "pt.ine.add.MAD.94803",
      "street": "AZ TORRE",
      "house": "15 D",
      "postcode": "9200-129",
      "city": "MACHICO",
      "lon": "-16.77467903809095",
      "lat": "32.72534505959279"
    },
    {
      "id": "pt.ine.add.MAD.94804",
      "street": "AZ TORRE",
      "house": "21",
      "postcode": "9200-129",
      "city": "MACHICO",
      "lon": "-16.775061075055977",
      "lat": "32.72524044123732"
    },
    {
      "id": "pt.ine.add.MAD.94807",
      "street": "TV PIQUINHO",
      "house": "21",
      "postcode": "9200-120",
      "city": "MACHICO",
      "lon": "-16.776087460374313",
      "lat": "32.72426989166162"
    },
    {
      "id": "pt.ine.add.MAD.100209",
      "street": "ESTR D MANUEL I",
      "house": "",
      "postcode": "9200-120",
      "city": "MACHICO",
      "lon": "-16.77773054690717",
      "lat": "32.72480577407641"
    },
    {
      "id": "pt.ine.add.MAD.101032",
      "street": "TV PIQUINHO",
      "house": "9",
      "postcode": "9200-120",
      "city": "MACHICO",
      "lon": "-16.77565900832574",
      "lat": "32.72418577238365"
    },
    {
      "id": "pt.ine.add.MAD.102007",
      "street": "AZ TORRE",
      "house": "17F",
      "postcode": "9200-129",
      "city": "MACHICO",
      "lon": "-16.77488367185036",
      "lat": "32.72544137064739"
    },
    {
      "id": "pt.ine.add.MAD.103504",
      "street": "ESTR PIQUINHO",
      "house": "52",
      "postcode": "9200-120",
      "city": "MACHICO",
      "lon": "-16.77558130329413",
      "lat": "32.72403355078631"
    },
    {
      "id": "pt.ine.add.MAD.103605",
      "street": "BC S JOSÃ‰",
      "house": "80",
      "postcode": "9200-129",
      "city": "MACHICO",
      "lon": "-16.77699327562621",
      "lat": "32.72744074528581"
    },
    {
      "id": "pt.ine.add.MAD.103756",
      "street": "AZ TORRE",
      "house": "29",
      "postcode": "9200-129",
      "city": "MACHICO",
      "lon": "-16.775550672021648",
      "lat": "32.72517939292334"
    },
    {
      "id": "pt.ine.add.MAD.104519",
      "street": "VR TORRE N",
      "house": "7",
      "postcode": "9200-129",
      "city": "MACHICO",
      "lon": "-16.776537928582837",
      "lat": "32.72707742301894"
    },
    {
      "id": "pt.ine.add.MAD.105363",
      "street": "VR TORRE K",
      "house": "19",
      "postcode": "9200-129",
      "city": "MACHICO",
      "lon": "-16.77683505993037",
      "lat": "32.72753317788843"
    },
    {
      "id": "pt.ine.add.MAD.106803",
      "street": "SIT DO PIQUINHO",
      "house": "",
      "postcode": "9200-117",
      "city": "MACHICO",
      "lon": "-16.77756925728224",
      "lat": "32.72581818477585"
    },
    {
      "id": "pt.ine.add.MAD.110752",
      "street": "R D MANUEL I",
      "house": "96",
      "postcode": "9200-120",
      "city": "MACHICO",
      "lon": "-16.777846269319692",
      "lat": "32.72472296210952"
    },
    {
      "id": "pt.ine.add.MAD.110753",
      "street": "ESTR D MANUEL I",
      "house": "100",
      "postcode": "9200-120",
      "city": "MACHICO",
      "lon": "-16.77784877513296",
      "lat": "32.72484919197201"
    },
    {
      "id": "pt.ine.add.MAD.110754",
      "street": "ESTR D MANUELI",
      "house": "102",
      "postcode": "9200-120",
      "city": "MACHICO",
      "lon": "-16.77775384898716",
      "lat": "32.72490465211338"
    },
    {
      "id": "pt.ine.add.MAD.110755",
      "street": "R S JOSE",
      "house": "2",
      "postcode": "9200-141",
      "city": "MACHICO",
      "lon": "-16.777494698112836",
      "lat": "32.72528712367478"
    },
    {
      "id": "pt.ine.add.MAD.110804",
      "street": "VR LEVADA FIGUEIRAS",
      "house": "45",
      "postcode": "9200-120",
      "city": "MACHICO",
      "lon": "-16.77569643065046",
      "lat": "32.72499694883241"
    },
    {
      "id": "pt.ine.add.MAD.110805",
      "street": "TV PIQUINHO",
      "house": "18",
      "postcode": "9200-120",
      "city": "MACHICO",
      "lon": "-16.776641473650134",
      "lat": "32.724767101954995"
    },
    {
      "id": "pt.ine.add.MAD.110806",
      "street": "TV PIQUINHO",
      "house": "24",
      "postcode": "9200-120",
      "city": "MACHICO",
      "lon": "-16.776922854546974",
      "lat": "32.72442941174488"
    },
    {
      "id": "pt.ine.add.MAD.110807",
      "street": "R TORRE",
      "house": "",
      "postcode": "9200-401",
      "city": "MACHICO",
      "lon": "-16.774564383795852",
      "lat": "32.72548196735836"
    },
    {
      "id": "pt.ine.add.MAD.110901",
      "street": "VR LEVADA DAS FIGUEIRAS",
      "house": "46",
      "postcode": "9200-120",
      "city": "MACHICO",
      "lon": "-16.775460154551126",
      "lat": "32.724919125237285"
    },
    {
      "id": "pt.ine.add.MAD.112374",
      "street": "VR TEIXEIRA",
      "house": "94",
      "postcode": "9200-120",
      "city": "MACHICO",
      "lon": "-16.777501715273303",
      "lat": "32.72456550752112"
    },
    {
      "id": "pt.ine.add.MAD.112728",
      "street": "VR LEVADA DAS FIGUEIRAS",
      "house": "43",
      "postcode": "9200-120",
      "city": "MACHICO",
      "lon": "-16.775951894982462",
      "lat": "32.72496627256509"
    },
    {
      "id": "pt.ine.add.MAD.112874",
      "street": "VR TORRE K",
      "house": "15",
      "postcode": "9200-129",
      "city": "MACHICO",
      "lon": "-16.77659931278256",
      "lat": "32.72748240599821"
    },
    {
      "id": "pt.ine.add.MAD.113640",
      "street": "ESTR D MANUEL I",
      "house": "88",
      "postcode": "9200-120",
      "city": "MACHICO",
      "lon": "-16.77763411783269",
      "lat": "32.72424796628446"
    },
    {
      "id": "pt.ine.add.MAD.113860",
      "street": "TV PIQUINHO",
      "house": "37",
      "postcode": "9200-120",
      "city": "MACHICO",
      "lon": "-16.776131261781934",
      "lat": "32.724864522441344"
    },
    {
      "id": "pt.ine.add.MAD.114207",
      "street": "R S JOSE",
      "house": "31",
      "postcode": "9200-141",
      "city": "MACHICO",
      "lon": "-16.777749160741575",
      "lat": "32.72574348160809"
    },
    {
      "id": "pt.ine.add.MAD.114218",
      "street": "R TORRE",
      "house": "101",
      "postcode": "9200-401",
      "city": "MACHICO",
      "lon": "-16.77510933841935",
      "lat": "32.72606048326895"
    },
    {
      "id": "pt.ine.add.MAD.114219",
      "street": "R TORRE",
      "house": "",
      "postcode": "9200-401",
      "city": "MACHICO",
      "lon": "-16.77446623912349",
      "lat": "32.72537512928126"
    },
    {
      "id": "pt.ine.add.MAD.114368",
      "street": "R TORRE",
      "house": "",
      "postcode": "9200-401",
      "city": "MACHICO",
      "lon": "-16.774618789604865",
      "lat": "32.72553531085255"
    },
    {
      "id": "pt.ine.add.MAD.114750",
      "street": "VR TORRE N",
      "house": "3",
      "postcode": "9200-129",
      "city": "MACHICO",
      "lon": "-16.77629384085046",
      "lat": "32.727144015191485"
    },
    {
      "id": "pt.ine.add.MAD.120434",
      "street": "VR LEVADAS",
      "house": "59",
      "postcode": "9200-129",
      "city": "MACHICO",
      "lon": "-16.776183111074698",
      "lat": "32.725864892286765"
    },
    {
      "id": "pt.ine.add.MAD.123724",
      "street": "ESTR PIQUINHO",
      "house": "66",
      "postcode": "9200-120",
      "city": "MACHICO",
      "lon": "-16.776378256686144",
      "lat": "32.72386893649466"
    },
    {
      "id": "pt.ine.add.MAD.124079",
      "street": "R TORRE",
      "house": "93",
      "postcode": "9200-401",
      "city": "MACHICO",
      "lon": "-16.774673195479103",
      "lat": "32.725588654320426"
    },
    {
      "id": "pt.ine.add.MAD.124105",
      "street": "ESTR PIQUINHO",
      "house": "42",
      "postcode": "9200-129",
      "city": "MACHICO",
      "lon": "-16.774722008685778",
      "lat": "32.72482135129097"
    },
    {
      "id": "pt.ine.add.MAD.124271",
      "street": "TV PIQUINHO",
      "house": "23",
      "postcode": "9200-120",
      "city": "MACHICO",
      "lon": "-16.776163914773907",
      "lat": "32.72435899790993"
    },
    {
      "id": "pt.ine.add.MAD.126205",
      "street": "ESTR PIQUINHO",
      "house": "58",
      "postcode": "9200-120",
      "city": "MACHICO",
      "lon": "-16.775930797478484",
      "lat": "32.72390233399109"
    },
    {
      "id": "pt.ine.add.MAD.126715",
      "street": "TV PIQUINHO",
      "house": "25",
      "postcode": "9200-120",
      "city": "MACHICO",
      "lon": "-16.776279816973165",
      "lat": "32.72428520378146"
    },
    {
      "id": "pt.ine.add.MAD.128731",
      "street": "VR TORRE M",
      "house": "26",
      "postcode": "9200-129",
      "city": "MACHICO",
      "lon": "-16.776997612450607",
      "lat": "32.72658388294802"
    }
  ]
}