{
  "data": {
    "distrito": "Porto",
    "concelho": "Gondomar",
    "freguesia": "União das freguesias de Fânzeres e São Pedro da Cova",
    "OBJECTID": 733,
    "BGRI2021": "13041301009",
    "DT21": "13",
    "DTMN21": "1304",
    "DTMNFR21": "130413",
    "DTMNFRSEC21": "130413010",
    "SECNUM21": "010",
    "SSNUM21": "09",
    "SECSSNUM21": "01009",
    "OBJECTID_1": 128697,
    "DT": "13",
    "CC": "04",
    "fr": "13",
    "SEC": "010",
    "SS": "09"
  },
  "addresses": [
    {
      "id": "pt.ine.add.PTCONT.3605080",
      "street": "R NOVA DO PASSAL",
      "house": "",
      "postcode": "4510-348",
      "city": "SÃO PEDRO DA COVA",
      "lon": "-8.498482184088589",
      "lat": "41.15649512469449"
    },
    {
      "id": "pt.ine.add.PTCONT.3683707",
      "street": "R CENTRO REVOLUCIONARIO MINEIRO",
      "house": "",
      "postcode": "4510-233",
      "city": "SÃO PEDRO DA COVA",
      "lon": "-8.50392892518199",
      "lat": "41.15475788517361"
    },
    {
      "id": "pt.ine.add.PTCONT.3791525",
      "street": "TV GIRASSOIS",
      "house": "16",
      "postcode": "4510-752",
      "city": "SÃO PEDRO DA COVA",
      "lon": "-8.505981028274896",
      "lat": "41.163692590531205"
    },
    {
      "id": "pt.ine.add.PTCONT.3791526",
      "street": "TV GIRASSOIS",
      "house": "16",
      "postcode": "4510-752",
      "city": "SÃO PEDRO DA COVA",
      "lon": "-8.505981028274896",
      "lat": "41.163692590531205"
    },
    {
      "id": "pt.ine.add.PTCONT.3791527",
      "street": "TV GIRASSOIS",
      "house": "16",
      "postcode": "4510-752",
      "city": "SÃO PEDRO DA COVA",
      "lon": "-8.505981028274896",
      "lat": "41.163692590531205"
    },
    {
      "id": "pt.ine.add.PTCONT.3791528",
      "street": "TV GIRASSOIS",
      "house": "16",
      "postcode": "4510-752",
      "city": "SÃO PEDRO DA COVA",
      "lon": "-8.505981028274896",
      "lat": "41.163692590531205"
    },
    {
      "id": "pt.ine.add.PTCONT.3791529",
      "street": "TV GIRASSOIS",
      "house": "16",
      "postcode": "4510-752",
      "city": "SÃO PEDRO DA COVA",
      "lon": "-8.505981028274896",
      "lat": "41.163692590531205"
    },
    {
      "id": "pt.ine.add.PTCONT.3791530",
      "street": "TV GIRASSOIS",
      "house": "16",
      "postcode": "4510-752",
      "city": "SÃO PEDRO DA COVA",
      "lon": "-8.505981028274896",
      "lat": "41.163692590531205"
    },
    {
      "id": "pt.ine.add.PTCONT.3791531",
      "street": "TV GIRASSOIS",
      "house": "16",
      "postcode": "4510-752",
      "city": "SÃO PEDRO DA COVA",
      "lon": "-8.505981028274896",
      "lat": "41.163692590531205"
    },
    {
      "id": "pt.ine.add.PTCONT.3791532",
      "street": "TV GIRASSOIS",
      "house": "16",
      "postcode": "4510-752",
      "city": "SÃO PEDRO DA COVA",
      "lon": "-8.505981028274896",
      "lat": "41.163692590531205"
    },
    {
      "id": "pt.ine.add.PTCONT.3791533",
      "street": "TV GIRASSOIS",
      "house": "16",
      "postcode": "4510-752",
      "city": "SÃO PEDRO DA COVA",
      "lon": "-8.505981028274896",
      "lat": "41.163692590531205"
    },
    {
      "id": "pt.ine.add.PTCONT.3791534",
      "street": "TV GIRASSOIS",
      "house": "16",
      "postcode": "4510-752",
      "city": "SÃO PEDRO DA COVA",
      "lon": "-8.505981028274896",
      "lat": "41.163692590531205"
    },
    {
      "id": "pt.ine.add.PTCONT.3791536",
      "street": "TV GIRASSOIS",
      "house": "16",
      "postcode": "4510-752",
      "city": "SÃO PEDRO DA COVA",
      "lon": "-8.505981028274896",
      "lat": "41.163692590531205"
    },
    {
      "id": "pt.ine.add.PTCONT.3791813",
      "street": "TV GIRASSOIS",
      "house": "16",
      "postcode": "4510-752",
      "city": "SÃO PEDRO DA COVA",
      "lon": "-8.505981028274896",
      "lat": "41.163692590531205"
    },
    {
      "id": "pt.ine.add.PTCONT.3818313",
      "street": "R MALMEQUERES",
      "house": "348",
      "postcode": "4510-756",
      "city": "SÃO PEDRO DA COVA",
      "lon": "-8.504954157460466",
      "lat": "41.16330872288655"
    },
    {
      "id": "pt.ine.add.PTCONT.3818314",
      "street": "R MALMEQUERES",
      "house": "348",
      "postcode": "4510-756",
      "city": "SÃO PEDRO DA COVA",
      "lon": "-8.504954157460466",
      "lat": "41.16330872288655"
    },
    {
      "id": "pt.ine.add.PTCONT.3818315",
      "street": "R MALMEQUERES",
      "house": "348",
      "postcode": "4510-756",
      "city": "SÃO PEDRO DA COVA",
      "lon": "-8.504954157460466",
      "lat": "41.16330872288655"
    },
    {
      "id": "pt.ine.add.PTCONT.3818316",
      "street": "R MALMEQUERES",
      "house": "348",
      "postcode": "4510-756",
      "city": "SÃO PEDRO DA COVA",
      "lon": "-8.504954157460466",
      "lat": "41.16330872288655"
    },
    {
      "id": "pt.ine.add.PTCONT.3818317",
      "street": "R MALMEQUERES",
      "house": "348",
      "postcode": "4510-756",
      "city": "SÃO PEDRO DA COVA",
      "lon": "-8.504954157460466",
      "lat": "41.16330872288655"
    },
    {
      "id": "pt.ine.add.PTCONT.3818318",
      "street": "R MALMEQUERES",
      "house": "348",
      "postcode": "4510-756",
      "city": "SÃO PEDRO DA COVA",
      "lon": "-8.504954157460466",
      "lat": "41.16330872288655"
    },
    {
      "id": "pt.ine.add.PTCONT.3818319",
      "street": "R MALMEQUERES",
      "house": "348",
      "postcode": "4510-756",
      "city": "SÃO PEDRO DA COVA",
      "lon": "-8.504954157460466",
      "lat": "41.16330872288655"
    },
    {
      "id": "pt.ine.add.PTCONT.3818320",
      "street": "R MALMEQUERES",
      "house": "348",
      "postcode": "4510-756",
      "city": "SÃO PEDRO DA COVA",
      "lon": "-8.504954157460466",
      "lat": "41.16330872288655"
    },
    {
      "id": "pt.ine.add.PTCONT.3818321",
      "street": "R MALMEQUERES",
      "house": "348",
      "postcode": "4510-756",
      "city": "SÃO PEDRO DA COVA",
      "lon": "-8.504954157460466",
      "lat": "41.16330872288655"
    },
    {
      "id": "pt.ine.add.PTCONT.3818322",
      "street": "R MALMEQUERES",
      "house": "348",
      "postcode": "4510-756",
      "city": "SÃO PEDRO DA COVA",
      "lon": "-8.504954157460466",
      "lat": "41.16330872288655"
    },
    {
      "id": "pt.ine.add.PTCONT.3818323",
      "street": "R MALMEQUERES",
      "house": "348",
      "postcode": "4510-756",
      "city": "SÃO PEDRO DA COVA",
      "lon": "-8.504954157460466",
      "lat": "41.16330872288655"
    },
    {
      "id": "pt.ine.add.PTCONT.3818324",
      "street": "R MALMEQUERES",
      "house": "348",
      "postcode": "4510-756",
      "city": "SÃO PEDRO DA COVA",
      "lon": "-8.504954157460466",
      "lat": "41.16330872288655"
    },
    {
      "id": "pt.ine.add.PTCONT.3818325",
      "street": "R MALMEQUERES",
      "house": "348",
      "postcode": "4510-756",
      "city": "SÃO PEDRO DA COVA",
      "lon": "-8.504954157460466",
      "lat": "41.16330872288655"
    },
    {
      "id": "pt.ine.add.PTCONT.3818326",
      "street": "R MALMEQUERES",
      "house": "348",
      "postcode": "4510-756",
      "city": "SÃO PEDRO DA COVA",
      "lon": "-8.504954157460466",
      "lat": "41.16330872288655"
    },
    {
      "id": "pt.ine.add.PTCONT.3822775",
      "street": "R MALMEQUERES",
      "house": "348",
      "postcode": "4510-756",
      "city": "SÃO PEDRO DA COVA",
      "lon": "-8.504954157460466",
      "lat": "41.16330872288655"
    },
    {
      "id": "pt.ine.add.PTCONT.3947560",
      "street": "TV GIRASSÓIS",
      "house": "36",
      "postcode": "4510-752",
      "city": "SÃO PEDRO DA COVA",
      "lon": "-8.505754900053518",
      "lat": "41.16373834408901"
    },
    {
      "id": "pt.ine.add.PTCONT.3947561",
      "street": "TV GIRASSÓIS",
      "house": "36",
      "postcode": "4510-752",
      "city": "SÃO PEDRO DA COVA",
      "lon": "-8.505754900053518",
      "lat": "41.16373834408901"
    },
    {
      "id": "pt.ine.add.PTCONT.3947566",
      "street": "TV GIRASSÓIS",
      "house": "36",
      "postcode": "4510-752",
      "city": "SÃO PEDRO DA COVA",
      "lon": "-8.505754900053518",
      "lat": "41.16373834408901"
    },
    {
      "id": "pt.ine.add.PTCONT.3947567",
      "street": "TV GIRASSÓIS",
      "house": "36",
      "postcode": "4510-752",
      "city": "SÃO PEDRO DA COVA",
      "lon": "-8.505754900053518",
      "lat": "41.16373834408901"
    },
    {
      "id": "pt.ine.add.PTCONT.3947568",
      "street": "TV GIRASSÓIS",
      "house": "36",
      "postcode": "4510-752",
      "city": "SÃO PEDRO DA COVA",
      "lon": "-8.505754900053518",
      "lat": "41.16373834408901"
    },
    {
      "id": "pt.ine.add.PTCONT.3947569",
      "street": "TV GIRASSÓIS",
      "house": "36",
      "postcode": "4510-752",
      "city": "SÃO PEDRO DA COVA",
      "lon": "-8.505754900053518",
      "lat": "41.16373834408901"
    },
    {
      "id": "pt.ine.add.PTCONT.3947570",
      "street": "TV GIRASSÓIS",
      "house": "36",
      "postcode": "4510-752",
      "city": "SÃO PEDRO DA COVA",
      "lon": "-8.505754900053518",
      "lat": "41.16373834408901"
    },
    {
      "id": "pt.ine.add.PTCONT.3953137",
      "street": "TV GIRASSÓIS",
      "house": "36",
      "postcode": "4510-752",
      "city": "SÃO PEDRO DA COVA",
      "lon": "-8.505754900053518",
      "lat": "41.16373834408901"
    },
    {
      "id": "pt.ine.add.PTCONT.3991075",
      "street": "R MALMEQUERES",
      "house": "390",
      "postcode": "4510-756",
      "city": "SÃO PEDRO DA COVA",
      "lon": "-8.505086850009997",
      "lat": "41.16359643376943"
    },
    {
      "id": "pt.ine.add.PTCONT.3991076",
      "street": "R MALMEQUERES",
      "house": "390",
      "postcode": "4510-756",
      "city": "SÃO PEDRO DA COVA",
      "lon": "-8.505086850009997",
      "lat": "41.16359643376943"
    },
    {
      "id": "pt.ine.add.PTCONT.3991077",
      "street": "R MALMEQUERES",
      "house": "390",
      "postcode": "4510-756",
      "city": "SÃO PEDRO DA COVA",
      "lon": "-8.505086850009997",
      "lat": "41.16359643376943"
    },
    {
      "id": "pt.ine.add.PTCONT.3991078",
      "street": "R MALMEQUERES",
      "house": "390",
      "postcode": "4510-756",
      "city": "SÃO PEDRO DA COVA",
      "lon": "-8.505086850009997",
      "lat": "41.16359643376943"
    },
    {
      "id": "pt.ine.add.PTCONT.3991079",
      "street": "R MALMEQUERES",
      "house": "390",
      "postcode": "4510-756",
      "city": "SÃO PEDRO DA COVA",
      "lon": "-8.505086850009997",
      "lat": "41.16359643376943"
    },
    {
      "id": "pt.ine.add.PTCONT.3991080",
      "street": "R MALMEQUERES",
      "house": "390",
      "postcode": "4510-756",
      "city": "SÃO PEDRO DA COVA",
      "lon": "-8.505086850009997",
      "lat": "41.16359643376943"
    },
    {
      "id": "pt.ine.add.PTCONT.3991081",
      "street": "R MALMEQUERES",
      "house": "390",
      "postcode": "4510-756",
      "city": "SÃO PEDRO DA COVA",
      "lon": "-8.505086850009997",
      "lat": "41.16359643376943"
    },
    {
      "id": "pt.ine.add.PTCONT.3991082",
      "street": "R MALMEQUERES",
      "house": "390",
      "postcode": "4510-756",
      "city": "SÃO PEDRO DA COVA",
      "lon": "-8.505086850009997",
      "lat": "41.16359643376943"
    },
    {
      "id": "pt.ine.add.PTCONT.3991083",
      "street": "R MALMEQUERES",
      "house": "390",
      "postcode": "4510-756",
      "city": "SÃO PEDRO DA COVA",
      "lon": "-8.505086850009997",
      "lat": "41.16359643376943"
    },
    {
      "id": "pt.ine.add.PTCONT.3991084",
      "street": "R MALMEQUERES",
      "house": "390",
      "postcode": "4510-756",
      "city": "SÃO PEDRO DA COVA",
      "lon": "-8.505086850009997",
      "lat": "41.16359643376943"
    },
    {
      "id": "pt.ine.add.PTCONT.3991085",
      "street": "R MALMEQUERES",
      "house": "390",
      "postcode": "4510-756",
      "city": "SÃO PEDRO DA COVA",
      "lon": "-8.505086850009997",
      "lat": "41.16359643376943"
    },
    {
      "id": "pt.ine.add.PTCONT.3991086",
      "street": "R MALMEQUERES",
      "house": "390",
      "postcode": "4510-756",
      "city": "SÃO PEDRO DA COVA",
      "lon": "-8.505086850009997",
      "lat": "41.16359643376943"
    },
    {
      "id": "pt.ine.add.PTCONT.3991087",
      "street": "R MALMEQUERES",
      "house": "390",
      "postcode": "4510-756",
      "city": "SÃO PEDRO DA COVA",
      "lon": "-8.505086850009997",
      "lat": "41.16359643376943"
    },
    {
      "id": "pt.ine.add.PTCONT.3991121",
      "street": "R MALMEQUERES",
      "house": "390",
      "postcode": "4510-756",
      "city": "SÃO PEDRO DA COVA",
      "lon": "-8.505086850009997",
      "lat": "41.16359643376943"
    },
    {
      "id": "pt.ine.add.PTCONT.4175435",
      "street": "R MALMEQUERES",
      "house": "372",
      "postcode": "4510-756",
      "city": "SÃO PEDRO DA COVA",
      "lon": "-8.50500263128996",
      "lat": "41.163452636054515"
    },
    {
      "id": "pt.ine.add.PTCONT.4175436",
      "street": "R MALMEQUERES",
      "house": "372",
      "postcode": "4510-756",
      "city": "SÃO PEDRO DA COVA",
      "lon": "-8.50500263128996",
      "lat": "41.163452636054515"
    },
    {
      "id": "pt.ine.add.PTCONT.4175437",
      "street": "R MALMEQUERES",
      "house": "372",
      "postcode": "4510-756",
      "city": "SÃO PEDRO DA COVA",
      "lon": "-8.50500263128996",
      "lat": "41.163452636054515"
    },
    {
      "id": "pt.ine.add.PTCONT.4175438",
      "street": "R MALMEQUERES",
      "house": "372",
      "postcode": "4510-756",
      "city": "SÃO PEDRO DA COVA",
      "lon": "-8.50500263128996",
      "lat": "41.163452636054515"
    },
    {
      "id": "pt.ine.add.PTCONT.4175439",
      "street": "R MALMEQUERES",
      "house": "372",
      "postcode": "4510-756",
      "city": "SÃO PEDRO DA COVA",
      "lon": "-8.50500263128996",
      "lat": "41.163452636054515"
    },
    {
      "id": "pt.ine.add.PTCONT.4175440",
      "street": "R MALMEQUERES",
      "house": "372",
      "postcode": "4510-756",
      "city": "SÃO PEDRO DA COVA",
      "lon": "-8.50500263128996",
      "lat": "41.163452636054515"
    },
    {
      "id": "pt.ine.add.PTCONT.4175441",
      "street": "R MALMEQUERES",
      "house": "372",
      "postcode": "4510-756",
      "city": "SÃO PEDRO DA COVA",
      "lon": "-8.50500263128996",
      "lat": "41.163452636054515"
    },
    {
      "id": "pt.ine.add.PTCONT.4175442",
      "street": "R MALMEQUERES",
      "house": "372",
      "postcode": "4510-756",
      "city": "SÃO PEDRO DA COVA",
      "lon": "-8.50500263128996",
      "lat": "41.163452636054515"
    },
    {
      "id": "pt.ine.add.PTCONT.4175443",
      "street": "R MALMEQUERES",
      "house": "372",
      "postcode": "4510-756",
      "city": "SÃO PEDRO DA COVA",
      "lon": "-8.50500263128996",
      "lat": "41.163452636054515"
    },
    {
      "id": "pt.ine.add.PTCONT.4179787",
      "street": "R MALMEQUERES",
      "house": "372",
      "postcode": "4510-756",
      "city": "SÃO PEDRO DA COVA",
      "lon": "-8.50500263128996",
      "lat": "41.163452636054515"
    },
    {
      "id": "pt.ine.add.PTCONT.4279097",
      "street": "TV GIRASSOIS",
      "house": "54",
      "postcode": "4510-752",
      "city": "SÃO PEDRO DA COVA",
      "lon": "-8.505564567272762",
      "lat": "41.16379298581548"
    },
    {
      "id": "pt.ine.add.PTCONT.4279098",
      "street": "TV GIRASSOIS",
      "house": "54",
      "postcode": "4510-752",
      "city": "SÃO PEDRO DA COVA",
      "lon": "-8.505564567272762",
      "lat": "41.16379298581548"
    },
    {
      "id": "pt.ine.add.PTCONT.4279099",
      "street": "TV GIRASSOIS",
      "house": "54",
      "postcode": "4510-752",
      "city": "SÃO PEDRO DA COVA",
      "lon": "-8.505564567272762",
      "lat": "41.16379298581548"
    },
    {
      "id": "pt.ine.add.PTCONT.4279100",
      "street": "TV GIRASSOIS",
      "house": "54",
      "postcode": "4510-752",
      "city": "SÃO PEDRO DA COVA",
      "lon": "-8.505564567272762",
      "lat": "41.16379298581548"
    },
    {
      "id": "pt.ine.add.PTCONT.4279101",
      "street": "TV GIRASSOIS",
      "house": "54",
      "postcode": "4510-752",
      "city": "SÃO PEDRO DA COVA",
      "lon": "-8.505564567272762",
      "lat": "41.16379298581548"
    },
    {
      "id": "pt.ine.add.PTCONT.4279102",
      "street": "TV GIRASSOIS",
      "house": "54",
      "postcode": "4510-752",
      "city": "SÃO PEDRO DA COVA",
      "lon": "-8.505564567272762",
      "lat": "41.16379298581548"
    },
    {
      "id": "pt.ine.add.PTCONT.4279103",
      "street": "TV GIRASSOIS",
      "house": "54",
      "postcode": "4510-752",
      "city": "SÃO PEDRO DA COVA",
      "lon": "-8.505564567272762",
      "lat": "41.16379298581548"
    },
    {
      "id": "pt.ine.add.PTCONT.4279104",
      "street": "TV GIRASSOIS",
      "house": "54",
      "postcode": "4510-752",
      "city": "SÃO PEDRO DA COVA",
      "lon": "-8.505564567272762",
      "lat": "41.16379298581548"
    },
    {
      "id": "pt.ine.add.PTCONT.4279105",
      "street": "TV GIRASSOIS",
      "house": "54",
      "postcode": "4510-752",
      "city": "SÃO PEDRO DA COVA",
      "lon": "-8.505564567272762",
      "lat": "41.16379298581548"
    },
    {
      "id": "pt.ine.add.PTCONT.4279106",
      "street": "TV GIRASSOIS",
      "house": "54",
      "postcode": "4510-752",
      "city": "SÃO PEDRO DA COVA",
      "lon": "-8.505564567272762",
      "lat": "41.16379298581548"
    },
    {
      "id": "pt.ine.add.PTCONT.4279107",
      "street": "TV GIRASSOIS",
      "house": "54",
      "postcode": "4510-752",
      "city": "SÃO PEDRO DA COVA",
      "lon": "-8.505564567272762",
      "lat": "41.16379298581548"
    },
    {
      "id": "pt.ine.add.PTCONT.4279188",
      "street": "TV GIRASSOIS",
      "house": "54",
      "postcode": "4510-752",
      "city": "SÃO PEDRO DA COVA",
      "lon": "-8.505564567272762",
      "lat": "41.16379298581548"
    },
    {
      "id": "pt.ine.add.PTCONT.4377673",
      "street": "R MALMEQUERES",
      "house": "390",
      "postcode": "4510-756",
      "city": "SÃO PEDRO DA COVA",
      "lon": "-8.505086850009997",
      "lat": "41.16359643376943"
    }
  ]
}