{
  "data": {
    "distrito": "Santarém",
    "concelho": "Ourém",
    "freguesia": "União das freguesias de Rio de Couros e Casal dos Bernardos",
    "OBJECTID": 1602,
    "BGRI2021": "14212200217",
    "DT21": "14",
    "DTMN21": "1421",
    "DTMNFR21": "142122",
    "DTMNFRSEC21": "142122002",
    "SECNUM21": "002",
    "SSNUM21": "17",
    "SECSSNUM21": "00217",
    "OBJECTID_1": 159387,
    "DT": "14",
    "CC": "21",
    "fr": "22",
    "SEC": "002",
    "SS": "17"
  },
  "addresses": [
    {
      "id": "pt.ine.add.PTCONT.4394857",
      "street": "R CABECO",
      "house": "24",
      "postcode": "2435-519",
      "city": "RIO DE COUROS",
      "lon": "-8.525838130708507",
      "lat": "39.73097400518716"
    },
    {
      "id": "pt.ine.add.PTCONT.4397001",
      "street": "R CABECO",
      "house": "21",
      "postcode": "2435-519",
      "city": "RIO DE COUROS",
      "lon": "-8.525689097345603",
      "lat": "39.73143384475944"
    },
    {
      "id": "pt.ine.add.PTCONT.4428564",
      "street": "TV CABECO",
      "house": "",
      "postcode": "2435-519",
      "city": "RIO DE COUROS",
      "lon": "-8.525865241872953",
      "lat": "39.731640400265064"
    },
    {
      "id": "pt.ine.add.PTCONT.4437732",
      "street": "R BARROCAS",
      "house": "",
      "postcode": "2435-519",
      "city": "RIO DE COUROS",
      "lon": "-8.52285967019315",
      "lat": "39.73027252297615"
    },
    {
      "id": "pt.ine.add.PTCONT.4443549",
      "street": "R CABECO",
      "house": "22",
      "postcode": "2435-519",
      "city": "RIO DE COUROS",
      "lon": "-8.525606219315092",
      "lat": "39.73121796711173"
    },
    {
      "id": "pt.ine.add.PTCONT.4448752",
      "street": "R PRINCIPAL",
      "house": "43",
      "postcode": "2435-519",
      "city": "RIO DE COUROS",
      "lon": "-8.521389954640417",
      "lat": "39.73027744783385"
    },
    {
      "id": "pt.ine.add.PTCONT.4488957",
      "street": "R AREIRO",
      "house": "1",
      "postcode": "2435-519",
      "city": "RIO DE COUROS",
      "lon": "-8.522351248106578",
      "lat": "39.731129853843775"
    },
    {
      "id": "pt.ine.add.PTCONT.4512982",
      "street": "R AREIRO",
      "house": "",
      "postcode": "2435-519",
      "city": "RIO DE COUROS",
      "lon": "-8.52329612759264",
      "lat": "39.73113568852846"
    },
    {
      "id": "pt.ine.add.PTCONT.4552146",
      "street": "R BARROCAS",
      "house": "21",
      "postcode": "2435-519",
      "city": "RIO DE COUROS",
      "lon": "-8.524019482417131",
      "lat": "39.73116027481615"
    },
    {
      "id": "pt.ine.add.PTCONT.4564580",
      "street": "TV CABECO",
      "house": "",
      "postcode": "2435-519",
      "city": "RIO DE COUROS",
      "lon": "-8.525794845257044",
      "lat": "39.7315685857825"
    },
    {
      "id": "pt.ine.add.PTCONT.4570780",
      "street": "R LAGOINHA",
      "house": "9",
      "postcode": "2435-519",
      "city": "RIO DE COUROS",
      "lon": "-8.527359392251613",
      "lat": "39.7318244738524"
    },
    {
      "id": "pt.ine.add.PTCONT.4620694",
      "street": "R PRINCIPAL",
      "house": "31",
      "postcode": "2435-519",
      "city": "RIO DE COUROS",
      "lon": "-8.520041296930323",
      "lat": "39.72898500285217"
    },
    {
      "id": "pt.ine.add.PTCONT.4637152",
      "street": "R PRINCIPAL",
      "house": "39",
      "postcode": "2435-519",
      "city": "RIO DE COUROS",
      "lon": "-8.52090863555319",
      "lat": "39.7297296551772"
    },
    {
      "id": "pt.ine.add.PTCONT.4653636",
      "street": "R PRINCIPAL",
      "house": "41",
      "postcode": "2435-519",
      "city": "RIO DE COUROS",
      "lon": "-8.521178732791924",
      "lat": "39.73005298956089"
    }
  ]
}