{
  "data": {
    "distrito": "Viseu",
    "concelho": "Castro Daire",
    "freguesia": "Castro Daire",
    "OBJECTID": 255,
    "BGRI2021": "18030400125",
    "DT21": "18",
    "DTMN21": "1803",
    "DTMNFR21": "180304",
    "DTMNFRSEC21": "180304001",
    "SECNUM21": "001",
    "SSNUM21": "25",
    "SECSSNUM21": "00125",
    "OBJECTID_1": 189025,
    "DT": "18",
    "CC": "03",
    "fr": "04",
    "SEC": "001",
    "SS": "25"
  },
  "addresses": [
    {
      "id": "pt.ine.add.PTCONT.5428846",
      "street": "",
      "house": "",
      "postcode": "3600-103",
      "city": "CASTRO DAIRE",
      "lon": "-7.916069243273798",
      "lat": "40.91162157179645"
    },
    {
      "id": "pt.ine.add.PTCONT.5439556",
      "street": "R PRINCIPAL",
      "house": "61",
      "postcode": "3600-103",
      "city": "CASTRO DAIRE",
      "lon": "-7.9146650910642835",
      "lat": "40.91269048756479"
    },
    {
      "id": "pt.ine.add.PTCONT.5445339",
      "street": "R CAMPO DE FUTEBOL",
      "house": "2",
      "postcode": "3600-292",
      "city": "CASTRO DAIRE",
      "lon": "-7.924706774777902",
      "lat": "40.91279011400412"
    },
    {
      "id": "pt.ine.add.PTCONT.5456332",
      "street": "R COSTA",
      "house": "28",
      "postcode": "3600-292",
      "city": "CASTRO DAIRE",
      "lon": "-7.9219080872707455",
      "lat": "40.91569356045584"
    },
    {
      "id": "pt.ine.add.PTCONT.5463384",
      "street": "R BARREIRO",
      "house": "22",
      "postcode": "3600-292",
      "city": "CASTRO DAIRE",
      "lon": "-7.924178942042624",
      "lat": "40.914554092394006"
    },
    {
      "id": "pt.ine.add.PTCONT.5476160",
      "street": "R LUGAR DO CANCELO",
      "house": "3",
      "postcode": "3600-103",
      "city": "CASTRO DAIRE",
      "lon": "-7.913796297366648",
      "lat": "40.913382205361216"
    },
    {
      "id": "pt.ine.add.PTCONT.5483635",
      "street": "R CAMPO DE FUTEBOL",
      "house": "",
      "postcode": "3600-292",
      "city": "CASTRO DAIRE",
      "lon": "-7.924656014299583",
      "lat": "40.913834574781596"
    },
    {
      "id": "pt.ine.add.PTCONT.5515152",
      "street": "R COSTA",
      "house": "2",
      "postcode": "3600-292",
      "city": "CASTRO DAIRE",
      "lon": "-7.923795828293969",
      "lat": "40.9155889451016"
    },
    {
      "id": "pt.ine.add.PTCONT.5526354",
      "street": "R ALTO CABECA",
      "house": "",
      "postcode": "3600-292",
      "city": "CASTRO DAIRE",
      "lon": "-7.923588727857176",
      "lat": "40.91350846921611"
    },
    {
      "id": "pt.ine.add.PTCONT.5546337",
      "street": "R PRINCIPAL",
      "house": "",
      "postcode": "3600-103",
      "city": "CASTRO DAIRE",
      "lon": "-7.914379293547594",
      "lat": "40.91296909351102"
    },
    {
      "id": "pt.ine.add.PTCONT.5578339",
      "street": "R CABEÃ‡O",
      "house": "28",
      "postcode": "3600-292",
      "city": "CASTRO DAIRE",
      "lon": "-7.923750846480324",
      "lat": "40.91479644456323"
    },
    {
      "id": "pt.ine.add.PTCONT.5580189",
      "street": "LUGAR DA CABECA",
      "house": "24",
      "postcode": "3600-292",
      "city": "CASTRO DAIRE",
      "lon": "-7.924000462871977",
      "lat": "40.91468884032029"
    },
    {
      "id": "pt.ine.add.PTCONT.5591307",
      "street": "R CAMPO DE FUTEBOL",
      "house": "9",
      "postcode": "3600-292",
      "city": "CASTRO DAIRE",
      "lon": "-7.924657117341435",
      "lat": "40.91348339103614"
    },
    {
      "id": "pt.ine.add.PTCONT.5593234",
      "street": "R PRINCIPAL",
      "house": "16",
      "postcode": "3600-292",
      "city": "CASTRO DAIRE",
      "lon": "-7.924381727339815",
      "lat": "40.91423929295358"
    },
    {
      "id": "pt.ine.add.PTCONT.5607935",
      "street": "R LUGAR DO CANCELO",
      "house": "1",
      "postcode": "3600-103",
      "city": "CASTRO DAIRE",
      "lon": "-7.914081683067452",
      "lat": "40.913229666774235"
    },
    {
      "id": "pt.ine.add.PTCONT.5617256",
      "street": "R PRINCIPAL",
      "house": "",
      "postcode": "3600-103",
      "city": "CASTRO DAIRE",
      "lon": "-7.914950915778166",
      "lat": "40.91240287618302"
    },
    {
      "id": "pt.ine.add.PTCONT.5640500",
      "street": "CM 1125",
      "house": "",
      "postcode": "3600-292",
      "city": "CASTRO DAIRE",
      "lon": "-7.924382690246181",
      "lat": "40.91393313279333"
    },
    {
      "id": "pt.ine.add.PTCONT.5654864",
      "street": "R PRINCIPAL",
      "house": "",
      "postcode": "3600-103",
      "city": "CASTRO DAIRE",
      "lon": "-7.914819992069658",
      "lat": "40.91251068560368"
    },
    {
      "id": "pt.ine.add.PTCONT.5669870",
      "street": "R CAMPO DE FUTEBOL",
      "house": "11",
      "postcode": "3600-292",
      "city": "CASTRO DAIRE",
      "lon": "-7.924644596747643",
      "lat": "40.91369047794506"
    }
  ]
}