{
  "data": {
    "distrito": "Faro",
    "concelho": "São Brás de Alportel",
    "freguesia": "São Brás de Alportel",
    "OBJECTID": 60,
    "BGRI2021": "08120101009",
    "DT21": "08",
    "DTMN21": "0812",
    "DTMNFR21": "081201",
    "DTMNFRSEC21": "081201010",
    "SECNUM21": "010",
    "SSNUM21": "09",
    "SECSSNUM21": "01009",
    "OBJECTID_1": 71823,
    "DT": "08",
    "CC": "12",
    "fr": "01",
    "SEC": "010",
    "SS": "09"
  },
  "addresses": [
    {
      "id": "pt.ine.add.PTCONT.1473986",
      "street": "EM 523",
      "house": "",
      "postcode": "8150-045",
      "city": "SÃO BRÁS DE ALPORTEL",
      "lon": "-7.94339906268631",
      "lat": "37.1595475641457"
    },
    {
      "id": "pt.ine.add.PTCONT.1494411",
      "street": "EM 523",
      "house": "",
      "postcode": "8150-045",
      "city": "SÃO BRÁS DE ALPORTEL",
      "lon": "-7.944186673281138",
      "lat": "37.15972903363738"
    },
    {
      "id": "pt.ine.add.PTCONT.1497343",
      "street": "EM 523",
      "house": "581A",
      "postcode": "8150-058",
      "city": "SÃO BRÁS DE ALPORTEL",
      "lon": "-7.936996621953885",
      "lat": "37.15823962083548"
    },
    {
      "id": "pt.ine.add.PTCONT.1498747",
      "street": "EM 523",
      "house": "593A",
      "postcode": "8150-045",
      "city": "SÃO BRÁS DE ALPORTEL",
      "lon": "-7.941181809111684",
      "lat": "37.15931872997597"
    },
    {
      "id": "pt.ine.add.PTCONT.1503864",
      "street": "",
      "house": "",
      "postcode": "8150-045",
      "city": "SÃO BRÁS DE ALPORTEL",
      "lon": "-7.942773585225414",
      "lat": "37.15756423610054"
    },
    {
      "id": "pt.ine.add.PTCONT.1506171",
      "street": "SIT DO MALHAO CASA ABRIL",
      "house": "370 A",
      "postcode": "8150-045",
      "city": "SÃO BRÁS DE ALPORTEL",
      "lon": "-7.9452801265313475",
      "lat": "37.154603756526264"
    },
    {
      "id": "pt.ine.add.PTCONT.1514351",
      "street": "",
      "house": "",
      "postcode": "8150-045",
      "city": "SÃO BRÁS DE ALPORTEL",
      "lon": "-7.941467192714415",
      "lat": "37.157760363395404"
    },
    {
      "id": "pt.ine.add.PTCONT.1517438",
      "street": "SIT DO MALHAO CASA DE CIMA",
      "house": "623A",
      "postcode": "8150-045",
      "city": "SÃO BRÁS DE ALPORTEL",
      "lon": "-7.945075587713036",
      "lat": "37.15991966923266"
    },
    {
      "id": "pt.ine.add.PTCONT.1519766",
      "street": "",
      "house": "",
      "postcode": "8150-045",
      "city": "SÃO BRÁS DE ALPORTEL",
      "lon": "-7.94162157372249",
      "lat": "37.1590401137315"
    },
    {
      "id": "pt.ine.add.PTCONT.1537797",
      "street": "EM 523",
      "house": "596 A",
      "postcode": "8150-045",
      "city": "SÃO BRÁS DE ALPORTEL",
      "lon": "-7.94211610570905",
      "lat": "37.15936529217272"
    },
    {
      "id": "pt.ine.add.PTCONT.1538740",
      "street": "EM 523",
      "house": "",
      "postcode": "8150-058",
      "city": "SÃO BRÁS DE ALPORTEL",
      "lon": "-7.940204885857704",
      "lat": "37.15832598137765"
    },
    {
      "id": "pt.ine.add.PTCONT.1540023",
      "street": "",
      "house": "",
      "postcode": "8150-045",
      "city": "SÃO BRÁS DE ALPORTEL",
      "lon": "-7.943439072085276",
      "lat": "37.15705170045086"
    },
    {
      "id": "pt.ine.add.PTCONT.1546431",
      "street": "SITIO DO MALHAO",
      "house": "625 A",
      "postcode": "8150-045",
      "city": "SÃO BRÁS DE ALPORTEL",
      "lon": "-7.945379421170948",
      "lat": "37.15997421430796"
    },
    {
      "id": "pt.ine.add.PTCONT.1546434",
      "street": "",
      "house": "",
      "postcode": "8150-045",
      "city": "SÃO BRÁS DE ALPORTEL",
      "lon": "-7.941276608302851",
      "lat": "37.15744468510847"
    },
    {
      "id": "pt.ine.add.PTCONT.1549240",
      "street": "EM 523",
      "house": "617 A",
      "postcode": "8150-045",
      "city": "SÃO BRÁS DE ALPORTEL",
      "lon": "-7.944524212245379",
      "lat": "37.159810666332284"
    },
    {
      "id": "pt.ine.add.PTCONT.1560789",
      "street": "",
      "house": "",
      "postcode": "8150-045",
      "city": "SÃO BRÁS DE ALPORTEL",
      "lon": "-7.942247033280852",
      "lat": "37.15654519475509"
    },
    {
      "id": "pt.ine.add.PTCONT.1593194",
      "street": "SIT S ROMÃO",
      "house": "573M",
      "postcode": "8150-058",
      "city": "SÃO BRÁS DE ALPORTEL",
      "lon": "-7.943202617077625",
      "lat": "37.157069342943814"
    },
    {
      "id": "pt.ine.add.PTCONT.1600471",
      "street": "EM 523",
      "house": "597 A",
      "postcode": "8150-045",
      "city": "SÃO BRÁS DE ALPORTEL",
      "lon": "-7.942296708620497",
      "lat": "37.15917636116418"
    },
    {
      "id": "pt.ine.add.PTCONT.1600472",
      "street": "EM 523 CASA MASUR",
      "house": "585 A",
      "postcode": "8150-058",
      "city": "SÃO BRÁS DE ALPORTEL",
      "lon": "-7.93958745222733",
      "lat": "37.15764017151854"
    },
    {
      "id": "pt.ine.add.PTCONT.1606866",
      "street": "SITIO DO MALHAO",
      "house": "593B",
      "postcode": "8150-045",
      "city": "SÃO BRÁS DE ALPORTEL",
      "lon": "-7.941942467167038",
      "lat": "37.156787989322666"
    },
    {
      "id": "pt.ine.add.PTCONT.1610365",
      "street": "SIT MALHÃO",
      "house": "593 D",
      "postcode": "8150-045",
      "city": "SÃO BRÁS DE ALPORTEL",
      "lon": "-7.942570788490606",
      "lat": "37.15762698423106"
    },
    {
      "id": "pt.ine.add.PTCONT.1628574",
      "street": "SIT S ROMÃO",
      "house": "",
      "postcode": "8150-058",
      "city": "SÃO BRÁS DE ALPORTEL",
      "lon": "-7.945256073890125",
      "lat": "37.15522544806957"
    },
    {
      "id": "pt.ine.add.PTCONT.1641569",
      "street": "SIT MALHÃO",
      "house": "573Q",
      "postcode": "8150-045",
      "city": "SÃO BRÁS DE ALPORTEL",
      "lon": "-7.944564744229165",
      "lat": "37.15708953887435"
    },
    {
      "id": "pt.ine.add.PTCONT.1651521",
      "street": "CAMINHO",
      "house": "106 A",
      "postcode": "8150-058",
      "city": "SÃO BRÁS DE ALPORTEL",
      "lon": "-7.940973472015239",
      "lat": "37.157119813517234"
    },
    {
      "id": "pt.ine.add.PTCONT.1657095",
      "street": "EM 523",
      "house": "599 B",
      "postcode": "8150-045",
      "city": "SÃO BRÁS DE ALPORTEL",
      "lon": "-7.942825605515952",
      "lat": "37.15926731720571"
    },
    {
      "id": "pt.ine.add.PTCONT.1660151",
      "street": "EM 523",
      "house": "",
      "postcode": "8150-058",
      "city": "SÃO BRÁS DE ALPORTEL",
      "lon": "-7.937402831382074",
      "lat": "37.15787986955374"
    },
    {
      "id": "pt.ine.add.PTCONT.1671582",
      "street": "EM 523",
      "house": "595 B",
      "postcode": "8150-045",
      "city": "SÃO BRÁS DE ALPORTEL",
      "lon": "-7.941958267426924",
      "lat": "37.15945514337682"
    },
    {
      "id": "pt.ine.add.PTCONT.1674416",
      "street": "EM 523",
      "house": "581 A",
      "postcode": "8150-058",
      "city": "SÃO BRÁS DE ALPORTEL",
      "lon": "-7.937131645632286",
      "lat": "37.15826687589356"
    },
    {
      "id": "pt.ine.add.PTCONT.1675233",
      "street": "EM 523",
      "house": "603A",
      "postcode": "8150-045",
      "city": "SÃO BRÁS DE ALPORTEL",
      "lon": "-7.943489531669046",
      "lat": "37.15938551871046"
    },
    {
      "id": "pt.ine.add.PTCONT.1685542",
      "street": "QTA ESCONDIDA",
      "house": "374 B",
      "postcode": "8150-045",
      "city": "SÃO BRÁS DE ALPORTEL",
      "lon": "-7.944411213128976",
      "lat": "37.15544937030331"
    },
    {
      "id": "pt.ine.add.PTCONT.1688381",
      "street": "",
      "house": "",
      "postcode": "8150-045",
      "city": "SÃO BRÁS DE ALPORTEL",
      "lon": "-7.945301149790292",
      "lat": "37.159757836682026"
    },
    {
      "id": "pt.ine.add.PTCONT.1696992",
      "street": "",
      "house": "",
      "postcode": "8150-045",
      "city": "SÃO BRÁS DE ALPORTEL",
      "lon": "-7.942693538480971",
      "lat": "37.15805968887336"
    },
    {
      "id": "pt.ine.add.PTCONT.1696993",
      "street": "",
      "house": "",
      "postcode": "8150-045",
      "city": "SÃO BRÁS DE ALPORTEL",
      "lon": "-7.944687325844982",
      "lat": "37.157594325801476"
    },
    {
      "id": "pt.ine.add.PTCONT.1702743",
      "street": "SIT DO MALHÃO MONTE DA TI MÓNICA",
      "house": "CP 599-A",
      "postcode": "8150-045",
      "city": "SÃO BRÁS DE ALPORTEL",
      "lon": "-7.9423544019240016",
      "lat": "37.15861779879956"
    },
    {
      "id": "pt.ine.add.PTCONT.1709316",
      "street": "SIT DO MALHAO CASA DIANA",
      "house": "110 A",
      "postcode": "8150-045",
      "city": "SÃO BRÁS DE ALPORTEL",
      "lon": "-7.942246195213571",
      "lat": "37.15687858455759"
    },
    {
      "id": "pt.ine.add.PTCONT.1714173",
      "street": "ENCOSTA DA LADEIRA",
      "house": "573 J",
      "postcode": "8150-058",
      "city": "SÃO BRÁS DE ALPORTEL",
      "lon": "-7.940334738621408",
      "lat": "37.15595641255675"
    },
    {
      "id": "pt.ine.add.PTCONT.1719737",
      "street": "EM 523",
      "house": "607 A",
      "postcode": "8150-045",
      "city": "SÃO BRÁS DE ALPORTEL",
      "lon": "-7.944006634843361",
      "lat": "37.15969270423265"
    },
    {
      "id": "pt.ine.add.PTCONT.1736901",
      "street": "",
      "house": "",
      "postcode": "8150-045",
      "city": "SÃO BRÁS DE ALPORTEL",
      "lon": "-7.943009726022113",
      "lat": "37.157672741948915"
    },
    {
      "id": "pt.ine.add.PTCONT.1743289",
      "street": "",
      "house": "",
      "postcode": "8150-045",
      "city": "SÃO BRÁS DE ALPORTEL",
      "lon": "-7.9440143998764885",
      "lat": "37.156575059483316"
    },
    {
      "id": "pt.ine.add.PTCONT.1743290",
      "street": "SIT DO MALHAO VILLA POÇO BENZAO",
      "house": "",
      "postcode": "8150-045",
      "city": "SÃO BRÁS DE ALPORTEL",
      "lon": "-7.941865071267184",
      "lat": "37.15622920899894"
    },
    {
      "id": "pt.ine.add.PTCONT.1753189",
      "street": "EM 523",
      "house": "CP 595 A",
      "postcode": "8150-045",
      "city": "SÃO BRÁS DE ALPORTEL",
      "lon": "-7.9417782761358735",
      "lat": "37.15940078952827"
    },
    {
      "id": "pt.ine.add.PTCONT.1753720",
      "street": "EM 523",
      "house": "CP 595 A",
      "postcode": "8150-045",
      "city": "SÃO BRÁS DE ALPORTEL",
      "lon": "-7.9417782761358735",
      "lat": "37.15940078952827"
    },
    {
      "id": "pt.ine.add.PTCONT.1761477",
      "street": "",
      "house": "",
      "postcode": "8150-045",
      "city": "SÃO BRÁS DE ALPORTEL",
      "lon": "-7.943808304387253",
      "lat": "37.157962358420995"
    },
    {
      "id": "pt.ine.add.PTCONT.1784055",
      "street": "CAMINHO",
      "house": "105A",
      "postcode": "8150-058",
      "city": "SÃO BRÁS DE ALPORTEL",
      "lon": "-7.939501250698161",
      "lat": "37.15612625479938"
    },
    {
      "id": "pt.ine.add.PTCONT.1818823",
      "street": "EM 523",
      "house": "615 A",
      "postcode": "8150-045",
      "city": "SÃO BRÁS DE ALPORTEL",
      "lon": "-7.944366756694998",
      "lat": "37.15974734170551"
    },
    {
      "id": "pt.ine.add.PTCONT.1827524",
      "street": "EM 523",
      "house": "605 A",
      "postcode": "8150-045",
      "city": "SÃO BRÁS DE ALPORTEL",
      "lon": "-7.943860348125027",
      "lat": "37.15966543902301"
    }
  ]
}