{
  "data": {
    "distrito": "Faro",
    "concelho": "São Brás de Alportel",
    "freguesia": "São Brás de Alportel",
    "OBJECTID": 195,
    "BGRI2021": "08120101011",
    "DT21": "08",
    "DTMN21": "0812",
    "DTMNFR21": "081201",
    "DTMNFRSEC21": "081201010",
    "SECNUM21": "010",
    "SSNUM21": "11",
    "SECSSNUM21": "01011",
    "OBJECTID_1": 71913,
    "DT": "08",
    "CC": "12",
    "fr": "01",
    "SEC": "010",
    "SS": "11"
  },
  "addresses": [
    {
      "id": "pt.ine.add.PTCONT.1477042",
      "street": "EM 523",
      "house": "",
      "postcode": "8150-058",
      "city": "SÃO BRÁS DE ALPORTEL",
      "lon": "-7.936691239704",
      "lat": "37.158788759769365"
    },
    {
      "id": "pt.ine.add.PTCONT.1498748",
      "street": "EM 523",
      "house": "606 A",
      "postcode": "8150-045",
      "city": "SÃO BRÁS DE ALPORTEL",
      "lon": "-7.9438710670854",
      "lat": "37.15988170975307"
    },
    {
      "id": "pt.ine.add.PTCONT.1511644",
      "street": "EM 523",
      "house": "598 A",
      "postcode": "8150-045",
      "city": "SÃO BRÁS DE ALPORTEL",
      "lon": "-7.942362807315981",
      "lat": "37.15975314388725"
    },
    {
      "id": "pt.ine.add.PTCONT.1526273",
      "street": "ESTR M 523",
      "house": "90 A",
      "postcode": "8150-058",
      "city": "SÃO BRÁS DE ALPORTEL",
      "lon": "-7.935317967552523",
      "lat": "37.15871439131192"
    },
    {
      "id": "pt.ine.add.PTCONT.1530515",
      "street": "SIT DO MALHAO CASA DO CAMPO",
      "house": "628A",
      "postcode": "8150-045",
      "city": "SÃO BRÁS DE ALPORTEL",
      "lon": "-7.94540162537017",
      "lat": "37.16010039741703"
    },
    {
      "id": "pt.ine.add.PTCONT.1546435",
      "street": "THE COTTAGE",
      "house": "",
      "postcode": "8150-058",
      "city": "SÃO BRÁS DE ALPORTEL",
      "lon": "-7.938728614265473",
      "lat": "37.158909256235226"
    },
    {
      "id": "pt.ine.add.PTCONT.1560790",
      "street": "CASA PÁSSARO",
      "house": "",
      "postcode": "8150-058",
      "city": "SÃO BRÁS DE ALPORTEL",
      "lon": "-7.93849383853556",
      "lat": "37.15826912059034"
    },
    {
      "id": "pt.ine.add.PTCONT.1564006",
      "street": "SIT DO MALHAO CAS A DAS AZINHEIRAS",
      "house": "594B",
      "postcode": "8150-045",
      "city": "SÃO BRÁS DE ALPORTEL",
      "lon": "-7.94215925649566",
      "lat": "37.1601132387708"
    },
    {
      "id": "pt.ine.add.PTCONT.1567472",
      "street": "",
      "house": "",
      "postcode": "8150-058",
      "city": "SÃO BRÁS DE ALPORTEL",
      "lon": "-7.939077931203697",
      "lat": "37.15878368069662"
    },
    {
      "id": "pt.ine.add.PTCONT.1584534",
      "street": "SIT S ROMÃO",
      "house": "",
      "postcode": "8150-058",
      "city": "SÃO BRÁS DE ALPORTEL",
      "lon": "-7.935841467757735",
      "lat": "37.160877799684435"
    },
    {
      "id": "pt.ine.add.PTCONT.1588894",
      "street": "CAM S ROMÃO",
      "house": "586 A",
      "postcode": "8150-058",
      "city": "SÃO BRÁS DE ALPORTEL",
      "lon": "-7.938469174623386",
      "lat": "37.159107062922615"
    },
    {
      "id": "pt.ine.add.PTCONT.1596140",
      "street": "EM 523",
      "house": "",
      "postcode": "8150-058",
      "city": "SÃO BRÁS DE ALPORTEL",
      "lon": "-7.939967234189828",
      "lat": "37.15881216502078"
    },
    {
      "id": "pt.ine.add.PTCONT.1599017",
      "street": "",
      "house": "",
      "postcode": "8150-045",
      "city": "SÃO BRÁS DE ALPORTEL",
      "lon": "-7.943284883215735",
      "lat": "37.160187131577864"
    },
    {
      "id": "pt.ine.add.PTCONT.1622236",
      "street": "SIT DO MALHAO A SARA E DANIEL",
      "house": "594A",
      "postcode": "8150-045",
      "city": "SÃO BRÁS DE ALPORTEL",
      "lon": "-7.941811232666029",
      "lat": "37.15972522315108"
    },
    {
      "id": "pt.ine.add.PTCONT.1651520",
      "street": "SIT S ROMÃO",
      "house": "574 A",
      "postcode": "8150-058",
      "city": "SÃO BRÁS DE ALPORTEL",
      "lon": "-7.936724314081798",
      "lat": "37.15905913160512"
    },
    {
      "id": "pt.ine.add.PTCONT.1653393",
      "street": "QTA DO CARMO",
      "house": "624 A",
      "postcode": "8150-045",
      "city": "SÃO BRÁS DE ALPORTEL",
      "lon": "-7.944939932868938",
      "lat": "37.16014471810047"
    },
    {
      "id": "pt.ine.add.PTCONT.1653394",
      "street": "EM 523",
      "house": "618 A",
      "postcode": "8150-045",
      "city": "SÃO BRÁS DE ALPORTEL",
      "lon": "-7.944669739057832",
      "lat": "37.16014428879325"
    },
    {
      "id": "pt.ine.add.PTCONT.1660144",
      "street": "",
      "house": "",
      "postcode": "8150-058",
      "city": "SÃO BRÁS DE ALPORTEL",
      "lon": "-7.939460905631157",
      "lat": "37.158703211965346"
    },
    {
      "id": "pt.ine.add.PTCONT.1662597",
      "street": "EM 523",
      "house": "",
      "postcode": "8150-058",
      "city": "SÃO BRÁS DE ALPORTEL",
      "lon": "-7.939270810330803",
      "lat": "37.15819830936387"
    },
    {
      "id": "pt.ine.add.PTCONT.1668855",
      "street": "",
      "house": "",
      "postcode": "8150-058",
      "city": "SÃO BRÁS DE ALPORTEL",
      "lon": "-7.939426856215103",
      "lat": "37.1588112831431"
    },
    {
      "id": "pt.ine.add.PTCONT.1674407",
      "street": "SIT S ROMÃO",
      "house": "104",
      "postcode": "8150-058",
      "city": "SÃO BRÁS DE ALPORTEL",
      "lon": "-7.936209435281828",
      "lat": "37.16224801724573"
    },
    {
      "id": "pt.ine.add.PTCONT.1694055",
      "street": "THE HUSEFARM",
      "house": "",
      "postcode": "8150-058",
      "city": "SÃO BRÁS DE ALPORTEL",
      "lon": "-7.93864980904769",
      "lat": "37.15890912695764"
    },
    {
      "id": "pt.ine.add.PTCONT.1699887",
      "street": "",
      "house": "",
      "postcode": "8150-045",
      "city": "SÃO BRÁS DE ALPORTEL",
      "lon": "-7.945356258830021",
      "lat": "37.160235484057445"
    },
    {
      "id": "pt.ine.add.PTCONT.1702747",
      "street": "ESTR M 523",
      "house": "570 B",
      "postcode": "8150-058",
      "city": "SÃO BRÁS DE ALPORTEL",
      "lon": "-7.935745133687349",
      "lat": "37.158958388767644"
    },
    {
      "id": "pt.ine.add.PTCONT.1711269",
      "street": "CASA DAS FLORES",
      "house": "590 B",
      "postcode": "8150-058",
      "city": "SÃO BRÁS DE ALPORTEL",
      "lon": "-7.9397307499706296",
      "lat": "37.15883881109445"
    },
    {
      "id": "pt.ine.add.PTCONT.1717042",
      "street": "",
      "house": "",
      "postcode": "8150-058",
      "city": "SÃO BRÁS DE ALPORTEL",
      "lon": "-7.938311887451554",
      "lat": "37.158980656554974"
    },
    {
      "id": "pt.ine.add.PTCONT.1725519",
      "street": "ESTR M 523",
      "house": "570A",
      "postcode": "8150-058",
      "city": "SÃO BRÁS DE ALPORTEL",
      "lon": "-7.935937102906642",
      "lat": "37.158733444113096"
    },
    {
      "id": "pt.ine.add.PTCONT.1728395",
      "street": "EM 523",
      "house": "600 B",
      "postcode": "8150-045",
      "city": "SÃO BRÁS DE ALPORTEL",
      "lon": "-7.942891798612957",
      "lat": "37.159808057513246"
    },
    {
      "id": "pt.ine.add.PTCONT.1731960",
      "street": "ESTR M 523",
      "house": "592 A",
      "postcode": "8150-058",
      "city": "SÃO BRÁS DE ALPORTEL",
      "lon": "-7.940540105941728",
      "lat": "37.15931768903619"
    },
    {
      "id": "pt.ine.add.PTCONT.1758419",
      "street": "SIT S ROMÃO",
      "house": "568 C",
      "postcode": "8150-058",
      "city": "SÃO BRÁS DE ALPORTEL",
      "lon": "-7.935576288728992",
      "lat": "37.15894909690043"
    },
    {
      "id": "pt.ine.add.PTCONT.1782748",
      "street": "",
      "house": "",
      "postcode": "8150-058",
      "city": "SÃO BRÁS DE ALPORTEL",
      "lon": "-7.937333867662287",
      "lat": "37.1584294003484"
    },
    {
      "id": "pt.ine.add.PTCONT.1800675",
      "street": "SIT S ROMÃO",
      "house": "569 A",
      "postcode": "8150-058",
      "city": "SÃO BRÁS DE ALPORTEL",
      "lon": "-7.935396749087372",
      "lat": "37.15872353333287"
    },
    {
      "id": "pt.ine.add.PTCONT.1805710",
      "street": "",
      "house": "",
      "postcode": "8150-058",
      "city": "SÃO BRÁS DE ALPORTEL",
      "lon": "-7.940157816555281",
      "lat": "37.15912784533465"
    },
    {
      "id": "pt.ine.add.PTCONT.1820013",
      "street": "",
      "house": "",
      "postcode": "8150-045",
      "city": "SÃO BRÁS DE ALPORTEL",
      "lon": "-7.94535605827115",
      "lat": "37.16031657883995"
    },
    {
      "id": "pt.ine.add.PTCONT.1823261",
      "street": "EM 523",
      "house": "604 A",
      "postcode": "8150-045",
      "city": "SÃO BRÁS DE ALPORTEL",
      "lon": "-7.94371345458397",
      "lat": "37.15988145797872"
    },
    {
      "id": "pt.ine.add.PTCONT.1845812",
      "street": "SIT S ROMÃO",
      "house": "582 A",
      "postcode": "8150-058",
      "city": "SÃO BRÁS DE ALPORTEL",
      "lon": "-7.937918787641878",
      "lat": "37.1586195870676"
    },
    {
      "id": "pt.ine.add.PTCONT.1848772",
      "street": "SIT S ROMÃO",
      "house": "106 A",
      "postcode": "8150-058",
      "city": "SÃO BRÁS DE ALPORTEL",
      "lon": "-7.937434142967381",
      "lat": "37.158835041513264"
    }
  ]
}