{
  "data": {
    "distrito": "Portalegre",
    "concelho": "Nisa",
    "freguesia": "União das freguesias de Arez e Amieira do Tejo",
    "OBJECTID": 147,
    "BGRI2021": "12121100123",
    "DT21": "12",
    "DTMN21": "1212",
    "DTMNFR21": "121211",
    "DTMNFRSEC21": "121211001",
    "SECNUM21": "001",
    "SSNUM21": "23",
    "SECSSNUM21": "00123",
    "OBJECTID_1": 123266,
    "DT": "12",
    "CC": "12",
    "fr": "11",
    "SEC": "001",
    "SS": "23"
  },
  "addresses": [
    {
      "id": "pt.ine.add.PTCONT.3537418",
      "street": "R JOÃO DEUS",
      "house": "6",
      "postcode": "6050-201",
      "city": "AREZ",
      "lon": "-7.724284067872424",
      "lat": "39.485586208236796"
    },
    {
      "id": "pt.ine.add.PTCONT.3537419",
      "street": "R JOÃO DEUS",
      "house": "2",
      "postcode": "6050-201",
      "city": "AREZ",
      "lon": "-7.724208368085264",
      "lat": "39.48564629406327"
    },
    {
      "id": "pt.ine.add.PTCONT.3537998",
      "street": "R FONTE RIBEIRA",
      "house": "12",
      "postcode": "6050-201",
      "city": "AREZ",
      "lon": "-7.7243816971721495",
      "lat": "39.48616895465348"
    },
    {
      "id": "pt.ine.add.PTCONT.3538913",
      "street": "R FONTE RIBEIRA",
      "house": "20",
      "postcode": "6050-201",
      "city": "AREZ",
      "lon": "-7.724783989295485",
      "lat": "39.48694496606513"
    },
    {
      "id": "pt.ine.add.PTCONT.3460263",
      "street": "R FONTE RIBEIRA",
      "house": "10",
      "postcode": "6050-201",
      "city": "AREZ",
      "lon": "-7.724751963200191",
      "lat": "39.48645847810578"
    },
    {
      "id": "pt.ine.add.PTCONT.3468220",
      "street": "R ANTERO QUENTAL",
      "house": "2",
      "postcode": "6050-201",
      "city": "AREZ",
      "lon": "-7.724957764436868",
      "lat": "39.48704465265268"
    },
    {
      "id": "pt.ine.add.PTCONT.3469511",
      "street": "R 5 OUTUBRO",
      "house": "4",
      "postcode": "6050-201",
      "city": "AREZ",
      "lon": "-7.723661825333972",
      "lat": "39.48626392230617"
    },
    {
      "id": "pt.ine.add.PTCONT.3471351",
      "street": "R JOÃO DEUS",
      "house": "8",
      "postcode": "6050-201",
      "city": "AREZ",
      "lon": "-7.724313136849064",
      "lat": "39.48557320351534"
    },
    {
      "id": "pt.ine.add.PTCONT.3474460",
      "street": "LG FONTE RIBEIRA",
      "house": "4",
      "postcode": "6050-201",
      "city": "AREZ",
      "lon": "-7.723986234532214",
      "lat": "39.48621259867477"
    },
    {
      "id": "pt.ine.add.PTCONT.3478327",
      "street": "R 5 OUTUBRO",
      "house": "32",
      "postcode": "6050-201",
      "city": "AREZ",
      "lon": "-7.724140188990259",
      "lat": "39.485726764711394"
    },
    {
      "id": "pt.ine.add.PTCONT.3479955",
      "street": "R 5 OUTUBRO",
      "house": "12",
      "postcode": "6050-201",
      "city": "AREZ",
      "lon": "-7.723765704885585",
      "lat": "39.48615778081449"
    },
    {
      "id": "pt.ine.add.PTCONT.3481113",
      "street": "TV RIBEIRA",
      "house": "9",
      "postcode": "6050-201",
      "city": "AREZ",
      "lon": "-7.724992108850664",
      "lat": "39.48713484273096"
    },
    {
      "id": "pt.ine.add.PTCONT.3482360",
      "street": "R FONTE RIBEIRA",
      "house": "6",
      "postcode": "6050-201",
      "city": "AREZ",
      "lon": "-7.724717724791558",
      "lat": "39.48635027441137"
    },
    {
      "id": "pt.ine.add.PTCONT.3483410",
      "street": "LG FONTE RIBEIRA",
      "house": "6",
      "postcode": "6050-201",
      "city": "AREZ",
      "lon": "-7.724218440786309",
      "lat": "39.48625845022382"
    },
    {
      "id": "pt.ine.add.PTCONT.3484750",
      "street": "R 5 OUTUBRO",
      "house": "18",
      "postcode": "6050-201",
      "city": "AREZ",
      "lon": "-7.723922942971341",
      "lat": "39.4859454981102"
    },
    {
      "id": "pt.ine.add.PTCONT.3487277",
      "street": "R 5 OUTUBRO",
      "house": "14",
      "postcode": "6050-201",
      "city": "AREZ",
      "lon": "-7.723882091322256",
      "lat": "39.48600125330673"
    },
    {
      "id": "pt.ine.add.PTCONT.3489146",
      "street": "R JOÃO DEUS",
      "house": "20",
      "postcode": "6050-201",
      "city": "AREZ",
      "lon": "-7.724606864787278",
      "lat": "39.48543117561217"
    },
    {
      "id": "pt.ine.add.PTCONT.3489830",
      "street": "R JOÃO DEUS",
      "house": "16",
      "postcode": "6050-201",
      "city": "AREZ",
      "lon": "-7.724478638717649",
      "lat": "39.48549377375678"
    },
    {
      "id": "pt.ine.add.PTCONT.3489831",
      "street": "R 5 OUTUBRO",
      "house": "26",
      "postcode": "6050-201",
      "city": "AREZ",
      "lon": "-7.7240343701072085",
      "lat": "39.48586335404018"
    },
    {
      "id": "pt.ine.add.PTCONT.3491080",
      "street": "LG FONTE RIBEIRA",
      "house": "3",
      "postcode": "6050-201",
      "city": "AREZ",
      "lon": "-7.724313063677352",
      "lat": "39.485979567339214"
    },
    {
      "id": "pt.ine.add.PTCONT.3492161",
      "street": "R 5 OUTUBRO",
      "house": "20",
      "postcode": "6050-201",
      "city": "AREZ",
      "lon": "-7.723957110455305",
      "lat": "39.48591898207402"
    },
    {
      "id": "pt.ine.add.PTCONT.3493223",
      "street": "R 5 OUTUBRO",
      "house": "36",
      "postcode": "6050-201",
      "city": "AREZ",
      "lon": "-7.724163805111953",
      "lat": "39.48566379908522"
    },
    {
      "id": "pt.ine.add.PTCONT.3493662",
      "street": "R FONTE RIBEIRA",
      "house": "8",
      "postcode": "6050-201",
      "city": "AREZ",
      "lon": "-7.724729084899634",
      "lat": "39.486395349079764"
    },
    {
      "id": "pt.ine.add.PTCONT.3496697",
      "street": "R FONTE RIBEIRA",
      "house": "22",
      "postcode": "6050-201",
      "city": "AREZ",
      "lon": "-7.724702149747426",
      "lat": "39.48702574122446"
    },
    {
      "id": "pt.ine.add.PTCONT.3496698",
      "street": "LG FONTE RIBEIRA",
      "house": "5",
      "postcode": "6050-201",
      "city": "AREZ",
      "lon": "-7.72438322626153",
      "lat": "39.48590775834816"
    },
    {
      "id": "pt.ine.add.PTCONT.3501215",
      "street": "R FONTE RIBEIRA",
      "house": "16",
      "postcode": "6050-201",
      "city": "AREZ",
      "lon": "-7.724773629952769",
      "lat": "39.48672876280642"
    },
    {
      "id": "pt.ine.add.PTCONT.3501719",
      "street": "R FONTE RIBEIRA",
      "house": "18",
      "postcode": "6050-201",
      "city": "AREZ",
      "lon": "-7.724784779449593",
      "lat": "39.48680986454066"
    },
    {
      "id": "pt.ine.add.PTCONT.3501727",
      "street": "R JOÃO DEUS",
      "house": "10",
      "postcode": "6050-201",
      "city": "AREZ",
      "lon": "-7.724360038848272",
      "lat": "39.48555006289984"
    },
    {
      "id": "pt.ine.add.PTCONT.3505217",
      "street": "R 5 OUTUBRO",
      "house": "2",
      "postcode": "6050-201",
      "city": "AREZ",
      "lon": "-7.723639074884627",
      "lat": "39.486294718932584"
    },
    {
      "id": "pt.ine.add.PTCONT.3509964",
      "street": "LG FONTE RIBEIRA",
      "house": "8",
      "postcode": "6050-201",
      "city": "AREZ",
      "lon": "-7.724288445531147",
      "lat": "39.48621366160163"
    },
    {
      "id": "pt.ine.add.PTCONT.3510262",
      "street": "R 5 OUTUBRO",
      "house": "28",
      "postcode": "6050-201",
      "city": "AREZ",
      "lon": "-7.724104738345684",
      "lat": "39.48582571652456"
    },
    {
      "id": "pt.ine.add.PTCONT.3514241",
      "street": "R JOÃO DEUS",
      "house": "18",
      "postcode": "6050-201",
      "city": "AREZ",
      "lon": "-7.724532362369816",
      "lat": "39.485471848664034"
    },
    {
      "id": "pt.ine.add.PTCONT.3516719",
      "street": "R JOÃO DEUS",
      "house": "4",
      "postcode": "6050-201",
      "city": "AREZ",
      "lon": "-7.72423774647693",
      "lat": "39.48561856948152"
    },
    {
      "id": "pt.ine.add.PTCONT.3519255",
      "street": "TV RIBEIRA",
      "house": "3",
      "postcode": "6050-201",
      "city": "AREZ",
      "lon": "-7.725002416269821",
      "lat": "39.48736005272673"
    },
    {
      "id": "pt.ine.add.PTCONT.3523565",
      "street": "R 5 OUTUBRO",
      "house": "22",
      "postcode": "6050-201",
      "city": "AREZ",
      "lon": "-7.723996879048845",
      "lat": "39.48590124860069"
    },
    {
      "id": "pt.ine.add.PTCONT.3527382",
      "street": "R 5 OUTUBRO",
      "house": "16",
      "postcode": "6050-201",
      "city": "AREZ",
      "lon": "-7.723889261041169",
      "lat": "39.48597404691321"
    },
    {
      "id": "pt.ine.add.PTCONT.3529416",
      "street": "TV RIBEIRA",
      "house": "1",
      "postcode": "6050-201",
      "city": "AREZ",
      "lon": "-7.724978800315969",
      "lat": "39.48742301850579"
    },
    {
      "id": "pt.ine.add.PTCONT.3530336",
      "street": "R JOÃO DEUS",
      "house": "14",
      "postcode": "6050-201",
      "city": "AREZ",
      "lon": "-7.72443922334574",
      "lat": "39.48551298127534"
    },
    {
      "id": "pt.ine.add.PTCONT.3531087",
      "street": "TV RIBEIRA",
      "house": "7",
      "postcode": "6050-201",
      "city": "AREZ",
      "lon": "-7.7249912664376525",
      "lat": "39.48727895101924"
    },
    {
      "id": "pt.ine.add.PTCONT.3532451",
      "street": "TV RIBEIRA",
      "house": "9",
      "postcode": "6050-201",
      "city": "AREZ",
      "lon": "-7.72499163499409",
      "lat": "39.48721590364355"
    },
    {
      "id": "pt.ine.add.PTCONT.3532920",
      "street": "R 5 OUTUBRO",
      "house": "6",
      "postcode": "6050-201",
      "city": "AREZ",
      "lon": "-7.723704907889793",
      "lat": "39.486205791804835"
    },
    {
      "id": "pt.ine.add.PTCONT.3533612",
      "street": "LG FONTE RIBEIRA",
      "house": "2",
      "postcode": "6050-201",
      "city": "AREZ",
      "lon": "-7.723823558339061",
      "lat": "39.48620301923598"
    },
    {
      "id": "pt.ine.add.PTCONT.3534406",
      "street": "R JOÃO DEUS",
      "house": "12",
      "postcode": "6050-201",
      "city": "AREZ",
      "lon": "-7.724397064156008",
      "lat": "39.48552951487876"
    }
  ]
}