{
  "data": {
    "distrito": "Guarda",
    "concelho": "Sabugal",
    "freguesia": "União das freguesias do Sabugal e Aldeia de Santo António",
    "OBJECTID": 602,
    "BGRI2021": "09114500323",
    "DT21": "09",
    "DTMN21": "0911",
    "DTMNFR21": "091145",
    "DTMNFRSEC21": "091145003",
    "SECNUM21": "003",
    "SSNUM21": "23",
    "SECSSNUM21": "00323",
    "OBJECTID_1": 80714,
    "DT": "09",
    "CC": "11",
    "fr": "45",
    "SEC": "003",
    "SS": "23"
  },
  "addresses": [
    {
      "id": "pt.ine.add.PTCONT.1929023",
      "street": "R REIS CHORAO",
      "house": "19",
      "postcode": "6320-505",
      "city": "SABUGAL",
      "lon": "-7.091021830233743",
      "lat": "40.35197799186702"
    },
    {
      "id": "pt.ine.add.PTCONT.1976513",
      "street": "LG TRINCHEIRA",
      "house": "7",
      "postcode": "6320-336",
      "city": "SABUGAL",
      "lon": "-7.090442645372637",
      "lat": "40.352134868903946"
    },
    {
      "id": "pt.ine.add.PTCONT.1863442",
      "street": "R REIS CHORAO",
      "house": "27",
      "postcode": "6320-505",
      "city": "SABUGAL",
      "lon": "-7.090526000377462",
      "lat": "40.35207258253346"
    },
    {
      "id": "pt.ine.add.PTCONT.1865404",
      "street": "R REIS CHORAO",
      "house": "23",
      "postcode": "6320-505",
      "city": "SABUGAL",
      "lon": "-7.090797523116499",
      "lat": "40.35202099753312"
    },
    {
      "id": "pt.ine.add.PTCONT.1875280",
      "street": "LG TRINCHEIRA",
      "house": "7",
      "postcode": "6320-336",
      "city": "SABUGAL",
      "lon": "-7.090441397158889",
      "lat": "40.352215906298746"
    },
    {
      "id": "pt.ine.add.PTCONT.1878138",
      "street": "R GUERRA JUNQUEIRO",
      "house": "",
      "postcode": "6320-377",
      "city": "SABUGAL",
      "lon": "-7.091066966357239",
      "lat": "40.35210447424448"
    },
    {
      "id": "pt.ine.add.PTCONT.1878139",
      "street": "R GUERRA JUNQUEIRO",
      "house": "",
      "postcode": "6320-377",
      "city": "SABUGAL",
      "lon": "-7.091066966357239",
      "lat": "40.35210447424448"
    },
    {
      "id": "pt.ine.add.PTCONT.1897731",
      "street": "R PONTOES",
      "house": "16",
      "postcode": "6320-392",
      "city": "SABUGAL",
      "lon": "-7.091044536884603",
      "lat": "40.35203222890108"
    }
  ]
}