{
  "data": {
    "distrito": "Viseu",
    "concelho": "Cinfães",
    "freguesia": "Santiago de Piães",
    "OBJECTID": 636,
    "BGRI2021": "18041200159",
    "DT21": "18",
    "DTMN21": "1804",
    "DTMNFR21": "180412",
    "DTMNFRSEC21": "180412001",
    "SECNUM21": "001",
    "SSNUM21": "59",
    "SECSSNUM21": "00159",
    "OBJECTID_1": 190282,
    "DT": "18",
    "CC": "04",
    "fr": "12",
    "SEC": "001",
    "SS": "59"
  },
  "addresses": [
    {
      "id": "pt.ine.add.PTCONT.5437795",
      "street": "R OLEIROS",
      "house": "46",
      "postcode": "4690-466",
      "city": "SANTIAGO DE PIÃES",
      "lon": "-8.144745249258989",
      "lat": "41.072531171657936"
    },
    {
      "id": "pt.ine.add.PTCONT.5441703",
      "street": "R OLEIROS",
      "house": "",
      "postcode": "4690-466",
      "city": "SANTIAGO DE PIÃES",
      "lon": "-8.143686277676785",
      "lat": "41.0726033099077"
    },
    {
      "id": "pt.ine.add.PTCONT.5451092",
      "street": "R S SEBASTIÃO",
      "house": "30",
      "postcode": "4690-466",
      "city": "SANTIAGO DE PIÃES",
      "lon": "-8.145542228853401",
      "lat": "41.07129746875603"
    },
    {
      "id": "pt.ine.add.PTCONT.5463684",
      "street": "R OLEIROS",
      "house": "",
      "postcode": "4690-466",
      "city": "SANTIAGO DE PIÃES",
      "lon": "-8.1448046597076",
      "lat": "41.07206293047325"
    },
    {
      "id": "pt.ine.add.PTCONT.5490703",
      "street": "R S SEBASTIÃO",
      "house": "44",
      "postcode": "4690-466",
      "city": "SANTIAGO DE PIÃES",
      "lon": "-8.144709432899923",
      "lat": "41.0718468315465"
    },
    {
      "id": "pt.ine.add.PTCONT.5493138",
      "street": "TV OLEIROS",
      "house": "38",
      "postcode": "4690-466",
      "city": "SANTIAGO DE PIÃES",
      "lon": "-8.144531157059195",
      "lat": "41.07301743725345"
    },
    {
      "id": "pt.ine.add.PTCONT.5493139",
      "street": "R OLEIROS",
      "house": "552",
      "postcode": "4690-466",
      "city": "SANTIAGO DE PIÃES",
      "lon": "-8.144114563293751",
      "lat": "41.07219806629247"
    },
    {
      "id": "pt.ine.add.PTCONT.5497557",
      "street": "R OLEIROS",
      "house": "57",
      "postcode": "4690-466",
      "city": "SANTIAGO DE PIÃES",
      "lon": "-8.144650045591465",
      "lat": "41.07245014053288"
    },
    {
      "id": "pt.ine.add.PTCONT.5513933",
      "street": "R CAMINHO OLEIROS",
      "house": "",
      "postcode": "4690-466",
      "city": "SANTIAGO DE PIÃES",
      "lon": "-8.144352364006009",
      "lat": "41.07118953670873"
    },
    {
      "id": "pt.ine.add.PTCONT.5518417",
      "street": "R OLEIROS",
      "house": "",
      "postcode": "4690-466",
      "city": "SANTIAGO DE PIÃES",
      "lon": "-8.144483307426977",
      "lat": "41.071540700292154"
    },
    {
      "id": "pt.ine.add.PTCONT.5527723",
      "street": "R OLEIROS",
      "house": "563",
      "postcode": "4690-466",
      "city": "SANTIAGO DE PIÃES",
      "lon": "-8.144447757333712",
      "lat": "41.07238712895985"
    },
    {
      "id": "pt.ine.add.PTCONT.5532216",
      "street": "R S SEBASTIÃO",
      "house": "84",
      "postcode": "4690-466",
      "city": "SANTIAGO DE PIÃES",
      "lon": "-8.145292417622398",
      "lat": "41.07160364924964"
    },
    {
      "id": "pt.ine.add.PTCONT.5533947",
      "street": "R OLEIROS",
      "house": "80",
      "postcode": "4690-466",
      "city": "SANTIAGO DE PIÃES",
      "lon": "-8.143971723448425",
      "lat": "41.07185590797553"
    },
    {
      "id": "pt.ine.add.PTCONT.5538479",
      "street": "R S SEBASTIÃO",
      "house": "9",
      "postcode": "4690-466",
      "city": "SANTIAGO DE PIÃES",
      "lon": "-8.144983088517202",
      "lat": "41.07178377200919"
    },
    {
      "id": "pt.ine.add.PTCONT.5540741",
      "street": "R REGADINHA",
      "house": "808",
      "postcode": "4690-440",
      "city": "SANTIAGO DE PIÃES",
      "lon": "-8.145387213764211",
      "lat": "41.06949658028296"
    },
    {
      "id": "pt.ine.add.PTCONT.5547519",
      "street": "R OLEIROS",
      "house": "",
      "postcode": "4690-466",
      "city": "SANTIAGO DE PIÃES",
      "lon": "-8.14539940368044",
      "lat": "41.07106336644784"
    },
    {
      "id": "pt.ine.add.PTCONT.5553694",
      "street": "R S SEBASTIÃO",
      "house": "",
      "postcode": "4690-466",
      "city": "SANTIAGO DE PIÃES",
      "lon": "-8.144792727626522",
      "lat": "41.07187383670045"
    },
    {
      "id": "pt.ine.add.PTCONT.5556063",
      "street": "R OLEIROS",
      "house": "437",
      "postcode": "4690-466",
      "city": "SANTIAGO DE PIÃES",
      "lon": "-8.144435679393467",
      "lat": "41.071342605459215"
    },
    {
      "id": "pt.ine.add.PTCONT.5562441",
      "street": "R CASAL DE PIÃES",
      "house": "872",
      "postcode": "4690-450",
      "city": "SANTIAGO DE PIÃES",
      "lon": "-8.145446829029204",
      "lat": "41.07016290886622"
    },
    {
      "id": "pt.ine.add.PTCONT.5583964",
      "street": "TV OLEIROS",
      "house": "",
      "postcode": "4690-466",
      "city": "SANTIAGO DE PIÃES",
      "lon": "-8.144614360564248",
      "lat": "41.07251317575695"
    },
    {
      "id": "pt.ine.add.PTCONT.5596968",
      "street": "R OLEIROS",
      "house": "99",
      "postcode": "4690-466",
      "city": "SANTIAGO DE PIÃES",
      "lon": "-8.145506636647745",
      "lat": "41.07184674853237"
    },
    {
      "id": "pt.ine.add.PTCONT.5604843",
      "street": "R OLEIROS",
      "house": "135",
      "postcode": "4690-466",
      "city": "SANTIAGO DE PIÃES",
      "lon": "-8.144840267475972",
      "lat": "41.07156767807468"
    },
    {
      "id": "pt.ine.add.PTCONT.5607751",
      "street": "R OLEIROS",
      "house": "75",
      "postcode": "4690-466",
      "city": "SANTIAGO DE PIÃES",
      "lon": "-8.14425722055893",
      "lat": "41.071450677149876"
    },
    {
      "id": "pt.ine.add.PTCONT.5614486",
      "street": "TV OLEIROS",
      "house": "753",
      "postcode": "4690-466",
      "city": "SANTIAGO DE PIÃES",
      "lon": "-8.142877172749634",
      "lat": "41.07264840394825"
    },
    {
      "id": "pt.ine.add.PTCONT.5615924",
      "street": "R OLEIROS",
      "house": "484",
      "postcode": "4690-466",
      "city": "SANTIAGO DE PIÃES",
      "lon": "-8.1445547859339",
      "lat": "41.072044946518524"
    },
    {
      "id": "pt.ine.add.PTCONT.5621103",
      "street": "R OLEIROS",
      "house": "184",
      "postcode": "4690-466",
      "city": "SANTIAGO DE PIÃES",
      "lon": "-8.144423794815594",
      "lat": "41.07142364734218"
    },
    {
      "id": "pt.ine.add.PTCONT.5635100",
      "street": "R OLEIROS",
      "house": "",
      "postcode": "4690-466",
      "city": "SANTIAGO DE PIÃES",
      "lon": "-8.143876667159255",
      "lat": "41.0726663239276"
    },
    {
      "id": "pt.ine.add.PTCONT.5640044",
      "street": "R OLEIROS",
      "house": "13",
      "postcode": "4690-466",
      "city": "SANTIAGO DE PIÃES",
      "lon": "-8.143995477501006",
      "lat": "41.07159477455526"
    },
    {
      "id": "pt.ine.add.PTCONT.5640045",
      "street": "R CASAL DE PIÃES",
      "house": "1048",
      "postcode": "4690-466",
      "city": "SANTIAGO DE PIÃES",
      "lon": "-8.146030108203162",
      "lat": "41.0715135236548"
    },
    {
      "id": "pt.ine.add.PTCONT.5651291",
      "street": "R OLEIROS",
      "house": "516",
      "postcode": "4690-466",
      "city": "SANTIAGO DE PIÃES",
      "lon": "-8.144364386846483",
      "lat": "41.07191890195181"
    },
    {
      "id": "pt.ine.add.PTCONT.5651530",
      "street": "R OLEIROS",
      "house": "",
      "postcode": "4690-466",
      "city": "SANTIAGO DE PIÃES",
      "lon": "-8.144423910606633",
      "lat": "41.07209898658127"
    },
    {
      "id": "pt.ine.add.PTCONT.5660761",
      "street": "R SANTIAGO REGADINHA",
      "house": "612",
      "postcode": "4690-466",
      "city": "SANTIAGO DE PIÃES",
      "lon": "-8.14323371815677",
      "lat": "41.06993801142376"
    },
    {
      "id": "pt.ine.add.PTCONT.5664507",
      "street": "R S SEBASTIÃO",
      "house": "84",
      "postcode": "4690-466",
      "city": "SANTIAGO DE PIÃES",
      "lon": "-8.145292417622398",
      "lat": "41.07160364924964"
    },
    {
      "id": "pt.ine.add.PTCONT.5665088",
      "street": "CORGO",
      "house": "3",
      "postcode": "4690-466",
      "city": "SANTIAGO DE PIÃES",
      "lon": "-8.144697703531804",
      "lat": "41.072810316628775"
    }
  ]
}