{
  "data": {
    "distrito": "Faro",
    "concelho": "Lagoa",
    "freguesia": "Uni√£o das freguesias de Lagoa e Carvoeiro",
    "OBJECTID": 273,
    "BGRI2021": "08060801007",
    "DT21": "08",
    "DTMN21": "0806",
    "DTMNFR21": "080608",
    "DTMNFRSEC21": "080608010",
    "SECNUM21": "010",
    "SSNUM21": "07",
    "SECSSNUM21": "01007",
    "OBJECTID_1": 66986,
    "DT": "08",
    "CC": "06",
    "fr": "08",
    "SEC": "010",
    "SS": "07"
  },
  "addresses": [
    {
      "id": "pt.ine.add.PTCONT.1516247",
      "street": "R FLORES",
      "house": "14",
      "postcode": "8400-510",
      "city": "CARVOEIRO LGA",
      "lon": "-8.46585952976856",
      "lat": "37.094734471309636"
    },
    {
      "id": "pt.ine.add.PTCONT.1525246",
      "street": "R FLORES CASA BRANCA",
      "house": "4",
      "postcode": "8400-510",
      "city": "CARVOEIRO LGA",
      "lon": "-8.46448888969506",
      "lat": "37.09511675614159"
    },
    {
      "id": "pt.ine.add.PTCONT.1578168",
      "street": "ESTR FAROL THE KIT",
      "house": "82",
      "postcode": "8400-505",
      "city": "CARVOEIRO LGA",
      "lon": "-8.466111013456707",
      "lat": "37.09565285038368"
    },
    {
      "id": "pt.ine.add.PTCONT.1589844",
      "street": "ESTR FAROL",
      "house": "88",
      "postcode": "8400-505",
      "city": "CARVOEIRO LGA",
      "lon": "-8.464805060213578",
      "lat": "37.09539520197037"
    },
    {
      "id": "pt.ine.add.PTCONT.1589845",
      "street": "GAVETA DO FAROL",
      "house": "",
      "postcode": "8400-505",
      "city": "CARVOEIRO LGA",
      "lon": "-8.465748622649372",
      "lat": "37.09509520796642"
    },
    {
      "id": "pt.ine.add.PTCONT.1589846",
      "street": "GAVETA DO FAROL",
      "house": "",
      "postcode": "8400-505",
      "city": "CARVOEIRO LGA",
      "lon": "-8.465748622649372",
      "lat": "37.09509520796642"
    },
    {
      "id": "pt.ine.add.PTCONT.1589847",
      "street": "GAVETA DO FAROL",
      "house": "",
      "postcode": "8400-505",
      "city": "CARVOEIRO LGA",
      "lon": "-8.465748622649372",
      "lat": "37.09509520796642"
    },
    {
      "id": "pt.ine.add.PTCONT.1663245",
      "street": "R AMOREIRAS",
      "house": "",
      "postcode": "8400-503",
      "city": "CARVOEIRO LGA",
      "lon": "-8.466187267495869",
      "lat": "37.095084966105155"
    },
    {
      "id": "pt.ine.add.PTCONT.1669638",
      "street": "R FLORES",
      "house": "4 A 10",
      "postcode": "8400-510",
      "city": "CARVOEIRO LGA",
      "lon": "-8.46483739120666",
      "lat": "37.0950707285854"
    },
    {
      "id": "pt.ine.add.PTCONT.1669639",
      "street": "R FLORES",
      "house": "4 A 10",
      "postcode": "8400-510",
      "city": "CARVOEIRO LGA",
      "lon": "-8.46483739120666",
      "lat": "37.0950707285854"
    },
    {
      "id": "pt.ine.add.PTCONT.1669640",
      "street": "R FLORES",
      "house": "4 A 10",
      "postcode": "8400-510",
      "city": "CARVOEIRO LGA",
      "lon": "-8.46483739120666",
      "lat": "37.0950707285854"
    },
    {
      "id": "pt.ine.add.PTCONT.1669641",
      "street": "R FLORES",
      "house": "4 A 10",
      "postcode": "8400-510",
      "city": "CARVOEIRO LGA",
      "lon": "-8.46483739120666",
      "lat": "37.0950707285854"
    },
    {
      "id": "pt.ine.add.PTCONT.1669871",
      "street": "R FLORES",
      "house": "4 A 10",
      "postcode": "8400-510",
      "city": "CARVOEIRO LGA",
      "lon": "-8.46483739120666",
      "lat": "37.0950707285854"
    },
    {
      "id": "pt.ine.add.PTCONT.1698780",
      "street": "ESTR FAROL",
      "house": "86",
      "postcode": "8400-505",
      "city": "CARVOEIRO LGA",
      "lon": "-8.465581866333487",
      "lat": "37.09554620746224"
    },
    {
      "id": "pt.ine.add.PTCONT.1701751",
      "street": "ESTR FAROL",
      "house": "",
      "postcode": "8400-505",
      "city": "CARVOEIRO LGA",
      "lon": "-8.464591145099169",
      "lat": "37.09535074692927"
    },
    {
      "id": "pt.ine.add.PTCONT.1720360",
      "street": "R FLORES",
      "house": "12",
      "postcode": "8400-510",
      "city": "CARVOEIRO LGA",
      "lon": "-8.465522436148424",
      "lat": "37.09481651244245"
    },
    {
      "id": "pt.ine.add.PTCONT.1751127",
      "street": "R FLORES",
      "house": "8",
      "postcode": "8400-510",
      "city": "CARVOEIRO LGA",
      "lon": "-8.465128903788823",
      "lat": "37.09485365745849"
    },
    {
      "id": "pt.ine.add.PTCONT.1763577",
      "street": "R FLORES",
      "house": "16",
      "postcode": "8400-510",
      "city": "CARVOEIRO LGA",
      "lon": "-8.466174205031574",
      "lat": "37.094670513461445"
    },
    {
      "id": "pt.ine.add.PTCONT.1805370",
      "street": "GAVETA DO FAROL",
      "house": "",
      "postcode": "8400-505",
      "city": "CARVOEIRO LGA",
      "lon": "-8.465547215801488",
      "lat": "37.09533905995487"
    },
    {
      "id": "pt.ine.add.PTCONT.1820537",
      "street": "R FLORES",
      "house": "10",
      "postcode": "8400-510",
      "city": "CARVOEIRO LGA",
      "lon": "-8.465376720044675",
      "lat": "37.09493405910425"
    }
  ]
}