{
  "data": {
    "distrito": "Viseu",
    "concelho": "Castro Daire",
    "freguesia": "Mões",
    "OBJECTID": 54,
    "BGRI2021": "18031200121",
    "DT21": "18",
    "DTMN21": "1803",
    "DTMNFR21": "180312",
    "DTMNFRSEC21": "180312001",
    "SECNUM21": "001",
    "SSNUM21": "21",
    "SECSSNUM21": "00121",
    "OBJECTID_1": 189342,
    "DT": "18",
    "CC": "03",
    "fr": "12",
    "SEC": "001",
    "SS": "21"
  },
  "addresses": [
    {
      "id": "pt.ine.add.PTCONT.5429092",
      "street": "R TAPADINHO",
      "house": "40",
      "postcode": "3600-425",
      "city": "MÕES",
      "lon": "-7.931841618195908",
      "lat": "40.861556443973804"
    },
    {
      "id": "pt.ine.add.PTCONT.5434478",
      "street": "R VÁRZEA",
      "house": "48",
      "postcode": "3600-425",
      "city": "MÕES",
      "lon": "-7.9318046181705535",
      "lat": "40.86202463131258"
    },
    {
      "id": "pt.ine.add.PTCONT.5458250",
      "street": "EN 2",
      "house": "1630",
      "postcode": "3600-425",
      "city": "MÕES",
      "lon": "-7.933372754583309",
      "lat": "40.85724578307587"
    },
    {
      "id": "pt.ine.add.PTCONT.5469194",
      "street": "R CENTRAL",
      "house": "480",
      "postcode": "3600-425",
      "city": "MÕES",
      "lon": "-7.930677370366571",
      "lat": "40.862175740963835"
    },
    {
      "id": "pt.ine.add.PTCONT.5523650",
      "street": "EN 2",
      "house": "1461",
      "postcode": "3600-425",
      "city": "MÕES",
      "lon": "-7.934095379774128",
      "lat": "40.85752618241918"
    },
    {
      "id": "pt.ine.add.PTCONT.5529595",
      "street": "R CENTRAL",
      "house": "496",
      "postcode": "3600-425",
      "city": "MÕES",
      "lon": "-7.930795842234929",
      "lat": "40.86222097302641"
    },
    {
      "id": "pt.ine.add.PTCONT.5580421",
      "street": "R CENTRAL",
      "house": "",
      "postcode": "3600-425",
      "city": "MÕES",
      "lon": "-7.930963181519464",
      "lat": "40.86179803873446"
    },
    {
      "id": "pt.ine.add.PTCONT.5603960",
      "street": "QTA CARNEIRO COURINHA",
      "house": "",
      "postcode": "3600-425",
      "city": "MÕES",
      "lon": "-7.933591313890959",
      "lat": "40.855553248965236"
    },
    {
      "id": "pt.ine.add.PTCONT.5619290",
      "street": "EN 2",
      "house": "",
      "postcode": "3600-425",
      "city": "MÕES",
      "lon": "-7.934127726548716",
      "lat": "40.858606820254344"
    },
    {
      "id": "pt.ine.add.PTCONT.5619291",
      "street": "EN 2",
      "house": "1493",
      "postcode": "3600-425",
      "city": "MÕES",
      "lon": "-7.933471635539761",
      "lat": "40.85591323606565"
    },
    {
      "id": "pt.ine.add.PTCONT.5632227",
      "street": "EN 2",
      "house": "1494",
      "postcode": "3600-425",
      "city": "MÕES",
      "lon": "-7.9335305020139115",
      "lat": "40.85605741558183"
    },
    {
      "id": "pt.ine.add.PTCONT.5647924",
      "street": "EN 2",
      "house": "",
      "postcode": "3600-425",
      "city": "MÕES",
      "lon": "-7.933802656654956",
      "lat": "40.85626499774216"
    },
    {
      "id": "pt.ine.add.PTCONT.5654728",
      "street": "EN 2",
      "house": "1475",
      "postcode": "3600-425",
      "city": "MÕES",
      "lon": "-7.934093493304789",
      "lat": "40.85815651870905"
    },
    {
      "id": "pt.ine.add.PTCONT.5657461",
      "street": "R CENTRAL",
      "house": "554",
      "postcode": "3600-425",
      "city": "MÕES",
      "lon": "-7.93105877955241",
      "lat": "40.86156408026814"
    }
  ]
}