{
  "data": {
    "distrito": "Viseu",
    "concelho": "Tondela",
    "freguesia": "União das freguesias de Vilar de Besteiros e Mosteiro de Fráguas",
    "OBJECTID": 920,
    "BGRI2021": "18213300155",
    "DT21": "18",
    "DTMN21": "1821",
    "DTMNFR21": "182133",
    "DTMNFRSEC21": "182133001",
    "SECNUM21": "001",
    "SSNUM21": "55",
    "SECSSNUM21": "00155",
    "OBJECTID_1": 199631,
    "DT": "18",
    "CC": "21",
    "fr": "33",
    "SEC": "001",
    "SS": "55"
  },
  "addresses": [
    {
      "id": "pt.ine.add.PTCONT.5439595",
      "street": "LG ALMAS",
      "house": "15",
      "postcode": "3460-301",
      "city": "MOSTEIRO DE FRÁGUAS",
      "lon": "-8.059189243303631",
      "lat": "40.57470756607954"
    },
    {
      "id": "pt.ine.add.PTCONT.5457461",
      "street": "R TAPADO",
      "house": "438",
      "postcode": "3460-301",
      "city": "MOSTEIRO DE FRÁGUAS",
      "lon": "-8.06198561931617",
      "lat": "40.57716776807749"
    },
    {
      "id": "pt.ine.add.PTCONT.5463229",
      "street": "MOSTEIRO DE FRAGUAS",
      "house": "",
      "postcode": "3460-304",
      "city": "MOSTEIRO DE FRÁGUAS",
      "lon": "-8.05719809333425",
      "lat": "40.58095594999147"
    },
    {
      "id": "pt.ine.add.PTCONT.5472285",
      "street": "R TAPADO",
      "house": "",
      "postcode": "3460-301",
      "city": "MOSTEIRO DE FRÁGUAS",
      "lon": "-8.061548238462136",
      "lat": "40.57753671512456"
    },
    {
      "id": "pt.ine.add.PTCONT.5486772",
      "street": "R TAPADO",
      "house": "170",
      "postcode": "3460-301",
      "city": "MOSTEIRO DE FRÁGUAS",
      "lon": "-8.060912831428059",
      "lat": "40.57533902708937"
    },
    {
      "id": "pt.ine.add.PTCONT.5489813",
      "street": "QTA CORGA",
      "house": "106",
      "postcode": "3460-301",
      "city": "MOSTEIRO DE FRÁGUAS",
      "lon": "-8.054791751111837",
      "lat": "40.57827076643927"
    },
    {
      "id": "pt.ine.add.PTCONT.5498853",
      "street": "R TAPADO",
      "house": "234",
      "postcode": "3460-301",
      "city": "MOSTEIRO DE FRÁGUAS",
      "lon": "-8.06106508835763",
      "lat": "40.5765278215664"
    },
    {
      "id": "pt.ine.add.PTCONT.5506476",
      "street": "R TAPADO",
      "house": "64",
      "postcode": "3460-301",
      "city": "MOSTEIRO DE FRÁGUAS",
      "lon": "-8.059933079529822",
      "lat": "40.5748881456468"
    },
    {
      "id": "pt.ine.add.PTCONT.5521770",
      "street": "R TAPADO",
      "house": "148",
      "postcode": "3460-301",
      "city": "MOSTEIRO DE FRÁGUAS",
      "lon": "-8.060617597115668",
      "lat": "40.57532083160746"
    },
    {
      "id": "pt.ine.add.PTCONT.5530784",
      "street": "R TAPADO",
      "house": "88",
      "postcode": "3460-301",
      "city": "MOSTEIRO DE FRÁGUAS",
      "lon": "-8.060287303541982",
      "lat": "40.574960411879985"
    },
    {
      "id": "pt.ine.add.PTCONT.5543723",
      "street": "LG ALMAS",
      "house": "1",
      "postcode": "3460-301",
      "city": "MOSTEIRO DE FRÁGUAS",
      "lon": "-8.059283832487568",
      "lat": "40.57460856825824"
    },
    {
      "id": "pt.ine.add.PTCONT.5548460",
      "street": "BR SR AFLITOS",
      "house": "318",
      "postcode": "3460-304",
      "city": "MOSTEIRO DE FRÁGUAS",
      "lon": "-8.056925946811702",
      "lat": "40.5813880247745"
    },
    {
      "id": "pt.ine.add.PTCONT.5551300",
      "street": "BR SENHOR DOS AFLITOS",
      "house": "",
      "postcode": "3460-304",
      "city": "MOSTEIRO DE FRÁGUAS",
      "lon": "-8.057363144525503",
      "lat": "40.581226217046996"
    },
    {
      "id": "pt.ine.add.PTCONT.5561342",
      "street": "BR SENHOR DOS AFLITOS",
      "house": "87",
      "postcode": "3460-304",
      "city": "MOSTEIRO DE FRÁGUAS",
      "lon": "-8.058025295810056",
      "lat": "40.58057826837931"
    },
    {
      "id": "pt.ine.add.PTCONT.5570748",
      "street": "R TAPADO",
      "house": "298",
      "postcode": "3460-301",
      "city": "MOSTEIRO DE FRÁGUAS",
      "lon": "-8.061703144551437",
      "lat": "40.57624905347897"
    },
    {
      "id": "pt.ine.add.PTCONT.5577480",
      "street": "R SALGUEIRO",
      "house": "491",
      "postcode": "3460-301",
      "city": "MOSTEIRO DE FRÁGUAS",
      "lon": "-8.054156621824452",
      "lat": "40.57601900997294"
    },
    {
      "id": "pt.ine.add.PTCONT.5579488",
      "street": "R TAPADO",
      "house": "42",
      "postcode": "3460-301",
      "city": "MOSTEIRO DE FRÁGUAS",
      "lon": "-8.059767817205879",
      "lat": "40.57481599844465"
    },
    {
      "id": "pt.ine.add.PTCONT.5581342",
      "street": "R MOURARIA",
      "house": "",
      "postcode": "3460-302",
      "city": "MOSTEIRO DE FRÁGUAS",
      "lon": "-8.059019154473935",
      "lat": "40.57901198916423"
    },
    {
      "id": "pt.ine.add.PTCONT.5586893",
      "street": "R TAPADO",
      "house": "244",
      "postcode": "3460-301",
      "city": "MOSTEIRO DE FRÁGUAS",
      "lon": "-8.061585396265848",
      "lat": "40.57591578459492"
    },
    {
      "id": "pt.ine.add.PTCONT.5588906",
      "street": "R LABOEIRA",
      "house": "47",
      "postcode": "3460-301",
      "city": "MOSTEIRO DE FRÁGUAS",
      "lon": "-8.059531201735162",
      "lat": "40.57519407058897"
    },
    {
      "id": "pt.ine.add.PTCONT.5624716",
      "street": "FRÁGUAS",
      "house": "",
      "postcode": "3460-304",
      "city": "MOSTEIRO DE FRÁGUAS",
      "lon": "-8.061891507948753",
      "lat": "40.57681650351331"
    },
    {
      "id": "pt.ine.add.PTCONT.5639349",
      "street": "R MOURARIA",
      "house": "133",
      "postcode": "3460-302",
      "city": "MOSTEIRO DE FRÁGUAS",
      "lon": "-8.05912537226939",
      "lat": "40.579084099588194"
    },
    {
      "id": "pt.ine.add.PTCONT.5648360",
      "street": "R SALGUEIRO",
      "house": "539",
      "postcode": "3460-301",
      "city": "MOSTEIRO DE FRÁGUAS",
      "lon": "-8.053908372584775",
      "lat": "40.57621695660411"
    }
  ]
}