{
  "data": {
    "distrito": "Vila Real",
    "concelho": "Chaves",
    "freguesia": "Vidago (União das freguesias de Vidago, Arcossó, Selhariz e Vilarinho das Paranheiras)",
    "OBJECTID": 713,
    "BGRI2021": "17036100127",
    "DT21": "17",
    "DTMN21": "1703",
    "DTMNFR21": "170361",
    "DTMNFRSEC21": "170361001",
    "SECNUM21": "001",
    "SSNUM21": "27",
    "SECSSNUM21": "00127",
    "OBJECTID_1": 182280,
    "DT": "17",
    "CC": "03",
    "fr": "61",
    "SEC": "001",
    "SS": "27"
  },
  "addresses": [
    {
      "id": "pt.ine.add.PTCONT.5290050",
      "street": "",
      "house": "",
      "postcode": "5425-026",
      "city": "ARCOSSÓ",
      "lon": "-7.604147939478746",
      "lat": "41.63851754995608"
    },
    {
      "id": "pt.ine.add.PTCONT.5292984",
      "street": "ESTR DE CAPELUDES",
      "house": "2",
      "postcode": "5425-021",
      "city": "ARCOSSÓ",
      "lon": "-7.593093818125116",
      "lat": "41.64141032259258"
    },
    {
      "id": "pt.ine.add.PTCONT.5294053",
      "street": "",
      "house": "",
      "postcode": "5425-026",
      "city": "ARCOSSÓ",
      "lon": "-7.608055947396594",
      "lat": "41.63170173922539"
    },
    {
      "id": "pt.ine.add.PTCONT.5294064",
      "street": "QTA DO CARVALHAL",
      "house": "",
      "postcode": "5425-026",
      "city": "ARCOSSÓ",
      "lon": "-7.595052311901448",
      "lat": "41.638277255851435"
    },
    {
      "id": "pt.ine.add.PTCONT.5303328",
      "street": "",
      "house": "",
      "postcode": "5425-026",
      "city": "ARCOSSÓ",
      "lon": "-7.602971328819047",
      "lat": "41.629778642830395"
    },
    {
      "id": "pt.ine.add.PTCONT.5305045",
      "street": "",
      "house": "",
      "postcode": "5425-026",
      "city": "ARCOSSÓ",
      "lon": "-7.605113611923027",
      "lat": "41.63049078347935"
    },
    {
      "id": "pt.ine.add.PTCONT.5316518",
      "street": "R DA QUINTA",
      "house": "",
      "postcode": "5425-026",
      "city": "ARCOSSÓ",
      "lon": "-7.610821468569149",
      "lat": "41.638476037075144"
    },
    {
      "id": "pt.ine.add.PTCONT.5323182",
      "street": "QTA DO RINCHÃO",
      "house": "",
      "postcode": "5425-021",
      "city": "ARCOSSÓ",
      "lon": "-7.603810418663626",
      "lat": "41.63869606804643"
    },
    {
      "id": "pt.ine.add.PTCONT.5349036",
      "street": "",
      "house": "",
      "postcode": "5425-026",
      "city": "ARCOSSÓ",
      "lon": "-7.597394504615811",
      "lat": "41.62791605372767"
    },
    {
      "id": "pt.ine.add.PTCONT.5353814",
      "street": "",
      "house": "",
      "postcode": "5425-021",
      "city": "ARCOSSÓ",
      "lon": "-7.602928805422844",
      "lat": "41.640825854985835"
    },
    {
      "id": "pt.ine.add.PTCONT.5356107",
      "street": "QTA DO TOJAL",
      "house": "",
      "postcode": "5425-021",
      "city": "ARCOSSÓ",
      "lon": "-7.591196044531693",
      "lat": "41.6430040285571"
    },
    {
      "id": "pt.ine.add.PTCONT.5369144",
      "street": "",
      "house": "",
      "postcode": "5425-026",
      "city": "ARCOSSÓ",
      "lon": "-7.608340671992222",
      "lat": "41.632108201325956"
    },
    {
      "id": "pt.ine.add.PTCONT.5371283",
      "street": "",
      "house": "",
      "postcode": "5425-026",
      "city": "ARCOSSÓ",
      "lon": "-7.608233835945456",
      "lat": "41.63196365597903"
    },
    {
      "id": "pt.ine.add.PTCONT.5385291",
      "street": "CARGA SN",
      "house": "SN",
      "postcode": "5425-021",
      "city": "ARCOSSÓ",
      "lon": "-7.600201594711667",
      "lat": "41.639687795723965"
    },
    {
      "id": "pt.ine.add.PTCONT.5394812",
      "street": "",
      "house": "",
      "postcode": "5425-026",
      "city": "ARCOSSÓ",
      "lon": "-7.611967103905857",
      "lat": "41.63929155969907"
    },
    {
      "id": "pt.ine.add.PTCONT.5399068",
      "street": "QTA MORENA",
      "house": "",
      "postcode": "5425-026",
      "city": "ARCOSSÓ",
      "lon": "-7.612958800901847",
      "lat": "41.636865082131486"
    }
  ]
}