{
  "data": {
    "distrito": "Viseu",
    "concelho": "Viseu",
    "freguesia": "Ribafeita",
    "OBJECTID": 1877,
    "BGRI2021": "18232200117",
    "DT21": "18",
    "DTMN21": "1823",
    "DTMNFR21": "182322",
    "DTMNFRSEC21": "182322001",
    "SECNUM21": "001",
    "SSNUM21": "17",
    "SECSSNUM21": "00117",
    "OBJECTID_1": 201599,
    "DT": "18",
    "CC": "23",
    "fr": "22",
    "SEC": "001",
    "SS": "17"
  },
  "addresses": [
    {
      "id": "pt.ine.add.PTCONT.5429471",
      "street": "R PRINCIPAL",
      "house": "70",
      "postcode": "3515-820",
      "city": "RIBAFEITA",
      "lon": "-7.947841699575147",
      "lat": "40.74229482239956"
    },
    {
      "id": "pt.ine.add.PTCONT.5438605",
      "street": "R PRINCIPAL",
      "house": "46",
      "postcode": "3515-820",
      "city": "RIBAFEITA",
      "lon": "-7.946632075909152",
      "lat": "40.743004271974435"
    },
    {
      "id": "pt.ine.add.PTCONT.5460561",
      "street": "R CRUZ",
      "house": "6",
      "postcode": "3515-814",
      "city": "RIBAFEITA",
      "lon": "-7.952148231495031",
      "lat": "40.74343628859256"
    },
    {
      "id": "pt.ine.add.PTCONT.5469603",
      "street": "R CRUZ",
      "house": "10",
      "postcode": "3515-814",
      "city": "RIBAFEITA",
      "lon": "-7.952336741549007",
      "lat": "40.74377877515586"
    },
    {
      "id": "pt.ine.add.PTCONT.5473997",
      "street": "R CRUZ",
      "house": "8",
      "postcode": "3515-814",
      "city": "RIBAFEITA",
      "lon": "-7.952301514647766",
      "lat": "40.74367065961211"
    },
    {
      "id": "pt.ine.add.PTCONT.5480445",
      "street": "R PRINCIPAL",
      "house": "",
      "postcode": "3515-820",
      "city": "RIBAFEITA",
      "lon": "-7.9477101140087765",
      "lat": "40.74278088284302"
    },
    {
      "id": "pt.ine.add.PTCONT.5491268",
      "street": "R PRINCIPAL",
      "house": "114",
      "postcode": "3515-820",
      "city": "RIBAFEITA",
      "lon": "-7.951805317938566",
      "lat": "40.743273659896396"
    },
    {
      "id": "pt.ine.add.PTCONT.5514743",
      "street": "R POIA",
      "house": "",
      "postcode": "3515-816",
      "city": "RIBAFEITA",
      "lon": "-7.946084372272902",
      "lat": "40.744101999498135"
    },
    {
      "id": "pt.ine.add.PTCONT.5537994",
      "street": "R PRINCIPAL",
      "house": "",
      "postcode": "3515-820",
      "city": "RIBAFEITA",
      "lon": "-7.947355224725274",
      "lat": "40.74267225186931"
    },
    {
      "id": "pt.ine.add.PTCONT.5558447",
      "street": "R PRINCIPAL",
      "house": "50",
      "postcode": "3515-820",
      "city": "RIBAFEITA",
      "lon": "-7.946880885481566",
      "lat": "40.742941638466654"
    },
    {
      "id": "pt.ine.add.PTCONT.5570941",
      "street": "R PRINCIPAL",
      "house": "54",
      "postcode": "3515-820",
      "city": "RIBAFEITA",
      "lon": "-7.94711782982398",
      "lat": "40.742887990334005"
    },
    {
      "id": "pt.ine.add.PTCONT.5578966",
      "street": "R PRINCIPAL",
      "house": "",
      "postcode": "3515-820",
      "city": "RIBAFEITA",
      "lon": "-7.951476376965281",
      "lat": "40.742327614379576"
    },
    {
      "id": "pt.ine.add.PTCONT.5580819",
      "street": "R POIA",
      "house": "3",
      "postcode": "3515-816",
      "city": "RIBAFEITA",
      "lon": "-7.947786743036438",
      "lat": "40.74503226337881"
    },
    {
      "id": "pt.ine.add.PTCONT.5593046",
      "street": "",
      "house": "",
      "postcode": "3515-803",
      "city": "RIBAFEITA",
      "lon": "-7.946075433321746",
      "lat": "40.743066406532314"
    },
    {
      "id": "pt.ine.add.PTCONT.5606482",
      "street": "R PRINCIPAL",
      "house": "66",
      "postcode": "3515-820",
      "city": "RIBAFEITA",
      "lon": "-7.94790012313771",
      "lat": "40.74257407216034"
    },
    {
      "id": "pt.ine.add.PTCONT.5631183",
      "street": "R PORTO - VISEU",
      "house": "3",
      "postcode": "3515-802",
      "city": "RIBAFEITA",
      "lon": "-7.949807613485242",
      "lat": "40.7420998504747"
    },
    {
      "id": "pt.ine.add.PTCONT.5648851",
      "street": "R PRINCIPAL",
      "house": "",
      "postcode": "3515-820",
      "city": "RIBAFEITA",
      "lon": "-7.951806809511744",
      "lat": "40.7427243553105"
    }
  ]
}