{
  "data": {
    "distrito": "Lisboa",
    "concelho": "Amadora",
    "freguesia": "Mina de Água",
    "OBJECTID": 653,
    "BGRI2021": "11151601807",
    "DT21": "11",
    "DTMN21": "1115",
    "DTMNFR21": "111516",
    "DTMNFRSEC21": "111516018",
    "SECNUM21": "018",
    "SSNUM21": "07",
    "SECSSNUM21": "01807",
    "OBJECTID_1": 119085,
    "DT": "11",
    "CC": "15",
    "fr": "16",
    "SEC": "018",
    "SS": "07"
  },
  "addresses": [
    {
      "id": "pt.ine.add.PTCONT.2310654",
      "street": "AV AMÁLIA RODRIGUES",
      "house": "",
      "postcode": "2650-437",
      "city": "AMADORA",
      "lon": "-9.233632593366",
      "lat": "38.78244073710074"
    },
    {
      "id": "pt.ine.add.PTCONT.2310655",
      "street": "AV AMÁLIA RODRIGUES",
      "house": "",
      "postcode": "2650-437",
      "city": "AMADORA",
      "lon": "-9.233632593366",
      "lat": "38.78244073710074"
    },
    {
      "id": "pt.ine.add.PTCONT.2310656",
      "street": "AV AMÁLIA RODRIGUES",
      "house": "",
      "postcode": "2650-437",
      "city": "AMADORA",
      "lon": "-9.233632593366",
      "lat": "38.78244073710074"
    },
    {
      "id": "pt.ine.add.PTCONT.2310657",
      "street": "AV AMÁLIA RODRIGUES",
      "house": "",
      "postcode": "2650-437",
      "city": "AMADORA",
      "lon": "-9.233632593366",
      "lat": "38.78244073710074"
    },
    {
      "id": "pt.ine.add.PTCONT.2310658",
      "street": "AV AMÁLIA RODRIGUES",
      "house": "",
      "postcode": "2650-437",
      "city": "AMADORA",
      "lon": "-9.233632593366",
      "lat": "38.78244073710074"
    },
    {
      "id": "pt.ine.add.PTCONT.2311066",
      "street": "AV AMÁLIA RODRIGUES",
      "house": "",
      "postcode": "2650-437",
      "city": "AMADORA",
      "lon": "-9.233632593366",
      "lat": "38.78244073710074"
    },
    {
      "id": "pt.ine.add.PTCONT.2311230",
      "street": "AV AMÁLIA RODRIGUES",
      "house": "",
      "postcode": "2650-437",
      "city": "AMADORA",
      "lon": "-9.233632593366",
      "lat": "38.78244073710074"
    },
    {
      "id": "pt.ine.add.PTCONT.2364470",
      "street": "AV LUCAS PIRES",
      "house": "10",
      "postcode": "2650-444",
      "city": "AMADORA",
      "lon": "-9.234173668338073",
      "lat": "38.783201296673624"
    },
    {
      "id": "pt.ine.add.PTCONT.2364471",
      "street": "AV LUCAS PIRES",
      "house": "10",
      "postcode": "2650-444",
      "city": "AMADORA",
      "lon": "-9.234173668338073",
      "lat": "38.783201296673624"
    },
    {
      "id": "pt.ine.add.PTCONT.2364472",
      "street": "AV LUCAS PIRES",
      "house": "10",
      "postcode": "2650-444",
      "city": "AMADORA",
      "lon": "-9.234173668338073",
      "lat": "38.783201296673624"
    },
    {
      "id": "pt.ine.add.PTCONT.2364473",
      "street": "AV LUCAS PIRES",
      "house": "10",
      "postcode": "2650-444",
      "city": "AMADORA",
      "lon": "-9.234173668338073",
      "lat": "38.783201296673624"
    },
    {
      "id": "pt.ine.add.PTCONT.2364474",
      "street": "AV LUCAS PIRES",
      "house": "10",
      "postcode": "2650-444",
      "city": "AMADORA",
      "lon": "-9.234173668338073",
      "lat": "38.783201296673624"
    },
    {
      "id": "pt.ine.add.PTCONT.2364475",
      "street": "AV LUCAS PIRES",
      "house": "10",
      "postcode": "2650-444",
      "city": "AMADORA",
      "lon": "-9.234173668338073",
      "lat": "38.783201296673624"
    },
    {
      "id": "pt.ine.add.PTCONT.2364476",
      "street": "AV LUCAS PIRES",
      "house": "10",
      "postcode": "2650-444",
      "city": "AMADORA",
      "lon": "-9.234173668338073",
      "lat": "38.783201296673624"
    },
    {
      "id": "pt.ine.add.PTCONT.2364477",
      "street": "AV LUCAS PIRES",
      "house": "10",
      "postcode": "2650-444",
      "city": "AMADORA",
      "lon": "-9.234173668338073",
      "lat": "38.783201296673624"
    },
    {
      "id": "pt.ine.add.PTCONT.2365054",
      "street": "AV LUCAS PIRES",
      "house": "10",
      "postcode": "2650-444",
      "city": "AMADORA",
      "lon": "-9.234173668338073",
      "lat": "38.783201296673624"
    },
    {
      "id": "pt.ine.add.PTCONT.2373049",
      "street": "AV LUCAS PIRES",
      "house": "12",
      "postcode": "2650-444",
      "city": "AMADORA",
      "lon": "-9.23408327725511",
      "lat": "38.78331024109122"
    },
    {
      "id": "pt.ine.add.PTCONT.2373050",
      "street": "AV LUCAS PIRES",
      "house": "12",
      "postcode": "2650-444",
      "city": "AMADORA",
      "lon": "-9.23408327725511",
      "lat": "38.78331024109122"
    },
    {
      "id": "pt.ine.add.PTCONT.2373051",
      "street": "AV LUCAS PIRES",
      "house": "12",
      "postcode": "2650-444",
      "city": "AMADORA",
      "lon": "-9.23408327725511",
      "lat": "38.78331024109122"
    },
    {
      "id": "pt.ine.add.PTCONT.2373052",
      "street": "AV LUCAS PIRES",
      "house": "12",
      "postcode": "2650-444",
      "city": "AMADORA",
      "lon": "-9.23408327725511",
      "lat": "38.78331024109122"
    },
    {
      "id": "pt.ine.add.PTCONT.2373053",
      "street": "AV LUCAS PIRES",
      "house": "12",
      "postcode": "2650-444",
      "city": "AMADORA",
      "lon": "-9.23408327725511",
      "lat": "38.78331024109122"
    },
    {
      "id": "pt.ine.add.PTCONT.2373139",
      "street": "AV LUCAS PIRES",
      "house": "12",
      "postcode": "2650-444",
      "city": "AMADORA",
      "lon": "-9.23408327725511",
      "lat": "38.78331024109122"
    },
    {
      "id": "pt.ine.add.PTCONT.2373140",
      "street": "AV LUCAS PIRES",
      "house": "12",
      "postcode": "2650-444",
      "city": "AMADORA",
      "lon": "-9.23408327725511",
      "lat": "38.78331024109122"
    },
    {
      "id": "pt.ine.add.PTCONT.2373141",
      "street": "AV LUCAS PIRES",
      "house": "12",
      "postcode": "2650-444",
      "city": "AMADORA",
      "lon": "-9.23408327725511",
      "lat": "38.78331024109122"
    },
    {
      "id": "pt.ine.add.PTCONT.2374260",
      "street": "AV LUCAS PIRES",
      "house": "12",
      "postcode": "2650-444",
      "city": "AMADORA",
      "lon": "-9.23408327725511",
      "lat": "38.78331024109122"
    },
    {
      "id": "pt.ine.add.PTCONT.2411148",
      "street": "R JOSE DA CUNHA BASTOS",
      "house": "",
      "postcode": "2650-453",
      "city": "AMADORA",
      "lon": "-9.233494913979463",
      "lat": "38.783216698225466"
    },
    {
      "id": "pt.ine.add.PTCONT.2411149",
      "street": "R JOSE DA CUNHA BASTOS",
      "house": "",
      "postcode": "2650-453",
      "city": "AMADORA",
      "lon": "-9.233494913979463",
      "lat": "38.783216698225466"
    },
    {
      "id": "pt.ine.add.PTCONT.2411150",
      "street": "R JOSE DA CUNHA BASTOS",
      "house": "",
      "postcode": "2650-453",
      "city": "AMADORA",
      "lon": "-9.233494913979463",
      "lat": "38.783216698225466"
    },
    {
      "id": "pt.ine.add.PTCONT.2411151",
      "street": "R JOSE DA CUNHA BASTOS",
      "house": "",
      "postcode": "2650-453",
      "city": "AMADORA",
      "lon": "-9.233494913979463",
      "lat": "38.783216698225466"
    },
    {
      "id": "pt.ine.add.PTCONT.2411152",
      "street": "R JOSE CUNHA BASTOS",
      "house": "7",
      "postcode": "2650-453",
      "city": "AMADORA",
      "lon": "-9.233494913979463",
      "lat": "38.783216698225466"
    },
    {
      "id": "pt.ine.add.PTCONT.2411153",
      "street": "R JOSE CUNHA BASTOS",
      "house": "7",
      "postcode": "2650-453",
      "city": "AMADORA",
      "lon": "-9.233494913979463",
      "lat": "38.783216698225466"
    },
    {
      "id": "pt.ine.add.PTCONT.2411154",
      "street": "R JOSE DA CUNHA BASTOS",
      "house": "",
      "postcode": "2650-453",
      "city": "AMADORA",
      "lon": "-9.233494913979463",
      "lat": "38.783216698225466"
    },
    {
      "id": "pt.ine.add.PTCONT.2411155",
      "street": "R JOSE DA CUNHA BASTOS",
      "house": "",
      "postcode": "2650-453",
      "city": "AMADORA",
      "lon": "-9.233494913979463",
      "lat": "38.783216698225466"
    },
    {
      "id": "pt.ine.add.PTCONT.2446986",
      "street": "AV LUCAS PIRES",
      "house": "",
      "postcode": "2650-444",
      "city": "AMADORA",
      "lon": "-9.233843575873818",
      "lat": "38.78343860749368"
    },
    {
      "id": "pt.ine.add.PTCONT.2446987",
      "street": "AV LUCAS PIRES",
      "house": "",
      "postcode": "2650-444",
      "city": "AMADORA",
      "lon": "-9.233843575873818",
      "lat": "38.78343860749368"
    },
    {
      "id": "pt.ine.add.PTCONT.2446988",
      "street": "AV LUCAS PIRES",
      "house": "14",
      "postcode": "2650-444",
      "city": "AMADORA",
      "lon": "-9.233843575873818",
      "lat": "38.78343860749368"
    },
    {
      "id": "pt.ine.add.PTCONT.2446989",
      "street": "AV LUCAS PIRES",
      "house": "N 14",
      "postcode": "2650-444",
      "city": "AMADORA",
      "lon": "-9.233843575873818",
      "lat": "38.78343860749368"
    },
    {
      "id": "pt.ine.add.PTCONT.2446990",
      "street": "AV LUCAS PIRES",
      "house": "",
      "postcode": "2650-444",
      "city": "AMADORA",
      "lon": "-9.233843575873818",
      "lat": "38.78343860749368"
    },
    {
      "id": "pt.ine.add.PTCONT.2446991",
      "street": "AV LUCAS PIRES",
      "house": "",
      "postcode": "2650-444",
      "city": "AMADORA",
      "lon": "-9.233843575873818",
      "lat": "38.78343860749368"
    },
    {
      "id": "pt.ine.add.PTCONT.2446992",
      "street": "AV LUCAS PIRES",
      "house": "",
      "postcode": "2650-444",
      "city": "AMADORA",
      "lon": "-9.233843575873818",
      "lat": "38.78343860749368"
    },
    {
      "id": "pt.ine.add.PTCONT.2446993",
      "street": "AV LUCAS PIRES",
      "house": "",
      "postcode": "2650-444",
      "city": "AMADORA",
      "lon": "-9.233843575873818",
      "lat": "38.78343860749368"
    },
    {
      "id": "pt.ine.add.PTCONT.2446994",
      "street": "AV LUCAS PIRES",
      "house": "",
      "postcode": "2650-444",
      "city": "AMADORA",
      "lon": "-9.233843575873818",
      "lat": "38.78343860749368"
    },
    {
      "id": "pt.ine.add.PTCONT.2446995",
      "street": "R LUIS VAZ CAMOES",
      "house": "516A",
      "postcode": "2650-444",
      "city": "AMADORA",
      "lon": "-9.233843575873818",
      "lat": "38.78343860749368"
    },
    {
      "id": "pt.ine.add.PTCONT.2447073",
      "street": "AV LUCAS PIRES",
      "house": "",
      "postcode": "2650-444",
      "city": "AMADORA",
      "lon": "-9.233843575873818",
      "lat": "38.78343860749368"
    },
    {
      "id": "pt.ine.add.PTCONT.2447074",
      "street": "AV LUCAS PIRES",
      "house": "",
      "postcode": "2650-444",
      "city": "AMADORA",
      "lon": "-9.233843575873818",
      "lat": "38.78343860749368"
    },
    {
      "id": "pt.ine.add.PTCONT.2447075",
      "street": "AV LUCAS PIRES",
      "house": "14",
      "postcode": "2650-444",
      "city": "AMADORA",
      "lon": "-9.233843575873818",
      "lat": "38.78343860749368"
    },
    {
      "id": "pt.ine.add.PTCONT.2447076",
      "street": "AV LUCAS PIRES",
      "house": "14",
      "postcode": "2650-444",
      "city": "AMADORA",
      "lon": "-9.233843575873818",
      "lat": "38.78343860749368"
    },
    {
      "id": "pt.ine.add.PTCONT.2448211",
      "street": "AV LUCAS PIRES",
      "house": "14",
      "postcode": "2650-444",
      "city": "AMADORA",
      "lon": "-9.233843575873818",
      "lat": "38.78343860749368"
    },
    {
      "id": "pt.ine.add.PTCONT.2448369",
      "street": "AV LUCAS PIRES",
      "house": "14",
      "postcode": "2650-444",
      "city": "AMADORA",
      "lon": "-9.233843575873818",
      "lat": "38.78343860749368"
    },
    {
      "id": "pt.ine.add.PTCONT.2538051",
      "street": "R JOSE DA CUNHA BASTOS",
      "house": "",
      "postcode": "2650-453",
      "city": "AMADORA",
      "lon": "-9.233157207280904",
      "lat": "38.78295865385611"
    },
    {
      "id": "pt.ine.add.PTCONT.2538052",
      "street": "R JOSE DA CUNHA BASTOS",
      "house": "",
      "postcode": "2650-453",
      "city": "AMADORA",
      "lon": "-9.233157207280904",
      "lat": "38.78295865385611"
    },
    {
      "id": "pt.ine.add.PTCONT.2538053",
      "street": "R JOSE DA CUNHA BASTOS",
      "house": "",
      "postcode": "2650-453",
      "city": "AMADORA",
      "lon": "-9.233157207280904",
      "lat": "38.78295865385611"
    },
    {
      "id": "pt.ine.add.PTCONT.2538054",
      "street": "R JOSE DA CUNHA BASTOS",
      "house": "",
      "postcode": "2650-453",
      "city": "AMADORA",
      "lon": "-9.233157207280904",
      "lat": "38.78295865385611"
    },
    {
      "id": "pt.ine.add.PTCONT.2538055",
      "street": "R JOSE DA CUNHA BASTOS",
      "house": "",
      "postcode": "2650-453",
      "city": "AMADORA",
      "lon": "-9.233157207280904",
      "lat": "38.78295865385611"
    },
    {
      "id": "pt.ine.add.PTCONT.2538056",
      "street": "R JOSE DA CUNHA BASTOS",
      "house": "",
      "postcode": "2650-453",
      "city": "AMADORA",
      "lon": "-9.233157207280904",
      "lat": "38.78295865385611"
    },
    {
      "id": "pt.ine.add.PTCONT.2538058",
      "street": "R JOSE DA CUNHA BASTOS",
      "house": "",
      "postcode": "2650-453",
      "city": "AMADORA",
      "lon": "-9.233157207280904",
      "lat": "38.78295865385611"
    },
    {
      "id": "pt.ine.add.PTCONT.2538059",
      "street": "R JOSE DA CUNHA BASTOS",
      "house": "",
      "postcode": "2650-453",
      "city": "AMADORA",
      "lon": "-9.233157207280904",
      "lat": "38.78295865385611"
    },
    {
      "id": "pt.ine.add.PTCONT.2538060",
      "street": "R JOSE DA CUNHA BASTOS",
      "house": "",
      "postcode": "2650-453",
      "city": "AMADORA",
      "lon": "-9.233157207280904",
      "lat": "38.78295865385611"
    },
    {
      "id": "pt.ine.add.PTCONT.2538061",
      "street": "R JOSE DA CUNHA BASTOS",
      "house": "",
      "postcode": "2650-453",
      "city": "AMADORA",
      "lon": "-9.233157207280904",
      "lat": "38.78295865385611"
    },
    {
      "id": "pt.ine.add.PTCONT.2538442",
      "street": "R JOSE DA CUNHA BASTOS",
      "house": "",
      "postcode": "2650-453",
      "city": "AMADORA",
      "lon": "-9.233157207280904",
      "lat": "38.78295865385611"
    },
    {
      "id": "pt.ine.add.PTCONT.2538773",
      "street": "R JOSE DA CUNHA BASTOS",
      "house": "",
      "postcode": "2650-453",
      "city": "AMADORA",
      "lon": "-9.233157207280904",
      "lat": "38.78295865385611"
    },
    {
      "id": "pt.ine.add.PTCONT.2725160",
      "street": "AV AMÁLIA RODRIGUES",
      "house": "29",
      "postcode": "2650-437",
      "city": "AMADORA",
      "lon": "-9.23350809803573",
      "lat": "38.782577025462814"
    },
    {
      "id": "pt.ine.add.PTCONT.2725161",
      "street": "AV AMÁLIA RODRIGUES",
      "house": "29",
      "postcode": "2650-437",
      "city": "AMADORA",
      "lon": "-9.23350809803573",
      "lat": "38.782577025462814"
    },
    {
      "id": "pt.ine.add.PTCONT.2725162",
      "street": "AV AMÁLIA RODRIGUES",
      "house": "29",
      "postcode": "2650-437",
      "city": "AMADORA",
      "lon": "-9.23350809803573",
      "lat": "38.782577025462814"
    },
    {
      "id": "pt.ine.add.PTCONT.2725163",
      "street": "AV AMALIA RODRIGUES",
      "house": "29",
      "postcode": "2650-437",
      "city": "AMADORA",
      "lon": "-9.23350809803573",
      "lat": "38.782577025462814"
    },
    {
      "id": "pt.ine.add.PTCONT.2725164",
      "street": "AV AMÁLIA RODRIGUES",
      "house": "29",
      "postcode": "2650-437",
      "city": "AMADORA",
      "lon": "-9.23350809803573",
      "lat": "38.782577025462814"
    },
    {
      "id": "pt.ine.add.PTCONT.2725165",
      "street": "AV AMÁLIA RODRIGUES",
      "house": "29",
      "postcode": "2650-437",
      "city": "AMADORA",
      "lon": "-9.23350809803573",
      "lat": "38.782577025462814"
    },
    {
      "id": "pt.ine.add.PTCONT.2725166",
      "street": "AV AMÁLIA RODRIGUES",
      "house": "29",
      "postcode": "2650-437",
      "city": "AMADORA",
      "lon": "-9.23350809803573",
      "lat": "38.782577025462814"
    },
    {
      "id": "pt.ine.add.PTCONT.2725167",
      "street": "AV AMÁLIA RODRIGUES",
      "house": "29",
      "postcode": "2650-437",
      "city": "AMADORA",
      "lon": "-9.23350809803573",
      "lat": "38.782577025462814"
    },
    {
      "id": "pt.ine.add.PTCONT.2815377",
      "street": "R DOS LÍRIOS",
      "house": "",
      "postcode": "2650-199",
      "city": "AMADORA",
      "lon": "-9.233686664553215",
      "lat": "38.78221503464741"
    },
    {
      "id": "pt.ine.add.PTCONT.2897732",
      "street": "R JOSE DA CUNHA BASTOS",
      "house": "",
      "postcode": "2650-453",
      "city": "AMADORA",
      "lon": "-9.23336681804869",
      "lat": "38.78311881944716"
    },
    {
      "id": "pt.ine.add.PTCONT.2897733",
      "street": "R JOSE DA CUNHA BASTOS",
      "house": "",
      "postcode": "2650-453",
      "city": "AMADORA",
      "lon": "-9.23336681804869",
      "lat": "38.78311881944716"
    },
    {
      "id": "pt.ine.add.PTCONT.2897734",
      "street": "R JOSE DA CUNHA BASTOS",
      "house": "",
      "postcode": "2650-453",
      "city": "AMADORA",
      "lon": "-9.23336681804869",
      "lat": "38.78311881944716"
    },
    {
      "id": "pt.ine.add.PTCONT.2897735",
      "street": "R JOSE DA CUNHA BASTOS",
      "house": "",
      "postcode": "2650-453",
      "city": "AMADORA",
      "lon": "-9.23336681804869",
      "lat": "38.78311881944716"
    },
    {
      "id": "pt.ine.add.PTCONT.2897739",
      "street": "R JOSE DA CUNHA BASTOS",
      "house": "",
      "postcode": "2650-453",
      "city": "AMADORA",
      "lon": "-9.23336681804869",
      "lat": "38.78311881944716"
    },
    {
      "id": "pt.ine.add.PTCONT.2897740",
      "street": "R JOSE DA CUNHA BASTOS",
      "house": "",
      "postcode": "2650-453",
      "city": "AMADORA",
      "lon": "-9.23336681804869",
      "lat": "38.78311881944716"
    },
    {
      "id": "pt.ine.add.PTCONT.2897741",
      "street": "R JOSE DA CUNHA BASTOS",
      "house": "",
      "postcode": "2650-453",
      "city": "AMADORA",
      "lon": "-9.23336681804869",
      "lat": "38.78311881944716"
    },
    {
      "id": "pt.ine.add.PTCONT.2897937",
      "street": "R JOSE DA CUNHA BASTOS",
      "house": "",
      "postcode": "2650-453",
      "city": "AMADORA",
      "lon": "-9.23336681804869",
      "lat": "38.78311881944716"
    },
    {
      "id": "pt.ine.add.PTCONT.3005352",
      "street": "AV AMÁLIA RODRIGUES",
      "house": "25",
      "postcode": "2650-437",
      "city": "AMADORA",
      "lon": "-9.233781070550313",
      "lat": "38.782367276805324"
    },
    {
      "id": "pt.ine.add.PTCONT.3005353",
      "street": "AV AMÁLIA RODRIGUES",
      "house": "25",
      "postcode": "2650-437",
      "city": "AMADORA",
      "lon": "-9.233781070550313",
      "lat": "38.782367276805324"
    },
    {
      "id": "pt.ine.add.PTCONT.3005354",
      "street": "AV AMÁLIA RODRIGUES",
      "house": "25",
      "postcode": "2650-437",
      "city": "AMADORA",
      "lon": "-9.233781070550313",
      "lat": "38.782367276805324"
    },
    {
      "id": "pt.ine.add.PTCONT.3005355",
      "street": "AV AMÁLIA RODRIGUES",
      "house": "25",
      "postcode": "2650-437",
      "city": "AMADORA",
      "lon": "-9.233781070550313",
      "lat": "38.782367276805324"
    },
    {
      "id": "pt.ine.add.PTCONT.3005356",
      "street": "AV AMÁLIA RODRIGUES",
      "house": "25",
      "postcode": "2650-437",
      "city": "AMADORA",
      "lon": "-9.233781070550313",
      "lat": "38.782367276805324"
    },
    {
      "id": "pt.ine.add.PTCONT.3005357",
      "street": "AV AMÁLIA RODRIGUES",
      "house": "25",
      "postcode": "2650-437",
      "city": "AMADORA",
      "lon": "-9.233781070550313",
      "lat": "38.782367276805324"
    },
    {
      "id": "pt.ine.add.PTCONT.3005358",
      "street": "AV AMÁLIA RODRIGUES",
      "house": "25",
      "postcode": "2650-437",
      "city": "AMADORA",
      "lon": "-9.233781070550313",
      "lat": "38.782367276805324"
    },
    {
      "id": "pt.ine.add.PTCONT.3005359",
      "street": "AV AMÁLIA RODRIGUES",
      "house": "25",
      "postcode": "2650-437",
      "city": "AMADORA",
      "lon": "-9.233781070550313",
      "lat": "38.782367276805324"
    },
    {
      "id": "pt.ine.add.PTCONT.3023831",
      "street": "AV LUCAS PIRES",
      "house": "",
      "postcode": "2650-444",
      "city": "AMADORA",
      "lon": "-9.23450195726622",
      "lat": "38.78284690148191"
    },
    {
      "id": "pt.ine.add.PTCONT.3023832",
      "street": "AV LUCAS PIRES",
      "house": "",
      "postcode": "2650-444",
      "city": "AMADORA",
      "lon": "-9.23450195726622",
      "lat": "38.78284690148191"
    },
    {
      "id": "pt.ine.add.PTCONT.3023833",
      "street": "AV LUCAS PIRES",
      "house": "",
      "postcode": "2650-444",
      "city": "AMADORA",
      "lon": "-9.23450195726622",
      "lat": "38.78284690148191"
    },
    {
      "id": "pt.ine.add.PTCONT.3023834",
      "street": "AV LUCAS PIRES",
      "house": "",
      "postcode": "2650-444",
      "city": "AMADORA",
      "lon": "-9.23450195726622",
      "lat": "38.78284690148191"
    },
    {
      "id": "pt.ine.add.PTCONT.3023835",
      "street": "AV LUCAS PIRES",
      "house": "",
      "postcode": "2650-444",
      "city": "AMADORA",
      "lon": "-9.23450195726622",
      "lat": "38.78284690148191"
    },
    {
      "id": "pt.ine.add.PTCONT.3023836",
      "street": "AV LUCAS PIRES",
      "house": "",
      "postcode": "2650-444",
      "city": "AMADORA",
      "lon": "-9.23450195726622",
      "lat": "38.78284690148191"
    },
    {
      "id": "pt.ine.add.PTCONT.3023837",
      "street": "AV LUCAS PIRES",
      "house": "",
      "postcode": "2650-444",
      "city": "AMADORA",
      "lon": "-9.23450195726622",
      "lat": "38.78284690148191"
    },
    {
      "id": "pt.ine.add.PTCONT.3023838",
      "street": "AV LUCAS PIRES",
      "house": "",
      "postcode": "2650-444",
      "city": "AMADORA",
      "lon": "-9.23450195726622",
      "lat": "38.78284690148191"
    },
    {
      "id": "pt.ine.add.PTCONT.3023839",
      "street": "AV LUCAS PIRES",
      "house": "",
      "postcode": "2650-444",
      "city": "AMADORA",
      "lon": "-9.23450195726622",
      "lat": "38.78284690148191"
    },
    {
      "id": "pt.ine.add.PTCONT.3024274",
      "street": "AV LUCAS PIRES",
      "house": "",
      "postcode": "2650-444",
      "city": "AMADORA",
      "lon": "-9.23450195726622",
      "lat": "38.78284690148191"
    },
    {
      "id": "pt.ine.add.PTCONT.3261906",
      "street": "AV LUCAS PIRES",
      "house": "8",
      "postcode": "2650-444",
      "city": "AMADORA",
      "lon": "-9.234298856142047",
      "lat": "38.78311003972173"
    },
    {
      "id": "pt.ine.add.PTCONT.3262015",
      "street": "AV LUCAS PIRES",
      "house": "8",
      "postcode": "2650-444",
      "city": "AMADORA",
      "lon": "-9.234298856142047",
      "lat": "38.78311003972173"
    },
    {
      "id": "pt.ine.add.PTCONT.3262016",
      "street": "AV LUCAS PIRES",
      "house": "8",
      "postcode": "2650-444",
      "city": "AMADORA",
      "lon": "-9.234298856142047",
      "lat": "38.78311003972173"
    },
    {
      "id": "pt.ine.add.PTCONT.3262017",
      "street": "AV LUCAS PIRES",
      "house": "8",
      "postcode": "2650-444",
      "city": "AMADORA",
      "lon": "-9.234298856142047",
      "lat": "38.78311003972173"
    },
    {
      "id": "pt.ine.add.PTCONT.3262018",
      "street": "AV LUCAS PIRES",
      "house": "8",
      "postcode": "2650-444",
      "city": "AMADORA",
      "lon": "-9.234298856142047",
      "lat": "38.78311003972173"
    },
    {
      "id": "pt.ine.add.PTCONT.3262019",
      "street": "AV LUCAS PIRES",
      "house": "8",
      "postcode": "2650-444",
      "city": "AMADORA",
      "lon": "-9.234298856142047",
      "lat": "38.78311003972173"
    },
    {
      "id": "pt.ine.add.PTCONT.3262020",
      "street": "AV LUCAS PIRES",
      "house": "8",
      "postcode": "2650-444",
      "city": "AMADORA",
      "lon": "-9.234298856142047",
      "lat": "38.78311003972173"
    },
    {
      "id": "pt.ine.add.PTCONT.3265394",
      "street": "AV LUCAS PIRES",
      "house": "8",
      "postcode": "2650-444",
      "city": "AMADORA",
      "lon": "-9.234298856142047",
      "lat": "38.78311003972173"
    },
    {
      "id": "pt.ine.add.PTCONT.3267935",
      "street": "AV LUCAS PIRES",
      "house": "8",
      "postcode": "2650-444",
      "city": "AMADORA",
      "lon": "-9.234298856142047",
      "lat": "38.78311003972173"
    },
    {
      "id": "pt.ine.add.PTCONT.3301007",
      "street": "AV LUCAS PIRES",
      "house": "",
      "postcode": "2650-444",
      "city": "AMADORA",
      "lon": "-9.234446779760416",
      "lat": "38.7830005528971"
    },
    {
      "id": "pt.ine.add.PTCONT.3301008",
      "street": "AV LUCAS PIRES",
      "house": "",
      "postcode": "2650-444",
      "city": "AMADORA",
      "lon": "-9.234446779760416",
      "lat": "38.7830005528971"
    },
    {
      "id": "pt.ine.add.PTCONT.3301009",
      "street": "AV LUCAS PIRES",
      "house": "",
      "postcode": "2650-444",
      "city": "AMADORA",
      "lon": "-9.234446779760416",
      "lat": "38.7830005528971"
    },
    {
      "id": "pt.ine.add.PTCONT.3301109",
      "street": "AV LUCAS PIRES",
      "house": "",
      "postcode": "2650-444",
      "city": "AMADORA",
      "lon": "-9.234446779760416",
      "lat": "38.7830005528971"
    },
    {
      "id": "pt.ine.add.PTCONT.3301110",
      "street": "AV LUCAS PIRES",
      "house": "",
      "postcode": "2650-444",
      "city": "AMADORA",
      "lon": "-9.234446779760416",
      "lat": "38.7830005528971"
    },
    {
      "id": "pt.ine.add.PTCONT.3301111",
      "street": "AV LUCAS PIRES",
      "house": "",
      "postcode": "2650-444",
      "city": "AMADORA",
      "lon": "-9.234446779760416",
      "lat": "38.7830005528971"
    },
    {
      "id": "pt.ine.add.PTCONT.3301112",
      "street": "AV LUCAS PIRES",
      "house": "",
      "postcode": "2650-444",
      "city": "AMADORA",
      "lon": "-9.234446779760416",
      "lat": "38.7830005528971"
    },
    {
      "id": "pt.ine.add.PTCONT.3301113",
      "street": "AV LUCAS PIRES",
      "house": "",
      "postcode": "2650-444",
      "city": "AMADORA",
      "lon": "-9.234446779760416",
      "lat": "38.7830005528971"
    },
    {
      "id": "pt.ine.add.PTCONT.3301114",
      "street": "AV LUCAS PIRES",
      "house": "",
      "postcode": "2650-444",
      "city": "AMADORA",
      "lon": "-9.234446779760416",
      "lat": "38.7830005528971"
    },
    {
      "id": "pt.ine.add.PTCONT.3301115",
      "street": "AV LUCAS PIRES",
      "house": "",
      "postcode": "2650-444",
      "city": "AMADORA",
      "lon": "-9.234446779760416",
      "lat": "38.7830005528971"
    },
    {
      "id": "pt.ine.add.PTCONT.3411026",
      "street": "R JOSE CUNHA BASTOS",
      "house": "9",
      "postcode": "2650-453",
      "city": "AMADORA",
      "lon": "-9.233634240021187",
      "lat": "38.78329645564024"
    },
    {
      "id": "pt.ine.add.PTCONT.3411027",
      "street": "R JOSE CUNHA BASTOS",
      "house": "9",
      "postcode": "2650-453",
      "city": "AMADORA",
      "lon": "-9.233634240021187",
      "lat": "38.78329645564024"
    },
    {
      "id": "pt.ine.add.PTCONT.3411028",
      "street": "R JOSE DA CUNHA BASTOS",
      "house": "",
      "postcode": "2650-453",
      "city": "AMADORA",
      "lon": "-9.233634240021187",
      "lat": "38.78329645564024"
    },
    {
      "id": "pt.ine.add.PTCONT.3411029",
      "street": "R JOSE CUNHA BASTOS",
      "house": "9",
      "postcode": "2650-453",
      "city": "AMADORA",
      "lon": "-9.233634240021187",
      "lat": "38.78329645564024"
    },
    {
      "id": "pt.ine.add.PTCONT.3411030",
      "street": "R JOSE CUNHA BASTOS",
      "house": "9",
      "postcode": "2650-453",
      "city": "AMADORA",
      "lon": "-9.233634240021187",
      "lat": "38.78329645564024"
    },
    {
      "id": "pt.ine.add.PTCONT.3411203",
      "street": "R JOSE DA CUNHA BASTOS",
      "house": "",
      "postcode": "2650-453",
      "city": "AMADORA",
      "lon": "-9.233634240021187",
      "lat": "38.78329645564024"
    },
    {
      "id": "pt.ine.add.PTCONT.3412955",
      "street": "R JOSE CUNHA BASTOS",
      "house": "9",
      "postcode": "2650-453",
      "city": "AMADORA",
      "lon": "-9.233634240021187",
      "lat": "38.78329645564024"
    },
    {
      "id": "pt.ine.add.PTCONT.3413352",
      "street": "R JOSE CUNHA BASTOS",
      "house": "9",
      "postcode": "2650-453",
      "city": "AMADORA",
      "lon": "-9.233634240021187",
      "lat": "38.78329645564024"
    },
    {
      "id": "pt.ine.add.PTCONT.3434531",
      "street": "AV LUCAS PIRES",
      "house": "10",
      "postcode": "2650-444",
      "city": "AMADORA",
      "lon": "-9.234173668338073",
      "lat": "38.783201296673624"
    },
    {
      "id": "pt.ine.add.PTCONT.3434868",
      "street": "AV LUCAS PIRES",
      "house": "12",
      "postcode": "2650-444",
      "city": "AMADORA",
      "lon": "-9.23408327725511",
      "lat": "38.78331024109122"
    },
    {
      "id": "pt.ine.add.PTCONT.3443373",
      "street": "AV LUCAS PIRES",
      "house": "8",
      "postcode": "2650-444",
      "city": "AMADORA",
      "lon": "-9.234298856142047",
      "lat": "38.78311003972173"
    }
  ]
}