{
  "data": {
    "distrito": "Santarém",
    "concelho": "Ourém",
    "freguesia": "Nossa Senhora das Misericórdias",
    "OBJECTID": 177,
    "BGRI2021": "14211100204",
    "DT21": "14",
    "DTMN21": "1421",
    "DTMNFR21": "142111",
    "DTMNFRSEC21": "142111002",
    "SECNUM21": "002",
    "SSNUM21": "04",
    "SECSSNUM21": "00204",
    "OBJECTID_1": 159481,
    "DT": "14",
    "CC": "21",
    "fr": "11",
    "SEC": "002",
    "SS": "04"
  },
  "addresses": [
    {
      "id": "pt.ine.add.PTCONT.4413670",
      "street": "R POÇO",
      "house": "",
      "postcode": "2490-225",
      "city": "OURÉM",
      "lon": "-8.600187985439199",
      "lat": "39.57151451027429"
    },
    {
      "id": "pt.ine.add.PTCONT.4416269",
      "street": "R MALHADA",
      "house": "92",
      "postcode": "2490-225",
      "city": "OURÉM",
      "lon": "-8.59857548602333",
      "lat": "39.57054824455374"
    },
    {
      "id": "pt.ine.add.PTCONT.4457863",
      "street": "R MALHADIO",
      "house": "",
      "postcode": "2490-236",
      "city": "OURÉM",
      "lon": "-8.59964270657843",
      "lat": "39.57176889122852"
    },
    {
      "id": "pt.ine.add.PTCONT.4463095",
      "street": "R POÇO",
      "house": "83",
      "postcode": "2490-225",
      "city": "OURÉM",
      "lon": "-8.600290487517023",
      "lat": "39.57118084631274"
    },
    {
      "id": "pt.ine.add.PTCONT.4488889",
      "street": "ESTR FÁTIMA",
      "house": "1123",
      "postcode": "2490-216",
      "city": "OURÉM",
      "lon": "-8.59849087678698",
      "lat": "39.5718185436016"
    },
    {
      "id": "pt.ine.add.PTCONT.4520657",
      "street": "R ALGARES",
      "house": "87",
      "postcode": "2490-246",
      "city": "OURÉM",
      "lon": "-8.59912829669145",
      "lat": "39.57141968964105"
    },
    {
      "id": "pt.ine.add.PTCONT.4529439",
      "street": "R SERRADINHAS",
      "house": "55",
      "postcode": "2490-231",
      "city": "OURÉM",
      "lon": "-8.597543776324176",
      "lat": "39.57115582859035"
    },
    {
      "id": "pt.ine.add.PTCONT.4529440",
      "street": "R ALGARES",
      "house": "135",
      "postcode": "2490-246",
      "city": "OURÉM",
      "lon": "-8.599176777027688",
      "lat": "39.57170771311312"
    },
    {
      "id": "pt.ine.add.PTCONT.4570886",
      "street": "R ALGARES",
      "house": "128",
      "postcode": "2490-246",
      "city": "OURÉM",
      "lon": "-8.598664116892753",
      "lat": "39.57161969991624"
    },
    {
      "id": "pt.ine.add.PTCONT.4572955",
      "street": "ESTR FÁTIMA",
      "house": "1005",
      "postcode": "2490-216",
      "city": "OURÉM",
      "lon": "-8.597048522840426",
      "lat": "39.5719323924158"
    },
    {
      "id": "pt.ine.add.PTCONT.4592105",
      "street": "R ALGARES",
      "house": "",
      "postcode": "2490-246",
      "city": "OURÉM",
      "lon": "-8.599030734389352",
      "lat": "39.57075357689991"
    },
    {
      "id": "pt.ine.add.PTCONT.4625012",
      "street": "R SARGACAL",
      "house": "",
      "postcode": "2490-244",
      "city": "OURÉM",
      "lon": "-8.596629804960848",
      "lat": "39.57197009050117"
    },
    {
      "id": "pt.ine.add.PTCONT.4629048",
      "street": "R LAPINHA",
      "house": "44",
      "postcode": "2490-224",
      "city": "OURÉM",
      "lon": "-8.596846241213568",
      "lat": "39.57126669587398"
    },
    {
      "id": "pt.ine.add.PTCONT.4645547",
      "street": "R LAPINHA",
      "house": "112",
      "postcode": "2490-224",
      "city": "OURÉM",
      "lon": "-8.597285226860096",
      "lat": "39.570778575537645"
    },
    {
      "id": "pt.ine.add.PTCONT.4645895",
      "street": "R SERRADINHAS",
      "house": "",
      "postcode": "2490-231",
      "city": "OURÉM",
      "lon": "-8.5977560786302",
      "lat": "39.57157830000348"
    },
    {
      "id": "pt.ine.add.PTCONT.4650214",
      "street": "R SARGACAL",
      "house": "50",
      "postcode": "2490-244",
      "city": "OURÉM",
      "lon": "-8.596592732742641",
      "lat": "39.57164599322358"
    },
    {
      "id": "pt.ine.add.PTCONT.4650215",
      "street": "R SERRADINHAS",
      "house": "125",
      "postcode": "2490-231",
      "city": "OURÉM",
      "lon": "-8.597571859431245",
      "lat": "39.571876261122036"
    },
    {
      "id": "pt.ine.add.PTCONT.4658511",
      "street": "R MALHADA",
      "house": "",
      "postcode": "2490-225",
      "city": "OURÉM",
      "lon": "-8.599987245774118",
      "lat": "39.57108299006541"
    }
  ]
}