{
  "data": {
    "distrito": "Coimbra",
    "concelho": "Soure",
    "freguesia": "União das freguesias de Gesteira e Brunhós",
    "OBJECTID": 847,
    "BGRI2021": "06151400139",
    "DT21": "06",
    "DTMN21": "0615",
    "DTMNFR21": "061514",
    "DTMNFRSEC21": "061514001",
    "SECNUM21": "001",
    "SSNUM21": "39",
    "SECSSNUM21": "00139",
    "OBJECTID_1": 56630,
    "DT": "06",
    "CC": "15",
    "fr": "14",
    "SEC": "001",
    "SS": "39"
  },
  "addresses": [
    {
      "id": "pt.ine.add.PTCONT.1100102",
      "street": "R OUTEIRO",
      "house": "",
      "postcode": "3130-061",
      "city": "GESTEIRA",
      "lon": "-8.666757172306097",
      "lat": "40.09684961126111"
    },
    {
      "id": "pt.ine.add.PTCONT.1111634",
      "street": "R EVANGELISTA PEREIRA CASA DO OUTEIAO",
      "house": "",
      "postcode": "3130-061",
      "city": "GESTEIRA",
      "lon": "-8.666378338468208",
      "lat": "40.096392050953874"
    },
    {
      "id": "pt.ine.add.PTCONT.1130382",
      "street": "R EVANGELISTA PEREIRA",
      "house": "",
      "postcode": "3130-061",
      "city": "GESTEIRA",
      "lon": "-8.666922188013443",
      "lat": "40.09695692265651"
    },
    {
      "id": "pt.ine.add.PTCONT.1136680",
      "street": "R OUTEIRO",
      "house": "",
      "postcode": "3130-061",
      "city": "GESTEIRA",
      "lon": "-8.666570602860931",
      "lat": "40.09698556037314"
    },
    {
      "id": "pt.ine.add.PTCONT.1136681",
      "street": "R LAVADOURO",
      "house": "",
      "postcode": "3130-061",
      "city": "GESTEIRA",
      "lon": "-8.663493443077726",
      "lat": "40.097891283570455"
    },
    {
      "id": "pt.ine.add.PTCONT.1139651",
      "street": "R OUTEIRO",
      "house": "",
      "postcode": "3130-061",
      "city": "GESTEIRA",
      "lon": "-8.666746852734905",
      "lat": "40.097029778413784"
    },
    {
      "id": "pt.ine.add.PTCONT.1158740",
      "street": "R LAVADOURO",
      "house": "",
      "postcode": "3130-061",
      "city": "GESTEIRA",
      "lon": "-8.66294249750196",
      "lat": "40.09792082298173"
    },
    {
      "id": "pt.ine.add.PTCONT.1160862",
      "street": "R LAVADOURO",
      "house": "",
      "postcode": "3130-061",
      "city": "GESTEIRA",
      "lon": "-8.662919952073484",
      "lat": "40.09803800384559"
    },
    {
      "id": "pt.ine.add.PTCONT.1162789",
      "street": "R OUTEIRO",
      "house": "",
      "postcode": "3130-061",
      "city": "GESTEIRA",
      "lon": "-8.666429462512816",
      "lat": "40.09693217443253"
    },
    {
      "id": "pt.ine.add.PTCONT.1175623",
      "street": "R OUTEIRO",
      "house": "",
      "postcode": "3130-061",
      "city": "GESTEIRA",
      "lon": "-8.666476579583053",
      "lat": "40.096958975422126"
    },
    {
      "id": "pt.ine.add.PTCONT.1195684",
      "street": "R LAVADOURO",
      "house": "",
      "postcode": "3130-061",
      "city": "GESTEIRA",
      "lon": "-8.663060533105538",
      "lat": "40.0980193487753"
    },
    {
      "id": "pt.ine.add.PTCONT.1200774",
      "street": "R LAVADOURO",
      "house": "",
      "postcode": "3130-061",
      "city": "GESTEIRA",
      "lon": "-8.663880634207281",
      "lat": "40.097916527912744"
    },
    {
      "id": "pt.ine.add.PTCONT.1205077",
      "street": "R LAVADOURO",
      "house": "",
      "postcode": "3130-061",
      "city": "GESTEIRA",
      "lon": "-8.663763227216982",
      "lat": "40.0978990538934"
    },
    {
      "id": "pt.ine.add.PTCONT.1208588",
      "street": "R S JORGE",
      "house": "",
      "postcode": "3130-061",
      "city": "GESTEIRA",
      "lon": "-8.666631204884592",
      "lat": "40.09723744869821"
    },
    {
      "id": "pt.ine.add.PTCONT.1218348",
      "street": "R S JORGE",
      "house": "",
      "postcode": "3130-061",
      "city": "GESTEIRA",
      "lon": "-8.666385298079868",
      "lat": "40.09728361100311"
    },
    {
      "id": "pt.ine.add.PTCONT.1235013",
      "street": "R LAVADOURO",
      "house": "",
      "postcode": "3130-061",
      "city": "GESTEIRA",
      "lon": "-8.66284889332861",
      "lat": "40.09794826905231"
    },
    {
      "id": "pt.ine.add.PTCONT.1235631",
      "street": "R JOSE GOMES DUARTE RIBEIRO",
      "house": "",
      "postcode": "3130-061",
      "city": "GESTEIRA",
      "lon": "-8.665999233704285",
      "lat": "40.097402465523125"
    },
    {
      "id": "pt.ine.add.PTCONT.1240481",
      "street": "R OUTEIRO",
      "house": "",
      "postcode": "3130-061",
      "city": "GESTEIRA",
      "lon": "-8.666593563654729",
      "lat": "40.09692241276049"
    },
    {
      "id": "pt.ine.add.PTCONT.1247240",
      "street": "R S JORGE",
      "house": "",
      "postcode": "3130-061",
      "city": "GESTEIRA",
      "lon": "-8.666514290613517",
      "lat": "40.097283017055446"
    },
    {
      "id": "pt.ine.add.PTCONT.1247241",
      "street": "R LAVADOURO",
      "house": "",
      "postcode": "3130-061",
      "city": "GESTEIRA",
      "lon": "-8.663529742003078",
      "lat": "40.09803521302691"
    },
    {
      "id": "pt.ine.add.PTCONT.1250077",
      "street": "R OUTEIRO",
      "house": "",
      "postcode": "3130-061",
      "city": "GESTEIRA",
      "lon": "-8.666863344239266",
      "lat": "40.09693017588662"
    },
    {
      "id": "pt.ine.add.PTCONT.1258008",
      "street": "R OUTEIRO",
      "house": "",
      "postcode": "3130-061",
      "city": "GESTEIRA",
      "lon": "-8.666675790052325",
      "lat": "40.0969400459786"
    },
    {
      "id": "pt.ine.add.PTCONT.1272152",
      "street": "R JOSE GOMES DUARTE RIBEIRO",
      "house": "",
      "postcode": "3130-061",
      "city": "GESTEIRA",
      "lon": "-8.665940600627486",
      "lat": "40.09740273525707"
    },
    {
      "id": "pt.ine.add.PTCONT.1287036",
      "street": "R JOSF GOMES DUARTE RIBEIRO",
      "house": "",
      "postcode": "3130-061",
      "city": "GESTEIRA",
      "lon": "-8.665554745366272",
      "lat": "40.09754860527338"
    },
    {
      "id": "pt.ine.add.PTCONT.1316536",
      "street": "R S JORGE",
      "house": "",
      "postcode": "3130-061",
      "city": "GESTEIRA",
      "lon": "-8.666255251290872",
      "lat": "40.097149119957294"
    },
    {
      "id": "pt.ine.add.PTCONT.1331044",
      "street": "R EVANGELISTA PEREIRA",
      "house": "",
      "postcode": "3130-061",
      "city": "GESTEIRA",
      "lon": "-8.665987432137683",
      "lat": "40.09588951499061"
    },
    {
      "id": "pt.ine.add.PTCONT.1359720",
      "street": "R OUTEIRO",
      "house": "",
      "postcode": "3130-061",
      "city": "GESTEIRA",
      "lon": "-8.666780977102842",
      "lat": "40.09689453148909"
    }
  ]
}