{
  "data": {
    "distrito": "Viseu",
    "concelho": "Resende",
    "freguesia": "União das freguesias de Anreade e São Romão de Aregos",
    "OBJECTID": 294,
    "BGRI2021": "18131600129",
    "DT21": "18",
    "DTMN21": "1813",
    "DTMNFR21": "181316",
    "DTMNFRSEC21": "181316001",
    "SECNUM21": "001",
    "SSNUM21": "29",
    "SECSSNUM21": "00129",
    "OBJECTID_1": 195311,
    "DT": "18",
    "CC": "13",
    "fr": "16",
    "SEC": "001",
    "SS": "29"
  },
  "addresses": [
    {
      "id": "pt.ine.add.PTCONT.5437282",
      "street": "R SANTO AMARO",
      "house": "72",
      "postcode": "4660-019",
      "city": "ANREADE",
      "lon": "-7.987826428635706",
      "lat": "41.09907548123723"
    },
    {
      "id": "pt.ine.add.PTCONT.5442479",
      "street": "R LEVADA",
      "house": "",
      "postcode": "4660-019",
      "city": "ANREADE",
      "lon": "-7.988231343384085",
      "lat": "41.09898594631561"
    },
    {
      "id": "pt.ine.add.PTCONT.5480990",
      "street": "R LEVADA",
      "house": "",
      "postcode": "4660-019",
      "city": "ANREADE",
      "lon": "-7.986540176833238",
      "lat": "41.099380004417306"
    },
    {
      "id": "pt.ine.add.PTCONT.5520962",
      "street": "R SANTO AMARO",
      "house": "86",
      "postcode": "4660-019",
      "city": "ANREADE",
      "lon": "-7.988016923271663",
      "lat": "41.09905771232093"
    },
    {
      "id": "pt.ine.add.PTCONT.5543043",
      "street": "R LEVADA",
      "house": "213",
      "postcode": "4660-019",
      "city": "ANREADE",
      "lon": "-7.98663568482602",
      "lat": "41.099254063204526"
    },
    {
      "id": "pt.ine.add.PTCONT.5573895",
      "street": "R SANTO AMARO",
      "house": "128",
      "postcode": "4660-013",
      "city": "ANREADE",
      "lon": "-7.9885528542281525",
      "lat": "41.09893232326883"
    },
    {
      "id": "pt.ine.add.PTCONT.5587711",
      "street": "R MONTE PO",
      "house": "211",
      "postcode": "4660-016",
      "city": "ANREADE",
      "lon": "-7.986719129067099",
      "lat": "41.099200142393954"
    },
    {
      "id": "pt.ine.add.PTCONT.5591213",
      "street": "R CHÃOS",
      "house": "257",
      "postcode": "4660-022",
      "city": "ANREADE",
      "lon": "-7.983593970257976",
      "lat": "41.1020415432181"
    },
    {
      "id": "pt.ine.add.PTCONT.5606981",
      "street": "R MONTE PO",
      "house": "",
      "postcode": "4660-019",
      "city": "ANREADE",
      "lon": "-7.986886216835757",
      "lat": "41.099002256077384"
    },
    {
      "id": "pt.ine.add.PTCONT.5636544",
      "street": "R LAMEIROS",
      "house": "25",
      "postcode": "4660-019",
      "city": "ANREADE",
      "lon": "-7.9860764828182775",
      "lat": "41.099136292779704"
    },
    {
      "id": "pt.ine.add.PTCONT.5645377",
      "street": "R LEVADA",
      "house": "191",
      "postcode": "4660-019",
      "city": "ANREADE",
      "lon": "-7.986850306819034",
      "lat": "41.099092255265255"
    }
  ]
}