{
  "data": {
    "distrito": "Aveiro",
    "concelho": "Espinho",
    "freguesia": "Paramos",
    "OBJECTID": 430,
    "BGRI2021": "01070400209",
    "DT21": "01",
    "DTMN21": "0107",
    "DTMNFR21": "010704",
    "DTMNFRSEC21": "010704002",
    "SECNUM21": "002",
    "SSNUM21": "09",
    "SECSSNUM21": "00209",
    "OBJECTID_1": 4488,
    "DT": "01",
    "CC": "07",
    "fr": "04",
    "SEC": "002",
    "SS": "09"
  },
  "addresses": [
    {
      "id": "pt.ine.add.PTCONT.315740",
      "street": "R TANOEIROS",
      "house": "113",
      "postcode": "4500-538",
      "city": "ESPINHO",
      "lon": "-8.62801900497726",
      "lat": "40.970554928174124"
    },
    {
      "id": "pt.ine.add.PTCONT.316721",
      "street": "BC RIBEIRINHOS",
      "house": "91",
      "postcode": "4500-504",
      "city": "ESPINHO",
      "lon": "-8.628675903101716",
      "lat": "40.97102034732449"
    },
    {
      "id": "pt.ine.add.PTCONT.321979",
      "street": "R TANOEIROS",
      "house": "169",
      "postcode": "4500-538",
      "city": "ESPINHO",
      "lon": "-8.627244258353187",
      "lat": "40.97021607528613"
    },
    {
      "id": "pt.ine.add.PTCONT.57905",
      "street": "AV CENTRAL SUL",
      "house": "1533",
      "postcode": "4500-502",
      "city": "ESPINHO",
      "lon": "-8.629554009600191",
      "lat": "40.97088149993673"
    },
    {
      "id": "pt.ine.add.PTCONT.83128",
      "street": "R TANOEIROS",
      "house": "113",
      "postcode": "4500-538",
      "city": "ESPINHO",
      "lon": "-8.628126462504795",
      "lat": "40.970626503903546"
    },
    {
      "id": "pt.ine.add.PTCONT.86375",
      "street": "BC RIBEIRINHOS",
      "house": "34",
      "postcode": "4500-504",
      "city": "ESPINHO",
      "lon": "-8.629366291635291",
      "lat": "40.97119747028029"
    },
    {
      "id": "pt.ine.add.PTCONT.142713",
      "street": "R TANOEIROS",
      "house": "",
      "postcode": "4500-538",
      "city": "ESPINHO",
      "lon": "-8.627469706561575",
      "lat": "40.970179090239746"
    },
    {
      "id": "pt.ine.add.PTCONT.159296",
      "street": "AV CENTRAL SUL",
      "house": "1515",
      "postcode": "4500-502",
      "city": "ESPINHO",
      "lon": "-8.627635957054443",
      "lat": "40.970169372598946"
    },
    {
      "id": "pt.ine.add.PTCONT.187686",
      "street": "R TANOEIROS",
      "house": "121",
      "postcode": "4500-538",
      "city": "ESPINHO",
      "lon": "-8.627861001306803",
      "lat": "40.97007836071088"
    },
    {
      "id": "pt.ine.add.PTCONT.189320",
      "street": "R TANOEIROS",
      "house": "27",
      "postcode": "4500-538",
      "city": "ESPINHO",
      "lon": "-8.628919316152656",
      "lat": "40.97020888370355"
    },
    {
      "id": "pt.ine.add.PTCONT.221921",
      "street": "R TANOEIROS",
      "house": "27",
      "postcode": "4500-538",
      "city": "ESPINHO",
      "lon": "-8.628894410630473",
      "lat": "40.97005591202024"
    },
    {
      "id": "pt.ine.add.PTCONT.258136",
      "street": "R LOMBA",
      "house": "615",
      "postcode": "4500-526",
      "city": "ESPINHO",
      "lon": "-8.626160495858665",
      "lat": "40.97145435014399"
    },
    {
      "id": "pt.ine.add.PTCONT.267700",
      "street": "R LOMBA",
      "house": "631",
      "postcode": "4500-526",
      "city": "ESPINHO",
      "lon": "-8.626173381462092",
      "lat": "40.971589364530914"
    }
  ]
}