{
  "data": {
    "distrito": "Aveiro",
    "concelho": "Espinho",
    "freguesia": "Paramos",
    "OBJECTID": 454,
    "BGRI2021": "01070400217",
    "DT21": "01",
    "DTMN21": "0107",
    "DTMNFR21": "010704",
    "DTMNFRSEC21": "010704002",
    "SECNUM21": "002",
    "SSNUM21": "17",
    "SECSSNUM21": "00217",
    "OBJECTID_1": 4489,
    "DT": "01",
    "CC": "07",
    "fr": "04",
    "SEC": "002",
    "SS": "17"
  },
  "addresses": [
    {
      "id": "pt.ine.add.PTCONT.315733",
      "street": "R ESCOLAS",
      "house": "36",
      "postcode": "4500-518",
      "city": "ESPINHO",
      "lon": "-8.630027472666079",
      "lat": "40.9738149698824"
    },
    {
      "id": "pt.ine.add.PTCONT.315734",
      "street": "R ESCOLAS",
      "house": "36",
      "postcode": "4500-518",
      "city": "ESPINHO",
      "lon": "-8.629956932865841",
      "lat": "40.97391432482275"
    },
    {
      "id": "pt.ine.add.PTCONT.11522",
      "street": "AV IGREJA",
      "house": "53",
      "postcode": "4500-475",
      "city": "ESPINHO",
      "lon": "-8.629416371795456",
      "lat": "40.97312424582092"
    },
    {
      "id": "pt.ine.add.PTCONT.13046",
      "street": "R ERVA NOVA",
      "house": "255",
      "postcode": "4500-517",
      "city": "ESPINHO",
      "lon": "-8.62991244244469",
      "lat": "40.97273491008875"
    },
    {
      "id": "pt.ine.add.PTCONT.33515",
      "street": "AV IGREJA",
      "house": "101",
      "postcode": "4500-475",
      "city": "ESPINHO",
      "lon": "-8.629013720544615",
      "lat": "40.97329706648692"
    },
    {
      "id": "pt.ine.add.PTCONT.34636",
      "street": "R DA IGREJA",
      "house": "151",
      "postcode": "4500-475",
      "city": "ESPINHO",
      "lon": "-8.6285165626461",
      "lat": "40.97354232893042"
    },
    {
      "id": "pt.ine.add.PTCONT.38161",
      "street": "AV IGREJA",
      "house": "127",
      "postcode": "4500-475",
      "city": "ESPINHO",
      "lon": "-8.628788801796714",
      "lat": "40.97340608930755"
    },
    {
      "id": "pt.ine.add.PTCONT.38162",
      "street": "AV CENTRAL SUL",
      "house": "1287",
      "postcode": "4500-502",
      "city": "ESPINHO",
      "lon": "-8.630034623553007",
      "lat": "40.9731846150154"
    },
    {
      "id": "pt.ine.add.PTCONT.61087",
      "street": "R ESCOLAS",
      "house": "114",
      "postcode": "4500-518",
      "city": "ESPINHO",
      "lon": "-8.629044561579084",
      "lat": "40.97424241986332"
    },
    {
      "id": "pt.ine.add.PTCONT.61223",
      "street": "R ESCOLAS",
      "house": "114",
      "postcode": "4500-518",
      "city": "ESPINHO",
      "lon": "-8.629044561579084",
      "lat": "40.97424241986332"
    },
    {
      "id": "pt.ine.add.PTCONT.62389",
      "street": "R POCAS",
      "house": "78",
      "postcode": "4500-534",
      "city": "ESPINHO",
      "lon": "-8.628722438575736",
      "lat": "40.974063712543156"
    },
    {
      "id": "pt.ine.add.PTCONT.62390",
      "street": "R ESCOLAS",
      "house": "106",
      "postcode": "4500-518",
      "city": "ESPINHO",
      "lon": "-8.629255241059756",
      "lat": "40.973818295835336"
    },
    {
      "id": "pt.ine.add.PTCONT.83336",
      "street": "R ESCOLAS",
      "house": "102",
      "postcode": "4500-518",
      "city": "ESPINHO",
      "lon": "-8.629317342249388",
      "lat": "40.97417821370347"
    },
    {
      "id": "pt.ine.add.PTCONT.147154",
      "street": "R ESCOLAS",
      "house": "98",
      "postcode": "4500-518",
      "city": "ESPINHO",
      "lon": "-8.629174168577363",
      "lat": "40.9740977881978"
    },
    {
      "id": "pt.ine.add.PTCONT.160051",
      "street": "R POCAS",
      "house": "126",
      "postcode": "4500-534",
      "city": "ESPINHO",
      "lon": "-8.6282932581398",
      "lat": "40.973867454944575"
    },
    {
      "id": "pt.ine.add.PTCONT.169106",
      "street": "R ESCOLAS",
      "house": "98",
      "postcode": "4500-518",
      "city": "ESPINHO",
      "lon": "-8.629019451871931",
      "lat": "40.97406243530899"
    },
    {
      "id": "pt.ine.add.PTCONT.177165",
      "street": "AV IGREJA",
      "house": "77",
      "postcode": "4500-475",
      "city": "ESPINHO",
      "lon": "-8.62926226437853",
      "lat": "40.97316993229542"
    },
    {
      "id": "pt.ine.add.PTCONT.179219",
      "street": "R ESCOLAS",
      "house": "84",
      "postcode": "4500-518",
      "city": "ESPINHO",
      "lon": "-8.629542330226435",
      "lat": "40.97407819419396"
    },
    {
      "id": "pt.ine.add.PTCONT.183123",
      "street": "R POCAS",
      "house": "106",
      "postcode": "4500-534",
      "city": "ESPINHO",
      "lon": "-8.628364877822236",
      "lat": "40.97391217044292"
    },
    {
      "id": "pt.ine.add.PTCONT.186508",
      "street": "R ESCOLAS",
      "house": "64",
      "postcode": "4500-518",
      "city": "ESPINHO",
      "lon": "-8.629731946077339",
      "lat": "40.97401434513744"
    },
    {
      "id": "pt.ine.add.PTCONT.193968",
      "street": "R POCAS",
      "house": "94",
      "postcode": "4500-534",
      "city": "ESPINHO",
      "lon": "-8.628567520083825",
      "lat": "40.974001346028565"
    },
    {
      "id": "pt.ine.add.PTCONT.195658",
      "street": "R ESCOLAS",
      "house": "42",
      "postcode": "4500-518",
      "city": "ESPINHO",
      "lon": "-8.629838600610455",
      "lat": "40.973977867135595"
    },
    {
      "id": "pt.ine.add.PTCONT.203556",
      "street": "AV IGREJA",
      "house": "",
      "postcode": "4500-475",
      "city": "ESPINHO",
      "lon": "-8.628445549408912",
      "lat": "40.973578652582496"
    },
    {
      "id": "pt.ine.add.PTCONT.220328",
      "street": "R ESCOLAS",
      "house": "1213",
      "postcode": "4500-518",
      "city": "ESPINHO",
      "lon": "-8.630181918971838",
      "lat": "40.973814304071134"
    },
    {
      "id": "pt.ine.add.PTCONT.235393",
      "street": "AV IGREJA",
      "house": "37",
      "postcode": "4500-475",
      "city": "ESPINHO",
      "lon": "-8.62977163466874",
      "lat": "40.97296963716778"
    },
    {
      "id": "pt.ine.add.PTCONT.235394",
      "street": "AV IGREJA",
      "house": "37",
      "postcode": "4500-475",
      "city": "ESPINHO",
      "lon": "-8.62977163466874",
      "lat": "40.97296963716778"
    },
    {
      "id": "pt.ine.add.PTCONT.235395",
      "street": "AV IGREJA",
      "house": "37",
      "postcode": "4500-475",
      "city": "ESPINHO",
      "lon": "-8.62977163466874",
      "lat": "40.97296963716778"
    },
    {
      "id": "pt.ine.add.PTCONT.235396",
      "street": "AV IGREJA",
      "house": "37",
      "postcode": "4500-475",
      "city": "ESPINHO",
      "lon": "-8.62977163466874",
      "lat": "40.97296963716778"
    },
    {
      "id": "pt.ine.add.PTCONT.235397",
      "street": "AV IGREJA",
      "house": "37",
      "postcode": "4500-475",
      "city": "ESPINHO",
      "lon": "-8.62977163466874",
      "lat": "40.97296963716778"
    },
    {
      "id": "pt.ine.add.PTCONT.239149",
      "street": "AV IGREJA",
      "house": "185",
      "postcode": "4500-475",
      "city": "ESPINHO",
      "lon": "-8.62816022196517",
      "lat": "40.97364049551979"
    },
    {
      "id": "pt.ine.add.PTCONT.239150",
      "street": "AV IGREJA",
      "house": "39",
      "postcode": "4500-475",
      "city": "ESPINHO",
      "lon": "-8.62949933185681",
      "lat": "40.97309687476068"
    },
    {
      "id": "pt.ine.add.PTCONT.241733",
      "street": "AV IGREJA",
      "house": "",
      "postcode": "4500-475",
      "city": "ESPINHO",
      "lon": "-8.62859945623756",
      "lat": "40.97350595417461"
    },
    {
      "id": "pt.ine.add.PTCONT.249946",
      "street": "AV IGREJA",
      "house": "",
      "postcode": "4500-475",
      "city": "ESPINHO",
      "lon": "-8.628374536093583",
      "lat": "40.97361497619102"
    },
    {
      "id": "pt.ine.add.PTCONT.252568",
      "street": "AV CENTRAL SUL",
      "house": "1283",
      "postcode": "4500-502",
      "city": "ESPINHO",
      "lon": "-8.630069724114621",
      "lat": "40.973112426676906"
    },
    {
      "id": "pt.ine.add.PTCONT.265128",
      "street": "R ESCOLAS",
      "house": "110",
      "postcode": "4500-518",
      "city": "ESPINHO",
      "lon": "-8.628864937552626",
      "lat": "40.97405409522755"
    },
    {
      "id": "pt.ine.add.PTCONT.268969",
      "street": "AV IGREJA",
      "house": "",
      "postcode": "4500-475",
      "city": "ESPINHO",
      "lon": "-8.628729669276629",
      "lat": "40.97344236205291"
    },
    {
      "id": "pt.ine.add.PTCONT.278099",
      "street": "AV IGREJA",
      "house": "139",
      "postcode": "4500-475",
      "city": "ESPINHO",
      "lon": "-8.628670469311832",
      "lat": "40.9734696304282"
    },
    {
      "id": "pt.ine.add.PTCONT.278207",
      "street": "AV CENTRAL SUL",
      "house": "1269",
      "postcode": "4500-502",
      "city": "ESPINHO",
      "lon": "-8.629964692424156",
      "lat": "40.973365009012184"
    },
    {
      "id": "pt.ine.add.PTCONT.278208",
      "street": "AV CENTRAL SUL",
      "house": "1269",
      "postcode": "4500-502",
      "city": "ESPINHO",
      "lon": "-8.629964692424156",
      "lat": "40.973365009012184"
    },
    {
      "id": "pt.ine.add.PTCONT.278209",
      "street": "AV CENTRAL SUL",
      "house": "1269",
      "postcode": "4500-502",
      "city": "ESPINHO",
      "lon": "-8.629964692424156",
      "lat": "40.973365009012184"
    }
  ]
}