{
  "data": {
    "distrito": "Braga",
    "concelho": "Celorico de Basto",
    "freguesia": "União das freguesias de Britelo, Gémeos e Ourilhe",
    "OBJECTID": 397,
    "BGRI2021": "03052300217",
    "DT21": "03",
    "DTMN21": "0305",
    "DTMNFR21": "030523",
    "DTMNFRSEC21": "030523002",
    "SECNUM21": "002",
    "SSNUM21": "17",
    "SECSSNUM21": "00217",
    "OBJECTID_1": 24036,
    "DT": "03",
    "CC": "05",
    "fr": "23",
    "SEC": "002",
    "SS": "17"
  },
  "addresses": [
    {
      "id": "pt.ine.add.PTCONT.519217",
      "street": "",
      "house": "",
      "postcode": "4890-484",
      "city": "OURILHE",
      "lon": "-8.014047416480233",
      "lat": "41.409229409504064"
    },
    {
      "id": "pt.ine.add.PTCONT.567323",
      "street": "",
      "house": "",
      "postcode": "4890-484",
      "city": "OURILHE",
      "lon": "-8.014358422718251",
      "lat": "41.40920271892662"
    },
    {
      "id": "pt.ine.add.PTCONT.616380",
      "street": "",
      "house": "",
      "postcode": "4890-484",
      "city": "OURILHE",
      "lon": "-8.014345298622871",
      "lat": "41.40984198873757"
    },
    {
      "id": "pt.ine.add.PTCONT.632079",
      "street": "",
      "house": "",
      "postcode": "4890-484",
      "city": "OURILHE",
      "lon": "-8.007770449869293",
      "lat": "41.40819628804838"
    },
    {
      "id": "pt.ine.add.PTCONT.643189",
      "street": "",
      "house": "",
      "postcode": "4890-484",
      "city": "OURILHE",
      "lon": "-8.014036179949404",
      "lat": "41.40883322224181"
    },
    {
      "id": "pt.ine.add.PTCONT.716783",
      "street": "",
      "house": "",
      "postcode": "4890-484",
      "city": "OURILHE",
      "lon": "-8.014441371839085",
      "lat": "41.4096259920872"
    },
    {
      "id": "pt.ine.add.PTCONT.776592",
      "street": "",
      "house": "",
      "postcode": "4890-484",
      "city": "OURILHE",
      "lon": "-8.014346118495546",
      "lat": "41.4093917900444"
    },
    {
      "id": "pt.ine.add.PTCONT.847171",
      "street": "",
      "house": "",
      "postcode": "4890-484",
      "city": "OURILHE",
      "lon": "-8.009385247803635",
      "lat": "41.40807197983147"
    }
  ]
}