{
  "data": {
    "distrito": "Leiria",
    "concelho": "Leiria",
    "freguesia": "União das freguesias de Colmeias e Memória",
    "OBJECTID": 2103,
    "BGRI2021": "10093200447",
    "DT21": "10",
    "DTMN21": "1009",
    "DTMNFR21": "100932",
    "DTMNFRSEC21": "100932004",
    "SECNUM21": "004",
    "SSNUM21": "47",
    "SECSSNUM21": "00447",
    "OBJECTID_1": 90751,
    "DT": "10",
    "CC": "09",
    "fr": "32",
    "SEC": "004",
    "SS": "47"
  },
  "addresses": [
    {
      "id": "pt.ine.add.PTCONT.2000774",
      "street": "R MARCO",
      "house": "76",
      "postcode": "2420-242",
      "city": "MEMÓRIA",
      "lon": "-8.624225139741407",
      "lat": "39.79597771341615"
    },
    {
      "id": "pt.ine.add.PTCONT.2009398",
      "street": "R S MARTA",
      "house": "",
      "postcode": "2420-242",
      "city": "MEMÓRIA",
      "lon": "-8.62440860033727",
      "lat": "39.79714777603339"
    },
    {
      "id": "pt.ine.add.PTCONT.2062085",
      "street": "R MARCO",
      "house": "",
      "postcode": "2420-242",
      "city": "MEMÓRIA",
      "lon": "-8.625468376858922",
      "lat": "39.79676501325336"
    },
    {
      "id": "pt.ine.add.PTCONT.2095341",
      "street": "R MARCO",
      "house": "",
      "postcode": "2420-242",
      "city": "MEMÓRIA",
      "lon": "-8.62427049580203",
      "lat": "39.795788385867866"
    },
    {
      "id": "pt.ine.add.PTCONT.2109754",
      "street": "R S MARTA",
      "house": "540",
      "postcode": "2420-242",
      "city": "MEMÓRIA",
      "lon": "-8.623777572967237",
      "lat": "39.79543021285973"
    },
    {
      "id": "pt.ine.add.PTCONT.2125549",
      "street": "TV OUTEIRO",
      "house": "129",
      "postcode": "2420-242",
      "city": "MEMÓRIA",
      "lon": "-8.626828933012264",
      "lat": "39.795993683901706"
    },
    {
      "id": "pt.ine.add.PTCONT.2164821",
      "street": "R S MARTA",
      "house": "861",
      "postcode": "2420-242",
      "city": "MEMÓRIA",
      "lon": "-8.624856824787797",
      "lat": "39.79778533571127"
    },
    {
      "id": "pt.ine.add.PTCONT.2207698",
      "street": "TV OUTEIRO",
      "house": "265",
      "postcode": "2420-242",
      "city": "MEMÓRIA",
      "lon": "-8.627986663195758",
      "lat": "39.79624993964823"
    },
    {
      "id": "pt.ine.add.PTCONT.2219840",
      "street": "R S MARTA",
      "house": "",
      "postcode": "2420-242",
      "city": "MEMÓRIA",
      "lon": "-8.623998058149983",
      "lat": "39.79524014477092"
    },
    {
      "id": "pt.ine.add.PTCONT.2232921",
      "street": "R S MARIA",
      "house": "899",
      "postcode": "2420-242",
      "city": "MEMÓRIA",
      "lon": "-8.625243725868378",
      "lat": "39.79800885684163"
    },
    {
      "id": "pt.ine.add.PTCONT.2267067",
      "street": "R MARCO",
      "house": "240",
      "postcode": "2420-242",
      "city": "MEMÓRIA",
      "lon": "-8.625516234816464",
      "lat": "39.796926926370894"
    }
  ]
}