{
  "data": {
    "distrito": "Leiria",
    "concelho": "Caldas da Rainha",
    "freguesia": "A dos Francos",
    "OBJECTID": 60,
    "BGRI2021": "10060100163",
    "DT21": "10",
    "DTMN21": "1006",
    "DTMNFR21": "100601",
    "DTMNFRSEC21": "100601001",
    "SECNUM21": "001",
    "SSNUM21": "63",
    "SECSSNUM21": "00163",
    "OBJECTID_1": 87689,
    "DT": "10",
    "CC": "06",
    "fr": "01",
    "SEC": "001",
    "SS": "63"
  },
  "addresses": [
    {
      "id": "pt.ine.add.PTCONT.1982251",
      "street": "BC TEODOROS",
      "house": "5",
      "postcode": "2500-052",
      "city": "A DOS FRANCOS",
      "lon": "-9.01009717344446",
      "lat": "39.32519340149523"
    },
    {
      "id": "pt.ine.add.PTCONT.1990526",
      "street": "R JOÃO DE DEUS",
      "house": "37",
      "postcode": "2500-052",
      "city": "A DOS FRANCOS",
      "lon": "-9.00646019747081",
      "lat": "39.32648173246283"
    },
    {
      "id": "pt.ine.add.PTCONT.1990643",
      "street": "BC TEODOROS",
      "house": "3",
      "postcode": "2500-052",
      "city": "A DOS FRANCOS",
      "lon": "-9.010025461959858",
      "lat": "39.325022808039144"
    },
    {
      "id": "pt.ine.add.PTCONT.2002168",
      "street": "BC SARDIM",
      "house": "8",
      "postcode": "2500-052",
      "city": "A DOS FRANCOS",
      "lon": "-9.008914408199116",
      "lat": "39.32520230686952"
    },
    {
      "id": "pt.ine.add.PTCONT.2008626",
      "street": "R JOÃO DE DEUS",
      "house": "9",
      "postcode": "2500-052",
      "city": "A DOS FRANCOS",
      "lon": "-9.008573752354824",
      "lat": "39.32485359499503"
    },
    {
      "id": "pt.ine.add.PTCONT.2010342",
      "street": "R JOÃO DE DEUS",
      "house": "41",
      "postcode": "2500-052",
      "city": "A DOS FRANCOS",
      "lon": "-9.006231638175919",
      "lat": "39.32675365830527"
    },
    {
      "id": "pt.ine.add.PTCONT.2017332",
      "street": "R ARAMENHA",
      "house": "20",
      "postcode": "2500-052",
      "city": "A DOS FRANCOS",
      "lon": "-9.011113543733515",
      "lat": "39.324861485976"
    },
    {
      "id": "pt.ine.add.PTCONT.2054885",
      "street": "R JOÃO DE DEUS",
      "house": "11",
      "postcode": "2500-052",
      "city": "A DOS FRANCOS",
      "lon": "-9.008366713996212",
      "lat": "39.32499025759543"
    },
    {
      "id": "pt.ine.add.PTCONT.2059853",
      "street": "CSL CASAL DAS CHEIRAS",
      "house": "113",
      "postcode": "2500-046",
      "city": "A DOS FRANCOS",
      "lon": "-9.01279180366872",
      "lat": "39.33015395747547"
    },
    {
      "id": "pt.ine.add.PTCONT.2061006",
      "street": "R JOÃO DE DEUS",
      "house": "25",
      "postcode": "2500-052",
      "city": "A DOS FRANCOS",
      "lon": "-9.0075394497656",
      "lat": "39.32560895394536"
    },
    {
      "id": "pt.ine.add.PTCONT.2061695",
      "street": "R ARAMENHA",
      "house": "22",
      "postcode": "2500-052",
      "city": "A DOS FRANCOS",
      "lon": "-9.006947625303129",
      "lat": "39.327441827176386"
    },
    {
      "id": "pt.ine.add.PTCONT.2065341",
      "street": "R JOÃO DE DEUS",
      "house": "39",
      "postcode": "2500-052",
      "city": "A DOS FRANCOS",
      "lon": "-9.006357738051232",
      "lat": "39.32663562083874"
    },
    {
      "id": "pt.ine.add.PTCONT.2072310",
      "street": "CSL CASAL DAS CHEIRAS",
      "house": "117",
      "postcode": "2500-046",
      "city": "A DOS FRANCOS",
      "lon": "-9.01312990981655",
      "lat": "39.33029551412431"
    },
    {
      "id": "pt.ine.add.PTCONT.2111036",
      "street": "ESTR DAS CHEIRAS",
      "house": "7",
      "postcode": "2500-053",
      "city": "A DOS FRANCOS",
      "lon": "-9.00709176033225",
      "lat": "39.32690932982672"
    },
    {
      "id": "pt.ine.add.PTCONT.2113498",
      "street": "R ARAMENHA",
      "house": "2",
      "postcode": "2500-052",
      "city": "A DOS FRANCOS",
      "lon": "-9.008943353822199",
      "lat": "39.32473372302524"
    },
    {
      "id": "pt.ine.add.PTCONT.2116300",
      "street": "R JOÃO DE DEUS",
      "house": "45",
      "postcode": "2500-052",
      "city": "A DOS FRANCOS",
      "lon": "-9.006280262270764",
      "lat": "39.32693343431086"
    },
    {
      "id": "pt.ine.add.PTCONT.2118226",
      "street": "CSL CASAL DAS CHEIRAS",
      "house": "91",
      "postcode": "2500-046",
      "city": "A DOS FRANCOS",
      "lon": "-9.01103374181746",
      "lat": "39.32960879531742"
    },
    {
      "id": "pt.ine.add.PTCONT.2119910",
      "street": "R JOÃO DE DEUS",
      "house": "35",
      "postcode": "2500-052",
      "city": "A DOS FRANCOS",
      "lon": "-9.00667783140783",
      "lat": "39.326263930392614"
    },
    {
      "id": "pt.ine.add.PTCONT.2138713",
      "street": "CSL CASAL DAS CHEIRAS",
      "house": "71",
      "postcode": "2500-046",
      "city": "A DOS FRANCOS",
      "lon": "-9.00944987734058",
      "lat": "39.32908030911135"
    },
    {
      "id": "pt.ine.add.PTCONT.2174859",
      "street": "ESTR CHEIRAS",
      "house": "9",
      "postcode": "2500-052",
      "city": "A DOS FRANCOS",
      "lon": "-9.00635219076466",
      "lat": "39.32712204249321"
    },
    {
      "id": "pt.ine.add.PTCONT.2207948",
      "street": "R ARAMENHA",
      "house": "6",
      "postcode": "2500-052",
      "city": "A DOS FRANCOS",
      "lon": "-9.009512665341132",
      "lat": "39.324819508284335"
    },
    {
      "id": "pt.ine.add.PTCONT.2215094",
      "street": "CSL CASAL DAS CHEIRAS",
      "house": "111",
      "postcode": "2500-046",
      "city": "A DOS FRANCOS",
      "lon": "-9.012432085106031",
      "lat": "39.330138661532196"
    },
    {
      "id": "pt.ine.add.PTCONT.2217278",
      "street": "R JOÃO DE DEUS",
      "house": "43",
      "postcode": "2500-052",
      "city": "A DOS FRANCOS",
      "lon": "-9.006244354171631",
      "lat": "39.32684363329795"
    },
    {
      "id": "pt.ine.add.PTCONT.2230779",
      "street": "R ARAMENHA",
      "house": "12",
      "postcode": "2500-052",
      "city": "A DOS FRANCOS",
      "lon": "-9.010093686374095",
      "lat": "39.32491420956825"
    },
    {
      "id": "pt.ine.add.PTCONT.2243817",
      "street": "CSL CASAL DAS CHEIRAS",
      "house": "81",
      "postcode": "2500-046",
      "city": "A DOS FRANCOS",
      "lon": "-9.010275920741327",
      "lat": "39.32929025567244"
    },
    {
      "id": "pt.ine.add.PTCONT.2247246",
      "street": "R JOÃO DE DEUS",
      "house": "23",
      "postcode": "2500-052",
      "city": "A DOS FRANCOS",
      "lon": "-9.007838809076645",
      "lat": "39.32543557090853"
    },
    {
      "id": "pt.ine.add.PTCONT.2262952",
      "street": "R ARAMENHA",
      "house": "14",
      "postcode": "2500-052",
      "city": "A DOS FRANCOS",
      "lon": "-9.01051135622457",
      "lat": "39.32492907603799"
    },
    {
      "id": "pt.ine.add.PTCONT.2265665",
      "street": "R ARAMENHA",
      "house": "24",
      "postcode": "2500-052",
      "city": "A DOS FRANCOS",
      "lon": "-9.011279149696215",
      "lat": "39.325121440787775"
    }
  ]
}