{
  "data": {
    "distrito": "Lisboa",
    "concelho": "Mafra",
    "freguesia": "União das freguesias de Enxara do Bispo, Gradil e Vila Franca do Rosário",
    "OBJECTID": 1084,
    "BGRI2021": "11091900214",
    "DT21": "11",
    "DTMN21": "1109",
    "DTMNFR21": "110919",
    "DTMNFRSEC21": "110919002",
    "SECNUM21": "002",
    "SSNUM21": "14",
    "SECSSNUM21": "00214",
    "OBJECTID_1": 109719,
    "DT": "11",
    "CC": "09",
    "fr": "19",
    "SEC": "002",
    "SS": "14"
  },
  "addresses": [
    {
      "id": "pt.ine.add.PTCONT.2270707",
      "street": "R MOINHOS",
      "house": "19",
      "postcode": "2665-419",
      "city": "VILA FRANCA DO ROSÁRIO",
      "lon": "-9.255002859775972",
      "lat": "38.97294582327276"
    },
    {
      "id": "pt.ine.add.PTCONT.2464322",
      "street": "R MOINHOS",
      "house": "5",
      "postcode": "2665-419",
      "city": "VILA FRANCA DO ROSÁRIO",
      "lon": "-9.255441722745324",
      "lat": "38.97223902334249"
    },
    {
      "id": "pt.ine.add.PTCONT.2470739",
      "street": "R MOINHOS CASA DAS MIMOSAS",
      "house": "7",
      "postcode": "2665-419",
      "city": "VILA FRANCA DO ROSÁRIO",
      "lon": "-9.255350136683836",
      "lat": "38.97228494137658"
    },
    {
      "id": "pt.ine.add.PTCONT.2544520",
      "street": "R MOINHOS",
      "house": "13",
      "postcode": "2665-419",
      "city": "VILA FRANCA DO ROSÁRIO",
      "lon": "-9.254732928055299",
      "lat": "38.97338978234132"
    },
    {
      "id": "pt.ine.add.PTCONT.2643140",
      "street": "R MOINHOS",
      "house": "11",
      "postcode": "2665-419",
      "city": "VILA FRANCA DO ROSÁRIO",
      "lon": "-9.255217945047969",
      "lat": "38.97268253961635"
    },
    {
      "id": "pt.ine.add.PTCONT.2643141",
      "street": "R MOINHOS",
      "house": "11",
      "postcode": "2665-419",
      "city": "VILA FRANCA DO ROSÁRIO",
      "lon": "-9.255217945047969",
      "lat": "38.97268253961635"
    },
    {
      "id": "pt.ine.add.PTCONT.2643142",
      "street": "R MOINHOS",
      "house": "11",
      "postcode": "2665-419",
      "city": "VILA FRANCA DO ROSÁRIO",
      "lon": "-9.255217945047969",
      "lat": "38.97268253961635"
    },
    {
      "id": "pt.ine.add.PTCONT.2643143",
      "street": "R MOINHOS",
      "house": "11",
      "postcode": "2665-419",
      "city": "VILA FRANCA DO ROSÁRIO",
      "lon": "-9.255217945047969",
      "lat": "38.97268253961635"
    },
    {
      "id": "pt.ine.add.PTCONT.2643144",
      "street": "R MOINHOS",
      "house": "11",
      "postcode": "2665-419",
      "city": "VILA FRANCA DO ROSÁRIO",
      "lon": "-9.255217945047969",
      "lat": "38.97268253961635"
    },
    {
      "id": "pt.ine.add.PTCONT.2772948",
      "street": "R NOVA",
      "house": "10",
      "postcode": "2665-419",
      "city": "VILA FRANCA DO ROSÁRIO",
      "lon": "-9.255958491643263",
      "lat": "38.97135132344342"
    },
    {
      "id": "pt.ine.add.PTCONT.2800374",
      "street": "R MOINHOS",
      "house": "",
      "postcode": "2665-419",
      "city": "VILA FRANCA DO ROSÁRIO",
      "lon": "-9.255104562955488",
      "lat": "38.97280973392961"
    },
    {
      "id": "pt.ine.add.PTCONT.2853616",
      "street": "R NSA SRA ROSARIO",
      "house": "26",
      "postcode": "2665-425",
      "city": "VILA FRANCA DO ROSÁRIO",
      "lon": "-9.25485642812319",
      "lat": "38.973172416828895"
    },
    {
      "id": "pt.ine.add.PTCONT.2855875",
      "street": "R NSA SRA ROSARIO",
      "house": "26",
      "postcode": "2665-425",
      "city": "VILA FRANCA DO ROSÁRIO",
      "lon": "-9.25485642812319",
      "lat": "38.973172416828895"
    },
    {
      "id": "pt.ine.add.PTCONT.2859911",
      "street": "R NSA SRA ROSARIO",
      "house": "26",
      "postcode": "2665-425",
      "city": "VILA FRANCA DO ROSÁRIO",
      "lon": "-9.25485642812319",
      "lat": "38.973172416828895"
    },
    {
      "id": "pt.ine.add.PTCONT.2860438",
      "street": "R NSA SRA ROSARIO",
      "house": "26",
      "postcode": "2665-425",
      "city": "VILA FRANCA DO ROSÁRIO",
      "lon": "-9.25485642812319",
      "lat": "38.973172416828895"
    },
    {
      "id": "pt.ine.add.PTCONT.2911694",
      "street": "R MOINHOS",
      "house": "",
      "postcode": "2665-419",
      "city": "VILA FRANCA DO ROSÁRIO",
      "lon": "-9.255082909703354",
      "lat": "38.97290001643631"
    },
    {
      "id": "pt.ine.add.PTCONT.3002702",
      "street": "R MOINHOS",
      "house": "21",
      "postcode": "2665-419",
      "city": "VILA FRANCA DO ROSÁRIO",
      "lon": "-9.254911982984574",
      "lat": "38.97303677129325"
    },
    {
      "id": "pt.ine.add.PTCONT.3244384",
      "street": "R MOINHOS FAMILIA SANTOS",
      "house": "",
      "postcode": "2665-419",
      "city": "VILA FRANCA DO ROSÁRIO",
      "lon": "-9.255273783126839",
      "lat": "38.97256490603987"
    }
  ]
}