{
  "data": {
    "distrito": "Setúbal",
    "concelho": "Setúbal",
    "freguesia": "União das freguesias de Azeitão (São Lourenço e São Simão)",
    "OBJECTID": 1180,
    "BGRI2021": "15120901138",
    "DT21": "15",
    "DTMN21": "1512",
    "DTMNFR21": "151209",
    "DTMNFRSEC21": "151209011",
    "SECNUM21": "011",
    "SSNUM21": "38",
    "SECSSNUM21": "01138",
    "OBJECTID_1": 170370,
    "DT": "15",
    "CC": "12",
    "fr": "09",
    "SEC": "011",
    "SS": "38"
  },
  "addresses": [
    {
      "id": "pt.ine.add.PTCONT.4702177",
      "street": "R NOVA JARDIA",
      "house": "",
      "postcode": "2925-811",
      "city": "AZEITÃO",
      "lon": "-9.018990156278168",
      "lat": "38.55763226083513"
    },
    {
      "id": "pt.ine.add.PTCONT.4716447",
      "street": "R AVENTUROSOS",
      "house": "",
      "postcode": "2925-098",
      "city": "AZEITÃO",
      "lon": "-9.021211109718505",
      "lat": "38.558182948164415"
    },
    {
      "id": "pt.ine.add.PTCONT.4728192",
      "street": "R NOVA JARDIA",
      "house": "",
      "postcode": "2925-812",
      "city": "AZEITÃO",
      "lon": "-9.019259969562038",
      "lat": "38.55811666106785"
    },
    {
      "id": "pt.ine.add.PTCONT.4746177",
      "street": "R NOVA JARDIA",
      "house": "",
      "postcode": "2925-812",
      "city": "AZEITÃO",
      "lon": "-9.019562320232616",
      "lat": "38.558447674966004"
    },
    {
      "id": "pt.ine.add.PTCONT.4764514",
      "street": "R PARIS",
      "house": "30",
      "postcode": "2925-201",
      "city": "AZEITÃO",
      "lon": "-9.019285535963979",
      "lat": "38.557395812054935"
    },
    {
      "id": "pt.ine.add.PTCONT.4866215",
      "street": "R AVENTUROSOS",
      "house": "",
      "postcode": "2925-098",
      "city": "AZEITÃO",
      "lon": "-9.02029428050874",
      "lat": "38.55826196590603"
    },
    {
      "id": "pt.ine.add.PTCONT.4949286",
      "street": "R DE PARIS",
      "house": "30",
      "postcode": "2925-000",
      "city": "",
      "lon": "-9.020002365362812",
      "lat": "38.55740360277303"
    },
    {
      "id": "pt.ine.add.PTCONT.5087258",
      "street": "R PARIS",
      "house": "",
      "postcode": "2925-201",
      "city": "AZEITÃO",
      "lon": "-9.020580354569631",
      "lat": "38.5572688962198"
    },
    {
      "id": "pt.ine.add.PTCONT.5131730",
      "street": "R PARIS",
      "house": "",
      "postcode": "2925-201",
      "city": "AZEITÃO",
      "lon": "-9.019984843449356",
      "lat": "38.55735448322689"
    }
  ]
}