{
  "data": {
    "distrito": "Lisboa",
    "concelho": "Lourinhã",
    "freguesia": "União das freguesias de Miragaia e Marteleira",
    "OBJECTID": 270,
    "BGRI2021": "11081300208",
    "DT21": "11",
    "DTMN21": "1108",
    "DTMNFR21": "110813",
    "DTMNFRSEC21": "110813002",
    "SECNUM21": "002",
    "SSNUM21": "08",
    "SECSSNUM21": "00208",
    "OBJECTID_1": 107262,
    "DT": "11",
    "CC": "08",
    "fr": "13",
    "SEC": "002",
    "SS": "08"
  },
  "addresses": [
    {
      "id": "pt.ine.add.PTCONT.2298749",
      "street": "EN 361",
      "house": "30",
      "postcode": "2530-443",
      "city": "MIRAGAIA",
      "lon": "-9.24248642642934",
      "lat": "39.20774072019788"
    },
    {
      "id": "pt.ine.add.PTCONT.2465299",
      "street": "BR MANUEL ANTUNES",
      "house": "4",
      "postcode": "2530-446",
      "city": "MIRAGAIA",
      "lon": "-9.24346879050984",
      "lat": "39.20763228253499"
    },
    {
      "id": "pt.ine.add.PTCONT.2466021",
      "street": "BR MANUEL ANTUNES",
      "house": "4",
      "postcode": "2530-446",
      "city": "MIRAGAIA",
      "lon": "-9.24346879050984",
      "lat": "39.20763228253499"
    },
    {
      "id": "pt.ine.add.PTCONT.2470242",
      "street": "EN 361",
      "house": "26",
      "postcode": "2530-443",
      "city": "MIRAGAIA",
      "lon": "-9.244421456858051",
      "lat": "39.20857794899986"
    },
    {
      "id": "pt.ine.add.PTCONT.2534880",
      "street": "EN 361",
      "house": "30",
      "postcode": "2530-443",
      "city": "MIRAGAIA",
      "lon": "-9.242337218985199",
      "lat": "39.207823204872234"
    },
    {
      "id": "pt.ine.add.PTCONT.2677506",
      "street": "EN 361",
      "house": "24",
      "postcode": "2530-443",
      "city": "MIRAGAIA",
      "lon": "-9.24528573052951",
      "lat": "39.20905608302146"
    },
    {
      "id": "pt.ine.add.PTCONT.2677507",
      "street": "R ESCOLA VELHA",
      "house": "2",
      "postcode": "2530-446",
      "city": "MIRAGAIA",
      "lon": "-9.242615600103957",
      "lat": "39.20785658207799"
    },
    {
      "id": "pt.ine.add.PTCONT.2895463",
      "street": "EN 361",
      "house": "24A",
      "postcode": "2530-443",
      "city": "MIRAGAIA",
      "lon": "-9.245026660342019",
      "lat": "39.20877933662387"
    },
    {
      "id": "pt.ine.add.PTCONT.3030228",
      "street": "R POÇO DA BICA",
      "house": "1",
      "postcode": "2530-446",
      "city": "MIRAGAIA",
      "lon": "-9.245630238917913",
      "lat": "39.209611232445376"
    },
    {
      "id": "pt.ine.add.PTCONT.3247790",
      "street": "R DA ESCOLA",
      "house": "29",
      "postcode": "2530-445",
      "city": "MIRAGAIA",
      "lon": "-9.243655558551966",
      "lat": "39.20834692579958"
    },
    {
      "id": "pt.ine.add.PTCONT.3265156",
      "street": "R POÇO DA BICA",
      "house": "3",
      "postcode": "2530-446",
      "city": "MIRAGAIA",
      "lon": "-9.247987911943577",
      "lat": "39.208615926408285"
    },
    {
      "id": "pt.ine.add.PTCONT.3309553",
      "street": "EN 361",
      "house": "18",
      "postcode": "2530-443",
      "city": "MIRAGAIA",
      "lon": "-9.245136311460831",
      "lat": "39.20985913996555"
    },
    {
      "id": "pt.ine.add.PTCONT.3311760",
      "street": "R ESCOLA VELHA",
      "house": "4",
      "postcode": "2530-446",
      "city": "MIRAGAIA",
      "lon": "-9.242798116660977",
      "lat": "39.207683708868046"
    },
    {
      "id": "pt.ine.add.PTCONT.3345292",
      "street": "R ESCOLA VELHA",
      "house": "1",
      "postcode": "2530-446",
      "city": "MIRAGAIA",
      "lon": "-9.241841414118026",
      "lat": "39.20721544297004"
    },
    {
      "id": "pt.ine.add.PTCONT.3400503",
      "street": "EN 361",
      "house": "20",
      "postcode": "2530-443",
      "city": "MIRAGAIA",
      "lon": "-9.245134890993283",
      "lat": "39.209769082695246"
    },
    {
      "id": "pt.ine.add.PTCONT.3427209",
      "street": "EN 361",
      "house": "22",
      "postcode": "2530-443",
      "city": "MIRAGAIA",
      "lon": "-9.245392469965788",
      "lat": "39.20921719137332"
    },
    {
      "id": "pt.ine.add.PTCONT.3451333",
      "street": "BR MANUEL ANTUNES",
      "house": "2",
      "postcode": "2530-446",
      "city": "MIRAGAIA",
      "lon": "-9.24322584554632",
      "lat": "39.20764360510684"
    }
  ]
}