{
  "data": {
    "distrito": "Braga",
    "concelho": "Póvoa de Lanhoso",
    "freguesia": "Santo Emilião",
    "OBJECTID": 268,
    "BGRI2021": "03092200108",
    "DT21": "03",
    "DTMN21": "0309",
    "DTMNFR21": "030922",
    "DTMNFRSEC21": "030922001",
    "SECNUM21": "001",
    "SSNUM21": "08",
    "SECSSNUM21": "00108",
    "OBJECTID_1": 28591,
    "DT": "03",
    "CC": "09",
    "fr": "22",
    "SEC": "001",
    "SS": "08"
  },
  "addresses": [
    {
      "id": "pt.ine.add.PTCONT.496816",
      "street": "R NSA SRA DE FÁTIMA",
      "house": "121",
      "postcode": "4830-660",
      "city": "SANTO EMILIÃO",
      "lon": "-8.29422296345988",
      "lat": "41.53118997201625"
    },
    {
      "id": "pt.ine.add.PTCONT.496817",
      "street": "R NSA SRA DE FÁTIMA",
      "house": "121",
      "postcode": "4830-660",
      "city": "SANTO EMILIÃO",
      "lon": "-8.29422296345988",
      "lat": "41.53118997201625"
    },
    {
      "id": "pt.ine.add.PTCONT.578931",
      "street": "TV 1 DE MAIO",
      "house": "131",
      "postcode": "4830-658",
      "city": "SANTO EMILIÃO",
      "lon": "-8.295025889854553",
      "lat": "41.53123386332592"
    },
    {
      "id": "pt.ine.add.PTCONT.605287",
      "street": "R 1 DE MAIO",
      "house": "58",
      "postcode": "4830-658",
      "city": "SANTO EMILIÃO",
      "lon": "-8.29564793315252",
      "lat": "41.53081881112307"
    },
    {
      "id": "pt.ine.add.PTCONT.647661",
      "street": "R PEDREIRA",
      "house": "128",
      "postcode": "4830-645",
      "city": "SANTO EMILIÃO",
      "lon": "-8.29439102875969",
      "lat": "41.531315789608236"
    },
    {
      "id": "pt.ine.add.PTCONT.684680",
      "street": "R NSA SRA DE FÁTIMA",
      "house": "107",
      "postcode": "4830-660",
      "city": "SANTO EMILIÃO",
      "lon": "-8.295180716004175",
      "lat": "41.53085548571361"
    },
    {
      "id": "pt.ine.add.PTCONT.692638",
      "street": "TV PEDREIRA C",
      "house": "125",
      "postcode": "4830-645",
      "city": "SANTO EMILIÃO",
      "lon": "-8.294534503279817",
      "lat": "41.53118953513601"
    },
    {
      "id": "pt.ine.add.PTCONT.705427",
      "street": "R PEDREIRA",
      "house": "210",
      "postcode": "4830-645",
      "city": "SANTO EMILIÃO",
      "lon": "-8.293924476277596",
      "lat": "41.53162257208555"
    },
    {
      "id": "pt.ine.add.PTCONT.813671",
      "street": "R NSA SRA DE FÁTIMA",
      "house": "",
      "postcode": "4830-660",
      "city": "SANTO EMILIÃO",
      "lon": "-8.295312408173775",
      "lat": "41.53081028105266"
    },
    {
      "id": "pt.ine.add.PTCONT.837455",
      "street": "R PEDREIRA",
      "house": "208",
      "postcode": "4830-645",
      "city": "SANTO EMILIÃO",
      "lon": "-8.294008085216072",
      "lat": "41.531514409570164"
    }
  ]
}