{
  "data": {
    "distrito": "Setúbal",
    "concelho": "Seixal",
    "freguesia": "Amora",
    "OBJECTID": 1608,
    "BGRI2021": "15100203603",
    "DT21": "15",
    "DTMN21": "1510",
    "DTMNFR21": "151002",
    "DTMNFRSEC21": "151002036",
    "SECNUM21": "036",
    "SSNUM21": "03",
    "SECSSNUM21": "03603",
    "OBJECTID_1": 167631,
    "DT": "15",
    "CC": "10",
    "fr": "02",
    "SEC": "036",
    "SS": "03"
  },
  "addresses": [
    {
      "id": "pt.ine.add.PTCONT.4669448",
      "street": "R DALIAS",
      "house": "17",
      "postcode": "2845-061",
      "city": "AMORA",
      "lon": "-9.127489364157924",
      "lat": "38.62621316985341"
    },
    {
      "id": "pt.ine.add.PTCONT.4719124",
      "street": "R DALIAS",
      "house": "15",
      "postcode": "2845-061",
      "city": "AMORA",
      "lon": "-9.127571354967259",
      "lat": "38.626329577313925"
    },
    {
      "id": "pt.ine.add.PTCONT.4734914",
      "street": "R DALIAS",
      "house": "4",
      "postcode": "2845-061",
      "city": "AMORA",
      "lon": "-9.127830553291828",
      "lat": "38.62680479925637"
    },
    {
      "id": "pt.ine.add.PTCONT.4791475",
      "street": "R ORQUÍDEAS",
      "house": "10",
      "postcode": "2845-064",
      "city": "AMORA",
      "lon": "-9.12782470418571",
      "lat": "38.6263814717098"
    },
    {
      "id": "pt.ine.add.PTCONT.4858479",
      "street": "R DALIAS",
      "house": "2",
      "postcode": "2845-061",
      "city": "AMORA",
      "lon": "-9.127912918726027",
      "lat": "38.626948227354696"
    },
    {
      "id": "pt.ine.add.PTCONT.4907016",
      "street": "R DALIAS",
      "house": "13",
      "postcode": "2845-061",
      "city": "AMORA",
      "lon": "-9.127630382140083",
      "lat": "38.62644617992075"
    },
    {
      "id": "pt.ine.add.PTCONT.4951443",
      "street": "R ORQUIDEAS",
      "house": "6",
      "postcode": "2845-064",
      "city": "AMORA",
      "lon": "-9.127783380812645",
      "lat": "38.62671512005433"
    },
    {
      "id": "pt.ine.add.PTCONT.5028436",
      "street": "R ORQUÍDEAS",
      "house": "12",
      "postcode": "2845-064",
      "city": "AMORA",
      "lon": "-9.127788889486904",
      "lat": "38.62628268790716"
    },
    {
      "id": "pt.ine.add.PTCONT.5103938",
      "street": "R ORQUÍDEAS",
      "house": "14",
      "postcode": "2845-064",
      "city": "AMORA",
      "lon": "-9.127718753592308",
      "lat": "38.62619320390106"
    },
    {
      "id": "pt.ine.add.PTCONT.5133697",
      "street": "R DALIAS",
      "house": "8",
      "postcode": "2845-061",
      "city": "AMORA",
      "lon": "-9.12779237390822",
      "lat": "38.626534883052116"
    }
  ]
}