{
  "data": {
    "distrito": "Setúbal",
    "concelho": "Setúbal",
    "freguesia": "Gâmbia-Pontes-Alto da Guerra",
    "OBJECTID": 765,
    "BGRI2021": "15120700203",
    "DT21": "15",
    "DTMN21": "1512",
    "DTMNFR21": "151207",
    "DTMNFRSEC21": "151207002",
    "SECNUM21": "002",
    "SSNUM21": "03",
    "SECSSNUM21": "00203",
    "OBJECTID_1": 170308,
    "DT": "15",
    "CC": "12",
    "fr": "07",
    "SEC": "002",
    "SS": "03"
  },
  "addresses": [
    {
      "id": "pt.ine.add.PTCONT.4702187",
      "street": "R JOSE DA SILVA NETO",
      "house": "",
      "postcode": "2910-784",
      "city": "SETÚBAL",
      "lon": "-8.818117322194032",
      "lat": "38.536963761364404"
    },
    {
      "id": "pt.ine.add.PTCONT.4709806",
      "street": "R ESTAÇÃO",
      "house": "",
      "postcode": "2910-771",
      "city": "SETÚBAL",
      "lon": "-8.820227991276175",
      "lat": "38.5382035501474"
    },
    {
      "id": "pt.ine.add.PTCONT.4728769",
      "street": "R QUINTA ARAÚJO",
      "house": "6",
      "postcode": "2910-784",
      "city": "SETÚBAL",
      "lon": "-8.818040822726305",
      "lat": "38.53615345980557"
    },
    {
      "id": "pt.ine.add.PTCONT.4745934",
      "street": "ESTR MOURISCA",
      "house": "480",
      "postcode": "2910-276",
      "city": "SETÚBAL",
      "lon": "-8.818770445491422",
      "lat": "38.53568976473723"
    },
    {
      "id": "pt.ine.add.PTCONT.4760848",
      "street": "ESTR QUINTA FRAGOSO",
      "house": "FRACCAO B",
      "postcode": "2910-809",
      "city": "SETÚBAL",
      "lon": "-8.822440647050504",
      "lat": "38.53690235396846"
    },
    {
      "id": "pt.ine.add.PTCONT.4785646",
      "street": "BC BECOS DOS NETOS",
      "house": "5009",
      "postcode": "2910-809",
      "city": "SETÚBAL",
      "lon": "-8.820930908403687",
      "lat": "38.53734363236694"
    },
    {
      "id": "pt.ine.add.PTCONT.4788990",
      "street": "ESTR QUINTA FRAGOSO",
      "house": "16",
      "postcode": "2910-809",
      "city": "SETÚBAL",
      "lon": "-8.821219255877413",
      "lat": "38.537513096148764"
    },
    {
      "id": "pt.ine.add.PTCONT.4797861",
      "street": "BC BECOS DOS NETOS",
      "house": "5006",
      "postcode": "2910-809",
      "city": "SETÚBAL",
      "lon": "-8.820585047542995",
      "lat": "38.537156488940695"
    },
    {
      "id": "pt.ine.add.PTCONT.4806799",
      "street": "ESTR QUINTA FRAGOSO",
      "house": "10",
      "postcode": "2910-809",
      "city": "SETÚBAL",
      "lon": "-8.821501251578605",
      "lat": "38.53701598082343"
    },
    {
      "id": "pt.ine.add.PTCONT.4817062",
      "street": "ESTR MOURISCA",
      "house": "482",
      "postcode": "2910-276",
      "city": "SETÚBAL",
      "lon": "-8.819230294625793",
      "lat": "38.5358041790904"
    },
    {
      "id": "pt.ine.add.PTCONT.4817063",
      "street": "R JOSE DA SILVA NETO",
      "house": "",
      "postcode": "2910-784",
      "city": "SETÚBAL",
      "lon": "-8.818616470205743",
      "lat": "38.53638430728625"
    },
    {
      "id": "pt.ine.add.PTCONT.4847883",
      "street": "BC MONTE DOS PATOS",
      "house": "5005",
      "postcode": "2910-784",
      "city": "SETÚBAL",
      "lon": "-8.820290290703841",
      "lat": "38.53751855215649"
    },
    {
      "id": "pt.ine.add.PTCONT.4945367",
      "street": "QTA MOURISCA",
      "house": "",
      "postcode": "2910-784",
      "city": "SETÚBAL",
      "lon": "-8.817412051358843",
      "lat": "38.53515721232854"
    },
    {
      "id": "pt.ine.add.PTCONT.4963714",
      "street": "BC MONTE DOS PATOS",
      "house": "CCI 5005",
      "postcode": "2910-784",
      "city": "SETÚBAL",
      "lon": "-8.820208552991279",
      "lat": "38.537365890407195"
    },
    {
      "id": "pt.ine.add.PTCONT.4963715",
      "street": "BC MONTE DOS PATOS",
      "house": "CCI 5005",
      "postcode": "2910-784",
      "city": "SETÚBAL",
      "lon": "-8.820208552991279",
      "lat": "38.537365890407195"
    },
    {
      "id": "pt.ine.add.PTCONT.4992595",
      "street": "R JOSE DA SILVA NETO",
      "house": "7",
      "postcode": "2910-784",
      "city": "SETÚBAL",
      "lon": "-8.8188317212839",
      "lat": "38.536103788786576"
    },
    {
      "id": "pt.ine.add.PTCONT.5010634",
      "street": "BC MONTE DOS PATOS",
      "house": "",
      "postcode": "2910-784",
      "city": "SETÚBAL",
      "lon": "-8.819691862812919",
      "lat": "38.53730586323217"
    },
    {
      "id": "pt.ine.add.PTCONT.5010635",
      "street": "BC MONTE DOS PATOS",
      "house": "",
      "postcode": "2910-784",
      "city": "SETÚBAL",
      "lon": "-8.819691862812919",
      "lat": "38.53730586323217"
    },
    {
      "id": "pt.ine.add.PTCONT.5010636",
      "street": "BC MONTE DOS PATOS",
      "house": "",
      "postcode": "2910-784",
      "city": "SETÚBAL",
      "lon": "-8.819691862812919",
      "lat": "38.53730586323217"
    },
    {
      "id": "pt.ine.add.PTCONT.5033132",
      "street": "ESTR QUINTA FRAGOSO A",
      "house": "A",
      "postcode": "2910-809",
      "city": "SETÚBAL",
      "lon": "-8.822315437881365",
      "lat": "38.537002182611545"
    },
    {
      "id": "pt.ine.add.PTCONT.5040482",
      "street": "BC MONTE PATOS CCI",
      "house": "CCI 5005",
      "postcode": "2910-784",
      "city": "SETÚBAL",
      "lon": "-8.820681427246972",
      "lat": "38.5376423723179"
    },
    {
      "id": "pt.ine.add.PTCONT.5048028",
      "street": "R ESTAÇÃO",
      "house": "",
      "postcode": "2910-771",
      "city": "SETÚBAL",
      "lon": "-8.817173567709457",
      "lat": "38.53661795453035"
    },
    {
      "id": "pt.ine.add.PTCONT.5051540",
      "street": "BC MONTE DOS PATOS",
      "house": "CCI SOOU",
      "postcode": "2910-784",
      "city": "SETÚBAL",
      "lon": "-8.820241416524409",
      "lat": "38.53720354775727"
    },
    {
      "id": "pt.ine.add.PTCONT.5051541",
      "street": "BC MONTE DOS PATOS",
      "house": "CCI SOOU",
      "postcode": "2910-784",
      "city": "SETÚBAL",
      "lon": "-8.820241416524409",
      "lat": "38.53720354775727"
    },
    {
      "id": "pt.ine.add.PTCONT.5058709",
      "street": "BC MONTE DOS PATOS",
      "house": "5001",
      "postcode": "2910-784",
      "city": "SETÚBAL",
      "lon": "-8.819928679151626",
      "lat": "38.53688108314909"
    },
    {
      "id": "pt.ine.add.PTCONT.5058710",
      "street": "BC BECOS NETOS",
      "house": "",
      "postcode": "2910-809",
      "city": "SETÚBAL",
      "lon": "-8.82073396846678",
      "lat": "38.53713759777776"
    },
    {
      "id": "pt.ine.add.PTCONT.5059064",
      "street": "BC BECOS DOS NETOS",
      "house": "5008",
      "postcode": "2910-809",
      "city": "SETÚBAL",
      "lon": "-8.820838472818986",
      "lat": "38.537272108793864"
    },
    {
      "id": "pt.ine.add.PTCONT.5062827",
      "street": "R QUINTA ARAÚJO",
      "house": "4",
      "postcode": "2910-784",
      "city": "SETÚBAL",
      "lon": "-8.81850915056957",
      "lat": "38.53595253603996"
    },
    {
      "id": "pt.ine.add.PTCONT.5069524",
      "street": "BC MONTE DOS PATOS",
      "house": "5011",
      "postcode": "2910-784",
      "city": "SETÚBAL",
      "lon": "-8.819759561605787",
      "lat": "38.537188358037575"
    },
    {
      "id": "pt.ine.add.PTCONT.5080330",
      "street": "BC BECOS DOS NETOS",
      "house": "5002",
      "postcode": "2910-809",
      "city": "SETÚBAL",
      "lon": "-8.820147525185376",
      "lat": "38.53697889070782"
    },
    {
      "id": "pt.ine.add.PTCONT.5094756",
      "street": "BC MONTE PATOS CCI",
      "house": "CCI 5106",
      "postcode": "2910-784",
      "city": "SETÚBAL",
      "lon": "-8.81985756313885",
      "lat": "38.5378453906929"
    },
    {
      "id": "pt.ine.add.PTCONT.5094907",
      "street": "R ESTAÇÃO",
      "house": "",
      "postcode": "2910-771",
      "city": "SETÚBAL",
      "lon": "-8.81985756313885",
      "lat": "38.5378453906929"
    },
    {
      "id": "pt.ine.add.PTCONT.5094908",
      "street": "R ESTAÇÃO",
      "house": "",
      "postcode": "2910-771",
      "city": "SETÚBAL",
      "lon": "-8.81985756313885",
      "lat": "38.5378453906929"
    },
    {
      "id": "pt.ine.add.PTCONT.5094909",
      "street": "R ESTAÇÃO",
      "house": "",
      "postcode": "2910-771",
      "city": "SETÚBAL",
      "lon": "-8.81985756313885",
      "lat": "38.5378453906929"
    },
    {
      "id": "pt.ine.add.PTCONT.5119703",
      "street": "ESTR QUINTA FRAGOSO",
      "house": "FRACC C",
      "postcode": "2910-809",
      "city": "SETÚBAL",
      "lon": "-8.822519637608872",
      "lat": "38.53676676406235"
    },
    {
      "id": "pt.ine.add.PTCONT.5128727",
      "street": "BC MONTE DOS PATOS",
      "house": "CCI SOOU",
      "postcode": "2910-784",
      "city": "SETÚBAL",
      "lon": "-8.820241416524409",
      "lat": "38.53720354775727"
    },
    {
      "id": "pt.ine.add.PTCONT.5131486",
      "street": "ESTR MOURISCA",
      "house": "",
      "postcode": "2910-276",
      "city": "SETÚBAL",
      "lon": "-8.82207124587287",
      "lat": "38.53665229526776"
    }
  ]
}