{
  "data": {
    "distrito": "Castelo Branco",
    "concelho": "Castelo Branco",
    "freguesia": "União das freguesias de Ninho do Açor e Sobral do Campo",
    "OBJECTID": 39,
    "BGRI2021": "05023000103",
    "DT21": "05",
    "DTMN21": "0502",
    "DTMNFR21": "050230",
    "DTMNFRSEC21": "050230001",
    "SECNUM21": "001",
    "SSNUM21": "03",
    "SECSSNUM21": "00103",
    "OBJECTID_1": 40624,
    "DT": "05",
    "CC": "02",
    "fr": "30",
    "SEC": "001",
    "SS": "03"
  },
  "addresses": [
    {
      "id": "pt.ine.add.PTCONT.957860",
      "street": "R DR JOSE DE CARVALHO",
      "house": "10",
      "postcode": "6000-590",
      "city": "NINHO DO AÇOR",
      "lon": "-7.55485058279",
      "lat": "39.969181632880456"
    },
    {
      "id": "pt.ine.add.PTCONT.961626",
      "street": "LG SANTO ANTÓNIO",
      "house": "15",
      "postcode": "6000-590",
      "city": "NINHO DO AÇOR",
      "lon": "-7.555098351281147",
      "lat": "39.96894870828458"
    },
    {
      "id": "pt.ine.add.PTCONT.961960",
      "street": "R JOSE BENTO ALBUQUERQUE",
      "house": "10",
      "postcode": "6000-590",
      "city": "NINHO DO AÇOR",
      "lon": "-7.554436365876699",
      "lat": "39.96971993574832"
    },
    {
      "id": "pt.ine.add.PTCONT.962958",
      "street": "R PADRE CURA",
      "house": "10",
      "postcode": "6000-590",
      "city": "NINHO DO AÇOR",
      "lon": "-7.553884041681066",
      "lat": "39.96997835596406"
    },
    {
      "id": "pt.ine.add.PTCONT.968564",
      "street": "R PADRE CURA",
      "house": "14",
      "postcode": "6000-590",
      "city": "NINHO DO AÇOR",
      "lon": "-7.553906614994039",
      "lat": "39.97007753656454"
    },
    {
      "id": "pt.ine.add.PTCONT.977018",
      "street": "R JOSE BENTO ALBUQUERQUE",
      "house": "8",
      "postcode": "6000-590",
      "city": "NINHO DO AÇOR",
      "lon": "-7.554495648597479",
      "lat": "39.969630170026484"
    },
    {
      "id": "pt.ine.add.PTCONT.980869",
      "street": "R DR JOSE DE CARVALHO",
      "house": "14",
      "postcode": "6000-590",
      "city": "NINHO DO AÇOR",
      "lon": "-7.5547214528310525",
      "lat": "39.96922601947529"
    },
    {
      "id": "pt.ine.add.PTCONT.980873",
      "street": "R ROSSIO",
      "house": "1",
      "postcode": "6000-590",
      "city": "NINHO DO AÇOR",
      "lon": "-7.554259656253862",
      "lat": "39.96985414593848"
    },
    {
      "id": "pt.ine.add.PTCONT.983156",
      "street": "LG ROSSIO",
      "house": "6",
      "postcode": "6000-590",
      "city": "NINHO DO AÇOR",
      "lon": "-7.554143369058555",
      "lat": "39.96976350354142"
    },
    {
      "id": "pt.ine.add.PTCONT.986708",
      "street": "R 31 DE DEZEMBRO",
      "house": "8",
      "postcode": "6000-590",
      "city": "NINHO DO AÇOR",
      "lon": "-7.554132956053202",
      "lat": "39.96961034672894"
    },
    {
      "id": "pt.ine.add.PTCONT.988889",
      "street": "LG ROSSIO",
      "house": "17",
      "postcode": "6000-590",
      "city": "NINHO DO AÇOR",
      "lon": "-7.553966962768178",
      "lat": "39.969861690139695"
    },
    {
      "id": "pt.ine.add.PTCONT.998987",
      "street": "R DR JOSE DE CARVALHO",
      "house": "4",
      "postcode": "6000-590",
      "city": "NINHO DO AÇOR",
      "lon": "-7.554968766702184",
      "lat": "39.96904712988808"
    },
    {
      "id": "pt.ine.add.PTCONT.1002264",
      "street": "R ROSSIO",
      "house": "9",
      "postcode": "6000-590",
      "city": "NINHO DO AÇOR",
      "lon": "-7.554212381628747",
      "lat": "39.969907946846014"
    },
    {
      "id": "pt.ine.add.PTCONT.1006716",
      "street": "LG SANTO ANTÓNIO",
      "house": "17",
      "postcode": "6000-590",
      "city": "NINHO DO AÇOR",
      "lon": "-7.555028427445523",
      "lat": "39.96891233493451"
    },
    {
      "id": "pt.ine.add.PTCONT.1007927",
      "street": "R CHÃO DA ALEZOA",
      "house": "3",
      "postcode": "6000-590",
      "city": "NINHO DO AÇOR",
      "lon": "-7.554428078591864",
      "lat": "39.969314616941475"
    },
    {
      "id": "pt.ine.add.PTCONT.1007940",
      "street": "LG SANTO ANTÓNIO",
      "house": "19",
      "postcode": "6000-590",
      "city": "NINHO DO AÇOR",
      "lon": "-7.554946875021997",
      "lat": "39.96886689737722"
    },
    {
      "id": "pt.ine.add.PTCONT.1015096",
      "street": "R CRUZ",
      "house": "8",
      "postcode": "6000-590",
      "city": "NINHO DO AÇOR",
      "lon": "-7.5548422171995",
      "lat": "39.96878531983663"
    },
    {
      "id": "pt.ine.add.PTCONT.1017247",
      "street": "LG 25 DE ABRIL",
      "house": "6",
      "postcode": "6000-590",
      "city": "NINHO DO AÇOR",
      "lon": "-7.554237158466908",
      "lat": "39.96974595961436"
    },
    {
      "id": "pt.ine.add.PTCONT.1022750",
      "street": "LG ROSSIO",
      "house": "25",
      "postcode": "6000-590",
      "city": "NINHO DO AÇOR",
      "lon": "-7.55405125142339",
      "lat": "39.96958292011627"
    },
    {
      "id": "pt.ine.add.PTCONT.1031612",
      "street": "LG SANTO ANTÓNIO",
      "house": "5",
      "postcode": "6000-590",
      "city": "NINHO DO AÇOR",
      "lon": "-7.555239260850862",
      "lat": "39.96889537382301"
    },
    {
      "id": "pt.ine.add.PTCONT.1043072",
      "street": "R PADRE CURA",
      "house": "8",
      "postcode": "6000-590",
      "city": "NINHO DO AÇOR",
      "lon": "-7.553989536164853",
      "lat": "39.96996087072658"
    },
    {
      "id": "pt.ine.add.PTCONT.1046511",
      "street": "R CHÃO DA ALEZOA",
      "house": "4",
      "postcode": "6000-590",
      "city": "NINHO DO AÇOR",
      "lon": "-7.554627360594136",
      "lat": "39.96927958694915"
    },
    {
      "id": "pt.ine.add.PTCONT.1049120",
      "street": "R PADRE CURA",
      "house": "6",
      "postcode": "6000-590",
      "city": "NINHO DO AÇOR",
      "lon": "-7.5540717731462745",
      "lat": "39.969925256889894"
    },
    {
      "id": "pt.ine.add.PTCONT.1051337",
      "street": "R JOSE BENTO ALBUQUERQUE",
      "house": "4",
      "postcode": "6000-590",
      "city": "NINHO DO AÇOR",
      "lon": "-7.554601673830565",
      "lat": "39.969549643722296"
    },
    {
      "id": "pt.ine.add.PTCONT.1059276",
      "street": "R 31 DE DEZEMBRO",
      "house": "13",
      "postcode": "6000-590",
      "city": "NINHO DO AÇOR",
      "lon": "-7.5543201546274235",
      "lat": "39.96962028774064"
    },
    {
      "id": "pt.ine.add.PTCONT.1060100",
      "street": "R DR JOSE DE CARVALHO",
      "house": "6",
      "postcode": "6000-590",
      "city": "NINHO DO AÇOR",
      "lon": "-7.554933121891318",
      "lat": "39.969109995268106"
    },
    {
      "id": "pt.ine.add.PTCONT.1066553",
      "street": "R 31 DE DEZEMBRO",
      "house": "10",
      "postcode": "6000-590",
      "city": "NINHO DO AÇOR",
      "lon": "-7.554167538192766",
      "lat": "39.969673562605486"
    },
    {
      "id": "pt.ine.add.PTCONT.1071616",
      "street": "R CRUZ",
      "house": "10",
      "postcode": "6000-590",
      "city": "NINHO DO AÇOR",
      "lon": "-7.5549121408064615",
      "lat": "39.96882169329816"
    },
    {
      "id": "pt.ine.add.PTCONT.1076438",
      "street": "LG ROSSIO",
      "house": "23",
      "postcode": "6000-590",
      "city": "NINHO DO AÇOR",
      "lon": "-7.553967874804909",
      "lat": "39.969753620720375"
    },
    {
      "id": "pt.ine.add.PTCONT.1077542",
      "street": "R DR JOSE CARVALHO",
      "house": "2",
      "postcode": "6000-590",
      "city": "NINHO DO AÇOR",
      "lon": "-7.5546730403671125",
      "lat": "39.969414907384476"
    },
    {
      "id": "pt.ine.add.PTCONT.1085504",
      "street": "R DR JOSE DE CARVALHO",
      "house": "12",
      "postcode": "6000-590",
      "city": "NINHO DO AÇOR",
      "lon": "-7.554779899904343",
      "lat": "39.96923531725363"
    },
    {
      "id": "pt.ine.add.PTCONT.1086640",
      "street": "R CRUZ",
      "house": "6",
      "postcode": "6000-590",
      "city": "NINHO DO AÇOR",
      "lon": "-7.554690665702843",
      "lat": "39.96871251438478"
    },
    {
      "id": "pt.ine.add.PTCONT.1095763",
      "street": "R CRUZ",
      "house": "4",
      "postcode": "6000-590",
      "city": "NINHO DO AÇOR",
      "lon": "-7.554609265573196",
      "lat": "39.96864906501603"
    }
  ]
}