{
  "data": {
    "distrito": "Castelo Branco",
    "concelho": "Castelo Branco",
    "freguesia": "União das freguesias de Ninho do Açor e Sobral do Campo",
    "OBJECTID": 119,
    "BGRI2021": "05023000109",
    "DT21": "05",
    "DTMN21": "0502",
    "DTMNFR21": "050230",
    "DTMNFRSEC21": "050230001",
    "SECNUM21": "001",
    "SSNUM21": "09",
    "SECSSNUM21": "00109",
    "OBJECTID_1": 41527,
    "DT": "05",
    "CC": "02",
    "fr": "30",
    "SEC": "001",
    "SS": "09"
  },
  "addresses": [
    {
      "id": "pt.ine.add.PTCONT.951535",
      "street": "R NOVA",
      "house": "1",
      "postcode": "6000-590",
      "city": "NINHO DO AÇOR",
      "lon": "-7.552777885066016",
      "lat": "39.97344019553387"
    },
    {
      "id": "pt.ine.add.PTCONT.953042",
      "street": "R NOVA",
      "house": "19",
      "postcode": "6000-590",
      "city": "NINHO DO AÇOR",
      "lon": "-7.551210366926028",
      "lat": "39.973315257109235"
    },
    {
      "id": "pt.ine.add.PTCONT.956462",
      "street": "R CANCHAIS",
      "house": "6",
      "postcode": "6000-590",
      "city": "NINHO DO AÇOR",
      "lon": "-7.548452908738459",
      "lat": "39.97271598155652"
    },
    {
      "id": "pt.ine.add.PTCONT.957163",
      "street": "R NOVA",
      "house": "23",
      "postcode": "6000-590",
      "city": "NINHO DO AÇOR",
      "lon": "-7.550955066513099",
      "lat": "39.97305279661742"
    },
    {
      "id": "pt.ine.add.PTCONT.958205",
      "street": "R DR DUARTE BEIRAO",
      "house": "14",
      "postcode": "6000-590",
      "city": "NINHO DO AÇOR",
      "lon": "-7.547876282742592",
      "lat": "39.97307331807293"
    },
    {
      "id": "pt.ine.add.PTCONT.959465",
      "street": "R S JOSE",
      "house": "7",
      "postcode": "6000-590",
      "city": "NINHO DO AÇOR",
      "lon": "-7.549088590872517",
      "lat": "39.97229589657767"
    },
    {
      "id": "pt.ine.add.PTCONT.961949",
      "street": "R CAP MANUEL DOMINGOS CARRETO",
      "house": "41",
      "postcode": "6000-590",
      "city": "NINHO DO AÇOR",
      "lon": "-7.5481732896397",
      "lat": "39.97256146618386"
    },
    {
      "id": "pt.ine.add.PTCONT.962956",
      "street": "R STA MARIA",
      "house": "4",
      "postcode": "6000-590",
      "city": "NINHO DO AÇOR",
      "lon": "-7.549346869362001",
      "lat": "39.97220713597499"
    },
    {
      "id": "pt.ine.add.PTCONT.963748",
      "street": "BC STA MARIA",
      "house": "",
      "postcode": "6000-590",
      "city": "NINHO DO AÇOR",
      "lon": "-7.549228745613794",
      "lat": "39.972332627270475"
    },
    {
      "id": "pt.ine.add.PTCONT.974718",
      "street": "TV ESCOLA",
      "house": "11",
      "postcode": "6000-590",
      "city": "NINHO DO AÇOR",
      "lon": "-7.550842764917532",
      "lat": "39.97387179295252"
    },
    {
      "id": "pt.ine.add.PTCONT.975445",
      "street": "R S JOSE",
      "house": "18",
      "postcode": "6000-590",
      "city": "NINHO DO AÇOR",
      "lon": "-7.549213285428722",
      "lat": "39.97277385119055"
    },
    {
      "id": "pt.ine.add.PTCONT.983129",
      "street": "R CAP MANUEL DOMINGOS CARRETO",
      "house": "18",
      "postcode": "6000-590",
      "city": "NINHO DO AÇOR",
      "lon": "-7.5489357344727654",
      "lat": "39.972376181776696"
    },
    {
      "id": "pt.ine.add.PTCONT.985125",
      "street": "R DR DUARTE BEIRAO",
      "house": "8",
      "postcode": "6000-590",
      "city": "NINHO DO AÇOR",
      "lon": "-7.547913549022532",
      "lat": "39.97282133378871"
    },
    {
      "id": "pt.ine.add.PTCONT.985558",
      "street": "R NOVA",
      "house": "15",
      "postcode": "6000-590",
      "city": "NINHO DO AÇOR",
      "lon": "-7.551819804671531",
      "lat": "39.973228253304484"
    },
    {
      "id": "pt.ine.add.PTCONT.986706",
      "street": "R D MARIA GUILHERMINA MEIRELES BARRIGA",
      "house": "24",
      "postcode": "6000-590",
      "city": "NINHO DO AÇOR",
      "lon": "-7.5519301447108385",
      "lat": "39.974021348501516"
    },
    {
      "id": "pt.ine.add.PTCONT.993515",
      "street": "R S JOSE",
      "house": "8",
      "postcode": "6000-590",
      "city": "NINHO DO AÇOR",
      "lon": "-7.549566968477028",
      "lat": "39.97247842898262"
    },
    {
      "id": "pt.ine.add.PTCONT.994963",
      "street": "R CAP MANUEL DOMINGOS CARRETO",
      "house": "43",
      "postcode": "6000-590",
      "city": "NINHO DO AÇOR",
      "lon": "-7.548102905186891",
      "lat": "39.97257912330657"
    },
    {
      "id": "pt.ine.add.PTCONT.995432",
      "street": "R NOVA",
      "house": "29",
      "postcode": "6000-590",
      "city": "NINHO DO AÇOR",
      "lon": "-7.550579887248245",
      "lat": "39.97312296105177"
    },
    {
      "id": "pt.ine.add.PTCONT.995434",
      "street": "TV ESCOLA",
      "house": "6",
      "postcode": "6000-590",
      "city": "NINHO DO AÇOR",
      "lon": "-7.551628628054163",
      "lat": "39.973686608520865"
    },
    {
      "id": "pt.ine.add.PTCONT.1000082",
      "street": "R CAP MANUEL DOMINGOS CARRETO",
      "house": "55",
      "postcode": "6000-590",
      "city": "NINHO DO AÇOR",
      "lon": "-7.547552455684515",
      "lat": "39.97261236862582"
    },
    {
      "id": "pt.ine.add.PTCONT.1005895",
      "street": "R NOVA",
      "house": "5",
      "postcode": "6000-590",
      "city": "NINHO DO AÇOR",
      "lon": "-7.55253283560888",
      "lat": "39.973348906849516"
    },
    {
      "id": "pt.ine.add.PTCONT.1007110",
      "street": "R S JOSE",
      "house": "7C",
      "postcode": "6000-590",
      "city": "NINHO DO AÇOR",
      "lon": "-7.549222231789335",
      "lat": "39.97309811796099"
    },
    {
      "id": "pt.ine.add.PTCONT.1008278",
      "street": "R DR DUARTE BEIRAO",
      "house": "4",
      "postcode": "6000-590",
      "city": "NINHO DO AÇOR",
      "lon": "-7.547914317077804",
      "lat": "39.97273127608245"
    },
    {
      "id": "pt.ine.add.PTCONT.1009113",
      "street": "R D MARIA GUILHERMINA MEIRELES BARRIGA",
      "house": "22",
      "postcode": "6000-590",
      "city": "NINHO DO AÇOR",
      "lon": "-7.552094782995356",
      "lat": "39.9739321122748"
    },
    {
      "id": "pt.ine.add.PTCONT.1010343",
      "street": "R D MARIA GUILHERMINA MEIRELES BARRIGA",
      "house": "42",
      "postcode": "6000-590",
      "city": "NINHO DO AÇOR",
      "lon": "-7.5507423953596025",
      "lat": "39.97466383053771"
    },
    {
      "id": "pt.ine.add.PTCONT.1012465",
      "street": "R CAP MANUEL DOMINGOS CARRETO",
      "house": "47",
      "postcode": "6000-590",
      "city": "NINHO DO AÇOR",
      "lon": "-7.547821827921438",
      "lat": "39.97259571674263"
    },
    {
      "id": "pt.ine.add.PTCONT.1019378",
      "street": "R S MARIA",
      "house": "2",
      "postcode": "6000-590",
      "city": "NINHO DO AÇOR",
      "lon": "-7.549276485567107",
      "lat": "39.9722247938162"
    },
    {
      "id": "pt.ine.add.PTCONT.1020787",
      "street": "R CAP MANUEL DOMINGOS CARRETO",
      "house": "35",
      "postcode": "6000-590",
      "city": "NINHO DO AÇOR",
      "lon": "-7.548419634942915",
      "lat": "39.97249966591527"
    },
    {
      "id": "pt.ine.add.PTCONT.1028247",
      "street": "R S JOSE",
      "house": "10",
      "postcode": "6000-590",
      "city": "NINHO DO AÇOR",
      "lon": "-7.549495971680474",
      "lat": "39.972568133143454"
    },
    {
      "id": "pt.ine.add.PTCONT.1028822",
      "street": "R CAP MANUEL DOMINGOS CARRETO",
      "house": "49",
      "postcode": "6000-590",
      "city": "NINHO DO AÇOR",
      "lon": "-7.547751596998299",
      "lat": "39.97259536210966"
    },
    {
      "id": "pt.ine.add.PTCONT.1033178",
      "street": "R CANCHAIS",
      "house": "3",
      "postcode": "6000-590",
      "city": "NINHO DO AÇOR",
      "lon": "-7.548898318852528",
      "lat": "39.97264617798248"
    },
    {
      "id": "pt.ine.add.PTCONT.1034966",
      "street": "R CAP MANUEL DOMINGOS CARRETO",
      "house": "13",
      "postcode": "6000-590",
      "city": "NINHO DO AÇOR",
      "lon": "-7.549182538268136",
      "lat": "39.97226034523547"
    },
    {
      "id": "pt.ine.add.PTCONT.1036622",
      "street": "R CAP MANUEL DOMINGOS CARRETO",
      "house": "17",
      "postcode": "6000-590",
      "city": "NINHO DO AÇOR",
      "lon": "-7.549006271830632",
      "lat": "39.97234051259851"
    },
    {
      "id": "pt.ine.add.PTCONT.1040820",
      "street": "R D MARIA GUILHERMINA MEIRELES BARRIGA",
      "house": "56",
      "postcode": "6000-590",
      "city": "NINHO DO AÇOR",
      "lon": "-7.549306430300724",
      "lat": "39.97558424120562"
    },
    {
      "id": "pt.ine.add.PTCONT.1041225",
      "street": "R CANCHAIS",
      "house": "1",
      "postcode": "6000-590",
      "city": "NINHO DO AÇOR",
      "lon": "-7.5488389495065205",
      "lat": "39.97274494649581"
    },
    {
      "id": "pt.ine.add.PTCONT.1042311",
      "street": "R D MARIA GUILHERMINA MEIRELES BARRIGA",
      "house": "40",
      "postcode": "6000-590",
      "city": "NINHO DO AÇOR",
      "lon": "-7.550942076801407",
      "lat": "39.974583778175855"
    },
    {
      "id": "pt.ine.add.PTCONT.1042317",
      "street": "R CAP MANUEL DOMINGOS CARRETO",
      "house": "39",
      "postcode": "6000-590",
      "city": "NINHO DO AÇOR",
      "lon": "-7.5482553024426515",
      "lat": "39.97255287384831"
    },
    {
      "id": "pt.ine.add.PTCONT.1042318",
      "street": "R CAP MANUEL DOMINGOS CARRETO",
      "house": "31",
      "postcode": "6000-590",
      "city": "NINHO DO AÇOR",
      "lon": "-7.548818376543024",
      "lat": "39.97241161491629"
    },
    {
      "id": "pt.ine.add.PTCONT.1043392",
      "street": "R S JOSE",
      "house": "13",
      "postcode": "6000-590",
      "city": "NINHO DO AÇOR",
      "lon": "-7.548776972436896",
      "lat": "39.973149911212666"
    },
    {
      "id": "pt.ine.add.PTCONT.1044502",
      "street": "R S JOSE",
      "house": "16",
      "postcode": "6000-590",
      "city": "NINHO DO AÇOR",
      "lon": "-7.549295604861097",
      "lat": "39.97272923502878"
    },
    {
      "id": "pt.ine.add.PTCONT.1045654",
      "street": "R D MARIA GUILHERMINA MEIRELES BARRIGA",
      "house": "50",
      "postcode": "6000-590",
      "city": "NINHO DO AÇOR",
      "lon": "-7.55040033502654",
      "lat": "39.97496832079274"
    },
    {
      "id": "pt.ine.add.PTCONT.1049100",
      "street": "R S JOSE",
      "house": "12",
      "postcode": "6000-590",
      "city": "NINHO DO AÇOR",
      "lon": "-7.549425357731414",
      "lat": "39.972612808391716"
    },
    {
      "id": "pt.ine.add.PTCONT.1049874",
      "street": "TV ESCOLA",
      "house": "9",
      "postcode": "6000-590",
      "city": "NINHO DO AÇOR",
      "lon": "-7.551159192047272",
      "lat": "39.97382835120921"
    },
    {
      "id": "pt.ine.add.PTCONT.1050452",
      "street": "R CAP MANUEL DOMINGOS CARRETO",
      "house": "37",
      "postcode": "6000-590",
      "city": "NINHO DO AÇOR",
      "lon": "-7.548325763581174",
      "lat": "39.972526210860806"
    },
    {
      "id": "pt.ine.add.PTCONT.1050453",
      "street": "R S JOSE",
      "house": "7B",
      "postcode": "6000-590",
      "city": "NINHO DO AÇOR",
      "lon": "-7.549399725712584",
      "lat": "39.97287385792819"
    },
    {
      "id": "pt.ine.add.PTCONT.1050969",
      "street": "R S JOSE",
      "house": "9",
      "postcode": "6000-590",
      "city": "NINHO DO AÇOR",
      "lon": "-7.548917205420625",
      "lat": "39.97317763651662"
    },
    {
      "id": "pt.ine.add.PTCONT.1051314",
      "street": "R D MARIA GUILHERMINA MEIRELES BARRIGA",
      "house": "38",
      "postcode": "6000-590",
      "city": "NINHO DO AÇOR",
      "lon": "-7.550977880974451",
      "lat": "39.9745029025833"
    },
    {
      "id": "pt.ine.add.PTCONT.1051322",
      "street": "R S JOSE",
      "house": "15",
      "postcode": "6000-590",
      "city": "NINHO DO AÇOR",
      "lon": "-7.548589995304549",
      "lat": "39.973112943877915"
    },
    {
      "id": "pt.ine.add.PTCONT.1052438",
      "street": "R NOVA",
      "house": "31",
      "postcode": "6000-590",
      "city": "NINHO DO AÇOR",
      "lon": "-7.550394132874359",
      "lat": "39.972941904230844"
    },
    {
      "id": "pt.ine.add.PTCONT.1055395",
      "street": "R D MARIA GUILHERMINA MEIRELES BARRIGA",
      "house": "60",
      "postcode": "6000-590",
      "city": "NINHO DO AÇOR",
      "lon": "-7.549882304657274",
      "lat": "39.97531695552629"
    },
    {
      "id": "pt.ine.add.PTCONT.1058092",
      "street": "R CAP MANUEL DOMINGOS CARRETO",
      "house": "45",
      "postcode": "6000-590",
      "city": "NINHO DO AÇOR",
      "lon": "-7.547903994418968",
      "lat": "39.97256911311457"
    },
    {
      "id": "pt.ine.add.PTCONT.1059269",
      "street": "R S JOSE",
      "house": "17",
      "postcode": "6000-590",
      "city": "NINHO DO AÇOR",
      "lon": "-7.548227746884994",
      "lat": "39.9730390673693"
    },
    {
      "id": "pt.ine.add.PTCONT.1061127",
      "street": "R CAP MANUEL DOMINGOS CARRETO",
      "house": "51",
      "postcode": "6000-590",
      "city": "NINHO DO AÇOR",
      "lon": "-7.547669660922875",
      "lat": "39.97259494831743"
    },
    {
      "id": "pt.ine.add.PTCONT.1061565",
      "street": "R D MARIA GUILHERMINA MEIRELES BARRIGA",
      "house": "26",
      "postcode": "6000-590",
      "city": "NINHO DO AÇOR",
      "lon": "-7.551707055208216",
      "lat": "39.9741012851727"
    },
    {
      "id": "pt.ine.add.PTCONT.1063471",
      "street": "R NOVA",
      "house": "27",
      "postcode": "6000-590",
      "city": "NINHO DO AÇOR",
      "lon": "-7.550720885312747",
      "lat": "39.973060626433295"
    },
    {
      "id": "pt.ine.add.PTCONT.1063472",
      "street": "R S JOSE",
      "house": "22",
      "postcode": "6000-590",
      "city": "NINHO DO AÇOR",
      "lon": "-7.548802837006712",
      "lat": "39.972861844528396"
    },
    {
      "id": "pt.ine.add.PTCONT.1065097",
      "street": "R D MARIA GUILHERMINA MEIRELES BARRIGA",
      "house": "41",
      "postcode": "6000-590",
      "city": "NINHO DO AÇOR",
      "lon": "-7.548576755668893",
      "lat": "39.973293000272875"
    },
    {
      "id": "pt.ine.add.PTCONT.1070847",
      "street": "BC STA MARIA",
      "house": "",
      "postcode": "6000-590",
      "city": "NINHO DO AÇOR",
      "lon": "-7.549311141124239",
      "lat": "39.97227900531685"
    },
    {
      "id": "pt.ine.add.PTCONT.1072978",
      "street": "R D MARIA GUILHERMINA MEIRELES BARRIGA",
      "house": "36",
      "postcode": "6000-590",
      "city": "NINHO DO AÇOR",
      "lon": "-7.551119110702277",
      "lat": "39.97441355019366"
    },
    {
      "id": "pt.ine.add.PTCONT.1075216",
      "street": "R D MARIA GUILHERMINA MEIRELES BARRIGA",
      "house": "48",
      "postcode": "6000-590",
      "city": "NINHO DO AÇOR",
      "lon": "-7.550564977561718",
      "lat": "39.97487908678406"
    },
    {
      "id": "pt.ine.add.PTCONT.1075228",
      "street": "R S JOSE",
      "house": "11",
      "postcode": "6000-590",
      "city": "NINHO DO AÇOR",
      "lon": "-7.548683560550583",
      "lat": "39.973122421811524"
    },
    {
      "id": "pt.ine.add.PTCONT.1075231",
      "street": "R STA MARIA",
      "house": "6",
      "postcode": "6000-590",
      "city": "NINHO DO AÇOR",
      "lon": "-7.549462618057849",
      "lat": "39.97236082354673"
    },
    {
      "id": "pt.ine.add.PTCONT.1080192",
      "street": "R CAP MANUEL DOMINGOS CARRETO",
      "house": "57",
      "postcode": "6000-590",
      "city": "NINHO DO AÇOR",
      "lon": "-7.547423698967996",
      "lat": "39.97261171813345"
    },
    {
      "id": "pt.ine.add.PTCONT.1085470",
      "street": "R NOVA",
      "house": "9",
      "postcode": "6000-590",
      "city": "NINHO DO AÇOR",
      "lon": "-7.55217058155219",
      "lat": "39.97327504262665"
    },
    {
      "id": "pt.ine.add.PTCONT.1086639",
      "street": "R STA MARIA",
      "house": "10",
      "postcode": "6000-590",
      "city": "NINHO DO AÇOR",
      "lon": "-7.549485415506863",
      "lat": "39.9724329876063"
    },
    {
      "id": "pt.ine.add.PTCONT.1088853",
      "street": "TV ESCOLA",
      "house": "4",
      "postcode": "6000-590",
      "city": "NINHO DO AÇOR",
      "lon": "-7.551780568679297",
      "lat": "39.97371438909255"
    },
    {
      "id": "pt.ine.add.PTCONT.1091150",
      "street": "R D MARIA GUILHERMINA MEIRELES BARRIGA",
      "house": "46",
      "postcode": "6000-590",
      "city": "NINHO DO AÇOR",
      "lon": "-7.550448075028593",
      "lat": "39.974860486904795"
    },
    {
      "id": "pt.ine.add.PTCONT.1091912",
      "street": "R CHÃO DA VINHA",
      "house": "",
      "postcode": "6000-590",
      "city": "NINHO DO AÇOR",
      "lon": "-7.547986608689461",
      "lat": "39.97523535253523"
    },
    {
      "id": "pt.ine.add.PTCONT.1092878",
      "street": "R DR DUARTE BEIRAO",
      "house": "12",
      "postcode": "6000-590",
      "city": "NINHO DO AÇOR",
      "lon": "-7.548089280481243",
      "lat": "39.97280420850849"
    },
    {
      "id": "pt.ine.add.PTCONT.1092879",
      "street": "R DR DUARTE BEIRAO",
      "house": "12",
      "postcode": "6000-590",
      "city": "NINHO DO AÇOR",
      "lon": "-7.548089280481243",
      "lat": "39.97280420850849"
    },
    {
      "id": "pt.ine.add.PTCONT.1094524",
      "street": "R D MARIA GUILHERMINA MEIRELES BARRIGA",
      "house": "32",
      "postcode": "6000-590",
      "city": "NINHO DO AÇOR",
      "lon": "-7.55144839082085",
      "lat": "39.97423507984654"
    },
    {
      "id": "pt.ine.add.PTCONT.1094535",
      "street": "R S JOSE",
      "house": "24",
      "postcode": "6000-590",
      "city": "NINHO DO AÇOR",
      "lon": "-7.548615707215888",
      "lat": "39.97284288878241"
    },
    {
      "id": "pt.ine.add.PTCONT.1096325",
      "street": "R D MARIA GUILHERMINA MEIRELES BARRIGA",
      "house": "34",
      "postcode": "6000-590",
      "city": "NINHO DO AÇOR",
      "lon": "-7.551295227333178",
      "lat": "39.97435139121399"
    }
  ]
}