{
  "data": {
    "distrito": "Coimbra",
    "concelho": "Coimbra",
    "freguesia": "União das freguesias de São Martinho do Bispo e Ribeira de Frades",
    "OBJECTID": 456,
    "BGRI2021": "06033801305",
    "DT21": "06",
    "DTMN21": "0603",
    "DTMNFR21": "060338",
    "DTMNFRSEC21": "060338013",
    "SECNUM21": "013",
    "SSNUM21": "05",
    "SECSSNUM21": "01305",
    "OBJECTID_1": 48758,
    "DT": "06",
    "CC": "03",
    "fr": "38",
    "SEC": "013",
    "SS": "05"
  },
  "addresses": [
    {
      "id": "pt.ine.add.PTCONT.1100954",
      "street": "R PARTICULAR N 2",
      "house": "13",
      "postcode": "3045-172",
      "city": "COIMBRA",
      "lon": "-8.483562436042268",
      "lat": "40.20037854458422"
    },
    {
      "id": "pt.ine.add.PTCONT.1114042",
      "street": "R PARTICULAR N 2",
      "house": "7",
      "postcode": "3045-172",
      "city": "COIMBRA",
      "lon": "-8.484266695421093",
      "lat": "40.20029535767243"
    },
    {
      "id": "pt.ine.add.PTCONT.1119071",
      "street": "R PARTICULAR N 1",
      "house": "",
      "postcode": "3045-109",
      "city": "COIMBRA",
      "lon": "-8.483952004771432",
      "lat": "40.20076461644307"
    },
    {
      "id": "pt.ine.add.PTCONT.1147697",
      "street": "R PARTICULAR N 1",
      "house": "",
      "postcode": "3045-109",
      "city": "COIMBRA",
      "lon": "-8.485102891373442",
      "lat": "40.20074311097698"
    },
    {
      "id": "pt.ine.add.PTCONT.1165544",
      "street": "R PARTICULAR N 2",
      "house": "17",
      "postcode": "3045-172",
      "city": "COIMBRA",
      "lon": "-8.483046320674731",
      "lat": "40.200506187913604"
    },
    {
      "id": "pt.ine.add.PTCONT.1168774",
      "street": "R PARTICULAR",
      "house": "15",
      "postcode": "3045-172",
      "city": "COIMBRA",
      "lon": "-8.483503851993667",
      "lat": "40.20040573949855"
    },
    {
      "id": "pt.ine.add.PTCONT.1178400",
      "street": "R PARTICULAR N 1",
      "house": "",
      "postcode": "3045-109",
      "city": "COIMBRA",
      "lon": "-8.48483253087661",
      "lat": "40.20069890345329"
    },
    {
      "id": "pt.ine.add.PTCONT.1193365",
      "street": "R PARTICULAR N 2",
      "house": "21",
      "postcode": "3045-172",
      "city": "COIMBRA",
      "lon": "-8.483034159335624",
      "lat": "40.20042517195372"
    },
    {
      "id": "pt.ine.add.PTCONT.1215892",
      "street": "R PARTICULAR N 2",
      "house": "",
      "postcode": "3045-172",
      "city": "COIMBRA",
      "lon": "-8.485230452288807",
      "lat": "40.20042751802511"
    },
    {
      "id": "pt.ine.add.PTCONT.1224988",
      "street": "R PARTICULAR N 1",
      "house": "",
      "postcode": "3045-109",
      "city": "COIMBRA",
      "lon": "-8.484562449735169",
      "lat": "40.200708729593636"
    },
    {
      "id": "pt.ine.add.PTCONT.1257140",
      "street": "R GEN HUMBERTO DELGADO",
      "house": "404",
      "postcode": "3045-109",
      "city": "COIMBRA",
      "lon": "-8.485021516685293",
      "lat": "40.20090546381018"
    },
    {
      "id": "pt.ine.add.PTCONT.1265379",
      "street": "R PARTICULAR N 2",
      "house": "9",
      "postcode": "3045-172",
      "city": "COIMBRA",
      "lon": "-8.483844260659303",
      "lat": "40.20036868519819"
    },
    {
      "id": "pt.ine.add.PTCONT.1269286",
      "street": "R PARTICULAR N 2",
      "house": "5",
      "postcode": "3045-172",
      "city": "COIMBRA",
      "lon": "-8.484501587636261",
      "lat": "40.200294644901795"
    },
    {
      "id": "pt.ine.add.PTCONT.1269287",
      "street": "R PARTICULAR N 1",
      "house": "3",
      "postcode": "3045-109",
      "city": "COIMBRA",
      "lon": "-8.484712990622743",
      "lat": "40.20029400300072"
    },
    {
      "id": "pt.ine.add.PTCONT.1279882",
      "street": "R DR LUIS DE FREITAS MORNA",
      "house": "11",
      "postcode": "3045-087",
      "city": "COIMBRA",
      "lon": "-8.484055617456777",
      "lat": "40.20035903877934"
    },
    {
      "id": "pt.ine.add.PTCONT.1287283",
      "street": "R GEN HUMBERTO DELGADO",
      "house": "398",
      "postcode": "3045-074",
      "city": "COIMBRA",
      "lon": "-8.48500842170981",
      "lat": "40.20064433375967"
    },
    {
      "id": "pt.ine.add.PTCONT.1289732",
      "street": "R PARTICULAR N 2",
      "house": "1",
      "postcode": "3045-172",
      "city": "COIMBRA",
      "lon": "-8.485194379868945",
      "lat": "40.20026552230292"
    },
    {
      "id": "pt.ine.add.PTCONT.1299871",
      "street": "R PARTICULAR N 2",
      "house": "19",
      "postcode": "3045-172",
      "city": "COIMBRA",
      "lon": "-8.482893223715127",
      "lat": "40.200425597887914"
    },
    {
      "id": "pt.ine.add.PTCONT.1323815",
      "street": "R OUTEIRO DOS CASAIS",
      "house": "",
      "postcode": "3045-172",
      "city": "COIMBRA",
      "lon": "-8.485042957247018",
      "lat": "40.2005091409092"
    },
    {
      "id": "pt.ine.add.PTCONT.1352531",
      "street": "R PARTICULAR N 1",
      "house": "",
      "postcode": "3045-109",
      "city": "COIMBRA",
      "lon": "-8.485091519258928",
      "lat": "40.20081519241261"
    },
    {
      "id": "pt.ine.add.PTCONT.1353630",
      "street": "R GEN HUMBERTO DELGADO",
      "house": "398",
      "postcode": "3045-172",
      "city": "COIMBRA",
      "lon": "-8.485114216889988",
      "lat": "40.20066202382378"
    }
  ]
}