{
  "data": {
    "distrito": "Lisboa",
    "concelho": "Loures",
    "freguesia": "União das freguesias de Santa Iria de Azoia, São João da Talha e Bobadela",
    "OBJECTID": 720,
    "BGRI2021": "11072802947",
    "DT21": "11",
    "DTMN21": "1107",
    "DTMNFR21": "110728",
    "DTMNFRSEC21": "110728029",
    "SECNUM21": "029",
    "SSNUM21": "47",
    "SECSSNUM21": "02947",
    "OBJECTID_1": 106156,
    "DT": "11",
    "CC": "07",
    "fr": "28",
    "SEC": "029",
    "SS": "47"
  },
  "addresses": [
    {
      "id": "pt.ine.add.PTCONT.2915437",
      "street": "LG CHAFARIZ",
      "house": "1",
      "postcode": "2690-495",
      "city": "SANTA IRIA DE AZÓIA",
      "lon": "-9.08841713709749",
      "lat": "38.852789678791865"
    },
    {
      "id": "pt.ine.add.PTCONT.2933279",
      "street": "R RAINHA SANTA",
      "house": "01",
      "postcode": "2690-429",
      "city": "SANTA IRIA DE AZÓIA",
      "lon": "-9.087873817224471",
      "lat": "38.85695568273135"
    },
    {
      "id": "pt.ine.add.PTCONT.2979415",
      "street": "R RAINHA SANTA",
      "house": "8",
      "postcode": "2690-429",
      "city": "SANTA IRIA DE AZÓIA",
      "lon": "-9.088221437186602",
      "lat": "38.85710597136052"
    },
    {
      "id": "pt.ine.add.PTCONT.3212705",
      "street": "R RAINHA SANTA",
      "house": "26",
      "postcode": "2690-429",
      "city": "SANTA IRIA DE AZÓIA",
      "lon": "-9.088775987035438",
      "lat": "38.85636280309288"
    },
    {
      "id": "pt.ine.add.PTCONT.3395771",
      "street": "R RAINHA SANTA",
      "house": "",
      "postcode": "2690-429",
      "city": "SANTA IRIA DE AZÓIA",
      "lon": "-9.088927959441731",
      "lat": "38.85738843773985"
    },
    {
      "id": "pt.ine.add.PTCONT.3395772",
      "street": "R RAINHA SANTA",
      "house": "",
      "postcode": "2690-429",
      "city": "SANTA IRIA DE AZÓIA",
      "lon": "-9.088927959441731",
      "lat": "38.85738843773985"
    },
    {
      "id": "pt.ine.add.PTCONT.3422407",
      "street": "R RAINHA SANTA",
      "house": "",
      "postcode": "2690-429",
      "city": "SANTA IRIA DE AZÓIA",
      "lon": "-9.089169619878747",
      "lat": "38.85736844429382"
    },
    {
      "id": "pt.ine.add.PTCONT.2302448",
      "street": "R RAINHA SANTA",
      "house": "9",
      "postcode": "2690-429",
      "city": "SANTA IRIA DE AZÓIA",
      "lon": "-9.089317800469836",
      "lat": "38.855529659367924"
    },
    {
      "id": "pt.ine.add.PTCONT.2744430",
      "street": "R RAINHA SANTA",
      "house": "20",
      "postcode": "2690-429",
      "city": "SANTA IRIA DE AZÓIA",
      "lon": "-9.089012941517886",
      "lat": "38.855991547978185"
    },
    {
      "id": "pt.ine.add.PTCONT.2753928",
      "street": "R RAINHA SANTA",
      "house": "5",
      "postcode": "2690-429",
      "city": "SANTA IRIA DE AZÓIA",
      "lon": "-9.088662537366151",
      "lat": "38.85735457888091"
    },
    {
      "id": "pt.ine.add.PTCONT.2815561",
      "street": "R MIRADOURO DA SERRA",
      "house": "3",
      "postcode": "2690-428",
      "city": "SANTA IRIA DE AZÓIA",
      "lon": "-9.088676467297981",
      "lat": "38.85753461898134"
    },
    {
      "id": "pt.ine.add.PTCONT.2869745",
      "street": "R RAINHA SANTA",
      "house": "2",
      "postcode": "2690-429",
      "city": "SANTA IRIA DE AZÓIA",
      "lon": "-9.088036890931601",
      "lat": "38.85708946504265"
    }
  ]
}