{
  "data": {
    "distrito": "Porto",
    "concelho": "Amarante",
    "freguesia": "União das freguesias de Amarante (São Gonçalo), Madalena, Cepelos e Gatão",
    "OBJECTID": 1566,
    "BGRI2021": "13014201017",
    "DT21": "13",
    "DTMN21": "1301",
    "DTMNFR21": "130142",
    "DTMNFRSEC21": "130142010",
    "SECNUM21": "010",
    "SSNUM21": "17",
    "SECSSNUM21": "01017",
    "OBJECTID_1": 126327,
    "DT": "13",
    "CC": "01",
    "fr": "42",
    "SEC": "010",
    "SS": "17"
  },
  "addresses": [
    {
      "id": "pt.ine.add.PTCONT.3565846",
      "street": "R PEDREIRO",
      "house": "",
      "postcode": "4600-632",
      "city": "GATÃO",
      "lon": "-8.067903338398875",
      "lat": "41.289022945904364"
    },
    {
      "id": "pt.ine.add.PTCONT.3583963",
      "street": "R RIBEIRO",
      "house": "277",
      "postcode": "4600-632",
      "city": "GATÃO",
      "lon": "-8.066599900698696",
      "lat": "41.29119220765223"
    },
    {
      "id": "pt.ine.add.PTCONT.3623512",
      "street": "AV TEIXEIRA DE PASCOAES",
      "house": "1344",
      "postcode": "4600-632",
      "city": "GATÃO",
      "lon": "-8.071786209201576",
      "lat": "41.291051903558916"
    },
    {
      "id": "pt.ine.add.PTCONT.3636518",
      "street": "R CABINE",
      "house": "110",
      "postcode": "4600-635",
      "city": "GATÃO",
      "lon": "-8.067875507252733",
      "lat": "41.29299377293442"
    },
    {
      "id": "pt.ine.add.PTCONT.3684937",
      "street": "AV TEIXEIRA DE PASCOAES",
      "house": "1008",
      "postcode": "4600-632",
      "city": "GATÃO",
      "lon": "-8.072309394814816",
      "lat": "41.287989876170634"
    },
    {
      "id": "pt.ine.add.PTCONT.3695510",
      "street": "R CASAIS",
      "house": "",
      "postcode": "4600-631",
      "city": "GATÃO",
      "lon": "-8.068114537883584",
      "lat": "41.290764036226754"
    },
    {
      "id": "pt.ine.add.PTCONT.3695511",
      "street": "R CAPELINHA",
      "house": "",
      "postcode": "4600-632",
      "city": "GATÃO",
      "lon": "-8.069695256692693",
      "lat": "41.287754357123205"
    },
    {
      "id": "pt.ine.add.PTCONT.3707771",
      "street": "R RIBEIRO",
      "house": "405",
      "postcode": "4600-632",
      "city": "GATÃO",
      "lon": "-8.066706943875236",
      "lat": "41.29158845327861"
    },
    {
      "id": "pt.ine.add.PTCONT.3714275",
      "street": "R VAU",
      "house": "87",
      "postcode": "4600-635",
      "city": "GATÃO",
      "lon": "-8.06555863821807",
      "lat": "41.293739783279044"
    },
    {
      "id": "pt.ine.add.PTCONT.3743389",
      "street": "AV TEIXEIRA DE PASCOAES",
      "house": "1228",
      "postcode": "4600-632",
      "city": "GATÃO",
      "lon": "-8.072047467507753",
      "lat": "41.289916968345736"
    },
    {
      "id": "pt.ine.add.PTCONT.3765779",
      "street": "R CASAIS",
      "house": "92",
      "postcode": "4600-631",
      "city": "GATÃO",
      "lon": "-8.071234819668113",
      "lat": "41.28817839149541"
    },
    {
      "id": "pt.ine.add.PTCONT.3841604",
      "street": "AV 25 DE ABRIL",
      "house": "4",
      "postcode": "4600-634",
      "city": "GATÃO",
      "lon": "-8.071864540926844",
      "lat": "41.29136620819379"
    },
    {
      "id": "pt.ine.add.PTCONT.3856001",
      "street": "AV TEIXEIRA DE PASCOAES",
      "house": "1344",
      "postcode": "4600-632",
      "city": "GATÃO",
      "lon": "-8.07179296920149",
      "lat": "41.29099523215738"
    },
    {
      "id": "pt.ine.add.PTCONT.3939656",
      "street": "R CABINE",
      "house": "139",
      "postcode": "4600-635",
      "city": "GATÃO",
      "lon": "-8.067409936027175",
      "lat": "41.2929574914736"
    },
    {
      "id": "pt.ine.add.PTCONT.4051416",
      "street": "R CASAIS",
      "house": "98",
      "postcode": "4600-631",
      "city": "GATÃO",
      "lon": "-8.071102967110118",
      "lat": "41.288745584067534"
    },
    {
      "id": "pt.ine.add.PTCONT.4051417",
      "street": "AV TEIXEIRA DE PASCOAES",
      "house": "1184",
      "postcode": "4600-632",
      "city": "GATÃO",
      "lon": "-8.072431756778672",
      "lat": "41.28947934504088"
    },
    {
      "id": "pt.ine.add.PTCONT.4122284",
      "street": "R CABINE",
      "house": "109",
      "postcode": "4600-635",
      "city": "GATÃO",
      "lon": "-8.067433614641576",
      "lat": "41.29315559684444"
    },
    {
      "id": "pt.ine.add.PTCONT.4167350",
      "street": "R PEDREIRO",
      "house": "427",
      "postcode": "4600-632",
      "city": "GATÃO",
      "lon": "-8.068345086201644",
      "lat": "41.28897817435393"
    },
    {
      "id": "pt.ine.add.PTCONT.4338183",
      "street": "AV 25 DE ABRIL",
      "house": "16",
      "postcode": "4600-634",
      "city": "GATÃO",
      "lon": "-8.071840596824758",
      "lat": "41.29143822887829"
    },
    {
      "id": "pt.ine.add.PTCONT.4343451",
      "street": "AV TEIXEIRA DE PASCOAES",
      "house": "1068",
      "postcode": "4600-632",
      "city": "GATÃO",
      "lon": "-8.072284125231825",
      "lat": "41.28861176733731"
    },
    {
      "id": "pt.ine.add.PTCONT.4375692",
      "street": "AV TEIXEIRA DE PASCOAES",
      "house": "1344",
      "postcode": "4600-632",
      "city": "GATÃO",
      "lon": "-8.071788210474457",
      "lat": "41.29068809797642"
    }
  ]
}