{
  "data": {
    "distrito": "Braga",
    "concelho": "Barcelos",
    "freguesia": "União das freguesias de Sequeade e Bastuço (São João e Santo Estevão)",
    "OBJECTID": 663,
    "BGRI2021": "0302FD00131",
    "DT21": "03",
    "DTMN21": "0302",
    "DTMNFR21": "0302FD",
    "DTMNFRSEC21": "0302FD001",
    "SECNUM21": "001",
    "SSNUM21": "31",
    "SECSSNUM21": "00131",
    "OBJECTID_1": 20318,
    "DT": "03",
    "CC": "02",
    "fr": "FD",
    "SEC": "001",
    "SS": "31"
  },
  "addresses": [
    {
      "id": "pt.ine.add.PTCONT.497604",
      "street": "R LAVANDEIRA",
      "house": "123",
      "postcode": "4755-084",
      "city": "BASTUÇO (SANTO ESTEVÃO)",
      "lon": "-8.509567458510046",
      "lat": "41.512246889702595"
    },
    {
      "id": "pt.ine.add.PTCONT.583122",
      "street": "TV LAVANDEIRA",
      "house": "91",
      "postcode": "4755-084",
      "city": "BASTUÇO (SANTO ESTEVÃO)",
      "lon": "-8.50888410576576",
      "lat": "41.51215008258648"
    },
    {
      "id": "pt.ine.add.PTCONT.651265",
      "street": "TV LAVANDEIRA",
      "house": "140",
      "postcode": "4755-084",
      "city": "BASTUÇO (SANTO ESTEVÃO)",
      "lon": "-8.509589276831182",
      "lat": "41.5118776621415"
    },
    {
      "id": "pt.ine.add.PTCONT.661038",
      "street": "TV LAVANDEIRA",
      "house": "131",
      "postcode": "4755-084",
      "city": "BASTUÇO (SANTO ESTEVÃO)",
      "lon": "-8.509350123352712",
      "lat": "41.51195047522188"
    },
    {
      "id": "pt.ine.add.PTCONT.673041",
      "street": "R LAVANDEIRA",
      "house": "141",
      "postcode": "4755-084",
      "city": "BASTUÇO (SANTO ESTEVÃO)",
      "lon": "-8.50988999301776",
      "lat": "41.512092768766685"
    },
    {
      "id": "pt.ine.add.PTCONT.678524",
      "street": "TV LAVANDEIRA",
      "house": "111",
      "postcode": "4755-084",
      "city": "BASTUÇO (SANTO ESTEVÃO)",
      "lon": "-8.50909899078039",
      "lat": "41.5120233269672"
    },
    {
      "id": "pt.ine.add.PTCONT.736819",
      "street": "R LAVANDEIRA",
      "house": "177",
      "postcode": "4755-084",
      "city": "BASTUÇO (SANTO ESTEVÃO)",
      "lon": "-8.510189248170851",
      "lat": "41.51205577276008"
    },
    {
      "id": "pt.ine.add.PTCONT.789976",
      "street": "R LAVANDEIRA",
      "house": "91",
      "postcode": "4755-084",
      "city": "BASTUÇO (SANTO ESTEVÃO)",
      "lon": "-8.509018422473147",
      "lat": "41.51259083023838"
    },
    {
      "id": "pt.ine.add.PTCONT.820916",
      "street": "TV LAVANDEIRA",
      "house": "51",
      "postcode": "4755-084",
      "city": "BASTUÇO (SANTO ESTEVÃO)",
      "lon": "-8.508405794666785",
      "lat": "41.5122957053266"
    },
    {
      "id": "pt.ine.add.PTCONT.841458",
      "street": "R LAVANDEIRA",
      "house": "191",
      "postcode": "4755-084",
      "city": "BASTUÇO (SANTO ESTEVÃO)",
      "lon": "-8.51039220405356",
      "lat": "41.51193805764468"
    }
  ]
}