{
  "data": {
    "distrito": "Coimbra",
    "concelho": "Arganil",
    "freguesia": "Celavisa",
    "OBJECTID": 34,
    "BGRI2021": "06010500113",
    "DT21": "06",
    "DTMN21": "0601",
    "DTMNFR21": "060105",
    "DTMNFRSEC21": "060105001",
    "SECNUM21": "001",
    "SSNUM21": "13",
    "SECSSNUM21": "00113",
    "OBJECTID_1": 47431,
    "DT": "06",
    "CC": "01",
    "fr": "05",
    "SEC": "001",
    "SS": "13"
  },
  "addresses": [
    {
      "id": "pt.ine.add.PTCONT.1107719",
      "street": "R JOSE CAETANO DA COSTA",
      "house": "",
      "postcode": "3300-204",
      "city": "CELAVISA",
      "lon": "-8.052985930019448",
      "lat": "40.18960591234007"
    },
    {
      "id": "pt.ine.add.PTCONT.1110216",
      "street": "EM 542",
      "house": "",
      "postcode": "3300-204",
      "city": "CELAVISA",
      "lon": "-8.051071651296814",
      "lat": "40.189748666110525"
    },
    {
      "id": "pt.ine.add.PTCONT.1120447",
      "street": "R JOSE CAETANO DA COSTA",
      "house": "",
      "postcode": "3300-204",
      "city": "CELAVISA",
      "lon": "-8.053796499619125",
      "lat": "40.18934529931981"
    },
    {
      "id": "pt.ine.add.PTCONT.1133106",
      "street": "CAM SOITO",
      "house": "",
      "postcode": "3300-204",
      "city": "CELAVISA",
      "lon": "-8.053925724233146",
      "lat": "40.189300358264745"
    },
    {
      "id": "pt.ine.add.PTCONT.1174667",
      "street": "R JOSE CAETANO DA COSTA",
      "house": "",
      "postcode": "3300-204",
      "city": "CELAVISA",
      "lon": "-8.055217888890995",
      "lat": "40.18891398102527"
    },
    {
      "id": "pt.ine.add.PTCONT.1198085",
      "street": "R JOSE CACTANO DA COSTA",
      "house": "",
      "postcode": "3300-204",
      "city": "CELAVISA",
      "lon": "-8.05560543395478",
      "lat": "40.18888722340623"
    },
    {
      "id": "pt.ine.add.PTCONT.1198899",
      "street": "R JOSE CAETANO COSTA",
      "house": "",
      "postcode": "3300-204",
      "city": "CELAVISA",
      "lon": "-8.053761176373827",
      "lat": "40.189426328235136"
    },
    {
      "id": "pt.ine.add.PTCONT.1214633",
      "street": "R JOSE CAETANO DA COSTA",
      "house": "",
      "postcode": "3300-204",
      "city": "CELAVISA",
      "lon": "-8.055405784894521",
      "lat": "40.18890510138544"
    },
    {
      "id": "pt.ine.add.PTCONT.1232422",
      "street": "",
      "house": "",
      "postcode": "3300-204",
      "city": "CELAVISA",
      "lon": "-8.05369134891552",
      "lat": "40.1888859262024"
    },
    {
      "id": "pt.ine.add.PTCONT.1253873",
      "street": "R JOSE CAETANO DA COSTA",
      "house": "",
      "postcode": "3300-204",
      "city": "CELAVISA",
      "lon": "-8.053984533037521",
      "lat": "40.18921934535094"
    },
    {
      "id": "pt.ine.add.PTCONT.1262726",
      "street": "R JOSE CAETANO DA COSTA",
      "house": "",
      "postcode": "3300-204",
      "city": "CELAVISA",
      "lon": "-8.053643830995298",
      "lat": "40.18935420053192"
    },
    {
      "id": "pt.ine.add.PTCONT.1302269",
      "street": "R JOSE CAETANO DA COSTA",
      "house": "",
      "postcode": "3300-204",
      "city": "CELAVISA",
      "lon": "-8.055957770576857",
      "lat": "40.188842429225765"
    },
    {
      "id": "pt.ine.add.PTCONT.1311045",
      "street": "R JOSE CAETANO DA COSTA",
      "house": "",
      "postcode": "3300-204",
      "city": "CELAVISA",
      "lon": "-8.055781597210048",
      "lat": "40.18886932939826"
    },
    {
      "id": "pt.ine.add.PTCONT.1318937",
      "street": "R JOSE CAETANO COSTA",
      "house": "",
      "postcode": "3300-204",
      "city": "CELAVISA",
      "lon": "-8.053866841925597",
      "lat": "40.18944441241227"
    },
    {
      "id": "pt.ine.add.PTCONT.1349934",
      "street": "R JOSE CAETANO DA COSTA",
      "house": "",
      "postcode": "3300-204",
      "city": "CELAVISA",
      "lon": "-8.055100419043862",
      "lat": "40.18894992554431"
    },
    {
      "id": "pt.ine.add.PTCONT.1355431",
      "street": "R JOSE CAETANO DA COSTA",
      "house": "",
      "postcode": "3300-204",
      "city": "CELAVISA",
      "lon": "-8.0539608169217",
      "lat": "40.189417458990604"
    }
  ]
}