{
  "data": {
    "distrito": "Coimbra",
    "concelho": "Condeixa-A-Nova",
    "freguesia": "União das freguesias de Condeixa-a-Velha e Condeixa-a-Nova",
    "OBJECTID": 92,
    "BGRI2021": "06041100105",
    "DT21": "06",
    "DTMN21": "0604",
    "DTMNFR21": "060411",
    "DTMNFRSEC21": "060411001",
    "SECNUM21": "001",
    "SSNUM21": "05",
    "SECSSNUM21": "00105",
    "OBJECTID_1": 50301,
    "DT": "06",
    "CC": "04",
    "fr": "11",
    "SEC": "001",
    "SS": "05"
  },
  "addresses": [
    {
      "id": "pt.ine.add.PTCONT.1108646",
      "street": "PCT DAS GEMINACÕES",
      "house": "51",
      "postcode": "3150-152",
      "city": "CONDEIXA-A-NOVA",
      "lon": "-8.500404144315059",
      "lat": "40.107851193152214"
    },
    {
      "id": "pt.ine.add.PTCONT.1131650",
      "street": "URB DA FAIA",
      "house": "21",
      "postcode": "3150-152",
      "city": "CONDEIXA-A-NOVA",
      "lon": "-8.500699907572404",
      "lat": "40.10887500597121"
    },
    {
      "id": "pt.ine.add.PTCONT.1131651",
      "street": "URB DA FAIA",
      "house": "21",
      "postcode": "3150-152",
      "city": "CONDEIXA-A-NOVA",
      "lon": "-8.500699907572404",
      "lat": "40.10887500597121"
    },
    {
      "id": "pt.ine.add.PTCONT.1131652",
      "street": "R DAS GEMINAÇÕES",
      "house": "19",
      "postcode": "3150-152",
      "city": "CONDEIXA-A-NOVA",
      "lon": "-8.50083258466928",
      "lat": "40.109002717642504"
    },
    {
      "id": "pt.ine.add.PTCONT.1131653",
      "street": "R DAS GEMINAÇÕES",
      "house": "19",
      "postcode": "3150-152",
      "city": "CONDEIXA-A-NOVA",
      "lon": "-8.50083258466928",
      "lat": "40.109002717642504"
    },
    {
      "id": "pt.ine.add.PTCONT.1133807",
      "street": "PCT DAS GEMINACÕES",
      "house": "56",
      "postcode": "3150-152",
      "city": "CONDEIXA-A-NOVA",
      "lon": "-8.500476631105952",
      "lat": "40.10827219633627"
    },
    {
      "id": "pt.ine.add.PTCONT.1165826",
      "street": "PCT DAS GEMINACÕES",
      "house": "53",
      "postcode": "3150-152",
      "city": "CONDEIXA-A-NOVA",
      "lon": "-8.50022606131695",
      "lat": "40.1079755614066"
    },
    {
      "id": "pt.ine.add.PTCONT.1201934",
      "street": "PCT DAS GEMINACÕES",
      "house": "49",
      "postcode": "3150-152",
      "city": "CONDEIXA-A-NOVA",
      "lon": "-8.50059703841877",
      "lat": "40.107663503281294"
    },
    {
      "id": "pt.ine.add.PTCONT.1216072",
      "street": "PCT DAS GEMINACÕES",
      "house": "52",
      "postcode": "3150-152",
      "city": "CONDEIXA-A-NOVA",
      "lon": "-8.500325315486206",
      "lat": "40.10790764323759"
    },
    {
      "id": "pt.ine.add.PTCONT.1216073",
      "street": "R DAS GEMINAÇÕES",
      "house": "",
      "postcode": "3150-152",
      "city": "CONDEIXA-A-NOVA",
      "lon": "-8.500582224363102",
      "lat": "40.10877391693566"
    },
    {
      "id": "pt.ine.add.PTCONT.1221634",
      "street": "R LONGJUMEAU POSTO DA GNR",
      "house": "",
      "postcode": "3150-122",
      "city": "CONDEIXA-A-NOVA",
      "lon": "-8.499808973471085",
      "lat": "40.10838203641619"
    },
    {
      "id": "pt.ine.add.PTCONT.1221635",
      "street": "R LONGJUMEAU POSTO DA GNR",
      "house": "",
      "postcode": "3150-122",
      "city": "CONDEIXA-A-NOVA",
      "lon": "-8.499808973471085",
      "lat": "40.10838203641619"
    },
    {
      "id": "pt.ine.add.PTCONT.1234170",
      "street": "PCT DAS GEMINACÕES",
      "house": "50",
      "postcode": "3150-152",
      "city": "CONDEIXA-A-NOVA",
      "lon": "-8.500485790787092",
      "lat": "40.10779461789836"
    },
    {
      "id": "pt.ine.add.PTCONT.1269343",
      "street": "URB DA FAIA",
      "house": "23",
      "postcode": "3150-152",
      "city": "CONDEIXA-A-NOVA",
      "lon": "-8.500496849877486",
      "lat": "40.108718103821545"
    },
    {
      "id": "pt.ine.add.PTCONT.1270437",
      "street": "R DAS GEMINAÇÕES",
      "house": "20",
      "postcode": "3150-152",
      "city": "CONDEIXA-A-NOVA",
      "lon": "-8.500767926604402",
      "lat": "40.1089331552454"
    },
    {
      "id": "pt.ine.add.PTCONT.1273478",
      "street": "PCT DAS GEMINACÕES",
      "house": "55",
      "postcode": "3150-152",
      "city": "CONDEIXA-A-NOVA",
      "lon": "-8.500403185737994",
      "lat": "40.10822511895403"
    },
    {
      "id": "pt.ine.add.PTCONT.1323870",
      "street": "PCT DAS GEMINACÕES",
      "house": "54",
      "postcode": "3150-152",
      "city": "CONDEIXA-A-NOVA",
      "lon": "-8.500326647577213",
      "lat": "40.10815536251827"
    },
    {
      "id": "pt.ine.add.PTCONT.1365438",
      "street": "R DAS GEMINAÇÕES",
      "house": "20",
      "postcode": "3150-152",
      "city": "CONDEIXA-A-NOVA",
      "lon": "-8.500767926604402",
      "lat": "40.1089331552454"
    },
    {
      "id": "pt.ine.add.PTCONT.1366270",
      "street": "URB DA FAIA",
      "house": "",
      "postcode": "3150-152",
      "city": "CONDEIXA-A-NOVA",
      "lon": "-8.500402721108745",
      "lat": "40.108634835702404"
    }
  ]
}