{
  "data": {
    "distrito": "Coimbra",
    "concelho": "Condeixa-A-Nova",
    "freguesia": "União das freguesias de Condeixa-a-Velha e Condeixa-a-Nova",
    "OBJECTID": 297,
    "BGRI2021": "06041100109",
    "DT21": "06",
    "DTMN21": "0604",
    "DTMNFR21": "060411",
    "DTMNFRSEC21": "060411001",
    "SECNUM21": "001",
    "SSNUM21": "09",
    "SECSSNUM21": "00109",
    "OBJECTID_1": 50304,
    "DT": "06",
    "CC": "04",
    "fr": "11",
    "SEC": "001",
    "SS": "09"
  },
  "addresses": [
    {
      "id": "pt.ine.add.PTCONT.1142994",
      "street": "R PRINCIPAL",
      "house": "3",
      "postcode": "3150-220",
      "city": "CONDEIXA-A-VELHA",
      "lon": "-8.493729226454773",
      "lat": "40.1042907435022"
    },
    {
      "id": "pt.ine.add.PTCONT.1199943",
      "street": "R PRINCIPAL",
      "house": "13",
      "postcode": "3150-220",
      "city": "CONDEIXA-A-VELHA",
      "lon": "-8.493715345122936",
      "lat": "40.10610422403164"
    },
    {
      "id": "pt.ine.add.PTCONT.1203203",
      "street": "URB ORDELAO",
      "house": "6",
      "postcode": "3150-220",
      "city": "CONDEIXA-A-VELHA",
      "lon": "-8.493082000316083",
      "lat": "40.10601936454824"
    },
    {
      "id": "pt.ine.add.PTCONT.1221536",
      "street": "R DR SIMÃO DA CUNHA",
      "house": "",
      "postcode": "3150-140",
      "city": "CONDEIXA-A-NOVA",
      "lon": "-8.496054668184057",
      "lat": "40.10919106638669"
    },
    {
      "id": "pt.ine.add.PTCONT.1261475",
      "street": "URB ORDELAO",
      "house": "8",
      "postcode": "3150-220",
      "city": "CONDEIXA-A-VELHA",
      "lon": "-8.49317479187202",
      "lat": "40.10611677234589"
    },
    {
      "id": "pt.ine.add.PTCONT.1281393",
      "street": "URB ORDELAO",
      "house": "",
      "postcode": "3150-220",
      "city": "CONDEIXA-A-VELHA",
      "lon": "-8.493971324427282",
      "lat": "40.10634386455034"
    },
    {
      "id": "pt.ine.add.PTCONT.1297000",
      "street": "R PRINCIPAL",
      "house": "1",
      "postcode": "3150-220",
      "city": "CONDEIXA-A-VELHA",
      "lon": "-8.49384987868159",
      "lat": "40.10622784928196"
    },
    {
      "id": "pt.ine.add.PTCONT.1323005",
      "street": "URB ORDELÃO",
      "house": "10",
      "postcode": "3150-220",
      "city": "CONDEIXA-A-VELHA",
      "lon": "-8.493482668495606",
      "lat": "40.10637886487322"
    },
    {
      "id": "pt.ine.add.PTCONT.1334126",
      "street": "URB ORDELAO",
      "house": "",
      "postcode": "3150-220",
      "city": "CONDEIXA-A-VELHA",
      "lon": "-8.493199310267844",
      "lat": "40.10652757878154"
    }
  ]
}