{
  "data": {
    "distrito": "Guarda",
    "concelho": "Fornos de Algodres",
    "freguesia": "Matança",
    "OBJECTID": 147,
    "BGRI2021": "09051000106",
    "DT21": "09",
    "DTMN21": "0905",
    "DTMNFR21": "090510",
    "DTMNFRSEC21": "090510001",
    "SECNUM21": "001",
    "SSNUM21": "06",
    "SECSSNUM21": "00106",
    "OBJECTID_1": 76962,
    "DT": "09",
    "CC": "05",
    "fr": "10",
    "SEC": "001",
    "SS": "06"
  },
  "addresses": [
    {
      "id": "pt.ine.add.PTCONT.1900131",
      "street": "LG DA CARREIRA",
      "house": "",
      "postcode": "6370-353",
      "city": "MATANÇA",
      "lon": "-7.530201228532357",
      "lat": "40.68049923698351"
    },
    {
      "id": "pt.ine.add.PTCONT.1909016",
      "street": "R DAS FONTAÍNHAS",
      "house": "33",
      "postcode": "6370-353",
      "city": "MATANÇA",
      "lon": "-7.528074157595928",
      "lat": "40.68157772190601"
    },
    {
      "id": "pt.ine.add.PTCONT.1909017",
      "street": "R DAS FONTAÍNHAS",
      "house": "33",
      "postcode": "6370-353",
      "city": "MATANÇA",
      "lon": "-7.528074157595928",
      "lat": "40.68157772190601"
    },
    {
      "id": "pt.ine.add.PTCONT.1909018",
      "street": "R DAS FONTAÍNHAS",
      "house": "33",
      "postcode": "6370-353",
      "city": "MATANÇA",
      "lon": "-7.528074157595928",
      "lat": "40.68157772190601"
    },
    {
      "id": "pt.ine.add.PTCONT.1909019",
      "street": "R DAS FONTAÍNHAS",
      "house": "33",
      "postcode": "6370-353",
      "city": "MATANÇA",
      "lon": "-7.528074157595928",
      "lat": "40.68157772190601"
    },
    {
      "id": "pt.ine.add.PTCONT.1912098",
      "street": "LG DA VILA",
      "house": "3",
      "postcode": "6370-353",
      "city": "MATANÇA",
      "lon": "-7.529704017435682",
      "lat": "40.68185640338357"
    },
    {
      "id": "pt.ine.add.PTCONT.1914757",
      "street": "R DAS FONTAÍNHAS",
      "house": "39",
      "postcode": "6370-353",
      "city": "MATANÇA",
      "lon": "-7.528428923105112",
      "lat": "40.68158858555807"
    },
    {
      "id": "pt.ine.add.PTCONT.1924797",
      "street": "R DA CADEIA",
      "house": "3",
      "postcode": "6370-353",
      "city": "MATANÇA",
      "lon": "-7.529455461052781",
      "lat": "40.6818731141861"
    },
    {
      "id": "pt.ine.add.PTCONT.1925710",
      "street": "R DO PEDREGAL",
      "house": "7",
      "postcode": "6370-353",
      "city": "MATANÇA",
      "lon": "-7.5302755879523895",
      "lat": "40.681436151455536"
    },
    {
      "id": "pt.ine.add.PTCONT.1931732",
      "street": "LG DO PELOURINHO",
      "house": "1",
      "postcode": "6370-353",
      "city": "MATANÇA",
      "lon": "-7.529302099651943",
      "lat": "40.681827286942166"
    },
    {
      "id": "pt.ine.add.PTCONT.1934865",
      "street": "LG DO CASTELO",
      "house": "5",
      "postcode": "6370-353",
      "city": "MATANÇA",
      "lon": "-7.530660819734284",
      "lat": "40.680690742326576"
    },
    {
      "id": "pt.ine.add.PTCONT.1936817",
      "street": "R DAS FONTAÍNHAS",
      "house": "49",
      "postcode": "6370-353",
      "city": "MATANÇA",
      "lon": "-7.5290186275255415",
      "lat": "40.68178077878985"
    },
    {
      "id": "pt.ine.add.PTCONT.1942016",
      "street": "R DA CADEIA",
      "house": "1",
      "postcode": "6370-353",
      "city": "MATANÇA",
      "lon": "-7.529550818347427",
      "lat": "40.6817925672019"
    },
    {
      "id": "pt.ine.add.PTCONT.1942020",
      "street": "",
      "house": "",
      "postcode": "6370-353",
      "city": "MATANÇA",
      "lon": "-7.527590464906246",
      "lat": "40.67751390358499"
    },
    {
      "id": "pt.ine.add.PTCONT.1946886",
      "street": "R DAS FONTAÍNHAS",
      "house": "35",
      "postcode": "6370-353",
      "city": "MATANÇA",
      "lon": "-7.528204023901275",
      "lat": "40.68160541756792"
    },
    {
      "id": "pt.ine.add.PTCONT.1953970",
      "street": "LG DA VILA",
      "house": "5",
      "postcode": "6370-353",
      "city": "MATANÇA",
      "lon": "-7.529858109833738",
      "lat": "40.6818211883912"
    },
    {
      "id": "pt.ine.add.PTCONT.1956668",
      "street": "R DAS FONTAÍNHAS",
      "house": "47",
      "postcode": "6370-353",
      "city": "MATANÇA",
      "lon": "-7.528947820535831",
      "lat": "40.681762398169056"
    },
    {
      "id": "pt.ine.add.PTCONT.1964560",
      "street": "R DAS FONTAÍNHAS",
      "house": "45",
      "postcode": "6370-353",
      "city": "MATANÇA",
      "lon": "-7.52886526664188",
      "lat": "40.68173495096856"
    },
    {
      "id": "pt.ine.add.PTCONT.1973569",
      "street": "R DAS FONTAÍNHAS",
      "house": "31",
      "postcode": "6370-353",
      "city": "MATANÇA",
      "lon": "-7.527814588227069",
      "lat": "40.68150432088392"
    },
    {
      "id": "pt.ine.add.PTCONT.1977908",
      "street": "R DAS FONTAÍNHAS",
      "house": "43",
      "postcode": "6370-353",
      "city": "MATANÇA",
      "lon": "-7.528747228056215",
      "lat": "40.681707317964694"
    },
    {
      "id": "pt.ine.add.PTCONT.1851013",
      "street": "",
      "house": "",
      "postcode": "6370-353",
      "city": "MATANÇA",
      "lon": "-7.526493682017811",
      "lat": "40.67846268293678"
    },
    {
      "id": "pt.ine.add.PTCONT.1854831",
      "street": "LG DO CASTELO",
      "house": "",
      "postcode": "6370-353",
      "city": "MATANÇA",
      "lon": "-7.5306852055059075",
      "lat": "40.68060982402901"
    },
    {
      "id": "pt.ine.add.PTCONT.1855965",
      "street": "R DO PEDREGAL",
      "house": "3",
      "postcode": "6370-353",
      "city": "MATANÇA",
      "lon": "-7.530166780997697",
      "lat": "40.68169672997795"
    },
    {
      "id": "pt.ine.add.PTCONT.1856805",
      "street": "R DAS FONTAÍNHAS",
      "house": "41",
      "postcode": "6370-353",
      "city": "MATANÇA",
      "lon": "-7.528593623472299",
      "lat": "40.6816885036809"
    },
    {
      "id": "pt.ine.add.PTCONT.1878672",
      "street": "LG DA CARREIRA",
      "house": "34",
      "postcode": "6370-353",
      "city": "MATANÇA",
      "lon": "-7.53051904498546",
      "lat": "40.680671992332755"
    },
    {
      "id": "pt.ine.add.PTCONT.1881499",
      "street": "R DO PEDREGAL",
      "house": "5",
      "postcode": "6370-353",
      "city": "MATANÇA",
      "lon": "-7.53026254282925",
      "lat": "40.68157115922126"
    },
    {
      "id": "pt.ine.add.PTCONT.1886416",
      "street": "LG DA CARREIRA",
      "house": "1",
      "postcode": "6370-353",
      "city": "MATANÇA",
      "lon": "-7.529914514495467",
      "lat": "40.680812916498176"
    },
    {
      "id": "pt.ine.add.PTCONT.1889386",
      "street": "R DAS FONTAÍNHAS",
      "house": "51",
      "postcode": "6370-353",
      "city": "MATANÇA",
      "lon": "-7.529007612231781",
      "lat": "40.681690670573964"
    },
    {
      "id": "pt.ine.add.PTCONT.1893430",
      "street": "R ALVARO BOLETO",
      "house": "",
      "postcode": "6370-353",
      "city": "MATANÇA",
      "lon": "-7.52733694346962",
      "lat": "40.67677415839552"
    },
    {
      "id": "pt.ine.add.PTCONT.1896979",
      "street": "R DA CADEIA",
      "house": "5",
      "postcode": "6370-353",
      "city": "MATANÇA",
      "lon": "-7.529561834388464",
      "lat": "40.68188267536969"
    }
  ]
}