{
  "data": {
    "distrito": "Aveiro",
    "concelho": "Oliveira de Azem√©is",
    "freguesia": "Ossela",
    "OBJECTID": 140,
    "BGRI2021": "01131000206",
    "DT21": "01",
    "DTMN21": "0113",
    "DTMNFR21": "011310",
    "DTMNFRSEC21": "011310002",
    "SECNUM21": "002",
    "SSNUM21": "06",
    "SECSSNUM21": "00206",
    "OBJECTID_1": 9063,
    "DT": "01",
    "CC": "13",
    "fr": "10",
    "SEC": "002",
    "SS": "06"
  },
  "addresses": [
    {
      "id": "pt.ine.add.PTCONT.296505",
      "street": "R ESCAIBA",
      "house": "65",
      "postcode": "3720-180",
      "city": "OSSELA",
      "lon": "-8.419989734014147",
      "lat": "40.81554049162342"
    },
    {
      "id": "pt.ine.add.PTCONT.309495",
      "street": "R ESCAIBA",
      "house": "258",
      "postcode": "3720-180",
      "city": "OSSELA",
      "lon": "-8.420154970423557",
      "lat": "40.81537799230676"
    },
    {
      "id": "pt.ine.add.PTCONT.312805",
      "street": "R MOSTEIRO",
      "house": "",
      "postcode": "3720-180",
      "city": "OSSELA",
      "lon": "-8.420489637443747",
      "lat": "40.816025512579124"
    },
    {
      "id": "pt.ine.add.PTCONT.41765",
      "street": "R MIRA CAIMA",
      "house": "",
      "postcode": "3720-180",
      "city": "OSSELA",
      "lon": "-8.420269719040391",
      "lat": "40.81725072740723"
    },
    {
      "id": "pt.ine.add.PTCONT.60290",
      "street": "R MIRA CAIMA",
      "house": "34",
      "postcode": "3720-180",
      "city": "OSSELA",
      "lon": "-8.420575598584367",
      "lat": "40.81671867625944"
    },
    {
      "id": "pt.ine.add.PTCONT.119499",
      "street": "R LUIS CAETANO DA SILVA",
      "house": "118",
      "postcode": "3720-180",
      "city": "OSSELA",
      "lon": "-8.422485720765808",
      "lat": "40.8144086449213"
    },
    {
      "id": "pt.ine.add.PTCONT.130929",
      "street": "R ESCAIBA",
      "house": "7",
      "postcode": "3720-180",
      "city": "OSSELA",
      "lon": "-8.420689848223954",
      "lat": "40.8157278517766"
    },
    {
      "id": "pt.ine.add.PTCONT.153629",
      "street": "R MOSTEIRO",
      "house": "44",
      "postcode": "3720-180",
      "city": "OSSELA",
      "lon": "-8.420573616181509",
      "lat": "40.8162594309621"
    },
    {
      "id": "pt.ine.add.PTCONT.158383",
      "street": "R MIRA CAIMA",
      "house": "90",
      "postcode": "3720-180",
      "city": "OSSELA",
      "lon": "-8.420306248347696",
      "lat": "40.81747575911587"
    },
    {
      "id": "pt.ine.add.PTCONT.185689",
      "street": "R ESCAIBA",
      "house": "",
      "postcode": "3720-180",
      "city": "OSSELA",
      "lon": "-8.420357549987662",
      "lat": "40.8156296255667"
    },
    {
      "id": "pt.ine.add.PTCONT.185775",
      "street": "RAMP VALADO",
      "house": "70",
      "postcode": "3720-180",
      "city": "OSSELA",
      "lon": "-8.42027142759763",
      "lat": "40.81764693898075"
    },
    {
      "id": "pt.ine.add.PTCONT.266380",
      "street": "R MIRA CAIMA",
      "house": "70",
      "postcode": "3720-180",
      "city": "OSSELA",
      "lon": "-8.420493095921687",
      "lat": "40.816826940661656"
    },
    {
      "id": "pt.ine.add.PTCONT.269726",
      "street": "R ESCAIBA",
      "house": "331",
      "postcode": "3720-180",
      "city": "OSSELA",
      "lon": "-8.420250450242328",
      "lat": "40.81553083816657"
    },
    {
      "id": "pt.ine.add.PTCONT.269727",
      "street": "R MOSTEIRO",
      "house": "88",
      "postcode": "3720-180",
      "city": "OSSELA",
      "lon": "-8.420741380972677",
      "lat": "40.81668224346382"
    }
  ]
}