{
  "data": {
    "distrito": "Faro",
    "concelho": "Portimão",
    "freguesia": "Portimão",
    "OBJECTID": 362,
    "BGRI2021": "08110305414",
    "DT21": "08",
    "DTMN21": "0811",
    "DTMNFR21": "081103",
    "DTMNFRSEC21": "081103054",
    "SECNUM21": "054",
    "SSNUM21": "14",
    "SECSSNUM21": "05414",
    "OBJECTID_1": 71451,
    "DT": "08",
    "CC": "11",
    "fr": "03",
    "SEC": "054",
    "SS": "14"
  },
  "addresses": [
    {
      "id": "pt.ine.add.PTCONT.1479870",
      "street": "URB ALHO DA SERRA",
      "house": "",
      "postcode": "8500-477",
      "city": "PORTIMÃO",
      "lon": "-8.550451175892233",
      "lat": "37.15076499169995"
    },
    {
      "id": "pt.ine.add.PTCONT.1488388",
      "street": "URB ALHO DA SERRA",
      "house": "",
      "postcode": "8500-477",
      "city": "PORTIMÃO",
      "lon": "-8.550766802373195",
      "lat": "37.1508449746473"
    },
    {
      "id": "pt.ine.add.PTCONT.1494246",
      "street": "URB ALHO DA SERRA",
      "house": "",
      "postcode": "8500-477",
      "city": "PORTIMÃO",
      "lon": "-8.55025744059712",
      "lat": "37.15033316831362"
    },
    {
      "id": "pt.ine.add.PTCONT.1497088",
      "street": "URB ALHO DA SERRA",
      "house": "",
      "postcode": "8500-477",
      "city": "PORTIMÃO",
      "lon": "-8.5508806061568",
      "lat": "37.15106983677639"
    },
    {
      "id": "pt.ine.add.PTCONT.1520101",
      "street": "URB ALHO DA SERRA",
      "house": "",
      "postcode": "8500-477",
      "city": "PORTIMÃO",
      "lon": "-8.551399198799732",
      "lat": "37.15121217612608"
    },
    {
      "id": "pt.ine.add.PTCONT.1523858",
      "street": "URB ALHO DA SERRA",
      "house": "",
      "postcode": "8500-477",
      "city": "PORTIMÃO",
      "lon": "-8.551262979539212",
      "lat": "37.1510054146477"
    },
    {
      "id": "pt.ine.add.PTCONT.1532217",
      "street": "URB ALHO DA SERRA",
      "house": "",
      "postcode": "8500-477",
      "city": "PORTIMÃO",
      "lon": "-8.55016724108745",
      "lat": "37.150306454154006"
    },
    {
      "id": "pt.ine.add.PTCONT.1534862",
      "street": "URB ALHO DA SERRA",
      "house": "",
      "postcode": "8500-477",
      "city": "PORTIMÃO",
      "lon": "-8.550915515804194",
      "lat": "37.151276955870664"
    },
    {
      "id": "pt.ine.add.PTCONT.1576984",
      "street": "URB ALHO DA SERRA",
      "house": "",
      "postcode": "8500-477",
      "city": "PORTIMÃO",
      "lon": "-8.551488704839569",
      "lat": "37.151112744394254"
    },
    {
      "id": "pt.ine.add.PTCONT.1648748",
      "street": "URB ALHO DA SERRA",
      "house": "",
      "postcode": "8500-477",
      "city": "PORTIMÃO",
      "lon": "-8.551184779427745",
      "lat": "37.151113816859294"
    },
    {
      "id": "pt.ine.add.PTCONT.1660660",
      "street": "URB ALHO DA SERRA",
      "house": "",
      "postcode": "8500-477",
      "city": "PORTIMÃO",
      "lon": "-8.551129736900233",
      "lat": "37.15133927420907"
    },
    {
      "id": "pt.ine.add.PTCONT.1679819",
      "street": "BR NOVO DA BOAVISTA",
      "house": "",
      "postcode": "8500-477",
      "city": "PORTIMÃO",
      "lon": "-8.551036659833885",
      "lat": "37.150789960218354"
    },
    {
      "id": "pt.ine.add.PTCONT.1696770",
      "street": "URB ALHO DA SERRA",
      "house": "",
      "postcode": "8500-477",
      "city": "PORTIMÃO",
      "lon": "-8.550539394951407",
      "lat": "37.15043129144377"
    },
    {
      "id": "pt.ine.add.PTCONT.1713910",
      "street": "URB ALHO DA SERRA",
      "house": "",
      "postcode": "8500-477",
      "city": "PORTIMÃO",
      "lon": "-8.55048563852827",
      "lat": "37.15089101774965"
    },
    {
      "id": "pt.ine.add.PTCONT.1722642",
      "street": "URB ALHO DA SERRA",
      "house": "",
      "postcode": "8500-477",
      "city": "PORTIMÃO",
      "lon": "-8.551634294421788",
      "lat": "37.15097707245043"
    },
    {
      "id": "pt.ine.add.PTCONT.1722643",
      "street": "URB ALHO DA SERRA",
      "house": "",
      "postcode": "8500-477",
      "city": "PORTIMÃO",
      "lon": "-8.551634294421788",
      "lat": "37.15097707245043"
    },
    {
      "id": "pt.ine.add.PTCONT.1745873",
      "street": "URB ALHO DA SERRA",
      "house": "",
      "postcode": "8500-477",
      "city": "PORTIMÃO",
      "lon": "-8.550825414068312",
      "lat": "37.151268262931474"
    },
    {
      "id": "pt.ine.add.PTCONT.1782510",
      "street": "URB HOSPEDARIA A MEU REGRESSO",
      "house": "",
      "postcode": "8500-477",
      "city": "PORTIMÃO",
      "lon": "-8.5507764730509",
      "lat": "37.15055660363834"
    },
    {
      "id": "pt.ine.add.PTCONT.1791021",
      "street": "URB ALHO DA SERRA",
      "house": "",
      "postcode": "8500-477",
      "city": "PORTIMÃO",
      "lon": "-8.55126466642125",
      "lat": "37.15131176665568"
    }
  ]
}