{
  "data": {
    "distrito": "Faro",
    "concelho": "Portimão",
    "freguesia": "Portimão",
    "OBJECTID": 632,
    "BGRI2021": "08110305420",
    "DT21": "08",
    "DTMN21": "0811",
    "DTMNFR21": "081103",
    "DTMNFRSEC21": "081103054",
    "SECNUM21": "054",
    "SSNUM21": "20",
    "SECSSNUM21": "05420",
    "OBJECTID_1": 71340,
    "DT": "08",
    "CC": "11",
    "fr": "03",
    "SEC": "054",
    "SS": "20"
  },
  "addresses": [
    {
      "id": "pt.ine.add.PTCONT.1476783",
      "street": "R COCA MARAVILHAS",
      "house": "",
      "postcode": "8500-483",
      "city": "PORTIMÃO",
      "lon": "-8.551790911842684",
      "lat": "37.15284169836851"
    },
    {
      "id": "pt.ine.add.PTCONT.1482584",
      "street": "R VALE ARRANCADA",
      "house": "",
      "postcode": "8500-469",
      "city": "PORTIMÃO",
      "lon": "-8.554130320542637",
      "lat": "37.158564102075374"
    },
    {
      "id": "pt.ine.add.PTCONT.1543611",
      "street": "R COCA MARAVILHAS",
      "house": "",
      "postcode": "8500-483",
      "city": "PORTIMÃO",
      "lon": "-8.551305283571272",
      "lat": "37.152555076077356"
    },
    {
      "id": "pt.ine.add.PTCONT.1621971",
      "street": "URB OASIS PARK RUA DAS AMENDOEIRAS",
      "house": "",
      "postcode": "8500-443",
      "city": "PORTIMÃO",
      "lon": "-8.554433440283074",
      "lat": "37.1543551123827"
    },
    {
      "id": "pt.ine.add.PTCONT.1621972",
      "street": "URB OASIS PARK RUA DAS AMENDOEIRAS",
      "house": "",
      "postcode": "8500-443",
      "city": "PORTIMÃO",
      "lon": "-8.554433440283074",
      "lat": "37.1543551123827"
    },
    {
      "id": "pt.ine.add.PTCONT.1621973",
      "street": "URB OASIS PARK RUA DAS AMENDOEIRAS",
      "house": "",
      "postcode": "8500-443",
      "city": "PORTIMÃO",
      "lon": "-8.554433440283074",
      "lat": "37.1543551123827"
    },
    {
      "id": "pt.ine.add.PTCONT.1621974",
      "street": "URB OASIS PARK RUA DAS AMENDOEIRAS",
      "house": "",
      "postcode": "8500-443",
      "city": "PORTIMÃO",
      "lon": "-8.554433440283074",
      "lat": "37.1543551123827"
    },
    {
      "id": "pt.ine.add.PTCONT.1754733",
      "street": "R VALE ARRANCADA",
      "house": "",
      "postcode": "8500-469",
      "city": "PORTIMÃO",
      "lon": "-8.55409594818821",
      "lat": "37.158456097985315"
    },
    {
      "id": "pt.ine.add.PTCONT.1832638",
      "street": "R VALE ARRANCADA",
      "house": "",
      "postcode": "8500-469",
      "city": "PORTIMÃO",
      "lon": "-8.554107505558363",
      "lat": "37.15851012002748"
    }
  ]
}