{
  "data": {
    "distrito": "Santarém",
    "concelho": "Abrantes",
    "freguesia": "União das freguesias de São Facundo e Vale das Mós",
    "OBJECTID": 901,
    "BGRI2021": "14012300211",
    "DT21": "14",
    "DTMN21": "1401",
    "DTMNFR21": "140123",
    "DTMNFRSEC21": "140123002",
    "SECNUM21": "002",
    "SSNUM21": "11",
    "SECSSNUM21": "00211",
    "OBJECTID_1": 146624,
    "DT": "14",
    "CC": "01",
    "fr": "23",
    "SEC": "002",
    "SS": "11"
  },
  "addresses": [
    {
      "id": "pt.ine.add.PTCONT.4393401",
      "street": "R 9 DE JULHO",
      "house": "",
      "postcode": "2205-803",
      "city": "VALE DAS MÓS",
      "lon": "-8.068008985565363",
      "lat": "39.34292648125922"
    },
    {
      "id": "pt.ine.add.PTCONT.4399660",
      "street": "R CONVENTOS",
      "house": "26",
      "postcode": "2205-819",
      "city": "VALE DAS MÓS",
      "lon": "-8.066059321785511",
      "lat": "39.343826096392924"
    },
    {
      "id": "pt.ine.add.PTCONT.4410030",
      "street": "TV HENRIQUES",
      "house": "",
      "postcode": "2205-831",
      "city": "VALE DAS MÓS",
      "lon": "-8.0674635908733",
      "lat": "39.3431333409945"
    },
    {
      "id": "pt.ine.add.PTCONT.4414142",
      "street": "R 9 JULHO",
      "house": "35 A B",
      "postcode": "2205-803",
      "city": "VALE DAS MÓS",
      "lon": "-8.06590963225475",
      "lat": "39.342664078766816"
    },
    {
      "id": "pt.ine.add.PTCONT.4422257",
      "street": "TV CABEÇO",
      "house": "1",
      "postcode": "2205-828",
      "city": "VALE DAS MÓS",
      "lon": "-8.068170877412168",
      "lat": "39.34347601208468"
    },
    {
      "id": "pt.ine.add.PTCONT.4430563",
      "street": "R IGREJA",
      "house": "",
      "postcode": "2205-808",
      "city": "VALE DAS MÓS",
      "lon": "-8.065468538017017",
      "lat": "39.34297006875056"
    },
    {
      "id": "pt.ine.add.PTCONT.4453126",
      "street": "R 9 DE JULHO",
      "house": "31",
      "postcode": "2205-803",
      "city": "VALE DAS MÓS",
      "lon": "-8.066153162990759",
      "lat": "39.34273627687394"
    },
    {
      "id": "pt.ine.add.PTCONT.4455128",
      "street": "R CONVENTOS",
      "house": "4",
      "postcode": "2205-819",
      "city": "VALE DAS MÓS",
      "lon": "-8.06819331940903",
      "lat": "39.344295681483764"
    },
    {
      "id": "pt.ine.add.PTCONT.4466913",
      "street": "TV HENRIQUES",
      "house": "19",
      "postcode": "2205-831",
      "city": "VALE DAS MÓS",
      "lon": "-8.067475418376704",
      "lat": "39.34289015272996"
    },
    {
      "id": "pt.ine.add.PTCONT.4468170",
      "street": "R CONVENTOS",
      "house": "24",
      "postcode": "2205-819",
      "city": "VALE DAS MÓS",
      "lon": "-8.066383989448527",
      "lat": "39.3439703984618"
    },
    {
      "id": "pt.ine.add.PTCONT.4469434",
      "street": "R CONVENTOS",
      "house": "24 A",
      "postcode": "2205-819",
      "city": "VALE DAS MÓS",
      "lon": "-8.066383989448527",
      "lat": "39.3439703984618"
    },
    {
      "id": "pt.ine.add.PTCONT.4472292",
      "street": "R CONVENTOS",
      "house": "14",
      "postcode": "2205-819",
      "city": "VALE DAS MÓS",
      "lon": "-8.067184191127632",
      "lat": "39.34419603489559"
    },
    {
      "id": "pt.ine.add.PTCONT.4489751",
      "street": "R CORRENTEZA",
      "house": "2",
      "postcode": "2205-805",
      "city": "VALE DAS MÓS",
      "lon": "-8.068646788064678",
      "lat": "39.34314300951274"
    },
    {
      "id": "pt.ine.add.PTCONT.4500038",
      "street": "R CORRENTEZA",
      "house": "2",
      "postcode": "2205-805",
      "city": "VALE DAS MÓS",
      "lon": "-8.067985375954333",
      "lat": "39.34336782181257"
    },
    {
      "id": "pt.ine.add.PTCONT.4504916",
      "street": "TV HENRIQUES",
      "house": "",
      "postcode": "2205-831",
      "city": "VALE DAS MÓS",
      "lon": "-8.067579667103749",
      "lat": "39.34305234142548"
    },
    {
      "id": "pt.ine.add.PTCONT.4507678",
      "street": "TV HENRIQUES",
      "house": "10",
      "postcode": "2205-831",
      "city": "VALE DAS MÓS",
      "lon": "-8.067579582996643",
      "lat": "39.343142413574824"
    },
    {
      "id": "pt.ine.add.PTCONT.4510576",
      "street": "TV CABEÇO",
      "house": "4",
      "postcode": "2205-828",
      "city": "VALE DAS MÓS",
      "lon": "-8.067985309084518",
      "lat": "39.343439879528816"
    },
    {
      "id": "pt.ine.add.PTCONT.4515985",
      "street": "TV CAVADINHAS",
      "house": "",
      "postcode": "2205-827",
      "city": "VALE DAS MÓS",
      "lon": "-8.066953273438953",
      "lat": "39.343042979864755"
    },
    {
      "id": "pt.ine.add.PTCONT.4515986",
      "street": "TV HENRIQUES",
      "house": "",
      "postcode": "2205-831",
      "city": "VALE DAS MÓS",
      "lon": "-8.067393998987587",
      "lat": "39.34312429450489"
    },
    {
      "id": "pt.ine.add.PTCONT.4521726",
      "street": "R CONVENTOS",
      "house": "2",
      "postcode": "2205-819",
      "city": "VALE DAS MÓS",
      "lon": "-8.068425241298346",
      "lat": "39.34438588277923"
    },
    {
      "id": "pt.ine.add.PTCONT.4521743",
      "street": "R CONVENTOS",
      "house": "20",
      "postcode": "2205-819",
      "city": "VALE DAS MÓS",
      "lon": "-8.066569549809941",
      "lat": "39.34401554078124"
    },
    {
      "id": "pt.ine.add.PTCONT.4523896",
      "street": "R CONVENTOS",
      "house": "",
      "postcode": "2205-819",
      "city": "VALE DAS MÓS",
      "lon": "-8.06720747617361",
      "lat": "39.344105975901606"
    },
    {
      "id": "pt.ine.add.PTCONT.4527811",
      "street": "R CONVENTOS",
      "house": "22",
      "postcode": "2205-819",
      "city": "VALE DAS MÓS",
      "lon": "-8.06646516512708",
      "lat": "39.343997466623826"
    },
    {
      "id": "pt.ine.add.PTCONT.4527812",
      "street": "TV CAVADINHAS",
      "house": "",
      "postcode": "2205-827",
      "city": "VALE DAS MÓS",
      "lon": "-8.066895307241435",
      "lat": "39.343006918024756"
    },
    {
      "id": "pt.ine.add.PTCONT.4538155",
      "street": "R CONVENTOS",
      "house": "",
      "postcode": "2205-819",
      "city": "VALE DAS MÓS",
      "lon": "-8.066801868689904",
      "lat": "39.34368240627687"
    },
    {
      "id": "pt.ine.add.PTCONT.4550318",
      "street": "TV PATIO",
      "house": "9",
      "postcode": "2205-803",
      "city": "VALE DAS MÓS",
      "lon": "-8.06588630288489",
      "lat": "39.342799173598095"
    },
    {
      "id": "pt.ine.add.PTCONT.4558701",
      "street": "R CONVENTOS",
      "house": "8",
      "postcode": "2205-819",
      "city": "VALE DAS MÓS",
      "lon": "-8.067903363484847",
      "lat": "39.344241476099484"
    },
    {
      "id": "pt.ine.add.PTCONT.4562962",
      "street": "TV HENRIQUES",
      "house": "",
      "postcode": "2205-831",
      "city": "VALE DAS MÓS",
      "lon": "-8.067278015367867",
      "lat": "39.34310621452479"
    },
    {
      "id": "pt.ine.add.PTCONT.4571382",
      "street": "R 9 DE JULHO",
      "house": "23",
      "postcode": "2205-803",
      "city": "VALE DAS MÓS",
      "lon": "-8.06674475383778",
      "lat": "39.34274562290217"
    },
    {
      "id": "pt.ine.add.PTCONT.4573704",
      "street": "R 9 DE JULHO",
      "house": "15",
      "postcode": "2205-803",
      "city": "VALE DAS MÓS",
      "lon": "-8.06813653574301",
      "lat": "39.342980595848175"
    },
    {
      "id": "pt.ine.add.PTCONT.4585777",
      "street": "R CONVENTOS",
      "house": "18",
      "postcode": "2205-819",
      "city": "VALE DAS MÓS",
      "lon": "-8.066685492119918",
      "lat": "39.34407865753203"
    },
    {
      "id": "pt.ine.add.PTCONT.4590066",
      "street": "R CONVENTOS",
      "house": "2",
      "postcode": "2205-819",
      "city": "VALE DAS MÓS",
      "lon": "-8.067462899960214",
      "lat": "39.343871932565754"
    },
    {
      "id": "pt.ine.add.PTCONT.4592573",
      "street": "R 9 DE JULHO",
      "house": "25",
      "postcode": "2205-803",
      "city": "VALE DAS MÓS",
      "lon": "-8.066489562628336",
      "lat": "39.34273646990105"
    },
    {
      "id": "pt.ine.add.PTCONT.4592574",
      "street": "R 9 DE JULHO",
      "house": "25",
      "postcode": "2205-803",
      "city": "VALE DAS MÓS",
      "lon": "-8.066489562628336",
      "lat": "39.34273646990105"
    },
    {
      "id": "pt.ine.add.PTCONT.4592575",
      "street": "R CORRENTEZA",
      "house": "3",
      "postcode": "2205-805",
      "city": "VALE DAS MÓS",
      "lon": "-8.068031642678855",
      "lat": "39.34351196319648"
    },
    {
      "id": "pt.ine.add.PTCONT.4593936",
      "street": "R 9 JULHO",
      "house": "",
      "postcode": "2205-803",
      "city": "VALE DAS MÓS",
      "lon": "-8.066489562628336",
      "lat": "39.34273646990105"
    },
    {
      "id": "pt.ine.add.PTCONT.4600420",
      "street": "TV CAVADINHAS",
      "house": "1",
      "postcode": "2205-827",
      "city": "VALE DAS MÓS",
      "lon": "-8.067080865386128",
      "lat": "39.34305205953462"
    },
    {
      "id": "pt.ine.add.PTCONT.4621299",
      "street": "TV CAVADINHAS",
      "house": "",
      "postcode": "2205-827",
      "city": "VALE DAS MÓS",
      "lon": "-8.066837324091606",
      "lat": "39.34298887058567"
    },
    {
      "id": "pt.ine.add.PTCONT.4632445",
      "street": "R 9 DE JULHO",
      "house": "",
      "postcode": "2205-803",
      "city": "VALE DAS MÓS",
      "lon": "-8.0678465350368",
      "lat": "39.34298043360599"
    },
    {
      "id": "pt.ine.add.PTCONT.4635706",
      "street": "R CORRENTEZA",
      "house": "",
      "postcode": "2205-805",
      "city": "VALE DAS MÓS",
      "lon": "-8.068588680132562",
      "lat": "39.34326007117063"
    },
    {
      "id": "pt.ine.add.PTCONT.4639905",
      "street": "R CONVENTOS",
      "house": "10",
      "postcode": "2205-819",
      "city": "VALE DAS MÓS",
      "lon": "-8.067578640971295",
      "lat": "39.344151221551854"
    },
    {
      "id": "pt.ine.add.PTCONT.4639906",
      "street": "R 9 DE JULHO",
      "house": "21",
      "postcode": "2205-803",
      "city": "VALE DAS MÓS",
      "lon": "-8.066849128227012",
      "lat": "39.34277270402652"
    },
    {
      "id": "pt.ine.add.PTCONT.4642462",
      "street": "R 9 DE JULHO",
      "house": "27",
      "postcode": "2205-803",
      "city": "VALE DAS MÓS",
      "lon": "-8.066292371416221",
      "lat": "39.342727349649884"
    },
    {
      "id": "pt.ine.add.PTCONT.4643941",
      "street": "R CONVENTOS",
      "house": "6",
      "postcode": "2205-819",
      "city": "VALE DAS MÓS",
      "lon": "-8.068007690409988",
      "lat": "39.34432259945905"
    },
    {
      "id": "pt.ine.add.PTCONT.4652215",
      "street": "R IGREJA",
      "house": "11",
      "postcode": "2205-808",
      "city": "VALE DAS MÓS",
      "lon": "-8.06580512017728",
      "lat": "39.3427811122433"
    },
    {
      "id": "pt.ine.add.PTCONT.4653896",
      "street": "R IGREJA",
      "house": "11",
      "postcode": "2205-808",
      "city": "VALE DAS MÓS",
      "lon": "-8.06580512017728",
      "lat": "39.3427811122433"
    },
    {
      "id": "pt.ine.add.PTCONT.4661002",
      "street": "R CONVENTOS",
      "house": "",
      "postcode": "2205-819",
      "city": "VALE DAS MÓS",
      "lon": "-8.066882610676682",
      "lat": "39.34416884203717"
    }
  ]
}