{
  "data": {
    "distrito": "Santarém",
    "concelho": "Torres Novas",
    "freguesia": "União das freguesias de Torres Novas (Santa Maria, Salvador e Santiago)",
    "OBJECTID": 1012,
    "BGRI2021": "14192000426",
    "DT21": "14",
    "DTMN21": "1419",
    "DTMNFR21": "141920",
    "DTMNFRSEC21": "141920004",
    "SECNUM21": "004",
    "SSNUM21": "26",
    "SECSSNUM21": "00426",
    "OBJECTID_1": 157803,
    "DT": "14",
    "CC": "19",
    "fr": "20",
    "SEC": "004",
    "SS": "26"
  },
  "addresses": [
    {
      "id": "pt.ine.add.PTCONT.4406598",
      "street": "ESTR MARRUAS",
      "house": "15",
      "postcode": "2350-472",
      "city": "TORRES NOVAS",
      "lon": "-8.579810352970792",
      "lat": "39.47355463397166"
    },
    {
      "id": "pt.ine.add.PTCONT.4420840",
      "street": "R JOSE MARIA PEREIRA DA ROSA",
      "house": "1",
      "postcode": "2350-472",
      "city": "TORRES NOVAS",
      "lon": "-8.579013476746866",
      "lat": "39.47616070471294"
    },
    {
      "id": "pt.ine.add.PTCONT.4420856",
      "street": "ESTR MARRUAS",
      "house": "13",
      "postcode": "2350-472",
      "city": "TORRES NOVAS",
      "lon": "-8.579880945133576",
      "lat": "39.473689467256676"
    },
    {
      "id": "pt.ine.add.PTCONT.4420857",
      "street": "ESTR MARRUAS",
      "house": "13",
      "postcode": "2350-472",
      "city": "TORRES NOVAS",
      "lon": "-8.579880945133576",
      "lat": "39.473689467256676"
    },
    {
      "id": "pt.ine.add.PTCONT.4439354",
      "street": "R SERRANO",
      "house": "2",
      "postcode": "2350-472",
      "city": "TORRES NOVAS",
      "lon": "-8.577369086081793",
      "lat": "39.47709471557591"
    },
    {
      "id": "pt.ine.add.PTCONT.4440948",
      "street": "R PRINCIPAL",
      "house": "8",
      "postcode": "2350-472",
      "city": "TORRES NOVAS",
      "lon": "-8.580065466864383",
      "lat": "39.47528299074978"
    },
    {
      "id": "pt.ine.add.PTCONT.4440947",
      "street": "R JOSE MARIA PEREIRA DA ROSA",
      "house": "4",
      "postcode": "2350-472",
      "city": "TORRES NOVAS",
      "lon": "-8.578916995662041",
      "lat": "39.47561164996867"
    },
    {
      "id": "pt.ine.add.PTCONT.4442804",
      "street": "R JOSE MARIA PEREIRA DA ROSA",
      "house": "3",
      "postcode": "2350-472",
      "city": "TORRES NOVAS",
      "lon": "-8.579001279960048",
      "lat": "39.47607068186787"
    },
    {
      "id": "pt.ine.add.PTCONT.4460236",
      "street": "R JOSE MARIA PEREIRA DA ROSA",
      "house": "23",
      "postcode": "2350-472",
      "city": "TORRES NOVAS",
      "lon": "-8.577393229115991",
      "lat": "39.47358190778454"
    },
    {
      "id": "pt.ine.add.PTCONT.4462126",
      "street": "R JOSE MARIA PEREIRA DA ROSA",
      "house": "18",
      "postcode": "2350-472",
      "city": "TORRES NOVAS",
      "lon": "-8.57822069773025",
      "lat": "39.473948029021635"
    },
    {
      "id": "pt.ine.add.PTCONT.4482937",
      "street": "R PRINCIPAL",
      "house": "18",
      "postcode": "2350-472",
      "city": "TORRES NOVAS",
      "lon": "-8.578179119807995",
      "lat": "39.47654219347974"
    },
    {
      "id": "pt.ine.add.PTCONT.4490888",
      "street": "R JOSE MARIA PEREIRA DA ROSA",
      "house": "19",
      "postcode": "2350-472",
      "city": "TORRES NOVAS",
      "lon": "-8.577709929240392",
      "lat": "39.47404005260931"
    },
    {
      "id": "pt.ine.add.PTCONT.4505193",
      "street": "R JOSE MARIA PEREIRA DA ROSA",
      "house": "",
      "postcode": "2350-472",
      "city": "TORRES NOVAS",
      "lon": "-8.578858369925198",
      "lat": "39.47553081204797"
    },
    {
      "id": "pt.ine.add.PTCONT.4507277",
      "street": "R JOSE MARIA PEREIRA DA ROSA",
      "house": "16",
      "postcode": "2350-472",
      "city": "TORRES NOVAS",
      "lon": "-8.57836325499389",
      "lat": "39.47443385935302"
    },
    {
      "id": "pt.ine.add.PTCONT.4528499",
      "street": "ESTR MARRUAS",
      "house": "11",
      "postcode": "2350-472",
      "city": "TORRES NOVAS",
      "lon": "-8.579919093278527",
      "lat": "39.47420271766373"
    },
    {
      "id": "pt.ine.add.PTCONT.4531091",
      "street": "R PRINCIPAL",
      "house": "4",
      "postcode": "2350-472",
      "city": "TORRES NOVAS",
      "lon": "-8.580576702849728",
      "lat": "39.47526301072397"
    },
    {
      "id": "pt.ine.add.PTCONT.4547055",
      "street": "R JOSE MARIA PEREIRA DA ROSA",
      "house": "13",
      "postcode": "2350-472",
      "city": "TORRES NOVAS",
      "lon": "-8.578132202567215",
      "lat": "39.47465091094122"
    },
    {
      "id": "pt.ine.add.PTCONT.4553079",
      "street": "R JOSE MARIA PEREIRA DA ROSA",
      "house": "9",
      "postcode": "2350-472",
      "city": "TORRES NOVAS",
      "lon": "-8.578425382113643",
      "lat": "39.47506410890988"
    },
    {
      "id": "pt.ine.add.PTCONT.4554876",
      "street": "ESTR MARRUAS",
      "house": "3",
      "postcode": "2350-472",
      "city": "TORRES NOVAS",
      "lon": "-8.580597926394464",
      "lat": "39.47494768536495"
    },
    {
      "id": "pt.ine.add.PTCONT.4561524",
      "street": "R JOSE MARIA PEREIRA DA ROSA",
      "house": "17",
      "postcode": "2350-472",
      "city": "TORRES NOVAS",
      "lon": "-8.57790881257833",
      "lat": "39.47424645223754"
    },
    {
      "id": "pt.ine.add.PTCONT.4580242",
      "street": "R PRINCIPAL",
      "house": "10",
      "postcode": "2350-472",
      "city": "TORRES NOVAS",
      "lon": "-8.579266509060796",
      "lat": "39.47574541393883"
    },
    {
      "id": "pt.ine.add.PTCONT.4580243",
      "street": "R PRINCIPAL",
      "house": "10",
      "postcode": "2350-472",
      "city": "TORRES NOVAS",
      "lon": "-8.579266509060796",
      "lat": "39.47574541393883"
    },
    {
      "id": "pt.ine.add.PTCONT.4584380",
      "street": "R PRINCIPAL",
      "house": "14",
      "postcode": "2350-472",
      "city": "TORRES NOVAS",
      "lon": "-8.57853796063593",
      "lat": "39.47631564547655"
    },
    {
      "id": "pt.ine.add.PTCONT.4586499",
      "street": "R SERAFIM BRANCO",
      "house": "1",
      "postcode": "2350-472",
      "city": "TORRES NOVAS",
      "lon": "-8.578637114954448",
      "lat": "39.47364019755137"
    },
    {
      "id": "pt.ine.add.PTCONT.4607437",
      "street": "ESTR MARRUAS",
      "house": "5",
      "postcode": "2350-472",
      "city": "TORRES NOVAS",
      "lon": "-8.580399263853293",
      "lat": "39.47477731738248"
    },
    {
      "id": "pt.ine.add.PTCONT.4609370",
      "street": "R JOSE MARIA PEREIRA DA ROSA",
      "house": "21",
      "postcode": "2350-472",
      "city": "TORRES NOVAS",
      "lon": "-8.577569211322302",
      "lat": "39.47384243729849"
    },
    {
      "id": "pt.ine.add.PTCONT.4613483",
      "street": "R JOSE MARIA PEREIRA DA ROSA",
      "house": "2",
      "postcode": "2350-472",
      "city": "TORRES NOVAS",
      "lon": "-8.579081366993506",
      "lat": "39.475872221595864"
    },
    {
      "id": "pt.ine.add.PTCONT.4628297",
      "street": "ESTR MARRUAS",
      "house": "7",
      "postcode": "2350-472",
      "city": "TORRES NOVAS",
      "lon": "-8.580328323555682",
      "lat": "39.474588443999735"
    },
    {
      "id": "pt.ine.add.PTCONT.4629153",
      "street": "ESTR MARRUAS",
      "house": "7",
      "postcode": "2350-472",
      "city": "TORRES NOVAS",
      "lon": "-8.580328323555682",
      "lat": "39.474588443999735"
    },
    {
      "id": "pt.ine.add.PTCONT.4662209",
      "street": "R JOSE MARIA PEREIRA ROSA",
      "house": "5",
      "postcode": "2350-472",
      "city": "TORRES NOVAS",
      "lon": "-8.578742842866735",
      "lat": "39.4756393383768"
    }
  ]
}