{
  "data": {
    "distrito": "Setúbal",
    "concelho": "Palmela",
    "freguesia": "Palmela",
    "OBJECTID": 69,
    "BGRI2021": "15080200716",
    "DT21": "15",
    "DTMN21": "1508",
    "DTMNFR21": "150802",
    "DTMNFRSEC21": "150802007",
    "SECNUM21": "007",
    "SSNUM21": "16",
    "SECSSNUM21": "00716",
    "OBJECTID_1": 165293,
    "DT": "15",
    "CC": "08",
    "fr": "02",
    "SEC": "007",
    "SS": "16"
  },
  "addresses": [
    {
      "id": "pt.ine.add.PTCONT.4670354",
      "street": "VALE GROU",
      "house": "4",
      "postcode": "2950-067",
      "city": "PALMELA",
      "lon": "-8.881712212055524",
      "lat": "38.55557288099544"
    },
    {
      "id": "pt.ine.add.PTCONT.4678440",
      "street": "MIRAVENTOS",
      "house": "",
      "postcode": "2950-104",
      "city": "PALMELA",
      "lon": "-8.882712685211379",
      "lat": "38.56243077343752"
    },
    {
      "id": "pt.ine.add.PTCONT.4689559",
      "street": "QTA MIRAVENTOS",
      "house": "",
      "postcode": "2950-067",
      "city": "PALMELA",
      "lon": "-8.884703906594964",
      "lat": "38.55532850479822"
    },
    {
      "id": "pt.ine.add.PTCONT.4716649",
      "street": "ESTR MIRAVENTOS",
      "house": "",
      "postcode": "2950-067",
      "city": "PALMELA",
      "lon": "-8.883852682585069",
      "lat": "38.55510876022668"
    },
    {
      "id": "pt.ine.add.PTCONT.4769878",
      "street": "VALE GROU",
      "house": "",
      "postcode": "2950-007",
      "city": "PALMELA",
      "lon": "-8.883857918486873",
      "lat": "38.55340616414042"
    },
    {
      "id": "pt.ine.add.PTCONT.4782071",
      "street": "R QUINTA VALE GROU",
      "house": "7",
      "postcode": "2950-067",
      "city": "PALMELA",
      "lon": "-8.880937482814968",
      "lat": "38.55719932044835"
    },
    {
      "id": "pt.ine.add.PTCONT.4790838",
      "street": "VALE GROU",
      "house": "9",
      "postcode": "2950-007",
      "city": "PALMELA",
      "lon": "-8.88006087522747",
      "lat": "38.55785351219145"
    },
    {
      "id": "pt.ine.add.PTCONT.4800691",
      "street": "SEM NOME",
      "house": "1",
      "postcode": "2950-113",
      "city": "PALMELA",
      "lon": "-8.886555592959924",
      "lat": "38.5579740390484"
    },
    {
      "id": "pt.ine.add.PTCONT.4800692",
      "street": "SEM NOME",
      "house": "1",
      "postcode": "2950-113",
      "city": "PALMELA",
      "lon": "-8.886555592959924",
      "lat": "38.5579740390484"
    },
    {
      "id": "pt.ine.add.PTCONT.4806631",
      "street": "QTA VALE GROU CASAL MONTE ROSA",
      "house": "11",
      "postcode": "2950-067",
      "city": "PALMELA",
      "lon": "-8.88063734998298",
      "lat": "38.55591305546656"
    },
    {
      "id": "pt.ine.add.PTCONT.4815147",
      "street": "R SALGUEIRO MAIA",
      "house": "9",
      "postcode": "2950-104",
      "city": "PALMELA",
      "lon": "-8.885047278353158",
      "lat": "38.56075828107254"
    },
    {
      "id": "pt.ine.add.PTCONT.4850861",
      "street": "R SALGUEIRO MAIA",
      "house": "",
      "postcode": "2950-067",
      "city": "PALMELA",
      "lon": "-8.885604627711365",
      "lat": "38.56029527846895"
    },
    {
      "id": "pt.ine.add.PTCONT.4860939",
      "street": "R SETÚBAL",
      "house": "",
      "postcode": "2950-019",
      "city": "PALMELA",
      "lon": "-8.882303228617943",
      "lat": "38.56277570846407"
    },
    {
      "id": "pt.ine.add.PTCONT.4889324",
      "street": "SEM NOME",
      "house": "1",
      "postcode": "2950-113",
      "city": "PALMELA",
      "lon": "-8.886153610371242",
      "lat": "38.55793158434291"
    },
    {
      "id": "pt.ine.add.PTCONT.4897371",
      "street": "R SALGUEIRO MAIA",
      "house": "",
      "postcode": "2950-104",
      "city": "PALMELA",
      "lon": "-8.883522081315856",
      "lat": "38.56193013345493"
    },
    {
      "id": "pt.ine.add.PTCONT.4909338",
      "street": "EN 252",
      "house": "5",
      "postcode": "2950-007",
      "city": "PALMELA",
      "lon": "-8.881366187818314",
      "lat": "38.55428691101164"
    },
    {
      "id": "pt.ine.add.PTCONT.4930008",
      "street": "QTA VALE GROU",
      "house": "12",
      "postcode": "2950-067",
      "city": "PALMELA",
      "lon": "-8.880301506712929",
      "lat": "38.55560891849836"
    },
    {
      "id": "pt.ine.add.PTCONT.4940157",
      "street": "QTA VALE GROU",
      "house": "13",
      "postcode": "2950-067",
      "city": "PALMELA",
      "lon": "-8.880328274595335",
      "lat": "38.5548700697166"
    },
    {
      "id": "pt.ine.add.PTCONT.4942201",
      "street": "R SETÚBAL",
      "house": "54",
      "postcode": "2950-104",
      "city": "PALMELA",
      "lon": "-8.882508144493677",
      "lat": "38.562621256440046"
    },
    {
      "id": "pt.ine.add.PTCONT.4965447",
      "street": "VALE GROU",
      "house": "",
      "postcode": "2950-067",
      "city": "PALMELA",
      "lon": "-8.88127106949981",
      "lat": "38.55507123824829"
    },
    {
      "id": "pt.ine.add.PTCONT.5005009",
      "street": "VALE GROU",
      "house": "",
      "postcode": "2950-007",
      "city": "PALMELA",
      "lon": "-8.880578504956388",
      "lat": "38.557985332090816"
    },
    {
      "id": "pt.ine.add.PTCONT.5027732",
      "street": "ESTR MIRAVENTOS",
      "house": "6",
      "postcode": "2950-067",
      "city": "PALMELA",
      "lon": "-8.88524884798439",
      "lat": "38.55257748335595"
    },
    {
      "id": "pt.ine.add.PTCONT.5042080",
      "street": "EN 252 MORADIA SIMÕES",
      "house": "4",
      "postcode": "2950-113",
      "city": "PALMELA",
      "lon": "-8.886051882820565",
      "lat": "38.55587835491807"
    },
    {
      "id": "pt.ine.add.PTCONT.5058271",
      "street": "R MIRAVENTOS",
      "house": "57",
      "postcode": "2950-067",
      "city": "PALMELA",
      "lon": "-8.884718711352486",
      "lat": "38.56115675447885"
    },
    {
      "id": "pt.ine.add.PTCONT.5085643",
      "street": "VALE GROU",
      "house": "",
      "postcode": "2950-007",
      "city": "PALMELA",
      "lon": "-8.883270683342069",
      "lat": "38.556508772286854"
    },
    {
      "id": "pt.ine.add.PTCONT.5105650",
      "street": "VALE GROU",
      "house": "4",
      "postcode": "2950-067",
      "city": "PALMELA",
      "lon": "-8.884232058543006",
      "lat": "38.552980375539676"
    },
    {
      "id": "pt.ine.add.PTCONT.5121788",
      "street": "QTA VALE GROU CASA DAS ROSAS",
      "house": "",
      "postcode": "2950-067",
      "city": "PALMELA",
      "lon": "-8.880463599527074",
      "lat": "38.55686003273346"
    }
  ]
}