{
  "data": {
    "distrito": "Lisboa",
    "concelho": "Loures",
    "freguesia": "Loures",
    "OBJECTID": 1194,
    "BGRI2021": "11070701502",
    "DT21": "11",
    "DTMN21": "1107",
    "DTMNFR21": "110707",
    "DTMNFRSEC21": "110707015",
    "SECNUM21": "015",
    "SSNUM21": "02",
    "SECSSNUM21": "01502",
    "OBJECTID_1": 106776,
    "DT": "11",
    "CC": "07",
    "fr": "07",
    "SEC": "015",
    "SS": "02"
  },
  "addresses": [
    {
      "id": "pt.ine.add.PTCONT.2915676",
      "street": "R FORO",
      "house": "20",
      "postcode": "2670-348",
      "city": "LOURES",
      "lon": "-9.201855286350536",
      "lat": "38.83924103550834"
    },
    {
      "id": "pt.ine.add.PTCONT.2945119",
      "street": "R FORO",
      "house": "25",
      "postcode": "2670-348",
      "city": "LOURES",
      "lon": "-9.202102238986246",
      "lat": "38.839581066802516"
    },
    {
      "id": "pt.ine.add.PTCONT.2992810",
      "street": "R FORO",
      "house": "1",
      "postcode": "2670-348",
      "city": "LOURES",
      "lon": "-9.202152210666759",
      "lat": "38.839841831649885"
    },
    {
      "id": "pt.ine.add.PTCONT.3086366",
      "street": "R FORO",
      "house": "24",
      "postcode": "2670-348",
      "city": "LOURES",
      "lon": "-9.201825922713326",
      "lat": "38.83881794399423"
    },
    {
      "id": "pt.ine.add.PTCONT.3407086",
      "street": "R FORO",
      "house": "29",
      "postcode": "2670-348",
      "city": "LOURES",
      "lon": "-9.202265078293001",
      "lat": "38.839687668299064"
    },
    {
      "id": "pt.ine.add.PTCONT.3441288",
      "street": "R FORO",
      "house": "20",
      "postcode": "2670-348",
      "city": "LOURES",
      "lon": "-9.201855286350536",
      "lat": "38.83924103550834"
    },
    {
      "id": "pt.ine.add.PTCONT.2307329",
      "street": "R FORO",
      "house": "21",
      "postcode": "2670-348",
      "city": "LOURES",
      "lon": "-9.202052941461865",
      "lat": "38.839365334065974"
    },
    {
      "id": "pt.ine.add.PTCONT.2339013",
      "street": "R FORO",
      "house": "26",
      "postcode": "2670-348",
      "city": "LOURES",
      "lon": "-9.20165035804586",
      "lat": "38.838630389294174"
    },
    {
      "id": "pt.ine.add.PTCONT.2330147",
      "street": "R FORO",
      "house": "22",
      "postcode": "2670-348",
      "city": "LOURES",
      "lon": "-9.202057180567296",
      "lat": "38.83887888145091"
    },
    {
      "id": "pt.ine.add.PTCONT.2330148",
      "street": "R FORO",
      "house": "22",
      "postcode": "2670-348",
      "city": "LOURES",
      "lon": "-9.202057180567296",
      "lat": "38.83887888145091"
    },
    {
      "id": "pt.ine.add.PTCONT.2339012",
      "street": "R FORO",
      "house": "26",
      "postcode": "2670-348",
      "city": "LOURES",
      "lon": "-9.20165035804586",
      "lat": "38.838630389294174"
    },
    {
      "id": "pt.ine.add.PTCONT.2339010",
      "street": "R FORO",
      "house": "26",
      "postcode": "2670-348",
      "city": "LOURES",
      "lon": "-9.20165035804586",
      "lat": "38.838630389294174"
    },
    {
      "id": "pt.ine.add.PTCONT.2339011",
      "street": "R FORO",
      "house": "26",
      "postcode": "2670-348",
      "city": "LOURES",
      "lon": "-9.20165035804586",
      "lat": "38.838630389294174"
    },
    {
      "id": "pt.ine.add.PTCONT.2356245",
      "street": "R JOSE LEIRIA FERNANDES",
      "house": "45",
      "postcode": "2670-398",
      "city": "LOURES",
      "lon": "-9.202618643987543",
      "lat": "38.84022489106537"
    },
    {
      "id": "pt.ine.add.PTCONT.2433589",
      "street": "R FORO",
      "house": "6 8",
      "postcode": "2670-348",
      "city": "LOURES",
      "lon": "-9.202205402690378",
      "lat": "38.83877844056121"
    },
    {
      "id": "pt.ine.add.PTCONT.2525150",
      "street": "R JOSE LEIRIA FERNANDES",
      "house": "43 A",
      "postcode": "2670-398",
      "city": "LOURES",
      "lon": "-9.20228131163297",
      "lat": "38.840002787877985"
    },
    {
      "id": "pt.ine.add.PTCONT.2548162",
      "street": "R JOSÃ‰ LEIRIA FERNANDES",
      "house": "43",
      "postcode": "2670-398",
      "city": "LOURES",
      "lon": "-9.202352563870058",
      "lat": "38.84014625821717"
    },
    {
      "id": "pt.ine.add.PTCONT.2579856",
      "street": "R FORO",
      "house": "ZOA",
      "postcode": "2670-348",
      "city": "LOURES",
      "lon": "-9.201759522626865",
      "lat": "38.8389987047988"
    },
    {
      "id": "pt.ine.add.PTCONT.2579857",
      "street": "R FORO",
      "house": "ZOA",
      "postcode": "2670-348",
      "city": "LOURES",
      "lon": "-9.201759522626865",
      "lat": "38.8389987047988"
    }
  ]
}