{
  "data": {
    "distrito": "Porto",
    "concelho": "Amarante",
    "freguesia": "União das freguesias de Aboadela, Sanche e Várzea",
    "OBJECTID": 180,
    "BGRI2021": "13014100210",
    "DT21": "13",
    "DTMN21": "1301",
    "DTMNFR21": "130141",
    "DTMNFRSEC21": "130141002",
    "SECNUM21": "002",
    "SSNUM21": "10",
    "SECSSNUM21": "00210",
    "OBJECTID_1": 125902,
    "DT": "13",
    "CC": "01",
    "fr": "41",
    "SEC": "002",
    "SS": "10"
  },
  "addresses": [
    {
      "id": "pt.ine.add.PTCONT.3559647",
      "street": "R SALGUEIRINHA",
      "house": "",
      "postcode": "4600-730",
      "city": "SANCHE",
      "lon": "-8.007566391512617",
      "lat": "41.27794282839577"
    },
    {
      "id": "pt.ine.add.PTCONT.3584981",
      "street": "R SALGUEIRINHA",
      "house": "",
      "postcode": "4600-730",
      "city": "SANCHE",
      "lon": "-8.007841984262068",
      "lat": "41.277384868341386"
    },
    {
      "id": "pt.ine.add.PTCONT.3759600",
      "street": "CAM POCAS DO SOUTO",
      "house": "126",
      "postcode": "4600-730",
      "city": "SANCHE",
      "lon": "-8.009419428739331",
      "lat": "41.27636909942839"
    },
    {
      "id": "pt.ine.add.PTCONT.3843742",
      "street": "R VILA NOVA",
      "house": "",
      "postcode": "4600-730",
      "city": "SANCHE",
      "lon": "-8.007973191909963",
      "lat": "41.27743003201911"
    },
    {
      "id": "pt.ine.add.PTCONT.3934146",
      "street": "R SALGUEIRINHA",
      "house": "45",
      "postcode": "4600-730",
      "city": "SANCHE",
      "lon": "-8.00774605004308",
      "lat": "41.27761887306148"
    },
    {
      "id": "pt.ine.add.PTCONT.4253363",
      "street": "CAM VALE CERDEIRAS",
      "house": "360",
      "postcode": "4600-730",
      "city": "SANCHE",
      "lon": "-8.00989158646699",
      "lat": "41.27916991114319"
    },
    {
      "id": "pt.ine.add.PTCONT.4313596",
      "street": "R SALGUEIRINHA",
      "house": "",
      "postcode": "4600-730",
      "city": "SANCHE",
      "lon": "-8.007685784851",
      "lat": "41.277924950133624"
    },
    {
      "id": "pt.ine.add.PTCONT.4333463",
      "street": "R ROCADAS",
      "house": "",
      "postcode": "4600-730",
      "city": "SANCHE",
      "lon": "-8.016156621178974",
      "lat": "41.27328769906138"
    },
    {
      "id": "pt.ine.add.PTCONT.4380164",
      "street": "R VILA NOVA",
      "house": "188",
      "postcode": "4600-730",
      "city": "SANCHE",
      "lon": "-8.007901818049609",
      "lat": "41.277303895646504"
    }
  ]
}