{
  "data": {
    "distrito": "Porto",
    "concelho": "Amarante",
    "freguesia": "União das freguesias de Aboadela, Sanche e Várzea",
    "OBJECTID": 791,
    "BGRI2021": "13014100219",
    "DT21": "13",
    "DTMN21": "1301",
    "DTMNFR21": "130141",
    "DTMNFRSEC21": "130141002",
    "SECNUM21": "002",
    "SSNUM21": "19",
    "SECSSNUM21": "00219",
    "OBJECTID_1": 125117,
    "DT": "13",
    "CC": "01",
    "fr": "41",
    "SEC": "002",
    "SS": "19"
  },
  "addresses": [
    {
      "id": "pt.ine.add.PTCONT.3591376",
      "street": "R PENOUCOS",
      "house": "387",
      "postcode": "4600-500",
      "city": "ABOADELA",
      "lon": "-7.98419901614906",
      "lat": "41.28181379122762"
    },
    {
      "id": "pt.ine.add.PTCONT.3615160",
      "street": "R PENOUCOS",
      "house": "195",
      "postcode": "4600-500",
      "city": "ABOADELA",
      "lon": "-7.9825862538117915",
      "lat": "41.282387962011164"
    },
    {
      "id": "pt.ine.add.PTCONT.3636513",
      "street": "R PENOUCOS",
      "house": "454",
      "postcode": "4600-500",
      "city": "ABOADELA",
      "lon": "-7.984998197008318",
      "lat": "41.28206693947128"
    },
    {
      "id": "pt.ine.add.PTCONT.3668845",
      "street": "TV S MARIA DE ABOADELA",
      "house": "30",
      "postcode": "4600-500",
      "city": "ABOADELA",
      "lon": "-7.987214053013236",
      "lat": "41.27866618419064"
    },
    {
      "id": "pt.ine.add.PTCONT.3707772",
      "street": "R S MARIA DE ABOADELA",
      "house": "898",
      "postcode": "4600-500",
      "city": "ABOADELA",
      "lon": "-7.987704548430039",
      "lat": "41.27816256978387"
    },
    {
      "id": "pt.ine.add.PTCONT.3720671",
      "street": "R COTO",
      "house": "54",
      "postcode": "4600-500",
      "city": "ABOADELA",
      "lon": "-7.986665761449769",
      "lat": "41.27832332864496"
    },
    {
      "id": "pt.ine.add.PTCONT.3743439",
      "street": "R CORVOS",
      "house": "506",
      "postcode": "4600-500",
      "city": "ABOADELA",
      "lon": "-7.98104583644677",
      "lat": "41.282638054939326"
    },
    {
      "id": "pt.ine.add.PTCONT.3789813",
      "street": "R PENOUCOS",
      "house": "225",
      "postcode": "4600-500",
      "city": "ABOADELA",
      "lon": "-7.982944663934633",
      "lat": "41.28225336722806"
    },
    {
      "id": "pt.ine.add.PTCONT.3798565",
      "street": "R S MARIA DE ABOADELA",
      "house": "982",
      "postcode": "4600-500",
      "city": "ABOADELA",
      "lon": "-7.987990112947195",
      "lat": "41.278568118890334"
    },
    {
      "id": "pt.ine.add.PTCONT.3862965",
      "street": "R S MARIA DE ABOADELA",
      "house": "904",
      "postcode": "4600-500",
      "city": "ABOADELA",
      "lon": "-7.9877518725839085",
      "lat": "41.27835171765232"
    },
    {
      "id": "pt.ine.add.PTCONT.3869038",
      "street": "R PENOUCOS",
      "house": "718",
      "postcode": "4600-500",
      "city": "ABOADELA",
      "lon": "-7.986588849699168",
      "lat": "41.28069133370818"
    },
    {
      "id": "pt.ine.add.PTCONT.3902542",
      "street": "R COTO",
      "house": "312",
      "postcode": "4600-500",
      "city": "ABOADELA",
      "lon": "-7.984733239571134",
      "lat": "41.27783462766737"
    },
    {
      "id": "pt.ine.add.PTCONT.3962078",
      "street": "R CORUJEIRAS",
      "house": "141",
      "postcode": "4600-500",
      "city": "ABOADELA",
      "lon": "-7.98067791402695",
      "lat": "41.28172814528157"
    },
    {
      "id": "pt.ine.add.PTCONT.3982028",
      "street": "R S MARIA DE ABOADELA",
      "house": "870",
      "postcode": "4600-500",
      "city": "ABOADELA",
      "lon": "-7.9870601093050455",
      "lat": "41.278116733083735"
    },
    {
      "id": "pt.ine.add.PTCONT.4011129",
      "street": "R PENOUCOS",
      "house": "",
      "postcode": "4600-500",
      "city": "ABOADELA",
      "lon": "-7.981333235863963",
      "lat": "41.28224224988789"
    },
    {
      "id": "pt.ine.add.PTCONT.4043695",
      "street": "R COTO",
      "house": "19",
      "postcode": "4600-500",
      "city": "ABOADELA",
      "lon": "-7.987142898362304",
      "lat": "41.278458997510015"
    },
    {
      "id": "pt.ine.add.PTCONT.4083114",
      "street": "R S MARIA DE ABOADELA",
      "house": "882",
      "postcode": "4600-500",
      "city": "ABOADELA",
      "lon": "-7.987203019365862",
      "lat": "41.278260981419834"
    },
    {
      "id": "pt.ine.add.PTCONT.4096643",
      "street": "R PENOUCOS",
      "house": "411",
      "postcode": "4600-500",
      "city": "ABOADELA",
      "lon": "-7.984795743231407",
      "lat": "41.28185958247084"
    },
    {
      "id": "pt.ine.add.PTCONT.4096644",
      "street": "R PENOUCOS",
      "house": "411",
      "postcode": "4600-500",
      "city": "ABOADELA",
      "lon": "-7.984795743231407",
      "lat": "41.28185958247084"
    },
    {
      "id": "pt.ine.add.PTCONT.4122285",
      "street": "R COTO",
      "house": "",
      "postcode": "4600-500",
      "city": "ABOADELA",
      "lon": "-7.984924315082395",
      "lat": "41.27778985278466"
    },
    {
      "id": "pt.ine.add.PTCONT.4142341",
      "street": "R S MARIA DE ABOADELA",
      "house": "908",
      "postcode": "4600-500",
      "city": "ABOADELA",
      "lon": "-7.987657064630557",
      "lat": "41.278045455256326"
    },
    {
      "id": "pt.ine.add.PTCONT.4181561",
      "street": "R PENOUCOS",
      "house": "411",
      "postcode": "4600-500",
      "city": "ABOADELA",
      "lon": "-7.987739377230433",
      "lat": "41.2786038193435"
    },
    {
      "id": "pt.ine.add.PTCONT.4205533",
      "street": "R PENOUCOS",
      "house": "403",
      "postcode": "4600-500",
      "city": "ABOADELA",
      "lon": "-7.984378085292852",
      "lat": "41.28180501851658"
    },
    {
      "id": "pt.ine.add.PTCONT.4278112",
      "street": "R PENOUCOS",
      "house": "567",
      "postcode": "4600-500",
      "city": "ABOADELA",
      "lon": "-7.9852147231903725",
      "lat": "41.281328874243094"
    },
    {
      "id": "pt.ine.add.PTCONT.4278480",
      "street": "TV S MARIA DE ABOADELA",
      "house": "37",
      "postcode": "4600-500",
      "city": "ABOADELA",
      "lon": "-7.987345629563795",
      "lat": "41.27854029212468"
    },
    {
      "id": "pt.ine.add.PTCONT.4327180",
      "street": "R PENOUCOS",
      "house": "211",
      "postcode": "4600-500",
      "city": "ABOADELA",
      "lon": "-7.982801072799879",
      "lat": "41.282406251057566"
    },
    {
      "id": "pt.ine.add.PTCONT.4333387",
      "street": "R PENOUCOS",
      "house": "489",
      "postcode": "4600-500",
      "city": "ABOADELA",
      "lon": "-7.985022721607495",
      "lat": "41.28177883694809"
    },
    {
      "id": "pt.ine.add.PTCONT.4390515",
      "street": "R PENOUCOS",
      "house": "409",
      "postcode": "4600-500",
      "city": "ABOADELA",
      "lon": "-7.984676703777495",
      "lat": "41.28171536201492"
    }
  ]
}