{
  "data": {
    "distrito": "Porto",
    "concelho": "Marco de Canaveses",
    "freguesia": "Alpendorada, Várzea e Torrão",
    "OBJECTID": 94,
    "BGRI2021": "13073200404",
    "DT21": "13",
    "DTMN21": "1307",
    "DTMNFR21": "130732",
    "DTMNFRSEC21": "130732004",
    "SECNUM21": "004",
    "SSNUM21": "04",
    "SECSSNUM21": "00404",
    "OBJECTID_1": 131019,
    "DT": "13",
    "CC": "07",
    "fr": "32",
    "SEC": "004",
    "SS": "04"
  },
  "addresses": [
    {
      "id": "pt.ine.add.PTCONT.3554417",
      "street": "R BOUSSOS",
      "house": "56",
      "postcode": "4575-434",
      "city": "VÁRZEA DO DOURO",
      "lon": "-8.273505107783315",
      "lat": "41.080091064378834"
    },
    {
      "id": "pt.ine.add.PTCONT.3573596",
      "street": "R BRASIL",
      "house": "107",
      "postcode": "4575-434",
      "city": "VÁRZEA DO DOURO",
      "lon": "-8.273519039108137",
      "lat": "41.081045525019924"
    },
    {
      "id": "pt.ine.add.PTCONT.3628673",
      "street": "LG TRAVASSOS",
      "house": "18",
      "postcode": "4575-446",
      "city": "VÁRZEA DO DOURO",
      "lon": "-8.27891551424119",
      "lat": "41.07822941677538"
    },
    {
      "id": "pt.ine.add.PTCONT.3715638",
      "street": "LG CHAIM",
      "house": "10",
      "postcode": "4575-434",
      "city": "VÁRZEA DO DOURO",
      "lon": "-8.272791755068841",
      "lat": "41.08039808452995"
    },
    {
      "id": "pt.ine.add.PTCONT.3715640",
      "street": "LG CHAIM",
      "house": "10",
      "postcode": "4575-434",
      "city": "VÁRZEA DO DOURO",
      "lon": "-8.272791755068841",
      "lat": "41.08039808452995"
    },
    {
      "id": "pt.ine.add.PTCONT.3799990",
      "street": "LG TRAVASSOS",
      "house": "24",
      "postcode": "4575-446",
      "city": "VÁRZEA DO DOURO",
      "lon": "-8.278975132059706",
      "lat": "41.07828336837834"
    },
    {
      "id": "pt.ine.add.PTCONT.3845771",
      "street": "R FONTENARIO",
      "house": "",
      "postcode": "4575-434",
      "city": "VÁRZEA DO DOURO",
      "lon": "-8.272851503359304",
      "lat": "41.08051507066566"
    },
    {
      "id": "pt.ine.add.PTCONT.3864333",
      "street": "R POUSOS",
      "house": "108",
      "postcode": "4575-446",
      "city": "VÁRZEA DO DOURO",
      "lon": "-8.278738708420185",
      "lat": "41.078995023588234"
    },
    {
      "id": "pt.ine.add.PTCONT.4127354",
      "street": "R MANINHO",
      "house": "62",
      "postcode": "4575-446",
      "city": "VÁRZEA DO DOURO",
      "lon": "-8.278643271566615",
      "lat": "41.07888709006521"
    },
    {
      "id": "pt.ine.add.PTCONT.4150140",
      "street": "R FONTENARIO",
      "house": "4",
      "postcode": "4575-434",
      "city": "VÁRZEA DO DOURO",
      "lon": "-8.272839774904396",
      "lat": "41.080596125441176"
    },
    {
      "id": "pt.ine.add.PTCONT.4156656",
      "street": "R MANINHO",
      "house": "62",
      "postcode": "4575-446",
      "city": "VÁRZEA DO DOURO",
      "lon": "-8.278690989954335",
      "lat": "41.078941056836925"
    },
    {
      "id": "pt.ine.add.PTCONT.4189023",
      "street": "R SACADURA CABRAL",
      "house": "",
      "postcode": "4575-457",
      "city": "VÁRZEA DO DOURO",
      "lon": "-8.278998334142738",
      "lat": "41.07801320372653"
    },
    {
      "id": "pt.ine.add.PTCONT.4234903",
      "street": "R FONTENARIO",
      "house": "",
      "postcode": "4575-434",
      "city": "VÁRZEA DO DOURO",
      "lon": "-8.272922770333112",
      "lat": "41.08045195267478"
    },
    {
      "id": "pt.ine.add.PTCONT.4234907",
      "street": "R BOUSSOS",
      "house": "20",
      "postcode": "4575-434",
      "city": "VÁRZEA DO DOURO",
      "lon": "-8.27308883652236",
      "lat": "41.080199624886376"
    },
    {
      "id": "pt.ine.add.PTCONT.4248845",
      "street": "R FRANCISCO SA CARNEIRO",
      "house": "28",
      "postcode": "4575-434",
      "city": "VÁRZEA DO DOURO",
      "lon": "-8.274397473868122",
      "lat": "41.080026942126075"
    },
    {
      "id": "pt.ine.add.PTCONT.4261283",
      "street": "R MANINHO",
      "house": "82",
      "postcode": "4575-446",
      "city": "VÁRZEA DO DOURO",
      "lon": "-8.278869307987241",
      "lat": "41.078859790840674"
    },
    {
      "id": "pt.ine.add.PTCONT.4384846",
      "street": "R MANINHO",
      "house": "52",
      "postcode": "4575-446",
      "city": "VÁRZEA DO DOURO",
      "lon": "-8.2785123539804",
      "lat": "41.07887825082829"
    },
    {
      "id": "pt.ine.add.PTCONT.4388807",
      "street": "LG CHAIM",
      "house": "15",
      "postcode": "4575-434",
      "city": "VÁRZEA DO DOURO",
      "lon": "-8.272874674053543",
      "lat": "41.08021789386045"
    }
  ]
}