{
  "data": {
    "distrito": "Faro",
    "concelho": "Faro",
    "freguesia": "Santa Bárbara de Nexe",
    "OBJECTID": 704,
    "BGRI2021": "08050300301",
    "DT21": "08",
    "DTMN21": "0805",
    "DTMNFR21": "080503",
    "DTMNFRSEC21": "080503003",
    "SECNUM21": "003",
    "SSNUM21": "01",
    "SECSSNUM21": "00301",
    "OBJECTID_1": 66245,
    "DT": "08",
    "CC": "05",
    "fr": "03",
    "SEC": "003",
    "SS": "01"
  },
  "addresses": [
    {
      "id": "pt.ine.add.PTCONT.1512990",
      "street": "AV VENEZUELA VICTOR GONÇALVES",
      "house": "",
      "postcode": "8005-534",
      "city": "FARO",
      "lon": "-7.998640836118045",
      "lat": "37.103099515584674"
    },
    {
      "id": "pt.ine.add.PTCONT.1570800",
      "street": "CAM COLINA CASA ABRIGO AO SUL",
      "house": "",
      "postcode": "8005-534",
      "city": "FARO",
      "lon": "-7.99501699095947",
      "lat": "37.103897299469686"
    },
    {
      "id": "pt.ine.add.PTCONT.1581347",
      "street": "ESTR VALADOS",
      "house": "344 A",
      "postcode": "8005-534",
      "city": "FARO",
      "lon": "-7.997727208544732",
      "lat": "37.10445007488028"
    },
    {
      "id": "pt.ine.add.PTCONT.1591087",
      "street": "VALADOS",
      "house": "",
      "postcode": "8005-401",
      "city": "FARO",
      "lon": "-7.994150478567635",
      "lat": "37.10404946838913"
    },
    {
      "id": "pt.ine.add.PTCONT.1629125",
      "street": "AV VENEZUELA",
      "house": "",
      "postcode": "8005-534",
      "city": "FARO",
      "lon": "-7.998515814530317",
      "lat": "37.103820226516305"
    },
    {
      "id": "pt.ine.add.PTCONT.1636649",
      "street": "ESTR VALADOS",
      "house": "",
      "postcode": "8005-534",
      "city": "FARO",
      "lon": "-7.997828441235038",
      "lat": "37.10445920107372"
    },
    {
      "id": "pt.ine.add.PTCONT.1636650",
      "street": "ESTR VALADOS",
      "house": "",
      "postcode": "8005-534",
      "city": "FARO",
      "lon": "-7.992473842567713",
      "lat": "37.1042727581826"
    },
    {
      "id": "pt.ine.add.PTCONT.1663153",
      "street": "ESTR VALADOS",
      "house": "",
      "postcode": "8005-534",
      "city": "FARO",
      "lon": "-7.999155337514278",
      "lat": "37.1047941017937"
    },
    {
      "id": "pt.ine.add.PTCONT.1668459",
      "street": "ESTR VALADOS",
      "house": "",
      "postcode": "8005-534",
      "city": "FARO",
      "lon": "-7.998042076557184",
      "lat": "37.10452251921507"
    },
    {
      "id": "pt.ine.add.PTCONT.1669352",
      "street": "ESTR VALADOS CXP",
      "house": "CXP 343",
      "postcode": "8005-534",
      "city": "FARO",
      "lon": "-7.998042076557184",
      "lat": "37.10452251921507"
    },
    {
      "id": "pt.ine.add.PTCONT.1685367",
      "street": "ESTR VALADOS",
      "house": "432",
      "postcode": "8005-534",
      "city": "FARO",
      "lon": "-7.994084840558053",
      "lat": "37.103031186978114"
    },
    {
      "id": "pt.ine.add.PTCONT.1692630",
      "street": "ESTR VALADOS",
      "house": "",
      "postcode": "8005-534",
      "city": "FARO",
      "lon": "-7.998267026001808",
      "lat": "37.10454980720596"
    },
    {
      "id": "pt.ine.add.PTCONT.1709771",
      "street": "ESTR VALADOS",
      "house": "",
      "postcode": "8005-534",
      "city": "FARO",
      "lon": "-7.996793583454972",
      "lat": "37.10438593066773"
    },
    {
      "id": "pt.ine.add.PTCONT.1729972",
      "street": "ESTR VALADOS",
      "house": "",
      "postcode": "8005-534",
      "city": "FARO",
      "lon": "-7.997052313826334",
      "lat": "37.10439523847607"
    },
    {
      "id": "pt.ine.add.PTCONT.1734228",
      "street": "CAM COLINA",
      "house": "",
      "postcode": "8005-534",
      "city": "FARO",
      "lon": "-7.995501073537054",
      "lat": "37.103708638390835"
    },
    {
      "id": "pt.ine.add.PTCONT.1744729",
      "street": "AV VENEZUELA",
      "house": "",
      "postcode": "8005-534",
      "city": "FARO",
      "lon": "-7.99829022839329",
      "lat": "37.10415336462523"
    },
    {
      "id": "pt.ine.add.PTCONT.1757001",
      "street": "AV VENEZUELA ANDRES NUNES",
      "house": "",
      "postcode": "8005-534",
      "city": "FARO",
      "lon": "-7.998256271301981",
      "lat": "37.10427046457255"
    },
    {
      "id": "pt.ine.add.PTCONT.1785260",
      "street": "AV VENEZUELA",
      "house": "QUINTA A",
      "postcode": "8005-534",
      "city": "FARO",
      "lon": "-7.998683334965766",
      "lat": "37.10451423725329"
    },
    {
      "id": "pt.ine.add.PTCONT.1791857",
      "street": "ESTR VALADOS",
      "house": "",
      "postcode": "8005-534",
      "city": "FARO",
      "lon": "-7.994498631197185",
      "lat": "37.104374259558945"
    },
    {
      "id": "pt.ine.add.PTCONT.1799493",
      "street": "ESTR VALADOS",
      "house": "",
      "postcode": "8005-534",
      "city": "FARO",
      "lon": "-7.998165793137172",
      "lat": "37.104540681386766"
    },
    {
      "id": "pt.ine.add.PTCONT.1813281",
      "street": "AV VENEZUELA FILIPE POMBO",
      "house": "",
      "postcode": "8005-534",
      "city": "FARO",
      "lon": "-7.998404322070497",
      "lat": "37.10325242836474"
    },
    {
      "id": "pt.ine.add.PTCONT.1845216",
      "street": "ESTR VALADOS",
      "house": "",
      "postcode": "8005-534",
      "city": "FARO",
      "lon": "-7.996793583454972",
      "lat": "37.10438593066773"
    }
  ]
}