{
  "data": {
    "distrito": "Aveiro",
    "concelho": "Vale de Cambra",
    "freguesia": "São Pedro de Castelões",
    "OBJECTID": 250,
    "BGRI2021": "01190200405",
    "DT21": "01",
    "DTMN21": "0119",
    "DTMNFR21": "011902",
    "DTMNFRSEC21": "011902004",
    "SECNUM21": "004",
    "SSNUM21": "05",
    "SECSSNUM21": "00405",
    "OBJECTID_1": 11905,
    "DT": "01",
    "CC": "19",
    "fr": "02",
    "SEC": "004",
    "SS": "05"
  },
  "addresses": [
    {
      "id": "pt.ine.add.PTCONT.306922",
      "street": "R OLIVEIRAS",
      "house": "",
      "postcode": "3730-056",
      "city": "VALE DE CAMBRA",
      "lon": "-8.407821362748523",
      "lat": "40.83955913477249"
    },
    {
      "id": "pt.ine.add.PTCONT.318108",
      "street": "R MIRA CAIMA",
      "house": "",
      "postcode": "3730-056",
      "city": "VALE DE CAMBRA",
      "lon": "-8.408692089772524",
      "lat": "40.83794518576495"
    },
    {
      "id": "pt.ine.add.PTCONT.335281",
      "street": "R OLIVEIRAS",
      "house": "37",
      "postcode": "3730-056",
      "city": "VALE DE CAMBRA",
      "lon": "-8.408142128870358",
      "lat": "40.83971145332195"
    },
    {
      "id": "pt.ine.add.PTCONT.348806",
      "street": "R S JOSE",
      "house": "95",
      "postcode": "3730-056",
      "city": "VALE DE CAMBRA",
      "lon": "-8.40803262712906",
      "lat": "40.83903634890579"
    },
    {
      "id": "pt.ine.add.PTCONT.15410",
      "street": "R S JOSE",
      "house": "1",
      "postcode": "3730-056",
      "city": "VALE DE CAMBRA",
      "lon": "-8.408195977854794",
      "lat": "40.83839661350912"
    },
    {
      "id": "pt.ine.add.PTCONT.36914",
      "street": "R OLIVEIRAS",
      "house": "",
      "postcode": "3730-056",
      "city": "VALE DE CAMBRA",
      "lon": "-8.407916477410877",
      "lat": "40.83962194234459"
    },
    {
      "id": "pt.ine.add.PTCONT.59271",
      "street": "R MIRADOURO BARALHAS",
      "house": "310",
      "postcode": "3730-084",
      "city": "VALE DE CAMBRA",
      "lon": "-8.409086005929298",
      "lat": "40.83858359015804"
    },
    {
      "id": "pt.ine.add.PTCONT.63743",
      "street": "R MIRA CAIMA",
      "house": "",
      "postcode": "3730-056",
      "city": "VALE DE CAMBRA",
      "lon": "-8.40817730956896",
      "lat": "40.83674876588389"
    },
    {
      "id": "pt.ine.add.PTCONT.125491",
      "street": "R S JOSE",
      "house": "",
      "postcode": "3730-056",
      "city": "VALE DE CAMBRA",
      "lon": "-8.40862374698221",
      "lat": "40.83862071454429"
    },
    {
      "id": "pt.ine.add.PTCONT.185893",
      "street": "R MIRA CAIMA",
      "house": "",
      "postcode": "3730-056",
      "city": "VALE DE CAMBRA",
      "lon": "-8.408464915876875",
      "lat": "40.83748647959509"
    },
    {
      "id": "pt.ine.add.PTCONT.219024",
      "street": "R MIRA CAIMA",
      "house": "710",
      "postcode": "3730-056",
      "city": "VALE DE CAMBRA",
      "lon": "-8.408788545930088",
      "lat": "40.83833216489885"
    },
    {
      "id": "pt.ine.add.PTCONT.247931",
      "street": "R S JOSE",
      "house": "77",
      "postcode": "3730-056",
      "city": "VALE DE CAMBRA",
      "lon": "-8.408068643736062",
      "lat": "40.83914432154225"
    },
    {
      "id": "pt.ine.add.PTCONT.259577",
      "street": "R S JOSE",
      "house": "69",
      "postcode": "3730-056",
      "city": "VALE DE CAMBRA",
      "lon": "-8.408057568383388",
      "lat": "40.839333450260746"
    },
    {
      "id": "pt.ine.add.PTCONT.270322",
      "street": "R MIRADOURO DAS BARALHAS",
      "house": "",
      "postcode": "3730-084",
      "city": "VALE DE CAMBRA",
      "lon": "-8.408841308020056",
      "lat": "40.83961973561633"
    },
    {
      "id": "pt.ine.add.PTCONT.281104",
      "street": "R S JOSE",
      "house": "",
      "postcode": "3730-056",
      "city": "VALE DE CAMBRA",
      "lon": "-8.408601972343956",
      "lat": "40.83908901994151"
    },
    {
      "id": "pt.ine.add.PTCONT.283579",
      "street": "R S JOSE",
      "house": "103",
      "postcode": "3730-056",
      "city": "VALE DE CAMBRA",
      "lon": "-8.40808180284627",
      "lat": "40.83945946071146"
    },
    {
      "id": "pt.ine.add.PTCONT.289010",
      "street": "R FLORES",
      "house": "",
      "postcode": "3730-056",
      "city": "VALE DE CAMBRA",
      "lon": "-8.407642879276045",
      "lat": "40.8394064768227"
    }
  ]
}