{
  "data": {
    "distrito": "Beja",
    "concelho": "Odemira",
    "freguesia": "São Martinho das Amoreiras",
    "OBJECTID": 1218,
    "BGRI2021": "02110700223",
    "DT21": "02",
    "DTMN21": "0211",
    "DTMNFR21": "021107",
    "DTMNFRSEC21": "021107002",
    "SECNUM21": "002",
    "SSNUM21": "23",
    "SECSSNUM21": "00223",
    "OBJECTID_1": 17706,
    "DT": "02",
    "CC": "11",
    "fr": "07",
    "SEC": "002",
    "SS": "23"
  },
  "addresses": [
    {
      "id": "pt.ine.add.PTCONT.456579",
      "street": "R ENG AMARO DA COSTA",
      "house": "",
      "postcode": "7630-536",
      "city": "S MARTINHO DAS AMOREIRAS",
      "lon": "-8.41542748994367",
      "lat": "37.6894931975252"
    },
    {
      "id": "pt.ine.add.PTCONT.354654",
      "street": "R ENG AMARO DA COSTA",
      "house": "",
      "postcode": "7630-536",
      "city": "S MARTINHO DAS AMOREIRAS",
      "lon": "-8.415994709015584",
      "lat": "37.68958193567213"
    },
    {
      "id": "pt.ine.add.PTCONT.362001",
      "street": "R ENG AMARO DA COSTA",
      "house": "",
      "postcode": "7630-536",
      "city": "S MARTINHO DAS AMOREIRAS",
      "lon": "-8.415813205607646",
      "lat": "37.68955534169493"
    },
    {
      "id": "pt.ine.add.PTCONT.369982",
      "street": "TV DO BAIRRO NATAL",
      "house": "",
      "postcode": "7630-514",
      "city": "S MARTINHO DAS AMOREIRAS",
      "lon": "-8.41555356457031",
      "lat": "37.68966122016311"
    },
    {
      "id": "pt.ine.add.PTCONT.374161",
      "street": "TV BECO DA ISOLA",
      "house": "",
      "postcode": "7630-514",
      "city": "S MARTINHO DAS AMOREIRAS",
      "lon": "-8.415757577920967",
      "lat": "37.689834777069166"
    },
    {
      "id": "pt.ine.add.PTCONT.374992",
      "street": "R ENG AMARO DA COSTA",
      "house": "",
      "postcode": "7630-536",
      "city": "S MARTINHO DAS AMOREIRAS",
      "lon": "-8.417094794867612",
      "lat": "37.689669389073586"
    },
    {
      "id": "pt.ine.add.PTCONT.374998",
      "street": "R ENG AMARO DA COSTA",
      "house": "",
      "postcode": "7630-536",
      "city": "S MARTINHO DAS AMOREIRAS",
      "lon": "-8.417094794867612",
      "lat": "37.689669389073586"
    },
    {
      "id": "pt.ine.add.PTCONT.377412",
      "street": "TV BECO DO PONTALINHO",
      "house": "",
      "postcode": "7630-514",
      "city": "S MARTINHO DAS AMOREIRAS",
      "lon": "-8.41566574913826",
      "lat": "37.689537675609124"
    },
    {
      "id": "pt.ine.add.PTCONT.377422",
      "street": "R ENG AMARO DA COSTA",
      "house": "",
      "postcode": "7630-536",
      "city": "S MARTINHO DAS AMOREIRAS",
      "lon": "-8.414576834098087",
      "lat": "37.68940513348873"
    },
    {
      "id": "pt.ine.add.PTCONT.378843",
      "street": "BC DO PONTALINHO",
      "house": "",
      "postcode": "7630-514",
      "city": "S MARTINHO DAS AMOREIRAS",
      "lon": "-8.415587335053424",
      "lat": "37.68978798474416"
    },
    {
      "id": "pt.ine.add.PTCONT.378844",
      "street": "R ENG AMARO DA COSTA",
      "house": "",
      "postcode": "7630-536",
      "city": "S MARTINHO DAS AMOREIRAS",
      "lon": "-8.415246021082076",
      "lat": "37.68947561233467"
    },
    {
      "id": "pt.ine.add.PTCONT.383841",
      "street": "R DA ESTAÇÃO",
      "house": "",
      "postcode": "7630-536",
      "city": "S MARTINHO DAS AMOREIRAS",
      "lon": "-8.41435032177556",
      "lat": "37.68946874211233"
    },
    {
      "id": "pt.ine.add.PTCONT.385450",
      "street": "R ENG AMARO DA COSTA",
      "house": "",
      "postcode": "7630-536",
      "city": "S MARTINHO DAS AMOREIRAS",
      "lon": "-8.415552339530949",
      "lat": "37.68952893754282"
    },
    {
      "id": "pt.ine.add.PTCONT.386203",
      "street": "R JOSÉ PALMA",
      "house": "",
      "postcode": "7630-514",
      "city": "S MARTINHO DAS AMOREIRAS",
      "lon": "-8.414578264289021",
      "lat": "37.689783539297174"
    },
    {
      "id": "pt.ine.add.PTCONT.386204",
      "street": "R JOSÉ PALMA",
      "house": "",
      "postcode": "7630-514",
      "city": "S MARTINHO DAS AMOREIRAS",
      "lon": "-8.414578264289021",
      "lat": "37.689783539297174"
    },
    {
      "id": "pt.ine.add.PTCONT.386205",
      "street": "LG DA ESTAÇÃO",
      "house": "",
      "postcode": "7630-514",
      "city": "S MARTINHO DAS AMOREIRAS",
      "lon": "-8.41456644999279",
      "lat": "37.689657431090296"
    },
    {
      "id": "pt.ine.add.PTCONT.403041",
      "street": "R ENG AMARO DA COSTA",
      "house": "",
      "postcode": "7630-536",
      "city": "S MARTINHO DAS AMOREIRAS",
      "lon": "-8.415336755502382",
      "lat": "37.689484404964894"
    },
    {
      "id": "pt.ine.add.PTCONT.404004",
      "street": "TV DO BAIRRO NATAL",
      "house": "",
      "postcode": "7630-514",
      "city": "S MARTINHO DAS AMOREIRAS",
      "lon": "-8.415521488904623",
      "lat": "37.689839634032325"
    },
    {
      "id": "pt.ine.add.PTCONT.404872",
      "street": "LG DA ESTAÇÃO",
      "house": "",
      "postcode": "7630-514",
      "city": "S MARTINHO DAS AMOREIRAS",
      "lon": "-8.41436339465025",
      "lat": "37.68992820784107"
    },
    {
      "id": "pt.ine.add.PTCONT.404873",
      "street": "LG DA ESTAÇÃO",
      "house": "",
      "postcode": "7630-514",
      "city": "S MARTINHO DAS AMOREIRAS",
      "lon": "-8.41436339465025",
      "lat": "37.68992820784107"
    },
    {
      "id": "pt.ine.add.PTCONT.406475",
      "street": "R JOSÉ PALMA",
      "house": "",
      "postcode": "7630-514",
      "city": "S MARTINHO DAS AMOREIRAS",
      "lon": "-8.414770492047989",
      "lat": "37.689647934183526"
    },
    {
      "id": "pt.ine.add.PTCONT.408778",
      "street": "R DA ESTAÇÃO",
      "house": "",
      "postcode": "7630-536",
      "city": "S MARTINHO DAS AMOREIRAS",
      "lon": "-8.41433946056669",
      "lat": "37.68959490442364"
    },
    {
      "id": "pt.ine.add.PTCONT.408779",
      "street": "R DA ESTAÇÃO",
      "house": "",
      "postcode": "7630-536",
      "city": "S MARTINHO DAS AMOREIRAS",
      "lon": "-8.41433946056669",
      "lat": "37.68959490442364"
    },
    {
      "id": "pt.ine.add.PTCONT.417722",
      "street": "R JOSÉ PALHA",
      "house": "",
      "postcode": "7630-514",
      "city": "S MARTINHO DAS AMOREIRAS",
      "lon": "-8.4145888186365",
      "lat": "37.689576290010855"
    },
    {
      "id": "pt.ine.add.PTCONT.417723",
      "street": "R JOSÉ PALHA",
      "house": "",
      "postcode": "7630-514",
      "city": "S MARTINHO DAS AMOREIRAS",
      "lon": "-8.4145888186365",
      "lat": "37.689576290010855"
    },
    {
      "id": "pt.ine.add.PTCONT.423408",
      "street": "R JOSÉ PALMA",
      "house": "",
      "postcode": "7630-514",
      "city": "S MARTINHO DAS AMOREIRAS",
      "lon": "-8.414792724153758",
      "lat": "37.68953075441812"
    },
    {
      "id": "pt.ine.add.PTCONT.428951",
      "street": "R ENG AMARO DA COSTA",
      "house": "",
      "postcode": "7630-536",
      "city": "S MARTINHO DAS AMOREIRAS",
      "lon": "-8.414849071021822",
      "lat": "37.689440522378746"
    },
    {
      "id": "pt.ine.add.PTCONT.431255",
      "street": "DA ESTAÇÃO",
      "house": "",
      "postcode": "7630-514",
      "city": "S MARTINHO DAS AMOREIRAS",
      "lon": "-8.415555232108238",
      "lat": "37.69024497991922"
    },
    {
      "id": "pt.ine.add.PTCONT.432988",
      "street": "R JOSÉ PALMA",
      "house": "",
      "postcode": "7630-514",
      "city": "S MARTINHO DAS AMOREIRAS",
      "lon": "-8.414748328019487",
      "lat": "37.68978313326608"
    },
    {
      "id": "pt.ine.add.PTCONT.438176",
      "street": "TV DO BAIRRO NATAL",
      "house": "",
      "postcode": "7630-514",
      "city": "S MARTINHO DAS AMOREIRAS",
      "lon": "-8.415552578721421",
      "lat": "37.689592005172635"
    },
    {
      "id": "pt.ine.add.PTCONT.446080",
      "street": "TV BECO DO PONTALINHO",
      "house": "",
      "postcode": "7630-514",
      "city": "S MARTINHO DAS AMOREIRAS",
      "lon": "-8.415638827004459",
      "lat": "37.68965100339534"
    },
    {
      "id": "pt.ine.add.PTCONT.448613",
      "street": "MTE ZEFERINO",
      "house": "",
      "postcode": "7630-514",
      "city": "S MARTINHO DAS AMOREIRAS",
      "lon": "-8.414576496031927",
      "lat": "37.690365600822844"
    },
    {
      "id": "pt.ine.add.PTCONT.455093",
      "street": "TV DO BAIRRO NATAL",
      "house": "",
      "postcode": "7630-514",
      "city": "S MARTINHO DAS AMOREIRAS",
      "lon": "-8.415537884902248",
      "lat": "37.689749497337175"
    }
  ]
}