{
  "data": {
    "distrito": "Castelo Branco",
    "concelho": "Fundão",
    "freguesia": "Alpedrinha",
    "OBJECTID": 404,
    "BGRI2021": "05040600113",
    "DT21": "05",
    "DTMN21": "0504",
    "DTMNFR21": "050406",
    "DTMNFRSEC21": "050406001",
    "SECNUM21": "001",
    "SSNUM21": "13",
    "SECSSNUM21": "00113",
    "OBJECTID_1": 43257,
    "DT": "05",
    "CC": "04",
    "fr": "06",
    "SEC": "001",
    "SS": "13"
  },
  "addresses": [
    {
      "id": "pt.ine.add.PTCONT.955611",
      "street": "R D JORGE DA COSTA CARDEAL DE ALPEDRINHA",
      "house": "28",
      "postcode": "6230-077",
      "city": "ALPEDRINHA",
      "lon": "-7.4673196734476175",
      "lat": "40.09814675319324"
    },
    {
      "id": "pt.ine.add.PTCONT.956692",
      "street": "R D JORGE DA COSTA CARDEAL DE ALPEDRINHA",
      "house": "20",
      "postcode": "6230-077",
      "city": "ALPEDRINHA",
      "lon": "-7.467376462692333",
      "lat": "40.098336204369396"
    },
    {
      "id": "pt.ine.add.PTCONT.968794",
      "street": "R D JORGE DA COSTA CARDEAL DE ALPEDRINHA",
      "house": "14",
      "postcode": "6230-077",
      "city": "ALPEDRINHA",
      "lon": "-7.467455476725087",
      "lat": "40.09865186640517"
    },
    {
      "id": "pt.ine.add.PTCONT.968795",
      "street": "R D JORGE DA COSTA CARDEAL DE ALPEDRINHA",
      "house": "14",
      "postcode": "6230-077",
      "city": "ALPEDRINHA",
      "lon": "-7.467455476725087",
      "lat": "40.09865186640517"
    },
    {
      "id": "pt.ine.add.PTCONT.970379",
      "street": "R ANTÓNIO VAZ MENDES",
      "house": "",
      "postcode": "6230-076",
      "city": "ALPEDRINHA",
      "lon": "-7.4679798392083425",
      "lat": "40.09899710442701"
    },
    {
      "id": "pt.ine.add.PTCONT.990232",
      "street": "R D JORGE DA COSTA CARDEAL DE ALPEDRINHA",
      "house": "30",
      "postcode": "6230-077",
      "city": "ALPEDRINHA",
      "lon": "-7.467320375617254",
      "lat": "40.098074709700256"
    },
    {
      "id": "pt.ine.add.PTCONT.996542",
      "street": "R D JORGE DA COSTA CARDEAL DE ALPEDRINHA",
      "house": "24",
      "postcode": "6230-077",
      "city": "ALPEDRINHA",
      "lon": "-7.467400881046145",
      "lat": "40.09823727936414"
    },
    {
      "id": "pt.ine.add.PTCONT.1009273",
      "street": "R FONTAINHA",
      "house": "",
      "postcode": "6230-077",
      "city": "ALPEDRINHA",
      "lon": "-7.4676939551758155",
      "lat": "40.09824796934767"
    },
    {
      "id": "pt.ine.add.PTCONT.1014197",
      "street": "R FONTAINHA",
      "house": "7",
      "postcode": "6230-077",
      "city": "ALPEDRINHA",
      "lon": "-7.4676813514589115",
      "lat": "40.09833795635008"
    },
    {
      "id": "pt.ine.add.PTCONT.1022018",
      "street": "R ANTÓNIO VAZ MENDES",
      "house": "",
      "postcode": "6230-076",
      "city": "ALPEDRINHA",
      "lon": "-7.467780662348726",
      "lat": "40.09897794861796"
    },
    {
      "id": "pt.ine.add.PTCONT.1022588",
      "street": "R ANTÓNIO VAZ MENDES",
      "house": "5",
      "postcode": "6230-076",
      "city": "ALPEDRINHA",
      "lon": "-7.467991039700481",
      "lat": "40.09905120438412"
    },
    {
      "id": "pt.ine.add.PTCONT.1030009",
      "street": "R ANTÓNIO VAZ MENDES",
      "house": "",
      "postcode": "6230-076",
      "city": "ALPEDRINHA",
      "lon": "-7.467874124359523",
      "lat": "40.09901450919921"
    },
    {
      "id": "pt.ine.add.PTCONT.1034171",
      "street": "R D JORGE DA COSTA CARDEAL DE ALPEDRINHA",
      "house": "26",
      "postcode": "6230-077",
      "city": "ALPEDRINHA",
      "lon": "-7.467330961055913",
      "lat": "40.09819184778019"
    },
    {
      "id": "pt.ine.add.PTCONT.1034172",
      "street": "R D JORGE DA COSTA CARDEAL DE ALPEDRINHA",
      "house": "32",
      "postcode": "6230-077",
      "city": "ALPEDRINHA",
      "lon": "-7.467299029294281",
      "lat": "40.0978584444052"
    },
    {
      "id": "pt.ine.add.PTCONT.1038033",
      "street": "R D JORGE DA COSTA CARDEAL DE ALPEDRINHA",
      "house": "22",
      "postcode": "6230-077",
      "city": "ALPEDRINHA",
      "lon": "-7.467388803522326",
      "lat": "40.09827323371297"
    },
    {
      "id": "pt.ine.add.PTCONT.1053821",
      "street": "R D JORGE COSTA CARDEAL ALPEDRINHA",
      "house": "18",
      "postcode": "6230-077",
      "city": "ALPEDRINHA",
      "lon": "-7.467421437962919",
      "lat": "40.09853459355583"
    },
    {
      "id": "pt.ine.add.PTCONT.1053823",
      "street": "CC BRITOS",
      "house": "",
      "postcode": "6230-062",
      "city": "ALPEDRINHA",
      "lon": "-7.467706471137475",
      "lat": "40.098166987779514"
    },
    {
      "id": "pt.ine.add.PTCONT.1080317",
      "street": "R D JORGE DA COSTA CARDEAL DE ALPEDRINHA",
      "house": "16",
      "postcode": "6230-077",
      "city": "ALPEDRINHA",
      "lon": "-7.467432637941262",
      "lat": "40.098588693567045"
    },
    {
      "id": "pt.ine.add.PTCONT.1080318",
      "street": "R FONTAINHA",
      "house": "",
      "postcode": "6230-077",
      "city": "ALPEDRINHA",
      "lon": "-7.4675881536834225",
      "lat": "40.098274379306886"
    }
  ]
}