{
  "data": {
    "distrito": "Lisboa",
    "concelho": "Cascais",
    "freguesia": "São Domingos de Rana",
    "OBJECTID": 1344,
    "BGRI2021": "11050602304",
    "DT21": "11",
    "DTMN21": "1105",
    "DTMNFR21": "110506",
    "DTMNFRSEC21": "110506023",
    "SECNUM21": "023",
    "SSNUM21": "04",
    "SECSSNUM21": "02304",
    "OBJECTID_1": 101817,
    "DT": "11",
    "CC": "05",
    "fr": "06",
    "SEC": "023",
    "SS": "04"
  },
  "addresses": [
    {
      "id": "pt.ine.add.PTCONT.2926948",
      "street": "R FR AGOSTINHO DE S MARIA",
      "house": "103",
      "postcode": "2785-306",
      "city": "SÃO DOMINGOS DE RANA",
      "lon": "-9.326126976037393",
      "lat": "38.730126032672686"
    },
    {
      "id": "pt.ine.add.PTCONT.2926949",
      "street": "R FR AGOSTINHO DE S MARIA",
      "house": "103",
      "postcode": "2785-306",
      "city": "SÃO DOMINGOS DE RANA",
      "lon": "-9.326126976037393",
      "lat": "38.730126032672686"
    },
    {
      "id": "pt.ine.add.PTCONT.3055559",
      "street": "R FR AGOSTINHO DE S MARIA",
      "house": "",
      "postcode": "2785-306",
      "city": "SÃO DOMINGOS DE RANA",
      "lon": "-9.326591340732739",
      "lat": "38.72969792865657"
    },
    {
      "id": "pt.ine.add.PTCONT.3111593",
      "street": "R PADRE FR FILIPE DA GRAÇA",
      "house": "103",
      "postcode": "2785-306",
      "city": "SÃO DOMINGOS DE RANA",
      "lon": "-9.326007468459634",
      "lat": "38.729163423868805"
    },
    {
      "id": "pt.ine.add.PTCONT.3176679",
      "street": "ESTR CONCEIÇÃO DA ABOBODA",
      "house": "264",
      "postcode": "2785-021",
      "city": "SÃO DOMINGOS DE RANA",
      "lon": "-9.325743622365993",
      "lat": "38.72920214703271"
    },
    {
      "id": "pt.ine.add.PTCONT.3247395",
      "street": "R FR AGOSTINHO DE S MARIA",
      "house": "75",
      "postcode": "2785-306",
      "city": "SÃO DOMINGOS DE RANA",
      "lon": "-9.325826536382174",
      "lat": "38.73003902111709"
    },
    {
      "id": "pt.ine.add.PTCONT.3333891",
      "street": "R FR AGOSTINHO DE S MARIA MONTE DOS SENDAVAIS",
      "house": "94",
      "postcode": "2785-306",
      "city": "SÃO DOMINGOS DE RANA",
      "lon": "-9.326137237893082",
      "lat": "38.72936026986939"
    },
    {
      "id": "pt.ine.add.PTCONT.3398483",
      "street": "R PADRE FR FILIPE DA GRAÇA O NOSSO SONHO",
      "house": "",
      "postcode": "2785-306",
      "city": "SÃO DOMINGOS DE RANA",
      "lon": "-9.326037054539155",
      "lat": "38.72955946262274"
    },
    {
      "id": "pt.ine.add.PTCONT.2273048",
      "street": "ESTR CONCEIÇÃO DA ABOBODA",
      "house": "260",
      "postcode": "2785-021",
      "city": "SÃO DOMINGOS DE RANA",
      "lon": "-9.32565298909536",
      "lat": "38.72928414137299"
    },
    {
      "id": "pt.ine.add.PTCONT.2421866",
      "street": "ESTR CONCEIÇÃO ABOBODA",
      "house": "76",
      "postcode": "2785-021",
      "city": "SÃO DOMINGOS DE RANA",
      "lon": "-9.32525700875538",
      "lat": "38.72967551334445"
    },
    {
      "id": "pt.ine.add.PTCONT.2445661",
      "street": "R FR AGOSTINHO DE S MARIA",
      "house": "73",
      "postcode": "2785-306",
      "city": "SÃO DOMINGOS DE RANA",
      "lon": "-9.325745303305718",
      "lat": "38.72999481122418"
    },
    {
      "id": "pt.ine.add.PTCONT.2492188",
      "street": "R FR AGOSTINHO DE S MARIA",
      "house": "83",
      "postcode": "2785-306",
      "city": "SÃO DOMINGOS DE RANA",
      "lon": "-9.325895972239987",
      "lat": "38.73006533584735"
    },
    {
      "id": "pt.ine.add.PTCONT.2596719",
      "street": "R FR AGOSTINHO DE S MARIA",
      "house": "317",
      "postcode": "2785-306",
      "city": "SÃO DOMINGOS DE RANA",
      "lon": "-9.326252813606729",
      "lat": "38.72939512122826"
    },
    {
      "id": "pt.ine.add.PTCONT.2622595",
      "street": "ESTR CONCEIÇÃO DA ABOBODA",
      "house": "184",
      "postcode": "2785-021",
      "city": "SÃO DOMINGOS DE RANA",
      "lon": "-9.325109185132172",
      "lat": "38.729776105984534"
    },
    {
      "id": "pt.ine.add.PTCONT.2804420",
      "street": "R PADRE FR FILIPE DA GRAÇA",
      "house": "218",
      "postcode": "2785-306",
      "city": "SÃO DOMINGOS DE RANA",
      "lon": "-9.325543852256512",
      "lat": "38.729636556680234"
    },
    {
      "id": "pt.ine.add.PTCONT.2886432",
      "street": "R FR AGOSTINHO DE S MARIA",
      "house": "",
      "postcode": "2785-306",
      "city": "SÃO DOMINGOS DE RANA",
      "lon": "-9.32675425697029",
      "lat": "38.72981336583948"
    }
  ]
}