{
  "data": {
    "distrito": "Lisboa",
    "concelho": "Oeiras",
    "freguesia": "Barcarena",
    "OBJECTID": 944,
    "BGRI2021": "11100200506",
    "DT21": "11",
    "DTMN21": "1110",
    "DTMNFR21": "111002",
    "DTMNFRSEC21": "111002005",
    "SECNUM21": "005",
    "SSNUM21": "06",
    "SECSSNUM21": "00506",
    "OBJECTID_1": 110749,
    "DT": "11",
    "CC": "10",
    "fr": "02",
    "SEC": "005",
    "SS": "06"
  },
  "addresses": [
    {
      "id": "pt.ine.add.PTCONT.2357083",
      "street": "R ANTÓNIO JOSE SARAIVA",
      "house": "12",
      "postcode": "2730-196",
      "city": "BARCARENA",
      "lon": "-9.278568269029565",
      "lat": "38.74478896205011"
    },
    {
      "id": "pt.ine.add.PTCONT.2357084",
      "street": "R ANTÓNIO JOSE SARAIVA",
      "house": "12",
      "postcode": "2730-196",
      "city": "BARCARENA",
      "lon": "-9.278568269029565",
      "lat": "38.74478896205011"
    },
    {
      "id": "pt.ine.add.PTCONT.2357085",
      "street": "R ANTÓNIO JOSE SARAIVA",
      "house": "12",
      "postcode": "2730-196",
      "city": "BARCARENA",
      "lon": "-9.278568269029565",
      "lat": "38.74478896205011"
    },
    {
      "id": "pt.ine.add.PTCONT.2357086",
      "street": "R ANTÓNIO JOSE SARAIVA",
      "house": "12",
      "postcode": "2730-196",
      "city": "BARCARENA",
      "lon": "-9.278568269029565",
      "lat": "38.74478896205011"
    },
    {
      "id": "pt.ine.add.PTCONT.2357087",
      "street": "R ANTÓNIO JOSE SARAIVA",
      "house": "12",
      "postcode": "2730-196",
      "city": "BARCARENA",
      "lon": "-9.278568269029565",
      "lat": "38.74478896205011"
    },
    {
      "id": "pt.ine.add.PTCONT.2357088",
      "street": "R ANTÓNIO JOSE SARAIVA",
      "house": "12",
      "postcode": "2730-196",
      "city": "BARCARENA",
      "lon": "-9.278568269029565",
      "lat": "38.74478896205011"
    },
    {
      "id": "pt.ine.add.PTCONT.2357089",
      "street": "R ANTÓNIO JOSE SARAIVA",
      "house": "12",
      "postcode": "2730-196",
      "city": "BARCARENA",
      "lon": "-9.278568269029565",
      "lat": "38.74478896205011"
    },
    {
      "id": "pt.ine.add.PTCONT.2357090",
      "street": "R ANTÓNIO JOSE SARAIVA",
      "house": "12",
      "postcode": "2730-196",
      "city": "BARCARENA",
      "lon": "-9.278568269029565",
      "lat": "38.74478896205011"
    },
    {
      "id": "pt.ine.add.PTCONT.2357115",
      "street": "R ANTÓNIO JOSE SARAIVA",
      "house": "12",
      "postcode": "2730-196",
      "city": "BARCARENA",
      "lon": "-9.278568269029565",
      "lat": "38.74478896205011"
    },
    {
      "id": "pt.ine.add.PTCONT.2369171",
      "street": "R JOÃO REIS GOMES",
      "house": "8",
      "postcode": "2730-003",
      "city": "BARCARENA",
      "lon": "-9.278162178906474",
      "lat": "38.74600898762657"
    },
    {
      "id": "pt.ine.add.PTCONT.2382043",
      "street": "ESTR CRUZ DOS CAVALINHOS",
      "house": "24",
      "postcode": "2730-059",
      "city": "BARCARENA",
      "lon": "-9.276776397455212",
      "lat": "38.74205914295455"
    },
    {
      "id": "pt.ine.add.PTCONT.2399475",
      "street": "R ANTÓNIO JOSE SARAIVA",
      "house": "16",
      "postcode": "2730-196",
      "city": "BARCARENA",
      "lon": "-9.27860694357145",
      "lat": "38.74504980786903"
    },
    {
      "id": "pt.ine.add.PTCONT.2399476",
      "street": "R ANTÓNIO JOSE SARAIVA",
      "house": "16",
      "postcode": "2730-196",
      "city": "BARCARENA",
      "lon": "-9.27860694357145",
      "lat": "38.74504980786903"
    },
    {
      "id": "pt.ine.add.PTCONT.2399488",
      "street": "R ANTÓNIO JOSE SARAIVA",
      "house": "16",
      "postcode": "2730-196",
      "city": "BARCARENA",
      "lon": "-9.27860694357145",
      "lat": "38.74504980786903"
    },
    {
      "id": "pt.ine.add.PTCONT.2399489",
      "street": "R ANTÓNIO JOSE SARAIVA",
      "house": "16",
      "postcode": "2730-196",
      "city": "BARCARENA",
      "lon": "-9.27860694357145",
      "lat": "38.74504980786903"
    },
    {
      "id": "pt.ine.add.PTCONT.2399490",
      "street": "R ANTÓNIO JOSE SARAIVA",
      "house": "16",
      "postcode": "2730-196",
      "city": "BARCARENA",
      "lon": "-9.27860694357145",
      "lat": "38.74504980786903"
    },
    {
      "id": "pt.ine.add.PTCONT.2399491",
      "street": "R ANTÓNIO JOSE SARAIVA",
      "house": "16",
      "postcode": "2730-196",
      "city": "BARCARENA",
      "lon": "-9.27860694357145",
      "lat": "38.74504980786903"
    },
    {
      "id": "pt.ine.add.PTCONT.2399492",
      "street": "R ANTÓNIO JOSE SARAIVA",
      "house": "16",
      "postcode": "2730-196",
      "city": "BARCARENA",
      "lon": "-9.27860694357145",
      "lat": "38.74504980786903"
    },
    {
      "id": "pt.ine.add.PTCONT.2399493",
      "street": "R ANTÓNIO JOSE SARAIVA",
      "house": "16",
      "postcode": "2730-196",
      "city": "BARCARENA",
      "lon": "-9.27860694357145",
      "lat": "38.74504980786903"
    },
    {
      "id": "pt.ine.add.PTCONT.2508300",
      "street": "R ODETTE DE SAINT-MAURICE",
      "house": "21",
      "postcode": "2730-195",
      "city": "BARCARENA",
      "lon": "-9.278094310650939",
      "lat": "38.74464047407298"
    },
    {
      "id": "pt.ine.add.PTCONT.2508301",
      "street": "R ODETTE DE SAINT-MAURICE",
      "house": "21",
      "postcode": "2730-195",
      "city": "BARCARENA",
      "lon": "-9.278094310650939",
      "lat": "38.74464047407298"
    },
    {
      "id": "pt.ine.add.PTCONT.2508302",
      "street": "R ODETTE DE SAINT-MAURICE",
      "house": "21",
      "postcode": "2730-195",
      "city": "BARCARENA",
      "lon": "-9.278094310650939",
      "lat": "38.74464047407298"
    },
    {
      "id": "pt.ine.add.PTCONT.2508303",
      "street": "R ODETTE DE SAINT-MAURICE",
      "house": "21",
      "postcode": "2730-195",
      "city": "BARCARENA",
      "lon": "-9.278094310650939",
      "lat": "38.74464047407298"
    },
    {
      "id": "pt.ine.add.PTCONT.2508304",
      "street": "R ODETTE DE SAINT-MAURICE",
      "house": "21",
      "postcode": "2730-195",
      "city": "BARCARENA",
      "lon": "-9.278094310650939",
      "lat": "38.74464047407298"
    },
    {
      "id": "pt.ine.add.PTCONT.2508305",
      "street": "R ODETTE DE SAINT-MAURICE",
      "house": "21",
      "postcode": "2730-195",
      "city": "BARCARENA",
      "lon": "-9.278094310650939",
      "lat": "38.74464047407298"
    },
    {
      "id": "pt.ine.add.PTCONT.2508306",
      "street": "R ODETTE DE SAINT-MAURICE",
      "house": "21",
      "postcode": "2730-195",
      "city": "BARCARENA",
      "lon": "-9.278094310650939",
      "lat": "38.74464047407298"
    },
    {
      "id": "pt.ine.add.PTCONT.2511782",
      "street": "R ODETTE DE SAINT-MAURICE",
      "house": "21",
      "postcode": "2730-195",
      "city": "BARCARENA",
      "lon": "-9.278094310650939",
      "lat": "38.74464047407298"
    },
    {
      "id": "pt.ine.add.PTCONT.2716689",
      "street": "R DAVID MOURAO-FERREIRA",
      "house": "2",
      "postcode": "2730-001",
      "city": "BARCARENA",
      "lon": "-9.275877008053895",
      "lat": "38.746968158502014"
    },
    {
      "id": "pt.ine.add.PTCONT.2795472",
      "street": "R ANTÓNIO JOSE SARAIVA",
      "house": "10",
      "postcode": "2730-196",
      "city": "BARCARENA",
      "lon": "-9.278554322244965",
      "lat": "38.74463596692152"
    },
    {
      "id": "pt.ine.add.PTCONT.2795473",
      "street": "R ANTÓNIO JOSE SARAIVA",
      "house": "10",
      "postcode": "2730-196",
      "city": "BARCARENA",
      "lon": "-9.278554322244965",
      "lat": "38.74463596692152"
    },
    {
      "id": "pt.ine.add.PTCONT.2795474",
      "street": "R ANTÓNIO JOSE SARAIVA",
      "house": "10",
      "postcode": "2730-196",
      "city": "BARCARENA",
      "lon": "-9.278554322244965",
      "lat": "38.74463596692152"
    },
    {
      "id": "pt.ine.add.PTCONT.2795625",
      "street": "R ANTÓNIO JOSE SARAIVA",
      "house": "10",
      "postcode": "2730-196",
      "city": "BARCARENA",
      "lon": "-9.278554322244965",
      "lat": "38.74463596692152"
    },
    {
      "id": "pt.ine.add.PTCONT.2795626",
      "street": "R ANTÓNIO JOSE SARAIVA",
      "house": "10",
      "postcode": "2730-196",
      "city": "BARCARENA",
      "lon": "-9.278554322244965",
      "lat": "38.74463596692152"
    },
    {
      "id": "pt.ine.add.PTCONT.2795627",
      "street": "R ANTÓNIO JOSE SARAIVA",
      "house": "10",
      "postcode": "2730-196",
      "city": "BARCARENA",
      "lon": "-9.278554322244965",
      "lat": "38.74463596692152"
    },
    {
      "id": "pt.ine.add.PTCONT.2795628",
      "street": "R ANTÓNIO JOSE SARAIVA",
      "house": "10",
      "postcode": "2730-196",
      "city": "BARCARENA",
      "lon": "-9.278554322244965",
      "lat": "38.74463596692152"
    },
    {
      "id": "pt.ine.add.PTCONT.2795629",
      "street": "R ANTÓNIO JOSE SARAIVA",
      "house": "10",
      "postcode": "2730-196",
      "city": "BARCARENA",
      "lon": "-9.278554322244965",
      "lat": "38.74463596692152"
    },
    {
      "id": "pt.ine.add.PTCONT.2795630",
      "street": "R ANTÓNIO JOSE SARAIVA",
      "house": "10",
      "postcode": "2730-196",
      "city": "BARCARENA",
      "lon": "-9.278554322244965",
      "lat": "38.74463596692152"
    },
    {
      "id": "pt.ine.add.PTCONT.2795631",
      "street": "R ANTÓNIO JOSE SARAIVA",
      "house": "10",
      "postcode": "2730-196",
      "city": "BARCARENA",
      "lon": "-9.278554322244965",
      "lat": "38.74463596692152"
    },
    {
      "id": "pt.ine.add.PTCONT.2795632",
      "street": "R ANTÓNIO JOSE SARAIVA",
      "house": "10",
      "postcode": "2730-196",
      "city": "BARCARENA",
      "lon": "-9.278554322244965",
      "lat": "38.74463596692152"
    },
    {
      "id": "pt.ine.add.PTCONT.2795633",
      "street": "R ANTÓNIO JOSE SARAIVA",
      "house": "10",
      "postcode": "2730-196",
      "city": "BARCARENA",
      "lon": "-9.278554322244965",
      "lat": "38.74463596692152"
    },
    {
      "id": "pt.ine.add.PTCONT.2795634",
      "street": "R ANTÓNIO JOSE SARAIVA",
      "house": "10",
      "postcode": "2730-196",
      "city": "BARCARENA",
      "lon": "-9.278554322244965",
      "lat": "38.74463596692152"
    },
    {
      "id": "pt.ine.add.PTCONT.2795635",
      "street": "R ANTÓNIO JOSE SARAIVA",
      "house": "10",
      "postcode": "2730-196",
      "city": "BARCARENA",
      "lon": "-9.278554322244965",
      "lat": "38.74463596692152"
    },
    {
      "id": "pt.ine.add.PTCONT.2795636",
      "street": "R ANTÓNIO JOSE SARAIVA",
      "house": "10",
      "postcode": "2730-196",
      "city": "BARCARENA",
      "lon": "-9.278554322244965",
      "lat": "38.74463596692152"
    },
    {
      "id": "pt.ine.add.PTCONT.2865920",
      "street": "R ROGERIO PAULO",
      "house": "14",
      "postcode": "2730-194",
      "city": "BARCARENA",
      "lon": "-9.278130402274131",
      "lat": "38.74545982604854"
    },
    {
      "id": "pt.ine.add.PTCONT.2881432",
      "street": "ESTR CRUZ DOS CAVALINHOS",
      "house": "26",
      "postcode": "2730-059",
      "city": "BARCARENA",
      "lon": "-9.276857902413656",
      "lat": "38.74212139975197"
    },
    {
      "id": "pt.ine.add.PTCONT.2887372",
      "street": "R DAVID MOURAO-FERREIRA",
      "house": "1",
      "postcode": "2730-001",
      "city": "BARCARENA",
      "lon": "-9.275383053129424",
      "lat": "38.74700901793227"
    },
    {
      "id": "pt.ine.add.PTCONT.2986460",
      "street": "R ODETTE DE SAINT-MAURICE",
      "house": "19",
      "postcode": "2730-195",
      "city": "BARCARENA",
      "lon": "-9.278232314139956",
      "lat": "38.74463912211759"
    },
    {
      "id": "pt.ine.add.PTCONT.2986461",
      "street": "R ODETTE DE SAINT-MAURICE",
      "house": "19",
      "postcode": "2730-195",
      "city": "BARCARENA",
      "lon": "-9.278232314139956",
      "lat": "38.74463912211759"
    },
    {
      "id": "pt.ine.add.PTCONT.2986462",
      "street": "R ODETTE DE SAINT-MAURICE",
      "house": "19",
      "postcode": "2730-195",
      "city": "BARCARENA",
      "lon": "-9.278232314139956",
      "lat": "38.74463912211759"
    },
    {
      "id": "pt.ine.add.PTCONT.2986626",
      "street": "R ODETTE DE SAINT-MAURICE",
      "house": "19",
      "postcode": "2730-195",
      "city": "BARCARENA",
      "lon": "-9.278232314139956",
      "lat": "38.74463912211759"
    },
    {
      "id": "pt.ine.add.PTCONT.2986627",
      "street": "R ODETTE DE SAINT-MAURICE",
      "house": "19",
      "postcode": "2730-195",
      "city": "BARCARENA",
      "lon": "-9.278232314139956",
      "lat": "38.74463912211759"
    },
    {
      "id": "pt.ine.add.PTCONT.2986628",
      "street": "R ODETTE DE SAINT-MAURICE",
      "house": "19",
      "postcode": "2730-195",
      "city": "BARCARENA",
      "lon": "-9.278232314139956",
      "lat": "38.74463912211759"
    },
    {
      "id": "pt.ine.add.PTCONT.2987861",
      "street": "R ODETTE DE SAINT-MAURICE",
      "house": "19",
      "postcode": "2730-195",
      "city": "BARCARENA",
      "lon": "-9.278232314139956",
      "lat": "38.74463912211759"
    },
    {
      "id": "pt.ine.add.PTCONT.2990199",
      "street": "R ODETTE DE SAINT-MAURICE",
      "house": "19",
      "postcode": "2730-195",
      "city": "BARCARENA",
      "lon": "-9.278232314139956",
      "lat": "38.74463912211759"
    },
    {
      "id": "pt.ine.add.PTCONT.2993579",
      "street": "R ODETTE DE SAINT-MAURICE",
      "house": "23",
      "postcode": "2730-195",
      "city": "BARCARENA",
      "lon": "-9.277922093937013",
      "lat": "38.744660176478405"
    },
    {
      "id": "pt.ine.add.PTCONT.2993580",
      "street": "R ODETTE DE SAINT-MAURICE",
      "house": "23",
      "postcode": "2730-195",
      "city": "BARCARENA",
      "lon": "-9.277922093937013",
      "lat": "38.744660176478405"
    },
    {
      "id": "pt.ine.add.PTCONT.2993581",
      "street": "R ODETTE DE SAINT-MAURICE",
      "house": "23",
      "postcode": "2730-195",
      "city": "BARCARENA",
      "lon": "-9.277922093937013",
      "lat": "38.744660176478405"
    },
    {
      "id": "pt.ine.add.PTCONT.2993582",
      "street": "R ODETTE DE SAINT-MAURICE",
      "house": "23",
      "postcode": "2730-195",
      "city": "BARCARENA",
      "lon": "-9.277922093937013",
      "lat": "38.744660176478405"
    },
    {
      "id": "pt.ine.add.PTCONT.2993583",
      "street": "R ODETTE DE SAINT-MAURICE",
      "house": "23",
      "postcode": "2730-195",
      "city": "BARCARENA",
      "lon": "-9.277922093937013",
      "lat": "38.744660176478405"
    },
    {
      "id": "pt.ine.add.PTCONT.2993584",
      "street": "R ODETTE DE SAINT-MAURICE",
      "house": "23",
      "postcode": "2730-195",
      "city": "BARCARENA",
      "lon": "-9.277922093937013",
      "lat": "38.744660176478405"
    },
    {
      "id": "pt.ine.add.PTCONT.2993586",
      "street": "R ODETTE DE SAINT-MAURICE",
      "house": "23",
      "postcode": "2730-195",
      "city": "BARCARENA",
      "lon": "-9.277922093937013",
      "lat": "38.744660176478405"
    },
    {
      "id": "pt.ine.add.PTCONT.2993587",
      "street": "R ODETTE DE SAINT-MAURICE",
      "house": "23",
      "postcode": "2730-195",
      "city": "BARCARENA",
      "lon": "-9.277922093937013",
      "lat": "38.744660176478405"
    },
    {
      "id": "pt.ine.add.PTCONT.3095873",
      "street": "R ODETTE DE SAINT-MAURICE",
      "house": "17",
      "postcode": "2730-195",
      "city": "BARCARENA",
      "lon": "-9.278392886531082",
      "lat": "38.744610525599434"
    },
    {
      "id": "pt.ine.add.PTCONT.3095874",
      "street": "R ODETTE DE SAINT-MAURICE",
      "house": "17",
      "postcode": "2730-195",
      "city": "BARCARENA",
      "lon": "-9.278392886531082",
      "lat": "38.744610525599434"
    },
    {
      "id": "pt.ine.add.PTCONT.3095875",
      "street": "R ODETTE DE SAINT-MAURICE",
      "house": "17",
      "postcode": "2730-195",
      "city": "BARCARENA",
      "lon": "-9.278392886531082",
      "lat": "38.744610525599434"
    },
    {
      "id": "pt.ine.add.PTCONT.3095876",
      "street": "R ODETTE DE SAINT-MAURICE",
      "house": "17",
      "postcode": "2730-195",
      "city": "BARCARENA",
      "lon": "-9.278392886531082",
      "lat": "38.744610525599434"
    },
    {
      "id": "pt.ine.add.PTCONT.3095877",
      "street": "R ODETTE DE SAINT-MAURICE",
      "house": "17",
      "postcode": "2730-195",
      "city": "BARCARENA",
      "lon": "-9.278392886531082",
      "lat": "38.744610525599434"
    },
    {
      "id": "pt.ine.add.PTCONT.3095881",
      "street": "R ODETTE DE SAINT-MAURICE",
      "house": "17",
      "postcode": "2730-195",
      "city": "BARCARENA",
      "lon": "-9.278392886531082",
      "lat": "38.744610525599434"
    },
    {
      "id": "pt.ine.add.PTCONT.3095882",
      "street": "R ODETTE DE SAINT-MAURICE",
      "house": "17",
      "postcode": "2730-195",
      "city": "BARCARENA",
      "lon": "-9.278392886531082",
      "lat": "38.744610525599434"
    },
    {
      "id": "pt.ine.add.PTCONT.3101183",
      "street": "R ODETTE DE SAINT-MAURICE",
      "house": "17",
      "postcode": "2730-195",
      "city": "BARCARENA",
      "lon": "-9.278392886531082",
      "lat": "38.744610525599434"
    },
    {
      "id": "pt.ine.add.PTCONT.3170192",
      "street": "ESTR CRUZ DOS CAVALINHOS",
      "house": "34",
      "postcode": "2730-059",
      "city": "BARCARENA",
      "lon": "-9.277532659572254",
      "lat": "38.74260121409527"
    },
    {
      "id": "pt.ine.add.PTCONT.3179488",
      "street": "R ANTÓNIO JOSE SARAIVA",
      "house": "14",
      "postcode": "2730-196",
      "city": "BARCARENA",
      "lon": "-9.278593428387302",
      "lat": "38.744923831781584"
    },
    {
      "id": "pt.ine.add.PTCONT.3179489",
      "street": "R ANTÓNIO JOSE SARAIVA",
      "house": "14",
      "postcode": "2730-196",
      "city": "BARCARENA",
      "lon": "-9.278593428387302",
      "lat": "38.744923831781584"
    },
    {
      "id": "pt.ine.add.PTCONT.3179490",
      "street": "R ANTÓNIO JOSE SARAIVA",
      "house": "14",
      "postcode": "2730-196",
      "city": "BARCARENA",
      "lon": "-9.278593428387302",
      "lat": "38.744923831781584"
    },
    {
      "id": "pt.ine.add.PTCONT.3179491",
      "street": "R ANTÓNIO JOSE SARAIVA",
      "house": "14",
      "postcode": "2730-196",
      "city": "BARCARENA",
      "lon": "-9.278593428387302",
      "lat": "38.744923831781584"
    },
    {
      "id": "pt.ine.add.PTCONT.3179492",
      "street": "R ANTÓNIO JOSE SARAIVA",
      "house": "14",
      "postcode": "2730-196",
      "city": "BARCARENA",
      "lon": "-9.278593428387302",
      "lat": "38.744923831781584"
    },
    {
      "id": "pt.ine.add.PTCONT.3179493",
      "street": "R ANTÓNIO JOSE SARAIVA",
      "house": "14",
      "postcode": "2730-196",
      "city": "BARCARENA",
      "lon": "-9.278593428387302",
      "lat": "38.744923831781584"
    },
    {
      "id": "pt.ine.add.PTCONT.3179494",
      "street": "R ANTÓNIO JOSE SARAIVA",
      "house": "14",
      "postcode": "2730-196",
      "city": "BARCARENA",
      "lon": "-9.278593428387302",
      "lat": "38.744923831781584"
    },
    {
      "id": "pt.ine.add.PTCONT.3179495",
      "street": "R ANTÓNIO JOSE SARAIVA",
      "house": "14",
      "postcode": "2730-196",
      "city": "BARCARENA",
      "lon": "-9.278593428387302",
      "lat": "38.744923831781584"
    },
    {
      "id": "pt.ine.add.PTCONT.3179496",
      "street": "R ANTÓNIO JOSE SARAIVA",
      "house": "14",
      "postcode": "2730-196",
      "city": "BARCARENA",
      "lon": "-9.278593428387302",
      "lat": "38.744923831781584"
    },
    {
      "id": "pt.ine.add.PTCONT.3182627",
      "street": "R ANTÓNIO JOSE SARAIVA",
      "house": "14",
      "postcode": "2730-196",
      "city": "BARCARENA",
      "lon": "-9.278593428387302",
      "lat": "38.744923831781584"
    },
    {
      "id": "pt.ine.add.PTCONT.3373455",
      "street": "R ROGERIO PAULO",
      "house": "16",
      "postcode": "2730-194",
      "city": "BARCARENA",
      "lon": "-9.277935182755717",
      "lat": "38.74547975382169"
    },
    {
      "id": "pt.ine.add.PTCONT.3418822",
      "street": "ESTR CRUZ DOS CAVALINHOS",
      "house": "32",
      "postcode": "2730-059",
      "city": "BARCARENA",
      "lon": "-9.277462797201864",
      "lat": "38.74254785155215"
    },
    {
      "id": "pt.ine.add.PTCONT.3433428",
      "street": "R ANTÓNIO JOSE SARAIVA",
      "house": "12",
      "postcode": "2730-196",
      "city": "BARCARENA",
      "lon": "-9.278568269029565",
      "lat": "38.74478896205011"
    }
  ]
}