{
  "data": {
    "distrito": "Viseu",
    "concelho": "Cinf√£es",
    "freguesia": "Moimenta",
    "OBJECTID": 664,
    "BGRI2021": "18040800107",
    "DT21": "18",
    "DTMN21": "1804",
    "DTMNFR21": "180408",
    "DTMNFRSEC21": "180408001",
    "SECNUM21": "001",
    "SSNUM21": "07",
    "SECSSNUM21": "00107",
    "OBJECTID_1": 190147,
    "DT": "18",
    "CC": "04",
    "fr": "08",
    "SEC": "001",
    "SS": "07"
  },
  "addresses": [
    {
      "id": "pt.ine.add.PTCONT.5427350",
      "street": "R ALTO",
      "house": "40",
      "postcode": "4690-310",
      "city": "MOIMENTA CNF",
      "lon": "-8.203811062623151",
      "lat": "41.05099822788763"
    },
    {
      "id": "pt.ine.add.PTCONT.5473250",
      "street": "R VALES",
      "house": "",
      "postcode": "4690-310",
      "city": "MOIMENTA CNF",
      "lon": "-8.203097422461541",
      "lat": "41.051043686262325"
    },
    {
      "id": "pt.ine.add.PTCONT.5521613",
      "street": "R ALTO",
      "house": "",
      "postcode": "4690-310",
      "city": "MOIMENTA CNF",
      "lon": "-8.203752166530366",
      "lat": "41.05153853727682"
    },
    {
      "id": "pt.ine.add.PTCONT.5534524",
      "street": "R PEDREIRINHAS",
      "house": "34",
      "postcode": "4690-310",
      "city": "MOIMENTA CNF",
      "lon": "-8.204489066087978",
      "lat": "41.05099780994651"
    },
    {
      "id": "pt.ine.add.PTCONT.5554795",
      "street": "R PEDREIRINHA",
      "house": "52",
      "postcode": "4690-310",
      "city": "MOIMENTA CNF",
      "lon": "-8.204441691135026",
      "lat": "41.05118693493009"
    },
    {
      "id": "pt.ine.add.PTCONT.5556494",
      "street": "R DR CARLOS SOARES NORONHA MENESES",
      "house": "989",
      "postcode": "4690-310",
      "city": "MOIMENTA CNF",
      "lon": "-8.203739491610712",
      "lat": "41.05080917611608"
    },
    {
      "id": "pt.ine.add.PTCONT.5592984",
      "street": "R FIGUEIREDO",
      "house": "142",
      "postcode": "4690-310",
      "city": "MOIMENTA CNF",
      "lon": "-8.204976801774485",
      "lat": "41.05104252959966"
    },
    {
      "id": "pt.ine.add.PTCONT.5593510",
      "street": "R ALTO",
      "house": "52",
      "postcode": "4690-310",
      "city": "MOIMENTA CNF",
      "lon": "-8.203727933834365",
      "lat": "41.05112434262424"
    },
    {
      "id": "pt.ine.add.PTCONT.5597176",
      "street": "R FIGUEIREDO",
      "house": "202",
      "postcode": "4690-310",
      "city": "MOIMENTA CNF",
      "lon": "-8.205607424146573",
      "lat": "41.05122222571028"
    },
    {
      "id": "pt.ine.add.PTCONT.5608887",
      "street": "R FIGUEIREDO",
      "house": "88",
      "postcode": "4690-310",
      "city": "MOIMENTA CNF",
      "lon": "-8.204548238133675",
      "lat": "41.050718632072005"
    },
    {
      "id": "pt.ine.add.PTCONT.5614109",
      "street": "R FIGUEIREDO",
      "house": "32",
      "postcode": "4690-310",
      "city": "MOIMENTA CNF",
      "lon": "-8.204203309848717",
      "lat": "41.050736854481876"
    },
    {
      "id": "pt.ine.add.PTCONT.5658934",
      "street": "R FIGUEIREDO",
      "house": "192",
      "postcode": "4690-310",
      "city": "MOIMENTA CNF",
      "lon": "-8.205417126461194",
      "lat": "41.051240354373874"
    }
  ]
}