{
  "data": {
    "distrito": "Coimbra",
    "concelho": "Coimbra",
    "freguesia": "Cernache",
    "OBJECTID": 521,
    "BGRI2021": "06031200113",
    "DT21": "06",
    "DTMN21": "0603",
    "DTMNFR21": "060312",
    "DTMNFRSEC21": "060312001",
    "SECNUM21": "001",
    "SSNUM21": "13",
    "SECSSNUM21": "00113",
    "OBJECTID_1": 48592,
    "DT": "06",
    "CC": "03",
    "fr": "12",
    "SEC": "001",
    "SS": "13"
  },
  "addresses": [
    {
      "id": "pt.ine.add.PTCONT.1100776",
      "street": "R ZAMBUJAL",
      "house": "",
      "postcode": "3040-810",
      "city": "CERNACHE",
      "lon": "-8.459903877009927",
      "lat": "40.130895062825175"
    },
    {
      "id": "pt.ine.add.PTCONT.1108230",
      "street": "R AZENHACA DOS APOSTOLOS",
      "house": "",
      "postcode": "3040-786",
      "city": "CERNACHE",
      "lon": "-8.45581579374441",
      "lat": "40.13478809853831"
    },
    {
      "id": "pt.ine.add.PTCONT.1110467",
      "street": "R CAPELA SN",
      "house": "SN",
      "postcode": "3040-786",
      "city": "CERNACHE",
      "lon": "-8.45441748780708",
      "lat": "40.13435970030499"
    },
    {
      "id": "pt.ine.add.PTCONT.1118702",
      "street": "R ZAMBUJAL",
      "house": "",
      "postcode": "3040-810",
      "city": "CERNACHE",
      "lon": "-8.459942353535581",
      "lat": "40.13157940790864"
    },
    {
      "id": "pt.ine.add.PTCONT.1126957",
      "street": "LG CAPELA",
      "house": "S N",
      "postcode": "3040-786",
      "city": "CERNACHE",
      "lon": "-8.454521178193911",
      "lat": "40.13395414411729"
    },
    {
      "id": "pt.ine.add.PTCONT.1140662",
      "street": "R PINHEIRO MANSO",
      "house": "",
      "postcode": "3040-810",
      "city": "CERNACHE",
      "lon": "-8.459114430794626",
      "lat": "40.13019482212941"
    },
    {
      "id": "pt.ine.add.PTCONT.1155532",
      "street": "R TIRADO",
      "house": "",
      "postcode": "3040-786",
      "city": "CERNACHE",
      "lon": "-8.454593614446114",
      "lat": "40.1343862293994"
    },
    {
      "id": "pt.ine.add.PTCONT.1164549",
      "street": "R PINHEIRO MANSO",
      "house": "",
      "postcode": "3040-810",
      "city": "CERNACHE",
      "lon": "-8.4595490096936",
      "lat": "40.13029266364856"
    },
    {
      "id": "pt.ine.add.PTCONT.1193118",
      "street": "R CANCELINHA",
      "house": "",
      "postcode": "3040-786",
      "city": "CERNACHE",
      "lon": "-8.45431074342897",
      "lat": "40.13411683535304"
    },
    {
      "id": "pt.ine.add.PTCONT.1217603",
      "street": "LG CAPELA",
      "house": "",
      "postcode": "3040-786",
      "city": "CERNACHE",
      "lon": "-8.454216156882765",
      "lat": "40.13396399624101"
    },
    {
      "id": "pt.ine.add.PTCONT.1220711",
      "street": "R ZAMBUJAL",
      "house": "",
      "postcode": "3040-810",
      "city": "CERNACHE",
      "lon": "-8.459917335067045",
      "lat": "40.13125526362892"
    },
    {
      "id": "pt.ine.add.PTCONT.1243880",
      "street": "R CANCELINHA",
      "house": "",
      "postcode": "3040-786",
      "city": "CERNACHE",
      "lon": "-8.454192139461693",
      "lat": "40.13384698527554"
    },
    {
      "id": "pt.ine.add.PTCONT.1270898",
      "street": "R PINHEIRO MANSO",
      "house": "",
      "postcode": "3040-810",
      "city": "CERNACHE",
      "lon": "-8.455662458383303",
      "lat": "40.12965512373832"
    },
    {
      "id": "pt.ine.add.PTCONT.1280426",
      "street": "R PINHEIRO MANSO",
      "house": "",
      "postcode": "3040-810",
      "city": "CERNACHE",
      "lon": "-8.459372676449872",
      "lat": "40.13022111278958"
    },
    {
      "id": "pt.ine.add.PTCONT.1285150",
      "street": "R AZENHAGA DOS APOSTOLOS",
      "house": "",
      "postcode": "3040-786",
      "city": "CERNACHE",
      "lon": "-8.454980855596007",
      "lat": "40.13439415971878"
    },
    {
      "id": "pt.ine.add.PTCONT.1285151",
      "street": "R EIRADO",
      "house": "",
      "postcode": "3040-786",
      "city": "CERNACHE",
      "lon": "-8.454980855596007",
      "lat": "40.13439415971878"
    },
    {
      "id": "pt.ine.add.PTCONT.1311273",
      "street": "R AZENHAGA DOS APOSTOLOS",
      "house": "",
      "postcode": "3040-786",
      "city": "CERNACHE",
      "lon": "-8.455014950680303",
      "lat": "40.13415990985266"
    },
    {
      "id": "pt.ine.add.PTCONT.1311301",
      "street": "R PINHEIRO MANSO",
      "house": "",
      "postcode": "3040-810",
      "city": "CERNACHE",
      "lon": "-8.455634481372694",
      "lat": "40.128700568504655"
    },
    {
      "id": "pt.ine.add.PTCONT.1331177",
      "street": "R DO PINHEIRO MANSO",
      "house": "155",
      "postcode": "3040-830",
      "city": "CERNACHE",
      "lon": "-8.4554237676287",
      "lat": "40.128800220849904"
    },
    {
      "id": "pt.ine.add.PTCONT.1331813",
      "street": "R ZAMBUJAL",
      "house": "",
      "postcode": "3040-810",
      "city": "CERNACHE",
      "lon": "-8.459913927490163",
      "lat": "40.1305438016308"
    },
    {
      "id": "pt.ine.add.PTCONT.1339807",
      "street": "TV CANCELINHA",
      "house": "",
      "postcode": "3040-786",
      "city": "CERNACHE",
      "lon": "-8.455345693639659",
      "lat": "40.13462730020465"
    },
    {
      "id": "pt.ine.add.PTCONT.1355619",
      "street": "R PINHEIRO MANSO",
      "house": "",
      "postcode": "3040-810",
      "city": "CERNACHE",
      "lon": "-8.458762453772563",
      "lat": "40.1301958124143"
    },
    {
      "id": "pt.ine.add.PTCONT.1355620",
      "street": "R PINHEIRO MANSO",
      "house": "",
      "postcode": "3040-810",
      "city": "CERNACHE",
      "lon": "-8.458316315734328",
      "lat": "40.13013402428492"
    },
    {
      "id": "pt.ine.add.PTCONT.1365814",
      "street": "AZ APOSTOLOS",
      "house": "3",
      "postcode": "3040-786",
      "city": "CERNACHE",
      "lon": "-8.454780243141517",
      "lat": "40.13415155606072"
    }
  ]
}