{
  "data": {
    "distrito": "Faro",
    "concelho": "Loulé",
    "freguesia": "Loulé (São Sebastião)",
    "OBJECTID": 1873,
    "BGRI2021": "08080900704",
    "DT21": "08",
    "DTMN21": "0808",
    "DTMNFR21": "080809",
    "DTMNFRSEC21": "080809007",
    "SECNUM21": "007",
    "SSNUM21": "04",
    "SECSSNUM21": "00704",
    "OBJECTID_1": 69712,
    "DT": "08",
    "CC": "08",
    "fr": "09",
    "SEC": "007",
    "SS": "04"
  },
  "addresses": [
    {
      "id": "pt.ine.add.PTCONT.1490241",
      "street": "SOBRADINHO DE ALFEICAO",
      "house": "",
      "postcode": "8100-327",
      "city": "LOULÉ",
      "lon": "-8.065932078029563",
      "lat": "37.1589685271856"
    },
    {
      "id": "pt.ine.add.PTCONT.1502733",
      "street": "SOBRADINHO DE ALFEICAO CASA DA PAZ",
      "house": "42",
      "postcode": "8100-327",
      "city": "LOULÉ",
      "lon": "-8.06459385328996",
      "lat": "37.157336845870546"
    },
    {
      "id": "pt.ine.add.PTCONT.1502734",
      "street": "SOBRADINHO DE ALFEICAO",
      "house": "",
      "postcode": "8100-327",
      "city": "LOULÉ",
      "lon": "-8.064920844845837",
      "lat": "37.15676035713663"
    },
    {
      "id": "pt.ine.add.PTCONT.1517001",
      "street": "SOBRADINHO DE ALFEICAO",
      "house": "",
      "postcode": "8100-327",
      "city": "LOULÉ",
      "lon": "-8.067385711383167",
      "lat": "37.15740150104148"
    },
    {
      "id": "pt.ine.add.PTCONT.1531722",
      "street": "SOBRADINHO ALFEICAO",
      "house": "48",
      "postcode": "8100-327",
      "city": "LOULÉ",
      "lon": "-8.064313724933811",
      "lat": "37.155885979619455"
    },
    {
      "id": "pt.ine.add.PTCONT.1534713",
      "street": "SOBRADINHO DE ALFEICAO",
      "house": "",
      "postcode": "8100-327",
      "city": "LOULÉ",
      "lon": "-8.065572913575602",
      "lat": "37.15774288402834"
    },
    {
      "id": "pt.ine.add.PTCONT.1538025",
      "street": "CASA CHAMBY",
      "house": "33",
      "postcode": "8100-280",
      "city": "LOULÉ",
      "lon": "-8.065583313859072",
      "lat": "37.15870702215537"
    },
    {
      "id": "pt.ine.add.PTCONT.1543417",
      "street": "SOBRADINHO DE ALFEICAO CASA ANA LUISA",
      "house": "35",
      "postcode": "8100-327",
      "city": "LOULÉ",
      "lon": "-8.066731124941164",
      "lat": "37.15927533712662"
    },
    {
      "id": "pt.ine.add.PTCONT.1548804",
      "street": "SOBRADINHO DE ALFEICAO",
      "house": "",
      "postcode": "8100-327",
      "city": "LOULÉ",
      "lon": "-8.064176589862452",
      "lat": "37.158138545712625"
    },
    {
      "id": "pt.ine.add.PTCONT.1558440",
      "street": "SOBRADINHO DE ALFEICAO",
      "house": "",
      "postcode": "8100-327",
      "city": "LOULÉ",
      "lon": "-8.067632580900986",
      "lat": "37.158329727627105"
    },
    {
      "id": "pt.ine.add.PTCONT.1572321",
      "street": "SOBRADINHO DE ALFEICAO",
      "house": "",
      "postcode": "8100-327",
      "city": "LOULÉ",
      "lon": "-8.06745362392786",
      "lat": "37.15697804128208"
    },
    {
      "id": "pt.ine.add.PTCONT.1619092",
      "street": "SOBRADINHO DE ALFEICAO",
      "house": "",
      "postcode": "8100-327",
      "city": "LOULÉ",
      "lon": "-8.065279639948123",
      "lat": "37.158382467835835"
    },
    {
      "id": "pt.ine.add.PTCONT.1636128",
      "street": "SOBRADINHO DE ALFEICAO",
      "house": "",
      "postcode": "8100-327",
      "city": "LOULÉ",
      "lon": "-8.067643489132172",
      "lat": "37.158735209795864"
    },
    {
      "id": "pt.ine.add.PTCONT.1654713",
      "street": "SOBRADINHO DE ALFEICAO",
      "house": "",
      "postcode": "8100-327",
      "city": "LOULÉ",
      "lon": "-8.065540206762908",
      "lat": "37.15654445785201"
    },
    {
      "id": "pt.ine.add.PTCONT.1659747",
      "street": "SOBRADINHO DE ALFEICAO BELLE-VIW",
      "house": "",
      "postcode": "8100-327",
      "city": "LOULÉ",
      "lon": "-8.067576641583793",
      "lat": "37.157924220538824"
    },
    {
      "id": "pt.ine.add.PTCONT.1674089",
      "street": "SOBRADINHO DE ALFEICAO",
      "house": "",
      "postcode": "8100-327",
      "city": "LOULÉ",
      "lon": "-8.06493188401889",
      "lat": "37.157003649237325"
    },
    {
      "id": "pt.ine.add.PTCONT.1683483",
      "street": "SOBRADINHO ALFEICAO CXP",
      "house": "CXP 107Z",
      "postcode": "8100-327",
      "city": "LOULÉ",
      "lon": "-8.065225469408999",
      "lat": "37.15601265352705"
    },
    {
      "id": "pt.ine.add.PTCONT.1722113",
      "street": "SIT SOBRADINHO DE ALFEIÇÃO",
      "house": "49 E",
      "postcode": "8100-327",
      "city": "LOULÉ",
      "lon": "-8.065957024658967",
      "lat": "37.1562203137225"
    },
    {
      "id": "pt.ine.add.PTCONT.1723039",
      "street": "SOBRADINHO DE ALFEICAO CASA LARANJA DE OURO",
      "house": "",
      "postcode": "8100-327",
      "city": "LOULÉ",
      "lon": "-8.067474791702832",
      "lat": "37.15853688371401"
    },
    {
      "id": "pt.ine.add.PTCONT.1725134",
      "street": "SOBRADINHO DE ALFEICAO",
      "house": "",
      "postcode": "8100-327",
      "city": "LOULÉ",
      "lon": "-8.065831387230435",
      "lat": "37.15825663419101"
    },
    {
      "id": "pt.ine.add.PTCONT.1728009",
      "street": "SOBRADINHO DE ALFEICAO",
      "house": "",
      "postcode": "8100-327",
      "city": "LOULÉ",
      "lon": "-8.067531003326941",
      "lat": "37.158627020639315"
    },
    {
      "id": "pt.ine.add.PTCONT.1742937",
      "street": "SOBRADINHO DE ALFEICAO",
      "house": "",
      "postcode": "8100-327",
      "city": "LOULÉ",
      "lon": "-8.066764410744234",
      "lat": "37.15983401168431"
    },
    {
      "id": "pt.ine.add.PTCONT.1745715",
      "street": "SOBRADINHO DE ALFEICAO",
      "house": "",
      "postcode": "8100-327",
      "city": "LOULÉ",
      "lon": "-8.065167875662542",
      "lat": "37.157472335061435"
    },
    {
      "id": "pt.ine.add.PTCONT.1782254",
      "street": "SOALHEIRA MONTE DAS PERDIZES",
      "house": "",
      "postcode": "8100-326",
      "city": "LOULÉ",
      "lon": "-8.064707680504988",
      "lat": "37.15594928173221"
    },
    {
      "id": "pt.ine.add.PTCONT.1794078",
      "street": "SOBRADINHO DE ALFEICAO",
      "house": "",
      "postcode": "8100-327",
      "city": "LOULÉ",
      "lon": "-8.066800766243913",
      "lat": "37.156878561404"
    },
    {
      "id": "pt.ine.add.PTCONT.1794083",
      "street": "SOBRADINHO DE ALFEICAO",
      "house": "",
      "postcode": "8100-327",
      "city": "LOULÉ",
      "lon": "-8.067575996055053",
      "lat": "37.15867209843022"
    },
    {
      "id": "pt.ine.add.PTCONT.1797398",
      "street": "SOBRADINHO DE ALFEICAO",
      "house": "",
      "postcode": "8100-327",
      "city": "LOULÉ",
      "lon": "-8.064649475632615",
      "lat": "37.15807574574174"
    },
    {
      "id": "pt.ine.add.PTCONT.1811566",
      "street": "SOBRADINHO DE ALFEICAO",
      "house": "",
      "postcode": "8100-327",
      "city": "LOULÉ",
      "lon": "-8.065359924447115",
      "lat": "37.15672456660847"
    },
    {
      "id": "pt.ine.add.PTCONT.1819384",
      "street": "SOBRADINHO DE ALFEICAO",
      "house": "",
      "postcode": "8100-327",
      "city": "LOULÉ",
      "lon": "-8.065067298964253",
      "lat": "37.15664330371992"
    },
    {
      "id": "pt.ine.add.PTCONT.1841918",
      "street": "SOBRADINHO DE ALFEICAO",
      "house": "",
      "postcode": "8100-327",
      "city": "LOULÉ",
      "lon": "-8.067238438541303",
      "lat": "37.15846466793837"
    }
  ]
}