{
  "data": {
    "distrito": "Faro",
    "concelho": "Loulé",
    "freguesia": "Loulé (São Sebastião)",
    "OBJECTID": 1016,
    "BGRI2021": "08080900710",
    "DT21": "08",
    "DTMN21": "0808",
    "DTMNFR21": "080809",
    "DTMNFRSEC21": "080809007",
    "SECNUM21": "007",
    "SSNUM21": "10",
    "SECSSNUM21": "00710",
    "OBJECTID_1": 68488,
    "DT": "08",
    "CC": "08",
    "fr": "09",
    "SEC": "007",
    "SS": "10"
  },
  "addresses": [
    {
      "id": "pt.ine.add.PTCONT.1470707",
      "street": "ALGHABA",
      "house": "2",
      "postcode": "8100-280",
      "city": "LOULÉ",
      "lon": "-8.056013043991234",
      "lat": "37.159728389033134"
    },
    {
      "id": "pt.ine.add.PTCONT.1496949",
      "street": "",
      "house": "",
      "postcode": "8100-280",
      "city": "LOULÉ",
      "lon": "-8.059727099378403",
      "lat": "37.160875090281486"
    },
    {
      "id": "pt.ine.add.PTCONT.1540427",
      "street": "",
      "house": "",
      "postcode": "8100-280",
      "city": "LOULÉ",
      "lon": "-8.052908997477811",
      "lat": "37.15671679521838"
    },
    {
      "id": "pt.ine.add.PTCONT.1586201",
      "street": "ALFEICAO",
      "house": "25",
      "postcode": "8100-280",
      "city": "LOULÉ",
      "lon": "-8.060166058015835",
      "lat": "37.16099249876537"
    },
    {
      "id": "pt.ine.add.PTCONT.1612581",
      "street": "",
      "house": "",
      "postcode": "8100-280",
      "city": "LOULÉ",
      "lon": "-8.058927456499747",
      "lat": "37.161189962640066"
    },
    {
      "id": "pt.ine.add.PTCONT.1615882",
      "street": "CASA DOS AMIGOS",
      "house": "11",
      "postcode": "8100-280",
      "city": "LOULÉ",
      "lon": "-8.059649512377044",
      "lat": "37.15961356130555"
    },
    {
      "id": "pt.ine.add.PTCONT.1618948",
      "street": "SEM DESIGNACAO",
      "house": "11",
      "postcode": "8100-280",
      "city": "LOULÉ",
      "lon": "-8.054516915397544",
      "lat": "37.15857405218069"
    },
    {
      "id": "pt.ine.add.PTCONT.1627976",
      "street": "CASA SERENA",
      "house": "32",
      "postcode": "8100-280",
      "city": "LOULÉ",
      "lon": "-8.063995447460526",
      "lat": "37.159255752201126"
    },
    {
      "id": "pt.ine.add.PTCONT.1677131",
      "street": "CASA DOS EOROS",
      "house": "",
      "postcode": "8100-280",
      "city": "LOULÉ",
      "lon": "-8.06063885303687",
      "lat": "37.16104685228029"
    },
    {
      "id": "pt.ine.add.PTCONT.1680693",
      "street": "CASA MIRADOURO",
      "house": "28",
      "postcode": "8100-280",
      "city": "LOULÉ",
      "lon": "-8.060739842389323",
      "lat": "37.16139832647494"
    },
    {
      "id": "pt.ine.add.PTCONT.1707881",
      "street": "HANKS VIEW",
      "house": "27",
      "postcode": "8100-280",
      "city": "LOULÉ",
      "lon": "-8.061426897298787",
      "lat": "37.16108337385147"
    },
    {
      "id": "pt.ine.add.PTCONT.1716709",
      "street": "SEM DESIGNACAO",
      "house": "9",
      "postcode": "8100-280",
      "city": "LOULÉ",
      "lon": "-8.05849970377551",
      "lat": "37.1611266200873"
    },
    {
      "id": "pt.ine.add.PTCONT.1731963",
      "street": "",
      "house": "",
      "postcode": "8100-280",
      "city": "LOULÉ",
      "lon": "-8.056325654239927",
      "lat": "37.16231462745071"
    },
    {
      "id": "pt.ine.add.PTCONT.1736435",
      "street": "CASA SOUSA",
      "house": "",
      "postcode": "8100-280",
      "city": "LOULÉ",
      "lon": "-8.052368564789285",
      "lat": "37.15677950236091"
    },
    {
      "id": "pt.ine.add.PTCONT.1742934",
      "street": "ALFEICAO",
      "house": "23",
      "postcode": "8100-280",
      "city": "LOULÉ",
      "lon": "-8.060909839693295",
      "lat": "37.16021804455595"
    },
    {
      "id": "pt.ine.add.PTCONT.1745710",
      "street": "",
      "house": "",
      "postcode": "8100-280",
      "city": "LOULÉ",
      "lon": "-8.052875062757689",
      "lat": "37.1568699521578"
    },
    {
      "id": "pt.ine.add.PTCONT.1747670",
      "street": "",
      "house": "",
      "postcode": "8100-280",
      "city": "LOULÉ",
      "lon": "-8.052683883314092",
      "lat": "37.156680600340486"
    },
    {
      "id": "pt.ine.add.PTCONT.1757905",
      "street": "SEM DESIGNACAO",
      "house": "3",
      "postcode": "8100-280",
      "city": "LOULÉ",
      "lon": "-8.055337873961347",
      "lat": "37.15942158822391"
    },
    {
      "id": "pt.ine.add.PTCONT.1782253",
      "street": "VL DINAMARQUESA",
      "house": "",
      "postcode": "8100-280",
      "city": "LOULÉ",
      "lon": "-8.055875288815608",
      "lat": "37.16234136652851"
    },
    {
      "id": "pt.ine.add.PTCONT.1806185",
      "street": "ALFEICAO",
      "house": "30",
      "postcode": "8100-280",
      "city": "LOULÉ",
      "lon": "-8.059559194837753",
      "lat": "37.15987481207116"
    }
  ]
}