{
  "data": {
    "distrito": "Viseu",
    "concelho": "Resende",
    "freguesia": "Cárquere",
    "OBJECTID": 131,
    "BGRI2021": "18130300111",
    "DT21": "18",
    "DTMN21": "1813",
    "DTMNFR21": "181303",
    "DTMNFRSEC21": "181303001",
    "SECNUM21": "001",
    "SSNUM21": "11",
    "SECSSNUM21": "00111",
    "OBJECTID_1": 195282,
    "DT": "18",
    "CC": "13",
    "fr": "03",
    "SEC": "001",
    "SS": "11"
  },
  "addresses": [
    {
      "id": "pt.ine.add.PTCONT.5435518",
      "street": "",
      "house": "",
      "postcode": "4660-059",
      "city": "CÁRQUERE",
      "lon": "-7.947352062242507",
      "lat": "41.08731151006501"
    },
    {
      "id": "pt.ine.add.PTCONT.5435540",
      "street": "",
      "house": "",
      "postcode": "4660-062",
      "city": "CÁRQUERE",
      "lon": "-7.951007996186465",
      "lat": "41.08650694135459"
    },
    {
      "id": "pt.ine.add.PTCONT.5446472",
      "street": "",
      "house": "",
      "postcode": "4660-059",
      "city": "CÁRQUERE",
      "lon": "-7.946683053857369",
      "lat": "41.083996775467746"
    },
    {
      "id": "pt.ine.add.PTCONT.5447447",
      "street": "QUINTAS",
      "house": "",
      "postcode": "4660-059",
      "city": "CÁRQUERE",
      "lon": "-7.946837864552853",
      "lat": "41.083961007836656"
    },
    {
      "id": "pt.ine.add.PTCONT.5449429",
      "street": "",
      "house": "",
      "postcode": "4660-059",
      "city": "CÁRQUERE",
      "lon": "-7.947206912680809",
      "lat": "41.08391658133259"
    },
    {
      "id": "pt.ine.add.PTCONT.5449430",
      "street": "",
      "house": "",
      "postcode": "4660-059",
      "city": "CÁRQUERE",
      "lon": "-7.947206912680809",
      "lat": "41.08391658133259"
    },
    {
      "id": "pt.ine.add.PTCONT.5453952",
      "street": "",
      "house": "",
      "postcode": "4660-059",
      "city": "CÁRQUERE",
      "lon": "-7.947696029957375",
      "lat": "41.08349415798696"
    },
    {
      "id": "pt.ine.add.PTCONT.5453953",
      "street": "SOBRADO",
      "house": "12",
      "postcode": "4660-059",
      "city": "CÁRQUERE",
      "lon": "-7.947696029957375",
      "lat": "41.08349415798696"
    },
    {
      "id": "pt.ine.add.PTCONT.5459475",
      "street": "",
      "house": "",
      "postcode": "4660-062",
      "city": "CÁRQUERE",
      "lon": "-7.950627010009369",
      "lat": "41.0865603655952"
    },
    {
      "id": "pt.ine.add.PTCONT.5461490",
      "street": "",
      "house": "",
      "postcode": "4660-059",
      "city": "CÁRQUERE",
      "lon": "-7.946777674415114",
      "lat": "41.08420403195332"
    },
    {
      "id": "pt.ine.add.PTCONT.5461959",
      "street": "PREIRA",
      "house": "49",
      "postcode": "4660-059",
      "city": "CÁRQUERE",
      "lon": "-7.945389055774214",
      "lat": "41.08287811688556"
    },
    {
      "id": "pt.ine.add.PTCONT.5500748",
      "street": "LAMEIRA",
      "house": "16",
      "postcode": "4660-059",
      "city": "CÁRQUERE",
      "lon": "-7.947575479145852",
      "lat": "41.08404323832682"
    },
    {
      "id": "pt.ine.add.PTCONT.5504022",
      "street": "QTA CARQUERE RESENDE",
      "house": "60",
      "postcode": "4660-059",
      "city": "CÁRQUERE",
      "lon": "-7.946742302930598",
      "lat": "41.08408691628487"
    },
    {
      "id": "pt.ine.add.PTCONT.5517849",
      "street": "",
      "house": "",
      "postcode": "4660-059",
      "city": "CÁRQUERE",
      "lon": "-7.949474076844136",
      "lat": "41.08602726881606"
    },
    {
      "id": "pt.ine.add.PTCONT.5523529",
      "street": "SEM DESIGNACAO",
      "house": "742",
      "postcode": "4660-059",
      "city": "CÁRQUERE",
      "lon": "-7.947233429957239",
      "lat": "41.08717625137029"
    },
    {
      "id": "pt.ine.add.PTCONT.5548713",
      "street": "",
      "house": "",
      "postcode": "4660-059",
      "city": "CÁRQUERE",
      "lon": "-7.950448966418462",
      "lat": "41.08638899811176"
    },
    {
      "id": "pt.ine.add.PTCONT.5558945",
      "street": "",
      "house": "",
      "postcode": "4660-059",
      "city": "CÁRQUERE",
      "lon": "-7.9484888342814655",
      "lat": "41.085116240440655"
    },
    {
      "id": "pt.ine.add.PTCONT.5558946",
      "street": "",
      "house": "",
      "postcode": "4660-059",
      "city": "CÁRQUERE",
      "lon": "-7.947779030610621",
      "lat": "41.08360234549157"
    },
    {
      "id": "pt.ine.add.PTCONT.5566812",
      "street": "",
      "house": "",
      "postcode": "4660-059",
      "city": "CÁRQUERE",
      "lon": "-7.94574812490398",
      "lat": "41.08634543245425"
    },
    {
      "id": "pt.ine.add.PTCONT.5568501",
      "street": "LAMEIRA",
      "house": "",
      "postcode": "4660-059",
      "city": "CÁRQUERE",
      "lon": "-7.94771869243961",
      "lat": "41.08389939686591"
    },
    {
      "id": "pt.ine.add.PTCONT.5573913",
      "street": "CARRIL",
      "house": "",
      "postcode": "4660-059",
      "city": "CÁRQUERE",
      "lon": "-7.945039038538854",
      "lat": "41.084597405237645"
    },
    {
      "id": "pt.ine.add.PTCONT.5574083",
      "street": "COMPRA",
      "house": "2",
      "postcode": "4660-062",
      "city": "CÁRQUERE",
      "lon": "-7.948942023585386",
      "lat": "41.08477479479433"
    },
    {
      "id": "pt.ine.add.PTCONT.5581575",
      "street": "",
      "house": "55",
      "postcode": "4660-059",
      "city": "CÁRQUERE",
      "lon": "-7.949332919839173",
      "lat": "41.085432747099524"
    },
    {
      "id": "pt.ine.add.PTCONT.5605226",
      "street": "",
      "house": "",
      "postcode": "4660-059",
      "city": "CÁRQUERE",
      "lon": "-7.947826304322721",
      "lat": "41.083719479991196"
    },
    {
      "id": "pt.ine.add.PTCONT.5618670",
      "street": "",
      "house": "",
      "postcode": "4660-059",
      "city": "CÁRQUERE",
      "lon": "-7.947437652447923",
      "lat": "41.08650124363521"
    },
    {
      "id": "pt.ine.add.PTCONT.5622338",
      "street": "",
      "house": "",
      "postcode": "4660-062",
      "city": "CÁRQUERE",
      "lon": "-7.9513176245547035",
      "lat": "41.0864353943086"
    },
    {
      "id": "pt.ine.add.PTCONT.5629825",
      "street": "LAMEIRA",
      "house": "2",
      "postcode": "4660-059",
      "city": "CÁRQUERE",
      "lon": "-7.947873477065992",
      "lat": "41.08387263229835"
    },
    {
      "id": "pt.ine.add.PTCONT.5629826",
      "street": "LAMEIRA",
      "house": "9",
      "postcode": "4660-059",
      "city": "CÁRQUERE",
      "lon": "-7.947873477065992",
      "lat": "41.08387263229835"
    },
    {
      "id": "pt.ine.add.PTCONT.5629990",
      "street": "",
      "house": "",
      "postcode": "4660-059",
      "city": "CÁRQUERE",
      "lon": "-7.946116931839062",
      "lat": "41.08639105401335"
    },
    {
      "id": "pt.ine.add.PTCONT.5639400",
      "street": "",
      "house": "",
      "postcode": "4660-059",
      "city": "CÁRQUERE",
      "lon": "-7.947635210499707",
      "lat": "41.083962294007506"
    },
    {
      "id": "pt.ine.add.PTCONT.5641490",
      "street": "",
      "house": "",
      "postcode": "4660-059",
      "city": "CÁRQUERE",
      "lon": "-7.94749270629923",
      "lat": "41.08385401057054"
    },
    {
      "id": "pt.ine.add.PTCONT.5644934",
      "street": "",
      "house": "",
      "postcode": "4660-059",
      "city": "CÁRQUERE",
      "lon": "-7.947004245524477",
      "lat": "41.08404231715385"
    },
    {
      "id": "pt.ine.add.PTCONT.5653311",
      "street": "",
      "house": "36",
      "postcode": "4660-059",
      "city": "CÁRQUERE",
      "lon": "-7.948679550702376",
      "lat": "41.085008491897135"
    },
    {
      "id": "pt.ine.add.PTCONT.5662098",
      "street": "SEM DESIGNACAO",
      "house": "700",
      "postcode": "4660-059",
      "city": "CÁRQUERE",
      "lon": "-7.947162885415277",
      "lat": "41.08686998479439"
    }
  ]
}