{
  "data": {
    "distrito": "Lisboa",
    "concelho": "Mafra",
    "freguesia": "União das freguesias de Venda do Pinheiro e Santo Estêvão das Galés",
    "OBJECTID": 1719,
    "BGRI2021": "11092200116",
    "DT21": "11",
    "DTMN21": "1109",
    "DTMNFR21": "110922",
    "DTMNFRSEC21": "110922001",
    "SECNUM21": "001",
    "SSNUM21": "16",
    "SECSSNUM21": "00116",
    "OBJECTID_1": 109851,
    "DT": "11",
    "CC": "09",
    "fr": "22",
    "SEC": "001",
    "SS": "16"
  },
  "addresses": [
    {
      "id": "pt.ine.add.PTCONT.2281229",
      "street": "AL FIGUEIRAS",
      "house": "2",
      "postcode": "2665-500",
      "city": "VENDA DO PINHEIRO",
      "lon": "-9.241319619898636",
      "lat": "38.92937233207647"
    },
    {
      "id": "pt.ine.add.PTCONT.2281230",
      "street": "AL FIGUEIRAS",
      "house": "2",
      "postcode": "2665-500",
      "city": "VENDA DO PINHEIRO",
      "lon": "-9.241319619898636",
      "lat": "38.92937233207647"
    },
    {
      "id": "pt.ine.add.PTCONT.2281231",
      "street": "AL FIGUEIRAS",
      "house": "2",
      "postcode": "2665-500",
      "city": "VENDA DO PINHEIRO",
      "lon": "-9.241319619898636",
      "lat": "38.92937233207647"
    },
    {
      "id": "pt.ine.add.PTCONT.2281232",
      "street": "AL FIGUEIRAS",
      "house": "2",
      "postcode": "2665-500",
      "city": "VENDA DO PINHEIRO",
      "lon": "-9.241319619898636",
      "lat": "38.92937233207647"
    },
    {
      "id": "pt.ine.add.PTCONT.2281233",
      "street": "AL FIGUEIRAS",
      "house": "2",
      "postcode": "2665-500",
      "city": "VENDA DO PINHEIRO",
      "lon": "-9.241319619898636",
      "lat": "38.92937233207647"
    },
    {
      "id": "pt.ine.add.PTCONT.2281234",
      "street": "AL FIGUEIRAS",
      "house": "2",
      "postcode": "2665-500",
      "city": "VENDA DO PINHEIRO",
      "lon": "-9.241319619898636",
      "lat": "38.92937233207647"
    },
    {
      "id": "pt.ine.add.PTCONT.2281239",
      "street": "AL FIGUEIRAS",
      "house": "2",
      "postcode": "2665-500",
      "city": "VENDA DO PINHEIRO",
      "lon": "-9.241319619898636",
      "lat": "38.92937233207647"
    },
    {
      "id": "pt.ine.add.PTCONT.2281240",
      "street": "AL FIGUEIRAS",
      "house": "2",
      "postcode": "2665-500",
      "city": "VENDA DO PINHEIRO",
      "lon": "-9.241319619898636",
      "lat": "38.92937233207647"
    },
    {
      "id": "pt.ine.add.PTCONT.2281241",
      "street": "AL FIGUEIRAS",
      "house": "2",
      "postcode": "2665-500",
      "city": "VENDA DO PINHEIRO",
      "lon": "-9.241319619898636",
      "lat": "38.92937233207647"
    },
    {
      "id": "pt.ine.add.PTCONT.2281242",
      "street": "AL FIGUEIRAS",
      "house": "2",
      "postcode": "2665-500",
      "city": "VENDA DO PINHEIRO",
      "lon": "-9.241319619898636",
      "lat": "38.92937233207647"
    },
    {
      "id": "pt.ine.add.PTCONT.2281243",
      "street": "AL FIGUEIRAS",
      "house": "2",
      "postcode": "2665-500",
      "city": "VENDA DO PINHEIRO",
      "lon": "-9.241319619898636",
      "lat": "38.92937233207647"
    },
    {
      "id": "pt.ine.add.PTCONT.2281244",
      "street": "AL FIGUEIRAS",
      "house": "2",
      "postcode": "2665-500",
      "city": "VENDA DO PINHEIRO",
      "lon": "-9.241319619898636",
      "lat": "38.92937233207647"
    },
    {
      "id": "pt.ine.add.PTCONT.2281245",
      "street": "AL FIGUEIRAS",
      "house": "2",
      "postcode": "2665-500",
      "city": "VENDA DO PINHEIRO",
      "lon": "-9.241319619898636",
      "lat": "38.92937233207647"
    },
    {
      "id": "pt.ine.add.PTCONT.2284309",
      "street": "AL FIGUEIRAS",
      "house": "2",
      "postcode": "2665-500",
      "city": "VENDA DO PINHEIRO",
      "lon": "-9.241319619898636",
      "lat": "38.92937233207647"
    },
    {
      "id": "pt.ine.add.PTCONT.2284310",
      "street": "AL FIGUEIRAS",
      "house": "2",
      "postcode": "2665-500",
      "city": "VENDA DO PINHEIRO",
      "lon": "-9.241319619898636",
      "lat": "38.92937233207647"
    },
    {
      "id": "pt.ine.add.PTCONT.2308150",
      "street": "R CASAL QUINTÃO",
      "house": "10",
      "postcode": "2665-537",
      "city": "VENDA DO PINHEIRO",
      "lon": "-9.240235311388378",
      "lat": "38.9300942146985"
    },
    {
      "id": "pt.ine.add.PTCONT.2323288",
      "street": "AL FIGUEIRAS",
      "house": "4",
      "postcode": "2665-500",
      "city": "VENDA DO PINHEIRO",
      "lon": "-9.241210483975582",
      "lat": "38.9297696983554"
    },
    {
      "id": "pt.ine.add.PTCONT.2323289",
      "street": "AL FIGUEIRAS",
      "house": "4",
      "postcode": "2665-500",
      "city": "VENDA DO PINHEIRO",
      "lon": "-9.241210483975582",
      "lat": "38.9297696983554"
    },
    {
      "id": "pt.ine.add.PTCONT.2323290",
      "street": "AL FIGUEIRAS",
      "house": "4",
      "postcode": "2665-500",
      "city": "VENDA DO PINHEIRO",
      "lon": "-9.241210483975582",
      "lat": "38.9297696983554"
    },
    {
      "id": "pt.ine.add.PTCONT.2329963",
      "street": "AL FIGUEIRAS",
      "house": "4",
      "postcode": "2665-500",
      "city": "VENDA DO PINHEIRO",
      "lon": "-9.241210483975582",
      "lat": "38.9297696983554"
    },
    {
      "id": "pt.ine.add.PTCONT.2329964",
      "street": "AL FIGUEIRAS",
      "house": "4",
      "postcode": "2665-500",
      "city": "VENDA DO PINHEIRO",
      "lon": "-9.241210483975582",
      "lat": "38.9297696983554"
    },
    {
      "id": "pt.ine.add.PTCONT.2329965",
      "street": "AL FIGUEIRAS",
      "house": "4",
      "postcode": "2665-500",
      "city": "VENDA DO PINHEIRO",
      "lon": "-9.241210483975582",
      "lat": "38.9297696983554"
    },
    {
      "id": "pt.ine.add.PTCONT.2329966",
      "street": "AL FIGUEIRAS",
      "house": "4",
      "postcode": "2665-500",
      "city": "VENDA DO PINHEIRO",
      "lon": "-9.241210483975582",
      "lat": "38.9297696983554"
    },
    {
      "id": "pt.ine.add.PTCONT.2329967",
      "street": "AL FIGUEIRAS",
      "house": "4",
      "postcode": "2665-500",
      "city": "VENDA DO PINHEIRO",
      "lon": "-9.241210483975582",
      "lat": "38.9297696983554"
    },
    {
      "id": "pt.ine.add.PTCONT.2329968",
      "street": "AL FIGUEIRAS",
      "house": "4",
      "postcode": "2665-500",
      "city": "VENDA DO PINHEIRO",
      "lon": "-9.241210483975582",
      "lat": "38.9297696983554"
    },
    {
      "id": "pt.ine.add.PTCONT.2329969",
      "street": "AL FIGUEIRAS",
      "house": "4",
      "postcode": "2665-500",
      "city": "VENDA DO PINHEIRO",
      "lon": "-9.241210483975582",
      "lat": "38.9297696983554"
    },
    {
      "id": "pt.ine.add.PTCONT.2329970",
      "street": "AL FIGUEIRAS",
      "house": "4",
      "postcode": "2665-500",
      "city": "VENDA DO PINHEIRO",
      "lon": "-9.241210483975582",
      "lat": "38.9297696983554"
    },
    {
      "id": "pt.ine.add.PTCONT.2329971",
      "street": "AL FIGUEIRAS",
      "house": "4",
      "postcode": "2665-500",
      "city": "VENDA DO PINHEIRO",
      "lon": "-9.241210483975582",
      "lat": "38.9297696983554"
    },
    {
      "id": "pt.ine.add.PTCONT.2329972",
      "street": "AL FIGUEIRAS",
      "house": "4",
      "postcode": "2665-500",
      "city": "VENDA DO PINHEIRO",
      "lon": "-9.241210483975582",
      "lat": "38.9297696983554"
    },
    {
      "id": "pt.ine.add.PTCONT.2329974",
      "street": "AL FIGUEIRAS",
      "house": "4",
      "postcode": "2665-500",
      "city": "VENDA DO PINHEIRO",
      "lon": "-9.241210483975582",
      "lat": "38.9297696983554"
    },
    {
      "id": "pt.ine.add.PTCONT.2329975",
      "street": "AL FIGUEIRAS",
      "house": "4",
      "postcode": "2665-500",
      "city": "VENDA DO PINHEIRO",
      "lon": "-9.241210483975582",
      "lat": "38.9297696983554"
    },
    {
      "id": "pt.ine.add.PTCONT.2329990",
      "street": "AL FIGUEIRAS",
      "house": "4",
      "postcode": "2665-500",
      "city": "VENDA DO PINHEIRO",
      "lon": "-9.241210483975582",
      "lat": "38.9297696983554"
    },
    {
      "id": "pt.ine.add.PTCONT.2408801",
      "street": "R D JOÃO V",
      "house": "6",
      "postcode": "2665-553",
      "city": "VENDA DO PINHEIRO",
      "lon": "-9.242633337372917",
      "lat": "38.93005342939652"
    },
    {
      "id": "pt.ine.add.PTCONT.2418087",
      "street": "AL FIGUEIRAS",
      "house": "6",
      "postcode": "2665-500",
      "city": "VENDA DO PINHEIRO",
      "lon": "-9.241031604391585",
      "lat": "38.93013169652867"
    },
    {
      "id": "pt.ine.add.PTCONT.2418088",
      "street": "AL FIGUEIRAS",
      "house": "6",
      "postcode": "2665-500",
      "city": "VENDA DO PINHEIRO",
      "lon": "-9.241031604391585",
      "lat": "38.93013169652867"
    },
    {
      "id": "pt.ine.add.PTCONT.2418089",
      "street": "AL FIGUEIRAS",
      "house": "6",
      "postcode": "2665-500",
      "city": "VENDA DO PINHEIRO",
      "lon": "-9.241031604391585",
      "lat": "38.93013169652867"
    },
    {
      "id": "pt.ine.add.PTCONT.2418090",
      "street": "AL FIGUEIRAS",
      "house": "6",
      "postcode": "2665-500",
      "city": "VENDA DO PINHEIRO",
      "lon": "-9.241031604391585",
      "lat": "38.93013169652867"
    },
    {
      "id": "pt.ine.add.PTCONT.2418091",
      "street": "AL FIGUEIRAS",
      "house": "6",
      "postcode": "2665-500",
      "city": "VENDA DO PINHEIRO",
      "lon": "-9.241031604391585",
      "lat": "38.93013169652867"
    },
    {
      "id": "pt.ine.add.PTCONT.2418092",
      "street": "AL FIGUEIRAS",
      "house": "6",
      "postcode": "2665-500",
      "city": "VENDA DO PINHEIRO",
      "lon": "-9.241031604391585",
      "lat": "38.93013169652867"
    },
    {
      "id": "pt.ine.add.PTCONT.2418093",
      "street": "AL FIGUEIRAS",
      "house": "6",
      "postcode": "2665-500",
      "city": "VENDA DO PINHEIRO",
      "lon": "-9.241031604391585",
      "lat": "38.93013169652867"
    },
    {
      "id": "pt.ine.add.PTCONT.2418094",
      "street": "AL FIGUEIRAS",
      "house": "6",
      "postcode": "2665-500",
      "city": "VENDA DO PINHEIRO",
      "lon": "-9.241031604391585",
      "lat": "38.93013169652867"
    },
    {
      "id": "pt.ine.add.PTCONT.2418098",
      "street": "AL FIGUEIRAS",
      "house": "6",
      "postcode": "2665-500",
      "city": "VENDA DO PINHEIRO",
      "lon": "-9.241031604391585",
      "lat": "38.93013169652867"
    },
    {
      "id": "pt.ine.add.PTCONT.2418099",
      "street": "AL FIGUEIRAS",
      "house": "6",
      "postcode": "2665-500",
      "city": "VENDA DO PINHEIRO",
      "lon": "-9.241031604391585",
      "lat": "38.93013169652867"
    },
    {
      "id": "pt.ine.add.PTCONT.2418100",
      "street": "AL FIGUEIRAS",
      "house": "6",
      "postcode": "2665-500",
      "city": "VENDA DO PINHEIRO",
      "lon": "-9.241031604391585",
      "lat": "38.93013169652867"
    },
    {
      "id": "pt.ine.add.PTCONT.2418101",
      "street": "AL FIGUEIRAS",
      "house": "6",
      "postcode": "2665-500",
      "city": "VENDA DO PINHEIRO",
      "lon": "-9.241031604391585",
      "lat": "38.93013169652867"
    },
    {
      "id": "pt.ine.add.PTCONT.2418102",
      "street": "AL FIGUEIRAS",
      "house": "6",
      "postcode": "2665-500",
      "city": "VENDA DO PINHEIRO",
      "lon": "-9.241031604391585",
      "lat": "38.93013169652867"
    },
    {
      "id": "pt.ine.add.PTCONT.2418103",
      "street": "AL FIGUEIRAS",
      "house": "6",
      "postcode": "2665-500",
      "city": "VENDA DO PINHEIRO",
      "lon": "-9.241031604391585",
      "lat": "38.93013169652867"
    },
    {
      "id": "pt.ine.add.PTCONT.2418104",
      "street": "AL FIGUEIRAS",
      "house": "6",
      "postcode": "2665-500",
      "city": "VENDA DO PINHEIRO",
      "lon": "-9.241031604391585",
      "lat": "38.93013169652867"
    },
    {
      "id": "pt.ine.add.PTCONT.2418105",
      "street": "AL FIGUEIRAS",
      "house": "6",
      "postcode": "2665-500",
      "city": "VENDA DO PINHEIRO",
      "lon": "-9.241031604391585",
      "lat": "38.93013169652867"
    },
    {
      "id": "pt.ine.add.PTCONT.2426940",
      "street": "R CASAL QUINTÃO",
      "house": "6",
      "postcode": "2665-537",
      "city": "VENDA DO PINHEIRO",
      "lon": "-9.240275831745128",
      "lat": "38.92973353020953"
    },
    {
      "id": "pt.ine.add.PTCONT.2486636",
      "street": "AL FIGUEIRAS",
      "house": "11",
      "postcode": "2665-500",
      "city": "VENDA DO PINHEIRO",
      "lon": "-9.242281762046195",
      "lat": "38.931173700982264"
    },
    {
      "id": "pt.ine.add.PTCONT.2486637",
      "street": "AL FIGUEIRAS",
      "house": "11",
      "postcode": "2665-500",
      "city": "VENDA DO PINHEIRO",
      "lon": "-9.242281762046195",
      "lat": "38.931173700982264"
    },
    {
      "id": "pt.ine.add.PTCONT.2486638",
      "street": "AL FIGUEIRAS",
      "house": "11",
      "postcode": "2665-500",
      "city": "VENDA DO PINHEIRO",
      "lon": "-9.242281762046195",
      "lat": "38.931173700982264"
    },
    {
      "id": "pt.ine.add.PTCONT.2486790",
      "street": "AL FIGUEIRAS",
      "house": "11",
      "postcode": "2665-500",
      "city": "VENDA DO PINHEIRO",
      "lon": "-9.242281762046195",
      "lat": "38.931173700982264"
    },
    {
      "id": "pt.ine.add.PTCONT.2486791",
      "street": "AL FIGUEIRAS",
      "house": "11",
      "postcode": "2665-500",
      "city": "VENDA DO PINHEIRO",
      "lon": "-9.242281762046195",
      "lat": "38.931173700982264"
    },
    {
      "id": "pt.ine.add.PTCONT.2486792",
      "street": "AL FIGUEIRAS",
      "house": "11",
      "postcode": "2665-500",
      "city": "VENDA DO PINHEIRO",
      "lon": "-9.242281762046195",
      "lat": "38.931173700982264"
    },
    {
      "id": "pt.ine.add.PTCONT.2486793",
      "street": "AL FIGUEIRAS",
      "house": "11",
      "postcode": "2665-500",
      "city": "VENDA DO PINHEIRO",
      "lon": "-9.242281762046195",
      "lat": "38.931173700982264"
    },
    {
      "id": "pt.ine.add.PTCONT.2486794",
      "street": "AL FIGUEIRAS",
      "house": "11",
      "postcode": "2665-500",
      "city": "VENDA DO PINHEIRO",
      "lon": "-9.242281762046195",
      "lat": "38.931173700982264"
    },
    {
      "id": "pt.ine.add.PTCONT.2486795",
      "street": "AL FIGUEIRAS",
      "house": "11",
      "postcode": "2665-500",
      "city": "VENDA DO PINHEIRO",
      "lon": "-9.242281762046195",
      "lat": "38.931173700982264"
    },
    {
      "id": "pt.ine.add.PTCONT.2486796",
      "street": "AL FIGUEIRAS",
      "house": "11",
      "postcode": "2665-500",
      "city": "VENDA DO PINHEIRO",
      "lon": "-9.242281762046195",
      "lat": "38.931173700982264"
    },
    {
      "id": "pt.ine.add.PTCONT.2486797",
      "street": "AL FIGUEIRAS",
      "house": "11",
      "postcode": "2665-500",
      "city": "VENDA DO PINHEIRO",
      "lon": "-9.242281762046195",
      "lat": "38.931173700982264"
    },
    {
      "id": "pt.ine.add.PTCONT.2486798",
      "street": "AL FIGUEIRAS",
      "house": "11",
      "postcode": "2665-500",
      "city": "VENDA DO PINHEIRO",
      "lon": "-9.242281762046195",
      "lat": "38.931173700982264"
    },
    {
      "id": "pt.ine.add.PTCONT.2486799",
      "street": "AL FIGUEIRAS",
      "house": "11",
      "postcode": "2665-500",
      "city": "VENDA DO PINHEIRO",
      "lon": "-9.242281762046195",
      "lat": "38.931173700982264"
    },
    {
      "id": "pt.ine.add.PTCONT.2486800",
      "street": "AL FIGUEIRAS",
      "house": "11",
      "postcode": "2665-500",
      "city": "VENDA DO PINHEIRO",
      "lon": "-9.242281762046195",
      "lat": "38.931173700982264"
    },
    {
      "id": "pt.ine.add.PTCONT.2486801",
      "street": "AL FIGUEIRAS",
      "house": "11",
      "postcode": "2665-500",
      "city": "VENDA DO PINHEIRO",
      "lon": "-9.242281762046195",
      "lat": "38.931173700982264"
    },
    {
      "id": "pt.ine.add.PTCONT.2526012",
      "street": "R MATOUTINHO",
      "house": "7",
      "postcode": "2665-564",
      "city": "VENDA DO PINHEIRO",
      "lon": "-9.240419003310441",
      "lat": "38.92929981187857"
    },
    {
      "id": "pt.ine.add.PTCONT.2562341",
      "street": "R MATOUTINHO",
      "house": "S",
      "postcode": "2665-564",
      "city": "VENDA DO PINHEIRO",
      "lon": "-9.24082045885084",
      "lat": "38.929160890145894"
    },
    {
      "id": "pt.ine.add.PTCONT.2562342",
      "street": "R MATOUTINHO",
      "house": "S",
      "postcode": "2665-564",
      "city": "VENDA DO PINHEIRO",
      "lon": "-9.24082045885084",
      "lat": "38.929160890145894"
    },
    {
      "id": "pt.ine.add.PTCONT.2562343",
      "street": "R MATOUTINHO",
      "house": "S",
      "postcode": "2665-564",
      "city": "VENDA DO PINHEIRO",
      "lon": "-9.24082045885084",
      "lat": "38.929160890145894"
    },
    {
      "id": "pt.ine.add.PTCONT.2562517",
      "street": "R MATOUTINHO",
      "house": "S",
      "postcode": "2665-564",
      "city": "VENDA DO PINHEIRO",
      "lon": "-9.24082045885084",
      "lat": "38.929160890145894"
    },
    {
      "id": "pt.ine.add.PTCONT.2562518",
      "street": "R MATOUTINHO",
      "house": "S",
      "postcode": "2665-564",
      "city": "VENDA DO PINHEIRO",
      "lon": "-9.24082045885084",
      "lat": "38.929160890145894"
    },
    {
      "id": "pt.ine.add.PTCONT.2562519",
      "street": "R MATOUTINHO",
      "house": "S",
      "postcode": "2665-564",
      "city": "VENDA DO PINHEIRO",
      "lon": "-9.24082045885084",
      "lat": "38.929160890145894"
    },
    {
      "id": "pt.ine.add.PTCONT.2562520",
      "street": "R MATOUTINHO",
      "house": "S",
      "postcode": "2665-564",
      "city": "VENDA DO PINHEIRO",
      "lon": "-9.24082045885084",
      "lat": "38.929160890145894"
    },
    {
      "id": "pt.ine.add.PTCONT.2589416",
      "street": "R D JOÃO V",
      "house": "16",
      "postcode": "2665-553",
      "city": "VENDA DO PINHEIRO",
      "lon": "-9.2426638119519",
      "lat": "38.93126915232336"
    },
    {
      "id": "pt.ine.add.PTCONT.2597345",
      "street": "R D JOÃO V BEIRA ALTA",
      "house": "32",
      "postcode": "2665-553",
      "city": "VENDA DO PINHEIRO",
      "lon": "-9.240302437151344",
      "lat": "38.93144470331129"
    },
    {
      "id": "pt.ine.add.PTCONT.2634102",
      "street": "AL FIGUEIRAS",
      "house": "12",
      "postcode": "2665-500",
      "city": "VENDA DO PINHEIRO",
      "lon": "-9.241360023188916",
      "lat": "38.931227493921824"
    },
    {
      "id": "pt.ine.add.PTCONT.2634103",
      "street": "AL FIGUEIRAS",
      "house": "12",
      "postcode": "2665-500",
      "city": "VENDA DO PINHEIRO",
      "lon": "-9.241360023188916",
      "lat": "38.931227493921824"
    },
    {
      "id": "pt.ine.add.PTCONT.2634104",
      "street": "AL FIGUEIRAS",
      "house": "12",
      "postcode": "2665-500",
      "city": "VENDA DO PINHEIRO",
      "lon": "-9.241360023188916",
      "lat": "38.931227493921824"
    },
    {
      "id": "pt.ine.add.PTCONT.2634105",
      "street": "AL FIGUEIRAS",
      "house": "12",
      "postcode": "2665-500",
      "city": "VENDA DO PINHEIRO",
      "lon": "-9.241360023188916",
      "lat": "38.931227493921824"
    },
    {
      "id": "pt.ine.add.PTCONT.2634106",
      "street": "AL FIGUEIRAS",
      "house": "12",
      "postcode": "2665-500",
      "city": "VENDA DO PINHEIRO",
      "lon": "-9.241360023188916",
      "lat": "38.931227493921824"
    },
    {
      "id": "pt.ine.add.PTCONT.2634107",
      "street": "AL FIGUEIRAS",
      "house": "12",
      "postcode": "2665-500",
      "city": "VENDA DO PINHEIRO",
      "lon": "-9.241360023188916",
      "lat": "38.931227493921824"
    },
    {
      "id": "pt.ine.add.PTCONT.2634108",
      "street": "AL FIGUEIRAS",
      "house": "12",
      "postcode": "2665-500",
      "city": "VENDA DO PINHEIRO",
      "lon": "-9.241360023188916",
      "lat": "38.931227493921824"
    },
    {
      "id": "pt.ine.add.PTCONT.2634109",
      "street": "AL FIGUEIRAS",
      "house": "12",
      "postcode": "2665-500",
      "city": "VENDA DO PINHEIRO",
      "lon": "-9.241360023188916",
      "lat": "38.931227493921824"
    },
    {
      "id": "pt.ine.add.PTCONT.2634110",
      "street": "AL FIGUEIRAS",
      "house": "12",
      "postcode": "2665-500",
      "city": "VENDA DO PINHEIRO",
      "lon": "-9.241360023188916",
      "lat": "38.931227493921824"
    },
    {
      "id": "pt.ine.add.PTCONT.2634111",
      "street": "AL FIGUEIRAS",
      "house": "12",
      "postcode": "2665-500",
      "city": "VENDA DO PINHEIRO",
      "lon": "-9.241360023188916",
      "lat": "38.931227493921824"
    },
    {
      "id": "pt.ine.add.PTCONT.2634112",
      "street": "AL FIGUEIRAS",
      "house": "12",
      "postcode": "2665-500",
      "city": "VENDA DO PINHEIRO",
      "lon": "-9.241360023188916",
      "lat": "38.931227493921824"
    },
    {
      "id": "pt.ine.add.PTCONT.2634146",
      "street": "AL FIGUEIRAS",
      "house": "12",
      "postcode": "2665-500",
      "city": "VENDA DO PINHEIRO",
      "lon": "-9.241360023188916",
      "lat": "38.931227493921824"
    },
    {
      "id": "pt.ine.add.PTCONT.2634147",
      "street": "AL FIGUEIRAS",
      "house": "12",
      "postcode": "2665-500",
      "city": "VENDA DO PINHEIRO",
      "lon": "-9.241360023188916",
      "lat": "38.931227493921824"
    },
    {
      "id": "pt.ine.add.PTCONT.2634148",
      "street": "AL FIGUEIRAS",
      "house": "12",
      "postcode": "2665-500",
      "city": "VENDA DO PINHEIRO",
      "lon": "-9.241360023188916",
      "lat": "38.931227493921824"
    },
    {
      "id": "pt.ine.add.PTCONT.2637690",
      "street": "AL FIGUEIRAS",
      "house": "12",
      "postcode": "2665-500",
      "city": "VENDA DO PINHEIRO",
      "lon": "-9.241360023188916",
      "lat": "38.931227493921824"
    },
    {
      "id": "pt.ine.add.PTCONT.2637817",
      "street": "AL FIGUEIRAS",
      "house": "12",
      "postcode": "2665-500",
      "city": "VENDA DO PINHEIRO",
      "lon": "-9.241360023188916",
      "lat": "38.931227493921824"
    },
    {
      "id": "pt.ine.add.PTCONT.2677892",
      "street": "R CASAL QUINTÃO",
      "house": "7",
      "postcode": "2665-537",
      "city": "VENDA DO PINHEIRO",
      "lon": "-9.240677290001683",
      "lat": "38.929594608939716"
    },
    {
      "id": "pt.ine.add.PTCONT.2778550",
      "street": "R D JOAO V",
      "house": "22",
      "postcode": "2665-553",
      "city": "VENDA DO PINHEIRO",
      "lon": "-9.241897438180224",
      "lat": "38.93167276500276"
    },
    {
      "id": "pt.ine.add.PTCONT.2778551",
      "street": "AL FIGUEIRAS",
      "house": "13",
      "postcode": "2665-500",
      "city": "VENDA DO PINHEIRO",
      "lon": "-9.241897438180224",
      "lat": "38.93167276500276"
    },
    {
      "id": "pt.ine.add.PTCONT.2795459",
      "street": "R D JOÃO V",
      "house": "78",
      "postcode": "2665-553",
      "city": "VENDA DO PINHEIRO",
      "lon": "-9.241089176630942",
      "lat": "38.93160838029314"
    },
    {
      "id": "pt.ine.add.PTCONT.2814357",
      "street": "R MATOUTINHO",
      "house": "11",
      "postcode": "2665-564",
      "city": "VENDA DO PINHEIRO",
      "lon": "-9.239640407415228",
      "lat": "38.929658488247796"
    },
    {
      "id": "pt.ine.add.PTCONT.2826223",
      "street": "R D JOÃO V",
      "house": "38",
      "postcode": "2665-553",
      "city": "VENDA DO PINHEIRO",
      "lon": "-9.239239388327396",
      "lat": "38.931310662338525"
    },
    {
      "id": "pt.ine.add.PTCONT.2844088",
      "street": "R CASAL QUINTÃO",
      "house": "9",
      "postcode": "2665-537",
      "city": "VENDA DO PINHEIRO",
      "lon": "-9.240840814816709",
      "lat": "38.929728169705065"
    },
    {
      "id": "pt.ine.add.PTCONT.2846597",
      "street": "R D JOÃO V",
      "house": "24",
      "postcode": "2665-553",
      "city": "VENDA DO PINHEIRO",
      "lon": "-9.241516929140028",
      "lat": "38.931676379033654"
    },
    {
      "id": "pt.ine.add.PTCONT.2917466",
      "street": "R D JOÃO V",
      "house": "34",
      "postcode": "2665-553",
      "city": "VENDA DO PINHEIRO",
      "lon": "-9.239897748164497",
      "lat": "38.93137648140854"
    },
    {
      "id": "pt.ine.add.PTCONT.2937287",
      "street": "R CASAL QUINTÃO",
      "house": "1",
      "postcode": "2665-537",
      "city": "VENDA DO PINHEIRO",
      "lon": "-9.23998267554414",
      "lat": "38.929421047922816"
    },
    {
      "id": "pt.ine.add.PTCONT.2957288",
      "street": "R D JOÃO V",
      "house": "12",
      "postcode": "2665-553",
      "city": "VENDA DO PINHEIRO",
      "lon": "-9.24270193481888",
      "lat": "38.9307553624025"
    },
    {
      "id": "pt.ine.add.PTCONT.2957320",
      "street": "R MATOUTINHO",
      "house": "13",
      "postcode": "2665-564",
      "city": "VENDA DO PINHEIRO",
      "lon": "-9.239424410614916",
      "lat": "38.929858700798476"
    },
    {
      "id": "pt.ine.add.PTCONT.2957321",
      "street": "R MATOUTINHO",
      "house": "13",
      "postcode": "2665-564",
      "city": "VENDA DO PINHEIRO",
      "lon": "-9.239424410614916",
      "lat": "38.929858700798476"
    },
    {
      "id": "pt.ine.add.PTCONT.2969911",
      "street": "AV ENGENHEIROS",
      "house": "11",
      "postcode": "2665-542",
      "city": "VENDA DO PINHEIRO",
      "lon": "-9.239047486537379",
      "lat": "38.93083508314282"
    },
    {
      "id": "pt.ine.add.PTCONT.3039323",
      "street": "AL FIGUEIRAS",
      "house": "10",
      "postcode": "2665-500",
      "city": "VENDA DO PINHEIRO",
      "lon": "-9.241331635984489",
      "lat": "38.93088547840918"
    },
    {
      "id": "pt.ine.add.PTCONT.3039324",
      "street": "AL FIGUEIRAS",
      "house": "10",
      "postcode": "2665-500",
      "city": "VENDA DO PINHEIRO",
      "lon": "-9.241331635984489",
      "lat": "38.93088547840918"
    },
    {
      "id": "pt.ine.add.PTCONT.3039325",
      "street": "AL FIGUEIRAS",
      "house": "10",
      "postcode": "2665-500",
      "city": "VENDA DO PINHEIRO",
      "lon": "-9.241331635984489",
      "lat": "38.93088547840918"
    },
    {
      "id": "pt.ine.add.PTCONT.3039327",
      "street": "AL FIGUEIRAS",
      "house": "10",
      "postcode": "2665-500",
      "city": "VENDA DO PINHEIRO",
      "lon": "-9.241331635984489",
      "lat": "38.93088547840918"
    },
    {
      "id": "pt.ine.add.PTCONT.3039328",
      "street": "AL FIGUEIRAS",
      "house": "10",
      "postcode": "2665-500",
      "city": "VENDA DO PINHEIRO",
      "lon": "-9.241331635984489",
      "lat": "38.93088547840918"
    },
    {
      "id": "pt.ine.add.PTCONT.3039329",
      "street": "AL FIGUEIRAS",
      "house": "10",
      "postcode": "2665-500",
      "city": "VENDA DO PINHEIRO",
      "lon": "-9.241331635984489",
      "lat": "38.93088547840918"
    },
    {
      "id": "pt.ine.add.PTCONT.3039330",
      "street": "AL FIGUEIRAS",
      "house": "10",
      "postcode": "2665-500",
      "city": "VENDA DO PINHEIRO",
      "lon": "-9.241331635984489",
      "lat": "38.93088547840918"
    },
    {
      "id": "pt.ine.add.PTCONT.3039331",
      "street": "AL FIGUEIRAS",
      "house": "10",
      "postcode": "2665-500",
      "city": "VENDA DO PINHEIRO",
      "lon": "-9.241331635984489",
      "lat": "38.93088547840918"
    },
    {
      "id": "pt.ine.add.PTCONT.3039332",
      "street": "AL FIGUEIRAS",
      "house": "10",
      "postcode": "2665-500",
      "city": "VENDA DO PINHEIRO",
      "lon": "-9.241331635984489",
      "lat": "38.93088547840918"
    },
    {
      "id": "pt.ine.add.PTCONT.3039333",
      "street": "AL FIGUEIRAS",
      "house": "10",
      "postcode": "2665-500",
      "city": "VENDA DO PINHEIRO",
      "lon": "-9.241331635984489",
      "lat": "38.93088547840918"
    },
    {
      "id": "pt.ine.add.PTCONT.3039334",
      "street": "AL FIGUEIRAS",
      "house": "10",
      "postcode": "2665-500",
      "city": "VENDA DO PINHEIRO",
      "lon": "-9.241331635984489",
      "lat": "38.93088547840918"
    },
    {
      "id": "pt.ine.add.PTCONT.3039335",
      "street": "AL FIGUEIRAS",
      "house": "10",
      "postcode": "2665-500",
      "city": "VENDA DO PINHEIRO",
      "lon": "-9.241331635984489",
      "lat": "38.93088547840918"
    },
    {
      "id": "pt.ine.add.PTCONT.3039336",
      "street": "AL FIGUEIRAS",
      "house": "10",
      "postcode": "2665-500",
      "city": "VENDA DO PINHEIRO",
      "lon": "-9.241331635984489",
      "lat": "38.93088547840918"
    },
    {
      "id": "pt.ine.add.PTCONT.3039337",
      "street": "AL FIGUEIRAS",
      "house": "10",
      "postcode": "2665-500",
      "city": "VENDA DO PINHEIRO",
      "lon": "-9.241331635984489",
      "lat": "38.93088547840918"
    },
    {
      "id": "pt.ine.add.PTCONT.3042610",
      "street": "AL FIGUEIRAS",
      "house": "10",
      "postcode": "2665-500",
      "city": "VENDA DO PINHEIRO",
      "lon": "-9.241331635984489",
      "lat": "38.93088547840918"
    },
    {
      "id": "pt.ine.add.PTCONT.3054468",
      "street": "R CASAL QUINTÃO",
      "house": "4",
      "postcode": "2665-537",
      "city": "VENDA DO PINHEIRO",
      "lon": "-9.24005633665193",
      "lat": "38.92970858950817"
    },
    {
      "id": "pt.ine.add.PTCONT.3070223",
      "street": "AL FIGUEIRAS",
      "house": "9",
      "postcode": "2665-500",
      "city": "VENDA DO PINHEIRO",
      "lon": "-9.24225365100348",
      "lat": "38.93084969809078"
    },
    {
      "id": "pt.ine.add.PTCONT.3070224",
      "street": "AL FIGUEIRAS",
      "house": "9",
      "postcode": "2665-500",
      "city": "VENDA DO PINHEIRO",
      "lon": "-9.24225365100348",
      "lat": "38.93084969809078"
    },
    {
      "id": "pt.ine.add.PTCONT.3070225",
      "street": "AL FIGUEIRAS",
      "house": "9",
      "postcode": "2665-500",
      "city": "VENDA DO PINHEIRO",
      "lon": "-9.24225365100348",
      "lat": "38.93084969809078"
    },
    {
      "id": "pt.ine.add.PTCONT.3070226",
      "street": "AL FIGUEIRAS",
      "house": "9",
      "postcode": "2665-500",
      "city": "VENDA DO PINHEIRO",
      "lon": "-9.24225365100348",
      "lat": "38.93084969809078"
    },
    {
      "id": "pt.ine.add.PTCONT.3070387",
      "street": "AL FIGUEIRAS",
      "house": "9",
      "postcode": "2665-500",
      "city": "VENDA DO PINHEIRO",
      "lon": "-9.24225365100348",
      "lat": "38.93084969809078"
    },
    {
      "id": "pt.ine.add.PTCONT.3070388",
      "street": "AL FIGUEIRAS",
      "house": "9",
      "postcode": "2665-500",
      "city": "VENDA DO PINHEIRO",
      "lon": "-9.24225365100348",
      "lat": "38.93084969809078"
    },
    {
      "id": "pt.ine.add.PTCONT.3070389",
      "street": "AL FIGUEIRAS",
      "house": "9",
      "postcode": "2665-500",
      "city": "VENDA DO PINHEIRO",
      "lon": "-9.24225365100348",
      "lat": "38.93084969809078"
    },
    {
      "id": "pt.ine.add.PTCONT.3070390",
      "street": "AL FIGUEIRAS",
      "house": "9",
      "postcode": "2665-500",
      "city": "VENDA DO PINHEIRO",
      "lon": "-9.24225365100348",
      "lat": "38.93084969809078"
    },
    {
      "id": "pt.ine.add.PTCONT.3070391",
      "street": "AL FIGUEIRAS",
      "house": "9",
      "postcode": "2665-500",
      "city": "VENDA DO PINHEIRO",
      "lon": "-9.24225365100348",
      "lat": "38.93084969809078"
    },
    {
      "id": "pt.ine.add.PTCONT.3070392",
      "street": "AL FIGUEIRAS",
      "house": "9",
      "postcode": "2665-500",
      "city": "VENDA DO PINHEIRO",
      "lon": "-9.24225365100348",
      "lat": "38.93084969809078"
    },
    {
      "id": "pt.ine.add.PTCONT.3070393",
      "street": "AL FIGUEIRAS",
      "house": "9",
      "postcode": "2665-500",
      "city": "VENDA DO PINHEIRO",
      "lon": "-9.24225365100348",
      "lat": "38.93084969809078"
    },
    {
      "id": "pt.ine.add.PTCONT.3070394",
      "street": "AL FIGUEIRAS",
      "house": "9",
      "postcode": "2665-500",
      "city": "VENDA DO PINHEIRO",
      "lon": "-9.24225365100348",
      "lat": "38.93084969809078"
    },
    {
      "id": "pt.ine.add.PTCONT.3070395",
      "street": "AL FIGUEIRAS",
      "house": "9",
      "postcode": "2665-500",
      "city": "VENDA DO PINHEIRO",
      "lon": "-9.24225365100348",
      "lat": "38.93084969809078"
    },
    {
      "id": "pt.ine.add.PTCONT.3070396",
      "street": "AL FIGUEIRAS",
      "house": "9",
      "postcode": "2665-500",
      "city": "VENDA DO PINHEIRO",
      "lon": "-9.24225365100348",
      "lat": "38.93084969809078"
    },
    {
      "id": "pt.ine.add.PTCONT.3070941",
      "street": "AL FIGUEIRAS",
      "house": "9",
      "postcode": "2665-500",
      "city": "VENDA DO PINHEIRO",
      "lon": "-9.24225365100348",
      "lat": "38.93084969809078"
    },
    {
      "id": "pt.ine.add.PTCONT.3071291",
      "street": "AL FIGUEIRAS",
      "house": "9",
      "postcode": "2665-500",
      "city": "VENDA DO PINHEIRO",
      "lon": "-9.24225365100348",
      "lat": "38.93084969809078"
    },
    {
      "id": "pt.ine.add.PTCONT.3083368",
      "street": "R CASAL QUINTÃO",
      "house": "9",
      "postcode": "2665-537",
      "city": "VENDA DO PINHEIRO",
      "lon": "-9.24065689084788",
      "lat": "38.92976594507209"
    },
    {
      "id": "pt.ine.add.PTCONT.3119781",
      "street": "R CASAL QUINTÃO",
      "house": "4",
      "postcode": "2665-537",
      "city": "VENDA DO PINHEIRO",
      "lon": "-9.240114967991637",
      "lat": "38.92977108598431"
    },
    {
      "id": "pt.ine.add.PTCONT.3123603",
      "street": "R MATOUTINHO",
      "house": "17",
      "postcode": "2665-564",
      "city": "VENDA DO PINHEIRO",
      "lon": "-9.240016044236455",
      "lat": "38.930825902007314"
    },
    {
      "id": "pt.ine.add.PTCONT.3135910",
      "street": "R CASAL QUINTÃO",
      "house": "",
      "postcode": "2665-537",
      "city": "VENDA DO PINHEIRO",
      "lon": "-9.240583787500029",
      "lat": "38.929514428604875"
    },
    {
      "id": "pt.ine.add.PTCONT.3144971",
      "street": "R D JOÃO V",
      "house": "30",
      "postcode": "2665-553",
      "city": "VENDA DO PINHEIRO",
      "lon": "-9.24070754713976",
      "lat": "38.93153994231312"
    },
    {
      "id": "pt.ine.add.PTCONT.3153735",
      "street": "R D JOÃO V",
      "house": "8",
      "postcode": "2665-553",
      "city": "VENDA DO PINHEIRO",
      "lon": "-9.242682545848186",
      "lat": "38.93025112665967"
    },
    {
      "id": "pt.ine.add.PTCONT.3170177",
      "street": "AL FIGUEIRAS",
      "house": "13",
      "postcode": "2665-500",
      "city": "VENDA DO PINHEIRO",
      "lon": "-9.241845706669276",
      "lat": "38.931312956410395"
    },
    {
      "id": "pt.ine.add.PTCONT.3170178",
      "street": "AL FIGUEIRAS",
      "house": "13",
      "postcode": "2665-500",
      "city": "VENDA DO PINHEIRO",
      "lon": "-9.241845706669276",
      "lat": "38.931312956410395"
    },
    {
      "id": "pt.ine.add.PTCONT.3170179",
      "street": "AL FIGUEIRAS",
      "house": "13",
      "postcode": "2665-500",
      "city": "VENDA DO PINHEIRO",
      "lon": "-9.241845706669276",
      "lat": "38.931312956410395"
    },
    {
      "id": "pt.ine.add.PTCONT.3170180",
      "street": "AL FIGUEIRAS",
      "house": "13",
      "postcode": "2665-500",
      "city": "VENDA DO PINHEIRO",
      "lon": "-9.241845706669276",
      "lat": "38.931312956410395"
    },
    {
      "id": "pt.ine.add.PTCONT.3170181",
      "street": "AL FIGUEIRAS",
      "house": "13",
      "postcode": "2665-500",
      "city": "VENDA DO PINHEIRO",
      "lon": "-9.241845706669276",
      "lat": "38.931312956410395"
    },
    {
      "id": "pt.ine.add.PTCONT.3170182",
      "street": "AL FIGUEIRAS",
      "house": "13",
      "postcode": "2665-500",
      "city": "VENDA DO PINHEIRO",
      "lon": "-9.241845706669276",
      "lat": "38.931312956410395"
    },
    {
      "id": "pt.ine.add.PTCONT.3170183",
      "street": "AL FIGUEIRAS",
      "house": "13",
      "postcode": "2665-500",
      "city": "VENDA DO PINHEIRO",
      "lon": "-9.241845706669276",
      "lat": "38.931312956410395"
    },
    {
      "id": "pt.ine.add.PTCONT.3170184",
      "street": "AL FIGUEIRAS",
      "house": "13",
      "postcode": "2665-500",
      "city": "VENDA DO PINHEIRO",
      "lon": "-9.241845706669276",
      "lat": "38.931312956410395"
    },
    {
      "id": "pt.ine.add.PTCONT.3170185",
      "street": "AL FIGUEIRAS",
      "house": "13",
      "postcode": "2665-500",
      "city": "VENDA DO PINHEIRO",
      "lon": "-9.241845706669276",
      "lat": "38.931312956410395"
    },
    {
      "id": "pt.ine.add.PTCONT.3170186",
      "street": "AL FIGUEIRAS",
      "house": "13",
      "postcode": "2665-500",
      "city": "VENDA DO PINHEIRO",
      "lon": "-9.241845706669276",
      "lat": "38.931312956410395"
    },
    {
      "id": "pt.ine.add.PTCONT.3170187",
      "street": "AL FIGUEIRAS",
      "house": "13",
      "postcode": "2665-500",
      "city": "VENDA DO PINHEIRO",
      "lon": "-9.241845706669276",
      "lat": "38.931312956410395"
    },
    {
      "id": "pt.ine.add.PTCONT.3170188",
      "street": "AL FIGUEIRAS",
      "house": "13",
      "postcode": "2665-500",
      "city": "VENDA DO PINHEIRO",
      "lon": "-9.241845706669276",
      "lat": "38.931312956410395"
    },
    {
      "id": "pt.ine.add.PTCONT.3170189",
      "street": "AL FIGUEIRAS",
      "house": "13",
      "postcode": "2665-500",
      "city": "VENDA DO PINHEIRO",
      "lon": "-9.241845706669276",
      "lat": "38.931312956410395"
    },
    {
      "id": "pt.ine.add.PTCONT.3170190",
      "street": "AL FIGUEIRAS",
      "house": "13",
      "postcode": "2665-500",
      "city": "VENDA DO PINHEIRO",
      "lon": "-9.241845706669276",
      "lat": "38.931312956410395"
    },
    {
      "id": "pt.ine.add.PTCONT.3170191",
      "street": "AL FIGUEIRAS",
      "house": "13",
      "postcode": "2665-500",
      "city": "VENDA DO PINHEIRO",
      "lon": "-9.241845706669276",
      "lat": "38.931312956410395"
    },
    {
      "id": "pt.ine.add.PTCONT.3170376",
      "street": "AL FIGUEIRAS",
      "house": "13",
      "postcode": "2665-500",
      "city": "VENDA DO PINHEIRO",
      "lon": "-9.241845706669276",
      "lat": "38.931312956410395"
    },
    {
      "id": "pt.ine.add.PTCONT.3170377",
      "street": "AL FIGUEIRAS",
      "house": "13",
      "postcode": "2665-500",
      "city": "VENDA DO PINHEIRO",
      "lon": "-9.241845706669276",
      "lat": "38.931312956410395"
    },
    {
      "id": "pt.ine.add.PTCONT.3170378",
      "street": "AL FIGUEIRAS",
      "house": "13",
      "postcode": "2665-500",
      "city": "VENDA DO PINHEIRO",
      "lon": "-9.241845706669276",
      "lat": "38.931312956410395"
    },
    {
      "id": "pt.ine.add.PTCONT.3170379",
      "street": "AL FIGUEIRAS",
      "house": "13",
      "postcode": "2665-500",
      "city": "VENDA DO PINHEIRO",
      "lon": "-9.241845706669276",
      "lat": "38.931312956410395"
    },
    {
      "id": "pt.ine.add.PTCONT.3170380",
      "street": "AL FIGUEIRAS",
      "house": "13",
      "postcode": "2665-500",
      "city": "VENDA DO PINHEIRO",
      "lon": "-9.241845706669276",
      "lat": "38.931312956410395"
    },
    {
      "id": "pt.ine.add.PTCONT.3170381",
      "street": "AL FIGUEIRAS",
      "house": "13",
      "postcode": "2665-500",
      "city": "VENDA DO PINHEIRO",
      "lon": "-9.241845706669276",
      "lat": "38.931312956410395"
    },
    {
      "id": "pt.ine.add.PTCONT.3170382",
      "street": "AL FIGUEIRAS",
      "house": "13",
      "postcode": "2665-500",
      "city": "VENDA DO PINHEIRO",
      "lon": "-9.241845706669276",
      "lat": "38.931312956410395"
    },
    {
      "id": "pt.ine.add.PTCONT.3170383",
      "street": "AL FIGUEIRAS",
      "house": "13",
      "postcode": "2665-500",
      "city": "VENDA DO PINHEIRO",
      "lon": "-9.241845706669276",
      "lat": "38.931312956410395"
    },
    {
      "id": "pt.ine.add.PTCONT.3173585",
      "street": "AL FIGUEIRAS",
      "house": "13",
      "postcode": "2665-500",
      "city": "VENDA DO PINHEIRO",
      "lon": "-9.241845706669276",
      "lat": "38.931312956410395"
    },
    {
      "id": "pt.ine.add.PTCONT.3235112",
      "street": "R MATOUTINHO",
      "house": "9",
      "postcode": "2665-564",
      "city": "VENDA DO PINHEIRO",
      "lon": "-9.240224810126316",
      "lat": "38.92941875152194"
    },
    {
      "id": "pt.ine.add.PTCONT.3252920",
      "street": "R MATOUTINHO",
      "house": "",
      "postcode": "2665-564",
      "city": "VENDA DO PINHEIRO",
      "lon": "-9.2412453935217",
      "lat": "38.9290487666469"
    },
    {
      "id": "pt.ine.add.PTCONT.3252921",
      "street": "R MATOUTINHO",
      "house": "",
      "postcode": "2665-564",
      "city": "VENDA DO PINHEIRO",
      "lon": "-9.2412453935217",
      "lat": "38.9290487666469"
    },
    {
      "id": "pt.ine.add.PTCONT.3252922",
      "street": "R MATOUTINHO",
      "house": "",
      "postcode": "2665-564",
      "city": "VENDA DO PINHEIRO",
      "lon": "-9.2412453935217",
      "lat": "38.9290487666469"
    },
    {
      "id": "pt.ine.add.PTCONT.3252923",
      "street": "R MATOUTINHO",
      "house": "",
      "postcode": "2665-564",
      "city": "VENDA DO PINHEIRO",
      "lon": "-9.2412453935217",
      "lat": "38.9290487666469"
    },
    {
      "id": "pt.ine.add.PTCONT.3252924",
      "street": "R MATOUTINHO",
      "house": "",
      "postcode": "2665-564",
      "city": "VENDA DO PINHEIRO",
      "lon": "-9.2412453935217",
      "lat": "38.9290487666469"
    },
    {
      "id": "pt.ine.add.PTCONT.3252935",
      "street": "R MATOUTINHO",
      "house": "",
      "postcode": "2665-564",
      "city": "VENDA DO PINHEIRO",
      "lon": "-9.2412453935217",
      "lat": "38.9290487666469"
    },
    {
      "id": "pt.ine.add.PTCONT.3252936",
      "street": "R MATOUTINHO",
      "house": "",
      "postcode": "2665-564",
      "city": "VENDA DO PINHEIRO",
      "lon": "-9.2412453935217",
      "lat": "38.9290487666469"
    },
    {
      "id": "pt.ine.add.PTCONT.3252937",
      "street": "R MATOUTINHO",
      "house": "",
      "postcode": "2665-564",
      "city": "VENDA DO PINHEIRO",
      "lon": "-9.2412453935217",
      "lat": "38.9290487666469"
    },
    {
      "id": "pt.ine.add.PTCONT.3252938",
      "street": "R MATOUTINHO",
      "house": "",
      "postcode": "2665-564",
      "city": "VENDA DO PINHEIRO",
      "lon": "-9.2412453935217",
      "lat": "38.9290487666469"
    },
    {
      "id": "pt.ine.add.PTCONT.3252939",
      "street": "R MATOUTINHO",
      "house": "",
      "postcode": "2665-564",
      "city": "VENDA DO PINHEIRO",
      "lon": "-9.2412453935217",
      "lat": "38.9290487666469"
    },
    {
      "id": "pt.ine.add.PTCONT.3252940",
      "street": "R MATOUTINHO",
      "house": "",
      "postcode": "2665-564",
      "city": "VENDA DO PINHEIRO",
      "lon": "-9.2412453935217",
      "lat": "38.9290487666469"
    },
    {
      "id": "pt.ine.add.PTCONT.3271575",
      "street": "AL DAS FIGUEIRAS",
      "house": "8",
      "postcode": "2665-500",
      "city": "VENDA DO PINHEIRO",
      "lon": "-9.241395211917158",
      "lat": "38.93052457469937"
    },
    {
      "id": "pt.ine.add.PTCONT.3271576",
      "street": "AL DAS FIGUEIRAS",
      "house": "8",
      "postcode": "2665-500",
      "city": "VENDA DO PINHEIRO",
      "lon": "-9.241395211917158",
      "lat": "38.93052457469937"
    },
    {
      "id": "pt.ine.add.PTCONT.3271577",
      "street": "AL DAS FIGUEIRAS",
      "house": "8",
      "postcode": "2665-500",
      "city": "VENDA DO PINHEIRO",
      "lon": "-9.241395211917158",
      "lat": "38.93052457469937"
    },
    {
      "id": "pt.ine.add.PTCONT.3271578",
      "street": "AL DAS FIGUEIRAS",
      "house": "8",
      "postcode": "2665-500",
      "city": "VENDA DO PINHEIRO",
      "lon": "-9.241395211917158",
      "lat": "38.93052457469937"
    },
    {
      "id": "pt.ine.add.PTCONT.3271579",
      "street": "AL DAS FIGUEIRAS",
      "house": "8",
      "postcode": "2665-500",
      "city": "VENDA DO PINHEIRO",
      "lon": "-9.241395211917158",
      "lat": "38.93052457469937"
    },
    {
      "id": "pt.ine.add.PTCONT.3271580",
      "street": "AL DAS FIGUEIRAS",
      "house": "8",
      "postcode": "2665-500",
      "city": "VENDA DO PINHEIRO",
      "lon": "-9.241395211917158",
      "lat": "38.93052457469937"
    },
    {
      "id": "pt.ine.add.PTCONT.3271581",
      "street": "AL DAS FIGUEIRAS",
      "house": "8",
      "postcode": "2665-500",
      "city": "VENDA DO PINHEIRO",
      "lon": "-9.241395211917158",
      "lat": "38.93052457469937"
    },
    {
      "id": "pt.ine.add.PTCONT.3271582",
      "street": "AL DAS FIGUEIRAS",
      "house": "8",
      "postcode": "2665-500",
      "city": "VENDA DO PINHEIRO",
      "lon": "-9.241395211917158",
      "lat": "38.93052457469937"
    },
    {
      "id": "pt.ine.add.PTCONT.3271583",
      "street": "AL DAS FIGUEIRAS",
      "house": "8",
      "postcode": "2665-500",
      "city": "VENDA DO PINHEIRO",
      "lon": "-9.241395211917158",
      "lat": "38.93052457469937"
    },
    {
      "id": "pt.ine.add.PTCONT.3271586",
      "street": "AL DAS FIGUEIRAS",
      "house": "8",
      "postcode": "2665-500",
      "city": "VENDA DO PINHEIRO",
      "lon": "-9.241395211917158",
      "lat": "38.93052457469937"
    },
    {
      "id": "pt.ine.add.PTCONT.3271587",
      "street": "AL DAS FIGUEIRAS",
      "house": "8",
      "postcode": "2665-500",
      "city": "VENDA DO PINHEIRO",
      "lon": "-9.241395211917158",
      "lat": "38.93052457469937"
    },
    {
      "id": "pt.ine.add.PTCONT.3271588",
      "street": "AL DAS FIGUEIRAS",
      "house": "8",
      "postcode": "2665-500",
      "city": "VENDA DO PINHEIRO",
      "lon": "-9.241395211917158",
      "lat": "38.93052457469937"
    },
    {
      "id": "pt.ine.add.PTCONT.3271589",
      "street": "AL DAS FIGUEIRAS",
      "house": "8",
      "postcode": "2665-500",
      "city": "VENDA DO PINHEIRO",
      "lon": "-9.241395211917158",
      "lat": "38.93052457469937"
    },
    {
      "id": "pt.ine.add.PTCONT.3274924",
      "street": "AL DAS FIGUEIRAS",
      "house": "8",
      "postcode": "2665-500",
      "city": "VENDA DO PINHEIRO",
      "lon": "-9.241395211917158",
      "lat": "38.93052457469937"
    },
    {
      "id": "pt.ine.add.PTCONT.3274931",
      "street": "AL DAS FIGUEIRAS",
      "house": "8",
      "postcode": "2665-500",
      "city": "VENDA DO PINHEIRO",
      "lon": "-9.241395211917158",
      "lat": "38.93052457469937"
    },
    {
      "id": "pt.ine.add.PTCONT.3277534",
      "street": "AL DAS FIGUEIRAS",
      "house": "8",
      "postcode": "2665-500",
      "city": "VENDA DO PINHEIRO",
      "lon": "-9.241395211917158",
      "lat": "38.93052457469937"
    },
    {
      "id": "pt.ine.add.PTCONT.3318273",
      "street": "R D JOÃO V",
      "house": "20",
      "postcode": "2665-553",
      "city": "VENDA DO PINHEIRO",
      "lon": "-9.242161098435485",
      "lat": "38.931571177563356"
    },
    {
      "id": "pt.ine.add.PTCONT.3366914",
      "street": "R MATOUTINHO",
      "house": "15",
      "postcode": "2665-564",
      "city": "VENDA DO PINHEIRO",
      "lon": "-9.239243423259799",
      "lat": "38.93008560369338"
    },
    {
      "id": "pt.ine.add.PTCONT.3409646",
      "street": "R D JOÃO V",
      "house": "26",
      "postcode": "2665-553",
      "city": "VENDA DO PINHEIRO",
      "lon": "-9.241250884896562",
      "lat": "38.931624860152525"
    },
    {
      "id": "pt.ine.add.PTCONT.3409648",
      "street": "R CASAL QUINTÃO",
      "house": "5",
      "postcode": "2665-537",
      "city": "VENDA DO PINHEIRO",
      "lon": "-9.24040070415934",
      "lat": "38.92960624061476"
    },
    {
      "id": "pt.ine.add.PTCONT.3427689",
      "street": "R D JOÃO V",
      "house": "18",
      "postcode": "2665-553",
      "city": "VENDA DO PINHEIRO",
      "lon": "-9.242423916111173",
      "lat": "38.93141555253922"
    },
    {
      "id": "pt.ine.add.PTCONT.3433693",
      "street": "AL FIGUEIRAS",
      "house": "2",
      "postcode": "2665-500",
      "city": "VENDA DO PINHEIRO",
      "lon": "-9.241319619898636",
      "lat": "38.92937233207647"
    },
    {
      "id": "pt.ine.add.PTCONT.3446241",
      "street": "R MATOUTINHO",
      "house": "",
      "postcode": "2665-564",
      "city": "VENDA DO PINHEIRO",
      "lon": "-9.2412453935217",
      "lat": "38.9290487666469"
    },
    {
      "id": "pt.ine.add.PTCONT.3452069",
      "street": "AL FIGUEIRAS",
      "house": "10",
      "postcode": "2665-500",
      "city": "VENDA DO PINHEIRO",
      "lon": "-9.241331635984489",
      "lat": "38.93088547840918"
    },
    {
      "id": "pt.ine.add.PTCONT.3453335",
      "street": "R MATOUTINHO",
      "house": "S",
      "postcode": "2665-564",
      "city": "VENDA DO PINHEIRO",
      "lon": "-9.24082045885084",
      "lat": "38.929160890145894"
    },
    {
      "id": "pt.ine.add.PTCONT.3455460",
      "street": "AL FIGUEIRAS",
      "house": "11",
      "postcode": "2665-500",
      "city": "VENDA DO PINHEIRO",
      "lon": "-9.242281762046195",
      "lat": "38.931173700982264"
    }
  ]
}