{
  "data": {
    "ilha": "Ilha do Pico (Açores)",
    "concelho": "Madalena",
    "freguesia": "São Caetano",
    "OBJECTID": 95,
    "BGRI2021": "46020500116",
    "DT21": "46",
    "DTMN21": "4602",
    "DTMNFR21": "460205",
    "DTMNFRSEC21": "460205001",
    "SECNUM21": "001",
    "SSNUM21": "16",
    "SECSSNUM21": "00116",
    "OBJECTID_1": 209434,
    "DT": "46",
    "CC": "02",
    "fr": "05",
    "SEC": "001",
    "SS": "16",
    "BGRI2021_1": "46020500116"
  },
  "addresses": [
    {
      "id": "pt.ine.add.AC26.42415",
      "street": "R PORTO",
      "house": "4",
      "postcode": "9950-426",
      "city": "SÃO CAETANO MAD",
      "lon": "-28.427736535895235",
      "lat": "38.42996983240218"
    },
    {
      "id": "pt.ine.add.AC26.42416",
      "street": "R PORTO",
      "house": "6",
      "postcode": "9950-426",
      "city": "SÃO CAETANO MAD",
      "lon": "-28.427709370536384",
      "lat": "38.42975388513674"
    },
    {
      "id": "pt.ine.add.AC26.42417",
      "street": "R PORTO",
      "house": "8",
      "postcode": "9950-426",
      "city": "SÃO CAETANO MAD",
      "lon": "-28.42771904972067",
      "lat": "38.42966365123114"
    },
    {
      "id": "pt.ine.add.AC26.42418",
      "street": "R PORTO",
      "house": "10",
      "postcode": "9950-426",
      "city": "SÃO CAETANO MAD",
      "lon": "-28.427649086947614",
      "lat": "38.42960142258161"
    },
    {
      "id": "pt.ine.add.AC26.42419",
      "street": "R PORTO",
      "house": "12",
      "postcode": "9950-426",
      "city": "SÃO CAETANO MAD",
      "lon": "-28.42710172923417",
      "lat": "38.42914849945397"
    },
    {
      "id": "pt.ine.add.AC26.42420",
      "street": "R PORTO",
      "house": "14",
      "postcode": "9950-426",
      "city": "SÃO CAETANO MAD",
      "lon": "-28.42702485126619",
      "lat": "38.428734902340494"
    },
    {
      "id": "pt.ine.add.AC26.42421",
      "street": "RAM PORTO",
      "house": "",
      "postcode": "9950-426",
      "city": "SÃO CAETANO MAD",
      "lon": "-28.427929518853542",
      "lat": "38.42638987622394"
    },
    {
      "id": "pt.ine.add.AC26.42739",
      "street": "RAM PORTO",
      "house": "",
      "postcode": "9950-426",
      "city": "SÃO CAETANO MAD",
      "lon": "-28.42878174056024",
      "lat": "38.427199542489156"
    },
    {
      "id": "pt.ine.add.AC26.42740",
      "street": "TV ANTÓNIO FONTE",
      "house": "2",
      "postcode": "9950-421",
      "city": "SÃO CAETANO MAD",
      "lon": "-28.42838843098593",
      "lat": "38.42700608286671"
    },
    {
      "id": "pt.ine.add.AC26.42741",
      "street": "TV ANTÓNIO FONTE",
      "house": "4",
      "postcode": "9950-421",
      "city": "SÃO CAETANO MAD",
      "lon": "-28.42814490005178",
      "lat": "38.42685585433944"
    },
    {
      "id": "pt.ine.add.AC26.42742",
      "street": "TV ANTÓNIO FONTE",
      "house": "",
      "postcode": "9950-421",
      "city": "SÃO CAETANO MAD",
      "lon": "-28.42680418635563",
      "lat": "38.426836142269984"
    },
    {
      "id": "pt.ine.add.AC26.42743",
      "street": "R PORTO",
      "house": "20",
      "postcode": "9950-426",
      "city": "SÃO CAETANO MAD",
      "lon": "-28.42585790086122",
      "lat": "38.427649694417134"
    },
    {
      "id": "pt.ine.add.AC26.52149",
      "street": "R PORTO",
      "house": "2",
      "postcode": "9950-426",
      "city": "SÃO CAETANO MAD",
      "lon": "-28.427921211847096",
      "lat": "38.430039674584435"
    },
    {
      "id": "pt.ine.add.AC26.57157",
      "street": "R PORTO",
      "house": "16",
      "postcode": "9950-426",
      "city": "SÃO CAETANO MAD",
      "lon": "-28.426598596106714",
      "lat": "38.42861393082911"
    },
    {
      "id": "pt.ine.add.AC26.61873",
      "street": "RAMAL PORTO",
      "house": "5",
      "postcode": "9950-426",
      "city": "SÃO CAETANO MAD",
      "lon": "-28.42884593057571",
      "lat": "38.42755021203639"
    },
    {
      "id": "pt.ine.add.AC26.76381",
      "street": "RAM PORTO",
      "house": "",
      "postcode": "9950-426",
      "city": "SÃO CAETANO MAD",
      "lon": "-28.428276479492386",
      "lat": "38.42655686764913"
    },
    {
      "id": "pt.ine.add.AC26.76382",
      "street": "TV ANTÓNIO FONTE",
      "house": "1",
      "postcode": "9950-421",
      "city": "SÃO CAETANO MAD",
      "lon": "-28.428666499665454",
      "lat": "38.42716490134373"
    },
    {
      "id": "pt.ine.add.AC26.82415",
      "street": "RAM PORTO",
      "house": "",
      "postcode": "9950-426",
      "city": "SÃO CAETANO MAD",
      "lon": "-28.425804874599372",
      "lat": "38.42611836743039"
    },
    {
      "id": "pt.ine.add.AC26.83115",
      "street": "R PORTO",
      "house": "10",
      "postcode": "9950-426",
      "city": "SÃO CAETANO MAD",
      "lon": "-28.425886703502908",
      "lat": "38.42678423019116"
    },
    {
      "id": "pt.ine.add.AC26.105643",
      "street": "R PORTO",
      "house": "2",
      "postcode": "9950-426",
      "city": "SÃO CAETANO MAD",
      "lon": "-28.427764056313226",
      "lat": "38.43020379851608"
    }
  ]
}