{
  "data": {
    "distrito": "Beja",
    "concelho": "Beja",
    "freguesia": "União das freguesias de Beja (Santiago Maior e São João Baptista)",
    "OBJECTID": 472,
    "BGRI2021": "02052101107",
    "DT21": "02",
    "DTMN21": "0205",
    "DTMNFR21": "020521",
    "DTMNFRSEC21": "020521011",
    "SECNUM21": "011",
    "SSNUM21": "07",
    "SECSSNUM21": "01107",
    "OBJECTID_1": 13943,
    "DT": "02",
    "CC": "05",
    "fr": "21",
    "SEC": "011",
    "SS": "07"
  },
  "addresses": [
    {
      "id": "pt.ine.add.PTCONT.357693",
      "street": "R PROF BARBOSA SOEIRO",
      "house": "10",
      "postcode": "7800-329",
      "city": "BEJA",
      "lon": "-7.870333292539994",
      "lat": "38.01658310162366"
    },
    {
      "id": "pt.ine.add.PTCONT.358651",
      "street": "R PROF BARBOSA SOEIRO",
      "house": "12",
      "postcode": "7800-329",
      "city": "BEJA",
      "lon": "-7.870347531369714",
      "lat": "38.01676282916524"
    },
    {
      "id": "pt.ine.add.PTCONT.366288",
      "street": "R PROF BARBOSA SOEIRO",
      "house": "14",
      "postcode": "7800-329",
      "city": "BEJA",
      "lon": "-7.870400493534668",
      "lat": "38.016898575392865"
    },
    {
      "id": "pt.ine.add.PTCONT.369654",
      "street": "R MANUEL DE SOUSA TAVARES",
      "house": "5",
      "postcode": "7800-293",
      "city": "BEJA",
      "lon": "-7.870239194971583",
      "lat": "38.016670719748234"
    },
    {
      "id": "pt.ine.add.PTCONT.384148",
      "street": "R PROF BARBOSA SOEIRO",
      "house": "8",
      "postcode": "7800-329",
      "city": "BEJA",
      "lon": "-7.8702862501524695",
      "lat": "38.01654396933524"
    },
    {
      "id": "pt.ine.add.PTCONT.386624",
      "street": "PC D FRANCISCA PERPETUA D ARCE CABO MENDES TOMAZ",
      "house": "7",
      "postcode": "7800-269",
      "city": "BEJA",
      "lon": "-7.87018274432737",
      "lat": "38.01632450423692"
    },
    {
      "id": "pt.ine.add.PTCONT.411561",
      "street": "PC D FRANCISCA PERPETUA D ARCE CABO MENDES TOMAZ",
      "house": "6",
      "postcode": "7800-269",
      "city": "BEJA",
      "lon": "-7.870254996138688",
      "lat": "38.01631346006494"
    },
    {
      "id": "pt.ine.add.PTCONT.420390",
      "street": "R MANUEL DE SOUSA TAVARES",
      "house": "3",
      "postcode": "7800-293",
      "city": "BEJA",
      "lon": "-7.870203436144023",
      "lat": "38.01650329935987"
    },
    {
      "id": "pt.ine.add.PTCONT.448867",
      "street": "R MANUEL DE SOUSA TAVARES",
      "house": "7",
      "postcode": "7800-293",
      "city": "BEJA",
      "lon": "-7.8702707093125195",
      "lat": "38.01669953779738"
    },
    {
      "id": "pt.ine.add.PTCONT.449348",
      "street": "R MANUEL DE SOUSA TAVARES",
      "house": "1",
      "postcode": "7800-293",
      "city": "BEJA",
      "lon": "-7.870196223434566",
      "lat": "38.01644837187594"
    },
    {
      "id": "pt.ine.add.PTCONT.452419",
      "street": "R MANUEL DE SOUSA TAVARES",
      "house": "9",
      "postcode": "7800-293",
      "city": "BEJA",
      "lon": "-7.870296309275281",
      "lat": "38.016862485788906"
    },
    {
      "id": "pt.ine.add.PTCONT.453638",
      "street": "R MANUEL DE SOUSA TAVARES",
      "house": "11",
      "postcode": "7800-293",
      "city": "BEJA",
      "lon": "-7.870310160509932",
      "lat": "38.016938029542004"
    }
  ]
}