{
  "data": {
    "distrito": "Vila Real",
    "concelho": "Valpaços",
    "freguesia": "Friões",
    "OBJECTID": 554,
    "BGRI2021": "17121200128",
    "DT21": "17",
    "DTMN21": "1712",
    "DTMNFR21": "171212",
    "DTMNFRSEC21": "171212001",
    "SECNUM21": "001",
    "SSNUM21": "28",
    "SECSSNUM21": "00128",
    "OBJECTID_1": 185964,
    "DT": "17",
    "CC": "12",
    "fr": "12",
    "SEC": "001",
    "SS": "28"
  },
  "addresses": [
    {
      "id": "pt.ine.add.PTCONT.5295853",
      "street": "R LAR EMIGRANTES",
      "house": "S N",
      "postcode": "5430-123",
      "city": "FRIÕES",
      "lon": "-7.393645525976571",
      "lat": "41.670813206441046"
    },
    {
      "id": "pt.ine.add.PTCONT.5299069",
      "street": "R DR SÁ CARNEIRO",
      "house": "",
      "postcode": "5430-130",
      "city": "FRIÕES",
      "lon": "-7.389786399046211",
      "lat": "41.66285622897046"
    },
    {
      "id": "pt.ine.add.PTCONT.5299948",
      "street": "R JOÃO MEDEIROS MATEUS",
      "house": "",
      "postcode": "5430-123",
      "city": "FRIÕES",
      "lon": "-7.39339383868283",
      "lat": "41.667624348952074"
    },
    {
      "id": "pt.ine.add.PTCONT.5310015",
      "street": "R DR SÁ CARNEIRO",
      "house": "",
      "postcode": "5430-130",
      "city": "FRIÕES",
      "lon": "-7.387554583403535",
      "lat": "41.66273373131293"
    },
    {
      "id": "pt.ine.add.PTCONT.5314694",
      "street": "R DE S PEDRO",
      "house": "",
      "postcode": "5430-123",
      "city": "FRIÕES",
      "lon": "-7.393295518225258",
      "lat": "41.66782179309182"
    },
    {
      "id": "pt.ine.add.PTCONT.5342152",
      "street": "R DR SÁ CARNEIRO",
      "house": "",
      "postcode": "5430-130",
      "city": "FRIÕES",
      "lon": "-7.388216245031468",
      "lat": "41.66262097587661"
    },
    {
      "id": "pt.ine.add.PTCONT.5343956",
      "street": "R JOÃO MEDEIROS MATEUS",
      "house": "",
      "postcode": "5430-123",
      "city": "FRIÕES",
      "lon": "-7.39331010162997",
      "lat": "41.66759679948571"
    },
    {
      "id": "pt.ine.add.PTCONT.5351423",
      "street": "R DOS EMIGRANTES",
      "house": "",
      "postcode": "5430-123",
      "city": "FRIÕES",
      "lon": "-7.393694734996017",
      "lat": "41.66966107564248"
    },
    {
      "id": "pt.ine.add.PTCONT.5352774",
      "street": "TV DA QTA DO CABEÇO",
      "house": "",
      "postcode": "5430-130",
      "city": "FRIÕES",
      "lon": "-7.39003634219562",
      "lat": "41.66513573169425"
    },
    {
      "id": "pt.ine.add.PTCONT.5359892",
      "street": "R DR SÁ CARNEIRO",
      "house": "3",
      "postcode": "5430-130",
      "city": "FRIÕES",
      "lon": "-7.389891655185273",
      "lat": "41.66310000430119"
    },
    {
      "id": "pt.ine.add.PTCONT.5371063",
      "street": "R JOÃO MEDEIROS MATEUS",
      "house": "",
      "postcode": "5430-130",
      "city": "FRIÕES",
      "lon": "-7.392300652551902",
      "lat": "41.66557351328966"
    },
    {
      "id": "pt.ine.add.PTCONT.5380006",
      "street": "R DOS EMIGRANTES",
      "house": "",
      "postcode": "5430-123",
      "city": "FRIÕES",
      "lon": "-7.3936892746762855",
      "lat": "41.67013822579137"
    },
    {
      "id": "pt.ine.add.PTCONT.5380748",
      "street": "R DOS EMIGRANTES",
      "house": "",
      "postcode": "5430-123",
      "city": "FRIÕES",
      "lon": "-7.393771057887369",
      "lat": "41.67033682881705"
    },
    {
      "id": "pt.ine.add.PTCONT.5393668",
      "street": "R DR SÁ CARNEIRO",
      "house": "",
      "postcode": "5430-130",
      "city": "FRIÕES",
      "lon": "-7.390910916859111",
      "lat": "41.66425903938004"
    },
    {
      "id": "pt.ine.add.PTCONT.5396388",
      "street": "R EMIGRANTES",
      "house": "",
      "postcode": "5430-123",
      "city": "FRIÕES",
      "lon": "-7.393258516989519",
      "lat": "41.66895599566483"
    },
    {
      "id": "pt.ine.add.PTCONT.5402003",
      "street": "R DOS EMIGRANTES",
      "house": "",
      "postcode": "5430-123",
      "city": "FRIÕES",
      "lon": "-7.3936917472902195",
      "lat": "41.669922157804415"
    },
    {
      "id": "pt.ine.add.PTCONT.5405336",
      "street": "TV DO SOL",
      "house": "",
      "postcode": "5430-123",
      "city": "FRIÕES",
      "lon": "-7.392890179912723",
      "lat": "41.66756708526681"
    },
    {
      "id": "pt.ine.add.PTCONT.5406080",
      "street": "R DOS EMIGRANTES",
      "house": "",
      "postcode": "5430-123",
      "city": "FRIÕES",
      "lon": "-7.393516794189666",
      "lat": "41.66947085729868"
    },
    {
      "id": "pt.ine.add.PTCONT.5409425",
      "street": "R JOÃO MEDEIROS MATEUS",
      "house": "",
      "postcode": "5430-123",
      "city": "FRIÕES",
      "lon": "-7.392965416135812",
      "lat": "41.66728846131468"
    },
    {
      "id": "pt.ine.add.PTCONT.5420555",
      "street": "R JOÃO MEDEIROS MATEUS",
      "house": "",
      "postcode": "5430-123",
      "city": "FRIÕES",
      "lon": "-7.393192406572176",
      "lat": "41.6673889613588"
    },
    {
      "id": "pt.ine.add.PTCONT.5421359",
      "street": "R DR SÁ CARNEIRO",
      "house": "",
      "postcode": "5430-130",
      "city": "FRIÕES",
      "lon": "-7.390772015676945",
      "lat": "41.663807967119354"
    },
    {
      "id": "pt.ine.add.PTCONT.5421642",
      "street": "TV DO SOL",
      "house": "",
      "postcode": "5430-123",
      "city": "FRIÕES",
      "lon": "-7.3928644134760555",
      "lat": "41.667719978801"
    },
    {
      "id": "pt.ine.add.PTCONT.5423407",
      "street": "R DR SÁ CARNEIRO",
      "house": "",
      "postcode": "5430-130",
      "city": "FRIÕES",
      "lon": "-7.389643055431246",
      "lat": "41.662792277287956"
    },
    {
      "id": "pt.ine.add.PTCONT.5424983",
      "street": "R JOÃO MEDEIROS MATEUS",
      "house": "",
      "postcode": "5430-123",
      "city": "FRIÕES",
      "lon": "-7.393464538707847",
      "lat": "41.66774184945052"
    },
    {
      "id": "pt.ine.add.PTCONT.5426884",
      "street": "TV DA QTA DO CABEÇO",
      "house": "",
      "postcode": "5430-130",
      "city": "FRIÕES",
      "lon": "-7.390666143137303",
      "lat": "41.66466261612674"
    }
  ]
}