{
  "data": {
    "distrito": "Porto",
    "concelho": "Amarante",
    "freguesia": "Uni√£o das freguesias de Vila Garcia, Aboim e Chapa",
    "OBJECTID": 168,
    "BGRI2021": "13014800109",
    "DT21": "13",
    "DTMN21": "1301",
    "DTMNFR21": "130148",
    "DTMNFRSEC21": "130148001",
    "SECNUM21": "001",
    "SSNUM21": "09",
    "SECSSNUM21": "00109",
    "OBJECTID_1": 125788,
    "DT": "13",
    "CC": "01",
    "fr": "48",
    "SEC": "001",
    "SS": "09"
  },
  "addresses": [
    {
      "id": "pt.ine.add.PTCONT.3572358",
      "street": "R SOUTELO",
      "house": "78",
      "postcode": "4600-810",
      "city": "VILA GARCIA AMT",
      "lon": "-8.081532887158659",
      "lat": "41.30871296711526"
    },
    {
      "id": "pt.ine.add.PTCONT.3669149",
      "street": "R FERMIL",
      "house": "529",
      "postcode": "4600-810",
      "city": "VILA GARCIA AMT",
      "lon": "-8.080840012915228",
      "lat": "41.309045808173245"
    },
    {
      "id": "pt.ine.add.PTCONT.3798828",
      "street": "R FERMIL",
      "house": "413",
      "postcode": "4600-810",
      "city": "VILA GARCIA AMT",
      "lon": "-8.081593069619991",
      "lat": "41.30810971590325"
    },
    {
      "id": "pt.ine.add.PTCONT.3976847",
      "street": "R SOUTELO",
      "house": "112",
      "postcode": "4600-810",
      "city": "VILA GARCIA AMT",
      "lon": "-8.081604252840897",
      "lat": "41.30907316510429"
    },
    {
      "id": "pt.ine.add.PTCONT.4005108",
      "street": "R FERMIL",
      "house": "493",
      "postcode": "4600-810",
      "city": "VILA GARCIA AMT",
      "lon": "-8.081102978120352",
      "lat": "41.30873078199526"
    },
    {
      "id": "pt.ine.add.PTCONT.4140023",
      "street": "R SOUTELO",
      "house": "102",
      "postcode": "4600-810",
      "city": "VILA GARCIA AMT",
      "lon": "-8.081484964824941",
      "lat": "41.30891103695635"
    },
    {
      "id": "pt.ine.add.PTCONT.4203763",
      "street": "TV SOUTELO",
      "house": "53",
      "postcode": "4600-810",
      "city": "VILA GARCIA AMT",
      "lon": "-8.080995239127438",
      "lat": "41.30906388685295"
    },
    {
      "id": "pt.ine.add.PTCONT.4240544",
      "street": "R SOUTELO",
      "house": "40",
      "postcode": "4600-810",
      "city": "VILA GARCIA AMT",
      "lon": "-8.08174806770763",
      "lat": "41.308415926328415"
    },
    {
      "id": "pt.ine.add.PTCONT.4286916",
      "street": "R SOUTELO",
      "house": "54",
      "postcode": "4600-810",
      "city": "VILA GARCIA AMT",
      "lon": "-8.08166437128034",
      "lat": "41.308550951227666"
    },
    {
      "id": "pt.ine.add.PTCONT.4292578",
      "street": "R SOUTELO",
      "house": "54",
      "postcode": "4600-810",
      "city": "VILA GARCIA AMT",
      "lon": "-8.08166437128034",
      "lat": "41.308550951227666"
    },
    {
      "id": "pt.ine.add.PTCONT.4320166",
      "street": "R CRUZ BOUCAS",
      "house": "18",
      "postcode": "4600-810",
      "city": "VILA GARCIA AMT",
      "lon": "-8.081867743204924",
      "lat": "41.308082826041854"
    },
    {
      "id": "pt.ine.add.PTCONT.4333645",
      "street": "R FERMIL",
      "house": "509",
      "postcode": "4600-810",
      "city": "VILA GARCIA AMT",
      "lon": "-8.080971513767004",
      "lat": "41.30886578479254"
    }
  ]
}