{
  "data": {
    "ilha": "Ilha da Madeira (Madeira)",
    "concelho": "Calheta",
    "freguesia": "Fajã da Ovelha",
    "OBJECTID": 25,
    "BGRI2021": "31010400112",
    "DT21": "31",
    "DTMN21": "3101",
    "DTMNFR21": "310104",
    "DTMNFRSEC21": "310104001",
    "SECNUM21": "001",
    "SSNUM21": "12",
    "SECSSNUM21": "00112",
    "OBJECTID_1": 203335,
    "DT": "31",
    "CC": "01",
    "fr": "04",
    "SEC": "001",
    "SS": "12",
    "BGRI2021_1": "31010400112"
  },
  "addresses": [
    {
      "id": "pt.ine.add.MAD.26541",
      "street": "ER 223",
      "house": "62",
      "postcode": "9370-360",
      "city": "FAJÃ DA OVELHA",
      "lon": "-17.235009578844508",
      "lat": "32.774893570787604"
    },
    {
      "id": "pt.ine.add.MAD.26852",
      "street": "ER 223",
      "house": "88",
      "postcode": "9370-360",
      "city": "FAJÃ DA OVELHA",
      "lon": "-17.23024326104495",
      "lat": "32.77467194592351"
    },
    {
      "id": "pt.ine.add.MAD.26853",
      "street": "ER 223",
      "house": "94",
      "postcode": "9370-360",
      "city": "FAJÃ DA OVELHA",
      "lon": "-17.23034025413486",
      "lat": "32.77342575444319"
    },
    {
      "id": "pt.ine.add.MAD.26854",
      "street": "CAM S LOURENÇO",
      "house": "",
      "postcode": "9370-362",
      "city": "FAJÃ DA OVELHA",
      "lon": "-17.229762526839316",
      "lat": "32.77337291803112"
    },
    {
      "id": "pt.ine.add.MAD.26855",
      "street": "CAM S LOURENÇO",
      "house": "53",
      "postcode": "9370-362",
      "city": "FAJÃ DA OVELHA",
      "lon": "-17.22968424238497",
      "lat": "32.7732300262556"
    },
    {
      "id": "pt.ine.add.MAD.26856",
      "street": "VR PICO",
      "house": "",
      "postcode": "9370-366",
      "city": "FAJÃ DA OVELHA",
      "lon": "-17.231131015541663",
      "lat": "32.77303291781732"
    },
    {
      "id": "pt.ine.add.MAD.56714",
      "street": "ER 223",
      "house": "",
      "postcode": "9370-360",
      "city": "FAJÃ DA OVELHA",
      "lon": "-17.233293733340805",
      "lat": "32.774148649964786"
    },
    {
      "id": "pt.ine.add.MAD.73556",
      "street": "ER 223",
      "house": "",
      "postcode": "9370-360",
      "city": "FAJÃ DA OVELHA",
      "lon": "-17.232942988917053",
      "lat": "32.774209012032685"
    },
    {
      "id": "pt.ine.add.MAD.86790",
      "street": "ESTR REGIONAL",
      "house": "76",
      "postcode": "9370-360",
      "city": "FAJÃ DA OVELHA",
      "lon": "-17.23308898459163",
      "lat": "32.77407114083195"
    },
    {
      "id": "pt.ine.add.MAD.86791",
      "street": "ESTR REGIONAL",
      "house": "92",
      "postcode": "9370-360",
      "city": "FAJÃ DA OVELHA",
      "lon": "-17.230575433028843",
      "lat": "32.77343960115301"
    },
    {
      "id": "pt.ine.add.MAD.90045",
      "street": "CAM S LOURENÇO",
      "house": "5",
      "postcode": "9370-362",
      "city": "FAJÃ DA OVELHA",
      "lon": "-17.232996395499377",
      "lat": "32.77164699049981"
    }
  ]
}