{
  "data": {
    "distrito": "Beja",
    "concelho": "Serpa",
    "freguesia": "Vila Verde de Ficalho",
    "OBJECTID": 650,
    "BGRI2021": "02130700204",
    "DT21": "02",
    "DTMN21": "0213",
    "DTMNFR21": "021307",
    "DTMNFRSEC21": "021307002",
    "SECNUM21": "002",
    "SSNUM21": "04",
    "SECSSNUM21": "00204",
    "OBJECTID_1": 18941,
    "DT": "02",
    "CC": "13",
    "fr": "07",
    "SEC": "002",
    "SS": "04"
  },
  "addresses": [
    {
      "id": "pt.ine.add.PTCONT.367415",
      "street": "CAM MONTE DO ZEZINHO",
      "house": "",
      "postcode": "7830-621",
      "city": "VILA VERDE DE FICALHO",
      "lon": "-7.318896923465413",
      "lat": "37.887398200715936"
    },
    {
      "id": "pt.ine.add.PTCONT.371454",
      "street": "ESTR PENALVA MONTE DOS EUCALIPTOS",
      "house": "",
      "postcode": "7830-621",
      "city": "VILA VERDE DE FICALHO",
      "lon": "-7.335160615062465",
      "lat": "37.89930266819112"
    },
    {
      "id": "pt.ine.add.PTCONT.381165",
      "street": "ESTR PENALVA MONTE DAS AMENDOEIRAS",
      "house": "",
      "postcode": "7830-621",
      "city": "VILA VERDE DE FICALHO",
      "lon": "-7.338108692503163",
      "lat": "37.89581802411117"
    },
    {
      "id": "pt.ine.add.PTCONT.381166",
      "street": "CAM MONTE DA ARVORE",
      "house": "",
      "postcode": "7830-621",
      "city": "VILA VERDE DE FICALHO",
      "lon": "-7.309050815822853",
      "lat": "37.88449177466931"
    },
    {
      "id": "pt.ine.add.PTCONT.382648",
      "street": "CAM MONTE DOS SOEIROS",
      "house": "",
      "postcode": "7830-621",
      "city": "VILA VERDE DE FICALHO",
      "lon": "-7.324018327796763",
      "lat": "37.8878929847382"
    },
    {
      "id": "pt.ine.add.PTCONT.384076",
      "street": "CAM MONTE DO POEJINHO",
      "house": "",
      "postcode": "7830-621",
      "city": "VILA VERDE DE FICALHO",
      "lon": "-7.336025674845352",
      "lat": "37.887614533130595"
    },
    {
      "id": "pt.ine.add.PTCONT.406656",
      "street": "CAM MONTE DO HOLANDES",
      "house": "",
      "postcode": "7830-621",
      "city": "VILA VERDE DE FICALHO",
      "lon": "-7.330209004640447",
      "lat": "37.88937685212857"
    },
    {
      "id": "pt.ine.add.PTCONT.413200",
      "street": "CAM 3 PINHEIROS MONTE DOS 3 PINHEIROS",
      "house": "",
      "postcode": "7830-621",
      "city": "VILA VERDE DE FICALHO",
      "lon": "-7.332155814312236",
      "lat": "37.900651662186675"
    },
    {
      "id": "pt.ine.add.PTCONT.418291",
      "street": "CAM MONTE DO SOBREIRO",
      "house": "",
      "postcode": "7830-621",
      "city": "VILA VERDE DE FICALHO",
      "lon": "-7.326986168517389",
      "lat": "37.88781424467089"
    },
    {
      "id": "pt.ine.add.PTCONT.419090",
      "street": "CAM SERPAKARTING MONTE SERPAKARTING",
      "house": "",
      "postcode": "7830-621",
      "city": "VILA VERDE DE FICALHO",
      "lon": "-7.34327492950716",
      "lat": "37.894312223414296"
    },
    {
      "id": "pt.ine.add.PTCONT.419091",
      "street": "ESTR PENALVA MONTE DO SOBRALINHO",
      "house": "",
      "postcode": "7830-621",
      "city": "VILA VERDE DE FICALHO",
      "lon": "-7.314026377368939",
      "lat": "37.884787768119914"
    },
    {
      "id": "pt.ine.add.PTCONT.432022",
      "street": "ESTR PENALVA MONTE DOS CACTOS",
      "house": "",
      "postcode": "7830-621",
      "city": "VILA VERDE DE FICALHO",
      "lon": "-7.327745829558826",
      "lat": "37.897387256334405"
    },
    {
      "id": "pt.ine.add.PTCONT.432582",
      "street": "CAM MONTE DO ALBERTO",
      "house": "",
      "postcode": "7830-621",
      "city": "VILA VERDE DE FICALHO",
      "lon": "-7.335757533113031",
      "lat": "37.88823435542926"
    },
    {
      "id": "pt.ine.add.PTCONT.441889",
      "street": "CAM MONTE DO PAULINO",
      "house": "",
      "postcode": "7830-621",
      "city": "VILA VERDE DE FICALHO",
      "lon": "-7.319284148765142",
      "lat": "37.89662633535274"
    },
    {
      "id": "pt.ine.add.PTCONT.444326",
      "street": "ESTR PENALVA VALE DE MILHANOS",
      "house": "",
      "postcode": "7830-621",
      "city": "VILA VERDE DE FICALHO",
      "lon": "-7.340839199749823",
      "lat": "37.89457514068908"
    }
  ]
}