{
  "data": {
    "distrito": "Beja",
    "concelho": "Serpa",
    "freguesia": "Vila Verde de Ficalho",
    "OBJECTID": 392,
    "BGRI2021": "02130700205",
    "DT21": "02",
    "DTMN21": "0213",
    "DTMNFR21": "021307",
    "DTMNFRSEC21": "021307002",
    "SECNUM21": "002",
    "SSNUM21": "05",
    "SECSSNUM21": "00205",
    "OBJECTID_1": 18843,
    "DT": "02",
    "CC": "13",
    "fr": "07",
    "SEC": "002",
    "SS": "05"
  },
  "addresses": [
    {
      "id": "pt.ine.add.PTCONT.364978",
      "street": "CAM MONTE CAMACHO",
      "house": "",
      "postcode": "7830-621",
      "city": "VILA VERDE DE FICALHO",
      "lon": "-7.324595658206849",
      "lat": "37.90474421481333"
    },
    {
      "id": "pt.ine.add.PTCONT.400201",
      "street": "CAM MONTE FERNANDES",
      "house": "",
      "postcode": "7830-621",
      "city": "VILA VERDE DE FICALHO",
      "lon": "-7.32574406602285",
      "lat": "37.89849969645914"
    },
    {
      "id": "pt.ine.add.PTCONT.410877",
      "street": "CAM MONTE DAS CABRAS",
      "house": "",
      "postcode": "7830-621",
      "city": "VILA VERDE DE FICALHO",
      "lon": "-7.316447689896302",
      "lat": "37.89712922469999"
    },
    {
      "id": "pt.ine.add.PTCONT.418290",
      "street": "CAM CARRASCO MONTE DO CARRASCO",
      "house": "",
      "postcode": "7830-621",
      "city": "VILA VERDE DE FICALHO",
      "lon": "-7.328207799982246",
      "lat": "37.89881387484963"
    },
    {
      "id": "pt.ine.add.PTCONT.424707",
      "street": "CAM MONTE DO ALTO",
      "house": "",
      "postcode": "7830-621",
      "city": "VILA VERDE DE FICALHO",
      "lon": "-7.328298702954196",
      "lat": "37.902994777702006"
    },
    {
      "id": "pt.ine.add.PTCONT.435132",
      "street": "ESTR PENALVA MONTE DA SERRA BAIXA",
      "house": "",
      "postcode": "7830-657",
      "city": "VILA VERDE DE FICALHO",
      "lon": "-7.2978022758615175",
      "lat": "37.907187795584214"
    },
    {
      "id": "pt.ine.add.PTCONT.435387",
      "street": "ESTR PENALVA MONTE DA SERRA BAIXA",
      "house": "",
      "postcode": "7830-657",
      "city": "VILA VERDE DE FICALHO",
      "lon": "-7.2978022758615175",
      "lat": "37.907187795584214"
    },
    {
      "id": "pt.ine.add.PTCONT.436212",
      "street": "CAM 5 PINHEIROS MONTE DOS 5 PINHEIROS",
      "house": "",
      "postcode": "7830-621",
      "city": "VILA VERDE DE FICALHO",
      "lon": "-7.330158890511602",
      "lat": "37.899223607206984"
    }
  ]
}