{
  "data": {
    "distrito": "Setúbal",
    "concelho": "Almada",
    "freguesia": "União das freguesias de Laranjeiro e Feijó",
    "OBJECTID": 1290,
    "BGRI2021": "15031502406",
    "DT21": "15",
    "DTMN21": "1503",
    "DTMNFR21": "150315",
    "DTMNFRSEC21": "150315024",
    "SECNUM21": "024",
    "SSNUM21": "06",
    "SECSSNUM21": "02406",
    "OBJECTID_1": 161797,
    "DT": "15",
    "CC": "03",
    "fr": "15",
    "SEC": "024",
    "SS": "06"
  },
  "addresses": [
    {
      "id": "pt.ine.add.PTCONT.4678825",
      "street": "R DR ANTÓNIO ELVAS",
      "house": "",
      "postcode": "2810-168",
      "city": "ALMADA",
      "lon": "-9.160602429062228",
      "lat": "38.65404096918383"
    },
    {
      "id": "pt.ine.add.PTCONT.4680449",
      "street": "R ORLANDO SOARES DE PINHO",
      "house": "",
      "postcode": "2810-113",
      "city": "ALMADA",
      "lon": "-9.16109778209574",
      "lat": "38.65333399540661"
    },
    {
      "id": "pt.ine.add.PTCONT.4682507",
      "street": "R ORLANDO SOARES DE PINHO",
      "house": "",
      "postcode": "2810-113",
      "city": "ALMADA",
      "lon": "-9.161247359212172",
      "lat": "38.65335069667449"
    },
    {
      "id": "pt.ine.add.PTCONT.4707306",
      "street": "R CLUBE RECREATIVO DO FEIJÓ",
      "house": "5A",
      "postcode": "2810-042",
      "city": "ALMADA",
      "lon": "-9.161153253490312",
      "lat": "38.65400009736997"
    },
    {
      "id": "pt.ine.add.PTCONT.4707307",
      "street": "R CLUBE RECREATIVO DO FEIJÓ",
      "house": "5A",
      "postcode": "2810-042",
      "city": "ALMADA",
      "lon": "-9.161153253490312",
      "lat": "38.65400009736997"
    },
    {
      "id": "pt.ine.add.PTCONT.4707308",
      "street": "R CLUBE RECREATIVO DO FEIJÓ",
      "house": "5A",
      "postcode": "2810-042",
      "city": "ALMADA",
      "lon": "-9.161153253490312",
      "lat": "38.65400009736997"
    },
    {
      "id": "pt.ine.add.PTCONT.4707309",
      "street": "R CLUBE RECREATIVO DO FEIJÓ",
      "house": "5A",
      "postcode": "2810-042",
      "city": "ALMADA",
      "lon": "-9.161153253490312",
      "lat": "38.65400009736997"
    },
    {
      "id": "pt.ine.add.PTCONT.4707468",
      "street": "R CLUBE RECREATIVO DO FEIJÓ",
      "house": "5A",
      "postcode": "2810-042",
      "city": "ALMADA",
      "lon": "-9.161153253490312",
      "lat": "38.65400009736997"
    },
    {
      "id": "pt.ine.add.PTCONT.4726726",
      "street": "R PERO DA COVILHÃ",
      "house": "8",
      "postcode": "2810-115",
      "city": "ALMADA",
      "lon": "-9.160746731145755",
      "lat": "38.65368839081348"
    },
    {
      "id": "pt.ine.add.PTCONT.4726727",
      "street": "R PERO DA COVILHÃ",
      "house": "8",
      "postcode": "2810-115",
      "city": "ALMADA",
      "lon": "-9.160746731145755",
      "lat": "38.65368839081348"
    },
    {
      "id": "pt.ine.add.PTCONT.4726728",
      "street": "R PERO DA COVILHÃ",
      "house": "8",
      "postcode": "2810-115",
      "city": "ALMADA",
      "lon": "-9.160746731145755",
      "lat": "38.65368839081348"
    },
    {
      "id": "pt.ine.add.PTCONT.4743630",
      "street": "R CLUBE RECREATIVO DO FEIJÓ",
      "house": "1",
      "postcode": "2810-042",
      "city": "ALMADA",
      "lon": "-9.161225003443592",
      "lat": "38.654197641969816"
    },
    {
      "id": "pt.ine.add.PTCONT.4743631",
      "street": "R CLUBE RECREATIVO DO FEIJÓ",
      "house": "1",
      "postcode": "2810-042",
      "city": "ALMADA",
      "lon": "-9.161225003443592",
      "lat": "38.654197641969816"
    },
    {
      "id": "pt.ine.add.PTCONT.4755135",
      "street": "R DR ANTÓNIO ELVAS",
      "house": "",
      "postcode": "2810-168",
      "city": "ALMADA",
      "lon": "-9.160741164774416",
      "lat": "38.6541028061537"
    },
    {
      "id": "pt.ine.add.PTCONT.4759447",
      "street": "R CLUBE RECREATIVO DO FEIJÓ",
      "house": "5",
      "postcode": "2810-042",
      "city": "ALMADA",
      "lon": "-9.161126933779695",
      "lat": "38.65376612158295"
    },
    {
      "id": "pt.ine.add.PTCONT.4759460",
      "street": "R CLUBE RECREATIVO DO FEIJÓ",
      "house": "5",
      "postcode": "2810-042",
      "city": "ALMADA",
      "lon": "-9.161126933779695",
      "lat": "38.65376612158295"
    },
    {
      "id": "pt.ine.add.PTCONT.4759461",
      "street": "R CLUBE RECREATIVO DO FEIJÓ",
      "house": "5",
      "postcode": "2810-042",
      "city": "ALMADA",
      "lon": "-9.161126933779695",
      "lat": "38.65376612158295"
    },
    {
      "id": "pt.ine.add.PTCONT.4759462",
      "street": "R CLUBE RECREATIVO DO FEIJÓ",
      "house": "5",
      "postcode": "2810-042",
      "city": "ALMADA",
      "lon": "-9.161126933779695",
      "lat": "38.65376612158295"
    },
    {
      "id": "pt.ine.add.PTCONT.4762937",
      "street": "R ORLANDO SOARES DE PINHO",
      "house": "24",
      "postcode": "2810-113",
      "city": "ALMADA",
      "lon": "-9.1613278908586",
      "lat": "38.653358996751805"
    },
    {
      "id": "pt.ine.add.PTCONT.4819807",
      "street": "R DR ANTÓNIO ELVAS",
      "house": "",
      "postcode": "2810-168",
      "city": "ALMADA",
      "lon": "-9.160856284669626",
      "lat": "38.65411981063363"
    },
    {
      "id": "pt.ine.add.PTCONT.4826722",
      "street": "R CLUBE RECREATIVO DO FEIJÓ",
      "house": "5",
      "postcode": "2810-042",
      "city": "ALMADA",
      "lon": "-9.16108292002097",
      "lat": "38.65390162789341"
    },
    {
      "id": "pt.ine.add.PTCONT.4826723",
      "street": "R CLUBE RECREATIVO DO FEIJÓ",
      "house": "5",
      "postcode": "2810-042",
      "city": "ALMADA",
      "lon": "-9.16108292002097",
      "lat": "38.65390162789341"
    },
    {
      "id": "pt.ine.add.PTCONT.4826724",
      "street": "R CLUBE RECREATIVO DO FEIJÓ",
      "house": "5",
      "postcode": "2810-042",
      "city": "ALMADA",
      "lon": "-9.16108292002097",
      "lat": "38.65390162789341"
    },
    {
      "id": "pt.ine.add.PTCONT.4826725",
      "street": "R CLUBE RECREATIVO DO FEIJÓ",
      "house": "5",
      "postcode": "2810-042",
      "city": "ALMADA",
      "lon": "-9.16108292002097",
      "lat": "38.65390162789341"
    },
    {
      "id": "pt.ine.add.PTCONT.4901213",
      "street": "R CLUBE RECREATIVO DO FEIJÓ",
      "house": "13",
      "postcode": "2810-042",
      "city": "ALMADA",
      "lon": "-9.161477468073997",
      "lat": "38.653375697723895"
    },
    {
      "id": "pt.ine.add.PTCONT.4930823",
      "street": "R PERO DA COVILHÃ",
      "house": "",
      "postcode": "2810-115",
      "city": "ALMADA",
      "lon": "-9.16100589309954",
      "lat": "38.65333480294374"
    },
    {
      "id": "pt.ine.add.PTCONT.4947098",
      "street": "R PERO DA COVILHÃ",
      "house": "",
      "postcode": "2810-115",
      "city": "ALMADA",
      "lon": "-9.160776041899242",
      "lat": "38.65332781463464"
    },
    {
      "id": "pt.ine.add.PTCONT.4947099",
      "street": "R PERO DA COVILHÃ",
      "house": "",
      "postcode": "2810-115",
      "city": "ALMADA",
      "lon": "-9.160776041899242",
      "lat": "38.65332781463464"
    },
    {
      "id": "pt.ine.add.PTCONT.4984012",
      "street": "R CLUBE RECREATIVO DO FEIJÓ",
      "house": "11",
      "postcode": "2810-042",
      "city": "ALMADA",
      "lon": "-9.161478498329576",
      "lat": "38.653447752396204"
    },
    {
      "id": "pt.ine.add.PTCONT.4998677",
      "street": "R PERO DA COVILHÃ",
      "house": "6",
      "postcode": "2810-115",
      "city": "ALMADA",
      "lon": "-9.160702845398506",
      "lat": "38.65383290382745"
    },
    {
      "id": "pt.ine.add.PTCONT.4998678",
      "street": "R PERO DA COVILHÃ",
      "house": "6",
      "postcode": "2810-115",
      "city": "ALMADA",
      "lon": "-9.160702845398506",
      "lat": "38.65383290382745"
    },
    {
      "id": "pt.ine.add.PTCONT.4998679",
      "street": "R PERO DA COVILHÃ",
      "house": "6",
      "postcode": "2810-115",
      "city": "ALMADA",
      "lon": "-9.160702845398506",
      "lat": "38.65383290382745"
    },
    {
      "id": "pt.ine.add.PTCONT.5002190",
      "street": "R PERO DA COVILHÃ",
      "house": "4",
      "postcode": "2810-115",
      "city": "ALMADA",
      "lon": "-9.160658187390101",
      "lat": "38.65392337581072"
    },
    {
      "id": "pt.ine.add.PTCONT.5009238",
      "street": "R PERO DA COVILHÃ",
      "house": "14",
      "postcode": "2810-115",
      "city": "ALMADA",
      "lon": "-9.160765585314419",
      "lat": "38.65339997023818"
    },
    {
      "id": "pt.ine.add.PTCONT.5009239",
      "street": "R PERO DA COVILHÃ",
      "house": "14",
      "postcode": "2810-115",
      "city": "ALMADA",
      "lon": "-9.160765585314419",
      "lat": "38.65339997023818"
    },
    {
      "id": "pt.ine.add.PTCONT.5009240",
      "street": "R PERO DA COVILHÃ",
      "house": "14",
      "postcode": "2810-115",
      "city": "ALMADA",
      "lon": "-9.160765585314419",
      "lat": "38.65339997023818"
    },
    {
      "id": "pt.ine.add.PTCONT.5011503",
      "street": "R PERO DA COVILHÃ",
      "house": "14",
      "postcode": "2810-115",
      "city": "ALMADA",
      "lon": "-9.160765585314419",
      "lat": "38.65339997023818"
    },
    {
      "id": "pt.ine.add.PTCONT.5105271",
      "street": "R PERO DA COVILHÃ",
      "house": "10",
      "postcode": "2810-115",
      "city": "ALMADA",
      "lon": "-9.160756158245755",
      "lat": "38.653544180527696"
    },
    {
      "id": "pt.ine.add.PTCONT.5105272",
      "street": "R PERO DA COVILHÃ",
      "house": "10",
      "postcode": "2810-115",
      "city": "ALMADA",
      "lon": "-9.160756158245755",
      "lat": "38.653544180527696"
    },
    {
      "id": "pt.ine.add.PTCONT.5105273",
      "street": "R PERO DA COVILHÃ",
      "house": "10",
      "postcode": "2810-115",
      "city": "ALMADA",
      "lon": "-9.160756158245755",
      "lat": "38.653544180527696"
    },
    {
      "id": "pt.ine.add.PTCONT.5113807",
      "street": "R CLUBE RECREATIVO DO FEIJÓ",
      "house": "3",
      "postcode": "2810-042",
      "city": "ALMADA",
      "lon": "-9.161291989581839",
      "lat": "38.65406193368147"
    },
    {
      "id": "pt.ine.add.PTCONT.5113808",
      "street": "R CLUBE RECREATIVO DO FEIJÓ",
      "house": "3",
      "postcode": "2810-042",
      "city": "ALMADA",
      "lon": "-9.161291989581839",
      "lat": "38.65406193368147"
    },
    {
      "id": "pt.ine.add.PTCONT.5113809",
      "street": "R CLUBE RECREATIVO DO FEIJÓ",
      "house": "3",
      "postcode": "2810-042",
      "city": "ALMADA",
      "lon": "-9.161291989581839",
      "lat": "38.65406193368147"
    },
    {
      "id": "pt.ine.add.PTCONT.5113810",
      "street": "R CLUBE RECREATIVO DO FEIJÓ",
      "house": "3",
      "postcode": "2810-042",
      "city": "ALMADA",
      "lon": "-9.161291989581839",
      "lat": "38.65406193368147"
    },
    {
      "id": "pt.ine.add.PTCONT.5113811",
      "street": "R CLUBE RECREATIVO DO FEIJÓ",
      "house": "3",
      "postcode": "2810-042",
      "city": "ALMADA",
      "lon": "-9.161291989581839",
      "lat": "38.65406193368147"
    },
    {
      "id": "pt.ine.add.PTCONT.5125156",
      "street": "R ORLANDO SOARES DE PINHO",
      "house": "",
      "postcode": "2810-113",
      "city": "ALMADA",
      "lon": "-9.161247359212172",
      "lat": "38.65335069667449"
    }
  ]
}