{
  "data": {
    "distrito": "Porto",
    "concelho": "Matosinhos",
    "freguesia": "Uni√£o das freguesias de Perafita, Lavra e Santa Cruz do Bispo",
    "OBJECTID": 842,
    "BGRI2021": "13081301507",
    "DT21": "13",
    "DTMN21": "1308",
    "DTMNFR21": "130813",
    "DTMNFRSEC21": "130813015",
    "SECNUM21": "015",
    "SSNUM21": "07",
    "SECSSNUM21": "01507",
    "OBJECTID_1": 132184,
    "DT": "13",
    "CC": "08",
    "fr": "13",
    "SEC": "015",
    "SS": "07"
  },
  "addresses": [
    {
      "id": "pt.ine.add.PTCONT.3547992",
      "street": "PCT FARRAPAS",
      "house": "170",
      "postcode": "4455-289",
      "city": "PERAFITA",
      "lon": "-8.681474320111166",
      "lat": "41.2203120425753"
    },
    {
      "id": "pt.ine.add.PTCONT.3547993",
      "street": "PCT FARRAPAS",
      "house": "170",
      "postcode": "4455-289",
      "city": "PERAFITA",
      "lon": "-8.681474320111166",
      "lat": "41.2203120425753"
    },
    {
      "id": "pt.ine.add.PTCONT.3547994",
      "street": "PCT FARRAPAS",
      "house": "170",
      "postcode": "4455-289",
      "city": "PERAFITA",
      "lon": "-8.681474320111166",
      "lat": "41.2203120425753"
    },
    {
      "id": "pt.ine.add.PTCONT.3547995",
      "street": "PCT FARRAPAS",
      "house": "170",
      "postcode": "4455-289",
      "city": "PERAFITA",
      "lon": "-8.681474320111166",
      "lat": "41.2203120425753"
    },
    {
      "id": "pt.ine.add.PTCONT.3547996",
      "street": "PCT FARRAPAS",
      "house": "170",
      "postcode": "4455-289",
      "city": "PERAFITA",
      "lon": "-8.681474320111166",
      "lat": "41.2203120425753"
    },
    {
      "id": "pt.ine.add.PTCONT.3551668",
      "street": "PCT FARRAPAS",
      "house": "170",
      "postcode": "4455-289",
      "city": "PERAFITA",
      "lon": "-8.681474320111166",
      "lat": "41.2203120425753"
    },
    {
      "id": "pt.ine.add.PTCONT.3561211",
      "street": "R FARRAPAS",
      "house": "506",
      "postcode": "4455-589",
      "city": "PERAFITA",
      "lon": "-8.681131880785147",
      "lat": "41.22071886335116"
    },
    {
      "id": "pt.ine.add.PTCONT.3561212",
      "street": "R FARRAPAS",
      "house": "506",
      "postcode": "4455-589",
      "city": "PERAFITA",
      "lon": "-8.681131880785147",
      "lat": "41.22071886335116"
    },
    {
      "id": "pt.ine.add.PTCONT.3561213",
      "street": "PCT FARRAPAS",
      "house": "506",
      "postcode": "4455-289",
      "city": "PERAFITA",
      "lon": "-8.681131880785147",
      "lat": "41.22071886335116"
    },
    {
      "id": "pt.ine.add.PTCONT.3564865",
      "street": "R FARRAPAS",
      "house": "506",
      "postcode": "4455-589",
      "city": "PERAFITA",
      "lon": "-8.681131880785147",
      "lat": "41.22071886335116"
    },
    {
      "id": "pt.ine.add.PTCONT.3594652",
      "street": "PCT FARRAPAS",
      "house": "",
      "postcode": "4455-289",
      "city": "PERAFITA",
      "lon": "-8.681165175122544",
      "lat": "41.220421565144136"
    },
    {
      "id": "pt.ine.add.PTCONT.3594653",
      "street": "PCT FARRAPAS",
      "house": "",
      "postcode": "4455-289",
      "city": "PERAFITA",
      "lon": "-8.681165175122544",
      "lat": "41.220421565144136"
    },
    {
      "id": "pt.ine.add.PTCONT.3594654",
      "street": "PCT FARRAPAS",
      "house": "",
      "postcode": "4455-289",
      "city": "PERAFITA",
      "lon": "-8.681165175122544",
      "lat": "41.220421565144136"
    },
    {
      "id": "pt.ine.add.PTCONT.3594655",
      "street": "PCT FARRAPAS",
      "house": "",
      "postcode": "4455-289",
      "city": "PERAFITA",
      "lon": "-8.681165175122544",
      "lat": "41.220421565144136"
    },
    {
      "id": "pt.ine.add.PTCONT.3594656",
      "street": "PCT FARRAPAS",
      "house": "",
      "postcode": "4455-289",
      "city": "PERAFITA",
      "lon": "-8.681165175122544",
      "lat": "41.220421565144136"
    },
    {
      "id": "pt.ine.add.PTCONT.3594657",
      "street": "PCT FARRAPAS",
      "house": "",
      "postcode": "4455-289",
      "city": "PERAFITA",
      "lon": "-8.681165175122544",
      "lat": "41.220421565144136"
    },
    {
      "id": "pt.ine.add.PTCONT.3594658",
      "street": "PCT FARRAPAS",
      "house": "",
      "postcode": "4455-289",
      "city": "PERAFITA",
      "lon": "-8.681165175122544",
      "lat": "41.220421565144136"
    },
    {
      "id": "pt.ine.add.PTCONT.3594659",
      "street": "PCT FARRAPAS",
      "house": "",
      "postcode": "4455-289",
      "city": "PERAFITA",
      "lon": "-8.681165175122544",
      "lat": "41.220421565144136"
    },
    {
      "id": "pt.ine.add.PTCONT.3596635",
      "street": "PCT FARRAPAS",
      "house": "",
      "postcode": "4455-289",
      "city": "PERAFITA",
      "lon": "-8.681165175122544",
      "lat": "41.220421565144136"
    },
    {
      "id": "pt.ine.add.PTCONT.3638323",
      "street": "R FARRAPAS",
      "house": "428",
      "postcode": "4455-589",
      "city": "PERAFITA",
      "lon": "-8.681518970283928",
      "lat": "41.22137432960123"
    },
    {
      "id": "pt.ine.add.PTCONT.3638324",
      "street": "R FARRAPAS",
      "house": "428",
      "postcode": "4455-589",
      "city": "PERAFITA",
      "lon": "-8.681518970283928",
      "lat": "41.22137432960123"
    },
    {
      "id": "pt.ine.add.PTCONT.3638325",
      "street": "R FARRAPAS",
      "house": "428",
      "postcode": "4455-589",
      "city": "PERAFITA",
      "lon": "-8.681518970283928",
      "lat": "41.22137432960123"
    },
    {
      "id": "pt.ine.add.PTCONT.3638326",
      "street": "R FARRAPAS",
      "house": "428",
      "postcode": "4455-589",
      "city": "PERAFITA",
      "lon": "-8.681518970283928",
      "lat": "41.22137432960123"
    },
    {
      "id": "pt.ine.add.PTCONT.3722621",
      "street": "R FARRAPAS",
      "house": "492",
      "postcode": "4455-589",
      "city": "PERAFITA",
      "lon": "-8.68121648312137",
      "lat": "41.22085352420954"
    },
    {
      "id": "pt.ine.add.PTCONT.3722622",
      "street": "R FARRAPAS",
      "house": "492",
      "postcode": "4455-589",
      "city": "PERAFITA",
      "lon": "-8.68121648312137",
      "lat": "41.22085352420954"
    },
    {
      "id": "pt.ine.add.PTCONT.3722623",
      "street": "R FARRAPAS",
      "house": "492",
      "postcode": "4455-589",
      "city": "PERAFITA",
      "lon": "-8.68121648312137",
      "lat": "41.22085352420954"
    },
    {
      "id": "pt.ine.add.PTCONT.3726228",
      "street": "R FARRAPAS",
      "house": "492",
      "postcode": "4455-589",
      "city": "PERAFITA",
      "lon": "-8.68121648312137",
      "lat": "41.22085352420954"
    },
    {
      "id": "pt.ine.add.PTCONT.3745908",
      "street": "PCT FARRAPAS",
      "house": "",
      "postcode": "4455-289",
      "city": "PERAFITA",
      "lon": "-8.681800054682762",
      "lat": "41.2207607026948"
    },
    {
      "id": "pt.ine.add.PTCONT.3745909",
      "street": "PCT FARRAPAS",
      "house": "",
      "postcode": "4455-289",
      "city": "PERAFITA",
      "lon": "-8.681800054682762",
      "lat": "41.2207607026948"
    },
    {
      "id": "pt.ine.add.PTCONT.3745910",
      "street": "PCT FARRAPAS",
      "house": "",
      "postcode": "4455-289",
      "city": "PERAFITA",
      "lon": "-8.681800054682762",
      "lat": "41.2207607026948"
    },
    {
      "id": "pt.ine.add.PTCONT.3745911",
      "street": "PCT FARRAPAS",
      "house": "",
      "postcode": "4455-289",
      "city": "PERAFITA",
      "lon": "-8.681800054682762",
      "lat": "41.2207607026948"
    },
    {
      "id": "pt.ine.add.PTCONT.3745912",
      "street": "PCT FARRAPAS",
      "house": "",
      "postcode": "4455-289",
      "city": "PERAFITA",
      "lon": "-8.681800054682762",
      "lat": "41.2207607026948"
    },
    {
      "id": "pt.ine.add.PTCONT.3745913",
      "street": "PCT FARRAPAS",
      "house": "",
      "postcode": "4455-289",
      "city": "PERAFITA",
      "lon": "-8.681800054682762",
      "lat": "41.2207607026948"
    },
    {
      "id": "pt.ine.add.PTCONT.3745914",
      "street": "PCT FARRAPAS",
      "house": "",
      "postcode": "4455-289",
      "city": "PERAFITA",
      "lon": "-8.681800054682762",
      "lat": "41.2207607026948"
    },
    {
      "id": "pt.ine.add.PTCONT.3745915",
      "street": "PCT FARRAPAS",
      "house": "",
      "postcode": "4455-289",
      "city": "PERAFITA",
      "lon": "-8.681800054682762",
      "lat": "41.2207607026948"
    },
    {
      "id": "pt.ine.add.PTCONT.3745916",
      "street": "PCT FARRAPAS",
      "house": "",
      "postcode": "4455-289",
      "city": "PERAFITA",
      "lon": "-8.681800054682762",
      "lat": "41.2207607026948"
    },
    {
      "id": "pt.ine.add.PTCONT.3745967",
      "street": "PCT FARRAPAS",
      "house": "",
      "postcode": "4455-289",
      "city": "PERAFITA",
      "lon": "-8.681800054682762",
      "lat": "41.2207607026948"
    },
    {
      "id": "pt.ine.add.PTCONT.3965344",
      "street": "PCT FARRAPAS",
      "house": "",
      "postcode": "4455-289",
      "city": "PERAFITA",
      "lon": "-8.681010602238768",
      "lat": "41.22047632611895"
    },
    {
      "id": "pt.ine.add.PTCONT.3965345",
      "street": "PCT FARRAPAS",
      "house": "",
      "postcode": "4455-289",
      "city": "PERAFITA",
      "lon": "-8.681010602238768",
      "lat": "41.22047632611895"
    },
    {
      "id": "pt.ine.add.PTCONT.3965346",
      "street": "PCT FARRAPAS",
      "house": "",
      "postcode": "4455-289",
      "city": "PERAFITA",
      "lon": "-8.681010602238768",
      "lat": "41.22047632611895"
    },
    {
      "id": "pt.ine.add.PTCONT.3965354",
      "street": "PCT FARRAPAS",
      "house": "",
      "postcode": "4455-289",
      "city": "PERAFITA",
      "lon": "-8.681010602238768",
      "lat": "41.22047632611895"
    },
    {
      "id": "pt.ine.add.PTCONT.3965355",
      "street": "PCT FARRAPAS",
      "house": "",
      "postcode": "4455-289",
      "city": "PERAFITA",
      "lon": "-8.681010602238768",
      "lat": "41.22047632611895"
    },
    {
      "id": "pt.ine.add.PTCONT.3965356",
      "street": "PCT FARRAPAS",
      "house": "",
      "postcode": "4455-289",
      "city": "PERAFITA",
      "lon": "-8.681010602238768",
      "lat": "41.22047632611895"
    },
    {
      "id": "pt.ine.add.PTCONT.3965357",
      "street": "PCT FARRAPAS",
      "house": "",
      "postcode": "4455-289",
      "city": "PERAFITA",
      "lon": "-8.681010602238768",
      "lat": "41.22047632611895"
    },
    {
      "id": "pt.ine.add.PTCONT.3965358",
      "street": "PCT FARRAPAS",
      "house": "",
      "postcode": "4455-289",
      "city": "PERAFITA",
      "lon": "-8.681010602238768",
      "lat": "41.22047632611895"
    },
    {
      "id": "pt.ine.add.PTCONT.3965359",
      "street": "PCT FARRAPAS",
      "house": "",
      "postcode": "4455-289",
      "city": "PERAFITA",
      "lon": "-8.681010602238768",
      "lat": "41.22047632611895"
    },
    {
      "id": "pt.ine.add.PTCONT.4025741",
      "street": "R ANTERO DE QUENTAL",
      "house": "5",
      "postcode": "4455-586",
      "city": "PERAFITA",
      "lon": "-8.68362880752762",
      "lat": "41.22267888016848"
    },
    {
      "id": "pt.ine.add.PTCONT.4065442",
      "street": "R FARRAPAS",
      "house": "",
      "postcode": "4455-589",
      "city": "PERAFITA",
      "lon": "-8.681458367170954",
      "lat": "41.221257563166745"
    },
    {
      "id": "pt.ine.add.PTCONT.4065443",
      "street": "R FARRAPAS",
      "house": "",
      "postcode": "4455-589",
      "city": "PERAFITA",
      "lon": "-8.681458367170954",
      "lat": "41.221257563166745"
    },
    {
      "id": "pt.ine.add.PTCONT.4065445",
      "street": "R FARRAPAS",
      "house": "",
      "postcode": "4455-589",
      "city": "PERAFITA",
      "lon": "-8.681458367170954",
      "lat": "41.221257563166745"
    },
    {
      "id": "pt.ine.add.PTCONT.4069208",
      "street": "R FARRAPAS",
      "house": "",
      "postcode": "4455-589",
      "city": "PERAFITA",
      "lon": "-8.681458367170954",
      "lat": "41.221257563166745"
    },
    {
      "id": "pt.ine.add.PTCONT.4078192",
      "street": "PCT FARRAPAS",
      "house": "",
      "postcode": "4455-289",
      "city": "PERAFITA",
      "lon": "-8.681654848519864",
      "lat": "41.22050927592134"
    },
    {
      "id": "pt.ine.add.PTCONT.4078193",
      "street": "PCT FARRAPAS",
      "house": "",
      "postcode": "4455-289",
      "city": "PERAFITA",
      "lon": "-8.681654848519864",
      "lat": "41.22050927592134"
    },
    {
      "id": "pt.ine.add.PTCONT.4078194",
      "street": "PCT FARRAPAS",
      "house": "",
      "postcode": "4455-289",
      "city": "PERAFITA",
      "lon": "-8.681654848519864",
      "lat": "41.22050927592134"
    },
    {
      "id": "pt.ine.add.PTCONT.4078195",
      "street": "PCT FARRAPAS",
      "house": "",
      "postcode": "4455-289",
      "city": "PERAFITA",
      "lon": "-8.681654848519864",
      "lat": "41.22050927592134"
    },
    {
      "id": "pt.ine.add.PTCONT.4078196",
      "street": "PCT FARRAPAS",
      "house": "",
      "postcode": "4455-289",
      "city": "PERAFITA",
      "lon": "-8.681654848519864",
      "lat": "41.22050927592134"
    },
    {
      "id": "pt.ine.add.PTCONT.4078197",
      "street": "PCT FARRAPAS",
      "house": "",
      "postcode": "4455-289",
      "city": "PERAFITA",
      "lon": "-8.681654848519864",
      "lat": "41.22050927592134"
    },
    {
      "id": "pt.ine.add.PTCONT.4078198",
      "street": "PCT FARRAPAS",
      "house": "",
      "postcode": "4455-289",
      "city": "PERAFITA",
      "lon": "-8.681654848519864",
      "lat": "41.22050927592134"
    },
    {
      "id": "pt.ine.add.PTCONT.4078199",
      "street": "PCT FARRAPAS",
      "house": "",
      "postcode": "4455-289",
      "city": "PERAFITA",
      "lon": "-8.681654848519864",
      "lat": "41.22050927592134"
    },
    {
      "id": "pt.ine.add.PTCONT.4078200",
      "street": "PCT FARRAPAS",
      "house": "",
      "postcode": "4455-289",
      "city": "PERAFITA",
      "lon": "-8.681654848519864",
      "lat": "41.22050927592134"
    },
    {
      "id": "pt.ine.add.PTCONT.4081918",
      "street": "PCT FARRAPAS",
      "house": "",
      "postcode": "4455-289",
      "city": "PERAFITA",
      "lon": "-8.681654848519864",
      "lat": "41.22050927592134"
    },
    {
      "id": "pt.ine.add.PTCONT.4113528",
      "street": "PCT FARRAPAS",
      "house": "",
      "postcode": "4455-289",
      "city": "PERAFITA",
      "lon": "-8.681909562206823",
      "lat": "41.221021303646054"
    },
    {
      "id": "pt.ine.add.PTCONT.4113529",
      "street": "PCT FARRAPAS",
      "house": "",
      "postcode": "4455-289",
      "city": "PERAFITA",
      "lon": "-8.681909562206823",
      "lat": "41.221021303646054"
    },
    {
      "id": "pt.ine.add.PTCONT.4113530",
      "street": "PCT FARRAPAS",
      "house": "",
      "postcode": "4455-289",
      "city": "PERAFITA",
      "lon": "-8.681909562206823",
      "lat": "41.221021303646054"
    },
    {
      "id": "pt.ine.add.PTCONT.4113531",
      "street": "PCT FARRAPAS",
      "house": "",
      "postcode": "4455-289",
      "city": "PERAFITA",
      "lon": "-8.681909562206823",
      "lat": "41.221021303646054"
    },
    {
      "id": "pt.ine.add.PTCONT.4113710",
      "street": "PCT FARRAPAS",
      "house": "",
      "postcode": "4455-289",
      "city": "PERAFITA",
      "lon": "-8.681909562206823",
      "lat": "41.221021303646054"
    },
    {
      "id": "pt.ine.add.PTCONT.4113711",
      "street": "PCT FARRAPAS",
      "house": "",
      "postcode": "4455-289",
      "city": "PERAFITA",
      "lon": "-8.681909562206823",
      "lat": "41.221021303646054"
    },
    {
      "id": "pt.ine.add.PTCONT.4114558",
      "street": "PCT FARRAPAS",
      "house": "",
      "postcode": "4455-289",
      "city": "PERAFITA",
      "lon": "-8.681909562206823",
      "lat": "41.221021303646054"
    },
    {
      "id": "pt.ine.add.PTCONT.4114687",
      "street": "PCT FARRAPAS",
      "house": "",
      "postcode": "4455-289",
      "city": "PERAFITA",
      "lon": "-8.681909562206823",
      "lat": "41.221021303646054"
    },
    {
      "id": "pt.ine.add.PTCONT.4176500",
      "street": "R FARRAPAS",
      "house": "404",
      "postcode": "4455-589",
      "city": "PERAFITA",
      "lon": "-8.681878077389943",
      "lat": "41.22153469501202"
    },
    {
      "id": "pt.ine.add.PTCONT.4176501",
      "street": "R FARRAPAS",
      "house": "404",
      "postcode": "4455-589",
      "city": "PERAFITA",
      "lon": "-8.681878077389943",
      "lat": "41.22153469501202"
    },
    {
      "id": "pt.ine.add.PTCONT.4176502",
      "street": "R FARRAPAS",
      "house": "404",
      "postcode": "4455-589",
      "city": "PERAFITA",
      "lon": "-8.681878077389943",
      "lat": "41.22153469501202"
    },
    {
      "id": "pt.ine.add.PTCONT.4176503",
      "street": "R FARRAPAS",
      "house": "404",
      "postcode": "4455-589",
      "city": "PERAFITA",
      "lon": "-8.681878077389943",
      "lat": "41.22153469501202"
    },
    {
      "id": "pt.ine.add.PTCONT.4176504",
      "street": "R FARRAPAS",
      "house": "404",
      "postcode": "4455-589",
      "city": "PERAFITA",
      "lon": "-8.681878077389943",
      "lat": "41.22153469501202"
    },
    {
      "id": "pt.ine.add.PTCONT.4179938",
      "street": "R FARRAPAS",
      "house": "404",
      "postcode": "4455-589",
      "city": "PERAFITA",
      "lon": "-8.681878077389943",
      "lat": "41.22153469501202"
    },
    {
      "id": "pt.ine.add.PTCONT.4228675",
      "street": "PCT FARRAPAS",
      "house": "",
      "postcode": "4455-289",
      "city": "PERAFITA",
      "lon": "-8.681790537850262",
      "lat": "41.2210488835373"
    },
    {
      "id": "pt.ine.add.PTCONT.4228668",
      "street": "R FARRAPAS",
      "house": "456",
      "postcode": "4455-589",
      "city": "PERAFITA",
      "lon": "-8.681373989404022",
      "lat": "41.221149914129704"
    },
    {
      "id": "pt.ine.add.PTCONT.4228669",
      "street": "R FARRAPAS",
      "house": "456",
      "postcode": "4455-589",
      "city": "PERAFITA",
      "lon": "-8.681373989404022",
      "lat": "41.221149914129704"
    },
    {
      "id": "pt.ine.add.PTCONT.4228670",
      "street": "R FARRAPAS",
      "house": "456",
      "postcode": "4455-589",
      "city": "PERAFITA",
      "lon": "-8.681373989404022",
      "lat": "41.221149914129704"
    },
    {
      "id": "pt.ine.add.PTCONT.4228671",
      "street": "R FARRAPAS",
      "house": "456",
      "postcode": "4455-589",
      "city": "PERAFITA",
      "lon": "-8.681373989404022",
      "lat": "41.221149914129704"
    },
    {
      "id": "pt.ine.add.PTCONT.4228672",
      "street": "PCT FARRAPAS",
      "house": "",
      "postcode": "4455-289",
      "city": "PERAFITA",
      "lon": "-8.681790537850262",
      "lat": "41.2210488835373"
    },
    {
      "id": "pt.ine.add.PTCONT.4228673",
      "street": "PCT FARRAPAS",
      "house": "",
      "postcode": "4455-289",
      "city": "PERAFITA",
      "lon": "-8.681790537850262",
      "lat": "41.2210488835373"
    },
    {
      "id": "pt.ine.add.PTCONT.4228674",
      "street": "PCT FARRAPAS",
      "house": "",
      "postcode": "4455-289",
      "city": "PERAFITA",
      "lon": "-8.681790537850262",
      "lat": "41.2210488835373"
    },
    {
      "id": "pt.ine.add.PTCONT.4228676",
      "street": "PCT FARRAPAS",
      "house": "",
      "postcode": "4455-289",
      "city": "PERAFITA",
      "lon": "-8.681790537850262",
      "lat": "41.2210488835373"
    },
    {
      "id": "pt.ine.add.PTCONT.4228677",
      "street": "PCT FARRAPAS",
      "house": "",
      "postcode": "4455-289",
      "city": "PERAFITA",
      "lon": "-8.681790537850262",
      "lat": "41.2210488835373"
    },
    {
      "id": "pt.ine.add.PTCONT.4228678",
      "street": "PCT FARRAPAS",
      "house": "",
      "postcode": "4455-289",
      "city": "PERAFITA",
      "lon": "-8.681790537850262",
      "lat": "41.2210488835373"
    },
    {
      "id": "pt.ine.add.PTCONT.4228679",
      "street": "PCT FARRAPAS",
      "house": "",
      "postcode": "4455-289",
      "city": "PERAFITA",
      "lon": "-8.681790537850262",
      "lat": "41.2210488835373"
    },
    {
      "id": "pt.ine.add.PTCONT.4235159",
      "street": "R FARRAPAS",
      "house": "400",
      "postcode": "4455-589",
      "city": "PERAFITA",
      "lon": "-8.681723427253518",
      "lat": "41.221580453071105"
    },
    {
      "id": "pt.ine.add.PTCONT.4235162",
      "street": "R FARRAPAS",
      "house": "400",
      "postcode": "4455-589",
      "city": "PERAFITA",
      "lon": "-8.681723427253518",
      "lat": "41.221580453071105"
    },
    {
      "id": "pt.ine.add.PTCONT.4235163",
      "street": "R FARRAPAS",
      "house": "400",
      "postcode": "4455-589",
      "city": "PERAFITA",
      "lon": "-8.681723427253518",
      "lat": "41.221580453071105"
    },
    {
      "id": "pt.ine.add.PTCONT.4235164",
      "street": "R FARRAPAS",
      "house": "400",
      "postcode": "4455-589",
      "city": "PERAFITA",
      "lon": "-8.681723427253518",
      "lat": "41.221580453071105"
    },
    {
      "id": "pt.ine.add.PTCONT.4235165",
      "street": "R FARRAPAS",
      "house": "400",
      "postcode": "4455-589",
      "city": "PERAFITA",
      "lon": "-8.681723427253518",
      "lat": "41.221580453071105"
    },
    {
      "id": "pt.ine.add.PTCONT.4239020",
      "street": "R FARRAPAS",
      "house": "400",
      "postcode": "4455-589",
      "city": "PERAFITA",
      "lon": "-8.681723427253518",
      "lat": "41.221580453071105"
    },
    {
      "id": "pt.ine.add.PTCONT.4308657",
      "street": "PCT FARRAPAS",
      "house": "180",
      "postcode": "4455-289",
      "city": "PERAFITA",
      "lon": "-8.681307822852498",
      "lat": "41.22036686073316"
    },
    {
      "id": "pt.ine.add.PTCONT.4308658",
      "street": "PCT FARRAPAS",
      "house": "180",
      "postcode": "4455-289",
      "city": "PERAFITA",
      "lon": "-8.681307822852498",
      "lat": "41.22036686073316"
    },
    {
      "id": "pt.ine.add.PTCONT.4308659",
      "street": "PCT FARRAPAS",
      "house": "180",
      "postcode": "4455-289",
      "city": "PERAFITA",
      "lon": "-8.681307822852498",
      "lat": "41.22036686073316"
    },
    {
      "id": "pt.ine.add.PTCONT.4308660",
      "street": "PCT FARRAPAS",
      "house": "180",
      "postcode": "4455-289",
      "city": "PERAFITA",
      "lon": "-8.681307822852498",
      "lat": "41.22036686073316"
    },
    {
      "id": "pt.ine.add.PTCONT.4308661",
      "street": "PCT FARRAPAS",
      "house": "180",
      "postcode": "4455-289",
      "city": "PERAFITA",
      "lon": "-8.681307822852498",
      "lat": "41.22036686073316"
    },
    {
      "id": "pt.ine.add.PTCONT.4308662",
      "street": "PCT FARRAPAS",
      "house": "180",
      "postcode": "4455-289",
      "city": "PERAFITA",
      "lon": "-8.681307822852498",
      "lat": "41.22036686073316"
    },
    {
      "id": "pt.ine.add.PTCONT.4308663",
      "street": "PCT FARRAPAS",
      "house": "180",
      "postcode": "4455-289",
      "city": "PERAFITA",
      "lon": "-8.681307822852498",
      "lat": "41.22036686073316"
    },
    {
      "id": "pt.ine.add.PTCONT.4308664",
      "street": "PCT FARRAPAS",
      "house": "180",
      "postcode": "4455-289",
      "city": "PERAFITA",
      "lon": "-8.681307822852498",
      "lat": "41.22036686073316"
    },
    {
      "id": "pt.ine.add.PTCONT.4308665",
      "street": "PCT FARRAPAS",
      "house": "180",
      "postcode": "4455-289",
      "city": "PERAFITA",
      "lon": "-8.681307822852498",
      "lat": "41.22036686073316"
    },
    {
      "id": "pt.ine.add.PTCONT.4330078",
      "street": "PCT FARRAPAS",
      "house": "",
      "postcode": "4455-289",
      "city": "PERAFITA",
      "lon": "-8.681872658184513",
      "lat": "41.22088641600614"
    },
    {
      "id": "pt.ine.add.PTCONT.4330079",
      "street": "PCT FARRAPAS",
      "house": "",
      "postcode": "4455-289",
      "city": "PERAFITA",
      "lon": "-8.681872658184513",
      "lat": "41.22088641600614"
    },
    {
      "id": "pt.ine.add.PTCONT.4330080",
      "street": "PCT FARRAPAS",
      "house": "",
      "postcode": "4455-289",
      "city": "PERAFITA",
      "lon": "-8.681872658184513",
      "lat": "41.22088641600614"
    },
    {
      "id": "pt.ine.add.PTCONT.4330081",
      "street": "PCT FARRAPAS",
      "house": "",
      "postcode": "4455-289",
      "city": "PERAFITA",
      "lon": "-8.681872658184513",
      "lat": "41.22088641600614"
    },
    {
      "id": "pt.ine.add.PTCONT.4330082",
      "street": "PCT FARRAPAS",
      "house": "",
      "postcode": "4455-289",
      "city": "PERAFITA",
      "lon": "-8.681872658184513",
      "lat": "41.22088641600614"
    },
    {
      "id": "pt.ine.add.PTCONT.4330302",
      "street": "PCT FARRAPAS",
      "house": "",
      "postcode": "4455-289",
      "city": "PERAFITA",
      "lon": "-8.681872658184513",
      "lat": "41.22088641600614"
    },
    {
      "id": "pt.ine.add.PTCONT.4330303",
      "street": "PCT FARRAPAS",
      "house": "",
      "postcode": "4455-289",
      "city": "PERAFITA",
      "lon": "-8.681872658184513",
      "lat": "41.22088641600614"
    },
    {
      "id": "pt.ine.add.PTCONT.4330304",
      "street": "PCT FARRAPAS",
      "house": "",
      "postcode": "4455-289",
      "city": "PERAFITA",
      "lon": "-8.681872658184513",
      "lat": "41.22088641600614"
    },
    {
      "id": "pt.ine.add.PTCONT.4332114",
      "street": "PCT FARRAPAS",
      "house": "",
      "postcode": "4455-289",
      "city": "PERAFITA",
      "lon": "-8.681872658184513",
      "lat": "41.22088641600614"
    },
    {
      "id": "pt.ine.add.PTCONT.4332170",
      "street": "PCT FARRAPAS",
      "house": "",
      "postcode": "4455-289",
      "city": "PERAFITA",
      "lon": "-8.681872658184513",
      "lat": "41.22088641600614"
    },
    {
      "id": "pt.ine.add.PTCONT.4360657",
      "street": "PCT FARRAPAS",
      "house": "",
      "postcode": "4455-289",
      "city": "PERAFITA",
      "lon": "-8.681727526706162",
      "lat": "41.22064399320941"
    },
    {
      "id": "pt.ine.add.PTCONT.4360658",
      "street": "PCT FARRAPAS",
      "house": "",
      "postcode": "4455-289",
      "city": "PERAFITA",
      "lon": "-8.681727526706162",
      "lat": "41.22064399320941"
    },
    {
      "id": "pt.ine.add.PTCONT.4360659",
      "street": "PCT FARRAPAS",
      "house": "",
      "postcode": "4455-289",
      "city": "PERAFITA",
      "lon": "-8.681727526706162",
      "lat": "41.22064399320941"
    },
    {
      "id": "pt.ine.add.PTCONT.4360660",
      "street": "PCT FARRAPAS",
      "house": "",
      "postcode": "4455-289",
      "city": "PERAFITA",
      "lon": "-8.681727526706162",
      "lat": "41.22064399320941"
    },
    {
      "id": "pt.ine.add.PTCONT.4360661",
      "street": "PCT FARRAPAS",
      "house": "",
      "postcode": "4455-289",
      "city": "PERAFITA",
      "lon": "-8.681727526706162",
      "lat": "41.22064399320941"
    },
    {
      "id": "pt.ine.add.PTCONT.4360662",
      "street": "PCT FARRAPAS",
      "house": "",
      "postcode": "4455-289",
      "city": "PERAFITA",
      "lon": "-8.681727526706162",
      "lat": "41.22064399320941"
    },
    {
      "id": "pt.ine.add.PTCONT.4360663",
      "street": "PCT FARRAPAS",
      "house": "",
      "postcode": "4455-289",
      "city": "PERAFITA",
      "lon": "-8.681727526706162",
      "lat": "41.22064399320941"
    },
    {
      "id": "pt.ine.add.PTCONT.4360664",
      "street": "PCT FARRAPAS",
      "house": "",
      "postcode": "4455-289",
      "city": "PERAFITA",
      "lon": "-8.681727526706162",
      "lat": "41.22064399320941"
    },
    {
      "id": "pt.ine.add.PTCONT.4363913",
      "street": "PCT FARRAPAS",
      "house": "",
      "postcode": "4455-289",
      "city": "PERAFITA",
      "lon": "-8.681727526706162",
      "lat": "41.22064399320941"
    },
    {
      "id": "pt.ine.add.PTCONT.4364107",
      "street": "PCT FARRAPAS",
      "house": "",
      "postcode": "4455-289",
      "city": "PERAFITA",
      "lon": "-8.681727526706162",
      "lat": "41.22064399320941"
    }
  ]
}