{
  "data": {
    "ilha": "Ilha Terceira (Açores)",
    "concelho": "Angra do Heroísmo",
    "freguesia": "Ribeirinha",
    "OBJECTID": 142,
    "BGRI2021": "43011200216",
    "DT21": "43",
    "DTMN21": "4301",
    "DTMNFR21": "430112",
    "DTMNFRSEC21": "430112002",
    "SECNUM21": "002",
    "SSNUM21": "16",
    "SECSSNUM21": "00216",
    "OBJECTID_1": 207990,
    "DT": "43",
    "CC": "01",
    "fr": "12",
    "SEC": "002",
    "SS": "16",
    "BGRI2021_1": "43011200216"
  },
  "addresses": [
    {
      "id": "pt.ine.add.AC26.4043",
      "street": "R IGREJA",
      "house": "236",
      "postcode": "9700-435",
      "city": "RIBEIRINHA AGH",
      "lon": "-27.179114382065936",
      "lat": "38.66363420199398"
    },
    {
      "id": "pt.ine.add.AC26.4044",
      "street": "CAN LAMEIRINHO",
      "house": "58",
      "postcode": "9700-436",
      "city": "RIBEIRINHA AGH",
      "lon": "-27.178746031129325",
      "lat": "38.6634184806227"
    },
    {
      "id": "pt.ine.add.AC26.4045",
      "street": "CAN LAMEIRINHO",
      "house": "56",
      "postcode": "9700-436",
      "city": "RIBEIRINHA AGH",
      "lon": "-27.178607944867352",
      "lat": "38.6633556084743"
    },
    {
      "id": "pt.ine.add.AC26.4834",
      "street": "CAN QUOTE",
      "house": "18",
      "postcode": "9700-427",
      "city": "RIBEIRINHA AGH",
      "lon": "-27.179571537983726",
      "lat": "38.662588124319484"
    },
    {
      "id": "pt.ine.add.AC26.4835",
      "street": "R IGREJA",
      "house": "218",
      "postcode": "9700-435",
      "city": "RIBEIRINHA AGH",
      "lon": "-27.18010102928034",
      "lat": "38.66289371381812"
    },
    {
      "id": "pt.ine.add.AC26.4836",
      "street": "R IGREJA",
      "house": "220",
      "postcode": "9700-435",
      "city": "RIBEIRINHA AGH",
      "lon": "-27.180043559051377",
      "lat": "38.6628938022902"
    },
    {
      "id": "pt.ine.add.AC26.4837",
      "street": "R IGREJA",
      "house": "222",
      "postcode": "9700-435",
      "city": "RIBEIRINHA AGH",
      "lon": "-27.180032200384375",
      "lat": "38.66294789098583"
    },
    {
      "id": "pt.ine.add.AC26.4838",
      "street": "R IGREJA",
      "house": "224",
      "postcode": "9700-435",
      "city": "RIBEIRINHA AGH",
      "lon": "-27.179974820335847",
      "lat": "38.66298402676043"
    },
    {
      "id": "pt.ine.add.AC26.4839",
      "street": "R IGREJA",
      "house": "234",
      "postcode": "9700-435",
      "city": "RIBEIRINHA AGH",
      "lon": "-27.17987157668067",
      "lat": "38.66306529238472"
    },
    {
      "id": "pt.ine.add.AC26.4840",
      "street": "R IGREJA",
      "house": "240",
      "postcode": "9700-435",
      "city": "RIBEIRINHA AGH",
      "lon": "-27.1797682652014",
      "lat": "38.66311952241559"
    },
    {
      "id": "pt.ine.add.AC26.4841",
      "street": "R IGREJA",
      "house": "244",
      "postcode": "9700-435",
      "city": "RIBEIRINHA AGH",
      "lon": "-27.179710929929243",
      "lat": "38.66317368172806"
    },
    {
      "id": "pt.ine.add.AC26.4842",
      "street": "R IGREJA",
      "house": "248",
      "postcode": "9700-435",
      "city": "RIBEIRINHA AGH",
      "lon": "-27.179584652481132",
      "lat": "38.66323695874606"
    },
    {
      "id": "pt.ine.add.AC26.4843",
      "street": "R IGREJA",
      "house": "250",
      "postcode": "9700-435",
      "city": "RIBEIRINHA AGH",
      "lon": "-27.17953883358829",
      "lat": "38.6633001121602"
    },
    {
      "id": "pt.ine.add.AC26.4844",
      "street": "R IGREJA",
      "house": "252",
      "postcode": "9700-435",
      "city": "RIBEIRINHA AGH",
      "lon": "-27.179504463741598",
      "lat": "38.6633452242503"
    },
    {
      "id": "pt.ine.add.AC26.4845",
      "street": "R IGREJA",
      "house": "295",
      "postcode": "9700-435",
      "city": "RIBEIRINHA AGH",
      "lon": "-27.179240503375134",
      "lat": "38.663507842650546"
    },
    {
      "id": "pt.ine.add.AC26.4846",
      "street": "R IGREJA",
      "house": "268",
      "postcode": "9700-435",
      "city": "RIBEIRINHA AGH",
      "lon": "-27.179229121545543",
      "lat": "38.66355291943068"
    },
    {
      "id": "pt.ine.add.AC26.4847",
      "street": "R IGREJA",
      "house": "270",
      "postcode": "9700-435",
      "city": "RIBEIRINHA AGH",
      "lon": "-27.179148707389327",
      "lat": "38.663571066352795"
    },
    {
      "id": "pt.ine.add.AC26.50473",
      "street": "R IGREJA",
      "house": "246",
      "postcode": "9700-435",
      "city": "RIBEIRINHA AGH",
      "lon": "-27.17965357205482",
      "lat": "38.663218829178355"
    },
    {
      "id": "pt.ine.add.AC26.57900",
      "street": "R IGREJA",
      "house": "216",
      "postcode": "9700-435",
      "city": "RIBEIRINHA AGH",
      "lon": "-27.18015834145663",
      "lat": "38.6628305424789"
    },
    {
      "id": "pt.ine.add.AC26.57901",
      "street": "R IGREJA",
      "house": "258",
      "postcode": "9700-435",
      "city": "RIBEIRINHA AGH",
      "lon": "-27.179458599726303",
      "lat": "38.66339035396491"
    },
    {
      "id": "pt.ine.add.AC26.57902",
      "street": "R IGREJA",
      "house": "262",
      "postcode": "9700-435",
      "city": "RIBEIRINHA AGH",
      "lon": "-27.179320962386235",
      "lat": "38.66350771933247"
    },
    {
      "id": "pt.ine.add.AC26.62508",
      "street": "CAN LAMEIRINHO",
      "house": "64",
      "postcode": "9700-436",
      "city": "RIBEIRINHA AGH",
      "lon": "-27.17886117418506",
      "lat": "38.66349941142797"
    },
    {
      "id": "pt.ine.add.AC26.62509",
      "street": "CAN QUOTE",
      "house": "22",
      "postcode": "9700-427",
      "city": "RIBEIRINHA AGH",
      "lon": "-27.179904999181513",
      "lat": "38.662641683144734"
    },
    {
      "id": "pt.ine.add.AC26.70264",
      "street": "R IGREJA",
      "house": "242",
      "postcode": "9700-435",
      "city": "RIBEIRINHA AGH",
      "lon": "-27.17976815255039",
      "lat": "38.66307446324578"
    },
    {
      "id": "pt.ine.add.AC26.75416",
      "street": "CAN LAMEIRINHO",
      "house": "66",
      "postcode": "9700-436",
      "city": "RIBEIRINHA AGH",
      "lon": "-27.178918465509707",
      "lat": "38.663427228865125"
    },
    {
      "id": "pt.ine.add.AC26.75417",
      "street": "R IGREJA",
      "house": "214",
      "postcode": "9700-435",
      "city": "RIBEIRINHA AGH",
      "lon": "-27.180215721290406",
      "lat": "38.66279440661384"
    },
    {
      "id": "pt.ine.add.AC26.75418",
      "street": "R IGREJA",
      "house": "254",
      "postcode": "9700-435",
      "city": "RIBEIRINHA AGH",
      "lon": "-27.179355197553214",
      "lat": "38.663408536295265"
    },
    {
      "id": "pt.ine.add.AC26.84721",
      "street": "R IGREJA",
      "house": "2 32",
      "postcode": "9700-435",
      "city": "RIBEIRINHA AGH",
      "lon": "-27.179905923616104",
      "lat": "38.663011168351474"
    },
    {
      "id": "pt.ine.add.AC26.86140",
      "street": "R IGREJA",
      "house": "260",
      "postcode": "9700-435",
      "city": "RIBEIRINHA AGH",
      "lon": "-27.179320850013966",
      "lat": "38.663462660164555"
    },
    {
      "id": "pt.ine.add.AC26.88257",
      "street": "CAN LAMEIRINHO",
      "house": "66",
      "postcode": "9700-436",
      "city": "RIBEIRINHA AGH",
      "lon": "-27.178953284330525",
      "lat": "38.66356235362257"
    },
    {
      "id": "pt.ine.add.AC26.108357",
      "street": "R PROF ANTÓNIO ORNELAS SIMÕES",
      "house": "21",
      "postcode": "9700-438",
      "city": "RIBEIRINHA AGH",
      "lon": "-27.178572791090033",
      "lat": "38.66308530609054"
    }
  ]
}