{
  "data": {
    "distrito": "Lisboa",
    "concelho": "Torres Vedras",
    "freguesia": "Uni√£o das freguesias de A dos Cunhados e Maceira",
    "OBJECTID": 1366,
    "BGRI2021": "11132100714",
    "DT21": "11",
    "DTMN21": "1113",
    "DTMNFR21": "111321",
    "DTMNFRSEC21": "111321007",
    "SECNUM21": "007",
    "SSNUM21": "14",
    "SECSSNUM21": "00714",
    "OBJECTID_1": 116014,
    "DT": "11",
    "CC": "13",
    "fr": "21",
    "SEC": "007",
    "SS": "14"
  },
  "addresses": [
    {
      "id": "pt.ine.add.PTCONT.2271534",
      "street": "R MOREIRAS",
      "house": "2",
      "postcode": "2560-052",
      "city": "A DOS CUNHADOS",
      "lon": "-9.34658134776522",
      "lat": "39.16757622213629"
    },
    {
      "id": "pt.ine.add.PTCONT.2410158",
      "street": "R STA RITA",
      "house": "4",
      "postcode": "2560-052",
      "city": "A DOS CUNHADOS",
      "lon": "-9.34628443332456",
      "lat": "39.16780449095018"
    },
    {
      "id": "pt.ine.add.PTCONT.2419524",
      "street": "R MARCOS",
      "house": "2",
      "postcode": "2560-052",
      "city": "A DOS CUNHADOS",
      "lon": "-9.351187962313377",
      "lat": "39.16766326196052"
    },
    {
      "id": "pt.ine.add.PTCONT.2428340",
      "street": "R STA RITA",
      "house": "7",
      "postcode": "2560-052",
      "city": "A DOS CUNHADOS",
      "lon": "-9.346821388",
      "lat": "39.168078118453664"
    },
    {
      "id": "pt.ine.add.PTCONT.2469794",
      "street": "R STA RITA",
      "house": "12",
      "postcode": "2560-052",
      "city": "A DOS CUNHADOS",
      "lon": "-9.347482504607388",
      "lat": "39.16817030790452"
    },
    {
      "id": "pt.ine.add.PTCONT.2501977",
      "street": "CSL TORCATA",
      "house": "4",
      "postcode": "2560-052",
      "city": "A DOS CUNHADOS",
      "lon": "-9.348508434505048",
      "lat": "39.16660138628421"
    },
    {
      "id": "pt.ine.add.PTCONT.2536837",
      "street": "R STA RITA",
      "house": "1",
      "postcode": "2560-052",
      "city": "A DOS CUNHADOS",
      "lon": "-9.346652306963048",
      "lat": "39.167665553913466"
    },
    {
      "id": "pt.ine.add.PTCONT.2553500",
      "street": "R MOREIRAS",
      "house": "7",
      "postcode": "2560-052",
      "city": "A DOS CUNHADOS",
      "lon": "-9.346821191642178",
      "lat": "39.167393582455176"
    },
    {
      "id": "pt.ine.add.PTCONT.2592466",
      "street": "LG FONTE",
      "house": "1",
      "postcode": "2560-052",
      "city": "A DOS CUNHADOS",
      "lon": "-9.346018819475397",
      "lat": "39.16783427743037"
    },
    {
      "id": "pt.ine.add.PTCONT.2607271",
      "street": "R STA RITA",
      "house": "2",
      "postcode": "2560-052",
      "city": "A DOS CUNHADOS",
      "lon": "-9.34643234915271",
      "lat": "39.16765883749566"
    },
    {
      "id": "pt.ine.add.PTCONT.2613193",
      "street": "R MOREIRAS",
      "house": "16",
      "postcode": "2560-052",
      "city": "A DOS CUNHADOS",
      "lon": "-9.347414856800404",
      "lat": "39.166928035967565"
    },
    {
      "id": "pt.ine.add.PTCONT.2689907",
      "street": "CSL TORCATA",
      "house": "12",
      "postcode": "2560-052",
      "city": "A DOS CUNHADOS",
      "lon": "-9.348300203310577",
      "lat": "39.16660355813635"
    },
    {
      "id": "pt.ine.add.PTCONT.2859456",
      "street": "R STA RITA",
      "house": "3",
      "postcode": "2560-052",
      "city": "A DOS CUNHADOS",
      "lon": "-9.346433896675668",
      "lat": "39.1677488921794"
    },
    {
      "id": "pt.ine.add.PTCONT.2883951",
      "street": "R STA RITA",
      "house": "1A",
      "postcode": "2560-052",
      "city": "A DOS CUNHADOS",
      "lon": "-9.34654788019461",
      "lat": "39.16764862731615"
    },
    {
      "id": "pt.ine.add.PTCONT.2904333",
      "street": "TV PALMEIRA",
      "house": "3",
      "postcode": "2560-052",
      "city": "A DOS CUNHADOS",
      "lon": "-9.34693811552032",
      "lat": "39.16746442110145"
    },
    {
      "id": "pt.ine.add.PTCONT.2913262",
      "street": "R AMIZADE",
      "house": "",
      "postcode": "2560-052",
      "city": "A DOS CUNHADOS",
      "lon": "-9.346865298509115",
      "lat": "39.167267023887575"
    },
    {
      "id": "pt.ine.add.PTCONT.2958944",
      "street": "CSL TORCATA",
      "house": "6",
      "postcode": "2560-052",
      "city": "A DOS CUNHADOS",
      "lon": "-9.348712324656747",
      "lat": "39.16634706110553"
    },
    {
      "id": "pt.ine.add.PTCONT.3059888",
      "street": "TV PALMEIRA",
      "house": "3 A",
      "postcode": "2560-052",
      "city": "A DOS CUNHADOS",
      "lon": "-9.347114585645222",
      "lat": "39.16763371710619"
    },
    {
      "id": "pt.ine.add.PTCONT.3078905",
      "street": "TV PALMEIRA",
      "house": "1",
      "postcode": "2560-052",
      "city": "A DOS CUNHADOS",
      "lon": "-9.34676443251152",
      "lat": "39.167457223231345"
    },
    {
      "id": "pt.ine.add.PTCONT.3105630",
      "street": "R AMIZADE",
      "house": "6",
      "postcode": "2560-052",
      "city": "A DOS CUNHADOS",
      "lon": "-9.347213283029395",
      "lat": "39.16731744094803"
    },
    {
      "id": "pt.ine.add.PTCONT.3105631",
      "street": "R STA RITA",
      "house": "9",
      "postcode": "2560-052",
      "city": "A DOS CUNHADOS",
      "lon": "-9.347499910985087",
      "lat": "39.1678368645797"
    },
    {
      "id": "pt.ine.add.PTCONT.3115868",
      "street": "CSL TORCATA",
      "house": "10",
      "postcode": "2560-052",
      "city": "A DOS CUNHADOS",
      "lon": "-9.348297258620894",
      "lat": "39.166432454320685"
    },
    {
      "id": "pt.ine.add.PTCONT.3143133",
      "street": "R STA RITA",
      "house": "5",
      "postcode": "2560-052",
      "city": "A DOS CUNHADOS",
      "lon": "-9.346552058918792",
      "lat": "39.16789177494898"
    },
    {
      "id": "pt.ine.add.PTCONT.3196241",
      "street": "R FR ALEIXO",
      "house": "1",
      "postcode": "2560-052",
      "city": "A DOS CUNHADOS",
      "lon": "-9.352324574389378",
      "lat": "39.16848903229661"
    },
    {
      "id": "pt.ine.add.PTCONT.3227432",
      "street": "LG FONTE",
      "house": "1",
      "postcode": "2560-052",
      "city": "A DOS CUNHADOS",
      "lon": "-9.345989218637625",
      "lat": "39.16813181919085"
    },
    {
      "id": "pt.ine.add.PTCONT.3363719",
      "street": "R MARCOS",
      "house": "1",
      "postcode": "2560-052",
      "city": "A DOS CUNHADOS",
      "lon": "-9.350890596749695",
      "lat": "39.16786452592208"
    },
    {
      "id": "pt.ine.add.PTCONT.3366355",
      "street": "R MOREIRAS",
      "house": "12",
      "postcode": "2560-052",
      "city": "A DOS CUNHADOS",
      "lon": "-9.3469303748382",
      "lat": "39.167014147730306"
    },
    {
      "id": "pt.ine.add.PTCONT.3448018",
      "street": "LG FONTE",
      "house": "2",
      "postcode": "2560-052",
      "city": "A DOS CUNHADOS",
      "lon": "-9.345987671660659",
      "lat": "39.16804176449819"
    }
  ]
}