{
  "data": {
    "distrito": "Faro",
    "concelho": "Loul√©",
    "freguesia": "Quarteira",
    "OBJECTID": 41,
    "BGRI2021": "08080503909",
    "DT21": "08",
    "DTMN21": "0808",
    "DTMNFR21": "080805",
    "DTMNFRSEC21": "080805039",
    "SECNUM21": "039",
    "SSNUM21": "09",
    "SECSSNUM21": "03909",
    "OBJECTID_1": 68358,
    "DT": "08",
    "CC": "08",
    "fr": "05",
    "SEC": "039",
    "SS": "09"
  },
  "addresses": [
    {
      "id": "pt.ine.add.PTCONT.1534312",
      "street": "",
      "house": "",
      "postcode": "8125-019",
      "city": "QUARTEIRA",
      "lon": "-8.102112676162514",
      "lat": "37.10988464984251"
    },
    {
      "id": "pt.ine.add.PTCONT.1561728",
      "street": "",
      "house": "",
      "postcode": "8125-019",
      "city": "QUARTEIRA",
      "lon": "-8.101741355058133",
      "lat": "37.110001690725085"
    },
    {
      "id": "pt.ine.add.PTCONT.1624822",
      "street": "EN 125",
      "house": "",
      "postcode": "8125-019",
      "city": "QUARTEIRA",
      "lon": "-8.103113461704023",
      "lat": "37.11121848422273"
    },
    {
      "id": "pt.ine.add.PTCONT.1624823",
      "street": "EN 125",
      "house": "",
      "postcode": "8125-019",
      "city": "QUARTEIRA",
      "lon": "-8.103113461704023",
      "lat": "37.11121848422273"
    },
    {
      "id": "pt.ine.add.PTCONT.1642613",
      "street": "",
      "house": "",
      "postcode": "8125-019",
      "city": "QUARTEIRA",
      "lon": "-8.10137006289312",
      "lat": "37.110046645202026"
    },
    {
      "id": "pt.ine.add.PTCONT.1644555",
      "street": "EN 125",
      "house": "",
      "postcode": "8125-019",
      "city": "QUARTEIRA",
      "lon": "-8.101943561345394",
      "lat": "37.11074962845701"
    },
    {
      "id": "pt.ine.add.PTCONT.1699097",
      "street": "EN 125",
      "house": "",
      "postcode": "8125-019",
      "city": "QUARTEIRA",
      "lon": "-8.102056084248414",
      "lat": "37.11071361535879"
    },
    {
      "id": "pt.ine.add.PTCONT.1708975",
      "street": "SIT CONSEGUINTE CASA AMARELA",
      "house": "",
      "postcode": "8125-019",
      "city": "QUARTEIRA",
      "lon": "-8.103676075857235",
      "lat": "37.1110384121246"
    },
    {
      "id": "pt.ine.add.PTCONT.1713482",
      "street": "",
      "house": "",
      "postcode": "8125-019",
      "city": "QUARTEIRA",
      "lon": "-8.103597393250809",
      "lat": "37.11084916881775"
    },
    {
      "id": "pt.ine.add.PTCONT.1713483",
      "street": "",
      "house": "",
      "postcode": "8125-019",
      "city": "QUARTEIRA",
      "lon": "-8.103597393250809",
      "lat": "37.11084916881775"
    },
    {
      "id": "pt.ine.add.PTCONT.1784341",
      "street": "",
      "house": "",
      "postcode": "8125-019",
      "city": "QUARTEIRA",
      "lon": "-8.101189885071184",
      "lat": "37.11044306568945"
    },
    {
      "id": "pt.ine.add.PTCONT.1813910",
      "street": "EN 125",
      "house": "",
      "postcode": "8125-019",
      "city": "QUARTEIRA",
      "lon": "-8.102134847281434",
      "lat": "37.110695614649664"
    },
    {
      "id": "pt.ine.add.PTCONT.1824767",
      "street": "EN 125",
      "house": "",
      "postcode": "8125-019",
      "city": "QUARTEIRA",
      "lon": "-8.103957191976182",
      "lat": "37.11144396101539"
    },
    {
      "id": "pt.ine.add.PTCONT.1824768",
      "street": "EN 125",
      "house": "",
      "postcode": "8125-019",
      "city": "QUARTEIRA",
      "lon": "-8.102044700942278",
      "lat": "37.11103799595029"
    },
    {
      "id": "pt.ine.add.PTCONT.1824769",
      "street": "EN 125 CONSEGUINTE CX 485 Z",
      "house": "",
      "postcode": "8125-019",
      "city": "QUARTEIRA",
      "lon": "-8.102044700942278",
      "lat": "37.11103799595029"
    }
  ]
}