{
  "data": {
    "distrito": "Faro",
    "concelho": "Loul√©",
    "freguesia": "Quarteira",
    "OBJECTID": 629,
    "BGRI2021": "08080503916",
    "DT21": "08",
    "DTMN21": "0808",
    "DTMNFR21": "080805",
    "DTMNFRSEC21": "080805039",
    "SECNUM21": "039",
    "SSNUM21": "16",
    "SECSSNUM21": "03916",
    "OBJECTID_1": 69343,
    "DT": "08",
    "CC": "08",
    "fr": "05",
    "SEC": "039",
    "SS": "16"
  },
  "addresses": [
    {
      "id": "pt.ine.add.PTCONT.1477930",
      "street": "EN 125",
      "house": "",
      "postcode": "8125-017",
      "city": "QUARTEIRA",
      "lon": "-8.127763973025809",
      "lat": "37.11388931088841"
    },
    {
      "id": "pt.ine.add.PTCONT.1482106",
      "street": "ESTR 125",
      "house": "",
      "postcode": "8125-017",
      "city": "QUARTEIRA",
      "lon": "-8.12353349449929",
      "lat": "37.11385300212619"
    },
    {
      "id": "pt.ine.add.PTCONT.1490886",
      "street": "ESTR 125",
      "house": "399 A",
      "postcode": "8125-017",
      "city": "QUARTEIRA",
      "lon": "-8.125614683717085",
      "lat": "37.116871719113675"
    },
    {
      "id": "pt.ine.add.PTCONT.1490982",
      "street": "ESTR 125",
      "house": "",
      "postcode": "8125-017",
      "city": "QUARTEIRA",
      "lon": "-8.120979377934395",
      "lat": "37.1143303328205"
    },
    {
      "id": "pt.ine.add.PTCONT.1497899",
      "street": "ESTR 125",
      "house": "371 A",
      "postcode": "8125-017",
      "city": "QUARTEIRA",
      "lon": "-8.129642788115847",
      "lat": "37.11716925659109"
    },
    {
      "id": "pt.ine.add.PTCONT.1498702",
      "street": "ESTR 125",
      "house": "",
      "postcode": "8125-017",
      "city": "QUARTEIRA",
      "lon": "-8.122250472972398",
      "lat": "37.11648400096256"
    },
    {
      "id": "pt.ine.add.PTCONT.1508118",
      "street": "EN 125",
      "house": "",
      "postcode": "8125-017",
      "city": "QUARTEIRA",
      "lon": "-8.119145513802861",
      "lat": "37.11375344942169"
    },
    {
      "id": "pt.ine.add.PTCONT.1525445",
      "street": "QTA RODRIGUES",
      "house": "",
      "postcode": "8125-017",
      "city": "QUARTEIRA",
      "lon": "-8.129091478034711",
      "lat": "37.11666464302068"
    },
    {
      "id": "pt.ine.add.PTCONT.1531674",
      "street": "ESTR 125",
      "house": "",
      "postcode": "8125-017",
      "city": "QUARTEIRA",
      "lon": "-8.120326487637627",
      "lat": "37.11618645781214"
    },
    {
      "id": "pt.ine.add.PTCONT.1532431",
      "street": "VL SIMONE BENFARRAS",
      "house": "",
      "postcode": "8125-017",
      "city": "QUARTEIRA",
      "lon": "-8.128225099797433",
      "lat": "37.11662856791736"
    },
    {
      "id": "pt.ine.add.PTCONT.1534257",
      "street": "ESTR 125",
      "house": "",
      "postcode": "8125-017",
      "city": "QUARTEIRA",
      "lon": "-8.131960646653106",
      "lat": "37.117574780722045"
    },
    {
      "id": "pt.ine.add.PTCONT.1543067",
      "street": "ESTR 125",
      "house": "",
      "postcode": "8125-017",
      "city": "QUARTEIRA",
      "lon": "-8.128326382008876",
      "lat": "37.11635825264734"
    },
    {
      "id": "pt.ine.add.PTCONT.1545611",
      "street": "ESTR 125",
      "house": "",
      "postcode": "8125-017",
      "city": "QUARTEIRA",
      "lon": "-8.123409384495313",
      "lat": "37.11656519724865"
    },
    {
      "id": "pt.ine.add.PTCONT.1545646",
      "street": "ESTR 125",
      "house": "CP 381 A",
      "postcode": "8125-017",
      "city": "QUARTEIRA",
      "lon": "-8.12879889973621",
      "lat": "37.117268346021866"
    },
    {
      "id": "pt.ine.add.PTCONT.1575916",
      "street": "",
      "house": "",
      "postcode": "8125-017",
      "city": "QUARTEIRA",
      "lon": "-8.133232103216177",
      "lat": "37.1174216052458"
    },
    {
      "id": "pt.ine.add.PTCONT.1580327",
      "street": "ESTR 125",
      "house": "",
      "postcode": "8125-017",
      "city": "QUARTEIRA",
      "lon": "-8.12932790296116",
      "lat": "37.11386233911602"
    },
    {
      "id": "pt.ine.add.PTCONT.1583767",
      "street": "ESTR 125",
      "house": "",
      "postcode": "8125-017",
      "city": "QUARTEIRA",
      "lon": "-8.125918476912817",
      "lat": "37.116907780509365"
    },
    {
      "id": "pt.ine.add.PTCONT.1587100",
      "street": "ESTR 125",
      "house": "",
      "postcode": "8125-017",
      "city": "QUARTEIRA",
      "lon": "-8.132782039576325",
      "lat": "37.11540321999166"
    },
    {
      "id": "pt.ine.add.PTCONT.1595149",
      "street": "ESTR 125",
      "house": "",
      "postcode": "8125-017",
      "city": "QUARTEIRA",
      "lon": "-8.118504058484685",
      "lat": "37.114447192210605"
    },
    {
      "id": "pt.ine.add.PTCONT.1600436",
      "street": "CASA BRANCA",
      "house": "353",
      "postcode": "8125-017",
      "city": "QUARTEIRA",
      "lon": "-8.132410719282293",
      "lat": "37.117637858738966"
    },
    {
      "id": "pt.ine.add.PTCONT.1606959",
      "street": "ESTR 125",
      "house": "",
      "postcode": "8125-017",
      "city": "QUARTEIRA",
      "lon": "-8.129552765106071",
      "lat": "37.11735847747977"
    },
    {
      "id": "pt.ine.add.PTCONT.1612199",
      "street": "ESTR 125",
      "house": "",
      "postcode": "8125-017",
      "city": "QUARTEIRA",
      "lon": "-8.124230847654957",
      "lat": "37.115790345953904"
    },
    {
      "id": "pt.ine.add.PTCONT.1615619",
      "street": "ESTR 125",
      "house": "",
      "postcode": "8125-017",
      "city": "QUARTEIRA",
      "lon": "-8.13030664687223",
      "lat": "37.11705213574311"
    },
    {
      "id": "pt.ine.add.PTCONT.1615620",
      "street": "ESTR 125",
      "house": "",
      "postcode": "8125-017",
      "city": "QUARTEIRA",
      "lon": "-8.13030664687223",
      "lat": "37.11705213574311"
    },
    {
      "id": "pt.ine.add.PTCONT.1618627",
      "street": "ESTR 125",
      "house": "",
      "postcode": "8125-017",
      "city": "QUARTEIRA",
      "lon": "-8.128630125086712",
      "lat": "37.117232297185396"
    },
    {
      "id": "pt.ine.add.PTCONT.1627532",
      "street": "ESTR 125",
      "house": "",
      "postcode": "8125-017",
      "city": "QUARTEIRA",
      "lon": "-8.121879181216235",
      "lat": "37.116393859912364"
    },
    {
      "id": "pt.ine.add.PTCONT.1628534",
      "street": "",
      "house": "",
      "postcode": "8125-017",
      "city": "QUARTEIRA",
      "lon": "-8.13252325535781",
      "lat": "37.11534014445877"
    },
    {
      "id": "pt.ine.add.PTCONT.1663484",
      "street": "ESTR 125",
      "house": "",
      "postcode": "8125-017",
      "city": "QUARTEIRA",
      "lon": "-8.125119615344262",
      "lat": "37.11679960162129"
    },
    {
      "id": "pt.ine.add.PTCONT.1673634",
      "street": "ESTR 125",
      "house": "",
      "postcode": "8125-017",
      "city": "QUARTEIRA",
      "lon": "-8.132241941997336",
      "lat": "37.117610825691074"
    },
    {
      "id": "pt.ine.add.PTCONT.1673584",
      "street": "ERN",
      "house": "",
      "postcode": "8125-017",
      "city": "QUARTEIRA",
      "lon": "-8.132635770241109",
      "lat": "37.115358166257316"
    },
    {
      "id": "pt.ine.add.PTCONT.1687517",
      "street": "ESTR 125",
      "house": "CP 101 2",
      "postcode": "8125-017",
      "city": "QUARTEIRA",
      "lon": "-8.11853759849242",
      "lat": "37.1155645167887"
    },
    {
      "id": "pt.ine.add.PTCONT.1687518",
      "street": "ESTR 125",
      "house": "CP 101 2",
      "postcode": "8125-017",
      "city": "QUARTEIRA",
      "lon": "-8.11853759849242",
      "lat": "37.1155645167887"
    },
    {
      "id": "pt.ine.add.PTCONT.1687579",
      "street": "ESTR 125",
      "house": "",
      "postcode": "8125-017",
      "city": "QUARTEIRA",
      "lon": "-8.131746861718046",
      "lat": "37.11758378910483"
    },
    {
      "id": "pt.ine.add.PTCONT.1693293",
      "street": "EN 125",
      "house": "",
      "postcode": "8125-017",
      "city": "QUARTEIRA",
      "lon": "-8.11961825872052",
      "lat": "37.11267222596575"
    },
    {
      "id": "pt.ine.add.PTCONT.1694926",
      "street": "",
      "house": "",
      "postcode": "8125-017",
      "city": "QUARTEIRA",
      "lon": "-8.11940438056894",
      "lat": "37.11326690446523"
    },
    {
      "id": "pt.ine.add.PTCONT.1707478",
      "street": "ESTR 125",
      "house": "",
      "postcode": "8125-017",
      "city": "QUARTEIRA",
      "lon": "-8.123229801257047",
      "lat": "37.11315014642377"
    },
    {
      "id": "pt.ine.add.PTCONT.1708888",
      "street": "ESTR 125",
      "house": "",
      "postcode": "8125-017",
      "city": "QUARTEIRA",
      "lon": "-8.123229801257047",
      "lat": "37.11315014642377"
    },
    {
      "id": "pt.ine.add.PTCONT.1713399",
      "street": "ESTR 125",
      "house": "",
      "postcode": "8125-017",
      "city": "QUARTEIRA",
      "lon": "-8.128236315114405",
      "lat": "37.11719623907482"
    },
    {
      "id": "pt.ine.add.PTCONT.1722509",
      "street": "CAM BENFARRAS",
      "house": "S N",
      "postcode": "8125-017",
      "city": "QUARTEIRA",
      "lon": "-8.128911611039959",
      "lat": "37.11376320795435"
    },
    {
      "id": "pt.ine.add.PTCONT.1724684",
      "street": "ESTR 125",
      "house": "351A",
      "postcode": "8125-017",
      "city": "QUARTEIRA",
      "lon": "-8.132556993065538",
      "lat": "37.11765588079911"
    },
    {
      "id": "pt.ine.add.PTCONT.1724685",
      "street": "ESTR 125",
      "house": "351A",
      "postcode": "8125-017",
      "city": "QUARTEIRA",
      "lon": "-8.132556993065538",
      "lat": "37.11765588079911"
    },
    {
      "id": "pt.ine.add.PTCONT.1727622",
      "street": "ESTR 125",
      "house": "",
      "postcode": "8125-017",
      "city": "QUARTEIRA",
      "lon": "-8.118841381413482",
      "lat": "37.115609606971844"
    },
    {
      "id": "pt.ine.add.PTCONT.1734609",
      "street": "ESTR 125",
      "house": "",
      "postcode": "8125-017",
      "city": "QUARTEIRA",
      "lon": "-8.123904442083647",
      "lat": "37.11670039640828"
    },
    {
      "id": "pt.ine.add.PTCONT.1737845",
      "street": "ESTR 125",
      "house": "",
      "postcode": "8125-017",
      "city": "QUARTEIRA",
      "lon": "-8.132163187773045",
      "lat": "37.11691700539035"
    },
    {
      "id": "pt.ine.add.PTCONT.1742440",
      "street": "EN 125 BENFARRAS",
      "house": "",
      "postcode": "8125-017",
      "city": "QUARTEIRA",
      "lon": "-8.132703277382346",
      "lat": "37.115709581782234"
    },
    {
      "id": "pt.ine.add.PTCONT.1742446",
      "street": "ESTR 125",
      "house": "",
      "postcode": "8125-017",
      "city": "QUARTEIRA",
      "lon": "-8.128956449816673",
      "lat": "37.11680880870893"
    },
    {
      "id": "pt.ine.add.PTCONT.1747643",
      "street": "",
      "house": "",
      "postcode": "8125-017",
      "city": "QUARTEIRA",
      "lon": "-8.132410740610517",
      "lat": "37.115313111904975"
    },
    {
      "id": "pt.ine.add.PTCONT.1747644",
      "street": "",
      "house": "",
      "postcode": "8125-017",
      "city": "QUARTEIRA",
      "lon": "-8.132410740610517",
      "lat": "37.115313111904975"
    },
    {
      "id": "pt.ine.add.PTCONT.1747642",
      "street": "",
      "house": "",
      "postcode": "8125-017",
      "city": "QUARTEIRA",
      "lon": "-8.132410740610517",
      "lat": "37.115313111904975"
    },
    {
      "id": "pt.ine.add.PTCONT.1755029",
      "street": "ESTR 125",
      "house": "",
      "postcode": "8125-017",
      "city": "QUARTEIRA",
      "lon": "-8.128776422860923",
      "lat": "37.11679979162189"
    },
    {
      "id": "pt.ine.add.PTCONT.1757462",
      "street": "ESTR VILAMOURA",
      "house": "",
      "postcode": "8125-017",
      "city": "QUARTEIRA",
      "lon": "-8.119111793178664",
      "lat": "37.113573232428756"
    },
    {
      "id": "pt.ine.add.PTCONT.1757517",
      "street": "ESTR 125",
      "house": "",
      "postcode": "8125-017",
      "city": "QUARTEIRA",
      "lon": "-8.127347431785111",
      "lat": "37.11710609276049"
    },
    {
      "id": "pt.ine.add.PTCONT.1767476",
      "street": "EN 125",
      "house": "",
      "postcode": "8125-017",
      "city": "QUARTEIRA",
      "lon": "-8.13329961453739",
      "lat": "37.11761082870234"
    },
    {
      "id": "pt.ine.add.PTCONT.1771283",
      "street": "",
      "house": "",
      "postcode": "8125-017",
      "city": "QUARTEIRA",
      "lon": "-8.132444493445172",
      "lat": "37.115502335712435"
    },
    {
      "id": "pt.ine.add.PTCONT.1775705",
      "street": "ESTR 125",
      "house": "",
      "postcode": "8125-017",
      "city": "QUARTEIRA",
      "lon": "-8.133558408781461",
      "lat": "37.1179532324992"
    },
    {
      "id": "pt.ine.add.PTCONT.1777281",
      "street": "SIT BENFARRAS",
      "house": "",
      "postcode": "8125-017",
      "city": "QUARTEIRA",
      "lon": "-8.131015494653008",
      "lat": "37.11751169329058"
    },
    {
      "id": "pt.ine.add.PTCONT.1778839",
      "street": "ESTR 125",
      "house": "",
      "postcode": "8125-017",
      "city": "QUARTEIRA",
      "lon": "-8.13301831846772",
      "lat": "37.11776400978403"
    },
    {
      "id": "pt.ine.add.PTCONT.1790395",
      "street": "ESTR 125",
      "house": "",
      "postcode": "8125-017",
      "city": "QUARTEIRA",
      "lon": "-8.123252267405027",
      "lat": "37.11342947848871"
    },
    {
      "id": "pt.ine.add.PTCONT.1795651",
      "street": "ESTR 125",
      "house": "",
      "postcode": "8125-017",
      "city": "QUARTEIRA",
      "lon": "-8.1275163394046",
      "lat": "37.11532199273525"
    },
    {
      "id": "pt.ine.add.PTCONT.1802382",
      "street": "ESTR 125",
      "house": "",
      "postcode": "8125-017",
      "city": "QUARTEIRA",
      "lon": "-8.123060972911745",
      "lat": "37.11360967545494"
    },
    {
      "id": "pt.ine.add.PTCONT.1805782",
      "street": "AV VILAMOURA",
      "house": "",
      "postcode": "8125-017",
      "city": "QUARTEIRA",
      "lon": "-8.118278865966081",
      "lat": "37.11529416526539"
    },
    {
      "id": "pt.ine.add.PTCONT.1811007",
      "street": "ESTR 125",
      "house": "",
      "postcode": "8125-017",
      "city": "QUARTEIRA",
      "lon": "-8.133412133576767",
      "lat": "37.117782030718324"
    },
    {
      "id": "pt.ine.add.PTCONT.1817749",
      "street": "",
      "house": "",
      "postcode": "8125-017",
      "city": "QUARTEIRA",
      "lon": "-8.132894553499652",
      "lat": "37.11581771005416"
    },
    {
      "id": "pt.ine.add.PTCONT.1817750",
      "street": "ESTR 125",
      "house": "",
      "postcode": "8125-017",
      "city": "QUARTEIRA",
      "lon": "-8.133029570633942",
      "lat": "37.1174666585101"
    },
    {
      "id": "pt.ine.add.PTCONT.1817751",
      "street": "ESTR 125",
      "house": "",
      "postcode": "8125-017",
      "city": "QUARTEIRA",
      "lon": "-8.133029570633942",
      "lat": "37.1174666585101"
    },
    {
      "id": "pt.ine.add.PTCONT.1818367",
      "street": "ESTR 125",
      "house": "345 A",
      "postcode": "8125-017",
      "city": "QUARTEIRA",
      "lon": "-8.133029570633942",
      "lat": "37.1174666585101"
    },
    {
      "id": "pt.ine.add.PTCONT.1824620",
      "street": "ESTR 125",
      "house": "",
      "postcode": "8125-017",
      "city": "QUARTEIRA",
      "lon": "-8.13245574388607",
      "lat": "37.11562848484734"
    },
    {
      "id": "pt.ine.add.PTCONT.1824621",
      "street": "ESTR 125",
      "house": "",
      "postcode": "8125-017",
      "city": "QUARTEIRA",
      "lon": "-8.123522223910179",
      "lat": "37.11400618227379"
    },
    {
      "id": "pt.ine.add.PTCONT.1836738",
      "street": "ESTR 125",
      "house": "",
      "postcode": "8125-017",
      "city": "QUARTEIRA",
      "lon": "-8.127899008195802",
      "lat": "37.11360097607281"
    },
    {
      "id": "pt.ine.add.PTCONT.1836739",
      "street": "URB VILA SOL VILLAGE B",
      "house": "3",
      "postcode": "8125-307",
      "city": "QUARTEIRA",
      "lon": "-8.132917055824048",
      "lat": "37.116142093398956"
    },
    {
      "id": "pt.ine.add.PTCONT.1836740",
      "street": "EN 125",
      "house": "",
      "postcode": "8125-017",
      "city": "QUARTEIRA",
      "lon": "-8.132917055824048",
      "lat": "37.116142093398956"
    },
    {
      "id": "pt.ine.add.PTCONT.1844852",
      "street": "",
      "house": "",
      "postcode": "8125-017",
      "city": "QUARTEIRA",
      "lon": "-8.12330861289697",
      "lat": "37.11273566297232"
    },
    {
      "id": "pt.ine.add.PTCONT.1845081",
      "street": "ESTR 125",
      "house": "",
      "postcode": "8125-017",
      "city": "QUARTEIRA",
      "lon": "-8.123308547872815",
      "lat": "37.11324025947451"
    }
  ]
}