{
  "data": {
    "distrito": "Faro",
    "concelho": "Loulé",
    "freguesia": "Quarteira",
    "OBJECTID": 476,
    "BGRI2021": "08080500904",
    "DT21": "08",
    "DTMN21": "0808",
    "DTMNFR21": "080805",
    "DTMNFRSEC21": "080805009",
    "SECNUM21": "009",
    "SSNUM21": "04",
    "SECSSNUM21": "00904",
    "OBJECTID_1": 69337,
    "DT": "08",
    "CC": "08",
    "fr": "05",
    "SEC": "009",
    "SS": "04"
  },
  "addresses": [
    {
      "id": "pt.ine.add.PTCONT.1476224",
      "street": "R GAIVOTA",
      "house": "31",
      "postcode": "8125-218",
      "city": "QUARTEIRA",
      "lon": "-8.105051342323952",
      "lat": "37.07331101428654"
    },
    {
      "id": "pt.ine.add.PTCONT.1482276",
      "street": "R LARANJEIRAS",
      "house": "53",
      "postcode": "8125-228",
      "city": "QUARTEIRA",
      "lon": "-8.105298794546531",
      "lat": "37.07315789045339"
    },
    {
      "id": "pt.ine.add.PTCONT.1482277",
      "street": "R LARANJEIRAS",
      "house": "53",
      "postcode": "8125-228",
      "city": "QUARTEIRA",
      "lon": "-8.105298794546531",
      "lat": "37.07315789045339"
    },
    {
      "id": "pt.ine.add.PTCONT.1484050",
      "street": "R LARANJEIRAS",
      "house": "A45",
      "postcode": "8125-228",
      "city": "QUARTEIRA",
      "lon": "-8.104938999452271",
      "lat": "37.07301363415318"
    },
    {
      "id": "pt.ine.add.PTCONT.1493751",
      "street": "R LARANJEIRAS",
      "house": "4 C",
      "postcode": "8125-228",
      "city": "QUARTEIRA",
      "lon": "-8.105006424354608",
      "lat": "37.073139800120856"
    },
    {
      "id": "pt.ine.add.PTCONT.1501894",
      "street": "R GAIVOTA",
      "house": "33",
      "postcode": "8125-218",
      "city": "QUARTEIRA",
      "lon": "-8.105118800791915",
      "lat": "37.07334707307231"
    },
    {
      "id": "pt.ine.add.PTCONT.1501895",
      "street": "R RIBEIRINHA",
      "house": "16",
      "postcode": "8125-252",
      "city": "QUARTEIRA",
      "lon": "-8.105163930739225",
      "lat": "37.072941601657455"
    },
    {
      "id": "pt.ine.add.PTCONT.1503996",
      "street": "R RIBEIRINHA",
      "house": "16",
      "postcode": "8125-252",
      "city": "QUARTEIRA",
      "lon": "-8.105163930739225",
      "lat": "37.072941601657455"
    },
    {
      "id": "pt.ine.add.PTCONT.1508311",
      "street": "R LARANJEIRAS",
      "house": "45",
      "postcode": "8125-228",
      "city": "QUARTEIRA",
      "lon": "-8.105107707896082",
      "lat": "37.072932577685876"
    },
    {
      "id": "pt.ine.add.PTCONT.1508312",
      "street": "R RIBEIRINHA",
      "house": "20",
      "postcode": "8125-252",
      "city": "QUARTEIRA",
      "lon": "-8.105197630107886",
      "lat": "37.07304072743035"
    },
    {
      "id": "pt.ine.add.PTCONT.1529490",
      "street": "R RIBEIRINHA",
      "house": "2",
      "postcode": "8125-252",
      "city": "QUARTEIRA",
      "lon": "-8.104770257120892",
      "lat": "37.07318479749474"
    },
    {
      "id": "pt.ine.add.PTCONT.1545719",
      "street": "R S JOÃO",
      "house": "21",
      "postcode": "8125-192",
      "city": "QUARTEIRA",
      "lon": "-8.105197507922519",
      "lat": "37.073374123754995"
    },
    {
      "id": "pt.ine.add.PTCONT.1559724",
      "street": "R LARANJEIRAS",
      "house": "46",
      "postcode": "8125-228",
      "city": "QUARTEIRA",
      "lon": "-8.105118850466404",
      "lat": "37.07321191240191"
    },
    {
      "id": "pt.ine.add.PTCONT.1566614",
      "street": "R S JOÃO",
      "house": "33",
      "postcode": "8125-192",
      "city": "QUARTEIRA",
      "lon": "-8.105388773050267",
      "lat": "37.07311285795329"
    },
    {
      "id": "pt.ine.add.PTCONT.1566615",
      "street": "R LARANJEIRAS",
      "house": "45",
      "postcode": "8125-228",
      "city": "QUARTEIRA",
      "lon": "-8.104983970436926",
      "lat": "37.07304067696226"
    },
    {
      "id": "pt.ine.add.PTCONT.1587369",
      "street": "R LARANJEIRAS",
      "house": "10",
      "postcode": "8125-228",
      "city": "QUARTEIRA",
      "lon": "-8.10496151657761",
      "lat": "37.0729415537978"
    },
    {
      "id": "pt.ine.add.PTCONT.1600684",
      "street": "R LARANJEIRAS",
      "house": "50",
      "postcode": "8125-228",
      "city": "QUARTEIRA",
      "lon": "-8.105231306476021",
      "lat": "37.073202928172776"
    },
    {
      "id": "pt.ine.add.PTCONT.1603153",
      "street": "R S JOÃO",
      "house": "25",
      "postcode": "8125-192",
      "city": "QUARTEIRA",
      "lon": "-8.105253760763356",
      "lat": "37.07330205128198"
    },
    {
      "id": "pt.ine.add.PTCONT.1614093",
      "street": "R LARANJEIRAS",
      "house": "44",
      "postcode": "8125-228",
      "city": "QUARTEIRA",
      "lon": "-8.105107621760022",
      "lat": "37.07316685619032"
    },
    {
      "id": "pt.ine.add.PTCONT.1661414",
      "street": "R GAIVOTA",
      "house": "25",
      "postcode": "8125-218",
      "city": "QUARTEIRA",
      "lon": "-8.10489392167658",
      "lat": "37.07327493409715"
    },
    {
      "id": "pt.ine.add.PTCONT.1668497",
      "street": "R S JOÃO",
      "house": "29",
      "postcode": "8125-192",
      "city": "QUARTEIRA",
      "lon": "-8.105355017578695",
      "lat": "37.07316691433413"
    },
    {
      "id": "pt.ine.add.PTCONT.1713534",
      "street": "R RIBEIRINHA",
      "house": "28",
      "postcode": "8125-252",
      "city": "QUARTEIRA",
      "lon": "-8.105377550760739",
      "lat": "37.073049780343005"
    },
    {
      "id": "pt.ine.add.PTCONT.1713535",
      "street": "R RIBEIRINHA",
      "house": "28",
      "postcode": "8125-252",
      "city": "QUARTEIRA",
      "lon": "-8.105377550760739",
      "lat": "37.073049780343005"
    },
    {
      "id": "pt.ine.add.PTCONT.1727757",
      "street": "R RIBEIRINHA",
      "house": "4",
      "postcode": "8125-252",
      "city": "QUARTEIRA",
      "lon": "-8.104804006317625",
      "lat": "37.073148762703745"
    },
    {
      "id": "pt.ine.add.PTCONT.1742618",
      "street": "R GAIVOTA",
      "house": "21",
      "postcode": "8125-218",
      "city": "QUARTEIRA",
      "lon": "-8.104747746453553",
      "lat": "37.073238856387974"
    },
    {
      "id": "pt.ine.add.PTCONT.1745501",
      "street": "R LARANJEIRAS",
      "house": "49",
      "postcode": "8125-228",
      "city": "QUARTEIRA",
      "lon": "-8.105152632586453",
      "lat": "37.073085770395956"
    },
    {
      "id": "pt.ine.add.PTCONT.1775888",
      "street": "R S JOÃO",
      "house": "27",
      "postcode": "8125-192",
      "city": "QUARTEIRA",
      "lon": "-8.105231286686104",
      "lat": "37.07325699244146"
    },
    {
      "id": "pt.ine.add.PTCONT.1775917",
      "street": "R LARANJEIRAS",
      "house": "51",
      "postcode": "8125-228",
      "city": "QUARTEIRA",
      "lon": "-8.105231332862495",
      "lat": "37.07313084248046"
    },
    {
      "id": "pt.ine.add.PTCONT.1778937",
      "street": "R LARANJEIRAS",
      "house": "52",
      "postcode": "8125-228",
      "city": "QUARTEIRA",
      "lon": "-8.105298768223888",
      "lat": "37.07322997614543"
    },
    {
      "id": "pt.ine.add.PTCONT.1798461",
      "street": "R RIBEIRINHA",
      "house": "22",
      "postcode": "8125-252",
      "city": "QUARTEIRA",
      "lon": "-8.105276360000753",
      "lat": "37.07300470307981"
    },
    {
      "id": "pt.ine.add.PTCONT.1808270",
      "street": "R LARANJEIRAS",
      "house": "42",
      "postcode": "8125-228",
      "city": "QUARTEIRA",
      "lon": "-8.10502889161973",
      "lat": "37.0732028804278"
    },
    {
      "id": "pt.ine.add.PTCONT.1808271",
      "street": "R LARANJEIRAS",
      "house": "48",
      "postcode": "8125-228",
      "city": "QUARTEIRA",
      "lon": "-8.10517508343197",
      "lat": "37.07319390423345"
    },
    {
      "id": "pt.ine.add.PTCONT.1822615",
      "street": "R LARANJEIRAS",
      "house": "47A",
      "postcode": "8125-228",
      "city": "QUARTEIRA",
      "lon": "-8.105073925769746",
      "lat": "37.073058719682315"
    },
    {
      "id": "pt.ine.add.PTCONT.1823912",
      "street": "R LARANJEIRAS",
      "house": "47",
      "postcode": "8125-228",
      "city": "QUARTEIRA",
      "lon": "-8.105073925769746",
      "lat": "37.073058719682315"
    },
    {
      "id": "pt.ine.add.PTCONT.1840591",
      "street": "R S JOÃO",
      "house": "23",
      "postcode": "8125-192",
      "city": "QUARTEIRA",
      "lon": "-8.105186282449399",
      "lat": "37.07332005684075"
    }
  ]
}