{
  "data": {
    "distrito": "Guarda",
    "concelho": "Celorico da Beira",
    "freguesia": "União das freguesias de Cortiçô da Serra, Vide entre Vinhas e Salgueirais",
    "OBJECTID": 95,
    "BGRI2021": "09032500119",
    "DT21": "09",
    "DTMN21": "0903",
    "DTMNFR21": "090325",
    "DTMNFRSEC21": "090325001",
    "SECNUM21": "001",
    "SSNUM21": "19",
    "SECSSNUM21": "00119",
    "OBJECTID_1": 76032,
    "DT": "09",
    "CC": "03",
    "fr": "25",
    "SEC": "001",
    "SS": "19"
  },
  "addresses": [
    {
      "id": "pt.ine.add.PTCONT.1899613",
      "street": "R DA FORJA",
      "house": "",
      "postcode": "6360-050",
      "city": "CORTIÇÔ DA SERRA",
      "lon": "-7.437079934008686",
      "lat": "40.5923647495467"
    },
    {
      "id": "pt.ine.add.PTCONT.1905109",
      "street": "EN 17",
      "house": "",
      "postcode": "6360-050",
      "city": "CORTIÇÔ DA SERRA",
      "lon": "-7.437452180714564",
      "lat": "40.59178165591904"
    },
    {
      "id": "pt.ine.add.PTCONT.1913963",
      "street": "EN 17",
      "house": "",
      "postcode": "6360-150",
      "city": "SALGUEIRAIS",
      "lon": "-7.441839959051661",
      "lat": "40.587836715859716"
    },
    {
      "id": "pt.ine.add.PTCONT.1916746",
      "street": "R DA FORJA",
      "house": "",
      "postcode": "6360-050",
      "city": "CORTIÇÔ DA SERRA",
      "lon": "-7.437429116302803",
      "lat": "40.59172748597737"
    },
    {
      "id": "pt.ine.add.PTCONT.1919704",
      "street": "CAM DAS VINHAS",
      "house": "",
      "postcode": "6360-150",
      "city": "SALGUEIRAIS",
      "lon": "-7.432815575456266",
      "lat": "40.57536420508414"
    },
    {
      "id": "pt.ine.add.PTCONT.1923895",
      "street": "CAM DAS VINHAS",
      "house": "",
      "postcode": "6360-150",
      "city": "SALGUEIRAIS",
      "lon": "-7.430293353424248",
      "lat": "40.57374596229393"
    },
    {
      "id": "pt.ine.add.PTCONT.1925827",
      "street": "R DE MONSANTO",
      "house": "",
      "postcode": "6360-050",
      "city": "CORTIÇÔ DA SERRA",
      "lon": "-7.437235360707829",
      "lat": "40.592185582603534"
    },
    {
      "id": "pt.ine.add.PTCONT.1957065",
      "street": "R DE MONSANTO",
      "house": "",
      "postcode": "6360-150",
      "city": "SALGUEIRAIS",
      "lon": "-7.437371268770598",
      "lat": "40.59161007032194"
    },
    {
      "id": "pt.ine.add.PTCONT.1962351",
      "street": "EN 17",
      "house": "",
      "postcode": "6360-150",
      "city": "SALGUEIRAIS",
      "lon": "-7.442053585590125",
      "lat": "40.58773893714017"
    },
    {
      "id": "pt.ine.add.PTCONT.1970739",
      "street": "R DE MONSANTO",
      "house": "",
      "postcode": "6360-150",
      "city": "SALGUEIRAIS",
      "lon": "-7.436688914227839",
      "lat": "40.59247945986841"
    },
    {
      "id": "pt.ine.add.PTCONT.1976313",
      "street": "EN 17",
      "house": "",
      "postcode": "6360-050",
      "city": "CORTIÇÔ DA SERRA",
      "lon": "-7.437652987766916",
      "lat": "40.59178286513055"
    },
    {
      "id": "pt.ine.add.PTCONT.1850134",
      "street": "EN 17",
      "house": "",
      "postcode": "6360-150",
      "city": "SALGUEIRAIS",
      "lon": "-7.437716188137864",
      "lat": "40.59024336104197"
    },
    {
      "id": "pt.ine.add.PTCONT.1854856",
      "street": "EN 17",
      "house": "",
      "postcode": "6360-050",
      "city": "CORTIÇÔ DA SERRA",
      "lon": "-7.4374399019200395",
      "lat": "40.591826607826604"
    },
    {
      "id": "pt.ine.add.PTCONT.1870740",
      "street": "EN 17",
      "house": "",
      "postcode": "6360-050",
      "city": "CORTIÇÔ DA SERRA",
      "lon": "-7.437558490328998",
      "lat": "40.59178229613333"
    },
    {
      "id": "pt.ine.add.PTCONT.1871577",
      "street": "R DA FORJA",
      "house": "",
      "postcode": "6360-050",
      "city": "CORTIÇÔ DA SERRA",
      "lon": "-7.437296755540665",
      "lat": "40.59196082317887"
    },
    {
      "id": "pt.ine.add.PTCONT.1876666",
      "street": "EN 17",
      "house": "",
      "postcode": "6360-050",
      "city": "CORTIÇÔ DA SERRA",
      "lon": "-7.437760230187589",
      "lat": "40.59169345905588"
    },
    {
      "id": "pt.ine.add.PTCONT.1882748",
      "street": "EN 17",
      "house": "",
      "postcode": "6360-050",
      "city": "CORTIÇÔ DA SERRA",
      "lon": "-7.438453629350924",
      "lat": "40.590896170824784"
    },
    {
      "id": "pt.ine.add.PTCONT.1887483",
      "street": "R DA FORJA",
      "house": "",
      "postcode": "6360-050",
      "city": "CORTIÇÔ DA SERRA",
      "lon": "-7.437345124417081",
      "lat": "40.59185305248294"
    },
    {
      "id": "pt.ine.add.PTCONT.1891580",
      "street": "R DA FORJA",
      "house": "",
      "postcode": "6360-050",
      "city": "CORTIÇÔ DA SERRA",
      "lon": "-7.437381400971036",
      "lat": "40.591772224445535"
    }
  ]
}