{
  "data": {
    "distrito": "Aveiro",
    "concelho": "Sever do Vouga",
    "freguesia": "Talhadas",
    "OBJECTID": 276,
    "BGRI2021": "01170800111",
    "DT21": "01",
    "DTMN21": "0117",
    "DTMNFR21": "011708",
    "DTMNFRSEC21": "011708001",
    "SECNUM21": "001",
    "SSNUM21": "11",
    "SECSSNUM21": "00111",
    "OBJECTID_1": 11364,
    "DT": "01",
    "CC": "17",
    "fr": "08",
    "SEC": "001",
    "SS": "11"
  },
  "addresses": [
    {
      "id": "pt.ine.add.PTCONT.307676",
      "street": "R CENTRO",
      "house": "",
      "postcode": "3740-415",
      "city": "TALHADAS",
      "lon": "-8.31913131146994",
      "lat": "40.656727152789955"
    },
    {
      "id": "pt.ine.add.PTCONT.325067",
      "street": "R EMACULADO CORACAO DE JESUS",
      "house": "",
      "postcode": "3740-415",
      "city": "TALHADAS",
      "lon": "-8.318895871924616",
      "lat": "40.65710574880079"
    },
    {
      "id": "pt.ine.add.PTCONT.334122",
      "street": "R CENTRO",
      "house": "",
      "postcode": "3740-415",
      "city": "TALHADAS",
      "lon": "-8.318859973814389",
      "lat": "40.656952718736214"
    },
    {
      "id": "pt.ine.add.PTCONT.22253",
      "street": "R CENTRO",
      "house": "",
      "postcode": "3740-415",
      "city": "TALHADAS",
      "lon": "-8.319024491564974",
      "lat": "40.656583242163734"
    },
    {
      "id": "pt.ine.add.PTCONT.36729",
      "street": "R MATO DE LAVOURA",
      "house": "",
      "postcode": "3740-415",
      "city": "TALHADAS",
      "lon": "-8.321081307189539",
      "lat": "40.65635478313159"
    },
    {
      "id": "pt.ine.add.PTCONT.51462",
      "street": "R CENTRO",
      "house": "",
      "postcode": "3740-415",
      "city": "TALHADAS",
      "lon": "-8.318954294753627",
      "lat": "40.656853510146775"
    },
    {
      "id": "pt.ine.add.PTCONT.51463",
      "street": "R VALE DE AVELIDE",
      "house": "",
      "postcode": "3740-415",
      "city": "TALHADAS",
      "lon": "-8.319967580274088",
      "lat": "40.655555130853664"
    },
    {
      "id": "pt.ine.add.PTCONT.51464",
      "street": "R LAVOURA",
      "house": "",
      "postcode": "3740-415",
      "city": "TALHADAS",
      "lon": "-8.322880218847784",
      "lat": "40.65691916621792"
    },
    {
      "id": "pt.ine.add.PTCONT.79935",
      "street": "R VALE DE AVELIDE",
      "house": "",
      "postcode": "3740-415",
      "city": "TALHADAS",
      "lon": "-8.320121949022388",
      "lat": "40.655789015311534"
    },
    {
      "id": "pt.ine.add.PTCONT.79936",
      "street": "R LAVOURA",
      "house": "",
      "postcode": "3740-415",
      "city": "TALHADAS",
      "lon": "-8.322407621896243",
      "lat": "40.65705501941437"
    },
    {
      "id": "pt.ine.add.PTCONT.86192",
      "street": "R LAVOURA",
      "house": "",
      "postcode": "3740-415",
      "city": "TALHADAS",
      "lon": "-8.322135531474158",
      "lat": "40.657010439315904"
    },
    {
      "id": "pt.ine.add.PTCONT.125799",
      "street": "R LAVOURA",
      "house": "",
      "postcode": "3740-415",
      "city": "TALHADAS",
      "lon": "-8.321568361621468",
      "lat": "40.65715544901769"
    },
    {
      "id": "pt.ine.add.PTCONT.136718",
      "street": "R MATO DE LAVOURA",
      "house": "",
      "postcode": "3740-415",
      "city": "TALHADAS",
      "lon": "-8.320938530818646",
      "lat": "40.65603983462322"
    },
    {
      "id": "pt.ine.add.PTCONT.139543",
      "street": "R EMACULADO CORACAO DE JESUS",
      "house": "",
      "postcode": "3740-415",
      "city": "TALHADAS",
      "lon": "-8.319132462057908",
      "lat": "40.6571413885635"
    },
    {
      "id": "pt.ine.add.PTCONT.165065",
      "street": "R VALE DE AVELIDE",
      "house": "",
      "postcode": "3740-415",
      "city": "TALHADAS",
      "lon": "-8.31977836749913",
      "lat": "40.65554643171447"
    },
    {
      "id": "pt.ine.add.PTCONT.166665",
      "street": "R LAVOURA",
      "house": "",
      "postcode": "3740-415",
      "city": "TALHADAS",
      "lon": "-8.322808889429258",
      "lat": "40.65678420593635"
    },
    {
      "id": "pt.ine.add.PTCONT.188871",
      "street": "R CENTRO",
      "house": "",
      "postcode": "3740-415",
      "city": "TALHADAS",
      "lon": "-8.319106962338422",
      "lat": "40.65647504735576"
    },
    {
      "id": "pt.ine.add.PTCONT.196922",
      "street": "R VALE DA AREIA",
      "house": "",
      "postcode": "3740-415",
      "city": "TALHADAS",
      "lon": "-8.319577882119733",
      "lat": "40.6557358641606"
    },
    {
      "id": "pt.ine.add.PTCONT.204829",
      "street": "R LAVOURA",
      "house": "",
      "postcode": "3740-415",
      "city": "TALHADAS",
      "lon": "-8.322571687229212",
      "lat": "40.65653245072486"
    },
    {
      "id": "pt.ine.add.PTCONT.224319",
      "street": "R MATO DE LAVOURA",
      "house": "",
      "postcode": "3740-415",
      "city": "TALHADAS",
      "lon": "-8.32072473456313",
      "lat": "40.65569798582937"
    },
    {
      "id": "pt.ine.add.PTCONT.240379",
      "street": "R CENTRO",
      "house": "",
      "postcode": "3740-415",
      "city": "TALHADAS",
      "lon": "-8.319284653655638",
      "lat": "40.656591828165745"
    },
    {
      "id": "pt.ine.add.PTCONT.253855",
      "street": "R MATO DE LAVOURA",
      "house": "",
      "postcode": "3740-415",
      "city": "TALHADAS",
      "lon": "-8.32118982552097",
      "lat": "40.65710203520432"
    },
    {
      "id": "pt.ine.add.PTCONT.262088",
      "street": "",
      "house": "",
      "postcode": "3740-415",
      "city": "TALHADAS",
      "lon": "-8.320558665727377",
      "lat": "40.655509147008075"
    },
    {
      "id": "pt.ine.add.PTCONT.275773",
      "street": "R CENTRO",
      "house": "",
      "postcode": "3740-415",
      "city": "TALHADAS",
      "lon": "-8.319177683527663",
      "lat": "40.656393886920505"
    },
    {
      "id": "pt.ine.add.PTCONT.281304",
      "street": "R LAVOURA",
      "house": "",
      "postcode": "3740-415",
      "city": "TALHADAS",
      "lon": "-8.322655757836479",
      "lat": "40.656991576210416"
    }
  ]
}