{
  "data": {
    "distrito": "Aveiro",
    "concelho": "Sever do Vouga",
    "freguesia": "Talhadas",
    "OBJECTID": 58,
    "BGRI2021": "01170800130",
    "DT21": "01",
    "DTMN21": "0117",
    "DTMNFR21": "011708",
    "DTMNFRSEC21": "011708001",
    "SECNUM21": "001",
    "SSNUM21": "30",
    "SECSSNUM21": "00130",
    "OBJECTID_1": 11008,
    "DT": "01",
    "CC": "17",
    "fr": "08",
    "SEC": "001",
    "SS": "30"
  },
  "addresses": [
    {
      "id": "pt.ine.add.PTCONT.30048",
      "street": "R ESCOLA",
      "house": "",
      "postcode": "3740-412",
      "city": "TALHADAS",
      "lon": "-8.32049070482661",
      "lat": "40.665027711947126"
    },
    {
      "id": "pt.ine.add.PTCONT.58283",
      "street": "R FONTE",
      "house": "",
      "postcode": "3740-412",
      "city": "TALHADAS",
      "lon": "-8.319378568920994",
      "lat": "40.66484940830933"
    },
    {
      "id": "pt.ine.add.PTCONT.82791",
      "street": "R ESCOLA",
      "house": "",
      "postcode": "3740-412",
      "city": "TALHADAS",
      "lon": "-8.32118906544531",
      "lat": "40.66525170535026"
    },
    {
      "id": "pt.ine.add.PTCONT.85687",
      "street": "R CH√ÉO REDONDO",
      "house": "",
      "postcode": "3740-412",
      "city": "TALHADAS",
      "lon": "-8.31842019975066",
      "lat": "40.664679852430815"
    },
    {
      "id": "pt.ine.add.PTCONT.117381",
      "street": "R ESCOLA",
      "house": "",
      "postcode": "3740-412",
      "city": "TALHADAS",
      "lon": "-8.320774576954669",
      "lat": "40.66504526123412"
    },
    {
      "id": "pt.ine.add.PTCONT.207760",
      "street": "R FONTE",
      "house": "",
      "postcode": "3740-412",
      "city": "TALHADAS",
      "lon": "-8.319485327637723",
      "lat": "40.66496630303258"
    },
    {
      "id": "pt.ine.add.PTCONT.270273",
      "street": "R CHAO REDONDO",
      "house": "",
      "postcode": "3740-412",
      "city": "TALHADAS",
      "lon": "-8.318869806598691",
      "lat": "40.66476017637608"
    },
    {
      "id": "pt.ine.add.PTCONT.272903",
      "street": "",
      "house": "",
      "postcode": "3740-412",
      "city": "TALHADAS",
      "lon": "-8.306763207409501",
      "lat": "40.66596769868023"
    }
  ]
}