{
  "data": {
    "distrito": "Beja",
    "concelho": "Odemira",
    "freguesia": "Relíquias",
    "OBJECTID": 340,
    "BGRI2021": "02110200135",
    "DT21": "02",
    "DTMN21": "0211",
    "DTMNFR21": "021102",
    "DTMNFRSEC21": "021102001",
    "SECNUM21": "001",
    "SSNUM21": "35",
    "SECSSNUM21": "00135",
    "OBJECTID_1": 17359,
    "DT": "02",
    "CC": "11",
    "fr": "02",
    "SEC": "001",
    "SS": "35"
  },
  "addresses": [
    {
      "id": "pt.ine.add.PTCONT.457202",
      "street": "FOROS DA VENDA",
      "house": "",
      "postcode": "7630-392",
      "city": "RELÍQUIAS",
      "lon": "-8.497289580327427",
      "lat": "37.69039502195768"
    },
    {
      "id": "pt.ine.add.PTCONT.367625",
      "street": "CORGO DE ÁGUA",
      "house": "",
      "postcode": "7630-392",
      "city": "RELÍQUIAS",
      "lon": "-8.505994496890587",
      "lat": "37.69669263900612"
    },
    {
      "id": "pt.ine.add.PTCONT.370055",
      "street": "MTE DA VENDINHA",
      "house": "",
      "postcode": "7630-392",
      "city": "RELÍQUIAS",
      "lon": "-8.488809498251268",
      "lat": "37.6952591259659"
    },
    {
      "id": "pt.ine.add.PTCONT.372395",
      "street": "MTE SEISSAL",
      "house": "",
      "postcode": "7630-392",
      "city": "RELÍQUIAS",
      "lon": "-8.497342354805573",
      "lat": "37.69654849688125"
    },
    {
      "id": "pt.ine.add.PTCONT.389408",
      "street": "",
      "house": "",
      "postcode": "7630-392",
      "city": "RELÍQUIAS",
      "lon": "-8.491933786640852",
      "lat": "37.698898594807936"
    },
    {
      "id": "pt.ine.add.PTCONT.390977",
      "street": "MTE CERQUINHA",
      "house": "",
      "postcode": "7630-392",
      "city": "RELÍQUIAS",
      "lon": "-8.498682333734811",
      "lat": "37.690030323683295"
    },
    {
      "id": "pt.ine.add.PTCONT.392661",
      "street": "CORGO DE ÁGUA",
      "house": "",
      "postcode": "7630-392",
      "city": "RELÍQUIAS",
      "lon": "-8.505213218923176",
      "lat": "37.696911340060105"
    },
    {
      "id": "pt.ine.add.PTCONT.394998",
      "street": "MTE FORMIGUEIRO",
      "house": "",
      "postcode": "7630-392",
      "city": "RELÍQUIAS",
      "lon": "-8.503684261402814",
      "lat": "37.697267533659435"
    },
    {
      "id": "pt.ine.add.PTCONT.397405",
      "street": "QTA DA CERCA GRANDE",
      "house": "",
      "postcode": "7630-392",
      "city": "RELÍQUIAS",
      "lon": "-8.487006070649905",
      "lat": "37.697516981313036"
    },
    {
      "id": "pt.ine.add.PTCONT.399846",
      "street": "CORGO DE ÁGUA",
      "house": "",
      "postcode": "7630-392",
      "city": "RELÍQUIAS",
      "lon": "-8.506118453377805",
      "lat": "37.696539081865964"
    },
    {
      "id": "pt.ine.add.PTCONT.399909",
      "street": "MTE AGUA DA RAINHA",
      "house": "",
      "postcode": "7630-392",
      "city": "RELÍQUIAS",
      "lon": "-8.49711352294804",
      "lat": "37.700765748186285"
    },
    {
      "id": "pt.ine.add.PTCONT.400697",
      "street": "CORGO DE ÁGUA",
      "house": "",
      "postcode": "7630-392",
      "city": "RELÍQUIAS",
      "lon": "-8.502857884350021",
      "lat": "37.69754041910218"
    },
    {
      "id": "pt.ine.add.PTCONT.401501",
      "street": "MTE DO LAGAR",
      "house": "",
      "postcode": "7630-392",
      "city": "RELÍQUIAS",
      "lon": "-8.496425967398984",
      "lat": "37.70161478114678"
    },
    {
      "id": "pt.ine.add.PTCONT.402746",
      "street": "MTE CORREGO TRAVE",
      "house": "510",
      "postcode": "7630-398",
      "city": "RELÍQUIAS",
      "lon": "-8.504834959997684",
      "lat": "37.69155175225742"
    },
    {
      "id": "pt.ine.add.PTCONT.402747",
      "street": "R CERCAS LAGAR",
      "house": "RC",
      "postcode": "7630-392",
      "city": "RELÍQUIAS",
      "lon": "-8.498549555106814",
      "lat": "37.702247907927536"
    },
    {
      "id": "pt.ine.add.PTCONT.404006",
      "street": "MTE SOALHEIRA DA CABANA",
      "house": "",
      "postcode": "7630-392",
      "city": "RELÍQUIAS",
      "lon": "-8.497271090673127",
      "lat": "37.691251002724094"
    },
    {
      "id": "pt.ine.add.PTCONT.404812",
      "street": "MTE VENDA NOVA",
      "house": "",
      "postcode": "7630-392",
      "city": "RELÍQUIAS",
      "lon": "-8.49223762512656",
      "lat": "37.69371708328597"
    },
    {
      "id": "pt.ine.add.PTCONT.409720",
      "street": "MTE MOINHO VELHO",
      "house": "",
      "postcode": "7630-392",
      "city": "RELÍQUIAS",
      "lon": "-8.502741950717063",
      "lat": "37.68789137402699"
    },
    {
      "id": "pt.ine.add.PTCONT.409721",
      "street": "CORGO DE ÁGUA",
      "house": "",
      "postcode": "7630-392",
      "city": "RELÍQUIAS",
      "lon": "-8.501580940541476",
      "lat": "37.69841835815907"
    },
    {
      "id": "pt.ine.add.PTCONT.411356",
      "street": "CORGO DE ÁGUA",
      "house": "",
      "postcode": "7630-392",
      "city": "RELÍQUIAS",
      "lon": "-8.50516142650552",
      "lat": "37.695623114599165"
    },
    {
      "id": "pt.ine.add.PTCONT.412908",
      "street": "FOROS DA VENDA",
      "house": "",
      "postcode": "7630-392",
      "city": "RELÍQUIAS",
      "lon": "-8.499733574344292",
      "lat": "37.689387369745084"
    },
    {
      "id": "pt.ine.add.PTCONT.420138",
      "street": "MTE ÁGUA DA RAINHA NOVA",
      "house": "",
      "postcode": "7630-392",
      "city": "RELÍQUIAS",
      "lon": "-8.496305670980098",
      "lat": "37.69555161608698"
    },
    {
      "id": "pt.ine.add.PTCONT.420922",
      "street": "MTE DA CERQUINHA",
      "house": "",
      "postcode": "7630-392",
      "city": "RELÍQUIAS",
      "lon": "-8.4984465440665",
      "lat": "37.690499560013166"
    },
    {
      "id": "pt.ine.add.PTCONT.420927",
      "street": "MTE DO ALMO",
      "house": "",
      "postcode": "7630-392",
      "city": "RELÍQUIAS",
      "lon": "-8.498636907852134",
      "lat": "37.70156289954656"
    },
    {
      "id": "pt.ine.add.PTCONT.423092",
      "street": "MTE CORGO MEIO",
      "house": "",
      "postcode": "7630-392",
      "city": "RELÍQUIAS",
      "lon": "-8.500968333738978",
      "lat": "37.69835720288492"
    },
    {
      "id": "pt.ine.add.PTCONT.423417",
      "street": "CORGO DE ÁGUA",
      "house": "",
      "postcode": "7630-392",
      "city": "RELÍQUIAS",
      "lon": "-8.495956972209916",
      "lat": "37.70077832249894"
    },
    {
      "id": "pt.ine.add.PTCONT.424928",
      "street": "MTE SEISSAL DE CIMA",
      "house": "",
      "postcode": "7630-392",
      "city": "RELÍQUIAS",
      "lon": "-8.497368249643808",
      "lat": "37.69720612598351"
    },
    {
      "id": "pt.ine.add.PTCONT.429754",
      "street": "MTE VENDA NOVA",
      "house": "",
      "postcode": "7630-392",
      "city": "RELÍQUIAS",
      "lon": "-8.496170793342218",
      "lat": "37.69811979990322"
    },
    {
      "id": "pt.ine.add.PTCONT.430255",
      "street": "VENDA NOVA",
      "house": "21",
      "postcode": "7630-378",
      "city": "RELÍQUIAS",
      "lon": "-8.490256267157953",
      "lat": "37.69430873256669"
    },
    {
      "id": "pt.ine.add.PTCONT.430549",
      "street": "MTE MOINHO VELHO",
      "house": "",
      "postcode": "7630-392",
      "city": "RELÍQUIAS",
      "lon": "-8.50205207782431",
      "lat": "37.68823590391015"
    },
    {
      "id": "pt.ine.add.PTCONT.436383",
      "street": "MTE MOINHO VELHO",
      "house": "",
      "postcode": "7630-392",
      "city": "RELÍQUIAS",
      "lon": "-8.501914067758527",
      "lat": "37.68783990766012"
    },
    {
      "id": "pt.ine.add.PTCONT.436384",
      "street": "MTE ESTABAINHA",
      "house": "",
      "postcode": "7630-392",
      "city": "RELÍQUIAS",
      "lon": "-8.500579169600014",
      "lat": "37.699917095997364"
    },
    {
      "id": "pt.ine.add.PTCONT.439816",
      "street": "FOROS DA VENDA",
      "house": "",
      "postcode": "7630-392",
      "city": "RELÍQUIAS",
      "lon": "-8.498932688711488",
      "lat": "37.69021875150738"
    },
    {
      "id": "pt.ine.add.PTCONT.439818",
      "street": "CORGO DE ÁGUA",
      "house": "",
      "postcode": "7630-392",
      "city": "RELÍQUIAS",
      "lon": "-8.506007505043804",
      "lat": "37.69702595719125"
    },
    {
      "id": "pt.ine.add.PTCONT.447807",
      "street": "CORGO DE ÁGUA",
      "house": "",
      "postcode": "7630-392",
      "city": "RELÍQUIAS",
      "lon": "-8.502349029652851",
      "lat": "37.697821314627205"
    },
    {
      "id": "pt.ine.add.PTCONT.450175",
      "street": "FOROS DA VENDA",
      "house": "",
      "postcode": "7630-392",
      "city": "RELÍQUIAS",
      "lon": "-8.494387229183129",
      "lat": "37.69275548685498"
    },
    {
      "id": "pt.ine.add.PTCONT.450939",
      "street": "FOROS DA VENDA",
      "house": "",
      "postcode": "7630-392",
      "city": "RELÍQUIAS",
      "lon": "-8.500265056398167",
      "lat": "37.68910641476117"
    },
    {
      "id": "pt.ine.add.PTCONT.451040",
      "street": "EM 532",
      "house": "",
      "postcode": "7630-392",
      "city": "RELÍQUIAS",
      "lon": "-8.49203588003681",
      "lat": "37.69890729380287"
    }
  ]
}