{
  "data": {
    "distrito": "Beja",
    "concelho": "Castro Verde",
    "freguesia": "São Marcos da Ataboeira",
    "OBJECTID": 153,
    "BGRI2021": "02060500103",
    "DT21": "02",
    "DTMN21": "0206",
    "DTMNFR21": "020605",
    "DTMNFRSEC21": "020605001",
    "SECNUM21": "001",
    "SSNUM21": "03",
    "SECSSNUM21": "00103",
    "OBJECTID_1": 14505,
    "DT": "02",
    "CC": "06",
    "fr": "05",
    "SEC": "001",
    "SS": "03"
  },
  "addresses": [
    {
      "id": "pt.ine.add.PTCONT.458225",
      "street": "LG DO ALECRIM",
      "house": "6",
      "postcode": "7780-503",
      "city": "SÃO MARCOS DA ATABOEIRA",
      "lon": "-7.886619433178542",
      "lat": "37.671364799190044"
    },
    {
      "id": "pt.ine.add.PTCONT.359868",
      "street": "R DA ROSEIRA",
      "house": "6",
      "postcode": "7780-503",
      "city": "SÃO MARCOS DA ATABOEIRA",
      "lon": "-7.886800909276781",
      "lat": "37.671329139191755"
    },
    {
      "id": "pt.ine.add.PTCONT.359869",
      "street": "TV DAS LARANJEIRAS",
      "house": "3",
      "postcode": "7780-503",
      "city": "SÃO MARCOS DA ATABOEIRA",
      "lon": "-7.886880788761771",
      "lat": "37.67116712997262"
    },
    {
      "id": "pt.ine.add.PTCONT.367880",
      "street": "R DA ROSEIRA",
      "house": "3",
      "postcode": "7780-503",
      "city": "SÃO MARCOS DA ATABOEIRA",
      "lon": "-7.887104718379569",
      "lat": "37.672005506539286"
    },
    {
      "id": "pt.ine.add.PTCONT.367881",
      "street": "R DO LAVADOURO",
      "house": "7",
      "postcode": "7780-503",
      "city": "SÃO MARCOS DA ATABOEIRA",
      "lon": "-7.8866411673150045",
      "lat": "37.67177347585488"
    },
    {
      "id": "pt.ine.add.PTCONT.373647",
      "street": "R DA RIBEIRA",
      "house": "2",
      "postcode": "7780-503",
      "city": "SÃO MARCOS DA ATABOEIRA",
      "lon": "-7.886507724837663",
      "lat": "37.670869027892756"
    },
    {
      "id": "pt.ine.add.PTCONT.380068",
      "street": "R DA ROSEIRA",
      "house": "5",
      "postcode": "7780-503",
      "city": "SÃO MARCOS DA ATABOEIRA",
      "lon": "-7.887014217628095",
      "lat": "37.67195125908449"
    },
    {
      "id": "pt.ine.add.PTCONT.394389",
      "street": "LG DO ALECRIM",
      "house": "4",
      "postcode": "7780-503",
      "city": "SÃO MARCOS DA ATABOEIRA",
      "lon": "-7.886551275265936",
      "lat": "37.67140970562094"
    },
    {
      "id": "pt.ine.add.PTCONT.396048",
      "street": "TV DAS LARANJEIRAS",
      "house": "1",
      "postcode": "7780-503",
      "city": "SÃO MARCOS DA ATABOEIRA",
      "lon": "-7.8869602512697",
      "lat": "37.671131256719434"
    },
    {
      "id": "pt.ine.add.PTCONT.396806",
      "street": "TV DA OLIVEIRA",
      "house": "1",
      "postcode": "7780-503",
      "city": "SÃO MARCOS DA ATABOEIRA",
      "lon": "-7.8864506933113825",
      "lat": "37.670977025980186"
    },
    {
      "id": "pt.ine.add.PTCONT.400787",
      "street": "R DAS FLORES",
      "house": "",
      "postcode": "7780-503",
      "city": "SÃO MARCOS DA ATABOEIRA",
      "lon": "-7.886620476194802",
      "lat": "37.67104945914134"
    },
    {
      "id": "pt.ine.add.PTCONT.413185",
      "street": "R DA ROSEIRA",
      "house": "8",
      "postcode": "7780-503",
      "city": "SÃO MARCOS DA ATABOEIRA",
      "lon": "-7.886709962720911",
      "lat": "37.67141003723423"
    },
    {
      "id": "pt.ine.add.PTCONT.416647",
      "street": "LG DO ALECRIM",
      "house": "8",
      "postcode": "7780-503",
      "city": "SÃO MARCOS DA ATABOEIRA",
      "lon": "-7.8866877697632845",
      "lat": "37.671265834425604"
    },
    {
      "id": "pt.ine.add.PTCONT.427606",
      "street": "R DA ROSEIRA",
      "house": "4",
      "postcode": "7780-503",
      "city": "SÃO MARCOS DA ATABOEIRA",
      "lon": "-7.887037631197131",
      "lat": "37.671726063507656"
    },
    {
      "id": "pt.ine.add.PTCONT.431704",
      "street": "R DA ROSEIRA",
      "house": "2",
      "postcode": "7780-503",
      "city": "SÃO MARCOS DA ATABOEIRA",
      "lon": "-7.886845712580793",
      "lat": "37.671491408743414"
    },
    {
      "id": "pt.ine.add.PTCONT.434175",
      "street": "R DA ROSEIRA",
      "house": "11",
      "postcode": "7780-503",
      "city": "SÃO MARCOS DA ATABOEIRA",
      "lon": "-7.886754765874352",
      "lat": "37.671572306817694"
    },
    {
      "id": "pt.ine.add.PTCONT.434943",
      "street": "R DA ROSEIRA",
      "house": "7",
      "postcode": "7780-503",
      "city": "SÃO MARCOS DA ATABOEIRA",
      "lon": "-7.8869350816642125",
      "lat": "37.67188802550358"
    },
    {
      "id": "pt.ine.add.PTCONT.435948",
      "street": "R DA RIBEIRA",
      "house": "",
      "postcode": "7780-503",
      "city": "SÃO MARCOS DA ATABOEIRA",
      "lon": "-7.886745039452103",
      "lat": "37.671085758501285"
    },
    {
      "id": "pt.ine.add.PTCONT.441630",
      "street": "R DA ROSEIRA",
      "house": "1",
      "postcode": "7780-503",
      "city": "SÃO MARCOS DA ATABOEIRA",
      "lon": "-7.88732165662221",
      "lat": "37.671528440619035"
    },
    {
      "id": "pt.ine.add.PTCONT.452921",
      "street": "R DA ROSEIRA",
      "house": "7",
      "postcode": "7780-503",
      "city": "SÃO MARCOS DA ATABOEIRA",
      "lon": "-7.8867998074551275",
      "lat": "37.67166249865998"
    }
  ]
}