{
  "data": {
    "distrito": "Beja",
    "concelho": "Castro Verde",
    "freguesia": "São Marcos da Ataboeira",
    "OBJECTID": 39,
    "BGRI2021": "02060500110",
    "DT21": "02",
    "DTMN21": "0206",
    "DTMNFR21": "020605",
    "DTMNFRSEC21": "020605001",
    "SECNUM21": "001",
    "SSNUM21": "10",
    "SECSSNUM21": "00110",
    "OBJECTID_1": 14552,
    "DT": "02",
    "CC": "06",
    "fr": "05",
    "SEC": "001",
    "SS": "10"
  },
  "addresses": [
    {
      "id": "pt.ine.add.PTCONT.458370",
      "street": "R GONCALVES CORREIA",
      "house": "11",
      "postcode": "7780-536",
      "city": "SÃO MARCOS DA ATABOEIRA",
      "lon": "-7.941366229874176",
      "lat": "37.70688386652491"
    },
    {
      "id": "pt.ine.add.PTCONT.358289",
      "street": "R DOS MOINHOS",
      "house": "2",
      "postcode": "7780-534",
      "city": "SÃO MARCOS DA ATABOEIRA",
      "lon": "-7.941356119880288",
      "lat": "37.70640633427988"
    },
    {
      "id": "pt.ine.add.PTCONT.359856",
      "street": "R GONCALVES CORREIA",
      "house": "9",
      "postcode": "7780-536",
      "city": "SÃO MARCOS DA ATABOEIRA",
      "lon": "-7.94138925852415",
      "lat": "37.70674875799279"
    },
    {
      "id": "pt.ine.add.PTCONT.361390",
      "street": "R DA SOCIEDADE",
      "house": "12",
      "postcode": "7780-530",
      "city": "SÃO MARCOS DA ATABOEIRA",
      "lon": "-7.941671976585449",
      "lat": "37.70705554822767"
    },
    {
      "id": "pt.ine.add.PTCONT.362402",
      "street": "R MANUEL MARIA BATISTA",
      "house": "1",
      "postcode": "7780-539",
      "city": "SÃO MARCOS DA ATABOEIRA",
      "lon": "-7.941135382630772",
      "lat": "37.70692188587315"
    },
    {
      "id": "pt.ine.add.PTCONT.362403",
      "street": "R DO ESTANQUE",
      "house": "17 A",
      "postcode": "7780-532",
      "city": "SÃO MARCOS DA ATABOEIRA",
      "lon": "-7.941041714117131",
      "lat": "37.706785140391574"
    },
    {
      "id": "pt.ine.add.PTCONT.368763",
      "street": "R DA SOCIEDADE",
      "house": "14",
      "postcode": "7780-530",
      "city": "SÃO MARCOS DA ATABOEIRA",
      "lon": "-7.9416834790842845",
      "lat": "37.70699249878107"
    },
    {
      "id": "pt.ine.add.PTCONT.372629",
      "street": "R DO ESTANQUE",
      "house": "21",
      "postcode": "7780-532",
      "city": "SÃO MARCOS DA ATABOEIRA",
      "lon": "-7.9409126892769795",
      "lat": "37.706856098922"
    },
    {
      "id": "pt.ine.add.PTCONT.376471",
      "street": "LG DO FORNO",
      "house": "7",
      "postcode": "7780-525",
      "city": "SÃO MARCOS DA ATABOEIRA",
      "lon": "-7.941797043969328",
      "lat": "37.706929614975046"
    },
    {
      "id": "pt.ine.add.PTCONT.393610",
      "street": "R GONCALVES CORREIA",
      "house": "2",
      "postcode": "7780-536",
      "city": "SÃO MARCOS DA ATABOEIRA",
      "lon": "-7.941503449538797",
      "lat": "37.70644261271296"
    },
    {
      "id": "pt.ine.add.PTCONT.393611",
      "street": "R GONCALVES CORREIA",
      "house": "5",
      "postcode": "7780-536",
      "city": "SÃO MARCOS DA ATABOEIRA",
      "lon": "-7.941457740766081",
      "lat": "37.70657768441278"
    },
    {
      "id": "pt.ine.add.PTCONT.405980",
      "street": "R DO ESTANQUE",
      "house": "13 A",
      "postcode": "7780-532",
      "city": "SÃO MARCOS DA ATABOEIRA",
      "lon": "-7.941196939089496",
      "lat": "37.706568250487116"
    },
    {
      "id": "pt.ine.add.PTCONT.410022",
      "street": "R GONCALVES CORREIA",
      "house": "3",
      "postcode": "7780-536",
      "city": "SÃO MARCOS DA ATABOEIRA",
      "lon": "-7.9414830478618965",
      "lat": "37.706513752840664"
    },
    {
      "id": "pt.ine.add.PTCONT.415596",
      "street": "LG DO FORNO",
      "house": "3",
      "postcode": "7780-525",
      "city": "SÃO MARCOS DA ATABOEIRA",
      "lon": "-7.941729303543139",
      "lat": "37.7068123785313"
    },
    {
      "id": "pt.ine.add.PTCONT.416646",
      "street": "LG DO FORNO",
      "house": "5 A",
      "postcode": "7780-525",
      "city": "SÃO MARCOS DA ATABOEIRA",
      "lon": "-7.941899453579954",
      "lat": "37.706794635113795"
    },
    {
      "id": "pt.ine.add.PTCONT.421212",
      "street": "R GONCALVES CORREIA",
      "house": "4",
      "postcode": "7780-536",
      "city": "SÃO MARCOS DA ATABOEIRA",
      "lon": "-7.9413557020572805",
      "lat": "37.706568508783455"
    },
    {
      "id": "pt.ine.add.PTCONT.422842",
      "street": "R DA SOCIEDADE",
      "house": "10",
      "postcode": "7780-530",
      "city": "SÃO MARCOS DA ATABOEIRA",
      "lon": "-7.941686792906319",
      "lat": "37.70712779068618"
    },
    {
      "id": "pt.ine.add.PTCONT.436735",
      "street": "R DO ESTANQUE",
      "house": "15",
      "postcode": "7780-532",
      "city": "SÃO MARCOS DA ATABOEIRA",
      "lon": "-7.941146228776474",
      "lat": "37.706665448721004"
    },
    {
      "id": "pt.ine.add.PTCONT.436736",
      "street": "R GONCALVES CORREIA",
      "house": "5 A",
      "postcode": "7780-536",
      "city": "SÃO MARCOS DA ATABOEIRA",
      "lon": "-7.941423464878118",
      "lat": "37.70667673575011"
    },
    {
      "id": "pt.ine.add.PTCONT.437567",
      "street": "R DO ESTANQUE",
      "house": "17",
      "postcode": "7780-532",
      "city": "SÃO MARCOS DA ATABOEIRA",
      "lon": "-7.941071778314985",
      "lat": "37.70673022188641"
    },
    {
      "id": "pt.ine.add.PTCONT.441191",
      "street": "R DO ESTANQUE",
      "house": "13",
      "postcode": "7780-532",
      "city": "SÃO MARCOS DA ATABOEIRA",
      "lon": "-7.94123109909059",
      "lat": "37.70651424768735"
    },
    {
      "id": "pt.ine.add.PTCONT.442411",
      "street": "R GONCALVES CORREIA",
      "house": "13",
      "postcode": "7780-536",
      "city": "SÃO MARCOS DA ATABOEIRA",
      "lon": "-7.941354703910982",
      "lat": "37.70695592563496"
    },
    {
      "id": "pt.ine.add.PTCONT.442412",
      "street": "R DOS MOINHOS",
      "house": "1",
      "postcode": "7780-534",
      "city": "SÃO MARCOS DA ATABOEIRA",
      "lon": "-7.941707364485521",
      "lat": "37.70652403149096"
    },
    {
      "id": "pt.ine.add.PTCONT.443961",
      "street": "LG DO FORNO",
      "house": "5",
      "postcode": "7780-525",
      "city": "SÃO MARCOS DA ATABOEIRA",
      "lon": "-7.9418765878891575",
      "lat": "37.70686667588696"
    },
    {
      "id": "pt.ine.add.PTCONT.447270",
      "street": "R DO ESTANQUE",
      "house": "19",
      "postcode": "7780-532",
      "city": "SÃO MARCOS DA ATABOEIRA",
      "lon": "-7.941023654086189",
      "lat": "37.70684557618318"
    }
  ]
}