{
  "data": {
    "distrito": "Lisboa",
    "concelho": "Alenquer",
    "freguesia": "União das freguesias de Alenquer (Santo Estêvão e Triana)",
    "OBJECTID": 309,
    "BGRI2021": "11011901003",
    "DT21": "11",
    "DTMN21": "1101",
    "DTMNFR21": "110119",
    "DTMNFRSEC21": "110119010",
    "SECNUM21": "010",
    "SSNUM21": "03",
    "SECSSNUM21": "01003",
    "OBJECTID_1": 99043,
    "DT": "11",
    "CC": "01",
    "fr": "19",
    "SEC": "010",
    "SS": "03"
  },
  "addresses": [
    {
      "id": "pt.ine.add.PTCONT.2405401",
      "street": "CSL PARROTES CASA DOS CIPAESTES",
      "house": "",
      "postcode": "2580-356",
      "city": "ALENQUER",
      "lon": "-9.026684759789923",
      "lat": "39.04675249563142"
    },
    {
      "id": "pt.ine.add.PTCONT.2423550",
      "street": "CSL PARROTES",
      "house": "",
      "postcode": "2580-356",
      "city": "ALENQUER",
      "lon": "-9.026123004953426",
      "lat": "39.047090074044526"
    },
    {
      "id": "pt.ine.add.PTCONT.2531865",
      "street": "CSL VENDA",
      "house": "",
      "postcode": "2580-012",
      "city": "ALENQUER",
      "lon": "-9.024002611546223",
      "lat": "39.04105327946208"
    },
    {
      "id": "pt.ine.add.PTCONT.2531866",
      "street": "CSL VENDA",
      "house": "",
      "postcode": "2580-012",
      "city": "ALENQUER",
      "lon": "-9.024002611546223",
      "lat": "39.04105327946208"
    },
    {
      "id": "pt.ine.add.PTCONT.2657708",
      "street": "ESTR PRINCIPAL",
      "house": "54",
      "postcode": "2580-346",
      "city": "ALENQUER",
      "lon": "-9.039491248747165",
      "lat": "39.04465401849939"
    },
    {
      "id": "pt.ine.add.PTCONT.2665994",
      "street": "R PRINCIPAL",
      "house": "39",
      "postcode": "2580-346",
      "city": "ALENQUER",
      "lon": "-9.037140815883449",
      "lat": "39.044212881278725"
    },
    {
      "id": "pt.ine.add.PTCONT.2779611",
      "street": "CSL PARROTES",
      "house": "",
      "postcode": "2580-356",
      "city": "ALENQUER",
      "lon": "-9.026152324557625",
      "lat": "39.04666649930809"
    },
    {
      "id": "pt.ine.add.PTCONT.2817422",
      "street": "CSL GONCALEIRA",
      "house": "9",
      "postcode": "2580-346",
      "city": "ALENQUER",
      "lon": "-9.037989565340597",
      "lat": "39.04464766427551"
    },
    {
      "id": "pt.ine.add.PTCONT.2862629",
      "street": "CSL GONFALEIRA",
      "house": "4",
      "postcode": "2580-346",
      "city": "ALENQUER",
      "lon": "-9.037823044955248",
      "lat": "39.04427064325159"
    },
    {
      "id": "pt.ine.add.PTCONT.3073885",
      "street": "CSL LOCAS",
      "house": "",
      "postcode": "2580-346",
      "city": "ALENQUER",
      "lon": "-9.035765068393456",
      "lat": "39.045025200099936"
    },
    {
      "id": "pt.ine.add.PTCONT.3363294",
      "street": "QTA MASCOTE",
      "house": "",
      "postcode": "2580-379",
      "city": "ALENQUER",
      "lon": "-9.0274208399845",
      "lat": "39.05382670613021"
    },
    {
      "id": "pt.ine.add.PTCONT.3424227",
      "street": "CSL GONFALEIRA",
      "house": "6",
      "postcode": "2580-346",
      "city": "ALENQUER",
      "lon": "-9.037742197876456",
      "lat": "39.04427127036885"
    },
    {
      "id": "pt.ine.add.PTCONT.3424228",
      "street": "EM 523 CASA DA CEREJEIRA",
      "house": "",
      "postcode": "2580-346",
      "city": "ALENQUER",
      "lon": "-9.032887150181631",
      "lat": "39.04306579888373"
    }
  ]
}