{
  "data": {
    "distrito": "Setúbal",
    "concelho": "Sesimbra",
    "freguesia": "Quinta do Conde",
    "OBJECTID": 161,
    "BGRI2021": "15110301915",
    "DT21": "15",
    "DTMN21": "1511",
    "DTMNFR21": "151103",
    "DTMNFRSEC21": "151103019",
    "SECNUM21": "019",
    "SSNUM21": "15",
    "SECSSNUM21": "01915",
    "OBJECTID_1": 169735,
    "DT": "15",
    "CC": "11",
    "fr": "03",
    "SEC": "019",
    "SS": "15"
  },
  "addresses": [
    {
      "id": "pt.ine.add.PTCONT.4701722",
      "street": "AV ALM REIS",
      "house": "",
      "postcode": "2865-215",
      "city": "FERNÃO FERRO",
      "lon": "-9.054430102532036",
      "lat": "38.54967471591874"
    },
    {
      "id": "pt.ine.add.PTCONT.4716041",
      "street": "R ILHA GRACIOSA",
      "house": "1215",
      "postcode": "2865-322",
      "city": "FERNÃO FERRO",
      "lon": "-9.054896377251692",
      "lat": "38.55025657739911"
    },
    {
      "id": "pt.ine.add.PTCONT.4738427",
      "street": "AV ALM REIS",
      "house": "",
      "postcode": "2865-215",
      "city": "FERNÃO FERRO",
      "lon": "-9.054951657275339",
      "lat": "38.55009399477797"
    },
    {
      "id": "pt.ine.add.PTCONT.4756627",
      "street": "AV ALM REIS",
      "house": "",
      "postcode": "2865-215",
      "city": "FERNÃO FERRO",
      "lon": "-9.053741329407874",
      "lat": "38.5496350936716"
    },
    {
      "id": "pt.ine.add.PTCONT.4788453",
      "street": "R ILHA GRACIOSA",
      "house": "",
      "postcode": "2865-322",
      "city": "FERNÃO FERRO",
      "lon": "-9.055012573279589",
      "lat": "38.55037276879992"
    },
    {
      "id": "pt.ine.add.PTCONT.4792128",
      "street": "AV ALM REIS",
      "house": "1206",
      "postcode": "2865-215",
      "city": "FERNÃO FERRO",
      "lon": "-9.054085888247108",
      "lat": "38.54966841622611"
    },
    {
      "id": "pt.ine.add.PTCONT.4794352",
      "street": "AV ALM REIS",
      "house": "",
      "postcode": "2865-215",
      "city": "FERNÃO FERRO",
      "lon": "-9.055124513194237",
      "lat": "38.550155690776485"
    },
    {
      "id": "pt.ine.add.PTCONT.4805749",
      "street": "AV ALM REIS",
      "house": "",
      "postcode": "2865-215",
      "city": "FERNÃO FERRO",
      "lon": "-9.053522251513606",
      "lat": "38.54954673447584"
    },
    {
      "id": "pt.ine.add.PTCONT.4805750",
      "street": "AV ALM REIS",
      "house": "",
      "postcode": "2865-215",
      "city": "FERNÃO FERRO",
      "lon": "-9.054212747549954",
      "lat": "38.54972146725135"
    },
    {
      "id": "pt.ine.add.PTCONT.4888058",
      "street": "AV ALM REIS",
      "house": "",
      "postcode": "2865-215",
      "city": "FERNÃO FERRO",
      "lon": "-9.05391395344891",
      "lat": "38.5496787769237"
    },
    {
      "id": "pt.ine.add.PTCONT.4919871",
      "street": "R ILHA GRACIOSA",
      "house": "",
      "postcode": "2865-322",
      "city": "FERNÃO FERRO",
      "lon": "-9.055094014255593",
      "lat": "38.55046220925819"
    },
    {
      "id": "pt.ine.add.PTCONT.4927058",
      "street": "R ILHA GRACIOSA",
      "house": "",
      "postcode": "2865-322",
      "city": "FERNÃO FERRO",
      "lon": "-9.055336152112131",
      "lat": "38.550559391999265"
    },
    {
      "id": "pt.ine.add.PTCONT.4927059",
      "street": "R ILHA GRACIOSA",
      "house": "",
      "postcode": "2865-322",
      "city": "FERNÃO FERRO",
      "lon": "-9.055336152112131",
      "lat": "38.550559391999265"
    },
    {
      "id": "pt.ine.add.PTCONT.4955866",
      "street": "R ILHA GRACIOSA",
      "house": "",
      "postcode": "2865-215",
      "city": "FERNÃO FERRO",
      "lon": "-9.053720112390588",
      "lat": "38.54977038331822"
    },
    {
      "id": "pt.ine.add.PTCONT.4955867",
      "street": "AV ALM REIS",
      "house": "",
      "postcode": "2865-215",
      "city": "FERNÃO FERRO",
      "lon": "-9.055172119085293",
      "lat": "38.550290438589315"
    },
    {
      "id": "pt.ine.add.PTCONT.4974057",
      "street": "R ILHA GRACIOSA",
      "house": "",
      "postcode": "2865-322",
      "city": "FERNÃO FERRO",
      "lon": "-9.054168591379359",
      "lat": "38.54985693746217"
    },
    {
      "id": "pt.ine.add.PTCONT.4981234",
      "street": "AV ALM REIS",
      "house": "",
      "postcode": "2865-215",
      "city": "FERNÃO FERRO",
      "lon": "-9.055310680473523",
      "lat": "38.55036141260724"
    },
    {
      "id": "pt.ine.add.PTCONT.5020718",
      "street": "R ILHA GRACIOSA",
      "house": "",
      "postcode": "2865-322",
      "city": "FERNÃO FERRO",
      "lon": "-9.054353145982267",
      "lat": "38.549936558934675"
    },
    {
      "id": "pt.ine.add.PTCONT.5029107",
      "street": "AV ALM REIS",
      "house": "1204",
      "postcode": "2865-215",
      "city": "FERNÃO FERRO",
      "lon": "-9.053614126048855",
      "lat": "38.54955502027823"
    },
    {
      "id": "pt.ine.add.PTCONT.5047880",
      "street": "R ILHA GRACIOSA",
      "house": "",
      "postcode": "2865-322",
      "city": "FERNÃO FERRO",
      "lon": "-9.054630036130888",
      "lat": "38.55006049422639"
    },
    {
      "id": "pt.ine.add.PTCONT.5065509",
      "street": "R ILHA GRACIOSA",
      "house": "",
      "postcode": "2865-322",
      "city": "FERNÃO FERRO",
      "lon": "-9.054745426469426",
      "lat": "38.55011363494702"
    },
    {
      "id": "pt.ine.add.PTCONT.4664146",
      "street": "R ILHA DO FAIAL",
      "house": "",
      "postcode": "2975-243",
      "city": "QUINTA DO CONDE",
      "lon": "-9.053294804030156",
      "lat": "38.54970166169453"
    },
    {
      "id": "pt.ine.add.PTCONT.4858886",
      "street": "R ILHA DO FAIAL",
      "house": "",
      "postcode": "2975-243",
      "city": "QUINTA DO CONDE",
      "lon": "-9.05328149712677",
      "lat": "38.54955763530585"
    },
    {
      "id": "pt.ine.add.PTCONT.4899363",
      "street": "R ILHA GRACIOSA",
      "house": "",
      "postcode": "2975-236",
      "city": "QUINTA DO CONDE",
      "lon": "-9.053536247930108",
      "lat": "38.54974480453183"
    }
  ]
}