{
  "data": {
    "distrito": "Santarém",
    "concelho": "Benavente",
    "freguesia": "Benavente",
    "OBJECTID": 334,
    "BGRI2021": "14050100403",
    "DT21": "14",
    "DTMN21": "1405",
    "DTMNFR21": "140501",
    "DTMNFRSEC21": "140501004",
    "SECNUM21": "004",
    "SSNUM21": "03",
    "SECSSNUM21": "00403",
    "OBJECTID_1": 149268,
    "DT": "14",
    "CC": "05",
    "fr": "01",
    "SEC": "004",
    "SS": "03"
  },
  "addresses": [
    {
      "id": "pt.ine.add.PTCONT.4405464",
      "street": "R SESMARIAS S SEBASTIÃO",
      "house": "",
      "postcode": "2130-341",
      "city": "BENAVENTE",
      "lon": "-8.811426544499515",
      "lat": "38.963180251025356"
    },
    {
      "id": "pt.ine.add.PTCONT.4412371",
      "street": "R SESMARIAS S SEBASTIÃO",
      "house": "55",
      "postcode": "2130-341",
      "city": "BENAVENTE",
      "lon": "-8.811656082328717",
      "lat": "38.96305280917667"
    },
    {
      "id": "pt.ine.add.PTCONT.4418393",
      "street": "R PIONEIROS FARRUZINAS",
      "house": "",
      "postcode": "2130-340",
      "city": "BENAVENTE",
      "lon": "-8.810816245230697",
      "lat": "38.96451693266193"
    },
    {
      "id": "pt.ine.add.PTCONT.4438981",
      "street": "R SESMARIAS S SEBASTIÃO",
      "house": "54 A",
      "postcode": "2130-341",
      "city": "BENAVENTE",
      "lon": "-8.81225058936192",
      "lat": "38.96248186739016"
    },
    {
      "id": "pt.ine.add.PTCONT.4456817",
      "street": "R PIONEIROS",
      "house": "75",
      "postcode": "2130-340",
      "city": "BENAVENTE",
      "lon": "-8.812432234726248",
      "lat": "38.964588606179355"
    },
    {
      "id": "pt.ine.add.PTCONT.4468798",
      "street": "R SESMARIAS S SEBASTIÃO",
      "house": "57",
      "postcode": "2130-341",
      "city": "BENAVENTE",
      "lon": "-8.810772022496222",
      "lat": "38.963508329849574"
    },
    {
      "id": "pt.ine.add.PTCONT.4474161",
      "street": "R SESMARIAS S SEBASTIÃO",
      "house": "55 A",
      "postcode": "2130-341",
      "city": "BENAVENTE",
      "lon": "-8.811501634293872",
      "lat": "38.96258530789913"
    },
    {
      "id": "pt.ine.add.PTCONT.4500633",
      "street": "R SESMARIAS S SEBASTIAO",
      "house": "",
      "postcode": "2130-341",
      "city": "BENAVENTE",
      "lon": "-8.810487283501953",
      "lat": "38.96389731297054"
    },
    {
      "id": "pt.ine.add.PTCONT.4520015",
      "street": "R SESMARIAS S SEBASTIAO",
      "house": "54",
      "postcode": "2130-341",
      "city": "BENAVENTE",
      "lon": "-8.811775599080763",
      "lat": "38.96227745400291"
    },
    {
      "id": "pt.ine.add.PTCONT.4540992",
      "street": "R PIONEIROS",
      "house": "",
      "postcode": "2130-340",
      "city": "BENAVENTE",
      "lon": "-8.809681082234677",
      "lat": "38.96526214853169"
    },
    {
      "id": "pt.ine.add.PTCONT.4575499",
      "street": "R POMBOS",
      "house": "",
      "postcode": "2130-340",
      "city": "BENAVENTE",
      "lon": "-8.814072560189373",
      "lat": "38.96238117363898"
    },
    {
      "id": "pt.ine.add.PTCONT.4586077",
      "street": "R POMBOS",
      "house": "",
      "postcode": "2130-340",
      "city": "BENAVENTE",
      "lon": "-8.812414417949373",
      "lat": "38.96393114968098"
    },
    {
      "id": "pt.ine.add.PTCONT.4586078",
      "street": "R SESMARIAS S SEBASTIÃO",
      "house": "53",
      "postcode": "2130-341",
      "city": "BENAVENTE",
      "lon": "-8.81201555273045",
      "lat": "38.962032851058616"
    },
    {
      "id": "pt.ine.add.PTCONT.4608995",
      "street": "R PIONEIROS",
      "house": "60",
      "postcode": "2130-340",
      "city": "BENAVENTE",
      "lon": "-8.81055440558614",
      "lat": "38.964887767560796"
    },
    {
      "id": "pt.ine.add.PTCONT.4627835",
      "street": "R SESMARIAS S SEBASTIÃO",
      "house": "54",
      "postcode": "2130-341",
      "city": "BENAVENTE",
      "lon": "-8.81255175375466",
      "lat": "38.962606221880705"
    },
    {
      "id": "pt.ine.add.PTCONT.4643512",
      "street": "R POMBOS",
      "house": "",
      "postcode": "2130-340",
      "city": "BENAVENTE",
      "lon": "-8.813970279894184",
      "lat": "38.96254390857204"
    },
    {
      "id": "pt.ine.add.PTCONT.4647564",
      "street": "R SESMARIAS S SEBASTIÃO",
      "house": "56 A",
      "postcode": "2130-341",
      "city": "BENAVENTE",
      "lon": "-8.811136573184017",
      "lat": "38.96301979790861"
    }
  ]
}