{
  "data": {
    "distrito": "Santarém",
    "concelho": "Benavente",
    "freguesia": "Benavente",
    "OBJECTID": 97,
    "BGRI2021": "14050100419",
    "DT21": "14",
    "DTMN21": "1405",
    "DTMNFR21": "140501",
    "DTMNFRSEC21": "140501004",
    "SECNUM21": "004",
    "SSNUM21": "19",
    "SECSSNUM21": "00419",
    "OBJECTID_1": 149000,
    "DT": "14",
    "CC": "05",
    "fr": "01",
    "SEC": "004",
    "SS": "19"
  },
  "addresses": [
    {
      "id": "pt.ine.add.PTCONT.4392363",
      "street": "R CEGONHAS",
      "house": "1",
      "postcode": "2130-350",
      "city": "BENAVENTE",
      "lon": "-8.80608717221617",
      "lat": "38.97076860039358"
    },
    {
      "id": "pt.ine.add.PTCONT.4392364",
      "street": "TV E DA QTA PORTAO DE FERRO",
      "house": "96",
      "postcode": "2130-320",
      "city": "BENAVENTE",
      "lon": "-8.807981590073538",
      "lat": "38.973414920894726"
    },
    {
      "id": "pt.ine.add.PTCONT.4393510",
      "street": "R ÁLVARO RODRIGUES DE AZEVEDO",
      "house": "64",
      "postcode": "2130-184",
      "city": "BENAVENTE",
      "lon": "-8.80530984725172",
      "lat": "38.97276377463931"
    },
    {
      "id": "pt.ine.add.PTCONT.4393531",
      "street": "R CANAVIAL",
      "house": "",
      "postcode": "2130-371",
      "city": "BENAVENTE",
      "lon": "-8.806009387282568",
      "lat": "38.97108431727291"
    },
    {
      "id": "pt.ine.add.PTCONT.4393539",
      "street": "R CEGONHAS",
      "house": "10",
      "postcode": "2130-350",
      "city": "BENAVENTE",
      "lon": "-8.804993588454025",
      "lat": "38.971045131892765"
    },
    {
      "id": "pt.ine.add.PTCONT.4395586",
      "street": "R ÁLVARO RODRIGUES DE AZEVEDO",
      "house": "10",
      "postcode": "2130-184",
      "city": "BENAVENTE",
      "lon": "-8.805791791729847",
      "lat": "38.973697794427686"
    },
    {
      "id": "pt.ine.add.PTCONT.4395625",
      "street": "R AMOREIRA",
      "house": "23",
      "postcode": "2130-350",
      "city": "BENAVENTE",
      "lon": "-8.804104627186197",
      "lat": "38.97099620075831"
    },
    {
      "id": "pt.ine.add.PTCONT.4399766",
      "street": "R CANAVIAL",
      "house": "3",
      "postcode": "2130-371",
      "city": "BENAVENTE",
      "lon": "-8.804202713861702",
      "lat": "38.97160815805044"
    },
    {
      "id": "pt.ine.add.PTCONT.4401794",
      "street": "TV E DA QTA PORTAO DE FERRO",
      "house": "98",
      "postcode": "2130-320",
      "city": "BENAVENTE",
      "lon": "-8.80778585939401",
      "lat": "38.973461091004395"
    },
    {
      "id": "pt.ine.add.PTCONT.4404148",
      "street": "R VASCO DA GAMA",
      "house": "7",
      "postcode": "2130-197",
      "city": "BENAVENTE",
      "lon": "-8.807918596884877",
      "lat": "38.97285681012106"
    },
    {
      "id": "pt.ine.add.PTCONT.4404149",
      "street": "TV B DA QTA PORTAO DE FERRO",
      "house": "46",
      "postcode": "2130-323",
      "city": "BENAVENTE",
      "lon": "-8.806805306753736",
      "lat": "38.97470981330596"
    },
    {
      "id": "pt.ine.add.PTCONT.4406038",
      "street": "R CANICAIS",
      "house": "17",
      "postcode": "2130-233",
      "city": "BENAVENTE",
      "lon": "-8.801965853029904",
      "lat": "38.96688296566134"
    },
    {
      "id": "pt.ine.add.PTCONT.4409259",
      "street": "R ALECRIM",
      "house": "10",
      "postcode": "2130-325",
      "city": "BENAVENTE",
      "lon": "-8.80758268620558",
      "lat": "38.975155705696984"
    },
    {
      "id": "pt.ine.add.PTCONT.4409260",
      "street": "R CANAVIAL",
      "house": "",
      "postcode": "2130-371",
      "city": "BENAVENTE",
      "lon": "-8.805562458578896",
      "lat": "38.97141116951056"
    },
    {
      "id": "pt.ine.add.PTCONT.4409261",
      "street": "R CAMELIAS",
      "house": "12",
      "postcode": "2130-233",
      "city": "BENAVENTE",
      "lon": "-8.804623765819047",
      "lat": "38.967318085355366"
    },
    {
      "id": "pt.ine.add.PTCONT.4410249",
      "street": "R PACO EQUESTRE",
      "house": "",
      "postcode": "2130-317",
      "city": "BENAVENTE",
      "lon": "-8.805530824396834",
      "lat": "38.97172662009434"
    },
    {
      "id": "pt.ine.add.PTCONT.4411828",
      "street": "R CEGONHAS",
      "house": "7",
      "postcode": "2130-350",
      "city": "BENAVENTE",
      "lon": "-8.805385125212474",
      "lat": "38.970961807937776"
    },
    {
      "id": "pt.ine.add.PTCONT.4412243",
      "street": "R VASCO DA GAMA",
      "house": "25",
      "postcode": "2130-197",
      "city": "BENAVENTE",
      "lon": "-8.807605435700454",
      "lat": "38.97147144037772"
    },
    {
      "id": "pt.ine.add.PTCONT.4414821",
      "street": "R ALECRIM",
      "house": "11",
      "postcode": "2130-325",
      "city": "BENAVENTE",
      "lon": "-8.807524478657282",
      "lat": "38.97510199616145"
    },
    {
      "id": "pt.ine.add.PTCONT.4414822",
      "street": "R AMOREIRA",
      "house": "38",
      "postcode": "2130-350",
      "city": "BENAVENTE",
      "lon": "-8.804596862663429",
      "lat": "38.970579016701365"
    },
    {
      "id": "pt.ine.add.PTCONT.4414823",
      "street": "R AMOREIRA",
      "house": "16",
      "postcode": "2130-350",
      "city": "BENAVENTE",
      "lon": "-8.805094965098503",
      "lat": "38.97078332582841"
    },
    {
      "id": "pt.ine.add.PTCONT.4414824",
      "street": "TV E",
      "house": "100",
      "postcode": "2130-320",
      "city": "BENAVENTE",
      "lon": "-8.807601838055099",
      "lat": "38.9735252084302"
    },
    {
      "id": "pt.ine.add.PTCONT.4414825",
      "street": "TV E",
      "house": "100",
      "postcode": "2130-320",
      "city": "BENAVENTE",
      "lon": "-8.807601838055099",
      "lat": "38.9735252084302"
    },
    {
      "id": "pt.ine.add.PTCONT.4416018",
      "street": "R VASCO DA GAMA",
      "house": "1",
      "postcode": "2130-197",
      "city": "BENAVENTE",
      "lon": "-8.808025693077582",
      "lat": "38.97319848193827"
    },
    {
      "id": "pt.ine.add.PTCONT.4416019",
      "street": "R VASCO DA GAMA",
      "house": "1",
      "postcode": "2130-197",
      "city": "BENAVENTE",
      "lon": "-8.808025693077582",
      "lat": "38.97319848193827"
    },
    {
      "id": "pt.ine.add.PTCONT.4418307",
      "street": "R AMOREIRA",
      "house": "29",
      "postcode": "2130-350",
      "city": "BENAVENTE",
      "lon": "-8.805679328604505",
      "lat": "38.97034759133041"
    },
    {
      "id": "pt.ine.add.PTCONT.4420308",
      "street": "R VASCO DA GAMA",
      "house": "27",
      "postcode": "2130-197",
      "city": "BENAVENTE",
      "lon": "-8.807603556175593",
      "lat": "38.971273282608394"
    },
    {
      "id": "pt.ine.add.PTCONT.4422374",
      "street": "TV A DA QTA PORTAO DE FERRO",
      "house": "34",
      "postcode": "2130-324",
      "city": "BENAVENTE",
      "lon": "-8.807071128733561",
      "lat": "38.97475331664785"
    },
    {
      "id": "pt.ine.add.PTCONT.4422380",
      "street": "TV B DA QTA PORTAO DE FERRO",
      "house": "47",
      "postcode": "2130-323",
      "city": "BENAVENTE",
      "lon": "-8.806736414578301",
      "lat": "38.97474624165866"
    },
    {
      "id": "pt.ine.add.PTCONT.4424363",
      "street": "R ÁLVARO RODRIGUES AZEVEDO",
      "house": "4",
      "postcode": "2130-184",
      "city": "BENAVENTE",
      "lon": "-8.80730626291282",
      "lat": "38.97521134903341"
    },
    {
      "id": "pt.ine.add.PTCONT.4424422",
      "street": "R MAGNOLIA",
      "house": "18",
      "postcode": "2130-351",
      "city": "BENAVENTE",
      "lon": "-8.803401538141854",
      "lat": "38.96863122437886"
    },
    {
      "id": "pt.ine.add.PTCONT.4424436",
      "street": "R BRASILEIRA",
      "house": "1",
      "postcode": "2130-342",
      "city": "BENAVENTE",
      "lon": "-8.807388871509303",
      "lat": "38.96931985956831"
    },
    {
      "id": "pt.ine.add.PTCONT.4426525",
      "street": "R ÁLVARO RODRIGUES DE AZEVEDO",
      "house": "56",
      "postcode": "2130-184",
      "city": "BENAVENTE",
      "lon": "-8.805509921466625",
      "lat": "38.9731769744918"
    },
    {
      "id": "pt.ine.add.PTCONT.4426538",
      "street": "R VASCO DA GAMA",
      "house": "11",
      "postcode": "2130-197",
      "city": "BENAVENTE",
      "lon": "-8.807847313964068",
      "lat": "38.97264103839739"
    },
    {
      "id": "pt.ine.add.PTCONT.4429350",
      "street": "R AMOREIRA",
      "house": "42",
      "postcode": "2130-350",
      "city": "BENAVENTE",
      "lon": "-8.804124559171935",
      "lat": "38.97066280245802"
    },
    {
      "id": "pt.ine.add.PTCONT.4431164",
      "street": "R HERMINIA SILVA",
      "house": "16",
      "postcode": "2130-373",
      "city": "BENAVENTE",
      "lon": "-8.805970459034917",
      "lat": "38.969409115584625"
    },
    {
      "id": "pt.ine.add.PTCONT.4431165",
      "street": "R ROSA",
      "house": "12",
      "postcode": "2130-316",
      "city": "BENAVENTE",
      "lon": "-8.806493424299637",
      "lat": "38.969802436466985"
    },
    {
      "id": "pt.ine.add.PTCONT.4435855",
      "street": "R AMOREIRA",
      "house": "47",
      "postcode": "2130-350",
      "city": "BENAVENTE",
      "lon": "-8.803594987745559",
      "lat": "38.970791953694075"
    },
    {
      "id": "pt.ine.add.PTCONT.4435957",
      "street": "R PACO EQUESTRE",
      "house": "",
      "postcode": "2130-317",
      "city": "BENAVENTE",
      "lon": "-8.806982533264295",
      "lat": "38.971493054402046"
    },
    {
      "id": "pt.ine.add.PTCONT.4436972",
      "street": "R CANICAIS",
      "house": "16",
      "postcode": "2130-233",
      "city": "BENAVENTE",
      "lon": "-8.802829989982126",
      "lat": "38.96675190227414"
    },
    {
      "id": "pt.ine.add.PTCONT.4436973",
      "street": "TV E DA QTA PORTAO DE FERRO",
      "house": "95",
      "postcode": "2130-320",
      "city": "BENAVENTE",
      "lon": "-8.808096549614332",
      "lat": "38.973369217686205"
    },
    {
      "id": "pt.ine.add.PTCONT.4438835",
      "street": "R VASCO DA GAMA",
      "house": "23",
      "postcode": "2130-197",
      "city": "BENAVENTE",
      "lon": "-8.807630562963473",
      "lat": "38.97168747909552"
    },
    {
      "id": "pt.ine.add.PTCONT.4438896",
      "street": "R ROSA",
      "house": "5",
      "postcode": "2130-316",
      "city": "BENAVENTE",
      "lon": "-8.806968450285304",
      "lat": "38.97000687078076"
    },
    {
      "id": "pt.ine.add.PTCONT.4444000",
      "street": "R CANAVIAL",
      "house": "11",
      "postcode": "2130-371",
      "city": "BENAVENTE",
      "lon": "-8.805482030535769",
      "lat": "38.97144766360953"
    },
    {
      "id": "pt.ine.add.PTCONT.4444001",
      "street": "R MAGNOLIA",
      "house": "",
      "postcode": "2130-351",
      "city": "BENAVENTE",
      "lon": "-8.803145839659498",
      "lat": "38.9696595671956"
    },
    {
      "id": "pt.ine.add.PTCONT.4449148",
      "street": "R VASCO DA GAMA",
      "house": "43",
      "postcode": "2130-197",
      "city": "BENAVENTE",
      "lon": "-8.80764287928686",
      "lat": "38.96933640696598"
    },
    {
      "id": "pt.ine.add.PTCONT.4451236",
      "street": "R AMOREIRA",
      "house": "37",
      "postcode": "2130-350",
      "city": "BENAVENTE",
      "lon": "-8.80479275773383",
      "lat": "38.970550866325475"
    },
    {
      "id": "pt.ine.add.PTCONT.4451237",
      "street": "R AMOREIRA",
      "house": "45",
      "postcode": "2130-350",
      "city": "BENAVENTE",
      "lon": "-8.803790713926178",
      "lat": "38.970745790633735"
    },
    {
      "id": "pt.ine.add.PTCONT.4453295",
      "street": "TV E DA QTA PORTAO DE FERRO",
      "house": "99",
      "postcode": "2130-320",
      "city": "BENAVENTE",
      "lon": "-8.80769397694259",
      "lat": "38.97350666050512"
    },
    {
      "id": "pt.ine.add.PTCONT.4461568",
      "street": "R ÁLVARO RODRIGUES DE AZEVEDO",
      "house": "68",
      "postcode": "2130-184",
      "city": "BENAVENTE",
      "lon": "-8.805132767347226",
      "lat": "38.972341434325386"
    },
    {
      "id": "pt.ine.add.PTCONT.4463735",
      "street": "R AMOREIRA",
      "house": "49",
      "postcode": "2130-350",
      "city": "BENAVENTE",
      "lon": "-8.803353108115175",
      "lat": "38.970838381517915"
    },
    {
      "id": "pt.ine.add.PTCONT.4465830",
      "street": "R AMOREIRA",
      "house": "44",
      "postcode": "2130-350",
      "city": "BENAVENTE",
      "lon": "-8.803928748478398",
      "lat": "38.97069995889586"
    },
    {
      "id": "pt.ine.add.PTCONT.4468668",
      "street": "R MAGNOLIA",
      "house": "12",
      "postcode": "2130-351",
      "city": "BENAVENTE",
      "lon": "-8.804589548537889",
      "lat": "38.96980439933021"
    },
    {
      "id": "pt.ine.add.PTCONT.4468669",
      "street": "R ROSA",
      "house": "17",
      "postcode": "2130-316",
      "city": "BENAVENTE",
      "lon": "-8.807300921994758",
      "lat": "38.96977975877898"
    },
    {
      "id": "pt.ine.add.PTCONT.4470184",
      "street": "R ÁLVARO RODRIGUES AZEVEDO",
      "house": "5",
      "postcode": "2130-184",
      "city": "BENAVENTE",
      "lon": "-8.807259594514678",
      "lat": "38.97515757269701"
    },
    {
      "id": "pt.ine.add.PTCONT.4470185",
      "street": "R AMOREIRA",
      "house": "48",
      "postcode": "2130-350",
      "city": "BENAVENTE",
      "lon": "-8.80350293616111",
      "lat": "38.97081950554936"
    },
    {
      "id": "pt.ine.add.PTCONT.4473085",
      "street": "R PACO EQUESTRE",
      "house": "29",
      "postcode": "2130-317",
      "city": "BENAVENTE",
      "lon": "-8.805774835611672",
      "lat": "38.971905367101236"
    },
    {
      "id": "pt.ine.add.PTCONT.4473086",
      "street": "R PACO EQUESTRE",
      "house": "29",
      "postcode": "2130-317",
      "city": "BENAVENTE",
      "lon": "-8.805774835611672",
      "lat": "38.971905367101236"
    },
    {
      "id": "pt.ine.add.PTCONT.4473087",
      "street": "R PACO EQUESTRE",
      "house": "29",
      "postcode": "2130-317",
      "city": "BENAVENTE",
      "lon": "-8.805774835611672",
      "lat": "38.971905367101236"
    },
    {
      "id": "pt.ine.add.PTCONT.4473088",
      "street": "R PACO EQUESTRE",
      "house": "29",
      "postcode": "2130-317",
      "city": "BENAVENTE",
      "lon": "-8.805774835611672",
      "lat": "38.971905367101236"
    },
    {
      "id": "pt.ine.add.PTCONT.4473089",
      "street": "R PACO EQUESTRE",
      "house": "29",
      "postcode": "2130-317",
      "city": "BENAVENTE",
      "lon": "-8.805774835611672",
      "lat": "38.971905367101236"
    },
    {
      "id": "pt.ine.add.PTCONT.4473974",
      "street": "R ALVARO RODRIGUES DE AZEVEDO",
      "house": "12",
      "postcode": "2130-184",
      "city": "BENAVENTE",
      "lon": "-8.805745210682772",
      "lat": "38.97365302462403"
    },
    {
      "id": "pt.ine.add.PTCONT.4474027",
      "street": "R CANAVIAL",
      "house": "9",
      "postcode": "2130-371",
      "city": "BENAVENTE",
      "lon": "-8.80525211404683",
      "lat": "38.97153906476755"
    },
    {
      "id": "pt.ine.add.PTCONT.4474028",
      "street": "R CANAVIAL",
      "house": "",
      "postcode": "2130-371",
      "city": "BENAVENTE",
      "lon": "-8.80585990023651",
      "lat": "38.971139225157685"
    },
    {
      "id": "pt.ine.add.PTCONT.4474041",
      "street": "R AMOREIRA",
      "house": "36",
      "postcode": "2130-350",
      "city": "BENAVENTE",
      "lon": "-8.804884808457563",
      "lat": "38.970523313458926"
    },
    {
      "id": "pt.ine.add.PTCONT.4474079",
      "street": "R PACO EQUESTRE",
      "house": "27",
      "postcode": "2130-317",
      "city": "BENAVENTE",
      "lon": "-8.805671500561223",
      "lat": "38.971960008699746"
    },
    {
      "id": "pt.ine.add.PTCONT.4474080",
      "street": "R PACO EQUESTRE",
      "house": "27",
      "postcode": "2130-317",
      "city": "BENAVENTE",
      "lon": "-8.805671500561223",
      "lat": "38.971960008699746"
    },
    {
      "id": "pt.ine.add.PTCONT.4474081",
      "street": "R PACO EQUESTRE",
      "house": "27",
      "postcode": "2130-317",
      "city": "BENAVENTE",
      "lon": "-8.805671500561223",
      "lat": "38.971960008699746"
    },
    {
      "id": "pt.ine.add.PTCONT.4474082",
      "street": "R PACO EQUESTRE",
      "house": "27",
      "postcode": "2130-317",
      "city": "BENAVENTE",
      "lon": "-8.805671500561223",
      "lat": "38.971960008699746"
    },
    {
      "id": "pt.ine.add.PTCONT.4474083",
      "street": "R PACO EQUESTRE",
      "house": "27",
      "postcode": "2130-317",
      "city": "BENAVENTE",
      "lon": "-8.805671500561223",
      "lat": "38.971960008699746"
    },
    {
      "id": "pt.ine.add.PTCONT.4474084",
      "street": "R PACO EQUESTRE",
      "house": "27",
      "postcode": "2130-317",
      "city": "BENAVENTE",
      "lon": "-8.805671500561223",
      "lat": "38.971960008699746"
    },
    {
      "id": "pt.ine.add.PTCONT.4477229",
      "street": "R ALVARO RODRIGUES AZEVEDO",
      "house": "2",
      "postcode": "2130-184",
      "city": "BENAVENTE",
      "lon": "-8.805885891450117",
      "lat": "38.97388641285434"
    },
    {
      "id": "pt.ine.add.PTCONT.4477230",
      "street": "R CEGONHAS",
      "house": "3",
      "postcode": "2130-350",
      "city": "BENAVENTE",
      "lon": "-8.805834096907056",
      "lat": "38.97085112858615"
    },
    {
      "id": "pt.ine.add.PTCONT.4478382",
      "street": "R ÁLVARO RODRIGUES DE AZEVEDO",
      "house": "60",
      "postcode": "2130-184",
      "city": "BENAVENTE",
      "lon": "-8.805345740336715",
      "lat": "38.97289868283384"
    },
    {
      "id": "pt.ine.add.PTCONT.4478413",
      "street": "R VASCO DA GAMA",
      "house": "35",
      "postcode": "2130-197",
      "city": "BENAVENTE",
      "lon": "-8.807645527685168",
      "lat": "38.96961562936598"
    },
    {
      "id": "pt.ine.add.PTCONT.4482381",
      "street": "TV A DA QTA PORTAO DE FERRO",
      "house": "35",
      "postcode": "2130-324",
      "city": "BENAVENTE",
      "lon": "-8.807025399885537",
      "lat": "38.974798619047974"
    },
    {
      "id": "pt.ine.add.PTCONT.4484767",
      "street": "R ROSA",
      "house": "1",
      "postcode": "2130-316",
      "city": "BENAVENTE",
      "lon": "-8.807649201330774",
      "lat": "38.970002937833904"
    },
    {
      "id": "pt.ine.add.PTCONT.4487355",
      "street": "R ÁLVARO RODRIGUES DE AZEVEDO",
      "house": "92",
      "postcode": "2130-184",
      "city": "BENAVENTE",
      "lon": "-8.801897963490491",
      "lat": "38.968252521067356"
    },
    {
      "id": "pt.ine.add.PTCONT.4488523",
      "street": "R VASCO DA GAMA",
      "house": "19",
      "postcode": "2130-197",
      "city": "BENAVENTE",
      "lon": "-8.807703724071393",
      "lat": "38.97210140874489"
    },
    {
      "id": "pt.ine.add.PTCONT.4489717",
      "street": "R ÁLVARO RODRIGUES DE AZEVEDO",
      "house": "6",
      "postcode": "2130-184",
      "city": "BENAVENTE",
      "lon": "-8.807166770263628",
      "lat": "38.97510406296334"
    },
    {
      "id": "pt.ine.add.PTCONT.4489718",
      "street": "R ÁLVARO RODRIGUES DE AZEVEDO",
      "house": "52",
      "postcode": "2130-184",
      "city": "BENAVENTE",
      "lon": "-8.805720855167195",
      "lat": "38.97351805007226"
    },
    {
      "id": "pt.ine.add.PTCONT.4489719",
      "street": "ESTR MIRADOURO",
      "house": "5",
      "postcode": "2130-029",
      "city": "BENAVENTE",
      "lon": "-8.80794269987883",
      "lat": "38.97296476268971"
    },
    {
      "id": "pt.ine.add.PTCONT.4492469",
      "street": "R CAMELIAS",
      "house": "12",
      "postcode": "2130-233",
      "city": "BENAVENTE",
      "lon": "-8.805038783468715",
      "lat": "38.96727966581682"
    },
    {
      "id": "pt.ine.add.PTCONT.4492470",
      "street": "R PACO EQUESTRE",
      "house": "23",
      "postcode": "2130-317",
      "city": "BENAVENTE",
      "lon": "-8.80620082097794",
      "lat": "38.97180382650245"
    },
    {
      "id": "pt.ine.add.PTCONT.4493180",
      "street": "R CANAVIAL",
      "house": "1",
      "postcode": "2130-371",
      "city": "BENAVENTE",
      "lon": "-8.804331251853714",
      "lat": "38.97177856443418"
    },
    {
      "id": "pt.ine.add.PTCONT.4495368",
      "street": "R CANAVIAL",
      "house": "",
      "postcode": "2130-371",
      "city": "BENAVENTE",
      "lon": "-8.804860914302393",
      "lat": "38.971658417001464"
    },
    {
      "id": "pt.ine.add.PTCONT.4495398",
      "street": "R CANICAIS",
      "house": "15",
      "postcode": "2130-233",
      "city": "BENAVENTE",
      "lon": "-8.803706425597621",
      "lat": "38.966701830887125"
    },
    {
      "id": "pt.ine.add.PTCONT.4498120",
      "street": "TV B DA QTA PORTAO DE FERRO",
      "house": "41",
      "postcode": "2130-323",
      "city": "BENAVENTE",
      "lon": "-8.807138056912748",
      "lat": "38.974509723253895"
    },
    {
      "id": "pt.ine.add.PTCONT.4498856",
      "street": "R AMOREIRA",
      "house": "39",
      "postcode": "2130-350",
      "city": "BENAVENTE",
      "lon": "-8.804424128976914",
      "lat": "38.970616041178786"
    },
    {
      "id": "pt.ine.add.PTCONT.4500627",
      "street": "R CANICAIS",
      "house": "15A",
      "postcode": "2130-233",
      "city": "BENAVENTE",
      "lon": "-8.803222014999335",
      "lat": "38.96672262882361"
    },
    {
      "id": "pt.ine.add.PTCONT.4500628",
      "street": "R CAMELIAS",
      "house": "9",
      "postcode": "2130-233",
      "city": "BENAVENTE",
      "lon": "-8.805381424265882",
      "lat": "38.966908377884536"
    },
    {
      "id": "pt.ine.add.PTCONT.4500629",
      "street": "R ROSA",
      "house": "2",
      "postcode": "2130-316",
      "city": "BENAVENTE",
      "lon": "-8.807406985530228",
      "lat": "38.970013345325285"
    },
    {
      "id": "pt.ine.add.PTCONT.4500867",
      "street": "R AMOREIRA",
      "house": "35",
      "postcode": "2130-350",
      "city": "BENAVENTE",
      "lon": "-8.804988397347524",
      "lat": "38.97049569408943"
    },
    {
      "id": "pt.ine.add.PTCONT.4506639",
      "street": "R ALECRIM",
      "house": "14",
      "postcode": "2130-325",
      "city": "BENAVENTE",
      "lon": "-8.807280281204806",
      "lat": "38.97490523871401"
    },
    {
      "id": "pt.ine.add.PTCONT.4506640",
      "street": "R CANAVIAL",
      "house": "",
      "postcode": "2130-371",
      "city": "BENAVENTE",
      "lon": "-8.805803912619139",
      "lat": "38.971319701233654"
    },
    {
      "id": "pt.ine.add.PTCONT.4508586",
      "street": "R VASCO DA GAMA",
      "house": "9",
      "postcode": "2130-197",
      "city": "BENAVENTE",
      "lon": "-8.807917742114261",
      "lat": "38.972766738435816"
    },
    {
      "id": "pt.ine.add.PTCONT.4509942",
      "street": "R ALECRIM",
      "house": "13",
      "postcode": "2130-325",
      "city": "BENAVENTE",
      "lon": "-8.80736173714751",
      "lat": "38.97497682936614"
    },
    {
      "id": "pt.ine.add.PTCONT.4511963",
      "street": "R CANAVIAL",
      "house": "4",
      "postcode": "2130-371",
      "city": "BENAVENTE",
      "lon": "-8.804503988405735",
      "lat": "38.97174154007625"
    },
    {
      "id": "pt.ine.add.PTCONT.4516794",
      "street": "TV A DA QTA PORTAO DE FERRO",
      "house": "28",
      "postcode": "2130-324",
      "city": "BENAVENTE",
      "lon": "-8.807461145668064",
      "lat": "38.97450785661624"
    },
    {
      "id": "pt.ine.add.PTCONT.4516795",
      "street": "R CEGONHAS",
      "house": "",
      "postcode": "2130-350",
      "city": "BENAVENTE",
      "lon": "-8.80539444958473",
      "lat": "38.970727554883645"
    },
    {
      "id": "pt.ine.add.PTCONT.4516796",
      "street": "R ROSA",
      "house": "18",
      "postcode": "2130-316",
      "city": "BENAVENTE",
      "lon": "-8.80745091750999",
      "lat": "38.96977889211541"
    },
    {
      "id": "pt.ine.add.PTCONT.4520012",
      "street": "R MAGNOLIA",
      "house": "16",
      "postcode": "2130-351",
      "city": "BENAVENTE",
      "lon": "-8.80389698987439",
      "lat": "38.9685563161744"
    },
    {
      "id": "pt.ine.add.PTCONT.4521920",
      "street": "R AMOREIRA",
      "house": "12",
      "postcode": "2130-350",
      "city": "BENAVENTE",
      "lon": "-8.805613165732373",
      "lat": "38.9706722486558"
    },
    {
      "id": "pt.ine.add.PTCONT.4521927",
      "street": "R ROSA",
      "house": "10",
      "postcode": "2130-316",
      "city": "BENAVENTE",
      "lon": "-8.806102491925225",
      "lat": "38.96994881432377"
    },
    {
      "id": "pt.ine.add.PTCONT.4523568",
      "street": "QTA BRASILEIRA",
      "house": "",
      "postcode": "2130-271",
      "city": "BENAVENTE",
      "lon": "-8.806366671025659",
      "lat": "38.96616406881274"
    },
    {
      "id": "pt.ine.add.PTCONT.4526097",
      "street": "R VASCO DA GAMA",
      "house": "13",
      "postcode": "2130-197",
      "city": "BENAVENTE",
      "lon": "-8.807823125767369",
      "lat": "38.97252407863165"
    },
    {
      "id": "pt.ine.add.PTCONT.4526098",
      "street": "R PACO EQUESTRE",
      "house": "10",
      "postcode": "2130-317",
      "city": "BENAVENTE",
      "lon": "-8.806258001634513",
      "lat": "38.97174945068332"
    },
    {
      "id": "pt.ine.add.PTCONT.4533023",
      "street": "R QUINTA PORTAO FERRO",
      "house": "2",
      "postcode": "2130-321",
      "city": "BENAVENTE",
      "lon": "-8.807434473238066",
      "lat": "38.97534572310823"
    },
    {
      "id": "pt.ine.add.PTCONT.4534574",
      "street": "R ALVARO RODRIGUES AZEVEDO",
      "house": "94",
      "postcode": "2130-184",
      "city": "BENAVENTE",
      "lon": "-8.803448870367951",
      "lat": "38.96753201654479"
    },
    {
      "id": "pt.ine.add.PTCONT.4535751",
      "street": "R AMOREIRA",
      "house": "24",
      "postcode": "2130-350",
      "city": "BENAVENTE",
      "lon": "-8.804035652194543",
      "lat": "38.971023620341654"
    },
    {
      "id": "pt.ine.add.PTCONT.4536193",
      "street": "R ÁLVARO RODRIGUES DE AZEVEDO",
      "house": "8",
      "postcode": "2130-184",
      "city": "BENAVENTE",
      "lon": "-8.805803841757895",
      "lat": "38.9737517709379"
    },
    {
      "id": "pt.ine.add.PTCONT.4536247",
      "street": "R AMOREIRA",
      "house": "41",
      "postcode": "2130-350",
      "city": "BENAVENTE",
      "lon": "-8.804216950313243",
      "lat": "38.9706712788304"
    },
    {
      "id": "pt.ine.add.PTCONT.4538265",
      "street": "TV B DA QTA PORTAO DE FERRO",
      "house": "45",
      "postcode": "2130-323",
      "city": "BENAVENTE",
      "lon": "-8.806874028157353",
      "lat": "38.97465537057781"
    },
    {
      "id": "pt.ine.add.PTCONT.4539735",
      "street": "R ROSA",
      "house": "8",
      "postcode": "2130-316",
      "city": "BENAVENTE",
      "lon": "-8.806495727074767",
      "lat": "38.97004563020906"
    },
    {
      "id": "pt.ine.add.PTCONT.4539755",
      "street": "R AMOREIRA",
      "house": "36",
      "postcode": "2130-350",
      "city": "BENAVENTE",
      "lon": "-8.805751284132638",
      "lat": "38.97063542194911"
    },
    {
      "id": "pt.ine.add.PTCONT.4540989",
      "street": "EN 118",
      "house": "4",
      "postcode": "2130-184",
      "city": "BENAVENTE",
      "lon": "-8.806470019391035",
      "lat": "38.9734236529328"
    },
    {
      "id": "pt.ine.add.PTCONT.4540990",
      "street": "EN 118",
      "house": "4 A",
      "postcode": "2130-184",
      "city": "BENAVENTE",
      "lon": "-8.806470019391035",
      "lat": "38.9734236529328"
    },
    {
      "id": "pt.ine.add.PTCONT.4542280",
      "street": "R ALECRIM",
      "house": "12",
      "postcode": "2130-325",
      "city": "BENAVENTE",
      "lon": "-8.807431568860878",
      "lat": "38.97503947947314"
    },
    {
      "id": "pt.ine.add.PTCONT.4546450",
      "street": "R VASCO DA GAMA",
      "house": "37",
      "postcode": "2130-197",
      "city": "BENAVENTE",
      "lon": "-8.807633391577381",
      "lat": "38.96955264583994"
    },
    {
      "id": "pt.ine.add.PTCONT.4546451",
      "street": "R CEGONHAS",
      "house": "4",
      "postcode": "2130-350",
      "city": "BENAVENTE",
      "lon": "-8.805718969541834",
      "lat": "38.97087881521113"
    },
    {
      "id": "pt.ine.add.PTCONT.4548363",
      "street": "R AMOREIRA",
      "house": "21",
      "postcode": "2130-350",
      "city": "BENAVENTE",
      "lon": "-8.804335053542617",
      "lat": "38.970958844923594"
    },
    {
      "id": "pt.ine.add.PTCONT.4548381",
      "street": "R CAMELIAS",
      "house": "13",
      "postcode": "2130-233",
      "city": "BENAVENTE",
      "lon": "-8.804104483231976",
      "lat": "38.967312064603846"
    },
    {
      "id": "pt.ine.add.PTCONT.4549964",
      "street": "TV A DA QTA PORTAO DE FERRO",
      "house": "26",
      "postcode": "2130-324",
      "city": "BENAVENTE",
      "lon": "-8.807587218982954",
      "lat": "38.97441705138378"
    },
    {
      "id": "pt.ine.add.PTCONT.4550027",
      "street": "TV E DA QTA PORTAO DE FERRO",
      "house": "103",
      "postcode": "2130-320",
      "city": "BENAVENTE",
      "lon": "-8.807291231897837",
      "lat": "38.9736260876089"
    },
    {
      "id": "pt.ine.add.PTCONT.4552607",
      "street": "R MAGNOLIA",
      "house": "",
      "postcode": "2130-351",
      "city": "BENAVENTE",
      "lon": "-8.804631845088403",
      "lat": "38.96817376768867"
    },
    {
      "id": "pt.ine.add.PTCONT.4555094",
      "street": "R CANICAIS",
      "house": "14",
      "postcode": "2130-233",
      "city": "BENAVENTE",
      "lon": "-8.804676266431775",
      "lat": "38.96676831519653"
    },
    {
      "id": "pt.ine.add.PTCONT.4556785",
      "street": "TV B DA QTA PORTAO DE FERRO",
      "house": "37",
      "postcode": "2130-323",
      "city": "BENAVENTE",
      "lon": "-8.807390204062163",
      "lat": "38.97432811334505"
    },
    {
      "id": "pt.ine.add.PTCONT.4556843",
      "street": "R ROSA",
      "house": "15",
      "postcode": "2130-316",
      "city": "BENAVENTE",
      "lon": "-8.80697785470924",
      "lat": "38.96978162478421"
    },
    {
      "id": "pt.ine.add.PTCONT.4558834",
      "street": "R VASCO DA GAMA",
      "house": "29",
      "postcode": "2130-197",
      "city": "BENAVENTE",
      "lon": "-8.807542020286876",
      "lat": "38.97086829331345"
    },
    {
      "id": "pt.ine.add.PTCONT.4558846",
      "street": "TV B DA QTA PORTAO DE FERRO",
      "house": "38",
      "postcode": "2130-323",
      "city": "BENAVENTE",
      "lon": "-8.807321397964621",
      "lat": "38.974373549206724"
    },
    {
      "id": "pt.ine.add.PTCONT.4558869",
      "street": "R CANAVIAL",
      "house": "20",
      "postcode": "2130-371",
      "city": "BENAVENTE",
      "lon": "-8.805378610765185",
      "lat": "38.971493297773854"
    },
    {
      "id": "pt.ine.add.PTCONT.4558912",
      "street": "R BRASILEIRA",
      "house": "6",
      "postcode": "2130-342",
      "city": "BENAVENTE",
      "lon": "-8.806475319269056",
      "lat": "38.9691089504639"
    },
    {
      "id": "pt.ine.add.PTCONT.4561016",
      "street": "R AMOREIRA",
      "house": "43",
      "postcode": "2130-350",
      "city": "BENAVENTE",
      "lon": "-8.803997978122243",
      "lat": "38.97069956091381"
    },
    {
      "id": "pt.ine.add.PTCONT.4563140",
      "street": "R CEGONHAS",
      "house": "6",
      "postcode": "2130-350",
      "city": "BENAVENTE",
      "lon": "-8.805500252846349",
      "lat": "38.97093412164022"
    },
    {
      "id": "pt.ine.add.PTCONT.4563161",
      "street": "R ROSA",
      "house": "9",
      "postcode": "2130-316",
      "city": "BENAVENTE",
      "lon": "-8.806149752691441",
      "lat": "38.97006564144142"
    },
    {
      "id": "pt.ine.add.PTCONT.4563162",
      "street": "R ROSA",
      "house": "11",
      "postcode": "2130-316",
      "city": "BENAVENTE",
      "lon": "-8.806089334283445",
      "lat": "38.969777744510964"
    },
    {
      "id": "pt.ine.add.PTCONT.4567306",
      "street": "R VASCO DA GAMA",
      "house": "33",
      "postcode": "2130-197",
      "city": "BENAVENTE",
      "lon": "-8.806949043860149",
      "lat": "38.9703943125291"
    },
    {
      "id": "pt.ine.add.PTCONT.4567344",
      "street": "R MAGNOLIA",
      "house": "14",
      "postcode": "2130-351",
      "city": "BENAVENTE",
      "lon": "-8.802954951874764",
      "lat": "38.97021913854081"
    },
    {
      "id": "pt.ine.add.PTCONT.4567367",
      "street": "TV E DA QTA PORTAO DE FERRO",
      "house": "101",
      "postcode": "2130-320",
      "city": "BENAVENTE",
      "lon": "-8.807498245817616",
      "lat": "38.973552830135525"
    },
    {
      "id": "pt.ine.add.PTCONT.4569348",
      "street": "R ÁLVARO RODRIGUES DE AZEVEDO",
      "house": "58",
      "postcode": "2130-184",
      "city": "BENAVENTE",
      "lon": "-8.805439752626697",
      "lat": "38.97307829449305"
    },
    {
      "id": "pt.ine.add.PTCONT.4569359",
      "street": "TV A DA QTA PORTAO DE FERRO",
      "house": "29",
      "postcode": "2130-324",
      "city": "BENAVENTE",
      "lon": "-8.807403792918093",
      "lat": "38.974544218677295"
    },
    {
      "id": "pt.ine.add.PTCONT.4569372",
      "street": "TV B DA QTA PORTAO DE FERRO",
      "house": "43",
      "postcode": "2130-323",
      "city": "BENAVENTE",
      "lon": "-8.807011726751567",
      "lat": "38.974573506503816"
    },
    {
      "id": "pt.ine.add.PTCONT.4571476",
      "street": "R ÁLVARO RODRIGUES DE AZEVEDO",
      "house": "66",
      "postcode": "2130-184",
      "city": "BENAVENTE",
      "lon": "-8.80517002192165",
      "lat": "38.97262045737331"
    },
    {
      "id": "pt.ine.add.PTCONT.4571500",
      "street": "R AMOREIRA",
      "house": "31",
      "postcode": "2130-350",
      "city": "BENAVENTE",
      "lon": "-8.805449075282716",
      "lat": "38.97040296415346"
    },
    {
      "id": "pt.ine.add.PTCONT.4574499",
      "street": "R VASCO DA GAMA",
      "house": "39",
      "postcode": "2130-197",
      "city": "BENAVENTE",
      "lon": "-8.807655955132391",
      "lat": "38.96949846940997"
    },
    {
      "id": "pt.ine.add.PTCONT.4574500",
      "street": "R BRASILEIRA",
      "house": "4",
      "postcode": "2130-342",
      "city": "BENAVENTE",
      "lon": "-8.807230253735058",
      "lat": "38.968411001377895"
    },
    {
      "id": "pt.ine.add.PTCONT.4575370",
      "street": "TV B DA QTA PORTAO DE FERRO",
      "house": "40",
      "postcode": "2130-323",
      "city": "BENAVENTE",
      "lon": "-8.807195238991882",
      "lat": "38.97445534698766"
    },
    {
      "id": "pt.ine.add.PTCONT.4575381",
      "street": "R CANAVIAL",
      "house": "12",
      "postcode": "2130-371",
      "city": "BENAVENTE",
      "lon": "-8.80501048832914",
      "lat": "38.97161251756062"
    },
    {
      "id": "pt.ine.add.PTCONT.4575391",
      "street": "R AMOREIRA",
      "house": "18",
      "postcode": "2130-350",
      "city": "BENAVENTE",
      "lon": "-8.80469189066632",
      "lat": "38.97086671520984"
    },
    {
      "id": "pt.ine.add.PTCONT.4577521",
      "street": "R ALECRIM",
      "house": "9",
      "postcode": "2130-325",
      "city": "BENAVENTE",
      "lon": "-8.807640893841992",
      "lat": "38.97520941520224"
    },
    {
      "id": "pt.ine.add.PTCONT.4579673",
      "street": "R VASCO DA GAMA",
      "house": "17",
      "postcode": "2130-197",
      "city": "BENAVENTE",
      "lon": "-8.807762783819113",
      "lat": "38.97224518993666"
    },
    {
      "id": "pt.ine.add.PTCONT.4579683",
      "street": "TV A DA QTA PORTAO DE FERRO",
      "house": "30",
      "postcode": "2130-324",
      "city": "BENAVENTE",
      "lon": "-8.80733498662223",
      "lat": "38.9745896545471"
    },
    {
      "id": "pt.ine.add.PTCONT.4581271",
      "street": "TV B DA QTA PORTAO DE FERRO",
      "house": "36",
      "postcode": "2130-323",
      "city": "BENAVENTE",
      "lon": "-8.807459095494998",
      "lat": "38.97429168461031"
    },
    {
      "id": "pt.ine.add.PTCONT.4583884",
      "street": "R AMOREIRA",
      "house": "22",
      "postcode": "2130-350",
      "city": "BENAVENTE",
      "lon": "-8.804242917032244",
      "lat": "38.97097739018312"
    },
    {
      "id": "pt.ine.add.PTCONT.4583916",
      "street": "R PACO EQUESTRE",
      "house": "",
      "postcode": "2130-317",
      "city": "BENAVENTE",
      "lon": "-8.806108683883888",
      "lat": "38.97182237323785"
    },
    {
      "id": "pt.ine.add.PTCONT.4588091",
      "street": "R VASCO DA GAMA",
      "house": "31",
      "postcode": "2130-197",
      "city": "BENAVENTE",
      "lon": "-8.807056558334612",
      "lat": "38.97078102132039"
    },
    {
      "id": "pt.ine.add.PTCONT.4588107",
      "street": "TV A DA QTA PORTAO DE FERRO",
      "house": "31",
      "postcode": "2130-324",
      "city": "BENAVENTE",
      "lon": "-8.80727771914294",
      "lat": "38.97463502371369"
    },
    {
      "id": "pt.ine.add.PTCONT.4594359",
      "street": "R AMOREIRA",
      "house": "20",
      "postcode": "2130-350",
      "city": "BENAVENTE",
      "lon": "-8.80445009656348",
      "lat": "38.9709221524806"
    },
    {
      "id": "pt.ine.add.PTCONT.4594360",
      "street": "R AMOREIRA",
      "house": "19",
      "postcode": "2130-350",
      "city": "BENAVENTE",
      "lon": "-8.804530694640386",
      "lat": "38.970903673445726"
    },
    {
      "id": "pt.ine.add.PTCONT.4597582",
      "street": "R MAGNOLIA",
      "house": "",
      "postcode": "2130-351",
      "city": "BENAVENTE",
      "lon": "-8.804545069545819",
      "lat": "38.968759765592274"
    },
    {
      "id": "pt.ine.add.PTCONT.4598511",
      "street": "R AMOREIRA",
      "house": "32",
      "postcode": "2130-350",
      "city": "BENAVENTE",
      "lon": "-8.805322410258022",
      "lat": "38.97043071686048"
    },
    {
      "id": "pt.ine.add.PTCONT.4598520",
      "street": "R AMOREIRA",
      "house": "14",
      "postcode": "2130-350",
      "city": "BENAVENTE",
      "lon": "-8.805336758208767",
      "lat": "38.970727887228755"
    },
    {
      "id": "pt.ine.add.PTCONT.4598521",
      "street": "R AMOREIRA",
      "house": "J4",
      "postcode": "2130-350",
      "city": "BENAVENTE",
      "lon": "-8.805336758208767",
      "lat": "38.970727887228755"
    },
    {
      "id": "pt.ine.add.PTCONT.4600589",
      "street": "R CEGONHAS",
      "house": "8",
      "postcode": "2130-350",
      "city": "BENAVENTE",
      "lon": "-8.805281365530265",
      "lat": "38.97097141330942"
    },
    {
      "id": "pt.ine.add.PTCONT.4602819",
      "street": "R ÁLVARO RODRIGUES DE AZEVEDO",
      "house": "54",
      "postcode": "2130-184",
      "city": "BENAVENTE",
      "lon": "-8.805614876940302",
      "lat": "38.9732934693024"
    },
    {
      "id": "pt.ine.add.PTCONT.4608874",
      "street": "TV B DA QTA PORTAO DE FERRO",
      "house": "44",
      "postcode": "2130-323",
      "city": "BENAVENTE",
      "lon": "-8.806943005532778",
      "lat": "38.9746279493122"
    },
    {
      "id": "pt.ine.add.PTCONT.4610452",
      "street": "R ROSA",
      "house": "7",
      "postcode": "2130-316",
      "city": "BENAVENTE",
      "lon": "-8.80668008172408",
      "lat": "38.97001754326113"
    },
    {
      "id": "pt.ine.add.PTCONT.4610867",
      "street": "R CANAVIAL",
      "house": "",
      "postcode": "2130-371",
      "city": "BENAVENTE",
      "lon": "-8.805700493244172",
      "lat": "38.97136533568076"
    },
    {
      "id": "pt.ine.add.PTCONT.4610899",
      "street": "R PACO EQUESTRE",
      "house": "",
      "postcode": "2130-317",
      "city": "BENAVENTE",
      "lon": "-8.805760741122494",
      "lat": "38.971635218387924"
    },
    {
      "id": "pt.ine.add.PTCONT.4610909",
      "street": "TV E DA QTA PORTAO DE FERRO",
      "house": "102",
      "postcode": "2130-320",
      "city": "BENAVENTE",
      "lon": "-8.807417901796997",
      "lat": "38.97359833273626"
    },
    {
      "id": "pt.ine.add.PTCONT.4613004",
      "street": "R VASCO DA GAMA",
      "house": "45",
      "postcode": "2130-197",
      "city": "BENAVENTE",
      "lon": "-8.807630914092499",
      "lat": "38.96929143778524"
    },
    {
      "id": "pt.ine.add.PTCONT.4613014",
      "street": "TV A DA QTA PORTAO DE FERRO",
      "house": "27",
      "postcode": "2130-324",
      "city": "BENAVENTE",
      "lon": "-8.807529951803827",
      "lat": "38.97446242067286"
    },
    {
      "id": "pt.ine.add.PTCONT.4618378",
      "street": "R ÁLVARO RODRIGUES AZEVEDO",
      "house": "3",
      "postcode": "2130-184",
      "city": "BENAVENTE",
      "lon": "-8.807387719236603",
      "lat": "38.97528293966033"
    },
    {
      "id": "pt.ine.add.PTCONT.4619243",
      "street": "ESTR MIRADOURO",
      "house": "59",
      "postcode": "2130-029",
      "city": "BENAVENTE",
      "lon": "-8.807177357989538",
      "lat": "38.967699700966136"
    },
    {
      "id": "pt.ine.add.PTCONT.4619256",
      "street": "TV A DA QTA PORTAO DE FERRO",
      "house": "33",
      "postcode": "2130-324",
      "city": "BENAVENTE",
      "lon": "-8.807139935357158",
      "lat": "38.974707880932"
    },
    {
      "id": "pt.ine.add.PTCONT.4621468",
      "street": "R ROSA",
      "house": "13",
      "postcode": "2130-316",
      "city": "BENAVENTE",
      "lon": "-8.806654958009508",
      "lat": "38.96980150424624"
    },
    {
      "id": "pt.ine.add.PTCONT.4623464",
      "street": "TV A DA QTA PORTAO DE FERRO",
      "house": "32",
      "postcode": "2130-324",
      "city": "BENAVENTE",
      "lon": "-8.807197288374756",
      "lat": "38.9746715189993"
    },
    {
      "id": "pt.ine.add.PTCONT.4623502",
      "street": "R HERMINIA SILVA",
      "house": "20",
      "postcode": "2130-373",
      "city": "BENAVENTE",
      "lon": "-8.806593173014779",
      "lat": "38.969369492761395"
    },
    {
      "id": "pt.ine.add.PTCONT.4626168",
      "street": "R CAMELIAS",
      "house": "14",
      "postcode": "2130-233",
      "city": "BENAVENTE",
      "lon": "-8.80471249533942",
      "lat": "38.96693925249565"
    },
    {
      "id": "pt.ine.add.PTCONT.4627795",
      "street": "R ÁLVARO RODRIGUES AZEVEDO",
      "house": "1",
      "postcode": "2130-184",
      "city": "BENAVENTE",
      "lon": "-8.807504305381936",
      "lat": "38.97540837316396"
    },
    {
      "id": "pt.ine.add.PTCONT.4627796",
      "street": "R ROSA",
      "house": "14",
      "postcode": "2130-316",
      "city": "BENAVENTE",
      "lon": "-8.80678187734773",
      "lat": "38.969800771630275"
    },
    {
      "id": "pt.ine.add.PTCONT.4633055",
      "street": "EN 118",
      "house": "",
      "postcode": "2130-073",
      "city": "BENAVENTE",
      "lon": "-8.802545950039084",
      "lat": "38.96844697448725"
    },
    {
      "id": "pt.ine.add.PTCONT.4633872",
      "street": "R AMOREIRA",
      "house": "34",
      "postcode": "2130-350",
      "city": "BENAVENTE",
      "lon": "-8.80510352438954",
      "lat": "38.97046800818641"
    },
    {
      "id": "pt.ine.add.PTCONT.4633879",
      "street": "R CANICAIS",
      "house": "171",
      "postcode": "2130-233",
      "city": "BENAVENTE",
      "lon": "-8.801735269184471",
      "lat": "38.96690230236039"
    },
    {
      "id": "pt.ine.add.PTCONT.4633892",
      "street": "R HERMINIA SILVA",
      "house": "15",
      "postcode": "2130-373",
      "city": "BENAVENTE",
      "lon": "-8.806087800038028",
      "lat": "38.969615615329694"
    },
    {
      "id": "pt.ine.add.PTCONT.4633893",
      "street": "R ROSA",
      "house": "3",
      "postcode": "2130-316",
      "city": "BENAVENTE",
      "lon": "-8.807314594901321",
      "lat": "38.97000487147347"
    },
    {
      "id": "pt.ine.add.PTCONT.4635332",
      "street": "R VASCO DA GAMA",
      "house": "15",
      "postcode": "2130-197",
      "city": "BENAVENTE",
      "lon": "-8.80776415111448",
      "lat": "38.97238930464987"
    },
    {
      "id": "pt.ine.add.PTCONT.4635793",
      "street": "R ÁLVARO RODRIGUES DE AZEVEDO",
      "house": "7",
      "postcode": "2130-184",
      "city": "BENAVENTE",
      "lon": "-8.807108306925539",
      "lat": "38.97502333171697"
    },
    {
      "id": "pt.ine.add.PTCONT.4635794",
      "street": "R ALVARO RODRIGUES DE AZEVEDO",
      "house": "6",
      "postcode": "2130-184",
      "city": "BENAVENTE",
      "lon": "-8.805815891804812",
      "lat": "38.97380574744623"
    },
    {
      "id": "pt.ine.add.PTCONT.4635811",
      "street": "R ALECRIM",
      "house": "8",
      "postcode": "2130-325",
      "city": "BENAVENTE",
      "lon": "-8.807722179577594",
      "lat": "38.975262991262426"
    },
    {
      "id": "pt.ine.add.PTCONT.4639457",
      "street": "R CANAVIAL",
      "house": "",
      "postcode": "2130-371",
      "city": "BENAVENTE",
      "lon": "-8.80561998014309",
      "lat": "38.97139282269908"
    },
    {
      "id": "pt.ine.add.PTCONT.4640127",
      "street": "TV B DA QTA PORTAO DE FERRO",
      "house": "42",
      "postcode": "2130-323",
      "city": "BENAVENTE",
      "lon": "-8.807057455465685",
      "lat": "38.97452820410851"
    },
    {
      "id": "pt.ine.add.PTCONT.4640128",
      "street": "R CEGONHAS",
      "house": "5",
      "postcode": "2130-350",
      "city": "BENAVENTE",
      "lon": "-8.805603927263629",
      "lat": "38.97091550889891"
    },
    {
      "id": "pt.ine.add.PTCONT.4641503",
      "street": "R AMOREIRA",
      "house": "40",
      "postcode": "2130-350",
      "city": "BENAVENTE",
      "lon": "-8.8043434461785",
      "lat": "38.97062551295982"
    },
    {
      "id": "pt.ine.add.PTCONT.4643149",
      "street": "R AMOREIRA",
      "house": "28",
      "postcode": "2130-350",
      "city": "BENAVENTE",
      "lon": "-8.803597705312631",
      "lat": "38.97108018343558"
    },
    {
      "id": "pt.ine.add.PTCONT.4643150",
      "street": "TV E DA QTA PORTAO DE FERRO",
      "house": "97",
      "postcode": "2130-320",
      "city": "BENAVENTE",
      "lon": "-8.807878083622454",
      "lat": "38.97345155010259"
    },
    {
      "id": "pt.ine.add.PTCONT.4644078",
      "street": "TV B DA QTA PORTAO DE FERRO",
      "house": "39",
      "postcode": "2130-323",
      "city": "BENAVENTE",
      "lon": "-8.807264045249521",
      "lat": "38.974409911199615"
    },
    {
      "id": "pt.ine.add.PTCONT.4644119",
      "street": "R MAGNOLIA",
      "house": "15",
      "postcode": "2130-351",
      "city": "BENAVENTE",
      "lon": "-8.803222362792098",
      "lat": "38.96920874430975"
    },
    {
      "id": "pt.ine.add.PTCONT.4646932",
      "street": "R MAGNOLIA",
      "house": "10",
      "postcode": "2130-351",
      "city": "BENAVENTE",
      "lon": "-8.805533290205656",
      "lat": "38.969546750456544"
    },
    {
      "id": "pt.ine.add.PTCONT.4648127",
      "street": "R AMOREIRA",
      "house": "25",
      "postcode": "2130-350",
      "city": "BENAVENTE",
      "lon": "-8.803897277237986",
      "lat": "38.97103342349363"
    },
    {
      "id": "pt.ine.add.PTCONT.4651012",
      "street": "R VASCO DA GAMA",
      "house": "41",
      "postcode": "2130-197",
      "city": "BENAVENTE",
      "lon": "-8.807643819036887",
      "lat": "38.96943548588365"
    },
    {
      "id": "pt.ine.add.PTCONT.4651013",
      "street": "R AMOREIRA",
      "house": "30",
      "postcode": "2130-350",
      "city": "BENAVENTE",
      "lon": "-8.80555266377162",
      "lat": "38.97037534428599"
    },
    {
      "id": "pt.ine.add.PTCONT.4651014",
      "street": "R ROSA",
      "house": "6",
      "postcode": "2130-316",
      "city": "BENAVENTE",
      "lon": "-8.806784095784115",
      "lat": "38.97003495818305"
    },
    {
      "id": "pt.ine.add.PTCONT.4652353",
      "street": "R CEGONHAS",
      "house": "9",
      "postcode": "2130-350",
      "city": "BENAVENTE",
      "lon": "-8.805166322870885",
      "lat": "38.971008106568505"
    },
    {
      "id": "pt.ine.add.PTCONT.4653809",
      "street": "R AMOREIRA",
      "house": "26",
      "postcode": "2130-350",
      "city": "BENAVENTE",
      "lon": "-8.803816763795815",
      "lat": "38.97106090927219"
    },
    {
      "id": "pt.ine.add.PTCONT.4654297",
      "street": "R CANAVIAL",
      "house": "",
      "postcode": "2130-371",
      "city": "BENAVENTE",
      "lon": "-8.805158529935786",
      "lat": "38.97140448876708"
    },
    {
      "id": "pt.ine.add.PTCONT.4657541",
      "street": "R ROSA",
      "house": "4",
      "postcode": "2130-316",
      "city": "BENAVENTE",
      "lon": "-8.807107164233315",
      "lat": "38.97003309270409"
    },
    {
      "id": "pt.ine.add.PTCONT.4659219",
      "street": "R BRASILEIRA",
      "house": "7",
      "postcode": "2130-342",
      "city": "BENAVENTE",
      "lon": "-8.806341324129543",
      "lat": "38.968362086982566"
    },
    {
      "id": "pt.ine.add.PTCONT.4659616",
      "street": "ESTR MIRADOURO",
      "house": "4",
      "postcode": "2130-029",
      "city": "BENAVENTE",
      "lon": "-8.807218032840733",
      "lat": "38.96833901061388"
    },
    {
      "id": "pt.ine.add.PTCONT.4659674",
      "street": "R ROSA",
      "house": "16",
      "postcode": "2130-316",
      "city": "BENAVENTE",
      "lon": "-8.807104774003552",
      "lat": "38.96978089181739"
    },
    {
      "id": "pt.ine.add.PTCONT.4661047",
      "street": "R AMOREIRA",
      "house": "33",
      "postcode": "2130-350",
      "city": "BENAVENTE",
      "lon": "-8.805218651340422",
      "lat": "38.97044032217045"
    },
    {
      "id": "pt.ine.add.PTCONT.4662444",
      "street": "R BRASILEIRA",
      "house": "",
      "postcode": "2130-342",
      "city": "BENAVENTE",
      "lon": "-8.80623461395149",
      "lat": "38.966840406074624"
    },
    {
      "id": "pt.ine.add.PTCONT.4662848",
      "street": "R PACO EQUESTRE",
      "house": "29",
      "postcode": "2130-317",
      "city": "BENAVENTE",
      "lon": "-8.805774835611672",
      "lat": "38.971905367101236"
    }
  ]
}