{
  "data": {
    "distrito": "Santarém",
    "concelho": "Benavente",
    "freguesia": "Benavente",
    "OBJECTID": 211,
    "BGRI2021": "14050100423",
    "DT21": "14",
    "DTMN21": "1405",
    "DTMNFR21": "140501",
    "DTMNFRSEC21": "140501004",
    "SECNUM21": "004",
    "SSNUM21": "23",
    "SECSSNUM21": "00423",
    "OBJECTID_1": 149323,
    "DT": "14",
    "CC": "05",
    "fr": "01",
    "SEC": "004",
    "SS": "23"
  },
  "addresses": [
    {
      "id": "pt.ine.add.PTCONT.4416927",
      "street": "URB RIBASOR",
      "house": "46 A",
      "postcode": "2130-060",
      "city": "BENAVENTE",
      "lon": "-8.803005947915729",
      "lat": "38.97563245220493"
    },
    {
      "id": "pt.ine.add.PTCONT.4416928",
      "street": "LG NATERCIA FREIRE",
      "house": "6 A",
      "postcode": "2130-206",
      "city": "BENAVENTE",
      "lon": "-8.803358148707598",
      "lat": "38.976269973630764"
    },
    {
      "id": "pt.ine.add.PTCONT.4416929",
      "street": "LG NATERCIA FREIRE",
      "house": "6 A",
      "postcode": "2130-206",
      "city": "BENAVENTE",
      "lon": "-8.803358148707598",
      "lat": "38.976269973630764"
    },
    {
      "id": "pt.ine.add.PTCONT.4416930",
      "street": "LG NATERCIA FREIRE",
      "house": "6 A",
      "postcode": "2130-206",
      "city": "BENAVENTE",
      "lon": "-8.803358148707598",
      "lat": "38.976269973630764"
    },
    {
      "id": "pt.ine.add.PTCONT.4416956",
      "street": "LG NATERCIA FREIRE",
      "house": "6 A",
      "postcode": "2130-206",
      "city": "BENAVENTE",
      "lon": "-8.803358148707598",
      "lat": "38.976269973630764"
    },
    {
      "id": "pt.ine.add.PTCONT.4416957",
      "street": "LG NATERCIA FREIRE",
      "house": "6 A",
      "postcode": "2130-206",
      "city": "BENAVENTE",
      "lon": "-8.803358148707598",
      "lat": "38.976269973630764"
    },
    {
      "id": "pt.ine.add.PTCONT.4416958",
      "street": "LG NATERCIA FREIRE",
      "house": "6 A",
      "postcode": "2130-206",
      "city": "BENAVENTE",
      "lon": "-8.803358148707598",
      "lat": "38.976269973630764"
    },
    {
      "id": "pt.ine.add.PTCONT.4416959",
      "street": "LG NATERCIA FREIRE",
      "house": "6 A",
      "postcode": "2130-206",
      "city": "BENAVENTE",
      "lon": "-8.803358148707598",
      "lat": "38.976269973630764"
    },
    {
      "id": "pt.ine.add.PTCONT.4416960",
      "street": "URB OLIVAL BASTO",
      "house": "6 A",
      "postcode": "2130-264",
      "city": "",
      "lon": "-8.803358148707598",
      "lat": "38.976269973630764"
    },
    {
      "id": "pt.ine.add.PTCONT.4416961",
      "street": "LG NATERCIA FREIRE",
      "house": "6 A",
      "postcode": "2130-206",
      "city": "BENAVENTE",
      "lon": "-8.803358148707598",
      "lat": "38.976269973630764"
    },
    {
      "id": "pt.ine.add.PTCONT.4417761",
      "street": "LG NATERCIA FREIRE",
      "house": "6 A",
      "postcode": "2130-206",
      "city": "BENAVENTE",
      "lon": "-8.803358148707598",
      "lat": "38.976269973630764"
    },
    {
      "id": "pt.ine.add.PTCONT.4417811",
      "street": "LG NATERCIA FREIRE",
      "house": "6 A",
      "postcode": "2130-206",
      "city": "BENAVENTE",
      "lon": "-8.803358148707598",
      "lat": "38.976269973630764"
    },
    {
      "id": "pt.ine.add.PTCONT.4417831",
      "street": "LG NATERCIA FREIRE",
      "house": "6 A",
      "postcode": "2130-206",
      "city": "BENAVENTE",
      "lon": "-8.803358148707598",
      "lat": "38.976269973630764"
    },
    {
      "id": "pt.ine.add.PTCONT.4528094",
      "street": "R ALFREDO BETAMIO DE ALMEIDA",
      "house": "43 A",
      "postcode": "2130-186",
      "city": "BENAVENTE",
      "lon": "-8.80339521965277",
      "lat": "38.975305941074595"
    },
    {
      "id": "pt.ine.add.PTCONT.4549953",
      "street": "R ALFREDO BETAMIO DE ALMEIDA",
      "house": "49 A",
      "postcode": "2130-186",
      "city": "BENAVENTE",
      "lon": "-8.802985924764041",
      "lat": "38.97595684291707"
    },
    {
      "id": "pt.ine.add.PTCONT.4556740",
      "street": "LG NATÉRCIA FREIRE",
      "house": "4 A",
      "postcode": "2130-206",
      "city": "BENAVENTE",
      "lon": "-8.80309588802452",
      "lat": "38.97660476309009"
    },
    {
      "id": "pt.ine.add.PTCONT.4556741",
      "street": "LG NATÉRCIA FREIRE",
      "house": "4 A",
      "postcode": "2130-206",
      "city": "BENAVENTE",
      "lon": "-8.80309588802452",
      "lat": "38.97660476309009"
    },
    {
      "id": "pt.ine.add.PTCONT.4556920",
      "street": "URB OLIVAL BASTO",
      "house": "42 A",
      "postcode": "2130-186",
      "city": "BENAVENTE",
      "lon": "-8.803567880321667",
      "lat": "38.97525991087195"
    },
    {
      "id": "pt.ine.add.PTCONT.4556963",
      "street": "LG NATÉRCIA FREIRE",
      "house": "4 A",
      "postcode": "2130-206",
      "city": "BENAVENTE",
      "lon": "-8.80309588802452",
      "lat": "38.97660476309009"
    },
    {
      "id": "pt.ine.add.PTCONT.4556964",
      "street": "LG NATÉRCIA FREIRE",
      "house": "4 A",
      "postcode": "2130-206",
      "city": "BENAVENTE",
      "lon": "-8.80309588802452",
      "lat": "38.97660476309009"
    },
    {
      "id": "pt.ine.add.PTCONT.4556965",
      "street": "LG NATÉRCIA FREIRE",
      "house": "4 A",
      "postcode": "2130-206",
      "city": "BENAVENTE",
      "lon": "-8.80309588802452",
      "lat": "38.97660476309009"
    },
    {
      "id": "pt.ine.add.PTCONT.4556966",
      "street": "LG NATÉRCIA FREIRE",
      "house": "4 A",
      "postcode": "2130-206",
      "city": "BENAVENTE",
      "lon": "-8.80309588802452",
      "lat": "38.97660476309009"
    },
    {
      "id": "pt.ine.add.PTCONT.4556967",
      "street": "LG NATÉRCIA FREIRE",
      "house": "4 A",
      "postcode": "2130-206",
      "city": "BENAVENTE",
      "lon": "-8.80309588802452",
      "lat": "38.97660476309009"
    },
    {
      "id": "pt.ine.add.PTCONT.4556968",
      "street": "LG NATÉRCIA FREIRE",
      "house": "4 A",
      "postcode": "2130-206",
      "city": "BENAVENTE",
      "lon": "-8.80309588802452",
      "lat": "38.97660476309009"
    },
    {
      "id": "pt.ine.add.PTCONT.4556969",
      "street": "LG NATÉRCIA FREIRE",
      "house": "4 A",
      "postcode": "2130-206",
      "city": "BENAVENTE",
      "lon": "-8.80309588802452",
      "lat": "38.97660476309009"
    },
    {
      "id": "pt.ine.add.PTCONT.4556970",
      "street": "LG NATÉRCIA FREIRE",
      "house": "4 A",
      "postcode": "2130-206",
      "city": "BENAVENTE",
      "lon": "-8.80309588802452",
      "lat": "38.97660476309009"
    },
    {
      "id": "pt.ine.add.PTCONT.4558387",
      "street": "LG NATÉRCIA FREIRE",
      "house": "4 A",
      "postcode": "2130-206",
      "city": "BENAVENTE",
      "lon": "-8.80309588802452",
      "lat": "38.97660476309009"
    },
    {
      "id": "pt.ine.add.PTCONT.4558410",
      "street": "LG NATÉRCIA FREIRE",
      "house": "4 A",
      "postcode": "2130-206",
      "city": "BENAVENTE",
      "lon": "-8.80309588802452",
      "lat": "38.97660476309009"
    },
    {
      "id": "pt.ine.add.PTCONT.4577655",
      "street": "LG NATERCIA FREIRE",
      "house": "5 A",
      "postcode": "2130-206",
      "city": "BENAVENTE",
      "lon": "-8.803520461588715",
      "lat": "38.976350110162485"
    },
    {
      "id": "pt.ine.add.PTCONT.4577656",
      "street": "LG NATERCIA FREIRE",
      "house": "5 A",
      "postcode": "2130-206",
      "city": "BENAVENTE",
      "lon": "-8.803520461588715",
      "lat": "38.976350110162485"
    },
    {
      "id": "pt.ine.add.PTCONT.4577668",
      "street": "LG NATERCIA FREIRE",
      "house": "5 A",
      "postcode": "2130-206",
      "city": "BENAVENTE",
      "lon": "-8.803520461588715",
      "lat": "38.976350110162485"
    },
    {
      "id": "pt.ine.add.PTCONT.4577669",
      "street": "LG NATERCIA FREIRE",
      "house": "5 A",
      "postcode": "2130-206",
      "city": "BENAVENTE",
      "lon": "-8.803520461588715",
      "lat": "38.976350110162485"
    },
    {
      "id": "pt.ine.add.PTCONT.4577670",
      "street": "LG NATERCIA FREIRE",
      "house": "5 A",
      "postcode": "2130-206",
      "city": "BENAVENTE",
      "lon": "-8.803520461588715",
      "lat": "38.976350110162485"
    },
    {
      "id": "pt.ine.add.PTCONT.4577671",
      "street": "LG NATERCIA FREIRE",
      "house": "5 A",
      "postcode": "2130-206",
      "city": "BENAVENTE",
      "lon": "-8.803520461588715",
      "lat": "38.976350110162485"
    },
    {
      "id": "pt.ine.add.PTCONT.4577672",
      "street": "LG NATERCIA FREIRE",
      "house": "5 A",
      "postcode": "2130-206",
      "city": "BENAVENTE",
      "lon": "-8.803520461588715",
      "lat": "38.976350110162485"
    },
    {
      "id": "pt.ine.add.PTCONT.4577673",
      "street": "LG NATERCIA FREIRE",
      "house": "5 A",
      "postcode": "2130-206",
      "city": "BENAVENTE",
      "lon": "-8.803520461588715",
      "lat": "38.976350110162485"
    },
    {
      "id": "pt.ine.add.PTCONT.4577674",
      "street": "LG NATERCIA FREIRE",
      "house": "5 A",
      "postcode": "2130-206",
      "city": "BENAVENTE",
      "lon": "-8.803520461588715",
      "lat": "38.976350110162485"
    },
    {
      "id": "pt.ine.add.PTCONT.4577675",
      "street": "LG NATERCIA FREIRE",
      "house": "5 A",
      "postcode": "2130-206",
      "city": "BENAVENTE",
      "lon": "-8.803520461588715",
      "lat": "38.976350110162485"
    },
    {
      "id": "pt.ine.add.PTCONT.4577676",
      "street": "LG NATERCIA FREIRE",
      "house": "5 A",
      "postcode": "2130-206",
      "city": "BENAVENTE",
      "lon": "-8.803520461588715",
      "lat": "38.976350110162485"
    },
    {
      "id": "pt.ine.add.PTCONT.4577677",
      "street": "LG NATERCIA FREIRE",
      "house": "5 A",
      "postcode": "2130-206",
      "city": "BENAVENTE",
      "lon": "-8.803520461588715",
      "lat": "38.976350110162485"
    },
    {
      "id": "pt.ine.add.PTCONT.4581591",
      "street": "R ALFREDO BETAMIO DE ALMEIDA",
      "house": "47 A",
      "postcode": "2130-186",
      "city": "BENAVENTE",
      "lon": "-8.802983972951749",
      "lat": "38.97574967793951"
    },
    {
      "id": "pt.ine.add.PTCONT.4597262",
      "street": "R ALFREDO BETAMIO DE ALMEIDA",
      "house": "41 A",
      "postcode": "2130-186",
      "city": "BENAVENTE",
      "lon": "-8.803671901347059",
      "lat": "38.975277328491494"
    },
    {
      "id": "pt.ine.add.PTCONT.4602151",
      "street": "R ALFREDO BETAMIO DE ALMEIDA",
      "house": "50 A",
      "postcode": "2130-186",
      "city": "BENAVENTE",
      "lon": "-8.802998142800984",
      "lat": "38.97602883405695"
    },
    {
      "id": "pt.ine.add.PTCONT.4610979",
      "street": "R ALFREDO BETAMIO DE ALMEIDA",
      "house": "44 A",
      "postcode": "2130-186",
      "city": "BENAVENTE",
      "lon": "-8.803256581589023",
      "lat": "38.9752887220143"
    },
    {
      "id": "pt.ine.add.PTCONT.4627833",
      "street": "RIBASOR",
      "house": "",
      "postcode": "2130-060",
      "city": "BENAVENTE",
      "lon": "-8.803016723210163",
      "lat": "38.97555132140212"
    },
    {
      "id": "pt.ine.add.PTCONT.4629737",
      "street": "EN 118",
      "house": "",
      "postcode": "2130-062",
      "city": "BENAVENTE",
      "lon": "-8.805974845511894",
      "lat": "38.9747506354525"
    },
    {
      "id": "pt.ine.add.PTCONT.4649922",
      "street": "LG NATERCIA FREIRE",
      "house": "",
      "postcode": "2130-206",
      "city": "BENAVENTE",
      "lon": "-8.803187183226688",
      "lat": "38.97649614697216"
    },
    {
      "id": "pt.ine.add.PTCONT.4649923",
      "street": "LG NATERCIA FREIRE",
      "house": "",
      "postcode": "2130-206",
      "city": "BENAVENTE",
      "lon": "-8.803187183226688",
      "lat": "38.97649614697216"
    },
    {
      "id": "pt.ine.add.PTCONT.4649924",
      "street": "LG NATERCIA FREIRE",
      "house": "",
      "postcode": "2130-206",
      "city": "BENAVENTE",
      "lon": "-8.803187183226688",
      "lat": "38.97649614697216"
    },
    {
      "id": "pt.ine.add.PTCONT.4649925",
      "street": "LG NATERCIA FREIRE",
      "house": "",
      "postcode": "2130-206",
      "city": "BENAVENTE",
      "lon": "-8.803187183226688",
      "lat": "38.97649614697216"
    },
    {
      "id": "pt.ine.add.PTCONT.4649926",
      "street": "LG NATERCIA FREIRE",
      "house": "",
      "postcode": "2130-206",
      "city": "BENAVENTE",
      "lon": "-8.803187183226688",
      "lat": "38.97649614697216"
    },
    {
      "id": "pt.ine.add.PTCONT.4649927",
      "street": "LG NATERCIA FREIRE",
      "house": "",
      "postcode": "2130-206",
      "city": "BENAVENTE",
      "lon": "-8.803187183226688",
      "lat": "38.97649614697216"
    },
    {
      "id": "pt.ine.add.PTCONT.4649928",
      "street": "LG NATERCIA FREIRE",
      "house": "",
      "postcode": "2130-206",
      "city": "BENAVENTE",
      "lon": "-8.803187183226688",
      "lat": "38.97649614697216"
    },
    {
      "id": "pt.ine.add.PTCONT.4649929",
      "street": "LG NATERCIA FREIRE",
      "house": "",
      "postcode": "2130-206",
      "city": "BENAVENTE",
      "lon": "-8.803187183226688",
      "lat": "38.97649614697216"
    },
    {
      "id": "pt.ine.add.PTCONT.4649930",
      "street": "LG NATERCIA FREIRE",
      "house": "",
      "postcode": "2130-206",
      "city": "BENAVENTE",
      "lon": "-8.803187183226688",
      "lat": "38.97649614697216"
    },
    {
      "id": "pt.ine.add.PTCONT.4649931",
      "street": "LG NATERCIA FREIRE",
      "house": "",
      "postcode": "2130-206",
      "city": "BENAVENTE",
      "lon": "-8.803187183226688",
      "lat": "38.97649614697216"
    },
    {
      "id": "pt.ine.add.PTCONT.4649932",
      "street": "LG NATERCIA FREIRE",
      "house": "",
      "postcode": "2130-206",
      "city": "BENAVENTE",
      "lon": "-8.803187183226688",
      "lat": "38.97649614697216"
    },
    {
      "id": "pt.ine.add.PTCONT.4649933",
      "street": "LG NATERCIA FREIRE",
      "house": "",
      "postcode": "2130-206",
      "city": "BENAVENTE",
      "lon": "-8.803187183226688",
      "lat": "38.97649614697216"
    }
  ]
}