{
  "data": {
    "distrito": "Lisboa",
    "concelho": "Mafra",
    "freguesia": "Uni√£o das freguesias de Azueira e Sobral da Abelheira",
    "OBJECTID": 1317,
    "BGRI2021": "11091800303",
    "DT21": "11",
    "DTMN21": "1109",
    "DTMNFR21": "110918",
    "DTMNFRSEC21": "110918003",
    "SECNUM21": "003",
    "SSNUM21": "03",
    "SECSSNUM21": "00303",
    "OBJECTID_1": 109433,
    "DT": "11",
    "CC": "09",
    "fr": "18",
    "SEC": "003",
    "SS": "03"
  },
  "addresses": [
    {
      "id": "pt.ine.add.PTCONT.2270703",
      "street": "R EIRAS",
      "house": "6",
      "postcode": "2640-602",
      "city": "SOBRAL DA ABELHEIRA",
      "lon": "-9.307811402880494",
      "lat": "38.96774228292767"
    },
    {
      "id": "pt.ine.add.PTCONT.2281257",
      "street": "LG VEADO",
      "house": "5",
      "postcode": "2640-602",
      "city": "SOBRAL DA ABELHEIRA",
      "lon": "-9.307201412047723",
      "lat": "38.967135918722384"
    },
    {
      "id": "pt.ine.add.PTCONT.2290011",
      "street": "R POCA",
      "house": "3",
      "postcode": "2640-602",
      "city": "SOBRAL DA ABELHEIRA",
      "lon": "-9.307493828995318",
      "lat": "38.96737617601051"
    },
    {
      "id": "pt.ine.add.PTCONT.2293542",
      "street": "R EIRAS",
      "house": "12",
      "postcode": "2640-602",
      "city": "SOBRAL DA ABELHEIRA",
      "lon": "-9.307952217259526",
      "lat": "38.967884983691825"
    },
    {
      "id": "pt.ine.add.PTCONT.2399646",
      "street": "CC MADEIRA",
      "house": "4",
      "postcode": "2640-602",
      "city": "SOBRAL DA ABELHEIRA",
      "lon": "-9.308036987935731",
      "lat": "38.96812733001786"
    },
    {
      "id": "pt.ine.add.PTCONT.2464099",
      "street": "CC MADEIRA",
      "house": "9",
      "postcode": "2640-602",
      "city": "SOBRAL DA ABELHEIRA",
      "lon": "-9.307653466551962",
      "lat": "38.96796005043303"
    },
    {
      "id": "pt.ine.add.PTCONT.2517426",
      "street": "R EIRAS",
      "house": "8",
      "postcode": "2640-602",
      "city": "SOBRAL DA ABELHEIRA",
      "lon": "-9.307846903959236",
      "lat": "38.96779596994509"
    },
    {
      "id": "pt.ine.add.PTCONT.2535313",
      "street": "R PRINCIPAL",
      "house": "33",
      "postcode": "2640-602",
      "city": "SOBRAL DA ABELHEIRA",
      "lon": "-9.305159545640395",
      "lat": "38.96995774802812"
    },
    {
      "id": "pt.ine.add.PTCONT.2564732",
      "street": "R EIRAS",
      "house": "2",
      "postcode": "2640-602",
      "city": "SOBRAL DA ABELHEIRA",
      "lon": "-9.30738762478157",
      "lat": "38.967233126380194"
    },
    {
      "id": "pt.ine.add.PTCONT.2626631",
      "street": "R PRINCIPAL",
      "house": "5",
      "postcode": "2640-602",
      "city": "SOBRAL DA ABELHEIRA",
      "lon": "-9.307352633295858",
      "lat": "38.96790903373456"
    },
    {
      "id": "pt.ine.add.PTCONT.2655307",
      "street": "R PRINCIPAL",
      "house": "3",
      "postcode": "2640-602",
      "city": "SOBRAL DA ABELHEIRA",
      "lon": "-9.307289301840857",
      "lat": "38.96756738972366"
    },
    {
      "id": "pt.ine.add.PTCONT.2685588",
      "street": "R EIRAS",
      "house": "14",
      "postcode": "2640-602",
      "city": "SOBRAL DA ABELHEIRA",
      "lon": "-9.308022475870333",
      "lat": "38.96794732810178"
    },
    {
      "id": "pt.ine.add.PTCONT.2778269",
      "street": "LG VEADO",
      "house": "6",
      "postcode": "2640-602",
      "city": "SOBRAL DA ABELHEIRA",
      "lon": "-9.307167695942477",
      "lat": "38.967190302384296"
    },
    {
      "id": "pt.ine.add.PTCONT.2778270",
      "street": "R POGA",
      "house": "5",
      "postcode": "2640-602",
      "city": "SOBRAL DA ABELHEIRA",
      "lon": "-9.307659052936108",
      "lat": "38.967599698101736"
    },
    {
      "id": "pt.ine.add.PTCONT.2795455",
      "street": "R PRINCIPAL",
      "house": "11",
      "postcode": "2640-602",
      "city": "SOBRAL DA ABELHEIRA",
      "lon": "-9.30703824281994",
      "lat": "38.96843462640237"
    },
    {
      "id": "pt.ine.add.PTCONT.2877253",
      "street": "R POCA",
      "house": "2",
      "postcode": "2640-602",
      "city": "SOBRAL DA ABELHEIRA",
      "lon": "-9.307533642744547",
      "lat": "38.96769103440915"
    },
    {
      "id": "pt.ine.add.PTCONT.2911709",
      "street": "R PRINCIPAL",
      "house": "27",
      "postcode": "2640-602",
      "city": "SOBRAL DA ABELHEIRA",
      "lon": "-9.305513911269076",
      "lat": "38.969756025247754"
    },
    {
      "id": "pt.ine.add.PTCONT.2944977",
      "street": "R PRINCIPAL",
      "house": "9",
      "postcode": "2640-602",
      "city": "SOBRAL DA ABELHEIRA",
      "lon": "-9.307137757487165",
      "lat": "38.968172410533775"
    },
    {
      "id": "pt.ine.add.PTCONT.2957314",
      "street": "R PRINCIPAL",
      "house": "8",
      "postcode": "2640-602",
      "city": "SOBRAL DA ABELHEIRA",
      "lon": "-9.30712443711016",
      "lat": "38.96806445572517"
    },
    {
      "id": "pt.ine.add.PTCONT.3021302",
      "street": "R PRINCIPAL QTA DO CEDRO",
      "house": "13",
      "postcode": "2640-602",
      "city": "SOBRAL DA ABELHEIRA",
      "lon": "-9.306867725761355",
      "lat": "38.96858946759519"
    },
    {
      "id": "pt.ine.add.PTCONT.3106928",
      "street": "R PRINCIPAL",
      "house": "25",
      "postcode": "2640-602",
      "city": "SOBRAL DA ABELHEIRA",
      "lon": "-9.305582387759662",
      "lat": "38.969710300204014"
    },
    {
      "id": "pt.ine.add.PTCONT.3114232",
      "street": "R PRINCIPAL",
      "house": "",
      "postcode": "2640-602",
      "city": "SOBRAL DA ABELHEIRA",
      "lon": "-9.30632423550882",
      "lat": "38.969216444036434"
    },
    {
      "id": "pt.ine.add.PTCONT.3169661",
      "street": "R EIRAS",
      "house": "10",
      "postcode": "2640-602",
      "city": "SOBRAL DA ABELHEIRA",
      "lon": "-9.307905179885868",
      "lat": "38.96783141285442"
    },
    {
      "id": "pt.ine.add.PTCONT.3216261",
      "street": "R EIRAS",
      "house": "18",
      "postcode": "2640-602",
      "city": "SOBRAL DA ABELHEIRA",
      "lon": "-9.308147659113736",
      "lat": "38.96854055607678"
    },
    {
      "id": "pt.ine.add.PTCONT.3235098",
      "street": "R PRINCIPAL",
      "house": "1",
      "postcode": "2640-602",
      "city": "SOBRAL DA ABELHEIRA",
      "lon": "-9.307240778272995",
      "lat": "38.967423759534114"
    },
    {
      "id": "pt.ine.add.PTCONT.3244397",
      "street": "R POCA",
      "house": "3A",
      "postcode": "2640-602",
      "city": "SOBRAL DA ABELHEIRA",
      "lon": "-9.3075741354838",
      "lat": "38.96734834554381"
    },
    {
      "id": "pt.ine.add.PTCONT.3289907",
      "street": "R PRINCIPAL",
      "house": "29",
      "postcode": "2640-602",
      "city": "SOBRAL DA ABELHEIRA",
      "lon": "-9.305410825190235",
      "lat": "38.96980209796647"
    },
    {
      "id": "pt.ine.add.PTCONT.3360899",
      "street": "R PRINCIPAL",
      "house": "23",
      "postcode": "2640-602",
      "city": "SOBRAL DA ABELHEIRA",
      "lon": "-9.305765337836792",
      "lat": "38.969609380349134"
    },
    {
      "id": "pt.ine.add.PTCONT.3418902",
      "street": "R PRINCIPAL",
      "house": "35",
      "postcode": "2640-602",
      "city": "SOBRAL DA ABELHEIRA",
      "lon": "-9.304932970623957",
      "lat": "38.97021223086525"
    }
  ]
}