{
  "data": {
    "distrito": "Lisboa",
    "concelho": "Mafra",
    "freguesia": "Uni√£o das freguesias de Azueira e Sobral da Abelheira",
    "OBJECTID": 1636,
    "BGRI2021": "11091800318",
    "DT21": "11",
    "DTMN21": "1109",
    "DTMNFR21": "110918",
    "DTMNFRSEC21": "110918003",
    "SECNUM21": "003",
    "SSNUM21": "18",
    "SECSSNUM21": "00318",
    "OBJECTID_1": 107912,
    "DT": "11",
    "CC": "09",
    "fr": "18",
    "SEC": "003",
    "SS": "18"
  },
  "addresses": [
    {
      "id": "pt.ine.add.PTCONT.2270492",
      "street": "ESTR PRINCIPAL",
      "house": "50",
      "postcode": "2640-603",
      "city": "SOBRAL DA ABELHEIRA",
      "lon": "-9.301320608110231",
      "lat": "38.99263180788699"
    },
    {
      "id": "pt.ine.add.PTCONT.2289988",
      "street": "R ESCOLA PRIMARIA",
      "house": "7",
      "postcode": "2640-603",
      "city": "SOBRAL DA ABELHEIRA",
      "lon": "-9.302090577574202",
      "lat": "38.993831082834326"
    },
    {
      "id": "pt.ine.add.PTCONT.2299147",
      "street": "TV ESCOLA",
      "house": "1",
      "postcode": "2640-603",
      "city": "SOBRAL DA ABELHEIRA",
      "lon": "-9.302020429465447",
      "lat": "38.993075166760555"
    },
    {
      "id": "pt.ine.add.PTCONT.2379822",
      "street": "TV LOJA",
      "house": "2",
      "postcode": "2640-603",
      "city": "SOBRAL DA ABELHEIRA",
      "lon": "-9.299993630007766",
      "lat": "38.992654095068914"
    },
    {
      "id": "pt.ine.add.PTCONT.2399627",
      "street": "TV LOJA",
      "house": "3",
      "postcode": "2640-603",
      "city": "SOBRAL DA ABELHEIRA",
      "lon": "-9.299644613680817",
      "lat": "38.992486445311215"
    },
    {
      "id": "pt.ine.add.PTCONT.2435593",
      "street": "R ESCOLA PRIMARIA",
      "house": "13",
      "postcode": "2640-603",
      "city": "SOBRAL DA ABELHEIRA",
      "lon": "-9.300473881845768",
      "lat": "38.9930816444308"
    },
    {
      "id": "pt.ine.add.PTCONT.2489578",
      "street": "R OUTEIRO ALTO DA ROUPA",
      "house": "6",
      "postcode": "2640-603",
      "city": "SOBRAL DA ABELHEIRA",
      "lon": "-9.301875457907666",
      "lat": "38.994085444413756"
    },
    {
      "id": "pt.ine.add.PTCONT.2535297",
      "street": "R ESCOLA PRIMIRIA",
      "house": "1",
      "postcode": "2640-603",
      "city": "SOBRAL DA ABELHEIRA",
      "lon": "-9.299606296690655",
      "lat": "38.99226164414464"
    },
    {
      "id": "pt.ine.add.PTCONT.2544522",
      "street": "R ESCOLA PRIMARIA",
      "house": "27",
      "postcode": "2640-603",
      "city": "SOBRAL DA ABELHEIRA",
      "lon": "-9.301703212874838",
      "lat": "38.99273606457874"
    },
    {
      "id": "pt.ine.add.PTCONT.2551986",
      "street": "R PRINCIPAL",
      "house": "40",
      "postcode": "2640-603",
      "city": "SOBRAL DA ABELHEIRA",
      "lon": "-9.299780877985972",
      "lat": "38.99234997217372"
    },
    {
      "id": "pt.ine.add.PTCONT.2628139",
      "street": "R ESCOLA PRIMIRIA",
      "house": "7",
      "postcode": "2640-603",
      "city": "SOBRAL DA ABELHEIRA",
      "lon": "-9.299554066219633",
      "lat": "38.992595439103134"
    },
    {
      "id": "pt.ine.add.PTCONT.2642989",
      "street": "R PRINCIPAL",
      "house": "56",
      "postcode": "2640-603",
      "city": "SOBRAL DA ABELHEIRA",
      "lon": "-9.301995274629114",
      "lat": "38.99294931562639"
    },
    {
      "id": "pt.ine.add.PTCONT.2740161",
      "street": "R ESCOLA PRIMARIA",
      "house": "25",
      "postcode": "2640-603",
      "city": "SOBRAL DA ABELHEIRA",
      "lon": "-9.301658088740604",
      "lat": "38.992799568143994"
    },
    {
      "id": "pt.ine.add.PTCONT.2846013",
      "street": "R ESCOLA PRIMARIA",
      "house": "15",
      "postcode": "2640-603",
      "city": "SOBRAL DA ABELHEIRA",
      "lon": "-9.300727324403866",
      "lat": "38.993052086095076"
    },
    {
      "id": "pt.ine.add.PTCONT.2936757",
      "street": "TV LOJA",
      "house": "5",
      "postcode": "2640-603",
      "city": "SOBRAL DA ABELHEIRA",
      "lon": "-9.29964328294231",
      "lat": "38.99240539227504"
    },
    {
      "id": "pt.ine.add.PTCONT.3012174",
      "street": "R OUTEIRO ALTO DA ROUPA",
      "house": "4",
      "postcode": "2640-603",
      "city": "SOBRAL DA ABELHEIRA",
      "lon": "-9.301803400473677",
      "lat": "38.993915026286906"
    },
    {
      "id": "pt.ine.add.PTCONT.3161386",
      "street": "R PRINCIPAL",
      "house": "64",
      "postcode": "2640-603",
      "city": "SOBRAL DA ABELHEIRA",
      "lon": "-9.302957146442765",
      "lat": "38.99388544821962"
    },
    {
      "id": "pt.ine.add.PTCONT.3289892",
      "street": "R ESCOLA PRIMIRIA",
      "house": "5",
      "postcode": "2640-603",
      "city": "SOBRAL DA ABELHEIRA",
      "lon": "-9.299506870422224",
      "lat": "38.99253285936301"
    },
    {
      "id": "pt.ine.add.PTCONT.3318232",
      "street": "TV LOJA",
      "house": "4",
      "postcode": "2640-603",
      "city": "SOBRAL DA ABELHEIRA",
      "lon": "-9.299865652235562",
      "lat": "38.992592323419416"
    },
    {
      "id": "pt.ine.add.PTCONT.3326906",
      "street": "TV ESCOLA",
      "house": "3",
      "postcode": "2640-603",
      "city": "SOBRAL DA ABELHEIRA",
      "lon": "-9.302136276913929",
      "lat": "38.993101028101165"
    },
    {
      "id": "pt.ine.add.PTCONT.3336652",
      "street": "R PRINCIPAL",
      "house": "46",
      "postcode": "2640-603",
      "city": "SOBRAL DA ABELHEIRA",
      "lon": "-9.300698175979662",
      "lat": "38.99268307564434"
    },
    {
      "id": "pt.ine.add.PTCONT.3409102",
      "street": "R PRINCIPAL",
      "house": "52",
      "postcode": "2640-603",
      "city": "SOBRAL DA ABELHEIRA",
      "lon": "-9.301575233513917",
      "lat": "38.99267429483072"
    },
    {
      "id": "pt.ine.add.PTCONT.3427661",
      "street": "TV LOJA",
      "house": "6",
      "postcode": "2640-603",
      "city": "SOBRAL DA ABELHEIRA",
      "lon": "-9.30010696144705",
      "lat": "38.99252685829603"
    }
  ]
}