{
  "data": {
    "distrito": "Lisboa",
    "concelho": "Mafra",
    "freguesia": "Uni√£o das freguesias de Azueira e Sobral da Abelheira",
    "OBJECTID": 1119,
    "BGRI2021": "11091800326",
    "DT21": "11",
    "DTMN21": "1109",
    "DTMNFR21": "110918",
    "DTMNFRSEC21": "110918003",
    "SECNUM21": "003",
    "SSNUM21": "26",
    "SECSSNUM21": "00326",
    "OBJECTID_1": 109442,
    "DT": "11",
    "CC": "09",
    "fr": "18",
    "SEC": "003",
    "SS": "26"
  },
  "addresses": [
    {
      "id": "pt.ine.add.PTCONT.2281215",
      "street": "R PRINCIPAL",
      "house": "51",
      "postcode": "2640-603",
      "city": "SOBRAL DA ABELHEIRA",
      "lon": "-9.304189930948407",
      "lat": "38.994449551524994"
    },
    {
      "id": "pt.ine.add.PTCONT.2326005",
      "street": "TV OUTEIRO DA ROUPA",
      "house": "4",
      "postcode": "2640-603",
      "city": "SOBRAL DA ABELHEIRA",
      "lon": "-9.302658383999885",
      "lat": "38.99256436052093"
    },
    {
      "id": "pt.ine.add.PTCONT.2383717",
      "street": "R PRINCIPAL",
      "house": "41",
      "postcode": "2640-603",
      "city": "SOBRAL DA ABELHEIRA",
      "lon": "-9.3022126133268",
      "lat": "38.992830042099314"
    },
    {
      "id": "pt.ine.add.PTCONT.2390038",
      "street": "CSL FERROS",
      "house": "",
      "postcode": "2640-603",
      "city": "SOBRAL DA ABELHEIRA",
      "lon": "-9.312405230990576",
      "lat": "38.99149344871747"
    },
    {
      "id": "pt.ine.add.PTCONT.2508366",
      "street": "TV OUTEIRO DA ROUPA",
      "house": "3",
      "postcode": "2640-603",
      "city": "SOBRAL DA ABELHEIRA",
      "lon": "-9.302206093145468",
      "lat": "38.99243378318653"
    },
    {
      "id": "pt.ine.add.PTCONT.2564731",
      "street": "ESTR CHANCA",
      "house": "20",
      "postcode": "2640-603",
      "city": "SOBRAL DA ABELHEIRA",
      "lon": "-9.303199800382053",
      "lat": "38.99039716283109"
    },
    {
      "id": "pt.ine.add.PTCONT.2589388",
      "street": "ESTR CHANCA",
      "house": "10",
      "postcode": "2640-603",
      "city": "SOBRAL DA ABELHEIRA",
      "lon": "-9.302681122413759",
      "lat": "38.99114096808573"
    },
    {
      "id": "pt.ine.add.PTCONT.2704251",
      "street": "ESTR CHANCA",
      "house": "18",
      "postcode": "2640-603",
      "city": "SOBRAL DA ABELHEIRA",
      "lon": "-9.302808631387062",
      "lat": "38.99047314426267"
    },
    {
      "id": "pt.ine.add.PTCONT.2813831",
      "street": "R PRINCIPAL",
      "house": "45",
      "postcode": "2640-603",
      "city": "SOBRAL DA ABELHEIRA",
      "lon": "-9.303123727179901",
      "lat": "38.99348745357932"
    },
    {
      "id": "pt.ine.add.PTCONT.2828665",
      "street": "ESTR CHANCA QTA DAS VALENTINAS",
      "house": "24",
      "postcode": "2640-603",
      "city": "SOBRAL DA ABELHEIRA",
      "lon": "-9.304065585892802",
      "lat": "38.990406491229365"
    },
    {
      "id": "pt.ine.add.PTCONT.2936756",
      "street": "ESTR CHANCA",
      "house": "12",
      "postcode": "2640-603",
      "city": "SOBRAL DA ABELHEIRA",
      "lon": "-9.302428725015924",
      "lat": "38.99123357175991"
    },
    {
      "id": "pt.ine.add.PTCONT.3021286",
      "street": "TV OUTEIRO DA ROUPA",
      "house": "1",
      "postcode": "2640-603",
      "city": "SOBRAL DA ABELHEIRA",
      "lon": "-9.301944372629674",
      "lat": "38.992661589789066"
    },
    {
      "id": "pt.ine.add.PTCONT.3048604",
      "street": "TV OUTEIRO DA ROUPA",
      "house": "7",
      "postcode": "2640-603",
      "city": "SOBRAL DA ABELHEIRA",
      "lon": "-9.302538386905656",
      "lat": "38.992286334943586"
    },
    {
      "id": "pt.ine.add.PTCONT.3095949",
      "street": "ESTR CHANCA",
      "house": "14",
      "postcode": "2640-603",
      "city": "SOBRAL DA ABELHEIRA",
      "lon": "-9.302461566463643",
      "lat": "38.99112515414131"
    },
    {
      "id": "pt.ine.add.PTCONT.3189259",
      "street": "CAM CABECINHO BRANCO",
      "house": "4",
      "postcode": "2640-603",
      "city": "SOBRAL DA ABELHEIRA",
      "lon": "-9.305101052747208",
      "lat": "38.990206939260254"
    },
    {
      "id": "pt.ine.add.PTCONT.3427658",
      "street": "ESTR CHANCA CERRADO DA FONTE",
      "house": "6",
      "postcode": "2640-603",
      "city": "SOBRAL DA ABELHEIRA",
      "lon": "-9.302471348464586",
      "lat": "38.99171954257943"
    }
  ]
}