{
  "data": {
    "distrito": "Lisboa",
    "concelho": "Mafra",
    "freguesia": "Uni√£o das freguesias de Azueira e Sobral da Abelheira",
    "OBJECTID": 455,
    "BGRI2021": "11091800328",
    "DT21": "11",
    "DTMN21": "1109",
    "DTMNFR21": "110918",
    "DTMNFRSEC21": "110918003",
    "SECNUM21": "003",
    "SSNUM21": "28",
    "SECSSNUM21": "00328",
    "OBJECTID_1": 108405,
    "DT": "11",
    "CC": "09",
    "fr": "18",
    "SEC": "003",
    "SS": "28"
  },
  "addresses": [
    {
      "id": "pt.ine.add.PTCONT.2281214",
      "street": "R PRINCIPAL",
      "house": "28",
      "postcode": "2640-603",
      "city": "SOBRAL DA ABELHEIRA",
      "lon": "-9.29896644349975",
      "lat": "38.99054763166846"
    },
    {
      "id": "pt.ine.add.PTCONT.2289981",
      "street": "R MARGARIDA",
      "house": "18",
      "postcode": "2640-603",
      "city": "SOBRAL DA ABELHEIRA",
      "lon": "-9.302033781472765",
      "lat": "38.994588270751"
    },
    {
      "id": "pt.ine.add.PTCONT.2289982",
      "street": "R PRINCIPAL",
      "house": "20",
      "postcode": "2640-603",
      "city": "SOBRAL DA ABELHEIRA",
      "lon": "-9.298253818737642",
      "lat": "38.989320740175295"
    },
    {
      "id": "pt.ine.add.PTCONT.2316968",
      "street": "R MONTE GORDO BAIXO",
      "house": "3",
      "postcode": "2640-604",
      "city": "SOBRAL DA ABELHEIRA",
      "lon": "-9.29738542048822",
      "lat": "38.98844668632726"
    },
    {
      "id": "pt.ine.add.PTCONT.2316969",
      "street": "R MONTE GORDO BAIXO",
      "house": "1",
      "postcode": "2640-604",
      "city": "SOBRAL DA ABELHEIRA",
      "lon": "-9.297616359235455",
      "lat": "38.98845338889296"
    },
    {
      "id": "pt.ine.add.PTCONT.2379820",
      "street": "R ESCOLA PRIMARIA",
      "house": "1",
      "postcode": "2640-603",
      "city": "SOBRAL DA ABELHEIRA",
      "lon": "-9.299359656304365",
      "lat": "38.992705471125234"
    },
    {
      "id": "pt.ine.add.PTCONT.2464097",
      "street": "R ESCOLA PRIMARIA THE SLOPE COTTAGE",
      "house": "10",
      "postcode": "2640-603",
      "city": "SOBRAL DA ABELHEIRA",
      "lon": "-9.299333619387767",
      "lat": "38.99252558397288"
    },
    {
      "id": "pt.ine.add.PTCONT.2502628",
      "street": "R MARGARIDA",
      "house": "26",
      "postcode": "2640-603",
      "city": "SOBRAL DA ABELHEIRA",
      "lon": "-9.303058516158544",
      "lat": "38.994433881060004"
    },
    {
      "id": "pt.ine.add.PTCONT.2535286",
      "street": "R ESCOLA PRIMARIA",
      "house": "18",
      "postcode": "2640-603",
      "city": "SOBRAL DA ABELHEIRA",
      "lon": "-9.299622117457288",
      "lat": "38.993225274646875"
    },
    {
      "id": "pt.ine.add.PTCONT.2677846",
      "street": "R MARGARIDA",
      "house": "24",
      "postcode": "2640-603",
      "city": "SOBRAL DA ABELHEIRA",
      "lon": "-9.302748108533333",
      "lat": "38.994509052431276"
    },
    {
      "id": "pt.ine.add.PTCONT.2685587",
      "street": "R MONTE GORDO BAIXO",
      "house": "17",
      "postcode": "2640-604",
      "city": "SOBRAL DA ABELHEIRA",
      "lon": "-9.295244312076692",
      "lat": "38.98949487448564"
    },
    {
      "id": "pt.ine.add.PTCONT.2787035",
      "street": "R ESCOLA PRIMARIA",
      "house": "6",
      "postcode": "2640-603",
      "city": "SOBRAL DA ABELHEIRA",
      "lon": "-9.299350934734417",
      "lat": "38.992174123388395"
    },
    {
      "id": "pt.ine.add.PTCONT.2813830",
      "street": "R MARGARIDA",
      "house": "4",
      "postcode": "2640-603",
      "city": "SOBRAL DA ABELHEIRA",
      "lon": "-9.301717136668062",
      "lat": "38.99358261778472"
    },
    {
      "id": "pt.ine.add.PTCONT.2820917",
      "street": "R ESCOLA PRIMARIA",
      "house": "8B",
      "postcode": "2640-603",
      "city": "SOBRAL DA ABELHEIRA",
      "lon": "-9.299182857600929",
      "lat": "38.99248205406306"
    },
    {
      "id": "pt.ine.add.PTCONT.2865994",
      "street": "R MARGARIDA",
      "house": "22",
      "postcode": "2640-603",
      "city": "SOBRAL DA ABELHEIRA",
      "lon": "-9.302430606439184",
      "lat": "38.99485451506893"
    },
    {
      "id": "pt.ine.add.PTCONT.2887312",
      "street": "R MARGARIDA",
      "house": "14",
      "postcode": "2640-603",
      "city": "SOBRAL DA ABELHEIRA",
      "lon": "-9.301553966606214",
      "lat": "38.99489032037073"
    },
    {
      "id": "pt.ine.add.PTCONT.2918634",
      "street": "R PRINCIPAL",
      "house": "32",
      "postcode": "2640-603",
      "city": "SOBRAL DA ABELHEIRA",
      "lon": "-9.299430542591173",
      "lat": "38.99139869354344"
    },
    {
      "id": "pt.ine.add.PTCONT.3002700",
      "street": "R MARGARIDA",
      "house": "20",
      "postcode": "2640-603",
      "city": "SOBRAL DA ABELHEIRA",
      "lon": "-9.302332797933646",
      "lat": "38.99452222280611"
    },
    {
      "id": "pt.ine.add.PTCONT.3123600",
      "street": "R MARGARIDA",
      "house": "12",
      "postcode": "2640-603",
      "city": "SOBRAL DA ABELHEIRA",
      "lon": "-9.30174334224187",
      "lat": "38.99447408467791"
    },
    {
      "id": "pt.ine.add.PTCONT.3235072",
      "street": "R MARGARIDA",
      "house": "8",
      "postcode": "2640-603",
      "city": "SOBRAL DA ABELHEIRA",
      "lon": "-9.301502756891145",
      "lat": "38.99388200811886"
    },
    {
      "id": "pt.ine.add.PTCONT.3235077",
      "street": "R ESCOLA PRIMARIA",
      "house": "2",
      "postcode": "2640-603",
      "city": "SOBRAL DA ABELHEIRA",
      "lon": "-9.299391034502266",
      "lat": "38.99180442027149"
    },
    {
      "id": "pt.ine.add.PTCONT.3244381",
      "street": "R ESCOLA PRIMARIA",
      "house": "16",
      "postcode": "2640-603",
      "city": "SOBRAL DA ABELHEIRA",
      "lon": "-9.29965052813903",
      "lat": "38.992846681013475"
    },
    {
      "id": "pt.ine.add.PTCONT.3271570",
      "street": "R ESCOLA PRIMARIA",
      "house": "",
      "postcode": "2640-603",
      "city": "SOBRAL DA ABELHEIRA",
      "lon": "-9.299232565825193",
      "lat": "38.99269773413702"
    },
    {
      "id": "pt.ine.add.PTCONT.3280764",
      "street": "CAM BANDALHOEIRA CASAL DAS LOBAS",
      "house": "",
      "postcode": "2640-604",
      "city": "SOBRAL DA ABELHEIRA",
      "lon": "-9.295404885070388",
      "lat": "38.99296111467954"
    },
    {
      "id": "pt.ine.add.PTCONT.3298253",
      "street": "R ESCOLA PRIMARIA",
      "house": "20",
      "postcode": "2640-603",
      "city": "SOBRAL DA ABELHEIRA",
      "lon": "-9.30021170953427",
      "lat": "38.99328242957453"
    },
    {
      "id": "pt.ine.add.PTCONT.3326905",
      "street": "R ESCOLA PRIMARIA",
      "house": "24",
      "postcode": "2640-603",
      "city": "SOBRAL DA ABELHEIRA",
      "lon": "-9.301100907141373",
      "lat": "38.99330956031831"
    },
    {
      "id": "pt.ine.add.PTCONT.3383077",
      "street": "R ESCOLA PRIMARIA",
      "house": "8",
      "postcode": "2640-603",
      "city": "SOBRAL DA ABELHEIRA",
      "lon": "-9.299261421877151",
      "lat": "38.99234615821928"
    }
  ]
}