{
  "data": {
    "ilha": "Ilha da Madeira (Madeira)",
    "concelho": "Funchal",
    "freguesia": "Funchal (SÃ£o Pedro)",
    "OBJECTID": 370,
    "BGRI2021": "31030800503",
    "DT21": "31",
    "DTMN21": "3103",
    "DTMNFR21": "310308",
    "DTMNFRSEC21": "310308005",
    "SECNUM21": "005",
    "SSNUM21": "03",
    "SECSSNUM21": "00503",
    "OBJECTID_1": 203680,
    "DT": "31",
    "CC": "03",
    "fr": "08",
    "SEC": "005",
    "SS": "03",
    "BGRI2021_1": "31030800503"
  },
  "addresses": [
    {
      "id": "pt.ine.add.MAD.15054",
      "street": "R FRIAS",
      "house": "40",
      "postcode": "9000-032",
      "city": "FUNCHAL",
      "lon": "-16.91799484593541",
      "lat": "32.65065136092101"
    },
    {
      "id": "pt.ine.add.MAD.15055",
      "street": "R FRIAS",
      "house": "28",
      "postcode": "9000-032",
      "city": "FUNCHAL",
      "lon": "-16.91801192397467",
      "lat": "32.65045268728401"
    },
    {
      "id": "pt.ine.add.MAD.15056",
      "street": "2 TV FRIAS",
      "house": "1",
      "postcode": "9000-637",
      "city": "FUNCHAL",
      "lon": "-16.917713982286323",
      "lat": "32.649979246911876"
    },
    {
      "id": "pt.ine.add.MAD.15057",
      "street": "R FRIAS",
      "house": "26",
      "postcode": "9000-032",
      "city": "FUNCHAL",
      "lon": "-16.917923395038358",
      "lat": "32.650300721580635"
    },
    {
      "id": "pt.ine.add.MAD.15058",
      "street": "BC AMARO",
      "house": "1 C",
      "postcode": "9000-210",
      "city": "FUNCHAL",
      "lon": "-16.916126943817403",
      "lat": "32.65204173009212"
    },
    {
      "id": "pt.ine.add.MAD.15059",
      "street": "CC PICO",
      "house": "79A",
      "postcode": "9000-206",
      "city": "FUNCHAL",
      "lon": "-16.915850049386645",
      "lat": "32.65205497681196"
    },
    {
      "id": "pt.ine.add.MAD.15060",
      "street": "CC PICO",
      "house": "2 A",
      "postcode": "9000-206",
      "city": "FUNCHAL",
      "lon": "-16.915850049386645",
      "lat": "32.65205497681196"
    },
    {
      "id": "pt.ine.add.MAD.15061",
      "street": "CC PICO",
      "house": "79",
      "postcode": "9000-206",
      "city": "FUNCHAL",
      "lon": "-16.915850049386645",
      "lat": "32.65205497681196"
    },
    {
      "id": "pt.ine.add.MAD.15062",
      "street": "R CASTELO",
      "house": "4A",
      "postcode": "9000-203",
      "city": "FUNCHAL",
      "lon": "-16.915972357466647",
      "lat": "32.65179156537575"
    },
    {
      "id": "pt.ine.add.MAD.15063",
      "street": "CC PICO",
      "house": "7",
      "postcode": "9000-206",
      "city": "FUNCHAL",
      "lon": "-16.915600895529625",
      "lat": "32.651869386755784"
    },
    {
      "id": "pt.ine.add.MAD.15064",
      "street": "CC PICO",
      "house": "7",
      "postcode": "9000-206",
      "city": "FUNCHAL",
      "lon": "-16.915600895529625",
      "lat": "32.651869386755784"
    },
    {
      "id": "pt.ine.add.MAD.15065",
      "street": "CC PICO",
      "house": "15",
      "postcode": "9000-206",
      "city": "FUNCHAL",
      "lon": "-16.915667995299177",
      "lat": "32.651516630813845"
    },
    {
      "id": "pt.ine.add.MAD.15066",
      "street": "ESCNH RUA DO CASTELO",
      "house": "15",
      "postcode": "9000-203",
      "city": "FUNCHAL",
      "lon": "-16.915472624944083",
      "lat": "32.65185330736324"
    },
    {
      "id": "pt.ine.add.MAD.15067",
      "street": "BC LEVADA DO PICO",
      "house": "8",
      "postcode": "9000-204",
      "city": "FUNCHAL",
      "lon": "-16.9158078500795",
      "lat": "32.65057654472248"
    },
    {
      "id": "pt.ine.add.MAD.15072",
      "street": "ESC FRIAS",
      "house": "11",
      "postcode": "9000-619",
      "city": "FUNCHAL",
      "lon": "-16.91721265008073",
      "lat": "32.650464901616346"
    },
    {
      "id": "pt.ine.add.MAD.15073",
      "street": "R FRIAS",
      "house": "9",
      "postcode": "9000-032",
      "city": "FUNCHAL",
      "lon": "-16.91721265008073",
      "lat": "32.650464901616346"
    },
    {
      "id": "pt.ine.add.MAD.15074",
      "street": "ESC FRIAS",
      "house": "30 2",
      "postcode": "9000-619",
      "city": "FUNCHAL",
      "lon": "-16.9176267325304",
      "lat": "32.650386424288314"
    },
    {
      "id": "pt.ine.add.MAD.15075",
      "street": "ESC FRIAS",
      "house": "30 8 4",
      "postcode": "9000-619",
      "city": "FUNCHAL",
      "lon": "-16.917520932734647",
      "lat": "32.6504241160871"
    },
    {
      "id": "pt.ine.add.MAD.15076",
      "street": "R FRIAS",
      "house": "28",
      "postcode": "9000-032",
      "city": "FUNCHAL",
      "lon": "-16.917519392787373",
      "lat": "32.65035198957233"
    },
    {
      "id": "pt.ine.add.MAD.15077",
      "street": "2 TV FRIAS",
      "house": "26",
      "postcode": "9000-637",
      "city": "FUNCHAL",
      "lon": "-16.91757094516993",
      "lat": "32.65027003298633"
    },
    {
      "id": "pt.ine.add.MAD.15078",
      "street": "2 TV FRIAS",
      "house": "6",
      "postcode": "9000-637",
      "city": "FUNCHAL",
      "lon": "-16.917566517747055",
      "lat": "32.65006266925493"
    },
    {
      "id": "pt.ine.add.MAD.15079",
      "street": "2 TV FRIAS",
      "house": "8",
      "postcode": "9000-637",
      "city": "FUNCHAL",
      "lon": "-16.917312868372512",
      "lat": "32.65016575141997"
    },
    {
      "id": "pt.ine.add.MAD.15080",
      "street": "TV FRIAS",
      "house": "12",
      "postcode": "9000-037",
      "city": "FUNCHAL",
      "lon": "-16.916183230939485",
      "lat": "32.65018300643286"
    },
    {
      "id": "pt.ine.add.MAD.15081",
      "street": "R FRIAS",
      "house": "16",
      "postcode": "9000-032",
      "city": "FUNCHAL",
      "lon": "-16.917467140561723",
      "lat": "32.6499018502139"
    },
    {
      "id": "pt.ine.add.MAD.15082",
      "street": "TV FRIAS",
      "house": "18",
      "postcode": "9000-037",
      "city": "FUNCHAL",
      "lon": "-16.917320060842115",
      "lat": "32.650003303903496"
    },
    {
      "id": "pt.ine.add.MAD.15083",
      "street": "TV FRIAS",
      "house": "3",
      "postcode": "9000-037",
      "city": "FUNCHAL",
      "lon": "-16.91687266200392",
      "lat": "32.650019157824254"
    },
    {
      "id": "pt.ine.add.MAD.15084",
      "street": "TV FRIAS",
      "house": "9 9A",
      "postcode": "9000-037",
      "city": "FUNCHAL",
      "lon": "-16.916768209192877",
      "lat": "32.65011995971604"
    },
    {
      "id": "pt.ine.add.MAD.23679",
      "street": "R FRIAS",
      "house": "60 B CA",
      "postcode": "9000-032",
      "city": "FUNCHAL",
      "lon": "-16.917452108487517",
      "lat": "32.65069573044816"
    },
    {
      "id": "pt.ine.add.MAD.23675",
      "street": "R FRIAS",
      "house": "62",
      "postcode": "9000-032",
      "city": "FUNCHAL",
      "lon": "-16.917547374580536",
      "lat": "32.651163249957044"
    },
    {
      "id": "pt.ine.add.MAD.23676",
      "street": "R FRIAS",
      "house": "70",
      "postcode": "9000-032",
      "city": "FUNCHAL",
      "lon": "-16.91741448505752",
      "lat": "32.650930792993755"
    },
    {
      "id": "pt.ine.add.MAD.23677",
      "street": "R FRIAS",
      "house": "64",
      "postcode": "9000-032",
      "city": "FUNCHAL",
      "lon": "-16.917683221260997",
      "lat": "32.65103491138658"
    },
    {
      "id": "pt.ine.add.MAD.23678",
      "street": "R FRIAS",
      "house": "72",
      "postcode": "9000-032",
      "city": "FUNCHAL",
      "lon": "-16.917509243459303",
      "lat": "32.65087523248767"
    },
    {
      "id": "pt.ine.add.MAD.23702",
      "street": "R FRIAS",
      "house": "86A",
      "postcode": "9000-032",
      "city": "FUNCHAL",
      "lon": "-16.917125205218333",
      "lat": "32.650863062901095"
    },
    {
      "id": "pt.ine.add.MAD.23703",
      "street": "BC AMARO",
      "house": "27",
      "postcode": "9000-210",
      "city": "FUNCHAL",
      "lon": "-16.91648820871007",
      "lat": "32.65148606880047"
    },
    {
      "id": "pt.ine.add.MAD.23704",
      "street": "BC AMARO",
      "house": "25",
      "postcode": "9000-210",
      "city": "FUNCHAL",
      "lon": "-16.91654380312544",
      "lat": "32.651593444769155"
    },
    {
      "id": "pt.ine.add.MAD.23705",
      "street": "BC AMARO",
      "house": "23",
      "postcode": "9000-210",
      "city": "FUNCHAL",
      "lon": "-16.9164796679669",
      "lat": "32.6515854055671"
    },
    {
      "id": "pt.ine.add.MAD.23706",
      "street": "BC AMARO",
      "house": "21",
      "postcode": "9000-210",
      "city": "FUNCHAL",
      "lon": "-16.916470165223036",
      "lat": "32.65163966324203"
    },
    {
      "id": "pt.ine.add.MAD.23707",
      "street": "BC AMARO",
      "house": "13 1517",
      "postcode": "9000-210",
      "city": "FUNCHAL",
      "lon": "-16.916373481477414",
      "lat": "32.65160506482497"
    },
    {
      "id": "pt.ine.add.MAD.23708",
      "street": "BC AMARO",
      "house": "11",
      "postcode": "9000-210",
      "city": "FUNCHAL",
      "lon": "-16.916276797803132",
      "lat": "32.651570466330426"
    },
    {
      "id": "pt.ine.add.MAD.23709",
      "street": "BC AMARO",
      "house": "9B",
      "postcode": "9000-210",
      "city": "FUNCHAL",
      "lon": "-16.91611501730243",
      "lat": "32.65148274926672"
    },
    {
      "id": "pt.ine.add.MAD.23710",
      "street": "BC AMARO",
      "house": "1D",
      "postcode": "9000-210",
      "city": "FUNCHAL",
      "lon": "-16.916126943817403",
      "lat": "32.65204173009212"
    },
    {
      "id": "pt.ine.add.MAD.23722",
      "street": "R FRIAS",
      "house": "86 B",
      "postcode": "9000-032",
      "city": "FUNCHAL",
      "lon": "-16.91718626048855",
      "lat": "32.65072684874286"
    },
    {
      "id": "pt.ine.add.MAD.23723",
      "street": "R FRIAS",
      "house": "58",
      "postcode": "9000-032",
      "city": "FUNCHAL",
      "lon": "-16.917808410517818",
      "lat": "32.65090673555783"
    },
    {
      "id": "pt.ine.add.MAD.23724",
      "street": "R FRIAS",
      "house": "60 BZ",
      "postcode": "9000-032",
      "city": "FUNCHAL",
      "lon": "-16.91758114766521",
      "lat": "32.65074787112182"
    },
    {
      "id": "pt.ine.add.MAD.23725",
      "street": "R FRIAS",
      "house": "44",
      "postcode": "9000-032",
      "city": "FUNCHAL",
      "lon": "-16.917761931947794",
      "lat": "32.65072707080734"
    },
    {
      "id": "pt.ine.add.MAD.23726",
      "street": "TV FRIAS",
      "house": "9 A",
      "postcode": "9000-037",
      "city": "FUNCHAL",
      "lon": "-16.916768209192877",
      "lat": "32.65011995971604"
    },
    {
      "id": "pt.ine.add.MAD.23727",
      "street": "2 TV FRIAS",
      "house": "26A",
      "postcode": "9000-637",
      "city": "FUNCHAL",
      "lon": "-16.91739150910322",
      "lat": "32.65035394370012"
    },
    {
      "id": "pt.ine.add.MAD.23728",
      "street": "TV FRIAS",
      "house": "2A",
      "postcode": "9000-037",
      "city": "FUNCHAL",
      "lon": "-16.91709741991901",
      "lat": "32.650060818056616"
    },
    {
      "id": "pt.ine.add.MAD.23729",
      "street": "TV FRIAS",
      "house": "9B",
      "postcode": "9000-037",
      "city": "FUNCHAL",
      "lon": "-16.91665175235158",
      "lat": "32.650157813569244"
    },
    {
      "id": "pt.ine.add.MAD.23730",
      "street": "TV FRIAS",
      "house": "10",
      "postcode": "9000-037",
      "city": "FUNCHAL",
      "lon": "-16.916332043646385",
      "lat": "32.65016269640921"
    },
    {
      "id": "pt.ine.add.MAD.53974",
      "street": "R FRIAS",
      "house": "42",
      "postcode": "9000-032",
      "city": "FUNCHAL",
      "lon": "-16.917791592721453",
      "lat": "32.65061839243835"
    },
    {
      "id": "pt.ine.add.MAD.53975",
      "street": "BC AMARO",
      "house": "1A",
      "postcode": "9000-210",
      "city": "FUNCHAL",
      "lon": "-16.916076735683248",
      "lat": "32.65218679688604"
    },
    {
      "id": "pt.ine.add.MAD.53976",
      "street": "TV FRIAS",
      "house": "21",
      "postcode": "9000-037",
      "city": "FUNCHAL",
      "lon": "-16.916238247016917",
      "lat": "32.650263335137694"
    },
    {
      "id": "pt.ine.add.MAD.53977",
      "street": "TV FRIAS",
      "house": "4C",
      "postcode": "9000-037",
      "city": "FUNCHAL",
      "lon": "-16.917215801031183",
      "lat": "32.650113121964985"
    },
    {
      "id": "pt.ine.add.MAD.57945",
      "street": "R FRIAS",
      "house": "78",
      "postcode": "9000-032",
      "city": "FUNCHAL",
      "lon": "-16.917314529669508",
      "lat": "32.650742926434305"
    },
    {
      "id": "pt.ine.add.MAD.57946",
      "street": "R FRIAS",
      "house": "76",
      "postcode": "9000-032",
      "city": "FUNCHAL",
      "lon": "-16.91745441835994",
      "lat": "32.65080392021832"
    },
    {
      "id": "pt.ine.add.MAD.57949",
      "street": "CC PICO",
      "house": "75",
      "postcode": "9000-206",
      "city": "FUNCHAL",
      "lon": "-16.915638251876814",
      "lat": "32.652121341687874"
    },
    {
      "id": "pt.ine.add.MAD.61930",
      "street": "R FRIAS",
      "house": "60 B 2",
      "postcode": "9000-032",
      "city": "FUNCHAL",
      "lon": "-16.917366082449362",
      "lat": "32.65066096992196"
    },
    {
      "id": "pt.ine.add.MAD.61932",
      "street": "CC PICO",
      "house": "81",
      "postcode": "9000-206",
      "city": "FUNCHAL",
      "lon": "-16.916046302955206",
      "lat": "32.652259411642994"
    },
    {
      "id": "pt.ine.add.MAD.61933",
      "street": "CC PICO",
      "house": "81",
      "postcode": "9000-206",
      "city": "FUNCHAL",
      "lon": "-16.916046302955206",
      "lat": "32.652259411642994"
    },
    {
      "id": "pt.ine.add.MAD.62116",
      "street": "R FRIAS",
      "house": "56",
      "postcode": "9000-032",
      "city": "FUNCHAL",
      "lon": "-16.917895207092812",
      "lat": "32.65097755901037"
    },
    {
      "id": "pt.ine.add.MAD.62117",
      "street": "TV FRIAS",
      "house": "3B",
      "postcode": "9000-037",
      "city": "FUNCHAL",
      "lon": "-16.917202642114674",
      "lat": "32.649996079172645"
    },
    {
      "id": "pt.ine.add.MAD.64236",
      "street": "R FRIAS",
      "house": "48",
      "postcode": "9000-032",
      "city": "FUNCHAL",
      "lon": "-16.91761973312674",
      "lat": "32.65055788760701"
    },
    {
      "id": "pt.ine.add.MAD.64237",
      "street": "BC AMARO",
      "house": "1B",
      "postcode": "9000-210",
      "city": "FUNCHAL",
      "lon": "-16.91610697600042",
      "lat": "32.652105166303365"
    },
    {
      "id": "pt.ine.add.MAD.64238",
      "street": "R FRIAS",
      "house": "46",
      "postcode": "9000-032",
      "city": "FUNCHAL",
      "lon": "-16.917664671227236",
      "lat": "32.65066542592365"
    },
    {
      "id": "pt.ine.add.MAD.64239",
      "street": "ESC FRIAS",
      "house": "2 CASA",
      "postcode": "9000-619",
      "city": "FUNCHAL",
      "lon": "-16.91733045437374",
      "lat": "32.65049015794482"
    },
    {
      "id": "pt.ine.add.MAD.66683",
      "street": "BC AMARO",
      "house": "37",
      "postcode": "9000-210",
      "city": "FUNCHAL",
      "lon": "-16.91665660596478",
      "lat": "32.65138429042353"
    },
    {
      "id": "pt.ine.add.MAD.66684",
      "street": "R FRIAS",
      "house": "60 A",
      "postcode": "9000-032",
      "city": "FUNCHAL",
      "lon": "-16.917646244835204",
      "lat": "32.65080098884595"
    },
    {
      "id": "pt.ine.add.MAD.66685",
      "street": "ESC FRIAS",
      "house": "PORTA 17",
      "postcode": "9000-619",
      "city": "FUNCHAL",
      "lon": "-16.91685127455805",
      "lat": "32.65051551619386"
    },
    {
      "id": "pt.ine.add.MAD.71039",
      "street": "R FRIAS",
      "house": "86",
      "postcode": "9000-032",
      "city": "FUNCHAL",
      "lon": "-16.91716006324368",
      "lat": "32.65099781167463"
    },
    {
      "id": "pt.ine.add.MAD.71042",
      "street": "R FRIAS",
      "house": "50",
      "postcode": "9000-032",
      "city": "FUNCHAL",
      "lon": "-16.91747072765062",
      "lat": "32.65056918335643"
    },
    {
      "id": "pt.ine.add.MAD.72532",
      "street": "R FRIAS",
      "house": "60 B 3",
      "postcode": "9000-032",
      "city": "FUNCHAL",
      "lon": "-16.917321914602805",
      "lat": "32.650589494745354"
    },
    {
      "id": "pt.ine.add.MAD.72758",
      "street": "2 TV FRIAS",
      "house": "34",
      "postcode": "9000-637",
      "city": "FUNCHAL",
      "lon": "-16.917820098284192",
      "lat": "32.65045561918753"
    },
    {
      "id": "pt.ine.add.MAD.72759",
      "street": "BC AMARO",
      "house": "33",
      "postcode": "9000-210",
      "city": "FUNCHAL",
      "lon": "-16.916615324431024",
      "lat": "32.651448052262715"
    },
    {
      "id": "pt.ine.add.MAD.72760",
      "street": "CC PICO",
      "house": "3",
      "postcode": "9000-206",
      "city": "FUNCHAL",
      "lon": "-16.915678380481467",
      "lat": "32.65200348520901"
    },
    {
      "id": "pt.ine.add.MAD.75850",
      "street": "R FRIAS",
      "house": "60",
      "postcode": "9000-032",
      "city": "FUNCHAL",
      "lon": "-16.917721999113606",
      "lat": "32.65085394366463"
    },
    {
      "id": "pt.ine.add.MAD.75851",
      "street": "TV FRIAS",
      "house": "15",
      "postcode": "9000-037",
      "city": "FUNCHAL",
      "lon": "-16.916833113006323",
      "lat": "32.650164062083746"
    },
    {
      "id": "pt.ine.add.MAD.83324",
      "street": "R FRIAS",
      "house": "66",
      "postcode": "9000-032",
      "city": "FUNCHAL",
      "lon": "-16.91758519023009",
      "lat": "32.6509372032024"
    },
    {
      "id": "pt.ine.add.MAD.83326",
      "street": "CC PICO",
      "house": "69",
      "postcode": "9000-206",
      "city": "FUNCHAL",
      "lon": "-16.91548847423448",
      "lat": "32.65209657189647"
    },
    {
      "id": "pt.ine.add.MAD.83327",
      "street": "ESC FRIAS",
      "house": "19",
      "postcode": "9000-619",
      "city": "FUNCHAL",
      "lon": "-16.916713118420088",
      "lat": "32.65053566406859"
    },
    {
      "id": "pt.ine.add.MAD.83328",
      "street": "TV FRIAS",
      "house": "16",
      "postcode": "9000-037",
      "city": "FUNCHAL",
      "lon": "-16.916887937209015",
      "lat": "32.650235374664575"
    },
    {
      "id": "pt.ine.add.MAD.83995",
      "street": "2 TV FRIAS",
      "house": "20",
      "postcode": "9000-637",
      "city": "FUNCHAL",
      "lon": "-16.917692406986315",
      "lat": "32.6504665894405"
    },
    {
      "id": "pt.ine.add.MAD.83997",
      "street": "BC AMARO",
      "house": "31",
      "postcode": "9000-210",
      "city": "FUNCHAL",
      "lon": "-16.916584315141378",
      "lat": "32.651493619679805"
    },
    {
      "id": "pt.ine.add.MAD.83998",
      "street": "CC PICO",
      "house": "77",
      "postcode": "9000-206",
      "city": "FUNCHAL",
      "lon": "-16.915692884110666",
      "lat": "32.65218363893936"
    },
    {
      "id": "pt.ine.add.MAD.83999",
      "street": "CC PICO",
      "house": "71",
      "postcode": "9000-206",
      "city": "FUNCHAL",
      "lon": "-16.91554310635182",
      "lat": "32.652158869217864"
    },
    {
      "id": "pt.ine.add.MAD.84000",
      "street": "R S JOÃO DEUS",
      "house": "28 A",
      "postcode": "9000-028",
      "city": "FUNCHAL",
      "lon": "-16.91586986885137",
      "lat": "32.650485410247086"
    },
    {
      "id": "pt.ine.add.MAD.84004",
      "street": "TV FRIAS",
      "house": "5D",
      "postcode": "9000-037",
      "city": "FUNCHAL",
      "lon": "-16.91701524343756",
      "lat": "32.6502063736043"
    },
    {
      "id": "pt.ine.add.MAD.84005",
      "street": "TV FRIAS",
      "house": "5D",
      "postcode": "9000-037",
      "city": "FUNCHAL",
      "lon": "-16.91701524343756",
      "lat": "32.6502063736043"
    },
    {
      "id": "pt.ine.add.MAD.88393",
      "street": "R FRIAS",
      "house": "74",
      "postcode": "9000-032",
      "city": "FUNCHAL",
      "lon": "-16.917380396615204",
      "lat": "32.65083210756077"
    },
    {
      "id": "pt.ine.add.MAD.88395",
      "street": "2 TV FRIAS",
      "house": "7",
      "postcode": "9000-637",
      "city": "FUNCHAL",
      "lon": "-16.91781644034356",
      "lat": "32.6502843187444"
    },
    {
      "id": "pt.ine.add.MAD.88396",
      "street": "R FRIAS",
      "house": "22",
      "postcode": "9000-032",
      "city": "FUNCHAL",
      "lon": "-16.917717639988798",
      "lat": "32.65015054737363"
    },
    {
      "id": "pt.ine.add.MAD.88397",
      "street": "R FRIAS",
      "house": "22",
      "postcode": "9000-032",
      "city": "FUNCHAL",
      "lon": "-16.917717639988798",
      "lat": "32.65015054737363"
    },
    {
      "id": "pt.ine.add.MAD.88398",
      "street": "R FRIAS",
      "house": "22",
      "postcode": "9000-032",
      "city": "FUNCHAL",
      "lon": "-16.917717639988798",
      "lat": "32.65015054737363"
    },
    {
      "id": "pt.ine.add.MAD.88400",
      "street": "BC AMARO",
      "house": "19",
      "postcode": "9000-210",
      "city": "FUNCHAL",
      "lon": "-16.916427344299535",
      "lat": "32.65163129848051"
    },
    {
      "id": "pt.ine.add.MAD.88401",
      "street": "R CASTELO",
      "house": "20",
      "postcode": "9000-203",
      "city": "FUNCHAL",
      "lon": "-16.915985899872563",
      "lat": "32.65192663995609"
    },
    {
      "id": "pt.ine.add.MAD.88402",
      "street": "R CASTELO",
      "house": "6 A",
      "postcode": "9000-203",
      "city": "FUNCHAL",
      "lon": "-16.916073927689908",
      "lat": "32.65155552676309"
    },
    {
      "id": "pt.ine.add.MAD.91939",
      "street": "BC AMARO",
      "house": "7 9",
      "postcode": "9000-210",
      "city": "FUNCHAL",
      "lon": "-16.91631242442547",
      "lat": "32.65174127863789"
    },
    {
      "id": "pt.ine.add.MAD.91940",
      "street": "BC AMARO",
      "house": "7 9",
      "postcode": "9000-210",
      "city": "FUNCHAL",
      "lon": "-16.91631242442547",
      "lat": "32.65174127863789"
    },
    {
      "id": "pt.ine.add.MAD.91941",
      "street": "TV FRIAS",
      "house": "13",
      "postcode": "9000-037",
      "city": "FUNCHAL",
      "lon": "-16.91691836864486",
      "lat": "32.6501627597323"
    },
    {
      "id": "pt.ine.add.MAD.95573",
      "street": "R FRIAS",
      "house": "68",
      "postcode": "9000-032",
      "city": "FUNCHAL",
      "lon": "-16.917448188598208",
      "lat": "32.65101144678556"
    },
    {
      "id": "pt.ine.add.MAD.95744",
      "street": "R FRIAS",
      "house": "60 C",
      "postcode": "9000-032",
      "city": "FUNCHAL",
      "lon": "-16.91773823920817",
      "lat": "32.651115239353544"
    },
    {
      "id": "pt.ine.add.MAD.95745",
      "street": "BC AMARO",
      "house": "35",
      "postcode": "9000-210",
      "city": "FUNCHAL",
      "lon": "-16.916690116608656",
      "lat": "32.65145592861536"
    },
    {
      "id": "pt.ine.add.MAD.95746",
      "street": "CC PICO",
      "house": "9",
      "postcode": "9000-206",
      "city": "FUNCHAL",
      "lon": "-16.91566291534169",
      "lat": "32.65177825235928"
    },
    {
      "id": "pt.ine.add.MAD.95747",
      "street": "BC AMARO",
      "house": "9B",
      "postcode": "9000-210",
      "city": "FUNCHAL",
      "lon": "-16.916113863141074",
      "lat": "32.651428654345274"
    },
    {
      "id": "pt.ine.add.MAD.95750",
      "street": "R FRIAS",
      "house": "52",
      "postcode": "9000-032",
      "city": "FUNCHAL",
      "lon": "-16.917966340647958",
      "lat": "32.65081413419724"
    },
    {
      "id": "pt.ine.add.MAD.95751",
      "street": "TV FRIAS",
      "house": "11",
      "postcode": "9000-037",
      "city": "FUNCHAL",
      "lon": "-16.916906364680422",
      "lat": "32.65009981180369"
    },
    {
      "id": "pt.ine.add.MAD.95752",
      "street": "TV FRIAS",
      "house": "15",
      "postcode": "9000-037",
      "city": "FUNCHAL",
      "lon": "-16.91679202453605",
      "lat": "32.65023683978553"
    },
    {
      "id": "pt.ine.add.MAD.95753",
      "street": "TV FRIAS",
      "house": "15",
      "postcode": "9000-037",
      "city": "FUNCHAL",
      "lon": "-16.91679202453605",
      "lat": "32.65023683978553"
    },
    {
      "id": "pt.ine.add.MAD.95754",
      "street": "TV FRIAS",
      "house": "16",
      "postcode": "9000-037",
      "city": "FUNCHAL",
      "lon": "-16.917111925870206",
      "lat": "32.650240971580985"
    },
    {
      "id": "pt.ine.add.MAD.96422",
      "street": "R CASTELO",
      "house": "",
      "postcode": "9000-203",
      "city": "FUNCHAL",
      "lon": "-16.91655068713473",
      "lat": "32.6509169328593"
    },
    {
      "id": "pt.ine.add.MAD.97028",
      "street": "TV FRIAS",
      "house": "16",
      "postcode": "9000-037",
      "city": "FUNCHAL",
      "lon": "-16.916887937209015",
      "lat": "32.650235374664575"
    },
    {
      "id": "pt.ine.add.MAD.99025",
      "street": "CC PICO",
      "house": "5",
      "postcode": "9000-206",
      "city": "FUNCHAL",
      "lon": "-16.915676649600368",
      "lat": "32.65192234281265"
    },
    {
      "id": "pt.ine.add.MAD.99046",
      "street": "BC AMARO",
      "house": "39",
      "postcode": "9000-210",
      "city": "FUNCHAL",
      "lon": "-16.91672054856927",
      "lat": "32.651383313722995"
    },
    {
      "id": "pt.ine.add.MAD.99047",
      "street": "TV FRIAS",
      "house": "1",
      "postcode": "9000-037",
      "city": "FUNCHAL",
      "lon": "-16.91716932412948",
      "lat": "32.649933456913786"
    },
    {
      "id": "pt.ine.add.MAD.99304",
      "street": "CC PICO",
      "house": "81",
      "postcode": "9000-206",
      "city": "FUNCHAL",
      "lon": "-16.916046302955206",
      "lat": "32.652259411642994"
    },
    {
      "id": "pt.ine.add.MAD.101554",
      "street": "2 TV FRIAS",
      "house": "28 PORT",
      "postcode": "9000-637",
      "city": "FUNCHAL",
      "lon": "-16.917497308877834",
      "lat": "32.650316252011166"
    },
    {
      "id": "pt.ine.add.MAD.101746",
      "street": "TV FRIAS",
      "house": "16 5 6",
      "postcode": "9000-037",
      "city": "FUNCHAL",
      "lon": "-16.91686816269867",
      "lat": "32.650307826797054"
    },
    {
      "id": "pt.ine.add.MAD.104131",
      "street": "ESC FRIAS",
      "house": "30 8 4",
      "postcode": "9000-619",
      "city": "FUNCHAL",
      "lon": "-16.917520932734647",
      "lat": "32.6504241160871"
    },
    {
      "id": "pt.ine.add.MAD.104972",
      "street": "TV FRIAS",
      "house": "19",
      "postcode": "9000-037",
      "city": "FUNCHAL",
      "lon": "-16.916355281313322",
      "lat": "32.650252529119534"
    },
    {
      "id": "pt.ine.add.MAD.105778",
      "street": "BC AMARO",
      "house": "29",
      "postcode": "9000-210",
      "city": "FUNCHAL",
      "lon": "-16.916617440950997",
      "lat": "32.65154722625553"
    },
    {
      "id": "pt.ine.add.MAD.106700",
      "street": "ESC FRIAS",
      "house": "30 2",
      "postcode": "9000-619",
      "city": "FUNCHAL",
      "lon": "-16.9176267325304",
      "lat": "32.650386424288314"
    },
    {
      "id": "pt.ine.add.MAD.107209",
      "street": "CC PICO",
      "house": "79",
      "postcode": "9000-206",
      "city": "FUNCHAL",
      "lon": "-16.915850049386645",
      "lat": "32.65205497681196"
    },
    {
      "id": "pt.ine.add.MAD.107210",
      "street": "2Âª TV DOS FRIAS",
      "house": "4",
      "postcode": "9000-637",
      "city": "FUNCHAL",
      "lon": "-16.917428362502342",
      "lat": "32.650082817886826"
    },
    {
      "id": "pt.ine.add.MAD.117230",
      "street": "TV FRIAS",
      "house": "16",
      "postcode": "9000-037",
      "city": "FUNCHAL",
      "lon": "-16.91686816269867",
      "lat": "32.650307826797054"
    },
    {
      "id": "pt.ine.add.MAD.122370",
      "street": "2 TV FRIAS",
      "house": "22",
      "postcode": "9000-637",
      "city": "FUNCHAL",
      "lon": "-16.917568827701146",
      "lat": "32.65017085902876"
    },
    {
      "id": "pt.ine.add.MAD.123005",
      "street": "TV DOS FRIAS",
      "house": "16",
      "postcode": "9000-037",
      "city": "FUNCHAL",
      "lon": "-16.916984812068367",
      "lat": "32.65027898855723"
    },
    {
      "id": "pt.ine.add.MAD.123603",
      "street": "R FRIAS",
      "house": "22",
      "postcode": "9000-032",
      "city": "FUNCHAL",
      "lon": "-16.917717639988798",
      "lat": "32.65015054737363"
    },
    {
      "id": "pt.ine.add.MAD.124690",
      "street": "R FRIAS",
      "house": "5",
      "postcode": "9000-032",
      "city": "FUNCHAL",
      "lon": "-16.917709485683236",
      "lat": "32.650267915815455"
    },
    {
      "id": "pt.ine.add.MAD.125477",
      "street": "R FRIAS",
      "house": "22",
      "postcode": "9000-032",
      "city": "FUNCHAL",
      "lon": "-16.917717639988798",
      "lat": "32.65015054737363"
    },
    {
      "id": "pt.ine.add.MAD.126054",
      "street": "ESC FRIAS",
      "house": "30 15",
      "postcode": "9000-619",
      "city": "FUNCHAL",
      "lon": "-16.916978388753183",
      "lat": "32.650477499339665"
    },
    {
      "id": "pt.ine.add.MAD.126702",
      "street": "ESC FRIAS",
      "house": "13",
      "postcode": "9000-619",
      "city": "FUNCHAL",
      "lon": "-16.917084766212856",
      "lat": "32.650466855437635"
    },
    {
      "id": "pt.ine.add.MAD.126747",
      "street": "R FRIAS",
      "house": "22",
      "postcode": "9000-032",
      "city": "FUNCHAL",
      "lon": "-16.917717639988798",
      "lat": "32.65015054737363"
    },
    {
      "id": "pt.ine.add.MAD.129496",
      "street": "ESC FRIAS",
      "house": "PORTA 17",
      "postcode": "9000-619",
      "city": "FUNCHAL",
      "lon": "-16.91685127455805",
      "lat": "32.65051551619386"
    }
  ]
}