{
  "data": {
    "distrito": "Faro",
    "concelho": "Loulé",
    "freguesia": "Alte",
    "OBJECTID": 790,
    "BGRI2021": "08080200304",
    "DT21": "08",
    "DTMN21": "0808",
    "DTMNFR21": "080802",
    "DTMNFRSEC21": "080802003",
    "SECNUM21": "003",
    "SSNUM21": "04",
    "SECSSNUM21": "00304",
    "OBJECTID_1": 69511,
    "DT": "08",
    "CC": "08",
    "fr": "02",
    "SEC": "003",
    "SS": "04"
  },
  "addresses": [
    {
      "id": "pt.ine.add.PTCONT.1467902",
      "street": "R PISADOIROS",
      "house": "2",
      "postcode": "8100-012",
      "city": "ALTE",
      "lon": "-8.175357866704042",
      "lat": "37.23694807968323"
    },
    {
      "id": "pt.ine.add.PTCONT.1484760",
      "street": "R FONTE",
      "house": "17",
      "postcode": "8100-012",
      "city": "ALTE",
      "lon": "-8.173577562806019",
      "lat": "37.23748031869981"
    },
    {
      "id": "pt.ine.add.PTCONT.1484761",
      "street": "BC TI GUERREIRA",
      "house": "6",
      "postcode": "8100-012",
      "city": "ALTE",
      "lon": "-8.174907154564965",
      "lat": "37.23707438609319"
    },
    {
      "id": "pt.ine.add.PTCONT.1505346",
      "street": "TV S LUIZ",
      "house": "1",
      "postcode": "8100-012",
      "city": "ALTE",
      "lon": "-8.174501504470046",
      "lat": "37.237173643657535"
    },
    {
      "id": "pt.ine.add.PTCONT.1513590",
      "street": "TV SERRA",
      "house": "6",
      "postcode": "8100-012",
      "city": "ALTE",
      "lon": "-8.175729847914218",
      "lat": "37.2371011242485"
    },
    {
      "id": "pt.ine.add.PTCONT.1516487",
      "street": "R FONTE",
      "house": "15",
      "postcode": "8100-012",
      "city": "ALTE",
      "lon": "-8.173645151602079",
      "lat": "37.2374262328138"
    },
    {
      "id": "pt.ine.add.PTCONT.1519698",
      "street": "R S LUIZ",
      "house": "8",
      "postcode": "8100-012",
      "city": "ALTE",
      "lon": "-8.17461434351638",
      "lat": "37.237434907555844"
    },
    {
      "id": "pt.ine.add.PTCONT.1525487",
      "street": "R S LUIZ",
      "house": "3",
      "postcode": "8100-012",
      "city": "ALTE",
      "lon": "-8.174772063609431",
      "lat": "37.237335737093986"
    },
    {
      "id": "pt.ine.add.PTCONT.1558853",
      "street": "R POETA CÂNDIDO GUERREIRO",
      "house": "10",
      "postcode": "8100-012",
      "city": "ALTE",
      "lon": "-8.175109961716416",
      "lat": "37.236993220177894"
    },
    {
      "id": "pt.ine.add.PTCONT.1569529",
      "street": "BC TI GUERREIRA",
      "house": "3",
      "postcode": "8100-012",
      "city": "ALTE",
      "lon": "-8.174816953379151",
      "lat": "37.23699332373577"
    },
    {
      "id": "pt.ine.add.PTCONT.1573785",
      "street": "TV SERRA",
      "house": "4",
      "postcode": "8100-012",
      "city": "ALTE",
      "lon": "-8.175774916027295",
      "lat": "37.23708308709565"
    },
    {
      "id": "pt.ine.add.PTCONT.1603621",
      "street": "R FONTE",
      "house": "5",
      "postcode": "8100-012",
      "city": "ALTE",
      "lon": "-8.17397182942158",
      "lat": "37.237164817148056"
    },
    {
      "id": "pt.ine.add.PTCONT.1626728",
      "street": "R FONTE",
      "house": "3",
      "postcode": "8100-012",
      "city": "ALTE",
      "lon": "-8.174028157825848",
      "lat": "37.23712875584985"
    },
    {
      "id": "pt.ine.add.PTCONT.1626729",
      "street": "LG S LUIZ",
      "house": "2",
      "postcode": "8100-012",
      "city": "ALTE",
      "lon": "-8.17411828023242",
      "lat": "37.23706565144033"
    },
    {
      "id": "pt.ine.add.PTCONT.1639888",
      "street": "TV SERRA",
      "house": "2",
      "postcode": "8100-012",
      "city": "ALTE",
      "lon": "-8.175842518156626",
      "lat": "37.23705603133411"
    },
    {
      "id": "pt.ine.add.PTCONT.1647542",
      "street": "R S LUIZ",
      "house": "5",
      "postcode": "8100-012",
      "city": "ALTE",
      "lon": "-8.174862195580824",
      "lat": "37.23729065304095"
    },
    {
      "id": "pt.ine.add.PTCONT.1670805",
      "street": "R POETA CÂNDIDO GUERREIRO",
      "house": "14",
      "postcode": "8100-012",
      "city": "ALTE",
      "lon": "-8.175200108108038",
      "lat": "37.23697516724709"
    },
    {
      "id": "pt.ine.add.PTCONT.1684667",
      "street": "R FONTE",
      "house": "1",
      "postcode": "8100-012",
      "city": "ALTE",
      "lon": "-8.174016859040336",
      "lat": "37.237074696980585"
    },
    {
      "id": "pt.ine.add.PTCONT.1684668",
      "street": "R POETA CÂNDIDO GUERREIRO",
      "house": "8",
      "postcode": "8100-012",
      "city": "ALTE",
      "lon": "-8.174986031540909",
      "lat": "37.23705633730259"
    },
    {
      "id": "pt.ine.add.PTCONT.1754083",
      "street": "R FONTE",
      "house": "",
      "postcode": "8100-012",
      "city": "ALTE",
      "lon": "-8.173904241092302",
      "lat": "37.23721890322265"
    },
    {
      "id": "pt.ine.add.PTCONT.1766731",
      "street": "R POETA CÂNDIDO GUERREIRO",
      "house": "16",
      "postcode": "8100-012",
      "city": "ALTE",
      "lon": "-8.175301524002604",
      "lat": "37.23695711023298"
    },
    {
      "id": "pt.ine.add.PTCONT.1790429",
      "street": "R S LUIZ",
      "house": "4",
      "postcode": "8100-012",
      "city": "ALTE",
      "lon": "-8.17455789182874",
      "lat": "37.23724570763073"
    },
    {
      "id": "pt.ine.add.PTCONT.1796605",
      "street": "R S LUIZ",
      "house": "10",
      "postcode": "8100-012",
      "city": "ALTE",
      "lon": "-8.174749559098037",
      "lat": "37.23739881824127"
    },
    {
      "id": "pt.ine.add.PTCONT.1804075",
      "street": "R POETA CÂNDIDO GUERREIRO",
      "house": "6",
      "postcode": "8100-012",
      "city": "ALTE",
      "lon": "-8.174884570687883",
      "lat": "37.236993299902124"
    },
    {
      "id": "pt.ine.add.PTCONT.1833926",
      "street": "BC TI GUERREIRA",
      "house": "2",
      "postcode": "8100-012",
      "city": "ALTE",
      "lon": "-8.174862086249997",
      "lat": "37.237092422915964"
    },
    {
      "id": "pt.ine.add.PTCONT.1836780",
      "street": "R SERRA",
      "house": "",
      "postcode": "8100-012",
      "city": "ALTE",
      "lon": "-8.175853833505627",
      "lat": "37.237137121409226"
    }
  ]
}