{
  "data": {
    "distrito": "Viseu",
    "concelho": "Armamar",
    "freguesia": "São Martinho das Chãs",
    "OBJECTID": 176,
    "BGRI2021": "18011500107",
    "DT21": "18",
    "DTMN21": "1801",
    "DTMNFR21": "180115",
    "DTMNFRSEC21": "180115001",
    "SECNUM21": "001",
    "SSNUM21": "07",
    "SECSSNUM21": "00107",
    "OBJECTID_1": 188570,
    "DT": "18",
    "CC": "01",
    "fr": "15",
    "SEC": "001",
    "SS": "07"
  },
  "addresses": [
    {
      "id": "pt.ine.add.PTCONT.5430696",
      "street": "LG EIRO",
      "house": "",
      "postcode": "5110-617",
      "city": "SÃO MARTINHO DAS CHÃS",
      "lon": "-7.66902196179416",
      "lat": "41.062745833771025"
    },
    {
      "id": "pt.ine.add.PTCONT.5439808",
      "street": "R GIRO",
      "house": "",
      "postcode": "5110-617",
      "city": "SÃO MARTINHO DAS CHÃS",
      "lon": "-7.669008166236135",
      "lat": "41.06301591309823"
    },
    {
      "id": "pt.ine.add.PTCONT.5451026",
      "street": "R TORRE",
      "house": "",
      "postcode": "5110-617",
      "city": "SÃO MARTINHO DAS CHÃS",
      "lon": "-7.669278434569981",
      "lat": "41.06349423950553"
    },
    {
      "id": "pt.ine.add.PTCONT.5451032",
      "street": "R TORRE",
      "house": "",
      "postcode": "5110-617",
      "city": "SÃO MARTINHO DAS CHÃS",
      "lon": "-7.669198005328254",
      "lat": "41.06308871345086"
    },
    {
      "id": "pt.ine.add.PTCONT.5456365",
      "street": "R FUNDO DA RUA",
      "house": "",
      "postcode": "5110-617",
      "city": "SÃO MARTINHO DAS CHÃS",
      "lon": "-7.668933304602104",
      "lat": "41.06351085883899"
    },
    {
      "id": "pt.ine.add.PTCONT.5457875",
      "street": "R IGREJA",
      "house": "",
      "postcode": "5110-617",
      "city": "SÃO MARTINHO DAS CHÃS",
      "lon": "-7.669103402171373",
      "lat": "41.06300729210781"
    },
    {
      "id": "pt.ine.add.PTCONT.5461020",
      "street": "R EIRO",
      "house": "",
      "postcode": "5110-617",
      "city": "SÃO MARTINHO DAS CHÃS",
      "lon": "-7.668544643159902",
      "lat": "41.06295101394186"
    },
    {
      "id": "pt.ine.add.PTCONT.5467314",
      "street": "R TORRE",
      "house": "",
      "postcode": "5110-617",
      "city": "SÃO MARTINHO DAS CHÃS",
      "lon": "-7.6689812711178",
      "lat": "41.063457025065375"
    },
    {
      "id": "pt.ine.add.PTCONT.5472644",
      "street": "R S BARBARA",
      "house": "",
      "postcode": "5110-617",
      "city": "SÃO MARTINHO DAS CHÃS",
      "lon": "-7.669979579957543",
      "lat": "41.063605113409984"
    },
    {
      "id": "pt.ine.add.PTCONT.5477981",
      "street": "R TORRE",
      "house": "",
      "postcode": "5110-617",
      "city": "SÃO MARTINHO DAS CHÃS",
      "lon": "-7.669386516588428",
      "lat": "41.06335060255602"
    },
    {
      "id": "pt.ine.add.PTCONT.5483711",
      "street": "LG GIRO",
      "house": "",
      "postcode": "5110-617",
      "city": "SÃO MARTINHO DAS CHÃS",
      "lon": "-7.668853447366373",
      "lat": "41.063024294388974"
    },
    {
      "id": "pt.ine.add.PTCONT.5485569",
      "street": "R S BARBARA",
      "house": "",
      "postcode": "5110-617",
      "city": "SÃO MARTINHO DAS CHÃS",
      "lon": "-7.669419929654658",
      "lat": "41.06367489883617"
    },
    {
      "id": "pt.ine.add.PTCONT.5496830",
      "street": "QLHA EIRÔ",
      "house": "",
      "postcode": "5110-617",
      "city": "SÃO MARTINHO DAS CHÃS",
      "lon": "-7.668898690985713",
      "lat": "41.063357642991065"
    },
    {
      "id": "pt.ine.add.PTCONT.5507237",
      "street": "R FUNDO DA RUA",
      "house": "",
      "postcode": "5110-617",
      "city": "SÃO MARTINHO DAS CHÃS",
      "lon": "-7.668625638411438",
      "lat": "41.06327550227928"
    },
    {
      "id": "pt.ine.add.PTCONT.5524015",
      "street": "R TORRE",
      "house": "",
      "postcode": "5110-617",
      "city": "SÃO MARTINHO DAS CHÃS",
      "lon": "-7.669470868141228",
      "lat": "41.063197865532835"
    },
    {
      "id": "pt.ine.add.PTCONT.5532460",
      "street": "R TORRE",
      "house": "",
      "postcode": "5110-617",
      "city": "SÃO MARTINHO DAS CHÃS",
      "lon": "-7.669316908012254",
      "lat": "41.06309819654803"
    },
    {
      "id": "pt.ine.add.PTCONT.5553946",
      "street": "R TORRE",
      "house": "",
      "postcode": "5110-617",
      "city": "SÃO MARTINHO DAS CHÃS",
      "lon": "-7.669327729222558",
      "lat": "41.06325131652717"
    },
    {
      "id": "pt.ine.add.PTCONT.5558357",
      "street": "R TORRE",
      "house": "",
      "postcode": "5110-617",
      "city": "SÃO MARTINHO DAS CHÃS",
      "lon": "-7.6693741771816315",
      "lat": "41.06341358436938"
    },
    {
      "id": "pt.ine.add.PTCONT.5559854",
      "street": "R TORRE",
      "house": "",
      "postcode": "5110-617",
      "city": "SÃO MARTINHO DAS CHÃS",
      "lon": "-7.669328172029484",
      "lat": "41.06318828683932"
    },
    {
      "id": "pt.ine.add.PTCONT.5559862",
      "street": "QLHA EIRÔ",
      "house": "",
      "postcode": "5110-617",
      "city": "SÃO MARTINHO DAS CHÃS",
      "lon": "-7.669042083667317",
      "lat": "41.06326817557112"
    },
    {
      "id": "pt.ine.add.PTCONT.5564354",
      "street": "R QUELHA",
      "house": "",
      "postcode": "5110-617",
      "city": "SÃO MARTINHO DAS CHÃS",
      "lon": "-7.669019176618681",
      "lat": "41.063142020382166"
    },
    {
      "id": "pt.ine.add.PTCONT.5565509",
      "street": "R QUELHA",
      "house": "",
      "postcode": "5110-617",
      "city": "SÃO MARTINHO DAS CHÃS",
      "lon": "-7.669030630132329",
      "lat": "41.06320509797748"
    },
    {
      "id": "pt.ine.add.PTCONT.5567367",
      "street": "R TORRE",
      "house": "",
      "postcode": "5110-617",
      "city": "SÃO MARTINHO DAS CHÃS",
      "lon": "-7.669220469791676",
      "lat": "41.06327789829377"
    },
    {
      "id": "pt.ine.add.PTCONT.5574586",
      "street": "LG GIRO",
      "house": "",
      "postcode": "5110-617",
      "city": "SÃO MARTINHO DAS CHÃS",
      "lon": "-7.668781941210517",
      "lat": "41.0630420152849"
    },
    {
      "id": "pt.ine.add.PTCONT.5574592",
      "street": "R TORRE",
      "house": "",
      "postcode": "5110-617",
      "city": "SÃO MARTINHO DAS CHÃS",
      "lon": "-7.669114729169618",
      "lat": "41.063088378178705"
    },
    {
      "id": "pt.ine.add.PTCONT.5587627",
      "street": "QLHA EIRÔ",
      "house": "",
      "postcode": "5110-617",
      "city": "SÃO MARTINHO DAS CHÃS",
      "lon": "-7.668935773771986",
      "lat": "41.06315969346188"
    },
    {
      "id": "pt.ine.add.PTCONT.5587628",
      "street": "R TORRE",
      "house": "",
      "postcode": "5110-617",
      "city": "SÃO MARTINHO DAS CHÃS",
      "lon": "-7.6692092059073715",
      "lat": "41.06318780799406"
    },
    {
      "id": "pt.ine.add.PTCONT.5605879",
      "street": "R TORRE",
      "house": "",
      "postcode": "5110-617",
      "city": "SÃO MARTINHO DAS CHÃS",
      "lon": "-7.6695310467467115",
      "lat": "41.06309905817938"
    },
    {
      "id": "pt.ine.add.PTCONT.5611614",
      "street": "R EIRO",
      "house": "",
      "postcode": "5110-617",
      "city": "SÃO MARTINHO DAS CHÃS",
      "lon": "-7.668591659211144",
      "lat": "41.063032243933094"
    },
    {
      "id": "pt.ine.add.PTCONT.5630514",
      "street": "R S BARBARA",
      "house": "",
      "postcode": "5110-617",
      "city": "SÃO MARTINHO DAS CHÃS",
      "lon": "-7.669682099541634",
      "lat": "41.06361292197886"
    },
    {
      "id": "pt.ine.add.PTCONT.5632437",
      "street": "R FUNDO DA RUA",
      "house": "",
      "postcode": "5110-617",
      "city": "SÃO MARTINHO DAS CHÃS",
      "lon": "-7.6685657117415404",
      "lat": "41.063338292189066"
    },
    {
      "id": "pt.ine.add.PTCONT.5635494",
      "street": "R TORRE",
      "house": "",
      "postcode": "5110-617",
      "city": "SÃO MARTINHO DAS CHÃS",
      "lon": "-7.669146811828047",
      "lat": "41.063601763593844"
    },
    {
      "id": "pt.ine.add.PTCONT.5643789",
      "street": "R TORRE",
      "house": "",
      "postcode": "5110-617",
      "city": "SÃO MARTINHO DAS CHÃS",
      "lon": "-7.669087961312182",
      "lat": "41.06351148168813"
    },
    {
      "id": "pt.ine.add.PTCONT.5648391",
      "street": "R FUNDO DA RUA",
      "house": "",
      "postcode": "5110-617",
      "city": "SÃO MARTINHO DAS CHÃS",
      "lon": "-7.668850724475959",
      "lat": "41.06341147673125"
    },
    {
      "id": "pt.ine.add.PTCONT.5654895",
      "street": "R TORRE",
      "house": "",
      "postcode": "5110-617",
      "city": "SÃO MARTINHO DAS CHÃS",
      "lon": "-7.669183071396089",
      "lat": "41.063520869117205"
    },
    {
      "id": "pt.ine.add.PTCONT.5656528",
      "street": "R FUNDO DA RUA",
      "house": "",
      "postcode": "5110-617",
      "city": "SÃO MARTINHO DAS CHÃS",
      "lon": "-7.668626018535205",
      "lat": "41.06322147683819"
    },
    {
      "id": "pt.ine.add.PTCONT.5657929",
      "street": "R FUNDO DA RUA",
      "house": "",
      "postcode": "5110-617",
      "city": "SÃO MARTINHO DAS CHÃS",
      "lon": "-7.668458895507417",
      "lat": "41.06330184356478"
    },
    {
      "id": "pt.ine.add.PTCONT.5664010",
      "street": "R FUNDO DA RUA",
      "house": "",
      "postcode": "5110-617",
      "city": "SÃO MARTINHO DAS CHÃS",
      "lon": "-7.668827311133327",
      "lat": "41.06335735543167"
    },
    {
      "id": "pt.ine.add.PTCONT.5665334",
      "street": "R FUNDO DA RUA",
      "house": "",
      "postcode": "5110-617",
      "city": "SÃO MARTINHO DAS CHÃS",
      "lon": "-7.668650255223273",
      "lat": "41.063158543055415"
    }
  ]
}