{
  "data": {
    "distrito": "Beja",
    "concelho": "Beja",
    "freguesia": "Nossa Senhora das Neves",
    "OBJECTID": 737,
    "BGRI2021": "02050600204",
    "DT21": "02",
    "DTMN21": "0205",
    "DTMNFR21": "020506",
    "DTMNFRSEC21": "020506002",
    "SECNUM21": "002",
    "SSNUM21": "04",
    "SECSSNUM21": "00204",
    "OBJECTID_1": 14229,
    "DT": "02",
    "CC": "05",
    "fr": "06",
    "SEC": "002",
    "SS": "04"
  },
  "addresses": [
    {
      "id": "pt.ine.add.PTCONT.355321",
      "street": "R BENTO GONÇALVES",
      "house": "20 A",
      "postcode": "7800-651",
      "city": "NOSSA SENHORA DAS NEVES",
      "lon": "-7.810459389702909",
      "lat": "38.02101074918131"
    },
    {
      "id": "pt.ine.add.PTCONT.363702",
      "street": "R BENTO GONÇALVES",
      "house": "20",
      "postcode": "7800-651",
      "city": "NOSSA SENHORA DAS NEVES",
      "lon": "-7.810668368234218",
      "lat": "38.02109383614131"
    },
    {
      "id": "pt.ine.add.PTCONT.367458",
      "street": "R ZECA AFONSO",
      "house": "",
      "postcode": "7800-651",
      "city": "NOSSA SENHORA DAS NEVES",
      "lon": "-7.810198642954471",
      "lat": "38.02073975657137"
    },
    {
      "id": "pt.ine.add.PTCONT.373403",
      "street": "R BENTO JESUS CRACA",
      "house": "16",
      "postcode": "7800-651",
      "city": "NOSSA SENHORA DAS NEVES",
      "lon": "-7.810298766710638",
      "lat": "38.02128058515746"
    },
    {
      "id": "pt.ine.add.PTCONT.376751",
      "street": "R BENTO GONÇALVES",
      "house": "18",
      "postcode": "7800-651",
      "city": "NOSSA SENHORA DAS NEVES",
      "lon": "-7.810725747255323",
      "lat": "38.021034785726755"
    },
    {
      "id": "pt.ine.add.PTCONT.388736",
      "street": "R BENTO JESUS CRACA",
      "house": "18",
      "postcode": "7800-651",
      "city": "NOSSA SENHORA DAS NEVES",
      "lon": "-7.810207856994447",
      "lat": "38.021235289407315"
    },
    {
      "id": "pt.ine.add.PTCONT.390087",
      "street": "R BENTO JESUS CRACA",
      "house": "12",
      "postcode": "7800-651",
      "city": "NOSSA SENHORA DAS NEVES",
      "lon": "-7.810457849108319",
      "lat": "38.02136210483118"
    },
    {
      "id": "pt.ine.add.PTCONT.390815",
      "street": "R BENTO JESUS CRACA",
      "house": "24",
      "postcode": "7800-651",
      "city": "NOSSA SENHORA DAS NEVES",
      "lon": "-7.810037386746348",
      "lat": "38.021153738106364"
    },
    {
      "id": "pt.ine.add.PTCONT.396549",
      "street": "R BENTO JESUS CARAÇA",
      "house": "14",
      "postcode": "7800-651",
      "city": "NOSSA SENHORA DAS NEVES",
      "lon": "-7.81036693919297",
      "lat": "38.02131680920378"
    },
    {
      "id": "pt.ine.add.PTCONT.408978",
      "street": "R BENTO GONÇALVES",
      "house": "10",
      "postcode": "7800-651",
      "city": "NOSSA SENHORA DAS NEVES",
      "lon": "-7.8108472259494945",
      "lat": "38.020867665100866"
    },
    {
      "id": "pt.ine.add.PTCONT.413829",
      "street": "R D JAIME ANTÓNIO PALMA MIRA",
      "house": "",
      "postcode": "7800-651",
      "city": "NOSSA SENHORA DAS NEVES",
      "lon": "-7.810837100166217",
      "lat": "38.020579342039895"
    },
    {
      "id": "pt.ine.add.PTCONT.421884",
      "street": "R ZECA AFONSO",
      "house": "",
      "postcode": "7800-651",
      "city": "NOSSA SENHORA DAS NEVES",
      "lon": "-7.810037742731188",
      "lat": "38.02107265603567"
    },
    {
      "id": "pt.ine.add.PTCONT.426331",
      "street": "R BENTO GONÇALVES",
      "house": "6",
      "postcode": "7800-651",
      "city": "NOSSA SENHORA DAS NEVES",
      "lon": "-7.81093880614434",
      "lat": "38.020759805316004"
    },
    {
      "id": "pt.ine.add.PTCONT.426612",
      "street": "R BENTO GONÇALVES",
      "house": "4",
      "postcode": "7800-651",
      "city": "NOSSA SENHORA DAS NEVES",
      "lon": "-7.810984596140853",
      "lat": "38.02070587539561"
    },
    {
      "id": "pt.ine.add.PTCONT.433147",
      "street": "R D JAIME ANTÓNIO PALMA MIRA",
      "house": "1",
      "postcode": "7800-651",
      "city": "NOSSA SENHORA DAS NEVES",
      "lon": "-7.810895888240907",
      "lat": "38.020611390411894"
    },
    {
      "id": "pt.ine.add.PTCONT.433148",
      "street": "R BENTO GONÇALVES",
      "house": "",
      "postcode": "7800-651",
      "city": "NOSSA SENHORA DAS NEVES",
      "lon": "-7.810435901849846",
      "lat": "38.02117285082887"
    },
    {
      "id": "pt.ine.add.PTCONT.437135",
      "street": "R BENTO DE JESUS CARAÇA",
      "house": "26",
      "postcode": "7800-651",
      "city": "NOSSA SENHORA DAS NEVES",
      "lon": "-7.809923660989221",
      "lat": "38.02111738867316"
    },
    {
      "id": "pt.ine.add.PTCONT.439915",
      "street": "R BENTO GONÇALVES",
      "house": "16",
      "postcode": "7800-651",
      "city": "NOSSA SENHORA DAS NEVES",
      "lon": "-7.810755684951303",
      "lat": "38.020966515691406"
    },
    {
      "id": "pt.ine.add.PTCONT.443011",
      "street": "R BENTO JESUS CRACA",
      "house": "22",
      "postcode": "7800-651",
      "city": "NOSSA SENHORA DAS NEVES",
      "lon": "-7.810105519436187",
      "lat": "38.0211989714228"
    },
    {
      "id": "pt.ine.add.PTCONT.445395",
      "street": "R BENTO GONÇALVES",
      "house": "14",
      "postcode": "7800-651",
      "city": "NOSSA SENHORA DAS NEVES",
      "lon": "-7.810817772536165",
      "lat": "38.02090833942077"
    },
    {
      "id": "pt.ine.add.PTCONT.448722",
      "street": "R BENTO GONÇALVES",
      "house": "8",
      "postcode": "7800-651",
      "city": "NOSSA SENHORA DAS NEVES",
      "lon": "-7.810918603121222",
      "lat": "38.020793066987764"
    }
  ]
}