{
  "data": {
    "distrito": "Beja",
    "concelho": "Beja",
    "freguesia": "Nossa Senhora das Neves",
    "OBJECTID": 436,
    "BGRI2021": "02050600216",
    "DT21": "02",
    "DTMN21": "0205",
    "DTMNFR21": "020506",
    "DTMNFRSEC21": "020506002",
    "SECNUM21": "002",
    "SSNUM21": "16",
    "SECSSNUM21": "00216",
    "OBJECTID_1": 14226,
    "DT": "02",
    "CC": "05",
    "fr": "06",
    "SEC": "002",
    "SS": "16"
  },
  "addresses": [
    {
      "id": "pt.ine.add.PTCONT.456305",
      "street": "MTE PARDALAS",
      "house": "",
      "postcode": "7800-650",
      "city": "NOSSA SENHORA DAS NEVES",
      "lon": "-7.7901214573914155",
      "lat": "38.0230343139986"
    },
    {
      "id": "pt.ine.add.PTCONT.353204",
      "street": "MTE VIEIRINHAS HONTE DA BOA VISTA",
      "house": "",
      "postcode": "7800-650",
      "city": "NOSSA SENHORA DAS NEVES",
      "lon": "-7.791439907807709",
      "lat": "38.023605733370374"
    },
    {
      "id": "pt.ine.add.PTCONT.353987",
      "street": "",
      "house": "",
      "postcode": "7800-650",
      "city": "NOSSA SENHORA DAS NEVES",
      "lon": "-7.795129420278869",
      "lat": "38.026193032909"
    },
    {
      "id": "pt.ine.add.PTCONT.356411",
      "street": "MTE BOA VISTA",
      "house": "",
      "postcode": "7800-650",
      "city": "NOSSA SENHORA DAS NEVES",
      "lon": "-7.79136064676749",
      "lat": "38.023506401611066"
    },
    {
      "id": "pt.ine.add.PTCONT.358128",
      "street": "MTE BOA VISTA",
      "house": "",
      "postcode": "7800-650",
      "city": "NOSSA SENHORA DAS NEVES",
      "lon": "-7.79125743649365",
      "lat": "38.023659258324464"
    },
    {
      "id": "pt.ine.add.PTCONT.359345",
      "street": "MTE CARVALHAL",
      "house": "",
      "postcode": "7800-650",
      "city": "NOSSA SENHORA DAS NEVES",
      "lon": "-7.7973947936242585",
      "lat": "38.02393820890873"
    },
    {
      "id": "pt.ine.add.PTCONT.359719",
      "street": "MTE SACRISTAO",
      "house": "",
      "postcode": "7800-650",
      "city": "NOSSA SENHORA DAS NEVES",
      "lon": "-7.784561739771163",
      "lat": "38.023450407456686"
    },
    {
      "id": "pt.ine.add.PTCONT.384082",
      "street": "MTE VINHA DO PANEIRO",
      "house": "",
      "postcode": "7800-650",
      "city": "NOSSA SENHORA DAS NEVES",
      "lon": "-7.790299576084641",
      "lat": "38.0263592347861"
    },
    {
      "id": "pt.ine.add.PTCONT.387178",
      "street": "",
      "house": "",
      "postcode": "7800-650",
      "city": "NOSSA SENHORA DAS NEVES",
      "lon": "-7.794899814710257",
      "lat": "38.02658877820452"
    },
    {
      "id": "pt.ine.add.PTCONT.387179",
      "street": "",
      "house": "",
      "postcode": "7800-650",
      "city": "NOSSA SENHORA DAS NEVES",
      "lon": "-7.794774698939159",
      "lat": "38.02655238138753"
    },
    {
      "id": "pt.ine.add.PTCONT.388771",
      "street": "MTE CORONAL",
      "house": "",
      "postcode": "7800-650",
      "city": "NOSSA SENHORA DAS NEVES",
      "lon": "-7.7858281849107405",
      "lat": "38.02296765690425"
    },
    {
      "id": "pt.ine.add.PTCONT.394088",
      "street": "MTE OLIVEIRAS",
      "house": "",
      "postcode": "7800-650",
      "city": "NOSSA SENHORA DAS NEVES",
      "lon": "-7.782565936940265",
      "lat": "38.026417515557085"
    },
    {
      "id": "pt.ine.add.PTCONT.403340",
      "street": "MTE VINHA DO PANEIRO",
      "house": "",
      "postcode": "7800-650",
      "city": "NOSSA SENHORA DAS NEVES",
      "lon": "-7.787019915148724",
      "lat": "38.026259534884986"
    },
    {
      "id": "pt.ine.add.PTCONT.424326",
      "street": "MTE SACRISTAO",
      "house": "",
      "postcode": "7800-650",
      "city": "NOSSA SENHORA DAS NEVES",
      "lon": "-7.784710433117845",
      "lat": "38.02331570985373"
    },
    {
      "id": "pt.ine.add.PTCONT.424330",
      "street": "",
      "house": "",
      "postcode": "7800-650",
      "city": "NOSSA SENHORA DAS NEVES",
      "lon": "-7.7946497490760045",
      "lat": "38.02647994805102"
    },
    {
      "id": "pt.ine.add.PTCONT.433175",
      "street": "MTE BOA VISTA",
      "house": "",
      "postcode": "7800-650",
      "city": "NOSSA SENHORA DAS NEVES",
      "lon": "-7.791201162469035",
      "lat": "38.02351494718884"
    },
    {
      "id": "pt.ine.add.PTCONT.436579",
      "street": "MTE ALFAR",
      "house": "",
      "postcode": "7800-650",
      "city": "NOSSA SENHORA DAS NEVES",
      "lon": "-7.787030626259188",
      "lat": "38.02640371384409"
    },
    {
      "id": "pt.ine.add.PTCONT.438381",
      "street": "",
      "house": "",
      "postcode": "7800-650",
      "city": "NOSSA SENHORA DAS NEVES",
      "lon": "-7.79502617259938",
      "lat": "38.026354901977165"
    },
    {
      "id": "pt.ine.add.PTCONT.445430",
      "street": "MTE NOVO",
      "house": "",
      "postcode": "7800-650",
      "city": "NOSSA SENHORA DAS NEVES",
      "lon": "-7.7952439738981925",
      "lat": "38.02604921466658"
    },
    {
      "id": "pt.ine.add.PTCONT.453483",
      "street": "MTE GRAZINA",
      "house": "",
      "postcode": "7800-650",
      "city": "NOSSA SENHORA DAS NEVES",
      "lon": "-7.784869320729158",
      "lat": "38.02343330037266"
    }
  ]
}