{
  "data": {
    "distrito": "Beja",
    "concelho": "Beja",
    "freguesia": "Nossa Senhora das Neves",
    "OBJECTID": 835,
    "BGRI2021": "02050600221",
    "DT21": "02",
    "DTMN21": "0205",
    "DTMNFR21": "020506",
    "DTMNFRSEC21": "020506002",
    "SECNUM21": "002",
    "SSNUM21": "21",
    "SECSSNUM21": "00221",
    "OBJECTID_1": 13792,
    "DT": "02",
    "CC": "05",
    "fr": "06",
    "SEC": "002",
    "SS": "21"
  },
  "addresses": [
    {
      "id": "pt.ine.add.PTCONT.458803",
      "street": "MTE BACELO",
      "house": "",
      "postcode": "7800-650",
      "city": "NOSSA SENHORA DAS NEVES",
      "lon": "-7.79507923811445",
      "lat": "38.03215698699026"
    },
    {
      "id": "pt.ine.add.PTCONT.352540",
      "street": "MTE VINHA CASTRO MARIA VALE",
      "house": "",
      "postcode": "7800-650",
      "city": "NOSSA SENHORA DAS NEVES",
      "lon": "-7.787332121751134",
      "lat": "38.02768390918011"
    },
    {
      "id": "pt.ine.add.PTCONT.352541",
      "street": "MTE LARDEIRA",
      "house": "",
      "postcode": "7800-650",
      "city": "NOSSA SENHORA DAS NEVES",
      "lon": "-7.811415363216064",
      "lat": "38.03158118351242"
    },
    {
      "id": "pt.ine.add.PTCONT.360513",
      "street": "MTE NOVO DA ESTRADA",
      "house": "",
      "postcode": "7800-650",
      "city": "NOSSA SENHORA DAS NEVES",
      "lon": "-7.796217871074398",
      "lat": "38.027268253290096"
    },
    {
      "id": "pt.ine.add.PTCONT.363733",
      "street": "MTE VENDA NOVA",
      "house": "",
      "postcode": "7800-650",
      "city": "NOSSA SENHORA DAS NEVES",
      "lon": "-7.798850977019777",
      "lat": "38.0267982798235"
    },
    {
      "id": "pt.ine.add.PTCONT.369539",
      "street": "MTE NOVO GALINHA",
      "house": "",
      "postcode": "7800-650",
      "city": "NOSSA SENHORA DAS NEVES",
      "lon": "-7.790288756872076",
      "lat": "38.03112507615958"
    },
    {
      "id": "pt.ine.add.PTCONT.370614",
      "street": "MONGE",
      "house": "",
      "postcode": "7800-650",
      "city": "NOSSA SENHORA DAS NEVES",
      "lon": "-7.797255563572655",
      "lat": "38.03447858984912"
    },
    {
      "id": "pt.ine.add.PTCONT.370991",
      "street": "",
      "house": "",
      "postcode": "7800-651",
      "city": "NOSSA SENHORA DAS NEVES",
      "lon": "-7.7845177056944825",
      "lat": "38.02793686593844"
    },
    {
      "id": "pt.ine.add.PTCONT.376797",
      "street": "",
      "house": "",
      "postcode": "7800-650",
      "city": "NOSSA SENHORA DAS NEVES",
      "lon": "-7.796365932411814",
      "lat": "38.027268677427635"
    },
    {
      "id": "pt.ine.add.PTCONT.379364",
      "street": "MTE NOVO DA ESTRADA",
      "house": "",
      "postcode": "7800-650",
      "city": "NOSSA SENHORA DAS NEVES",
      "lon": "-7.79547851537746",
      "lat": "38.02705892058778"
    },
    {
      "id": "pt.ine.add.PTCONT.379391",
      "street": "MTE MARIA VALE E COELHO",
      "house": "",
      "postcode": "7800-650",
      "city": "NOSSA SENHORA DAS NEVES",
      "lon": "-7.785891658980496",
      "lat": "38.02882383404757"
    },
    {
      "id": "pt.ine.add.PTCONT.379392",
      "street": "MTE CATACOMAS",
      "house": "",
      "postcode": "7800-650",
      "city": "NOSSA SENHORA DAS NEVES",
      "lon": "-7.794735595834527",
      "lat": "38.04248054106863"
    },
    {
      "id": "pt.ine.add.PTCONT.380730",
      "street": "QTA S MARIA",
      "house": "",
      "postcode": "7800-650",
      "city": "NOSSA SENHORA DAS NEVES",
      "lon": "-7.791977990747907",
      "lat": "38.0279137011858"
    },
    {
      "id": "pt.ine.add.PTCONT.381509",
      "street": "MTE NOVO DA ESTRADA",
      "house": "",
      "postcode": "7800-650",
      "city": "NOSSA SENHORA DAS NEVES",
      "lon": "-7.796146481539245",
      "lat": "38.02793473060406"
    },
    {
      "id": "pt.ine.add.PTCONT.384834",
      "street": "",
      "house": "",
      "postcode": "7800-650",
      "city": "NOSSA SENHORA DAS NEVES",
      "lon": "-7.798567258356927",
      "lat": "38.04410415220075"
    },
    {
      "id": "pt.ine.add.PTCONT.386800",
      "street": "QTA S VICENTE",
      "house": "",
      "postcode": "7800-650",
      "city": "NOSSA SENHORA DAS NEVES",
      "lon": "-7.802395387813071",
      "lat": "38.02628576793383"
    },
    {
      "id": "pt.ine.add.PTCONT.387172",
      "street": "MTE JOAO BENTO",
      "house": "",
      "postcode": "7800-650",
      "city": "NOSSA SENHORA DAS NEVES",
      "lon": "-7.793803761284886",
      "lat": "38.03704531046936"
    },
    {
      "id": "pt.ine.add.PTCONT.387174",
      "street": "MTE NOVO DA ESTRADA",
      "house": "",
      "postcode": "7800-650",
      "city": "NOSSA SENHORA DAS NEVES",
      "lon": "-7.79496612110838",
      "lat": "38.027030420475356"
    },
    {
      "id": "pt.ine.add.PTCONT.387175",
      "street": "QTA S MARIA",
      "house": "",
      "postcode": "7800-650",
      "city": "NOSSA SENHORA DAS NEVES",
      "lon": "-7.791532840969251",
      "lat": "38.02811962072226"
    },
    {
      "id": "pt.ine.add.PTCONT.389493",
      "street": "MTE FONTE AREIA BAIXO",
      "house": "",
      "postcode": "7800-650",
      "city": "NOSSA SENHORA DAS NEVES",
      "lon": "-7.797497235147098",
      "lat": "38.038929825254506"
    },
    {
      "id": "pt.ine.add.PTCONT.391461",
      "street": "MTE VINHA SOUSA",
      "house": "",
      "postcode": "7800-650",
      "city": "NOSSA SENHORA DAS NEVES",
      "lon": "-7.797080241277342",
      "lat": "38.03046899160529"
    },
    {
      "id": "pt.ine.add.PTCONT.394912",
      "street": "MTE NOVO AS CORUJEIRAS",
      "house": "",
      "postcode": "7800-650",
      "city": "NOSSA SENHORA DAS NEVES",
      "lon": "-7.797694778786431",
      "lat": "38.03557896652642"
    },
    {
      "id": "pt.ine.add.PTCONT.397071",
      "street": "MTE GALINHA",
      "house": "",
      "postcode": "7800-650",
      "city": "NOSSA SENHORA DAS NEVES",
      "lon": "-7.790435776658565",
      "lat": "38.03135073493661"
    },
    {
      "id": "pt.ine.add.PTCONT.398676",
      "street": "MTE ZABUMBA",
      "house": "",
      "postcode": "7800-650",
      "city": "NOSSA SENHORA DAS NEVES",
      "lon": "-7.807786176553594",
      "lat": "38.02803958592602"
    },
    {
      "id": "pt.ine.add.PTCONT.400362",
      "street": "MTE CARAPETA",
      "house": "",
      "postcode": "7800-650",
      "city": "NOSSA SENHORA DAS NEVES",
      "lon": "-7.79282478029144",
      "lat": "38.02951979470654"
    },
    {
      "id": "pt.ine.add.PTCONT.402879",
      "street": "MTE MARIA GILA",
      "house": "",
      "postcode": "7800-650",
      "city": "NOSSA SENHORA DAS NEVES",
      "lon": "-7.791051122273069",
      "lat": "38.033739966328625"
    },
    {
      "id": "pt.ine.add.PTCONT.405305",
      "street": "MTE NOVO DA ESTRADA",
      "house": "",
      "postcode": "7800-650",
      "city": "NOSSA SENHORA DAS NEVES",
      "lon": "-7.795079972667775",
      "lat": "38.02703975705857"
    },
    {
      "id": "pt.ine.add.PTCONT.405853",
      "street": "MTE VINHA PENEDAS",
      "house": "",
      "postcode": "7800-650",
      "city": "NOSSA SENHORA DAS NEVES",
      "lon": "-7.794382142678105",
      "lat": "38.04007406860945"
    },
    {
      "id": "pt.ine.add.PTCONT.408454",
      "street": "MTE NOVO DA ESTRADA",
      "house": "",
      "postcode": "7800-650",
      "city": "NOSSA SENHORA DAS NEVES",
      "lon": "-7.795910441660982",
      "lat": "38.02724935359997"
    },
    {
      "id": "pt.ine.add.PTCONT.413596",
      "street": "MTE NOVO DA ESTRADA",
      "house": "",
      "postcode": "7800-650",
      "city": "NOSSA SENHORA DAS NEVES",
      "lon": "-7.795739601709433",
      "lat": "38.02724886353237"
    },
    {
      "id": "pt.ine.add.PTCONT.419465",
      "street": "MTE VINHA LOBAS",
      "house": "",
      "postcode": "7800-650",
      "city": "NOSSA SENHORA DAS NEVES",
      "lon": "-7.79698999723543",
      "lat": "38.04273926548247"
    },
    {
      "id": "pt.ine.add.PTCONT.420288",
      "street": "MTE FLORES",
      "house": "",
      "postcode": "7800-650",
      "city": "NOSSA SENHORA DAS NEVES",
      "lon": "-7.78915450820562",
      "lat": "38.027671235944645"
    },
    {
      "id": "pt.ine.add.PTCONT.427459",
      "street": "MTE PICA OSSO",
      "house": "",
      "postcode": "7800-650",
      "city": "NOSSA SENHORA DAS NEVES",
      "lon": "-7.802367609285119",
      "lat": "38.03499759719849"
    },
    {
      "id": "pt.ine.add.PTCONT.427460",
      "street": "MTE PICA OSSO",
      "house": "",
      "postcode": "7800-650",
      "city": "NOSSA SENHORA DAS NEVES",
      "lon": "-7.802367609285119",
      "lat": "38.03499759719849"
    },
    {
      "id": "pt.ine.add.PTCONT.432658",
      "street": "MTE NOVO DA ESTRADA",
      "house": "",
      "postcode": "7800-650",
      "city": "NOSSA SENHORA DAS NEVES",
      "lon": "-7.795296327943222",
      "lat": "38.02704938807652"
    },
    {
      "id": "pt.ine.add.PTCONT.434014",
      "street": "MTE PONTE NOVA",
      "house": "",
      "postcode": "7800-650",
      "city": "NOSSA SENHORA DAS NEVES",
      "lon": "-7.8011863455316135",
      "lat": "38.026678766647294"
    },
    {
      "id": "pt.ine.add.PTCONT.434532",
      "street": "MTE JOAO BENTO",
      "house": "",
      "postcode": "7800-650",
      "city": "NOSSA SENHORA DAS NEVES",
      "lon": "-7.793860549275521",
      "lat": "38.03708151114491"
    },
    {
      "id": "pt.ine.add.PTCONT.435175",
      "street": "MTE BACELO",
      "house": "",
      "postcode": "7800-650",
      "city": "NOSSA SENHORA DAS NEVES",
      "lon": "-7.795022536120432",
      "lat": "38.03210276871131"
    },
    {
      "id": "pt.ine.add.PTCONT.440435",
      "street": "MTE NOVO DA ESTRADA",
      "house": "",
      "postcode": "7800-650",
      "city": "NOSSA SENHORA DAS NEVES",
      "lon": "-7.796035641740308",
      "lat": "38.02726773101876"
    },
    {
      "id": "pt.ine.add.PTCONT.442250",
      "street": "MTE ESCORJA",
      "house": "",
      "postcode": "7800-650",
      "city": "NOSSA SENHORA DAS NEVES",
      "lon": "-7.797516434074565",
      "lat": "38.03472258327325"
    },
    {
      "id": "pt.ine.add.PTCONT.445424",
      "street": "",
      "house": "",
      "postcode": "7800-650",
      "city": "NOSSA SENHORA DAS NEVES",
      "lon": "-7.811564999272944",
      "lat": "38.04164487396243"
    },
    {
      "id": "pt.ine.add.PTCONT.446587",
      "street": "MTE NOVO",
      "house": "",
      "postcode": "7800-650",
      "city": "NOSSA SENHORA DAS NEVES",
      "lon": "-7.7978993172513285",
      "lat": "38.035687660304625"
    },
    {
      "id": "pt.ine.add.PTCONT.447133",
      "street": "MTE PELINGREZA",
      "house": "",
      "postcode": "7800-650",
      "city": "NOSSA SENHORA DAS NEVES",
      "lon": "-7.811436970701269",
      "lat": "38.03966250016511"
    },
    {
      "id": "pt.ine.add.PTCONT.452192",
      "street": "MTE PADRE JOSE CORDEIRO",
      "house": "",
      "postcode": "7800-650",
      "city": "NOSSA SENHORA DAS NEVES",
      "lon": "-7.805607299549237",
      "lat": "38.02881733882589"
    },
    {
      "id": "pt.ine.add.PTCONT.454406",
      "street": "MTE CONDE OU ESCORJA",
      "house": "",
      "postcode": "7800-650",
      "city": "NOSSA SENHORA DAS NEVES",
      "lon": "-7.797402940390553",
      "lat": "38.034632167224146"
    },
    {
      "id": "pt.ine.add.PTCONT.455222",
      "street": "MTE CEGONHO",
      "house": "",
      "postcode": "7800-650",
      "city": "NOSSA SENHORA DAS NEVES",
      "lon": "-7.799081775233226",
      "lat": "38.0361685134475"
    },
    {
      "id": "pt.ine.add.PTCONT.455230",
      "street": "MTE NOVO LUZ",
      "house": "",
      "postcode": "7800-650",
      "city": "NOSSA SENHORA DAS NEVES",
      "lon": "-7.796261242167277",
      "lat": "38.0277458659356"
    }
  ]
}