{
  "data": {
    "distrito": "Portalegre",
    "concelho": "Campo Maior",
    "freguesia": "Nossa Senhora da Expectação",
    "OBJECTID": 179,
    "BGRI2021": "12040100306",
    "DT21": "12",
    "DTMN21": "1204",
    "DTMNFR21": "120401",
    "DTMNFRSEC21": "120401003",
    "SECNUM21": "003",
    "SSNUM21": "06",
    "SECSSNUM21": "00306",
    "OBJECTID_1": 121014,
    "DT": "12",
    "CC": "04",
    "fr": "01",
    "SEC": "003",
    "SS": "06"
  },
  "addresses": [
    {
      "id": "pt.ine.add.PTCONT.3460072",
      "street": "",
      "house": "",
      "postcode": "7370-011",
      "city": "CAMPO MAIOR",
      "lon": "-7.060583805354098",
      "lat": "38.968708160891495"
    },
    {
      "id": "pt.ine.add.PTCONT.3463371",
      "street": "",
      "house": "",
      "postcode": "7370-011",
      "city": "CAMPO MAIOR",
      "lon": "-7.056565553687531",
      "lat": "38.959753761855644"
    },
    {
      "id": "pt.ine.add.PTCONT.3491956",
      "street": "",
      "house": "",
      "postcode": "7370-011",
      "city": "CAMPO MAIOR",
      "lon": "-7.071157048272194",
      "lat": "38.959157850788436"
    },
    {
      "id": "pt.ine.add.PTCONT.3492755",
      "street": "",
      "house": "",
      "postcode": "7370-011",
      "city": "CAMPO MAIOR",
      "lon": "-7.070425391231288",
      "lat": "38.955620254114265"
    },
    {
      "id": "pt.ine.add.PTCONT.3492756",
      "street": "QTA S MIGUEL",
      "house": "",
      "postcode": "7370-011",
      "city": "CAMPO MAIOR",
      "lon": "-7.0721826253304245",
      "lat": "38.96465273732913"
    },
    {
      "id": "pt.ine.add.PTCONT.3502143",
      "street": "",
      "house": "",
      "postcode": "7370-011",
      "city": "CAMPO MAIOR",
      "lon": "-7.059645251052054",
      "lat": "38.974320187421284"
    },
    {
      "id": "pt.ine.add.PTCONT.3494176",
      "street": "",
      "house": "",
      "postcode": "7370-011",
      "city": "CAMPO MAIOR",
      "lon": "-7.070693930417123",
      "lat": "38.964675223192295"
    },
    {
      "id": "pt.ine.add.PTCONT.3500583",
      "street": "",
      "house": "",
      "postcode": "7370-011",
      "city": "CAMPO MAIOR",
      "lon": "-7.062251104043886",
      "lat": "38.972155318099205"
    },
    {
      "id": "pt.ine.add.PTCONT.3505890",
      "street": "CAM MUNCIPAL",
      "house": "",
      "postcode": "7370-011",
      "city": "CAMPO MAIOR",
      "lon": "-7.060900222047914",
      "lat": "38.962261718353744"
    },
    {
      "id": "pt.ine.add.PTCONT.3505984",
      "street": "",
      "house": "",
      "postcode": "7370-011",
      "city": "CAMPO MAIOR",
      "lon": "-7.049965375823275",
      "lat": "38.961341055540416"
    },
    {
      "id": "pt.ine.add.PTCONT.3509793",
      "street": "",
      "house": "401",
      "postcode": "7370-011",
      "city": "CAMPO MAIOR",
      "lon": "-7.064498195226222",
      "lat": "38.957763957496205"
    },
    {
      "id": "pt.ine.add.PTCONT.3511586",
      "street": "",
      "house": "",
      "postcode": "7370-011",
      "city": "CAMPO MAIOR",
      "lon": "-7.061131440872663",
      "lat": "38.97294670149587"
    },
    {
      "id": "pt.ine.add.PTCONT.3522580",
      "street": "",
      "house": "",
      "postcode": "7370-011",
      "city": "CAMPO MAIOR",
      "lon": "-7.049940748912831",
      "lat": "38.96598868068089"
    },
    {
      "id": "pt.ine.add.PTCONT.3526151",
      "street": "",
      "house": "",
      "postcode": "7370-011",
      "city": "CAMPO MAIOR",
      "lon": "-7.063816800055653",
      "lat": "38.964720498613985"
    },
    {
      "id": "pt.ine.add.PTCONT.3526152",
      "street": "",
      "house": "",
      "postcode": "7370-011",
      "city": "CAMPO MAIOR",
      "lon": "-7.0479963708485895",
      "lat": "38.96260182378499"
    },
    {
      "id": "pt.ine.add.PTCONT.3528531",
      "street": "HORTA DO RIBEIRINHO DE CIMA",
      "house": "",
      "postcode": "7370-011",
      "city": "CAMPO MAIOR",
      "lon": "-7.05813336242743",
      "lat": "38.96059690254594"
    }
  ]
}