{
  "data": {
    "distrito": "Portalegre",
    "concelho": "Campo Maior",
    "freguesia": "Nossa Senhora da Expectação",
    "OBJECTID": 186,
    "BGRI2021": "12040100335",
    "DT21": "12",
    "DTMN21": "1204",
    "DTMNFR21": "120401",
    "DTMNFRSEC21": "120401003",
    "SECNUM21": "003",
    "SSNUM21": "35",
    "SECSSNUM21": "00335",
    "OBJECTID_1": 121026,
    "DT": "12",
    "CC": "04",
    "fr": "01",
    "SEC": "003",
    "SS": "35"
  },
  "addresses": [
    {
      "id": "pt.ine.add.PTCONT.3458813",
      "street": "R ELVAS",
      "house": "39",
      "postcode": "7370-097",
      "city": "CAMPO MAIOR",
      "lon": "-7.066329272864863",
      "lat": "39.01564453200485"
    },
    {
      "id": "pt.ine.add.PTCONT.3459471",
      "street": "R ELVAS",
      "house": "41",
      "postcode": "7370-097",
      "city": "CAMPO MAIOR",
      "lon": "-7.066031691450974",
      "lat": "39.01547066958265"
    },
    {
      "id": "pt.ine.add.PTCONT.3466868",
      "street": "AV CALOUSTE GULBENKIAN",
      "house": "22",
      "postcode": "7370-025",
      "city": "CAMPO MAIOR",
      "lon": "-7.066177301295416",
      "lat": "39.01576924571534"
    },
    {
      "id": "pt.ine.add.PTCONT.3484593",
      "street": "R ELVAS",
      "house": "39 A",
      "postcode": "7370-097",
      "city": "CAMPO MAIOR",
      "lon": "-7.066157054905663",
      "lat": "39.015579905113235"
    },
    {
      "id": "pt.ine.add.PTCONT.3491762",
      "street": "R BADAJOZ",
      "house": "28",
      "postcode": "7370-099",
      "city": "CAMPO MAIOR",
      "lon": "-7.065925761774222",
      "lat": "39.01560481153695"
    },
    {
      "id": "pt.ine.add.PTCONT.3491763",
      "street": "R ELVAS",
      "house": "49",
      "postcode": "7370-097",
      "city": "CAMPO MAIOR",
      "lon": "-7.06574673901302",
      "lat": "39.01522486275069"
    },
    {
      "id": "pt.ine.add.PTCONT.3492702",
      "street": "R BADAJOZ",
      "house": "30",
      "postcode": "7370-099",
      "city": "CAMPO MAIOR",
      "lon": "-7.065823487308491",
      "lat": "39.015495787013975"
    },
    {
      "id": "pt.ine.add.PTCONT.3503478",
      "street": "R BADAJOZ",
      "house": "28 A",
      "postcode": "7370-099",
      "city": "CAMPO MAIOR",
      "lon": "-7.06589194101888",
      "lat": "39.01555045771452"
    },
    {
      "id": "pt.ine.add.PTCONT.3509811",
      "street": "R ELVAS",
      "house": "41",
      "postcode": "7370-097",
      "city": "CAMPO MAIOR",
      "lon": "-7.066088600959647",
      "lat": "39.01552523456532"
    },
    {
      "id": "pt.ine.add.PTCONT.3519080",
      "street": "AV CALOUSTE GULBENKIAN",
      "house": "20",
      "postcode": "7370-025",
      "city": "CAMPO MAIOR",
      "lon": "-7.0662586533179965",
      "lat": "39.015733960166415"
    },
    {
      "id": "pt.ine.add.PTCONT.3526064",
      "street": "R ELVAS",
      "house": "43",
      "postcode": "7370-097",
      "city": "CAMPO MAIOR",
      "lon": "-7.065939742929352",
      "lat": "39.01544280622733"
    },
    {
      "id": "pt.ine.add.PTCONT.3527184",
      "street": "R ELVAS",
      "house": "45",
      "postcode": "7370-097",
      "city": "CAMPO MAIOR",
      "lon": "-7.06589491945023",
      "lat": "39.0153523221415"
    },
    {
      "id": "pt.ine.add.PTCONT.3527185",
      "street": "R ELVAS",
      "house": "47",
      "postcode": "7370-097",
      "city": "CAMPO MAIOR",
      "lon": "-7.0658261951429475",
      "lat": "39.01531566376842"
    },
    {
      "id": "pt.ine.add.PTCONT.3531558",
      "street": "R BADAJOZ",
      "house": "38",
      "postcode": "7370-099",
      "city": "CAMPO MAIOR",
      "lon": "-7.065629400285191",
      "lat": "39.0153498926447"
    }
  ]
}