{
  "data": {
    "distrito": "Coimbra",
    "concelho": "Oliveira do Hospital",
    "freguesia": "Aldeia das Dez",
    "OBJECTID": 355,
    "BGRI2021": "06110100135",
    "DT21": "06",
    "DTMN21": "0611",
    "DTMNFR21": "061101",
    "DTMNFRSEC21": "061101001",
    "SECNUM21": "001",
    "SSNUM21": "35",
    "SECSSNUM21": "00135",
    "OBJECTID_1": 54926,
    "DT": "06",
    "CC": "11",
    "fr": "01",
    "SEC": "001",
    "SS": "35"
  },
  "addresses": [
    {
      "id": "pt.ine.add.PTCONT.1105359",
      "street": "TV DOS FERREIROS",
      "house": "3",
      "postcode": "3400-254",
      "city": "ALDEIA DAS DEZ",
      "lon": "-7.866055749985197",
      "lat": "40.29567517113162"
    },
    {
      "id": "pt.ine.add.PTCONT.1111441",
      "street": "R DOS ENTALHADORES",
      "house": "9",
      "postcode": "3400-234",
      "city": "ALDEIA DAS DEZ",
      "lon": "-7.865269776295481",
      "lat": "40.29516002816921"
    },
    {
      "id": "pt.ine.add.PTCONT.1149665",
      "street": "R DE NSA SRA DAS DORES",
      "house": "1",
      "postcode": "3400-226",
      "city": "ALDEIA DAS DEZ",
      "lon": "-7.867371664046462",
      "lat": "40.29602041839386"
    },
    {
      "id": "pt.ine.add.PTCONT.1160672",
      "street": "PTO DO CABO DO LUGAR",
      "house": "1",
      "postcode": "3400-215",
      "city": "ALDEIA DAS DEZ",
      "lon": "-7.863813936862085",
      "lat": "40.294517242526666"
    },
    {
      "id": "pt.ine.add.PTCONT.1160673",
      "street": "R DOS ENTALHADORES",
      "house": "13",
      "postcode": "3400-234",
      "city": "ALDEIA DAS DEZ",
      "lon": "-7.8649180110664005",
      "lat": "40.29488904164682"
    },
    {
      "id": "pt.ine.add.PTCONT.1164580",
      "street": "TV DO PASSADIÇO",
      "house": "6",
      "postcode": "3400-252",
      "city": "ALDEIA DAS DEZ",
      "lon": "-7.863696577232456",
      "lat": "40.29445392924922"
    },
    {
      "id": "pt.ine.add.PTCONT.1164581",
      "street": "R DOS DOURADORES",
      "house": "17",
      "postcode": "3400-233",
      "city": "ALDEIA DAS DEZ",
      "lon": "-7.866220831977693",
      "lat": "40.295567483388815"
    },
    {
      "id": "pt.ine.add.PTCONT.1174479",
      "street": "R DOS TECELÕES",
      "house": "1",
      "postcode": "3400-237",
      "city": "ALDEIA DAS DEZ",
      "lon": "-7.8634391242711965",
      "lat": "40.29412912343501"
    },
    {
      "id": "pt.ine.add.PTCONT.1175730",
      "street": "TV DO PASSADIÇO",
      "house": "4",
      "postcode": "3400-252",
      "city": "ALDEIA DAS DEZ",
      "lon": "-7.863578967360486",
      "lat": "40.29445365533154"
    },
    {
      "id": "pt.ine.add.PTCONT.1176987",
      "street": "R DOS ENTALHADORES",
      "house": "1",
      "postcode": "3400-234",
      "city": "ALDEIA DAS DEZ",
      "lon": "-7.865598412665395",
      "lat": "40.295331897196704"
    },
    {
      "id": "pt.ine.add.PTCONT.1178604",
      "street": "R JOAQUIM DA COSTA REIS",
      "house": "13",
      "postcode": "3400-228",
      "city": "ALDEIA DAS DEZ",
      "lon": "-7.863708803139076",
      "lat": "40.29433688331484"
    },
    {
      "id": "pt.ine.add.PTCONT.1184748",
      "street": "R JOAQUIM DA COSTA REIS",
      "house": "9",
      "postcode": "3400-228",
      "city": "ALDEIA DAS DEZ",
      "lon": "-7.863814330102225",
      "lat": "40.29441818048742"
    },
    {
      "id": "pt.ine.add.PTCONT.1184749",
      "street": "TV DAS FLORES",
      "house": "2",
      "postcode": "3400-248",
      "city": "ALDEIA DAS DEZ",
      "lon": "-7.866584225633857",
      "lat": "40.29587451559925"
    },
    {
      "id": "pt.ine.add.PTCONT.1188834",
      "street": "R DOS DOURADORES",
      "house": "1",
      "postcode": "3400-233",
      "city": "ALDEIA DAS DEZ",
      "lon": "-7.866643774694095",
      "lat": "40.29568553261023"
    },
    {
      "id": "pt.ine.add.PTCONT.1190786",
      "street": "TERR DO FUNDO DO LUGAR",
      "house": "3",
      "postcode": "3400-214",
      "city": "ALDEIA DAS DEZ",
      "lon": "-7.866525171715362",
      "lat": "40.29593741959684"
    },
    {
      "id": "pt.ine.add.PTCONT.1196145",
      "street": "R DOS DOURADORES",
      "house": "19",
      "postcode": "3400-233",
      "city": "ALDEIA DAS DEZ",
      "lon": "-7.866115371227946",
      "lat": "40.295468177132136"
    },
    {
      "id": "pt.ine.add.PTCONT.1208424",
      "street": "R DOS TECELÕES",
      "house": "3",
      "postcode": "3400-237",
      "city": "ALDEIA DAS DEZ",
      "lon": "-7.861684223558389",
      "lat": "40.29475542049722"
    },
    {
      "id": "pt.ine.add.PTCONT.1216372",
      "street": "R JOAQUIM DA COSTA REIS",
      "house": "17",
      "postcode": "3400-228",
      "city": "ALDEIA DAS DEZ",
      "lon": "-7.863662045424024",
      "lat": "40.29426472864669"
    },
    {
      "id": "pt.ine.add.PTCONT.1216419",
      "street": "PC DOS COMBATENTES",
      "house": "1",
      "postcode": "3400-216",
      "city": "ALDEIA DAS DEZ",
      "lon": "-7.866855016851298",
      "lat": "40.29580309330287"
    },
    {
      "id": "pt.ine.add.PTCONT.1219039",
      "street": "TV DOS FERREIROS",
      "house": "1",
      "postcode": "3400-254",
      "city": "ALDEIA DAS DEZ",
      "lon": "-7.866138255604892",
      "lat": "40.29563033292997"
    },
    {
      "id": "pt.ine.add.PTCONT.1222248",
      "street": "ESC DO AREAL",
      "house": "2",
      "postcode": "3400-208",
      "city": "ALDEIA DAS DEZ",
      "lon": "-7.863497606808471",
      "lat": "40.29421031124046"
    },
    {
      "id": "pt.ine.add.PTCONT.1231631",
      "street": "R MOZ",
      "house": "",
      "postcode": "3400-230",
      "city": "ALDEIA DAS DEZ",
      "lon": "-7.8680264588152555",
      "lat": "40.29700354399396"
    },
    {
      "id": "pt.ine.add.PTCONT.1236619",
      "street": "TV DAS FLORES",
      "house": "7",
      "postcode": "3400-248",
      "city": "ALDEIA DAS DEZ",
      "lon": "-7.866701908733123",
      "lat": "40.29585677519022"
    },
    {
      "id": "pt.ine.add.PTCONT.1240628",
      "street": "R DOS DOURADORES",
      "house": "13",
      "postcode": "3400-233",
      "city": "ALDEIA DAS DEZ",
      "lon": "-7.86638524067367",
      "lat": "40.29563090256952"
    },
    {
      "id": "pt.ine.add.PTCONT.1250899",
      "street": "LG ALFREDO DUARTE",
      "house": "1",
      "postcode": "3400-211",
      "city": "ALDEIA DAS DEZ",
      "lon": "-7.865818290422226",
      "lat": "40.29624198322166"
    },
    {
      "id": "pt.ine.add.PTCONT.1257850",
      "street": "R GENÉSIO DIAS OLIVEIRA",
      "house": "1",
      "postcode": "3400-240",
      "city": "ALDEIA DAS DEZ",
      "lon": "-7.864565963451504",
      "lat": "40.2946900991729"
    },
    {
      "id": "pt.ine.add.PTCONT.1259956",
      "street": "TV DAS FLORES",
      "house": "1",
      "postcode": "3400-248",
      "city": "ALDEIA DAS DEZ",
      "lon": "-7.866784838426359",
      "lat": "40.29570386884725"
    },
    {
      "id": "pt.ine.add.PTCONT.1266082",
      "street": "R DE NSA SRA DAS DORES",
      "house": "",
      "postcode": "3400-226",
      "city": "ALDEIA DAS DEZ",
      "lon": "-7.867771018589967",
      "lat": "40.296156420752304"
    },
    {
      "id": "pt.ine.add.PTCONT.1266083",
      "street": "R DE NSA SRA DAS DORES",
      "house": "",
      "postcode": "3400-226",
      "city": "ALDEIA DAS DEZ",
      "lon": "-7.867771018589967",
      "lat": "40.296156420752304"
    },
    {
      "id": "pt.ine.add.PTCONT.1266086",
      "street": "R DE NSA SRA DAS DORES",
      "house": "",
      "postcode": "3400-226",
      "city": "ALDEIA DAS DEZ",
      "lon": "-7.867771018589967",
      "lat": "40.296156420752304"
    },
    {
      "id": "pt.ine.add.PTCONT.1275921",
      "street": "TV DAS FLORES",
      "house": "3",
      "postcode": "3400-248",
      "city": "ALDEIA DAS DEZ",
      "lon": "-7.866725749478548",
      "lat": "40.295775778590226"
    },
    {
      "id": "pt.ine.add.PTCONT.1277969",
      "street": "R DOS DOURADORES",
      "house": "11",
      "postcode": "3400-233",
      "city": "ALDEIA DAS DEZ",
      "lon": "-7.866443940439081",
      "lat": "40.29565805504036"
    },
    {
      "id": "pt.ine.add.PTCONT.1279746",
      "street": "R JOAQUIM DA COSTA REIS",
      "house": "3",
      "postcode": "3400-228",
      "city": "ALDEIA DAS DEZ",
      "lon": "-7.864425187786253",
      "lat": "40.29459971511516"
    },
    {
      "id": "pt.ine.add.PTCONT.1282117",
      "street": "ESC DO AREAL",
      "house": "3",
      "postcode": "3400-208",
      "city": "ALDEIA DAS DEZ",
      "lon": "-7.863461429081929",
      "lat": "40.29443537001489"
    },
    {
      "id": "pt.ine.add.PTCONT.1286274",
      "street": "R DR CORREIA DA FONSECA",
      "house": "1",
      "postcode": "3400-238",
      "city": "ALDEIA DAS DEZ",
      "lon": "-7.866960585205105",
      "lat": "40.29587538196466"
    },
    {
      "id": "pt.ine.add.PTCONT.1286275",
      "street": "R DR CORREIA DA FONSECA",
      "house": "3",
      "postcode": "3400-238",
      "city": "ALDEIA DAS DEZ",
      "lon": "-7.867066189103255",
      "lat": "40.2959386648899"
    },
    {
      "id": "pt.ine.add.PTCONT.1287987",
      "street": "R DOS DOURADORES",
      "house": "15",
      "postcode": "3400-233",
      "city": "ALDEIA DAS DEZ",
      "lon": "-7.866314779766209",
      "lat": "40.29560372294922"
    },
    {
      "id": "pt.ine.add.PTCONT.1288888",
      "street": "TERR DO FUNDO DO LUGAR",
      "house": "1",
      "postcode": "3400-214",
      "city": "ALDEIA DAS DEZ",
      "lon": "-7.866748246438775",
      "lat": "40.2960369963006"
    },
    {
      "id": "pt.ine.add.PTCONT.1302554",
      "street": "R GENÉSIO DIAS OLIVEIRA",
      "house": "4",
      "postcode": "3400-240",
      "city": "ALDEIA DAS DEZ",
      "lon": "-7.863672626042998",
      "lat": "40.29456194215243"
    },
    {
      "id": "pt.ine.add.PTCONT.1302555",
      "street": "R DOS DOURADORES",
      "house": "9",
      "postcode": "3400-233",
      "city": "ALDEIA DAS DEZ",
      "lon": "-7.866408267374282",
      "lat": "40.2957570357524"
    },
    {
      "id": "pt.ine.add.PTCONT.1318773",
      "street": "R JOAQUIM DA COSTA REIS",
      "house": "7",
      "postcode": "3400-228",
      "city": "ALDEIA DAS DEZ",
      "lon": "-7.863861195313081",
      "lat": "40.29446331817311"
    },
    {
      "id": "pt.ine.add.PTCONT.1328638",
      "street": "R JOAQUIM DA COSTA REIS",
      "house": "5",
      "postcode": "3400-228",
      "city": "ALDEIA DAS DEZ",
      "lon": "-7.864037217236134",
      "lat": "40.29456279061483"
    },
    {
      "id": "pt.ine.add.PTCONT.1328639",
      "street": "R DOS ENTALHADORES",
      "house": "7",
      "postcode": "3400-234",
      "city": "ALDEIA DAS DEZ",
      "lon": "-7.865304739660064",
      "lat": "40.29524116060163"
    },
    {
      "id": "pt.ine.add.PTCONT.1338815",
      "street": "R JOAQUIM DA COSTA REIS",
      "house": "11",
      "postcode": "3400-228",
      "city": "ALDEIA DAS DEZ",
      "lon": "-7.8637556682236145",
      "lat": "40.294382021043475"
    },
    {
      "id": "pt.ine.add.PTCONT.1338816",
      "street": "R GENÉSIO DIAS OLIVEIRA",
      "house": "2",
      "postcode": "3400-240",
      "city": "ALDEIA DAS DEZ",
      "lon": "-7.8644957182072845",
      "lat": "40.294608884604706"
    },
    {
      "id": "pt.ine.add.PTCONT.1343747",
      "street": "R JOAQUIM DA COSTA REIS",
      "house": "19",
      "postcode": "3400-228",
      "city": "ALDEIA DAS DEZ",
      "lon": "-7.863638702375764",
      "lat": "40.29421964566514"
    },
    {
      "id": "pt.ine.add.PTCONT.1343748",
      "street": "R DOS ENTALHADORES",
      "house": "3",
      "postcode": "3400-234",
      "city": "ALDEIA DAS DEZ",
      "lon": "-7.865492740030805",
      "lat": "40.295286624212366"
    },
    {
      "id": "pt.ine.add.PTCONT.1350702",
      "street": "R DOS DOURADORES",
      "house": "7",
      "postcode": "3400-233",
      "city": "ALDEIA DAS DEZ",
      "lon": "-7.866537994640051",
      "lat": "40.2956672774997"
    },
    {
      "id": "pt.ine.add.PTCONT.1354924",
      "street": "PTO DO CABO DO LUGAR",
      "house": "",
      "postcode": "3400-215",
      "city": "ALDEIA DAS DEZ",
      "lon": "-7.86388446711275",
      "lat": "40.294526412388436"
    },
    {
      "id": "pt.ine.add.PTCONT.1366515",
      "street": "R JOAQUIM DA COSTA REIS",
      "house": "15",
      "postcode": "3400-228",
      "city": "ALDEIA DAS DEZ",
      "lon": "-7.863685460035127",
      "lat": "40.29429180034309"
    }
  ]
}