{
  "data": {
    "distrito": "Lisboa",
    "concelho": "Cadaval",
    "freguesia": "Peral",
    "OBJECTID": 311,
    "BGRI2021": "11040700108",
    "DT21": "11",
    "DTMN21": "1104",
    "DTMNFR21": "110407",
    "DTMNFRSEC21": "110407001",
    "SECNUM21": "001",
    "SSNUM21": "08",
    "SECSSNUM21": "00108",
    "OBJECTID_1": 100173,
    "DT": "11",
    "CC": "04",
    "fr": "07",
    "SEC": "001",
    "SS": "08"
  },
  "addresses": [
    {
      "id": "pt.ine.add.PTCONT.2313888",
      "street": "R COMÉRCIO",
      "house": "13 15",
      "postcode": "2550-450",
      "city": "PERAL CDV",
      "lon": "-9.074887209874273",
      "lat": "39.26107038567444"
    },
    {
      "id": "pt.ine.add.PTCONT.2396101",
      "street": "R COMÉRCIO",
      "house": "4 6",
      "postcode": "2550-450",
      "city": "PERAL CDV",
      "lon": "-9.075580491611463",
      "lat": "39.26179435198119"
    },
    {
      "id": "pt.ine.add.PTCONT.2414539",
      "street": "R COMÉRCIO",
      "house": "19 21",
      "postcode": "2550-450",
      "city": "PERAL CDV",
      "lon": "-9.074840629023548",
      "lat": "39.261052748180916"
    },
    {
      "id": "pt.ine.add.PTCONT.2460347",
      "street": "TV PADRE PRATA",
      "house": "3",
      "postcode": "2550-450",
      "city": "PERAL CDV",
      "lon": "-9.074967581367156",
      "lat": "39.2610156930245"
    },
    {
      "id": "pt.ine.add.PTCONT.2497509",
      "street": "R PALMIRA CALISTO",
      "house": "325",
      "postcode": "2550-450",
      "city": "PERAL CDV",
      "lon": "-9.07477123981645",
      "lat": "39.26106231642002"
    },
    {
      "id": "pt.ine.add.PTCONT.2612740",
      "street": "R 2O JANEIRO",
      "house": "4A",
      "postcode": "2550-450",
      "city": "PERAL CDV",
      "lon": "-9.075599922678546",
      "lat": "39.261514974556945"
    },
    {
      "id": "pt.ine.add.PTCONT.2641358",
      "street": "R COMÉRCIO",
      "house": "14",
      "postcode": "2550-450",
      "city": "PERAL CDV",
      "lon": "-9.07547429637242",
      "lat": "39.2616510977931"
    },
    {
      "id": "pt.ine.add.PTCONT.2710331",
      "street": "R COMÉRCIO",
      "house": "9 11",
      "postcode": "2550-450",
      "city": "PERAL CDV",
      "lon": "-9.075108650055382",
      "lat": "39.2611676727011"
    },
    {
      "id": "pt.ine.add.PTCONT.2926525",
      "street": "PC REPUBLICA",
      "house": "1",
      "postcode": "2550-450",
      "city": "PERAL CDV",
      "lon": "-9.075164525434294",
      "lat": "39.26101409993972"
    },
    {
      "id": "pt.ine.add.PTCONT.2947524",
      "street": "R COMÉRCIO",
      "house": "18",
      "postcode": "2550-450",
      "city": "PERAL CDV",
      "lon": "-9.075160656131809",
      "lat": "39.26159058580937"
    },
    {
      "id": "pt.ine.add.PTCONT.2999868",
      "street": "R COMÉRCIO",
      "house": "5 7",
      "postcode": "2550-450",
      "city": "PERAL CDV",
      "lon": "-9.075375707276065",
      "lat": "39.261210547576646"
    },
    {
      "id": "pt.ine.add.PTCONT.3018151",
      "street": "R COMÉRCIO",
      "house": "8",
      "postcode": "2550-450",
      "city": "PERAL CDV",
      "lon": "-9.075487328630947",
      "lat": "39.26175907755011"
    },
    {
      "id": "pt.ine.add.PTCONT.3093037",
      "street": "R COMÉRCIO",
      "house": "20",
      "postcode": "2550-450",
      "city": "PERAL CDV",
      "lon": "-9.075067373080277",
      "lat": "39.26154630490811"
    },
    {
      "id": "pt.ine.add.PTCONT.3099416",
      "street": "R MANUEL BENTO VIVAS",
      "house": "3 5",
      "postcode": "2550-450",
      "city": "PERAL CDV",
      "lon": "-9.075211950278032",
      "lat": "39.26109478019607"
    },
    {
      "id": "pt.ine.add.PTCONT.3168413",
      "street": "R MANUEL BENTO VIVAS",
      "house": "17",
      "postcode": "2550-450",
      "city": "PERAL CDV",
      "lon": "-9.074897589602802",
      "lat": "39.26098023069632"
    },
    {
      "id": "pt.ine.add.PTCONT.3286833",
      "street": "R MANUEL BENTO VIVAS",
      "house": "9 11",
      "postcode": "2550-450",
      "city": "PERAL CDV",
      "lon": "-9.07514231997617",
      "lat": "39.26108633640089"
    },
    {
      "id": "pt.ine.add.PTCONT.3305216",
      "street": "R PALMIRA CALISTO",
      "house": "7",
      "postcode": "2550-450",
      "city": "PERAL CDV",
      "lon": "-9.074726225510405",
      "lat": "39.26116175855358"
    },
    {
      "id": "pt.ine.add.PTCONT.3324397",
      "street": "R 2O JANEIRO",
      "house": "",
      "postcode": "2550-450",
      "city": "PERAL CDV",
      "lon": "-9.075637090145504",
      "lat": "39.261694815769374"
    },
    {
      "id": "pt.ine.add.PTCONT.3351327",
      "street": "R 2O JANEIRO",
      "house": "4",
      "postcode": "2550-450",
      "city": "PERAL CDV",
      "lon": "-9.07562188655758",
      "lat": "39.261424725766"
    },
    {
      "id": "pt.ine.add.PTCONT.3371350",
      "street": "R COMÉRCIO",
      "house": "16",
      "postcode": "2550-450",
      "city": "PERAL CDV",
      "lon": "-9.075253939299797",
      "lat": "39.26163486663414"
    },
    {
      "id": "pt.ine.add.PTCONT.3424516",
      "street": "TV PADRE PRATA",
      "house": "1",
      "postcode": "2550-450",
      "city": "PERAL CDV",
      "lon": "-9.07502574717227",
      "lat": "39.26103323676095"
    }
  ]
}