{
  "data": {
    "distrito": "Viana do Castelo",
    "concelho": "Arcos de Valdevez",
    "freguesia": "União das freguesias de Souto e Tabaçô",
    "OBJECTID": 666,
    "BGRI2021": "16016200107",
    "DT21": "16",
    "DTMN21": "1601",
    "DTMNFR21": "160162",
    "DTMNFRSEC21": "160162001",
    "SECNUM21": "001",
    "SSNUM21": "07",
    "SECSSNUM21": "00107",
    "OBJECTID_1": 171949,
    "DT": "16",
    "CC": "01",
    "fr": "62",
    "SEC": "001",
    "SS": "07"
  },
  "addresses": [
    {
      "id": "pt.ine.add.PTCONT.5138359",
      "street": "",
      "house": "",
      "postcode": "4970-680",
      "city": "SOUTO AVV",
      "lon": "-8.434149360463818",
      "lat": "41.81398091548928"
    },
    {
      "id": "pt.ine.add.PTCONT.5135295",
      "street": "",
      "house": "",
      "postcode": "4970-680",
      "city": "SOUTO AVV",
      "lon": "-8.438903295905606",
      "lat": "41.81401337544522"
    },
    {
      "id": "pt.ine.add.PTCONT.5137106",
      "street": "",
      "house": "",
      "postcode": "4970-680",
      "city": "SOUTO AVV",
      "lon": "-8.444830338076143",
      "lat": "41.81770682053405"
    },
    {
      "id": "pt.ine.add.PTCONT.5138358",
      "street": "",
      "house": "",
      "postcode": "4970-680",
      "city": "SOUTO AVV",
      "lon": "-8.434149360463818",
      "lat": "41.81398091548928"
    },
    {
      "id": "pt.ine.add.PTCONT.5148657",
      "street": "",
      "house": "",
      "postcode": "4970-680",
      "city": "SOUTO AVV",
      "lon": "-8.439859453245035",
      "lat": "41.81514524726493"
    },
    {
      "id": "pt.ine.add.PTCONT.5152093",
      "street": "",
      "house": "",
      "postcode": "4970-680",
      "city": "SOUTO AVV",
      "lon": "-8.437561533644493",
      "lat": "41.81785236240266"
    },
    {
      "id": "pt.ine.add.PTCONT.5156627",
      "street": "",
      "house": "",
      "postcode": "4970-680",
      "city": "SOUTO AVV",
      "lon": "-8.437307894197346",
      "lat": "41.81766396427908"
    },
    {
      "id": "pt.ine.add.PTCONT.5157870",
      "street": "",
      "house": "",
      "postcode": "4970-680",
      "city": "SOUTO AVV",
      "lon": "-8.435047373388223",
      "lat": "41.81556314686369"
    },
    {
      "id": "pt.ine.add.PTCONT.5157871",
      "street": "",
      "house": "",
      "postcode": "4970-680",
      "city": "SOUTO AVV",
      "lon": "-8.437664485077681",
      "lat": "41.81417872669823"
    },
    {
      "id": "pt.ine.add.PTCONT.5173612",
      "street": "",
      "house": "",
      "postcode": "4970-680",
      "city": "SOUTO AVV",
      "lon": "-8.444555747953194",
      "lat": "41.818166735514794"
    },
    {
      "id": "pt.ine.add.PTCONT.5173613",
      "street": "",
      "house": "",
      "postcode": "4970-680",
      "city": "SOUTO AVV",
      "lon": "-8.444555747953194",
      "lat": "41.818166735514794"
    },
    {
      "id": "pt.ine.add.PTCONT.5176870",
      "street": "",
      "house": "",
      "postcode": "4970-680",
      "city": "SOUTO AVV",
      "lon": "-8.440779396881268",
      "lat": "41.818762129039044"
    },
    {
      "id": "pt.ine.add.PTCONT.5188531",
      "street": "",
      "house": "",
      "postcode": "4970-680",
      "city": "SOUTO AVV",
      "lon": "-8.437847481944031",
      "lat": "41.814700435255254"
    },
    {
      "id": "pt.ine.add.PTCONT.5188532",
      "street": "",
      "house": "",
      "postcode": "4970-680",
      "city": "SOUTO AVV",
      "lon": "-8.438088093956415",
      "lat": "41.81468179001158"
    },
    {
      "id": "pt.ine.add.PTCONT.5195273",
      "street": "",
      "house": "",
      "postcode": "4970-680",
      "city": "SOUTO AVV",
      "lon": "-8.43865120815042",
      "lat": "41.81414909638148"
    },
    {
      "id": "pt.ine.add.PTCONT.5198918",
      "street": "",
      "house": "",
      "postcode": "4970-680",
      "city": "SOUTO AVV",
      "lon": "-8.438025869914986",
      "lat": "41.81424979475193"
    },
    {
      "id": "pt.ine.add.PTCONT.5200226",
      "street": "",
      "house": "",
      "postcode": "4970-680",
      "city": "SOUTO AVV",
      "lon": "-8.43895027844706",
      "lat": "41.813770160094826"
    },
    {
      "id": "pt.ine.add.PTCONT.5204044",
      "street": "",
      "house": "",
      "postcode": "4970-680",
      "city": "SOUTO AVV",
      "lon": "-8.438417377041517",
      "lat": "41.81812919434253"
    },
    {
      "id": "pt.ine.add.PTCONT.5205722",
      "street": "",
      "house": "",
      "postcode": "4970-680",
      "city": "SOUTO AVV",
      "lon": "-8.437928396355161",
      "lat": "41.81399795983649"
    },
    {
      "id": "pt.ine.add.PTCONT.5205964",
      "street": "QTA DO FORMIGUEIRO",
      "house": "",
      "postcode": "4970-680",
      "city": "SOUTO AVV",
      "lon": "-8.440632274284477",
      "lat": "41.815683381399545"
    },
    {
      "id": "pt.ine.add.PTCONT.5207757",
      "street": "",
      "house": "",
      "postcode": "4970-680",
      "city": "SOUTO AVV",
      "lon": "-8.437831734365716",
      "lat": "41.813917186202254"
    },
    {
      "id": "pt.ine.add.PTCONT.5209465",
      "street": "",
      "house": "",
      "postcode": "4970-680",
      "city": "SOUTO AVV",
      "lon": "-8.440221060959699",
      "lat": "41.81526132450587"
    },
    {
      "id": "pt.ine.add.PTCONT.5210454",
      "street": "",
      "house": "",
      "postcode": "4970-680",
      "city": "SOUTO AVV",
      "lon": "-8.43504500537679",
      "lat": "41.81505896596176"
    },
    {
      "id": "pt.ine.add.PTCONT.5228977",
      "street": "",
      "house": "",
      "postcode": "4970-680",
      "city": "SOUTO AVV",
      "lon": "-8.439396548743055",
      "lat": "41.81397604795808"
    },
    {
      "id": "pt.ine.add.PTCONT.5235688",
      "street": "",
      "house": "",
      "postcode": "4970-680",
      "city": "SOUTO AVV",
      "lon": "-8.437172890344488",
      "lat": "41.81456717272783"
    },
    {
      "id": "pt.ine.add.PTCONT.5243361",
      "street": "",
      "house": "",
      "postcode": "4970-680",
      "city": "SOUTO AVV",
      "lon": "-8.436103078247093",
      "lat": "41.81739704839257"
    },
    {
      "id": "pt.ine.add.PTCONT.5246923",
      "street": "",
      "house": "",
      "postcode": "4970-680",
      "city": "SOUTO AVV",
      "lon": "-8.437722440690516",
      "lat": "41.81371039917039"
    },
    {
      "id": "pt.ine.add.PTCONT.5246924",
      "street": "",
      "house": "",
      "postcode": "4970-680",
      "city": "SOUTO AVV",
      "lon": "-8.437722440690516",
      "lat": "41.81371039917039"
    },
    {
      "id": "pt.ine.add.PTCONT.5252490",
      "street": "",
      "house": "",
      "postcode": "4970-680",
      "city": "SOUTO AVV",
      "lon": "-8.437870527356907",
      "lat": "41.81448429389934"
    },
    {
      "id": "pt.ine.add.PTCONT.5253450",
      "street": "",
      "house": "",
      "postcode": "4970-680",
      "city": "SOUTO AVV",
      "lon": "-8.438682329524735",
      "lat": "41.818164503181514"
    },
    {
      "id": "pt.ine.add.PTCONT.5253451",
      "street": "",
      "house": "",
      "postcode": "4970-680",
      "city": "SOUTO AVV",
      "lon": "-8.438464920329903",
      "lat": "41.81800302125348"
    },
    {
      "id": "pt.ine.add.PTCONT.5257385",
      "street": "",
      "house": "",
      "postcode": "4970-680",
      "city": "SOUTO AVV",
      "lon": "-8.437067526227118",
      "lat": "41.817736627266264"
    },
    {
      "id": "pt.ine.add.PTCONT.5258560",
      "street": "",
      "house": "",
      "postcode": "4970-680",
      "city": "SOUTO AVV",
      "lon": "-8.439451959126018",
      "lat": "41.81802740322079"
    },
    {
      "id": "pt.ine.add.PTCONT.5262013",
      "street": "",
      "house": "",
      "postcode": "4970-680",
      "city": "SOUTO AVV",
      "lon": "-8.43726814682414",
      "lat": "41.81435084032283"
    },
    {
      "id": "pt.ine.add.PTCONT.5275619",
      "street": "",
      "house": "",
      "postcode": "4970-680",
      "city": "SOUTO AVV",
      "lon": "-8.438067535599776",
      "lat": "41.817959060231466"
    },
    {
      "id": "pt.ine.add.PTCONT.5279307",
      "street": "",
      "house": "",
      "postcode": "4970-680",
      "city": "SOUTO AVV",
      "lon": "-8.439119664133958",
      "lat": "41.81395877920266"
    }
  ]
}