{
  "data": {
    "distrito": "Braga",
    "concelho": "Guimarães",
    "freguesia": "União das freguesias de Souto Santa Maria, Souto São Salvador e Gondomar",
    "OBJECTID": 2233,
    "BGRI2021": "03089000103",
    "DT21": "03",
    "DTMN21": "0308",
    "DTMNFR21": "030890",
    "DTMNFRSEC21": "030890001",
    "SECNUM21": "001",
    "SSNUM21": "03",
    "SECSSNUM21": "00103",
    "OBJECTID_1": 27153,
    "DT": "03",
    "CC": "08",
    "fr": "90",
    "SEC": "001",
    "SS": "03"
  },
  "addresses": [
    {
      "id": "pt.ine.add.PTCONT.554832",
      "street": "R FALCÃO",
      "house": "255",
      "postcode": "4800-831",
      "city": "SÃO SALVADOR SOUTO",
      "lon": "-8.315381544777328",
      "lat": "41.49623254913104"
    },
    {
      "id": "pt.ine.add.PTCONT.574242",
      "street": "R SOUTO",
      "house": "358",
      "postcode": "4800-849",
      "city": "SÃO SALVADOR SOUTO",
      "lon": "-8.31498621602232",
      "lat": "41.496188155681466"
    },
    {
      "id": "pt.ine.add.PTCONT.662705",
      "street": "R FALCÃO",
      "house": "399",
      "postcode": "4800-831",
      "city": "SÃO SALVADOR SOUTO",
      "lon": "-8.316147922636883",
      "lat": "41.49620432052398"
    },
    {
      "id": "pt.ine.add.PTCONT.792120",
      "street": "R SOUTO",
      "house": "325",
      "postcode": "4800-849",
      "city": "SÃO SALVADOR SOUTO",
      "lon": "-8.315524395958192",
      "lat": "41.49592619170141"
    },
    {
      "id": "pt.ine.add.PTCONT.792888",
      "street": "R SOUTO",
      "house": "325",
      "postcode": "4800-849",
      "city": "SÃO SALVADOR SOUTO",
      "lon": "-8.315524395958192",
      "lat": "41.49592619170141"
    },
    {
      "id": "pt.ine.add.PTCONT.795966",
      "street": "R FALCÃO",
      "house": "363",
      "postcode": "4800-831",
      "city": "SÃO SALVADOR SOUTO",
      "lon": "-8.315764569368813",
      "lat": "41.49615991069135"
    },
    {
      "id": "pt.ine.add.PTCONT.801245",
      "street": "R ENG DUARTE DO AMARAL",
      "house": "3083",
      "postcode": "4800-839",
      "city": "SÃO SALVADOR SOUTO",
      "lon": "-8.313833907857674",
      "lat": "41.49524456753288"
    },
    {
      "id": "pt.ine.add.PTCONT.816990",
      "street": "R ENG DUARTE DO AMARAL",
      "house": "373",
      "postcode": "4800-839",
      "city": "SÃO SALVADOR SOUTO",
      "lon": "-8.313942239754128",
      "lat": "41.495442482030754"
    },
    {
      "id": "pt.ine.add.PTCONT.822446",
      "street": "R FALCÃO",
      "house": "105",
      "postcode": "4800-831",
      "city": "SÃO SALVADOR SOUTO",
      "lon": "-8.314326792190823",
      "lat": "41.49591908097369"
    }
  ]
}