{
  "data": {
    "distrito": "Bragança",
    "concelho": "Mirandela",
    "freguesia": "Bouça",
    "OBJECTID": 91,
    "BGRI2021": "04070800114",
    "DT21": "04",
    "DTMN21": "0407",
    "DTMNFR21": "040708",
    "DTMNFRSEC21": "040708001",
    "SECNUM21": "001",
    "SSNUM21": "14",
    "SECSSNUM21": "00114",
    "OBJECTID_1": 37186,
    "DT": "04",
    "CC": "07",
    "fr": "08",
    "SEC": "001",
    "SS": "14"
  },
  "addresses": [
    {
      "id": "pt.ine.add.PTCONT.849978",
      "street": "BC JOAQUIM NOGUEIRA",
      "house": "",
      "postcode": "5385-031",
      "city": "BOUÇA",
      "lon": "-7.21490732846893",
      "lat": "41.6504098574842"
    },
    {
      "id": "pt.ine.add.PTCONT.852758",
      "street": "R JOAQUIM NOGUEIRA",
      "house": "",
      "postcode": "5385-031",
      "city": "BOUÇA",
      "lon": "-7.215803329059994",
      "lat": "41.65071412667247"
    },
    {
      "id": "pt.ine.add.PTCONT.853502",
      "street": "R VISC DA BOUCA",
      "house": "",
      "postcode": "5385-031",
      "city": "BOUÇA",
      "lon": "-7.214610600194454",
      "lat": "41.64932706920107"
    },
    {
      "id": "pt.ine.add.PTCONT.857348",
      "street": "BC JOAQUIM NOGUEIRA",
      "house": "",
      "postcode": "5385-031",
      "city": "BOUÇA",
      "lon": "-7.214857782752186",
      "lat": "41.65051750339711"
    },
    {
      "id": "pt.ine.add.PTCONT.859533",
      "street": "R MANUEL REBORDELO",
      "house": "",
      "postcode": "5385-031",
      "city": "BOUÇA",
      "lon": "-7.214481000957475",
      "lat": "41.64915496735501"
    },
    {
      "id": "pt.ine.add.PTCONT.859538",
      "street": "R JOAQUIM NOGUEIRA",
      "house": "",
      "postcode": "5385-031",
      "city": "BOUÇA",
      "lon": "-7.2161019978200285",
      "lat": "41.650815548198395"
    },
    {
      "id": "pt.ine.add.PTCONT.859893",
      "street": "BC JOAQUIM NOGUEIRA",
      "house": "",
      "postcode": "5385-031",
      "city": "BOUÇA",
      "lon": "-7.2148944306632705",
      "lat": "41.65047277878992"
    },
    {
      "id": "pt.ine.add.PTCONT.864403",
      "street": "BC CRUZEIRO",
      "house": "",
      "postcode": "5385-031",
      "city": "BOUÇA",
      "lon": "-7.21422459580327",
      "lat": "41.64945903606684"
    },
    {
      "id": "pt.ine.add.PTCONT.867218",
      "street": "R SOLDADOS DE PORTUGAL",
      "house": "",
      "postcode": "5385-031",
      "city": "BOUÇA",
      "lon": "-7.214583890457118",
      "lat": "41.65036225577864"
    },
    {
      "id": "pt.ine.add.PTCONT.870347",
      "street": "R MANUEL REBORDELO",
      "house": "",
      "postcode": "5385-031",
      "city": "BOUÇA",
      "lon": "-7.214673298880098",
      "lat": "41.649138497158766"
    },
    {
      "id": "pt.ine.add.PTCONT.873769",
      "street": "R VISC DA BOUCA",
      "house": "",
      "postcode": "5385-031",
      "city": "BOUÇA",
      "lon": "-7.214083506507486",
      "lat": "41.649250828001605"
    },
    {
      "id": "pt.ine.add.PTCONT.879139",
      "street": "BC CRUZEIRO",
      "house": "",
      "postcode": "5385-031",
      "city": "BOUÇA",
      "lon": "-7.214238773384494",
      "lat": "41.64930609026624"
    },
    {
      "id": "pt.ine.add.PTCONT.880130",
      "street": "R SOLDADOS DE PORTUGAL",
      "house": "",
      "postcode": "5385-031",
      "city": "BOUÇA",
      "lon": "-7.214729842837789",
      "lat": "41.65022836990454"
    },
    {
      "id": "pt.ine.add.PTCONT.883236",
      "street": "R JOAQUIM NOGUEIRA",
      "house": "",
      "postcode": "5385-031",
      "city": "BOUÇA",
      "lon": "-7.2159706038807485",
      "lat": "41.65076948242829"
    },
    {
      "id": "pt.ine.add.PTCONT.884901",
      "street": "BC OLIVAIS",
      "house": "",
      "postcode": "5385-031",
      "city": "BOUÇA",
      "lon": "-7.214567941959331",
      "lat": "41.649794909202534"
    },
    {
      "id": "pt.ine.add.PTCONT.889351",
      "street": "BC JOAQUIM NOGUEIRA",
      "house": "",
      "postcode": "5385-031",
      "city": "BOUÇA",
      "lon": "-7.21504982899566",
      "lat": "41.65051903752759"
    },
    {
      "id": "pt.ine.add.PTCONT.889897",
      "street": "BC S SEBASTIÃO",
      "house": "",
      "postcode": "5385-031",
      "city": "BOUÇA",
      "lon": "-7.215602089778457",
      "lat": "41.65051444390766"
    },
    {
      "id": "pt.ine.add.PTCONT.890295",
      "street": "R SOLDADOS DE PORTUGAL",
      "house": "",
      "postcode": "5385-031",
      "city": "BOUÇA",
      "lon": "-7.2139366592094625",
      "lat": "41.64944773027479"
    },
    {
      "id": "pt.ine.add.PTCONT.893951",
      "street": "BC S SEBASTIÃO",
      "house": "",
      "postcode": "5385-031",
      "city": "BOUÇA",
      "lon": "-7.215532499856142",
      "lat": "41.650342822291684"
    },
    {
      "id": "pt.ine.add.PTCONT.896430",
      "street": "R SOLDADOS DE PORTUGAL",
      "house": "",
      "postcode": "5385-031",
      "city": "BOUÇA",
      "lon": "-7.214352404067271",
      "lat": "41.64975717257784"
    },
    {
      "id": "pt.ine.add.PTCONT.896431",
      "street": "BC OLIVAIS",
      "house": "",
      "postcode": "5385-031",
      "city": "BOUÇA",
      "lon": "-7.215558932917742",
      "lat": "41.65017196722689"
    },
    {
      "id": "pt.ine.add.PTCONT.903330",
      "street": "R VISC DA BOUCA",
      "house": "",
      "postcode": "5385-031",
      "city": "BOUÇA",
      "lon": "-7.214808236867612",
      "lat": "41.65062514928501"
    },
    {
      "id": "pt.ine.add.PTCONT.906637",
      "street": "BC OLIVAIS",
      "house": "",
      "postcode": "5385-031",
      "city": "BOUÇA",
      "lon": "-7.214468210685112",
      "lat": "41.650055213011"
    },
    {
      "id": "pt.ine.add.PTCONT.912440",
      "street": "R VISC DA BOUCA",
      "house": "",
      "postcode": "5385-031",
      "city": "BOUÇA",
      "lon": "-7.214927371055748",
      "lat": "41.65068912540023"
    },
    {
      "id": "pt.ine.add.PTCONT.915823",
      "street": "R SOLDADOS DE PORTUGAL",
      "house": "",
      "postcode": "5385-031",
      "city": "BOUÇA",
      "lon": "-7.21401888650871",
      "lat": "41.64957443653345"
    },
    {
      "id": "pt.ine.add.PTCONT.928111",
      "street": "R SOLDADOS DE PORTUGAL",
      "house": "",
      "postcode": "5385-031",
      "city": "BOUÇA",
      "lon": "-7.214104824801759",
      "lat": "41.64944007151921"
    },
    {
      "id": "pt.ine.add.PTCONT.928549",
      "street": "BC SALGUEIRO",
      "house": "",
      "postcode": "5385-031",
      "city": "BOUÇA",
      "lon": "-7.214570243980362",
      "lat": "41.64963286498323"
    },
    {
      "id": "pt.ine.add.PTCONT.928550",
      "street": "R SOLDADOS DE PORTUGAL",
      "house": "",
      "postcode": "5385-031",
      "city": "BOUÇA",
      "lon": "-7.21454916083362",
      "lat": "41.650271943452246"
    },
    {
      "id": "pt.ine.add.PTCONT.930042",
      "street": "BC SALGUEIRO",
      "house": "",
      "postcode": "5385-031",
      "city": "BOUÇA",
      "lon": "-7.214463114792097",
      "lat": "41.649568984442745"
    },
    {
      "id": "pt.ine.add.PTCONT.932356",
      "street": "R SOLDADOS DE PORTUGAL",
      "house": "",
      "postcode": "5385-031",
      "city": "BOUÇA",
      "lon": "-7.214294693041881",
      "lat": "41.64959464863167"
    },
    {
      "id": "pt.ine.add.PTCONT.936250",
      "street": "BC SALGUEIRO",
      "house": "",
      "postcode": "5385-031",
      "city": "BOUÇA",
      "lon": "-7.214392377657937",
      "lat": "41.64947838425967"
    },
    {
      "id": "pt.ine.add.PTCONT.939244",
      "street": "BC SALGUEIRO",
      "house": "",
      "postcode": "5385-031",
      "city": "BOUÇA",
      "lon": "-7.214441795412213",
      "lat": "41.64937974098474"
    },
    {
      "id": "pt.ine.add.PTCONT.939245",
      "street": "BC OLIVAIS",
      "house": "",
      "postcode": "5385-031",
      "city": "BOUÇA",
      "lon": "-7.215726206128474",
      "lat": "41.650227323327236"
    },
    {
      "id": "pt.ine.add.PTCONT.943222",
      "street": "R SOLDADOS DE PORTUGAL",
      "house": "",
      "postcode": "5385-031",
      "city": "BOUÇA",
      "lon": "-7.213887752571043",
      "lat": "41.64951036350221"
    },
    {
      "id": "pt.ine.add.PTCONT.945490",
      "street": "R VISC DA BOUCA",
      "house": "",
      "postcode": "5385-031",
      "city": "BOUÇA",
      "lon": "-7.214311940677727",
      "lat": "41.6492256438669"
    },
    {
      "id": "pt.ine.add.PTCONT.947137",
      "street": "R VISC DA BOUCA",
      "house": "",
      "postcode": "5385-031",
      "city": "BOUÇA",
      "lon": "-7.213974330903713",
      "lat": "41.649330986307994"
    },
    {
      "id": "pt.ine.add.PTCONT.947723",
      "street": "R VISC DA BOUCA",
      "house": "",
      "postcode": "5385-031",
      "city": "BOUÇA",
      "lon": "-7.21462400954851",
      "lat": "41.64922813808526"
    }
  ]
}