{
  "data": {
    "distrito": "Faro",
    "concelho": "Faro",
    "freguesia": "União das freguesias de Faro (Sé e São Pedro)",
    "OBJECTID": 28,
    "BGRI2021": "08050804615",
    "DT21": "08",
    "DTMN21": "0805",
    "DTMNFR21": "080508",
    "DTMNFRSEC21": "080508046",
    "SECNUM21": "046",
    "SSNUM21": "15",
    "SECSSNUM21": "04615",
    "OBJECTID_1": 66438,
    "DT": "08",
    "CC": "05",
    "fr": "08",
    "SEC": "046",
    "SS": "15"
  },
  "addresses": [
    {
      "id": "pt.ine.add.PTCONT.1553052",
      "street": "DIRECCAO REGIONAL AGRICULTURAE PESCA ALGARVE",
      "house": "APART 282",
      "postcode": "8005-424",
      "city": "FARO",
      "lon": "-7.95007687254112",
      "lat": "37.04658248034401"
    },
    {
      "id": "pt.ine.add.PTCONT.1569109",
      "street": "DIRECCAO REGIONAL DE AGRICULTURAE PESCA DO ALGARVE",
      "house": "",
      "postcode": "8005-511",
      "city": "FARO",
      "lon": "-7.949975614385124",
      "lat": "37.04661836705211"
    },
    {
      "id": "pt.ine.add.PTCONT.1581841",
      "street": "DIRECCAO REGIONAL AGRICULTURAE PESCA ALGARVE",
      "house": "282",
      "postcode": "8005-511",
      "city": "FARO",
      "lon": "-7.950189328639493",
      "lat": "37.04656463229483"
    },
    {
      "id": "pt.ine.add.PTCONT.1581842",
      "street": "DIRECCAO REGIONAL DE AGRICULTURAE PESCA DO ALGARVE",
      "house": "",
      "postcode": "8005-511",
      "city": "FARO",
      "lon": "-7.950189328639493",
      "lat": "37.04656463229483"
    },
    {
      "id": "pt.ine.add.PTCONT.1648871",
      "street": "R MARIA SILVANA CARVALHO GUERREIRO CASA DO TANQUE",
      "house": "",
      "postcode": "8005-326",
      "city": "FARO",
      "lon": "-7.950154783017653",
      "lat": "37.04690698715465"
    },
    {
      "id": "pt.ine.add.PTCONT.1709866",
      "street": "R MARIA SILVANA CARVALHO GUERREIRO",
      "house": "",
      "postcode": "8005-326",
      "city": "FARO",
      "lon": "-7.950492562669213",
      "lat": "37.04668223904058"
    },
    {
      "id": "pt.ine.add.PTCONT.1709867",
      "street": "R MARIA SILVANA CARVALHO GUERREIRO",
      "house": "",
      "postcode": "8005-326",
      "city": "FARO",
      "lon": "-7.950492562669213",
      "lat": "37.04668223904058"
    },
    {
      "id": "pt.ine.add.PTCONT.1709868",
      "street": "R MARIA SILVANA CARVALHO GUERREIRO",
      "house": "",
      "postcode": "8005-326",
      "city": "FARO",
      "lon": "-7.950492562669213",
      "lat": "37.04668223904058"
    },
    {
      "id": "pt.ine.add.PTCONT.1709869",
      "street": "R MARIA SILVANA CARVALHO GUERREIRO D",
      "house": "D",
      "postcode": "8005-326",
      "city": "FARO",
      "lon": "-7.950492562669213",
      "lat": "37.04668223904058"
    },
    {
      "id": "pt.ine.add.PTCONT.1789953",
      "street": "R MARIA SILVANA CARVALHO GUERREIRO",
      "house": "",
      "postcode": "8005-326",
      "city": "FARO",
      "lon": "-7.9502668073255505",
      "lat": "37.04706935316345"
    },
    {
      "id": "pt.ine.add.PTCONT.1796273",
      "street": "R MARIA SILVANA CARVALHO GUERREIRO",
      "house": "",
      "postcode": "8005-326",
      "city": "FARO",
      "lon": "-7.950514807856263",
      "lat": "37.04678139142017"
    },
    {
      "id": "pt.ine.add.PTCONT.1796274",
      "street": "R MARIA SILVANA CARVALHO GUERREIRO",
      "house": "",
      "postcode": "8005-326",
      "city": "FARO",
      "lon": "-7.950514807856263",
      "lat": "37.04678139142017"
    },
    {
      "id": "pt.ine.add.PTCONT.1796275",
      "street": "R MARIA SILVANA CARVALHO GUERREIRO",
      "house": "",
      "postcode": "8005-326",
      "city": "FARO",
      "lon": "-7.950514807856263",
      "lat": "37.04678139142017"
    },
    {
      "id": "pt.ine.add.PTCONT.1796276",
      "street": "R MARIA SILVANA CARVALHO GUERREIRO",
      "house": "",
      "postcode": "8005-326",
      "city": "FARO",
      "lon": "-7.950514807856263",
      "lat": "37.04678139142017"
    }
  ]
}