{
  "data": {
    "distrito": "Faro",
    "concelho": "Faro",
    "freguesia": "União das freguesias de Faro (Sé e São Pedro)",
    "OBJECTID": 950,
    "BGRI2021": "08050804622",
    "DT21": "08",
    "DTMN21": "0805",
    "DTMNFR21": "080508",
    "DTMNFRSEC21": "080508046",
    "SECNUM21": "046",
    "SSNUM21": "22",
    "SECSSNUM21": "04622",
    "OBJECTID_1": 65920,
    "DT": "08",
    "CC": "05",
    "fr": "08",
    "SEC": "046",
    "SS": "22"
  },
  "addresses": [
    {
      "id": "pt.ine.add.PTCONT.1469699",
      "street": "SIT MALVADA",
      "house": "",
      "postcode": "8005-424",
      "city": "FARO",
      "lon": "-7.945766663395242",
      "lat": "37.04395362688233"
    },
    {
      "id": "pt.ine.add.PTCONT.1493090",
      "street": "SIT MALVADA",
      "house": "",
      "postcode": "8005-424",
      "city": "FARO",
      "lon": "-7.9457540495879995",
      "lat": "37.044512273051026"
    },
    {
      "id": "pt.ine.add.PTCONT.1565961",
      "street": "SIT MALVADA",
      "house": "",
      "postcode": "8005-424",
      "city": "FARO",
      "lon": "-7.945731013962303",
      "lat": "37.04473750524153"
    },
    {
      "id": "pt.ine.add.PTCONT.1581949",
      "street": "SIT MALVADA",
      "house": "58Z",
      "postcode": "8005-424",
      "city": "FARO",
      "lon": "-7.946677440346034",
      "lat": "37.04384693255611"
    },
    {
      "id": "pt.ine.add.PTCONT.1585023",
      "street": "SIT MALVADA",
      "house": "",
      "postcode": "8005-424",
      "city": "FARO",
      "lon": "-7.94584526113005",
      "lat": "37.043989793935374"
    },
    {
      "id": "pt.ine.add.PTCONT.1589418",
      "street": "SIT BRACIAIS",
      "house": "",
      "postcode": "8005-511",
      "city": "FARO",
      "lon": "-7.948550522886494",
      "lat": "37.0455619021166"
    },
    {
      "id": "pt.ine.add.PTCONT.1589419",
      "street": "SIT BRACIAIS",
      "house": "",
      "postcode": "8005-511",
      "city": "FARO",
      "lon": "-7.948550522886494",
      "lat": "37.0455619021166"
    },
    {
      "id": "pt.ine.add.PTCONT.1611868",
      "street": "SIT MALVADA",
      "house": "54 B",
      "postcode": "8005-424",
      "city": "FARO",
      "lon": "-7.947310289403022",
      "lat": "37.042469281251506"
    },
    {
      "id": "pt.ine.add.PTCONT.1611869",
      "street": "SIT MALVADA",
      "house": "",
      "postcode": "8005-424",
      "city": "FARO",
      "lon": "-7.945652504137465",
      "lat": "37.04466529528492"
    },
    {
      "id": "pt.ine.add.PTCONT.1647504",
      "street": "SIT MALVADA",
      "house": "",
      "postcode": "8005-500",
      "city": "FARO",
      "lon": "-7.94658894621131",
      "lat": "37.04326109508117"
    },
    {
      "id": "pt.ine.add.PTCONT.1647505",
      "street": "SIT MALVADA",
      "house": "",
      "postcode": "8005-424",
      "city": "FARO",
      "lon": "-7.945946362872318",
      "lat": "37.04401698569395"
    },
    {
      "id": "pt.ine.add.PTCONT.1681629",
      "street": "SIT MALVADA",
      "house": "",
      "postcode": "8005-424",
      "city": "FARO",
      "lon": "-7.945755201065242",
      "lat": "37.04404371621984"
    },
    {
      "id": "pt.ine.add.PTCONT.1712714",
      "street": "",
      "house": "",
      "postcode": "8005-511",
      "city": "FARO",
      "lon": "-7.9503758512788005",
      "lat": "37.04847519638122"
    },
    {
      "id": "pt.ine.add.PTCONT.1715860",
      "street": "HORTA NOVA - MALVADAS",
      "house": "",
      "postcode": "8005-424",
      "city": "FARO",
      "lon": "-7.945390211441792",
      "lat": "37.046187695892016"
    },
    {
      "id": "pt.ine.add.PTCONT.1753130",
      "street": "SIT MALVADA",
      "house": "",
      "postcode": "8005-424",
      "city": "FARO",
      "lon": "-7.947432269090972",
      "lat": "37.04315428887745"
    },
    {
      "id": "pt.ine.add.PTCONT.1757067",
      "street": "BRACIAIS",
      "house": "",
      "postcode": "8005-511",
      "city": "FARO",
      "lon": "-7.94913643180234",
      "lat": "37.044995135314885"
    },
    {
      "id": "pt.ine.add.PTCONT.1792989",
      "street": "",
      "house": "",
      "postcode": "8005-511",
      "city": "FARO",
      "lon": "-7.950218512611431",
      "lat": "37.04845693246904"
    },
    {
      "id": "pt.ine.add.PTCONT.1792990",
      "street": "R FLORAL",
      "house": "10",
      "postcode": "8005-511",
      "city": "FARO",
      "lon": "-7.950218512611431",
      "lat": "37.04845693246904"
    },
    {
      "id": "pt.ine.add.PTCONT.1805081",
      "street": "SIT MALVADA",
      "house": "",
      "postcode": "8005-424",
      "city": "FARO",
      "lon": "-7.9474457041492",
      "lat": "37.04225323531237"
    },
    {
      "id": "pt.ine.add.PTCONT.1817721",
      "street": "SIT MAR E GUERRA",
      "house": "",
      "postcode": "8005-424",
      "city": "FARO",
      "lon": "-7.94636452761767",
      "lat": "37.04309854866432"
    },
    {
      "id": "pt.ine.add.PTCONT.1839532",
      "street": "",
      "house": "",
      "postcode": "8005-424",
      "city": "FARO",
      "lon": "-7.945922044772207",
      "lat": "37.04476483900868"
    }
  ]
}