{
  "data": {
    "distrito": "Porto",
    "concelho": "Pa√ßos de Ferreira",
    "freguesia": "Freamunde",
    "OBJECTID": 313,
    "BGRI2021": "13090800423",
    "DT21": "13",
    "DTMN21": "1309",
    "DTMNFR21": "130908",
    "DTMNFRSEC21": "130908004",
    "SECNUM21": "004",
    "SSNUM21": "23",
    "SECSSNUM21": "00423",
    "OBJECTID_1": 134514,
    "DT": "13",
    "CC": "09",
    "fr": "08",
    "SEC": "004",
    "SS": "23"
  },
  "addresses": [
    {
      "id": "pt.ine.add.PTCONT.3548377",
      "street": "R LEOPOLDO SARAIVA",
      "house": "110",
      "postcode": "4590-408",
      "city": "FREAMUNDE",
      "lon": "-8.34178695079901",
      "lat": "41.290148879075794"
    },
    {
      "id": "pt.ine.add.PTCONT.3548378",
      "street": "R LEOPOLDO SARAIVA",
      "house": "11E",
      "postcode": "4590-408",
      "city": "FREAMUNDE",
      "lon": "-8.34178695079901",
      "lat": "41.290148879075794"
    },
    {
      "id": "pt.ine.add.PTCONT.3555002",
      "street": "TV BAIRRO (DA BOAVISTA)",
      "house": "28",
      "postcode": "4590-339",
      "city": "FREAMUNDE",
      "lon": "-8.34092307286249",
      "lat": "41.29254555130472"
    },
    {
      "id": "pt.ine.add.PTCONT.3586866",
      "street": "R ABILIO BARROS",
      "house": "200",
      "postcode": "4590-317",
      "city": "FREAMUNDE",
      "lon": "-8.341651177822447",
      "lat": "41.292499213773304"
    },
    {
      "id": "pt.ine.add.PTCONT.3606344",
      "street": "RAMP RAMPA MONTE AVELA",
      "house": "26",
      "postcode": "4590-315",
      "city": "FREAMUNDE",
      "lon": "-8.341513980034826",
      "lat": "41.29065360722935"
    },
    {
      "id": "pt.ine.add.PTCONT.3625709",
      "street": "R ABILIO BARROS",
      "house": "188",
      "postcode": "4590-317",
      "city": "FREAMUNDE",
      "lon": "-8.341519338622142",
      "lat": "41.29233737747964"
    },
    {
      "id": "pt.ine.add.PTCONT.3644969",
      "street": "TV BAIRRO (DA BOAVISTA)",
      "house": "71",
      "postcode": "4590-339",
      "city": "FREAMUNDE",
      "lon": "-8.341281227787576",
      "lat": "41.29254490420258"
    },
    {
      "id": "pt.ine.add.PTCONT.3677124",
      "street": "RAMP RAMPA MONTE AVELA",
      "house": "11",
      "postcode": "4590-315",
      "city": "FREAMUNDE",
      "lon": "-8.341919618816178",
      "lat": "41.29057183462542"
    },
    {
      "id": "pt.ine.add.PTCONT.3685419",
      "street": "TV BAIRRO (DA BOAVISTA)",
      "house": "47",
      "postcode": "4590-339",
      "city": "FREAMUNDE",
      "lon": "-8.340719804382669",
      "lat": "41.29244687220475"
    },
    {
      "id": "pt.ine.add.PTCONT.3709703",
      "street": "R ABILIO BARROS",
      "house": "198",
      "postcode": "4590-317",
      "city": "FREAMUNDE",
      "lon": "-8.34160310851497",
      "lat": "41.29240025497953"
    },
    {
      "id": "pt.ine.add.PTCONT.3761502",
      "street": "RAMP RAMPA MONTE AVELA",
      "house": "72",
      "postcode": "4590-315",
      "city": "FREAMUNDE",
      "lon": "-8.341788069771702",
      "lat": "41.29050003978185"
    },
    {
      "id": "pt.ine.add.PTCONT.3826272",
      "street": "R BAIRRO (DA BOAVISTA)",
      "house": "65",
      "postcode": "4590-339",
      "city": "FREAMUNDE",
      "lon": "-8.340732999012511",
      "lat": "41.29284303184948"
    },
    {
      "id": "pt.ine.add.PTCONT.3837623",
      "street": "R ABILIO BARROS",
      "house": "108",
      "postcode": "4590-317",
      "city": "FREAMUNDE",
      "lon": "-8.342601302373025",
      "lat": "41.29094877135575"
    },
    {
      "id": "pt.ine.add.PTCONT.3870891",
      "street": "R ABILIO BARROS",
      "house": "74",
      "postcode": "4590-317",
      "city": "FREAMUNDE",
      "lon": "-8.342647585865816",
      "lat": "41.29048947434916"
    },
    {
      "id": "pt.ine.add.PTCONT.3893463",
      "street": "R LEOPOLDO SARAIVA - QTA DA VISTA ALEGRE",
      "house": "48",
      "postcode": "4590-408",
      "city": "FREAMUNDE",
      "lon": "-8.34085749589274",
      "lat": "41.29069081049809"
    },
    {
      "id": "pt.ine.add.PTCONT.3944839",
      "street": "R ABILIO BARROS",
      "house": "186",
      "postcode": "4590-317",
      "city": "FREAMUNDE",
      "lon": "-8.341423916878334",
      "lat": "41.292364562699085"
    },
    {
      "id": "pt.ine.add.PTCONT.3944840",
      "street": "R ABILIO BARROS",
      "house": "186",
      "postcode": "4590-317",
      "city": "FREAMUNDE",
      "lon": "-8.341423916878334",
      "lat": "41.292364562699085"
    },
    {
      "id": "pt.ine.add.PTCONT.3948878",
      "street": "R BAIRRO (DA BOAVISTA)",
      "house": "33",
      "postcode": "4590-339",
      "city": "FREAMUNDE",
      "lon": "-8.340112251214643",
      "lat": "41.292862158070456"
    },
    {
      "id": "pt.ine.add.PTCONT.3987228",
      "street": "R BAIRRO (DA BOAVISTA)",
      "house": "47",
      "postcode": "4590-339",
      "city": "FREAMUNDE",
      "lon": "-8.340339055281927",
      "lat": "41.29285274584605"
    },
    {
      "id": "pt.ine.add.PTCONT.4004809",
      "street": "R BAIRRO (DA BOAVISTA)",
      "house": "73",
      "postcode": "4590-339",
      "city": "FREAMUNDE",
      "lon": "-8.340947778633103",
      "lat": "41.29280662760555"
    },
    {
      "id": "pt.ine.add.PTCONT.4004810",
      "street": "R BAIRRO (DA BOAVISTA)",
      "house": "73",
      "postcode": "4590-339",
      "city": "FREAMUNDE",
      "lon": "-8.340947778633103",
      "lat": "41.29280662760555"
    },
    {
      "id": "pt.ine.add.PTCONT.4004811",
      "street": "R BAIRRO (DA BOAVISTA)",
      "house": "73",
      "postcode": "4590-339",
      "city": "FREAMUNDE",
      "lon": "-8.340947778633103",
      "lat": "41.29280662760555"
    },
    {
      "id": "pt.ine.add.PTCONT.4004812",
      "street": "R BAIRRO (DA BOAVISTA)",
      "house": "73",
      "postcode": "4590-339",
      "city": "FREAMUNDE",
      "lon": "-8.340947778633103",
      "lat": "41.29280662760555"
    },
    {
      "id": "pt.ine.add.PTCONT.4004813",
      "street": "R BAIRRO (DA BOAVISTA)",
      "house": "73",
      "postcode": "4590-339",
      "city": "FREAMUNDE",
      "lon": "-8.340947778633103",
      "lat": "41.29280662760555"
    },
    {
      "id": "pt.ine.add.PTCONT.4009677",
      "street": "R BAIRRO (DA BOAVISTA)",
      "house": "3",
      "postcode": "4590-339",
      "city": "FREAMUNDE",
      "lon": "-8.339573710256401",
      "lat": "41.29244893341603"
    },
    {
      "id": "pt.ine.add.PTCONT.4019751",
      "street": "R LEOPOLDO SARAIVA",
      "house": "",
      "postcode": "4590-408",
      "city": "FREAMUNDE",
      "lon": "-8.342001835879158",
      "lat": "41.29014848935405"
    },
    {
      "id": "pt.ine.add.PTCONT.4039198",
      "street": "TV BAIRRO (DA BOAVISTA)",
      "house": "38",
      "postcode": "4590-339",
      "city": "FREAMUNDE",
      "lon": "-8.341018809549011",
      "lat": "41.29261741179365"
    },
    {
      "id": "pt.ine.add.PTCONT.4039199",
      "street": "TV BAIRRO (DA BOAVISTA)",
      "house": "38",
      "postcode": "4590-339",
      "city": "FREAMUNDE",
      "lon": "-8.341018809549011",
      "lat": "41.29261741179365"
    },
    {
      "id": "pt.ine.add.PTCONT.4039200",
      "street": "TV BAIRRO (DA BOAVISTA)",
      "house": "38",
      "postcode": "4590-339",
      "city": "FREAMUNDE",
      "lon": "-8.341018809549011",
      "lat": "41.29261741179365"
    },
    {
      "id": "pt.ine.add.PTCONT.4039201",
      "street": "TV BAIRRO (DA BOAVISTA)",
      "house": "38",
      "postcode": "4590-339",
      "city": "FREAMUNDE",
      "lon": "-8.341018809549011",
      "lat": "41.29261741179365"
    },
    {
      "id": "pt.ine.add.PTCONT.4039202",
      "street": "TV BAIRRO (DA BOAVISTA)",
      "house": "31",
      "postcode": "4590-339",
      "city": "FREAMUNDE",
      "lon": "-8.34041000249415",
      "lat": "41.29263651805361"
    },
    {
      "id": "pt.ine.add.PTCONT.4039203",
      "street": "TV BAIRRO (DA BOAVISTA)",
      "house": "31",
      "postcode": "4590-339",
      "city": "FREAMUNDE",
      "lon": "-8.34041000249415",
      "lat": "41.29263651805361"
    },
    {
      "id": "pt.ine.add.PTCONT.4045743",
      "street": "TV BAIRRO (DA BOAVISTA)",
      "house": "53",
      "postcode": "4590-339",
      "city": "FREAMUNDE",
      "lon": "-8.34085081344621",
      "lat": "41.292347589998236"
    },
    {
      "id": "pt.ine.add.PTCONT.4154154",
      "street": "TV BAIRRO (DA BOAVISTA)",
      "house": "23",
      "postcode": "4590-339",
      "city": "FREAMUNDE",
      "lon": "-8.340613042839035",
      "lat": "41.29266316475615"
    },
    {
      "id": "pt.ine.add.PTCONT.4164053",
      "street": "R ABILIO BARROS",
      "house": "186",
      "postcode": "4590-317",
      "city": "FREAMUNDE",
      "lon": "-8.34134040489215",
      "lat": "41.29238272212771"
    },
    {
      "id": "pt.ine.add.PTCONT.4164054",
      "street": "R ABILIO BARROS",
      "house": "186",
      "postcode": "4590-317",
      "city": "FREAMUNDE",
      "lon": "-8.34134040489215",
      "lat": "41.29238272212771"
    },
    {
      "id": "pt.ine.add.PTCONT.4164055",
      "street": "R ABILIO BARROS",
      "house": "186",
      "postcode": "4590-317",
      "city": "FREAMUNDE",
      "lon": "-8.34134040489215",
      "lat": "41.29238272212771"
    },
    {
      "id": "pt.ine.add.PTCONT.4164056",
      "street": "R ABILIO BARROS",
      "house": "186",
      "postcode": "4590-317",
      "city": "FREAMUNDE",
      "lon": "-8.34134040489215",
      "lat": "41.29238272212771"
    },
    {
      "id": "pt.ine.add.PTCONT.4216386",
      "street": "TV BAIRRO (DA BOAVISTA)",
      "house": "8",
      "postcode": "4590-339",
      "city": "FREAMUNDE",
      "lon": "-8.340875833105246",
      "lat": "41.292707711617204"
    },
    {
      "id": "pt.ine.add.PTCONT.4216387",
      "street": "TV BAIRRO (DA BOAVISTA)",
      "house": "8",
      "postcode": "4590-339",
      "city": "FREAMUNDE",
      "lon": "-8.340875833105246",
      "lat": "41.292707711617204"
    },
    {
      "id": "pt.ine.add.PTCONT.4219211",
      "street": "TV BAIRRO (DA BOAVISTA)",
      "house": "8",
      "postcode": "4590-339",
      "city": "FREAMUNDE",
      "lon": "-8.340875833105246",
      "lat": "41.292707711617204"
    },
    {
      "id": "pt.ine.add.PTCONT.4222717",
      "street": "R BAIRRO (DA BOAVISTA)",
      "house": "101",
      "postcode": "4590-339",
      "city": "FREAMUNDE",
      "lon": "-8.341448710516115",
      "lat": "41.292652651247785"
    },
    {
      "id": "pt.ine.add.PTCONT.4222718",
      "street": "R BAIRRO (DA BOAVISTA)",
      "house": "101",
      "postcode": "4590-339",
      "city": "FREAMUNDE",
      "lon": "-8.341448710516115",
      "lat": "41.292652651247785"
    },
    {
      "id": "pt.ine.add.PTCONT.4229065",
      "street": "TV BAIRRO (DA BOAVISTA)",
      "house": "42",
      "postcode": "4590-339",
      "city": "FREAMUNDE",
      "lon": "-8.34113850930742",
      "lat": "41.292716241408144"
    },
    {
      "id": "pt.ine.add.PTCONT.4242332",
      "street": "R BAIRRO (DA BOAVISTA)",
      "house": "59",
      "postcode": "4590-339",
      "city": "FREAMUNDE",
      "lon": "-8.340541982177632",
      "lat": "41.29284337620164"
    },
    {
      "id": "pt.ine.add.PTCONT.4268496",
      "street": "R CALV√ÅRIO",
      "house": "96",
      "postcode": "4590-340",
      "city": "FREAMUNDE",
      "lon": "-8.339823281414144",
      "lat": "41.29208831875152"
    },
    {
      "id": "pt.ine.add.PTCONT.4283119",
      "street": "R ABILIO BARROS",
      "house": "4",
      "postcode": "4590-317",
      "city": "FREAMUNDE",
      "lon": "-8.342145006375187",
      "lat": "41.29012121695443"
    },
    {
      "id": "pt.ine.add.PTCONT.4302317",
      "street": "TV BAIRRO (DA BOAVISTA)",
      "house": "55",
      "postcode": "4590-339",
      "city": "FREAMUNDE",
      "lon": "-8.340719233446526",
      "lat": "41.292266789842934"
    },
    {
      "id": "pt.ine.add.PTCONT.4321227",
      "street": "R ABILIO BARROS",
      "house": "196",
      "postcode": "4590-317",
      "city": "FREAMUNDE",
      "lon": "-8.341602764495766",
      "lat": "41.29229220556832"
    },
    {
      "id": "pt.ine.add.PTCONT.4321228",
      "street": "R ABILIO BARROS",
      "house": "196",
      "postcode": "4590-317",
      "city": "FREAMUNDE",
      "lon": "-8.341602764495766",
      "lat": "41.29229220556832"
    },
    {
      "id": "pt.ine.add.PTCONT.4360921",
      "street": "RAMP RAMPA MONTE AVELA",
      "house": "29",
      "postcode": "4590-315",
      "city": "FREAMUNDE",
      "lon": "-8.34172909624628",
      "lat": "41.290725250974276"
    },
    {
      "id": "pt.ine.add.PTCONT.4360959",
      "street": "TV BAIRRO (DA BOAVISTA)",
      "house": "35",
      "postcode": "4590-339",
      "city": "FREAMUNDE",
      "lon": "-8.340481205867725",
      "lat": "41.292501327272916"
    },
    {
      "id": "pt.ine.add.PTCONT.4367434",
      "street": "R CALV√ÅRIO",
      "house": "120",
      "postcode": "4590-340",
      "city": "FREAMUNDE",
      "lon": "-8.34009672652757",
      "lat": "41.29172766060127"
    },
    {
      "id": "pt.ine.add.PTCONT.4389123",
      "street": "R ABILIO BARROS",
      "house": "188",
      "postcode": "4590-317",
      "city": "FREAMUNDE",
      "lon": "-8.341519338622142",
      "lat": "41.29233737747964"
    }
  ]
}