{
  "data": {
    "distrito": "Braga",
    "concelho": "Vila Verde",
    "freguesia": "Uni√£o das freguesias de Sande, Vilarinho, Barros e Gomide",
    "OBJECTID": 551,
    "BGRI2021": "03136700138",
    "DT21": "03",
    "DTMN21": "0313",
    "DTMNFR21": "031367",
    "DTMNFRSEC21": "031367001",
    "SECNUM21": "001",
    "SSNUM21": "38",
    "SECSSNUM21": "00138",
    "OBJECTID_1": 32921,
    "DT": "03",
    "CC": "13",
    "fr": "67",
    "SEC": "001",
    "SS": "38"
  },
  "addresses": [
    {
      "id": "pt.ine.add.PTCONT.579768",
      "street": "R MOURO",
      "house": "18",
      "postcode": "4730-080",
      "city": "BARROS",
      "lon": "-8.400466519606123",
      "lat": "41.71327089812828"
    },
    {
      "id": "pt.ine.add.PTCONT.623759",
      "street": "LUGAR DO MOURO",
      "house": "16",
      "postcode": "4730-080",
      "city": "BARROS",
      "lon": "-8.401068739151368",
      "lat": "41.71361162863904"
    },
    {
      "id": "pt.ine.add.PTCONT.649010",
      "street": "SIT MOURO",
      "house": "30",
      "postcode": "4730-080",
      "city": "BARROS",
      "lon": "-8.400467263857395",
      "lat": "41.71635009417943"
    },
    {
      "id": "pt.ine.add.PTCONT.708935",
      "street": "",
      "house": "",
      "postcode": "4730-080",
      "city": "BARROS",
      "lon": "-8.400945122178541",
      "lat": "41.71567371889349"
    },
    {
      "id": "pt.ine.add.PTCONT.736033",
      "street": "TV QUARTAS",
      "house": "6",
      "postcode": "4730-440",
      "city": "SANDE VVD",
      "lon": "-8.399209097558286",
      "lat": "41.71139208385779"
    },
    {
      "id": "pt.ine.add.PTCONT.747107",
      "street": "",
      "house": "",
      "postcode": "4730-080",
      "city": "BARROS",
      "lon": "-8.400836376578871",
      "lat": "41.715529916280275"
    },
    {
      "id": "pt.ine.add.PTCONT.792811",
      "street": "TV QUARTAS",
      "house": "8",
      "postcode": "4730-440",
      "city": "SANDE VVD",
      "lon": "-8.399402425130575",
      "lat": "41.711652737751315"
    },
    {
      "id": "pt.ine.add.PTCONT.840797",
      "street": "TV QUARTAS",
      "house": "10",
      "postcode": "4730-440",
      "city": "SANDE VVD",
      "lon": "-8.399535043648575",
      "lat": "41.7117604724515"
    }
  ]
}