{
  "data": {
    "distrito": "Lisboa",
    "concelho": "Vila Franca de Xira",
    "freguesia": "União das freguesias de Alverca do Ribatejo e Sobralinho",
    "OBJECTID": 1,
    "BGRI2021": "11141300707",
    "DT21": "11",
    "DTMN21": "1114",
    "DTMNFR21": "111413",
    "DTMNFRSEC21": "111413007",
    "SECNUM21": "007",
    "SSNUM21": "07",
    "SECSSNUM21": "00707",
    "OBJECTID_1": 117058,
    "DT": "11",
    "CC": "14",
    "fr": "13",
    "SEC": "007",
    "SS": "07"
  },
  "addresses": [
    {
      "id": "pt.ine.add.PTCONT.2318958",
      "street": "QTA CASTELO PICAO",
      "house": "",
      "postcode": "2615-375",
      "city": "ALVERCA DO RIBATEJO",
      "lon": "-9.056662245771",
      "lat": "38.90479427473958"
    },
    {
      "id": "pt.ine.add.PTCONT.2363688",
      "street": "R AFONSO COSTA",
      "house": "5",
      "postcode": "2615-272",
      "city": "ALVERCA DO RIBATEJO",
      "lon": "-9.055641392749674",
      "lat": "38.90697318929226"
    },
    {
      "id": "pt.ine.add.PTCONT.2537120",
      "street": "QTA CASTELO PICAO",
      "house": "",
      "postcode": "2615-365",
      "city": "ALVERCA DO RIBATEJO",
      "lon": "-9.058111405276783",
      "lat": "38.90542234503907"
    },
    {
      "id": "pt.ine.add.PTCONT.2563083",
      "street": "QTA CASTELO PICAO",
      "house": "",
      "postcode": "2615-375",
      "city": "ALVERCA DO RIBATEJO",
      "lon": "-9.055509801712155",
      "lat": "38.90571315827428"
    },
    {
      "id": "pt.ine.add.PTCONT.2573135",
      "street": "QTA CASTELO PICAO",
      "house": "",
      "postcode": "2615-375",
      "city": "ALVERCA DO RIBATEJO",
      "lon": "-9.056502036104705",
      "lat": "38.90488561849179"
    },
    {
      "id": "pt.ine.add.PTCONT.2623281",
      "street": "R TEÓFILO BRAGA",
      "house": "",
      "postcode": "2615-272",
      "city": "ALVERCA DO RIBATEJO",
      "lon": "-9.054948360037784",
      "lat": "38.90687057181934"
    },
    {
      "id": "pt.ine.add.PTCONT.2636102",
      "street": "R AFONSO COSTA",
      "house": "",
      "postcode": "2615-272",
      "city": "ALVERCA DO RIBATEJO",
      "lon": "-9.055398504746295",
      "lat": "38.906912054812445"
    },
    {
      "id": "pt.ine.add.PTCONT.2648819",
      "street": "QTA MAGARREIRA",
      "house": "",
      "postcode": "2615-274",
      "city": "ALVERCA DO RIBATEJO",
      "lon": "-9.059385459896655",
      "lat": "38.90588064130072"
    },
    {
      "id": "pt.ine.add.PTCONT.2884886",
      "street": "R TEÓFILO BRAGA",
      "house": "",
      "postcode": "2615-272",
      "city": "ALVERCA DO RIBATEJO",
      "lon": "-9.054905046785338",
      "lat": "38.907087097363025"
    },
    {
      "id": "pt.ine.add.PTCONT.3229905",
      "street": "CSL CASTELO PICAO",
      "house": "",
      "postcode": "2615-274",
      "city": "ALVERCA DO RIBATEJO",
      "lon": "-9.05735693074291",
      "lat": "38.90591473338579"
    },
    {
      "id": "pt.ine.add.PTCONT.3229906",
      "street": "CSL CASTELO PICAO",
      "house": "",
      "postcode": "2615-274",
      "city": "ALVERCA DO RIBATEJO",
      "lon": "-9.05735693074291",
      "lat": "38.90591473338579"
    },
    {
      "id": "pt.ine.add.PTCONT.3229944",
      "street": "CSL CASTELO PICAO",
      "house": "",
      "postcode": "2615-274",
      "city": "ALVERCA DO RIBATEJO",
      "lon": "-9.05735693074291",
      "lat": "38.90591473338579"
    },
    {
      "id": "pt.ine.add.PTCONT.3291913",
      "street": "QTA MAGARREIRA",
      "house": "",
      "postcode": "2615-274",
      "city": "ALVERCA DO RIBATEJO",
      "lon": "-9.058949303605726",
      "lat": "38.90602822331796"
    }
  ]
}