{
  "data": {
    "distrito": "Setúbal",
    "concelho": "Santiago do Cacém",
    "freguesia": "União das freguesias de São Domingos e Vale de Água",
    "OBJECTID": 753,
    "BGRI2021": "15091300114",
    "DT21": "15",
    "DTMN21": "1509",
    "DTMNFR21": "150913",
    "DTMNFRSEC21": "150913001",
    "SECNUM21": "001",
    "SSNUM21": "14",
    "SECSSNUM21": "00114",
    "OBJECTID_1": 166491,
    "DT": "15",
    "CC": "09",
    "fr": "13",
    "SEC": "001",
    "SS": "14"
  },
  "addresses": [
    {
      "id": "pt.ine.add.PTCONT.4675626",
      "street": "",
      "house": "",
      "postcode": "7540-400",
      "city": "SÃO DOMINGOS",
      "lon": "-8.478034384407767",
      "lat": "37.902051594779444"
    },
    {
      "id": "pt.ine.add.PTCONT.4675602",
      "street": "",
      "house": "",
      "postcode": "7540-400",
      "city": "SÃO DOMINGOS",
      "lon": "-8.48437745036624",
      "lat": "37.89934803324531"
    },
    {
      "id": "pt.ine.add.PTCONT.4676850",
      "street": "",
      "house": "",
      "postcode": "7540-400",
      "city": "SÃO DOMINGOS",
      "lon": "-8.47770704896958",
      "lat": "37.902566089613074"
    },
    {
      "id": "pt.ine.add.PTCONT.4685891",
      "street": "",
      "house": "",
      "postcode": "7540-400",
      "city": "SÃO DOMINGOS",
      "lon": "-8.483383802003436",
      "lat": "37.90080150879974"
    },
    {
      "id": "pt.ine.add.PTCONT.4701156",
      "street": "",
      "house": "",
      "postcode": "7540-400",
      "city": "SÃO DOMINGOS",
      "lon": "-8.482006182833755",
      "lat": "37.90077513678899"
    },
    {
      "id": "pt.ine.add.PTCONT.4707224",
      "street": "",
      "house": "",
      "postcode": "7540-400",
      "city": "SÃO DOMINGOS",
      "lon": "-8.484209716878405",
      "lat": "37.8975466518897"
    },
    {
      "id": "pt.ine.add.PTCONT.4733903",
      "street": "",
      "house": "",
      "postcode": "7540-400",
      "city": "SÃO DOMINGOS",
      "lon": "-8.480463224277122",
      "lat": "37.8987019622616"
    },
    {
      "id": "pt.ine.add.PTCONT.4777856",
      "street": "",
      "house": "",
      "postcode": "7540-400",
      "city": "SÃO DOMINGOS",
      "lon": "-8.477933946090353",
      "lat": "37.902457312270045"
    },
    {
      "id": "pt.ine.add.PTCONT.4752424",
      "street": "",
      "house": "",
      "postcode": "7540-400",
      "city": "SÃO DOMINGOS",
      "lon": "-8.47968159761905",
      "lat": "37.90174043648125"
    },
    {
      "id": "pt.ine.add.PTCONT.4770700",
      "street": "",
      "house": "",
      "postcode": "7540-400",
      "city": "SÃO DOMINGOS",
      "lon": "-8.484298762322895",
      "lat": "37.89953746559794"
    },
    {
      "id": "pt.ine.add.PTCONT.4785095",
      "street": "",
      "house": "",
      "postcode": "7540-400",
      "city": "SÃO DOMINGOS",
      "lon": "-8.480701257619724",
      "lat": "37.89812385012102"
    },
    {
      "id": "pt.ine.add.PTCONT.4820104",
      "street": "",
      "house": "",
      "postcode": "7540-400",
      "city": "SÃO DOMINGOS",
      "lon": "-8.481830280078965",
      "lat": "37.90069986642651"
    },
    {
      "id": "pt.ine.add.PTCONT.4798389",
      "street": "",
      "house": "",
      "postcode": "7540-400",
      "city": "SÃO DOMINGOS",
      "lon": "-8.484490375144945",
      "lat": "37.8991855268601"
    },
    {
      "id": "pt.ine.add.PTCONT.4801555",
      "street": "MTE NOVO DA PARREIRA",
      "house": "",
      "postcode": "7540-400",
      "city": "SÃO DOMINGOS",
      "lon": "-8.478652450479984",
      "lat": "37.902923694167164"
    },
    {
      "id": "pt.ine.add.PTCONT.4806410",
      "street": "",
      "house": "",
      "postcode": "7540-400",
      "city": "SÃO DOMINGOS",
      "lon": "-8.48297427592185",
      "lat": "37.90075767973736"
    },
    {
      "id": "pt.ine.add.PTCONT.4840952",
      "street": "",
      "house": "",
      "postcode": "7540-400",
      "city": "SÃO DOMINGOS",
      "lon": "-8.483259459831638",
      "lat": "37.90095503864772"
    },
    {
      "id": "pt.ine.add.PTCONT.4840963",
      "street": "",
      "house": "",
      "postcode": "7540-400",
      "city": "SÃO DOMINGOS",
      "lon": "-8.479914196866904",
      "lat": "37.902847908090784"
    },
    {
      "id": "pt.ine.add.PTCONT.4848412",
      "street": "",
      "house": "",
      "postcode": "7540-400",
      "city": "SÃO DOMINGOS",
      "lon": "-8.481240497852884",
      "lat": "37.900933191827214"
    },
    {
      "id": "pt.ine.add.PTCONT.4862436",
      "street": "",
      "house": "",
      "postcode": "7540-400",
      "city": "SÃO DOMINGOS",
      "lon": "-8.484726221197011",
      "lat": "37.89857218282372"
    },
    {
      "id": "pt.ine.add.PTCONT.4887339",
      "street": "",
      "house": "",
      "postcode": "7540-400",
      "city": "SÃO DOMINGOS",
      "lon": "-8.479432683089094",
      "lat": "37.90200244186199"
    },
    {
      "id": "pt.ine.add.PTCONT.4901583",
      "street": "",
      "house": "",
      "postcode": "7540-400",
      "city": "SÃO DOMINGOS",
      "lon": "-8.48436406841024",
      "lat": "37.89892463100963"
    },
    {
      "id": "pt.ine.add.PTCONT.4913031",
      "street": "",
      "house": "",
      "postcode": "7540-400",
      "city": "SÃO DOMINGOS",
      "lon": "-8.4816795886976",
      "lat": "37.89866232889808"
    },
    {
      "id": "pt.ine.add.PTCONT.4929550",
      "street": "",
      "house": "",
      "postcode": "7540-400",
      "city": "SÃO DOMINGOS",
      "lon": "-8.482235521039168",
      "lat": "37.900754299134555"
    },
    {
      "id": "pt.ine.add.PTCONT.4944439",
      "street": "",
      "house": "",
      "postcode": "7540-400",
      "city": "SÃO DOMINGOS",
      "lon": "-8.477977870750523",
      "lat": "37.902123835613004"
    },
    {
      "id": "pt.ine.add.PTCONT.5009502",
      "street": "",
      "house": "",
      "postcode": "7540-400",
      "city": "SÃO DOMINGOS",
      "lon": "-8.481878840819554",
      "lat": "37.90063981089949"
    },
    {
      "id": "pt.ine.add.PTCONT.5013901",
      "street": "",
      "house": "",
      "postcode": "7540-400",
      "city": "SÃO DOMINGOS",
      "lon": "-8.481742470611668",
      "lat": "37.89994147863945"
    },
    {
      "id": "pt.ine.add.PTCONT.5042815",
      "street": "",
      "house": "",
      "postcode": "7540-400",
      "city": "SÃO DOMINGOS",
      "lon": "-8.4837558850578",
      "lat": "37.90014271432125"
    },
    {
      "id": "pt.ine.add.PTCONT.5071571",
      "street": "",
      "house": "",
      "postcode": "7540-400",
      "city": "SÃO DOMINGOS",
      "lon": "-8.479061986128409",
      "lat": "37.902967538204166"
    },
    {
      "id": "pt.ine.add.PTCONT.5075134",
      "street": "",
      "house": "",
      "postcode": "7540-400",
      "city": "SÃO DOMINGOS",
      "lon": "-8.480147036199833",
      "lat": "37.89916237476331"
    },
    {
      "id": "pt.ine.add.PTCONT.5089903",
      "street": "",
      "house": "",
      "postcode": "7540-400",
      "city": "SÃO DOMINGOS",
      "lon": "-8.482528000071754",
      "lat": "37.90015537515633"
    },
    {
      "id": "pt.ine.add.PTCONT.5093510",
      "street": "MTE ESTRADA",
      "house": "",
      "postcode": "7540-400",
      "city": "SÃO DOMINGOS",
      "lon": "-8.478363356773052",
      "lat": "37.90188846100654"
    },
    {
      "id": "pt.ine.add.PTCONT.5118320",
      "street": "",
      "house": "",
      "postcode": "7540-400",
      "city": "SÃO DOMINGOS",
      "lon": "-8.48271132165676",
      "lat": "37.90045214123009"
    },
    {
      "id": "pt.ine.add.PTCONT.5134070",
      "street": "",
      "house": "",
      "postcode": "7540-400",
      "city": "SÃO DOMINGOS",
      "lon": "-8.483575678758589",
      "lat": "37.900503627262154"
    }
  ]
}