{
  "data": {
    "distrito": "Setúbal",
    "concelho": "Santiago do Cacém",
    "freguesia": "União das freguesias de São Domingos e Vale de Água",
    "OBJECTID": 12,
    "BGRI2021": "15091300131",
    "DT21": "15",
    "DTMN21": "1509",
    "DTMNFR21": "150913",
    "DTMNFRSEC21": "150913001",
    "SECNUM21": "001",
    "SSNUM21": "31",
    "SECSSNUM21": "00131",
    "OBJECTID_1": 166827,
    "DT": "15",
    "CC": "09",
    "fr": "13",
    "SEC": "001",
    "SS": "31"
  },
  "addresses": [
    {
      "id": "pt.ine.add.PTCONT.4715327",
      "street": "R ALECRIM",
      "house": "10",
      "postcode": "7540-415",
      "city": "SÃO DOMINGOS",
      "lon": "-8.539708558087982",
      "lat": "37.92936301625109"
    },
    {
      "id": "pt.ine.add.PTCONT.4806327",
      "street": "R NORTON DE MATOS",
      "house": "",
      "postcode": "7540-415",
      "city": "SÃO DOMINGOS",
      "lon": "-8.539562160709087",
      "lat": "37.9296310942031"
    },
    {
      "id": "pt.ine.add.PTCONT.4806977",
      "street": "R MQ DE POMBAL",
      "house": "8",
      "postcode": "7540-415",
      "city": "SÃO DOMINGOS",
      "lon": "-8.539644362377238",
      "lat": "37.9292787249583"
    },
    {
      "id": "pt.ine.add.PTCONT.4848300",
      "street": "BC NORTON DE MATOS",
      "house": "4",
      "postcode": "7540-415",
      "city": "SÃO DOMINGOS",
      "lon": "-8.539336689534535",
      "lat": "37.9294381844067"
    },
    {
      "id": "pt.ine.add.PTCONT.4955191",
      "street": "R NORTON DE MATOS",
      "house": "",
      "postcode": "7540-415",
      "city": "SÃO DOMINGOS",
      "lon": "-8.53919764894307",
      "lat": "37.929566714154944"
    },
    {
      "id": "pt.ine.add.PTCONT.4969684",
      "street": "R NORTON DE MATOS",
      "house": "",
      "postcode": "7540-415",
      "city": "SÃO DOMINGOS",
      "lon": "-8.539072576196745",
      "lat": "37.92954269072724"
    },
    {
      "id": "pt.ine.add.PTCONT.4973283",
      "street": "R NORTON DE MATOS",
      "house": "15",
      "postcode": "7540-415",
      "city": "SÃO DOMINGOS",
      "lon": "-8.53934327530944",
      "lat": "37.92958723123357"
    },
    {
      "id": "pt.ine.add.PTCONT.4991349",
      "street": "R ALECRIM",
      "house": "12",
      "postcode": "7540-415",
      "city": "SÃO DOMINGOS",
      "lon": "-8.539679797258833",
      "lat": "37.929451063970646"
    },
    {
      "id": "pt.ine.add.PTCONT.5054191",
      "street": "R MQ DE POMBAL",
      "house": "",
      "postcode": "7540-415",
      "city": "SÃO DOMINGOS",
      "lon": "-8.539537907910344",
      "lat": "37.929258500910095"
    },
    {
      "id": "pt.ine.add.PTCONT.5123787",
      "street": "R NORTON DE MATOS",
      "house": "17",
      "postcode": "7540-415",
      "city": "SÃO DOMINGOS",
      "lon": "-8.539285394892207",
      "lat": "37.92957799373822"
    },
    {
      "id": "pt.ine.add.PTCONT.5131740",
      "street": "BC NORTON MATOS",
      "house": "3",
      "postcode": "7540-415",
      "city": "SÃO DOMINGOS",
      "lon": "-8.539438621890891",
      "lat": "37.92945987835914"
    }
  ]
}