{
  "data": {
    "distrito": "Leiria",
    "concelho": "Leiria",
    "freguesia": "União das freguesias de Leiria, Pousos, Barreira e Cortes",
    "OBJECTID": 2519,
    "BGRI2021": "10093302110",
    "DT21": "10",
    "DTMN21": "1009",
    "DTMNFR21": "100933",
    "DTMNFRSEC21": "100933021",
    "SECNUM21": "021",
    "SSNUM21": "10",
    "SECSSNUM21": "02110",
    "OBJECTID_1": 90187,
    "DT": "10",
    "CC": "09",
    "fr": "33",
    "SEC": "021",
    "SS": "10"
  },
  "addresses": [
    {
      "id": "pt.ine.add.PTCONT.1984893",
      "street": "R MARTIRES",
      "house": "31 E",
      "postcode": "2400-187",
      "city": "LEIRIA",
      "lon": "-8.814578853006724",
      "lat": "39.7457312117962"
    },
    {
      "id": "pt.ine.add.PTCONT.1984894",
      "street": "R MARTIRES",
      "house": "31 E",
      "postcode": "2400-187",
      "city": "LEIRIA",
      "lon": "-8.814578853006724",
      "lat": "39.7457312117962"
    },
    {
      "id": "pt.ine.add.PTCONT.1984895",
      "street": "ESTR MARINHA GRANDE",
      "house": "31 E",
      "postcode": "2400-187",
      "city": "LEIRIA",
      "lon": "-8.814578853006724",
      "lat": "39.7457312117962"
    },
    {
      "id": "pt.ine.add.PTCONT.1984896",
      "street": "ESTR MARINHA GRANDE",
      "house": "31 E",
      "postcode": "2400-187",
      "city": "LEIRIA",
      "lon": "-8.814578853006724",
      "lat": "39.7457312117962"
    },
    {
      "id": "pt.ine.add.PTCONT.1984897",
      "street": "R MARTIRES",
      "house": "31 E",
      "postcode": "2400-187",
      "city": "LEIRIA",
      "lon": "-8.814578853006724",
      "lat": "39.7457312117962"
    },
    {
      "id": "pt.ine.add.PTCONT.1986248",
      "street": "R MARTIRES",
      "house": "31 E",
      "postcode": "2400-187",
      "city": "LEIRIA",
      "lon": "-8.814578853006724",
      "lat": "39.7457312117962"
    },
    {
      "id": "pt.ine.add.PTCONT.1991521",
      "street": "R MARTIRES",
      "house": "",
      "postcode": "2400-187",
      "city": "LEIRIA",
      "lon": "-8.813328390500335",
      "lat": "39.745424844320915"
    },
    {
      "id": "pt.ine.add.PTCONT.2002554",
      "street": "R MARTÍRES",
      "house": "25",
      "postcode": "2400-187",
      "city": "LEIRIA",
      "lon": "-8.812659954672148",
      "lat": "39.7450775067569"
    },
    {
      "id": "pt.ine.add.PTCONT.2011320",
      "street": "R MARTIRES",
      "house": "29A",
      "postcode": "2400-187",
      "city": "LEIRIA",
      "lon": "-8.81359733806126",
      "lat": "39.74548631332387"
    },
    {
      "id": "pt.ine.add.PTCONT.2011321",
      "street": "R MARTIRES",
      "house": "",
      "postcode": "2400-187",
      "city": "LEIRIA",
      "lon": "-8.81359733806126",
      "lat": "39.74548631332387"
    },
    {
      "id": "pt.ine.add.PTCONT.2015605",
      "street": "R QUINTA DOS SALADAS",
      "house": "34",
      "postcode": "2400-215",
      "city": "LEIRIA",
      "lon": "-8.813266959115492",
      "lat": "39.74510997754298"
    },
    {
      "id": "pt.ine.add.PTCONT.2017766",
      "street": "R ANTIGO HOSPITAL MILITAR",
      "house": "",
      "postcode": "2400-119",
      "city": "LEIRIA",
      "lon": "-8.812595514178776",
      "lat": "39.74453197154448"
    },
    {
      "id": "pt.ine.add.PTCONT.2027881",
      "street": "VL CAPUCHO",
      "house": "",
      "postcode": "2400-113",
      "city": "LEIRIA",
      "lon": "-8.813925179291145",
      "lat": "39.745335712010416"
    },
    {
      "id": "pt.ine.add.PTCONT.2027882",
      "street": "VL CAPUCHO",
      "house": "",
      "postcode": "2400-113",
      "city": "LEIRIA",
      "lon": "-8.813925179291145",
      "lat": "39.745335712010416"
    },
    {
      "id": "pt.ine.add.PTCONT.2027883",
      "street": "VL CAPUCHO",
      "house": "",
      "postcode": "2400-113",
      "city": "LEIRIA",
      "lon": "-8.813925179291145",
      "lat": "39.745335712010416"
    },
    {
      "id": "pt.ine.add.PTCONT.2027884",
      "street": "VL CAPUCHO",
      "house": "",
      "postcode": "2400-113",
      "city": "LEIRIA",
      "lon": "-8.813925179291145",
      "lat": "39.745335712010416"
    },
    {
      "id": "pt.ine.add.PTCONT.2027885",
      "street": "VL CAPUCHO",
      "house": "",
      "postcode": "2400-113",
      "city": "LEIRIA",
      "lon": "-8.813925179291145",
      "lat": "39.745335712010416"
    },
    {
      "id": "pt.ine.add.PTCONT.2027886",
      "street": "VL CAPUCHO",
      "house": "",
      "postcode": "2400-113",
      "city": "LEIRIA",
      "lon": "-8.813925179291145",
      "lat": "39.745335712010416"
    },
    {
      "id": "pt.ine.add.PTCONT.2027887",
      "street": "ESTR MARINHA GRANDE",
      "house": "2",
      "postcode": "2400-187",
      "city": "LEIRIA",
      "lon": "-8.813925179291145",
      "lat": "39.745335712010416"
    },
    {
      "id": "pt.ine.add.PTCONT.2027888",
      "street": "VL CAPUCHO",
      "house": "",
      "postcode": "2400-113",
      "city": "LEIRIA",
      "lon": "-8.813925179291145",
      "lat": "39.745335712010416"
    },
    {
      "id": "pt.ine.add.PTCONT.2031010",
      "street": "R MARTIRES",
      "house": "17 A",
      "postcode": "2400-187",
      "city": "LEIRIA",
      "lon": "-8.812328963773421",
      "lat": "39.74463812648505"
    },
    {
      "id": "pt.ine.add.PTCONT.2031011",
      "street": "R MARTIRES",
      "house": "17 A",
      "postcode": "2400-187",
      "city": "LEIRIA",
      "lon": "-8.812328963773421",
      "lat": "39.74463812648505"
    },
    {
      "id": "pt.ine.add.PTCONT.2037529",
      "street": "R HOSPITAL MILITAR",
      "house": "19",
      "postcode": "2400-157",
      "city": "LEIRIA",
      "lon": "-8.812749994959526",
      "lat": "39.744491846646966"
    },
    {
      "id": "pt.ine.add.PTCONT.2055306",
      "street": "R ANTIGO HOSPITALAR MILITAR",
      "house": "17",
      "postcode": "2400-119",
      "city": "LEIRIA",
      "lon": "-8.812465240167498",
      "lat": "39.74453578364421"
    },
    {
      "id": "pt.ine.add.PTCONT.2084091",
      "street": "VL CAPUCHO",
      "house": "",
      "postcode": "2400-113",
      "city": "LEIRIA",
      "lon": "-8.813689452786324",
      "lat": "39.74529416315917"
    },
    {
      "id": "pt.ine.add.PTCONT.2084197",
      "street": "VL CAPUCHO",
      "house": "",
      "postcode": "2400-113",
      "city": "LEIRIA",
      "lon": "-8.813689452786324",
      "lat": "39.74529416315917"
    },
    {
      "id": "pt.ine.add.PTCONT.2084198",
      "street": "VL CAPUCHO",
      "house": "",
      "postcode": "2400-113",
      "city": "LEIRIA",
      "lon": "-8.813689452786324",
      "lat": "39.74529416315917"
    },
    {
      "id": "pt.ine.add.PTCONT.2084199",
      "street": "VL CAPUCHO",
      "house": "",
      "postcode": "2400-113",
      "city": "LEIRIA",
      "lon": "-8.813689452786324",
      "lat": "39.74529416315917"
    },
    {
      "id": "pt.ine.add.PTCONT.2084200",
      "street": "VL CAPUCHO",
      "house": "",
      "postcode": "2400-113",
      "city": "LEIRIA",
      "lon": "-8.813689452786324",
      "lat": "39.74529416315917"
    },
    {
      "id": "pt.ine.add.PTCONT.2084201",
      "street": "VL CAPUCHO",
      "house": "",
      "postcode": "2400-113",
      "city": "LEIRIA",
      "lon": "-8.813689452786324",
      "lat": "39.74529416315917"
    },
    {
      "id": "pt.ine.add.PTCONT.2084202",
      "street": "ESTR MARINHA GRANDE",
      "house": "3",
      "postcode": "2400-187",
      "city": "LEIRIA",
      "lon": "-8.813689452786324",
      "lat": "39.74529416315917"
    },
    {
      "id": "pt.ine.add.PTCONT.2084203",
      "street": "VL CAPUCHO",
      "house": "",
      "postcode": "2400-113",
      "city": "LEIRIA",
      "lon": "-8.813689452786324",
      "lat": "39.74529416315917"
    },
    {
      "id": "pt.ine.add.PTCONT.2084204",
      "street": "VL CAPUCHO",
      "house": "",
      "postcode": "2400-113",
      "city": "LEIRIA",
      "lon": "-8.813689452786324",
      "lat": "39.74529416315917"
    },
    {
      "id": "pt.ine.add.PTCONT.2084205",
      "street": "VL CAPUCHO",
      "house": "",
      "postcode": "2400-113",
      "city": "LEIRIA",
      "lon": "-8.813689452786324",
      "lat": "39.74529416315917"
    },
    {
      "id": "pt.ine.add.PTCONT.2084206",
      "street": "ESTR MARINHA GRANDE",
      "house": "3",
      "postcode": "2400-187",
      "city": "LEIRIA",
      "lon": "-8.813689452786324",
      "lat": "39.74529416315917"
    },
    {
      "id": "pt.ine.add.PTCONT.2085027",
      "street": "R MÁRTIRES",
      "house": "",
      "postcode": "2400-187",
      "city": "LEIRIA",
      "lon": "-8.813689452786324",
      "lat": "39.74529416315917"
    },
    {
      "id": "pt.ine.add.PTCONT.2106900",
      "street": "R QUINTA DOS SALADAS",
      "house": "21",
      "postcode": "2400-215",
      "city": "LEIRIA",
      "lon": "-8.812942342422453",
      "lat": "39.74506946495577"
    },
    {
      "id": "pt.ine.add.PTCONT.2106901",
      "street": "R QUINTA DOS SALADAS",
      "house": "21",
      "postcode": "2400-215",
      "city": "LEIRIA",
      "lon": "-8.812942342422453",
      "lat": "39.74506946495577"
    },
    {
      "id": "pt.ine.add.PTCONT.2128703",
      "street": "R MARTIRES",
      "house": "31 B",
      "postcode": "2400-187",
      "city": "LEIRIA",
      "lon": "-8.81438736994506",
      "lat": "39.74570102927829"
    },
    {
      "id": "pt.ine.add.PTCONT.2128704",
      "street": "ESTR MARINHA GRANDE",
      "house": "31 B",
      "postcode": "2400-187",
      "city": "LEIRIA",
      "lon": "-8.81438736994506",
      "lat": "39.74570102927829"
    },
    {
      "id": "pt.ine.add.PTCONT.2128705",
      "street": "R MARTIRES",
      "house": "31 B",
      "postcode": "2400-187",
      "city": "LEIRIA",
      "lon": "-8.81438736994506",
      "lat": "39.74570102927829"
    },
    {
      "id": "pt.ine.add.PTCONT.2128706",
      "street": "R MARTIRES",
      "house": "31 B",
      "postcode": "2400-187",
      "city": "LEIRIA",
      "lon": "-8.81438736994506",
      "lat": "39.74570102927829"
    },
    {
      "id": "pt.ine.add.PTCONT.2128707",
      "street": "R MARTIRES",
      "house": "31 B",
      "postcode": "2400-187",
      "city": "LEIRIA",
      "lon": "-8.81438736994506",
      "lat": "39.74570102927829"
    },
    {
      "id": "pt.ine.add.PTCONT.2128708",
      "street": "R MARTIRES",
      "house": "31 B",
      "postcode": "2400-187",
      "city": "LEIRIA",
      "lon": "-8.81438736994506",
      "lat": "39.74570102927829"
    },
    {
      "id": "pt.ine.add.PTCONT.2130465",
      "street": "R MARTIRES",
      "house": "31 B",
      "postcode": "2400-187",
      "city": "LEIRIA",
      "lon": "-8.81438736994506",
      "lat": "39.74570102927829"
    },
    {
      "id": "pt.ine.add.PTCONT.2130664",
      "street": "R MARTIRES",
      "house": "31 B",
      "postcode": "2400-187",
      "city": "LEIRIA",
      "lon": "-8.81438736994506",
      "lat": "39.74570102927829"
    },
    {
      "id": "pt.ine.add.PTCONT.2133941",
      "street": "R MARTIRES",
      "house": "",
      "postcode": "2400-187",
      "city": "LEIRIA",
      "lon": "-8.814159010816558",
      "lat": "39.74565414233813"
    },
    {
      "id": "pt.ine.add.PTCONT.2133936",
      "street": "R MARTIRES",
      "house": "",
      "postcode": "2400-187",
      "city": "LEIRIA",
      "lon": "-8.814159010816558",
      "lat": "39.74565414233813"
    },
    {
      "id": "pt.ine.add.PTCONT.2133937",
      "street": "R MARTIRES",
      "house": "",
      "postcode": "2400-187",
      "city": "LEIRIA",
      "lon": "-8.814159010816558",
      "lat": "39.74565414233813"
    },
    {
      "id": "pt.ine.add.PTCONT.2133938",
      "street": "R MARTIRES",
      "house": "",
      "postcode": "2400-187",
      "city": "LEIRIA",
      "lon": "-8.814159010816558",
      "lat": "39.74565414233813"
    },
    {
      "id": "pt.ine.add.PTCONT.2133939",
      "street": "R MARTIRES",
      "house": "",
      "postcode": "2400-187",
      "city": "LEIRIA",
      "lon": "-8.814159010816558",
      "lat": "39.74565414233813"
    },
    {
      "id": "pt.ine.add.PTCONT.2133940",
      "street": "R MARTIRES",
      "house": "",
      "postcode": "2400-187",
      "city": "LEIRIA",
      "lon": "-8.814159010816558",
      "lat": "39.74565414233813"
    },
    {
      "id": "pt.ine.add.PTCONT.2157880",
      "street": "R MARTIRES",
      "house": "",
      "postcode": "2400-187",
      "city": "LEIRIA",
      "lon": "-8.812777000051934",
      "lat": "39.74521068208182"
    },
    {
      "id": "pt.ine.add.PTCONT.2157881",
      "street": "ESTR MARINHA",
      "house": "27",
      "postcode": "2400-447",
      "city": "LEIRIA",
      "lon": "-8.812777000051934",
      "lat": "39.74521068208182"
    },
    {
      "id": "pt.ine.add.PTCONT.2157882",
      "street": "R MARTIRES",
      "house": "",
      "postcode": "2400-187",
      "city": "LEIRIA",
      "lon": "-8.812777000051934",
      "lat": "39.74521068208182"
    },
    {
      "id": "pt.ine.add.PTCONT.2159145",
      "street": "R MARTIRES",
      "house": "",
      "postcode": "2400-187",
      "city": "LEIRIA",
      "lon": "-8.812777000051934",
      "lat": "39.74521068208182"
    },
    {
      "id": "pt.ine.add.PTCONT.2184047",
      "street": "R MARTIRES",
      "house": "31 L",
      "postcode": "2400-187",
      "city": "LEIRIA",
      "lon": "-8.81509454610973",
      "lat": "39.74587381155792"
    },
    {
      "id": "pt.ine.add.PTCONT.2184048",
      "street": "R MARTIRES",
      "house": "31 L",
      "postcode": "2400-187",
      "city": "LEIRIA",
      "lon": "-8.81509454610973",
      "lat": "39.74587381155792"
    },
    {
      "id": "pt.ine.add.PTCONT.2184049",
      "street": "R MARTIRES",
      "house": "31 L",
      "postcode": "2400-187",
      "city": "LEIRIA",
      "lon": "-8.81509454610973",
      "lat": "39.74587381155792"
    },
    {
      "id": "pt.ine.add.PTCONT.2184050",
      "street": "R MARTIRES",
      "house": "31 L",
      "postcode": "2400-187",
      "city": "LEIRIA",
      "lon": "-8.81509454610973",
      "lat": "39.74587381155792"
    },
    {
      "id": "pt.ine.add.PTCONT.2184051",
      "street": "R MARTIRES",
      "house": "31 L",
      "postcode": "2400-187",
      "city": "LEIRIA",
      "lon": "-8.81509454610973",
      "lat": "39.74587381155792"
    },
    {
      "id": "pt.ine.add.PTCONT.2184052",
      "street": "R MARTIRES",
      "house": "31 L",
      "postcode": "2400-187",
      "city": "LEIRIA",
      "lon": "-8.81509454610973",
      "lat": "39.74587381155792"
    },
    {
      "id": "pt.ine.add.PTCONT.2199929",
      "street": "R ANTIGO HOSPITAL MILITAR",
      "house": "",
      "postcode": "2400-119",
      "city": "LEIRIA",
      "lon": "-8.812622924159099",
      "lat": "39.74458265537358"
    },
    {
      "id": "pt.ine.add.PTCONT.2220336",
      "street": "R MARTIRES",
      "house": "19",
      "postcode": "2400-187",
      "city": "LEIRIA",
      "lon": "-8.81253419030021",
      "lat": "39.74501315581912"
    },
    {
      "id": "pt.ine.add.PTCONT.2228490",
      "street": "VL CAPUCHO",
      "house": "",
      "postcode": "2400-113",
      "city": "LEIRIA",
      "lon": "-8.814132429961026",
      "lat": "39.74543814282137"
    },
    {
      "id": "pt.ine.add.PTCONT.2228491",
      "street": "VL CAPUCHO",
      "house": "",
      "postcode": "2400-113",
      "city": "LEIRIA",
      "lon": "-8.814132429961026",
      "lat": "39.74543814282137"
    },
    {
      "id": "pt.ine.add.PTCONT.2228492",
      "street": "VL CAPUCHO",
      "house": "",
      "postcode": "2400-113",
      "city": "LEIRIA",
      "lon": "-8.814132429961026",
      "lat": "39.74543814282137"
    },
    {
      "id": "pt.ine.add.PTCONT.2228493",
      "street": "VL CAPUCHO",
      "house": "",
      "postcode": "2400-113",
      "city": "LEIRIA",
      "lon": "-8.814132429961026",
      "lat": "39.74543814282137"
    },
    {
      "id": "pt.ine.add.PTCONT.2228494",
      "street": "VL CAPUCHO",
      "house": "",
      "postcode": "2400-113",
      "city": "LEIRIA",
      "lon": "-8.814132429961026",
      "lat": "39.74543814282137"
    },
    {
      "id": "pt.ine.add.PTCONT.2228495",
      "street": "VL CAPUCHO",
      "house": "",
      "postcode": "2400-113",
      "city": "LEIRIA",
      "lon": "-8.814132429961026",
      "lat": "39.74543814282137"
    },
    {
      "id": "pt.ine.add.PTCONT.2229497",
      "street": "VL CAPUCHO",
      "house": "",
      "postcode": "2400-113",
      "city": "LEIRIA",
      "lon": "-8.814132429961026",
      "lat": "39.74543814282137"
    },
    {
      "id": "pt.ine.add.PTCONT.2229593",
      "street": "VL CAPUCHO",
      "house": "",
      "postcode": "2400-113",
      "city": "LEIRIA",
      "lon": "-8.814132429961026",
      "lat": "39.74543814282137"
    },
    {
      "id": "pt.ine.add.PTCONT.2230308",
      "street": "R ANTIGO HOSPITAL MILITAR",
      "house": "",
      "postcode": "2400-119",
      "city": "LEIRIA",
      "lon": "-8.812658669000577",
      "lat": "39.74463939139138"
    },
    {
      "id": "pt.ine.add.PTCONT.2232601",
      "street": "R QUINTA DOS SALADAS",
      "house": "47",
      "postcode": "2400-215",
      "city": "LEIRIA",
      "lon": "-8.813038113196008",
      "lat": "39.74489625521945"
    },
    {
      "id": "pt.ine.add.PTCONT.2236890",
      "street": "R MARTIRES",
      "house": "31 H",
      "postcode": "2400-187",
      "city": "LEIRIA",
      "lon": "-8.814717147434846",
      "lat": "39.74577695700021"
    },
    {
      "id": "pt.ine.add.PTCONT.2236891",
      "street": "R ESTRADA MARINHA GRANDE",
      "house": "31H",
      "postcode": "2400-523",
      "city": "LEIRIA",
      "lon": "-8.814717147434846",
      "lat": "39.74577695700021"
    },
    {
      "id": "pt.ine.add.PTCONT.2236892",
      "street": "R MARTIRES",
      "house": "31 H",
      "postcode": "2400-187",
      "city": "LEIRIA",
      "lon": "-8.814717147434846",
      "lat": "39.74577695700021"
    },
    {
      "id": "pt.ine.add.PTCONT.2236893",
      "street": "R MARTIRES",
      "house": "31 H",
      "postcode": "2400-187",
      "city": "LEIRIA",
      "lon": "-8.814717147434846",
      "lat": "39.74577695700021"
    },
    {
      "id": "pt.ine.add.PTCONT.2236897",
      "street": "R MARTIRES",
      "house": "31 H",
      "postcode": "2400-187",
      "city": "LEIRIA",
      "lon": "-8.814717147434846",
      "lat": "39.74577695700021"
    },
    {
      "id": "pt.ine.add.PTCONT.2250498",
      "street": "R MARTIRES",
      "house": "",
      "postcode": "2400-187",
      "city": "LEIRIA",
      "lon": "-8.813140931128578",
      "lat": "39.74534488437554"
    },
    {
      "id": "pt.ine.add.PTCONT.2250499",
      "street": "R MARTIRES",
      "house": "",
      "postcode": "2400-187",
      "city": "LEIRIA",
      "lon": "-8.813140931128578",
      "lat": "39.74534488437554"
    },
    {
      "id": "pt.ine.add.PTCONT.2250586",
      "street": "R MARTIRES",
      "house": "",
      "postcode": "2400-187",
      "city": "LEIRIA",
      "lon": "-8.813140931128578",
      "lat": "39.74534488437554"
    },
    {
      "id": "pt.ine.add.PTCONT.2251536",
      "street": "R MARTIRES",
      "house": "",
      "postcode": "2400-187",
      "city": "LEIRIA",
      "lon": "-8.813140931128578",
      "lat": "39.74534488437554"
    },
    {
      "id": "pt.ine.add.PTCONT.2264823",
      "street": "R MARTIRES",
      "house": "31 H",
      "postcode": "2400-187",
      "city": "LEIRIA",
      "lon": "-8.814717147434846",
      "lat": "39.74577695700021"
    }
  ]
}