{
  "data": {
    "distrito": "Santarém",
    "concelho": "Torres Novas",
    "freguesia": "União das freguesias de Torres Novas (Santa Maria, Salvador e Santiago)",
    "OBJECTID": 274,
    "BGRI2021": "14192000211",
    "DT21": "14",
    "DTMN21": "1419",
    "DTMNFR21": "141920",
    "DTMNFRSEC21": "141920002",
    "SECNUM21": "002",
    "SSNUM21": "11",
    "SECSSNUM21": "00211",
    "OBJECTID_1": 157815,
    "DT": "14",
    "CC": "19",
    "fr": "20",
    "SEC": "002",
    "SS": "11"
  },
  "addresses": [
    {
      "id": "pt.ine.add.PTCONT.4398369",
      "street": "R ALEXANDRE HERCULANO",
      "house": "59",
      "postcode": "2350-439",
      "city": "TORRES NOVAS",
      "lon": "-8.538130674378005",
      "lat": "39.478787201685215"
    },
    {
      "id": "pt.ine.add.PTCONT.4404573",
      "street": "R ALEXANDRE HERCULANO",
      "house": "39",
      "postcode": "2350-439",
      "city": "TORRES NOVAS",
      "lon": "-8.538339352598527",
      "lat": "39.47869640499914"
    },
    {
      "id": "pt.ine.add.PTCONT.4425053",
      "street": "R ALEXANDRE HERCULANO",
      "house": "99",
      "postcode": "2350-439",
      "city": "TORRES NOVAS",
      "lon": "-8.53747003025649",
      "lat": "39.47910474467894"
    },
    {
      "id": "pt.ine.add.PTCONT.4440748",
      "street": "R TEN VALADIM",
      "house": "24",
      "postcode": "2350-451",
      "city": "TORRES NOVAS",
      "lon": "-8.538316630688792",
      "lat": "39.478786553844145"
    },
    {
      "id": "pt.ine.add.PTCONT.4440845",
      "street": "R TEN VALADIM",
      "house": "24",
      "postcode": "2350-451",
      "city": "TORRES NOVAS",
      "lon": "-8.538316630688792",
      "lat": "39.478786553844145"
    },
    {
      "id": "pt.ine.add.PTCONT.4440846",
      "street": "R TEN VALADIM",
      "house": "24",
      "postcode": "2350-451",
      "city": "TORRES NOVAS",
      "lon": "-8.538316630688792",
      "lat": "39.478786553844145"
    },
    {
      "id": "pt.ine.add.PTCONT.4445632",
      "street": "R ALEXANDRE HERCULANO",
      "house": "123",
      "postcode": "2350-439",
      "city": "TORRES NOVAS",
      "lon": "-8.537204123977304",
      "lat": "39.47934885710953"
    },
    {
      "id": "pt.ine.add.PTCONT.4456221",
      "street": "R ALEXANDRE HERCULANO",
      "house": "83",
      "postcode": "2350-439",
      "city": "TORRES NOVAS",
      "lon": "-8.537771427804332",
      "lat": "39.47896859172739"
    },
    {
      "id": "pt.ine.add.PTCONT.4456222",
      "street": "R ALEXANDRE HERCULANO",
      "house": "83",
      "postcode": "2350-439",
      "city": "TORRES NOVAS",
      "lon": "-8.537771427804332",
      "lat": "39.47896859172739"
    },
    {
      "id": "pt.ine.add.PTCONT.4456223",
      "street": "R ALEXANDRE HERCULANO",
      "house": "67",
      "postcode": "2350-439",
      "city": "TORRES NOVAS",
      "lon": "-8.53796848475255",
      "lat": "39.47887783614888"
    },
    {
      "id": "pt.ine.add.PTCONT.4456224",
      "street": "R ALEXANDRE HERCULANO",
      "house": "67",
      "postcode": "2350-439",
      "city": "TORRES NOVAS",
      "lon": "-8.53796848475255",
      "lat": "39.47887783614888"
    },
    {
      "id": "pt.ine.add.PTCONT.4462211",
      "street": "R ALEXANDRÉ HERCULANO",
      "house": "139",
      "postcode": "2350-439",
      "city": "TORRES NOVAS",
      "lon": "-8.537134962985949",
      "lat": "39.47944817405238"
    },
    {
      "id": "pt.ine.add.PTCONT.4462212",
      "street": "R ALEXANDRÉ HERCULANO",
      "house": "135",
      "postcode": "2350-439",
      "city": "TORRES NOVAS",
      "lon": "-8.537134962985949",
      "lat": "39.47944817405238"
    },
    {
      "id": "pt.ine.add.PTCONT.4462226",
      "street": "R ALEXANDRÉ HERCULANO",
      "house": "139",
      "postcode": "2350-439",
      "city": "TORRES NOVAS",
      "lon": "-8.537134962985949",
      "lat": "39.47944817405238"
    },
    {
      "id": "pt.ine.add.PTCONT.4463161",
      "street": "R ENTRE MUROS",
      "house": "42",
      "postcode": "2350-443",
      "city": "TORRES NOVAS",
      "lon": "-8.537134962985949",
      "lat": "39.47944817405238"
    },
    {
      "id": "pt.ine.add.PTCONT.4518368",
      "street": "R ALEXANDRE HERCULANO",
      "house": "145",
      "postcode": "2350-439",
      "city": "TORRES NOVAS",
      "lon": "-8.537077319993278",
      "lat": "39.47952943700872"
    },
    {
      "id": "pt.ine.add.PTCONT.4519306",
      "street": "R ALEXANDRE HERCULANO",
      "house": "145",
      "postcode": "2350-439",
      "city": "TORRES NOVAS",
      "lon": "-8.537077319993278",
      "lat": "39.47952943700872"
    },
    {
      "id": "pt.ine.add.PTCONT.4522507",
      "street": "R ENTRE MUROS",
      "house": "24 A",
      "postcode": "2350-443",
      "city": "TORRES NOVAS",
      "lon": "-8.537748705074971",
      "lat": "39.47905874046141"
    },
    {
      "id": "pt.ine.add.PTCONT.4546982",
      "street": "R ALEXANDRÉ HERCULANO",
      "house": "131",
      "postcode": "2350-439",
      "city": "TORRES NOVAS",
      "lon": "-8.537169569562705",
      "lat": "39.47940301897854"
    },
    {
      "id": "pt.ine.add.PTCONT.4546983",
      "street": "R ENTRE MUROS",
      "house": "34",
      "postcode": "2350-443",
      "city": "TORRES NOVAS",
      "lon": "-8.537169569562705",
      "lat": "39.47940301897854"
    },
    {
      "id": "pt.ine.add.PTCONT.4548924",
      "street": "R ALEXANDRE HERCULANO",
      "house": "115",
      "postcode": "2350-439",
      "city": "TORRES NOVAS",
      "lon": "-8.53725024857052",
      "lat": "39.479285648052645"
    },
    {
      "id": "pt.ine.add.PTCONT.4548925",
      "street": "R ALEXANDRE HERCULANO",
      "house": "115",
      "postcode": "2350-439",
      "city": "TORRES NOVAS",
      "lon": "-8.53725024857052",
      "lat": "39.479285648052645"
    },
    {
      "id": "pt.ine.add.PTCONT.4548926",
      "street": "R ALEXANDRE HERCULANO",
      "house": "115",
      "postcode": "2350-439",
      "city": "TORRES NOVAS",
      "lon": "-8.53725024857052",
      "lat": "39.479285648052645"
    },
    {
      "id": "pt.ine.add.PTCONT.4548927",
      "street": "R ALEXANDRE HERCULANO",
      "house": "115",
      "postcode": "2350-439",
      "city": "TORRES NOVAS",
      "lon": "-8.53725024857052",
      "lat": "39.479285648052645"
    },
    {
      "id": "pt.ine.add.PTCONT.4548928",
      "street": "R ALEXANDRE HERCULANO",
      "house": "115",
      "postcode": "2350-439",
      "city": "TORRES NOVAS",
      "lon": "-8.53725024857052",
      "lat": "39.479285648052645"
    },
    {
      "id": "pt.ine.add.PTCONT.4548929",
      "street": "R ALEXANDRE HERCULANO",
      "house": "115",
      "postcode": "2350-439",
      "city": "TORRES NOVAS",
      "lon": "-8.53725024857052",
      "lat": "39.479285648052645"
    },
    {
      "id": "pt.ine.add.PTCONT.4553169",
      "street": "R ENTRE MUROS",
      "house": "8",
      "postcode": "2350-443",
      "city": "TORRES NOVAS",
      "lon": "-8.538096538812514",
      "lat": "39.47891341810527"
    },
    {
      "id": "pt.ine.add.PTCONT.4557440",
      "street": "R ALEXANDRE HERCULANO",
      "house": "107",
      "postcode": "2350-439",
      "city": "TORRES NOVAS",
      "lon": "-8.537365846448862",
      "lat": "39.47917716264591"
    },
    {
      "id": "pt.ine.add.PTCONT.4599096",
      "street": "R ALEXANDRE HERCULANO",
      "house": "101",
      "postcode": "2350-439",
      "city": "TORRES NOVAS",
      "lon": "-8.537412075070966",
      "lat": "39.47913196709404"
    },
    {
      "id": "pt.ine.add.PTCONT.4624128",
      "street": "R ALEXANDRE HERCULANO",
      "house": "89",
      "postcode": "2350-439",
      "city": "TORRES NOVAS",
      "lon": "-8.537655517850574",
      "lat": "39.479023036828124"
    },
    {
      "id": "pt.ine.add.PTCONT.4630238",
      "street": "R ALEXANDRE HERCULANO",
      "house": "65",
      "postcode": "2350-439",
      "city": "TORRES NOVAS",
      "lon": "-8.538037852892517",
      "lat": "39.47881454584816"
    },
    {
      "id": "pt.ine.add.PTCONT.4654972",
      "street": "R ALEXANDRE HERCULANO",
      "house": "93",
      "postcode": "2350-439",
      "city": "TORRES NOVAS",
      "lon": "-8.53758594049152",
      "lat": "39.47905029976245"
    }
  ]
}