{
  "data": {
    "ilha": "Ilha da Madeira (Madeira)",
    "concelho": "Ribeira Brava",
    "freguesia": "Ribeira Brava",
    "OBJECTID": 61,
    "BGRI2021": "31070200203",
    "DT21": "31",
    "DTMN21": "3107",
    "DTMNFR21": "310702",
    "DTMNFRSEC21": "310702002",
    "SECNUM21": "002",
    "SSNUM21": "03",
    "SECSSNUM21": "00203",
    "OBJECTID_1": 204872,
    "DT": "31",
    "CC": "07",
    "fr": "02",
    "SEC": "002",
    "SS": "03",
    "BGRI2021_1": "31070200203"
  },
  "addresses": [
    {
      "id": "pt.ine.add.MAD.36101",
      "street": "ESTR VALE DE CIMA",
      "house": "",
      "postcode": "9350-145",
      "city": "RIBEIRA BRAVA",
      "lon": "-17.04750318945475",
      "lat": "32.67385663300356"
    },
    {
      "id": "pt.ine.add.MAD.36102",
      "street": "ESTR VALE DE CIMA",
      "house": "",
      "postcode": "9350-145",
      "city": "RIBEIRA BRAVA",
      "lon": "-17.047305195357065",
      "lat": "32.67405827030651"
    },
    {
      "id": "pt.ine.add.MAD.36103",
      "street": "ESTR VALE CIMA",
      "house": "",
      "postcode": "9350-145",
      "city": "RIBEIRA BRAVA",
      "lon": "-17.046976824627336",
      "lat": "32.674153813944415"
    },
    {
      "id": "pt.ine.add.MAD.36104",
      "street": "ESTR BARREIRO",
      "house": "129",
      "postcode": "9350-145",
      "city": "RIBEIRA BRAVA",
      "lon": "-17.04646595054308",
      "lat": "32.67326030712798"
    },
    {
      "id": "pt.ine.add.MAD.36883",
      "street": "SIT VALE",
      "house": "",
      "postcode": "9350-145",
      "city": "RIBEIRA BRAVA",
      "lon": "-17.046907041538642",
      "lat": "32.67296451998171"
    },
    {
      "id": "pt.ine.add.MAD.36884",
      "street": "SIT VALE",
      "house": "",
      "postcode": "9350-145",
      "city": "RIBEIRA BRAVA",
      "lon": "-17.04702120357467",
      "lat": "32.67282738047348"
    },
    {
      "id": "pt.ine.add.MAD.36885",
      "street": "ESTR BARREIRO",
      "house": "111",
      "postcode": "9350-135",
      "city": "RIBEIRA BRAVA",
      "lon": "-17.04687852610745",
      "lat": "32.67264934022602"
    },
    {
      "id": "pt.ine.add.MAD.36886",
      "street": "ESTR BARREIRO",
      "house": "",
      "postcode": "9350-135",
      "city": "RIBEIRA BRAVA",
      "lon": "-17.046886922740303",
      "lat": "32.672550000458976"
    },
    {
      "id": "pt.ine.add.MAD.36887",
      "street": "ESTR BARREIRO",
      "house": "",
      "postcode": "9350-135",
      "city": "RIBEIRA BRAVA",
      "lon": "-17.046915573577618",
      "lat": "32.67193627955048"
    },
    {
      "id": "pt.ine.add.MAD.36888",
      "street": "SIT VALE",
      "house": "",
      "postcode": "9350-145",
      "city": "RIBEIRA BRAVA",
      "lon": "-17.049122766622734",
      "lat": "32.67006950075507"
    },
    {
      "id": "pt.ine.add.MAD.36889",
      "street": "AGOSTINHO DA SILVA RODRIGUES",
      "house": "",
      "postcode": "9350-145",
      "city": "RIBEIRA BRAVA",
      "lon": "-17.04910700774558",
      "lat": "32.67031325577664"
    },
    {
      "id": "pt.ine.add.MAD.36890",
      "street": "SIT VALE",
      "house": "",
      "postcode": "9350-145",
      "city": "RIBEIRA BRAVA",
      "lon": "-17.048995527976704",
      "lat": "32.67056759284719"
    },
    {
      "id": "pt.ine.add.MAD.36891",
      "street": "SIT VALE",
      "house": "",
      "postcode": "9350-145",
      "city": "RIBEIRA BRAVA",
      "lon": "-17.048847543639695",
      "lat": "32.67062412064627"
    },
    {
      "id": "pt.ine.add.MAD.36892",
      "street": "VR CHAREU",
      "house": "",
      "postcode": "9350-145",
      "city": "RIBEIRA BRAVA",
      "lon": "-17.050209826284753",
      "lat": "32.66911382161479"
    },
    {
      "id": "pt.ine.add.MAD.36893",
      "street": "ESTR S JOÃO",
      "house": "42",
      "postcode": "9350-135",
      "city": "RIBEIRA BRAVA",
      "lon": "-17.050309046820335",
      "lat": "32.66925649473557"
    },
    {
      "id": "pt.ine.add.MAD.36894",
      "street": "ESTR S JOÃO",
      "house": "42",
      "postcode": "9350-135",
      "city": "RIBEIRA BRAVA",
      "lon": "-17.050309046820335",
      "lat": "32.66925649473557"
    },
    {
      "id": "pt.ine.add.MAD.36895",
      "street": "ESTR S JOÃO",
      "house": "48",
      "postcode": "9350-145",
      "city": "RIBEIRA BRAVA",
      "lon": "-17.049903873110583",
      "lat": "32.66972305650287"
    },
    {
      "id": "pt.ine.add.MAD.36896",
      "street": "ESTR S JOAO",
      "house": "70",
      "postcode": "9350-145",
      "city": "RIBEIRA BRAVA",
      "lon": "-17.049075901555984",
      "lat": "32.670818795928895"
    },
    {
      "id": "pt.ine.add.MAD.36897",
      "street": "VR VITORINA",
      "house": "1",
      "postcode": "9350-145",
      "city": "RIBEIRA BRAVA",
      "lon": "-17.047944980789055",
      "lat": "32.67219002965995"
    },
    {
      "id": "pt.ine.add.MAD.37645",
      "street": "ESTR S JOÃO",
      "house": "100",
      "postcode": "9350-145",
      "city": "RIBEIRA BRAVA",
      "lon": "-17.047941523440322",
      "lat": "32.67250573113206"
    },
    {
      "id": "pt.ine.add.MAD.37646",
      "street": "ESTR S JOÃO",
      "house": "106",
      "postcode": "9350-145",
      "city": "RIBEIRA BRAVA",
      "lon": "-17.04835808094441",
      "lat": "32.67300396126036"
    },
    {
      "id": "pt.ine.add.MAD.37647",
      "street": "ESTR S JOÃO",
      "house": "108",
      "postcode": "9350-145",
      "city": "RIBEIRA BRAVA",
      "lon": "-17.04849664554413",
      "lat": "32.67300169836087"
    },
    {
      "id": "pt.ine.add.MAD.37648",
      "street": "ESTR S JOÃO",
      "house": "110",
      "postcode": "9350-145",
      "city": "RIBEIRA BRAVA",
      "lon": "-17.048625992110328",
      "lat": "32.673062714850474"
    },
    {
      "id": "pt.ine.add.MAD.37649",
      "street": "VALE CCI",
      "house": "CCI 1001",
      "postcode": "9350-145",
      "city": "RIBEIRA BRAVA",
      "lon": "-17.04957462682863",
      "lat": "32.6730472175832"
    },
    {
      "id": "pt.ine.add.MAD.37650",
      "street": "SIT VALE",
      "house": "",
      "postcode": "9350-145",
      "city": "RIBEIRA BRAVA",
      "lon": "-17.04864591334459",
      "lat": "32.67346821867326"
    },
    {
      "id": "pt.ine.add.MAD.37651",
      "street": "SIT VALE BAIXO",
      "house": "",
      "postcode": "9350-145",
      "city": "RIBEIRA BRAVA",
      "lon": "-17.048509406237997",
      "lat": "32.67356063241661"
    },
    {
      "id": "pt.ine.add.MAD.37652",
      "street": "SIT VALE",
      "house": "",
      "postcode": "9350-145",
      "city": "RIBEIRA BRAVA",
      "lon": "-17.04855529097153",
      "lat": "32.67323521967382"
    },
    {
      "id": "pt.ine.add.MAD.37653",
      "street": "SIT VALE",
      "house": "",
      "postcode": "9350-145",
      "city": "RIBEIRA BRAVA",
      "lon": "-17.0468279753644",
      "lat": "32.67370532154077"
    },
    {
      "id": "pt.ine.add.MAD.37654",
      "street": "SIT VALE",
      "house": "",
      "postcode": "9350-145",
      "city": "RIBEIRA BRAVA",
      "lon": "-17.046831230795295",
      "lat": "32.67338060492332"
    },
    {
      "id": "pt.ine.add.MAD.37655",
      "street": "SIT VALE",
      "house": "",
      "postcode": "9350-145",
      "city": "RIBEIRA BRAVA",
      "lon": "-17.047144620763593",
      "lat": "32.673095919187446"
    },
    {
      "id": "pt.ine.add.MAD.37656",
      "street": "SIT VALE",
      "house": "",
      "postcode": "9350-145",
      "city": "RIBEIRA BRAVA",
      "lon": "-17.04750434679815",
      "lat": "32.672972808073474"
    },
    {
      "id": "pt.ine.add.MAD.37657",
      "street": "SIT VALE",
      "house": "",
      "postcode": "9350-145",
      "city": "RIBEIRA BRAVA",
      "lon": "-17.047746785459548",
      "lat": "32.672382652453734"
    },
    {
      "id": "pt.ine.add.MAD.37658",
      "street": "SIT VALE",
      "house": "",
      "postcode": "9350-145",
      "city": "RIBEIRA BRAVA",
      "lon": "-17.04932713026973",
      "lat": "32.67014732800541"
    },
    {
      "id": "pt.ine.add.MAD.55678",
      "street": "ESTR S JOÃO",
      "house": "40",
      "postcode": "9350-135",
      "city": "RIBEIRA BRAVA",
      "lon": "-17.050346942931395",
      "lat": "32.66904845148168"
    },
    {
      "id": "pt.ine.add.MAD.55679",
      "street": "ESTR S JOÃO",
      "house": "102",
      "postcode": "9350-145",
      "city": "RIBEIRA BRAVA",
      "lon": "-17.048042390653354",
      "lat": "32.67272052652098"
    },
    {
      "id": "pt.ine.add.MAD.57695",
      "street": "SIT VALE",
      "house": "",
      "postcode": "9350-145",
      "city": "RIBEIRA BRAVA",
      "lon": "-17.04683222414235",
      "lat": "32.672956722463375"
    },
    {
      "id": "pt.ine.add.MAD.57696",
      "street": "ESTR S JOÃO",
      "house": "64",
      "postcode": "9350-145",
      "city": "RIBEIRA BRAVA",
      "lon": "-17.049506519256767",
      "lat": "32.670532189527144"
    },
    {
      "id": "pt.ine.add.MAD.62367",
      "street": "",
      "house": "",
      "postcode": "9350-145",
      "city": "RIBEIRA BRAVA",
      "lon": "-17.047098936603614",
      "lat": "32.67343034669484"
    },
    {
      "id": "pt.ine.add.MAD.64443",
      "street": "ESTR BARREIRO",
      "house": "",
      "postcode": "9350-135",
      "city": "RIBEIRA BRAVA",
      "lon": "-17.047143894836807",
      "lat": "32.67166200048876"
    },
    {
      "id": "pt.ine.add.MAD.66329",
      "street": "SIT VALE",
      "house": "",
      "postcode": "9350-145",
      "city": "RIBEIRA BRAVA",
      "lon": "-17.048201571491695",
      "lat": "32.67175295545668"
    },
    {
      "id": "pt.ine.add.MAD.66330",
      "street": "SIT VALE",
      "house": "2",
      "postcode": "9350-141",
      "city": "RIBEIRA BRAVA",
      "lon": "-17.047710567571723",
      "lat": "32.67313177335203"
    },
    {
      "id": "pt.ine.add.MAD.66331",
      "street": "SIT VALE",
      "house": "",
      "postcode": "9350-145",
      "city": "RIBEIRA BRAVA",
      "lon": "-17.046892921798044",
      "lat": "32.67328039547599"
    },
    {
      "id": "pt.ine.add.MAD.70047",
      "street": "SIT VALE",
      "house": "",
      "postcode": "9350-145",
      "city": "RIBEIRA BRAVA",
      "lon": "-17.04942445017558",
      "lat": "32.66973990871422"
    },
    {
      "id": "pt.ine.add.MAD.72322",
      "street": "SIT VALE",
      "house": "91",
      "postcode": "9350-135",
      "city": "RIBEIRA BRAVA",
      "lon": "-17.047194925753942",
      "lat": "32.671561964881015"
    },
    {
      "id": "pt.ine.add.MAD.72323",
      "street": "ESTR S JOÃO",
      "house": "54",
      "postcode": "9350-145",
      "city": "RIBEIRA BRAVA",
      "lon": "-17.049910051058657",
      "lat": "32.66999350837504"
    },
    {
      "id": "pt.ine.add.MAD.72324",
      "street": "ESTR VALE DE CIMA",
      "house": "",
      "postcode": "9350-145",
      "city": "RIBEIRA BRAVA",
      "lon": "-17.049248321406235",
      "lat": "32.67323291754928"
    },
    {
      "id": "pt.ine.add.MAD.76411",
      "street": "SIT VALE",
      "house": "136",
      "postcode": "9350-145",
      "city": "RIBEIRA BRAVA",
      "lon": "-17.049243762032514",
      "lat": "32.67069881414617"
    },
    {
      "id": "pt.ine.add.MAD.76410",
      "street": "VALE",
      "house": "52",
      "postcode": "9350-145",
      "city": "RIBEIRA BRAVA",
      "lon": "-17.050066220703336",
      "lat": "32.66982862445346"
    },
    {
      "id": "pt.ine.add.MAD.76412",
      "street": "ESTR S JOÃO",
      "house": "120",
      "postcode": "9350-145",
      "city": "RIBEIRA BRAVA",
      "lon": "-17.04932803281645",
      "lat": "32.67298811775365"
    },
    {
      "id": "pt.ine.add.MAD.76413",
      "street": "NELIA PESTANA DE ABREU AIRES",
      "house": "",
      "postcode": "9350-145",
      "city": "RIBEIRA BRAVA",
      "lon": "-17.047490023449445",
      "lat": "32.67327966847976"
    },
    {
      "id": "pt.ine.add.MAD.78399",
      "street": "ESTR S JOÃO",
      "house": "52",
      "postcode": "9350-145",
      "city": "RIBEIRA BRAVA",
      "lon": "-17.049972354233745",
      "lat": "32.669920342777935"
    },
    {
      "id": "pt.ine.add.MAD.78400",
      "street": "ESTR S JOÃO",
      "house": "92",
      "postcode": "9350-135",
      "city": "RIBEIRA BRAVA",
      "lon": "-17.048174739817064",
      "lat": "32.671978854317935"
    },
    {
      "id": "pt.ine.add.MAD.78401",
      "street": "ESTR S JOÃO",
      "house": "114",
      "postcode": "9350-145",
      "city": "RIBEIRA BRAVA",
      "lon": "-17.04885945689555",
      "lat": "32.67301380941321"
    },
    {
      "id": "pt.ine.add.MAD.80861",
      "street": "ESTR S JOÃO",
      "house": "96",
      "postcode": "9350-145",
      "city": "RIBEIRA BRAVA",
      "lon": "-17.048075560410684",
      "lat": "32.67230513720337"
    },
    {
      "id": "pt.ine.add.MAD.80862",
      "street": "SIT OO VALE",
      "house": "",
      "postcode": "9350-145",
      "city": "RIBEIRA BRAVA",
      "lon": "-17.046991730848166",
      "lat": "32.673405041012046"
    },
    {
      "id": "pt.ine.add.MAD.84038",
      "street": "VR CHAREU",
      "house": "",
      "postcode": "9350-145",
      "city": "RIBEIRA BRAVA",
      "lon": "-17.04997127425753",
      "lat": "32.66940631004107"
    },
    {
      "id": "pt.ine.add.MAD.84039",
      "street": "SIT VALE",
      "house": "",
      "postcode": "9350-145",
      "city": "RIBEIRA BRAVA",
      "lon": "-17.04908408983263",
      "lat": "32.6707104410255"
    },
    {
      "id": "pt.ine.add.MAD.87732",
      "street": "SIT VALE",
      "house": "",
      "postcode": "9350-145",
      "city": "RIBEIRA BRAVA",
      "lon": "-17.048864377181133",
      "lat": "32.6708943985627"
    },
    {
      "id": "pt.ine.add.MAD.90381",
      "street": "ESTR VALE DE CIMA",
      "house": "",
      "postcode": "9350-145",
      "city": "RIBEIRA BRAVA",
      "lon": "-17.048156470396854",
      "lat": "32.67398124364032"
    },
    {
      "id": "pt.ine.add.MAD.90382",
      "street": "SIT VALE",
      "house": "",
      "postcode": "9350-145",
      "city": "RIBEIRA BRAVA",
      "lon": "-17.049727778820547",
      "lat": "32.669482436531766"
    },
    {
      "id": "pt.ine.add.MAD.90383",
      "street": "ESTR S JOAO",
      "house": "72",
      "postcode": "9350-145",
      "city": "RIBEIRA BRAVA",
      "lon": "-17.048991868224086",
      "lat": "32.6708742792088"
    },
    {
      "id": "pt.ine.add.MAD.95117",
      "street": "ESTR BARREIRO",
      "house": "85",
      "postcode": "9350-135",
      "city": "RIBEIRA BRAVA",
      "lon": "-17.047487196950197",
      "lat": "32.671286641495946"
    },
    {
      "id": "pt.ine.add.MAD.95118",
      "street": "ESTR S JOÃO",
      "house": "44",
      "postcode": "9350-145",
      "city": "RIBEIRA BRAVA",
      "lon": "-17.05017769658143",
      "lat": "32.66957428656049"
    },
    {
      "id": "pt.ine.add.MAD.95119",
      "street": "SIT VALE",
      "house": "",
      "postcode": "9350-145",
      "city": "RIBEIRA BRAVA",
      "lon": "-17.049796308797408",
      "lat": "32.67014868037725"
    },
    {
      "id": "pt.ine.add.MAD.103703",
      "street": "SIT VALE",
      "house": "",
      "postcode": "9350-145",
      "city": "RIBEIRA BRAVA",
      "lon": "-17.046739584968204",
      "lat": "32.673102529039895"
    },
    {
      "id": "pt.ine.add.MAD.103993",
      "street": "SIT VALE",
      "house": "58",
      "postcode": "9350-145",
      "city": "RIBEIRA BRAVA",
      "lon": "-17.04974569339403",
      "lat": "32.67026674704273"
    },
    {
      "id": "pt.ine.add.MAD.104254",
      "street": "",
      "house": "",
      "postcode": "9350-145",
      "city": "RIBEIRA BRAVA",
      "lon": "-17.04671295501745",
      "lat": "32.67333744278088"
    },
    {
      "id": "pt.ine.add.MAD.107483",
      "street": "ESTR BARREIRO",
      "house": "107",
      "postcode": "9350-145",
      "city": "RIBEIRA BRAVA",
      "lon": "-17.047008693796847",
      "lat": "32.67274641875095"
    },
    {
      "id": "pt.ine.add.MAD.120658",
      "street": "CASIMIRO FARIA DE ABREU",
      "house": "",
      "postcode": "9350-145",
      "city": "RIBEIRA BRAVA",
      "lon": "-17.047053833027146",
      "lat": "32.67332286163967"
    },
    {
      "id": "pt.ine.add.MAD.122014",
      "street": "VR RIBEIRO VALE",
      "house": "2",
      "postcode": "9350-145",
      "city": "RIBEIRA BRAVA",
      "lon": "-17.04793213974904",
      "lat": "32.67302895320725"
    },
    {
      "id": "pt.ine.add.MAD.122748",
      "street": "ESTR DE S JOÃO",
      "house": "94",
      "postcode": "9350-145",
      "city": "RIBEIRA BRAVA",
      "lon": "-17.04814646762651",
      "lat": "32.672141647688086"
    },
    {
      "id": "pt.ine.add.MAD.124838",
      "street": "ESTR BARREIRO",
      "house": "93",
      "postcode": "9350-135",
      "city": "RIBEIRA BRAVA",
      "lon": "-17.047282457470455",
      "lat": "32.67165973901213"
    },
    {
      "id": "pt.ine.add.MAD.124849",
      "street": "SIT VALE CCI 1036",
      "house": "",
      "postcode": "9350-145",
      "city": "RIBEIRA BRAVA",
      "lon": "-17.046616647843152",
      "lat": "32.673789935771275"
    },
    {
      "id": "pt.ine.add.MAD.125227",
      "street": "VR VALE",
      "house": "CCI 10",
      "postcode": "9350-145",
      "city": "RIBEIRA BRAVA",
      "lon": "-17.047257585556764",
      "lat": "32.67337364678396"
    },
    {
      "id": "pt.ine.add.MAD.125414",
      "street": "SIT VALE",
      "house": "CCI 721",
      "postcode": "9350-145",
      "city": "RIBEIRA BRAVA",
      "lon": "-17.049591484629417",
      "lat": "32.6695838662864"
    },
    {
      "id": "pt.ine.add.MAD.126256",
      "street": "ESTR S JOAO",
      "house": "104",
      "postcode": "9350-145",
      "city": "RIBEIRA BRAVA",
      "lon": "-17.04815288828476",
      "lat": "32.67289007241781"
    },
    {
      "id": "pt.ine.add.MAD.126531",
      "street": "SIT VALE",
      "house": "59",
      "postcode": "9350-145",
      "city": "RIBEIRA BRAVA",
      "lon": "-17.04902572102437",
      "lat": "32.673290664664975"
    },
    {
      "id": "pt.ine.add.MAD.129246",
      "street": "SIT VALE",
      "house": "",
      "postcode": "9350-145",
      "city": "RIBEIRA BRAVA",
      "lon": "-17.04766073164433",
      "lat": "32.67281694190978"
    }
  ]
}