{
  "data": {
    "distrito": "Setúbal",
    "concelho": "Santiago do Cacém",
    "freguesia": "Santo André",
    "OBJECTID": 450,
    "BGRI2021": "15090700405",
    "DT21": "15",
    "DTMN21": "1509",
    "DTMNFR21": "150907",
    "DTMNFRSEC21": "150907004",
    "SECNUM21": "004",
    "SSNUM21": "05",
    "SECSSNUM21": "00405",
    "OBJECTID_1": 167009,
    "DT": "15",
    "CC": "09",
    "fr": "07",
    "SEC": "004",
    "SS": "05"
  },
  "addresses": [
    {
      "id": "pt.ine.add.PTCONT.4707220",
      "street": "R LIBERDADE",
      "house": "3",
      "postcode": "7500-110",
      "city": "VILA NOVA DE SANTO ANDRÉ",
      "lon": "-8.792259643585314",
      "lat": "38.05810678738962"
    },
    {
      "id": "pt.ine.add.PTCONT.4766941",
      "street": "R LIBERDADE",
      "house": "19",
      "postcode": "7500-110",
      "city": "VILA NOVA DE SANTO ANDRÉ",
      "lon": "-8.792816922395183",
      "lat": "38.05795132229412"
    },
    {
      "id": "pt.ine.add.PTCONT.4784517",
      "street": "R LIBERDADE",
      "house": "6",
      "postcode": "7500-110",
      "city": "VILA NOVA DE SANTO ANDRÉ",
      "lon": "-8.792461418746907",
      "lat": "38.05802424624026"
    },
    {
      "id": "pt.ine.add.PTCONT.4801050",
      "street": "BR ATALAIA SUL",
      "house": "1",
      "postcode": "7500-110",
      "city": "VILA NOVA DE SANTO ANDRÉ",
      "lon": "-8.791079011126765",
      "lat": "38.05754821679209"
    },
    {
      "id": "pt.ine.add.PTCONT.4801051",
      "street": "BR ATALAIA SUL",
      "house": "2",
      "postcode": "7500-110",
      "city": "VILA NOVA DE SANTO ANDRÉ",
      "lon": "-8.791079011126765",
      "lat": "38.05754821679209"
    },
    {
      "id": "pt.ine.add.PTCONT.4801052",
      "street": "BR ATALAIA SUL",
      "house": "",
      "postcode": "7500-110",
      "city": "VILA NOVA DE SANTO ANDRÉ",
      "lon": "-8.791079011126765",
      "lat": "38.05754821679209"
    },
    {
      "id": "pt.ine.add.PTCONT.4801053",
      "street": "BR ATALAIA SUL",
      "house": "",
      "postcode": "7500-110",
      "city": "VILA NOVA DE SANTO ANDRÉ",
      "lon": "-8.791079011126765",
      "lat": "38.05754821679209"
    },
    {
      "id": "pt.ine.add.PTCONT.4801054",
      "street": "BR ATALAIA SUL",
      "house": "",
      "postcode": "7500-110",
      "city": "VILA NOVA DE SANTO ANDRÉ",
      "lon": "-8.791079011126765",
      "lat": "38.05754821679209"
    },
    {
      "id": "pt.ine.add.PTCONT.4801055",
      "street": "BR ATALAIA SUL",
      "house": "",
      "postcode": "7500-110",
      "city": "VILA NOVA DE SANTO ANDRÉ",
      "lon": "-8.791079011126765",
      "lat": "38.05754821679209"
    },
    {
      "id": "pt.ine.add.PTCONT.4802249",
      "street": "BR ATALAIA SUL",
      "house": "",
      "postcode": "7500-110",
      "city": "VILA NOVA DE SANTO ANDRÉ",
      "lon": "-8.791079011126765",
      "lat": "38.05754821679209"
    },
    {
      "id": "pt.ine.add.PTCONT.4802250",
      "street": "BR ATALAIA SUL",
      "house": "",
      "postcode": "7500-110",
      "city": "VILA NOVA DE SANTO ANDRÉ",
      "lon": "-8.791079011126765",
      "lat": "38.05754821679209"
    },
    {
      "id": "pt.ine.add.PTCONT.4802251",
      "street": "BR ATALAIA SUL",
      "house": "",
      "postcode": "7500-110",
      "city": "VILA NOVA DE SANTO ANDRÉ",
      "lon": "-8.791079011126765",
      "lat": "38.05754821679209"
    },
    {
      "id": "pt.ine.add.PTCONT.4802252",
      "street": "BR ATALAIA SUL",
      "house": "",
      "postcode": "7500-110",
      "city": "VILA NOVA DE SANTO ANDRÉ",
      "lon": "-8.791079011126765",
      "lat": "38.05754821679209"
    },
    {
      "id": "pt.ine.add.PTCONT.4802253",
      "street": "PCT LAGOA SANCHA",
      "house": "7",
      "postcode": "7500-110",
      "city": "VILA NOVA DE SANTO ANDRÉ",
      "lon": "-8.791079011126765",
      "lat": "38.05754821679209"
    },
    {
      "id": "pt.ine.add.PTCONT.4803391",
      "street": "BR ATALAIA SUL",
      "house": "",
      "postcode": "7500-110",
      "city": "VILA NOVA DE SANTO ANDRÉ",
      "lon": "-8.791079011126765",
      "lat": "38.05754821679209"
    },
    {
      "id": "pt.ine.add.PTCONT.4860612",
      "street": "R LIBERDADE",
      "house": "4",
      "postcode": "7500-110",
      "city": "VILA NOVA DE SANTO ANDRÉ",
      "lon": "-8.79234288259501",
      "lat": "38.05808104475814"
    },
    {
      "id": "pt.ine.add.PTCONT.4906093",
      "street": "R LIBERDADE",
      "house": "2",
      "postcode": "7500-110",
      "city": "VILA NOVA DE SANTO ANDRÉ",
      "lon": "-8.792201182619229",
      "lat": "38.058118730589705"
    },
    {
      "id": "pt.ine.add.PTCONT.4933689",
      "street": "R LIBERDADE",
      "house": "",
      "postcode": "7500-110",
      "city": "VILA NOVA DE SANTO ANDRÉ",
      "lon": "-8.792382343953573",
      "lat": "38.05804295474816"
    },
    {
      "id": "pt.ine.add.PTCONT.4958886",
      "street": "R FONTE DO CORTICO",
      "house": "12",
      "postcode": "7500-110",
      "city": "VILA NOVA DE SANTO ANDRÉ",
      "lon": "-8.792901206794806",
      "lat": "38.057875428966206"
    },
    {
      "id": "pt.ine.add.PTCONT.4962445",
      "street": "R LIBERDADE",
      "house": "OB",
      "postcode": "7500-110",
      "city": "VILA NOVA DE SANTO ANDRÉ",
      "lon": "-8.792591760686445",
      "lat": "38.057996201353575"
    },
    {
      "id": "pt.ine.add.PTCONT.4969563",
      "street": "R LIBERDADE",
      "house": "7",
      "postcode": "7500-110",
      "city": "VILA NOVA DE SANTO ANDRÉ",
      "lon": "-8.792529686727336",
      "lat": "38.058013470423624"
    },
    {
      "id": "pt.ine.add.PTCONT.4973147",
      "street": "BR ATALAIA SUL",
      "house": "",
      "postcode": "7500-110",
      "city": "VILA NOVA DE SANTO ANDRÉ",
      "lon": "-8.791046304792083",
      "lat": "38.057100026915634"
    },
    {
      "id": "pt.ine.add.PTCONT.4973169",
      "street": "BR ATALAIA SUL",
      "house": "",
      "postcode": "7500-110",
      "city": "VILA NOVA DE SANTO ANDRÉ",
      "lon": "-8.791046304792083",
      "lat": "38.057100026915634"
    },
    {
      "id": "pt.ine.add.PTCONT.4973170",
      "street": "BR ATALAIA SUL",
      "house": "",
      "postcode": "7500-110",
      "city": "VILA NOVA DE SANTO ANDRÉ",
      "lon": "-8.791046304792083",
      "lat": "38.057100026915634"
    },
    {
      "id": "pt.ine.add.PTCONT.4973171",
      "street": "BR ATALAIA SUL",
      "house": "",
      "postcode": "7500-110",
      "city": "VILA NOVA DE SANTO ANDRÉ",
      "lon": "-8.791046304792083",
      "lat": "38.057100026915634"
    },
    {
      "id": "pt.ine.add.PTCONT.4973172",
      "street": "BR ATALAIA SUL",
      "house": "",
      "postcode": "7500-110",
      "city": "VILA NOVA DE SANTO ANDRÉ",
      "lon": "-8.791046304792083",
      "lat": "38.057100026915634"
    },
    {
      "id": "pt.ine.add.PTCONT.4973173",
      "street": "BR ATALAIA SUL",
      "house": "",
      "postcode": "7500-110",
      "city": "VILA NOVA DE SANTO ANDRÉ",
      "lon": "-8.791046304792083",
      "lat": "38.057100026915634"
    },
    {
      "id": "pt.ine.add.PTCONT.4973174",
      "street": "BR ATALAIA SUL",
      "house": "",
      "postcode": "7500-110",
      "city": "VILA NOVA DE SANTO ANDRÉ",
      "lon": "-8.791046304792083",
      "lat": "38.057100026915634"
    },
    {
      "id": "pt.ine.add.PTCONT.4973175",
      "street": "BR ATALAIA SUL",
      "house": "",
      "postcode": "7500-110",
      "city": "VILA NOVA DE SANTO ANDRÉ",
      "lon": "-8.791046304792083",
      "lat": "38.057100026915634"
    },
    {
      "id": "pt.ine.add.PTCONT.4973176",
      "street": "BR ATALAIA SUL",
      "house": "",
      "postcode": "7500-110",
      "city": "VILA NOVA DE SANTO ANDRÉ",
      "lon": "-8.791046304792083",
      "lat": "38.057100026915634"
    },
    {
      "id": "pt.ine.add.PTCONT.4973177",
      "street": "BR ATALAIA SUL",
      "house": "",
      "postcode": "7500-110",
      "city": "VILA NOVA DE SANTO ANDRÉ",
      "lon": "-8.791046304792083",
      "lat": "38.057100026915634"
    },
    {
      "id": "pt.ine.add.PTCONT.4974818",
      "street": "BR ATALAIA SUL",
      "house": "",
      "postcode": "7500-110",
      "city": "VILA NOVA DE SANTO ANDRÉ",
      "lon": "-8.791046304792083",
      "lat": "38.057100026915634"
    },
    {
      "id": "pt.ine.add.PTCONT.4998919",
      "street": "R LIBERDADE",
      "house": "1",
      "postcode": "7500-110",
      "city": "VILA NOVA DE SANTO ANDRÉ",
      "lon": "-8.792122629600565",
      "lat": "38.0581382116776"
    },
    {
      "id": "pt.ine.add.PTCONT.5046319",
      "street": "BR ATALAIA SUL",
      "house": "",
      "postcode": "7500-110",
      "city": "VILA NOVA DE SANTO ANDRÉ",
      "lon": "-8.791319723749439",
      "lat": "38.05683429819163"
    },
    {
      "id": "pt.ine.add.PTCONT.5046320",
      "street": "BR ATALAIA SUL",
      "house": "",
      "postcode": "7500-110",
      "city": "VILA NOVA DE SANTO ANDRÉ",
      "lon": "-8.791319723749439",
      "lat": "38.05683429819163"
    },
    {
      "id": "pt.ine.add.PTCONT.5046321",
      "street": "BR ATALAIA SUL",
      "house": "",
      "postcode": "7500-110",
      "city": "VILA NOVA DE SANTO ANDRÉ",
      "lon": "-8.791319723749439",
      "lat": "38.05683429819163"
    },
    {
      "id": "pt.ine.add.PTCONT.5046322",
      "street": "PCT LONTRA",
      "house": "39",
      "postcode": "7500-110",
      "city": "VILA NOVA DE SANTO ANDRÉ",
      "lon": "-8.791319723749439",
      "lat": "38.05683429819163"
    },
    {
      "id": "pt.ine.add.PTCONT.5046323",
      "street": "BR ATALAIA SUL",
      "house": "",
      "postcode": "7500-110",
      "city": "VILA NOVA DE SANTO ANDRÉ",
      "lon": "-8.791319723749439",
      "lat": "38.05683429819163"
    },
    {
      "id": "pt.ine.add.PTCONT.5046324",
      "street": "BR ATALAIA SUL",
      "house": "41",
      "postcode": "7500-110",
      "city": "VILA NOVA DE SANTO ANDRÉ",
      "lon": "-8.791319723749439",
      "lat": "38.05683429819163"
    },
    {
      "id": "pt.ine.add.PTCONT.5046325",
      "street": "BR ATALAIA SUL",
      "house": "42",
      "postcode": "7500-110",
      "city": "VILA NOVA DE SANTO ANDRÉ",
      "lon": "-8.791319723749439",
      "lat": "38.05683429819163"
    },
    {
      "id": "pt.ine.add.PTCONT.5046326",
      "street": "BR ATALAIA SUL",
      "house": "43",
      "postcode": "7500-110",
      "city": "VILA NOVA DE SANTO ANDRÉ",
      "lon": "-8.791319723749439",
      "lat": "38.05683429819163"
    },
    {
      "id": "pt.ine.add.PTCONT.5046327",
      "street": "BR ATALAIA SUL",
      "house": "",
      "postcode": "7500-110",
      "city": "VILA NOVA DE SANTO ANDRÉ",
      "lon": "-8.791319723749439",
      "lat": "38.05683429819163"
    },
    {
      "id": "pt.ine.add.PTCONT.5046328",
      "street": "BR ATALAIA SUL",
      "house": "",
      "postcode": "7500-110",
      "city": "VILA NOVA DE SANTO ANDRÉ",
      "lon": "-8.791319723749439",
      "lat": "38.05683429819163"
    },
    {
      "id": "pt.ine.add.PTCONT.5046329",
      "street": "BR ATALAIA SUL",
      "house": "",
      "postcode": "7500-110",
      "city": "VILA NOVA DE SANTO ANDRÉ",
      "lon": "-8.791319723749439",
      "lat": "38.05683429819163"
    },
    {
      "id": "pt.ine.add.PTCONT.5046330",
      "street": "BR ATALAIA SUL",
      "house": "",
      "postcode": "7500-110",
      "city": "VILA NOVA DE SANTO ANDRÉ",
      "lon": "-8.791319723749439",
      "lat": "38.05683429819163"
    },
    {
      "id": "pt.ine.add.PTCONT.5046331",
      "street": "BR ATALAIA SUL",
      "house": "48",
      "postcode": "7500-110",
      "city": "VILA NOVA DE SANTO ANDRÉ",
      "lon": "-8.791319723749439",
      "lat": "38.05683429819163"
    },
    {
      "id": "pt.ine.add.PTCONT.5047883",
      "street": "BR ATALAIA SUL",
      "house": "35",
      "postcode": "7500-110",
      "city": "VILA NOVA DE SANTO ANDRÉ",
      "lon": "-8.791319723749439",
      "lat": "38.05683429819163"
    },
    {
      "id": "pt.ine.add.PTCONT.5072901",
      "street": "R LIBERDADE",
      "house": "10",
      "postcode": "7500-110",
      "city": "VILA NOVA DE SANTO ANDRÉ",
      "lon": "-8.792742959471415",
      "lat": "38.057959402292724"
    },
    {
      "id": "pt.ine.add.PTCONT.5081644",
      "street": "R LIBERDADE",
      "house": "9",
      "postcode": "7500-110",
      "city": "VILA NOVA DE SANTO ANDRÉ",
      "lon": "-8.792680999733916",
      "lat": "38.05798367714845"
    },
    {
      "id": "pt.ine.add.PTCONT.5106163",
      "street": "BR ATALAIA SUL",
      "house": "",
      "postcode": "7500-110",
      "city": "VILA NOVA DE SANTO ANDRÉ",
      "lon": "-8.79150919093035",
      "lat": "38.05761944538667"
    },
    {
      "id": "pt.ine.add.PTCONT.5106164",
      "street": "BR ATALAIA SUL",
      "house": "24",
      "postcode": "7500-110",
      "city": "VILA NOVA DE SANTO ANDRÉ",
      "lon": "-8.79150919093035",
      "lat": "38.05761944538667"
    },
    {
      "id": "pt.ine.add.PTCONT.5106165",
      "street": "BR ATALAIA SUL",
      "house": "",
      "postcode": "7500-110",
      "city": "VILA NOVA DE SANTO ANDRÉ",
      "lon": "-8.79150919093035",
      "lat": "38.05761944538667"
    },
    {
      "id": "pt.ine.add.PTCONT.5106166",
      "street": "BR ATALAIA SUL",
      "house": "",
      "postcode": "7500-110",
      "city": "VILA NOVA DE SANTO ANDRÉ",
      "lon": "-8.79150919093035",
      "lat": "38.05761944538667"
    },
    {
      "id": "pt.ine.add.PTCONT.5106167",
      "street": "BR ATALAIA SUL",
      "house": "",
      "postcode": "7500-110",
      "city": "VILA NOVA DE SANTO ANDRÉ",
      "lon": "-8.79150919093035",
      "lat": "38.05761944538667"
    },
    {
      "id": "pt.ine.add.PTCONT.5106168",
      "street": "BR ATALAIA SUL",
      "house": "",
      "postcode": "7500-110",
      "city": "VILA NOVA DE SANTO ANDRÉ",
      "lon": "-8.79150919093035",
      "lat": "38.05761944538667"
    },
    {
      "id": "pt.ine.add.PTCONT.5106249",
      "street": "BR ATALAIA SUL",
      "house": "",
      "postcode": "7500-110",
      "city": "VILA NOVA DE SANTO ANDRÉ",
      "lon": "-8.79150919093035",
      "lat": "38.05761944538667"
    },
    {
      "id": "pt.ine.add.PTCONT.5106250",
      "street": "BR ATALAIA SUL",
      "house": "",
      "postcode": "7500-110",
      "city": "VILA NOVA DE SANTO ANDRÉ",
      "lon": "-8.79150919093035",
      "lat": "38.05761944538667"
    },
    {
      "id": "pt.ine.add.PTCONT.5106251",
      "street": "BR ATALAIA SUL",
      "house": "",
      "postcode": "7500-110",
      "city": "VILA NOVA DE SANTO ANDRÉ",
      "lon": "-8.79150919093035",
      "lat": "38.05761944538667"
    },
    {
      "id": "pt.ine.add.PTCONT.5106252",
      "street": "BR ATALAIA SUL",
      "house": "",
      "postcode": "7500-110",
      "city": "VILA NOVA DE SANTO ANDRÉ",
      "lon": "-8.79150919093035",
      "lat": "38.05761944538667"
    },
    {
      "id": "pt.ine.add.PTCONT.5108562",
      "street": "BR ATALAIA SUL",
      "house": "",
      "postcode": "7500-110",
      "city": "VILA NOVA DE SANTO ANDRÉ",
      "lon": "-8.79150919093035",
      "lat": "38.05761944538667"
    },
    {
      "id": "pt.ine.add.PTCONT.5128804",
      "street": "BR ATALAIA SUL",
      "house": "",
      "postcode": "7500-110",
      "city": "VILA NOVA DE SANTO ANDRÉ",
      "lon": "-8.79150919093035",
      "lat": "38.05761944538667"
    }
  ]
}