{
  "data": {
    "distrito": "Braga",
    "concelho": "Guimarães",
    "freguesia": "Gondar",
    "OBJECTID": 2005,
    "BGRI2021": "03082100225",
    "DT21": "03",
    "DTMN21": "0308",
    "DTMNFR21": "030821",
    "DTMNFRSEC21": "030821002",
    "SECNUM21": "002",
    "SSNUM21": "25",
    "SECSSNUM21": "00225",
    "OBJECTID_1": 26436,
    "DT": "03",
    "CC": "08",
    "fr": "21",
    "SEC": "002",
    "SS": "25"
  },
  "addresses": [
    {
      "id": "pt.ine.add.PTCONT.540533",
      "street": "R LIBERDADE",
      "house": "25",
      "postcode": "4835-559",
      "city": "GUIMARÃES",
      "lon": "-8.362345959746932",
      "lat": "41.42342399096358"
    },
    {
      "id": "pt.ine.add.PTCONT.572032",
      "street": "R LIBERDADE",
      "house": "159",
      "postcode": "4835-559",
      "city": "GUIMARÃES",
      "lon": "-8.362834673647098",
      "lat": "41.42292779824009"
    },
    {
      "id": "pt.ine.add.PTCONT.575832",
      "street": "R LIBERDADE",
      "house": "1",
      "postcode": "4835-559",
      "city": "GUIMARÃES",
      "lon": "-8.362250640215597",
      "lat": "41.42353222839069"
    },
    {
      "id": "pt.ine.add.PTCONT.575833",
      "street": "R LIBERDADE",
      "house": "1",
      "postcode": "4835-559",
      "city": "GUIMARÃES",
      "lon": "-8.362250640215597",
      "lat": "41.42353222839069"
    },
    {
      "id": "pt.ine.add.PTCONT.585694",
      "street": "R BURGO",
      "house": "132",
      "postcode": "4835-614",
      "city": "GUIMARÃES",
      "lon": "-8.361698852263704",
      "lat": "41.423101135806505"
    },
    {
      "id": "pt.ine.add.PTCONT.585813",
      "street": "R BURGO",
      "house": "132",
      "postcode": "4835-614",
      "city": "GUIMARÃES",
      "lon": "-8.361698852263704",
      "lat": "41.423101135806505"
    },
    {
      "id": "pt.ine.add.PTCONT.596638",
      "street": "R LIBERDADE",
      "house": "365",
      "postcode": "4835-559",
      "city": "GUIMARÃES",
      "lon": "-8.36333114468086",
      "lat": "41.4212430645204"
    },
    {
      "id": "pt.ine.add.PTCONT.669671",
      "street": "R LIBERDADE",
      "house": "97",
      "postcode": "4835-559",
      "city": "GUIMARÃES",
      "lon": "-8.362536597861276",
      "lat": "41.42320751586879"
    },
    {
      "id": "pt.ine.add.PTCONT.677873",
      "street": "R LIBERDADE",
      "house": "139",
      "postcode": "4835-559",
      "city": "GUIMARÃES",
      "lon": "-8.362703532033642",
      "lat": "41.423054115496605"
    },
    {
      "id": "pt.ine.add.PTCONT.699190",
      "street": "R LIBERDADE",
      "house": "27",
      "postcode": "4835-559",
      "city": "GUIMARÃES",
      "lon": "-8.36240545510832",
      "lat": "41.423333832782326"
    },
    {
      "id": "pt.ine.add.PTCONT.758787",
      "street": "R LIBERDADE",
      "house": "107",
      "postcode": "4835-559",
      "city": "GUIMARÃES",
      "lon": "-8.36258416209671",
      "lat": "41.42312638534604"
    },
    {
      "id": "pt.ine.add.PTCONT.758788",
      "street": "R LIBERDADE",
      "house": "107",
      "postcode": "4835-559",
      "city": "GUIMARÃES",
      "lon": "-8.36258416209671",
      "lat": "41.42312638534604"
    },
    {
      "id": "pt.ine.add.PTCONT.818836",
      "street": "R BURGO",
      "house": "124",
      "postcode": "4835-614",
      "city": "GUIMARÃES",
      "lon": "-8.361602616800067",
      "lat": "41.42294825959479"
    }
  ]
}