{
  "data": {
    "distrito": "Viana do Castelo",
    "concelho": "Paredes de Coura",
    "freguesia": "União das freguesias de Cossourado e Linhares",
    "OBJECTID": 274,
    "BGRI2021": "16052300103",
    "DT21": "16",
    "DTMN21": "1605",
    "DTMNFR21": "160523",
    "DTMNFRSEC21": "160523001",
    "SECNUM21": "001",
    "SSNUM21": "03",
    "SECSSNUM21": "00103",
    "OBJECTID_1": 174526,
    "DT": "16",
    "CC": "05",
    "fr": "23",
    "SEC": "001",
    "SS": "03"
  },
  "addresses": [
    {
      "id": "pt.ine.add.PTCONT.5158120",
      "street": "ANTÓNIO FREIRE",
      "house": "",
      "postcode": "4940-133",
      "city": "COSSOURADO PCR",
      "lon": "-8.629099631190021",
      "lat": "41.908702987038225"
    },
    {
      "id": "pt.ine.add.PTCONT.5162556",
      "street": "ANIBAL VAZ",
      "house": "",
      "postcode": "4940-133",
      "city": "COSSOURADO PCR",
      "lon": "-8.631883346893584",
      "lat": "41.9101944589061"
    },
    {
      "id": "pt.ine.add.PTCONT.5165035",
      "street": "MANUEL ROCHA",
      "house": "",
      "postcode": "4940-133",
      "city": "COSSOURADO PCR",
      "lon": "-8.630143505819024",
      "lat": "41.907894535185314"
    },
    {
      "id": "pt.ine.add.PTCONT.5171372",
      "street": "MÁRIO BARBOSA VAZ",
      "house": "",
      "postcode": "4940-133",
      "city": "COSSOURADO PCR",
      "lon": "-8.631732691399028",
      "lat": "41.909420840608796"
    },
    {
      "id": "pt.ine.add.PTCONT.5176073",
      "street": "JSAJAS VAZ",
      "house": "",
      "postcode": "4940-133",
      "city": "COSSOURADO PCR",
      "lon": "-8.63188425799926",
      "lat": "41.91031149614417"
    },
    {
      "id": "pt.ine.add.PTCONT.5201080",
      "street": "ANIBAL VAZ",
      "house": "",
      "postcode": "4940-133",
      "city": "COSSOURADO PCR",
      "lon": "-8.631882225540167",
      "lat": "41.91005041307132"
    },
    {
      "id": "pt.ine.add.PTCONT.5205239",
      "street": "JOAQUIM GONFALVES",
      "house": "",
      "postcode": "4940-133",
      "city": "COSSOURADO PCR",
      "lon": "-8.63170059766136",
      "lat": "41.90994316381315"
    },
    {
      "id": "pt.ine.add.PTCONT.5207529",
      "street": "MARJA JULIA GONFALVES RODRIGUES DANTAS",
      "house": "",
      "postcode": "4940-133",
      "city": "COSSOURADO PCR",
      "lon": "-8.63179043045645",
      "lat": "41.910645020892815"
    },
    {
      "id": "pt.ine.add.PTCONT.5223694",
      "street": "MARIA CONCEIÇÃO MELO ROCHA",
      "house": "",
      "postcode": "4940-133",
      "city": "COSSOURADO PCR",
      "lon": "-8.630564551131542",
      "lat": "41.90799440279017"
    },
    {
      "id": "pt.ine.add.PTCONT.5223695",
      "street": "AMARILIA ESTEVES CUNHA",
      "house": "",
      "postcode": "4940-133",
      "city": "COSSOURADO PCR",
      "lon": "-8.63192098224163",
      "lat": "41.909826786057614"
    },
    {
      "id": "pt.ine.add.PTCONT.5226082",
      "street": "AMÉRICO MARTINS MALHEIRO",
      "house": "",
      "postcode": "4940-133",
      "city": "COSSOURADO PCR",
      "lon": "-8.631941436541476",
      "lat": "41.90991510832809"
    },
    {
      "id": "pt.ine.add.PTCONT.5229446",
      "street": "NOGUEIRA",
      "house": "336",
      "postcode": "4940-133",
      "city": "COSSOURADO PCR",
      "lon": "-8.62950361803647",
      "lat": "41.90795397807541"
    },
    {
      "id": "pt.ine.add.PTCONT.5251619",
      "street": "MARIA LURDES FERNANDES PINTO",
      "house": "",
      "postcode": "4940-133",
      "city": "COSSOURADO PCR",
      "lon": "-8.627915498481288",
      "lat": "41.90987850782793"
    },
    {
      "id": "pt.ine.add.PTCONT.5270476",
      "street": "ROSALINA GONÇALVES SARAIVA",
      "house": "",
      "postcode": "4940-133",
      "city": "COSSOURADO PCR",
      "lon": "-8.629361204483448",
      "lat": "41.90831796166357"
    }
  ]
}