{
  "data": {
    "distrito": "Faro",
    "concelho": "Portim√£o",
    "freguesia": "Mexilhoeira Grande",
    "OBJECTID": 192,
    "BGRI2021": "08110200417",
    "DT21": "08",
    "DTMN21": "0811",
    "DTMNFR21": "081102",
    "DTMNFRSEC21": "081102004",
    "SECNUM21": "004",
    "SSNUM21": "17",
    "SECSSNUM21": "00417",
    "OBJECTID_1": 70972,
    "DT": "08",
    "CC": "11",
    "fr": "02",
    "SEC": "004",
    "SS": "17"
  },
  "addresses": [
    {
      "id": "pt.ine.add.PTCONT.1538589",
      "street": "URB MONTE CANELAS",
      "house": "",
      "postcode": "8500-157",
      "city": "MEXILHOEIRA GRANDE",
      "lon": "-8.592997607051187",
      "lat": "37.20216548453272"
    },
    {
      "id": "pt.ine.add.PTCONT.1555320",
      "street": "SIT ALCALAR",
      "house": "",
      "postcode": "8500-157",
      "city": "MEXILHOEIRA GRANDE",
      "lon": "-8.58990124707414",
      "lat": "37.19864537173631"
    },
    {
      "id": "pt.ine.add.PTCONT.1560623",
      "street": "URB MONTE CANELAS",
      "house": "",
      "postcode": "8500-157",
      "city": "MEXILHOEIRA GRANDE",
      "lon": "-8.59608357787215",
      "lat": "37.20393753024626"
    },
    {
      "id": "pt.ine.add.PTCONT.1635751",
      "street": "URB MONTE CANELAS",
      "house": "",
      "postcode": "8500-157",
      "city": "MEXILHOEIRA GRANDE",
      "lon": "-8.594108549093974",
      "lat": "37.20332351272509"
    },
    {
      "id": "pt.ine.add.PTCONT.1677581",
      "street": "URB MONTE CANELAS",
      "house": "",
      "postcode": "8500-157",
      "city": "MEXILHOEIRA GRANDE",
      "lon": "-8.596732254022715",
      "lat": "37.20470414182714"
    },
    {
      "id": "pt.ine.add.PTCONT.1677582",
      "street": "SIT ALCALAR",
      "house": "",
      "postcode": "8500-157",
      "city": "MEXILHOEIRA GRANDE",
      "lon": "-8.592502278645009",
      "lat": "37.20035630824267"
    },
    {
      "id": "pt.ine.add.PTCONT.1679820",
      "street": "URB MONTE CANELAS",
      "house": "",
      "postcode": "8500-157",
      "city": "MEXILHOEIRA GRANDE",
      "lon": "-8.593906396380676",
      "lat": "37.2034234140293"
    },
    {
      "id": "pt.ine.add.PTCONT.1690912",
      "street": "SIT VIDIGAL VELHO",
      "house": "",
      "postcode": "8500-132",
      "city": "MEXILHOEIRA GRANDE",
      "lon": "-8.597357108429142",
      "lat": "37.20220254271156"
    },
    {
      "id": "pt.ine.add.PTCONT.1721652",
      "street": "URB MONTE CANELAS",
      "house": "",
      "postcode": "8500-157",
      "city": "MEXILHOEIRA GRANDE",
      "lon": "-8.595812685361471",
      "lat": "37.20384848431934"
    },
    {
      "id": "pt.ine.add.PTCONT.1746777",
      "street": "URB MONTE CANELAS",
      "house": "",
      "postcode": "8500-164",
      "city": "MEXILHOEIRA GRANDE",
      "lon": "-8.5930764004487",
      "lat": "37.20215616818189"
    },
    {
      "id": "pt.ine.add.PTCONT.1770540",
      "street": "SIT VIDIGAL VELHO",
      "house": "",
      "postcode": "8500-132",
      "city": "MEXILHOEIRA GRANDE",
      "lon": "-8.597664384306837",
      "lat": "37.20271493291946"
    },
    {
      "id": "pt.ine.add.PTCONT.1779576",
      "street": "URB MONTE CANELAS",
      "house": "",
      "postcode": "8500-157",
      "city": "MEXILHOEIRA GRANDE",
      "lon": "-8.595428601459458",
      "lat": "37.203669775238524"
    },
    {
      "id": "pt.ine.add.PTCONT.1796642",
      "street": "URB MONTE CANELAS",
      "house": "",
      "postcode": "8500-157",
      "city": "MEXILHOEIRA GRANDE",
      "lon": "-8.595214086682631",
      "lat": "37.203589518328016"
    },
    {
      "id": "pt.ine.add.PTCONT.1796643",
      "street": "URB MONTE CANELAS",
      "house": "",
      "postcode": "8500-157",
      "city": "MEXILHOEIRA GRANDE",
      "lon": "-8.593086133502691",
      "lat": "37.201903838142734"
    },
    {
      "id": "pt.ine.add.PTCONT.1799046",
      "street": "QTA ALCALAR",
      "house": "",
      "postcode": "8500-157",
      "city": "MEXILHOEIRA GRANDE",
      "lon": "-8.590357058349534",
      "lat": "37.19951762625949"
    },
    {
      "id": "pt.ine.add.PTCONT.1805300",
      "street": "URB MONTE CANELAS",
      "house": "",
      "postcode": "8500-157",
      "city": "MEXILHOEIRA GRANDE",
      "lon": "-8.593370577742112",
      "lat": "37.20237127606886"
    },
    {
      "id": "pt.ine.add.PTCONT.1825082",
      "street": "URB MONTE CANELAS",
      "house": "",
      "postcode": "8500-157",
      "city": "MEXILHOEIRA GRANDE",
      "lon": "-8.596332933654207",
      "lat": "37.204188847565476"
    },
    {
      "id": "pt.ine.add.PTCONT.1831452",
      "street": "SIT ALCALAR",
      "house": "",
      "postcode": "8500-157",
      "city": "MEXILHOEIRA GRANDE",
      "lon": "-8.591392330938639",
      "lat": "37.19935143788214"
    },
    {
      "id": "pt.ine.add.PTCONT.1845252",
      "street": "URB MONTE CANELAS",
      "house": "",
      "postcode": "8500-157",
      "city": "MEXILHOEIRA GRANDE",
      "lon": "-8.59281377634849",
      "lat": "37.201571509156956"
    }
  ]
}