{
  "data": {
    "distrito": "Faro",
    "concelho": "Portim√£o",
    "freguesia": "Mexilhoeira Grande",
    "OBJECTID": 20,
    "BGRI2021": "08110200424",
    "DT21": "08",
    "DTMN21": "0811",
    "DTMNFR21": "081102",
    "DTMNFRSEC21": "081102004",
    "SECNUM21": "004",
    "SSNUM21": "24",
    "SECSSNUM21": "00424",
    "OBJECTID_1": 71082,
    "DT": "08",
    "CC": "11",
    "fr": "02",
    "SEC": "004",
    "SS": "24"
  },
  "addresses": [
    {
      "id": "pt.ine.add.PTCONT.1514182",
      "street": "URB MONTE CANELAS",
      "house": "",
      "postcode": "8500-157",
      "city": "MEXILHOEIRA GRANDE",
      "lon": "-8.589830660242976",
      "lat": "37.207493892959825"
    },
    {
      "id": "pt.ine.add.PTCONT.1514902",
      "street": "URB MONTE CANELAS",
      "house": "",
      "postcode": "8500-157",
      "city": "MEXILHOEIRA GRANDE",
      "lon": "-8.589776236508284",
      "lat": "37.20780946783433"
    },
    {
      "id": "pt.ine.add.PTCONT.1519964",
      "street": "MTE CANELAS",
      "house": "265",
      "postcode": "8500-157",
      "city": "MEXILHOEIRA GRANDE",
      "lon": "-8.588727304858821",
      "lat": "37.20759725666283"
    },
    {
      "id": "pt.ine.add.PTCONT.1563861",
      "street": "URB MONTE CANELAS",
      "house": "",
      "postcode": "8500-157",
      "city": "MEXILHOEIRA GRANDE",
      "lon": "-8.592027406365375",
      "lat": "37.20750342365721"
    },
    {
      "id": "pt.ine.add.PTCONT.1563862",
      "street": "MTE CANELAS JESSICA ROSE VILA",
      "house": "",
      "postcode": "8500-157",
      "city": "MEXILHOEIRA GRANDE",
      "lon": "-8.590508723907538",
      "lat": "37.20785169386071"
    },
    {
      "id": "pt.ine.add.PTCONT.1629755",
      "street": "MTE CANELAS",
      "house": "260",
      "postcode": "8500-157",
      "city": "MEXILHOEIRA GRANDE",
      "lon": "-8.589772761690899",
      "lat": "37.20723281369677"
    },
    {
      "id": "pt.ine.add.PTCONT.1647946",
      "street": "URB MONTE CANELAS",
      "house": "",
      "postcode": "8500-157",
      "city": "MEXILHOEIRA GRANDE",
      "lon": "-8.59046252256554",
      "lat": "37.20766265322906"
    },
    {
      "id": "pt.ine.add.PTCONT.1681835",
      "street": "URB MONTE CANELAS",
      "house": "",
      "postcode": "8500-157",
      "city": "MEXILHOEIRA GRANDE",
      "lon": "-8.58943487287014",
      "lat": "37.207243126244045"
    },
    {
      "id": "pt.ine.add.PTCONT.1681836",
      "street": "URB MONTE CANELAS",
      "house": "",
      "postcode": "8500-157",
      "city": "MEXILHOEIRA GRANDE",
      "lon": "-8.592239854643442",
      "lat": "37.207241297951086"
    },
    {
      "id": "pt.ine.add.PTCONT.1749668",
      "street": "MTE CANELAS CASA STELA MONTE CANELAS",
      "house": "",
      "postcode": "8500-157",
      "city": "MEXILHOEIRA GRANDE",
      "lon": "-8.592769790471806",
      "lat": "37.207320336633416"
    },
    {
      "id": "pt.ine.add.PTCONT.1751968",
      "street": "URB MONTE CANELAS",
      "house": "",
      "postcode": "8500-157",
      "city": "MEXILHOEIRA GRANDE",
      "lon": "-8.59023733462794",
      "lat": "37.20768154331374"
    },
    {
      "id": "pt.ine.add.PTCONT.1755933",
      "street": "URB MONTE CANELAS",
      "house": "",
      "postcode": "8500-157",
      "city": "MEXILHOEIRA GRANDE",
      "lon": "-8.589120218298238",
      "lat": "37.20737048398712"
    },
    {
      "id": "pt.ine.add.PTCONT.1755934",
      "street": "URB MONTE CANELAS",
      "house": "",
      "postcode": "8500-157",
      "city": "MEXILHOEIRA GRANDE",
      "lon": "-8.590000338524046",
      "lat": "37.20761037421649"
    },
    {
      "id": "pt.ine.add.PTCONT.1776374",
      "street": "URB MONTE CANELAS",
      "house": "",
      "postcode": "8500-157",
      "city": "MEXILHOEIRA GRANDE",
      "lon": "-8.59311916262253",
      "lat": "37.20734601169749"
    },
    {
      "id": "pt.ine.add.PTCONT.1814424",
      "street": "MTE CANELAS",
      "house": "248",
      "postcode": "8500-157",
      "city": "MEXILHOEIRA GRANDE",
      "lon": "-8.59064227029084",
      "lat": "37.20758086522807"
    },
    {
      "id": "pt.ine.add.PTCONT.1839452",
      "street": "URB MONTE CANELAS",
      "house": "",
      "postcode": "8500-157",
      "city": "MEXILHOEIRA GRANDE",
      "lon": "-8.59220747949959",
      "lat": "37.20747569460101"
    }
  ]
}