{
  "data": {
    "distrito": "Faro",
    "concelho": "Portim√£o",
    "freguesia": "Mexilhoeira Grande",
    "OBJECTID": 169,
    "BGRI2021": "08110200425",
    "DT21": "08",
    "DTMN21": "0811",
    "DTMNFR21": "081102",
    "DTMNFRSEC21": "081102004",
    "SECNUM21": "004",
    "SSNUM21": "25",
    "SECSSNUM21": "00425",
    "OBJECTID_1": 71286,
    "DT": "08",
    "CC": "11",
    "fr": "02",
    "SEC": "004",
    "SS": "25"
  },
  "addresses": [
    {
      "id": "pt.ine.add.PTCONT.1473701",
      "street": "VL HOUSTON",
      "house": "2",
      "postcode": "8500-157",
      "city": "MEXILHOEIRA GRANDE",
      "lon": "-8.587113304004966",
      "lat": "37.20708084857343"
    },
    {
      "id": "pt.ine.add.PTCONT.1476746",
      "street": "VL ERINA",
      "house": "4",
      "postcode": "8500-157",
      "city": "MEXILHOEIRA GRANDE",
      "lon": "-8.587184293597176",
      "lat": "37.207648233647284"
    },
    {
      "id": "pt.ine.add.PTCONT.1494230",
      "street": "URB MONTE CANELAS",
      "house": "",
      "postcode": "8500-157",
      "city": "MEXILHOEIRA GRANDE",
      "lon": "-8.586184955296591",
      "lat": "37.20819268601685"
    },
    {
      "id": "pt.ine.add.PTCONT.1531531",
      "street": "SIT MONTE CANELAS CASA ROCHA",
      "house": "",
      "postcode": "8500-157",
      "city": "MEXILHOEIRA GRANDE",
      "lon": "-8.587154260433646",
      "lat": "37.20639589874095"
    },
    {
      "id": "pt.ine.add.PTCONT.1541694",
      "street": "MTE CANELAS CASA GALESA",
      "house": "15",
      "postcode": "8500-157",
      "city": "MEXILHOEIRA GRANDE",
      "lon": "-8.586720601705448",
      "lat": "37.20734365553346"
    },
    {
      "id": "pt.ine.add.PTCONT.1552155",
      "street": "CASA BOUGAINVILLEA",
      "house": "6",
      "postcode": "8500-157",
      "city": "MEXILHOEIRA GRANDE",
      "lon": "-8.587276410179692",
      "lat": "37.20798126643621"
    },
    {
      "id": "pt.ine.add.PTCONT.1578116",
      "street": "URB MONTE CANELAS",
      "house": "",
      "postcode": "8500-157",
      "city": "MEXILHOEIRA GRANDE",
      "lon": "-8.587011759356832",
      "lat": "37.20705420641972"
    },
    {
      "id": "pt.ine.add.PTCONT.1584368",
      "street": "",
      "house": "",
      "postcode": "8500-157",
      "city": "MEXILHOEIRA GRANDE",
      "lon": "-8.58732328415847",
      "lat": "37.20640426118979"
    },
    {
      "id": "pt.ine.add.PTCONT.1641429",
      "street": "VL HOUSTON",
      "house": "3",
      "postcode": "8500-157",
      "city": "MEXILHOEIRA GRANDE",
      "lon": "-8.587192643133088",
      "lat": "37.207161638352815"
    },
    {
      "id": "pt.ine.add.PTCONT.1710941",
      "street": "VL SAGRES",
      "house": "9",
      "postcode": "8500-157",
      "city": "MEXILHOEIRA GRANDE",
      "lon": "-8.586243003902394",
      "lat": "37.20848079774054"
    },
    {
      "id": "pt.ine.add.PTCONT.1731136",
      "street": "CASA MARZCOL",
      "house": "",
      "postcode": "8500-157",
      "city": "MEXILHOEIRA GRANDE",
      "lon": "-8.586464260449478",
      "lat": "37.20780416886941"
    },
    {
      "id": "pt.ine.add.PTCONT.1743101",
      "street": "URB MONTE CANELAS",
      "house": "",
      "postcode": "8500-157",
      "city": "MEXILHOEIRA GRANDE",
      "lon": "-8.586586987754883",
      "lat": "37.2076054696217"
    },
    {
      "id": "pt.ine.add.PTCONT.1758075",
      "street": "GLOBE DEVELOPHEMENT MONTE CANELAS",
      "house": "",
      "postcode": "8500-157",
      "city": "MEXILHOEIRA GRANDE",
      "lon": "-8.588347548300892",
      "lat": "37.20813934252069"
    },
    {
      "id": "pt.ine.add.PTCONT.1782499",
      "street": "VL MONCHIQUE",
      "house": "10",
      "postcode": "8500-157",
      "city": "MEXILHOEIRA GRANDE",
      "lon": "-8.585928123405344",
      "lat": "37.20857210615207"
    },
    {
      "id": "pt.ine.add.PTCONT.1812480",
      "street": "VL LAGOS",
      "house": "7",
      "postcode": "8500-157",
      "city": "MEXILHOEIRA GRANDE",
      "lon": "-8.586805011179495",
      "lat": "37.20827140664092"
    },
    {
      "id": "pt.ine.add.PTCONT.1812542",
      "street": "URB MONTE CANELAS",
      "house": "",
      "postcode": "8500-157",
      "city": "MEXILHOEIRA GRANDE",
      "lon": "-8.586512769942036",
      "lat": "37.20838065075278"
    },
    {
      "id": "pt.ine.add.PTCONT.1823021",
      "street": "CASA BOUGAINVILLEA",
      "house": "",
      "postcode": "8500-157",
      "city": "MEXILHOEIRA GRANDE",
      "lon": "-8.587275762206339",
      "lat": "37.20787314375526"
    },
    {
      "id": "pt.ine.add.PTCONT.1828855",
      "street": "URB MONTE CANELAS",
      "house": "",
      "postcode": "8500-157",
      "city": "MEXILHOEIRA GRANDE",
      "lon": "-8.58638664595099",
      "lat": "37.208011705797915"
    }
  ]
}