{
  "data": {
    "distrito": "Beja",
    "concelho": "Alvito",
    "freguesia": "Vila Nova da Baronia",
    "OBJECTID": 71,
    "BGRI2021": "02030200212",
    "DT21": "02",
    "DTMN21": "0203",
    "DTMNFR21": "020302",
    "DTMNFRSEC21": "020302002",
    "SECNUM21": "002",
    "SSNUM21": "12",
    "SECSSNUM21": "00212",
    "OBJECTID_1": 13277,
    "DT": "02",
    "CC": "03",
    "fr": "02",
    "SEC": "002",
    "SS": "12"
  },
  "addresses": [
    {
      "id": "pt.ine.add.PTCONT.456476",
      "street": "R PROF EGAS MONIZ",
      "house": "1 A",
      "postcode": "7920-391",
      "city": "VILA NOVA DA BARONIA",
      "lon": "-8.036474370198993",
      "lat": "38.29057715871364"
    },
    {
      "id": "pt.ine.add.PTCONT.457993",
      "street": "AV 1 DE MAIO",
      "house": "1",
      "postcode": "7920-351",
      "city": "VILA NOVA DA BARONIA",
      "lon": "-8.035053297445742",
      "lat": "38.2933146678546"
    },
    {
      "id": "pt.ine.add.PTCONT.458021",
      "street": "AV 1 DE MAIO",
      "house": "17",
      "postcode": "7920-351",
      "city": "VILA NOVA DA BARONIA",
      "lon": "-8.036301595590023",
      "lat": "38.291567989154466"
    },
    {
      "id": "pt.ine.add.PTCONT.458309",
      "street": "BR CARDOSA",
      "house": "",
      "postcode": "7920-352",
      "city": "VILA NOVA DA BARONIA",
      "lon": "-8.034689112384513",
      "lat": "38.2921251957956"
    },
    {
      "id": "pt.ine.add.PTCONT.458695",
      "street": "R S NEUTEL",
      "house": "",
      "postcode": "7920-301",
      "city": "VILA NOVA DA BARONIA",
      "lon": "-8.03522654095072",
      "lat": "38.291990512773225"
    },
    {
      "id": "pt.ine.add.PTCONT.352224",
      "street": "BR CARDOSA",
      "house": "14",
      "postcode": "7920-352",
      "city": "VILA NOVA DA BARONIA",
      "lon": "-8.034335380712536",
      "lat": "38.29166544752528"
    },
    {
      "id": "pt.ine.add.PTCONT.354489",
      "street": "BR CARDOSA",
      "house": "",
      "postcode": "7920-352",
      "city": "VILA NOVA DA BARONIA",
      "lon": "-8.035455059717023",
      "lat": "38.292062773951116"
    },
    {
      "id": "pt.ine.add.PTCONT.356356",
      "street": "R PROF EGAS MONIZ",
      "house": "3 A",
      "postcode": "7920-391",
      "city": "VILA NOVA DA BARONIA",
      "lon": "-8.03615485425552",
      "lat": "38.29017149705786"
    },
    {
      "id": "pt.ine.add.PTCONT.358065",
      "street": "AV 1 DE MAIO",
      "house": "21",
      "postcode": "7920-351",
      "city": "VILA NOVA DA BARONIA",
      "lon": "-8.036530520043407",
      "lat": "38.29133394789083"
    },
    {
      "id": "pt.ine.add.PTCONT.359069",
      "street": "BR CARDOSA",
      "house": "8",
      "postcode": "7920-352",
      "city": "VILA NOVA DA BARONIA",
      "lon": "-8.035397833345405",
      "lat": "38.29211677935982"
    },
    {
      "id": "pt.ine.add.PTCONT.364510",
      "street": "R PROF EGAS MONIZ",
      "house": "33",
      "postcode": "7920-391",
      "city": "VILA NOVA DA BARONIA",
      "lon": "-8.036019284718783",
      "lat": "38.28897320834265"
    },
    {
      "id": "pt.ine.add.PTCONT.369767",
      "street": "BR CARDOSA",
      "house": "7",
      "postcode": "7920-352",
      "city": "VILA NOVA DA BARONIA",
      "lon": "-8.035351989342947",
      "lat": "38.29220682959529"
    },
    {
      "id": "pt.ine.add.PTCONT.370352",
      "street": "AV 1 MAIO",
      "house": "15 A",
      "postcode": "7920-351",
      "city": "VILA NOVA DA BARONIA",
      "lon": "-8.035969624899002",
      "lat": "38.29192806848928"
    },
    {
      "id": "pt.ine.add.PTCONT.370353",
      "street": "BR CARDOSA",
      "house": "3",
      "postcode": "7920-352",
      "city": "VILA NOVA DA BARONIA",
      "lon": "-8.03568326578143",
      "lat": "38.29236926432836"
    },
    {
      "id": "pt.ine.add.PTCONT.370702",
      "street": "AV 1 DE MAIO",
      "house": "15",
      "postcode": "7920-351",
      "city": "VILA NOVA DA BARONIA",
      "lon": "-8.035969624899002",
      "lat": "38.29192806848928"
    },
    {
      "id": "pt.ine.add.PTCONT.371773",
      "street": "R PROF EGAS MONIZ",
      "house": "49",
      "postcode": "7920-391",
      "city": "VILA NOVA DA BARONIA",
      "lon": "-8.035974440051326",
      "lat": "38.288315525314594"
    },
    {
      "id": "pt.ine.add.PTCONT.372665",
      "street": "R 25 DE ABRIL",
      "house": "2",
      "postcode": "7920-392",
      "city": "VILA NOVA DA BARONIA",
      "lon": "-8.033129373087313",
      "lat": "38.287547383165645"
    },
    {
      "id": "pt.ine.add.PTCONT.372666",
      "street": "BR CARDOSA",
      "house": "12",
      "postcode": "7920-352",
      "city": "VILA NOVA DA BARONIA",
      "lon": "-8.034734981477209",
      "lat": "38.292017128153795"
    },
    {
      "id": "pt.ine.add.PTCONT.373451",
      "street": "R PROF EGAS MONIZ",
      "house": "41",
      "postcode": "7920-391",
      "city": "VILA NOVA DA BARONIA",
      "lon": "-8.03597397178258",
      "lat": "38.28866687001056"
    },
    {
      "id": "pt.ine.add.PTCONT.374273",
      "street": "R PROF EGAS MONIZ",
      "house": "39",
      "postcode": "7920-391",
      "city": "VILA NOVA DA BARONIA",
      "lon": "-8.036031087014013",
      "lat": "38.28869394382794"
    },
    {
      "id": "pt.ine.add.PTCONT.375930",
      "street": "R PROF EGAS MONIZ",
      "house": "",
      "postcode": "7920-391",
      "city": "VILA NOVA DA BARONIA",
      "lon": "-8.03598558211195",
      "lat": "38.288531746900496"
    },
    {
      "id": "pt.ine.add.PTCONT.377540",
      "street": "R PROF EGAS MONIZ",
      "house": "23",
      "postcode": "7920-391",
      "city": "VILA NOVA DA BARONIA",
      "lon": "-8.036030211003613",
      "lat": "38.28935158896944"
    },
    {
      "id": "pt.ine.add.PTCONT.379077",
      "street": "R PROF EGAS MONIZ",
      "house": "27",
      "postcode": "7920-391",
      "city": "VILA NOVA DA BARONIA",
      "lon": "-8.036030559011163",
      "lat": "38.289090332689206"
    },
    {
      "id": "pt.ine.add.PTCONT.380390",
      "street": "R PROF EGAS MONIZ",
      "house": "45",
      "postcode": "7920-391",
      "city": "VILA NOVA DA BARONIA",
      "lon": "-8.035928479036999",
      "lat": "38.288495664222104"
    },
    {
      "id": "pt.ine.add.PTCONT.381628",
      "street": "R PROF EGAS MONIZ",
      "house": "",
      "postcode": "7920-391",
      "city": "VILA NOVA DA BARONIA",
      "lon": "-8.035974067838369",
      "lat": "38.288594799305415"
    },
    {
      "id": "pt.ine.add.PTCONT.383144",
      "street": "R PROF EGAS MONIZ",
      "house": "11",
      "postcode": "7920-391",
      "city": "VILA NOVA DA BARONIA",
      "lon": "-8.0360755605804",
      "lat": "38.28963090073503"
    },
    {
      "id": "pt.ine.add.PTCONT.384778",
      "street": "BR CARDOSA",
      "house": "",
      "postcode": "7920-352",
      "city": "VILA NOVA DA BARONIA",
      "lon": "-8.035043284969102",
      "lat": "38.2922606250153"
    },
    {
      "id": "pt.ine.add.PTCONT.385717",
      "street": "LG S PEDRO",
      "house": "",
      "postcode": "7920-301",
      "city": "VILA NOVA DA BARONIA",
      "lon": "-8.03486095073612",
      "lat": "38.291846065696966"
    },
    {
      "id": "pt.ine.add.PTCONT.386880",
      "street": "R PROF EGAS MONIZ",
      "house": "5",
      "postcode": "7920-391",
      "city": "VILA NOVA DA BARONIA",
      "lon": "-8.03614362754628",
      "lat": "38.29001833740031"
    },
    {
      "id": "pt.ine.add.PTCONT.387112",
      "street": "HORTA DA FONTINHA",
      "house": "",
      "postcode": "7920-301",
      "city": "VILA NOVA DA BARONIA",
      "lon": "-8.03340090934748",
      "lat": "38.289583613897975"
    },
    {
      "id": "pt.ine.add.PTCONT.389678",
      "street": "R PROF EGAS MONIZ",
      "house": "7",
      "postcode": "7920-391",
      "city": "VILA NOVA DA BARONIA",
      "lon": "-8.036086787088633",
      "lat": "38.28978406040894"
    },
    {
      "id": "pt.ine.add.PTCONT.390435",
      "street": "BR CARDOSA",
      "house": "5",
      "postcode": "7920-352",
      "city": "VILA NOVA DA BARONIA",
      "lon": "-8.034974566658374",
      "lat": "38.29235966482055"
    },
    {
      "id": "pt.ine.add.PTCONT.395997",
      "street": "BR CARDOSA",
      "house": "6",
      "postcode": "7920-352",
      "city": "VILA NOVA DA BARONIA",
      "lon": "-8.035855100905657",
      "lat": "38.292090132780885"
    },
    {
      "id": "pt.ine.add.PTCONT.400035",
      "street": "BR CARDOSA",
      "house": "10",
      "postcode": "7920-352",
      "city": "VILA NOVA DA BARONIA",
      "lon": "-8.034369221211977",
      "lat": "38.291998803204244"
    },
    {
      "id": "pt.ine.add.PTCONT.400821",
      "street": "BR CARDOSA",
      "house": "",
      "postcode": "7920-352",
      "city": "VILA NOVA DA BARONIA",
      "lon": "-8.035523765030394",
      "lat": "38.291972742691044"
    },
    {
      "id": "pt.ine.add.PTCONT.401601",
      "street": "BR CARDOSA",
      "house": "13",
      "postcode": "7920-352",
      "city": "VILA NOVA DA BARONIA",
      "lon": "-8.034266649784216",
      "lat": "38.291773495758285"
    },
    {
      "id": "pt.ine.add.PTCONT.401604",
      "street": "LG S PEDRO",
      "house": "",
      "postcode": "7920-301",
      "city": "VILA NOVA DA BARONIA",
      "lon": "-8.034929668715272",
      "lat": "38.291747025949135"
    },
    {
      "id": "pt.ine.add.PTCONT.406735",
      "street": "BR CARDOSA",
      "house": "11",
      "postcode": "7920-352",
      "city": "VILA NOVA DA BARONIA",
      "lon": "-8.034277836156289",
      "lat": "38.29195368204229"
    },
    {
      "id": "pt.ine.add.PTCONT.407414",
      "street": "R PROF EGAS MONIZ",
      "house": "45 A",
      "postcode": "7920-391",
      "city": "VILA NOVA DA BARONIA",
      "lon": "-8.035962829736599",
      "lat": "38.288450648428565"
    },
    {
      "id": "pt.ine.add.PTCONT.407415",
      "street": "R PROF EGAS MONIZ",
      "house": "29",
      "postcode": "7920-391",
      "city": "VILA NOVA DA BARONIA",
      "lon": "-8.036030739013299",
      "lat": "38.288955200125876"
    },
    {
      "id": "pt.ine.add.PTCONT.407416",
      "street": "HORTA DA FONTINHA",
      "house": "",
      "postcode": "7920-301",
      "city": "VILA NOVA DA BARONIA",
      "lon": "-8.034245890460795",
      "lat": "38.29022395704189"
    },
    {
      "id": "pt.ine.add.PTCONT.412171",
      "street": "BR CARDOSA",
      "house": "",
      "postcode": "7920-352",
      "city": "VILA NOVA DA BARONIA",
      "lon": "-8.035100572298745",
      "lat": "38.29216157561918"
    },
    {
      "id": "pt.ine.add.PTCONT.413101",
      "street": "BR CARDOSA",
      "house": "9",
      "postcode": "7920-352",
      "city": "VILA NOVA DA BARONIA",
      "lon": "-8.034460618576464",
      "lat": "38.29203491546234"
    },
    {
      "id": "pt.ine.add.PTCONT.413805",
      "street": "AV 1 DE MAIO",
      "house": "9",
      "postcode": "7920-351",
      "city": "VILA NOVA DA BARONIA",
      "lon": "-8.035225076711",
      "lat": "38.293080581436804"
    },
    {
      "id": "pt.ine.add.PTCONT.414630",
      "street": "R 25 DE ABRIL",
      "house": "4",
      "postcode": "7920-392",
      "city": "VILA NOVA DA BARONIA",
      "lon": "-8.034226610912583",
      "lat": "38.28758434846097"
    },
    {
      "id": "pt.ine.add.PTCONT.415382",
      "street": "BR CARDOSA",
      "house": "1HS",
      "postcode": "7920-352",
      "city": "VILA NOVA DA BARONIA",
      "lon": "-8.035580171308565",
      "lat": "38.29253133782957"
    },
    {
      "id": "pt.ine.add.PTCONT.417013",
      "street": "AV 1 DE MAIO",
      "house": "15",
      "postcode": "7920-351",
      "city": "VILA NOVA DA BARONIA",
      "lon": "-8.035282352346409",
      "lat": "38.2929905407976"
    },
    {
      "id": "pt.ine.add.PTCONT.417798",
      "street": "R PROF EGAS MONIZ",
      "house": "3",
      "postcode": "7920-391",
      "city": "VILA NOVA DA BARONIA",
      "lon": "-8.03629170886508",
      "lat": "38.29040584005838"
    },
    {
      "id": "pt.ine.add.PTCONT.418600",
      "street": "R PROF EGAS MONIZ",
      "house": "17",
      "postcode": "7920-391",
      "city": "VILA NOVA DA BARONIA",
      "lon": "-8.03606431012631",
      "lat": "38.28949575872979"
    },
    {
      "id": "pt.ine.add.PTCONT.418602",
      "street": "AV 1 MAIO",
      "house": "3A",
      "postcode": "7920-351",
      "city": "VILA NOVA DA BARONIA",
      "lon": "-8.035053297445742",
      "lat": "38.2933146678546"
    },
    {
      "id": "pt.ine.add.PTCONT.418603",
      "street": "AV 1 MAIO",
      "house": "1A",
      "postcode": "7920-351",
      "city": "VILA NOVA DA BARONIA",
      "lon": "-8.035053297445742",
      "lat": "38.2933146678546"
    },
    {
      "id": "pt.ine.add.PTCONT.418604",
      "street": "AV 1 MAIO",
      "house": "",
      "postcode": "7920-351",
      "city": "VILA NOVA DA BARONIA",
      "lon": "-8.035053297445742",
      "lat": "38.2933146678546"
    },
    {
      "id": "pt.ine.add.PTCONT.420995",
      "street": "R 25 DE ABRIL",
      "house": "6",
      "postcode": "7920-392",
      "city": "VILA NOVA DA BARONIA",
      "lon": "-8.035266082663513",
      "lat": "38.28808070664623"
    },
    {
      "id": "pt.ine.add.PTCONT.424023",
      "street": "R S NEUTEL",
      "house": "",
      "postcode": "7920-301",
      "city": "VILA NOVA DA BARONIA",
      "lon": "-8.035260966314782",
      "lat": "38.29189144421759"
    },
    {
      "id": "pt.ine.add.PTCONT.424275",
      "street": "R PROF EGAS MONIZ",
      "house": "1 B",
      "postcode": "7920-391",
      "city": "VILA NOVA DA BARONIA",
      "lon": "-8.03634875380779",
      "lat": "38.290486966727556"
    },
    {
      "id": "pt.ine.add.PTCONT.426741",
      "street": "R PROF EGAS MONIZ",
      "house": "37",
      "postcode": "7920-391",
      "city": "VILA NOVA DA BARONIA",
      "lon": "-8.036008142493479",
      "lat": "38.28875698677605"
    },
    {
      "id": "pt.ine.add.PTCONT.429040",
      "street": "QTA PONTE CARVALHA",
      "house": "",
      "postcode": "7920-301",
      "city": "VILA NOVA DA BARONIA",
      "lon": "-8.03278623538846",
      "lat": "38.28771825839286"
    },
    {
      "id": "pt.ine.add.PTCONT.429839",
      "street": "R PROF EGAS MONIZ",
      "house": "",
      "postcode": "7920-391",
      "city": "VILA NOVA DA BARONIA",
      "lon": "-8.0359400413785",
      "lat": "38.288396576466724"
    },
    {
      "id": "pt.ine.add.PTCONT.429843",
      "street": "R PROF EGAS MONIZ",
      "house": "6",
      "postcode": "7920-391",
      "city": "VILA NOVA DA BARONIA",
      "lon": "-8.03560746871098",
      "lat": "38.28921610570295"
    },
    {
      "id": "pt.ine.add.PTCONT.431001",
      "street": "BR CARDOSA",
      "house": "2",
      "postcode": "7920-352",
      "city": "VILA NOVA DA BARONIA",
      "lon": "-8.035637434022176",
      "lat": "38.292450305839544"
    },
    {
      "id": "pt.ine.add.PTCONT.433108",
      "street": "R 25 DE ABRIL",
      "house": "10",
      "postcode": "7920-392",
      "city": "VILA NOVA DA BARONIA",
      "lon": "-8.03583743406628",
      "lat": "38.28819829677206"
    },
    {
      "id": "pt.ine.add.PTCONT.437971",
      "street": "BR CARDOSA",
      "house": "12",
      "postcode": "7920-352",
      "city": "VILA NOVA DA BARONIA",
      "lon": "-8.034209398307752",
      "lat": "38.29184551825454"
    },
    {
      "id": "pt.ine.add.PTCONT.438299",
      "street": "BR CARDOSA",
      "house": "15",
      "postcode": "7920-352",
      "city": "VILA NOVA DA BARONIA",
      "lon": "-8.034381189012874",
      "lat": "38.29160242417948"
    },
    {
      "id": "pt.ine.add.PTCONT.439098",
      "street": "AV 1 DE MAIO",
      "house": "17",
      "postcode": "7920-351",
      "city": "VILA NOVA DA BARONIA",
      "lon": "-8.035351046664339",
      "lat": "38.29290951848577"
    },
    {
      "id": "pt.ine.add.PTCONT.441465",
      "street": "R PROF EGAS MONIZ",
      "house": "51",
      "postcode": "7920-391",
      "city": "VILA NOVA DA BARONIA",
      "lon": "-8.035951663736224",
      "lat": "38.288252444515095"
    },
    {
      "id": "pt.ine.add.PTCONT.443051",
      "street": "R PROF EGAS MONIZ",
      "house": "1",
      "postcode": "7920-391",
      "city": "VILA NOVA DA BARONIA",
      "lon": "-8.0366000107621",
      "lat": "38.290649332893885"
    },
    {
      "id": "pt.ine.add.PTCONT.443052",
      "street": "BR CARDOSA",
      "house": "4",
      "postcode": "7920-352",
      "city": "VILA NOVA DA BARONIA",
      "lon": "-8.035752007210895",
      "lat": "38.29225220644187"
    },
    {
      "id": "pt.ine.add.PTCONT.443056",
      "street": "BR CARDOSA",
      "house": "",
      "postcode": "7920-352",
      "city": "VILA NOVA DA BARONIA",
      "lon": "-8.03531760022177",
      "lat": "38.29227887167528"
    },
    {
      "id": "pt.ine.add.PTCONT.447080",
      "street": "SIT BURAQUINHO",
      "house": "",
      "postcode": "7920-301",
      "city": "VILA NOVA DA BARONIA",
      "lon": "-8.03299146973668",
      "lat": "38.28808779651696"
    },
    {
      "id": "pt.ine.add.PTCONT.450493",
      "street": "BR CARDOSA",
      "house": "5 HS",
      "postcode": "7920-352",
      "city": "VILA NOVA DA BARONIA",
      "lon": "-8.035809269513587",
      "lat": "38.29217117436359"
    },
    {
      "id": "pt.ine.add.PTCONT.450848",
      "street": "BR CARDOSA",
      "house": "16",
      "postcode": "7920-352",
      "city": "VILA NOVA DA BARONIA",
      "lon": "-8.034427009433372",
      "lat": "38.29153039198172"
    },
    {
      "id": "pt.ine.add.PTCONT.451822",
      "street": "BR CARDOSA",
      "house": "",
      "postcode": "7920-352",
      "city": "VILA NOVA DA BARONIA",
      "lon": "-8.035260325191151",
      "lat": "38.292368912343456"
    },
    {
      "id": "pt.ine.add.PTCONT.453627",
      "street": "AV 1 DE MAIO",
      "house": "17 B",
      "postcode": "7920-351",
      "city": "VILA NOVA DA BARONIA",
      "lon": "-8.035522811951633",
      "lat": "38.29268444044502"
    },
    {
      "id": "pt.ine.add.PTCONT.454357",
      "street": "R 25 DE ABRIL",
      "house": "",
      "postcode": "7920-392",
      "city": "VILA NOVA DA BARONIA",
      "lon": "-8.035265949626488",
      "lat": "38.28817980387219"
    }
  ]
}