{
  "data": {
    "distrito": "Viana do Castelo",
    "concelho": "Paredes de Coura",
    "freguesia": "Agualonga",
    "OBJECTID": 239,
    "BGRI2021": "16050100107",
    "DT21": "16",
    "DTMN21": "1605",
    "DTMNFR21": "160501",
    "DTMNFRSEC21": "160501001",
    "SECNUM21": "001",
    "SSNUM21": "07",
    "SECSSNUM21": "00107",
    "OBJECTID_1": 174501,
    "DT": "16",
    "CC": "05",
    "fr": "01",
    "SEC": "001",
    "SS": "07"
  },
  "addresses": [
    {
      "id": "pt.ine.add.PTCONT.5149915",
      "street": "",
      "house": "",
      "postcode": "4940-020",
      "city": "AGUALONGA",
      "lon": "-8.630750119396483",
      "lat": "41.881037756104135"
    },
    {
      "id": "pt.ine.add.PTCONT.5154465",
      "street": "",
      "house": "",
      "postcode": "4940-020",
      "city": "AGUALONGA",
      "lon": "-8.632559604358514",
      "lat": "41.87942760937408"
    },
    {
      "id": "pt.ine.add.PTCONT.5165893",
      "street": "",
      "house": "",
      "postcode": "4940-020",
      "city": "AGUALONGA",
      "lon": "-8.632039214275727",
      "lat": "41.87912376198571"
    },
    {
      "id": "pt.ine.add.PTCONT.5166970",
      "street": "",
      "house": "",
      "postcode": "4940-020",
      "city": "AGUALONGA",
      "lon": "-8.632475987624991",
      "lat": "41.881066558241486"
    },
    {
      "id": "pt.ine.add.PTCONT.5168086",
      "street": "",
      "house": "",
      "postcode": "4940-020",
      "city": "AGUALONGA",
      "lon": "-8.632768309925963",
      "lat": "41.878382328270106"
    },
    {
      "id": "pt.ine.add.PTCONT.5170547",
      "street": "CO DESSEIRA",
      "house": "",
      "postcode": "4940-020",
      "city": "AGUALONGA",
      "lon": "-8.632086350237307",
      "lat": "41.88053706216441"
    },
    {
      "id": "pt.ine.add.PTCONT.5176007",
      "street": "CODESSESRA",
      "house": "",
      "postcode": "4940-020",
      "city": "AGUALONGA",
      "lon": "-8.632239523851597",
      "lat": "41.8785466856281"
    },
    {
      "id": "pt.ine.add.PTCONT.5186369",
      "street": "",
      "house": "",
      "postcode": "4940-020",
      "city": "AGUALONGA",
      "lon": "-8.63194039038405",
      "lat": "41.87880907865937"
    },
    {
      "id": "pt.ine.add.PTCONT.5202076",
      "street": "",
      "house": "",
      "postcode": "4940-020",
      "city": "AGUALONGA",
      "lon": "-8.631764442900987",
      "lat": "41.88097061468594"
    },
    {
      "id": "pt.ine.add.PTCONT.5203264",
      "street": "COOESSGIRA",
      "house": "",
      "postcode": "4940-020",
      "city": "AGUALONGA",
      "lon": "-8.631604682923374",
      "lat": "41.880566163595084"
    },
    {
      "id": "pt.ine.add.PTCONT.5205170",
      "street": "CODESSEIRA",
      "house": "",
      "postcode": "4940-020",
      "city": "AGUALONGA",
      "lon": "-8.632142170794669",
      "lat": "41.87842106364421"
    },
    {
      "id": "pt.ine.add.PTCONT.5211937",
      "street": "",
      "house": "",
      "postcode": "4940-020",
      "city": "AGUALONGA",
      "lon": "-8.632107431964565",
      "lat": "41.878601278959685"
    },
    {
      "id": "pt.ine.add.PTCONT.5234098",
      "street": "",
      "house": "",
      "postcode": "4940-020",
      "city": "AGUALONGA",
      "lon": "-8.6327696424196",
      "lat": "41.87855338362203"
    },
    {
      "id": "pt.ine.add.PTCONT.5241246",
      "street": "",
      "house": "",
      "postcode": "4940-020",
      "city": "AGUALONGA",
      "lon": "-8.632647984910108",
      "lat": "41.878400858154336"
    },
    {
      "id": "pt.ine.add.PTCONT.5252892",
      "street": "",
      "house": "",
      "postcode": "4940-020",
      "city": "AGUALONGA",
      "lon": "-8.633361608797504",
      "lat": "41.878766883791876"
    },
    {
      "id": "pt.ine.add.PTCONT.5255190",
      "street": "CODESSGIRA",
      "house": "",
      "postcode": "4940-020",
      "city": "AGUALONGA",
      "lon": "-8.632085019688704",
      "lat": "41.878817453574655"
    },
    {
      "id": "pt.ine.add.PTCONT.5265497",
      "street": "",
      "house": "",
      "postcode": "4940-020",
      "city": "AGUALONGA",
      "lon": "-8.632230910050213",
      "lat": "41.878987880747076"
    }
  ]
}