{
  "data": {
    "distrito": "Aveiro",
    "concelho": "Oliveira de Azeméis",
    "freguesia": "Cesar",
    "OBJECTID": 743,
    "BGRI2021": "01130200206",
    "DT21": "01",
    "DTMN21": "0113",
    "DTMNFR21": "011302",
    "DTMNFRSEC21": "011302002",
    "SECNUM21": "002",
    "SSNUM21": "06",
    "SECSSNUM21": "00206",
    "OBJECTID_1": 8763,
    "DT": "01",
    "CC": "13",
    "fr": "02",
    "SEC": "002",
    "SS": "06"
  },
  "addresses": [
    {
      "id": "pt.ine.add.PTCONT.328323",
      "street": "R PRANCHA",
      "house": "39",
      "postcode": "3700-631",
      "city": "CESAR",
      "lon": "-8.441309920569383",
      "lat": "40.90963103067678"
    },
    {
      "id": "pt.ine.add.PTCONT.333629",
      "street": "R PRANCHA",
      "house": "7",
      "postcode": "3700-631",
      "city": "CESAR",
      "lon": "-8.441299556466523",
      "lat": "40.90995522967586"
    },
    {
      "id": "pt.ine.add.PTCONT.333630",
      "street": "R PRANCHA",
      "house": "7",
      "postcode": "3700-631",
      "city": "CESAR",
      "lon": "-8.441299556466523",
      "lat": "40.90995522967586"
    },
    {
      "id": "pt.ine.add.PTCONT.333631",
      "street": "R PRANCHA",
      "house": "7",
      "postcode": "3700-631",
      "city": "CESAR",
      "lon": "-8.441299556466523",
      "lat": "40.90995522967586"
    },
    {
      "id": "pt.ine.add.PTCONT.47192",
      "street": "R PRANCHA",
      "house": "19",
      "postcode": "3700-631",
      "city": "CESAR",
      "lon": "-8.441381805296883",
      "lat": "40.909774914680746"
    },
    {
      "id": "pt.ine.add.PTCONT.117917",
      "street": "R DO FONTENÁRIO",
      "house": "47",
      "postcode": "3700-624",
      "city": "CESAR",
      "lon": "-8.441049757587045",
      "lat": "40.9098388351069"
    },
    {
      "id": "pt.ine.add.PTCONT.117918",
      "street": "R ALTO DE MIRÕES",
      "house": "845 A",
      "postcode": "3700-624",
      "city": "CESAR",
      "lon": "-8.441049757587045",
      "lat": "40.9098388351069"
    },
    {
      "id": "pt.ine.add.PTCONT.198963",
      "street": "R ALTO DE MIROES",
      "house": "850",
      "postcode": "3700-618",
      "city": "CESAR",
      "lon": "-8.44144307591932",
      "lat": "40.910188969753456"
    },
    {
      "id": "pt.ine.add.PTCONT.201974",
      "street": "R MIROES",
      "house": "621",
      "postcode": "3700-621",
      "city": "CESAR",
      "lon": "-8.4409203227495",
      "lat": "40.910082309123986"
    },
    {
      "id": "pt.ine.add.PTCONT.245404",
      "street": "R MIROES",
      "house": "631",
      "postcode": "3700-621",
      "city": "CESAR",
      "lon": "-8.441027355731718",
      "lat": "40.91012704718241"
    },
    {
      "id": "pt.ine.add.PTCONT.265408",
      "street": "R MIROES",
      "house": "651",
      "postcode": "3700-621",
      "city": "CESAR",
      "lon": "-8.441253458715602",
      "lat": "40.910252509868386"
    }
  ]
}