{
  "data": {
    "distrito": "Viana do Castelo",
    "concelho": "Viana do Castelo",
    "freguesia": "Afife",
    "OBJECTID": 460,
    "BGRI2021": "16090100107",
    "DT21": "16",
    "DTMN21": "1609",
    "DTMNFR21": "160901",
    "DTMNFRSEC21": "160901001",
    "SECNUM21": "001",
    "SSNUM21": "07",
    "SECSSNUM21": "00107",
    "OBJECTID_1": 179035,
    "DT": "16",
    "CC": "09",
    "fr": "01",
    "SEC": "001",
    "SS": "07"
  },
  "addresses": [
    {
      "id": "pt.ine.add.PTCONT.5137744",
      "street": "CAM LAPA CASA DA LAPA",
      "house": "73",
      "postcode": "4900-012",
      "city": "AFIFE",
      "lon": "-8.855420650681024",
      "lat": "41.76927565636605"
    },
    {
      "id": "pt.ine.add.PTCONT.5141138",
      "street": "CAM VISO",
      "house": "74",
      "postcode": "4900-012",
      "city": "AFIFE",
      "lon": "-8.856920223510953",
      "lat": "41.770013496204584"
    },
    {
      "id": "pt.ine.add.PTCONT.5144158",
      "street": "CAM VISO",
      "house": "",
      "postcode": "4900-012",
      "city": "AFIFE",
      "lon": "-8.857135572957628",
      "lat": "41.769913102464606"
    },
    {
      "id": "pt.ine.add.PTCONT.5179052",
      "street": "CAM VISO",
      "house": "145",
      "postcode": "4900-012",
      "city": "AFIFE",
      "lon": "-8.854145707674391",
      "lat": "41.77033705646571"
    },
    {
      "id": "pt.ine.add.PTCONT.5185666",
      "street": "TV LAPA",
      "house": "116",
      "postcode": "4900-012",
      "city": "AFIFE",
      "lon": "-8.857250767459156",
      "lat": "41.76946220918964"
    },
    {
      "id": "pt.ine.add.PTCONT.5186791",
      "street": "CAM VISO",
      "house": "94",
      "postcode": "4900-012",
      "city": "AFIFE",
      "lon": "-8.856523576868833",
      "lat": "41.770034001167"
    },
    {
      "id": "pt.ine.add.PTCONT.5187333",
      "street": "CAM VISO CASA DO MAJOR",
      "house": "94",
      "postcode": "4900-012",
      "city": "AFIFE",
      "lon": "-8.856320352921069",
      "lat": "41.770143320775055"
    },
    {
      "id": "pt.ine.add.PTCONT.5189733",
      "street": "CAM LAPA",
      "house": "221",
      "postcode": "4900-012",
      "city": "AFIFE",
      "lon": "-8.854490723570281",
      "lat": "41.77000176684274"
    },
    {
      "id": "pt.ine.add.PTCONT.5199066",
      "street": "TV LAPA",
      "house": "66",
      "postcode": "4900-012",
      "city": "AFIFE",
      "lon": "-8.85651821597204",
      "lat": "41.76955685763629"
    },
    {
      "id": "pt.ine.add.PTCONT.5200721",
      "street": "CAM VISO",
      "house": "114",
      "postcode": "4900-012",
      "city": "AFIFE",
      "lon": "-8.856117330469145",
      "lat": "41.77027064544339"
    },
    {
      "id": "pt.ine.add.PTCONT.5212143",
      "street": "TV LAPA",
      "house": "74",
      "postcode": "4900-012",
      "city": "AFIFE",
      "lon": "-8.856888177228255",
      "lat": "41.76930243383054"
    },
    {
      "id": "pt.ine.add.PTCONT.5214528",
      "street": "TV LAPA",
      "house": "50",
      "postcode": "4900-012",
      "city": "AFIFE",
      "lon": "-8.856180992515528",
      "lat": "41.769513963809096"
    },
    {
      "id": "pt.ine.add.PTCONT.5219315",
      "street": "TV LAPA",
      "house": "116",
      "postcode": "4900-012",
      "city": "AFIFE",
      "lon": "-8.856952049878622",
      "lat": "41.76963515520185"
    },
    {
      "id": "pt.ine.add.PTCONT.5224341",
      "street": "TV LAPA",
      "house": "50",
      "postcode": "4900-012",
      "city": "AFIFE",
      "lon": "-8.85614289371559",
      "lat": "41.76933413667377"
    },
    {
      "id": "pt.ine.add.PTCONT.5241672",
      "street": "TV LAPA",
      "house": "50",
      "postcode": "4900-012",
      "city": "AFIFE",
      "lon": "-8.85626416082835",
      "lat": "41.76942340688125"
    },
    {
      "id": "pt.ine.add.PTCONT.5242763",
      "street": "CAM VISO",
      "house": "122",
      "postcode": "4900-012",
      "city": "AFIFE",
      "lon": "-8.855938358811116",
      "lat": "41.77039781843419"
    },
    {
      "id": "pt.ine.add.PTCONT.5248154",
      "street": "CAM VISO",
      "house": "80",
      "postcode": "4900-012",
      "city": "AFIFE",
      "lon": "-8.85664221549649",
      "lat": "41.76988920055082"
    },
    {
      "id": "pt.ine.add.PTCONT.5249790",
      "street": "CAM VISO",
      "house": "173",
      "postcode": "4900-012",
      "city": "AFIFE",
      "lon": "-8.855601939484792",
      "lat": "41.77042694461508"
    },
    {
      "id": "pt.ine.add.PTCONT.5264388",
      "street": "CAM LAPA",
      "house": "139",
      "postcode": "4900-012",
      "city": "AFIFE",
      "lon": "-8.854991161119036",
      "lat": "41.76958446958631"
    },
    {
      "id": "pt.ine.add.PTCONT.5269607",
      "street": "CAM VISO",
      "house": "",
      "postcode": "4900-012",
      "city": "AFIFE",
      "lon": "-8.854228577427333",
      "lat": "41.770219492857194"
    },
    {
      "id": "pt.ine.add.PTCONT.5270718",
      "street": "CAM LAPA",
      "house": "1",
      "postcode": "4900-012",
      "city": "AFIFE",
      "lon": "-8.856355511799347",
      "lat": "41.76899067123026"
    },
    {
      "id": "pt.ine.add.PTCONT.5273712",
      "street": "CAM VENDA CASA DA FONTE",
      "house": "",
      "postcode": "4900-012",
      "city": "AFIFE",
      "lon": "-8.854347725816744",
      "lat": "41.77011970813206"
    }
  ]
}