{
  "data": {
    "distrito": "Santarém",
    "concelho": "Ourém",
    "freguesia": "Nossa Senhora da Piedade",
    "OBJECTID": 1299,
    "BGRI2021": "14211500603",
    "DT21": "14",
    "DTMN21": "1421",
    "DTMNFR21": "142115",
    "DTMNFRSEC21": "142115006",
    "SECNUM21": "006",
    "SSNUM21": "03",
    "SECSSNUM21": "00603",
    "OBJECTID_1": 158876,
    "DT": "14",
    "CC": "21",
    "fr": "15",
    "SEC": "006",
    "SS": "03"
  },
  "addresses": [
    {
      "id": "pt.ine.add.PTCONT.4405107",
      "street": "AV D NUNO ÁLVARES PEREIRA",
      "house": "4O",
      "postcode": "2490-484",
      "city": "OURÉM",
      "lon": "-8.56975204374532",
      "lat": "39.65635034783098"
    },
    {
      "id": "pt.ine.add.PTCONT.4421617",
      "street": "AV D NUNO ÁLVARES PEREIRA",
      "house": "38",
      "postcode": "2490-484",
      "city": "OURÉM",
      "lon": "-8.5695893136316",
      "lat": "39.65641400627459"
    },
    {
      "id": "pt.ine.add.PTCONT.4423618",
      "street": "R CHARNEQUINHA",
      "house": "24",
      "postcode": "2490-531",
      "city": "OURÉM",
      "lon": "-8.56887040134512",
      "lat": "39.65697512015002"
    },
    {
      "id": "pt.ine.add.PTCONT.4450462",
      "street": "R CHARNEQUINHA",
      "house": "20",
      "postcode": "2490-531",
      "city": "OURÉM",
      "lon": "-8.568572027083915",
      "lat": "39.65770578058824"
    },
    {
      "id": "pt.ine.add.PTCONT.4462918",
      "street": "R CHARNEQUINHA",
      "house": "21",
      "postcode": "2490-531",
      "city": "OURÉM",
      "lon": "-8.568663943925193",
      "lat": "39.65749828221712"
    },
    {
      "id": "pt.ine.add.PTCONT.4467118",
      "street": "R CAP SALGUEIRO MAIA",
      "house": "44",
      "postcode": "2490-527",
      "city": "OURÉM",
      "lon": "-8.568970236178226",
      "lat": "39.65802852750513"
    },
    {
      "id": "pt.ine.add.PTCONT.4471170",
      "street": "AV D NUNO ÁLVARES PEREIRA",
      "house": "42",
      "postcode": "2490-484",
      "city": "OURÉM",
      "lon": "-8.569857024246838",
      "lat": "39.65636796649295"
    },
    {
      "id": "pt.ine.add.PTCONT.4475624",
      "street": "R LUÍS OLIVEIRA RITO",
      "house": "48",
      "postcode": "2490-558",
      "city": "OURÉM",
      "lon": "-8.569808683441387",
      "lat": "39.65794431791298"
    },
    {
      "id": "pt.ine.add.PTCONT.4537471",
      "street": "R LUIS OLIVEIRA RITO",
      "house": "26",
      "postcode": "2490-558",
      "city": "OURÉM",
      "lon": "-8.569702623894559",
      "lat": "39.657755576300836"
    },
    {
      "id": "pt.ine.add.PTCONT.4547072",
      "street": "R CHARNEQUINHA",
      "house": "33",
      "postcode": "2490-531",
      "city": "OURÉM",
      "lon": "-8.568643409639792",
      "lat": "39.65793968669318"
    },
    {
      "id": "pt.ine.add.PTCONT.4566544",
      "street": "R DR JOÃO SILVA NEVES SOUSA ALVIM",
      "house": "44",
      "postcode": "2490-549",
      "city": "OURÉM",
      "lon": "-8.56973984717726",
      "lat": "39.658115703675584"
    },
    {
      "id": "pt.ine.add.PTCONT.4602094",
      "street": "R CHARNEQUINHA",
      "house": "",
      "postcode": "2490-531",
      "city": "OURÉM",
      "lon": "-8.569335858941097",
      "lat": "39.65687429939"
    },
    {
      "id": "pt.ine.add.PTCONT.4624809",
      "street": "R CHARNEQUINHA",
      "house": "22",
      "postcode": "2490-531",
      "city": "OURÉM",
      "lon": "-8.568732895333659",
      "lat": "39.65734491000608"
    },
    {
      "id": "pt.ine.add.PTCONT.4649813",
      "street": "R LUIS OLIVEIRA RITO",
      "house": "16",
      "postcode": "2490-558",
      "city": "OURÉM",
      "lon": "-8.56973622021593",
      "lat": "39.65753928961607"
    }
  ]
}