{
  "data": {
    "distrito": "Santarém",
    "concelho": "Tomar",
    "freguesia": "União das freguesias de Serra e Junceira",
    "OBJECTID": 598,
    "BGRI2021": "14182000413",
    "DT21": "14",
    "DTMN21": "1418",
    "DTMNFR21": "141820",
    "DTMNFRSEC21": "141820004",
    "SECNUM21": "004",
    "SSNUM21": "13",
    "SECSSNUM21": "00413",
    "OBJECTID_1": 156567,
    "DT": "14",
    "CC": "18",
    "fr": "20",
    "SEC": "004",
    "SS": "13"
  },
  "addresses": [
    {
      "id": "pt.ine.add.PTCONT.4408061",
      "street": "CASA DALDEIA",
      "house": "10",
      "postcode": "2300-260",
      "city": "SERRA",
      "lon": "-8.293633592737654",
      "lat": "39.57236930032257"
    },
    {
      "id": "pt.ine.add.PTCONT.4414993",
      "street": "",
      "house": "",
      "postcode": "2300-260",
      "city": "SERRA",
      "lon": "-8.293821300096896",
      "lat": "39.57301753462835"
    },
    {
      "id": "pt.ine.add.PTCONT.4414994",
      "street": "VENDA",
      "house": "12",
      "postcode": "2300-260",
      "city": "SERRA",
      "lon": "-8.293552499566703",
      "lat": "39.572531535749015"
    },
    {
      "id": "pt.ine.add.PTCONT.4420846",
      "street": "",
      "house": "",
      "postcode": "2300-260",
      "city": "SERRA",
      "lon": "-8.293365957318741",
      "lat": "39.57238768341336"
    },
    {
      "id": "pt.ine.add.PTCONT.4443753",
      "street": "VENDA",
      "house": "18",
      "postcode": "2300-260",
      "city": "SERRA",
      "lon": "-8.294031621273104",
      "lat": "39.57337751784776"
    },
    {
      "id": "pt.ine.add.PTCONT.4445555",
      "street": "VENDA",
      "house": "8",
      "postcode": "2300-260",
      "city": "SERRA",
      "lon": "-8.293109690732763",
      "lat": "39.572288961081334"
    },
    {
      "id": "pt.ine.add.PTCONT.4445556",
      "street": "SEM DESIGNACAO",
      "house": "8 A",
      "postcode": "2300-260",
      "city": "SERRA",
      "lon": "-8.293109690732763",
      "lat": "39.572288961081334"
    },
    {
      "id": "pt.ine.add.PTCONT.4451802",
      "street": "CASA DO BACELO DA FONTE",
      "house": "",
      "postcode": "2300-260",
      "city": "SERRA",
      "lon": "-8.292188962372547",
      "lat": "39.571713786124306"
    },
    {
      "id": "pt.ine.add.PTCONT.4542777",
      "street": "VENDA",
      "house": "7",
      "postcode": "2300-260",
      "city": "SERRA",
      "lon": "-8.29326113126236",
      "lat": "39.57235180048823"
    },
    {
      "id": "pt.ine.add.PTCONT.4505899",
      "street": "",
      "house": "",
      "postcode": "2300-260",
      "city": "SERRA",
      "lon": "-8.292562039165727",
      "lat": "39.57200149432012"
    },
    {
      "id": "pt.ine.add.PTCONT.4512691",
      "street": "",
      "house": "",
      "postcode": "2300-260",
      "city": "SERRA",
      "lon": "-8.294206862789393",
      "lat": "39.573665494450054"
    },
    {
      "id": "pt.ine.add.PTCONT.4530202",
      "street": "",
      "house": "",
      "postcode": "2300-260",
      "city": "SERRA",
      "lon": "-8.293622889297351",
      "lat": "39.57277462370108"
    },
    {
      "id": "pt.ine.add.PTCONT.4605757",
      "street": "",
      "house": "",
      "postcode": "2300-260",
      "city": "SERRA",
      "lon": "-8.293645459373403",
      "lat": "39.57246835936746"
    },
    {
      "id": "pt.ine.add.PTCONT.4644595",
      "street": "",
      "house": "",
      "postcode": "2300-260",
      "city": "SERRA",
      "lon": "-8.293587725519766",
      "lat": "39.572666589975036"
    }
  ]
}