{
  "data": {
    "distrito": "Lisboa",
    "concelho": "Lisboa",
    "freguesia": "Santa Clara",
    "OBJECTID": 2799,
    "BGRI2021": "11066401802",
    "DT21": "11",
    "DTMN21": "1106",
    "DTMNFR21": "110664",
    "DTMNFRSEC21": "110664018",
    "SECNUM21": "018",
    "SSNUM21": "02",
    "SECSSNUM21": "01802",
    "OBJECTID_1": 103142,
    "DT": "11",
    "CC": "06",
    "fr": "64",
    "SEC": "018",
    "SS": "02"
  },
  "addresses": [
    {
      "id": "pt.ine.add.PTCONT.2274609",
      "street": "R BRUNILDE JUDICE",
      "house": "",
      "postcode": "1750-045",
      "city": "LISBOA",
      "lon": "-9.15587218603477",
      "lat": "38.78974090772014"
    },
    {
      "id": "pt.ine.add.PTCONT.2274845",
      "street": "R CONSTANCA CAPDEVILLE",
      "house": "",
      "postcode": "1750-070",
      "city": "LISBOA",
      "lon": "-9.156000885443165",
      "lat": "38.78908221420255"
    },
    {
      "id": "pt.ine.add.PTCONT.2274846",
      "street": "R CONSTANCA CAPDEVILLE",
      "house": "",
      "postcode": "1750-070",
      "city": "LISBOA",
      "lon": "-9.156000885443165",
      "lat": "38.78908221420255"
    },
    {
      "id": "pt.ine.add.PTCONT.2296869",
      "street": "R BRUNILDE JUDICE",
      "house": "",
      "postcode": "1750-045",
      "city": "LISBOA",
      "lon": "-9.155884981101048",
      "lat": "38.789830873381504"
    },
    {
      "id": "pt.ine.add.PTCONT.2296870",
      "street": "R BRUNILDE JUDICE",
      "house": "",
      "postcode": "1750-045",
      "city": "LISBOA",
      "lon": "-9.155884981101048",
      "lat": "38.789830873381504"
    },
    {
      "id": "pt.ine.add.PTCONT.2296871",
      "street": "R BRUNILDE JUDICE",
      "house": "",
      "postcode": "1750-045",
      "city": "LISBOA",
      "lon": "-9.155884981101048",
      "lat": "38.789830873381504"
    },
    {
      "id": "pt.ine.add.PTCONT.2296881",
      "street": "R BRUNILDE JUDICE",
      "house": "",
      "postcode": "1750-045",
      "city": "LISBOA",
      "lon": "-9.155884981101048",
      "lat": "38.789830873381504"
    },
    {
      "id": "pt.ine.add.PTCONT.2296882",
      "street": "R BRUNILDE JUDICE",
      "house": "",
      "postcode": "1750-045",
      "city": "LISBOA",
      "lon": "-9.155884981101048",
      "lat": "38.789830873381504"
    },
    {
      "id": "pt.ine.add.PTCONT.2296883",
      "street": "R BRUNILDE JUDICE",
      "house": "",
      "postcode": "1750-045",
      "city": "LISBOA",
      "lon": "-9.155884981101048",
      "lat": "38.789830873381504"
    },
    {
      "id": "pt.ine.add.PTCONT.2296884",
      "street": "R BRUNILDE JUDICE",
      "house": "",
      "postcode": "1750-045",
      "city": "LISBOA",
      "lon": "-9.155884981101048",
      "lat": "38.789830873381504"
    },
    {
      "id": "pt.ine.add.PTCONT.2296885",
      "street": "R BRUNILDE JUDICE",
      "house": "",
      "postcode": "1750-045",
      "city": "LISBOA",
      "lon": "-9.155884981101048",
      "lat": "38.789830873381504"
    },
    {
      "id": "pt.ine.add.PTCONT.2296886",
      "street": "R BRUNILDE JUDICE",
      "house": "",
      "postcode": "1750-045",
      "city": "LISBOA",
      "lon": "-9.155884981101048",
      "lat": "38.789830873381504"
    },
    {
      "id": "pt.ine.add.PTCONT.2305757",
      "street": "R BRUNILDE JUDICE",
      "house": "1",
      "postcode": "1750-045",
      "city": "LISBOA",
      "lon": "-9.1557474544143",
      "lat": "38.78906641695159"
    },
    {
      "id": "pt.ine.add.PTCONT.2305758",
      "street": "R BRUNILDE JUDICE",
      "house": "",
      "postcode": "1750-045",
      "city": "LISBOA",
      "lon": "-9.1557474544143",
      "lat": "38.78906641695159"
    },
    {
      "id": "pt.ine.add.PTCONT.2332790",
      "street": "R CONSTANCA CAPDEVILLE",
      "house": "",
      "postcode": "1750-070",
      "city": "LISBOA",
      "lon": "-9.156171315260039",
      "lat": "38.788927590085535"
    },
    {
      "id": "pt.ine.add.PTCONT.2332791",
      "street": "R CONSTANCA CAPDEVILLE",
      "house": "",
      "postcode": "1750-070",
      "city": "LISBOA",
      "lon": "-9.156171315260039",
      "lat": "38.788927590085535"
    },
    {
      "id": "pt.ine.add.PTCONT.2332792",
      "street": "R CONSTANCA CAPDEVILLE",
      "house": "",
      "postcode": "1750-070",
      "city": "LISBOA",
      "lon": "-9.156171315260039",
      "lat": "38.788927590085535"
    },
    {
      "id": "pt.ine.add.PTCONT.2332793",
      "street": "R CONSTANCA CAPDEVILLE",
      "house": "",
      "postcode": "1750-070",
      "city": "LISBOA",
      "lon": "-9.156171315260039",
      "lat": "38.788927590085535"
    },
    {
      "id": "pt.ine.add.PTCONT.2338580",
      "street": "R CONSTANCA CAPDEVILLE",
      "house": "",
      "postcode": "1750-070",
      "city": "LISBOA",
      "lon": "-9.156171315260039",
      "lat": "38.788927590085535"
    },
    {
      "id": "pt.ine.add.PTCONT.2340695",
      "street": "R CONSTANCA CAPDEVILLE",
      "house": "",
      "postcode": "1750-070",
      "city": "LISBOA",
      "lon": "-9.156171315260039",
      "lat": "38.788927590085535"
    },
    {
      "id": "pt.ine.add.PTCONT.2371265",
      "street": "R CONSTANCA CAPDEVILLE",
      "house": "",
      "postcode": "1750-070",
      "city": "LISBOA",
      "lon": "-9.156197549556955",
      "lat": "38.78915255455454"
    },
    {
      "id": "pt.ine.add.PTCONT.2371266",
      "street": "R CONSTANCA CAPDEVILLE",
      "house": "",
      "postcode": "1750-070",
      "city": "LISBOA",
      "lon": "-9.156197549556955",
      "lat": "38.78915255455454"
    },
    {
      "id": "pt.ine.add.PTCONT.2371267",
      "street": "R CONSTANCA CAPDEVILLE",
      "house": "",
      "postcode": "1750-070",
      "city": "LISBOA",
      "lon": "-9.156197549556955",
      "lat": "38.78915255455454"
    },
    {
      "id": "pt.ine.add.PTCONT.2371372",
      "street": "R CONSTANCA CAPDEVILLE",
      "house": "",
      "postcode": "1750-070",
      "city": "LISBOA",
      "lon": "-9.156197549556955",
      "lat": "38.78915255455454"
    },
    {
      "id": "pt.ine.add.PTCONT.2371373",
      "street": "R CONSTANCA CAPDEVILLE",
      "house": "",
      "postcode": "1750-070",
      "city": "LISBOA",
      "lon": "-9.156197549556955",
      "lat": "38.78915255455454"
    },
    {
      "id": "pt.ine.add.PTCONT.2371374",
      "street": "R CONSTANCA CAPDEVILLE",
      "house": "",
      "postcode": "1750-070",
      "city": "LISBOA",
      "lon": "-9.156197549556955",
      "lat": "38.78915255455454"
    },
    {
      "id": "pt.ine.add.PTCONT.2371375",
      "street": "R CONSTANCA CAPDEVILLE",
      "house": "",
      "postcode": "1750-070",
      "city": "LISBOA",
      "lon": "-9.156197549556955",
      "lat": "38.78915255455454"
    },
    {
      "id": "pt.ine.add.PTCONT.2404553",
      "street": "R CONSTANCA CAPDEVILLE",
      "house": "",
      "postcode": "1750-070",
      "city": "LISBOA",
      "lon": "-9.15609264026951",
      "lat": "38.789865086588065"
    },
    {
      "id": "pt.ine.add.PTCONT.2404554",
      "street": "R CONSTANCA CAPDEVILLE",
      "house": "",
      "postcode": "1750-070",
      "city": "LISBOA",
      "lon": "-9.15609264026951",
      "lat": "38.789865086588065"
    },
    {
      "id": "pt.ine.add.PTCONT.2404555",
      "street": "R CONSTANCA CAPDEVILLE",
      "house": "",
      "postcode": "1750-070",
      "city": "LISBOA",
      "lon": "-9.15609264026951",
      "lat": "38.789865086588065"
    },
    {
      "id": "pt.ine.add.PTCONT.2404556",
      "street": "R CONSTANCA CAPDEVILLE",
      "house": "",
      "postcode": "1750-070",
      "city": "LISBOA",
      "lon": "-9.15609264026951",
      "lat": "38.789865086588065"
    },
    {
      "id": "pt.ine.add.PTCONT.2404557",
      "street": "R CONSTANCA CAPDEVILLE",
      "house": "",
      "postcode": "1750-070",
      "city": "LISBOA",
      "lon": "-9.15609264026951",
      "lat": "38.789865086588065"
    },
    {
      "id": "pt.ine.add.PTCONT.2404558",
      "street": "R CONSTANCA CAPDEVILLE",
      "house": "",
      "postcode": "1750-070",
      "city": "LISBOA",
      "lon": "-9.15609264026951",
      "lat": "38.789865086588065"
    },
    {
      "id": "pt.ine.add.PTCONT.2404559",
      "street": "R CONSTANCA CAPDEVILLE",
      "house": "",
      "postcode": "1750-070",
      "city": "LISBOA",
      "lon": "-9.15609264026951",
      "lat": "38.789865086588065"
    },
    {
      "id": "pt.ine.add.PTCONT.2404560",
      "street": "R CONSTANCA CAPDEVILLE",
      "house": "",
      "postcode": "1750-070",
      "city": "LISBOA",
      "lon": "-9.15609264026951",
      "lat": "38.789865086588065"
    },
    {
      "id": "pt.ine.add.PTCONT.2404561",
      "street": "R CONSTANCA CAPDEVILLE",
      "house": "",
      "postcode": "1750-070",
      "city": "LISBOA",
      "lon": "-9.15609264026951",
      "lat": "38.789865086588065"
    },
    {
      "id": "pt.ine.add.PTCONT.2404562",
      "street": "R CONSTANCA CAPDEVILLE",
      "house": "",
      "postcode": "1750-070",
      "city": "LISBOA",
      "lon": "-9.15609264026951",
      "lat": "38.789865086588065"
    },
    {
      "id": "pt.ine.add.PTCONT.2404563",
      "street": "R CONSTANCA CAPDEVILLE",
      "house": "",
      "postcode": "1750-070",
      "city": "LISBOA",
      "lon": "-9.15609264026951",
      "lat": "38.789865086588065"
    },
    {
      "id": "pt.ine.add.PTCONT.2404564",
      "street": "R CONSTANCA CAPDEVILLE",
      "house": "",
      "postcode": "1750-070",
      "city": "LISBOA",
      "lon": "-9.15609264026951",
      "lat": "38.789865086588065"
    },
    {
      "id": "pt.ine.add.PTCONT.2404565",
      "street": "R CONSTANCA CAPDEVILLE",
      "house": "",
      "postcode": "1750-070",
      "city": "LISBOA",
      "lon": "-9.15609264026951",
      "lat": "38.789865086588065"
    },
    {
      "id": "pt.ine.add.PTCONT.2404566",
      "street": "R CONSTANCA CAPDEVILLE",
      "house": "",
      "postcode": "1750-070",
      "city": "LISBOA",
      "lon": "-9.15609264026951",
      "lat": "38.789865086588065"
    },
    {
      "id": "pt.ine.add.PTCONT.2404911",
      "street": "R CONSTANCA CAPDEVILLE",
      "house": "",
      "postcode": "1750-070",
      "city": "LISBOA",
      "lon": "-9.15609264026951",
      "lat": "38.789865086588065"
    },
    {
      "id": "pt.ine.add.PTCONT.2424603",
      "street": "R BRUNILDE JUDICE",
      "house": "31",
      "postcode": "1750-045",
      "city": "LISBOA",
      "lon": "-9.15591674953401",
      "lat": "38.79044312333859"
    },
    {
      "id": "pt.ine.add.PTCONT.2424604",
      "street": "R BRUNILDE JUDICE",
      "house": "31",
      "postcode": "1750-045",
      "city": "LISBOA",
      "lon": "-9.15591674953401",
      "lat": "38.79044312333859"
    },
    {
      "id": "pt.ine.add.PTCONT.2424605",
      "street": "R BRUNILDE JUDICE",
      "house": "31",
      "postcode": "1750-045",
      "city": "LISBOA",
      "lon": "-9.15591674953401",
      "lat": "38.79044312333859"
    },
    {
      "id": "pt.ine.add.PTCONT.2424606",
      "street": "R BRUNILDE JUDICE",
      "house": "31",
      "postcode": "1750-045",
      "city": "LISBOA",
      "lon": "-9.15591674953401",
      "lat": "38.79044312333859"
    },
    {
      "id": "pt.ine.add.PTCONT.2424607",
      "street": "R BRUNILDE JUDICE",
      "house": "31",
      "postcode": "1750-045",
      "city": "LISBOA",
      "lon": "-9.15591674953401",
      "lat": "38.79044312333859"
    },
    {
      "id": "pt.ine.add.PTCONT.2424608",
      "street": "R BRUNILDE JUDICE",
      "house": "31",
      "postcode": "1750-045",
      "city": "LISBOA",
      "lon": "-9.15591674953401",
      "lat": "38.79044312333859"
    },
    {
      "id": "pt.ine.add.PTCONT.2424616",
      "street": "R CONSTANCA CAPDEVILLE",
      "house": "",
      "postcode": "1750-070",
      "city": "LISBOA",
      "lon": "-9.156127242795508",
      "lat": "38.790675482480914"
    },
    {
      "id": "pt.ine.add.PTCONT.2424617",
      "street": "R CONSTANCA CAPDEVILLE",
      "house": "",
      "postcode": "1750-070",
      "city": "LISBOA",
      "lon": "-9.156127242795508",
      "lat": "38.790675482480914"
    },
    {
      "id": "pt.ine.add.PTCONT.2424618",
      "street": "R CONSTANCA CAPDEVILLE",
      "house": "",
      "postcode": "1750-070",
      "city": "LISBOA",
      "lon": "-9.156127242795508",
      "lat": "38.790675482480914"
    },
    {
      "id": "pt.ine.add.PTCONT.2424619",
      "street": "R CONSTANCA CAPDEVILLE",
      "house": "",
      "postcode": "1750-070",
      "city": "LISBOA",
      "lon": "-9.156127242795508",
      "lat": "38.790675482480914"
    },
    {
      "id": "pt.ine.add.PTCONT.2424620",
      "street": "R CONSTANCA CAPDEVILLE",
      "house": "",
      "postcode": "1750-070",
      "city": "LISBOA",
      "lon": "-9.156127242795508",
      "lat": "38.790675482480914"
    },
    {
      "id": "pt.ine.add.PTCONT.2424621",
      "street": "R CONSTANCA CAPDEVILLE",
      "house": "",
      "postcode": "1750-070",
      "city": "LISBOA",
      "lon": "-9.156127242795508",
      "lat": "38.790675482480914"
    },
    {
      "id": "pt.ine.add.PTCONT.2429970",
      "street": "R CONSTANCA CAPDEVILLE",
      "house": "",
      "postcode": "1750-070",
      "city": "LISBOA",
      "lon": "-9.156127242795508",
      "lat": "38.790675482480914"
    },
    {
      "id": "pt.ine.add.PTCONT.2430197",
      "street": "R CONSTANCA CAPDEVILLE",
      "house": "",
      "postcode": "1750-070",
      "city": "LISBOA",
      "lon": "-9.156127242795508",
      "lat": "38.790675482480914"
    },
    {
      "id": "pt.ine.add.PTCONT.2433130",
      "street": "R CONSTANCA CAPDEVILLE",
      "house": "",
      "postcode": "1750-070",
      "city": "LISBOA",
      "lon": "-9.156020168342826",
      "lat": "38.78882082015567"
    },
    {
      "id": "pt.ine.add.PTCONT.2460488",
      "street": "R BRUNILDE JUDICE",
      "house": "",
      "postcode": "1750-045",
      "city": "LISBOA",
      "lon": "-9.155732986789369",
      "lat": "38.78885936492705"
    },
    {
      "id": "pt.ine.add.PTCONT.2460489",
      "street": "R BRUNILDE JUDICE",
      "house": "",
      "postcode": "1750-045",
      "city": "LISBOA",
      "lon": "-9.155732986789369",
      "lat": "38.78885936492705"
    },
    {
      "id": "pt.ine.add.PTCONT.2460490",
      "street": "R NSA SRA ENCARNACAO",
      "house": "",
      "postcode": "1750-207",
      "city": "LISBOA",
      "lon": "-9.155732986789369",
      "lat": "38.78885936492705"
    },
    {
      "id": "pt.ine.add.PTCONT.2465754",
      "street": "R BRUNILDE JUDICE",
      "house": "",
      "postcode": "1750-045",
      "city": "LISBOA",
      "lon": "-9.155732986789369",
      "lat": "38.78885936492705"
    },
    {
      "id": "pt.ine.add.PTCONT.2478334",
      "street": "R NSA SRA DA ENCARNAÇÃO",
      "house": "",
      "postcode": "1750-207",
      "city": "LISBOA",
      "lon": "-9.155916726390146",
      "lat": "38.788830733432384"
    },
    {
      "id": "pt.ine.add.PTCONT.2491322",
      "street": "R CONSTANCA CAPDEVILLE",
      "house": "",
      "postcode": "1750-070",
      "city": "LISBOA",
      "lon": "-9.156105049432394",
      "lat": "38.78992803230437"
    },
    {
      "id": "pt.ine.add.PTCONT.2491323",
      "street": "R CONSTANCA CAPDEVILLE",
      "house": "",
      "postcode": "1750-070",
      "city": "LISBOA",
      "lon": "-9.156105049432394",
      "lat": "38.78992803230437"
    },
    {
      "id": "pt.ine.add.PTCONT.2491324",
      "street": "R CONSTANCA CAPDEVILLE",
      "house": "",
      "postcode": "1750-070",
      "city": "LISBOA",
      "lon": "-9.156105049432394",
      "lat": "38.78992803230437"
    },
    {
      "id": "pt.ine.add.PTCONT.2493621",
      "street": "R CONSTANCA CAPDEVILLE",
      "house": "",
      "postcode": "1750-070",
      "city": "LISBOA",
      "lon": "-9.156105049432394",
      "lat": "38.78992803230437"
    },
    {
      "id": "pt.ine.add.PTCONT.2493852",
      "street": "R CONSTANCA CAPDEVILLE",
      "house": "",
      "postcode": "1750-070",
      "city": "LISBOA",
      "lon": "-9.156105049432394",
      "lat": "38.78992803230437"
    },
    {
      "id": "pt.ine.add.PTCONT.2542102",
      "street": "R CONSTANCA CAPDEVILLE",
      "house": "",
      "postcode": "1750-070",
      "city": "LISBOA",
      "lon": "-9.156212147348766",
      "lat": "38.78936861313111"
    },
    {
      "id": "pt.ine.add.PTCONT.2542103",
      "street": "R CONSTANCA CAPDEVILLE",
      "house": "",
      "postcode": "1750-070",
      "city": "LISBOA",
      "lon": "-9.156212147348766",
      "lat": "38.78936861313111"
    },
    {
      "id": "pt.ine.add.PTCONT.2542104",
      "street": "R CONSTANCA CAPDEVILLE",
      "house": "",
      "postcode": "1750-070",
      "city": "LISBOA",
      "lon": "-9.156212147348766",
      "lat": "38.78936861313111"
    },
    {
      "id": "pt.ine.add.PTCONT.2542105",
      "street": "R CONSTANCA CAPDEVILLE",
      "house": "",
      "postcode": "1750-070",
      "city": "LISBOA",
      "lon": "-9.156212147348766",
      "lat": "38.78936861313111"
    },
    {
      "id": "pt.ine.add.PTCONT.2542114",
      "street": "R CONSTANCA CAPDEVILLE",
      "house": "",
      "postcode": "1750-070",
      "city": "LISBOA",
      "lon": "-9.156212147348766",
      "lat": "38.78936861313111"
    },
    {
      "id": "pt.ine.add.PTCONT.2550261",
      "street": "R CONSTANCA CAPDEVILLE",
      "house": "",
      "postcode": "1750-070",
      "city": "LISBOA",
      "lon": "-9.156212147348766",
      "lat": "38.78936861313111"
    },
    {
      "id": "pt.ine.add.PTCONT.2559980",
      "street": "AZ TORRINHA",
      "house": "2",
      "postcode": "1750-299",
      "city": "LISBOA",
      "lon": "-9.156571855609174",
      "lat": "38.78957264161587"
    },
    {
      "id": "pt.ine.add.PTCONT.2583948",
      "street": "R CONSTANCA CAPDEVILLE",
      "house": "",
      "postcode": "1750-070",
      "city": "LISBOA",
      "lon": "-9.156173375089441",
      "lat": "38.78907169631888"
    },
    {
      "id": "pt.ine.add.PTCONT.2587119",
      "street": "R CONSTANCA CAPDEVILLE",
      "house": "",
      "postcode": "1750-070",
      "city": "LISBOA",
      "lon": "-9.15615816238371",
      "lat": "38.79042299436246"
    },
    {
      "id": "pt.ine.add.PTCONT.2641557",
      "street": "R CONSTANCA CAPDEVILLE",
      "house": "",
      "postcode": "1750-070",
      "city": "LISBOA",
      "lon": "-9.15592009611247",
      "lat": "38.79067729592367"
    },
    {
      "id": "pt.ine.add.PTCONT.2641558",
      "street": "R CONSTANCA CAPDEVILLE",
      "house": "",
      "postcode": "1750-070",
      "city": "LISBOA",
      "lon": "-9.15592009611247",
      "lat": "38.79067729592367"
    },
    {
      "id": "pt.ine.add.PTCONT.2641559",
      "street": "R CONSTANCA CAPDEVILLE",
      "house": "",
      "postcode": "1750-070",
      "city": "LISBOA",
      "lon": "-9.15592009611247",
      "lat": "38.79067729592367"
    },
    {
      "id": "pt.ine.add.PTCONT.2647782",
      "street": "R CONSTANCA CAPDEVILLE",
      "house": "MS",
      "postcode": "1750-070",
      "city": "LISBOA",
      "lon": "-9.156237995715424",
      "lat": "38.78956655765473"
    },
    {
      "id": "pt.ine.add.PTCONT.2647783",
      "street": "R CONSTANCA CAPDEVILLE",
      "house": "MS",
      "postcode": "1750-070",
      "city": "LISBOA",
      "lon": "-9.156237995715424",
      "lat": "38.78956655765473"
    },
    {
      "id": "pt.ine.add.PTCONT.2647784",
      "street": "R CONSTANCA CAPDEVILLE",
      "house": "MS",
      "postcode": "1750-070",
      "city": "LISBOA",
      "lon": "-9.156237995715424",
      "lat": "38.78956655765473"
    },
    {
      "id": "pt.ine.add.PTCONT.2647791",
      "street": "R CONSTANCA CAPDEVILLE",
      "house": "MS",
      "postcode": "1750-070",
      "city": "LISBOA",
      "lon": "-9.156237995715424",
      "lat": "38.78956655765473"
    },
    {
      "id": "pt.ine.add.PTCONT.2647792",
      "street": "R CONSTANCA CAPDEVILLE",
      "house": "MS",
      "postcode": "1750-070",
      "city": "LISBOA",
      "lon": "-9.156237995715424",
      "lat": "38.78956655765473"
    },
    {
      "id": "pt.ine.add.PTCONT.2647793",
      "street": "R CONSTANCA CAPDEVILLE",
      "house": "MS",
      "postcode": "1750-070",
      "city": "LISBOA",
      "lon": "-9.156237995715424",
      "lat": "38.78956655765473"
    },
    {
      "id": "pt.ine.add.PTCONT.2647794",
      "street": "R CONSTANCA CAPDEVILLE",
      "house": "MS",
      "postcode": "1750-070",
      "city": "LISBOA",
      "lon": "-9.156237995715424",
      "lat": "38.78956655765473"
    },
    {
      "id": "pt.ine.add.PTCONT.2647795",
      "street": "R CONSTANCA CAPDEVILLE",
      "house": "MS",
      "postcode": "1750-070",
      "city": "LISBOA",
      "lon": "-9.156237995715424",
      "lat": "38.78956655765473"
    },
    {
      "id": "pt.ine.add.PTCONT.2647796",
      "street": "R CONSTANCA CAPDEVILLE",
      "house": "MS",
      "postcode": "1750-070",
      "city": "LISBOA",
      "lon": "-9.156237995715424",
      "lat": "38.78956655765473"
    },
    {
      "id": "pt.ine.add.PTCONT.2667116",
      "street": "R CONSTANCA CAPDEVILLE",
      "house": "",
      "postcode": "1750-070",
      "city": "LISBOA",
      "lon": "-9.156023669456324",
      "lat": "38.79067638924818"
    },
    {
      "id": "pt.ine.add.PTCONT.2686864",
      "street": "AZ TORRINHA",
      "house": "",
      "postcode": "1750-299",
      "city": "LISBOA",
      "lon": "-9.156226923410916",
      "lat": "38.78879198668886"
    },
    {
      "id": "pt.ine.add.PTCONT.2686865",
      "street": "AZ TORRINHA",
      "house": "",
      "postcode": "1750-299",
      "city": "LISBOA",
      "lon": "-9.156226923410916",
      "lat": "38.78879198668886"
    },
    {
      "id": "pt.ine.add.PTCONT.2686866",
      "street": "AZ TORRINHA",
      "house": "",
      "postcode": "1750-299",
      "city": "LISBOA",
      "lon": "-9.156226923410916",
      "lat": "38.78879198668886"
    },
    {
      "id": "pt.ine.add.PTCONT.2686867",
      "street": "AZ TORRINHA",
      "house": "",
      "postcode": "1750-299",
      "city": "LISBOA",
      "lon": "-9.156226923410916",
      "lat": "38.78879198668886"
    },
    {
      "id": "pt.ine.add.PTCONT.2686868",
      "street": "AZ TORRINHA",
      "house": "",
      "postcode": "1750-299",
      "city": "LISBOA",
      "lon": "-9.156226923410916",
      "lat": "38.78879198668886"
    },
    {
      "id": "pt.ine.add.PTCONT.2686869",
      "street": "AZ TORRINHA",
      "house": "",
      "postcode": "1750-299",
      "city": "LISBOA",
      "lon": "-9.156226923410916",
      "lat": "38.78879198668886"
    },
    {
      "id": "pt.ine.add.PTCONT.2689902",
      "street": "AZ TORRINHA",
      "house": "",
      "postcode": "1750-299",
      "city": "LISBOA",
      "lon": "-9.156226923410916",
      "lat": "38.78879198668886"
    },
    {
      "id": "pt.ine.add.PTCONT.2692522",
      "street": "AZ TORRINHA",
      "house": "",
      "postcode": "1750-299",
      "city": "LISBOA",
      "lon": "-9.156542529061085",
      "lat": "38.78913151794895"
    },
    {
      "id": "pt.ine.add.PTCONT.2692523",
      "street": "AZ TORRINHA",
      "house": "",
      "postcode": "1750-299",
      "city": "LISBOA",
      "lon": "-9.156542529061085",
      "lat": "38.78913151794895"
    },
    {
      "id": "pt.ine.add.PTCONT.2719990",
      "street": "R CONSTANCA CAPDEVILLE",
      "house": "",
      "postcode": "1750-070",
      "city": "LISBOA",
      "lon": "-9.156330783994738",
      "lat": "38.79042148284227"
    },
    {
      "id": "pt.ine.add.PTCONT.2719991",
      "street": "R CONSTANCA CAPDEVILLE",
      "house": "",
      "postcode": "1750-070",
      "city": "LISBOA",
      "lon": "-9.156330783994738",
      "lat": "38.79042148284227"
    },
    {
      "id": "pt.ine.add.PTCONT.2719992",
      "street": "R CONSTANCA CAPDEVILLE",
      "house": "",
      "postcode": "1750-070",
      "city": "LISBOA",
      "lon": "-9.156330783994738",
      "lat": "38.79042148284227"
    },
    {
      "id": "pt.ine.add.PTCONT.2719993",
      "street": "R CONSTANCA CAPDEVILLE",
      "house": "",
      "postcode": "1750-070",
      "city": "LISBOA",
      "lon": "-9.156330783994738",
      "lat": "38.79042148284227"
    },
    {
      "id": "pt.ine.add.PTCONT.2719994",
      "street": "R CONSTANCA CAPDEVILLE",
      "house": "",
      "postcode": "1750-070",
      "city": "LISBOA",
      "lon": "-9.156330783994738",
      "lat": "38.79042148284227"
    },
    {
      "id": "pt.ine.add.PTCONT.2719995",
      "street": "R CONSTANCA CAPDEVILLE",
      "house": "",
      "postcode": "1750-070",
      "city": "LISBOA",
      "lon": "-9.156330783994738",
      "lat": "38.79042148284227"
    },
    {
      "id": "pt.ine.add.PTCONT.2732571",
      "street": "R BRUNILDE JUDICE",
      "house": "JJLM",
      "postcode": "1750-045",
      "city": "LISBOA",
      "lon": "-9.155926455637982",
      "lat": "38.790316929668265"
    },
    {
      "id": "pt.ine.add.PTCONT.2732572",
      "street": "R BRUNILDE JUDICE",
      "house": "JJLM",
      "postcode": "1750-045",
      "city": "LISBOA",
      "lon": "-9.155926455637982",
      "lat": "38.790316929668265"
    },
    {
      "id": "pt.ine.add.PTCONT.2732573",
      "street": "R BRUNILDE JUDICE",
      "house": "JJLM",
      "postcode": "1750-045",
      "city": "LISBOA",
      "lon": "-9.155926455637982",
      "lat": "38.790316929668265"
    },
    {
      "id": "pt.ine.add.PTCONT.2732574",
      "street": "R BRUNILDE JUDICE",
      "house": "JJLM",
      "postcode": "1750-045",
      "city": "LISBOA",
      "lon": "-9.155926455637982",
      "lat": "38.790316929668265"
    },
    {
      "id": "pt.ine.add.PTCONT.2747473",
      "street": "AZ TORRINHA",
      "house": "88",
      "postcode": "1750-299",
      "city": "LISBOA",
      "lon": "-9.156582204437928",
      "lat": "38.789491481078436"
    },
    {
      "id": "pt.ine.add.PTCONT.2747474",
      "street": "AZ TORRINHA",
      "house": "88",
      "postcode": "1750-299",
      "city": "LISBOA",
      "lon": "-9.156582204437928",
      "lat": "38.789491481078436"
    },
    {
      "id": "pt.ine.add.PTCONT.2804711",
      "street": "R BRUNILDE JUDICE",
      "house": "4",
      "postcode": "1750-045",
      "city": "LISBOA",
      "lon": "-9.15593320128078",
      "lat": "38.78998358330774"
    },
    {
      "id": "pt.ine.add.PTCONT.2804712",
      "street": "R BRUNILDE JUDICE",
      "house": "4",
      "postcode": "1750-045",
      "city": "LISBOA",
      "lon": "-9.15593320128078",
      "lat": "38.78998358330774"
    },
    {
      "id": "pt.ine.add.PTCONT.2804713",
      "street": "R BRUNILDE JUDICE",
      "house": "4",
      "postcode": "1750-045",
      "city": "LISBOA",
      "lon": "-9.15593320128078",
      "lat": "38.78998358330774"
    },
    {
      "id": "pt.ine.add.PTCONT.2804714",
      "street": "R BRUNILDE JUDICE",
      "house": "4",
      "postcode": "1750-045",
      "city": "LISBOA",
      "lon": "-9.15593320128078",
      "lat": "38.78998358330774"
    },
    {
      "id": "pt.ine.add.PTCONT.2804715",
      "street": "R BRUNILDE JUDICE",
      "house": "4",
      "postcode": "1750-045",
      "city": "LISBOA",
      "lon": "-9.15593320128078",
      "lat": "38.78998358330774"
    },
    {
      "id": "pt.ine.add.PTCONT.2830476",
      "street": "R BRUNILDE JUDICE",
      "house": "",
      "postcode": "1750-045",
      "city": "LISBOA",
      "lon": "-9.155930703246163",
      "lat": "38.79061414872245"
    },
    {
      "id": "pt.ine.add.PTCONT.2836469",
      "street": "R CONSTANCA CAPDEVILLE",
      "house": "",
      "postcode": "1750-070",
      "city": "LISBOA",
      "lon": "-9.15618246607202",
      "lat": "38.790512859214076"
    },
    {
      "id": "pt.ine.add.PTCONT.2836470",
      "street": "R CONSTANCA CAPDEVILLE",
      "house": "",
      "postcode": "1750-070",
      "city": "LISBOA",
      "lon": "-9.15618246607202",
      "lat": "38.790512859214076"
    },
    {
      "id": "pt.ine.add.PTCONT.2836471",
      "street": "R CONSTANCA CAPDEVILLE",
      "house": "",
      "postcode": "1750-070",
      "city": "LISBOA",
      "lon": "-9.15618246607202",
      "lat": "38.790512859214076"
    },
    {
      "id": "pt.ine.add.PTCONT.2836496",
      "street": "R BRUNILDE JUDICE",
      "house": "",
      "postcode": "1750-045",
      "city": "LISBOA",
      "lon": "-9.15574668229824",
      "lat": "38.78901237710728"
    },
    {
      "id": "pt.ine.add.PTCONT.2940916",
      "street": "R CONSTANCA CAPDEVILLE",
      "house": "",
      "postcode": "1750-070",
      "city": "LISBOA",
      "lon": "-9.156161094769816",
      "lat": "38.78901775723911"
    },
    {
      "id": "pt.ine.add.PTCONT.2941841",
      "street": "R CONSTANCA CAPDEVILLE",
      "house": "",
      "postcode": "1750-070",
      "city": "LISBOA",
      "lon": "-9.156161094769816",
      "lat": "38.78901775723911"
    },
    {
      "id": "pt.ine.add.PTCONT.2955225",
      "street": "R BRUNILDE JUDICE",
      "house": "1",
      "postcode": "1750-045",
      "city": "LISBOA",
      "lon": "-9.155745781498785",
      "lat": "38.788949330621584"
    },
    {
      "id": "pt.ine.add.PTCONT.2955226",
      "street": "R BRUNILDE JUDICE",
      "house": "",
      "postcode": "1750-045",
      "city": "LISBOA",
      "lon": "-9.155745781498785",
      "lat": "38.788949330621584"
    },
    {
      "id": "pt.ine.add.PTCONT.3037138",
      "street": "R CONSTANCA CAPDEVILLE",
      "house": "",
      "postcode": "1750-070",
      "city": "LISBOA",
      "lon": "-9.15597516664985",
      "lat": "38.788893276239286"
    },
    {
      "id": "pt.ine.add.PTCONT.3042615",
      "street": "R CONSTANCA CAPDEVILLE",
      "house": "",
      "postcode": "1750-070",
      "city": "LISBOA",
      "lon": "-9.15597516664985",
      "lat": "38.788893276239286"
    },
    {
      "id": "pt.ine.add.PTCONT.3075070",
      "street": "R JORGE CRONER VASCONCELOS",
      "house": "10",
      "postcode": "1750-128",
      "city": "LISBOA",
      "lon": "-9.155835860233699",
      "lat": "38.78961511695194"
    },
    {
      "id": "pt.ine.add.PTCONT.3075071",
      "street": "R BRUNILDE JUDICE",
      "house": "",
      "postcode": "1750-045",
      "city": "LISBOA",
      "lon": "-9.155835860233699",
      "lat": "38.78961511695194"
    },
    {
      "id": "pt.ine.add.PTCONT.3075072",
      "street": "R BRUNILDE JUDICE",
      "house": "",
      "postcode": "1750-045",
      "city": "LISBOA",
      "lon": "-9.155835860233699",
      "lat": "38.78961511695194"
    },
    {
      "id": "pt.ine.add.PTCONT.3075073",
      "street": "R BRUNILDE JUDICE",
      "house": "",
      "postcode": "1750-045",
      "city": "LISBOA",
      "lon": "-9.155835860233699",
      "lat": "38.78961511695194"
    },
    {
      "id": "pt.ine.add.PTCONT.3075074",
      "street": "R BRUNILDE JUDICE",
      "house": "",
      "postcode": "1750-045",
      "city": "LISBOA",
      "lon": "-9.155748226532435",
      "lat": "38.789120456795395"
    },
    {
      "id": "pt.ine.add.PTCONT.3075075",
      "street": "R BRUNILDE JUDICE",
      "house": "3",
      "postcode": "1750-045",
      "city": "LISBOA",
      "lon": "-9.155748226532435",
      "lat": "38.789120456795395"
    },
    {
      "id": "pt.ine.add.PTCONT.3075076",
      "street": "R BRUNILDE JUDICE",
      "house": "",
      "postcode": "1750-045",
      "city": "LISBOA",
      "lon": "-9.155748226532435",
      "lat": "38.789120456795395"
    },
    {
      "id": "pt.ine.add.PTCONT.3080785",
      "street": "R CONSTANCA CAPDEVILLE",
      "house": "",
      "postcode": "1750-070",
      "city": "LISBOA",
      "lon": "-9.156000113135342",
      "lat": "38.789028174362656"
    },
    {
      "id": "pt.ine.add.PTCONT.3111898",
      "street": "R CONSTANCA CAPDEVILLE",
      "house": "",
      "postcode": "1750-070",
      "city": "LISBOA",
      "lon": "-9.156065762346872",
      "lat": "38.78959508892698"
    },
    {
      "id": "pt.ine.add.PTCONT.3121231",
      "street": "R CONSTANCA CAPDEVILLE",
      "house": "",
      "postcode": "1750-070",
      "city": "LISBOA",
      "lon": "-9.156210602400417",
      "lat": "38.78926053346324"
    },
    {
      "id": "pt.ine.add.PTCONT.3186702",
      "street": "R CONSTANCA CAPDEVILLE",
      "house": "",
      "postcode": "1750-070",
      "city": "LISBOA",
      "lon": "-9.156361316468432",
      "lat": "38.79014197475856"
    },
    {
      "id": "pt.ine.add.PTCONT.3186703",
      "street": "R CONSTANCA CAPDEVILLE",
      "house": "",
      "postcode": "1750-070",
      "city": "LISBOA",
      "lon": "-9.156361316468432",
      "lat": "38.79014197475856"
    },
    {
      "id": "pt.ine.add.PTCONT.3186704",
      "street": "R CONSTANCA CAPDEVILLE",
      "house": "",
      "postcode": "1750-070",
      "city": "LISBOA",
      "lon": "-9.156361316468432",
      "lat": "38.79014197475856"
    },
    {
      "id": "pt.ine.add.PTCONT.3186705",
      "street": "R CONSTANCA CAPDEVILLE",
      "house": "",
      "postcode": "1750-070",
      "city": "LISBOA",
      "lon": "-9.156361316468432",
      "lat": "38.79014197475856"
    },
    {
      "id": "pt.ine.add.PTCONT.3186706",
      "street": "R CONSTANCA CAPDEVILLE",
      "house": "",
      "postcode": "1750-070",
      "city": "LISBOA",
      "lon": "-9.156361316468432",
      "lat": "38.79014197475856"
    },
    {
      "id": "pt.ine.add.PTCONT.3186707",
      "street": "R CONSTANCA CAPDEVILLE",
      "house": "",
      "postcode": "1750-070",
      "city": "LISBOA",
      "lon": "-9.156361316468432",
      "lat": "38.79014197475856"
    },
    {
      "id": "pt.ine.add.PTCONT.3186708",
      "street": "R CONSTANCA CAPDEVILLE",
      "house": "",
      "postcode": "1750-070",
      "city": "LISBOA",
      "lon": "-9.156361316468432",
      "lat": "38.79014197475856"
    },
    {
      "id": "pt.ine.add.PTCONT.3186709",
      "street": "R CONSTANCA CAPDEVILLE",
      "house": "",
      "postcode": "1750-070",
      "city": "LISBOA",
      "lon": "-9.156361316468432",
      "lat": "38.79014197475856"
    },
    {
      "id": "pt.ine.add.PTCONT.3186710",
      "street": "R CONSTANCA CAPDEVILLE",
      "house": "",
      "postcode": "1750-070",
      "city": "LISBOA",
      "lon": "-9.156361316468432",
      "lat": "38.79014197475856"
    },
    {
      "id": "pt.ine.add.PTCONT.3186711",
      "street": "R CONSTANCA CAPDEVILLE",
      "house": "",
      "postcode": "1750-070",
      "city": "LISBOA",
      "lon": "-9.156361316468432",
      "lat": "38.79014197475856"
    },
    {
      "id": "pt.ine.add.PTCONT.3198856",
      "street": "R CONSTANCA CAPDEVILLE",
      "house": "",
      "postcode": "1750-070",
      "city": "LISBOA",
      "lon": "-9.15622481401659",
      "lat": "38.78944957211726"
    },
    {
      "id": "pt.ine.add.PTCONT.3198857",
      "street": "R CONSTANCA CAPDEVILLE",
      "house": "",
      "postcode": "1750-070",
      "city": "LISBOA",
      "lon": "-9.15622481401659",
      "lat": "38.78944957211726"
    },
    {
      "id": "pt.ine.add.PTCONT.3198858",
      "street": "R CONSTANCA CAPDEVILLE",
      "house": "",
      "postcode": "1750-070",
      "city": "LISBOA",
      "lon": "-9.15622481401659",
      "lat": "38.78944957211726"
    },
    {
      "id": "pt.ine.add.PTCONT.3198859",
      "street": "R CONSTANCA CAPDEVILLE",
      "house": "",
      "postcode": "1750-070",
      "city": "LISBOA",
      "lon": "-9.15622481401659",
      "lat": "38.78944957211726"
    },
    {
      "id": "pt.ine.add.PTCONT.3198860",
      "street": "R CONSTANCA CAPDEVILLE",
      "house": "",
      "postcode": "1750-070",
      "city": "LISBOA",
      "lon": "-9.15622481401659",
      "lat": "38.78944957211726"
    },
    {
      "id": "pt.ine.add.PTCONT.3198861",
      "street": "R CONSTANCA CAPDEVILLE",
      "house": "",
      "postcode": "1750-070",
      "city": "LISBOA",
      "lon": "-9.15622481401659",
      "lat": "38.78944957211726"
    },
    {
      "id": "pt.ine.add.PTCONT.3199220",
      "street": "R NSA SRA DA ENCARNAÇÃO",
      "house": "",
      "postcode": "1750-207",
      "city": "LISBOA",
      "lon": "-9.155836171419756",
      "lat": "38.78883143853059"
    },
    {
      "id": "pt.ine.add.PTCONT.3208005",
      "street": "R JORGE CRONER DE VASCONCELOS",
      "house": "",
      "postcode": "1750-128",
      "city": "LISBOA",
      "lon": "-9.156469185336054",
      "lat": "38.78963659522034"
    },
    {
      "id": "pt.ine.add.PTCONT.3208006",
      "street": "R JORGE CRONER DE VASCONCELOS",
      "house": "",
      "postcode": "1750-128",
      "city": "LISBOA",
      "lon": "-9.156469185336054",
      "lat": "38.78963659522034"
    },
    {
      "id": "pt.ine.add.PTCONT.3208294",
      "street": "R BRUNILDE JUDICE",
      "house": "",
      "postcode": "1750-045",
      "city": "LISBOA",
      "lon": "-9.155823065273651",
      "lat": "38.78952515128056"
    },
    {
      "id": "pt.ine.add.PTCONT.3208295",
      "street": "R BRUNILDE JUDICE",
      "house": "",
      "postcode": "1750-045",
      "city": "LISBOA",
      "lon": "-9.155823065273651",
      "lat": "38.78952515128056"
    },
    {
      "id": "pt.ine.add.PTCONT.3250866",
      "street": "R JORGE CRONER DE VASCONCELOS",
      "house": "",
      "postcode": "1750-128",
      "city": "LISBOA",
      "lon": "-9.156561249176466",
      "lat": "38.789635788876616"
    },
    {
      "id": "pt.ine.add.PTCONT.3324834",
      "street": "R CONSTANCA CAPDEVILLE",
      "house": "",
      "postcode": "1750-070",
      "city": "LISBOA",
      "lon": "-9.156172245413831",
      "lat": "38.79060302634738"
    },
    {
      "id": "pt.ine.add.PTCONT.3324835",
      "street": "R CONSTANCA CAPDEVILLE",
      "house": "",
      "postcode": "1750-070",
      "city": "LISBOA",
      "lon": "-9.156172245413831",
      "lat": "38.79060302634738"
    },
    {
      "id": "pt.ine.add.PTCONT.3324836",
      "street": "R CONSTANCA CAPDEVILLE",
      "house": "",
      "postcode": "1750-070",
      "city": "LISBOA",
      "lon": "-9.156172245413831",
      "lat": "38.79060302634738"
    },
    {
      "id": "pt.ine.add.PTCONT.3324976",
      "street": "R CONSTANCA CAPDEVILLE",
      "house": "",
      "postcode": "1750-070",
      "city": "LISBOA",
      "lon": "-9.156172245413831",
      "lat": "38.79060302634738"
    },
    {
      "id": "pt.ine.add.PTCONT.3324977",
      "street": "R CONSTANCA CAPDEVILLE",
      "house": "",
      "postcode": "1750-070",
      "city": "LISBOA",
      "lon": "-9.156172245413831",
      "lat": "38.79060302634738"
    },
    {
      "id": "pt.ine.add.PTCONT.3324978",
      "street": "R CONSTANCA CAPDEVILLE",
      "house": "",
      "postcode": "1750-070",
      "city": "LISBOA",
      "lon": "-9.15591865699261",
      "lat": "38.78896583303925"
    },
    {
      "id": "pt.ine.add.PTCONT.3324979",
      "street": "R CONSTANCA CAPDEVILLE MGB",
      "house": "MGB",
      "postcode": "1750-070",
      "city": "LISBOA",
      "lon": "-9.15591865699261",
      "lat": "38.78896583303925"
    },
    {
      "id": "pt.ine.add.PTCONT.3333028",
      "street": "R CONSTANCA CAPDEVILLE",
      "house": "",
      "postcode": "1750-070",
      "city": "LISBOA",
      "lon": "-9.156172245413831",
      "lat": "38.79060302634738"
    },
    {
      "id": "pt.ine.add.PTCONT.3352260",
      "street": "R CONSTANCA CAPDEVILLE",
      "house": "",
      "postcode": "1750-070",
      "city": "LISBOA",
      "lon": "-9.156033684193899",
      "lat": "38.789766517307335"
    },
    {
      "id": "pt.ine.add.PTCONT.3362245",
      "street": "R BRUNILDE JUDICE",
      "house": "",
      "postcode": "1750-045",
      "city": "LISBOA",
      "lon": "-9.155906657261488",
      "lat": "38.790542297092124"
    },
    {
      "id": "pt.ine.add.PTCONT.3367190",
      "street": "R BRUNILDE JUDICE",
      "house": "",
      "postcode": "1750-045",
      "city": "LISBOA",
      "lon": "-9.155906657261488",
      "lat": "38.790542297092124"
    },
    {
      "id": "pt.ine.add.PTCONT.3394459",
      "street": "R BRUNILDE JUDICE",
      "house": "",
      "postcode": "1750-045",
      "city": "LISBOA",
      "lon": "-9.15597068592626",
      "lat": "38.79019043377836"
    },
    {
      "id": "pt.ine.add.PTCONT.3425424",
      "street": "R BRUNILDE JUDICE",
      "house": "",
      "postcode": "1750-045",
      "city": "LISBOA",
      "lon": "-9.155958276830617",
      "lat": "38.790127488049585"
    },
    {
      "id": "pt.ine.add.PTCONT.3442288",
      "street": "R CONSTANCA CAPDEVILLE",
      "house": "",
      "postcode": "1750-070",
      "city": "LISBOA",
      "lon": "-9.156033684193899",
      "lat": "38.789766517307335"
    },
    {
      "id": "pt.ine.add.PTCONT.3445668",
      "street": "R CONSTANCA CAPDEVILLE",
      "house": "",
      "postcode": "1750-070",
      "city": "LISBOA",
      "lon": "-9.15591865699261",
      "lat": "38.78896583303925"
    },
    {
      "id": "pt.ine.add.PTCONT.3448378",
      "street": "R NSA SRA DA ENCARNAÇÃO",
      "house": "",
      "postcode": "1750-207",
      "city": "LISBOA",
      "lon": "-9.155836171419756",
      "lat": "38.78883143853059"
    },
    {
      "id": "pt.ine.add.PTCONT.3455277",
      "street": "R CONSTANCA CAPDEVILLE",
      "house": "",
      "postcode": "1750-070",
      "city": "LISBOA",
      "lon": "-9.15609264026951",
      "lat": "38.789865086588065"
    },
    {
      "id": "pt.ine.add.PTCONT.3455772",
      "street": "R CONSTANCA CAPDEVILLE",
      "house": "MS",
      "postcode": "1750-070",
      "city": "LISBOA",
      "lon": "-9.156237995715424",
      "lat": "38.78956655765473"
    }
  ]
}