{
  "data": {
    "distrito": "Faro",
    "concelho": "Lagos",
    "freguesia": "Luz",
    "OBJECTID": 628,
    "BGRI2021": "08070300303",
    "DT21": "08",
    "DTMN21": "0807",
    "DTMNFR21": "080703",
    "DTMNFRSEC21": "080703003",
    "SECNUM21": "003",
    "SSNUM21": "03",
    "SECSSNUM21": "00303",
    "OBJECTID_1": 67356,
    "DT": "08",
    "CC": "07",
    "fr": "03",
    "SEC": "003",
    "SS": "03"
  },
  "addresses": [
    {
      "id": "pt.ine.add.PTCONT.1472766",
      "street": "R DR FAUSANTO SOUSA CORREIA",
      "house": "",
      "postcode": "8600-123",
      "city": "LUZ LGS",
      "lon": "-8.752478028127443",
      "lat": "37.07808570981582"
    },
    {
      "id": "pt.ine.add.PTCONT.1481972",
      "street": "SIT CAMA DA VACA MONTE SOL",
      "house": "",
      "postcode": "8600-104",
      "city": "LUZ LGS",
      "lon": "-8.755722871711571",
      "lat": "37.078825607096434"
    },
    {
      "id": "pt.ine.add.PTCONT.1507959",
      "street": "EM LUZ BURGAU QTA DA LIBERDADE",
      "house": "",
      "postcode": "8600-104",
      "city": "LUZ LGS",
      "lon": "-8.758284980641523",
      "lat": "37.07858686549281"
    },
    {
      "id": "pt.ine.add.PTCONT.1525301",
      "street": "SIT CAMA DA VACA",
      "house": "",
      "postcode": "8600-104",
      "city": "LUZ LGS",
      "lon": "-8.75630770807144",
      "lat": "37.07883154606048"
    },
    {
      "id": "pt.ine.add.PTCONT.1548197",
      "street": "SIT CAMA DA VACA",
      "house": "",
      "postcode": "8600-104",
      "city": "LUZ LGS",
      "lon": "-8.756223607155592",
      "lat": "37.07817421723833"
    },
    {
      "id": "pt.ine.add.PTCONT.1573522",
      "street": "SIT CAMA DA VACA",
      "house": "",
      "postcode": "8600-104",
      "city": "LUZ LGS",
      "lon": "-8.755943358128818",
      "lat": "37.078283815970856"
    },
    {
      "id": "pt.ine.add.PTCONT.1604369",
      "street": "SIT CAMA DA VACA",
      "house": "",
      "postcode": "8600-104",
      "city": "LUZ LGS",
      "lon": "-8.758215658937445",
      "lat": "37.078361966963094"
    },
    {
      "id": "pt.ine.add.PTCONT.1637089",
      "street": "SIT CAMA DA VACA",
      "house": "",
      "postcode": "8600-104",
      "city": "LUZ LGS",
      "lon": "-8.757522732139606",
      "lat": "37.07888822936131"
    },
    {
      "id": "pt.ine.add.PTCONT.1657536",
      "street": "R DR FAUSANTO SOUSA CORREIA",
      "house": "62",
      "postcode": "8600-123",
      "city": "LUZ LGS",
      "lon": "-8.752690882952919",
      "lat": "37.07798548189703"
    },
    {
      "id": "pt.ine.add.PTCONT.1670598",
      "street": "SIT CAMA DA VACA VILA ATLANTICO",
      "house": "",
      "postcode": "8600-104",
      "city": "LUZ LGS",
      "lon": "-8.758754695902935",
      "lat": "37.07826901913112"
    },
    {
      "id": "pt.ine.add.PTCONT.1673344",
      "street": "R DR FAUSANTO SOUSA CORREIA",
      "house": "",
      "postcode": "8600-123",
      "city": "LUZ LGS",
      "lon": "-8.752993772989749",
      "lat": "37.077893793619246"
    },
    {
      "id": "pt.ine.add.PTCONT.1727482",
      "street": "SIT CAMA DA VACA",
      "house": "",
      "postcode": "8600-104",
      "city": "LUZ LGS",
      "lon": "-8.758693731326124",
      "lat": "37.07769266505135"
    },
    {
      "id": "pt.ine.add.PTCONT.1755507",
      "street": "SIT CAMA DA VACA CASA AGATHA",
      "house": "",
      "postcode": "8600-104",
      "city": "LUZ LGS",
      "lon": "-8.757026751363414",
      "lat": "37.078746670641415"
    },
    {
      "id": "pt.ine.add.PTCONT.1757315",
      "street": "SIT CAMA DA VACA",
      "house": "",
      "postcode": "8600-104",
      "city": "LUZ LGS",
      "lon": "-8.758571217655698",
      "lat": "37.07783748011758"
    },
    {
      "id": "pt.ine.add.PTCONT.1796589",
      "street": "SIT CAMA DA VACA",
      "house": "2",
      "postcode": "8600-104",
      "city": "LUZ LGS",
      "lon": "-8.757488109158198",
      "lat": "37.07878028496063"
    },
    {
      "id": "pt.ine.add.PTCONT.1813609",
      "street": "R DR FAUSANTO SOUSA CORREIA",
      "house": "60",
      "postcode": "8600-123",
      "city": "LUZ LGS",
      "lon": "-8.752152865760596",
      "lat": "37.07820454471025"
    },
    {
      "id": "pt.ine.add.PTCONT.1828080",
      "street": "SIT CAMA DA VACA",
      "house": "",
      "postcode": "8600-104",
      "city": "LUZ LGS",
      "lon": "-8.756077933790191",
      "lat": "37.07823805639104"
    }
  ]
}