{
  "data": {
    "distrito": "Lisboa",
    "concelho": "Torres Vedras",
    "freguesia": "União das freguesias de A dos Cunhados e Maceira",
    "OBJECTID": 1737,
    "BGRI2021": "11132100103",
    "DT21": "11",
    "DTMN21": "1113",
    "DTMNFR21": "111321",
    "DTMNFRSEC21": "111321001",
    "SECNUM21": "001",
    "SSNUM21": "03",
    "SECSSNUM21": "00103",
    "OBJECTID_1": 115006,
    "DT": "11",
    "CC": "13",
    "fr": "21",
    "SEC": "001",
    "SS": "03"
  },
  "addresses": [
    {
      "id": "pt.ine.add.PTCONT.2428364",
      "street": "TV ARROCA",
      "house": "",
      "postcode": "2560-048",
      "city": "A DOS CUNHADOS",
      "lon": "-9.310478537386228",
      "lat": "39.152859700605276"
    },
    {
      "id": "pt.ine.add.PTCONT.2796669",
      "street": "R ARROCA",
      "house": "13",
      "postcode": "2560-048",
      "city": "A DOS CUNHADOS",
      "lon": "-9.309995002724612",
      "lat": "39.152999691855584"
    },
    {
      "id": "pt.ine.add.PTCONT.2977053",
      "street": "R ARROCA",
      "house": "",
      "postcode": "2560-048",
      "city": "A DOS CUNHADOS",
      "lon": "-9.309884139802646",
      "lat": "39.15328903947057"
    },
    {
      "id": "pt.ine.add.PTCONT.2983906",
      "street": "R ARROCA",
      "house": "14",
      "postcode": "2560-048",
      "city": "A DOS CUNHADOS",
      "lon": "-9.309939121312041",
      "lat": "39.153117348843566"
    },
    {
      "id": "pt.ine.add.PTCONT.3172996",
      "street": "R ANTÓNIO REIS",
      "house": "7",
      "postcode": "2560-048",
      "city": "A DOS CUNHADOS",
      "lon": "-9.310160682610983",
      "lat": "39.153223196633434"
    },
    {
      "id": "pt.ine.add.PTCONT.3196642",
      "street": "R ANTONIO REIS",
      "house": "3",
      "postcode": "2560-048",
      "city": "A DOS CUNHADOS",
      "lon": "-9.31011681783182",
      "lat": "39.15336775370076"
    },
    {
      "id": "pt.ine.add.PTCONT.3339831",
      "street": "R ANTÓNIO REIS",
      "house": "11",
      "postcode": "2560-048",
      "city": "A DOS CUNHADOS",
      "lon": "-9.310319010130653",
      "lat": "39.153005426284906"
    },
    {
      "id": "pt.ine.add.PTCONT.3356137",
      "street": "R ANTÓNIO REIS",
      "house": "9",
      "postcode": "2560-048",
      "city": "A DOS CUNHADOS",
      "lon": "-9.310239846491411",
      "lat": "39.1531143114852"
    },
    {
      "id": "pt.ine.add.PTCONT.3363869",
      "street": "TV IRMAS",
      "house": "4",
      "postcode": "2560-048",
      "city": "A DOS CUNHADOS",
      "lon": "-9.310186828770158",
      "lat": "39.152709526352126"
    }
  ]
}