{
  "data": {
    "distrito": "Évora",
    "concelho": "Viana do Alentejo",
    "freguesia": "Alcáçovas",
    "OBJECTID": 184,
    "BGRI2021": "07130100222",
    "DT21": "07",
    "DTMN21": "0713",
    "DTMNFR21": "071301",
    "DTMNFRSEC21": "071301002",
    "SECNUM21": "002",
    "SSNUM21": "22",
    "SECSSNUM21": "00222",
    "OBJECTID_1": 63870,
    "DT": "07",
    "CC": "13",
    "fr": "01",
    "SEC": "002",
    "SS": "22"
  },
  "addresses": [
    {
      "id": "pt.ine.add.PTCONT.1378001",
      "street": "QTA PALMEIRA",
      "house": "",
      "postcode": "7090-074",
      "city": "ALCÁÇOVAS",
      "lon": "-8.097777370777365",
      "lat": "38.40644625261966"
    },
    {
      "id": "pt.ine.add.PTCONT.1382153",
      "street": "VALE DE MENDRO",
      "house": "23",
      "postcode": "7090-038",
      "city": "ALCÁÇOVAS",
      "lon": "-8.141944899547292",
      "lat": "38.39084820790469"
    },
    {
      "id": "pt.ine.add.PTCONT.1383271",
      "street": "MTE VALE DE REPRESAS",
      "house": "",
      "postcode": "7090-046",
      "city": "ALCÁÇOVAS",
      "lon": "-8.120240872708964",
      "lat": "38.400928554215874"
    },
    {
      "id": "pt.ine.add.PTCONT.1383656",
      "street": "MTE CHAGANA",
      "house": "",
      "postcode": "7090-040",
      "city": "ALCÁÇOVAS",
      "lon": "-8.138900405213077",
      "lat": "38.393722170439226"
    },
    {
      "id": "pt.ine.add.PTCONT.1386405",
      "street": "MTE CHÃO DO VEDOR",
      "house": "",
      "postcode": "7090-040",
      "city": "ALCÁÇOVAS",
      "lon": "-8.14313581542341",
      "lat": "38.394451588427756"
    },
    {
      "id": "pt.ine.add.PTCONT.1389274",
      "street": "MTE MATINHO",
      "house": "",
      "postcode": "7090-040",
      "city": "ALCÁÇOVAS",
      "lon": "-8.142815366138453",
      "lat": "38.39492907585116"
    },
    {
      "id": "pt.ine.add.PTCONT.1389898",
      "street": "MTE OLIVEIRAS",
      "house": "",
      "postcode": "7090-046",
      "city": "ALCÁÇOVAS",
      "lon": "-8.102367846020776",
      "lat": "38.40760065600859"
    },
    {
      "id": "pt.ine.add.PTCONT.1405046",
      "street": "MTE MATINHOS",
      "house": "",
      "postcode": "7090-040",
      "city": "ALCÁÇOVAS",
      "lon": "-8.144372109667941",
      "lat": "38.394640658598526"
    },
    {
      "id": "pt.ine.add.PTCONT.1408812",
      "street": "MTE CHAGANA",
      "house": "",
      "postcode": "7090-040",
      "city": "ALCÁÇOVAS",
      "lon": "-8.138946071380174",
      "lat": "38.39221771687863"
    },
    {
      "id": "pt.ine.add.PTCONT.1409495",
      "street": "R S GERALDO",
      "house": "",
      "postcode": "7090-040",
      "city": "ALCÁÇOVAS",
      "lon": "-8.148023707095515",
      "lat": "38.39477538115568"
    },
    {
      "id": "pt.ine.add.PTCONT.1409496",
      "street": "R S GERALDO",
      "house": "",
      "postcode": "7090-040",
      "city": "ALCÁÇOVAS",
      "lon": "-8.146157729876665",
      "lat": "38.394081934749764"
    },
    {
      "id": "pt.ine.add.PTCONT.1414611",
      "street": "MTE VALE DOS ACOUGUES DE CIMA",
      "house": "",
      "postcode": "7090-046",
      "city": "ALCÁÇOVAS",
      "lon": "-8.112533371923622",
      "lat": "38.41169281501374"
    },
    {
      "id": "pt.ine.add.PTCONT.1414612",
      "street": "MTE VALE DOS ACOUGUES DE CIMA",
      "house": "",
      "postcode": "7090-046",
      "city": "ALCÁÇOVAS",
      "lon": "-8.112533371923622",
      "lat": "38.41169281501374"
    },
    {
      "id": "pt.ine.add.PTCONT.1414955",
      "street": "MTE VALE DOS ACOUGUES DE CIMA",
      "house": "",
      "postcode": "7090-046",
      "city": "ALCÁÇOVAS",
      "lon": "-8.112533371923622",
      "lat": "38.41169281501374"
    },
    {
      "id": "pt.ine.add.PTCONT.1419425",
      "street": "FRONTEIRAS",
      "house": "",
      "postcode": "7090-040",
      "city": "ALCÁÇOVAS",
      "lon": "-8.140330916950383",
      "lat": "38.39034383159157"
    },
    {
      "id": "pt.ine.add.PTCONT.1421617",
      "street": "VALE DE MENDRO",
      "house": "",
      "postcode": "7090-038",
      "city": "ALCÁÇOVAS",
      "lon": "-8.142437291934955",
      "lat": "38.392406673546034"
    },
    {
      "id": "pt.ine.add.PTCONT.1423899",
      "street": "MTE CHAGANA",
      "house": "",
      "postcode": "7090-040",
      "city": "ALCÁÇOVAS",
      "lon": "-8.137068809965516",
      "lat": "38.391704299893505"
    },
    {
      "id": "pt.ine.add.PTCONT.1426021",
      "street": "VALE DE MENDRO",
      "house": "",
      "postcode": "7090-038",
      "city": "ALCÁÇOVAS",
      "lon": "-8.144463096177203",
      "lat": "38.390875017112805"
    },
    {
      "id": "pt.ine.add.PTCONT.1437095",
      "street": "MTE TERRINHA",
      "house": "",
      "postcode": "7090-046",
      "city": "ALCÁÇOVAS",
      "lon": "-8.131356584972238",
      "lat": "38.40991089259755"
    },
    {
      "id": "pt.ine.add.PTCONT.1438186",
      "street": "R S GERALDO",
      "house": "",
      "postcode": "7090-040",
      "city": "ALCÁÇOVAS",
      "lon": "-8.146238025550371",
      "lat": "38.39500982063917"
    },
    {
      "id": "pt.ine.add.PTCONT.1442711",
      "street": "MTE CANCELA DE FERRO",
      "house": "",
      "postcode": "7090-040",
      "city": "ALCÁÇOVAS",
      "lon": "-8.14046927660127",
      "lat": "38.400253378460896"
    },
    {
      "id": "pt.ine.add.PTCONT.1447303",
      "street": "MTE MATINHOS",
      "house": "",
      "postcode": "7090-040",
      "city": "ALCÁÇOVAS",
      "lon": "-8.1446240292241",
      "lat": "38.395190164049964"
    },
    {
      "id": "pt.ine.add.PTCONT.1451132",
      "street": "MTE CHAGANA",
      "house": "",
      "postcode": "7090-040",
      "city": "ALCÁÇOVAS",
      "lon": "-8.140754731762692",
      "lat": "38.39322658621991"
    },
    {
      "id": "pt.ine.add.PTCONT.1452625",
      "street": "FRONTEIRAS",
      "house": "",
      "postcode": "7090-040",
      "city": "ALCÁÇOVAS",
      "lon": "-8.140296514884682",
      "lat": "38.38970421636644"
    },
    {
      "id": "pt.ine.add.PTCONT.1459557",
      "street": "LG S GERALDO",
      "house": "",
      "postcode": "7090-040",
      "city": "ALCÁÇOVAS",
      "lon": "-8.147840629048142",
      "lat": "38.39513575179875"
    },
    {
      "id": "pt.ine.add.PTCONT.1465825",
      "street": "MTE CHAGANA",
      "house": "",
      "postcode": "7090-040",
      "city": "ALCÁÇOVAS",
      "lon": "-8.141601926978172",
      "lat": "38.39441567485304"
    }
  ]
}