{
  "data": {
    "distrito": "Lisboa",
    "concelho": "Sintra",
    "freguesia": "Uni達o das freguesias de Sintra (Santa Maria e S達o Miguel, S達o Martinho e S達o Pedro de Penaferrim)",
    "OBJECTID": 2440,
    "BGRI2021": "11112801709",
    "DT21": "11",
    "DTMN21": "1111",
    "DTMNFR21": "111128",
    "DTMNFRSEC21": "111128017",
    "SECNUM21": "017",
    "SSNUM21": "09",
    "SECSSNUM21": "01709",
    "OBJECTID_1": 113987,
    "DT": "11",
    "CC": "11",
    "fr": "28",
    "SEC": "017",
    "SS": "09"
  },
  "addresses": [
    {
      "id": "pt.ine.add.PTCONT.2324943",
      "street": "PCT SAPO CASA DAS HORTENCIAS",
      "house": "5",
      "postcode": "2710-413",
      "city": "SINTRA",
      "lon": "-9.413679276996884",
      "lat": "38.81728513792073"
    },
    {
      "id": "pt.ine.add.PTCONT.2455140",
      "street": "R MINA",
      "house": "",
      "postcode": "2710-711",
      "city": "SINTRA",
      "lon": "-9.418128493900126",
      "lat": "38.817560550926025"
    },
    {
      "id": "pt.ine.add.PTCONT.2493609",
      "street": "PCT CAMPOS",
      "house": "10",
      "postcode": "2710-413",
      "city": "SINTRA",
      "lon": "-9.414189219513329",
      "lat": "38.81875678431671"
    },
    {
      "id": "pt.ine.add.PTCONT.2518515",
      "street": "R MINA",
      "house": "",
      "postcode": "2710-711",
      "city": "SINTRA",
      "lon": "-9.41852830137005",
      "lat": "38.818024544451106"
    },
    {
      "id": "pt.ine.add.PTCONT.2527022",
      "street": "ESTR PRINCIPAL",
      "house": "70",
      "postcode": "2710-413",
      "city": "SINTRA",
      "lon": "-9.413433344846336",
      "lat": "38.817053637390934"
    },
    {
      "id": "pt.ine.add.PTCONT.2545546",
      "street": "R MINA",
      "house": "58",
      "postcode": "2710-711",
      "city": "SINTRA",
      "lon": "-9.417945038740772",
      "lat": "38.820165748714665"
    },
    {
      "id": "pt.ine.add.PTCONT.2574938",
      "street": "R COELHO CASA DE S TIAGO",
      "house": "11",
      "postcode": "2710-711",
      "city": "SINTRA",
      "lon": "-9.415704310599756",
      "lat": "38.81720887596471"
    },
    {
      "id": "pt.ine.add.PTCONT.2597235",
      "street": "PCT CAMPOS",
      "house": "9",
      "postcode": "2710-413",
      "city": "SINTRA",
      "lon": "-9.414104281368942",
      "lat": "38.8185145120475"
    },
    {
      "id": "pt.ine.add.PTCONT.2597389",
      "street": "ESTR PRINCIPAL",
      "house": "68",
      "postcode": "2710-413",
      "city": "SINTRA",
      "lon": "-9.413252710650617",
      "lat": "38.81725378311513"
    },
    {
      "id": "pt.ine.add.PTCONT.2604731",
      "street": "R COELHO CASA DAS NUVENS",
      "house": "13",
      "postcode": "2710-711",
      "city": "SINTRA",
      "lon": "-9.415568154854856",
      "lat": "38.81667892553951"
    },
    {
      "id": "pt.ine.add.PTCONT.2753586",
      "street": "ESTR PRINCIPAL MORLINHO",
      "house": "",
      "postcode": "2710-413",
      "city": "SINTRA",
      "lon": "-9.413436670401138",
      "lat": "38.817882295374865"
    },
    {
      "id": "pt.ine.add.PTCONT.2757099",
      "street": "R MINA VILAS PENA",
      "house": "",
      "postcode": "2710-711",
      "city": "SINTRA",
      "lon": "-9.41837264508869",
      "lat": "38.818332513653274"
    },
    {
      "id": "pt.ine.add.PTCONT.2792384",
      "street": "PCT SAPO CASA SERRA",
      "house": "",
      "postcode": "2710-413",
      "city": "SINTRA",
      "lon": "-9.41467411081741",
      "lat": "38.81947206917361"
    },
    {
      "id": "pt.ine.add.PTCONT.2867209",
      "street": "R FONTE",
      "house": "1",
      "postcode": "2710-413",
      "city": "SINTRA",
      "lon": "-9.412737626319725",
      "lat": "38.8187096418498"
    },
    {
      "id": "pt.ine.add.PTCONT.2867208",
      "street": "R FONTE",
      "house": "22",
      "postcode": "2710-413",
      "city": "SINTRA",
      "lon": "-9.414028001366985",
      "lat": "38.81939808797923"
    },
    {
      "id": "pt.ine.add.PTCONT.2874424",
      "street": "ESTR PRINCIPAL DO MERELINHO CASAL DA PAZ",
      "house": "66",
      "postcode": "2710-413",
      "city": "SINTRA",
      "lon": "-9.413254000630877",
      "lat": "38.81732582936729"
    },
    {
      "id": "pt.ine.add.PTCONT.2884841",
      "street": "R PAPOILAS",
      "house": "6",
      "postcode": "2710-413",
      "city": "SINTRA",
      "lon": "-9.412571306211424",
      "lat": "38.818423222157115"
    },
    {
      "id": "pt.ine.add.PTCONT.2887507",
      "street": "PCT CAMPOS CASA DO CHORAO",
      "house": "8",
      "postcode": "2710-413",
      "city": "SINTRA",
      "lon": "-9.413918643992679",
      "lat": "38.818435479698564"
    },
    {
      "id": "pt.ine.add.PTCONT.2912606",
      "street": "PCT SAPO CASA DA TORRE",
      "house": "",
      "postcode": "2710-413",
      "city": "SINTRA",
      "lon": "-9.414755436724379",
      "lat": "38.81822813568432"
    },
    {
      "id": "pt.ine.add.PTCONT.2951041",
      "street": "ESTR PRINCIPAL QTA DE SANTA RITA",
      "house": "",
      "postcode": "2710-711",
      "city": "SINTRA",
      "lon": "-9.416592787193506",
      "lat": "38.817316215494905"
    },
    {
      "id": "pt.ine.add.PTCONT.2967603",
      "street": "R PAPOILAS",
      "house": "2",
      "postcode": "2710-413",
      "city": "SINTRA",
      "lon": "-9.412775613063067",
      "lat": "38.81825884836202"
    },
    {
      "id": "pt.ine.add.PTCONT.2967604",
      "street": "R MINA CERRADO DO CANO",
      "house": "",
      "postcode": "2710-711",
      "city": "SINTRA",
      "lon": "-9.417931990712175",
      "lat": "38.81751767466469"
    },
    {
      "id": "pt.ine.add.PTCONT.2994797",
      "street": "ESTR PRINCIPAL",
      "house": "74",
      "postcode": "2710-413",
      "city": "SINTRA",
      "lon": "-9.413579282799546",
      "lat": "38.81684486416431"
    },
    {
      "id": "pt.ine.add.PTCONT.3078593",
      "street": "R PAPOILAS",
      "house": "3",
      "postcode": "2710-413",
      "city": "SINTRA",
      "lon": "-9.41314237015674",
      "lat": "38.81816475460347"
    },
    {
      "id": "pt.ine.add.PTCONT.3097003",
      "street": "PCT CAMPOS",
      "house": "",
      "postcode": "2710-413",
      "city": "SINTRA",
      "lon": "-9.413627892141562",
      "lat": "38.81891606723445"
    },
    {
      "id": "pt.ine.add.PTCONT.3162505",
      "street": "PCT SAPO SASA NARVAL",
      "house": "O3",
      "postcode": "2710-413",
      "city": "SINTRA",
      "lon": "-9.413587992349768",
      "lat": "38.81733117632046"
    },
    {
      "id": "pt.ine.add.PTCONT.3170101",
      "street": "PCT CAMPOS",
      "house": "7",
      "postcode": "2710-413",
      "city": "SINTRA",
      "lon": "-9.413687767327243",
      "lat": "38.818401980729035"
    },
    {
      "id": "pt.ine.add.PTCONT.3173398",
      "street": "PCT PAPOILAS",
      "house": "12",
      "postcode": "2710-413",
      "city": "SINTRA",
      "lon": "-9.413091906751218",
      "lat": "38.81856163963521"
    },
    {
      "id": "pt.ine.add.PTCONT.3226988",
      "street": "PCT SAPO",
      "house": "6 A",
      "postcode": "2710-413",
      "city": "SINTRA",
      "lon": "-9.413351735913407",
      "lat": "38.81764002246195"
    },
    {
      "id": "pt.ine.add.PTCONT.3265231",
      "street": "R FONTE CASA DOS BALOICOS",
      "house": "05",
      "postcode": "2710-413",
      "city": "SINTRA",
      "lon": "-9.413101742190861",
      "lat": "38.819110992195796"
    },
    {
      "id": "pt.ine.add.PTCONT.3265232",
      "street": "R PAPOILAS",
      "house": "10",
      "postcode": "2710-413",
      "city": "SINTRA",
      "lon": "-9.413033865094707",
      "lat": "38.818535252966996"
    },
    {
      "id": "pt.ine.add.PTCONT.3281910",
      "street": "R FONTE CAZA DE SANT ANNA",
      "house": "20",
      "postcode": "2710-413",
      "city": "SINTRA",
      "lon": "-9.413749403626774",
      "lat": "38.819914572661844"
    },
    {
      "id": "pt.ine.add.PTCONT.3291043",
      "street": "PCT PAPOILAS",
      "house": "8",
      "postcode": "2710-413",
      "city": "SINTRA",
      "lon": "-9.412963989457483",
      "lat": "38.81849098083298"
    },
    {
      "id": "pt.ine.add.PTCONT.3291044",
      "street": "ESTR PRINCIPAL",
      "house": "76",
      "postcode": "2710-413",
      "city": "SINTRA",
      "lon": "-9.413611881268798",
      "lat": "38.81673641624463"
    },
    {
      "id": "pt.ine.add.PTCONT.3297577",
      "street": "ESTR PRINCIPAL",
      "house": "82",
      "postcode": "2710-413",
      "city": "SINTRA",
      "lon": "-9.414104285424688",
      "lat": "38.8165868968266"
    },
    {
      "id": "pt.ine.add.PTCONT.3306991",
      "street": "R PAPOILAS",
      "house": "4",
      "postcode": "2710-413",
      "city": "SINTRA",
      "lon": "-9.412707188514311",
      "lat": "38.818295628101744"
    },
    {
      "id": "pt.ine.add.PTCONT.3366783",
      "street": "PCT SAPO",
      "house": "6",
      "postcode": "2710-413",
      "city": "SINTRA",
      "lon": "-9.41335092960462",
      "lat": "38.8175949935586"
    },
    {
      "id": "pt.ine.add.PTCONT.3390867",
      "street": "PCT SAPO",
      "house": "2",
      "postcode": "2710-413",
      "city": "SINTRA",
      "lon": "-9.413392298632726",
      "lat": "38.81733332126649"
    },
    {
      "id": "pt.ine.add.PTCONT.3390868",
      "street": "ESTR PRINCIPAL",
      "house": "64",
      "postcode": "2710-413",
      "city": "SINTRA",
      "lon": "-9.413255129367391",
      "lat": "38.81738886983717"
    },
    {
      "id": "pt.ine.add.PTCONT.3401885",
      "street": "R MINA",
      "house": "60",
      "postcode": "2710-711",
      "city": "SINTRA",
      "lon": "-9.416528565204008",
      "lat": "38.82079383289347"
    }
  ]
}