{
  "data": {
    "distrito": "Guarda",
    "concelho": "Vila Nova de Foz Côa",
    "freguesia": "Cedovim",
    "OBJECTID": 396,
    "BGRI2021": "09140300124",
    "DT21": "09",
    "DTMN21": "0914",
    "DTMNFR21": "091403",
    "DTMNFRSEC21": "091403001",
    "SECNUM21": "001",
    "SSNUM21": "24",
    "SECSSNUM21": "00124",
    "OBJECTID_1": 83415,
    "DT": "09",
    "CC": "14",
    "fr": "03",
    "SEC": "001",
    "SS": "24"
  },
  "addresses": [
    {
      "id": "pt.ine.add.PTCONT.1899327",
      "street": "R DA CORREDOURA",
      "house": "8",
      "postcode": "5155-016",
      "city": "CEDOVIM",
      "lon": "-7.309052814453497",
      "lat": "41.02804781246188"
    },
    {
      "id": "pt.ine.add.PTCONT.1904186",
      "street": "R DO QUARTEL VELHO",
      "house": "6",
      "postcode": "5155-031",
      "city": "CEDOVIM",
      "lon": "-7.309708865092622",
      "lat": "41.0278814166178"
    },
    {
      "id": "pt.ine.add.PTCONT.1906629",
      "street": "R DR JOSÉ MARIA RAMOS",
      "house": "",
      "postcode": "5155-021",
      "city": "CEDOVIM",
      "lon": "-7.3096125173606215",
      "lat": "41.02702530431909"
    },
    {
      "id": "pt.ine.add.PTCONT.1910227",
      "street": "R DO FUNDO DE VILA",
      "house": "13",
      "postcode": "5155-020",
      "city": "CEDOVIM",
      "lon": "-7.3091026348105785",
      "lat": "41.02595913329702"
    },
    {
      "id": "pt.ine.add.PTCONT.1922350",
      "street": "R DR JOSÉ MARIA RAMOS",
      "house": "13",
      "postcode": "5155-021",
      "city": "CEDOVIM",
      "lon": "-7.309663215148293",
      "lat": "41.02677354158333"
    },
    {
      "id": "pt.ine.add.PTCONT.1928327",
      "street": "R DO FUNDO DE VILA",
      "house": "7",
      "postcode": "5155-020",
      "city": "CEDOVIM",
      "lon": "-7.309220178779926",
      "lat": "41.02606802719511"
    },
    {
      "id": "pt.ine.add.PTCONT.1928328",
      "street": "BC DO SACO",
      "house": "3",
      "postcode": "5155-039",
      "city": "CEDOVIM",
      "lon": "-7.309802072639567",
      "lat": "41.027080685342646"
    },
    {
      "id": "pt.ine.add.PTCONT.1934543",
      "street": "R DO FUNDO DE VILA",
      "house": "25",
      "postcode": "5155-020",
      "city": "CEDOVIM",
      "lon": "-7.308660717897532",
      "lat": "41.026118053300614"
    },
    {
      "id": "pt.ine.add.PTCONT.1935581",
      "street": "R DO FUNDO DE VILA",
      "house": "15",
      "postcode": "5155-020",
      "city": "CEDOVIM",
      "lon": "-7.308995296433032",
      "lat": "41.02598537921981"
    },
    {
      "id": "pt.ine.add.PTCONT.1935842",
      "street": "BC DO SACO",
      "house": "",
      "postcode": "5155-039",
      "city": "CEDOVIM",
      "lon": "-7.309873856834812",
      "lat": "41.02704518025965"
    },
    {
      "id": "pt.ine.add.PTCONT.1941679",
      "street": "R DO FUNDO DE VILA",
      "house": "11",
      "postcode": "5155-020",
      "city": "CEDOVIM",
      "lon": "-7.30911351371455",
      "lat": "41.026040251254884"
    },
    {
      "id": "pt.ine.add.PTCONT.1945606",
      "street": "R DR JOSÉ MARIA RAMOS",
      "house": "19",
      "postcode": "5155-021",
      "city": "CEDOVIM",
      "lon": "-7.309583356015345",
      "lat": "41.02650283707992"
    },
    {
      "id": "pt.ine.add.PTCONT.1946727",
      "street": "BC DO SACO",
      "house": "2",
      "postcode": "5155-039",
      "city": "CEDOVIM",
      "lon": "-7.309779079174701",
      "lat": "41.02701748984558"
    },
    {
      "id": "pt.ine.add.PTCONT.1955594",
      "street": "R DO FUNDO DE VILA",
      "house": "3",
      "postcode": "5155-020",
      "city": "CEDOVIM",
      "lon": "-7.309395485630452",
      "lat": "41.02631240077952"
    },
    {
      "id": "pt.ine.add.PTCONT.1957340",
      "street": "R DR JOSÉ MARIA RAMOS",
      "house": "11",
      "postcode": "5155-021",
      "city": "CEDOVIM",
      "lon": "-7.309733541012205",
      "lat": "41.026855084189165"
    },
    {
      "id": "pt.ine.add.PTCONT.1960486",
      "street": "R DR JOSÉ MARIA RAMOS",
      "house": "5",
      "postcode": "5155-021",
      "city": "CEDOVIM",
      "lon": "-7.309850975456777",
      "lat": "41.02697298111397"
    },
    {
      "id": "pt.ine.add.PTCONT.1962074",
      "street": "R DR JOSÉ MARIA RAMOS",
      "house": "1",
      "postcode": "5155-021",
      "city": "CEDOVIM",
      "lon": "-7.310060945844199",
      "lat": "41.027298641423364"
    },
    {
      "id": "pt.ine.add.PTCONT.1967365",
      "street": "R DO FUNDO DE VILA",
      "house": "1",
      "postcode": "5155-020",
      "city": "CEDOVIM",
      "lon": "-7.309489364592613",
      "lat": "41.02641212079854"
    },
    {
      "id": "pt.ine.add.PTCONT.1972418",
      "street": "R DR JOSÉ MARIA RAMOS",
      "house": "15",
      "postcode": "5155-021",
      "city": "CEDOVIM",
      "lon": "-7.309592328566642",
      "lat": "41.02673701724437"
    },
    {
      "id": "pt.ine.add.PTCONT.1973350",
      "street": "R DO FUNDO DE VILA",
      "house": "19",
      "postcode": "5155-020",
      "city": "CEDOVIM",
      "lon": "-7.308795203317923",
      "lat": "41.02582186792602"
    },
    {
      "id": "pt.ine.add.PTCONT.1979143",
      "street": "R DR JOSÉ MARIA RAMOS",
      "house": "3",
      "postcode": "5155-021",
      "city": "CEDOVIM",
      "lon": "-7.30992186243491",
      "lat": "41.0270095052961"
    },
    {
      "id": "pt.ine.add.PTCONT.1979235",
      "street": "R DO FUNDO DE VILA",
      "house": "9",
      "postcode": "5155-020",
      "city": "CEDOVIM",
      "lon": "-7.309220852136438",
      "lat": "41.02601400522266"
    },
    {
      "id": "pt.ine.add.PTCONT.1852688",
      "street": "R DR JOSÉ MARIA RAMOS",
      "house": "21",
      "postcode": "5155-021",
      "city": "CEDOVIM",
      "lon": "-7.30951258195447",
      "lat": "41.02645730903123"
    },
    {
      "id": "pt.ine.add.PTCONT.1856638",
      "street": "R DR JOSÉ MARIA RAMOS",
      "house": "17",
      "postcode": "5155-021",
      "city": "CEDOVIM",
      "lon": "-7.309617340906485",
      "lat": "41.026638146864784"
    },
    {
      "id": "pt.ine.add.PTCONT.1862658",
      "street": "R DO FUNDO DE VILA",
      "house": "2",
      "postcode": "5155-020",
      "city": "CEDOVIM",
      "lon": "-7.309430255437948",
      "lat": "41.02638468498589"
    },
    {
      "id": "pt.ine.add.PTCONT.1868552",
      "street": "R DO TABELADO",
      "house": "13",
      "postcode": "5155-043",
      "city": "CEDOVIM",
      "lon": "-7.309669608117358",
      "lat": "41.02721480594624"
    },
    {
      "id": "pt.ine.add.PTCONT.1877422",
      "street": "R DO QUARTEL VELHO",
      "house": "4",
      "postcode": "5155-031",
      "city": "CEDOVIM",
      "lon": "-7.30980465333951",
      "lat": "41.02782807415215"
    },
    {
      "id": "pt.ine.add.PTCONT.1889193",
      "street": "R DA CORREDOURA",
      "house": "6",
      "postcode": "5155-016",
      "city": "CEDOVIM",
      "lon": "-7.30908758476612",
      "lat": "41.02812009675514"
    },
    {
      "id": "pt.ine.add.PTCONT.1892289",
      "street": "R DO QUARTEL VELHO",
      "house": "18",
      "postcode": "5155-031",
      "city": "CEDOVIM",
      "lon": "-7.309241811009817",
      "lat": "41.02814821271388"
    }
  ]
}