{
  "data": {
    "distrito": "Coimbra",
    "concelho": "Soure",
    "freguesia": "Figueiró do Campo",
    "OBJECTID": 870,
    "BGRI2021": "06150400148",
    "DT21": "06",
    "DTMN21": "0615",
    "DTMNFR21": "061504",
    "DTMNFRSEC21": "061504001",
    "SECNUM21": "001",
    "SSNUM21": "48",
    "SECSSNUM21": "00148",
    "OBJECTID_1": 57341,
    "DT": "06",
    "CC": "15",
    "fr": "04",
    "SEC": "001",
    "SS": "48"
  },
  "addresses": [
    {
      "id": "pt.ine.add.PTCONT.1107533",
      "street": "R PRINCIPAL",
      "house": "7",
      "postcode": "3130-042",
      "city": "FIGUEIRÓ DO CAMPO",
      "lon": "-8.596693532743997",
      "lat": "40.15974255417764"
    },
    {
      "id": "pt.ine.add.PTCONT.1107534",
      "street": "R ESTRADA NACIONAL",
      "house": "7",
      "postcode": "3130-042",
      "city": "FIGUEIRÓ DO CAMPO",
      "lon": "-8.596693532743997",
      "lat": "40.15974255417764"
    },
    {
      "id": "pt.ine.add.PTCONT.1113404",
      "street": "R OLI VEIRA DO SENHOR",
      "house": "1",
      "postcode": "3130-048",
      "city": "FIGUEIRÓ DO CAMPO",
      "lon": "-8.59814652212925",
      "lat": "40.157656364565526"
    },
    {
      "id": "pt.ine.add.PTCONT.1132874",
      "street": "R PRINCIPAL",
      "house": "1",
      "postcode": "3130-042",
      "city": "FIGUEIRÓ DO CAMPO",
      "lon": "-8.598348329461773",
      "lat": "40.15970889930438"
    },
    {
      "id": "pt.ine.add.PTCONT.1139440",
      "street": "EN 347",
      "house": "1",
      "postcode": "3130-048",
      "city": "FIGUEIRÓ DO CAMPO",
      "lon": "-8.59585986663036",
      "lat": "40.15797172640468"
    },
    {
      "id": "pt.ine.add.PTCONT.1140804",
      "street": "ESTR NACIONAL 347",
      "house": "1",
      "postcode": "3130-042",
      "city": "FIGUEIRÓ DO CAMPO",
      "lon": "-8.59585986663036",
      "lat": "40.15797172640468"
    },
    {
      "id": "pt.ine.add.PTCONT.1140866",
      "street": "EN 347",
      "house": "1",
      "postcode": "3130-048",
      "city": "FIGUEIRÓ DO CAMPO",
      "lon": "-8.59585986663036",
      "lat": "40.15797172640468"
    },
    {
      "id": "pt.ine.add.PTCONT.1150927",
      "street": "R PRINCIPAL",
      "house": "1A",
      "postcode": "3130-042",
      "city": "FIGUEIRÓ DO CAMPO",
      "lon": "-8.597110931684446",
      "lat": "40.1589843866605"
    },
    {
      "id": "pt.ine.add.PTCONT.1161167",
      "street": "R BARROCO",
      "house": "2",
      "postcode": "3130-041",
      "city": "FIGUEIRÓ DO CAMPO",
      "lon": "-8.598041932453606",
      "lat": "40.15780988491633"
    },
    {
      "id": "pt.ine.add.PTCONT.1167764",
      "street": "R BARROCO",
      "house": "4",
      "postcode": "3130-041",
      "city": "FIGUEIRÓ DO CAMPO",
      "lon": "-8.59751241219342",
      "lat": "40.15761388004333"
    },
    {
      "id": "pt.ine.add.PTCONT.1179141",
      "street": "R ESTRADA NACIONAL",
      "house": "19",
      "postcode": "3130-042",
      "city": "FIGUEIRÓ DO CAMPO",
      "lon": "-8.597750272064948",
      "lat": "40.15979235385875"
    },
    {
      "id": "pt.ine.add.PTCONT.1179142",
      "street": "R PRINCIPAL",
      "house": "",
      "postcode": "3130-042",
      "city": "FIGUEIRÓ DO CAMPO",
      "lon": "-8.598125563693372",
      "lat": "40.15974581776399"
    },
    {
      "id": "pt.ine.add.PTCONT.1189303",
      "street": "R PRINCIPAL",
      "house": "5",
      "postcode": "3130-042",
      "city": "FIGUEIRÓ DO CAMPO",
      "lon": "-8.598264938201538",
      "lat": "40.15952911635129"
    },
    {
      "id": "pt.ine.add.PTCONT.1195506",
      "street": "R 8 DE DEZEMBRO",
      "house": "11",
      "postcode": "3130-041",
      "city": "FIGUEIRÓ DO CAMPO",
      "lon": "-8.597722022532695",
      "lat": "40.15736987978018"
    },
    {
      "id": "pt.ine.add.PTCONT.1203261",
      "street": "R ESCOLA PRIMARIA",
      "house": "8",
      "postcode": "3130-042",
      "city": "FIGUEIRÓ DO CAMPO",
      "lon": "-8.597969967341186",
      "lat": "40.159305153461936"
    },
    {
      "id": "pt.ine.add.PTCONT.1204868",
      "street": "R BARROCO",
      "house": "11",
      "postcode": "3130-041",
      "city": "FIGUEIRÓ DO CAMPO",
      "lon": "-8.597347602303694",
      "lat": "40.15754249371373"
    },
    {
      "id": "pt.ine.add.PTCONT.1204903",
      "street": "R ESTRADA NACIONAL",
      "house": "9",
      "postcode": "3130-042",
      "city": "FIGUEIRÓ DO CAMPO",
      "lon": "-8.597081297899768",
      "lat": "40.159804042320275"
    },
    {
      "id": "pt.ine.add.PTCONT.1208906",
      "street": "R BARROCO",
      "house": "7",
      "postcode": "3130-041",
      "city": "FIGUEIRÓ DO CAMPO",
      "lon": "-8.597230967314468",
      "lat": "40.15765103211679"
    },
    {
      "id": "pt.ine.add.PTCONT.1213121",
      "street": "R ESTRADA NACIONAL",
      "house": "",
      "postcode": "3130-042",
      "city": "FIGUEIRÓ DO CAMPO",
      "lon": "-8.596173842096055",
      "lat": "40.15926732100138"
    },
    {
      "id": "pt.ine.add.PTCONT.1219148",
      "street": "R ESTRADA NACIONAL",
      "house": "17",
      "postcode": "3130-042",
      "city": "FIGUEIRÓ DO CAMPO",
      "lon": "-8.597632897428415",
      "lat": "40.15979282480635"
    },
    {
      "id": "pt.ine.add.PTCONT.1219149",
      "street": "R PRINCIPAL",
      "house": "3",
      "postcode": "3130-041",
      "city": "FIGUEIRÓ DO CAMPO",
      "lon": "-8.597060856322113",
      "lat": "40.15852528635994"
    },
    {
      "id": "pt.ine.add.PTCONT.1231361",
      "street": "R PRINCIPAL",
      "house": "1",
      "postcode": "3130-042",
      "city": "FIGUEIRÓ DO CAMPO",
      "lon": "-8.597097661851212",
      "lat": "40.158759292312745"
    },
    {
      "id": "pt.ine.add.PTCONT.1233322",
      "street": "R BARROCO",
      "house": "8",
      "postcode": "3130-041",
      "city": "FIGUEIRÓ DO CAMPO",
      "lon": "-8.597570299959122",
      "lat": "40.15749657111832"
    },
    {
      "id": "pt.ine.add.PTCONT.1245201",
      "street": "R SANTO ANTONIO",
      "house": "",
      "postcode": "3130-041",
      "city": "FIGUEIRÓ DO CAMPO",
      "lon": "-8.595843422303583",
      "lat": "40.157278337581225"
    },
    {
      "id": "pt.ine.add.PTCONT.1245429",
      "street": "R STO ANTONIO",
      "house": "2",
      "postcode": "3130-041",
      "city": "FIGUEIRÓ DO CAMPO",
      "lon": "-8.595843422303583",
      "lat": "40.157278337581225"
    },
    {
      "id": "pt.ine.add.PTCONT.1251905",
      "street": "R 8 DE DEZEMBRO",
      "house": "3",
      "postcode": "3130-041",
      "city": "FIGUEIRÓ DO CAMPO",
      "lon": "-8.59805280963913",
      "lat": "40.15768375860579"
    },
    {
      "id": "pt.ine.add.PTCONT.1264234",
      "street": "R BARROCO",
      "house": "6",
      "postcode": "3130-041",
      "city": "FIGUEIRÓ DO CAMPO",
      "lon": "-8.597535456884037",
      "lat": "40.157550746294724"
    },
    {
      "id": "pt.ine.add.PTCONT.1264550",
      "street": "R ESTRADA NACIONAL",
      "house": "11",
      "postcode": "3130-042",
      "city": "FIGUEIRÓ DO CAMPO",
      "lon": "-8.597233455722856",
      "lat": "40.15974039121595"
    },
    {
      "id": "pt.ine.add.PTCONT.1266615",
      "street": "R BARROCO",
      "house": "10",
      "postcode": "3130-041",
      "city": "FIGUEIRÓ DO CAMPO",
      "lon": "-8.597487281598129",
      "lat": "40.157370821452375"
    },
    {
      "id": "pt.ine.add.PTCONT.1270433",
      "street": "R PRINCIPAL",
      "house": "3B",
      "postcode": "3130-042",
      "city": "FIGUEIRÓ DO CAMPO",
      "lon": "-8.596246163201089",
      "lat": "40.15954621465944"
    },
    {
      "id": "pt.ine.add.PTCONT.1272489",
      "street": "R ESTRADA NACIONAL",
      "house": "21",
      "postcode": "3130-042",
      "city": "FIGUEIRÓ DO CAMPO",
      "lon": "-8.597879445567433",
      "lat": "40.15980084133183"
    },
    {
      "id": "pt.ine.add.PTCONT.1284869",
      "street": "R BARROCO",
      "house": "5",
      "postcode": "3130-041",
      "city": "FIGUEIRÓ DO CAMPO",
      "lon": "-8.59738367222664",
      "lat": "40.157668431731885"
    },
    {
      "id": "pt.ine.add.PTCONT.1284870",
      "street": "R BARROCO",
      "house": "5",
      "postcode": "3130-041",
      "city": "FIGUEIRÓ DO CAMPO",
      "lon": "-8.59738367222664",
      "lat": "40.157668431731885"
    },
    {
      "id": "pt.ine.add.PTCONT.1304878",
      "street": "R ESTRADA NACIONAL",
      "house": "13",
      "postcode": "3130-042",
      "city": "FIGUEIRÓ DO CAMPO",
      "lon": "-8.597198979143007",
      "lat": "40.159848600200085"
    },
    {
      "id": "pt.ine.add.PTCONT.1304879",
      "street": "R BARROCO",
      "house": "9",
      "postcode": "3130-041",
      "city": "FIGUEIRÓ DO CAMPO",
      "lon": "-8.597219843356399",
      "lat": "40.15774113573193"
    },
    {
      "id": "pt.ine.add.PTCONT.1306516",
      "street": "R BARROCO",
      "house": "",
      "postcode": "3130-041",
      "city": "FIGUEIRÓ DO CAMPO",
      "lon": "-8.597724170829892",
      "lat": "40.15768507776093"
    },
    {
      "id": "pt.ine.add.PTCONT.1308151",
      "street": "R 8 DE DEZEMBRO",
      "house": "13",
      "postcode": "3130-041",
      "city": "FIGUEIRÓ DO CAMPO",
      "lon": "-8.597756803983994",
      "lat": "40.157306698890395"
    },
    {
      "id": "pt.ine.add.PTCONT.1309618",
      "street": "R 8 DE DEZEMBRO",
      "house": "7",
      "postcode": "3130-041",
      "city": "FIGUEIRÓ DO CAMPO",
      "lon": "-8.597664196506376",
      "lat": "40.15749619443825"
    },
    {
      "id": "pt.ine.add.PTCONT.1323032",
      "street": "R PRINCIPAL",
      "house": "",
      "postcode": "3130-042",
      "city": "FIGUEIRÓ DO CAMPO",
      "lon": "-8.598324055533734",
      "lat": "40.15959192014186"
    },
    {
      "id": "pt.ine.add.PTCONT.1323043",
      "street": "R ESTRADA NACIONAL",
      "house": "15",
      "postcode": "3130-042",
      "city": "FIGUEIRÓ DO CAMPO",
      "lon": "-8.597480617160949",
      "lat": "40.15983846512704"
    },
    {
      "id": "pt.ine.add.PTCONT.1327163",
      "street": "R ESTRADA NACIONAL",
      "house": "3",
      "postcode": "3130-042",
      "city": "FIGUEIRÓ DO CAMPO",
      "lon": "-8.595912684899712",
      "lat": "40.15883608188941"
    },
    {
      "id": "pt.ine.add.PTCONT.1329149",
      "street": "R ESTRADA NACIONAL",
      "house": "",
      "postcode": "3130-042",
      "city": "FIGUEIRÓ DO CAMPO",
      "lon": "-8.598091027096094",
      "lat": "40.15984502135318"
    },
    {
      "id": "pt.ine.add.PTCONT.1335136",
      "street": "R BARROCO",
      "house": "3",
      "postcode": "3130-041",
      "city": "FIGUEIRÓ DO CAMPO",
      "lon": "-8.597819479676625",
      "lat": "40.15789183104409"
    },
    {
      "id": "pt.ine.add.PTCONT.1335212",
      "street": "R BARROCO",
      "house": "1",
      "postcode": "3130-041",
      "city": "FIGUEIRÓ DO CAMPO",
      "lon": "-8.597819479676625",
      "lat": "40.15789183104409"
    },
    {
      "id": "pt.ine.add.PTCONT.1341515",
      "street": "R PRINCIPAL",
      "house": "",
      "postcode": "3130-042",
      "city": "FIGUEIRÓ DO CAMPO",
      "lon": "-8.598019005242216",
      "lat": "40.15961115717132"
    },
    {
      "id": "pt.ine.add.PTCONT.1344232",
      "street": "R 8 DE DEZEMBRO",
      "house": "15",
      "postcode": "3130-041",
      "city": "FIGUEIRÓ DO CAMPO",
      "lon": "-8.597380728159976",
      "lat": "40.15723616018893"
    },
    {
      "id": "pt.ine.add.PTCONT.1353879",
      "street": "R PRINCIPAL",
      "house": "7",
      "postcode": "3130-042",
      "city": "FIGUEIRÓ DO CAMPO",
      "lon": "-8.598182407610086",
      "lat": "40.15947541247298"
    },
    {
      "id": "pt.ine.add.PTCONT.1360004",
      "street": "R ESTRADA NACIONAL",
      "house": "5",
      "postcode": "3130-042",
      "city": "FIGUEIRÓ DO CAMPO",
      "lon": "-8.59646990887073",
      "lat": "40.159653390292135"
    }
  ]
}