{
  "data": {
    "distrito": "Vila Real",
    "concelho": "Chaves",
    "freguesia": "Santa Maria Maior",
    "OBJECTID": 423,
    "BGRI2021": "17035001215",
    "DT21": "17",
    "DTMN21": "1703",
    "DTMNFR21": "170350",
    "DTMNFRSEC21": "170350012",
    "SECNUM21": "012",
    "SSNUM21": "15",
    "SECSSNUM21": "01215",
    "OBJECTID_1": 180846,
    "DT": "17",
    "CC": "03",
    "fr": "50",
    "SEC": "012",
    "SS": "15"
  },
  "addresses": [
    {
      "id": "pt.ine.add.PTCONT.5301469",
      "street": "R DOS GATOS",
      "house": "11",
      "postcode": "5400-288",
      "city": "CHAVES",
      "lon": "-7.470718334595193",
      "lat": "41.73940341128754"
    },
    {
      "id": "pt.ine.add.PTCONT.5315167",
      "street": "TV DAS CALDAS",
      "house": "13",
      "postcode": "5400-138",
      "city": "CHAVES",
      "lon": "-7.470296888103181",
      "lat": "41.73947300818043"
    },
    {
      "id": "pt.ine.add.PTCONT.5318659",
      "street": "R DOS GATOS",
      "house": "10",
      "postcode": "5400-288",
      "city": "CHAVES",
      "lon": "-7.470646398641576",
      "lat": "41.7393849897539"
    },
    {
      "id": "pt.ine.add.PTCONT.5326640",
      "street": "TV DAS CALDAS",
      "house": "20",
      "postcode": "5400-138",
      "city": "CHAVES",
      "lon": "-7.4703337817954205",
      "lat": "41.73939219034848"
    },
    {
      "id": "pt.ine.add.PTCONT.5339684",
      "street": "R ORDEM TERCEIRA",
      "house": "18",
      "postcode": "5400-426",
      "city": "CHAVES",
      "lon": "-7.470562535108346",
      "lat": "41.73935749599348"
    },
    {
      "id": "pt.ine.add.PTCONT.5344318",
      "street": "LG CAETANO FERREIRA",
      "house": "17",
      "postcode": "5400-136",
      "city": "CHAVES",
      "lon": "-7.4708500014512556",
      "lat": "41.73945819068476"
    },
    {
      "id": "pt.ine.add.PTCONT.5351775",
      "street": "R DE STA MARIA",
      "house": "5",
      "postcode": "5400-376",
      "city": "CHAVES",
      "lon": "-7.47019822668984",
      "lat": "41.73971553094432"
    },
    {
      "id": "pt.ine.add.PTCONT.5353683",
      "street": "R DOS GATOS",
      "house": "19",
      "postcode": "5400-288",
      "city": "CHAVES",
      "lon": "-7.470790270590444",
      "lat": "41.739421832776316"
    },
    {
      "id": "pt.ine.add.PTCONT.5369330",
      "street": "R DOS GATOS",
      "house": "20",
      "postcode": "5400-288",
      "city": "CHAVES",
      "lon": "-7.470368546349223",
      "lat": "41.73951843854652"
    },
    {
      "id": "pt.ine.add.PTCONT.5425031",
      "street": "TV DAS CALDAS",
      "house": "26",
      "postcode": "5400-138",
      "city": "CHAVES",
      "lon": "-7.470430683588889",
      "lat": "41.739320722012586"
    }
  ]
}