{
  "data": {
    "ilha": "Ilha da Madeira (Madeira)",
    "concelho": "Santana",
    "freguesia": "Ilha",
    "OBJECTID": 6,
    "BGRI2021": "31090600111",
    "DT21": "31",
    "DTMN21": "3109",
    "DTMNFR21": "310906",
    "DTMNFRSEC21": "310906001",
    "SECNUM21": "001",
    "SSNUM21": "11",
    "SECSSNUM21": "00111",
    "OBJECTID_1": 205381,
    "DT": "31",
    "CC": "09",
    "fr": "06",
    "SEC": "001",
    "SS": "11",
    "BGRI2021_1": "31090600111"
  },
  "addresses": [
    {
      "id": "pt.ine.add.MAD.40811",
      "street": "SIT GRANEL",
      "house": "",
      "postcode": "9230-235",
      "city": "ILHA STN",
      "lon": "-16.91135144113518",
      "lat": "32.81150143431752"
    },
    {
      "id": "pt.ine.add.MAD.40812",
      "street": "SIT GRANEL",
      "house": "",
      "postcode": "9230-235",
      "city": "ILHA STN",
      "lon": "-16.911142357019546",
      "lat": "32.81171205397137"
    },
    {
      "id": "pt.ine.add.MAD.40832",
      "street": "SITIO TRANQUADA",
      "house": "",
      "postcode": "9230-239",
      "city": "ILHA STN",
      "lon": "-16.907125645843692",
      "lat": "32.813658202420974"
    },
    {
      "id": "pt.ine.add.MAD.40833",
      "street": "SITIO TRANQUADA",
      "house": "",
      "postcode": "9230-239",
      "city": "ILHA STN",
      "lon": "-16.907339175577253",
      "lat": "32.81365494858764"
    },
    {
      "id": "pt.ine.add.MAD.41638",
      "street": "SIT GRANEL",
      "house": "",
      "postcode": "9230-236",
      "city": "ILHA STN",
      "lon": "-16.91092728823706",
      "lat": "32.81164318918459"
    },
    {
      "id": "pt.ine.add.MAD.41639",
      "street": "SIT GRANEL",
      "house": "",
      "postcode": "9230-236",
      "city": "ILHA STN",
      "lon": "-16.910064894017488",
      "lat": "32.81126855436863"
    },
    {
      "id": "pt.ine.add.MAD.41640",
      "street": "SIT GRANEL",
      "house": "",
      "postcode": "9230-236",
      "city": "ILHA STN",
      "lon": "-16.90988397762431",
      "lat": "32.81129837079265"
    },
    {
      "id": "pt.ine.add.MAD.41641",
      "street": "SIT GRANEL",
      "house": "",
      "postcode": "9230-236",
      "city": "ILHA STN",
      "lon": "-16.910851060793213",
      "lat": "32.80957910147071"
    },
    {
      "id": "pt.ine.add.MAD.41642",
      "street": "SIT GRANEL",
      "house": "",
      "postcode": "9230-236",
      "city": "ILHA STN",
      "lon": "-16.91092116052163",
      "lat": "32.809361585687824"
    },
    {
      "id": "pt.ine.add.MAD.41643",
      "street": "SIT GRANEL",
      "house": "",
      "postcode": "9230-236",
      "city": "ILHA STN",
      "lon": "-16.911123231464167",
      "lat": "32.80932242628637"
    },
    {
      "id": "pt.ine.add.MAD.41644",
      "street": "SIT GRANEL",
      "house": "",
      "postcode": "9230-236",
      "city": "ILHA STN",
      "lon": "-16.91162899860319",
      "lat": "32.81000011395334"
    },
    {
      "id": "pt.ine.add.MAD.41645",
      "street": "SIT GRANEL",
      "house": "",
      "postcode": "9230-236",
      "city": "ILHA STN",
      "lon": "-16.910721667791396",
      "lat": "32.8105190076615"
    },
    {
      "id": "pt.ine.add.MAD.41646",
      "street": "SIT GRANEL",
      "house": "",
      "postcode": "9230-236",
      "city": "ILHA STN",
      "lon": "-16.911221840865842",
      "lat": "32.8109352438194"
    },
    {
      "id": "pt.ine.add.MAD.41647",
      "street": "SIT GRANEL",
      "house": "2",
      "postcode": "9230-236",
      "city": "ILHA STN",
      "lon": "-16.911368739200412",
      "lat": "32.81131178033326"
    },
    {
      "id": "pt.ine.add.MAD.53287",
      "street": "SIT GRANEL",
      "house": "",
      "postcode": "9230-235",
      "city": "ILHA STN",
      "lon": "-16.912477657781977",
      "lat": "32.81172773223217"
    },
    {
      "id": "pt.ine.add.MAD.53288",
      "street": "SIT GRANEL",
      "house": "",
      "postcode": "9230-235",
      "city": "ILHA STN",
      "lon": "-16.912045201035383",
      "lat": "32.81148181961058"
    },
    {
      "id": "pt.ine.add.MAD.53289",
      "street": "SIT GRANEL",
      "house": "",
      "postcode": "9230-235",
      "city": "ILHA STN",
      "lon": "-16.911883706263787",
      "lat": "32.81142115661021"
    },
    {
      "id": "pt.ine.add.MAD.53290",
      "street": "SIT GRANEL",
      "house": "",
      "postcode": "9230-235",
      "city": "ILHA STN",
      "lon": "-16.911720860012174",
      "lat": "32.811297384099696"
    },
    {
      "id": "pt.ine.add.MAD.53291",
      "street": "SIT GRANEL",
      "house": "",
      "postcode": "9230-235",
      "city": "ILHA STN",
      "lon": "-16.911532357336508",
      "lat": "32.811471615775304"
    },
    {
      "id": "pt.ine.add.MAD.53292",
      "street": "SIT GRANEL",
      "house": "",
      "postcode": "9230-235",
      "city": "ILHA STN",
      "lon": "-16.911630374028352",
      "lat": "32.811560304434835"
    },
    {
      "id": "pt.ine.add.MAD.59984",
      "street": "SIT GRANEL",
      "house": "",
      "postcode": "9230-236",
      "city": "ILHA STN",
      "lon": "-16.911408934054577",
      "lat": "32.811193925194104"
    },
    {
      "id": "pt.ine.add.MAD.72843",
      "street": "SIT GRANEL",
      "house": "",
      "postcode": "9230-235",
      "city": "ILHA STN",
      "lon": "-16.911499170277246",
      "lat": "32.811418011231694"
    },
    {
      "id": "pt.ine.add.MAD.84275",
      "street": "SIT GRANEL",
      "house": "",
      "postcode": "9230-235",
      "city": "ILHA STN",
      "lon": "-16.912272298482282",
      "lat": "32.81161362861839"
    },
    {
      "id": "pt.ine.add.MAD.92243",
      "street": "SIT GRANEL",
      "house": "",
      "postcode": "9230-236",
      "city": "ILHA STN",
      "lon": "-16.91110504181561",
      "lat": "32.810468061867546"
    },
    {
      "id": "pt.ine.add.MAD.102300",
      "street": "CAM DA RIBEIRA GRANDE",
      "house": "6",
      "postcode": "9230-235",
      "city": "ILHA STN",
      "lon": "-16.9121754399938",
      "lat": "32.81157903415163"
    },
    {
      "id": "pt.ine.add.MAD.103716",
      "street": "SITIO TRANQUADA",
      "house": "",
      "postcode": "9230-239",
      "city": "ILHA STN",
      "lon": "-16.90720836050339",
      "lat": "32.81353068205848"
    },
    {
      "id": "pt.ine.add.MAD.111159",
      "street": "SIT GRANEL",
      "house": "",
      "postcode": "9230-236",
      "city": "ILHA STN",
      "lon": "-16.911193539093624",
      "lat": "32.810611007650685"
    },
    {
      "id": "pt.ine.add.MAD.114194",
      "street": "SIT GRANEL",
      "house": "",
      "postcode": "9230-236",
      "city": "ILHA STN",
      "lon": "-16.910955504457004",
      "lat": "32.80946928416269"
    },
    {
      "id": "pt.ine.add.MAD.123062",
      "street": "CAM TRANQUADA",
      "house": "15",
      "postcode": "9230-239",
      "city": "ILHA STN",
      "lon": "-16.907299167008592",
      "lat": "32.813781818247215"
    },
    {
      "id": "pt.ine.add.MAD.126826",
      "street": "TV DO CAMINHO DO GRANEL",
      "house": "1",
      "postcode": "9230-235",
      "city": "ILHA STN",
      "lon": "-16.911951046494853",
      "lat": "32.81157344352434"
    },
    {
      "id": "pt.ine.add.MAD.127060",
      "street": "CAM DO GRANEL",
      "house": "9",
      "postcode": "9230-235",
      "city": "ILHA STN",
      "lon": "-16.911171683068886",
      "lat": "32.81158534629758"
    }
  ]
}