{
  "data": {
    "distrito": "Set√∫bal",
    "concelho": "Palmela",
    "freguesia": "Palmela",
    "OBJECTID": 579,
    "BGRI2021": "15080200127",
    "DT21": "15",
    "DTMN21": "1508",
    "DTMNFR21": "150802",
    "DTMNFRSEC21": "150802001",
    "SECNUM21": "001",
    "SSNUM21": "27",
    "SECSSNUM21": "00127",
    "OBJECTID_1": 165141,
    "DT": "15",
    "CC": "08",
    "fr": "02",
    "SEC": "001",
    "SS": "27"
  },
  "addresses": [
    {
      "id": "pt.ine.add.PTCONT.4686155",
      "street": "R PASSADICO",
      "house": "2",
      "postcode": "2950-229",
      "city": "PALMELA",
      "lon": "-8.902767676635493",
      "lat": "38.56885862856292"
    },
    {
      "id": "pt.ine.add.PTCONT.4751569",
      "street": "R HERMENEGILDO CAPELO",
      "house": "59",
      "postcode": "2950-234",
      "city": "PALMELA",
      "lon": "-8.902526829675967",
      "lat": "38.56886922021375"
    },
    {
      "id": "pt.ine.add.PTCONT.4781926",
      "street": "R PASSADICO",
      "house": "4",
      "postcode": "2950-229",
      "city": "PALMELA",
      "lon": "-8.902756779722612",
      "lat": "38.56891274963092"
    },
    {
      "id": "pt.ine.add.PTCONT.4858463",
      "street": "R PASSADICO",
      "house": "6",
      "postcode": "2950-229",
      "city": "PALMELA",
      "lon": "-8.902802961964289",
      "lat": "38.56893947066809"
    },
    {
      "id": "pt.ine.add.PTCONT.4890163",
      "street": "R 31 JANEIRO",
      "house": "7",
      "postcode": "2950-272",
      "city": "PALMELA",
      "lon": "-8.902574452877762",
      "lat": "38.569031055412005"
    },
    {
      "id": "pt.ine.add.PTCONT.4945467",
      "street": "R 31 JANEIRO",
      "house": "1",
      "postcode": "2950-272",
      "city": "PALMELA",
      "lon": "-8.902423856518315",
      "lat": "38.568896921754146"
    },
    {
      "id": "pt.ine.add.PTCONT.4992850",
      "street": "R COR GALHARDO",
      "house": "4",
      "postcode": "2950-267",
      "city": "PALMELA",
      "lon": "-8.902631916480496",
      "lat": "38.56903968588278"
    },
    {
      "id": "pt.ine.add.PTCONT.5049397",
      "street": "R COR GALHARDO",
      "house": "2",
      "postcode": "2950-267",
      "city": "PALMELA",
      "lon": "-8.902700277078837",
      "lat": "38.56899419526394"
    },
    {
      "id": "pt.ine.add.PTCONT.5057998",
      "street": "R 31 DE JANEIRO",
      "house": "3",
      "postcode": "2950-272",
      "city": "PALMELA",
      "lon": "-8.9024702307455",
      "lat": "38.568941658133866"
    },
    {
      "id": "pt.ine.add.PTCONT.5085541",
      "street": "R 31 DE JANEIRO",
      "house": "",
      "postcode": "2950-272",
      "city": "PALMELA",
      "lon": "-8.902516508965967",
      "lat": "38.56897738688958"
    },
    {
      "id": "pt.ine.add.PTCONT.5085542",
      "street": "R 31 JANEIRO",
      "house": "5",
      "postcode": "2950-272",
      "city": "PALMELA",
      "lon": "-8.902516508965967",
      "lat": "38.56897738688958"
    },
    {
      "id": "pt.ine.add.PTCONT.5085543",
      "street": "R 31 JANEIRO",
      "house": "5",
      "postcode": "2950-272",
      "city": "PALMELA",
      "lon": "-8.902516508965967",
      "lat": "38.56897738688958"
    },
    {
      "id": "pt.ine.add.PTCONT.5130505",
      "street": "R COR GALHARDO",
      "house": "4A",
      "postcode": "2950-267",
      "city": "PALMELA",
      "lon": "-8.902631916480496",
      "lat": "38.56903968588278"
    }
  ]
}