{
  "data": {
    "distrito": "Vila Real",
    "concelho": "Vila Real",
    "freguesia": "Uni√£o das freguesias de Nogueira e Ermida",
    "OBJECTID": 953,
    "BGRI2021": "17143500108",
    "DT21": "17",
    "DTMN21": "1714",
    "DTMNFR21": "171435",
    "DTMNFRSEC21": "171435001",
    "SECNUM21": "001",
    "SSNUM21": "08",
    "SECSSNUM21": "00108",
    "OBJECTID_1": 188070,
    "DT": "17",
    "CC": "14",
    "fr": "35",
    "SEC": "001",
    "SS": "08"
  },
  "addresses": [
    {
      "id": "pt.ine.add.PTCONT.5292679",
      "street": "TV AGULHAS",
      "house": "1",
      "postcode": "5000-092",
      "city": "ERMIDA VRL",
      "lon": "-7.752205481982671",
      "lat": "41.22322079388362"
    },
    {
      "id": "pt.ine.add.PTCONT.5293493",
      "street": "R DIREITA",
      "house": "",
      "postcode": "5000-092",
      "city": "ERMIDA VRL",
      "lon": "-7.751691735374608",
      "lat": "41.223381170043254"
    },
    {
      "id": "pt.ine.add.PTCONT.5294556",
      "street": "R DIREITA",
      "house": "",
      "postcode": "5000-092",
      "city": "ERMIDA VRL",
      "lon": "-7.751727041727785",
      "lat": "41.223462325310514"
    },
    {
      "id": "pt.ine.add.PTCONT.5313279",
      "street": "R DIREITA",
      "house": "",
      "postcode": "5000-092",
      "city": "ERMIDA VRL",
      "lon": "-7.752073254023212",
      "lat": "41.22340044160915"
    },
    {
      "id": "pt.ine.add.PTCONT.5317386",
      "street": "R BATOCA",
      "house": "",
      "postcode": "5000-092",
      "city": "ERMIDA VRL",
      "lon": "-7.751476496523084",
      "lat": "41.22347950376694"
    },
    {
      "id": "pt.ine.add.PTCONT.5342733",
      "street": "R DIREITA",
      "house": "",
      "postcode": "5000-092",
      "city": "ERMIDA VRL",
      "lon": "-7.751894315815231",
      "lat": "41.22340885363617"
    },
    {
      "id": "pt.ine.add.PTCONT.5364130",
      "street": "R DIREITA",
      "house": "",
      "postcode": "5000-092",
      "city": "ERMIDA VRL",
      "lon": "-7.751895047876779",
      "lat": "41.223282796433715"
    },
    {
      "id": "pt.ine.add.PTCONT.5368499",
      "street": "R DIREITA",
      "house": "",
      "postcode": "5000-092",
      "city": "ERMIDA VRL",
      "lon": "-7.752157308915475",
      "lat": "41.22330167286044"
    },
    {
      "id": "pt.ine.add.PTCONT.5368511",
      "street": "R DIREITA",
      "house": "",
      "postcode": "5000-092",
      "city": "ERMIDA VRL",
      "lon": "-7.752325000093744",
      "lat": "41.22317616786391"
    },
    {
      "id": "pt.ine.add.PTCONT.5377046",
      "street": "R DIREITA",
      "house": "",
      "postcode": "5000-092",
      "city": "ERMIDA VRL",
      "lon": "-7.75298299856274",
      "lat": "41.22281817142239"
    },
    {
      "id": "pt.ine.add.PTCONT.5382406",
      "street": "R DIREITA",
      "house": "",
      "postcode": "5000-092",
      "city": "ERMIDA VRL",
      "lon": "-7.752623455430779",
      "lat": "41.22312312883317"
    },
    {
      "id": "pt.ine.add.PTCONT.5400689",
      "street": "R BATOCA",
      "house": "",
      "postcode": "5000-092",
      "city": "ERMIDA VRL",
      "lon": "-7.751345418098726",
      "lat": "41.22346106076692"
    },
    {
      "id": "pt.ine.add.PTCONT.5400690",
      "street": "R DIREITA",
      "house": "",
      "postcode": "5000-092",
      "city": "ERMIDA VRL",
      "lon": "-7.751560395403966",
      "lat": "41.22340774771591"
    },
    {
      "id": "pt.ine.add.PTCONT.5409269",
      "street": "R DIREITA",
      "house": "",
      "postcode": "5000-092",
      "city": "ERMIDA VRL",
      "lon": "-7.752480190663373",
      "lat": "41.223149668155216"
    },
    {
      "id": "pt.ine.add.PTCONT.5422329",
      "street": "TV AGULHAS",
      "house": "",
      "postcode": "5000-092",
      "city": "ERMIDA VRL",
      "lon": "-7.752086225028135",
      "lat": "41.22322039934696"
    }
  ]
}