{
  "data": {
    "distrito": "Beja",
    "concelho": "Beja",
    "freguesia": "União das freguesias de Beja (Santiago Maior e São João Baptista)",
    "OBJECTID": 178,
    "BGRI2021": "02052101328",
    "DT21": "02",
    "DTMN21": "0205",
    "DTMNFR21": "020521",
    "DTMNFRSEC21": "020521013",
    "SECNUM21": "013",
    "SSNUM21": "28",
    "SECSSNUM21": "01328",
    "OBJECTID_1": 13474,
    "DT": "02",
    "CC": "05",
    "fr": "21",
    "SEC": "013",
    "SS": "28"
  },
  "addresses": [
    {
      "id": "pt.ine.add.PTCONT.457603",
      "street": "MTE SELAO",
      "house": "",
      "postcode": "7800-302",
      "city": "BEJA",
      "lon": "-7.880785270267978",
      "lat": "38.04375079590655"
    },
    {
      "id": "pt.ine.add.PTCONT.355694",
      "street": "EN 18 MONTE OLAIOS",
      "house": "",
      "postcode": "7800-346",
      "city": "BEJA",
      "lon": "-7.8766763822979895",
      "lat": "38.04270584648614"
    },
    {
      "id": "pt.ine.add.PTCONT.359819",
      "street": "MTE RAMOS",
      "house": "",
      "postcode": "7800-302",
      "city": "BEJA",
      "lon": "-7.87929159333474",
      "lat": "38.047432344780695"
    },
    {
      "id": "pt.ine.add.PTCONT.370649",
      "street": "MTE NOVO DOS COITOS",
      "house": "",
      "postcode": "7800-302",
      "city": "BEJA",
      "lon": "-7.876628833464816",
      "lat": "38.049804993939645"
    },
    {
      "id": "pt.ine.add.PTCONT.378418",
      "street": "MTE NOVO GARRIDO",
      "house": "",
      "postcode": "7800-302",
      "city": "BEJA",
      "lon": "-7.87592623948668",
      "lat": "38.03895637642446"
    },
    {
      "id": "pt.ine.add.PTCONT.378419",
      "street": "MTE NOVO GARRIDO",
      "house": "",
      "postcode": "7800-302",
      "city": "BEJA",
      "lon": "-7.87592623948668",
      "lat": "38.03895637642446"
    },
    {
      "id": "pt.ine.add.PTCONT.385837",
      "street": "QTA HORTA DA CONDENCA",
      "house": "",
      "postcode": "7800-238",
      "city": "BEJA",
      "lon": "-7.876803011147247",
      "lat": "38.04232773589695"
    },
    {
      "id": "pt.ine.add.PTCONT.395342",
      "street": "QTA CRUZAMENTO BASE",
      "house": "",
      "postcode": "7800-238",
      "city": "BEJA",
      "lon": "-7.877502597416701",
      "lat": "38.04425722923949"
    },
    {
      "id": "pt.ine.add.PTCONT.401755",
      "street": "EN 18",
      "house": "",
      "postcode": "7800-346",
      "city": "BEJA",
      "lon": "-7.876484671035636",
      "lat": "38.042146857279135"
    },
    {
      "id": "pt.ine.add.PTCONT.402922",
      "street": "MTE DE S LUIS",
      "house": "",
      "postcode": "7800-302",
      "city": "BEJA",
      "lon": "-7.878810613486733",
      "lat": "38.04815204133397"
    },
    {
      "id": "pt.ine.add.PTCONT.402923",
      "street": "MTE DE S LUIS",
      "house": "",
      "postcode": "7800-302",
      "city": "BEJA",
      "lon": "-7.878810613486733",
      "lat": "38.04815204133397"
    },
    {
      "id": "pt.ine.add.PTCONT.408397",
      "street": "MTE VISTA ALEGRE",
      "house": "",
      "postcode": "7800-302",
      "city": "BEJA",
      "lon": "-7.874523362521173",
      "lat": "38.05564734689101"
    },
    {
      "id": "pt.ine.add.PTCONT.435114",
      "street": "MTE SANTA CLARA",
      "house": "",
      "postcode": "7800-302",
      "city": "BEJA",
      "lon": "-7.87680874323136",
      "lat": "38.05702174835623"
    },
    {
      "id": "pt.ine.add.PTCONT.436683",
      "street": "ESTR BASE AEREA",
      "house": "",
      "postcode": "7800-302",
      "city": "BEJA",
      "lon": "-7.880319600905798",
      "lat": "38.053281528238"
    },
    {
      "id": "pt.ine.add.PTCONT.441594",
      "street": "EN 122 MONTE RAMAL",
      "house": "",
      "postcode": "7800-302",
      "city": "BEJA",
      "lon": "-7.876304794793345",
      "lat": "38.04146176463408"
    },
    {
      "id": "pt.ine.add.PTCONT.452193",
      "street": "ESTR BASE AÉREA",
      "house": "5",
      "postcode": "7800-302",
      "city": "BEJA",
      "lon": "-7.8810777160064776",
      "lat": "38.051490326583696"
    },
    {
      "id": "pt.ine.add.PTCONT.452449",
      "street": "ESTR BASE AÉREA",
      "house": "5",
      "postcode": "7800-302",
      "city": "BEJA",
      "lon": "-7.8810777160064776",
      "lat": "38.051490326583696"
    }
  ]
}