{
  "data": {
    "distrito": "Porto",
    "concelho": "Penafiel",
    "freguesia": "Rio Mau",
    "OBJECTID": 438,
    "BGRI2021": "13113800125",
    "DT21": "13",
    "DTMN21": "1311",
    "DTMNFR21": "131138",
    "DTMNFRSEC21": "131138001",
    "SECNUM21": "001",
    "SSNUM21": "25",
    "SECSSNUM21": "00125",
    "OBJECTID_1": 137155,
    "DT": "13",
    "CC": "11",
    "fr": "38",
    "SEC": "001",
    "SS": "25"
  },
  "addresses": [
    {
      "id": "pt.ine.add.PTCONT.3541946",
      "street": "R S JOÃO",
      "house": "156",
      "postcode": "4575-630",
      "city": "RIO MAU PNF",
      "lon": "-8.370937642747519",
      "lat": "41.05253593584812"
    },
    {
      "id": "pt.ine.add.PTCONT.3541947",
      "street": "R S JOÃO",
      "house": "176",
      "postcode": "4575-630",
      "city": "RIO MAU PNF",
      "lon": "-8.371010282400215",
      "lat": "41.05263830804103"
    },
    {
      "id": "pt.ine.add.PTCONT.3581434",
      "street": "R PENEDOS",
      "house": "33",
      "postcode": "4575-630",
      "city": "RIO MAU PNF",
      "lon": "-8.373461602350716",
      "lat": "41.05289435342514"
    },
    {
      "id": "pt.ine.add.PTCONT.3581432",
      "street": "R RIBEIRO",
      "house": "16",
      "postcode": "4575-617",
      "city": "RIO MAU PNF",
      "lon": "-8.370502811091864",
      "lat": "41.05375591766691"
    },
    {
      "id": "pt.ine.add.PTCONT.3581433",
      "street": "R PENEDOS",
      "house": "33",
      "postcode": "4575-630",
      "city": "RIO MAU PNF",
      "lon": "-8.373461602350716",
      "lat": "41.05289435342514"
    },
    {
      "id": "pt.ine.add.PTCONT.3587217",
      "street": "R PIA DA CASCA",
      "house": "104",
      "postcode": "4575-630",
      "city": "RIO MAU PNF",
      "lon": "-8.370762658453911",
      "lat": "41.053242123263985"
    },
    {
      "id": "pt.ine.add.PTCONT.3656003",
      "street": "R PENEDOS",
      "house": "21",
      "postcode": "4575-630",
      "city": "RIO MAU PNF",
      "lon": "-8.373377845641834",
      "lat": "41.05275945994561"
    },
    {
      "id": "pt.ine.add.PTCONT.3690124",
      "street": "R RIBEIRO",
      "house": "46",
      "postcode": "4575-617",
      "city": "RIO MAU PNF",
      "lon": "-8.370787712570564",
      "lat": "41.05359324870693"
    },
    {
      "id": "pt.ine.add.PTCONT.3690125",
      "street": "R RIBEIRO",
      "house": "46",
      "postcode": "4575-617",
      "city": "RIO MAU PNF",
      "lon": "-8.370787712570564",
      "lat": "41.05359324870693"
    },
    {
      "id": "pt.ine.add.PTCONT.3697194",
      "street": "R PIA DA CASCA",
      "house": "69",
      "postcode": "4575-630",
      "city": "RIO MAU PNF",
      "lon": "-8.370466510566343",
      "lat": "41.053584906158996"
    },
    {
      "id": "pt.ine.add.PTCONT.3706602",
      "street": "R PIA DA CASCA",
      "house": "4",
      "postcode": "4575-630",
      "city": "RIO MAU PNF",
      "lon": "-8.371281787476475",
      "lat": "41.052578194810046"
    },
    {
      "id": "pt.ine.add.PTCONT.3755134",
      "street": "R S JOÃO",
      "house": "180",
      "postcode": "4575-630",
      "city": "RIO MAU PNF",
      "lon": "-8.37076110307126",
      "lat": "41.052809908458805"
    },
    {
      "id": "pt.ine.add.PTCONT.3768183",
      "street": "R PIA DA CASCA",
      "house": "96",
      "postcode": "4575-630",
      "city": "RIO MAU PNF",
      "lon": "-8.370905010671652",
      "lat": "41.0531337751231"
    },
    {
      "id": "pt.ine.add.PTCONT.3788277",
      "street": "R S JOAO",
      "house": "",
      "postcode": "4575-630",
      "city": "RIO MAU PNF",
      "lon": "-8.371390467529032",
      "lat": "41.052511459000684"
    },
    {
      "id": "pt.ine.add.PTCONT.3877177",
      "street": "R FUJACO",
      "house": "96",
      "postcode": "4575-617",
      "city": "RIO MAU PNF",
      "lon": "-8.37036223614923",
      "lat": "41.054359511356445"
    },
    {
      "id": "pt.ine.add.PTCONT.3877178",
      "street": "R PENEDOS",
      "house": "36",
      "postcode": "4575-630",
      "city": "RIO MAU PNF",
      "lon": "-8.373236349568053",
      "lat": "41.05310192744688"
    },
    {
      "id": "pt.ine.add.PTCONT.3932702",
      "street": "R PENEDOS",
      "house": "35",
      "postcode": "4575-630",
      "city": "RIO MAU PNF",
      "lon": "-8.373318829075966",
      "lat": "41.05288564655924"
    },
    {
      "id": "pt.ine.add.PTCONT.3985482",
      "street": "R RIBEIRO",
      "house": "12",
      "postcode": "4575-617",
      "city": "RIO MAU PNF",
      "lon": "-8.370372416799796",
      "lat": "41.0538822497638"
    },
    {
      "id": "pt.ine.add.PTCONT.3985483",
      "street": "R RIBEIRO",
      "house": "12",
      "postcode": "4575-617",
      "city": "RIO MAU PNF",
      "lon": "-8.370372416799796",
      "lat": "41.0538822497638"
    },
    {
      "id": "pt.ine.add.PTCONT.3993925",
      "street": "R FUJACO",
      "house": "94",
      "postcode": "4575-617",
      "city": "RIO MAU PNF",
      "lon": "-8.370218005200153",
      "lat": "41.05394559934396"
    },
    {
      "id": "pt.ine.add.PTCONT.4050785",
      "street": "R S JOÃO",
      "house": "182",
      "postcode": "4575-630",
      "city": "RIO MAU PNF",
      "lon": "-8.370558596166882",
      "lat": "41.05272928499773"
    },
    {
      "id": "pt.ine.add.PTCONT.4113581",
      "street": "R S JOAO",
      "house": "",
      "postcode": "4575-630",
      "city": "RIO MAU PNF",
      "lon": "-8.370368437654411",
      "lat": "41.05277469935241"
    },
    {
      "id": "pt.ine.add.PTCONT.4113582",
      "street": "R PIA DA CASCA",
      "house": "12",
      "postcode": "4575-630",
      "city": "RIO MAU PNF",
      "lon": "-8.371081911972881",
      "lat": "41.052710196493244"
    },
    {
      "id": "pt.ine.add.PTCONT.4151042",
      "street": "R S JOÃO",
      "house": "214",
      "postcode": "4575-630",
      "city": "RIO MAU PNF",
      "lon": "-8.371521182240333",
      "lat": "41.052475170489984"
    },
    {
      "id": "pt.ine.add.PTCONT.4151044",
      "street": "R PENEDOS",
      "house": "45",
      "postcode": "4575-630",
      "city": "RIO MAU PNF",
      "lon": "-8.37327157636648",
      "lat": "41.05297579045861"
    },
    {
      "id": "pt.ine.add.PTCONT.4160317",
      "street": "R CASTELHAO",
      "house": "2",
      "postcode": "4575-617",
      "city": "RIO MAU PNF",
      "lon": "-8.370298231761312",
      "lat": "41.05309900738232"
    },
    {
      "id": "pt.ine.add.PTCONT.4173611",
      "street": "R S JOÃO",
      "house": "126",
      "postcode": "4575-630",
      "city": "RIO MAU PNF",
      "lon": "-8.370657181838547",
      "lat": "41.05266188903499"
    },
    {
      "id": "pt.ine.add.PTCONT.4229408",
      "street": "R PIA DA CASCA",
      "house": "74",
      "postcode": "4575-630",
      "city": "RIO MAU PNF",
      "lon": "-8.37098801681494",
      "lat": "41.05306156748445"
    },
    {
      "id": "pt.ine.add.PTCONT.4302691",
      "street": "R S JOAO",
      "house": "",
      "postcode": "4575-630",
      "city": "RIO MAU PNF",
      "lon": "-8.371806336051787",
      "lat": "41.0523845348021"
    },
    {
      "id": "pt.ine.add.PTCONT.4309340",
      "street": "R PENEDOS",
      "house": "7",
      "postcode": "4575-630",
      "city": "RIO MAU PNF",
      "lon": "-8.373329905275094",
      "lat": "41.052660509919924"
    },
    {
      "id": "pt.ine.add.PTCONT.4367791",
      "street": "R CASTELHAO",
      "house": "4",
      "postcode": "4575-617",
      "city": "RIO MAU PNF",
      "lon": "-8.370274861982963",
      "lat": "41.05321611452092"
    }
  ]
}