{
  "data": {
    "distrito": "Guarda",
    "concelho": "Seia",
    "freguesia": "Loriga",
    "OBJECTID": 866,
    "BGRI2021": "09120700213",
    "DT21": "09",
    "DTMN21": "0912",
    "DTMNFR21": "091207",
    "DTMNFRSEC21": "091207002",
    "SECNUM21": "002",
    "SSNUM21": "13",
    "SECSSNUM21": "00213",
    "OBJECTID_1": 82183,
    "DT": "09",
    "CC": "12",
    "fr": "07",
    "SEC": "002",
    "SS": "13"
  },
  "addresses": [
    {
      "id": "pt.ine.add.PTCONT.1903710",
      "street": "QTA DA FANDEGA",
      "house": "",
      "postcode": "6270-100",
      "city": "LORIGA",
      "lon": "-7.694521796962267",
      "lat": "40.32407830526946"
    },
    {
      "id": "pt.ine.add.PTCONT.1907845",
      "street": "R PORTO",
      "house": "22",
      "postcode": "6270-098",
      "city": "LORIGA",
      "lon": "-7.693610039723595",
      "lat": "40.3249664041065"
    },
    {
      "id": "pt.ine.add.PTCONT.1907846",
      "street": "R PORTO",
      "house": "22A",
      "postcode": "6270-098",
      "city": "LORIGA",
      "lon": "-7.693610039723595",
      "lat": "40.3249664041065"
    },
    {
      "id": "pt.ine.add.PTCONT.1916941",
      "street": "R DE SACAVÉM",
      "house": "",
      "postcode": "6270-073",
      "city": "LORIGA",
      "lon": "-7.693411828039718",
      "lat": "40.324686475768424"
    },
    {
      "id": "pt.ine.add.PTCONT.1919436",
      "street": "QTA DA FANDEGA",
      "house": "7",
      "postcode": "6270-100",
      "city": "LORIGA",
      "lon": "-7.694593266541386",
      "lat": "40.32394349146577"
    },
    {
      "id": "pt.ine.add.PTCONT.1929098",
      "street": "R DO PORTO",
      "house": "",
      "postcode": "6270-098",
      "city": "LORIGA",
      "lon": "-7.692442329928417",
      "lat": "40.32540323848685"
    },
    {
      "id": "pt.ine.add.PTCONT.1939463",
      "street": "R FANDEGA",
      "house": "",
      "postcode": "6270-073",
      "city": "LORIGA",
      "lon": "-7.693013479586011",
      "lat": "40.32442379714368"
    },
    {
      "id": "pt.ine.add.PTCONT.1940021",
      "street": "R PORTO",
      "house": "2",
      "postcode": "6270-098",
      "city": "LORIGA",
      "lon": "-7.692384963485464",
      "lat": "40.32517787875095"
    },
    {
      "id": "pt.ine.add.PTCONT.1940022",
      "street": "R PORTO",
      "house": "2B",
      "postcode": "6270-098",
      "city": "LORIGA",
      "lon": "-7.692384963485464",
      "lat": "40.32517787875095"
    },
    {
      "id": "pt.ine.add.PTCONT.1940023",
      "street": "R PORTO",
      "house": "2 C",
      "postcode": "6270-098",
      "city": "LORIGA",
      "lon": "-7.692384963485464",
      "lat": "40.32517787875095"
    },
    {
      "id": "pt.ine.add.PTCONT.1942463",
      "street": "R DE AVENAL",
      "house": "",
      "postcode": "6270-088",
      "city": "LORIGA",
      "lon": "-7.694305475268254",
      "lat": "40.322960784215276"
    },
    {
      "id": "pt.ine.add.PTCONT.1946534",
      "street": "R TAPADO",
      "house": "9",
      "postcode": "6270-100",
      "city": "LORIGA",
      "lon": "-7.694524419689744",
      "lat": "40.323673060952665"
    },
    {
      "id": "pt.ine.add.PTCONT.1948458",
      "street": "R DO PORTO",
      "house": "20",
      "postcode": "6270-098",
      "city": "LORIGA",
      "lon": "-7.693078403185353",
      "lat": "40.32529759201962"
    },
    {
      "id": "pt.ine.add.PTCONT.1950584",
      "street": "R DE SACAVÉM",
      "house": "4",
      "postcode": "6270-073",
      "city": "LORIGA",
      "lon": "-7.6932938171970155",
      "lat": "40.32474006104149"
    },
    {
      "id": "pt.ine.add.PTCONT.1950585",
      "street": "R DE SACAVÉM",
      "house": "4",
      "postcode": "6270-073",
      "city": "LORIGA",
      "lon": "-7.6932938171970155",
      "lat": "40.32474006104149"
    },
    {
      "id": "pt.ine.add.PTCONT.1953442",
      "street": "R TAPADO",
      "house": "3",
      "postcode": "6270-100",
      "city": "LORIGA",
      "lon": "-7.694335641463214",
      "lat": "40.323753395926985"
    },
    {
      "id": "pt.ine.add.PTCONT.1953443",
      "street": "R FANDEGA",
      "house": "3",
      "postcode": "6270-073",
      "city": "LORIGA",
      "lon": "-7.694335641463214",
      "lat": "40.323753395926985"
    },
    {
      "id": "pt.ine.add.PTCONT.1953827",
      "street": "R DO PORTO",
      "house": "",
      "postcode": "6270-098",
      "city": "LORIGA",
      "lon": "-7.69293685875274",
      "lat": "40.32535108739924"
    },
    {
      "id": "pt.ine.add.PTCONT.1956304",
      "street": "R DE SACAVÉM",
      "house": "16",
      "postcode": "6270-073",
      "city": "LORIGA",
      "lon": "-7.693871286381448",
      "lat": "40.324598164766606"
    },
    {
      "id": "pt.ine.add.PTCONT.1956305",
      "street": "R DE SACAVÉM",
      "house": "16",
      "postcode": "6270-073",
      "city": "LORIGA",
      "lon": "-7.693871286381448",
      "lat": "40.324598164766606"
    },
    {
      "id": "pt.ine.add.PTCONT.1956306",
      "street": "R DE SACAVÉM",
      "house": "16",
      "postcode": "6270-073",
      "city": "LORIGA",
      "lon": "-7.693871286381448",
      "lat": "40.324598164766606"
    },
    {
      "id": "pt.ine.add.PTCONT.1964519",
      "street": "QTA DA FANDEGA",
      "house": "",
      "postcode": "6270-100",
      "city": "LORIGA",
      "lon": "-7.694674812081292",
      "lat": "40.32406987965806"
    },
    {
      "id": "pt.ine.add.PTCONT.1971178",
      "street": "QTA DA FANDEGA",
      "house": "5 A",
      "postcode": "6270-100",
      "city": "LORIGA",
      "lon": "-7.694699043020013",
      "lat": "40.323961903691746"
    },
    {
      "id": "pt.ine.add.PTCONT.1976073",
      "street": "R DE SACAVÉM",
      "house": "",
      "postcode": "6270-073",
      "city": "LORIGA",
      "lon": "-7.6936820960292165",
      "lat": "40.3247415366331"
    },
    {
      "id": "pt.ine.add.PTCONT.1852476",
      "street": "R DE AVENAL",
      "house": "",
      "postcode": "6270-088",
      "city": "LORIGA",
      "lon": "-7.694354928564458",
      "lat": "40.32259174006445"
    },
    {
      "id": "pt.ine.add.PTCONT.1859462",
      "street": "R PORTO",
      "house": "14",
      "postcode": "6270-098",
      "city": "LORIGA",
      "lon": "-7.6928190219139045",
      "lat": "40.32537765589897"
    },
    {
      "id": "pt.ine.add.PTCONT.1859463",
      "street": "R PORTO",
      "house": "13",
      "postcode": "6270-098",
      "city": "LORIGA",
      "lon": "-7.6928190219139045",
      "lat": "40.32537765589897"
    },
    {
      "id": "pt.ine.add.PTCONT.1859464",
      "street": "R PORTO",
      "house": "12",
      "postcode": "6270-098",
      "city": "LORIGA",
      "lon": "-7.6928190219139045",
      "lat": "40.32537765589897"
    },
    {
      "id": "pt.ine.add.PTCONT.1868120",
      "street": "R SACAVEM",
      "house": "12",
      "postcode": "6270-124",
      "city": "LORIGA",
      "lon": "-7.693600609957156",
      "lat": "40.32460614233419"
    }
  ]
}