{
  "data": {
    "distrito": "Faro",
    "concelho": "Lagoa",
    "freguesia": "Porches",
    "OBJECTID": 292,
    "BGRI2021": "08060400201",
    "DT21": "08",
    "DTMN21": "0806",
    "DTMNFR21": "080604",
    "DTMNFRSEC21": "080604002",
    "SECNUM21": "002",
    "SSNUM21": "01",
    "SECSSNUM21": "00201",
    "OBJECTID_1": 66863,
    "DT": "08",
    "CC": "06",
    "fr": "04",
    "SEC": "002",
    "SS": "01"
  },
  "addresses": [
    {
      "id": "pt.ine.add.PTCONT.1523677",
      "street": "VILA ROSE MARIE",
      "house": "",
      "postcode": "8400-452",
      "city": "PORCHES",
      "lon": "-8.40121655908955",
      "lat": "37.117541963958125"
    },
    {
      "id": "pt.ine.add.PTCONT.1540164",
      "street": "",
      "house": "",
      "postcode": "8400-490",
      "city": "PORCHES",
      "lon": "-8.40075029148874",
      "lat": "37.11613736085123"
    },
    {
      "id": "pt.ine.add.PTCONT.1549697",
      "street": "ESTR SEM DESIGNACAO",
      "house": "",
      "postcode": "8400-452",
      "city": "PORCHES",
      "lon": "-8.400200550780177",
      "lat": "37.11658913154724"
    },
    {
      "id": "pt.ine.add.PTCONT.1566301",
      "street": "ESTR PARA ARMAÇÃO",
      "house": "",
      "postcode": "8400-452",
      "city": "PORCHES",
      "lon": "-8.400350684727185",
      "lat": "37.11768808872338"
    },
    {
      "id": "pt.ine.add.PTCONT.1566302",
      "street": "ESTR PARA ARMAÇÃO",
      "house": "",
      "postcode": "8400-452",
      "city": "PORCHES",
      "lon": "-8.400350684727185",
      "lat": "37.11768808872338"
    },
    {
      "id": "pt.ine.add.PTCONT.1566303",
      "street": "ESTR PARA ARMAÇÃO",
      "house": "",
      "postcode": "8400-452",
      "city": "PORCHES",
      "lon": "-8.400350684727185",
      "lat": "37.11768808872338"
    },
    {
      "id": "pt.ine.add.PTCONT.1607782",
      "street": "ESTR ARMACAO PERA",
      "house": "19",
      "postcode": "8400-485",
      "city": "PORCHES",
      "lon": "-8.400745668596384",
      "lat": "37.118020590604914"
    },
    {
      "id": "pt.ine.add.PTCONT.1613723",
      "street": "ESTR SEM DESIGNACAO",
      "house": "",
      "postcode": "8400-452",
      "city": "PORCHES",
      "lon": "-8.397449718831961",
      "lat": "37.115027448466584"
    },
    {
      "id": "pt.ine.add.PTCONT.1635576",
      "street": "CASA ISABEL",
      "house": "",
      "postcode": "8400-452",
      "city": "PORCHES",
      "lon": "-8.401349354348094",
      "lat": "37.11691092030005"
    },
    {
      "id": "pt.ine.add.PTCONT.1673379",
      "street": "ESTR PARA ARMAÇÃO",
      "house": "",
      "postcode": "8400-452",
      "city": "PORCHES",
      "lon": "-8.399762561440633",
      "lat": "37.116824393527075"
    },
    {
      "id": "pt.ine.add.PTCONT.1704360",
      "street": "",
      "house": "",
      "postcode": "8400-452",
      "city": "PORCHES",
      "lon": "-8.399502101583487",
      "lat": "37.116347416185164"
    },
    {
      "id": "pt.ine.add.PTCONT.1760341",
      "street": "",
      "house": "",
      "postcode": "8400-490",
      "city": "PORCHES",
      "lon": "-8.400298490294704",
      "lat": "37.115642795741664"
    },
    {
      "id": "pt.ine.add.PTCONT.1760342",
      "street": "",
      "house": "",
      "postcode": "8400-490",
      "city": "PORCHES",
      "lon": "-8.400298490294704",
      "lat": "37.115642795741664"
    },
    {
      "id": "pt.ine.add.PTCONT.1760343",
      "street": "",
      "house": "",
      "postcode": "8400-490",
      "city": "PORCHES",
      "lon": "-8.400298490294704",
      "lat": "37.115642795741664"
    },
    {
      "id": "pt.ine.add.PTCONT.1760344",
      "street": "",
      "house": "",
      "postcode": "8400-490",
      "city": "PORCHES",
      "lon": "-8.400298490294704",
      "lat": "37.115642795741664"
    },
    {
      "id": "pt.ine.add.PTCONT.1760345",
      "street": "",
      "house": "",
      "postcode": "8400-490",
      "city": "PORCHES",
      "lon": "-8.398462711098604",
      "lat": "37.11190750951063"
    },
    {
      "id": "pt.ine.add.PTCONT.1781701",
      "street": "CAM SEM DESIGNACAO A",
      "house": "A",
      "postcode": "8400-490",
      "city": "PORCHES",
      "lon": "-8.399778618105644",
      "lat": "37.11498619078543"
    },
    {
      "id": "pt.ine.add.PTCONT.1781702",
      "street": "CAM SEM DESIGNACAO B",
      "house": "B",
      "postcode": "8400-490",
      "city": "PORCHES",
      "lon": "-8.399778618105644",
      "lat": "37.11498619078543"
    },
    {
      "id": "pt.ine.add.PTCONT.1781703",
      "street": "CAM SEM DESIGNACAO C",
      "house": "C",
      "postcode": "8400-490",
      "city": "PORCHES",
      "lon": "-8.399778618105644",
      "lat": "37.11498619078543"
    },
    {
      "id": "pt.ine.add.PTCONT.1781704",
      "street": "CAM SEM DESIGNACAO D",
      "house": "D",
      "postcode": "8400-490",
      "city": "PORCHES",
      "lon": "-8.399778618105644",
      "lat": "37.11498619078543"
    },
    {
      "id": "pt.ine.add.PTCONT.1781705",
      "street": "CAM SEM DESIGNACAO E",
      "house": "E",
      "postcode": "8400-490",
      "city": "PORCHES",
      "lon": "-8.399778618105644",
      "lat": "37.11498619078543"
    },
    {
      "id": "pt.ine.add.PTCONT.1787586",
      "street": "CASA DUARTE",
      "house": "",
      "postcode": "8400-452",
      "city": "PORCHES",
      "lon": "-8.398145762588486",
      "lat": "37.114584374068706"
    },
    {
      "id": "pt.ine.add.PTCONT.1787587",
      "street": "CASA DUARTE",
      "house": "",
      "postcode": "8400-452",
      "city": "PORCHES",
      "lon": "-8.398145762588486",
      "lat": "37.114584374068706"
    },
    {
      "id": "pt.ine.add.PTCONT.1793426",
      "street": "ESTR ARMAÇÃO DE PERA",
      "house": "",
      "postcode": "8400-485",
      "city": "PORCHES",
      "lon": "-8.400982908192567",
      "lat": "37.11829037333908"
    },
    {
      "id": "pt.ine.add.PTCONT.1825846",
      "street": "",
      "house": "",
      "postcode": "8400-452",
      "city": "PORCHES",
      "lon": "-8.400371192820314",
      "lat": "37.11712037354081"
    },
    {
      "id": "pt.ine.add.PTCONT.1825847",
      "street": "",
      "house": "",
      "postcode": "8400-452",
      "city": "PORCHES",
      "lon": "-8.400371192820314",
      "lat": "37.11712037354081"
    }
  ]
}