{
  "data": {
    "distrito": "Beja",
    "concelho": "Serpa",
    "freguesia": "Vila Verde de Ficalho",
    "OBJECTID": 412,
    "BGRI2021": "02130700126",
    "DT21": "02",
    "DTMN21": "0213",
    "DTMNFR21": "021307",
    "DTMNFRSEC21": "021307001",
    "SECNUM21": "001",
    "SSNUM21": "26",
    "SECSSNUM21": "00126",
    "OBJECTID_1": 18750,
    "DT": "02",
    "CC": "13",
    "fr": "07",
    "SEC": "001",
    "SS": "26"
  },
  "addresses": [
    {
      "id": "pt.ine.add.PTCONT.352346",
      "street": "EN 260",
      "house": "",
      "postcode": "7830-644",
      "city": "VILA VERDE DE FICALHO",
      "lon": "-7.283745491220262",
      "lat": "37.94992574829005"
    },
    {
      "id": "pt.ine.add.PTCONT.358598",
      "street": "EN 260",
      "house": "",
      "postcode": "7830-644",
      "city": "VILA VERDE DE FICALHO",
      "lon": "-7.284233299314926",
      "lat": "37.95103739167454"
    },
    {
      "id": "pt.ine.add.PTCONT.368279",
      "street": "MTE CAEIRAS",
      "house": "S N",
      "postcode": "7830-644",
      "city": "VILA VERDE DE FICALHO",
      "lon": "-7.276238276558817",
      "lat": "37.94977221056027"
    },
    {
      "id": "pt.ine.add.PTCONT.369558",
      "street": "ESTR ERMIDA",
      "house": "",
      "postcode": "7830-644",
      "city": "VILA VERDE DE FICALHO",
      "lon": "-7.278316796884948",
      "lat": "37.93927367216351"
    },
    {
      "id": "pt.ine.add.PTCONT.372157",
      "street": "ESTR ERMIDA",
      "house": "",
      "postcode": "7830-644",
      "city": "VILA VERDE DE FICALHO",
      "lon": "-7.286015390304868",
      "lat": "37.94149154438342"
    },
    {
      "id": "pt.ine.add.PTCONT.381201",
      "street": "EN 260",
      "house": "",
      "postcode": "7830-644",
      "city": "VILA VERDE DE FICALHO",
      "lon": "-7.259313770869094",
      "lat": "37.94840446992052"
    },
    {
      "id": "pt.ine.add.PTCONT.392461",
      "street": "ESTR ERMIDA",
      "house": "",
      "postcode": "7830-644",
      "city": "VILA VERDE DE FICALHO",
      "lon": "-7.283304020548136",
      "lat": "37.94084135245896"
    },
    {
      "id": "pt.ine.add.PTCONT.408753",
      "street": "EN 260",
      "house": "",
      "postcode": "7830-644",
      "city": "VILA VERDE DE FICALHO",
      "lon": "-7.261609719590501",
      "lat": "37.95629546320182"
    },
    {
      "id": "pt.ine.add.PTCONT.425560",
      "street": "EN 260",
      "house": "",
      "postcode": "7830-644",
      "city": "VILA VERDE DE FICALHO",
      "lon": "-7.28085174275191",
      "lat": "37.950265186530245"
    },
    {
      "id": "pt.ine.add.PTCONT.426649",
      "street": "EN 260",
      "house": "",
      "postcode": "7830-644",
      "city": "VILA VERDE DE FICALHO",
      "lon": "-7.2884552639427405",
      "lat": "37.94896865141999"
    },
    {
      "id": "pt.ine.add.PTCONT.429565",
      "street": "EN 260",
      "house": "",
      "postcode": "7830-644",
      "city": "VILA VERDE DE FICALHO",
      "lon": "-7.285000583571343",
      "lat": "37.951592482135936"
    },
    {
      "id": "pt.ine.add.PTCONT.443575",
      "street": "ESTR ERMIDA",
      "house": "",
      "postcode": "7830-657",
      "city": "VILA VERDE DE FICALHO",
      "lon": "-7.254613038541257",
      "lat": "37.93710806106315"
    },
    {
      "id": "pt.ine.add.PTCONT.446770",
      "street": "EN 260",
      "house": "",
      "postcode": "7830-644",
      "city": "VILA VERDE DE FICALHO",
      "lon": "-7.27414612874812",
      "lat": "37.95259482738151"
    }
  ]
}