{
  "data": {
    "distrito": "Santarém",
    "concelho": "Ferreira do Zêzere",
    "freguesia": "Nossa Senhora do Pranto",
    "OBJECTID": 275,
    "BGRI2021": "14111000215",
    "DT21": "14",
    "DTMN21": "1411",
    "DTMNFR21": "141110",
    "DTMNFRSEC21": "141110002",
    "SECNUM21": "002",
    "SSNUM21": "15",
    "SECSSNUM21": "00215",
    "OBJECTID_1": 151430,
    "DT": "14",
    "CC": "11",
    "fr": "10",
    "SEC": "002",
    "SS": "15"
  },
  "addresses": [
    {
      "id": "pt.ine.add.PTCONT.4481408",
      "street": "R S LUIS",
      "house": "",
      "postcode": "2240-507",
      "city": "PAIO MENDES",
      "lon": "-8.282009936494568",
      "lat": "39.73663152599836"
    },
    {
      "id": "pt.ine.add.PTCONT.4499524",
      "street": "R ANTÓNIO MOREIRA",
      "house": "",
      "postcode": "2240-507",
      "city": "PAIO MENDES",
      "lon": "-8.283283082157856",
      "lat": "39.73735942087157"
    },
    {
      "id": "pt.ine.add.PTCONT.4523131",
      "street": "R ENCHERIA",
      "house": "",
      "postcode": "2240-507",
      "city": "PAIO MENDES",
      "lon": "-8.282092410905927",
      "lat": "39.73700969752279"
    },
    {
      "id": "pt.ine.add.PTCONT.4530505",
      "street": "R JOAQUIM NUNES ALCOBIO",
      "house": "",
      "postcode": "2240-507",
      "city": "PAIO MENDES",
      "lon": "-8.283980714893133",
      "lat": "39.73629573714032"
    },
    {
      "id": "pt.ine.add.PTCONT.4582271",
      "street": "R ANTÓNIO MOREIRA",
      "house": "",
      "postcode": "2240-507",
      "city": "PAIO MENDES",
      "lon": "-8.28308431402209",
      "lat": "39.737152525971275"
    },
    {
      "id": "pt.ine.add.PTCONT.4616307",
      "street": "R CENTRAL",
      "house": "",
      "postcode": "2240-514",
      "city": "PAIO MENDES",
      "lon": "-8.28460264233912",
      "lat": "39.73796114869697"
    },
    {
      "id": "pt.ine.add.PTCONT.4630903",
      "street": "R CENTRAL",
      "house": "",
      "postcode": "2240-519",
      "city": "PAIO MENDES",
      "lon": "-8.28460456744709",
      "lat": "39.73351188341862"
    },
    {
      "id": "pt.ine.add.PTCONT.4655676",
      "street": "R CENTRAL",
      "house": "",
      "postcode": "2240-501",
      "city": "PAIO MENDES",
      "lon": "-8.28466041966646",
      "lat": "39.73770888844161"
    },
    {
      "id": "pt.ine.add.PTCONT.4656813",
      "street": "R JOAQUIM NUNES ALCOBIO",
      "house": "",
      "postcode": "2240-507",
      "city": "PAIO MENDES",
      "lon": "-8.283253750981535",
      "lat": "39.734594431223535"
    }
  ]
}