{
  "data": {
    "distrito": "Santarém",
    "concelho": "Santarém",
    "freguesia": "Póvoa da Isenta",
    "OBJECTID": 444,
    "BGRI2021": "14161600103",
    "DT21": "14",
    "DTMN21": "1416",
    "DTMNFR21": "141616",
    "DTMNFRSEC21": "141616001",
    "SECNUM21": "001",
    "SSNUM21": "03",
    "SECSSNUM21": "00103",
    "OBJECTID_1": 153939,
    "DT": "14",
    "CC": "16",
    "fr": "16",
    "SEC": "001",
    "SS": "03"
  },
  "addresses": [
    {
      "id": "pt.ine.add.PTCONT.4420996",
      "street": "R TEN COR FERNANDO SALGUEIRO MAIA",
      "house": "2",
      "postcode": "2005-085",
      "city": "PÓVOA DA ISENTA",
      "lon": "-8.743843180560358",
      "lat": "39.210296274413835"
    },
    {
      "id": "pt.ine.add.PTCONT.4480922",
      "street": "R FAROL",
      "house": "6",
      "postcode": "2005-085",
      "city": "PÓVOA DA ISENTA",
      "lon": "-8.743472624963285",
      "lat": "39.212964383484774"
    },
    {
      "id": "pt.ine.add.PTCONT.4496060",
      "street": "R FAROL",
      "house": "18",
      "postcode": "2005-085",
      "city": "PÓVOA DA ISENTA",
      "lon": "-8.742574527622466",
      "lat": "39.21354555395153"
    },
    {
      "id": "pt.ine.add.PTCONT.4502031",
      "street": "R TEN COR FERNANDO SALGUEIRO MAIA",
      "house": "8",
      "postcode": "2005-085",
      "city": "PÓVOA DA ISENTA",
      "lon": "-8.744351690479078",
      "lat": "39.2128606938528"
    },
    {
      "id": "pt.ine.add.PTCONT.4510513",
      "street": "R TEN COR FERNANDO SALGUEIRO MAIA",
      "house": "1O",
      "postcode": "2005-085",
      "city": "PÓVOA DA ISENTA",
      "lon": "-8.744480844233891",
      "lat": "39.213067184442025"
    },
    {
      "id": "pt.ine.add.PTCONT.4545079",
      "street": "R FAROL",
      "house": "10",
      "postcode": "2005-085",
      "city": "PÓVOA DA ISENTA",
      "lon": "-8.743313262114127",
      "lat": "39.21328047450423"
    },
    {
      "id": "pt.ine.add.PTCONT.4557548",
      "street": "R FAROL",
      "house": "12",
      "postcode": "2005-085",
      "city": "PÓVOA DA ISENTA",
      "lon": "-8.74310509176693",
      "lat": "39.21330858668713"
    },
    {
      "id": "pt.ine.add.PTCONT.4567997",
      "street": "R FAROL",
      "house": "16",
      "postcode": "2005-085",
      "city": "PÓVOA DA ISENTA",
      "lon": "-8.742666918413294",
      "lat": "39.21351804859439"
    },
    {
      "id": "pt.ine.add.PTCONT.4574854",
      "street": "R FAROL",
      "house": "20",
      "postcode": "2005-085",
      "city": "PÓVOA DA ISENTA",
      "lon": "-8.742389045249903",
      "lat": "39.213519502245745"
    },
    {
      "id": "pt.ine.add.PTCONT.4603823",
      "street": "R FAROL",
      "house": "4",
      "postcode": "2005-085",
      "city": "PÓVOA DA ISENTA",
      "lon": "-8.743811428499733",
      "lat": "39.213313893276336"
    },
    {
      "id": "pt.ine.add.PTCONT.4609571",
      "street": "R FAROL",
      "house": "14",
      "postcode": "2005-085",
      "city": "PÓVOA DA ISENTA",
      "lon": "-8.742805309727236",
      "lat": "39.21345427314525"
    },
    {
      "id": "pt.ine.add.PTCONT.4643188",
      "street": "R FAROL",
      "house": "2",
      "postcode": "2005-085",
      "city": "PÓVOA DA ISENTA",
      "lon": "-8.744054722852152",
      "lat": "39.213330632222316"
    }
  ]
}