{
  "data": {
    "distrito": "Santarém",
    "concelho": "Santarém",
    "freguesia": "Póvoa da Isenta",
    "OBJECTID": 507,
    "BGRI2021": "14161600130",
    "DT21": "14",
    "DTMN21": "1416",
    "DTMNFR21": "141616",
    "DTMNFRSEC21": "141616001",
    "SECNUM21": "001",
    "SSNUM21": "30",
    "SECSSNUM21": "00130",
    "OBJECTID_1": 154475,
    "DT": "14",
    "CC": "16",
    "fr": "16",
    "SEC": "001",
    "SS": "30"
  },
  "addresses": [
    {
      "id": "pt.ine.add.PTCONT.4400451",
      "street": "R JUVENTUDE",
      "house": "30",
      "postcode": "2005-085",
      "city": "PÓVOA DA ISENTA",
      "lon": "-8.757839685210918",
      "lat": "39.22974088275963"
    },
    {
      "id": "pt.ine.add.PTCONT.4402430",
      "street": "R CAMPO DE TIRO",
      "house": "",
      "postcode": "2005-085",
      "city": "PÓVOA DA ISENTA",
      "lon": "-8.754020352959593",
      "lat": "39.228707451798755"
    },
    {
      "id": "pt.ine.add.PTCONT.4437467",
      "street": "R JUVENTUDE",
      "house": "38",
      "postcode": "2005-085",
      "city": "PÓVOA DA ISENTA",
      "lon": "-8.7600263892986",
      "lat": "39.23080100116896"
    },
    {
      "id": "pt.ine.add.PTCONT.4453937",
      "street": "EN 365",
      "house": "",
      "postcode": "2005-085",
      "city": "PÓVOA DA ISENTA",
      "lon": "-8.755428619786997",
      "lat": "39.23342876214299"
    },
    {
      "id": "pt.ine.add.PTCONT.4506586",
      "street": "R PINHEIRINHOS",
      "house": "53",
      "postcode": "2005-085",
      "city": "PÓVOA DA ISENTA",
      "lon": "-8.748623291327812",
      "lat": "39.22734897292226"
    },
    {
      "id": "pt.ine.add.PTCONT.4532800",
      "street": "R CAMPO DE TIRO",
      "house": "",
      "postcode": "2005-085",
      "city": "PÓVOA DA ISENTA",
      "lon": "-8.754961951943768",
      "lat": "39.22910775680286"
    },
    {
      "id": "pt.ine.add.PTCONT.4547331",
      "street": "EN 365",
      "house": "",
      "postcode": "2005-085",
      "city": "PÓVOA DA ISENTA",
      "lon": "-8.758044628841086",
      "lat": "39.23195557587088"
    },
    {
      "id": "pt.ine.add.PTCONT.4553266",
      "street": "R PINHEIRINHOS",
      "house": "55",
      "postcode": "2005-085",
      "city": "PÓVOA DA ISENTA",
      "lon": "-8.748647710815687",
      "lat": "39.2274929606029"
    },
    {
      "id": "pt.ine.add.PTCONT.4580404",
      "street": "R CAMPO DE TIRO",
      "house": "",
      "postcode": "2005-085",
      "city": "PÓVOA DA ISENTA",
      "lon": "-8.756052676579348",
      "lat": "39.22934512549223"
    },
    {
      "id": "pt.ine.add.PTCONT.4603746",
      "street": "EN 365",
      "house": "",
      "postcode": "2005-086",
      "city": "PÓVOA DA ISENTA",
      "lon": "-8.749009974213813",
      "lat": "39.23448970958053"
    },
    {
      "id": "pt.ine.add.PTCONT.4609559",
      "street": "R JUVENTUDE",
      "house": "34",
      "postcode": "2005-085",
      "city": "PÓVOA DA ISENTA",
      "lon": "-8.759416018452496",
      "lat": "39.22988554146472"
    },
    {
      "id": "pt.ine.add.PTCONT.4632997",
      "street": "R JUVENTUDE",
      "house": "32",
      "postcode": "2005-085",
      "city": "PÓVOA DA ISENTA",
      "lon": "-8.75839675680583",
      "lat": "39.229873002945446"
    },
    {
      "id": "pt.ine.add.PTCONT.4636517",
      "street": "EN 365 CASA ALMODOLIM",
      "house": "",
      "postcode": "2005-085",
      "city": "PÓVOA DA ISENTA",
      "lon": "-8.760179949470842",
      "lat": "39.23243950037179"
    },
    {
      "id": "pt.ine.add.PTCONT.4638560",
      "street": "R PINHEIRINHOS",
      "house": "59",
      "postcode": "2005-085",
      "city": "PÓVOA DA ISENTA",
      "lon": "-8.7483328785254",
      "lat": "39.2298995711567"
    }
  ]
}