{
  "data": {
    "distrito": "Viseu",
    "concelho": "Vouzela",
    "freguesia": "Queirã",
    "OBJECTID": 236,
    "BGRI2021": "18240900194",
    "DT21": "18",
    "DTMN21": "1824",
    "DTMNFR21": "182409",
    "DTMNFRSEC21": "182409001",
    "SECNUM21": "001",
    "SSNUM21": "94",
    "SECSSNUM21": "00194",
    "OBJECTID_1": 202796,
    "DT": "18",
    "CC": "24",
    "fr": "09",
    "SEC": "001",
    "SS": "94"
  },
  "addresses": [
    {
      "id": "pt.ine.add.PTCONT.5433897",
      "street": "AV NSA SRA DA AJUDA",
      "house": "18",
      "postcode": "3670-170",
      "city": "QUEIRÃ",
      "lon": "-8.049657315235422",
      "lat": "40.71806366848587"
    },
    {
      "id": "pt.ine.add.PTCONT.5452640",
      "street": "R FUNDO DO POVO",
      "house": "1",
      "postcode": "3670-170",
      "city": "QUEIRÃ",
      "lon": "-8.047146707288974",
      "lat": "40.71924149104606"
    },
    {
      "id": "pt.ine.add.PTCONT.5457721",
      "street": "AV NSA SRA DA AJUDA",
      "house": "1",
      "postcode": "3670-170",
      "city": "QUEIRÃ",
      "lon": "-8.047914938301744",
      "lat": "40.720088537468975"
    },
    {
      "id": "pt.ine.add.PTCONT.5472207",
      "street": "R LAJES",
      "house": "6",
      "postcode": "3670-170",
      "city": "QUEIRÃ",
      "lon": "-8.047253435407923",
      "lat": "40.71907947913869"
    },
    {
      "id": "pt.ine.add.PTCONT.5473925",
      "street": "R LAJES",
      "house": "4",
      "postcode": "3670-170",
      "city": "QUEIRÃ",
      "lon": "-8.047726591273449",
      "lat": "40.71928694678178"
    },
    {
      "id": "pt.ine.add.PTCONT.5495539",
      "street": "QLHA GRILAS",
      "house": "2",
      "postcode": "3670-170",
      "city": "QUEIRÃ",
      "lon": "-8.047939160597394",
      "lat": "40.71965631183461"
    },
    {
      "id": "pt.ine.add.PTCONT.5514465",
      "street": "R LAJES",
      "house": "5",
      "postcode": "3670-170",
      "city": "QUEIRÃ",
      "lon": "-8.04751370133621",
      "lat": "40.7191697231591"
    },
    {
      "id": "pt.ine.add.PTCONT.5517886",
      "street": "R DIREITA",
      "house": "1",
      "postcode": "3670-170",
      "city": "QUEIRÃ",
      "lon": "-8.047607164243216",
      "lat": "40.72012433020676"
    },
    {
      "id": "pt.ine.add.PTCONT.5522172",
      "street": "R LAJES",
      "house": "1",
      "postcode": "3670-170",
      "city": "QUEIRÃ",
      "lon": "-8.047383221725111",
      "lat": "40.71939475318585"
    },
    {
      "id": "pt.ine.add.PTCONT.5527401",
      "street": "AV NSA SRA DA AJUDA",
      "house": "3",
      "postcode": "3670-170",
      "city": "QUEIRÃ",
      "lon": "-8.048484214679004",
      "lat": "40.71917043870559"
    },
    {
      "id": "pt.ine.add.PTCONT.5532830",
      "street": "R LAJES",
      "house": "7",
      "postcode": "3670-170",
      "city": "QUEIRÃ",
      "lon": "-8.047442861324667",
      "lat": "40.71903459449604"
    },
    {
      "id": "pt.ine.add.PTCONT.5534498",
      "street": "R DIREITA",
      "house": "13",
      "postcode": "3670-170",
      "city": "QUEIRÃ",
      "lon": "-8.046933597877167",
      "lat": "40.7192953625972"
    },
    {
      "id": "pt.ine.add.PTCONT.5553336",
      "street": "R DIREITA",
      "house": "5",
      "postcode": "3670-170",
      "city": "QUEIRÃ",
      "lon": "-8.047560075080094",
      "lat": "40.71992618371651"
    },
    {
      "id": "pt.ine.add.PTCONT.5555886",
      "street": "AV NSA SRA DA AJUDA",
      "house": "21",
      "postcode": "3670-170",
      "city": "QUEIRÃ",
      "lon": "-8.049763361539249",
      "lat": "40.71844195827864"
    },
    {
      "id": "pt.ine.add.PTCONT.5561653",
      "street": "R LAJES",
      "house": "",
      "postcode": "3670-170",
      "city": "QUEIRÃ",
      "lon": "-8.047726775364454",
      "lat": "40.71914286573218"
    },
    {
      "id": "pt.ine.add.PTCONT.5568757",
      "street": "AV NSA SRA DA AJUDA",
      "house": "7",
      "postcode": "3670-170",
      "city": "QUEIRÃ",
      "lon": "-8.049763002146964",
      "lat": "40.71873012042449"
    },
    {
      "id": "pt.ine.add.PTCONT.5570645",
      "street": "R DIREITA",
      "house": "15",
      "postcode": "3670-170",
      "city": "QUEIRÃ",
      "lon": "-8.046367092826483",
      "lat": "40.718061243040346"
    },
    {
      "id": "pt.ine.add.PTCONT.5576059",
      "street": "R DIREITA",
      "house": "9 A",
      "postcode": "3670-170",
      "city": "QUEIRÃ",
      "lon": "-8.047560639966823",
      "lat": "40.71948493554164"
    },
    {
      "id": "pt.ine.add.PTCONT.5587161",
      "street": "R DIREITA",
      "house": "7",
      "postcode": "3670-170",
      "city": "QUEIRÃ",
      "lon": "-8.047666791779978",
      "lat": "40.71977317651107"
    },
    {
      "id": "pt.ine.add.PTCONT.5600116",
      "street": "R DIREITA",
      "house": "9",
      "postcode": "3670-170",
      "city": "QUEIRÃ",
      "lon": "-8.04763140006159",
      "lat": "40.71968309957685"
    },
    {
      "id": "pt.ine.add.PTCONT.5603713",
      "street": "QLHA GRILAS",
      "house": "1",
      "postcode": "3670-170",
      "city": "QUEIRÃ",
      "lon": "-8.047950812601181",
      "lat": "40.71980040160399"
    },
    {
      "id": "pt.ine.add.PTCONT.5609265",
      "street": "LG FUNDO DO POVO",
      "house": "1",
      "postcode": "3670-170",
      "city": "QUEIRÃ",
      "lon": "-8.047288710651365",
      "lat": "40.719259606852404"
    },
    {
      "id": "pt.ine.add.PTCONT.5616782",
      "street": "R FUNDO DO POVO",
      "house": "2",
      "postcode": "3670-170",
      "city": "QUEIRÃ",
      "lon": "-8.04694556114827",
      "lat": "40.71919631571298"
    },
    {
      "id": "pt.ine.add.PTCONT.5620580",
      "street": "R DIREITA",
      "house": "3",
      "postcode": "3670-170",
      "city": "QUEIRÃ",
      "lon": "-8.04757174936627",
      "lat": "40.720052263388176"
    },
    {
      "id": "pt.ine.add.PTCONT.5620587",
      "street": "R REMOLHA",
      "house": "2",
      "postcode": "3670-170",
      "city": "QUEIRÃ",
      "lon": "-8.048274627479586",
      "lat": "40.71645075181953"
    },
    {
      "id": "pt.ine.add.PTCONT.5624432",
      "street": "R QUELHA GRILAS",
      "house": "3",
      "postcode": "3670-170",
      "city": "QUEIRÃ",
      "lon": "-8.047809221720195",
      "lat": "40.719458104273016"
    },
    {
      "id": "pt.ine.add.PTCONT.5624433",
      "street": "R LAJES",
      "house": "3",
      "postcode": "3670-170",
      "city": "QUEIRÃ",
      "lon": "-8.047655624039585",
      "lat": "40.71925087397321"
    },
    {
      "id": "pt.ine.add.PTCONT.5630078",
      "street": "R LAJES",
      "house": "2",
      "postcode": "3670-170",
      "city": "QUEIRÃ",
      "lon": "-8.047631814732057",
      "lat": "40.71935891723326"
    },
    {
      "id": "pt.ine.add.PTCONT.5635825",
      "street": "AV NSA SRA DA AJUDA",
      "house": "9",
      "postcode": "3670-170",
      "city": "QUEIRÃ",
      "lon": "-8.047784676709256",
      "lat": "40.72014247169633"
    },
    {
      "id": "pt.ine.add.PTCONT.5647188",
      "street": "AV NSA SRA DA AJUDA",
      "house": "23",
      "postcode": "3670-170",
      "city": "QUEIRÃ",
      "lon": "-8.049694057635222",
      "lat": "40.717073136598515"
    },
    {
      "id": "pt.ine.add.PTCONT.5650904",
      "street": "AV NSA SRA DA AJUDA",
      "house": "5",
      "postcode": "3670-170",
      "city": "QUEIRÃ",
      "lon": "-8.049620785478476",
      "lat": "40.71888310392784"
    }
  ]
}