{
  "data": {
    "distrito": "Viseu",
    "concelho": "Cinf√£es",
    "freguesia": "Travanca",
    "OBJECTID": 154,
    "BGRI2021": "18041700110",
    "DT21": "18",
    "DTMN21": "1804",
    "DTMNFR21": "180417",
    "DTMNFRSEC21": "180417001",
    "SECNUM21": "001",
    "SSNUM21": "10",
    "SECSSNUM21": "00110",
    "OBJECTID_1": 190429,
    "DT": "18",
    "CC": "04",
    "fr": "17",
    "SEC": "001",
    "SS": "10"
  },
  "addresses": [
    {
      "id": "pt.ine.add.PTCONT.5428658",
      "street": "R MIRAGAIA",
      "house": "",
      "postcode": "4690-831",
      "city": "TRAVANCA CNF",
      "lon": "-8.219704601084189",
      "lat": "41.03443698646758"
    },
    {
      "id": "pt.ine.add.PTCONT.5434381",
      "street": "R VALADO",
      "house": "176",
      "postcode": "4690-845",
      "city": "TRAVANCA CNF",
      "lon": "-8.22182269738767",
      "lat": "41.035443888513065"
    },
    {
      "id": "pt.ine.add.PTCONT.5439588",
      "street": "R OUTEIRO",
      "house": "504 CAS",
      "postcode": "4690-789",
      "city": "TRAVANCA CNF",
      "lon": "-8.22028931936449",
      "lat": "41.03596732413068"
    },
    {
      "id": "pt.ine.add.PTCONT.5448519",
      "street": "R OUTEIRO",
      "house": "504",
      "postcode": "4690-789",
      "city": "TRAVANCA CNF",
      "lon": "-8.219028488829002",
      "lat": "41.035761165647536"
    },
    {
      "id": "pt.ine.add.PTCONT.5466566",
      "street": "R OUTEIRO",
      "house": "519 CAS",
      "postcode": "4690-789",
      "city": "TRAVANCA CNF",
      "lon": "-8.219135142160088",
      "lat": "41.035472939575364"
    },
    {
      "id": "pt.ine.add.PTCONT.5484136",
      "street": "R OUTEIRO",
      "house": "94",
      "postcode": "4690-789",
      "city": "TRAVANCA CNF",
      "lon": "-8.220041765273319",
      "lat": "41.03762435323653"
    },
    {
      "id": "pt.ine.add.PTCONT.5503607",
      "street": "R VALADO",
      "house": "152 CAS",
      "postcode": "4690-845",
      "city": "TRAVANCA CNF",
      "lon": "-8.220917446207277",
      "lat": "41.034346023025805"
    },
    {
      "id": "pt.ine.add.PTCONT.5503608",
      "street": "R QUINTA",
      "house": "282",
      "postcode": "4690-841",
      "city": "TRAVANCA CNF",
      "lon": "-8.221075431770773",
      "lat": "41.03689419828018"
    },
    {
      "id": "pt.ine.add.PTCONT.5509229",
      "street": "R RODESIA",
      "house": "",
      "postcode": "4690-853",
      "city": "TRAVANCA CNF",
      "lon": "-8.221581385567976",
      "lat": "41.03285075472463"
    },
    {
      "id": "pt.ine.add.PTCONT.5521131",
      "street": "R VALADO",
      "house": "152 CAS",
      "postcode": "4690-845",
      "city": "TRAVANCA CNF",
      "lon": "-8.221500397086425",
      "lat": "41.0345346736124"
    },
    {
      "id": "pt.ine.add.PTCONT.5524146",
      "street": "R OUTEIRO",
      "house": "481",
      "postcode": "4690-789",
      "city": "TRAVANCA CNF",
      "lon": "-8.218695464768802",
      "lat": "41.03572539511409"
    },
    {
      "id": "pt.ine.add.PTCONT.5526773",
      "street": "R OUTEIRO",
      "house": "384",
      "postcode": "4690-789",
      "city": "TRAVANCA CNF",
      "lon": "-8.218375378824463",
      "lat": "41.036500026056366"
    },
    {
      "id": "pt.ine.add.PTCONT.5542093",
      "street": "R VALADO",
      "house": "152 CAS",
      "postcode": "4690-845",
      "city": "TRAVANCA CNF",
      "lon": "-8.22107188372562",
      "lat": "41.03422884571445"
    },
    {
      "id": "pt.ine.add.PTCONT.5574699",
      "street": "R RIBEIRA",
      "house": "",
      "postcode": "4690-845",
      "city": "TRAVANCA CNF",
      "lon": "-8.221511180708678",
      "lat": "41.03370624390161"
    },
    {
      "id": "pt.ine.add.PTCONT.5598850",
      "street": "R RIBEIRA",
      "house": "1644",
      "postcode": "4690-845",
      "city": "TRAVANCA CNF",
      "lon": "-8.221725158494541",
      "lat": "41.03365205209073"
    },
    {
      "id": "pt.ine.add.PTCONT.5613626",
      "street": "R VALADO",
      "house": "10",
      "postcode": "4690-845",
      "city": "TRAVANCA CNF",
      "lon": "-8.221796834792489",
      "lat": "41.03389512065696"
    },
    {
      "id": "pt.ine.add.PTCONT.5615677",
      "street": "R OUTEIRO SOLAR DE MIRAGAIA",
      "house": "566",
      "postcode": "4690-789",
      "city": "TRAVANCA CNF",
      "lon": "-8.220109385018768",
      "lat": "41.034787860253275"
    },
    {
      "id": "pt.ine.add.PTCONT.5615678",
      "street": "R RIBEIRA",
      "house": "1568",
      "postcode": "4690-845",
      "city": "TRAVANCA CNF",
      "lon": "-8.22179549344956",
      "lat": "41.03289561308739"
    },
    {
      "id": "pt.ine.add.PTCONT.5632586",
      "street": "R QUINTA CASA DA QUINTA",
      "house": "282",
      "postcode": "4690-841",
      "city": "TRAVANCA CNF",
      "lon": "-8.222085412426514",
      "lat": "41.0362540980299"
    },
    {
      "id": "pt.ine.add.PTCONT.5635721",
      "street": "R RIBEIRA",
      "house": "1606",
      "postcode": "4690-845",
      "city": "TRAVANCA CNF",
      "lon": "-8.22166516922426",
      "lat": "41.03325589659477"
    },
    {
      "id": "pt.ine.add.PTCONT.5649975",
      "street": "R OUTEIRO",
      "house": "70",
      "postcode": "4690-789",
      "city": "TRAVANCA CNF",
      "lon": "-8.220267720592489",
      "lat": "41.03762418258281"
    },
    {
      "id": "pt.ine.add.PTCONT.5651335",
      "street": "R RODESIA",
      "house": "520",
      "postcode": "4690-853",
      "city": "TRAVANCA CNF",
      "lon": "-8.220677808570159",
      "lat": "41.0329865135238"
    },
    {
      "id": "pt.ine.add.PTCONT.5656570",
      "street": "",
      "house": "",
      "postcode": "4690-860",
      "city": "TRAVANCA CNF",
      "lon": "-8.223082831687721",
      "lat": "41.03513675599046"
    },
    {
      "id": "pt.ine.add.PTCONT.5666953",
      "street": "R OUTEIRO",
      "house": "519",
      "postcode": "4690-789",
      "city": "TRAVANCA CNF",
      "lon": "-8.218933095136387",
      "lat": "41.035563135993854"
    },
    {
      "id": "pt.ine.add.PTCONT.5668021",
      "street": "R VALADO",
      "house": "344 CAS",
      "postcode": "4690-845",
      "city": "TRAVANCA CNF",
      "lon": "-8.222940018281156",
      "lat": "41.03505582617573"
    }
  ]
}