{
  "data": {
    "distrito": "Guarda",
    "concelho": "Pinhel",
    "freguesia": "Valbom/Bogalhal",
    "OBJECTID": 184,
    "BGRI2021": "09103100121",
    "DT21": "09",
    "DTMN21": "0910",
    "DTMNFR21": "091031",
    "DTMNFRSEC21": "091031001",
    "SECNUM21": "001",
    "SSNUM21": "21",
    "SECSSNUM21": "00121",
    "OBJECTID_1": 80450,
    "DT": "09",
    "CC": "10",
    "fr": "31",
    "SEC": "001",
    "SS": "21"
  },
  "addresses": [
    {
      "id": "pt.ine.add.PTCONT.1903365",
      "street": "R DO CASTELO",
      "house": "",
      "postcode": "6400-161",
      "city": "BOGALHAL",
      "lon": "-7.119562847825818",
      "lat": "40.81771252001041"
    },
    {
      "id": "pt.ine.add.PTCONT.1905538",
      "street": "R DE STO ANTÃ“NIO",
      "house": "",
      "postcode": "6400-161",
      "city": "BOGALHAL",
      "lon": "-7.119746437614325",
      "lat": "40.81811034016792"
    },
    {
      "id": "pt.ine.add.PTCONT.1906501",
      "street": "R DO CASTELO",
      "house": "",
      "postcode": "6400-161",
      "city": "BOGALHAL",
      "lon": "-7.119633269705909",
      "lat": "40.81775816224514"
    },
    {
      "id": "pt.ine.add.PTCONT.1911426",
      "street": "R DO CANTO",
      "house": "",
      "postcode": "6400-161",
      "city": "BOGALHAL",
      "lon": "-7.120252818497802",
      "lat": "40.81754749009711"
    },
    {
      "id": "pt.ine.add.PTCONT.1915873",
      "street": "R DO CASTELO",
      "house": "",
      "postcode": "6400-161",
      "city": "BOGALHAL",
      "lon": "-7.11916196430432",
      "lat": "40.81757392666452"
    },
    {
      "id": "pt.ine.add.PTCONT.1930052",
      "street": "R DO AMPARO",
      "house": "",
      "postcode": "6400-161",
      "city": "BOGALHAL",
      "lon": "-7.120290700100323",
      "lat": "40.81739474253154"
    },
    {
      "id": "pt.ine.add.PTCONT.1938356",
      "street": "R DO OURO",
      "house": "",
      "postcode": "6400-161",
      "city": "BOGALHAL",
      "lon": "-7.119647653451715",
      "lat": "40.818370609084184"
    },
    {
      "id": "pt.ine.add.PTCONT.1961895",
      "street": "LG DA IGREJA",
      "house": "",
      "postcode": "6400-161",
      "city": "BOGALHAL",
      "lon": "-7.119866320225718",
      "lat": "40.81802134601106"
    },
    {
      "id": "pt.ine.add.PTCONT.1859987",
      "street": "R DO AMPARO",
      "house": "",
      "postcode": "6400-161",
      "city": "BOGALHAL",
      "lon": "-7.120539299921037",
      "lat": "40.817414934185194"
    },
    {
      "id": "pt.ine.add.PTCONT.1867209",
      "street": "R DO AMPARO",
      "house": "",
      "postcode": "6400-161",
      "city": "BOGALHAL",
      "lon": "-7.120349407964239",
      "lat": "40.81743127677814"
    },
    {
      "id": "pt.ine.add.PTCONT.1883027",
      "street": "R DO CASTELO",
      "house": "",
      "postcode": "6400-161",
      "city": "BOGALHAL",
      "lon": "-7.119691429390047",
      "lat": "40.817830710862005"
    },
    {
      "id": "pt.ine.add.PTCONT.1896465",
      "street": "",
      "house": "",
      "postcode": "6400-161",
      "city": "BOGALHAL",
      "lon": "-7.1191990865289565",
      "lat": "40.81824960639833"
    }
  ]
}