{
  "data": {
    "distrito": "Portalegre",
    "concelho": "Ponte de Sor",
    "freguesia": "Montargil",
    "OBJECTID": 91,
    "BGRI2021": "12130200124",
    "DT21": "12",
    "DTMN21": "1213",
    "DTMNFR21": "121302",
    "DTMNFRSEC21": "121302001",
    "SECNUM21": "001",
    "SSNUM21": "24",
    "SECSSNUM21": "00124",
    "OBJECTID_1": 124308,
    "DT": "12",
    "CC": "13",
    "fr": "02",
    "SEC": "001",
    "SS": "24"
  },
  "addresses": [
    {
      "id": "pt.ine.add.PTCONT.3461820",
      "street": "MTE COVÃO",
      "house": "",
      "postcode": "7425-018",
      "city": "MONTARGIL",
      "lon": "-8.183505156565287",
      "lat": "39.060100168377254"
    },
    {
      "id": "pt.ine.add.PTCONT.3462213",
      "street": "MTE NOVO",
      "house": "",
      "postcode": "7425-014",
      "city": "MONTARGIL",
      "lon": "-8.196813186139314",
      "lat": "39.0581840344563"
    },
    {
      "id": "pt.ine.add.PTCONT.3463629",
      "street": "MTE COVÃO",
      "house": "",
      "postcode": "7425-018",
      "city": "MONTARGIL",
      "lon": "-8.18895456715314",
      "lat": "39.05516148714939"
    },
    {
      "id": "pt.ine.add.PTCONT.3469420",
      "street": "MTE NOVO",
      "house": "",
      "postcode": "7425-014",
      "city": "MONTARGIL",
      "lon": "-8.196419200010107",
      "lat": "39.05686913027432"
    },
    {
      "id": "pt.ine.add.PTCONT.3474548",
      "street": "MTE NOVO",
      "house": "",
      "postcode": "7425-014",
      "city": "MONTARGIL",
      "lon": "-8.198421267038594",
      "lat": "39.06054315179971"
    },
    {
      "id": "pt.ine.add.PTCONT.3475739",
      "street": "MTE DO PEREIRO",
      "house": "",
      "postcode": "7425-014",
      "city": "MONTARGIL",
      "lon": "-8.193008380674211",
      "lat": "39.06739187352306"
    },
    {
      "id": "pt.ine.add.PTCONT.3479422",
      "street": "MTE COVÃO",
      "house": "",
      "postcode": "7425-018",
      "city": "MONTARGIL",
      "lon": "-8.185904850618039",
      "lat": "39.055460160567904"
    },
    {
      "id": "pt.ine.add.PTCONT.3480060",
      "street": "COURELAS DO CABEFODO",
      "house": "",
      "postcode": "7425-014",
      "city": "MONTARGIL",
      "lon": "-8.197634346645582",
      "lat": "39.059147402718146"
    },
    {
      "id": "pt.ine.add.PTCONT.3488614",
      "street": "MTE ALMINHO",
      "house": "",
      "postcode": "7425-014",
      "city": "MONTARGIL",
      "lon": "-8.214915461160244",
      "lat": "39.04666994755268"
    },
    {
      "id": "pt.ine.add.PTCONT.3491143",
      "street": "MTE COVÃO",
      "house": "",
      "postcode": "7425-018",
      "city": "MONTARGIL",
      "lon": "-8.185063743910034",
      "lat": "39.05853215160472"
    },
    {
      "id": "pt.ine.add.PTCONT.3495602",
      "street": "MTE NOVO",
      "house": "",
      "postcode": "7425-014",
      "city": "MONTARGIL",
      "lon": "-8.203754663517635",
      "lat": "39.05612628915559"
    },
    {
      "id": "pt.ine.add.PTCONT.3501815",
      "street": "MTE COVÃO",
      "house": "",
      "postcode": "7425-018",
      "city": "MONTARGIL",
      "lon": "-8.1833434827572",
      "lat": "39.06020833003442"
    },
    {
      "id": "pt.ine.add.PTCONT.3506272",
      "street": "ALTO DA CABACA",
      "house": "",
      "postcode": "7425-146",
      "city": "MONTARGIL",
      "lon": "-8.18611792107231",
      "lat": "39.07775399459363"
    },
    {
      "id": "pt.ine.add.PTCONT.3508271",
      "street": "MTE NOVO",
      "house": "",
      "postcode": "7425-014",
      "city": "MONTARGIL",
      "lon": "-8.19617664160277",
      "lat": "39.0569323153373"
    },
    {
      "id": "pt.ine.add.PTCONT.3513200",
      "street": "MTE COVÃO",
      "house": "",
      "postcode": "7425-018",
      "city": "MONTARGIL",
      "lon": "-8.183724681404401",
      "lat": "39.0601090809675"
    },
    {
      "id": "pt.ine.add.PTCONT.3514938",
      "street": "MTE DA SERRA",
      "house": "",
      "postcode": "7425-014",
      "city": "MONTARGIL",
      "lon": "-8.193727164868513",
      "lat": "39.05667239195413"
    },
    {
      "id": "pt.ine.add.PTCONT.3515516",
      "street": "MTE COVÃO",
      "house": "",
      "postcode": "7425-018",
      "city": "MONTARGIL",
      "lon": "-8.18578951627319",
      "lat": "39.0557214350301"
    },
    {
      "id": "pt.ine.add.PTCONT.3517516",
      "street": "COURELAS DO CABEFODO",
      "house": "",
      "postcode": "7425-014",
      "city": "MONTARGIL",
      "lon": "-8.198039319393834",
      "lat": "39.05980473709177"
    },
    {
      "id": "pt.ine.add.PTCONT.3521711",
      "street": "MTE NOVO",
      "house": "",
      "postcode": "7425-014",
      "city": "MONTARGIL",
      "lon": "-8.197528916878754",
      "lat": "39.057553104975824"
    },
    {
      "id": "pt.ine.add.PTCONT.3526003",
      "street": "MTE SERPA",
      "house": "",
      "postcode": "7425-018",
      "city": "MONTARGIL",
      "lon": "-8.17917583440659",
      "lat": "39.06514624569673"
    },
    {
      "id": "pt.ine.add.PTCONT.3526826",
      "street": "MTE SERPA",
      "house": "",
      "postcode": "7425-146",
      "city": "MONTARGIL",
      "lon": "-8.182923576579467",
      "lat": "39.07099066769102"
    },
    {
      "id": "pt.ine.add.PTCONT.3529882",
      "street": "MTE ALMINHO",
      "house": "",
      "postcode": "7425-014",
      "city": "MONTARGIL",
      "lon": "-8.211497051509227",
      "lat": "39.04740191699828"
    }
  ]
}