{
  "data": {
    "distrito": "Faro",
    "concelho": "Lagos",
    "freguesia": "União das freguesias de Bensafrim e Barão de São João",
    "OBJECTID": 512,
    "BGRI2021": "08070700207",
    "DT21": "08",
    "DTMN21": "0807",
    "DTMNFR21": "080707",
    "DTMNFRSEC21": "080707002",
    "SECNUM21": "002",
    "SSNUM21": "07",
    "SECSSNUM21": "00207",
    "OBJECTID_1": 67755,
    "DT": "08",
    "CC": "07",
    "fr": "07",
    "SEC": "002",
    "SS": "07"
  },
  "addresses": [
    {
      "id": "pt.ine.add.PTCONT.1468355",
      "street": "",
      "house": "",
      "postcode": "8600-013",
      "city": "BARÃO DE SÃO JOÃO",
      "lon": "-8.75077925769221",
      "lat": "37.11680381271243"
    },
    {
      "id": "pt.ine.add.PTCONT.1501564",
      "street": "GIL EANES",
      "house": "",
      "postcode": "8600-015",
      "city": "BARÃO DE SÃO JOÃO",
      "lon": "-8.751135360721927",
      "lat": "37.12462306782232"
    },
    {
      "id": "pt.ine.add.PTCONT.1531774",
      "street": "VACEA GRANDE",
      "house": "34",
      "postcode": "8600-021",
      "city": "BARÃO DE SÃO JOÃO",
      "lon": "-8.76164297791539",
      "lat": "37.125694134030695"
    },
    {
      "id": "pt.ine.add.PTCONT.1533940",
      "street": "QTA CATALÃO",
      "house": "",
      "postcode": "8600-013",
      "city": "BARÃO DE SÃO JOÃO",
      "lon": "-8.7422947446715",
      "lat": "37.12793062453249"
    },
    {
      "id": "pt.ine.add.PTCONT.1554474",
      "street": "",
      "house": "",
      "postcode": "8600-013",
      "city": "BARÃO DE SÃO JOÃO",
      "lon": "-8.756622859416613",
      "lat": "37.11592623744476"
    },
    {
      "id": "pt.ine.add.PTCONT.1573398",
      "street": "MATA PORCAS",
      "house": "",
      "postcode": "8600-013",
      "city": "BARÃO DE SÃO JOÃO",
      "lon": "-8.741543054899456",
      "lat": "37.121185624164454"
    },
    {
      "id": "pt.ine.add.PTCONT.1607204",
      "street": "MATOS BRANCOS",
      "house": "",
      "postcode": "8600-013",
      "city": "BARÃO DE SÃO JOÃO",
      "lon": "-8.750586672565017",
      "lat": "37.116642626845"
    },
    {
      "id": "pt.ine.add.PTCONT.1612022",
      "street": "MATOS BRANCOS",
      "house": "",
      "postcode": "8600-013",
      "city": "BARÃO DE SÃO JOÃO",
      "lon": "-8.752070973632964",
      "lat": "37.1179143781739"
    },
    {
      "id": "pt.ine.add.PTCONT.1621010",
      "street": "",
      "house": "",
      "postcode": "8600-013",
      "city": "BARÃO DE SÃO JOÃO",
      "lon": "-8.755681175762433",
      "lat": "37.11634566915249"
    },
    {
      "id": "pt.ine.add.PTCONT.1625035",
      "street": "",
      "house": "",
      "postcode": "8600-013",
      "city": "BARÃO DE SÃO JOÃO",
      "lon": "-8.756387328698112",
      "lat": "37.116017580897605"
    },
    {
      "id": "pt.ine.add.PTCONT.1630166",
      "street": "",
      "house": "",
      "postcode": "8600-013",
      "city": "BARÃO DE SÃO JOÃO",
      "lon": "-8.756252908240267",
      "lat": "37.11609037149174"
    },
    {
      "id": "pt.ine.add.PTCONT.1658974",
      "street": "SIT SITIO CATALAO",
      "house": "",
      "postcode": "8600-013",
      "city": "BARÃO DE SÃO JOÃO",
      "lon": "-8.738265725405206",
      "lat": "37.12222959568859"
    },
    {
      "id": "pt.ine.add.PTCONT.1663586",
      "street": "CATALAO",
      "house": "",
      "postcode": "8600-013",
      "city": "BARÃO DE SÃO JOÃO",
      "lon": "-8.74241869599482",
      "lat": "37.123740108389"
    },
    {
      "id": "pt.ine.add.PTCONT.1676054",
      "street": "CATALAO",
      "house": "",
      "postcode": "8600-013",
      "city": "BARÃO DE SÃO JOÃO",
      "lon": "-8.74287593559883",
      "lat": "37.12462979645586"
    },
    {
      "id": "pt.ine.add.PTCONT.1682927",
      "street": "",
      "house": "",
      "postcode": "8600-013",
      "city": "BARÃO DE SÃO JOÃO",
      "lon": "-8.756073557526726",
      "lat": "37.11617240852742"
    },
    {
      "id": "pt.ine.add.PTCONT.1693088",
      "street": "GIL EANES",
      "house": "",
      "postcode": "8600-013",
      "city": "BARÃO DE SÃO JOÃO",
      "lon": "-8.744979058051056",
      "lat": "37.12868269139165"
    },
    {
      "id": "pt.ine.add.PTCONT.1698791",
      "street": "",
      "house": "",
      "postcode": "8600-013",
      "city": "BARÃO DE SÃO JOÃO",
      "lon": "-8.755894206423527",
      "lat": "37.11625444529417"
    },
    {
      "id": "pt.ine.add.PTCONT.1704291",
      "street": "GIL EANES",
      "house": "",
      "postcode": "8600-013",
      "city": "BARÃO DE SÃO JOÃO",
      "lon": "-8.75077223768876",
      "lat": "37.12563413518453"
    },
    {
      "id": "pt.ine.add.PTCONT.1704295",
      "street": "ESPICHE GOLF",
      "house": "",
      "postcode": "8600-013",
      "city": "BARÃO DE SÃO JOÃO",
      "lon": "-8.75063879377186",
      "lat": "37.11890399114334"
    },
    {
      "id": "pt.ine.add.PTCONT.1727411",
      "street": "SIT SITIO CATALAO CASA LOUISIANA",
      "house": "",
      "postcode": "8600-013",
      "city": "BARÃO DE SÃO JOÃO",
      "lon": "-8.745349847412461",
      "lat": "37.11883230648754"
    },
    {
      "id": "pt.ine.add.PTCONT.1760266",
      "street": "",
      "house": "",
      "postcode": "8600-013",
      "city": "BARÃO DE SÃO JOÃO",
      "lon": "-8.754551377390237",
      "lat": "37.11026950500081"
    },
    {
      "id": "pt.ine.add.PTCONT.1769626",
      "street": "",
      "house": "",
      "postcode": "8600-013",
      "city": "BARÃO DE SÃO JOÃO",
      "lon": "-8.755546680282809",
      "lat": "37.116409448839924"
    },
    {
      "id": "pt.ine.add.PTCONT.1790175",
      "street": "SIT SITIO CATALAO MATA PORCAS",
      "house": "",
      "postcode": "8600-013",
      "city": "BARÃO DE SÃO JOÃO",
      "lon": "-8.743442170029086",
      "lat": "37.12227514322719"
    },
    {
      "id": "pt.ine.add.PTCONT.1797547",
      "street": "GIL EANES",
      "house": "",
      "postcode": "8600-013",
      "city": "BARÃO DE SÃO JOÃO",
      "lon": "-8.744584121569737",
      "lat": "37.12854957188817"
    },
    {
      "id": "pt.ine.add.PTCONT.1816821",
      "street": "VÁRZEA GRANDE",
      "house": "",
      "postcode": "8600-013",
      "city": "BARÃO DE SÃO JOÃO",
      "lon": "-8.761436934932469",
      "lat": "37.125271733511475"
    },
    {
      "id": "pt.ine.add.PTCONT.1836573",
      "street": "",
      "house": "",
      "postcode": "8600-013",
      "city": "BARÃO DE SÃO JOÃO",
      "lon": "-8.745794020959407",
      "lat": "37.118100161197304"
    },
    {
      "id": "pt.ine.add.PTCONT.1838982",
      "street": "",
      "house": "",
      "postcode": "8600-013",
      "city": "BARÃO DE SÃO JOÃO",
      "lon": "-8.750858088319204",
      "lat": "37.11681241249398"
    },
    {
      "id": "pt.ine.add.PTCONT.1844390",
      "street": "SIT SITIO CATALAO",
      "house": "",
      "postcode": "8600-013",
      "city": "BARÃO DE SÃO JOÃO",
      "lon": "-8.738416232887946",
      "lat": "37.12276044679518"
    }
  ]
}