{
  "data": {
    "distrito": "Faro",
    "concelho": "Lagos",
    "freguesia": "União das freguesias de Bensafrim e Barão de São João",
    "OBJECTID": 664,
    "BGRI2021": "08070700210",
    "DT21": "08",
    "DTMN21": "0807",
    "DTMNFR21": "080707",
    "DTMNFRSEC21": "080707002",
    "SECNUM21": "002",
    "SSNUM21": "10",
    "SECSSNUM21": "00210",
    "OBJECTID_1": 67474,
    "DT": "08",
    "CC": "07",
    "fr": "07",
    "SEC": "002",
    "SS": "10"
  },
  "addresses": [
    {
      "id": "pt.ine.add.PTCONT.1475851",
      "street": "BARZACÕES",
      "house": "",
      "postcode": "8600-013",
      "city": "BARÃO DE SÃO JOÃO",
      "lon": "-8.775508762883256",
      "lat": "37.13262094450908"
    },
    {
      "id": "pt.ine.add.PTCONT.1501565",
      "street": "SIT DETRAS MOINHO",
      "house": "",
      "postcode": "8600-013",
      "city": "BARÃO DE SÃO JOÃO",
      "lon": "-8.775691758264939",
      "lat": "37.13562944783533"
    },
    {
      "id": "pt.ine.add.PTCONT.1516273",
      "street": "ESTR SITIO DA CRUZ ALMADENA POMBAL",
      "house": "",
      "postcode": "8600-013",
      "city": "BARÃO DE SÃO JOÃO",
      "lon": "-8.778026799070549",
      "lat": "37.13626551980877"
    },
    {
      "id": "pt.ine.add.PTCONT.1554480",
      "street": "SIT DETRAS MOINHO",
      "house": "",
      "postcode": "8600-013",
      "city": "BARÃO DE SÃO JOÃO",
      "lon": "-8.775372387047435",
      "lat": "37.13512659278912"
    },
    {
      "id": "pt.ine.add.PTCONT.1581011",
      "street": "CERCA NOVA",
      "house": "",
      "postcode": "8600-013",
      "city": "BARÃO DE SÃO JOÃO",
      "lon": "-8.771346793943843",
      "lat": "37.13017455729885"
    },
    {
      "id": "pt.ine.add.PTCONT.1594916",
      "street": "R MOINHO",
      "house": "",
      "postcode": "8600-013",
      "city": "BARÃO DE SÃO JOÃO",
      "lon": "-8.776914465973684",
      "lat": "37.13781235506193"
    },
    {
      "id": "pt.ine.add.PTCONT.1607205",
      "street": "CERCA NOVA",
      "house": "",
      "postcode": "8600-013",
      "city": "BARÃO DE SÃO JOÃO",
      "lon": "-8.771924439919768",
      "lat": "37.13195551908519"
    },
    {
      "id": "pt.ine.add.PTCONT.1635688",
      "street": "",
      "house": "",
      "postcode": "8600-013",
      "city": "BARÃO DE SÃO JOÃO",
      "lon": "-8.778380987649225",
      "lat": "37.12893808373392"
    },
    {
      "id": "pt.ine.add.PTCONT.1673296",
      "street": "ESPOJEIRO",
      "house": "",
      "postcode": "8600-013",
      "city": "BARÃO DE SÃO JOÃO",
      "lon": "-8.77215746862669",
      "lat": "37.12754814183521"
    },
    {
      "id": "pt.ine.add.PTCONT.1689937",
      "street": "CERCA NOVA",
      "house": "",
      "postcode": "8600-013",
      "city": "BARÃO DE SÃO JOÃO",
      "lon": "-8.771106850325344",
      "lat": "37.129743346213445"
    },
    {
      "id": "pt.ine.add.PTCONT.1713097",
      "street": "QTA ESPOJEIRO",
      "house": "",
      "postcode": "8600-013",
      "city": "BARÃO DE SÃO JOÃO",
      "lon": "-8.772753780794352",
      "lat": "37.12753591529978"
    },
    {
      "id": "pt.ine.add.PTCONT.1730234",
      "street": "SIT ATRAS DO MOINHO",
      "house": "",
      "postcode": "8600-013",
      "city": "BARÃO DE SÃO JOÃO",
      "lon": "-8.774102165207875",
      "lat": "37.133971118421165"
    },
    {
      "id": "pt.ine.add.PTCONT.1734359",
      "street": "BARZACÕES",
      "house": "",
      "postcode": "8600-013",
      "city": "BARÃO DE SÃO JOÃO",
      "lon": "-8.775693746023423",
      "lat": "37.131872073096055"
    },
    {
      "id": "pt.ine.add.PTCONT.1744995",
      "street": "SIT DETRAS MOINHO CASA MARIA",
      "house": "",
      "postcode": "8600-013",
      "city": "BARÃO DE SÃO JOÃO",
      "lon": "-8.775699354491001",
      "lat": "37.13519690444957"
    },
    {
      "id": "pt.ine.add.PTCONT.1754191",
      "street": "SIT JOANEIRA",
      "house": "",
      "postcode": "8600-013",
      "city": "BARÃO DE SÃO JOÃO",
      "lon": "-8.774179593043844",
      "lat": "37.12714076293233"
    },
    {
      "id": "pt.ine.add.PTCONT.1772586",
      "street": "SIT AREIAS",
      "house": "",
      "postcode": "8600-013",
      "city": "BARÃO DE SÃO JOÃO",
      "lon": "-8.774759505459263",
      "lat": "37.13318365151699"
    },
    {
      "id": "pt.ine.add.PTCONT.1793304",
      "street": "CERCA NOVA",
      "house": "",
      "postcode": "8600-013",
      "city": "BARÃO DE SÃO JOÃO",
      "lon": "-8.77173386294624",
      "lat": "37.130704090525086"
    },
    {
      "id": "pt.ine.add.PTCONT.1822180",
      "street": "BARRADINHA ATALAIA",
      "house": "",
      "postcode": "8600-013",
      "city": "BARÃO DE SÃO JOÃO",
      "lon": "-8.778058607369871",
      "lat": "37.13205746034692"
    },
    {
      "id": "pt.ine.add.PTCONT.1833663",
      "street": "CERCA NOVA",
      "house": "",
      "postcode": "8600-013",
      "city": "BARÃO DE SÃO JOÃO",
      "lon": "-8.772299926797906",
      "lat": "37.13110651080141"
    },
    {
      "id": "pt.ine.add.PTCONT.1836529",
      "street": "CERCA NOVA",
      "house": "",
      "postcode": "8600-013",
      "city": "BARÃO DE SÃO JOÃO",
      "lon": "-8.773240595262",
      "lat": "37.13322790548592"
    },
    {
      "id": "pt.ine.add.PTCONT.1836530",
      "street": "ATALAIA CASA DO CACTO",
      "house": "",
      "postcode": "8600-013",
      "city": "BARÃO DE SÃO JOÃO",
      "lon": "-8.778148393498068",
      "lat": "37.13335447884421"
    },
    {
      "id": "pt.ine.add.PTCONT.1847719",
      "street": "R MOINHO",
      "house": "",
      "postcode": "8600-013",
      "city": "BARÃO DE SÃO JOÃO",
      "lon": "-8.777006102463018",
      "lat": "37.138001076934856"
    },
    {
      "id": "pt.ine.add.PTCONT.1848181",
      "street": "SIT AREIAS",
      "house": "",
      "postcode": "8600-013",
      "city": "BARÃO DE SÃO JOÃO",
      "lon": "-8.776034984166577",
      "lat": "37.13496081248297"
    },
    {
      "id": "pt.ine.add.PTCONT.1848750",
      "street": "R MOINHO",
      "house": "",
      "postcode": "8600-013",
      "city": "BARÃO DE SÃO JOÃO",
      "lon": "-8.776894355663877",
      "lat": "37.13676725101616"
    }
  ]
}