{
  "data": {
    "distrito": "Faro",
    "concelho": "Lagos",
    "freguesia": "União das freguesias de Bensafrim e Barão de São João",
    "OBJECTID": 660,
    "BGRI2021": "08070700227",
    "DT21": "08",
    "DTMN21": "0807",
    "DTMNFR21": "080707",
    "DTMNFRSEC21": "080707002",
    "SECNUM21": "002",
    "SSNUM21": "27",
    "SECSSNUM21": "00227",
    "OBJECTID_1": 67581,
    "DT": "08",
    "CC": "07",
    "fr": "07",
    "SEC": "002",
    "SS": "27"
  },
  "addresses": [
    {
      "id": "pt.ine.add.PTCONT.1500745",
      "street": "R DR ARMANDO JAQUES FAVRE CASTELO BRANCO",
      "house": "7",
      "postcode": "8600-013",
      "city": "BARÃO DE SÃO JOÃO",
      "lon": "-8.776824095599594",
      "lat": "37.13910134129012"
    },
    {
      "id": "pt.ine.add.PTCONT.1505083",
      "street": "R COTOVELO",
      "house": "6",
      "postcode": "8600-013",
      "city": "BARÃO DE SÃO JOÃO",
      "lon": "-8.776095844725763",
      "lat": "37.13949274360718"
    },
    {
      "id": "pt.ine.add.PTCONT.1510733",
      "street": "R 25 DE ABRIL",
      "house": "22",
      "postcode": "8600-013",
      "city": "BARÃO DE SÃO JOÃO",
      "lon": "-8.77613582891908",
      "lat": "37.13889783655812"
    },
    {
      "id": "pt.ine.add.PTCONT.1525242",
      "street": "R COTOVELO",
      "house": "13",
      "postcode": "8600-013",
      "city": "BARÃO DE SÃO JOÃO",
      "lon": "-8.776128692685816",
      "lat": "37.13938443993951"
    },
    {
      "id": "pt.ine.add.PTCONT.1548113",
      "street": "R 25 DE ABRIL",
      "house": "20",
      "postcode": "8600-013",
      "city": "BARÃO DE SÃO JOÃO",
      "lon": "-8.77606929454401",
      "lat": "37.139015333424"
    },
    {
      "id": "pt.ine.add.PTCONT.1557366",
      "street": "R COTOVELO",
      "house": "7A",
      "postcode": "8600-013",
      "city": "BARÃO DE SÃO JOÃO",
      "lon": "-8.775993640499257",
      "lat": "37.13938517250168"
    },
    {
      "id": "pt.ine.add.PTCONT.1563484",
      "street": "R COTOVELO",
      "house": "17",
      "postcode": "8600-013",
      "city": "BARÃO DE SÃO JOÃO",
      "lon": "-8.776219642736429",
      "lat": "37.139492071989324"
    },
    {
      "id": "pt.ine.add.PTCONT.1579688",
      "street": "R DR ARMANDO JAQUES FAVRE CASTELO BRANCO",
      "house": "3",
      "postcode": "8600-013",
      "city": "BARÃO DE SÃO JOÃO",
      "lon": "-8.77654380629249",
      "lat": "37.13922900952129"
    },
    {
      "id": "pt.ine.add.PTCONT.1615968",
      "street": "R CAP FRANCISCO SILVA RIJO",
      "house": "15",
      "postcode": "8600-013",
      "city": "BARÃO DE SÃO JOÃO",
      "lon": "-8.776455297682352",
      "lat": "37.139409699072154"
    },
    {
      "id": "pt.ine.add.PTCONT.1656331",
      "street": "R CAP FRANCISCO SILVA RIJO",
      "house": "5",
      "postcode": "8600-013",
      "city": "BARÃO DE SÃO JOÃO",
      "lon": "-8.775995089159682",
      "lat": "37.139556363315926"
    },
    {
      "id": "pt.ine.add.PTCONT.1658959",
      "street": "R 25 ABRIL",
      "house": "10",
      "postcode": "8600-013",
      "city": "BARÃO DE SÃO JOÃO",
      "lon": "-8.775779350543516",
      "lat": "37.13933227181672"
    },
    {
      "id": "pt.ine.add.PTCONT.1713115",
      "street": "R 25 DE ABRIL",
      "house": "20A",
      "postcode": "8600-013",
      "city": "BARÃO DE SÃO JOÃO",
      "lon": "-8.776160396589567",
      "lat": "37.13914098561724"
    },
    {
      "id": "pt.ine.add.PTCONT.1734428",
      "street": "R 25 DE ABRIL",
      "house": "18",
      "postcode": "8600-013",
      "city": "BARÃO DE SÃO JOÃO",
      "lon": "-8.77602549733278",
      "lat": "37.13915973829805"
    },
    {
      "id": "pt.ine.add.PTCONT.1742187",
      "street": "R CAP FRANCISCO SILVA RIJO",
      "house": "13",
      "postcode": "8600-013",
      "city": "BARÃO DE SÃO JOÃO",
      "lon": "-8.776388000447039",
      "lat": "37.139437095685466"
    },
    {
      "id": "pt.ine.add.PTCONT.1772604",
      "street": "R 25 DE ABRIL",
      "house": "28",
      "postcode": "8600-013",
      "city": "BARÃO DE SÃO JOÃO",
      "lon": "-8.77632608365502",
      "lat": "37.13877065789304"
    },
    {
      "id": "pt.ine.add.PTCONT.1789016",
      "street": "R CAP FRANCISCO SILVA RIJO",
      "house": "7",
      "postcode": "8600-013",
      "city": "BARÃO DE SÃO JOÃO",
      "lon": "-8.776051132274768",
      "lat": "37.139529027970575"
    },
    {
      "id": "pt.ine.add.PTCONT.1797544",
      "street": "R 25 ABRIL",
      "house": "24",
      "postcode": "8600-013",
      "city": "BARÃO DE SÃO JOÃO",
      "lon": "-8.776247837767231",
      "lat": "37.13883415566883"
    },
    {
      "id": "pt.ine.add.PTCONT.1797545",
      "street": "R 25 DE ABRIL",
      "house": "24-26",
      "postcode": "8600-013",
      "city": "BARÃO DE SÃO JOÃO",
      "lon": "-8.776247837767231",
      "lat": "37.13883415566883"
    },
    {
      "id": "pt.ine.add.PTCONT.1802159",
      "street": "R CAP FRANCISCO SILVA RIJO",
      "house": "3",
      "postcode": "8600-013",
      "city": "BARÃO DE SÃO JOÃO",
      "lon": "-8.775894257190545",
      "lat": "37.139610972897145"
    },
    {
      "id": "pt.ine.add.PTCONT.1813580",
      "street": "R 25 DE ABRIL",
      "house": "32",
      "postcode": "8600-013",
      "city": "BARÃO DE SÃO JOÃO",
      "lon": "-8.776449193808517",
      "lat": "37.1386888956572"
    },
    {
      "id": "pt.ine.add.PTCONT.1818236",
      "street": "TV JOÃO DEUS",
      "house": "8",
      "postcode": "8600-013",
      "city": "BARÃO DE SÃO JOÃO",
      "lon": "-8.776665085173905",
      "lat": "37.138931006045034"
    },
    {
      "id": "pt.ine.add.PTCONT.1822200",
      "street": "R CAP FRANCISCO SILVA RIJO",
      "house": "11",
      "postcode": "8600-013",
      "city": "BARÃO DE SÃO JOÃO",
      "lon": "-8.776320626878816",
      "lat": "37.13945548221855"
    },
    {
      "id": "pt.ine.add.PTCONT.1845559",
      "street": "R COTOVELO",
      "house": "15",
      "postcode": "8600-013",
      "city": "BARÃO DE SÃO JOÃO",
      "lon": "-8.776162837057022",
      "lat": "37.13942930698819"
    },
    {
      "id": "pt.ine.add.PTCONT.1846423",
      "street": "R 25 DE ABRIL",
      "house": "8",
      "postcode": "8600-013",
      "city": "BARÃO DE SÃO JOÃO",
      "lon": "-8.77557722955996",
      "lat": "37.13938743026655"
    }
  ]
}