{
  "data": {
    "distrito": "Setúbal",
    "concelho": "Almada",
    "freguesia": "União das freguesias de Charneca de Caparica e Sobreda",
    "OBJECTID": 1097,
    "BGRI2021": "15031402303",
    "DT21": "15",
    "DTMN21": "1503",
    "DTMNFR21": "150314",
    "DTMNFRSEC21": "150314023",
    "SECNUM21": "023",
    "SSNUM21": "03",
    "SECSSNUM21": "02303",
    "OBJECTID_1": 161085,
    "DT": "15",
    "CC": "03",
    "fr": "14",
    "SEC": "023",
    "SS": "03"
  },
  "addresses": [
    {
      "id": "pt.ine.add.PTCONT.4713896",
      "street": "R BENVINDOS AS QUINTINHAS",
      "house": "2",
      "postcode": "2820-291",
      "city": "CHARNECA DA CAPARICA",
      "lon": "-9.18701798402702",
      "lat": "38.602640571704946"
    },
    {
      "id": "pt.ine.add.PTCONT.4799326",
      "street": "R BENVINDOS AS QUINTINHAS",
      "house": "",
      "postcode": "2820-291",
      "city": "CHARNECA DA CAPARICA",
      "lon": "-9.188337419692902",
      "lat": "38.6025926484439"
    },
    {
      "id": "pt.ine.add.PTCONT.4849419",
      "street": "R S JOÃO AS QUINTINHAS",
      "house": "",
      "postcode": "2820-354",
      "city": "CHARNECA DA CAPARICA",
      "lon": "-9.18758158956389",
      "lat": "38.602716566367064"
    },
    {
      "id": "pt.ine.add.PTCONT.4855605",
      "street": "R JOÃO ALBERNAZ",
      "house": "",
      "postcode": "2820-354",
      "city": "CHARNECA DA CAPARICA",
      "lon": "-9.189638916018634",
      "lat": "38.602887177197935"
    },
    {
      "id": "pt.ine.add.PTCONT.4951213",
      "street": "R JOÃO ALBERNAZ",
      "house": "",
      "postcode": "2820-354",
      "city": "CHARNECA DA CAPARICA",
      "lon": "-9.189729154846315",
      "lat": "38.60277826610346"
    },
    {
      "id": "pt.ine.add.PTCONT.4976795",
      "street": "R S JOÃO AS QUINTINHAS",
      "house": "",
      "postcode": "2820-354",
      "city": "CHARNECA DA CAPARICA",
      "lon": "-9.188167360848801",
      "lat": "38.602738310301895"
    },
    {
      "id": "pt.ine.add.PTCONT.5046185",
      "street": "R JOÃO ALBERNAZ",
      "house": "1",
      "postcode": "2820-354",
      "city": "CHARNECA DA CAPARICA",
      "lon": "-9.189398010578302",
      "lat": "38.602898360130816"
    },
    {
      "id": "pt.ine.add.PTCONT.5118047",
      "street": "R JOÃO ALBERNAZ",
      "house": "1",
      "postcode": "2820-354",
      "city": "CHARNECA DA CAPARICA",
      "lon": "-9.189546960161914",
      "lat": "38.60287899941572"
    },
    {
      "id": "pt.ine.add.PTCONT.5118048",
      "street": "R S JOÃO AS QUINTINHAS",
      "house": "3",
      "postcode": "2820-354",
      "city": "CHARNECA DA CAPARICA",
      "lon": "-9.186824307836659",
      "lat": "38.60274140420649"
    },
    {
      "id": "pt.ine.add.PTCONT.5130789",
      "street": "R BENVINDOS AS QUINTINHAS ACE",
      "house": "",
      "postcode": "2820-291",
      "city": "CHARNECA DA CAPARICA",
      "lon": "-9.189552627579474",
      "lat": "38.60248259518795"
    }
  ]
}