{
  "data": {
    "distrito": "Coimbra",
    "concelho": "Cantanhede",
    "freguesia": "Murtede",
    "OBJECTID": 919,
    "BGRI2021": "06020800125",
    "DT21": "06",
    "DTMN21": "0602",
    "DTMNFR21": "060208",
    "DTMNFRSEC21": "060208001",
    "SECNUM21": "001",
    "SSNUM21": "25",
    "SECSSNUM21": "00125",
    "OBJECTID_1": 48372,
    "DT": "06",
    "CC": "02",
    "fr": "08",
    "SEC": "001",
    "SS": "25"
  },
  "addresses": [
    {
      "id": "pt.ine.add.PTCONT.1102116",
      "street": "R S JORGE",
      "house": "37",
      "postcode": "3060-414",
      "city": "MURTEDE",
      "lon": "-8.513285998400486",
      "lat": "40.35737171154471"
    },
    {
      "id": "pt.ine.add.PTCONT.1128948",
      "street": "R S JORGE",
      "house": "7",
      "postcode": "3060-414",
      "city": "MURTEDE",
      "lon": "-8.51374416374782",
      "lat": "40.359297404596234"
    },
    {
      "id": "pt.ine.add.PTCONT.1164108",
      "street": "R VALONGO",
      "house": "16",
      "postcode": "3060-417",
      "city": "MURTEDE",
      "lon": "-8.511901614794821",
      "lat": "40.35821377541504"
    },
    {
      "id": "pt.ine.add.PTCONT.1171273",
      "street": "R CATRAIA",
      "house": "29",
      "postcode": "3060-406",
      "city": "MURTEDE",
      "lon": "-8.511214516338208",
      "lat": "40.359548853528814"
    },
    {
      "id": "pt.ine.add.PTCONT.1177363",
      "street": "R VALONGO",
      "house": "2",
      "postcode": "3060-417",
      "city": "MURTEDE",
      "lon": "-8.510943102997068",
      "lat": "40.35943266763511"
    },
    {
      "id": "pt.ine.add.PTCONT.1179838",
      "street": "R VALONGO",
      "house": "18",
      "postcode": "3060-417",
      "city": "MURTEDE",
      "lon": "-8.512135590965771",
      "lat": "40.35795184624665"
    },
    {
      "id": "pt.ine.add.PTCONT.1184232",
      "street": "R S JORGE",
      "house": "12",
      "postcode": "3060-414",
      "city": "MURTEDE",
      "lon": "-8.514226212024674",
      "lat": "40.35918774986912"
    },
    {
      "id": "pt.ine.add.PTCONT.1191573",
      "street": "R S JORGE",
      "house": "35",
      "postcode": "3060-414",
      "city": "MURTEDE",
      "lon": "-8.513251593429711",
      "lat": "40.35753392559007"
    },
    {
      "id": "pt.ine.add.PTCONT.1199417",
      "street": "R S JORGE",
      "house": "",
      "postcode": "3060-414",
      "city": "MURTEDE",
      "lon": "-8.513812972890864",
      "lat": "40.358972976300024"
    },
    {
      "id": "pt.ine.add.PTCONT.1201368",
      "street": "R VALONGO",
      "house": "12",
      "postcode": "3060-417",
      "city": "MURTEDE",
      "lon": "-8.511444673979025",
      "lat": "40.35860251217431"
    },
    {
      "id": "pt.ine.add.PTCONT.1214867",
      "street": "R S JORGE",
      "house": "",
      "postcode": "3060-414",
      "city": "MURTEDE",
      "lon": "-8.51380013713295",
      "lat": "40.358783900813194"
    },
    {
      "id": "pt.ine.add.PTCONT.1222940",
      "street": "R VALONGO",
      "house": "14",
      "postcode": "3060-417",
      "city": "MURTEDE",
      "lon": "-8.511561789728269",
      "lat": "40.358494061720556"
    },
    {
      "id": "pt.ine.add.PTCONT.1258761",
      "street": "R VALONGO",
      "house": "4",
      "postcode": "3060-417",
      "city": "MURTEDE",
      "lon": "-8.510494807430403",
      "lat": "40.35926302475876"
    },
    {
      "id": "pt.ine.add.PTCONT.1266831",
      "street": "R S JORGE",
      "house": "4",
      "postcode": "3060-414",
      "city": "MURTEDE",
      "lon": "-8.514183484189566",
      "lat": "40.35996237272152"
    },
    {
      "id": "pt.ine.add.PTCONT.1276688",
      "street": "R S JORGE",
      "house": "30",
      "postcode": "3060-414",
      "city": "MURTEDE",
      "lon": "-8.51323648370358",
      "lat": "40.35693960504589"
    },
    {
      "id": "pt.ine.add.PTCONT.1302101",
      "street": "R VALONGO",
      "house": "10",
      "postcode": "3060-417",
      "city": "MURTEDE",
      "lon": "-8.511339178900233",
      "lat": "40.358683907684195"
    },
    {
      "id": "pt.ine.add.PTCONT.1305184",
      "street": "R CATRAIA",
      "house": "37",
      "postcode": "3060-406",
      "city": "MURTEDE",
      "lon": "-8.513075326960267",
      "lat": "40.35968684489189"
    },
    {
      "id": "pt.ine.add.PTCONT.1315231",
      "street": "R S JORGE",
      "house": "6",
      "postcode": "3060-414",
      "city": "MURTEDE",
      "lon": "-8.514123456995803",
      "lat": "40.359755441574364"
    },
    {
      "id": "pt.ine.add.PTCONT.1323300",
      "street": "R VALONGO",
      "house": "8",
      "postcode": "3060-417",
      "city": "MURTEDE",
      "lon": "-8.511092821561942",
      "lat": "40.358837808395826"
    },
    {
      "id": "pt.ine.add.PTCONT.1352076",
      "street": "R VALONGO",
      "house": "24",
      "postcode": "3060-417",
      "city": "MURTEDE",
      "lon": "-8.51298993486406",
      "lat": "40.357057488022846"
    },
    {
      "id": "pt.ine.add.PTCONT.1355214",
      "street": "R CATRAIA",
      "house": "33",
      "postcode": "3060-406",
      "city": "MURTEDE",
      "lon": "-8.512239299914256",
      "lat": "40.35965356603793"
    }
  ]
}