{
  "data": {
    "distrito": "Aveiro",
    "concelho": "Estarreja",
    "freguesia": "Avanca",
    "OBJECTID": 382,
    "BGRI2021": "01080100415",
    "DT21": "01",
    "DTMN21": "0108",
    "DTMNFR21": "010801",
    "DTMNFRSEC21": "010801004",
    "SECNUM21": "004",
    "SSNUM21": "15",
    "SECSSNUM21": "00415",
    "OBJECTID_1": 5142,
    "DT": "01",
    "CC": "08",
    "fr": "01",
    "SEC": "004",
    "SS": "15"
  },
  "addresses": [
    {
      "id": "pt.ine.add.PTCONT.305760",
      "street": "R PADRE BOAVENTURA",
      "house": "43",
      "postcode": "3860-119",
      "city": "AVANCA",
      "lon": "-8.572242578531402",
      "lat": "40.79667345917266"
    },
    {
      "id": "pt.ine.add.PTCONT.316746",
      "street": "R PADRE BOAVENTURA",
      "house": "79",
      "postcode": "3860-119",
      "city": "AVANCA",
      "lon": "-8.571779219137744",
      "lat": "40.7946851350531"
    },
    {
      "id": "pt.ine.add.PTCONT.330299",
      "street": "R ANTÓNIO PEREIRA ALVEITAR",
      "house": "129",
      "postcode": "3860-103",
      "city": "AVANCA",
      "lon": "-8.572865724635845",
      "lat": "40.7941407043043"
    },
    {
      "id": "pt.ine.add.PTCONT.340907",
      "street": "R ALENS",
      "house": "",
      "postcode": "3860-140",
      "city": "AVANCA",
      "lon": "-8.576783420852168",
      "lat": "40.797061309818325"
    },
    {
      "id": "pt.ine.add.PTCONT.2338",
      "street": "R DA BOAVENTURA",
      "house": "",
      "postcode": "3860-119",
      "city": "AVANCA",
      "lon": "-8.571831829972732",
      "lat": "40.79547736778776"
    },
    {
      "id": "pt.ine.add.PTCONT.16232",
      "street": "R ARCA",
      "house": "78",
      "postcode": "3860-031",
      "city": "AVANCA",
      "lon": "-8.575900912792145",
      "lat": "40.79442625939081"
    },
    {
      "id": "pt.ine.add.PTCONT.43810",
      "street": "R ARCA",
      "house": "76",
      "postcode": "3860-031",
      "city": "AVANCA",
      "lon": "-8.576212686741048",
      "lat": "40.79498336745967"
    },
    {
      "id": "pt.ine.add.PTCONT.54317",
      "street": "R PADRE BOAVENTURA",
      "house": "35",
      "postcode": "3860-119",
      "city": "AVANCA",
      "lon": "-8.572364095040305",
      "lat": "40.79713224730369"
    },
    {
      "id": "pt.ine.add.PTCONT.57097",
      "street": "R ARCA",
      "house": "56",
      "postcode": "3860-031",
      "city": "AVANCA",
      "lon": "-8.576847559593258",
      "lat": "40.79601649310022"
    },
    {
      "id": "pt.ine.add.PTCONT.64696",
      "street": "R ARCA",
      "house": "60",
      "postcode": "3860-031",
      "city": "AVANCA",
      "lon": "-8.576738642355217",
      "lat": "40.795674725109116"
    },
    {
      "id": "pt.ine.add.PTCONT.67715",
      "street": "R PADRE BOAVENTURA",
      "house": "47",
      "postcode": "3860-119",
      "city": "AVANCA",
      "lon": "-8.572016736864573",
      "lat": "40.79656625945694"
    },
    {
      "id": "pt.ine.add.PTCONT.102642",
      "street": "R ARCA",
      "house": "57",
      "postcode": "3860-031",
      "city": "AVANCA",
      "lon": "-8.576932600286868",
      "lat": "40.796331338062515"
    },
    {
      "id": "pt.ine.add.PTCONT.123871",
      "street": "R SUBMOINHOS",
      "house": "49",
      "postcode": "3860-117",
      "city": "AVANCA",
      "lon": "-8.573943053483957",
      "lat": "40.797585476364794"
    },
    {
      "id": "pt.ine.add.PTCONT.132055",
      "street": "R PADRE BOAVENTURA",
      "house": "41",
      "postcode": "3860-119",
      "city": "AVANCA",
      "lon": "-8.572220126656914",
      "lat": "40.79686264783034"
    },
    {
      "id": "pt.ine.add.PTCONT.137113",
      "street": "R ARCA",
      "house": "70",
      "postcode": "3860-031",
      "city": "AVANCA",
      "lon": "-8.576355768756525",
      "lat": "40.79511789167723"
    },
    {
      "id": "pt.ine.add.PTCONT.148031",
      "street": "R ANTÓNIO PEREIRA ALVEITAR",
      "house": "75",
      "postcode": "3860-103",
      "city": "AVANCA",
      "lon": "-8.571623172947408",
      "lat": "40.79437956095062"
    },
    {
      "id": "pt.ine.add.PTCONT.159359",
      "street": "R ARCA",
      "house": "",
      "postcode": "3860-031",
      "city": "AVANCA",
      "lon": "-8.5768370897747",
      "lat": "40.79622364641111"
    },
    {
      "id": "pt.ine.add.PTCONT.166856",
      "street": "R SUBMOINHOS",
      "house": "55",
      "postcode": "3860-117",
      "city": "AVANCA",
      "lon": "-8.573906314891072",
      "lat": "40.797405518446666"
    },
    {
      "id": "pt.ine.add.PTCONT.170771",
      "street": "R PADRE BOAVENTURA",
      "house": "",
      "postcode": "3860-119",
      "city": "AVANCA",
      "lon": "-8.571837876584306",
      "lat": "40.796395846264126"
    },
    {
      "id": "pt.ine.add.PTCONT.171947",
      "street": "R ARCA",
      "house": "66",
      "postcode": "3860-031",
      "city": "AVANCA",
      "lon": "-8.576524705590206",
      "lat": "40.795576493348726"
    },
    {
      "id": "pt.ine.add.PTCONT.212160",
      "street": "R ANTÓNIO PEREIRA ALVEITAR",
      "house": "",
      "postcode": "3860-103",
      "city": "AVANCA",
      "lon": "-8.572890491176803",
      "lat": "40.79430269845354"
    },
    {
      "id": "pt.ine.add.PTCONT.220366",
      "street": "R PADRE BOAVENTURA",
      "house": "25",
      "postcode": "3860-119",
      "city": "AVANCA",
      "lon": "-8.572889790334127",
      "lat": "40.79778760360936"
    },
    {
      "id": "pt.ine.add.PTCONT.241783",
      "street": "R PADRE BOAVENTURA",
      "house": "51",
      "postcode": "3860-119",
      "city": "AVANCA",
      "lon": "-8.571623174354416",
      "lat": "40.796180544424985"
    },
    {
      "id": "pt.ine.add.PTCONT.274004",
      "street": "R PADRE BOAVENTURA",
      "house": "65",
      "postcode": "3860-119",
      "city": "AVANCA",
      "lon": "-8.571690830360932",
      "lat": "40.79565800213902"
    },
    {
      "id": "pt.ine.add.PTCONT.287644",
      "street": "R SUBMOINHOS",
      "house": "4 0",
      "postcode": "3860-117",
      "city": "AVANCA",
      "lon": "-8.573588056460713",
      "lat": "40.7976588713801"
    },
    {
      "id": "pt.ine.add.PTCONT.287645",
      "street": "R SUBMOINHOS",
      "house": "4 0",
      "postcode": "3860-117",
      "city": "AVANCA",
      "lon": "-8.573588056460713",
      "lat": "40.7976588713801"
    }
  ]
}