{
  "data": {
    "distrito": "Viseu",
    "concelho": "Resende",
    "freguesia": "União das freguesias de Freigil e Miomães",
    "OBJECTID": 83,
    "BGRI2021": "18131800103",
    "DT21": "18",
    "DTMN21": "1813",
    "DTMNFR21": "181318",
    "DTMNFRSEC21": "181318001",
    "SECNUM21": "001",
    "SSNUM21": "03",
    "SECSSNUM21": "00103",
    "OBJECTID_1": 195595,
    "DT": "18",
    "CC": "13",
    "fr": "18",
    "SEC": "001",
    "SS": "03"
  },
  "addresses": [
    {
      "id": "pt.ine.add.PTCONT.5435405",
      "street": "TV VINHAIS",
      "house": "58",
      "postcode": "4660-093",
      "city": "FREIGIL",
      "lon": "-8.01360088095883",
      "lat": "41.070903003715166"
    },
    {
      "id": "pt.ine.add.PTCONT.5453987",
      "street": "R BALAMEIRO",
      "house": "60",
      "postcode": "4660-093",
      "city": "FREIGIL",
      "lon": "-8.012507103243545",
      "lat": "41.07042462452338"
    },
    {
      "id": "pt.ine.add.PTCONT.5455786",
      "street": "R PALAMEIRO",
      "house": "187",
      "postcode": "4660-093",
      "city": "FREIGIL",
      "lon": "-8.011483502651624",
      "lat": "41.07061264369637"
    },
    {
      "id": "pt.ine.add.PTCONT.5457514",
      "street": "R PALAMEIRO",
      "house": "104",
      "postcode": "4660-093",
      "city": "FREIGIL",
      "lon": "-8.01206723016362",
      "lat": "41.0702260638308"
    },
    {
      "id": "pt.ine.add.PTCONT.5472917",
      "street": "R PONTE DA LAGARICA",
      "house": "210",
      "postcode": "4660-099",
      "city": "FREIGIL",
      "lon": "-8.009077756172443",
      "lat": "41.06549550856175"
    },
    {
      "id": "pt.ine.add.PTCONT.5482853",
      "street": "R PRESA",
      "house": "1218",
      "postcode": "4660-095",
      "city": "FREIGIL",
      "lon": "-8.00412184394253",
      "lat": "41.0688667657717"
    },
    {
      "id": "pt.ine.add.PTCONT.5484445",
      "street": "R PONTE LAGARICA",
      "house": "958",
      "postcode": "4660-093",
      "city": "FREIGIL",
      "lon": "-8.012912825488165",
      "lat": "41.06977672274795"
    },
    {
      "id": "pt.ine.add.PTCONT.5484446",
      "street": "R PALAMEIRO",
      "house": "138",
      "postcode": "4660-093",
      "city": "FREIGIL",
      "lon": "-8.011662408167835",
      "lat": "41.07037871479511"
    },
    {
      "id": "pt.ine.add.PTCONT.5487413",
      "street": "R PRESA",
      "house": "438",
      "postcode": "4660-095",
      "city": "FREIGIL",
      "lon": "-8.010375502638547",
      "lat": "41.07139486233125"
    },
    {
      "id": "pt.ine.add.PTCONT.5491893",
      "street": "R PALAMEIRO",
      "house": "90",
      "postcode": "4660-093",
      "city": "FREIGIL",
      "lon": "-8.012305063211071",
      "lat": "41.07029834958159"
    },
    {
      "id": "pt.ine.add.PTCONT.5493174",
      "street": "R LAGARICA",
      "house": "1054",
      "postcode": "4660-093",
      "city": "FREIGIL",
      "lon": "-8.013780300738421",
      "lat": "41.07038092734587"
    },
    {
      "id": "pt.ine.add.PTCONT.5500774",
      "street": "TV VINHAIS",
      "house": "59",
      "postcode": "4660-093",
      "city": "FREIGIL",
      "lon": "-8.013731893299456",
      "lat": "41.07083110333258"
    },
    {
      "id": "pt.ine.add.PTCONT.5508371",
      "street": "R FRAGUINHAS",
      "house": "187",
      "postcode": "4660-093",
      "city": "FREIGIL",
      "lon": "-8.01123217477721",
      "lat": "41.071404776072306"
    },
    {
      "id": "pt.ine.add.PTCONT.5512790",
      "street": "CAM FRAGUINHAS",
      "house": "11",
      "postcode": "4660-093",
      "city": "FREIGIL",
      "lon": "-8.00993668824728",
      "lat": "41.07062900979344"
    },
    {
      "id": "pt.ine.add.PTCONT.5523609",
      "street": "R FRAGUINHAS",
      "house": "229",
      "postcode": "4660-093",
      "city": "FREIGIL",
      "lon": "-8.013575649069503",
      "lat": "41.0716953754256"
    },
    {
      "id": "pt.ine.add.PTCONT.5525239",
      "street": "R PALAMEIRO",
      "house": "8",
      "postcode": "4660-093",
      "city": "FREIGIL",
      "lon": "-8.012959418235761",
      "lat": "41.07032604725711"
    },
    {
      "id": "pt.ine.add.PTCONT.5526807",
      "street": "CAM FRAGUINHAS",
      "house": "",
      "postcode": "4660-093",
      "city": "FREIGIL",
      "lon": "-8.009793218648868",
      "lat": "41.07099804175524"
    },
    {
      "id": "pt.ine.add.PTCONT.5539628",
      "street": "R BALAMEIRO",
      "house": "1012",
      "postcode": "4660-093",
      "city": "FREIGIL",
      "lon": "-8.012804921359466",
      "lat": "41.070226836318426"
    },
    {
      "id": "pt.ine.add.PTCONT.5549224",
      "street": "R FRAGUINHAS",
      "house": "187",
      "postcode": "4660-093",
      "city": "FREIGIL",
      "lon": "-8.013207007919494",
      "lat": "41.071577933678405"
    },
    {
      "id": "pt.ine.add.PTCONT.5561010",
      "street": "R VINHAIS",
      "house": "16",
      "postcode": "4660-093",
      "city": "FREIGIL",
      "lon": "-8.013922657239549",
      "lat": "41.07061519225742"
    },
    {
      "id": "pt.ine.add.PTCONT.5572335",
      "street": "PALAMEIRO",
      "house": "5",
      "postcode": "4660-099",
      "city": "FREIGIL",
      "lon": "-8.010748728576637",
      "lat": "41.0690360742247"
    },
    {
      "id": "pt.ine.add.PTCONT.5576304",
      "street": "R PALAMEIRO",
      "house": "221",
      "postcode": "4660-093",
      "city": "FREIGIL",
      "lon": "-8.010829629228652",
      "lat": "41.070323806997344"
    },
    {
      "id": "pt.ine.add.PTCONT.5581401",
      "street": "TV VINHAIS",
      "house": "12",
      "postcode": "4660-093",
      "city": "FREIGIL",
      "lon": "-8.013744459351754",
      "lat": "41.070461930931124"
    },
    {
      "id": "pt.ine.add.PTCONT.5590707",
      "street": "R VINHAIS",
      "house": "136",
      "postcode": "4660-093",
      "city": "FREIGIL",
      "lon": "-8.0136352394262",
      "lat": "41.07164141009778"
    },
    {
      "id": "pt.ine.add.PTCONT.5594394",
      "street": "R FRAGUINHAS",
      "house": "153",
      "postcode": "4660-093",
      "city": "FREIGIL",
      "lon": "-8.012671888128468",
      "lat": "41.07140628975185"
    },
    {
      "id": "pt.ine.add.PTCONT.5594395",
      "street": "R FRAGUINHAS",
      "house": "153",
      "postcode": "4660-093",
      "city": "FREIGIL",
      "lon": "-8.012671888128468",
      "lat": "41.07140628975185"
    },
    {
      "id": "pt.ine.add.PTCONT.5624247",
      "street": "R PALAMEIRO",
      "house": "154",
      "postcode": "4660-093",
      "city": "FREIGIL",
      "lon": "-8.01155524079932",
      "lat": "41.07042362441672"
    },
    {
      "id": "pt.ine.add.PTCONT.5631725",
      "street": "R PALAMEIRO",
      "house": "106",
      "postcode": "4660-093",
      "city": "FREIGIL",
      "lon": "-8.011876593608669",
      "lat": "41.07036993579991"
    },
    {
      "id": "pt.ine.add.PTCONT.5647947",
      "street": "R PRESA",
      "house": "540",
      "postcode": "4660-093",
      "city": "FREIGIL",
      "lon": "-8.009364285955453",
      "lat": "41.071312740201755"
    },
    {
      "id": "pt.ine.add.PTCONT.5649058",
      "street": "R BALAMEIRO",
      "house": "38",
      "postcode": "4660-093",
      "city": "FREIGIL",
      "lon": "-8.012661863059394",
      "lat": "41.07037976377031"
    },
    {
      "id": "pt.ine.add.PTCONT.5653518",
      "street": "R FRAGUINHAS",
      "house": "115",
      "postcode": "4660-093",
      "city": "FREIGIL",
      "lon": "-8.01218419984786",
      "lat": "41.071324738331995"
    },
    {
      "id": "pt.ine.add.PTCONT.5653520",
      "street": "REPESES",
      "house": "5",
      "postcode": "4660-099",
      "city": "FREIGIL",
      "lon": "-8.007888871177407",
      "lat": "41.0650439963185"
    },
    {
      "id": "pt.ine.add.PTCONT.5656754",
      "street": "REGENGO",
      "house": "5",
      "postcode": "4660-093",
      "city": "FREIGIL",
      "lon": "-8.007551105036272",
      "lat": "41.06748385615851"
    },
    {
      "id": "pt.ine.add.PTCONT.5666860",
      "street": "R PRESA",
      "house": "1048",
      "postcode": "4660-095",
      "city": "FREIGIL",
      "lon": "-8.005239749730057",
      "lat": "41.069129142847125"
    },
    {
      "id": "pt.ine.add.PTCONT.5669037",
      "street": "R FRAGUINHAS",
      "house": "211",
      "postcode": "4660-093",
      "city": "FREIGIL",
      "lon": "-8.013456761916384",
      "lat": "41.07164122491942"
    }
  ]
}