{
  "data": {
    "distrito": "Viseu",
    "concelho": "Resende",
    "freguesia": "União das freguesias de Freigil e Miomães",
    "OBJECTID": 118,
    "BGRI2021": "18131800108",
    "DT21": "18",
    "DTMN21": "1813",
    "DTMNFR21": "181318",
    "DTMNFRSEC21": "181318001",
    "SECNUM21": "001",
    "SSNUM21": "08",
    "SECSSNUM21": "00108",
    "OBJECTID_1": 195532,
    "DT": "18",
    "CC": "13",
    "fr": "18",
    "SEC": "001",
    "SS": "08"
  },
  "addresses": [
    {
      "id": "pt.ine.add.PTCONT.5431727",
      "street": "R CALVÁRIO",
      "house": "580",
      "postcode": "4660-092",
      "city": "FREIGIL",
      "lon": "-8.012631175362111",
      "lat": "41.080671891993"
    },
    {
      "id": "pt.ine.add.PTCONT.5433627",
      "street": "R CALVÁRIO",
      "house": "612",
      "postcode": "4660-092",
      "city": "FREIGIL",
      "lon": "-8.01213130391695",
      "lat": "41.08070738630572"
    },
    {
      "id": "pt.ine.add.PTCONT.5438473",
      "street": "R SUCRES",
      "house": "15",
      "postcode": "4660-095",
      "city": "FREIGIL",
      "lon": "-8.013824313999967",
      "lat": "41.07894426773122"
    },
    {
      "id": "pt.ine.add.PTCONT.5442778",
      "street": "CAM ESCOLA VELHA",
      "house": "132",
      "postcode": "4660-099",
      "city": "FREIGIL",
      "lon": "-8.011543381449943",
      "lat": "41.07686184199129"
    },
    {
      "id": "pt.ine.add.PTCONT.5444692",
      "street": "R SUCRES",
      "house": "97",
      "postcode": "4660-095",
      "city": "FREIGIL",
      "lon": "-8.013383988073228",
      "lat": "41.07896182009874"
    },
    {
      "id": "pt.ine.add.PTCONT.5446447",
      "street": "R NOGUEIRO",
      "house": "1441",
      "postcode": "4660-092",
      "city": "FREIGIL",
      "lon": "-8.011488182072663",
      "lat": "41.080985849014986"
    },
    {
      "id": "pt.ine.add.PTCONT.5453963",
      "street": "R CALVÁRIO",
      "house": "40",
      "postcode": "4660-095",
      "city": "FREIGIL",
      "lon": "-8.013814514336753",
      "lat": "41.07778267575698"
    },
    {
      "id": "pt.ine.add.PTCONT.5459246",
      "street": "R NOGUEIRO",
      "house": "1345",
      "postcode": "4660-092",
      "city": "FREIGIL",
      "lon": "-8.011393080266593",
      "lat": "41.080931721563935"
    },
    {
      "id": "pt.ine.add.PTCONT.5470157",
      "street": "CC FREIGIL",
      "house": "42",
      "postcode": "4660-096",
      "city": "FREIGIL",
      "lon": "-8.014493229066389",
      "lat": "41.077540254584896"
    },
    {
      "id": "pt.ine.add.PTCONT.5477340",
      "street": "R NOGUEIRO",
      "house": "1415",
      "postcode": "4660-092",
      "city": "FREIGIL",
      "lon": "-8.011273579663357",
      "lat": "41.08120173045526"
    },
    {
      "id": "pt.ine.add.PTCONT.5479156",
      "street": "R CABEÇO DO LOBO",
      "house": "10",
      "postcode": "4660-097",
      "city": "FREIGIL",
      "lon": "-8.013071260248944",
      "lat": "41.074252134441956"
    },
    {
      "id": "pt.ine.add.PTCONT.5487412",
      "street": "R NOGUEIRO",
      "house": "1345",
      "postcode": "4660-092",
      "city": "FREIGIL",
      "lon": "-8.010916489568991",
      "lat": "41.08124637487486"
    },
    {
      "id": "pt.ine.add.PTCONT.5487415",
      "street": "R SUCRES",
      "house": "190",
      "postcode": "4660-095",
      "city": "FREIGIL",
      "lon": "-8.01233787520921",
      "lat": "41.078375435318904"
    },
    {
      "id": "pt.ine.add.PTCONT.5489962",
      "street": "CC FREIGIL",
      "house": "60",
      "postcode": "4660-096",
      "city": "FREIGIL",
      "lon": "-8.014481167614749",
      "lat": "41.07763028728434"
    },
    {
      "id": "pt.ine.add.PTCONT.5495048",
      "street": "CAM EIDO",
      "house": "",
      "postcode": "4660-092",
      "city": "FREIGIL",
      "lon": "-8.011583798202917",
      "lat": "41.080760837236426"
    },
    {
      "id": "pt.ine.add.PTCONT.5500735",
      "street": "R NOGUEIRO",
      "house": "1433",
      "postcode": "4660-092",
      "city": "FREIGIL",
      "lon": "-8.011488713241",
      "lat": "41.080697705373495"
    },
    {
      "id": "pt.ine.add.PTCONT.5511299",
      "street": "LUGAR DE CAMPINHO",
      "house": "",
      "postcode": "4660-095",
      "city": "FREIGIL",
      "lon": "-8.013292206959227",
      "lat": "41.077079781941485"
    },
    {
      "id": "pt.ine.add.PTCONT.5554069",
      "street": "R CALVÁRIO",
      "house": "616",
      "postcode": "4660-092",
      "city": "FREIGIL",
      "lon": "-8.011928952007915",
      "lat": "41.080734187205266"
    },
    {
      "id": "pt.ine.add.PTCONT.5557852",
      "street": "CC FREIGIL",
      "house": "40",
      "postcode": "4660-096",
      "city": "FREIGIL",
      "lon": "-8.0145171576659",
      "lat": "41.07746824311992"
    },
    {
      "id": "pt.ine.add.PTCONT.5562094",
      "street": "CC FREIGIL",
      "house": "30",
      "postcode": "4660-096",
      "city": "FREIGIL",
      "lon": "-8.014505387596692",
      "lat": "41.077396194911834"
    },
    {
      "id": "pt.ine.add.PTCONT.5566648",
      "street": "CAM EIDO",
      "house": "1441",
      "postcode": "4660-092",
      "city": "FREIGIL",
      "lon": "-8.011559832021936",
      "lat": "41.080850857022526"
    },
    {
      "id": "pt.ine.add.PTCONT.5572332",
      "street": "R NOGUEIRO",
      "house": "1399",
      "postcode": "4660-092",
      "city": "FREIGIL",
      "lon": "-8.011154161304558",
      "lat": "41.081426716769975"
    },
    {
      "id": "pt.ine.add.PTCONT.5583211",
      "street": "R CABEÇO DO LOBO",
      "house": "54",
      "postcode": "4660-097",
      "city": "FREIGIL",
      "lon": "-8.01317810552041",
      "lat": "41.07438731343992"
    },
    {
      "id": "pt.ine.add.PTCONT.5601691",
      "street": "R NOGUEIRO",
      "house": "1399",
      "postcode": "4660-092",
      "city": "FREIGIL",
      "lon": "-8.011106676807799",
      "lat": "41.08136363496698"
    },
    {
      "id": "pt.ine.add.PTCONT.5610811",
      "street": "R PAVILHAO",
      "house": "",
      "postcode": "4660-095",
      "city": "FREIGIL",
      "lon": "-8.012650719901748",
      "lat": "41.076484815314366"
    },
    {
      "id": "pt.ine.add.PTCONT.5626033",
      "street": "R NOGUEIRO",
      "house": "1429",
      "postcode": "4660-092",
      "city": "FREIGIL",
      "lon": "-8.01111889340542",
      "lat": "41.08119256229409"
    },
    {
      "id": "pt.ine.add.PTCONT.5641567",
      "street": "R CABEÇO DO LOBO",
      "house": "212",
      "postcode": "4660-095",
      "city": "FREIGIL",
      "lon": "-8.013472119538378",
      "lat": "41.076296576245625"
    },
    {
      "id": "pt.ine.add.PTCONT.5644947",
      "street": "R PAVILHAO",
      "house": "100",
      "postcode": "4660-095",
      "city": "FREIGIL",
      "lon": "-8.012877562716023",
      "lat": "41.07607084459591"
    },
    {
      "id": "pt.ine.add.PTCONT.5647946",
      "street": "R NOGUEIRO",
      "house": "1431",
      "postcode": "4660-092",
      "city": "FREIGIL",
      "lon": "-8.01109529279574",
      "lat": "41.0810844832368"
    },
    {
      "id": "pt.ine.add.PTCONT.5652328",
      "street": "R CALVÁRIO",
      "house": "662",
      "postcode": "4660-092",
      "city": "FREIGIL",
      "lon": "-8.011595432997074",
      "lat": "41.080904921607456"
    }
  ]
}