{
  "data": {
    "distrito": "Viseu",
    "concelho": "Resende",
    "freguesia": "União das freguesias de Freigil e Miomães",
    "OBJECTID": 93,
    "BGRI2021": "18131800112",
    "DT21": "18",
    "DTMN21": "1813",
    "DTMNFR21": "181318",
    "DTMNFRSEC21": "181318001",
    "SECNUM21": "001",
    "SSNUM21": "12",
    "SECSSNUM21": "00112",
    "OBJECTID_1": 195376,
    "DT": "18",
    "CC": "13",
    "fr": "18",
    "SEC": "001",
    "SS": "12"
  },
  "addresses": [
    {
      "id": "pt.ine.add.PTCONT.5444862",
      "street": "TV MURO",
      "house": "26",
      "postcode": "4660-091",
      "city": "FREIGIL",
      "lon": "-8.021024437650667",
      "lat": "41.085524784422624"
    },
    {
      "id": "pt.ine.add.PTCONT.5447540",
      "street": "TV CASALINHO",
      "house": "255",
      "postcode": "4660-094",
      "city": "FREIGIL",
      "lon": "-8.016968239535045",
      "lat": "41.08435918700416"
    },
    {
      "id": "pt.ine.add.PTCONT.5447541",
      "street": "TV CASALINHO",
      "house": "255",
      "postcode": "4660-094",
      "city": "FREIGIL",
      "lon": "-8.016968239535045",
      "lat": "41.08435918700416"
    },
    {
      "id": "pt.ine.add.PTCONT.5487411",
      "street": "R CASALINHO",
      "house": "219",
      "postcode": "4660-091",
      "city": "FREIGIL",
      "lon": "-8.01626629993387",
      "lat": "41.08424141886189"
    },
    {
      "id": "pt.ine.add.PTCONT.5492054",
      "street": "TV CASALINHO",
      "house": "",
      "postcode": "4660-094",
      "city": "FREIGIL",
      "lon": "-8.016862988844844",
      "lat": "41.083305554154144"
    },
    {
      "id": "pt.ine.add.PTCONT.5496394",
      "street": "R CASALINHO",
      "house": "209",
      "postcode": "4660-094",
      "city": "FREIGIL",
      "lon": "-8.01656388292401",
      "lat": "41.084205702221226"
    },
    {
      "id": "pt.ine.add.PTCONT.5496395",
      "street": "TV CASALINHO",
      "house": "44",
      "postcode": "4660-094",
      "city": "FREIGIL",
      "lon": "-8.016625787590817",
      "lat": "41.08284608496231"
    },
    {
      "id": "pt.ine.add.PTCONT.5552042",
      "street": "R CASALINHO",
      "house": "315",
      "postcode": "4660-091",
      "city": "FREIGIL",
      "lon": "-8.01575326911331",
      "lat": "41.08497026205704"
    },
    {
      "id": "pt.ine.add.PTCONT.5566844",
      "street": "R CASALINHO",
      "house": "133",
      "postcode": "4660-094",
      "city": "FREIGIL",
      "lon": "-8.016315369694217",
      "lat": "41.08341305443736"
    },
    {
      "id": "pt.ine.add.PTCONT.5583379",
      "street": "R REDONDO",
      "house": "40",
      "postcode": "4660-091",
      "city": "FREIGIL",
      "lon": "-8.020524626069344",
      "lat": "41.08550628816766"
    },
    {
      "id": "pt.ine.add.PTCONT.5587117",
      "street": "CAM MARTIR",
      "house": "215",
      "postcode": "4660-094",
      "city": "FREIGIL",
      "lon": "-8.017410306166154",
      "lat": "41.083369136515145"
    },
    {
      "id": "pt.ine.add.PTCONT.5590855",
      "street": "TV CASALINHO",
      "house": "23",
      "postcode": "4660-094",
      "city": "FREIGIL",
      "lon": "-8.016780653163988",
      "lat": "41.08275619637266"
    },
    {
      "id": "pt.ine.add.PTCONT.5611022",
      "street": "TV CASALINHO",
      "house": "",
      "postcode": "4660-094",
      "city": "FREIGIL",
      "lon": "-8.016887361141269",
      "lat": "41.082981416632414"
    },
    {
      "id": "pt.ine.add.PTCONT.5645116",
      "street": "TV MURO",
      "house": "9",
      "postcode": "4660-091",
      "city": "FREIGIL",
      "lon": "-8.020786264172179",
      "lat": "41.08561459749571"
    },
    {
      "id": "pt.ine.add.PTCONT.5647945",
      "street": "R REDONDO",
      "house": "112",
      "postcode": "4660-091",
      "city": "FREIGIL",
      "lon": "-8.019419648425426",
      "lat": "41.084451676730964"
    },
    {
      "id": "pt.ine.add.PTCONT.5650381",
      "street": "CAM TULHA",
      "house": "38",
      "postcode": "4660-091",
      "city": "FREIGIL",
      "lon": "-8.017182770334932",
      "lat": "41.08417931300749"
    },
    {
      "id": "pt.ine.add.PTCONT.5661805",
      "street": "TV CASALINHO",
      "house": "23",
      "postcode": "4660-094",
      "city": "FREIGIL",
      "lon": "-8.016614300481308",
      "lat": "41.082611956256414"
    },
    {
      "id": "pt.ine.add.PTCONT.5662603",
      "street": "CAM TULHA CASAL DO CASALINHO",
      "house": "49",
      "postcode": "4660-091",
      "city": "FREIGIL",
      "lon": "-8.017504343425403",
      "lat": "41.084035564052044"
    }
  ]
}