{
  "data": {
    "distrito": "Faro",
    "concelho": "Loul√©",
    "freguesia": "Boliqueime",
    "OBJECTID": 1724,
    "BGRI2021": "08080400404",
    "DT21": "08",
    "DTMN21": "0808",
    "DTMNFR21": "080804",
    "DTMNFRSEC21": "080804004",
    "SECNUM21": "004",
    "SSNUM21": "04",
    "SECSSNUM21": "00404",
    "OBJECTID_1": 69285,
    "DT": "08",
    "CC": "08",
    "fr": "04",
    "SEC": "004",
    "SS": "04"
  },
  "addresses": [
    {
      "id": "pt.ine.add.PTCONT.1470281",
      "street": "",
      "house": "",
      "postcode": "8100-092",
      "city": "BOLIQUEIME",
      "lon": "-8.148989968847985",
      "lat": "37.142956654733204"
    },
    {
      "id": "pt.ine.add.PTCONT.1484040",
      "street": "SIT RIBEIRO",
      "house": "392 R",
      "postcode": "8100-092",
      "city": "BOLIQUEIME",
      "lon": "-8.14803341203256",
      "lat": "37.14381278656573"
    },
    {
      "id": "pt.ine.add.PTCONT.1520053",
      "street": "CM 1181",
      "house": "C",
      "postcode": "8100-092",
      "city": "BOLIQUEIME",
      "lon": "-8.14786453779765",
      "lat": "37.14361457439809"
    },
    {
      "id": "pt.ine.add.PTCONT.1523352",
      "street": "",
      "house": "",
      "postcode": "8100-092",
      "city": "BOLIQUEIME",
      "lon": "-8.149777850133965",
      "lat": "37.14291149351943"
    },
    {
      "id": "pt.ine.add.PTCONT.1540299",
      "street": "",
      "house": "",
      "postcode": "8100-092",
      "city": "BOLIQUEIME",
      "lon": "-8.149496485867568",
      "lat": "37.14302867063448"
    },
    {
      "id": "pt.ine.add.PTCONT.1631674",
      "street": "R DO RIBEIRO",
      "house": "CP 400-092",
      "postcode": "8100-092",
      "city": "BOLIQUEIME",
      "lon": "-8.148588815007413",
      "lat": "37.14339771118279"
    },
    {
      "id": "pt.ine.add.PTCONT.1636705",
      "street": "",
      "house": "",
      "postcode": "8100-092",
      "city": "BOLIQUEIME",
      "lon": "-8.149687807448762",
      "lat": "37.14292051675434"
    },
    {
      "id": "pt.ine.add.PTCONT.1659200",
      "street": "",
      "house": "",
      "postcode": "8100-092",
      "city": "BOLIQUEIME",
      "lon": "-8.149609081001204",
      "lat": "37.14320886713272"
    },
    {
      "id": "pt.ine.add.PTCONT.1718990",
      "street": "MTE CABECA AGUIA",
      "house": "",
      "postcode": "8100-092",
      "city": "BOLIQUEIME",
      "lon": "-8.149248927787145",
      "lat": "37.14333506520191"
    },
    {
      "id": "pt.ine.add.PTCONT.1749203",
      "street": "",
      "house": "",
      "postcode": "8100-092",
      "city": "BOLIQUEIME",
      "lon": "-8.14761676815059",
      "lat": "37.14285771409786"
    },
    {
      "id": "pt.ine.add.PTCONT.1775704",
      "street": "SIT RIBEIRO CHAMINE BICO BOLIQUEIME",
      "house": "",
      "postcode": "8100-092",
      "city": "BOLIQUEIME",
      "lon": "-8.149552752158359",
      "lat": "37.142974599205125"
    },
    {
      "id": "pt.ine.add.PTCONT.1790443",
      "street": "",
      "house": "",
      "postcode": "8100-092",
      "city": "BOLIQUEIME",
      "lon": "-8.149586507203416",
      "lat": "37.14292053088012"
    }
  ]
}