{
  "data": {
    "distrito": "Braga",
    "concelho": "Guimarães",
    "freguesia": "União das freguesias de Airão Santa Maria, Airão São João e Vermil",
    "OBJECTID": 703,
    "BGRI2021": "03087600132",
    "DT21": "03",
    "DTMN21": "0308",
    "DTMNFR21": "030876",
    "DTMNFRSEC21": "030876001",
    "SECNUM21": "001",
    "SSNUM21": "32",
    "SECSSNUM21": "00132",
    "OBJECTID_1": 26357,
    "DT": "03",
    "CC": "08",
    "fr": "76",
    "SEC": "001",
    "SS": "32"
  },
  "addresses": [
    {
      "id": "pt.ine.add.PTCONT.466160",
      "street": "TV GILA",
      "house": "20",
      "postcode": "4805-475",
      "city": "SANTA MARIA AIRÃO",
      "lon": "-8.402282134053484",
      "lat": "41.456571006448584"
    },
    {
      "id": "pt.ine.add.PTCONT.523374",
      "street": "R GILA",
      "house": "860",
      "postcode": "4805-477",
      "city": "SANTA MARIA AIRÃO",
      "lon": "-8.402438059422275",
      "lat": "41.45665167665886"
    },
    {
      "id": "pt.ine.add.PTCONT.533675",
      "street": "R LANHAS",
      "house": "500",
      "postcode": "4805-477",
      "city": "SANTA MARIA AIRÃO",
      "lon": "-8.404339213786843",
      "lat": "41.45333377126477"
    },
    {
      "id": "pt.ine.add.PTCONT.550555",
      "street": "R FERREIROS",
      "house": "56",
      "postcode": "4805-477",
      "city": "SANTA MARIA AIRÃO",
      "lon": "-8.406389639091913",
      "lat": "41.45141108512153"
    },
    {
      "id": "pt.ine.add.PTCONT.609240",
      "street": "R LANHAS",
      "house": "567",
      "postcode": "4805-477",
      "city": "SANTA MARIA AIRÃO",
      "lon": "-8.40381393742238",
      "lat": "41.45365014543577"
    },
    {
      "id": "pt.ine.add.PTCONT.613936",
      "street": "R FERREIROS",
      "house": "86",
      "postcode": "4805-477",
      "city": "SANTA MARIA AIRÃO",
      "lon": "-8.406569945943616",
      "lat": "41.451599738861155"
    },
    {
      "id": "pt.ine.add.PTCONT.622584",
      "street": "R LANHAS",
      "house": "597",
      "postcode": "4805-477",
      "city": "SANTA MARIA AIRÃO",
      "lon": "-8.403885408033917",
      "lat": "41.453568942027474"
    },
    {
      "id": "pt.ine.add.PTCONT.636083",
      "street": "R LANHAS",
      "house": "",
      "postcode": "4805-477",
      "city": "SANTA MARIA AIRÃO",
      "lon": "-8.405045431222002",
      "lat": "41.453359115762346"
    },
    {
      "id": "pt.ine.add.PTCONT.651914",
      "street": "R VARZIELA",
      "house": "539",
      "postcode": "4805-475",
      "city": "SANTA MARIA AIRÃO",
      "lon": "-8.402122691482106",
      "lat": "41.449845456907724"
    },
    {
      "id": "pt.ine.add.PTCONT.658612",
      "street": "R LANHAS",
      "house": "420",
      "postcode": "4805-477",
      "city": "SANTA MARIA AIRÃO",
      "lon": "-8.404602844926188",
      "lat": "41.45341418459809"
    },
    {
      "id": "pt.ine.add.PTCONT.681290",
      "street": "R LANHAS CASA DE SAMPAIO",
      "house": "381",
      "postcode": "4805-477",
      "city": "SANTA MARIA AIRÃO",
      "lon": "-8.405119420119538",
      "lat": "41.45388116769973"
    },
    {
      "id": "pt.ine.add.PTCONT.687468",
      "street": "R FERREIROS",
      "house": "240",
      "postcode": "4805-477",
      "city": "SANTA MARIA AIRÃO",
      "lon": "-8.406548544069134",
      "lat": "41.452203051968944"
    },
    {
      "id": "pt.ine.add.PTCONT.687475",
      "street": "R FERREIROS",
      "house": "242",
      "postcode": "4805-477",
      "city": "SANTA MARIA AIRÃO",
      "lon": "-8.406548544069134",
      "lat": "41.452203051968944"
    },
    {
      "id": "pt.ine.add.PTCONT.690371",
      "street": "R LANHAS",
      "house": "615",
      "postcode": "4805-477",
      "city": "SANTA MARIA AIRÃO",
      "lon": "-8.403837087114582",
      "lat": "41.45346100881428"
    },
    {
      "id": "pt.ine.add.PTCONT.708230",
      "street": "R LANHAS QTA DE NOGUEIRA",
      "house": "567",
      "postcode": "4805-477",
      "city": "SANTA MARIA AIRÃO",
      "lon": "-8.403754733988189",
      "lat": "41.45380335122926"
    },
    {
      "id": "pt.ine.add.PTCONT.747820",
      "street": "TV GILA",
      "house": "116",
      "postcode": "4805-475",
      "city": "SANTA MARIA AIRÃO",
      "lon": "-8.40170697871837",
      "lat": "41.45641028047548"
    },
    {
      "id": "pt.ine.add.PTCONT.777174",
      "street": "R LANHAS",
      "house": "387",
      "postcode": "4805-477",
      "city": "SANTA MARIA AIRÃO",
      "lon": "-8.403429244018685",
      "lat": "41.453236870096056"
    },
    {
      "id": "pt.ine.add.PTCONT.819509",
      "street": "R AGRELO",
      "house": "320",
      "postcode": "4805-475",
      "city": "SANTA MARIA AIRÃO",
      "lon": "-8.401438403553694",
      "lat": "41.45513235226369"
    },
    {
      "id": "pt.ine.add.PTCONT.841048",
      "street": "R FERREIROS",
      "house": "488",
      "postcode": "4805-477",
      "city": "SANTA MARIA AIRÃO",
      "lon": "-8.40619385665745",
      "lat": "41.453239344448654"
    },
    {
      "id": "pt.ine.add.PTCONT.842474",
      "street": "TV GILA",
      "house": "46",
      "postcode": "4805-475",
      "city": "SANTA MARIA AIRÃO",
      "lon": "-8.402078744412666",
      "lat": "41.456589489990286"
    },
    {
      "id": "pt.ine.add.PTCONT.842837",
      "street": "R AGRELO",
      "house": "320",
      "postcode": "4805-475",
      "city": "SANTA MARIA AIRÃO",
      "lon": "-8.401438403553694",
      "lat": "41.45513235226369"
    },
    {
      "id": "pt.ine.add.PTCONT.847096",
      "street": "R LOUSOS",
      "house": "1316",
      "postcode": "4805-477",
      "city": "SANTA MARIA AIRÃO",
      "lon": "-8.406147117417392",
      "lat": "41.45065533209458"
    },
    {
      "id": "pt.ine.add.PTCONT.847371",
      "street": "R LANHAS",
      "house": "",
      "postcode": "4805-477",
      "city": "SANTA MARIA AIRÃO",
      "lon": "-8.403645488491655",
      "lat": "41.45343444782111"
    }
  ]
}