{
  "data": {
    "distrito": "Leiria",
    "concelho": "Bombarral",
    "freguesia": "Roliça",
    "OBJECTID": 51,
    "BGRI2021": "10050300226",
    "DT21": "10",
    "DTMN21": "1005",
    "DTMNFR21": "100503",
    "DTMNFRSEC21": "100503002",
    "SECNUM21": "002",
    "SSNUM21": "26",
    "SECSSNUM21": "00226",
    "OBJECTID_1": 87209,
    "DT": "10",
    "CC": "05",
    "fr": "03",
    "SEC": "002",
    "SS": "26"
  },
  "addresses": [
    {
      "id": "pt.ine.add.PTCONT.1995620",
      "street": "R ALEGRIA",
      "house": "12",
      "postcode": "2540-762",
      "city": "ROLIÇA",
      "lon": "-9.153851684529535",
      "lat": "39.29891905508713"
    },
    {
      "id": "pt.ine.add.PTCONT.2000104",
      "street": "LG COLECTIVIDADE",
      "house": "2A",
      "postcode": "2540-624",
      "city": "ROLIÇA",
      "lon": "-9.143514749787268",
      "lat": "39.30561136474754"
    },
    {
      "id": "pt.ine.add.PTCONT.2029988",
      "street": "R CASAL DOS VALINHOS",
      "house": "10",
      "postcode": "2540-632",
      "city": "ROLIÇA",
      "lon": "-9.153428965738557",
      "lat": "39.29934608989225"
    },
    {
      "id": "pt.ine.add.PTCONT.2050304",
      "street": "R ESCOLA",
      "house": "44",
      "postcode": "2540-632",
      "city": "ROLIÇA",
      "lon": "-9.1535117095768",
      "lat": "39.29785920897942"
    },
    {
      "id": "pt.ine.add.PTCONT.2072079",
      "street": "R CASAL VALINHOS",
      "house": "6",
      "postcode": "2540-686",
      "city": "ROLIÇA",
      "lon": "-9.153045417489745",
      "lat": "39.29927739481616"
    },
    {
      "id": "pt.ine.add.PTCONT.2086001",
      "street": "R REPUBLICA",
      "house": "34",
      "postcode": "2540-646",
      "city": "ROLIÇA",
      "lon": "-9.153167209494605",
      "lat": "39.299681642851645"
    },
    {
      "id": "pt.ine.add.PTCONT.2087497",
      "street": "R SAUDADE",
      "house": "5A",
      "postcode": "2540-647",
      "city": "ROLIÇA",
      "lon": "-9.153727535916081",
      "lat": "39.29835270231156"
    },
    {
      "id": "pt.ine.add.PTCONT.2091958",
      "street": "R SAUDADE",
      "house": "13",
      "postcode": "2540-647",
      "city": "ROLIÇA",
      "lon": "-9.153608489259332",
      "lat": "39.298137577814586"
    },
    {
      "id": "pt.ine.add.PTCONT.2091959",
      "street": "R ESCOLA",
      "house": "34",
      "postcode": "2540-632",
      "city": "ROLIÇA",
      "lon": "-9.153912807400816",
      "lat": "39.29754044746093"
    },
    {
      "id": "pt.ine.add.PTCONT.2094476",
      "street": "R REPUBLICA",
      "house": "36",
      "postcode": "2540-646",
      "city": "ROLIÇA",
      "lon": "-9.153227779225256",
      "lat": "39.299861252162195"
    },
    {
      "id": "pt.ine.add.PTCONT.2094477",
      "street": "R ESCOLA",
      "house": "30",
      "postcode": "2540-632",
      "city": "ROLIÇA",
      "lon": "-9.15422510176374",
      "lat": "39.29749267366867"
    },
    {
      "id": "pt.ine.add.PTCONT.2113974",
      "street": "R ESCOLA",
      "house": "43",
      "postcode": "2540-632",
      "city": "ROLIÇA",
      "lon": "-9.153142635658908",
      "lat": "39.29798854142135"
    },
    {
      "id": "pt.ine.add.PTCONT.2133501",
      "street": "R REPUBLICA",
      "house": "32",
      "postcode": "2540-646",
      "city": "ROLIÇA",
      "lon": "-9.153640088276017",
      "lat": "39.29951537238516"
    },
    {
      "id": "pt.ine.add.PTCONT.2133505",
      "street": "R D FUAS ROUPINHO",
      "house": "4",
      "postcode": "2540-627",
      "city": "ROLIÇA",
      "lon": "-9.15339140201114",
      "lat": "39.29835564869081"
    },
    {
      "id": "pt.ine.add.PTCONT.2142485",
      "street": "R CASAL VALINHOS",
      "house": "4",
      "postcode": "2540-686",
      "city": "ROLIÇA",
      "lon": "-9.152735858226661",
      "lat": "39.2995142885816"
    },
    {
      "id": "pt.ine.add.PTCONT.2155338",
      "street": "R ESCOLA",
      "house": "32",
      "postcode": "2540-632",
      "city": "ROLIÇA",
      "lon": "-9.154111680703528",
      "lat": "39.29766480154877"
    },
    {
      "id": "pt.ine.add.PTCONT.2159786",
      "street": "R CASAL VALINHOS",
      "house": "12",
      "postcode": "2540-686",
      "city": "ROLIÇA",
      "lon": "-9.15374283793047",
      "lat": "39.29940638757759"
    },
    {
      "id": "pt.ine.add.PTCONT.2170679",
      "street": "R ESCOLA",
      "house": "38",
      "postcode": "2540-632",
      "city": "ROLIÇA",
      "lon": "-9.15377725035122",
      "lat": "39.29778482515659"
    },
    {
      "id": "pt.ine.add.PTCONT.2177074",
      "street": "ESTR BARRO LOBO",
      "house": "",
      "postcode": "2540-673",
      "city": "ROLIÇA",
      "lon": "-9.147397744591299",
      "lat": "39.2991285836661"
    },
    {
      "id": "pt.ine.add.PTCONT.2177075",
      "street": "R ALEGRIA",
      "house": "8",
      "postcode": "2540-762",
      "city": "ROLIÇA",
      "lon": "-9.153960791316882",
      "lat": "39.29844973418852"
    },
    {
      "id": "pt.ine.add.PTCONT.2190340",
      "street": "R ESCOLA",
      "house": "36",
      "postcode": "2540-632",
      "city": "ROLIÇA",
      "lon": "-9.153904617570607",
      "lat": "39.29777470141143"
    },
    {
      "id": "pt.ine.add.PTCONT.2210630",
      "street": "R D FUAS ROUPINHO",
      "house": "12",
      "postcode": "2540-627",
      "city": "ROLIÇA",
      "lon": "-9.15282153010453",
      "lat": "39.29902716000462"
    },
    {
      "id": "pt.ine.add.PTCONT.2215115",
      "street": "R CASAL VALINHOS",
      "house": "2",
      "postcode": "2540-686",
      "city": "ROLIÇA",
      "lon": "-9.152690408741142",
      "lat": "39.29957773566362"
    },
    {
      "id": "pt.ine.add.PTCONT.2235001",
      "street": "R ESCOLA",
      "house": "42",
      "postcode": "2540-632",
      "city": "ROLIÇA",
      "lon": "-9.153347216730626",
      "lat": "39.29770753155898"
    },
    {
      "id": "pt.ine.add.PTCONT.2265624",
      "street": "R ALEGRIA",
      "house": "10",
      "postcode": "2540-762",
      "city": "ROLIÇA",
      "lon": "-9.153870157437233",
      "lat": "39.298594640981584"
    },
    {
      "id": "pt.ine.add.PTCONT.2268371",
      "street": "R D FUAS ROUPINHO",
      "house": "6",
      "postcode": "2540-627",
      "city": "ROLIÇA",
      "lon": "-9.153300505606952",
      "lat": "39.29848254333907"
    }
  ]
}