{
  "data": {
    "distrito": "Coimbra",
    "concelho": "Oliveira do Hospital",
    "freguesia": "União das freguesias de Lagos da Beira e Lajeosa",
    "OBJECTID": 319,
    "BGRI2021": "06112300127",
    "DT21": "06",
    "DTMN21": "0611",
    "DTMNFR21": "061123",
    "DTMNFRSEC21": "061123001",
    "SECNUM21": "001",
    "SSNUM21": "27",
    "SECSSNUM21": "00127",
    "OBJECTID_1": 55091,
    "DT": "06",
    "CC": "11",
    "fr": "23",
    "SEC": "001",
    "SS": "27"
  },
  "addresses": [
    {
      "id": "pt.ine.add.PTCONT.1101694",
      "street": "R PROF VIRGÍLIO HALL DA FONSECA",
      "house": "",
      "postcode": "3405-254",
      "city": "LAGOS DA BEIRA",
      "lon": "-7.8439919244473035",
      "lat": "40.36728020122295"
    },
    {
      "id": "pt.ine.add.PTCONT.1107342",
      "street": "QTA DO VALE DO NETO",
      "house": "3",
      "postcode": "3405-254",
      "city": "LAGOS DA BEIRA",
      "lon": "-7.840059727103597",
      "lat": "40.36994496899293"
    },
    {
      "id": "pt.ine.add.PTCONT.1140817",
      "street": "R DO MOIRAL",
      "house": "2",
      "postcode": "3405-329",
      "city": "LAJEOSA OHP",
      "lon": "-7.846574801315166",
      "lat": "40.377354889650604"
    },
    {
      "id": "pt.ine.add.PTCONT.1143833",
      "street": "R PROF VIRGÍLIO HALL DA FONSECA",
      "house": "10",
      "postcode": "3405-254",
      "city": "LAGOS DA BEIRA",
      "lon": "-7.839343150777315",
      "lat": "40.36956491572509"
    },
    {
      "id": "pt.ine.add.PTCONT.1160638",
      "street": "BR DO OUTEIRO",
      "house": "",
      "postcode": "3405-302",
      "city": "LAJEOSA OHP",
      "lon": "-7.846776011948457",
      "lat": "40.37711223702358"
    },
    {
      "id": "pt.ine.add.PTCONT.1176363",
      "street": "R PROF VIRGÍLIO HALL DA FONSECA",
      "house": "22",
      "postcode": "3405-254",
      "city": "LAGOS DA BEIRA",
      "lon": "-7.841533062937154",
      "lat": "40.36685076472994"
    },
    {
      "id": "pt.ine.add.PTCONT.1225915",
      "street": "QTA VILA MARIA",
      "house": "",
      "postcode": "3405-307",
      "city": "LAJEOSA OHP",
      "lon": "-7.847515827319267",
      "lat": "40.372016898881625"
    },
    {
      "id": "pt.ine.add.PTCONT.1244956",
      "street": "BR DAS BALOCAS",
      "house": "",
      "postcode": "3405-301",
      "city": "LAJEOSA OHP",
      "lon": "-7.850253388033227",
      "lat": "40.376247251909724"
    },
    {
      "id": "pt.ine.add.PTCONT.1314384",
      "street": "R DO MOIRAL",
      "house": "6",
      "postcode": "3405-329",
      "city": "LAJEOSA OHP",
      "lon": "-7.846340439278528",
      "lat": "40.377084140981545"
    },
    {
      "id": "pt.ine.add.PTCONT.1314385",
      "street": "R DO MOIRAL",
      "house": "6",
      "postcode": "3405-329",
      "city": "LAJEOSA OHP",
      "lon": "-7.846340439278528",
      "lat": "40.377084140981545"
    },
    {
      "id": "pt.ine.add.PTCONT.1342924",
      "street": "R PROF VIRGÍLIO HALL DA FONSECA",
      "house": "20",
      "postcode": "3405-254",
      "city": "LAGOS DA BEIRA",
      "lon": "-7.841319119837172",
      "lat": "40.36731851672827"
    },
    {
      "id": "pt.ine.add.PTCONT.1353889",
      "street": "BR DAS BALOCAS",
      "house": "",
      "postcode": "3405-301",
      "city": "LAJEOSA OHP",
      "lon": "-7.85043061793254",
      "lat": "40.37610359574401"
    },
    {
      "id": "pt.ine.add.PTCONT.1353890",
      "street": "BR DAS BALOCAS",
      "house": "",
      "postcode": "3405-301",
      "city": "LAJEOSA OHP",
      "lon": "-7.85043061793254",
      "lat": "40.37610359574401"
    },
    {
      "id": "pt.ine.add.PTCONT.1358151",
      "street": "R DO MOIRAL",
      "house": "4",
      "postcode": "3405-329",
      "city": "LAJEOSA OHP",
      "lon": "-7.8465403908853695",
      "lat": "40.37713867018007"
    },
    {
      "id": "pt.ine.add.PTCONT.1362983",
      "street": "BR DAS BALOCAS",
      "house": "",
      "postcode": "3405-301",
      "city": "LAJEOSA OHP",
      "lon": "-7.849594279760342",
      "lat": "40.37617359320383"
    }
  ]
}