{
  "data": {
    "distrito": "Coimbra",
    "concelho": "Oliveira do Hospital",
    "freguesia": "União das freguesias de Lagos da Beira e Lajeosa",
    "OBJECTID": 324,
    "BGRI2021": "06112300132",
    "DT21": "06",
    "DTMN21": "0611",
    "DTMNFR21": "061123",
    "DTMNFRSEC21": "061123001",
    "SECNUM21": "001",
    "SSNUM21": "32",
    "SECSSNUM21": "00132",
    "OBJECTID_1": 54909,
    "DT": "06",
    "CC": "11",
    "fr": "23",
    "SEC": "001",
    "SS": "32"
  },
  "addresses": [
    {
      "id": "pt.ine.add.PTCONT.1101357",
      "street": "R DA PRAÇA",
      "house": "4",
      "postcode": "3405-324",
      "city": "LAJEOSA OHP",
      "lon": "-7.843180947114073",
      "lat": "40.37794080000874"
    },
    {
      "id": "pt.ine.add.PTCONT.1103307",
      "street": "R DA PRAÇA",
      "house": "3",
      "postcode": "3405-324",
      "city": "LAJEOSA OHP",
      "lon": "-7.843086897805114",
      "lat": "40.37790454182469"
    },
    {
      "id": "pt.ine.add.PTCONT.1107384",
      "street": "LG DA PRAÇA",
      "house": "3",
      "postcode": "3405-315",
      "city": "LAJEOSA OHP",
      "lon": "-7.843310168617433",
      "lat": "40.378013168621386"
    },
    {
      "id": "pt.ine.add.PTCONT.1112899",
      "street": "LG DA PRAÇA",
      "house": "",
      "postcode": "3405-315",
      "city": "LAJEOSA OHP",
      "lon": "-7.843321674018784",
      "lat": "40.37807623658461"
    },
    {
      "id": "pt.ine.add.PTCONT.1124578",
      "street": "BC DO FORNO",
      "house": "",
      "postcode": "3405-312",
      "city": "LAJEOSA OHP",
      "lon": "-7.842958990205397",
      "lat": "40.377525986169054"
    },
    {
      "id": "pt.ine.add.PTCONT.1148370",
      "street": "TV DO CANTO",
      "house": "",
      "postcode": "3405-336",
      "city": "LAJEOSA OHP",
      "lon": "-7.843121104513956",
      "lat": "40.3781657897238"
    },
    {
      "id": "pt.ine.add.PTCONT.1180255",
      "street": "TV DO CANTO",
      "house": "1",
      "postcode": "3405-336",
      "city": "LAJEOSA OHP",
      "lon": "-7.842992307821346",
      "lat": "40.37799436047421"
    },
    {
      "id": "pt.ine.add.PTCONT.1185793",
      "street": "R DE S PEDRO",
      "house": "2",
      "postcode": "3405-327",
      "city": "LAJEOSA OHP",
      "lon": "-7.843640113408652",
      "lat": "40.3779599614189"
    },
    {
      "id": "pt.ine.add.PTCONT.1191175",
      "street": "R DO FORNO",
      "house": "2",
      "postcode": "3405-328",
      "city": "LAJEOSA OHP",
      "lon": "-7.843136045862006",
      "lat": "40.37742736875184"
    },
    {
      "id": "pt.ine.add.PTCONT.1195131",
      "street": "R AURÉLIO AMARO DINIS",
      "house": "",
      "postcode": "3405-321",
      "city": "LAJEOSA OHP",
      "lon": "-7.842969954386597",
      "lat": "40.37771513108687"
    },
    {
      "id": "pt.ine.add.PTCONT.1202509",
      "street": "TV DE S JOÃO",
      "house": "2",
      "postcode": "3405-335",
      "city": "LAJEOSA OHP",
      "lon": "-7.8432758840738845",
      "lat": "40.37776993175713"
    },
    {
      "id": "pt.ine.add.PTCONT.1228800",
      "street": "LG DO CIPRESTE",
      "house": "4",
      "postcode": "3405-316",
      "city": "LAJEOSA OHP",
      "lon": "-7.843416649386262",
      "lat": "40.37789636272694"
    },
    {
      "id": "pt.ine.add.PTCONT.1239338",
      "street": "R DE S PEDRO",
      "house": "4 A",
      "postcode": "3405-327",
      "city": "LAJEOSA OHP",
      "lon": "-7.84371057360029",
      "lat": "40.37800516571544"
    },
    {
      "id": "pt.ine.add.PTCONT.1239339",
      "street": "R DE S PEDRO",
      "house": "4 A",
      "postcode": "3405-327",
      "city": "LAJEOSA OHP",
      "lon": "-7.84371057360029",
      "lat": "40.37800516571544"
    },
    {
      "id": "pt.ine.add.PTCONT.1244953",
      "street": "R AURÉLIO AMARO DINIS",
      "house": "3 A",
      "postcode": "3405-321",
      "city": "LAJEOSA OHP",
      "lon": "-7.842923470832693",
      "lat": "40.37757092500299"
    },
    {
      "id": "pt.ine.add.PTCONT.1249238",
      "street": "R DA PRAÇA",
      "house": "2",
      "postcode": "3405-324",
      "city": "LAJEOSA OHP",
      "lon": "-7.843181448935864",
      "lat": "40.37782372858941"
    },
    {
      "id": "pt.ine.add.PTCONT.1269974",
      "street": "TV DO CANTO",
      "house": "17",
      "postcode": "3405-336",
      "city": "LAJEOSA OHP",
      "lon": "-7.842968138777401",
      "lat": "40.37813838928396"
    },
    {
      "id": "pt.ine.add.PTCONT.1314378",
      "street": "TV DE S JOÃO",
      "house": "5",
      "postcode": "3405-335",
      "city": "LAJEOSA OHP",
      "lon": "-7.843028638434573",
      "lat": "40.37776030625505"
    },
    {
      "id": "pt.ine.add.PTCONT.1314430",
      "street": "TV DO CANTO",
      "house": "13",
      "postcode": "3405-336",
      "city": "LAJEOSA OHP",
      "lon": "-7.843121490613722",
      "lat": "40.37807573479009"
    },
    {
      "id": "pt.ine.add.PTCONT.1318315",
      "street": "R DO FORNO",
      "house": "8",
      "postcode": "3405-328",
      "city": "LAJEOSA OHP",
      "lon": "-7.843253027845655",
      "lat": "40.37760777383678"
    },
    {
      "id": "pt.ine.add.PTCONT.1322002",
      "street": "R DE S PEDRO",
      "house": "",
      "postcode": "3405-327",
      "city": "LAJEOSA OHP",
      "lon": "-7.843875314830007",
      "lat": "40.378032594625246"
    },
    {
      "id": "pt.ine.add.PTCONT.1346167",
      "street": "TV DE S JOÃO",
      "house": "1",
      "postcode": "3405-335",
      "city": "LAJEOSA OHP",
      "lon": "-7.843288083974866",
      "lat": "40.37767090083269"
    },
    {
      "id": "pt.ine.add.PTCONT.1349071",
      "street": "R AURÉLIO AMARO DINIS",
      "house": "3",
      "postcode": "3405-321",
      "city": "LAJEOSA OHP",
      "lon": "-7.84301809893487",
      "lat": "40.37747210090713"
    }
  ]
}