{
  "data": {
    "distrito": "Coimbra",
    "concelho": "Oliveira do Hospital",
    "freguesia": "União das freguesias de Lagos da Beira e Lajeosa",
    "OBJECTID": 381,
    "BGRI2021": "06112300144",
    "DT21": "06",
    "DTMN21": "0611",
    "DTMNFR21": "061123",
    "DTMNFRSEC21": "061123001",
    "SECNUM21": "001",
    "SSNUM21": "44",
    "SECSSNUM21": "00144",
    "OBJECTID_1": 55087,
    "DT": "06",
    "CC": "11",
    "fr": "23",
    "SEC": "001",
    "SS": "44"
  },
  "addresses": [
    {
      "id": "pt.ine.add.PTCONT.1101356",
      "street": "R AURÉLIO AMARO DINIS",
      "house": "",
      "postcode": "3405-321",
      "city": "LAJEOSA OHP",
      "lon": "-7.842782359231504",
      "lat": "40.377525542878175"
    },
    {
      "id": "pt.ine.add.PTCONT.1107366",
      "street": "R D MANUEL I",
      "house": "71",
      "postcode": "3405-270",
      "city": "LAGOS DA BEIRA",
      "lon": "-7.828711905888403",
      "lat": "40.377237207028415"
    },
    {
      "id": "pt.ine.add.PTCONT.1111405",
      "street": "R D MANUEL I",
      "house": "",
      "postcode": "3405-270",
      "city": "LAGOS DA BEIRA",
      "lon": "-7.839901265426761",
      "lat": "40.373907031103904"
    },
    {
      "id": "pt.ine.add.PTCONT.1116796",
      "street": "QTA DO BOCO",
      "house": "",
      "postcode": "3405-254",
      "city": "LAGOS DA BEIRA",
      "lon": "-7.838287416376865",
      "lat": "40.376766707068434"
    },
    {
      "id": "pt.ine.add.PTCONT.1137053",
      "street": "BC DO REGO",
      "house": "4",
      "postcode": "3405-313",
      "city": "LAJEOSA OHP",
      "lon": "-7.842972117615382",
      "lat": "40.37721082340718"
    },
    {
      "id": "pt.ine.add.PTCONT.1137054",
      "street": "BC DO REGO",
      "house": "4",
      "postcode": "3405-313",
      "city": "LAJEOSA OHP",
      "lon": "-7.842972117615382",
      "lat": "40.37721082340718"
    },
    {
      "id": "pt.ine.add.PTCONT.1137336",
      "street": "BC DE S JOSÉ",
      "house": "",
      "postcode": "3405-310",
      "city": "LAJEOSA OHP",
      "lon": "-7.844315891076086",
      "lat": "40.37688998557211"
    },
    {
      "id": "pt.ine.add.PTCONT.1146681",
      "street": "R D MANUEL I",
      "house": "79",
      "postcode": "3405-270",
      "city": "LAGOS DA BEIRA",
      "lon": "-7.8276137088068385",
      "lat": "40.377918735978156"
    },
    {
      "id": "pt.ine.add.PTCONT.1148361",
      "street": "R DE RIBAS",
      "house": "6",
      "postcode": "3405-325",
      "city": "LAJEOSA OHP",
      "lon": "-7.841459709338514",
      "lat": "40.37840476269047"
    },
    {
      "id": "pt.ine.add.PTCONT.1148362",
      "street": "R AURÉLIO AMARO DINIS",
      "house": "8",
      "postcode": "3405-321",
      "city": "LAJEOSA OHP",
      "lon": "-7.84310114444629",
      "lat": "40.37732821972983"
    },
    {
      "id": "pt.ine.add.PTCONT.1150241",
      "street": "R DO CORTINHAL",
      "house": "8",
      "postcode": "3405-304",
      "city": "LAJEOSA OHP",
      "lon": "-7.8399252576420215",
      "lat": "40.37923840250288"
    },
    {
      "id": "pt.ine.add.PTCONT.1154502",
      "street": "BR DO URJAL",
      "house": "12",
      "postcode": "3405-255",
      "city": "LAGOS DA BEIRA",
      "lon": "-7.831150164035377",
      "lat": "40.377072492925485"
    },
    {
      "id": "pt.ine.add.PTCONT.1160669",
      "street": "BR DO URJAL",
      "house": "4",
      "postcode": "3405-255",
      "city": "LAGOS DA BEIRA",
      "lon": "-7.829583320983488",
      "lat": "40.37723049183358"
    },
    {
      "id": "pt.ine.add.PTCONT.1162610",
      "street": "LG DO POSTO MÉDICO",
      "house": "3",
      "postcode": "3405-318",
      "city": "LAJEOSA OHP",
      "lon": "-7.842651747043291",
      "lat": "40.377777371451245"
    },
    {
      "id": "pt.ine.add.PTCONT.1163259",
      "street": "LG DO POSTO MÉDICO",
      "house": "2",
      "postcode": "3405-318",
      "city": "LAJEOSA OHP",
      "lon": "-7.842746646446377",
      "lat": "40.37761550912696"
    },
    {
      "id": "pt.ine.add.PTCONT.1164899",
      "street": "R AURÉLIO AMARO DINIS",
      "house": "14",
      "postcode": "3405-321",
      "city": "LAJEOSA OHP",
      "lon": "-7.842864980235199",
      "lat": "40.37748072231015"
    },
    {
      "id": "pt.ine.add.PTCONT.1167599",
      "street": "R DE RIBAS",
      "house": "4",
      "postcode": "3405-325",
      "city": "LAJEOSA OHP",
      "lon": "-7.841625071561511",
      "lat": "40.37828810693617"
    },
    {
      "id": "pt.ine.add.PTCONT.1167600",
      "street": "R AURÉLIO AMARO DINIS",
      "house": "10",
      "postcode": "3405-321",
      "city": "LAJEOSA OHP",
      "lon": "-7.8430304150199435",
      "lat": "40.37734605352246"
    },
    {
      "id": "pt.ine.add.PTCONT.1182665",
      "street": "BR DO URJAL",
      "house": "6",
      "postcode": "3405-255",
      "city": "LAGOS DA BEIRA",
      "lon": "-7.829440804084515",
      "lat": "40.377500285383185"
    },
    {
      "id": "pt.ine.add.PTCONT.1184928",
      "street": "QTA DA RIGUEIRA",
      "house": "",
      "postcode": "3405-304",
      "city": "LAJEOSA OHP",
      "lon": "-7.840755239416749",
      "lat": "40.37792568767215"
    },
    {
      "id": "pt.ine.add.PTCONT.1187065",
      "street": "BC DE S JOSÉ",
      "house": "4",
      "postcode": "3405-310",
      "city": "LAJEOSA OHP",
      "lon": "-7.844044943975774",
      "lat": "40.376916325423664"
    },
    {
      "id": "pt.ine.add.PTCONT.1191145",
      "street": "R AURÉLIO AMARO DINIS",
      "house": "16",
      "postcode": "3405-321",
      "city": "LAJEOSA OHP",
      "lon": "-7.842617813068767",
      "lat": "40.377453084944946"
    },
    {
      "id": "pt.ine.add.PTCONT.1195586",
      "street": "BC DA TULHA",
      "house": "1",
      "postcode": "3405-309",
      "city": "LAJEOSA OHP",
      "lon": "-7.843384293223574",
      "lat": "40.37720285115502"
    },
    {
      "id": "pt.ine.add.PTCONT.1197927",
      "street": "BC DE S JOSÉ",
      "house": "2",
      "postcode": "3405-310",
      "city": "LAJEOSA OHP",
      "lon": "-7.844233617893709",
      "lat": "40.376853757721584"
    },
    {
      "id": "pt.ine.add.PTCONT.1197928",
      "street": "BC DE S JOSÉ",
      "house": "1",
      "postcode": "3405-310",
      "city": "LAJEOSA OHP",
      "lon": "-7.844350909386447",
      "lat": "40.37696211775204"
    },
    {
      "id": "pt.ine.add.PTCONT.1201018",
      "street": "R AURÉLIO AMARO DINIS",
      "house": "6",
      "postcode": "3405-321",
      "city": "LAJEOSA OHP",
      "lon": "-7.843195501755731",
      "lat": "40.37729243394579"
    },
    {
      "id": "pt.ine.add.PTCONT.1208433",
      "street": "BC DA TULHA",
      "house": "2",
      "postcode": "3405-309",
      "city": "LAJEOSA OHP",
      "lon": "-7.843231252365601",
      "lat": "40.37719346205577"
    },
    {
      "id": "pt.ine.add.PTCONT.1211891",
      "street": "R D MANUEL I",
      "house": "81",
      "postcode": "3405-270",
      "city": "LAGOS DA BEIRA",
      "lon": "-7.8275427306340735",
      "lat": "40.37799059316484"
    },
    {
      "id": "pt.ine.add.PTCONT.1214826",
      "street": "LG DO POSTO MÉDICO",
      "house": "1",
      "postcode": "3405-318",
      "city": "LAJEOSA OHP",
      "lon": "-7.842840733817011",
      "lat": "40.37764276209359"
    },
    {
      "id": "pt.ine.add.PTCONT.1216648",
      "street": "R DE S JOSÉ",
      "house": "6",
      "postcode": "3405-326",
      "city": "LAJEOSA OHP",
      "lon": "-7.844468816119982",
      "lat": "40.376926389723636"
    },
    {
      "id": "pt.ine.add.PTCONT.1230985",
      "street": "BC DA PADARIA",
      "house": "4",
      "postcode": "3405-308",
      "city": "LAJEOSA OHP",
      "lon": "-7.842842047794025",
      "lat": "40.37733657529298"
    },
    {
      "id": "pt.ine.add.PTCONT.1238654",
      "street": "R AURÉLIO AMARO DINIS",
      "house": "4",
      "postcode": "3405-321",
      "city": "LAJEOSA OHP",
      "lon": "-7.8432544943191465",
      "lat": "40.37726556504396"
    },
    {
      "id": "pt.ine.add.PTCONT.1238724",
      "street": "QTA DO PAÚL",
      "house": "",
      "postcode": "3405-254",
      "city": "LAGOS DA BEIRA",
      "lon": "-7.827637362197431",
      "lat": "40.380503401765"
    },
    {
      "id": "pt.ine.add.PTCONT.1242899",
      "street": "LG DO POSTO MÉDICO",
      "house": "4",
      "postcode": "3405-318",
      "city": "LAJEOSA OHP",
      "lon": "-7.8427695401188355",
      "lat": "40.37776866164934"
    },
    {
      "id": "pt.ine.add.PTCONT.1249276",
      "street": "BC DE S JOSÉ",
      "house": "3",
      "postcode": "3405-310",
      "city": "LAJEOSA OHP",
      "lon": "-7.844245662386118",
      "lat": "40.37679074866046"
    },
    {
      "id": "pt.ine.add.PTCONT.1269961",
      "street": "BR DO URJAL",
      "house": "14",
      "postcode": "3405-255",
      "city": "LAGOS DA BEIRA",
      "lon": "-7.831279210189437",
      "lat": "40.37718089688072"
    },
    {
      "id": "pt.ine.add.PTCONT.1269966",
      "street": "BC DE S JOSÉ",
      "house": "3",
      "postcode": "3405-310",
      "city": "LAJEOSA OHP",
      "lon": "-7.844175241562972",
      "lat": "40.37673653918719"
    },
    {
      "id": "pt.ine.add.PTCONT.1275923",
      "street": "R DE S JOSÉ",
      "house": "4",
      "postcode": "3405-326",
      "city": "LAJEOSA OHP",
      "lon": "-7.844586991621518",
      "lat": "40.37682762309882"
    },
    {
      "id": "pt.ine.add.PTCONT.1275924",
      "street": "R DE S JOSÉ",
      "house": "",
      "postcode": "3405-326",
      "city": "LAJEOSA OHP",
      "lon": "-7.8449407871074675",
      "lat": "40.37670242692864"
    },
    {
      "id": "pt.ine.add.PTCONT.1282105",
      "street": "BR DO URJAL",
      "house": "16",
      "postcode": "3405-255",
      "city": "LAGOS DA BEIRA",
      "lon": "-7.83126823859787",
      "lat": "40.3770007564406"
    },
    {
      "id": "pt.ine.add.PTCONT.1282124",
      "street": "BC DA PADARIA",
      "house": "",
      "postcode": "3405-308",
      "city": "LAJEOSA OHP",
      "lon": "-7.8427128280829415",
      "lat": "40.377264206155026"
    },
    {
      "id": "pt.ine.add.PTCONT.1284178",
      "street": "BC DA PADARIA",
      "house": "1",
      "postcode": "3405-308",
      "city": "LAJEOSA OHP",
      "lon": "-7.84288949701297",
      "lat": "40.37725564405523"
    },
    {
      "id": "pt.ine.add.PTCONT.1290365",
      "street": "QTA DO PAÚL",
      "house": "",
      "postcode": "3405-254",
      "city": "LAGOS DA BEIRA",
      "lon": "-7.825826246881428",
      "lat": "40.37997627966985"
    },
    {
      "id": "pt.ine.add.PTCONT.1290397",
      "street": "BC DE S JOSÉ",
      "house": "5",
      "postcode": "3405-310",
      "city": "LAJEOSA OHP",
      "lon": "-7.844091698836925",
      "lat": "40.376997492608936"
    },
    {
      "id": "pt.ine.add.PTCONT.1298109",
      "street": "BR DO URJAL",
      "house": "2",
      "postcode": "3405-255",
      "city": "LAGOS DA BEIRA",
      "lon": "-7.829407540120176",
      "lat": "40.377040912958414"
    },
    {
      "id": "pt.ine.add.PTCONT.1298111",
      "street": "BC DO REGO",
      "house": "2",
      "postcode": "3405-313",
      "city": "LAJEOSA OHP",
      "lon": "-7.843125390123706",
      "lat": "40.37716617988037"
    },
    {
      "id": "pt.ine.add.PTCONT.1301625",
      "street": "BC DO REGO",
      "house": "1",
      "postcode": "3405-313",
      "city": "LAJEOSA OHP",
      "lon": "-7.843113344519479",
      "lat": "40.37722918881686"
    },
    {
      "id": "pt.ine.add.PTCONT.1304425",
      "street": "R AURÉLIO AMARO DINIS",
      "house": "12",
      "postcode": "3405-321",
      "city": "LAJEOSA OHP",
      "lon": "-7.842924127634789",
      "lat": "40.37741783160168"
    },
    {
      "id": "pt.ine.add.PTCONT.1309510",
      "street": "QTA DO BOCO",
      "house": "",
      "postcode": "3405-254",
      "city": "LAGOS DA BEIRA",
      "lon": "-7.83884081449934",
      "lat": "40.376777122126235"
    },
    {
      "id": "pt.ine.add.PTCONT.1312417",
      "street": "QTA DO BOCO",
      "house": "",
      "postcode": "3405-254",
      "city": "LAGOS DA BEIRA",
      "lon": "-7.835374685912679",
      "lat": "40.37772284308668"
    },
    {
      "id": "pt.ine.add.PTCONT.1334691",
      "street": "R AURÉLIO AMARO DINIS",
      "house": "2",
      "postcode": "3405-321",
      "city": "LAJEOSA OHP",
      "lon": "-7.843584743878923",
      "lat": "40.377140314019144"
    },
    {
      "id": "pt.ine.add.PTCONT.1336083",
      "street": "BC DO REGO",
      "house": "3",
      "postcode": "3405-313",
      "city": "LAJEOSA OHP",
      "lon": "-7.8429018905714605",
      "lat": "40.37711158569068"
    },
    {
      "id": "pt.ine.add.PTCONT.1344052",
      "street": "BC DA PADARIA",
      "house": "2",
      "postcode": "3405-308",
      "city": "LAJEOSA OHP",
      "lon": "-7.84277213005379",
      "lat": "40.37716529354366"
    },
    {
      "id": "pt.ine.add.PTCONT.1362503",
      "street": "LG DE STO ANTÓNIO",
      "house": "1",
      "postcode": "3405-320",
      "city": "LAJEOSA OHP",
      "lon": "-7.843620262585661",
      "lat": "40.37709537497644"
    }
  ]
}