{
  "data": {
    "distrito": "Guarda",
    "concelho": "Aguiar da Beira",
    "freguesia": "Pinheiro",
    "OBJECTID": 280,
    "BGRI2021": "09011000110",
    "DT21": "09",
    "DTMN21": "0901",
    "DTMNFR21": "090110",
    "DTMNFRSEC21": "090110001",
    "SECNUM21": "001",
    "SSNUM21": "10",
    "SECSSNUM21": "00110",
    "OBJECTID_1": 75205,
    "DT": "09",
    "CC": "01",
    "fr": "10",
    "SEC": "001",
    "SS": "10"
  },
  "addresses": [
    {
      "id": "pt.ine.add.PTCONT.1908726",
      "street": "R PRINCIPAL",
      "house": "17",
      "postcode": "3570-180",
      "city": "PINHEIRO AGB",
      "lon": "-7.601640918567122",
      "lat": "40.78230950435037"
    },
    {
      "id": "pt.ine.add.PTCONT.1910910",
      "street": "SIT QUEIMADINHAS",
      "house": "",
      "postcode": "3570-180",
      "city": "PINHEIRO AGB",
      "lon": "-7.600674219815172",
      "lat": "40.78023391632502"
    },
    {
      "id": "pt.ine.add.PTCONT.1916047",
      "street": "R PRINCIPAL",
      "house": "17",
      "postcode": "3570-180",
      "city": "PINHEIRO AGB",
      "lon": "-7.60148519440908",
      "lat": "40.78252490509521"
    },
    {
      "id": "pt.ine.add.PTCONT.1916908",
      "street": "R TAPADA DA LAGE",
      "house": "5",
      "postcode": "3570-180",
      "city": "PINHEIRO AGB",
      "lon": "-7.601956247545128",
      "lat": "40.78287826608802"
    },
    {
      "id": "pt.ine.add.PTCONT.1920771",
      "street": "R DO CERRADO",
      "house": "",
      "postcode": "3570-180",
      "city": "PINHEIRO AGB",
      "lon": "-7.601749692876774",
      "lat": "40.78352566923634"
    },
    {
      "id": "pt.ine.add.PTCONT.1929554",
      "street": "R PRINCIPAL",
      "house": "3",
      "postcode": "3570-180",
      "city": "PINHEIRO AGB",
      "lon": "-7.6020704076390935",
      "lat": "40.783419086576565"
    },
    {
      "id": "pt.ine.add.PTCONT.1929561",
      "street": "R PRINCIPAL",
      "house": "13",
      "postcode": "3570-180",
      "city": "PINHEIRO AGB",
      "lon": "-7.601192342215253",
      "lat": "40.782109329285234"
    },
    {
      "id": "pt.ine.add.PTCONT.1929562",
      "street": "R TAPADA DA LAGE",
      "house": "3",
      "postcode": "3570-180",
      "city": "PINHEIRO AGB",
      "lon": "-7.601898020288197",
      "lat": "40.78275192920105"
    },
    {
      "id": "pt.ine.add.PTCONT.1936882",
      "street": "R PRINCIPAL",
      "house": "19",
      "postcode": "3570-180",
      "city": "PINHEIRO AGB",
      "lon": "-7.6016871551623115",
      "lat": "40.78245379599427"
    },
    {
      "id": "pt.ine.add.PTCONT.1938857",
      "street": "R TAPADA DA LAGE",
      "house": "4",
      "postcode": "3570-180",
      "city": "PINHEIRO AGB",
      "lon": "-7.602041467044064",
      "lat": "40.78259050091768"
    },
    {
      "id": "pt.ine.add.PTCONT.1948887",
      "street": "R DE S GERALDO",
      "house": "25",
      "postcode": "3570-180",
      "city": "PINHEIRO AGB",
      "lon": "-7.604034184421517",
      "lat": "40.785265109980294"
    },
    {
      "id": "pt.ine.add.PTCONT.1950445",
      "street": "R PRINCIPAL",
      "house": "9",
      "postcode": "3570-180",
      "city": "PINHEIRO AGB",
      "lon": "-7.60966895423234",
      "lat": "40.781310633135995"
    },
    {
      "id": "pt.ine.add.PTCONT.1952875",
      "street": "LG DO TERREIRO",
      "house": "2",
      "postcode": "3570-180",
      "city": "PINHEIRO AGB",
      "lon": "-7.60188308892073",
      "lat": "40.783139071949506"
    },
    {
      "id": "pt.ine.add.PTCONT.1956927",
      "street": "R PRINCIPAL",
      "house": "15",
      "postcode": "3570-180",
      "city": "PINHEIRO AGB",
      "lon": "-7.601357111727556",
      "lat": "40.782245162462125"
    },
    {
      "id": "pt.ine.add.PTCONT.1970730",
      "street": "LG DOS SEQUEIROS",
      "house": "2",
      "postcode": "3570-180",
      "city": "PINHEIRO AGB",
      "lon": "-7.602318967599645",
      "lat": "40.783447244914385"
    },
    {
      "id": "pt.ine.add.PTCONT.1971657",
      "street": "R DOS SERNADOS",
      "house": "2",
      "postcode": "3570-180",
      "city": "PINHEIRO AGB",
      "lon": "-7.612064439702153",
      "lat": "40.77947546473888"
    },
    {
      "id": "pt.ine.add.PTCONT.1973641",
      "street": "R PRINCIPAL",
      "house": "2",
      "postcode": "3570-180",
      "city": "PINHEIRO AGB",
      "lon": "-7.608836401725586",
      "lat": "40.781730084990876"
    },
    {
      "id": "pt.ine.add.PTCONT.1870091",
      "street": "LG DOS SEQUEIROS",
      "house": "",
      "postcode": "3570-180",
      "city": "PINHEIRO AGB",
      "lon": "-7.602248605966445",
      "lat": "40.78335687206976"
    },
    {
      "id": "pt.ine.add.PTCONT.1870092",
      "street": "R DA LAGE",
      "house": "1",
      "postcode": "3570-180",
      "city": "PINHEIRO AGB",
      "lon": "-7.602073778519285",
      "lat": "40.78299587094881"
    },
    {
      "id": "pt.ine.add.PTCONT.1888371",
      "street": "R DO CERRADO",
      "house": "27",
      "postcode": "3570-180",
      "city": "PINHEIRO AGB",
      "lon": "-7.601973125480435",
      "lat": "40.78373381095586"
    }
  ]
}