{
  "data": {
    "distrito": "Portalegre",
    "concelho": "Elvas",
    "freguesia": "Uni√£o das freguesias de Terrugem e Vila Boim",
    "OBJECTID": 111,
    "BGRI2021": "12071500223",
    "DT21": "12",
    "DTMN21": "1207",
    "DTMNFR21": "120715",
    "DTMNFRSEC21": "120715002",
    "SECNUM21": "002",
    "SSNUM21": "23",
    "SECSSNUM21": "00223",
    "OBJECTID_1": 121882,
    "DT": "12",
    "CC": "07",
    "fr": "15",
    "SEC": "002",
    "SS": "23"
  },
  "addresses": [
    {
      "id": "pt.ine.add.PTCONT.3539638",
      "street": "QTA TERRUGEM",
      "house": "",
      "postcode": "7350-491",
      "city": "TERRUGEM ELV",
      "lon": "-7.395959111881547",
      "lat": "38.83724645849446"
    },
    {
      "id": "pt.ine.add.PTCONT.3459809",
      "street": "MTE BARROCA",
      "house": "",
      "postcode": "7350-491",
      "city": "TERRUGEM ELV",
      "lon": "-7.39589262886039",
      "lat": "38.8402932510949"
    },
    {
      "id": "pt.ine.add.PTCONT.3461020",
      "street": "MTE OUTEIRO",
      "house": "",
      "postcode": "7350-491",
      "city": "TERRUGEM ELV",
      "lon": "-7.3952074710867635",
      "lat": "38.83830896823815"
    },
    {
      "id": "pt.ine.add.PTCONT.3461625",
      "street": "QUARELA DA CASA BRANCA",
      "house": "",
      "postcode": "7350-491",
      "city": "TERRUGEM ELV",
      "lon": "-7.370253530351433",
      "lat": "38.84254916355587"
    },
    {
      "id": "pt.ine.add.PTCONT.3493011",
      "street": "MTE LAMEIRAS",
      "house": "",
      "postcode": "7350-491",
      "city": "TERRUGEM ELV",
      "lon": "-7.377841394216234",
      "lat": "38.84324727088416"
    },
    {
      "id": "pt.ine.add.PTCONT.3504231",
      "street": "MTE MONTINHO",
      "house": "",
      "postcode": "7350-491",
      "city": "TERRUGEM ELV",
      "lon": "-7.350919928602628",
      "lat": "38.849355432056306"
    },
    {
      "id": "pt.ine.add.PTCONT.3509113",
      "street": "HRD S RAFAEL",
      "house": "",
      "postcode": "7350-491",
      "city": "TERRUGEM ELV",
      "lon": "-7.386727288938048",
      "lat": "38.83802299695784"
    },
    {
      "id": "pt.ine.add.PTCONT.3513097",
      "street": "MTE RABAO",
      "house": "",
      "postcode": "7350-491",
      "city": "TERRUGEM ELV",
      "lon": "-7.395466710846583",
      "lat": "38.8371679634608"
    },
    {
      "id": "pt.ine.add.PTCONT.3531249",
      "street": "MTE ESTALAGEM",
      "house": "",
      "postcode": "7350-491",
      "city": "TERRUGEM ELV",
      "lon": "-7.376049315999991",
      "lat": "38.84584255259905"
    }
  ]
}