{
  "data": {
    "distrito": "Porto",
    "concelho": "Matosinhos",
    "freguesia": "União das freguesias de São Mamede de Infesta e Senhora da Hora",
    "OBJECTID": 1239,
    "BGRI2021": "13081402602",
    "DT21": "13",
    "DTMN21": "1308",
    "DTMNFR21": "130814",
    "DTMNFRSEC21": "130814026",
    "SECNUM21": "026",
    "SSNUM21": "02",
    "SECSSNUM21": "02602",
    "OBJECTID_1": 133562,
    "DT": "13",
    "CC": "08",
    "fr": "14",
    "SEC": "026",
    "SS": "02"
  },
  "addresses": [
    {
      "id": "pt.ine.add.PTCONT.3554806",
      "street": "R PADRE LUIS ANTÓNIO FARINHOTE",
      "house": "21",
      "postcode": "4465-317",
      "city": "SÃO MAMEDE DE INFESTA",
      "lon": "-8.615407401507733",
      "lat": "41.18940790189229"
    },
    {
      "id": "pt.ine.add.PTCONT.3561350",
      "street": "R PADRE LUIS ANTÓNIO FARINHOTE",
      "house": "66",
      "postcode": "4465-317",
      "city": "SÃO MAMEDE DE INFESTA",
      "lon": "-8.614907446815748",
      "lat": "41.18950003742427"
    },
    {
      "id": "pt.ine.add.PTCONT.3594075",
      "street": "TV PADRE LUIS ANTÓNIO FARINHOTE",
      "house": "",
      "postcode": "4465-317",
      "city": "SÃO MAMEDE DE INFESTA",
      "lon": "-8.615826696739296",
      "lat": "41.18969428270629"
    },
    {
      "id": "pt.ine.add.PTCONT.3611023",
      "street": "R PADRE LUIS ANTÓNIO FARINHOTE",
      "house": "154",
      "postcode": "4465-317",
      "city": "SÃO MAMEDE DE INFESTA",
      "lon": "-8.61603886494643",
      "lat": "41.189369238600946"
    },
    {
      "id": "pt.ine.add.PTCONT.3644738",
      "street": "R PADRE LUIS ANTONIO FARINHOTE",
      "house": "16",
      "postcode": "4465-317",
      "city": "SÃO MAMEDE DE INFESTA",
      "lon": "-8.616599341231316",
      "lat": "41.18940290424275"
    },
    {
      "id": "pt.ine.add.PTCONT.3644739",
      "street": "R PADRE LUIS ANTONIO FARINHOTE",
      "house": "18",
      "postcode": "4465-317",
      "city": "SÃO MAMEDE DE INFESTA",
      "lon": "-8.616599341231316",
      "lat": "41.18940290424275"
    },
    {
      "id": "pt.ine.add.PTCONT.3654689",
      "street": "R PADRE LUIS ANTÓNIO FARINHOTE",
      "house": "254",
      "postcode": "4465-317",
      "city": "SÃO MAMEDE DE INFESTA",
      "lon": "-8.616386381162833",
      "lat": "41.18961990115477"
    },
    {
      "id": "pt.ine.add.PTCONT.3677120",
      "street": "TV PADRE LUIS ANTÓNIO FARINHOTE",
      "house": "39",
      "postcode": "4465-317",
      "city": "SÃO MAMEDE DE INFESTA",
      "lon": "-8.61570743612009",
      "lat": "41.189685778211256"
    },
    {
      "id": "pt.ine.add.PTCONT.3677121",
      "street": "TV PADRE LUIS ANTÓNIO FARINHOTE",
      "house": "39",
      "postcode": "4465-317",
      "city": "SÃO MAMEDE DE INFESTA",
      "lon": "-8.61570743612009",
      "lat": "41.189685778211256"
    },
    {
      "id": "pt.ine.add.PTCONT.3677122",
      "street": "TV PADRE LUIS ANTÓNIO FARINHOTE",
      "house": "39",
      "postcode": "4465-317",
      "city": "SÃO MAMEDE DE INFESTA",
      "lon": "-8.61570743612009",
      "lat": "41.189685778211256"
    },
    {
      "id": "pt.ine.add.PTCONT.3684735",
      "street": "R PADRE LUIS ANTÓNIO FARINHOTE",
      "house": "296",
      "postcode": "4465-317",
      "city": "SÃO MAMEDE DE INFESTA",
      "lon": "-8.61607859324513",
      "lat": "41.189909329729595"
    },
    {
      "id": "pt.ine.add.PTCONT.3747259",
      "street": "R PADRE LUIS ANTÓNIO FARINHOTE",
      "house": "314",
      "postcode": "4465-317",
      "city": "SÃO MAMEDE DE INFESTA",
      "lon": "-8.616043364098745",
      "lat": "41.18998151181815"
    },
    {
      "id": "pt.ine.add.PTCONT.3819495",
      "street": "R PADRE LUIS ANTÓNIO FARINHOTE",
      "house": "144",
      "postcode": "4465-317",
      "city": "SÃO MAMEDE DE INFESTA",
      "lon": "-8.6158372934691",
      "lat": "41.18951415238156"
    },
    {
      "id": "pt.ine.add.PTCONT.3826049",
      "street": "R PADRE LUIS ANTÓNIO FARINHOTE",
      "house": "132",
      "postcode": "4465-317",
      "city": "SÃO MAMEDE DE INFESTA",
      "lon": "-8.615729886470671",
      "lat": "41.18949659392917"
    },
    {
      "id": "pt.ine.add.PTCONT.3837419",
      "street": "R PADRE LUIS ANTÓNIO FARINHOTE",
      "house": "114",
      "postcode": "4465-317",
      "city": "SÃO MAMEDE DE INFESTA",
      "lon": "-8.615514411730341",
      "lat": "41.18937143653275"
    },
    {
      "id": "pt.ine.add.PTCONT.3892358",
      "street": "R PADRE LUIS ANTÓNIO FARINHOTE",
      "house": "275",
      "postcode": "4465-317",
      "city": "SÃO MAMEDE DE INFESTA",
      "lon": "-8.616220700457975",
      "lat": "41.18978267357991"
    },
    {
      "id": "pt.ine.add.PTCONT.3914007",
      "street": "TV PADRE LUIS ANTÓNIO FARINHOTE",
      "house": "1",
      "postcode": "4465-317",
      "city": "SÃO MAMEDE DE INFESTA",
      "lon": "-8.615302042724673",
      "lat": "41.189669467629486"
    },
    {
      "id": "pt.ine.add.PTCONT.3914008",
      "street": "TV PADRE LUIS ANTÓNIO FARINHOTE",
      "house": "1",
      "postcode": "4465-317",
      "city": "SÃO MAMEDE DE INFESTA",
      "lon": "-8.615302042724673",
      "lat": "41.189669467629486"
    },
    {
      "id": "pt.ine.add.PTCONT.3997013",
      "street": "R STO ANTÓNIO DO TELHEIRO",
      "house": "357",
      "postcode": "4465-248",
      "city": "SÃO MAMEDE DE INFESTA",
      "lon": "-8.614158764329426",
      "lat": "41.1898093130506"
    },
    {
      "id": "pt.ine.add.PTCONT.4065510",
      "street": "R PADRE LUIS ANTÓNIO FARINHOTE",
      "house": "76",
      "postcode": "4465-317",
      "city": "SÃO MAMEDE DE INFESTA",
      "lon": "-8.614978831277044",
      "lat": "41.189481730183864"
    },
    {
      "id": "pt.ine.add.PTCONT.4148016",
      "street": "R STO ANTÓNIO DO TELHEIRO",
      "house": "367",
      "postcode": "4465-248",
      "city": "SÃO MAMEDE DE INFESTA",
      "lon": "-8.61423087441849",
      "lat": "41.189890050492664"
    },
    {
      "id": "pt.ine.add.PTCONT.4160904",
      "street": "R STO ANTÓNIO DO TELHEIRO",
      "house": "371",
      "postcode": "4465-248",
      "city": "SÃO MAMEDE DE INFESTA",
      "lon": "-8.614219284504928",
      "lat": "41.189935120385286"
    },
    {
      "id": "pt.ine.add.PTCONT.4196252",
      "street": "R PADRE LUIS ANTÓNIO FARINHOTE",
      "house": "90",
      "postcode": "4465-317",
      "city": "SÃO MAMEDE DE INFESTA",
      "lon": "-8.615157358297012",
      "lat": "41.18944496590937"
    },
    {
      "id": "pt.ine.add.PTCONT.4216151",
      "street": "R PADRE LUIS ANTÓNIO FARINHOTE",
      "house": "768",
      "postcode": "4465-317",
      "city": "SÃO MAMEDE DE INFESTA",
      "lon": "-8.616351152507498",
      "lat": "41.189692083338414"
    },
    {
      "id": "pt.ine.add.PTCONT.4235280",
      "street": "R PADRE LUIS ANTÓNIO FARINHOTE",
      "house": "286",
      "postcode": "4465-317",
      "city": "SÃO MAMEDE DE INFESTA",
      "lon": "-8.616197258641451",
      "lat": "41.18983679768106"
    },
    {
      "id": "pt.ine.add.PTCONT.4273484",
      "street": "R PADRE LUIS ANTÓNIO FARINHOTE",
      "house": "172",
      "postcode": "4465-317",
      "city": "SÃO MAMEDE DE INFESTA",
      "lon": "-8.616253480165025",
      "lat": "41.18937734277681"
    },
    {
      "id": "pt.ine.add.PTCONT.4283577",
      "street": "R PADRE LUIS ANTÓNIO FARINHOTE",
      "house": "82",
      "postcode": "4465-317",
      "city": "SÃO MAMEDE DE INFESTA",
      "lon": "-8.61505021569819",
      "lat": "41.18946342289937"
    },
    {
      "id": "pt.ine.add.PTCONT.4312756",
      "street": "R STO ANTÓNIO DO TELHEIRO",
      "house": "351",
      "postcode": "4465-248",
      "city": "SÃO MAMEDE DE INFESTA",
      "lon": "-8.614158302985143",
      "lat": "41.18974628490895"
    },
    {
      "id": "pt.ine.add.PTCONT.4385623",
      "street": "R PADRE LUIS ANTÓNIO FARINHOTE",
      "house": "130",
      "postcode": "4465-317",
      "city": "SÃO MAMEDE DE INFESTA",
      "lon": "-8.615645525039808",
      "lat": "41.18937088727369"
    }
  ]
}