{
  "data": {
    "distrito": "Évora",
    "concelho": "Alandroal",
    "freguesia": "Terena (São Pedro)",
    "OBJECTID": 266,
    "BGRI2021": "07010500150",
    "DT21": "07",
    "DTMN21": "0701",
    "DTMNFR21": "070105",
    "DTMNFRSEC21": "070105001",
    "SECNUM21": "001",
    "SSNUM21": "50",
    "SECSSNUM21": "00150",
    "OBJECTID_1": 58567,
    "DT": "07",
    "CC": "01",
    "fr": "05",
    "SEC": "001",
    "SS": "50"
  },
  "addresses": [
    {
      "id": "pt.ine.add.PTCONT.1380535",
      "street": "HRD DOS BARROS",
      "house": "",
      "postcode": "7250-065",
      "city": "TERENA",
      "lon": "-7.407046634456659",
      "lat": "38.63198744870569"
    },
    {
      "id": "pt.ine.add.PTCONT.1381104",
      "street": "HRD DOS BARROS",
      "house": "",
      "postcode": "7250-065",
      "city": "TERENA",
      "lon": "-7.407046634456659",
      "lat": "38.63198744870569"
    },
    {
      "id": "pt.ine.add.PTCONT.1397730",
      "street": "",
      "house": "",
      "postcode": "7250-065",
      "city": "TERENA",
      "lon": "-7.438715125734648",
      "lat": "38.613496712980236"
    },
    {
      "id": "pt.ine.add.PTCONT.1399284",
      "street": "",
      "house": "",
      "postcode": "7250-065",
      "city": "TERENA",
      "lon": "-7.419449043963827",
      "lat": "38.62426483975422"
    },
    {
      "id": "pt.ine.add.PTCONT.1428437",
      "street": "EM 541 - MONTE DOS PEREIROS",
      "house": "",
      "postcode": "7250-065",
      "city": "TERENA",
      "lon": "-7.4423894080961555",
      "lat": "38.61347341884832"
    },
    {
      "id": "pt.ine.add.PTCONT.1442956",
      "street": "EM 541 - MONTE DOS PEREIROS",
      "house": "",
      "postcode": "7250-065",
      "city": "TERENA",
      "lon": "-7.442239034784875",
      "lat": "38.61358963775153"
    },
    {
      "id": "pt.ine.add.PTCONT.1446840",
      "street": "QTA TAIPA",
      "house": "",
      "postcode": "7250-065",
      "city": "TERENA",
      "lon": "-7.4269121813344885",
      "lat": "38.62755091120407"
    },
    {
      "id": "pt.ine.add.PTCONT.1452174",
      "street": "",
      "house": "",
      "postcode": "7250-065",
      "city": "TERENA",
      "lon": "-7.4417524498734675",
      "lat": "38.61284809108061"
    },
    {
      "id": "pt.ine.add.PTCONT.1456769",
      "street": "MTE VERDELHAS",
      "house": "",
      "postcode": "7250-065",
      "city": "TERENA",
      "lon": "-7.429076533245611",
      "lat": "38.62699643986738"
    },
    {
      "id": "pt.ine.add.PTCONT.1458561",
      "street": "",
      "house": "",
      "postcode": "7250-065",
      "city": "TERENA",
      "lon": "-7.4393029879944494",
      "lat": "38.61325697862498"
    },
    {
      "id": "pt.ine.add.PTCONT.1458562",
      "street": "MTE COUTADA",
      "house": "7",
      "postcode": "7250-065",
      "city": "TERENA",
      "lon": "-7.4393029879944494",
      "lat": "38.61325697862498"
    },
    {
      "id": "pt.ine.add.PTCONT.1460576",
      "street": "",
      "house": "",
      "postcode": "7250-065",
      "city": "TERENA",
      "lon": "-7.445676617941076",
      "lat": "38.6155106146272"
    },
    {
      "id": "pt.ine.add.PTCONT.1464628",
      "street": "",
      "house": "",
      "postcode": "7250-065",
      "city": "TERENA",
      "lon": "-7.43850821117489",
      "lat": "38.61352250949486"
    }
  ]
}