{
  "data": {
    "distrito": "Setúbal",
    "concelho": "Palmela",
    "freguesia": "Palmela",
    "OBJECTID": 97,
    "BGRI2021": "15080201219",
    "DT21": "15",
    "DTMN21": "1508",
    "DTMNFR21": "150802",
    "DTMNFRSEC21": "150802012",
    "SECNUM21": "012",
    "SSNUM21": "19",
    "SECSSNUM21": "01219",
    "OBJECTID_1": 165518,
    "DT": "15",
    "CC": "08",
    "fr": "02",
    "SEC": "012",
    "SS": "19"
  },
  "addresses": [
    {
      "id": "pt.ine.add.PTCONT.4668417",
      "street": "AV ALBERTO VALENTE",
      "house": "55",
      "postcode": "2950-313",
      "city": "PALMELA",
      "lon": "-8.89043344965495",
      "lat": "38.57984805192463"
    },
    {
      "id": "pt.ine.add.PTCONT.4680757",
      "street": "R JOÃO PARRANTÓNIO",
      "house": "2A",
      "postcode": "2950-311",
      "city": "PALMELA",
      "lon": "-8.891025377044157",
      "lat": "38.57720480978666"
    },
    {
      "id": "pt.ine.add.PTCONT.4693225",
      "street": "",
      "house": "8",
      "postcode": "2950-311",
      "city": "PALMELA",
      "lon": "-8.894853059433645",
      "lat": "38.577801528753284"
    },
    {
      "id": "pt.ine.add.PTCONT.4697707",
      "street": "AV ALBERTO VALENTE",
      "house": "35",
      "postcode": "2950-313",
      "city": "PALMELA",
      "lon": "-8.891703802574746",
      "lat": "38.57842553367575"
    },
    {
      "id": "pt.ine.add.PTCONT.4697708",
      "street": "AV ALBERTO VALENTE PATEO 13 A 5",
      "house": "13 A S",
      "postcode": "2950-313",
      "city": "PALMELA",
      "lon": "-8.890374054049389",
      "lat": "38.57747026425239"
    },
    {
      "id": "pt.ine.add.PTCONT.4701212",
      "street": "AV ALBERTO VALENTE",
      "house": "89",
      "postcode": "2950-313",
      "city": "PALMELA",
      "lon": "-8.89048071259468",
      "lat": "38.58216285955996"
    },
    {
      "id": "pt.ine.add.PTCONT.4704594",
      "street": "AV ALBERTO VALENTE",
      "house": "",
      "postcode": "2950-313",
      "city": "PALMELA",
      "lon": "-8.893309479213217",
      "lat": "38.580514032052974"
    },
    {
      "id": "pt.ine.add.PTCONT.4707205",
      "street": "AV ALBERTO VALENTE",
      "house": "47",
      "postcode": "2950-313",
      "city": "PALMELA",
      "lon": "-8.890473485672908",
      "lat": "38.57928928286448"
    },
    {
      "id": "pt.ine.add.PTCONT.4715569",
      "street": "QTA S JULIAO",
      "house": "10",
      "postcode": "2950-311",
      "city": "PALMELA",
      "lon": "-8.894911861212503",
      "lat": "38.577936269437586"
    },
    {
      "id": "pt.ine.add.PTCONT.4715570",
      "street": "QTA S JULIAO",
      "house": "10",
      "postcode": "2950-311",
      "city": "PALMELA",
      "lon": "-8.894911861212503",
      "lat": "38.577936269437586"
    },
    {
      "id": "pt.ine.add.PTCONT.4723281",
      "street": "AV ALBERTO VALENTE",
      "house": "107 B",
      "postcode": "2950-313",
      "city": "PALMELA",
      "lon": "-8.890411072858852",
      "lat": "38.58318123916726"
    },
    {
      "id": "pt.ine.add.PTCONT.4723282",
      "street": "AV ALBERTO VALENTE",
      "house": "107",
      "postcode": "2950-313",
      "city": "PALMELA",
      "lon": "-8.890411072858852",
      "lat": "38.58318123916726"
    },
    {
      "id": "pt.ine.add.PTCONT.4723283",
      "street": "AV ALBERTO VALENTE",
      "house": "107",
      "postcode": "2950-313",
      "city": "PALMELA",
      "lon": "-8.890411072858852",
      "lat": "38.58318123916726"
    },
    {
      "id": "pt.ine.add.PTCONT.4723284",
      "street": "AV ALBERTO VALENTE",
      "house": "107",
      "postcode": "2950-313",
      "city": "PALMELA",
      "lon": "-8.890411072858852",
      "lat": "38.58318123916726"
    },
    {
      "id": "pt.ine.add.PTCONT.4723285",
      "street": "AV ALBERTO VALENTE",
      "house": "107",
      "postcode": "2950-313",
      "city": "PALMELA",
      "lon": "-8.890411072858852",
      "lat": "38.58318123916726"
    },
    {
      "id": "pt.ine.add.PTCONT.4723286",
      "street": "AV ALBERTO VALENTE",
      "house": "107",
      "postcode": "2950-313",
      "city": "PALMELA",
      "lon": "-8.890411072858852",
      "lat": "38.58318123916726"
    },
    {
      "id": "pt.ine.add.PTCONT.4723287",
      "street": "AV ALBERTO VALENTE",
      "house": "107",
      "postcode": "2950-313",
      "city": "PALMELA",
      "lon": "-8.890411072858852",
      "lat": "38.58318123916726"
    },
    {
      "id": "pt.ine.add.PTCONT.4723302",
      "street": "AV ALBERTO VALENTE",
      "house": "67",
      "postcode": "2950-313",
      "city": "PALMELA",
      "lon": "-8.89046784652839",
      "lat": "38.58093782451999"
    },
    {
      "id": "pt.ine.add.PTCONT.4724709",
      "street": "AV ALBERTO VALENTE",
      "house": "107",
      "postcode": "2950-313",
      "city": "PALMELA",
      "lon": "-8.890411072858852",
      "lat": "38.58318123916726"
    },
    {
      "id": "pt.ine.add.PTCONT.4724716",
      "street": "AV ALBERTO VALENTE",
      "house": "67",
      "postcode": "2950-313",
      "city": "PALMELA",
      "lon": "-8.89046784652839",
      "lat": "38.58093782451999"
    },
    {
      "id": "pt.ine.add.PTCONT.4729511",
      "street": "AV ALBERTO VALENTE PATEO 13 A F",
      "house": "13 A F",
      "postcode": "2950-313",
      "city": "PALMELA",
      "lon": "-8.890603930061",
      "lat": "38.57750480966002"
    },
    {
      "id": "pt.ine.add.PTCONT.4734207",
      "street": "R S JULIÃO",
      "house": "14",
      "postcode": "2950-308",
      "city": "PALMELA",
      "lon": "-8.895006134839274",
      "lat": "38.578169869672635"
    },
    {
      "id": "pt.ine.add.PTCONT.4734208",
      "street": "AV ALBERTO VALENTE",
      "house": "97",
      "postcode": "2950-313",
      "city": "PALMELA",
      "lon": "-8.890439445568283",
      "lat": "38.58260452944936"
    },
    {
      "id": "pt.ine.add.PTCONT.4737826",
      "street": "AV ALBERTO VALENTE",
      "house": "87",
      "postcode": "2950-313",
      "city": "PALMELA",
      "lon": "-8.8904912421456",
      "lat": "38.5820727092029"
    },
    {
      "id": "pt.ine.add.PTCONT.4749039",
      "street": "R CAMARRAL",
      "house": "45 P",
      "postcode": "2950-313",
      "city": "PALMELA",
      "lon": "-8.891338195501762",
      "lat": "38.579671037938766"
    },
    {
      "id": "pt.ine.add.PTCONT.4749041",
      "street": "AV ALBERTO VALENTE",
      "house": "37",
      "postcode": "2950-313",
      "city": "PALMELA",
      "lon": "-8.891508727087867",
      "lat": "38.57842679786424"
    },
    {
      "id": "pt.ine.add.PTCONT.4749042",
      "street": "AV ALBERTO VALENTE",
      "house": "37",
      "postcode": "2950-313",
      "city": "PALMELA",
      "lon": "-8.891508727087867",
      "lat": "38.57842679786424"
    },
    {
      "id": "pt.ine.add.PTCONT.4749043",
      "street": "AV ALBERTO VALENTE",
      "house": "37",
      "postcode": "2950-313",
      "city": "PALMELA",
      "lon": "-8.891508727087867",
      "lat": "38.57842679786424"
    },
    {
      "id": "pt.ine.add.PTCONT.4749044",
      "street": "AV ALBERTO VALENTE",
      "house": "37",
      "postcode": "2950-313",
      "city": "PALMELA",
      "lon": "-8.891508727087867",
      "lat": "38.57842679786424"
    },
    {
      "id": "pt.ine.add.PTCONT.4749045",
      "street": "AV ALBERTO VALENTE",
      "house": "37",
      "postcode": "2950-313",
      "city": "PALMELA",
      "lon": "-8.891508727087867",
      "lat": "38.57842679786424"
    },
    {
      "id": "pt.ine.add.PTCONT.4749046",
      "street": "AV ALBERTO VALENTE",
      "house": "37",
      "postcode": "2950-313",
      "city": "PALMELA",
      "lon": "-8.891508727087867",
      "lat": "38.57842679786424"
    },
    {
      "id": "pt.ine.add.PTCONT.4749047",
      "street": "AV ALBERTO VALENTE",
      "house": "37",
      "postcode": "2950-313",
      "city": "PALMELA",
      "lon": "-8.891508727087867",
      "lat": "38.57842679786424"
    },
    {
      "id": "pt.ine.add.PTCONT.4749048",
      "street": "AV ALBERTO VALENTE",
      "house": "37",
      "postcode": "2950-313",
      "city": "PALMELA",
      "lon": "-8.891508727087867",
      "lat": "38.57842679786424"
    },
    {
      "id": "pt.ine.add.PTCONT.4749049",
      "street": "AV ALBERTO VALENTE",
      "house": "37",
      "postcode": "2950-313",
      "city": "PALMELA",
      "lon": "-8.891508727087867",
      "lat": "38.57842679786424"
    },
    {
      "id": "pt.ine.add.PTCONT.4749050",
      "street": "AV ALBERTO VALENTE",
      "house": "37",
      "postcode": "2950-313",
      "city": "PALMELA",
      "lon": "-8.891508727087867",
      "lat": "38.57842679786424"
    },
    {
      "id": "pt.ine.add.PTCONT.4749051",
      "street": "AV ALBERTO VALENTE",
      "house": "37",
      "postcode": "2950-313",
      "city": "PALMELA",
      "lon": "-8.891508727087867",
      "lat": "38.57842679786424"
    },
    {
      "id": "pt.ine.add.PTCONT.4749052",
      "street": "AV ALBERTO VALENTE",
      "house": "37",
      "postcode": "2950-313",
      "city": "PALMELA",
      "lon": "-8.891508727087867",
      "lat": "38.57842679786424"
    },
    {
      "id": "pt.ine.add.PTCONT.4749053",
      "street": "AV ALBERTO VALENTE",
      "house": "37",
      "postcode": "2950-313",
      "city": "PALMELA",
      "lon": "-8.891508727087867",
      "lat": "38.57842679786424"
    },
    {
      "id": "pt.ine.add.PTCONT.4749054",
      "street": "AV ALBERTO VALENTE",
      "house": "37",
      "postcode": "2950-313",
      "city": "PALMELA",
      "lon": "-8.891508727087867",
      "lat": "38.57842679786424"
    },
    {
      "id": "pt.ine.add.PTCONT.4749055",
      "street": "AV ALBERTO VALENTE",
      "house": "37",
      "postcode": "2950-313",
      "city": "PALMELA",
      "lon": "-8.891508727087867",
      "lat": "38.57842679786424"
    },
    {
      "id": "pt.ine.add.PTCONT.4749056",
      "street": "AV ALBERTO VALENTE",
      "house": "37",
      "postcode": "2950-313",
      "city": "PALMELA",
      "lon": "-8.891508727087867",
      "lat": "38.57842679786424"
    },
    {
      "id": "pt.ine.add.PTCONT.4749057",
      "street": "AV ALBERTO VALENTE",
      "house": "37",
      "postcode": "2950-313",
      "city": "PALMELA",
      "lon": "-8.891508727087867",
      "lat": "38.57842679786424"
    },
    {
      "id": "pt.ine.add.PTCONT.4749161",
      "street": "AV ALBERTO VALENTE",
      "house": "",
      "postcode": "2950-313",
      "city": "PALMELA",
      "lon": "-8.890404327103996",
      "lat": "38.58363169381493"
    },
    {
      "id": "pt.ine.add.PTCONT.4750088",
      "street": "AV ALBERTO VALENTE",
      "house": "37",
      "postcode": "2950-313",
      "city": "PALMELA",
      "lon": "-8.891508727087867",
      "lat": "38.57842679786424"
    },
    {
      "id": "pt.ine.add.PTCONT.4750253",
      "street": "AV ALBERTO VALENTE",
      "house": "37",
      "postcode": "2950-313",
      "city": "PALMELA",
      "lon": "-8.891508727087867",
      "lat": "38.57842679786424"
    },
    {
      "id": "pt.ine.add.PTCONT.4750254",
      "street": "AV ALBERTO VALENTE",
      "house": "37",
      "postcode": "2950-313",
      "city": "PALMELA",
      "lon": "-8.891508727087867",
      "lat": "38.57842679786424"
    },
    {
      "id": "pt.ine.add.PTCONT.4767175",
      "street": "AV ALBERTO VALENTE",
      "house": "93",
      "postcode": "2950-313",
      "city": "PALMELA",
      "lon": "-8.890402558935701",
      "lat": "38.582370554371906"
    },
    {
      "id": "pt.ine.add.PTCONT.4770786",
      "street": "AV ALBERTO VALENTE",
      "house": "73",
      "postcode": "2950-313",
      "city": "PALMELA",
      "lon": "-8.890484052111855",
      "lat": "38.58138813082148"
    },
    {
      "id": "pt.ine.add.PTCONT.4771875",
      "street": "AV ALBERTO VALENTE",
      "house": "3",
      "postcode": "2950-313",
      "city": "PALMELA",
      "lon": "-8.890381840397948",
      "lat": "38.57711889293371"
    },
    {
      "id": "pt.ine.add.PTCONT.4772080",
      "street": "R JOÃO PARRANTÓNIO",
      "house": "",
      "postcode": "2950-311",
      "city": "PALMELA",
      "lon": "-8.893728232018162",
      "lat": "38.57778181929223"
    },
    {
      "id": "pt.ine.add.PTCONT.4774179",
      "street": "R JOÃO PARRANTÓNIO QTA S JULIÃO",
      "house": "",
      "postcode": "2950-311",
      "city": "PALMELA",
      "lon": "-8.894299030879585",
      "lat": "38.57749885346791"
    },
    {
      "id": "pt.ine.add.PTCONT.4778549",
      "street": "AV ALBERTO VALENTE",
      "house": "7",
      "postcode": "2950-313",
      "city": "PALMELA",
      "lon": "-8.89037244624453",
      "lat": "38.57731713475977"
    },
    {
      "id": "pt.ine.add.PTCONT.4783320",
      "street": "R CAMARRAL",
      "house": "",
      "postcode": "2950-313",
      "city": "PALMELA",
      "lon": "-8.892430996966215",
      "lat": "38.57882618840354"
    },
    {
      "id": "pt.ine.add.PTCONT.4787947",
      "street": "EN 379",
      "house": "3",
      "postcode": "2950-302",
      "city": "PALMELA",
      "lon": "-8.891186119419846",
      "lat": "38.577212777020684"
    },
    {
      "id": "pt.ine.add.PTCONT.4791551",
      "street": "R S JULIÃO",
      "house": "",
      "postcode": "2950-308",
      "city": "PALMELA",
      "lon": "-8.89399065849384",
      "lat": "38.578725977333725"
    },
    {
      "id": "pt.ine.add.PTCONT.4795813",
      "street": "AV ALBERTO VALENTE",
      "house": "",
      "postcode": "2950-313",
      "city": "PALMELA",
      "lon": "-8.89390049604684",
      "lat": "38.57996969841724"
    },
    {
      "id": "pt.ine.add.PTCONT.4795814",
      "street": "AV ALBERTO VALENTE",
      "house": "49",
      "postcode": "2950-313",
      "city": "PALMELA",
      "lon": "-8.890440573633366",
      "lat": "38.579433627447116"
    },
    {
      "id": "pt.ine.add.PTCONT.4809223",
      "street": "AV ALBERTO VALENTE",
      "house": "83",
      "postcode": "2950-313",
      "city": "PALMELA",
      "lon": "-8.8904659258239",
      "lat": "38.58184766747261"
    },
    {
      "id": "pt.ine.add.PTCONT.4815145",
      "street": "AV ALBERTO VALENTE",
      "house": "5",
      "postcode": "2950-313",
      "city": "PALMELA",
      "lon": "-8.890403475690144",
      "lat": "38.58355062534667"
    },
    {
      "id": "pt.ine.add.PTCONT.4815260",
      "street": "AV ALBERTO VALENTE",
      "house": "113",
      "postcode": "2950-313",
      "city": "PALMELA",
      "lon": "-8.890403475690144",
      "lat": "38.58355062534667"
    },
    {
      "id": "pt.ine.add.PTCONT.4815261",
      "street": "AV ALBERTO VALENTE",
      "house": "61 59",
      "postcode": "2950-313",
      "city": "PALMELA",
      "lon": "-8.890452681763511",
      "lat": "38.58058660191396"
    },
    {
      "id": "pt.ine.add.PTCONT.4815262",
      "street": "AV ALBERTO VALENTE",
      "house": "61 59",
      "postcode": "2950-313",
      "city": "PALMELA",
      "lon": "-8.890452681763511",
      "lat": "38.58058660191396"
    },
    {
      "id": "pt.ine.add.PTCONT.4837740",
      "street": "R S JULIÃO",
      "house": "16",
      "postcode": "2950-308",
      "city": "PALMELA",
      "lon": "-8.89507574604529",
      "lat": "38.57824148231995"
    },
    {
      "id": "pt.ine.add.PTCONT.4841030",
      "street": "AV ALBERTO VALENTE",
      "house": "57",
      "postcode": "2950-313",
      "city": "PALMELA",
      "lon": "-8.890446627611865",
      "lat": "38.58001011470939"
    },
    {
      "id": "pt.ine.add.PTCONT.4844700",
      "street": "R S JULIÃO",
      "house": "",
      "postcode": "2950-308",
      "city": "PALMELA",
      "lon": "-8.894948512888378",
      "lat": "38.57923321530012"
    },
    {
      "id": "pt.ine.add.PTCONT.4844701",
      "street": "AV ALBERTO VALENTE",
      "house": "95",
      "postcode": "2950-313",
      "city": "PALMELA",
      "lon": "-8.89044988062258",
      "lat": "38.582505371492445"
    },
    {
      "id": "pt.ine.add.PTCONT.4852238",
      "street": "R CAMARRAL",
      "house": "45J",
      "postcode": "2950-313",
      "city": "PALMELA",
      "lon": "-8.891055311187548",
      "lat": "38.578961220356554"
    },
    {
      "id": "pt.ine.add.PTCONT.4853421",
      "street": "R S JULIÃO",
      "house": "20",
      "postcode": "2950-308",
      "city": "PALMELA",
      "lon": "-8.89516973507793",
      "lat": "38.57844805958471"
    },
    {
      "id": "pt.ine.add.PTCONT.4856057",
      "street": "AV ALBERTO VALENTE PATEO 13 A",
      "house": "13 A C",
      "postcode": "2950-313",
      "city": "PALMELA",
      "lon": "-8.891202896352054",
      "lat": "38.577717129160455"
    },
    {
      "id": "pt.ine.add.PTCONT.4872977",
      "street": "AV ALBERTO VALENTE",
      "house": "LOS",
      "postcode": "2950-313",
      "city": "PALMELA",
      "lon": "-8.89045546230918",
      "lat": "38.58303682040865"
    },
    {
      "id": "pt.ine.add.PTCONT.4872978",
      "street": "AV ALBERTO VALENTE",
      "house": "LOS",
      "postcode": "2950-313",
      "city": "PALMELA",
      "lon": "-8.89045546230918",
      "lat": "38.58303682040865"
    },
    {
      "id": "pt.ine.add.PTCONT.4872979",
      "street": "AV ALBERTO VALENTE",
      "house": "LOS",
      "postcode": "2950-313",
      "city": "PALMELA",
      "lon": "-8.89045546230918",
      "lat": "38.58303682040865"
    },
    {
      "id": "pt.ine.add.PTCONT.4872980",
      "street": "AV ALBERTO VALENTE",
      "house": "105",
      "postcode": "2950-313",
      "city": "PALMELA",
      "lon": "-8.89045546230918",
      "lat": "38.58303682040865"
    },
    {
      "id": "pt.ine.add.PTCONT.4873131",
      "street": "AV ALBERTO VALENTE",
      "house": "LOS",
      "postcode": "2950-313",
      "city": "PALMELA",
      "lon": "-8.89045546230918",
      "lat": "38.58303682040865"
    },
    {
      "id": "pt.ine.add.PTCONT.4873132",
      "street": "AV ALBERTO VALENTE",
      "house": "LOS",
      "postcode": "2950-313",
      "city": "PALMELA",
      "lon": "-8.89045546230918",
      "lat": "38.58303682040865"
    },
    {
      "id": "pt.ine.add.PTCONT.4873133",
      "street": "AV ALBERTO VALENTE",
      "house": "LOS",
      "postcode": "2950-313",
      "city": "PALMELA",
      "lon": "-8.89045546230918",
      "lat": "38.58303682040865"
    },
    {
      "id": "pt.ine.add.PTCONT.4873135",
      "street": "AV ALBERTO VALENTE PATEO 13 A B",
      "house": "13 A B",
      "postcode": "2950-313",
      "city": "PALMELA",
      "lon": "-8.890949974920712",
      "lat": "38.57767372592402"
    },
    {
      "id": "pt.ine.add.PTCONT.4875781",
      "street": "R S JULIÃO",
      "house": "22",
      "postcode": "2950-308",
      "city": "PALMELA",
      "lon": "-8.895159021480003",
      "lat": "38.57852019514179"
    },
    {
      "id": "pt.ine.add.PTCONT.4886211",
      "street": "AV ALBERTO VALENTE",
      "house": "",
      "postcode": "2950-313",
      "city": "PALMELA",
      "lon": "-8.89108443499322",
      "lat": "38.57845657105193"
    },
    {
      "id": "pt.ine.add.PTCONT.4886212",
      "street": "AV ALBERTO VALENTE",
      "house": "",
      "postcode": "2950-313",
      "city": "PALMELA",
      "lon": "-8.89108443499322",
      "lat": "38.57845657105193"
    },
    {
      "id": "pt.ine.add.PTCONT.4888688",
      "street": "AV ALBERTO VALENTE",
      "house": "",
      "postcode": "2950-313",
      "city": "PALMELA",
      "lon": "-8.89108443499322",
      "lat": "38.57845657105193"
    },
    {
      "id": "pt.ine.add.PTCONT.4888716",
      "street": "AV ALBERTO VALENTE",
      "house": "",
      "postcode": "2950-313",
      "city": "PALMELA",
      "lon": "-8.89108443499322",
      "lat": "38.57845657105193"
    },
    {
      "id": "pt.ine.add.PTCONT.4899258",
      "street": "EN 379",
      "house": "1",
      "postcode": "2950-302",
      "city": "PALMELA",
      "lon": "-8.891105700894222",
      "lat": "38.577204289623324"
    },
    {
      "id": "pt.ine.add.PTCONT.4905691",
      "street": "AV ALBERTO VALENTE",
      "house": "99",
      "postcode": "2950-313",
      "city": "PALMELA",
      "lon": "-8.890406342859272",
      "lat": "38.582730858739495"
    },
    {
      "id": "pt.ine.add.PTCONT.4907575",
      "street": "AV ALBERTO VALENTE",
      "house": "5",
      "postcode": "2950-313",
      "city": "PALMELA",
      "lon": "-8.890555570930628",
      "lat": "38.577270908670314"
    },
    {
      "id": "pt.ine.add.PTCONT.4909995",
      "street": "R JOÃO PARRANTÓNIO",
      "house": "4",
      "postcode": "2950-311",
      "city": "PALMELA",
      "lon": "-8.892933235889972",
      "lat": "38.57748070322366"
    },
    {
      "id": "pt.ine.add.PTCONT.4912191",
      "street": "AV ALBERTO VALENTE",
      "house": "33",
      "postcode": "2950-313",
      "city": "PALMELA",
      "lon": "-8.890463647950392",
      "lat": "38.578352490924054"
    },
    {
      "id": "pt.ine.add.PTCONT.4915969",
      "street": "AV ALBERTO VALENTE",
      "house": "109",
      "postcode": "2950-313",
      "city": "PALMELA",
      "lon": "-8.890400826868962",
      "lat": "38.58329841232698"
    },
    {
      "id": "pt.ine.add.PTCONT.4915970",
      "street": "AV ALBERTO VALENTE",
      "house": "109",
      "postcode": "2950-313",
      "city": "PALMELA",
      "lon": "-8.890400826868962",
      "lat": "38.58329841232698"
    },
    {
      "id": "pt.ine.add.PTCONT.4916095",
      "street": "AV ALBERTO VALENTE",
      "house": "109",
      "postcode": "2950-313",
      "city": "PALMELA",
      "lon": "-8.890400826868962",
      "lat": "38.58329841232698"
    },
    {
      "id": "pt.ine.add.PTCONT.4916096",
      "street": "AV ALBERTO VALENTE",
      "house": "109",
      "postcode": "2950-313",
      "city": "PALMELA",
      "lon": "-8.890400826868962",
      "lat": "38.58329841232698"
    },
    {
      "id": "pt.ine.add.PTCONT.4916097",
      "street": "AV ALBERTO VALENTE",
      "house": "109",
      "postcode": "2950-313",
      "city": "PALMELA",
      "lon": "-8.890400826868962",
      "lat": "38.58329841232698"
    },
    {
      "id": "pt.ine.add.PTCONT.4916098",
      "street": "AV ALBERTO VALENTE",
      "house": "",
      "postcode": "2950-313",
      "city": "PALMELA",
      "lon": "-8.890400826868962",
      "lat": "38.58329841232698"
    },
    {
      "id": "pt.ine.add.PTCONT.4916099",
      "street": "AV ALBERTO VALENTE",
      "house": "109",
      "postcode": "2950-313",
      "city": "PALMELA",
      "lon": "-8.890400826868962",
      "lat": "38.58329841232698"
    },
    {
      "id": "pt.ine.add.PTCONT.4917122",
      "street": "AV ALBERTO VALENTE",
      "house": "",
      "postcode": "2950-313",
      "city": "PALMELA",
      "lon": "-8.890400826868962",
      "lat": "38.58329841232698"
    },
    {
      "id": "pt.ine.add.PTCONT.4919431",
      "street": "",
      "house": "",
      "postcode": "2950-311",
      "city": "PALMELA",
      "lon": "-8.894817493074985",
      "lat": "38.577693661503616"
    },
    {
      "id": "pt.ine.add.PTCONT.4921842",
      "street": "R CAMARRAL",
      "house": "45 I",
      "postcode": "2950-313",
      "city": "PALMELA",
      "lon": "-8.890678051665914",
      "lat": "38.579098786213855"
    },
    {
      "id": "pt.ine.add.PTCONT.4940839",
      "street": "AV ALBERTO VALENTE",
      "house": "85",
      "postcode": "2950-313",
      "city": "PALMELA",
      "lon": "-8.890478252845082",
      "lat": "38.58192866170483"
    },
    {
      "id": "pt.ine.add.PTCONT.4940975",
      "street": "R S JULIÃO",
      "house": "18",
      "postcode": "2950-308",
      "city": "PALMELA",
      "lon": "-8.895123263946102",
      "lat": "38.57839431279515"
    },
    {
      "id": "pt.ine.add.PTCONT.4955269",
      "street": "AV ALBERTO VALENTE",
      "house": "45",
      "postcode": "2950-313",
      "city": "PALMELA",
      "lon": "-8.891223064463228",
      "lat": "38.57963575083228"
    },
    {
      "id": "pt.ine.add.PTCONT.4966143",
      "street": "AV ALBERTO VALENTE",
      "house": "103",
      "postcode": "2950-313",
      "city": "PALMELA",
      "lon": "-8.890443135103487",
      "lat": "38.58295582619095"
    },
    {
      "id": "pt.ine.add.PTCONT.4969769",
      "street": "R S JULIÃO",
      "house": "",
      "postcode": "2950-308",
      "city": "PALMELA",
      "lon": "-8.894285777933709",
      "lat": "38.578417778753014"
    },
    {
      "id": "pt.ine.add.PTCONT.4971218",
      "street": "R JOÃO PARRANTÓNIO",
      "house": "",
      "postcode": "2950-311",
      "city": "PALMELA",
      "lon": "-8.89343121351289",
      "lat": "38.57790986430024"
    },
    {
      "id": "pt.ine.add.PTCONT.4984313",
      "street": "AV ALBERTO VALENTE",
      "house": "1",
      "postcode": "2950-313",
      "city": "PALMELA",
      "lon": "-8.89046178581691",
      "lat": "38.57708234274304"
    },
    {
      "id": "pt.ine.add.PTCONT.4985843",
      "street": "AV ALBERTO VALENTE",
      "house": "1",
      "postcode": "2950-313",
      "city": "PALMELA",
      "lon": "-8.89046178581691",
      "lat": "38.57708234274304"
    },
    {
      "id": "pt.ine.add.PTCONT.4999110",
      "street": "AV ALBERTO VALENTE",
      "house": "53",
      "postcode": "2950-313",
      "city": "PALMELA",
      "lon": "-8.890464848350463",
      "lat": "38.579559585535016"
    },
    {
      "id": "pt.ine.add.PTCONT.5012641",
      "street": "AV ALBERTO VALENTE",
      "house": "79",
      "postcode": "2950-313",
      "city": "PALMELA",
      "lon": "-8.890475603915936",
      "lat": "38.5816764486194"
    },
    {
      "id": "pt.ine.add.PTCONT.5012642",
      "street": "R CAMARRAL",
      "house": "45P",
      "postcode": "2950-313",
      "city": "PALMELA",
      "lon": "-8.891890048882944",
      "lat": "38.57976655204966"
    },
    {
      "id": "pt.ine.add.PTCONT.5012643",
      "street": "AV ALBERTO VALENTE",
      "house": "17",
      "postcode": "2950-313",
      "city": "PALMELA",
      "lon": "-8.890674103976218",
      "lat": "38.57763047068256"
    },
    {
      "id": "pt.ine.add.PTCONT.5014840",
      "street": "AV ALBERTO VALENTE",
      "house": "17",
      "postcode": "2950-313",
      "city": "PALMELA",
      "lon": "-8.890674103976218",
      "lat": "38.57763047068256"
    },
    {
      "id": "pt.ine.add.PTCONT.5022121",
      "street": "AV ALBERTO VALENTE",
      "house": "71",
      "postcode": "2950-313",
      "city": "PALMELA",
      "lon": "-8.890459303690134",
      "lat": "38.5812171347278"
    },
    {
      "id": "pt.ine.add.PTCONT.5028518",
      "street": "AV ALBERTO VALENTE",
      "house": "",
      "postcode": "2950-313",
      "city": "PALMELA",
      "lon": "-8.89137216319824",
      "lat": "38.57853578139829"
    },
    {
      "id": "pt.ine.add.PTCONT.5028519",
      "street": "AV ALBERTO VALENTE",
      "house": "",
      "postcode": "2950-313",
      "city": "PALMELA",
      "lon": "-8.89137216319824",
      "lat": "38.57853578139829"
    },
    {
      "id": "pt.ine.add.PTCONT.5028520",
      "street": "AV ALBERTO VALENTE",
      "house": "",
      "postcode": "2950-313",
      "city": "PALMELA",
      "lon": "-8.89137216319824",
      "lat": "38.57853578139829"
    },
    {
      "id": "pt.ine.add.PTCONT.5028521",
      "street": "AV ALBERTO VALENTE",
      "house": "",
      "postcode": "2950-313",
      "city": "PALMELA",
      "lon": "-8.89137216319824",
      "lat": "38.57853578139829"
    },
    {
      "id": "pt.ine.add.PTCONT.5028522",
      "street": "AV ALBERTO VALENTE",
      "house": "23",
      "postcode": "2950-313",
      "city": "PALMELA",
      "lon": "-8.89045759419455",
      "lat": "38.57777600350033"
    },
    {
      "id": "pt.ine.add.PTCONT.5028523",
      "street": "AV ALBERTO VALENTE",
      "house": "23",
      "postcode": "2950-313",
      "city": "PALMELA",
      "lon": "-8.89045759419455",
      "lat": "38.57777600350033"
    },
    {
      "id": "pt.ine.add.PTCONT.5028524",
      "street": "AV ALBERTO VALENTE",
      "house": "5",
      "postcode": "2950-313",
      "city": "PALMELA",
      "lon": "-8.890371595058667",
      "lat": "38.57723606620322"
    },
    {
      "id": "pt.ine.add.PTCONT.5028525",
      "street": "AV ALBERTO VALENTE",
      "house": "5",
      "postcode": "2950-313",
      "city": "PALMELA",
      "lon": "-8.890371595058667",
      "lat": "38.57723606620322"
    },
    {
      "id": "pt.ine.add.PTCONT.5028673",
      "street": "R S JULIAO",
      "house": "12",
      "postcode": "2950-308",
      "city": "PALMELA",
      "lon": "-8.89493576258106",
      "lat": "38.57802619612847"
    },
    {
      "id": "pt.ine.add.PTCONT.5029961",
      "street": "AV ALBERTO VALENTE",
      "house": "63",
      "postcode": "2950-313",
      "city": "PALMELA",
      "lon": "-8.890453533142471",
      "lat": "38.580667670422436"
    },
    {
      "id": "pt.ine.add.PTCONT.5029962",
      "street": "AV ALBERTO VALENTE",
      "house": "63",
      "postcode": "2950-313",
      "city": "PALMELA",
      "lon": "-8.890453533142471",
      "lat": "38.580667670422436"
    },
    {
      "id": "pt.ine.add.PTCONT.5029963",
      "street": "AV ALBERTO VALENTE",
      "house": "23",
      "postcode": "2950-313",
      "city": "PALMELA",
      "lon": "-8.89045759419455",
      "lat": "38.57777600350033"
    },
    {
      "id": "pt.ine.add.PTCONT.5029964",
      "street": "AV ALBERTO VALENTE",
      "house": "23",
      "postcode": "2950-313",
      "city": "PALMELA",
      "lon": "-8.89045759419455",
      "lat": "38.57777600350033"
    },
    {
      "id": "pt.ine.add.PTCONT.5032505",
      "street": "AV ALBERTO VALENTE",
      "house": "",
      "postcode": "2950-313",
      "city": "PALMELA",
      "lon": "-8.894540448036436",
      "lat": "38.579713306600084"
    },
    {
      "id": "pt.ine.add.PTCONT.5032506",
      "street": "AV ALBERTO VALENTE",
      "house": "43",
      "postcode": "2950-313",
      "city": "PALMELA",
      "lon": "-8.891497048913457",
      "lat": "38.579498852453675"
    },
    {
      "id": "pt.ine.add.PTCONT.5032507",
      "street": "AV ALBERTO VALENTE",
      "house": "27",
      "postcode": "2950-313",
      "city": "PALMELA",
      "lon": "-8.890448483958226",
      "lat": "38.5780012681575"
    },
    {
      "id": "pt.ine.add.PTCONT.5032508",
      "street": "AV ALBERTO VALENTE",
      "house": "27",
      "postcode": "2950-313",
      "city": "PALMELA",
      "lon": "-8.890448483958226",
      "lat": "38.5780012681575"
    },
    {
      "id": "pt.ine.add.PTCONT.5044283",
      "street": "R JOÃO PARRANTÓNIO",
      "house": "",
      "postcode": "2950-311",
      "city": "PALMELA",
      "lon": "-8.89312072562215",
      "lat": "38.577848823251934"
    },
    {
      "id": "pt.ine.add.PTCONT.5054278",
      "street": "AV ALBERTO VALENTE",
      "house": "75",
      "postcode": "2950-313",
      "city": "PALMELA",
      "lon": "-8.89047342803465",
      "lat": "38.581469273576715"
    },
    {
      "id": "pt.ine.add.PTCONT.5054279",
      "street": "AV ALBERTO VALENTE PATEO 13 A",
      "house": "11 9",
      "postcode": "2950-313",
      "city": "PALMELA",
      "lon": "-8.890373297433818",
      "lat": "38.577398203315184"
    },
    {
      "id": "pt.ine.add.PTCONT.5054280",
      "street": "AV ALBERTO VALENTE PATEO 13 A",
      "house": "11 9",
      "postcode": "2950-313",
      "city": "PALMELA",
      "lon": "-8.890373297433818",
      "lat": "38.577398203315184"
    },
    {
      "id": "pt.ine.add.PTCONT.5064906",
      "street": "R S JULIÃO",
      "house": "",
      "postcode": "2950-308",
      "city": "PALMELA",
      "lon": "-8.895289245039393",
      "lat": "38.57889769264286"
    },
    {
      "id": "pt.ine.add.PTCONT.5066079",
      "street": "AV ALBERTO VALENTE",
      "house": "101",
      "postcode": "2950-313",
      "city": "PALMELA",
      "lon": "-8.89040700505285",
      "lat": "38.58279391200151"
    },
    {
      "id": "pt.ine.add.PTCONT.5071880",
      "street": "AV ALBERTO VALENTE",
      "house": "69",
      "postcode": "2950-313",
      "city": "PALMELA",
      "lon": "-8.890469833149343",
      "lat": "38.581126984359365"
    },
    {
      "id": "pt.ine.add.PTCONT.5071882",
      "street": "AV ALBERTO VALENTE",
      "house": "51 A",
      "postcode": "2950-313",
      "city": "PALMELA",
      "lon": "-8.890443600600976",
      "lat": "38.57972187108547"
    },
    {
      "id": "pt.ine.add.PTCONT.5084020",
      "street": "R S JULIÃO",
      "house": "24",
      "postcode": "2950-308",
      "city": "PALMELA",
      "lon": "-8.89522901392941",
      "lat": "38.578627838109604"
    },
    {
      "id": "pt.ine.add.PTCONT.5095622",
      "street": "AV ALBERTO VALENTE",
      "house": "41",
      "postcode": "2950-313",
      "city": "PALMELA",
      "lon": "-8.890413183208757",
      "lat": "38.58228941163337"
    },
    {
      "id": "pt.ine.add.PTCONT.5099746",
      "street": "AV ALBERTO VALENTE",
      "house": "111",
      "postcode": "2950-313",
      "city": "PALMELA",
      "lon": "-8.890413532500396",
      "lat": "38.58341543697578"
    },
    {
      "id": "pt.ine.add.PTCONT.5101956",
      "street": "AV ALBERTO VALENTE",
      "house": "111",
      "postcode": "2950-313",
      "city": "PALMELA",
      "lon": "-8.890413532500396",
      "lat": "38.58341543697578"
    },
    {
      "id": "pt.ine.add.PTCONT.5104101",
      "street": "R UNICER VI CASA CARACOL",
      "house": "",
      "postcode": "2950-308",
      "city": "PALMELA",
      "lon": "-8.894839908696065",
      "lat": "38.57872946158777"
    },
    {
      "id": "pt.ine.add.PTCONT.5111028",
      "street": "AV ALBERTO VALENTE",
      "house": "65",
      "postcode": "2950-313",
      "city": "PALMELA",
      "lon": "-8.890455235910668",
      "lat": "38.58082980743606"
    },
    {
      "id": "pt.ine.add.PTCONT.5111031",
      "street": "AV ALBERTO VALENTE PATEO 13 A E",
      "house": "13 A E",
      "postcode": "2950-313",
      "city": "PALMELA",
      "lon": "-8.890420615649345",
      "lat": "38.57753302059526"
    },
    {
      "id": "pt.ine.add.PTCONT.5124722",
      "street": "AV ALBERTO VALENTE",
      "house": "89",
      "postcode": "2950-313",
      "city": "PALMELA",
      "lon": "-8.89048071259468",
      "lat": "38.58216285955996"
    },
    {
      "id": "pt.ine.add.PTCONT.5127135",
      "street": "AV ALBERTO VALENTE",
      "house": "LOS",
      "postcode": "2950-313",
      "city": "PALMELA",
      "lon": "-8.89045546230918",
      "lat": "38.58303682040865"
    }
  ]
}