{
  "data": {
    "distrito": "Lisboa",
    "concelho": "Cadaval",
    "freguesia": "Uni√£o das freguesias de Lamas e Cercal",
    "OBJECTID": 181,
    "BGRI2021": "11041200338",
    "DT21": "11",
    "DTMN21": "1104",
    "DTMNFR21": "110412",
    "DTMNFRSEC21": "110412003",
    "SECNUM21": "003",
    "SSNUM21": "38",
    "SECSSNUM21": "00338",
    "OBJECTID_1": 100326,
    "DT": "11",
    "CC": "04",
    "fr": "12",
    "SEC": "003",
    "SS": "38"
  },
  "addresses": [
    {
      "id": "pt.ine.add.PTCONT.2278002",
      "street": "R QUINTA",
      "house": "4",
      "postcode": "2550-354",
      "city": "LAMAS CDV",
      "lon": "-9.087952333932128",
      "lat": "39.222323419938625"
    },
    {
      "id": "pt.ine.add.PTCONT.2304854",
      "street": "LG COUTELARIA",
      "house": "34",
      "postcode": "2550-354",
      "city": "LAMAS CDV",
      "lon": "-9.088629262052448",
      "lat": "39.222714183642985"
    },
    {
      "id": "pt.ine.add.PTCONT.2341878",
      "street": "LG COUTELARIA",
      "house": "36",
      "postcode": "2550-354",
      "city": "LAMAS CDV",
      "lon": "-9.088697146077646",
      "lat": "39.222596533749545"
    },
    {
      "id": "pt.ine.add.PTCONT.2350315",
      "street": "BC CHARNECA",
      "house": "6",
      "postcode": "2550-354",
      "city": "LAMAS CDV",
      "lon": "-9.08830017836789",
      "lat": "39.22235659658842"
    },
    {
      "id": "pt.ine.add.PTCONT.2358880",
      "street": "R QUINTA",
      "house": "28",
      "postcode": "2550-354",
      "city": "LAMAS CDV",
      "lon": "-9.088170202915208",
      "lat": "39.21960147245368"
    },
    {
      "id": "pt.ine.add.PTCONT.2370722",
      "street": "R QUINTA",
      "house": "2",
      "postcode": "2550-354",
      "city": "LAMAS CDV",
      "lon": "-9.0883521080717",
      "lat": "39.22277049981849"
    },
    {
      "id": "pt.ine.add.PTCONT.2374545",
      "street": "R QUINTA",
      "house": "2",
      "postcode": "2550-354",
      "city": "LAMAS CDV",
      "lon": "-9.0883521080717",
      "lat": "39.22277049981849"
    },
    {
      "id": "pt.ine.add.PTCONT.2414532",
      "street": "LG COUTELARIA",
      "house": "24",
      "postcode": "2550-354",
      "city": "LAMAS CDV",
      "lon": "-9.088911912307882",
      "lat": "39.223063143610325"
    },
    {
      "id": "pt.ine.add.PTCONT.2498987",
      "street": "R PERDIGOTA",
      "house": "3",
      "postcode": "2550-354",
      "city": "LAMAS CDV",
      "lon": "-9.089476577570922",
      "lat": "39.22286035136661"
    },
    {
      "id": "pt.ine.add.PTCONT.2523108",
      "street": "LG COUTELARIA",
      "house": "20",
      "postcode": "2550-354",
      "city": "LAMAS CDV",
      "lon": "-9.089063900897617",
      "lat": "39.22316998216346"
    },
    {
      "id": "pt.ine.add.PTCONT.2609359",
      "street": "BC CHARNECA",
      "house": "4",
      "postcode": "2550-354",
      "city": "LAMAS CDV",
      "lon": "-9.088430228246585",
      "lat": "39.222553687438925"
    },
    {
      "id": "pt.ine.add.PTCONT.2622010",
      "street": "R QUINTA",
      "house": "8",
      "postcode": "2550-354",
      "city": "LAMAS CDV",
      "lon": "-9.088118079068282",
      "lat": "39.22173659604933"
    },
    {
      "id": "pt.ine.add.PTCONT.2640974",
      "street": "LG COUTELARIA",
      "house": "30",
      "postcode": "2550-354",
      "city": "LAMAS CDV",
      "lon": "-9.088781615857071",
      "lat": "39.2228480410402"
    },
    {
      "id": "pt.ine.add.PTCONT.2686246",
      "street": "LG COUTELARIA",
      "house": "28",
      "postcode": "2550-354",
      "city": "LAMAS CDV",
      "lon": "-9.08890788136154",
      "lat": "39.22276594062836"
    },
    {
      "id": "pt.ine.add.PTCONT.2733807",
      "street": "LG COUTELARIA",
      "house": "22",
      "postcode": "2550-354",
      "city": "LAMAS CDV",
      "lon": "-9.088993573716888",
      "lat": "39.22310750925235"
    },
    {
      "id": "pt.ine.add.PTCONT.2908598",
      "street": "BC CHARNECA",
      "house": "2",
      "postcode": "2550-354",
      "city": "LAMAS CDV",
      "lon": "-9.088500065987363",
      "lat": "39.22258013609893"
    },
    {
      "id": "pt.ine.add.PTCONT.2990524",
      "street": "R QUINTA",
      "house": "10",
      "postcode": "2550-354",
      "city": "LAMAS CDV",
      "lon": "-9.088150983681127",
      "lat": "39.22160121893029"
    },
    {
      "id": "pt.ine.add.PTCONT.3111072",
      "street": "R PERDIGOTA",
      "house": "32",
      "postcode": "2550-354",
      "city": "LAMAS CDV",
      "lon": "-9.091104161750664",
      "lat": "39.22077533117553"
    },
    {
      "id": "pt.ine.add.PTCONT.3164870",
      "street": "R QUINTA",
      "house": "16",
      "postcode": "2550-354",
      "city": "LAMAS CDV",
      "lon": "-9.088145948391997",
      "lat": "39.21952060688992"
    },
    {
      "id": "pt.ine.add.PTCONT.3176176",
      "street": "R QUINTA",
      "house": "12",
      "postcode": "2550-354",
      "city": "LAMAS CDV",
      "lon": "-9.08809077283333",
      "lat": "39.22143057663132"
    },
    {
      "id": "pt.ine.add.PTCONT.3213263",
      "street": "LG COUTELARIA",
      "house": "26",
      "postcode": "2550-354",
      "city": "LAMAS CDV",
      "lon": "-9.088853041873254",
      "lat": "39.22299156944714"
    },
    {
      "id": "pt.ine.add.PTCONT.3231993",
      "street": "LG COUTELARIA",
      "house": "32",
      "postcode": "2550-354",
      "city": "LAMAS CDV",
      "lon": "-9.088676675531216",
      "lat": "39.22279485906847"
    },
    {
      "id": "pt.ine.add.PTCONT.3259731",
      "street": "R QUINTA",
      "house": "30",
      "postcode": "2550-354",
      "city": "LAMAS CDV",
      "lon": "-9.088095883168991",
      "lat": "39.22095315544812"
    },
    {
      "id": "pt.ine.add.PTCONT.3305203",
      "street": "R PERDIGOTA",
      "house": "",
      "postcode": "2550-354",
      "city": "LAMAS CDV",
      "lon": "-9.091066173002991",
      "lat": "39.22138813014031"
    },
    {
      "id": "pt.ine.add.PTCONT.3437104",
      "street": "R QUINTA",
      "house": "",
      "postcode": "2550-354",
      "city": "LAMAS CDV",
      "lon": "-9.088575781738358",
      "lat": "39.21876948768975"
    }
  ]
}