{
  "data": {
    "distrito": "Lisboa",
    "concelho": "Cadaval",
    "freguesia": "Uni√£o das freguesias de Lamas e Cercal",
    "OBJECTID": 111,
    "BGRI2021": "11041200339",
    "DT21": "11",
    "DTMN21": "1104",
    "DTMNFR21": "110412",
    "DTMNFRSEC21": "110412003",
    "SECNUM21": "003",
    "SSNUM21": "39",
    "SECSSNUM21": "00339",
    "OBJECTID_1": 100375,
    "DT": "11",
    "CC": "04",
    "fr": "12",
    "SEC": "003",
    "SS": "39"
  },
  "addresses": [
    {
      "id": "pt.ine.add.PTCONT.2286984",
      "street": "R LIBERDADE",
      "house": "GA",
      "postcode": "2550-354",
      "city": "LAMAS CDV",
      "lon": "-9.088679018734368",
      "lat": "39.223821655267756"
    },
    {
      "id": "pt.ine.add.PTCONT.2332025",
      "street": "EN 115",
      "house": "46",
      "postcode": "2550-355",
      "city": "LAMAS CDV",
      "lon": "-9.089345613077164",
      "lat": "39.227716280163705"
    },
    {
      "id": "pt.ine.add.PTCONT.2347591",
      "street": "EN 115",
      "house": "44",
      "postcode": "2550-355",
      "city": "LAMAS CDV",
      "lon": "-9.089268101419856",
      "lat": "39.22797812371421"
    },
    {
      "id": "pt.ine.add.PTCONT.2350349",
      "street": "R PRINCIPAL",
      "house": "1",
      "postcode": "2550-354",
      "city": "LAMAS CDV",
      "lon": "-9.089151456118781",
      "lat": "39.22450232202175"
    },
    {
      "id": "pt.ine.add.PTCONT.2423857",
      "street": "LG COUDELARIA",
      "house": "8",
      "postcode": "2550-354",
      "city": "LAMAS CDV",
      "lon": "-9.088688643511562",
      "lat": "39.22367746187301"
    },
    {
      "id": "pt.ine.add.PTCONT.2444541",
      "street": "R PRINCIPAL",
      "house": "29",
      "postcode": "2550-354",
      "city": "LAMAS CDV",
      "lon": "-9.088671540022997",
      "lat": "39.22668599028887"
    },
    {
      "id": "pt.ine.add.PTCONT.2451146",
      "street": "EN 115",
      "house": "14",
      "postcode": "2550-355",
      "city": "LAMAS CDV",
      "lon": "-9.092152536884932",
      "lat": "39.225486451396996"
    },
    {
      "id": "pt.ine.add.PTCONT.2498986",
      "street": "R PERDIGOTA",
      "house": "16",
      "postcode": "2550-354",
      "city": "LAMAS CDV",
      "lon": "-9.09026049876008",
      "lat": "39.222601711983444"
    },
    {
      "id": "pt.ine.add.PTCONT.2505363",
      "street": "R PERDIGOTA",
      "house": "18",
      "postcode": "2550-354",
      "city": "LAMAS CDV",
      "lon": "-9.090350436065384",
      "lat": "39.222402815535865"
    },
    {
      "id": "pt.ine.add.PTCONT.2556225",
      "street": "R ESPIGA",
      "house": "16",
      "postcode": "2550-355",
      "city": "LAMAS CDV",
      "lon": "-9.09228431971356",
      "lat": "39.225809623563755"
    },
    {
      "id": "pt.ine.add.PTCONT.2556226",
      "street": "EN 115",
      "house": "24",
      "postcode": "2550-355",
      "city": "LAMAS CDV",
      "lon": "-9.091711980914848",
      "lat": "39.22630072124152"
    },
    {
      "id": "pt.ine.add.PTCONT.2556227",
      "street": "R ESPIGA",
      "house": "",
      "postcode": "2550-355",
      "city": "LAMAS CDV",
      "lon": "-9.090312900850874",
      "lat": "39.22731202054158"
    },
    {
      "id": "pt.ine.add.PTCONT.2586367",
      "street": "R PERDIGOTA",
      "house": "12",
      "postcode": "2550-354",
      "city": "LAMAS CDV",
      "lon": "-9.0901667693583",
      "lat": "39.22252141777159"
    },
    {
      "id": "pt.ine.add.PTCONT.2689855",
      "street": "R PRINCIPAL",
      "house": "13",
      "postcode": "2550-354",
      "city": "LAMAS CDV",
      "lon": "-9.088389080395405",
      "lat": "39.2246436842998"
    },
    {
      "id": "pt.ine.add.PTCONT.2746722",
      "street": "R PERDIGOTA",
      "house": "14",
      "postcode": "2550-354",
      "city": "LAMAS CDV",
      "lon": "-9.090247085394317",
      "lat": "39.22246671490716"
    },
    {
      "id": "pt.ine.add.PTCONT.2761238",
      "street": "R PRINCIPAL",
      "house": "7",
      "postcode": "2550-354",
      "city": "LAMAS CDV",
      "lon": "-9.088347628968085",
      "lat": "39.224148630925825"
    },
    {
      "id": "pt.ine.add.PTCONT.2782233",
      "street": "EN 115",
      "house": "26",
      "postcode": "2550-355",
      "city": "LAMAS CDV",
      "lon": "-9.091311241037568",
      "lat": "39.2266372830659"
    },
    {
      "id": "pt.ine.add.PTCONT.2850274",
      "street": "R ESPIGA",
      "house": "12",
      "postcode": "2550-355",
      "city": "LAMAS CDV",
      "lon": "-9.09216007092042",
      "lat": "39.22518915348232"
    },
    {
      "id": "pt.ine.add.PTCONT.2873197",
      "street": "LG COUDELARIA",
      "house": "16",
      "postcode": "2550-354",
      "city": "LAMAS CDV",
      "lon": "-9.089555461249798",
      "lat": "39.223553254401075"
    },
    {
      "id": "pt.ine.add.PTCONT.2954515",
      "street": "R ESPIGA",
      "house": "10",
      "postcode": "2550-354",
      "city": "LAMAS CDV",
      "lon": "-9.092623966523506",
      "lat": "39.225239375831634"
    },
    {
      "id": "pt.ine.add.PTCONT.2990566",
      "street": "R PERDIGOTA",
      "house": "14",
      "postcode": "2550-354",
      "city": "LAMAS CDV",
      "lon": "-9.089499523220114",
      "lat": "39.223697828143244"
    },
    {
      "id": "pt.ine.add.PTCONT.2999892",
      "street": "R PRINCIPAL",
      "house": "17",
      "postcode": "2550-354",
      "city": "LAMAS CDV",
      "lon": "-9.088181148099235",
      "lat": "39.22468141804734"
    },
    {
      "id": "pt.ine.add.PTCONT.3027463",
      "street": "R PRINCIPAL",
      "house": "11",
      "postcode": "2550-354",
      "city": "LAMAS CDV",
      "lon": "-9.08820162048177",
      "lat": "39.224483092855024"
    },
    {
      "id": "pt.ine.add.PTCONT.3045342",
      "street": "R ESPIGA",
      "house": "30",
      "postcode": "2550-355",
      "city": "LAMAS CDV",
      "lon": "-9.090990817789049",
      "lat": "39.226919140147935"
    },
    {
      "id": "pt.ine.add.PTCONT.3055038",
      "street": "R PRINCIPAL",
      "house": "9",
      "postcode": "2550-354",
      "city": "LAMAS CDV",
      "lon": "-9.088372984207153",
      "lat": "39.22431055171402"
    },
    {
      "id": "pt.ine.add.PTCONT.3074287",
      "street": "R ESPIGA",
      "house": "42",
      "postcode": "2550-355",
      "city": "LAMAS CDV",
      "lon": "-9.089731524492782",
      "lat": "39.22799233279324"
    },
    {
      "id": "pt.ine.add.PTCONT.3074288",
      "street": "R ESPIGA",
      "house": "42",
      "postcode": "2550-355",
      "city": "LAMAS CDV",
      "lon": "-9.089731524492782",
      "lat": "39.22799233279324"
    },
    {
      "id": "pt.ine.add.PTCONT.3074289",
      "street": "R ESPIGA",
      "house": "42",
      "postcode": "2550-355",
      "city": "LAMAS CDV",
      "lon": "-9.089731524492782",
      "lat": "39.22799233279324"
    },
    {
      "id": "pt.ine.add.PTCONT.3093075",
      "street": "R ESPIGA",
      "house": "40",
      "postcode": "2550-355",
      "city": "LAMAS CDV",
      "lon": "-9.089937508790046",
      "lat": "39.22781049793946"
    },
    {
      "id": "pt.ine.add.PTCONT.3145362",
      "street": "LG DA CUTELARIA",
      "house": "10",
      "postcode": "2550-380",
      "city": "LAMAS CDV",
      "lon": "-9.089623867991842",
      "lat": "39.224327307689435"
    },
    {
      "id": "pt.ine.add.PTCONT.3213308",
      "street": "R PERDIGOTA",
      "house": "",
      "postcode": "2550-354",
      "city": "LAMAS CDV",
      "lon": "-9.09050267005638",
      "lat": "39.2225276645092"
    },
    {
      "id": "pt.ine.add.PTCONT.3222555",
      "street": "R ESPIGA",
      "house": "8",
      "postcode": "2550-354",
      "city": "LAMAS CDV",
      "lon": "-9.092713777688868",
      "lat": "39.22503147155141"
    },
    {
      "id": "pt.ine.add.PTCONT.3265427",
      "street": "R PERDIGOTA",
      "house": "20",
      "postcode": "2550-354",
      "city": "LAMAS CDV",
      "lon": "-9.090454031237776",
      "lat": "39.22235692837004"
    },
    {
      "id": "pt.ine.add.PTCONT.3298817",
      "street": "R PRINCIPAL",
      "house": "5",
      "postcode": "2550-354",
      "city": "LAMAS CDV",
      "lon": "-9.088670126667118",
      "lat": "39.2240198855582"
    },
    {
      "id": "pt.ine.add.PTCONT.3305202",
      "street": "EN 115",
      "house": "22",
      "postcode": "2550-355",
      "city": "LAMAS CDV",
      "lon": "-9.091905763290272",
      "lat": "39.22607394758295"
    },
    {
      "id": "pt.ine.add.PTCONT.3314804",
      "street": "R ESPIGA",
      "house": "28",
      "postcode": "2550-355",
      "city": "LAMAS CDV",
      "lon": "-9.091151213412854",
      "lat": "39.22679172092344"
    },
    {
      "id": "pt.ine.add.PTCONT.3324235",
      "street": "EN 115",
      "house": "48",
      "postcode": "2550-354",
      "city": "LAMAS CDV",
      "lon": "-9.0890228554979",
      "lat": "39.22782701522875"
    },
    {
      "id": "pt.ine.add.PTCONT.3379426",
      "street": "R PERDIGOTA",
      "house": "18 A",
      "postcode": "2550-354",
      "city": "LAMAS CDV",
      "lon": "-9.090420641375234",
      "lat": "39.22245628148127"
    },
    {
      "id": "pt.ine.add.PTCONT.3379427",
      "street": "R ESPIGA",
      "house": "22",
      "postcode": "2550-355",
      "city": "LAMAS CDV",
      "lon": "-9.091826669878406",
      "lat": "39.226218712975076"
    },
    {
      "id": "pt.ine.add.PTCONT.3435546",
      "street": "LG COUDELARIA",
      "house": "6",
      "postcode": "2550-354",
      "city": "LAMAS CDV",
      "lon": "-9.088573832797818",
      "lat": "39.22375046092826"
    },
    {
      "id": "pt.ine.add.PTCONT.3441506",
      "street": "EN 115",
      "house": "2",
      "postcode": "2550-354",
      "city": "LAMAS CDV",
      "lon": "-9.093943025668938",
      "lat": "39.224309773184096"
    },
    {
      "id": "pt.ine.add.PTCONT.3447003",
      "street": "R ESPIGA",
      "house": "18",
      "postcode": "2550-355",
      "city": "LAMAS CDV",
      "lon": "-9.092135139763682",
      "lat": "39.22590993056603"
    }
  ]
}