{
  "data": {
    "distrito": "Castelo Branco",
    "concelho": "Oleiros",
    "freguesia": "Oleiros-Amieira",
    "OBJECTID": 142,
    "BGRI2021": "05061400217",
    "DT21": "05",
    "DTMN21": "0506",
    "DTMNFR21": "050614",
    "DTMNFRSEC21": "050614002",
    "SECNUM21": "002",
    "SSNUM21": "17",
    "SECSSNUM21": "00217",
    "OBJECTID_1": 45092,
    "DT": "05",
    "CC": "06",
    "fr": "14",
    "SEC": "002",
    "SS": "17"
  },
  "addresses": [
    {
      "id": "pt.ine.add.PTCONT.960193",
      "street": "R PORTO DE ALVARO",
      "house": "2",
      "postcode": "6160-461",
      "city": "OLEIROS",
      "lon": "-7.9175322094152145",
      "lat": "39.921303269528245"
    },
    {
      "id": "pt.ine.add.PTCONT.977557",
      "street": "URB PORTO DE ALVAR",
      "house": "19",
      "postcode": "6160-461",
      "city": "OLEIROS",
      "lon": "-7.916251986508894",
      "lat": "39.92296704950985"
    },
    {
      "id": "pt.ine.add.PTCONT.998196",
      "street": "URB PORTO DE ALVAR",
      "house": "21",
      "postcode": "6160-461",
      "city": "OLEIROS",
      "lon": "-7.9161226915751435",
      "lat": "39.92316494639548"
    },
    {
      "id": "pt.ine.add.PTCONT.1028568",
      "street": "R D VICENTE",
      "house": "",
      "postcode": "6160-337",
      "city": "OLEIROS",
      "lon": "-7.916156163123281",
      "lat": "39.923678368515844"
    },
    {
      "id": "pt.ine.add.PTCONT.1032539",
      "street": "R PORTO DE ALVARO",
      "house": "5",
      "postcode": "6160-461",
      "city": "OLEIROS",
      "lon": "-7.917238965650867",
      "lat": "39.921563906973226"
    },
    {
      "id": "pt.ine.add.PTCONT.1034188",
      "street": "R PORTO DE ALVARO",
      "house": "7",
      "postcode": "6160-461",
      "city": "OLEIROS",
      "lon": "-7.917180112948177",
      "lat": "39.92168087942174"
    },
    {
      "id": "pt.ine.add.PTCONT.1044960",
      "street": "R PORTO DE ALVARO",
      "house": "17",
      "postcode": "6160-461",
      "city": "OLEIROS",
      "lon": "-7.916639526501318",
      "lat": "39.922481433001316"
    },
    {
      "id": "pt.ine.add.PTCONT.1044961",
      "street": "R PORTO DE ALVARO",
      "house": "3",
      "postcode": "6160-461",
      "city": "OLEIROS",
      "lon": "-7.917391393902257",
      "lat": "39.92144710861217"
    },
    {
      "id": "pt.ine.add.PTCONT.1054038",
      "street": "R PORTO DE ALVARO",
      "house": "13",
      "postcode": "6160-461",
      "city": "OLEIROS",
      "lon": "-7.916768648592106",
      "lat": "39.9223375730431"
    },
    {
      "id": "pt.ine.add.PTCONT.1084769",
      "street": "R PORTO DE ALVARO",
      "house": "8",
      "postcode": "6160-461",
      "city": "OLEIROS",
      "lon": "-7.917365032124098",
      "lat": "39.92239272204446"
    }
  ]
}