{
  "data": {
    "distrito": "Aveiro",
    "concelho": "Vale de Cambra",
    "freguesia": "Macieira de Cambra",
    "OBJECTID": 462,
    "BGRI2021": "01190600215",
    "DT21": "01",
    "DTMN21": "0119",
    "DTMNFR21": "011906",
    "DTMNFRSEC21": "011906002",
    "SECNUM21": "002",
    "SSNUM21": "15",
    "SECSSNUM21": "00215",
    "OBJECTID_1": 11917,
    "DT": "01",
    "CC": "19",
    "fr": "06",
    "SEC": "002",
    "SS": "15"
  },
  "addresses": [
    {
      "id": "pt.ine.add.PTCONT.294112",
      "street": "",
      "house": "",
      "postcode": "3730-307",
      "city": "VALE DE CAMBRA",
      "lon": "-8.374524594819425",
      "lat": "40.848656495788575"
    },
    {
      "id": "pt.ine.add.PTCONT.304890",
      "street": "",
      "house": "",
      "postcode": "3730-307",
      "city": "VALE DE CAMBRA",
      "lon": "-8.376121734497127",
      "lat": "40.8476265881014"
    },
    {
      "id": "pt.ine.add.PTCONT.324658",
      "street": "",
      "house": "",
      "postcode": "3730-268",
      "city": "VALE DE CAMBRA",
      "lon": "-8.370281935517955",
      "lat": "40.849412699958044"
    },
    {
      "id": "pt.ine.add.PTCONT.339557",
      "street": "",
      "house": "",
      "postcode": "3730-307",
      "city": "VALE DE CAMBRA",
      "lon": "-8.375634232642334",
      "lat": "40.84726741950174"
    },
    {
      "id": "pt.ine.add.PTCONT.69",
      "street": "",
      "house": "",
      "postcode": "3730-307",
      "city": "VALE DE CAMBRA",
      "lon": "-8.376156980269867",
      "lat": "40.847536465221026"
    },
    {
      "id": "pt.ine.add.PTCONT.39626",
      "street": "",
      "house": "",
      "postcode": "3730-308",
      "city": "VALE DE CAMBRA",
      "lon": "-8.370891371432347",
      "lat": "40.847394356288746"
    },
    {
      "id": "pt.ine.add.PTCONT.39627",
      "street": "",
      "house": "",
      "postcode": "3730-308",
      "city": "VALE DE CAMBRA",
      "lon": "-8.370892755513974",
      "lat": "40.84778156255639"
    },
    {
      "id": "pt.ine.add.PTCONT.39746",
      "street": "SALGUEIRINHOS MACIEIRA CAMBRA",
      "house": "",
      "postcode": "3730-307",
      "city": "VALE DE CAMBRA",
      "lon": "-8.37620382092093",
      "lat": "40.847374278991296"
    },
    {
      "id": "pt.ine.add.PTCONT.45152",
      "street": "",
      "house": "",
      "postcode": "3730-307",
      "city": "VALE DE CAMBRA",
      "lon": "-8.374098636874663",
      "lat": "40.848918527386495"
    },
    {
      "id": "pt.ine.add.PTCONT.52840",
      "street": "",
      "house": "",
      "postcode": "3730-307",
      "city": "VALE DE CAMBRA",
      "lon": "-8.375775874022995",
      "lat": "40.84708702436914"
    },
    {
      "id": "pt.ine.add.PTCONT.71942",
      "street": "",
      "house": "",
      "postcode": "3730-308",
      "city": "VALE DE CAMBRA",
      "lon": "-8.370442654447716",
      "lat": "40.84792656724782"
    },
    {
      "id": "pt.ine.add.PTCONT.74659",
      "street": "",
      "house": "",
      "postcode": "3730-307",
      "city": "VALE DE CAMBRA",
      "lon": "-8.376062739189653",
      "lat": "40.847707756127235"
    },
    {
      "id": "pt.ine.add.PTCONT.77376",
      "street": "",
      "house": "",
      "postcode": "3730-307",
      "city": "VALE DE CAMBRA",
      "lon": "-8.376204149988942",
      "lat": "40.847464326928055"
    },
    {
      "id": "pt.ine.add.PTCONT.93406",
      "street": "",
      "house": "",
      "postcode": "3730-307",
      "city": "VALE DE CAMBRA",
      "lon": "-8.373960075057829",
      "lat": "40.846676605965165"
    },
    {
      "id": "pt.ine.add.PTCONT.97840",
      "street": "",
      "house": "",
      "postcode": "3730-307",
      "city": "VALE DE CAMBRA",
      "lon": "-8.375809543049295",
      "lat": "40.846564671428425"
    },
    {
      "id": "pt.ine.add.PTCONT.104692",
      "street": "CAM DOS SALGUEIRINHOS",
      "house": "56",
      "postcode": "3730-307",
      "city": "VALE DE CAMBRA",
      "lon": "-8.375491081226034",
      "lat": "40.84703359391319"
    },
    {
      "id": "pt.ine.add.PTCONT.112433",
      "street": "R DO PENDURADO",
      "house": "60",
      "postcode": "3730-307",
      "city": "VALE DE CAMBRA",
      "lon": "-8.375340827209294",
      "lat": "40.84810548819321"
    },
    {
      "id": "pt.ine.add.PTCONT.117392",
      "street": "",
      "house": "",
      "postcode": "3730-307",
      "city": "VALE DE CAMBRA",
      "lon": "-8.375695690932124",
      "lat": "40.84786161122728"
    },
    {
      "id": "pt.ine.add.PTCONT.117454",
      "street": "",
      "house": "",
      "postcode": "3730-308",
      "city": "VALE DE CAMBRA",
      "lon": "-8.370512261791292",
      "lat": "40.84749419059192"
    },
    {
      "id": "pt.ine.add.PTCONT.146668",
      "street": "",
      "house": "",
      "postcode": "3730-307",
      "city": "VALE DE CAMBRA",
      "lon": "-8.37428017825397",
      "lat": "40.84665792747732"
    },
    {
      "id": "pt.ine.add.PTCONT.147630",
      "street": "",
      "house": "",
      "postcode": "3730-308",
      "city": "VALE DE CAMBRA",
      "lon": "-8.370846159078784",
      "lat": "40.84801578502557"
    },
    {
      "id": "pt.ine.add.PTCONT.151349",
      "street": "",
      "house": "",
      "postcode": "3730-307",
      "city": "VALE DE CAMBRA",
      "lon": "-8.372795143650116",
      "lat": "40.849182384028715"
    },
    {
      "id": "pt.ine.add.PTCONT.167138",
      "street": "",
      "house": "",
      "postcode": "3730-307",
      "city": "VALE DE CAMBRA",
      "lon": "-8.375196724648859",
      "lat": "40.84761052325537"
    },
    {
      "id": "pt.ine.add.PTCONT.167255",
      "street": "",
      "house": "",
      "postcode": "3730-308",
      "city": "VALE DE CAMBRA",
      "lon": "-8.370716521525326",
      "lat": "40.84824117367489"
    },
    {
      "id": "pt.ine.add.PTCONT.170566",
      "street": "",
      "house": "",
      "postcode": "3730-307",
      "city": "VALE DE CAMBRA",
      "lon": "-8.373790478990811",
      "lat": "40.84896419503199"
    },
    {
      "id": "pt.ine.add.PTCONT.170570",
      "street": "",
      "house": "",
      "postcode": "3730-307",
      "city": "VALE DE CAMBRA",
      "lon": "-8.375470711271607",
      "lat": "40.847952132733845"
    },
    {
      "id": "pt.ine.add.PTCONT.171194",
      "street": "",
      "house": "",
      "postcode": "3730-307",
      "city": "VALE DE CAMBRA",
      "lon": "-8.374418718148592",
      "lat": "40.8488908436987"
    },
    {
      "id": "pt.ine.add.PTCONT.171195",
      "street": "",
      "house": "H",
      "postcode": "3730-307",
      "city": "VALE DE CAMBRA",
      "lon": "-8.374418718148592",
      "lat": "40.8488908436987"
    },
    {
      "id": "pt.ine.add.PTCONT.171196",
      "street": "",
      "house": "",
      "postcode": "3730-307",
      "city": "VALE DE CAMBRA",
      "lon": "-8.374418718148592",
      "lat": "40.8488908436987"
    },
    {
      "id": "pt.ine.add.PTCONT.171197",
      "street": "",
      "house": "",
      "postcode": "3730-307",
      "city": "VALE DE CAMBRA",
      "lon": "-8.374418718148592",
      "lat": "40.8488908436987"
    },
    {
      "id": "pt.ine.add.PTCONT.173326",
      "street": "",
      "house": "",
      "postcode": "3730-307",
      "city": "VALE DE CAMBRA",
      "lon": "-8.374418718148592",
      "lat": "40.8488908436987"
    },
    {
      "id": "pt.ine.add.PTCONT.173415",
      "street": "R DO PENDURADO",
      "house": "160",
      "postcode": "3730-307",
      "city": "VALE DE CAMBRA",
      "lon": "-8.374418718148592",
      "lat": "40.8488908436987"
    },
    {
      "id": "pt.ine.add.PTCONT.283577",
      "street": "",
      "house": "",
      "postcode": "3730-308",
      "city": "VALE DE CAMBRA",
      "lon": "-8.37116449725129",
      "lat": "40.847501851355354"
    },
    {
      "id": "pt.ine.add.PTCONT.212144",
      "street": "",
      "house": "",
      "postcode": "3730-307",
      "city": "VALE DE CAMBRA",
      "lon": "-8.375873039661514",
      "lat": "40.847717160350314"
    },
    {
      "id": "pt.ine.add.PTCONT.224255",
      "street": "ANTÃ“NIO DA SILVA ALMEIDA",
      "house": "",
      "postcode": "3730-307",
      "city": "VALE DE CAMBRA",
      "lon": "-8.37568114005404",
      "lat": "40.84712324306265"
    },
    {
      "id": "pt.ine.add.PTCONT.232326",
      "street": "",
      "house": "",
      "postcode": "3730-307",
      "city": "VALE DE CAMBRA",
      "lon": "-8.37584446011976",
      "lat": "40.84638450067254"
    },
    {
      "id": "pt.ine.add.PTCONT.232370",
      "street": "",
      "house": "",
      "postcode": "3730-308",
      "city": "VALE DE CAMBRA",
      "lon": "-8.370631519406233",
      "lat": "40.847683047235385"
    },
    {
      "id": "pt.ine.add.PTCONT.240521",
      "street": "",
      "house": "",
      "postcode": "3730-307",
      "city": "VALE DE CAMBRA",
      "lon": "-8.375587686086128",
      "lat": "40.84751064865295"
    },
    {
      "id": "pt.ine.add.PTCONT.246020",
      "street": "",
      "house": "",
      "postcode": "3730-307",
      "city": "VALE DE CAMBRA",
      "lon": "-8.373553276432961",
      "lat": "40.84895568481828"
    },
    {
      "id": "pt.ine.add.PTCONT.246021",
      "street": "",
      "house": "",
      "postcode": "3730-307",
      "city": "VALE DE CAMBRA",
      "lon": "-8.373553276432961",
      "lat": "40.84895568481828"
    },
    {
      "id": "pt.ine.add.PTCONT.267556",
      "street": "",
      "house": "",
      "postcode": "3730-307",
      "city": "VALE DE CAMBRA",
      "lon": "-8.375928879734753",
      "lat": "40.84677153217823"
    },
    {
      "id": "pt.ine.add.PTCONT.270276",
      "street": "",
      "house": "",
      "postcode": "3730-307",
      "city": "VALE DE CAMBRA",
      "lon": "-8.375654009216234",
      "lat": "40.84618679422464"
    },
    {
      "id": "pt.ine.add.PTCONT.281103",
      "street": "",
      "house": "",
      "postcode": "3730-308",
      "city": "VALE DE CAMBRA",
      "lon": "-8.370654142660023",
      "lat": "40.84737683529762"
    }
  ]
}