{
  "data": {
    "distrito": "Aveiro",
    "concelho": "Anadia",
    "freguesia": "Sangalhos",
    "OBJECTID": 402,
    "BGRI2021": "01030900104",
    "DT21": "01",
    "DTMN21": "0103",
    "DTMNFR21": "010309",
    "DTMNFRSEC21": "010309001",
    "SECNUM21": "001",
    "SSNUM21": "04",
    "SECSSNUM21": "00104",
    "OBJECTID_1": 1689,
    "DT": "01",
    "CC": "03",
    "fr": "09",
    "SEC": "001",
    "SS": "04"
  },
  "addresses": [
    {
      "id": "pt.ine.add.PTCONT.293459",
      "street": "R LACÕES",
      "house": "108",
      "postcode": "3780-084",
      "city": "SANGALHOS",
      "lon": "-8.468744959401281",
      "lat": "40.472041833183404"
    },
    {
      "id": "pt.ine.add.PTCONT.312372",
      "street": "R LACÕES",
      "house": "26",
      "postcode": "3780-084",
      "city": "SANGALHOS",
      "lon": "-8.468465673562036",
      "lat": "40.47279009510419"
    },
    {
      "id": "pt.ine.add.PTCONT.312373",
      "street": "R LACÕES",
      "house": "",
      "postcode": "3780-084",
      "city": "SANGALHOS",
      "lon": "-8.468523423611998",
      "lat": "40.47254678074641"
    },
    {
      "id": "pt.ine.add.PTCONT.318896",
      "street": "R LACÕES",
      "house": "79",
      "postcode": "3780-084",
      "city": "SANGALHOS",
      "lon": "-8.468853597623207",
      "lat": "40.4725458221499"
    },
    {
      "id": "pt.ine.add.PTCONT.24164",
      "street": "R LACÕES",
      "house": "",
      "postcode": "3780-084",
      "city": "SANGALHOS",
      "lon": "-8.468766928876512",
      "lat": "40.4717175736259"
    },
    {
      "id": "pt.ine.add.PTCONT.34904",
      "street": "R LACÕES",
      "house": "102",
      "postcode": "3780-084",
      "city": "SANGALHOS",
      "lon": "-8.46860363658153",
      "lat": "40.47207826521859"
    },
    {
      "id": "pt.ine.add.PTCONT.61844",
      "street": "BC CENTRO CULTURAL",
      "house": "29",
      "postcode": "3780-083",
      "city": "SANGALHOS",
      "lon": "-8.468835216319949",
      "lat": "40.47359050610987"
    },
    {
      "id": "pt.ine.add.PTCONT.88970",
      "street": "R PROF MARIA DO CÉU",
      "house": "43",
      "postcode": "3780-101",
      "city": "SANGALHOS",
      "lon": "-8.468456569540772",
      "lat": "40.47333044767835"
    },
    {
      "id": "pt.ine.add.PTCONT.88971",
      "street": "R LACÕES",
      "house": "",
      "postcode": "3780-084",
      "city": "SANGALHOS",
      "lon": "-8.4688010486204",
      "lat": "40.47146532226729"
    },
    {
      "id": "pt.ine.add.PTCONT.101188",
      "street": "BC CENTRO CULTURAL",
      "house": "61",
      "postcode": "3780-083",
      "city": "SANGALHOS",
      "lon": "-8.469081908099469",
      "lat": "40.473400675167504"
    },
    {
      "id": "pt.ine.add.PTCONT.107679",
      "street": "R LACÕES",
      "house": "40",
      "postcode": "3780-084",
      "city": "SANGALHOS",
      "lon": "-8.468512124548866",
      "lat": "40.4726458733383"
    },
    {
      "id": "pt.ine.add.PTCONT.110821",
      "street": "R LACÕES",
      "house": "60",
      "postcode": "3780-084",
      "city": "SANGALHOS",
      "lon": "-8.46857009837854",
      "lat": "40.472447585486975"
    },
    {
      "id": "pt.ine.add.PTCONT.141044",
      "street": "R PROF MARIA DO CEU",
      "house": "27",
      "postcode": "3780-101",
      "city": "SANGALHOS",
      "lon": "-8.468456166343536",
      "lat": "40.47324939992733"
    },
    {
      "id": "pt.ine.add.PTCONT.152693",
      "street": "R PROF MARIA DO CEU",
      "house": "",
      "postcode": "3780-101",
      "city": "SANGALHOS",
      "lon": "-8.468373039727567",
      "lat": "40.47313257040777"
    },
    {
      "id": "pt.ine.add.PTCONT.184640",
      "street": "R LACÕES",
      "house": "78",
      "postcode": "3780-084",
      "city": "SANGALHOS",
      "lon": "-8.468663806108477",
      "lat": "40.47232123736444"
    },
    {
      "id": "pt.ine.add.PTCONT.195187",
      "street": "R LAVADOURO",
      "house": "",
      "postcode": "3780-083",
      "city": "SANGALHOS",
      "lon": "-8.46923807900302",
      "lat": "40.473976568950576"
    },
    {
      "id": "pt.ine.add.PTCONT.205848",
      "street": "R LACÕES",
      "house": "154",
      "postcode": "3780-084",
      "city": "SANGALHOS",
      "lon": "-8.468742717613033",
      "lat": "40.471591567798086"
    },
    {
      "id": "pt.ine.add.PTCONT.257600",
      "street": "BC CENTRO CULTURAL",
      "house": "",
      "postcode": "3780-083",
      "city": "SANGALHOS",
      "lon": "-8.469423968209764",
      "lat": "40.473417691257616"
    },
    {
      "id": "pt.ine.add.PTCONT.263024",
      "street": "R LACÕES",
      "house": "159",
      "postcode": "3780-084",
      "city": "SANGALHOS",
      "lon": "-8.469699019301633",
      "lat": "40.47182292835678"
    },
    {
      "id": "pt.ine.add.PTCONT.281794",
      "street": "BC CENTRO CULTURAL",
      "house": "39",
      "postcode": "3780-083",
      "city": "SANGALHOS",
      "lon": "-8.468952509304037",
      "lat": "40.473464089269136"
    },
    {
      "id": "pt.ine.add.PTCONT.289782",
      "street": "R LAVADOURO",
      "house": "",
      "postcode": "3780-083",
      "city": "SANGALHOS",
      "lon": "-8.470472246429807",
      "lat": "40.4731714895914"
    }
  ]
}