{
  "data": {
    "distrito": "Leiria",
    "concelho": "Leiria",
    "freguesia": "Uni√£o das freguesias de Souto da Carpalhosa e Ortigosa",
    "OBJECTID": 1103,
    "BGRI2021": "10094000125",
    "DT21": "10",
    "DTMN21": "1009",
    "DTMNFR21": "100940",
    "DTMNFRSEC21": "100940001",
    "SECNUM21": "001",
    "SSNUM21": "25",
    "SECSSNUM21": "00125",
    "OBJECTID_1": 91184,
    "DT": "10",
    "CC": "09",
    "fr": "40",
    "SEC": "001",
    "SS": "25"
  },
  "addresses": [
    {
      "id": "pt.ine.add.PTCONT.1982969",
      "street": "R VALE DAVID",
      "house": "",
      "postcode": "2425-834",
      "city": "SOUTO DA CARPALHOSA",
      "lon": "-8.757653624135921",
      "lat": "39.87453823163973"
    },
    {
      "id": "pt.ine.add.PTCONT.2034817",
      "street": "R DA QUINTA NOVA",
      "house": "109",
      "postcode": "2425-184",
      "city": "BAJOUCA",
      "lon": "-8.759967067743165",
      "lat": "39.873147787723916"
    },
    {
      "id": "pt.ine.add.PTCONT.2063582",
      "street": "R RELVINHAS",
      "house": "244",
      "postcode": "2425-834",
      "city": "SOUTO DA CARPALHOSA",
      "lon": "-8.756520939427707",
      "lat": "39.87337350635758"
    },
    {
      "id": "pt.ine.add.PTCONT.2072642",
      "street": "R BECO DOS CARREIRAS",
      "house": "124",
      "postcode": "2425-834",
      "city": "SOUTO DA CARPALHOSA",
      "lon": "-8.758716927227038",
      "lat": "39.87320857528667"
    },
    {
      "id": "pt.ine.add.PTCONT.2110889",
      "street": "R BECO DOS CARREIRAS",
      "house": "",
      "postcode": "2425-834",
      "city": "SOUTO DA CARPALHOSA",
      "lon": "-8.758451861814752",
      "lat": "39.873624294477054"
    },
    {
      "id": "pt.ine.add.PTCONT.2122908",
      "street": "R VALE DAVID",
      "house": "13",
      "postcode": "2425-834",
      "city": "SOUTO DA CARPALHOSA",
      "lon": "-8.758364652783023",
      "lat": "39.87431824963702"
    },
    {
      "id": "pt.ine.add.PTCONT.2127485",
      "street": "R BREGIEIRAS",
      "house": "90",
      "postcode": "2425-834",
      "city": "SOUTO DA CARPALHOSA",
      "lon": "-8.7605653319812",
      "lat": "39.872099821992606"
    },
    {
      "id": "pt.ine.add.PTCONT.2147269",
      "street": "R RELVINHAS",
      "house": "228",
      "postcode": "2425-834",
      "city": "SOUTO DA CARPALHOSA",
      "lon": "-8.756578238790194",
      "lat": "39.87324711016177"
    },
    {
      "id": "pt.ine.add.PTCONT.2184302",
      "street": "R RELVINHAS",
      "house": "194",
      "postcode": "2425-834",
      "city": "SOUTO DA CARPALHOSA",
      "lon": "-8.756370949324857",
      "lat": "39.87359046364258"
    },
    {
      "id": "pt.ine.add.PTCONT.2193757",
      "street": "R BREJEIRO",
      "house": "",
      "postcode": "2425-834",
      "city": "SOUTO DA CARPALHOSA",
      "lon": "-8.762942270992461",
      "lat": "39.87255526666001"
    },
    {
      "id": "pt.ine.add.PTCONT.2220529",
      "street": "R QUINTA NOVA",
      "house": "81",
      "postcode": "2425-834",
      "city": "SOUTO DA CARPALHOSA",
      "lon": "-8.76001628003162",
      "lat": "39.873417710719075"
    },
    {
      "id": "pt.ine.add.PTCONT.2220530",
      "street": "R RELVINHAS",
      "house": "176",
      "postcode": "2425-834",
      "city": "SOUTO DA CARPALHOSA",
      "lon": "-8.756314464383141",
      "lat": "39.87380691835087"
    },
    {
      "id": "pt.ine.add.PTCONT.2220531",
      "street": "R VALE DAVID",
      "house": "",
      "postcode": "2425-834",
      "city": "SOUTO DA CARPALHOSA",
      "lon": "-8.762834367671179",
      "lat": "39.87353753911364"
    },
    {
      "id": "pt.ine.add.PTCONT.2239596",
      "street": "R RELVINHAS",
      "house": "150",
      "postcode": "2425-834",
      "city": "SOUTO DA CARPALHOSA",
      "lon": "-8.756456354066756",
      "lat": "39.873986281862074"
    }
  ]
}