{
  "data": {
    "distrito": "Évora",
    "concelho": "Évora",
    "freguesia": "União das freguesias de Nossa Senhora da Tourega e Nossa Senhora de Guadalupe",
    "OBJECTID": 1604,
    "BGRI2021": "07052500144",
    "DT21": "07",
    "DTMN21": "0705",
    "DTMNFR21": "070525",
    "DTMNFRSEC21": "070525001",
    "SECNUM21": "001",
    "SSNUM21": "44",
    "SECSSNUM21": "00144",
    "OBJECTID_1": 60286,
    "DT": "07",
    "CC": "05",
    "fr": "25",
    "SEC": "001",
    "SS": "44"
  },
  "addresses": [
    {
      "id": "pt.ine.add.PTCONT.1368503",
      "street": "R 25 DE ABRIL",
      "house": "",
      "postcode": "7000-093",
      "city": "NOSSA SENHORA DA TOUREGA",
      "lon": "-8.020695173530218",
      "lat": "38.53305451026126"
    },
    {
      "id": "pt.ine.add.PTCONT.1370757",
      "street": "R GEN HUMBERTO DELGADO",
      "house": "",
      "postcode": "7000-093",
      "city": "NOSSA SENHORA DA TOUREGA",
      "lon": "-8.020730231843812",
      "lat": "38.533216437836955"
    },
    {
      "id": "pt.ine.add.PTCONT.1406876",
      "street": "R GEN HUMBERTO DELGADO",
      "house": "",
      "postcode": "7000-093",
      "city": "NOSSA SENHORA DA TOUREGA",
      "lon": "-8.020675331696618",
      "lat": "38.53320754782453"
    },
    {
      "id": "pt.ine.add.PTCONT.1411811",
      "street": "R GEN HUMBERTO DELGADO",
      "house": "",
      "postcode": "7000-093",
      "city": "NOSSA SENHORA DA TOUREGA",
      "lon": "-8.02045505685583",
      "lat": "38.53316685204056"
    },
    {
      "id": "pt.ine.add.PTCONT.1420444",
      "street": "R GEN HUMBERTO DELGADO",
      "house": "",
      "postcode": "7000-093",
      "city": "NOSSA SENHORA DA TOUREGA",
      "lon": "-8.020566620103674",
      "lat": "38.533185914945236"
    },
    {
      "id": "pt.ine.add.PTCONT.1447689",
      "street": "R GEN HUMBERTO DELGADO",
      "house": "",
      "postcode": "7000-093",
      "city": "NOSSA SENHORA DA TOUREGA",
      "lon": "-8.020628444502305",
      "lat": "38.53319666740528"
    },
    {
      "id": "pt.ine.add.PTCONT.1449282",
      "street": "R GEN HUMBERTO DELGADO",
      "house": "23",
      "postcode": "7000-093",
      "city": "NOSSA SENHORA DA TOUREGA",
      "lon": "-8.020795392743155",
      "lat": "38.533224872829045"
    },
    {
      "id": "pt.ine.add.PTCONT.1454019",
      "street": "R 25 DE ABRIL",
      "house": "",
      "postcode": "7000-093",
      "city": "NOSSA SENHORA DA TOUREGA",
      "lon": "-8.020477975142587",
      "lat": "38.53302186654152"
    },
    {
      "id": "pt.ine.add.PTCONT.1457370",
      "street": "R FRANCISCO BOASINHA",
      "house": "",
      "postcode": "7000-093",
      "city": "NOSSA SENHORA DA TOUREGA",
      "lon": "-8.020463719647458",
      "lat": "38.53311365184467"
    },
    {
      "id": "pt.ine.add.PTCONT.1460694",
      "street": "R GEN HUMBERTO DELGADO",
      "house": "",
      "postcode": "7000-093",
      "city": "NOSSA SENHORA DA TOUREGA",
      "lon": "-8.020851198542912",
      "lat": "38.53323845796728"
    }
  ]
}