{
  "data": {
    "distrito": "Faro",
    "concelho": "Silves",
    "freguesia": "Silves",
    "OBJECTID": 969,
    "BGRI2021": "08130700714",
    "DT21": "08",
    "DTMN21": "0813",
    "DTMNFR21": "081307",
    "DTMNFRSEC21": "081307007",
    "SECNUM21": "007",
    "SSNUM21": "14",
    "SECSSNUM21": "00714",
    "OBJECTID_1": 73043,
    "DT": "08",
    "CC": "13",
    "fr": "07",
    "SEC": "007",
    "SS": "14"
  },
  "addresses": [
    {
      "id": "pt.ine.add.PTCONT.1474163",
      "street": "LUGAR TINHOSAS FACHELHA",
      "house": "",
      "postcode": "8300-048",
      "city": "SILVES",
      "lon": "-8.392866966167048",
      "lat": "37.17985063698564"
    },
    {
      "id": "pt.ine.add.PTCONT.1506404",
      "street": "",
      "house": "",
      "postcode": "8300-050",
      "city": "SILVES",
      "lon": "-8.396043925987195",
      "lat": "37.180240092781496"
    },
    {
      "id": "pt.ine.add.PTCONT.1550159",
      "street": "",
      "house": "",
      "postcode": "8300-050",
      "city": "SILVES",
      "lon": "-8.394577604680595",
      "lat": "37.17954952718619"
    },
    {
      "id": "pt.ine.add.PTCONT.1553784",
      "street": "SIT TUFOS",
      "house": "CCI 407K",
      "postcode": "8300-050",
      "city": "SILVES",
      "lon": "-8.396617360568428",
      "lat": "37.17998652424226"
    },
    {
      "id": "pt.ine.add.PTCONT.1567692",
      "street": "",
      "house": "",
      "postcode": "8300-042",
      "city": "SILVES",
      "lon": "-8.396776535683578",
      "lat": "37.17718389655798"
    },
    {
      "id": "pt.ine.add.PTCONT.1570440",
      "street": "",
      "house": "",
      "postcode": "8300-050",
      "city": "SILVES",
      "lon": "-8.397476239407297",
      "lat": "37.18085863180923"
    },
    {
      "id": "pt.ine.add.PTCONT.1571611",
      "street": "",
      "house": "",
      "postcode": "8300-050",
      "city": "SILVES",
      "lon": "-8.393315920445895",
      "lat": "37.17941714671411"
    },
    {
      "id": "pt.ine.add.PTCONT.1579410",
      "street": "",
      "house": "",
      "postcode": "8300-050",
      "city": "SILVES",
      "lon": "-8.397064162294447",
      "lat": "37.17894030890327"
    },
    {
      "id": "pt.ine.add.PTCONT.1589073",
      "street": "SIT MONTES GRANDES",
      "house": "CP 321 K",
      "postcode": "8300-049",
      "city": "SILVES",
      "lon": "-8.3981650767753",
      "lat": "37.17818096717648"
    },
    {
      "id": "pt.ine.add.PTCONT.1614804",
      "street": "",
      "house": "",
      "postcode": "8300-028",
      "city": "SILVES",
      "lon": "-8.396995876599824",
      "lat": "37.17873321891158"
    },
    {
      "id": "pt.ine.add.PTCONT.1623939",
      "street": "",
      "house": "",
      "postcode": "8300-042",
      "city": "SILVES",
      "lon": "-8.3972637194434",
      "lat": "37.17803881158691"
    },
    {
      "id": "pt.ine.add.PTCONT.1636999",
      "street": "QTA ULRITAS",
      "house": "",
      "postcode": "8300-028",
      "city": "SILVES",
      "lon": "-8.398463023351871",
      "lat": "37.179658026446134"
    },
    {
      "id": "pt.ine.add.PTCONT.1642780",
      "street": "",
      "house": "",
      "postcode": "8300-042",
      "city": "SILVES",
      "lon": "-8.397105599736099",
      "lat": "37.177904006076204"
    },
    {
      "id": "pt.ine.add.PTCONT.1645529",
      "street": "",
      "house": "",
      "postcode": "8300-050",
      "city": "SILVES",
      "lon": "-8.396580828887378",
      "lat": "37.1824374674768"
    },
    {
      "id": "pt.ine.add.PTCONT.1674619",
      "street": "LUGAR SEM DESIGNACAO",
      "house": "",
      "postcode": "8300-042",
      "city": "SILVES",
      "lon": "-8.394869244502264",
      "lat": "37.17595368274108"
    },
    {
      "id": "pt.ine.add.PTCONT.1705555",
      "street": "",
      "house": "",
      "postcode": "8300-042",
      "city": "SILVES",
      "lon": "-8.396464461972805",
      "lat": "37.17811267489919"
    },
    {
      "id": "pt.ine.add.PTCONT.1725744",
      "street": "",
      "house": "",
      "postcode": "8300-042",
      "city": "SILVES",
      "lon": "-8.399059251420631",
      "lat": "37.179485489755805"
    },
    {
      "id": "pt.ine.add.PTCONT.1754265",
      "street": "",
      "house": "",
      "postcode": "8300-050",
      "city": "SILVES",
      "lon": "-8.39576227621806",
      "lat": "37.180204675350595"
    },
    {
      "id": "pt.ine.add.PTCONT.1783006",
      "street": "QTA MOREIRA",
      "house": "",
      "postcode": "8300-042",
      "city": "SILVES",
      "lon": "-8.394857611123305",
      "lat": "37.175845582073684"
    },
    {
      "id": "pt.ine.add.PTCONT.1814862",
      "street": "",
      "house": "",
      "postcode": "8300-050",
      "city": "SILVES",
      "lon": "-8.393191000495957",
      "lat": "37.17911106310228"
    }
  ]
}