{
  "data": {
    "distrito": "Setúbal",
    "concelho": "Almada",
    "freguesia": "União das freguesias de Caparica e Trafaria",
    "OBJECTID": 577,
    "BGRI2021": "15031302005",
    "DT21": "15",
    "DTMN21": "1503",
    "DTMNFR21": "150313",
    "DTMNFRSEC21": "150313020",
    "SECNUM21": "020",
    "SSNUM21": "05",
    "SECSSNUM21": "02005",
    "OBJECTID_1": 161220,
    "DT": "15",
    "CC": "03",
    "fr": "13",
    "SEC": "020",
    "SS": "05"
  },
  "addresses": [
    {
      "id": "pt.ine.add.PTCONT.4692589",
      "street": "R ALFREDO CUNHA",
      "house": "57",
      "postcode": "2825-054",
      "city": "CAPARICA",
      "lon": "-9.198468105025052",
      "lat": "38.66272816386728"
    },
    {
      "id": "pt.ine.add.PTCONT.4755648",
      "street": "R ALFREDO CUNHA",
      "house": "53",
      "postcode": "2825-054",
      "city": "CAPARICA",
      "lon": "-9.198320502399433",
      "lat": "38.66284661133096"
    },
    {
      "id": "pt.ine.add.PTCONT.4772687",
      "street": "R ALFREDO CUNHA",
      "house": "51",
      "postcode": "2825-054",
      "city": "CAPARICA",
      "lon": "-9.198275352978524",
      "lat": "38.66290107009475"
    },
    {
      "id": "pt.ine.add.PTCONT.4772712",
      "street": "R PROJECTADA V",
      "house": "10",
      "postcode": "2825-105",
      "city": "CAPARICA",
      "lon": "-9.197169885260703",
      "lat": "38.66273097395393"
    },
    {
      "id": "pt.ine.add.PTCONT.4775528",
      "street": "R PROJECTADA V",
      "house": "10",
      "postcode": "2825-105",
      "city": "CAPARICA",
      "lon": "-9.197169885260703",
      "lat": "38.66273097395393"
    },
    {
      "id": "pt.ine.add.PTCONT.4825673",
      "street": "R ALFREDO CUNHA QTA DO BRASILEIRO",
      "house": "",
      "postcode": "2825-054",
      "city": "CAPARICA",
      "lon": "-9.197968925138113",
      "lat": "38.66315608238372"
    },
    {
      "id": "pt.ine.add.PTCONT.4889684",
      "street": "R ALFREDO CUNHA",
      "house": "39",
      "postcode": "2825-054",
      "city": "CAPARICA",
      "lon": "-9.197833208533963",
      "lat": "38.6633014448"
    },
    {
      "id": "pt.ine.add.PTCONT.4917183",
      "street": "R ALFREDO CUNHA",
      "house": "47",
      "postcode": "2825-054",
      "city": "CAPARICA",
      "lon": "-9.198173299554602",
      "lat": "38.66299207875378"
    },
    {
      "id": "pt.ine.add.PTCONT.4923740",
      "street": "R URRACA",
      "house": "10",
      "postcode": "2825-105",
      "city": "CAPARICA",
      "lon": "-9.197473626745982",
      "lat": "38.663070511520125"
    },
    {
      "id": "pt.ine.add.PTCONT.4930658",
      "street": "R ALFREDO CUNHA",
      "house": "SS",
      "postcode": "2825-054",
      "city": "CAPARICA",
      "lon": "-9.198400114246555",
      "lat": "38.66279183866327"
    },
    {
      "id": "pt.ine.add.PTCONT.4943034",
      "street": "R ALFREDO CUNHA",
      "house": "45",
      "postcode": "2825-054",
      "city": "CAPARICA",
      "lon": "-9.198048137374245",
      "lat": "38.663074289808044"
    },
    {
      "id": "pt.ine.add.PTCONT.4995614",
      "street": "R URRACA",
      "house": "8",
      "postcode": "2825-105",
      "city": "CAPARICA",
      "lon": "-9.197578348140683",
      "lat": "38.66315963776306"
    },
    {
      "id": "pt.ine.add.PTCONT.4995615",
      "street": "R URRACA",
      "house": "8",
      "postcode": "2825-105",
      "city": "CAPARICA",
      "lon": "-9.197578348140683",
      "lat": "38.66315963776306"
    },
    {
      "id": "pt.ine.add.PTCONT.5067273",
      "street": "R ALFREDO CUNHA",
      "house": "UB",
      "postcode": "2825-054",
      "city": "CAPARICA",
      "lon": "-9.198206961587353",
      "lat": "38.662937724640905"
    },
    {
      "id": "pt.ine.add.PTCONT.5109543",
      "street": "R URRACA",
      "house": "16",
      "postcode": "2825-105",
      "city": "CAPARICA",
      "lon": "-9.197379993174497",
      "lat": "38.6629542605001"
    }
  ]
}