{
  "data": {
    "distrito": "Lisboa",
    "concelho": "Loures",
    "freguesia": "Bucelas",
    "OBJECTID": 1775,
    "BGRI2021": "11070200105",
    "DT21": "11",
    "DTMN21": "1107",
    "DTMNFR21": "110702",
    "DTMNFRSEC21": "110702001",
    "SECNUM21": "001",
    "SSNUM21": "05",
    "SECSSNUM21": "00105",
    "OBJECTID_1": 106957,
    "DT": "11",
    "CC": "07",
    "fr": "02",
    "SEC": "001",
    "SS": "05"
  },
  "addresses": [
    {
      "id": "pt.ine.add.PTCONT.2881930",
      "street": "R JOÃO CAMILO ALVES",
      "house": "72",
      "postcode": "2670-661",
      "city": "BUCELAS",
      "lon": "-9.120786719593568",
      "lat": "38.90269306383638"
    },
    {
      "id": "pt.ine.add.PTCONT.2881931",
      "street": "R JOÃO CAMILO ALVES",
      "house": "72",
      "postcode": "2670-661",
      "city": "BUCELAS",
      "lon": "-9.120786719593568",
      "lat": "38.90269306383638"
    },
    {
      "id": "pt.ine.add.PTCONT.2902157",
      "street": "R AUGUSTO PRIMAVERA",
      "house": "22",
      "postcode": "2670-645",
      "city": "BUCELAS",
      "lon": "-9.119613526103382",
      "lat": "38.90288313535864"
    },
    {
      "id": "pt.ine.add.PTCONT.2917936",
      "street": "R AUGUSTO PRIMAVERA",
      "house": "24",
      "postcode": "2670-645",
      "city": "BUCELAS",
      "lon": "-9.119763368894933",
      "lat": "38.902881869116825"
    },
    {
      "id": "pt.ine.add.PTCONT.2932706",
      "street": "R JOÃO CAMILO ALVES",
      "house": "78 B",
      "postcode": "2670-661",
      "city": "BUCELAS",
      "lon": "-9.12113338344381",
      "lat": "38.90275318391197"
    },
    {
      "id": "pt.ine.add.PTCONT.2974664",
      "street": "R PACIENCIA",
      "house": "12",
      "postcode": "2670-665",
      "city": "BUCELAS",
      "lon": "-9.120746354481254",
      "lat": "38.90310775569932"
    },
    {
      "id": "pt.ine.add.PTCONT.2974739",
      "street": "TV ABROLHO",
      "house": "3A",
      "postcode": "2670-635",
      "city": "BUCELAS",
      "lon": "-9.12116933571998",
      "lat": "38.9028519634351"
    },
    {
      "id": "pt.ine.add.PTCONT.3001947",
      "street": "R D AFONSO HENRIQUES",
      "house": "20",
      "postcode": "2670-637",
      "city": "BUCELAS",
      "lon": "-9.1212726983819",
      "lat": "38.90282406576459"
    },
    {
      "id": "pt.ine.add.PTCONT.3047677",
      "street": "R AUGUSTO PRIMAVERA",
      "house": "26",
      "postcode": "2670-645",
      "city": "BUCELAS",
      "lon": "-9.119809474367363",
      "lat": "38.90288147946529"
    },
    {
      "id": "pt.ine.add.PTCONT.3076612",
      "street": "R AUGUSTO PRIMAVERA",
      "house": "7",
      "postcode": "2670-645",
      "city": "BUCELAS",
      "lon": "-9.119830283010533",
      "lat": "38.90271916647909"
    },
    {
      "id": "pt.ine.add.PTCONT.3122862",
      "street": "R DR ALBERTO ALVES DE OLIVEIRA",
      "house": "5",
      "postcode": "2670-639",
      "city": "BUCELAS",
      "lon": "-9.119988674724063",
      "lat": "38.90416805398879"
    },
    {
      "id": "pt.ine.add.PTCONT.3131934",
      "street": "R JOÃO CAMILO ALVES",
      "house": "64",
      "postcode": "2670-661",
      "city": "BUCELAS",
      "lon": "-9.12002485915771",
      "lat": "38.902618438026316"
    },
    {
      "id": "pt.ine.add.PTCONT.3131935",
      "street": "R JOÃO CAMILO ALVES",
      "house": "64",
      "postcode": "2670-661",
      "city": "BUCELAS",
      "lon": "-9.12002485915771",
      "lat": "38.902618438026316"
    },
    {
      "id": "pt.ine.add.PTCONT.3131938",
      "street": "R JOÃO CAMILO ALVES",
      "house": "64",
      "postcode": "2670-661",
      "city": "BUCELAS",
      "lon": "-9.12002485915771",
      "lat": "38.902618438026316"
    },
    {
      "id": "pt.ine.add.PTCONT.3131939",
      "street": "R JOÃO CAMILO ALVES",
      "house": "64",
      "postcode": "2670-661",
      "city": "BUCELAS",
      "lon": "-9.12002485915771",
      "lat": "38.902618438026316"
    },
    {
      "id": "pt.ine.add.PTCONT.3155679",
      "street": "R D AFONSO HENRIQUES",
      "house": "26",
      "postcode": "2670-637",
      "city": "BUCELAS",
      "lon": "-9.121462864447881",
      "lat": "38.9032368063955"
    },
    {
      "id": "pt.ine.add.PTCONT.3155680",
      "street": "R D AFONSO HENRIQUES",
      "house": "26",
      "postcode": "2670-637",
      "city": "BUCELAS",
      "lon": "-9.121462864447881",
      "lat": "38.9032368063955"
    },
    {
      "id": "pt.ine.add.PTCONT.3155681",
      "street": "R D AFONSO HENRIQUES",
      "house": "26",
      "postcode": "2670-637",
      "city": "BUCELAS",
      "lon": "-9.121462864447881",
      "lat": "38.9032368063955"
    },
    {
      "id": "pt.ine.add.PTCONT.3170132",
      "street": "R DR ALBERTO ALVES DE OLIVEIRA",
      "house": "9",
      "postcode": "2670-639",
      "city": "BUCELAS",
      "lon": "-9.120162196947469",
      "lat": "38.9042116251329"
    },
    {
      "id": "pt.ine.add.PTCONT.3178438",
      "street": "R FRANCISCO JOSE LUCIO FIALHO",
      "house": "26",
      "postcode": "2670-627",
      "city": "BUCELAS",
      "lon": "-9.12037042388908",
      "lat": "38.904263910161305"
    },
    {
      "id": "pt.ine.add.PTCONT.3178439",
      "street": "R FRANCISCO JOSE LUCIO FIALHO",
      "house": "26",
      "postcode": "2670-627",
      "city": "BUCELAS",
      "lon": "-9.12037042388908",
      "lat": "38.904263910161305"
    },
    {
      "id": "pt.ine.add.PTCONT.3178440",
      "street": "R FRANCISCO JOSE LUCIO FIALHO",
      "house": "26",
      "postcode": "2670-627",
      "city": "BUCELAS",
      "lon": "-9.12037042388908",
      "lat": "38.904263910161305"
    },
    {
      "id": "pt.ine.add.PTCONT.3178441",
      "street": "R FRANCISCO JOSE LUCIO FIALHO",
      "house": "26",
      "postcode": "2670-627",
      "city": "BUCELAS",
      "lon": "-9.12037042388908",
      "lat": "38.904263910161305"
    },
    {
      "id": "pt.ine.add.PTCONT.3178442",
      "street": "R FRANCISCO JOSE LUCIO FIALHO",
      "house": "26",
      "postcode": "2670-627",
      "city": "BUCELAS",
      "lon": "-9.12037042388908",
      "lat": "38.904263910161305"
    },
    {
      "id": "pt.ine.add.PTCONT.3178443",
      "street": "R FRANCISCO JOSE LUCIO FIALHO",
      "house": "26",
      "postcode": "2670-627",
      "city": "BUCELAS",
      "lon": "-9.12037042388908",
      "lat": "38.904263910161305"
    },
    {
      "id": "pt.ine.add.PTCONT.3178491",
      "street": "R FRANCISCO JOSE LUCIO FIALHO",
      "house": "3",
      "postcode": "2670-627",
      "city": "BUCELAS",
      "lon": "-9.12037042388908",
      "lat": "38.904263910161305"
    },
    {
      "id": "pt.ine.add.PTCONT.3178492",
      "street": "R FRANCISCO JOSE LUCIO FIALHO",
      "house": "26",
      "postcode": "2670-627",
      "city": "BUCELAS",
      "lon": "-9.12037042388908",
      "lat": "38.904263910161305"
    },
    {
      "id": "pt.ine.add.PTCONT.3178493",
      "street": "R FRANCISCO JOSE LUCIO FIALHO",
      "house": "26",
      "postcode": "2670-627",
      "city": "BUCELAS",
      "lon": "-9.12037042388908",
      "lat": "38.904263910161305"
    },
    {
      "id": "pt.ine.add.PTCONT.3178575",
      "street": "TV ABROLHO",
      "house": "3",
      "postcode": "2670-635",
      "city": "BUCELAS",
      "lon": "-9.121193262346159",
      "lat": "38.902914814256015"
    },
    {
      "id": "pt.ine.add.PTCONT.3182665",
      "street": "R FRANCISCO JOSE LUCIO FIALHO",
      "house": "26",
      "postcode": "2670-627",
      "city": "BUCELAS",
      "lon": "-9.12037042388908",
      "lat": "38.904263910161305"
    },
    {
      "id": "pt.ine.add.PTCONT.3182925",
      "street": "R FRANCISCO JOSE LUCIO FIALHO",
      "house": "26",
      "postcode": "2670-627",
      "city": "BUCELAS",
      "lon": "-9.12037042388908",
      "lat": "38.904263910161305"
    },
    {
      "id": "pt.ine.add.PTCONT.3198982",
      "street": "R PACIENCIA",
      "house": "4",
      "postcode": "2670-665",
      "city": "BUCELAS",
      "lon": "-9.120272275234946",
      "lat": "38.90300367382621"
    },
    {
      "id": "pt.ine.add.PTCONT.3198983",
      "street": "R PEDROGÃOS",
      "house": "10",
      "postcode": "2670-661",
      "city": "BUCELAS",
      "lon": "-9.119322750101096",
      "lat": "38.90269643202359"
    },
    {
      "id": "pt.ine.add.PTCONT.3224802",
      "street": "R AUGUSTO PRIMAVERA",
      "house": "32",
      "postcode": "2670-645",
      "city": "BUCELAS",
      "lon": "-9.120074580816496",
      "lat": "38.902879238615675"
    },
    {
      "id": "pt.ine.add.PTCONT.3224905",
      "street": "TV ABROLHO",
      "house": "2",
      "postcode": "2670-635",
      "city": "BUCELAS",
      "lon": "-9.121054321785374",
      "lat": "38.902870951992995"
    },
    {
      "id": "pt.ine.add.PTCONT.3243691",
      "street": "R JOÃO CAMILO ALVES",
      "house": "62",
      "postcode": "2670-661",
      "city": "BUCELAS",
      "lon": "-9.120071712664775",
      "lat": "38.90267208765581"
    },
    {
      "id": "pt.ine.add.PTCONT.3248029",
      "street": "R JOÃO CAMILO ALVES",
      "house": "62",
      "postcode": "2670-661",
      "city": "BUCELAS",
      "lon": "-9.120071712664775",
      "lat": "38.90267208765581"
    },
    {
      "id": "pt.ine.add.PTCONT.3252115",
      "street": "R PROF D IRENE SEVERINA VIEIRA DA CRUZ",
      "house": "3",
      "postcode": "2670-660",
      "city": "BUCELAS",
      "lon": "-9.119144244391778",
      "lat": "38.9039590062161"
    },
    {
      "id": "pt.ine.add.PTCONT.3344875",
      "street": "R PROF D IRENE SEVERINA VIEIRA DA CRUZ",
      "house": "5",
      "postcode": "2670-660",
      "city": "BUCELAS",
      "lon": "-9.119248357100279",
      "lat": "38.90398514969594"
    },
    {
      "id": "pt.ine.add.PTCONT.3388769",
      "street": "R AUGUSTO PRIMAVERA",
      "house": "1",
      "postcode": "2670-645",
      "city": "BUCELAS",
      "lon": "-9.118850419218743",
      "lat": "38.90271843623694"
    },
    {
      "id": "pt.ine.add.PTCONT.3388955",
      "street": "R JULIO DINIS DEPOSITOS DA AGUA",
      "house": "",
      "postcode": "2670-660",
      "city": "BUCELAS",
      "lon": "-9.120294279127544",
      "lat": "38.903760127568205"
    },
    {
      "id": "pt.ine.add.PTCONT.3389477",
      "street": "R D AFONSO HENRIQUES",
      "house": "18",
      "postcode": "2670-637",
      "city": "BUCELAS",
      "lon": "-9.121249146270582",
      "lat": "38.902788234640376"
    },
    {
      "id": "pt.ine.add.PTCONT.3400140",
      "street": "R JOÃO CAMILO ALVES",
      "house": "68",
      "postcode": "2670-661",
      "city": "BUCELAS",
      "lon": "-9.120509214259942",
      "lat": "38.902632357841256"
    },
    {
      "id": "pt.ine.add.PTCONT.3442263",
      "street": "R PACIENCIA",
      "house": "18",
      "postcode": "2670-665",
      "city": "BUCELAS",
      "lon": "-9.120990530833767",
      "lat": "38.903258819303915"
    },
    {
      "id": "pt.ine.add.PTCONT.2275928",
      "street": "R AUGUSTO PRIMAVERA",
      "house": "3",
      "postcode": "2670-645",
      "city": "BUCELAS",
      "lon": "-9.11900075996478",
      "lat": "38.9027531972447"
    },
    {
      "id": "pt.ine.add.PTCONT.2275929",
      "street": "R AUGUSTO PRIMAVERA",
      "house": "3",
      "postcode": "2670-645",
      "city": "BUCELAS",
      "lon": "-9.11900075996478",
      "lat": "38.9027531972447"
    },
    {
      "id": "pt.ine.add.PTCONT.2275930",
      "street": "R AUGUSTO PRIMAVERA",
      "house": "3",
      "postcode": "2670-645",
      "city": "BUCELAS",
      "lon": "-9.11900075996478",
      "lat": "38.9027531972447"
    },
    {
      "id": "pt.ine.add.PTCONT.2275931",
      "street": "R AUGUSTO PRIMAVERA",
      "house": "3",
      "postcode": "2670-645",
      "city": "BUCELAS",
      "lon": "-9.11900075996478",
      "lat": "38.9027531972447"
    },
    {
      "id": "pt.ine.add.PTCONT.2275932",
      "street": "R AUGUSTO PRIMAVERA",
      "house": "3",
      "postcode": "2670-645",
      "city": "BUCELAS",
      "lon": "-9.11900075996478",
      "lat": "38.9027531972447"
    },
    {
      "id": "pt.ine.add.PTCONT.2275933",
      "street": "R AUGUSTO PRIMAVERA",
      "house": "3",
      "postcode": "2670-645",
      "city": "BUCELAS",
      "lon": "-9.11900075996478",
      "lat": "38.9027531972447"
    },
    {
      "id": "pt.ine.add.PTCONT.2275934",
      "street": "R AUGUSTO PRIMAVERA",
      "house": "3",
      "postcode": "2670-645",
      "city": "BUCELAS",
      "lon": "-9.11900075996478",
      "lat": "38.9027531972447"
    },
    {
      "id": "pt.ine.add.PTCONT.2275935",
      "street": "R AUGUSTO PRIMAVERA",
      "house": "3",
      "postcode": "2670-645",
      "city": "BUCELAS",
      "lon": "-9.11900075996478",
      "lat": "38.9027531972447"
    },
    {
      "id": "pt.ine.add.PTCONT.2275950",
      "street": "R AUGUSTO PRIMAVERA",
      "house": "3",
      "postcode": "2670-645",
      "city": "BUCELAS",
      "lon": "-9.11900075996478",
      "lat": "38.9027531972447"
    },
    {
      "id": "pt.ine.add.PTCONT.2275951",
      "street": "R AUGUSTO PRIMAVERA",
      "house": "3",
      "postcode": "2670-645",
      "city": "BUCELAS",
      "lon": "-9.11900075996478",
      "lat": "38.9027531972447"
    },
    {
      "id": "pt.ine.add.PTCONT.2280231",
      "street": "R PACIENCIA",
      "house": "10",
      "postcode": "2670-665",
      "city": "BUCELAS",
      "lon": "-9.120411340341002",
      "lat": "38.903056543584"
    },
    {
      "id": "pt.ine.add.PTCONT.2315979",
      "street": "R FRANCISCO JOSE LUCIO FIALHO",
      "house": "30",
      "postcode": "2670-627",
      "city": "BUCELAS",
      "lon": "-9.120135651730317",
      "lat": "38.90395963632055"
    },
    {
      "id": "pt.ine.add.PTCONT.2315980",
      "street": "R FRANCISCO JOSE LUCIO FIALHO",
      "house": "30",
      "postcode": "2670-627",
      "city": "BUCELAS",
      "lon": "-9.120135651730317",
      "lat": "38.90395963632055"
    },
    {
      "id": "pt.ine.add.PTCONT.2315981",
      "street": "R FRANCISCO JOSE LUCIO FIALHO",
      "house": "30",
      "postcode": "2670-627",
      "city": "BUCELAS",
      "lon": "-9.120135651730317",
      "lat": "38.90395963632055"
    },
    {
      "id": "pt.ine.add.PTCONT.2315982",
      "street": "R FRANCISCO JOSE LUCIO FIALHO",
      "house": "30",
      "postcode": "2670-627",
      "city": "BUCELAS",
      "lon": "-9.120135651730317",
      "lat": "38.90395963632055"
    },
    {
      "id": "pt.ine.add.PTCONT.2316042",
      "street": "R FRANCISCO JOSE LUCIO FIALHO",
      "house": "30",
      "postcode": "2670-627",
      "city": "BUCELAS",
      "lon": "-9.120135651730317",
      "lat": "38.90395963632055"
    },
    {
      "id": "pt.ine.add.PTCONT.2316043",
      "street": "R FRANCISCO JOSE LUCIO FIALHO",
      "house": "30",
      "postcode": "2670-627",
      "city": "BUCELAS",
      "lon": "-9.120135651730317",
      "lat": "38.90395963632055"
    },
    {
      "id": "pt.ine.add.PTCONT.2316044",
      "street": "R FRANCISCO JOSE LUCIO FIALHO",
      "house": "30",
      "postcode": "2670-627",
      "city": "BUCELAS",
      "lon": "-9.120135651730317",
      "lat": "38.90395963632055"
    },
    {
      "id": "pt.ine.add.PTCONT.2320298",
      "street": "R PACIENCIA",
      "house": "20",
      "postcode": "2670-665",
      "city": "BUCELAS",
      "lon": "-9.12107159029842",
      "lat": "38.90328515622823"
    },
    {
      "id": "pt.ine.add.PTCONT.2320541",
      "street": "R FRANCISCO JOSE LUCIO FIALHO",
      "house": "30",
      "postcode": "2670-627",
      "city": "BUCELAS",
      "lon": "-9.120135651730317",
      "lat": "38.90395963632055"
    },
    {
      "id": "pt.ine.add.PTCONT.2352299",
      "street": "R AUGUSTO PRIMAVERA",
      "house": "7 A",
      "postcode": "2670-645",
      "city": "BUCELAS",
      "lon": "-9.119773523951055",
      "lat": "38.902782699499525"
    },
    {
      "id": "pt.ine.add.PTCONT.2408011",
      "street": "R PACIENCIA",
      "house": "",
      "postcode": "2670-665",
      "city": "BUCELAS",
      "lon": "-9.12021065225559",
      "lat": "38.902715951102685"
    },
    {
      "id": "pt.ine.add.PTCONT.2407862",
      "street": "R AUGUSTO PRIMAVERA",
      "house": "9",
      "postcode": "2670-645",
      "city": "BUCELAS",
      "lon": "-9.119865734766464",
      "lat": "38.90278192017185"
    },
    {
      "id": "pt.ine.add.PTCONT.2408010",
      "street": "R PACIENCIA",
      "house": "",
      "postcode": "2670-665",
      "city": "BUCELAS",
      "lon": "-9.12021065225559",
      "lat": "38.902715951102685"
    },
    {
      "id": "pt.ine.add.PTCONT.2408008",
      "street": "R PACIENCIA",
      "house": "",
      "postcode": "2670-665",
      "city": "BUCELAS",
      "lon": "-9.12021065225559",
      "lat": "38.902715951102685"
    },
    {
      "id": "pt.ine.add.PTCONT.2408009",
      "street": "R PACIENCIA",
      "house": "",
      "postcode": "2670-665",
      "city": "BUCELAS",
      "lon": "-9.12021065225559",
      "lat": "38.902715951102685"
    },
    {
      "id": "pt.ine.add.PTCONT.2408012",
      "street": "R PACIENCIA",
      "house": "",
      "postcode": "2670-665",
      "city": "BUCELAS",
      "lon": "-9.12021065225559",
      "lat": "38.902715951102685"
    },
    {
      "id": "pt.ine.add.PTCONT.2408013",
      "street": "R PACIENCIA",
      "house": "",
      "postcode": "2670-665",
      "city": "BUCELAS",
      "lon": "-9.12021065225559",
      "lat": "38.902715951102685"
    },
    {
      "id": "pt.ine.add.PTCONT.2408014",
      "street": "R PACIENCIA",
      "house": "",
      "postcode": "2670-665",
      "city": "BUCELAS",
      "lon": "-9.12021065225559",
      "lat": "38.902715951102685"
    },
    {
      "id": "pt.ine.add.PTCONT.2408020",
      "street": "R JOÃO CAMILO ALVES",
      "house": "70",
      "postcode": "2670-661",
      "city": "BUCELAS",
      "lon": "-9.120613075955081",
      "lat": "38.90264048700395"
    },
    {
      "id": "pt.ine.add.PTCONT.2411893",
      "street": "R PACIENCIA",
      "house": "",
      "postcode": "2670-665",
      "city": "BUCELAS",
      "lon": "-9.12021065225559",
      "lat": "38.902715951102685"
    },
    {
      "id": "pt.ine.add.PTCONT.2443689",
      "street": "R DR ALBERTO ALVES DE OLIVEIRA",
      "house": "7",
      "postcode": "2670-639",
      "city": "BUCELAS",
      "lon": "-9.120069485458464",
      "lat": "38.90417637847346"
    },
    {
      "id": "pt.ine.add.PTCONT.2453355",
      "street": "R JOÃO CAMILO ALVES",
      "house": "66",
      "postcode": "2670-661",
      "city": "BUCELAS",
      "lon": "-9.12025538564091",
      "lat": "38.9026164890813"
    },
    {
      "id": "pt.ine.add.PTCONT.2453356",
      "street": "R JOÃO CAMILO ALVES",
      "house": "66",
      "postcode": "2670-661",
      "city": "BUCELAS",
      "lon": "-9.12025538564091",
      "lat": "38.9026164890813"
    },
    {
      "id": "pt.ine.add.PTCONT.2457834",
      "street": "R JOÃO CAMILO ALVES",
      "house": "66",
      "postcode": "2670-661",
      "city": "BUCELAS",
      "lon": "-9.12025538564091",
      "lat": "38.9026164890813"
    },
    {
      "id": "pt.ine.add.PTCONT.2463664",
      "street": "R JOÃO CAMILO ALVES",
      "house": "36",
      "postcode": "2670-661",
      "city": "BUCELAS",
      "lon": "-9.118757834849882",
      "lat": "38.90269219506024"
    },
    {
      "id": "pt.ine.add.PTCONT.2463665",
      "street": "R JOÃO CAMILO ALVES",
      "house": "36",
      "postcode": "2670-661",
      "city": "BUCELAS",
      "lon": "-9.118757834849882",
      "lat": "38.90269219506024"
    },
    {
      "id": "pt.ine.add.PTCONT.2475068",
      "street": "TV ABROLHO",
      "house": "2A",
      "postcode": "2670-635",
      "city": "BUCELAS",
      "lon": "-9.120984040253761",
      "lat": "38.90279047815251"
    },
    {
      "id": "pt.ine.add.PTCONT.2475069",
      "street": "TV ABROLHO",
      "house": "2A",
      "postcode": "2670-635",
      "city": "BUCELAS",
      "lon": "-9.120984040253761",
      "lat": "38.90279047815251"
    },
    {
      "id": "pt.ine.add.PTCONT.2475070",
      "street": "TV ABROLHO",
      "house": "2A",
      "postcode": "2670-635",
      "city": "BUCELAS",
      "lon": "-9.120984040253761",
      "lat": "38.90279047815251"
    },
    {
      "id": "pt.ine.add.PTCONT.2480004",
      "street": "TV ABROLHO",
      "house": "1",
      "postcode": "2670-635",
      "city": "BUCELAS",
      "lon": "-9.121122356440136",
      "lat": "38.902789307699514"
    },
    {
      "id": "pt.ine.add.PTCONT.2507528",
      "street": "R PROF D IRENE SEVERINA VIEIRA DA CRUZ",
      "house": "9",
      "postcode": "2670-660",
      "city": "BUCELAS",
      "lon": "-9.119422003072465",
      "lat": "38.904037728516805"
    },
    {
      "id": "pt.ine.add.PTCONT.2525066",
      "street": "R AUGUSTO PRIMAVERA",
      "house": "28",
      "postcode": "2670-645",
      "city": "BUCELAS",
      "lon": "-9.119867106206641",
      "lat": "38.90288099237528"
    },
    {
      "id": "pt.ine.add.PTCONT.2525185",
      "street": "R D AFONSO HENRIQUES",
      "house": "22",
      "postcode": "2670-637",
      "city": "BUCELAS",
      "lon": "-9.121284849013536",
      "lat": "38.90286900100488"
    },
    {
      "id": "pt.ine.add.PTCONT.2534406",
      "street": "R PROF D IRENE SEVERINA VIEIRA DA CRUZ",
      "house": "11",
      "postcode": "2670-660",
      "city": "BUCELAS",
      "lon": "-9.119514464795612",
      "lat": "38.90405496257182"
    },
    {
      "id": "pt.ine.add.PTCONT.2569984",
      "street": "R DR ALBERTO ALVES DE OLIVEIRA",
      "house": "1",
      "postcode": "2670-639",
      "city": "BUCELAS",
      "lon": "-9.11981527738356",
      "lat": "38.90413348914576"
    },
    {
      "id": "pt.ine.add.PTCONT.2579798",
      "street": "R PROF D IRENE SEVERINA VIEIRA DA CRUZ",
      "house": "13",
      "postcode": "2670-660",
      "city": "BUCELAS",
      "lon": "-9.119606926562",
      "lat": "38.90407219655299"
    },
    {
      "id": "pt.ine.add.PTCONT.2579888",
      "street": "TV ABROLHO",
      "house": "7B",
      "postcode": "2670-635",
      "city": "BUCELAS",
      "lon": "-9.121194885327817",
      "lat": "38.903031899537595"
    },
    {
      "id": "pt.ine.add.PTCONT.2633133",
      "street": "R PROF D IRENE SEVERINA VIEIRA DA CRUZ",
      "house": "7",
      "postcode": "2670-660",
      "city": "BUCELAS",
      "lon": "-9.1193409433311",
      "lat": "38.90401139045365"
    },
    {
      "id": "pt.ine.add.PTCONT.2712710",
      "street": "R JOÃO CAMILO ALVES",
      "house": "60",
      "postcode": "2670-661",
      "city": "BUCELAS",
      "lon": "-9.11963470913387",
      "lat": "38.90274784209578"
    },
    {
      "id": "pt.ine.add.PTCONT.2755842",
      "street": "TV ABROLHO",
      "house": "2 C",
      "postcode": "2670-635",
      "city": "BUCELAS",
      "lon": "-9.121113077101963",
      "lat": "38.90295152333259"
    },
    {
      "id": "pt.ine.add.PTCONT.2765053",
      "street": "R FRANCISCO JOSE LUCIO FIALHO",
      "house": "28",
      "postcode": "2670-627",
      "city": "BUCELAS",
      "lon": "-9.120471168980352",
      "lat": "38.904046875408255"
    },
    {
      "id": "pt.ine.add.PTCONT.2765230",
      "street": "R FRANCISCO JOSE LUCIO FIALHO",
      "house": "28",
      "postcode": "2670-627",
      "city": "BUCELAS",
      "lon": "-9.120471168980352",
      "lat": "38.904046875408255"
    },
    {
      "id": "pt.ine.add.PTCONT.2765231",
      "street": "R FRANCISCO JOSE LUCIO FIALHO",
      "house": "28",
      "postcode": "2670-627",
      "city": "BUCELAS",
      "lon": "-9.120471168980352",
      "lat": "38.904046875408255"
    },
    {
      "id": "pt.ine.add.PTCONT.2765232",
      "street": "R FRANCISCO JOSE LUCIO FIALHO",
      "house": "28",
      "postcode": "2670-627",
      "city": "BUCELAS",
      "lon": "-9.120471168980352",
      "lat": "38.904046875408255"
    },
    {
      "id": "pt.ine.add.PTCONT.2765233",
      "street": "R FRANCISCO JOSE LUCIO FIALHO",
      "house": "28",
      "postcode": "2670-627",
      "city": "BUCELAS",
      "lon": "-9.120471168980352",
      "lat": "38.904046875408255"
    },
    {
      "id": "pt.ine.add.PTCONT.2765234",
      "street": "R FRANCISCO JOSE LUCIO FIALHO",
      "house": "28",
      "postcode": "2670-627",
      "city": "BUCELAS",
      "lon": "-9.120471168980352",
      "lat": "38.904046875408255"
    },
    {
      "id": "pt.ine.add.PTCONT.2765235",
      "street": "R FRANCISCO JOSE LUCIO FIALHO",
      "house": "28",
      "postcode": "2670-627",
      "city": "BUCELAS",
      "lon": "-9.120471168980352",
      "lat": "38.904046875408255"
    },
    {
      "id": "pt.ine.add.PTCONT.2765236",
      "street": "R FRANCISCO JOSE LUCIO FIALHO",
      "house": "28",
      "postcode": "2670-627",
      "city": "BUCELAS",
      "lon": "-9.120471168980352",
      "lat": "38.904046875408255"
    },
    {
      "id": "pt.ine.add.PTCONT.2777618",
      "street": "R DR ALBERTO ALVES DE OLIVEIRA",
      "house": "3",
      "postcode": "2670-639",
      "city": "BUCELAS",
      "lon": "-9.119896088060992",
      "lat": "38.90414181375127"
    },
    {
      "id": "pt.ine.add.PTCONT.2786345",
      "street": "R JULIO DINIS",
      "house": "17",
      "postcode": "2670-660",
      "city": "BUCELAS",
      "lon": "-9.119061814464743",
      "lat": "38.9038335957477"
    },
    {
      "id": "pt.ine.add.PTCONT.2794751",
      "street": "R AUGUSTO PRIMAVERA",
      "house": "30",
      "postcode": "2670-645",
      "city": "BUCELAS",
      "lon": "-9.11997134227343",
      "lat": "38.90291614179579"
    },
    {
      "id": "pt.ine.add.PTCONT.2800172",
      "street": "R D AFONSO HENRIQUES",
      "house": "24",
      "postcode": "2670-637",
      "city": "BUCELAS",
      "lon": "-9.121403484137828",
      "lat": "38.90311120244755"
    },
    {
      "id": "pt.ine.add.PTCONT.2800173",
      "street": "R D AFONSO HENRIQUES",
      "house": "24",
      "postcode": "2670-637",
      "city": "BUCELAS",
      "lon": "-9.121403484137828",
      "lat": "38.90311120244755"
    },
    {
      "id": "pt.ine.add.PTCONT.2800174",
      "street": "R D AFONSO HENRIQUES",
      "house": "24",
      "postcode": "2670-637",
      "city": "BUCELAS",
      "lon": "-9.121403484137828",
      "lat": "38.90311120244755"
    },
    {
      "id": "pt.ine.add.PTCONT.2812811",
      "street": "R PACIENCIA",
      "house": "6",
      "postcode": "2670-665",
      "city": "BUCELAS",
      "lon": "-9.120375264259861",
      "lat": "38.90294875725614"
    },
    {
      "id": "pt.ine.add.PTCONT.2820234",
      "street": "TV ABROLHO",
      "house": "7",
      "postcode": "2670-635",
      "city": "BUCELAS",
      "lon": "-9.121275195473311",
      "lat": "38.90300419696451"
    },
    {
      "id": "pt.ine.add.PTCONT.2820235",
      "street": "R D AFONSO HENRIQUES",
      "house": "16B",
      "postcode": "2670-637",
      "city": "BUCELAS",
      "lon": "-9.121236995676234",
      "lat": "38.90274329939527"
    },
    {
      "id": "pt.ine.add.PTCONT.2831015",
      "street": "R PROF D IRENE SEVERINA VIEIRA DA CRUZ",
      "house": "1",
      "postcode": "2670-660",
      "city": "BUCELAS",
      "lon": "-9.119051284563746",
      "lat": "38.903905745606906"
    },
    {
      "id": "pt.ine.add.PTCONT.2838118",
      "street": "TV ABROLHO",
      "house": "5",
      "postcode": "2670-635",
      "city": "BUCELAS",
      "lon": "-9.121228465696067",
      "lat": "38.9029595543958"
    },
    {
      "id": "pt.ine.add.PTCONT.2842127",
      "street": "R AUGUSTO PRIMAVERA",
      "house": "26 A",
      "postcode": "2670-645",
      "city": "BUCELAS",
      "lon": "-9.119846671632672",
      "lat": "38.90307032505412"
    },
    {
      "id": "pt.ine.add.PTCONT.2865241",
      "street": "R JULIO DINIS",
      "house": "",
      "postcode": "2670-660",
      "city": "BUCELAS",
      "lon": "-9.119679385096811",
      "lat": "38.9034770815845"
    }
  ]
}