{
  "data": {
    "distrito": "Braga",
    "concelho": "Guimarães",
    "freguesia": "Selho (São Jorge)",
    "OBJECTID": 366,
    "BGRI2021": "03085400302",
    "DT21": "03",
    "DTMN21": "0308",
    "DTMNFR21": "030854",
    "DTMNFRSEC21": "030854003",
    "SECNUM21": "003",
    "SSNUM21": "02",
    "SECSSNUM21": "00302",
    "OBJECTID_1": 26305,
    "DT": "03",
    "CC": "08",
    "fr": "54",
    "SEC": "003",
    "SS": "02"
  },
  "addresses": [
    {
      "id": "pt.ine.add.PTCONT.472238",
      "street": "R CABREIRA",
      "house": "1032",
      "postcode": "4835-310",
      "city": "GUIMARÃES",
      "lon": "-8.36043229112404",
      "lat": "41.43037884282327"
    },
    {
      "id": "pt.ine.add.PTCONT.485127",
      "street": "R CABREIRA",
      "house": "597 F",
      "postcode": "4835-310",
      "city": "GUIMARÃES",
      "lon": "-8.361958237494452",
      "lat": "41.42883614171704"
    },
    {
      "id": "pt.ine.add.PTCONT.502808",
      "street": "R CABREIRA",
      "house": "286 B",
      "postcode": "4835-310",
      "city": "GUIMARÃES",
      "lon": "-8.362050718459008",
      "lat": "41.42791755434556"
    },
    {
      "id": "pt.ine.add.PTCONT.510742",
      "street": "R CABREIRA",
      "house": "782",
      "postcode": "4835-310",
      "city": "GUIMARÃES",
      "lon": "-8.360717910357959",
      "lat": "41.42994608842795"
    },
    {
      "id": "pt.ine.add.PTCONT.510743",
      "street": "R CABREIRA",
      "house": "782",
      "postcode": "4835-310",
      "city": "GUIMARÃES",
      "lon": "-8.360717910357959",
      "lat": "41.42994608842795"
    },
    {
      "id": "pt.ine.add.PTCONT.514589",
      "street": "R CABREIRA",
      "house": "1068",
      "postcode": "4835-310",
      "city": "GUIMARÃES",
      "lon": "-8.360325120146566",
      "lat": "41.43052311775385"
    },
    {
      "id": "pt.ine.add.PTCONT.535097",
      "street": "R CABREIRA",
      "house": "594",
      "postcode": "4835-310",
      "city": "GUIMARÃES",
      "lon": "-8.362053407072972",
      "lat": "41.42868288515491"
    },
    {
      "id": "pt.ine.add.PTCONT.535098",
      "street": "R CABREIRA",
      "house": "594",
      "postcode": "4835-310",
      "city": "GUIMARÃES",
      "lon": "-8.362053407072972",
      "lat": "41.42868288515491"
    },
    {
      "id": "pt.ine.add.PTCONT.552663",
      "street": "R MIRAL",
      "house": "386",
      "postcode": "4835-335",
      "city": "GUIMARÃES",
      "lon": "-8.36060061984347",
      "lat": "41.42719111032851"
    },
    {
      "id": "pt.ine.add.PTCONT.555770",
      "street": "R MIRAL URBANIZAÇÃO DO PELOURINHO",
      "house": "112",
      "postcode": "4835-335",
      "city": "GUIMARÃES",
      "lon": "-8.357764740816052",
      "lat": "41.42701660362011"
    },
    {
      "id": "pt.ine.add.PTCONT.555771",
      "street": "R MIRAL URBANIZAÇÃO DO PELOURINHO",
      "house": "112",
      "postcode": "4835-335",
      "city": "GUIMARÃES",
      "lon": "-8.357764740816052",
      "lat": "41.42701660362011"
    },
    {
      "id": "pt.ine.add.PTCONT.555772",
      "street": "R MIRAL URBANIZAÇÃO DO PELOURINHO",
      "house": "112",
      "postcode": "4835-335",
      "city": "GUIMARÃES",
      "lon": "-8.357764740816052",
      "lat": "41.42701660362011"
    },
    {
      "id": "pt.ine.add.PTCONT.555773",
      "street": "R MIRAL URBANIZAÇÃO DO PELOURINHO",
      "house": "112",
      "postcode": "4835-335",
      "city": "GUIMARÃES",
      "lon": "-8.357764740816052",
      "lat": "41.42701660362011"
    },
    {
      "id": "pt.ine.add.PTCONT.555923",
      "street": "R MIRAL URBANIZAÇÃO DO PELOURINHO",
      "house": "112",
      "postcode": "4835-335",
      "city": "GUIMARÃES",
      "lon": "-8.357764740816052",
      "lat": "41.42701660362011"
    },
    {
      "id": "pt.ine.add.PTCONT.556960",
      "street": "R MIRAL URBANIZAÇÃO DO PELOURINHO",
      "house": "112",
      "postcode": "4835-335",
      "city": "GUIMARÃES",
      "lon": "-8.357764740816052",
      "lat": "41.42701660362011"
    },
    {
      "id": "pt.ine.add.PTCONT.559210",
      "street": "R PADRE JOSE GONÇALVES",
      "house": "735",
      "postcode": "4835-325",
      "city": "GUIMARÃES",
      "lon": "-8.357936261927174",
      "lat": "41.428186782882484"
    },
    {
      "id": "pt.ine.add.PTCONT.559211",
      "street": "R CABREIRA",
      "house": "594 D",
      "postcode": "4835-310",
      "city": "GUIMARÃES",
      "lon": "-8.361957889693088",
      "lat": "41.42873709891415"
    },
    {
      "id": "pt.ine.add.PTCONT.559212",
      "street": "R CABREIRA",
      "house": "594 C",
      "postcode": "4835-310",
      "city": "GUIMARÃES",
      "lon": "-8.361957889693088",
      "lat": "41.42873709891415"
    },
    {
      "id": "pt.ine.add.PTCONT.559213",
      "street": "R PADRE JOSÉ GONÇALVES URBANIZAÇÃO DO PELOURINHO",
      "house": "9",
      "postcode": "4835-325",
      "city": "GUIMARÃES",
      "lon": "-8.357622951812772",
      "lat": "41.42753010593316"
    },
    {
      "id": "pt.ine.add.PTCONT.559214",
      "street": "R PADRE JOSÉ GONÇALVES URBANIZAÇÃO DO PELOURINHO",
      "house": "9",
      "postcode": "4835-325",
      "city": "GUIMARÃES",
      "lon": "-8.357622951812772",
      "lat": "41.42753010593316"
    },
    {
      "id": "pt.ine.add.PTCONT.559215",
      "street": "R PADRE JOSÉ GONÇALVES URBANIZAÇÃO DO PELOURINHO",
      "house": "9",
      "postcode": "4835-325",
      "city": "GUIMARÃES",
      "lon": "-8.357622951812772",
      "lat": "41.42753010593316"
    },
    {
      "id": "pt.ine.add.PTCONT.559216",
      "street": "R PADRE JOSÉ GONÇALVES URBANIZAÇÃO DO PELOURINHO",
      "house": "9",
      "postcode": "4835-325",
      "city": "GUIMARÃES",
      "lon": "-8.357622951812772",
      "lat": "41.42753010593316"
    },
    {
      "id": "pt.ine.add.PTCONT.559217",
      "street": "R PADRE JOSÉ GONÇALVES URBANIZAÇÃO DO PELOURINHO",
      "house": "9",
      "postcode": "4835-325",
      "city": "GUIMARÃES",
      "lon": "-8.357622951812772",
      "lat": "41.42753010593316"
    },
    {
      "id": "pt.ine.add.PTCONT.559218",
      "street": "R PADRE JOSÉ GONÇALVES URBANIZAÇÃO DO PELOURINHO",
      "house": "9",
      "postcode": "4835-325",
      "city": "GUIMARÃES",
      "lon": "-8.357622951812772",
      "lat": "41.42753010593316"
    },
    {
      "id": "pt.ine.add.PTCONT.559308",
      "street": "R PADRE JOSÉ GONÇALVES URBANIZAÇÃO DO PELOURINHO",
      "house": "9",
      "postcode": "4835-325",
      "city": "GUIMARÃES",
      "lon": "-8.357622951812772",
      "lat": "41.42753010593316"
    },
    {
      "id": "pt.ine.add.PTCONT.559309",
      "street": "R PADRE JOSÉ GONÇALVES URBANIZAÇÃO DO PELOURINHO",
      "house": "9",
      "postcode": "4835-325",
      "city": "GUIMARÃES",
      "lon": "-8.357622951812772",
      "lat": "41.42753010593316"
    },
    {
      "id": "pt.ine.add.PTCONT.559429",
      "street": "R PADRE JOSÉ GONÇALVES URBANIZAÇÃO DO PELOURINHO",
      "house": "9",
      "postcode": "4835-325",
      "city": "GUIMARÃES",
      "lon": "-8.357622951812772",
      "lat": "41.42753010593316"
    },
    {
      "id": "pt.ine.add.PTCONT.559449",
      "street": "R PADRE JOSÉ GONÇALVES URBANIZAÇÃO DO PELOURINHO",
      "house": "9",
      "postcode": "4835-325",
      "city": "GUIMARÃES",
      "lon": "-8.357622951812772",
      "lat": "41.42753010593316"
    },
    {
      "id": "pt.ine.add.PTCONT.559557",
      "street": "R PADRE JOSÉ GONÇALVES URBANIZAÇÃO DO PELOURINHO",
      "house": "9",
      "postcode": "4835-325",
      "city": "GUIMARÃES",
      "lon": "-8.357622951812772",
      "lat": "41.42753010593316"
    },
    {
      "id": "pt.ine.add.PTCONT.559695",
      "street": "R PADRE JOSÉ GONÇALVES URBANIZAÇÃO DO PELOURINHO",
      "house": "9",
      "postcode": "4835-325",
      "city": "GUIMARÃES",
      "lon": "-8.357622951812772",
      "lat": "41.42753010593316"
    },
    {
      "id": "pt.ine.add.PTCONT.561621",
      "street": "R SAUDADE",
      "house": "371",
      "postcode": "4835-352",
      "city": "GUIMARÃES",
      "lon": "-8.359954432714707",
      "lat": "41.430577872948305"
    },
    {
      "id": "pt.ine.add.PTCONT.568688",
      "street": "R PADRE JOSE GONCALVES",
      "house": "1047",
      "postcode": "4835-325",
      "city": "GUIMARÃES",
      "lon": "-8.357750373702133",
      "lat": "41.42978984981137"
    },
    {
      "id": "pt.ine.add.PTCONT.644064",
      "street": "R PADRE JOSE GONÇALVES",
      "house": "1173",
      "postcode": "4835-325",
      "city": "GUIMARÃES",
      "lon": "-8.357463867440423",
      "lat": "41.429970487925736"
    },
    {
      "id": "pt.ine.add.PTCONT.660620",
      "street": "R CABREIRA",
      "house": "504",
      "postcode": "4835-310",
      "city": "GUIMARÃES",
      "lon": "-8.361120672449125",
      "lat": "41.42880178886418"
    },
    {
      "id": "pt.ine.add.PTCONT.669889",
      "street": "R PADRE JOSÉ GONÇALVES URBANIZAÇÃO DO PELOURINHO",
      "house": "563",
      "postcode": "4835-325",
      "city": "GUIMARÃES",
      "lon": "-8.3573712913045",
      "lat": "41.42740454136269"
    },
    {
      "id": "pt.ine.add.PTCONT.669890",
      "street": "R PADRE JOSÉ GONÇALVES URBANIZAÇÃO DO PELOURINHO",
      "house": "563",
      "postcode": "4835-325",
      "city": "GUIMARÃES",
      "lon": "-8.3573712913045",
      "lat": "41.42740454136269"
    },
    {
      "id": "pt.ine.add.PTCONT.669891",
      "street": "R PADRE JOSÉ GONÇALVES URBANIZAÇÃO DO PELOURINHO",
      "house": "563",
      "postcode": "4835-325",
      "city": "GUIMARÃES",
      "lon": "-8.3573712913045",
      "lat": "41.42740454136269"
    },
    {
      "id": "pt.ine.add.PTCONT.669892",
      "street": "R PADRE JOSÉ GONÇALVES URBANIZAÇÃO DO PELOURINHO",
      "house": "563",
      "postcode": "4835-325",
      "city": "GUIMARÃES",
      "lon": "-8.3573712913045",
      "lat": "41.42740454136269"
    },
    {
      "id": "pt.ine.add.PTCONT.669893",
      "street": "R PADRE JOSÉ GONÇALVES URBANIZAÇÃO DO PELOURINHO",
      "house": "563",
      "postcode": "4835-325",
      "city": "GUIMARÃES",
      "lon": "-8.3573712913045",
      "lat": "41.42740454136269"
    },
    {
      "id": "pt.ine.add.PTCONT.669894",
      "street": "R PADRE JOSÉ GONÇALVES URBANIZAÇÃO DO PELOURINHO",
      "house": "563",
      "postcode": "4835-325",
      "city": "GUIMARÃES",
      "lon": "-8.3573712913045",
      "lat": "41.42740454136269"
    },
    {
      "id": "pt.ine.add.PTCONT.669895",
      "street": "R PADRE JOSÉ GONÇALVES URBANIZAÇÃO DO PELOURINHO",
      "house": "563",
      "postcode": "4835-325",
      "city": "GUIMARÃES",
      "lon": "-8.3573712913045",
      "lat": "41.42740454136269"
    },
    {
      "id": "pt.ine.add.PTCONT.670688",
      "street": "R PADRE JOSÉ GONÇALVES URBANIZAÇÃO DO PELOURINHO",
      "house": "563",
      "postcode": "4835-325",
      "city": "GUIMARÃES",
      "lon": "-8.3573712913045",
      "lat": "41.42740454136269"
    },
    {
      "id": "pt.ine.add.PTCONT.672589",
      "street": "R MIRAL URBANIZAÇÃO DO PELOURINHO",
      "house": "84",
      "postcode": "4835-335",
      "city": "GUIMARÃES",
      "lon": "-8.357501676972971",
      "lat": "41.42705313281945"
    },
    {
      "id": "pt.ine.add.PTCONT.672590",
      "street": "R MIRAL URBANIZAÇÃO DO PELOURINHO",
      "house": "84",
      "postcode": "4835-335",
      "city": "GUIMARÃES",
      "lon": "-8.357501676972971",
      "lat": "41.42705313281945"
    },
    {
      "id": "pt.ine.add.PTCONT.672591",
      "street": "R MIRAL URBANIZAÇÃO DO PELOURINHO",
      "house": "84",
      "postcode": "4835-335",
      "city": "GUIMARÃES",
      "lon": "-8.357501676972971",
      "lat": "41.42705313281945"
    },
    {
      "id": "pt.ine.add.PTCONT.672592",
      "street": "R MIRAL URBANIZAÇÃO DO PELOURINHO",
      "house": "84",
      "postcode": "4835-335",
      "city": "GUIMARÃES",
      "lon": "-8.357501676972971",
      "lat": "41.42705313281945"
    },
    {
      "id": "pt.ine.add.PTCONT.672593",
      "street": "R MIRAL URBANIZAÇÃO DO PELOURINHO",
      "house": "84",
      "postcode": "4835-335",
      "city": "GUIMARÃES",
      "lon": "-8.357501676972971",
      "lat": "41.42705313281945"
    },
    {
      "id": "pt.ine.add.PTCONT.673576",
      "street": "R CABREIRA",
      "house": "654",
      "postcode": "4835-310",
      "city": "GUIMARÃES",
      "lon": "-8.36174371734442",
      "lat": "41.42907067102127"
    },
    {
      "id": "pt.ine.add.PTCONT.677883",
      "street": "R CABREIRA",
      "house": "414",
      "postcode": "4835-310",
      "city": "GUIMARÃES",
      "lon": "-8.362374106182578",
      "lat": "41.42802495784236"
    },
    {
      "id": "pt.ine.add.PTCONT.687505",
      "street": "R CABREIRA",
      "house": "972",
      "postcode": "4835-310",
      "city": "GUIMARÃES",
      "lon": "-8.36068271125643",
      "lat": "41.43014424500663"
    },
    {
      "id": "pt.ine.add.PTCONT.687506",
      "street": "R CABREIRA",
      "house": "972",
      "postcode": "4835-310",
      "city": "GUIMARÃES",
      "lon": "-8.36068271125643",
      "lat": "41.43014424500663"
    },
    {
      "id": "pt.ine.add.PTCONT.711251",
      "street": "R CABREIRA",
      "house": "286 B",
      "postcode": "4835-310",
      "city": "GUIMARÃES",
      "lon": "-8.361943112478794",
      "lat": "41.42793577633226"
    },
    {
      "id": "pt.ine.add.PTCONT.714451",
      "street": "R PADRE JOSE GONÇALVES",
      "house": "",
      "postcode": "4835-325",
      "city": "GUIMARÃES",
      "lon": "-8.358069505477937",
      "lat": "41.428663732039"
    },
    {
      "id": "pt.ine.add.PTCONT.729234",
      "street": "R CABREIRA",
      "house": "352",
      "postcode": "4835-310",
      "city": "GUIMARÃES",
      "lon": "-8.36233783634871",
      "lat": "41.42791698264859"
    },
    {
      "id": "pt.ine.add.PTCONT.735178",
      "street": "R CABREIRA",
      "house": "712",
      "postcode": "4835-310",
      "city": "GUIMARÃES",
      "lon": "-8.361457824795067",
      "lat": "41.42942239298822"
    },
    {
      "id": "pt.ine.add.PTCONT.746751",
      "street": "R SOALHEIRA",
      "house": "83",
      "postcode": "4835-357",
      "city": "GUIMARÃES",
      "lon": "-8.357678188780152",
      "lat": "41.4296729393453"
    },
    {
      "id": "pt.ine.add.PTCONT.746876",
      "street": "R CABREIRA",
      "house": "996",
      "postcode": "4835-310",
      "city": "GUIMARÃES",
      "lon": "-8.360623301639407",
      "lat": "41.43026141388108"
    },
    {
      "id": "pt.ine.add.PTCONT.780440",
      "street": "R CABREIRA",
      "house": "656",
      "postcode": "4835-310",
      "city": "GUIMARÃES",
      "lon": "-8.361612656017021",
      "lat": "41.42922399860832"
    },
    {
      "id": "pt.ine.add.PTCONT.784498",
      "street": "R MIRAL",
      "house": "36",
      "postcode": "4835-335",
      "city": "GUIMARÃES",
      "lon": "-8.357238705725726",
      "lat": "41.42711667310804"
    },
    {
      "id": "pt.ine.add.PTCONT.784499",
      "street": "R MIRAL",
      "house": "36",
      "postcode": "4835-335",
      "city": "GUIMARÃES",
      "lon": "-8.357238705725726",
      "lat": "41.42711667310804"
    },
    {
      "id": "pt.ine.add.PTCONT.784500",
      "street": "R MIRAL",
      "house": "36",
      "postcode": "4835-335",
      "city": "GUIMARÃES",
      "lon": "-8.357238705725726",
      "lat": "41.42711667310804"
    },
    {
      "id": "pt.ine.add.PTCONT.784501",
      "street": "R MIRAL",
      "house": "36",
      "postcode": "4835-335",
      "city": "GUIMARÃES",
      "lon": "-8.357238705725726",
      "lat": "41.42711667310804"
    },
    {
      "id": "pt.ine.add.PTCONT.784502",
      "street": "R MIRAL",
      "house": "36",
      "postcode": "4835-335",
      "city": "GUIMARÃES",
      "lon": "-8.357238705725726",
      "lat": "41.42711667310804"
    },
    {
      "id": "pt.ine.add.PTCONT.784503",
      "street": "R MIRAL",
      "house": "36",
      "postcode": "4835-335",
      "city": "GUIMARÃES",
      "lon": "-8.357238705725726",
      "lat": "41.42711667310804"
    },
    {
      "id": "pt.ine.add.PTCONT.784504",
      "street": "R MIRAL",
      "house": "36",
      "postcode": "4835-335",
      "city": "GUIMARÃES",
      "lon": "-8.357238705725726",
      "lat": "41.42711667310804"
    },
    {
      "id": "pt.ine.add.PTCONT.784505",
      "street": "R MIRAL",
      "house": "36",
      "postcode": "4835-335",
      "city": "GUIMARÃES",
      "lon": "-8.357238705725726",
      "lat": "41.42711667310804"
    },
    {
      "id": "pt.ine.add.PTCONT.784506",
      "street": "R MIRAL",
      "house": "36",
      "postcode": "4835-335",
      "city": "GUIMARÃES",
      "lon": "-8.357238705725726",
      "lat": "41.42711667310804"
    },
    {
      "id": "pt.ine.add.PTCONT.784507",
      "street": "R MIRAL",
      "house": "36",
      "postcode": "4835-335",
      "city": "GUIMARÃES",
      "lon": "-8.357238705725726",
      "lat": "41.42711667310804"
    },
    {
      "id": "pt.ine.add.PTCONT.784508",
      "street": "R MIRAL",
      "house": "36",
      "postcode": "4835-335",
      "city": "GUIMARÃES",
      "lon": "-8.357238705725726",
      "lat": "41.42711667310804"
    },
    {
      "id": "pt.ine.add.PTCONT.784586",
      "street": "R MIRAL",
      "house": "36",
      "postcode": "4835-335",
      "city": "GUIMARÃES",
      "lon": "-8.357238705725726",
      "lat": "41.42711667310804"
    },
    {
      "id": "pt.ine.add.PTCONT.792070",
      "street": "R PADRE JOSE GONCALVES URB DO PELOURINHO",
      "house": "10",
      "postcode": "4835-325",
      "city": "GUIMARÃES",
      "lon": "-8.357790219017522",
      "lat": "41.42746675170794"
    },
    {
      "id": "pt.ine.add.PTCONT.792071",
      "street": "R PADRE JOSE GONCALVES URB DO PELOURINHO",
      "house": "10",
      "postcode": "4835-325",
      "city": "GUIMARÃES",
      "lon": "-8.357790219017522",
      "lat": "41.42746675170794"
    },
    {
      "id": "pt.ine.add.PTCONT.792072",
      "street": "R PADRE JOSE GONCALVES URBANIZACAO DO PELOURINHO",
      "house": "10",
      "postcode": "4835-325",
      "city": "GUIMARÃES",
      "lon": "-8.357790219017522",
      "lat": "41.42746675170794"
    },
    {
      "id": "pt.ine.add.PTCONT.792073",
      "street": "R MIRAL F",
      "house": "F",
      "postcode": "4835-335",
      "city": "GUIMARÃES",
      "lon": "-8.357790219017522",
      "lat": "41.42746675170794"
    },
    {
      "id": "pt.ine.add.PTCONT.792074",
      "street": "R PADRE JOSE GONCALVES URB DO PELOURINHO",
      "house": "10",
      "postcode": "4835-325",
      "city": "GUIMARÃES",
      "lon": "-8.357790219017522",
      "lat": "41.42746675170794"
    },
    {
      "id": "pt.ine.add.PTCONT.792075",
      "street": "R PADRE JOSE GONCALVES URBANIZACAO DO PELOURINHO",
      "house": "10",
      "postcode": "4835-325",
      "city": "GUIMARÃES",
      "lon": "-8.357790219017522",
      "lat": "41.42746675170794"
    },
    {
      "id": "pt.ine.add.PTCONT.792076",
      "street": "R PADRE JOSE GONCALVES J",
      "house": "J",
      "postcode": "4835-325",
      "city": "GUIMARÃES",
      "lon": "-8.357790219017522",
      "lat": "41.42746675170794"
    },
    {
      "id": "pt.ine.add.PTCONT.792077",
      "street": "R PADRE JOSE GONCALVES URB DO PELOURINHO",
      "house": "10",
      "postcode": "4835-325",
      "city": "GUIMARÃES",
      "lon": "-8.357790219017522",
      "lat": "41.42746675170794"
    },
    {
      "id": "pt.ine.add.PTCONT.792121",
      "street": "R PADRE JOSE GONCALVES URB DO PELOURINHO",
      "house": "10",
      "postcode": "4835-325",
      "city": "GUIMARÃES",
      "lon": "-8.357790219017522",
      "lat": "41.42746675170794"
    },
    {
      "id": "pt.ine.add.PTCONT.792122",
      "street": "R PADRE JOSE GONCALVES URB DO PELOURINHO",
      "house": "10",
      "postcode": "4835-325",
      "city": "GUIMARÃES",
      "lon": "-8.357790219017522",
      "lat": "41.42746675170794"
    },
    {
      "id": "pt.ine.add.PTCONT.792972",
      "street": "R PADRE JOSE GONCALVES URBANIZACAO DO PELOURINHO",
      "house": "10",
      "postcode": "4835-325",
      "city": "GUIMARÃES",
      "lon": "-8.357790219017522",
      "lat": "41.42746675170794"
    },
    {
      "id": "pt.ine.add.PTCONT.831838",
      "street": "R CABREIRA",
      "house": "286 B",
      "postcode": "4835-310",
      "city": "GUIMARÃES",
      "lon": "-8.361871459406094",
      "lat": "41.4279719346476"
    },
    {
      "id": "pt.ine.add.PTCONT.841359",
      "street": "R MIRAL URBANIZAÇÃO DO PELOURINHO",
      "house": "84",
      "postcode": "4835-335",
      "city": "GUIMARÃES",
      "lon": "-8.357501676972971",
      "lat": "41.42705313281945"
    },
    {
      "id": "pt.ine.add.PTCONT.841545",
      "street": "R CABREIRA",
      "house": "594 G",
      "postcode": "4835-310",
      "city": "GUIMARÃES",
      "lon": "-8.361790433741405",
      "lat": "41.42874643583477"
    }
  ]
}