{
  "data": {
    "distrito": "Évora",
    "concelho": "Redondo",
    "freguesia": "Montoito",
    "OBJECTID": 71,
    "BGRI2021": "07100100220",
    "DT21": "07",
    "DTMN21": "0710",
    "DTMNFR21": "071001",
    "DTMNFRSEC21": "071001002",
    "SECNUM21": "002",
    "SSNUM21": "20",
    "SECSSNUM21": "00220",
    "OBJECTID_1": 62893,
    "DT": "07",
    "CC": "10",
    "fr": "01",
    "SEC": "002",
    "SS": "20"
  },
  "addresses": [
    {
      "id": "pt.ine.add.PTCONT.1369560",
      "street": "R ALEGRIA",
      "house": "17",
      "postcode": "7200-053",
      "city": "MONTOITO",
      "lon": "-7.599225982525198",
      "lat": "38.50960816908209"
    },
    {
      "id": "pt.ine.add.PTCONT.1372400",
      "street": "TV TAPADA DO RELOGIO",
      "house": "9",
      "postcode": "7200-053",
      "city": "MONTOITO",
      "lon": "-7.599922533480088",
      "lat": "38.5099896961658"
    },
    {
      "id": "pt.ine.add.PTCONT.1373438",
      "street": "TV PARREIRAS",
      "house": "5",
      "postcode": "7200-053",
      "city": "MONTOITO",
      "lon": "-7.599742155663967",
      "lat": "38.509574487392804"
    },
    {
      "id": "pt.ine.add.PTCONT.1380936",
      "street": "R ROSSIO",
      "house": "18",
      "postcode": "7200-053",
      "city": "MONTOITO",
      "lon": "-7.598787132017725",
      "lat": "38.51003857184414"
    },
    {
      "id": "pt.ine.add.PTCONT.1380937",
      "street": "R BENTO DE JESUS CARAÇA",
      "house": "7",
      "postcode": "7200-053",
      "city": "MONTOITO",
      "lon": "-7.599224452615038",
      "lat": "38.509815355804"
    },
    {
      "id": "pt.ine.add.PTCONT.1382534",
      "street": "R ALEGRIA",
      "house": "9",
      "postcode": "7200-053",
      "city": "MONTOITO",
      "lon": "-7.599479799534254",
      "lat": "38.50939312378305"
    },
    {
      "id": "pt.ine.add.PTCONT.1388372",
      "street": "TV PARREIRAS",
      "house": "13",
      "postcode": "7200-053",
      "city": "MONTOITO",
      "lon": "-7.599661371743531",
      "lat": "38.509646186817534"
    },
    {
      "id": "pt.ine.add.PTCONT.1393577",
      "street": "TV TAPADA DO RELOGIO",
      "house": "4",
      "postcode": "7200-053",
      "city": "MONTOITO",
      "lon": "-7.600212403562714",
      "lat": "38.5095496028804"
    },
    {
      "id": "pt.ine.add.PTCONT.1398156",
      "street": "TV TAPADA DO RELOGIO",
      "house": "2",
      "postcode": "7200-053",
      "city": "MONTOITO",
      "lon": "-7.600327846115488",
      "lat": "38.509442027064246"
    },
    {
      "id": "pt.ine.add.PTCONT.1401209",
      "street": "R BENTO DE JESUS CARAÇA",
      "house": "4",
      "postcode": "7200-053",
      "city": "MONTOITO",
      "lon": "-7.5998074216757905",
      "lat": "38.51005223096849"
    },
    {
      "id": "pt.ine.add.PTCONT.1404093",
      "street": "R ALEGRIA",
      "house": "5",
      "postcode": "7200-053",
      "city": "MONTOITO",
      "lon": "-7.599595176445319",
      "lat": "38.50929455681184"
    },
    {
      "id": "pt.ine.add.PTCONT.1409390",
      "street": "R ALEGRIA",
      "house": "3",
      "postcode": "7200-053",
      "city": "MONTOITO",
      "lon": "-7.599641300535627",
      "lat": "38.50925873323828"
    },
    {
      "id": "pt.ine.add.PTCONT.1410205",
      "street": "R ROSSIO",
      "house": "6",
      "postcode": "7200-053",
      "city": "MONTOITO",
      "lon": "-7.599095014851689",
      "lat": "38.51026518669962"
    },
    {
      "id": "pt.ine.add.PTCONT.1417167",
      "street": "TV TAPADA DO RELOGIO",
      "house": "6",
      "postcode": "7200-053",
      "city": "MONTOITO",
      "lon": "-7.6001770137810025",
      "lat": "38.50968456816865"
    },
    {
      "id": "pt.ine.add.PTCONT.1417168",
      "street": "R ALEGRIA",
      "house": "15",
      "postcode": "7200-053",
      "city": "MONTOITO",
      "lon": "-7.5993017689075515",
      "lat": "38.50954505652757"
    },
    {
      "id": "pt.ine.add.PTCONT.1417806",
      "street": "R NOVA DE REGUENGOS",
      "house": "5A",
      "postcode": "7200-053",
      "city": "MONTOITO",
      "lon": "-7.59972195112897",
      "lat": "38.509205050059386"
    },
    {
      "id": "pt.ine.add.PTCONT.1420814",
      "street": "R ALEGRIA",
      "house": "11",
      "postcode": "7200-053",
      "city": "MONTOITO",
      "lon": "-7.599399148551631",
      "lat": "38.50944680679063"
    },
    {
      "id": "pt.ine.add.PTCONT.1421577",
      "street": "R ROSSIO",
      "house": "4",
      "postcode": "7200-053",
      "city": "MONTOITO",
      "lon": "-7.599197731589173",
      "lat": "38.510328713982915"
    },
    {
      "id": "pt.ine.add.PTCONT.1426683",
      "street": "TV PARREIRAS",
      "house": "19",
      "postcode": "7200-053",
      "city": "MONTOITO",
      "lon": "-7.59952279917414",
      "lat": "38.509780681849634"
    },
    {
      "id": "pt.ine.add.PTCONT.1428848",
      "street": "R ROSSIO",
      "house": "12",
      "postcode": "7200-053",
      "city": "MONTOITO",
      "lon": "-7.598912511299488",
      "lat": "38.510138236459355"
    },
    {
      "id": "pt.ine.add.PTCONT.1443373",
      "street": "R BENTO DE JESUS CARAÇA",
      "house": "5",
      "postcode": "7200-053",
      "city": "MONTOITO",
      "lon": "-7.599395491252377",
      "lat": "38.50994225331501"
    },
    {
      "id": "pt.ine.add.PTCONT.1446722",
      "street": "R ALEGRIA",
      "house": "7",
      "postcode": "7200-053",
      "city": "MONTOITO",
      "lon": "-7.5995614988598765",
      "lat": "38.509335169197236"
    },
    {
      "id": "pt.ine.add.PTCONT.1450446",
      "street": "TV TAPADA DO RELOGIO",
      "house": "",
      "postcode": "7200-053",
      "city": "MONTOITO",
      "lon": "-7.60013069046435",
      "lat": "38.50974741630947"
    },
    {
      "id": "pt.ine.add.PTCONT.1450447",
      "street": "R ALEGRIA",
      "house": "13",
      "postcode": "7200-053",
      "city": "MONTOITO",
      "lon": "-7.599341426628843",
      "lat": "38.50950059425068"
    },
    {
      "id": "pt.ine.add.PTCONT.1457176",
      "street": "R BENTO DE JESUS CARAÇA",
      "house": "11",
      "postcode": "7200-053",
      "city": "MONTOITO",
      "lon": "-7.599121803108667",
      "lat": "38.50974282042555"
    },
    {
      "id": "pt.ine.add.PTCONT.1463983",
      "street": "R ROSSIO",
      "house": "8",
      "postcode": "7200-053",
      "city": "MONTOITO",
      "lon": "-7.599015227695675",
      "lat": "38.510201763901634"
    }
  ]
}