{
  "data": {
    "distrito": "Leiria",
    "concelho": "Porto de Mós",
    "freguesia": "Porto de Mós - São João Baptista e São Pedro",
    "OBJECTID": 193,
    "BGRI2021": "10161400524",
    "DT21": "10",
    "DTMN21": "1016",
    "DTMNFR21": "101614",
    "DTMNFRSEC21": "101614005",
    "SECNUM21": "005",
    "SSNUM21": "24",
    "SECSSNUM21": "00524",
    "OBJECTID_1": 98438,
    "DT": "10",
    "CC": "16",
    "fr": "14",
    "SEC": "005",
    "SS": "24"
  },
  "addresses": [
    {
      "id": "pt.ine.add.PTCONT.2018680",
      "street": "R LIVRAMENTO",
      "house": "1",
      "postcode": "2480-169",
      "city": "PORTO DE MÓS",
      "lon": "-8.817762638282604",
      "lat": "39.58609905930956"
    },
    {
      "id": "pt.ine.add.PTCONT.2029423",
      "street": "LG PO OITAO",
      "house": "2",
      "postcode": "2480-169",
      "city": "PORTO DE MÓS",
      "lon": "-8.818224615396305",
      "lat": "39.58927570797534"
    },
    {
      "id": "pt.ine.add.PTCONT.2045117",
      "street": "R NASCENTE",
      "house": "15",
      "postcode": "2480-169",
      "city": "PORTO DE MÓS",
      "lon": "-8.819957371239443",
      "lat": "39.585563717117765"
    },
    {
      "id": "pt.ine.add.PTCONT.2053002",
      "street": "R VELHA",
      "house": "296",
      "postcode": "2480-169",
      "city": "PORTO DE MÓS",
      "lon": "-8.820430088334048",
      "lat": "39.587461339731476"
    },
    {
      "id": "pt.ine.add.PTCONT.2093352",
      "street": "R NASCENTE",
      "house": "21",
      "postcode": "2480-169",
      "city": "PORTO DE MÓS",
      "lon": "-8.820248359727312",
      "lat": "39.585561996719235"
    },
    {
      "id": "pt.ine.add.PTCONT.2097568",
      "street": "R NASCENTE",
      "house": "140",
      "postcode": "2480-169",
      "city": "PORTO DE MÓS",
      "lon": "-8.820496527555576",
      "lat": "39.585938811177336"
    },
    {
      "id": "pt.ine.add.PTCONT.2097569",
      "street": "R CHARAMBEIS",
      "house": "35",
      "postcode": "2480-169",
      "city": "PORTO DE MÓS",
      "lon": "-8.817663642105968",
      "lat": "39.58668507940793"
    },
    {
      "id": "pt.ine.add.PTCONT.2107598",
      "street": "LG PO OITAO",
      "house": "",
      "postcode": "2480-169",
      "city": "PORTO DE MÓS",
      "lon": "-8.818957768131352",
      "lat": "39.589253369390406"
    },
    {
      "id": "pt.ine.add.PTCONT.2108958",
      "street": "R NASCENTE",
      "house": "116",
      "postcode": "2480-169",
      "city": "PORTO DE MÓS",
      "lon": "-8.820070209331805",
      "lat": "39.58520278122345"
    },
    {
      "id": "pt.ine.add.PTCONT.2180795",
      "street": "R CHARAMBEIS",
      "house": "455",
      "postcode": "2480-169",
      "city": "PORTO DE MÓS",
      "lon": "-8.816923484219688",
      "lat": "39.58954456723612"
    },
    {
      "id": "pt.ine.add.PTCONT.2191839",
      "street": "R VELHA",
      "house": "342",
      "postcode": "2480-169",
      "city": "PORTO DE MÓS",
      "lon": "-8.820364075222644",
      "lat": "39.58784901905274"
    },
    {
      "id": "pt.ine.add.PTCONT.2216547",
      "street": "R NASCENTE",
      "house": "124",
      "postcode": "2480-169",
      "city": "PORTO DE MÓS",
      "lon": "-8.820094644446971",
      "lat": "39.58531972414099"
    },
    {
      "id": "pt.ine.add.PTCONT.2231361",
      "street": "R VELHA",
      "house": "280",
      "postcode": "2480-169",
      "city": "PORTO DE MÓS",
      "lon": "-8.820230164702012",
      "lat": "39.58725536761746"
    },
    {
      "id": "pt.ine.add.PTCONT.2266288",
      "street": "R NASCENTE",
      "house": "",
      "postcode": "2480-169",
      "city": "PORTO DE MÓS",
      "lon": "-8.820597901885062",
      "lat": "39.58559595605627"
    }
  ]
}