{
  "data": {
    "distrito": "Viseu",
    "concelho": "Carregal do Sal",
    "freguesia": "Oliveira do Conde",
    "OBJECTID": 210,
    "BGRI2021": "18020400210",
    "DT21": "18",
    "DTMN21": "1802",
    "DTMNFR21": "180204",
    "DTMNFRSEC21": "180204002",
    "SECNUM21": "002",
    "SSNUM21": "10",
    "SECSSNUM21": "00210",
    "OBJECTID_1": 188719,
    "DT": "18",
    "CC": "02",
    "fr": "04",
    "SEC": "002",
    "SS": "10"
  },
  "addresses": [
    {
      "id": "pt.ine.add.PTCONT.5449493",
      "street": "LAGE DO MORAIS",
      "house": "",
      "postcode": "3430-271",
      "city": "CARREGAL DO SAL",
      "lon": "-7.988264834573312",
      "lat": "40.43996461753582"
    },
    {
      "id": "pt.ine.add.PTCONT.5456262",
      "street": "R AFONSO MARQUES",
      "house": "77",
      "postcode": "3430-004",
      "city": "CARREGAL DO SAL",
      "lon": "-7.990215939634698",
      "lat": "40.43696821070714"
    },
    {
      "id": "pt.ine.add.PTCONT.5460380",
      "street": "EN 234",
      "house": "71",
      "postcode": "3430-072",
      "city": "CARREGAL DO SAL",
      "lon": "-7.988845563551434",
      "lat": "40.43847042918717"
    },
    {
      "id": "pt.ine.add.PTCONT.5474464",
      "street": "AV DR JOSE AUGUSTO CAPELO",
      "house": "10",
      "postcode": "3430-004",
      "city": "CARREGAL DO SAL",
      "lon": "-7.993789495751159",
      "lat": "40.43579285008867"
    },
    {
      "id": "pt.ine.add.PTCONT.5481669",
      "street": "AV DR JOSE AUGUSTO CAPELO",
      "house": "27",
      "postcode": "3430-004",
      "city": "CARREGAL DO SAL",
      "lon": "-7.994025431893251",
      "lat": "40.43568506799312"
    },
    {
      "id": "pt.ine.add.PTCONT.5503592",
      "street": "",
      "house": "",
      "postcode": "3430-343",
      "city": "CARREGAL DO SAL",
      "lon": "-7.989882418901387",
      "lat": "40.4386248120587"
    },
    {
      "id": "pt.ine.add.PTCONT.5509000",
      "street": "EN 234",
      "house": "",
      "postcode": "3430-072",
      "city": "CARREGAL DO SAL",
      "lon": "-7.987640368944168",
      "lat": "40.439864772874806"
    },
    {
      "id": "pt.ine.add.PTCONT.5509001",
      "street": "EN 234",
      "house": "",
      "postcode": "3430-072",
      "city": "CARREGAL DO SAL",
      "lon": "-7.987640368944168",
      "lat": "40.439864772874806"
    },
    {
      "id": "pt.ine.add.PTCONT.5509002",
      "street": "EN 234",
      "house": "",
      "postcode": "3430-072",
      "city": "CARREGAL DO SAL",
      "lon": "-7.987640368944168",
      "lat": "40.439864772874806"
    },
    {
      "id": "pt.ine.add.PTCONT.5509003",
      "street": "EN 234",
      "house": "",
      "postcode": "3430-072",
      "city": "CARREGAL DO SAL",
      "lon": "-7.987640368944168",
      "lat": "40.439864772874806"
    },
    {
      "id": "pt.ine.add.PTCONT.5509004",
      "street": "EN 234",
      "house": "",
      "postcode": "3430-072",
      "city": "CARREGAL DO SAL",
      "lon": "-7.987640368944168",
      "lat": "40.439864772874806"
    },
    {
      "id": "pt.ine.add.PTCONT.5509005",
      "street": "EN 234",
      "house": "",
      "postcode": "3430-072",
      "city": "CARREGAL DO SAL",
      "lon": "-7.987640368944168",
      "lat": "40.439864772874806"
    },
    {
      "id": "pt.ine.add.PTCONT.5509006",
      "street": "EN 234",
      "house": "",
      "postcode": "3430-072",
      "city": "CARREGAL DO SAL",
      "lon": "-7.987640368944168",
      "lat": "40.439864772874806"
    },
    {
      "id": "pt.ine.add.PTCONT.5509007",
      "street": "EN 234",
      "house": "",
      "postcode": "3430-072",
      "city": "CARREGAL DO SAL",
      "lon": "-7.987640368944168",
      "lat": "40.439864772874806"
    },
    {
      "id": "pt.ine.add.PTCONT.5509008",
      "street": "EN 234",
      "house": "",
      "postcode": "3430-072",
      "city": "CARREGAL DO SAL",
      "lon": "-7.987640368944168",
      "lat": "40.439864772874806"
    },
    {
      "id": "pt.ine.add.PTCONT.5509009",
      "street": "EN 234",
      "house": "",
      "postcode": "3430-072",
      "city": "CARREGAL DO SAL",
      "lon": "-7.987640368944168",
      "lat": "40.439864772874806"
    },
    {
      "id": "pt.ine.add.PTCONT.5509010",
      "street": "EN 234",
      "house": "",
      "postcode": "3430-072",
      "city": "CARREGAL DO SAL",
      "lon": "-7.987640368944168",
      "lat": "40.439864772874806"
    },
    {
      "id": "pt.ine.add.PTCONT.5509011",
      "street": "EN 234",
      "house": "",
      "postcode": "3430-072",
      "city": "CARREGAL DO SAL",
      "lon": "-7.987640368944168",
      "lat": "40.439864772874806"
    },
    {
      "id": "pt.ine.add.PTCONT.5509140",
      "street": "AV DR JOSE AUGUSTO CAPELO",
      "house": "2B",
      "postcode": "3430-004",
      "city": "CARREGAL DO SAL",
      "lon": "-7.993942839475683",
      "lat": "40.435729996175574"
    },
    {
      "id": "pt.ine.add.PTCONT.5516169",
      "street": "SIT TAPADA SN",
      "house": "SN",
      "postcode": "3430-271",
      "city": "CARREGAL DO SAL",
      "lon": "-7.993009342249186",
      "lat": "40.43689958549255"
    },
    {
      "id": "pt.ine.add.PTCONT.5563721",
      "street": "AV DR JOSE AUGUSTO CAPELO",
      "house": "2",
      "postcode": "3430-004",
      "city": "CARREGAL DO SAL",
      "lon": "-7.994084434359046",
      "lat": "40.43564911690096"
    },
    {
      "id": "pt.ine.add.PTCONT.5565544",
      "street": "R AFONSO MARQUES",
      "house": "4",
      "postcode": "3430-004",
      "city": "CARREGAL DO SAL",
      "lon": "-7.992268617807684",
      "lat": "40.43604316170905"
    },
    {
      "id": "pt.ine.add.PTCONT.5569102",
      "street": "PASSEIO DA FIDALGA",
      "house": "29",
      "postcode": "3430-271",
      "city": "CARREGAL DO SAL",
      "lon": "-7.9871915129329505",
      "lat": "40.44031448258327"
    },
    {
      "id": "pt.ine.add.PTCONT.5574613",
      "street": "R AFONSO MARQUES",
      "house": "",
      "postcode": "3430-004",
      "city": "CARREGAL DO SAL",
      "lon": "-7.991643635118131",
      "lat": "40.43620449789497"
    },
    {
      "id": "pt.ine.add.PTCONT.5585505",
      "street": "LUGAR COVA DA LEBRE",
      "house": "",
      "postcode": "3430-406",
      "city": "CARREGAL DO SAL",
      "lon": "-7.995979746760817",
      "lat": "40.4367230367049"
    },
    {
      "id": "pt.ine.add.PTCONT.5598770",
      "street": "EN 234",
      "house": "",
      "postcode": "3430-072",
      "city": "CARREGAL DO SAL",
      "lon": "-7.9893531731160445",
      "lat": "40.43809283006089"
    },
    {
      "id": "pt.ine.add.PTCONT.5600580",
      "street": "EN 234",
      "house": "",
      "postcode": "3430-072",
      "city": "CARREGAL DO SAL",
      "lon": "-7.987994696190137",
      "lat": "40.43952300887105"
    },
    {
      "id": "pt.ine.add.PTCONT.5600581",
      "street": "EN 234",
      "house": "",
      "postcode": "3430-072",
      "city": "CARREGAL DO SAL",
      "lon": "-7.987994696190137",
      "lat": "40.43952300887105"
    },
    {
      "id": "pt.ine.add.PTCONT.5600582",
      "street": "EN 234",
      "house": "",
      "postcode": "3430-072",
      "city": "CARREGAL DO SAL",
      "lon": "-7.987994696190137",
      "lat": "40.43952300887105"
    },
    {
      "id": "pt.ine.add.PTCONT.5600583",
      "street": "EN 234",
      "house": "",
      "postcode": "3430-072",
      "city": "CARREGAL DO SAL",
      "lon": "-7.987994696190137",
      "lat": "40.43952300887105"
    },
    {
      "id": "pt.ine.add.PTCONT.5600584",
      "street": "EN 234",
      "house": "",
      "postcode": "3430-072",
      "city": "CARREGAL DO SAL",
      "lon": "-7.987994696190137",
      "lat": "40.43952300887105"
    },
    {
      "id": "pt.ine.add.PTCONT.5600585",
      "street": "EN 234",
      "house": "",
      "postcode": "3430-072",
      "city": "CARREGAL DO SAL",
      "lon": "-7.987994696190137",
      "lat": "40.43952300887105"
    },
    {
      "id": "pt.ine.add.PTCONT.5622737",
      "street": "R AFONSO MARQUES",
      "house": "",
      "postcode": "3430-004",
      "city": "CARREGAL DO SAL",
      "lon": "-7.990640953517922",
      "lat": "40.43662652575432"
    },
    {
      "id": "pt.ine.add.PTCONT.5627178",
      "street": "AV DR JOSE AUGUSTO CAPELO",
      "house": "",
      "postcode": "3430-004",
      "city": "CARREGAL DO SAL",
      "lon": "-7.994178793689079",
      "lat": "40.435613208272514"
    },
    {
      "id": "pt.ine.add.PTCONT.5634045",
      "street": "AV DR JOSE AUGUSTO CAPELO",
      "house": "10",
      "postcode": "3430-056",
      "city": "CARREGAL DO SAL",
      "lon": "-7.996053259484036",
      "lat": "40.43534528018289"
    },
    {
      "id": "pt.ine.add.PTCONT.5638032",
      "street": "EN 234",
      "house": "",
      "postcode": "3430-072",
      "city": "CARREGAL DO SAL",
      "lon": "-7.987592815664361",
      "lat": "40.44005382869045"
    },
    {
      "id": "pt.ine.add.PTCONT.5638033",
      "street": "EN 234",
      "house": "",
      "postcode": "3430-072",
      "city": "CARREGAL DO SAL",
      "lon": "-7.987592815664361",
      "lat": "40.44005382869045"
    },
    {
      "id": "pt.ine.add.PTCONT.5638034",
      "street": "EN 234",
      "house": "",
      "postcode": "3430-072",
      "city": "CARREGAL DO SAL",
      "lon": "-7.987592815664361",
      "lat": "40.44005382869045"
    },
    {
      "id": "pt.ine.add.PTCONT.5638035",
      "street": "EN 234",
      "house": "",
      "postcode": "3430-072",
      "city": "CARREGAL DO SAL",
      "lon": "-7.987592815664361",
      "lat": "40.44005382869045"
    },
    {
      "id": "pt.ine.add.PTCONT.5638036",
      "street": "EN 234",
      "house": "",
      "postcode": "3430-072",
      "city": "CARREGAL DO SAL",
      "lon": "-7.987592815664361",
      "lat": "40.44005382869045"
    },
    {
      "id": "pt.ine.add.PTCONT.5638037",
      "street": "EN 234",
      "house": "",
      "postcode": "3430-072",
      "city": "CARREGAL DO SAL",
      "lon": "-7.987592815664361",
      "lat": "40.44005382869045"
    },
    {
      "id": "pt.ine.add.PTCONT.5638038",
      "street": "EN 234",
      "house": "",
      "postcode": "3430-072",
      "city": "CARREGAL DO SAL",
      "lon": "-7.987592815664361",
      "lat": "40.44005382869045"
    },
    {
      "id": "pt.ine.add.PTCONT.5641533",
      "street": "EN 234",
      "house": "75",
      "postcode": "3430-072",
      "city": "CARREGAL DO SAL",
      "lon": "-7.98964841832077",
      "lat": "40.437814025972"
    },
    {
      "id": "pt.ine.add.PTCONT.5647840",
      "street": "EN 234",
      "house": "65",
      "postcode": "3430-072",
      "city": "CARREGAL DO SAL",
      "lon": "-7.9886563107444095",
      "lat": "40.438785385715484"
    },
    {
      "id": "pt.ine.add.PTCONT.5647841",
      "street": "EN 234",
      "house": "65",
      "postcode": "3430-072",
      "city": "CARREGAL DO SAL",
      "lon": "-7.9886563107444095",
      "lat": "40.438785385715484"
    },
    {
      "id": "pt.ine.add.PTCONT.5647842",
      "street": "EN 234",
      "house": "65",
      "postcode": "3430-072",
      "city": "CARREGAL DO SAL",
      "lon": "-7.9886563107444095",
      "lat": "40.438785385715484"
    },
    {
      "id": "pt.ine.add.PTCONT.5647843",
      "street": "EN 234",
      "house": "65",
      "postcode": "3430-072",
      "city": "CARREGAL DO SAL",
      "lon": "-7.9886563107444095",
      "lat": "40.438785385715484"
    }
  ]
}