{
  "data": {
    "distrito": "Setúbal",
    "concelho": "Seixal",
    "freguesia": "União das freguesias do Seixal, Arrentela e Aldeia de Paio Pires",
    "OBJECTID": 1368,
    "BGRI2021": "15100702608",
    "DT21": "15",
    "DTMN21": "1510",
    "DTMNFR21": "151007",
    "DTMNFRSEC21": "151007026",
    "SECNUM21": "026",
    "SSNUM21": "08",
    "SECSSNUM21": "02608",
    "OBJECTID_1": 168497,
    "DT": "15",
    "CC": "10",
    "fr": "07",
    "SEC": "026",
    "SS": "08"
  },
  "addresses": [
    {
      "id": "pt.ine.add.PTCONT.4668592",
      "street": "AV JOSE AFONSO",
      "house": "8",
      "postcode": "2840-735",
      "city": "SEIXAL",
      "lon": "-9.09182053857629",
      "lat": "38.6329786709079"
    },
    {
      "id": "pt.ine.add.PTCONT.4693815",
      "street": "AV JOSÉ AFONSO ANEXO",
      "house": "5",
      "postcode": "2840-735",
      "city": "SEIXAL",
      "lon": "-9.096090652829051",
      "lat": "38.633682258800775"
    },
    {
      "id": "pt.ine.add.PTCONT.4701369",
      "street": "AV JOSE AFONSO QTA DO EDGAR",
      "house": "",
      "postcode": "2840-735",
      "city": "SEIXAL",
      "lon": "-9.094606377500396",
      "lat": "38.634334037665425"
    },
    {
      "id": "pt.ine.add.PTCONT.4719373",
      "street": "R MANUEL DA MAIA",
      "house": "6",
      "postcode": "2840-454",
      "city": "SEIXAL",
      "lon": "-9.092349602163988",
      "lat": "38.63303739036347"
    },
    {
      "id": "pt.ine.add.PTCONT.4719374",
      "street": "R MANUEL DA MAIA",
      "house": "6",
      "postcode": "2840-454",
      "city": "SEIXAL",
      "lon": "-9.092349602163988",
      "lat": "38.63303739036347"
    },
    {
      "id": "pt.ine.add.PTCONT.4738027",
      "street": "R MANUEL DA MAIA",
      "house": "8A",
      "postcode": "2840-454",
      "city": "SEIXAL",
      "lon": "-9.092545295524179",
      "lat": "38.63307181778212"
    },
    {
      "id": "pt.ine.add.PTCONT.4741445",
      "street": "AV JOSE AFONSO",
      "house": "8",
      "postcode": "2840-735",
      "city": "SEIXAL",
      "lon": "-9.095452289488343",
      "lat": "38.63403882510231"
    },
    {
      "id": "pt.ine.add.PTCONT.4745165",
      "street": "AV JOSE AFONSO ANEXO",
      "house": "1",
      "postcode": "2840-735",
      "city": "SEIXAL",
      "lon": "-9.096009547329757",
      "lat": "38.63362887817425"
    },
    {
      "id": "pt.ine.add.PTCONT.4745166",
      "street": "AV JOSÉ AFONSO QTA DO CESARIO",
      "house": "3",
      "postcode": "2840-735",
      "city": "SEIXAL",
      "lon": "-9.094391201835307",
      "lat": "38.63456100683771"
    },
    {
      "id": "pt.ine.add.PTCONT.4752313",
      "street": "R AFONSO DOMINGUES",
      "house": "10",
      "postcode": "2840-450",
      "city": "SEIXAL",
      "lon": "-9.09194565298315",
      "lat": "38.63288756515067"
    },
    {
      "id": "pt.ine.add.PTCONT.4752314",
      "street": "AV JOSE AFONSO",
      "house": "2",
      "postcode": "2840-735",
      "city": "SEIXAL",
      "lon": "-9.096320919804022",
      "lat": "38.63372540332121"
    },
    {
      "id": "pt.ine.add.PTCONT.4767343",
      "street": "R MANUEL DA MAIA",
      "house": "10",
      "postcode": "2840-454",
      "city": "SEIXAL",
      "lon": "-9.092751991842887",
      "lat": "38.63307012246335"
    },
    {
      "id": "pt.ine.add.PTCONT.4779896",
      "street": "AV JOSE AFONSO",
      "house": "4",
      "postcode": "2840-735",
      "city": "SEIXAL",
      "lon": "-9.095635540046207",
      "lat": "38.63400128539658"
    },
    {
      "id": "pt.ine.add.PTCONT.4783941",
      "street": "R MANUEL DA MAIA",
      "house": "4",
      "postcode": "2840-454",
      "city": "SEIXAL",
      "lon": "-9.09224433363972",
      "lat": "38.63289412483466"
    },
    {
      "id": "pt.ine.add.PTCONT.4785621",
      "street": "AV JOSE AFONSO ANEXO",
      "house": "6",
      "postcode": "2840-735",
      "city": "SEIXAL",
      "lon": "-9.095624056779016",
      "lat": "38.63400137987545"
    },
    {
      "id": "pt.ine.add.PTCONT.4868001",
      "street": "AV METALURGICOS",
      "house": "97",
      "postcode": "2840-738",
      "city": "SEIXAL",
      "lon": "-9.092288145370459",
      "lat": "38.633596392634395"
    },
    {
      "id": "pt.ine.add.PTCONT.4868002",
      "street": "AV METALURGICOS",
      "house": "97",
      "postcode": "2840-738",
      "city": "SEIXAL",
      "lon": "-9.092288145370459",
      "lat": "38.633596392634395"
    },
    {
      "id": "pt.ine.add.PTCONT.4868003",
      "street": "AV METALURGICOS",
      "house": "97",
      "postcode": "2840-738",
      "city": "SEIXAL",
      "lon": "-9.092288145370459",
      "lat": "38.633596392634395"
    },
    {
      "id": "pt.ine.add.PTCONT.4868005",
      "street": "AV METALURGICOS",
      "house": "97",
      "postcode": "2840-738",
      "city": "SEIXAL",
      "lon": "-9.092288145370459",
      "lat": "38.633596392634395"
    },
    {
      "id": "pt.ine.add.PTCONT.4868007",
      "street": "AV METALURGICOS",
      "house": "97",
      "postcode": "2840-738",
      "city": "SEIXAL",
      "lon": "-9.092288145370459",
      "lat": "38.633596392634395"
    },
    {
      "id": "pt.ine.add.PTCONT.4868011",
      "street": "AV METALURGICOS",
      "house": "97",
      "postcode": "2840-738",
      "city": "SEIXAL",
      "lon": "-9.092288145370459",
      "lat": "38.633596392634395"
    },
    {
      "id": "pt.ine.add.PTCONT.4868224",
      "street": "AV METALURGICOS",
      "house": "97",
      "postcode": "2840-738",
      "city": "SEIXAL",
      "lon": "-9.092288145370459",
      "lat": "38.633596392634395"
    },
    {
      "id": "pt.ine.add.PTCONT.4919479",
      "street": "R MANUEL DA MAIA",
      "house": "12",
      "postcode": "2840-454",
      "city": "SEIXAL",
      "lon": "-9.092969090227399",
      "lat": "38.63298726908845"
    },
    {
      "id": "pt.ine.add.PTCONT.4920501",
      "street": "AV JOSE AFONSO BARRACA",
      "house": "BARRACA",
      "postcode": "2840-735",
      "city": "SEIXAL",
      "lon": "-9.094115721430125",
      "lat": "38.63457227816336"
    },
    {
      "id": "pt.ine.add.PTCONT.4923107",
      "street": "AV METALÚRGICOS",
      "house": "99 B",
      "postcode": "2840-738",
      "city": "SEIXAL",
      "lon": "-9.091916962921898",
      "lat": "38.63332018615573"
    },
    {
      "id": "pt.ine.add.PTCONT.4923108",
      "street": "AV METALÚRGICOS",
      "house": "99 B",
      "postcode": "2840-738",
      "city": "SEIXAL",
      "lon": "-9.091916962921898",
      "lat": "38.63332018615573"
    },
    {
      "id": "pt.ine.add.PTCONT.4923109",
      "street": "AV METALÚRGICOS",
      "house": "99 B",
      "postcode": "2840-738",
      "city": "SEIXAL",
      "lon": "-9.091916962921898",
      "lat": "38.63332018615573"
    },
    {
      "id": "pt.ine.add.PTCONT.4923110",
      "street": "AV METALÚRGICOS",
      "house": "99 B",
      "postcode": "2840-738",
      "city": "SEIXAL",
      "lon": "-9.091916962921898",
      "lat": "38.63332018615573"
    },
    {
      "id": "pt.ine.add.PTCONT.4923111",
      "street": "AV METALÚRGICOS",
      "house": "99 B",
      "postcode": "2840-738",
      "city": "SEIXAL",
      "lon": "-9.091916962921898",
      "lat": "38.63332018615573"
    },
    {
      "id": "pt.ine.add.PTCONT.4924979",
      "street": "AV METALÚRGICOS",
      "house": "99 B",
      "postcode": "2840-738",
      "city": "SEIXAL",
      "lon": "-9.091916962921898",
      "lat": "38.63332018615573"
    },
    {
      "id": "pt.ine.add.PTCONT.4924981",
      "street": "AV METALÚRGICOS",
      "house": "99 B",
      "postcode": "2840-738",
      "city": "SEIXAL",
      "lon": "-9.091916962921898",
      "lat": "38.63332018615573"
    },
    {
      "id": "pt.ine.add.PTCONT.4937522",
      "street": "AV METALURGICOS",
      "house": "99",
      "postcode": "2840-738",
      "city": "SEIXAL",
      "lon": "-9.0921951994649",
      "lat": "38.63351608231213"
    },
    {
      "id": "pt.ine.add.PTCONT.4937538",
      "street": "AV METALURGICOS",
      "house": "99",
      "postcode": "2840-738",
      "city": "SEIXAL",
      "lon": "-9.0921951994649",
      "lat": "38.63351608231213"
    },
    {
      "id": "pt.ine.add.PTCONT.4937539",
      "street": "AV METALURGICOS",
      "house": "99",
      "postcode": "2840-738",
      "city": "SEIXAL",
      "lon": "-9.0921951994649",
      "lat": "38.63351608231213"
    },
    {
      "id": "pt.ine.add.PTCONT.4937540",
      "street": "AV METALURGICOS",
      "house": "99",
      "postcode": "2840-738",
      "city": "SEIXAL",
      "lon": "-9.0921951994649",
      "lat": "38.63351608231213"
    },
    {
      "id": "pt.ine.add.PTCONT.4937541",
      "street": "AV METALURGICOS",
      "house": "99",
      "postcode": "2840-738",
      "city": "SEIXAL",
      "lon": "-9.0921951994649",
      "lat": "38.63351608231213"
    },
    {
      "id": "pt.ine.add.PTCONT.4937542",
      "street": "AV METALURGICOS",
      "house": "99",
      "postcode": "2840-738",
      "city": "SEIXAL",
      "lon": "-9.0921951994649",
      "lat": "38.63351608231213"
    },
    {
      "id": "pt.ine.add.PTCONT.4938487",
      "street": "AV METALURGICOS",
      "house": "99",
      "postcode": "2840-738",
      "city": "SEIXAL",
      "lon": "-9.0921951994649",
      "lat": "38.63351608231213"
    },
    {
      "id": "pt.ine.add.PTCONT.4957586",
      "street": "AV JOSE AFONSO VVA SANTOS",
      "house": "VVA SANTOS",
      "postcode": "2840-735",
      "city": "SEIXAL",
      "lon": "-9.094849091927026",
      "lat": "38.634449147051"
    },
    {
      "id": "pt.ine.add.PTCONT.4973563",
      "street": "R MANUEL DA MAIA",
      "house": "8",
      "postcode": "2840-454",
      "city": "SEIXAL",
      "lon": "-9.09309456356268",
      "lat": "38.632923183279615"
    },
    {
      "id": "pt.ine.add.PTCONT.4973564",
      "street": "AV JOSE AFONSO",
      "house": "43",
      "postcode": "2840-735",
      "city": "SEIXAL",
      "lon": "-9.096648145406874",
      "lat": "38.63329032297528"
    },
    {
      "id": "pt.ine.add.PTCONT.4973565",
      "street": "AV JOSE AFONSO",
      "house": "43",
      "postcode": "2840-735",
      "city": "SEIXAL",
      "lon": "-9.096648145406874",
      "lat": "38.63329032297528"
    },
    {
      "id": "pt.ine.add.PTCONT.4974744",
      "street": "AV JOSE AFONSO",
      "house": "43 43A",
      "postcode": "2840-735",
      "city": "SEIXAL",
      "lon": "-9.096648145406874",
      "lat": "38.63329032297528"
    },
    {
      "id": "pt.ine.add.PTCONT.4999219",
      "street": "AV JOSE AFONSO QTA DO EDGAR",
      "house": "5",
      "postcode": "2840-735",
      "city": "SEIXAL",
      "lon": "-9.09459802264477",
      "lat": "38.63456831524929"
    },
    {
      "id": "pt.ine.add.PTCONT.5002651",
      "street": "R AFONSO DOMINGUES",
      "house": "4",
      "postcode": "2840-450",
      "city": "SEIXAL",
      "lon": "-9.09166157421946",
      "lat": "38.63311509408241"
    },
    {
      "id": "pt.ine.add.PTCONT.5006092",
      "street": "AV JOSÉ AFONSO ANEXO",
      "house": "7",
      "postcode": "2840-735",
      "city": "SEIXAL",
      "lon": "-9.096077844030393",
      "lat": "38.63358327584297"
    },
    {
      "id": "pt.ine.add.PTCONT.5013340",
      "street": "R CAP FRANCISCO ROBALO",
      "house": "",
      "postcode": "2840-448",
      "city": "SEIXAL",
      "lon": "-9.093817638326918",
      "lat": "38.63289022353713"
    },
    {
      "id": "pt.ine.add.PTCONT.5017419",
      "street": "",
      "house": "",
      "postcode": "2840-735",
      "city": "SEIXAL",
      "lon": "-9.0965289736655",
      "lat": "38.63296701513458"
    },
    {
      "id": "pt.ine.add.PTCONT.5020955",
      "street": "AV JOSE AFONSO ANEXO",
      "house": "4",
      "postcode": "2840-735",
      "city": "SEIXAL",
      "lon": "-9.096160395743638",
      "lat": "38.63374474094334"
    },
    {
      "id": "pt.ine.add.PTCONT.5028728",
      "street": "AV DOS METALÚRGICOS",
      "house": "99",
      "postcode": "2840-738",
      "city": "SEIXAL",
      "lon": "-9.092021271448608",
      "lat": "38.63339139553127"
    },
    {
      "id": "pt.ine.add.PTCONT.5028729",
      "street": "AV DOS METALÚRGICOS",
      "house": "99",
      "postcode": "2840-738",
      "city": "SEIXAL",
      "lon": "-9.092021271448608",
      "lat": "38.63339139553127"
    },
    {
      "id": "pt.ine.add.PTCONT.5028730",
      "street": "AV DOS METALÚRGICOS",
      "house": "99",
      "postcode": "2840-738",
      "city": "SEIXAL",
      "lon": "-9.092021271448608",
      "lat": "38.63339139553127"
    },
    {
      "id": "pt.ine.add.PTCONT.5028731",
      "street": "AV DOS METALÚRGICOS",
      "house": "99",
      "postcode": "2840-738",
      "city": "SEIXAL",
      "lon": "-9.092021271448608",
      "lat": "38.63339139553127"
    },
    {
      "id": "pt.ine.add.PTCONT.5028732",
      "street": "AV DOS METALÚRGICOS",
      "house": "99",
      "postcode": "2840-738",
      "city": "SEIXAL",
      "lon": "-9.092021271448608",
      "lat": "38.63339139553127"
    },
    {
      "id": "pt.ine.add.PTCONT.5028733",
      "street": "AV DOS METALÚRGICOS",
      "house": "99",
      "postcode": "2840-738",
      "city": "SEIXAL",
      "lon": "-9.092021271448608",
      "lat": "38.63339139553127"
    },
    {
      "id": "pt.ine.add.PTCONT.5030399",
      "street": "AV DOS METALÚRGICOS",
      "house": "99",
      "postcode": "2840-738",
      "city": "SEIXAL",
      "lon": "-9.092021271448608",
      "lat": "38.63339139553127"
    },
    {
      "id": "pt.ine.add.PTCONT.5043065",
      "street": "R AFONSO DOMINGUES",
      "house": "2",
      "postcode": "2840-450",
      "city": "SEIXAL",
      "lon": "-9.092070527067866",
      "lat": "38.632778445151104"
    },
    {
      "id": "pt.ine.add.PTCONT.5068779",
      "street": "R CAP FRANCISCO ROBALO",
      "house": "",
      "postcode": "2840-448",
      "city": "SEIXAL",
      "lon": "-9.094103152369058",
      "lat": "38.632770774064376"
    },
    {
      "id": "pt.ine.add.PTCONT.5071584",
      "street": "AV JOSE AFONSO",
      "house": "",
      "postcode": "2840-735",
      "city": "SEIXAL",
      "lon": "-9.096421375573984",
      "lat": "38.63350838333283"
    },
    {
      "id": "pt.ine.add.PTCONT.5096258",
      "street": "R AFONSO DOMINGUES",
      "house": "2",
      "postcode": "2840-450",
      "city": "SEIXAL",
      "lon": "-9.091502369394165",
      "lat": "38.63323350293272"
    },
    {
      "id": "pt.ine.add.PTCONT.5096259",
      "street": "R AFONSO DOMINGUES",
      "house": "2",
      "postcode": "2840-450",
      "city": "SEIXAL",
      "lon": "-9.091502369394165",
      "lat": "38.63323350293272"
    },
    {
      "id": "pt.ine.add.PTCONT.5106360",
      "street": "R AFONSO DOMINGUES",
      "house": "6",
      "postcode": "2840-450",
      "city": "SEIXAL",
      "lon": "-9.091809535342161",
      "lat": "38.63301479323412"
    },
    {
      "id": "pt.ine.add.PTCONT.5106361",
      "street": "R AFONSO DOMINGUES",
      "house": "6",
      "postcode": "2840-450",
      "city": "SEIXAL",
      "lon": "-9.091809535342161",
      "lat": "38.63301479323412"
    },
    {
      "id": "pt.ine.add.PTCONT.5111203",
      "street": "AV JOSE AFONSO V BRITES",
      "house": "V BRITES",
      "postcode": "2840-735",
      "city": "SEIXAL",
      "lon": "-9.094642151112751",
      "lat": "38.63443283203283"
    },
    {
      "id": "pt.ine.add.PTCONT.5114945",
      "street": "AV JOSE AFONSO",
      "house": "",
      "postcode": "2840-735",
      "city": "SEIXAL",
      "lon": "-9.094963203107966",
      "lat": "38.63439416069044"
    },
    {
      "id": "pt.ine.add.PTCONT.5122731",
      "street": "AV JOSE AFONSO",
      "house": "4",
      "postcode": "2840-735",
      "city": "SEIXAL",
      "lon": "-9.09640057905904",
      "lat": "38.633670699214164"
    }
  ]
}