{
  "data": {
    "distrito": "Santarém",
    "concelho": "Abrantes",
    "freguesia": "União das freguesias de Abrantes (São Vicente e São João) e Alferrarede",
    "OBJECTID": 846,
    "BGRI2021": "14012001306",
    "DT21": "14",
    "DTMN21": "1401",
    "DTMNFR21": "140120",
    "DTMNFRSEC21": "140120013",
    "SECNUM21": "013",
    "SSNUM21": "06",
    "SECSSNUM21": "01306",
    "OBJECTID_1": 146564,
    "DT": "14",
    "CC": "01",
    "fr": "20",
    "SEC": "013",
    "SS": "06"
  },
  "addresses": [
    {
      "id": "pt.ine.add.PTCONT.4406198",
      "street": "R 31 DE JANEIRO DE 1891",
      "house": "22",
      "postcode": "2200-250",
      "city": "ABRANTES",
      "lon": "-8.185797891524484",
      "lat": "39.484740704501846"
    },
    {
      "id": "pt.ine.add.PTCONT.4420517",
      "street": "R 31 DE JANEIRO DE 1891",
      "house": "25",
      "postcode": "2200-250",
      "city": "ABRANTES",
      "lon": "-8.185960818898472",
      "lat": "39.48500183356034"
    },
    {
      "id": "pt.ine.add.PTCONT.4420518",
      "street": "R 31 DE JANEIRO DE 1891",
      "house": "25",
      "postcode": "2200-250",
      "city": "ABRANTES",
      "lon": "-8.185960818898472",
      "lat": "39.48500183356034"
    },
    {
      "id": "pt.ine.add.PTCONT.4451428",
      "street": "R MARQUESA DO FAIAL",
      "house": "20",
      "postcode": "2200-261",
      "city": "ABRANTES",
      "lon": "-8.185448921798935",
      "lat": "39.484389589086604"
    },
    {
      "id": "pt.ine.add.PTCONT.4522081",
      "street": "R MARQUESA DO FAIAL",
      "house": "19",
      "postcode": "2200-261",
      "city": "ABRANTES",
      "lon": "-8.185623226703703",
      "lat": "39.484326461492905"
    },
    {
      "id": "pt.ine.add.PTCONT.4528155",
      "street": "R MARQUESA DO FAIAL",
      "house": "24",
      "postcode": "2200-261",
      "city": "ABRANTES",
      "lon": "-8.185263228555781",
      "lat": "39.48476796653976"
    },
    {
      "id": "pt.ine.add.PTCONT.4536404",
      "street": "R MANUEL LOPES VALENTE JUNIOR",
      "house": "27",
      "postcode": "2200-260",
      "city": "ABRANTES",
      "lon": "-8.185554054130476",
      "lat": "39.48508308072974"
    },
    {
      "id": "pt.ine.add.PTCONT.4575567",
      "street": "R MANUEL LOPES VALENTE JUNIOR",
      "house": "26",
      "postcode": "2200-260",
      "city": "ABRANTES",
      "lon": "-8.185739991053282",
      "lat": "39.485028954721"
    },
    {
      "id": "pt.ine.add.PTCONT.4575568",
      "street": "R MANUEL LOPES VALENTE JUNIOR",
      "house": "26",
      "postcode": "2200-260",
      "city": "ABRANTES",
      "lon": "-8.185739991053282",
      "lat": "39.485028954721"
    }
  ]
}