{
  "data": {
    "distrito": "Braga",
    "concelho": "Vila Nova de Famalicão",
    "freguesia": "Gavião",
    "OBJECTID": 310,
    "BGRI2021": "03121600112",
    "DT21": "03",
    "DTMN21": "0312",
    "DTMNFR21": "031216",
    "DTMNFRSEC21": "031216001",
    "SECNUM21": "001",
    "SSNUM21": "12",
    "SECSSNUM21": "00112",
    "OBJECTID_1": 30610,
    "DT": "03",
    "CC": "12",
    "fr": "16",
    "SEC": "001",
    "SS": "12"
  },
  "addresses": [
    {
      "id": "pt.ine.add.PTCONT.482528",
      "street": "R CAMPOS",
      "house": "346",
      "postcode": "4760-206",
      "city": "VILA NOVA DE FAMALICÃO",
      "lon": "-8.518888388071518",
      "lat": "41.4256527519056"
    },
    {
      "id": "pt.ine.add.PTCONT.488529",
      "street": "R CAMPOS",
      "house": "108",
      "postcode": "4760-206",
      "city": "VILA NOVA DE FAMALICÃO",
      "lon": "-8.517179928479859",
      "lat": "41.42400174221371"
    },
    {
      "id": "pt.ine.add.PTCONT.515230",
      "street": "R CAMPOS",
      "house": "",
      "postcode": "4760-206",
      "city": "VILA NOVA DE FAMALICÃO",
      "lon": "-8.517327457387298",
      "lat": "41.42467654547086"
    },
    {
      "id": "pt.ine.add.PTCONT.527276",
      "street": "R TROVISQUEIRA",
      "house": "105",
      "postcode": "4760-221",
      "city": "VILA NOVA DE FAMALICÃO",
      "lon": "-8.517534749296992",
      "lat": "41.42534214484132"
    },
    {
      "id": "pt.ine.add.PTCONT.559943",
      "street": "R TROVISQUEIRA",
      "house": "63",
      "postcode": "4760-221",
      "city": "VILA NOVA DE FAMALICÃO",
      "lon": "-8.51654323072889",
      "lat": "41.42557955607743"
    },
    {
      "id": "pt.ine.add.PTCONT.579992",
      "street": "R DR JOSEPH PIEL",
      "house": "24",
      "postcode": "4760-184",
      "city": "VILA NOVA DE FAMALICÃO",
      "lon": "-8.516460121988825",
      "lat": "41.42365298897116"
    },
    {
      "id": "pt.ine.add.PTCONT.594582",
      "street": "R DR JOSEPH PIEL",
      "house": "52",
      "postcode": "4760-184",
      "city": "VILA NOVA DE FAMALICÃO",
      "lon": "-8.516438050725334",
      "lat": "41.42396820060027"
    },
    {
      "id": "pt.ine.add.PTCONT.603392",
      "street": "R DR JOSEPH PIEL",
      "house": "28",
      "postcode": "4760-184",
      "city": "VILA NOVA DE FAMALICÃO",
      "lon": "-8.516461075179071",
      "lat": "41.423815056815215"
    },
    {
      "id": "pt.ine.add.PTCONT.603393",
      "street": "R DR JOSEPH PIEL",
      "house": "28",
      "postcode": "4760-184",
      "city": "VILA NOVA DE FAMALICÃO",
      "lon": "-8.516461075179071",
      "lat": "41.423815056815215"
    },
    {
      "id": "pt.ine.add.PTCONT.606442",
      "street": "R TROVISQUEIRA",
      "house": "49",
      "postcode": "4760-221",
      "city": "VILA NOVA DE FAMALICÃO",
      "lon": "-8.516328114899421",
      "lat": "41.42561628856759"
    },
    {
      "id": "pt.ine.add.PTCONT.609643",
      "street": "R DR JOSEPH PIEL",
      "house": "14",
      "postcode": "4760-184",
      "city": "VILA NOVA DE FAMALICÃO",
      "lon": "-8.516555396566368",
      "lat": "41.42358063991392"
    },
    {
      "id": "pt.ine.add.PTCONT.659199",
      "street": "R TROVISQUEIRA",
      "house": "33",
      "postcode": "4760-221",
      "city": "VILA NOVA DE FAMALICÃO",
      "lon": "-8.516137082881784",
      "lat": "41.42567995230621"
    },
    {
      "id": "pt.ine.add.PTCONT.671167",
      "street": "R CAMPOS",
      "house": "332",
      "postcode": "4760-206",
      "city": "VILA NOVA DE FAMALICÃO",
      "lon": "-8.518863556826082",
      "lat": "41.42549976814461"
    },
    {
      "id": "pt.ine.add.PTCONT.676808",
      "street": "R CAMPOS",
      "house": "128",
      "postcode": "4760-206",
      "city": "VILA NOVA DE FAMALICÃO",
      "lon": "-8.517288438776783",
      "lat": "41.4241454430488"
    },
    {
      "id": "pt.ine.add.PTCONT.676809",
      "street": "R DR JOSEPH PIEL",
      "house": "60",
      "postcode": "4760-184",
      "city": "VILA NOVA DE FAMALICÃO",
      "lon": "-8.516403116737655",
      "lat": "41.42413038799872"
    },
    {
      "id": "pt.ine.add.PTCONT.682804",
      "street": "R CAMPOS",
      "house": "80",
      "postcode": "4760-206",
      "city": "VILA NOVA DE FAMALICÃO",
      "lon": "-8.516891771696415",
      "lat": "41.423822624882256"
    },
    {
      "id": "pt.ine.add.PTCONT.691710",
      "street": "AV SANTIAGO DE GAVIÃO",
      "house": "491",
      "postcode": "4760-003",
      "city": "VILA NOVA DE FAMALICÃO",
      "lon": "-8.516404705182795",
      "lat": "41.424400501048886"
    },
    {
      "id": "pt.ine.add.PTCONT.766473",
      "street": "R CAMPOS",
      "house": "216",
      "postcode": "4760-206",
      "city": "VILA NOVA DE FAMALICÃO",
      "lon": "-8.518070194489358",
      "lat": "41.42485414156061"
    },
    {
      "id": "pt.ine.add.PTCONT.784659",
      "street": "R 8 DE MARÇO",
      "house": "171",
      "postcode": "4760-198",
      "city": "VILA NOVA DE FAMALICÃO",
      "lon": "-8.518877437976032",
      "lat": "41.42582386352185"
    },
    {
      "id": "pt.ine.add.PTCONT.787328",
      "street": "R 8 DE MARÇO",
      "house": "175",
      "postcode": "4760-198",
      "city": "VILA NOVA DE FAMALICÃO",
      "lon": "-8.518948894271345",
      "lat": "41.425769600253865"
    },
    {
      "id": "pt.ine.add.PTCONT.793253",
      "street": "R DR JOSEPH PIEL",
      "house": "14",
      "postcode": "4760-184",
      "city": "VILA NOVA DE FAMALICÃO",
      "lon": "-8.516567623690833",
      "lat": "41.42362561889148"
    },
    {
      "id": "pt.ine.add.PTCONT.796317",
      "street": "R DR JOSEPH PIEL",
      "house": "24",
      "postcode": "4760-184",
      "city": "VILA NOVA DE FAMALICÃO",
      "lon": "-8.51652030418157",
      "lat": "41.4237158160496"
    },
    {
      "id": "pt.ine.add.PTCONT.817827",
      "street": "AV SANTIAGO DE GAVIÃO",
      "house": "713",
      "postcode": "4760-003",
      "city": "VILA NOVA DE FAMALICÃO",
      "lon": "-8.516338595187332",
      "lat": "41.42536414325963"
    },
    {
      "id": "pt.ine.add.PTCONT.832395",
      "street": "R CAMPOS",
      "house": "336",
      "postcode": "4760-206",
      "city": "VILA NOVA DE FAMALICÃO",
      "lon": "-8.518852020509849",
      "lat": "41.425571838363375"
    }
  ]
}