{
  "data": {
    "ilha": "Ilha Terceira (Açores)",
    "concelho": "Angra do Heroísmo",
    "freguesia": "Posto Santo",
    "OBJECTID": 239,
    "BGRI2021": "43011000103",
    "DT21": "43",
    "DTMN21": "4301",
    "DTMNFR21": "430110",
    "DTMNFRSEC21": "430110001",
    "SECNUM21": "001",
    "SSNUM21": "03",
    "SECSSNUM21": "00103",
    "OBJECTID_1": 208122,
    "DT": "43",
    "CC": "01",
    "fr": "10",
    "SEC": "001",
    "SS": "03",
    "BGRI2021_1": "43011000103"
  },
  "addresses": [
    {
      "id": "pt.ine.add.AC26.1438",
      "street": "R TERREIRO",
      "house": "7",
      "postcode": "9700-238",
      "city": "ANGRA DO HEROÍSMO",
      "lon": "-27.230606900728414",
      "lat": "38.6774943645986"
    },
    {
      "id": "pt.ine.add.AC26.1439",
      "street": "R TERREIRO",
      "house": "5",
      "postcode": "9700-238",
      "city": "ANGRA DO HEROÍSMO",
      "lon": "-27.230629488544942",
      "lat": "38.677368154298605"
    },
    {
      "id": "pt.ine.add.AC26.1440",
      "street": "R TERREIRO",
      "house": "31",
      "postcode": "9700-238",
      "city": "ANGRA DO HEROÍSMO",
      "lon": "-27.230560105853428",
      "lat": "38.67724212532793"
    },
    {
      "id": "pt.ine.add.AC26.1441",
      "street": "CAN TALINHA",
      "house": "18",
      "postcode": "9700-235",
      "city": "ANGRA DO HEROÍSMO",
      "lon": "-27.23152736304863",
      "lat": "38.67772685394304"
    },
    {
      "id": "pt.ine.add.AC26.1442",
      "street": "CAN TALINHA",
      "house": "20",
      "postcode": "9700-235",
      "city": "ANGRA DO HEROÍSMO",
      "lon": "-27.231355352500348",
      "lat": "38.67786237191414"
    },
    {
      "id": "pt.ine.add.AC26.1444",
      "street": "R ESPIGAO",
      "house": "67",
      "postcode": "9700-226",
      "city": "ANGRA DO HEROÍSMO",
      "lon": "-27.230280556300112",
      "lat": "38.67610718405801"
    },
    {
      "id": "pt.ine.add.AC26.1445",
      "street": "R ESPIGAO",
      "house": "37",
      "postcode": "9700-226",
      "city": "ANGRA DO HEROÍSMO",
      "lon": "-27.229133964863696",
      "lat": "38.67345094183429"
    },
    {
      "id": "pt.ine.add.AC26.2314",
      "street": "R ESPIGAO",
      "house": "35",
      "postcode": "9700-226",
      "city": "ANGRA DO HEROÍSMO",
      "lon": "-27.229041625965003",
      "lat": "38.67333396868756"
    },
    {
      "id": "pt.ine.add.AC26.2315",
      "street": "R ESPIGAO",
      "house": "21",
      "postcode": "9700-226",
      "city": "ANGRA DO HEROÍSMO",
      "lon": "-27.22867132730217",
      "lat": "38.6725686862158"
    },
    {
      "id": "pt.ine.add.AC26.2316",
      "street": "R ESPIGAO VELHO",
      "house": "9",
      "postcode": "9700-237",
      "city": "ANGRA DO HEROÍSMO",
      "lon": "-27.22905835689892",
      "lat": "38.67136935302148"
    },
    {
      "id": "pt.ine.add.AC26.57586",
      "street": "R TERREIRO",
      "house": "3",
      "postcode": "9700-238",
      "city": "ANGRA DO HEROÍSMO",
      "lon": "-27.230697454017303",
      "lat": "38.677052605843365"
    },
    {
      "id": "pt.ine.add.AC26.75114",
      "street": "R ESPIGAO",
      "house": "27",
      "postcode": "9700-226",
      "city": "ANGRA DO HEROÍSMO",
      "lon": "-27.228868014303345",
      "lat": "38.67296482280695"
    },
    {
      "id": "pt.ine.add.AC26.77896",
      "street": "R TERREIRO",
      "house": "1",
      "postcode": "9700-238",
      "city": "ANGRA DO HEROÍSMO",
      "lon": "-27.230547597741175",
      "lat": "38.67692673556112"
    },
    {
      "id": "pt.ine.add.AC26.82869",
      "street": "R ESPIGAO",
      "house": "23A",
      "postcode": "9700-226",
      "city": "ANGRA DO HEROÍSMO",
      "lon": "-27.22872906317617",
      "lat": "38.672649679954496"
    },
    {
      "id": "pt.ine.add.AC26.83995",
      "street": "R ESPIGAO VELHO",
      "house": "5",
      "postcode": "9700-237",
      "city": "ANGRA DO HEROÍSMO",
      "lon": "-27.22892167527164",
      "lat": "38.671766141986666"
    },
    {
      "id": "pt.ine.add.AC26.84091",
      "street": "CAN DO TAILINHA",
      "house": "",
      "postcode": "9700-238",
      "city": "ANGRA DO HEROÍSMO",
      "lon": "-27.231768031415218",
      "lat": "38.67749206944539"
    },
    {
      "id": "pt.ine.add.AC26.84486",
      "street": "CAN CARDOSO",
      "house": "2",
      "postcode": "9700-237",
      "city": "ANGRA DO HEROÍSMO",
      "lon": "-27.230379168605367",
      "lat": "38.67100628495164"
    },
    {
      "id": "pt.ine.add.AC26.85297",
      "street": "R ESPIGAO",
      "house": "49",
      "postcode": "9700-226",
      "city": "ANGRA DO HEROÍSMO",
      "lon": "-27.230219582869093",
      "lat": "38.67501687108137"
    },
    {
      "id": "pt.ine.add.AC26.87875",
      "street": "CAN DO TAILHINHA",
      "house": "6",
      "postcode": "9700-235",
      "city": "ANGRA DO HEROÍSMO",
      "lon": "-27.23311974738984",
      "lat": "38.67599341747242"
    },
    {
      "id": "pt.ine.add.AC26.89785",
      "street": "CAN TALINHA",
      "house": "10",
      "postcode": "9700-235",
      "city": "ANGRA DO HEROÍSMO",
      "lon": "-27.232089405163812",
      "lat": "38.67732921904502"
    },
    {
      "id": "pt.ine.add.AC26.89786",
      "street": "CAN TALINHA",
      "house": "12",
      "postcode": "9700-235",
      "city": "ANGRA DO HEROÍSMO",
      "lon": "-27.232020281796515",
      "lat": "38.67728429698987"
    },
    {
      "id": "pt.ine.add.AC26.89829",
      "street": "R ESPIGAO",
      "house": "31",
      "postcode": "9700-226",
      "city": "ANGRA DO HEROÍSMO",
      "lon": "-27.228983630807885",
      "lat": "38.67317186899956"
    },
    {
      "id": "pt.ine.add.AC26.89830",
      "street": "R ESPIGAO",
      "house": "29",
      "postcode": "9700-226",
      "city": "ANGRA DO HEROÍSMO",
      "lon": "-27.228914341184446",
      "lat": "38.67307287431343"
    },
    {
      "id": "pt.ine.add.AC26.89831",
      "street": "R ESPIGAO",
      "house": "19",
      "postcode": "9700-226",
      "city": "ANGRA DO HEROÍSMO",
      "lon": "-27.22862500111462",
      "lat": "38.67246063460162"
    },
    {
      "id": "pt.ine.add.AC26.93869",
      "street": "R ESPIGAO",
      "house": "33",
      "postcode": "9700-226",
      "city": "ANGRA DO HEROÍSMO",
      "lon": "-27.229041396236877",
      "lat": "38.6732618743637"
    },
    {
      "id": "pt.ine.add.AC26.94081",
      "street": "R ESPIGAO VELHO",
      "house": "7",
      "postcode": "9700-237",
      "city": "ANGRA DO HEROÍSMO",
      "lon": "-27.22895538656296",
      "lat": "38.67152275607175"
    },
    {
      "id": "pt.ine.add.AC26.94331",
      "street": "R ESPIGAO",
      "house": "23",
      "postcode": "9700-226",
      "city": "ANGRA DO HEROÍSMO",
      "lon": "-27.22875234110885",
      "lat": "38.672739752907624"
    },
    {
      "id": "pt.ine.add.AC26.107603",
      "street": "CAN ESPIGAO VELHO",
      "house": "8",
      "postcode": "9700-237",
      "city": "ANGRA DO HEROÍSMO",
      "lon": "-27.22895538656296",
      "lat": "38.67152275607175"
    }
  ]
}