{
  "data": {
    "distrito": "Guarda",
    "concelho": "Seia",
    "freguesia": "Santa Comba",
    "OBJECTID": 459,
    "BGRI2021": "09121300107",
    "DT21": "09",
    "DTMN21": "0912",
    "DTMNFR21": "091213",
    "DTMNFRSEC21": "091213001",
    "SECNUM21": "001",
    "SSNUM21": "07",
    "SECSSNUM21": "00107",
    "OBJECTID_1": 81759,
    "DT": "09",
    "CC": "12",
    "fr": "13",
    "SEC": "001",
    "SS": "07"
  },
  "addresses": [
    {
      "id": "pt.ine.add.PTCONT.1901903",
      "street": "R ANTÓNIO GOMES PINA ROLA",
      "house": "8",
      "postcode": "6270-181",
      "city": "SANTA COMBA SEI",
      "lon": "-7.71795731037381",
      "lat": "40.44346145920438"
    },
    {
      "id": "pt.ine.add.PTCONT.1913157",
      "street": "TERR DE S MIGUEL",
      "house": "8",
      "postcode": "6270-181",
      "city": "SANTA COMBA SEI",
      "lon": "-7.718412013347841",
      "lat": "40.4423554184355"
    },
    {
      "id": "pt.ine.add.PTCONT.1932349",
      "street": "R ANTÓNIO GOMES PINA ROLA",
      "house": "",
      "postcode": "6270-181",
      "city": "SANTA COMBA SEI",
      "lon": "-7.718293705057049",
      "lat": "40.442427037742405"
    },
    {
      "id": "pt.ine.add.PTCONT.1942588",
      "street": "TERR DE S MIGUEL",
      "house": "6",
      "postcode": "6270-181",
      "city": "SANTA COMBA SEI",
      "lon": "-7.718424187256711",
      "lat": "40.442292423809974"
    },
    {
      "id": "pt.ine.add.PTCONT.1956828",
      "street": "TERR DE S MIGUEL",
      "house": "10",
      "postcode": "6270-181",
      "city": "SANTA COMBA SEI",
      "lon": "-7.718388052859718",
      "lat": "40.44241837077614"
    },
    {
      "id": "pt.ine.add.PTCONT.1961300",
      "street": "R ANTÓNIO GOMES PINA ROLA",
      "house": "2",
      "postcode": "6270-181",
      "city": "SANTA COMBA SEI",
      "lon": "-7.7182479982198435",
      "lat": "40.44219273148647"
    },
    {
      "id": "pt.ine.add.PTCONT.1852569",
      "street": "R ANTÓNIO GOMES PINA ROLA",
      "house": "",
      "postcode": "6270-181",
      "city": "SANTA COMBA SEI",
      "lon": "-7.718009830608297",
      "lat": "40.44258811725057"
    },
    {
      "id": "pt.ine.add.PTCONT.1852570",
      "street": "LG DE S MIGUEL",
      "house": "14",
      "postcode": "6270-181",
      "city": "SANTA COMBA SEI",
      "lon": "-7.718765554418907",
      "lat": "40.44236569159469"
    },
    {
      "id": "pt.ine.add.PTCONT.1894055",
      "street": "LG DE S MIGUEL",
      "house": "12",
      "postcode": "6270-181",
      "city": "SANTA COMBA SEI",
      "lon": "-7.7187186847216305",
      "lat": "40.44232049624271"
    }
  ]
}