{
  "data": {
    "distrito": "Guarda",
    "concelho": "Seia",
    "freguesia": "Santa Comba",
    "OBJECTID": 49,
    "BGRI2021": "09121300118",
    "DT21": "09",
    "DTMN21": "0912",
    "DTMNFR21": "091213",
    "DTMNFRSEC21": "091213001",
    "SECNUM21": "001",
    "SSNUM21": "18",
    "SECSSNUM21": "00118",
    "OBJECTID_1": 81877,
    "DT": "09",
    "CC": "12",
    "fr": "13",
    "SEC": "001",
    "SS": "18"
  },
  "addresses": [
    {
      "id": "pt.ine.add.PTCONT.1898934",
      "street": "R FERNANDO PESSOA",
      "house": "4",
      "postcode": "6270-184",
      "city": "SANTA COMBA SEI",
      "lon": "-7.716920600835799",
      "lat": "40.44719499986806"
    },
    {
      "id": "pt.ine.add.PTCONT.1899247",
      "street": "R ANTÓNIO ROQUE PINTO",
      "house": "4",
      "postcode": "6270-184",
      "city": "SANTA COMBA SEI",
      "lon": "-7.713914575761847",
      "lat": "40.44912031253412"
    },
    {
      "id": "pt.ine.add.PTCONT.1909756",
      "street": "BC SANTO CRISTO",
      "house": "2",
      "postcode": "6270-184",
      "city": "SANTA COMBA SEI",
      "lon": "-7.71645800100234",
      "lat": "40.447661617531914"
    },
    {
      "id": "pt.ine.add.PTCONT.1914513",
      "street": "R DR JOSÉ MARIA SACADURA BOTTE",
      "house": "13",
      "postcode": "6270-184",
      "city": "SANTA COMBA SEI",
      "lon": "-7.7141722839695275",
      "lat": "40.44938240508056"
    },
    {
      "id": "pt.ine.add.PTCONT.1915175",
      "street": "LG LUIS DE CAMÕES",
      "house": "9",
      "postcode": "6270-184",
      "city": "SANTA COMBA SEI",
      "lon": "-7.717130997189649",
      "lat": "40.44748393195615"
    },
    {
      "id": "pt.ine.add.PTCONT.1917228",
      "street": "R DOMINGOS GONÇALVES SANTIAGO",
      "house": "",
      "postcode": "6270-184",
      "city": "SANTA COMBA SEI",
      "lon": "-7.7162199702848",
      "lat": "40.4480299833031"
    },
    {
      "id": "pt.ine.add.PTCONT.1922312",
      "street": "BC SACADURA BOTTE",
      "house": "4",
      "postcode": "6270-184",
      "city": "SANTA COMBA SEI",
      "lon": "-7.715312497608247",
      "lat": "40.447999690744815"
    },
    {
      "id": "pt.ine.add.PTCONT.1922313",
      "street": "BC DE S SILVESTRE",
      "house": "2",
      "postcode": "6270-184",
      "city": "SANTA COMBA SEI",
      "lon": "-7.71524093584511",
      "lat": "40.44813451400707"
    },
    {
      "id": "pt.ine.add.PTCONT.1922314",
      "street": "R DR JOSÉ MARIA SACADURA BOTTE",
      "house": "17",
      "postcode": "6270-184",
      "city": "SANTA COMBA SEI",
      "lon": "-7.714362788607202",
      "lat": "40.449076909703194"
    },
    {
      "id": "pt.ine.add.PTCONT.1922315",
      "street": "R DR JOSÉ MARIA SACADURA BOTTE",
      "house": "15",
      "postcode": "6270-184",
      "city": "SANTA COMBA SEI",
      "lon": "-7.714315022861683",
      "lat": "40.449175796721455"
    },
    {
      "id": "pt.ine.add.PTCONT.1932402",
      "street": "R DR JOSÉ MARIA SACADURA BOTTE",
      "house": "25",
      "postcode": "6270-184",
      "city": "SANTA COMBA SEI",
      "lon": "-7.7145654143621085",
      "lat": "40.44871742511951"
    },
    {
      "id": "pt.ine.add.PTCONT.1937601",
      "street": "R FERNANDO PESSOA",
      "house": "7",
      "postcode": "6270-184",
      "city": "SANTA COMBA SEI",
      "lon": "-7.716580045231563",
      "lat": "40.44698664764347"
    },
    {
      "id": "pt.ine.add.PTCONT.1952787",
      "street": "R DA REGADINHA",
      "house": "7",
      "postcode": "6270-184",
      "city": "SANTA COMBA SEI",
      "lon": "-7.712538725311646",
      "lat": "40.446692846146384"
    },
    {
      "id": "pt.ine.add.PTCONT.1958473",
      "street": "LG LUIS DE CAMÕES",
      "house": "7",
      "postcode": "6270-184",
      "city": "SANTA COMBA SEI",
      "lon": "-7.71702402168456",
      "lat": "40.4476276343639"
    },
    {
      "id": "pt.ine.add.PTCONT.1961857",
      "street": "R DR JOSÉ MARIA SACADURA BOTTE",
      "house": "29",
      "postcode": "6270-184",
      "city": "SANTA COMBA SEI",
      "lon": "-7.714707703863497",
      "lat": "40.44858285830439"
    },
    {
      "id": "pt.ine.add.PTCONT.1961858",
      "street": "R ANTÓNIO ROQUE PINTO",
      "house": "10",
      "postcode": "6270-184",
      "city": "SANTA COMBA SEI",
      "lon": "-7.713596755291424",
      "lat": "40.44904711592321"
    },
    {
      "id": "pt.ine.add.PTCONT.1966265",
      "street": "R DOMINGOS GONCALVES SANTIAGO",
      "house": "17",
      "postcode": "6270-184",
      "city": "SANTA COMBA SEI",
      "lon": "-7.716018969858193",
      "lat": "40.44812831833709"
    },
    {
      "id": "pt.ine.add.PTCONT.1966266",
      "street": "R DOMINGOS GONCALVES SANTIAGO",
      "house": "17",
      "postcode": "6270-184",
      "city": "SANTA COMBA SEI",
      "lon": "-7.716018969858193",
      "lat": "40.44812831833709"
    },
    {
      "id": "pt.ine.add.PTCONT.1966272",
      "street": "TERR S SILVESTRE",
      "house": "",
      "postcode": "6270-184",
      "city": "SANTA COMBA SEI",
      "lon": "-7.716018969858193",
      "lat": "40.44812831833709"
    },
    {
      "id": "pt.ine.add.PTCONT.1968799",
      "street": "R ELVIRA E SANCHA GARCIA",
      "house": "4 A",
      "postcode": "6270-184",
      "city": "SANTA COMBA SEI",
      "lon": "-7.713901165352784",
      "lat": "40.449381422219574"
    },
    {
      "id": "pt.ine.add.PTCONT.1968800",
      "street": "LG LUIS DE CAMÕES",
      "house": "5",
      "postcode": "6270-184",
      "city": "SANTA COMBA SEI",
      "lon": "-7.716787216645366",
      "lat": "40.44779788556172"
    },
    {
      "id": "pt.ine.add.PTCONT.1971251",
      "street": "LG PROF CÉSAR BAPTISTA ALMEIDA",
      "house": "4",
      "postcode": "6270-184",
      "city": "SANTA COMBA SEI",
      "lon": "-7.714921611493805",
      "lat": "40.44830446304192"
    },
    {
      "id": "pt.ine.add.PTCONT.1971252",
      "street": "BC SANTO CRISTO",
      "house": "",
      "postcode": "6270-184",
      "city": "SANTA COMBA SEI",
      "lon": "-7.716186499693793",
      "lat": "40.447723676894924"
    },
    {
      "id": "pt.ine.add.PTCONT.1972361",
      "street": "R DR JOSÉ MARIA SACADURA BOTTE",
      "house": "23",
      "postcode": "6270-184",
      "city": "SANTA COMBA SEI",
      "lon": "-7.714458654953316",
      "lat": "40.44882510405517"
    },
    {
      "id": "pt.ine.add.PTCONT.1974298",
      "street": "R ELVIRA E SANCHA GARCIA",
      "house": "4",
      "postcode": "6270-184",
      "city": "SANTA COMBA SEI",
      "lon": "-7.713830606652991",
      "lat": "40.44935414994852"
    },
    {
      "id": "pt.ine.add.PTCONT.1853657",
      "street": "LG PROF CÉSAR BAPTISTA ALMEIDA",
      "house": "3",
      "postcode": "6270-184",
      "city": "SANTA COMBA SEI",
      "lon": "-7.714685468979481",
      "lat": "40.448366646773216"
    },
    {
      "id": "pt.ine.add.PTCONT.1860443",
      "street": "BC DE S SILVESTRE",
      "house": "12",
      "postcode": "6270-184",
      "city": "SANTA COMBA SEI",
      "lon": "-7.715016525972074",
      "lat": "40.44820574628884"
    },
    {
      "id": "pt.ine.add.PTCONT.1860444",
      "street": "BC STO CRISTO",
      "house": "1",
      "postcode": "6270-184",
      "city": "SANTA COMBA SEI",
      "lon": "-7.716293143335835",
      "lat": "40.447634006843685"
    },
    {
      "id": "pt.ine.add.PTCONT.1861283",
      "street": "R FERNANDO PESSOA",
      "house": "5",
      "postcode": "6270-184",
      "city": "SANTA COMBA SEI",
      "lon": "-7.716779596712148",
      "lat": "40.447122448433234"
    },
    {
      "id": "pt.ine.add.PTCONT.1863638",
      "street": "R ANTÓNIO ROQUE PINTO",
      "house": "2",
      "postcode": "6270-184",
      "city": "SANTA COMBA SEI",
      "lon": "-7.714020217733001",
      "lat": "40.44919273924557"
    },
    {
      "id": "pt.ine.add.PTCONT.1865635",
      "street": "BC DE S SILVESTRE",
      "house": "",
      "postcode": "6270-184",
      "city": "SANTA COMBA SEI",
      "lon": "-7.715488920322844",
      "lat": "40.44806336645654"
    },
    {
      "id": "pt.ine.add.PTCONT.1865636",
      "street": "R FERNANDO PESSOA",
      "house": "9",
      "postcode": "6270-184",
      "city": "SANTA COMBA SEI",
      "lon": "-7.716462672196456",
      "lat": "40.44690517550139"
    },
    {
      "id": "pt.ine.add.PTCONT.1868495",
      "street": "R ANTÓNIO ROQUE PINTO",
      "house": "8",
      "postcode": "6270-184",
      "city": "SANTA COMBA SEI",
      "lon": "-7.7137027886725456",
      "lat": "40.4490565061298"
    },
    {
      "id": "pt.ine.add.PTCONT.1869650",
      "street": "R DR JOSÉ MARIA SACADURA BOTTE",
      "house": "21",
      "postcode": "6270-184",
      "city": "SANTA COMBA SEI",
      "lon": "-7.714446364351987",
      "lat": "40.448906108682344"
    },
    {
      "id": "pt.ine.add.PTCONT.1870005",
      "street": "R ELVIRA E SANCHA GARCIA",
      "house": "2",
      "postcode": "6270-184",
      "city": "SANTA COMBA SEI",
      "lon": "-7.7140545181777975",
      "lat": "40.44936396731534"
    },
    {
      "id": "pt.ine.add.PTCONT.1876628",
      "street": "R DR JOSÉ MARIA SACADURA BOTTE",
      "house": "19",
      "postcode": "6270-184",
      "city": "SANTA COMBA SEI",
      "lon": "-7.714398766515694",
      "lat": "40.44897797996757"
    },
    {
      "id": "pt.ine.add.PTCONT.1879297",
      "street": "R ANTÓNIO ROQUE PINTO",
      "house": "3",
      "postcode": "6270-184",
      "city": "SANTA COMBA SEI",
      "lon": "-7.713925748016296",
      "lat": "40.44921941309933"
    },
    {
      "id": "pt.ine.add.PTCONT.1880154",
      "street": "R ELVIRA E SANCHA GARCIA",
      "house": "5",
      "postcode": "6270-184",
      "city": "SANTA COMBA SEI",
      "lon": "-7.713701669047557",
      "lat": "40.449236611253525"
    },
    {
      "id": "pt.ine.add.PTCONT.1884944",
      "street": "BC DE S SILVESTRE",
      "house": "10",
      "postcode": "6270-184",
      "city": "SANTA COMBA SEI",
      "lon": "-7.714946135480959",
      "lat": "40.44815145891947"
    },
    {
      "id": "pt.ine.add.PTCONT.1887545",
      "street": "LG PROF CÉSAR BAPTISTA ALMEIDA",
      "house": "6",
      "postcode": "6270-184",
      "city": "SANTA COMBA SEI",
      "lon": "-7.7148512768033495",
      "lat": "40.448241170356646"
    },
    {
      "id": "pt.ine.add.PTCONT.1889628",
      "street": "LG LUIS DE CAMÕES",
      "house": "11",
      "postcode": "6270-184",
      "city": "SANTA COMBA SEI",
      "lon": "-7.717261491562796",
      "lat": "40.44734931951404"
    },
    {
      "id": "pt.ine.add.PTCONT.1891209",
      "street": "R ANTÓNIO ROQUE PINTO",
      "house": "6",
      "postcode": "6270-184",
      "city": "SANTA COMBA SEI",
      "lon": "-7.713808766117129",
      "lat": "40.44907490149569"
    },
    {
      "id": "pt.ine.add.PTCONT.1893237",
      "street": "LG PROF CÉSAR BAPTISTA ALMEIDA",
      "house": "1",
      "postcode": "6270-184",
      "city": "SANTA COMBA SEI",
      "lon": "-7.714837758565637",
      "lat": "40.44852029072645"
    },
    {
      "id": "pt.ine.add.PTCONT.1894120",
      "street": "LG DE S SILVESTRE",
      "house": "8",
      "postcode": "6270-184",
      "city": "SANTA COMBA SEI",
      "lon": "-7.715099931590305",
      "lat": "40.44806196053446"
    }
  ]
}