{
  "data": {
    "distrito": "Guarda",
    "concelho": "Seia",
    "freguesia": "Santa Comba",
    "OBJECTID": 51,
    "BGRI2021": "09121300119",
    "DT21": "09",
    "DTMN21": "0912",
    "DTMNFR21": "091213",
    "DTMNFRSEC21": "091213001",
    "SECNUM21": "001",
    "SSNUM21": "19",
    "SECSSNUM21": "00119",
    "OBJECTID_1": 82298,
    "DT": "09",
    "CC": "12",
    "fr": "13",
    "SEC": "001",
    "SS": "19"
  },
  "addresses": [
    {
      "id": "pt.ine.add.PTCONT.1899246",
      "street": "R SEIXAS GARCIA",
      "house": "13",
      "postcode": "6270-184",
      "city": "SANTA COMBA SEI",
      "lon": "-7.713442114707843",
      "lat": "40.44927169110877"
    },
    {
      "id": "pt.ine.add.PTCONT.1939619",
      "street": "R CAP MANUEL REBELO DIAS",
      "house": "",
      "postcode": "6270-184",
      "city": "SANTA COMBA SEI",
      "lon": "-7.713031618240735",
      "lat": "40.44893699814309"
    },
    {
      "id": "pt.ine.add.PTCONT.1945845",
      "street": "R DR JOSÉ MARIA SACADURA BOTTE",
      "house": "1",
      "postcode": "6270-184",
      "city": "SANTA COMBA SEI",
      "lon": "-7.7112133864994155",
      "lat": "40.449398660442085"
    },
    {
      "id": "pt.ine.add.PTCONT.1956827",
      "street": "R ELVINA E SANCHA GARCIA",
      "house": "9",
      "postcode": "6270-184",
      "city": "SANTA COMBA SEI",
      "lon": "-7.713595019430223",
      "lat": "40.44932627885924"
    },
    {
      "id": "pt.ine.add.PTCONT.1968798",
      "street": "R DR JOSÉ MARIA SACADURA BOTTE",
      "house": "",
      "postcode": "6270-184",
      "city": "SANTA COMBA SEI",
      "lon": "-7.7112709739694365",
      "lat": "40.44961500159954"
    },
    {
      "id": "pt.ine.add.PTCONT.1975293",
      "street": "R DR JOSÉ MARIA SACADURA BOTTE",
      "house": "7",
      "postcode": "6270-184",
      "city": "SANTA COMBA SEI",
      "lon": "-7.7134050148094415",
      "lat": "40.44955072564085"
    },
    {
      "id": "pt.ine.add.PTCONT.1979310",
      "street": "R DR JOSÉ MARIA SACADURA BOTTE",
      "house": "9",
      "postcode": "6270-184",
      "city": "SANTA COMBA SEI",
      "lon": "-7.713983176214643",
      "lat": "40.44946276872318"
    },
    {
      "id": "pt.ine.add.PTCONT.1851607",
      "street": "R ELVINA E SANCHA GARCIA",
      "house": "7",
      "postcode": "6270-184",
      "city": "SANTA COMBA SEI",
      "lon": "-7.7136771418248244",
      "lat": "40.44938961506713"
    },
    {
      "id": "pt.ine.add.PTCONT.1858553",
      "street": "R CAP MANUEL REBELO DIAS",
      "house": "",
      "postcode": "6270-184",
      "city": "SANTA COMBA SEI",
      "lon": "-7.712804117832977",
      "lat": "40.44950351512489"
    },
    {
      "id": "pt.ine.add.PTCONT.1859613",
      "street": "R DR JOSÉ MARIA SACADURA BOTTE",
      "house": "",
      "postcode": "6270-184",
      "city": "SANTA COMBA SEI",
      "lon": "-7.713676358031254",
      "lat": "40.44951568864663"
    },
    {
      "id": "pt.ine.add.PTCONT.1869642",
      "street": "R DR JOSÉ MARIA SACADURA BOTTE",
      "house": "5",
      "postcode": "6270-184",
      "city": "SANTA COMBA SEI",
      "lon": "-7.713193226862426",
      "lat": "40.44948691830334"
    },
    {
      "id": "pt.ine.add.PTCONT.1870004",
      "street": "R CAP MANUEL REBELO DIAS",
      "house": "8",
      "postcode": "6270-184",
      "city": "SANTA COMBA SEI",
      "lon": "-7.712876583397395",
      "lat": "40.449224609354864"
    },
    {
      "id": "pt.ine.add.PTCONT.1889343",
      "street": "R ELVINA E SANCHA GARCIA",
      "house": "11",
      "postcode": "6270-184",
      "city": "SANTA COMBA SEI",
      "lon": "-7.713512673162598",
      "lat": "40.44929896361611"
    }
  ]
}