{
  "data": {
    "distrito": "Aveiro",
    "concelho": "Anadia",
    "freguesia": "União das freguesias de Tamengos, Aguim e Óis do Bairro",
    "OBJECTID": 60,
    "BGRI2021": "01031800209",
    "DT21": "01",
    "DTMN21": "0103",
    "DTMNFR21": "010318",
    "DTMNFRSEC21": "010318002",
    "SECNUM21": "002",
    "SSNUM21": "09",
    "SECSSNUM21": "00209",
    "OBJECTID_1": 1488,
    "DT": "01",
    "CC": "03",
    "fr": "18",
    "SEC": "002",
    "SS": "09"
  },
  "addresses": [
    {
      "id": "pt.ine.add.PTCONT.297949",
      "street": "ESTR LOMBA",
      "house": "2",
      "postcode": "3780-633",
      "city": "AGUIM",
      "lon": "-8.444134660671477",
      "lat": "40.41314274820822"
    },
    {
      "id": "pt.ine.add.PTCONT.8193",
      "street": "R VALE DE DENTRO",
      "house": "",
      "postcode": "3780-633",
      "city": "AGUIM",
      "lon": "-8.443483850080966",
      "lat": "40.409965543068395"
    },
    {
      "id": "pt.ine.add.PTCONT.63830",
      "street": "ESTR LOMBA",
      "house": "34",
      "postcode": "3780-633",
      "city": "AGUIM",
      "lon": "-8.44287515914469",
      "lat": "40.41082270142737"
    },
    {
      "id": "pt.ine.add.PTCONT.88636",
      "street": "ESTR LOMBA",
      "house": "44",
      "postcode": "3780-633",
      "city": "AGUIM",
      "lon": "-8.442647850860475",
      "lat": "40.41006684505224"
    },
    {
      "id": "pt.ine.add.PTCONT.149073",
      "street": "ESTR LOMBA",
      "house": "30",
      "postcode": "3780-633",
      "city": "AGUIM",
      "lon": "-8.443018764055171",
      "lat": "40.411308615565524"
    },
    {
      "id": "pt.ine.add.PTCONT.151229",
      "street": "ESTR LOMBA",
      "house": "20",
      "postcode": "3780-633",
      "city": "AGUIM",
      "lon": "-8.443588775899133",
      "lat": "40.412288689660414"
    },
    {
      "id": "pt.ine.add.PTCONT.205890",
      "street": "ESTR LOMBA",
      "house": "",
      "postcode": "3780-633",
      "city": "AGUIM",
      "lon": "-8.443328343748004",
      "lat": "40.41201922266189"
    },
    {
      "id": "pt.ine.add.PTCONT.267578",
      "street": "ESTR LOMBA",
      "house": "31",
      "postcode": "3780-633",
      "city": "AGUIM",
      "lon": "-8.44437410711303",
      "lat": "40.411413041298765"
    },
    {
      "id": "pt.ine.add.PTCONT.287118",
      "street": "ESTR LOMBA",
      "house": "26",
      "postcode": "3780-633",
      "city": "AGUIM",
      "lon": "-8.44338634074122",
      "lat": "40.41182094527511"
    }
  ]
}