{
  "data": {
    "distrito": "Aveiro",
    "concelho": "Anadia",
    "freguesia": "União das freguesias de Tamengos, Aguim e Óis do Bairro",
    "OBJECTID": 681,
    "BGRI2021": "01031800226",
    "DT21": "01",
    "DTMN21": "0103",
    "DTMNFR21": "010318",
    "DTMNFRSEC21": "010318002",
    "SECNUM21": "002",
    "SSNUM21": "26",
    "SECSSNUM21": "00226",
    "OBJECTID_1": 1756,
    "DT": "01",
    "CC": "03",
    "fr": "18",
    "SEC": "002",
    "SS": "26"
  },
  "addresses": [
    {
      "id": "pt.ine.add.PTCONT.308234",
      "street": "BC COVA S DIAS",
      "house": "18",
      "postcode": "3780-625",
      "city": "AGUIM",
      "lon": "-8.452771008719543",
      "lat": "40.42068383554709"
    },
    {
      "id": "pt.ine.add.PTCONT.331755",
      "street": "EN 1",
      "house": "",
      "postcode": "3780-544",
      "city": "TAMENGOS",
      "lon": "-8.45401754049384",
      "lat": "40.42264358536572"
    },
    {
      "id": "pt.ine.add.PTCONT.349465",
      "street": "EN 1",
      "house": "19",
      "postcode": "3780-621",
      "city": "AGUIM",
      "lon": "-8.45369664152013",
      "lat": "40.419582599135346"
    },
    {
      "id": "pt.ine.add.PTCONT.349897",
      "street": "EN 1",
      "house": "21",
      "postcode": "3780-621",
      "city": "AGUIM",
      "lon": "-8.452959418708934",
      "lat": "40.41817077389859"
    },
    {
      "id": "pt.ine.add.PTCONT.2950",
      "street": "EN 1",
      "house": "",
      "postcode": "3780-621",
      "city": "AGUIM",
      "lon": "-8.453564938156047",
      "lat": "40.419141693678675"
    },
    {
      "id": "pt.ine.add.PTCONT.2951",
      "street": "EN 1",
      "house": "13",
      "postcode": "3780-621",
      "city": "AGUIM",
      "lon": "-8.453132266975377",
      "lat": "40.41983631725006"
    },
    {
      "id": "pt.ine.add.PTCONT.5551",
      "street": "AV VALE DA BICA",
      "house": "",
      "postcode": "3780-544",
      "city": "TAMENGOS",
      "lon": "-8.45401234756619",
      "lat": "40.424030449173046"
    },
    {
      "id": "pt.ine.add.PTCONT.32894",
      "street": "EN 1 STAND AUTONOVIDADES",
      "house": "",
      "postcode": "3780-544",
      "city": "TAMENGOS",
      "lon": "-8.453968396568749",
      "lat": "40.4222204624629"
    },
    {
      "id": "pt.ine.add.PTCONT.32895",
      "street": "EN 1 VILA UTORIA",
      "house": "1",
      "postcode": "3780-544",
      "city": "TAMENGOS",
      "lon": "-8.45383208826782",
      "lat": "40.42329249712391"
    },
    {
      "id": "pt.ine.add.PTCONT.112447",
      "street": "R BARREIRO",
      "house": "27",
      "postcode": "3780-635",
      "city": "AGUIM",
      "lon": "-8.452594886946812",
      "lat": "40.418324875666144"
    },
    {
      "id": "pt.ine.add.PTCONT.141661",
      "street": "EN 1",
      "house": "11",
      "postcode": "3780-621",
      "city": "AGUIM",
      "lon": "-8.453630475626841",
      "lat": "40.42053736777547"
    },
    {
      "id": "pt.ine.add.PTCONT.144313",
      "street": "EN 1",
      "house": "9",
      "postcode": "3780-621",
      "city": "AGUIM",
      "lon": "-8.45379611986484",
      "lat": "40.42068099676877"
    },
    {
      "id": "pt.ine.add.PTCONT.152701",
      "street": "R BARREIRO",
      "house": "52",
      "postcode": "3780-635",
      "city": "AGUIM",
      "lon": "-8.452791693875815",
      "lat": "40.417585878696194"
    },
    {
      "id": "pt.ine.add.PTCONT.182470",
      "street": "AV VALE DA BICA",
      "house": "",
      "postcode": "3780-544",
      "city": "TAMENGOS",
      "lon": "-8.454613733273085",
      "lat": "40.42411883354936"
    },
    {
      "id": "pt.ine.add.PTCONT.203094",
      "street": "EN 1 PORTAO MN",
      "house": "PORTAO MN",
      "postcode": "3780-544",
      "city": "TAMENGOS",
      "lon": "-8.454493798294433",
      "lat": "40.423677896786536"
    },
    {
      "id": "pt.ine.add.PTCONT.210900",
      "street": "EN 1",
      "house": "17",
      "postcode": "3780-621",
      "city": "AGUIM",
      "lon": "-8.453757051417599",
      "lat": "40.419897624856716"
    },
    {
      "id": "pt.ine.add.PTCONT.211121",
      "street": "R BARREIRO",
      "house": "66",
      "postcode": "3780-635",
      "city": "AGUIM",
      "lon": "-8.45340407696486",
      "lat": "40.41752114520065"
    },
    {
      "id": "pt.ine.add.PTCONT.225123",
      "street": "BC COVA S DIAS",
      "house": "",
      "postcode": "3780-625",
      "city": "AGUIM",
      "lon": "-8.45270116371046",
      "lat": "40.42086413902837"
    },
    {
      "id": "pt.ine.add.PTCONT.265049",
      "street": "BC COVA S DIAS",
      "house": "19",
      "postcode": "3780-625",
      "city": "AGUIM",
      "lon": "-8.452535734307975",
      "lat": "40.42076553547428"
    }
  ]
}