{
  "data": {
    "distrito": "Setúbal",
    "concelho": "Almada",
    "freguesia": "União das freguesias de Almada, Cova da Piedade, Pragal e Cacilhas",
    "OBJECTID": 1516,
    "BGRI2021": "15031202304",
    "DT21": "15",
    "DTMN21": "1503",
    "DTMNFR21": "150312",
    "DTMNFRSEC21": "150312023",
    "SECNUM21": "023",
    "SSNUM21": "04",
    "SECSSNUM21": "02304",
    "OBJECTID_1": 162216,
    "DT": "15",
    "CC": "03",
    "fr": "12",
    "SEC": "023",
    "SS": "04"
  },
  "addresses": [
    {
      "id": "pt.ine.add.PTCONT.4732886",
      "street": "R FLORES",
      "house": "4",
      "postcode": "2800-078",
      "city": "ALMADA",
      "lon": "-9.157938119298572",
      "lat": "38.679890130668"
    },
    {
      "id": "pt.ine.add.PTCONT.4732887",
      "street": "R FLORES",
      "house": "4",
      "postcode": "2800-078",
      "city": "ALMADA",
      "lon": "-9.157938119298572",
      "lat": "38.679890130668"
    },
    {
      "id": "pt.ine.add.PTCONT.4732888",
      "street": "R FLORES",
      "house": "4",
      "postcode": "2800-078",
      "city": "ALMADA",
      "lon": "-9.157938119298572",
      "lat": "38.679890130668"
    },
    {
      "id": "pt.ine.add.PTCONT.4732889",
      "street": "R FLORES",
      "house": "4",
      "postcode": "2800-078",
      "city": "ALMADA",
      "lon": "-9.157938119298572",
      "lat": "38.679890130668"
    },
    {
      "id": "pt.ine.add.PTCONT.4732910",
      "street": "R FLORES",
      "house": "4",
      "postcode": "2800-078",
      "city": "ALMADA",
      "lon": "-9.157938119298572",
      "lat": "38.679890130668"
    },
    {
      "id": "pt.ine.add.PTCONT.4732911",
      "street": "R FLORES",
      "house": "4",
      "postcode": "2800-078",
      "city": "ALMADA",
      "lon": "-9.157938119298572",
      "lat": "38.679890130668"
    },
    {
      "id": "pt.ine.add.PTCONT.4732912",
      "street": "R FLORES",
      "house": "4",
      "postcode": "2800-078",
      "city": "ALMADA",
      "lon": "-9.157938119298572",
      "lat": "38.679890130668"
    },
    {
      "id": "pt.ine.add.PTCONT.4732913",
      "street": "R FLORES",
      "house": "4",
      "postcode": "2800-078",
      "city": "ALMADA",
      "lon": "-9.157938119298572",
      "lat": "38.679890130668"
    },
    {
      "id": "pt.ine.add.PTCONT.4732914",
      "street": "R FLORES",
      "house": "4",
      "postcode": "2800-078",
      "city": "ALMADA",
      "lon": "-9.157938119298572",
      "lat": "38.679890130668"
    },
    {
      "id": "pt.ine.add.PTCONT.4732915",
      "street": "R FLORES",
      "house": "4",
      "postcode": "2800-078",
      "city": "ALMADA",
      "lon": "-9.157938119298572",
      "lat": "38.679890130668"
    },
    {
      "id": "pt.ine.add.PTCONT.4732916",
      "street": "R FLORES",
      "house": "4",
      "postcode": "2800-078",
      "city": "ALMADA",
      "lon": "-9.157938119298572",
      "lat": "38.679890130668"
    },
    {
      "id": "pt.ine.add.PTCONT.4732917",
      "street": "R FLORES",
      "house": "4",
      "postcode": "2800-078",
      "city": "ALMADA",
      "lon": "-9.157938119298572",
      "lat": "38.679890130668"
    },
    {
      "id": "pt.ine.add.PTCONT.4735577",
      "street": "R FLORES",
      "house": "4",
      "postcode": "2800-078",
      "city": "ALMADA",
      "lon": "-9.157938119298572",
      "lat": "38.679890130668"
    },
    {
      "id": "pt.ine.add.PTCONT.4807688",
      "street": "R SALVADOR DA BAIA",
      "house": "3",
      "postcode": "2800-078",
      "city": "ALMADA",
      "lon": "-9.158044487604187",
      "lat": "38.68009638083615"
    },
    {
      "id": "pt.ine.add.PTCONT.4807686",
      "street": "R SALVADOR DA BAIA",
      "house": "3",
      "postcode": "2800-078",
      "city": "ALMADA",
      "lon": "-9.158044487604187",
      "lat": "38.68009638083615"
    },
    {
      "id": "pt.ine.add.PTCONT.4807687",
      "street": "R SALVADOR DA BAIA",
      "house": "3",
      "postcode": "2800-078",
      "city": "ALMADA",
      "lon": "-9.158044487604187",
      "lat": "38.68009638083615"
    },
    {
      "id": "pt.ine.add.PTCONT.4807689",
      "street": "R SALVADOR DA BAIA",
      "house": "3",
      "postcode": "2800-078",
      "city": "ALMADA",
      "lon": "-9.158044487604187",
      "lat": "38.68009638083615"
    }
  ]
}