{
  "data": {
    "distrito": "Ã‰vora",
    "concelho": "Vendas Novas",
    "freguesia": "Vendas Novas",
    "OBJECTID": 181,
    "BGRI2021": "07120100211",
    "DT21": "07",
    "DTMN21": "0712",
    "DTMNFR21": "071201",
    "DTMNFRSEC21": "071201002",
    "SECNUM21": "002",
    "SSNUM21": "11",
    "SECSSNUM21": "00211",
    "OBJECTID_1": 63615,
    "DT": "07",
    "CC": "12",
    "fr": "01",
    "SEC": "002",
    "SS": "11"
  },
  "addresses": [
    {
      "id": "pt.ine.add.PTCONT.1368978",
      "street": "FOROS DOS INFANTES",
      "house": "9",
      "postcode": "7080-024",
      "city": "VENDAS NOVAS",
      "lon": "-8.467233896686665",
      "lat": "38.685074221822966"
    },
    {
      "id": "pt.ine.add.PTCONT.1375907",
      "street": "FOROS DOS INFANTES",
      "house": "24",
      "postcode": "7080-024",
      "city": "VENDAS NOVAS",
      "lon": "-8.466215049749096",
      "lat": "38.68346465908135"
    },
    {
      "id": "pt.ine.add.PTCONT.1377268",
      "street": "FOROS DOS INFANTES",
      "house": "",
      "postcode": "7080-024",
      "city": "VENDAS NOVAS",
      "lon": "-8.466922878095517",
      "lat": "38.684921970474015"
    },
    {
      "id": "pt.ine.add.PTCONT.1377269",
      "street": "TV CRUZ DAS ALMAS",
      "house": "22",
      "postcode": "7080-145",
      "city": "VENDAS NOVAS",
      "lon": "-8.466134598813735",
      "lat": "38.683267166121084"
    },
    {
      "id": "pt.ine.add.PTCONT.1378090",
      "street": "BR LIZARDO",
      "house": "18",
      "postcode": "7080-113",
      "city": "VENDAS NOVAS",
      "lon": "-8.465589239062504",
      "lat": "38.68234041365632"
    },
    {
      "id": "pt.ine.add.PTCONT.1379679",
      "street": "PTO SERRUDO",
      "house": "6",
      "postcode": "7080-318",
      "city": "VENDAS NOVAS",
      "lon": "-8.466796582460764",
      "lat": "38.68494935550942"
    },
    {
      "id": "pt.ine.add.PTCONT.1381082",
      "street": "TV CRUZ DAS ALMAS",
      "house": "22",
      "postcode": "7080-145",
      "city": "VENDAS NOVAS",
      "lon": "-8.466090509949266",
      "lat": "38.68329185884386"
    },
    {
      "id": "pt.ine.add.PTCONT.1389950",
      "street": "FOROS DOS INFANTES",
      "house": "4",
      "postcode": "7080-024",
      "city": "VENDAS NOVAS",
      "lon": "-8.467373780688",
      "lat": "38.68549720775531"
    },
    {
      "id": "pt.ine.add.PTCONT.1391896",
      "street": "TV CRUZ DAS ALMAS",
      "house": "8",
      "postcode": "7080-145",
      "city": "VENDAS NOVAS",
      "lon": "-8.465657193026496",
      "lat": "38.682124023401315"
    },
    {
      "id": "pt.ine.add.PTCONT.1393737",
      "street": "FOROS DOS INFANTES",
      "house": "3",
      "postcode": "7080-024",
      "city": "VENDAS NOVAS",
      "lon": "-8.467014695152923",
      "lat": "38.68489468374643"
    },
    {
      "id": "pt.ine.add.PTCONT.1402193",
      "street": "TV CRUZ DAS ALMAS",
      "house": "20",
      "postcode": "7080-145",
      "city": "VENDAS NOVAS",
      "lon": "-8.466018256516989",
      "lat": "38.68315894032466"
    },
    {
      "id": "pt.ine.add.PTCONT.1402395",
      "street": "TV CRUZ ALMAS",
      "house": "14 A",
      "postcode": "7080-145",
      "city": "VENDAS NOVAS",
      "lon": "-8.465776370779135",
      "lat": "38.683042521888126"
    },
    {
      "id": "pt.ine.add.PTCONT.1403528",
      "street": "FOROS DOS INFANTES",
      "house": "",
      "postcode": "7080-024",
      "city": "VENDAS NOVAS",
      "lon": "-8.467455195308961",
      "lat": "38.68570416374573"
    },
    {
      "id": "pt.ine.add.PTCONT.1403529",
      "street": "FOROS DOS INFANTES",
      "house": "7",
      "postcode": "7080-024",
      "city": "VENDAS NOVAS",
      "lon": "-8.467397018009837",
      "lat": "38.685551190567715"
    },
    {
      "id": "pt.ine.add.PTCONT.1404368",
      "street": "FOROS DOS INFANTES",
      "house": "8",
      "postcode": "7080-024",
      "city": "VENDAS NOVAS",
      "lon": "-8.467431874058555",
      "lat": "38.68563216477648"
    },
    {
      "id": "pt.ine.add.PTCONT.1404459",
      "street": "FOROS INFANTES",
      "house": "28",
      "postcode": "7080-024",
      "city": "VENDAS NOVAS",
      "lon": "-8.466584694266759",
      "lat": "38.68386897503858"
    },
    {
      "id": "pt.ine.add.PTCONT.1408094",
      "street": "TV CRUZ DAS ALMAS",
      "house": "14",
      "postcode": "7080-145",
      "city": "VENDAS NOVAS",
      "lon": "-8.465706164678757",
      "lat": "38.682772475279755"
    },
    {
      "id": "pt.ine.add.PTCONT.1408832",
      "street": "FOROS DOS INFANTES",
      "house": "32",
      "postcode": "7080-024",
      "city": "VENDAS NOVAS",
      "lon": "-8.467128827735259",
      "lat": "38.68472320191349"
    },
    {
      "id": "pt.ine.add.PTCONT.1417932",
      "street": "FOROS DOS INFANTES",
      "house": "",
      "postcode": "7080-024",
      "city": "VENDAS NOVAS",
      "lon": "-8.467178610426116",
      "lat": "38.68554280644702"
    },
    {
      "id": "pt.ine.add.PTCONT.1426849",
      "street": "TV CRUZ DAS ALMAS",
      "house": "8 A",
      "postcode": "7080-145",
      "city": "VENDAS NOVAS",
      "lon": "-8.465657484853887",
      "lat": "38.682187080046226"
    },
    {
      "id": "pt.ine.add.PTCONT.1428274",
      "street": "BR LIZARDO",
      "house": "12",
      "postcode": "7080-113",
      "city": "VENDAS NOVAS",
      "lon": "-8.465647826759746",
      "lat": "38.68258346876191"
    },
    {
      "id": "pt.ine.add.PTCONT.1436834",
      "street": "PTO SERRUDO",
      "house": "",
      "postcode": "7080-318",
      "city": "VENDAS NOVAS",
      "lon": "-8.467122079859127",
      "lat": "38.68480124576503"
    },
    {
      "id": "pt.ine.add.PTCONT.1443542",
      "street": "FOROS DOS INFANTES",
      "house": "26",
      "postcode": "7080-024",
      "city": "VENDAS NOVAS",
      "lon": "-8.466445988278696",
      "lat": "38.68369821450782"
    },
    {
      "id": "pt.ine.add.PTCONT.1444840",
      "street": "TV CRUZ DAS ALMAS",
      "house": "18",
      "postcode": "7080-145",
      "city": "VENDAS NOVAS",
      "lon": "-8.465937349676597",
      "lat": "38.68306008029918"
    },
    {
      "id": "pt.ine.add.PTCONT.1448189",
      "street": "FOROS DOS INFANTES",
      "house": "2",
      "postcode": "7080-024",
      "city": "VENDAS NOVAS",
      "lon": "-8.467228103289068",
      "lat": "38.685030773780866"
    },
    {
      "id": "pt.ine.add.PTCONT.1450549",
      "street": "FOROS DOS INFANTES",
      "house": "30A",
      "postcode": "7080-024",
      "city": "VENDAS NOVAS",
      "lon": "-8.467093888729005",
      "lat": "38.68462421142438"
    },
    {
      "id": "pt.ine.add.PTCONT.1451965",
      "street": "FOROS DOS INFANTES",
      "house": "42",
      "postcode": "7080-024",
      "city": "VENDAS NOVAS",
      "lon": "-8.467193191043782",
      "lat": "38.684937600750125"
    },
    {
      "id": "pt.ine.add.PTCONT.1458480",
      "street": "FOROS DOS INFANTES",
      "house": "1",
      "postcode": "7080-024",
      "city": "VENDAS NOVAS",
      "lon": "-8.467106595890892",
      "lat": "38.68488541312015"
    },
    {
      "id": "pt.ine.add.PTCONT.1459514",
      "street": "FOROS DOS INFANTES",
      "house": "30",
      "postcode": "7080-024",
      "city": "VENDAS NOVAS",
      "lon": "-8.466885888750006",
      "lat": "38.68438158365183"
    }
  ]
}