{
  "data": {
    "distrito": "Porto",
    "concelho": "Gondomar",
    "freguesia": "União das freguesias de Gondomar (São Cosme), Valbom e Jovim",
    "OBJECTID": 1304,
    "BGRI2021": "13041502006",
    "DT21": "13",
    "DTMN21": "1304",
    "DTMNFR21": "130415",
    "DTMNFRSEC21": "130415020",
    "SECNUM21": "020",
    "SSNUM21": "06",
    "SECSSNUM21": "02006",
    "OBJECTID_1": 128943,
    "DT": "13",
    "CC": "04",
    "fr": "15",
    "SEC": "020",
    "SS": "06"
  },
  "addresses": [
    {
      "id": "pt.ine.add.PTCONT.3546697",
      "street": "AV 25 DE ABRIL",
      "house": "256",
      "postcode": "4420-353",
      "city": "GONDOMAR",
      "lon": "-8.533104975531646",
      "lat": "41.139055683159036"
    },
    {
      "id": "pt.ine.add.PTCONT.3553557",
      "street": "AV 25 DE ABRIL",
      "house": "288",
      "postcode": "4420-353",
      "city": "GONDOMAR",
      "lon": "-8.533225775980279",
      "lat": "41.139334399662864"
    },
    {
      "id": "pt.ine.add.PTCONT.3560065",
      "street": "R 25 DE ABRIL",
      "house": "305",
      "postcode": "4420-356",
      "city": "GONDOMAR",
      "lon": "-8.532121759245214",
      "lat": "41.13994152289946"
    },
    {
      "id": "pt.ine.add.PTCONT.3572797",
      "street": "AV 25 DE ABRIL",
      "house": "92",
      "postcode": "4420-355",
      "city": "GONDOMAR",
      "lon": "-8.532698925884675",
      "lat": "41.13691404762294"
    },
    {
      "id": "pt.ine.add.PTCONT.3572798",
      "street": "AV 25 DE ABRIL",
      "house": "92",
      "postcode": "4420-355",
      "city": "GONDOMAR",
      "lon": "-8.532698925884675",
      "lat": "41.13691404762294"
    },
    {
      "id": "pt.ine.add.PTCONT.3572799",
      "street": "AV 25 DE ABRIL",
      "house": "92",
      "postcode": "4420-355",
      "city": "GONDOMAR",
      "lon": "-8.532698925884675",
      "lat": "41.13691404762294"
    },
    {
      "id": "pt.ine.add.PTCONT.3572800",
      "street": "AV CONDUTA B",
      "house": "B 24",
      "postcode": "4420-619",
      "city": "GONDOMAR",
      "lon": "-8.532698925884675",
      "lat": "41.13691404762294"
    },
    {
      "id": "pt.ine.add.PTCONT.3572801",
      "street": "AV 25 DE ABRIL",
      "house": "92",
      "postcode": "4420-355",
      "city": "GONDOMAR",
      "lon": "-8.532698925884675",
      "lat": "41.13691404762294"
    },
    {
      "id": "pt.ine.add.PTCONT.3572804",
      "street": "AV 25 DE ABRIL",
      "house": "92",
      "postcode": "4420-355",
      "city": "GONDOMAR",
      "lon": "-8.532698925884675",
      "lat": "41.13691404762294"
    },
    {
      "id": "pt.ine.add.PTCONT.3572805",
      "street": "AV 25 DE ABRIL",
      "house": "92",
      "postcode": "4420-355",
      "city": "GONDOMAR",
      "lon": "-8.532698925884675",
      "lat": "41.13691404762294"
    },
    {
      "id": "pt.ine.add.PTCONT.3572806",
      "street": "AV 25 DE ABRIL",
      "house": "92",
      "postcode": "4420-355",
      "city": "GONDOMAR",
      "lon": "-8.532698925884675",
      "lat": "41.13691404762294"
    },
    {
      "id": "pt.ine.add.PTCONT.3572807",
      "street": "AV 25 DE ABRIL",
      "house": "92",
      "postcode": "4420-355",
      "city": "GONDOMAR",
      "lon": "-8.532698925884675",
      "lat": "41.13691404762294"
    },
    {
      "id": "pt.ine.add.PTCONT.3577311",
      "street": "AV 25 DE ABRIL",
      "house": "92",
      "postcode": "4420-355",
      "city": "GONDOMAR",
      "lon": "-8.532698925884675",
      "lat": "41.13691404762294"
    },
    {
      "id": "pt.ine.add.PTCONT.3585450",
      "street": "R 25 DE ABRIL",
      "house": "249",
      "postcode": "4420-356",
      "city": "GONDOMAR",
      "lon": "-8.531927917413544",
      "lat": "41.13940193092699"
    },
    {
      "id": "pt.ine.add.PTCONT.3585451",
      "street": "R 25 DE ABRIL",
      "house": "249",
      "postcode": "4420-356",
      "city": "GONDOMAR",
      "lon": "-8.531927917413544",
      "lat": "41.13940193092699"
    },
    {
      "id": "pt.ine.add.PTCONT.3585452",
      "street": "R 25 DE ABRIL",
      "house": "249",
      "postcode": "4420-356",
      "city": "GONDOMAR",
      "lon": "-8.531927917413544",
      "lat": "41.13940193092699"
    },
    {
      "id": "pt.ine.add.PTCONT.3585453",
      "street": "R 25 DE ABRIL",
      "house": "249",
      "postcode": "4420-356",
      "city": "GONDOMAR",
      "lon": "-8.531927917413544",
      "lat": "41.13940193092699"
    },
    {
      "id": "pt.ine.add.PTCONT.3585456",
      "street": "R 25 DE ABRIL",
      "house": "249",
      "postcode": "4420-356",
      "city": "GONDOMAR",
      "lon": "-8.531927917413544",
      "lat": "41.13940193092699"
    },
    {
      "id": "pt.ine.add.PTCONT.3585457",
      "street": "R 25 DE ABRIL",
      "house": "249",
      "postcode": "4420-356",
      "city": "GONDOMAR",
      "lon": "-8.531927917413544",
      "lat": "41.13940193092699"
    },
    {
      "id": "pt.ine.add.PTCONT.3585459",
      "street": "R 25 DE ABRIL",
      "house": "183",
      "postcode": "4420-356",
      "city": "GONDOMAR",
      "lon": "-8.532077679148637",
      "lat": "41.138564004250135"
    },
    {
      "id": "pt.ine.add.PTCONT.3585460",
      "street": "R 25 DE ABRIL",
      "house": "183",
      "postcode": "4420-356",
      "city": "GONDOMAR",
      "lon": "-8.532077679148637",
      "lat": "41.138564004250135"
    },
    {
      "id": "pt.ine.add.PTCONT.3585461",
      "street": "R 25 DE ABRIL",
      "house": "183",
      "postcode": "4420-356",
      "city": "GONDOMAR",
      "lon": "-8.532077679148637",
      "lat": "41.138564004250135"
    },
    {
      "id": "pt.ine.add.PTCONT.3585462",
      "street": "R 25 DE ABRIL",
      "house": "183",
      "postcode": "4420-356",
      "city": "GONDOMAR",
      "lon": "-8.532077679148637",
      "lat": "41.138564004250135"
    },
    {
      "id": "pt.ine.add.PTCONT.3585463",
      "street": "R 25 DE ABRIL",
      "house": "183",
      "postcode": "4420-356",
      "city": "GONDOMAR",
      "lon": "-8.532077679148637",
      "lat": "41.138564004250135"
    },
    {
      "id": "pt.ine.add.PTCONT.3585464",
      "street": "R 25 DE ABRIL",
      "house": "183",
      "postcode": "4420-356",
      "city": "GONDOMAR",
      "lon": "-8.532077679148637",
      "lat": "41.138564004250135"
    },
    {
      "id": "pt.ine.add.PTCONT.3585465",
      "street": "R 25 DE ABRIL",
      "house": "183",
      "postcode": "4420-356",
      "city": "GONDOMAR",
      "lon": "-8.532077679148637",
      "lat": "41.138564004250135"
    },
    {
      "id": "pt.ine.add.PTCONT.3590008",
      "street": "R 25 DE ABRIL",
      "house": "183",
      "postcode": "4420-356",
      "city": "GONDOMAR",
      "lon": "-8.532077679148637",
      "lat": "41.138564004250135"
    },
    {
      "id": "pt.ine.add.PTCONT.3590256",
      "street": "R 25 DE ABRIL",
      "house": "249",
      "postcode": "4420-356",
      "city": "GONDOMAR",
      "lon": "-8.531927917413544",
      "lat": "41.13940193092699"
    },
    {
      "id": "pt.ine.add.PTCONT.3590257",
      "street": "R 25 DE ABRIL",
      "house": "249",
      "postcode": "4420-356",
      "city": "GONDOMAR",
      "lon": "-8.531927917413544",
      "lat": "41.13940193092699"
    },
    {
      "id": "pt.ine.add.PTCONT.3615017",
      "street": "R 25 DE ABRIL",
      "house": "161",
      "postcode": "4420-356",
      "city": "GONDOMAR",
      "lon": "-8.532064623048887",
      "lat": "41.13837495729892"
    },
    {
      "id": "pt.ine.add.PTCONT.3624216",
      "street": "AV 25 DE ABRIL",
      "house": "96",
      "postcode": "4420-355",
      "city": "GONDOMAR",
      "lon": "-8.532568352635385",
      "lat": "41.1369865355978"
    },
    {
      "id": "pt.ine.add.PTCONT.3624217",
      "street": "AV 25 DE ABRIL",
      "house": "96",
      "postcode": "4420-355",
      "city": "GONDOMAR",
      "lon": "-8.532568352635385",
      "lat": "41.1369865355978"
    },
    {
      "id": "pt.ine.add.PTCONT.3624218",
      "street": "AV 25 DE ABRIL",
      "house": "96",
      "postcode": "4420-355",
      "city": "GONDOMAR",
      "lon": "-8.532568352635385",
      "lat": "41.1369865355978"
    },
    {
      "id": "pt.ine.add.PTCONT.3624219",
      "street": "AV 25 DE ABRIL",
      "house": "96",
      "postcode": "4420-355",
      "city": "GONDOMAR",
      "lon": "-8.532568352635385",
      "lat": "41.1369865355978"
    },
    {
      "id": "pt.ine.add.PTCONT.3624220",
      "street": "AV 25 DE ABRIL",
      "house": "96",
      "postcode": "4420-355",
      "city": "GONDOMAR",
      "lon": "-8.532568352635385",
      "lat": "41.1369865355978"
    },
    {
      "id": "pt.ine.add.PTCONT.3624221",
      "street": "AV 25 DE ABRIL",
      "house": "96",
      "postcode": "4420-355",
      "city": "GONDOMAR",
      "lon": "-8.532568352635385",
      "lat": "41.1369865355978"
    },
    {
      "id": "pt.ine.add.PTCONT.3624222",
      "street": "AV 25 DE ABRIL",
      "house": "96",
      "postcode": "4420-355",
      "city": "GONDOMAR",
      "lon": "-8.532568352635385",
      "lat": "41.1369865355978"
    },
    {
      "id": "pt.ine.add.PTCONT.3628894",
      "street": "AV 25 DE ABRIL",
      "house": "96",
      "postcode": "4420-355",
      "city": "GONDOMAR",
      "lon": "-8.532568352635385",
      "lat": "41.1369865355978"
    },
    {
      "id": "pt.ine.add.PTCONT.3629056",
      "street": "AV 25 DE ABRIL",
      "house": "96",
      "postcode": "4420-355",
      "city": "GONDOMAR",
      "lon": "-8.532568352635385",
      "lat": "41.1369865355978"
    },
    {
      "id": "pt.ine.add.PTCONT.3637285",
      "street": "R IGREJA",
      "house": "70",
      "postcode": "4420-164",
      "city": "GONDOMAR",
      "lon": "-8.532754868984515",
      "lat": "41.13631956370479"
    },
    {
      "id": "pt.ine.add.PTCONT.3637286",
      "street": "R IGREJA",
      "house": "70",
      "postcode": "4420-164",
      "city": "GONDOMAR",
      "lon": "-8.532754868984515",
      "lat": "41.13631956370479"
    },
    {
      "id": "pt.ine.add.PTCONT.3637287",
      "street": "R IGREJA",
      "house": "70",
      "postcode": "4420-164",
      "city": "GONDOMAR",
      "lon": "-8.532754868984515",
      "lat": "41.13631956370479"
    },
    {
      "id": "pt.ine.add.PTCONT.3637288",
      "street": "R IGREJA",
      "house": "70",
      "postcode": "4420-164",
      "city": "GONDOMAR",
      "lon": "-8.532754868984515",
      "lat": "41.13631956370479"
    },
    {
      "id": "pt.ine.add.PTCONT.3637289",
      "street": "R IGREJA",
      "house": "70",
      "postcode": "4420-164",
      "city": "GONDOMAR",
      "lon": "-8.532754868984515",
      "lat": "41.13631956370479"
    },
    {
      "id": "pt.ine.add.PTCONT.3637293",
      "street": "R IGREJA",
      "house": "70",
      "postcode": "4420-164",
      "city": "GONDOMAR",
      "lon": "-8.532754868984515",
      "lat": "41.13631956370479"
    },
    {
      "id": "pt.ine.add.PTCONT.3637294",
      "street": "R IGREJA",
      "house": "70",
      "postcode": "4420-164",
      "city": "GONDOMAR",
      "lon": "-8.532754868984515",
      "lat": "41.13631956370479"
    },
    {
      "id": "pt.ine.add.PTCONT.3637295",
      "street": "R IGREJA",
      "house": "70",
      "postcode": "4420-164",
      "city": "GONDOMAR",
      "lon": "-8.532754868984515",
      "lat": "41.13631956370479"
    },
    {
      "id": "pt.ine.add.PTCONT.3637296",
      "street": "R IGREJA",
      "house": "70",
      "postcode": "4420-164",
      "city": "GONDOMAR",
      "lon": "-8.532754868984515",
      "lat": "41.13631956370479"
    },
    {
      "id": "pt.ine.add.PTCONT.3637297",
      "street": "R IGREJA",
      "house": "70",
      "postcode": "4420-164",
      "city": "GONDOMAR",
      "lon": "-8.532754868984515",
      "lat": "41.13631956370479"
    },
    {
      "id": "pt.ine.add.PTCONT.3643604",
      "street": "R IGREJA",
      "house": "2",
      "postcode": "4420-164",
      "city": "GONDOMAR",
      "lon": "-8.532457448735807",
      "lat": "41.13637462147597"
    },
    {
      "id": "pt.ine.add.PTCONT.3648038",
      "street": "R IGREJA",
      "house": "2",
      "postcode": "4420-164",
      "city": "GONDOMAR",
      "lon": "-8.532457448735807",
      "lat": "41.13637462147597"
    },
    {
      "id": "pt.ine.add.PTCONT.3649834",
      "street": "AV 25 DE ABRIL",
      "house": "80",
      "postcode": "4420-355",
      "city": "GONDOMAR",
      "lon": "-8.53322127071673",
      "lat": "41.136633098449195"
    },
    {
      "id": "pt.ine.add.PTCONT.3649835",
      "street": "AV 25 DE ABRIL",
      "house": "80",
      "postcode": "4420-355",
      "city": "GONDOMAR",
      "lon": "-8.53322127071673",
      "lat": "41.136633098449195"
    },
    {
      "id": "pt.ine.add.PTCONT.3649836",
      "street": "AV 25 DE ABRIL",
      "house": "80",
      "postcode": "4420-355",
      "city": "GONDOMAR",
      "lon": "-8.53322127071673",
      "lat": "41.136633098449195"
    },
    {
      "id": "pt.ine.add.PTCONT.3649837",
      "street": "AV 25 DE ABRIL",
      "house": "80",
      "postcode": "4420-355",
      "city": "GONDOMAR",
      "lon": "-8.53322127071673",
      "lat": "41.136633098449195"
    },
    {
      "id": "pt.ine.add.PTCONT.3649838",
      "street": "AV 25 DE ABRIL",
      "house": "80",
      "postcode": "4420-355",
      "city": "GONDOMAR",
      "lon": "-8.53322127071673",
      "lat": "41.136633098449195"
    },
    {
      "id": "pt.ine.add.PTCONT.3649839",
      "street": "AV 25 DE ABRIL",
      "house": "80",
      "postcode": "4420-355",
      "city": "GONDOMAR",
      "lon": "-8.53322127071673",
      "lat": "41.136633098449195"
    },
    {
      "id": "pt.ine.add.PTCONT.3649840",
      "street": "AV 25 DE ABRIL",
      "house": "80",
      "postcode": "4420-355",
      "city": "GONDOMAR",
      "lon": "-8.53322127071673",
      "lat": "41.136633098449195"
    },
    {
      "id": "pt.ine.add.PTCONT.3649841",
      "street": "AV 25 DE ABRIL",
      "house": "80",
      "postcode": "4420-355",
      "city": "GONDOMAR",
      "lon": "-8.53322127071673",
      "lat": "41.136633098449195"
    },
    {
      "id": "pt.ine.add.PTCONT.3649842",
      "street": "AV 25 DE ABRIL",
      "house": "80",
      "postcode": "4420-355",
      "city": "GONDOMAR",
      "lon": "-8.53322127071673",
      "lat": "41.136633098449195"
    },
    {
      "id": "pt.ine.add.PTCONT.3649843",
      "street": "AV 25 DE ABRIL",
      "house": "80",
      "postcode": "4420-355",
      "city": "GONDOMAR",
      "lon": "-8.53322127071673",
      "lat": "41.136633098449195"
    },
    {
      "id": "pt.ine.add.PTCONT.3649844",
      "street": "AV 25 DE ABRIL",
      "house": "80",
      "postcode": "4420-355",
      "city": "GONDOMAR",
      "lon": "-8.53322127071673",
      "lat": "41.136633098449195"
    },
    {
      "id": "pt.ine.add.PTCONT.3649845",
      "street": "AV 25 DE ABRIL",
      "house": "80",
      "postcode": "4420-355",
      "city": "GONDOMAR",
      "lon": "-8.53322127071673",
      "lat": "41.136633098449195"
    },
    {
      "id": "pt.ine.add.PTCONT.3654498",
      "street": "AV 25 DE ABRIL",
      "house": "80",
      "postcode": "4420-355",
      "city": "GONDOMAR",
      "lon": "-8.53322127071673",
      "lat": "41.136633098449195"
    },
    {
      "id": "pt.ine.add.PTCONT.3721385",
      "street": "AV 25 DE ABRIL",
      "house": "106",
      "postcode": "4420-353",
      "city": "GONDOMAR",
      "lon": "-8.53250022409472",
      "lat": "41.137536039654904"
    },
    {
      "id": "pt.ine.add.PTCONT.3721386",
      "street": "AV 25 DE ABRIL",
      "house": "106",
      "postcode": "4420-353",
      "city": "GONDOMAR",
      "lon": "-8.53250022409472",
      "lat": "41.137536039654904"
    },
    {
      "id": "pt.ine.add.PTCONT.3721387",
      "street": "AV 25 DE ABRIL",
      "house": "106",
      "postcode": "4420-353",
      "city": "GONDOMAR",
      "lon": "-8.53250022409472",
      "lat": "41.137536039654904"
    },
    {
      "id": "pt.ine.add.PTCONT.3721388",
      "street": "AV 25 DE ABRIL",
      "house": "106",
      "postcode": "4420-353",
      "city": "GONDOMAR",
      "lon": "-8.53250022409472",
      "lat": "41.137536039654904"
    },
    {
      "id": "pt.ine.add.PTCONT.3721389",
      "street": "AV 25 ABRIL",
      "house": "116",
      "postcode": "4420-353",
      "city": "GONDOMAR",
      "lon": "-8.53250022409472",
      "lat": "41.137536039654904"
    },
    {
      "id": "pt.ine.add.PTCONT.3721390",
      "street": "AV 25 DE ABRIL",
      "house": "106",
      "postcode": "4420-353",
      "city": "GONDOMAR",
      "lon": "-8.53250022409472",
      "lat": "41.137536039654904"
    },
    {
      "id": "pt.ine.add.PTCONT.3721391",
      "street": "AV 25 DE ABRIL",
      "house": "106",
      "postcode": "4420-353",
      "city": "GONDOMAR",
      "lon": "-8.53250022409472",
      "lat": "41.137536039654904"
    },
    {
      "id": "pt.ine.add.PTCONT.3749994",
      "street": "R 25 DE ABRIL",
      "house": "",
      "postcode": "4420-356",
      "city": "GONDOMAR",
      "lon": "-8.532010762895712",
      "lat": "41.13734864336569"
    },
    {
      "id": "pt.ine.add.PTCONT.3749995",
      "street": "R 25 DE ABRIL",
      "house": "",
      "postcode": "4420-356",
      "city": "GONDOMAR",
      "lon": "-8.532010762895712",
      "lat": "41.13734864336569"
    },
    {
      "id": "pt.ine.add.PTCONT.3750107",
      "street": "R 25 DE ABRIL",
      "house": "",
      "postcode": "4420-356",
      "city": "GONDOMAR",
      "lon": "-8.532010762895712",
      "lat": "41.13734864336569"
    },
    {
      "id": "pt.ine.add.PTCONT.3750108",
      "street": "R 25 DE ABRIL",
      "house": "",
      "postcode": "4420-356",
      "city": "GONDOMAR",
      "lon": "-8.532010762895712",
      "lat": "41.13734864336569"
    },
    {
      "id": "pt.ine.add.PTCONT.3750109",
      "street": "R 25 DE ABRIL",
      "house": "",
      "postcode": "4420-356",
      "city": "GONDOMAR",
      "lon": "-8.532010762895712",
      "lat": "41.13734864336569"
    },
    {
      "id": "pt.ine.add.PTCONT.3750110",
      "street": "R 25 DE ABRIL",
      "house": "",
      "postcode": "4420-356",
      "city": "GONDOMAR",
      "lon": "-8.532010762895712",
      "lat": "41.13734864336569"
    },
    {
      "id": "pt.ine.add.PTCONT.3750111",
      "street": "R 25 DE ABRIL",
      "house": "",
      "postcode": "4420-356",
      "city": "GONDOMAR",
      "lon": "-8.532010762895712",
      "lat": "41.13734864336569"
    },
    {
      "id": "pt.ine.add.PTCONT.3775697",
      "street": "R MONTE CRASTO",
      "house": "9",
      "postcode": "4420-210",
      "city": "GONDOMAR",
      "lon": "-8.532409251295888",
      "lat": "41.14021065833672"
    },
    {
      "id": "pt.ine.add.PTCONT.3790005",
      "street": "AV 25 DE ABRIL",
      "house": "332",
      "postcode": "4420-353",
      "city": "GONDOMAR",
      "lon": "-8.533551301567705",
      "lat": "41.139981584407494"
    },
    {
      "id": "pt.ine.add.PTCONT.3790006",
      "street": "AV 25 DE ABRIL",
      "house": "332",
      "postcode": "4420-353",
      "city": "GONDOMAR",
      "lon": "-8.533551301567705",
      "lat": "41.139981584407494"
    },
    {
      "id": "pt.ine.add.PTCONT.3790825",
      "street": "AV 25 DE ABRIL",
      "house": "332",
      "postcode": "4420-353",
      "city": "GONDOMAR",
      "lon": "-8.533551301567705",
      "lat": "41.139981584407494"
    },
    {
      "id": "pt.ine.add.PTCONT.3791826",
      "street": "AV 25 DE ABRIL",
      "house": "332",
      "postcode": "4420-353",
      "city": "GONDOMAR",
      "lon": "-8.533551301567705",
      "lat": "41.139981584407494"
    },
    {
      "id": "pt.ine.add.PTCONT.3876394",
      "street": "R IGREJA",
      "house": "",
      "postcode": "4420-164",
      "city": "GONDOMAR",
      "lon": "-8.532588294041057",
      "lat": "41.13634715463805"
    },
    {
      "id": "pt.ine.add.PTCONT.3876395",
      "street": "R IGREJA",
      "house": "",
      "postcode": "4420-164",
      "city": "GONDOMAR",
      "lon": "-8.532588294041057",
      "lat": "41.13634715463805"
    },
    {
      "id": "pt.ine.add.PTCONT.3869457",
      "street": "AV 25 DE ABRIL",
      "house": "112",
      "postcode": "4420-353",
      "city": "GONDOMAR",
      "lon": "-8.532560703433434",
      "lat": "41.13768890459204"
    },
    {
      "id": "pt.ine.add.PTCONT.3869458",
      "street": "AV 25 DE ABRIL",
      "house": "112",
      "postcode": "4420-353",
      "city": "GONDOMAR",
      "lon": "-8.532560703433434",
      "lat": "41.13768890459204"
    },
    {
      "id": "pt.ine.add.PTCONT.3869459",
      "street": "AV 25 DE ABRIL",
      "house": "112",
      "postcode": "4420-353",
      "city": "GONDOMAR",
      "lon": "-8.532560703433434",
      "lat": "41.13768890459204"
    },
    {
      "id": "pt.ine.add.PTCONT.3869460",
      "street": "AV 25 DE ABRIL",
      "house": "112",
      "postcode": "4420-353",
      "city": "GONDOMAR",
      "lon": "-8.532560703433434",
      "lat": "41.13768890459204"
    },
    {
      "id": "pt.ine.add.PTCONT.3869461",
      "street": "AV 25 DE ABRIL",
      "house": "112",
      "postcode": "4420-353",
      "city": "GONDOMAR",
      "lon": "-8.532560703433434",
      "lat": "41.13768890459204"
    },
    {
      "id": "pt.ine.add.PTCONT.3869462",
      "street": "AV 25 DE ABRIL",
      "house": "112",
      "postcode": "4420-353",
      "city": "GONDOMAR",
      "lon": "-8.532560703433434",
      "lat": "41.13768890459204"
    },
    {
      "id": "pt.ine.add.PTCONT.3869463",
      "street": "AV 25 DE ABRIL",
      "house": "112",
      "postcode": "4420-353",
      "city": "GONDOMAR",
      "lon": "-8.532560703433434",
      "lat": "41.13768890459204"
    },
    {
      "id": "pt.ine.add.PTCONT.3869464",
      "street": "AV 25 DE ABRIL",
      "house": "112",
      "postcode": "4420-353",
      "city": "GONDOMAR",
      "lon": "-8.532560703433434",
      "lat": "41.13768890459204"
    },
    {
      "id": "pt.ine.add.PTCONT.3876389",
      "street": "R IGREJA",
      "house": "",
      "postcode": "4420-164",
      "city": "GONDOMAR",
      "lon": "-8.532588294041057",
      "lat": "41.13634715463805"
    },
    {
      "id": "pt.ine.add.PTCONT.3876390",
      "street": "R IGREJA",
      "house": "",
      "postcode": "4420-164",
      "city": "GONDOMAR",
      "lon": "-8.532588294041057",
      "lat": "41.13634715463805"
    },
    {
      "id": "pt.ine.add.PTCONT.3876391",
      "street": "R IGREJA",
      "house": "",
      "postcode": "4420-164",
      "city": "GONDOMAR",
      "lon": "-8.532588294041057",
      "lat": "41.13634715463805"
    },
    {
      "id": "pt.ine.add.PTCONT.3876392",
      "street": "R IGREJA",
      "house": "",
      "postcode": "4420-164",
      "city": "GONDOMAR",
      "lon": "-8.532588294041057",
      "lat": "41.13634715463805"
    },
    {
      "id": "pt.ine.add.PTCONT.3876393",
      "street": "R IGREJA",
      "house": "",
      "postcode": "4420-164",
      "city": "GONDOMAR",
      "lon": "-8.532588294041057",
      "lat": "41.13634715463805"
    },
    {
      "id": "pt.ine.add.PTCONT.3876549",
      "street": "AV 25 DE ABRIL",
      "house": "86",
      "postcode": "4420-355",
      "city": "GONDOMAR",
      "lon": "-8.532817534174931",
      "lat": "41.13683259662385"
    },
    {
      "id": "pt.ine.add.PTCONT.3876550",
      "street": "AV 25 DE ABRIL",
      "house": "86",
      "postcode": "4420-355",
      "city": "GONDOMAR",
      "lon": "-8.532817534174931",
      "lat": "41.13683259662385"
    },
    {
      "id": "pt.ine.add.PTCONT.3876551",
      "street": "AV 25 DE ABRIL",
      "house": "86",
      "postcode": "4420-355",
      "city": "GONDOMAR",
      "lon": "-8.532817534174931",
      "lat": "41.13683259662385"
    },
    {
      "id": "pt.ine.add.PTCONT.3876717",
      "street": "AV 25 DE ABRIL",
      "house": "86",
      "postcode": "4420-355",
      "city": "GONDOMAR",
      "lon": "-8.532817534174931",
      "lat": "41.13683259662385"
    },
    {
      "id": "pt.ine.add.PTCONT.3876718",
      "street": "AV 25 DE ABRIL",
      "house": "86",
      "postcode": "4420-355",
      "city": "GONDOMAR",
      "lon": "-8.532817534174931",
      "lat": "41.13683259662385"
    },
    {
      "id": "pt.ine.add.PTCONT.3876719",
      "street": "AV 25 DE ABRIL",
      "house": "86",
      "postcode": "4420-355",
      "city": "GONDOMAR",
      "lon": "-8.532817534174931",
      "lat": "41.13683259662385"
    },
    {
      "id": "pt.ine.add.PTCONT.3876720",
      "street": "AV 25 DE ABRIL",
      "house": "86",
      "postcode": "4420-355",
      "city": "GONDOMAR",
      "lon": "-8.532817534174931",
      "lat": "41.13683259662385"
    },
    {
      "id": "pt.ine.add.PTCONT.3876721",
      "street": "AV 25 DE ABRIL",
      "house": "86",
      "postcode": "4420-355",
      "city": "GONDOMAR",
      "lon": "-8.532817534174931",
      "lat": "41.13683259662385"
    },
    {
      "id": "pt.ine.add.PTCONT.3876722",
      "street": "AV 25 DE ABRIL",
      "house": "86",
      "postcode": "4420-355",
      "city": "GONDOMAR",
      "lon": "-8.532817534174931",
      "lat": "41.13683259662385"
    },
    {
      "id": "pt.ine.add.PTCONT.3876723",
      "street": "AV 25 DE ABRIL",
      "house": "86",
      "postcode": "4420-355",
      "city": "GONDOMAR",
      "lon": "-8.532817534174931",
      "lat": "41.13683259662385"
    },
    {
      "id": "pt.ine.add.PTCONT.3876724",
      "street": "AV 25 DE ABRIL",
      "house": "86",
      "postcode": "4420-355",
      "city": "GONDOMAR",
      "lon": "-8.532817534174931",
      "lat": "41.13683259662385"
    },
    {
      "id": "pt.ine.add.PTCONT.3876725",
      "street": "AV 25 DE ABRIL",
      "house": "86",
      "postcode": "4420-355",
      "city": "GONDOMAR",
      "lon": "-8.532817534174931",
      "lat": "41.13683259662385"
    },
    {
      "id": "pt.ine.add.PTCONT.3876726",
      "street": "AV 25 DE ABRIL",
      "house": "86",
      "postcode": "4420-355",
      "city": "GONDOMAR",
      "lon": "-8.532817534174931",
      "lat": "41.13683259662385"
    },
    {
      "id": "pt.ine.add.PTCONT.3880568",
      "street": "R IGREJA",
      "house": "",
      "postcode": "4420-164",
      "city": "GONDOMAR",
      "lon": "-8.532588294041057",
      "lat": "41.13634715463805"
    },
    {
      "id": "pt.ine.add.PTCONT.3880842",
      "street": "AV 25 DE ABRIL",
      "house": "86",
      "postcode": "4420-355",
      "city": "GONDOMAR",
      "lon": "-8.532817534174931",
      "lat": "41.13683259662385"
    },
    {
      "id": "pt.ine.add.PTCONT.3888985",
      "street": "R IGREJA",
      "house": "40",
      "postcode": "4420-164",
      "city": "GONDOMAR",
      "lon": "-8.533075506900174",
      "lat": "41.13616537624182"
    },
    {
      "id": "pt.ine.add.PTCONT.3888986",
      "street": "R IGREJA",
      "house": "48",
      "postcode": "4420-164",
      "city": "GONDOMAR",
      "lon": "-8.533075506900174",
      "lat": "41.13616537624182"
    },
    {
      "id": "pt.ine.add.PTCONT.3895260",
      "street": "R 25 DE ABRIL",
      "house": "",
      "postcode": "4420-356",
      "city": "GONDOMAR",
      "lon": "-8.53203725630036",
      "lat": "41.13778976675101"
    },
    {
      "id": "pt.ine.add.PTCONT.3895443",
      "street": "R 25 DE ABRIL",
      "house": "",
      "postcode": "4420-356",
      "city": "GONDOMAR",
      "lon": "-8.53203725630036",
      "lat": "41.13778976675101"
    },
    {
      "id": "pt.ine.add.PTCONT.3895444",
      "street": "R 25 DE ABRIL",
      "house": "",
      "postcode": "4420-356",
      "city": "GONDOMAR",
      "lon": "-8.53203725630036",
      "lat": "41.13778976675101"
    },
    {
      "id": "pt.ine.add.PTCONT.3895445",
      "street": "R 25 DE ABRIL",
      "house": "",
      "postcode": "4420-356",
      "city": "GONDOMAR",
      "lon": "-8.53203725630036",
      "lat": "41.13778976675101"
    },
    {
      "id": "pt.ine.add.PTCONT.3895446",
      "street": "R 25 DE ABRIL",
      "house": "",
      "postcode": "4420-356",
      "city": "GONDOMAR",
      "lon": "-8.53203725630036",
      "lat": "41.13778976675101"
    },
    {
      "id": "pt.ine.add.PTCONT.3895447",
      "street": "R 25 DE ABRIL",
      "house": "",
      "postcode": "4420-356",
      "city": "GONDOMAR",
      "lon": "-8.53203725630036",
      "lat": "41.13778976675101"
    },
    {
      "id": "pt.ine.add.PTCONT.3900615",
      "street": "R 25 DE ABRIL",
      "house": "",
      "postcode": "4420-356",
      "city": "GONDOMAR",
      "lon": "-8.53203725630036",
      "lat": "41.13778976675101"
    },
    {
      "id": "pt.ine.add.PTCONT.3900616",
      "street": "R 25 DE ABRIL",
      "house": "",
      "postcode": "4420-356",
      "city": "GONDOMAR",
      "lon": "-8.53203725630036",
      "lat": "41.13778976675101"
    },
    {
      "id": "pt.ine.add.PTCONT.3902647",
      "street": "AV 25 DE ABRIL",
      "house": "118",
      "postcode": "4420-353",
      "city": "GONDOMAR",
      "lon": "-8.532574088581054",
      "lat": "41.137931976705644"
    },
    {
      "id": "pt.ine.add.PTCONT.3902648",
      "street": "AV 25 DE ABRIL",
      "house": "118",
      "postcode": "4420-353",
      "city": "GONDOMAR",
      "lon": "-8.532574088581054",
      "lat": "41.137931976705644"
    },
    {
      "id": "pt.ine.add.PTCONT.3902649",
      "street": "AV 25 DE ABRIL",
      "house": "118",
      "postcode": "4420-353",
      "city": "GONDOMAR",
      "lon": "-8.532574088581054",
      "lat": "41.137931976705644"
    },
    {
      "id": "pt.ine.add.PTCONT.3902650",
      "street": "AV 25 DE ABRIL",
      "house": "118",
      "postcode": "4420-353",
      "city": "GONDOMAR",
      "lon": "-8.532574088581054",
      "lat": "41.137931976705644"
    },
    {
      "id": "pt.ine.add.PTCONT.3923524",
      "street": "AV 25 DE ABRIL",
      "house": "316",
      "postcode": "4420-353",
      "city": "GONDOMAR",
      "lon": "-8.533407279694334",
      "lat": "41.13980199722761"
    },
    {
      "id": "pt.ine.add.PTCONT.3947472",
      "street": "R MONTE CRASTO",
      "house": "51 BL D",
      "postcode": "4420-210",
      "city": "GONDOMAR",
      "lon": "-8.53283819762716",
      "lat": "41.14023618386819"
    },
    {
      "id": "pt.ine.add.PTCONT.3947473",
      "street": "R MONTE CRASTO",
      "house": "51 BL D",
      "postcode": "4420-210",
      "city": "GONDOMAR",
      "lon": "-8.53283819762716",
      "lat": "41.14023618386819"
    },
    {
      "id": "pt.ine.add.PTCONT.3947474",
      "street": "R MONTE CRASTO",
      "house": "51",
      "postcode": "4420-210",
      "city": "GONDOMAR",
      "lon": "-8.53283819762716",
      "lat": "41.14023618386819"
    },
    {
      "id": "pt.ine.add.PTCONT.3947475",
      "street": "R MONTE CRASTO",
      "house": "51",
      "postcode": "4420-210",
      "city": "GONDOMAR",
      "lon": "-8.53283819762716",
      "lat": "41.14023618386819"
    },
    {
      "id": "pt.ine.add.PTCONT.3947476",
      "street": "R MONTE CRASTO",
      "house": "51",
      "postcode": "4420-210",
      "city": "GONDOMAR",
      "lon": "-8.53283819762716",
      "lat": "41.14023618386819"
    },
    {
      "id": "pt.ine.add.PTCONT.3947477",
      "street": "R MONTE CRASTO",
      "house": "51",
      "postcode": "4420-210",
      "city": "GONDOMAR",
      "lon": "-8.53283819762716",
      "lat": "41.14023618386819"
    },
    {
      "id": "pt.ine.add.PTCONT.3947478",
      "street": "R MONTE CRASTO",
      "house": "51 BL D",
      "postcode": "4420-210",
      "city": "GONDOMAR",
      "lon": "-8.53283819762716",
      "lat": "41.14023618386819"
    },
    {
      "id": "pt.ine.add.PTCONT.3947481",
      "street": "R MONTE CRASTO",
      "house": "51 BL D",
      "postcode": "4420-210",
      "city": "GONDOMAR",
      "lon": "-8.53283819762716",
      "lat": "41.14023618386819"
    },
    {
      "id": "pt.ine.add.PTCONT.3947482",
      "street": "R MONTE CRASTO",
      "house": "51 BL D",
      "postcode": "4420-210",
      "city": "GONDOMAR",
      "lon": "-8.53283819762716",
      "lat": "41.14023618386819"
    },
    {
      "id": "pt.ine.add.PTCONT.3947483",
      "street": "R MONTE CRASTO",
      "house": "51",
      "postcode": "4420-210",
      "city": "GONDOMAR",
      "lon": "-8.53283819762716",
      "lat": "41.14023618386819"
    },
    {
      "id": "pt.ine.add.PTCONT.3957093",
      "street": "AV 25 DE ABRIL",
      "house": "304",
      "postcode": "4420-353",
      "city": "GONDOMAR",
      "lon": "-8.533334612212505",
      "lat": "41.13960415320581"
    },
    {
      "id": "pt.ine.add.PTCONT.3960432",
      "street": "R MONTE CRASTO",
      "house": "85",
      "postcode": "4420-210",
      "city": "GONDOMAR",
      "lon": "-8.533444763399332",
      "lat": "41.1400900073359"
    },
    {
      "id": "pt.ine.add.PTCONT.3960624",
      "street": "R 25 DE ABRIL",
      "house": "103",
      "postcode": "4420-356",
      "city": "GONDOMAR",
      "lon": "-8.532024091380897",
      "lat": "41.1375827113657"
    },
    {
      "id": "pt.ine.add.PTCONT.3960625",
      "street": "R 25 DE ABRIL",
      "house": "103",
      "postcode": "4420-356",
      "city": "GONDOMAR",
      "lon": "-8.532024091380897",
      "lat": "41.1375827113657"
    },
    {
      "id": "pt.ine.add.PTCONT.3960626",
      "street": "R 25 DE ABRIL",
      "house": "103",
      "postcode": "4420-356",
      "city": "GONDOMAR",
      "lon": "-8.532024091380897",
      "lat": "41.1375827113657"
    },
    {
      "id": "pt.ine.add.PTCONT.3960627",
      "street": "R 25 DE ABRIL",
      "house": "103",
      "postcode": "4420-356",
      "city": "GONDOMAR",
      "lon": "-8.532024091380897",
      "lat": "41.1375827113657"
    },
    {
      "id": "pt.ine.add.PTCONT.3960806",
      "street": "R 25 DE ABRIL",
      "house": "103",
      "postcode": "4420-356",
      "city": "GONDOMAR",
      "lon": "-8.532024091380897",
      "lat": "41.1375827113657"
    },
    {
      "id": "pt.ine.add.PTCONT.3964514",
      "street": "R MONTE CRASTO",
      "house": "85",
      "postcode": "4420-210",
      "city": "GONDOMAR",
      "lon": "-8.533444763399332",
      "lat": "41.1400900073359"
    },
    {
      "id": "pt.ine.add.PTCONT.3964551",
      "street": "R 25 DE ABRIL",
      "house": "103",
      "postcode": "4420-356",
      "city": "GONDOMAR",
      "lon": "-8.532024091380897",
      "lat": "41.1375827113657"
    },
    {
      "id": "pt.ine.add.PTCONT.3964703",
      "street": "R 25 DE ABRIL",
      "house": "103",
      "postcode": "4420-356",
      "city": "GONDOMAR",
      "lon": "-8.532024091380897",
      "lat": "41.1375827113657"
    },
    {
      "id": "pt.ine.add.PTCONT.3964789",
      "street": "R 25 DE ABRIL",
      "house": "103",
      "postcode": "4420-356",
      "city": "GONDOMAR",
      "lon": "-8.532024091380897",
      "lat": "41.1375827113657"
    },
    {
      "id": "pt.ine.add.PTCONT.3966521",
      "street": "AV 25 DE ABRIL",
      "house": "136",
      "postcode": "4420-353",
      "city": "GONDOMAR",
      "lon": "-8.532682045471004",
      "lat": "41.13805766375514"
    },
    {
      "id": "pt.ine.add.PTCONT.3966522",
      "street": "AV 25 DE ABRIL",
      "house": "",
      "postcode": "4420-353",
      "city": "GONDOMAR",
      "lon": "-8.532791806546774",
      "lat": "41.138480489279615"
    },
    {
      "id": "pt.ine.add.PTCONT.3972576",
      "street": "AV 25 DE ABRIL",
      "house": "",
      "postcode": "4420-353",
      "city": "GONDOMAR",
      "lon": "-8.532791806546774",
      "lat": "41.138480489279615"
    },
    {
      "id": "pt.ine.add.PTCONT.4050638",
      "street": "R 25 DE ABRIL",
      "house": "43",
      "postcode": "4420-356",
      "city": "GONDOMAR",
      "lon": "-8.532270492529832",
      "lat": "41.136969559278945"
    },
    {
      "id": "pt.ine.add.PTCONT.4050639",
      "street": "R 25 DE ABRIL",
      "house": "43",
      "postcode": "4420-356",
      "city": "GONDOMAR",
      "lon": "-8.532270492529832",
      "lat": "41.136969559278945"
    },
    {
      "id": "pt.ine.add.PTCONT.4050640",
      "street": "R 25 DE ABRIL",
      "house": "43",
      "postcode": "4420-356",
      "city": "GONDOMAR",
      "lon": "-8.532270492529832",
      "lat": "41.136969559278945"
    },
    {
      "id": "pt.ine.add.PTCONT.4050641",
      "street": "R 25 DE ABRIL",
      "house": "43",
      "postcode": "4420-356",
      "city": "GONDOMAR",
      "lon": "-8.532270492529832",
      "lat": "41.136969559278945"
    },
    {
      "id": "pt.ine.add.PTCONT.4050642",
      "street": "R 25 DE ABRIL",
      "house": "43",
      "postcode": "4420-356",
      "city": "GONDOMAR",
      "lon": "-8.532270492529832",
      "lat": "41.136969559278945"
    },
    {
      "id": "pt.ine.add.PTCONT.4050643",
      "street": "R 25 DE ABRIL",
      "house": "43",
      "postcode": "4420-356",
      "city": "GONDOMAR",
      "lon": "-8.532270492529832",
      "lat": "41.136969559278945"
    },
    {
      "id": "pt.ine.add.PTCONT.4050644",
      "street": "R 25 DE ABRIL",
      "house": "43",
      "postcode": "4420-356",
      "city": "GONDOMAR",
      "lon": "-8.532270492529832",
      "lat": "41.136969559278945"
    },
    {
      "id": "pt.ine.add.PTCONT.4050645",
      "street": "R 25 DE ABRIL",
      "house": "43",
      "postcode": "4420-356",
      "city": "GONDOMAR",
      "lon": "-8.532270492529832",
      "lat": "41.136969559278945"
    },
    {
      "id": "pt.ine.add.PTCONT.4050854",
      "street": "R 25 DE ABRIL",
      "house": "43",
      "postcode": "4420-356",
      "city": "GONDOMAR",
      "lon": "-8.532270492529832",
      "lat": "41.136969559278945"
    },
    {
      "id": "pt.ine.add.PTCONT.4050855",
      "street": "R 25 DE ABRIL",
      "house": "43",
      "postcode": "4420-356",
      "city": "GONDOMAR",
      "lon": "-8.532270492529832",
      "lat": "41.136969559278945"
    },
    {
      "id": "pt.ine.add.PTCONT.4050856",
      "street": "R 25 DE ABRIL",
      "house": "43",
      "postcode": "4420-356",
      "city": "GONDOMAR",
      "lon": "-8.532270492529832",
      "lat": "41.136969559278945"
    },
    {
      "id": "pt.ine.add.PTCONT.4050857",
      "street": "R 25 DE ABRIL",
      "house": "43",
      "postcode": "4420-356",
      "city": "GONDOMAR",
      "lon": "-8.532270492529832",
      "lat": "41.136969559278945"
    },
    {
      "id": "pt.ine.add.PTCONT.4050858",
      "street": "R 25 DE ABRIL",
      "house": "43",
      "postcode": "4420-356",
      "city": "GONDOMAR",
      "lon": "-8.532270492529832",
      "lat": "41.136969559278945"
    },
    {
      "id": "pt.ine.add.PTCONT.4051050",
      "street": "R 25 DE ABRIL",
      "house": "43",
      "postcode": "4420-356",
      "city": "GONDOMAR",
      "lon": "-8.532270492529832",
      "lat": "41.136969559278945"
    },
    {
      "id": "pt.ine.add.PTCONT.4051051",
      "street": "R 25 DE ABRIL",
      "house": "43",
      "postcode": "4420-356",
      "city": "GONDOMAR",
      "lon": "-8.532270492529832",
      "lat": "41.136969559278945"
    },
    {
      "id": "pt.ine.add.PTCONT.4051052",
      "street": "R 25 DE ABRIL",
      "house": "43",
      "postcode": "4420-356",
      "city": "GONDOMAR",
      "lon": "-8.532270492529832",
      "lat": "41.136969559278945"
    },
    {
      "id": "pt.ine.add.PTCONT.4051053",
      "street": "R 25 DE ABRIL",
      "house": "43",
      "postcode": "4420-356",
      "city": "GONDOMAR",
      "lon": "-8.532270492529832",
      "lat": "41.136969559278945"
    },
    {
      "id": "pt.ine.add.PTCONT.4053012",
      "street": "R 25 DE ABRIL",
      "house": "",
      "postcode": "4420-356",
      "city": "GONDOMAR",
      "lon": "-8.531964903464598",
      "lat": "41.139608903782886"
    },
    {
      "id": "pt.ine.add.PTCONT.4053013",
      "street": "R 25 DE ABRIL",
      "house": "",
      "postcode": "4420-356",
      "city": "GONDOMAR",
      "lon": "-8.531964903464598",
      "lat": "41.139608903782886"
    },
    {
      "id": "pt.ine.add.PTCONT.4053014",
      "street": "R 25 DE ABRIL",
      "house": "",
      "postcode": "4420-356",
      "city": "GONDOMAR",
      "lon": "-8.531964903464598",
      "lat": "41.139608903782886"
    },
    {
      "id": "pt.ine.add.PTCONT.4053015",
      "street": "R 25 DE ABRIL",
      "house": "",
      "postcode": "4420-356",
      "city": "GONDOMAR",
      "lon": "-8.531964903464598",
      "lat": "41.139608903782886"
    },
    {
      "id": "pt.ine.add.PTCONT.4053016",
      "street": "R 25 DE ABRIL",
      "house": "",
      "postcode": "4420-356",
      "city": "GONDOMAR",
      "lon": "-8.531964903464598",
      "lat": "41.139608903782886"
    },
    {
      "id": "pt.ine.add.PTCONT.4053017",
      "street": "R 25 DE ABRIL",
      "house": "",
      "postcode": "4420-356",
      "city": "GONDOMAR",
      "lon": "-8.531964903464598",
      "lat": "41.139608903782886"
    },
    {
      "id": "pt.ine.add.PTCONT.4053018",
      "street": "R 25 DE ABRIL",
      "house": "",
      "postcode": "4420-356",
      "city": "GONDOMAR",
      "lon": "-8.531964903464598",
      "lat": "41.139608903782886"
    },
    {
      "id": "pt.ine.add.PTCONT.4053212",
      "street": "R 25 DE ABRIL",
      "house": "",
      "postcode": "4420-356",
      "city": "GONDOMAR",
      "lon": "-8.531964903464598",
      "lat": "41.139608903782886"
    },
    {
      "id": "pt.ine.add.PTCONT.4053213",
      "street": "R 25 DE ABRIL",
      "house": "",
      "postcode": "4420-356",
      "city": "GONDOMAR",
      "lon": "-8.531964903464598",
      "lat": "41.139608903782886"
    },
    {
      "id": "pt.ine.add.PTCONT.4053214",
      "street": "R 25 DE ABRIL",
      "house": "",
      "postcode": "4420-356",
      "city": "GONDOMAR",
      "lon": "-8.531964903464598",
      "lat": "41.139608903782886"
    },
    {
      "id": "pt.ine.add.PTCONT.4053215",
      "street": "AV 25 DE ABRIL",
      "house": "100",
      "postcode": "4420-355",
      "city": "GONDOMAR",
      "lon": "-8.532427725713893",
      "lat": "41.137365207563285"
    },
    {
      "id": "pt.ine.add.PTCONT.4053216",
      "street": "AV 25 DE ABRIL",
      "house": "100",
      "postcode": "4420-355",
      "city": "GONDOMAR",
      "lon": "-8.532427725713893",
      "lat": "41.137365207563285"
    },
    {
      "id": "pt.ine.add.PTCONT.4053217",
      "street": "AV 25 DE ABRIL",
      "house": "100",
      "postcode": "4420-355",
      "city": "GONDOMAR",
      "lon": "-8.532427725713893",
      "lat": "41.137365207563285"
    },
    {
      "id": "pt.ine.add.PTCONT.4053218",
      "street": "AV 25 DE ABRIL",
      "house": "100",
      "postcode": "4420-355",
      "city": "GONDOMAR",
      "lon": "-8.532427725713893",
      "lat": "41.137365207563285"
    },
    {
      "id": "pt.ine.add.PTCONT.4053219",
      "street": "AV 25 DE ABRIL",
      "house": "100",
      "postcode": "4420-355",
      "city": "GONDOMAR",
      "lon": "-8.532427725713893",
      "lat": "41.137365207563285"
    },
    {
      "id": "pt.ine.add.PTCONT.4053220",
      "street": "AV 25 DE ABRIL",
      "house": "100",
      "postcode": "4420-355",
      "city": "GONDOMAR",
      "lon": "-8.532427725713893",
      "lat": "41.137365207563285"
    },
    {
      "id": "pt.ine.add.PTCONT.4053221",
      "street": "AV 25 DE ABRIL",
      "house": "100",
      "postcode": "4420-355",
      "city": "GONDOMAR",
      "lon": "-8.532427725713893",
      "lat": "41.137365207563285"
    },
    {
      "id": "pt.ine.add.PTCONT.4053222",
      "street": "AV 25 DE ABRIL",
      "house": "100",
      "postcode": "4420-355",
      "city": "GONDOMAR",
      "lon": "-8.532427725713893",
      "lat": "41.137365207563285"
    },
    {
      "id": "pt.ine.add.PTCONT.4053223",
      "street": "AV 25 DE ABRIL",
      "house": "100",
      "postcode": "4420-355",
      "city": "GONDOMAR",
      "lon": "-8.532427725713893",
      "lat": "41.137365207563285"
    },
    {
      "id": "pt.ine.add.PTCONT.4053224",
      "street": "AV 25 DE ABRIL",
      "house": "100",
      "postcode": "4420-355",
      "city": "GONDOMAR",
      "lon": "-8.532427725713893",
      "lat": "41.137365207563285"
    },
    {
      "id": "pt.ine.add.PTCONT.4053225",
      "street": "AV 25 DE ABRIL",
      "house": "100",
      "postcode": "4420-355",
      "city": "GONDOMAR",
      "lon": "-8.532427725713893",
      "lat": "41.137365207563285"
    },
    {
      "id": "pt.ine.add.PTCONT.4053226",
      "street": "AV 25 DE ABRIL",
      "house": "100",
      "postcode": "4420-355",
      "city": "GONDOMAR",
      "lon": "-8.532427725713893",
      "lat": "41.137365207563285"
    },
    {
      "id": "pt.ine.add.PTCONT.4055181",
      "street": "AV 25 DE ABRIL",
      "house": "100",
      "postcode": "4420-355",
      "city": "GONDOMAR",
      "lon": "-8.532427725713893",
      "lat": "41.137365207563285"
    },
    {
      "id": "pt.ine.add.PTCONT.4055354",
      "street": "AV 25 DE ABRIL",
      "house": "100",
      "postcode": "4420-355",
      "city": "GONDOMAR",
      "lon": "-8.532427725713893",
      "lat": "41.137365207563285"
    },
    {
      "id": "pt.ine.add.PTCONT.4055448",
      "street": "R 25 DE ABRIL",
      "house": "43",
      "postcode": "4420-356",
      "city": "GONDOMAR",
      "lon": "-8.532270492529832",
      "lat": "41.136969559278945"
    },
    {
      "id": "pt.ine.add.PTCONT.4055780",
      "street": "R 25 DE ABRIL",
      "house": "43",
      "postcode": "4420-356",
      "city": "GONDOMAR",
      "lon": "-8.532270492529832",
      "lat": "41.136969559278945"
    },
    {
      "id": "pt.ine.add.PTCONT.4055781",
      "street": "R 25 DE ABRIL",
      "house": "43",
      "postcode": "4420-356",
      "city": "GONDOMAR",
      "lon": "-8.532270492529832",
      "lat": "41.136969559278945"
    },
    {
      "id": "pt.ine.add.PTCONT.4055782",
      "street": "R 25 DE ABRIL",
      "house": "43",
      "postcode": "4420-356",
      "city": "GONDOMAR",
      "lon": "-8.532270492529832",
      "lat": "41.136969559278945"
    },
    {
      "id": "pt.ine.add.PTCONT.4055783",
      "street": "R 25 DE ABRIL",
      "house": "43",
      "postcode": "4420-356",
      "city": "GONDOMAR",
      "lon": "-8.532270492529832",
      "lat": "41.136969559278945"
    },
    {
      "id": "pt.ine.add.PTCONT.4055784",
      "street": "R 25 DE ABRIL",
      "house": "43",
      "postcode": "4420-356",
      "city": "GONDOMAR",
      "lon": "-8.532270492529832",
      "lat": "41.136969559278945"
    },
    {
      "id": "pt.ine.add.PTCONT.4055785",
      "street": "R 25 DE ABRIL",
      "house": "43",
      "postcode": "4420-356",
      "city": "GONDOMAR",
      "lon": "-8.532270492529832",
      "lat": "41.136969559278945"
    },
    {
      "id": "pt.ine.add.PTCONT.4055786",
      "street": "R 25 DE ABRIL",
      "house": "43",
      "postcode": "4420-356",
      "city": "GONDOMAR",
      "lon": "-8.532270492529832",
      "lat": "41.136969559278945"
    },
    {
      "id": "pt.ine.add.PTCONT.4055787",
      "street": "R 25 DE ABRIL",
      "house": "43",
      "postcode": "4420-356",
      "city": "GONDOMAR",
      "lon": "-8.532270492529832",
      "lat": "41.136969559278945"
    },
    {
      "id": "pt.ine.add.PTCONT.4055788",
      "street": "R 25 DE ABRIL",
      "house": "43",
      "postcode": "4420-356",
      "city": "GONDOMAR",
      "lon": "-8.532270492529832",
      "lat": "41.136969559278945"
    },
    {
      "id": "pt.ine.add.PTCONT.4055789",
      "street": "R 25 DE ABRIL",
      "house": "43",
      "postcode": "4420-356",
      "city": "GONDOMAR",
      "lon": "-8.532270492529832",
      "lat": "41.136969559278945"
    },
    {
      "id": "pt.ine.add.PTCONT.4055790",
      "street": "R 25 DE ABRIL",
      "house": "43",
      "postcode": "4420-356",
      "city": "GONDOMAR",
      "lon": "-8.532270492529832",
      "lat": "41.136969559278945"
    },
    {
      "id": "pt.ine.add.PTCONT.4055791",
      "street": "R 25 DE ABRIL",
      "house": "43",
      "postcode": "4420-356",
      "city": "GONDOMAR",
      "lon": "-8.532270492529832",
      "lat": "41.136969559278945"
    },
    {
      "id": "pt.ine.add.PTCONT.4055792",
      "street": "R 25 DE ABRIL",
      "house": "43",
      "postcode": "4420-356",
      "city": "GONDOMAR",
      "lon": "-8.532270492529832",
      "lat": "41.136969559278945"
    },
    {
      "id": "pt.ine.add.PTCONT.4055793",
      "street": "R 25 DE ABRIL",
      "house": "43",
      "postcode": "4420-356",
      "city": "GONDOMAR",
      "lon": "-8.532270492529832",
      "lat": "41.136969559278945"
    },
    {
      "id": "pt.ine.add.PTCONT.4055794",
      "street": "R 25 DE ABRIL",
      "house": "43",
      "postcode": "4420-356",
      "city": "GONDOMAR",
      "lon": "-8.532270492529832",
      "lat": "41.136969559278945"
    },
    {
      "id": "pt.ine.add.PTCONT.4055797",
      "street": "R 25 DE ABRIL",
      "house": "",
      "postcode": "4420-356",
      "city": "GONDOMAR",
      "lon": "-8.531964903464598",
      "lat": "41.139608903782886"
    },
    {
      "id": "pt.ine.add.PTCONT.4055798",
      "street": "R 25 DE ABRIL",
      "house": "",
      "postcode": "4420-356",
      "city": "GONDOMAR",
      "lon": "-8.531964903464598",
      "lat": "41.139608903782886"
    },
    {
      "id": "pt.ine.add.PTCONT.4055799",
      "street": "R 25 DE ABRIL",
      "house": "",
      "postcode": "4420-356",
      "city": "GONDOMAR",
      "lon": "-8.531964903464598",
      "lat": "41.139608903782886"
    },
    {
      "id": "pt.ine.add.PTCONT.4055800",
      "street": "R 25 DE ABRIL",
      "house": "",
      "postcode": "4420-356",
      "city": "GONDOMAR",
      "lon": "-8.531964903464598",
      "lat": "41.139608903782886"
    },
    {
      "id": "pt.ine.add.PTCONT.4055803",
      "street": "R 25 DE ABRIL",
      "house": "43",
      "postcode": "4420-356",
      "city": "GONDOMAR",
      "lon": "-8.532270492529832",
      "lat": "41.136969559278945"
    },
    {
      "id": "pt.ine.add.PTCONT.4055804",
      "street": "R 25 DE ABRIL",
      "house": "43",
      "postcode": "4420-356",
      "city": "GONDOMAR",
      "lon": "-8.532270492529832",
      "lat": "41.136969559278945"
    },
    {
      "id": "pt.ine.add.PTCONT.4115014",
      "street": "LG SANTO ANTÓNIO",
      "house": "54",
      "postcode": "4420-307",
      "city": "GONDOMAR",
      "lon": "-8.532137845118921",
      "lat": "41.13669988707802"
    },
    {
      "id": "pt.ine.add.PTCONT.4115015",
      "street": "LG SANTO ANTÓNIO",
      "house": "54",
      "postcode": "4420-307",
      "city": "GONDOMAR",
      "lon": "-8.532137845118921",
      "lat": "41.13669988707802"
    },
    {
      "id": "pt.ine.add.PTCONT.4115016",
      "street": "LG SANTO ANTÓNIO",
      "house": "54",
      "postcode": "4420-307",
      "city": "GONDOMAR",
      "lon": "-8.532137845118921",
      "lat": "41.13669988707802"
    },
    {
      "id": "pt.ine.add.PTCONT.4115017",
      "street": "LG SANTO ANTÓNIO",
      "house": "54",
      "postcode": "4420-307",
      "city": "GONDOMAR",
      "lon": "-8.532137845118921",
      "lat": "41.13669988707802"
    },
    {
      "id": "pt.ine.add.PTCONT.4115018",
      "street": "LG SANTO ANTÓNIO",
      "house": "54",
      "postcode": "4420-307",
      "city": "GONDOMAR",
      "lon": "-8.532137845118921",
      "lat": "41.13669988707802"
    },
    {
      "id": "pt.ine.add.PTCONT.4123019",
      "street": "R IGREJA",
      "house": "62",
      "postcode": "4420-164",
      "city": "GONDOMAR",
      "lon": "-8.53294520893132",
      "lat": "41.136282885656755"
    },
    {
      "id": "pt.ine.add.PTCONT.4123020",
      "street": "R IGREJA",
      "house": "62",
      "postcode": "4420-164",
      "city": "GONDOMAR",
      "lon": "-8.53294520893132",
      "lat": "41.136282885656755"
    },
    {
      "id": "pt.ine.add.PTCONT.4123021",
      "street": "R IGREJA",
      "house": "62",
      "postcode": "4420-164",
      "city": "GONDOMAR",
      "lon": "-8.53294520893132",
      "lat": "41.136282885656755"
    },
    {
      "id": "pt.ine.add.PTCONT.4123022",
      "street": "R IGREJA",
      "house": "62",
      "postcode": "4420-164",
      "city": "GONDOMAR",
      "lon": "-8.53294520893132",
      "lat": "41.136282885656755"
    },
    {
      "id": "pt.ine.add.PTCONT.4123023",
      "street": "R IGREJA",
      "house": "62",
      "postcode": "4420-164",
      "city": "GONDOMAR",
      "lon": "-8.53294520893132",
      "lat": "41.136282885656755"
    },
    {
      "id": "pt.ine.add.PTCONT.4123024",
      "street": "R IGREJA",
      "house": "62",
      "postcode": "4420-164",
      "city": "GONDOMAR",
      "lon": "-8.53294520893132",
      "lat": "41.136282885656755"
    },
    {
      "id": "pt.ine.add.PTCONT.4123025",
      "street": "R IGREJA",
      "house": "62",
      "postcode": "4420-164",
      "city": "GONDOMAR",
      "lon": "-8.53294520893132",
      "lat": "41.136282885656755"
    },
    {
      "id": "pt.ine.add.PTCONT.4123026",
      "street": "R IGREJA",
      "house": "62",
      "postcode": "4420-164",
      "city": "GONDOMAR",
      "lon": "-8.53294520893132",
      "lat": "41.136282885656755"
    },
    {
      "id": "pt.ine.add.PTCONT.4123027",
      "street": "R IGREJA",
      "house": "62",
      "postcode": "4420-164",
      "city": "GONDOMAR",
      "lon": "-8.53294520893132",
      "lat": "41.136282885656755"
    },
    {
      "id": "pt.ine.add.PTCONT.4127421",
      "street": "R IGREJA",
      "house": "62",
      "postcode": "4420-164",
      "city": "GONDOMAR",
      "lon": "-8.53294520893132",
      "lat": "41.136282885656755"
    },
    {
      "id": "pt.ine.add.PTCONT.4127615",
      "street": "R IGREJA",
      "house": "62",
      "postcode": "4420-164",
      "city": "GONDOMAR",
      "lon": "-8.53294520893132",
      "lat": "41.136282885656755"
    },
    {
      "id": "pt.ine.add.PTCONT.4127747",
      "street": "R IGREJA",
      "house": "62",
      "postcode": "4420-164",
      "city": "GONDOMAR",
      "lon": "-8.53294520893132",
      "lat": "41.136282885656755"
    },
    {
      "id": "pt.ine.add.PTCONT.4127748",
      "street": "R IGREJA",
      "house": "62",
      "postcode": "4420-164",
      "city": "GONDOMAR",
      "lon": "-8.53294520893132",
      "lat": "41.136282885656755"
    },
    {
      "id": "pt.ine.add.PTCONT.4134502",
      "street": "AV 25 DE ABRIL",
      "house": "278",
      "postcode": "4420-353",
      "city": "GONDOMAR",
      "lon": "-8.533117815943438",
      "lat": "41.1392087131651"
    },
    {
      "id": "pt.ine.add.PTCONT.4135305",
      "street": "AV 25 DE ABRIL",
      "house": "278",
      "postcode": "4420-353",
      "city": "GONDOMAR",
      "lon": "-8.533117815943438",
      "lat": "41.1392087131651"
    },
    {
      "id": "pt.ine.add.PTCONT.4155939",
      "street": "PCT S CRISPIM",
      "house": "13",
      "postcode": "4420-594",
      "city": "GONDOMAR",
      "lon": "-8.532959579400998",
      "lat": "41.136688033414735"
    },
    {
      "id": "pt.ine.add.PTCONT.4155940",
      "street": "PCT S CRISPIM",
      "house": "13",
      "postcode": "4420-594",
      "city": "GONDOMAR",
      "lon": "-8.532959579400998",
      "lat": "41.136688033414735"
    },
    {
      "id": "pt.ine.add.PTCONT.4155941",
      "street": "PCT S CRISPIM",
      "house": "13",
      "postcode": "4420-594",
      "city": "GONDOMAR",
      "lon": "-8.532959579400998",
      "lat": "41.136688033414735"
    },
    {
      "id": "pt.ine.add.PTCONT.4155942",
      "street": "PCT S CRISPIM",
      "house": "13",
      "postcode": "4420-594",
      "city": "GONDOMAR",
      "lon": "-8.532959579400998",
      "lat": "41.136688033414735"
    },
    {
      "id": "pt.ine.add.PTCONT.4155943",
      "street": "PCT S CRISPIM",
      "house": "13",
      "postcode": "4420-594",
      "city": "GONDOMAR",
      "lon": "-8.532959579400998",
      "lat": "41.136688033414735"
    },
    {
      "id": "pt.ine.add.PTCONT.4155944",
      "street": "PCT S CRISPIM",
      "house": "13",
      "postcode": "4420-594",
      "city": "GONDOMAR",
      "lon": "-8.532959579400998",
      "lat": "41.136688033414735"
    },
    {
      "id": "pt.ine.add.PTCONT.4155945",
      "street": "PCT S CRISPIM",
      "house": "13",
      "postcode": "4420-594",
      "city": "GONDOMAR",
      "lon": "-8.532959579400998",
      "lat": "41.136688033414735"
    },
    {
      "id": "pt.ine.add.PTCONT.4155946",
      "street": "PCT S CRISPIM",
      "house": "13",
      "postcode": "4420-594",
      "city": "GONDOMAR",
      "lon": "-8.532959579400998",
      "lat": "41.136688033414735"
    },
    {
      "id": "pt.ine.add.PTCONT.4155947",
      "street": "PCT S CRISPIM",
      "house": "13",
      "postcode": "4420-594",
      "city": "GONDOMAR",
      "lon": "-8.532959579400998",
      "lat": "41.136688033414735"
    },
    {
      "id": "pt.ine.add.PTCONT.4155948",
      "street": "PCT S CRISPIM",
      "house": "13",
      "postcode": "4420-594",
      "city": "GONDOMAR",
      "lon": "-8.532959579400998",
      "lat": "41.136688033414735"
    },
    {
      "id": "pt.ine.add.PTCONT.4182208",
      "street": "R MONTE CRASTO",
      "house": "69",
      "postcode": "4420-210",
      "city": "GONDOMAR",
      "lon": "-8.533135634968295",
      "lat": "41.1401811250727"
    },
    {
      "id": "pt.ine.add.PTCONT.4239220",
      "street": "R DA IGREJA",
      "house": "",
      "postcode": "4420-998",
      "city": "VALBOM GDM",
      "lon": "-8.53333719604332",
      "lat": "41.13611044101787"
    },
    {
      "id": "pt.ine.add.PTCONT.4194931",
      "street": "R MONTE CRASTO",
      "house": "77",
      "postcode": "4420-210",
      "city": "GONDOMAR",
      "lon": "-8.533254576927813",
      "lat": "41.14015369882231"
    },
    {
      "id": "pt.ine.add.PTCONT.4199779",
      "street": "R MONTE CRASTO",
      "house": "77",
      "postcode": "4420-210",
      "city": "GONDOMAR",
      "lon": "-8.533254576927813",
      "lat": "41.14015369882231"
    },
    {
      "id": "pt.ine.add.PTCONT.4239219",
      "street": "R DA IGREJA",
      "house": "",
      "postcode": "4420-998",
      "city": "VALBOM GDM",
      "lon": "-8.53333719604332",
      "lat": "41.13611044101787"
    },
    {
      "id": "pt.ine.add.PTCONT.4239221",
      "street": "R DA IGREJA",
      "house": "",
      "postcode": "4420-998",
      "city": "VALBOM GDM",
      "lon": "-8.53333719604332",
      "lat": "41.13611044101787"
    },
    {
      "id": "pt.ine.add.PTCONT.4239222",
      "street": "R DA IGREJA",
      "house": "",
      "postcode": "4420-998",
      "city": "VALBOM GDM",
      "lon": "-8.53333719604332",
      "lat": "41.13611044101787"
    },
    {
      "id": "pt.ine.add.PTCONT.4239223",
      "street": "R DA IGREJA",
      "house": "",
      "postcode": "4420-998",
      "city": "VALBOM GDM",
      "lon": "-8.53333719604332",
      "lat": "41.13611044101787"
    },
    {
      "id": "pt.ine.add.PTCONT.4239224",
      "street": "R DA IGREJA",
      "house": "",
      "postcode": "4420-998",
      "city": "VALBOM GDM",
      "lon": "-8.53333719604332",
      "lat": "41.13611044101787"
    },
    {
      "id": "pt.ine.add.PTCONT.4239225",
      "street": "R DA IGREJA",
      "house": "",
      "postcode": "4420-998",
      "city": "VALBOM GDM",
      "lon": "-8.53333719604332",
      "lat": "41.13611044101787"
    },
    {
      "id": "pt.ine.add.PTCONT.4239226",
      "street": "R DA IGREJA",
      "house": "",
      "postcode": "4420-998",
      "city": "VALBOM GDM",
      "lon": "-8.53333719604332",
      "lat": "41.13611044101787"
    },
    {
      "id": "pt.ine.add.PTCONT.4239227",
      "street": "R DA IGREJA",
      "house": "",
      "postcode": "4420-998",
      "city": "VALBOM GDM",
      "lon": "-8.53333719604332",
      "lat": "41.13611044101787"
    },
    {
      "id": "pt.ine.add.PTCONT.4239228",
      "street": "R DA IGREJA",
      "house": "",
      "postcode": "4420-998",
      "city": "VALBOM GDM",
      "lon": "-8.53333719604332",
      "lat": "41.13611044101787"
    },
    {
      "id": "pt.ine.add.PTCONT.4239229",
      "street": "R DA IGREJA",
      "house": "",
      "postcode": "4420-998",
      "city": "VALBOM GDM",
      "lon": "-8.53333719604332",
      "lat": "41.13611044101787"
    },
    {
      "id": "pt.ine.add.PTCONT.4239230",
      "street": "R DA IGREJA",
      "house": "",
      "postcode": "4420-998",
      "city": "VALBOM GDM",
      "lon": "-8.53333719604332",
      "lat": "41.13611044101787"
    },
    {
      "id": "pt.ine.add.PTCONT.4239231",
      "street": "R DA IGREJA",
      "house": "",
      "postcode": "4420-998",
      "city": "VALBOM GDM",
      "lon": "-8.53333719604332",
      "lat": "41.13611044101787"
    },
    {
      "id": "pt.ine.add.PTCONT.4239232",
      "street": "R DA IGREJA",
      "house": "",
      "postcode": "4420-998",
      "city": "VALBOM GDM",
      "lon": "-8.53333719604332",
      "lat": "41.13611044101787"
    },
    {
      "id": "pt.ine.add.PTCONT.4239233",
      "street": "R DA IGREJA",
      "house": "",
      "postcode": "4420-998",
      "city": "VALBOM GDM",
      "lon": "-8.53333719604332",
      "lat": "41.13611044101787"
    },
    {
      "id": "pt.ine.add.PTCONT.4239234",
      "street": "R DA IGREJA",
      "house": "",
      "postcode": "4420-998",
      "city": "VALBOM GDM",
      "lon": "-8.53333719604332",
      "lat": "41.13611044101787"
    },
    {
      "id": "pt.ine.add.PTCONT.4239235",
      "street": "R DA IGREJA",
      "house": "",
      "postcode": "4420-998",
      "city": "VALBOM GDM",
      "lon": "-8.53333719604332",
      "lat": "41.13611044101787"
    },
    {
      "id": "pt.ine.add.PTCONT.4239236",
      "street": "R DA IGREJA",
      "house": "",
      "postcode": "4420-998",
      "city": "VALBOM GDM",
      "lon": "-8.53333719604332",
      "lat": "41.13611044101787"
    },
    {
      "id": "pt.ine.add.PTCONT.4239237",
      "street": "R DA IGREJA",
      "house": "",
      "postcode": "4420-998",
      "city": "VALBOM GDM",
      "lon": "-8.53333719604332",
      "lat": "41.13611044101787"
    },
    {
      "id": "pt.ine.add.PTCONT.4239238",
      "street": "R DA IGREJA",
      "house": "",
      "postcode": "4420-998",
      "city": "VALBOM GDM",
      "lon": "-8.53333719604332",
      "lat": "41.13611044101787"
    },
    {
      "id": "pt.ine.add.PTCONT.4239239",
      "street": "R DA IGREJA",
      "house": "",
      "postcode": "4420-998",
      "city": "VALBOM GDM",
      "lon": "-8.53333719604332",
      "lat": "41.13611044101787"
    },
    {
      "id": "pt.ine.add.PTCONT.4239240",
      "street": "R DA IGREJA",
      "house": "",
      "postcode": "4420-998",
      "city": "VALBOM GDM",
      "lon": "-8.53333719604332",
      "lat": "41.13611044101787"
    },
    {
      "id": "pt.ine.add.PTCONT.4239241",
      "street": "R DA IGREJA",
      "house": "",
      "postcode": "4420-998",
      "city": "VALBOM GDM",
      "lon": "-8.53333719604332",
      "lat": "41.13611044101787"
    },
    {
      "id": "pt.ine.add.PTCONT.4239242",
      "street": "R DA IGREJA",
      "house": "",
      "postcode": "4420-998",
      "city": "VALBOM GDM",
      "lon": "-8.53333719604332",
      "lat": "41.13611044101787"
    },
    {
      "id": "pt.ine.add.PTCONT.4239243",
      "street": "R DA IGREJA",
      "house": "",
      "postcode": "4420-998",
      "city": "VALBOM GDM",
      "lon": "-8.53333719604332",
      "lat": "41.13611044101787"
    },
    {
      "id": "pt.ine.add.PTCONT.4239214",
      "street": "R DA IGREJA",
      "house": "",
      "postcode": "4420-998",
      "city": "VALBOM GDM",
      "lon": "-8.53333719604332",
      "lat": "41.13611044101787"
    },
    {
      "id": "pt.ine.add.PTCONT.4239215",
      "street": "R DA IGREJA",
      "house": "",
      "postcode": "4420-998",
      "city": "VALBOM GDM",
      "lon": "-8.53333719604332",
      "lat": "41.13611044101787"
    },
    {
      "id": "pt.ine.add.PTCONT.4239216",
      "street": "R DA IGREJA",
      "house": "",
      "postcode": "4420-998",
      "city": "VALBOM GDM",
      "lon": "-8.53333719604332",
      "lat": "41.13611044101787"
    },
    {
      "id": "pt.ine.add.PTCONT.4239217",
      "street": "R DA IGREJA",
      "house": "",
      "postcode": "4420-998",
      "city": "VALBOM GDM",
      "lon": "-8.53333719604332",
      "lat": "41.13611044101787"
    },
    {
      "id": "pt.ine.add.PTCONT.4239218",
      "street": "R DA IGREJA",
      "house": "",
      "postcode": "4420-998",
      "city": "VALBOM GDM",
      "lon": "-8.53333719604332",
      "lat": "41.13611044101787"
    },
    {
      "id": "pt.ine.add.PTCONT.4240916",
      "street": "AV 25 DE ABRIL",
      "house": "164",
      "postcode": "4420-353",
      "city": "GONDOMAR",
      "lon": "-8.532647680773618",
      "lat": "41.13828289267961"
    },
    {
      "id": "pt.ine.add.PTCONT.4240917",
      "street": "AV 25 DE ABRIL",
      "house": "164",
      "postcode": "4420-353",
      "city": "GONDOMAR",
      "lon": "-8.532647680773618",
      "lat": "41.13828289267961"
    },
    {
      "id": "pt.ine.add.PTCONT.4240918",
      "street": "AV 25 DE ABRIL",
      "house": "164",
      "postcode": "4420-353",
      "city": "GONDOMAR",
      "lon": "-8.532647680773618",
      "lat": "41.13828289267961"
    },
    {
      "id": "pt.ine.add.PTCONT.4240919",
      "street": "AV 25 DE ABRIL",
      "house": "164",
      "postcode": "4420-353",
      "city": "GONDOMAR",
      "lon": "-8.532647680773618",
      "lat": "41.13828289267961"
    },
    {
      "id": "pt.ine.add.PTCONT.4240920",
      "street": "AV 25 DE ABRIL",
      "house": "164",
      "postcode": "4420-353",
      "city": "GONDOMAR",
      "lon": "-8.532647680773618",
      "lat": "41.13828289267961"
    },
    {
      "id": "pt.ine.add.PTCONT.4240921",
      "street": "AV 25 DE ABRIL",
      "house": "164",
      "postcode": "4420-353",
      "city": "GONDOMAR",
      "lon": "-8.532647680773618",
      "lat": "41.13828289267961"
    },
    {
      "id": "pt.ine.add.PTCONT.4240922",
      "street": "AV 25 DE ABRIL",
      "house": "164",
      "postcode": "4420-353",
      "city": "GONDOMAR",
      "lon": "-8.532647680773618",
      "lat": "41.13828289267961"
    },
    {
      "id": "pt.ine.add.PTCONT.4248104",
      "street": "R 25 DE ABRIL",
      "house": "315",
      "postcode": "4420-356",
      "city": "GONDOMAR",
      "lon": "-8.532290035899981",
      "lat": "41.14019306273102"
    },
    {
      "id": "pt.ine.add.PTCONT.4252080",
      "street": "AV 25 DE ABRIL",
      "house": "296",
      "postcode": "4420-353",
      "city": "GONDOMAR",
      "lon": "-8.533322044885464",
      "lat": "41.139496144222306"
    },
    {
      "id": "pt.ine.add.PTCONT.4277953",
      "street": "R MONTE CRASTO",
      "house": "51 BLOC",
      "postcode": "4420-210",
      "city": "GONDOMAR",
      "lon": "-8.53286152681865",
      "lat": "41.14015506343925"
    },
    {
      "id": "pt.ine.add.PTCONT.4277954",
      "street": "R MONTE CRASTO",
      "house": "51 BLOC",
      "postcode": "4420-210",
      "city": "GONDOMAR",
      "lon": "-8.53286152681865",
      "lat": "41.14015506343925"
    },
    {
      "id": "pt.ine.add.PTCONT.4278001",
      "street": "R MONTE CRASTO",
      "house": "51 BLOC",
      "postcode": "4420-210",
      "city": "GONDOMAR",
      "lon": "-8.53286152681865",
      "lat": "41.14015506343925"
    },
    {
      "id": "pt.ine.add.PTCONT.4278002",
      "street": "R MONTE CRASTO",
      "house": "51",
      "postcode": "4420-210",
      "city": "GONDOMAR",
      "lon": "-8.53286152681865",
      "lat": "41.14015506343925"
    },
    {
      "id": "pt.ine.add.PTCONT.4278003",
      "street": "R MONTE CRASTO",
      "house": "51 BLOC",
      "postcode": "4420-210",
      "city": "GONDOMAR",
      "lon": "-8.53286152681865",
      "lat": "41.14015506343925"
    },
    {
      "id": "pt.ine.add.PTCONT.4278004",
      "street": "R MONTE CRASTO",
      "house": "51 BLOC",
      "postcode": "4420-210",
      "city": "GONDOMAR",
      "lon": "-8.53286152681865",
      "lat": "41.14015506343925"
    },
    {
      "id": "pt.ine.add.PTCONT.4278005",
      "street": "R MONTE CRASTO",
      "house": "51 BLOC",
      "postcode": "4420-210",
      "city": "GONDOMAR",
      "lon": "-8.53286152681865",
      "lat": "41.14015506343925"
    },
    {
      "id": "pt.ine.add.PTCONT.4278006",
      "street": "R MONTE CRASTO",
      "house": "51 BLOC",
      "postcode": "4420-210",
      "city": "GONDOMAR",
      "lon": "-8.53286152681865",
      "lat": "41.14015506343925"
    },
    {
      "id": "pt.ine.add.PTCONT.4278007",
      "street": "R MONTE CRASTO",
      "house": "51 BLOC",
      "postcode": "4420-210",
      "city": "GONDOMAR",
      "lon": "-8.53286152681865",
      "lat": "41.14015506343925"
    },
    {
      "id": "pt.ine.add.PTCONT.4278638",
      "street": "R MONTE CRASTO",
      "house": "51",
      "postcode": "4420-210",
      "city": "GONDOMAR",
      "lon": "-8.53286152681865",
      "lat": "41.14015506343925"
    },
    {
      "id": "pt.ine.add.PTCONT.4278945",
      "street": "LG SANTO ANTÓNIO",
      "house": "66",
      "postcode": "4420-307",
      "city": "GONDOMAR",
      "lon": "-8.532350914547056",
      "lat": "41.136483043442276"
    },
    {
      "id": "pt.ine.add.PTCONT.4278946",
      "street": "LG SANTO ANTÓNIO",
      "house": "66",
      "postcode": "4420-307",
      "city": "GONDOMAR",
      "lon": "-8.532350914547056",
      "lat": "41.136483043442276"
    },
    {
      "id": "pt.ine.add.PTCONT.4278947",
      "street": "LG SANTO ANTÓNIO",
      "house": "66",
      "postcode": "4420-307",
      "city": "GONDOMAR",
      "lon": "-8.532350914547056",
      "lat": "41.136483043442276"
    },
    {
      "id": "pt.ine.add.PTCONT.4278948",
      "street": "LG SANTO ANTÓNIO",
      "house": "66",
      "postcode": "4420-307",
      "city": "GONDOMAR",
      "lon": "-8.532350914547056",
      "lat": "41.136483043442276"
    },
    {
      "id": "pt.ine.add.PTCONT.4278949",
      "street": "LG SANTO ANTÓNIO",
      "house": "66",
      "postcode": "4420-307",
      "city": "GONDOMAR",
      "lon": "-8.532350914547056",
      "lat": "41.136483043442276"
    },
    {
      "id": "pt.ine.add.PTCONT.4278950",
      "street": "LG SANTO ANTÓNIO",
      "house": "66",
      "postcode": "4420-307",
      "city": "GONDOMAR",
      "lon": "-8.532350914547056",
      "lat": "41.136483043442276"
    },
    {
      "id": "pt.ine.add.PTCONT.4278951",
      "street": "LG SANTO ANTÓNIO",
      "house": "66",
      "postcode": "4420-307",
      "city": "GONDOMAR",
      "lon": "-8.532350914547056",
      "lat": "41.136483043442276"
    },
    {
      "id": "pt.ine.add.PTCONT.4278952",
      "street": "LG SANTO ANTÓNIO",
      "house": "66",
      "postcode": "4420-307",
      "city": "GONDOMAR",
      "lon": "-8.532350914547056",
      "lat": "41.136483043442276"
    },
    {
      "id": "pt.ine.add.PTCONT.4278953",
      "street": "LG SANTO ANTÓNIO",
      "house": "66",
      "postcode": "4420-307",
      "city": "GONDOMAR",
      "lon": "-8.532350914547056",
      "lat": "41.136483043442276"
    },
    {
      "id": "pt.ine.add.PTCONT.4278954",
      "street": "LG SANTO ANTÓNIO",
      "house": "66",
      "postcode": "4420-307",
      "city": "GONDOMAR",
      "lon": "-8.532350914547056",
      "lat": "41.136483043442276"
    },
    {
      "id": "pt.ine.add.PTCONT.4278955",
      "street": "LG SANTO ANTÓNIO",
      "house": "66",
      "postcode": "4420-307",
      "city": "GONDOMAR",
      "lon": "-8.532350914547056",
      "lat": "41.136483043442276"
    },
    {
      "id": "pt.ine.add.PTCONT.4278957",
      "street": "LG SANTO ANTÓNIO",
      "house": "66",
      "postcode": "4420-307",
      "city": "GONDOMAR",
      "lon": "-8.532350914547056",
      "lat": "41.136483043442276"
    },
    {
      "id": "pt.ine.add.PTCONT.4294584",
      "street": "AV 25 DE ABRIL",
      "house": "74",
      "postcode": "4420-355",
      "city": "GONDOMAR",
      "lon": "-8.533447122213524",
      "lat": "41.13656027866124"
    },
    {
      "id": "pt.ine.add.PTCONT.4294791",
      "street": "AV 25 DE ABRIL",
      "house": "74",
      "postcode": "4420-355",
      "city": "GONDOMAR",
      "lon": "-8.533447122213524",
      "lat": "41.13656027866124"
    },
    {
      "id": "pt.ine.add.PTCONT.4294792",
      "street": "AV 25 DE ABRIL",
      "house": "74",
      "postcode": "4420-355",
      "city": "GONDOMAR",
      "lon": "-8.533447122213524",
      "lat": "41.13656027866124"
    },
    {
      "id": "pt.ine.add.PTCONT.4294793",
      "street": "AV 25 DE ABRIL",
      "house": "74",
      "postcode": "4420-355",
      "city": "GONDOMAR",
      "lon": "-8.533447122213524",
      "lat": "41.13656027866124"
    },
    {
      "id": "pt.ine.add.PTCONT.4294794",
      "street": "AV 25 DE ABRIL",
      "house": "74",
      "postcode": "4420-355",
      "city": "GONDOMAR",
      "lon": "-8.533447122213524",
      "lat": "41.13656027866124"
    },
    {
      "id": "pt.ine.add.PTCONT.4294795",
      "street": "AV 25 DE ABRIL",
      "house": "74",
      "postcode": "4420-355",
      "city": "GONDOMAR",
      "lon": "-8.533447122213524",
      "lat": "41.13656027866124"
    },
    {
      "id": "pt.ine.add.PTCONT.4294796",
      "street": "AV 25 DE ABRIL",
      "house": "74",
      "postcode": "4420-355",
      "city": "GONDOMAR",
      "lon": "-8.533447122213524",
      "lat": "41.13656027866124"
    },
    {
      "id": "pt.ine.add.PTCONT.4294797",
      "street": "AV 25 DE ABRIL",
      "house": "74",
      "postcode": "4420-355",
      "city": "GONDOMAR",
      "lon": "-8.533447122213524",
      "lat": "41.13656027866124"
    },
    {
      "id": "pt.ine.add.PTCONT.4294798",
      "street": "AV 25 DE ABRIL",
      "house": "74",
      "postcode": "4420-355",
      "city": "GONDOMAR",
      "lon": "-8.533447122213524",
      "lat": "41.13656027866124"
    },
    {
      "id": "pt.ine.add.PTCONT.4294799",
      "street": "AV 25 DE ABRIL",
      "house": "74",
      "postcode": "4420-355",
      "city": "GONDOMAR",
      "lon": "-8.533447122213524",
      "lat": "41.13656027866124"
    },
    {
      "id": "pt.ine.add.PTCONT.4294800",
      "street": "AV 25 DE ABRIL",
      "house": "74",
      "postcode": "4420-355",
      "city": "GONDOMAR",
      "lon": "-8.533447122213524",
      "lat": "41.13656027866124"
    },
    {
      "id": "pt.ine.add.PTCONT.4299216",
      "street": "AV 25 DE ABRIL",
      "house": "74",
      "postcode": "4420-355",
      "city": "GONDOMAR",
      "lon": "-8.533447122213524",
      "lat": "41.13656027866124"
    },
    {
      "id": "pt.ine.add.PTCONT.4299220",
      "street": "AV 25 DE ABRIL",
      "house": "74",
      "postcode": "4420-355",
      "city": "GONDOMAR",
      "lon": "-8.533447122213524",
      "lat": "41.13656027866124"
    },
    {
      "id": "pt.ine.add.PTCONT.4299221",
      "street": "AV 25 DE ABRIL",
      "house": "74",
      "postcode": "4420-355",
      "city": "GONDOMAR",
      "lon": "-8.533447122213524",
      "lat": "41.13656027866124"
    },
    {
      "id": "pt.ine.add.PTCONT.4300829",
      "street": "AV 25 DE ABRIL",
      "house": "214",
      "postcode": "4420-353",
      "city": "GONDOMAR",
      "lon": "-8.532912057826318",
      "lat": "41.13866916416372"
    },
    {
      "id": "pt.ine.add.PTCONT.4314118",
      "street": "LG SANTO ANTONIO",
      "house": "60",
      "postcode": "4420-307",
      "city": "GONDOMAR",
      "lon": "-8.532256289974123",
      "lat": "41.136591424044035"
    },
    {
      "id": "pt.ine.add.PTCONT.4314119",
      "street": "LG SANTO ANTONIO",
      "house": "60",
      "postcode": "4420-307",
      "city": "GONDOMAR",
      "lon": "-8.532256289974123",
      "lat": "41.136591424044035"
    },
    {
      "id": "pt.ine.add.PTCONT.4314120",
      "street": "LG SANTO ANTONIO",
      "house": "60",
      "postcode": "4420-307",
      "city": "GONDOMAR",
      "lon": "-8.532256289974123",
      "lat": "41.136591424044035"
    },
    {
      "id": "pt.ine.add.PTCONT.4314121",
      "street": "LG SANTO ANTONIO",
      "house": "60",
      "postcode": "4420-307",
      "city": "GONDOMAR",
      "lon": "-8.532256289974123",
      "lat": "41.136591424044035"
    },
    {
      "id": "pt.ine.add.PTCONT.4314122",
      "street": "LG SANTO ANTONIO",
      "house": "60",
      "postcode": "4420-307",
      "city": "GONDOMAR",
      "lon": "-8.532256289974123",
      "lat": "41.136591424044035"
    },
    {
      "id": "pt.ine.add.PTCONT.4314123",
      "street": "LG SANTO ANTONIO",
      "house": "60",
      "postcode": "4420-307",
      "city": "GONDOMAR",
      "lon": "-8.532256289974123",
      "lat": "41.136591424044035"
    },
    {
      "id": "pt.ine.add.PTCONT.4314124",
      "street": "LG SANTO ANTONIO",
      "house": "60",
      "postcode": "4420-307",
      "city": "GONDOMAR",
      "lon": "-8.532256289974123",
      "lat": "41.136591424044035"
    },
    {
      "id": "pt.ine.add.PTCONT.4314125",
      "street": "AV 25 ABRIL",
      "house": "60",
      "postcode": "4420-355",
      "city": "GONDOMAR",
      "lon": "-8.532256289974123",
      "lat": "41.136591424044035"
    },
    {
      "id": "pt.ine.add.PTCONT.4320986",
      "street": "R 25 DE ABRIL",
      "house": "133",
      "postcode": "4420-356",
      "city": "GONDOMAR",
      "lon": "-8.532122810283942",
      "lat": "41.138149646037746"
    },
    {
      "id": "pt.ine.add.PTCONT.4320987",
      "street": "R 25 DE ABRIL",
      "house": "133",
      "postcode": "4420-356",
      "city": "GONDOMAR",
      "lon": "-8.532122810283942",
      "lat": "41.138149646037746"
    },
    {
      "id": "pt.ine.add.PTCONT.4320988",
      "street": "R 25 DE ABRIL",
      "house": "133",
      "postcode": "4420-356",
      "city": "GONDOMAR",
      "lon": "-8.532122810283942",
      "lat": "41.138149646037746"
    },
    {
      "id": "pt.ine.add.PTCONT.4320989",
      "street": "R 25 DE ABRIL",
      "house": "133",
      "postcode": "4420-356",
      "city": "GONDOMAR",
      "lon": "-8.532122810283942",
      "lat": "41.138149646037746"
    },
    {
      "id": "pt.ine.add.PTCONT.4320990",
      "street": "R 25 DE ABRIL",
      "house": "133",
      "postcode": "4420-356",
      "city": "GONDOMAR",
      "lon": "-8.532122810283942",
      "lat": "41.138149646037746"
    },
    {
      "id": "pt.ine.add.PTCONT.4320991",
      "street": "R 25 DE ABRIL",
      "house": "133",
      "postcode": "4420-356",
      "city": "GONDOMAR",
      "lon": "-8.532122810283942",
      "lat": "41.138149646037746"
    },
    {
      "id": "pt.ine.add.PTCONT.4320992",
      "street": "R 25 DE ABRIL",
      "house": "",
      "postcode": "4420-356",
      "city": "GONDOMAR",
      "lon": "-8.532050312192121",
      "lat": "41.13797881372541"
    },
    {
      "id": "pt.ine.add.PTCONT.4320993",
      "street": "R 25 DE ABRIL",
      "house": "",
      "postcode": "4420-356",
      "city": "GONDOMAR",
      "lon": "-8.532050312192121",
      "lat": "41.13797881372541"
    },
    {
      "id": "pt.ine.add.PTCONT.4320994",
      "street": "R 25 DE ABRIL",
      "house": "",
      "postcode": "4420-356",
      "city": "GONDOMAR",
      "lon": "-8.532050312192121",
      "lat": "41.13797881372541"
    },
    {
      "id": "pt.ine.add.PTCONT.4320995",
      "street": "R 25 DE ABRIL",
      "house": "",
      "postcode": "4420-356",
      "city": "GONDOMAR",
      "lon": "-8.532050312192121",
      "lat": "41.13797881372541"
    },
    {
      "id": "pt.ine.add.PTCONT.4352455",
      "street": "R MONTE CRASTO",
      "house": "51 BL C",
      "postcode": "4420-210",
      "city": "GONDOMAR",
      "lon": "-8.533004782289543",
      "lat": "41.140208592547765"
    },
    {
      "id": "pt.ine.add.PTCONT.4352456",
      "street": "R MONTE CRASTO",
      "house": "51",
      "postcode": "4420-210",
      "city": "GONDOMAR",
      "lon": "-8.533004782289543",
      "lat": "41.140208592547765"
    },
    {
      "id": "pt.ine.add.PTCONT.4352457",
      "street": "R MONTE CRASTO",
      "house": "51 BL C",
      "postcode": "4420-210",
      "city": "GONDOMAR",
      "lon": "-8.533004782289543",
      "lat": "41.140208592547765"
    },
    {
      "id": "pt.ine.add.PTCONT.4352458",
      "street": "R MONTE CRASTO",
      "house": "51 BL C",
      "postcode": "4420-210",
      "city": "GONDOMAR",
      "lon": "-8.533004782289543",
      "lat": "41.140208592547765"
    },
    {
      "id": "pt.ine.add.PTCONT.4352459",
      "street": "R MONTE CRASTO",
      "house": "51 BL C",
      "postcode": "4420-210",
      "city": "GONDOMAR",
      "lon": "-8.533004782289543",
      "lat": "41.140208592547765"
    },
    {
      "id": "pt.ine.add.PTCONT.4354838",
      "street": "R MONTE CRASTO",
      "house": "51",
      "postcode": "4420-210",
      "city": "GONDOMAR",
      "lon": "-8.533004782289543",
      "lat": "41.140208592547765"
    },
    {
      "id": "pt.ine.add.PTCONT.4354839",
      "street": "R MONTE CRASTO",
      "house": "51 BL C",
      "postcode": "4420-210",
      "city": "GONDOMAR",
      "lon": "-8.533004782289543",
      "lat": "41.140208592547765"
    },
    {
      "id": "pt.ine.add.PTCONT.4354840",
      "street": "R MONTE CRASTO",
      "house": "51 BL C",
      "postcode": "4420-210",
      "city": "GONDOMAR",
      "lon": "-8.533004782289543",
      "lat": "41.140208592547765"
    },
    {
      "id": "pt.ine.add.PTCONT.4354841",
      "street": "R MONTE CRASTO",
      "house": "51 BL C",
      "postcode": "4420-210",
      "city": "GONDOMAR",
      "lon": "-8.533004782289543",
      "lat": "41.140208592547765"
    },
    {
      "id": "pt.ine.add.PTCONT.4354842",
      "street": "R MONTE CRASTO",
      "house": "51 BL C",
      "postcode": "4420-210",
      "city": "GONDOMAR",
      "lon": "-8.533004782289543",
      "lat": "41.140208592547765"
    },
    {
      "id": "pt.ine.add.PTCONT.4381580",
      "street": "R 25 DE ABRIL",
      "house": "133",
      "postcode": "4420-356",
      "city": "GONDOMAR",
      "lon": "-8.532122810283942",
      "lat": "41.138149646037746"
    },
    {
      "id": "pt.ine.add.PTCONT.4381583",
      "street": "R 25 DE ABRIL",
      "house": "133",
      "postcode": "4420-356",
      "city": "GONDOMAR",
      "lon": "-8.532122810283942",
      "lat": "41.138149646037746"
    },
    {
      "id": "pt.ine.add.PTCONT.4383231",
      "street": "R 25 DE ABRIL",
      "house": "43",
      "postcode": "4420-356",
      "city": "GONDOMAR",
      "lon": "-8.532270492529832",
      "lat": "41.136969559278945"
    },
    {
      "id": "pt.ine.add.PTCONT.4385574",
      "street": "R IGREJA",
      "house": "62",
      "postcode": "4420-164",
      "city": "GONDOMAR",
      "lon": "-8.53294520893132",
      "lat": "41.136282885656755"
    },
    {
      "id": "pt.ine.add.PTCONT.4388789",
      "street": "AV 25 DE ABRIL",
      "house": "96",
      "postcode": "4420-355",
      "city": "GONDOMAR",
      "lon": "-8.532568352635385",
      "lat": "41.1369865355978"
    }
  ]
}