{
  "data": {
    "distrito": "Leiria",
    "concelho": "Alcobaça",
    "freguesia": "Aljubarrota",
    "OBJECTID": 411,
    "BGRI2021": "10012000604",
    "DT21": "10",
    "DTMN21": "1001",
    "DTMNFR21": "100120",
    "DTMNFRSEC21": "100120006",
    "SECNUM21": "006",
    "SSNUM21": "04",
    "SECSSNUM21": "00604",
    "OBJECTID_1": 84964,
    "DT": "10",
    "CC": "01",
    "fr": "20",
    "SEC": "006",
    "SS": "04"
  },
  "addresses": [
    {
      "id": "pt.ine.add.PTCONT.1986423",
      "street": "R MANUEL VIEIRA NATIVIDADE",
      "house": "",
      "postcode": "2460-609",
      "city": "ALJUBARROTA (PRAZERES)",
      "lon": "-8.916193486894958",
      "lat": "39.53648983870481"
    },
    {
      "id": "pt.ine.add.PTCONT.2004150",
      "street": "R COVÃO MARTENGIL",
      "house": "",
      "postcode": "2460-609",
      "city": "ALJUBARROTA (PRAZERES)",
      "lon": "-8.915435444002355",
      "lat": "39.53631480807425"
    },
    {
      "id": "pt.ine.add.PTCONT.2023411",
      "street": "R COVÃO MARTENGIL",
      "house": "51",
      "postcode": "2460-609",
      "city": "ALJUBARROTA (PRAZERES)",
      "lon": "-8.915156803838501",
      "lat": "39.536361716953294"
    },
    {
      "id": "pt.ine.add.PTCONT.2059554",
      "street": "R PRINCIPAL",
      "house": "28",
      "postcode": "2460-716",
      "city": "ALJUBARROTA (SÃO VICENTE)",
      "lon": "-8.915010328395672",
      "lat": "39.53885757429361"
    },
    {
      "id": "pt.ine.add.PTCONT.2061430",
      "street": "R COVÃO MARTENGIL",
      "house": "",
      "postcode": "2460-609",
      "city": "ALJUBARROTA (PRAZERES)",
      "lon": "-8.915760810278272",
      "lat": "39.53628559743111"
    },
    {
      "id": "pt.ine.add.PTCONT.2065739",
      "street": "R BARROCAO",
      "house": "1",
      "postcode": "2460-716",
      "city": "ALJUBARROTA (SÃO VICENTE)",
      "lon": "-8.912366051830395",
      "lat": "39.53852406886604"
    },
    {
      "id": "pt.ine.add.PTCONT.2080615",
      "street": "R PRINCIPAL",
      "house": "22",
      "postcode": "2460-716",
      "city": "ALJUBARROTA (SÃO VICENTE)",
      "lon": "-8.915852952358039",
      "lat": "39.53827547047851"
    },
    {
      "id": "pt.ine.add.PTCONT.2080616",
      "street": "R PRÍNCIPAL",
      "house": "24",
      "postcode": "2460-716",
      "city": "ALJUBARROTA (SÃO VICENTE)",
      "lon": "-8.91543836784604",
      "lat": "39.53864753867592"
    },
    {
      "id": "pt.ine.add.PTCONT.2080617",
      "street": "R PRÍNCIPAL",
      "house": "24",
      "postcode": "2460-716",
      "city": "ALJUBARROTA (SÃO VICENTE)",
      "lon": "-8.91543836784604",
      "lat": "39.53864753867592"
    },
    {
      "id": "pt.ine.add.PTCONT.2087263",
      "street": "R PRINCIPAL",
      "house": "30",
      "postcode": "2460-716",
      "city": "ALJUBARROTA (SÃO VICENTE)",
      "lon": "-8.9148862215456",
      "lat": "39.53920066581745"
    },
    {
      "id": "pt.ine.add.PTCONT.2123290",
      "street": "R PRINCIPAL",
      "house": "18",
      "postcode": "2460-716",
      "city": "ALJUBARROTA (SÃO VICENTE)",
      "lon": "-8.916025601848498",
      "lat": "39.53811218606364"
    },
    {
      "id": "pt.ine.add.PTCONT.2127087",
      "street": "R PRINCIPAL",
      "house": "14",
      "postcode": "2460-716",
      "city": "ALJUBARROTA (SÃO VICENTE)",
      "lon": "-8.916931530869816",
      "lat": "39.53798899258442"
    },
    {
      "id": "pt.ine.add.PTCONT.2150691",
      "street": "R PRINCIPAL",
      "house": "20",
      "postcode": "2460-716",
      "city": "ALJUBARROTA (SÃO VICENTE)",
      "lon": "-8.915850322155169",
      "lat": "39.53804131251838"
    },
    {
      "id": "pt.ine.add.PTCONT.2154364",
      "street": "R MANUEL VIEIRA NATIVIDADE",
      "house": "1",
      "postcode": "2460-716",
      "city": "ALJUBARROTA (SÃO VICENTE)",
      "lon": "-8.91681793575055",
      "lat": "39.53719716393768"
    },
    {
      "id": "pt.ine.add.PTCONT.2176838",
      "street": "R PRINCIPAL",
      "house": "",
      "postcode": "2460-716",
      "city": "ALJUBARROTA (SÃO VICENTE)",
      "lon": "-8.914367951668455",
      "lat": "39.539663495065284"
    },
    {
      "id": "pt.ine.add.PTCONT.2204635",
      "street": "R COVÃO MARTENGIL",
      "house": "53",
      "postcode": "2460-609",
      "city": "ALJUBARROTA (PRAZERES)",
      "lon": "-8.914819805850616",
      "lat": "39.53639100413432"
    },
    {
      "id": "pt.ine.add.PTCONT.2219361",
      "street": "R PRINCIPAL",
      "house": "26",
      "postcode": "2460-716",
      "city": "ALJUBARROTA (SÃO VICENTE)",
      "lon": "-8.915241745106322",
      "lat": "39.538747936240064"
    },
    {
      "id": "pt.ine.add.PTCONT.2221391",
      "street": "R PRINCIPAL",
      "house": "23",
      "postcode": "2460-716",
      "city": "ALJUBARROTA (SÃO VICENTE)",
      "lon": "-8.914645595451939",
      "lat": "39.539526527209965"
    }
  ]
}