{
  "data": {
    "distrito": "Viseu",
    "concelho": "Lamego",
    "freguesia": "Ferreiros de Avões",
    "OBJECTID": 800,
    "BGRI2021": "18050800121",
    "DT21": "18",
    "DTMN21": "1805",
    "DTMNFR21": "180508",
    "DTMNFRSEC21": "180508001",
    "SECNUM21": "001",
    "SSNUM21": "21",
    "SECSSNUM21": "00121",
    "OBJECTID_1": 191134,
    "DT": "18",
    "CC": "05",
    "fr": "08",
    "SEC": "001",
    "SS": "21"
  },
  "addresses": [
    {
      "id": "pt.ine.add.PTCONT.5428978",
      "street": "LUGAR DO PACO",
      "house": "",
      "postcode": "5100-512",
      "city": "FERREIROS DE AVÕES",
      "lon": "-7.813106275923388",
      "lat": "41.12137788476503"
    },
    {
      "id": "pt.ine.add.PTCONT.5478082",
      "street": "",
      "house": "",
      "postcode": "5100-507",
      "city": "FERREIROS DE AVÕES",
      "lon": "-7.813164369458379",
      "lat": "41.12167519217167"
    },
    {
      "id": "pt.ine.add.PTCONT.5498714",
      "street": "QTA AZENHA",
      "house": "",
      "postcode": "5100-507",
      "city": "FERREIROS DE AVÕES",
      "lon": "-7.812727474944288",
      "lat": "41.120917606226584"
    },
    {
      "id": "pt.ine.add.PTCONT.5503110",
      "street": "LUGAR DO PACO",
      "house": "",
      "postcode": "5100-512",
      "city": "FERREIROS DE AVÕES",
      "lon": "-7.812760657199363",
      "lat": "41.12143995523907"
    },
    {
      "id": "pt.ine.add.PTCONT.5534048",
      "street": "ESTANCIA CARVALHADA",
      "house": "",
      "postcode": "5100-507",
      "city": "FERREIROS DE AVÕES",
      "lon": "-7.8142410979353985",
      "lat": "41.12309187202772"
    },
    {
      "id": "pt.ine.add.PTCONT.5576598",
      "street": "LUGAR DO PACO",
      "house": "",
      "postcode": "5100-512",
      "city": "FERREIROS DE AVÕES",
      "lon": "-7.812819974966818",
      "lat": "41.12148514229361"
    },
    {
      "id": "pt.ine.add.PTCONT.5593357",
      "street": "LUGAR DO PACO",
      "house": "",
      "postcode": "5100-512",
      "city": "FERREIROS DE AVÕES",
      "lon": "-7.813105926027803",
      "lat": "41.121449919203165"
    },
    {
      "id": "pt.ine.add.PTCONT.5593358",
      "street": "LUGAR DO PACO",
      "house": "",
      "postcode": "5100-512",
      "city": "FERREIROS DE AVÕES",
      "lon": "-7.8131056198681215",
      "lat": "41.121512949335774"
    },
    {
      "id": "pt.ine.add.PTCONT.5602419",
      "street": "LUGAR DO PACO",
      "house": "",
      "postcode": "5100-512",
      "city": "FERREIROS DE AVÕES",
      "lon": "-7.8129754704373795",
      "lat": "41.121341503660005"
    },
    {
      "id": "pt.ine.add.PTCONT.5609682",
      "street": "",
      "house": "",
      "postcode": "5100-507",
      "city": "FERREIROS DE AVÕES",
      "lon": "-7.81066280802119",
      "lat": "41.12187531970784"
    },
    {
      "id": "pt.ine.add.PTCONT.5632534",
      "street": "",
      "house": "",
      "postcode": "5100-512",
      "city": "FERREIROS DE AVÕES",
      "lon": "-7.8128563973182565",
      "lat": "41.121341172725685"
    },
    {
      "id": "pt.ine.add.PTCONT.5658174",
      "street": "QTA AZENHA",
      "house": "",
      "postcode": "5100-501",
      "city": "FERREIROS DE AVÕES",
      "lon": "-7.812702259145941",
      "lat": "41.121205677757644"
    },
    {
      "id": "pt.ine.add.PTCONT.5669847",
      "street": "QTA BOA VISTA FERREIROSDE AVIOES LAMEGO",
      "house": "",
      "postcode": "5100-501",
      "city": "FERREIROS DE AVÕES",
      "lon": "-7.810460558522499",
      "lat": "41.12183873576993"
    }
  ]
}