{
  "data": {
    "distrito": "Évora",
    "concelho": "Estremoz",
    "freguesia": "Glória",
    "OBJECTID": 87,
    "BGRI2021": "07040200107",
    "DT21": "07",
    "DTMN21": "0704",
    "DTMNFR21": "070402",
    "DTMNFRSEC21": "070402001",
    "SECNUM21": "001",
    "SSNUM21": "07",
    "SECSSNUM21": "00107",
    "OBJECTID_1": 59329,
    "DT": "07",
    "CC": "04",
    "fr": "02",
    "SEC": "001",
    "SS": "07"
  },
  "addresses": [
    {
      "id": "pt.ine.add.PTCONT.1372684",
      "street": "MTE BUZIO",
      "house": "",
      "postcode": "7100-040",
      "city": "GLÓRIA",
      "lon": "-7.557980078003741",
      "lat": "38.78342425316694"
    },
    {
      "id": "pt.ine.add.PTCONT.1379046",
      "street": "MTE CANCELAS",
      "house": "",
      "postcode": "7100-040",
      "city": "GLÓRIA",
      "lon": "-7.554928707505614",
      "lat": "38.78219311759294"
    },
    {
      "id": "pt.ine.add.PTCONT.1385032",
      "street": "MTE ATRAPALHADOS",
      "house": "",
      "postcode": "7100-040",
      "city": "GLÓRIA",
      "lon": "-7.562585642392946",
      "lat": "38.79038297715683"
    },
    {
      "id": "pt.ine.add.PTCONT.1389473",
      "street": "MTE FE",
      "house": "",
      "postcode": "7100-040",
      "city": "GLÓRIA",
      "lon": "-7.557304608553121",
      "lat": "38.78727634481424"
    },
    {
      "id": "pt.ine.add.PTCONT.1397770",
      "street": "MTE EIRA DOS CAPELOS NOVOS",
      "house": "",
      "postcode": "7100-040",
      "city": "GLÓRIA",
      "lon": "-7.564874584336727",
      "lat": "38.7876737193046"
    },
    {
      "id": "pt.ine.add.PTCONT.1414488",
      "street": "MTE ATRAPALHADOS",
      "house": "",
      "postcode": "7100-040",
      "city": "GLÓRIA",
      "lon": "-7.562252301759897",
      "lat": "38.79032730132745"
    },
    {
      "id": "pt.ine.add.PTCONT.1425625",
      "street": "MTE EIRA DOS CAPELOS NOVOS",
      "house": "",
      "postcode": "7100-040",
      "city": "GLÓRIA",
      "lon": "-7.564674998274661",
      "lat": "38.78816818775987"
    },
    {
      "id": "pt.ine.add.PTCONT.1426321",
      "street": "MTE ATRAPALHADOS",
      "house": "",
      "postcode": "7100-040",
      "city": "GLÓRIA",
      "lon": "-7.562504861385201",
      "lat": "38.790409606669726"
    },
    {
      "id": "pt.ine.add.PTCONT.1430030",
      "street": "MTE MATAMOUROS",
      "house": "",
      "postcode": "7100-040",
      "city": "GLÓRIA",
      "lon": "-7.560196452947333",
      "lat": "38.78977676129915"
    },
    {
      "id": "pt.ine.add.PTCONT.1431650",
      "street": "MTE CAPELOS",
      "house": "",
      "postcode": "7100-040",
      "city": "GLÓRIA",
      "lon": "-7.565616595391782",
      "lat": "38.78844300375158"
    },
    {
      "id": "pt.ine.add.PTCONT.1443001",
      "street": "MTE ENGANOS MONNE DOS ENGANOS",
      "house": "",
      "postcode": "7100-040",
      "city": "GLÓRIA",
      "lon": "-7.560782229796711",
      "lat": "38.78705021311975"
    },
    {
      "id": "pt.ine.add.PTCONT.1458843",
      "street": "MTE CAPELOS",
      "house": "",
      "postcode": "7100-040",
      "city": "GLÓRIA",
      "lon": "-7.565915688286184",
      "lat": "38.788462471823806"
    }
  ]
}