{
  "data": {
    "distrito": "Braga",
    "concelho": "Amares",
    "freguesia": "Lago",
    "OBJECTID": 78,
    "BGRI2021": "03011300119",
    "DT21": "03",
    "DTMN21": "0301",
    "DTMNFR21": "030113",
    "DTMNFRSEC21": "030113001",
    "SECNUM21": "001",
    "SSNUM21": "19",
    "SECSSNUM21": "00119",
    "OBJECTID_1": 19807,
    "DT": "03",
    "CC": "01",
    "fr": "13",
    "SEC": "001",
    "SS": "19"
  },
  "addresses": [
    {
      "id": "pt.ine.add.PTCONT.478746",
      "street": "AV PONTEZINHAS",
      "house": "394",
      "postcode": "4720-543",
      "city": "LAGO",
      "lon": "-8.407891670812818",
      "lat": "41.61706814347241"
    },
    {
      "id": "pt.ine.add.PTCONT.500404",
      "street": "AV S MARTINHO DE LAGO",
      "house": "660",
      "postcode": "4720-545",
      "city": "LAGO",
      "lon": "-8.413569239833075",
      "lat": "41.62039478742826"
    },
    {
      "id": "pt.ine.add.PTCONT.539277",
      "street": "AV PONTEZINHAS",
      "house": "246",
      "postcode": "4720-543",
      "city": "LAGO",
      "lon": "-8.407500847539016",
      "lat": "41.61827556660319"
    },
    {
      "id": "pt.ine.add.PTCONT.559999",
      "street": "R CRUZES",
      "house": "99",
      "postcode": "4720-535",
      "city": "LAGO",
      "lon": "-8.412762137090539",
      "lat": "41.619658454351715"
    },
    {
      "id": "pt.ine.add.PTCONT.581861",
      "street": "AV PONTEZINHAS",
      "house": "274",
      "postcode": "4720-543",
      "city": "LAGO",
      "lon": "-8.407535735605133",
      "lat": "41.618014377380604"
    },
    {
      "id": "pt.ine.add.PTCONT.597657",
      "street": "AV SENHOR DA SAÃšDE",
      "house": "34",
      "postcode": "4720-535",
      "city": "LAGO",
      "lon": "-8.413305814007016",
      "lat": "41.6205214808799"
    },
    {
      "id": "pt.ine.add.PTCONT.625908",
      "street": "AV PONTEZINHAS",
      "house": "542",
      "postcode": "4720-543",
      "city": "LAGO",
      "lon": "-8.408739356894753",
      "lat": "41.61608471572222"
    },
    {
      "id": "pt.ine.add.PTCONT.642072",
      "street": "R CRUZES",
      "house": "94",
      "postcode": "4720-535",
      "city": "LAGO",
      "lon": "-8.412329528441912",
      "lat": "41.61950644384909"
    },
    {
      "id": "pt.ine.add.PTCONT.663587",
      "street": "AV PONTEZINHAS",
      "house": "364",
      "postcode": "4720-543",
      "city": "LAGO",
      "lon": "-8.40782056101157",
      "lat": "41.61727539747884"
    },
    {
      "id": "pt.ine.add.PTCONT.668228",
      "street": "AV PONTEZINHAS",
      "house": "330",
      "postcode": "4720-543",
      "city": "LAGO",
      "lon": "-8.407761601722216",
      "lat": "41.61751863702306"
    },
    {
      "id": "pt.ine.add.PTCONT.685934",
      "street": "AV PONTEZINHAS",
      "house": "430",
      "postcode": "4720-543",
      "city": "LAGO",
      "lon": "-8.408118181140722",
      "lat": "41.61672546294146"
    },
    {
      "id": "pt.ine.add.PTCONT.722070",
      "street": "AV PONTEZINHAS",
      "house": "304",
      "postcode": "4720-543",
      "city": "LAGO",
      "lon": "-8.407654649112398",
      "lat": "41.61776199115325"
    },
    {
      "id": "pt.ine.add.PTCONT.727575",
      "street": "AV PONTEZINHAS",
      "house": "734",
      "postcode": "4720-543",
      "city": "LAGO",
      "lon": "-8.410654505989783",
      "lat": "41.61502668015186"
    },
    {
      "id": "pt.ine.add.PTCONT.733536",
      "street": "R LAGOA",
      "house": "",
      "postcode": "4720-542",
      "city": "LAGO",
      "lon": "-8.408792144289347",
      "lat": "41.62002818929578"
    },
    {
      "id": "pt.ine.add.PTCONT.775696",
      "street": "LG PACO",
      "house": "43",
      "postcode": "4720-524",
      "city": "LAGO",
      "lon": "-8.410859316847441",
      "lat": "41.61522426597683"
    },
    {
      "id": "pt.ine.add.PTCONT.784692",
      "street": "R CRUZES",
      "house": "32",
      "postcode": "4720-535",
      "city": "LAGO",
      "lon": "-8.412519872813203",
      "lat": "41.61912782803146"
    },
    {
      "id": "pt.ine.add.PTCONT.790455",
      "street": "AV PONTEZINHAS",
      "house": "452",
      "postcode": "4720-543",
      "city": "LAGO",
      "lon": "-8.408213285372627",
      "lat": "41.61651815131548"
    },
    {
      "id": "pt.ine.add.PTCONT.808559",
      "street": "R CRUZES",
      "house": "151",
      "postcode": "4720-535",
      "city": "LAGO",
      "lon": "-8.412631396986175",
      "lat": "41.619946889125"
    },
    {
      "id": "pt.ine.add.PTCONT.809040",
      "street": "AV S MARTINHO DE LAGO",
      "house": "672",
      "postcode": "4720-545",
      "city": "LAGO",
      "lon": "-8.413689929349777",
      "lat": "41.62055655860842"
    }
  ]
}