{
  "data": {
    "distrito": "Lisboa",
    "concelho": "Oeiras",
    "freguesia": "União das freguesias de Algés, Linda-a-Velha e Cruz Quebrada-Dafundo",
    "OBJECTID": 749,
    "BGRI2021": "11101202007",
    "DT21": "11",
    "DTMN21": "1110",
    "DTMNFR21": "111012",
    "DTMNFRSEC21": "111012020",
    "SECNUM21": "020",
    "SSNUM21": "07",
    "SECSSNUM21": "02007",
    "OBJECTID_1": 110653,
    "DT": "11",
    "CC": "10",
    "fr": "12",
    "SEC": "020",
    "SS": "07"
  },
  "addresses": [
    {
      "id": "pt.ine.add.PTCONT.2344355",
      "street": "R EIRA VELHA",
      "house": "17",
      "postcode": "2795-076",
      "city": "LINDA A VELHA",
      "lon": "-9.245838941883347",
      "lat": "38.714766864599596"
    },
    {
      "id": "pt.ine.add.PTCONT.2353421",
      "street": "R FONTES PEREIRA DE MELO",
      "house": "25",
      "postcode": "2795-082",
      "city": "LINDA A VELHA",
      "lon": "-9.245486765514439",
      "lat": "38.71504045059156"
    },
    {
      "id": "pt.ine.add.PTCONT.2353422",
      "street": "R FONTES PEREIRA DE MELO",
      "house": "25",
      "postcode": "2795-082",
      "city": "LINDA A VELHA",
      "lon": "-9.245486765514439",
      "lat": "38.71504045059156"
    },
    {
      "id": "pt.ine.add.PTCONT.2353423",
      "street": "R FONTES PEREIRA DE MELO",
      "house": "25",
      "postcode": "2795-082",
      "city": "LINDA A VELHA",
      "lon": "-9.245486765514439",
      "lat": "38.71504045059156"
    },
    {
      "id": "pt.ine.add.PTCONT.2353424",
      "street": "R FONTES PEREIRA DE MELO",
      "house": "25",
      "postcode": "2795-082",
      "city": "LINDA A VELHA",
      "lon": "-9.245486765514439",
      "lat": "38.71504045059156"
    },
    {
      "id": "pt.ine.add.PTCONT.2353425",
      "street": "R FONTES PEREIRA DE MELO",
      "house": "25",
      "postcode": "2795-082",
      "city": "LINDA A VELHA",
      "lon": "-9.245486765514439",
      "lat": "38.71504045059156"
    },
    {
      "id": "pt.ine.add.PTCONT.2353426",
      "street": "R FONTES PEREIRA DE MELO",
      "house": "25",
      "postcode": "2795-082",
      "city": "LINDA A VELHA",
      "lon": "-9.245486765514439",
      "lat": "38.71504045059156"
    },
    {
      "id": "pt.ine.add.PTCONT.2353427",
      "street": "R FONTES PEREIRA DE MELO",
      "house": "25",
      "postcode": "2795-082",
      "city": "LINDA A VELHA",
      "lon": "-9.245486765514439",
      "lat": "38.71504045059156"
    },
    {
      "id": "pt.ine.add.PTCONT.2353428",
      "street": "R FONTES PEREIRA DE MELO",
      "house": "25",
      "postcode": "2795-082",
      "city": "LINDA A VELHA",
      "lon": "-9.245486765514439",
      "lat": "38.71504045059156"
    },
    {
      "id": "pt.ine.add.PTCONT.2356476",
      "street": "R FONTES PEREIRA DE MELO",
      "house": "25",
      "postcode": "2795-082",
      "city": "LINDA A VELHA",
      "lon": "-9.245486765514439",
      "lat": "38.71504045059156"
    },
    {
      "id": "pt.ine.add.PTCONT.2356821",
      "street": "R QUINTA DE SANTO ANTÓNIO",
      "house": "10",
      "postcode": "2795-161",
      "city": "LINDA A VELHA",
      "lon": "-9.24620326915024",
      "lat": "38.71527684216879"
    },
    {
      "id": "pt.ine.add.PTCONT.2356822",
      "street": "R QUINTA DE SANTO ANTÓNIO",
      "house": "10",
      "postcode": "2795-161",
      "city": "LINDA A VELHA",
      "lon": "-9.24620326915024",
      "lat": "38.71527684216879"
    },
    {
      "id": "pt.ine.add.PTCONT.2356823",
      "street": "R QUINTA DE SANTO ANTÓNIO",
      "house": "10",
      "postcode": "2795-161",
      "city": "LINDA A VELHA",
      "lon": "-9.24620326915024",
      "lat": "38.71527684216879"
    },
    {
      "id": "pt.ine.add.PTCONT.2356824",
      "street": "R QUINTA DE SANTO ANTÓNIO",
      "house": "10",
      "postcode": "2795-161",
      "city": "LINDA A VELHA",
      "lon": "-9.24620326915024",
      "lat": "38.71527684216879"
    },
    {
      "id": "pt.ine.add.PTCONT.2356825",
      "street": "R QUINTA DE SANTO ANTÓNIO",
      "house": "10",
      "postcode": "2795-161",
      "city": "LINDA A VELHA",
      "lon": "-9.24620326915024",
      "lat": "38.71527684216879"
    },
    {
      "id": "pt.ine.add.PTCONT.2356832",
      "street": "R QUINTA DE SANTO ANTÓNIO",
      "house": "10",
      "postcode": "2795-161",
      "city": "LINDA A VELHA",
      "lon": "-9.24620326915024",
      "lat": "38.71527684216879"
    },
    {
      "id": "pt.ine.add.PTCONT.2409033",
      "street": "BC DAMASIO",
      "house": "6",
      "postcode": "2795-067",
      "city": "LINDA A VELHA",
      "lon": "-9.245721147429743",
      "lat": "38.71532647049751"
    },
    {
      "id": "pt.ine.add.PTCONT.2448473",
      "street": "BC DAMASIO",
      "house": "10",
      "postcode": "2795-067",
      "city": "LINDA A VELHA",
      "lon": "-9.245777927803326",
      "lat": "38.71528089102182"
    },
    {
      "id": "pt.ine.add.PTCONT.2469898",
      "street": "BC DAMASIO",
      "house": "",
      "postcode": "2795-067",
      "city": "LINDA A VELHA",
      "lon": "-9.245604514730639",
      "lat": "38.71521948657216"
    },
    {
      "id": "pt.ine.add.PTCONT.2469899",
      "street": "BC DAMASIO",
      "house": "",
      "postcode": "2795-067",
      "city": "LINDA A VELHA",
      "lon": "-9.245604514730639",
      "lat": "38.71521948657216"
    },
    {
      "id": "pt.ine.add.PTCONT.2469900",
      "street": "BC DAMASIO",
      "house": "",
      "postcode": "2795-067",
      "city": "LINDA A VELHA",
      "lon": "-9.245604514730639",
      "lat": "38.71521948657216"
    },
    {
      "id": "pt.ine.add.PTCONT.2469901",
      "street": "BC DAMASIO",
      "house": "",
      "postcode": "2795-067",
      "city": "LINDA A VELHA",
      "lon": "-9.245604514730639",
      "lat": "38.71521948657216"
    },
    {
      "id": "pt.ine.add.PTCONT.2469902",
      "street": "BC DAMASIO",
      "house": "",
      "postcode": "2795-067",
      "city": "LINDA A VELHA",
      "lon": "-9.245604514730639",
      "lat": "38.71521948657216"
    },
    {
      "id": "pt.ine.add.PTCONT.2469903",
      "street": "R FONTES PEREIRA MELO",
      "house": "N 1",
      "postcode": "2795-082",
      "city": "LINDA A VELHA",
      "lon": "-9.245604514730639",
      "lat": "38.71521948657216"
    },
    {
      "id": "pt.ine.add.PTCONT.2469904",
      "street": "R FONTES PEREIRA MELO",
      "house": "1",
      "postcode": "2795-082",
      "city": "LINDA A VELHA",
      "lon": "-9.245604514730639",
      "lat": "38.71521948657216"
    },
    {
      "id": "pt.ine.add.PTCONT.2469905",
      "street": "BC DAMASIO",
      "house": "",
      "postcode": "2795-067",
      "city": "LINDA A VELHA",
      "lon": "-9.245604514730639",
      "lat": "38.71521948657216"
    },
    {
      "id": "pt.ine.add.PTCONT.2469906",
      "street": "BC DAMASIO",
      "house": "",
      "postcode": "2795-067",
      "city": "LINDA A VELHA",
      "lon": "-9.245604514730639",
      "lat": "38.71521948657216"
    },
    {
      "id": "pt.ine.add.PTCONT.2469907",
      "street": "BC DAMASIO",
      "house": "13",
      "postcode": "2795-067",
      "city": "LINDA A VELHA",
      "lon": "-9.245755076019607",
      "lat": "38.71529011632502"
    },
    {
      "id": "pt.ine.add.PTCONT.2474395",
      "street": "BC DAMASIO",
      "house": "",
      "postcode": "2795-067",
      "city": "LINDA A VELHA",
      "lon": "-9.245604514730639",
      "lat": "38.71521948657216"
    },
    {
      "id": "pt.ine.add.PTCONT.2488855",
      "street": "R EIRA VELHA",
      "house": "19",
      "postcode": "2795-076",
      "city": "LINDA A VELHA",
      "lon": "-9.245710116156976",
      "lat": "38.7146149577135"
    },
    {
      "id": "pt.ine.add.PTCONT.2488856",
      "street": "R EIRA VELHA",
      "house": "19",
      "postcode": "2795-076",
      "city": "LINDA A VELHA",
      "lon": "-9.245710116156976",
      "lat": "38.7146149577135"
    },
    {
      "id": "pt.ine.add.PTCONT.2521200",
      "street": "R QUINTA DE SANTO ANTÓNIO",
      "house": "6",
      "postcode": "2795-161",
      "city": "LINDA A VELHA",
      "lon": "-9.246338283646446",
      "lat": "38.71508639243234"
    },
    {
      "id": "pt.ine.add.PTCONT.2521201",
      "street": "R QUINTA DE SANTO ANTÓNIO",
      "house": "6",
      "postcode": "2795-161",
      "city": "LINDA A VELHA",
      "lon": "-9.246338283646446",
      "lat": "38.71508639243234"
    },
    {
      "id": "pt.ine.add.PTCONT.2521202",
      "street": "R QUINTA DE SANTO ANTÓNIO",
      "house": "6",
      "postcode": "2795-161",
      "city": "LINDA A VELHA",
      "lon": "-9.246338283646446",
      "lat": "38.71508639243234"
    },
    {
      "id": "pt.ine.add.PTCONT.2521203",
      "street": "R QUINTA DE SANTO ANTÓNIO",
      "house": "6",
      "postcode": "2795-161",
      "city": "LINDA A VELHA",
      "lon": "-9.246338283646446",
      "lat": "38.71508639243234"
    },
    {
      "id": "pt.ine.add.PTCONT.2521204",
      "street": "R QUINTA DE SANTO ANTÓNIO",
      "house": "6",
      "postcode": "2795-161",
      "city": "LINDA A VELHA",
      "lon": "-9.246338283646446",
      "lat": "38.71508639243234"
    },
    {
      "id": "pt.ine.add.PTCONT.2610678",
      "street": "R QUINTA DE SANTO ANTÓNIO",
      "house": "12",
      "postcode": "2795-161",
      "city": "LINDA A VELHA",
      "lon": "-9.246124475444617",
      "lat": "38.71538568615624"
    },
    {
      "id": "pt.ine.add.PTCONT.2610679",
      "street": "R QUINTA DE SANTO ANTÓNIO",
      "house": "12",
      "postcode": "2795-161",
      "city": "LINDA A VELHA",
      "lon": "-9.246124475444617",
      "lat": "38.71538568615624"
    },
    {
      "id": "pt.ine.add.PTCONT.2610680",
      "street": "R QUINTA DE SANTO ANTÓNIO",
      "house": "12",
      "postcode": "2795-161",
      "city": "LINDA A VELHA",
      "lon": "-9.246124475444617",
      "lat": "38.71538568615624"
    },
    {
      "id": "pt.ine.add.PTCONT.2610681",
      "street": "R QUINTA DE SANTO ANTÓNIO",
      "house": "12",
      "postcode": "2795-161",
      "city": "LINDA A VELHA",
      "lon": "-9.246124475444617",
      "lat": "38.71538568615624"
    },
    {
      "id": "pt.ine.add.PTCONT.2610682",
      "street": "R QUINTA DE SANTO ANTÓNIO",
      "house": "12",
      "postcode": "2795-161",
      "city": "LINDA A VELHA",
      "lon": "-9.246124475444617",
      "lat": "38.71538568615624"
    },
    {
      "id": "pt.ine.add.PTCONT.2610683",
      "street": "R QUINTA DE SANTO ANTÓNIO",
      "house": "12",
      "postcode": "2795-161",
      "city": "LINDA A VELHA",
      "lon": "-9.246124475444617",
      "lat": "38.71538568615624"
    },
    {
      "id": "pt.ine.add.PTCONT.2628939",
      "street": "R QUINTA DE SANTO ANTÓNIO",
      "house": "4",
      "postcode": "2795-161",
      "city": "LINDA A VELHA",
      "lon": "-9.246405301598589",
      "lat": "38.714959644796465"
    },
    {
      "id": "pt.ine.add.PTCONT.2628940",
      "street": "R QUINTA DE SANTO ANTÓNIO",
      "house": "4",
      "postcode": "2795-161",
      "city": "LINDA A VELHA",
      "lon": "-9.246405301598589",
      "lat": "38.714959644796465"
    },
    {
      "id": "pt.ine.add.PTCONT.2628941",
      "street": "R QUINTA DE SANTO ANTÓNIO",
      "house": "4",
      "postcode": "2795-161",
      "city": "LINDA A VELHA",
      "lon": "-9.246405301598589",
      "lat": "38.714959644796465"
    },
    {
      "id": "pt.ine.add.PTCONT.2628942",
      "street": "R QUINTA DE SANTO ANTÓNIO",
      "house": "4",
      "postcode": "2795-161",
      "city": "LINDA A VELHA",
      "lon": "-9.246405301598589",
      "lat": "38.714959644796465"
    },
    {
      "id": "pt.ine.add.PTCONT.2628943",
      "street": "R QUINTA DE SANTO ANTÓNIO",
      "house": "4",
      "postcode": "2795-161",
      "city": "LINDA A VELHA",
      "lon": "-9.246405301598589",
      "lat": "38.714959644796465"
    },
    {
      "id": "pt.ine.add.PTCONT.2628944",
      "street": "R QUINTA DE SANTO ANTÓNIO",
      "house": "4",
      "postcode": "2795-161",
      "city": "LINDA A VELHA",
      "lon": "-9.246405301598589",
      "lat": "38.714959644796465"
    },
    {
      "id": "pt.ine.add.PTCONT.2639691",
      "street": "BC DAMASIO",
      "house": "7",
      "postcode": "2795-067",
      "city": "LINDA A VELHA",
      "lon": "-9.245732363870053",
      "lat": "38.71530834811416"
    },
    {
      "id": "pt.ine.add.PTCONT.2669153",
      "street": "BC DAMASIO",
      "house": "5",
      "postcode": "2795-067",
      "city": "LINDA A VELHA",
      "lon": "-9.245709791346373",
      "lat": "38.715335586389436"
    },
    {
      "id": "pt.ine.add.PTCONT.2704860",
      "street": "BC DAMASIO",
      "house": "2",
      "postcode": "2795-067",
      "city": "LINDA A VELHA",
      "lon": "-9.245664506616025",
      "lat": "38.715381056436804"
    },
    {
      "id": "pt.ine.add.PTCONT.2722689",
      "street": "R EIRA VELHA",
      "house": "3",
      "postcode": "2795-076",
      "city": "LINDA A VELHA",
      "lon": "-9.246326268380848",
      "lat": "38.71431183433803"
    },
    {
      "id": "pt.ine.add.PTCONT.2722690",
      "street": "R EIRA VELHA",
      "house": "3",
      "postcode": "2795-076",
      "city": "LINDA A VELHA",
      "lon": "-9.246326268380848",
      "lat": "38.71431183433803"
    },
    {
      "id": "pt.ine.add.PTCONT.2722691",
      "street": "R EIRA VELHA",
      "house": "1",
      "postcode": "2795-076",
      "city": "LINDA A VELHA",
      "lon": "-9.246326268380848",
      "lat": "38.71431183433803"
    },
    {
      "id": "pt.ine.add.PTCONT.2725698",
      "street": "R EIRA VELHA",
      "house": "3",
      "postcode": "2795-076",
      "city": "LINDA A VELHA",
      "lon": "-9.246326268380848",
      "lat": "38.71431183433803"
    },
    {
      "id": "pt.ine.add.PTCONT.2757742",
      "street": "BC DAMASIO",
      "house": "4",
      "postcode": "2795-067",
      "city": "LINDA A VELHA",
      "lon": "-9.245698574896226",
      "lat": "38.71535370877067"
    },
    {
      "id": "pt.ine.add.PTCONT.2814382",
      "street": "R EIRA VELHA",
      "house": "15",
      "postcode": "2795-076",
      "city": "LINDA A VELHA",
      "lon": "-9.245944916515302",
      "lat": "38.714927996670525"
    },
    {
      "id": "pt.ine.add.PTCONT.2846823",
      "street": "R FONTES PEREIRA DE MELO",
      "house": "23",
      "postcode": "2795-082",
      "city": "LINDA A VELHA",
      "lon": "-9.245438130379515",
      "lat": "38.71486976475165"
    },
    {
      "id": "pt.ine.add.PTCONT.2846824",
      "street": "R FONTES PEREIRA DE MELO",
      "house": "23",
      "postcode": "2795-082",
      "city": "LINDA A VELHA",
      "lon": "-9.245438130379515",
      "lat": "38.71486976475165"
    },
    {
      "id": "pt.ine.add.PTCONT.2846825",
      "street": "R FONTES PEREIRA DE MELO",
      "house": "23",
      "postcode": "2795-082",
      "city": "LINDA A VELHA",
      "lon": "-9.245438130379515",
      "lat": "38.71486976475165"
    },
    {
      "id": "pt.ine.add.PTCONT.2846826",
      "street": "R FONTES PEREIRA DE MELO",
      "house": "23",
      "postcode": "2795-082",
      "city": "LINDA A VELHA",
      "lon": "-9.245438130379515",
      "lat": "38.71486976475165"
    },
    {
      "id": "pt.ine.add.PTCONT.2847051",
      "street": "R FONTES PEREIRA DE MELO",
      "house": "23",
      "postcode": "2795-082",
      "city": "LINDA A VELHA",
      "lon": "-9.245438130379515",
      "lat": "38.71486976475165"
    },
    {
      "id": "pt.ine.add.PTCONT.2850878",
      "street": "R FONTES PEREIRA DE MELO",
      "house": "23",
      "postcode": "2795-082",
      "city": "LINDA A VELHA",
      "lon": "-9.245438130379515",
      "lat": "38.71486976475165"
    },
    {
      "id": "pt.ine.add.PTCONT.2876547",
      "street": "R EIRA VELHA",
      "house": "5",
      "postcode": "2795-076",
      "city": "LINDA A VELHA",
      "lon": "-9.246352333184548",
      "lat": "38.71450975819426"
    },
    {
      "id": "pt.ine.add.PTCONT.2876548",
      "street": "R EIRA VELHA",
      "house": "5",
      "postcode": "2795-076",
      "city": "LINDA A VELHA",
      "lon": "-9.246352333184548",
      "lat": "38.71450975819426"
    },
    {
      "id": "pt.ine.add.PTCONT.2876549",
      "street": "R EIRA VELHA",
      "house": "5",
      "postcode": "2795-076",
      "city": "LINDA A VELHA",
      "lon": "-9.246352333184548",
      "lat": "38.71450975819426"
    },
    {
      "id": "pt.ine.add.PTCONT.2878652",
      "street": "R EIRA VELHA",
      "house": "5",
      "postcode": "2795-076",
      "city": "LINDA A VELHA",
      "lon": "-9.246352333184548",
      "lat": "38.71450975819426"
    },
    {
      "id": "pt.ine.add.PTCONT.2882738",
      "street": "R FONTES PEREIRA DE MELO",
      "house": "19",
      "postcode": "2795-082",
      "city": "LINDA A VELHA",
      "lon": "-9.245456514781376",
      "lat": "38.71457233176344"
    },
    {
      "id": "pt.ine.add.PTCONT.2891761",
      "street": "R EIRA VELHA",
      "house": "21",
      "postcode": "2795-076",
      "city": "LINDA A VELHA",
      "lon": "-9.245629088412878",
      "lat": "38.71457969751391"
    },
    {
      "id": "pt.ine.add.PTCONT.2982417",
      "street": "R EIRA VELHA",
      "house": "7",
      "postcode": "2795-076",
      "city": "LINDA A VELHA",
      "lon": "-9.24634307300537",
      "lat": "38.714653971489824"
    },
    {
      "id": "pt.ine.add.PTCONT.2982418",
      "street": "R EIRA VELHA",
      "house": "7",
      "postcode": "2795-076",
      "city": "LINDA A VELHA",
      "lon": "-9.24634307300537",
      "lat": "38.714653971489824"
    },
    {
      "id": "pt.ine.add.PTCONT.2982419",
      "street": "R EIRA VELHA",
      "house": "7",
      "postcode": "2795-076",
      "city": "LINDA A VELHA",
      "lon": "-9.24634307300537",
      "lat": "38.714653971489824"
    },
    {
      "id": "pt.ine.add.PTCONT.2982601",
      "street": "R EIRA VELHA",
      "house": "7",
      "postcode": "2795-076",
      "city": "LINDA A VELHA",
      "lon": "-9.24634307300537",
      "lat": "38.714653971489824"
    },
    {
      "id": "pt.ine.add.PTCONT.2982602",
      "street": "R EIRA VELHA",
      "house": "7A",
      "postcode": "2795-076",
      "city": "LINDA A VELHA",
      "lon": "-9.24634307300537",
      "lat": "38.714653971489824"
    },
    {
      "id": "pt.ine.add.PTCONT.3002840",
      "street": "R EIRA VELHA",
      "house": "13",
      "postcode": "2795-076",
      "city": "LINDA A VELHA",
      "lon": "-9.2460608508297",
      "lat": "38.714989947811915"
    },
    {
      "id": "pt.ine.add.PTCONT.3002841",
      "street": "R EIRA VELHA",
      "house": "13",
      "postcode": "2795-076",
      "city": "LINDA A VELHA",
      "lon": "-9.2460608508297",
      "lat": "38.714989947811915"
    },
    {
      "id": "pt.ine.add.PTCONT.3021552",
      "street": "BC DAMASIO",
      "house": "3",
      "postcode": "2795-067",
      "city": "LINDA A VELHA",
      "lon": "-9.245675723078968",
      "lat": "38.715362934058746"
    },
    {
      "id": "pt.ine.add.PTCONT.3114554",
      "street": "BC DAMASIO",
      "house": "11",
      "postcode": "2795-067",
      "city": "LINDA A VELHA",
      "lon": "-9.245789144222309",
      "lat": "38.71526276863321"
    },
    {
      "id": "pt.ine.add.PTCONT.3127487",
      "street": "R QUINTA DE SANTO ANTÓNIO",
      "house": "8",
      "postcode": "2795-161",
      "city": "LINDA A VELHA",
      "lon": "-9.246259350644257",
      "lat": "38.71518623001916"
    },
    {
      "id": "pt.ine.add.PTCONT.3127488",
      "street": "R QUINTA DE SANTO ANTÓNIO",
      "house": "8",
      "postcode": "2795-161",
      "city": "LINDA A VELHA",
      "lon": "-9.246259350644257",
      "lat": "38.71518623001916"
    },
    {
      "id": "pt.ine.add.PTCONT.3127489",
      "street": "R QUINTA DE SANTO ANTÓNIO",
      "house": "8",
      "postcode": "2795-161",
      "city": "LINDA A VELHA",
      "lon": "-9.246259350644257",
      "lat": "38.71518623001916"
    },
    {
      "id": "pt.ine.add.PTCONT.3127490",
      "street": "R QUINTA DE SANTO ANTÓNIO",
      "house": "8",
      "postcode": "2795-161",
      "city": "LINDA A VELHA",
      "lon": "-9.246259350644257",
      "lat": "38.71518623001916"
    },
    {
      "id": "pt.ine.add.PTCONT.3127491",
      "street": "R QUINTA DE SANTO ANTÓNIO",
      "house": "8",
      "postcode": "2795-161",
      "city": "LINDA A VELHA",
      "lon": "-9.246259350644257",
      "lat": "38.71518623001916"
    },
    {
      "id": "pt.ine.add.PTCONT.3127492",
      "street": "R QUINTA DE SANTO ANTÓNIO",
      "house": "8",
      "postcode": "2795-161",
      "city": "LINDA A VELHA",
      "lon": "-9.246259350644257",
      "lat": "38.71518623001916"
    },
    {
      "id": "pt.ine.add.PTCONT.3141815",
      "street": "BC DAMASIO",
      "house": "8",
      "postcode": "2795-067",
      "city": "LINDA A VELHA",
      "lon": "-9.24574371994627",
      "lat": "38.715299232220126"
    },
    {
      "id": "pt.ine.add.PTCONT.3226045",
      "street": "R EIRA VELHA",
      "house": "1",
      "postcode": "2795-076",
      "city": "LINDA A VELHA",
      "lon": "-9.246162676502866",
      "lat": "38.71414224333223"
    },
    {
      "id": "pt.ine.add.PTCONT.3226046",
      "street": "R EIRA VELHA",
      "house": "1",
      "postcode": "2795-076",
      "city": "LINDA A VELHA",
      "lon": "-9.246162676502866",
      "lat": "38.71414224333223"
    },
    {
      "id": "pt.ine.add.PTCONT.3226047",
      "street": "R EIRA VELHA",
      "house": "1",
      "postcode": "2795-076",
      "city": "LINDA A VELHA",
      "lon": "-9.246162676502866",
      "lat": "38.71414224333223"
    },
    {
      "id": "pt.ine.add.PTCONT.3364126",
      "street": "BC DAMASIO",
      "house": "1",
      "postcode": "2795-067",
      "city": "LINDA A VELHA",
      "lon": "-9.245630159054283",
      "lat": "38.71539039111223"
    },
    {
      "id": "pt.ine.add.PTCONT.3383322",
      "street": "R EIRA VELHA",
      "house": "9",
      "postcode": "2795-076",
      "city": "LINDA A VELHA",
      "lon": "-9.24625334335822",
      "lat": "38.71479895098149"
    },
    {
      "id": "pt.ine.add.PTCONT.3383323",
      "street": "R EIRA VELHA",
      "house": "9",
      "postcode": "2795-076",
      "city": "LINDA A VELHA",
      "lon": "-9.24625334335822",
      "lat": "38.71479895098149"
    },
    {
      "id": "pt.ine.add.PTCONT.3383324",
      "street": "R EIRA VELHA",
      "house": "9A",
      "postcode": "2795-076",
      "city": "LINDA A VELHA",
      "lon": "-9.24625334335822",
      "lat": "38.71479895098149"
    },
    {
      "id": "pt.ine.add.PTCONT.3436837",
      "street": "R EIRA VELHA",
      "house": "15",
      "postcode": "2795-076",
      "city": "LINDA A VELHA",
      "lon": "-9.245944916515302",
      "lat": "38.714927996670525"
    },
    {
      "id": "pt.ine.add.PTCONT.3441976",
      "street": "R EIRA VELHA",
      "house": "9",
      "postcode": "2795-076",
      "city": "LINDA A VELHA",
      "lon": "-9.24625334335822",
      "lat": "38.71479895098149"
    },
    {
      "id": "pt.ine.add.PTCONT.3442518",
      "street": "R EIRA VELHA",
      "house": "11",
      "postcode": "2795-076",
      "city": "LINDA A VELHA",
      "lon": "-9.246140202969862",
      "lat": "38.71491712982415"
    }
  ]
}