{
  "data": {
    "distrito": "Viana do Castelo",
    "concelho": "Viana do Castelo",
    "freguesia": "Santa Marta de Portuzelo",
    "OBJECTID": 1034,
    "BGRI2021": "16092800305",
    "DT21": "16",
    "DTMN21": "1609",
    "DTMNFR21": "160928",
    "DTMNFRSEC21": "160928003",
    "SECNUM21": "003",
    "SSNUM21": "05",
    "SECSSNUM21": "00305",
    "OBJECTID_1": 178777,
    "DT": "16",
    "CC": "09",
    "fr": "28",
    "SEC": "003",
    "SS": "05"
  },
  "addresses": [
    {
      "id": "pt.ine.add.PTCONT.5139052",
      "street": "LG VINAGREIRA",
      "house": "1",
      "postcode": "4925-006",
      "city": "VIANA DO CASTELO",
      "lon": "-8.77986594954645",
      "lat": "41.70412696947928"
    },
    {
      "id": "pt.ine.add.PTCONT.5144444",
      "street": "R SOUTO DE S MARTA",
      "house": "10",
      "postcode": "4925-135",
      "city": "VIANA DO CASTELO",
      "lon": "-8.778493396906754",
      "lat": "41.70743895628482"
    },
    {
      "id": "pt.ine.add.PTCONT.5155119",
      "street": "R SOUTO DE S MARTA",
      "house": "6",
      "postcode": "4925-135",
      "city": "VIANA DO CASTELO",
      "lon": "-8.778985260379793",
      "lat": "41.70736416518709"
    },
    {
      "id": "pt.ine.add.PTCONT.5157302",
      "street": "R SOUTO DE S MARTA",
      "house": "20",
      "postcode": "4925-135",
      "city": "VIANA DO CASTELO",
      "lon": "-8.77757725643381",
      "lat": "41.70713798020289"
    },
    {
      "id": "pt.ine.add.PTCONT.5168670",
      "street": "R SOUTO DE S MARTA",
      "house": "14",
      "postcode": "4925-135",
      "city": "VIANA DO CASTELO",
      "lon": "-8.778033256128538",
      "lat": "41.70708140122116"
    },
    {
      "id": "pt.ine.add.PTCONT.5168854",
      "street": "R SOUTO DE S MARTA",
      "house": "14",
      "postcode": "4925-135",
      "city": "VIANA DO CASTELO",
      "lon": "-8.778033256128538",
      "lat": "41.70708140122116"
    },
    {
      "id": "pt.ine.add.PTCONT.5185860",
      "street": "R CENTRAL",
      "house": "7",
      "postcode": "4925-038",
      "city": "VIANA DO CASTELO",
      "lon": "-8.780314601773005",
      "lat": "41.70573606330333"
    },
    {
      "id": "pt.ine.add.PTCONT.5196543",
      "street": "R JOﾃグ SORDO",
      "house": "",
      "postcode": "4925-061",
      "city": "VIANA DO CASTELO",
      "lon": "-8.776332973454318",
      "lat": "41.706460688646565"
    },
    {
      "id": "pt.ine.add.PTCONT.5203069",
      "street": "R CENTRAL",
      "house": "7",
      "postcode": "4925-038",
      "city": "VIANA DO CASTELO",
      "lon": "-8.780243691835516",
      "lat": "41.70585350763361"
    },
    {
      "id": "pt.ine.add.PTCONT.5208638",
      "street": "R BARRETAS",
      "house": "",
      "postcode": "4925-026",
      "city": "VIANA DO CASTELO",
      "lon": "-8.780341975335514",
      "lat": "41.70487157682463"
    },
    {
      "id": "pt.ine.add.PTCONT.5209276",
      "street": "R CHﾃグ",
      "house": "1",
      "postcode": "4925-039",
      "city": "VIANA DO CASTELO",
      "lon": "-8.77670189056281",
      "lat": "41.704901024229486"
    },
    {
      "id": "pt.ine.add.PTCONT.5213033",
      "street": "R CENTRAL",
      "house": "4",
      "postcode": "4925-038",
      "city": "VIANA DO CASTELO",
      "lon": "-8.78053518801141",
      "lat": "41.706166986863686"
    },
    {
      "id": "pt.ine.add.PTCONT.5224932",
      "street": "R CENTRAL",
      "house": "21",
      "postcode": "4925-038",
      "city": "VIANA DO CASTELO",
      "lon": "-8.780486682461111",
      "lat": "41.70492478249045"
    },
    {
      "id": "pt.ine.add.PTCONT.5227894",
      "street": "LG ALFERES",
      "house": "9",
      "postcode": "4925-187",
      "city": "VIANA DO CASTELO",
      "lon": "-8.780324809858902",
      "lat": "41.70555593659094"
    },
    {
      "id": "pt.ine.add.PTCONT.5232268",
      "street": "R SOUTO DE S MARTA",
      "house": "2",
      "postcode": "4925-135",
      "city": "VIANA DO CASTELO",
      "lon": "-8.778910471946066",
      "lat": "41.70709448173974"
    },
    {
      "id": "pt.ine.add.PTCONT.5240907",
      "street": "R SOUTO DE S MARTA",
      "house": "4",
      "postcode": "4925-135",
      "city": "VIANA DO CASTELO",
      "lon": "-8.778489255001372",
      "lat": "41.70702482043506"
    },
    {
      "id": "pt.ine.add.PTCONT.5242932",
      "street": "R SENHORA DA SILVA",
      "house": "24",
      "postcode": "4925-119",
      "city": "VIANA DO CASTELO",
      "lon": "-8.780802929974822",
      "lat": "41.70650760959844"
    },
    {
      "id": "pt.ine.add.PTCONT.5244077",
      "street": "R SOUTO DE S MARTA",
      "house": "12",
      "postcode": "4925-135",
      "city": "VIANA DO CASTELO",
      "lon": "-8.7781561878345",
      "lat": "41.70735981847623"
    },
    {
      "id": "pt.ine.add.PTCONT.5249971",
      "street": "R JOﾃグ SORDO",
      "house": "",
      "postcode": "4925-061",
      "city": "VIANA DO CASTELO",
      "lon": "-8.776279443622132",
      "lat": "41.70591177713567"
    },
    {
      "id": "pt.ine.add.PTCONT.5258143",
      "street": "R JOﾃグ SORDO",
      "house": "13A",
      "postcode": "4925-061",
      "city": "VIANA DO CASTELO",
      "lon": "-8.776637455267341",
      "lat": "41.70687314312974"
    },
    {
      "id": "pt.ine.add.PTCONT.5267456",
      "street": "LG VINAGREIRA",
      "house": "3",
      "postcode": "4925-006",
      "city": "VIANA DO CASTELO",
      "lon": "-8.77737556126011",
      "lat": "41.704987283990604"
    },
    {
      "id": "pt.ine.add.PTCONT.5277942",
      "street": "LG ALFERES",
      "house": "11",
      "postcode": "4925-187",
      "city": "VIANA DO CASTELO",
      "lon": "-8.780683239281592",
      "lat": "41.70535584119518"
    },
    {
      "id": "pt.ine.add.PTCONT.5278972",
      "street": "R BARRETAS",
      "house": "17A",
      "postcode": "4925-026",
      "city": "VIANA DO CASTELO",
      "lon": "-8.780158970505827",
      "lat": "41.7045935000576"
    }
  ]
}