{
  "data": {
    "distrito": "Porto",
    "concelho": "Bai√£o",
    "freguesia": "Gove",
    "OBJECTID": 145,
    "BGRI2021": "13020600213",
    "DT21": "13",
    "DTMN21": "1302",
    "DTMNFR21": "130206",
    "DTMNFRSEC21": "130206002",
    "SECNUM21": "002",
    "SSNUM21": "13",
    "SECSSNUM21": "00213",
    "OBJECTID_1": 126726,
    "DT": "13",
    "CC": "02",
    "fr": "06",
    "SEC": "002",
    "SS": "13"
  },
  "addresses": [
    {
      "id": "pt.ine.add.PTCONT.3543301",
      "street": "R PEDREDA",
      "house": "156",
      "postcode": "4640-267",
      "city": "GOVE",
      "lon": "-8.059603664006376",
      "lat": "41.13173074658339"
    },
    {
      "id": "pt.ine.add.PTCONT.3546425",
      "street": "CAM ENTRE MATOS",
      "house": "",
      "postcode": "4640-263",
      "city": "GOVE",
      "lon": "-8.057900192722952",
      "lat": "41.1321078330794"
    },
    {
      "id": "pt.ine.add.PTCONT.3585170",
      "street": "R PEDREDA",
      "house": "124",
      "postcode": "4640-267",
      "city": "GOVE",
      "lon": "-8.05924633251172",
      "lat": "41.13177554017846"
    },
    {
      "id": "pt.ine.add.PTCONT.3643218",
      "street": "R IGREJA",
      "house": "16",
      "postcode": "4640-267",
      "city": "GOVE",
      "lon": "-8.058103463276211",
      "lat": "41.13139661577005"
    },
    {
      "id": "pt.ine.add.PTCONT.3669164",
      "street": "R PEDREDA",
      "house": "322",
      "postcode": "4640-263",
      "city": "GOVE",
      "lon": "-8.061341823222646",
      "lat": "41.13229011701905"
    },
    {
      "id": "pt.ine.add.PTCONT.3669165",
      "street": "R PEDREDA",
      "house": "322",
      "postcode": "4640-263",
      "city": "GOVE",
      "lon": "-8.061341823222646",
      "lat": "41.13229011701905"
    },
    {
      "id": "pt.ine.add.PTCONT.3669174",
      "street": "R MARNEL",
      "house": "",
      "postcode": "4640-267",
      "city": "GOVE",
      "lon": "-8.057159980120865",
      "lat": "41.133692126517964"
    },
    {
      "id": "pt.ine.add.PTCONT.3675957",
      "street": "R MARNEL",
      "house": "120",
      "postcode": "4640-267",
      "city": "GOVE",
      "lon": "-8.057088646532344",
      "lat": "41.133584026365554"
    },
    {
      "id": "pt.ine.add.PTCONT.3684346",
      "street": "R ENTRE DEVESAS",
      "house": "1133",
      "postcode": "4640-263",
      "city": "GOVE",
      "lon": "-8.057392914933697",
      "lat": "41.138266526014874"
    },
    {
      "id": "pt.ine.add.PTCONT.3695320",
      "street": "R GOSENDE",
      "house": "863",
      "postcode": "4640-263",
      "city": "GOVE",
      "lon": "-8.056895131644863",
      "lat": "41.13614115473192"
    },
    {
      "id": "pt.ine.add.PTCONT.3706408",
      "street": "R ENTRE MATOS",
      "house": "27",
      "postcode": "4640-263",
      "city": "GOVE",
      "lon": "-8.061695855690315",
      "lat": "41.13528881059396"
    },
    {
      "id": "pt.ine.add.PTCONT.3783982",
      "street": "R RATO",
      "house": "402",
      "postcode": "4640-263",
      "city": "GOVE",
      "lon": "-8.059551792303889",
      "lat": "41.13552157654406"
    },
    {
      "id": "pt.ine.add.PTCONT.3817835",
      "street": "R ENTRE MATOS",
      "house": "36",
      "postcode": "4640-263",
      "city": "GOVE",
      "lon": "-8.062136710486001",
      "lat": "41.135117998996265"
    },
    {
      "id": "pt.ine.add.PTCONT.3831045",
      "street": "R VALES",
      "house": "535",
      "postcode": "4640-263",
      "city": "GOVE",
      "lon": "-8.055741041305266",
      "lat": "41.13512288574888"
    },
    {
      "id": "pt.ine.add.PTCONT.3831047",
      "street": "R MARNEL",
      "house": "62",
      "postcode": "4640-267",
      "city": "GOVE",
      "lon": "-8.056636454321767",
      "lat": "41.13325956776562"
    },
    {
      "id": "pt.ine.add.PTCONT.3831051",
      "street": "CAM ENTRE MATOS",
      "house": "",
      "postcode": "4640-263",
      "city": "GOVE",
      "lon": "-8.058114460005502",
      "lat": "41.132198017036096"
    },
    {
      "id": "pt.ine.add.PTCONT.3840959",
      "street": "R GOSENDE",
      "house": "795 C1",
      "postcode": "4640-263",
      "city": "GOVE",
      "lon": "-8.056169190340354",
      "lat": "41.13564542899404"
    },
    {
      "id": "pt.ine.add.PTCONT.3856293",
      "street": "R RATO",
      "house": "92",
      "postcode": "4640-263",
      "city": "GOVE",
      "lon": "-8.057753055017823",
      "lat": "41.135799551088404"
    },
    {
      "id": "pt.ine.add.PTCONT.3889129",
      "street": "R LADEIRO DO TORRAO",
      "house": "81",
      "postcode": "4640-263",
      "city": "GOVE",
      "lon": "-8.065349579163463",
      "lat": "41.13786628192887"
    },
    {
      "id": "pt.ine.add.PTCONT.3889195",
      "street": "R PEDREDA",
      "house": "290",
      "postcode": "4640-263",
      "city": "GOVE",
      "lon": "-8.060889372048043",
      "lat": "41.13219078557084"
    },
    {
      "id": "pt.ine.add.PTCONT.3889196",
      "street": "R VALES",
      "house": "393 C1",
      "postcode": "4640-263",
      "city": "GOVE",
      "lon": "-8.055349298580916",
      "lat": "41.13403308672485"
    },
    {
      "id": "pt.ine.add.PTCONT.3893873",
      "street": "R VALES",
      "house": "393 C1",
      "postcode": "4640-263",
      "city": "GOVE",
      "lon": "-8.055349298580916",
      "lat": "41.13403308672485"
    },
    {
      "id": "pt.ine.add.PTCONT.3909186",
      "street": "CAM ENTRE MATOS",
      "house": "82",
      "postcode": "4640-263",
      "city": "GOVE",
      "lon": "-8.057602312328486",
      "lat": "41.13223370021536"
    },
    {
      "id": "pt.ine.add.PTCONT.3985726",
      "street": "R GOSENDE",
      "house": "795",
      "postcode": "4640-263",
      "city": "GOVE",
      "lon": "-8.05646736139906",
      "lat": "41.13528545085148"
    },
    {
      "id": "pt.ine.add.PTCONT.3985727",
      "street": "R GOSENDE",
      "house": "",
      "postcode": "4640-263",
      "city": "GOVE",
      "lon": "-8.05646736139906",
      "lat": "41.13528545085148"
    },
    {
      "id": "pt.ine.add.PTCONT.3985728",
      "street": "R GOSENDE",
      "house": "",
      "postcode": "4640-263",
      "city": "GOVE",
      "lon": "-8.05646736139906",
      "lat": "41.13528545085148"
    },
    {
      "id": "pt.ine.add.PTCONT.3991790",
      "street": "R LADEIRO TORRAO",
      "house": "81",
      "postcode": "4640-263",
      "city": "GOVE",
      "lon": "-8.065242245645011",
      "lat": "41.13800128502836"
    },
    {
      "id": "pt.ine.add.PTCONT.4006857",
      "street": "R MARNEL",
      "house": "56",
      "postcode": "4640-267",
      "city": "GOVE",
      "lon": "-8.056493695751199",
      "lat": "41.13312440652469"
    },
    {
      "id": "pt.ine.add.PTCONT.4103075",
      "street": "R GOSENDE",
      "house": "",
      "postcode": "4640-263",
      "city": "GOVE",
      "lon": "-8.056347683996615",
      "lat": "41.13578061439515"
    },
    {
      "id": "pt.ine.add.PTCONT.4103085",
      "street": "R PEDREDA",
      "house": "134",
      "postcode": "4640-267",
      "city": "GOVE",
      "lon": "-8.059341617595692",
      "lat": "41.131766596802144"
    },
    {
      "id": "pt.ine.add.PTCONT.4138915",
      "street": "R IGREJA",
      "house": "",
      "postcode": "4640-267",
      "city": "GOVE",
      "lon": "-8.058544087208121",
      "lat": "41.131414910658584"
    },
    {
      "id": "pt.ine.add.PTCONT.4142632",
      "street": "R ENTRE DEVESAS",
      "house": "",
      "postcode": "4640-263",
      "city": "GOVE",
      "lon": "-8.059560926478639",
      "lat": "41.13800680241197"
    },
    {
      "id": "pt.ine.add.PTCONT.4155565",
      "street": "R PEDREDA",
      "house": "267",
      "postcode": "4640-267",
      "city": "GOVE",
      "lon": "-8.059246463797898",
      "lat": "41.13165848269436"
    },
    {
      "id": "pt.ine.add.PTCONT.4169300",
      "street": "R ENTRE MATOS",
      "house": "105",
      "postcode": "4640-263",
      "city": "GOVE",
      "lon": "-8.064171987960227",
      "lat": "41.13638885839697"
    },
    {
      "id": "pt.ine.add.PTCONT.4199545",
      "street": "R PEDREDA",
      "house": "366",
      "postcode": "4640-263",
      "city": "GOVE",
      "lon": "-8.061901383253165",
      "lat": "41.13246154836073"
    },
    {
      "id": "pt.ine.add.PTCONT.4260096",
      "street": "R TORRAO",
      "house": "113",
      "postcode": "4640-263",
      "city": "GOVE",
      "lon": "-8.064575969813179",
      "lat": "41.13731655473394"
    },
    {
      "id": "pt.ine.add.PTCONT.4296502",
      "street": "R VALES",
      "house": "241",
      "postcode": "4640-263",
      "city": "GOVE",
      "lon": "-8.05607699605327",
      "lat": "41.13300707110923"
    },
    {
      "id": "pt.ine.add.PTCONT.4307229",
      "street": "R PEDREDA",
      "house": "286",
      "postcode": "4640-267",
      "city": "GOVE",
      "lon": "-8.060210593193824",
      "lat": "41.132136331490955"
    },
    {
      "id": "pt.ine.add.PTCONT.4321452",
      "street": "R ENTRE DEVESAS",
      "house": "484",
      "postcode": "4640-263",
      "city": "GOVE",
      "lon": "-8.05828614466921",
      "lat": "41.13832113613582"
    },
    {
      "id": "pt.ine.add.PTCONT.4326816",
      "street": "R PEDREDA",
      "house": "",
      "postcode": "4640-263",
      "city": "GOVE",
      "lon": "-8.068710271572696",
      "lat": "41.13588723710054"
    },
    {
      "id": "pt.ine.add.PTCONT.4365676",
      "street": "CAM ENTRE AGUAS",
      "house": "",
      "postcode": "4640-263",
      "city": "GOVE",
      "lon": "-8.065597631068313",
      "lat": "41.13988341702995"
    },
    {
      "id": "pt.ine.add.PTCONT.4374561",
      "street": "R RATO",
      "house": "",
      "postcode": "4640-263",
      "city": "GOVE",
      "lon": "-8.05740752748481",
      "lat": "41.1359163820379"
    },
    {
      "id": "pt.ine.add.PTCONT.4382495",
      "street": "R RATO",
      "house": "",
      "postcode": "4640-263",
      "city": "GOVE",
      "lon": "-8.05767171646395",
      "lat": "41.134025626470276"
    }
  ]
}