{
  "data": {
    "distrito": "Beja",
    "concelho": "Odemira",
    "freguesia": "São Teotónio",
    "OBJECTID": 689,
    "BGRI2021": "02112100823",
    "DT21": "02",
    "DTMN21": "0211",
    "DTMNFR21": "021121",
    "DTMNFRSEC21": "021121008",
    "SECNUM21": "008",
    "SSNUM21": "23",
    "SECSSNUM21": "00823",
    "OBJECTID_1": 17487,
    "DT": "02",
    "CC": "11",
    "fr": "21",
    "SEC": "008",
    "SS": "23"
  },
  "addresses": [
    {
      "id": "pt.ine.add.PTCONT.458188",
      "street": "MTE SARDANITO DA FRENTE",
      "house": "",
      "postcode": "7630-742",
      "city": "ZAMBUJEIRA DO MAR",
      "lon": "-8.754473586794056",
      "lat": "37.52976626096308"
    },
    {
      "id": "pt.ine.add.PTCONT.357939",
      "street": "EN 393-1",
      "house": "",
      "postcode": "7630-742",
      "city": "ZAMBUJEIRA DO MAR",
      "lon": "-8.756081423428254",
      "lat": "37.531235691082195"
    },
    {
      "id": "pt.ine.add.PTCONT.361912",
      "street": "MTE BRANCO DO LIMOEIRO",
      "house": "",
      "postcode": "7630-736",
      "city": "ZAMBUJEIRA DO MAR",
      "lon": "-8.750996091662632",
      "lat": "37.52370311624319"
    },
    {
      "id": "pt.ine.add.PTCONT.368370",
      "street": "EM 502-2",
      "house": "",
      "postcode": "7630-736",
      "city": "ZAMBUJEIRA DO MAR",
      "lon": "-8.755830825604694",
      "lat": "37.52558781852451"
    },
    {
      "id": "pt.ine.add.PTCONT.378127",
      "street": "EM 502-2",
      "house": "",
      "postcode": "7630-736",
      "city": "ZAMBUJEIRA DO MAR",
      "lon": "-8.754964146652643",
      "lat": "37.52475446593932"
    },
    {
      "id": "pt.ine.add.PTCONT.386244",
      "street": "EM 502-2",
      "house": "",
      "postcode": "7630-736",
      "city": "ZAMBUJEIRA DO MAR",
      "lon": "-8.751592943661493",
      "lat": "37.523375636141765"
    },
    {
      "id": "pt.ine.add.PTCONT.397373",
      "street": "EM 502-2",
      "house": "",
      "postcode": "7630-736",
      "city": "ZAMBUJEIRA DO MAR",
      "lon": "-8.7499938617204",
      "lat": "37.52268680245312"
    },
    {
      "id": "pt.ine.add.PTCONT.405673",
      "street": "EM 502-2",
      "house": "",
      "postcode": "7630-736",
      "city": "ZAMBUJEIRA DO MAR",
      "lon": "-8.756045606682783",
      "lat": "37.5255686660583"
    },
    {
      "id": "pt.ine.add.PTCONT.416857",
      "street": "MTE DO SARDANITO DA FRENTE",
      "house": "",
      "postcode": "7630-742",
      "city": "ZAMBUJEIRA DO MAR",
      "lon": "-8.755145370705558",
      "lat": "37.52982281310926"
    },
    {
      "id": "pt.ine.add.PTCONT.416858",
      "street": "MTE DO SARDANITO DA FRENTE",
      "house": "",
      "postcode": "7630-742",
      "city": "ZAMBUJEIRA DO MAR",
      "lon": "-8.755145370705558",
      "lat": "37.52982281310926"
    },
    {
      "id": "pt.ine.add.PTCONT.418489",
      "street": "EM 502-2",
      "house": "",
      "postcode": "7630-736",
      "city": "ZAMBUJEIRA DO MAR",
      "lon": "-8.755100863430542",
      "lat": "37.524870874489174"
    },
    {
      "id": "pt.ine.add.PTCONT.427132",
      "street": "MTE BRANCO",
      "house": "",
      "postcode": "7630-790",
      "city": "ZAMBUJEIRA DO MAR",
      "lon": "-8.752795739013134",
      "lat": "37.52518932830431"
    },
    {
      "id": "pt.ine.add.PTCONT.434668",
      "street": "EM 502-2",
      "house": "",
      "postcode": "7630-736",
      "city": "ZAMBUJEIRA DO MAR",
      "lon": "-8.752240775943392",
      "lat": "37.52511114998096"
    },
    {
      "id": "pt.ine.add.PTCONT.442124",
      "street": "EM 502-2",
      "house": "",
      "postcode": "7630-736",
      "city": "ZAMBUJEIRA DO MAR",
      "lon": "-8.753846644389276",
      "lat": "37.525048661136935"
    },
    {
      "id": "pt.ine.add.PTCONT.451000",
      "street": "EN 393-1",
      "house": "",
      "postcode": "7630-742",
      "city": "ZAMBUJEIRA DO MAR",
      "lon": "-8.756856693643154",
      "lat": "37.53059189768963"
    },
    {
      "id": "pt.ine.add.PTCONT.452653",
      "street": "EN 393-1",
      "house": "",
      "postcode": "7630-742",
      "city": "ZAMBUJEIRA DO MAR",
      "lon": "-8.757635556345129",
      "lat": "37.530380554224074"
    }
  ]
}