{
  "data": {
    "distrito": "Leiria",
    "concelho": "Alcobaça",
    "freguesia": "Aljubarrota",
    "OBJECTID": 671,
    "BGRI2021": "10012000412",
    "DT21": "10",
    "DTMN21": "1001",
    "DTMNFR21": "100120",
    "DTMNFRSEC21": "100120004",
    "SECNUM21": "004",
    "SSNUM21": "12",
    "SECSSNUM21": "00412",
    "OBJECTID_1": 84798,
    "DT": "10",
    "CC": "01",
    "fr": "20",
    "SEC": "004",
    "SS": "12"
  },
  "addresses": [
    {
      "id": "pt.ine.add.PTCONT.1993718",
      "street": "TV NAMORADOS",
      "house": "5",
      "postcode": "2460-601",
      "city": "ALJUBARROTA (PRAZERES)",
      "lon": "-8.930808809492335",
      "lat": "39.56643690646616"
    },
    {
      "id": "pt.ine.add.PTCONT.2008473",
      "street": "LG TERREIRO",
      "house": "1",
      "postcode": "2460-601",
      "city": "ALJUBARROTA (PRAZERES)",
      "lon": "-8.9315850158451",
      "lat": "39.56613435446774"
    },
    {
      "id": "pt.ine.add.PTCONT.2023283",
      "street": "R EUGÉNIO DOS SANTOS",
      "house": "9",
      "postcode": "2460-601",
      "city": "ALJUBARROTA (PRAZERES)",
      "lon": "-8.931073961039774",
      "lat": "39.56621892512259"
    },
    {
      "id": "pt.ine.add.PTCONT.2032565",
      "street": "LG TERREIRO",
      "house": "2",
      "postcode": "2460-601",
      "city": "ALJUBARROTA (PRAZERES)",
      "lon": "-8.931725371008367",
      "lat": "39.56619643696707"
    },
    {
      "id": "pt.ine.add.PTCONT.2069490",
      "street": "R EUGÉNIO DOS SANTOS",
      "house": "4",
      "postcode": "2460-601",
      "city": "ALJUBARROTA (PRAZERES)",
      "lon": "-8.930993231503168",
      "lat": "39.56628252637763"
    },
    {
      "id": "pt.ine.add.PTCONT.2085374",
      "street": "R DIREITA",
      "house": "32",
      "postcode": "2460-601",
      "city": "ALJUBARROTA (PRAZERES)",
      "lon": "-8.930296204492118",
      "lat": "39.5663863837344"
    },
    {
      "id": "pt.ine.add.PTCONT.2087346",
      "street": "LG NSA SRA DOS PRAZERES",
      "house": "1",
      "postcode": "2460-601",
      "city": "ALJUBARROTA (PRAZERES)",
      "lon": "-8.931646604914736",
      "lat": "39.566431152616246"
    },
    {
      "id": "pt.ine.add.PTCONT.2110791",
      "street": "R DIREITA",
      "house": "36",
      "postcode": "2460-601",
      "city": "ALJUBARROTA (PRAZERES)",
      "lon": "-8.930585248494177",
      "lat": "39.56622227984598"
    },
    {
      "id": "pt.ine.add.PTCONT.2123679",
      "street": "R DIREITA",
      "house": "34",
      "postcode": "2460-601",
      "city": "ALJUBARROTA (PRAZERES)",
      "lon": "-8.930458283858563",
      "lat": "39.566313218124144"
    },
    {
      "id": "pt.ine.add.PTCONT.2133337",
      "street": "R DIREITA",
      "house": "40",
      "postcode": "2460-601",
      "city": "ALJUBARROTA (PRAZERES)",
      "lon": "-8.930770495981218",
      "lat": "39.56613994810361"
    },
    {
      "id": "pt.ine.add.PTCONT.2146020",
      "street": "R DR JOAQUIM BRILHANTE",
      "house": "5",
      "postcode": "2460-601",
      "city": "ALJUBARROTA (PRAZERES)",
      "lon": "-8.932086914085867",
      "lat": "39.56626600549463"
    },
    {
      "id": "pt.ine.add.PTCONT.2159340",
      "street": "R EUGÉNIO DOS SANTOS",
      "house": "6",
      "postcode": "2460-601",
      "city": "ALJUBARROTA (PRAZERES)",
      "lon": "-8.931075406286832",
      "lat": "39.566345009102946"
    },
    {
      "id": "pt.ine.add.PTCONT.2187653",
      "street": "R EUGÉNIO DOS SANTOS",
      "house": "2",
      "postcode": "2460-601",
      "city": "ALJUBARROTA (PRAZERES)",
      "lon": "-8.93157472269931",
      "lat": "39.56625151238631"
    },
    {
      "id": "pt.ine.add.PTCONT.2214960",
      "street": "R DR JOAQUIM BRILHANTE",
      "house": "7",
      "postcode": "2460-601",
      "city": "ALJUBARROTA (PRAZERES)",
      "lon": "-8.931890755191613",
      "lat": "39.56641146127934"
    },
    {
      "id": "pt.ine.add.PTCONT.2225452",
      "street": "R EUGÉNIO DOS SANTOS",
      "house": "7",
      "postcode": "2460-601",
      "city": "ALJUBARROTA (PRAZERES)",
      "lon": "-8.931191353626524",
      "lat": "39.56630818605976"
    },
    {
      "id": "pt.ine.add.PTCONT.2251633",
      "street": "R DIREITA",
      "house": "42",
      "postcode": "2460-601",
      "city": "ALJUBARROTA (PRAZERES)",
      "lon": "-8.9310945489793",
      "lat": "39.56598460935304"
    },
    {
      "id": "pt.ine.add.PTCONT.2253717",
      "street": "R MANUEL GOMES HENRIQUES",
      "house": "3",
      "postcode": "2460-601",
      "city": "ALJUBARROTA (PRAZERES)",
      "lon": "-8.930914566052106",
      "lat": "39.56652624755158"
    },
    {
      "id": "pt.ine.add.PTCONT.2262091",
      "street": "R D EMILIA SILVA",
      "house": "2",
      "postcode": "2460-601",
      "city": "ALJUBARROTA (PRAZERES)",
      "lon": "-8.931303893221646",
      "lat": "39.5659741649568"
    }
  ]
}