{
  "data": {
    "distrito": "Leiria",
    "concelho": "Alcobaça",
    "freguesia": "Aljubarrota",
    "OBJECTID": 672,
    "BGRI2021": "10012000413",
    "DT21": "10",
    "DTMN21": "1001",
    "DTMNFR21": "100120",
    "DTMNFRSEC21": "100120004",
    "SECNUM21": "004",
    "SSNUM21": "13",
    "SECSSNUM21": "00413",
    "OBJECTID_1": 84789,
    "DT": "10",
    "CC": "01",
    "fr": "20",
    "SEC": "004",
    "SS": "13"
  },
  "addresses": [
    {
      "id": "pt.ine.add.PTCONT.1988738",
      "street": "R NOVA",
      "house": "10",
      "postcode": "2460-601",
      "city": "ALJUBARROTA (PRAZERES)",
      "lon": "-8.932665094574647",
      "lat": "39.56594679418409"
    },
    {
      "id": "pt.ine.add.PTCONT.2002013",
      "street": "R NOVA",
      "house": "8",
      "postcode": "2460-601",
      "city": "ALJUBARROTA (PRAZERES)",
      "lon": "-8.932976989047884",
      "lat": "39.565746500310134"
    },
    {
      "id": "pt.ine.add.PTCONT.2097700",
      "street": "R NOVA",
      "house": "2",
      "postcode": "2460-601",
      "city": "ALJUBARROTA (PRAZERES)",
      "lon": "-8.932365558088014",
      "lat": "39.56621004917634"
    },
    {
      "id": "pt.ine.add.PTCONT.2148649",
      "street": "R NOVA",
      "house": "6",
      "postcode": "2460-601",
      "city": "ALJUBARROTA (PRAZERES)",
      "lon": "-8.932468834381677",
      "lat": "39.56608324493557"
    },
    {
      "id": "pt.ine.add.PTCONT.2159611",
      "street": "R DR JOAQUIM BRILHANTE",
      "house": "10",
      "postcode": "2460-601",
      "city": "ALJUBARROTA (PRAZERES)",
      "lon": "-8.93227360728718",
      "lat": "39.566309755320084"
    },
    {
      "id": "pt.ine.add.PTCONT.2163865",
      "street": "R DR JOAQUIM BRILHANTE",
      "house": "8",
      "postcode": "2460-601",
      "city": "ALJUBARROTA (PRAZERES)",
      "lon": "-8.932181346097531",
      "lat": "39.56638244340408"
    },
    {
      "id": "pt.ine.add.PTCONT.2176917",
      "street": "R NOVA",
      "house": "12",
      "postcode": "2460-601",
      "city": "ALJUBARROTA (PRAZERES)",
      "lon": "-8.933319441595247",
      "lat": "39.56516771345268"
    },
    {
      "id": "pt.ine.add.PTCONT.2219303",
      "street": "R NOVA",
      "house": "4",
      "postcode": "2460-601",
      "city": "ALJUBARROTA (PRAZERES)",
      "lon": "-8.93242301427964",
      "lat": "39.56614660705055"
    },
    {
      "id": "pt.ine.add.PTCONT.2219304",
      "street": "R 14 DE AGOSTO",
      "house": "5",
      "postcode": "2460-601",
      "city": "ALJUBARROTA (PRAZERES)",
      "lon": "-8.932599519364514",
      "lat": "39.56631652032408"
    },
    {
      "id": "pt.ine.add.PTCONT.2221018",
      "street": "R NOVA",
      "house": "4",
      "postcode": "2460-601",
      "city": "ALJUBARROTA (PRAZERES)",
      "lon": "-8.93242301427964",
      "lat": "39.56614660705055"
    },
    {
      "id": "pt.ine.add.PTCONT.2246307",
      "street": "R D NUNO ÁLVARES PEREIRA",
      "house": "",
      "postcode": "2460-601",
      "city": "ALJUBARROTA (PRAZERES)",
      "lon": "-8.932510981576014",
      "lat": "39.56671342448437"
    }
  ]
}