{
  "data": {
    "distrito": "Lisboa",
    "concelho": "Cascais",
    "freguesia": "União das freguesias de Cascais e Estoril",
    "OBJECTID": 1476,
    "BGRI2021": "11050804602",
    "DT21": "11",
    "DTMN21": "1105",
    "DTMNFR21": "110508",
    "DTMNFRSEC21": "110508046",
    "SECNUM21": "046",
    "SSNUM21": "02",
    "SECSSNUM21": "04602",
    "OBJECTID_1": 100478,
    "DT": "11",
    "CC": "05",
    "fr": "08",
    "SEC": "046",
    "SS": "02"
  },
  "addresses": [
    {
      "id": "pt.ine.add.PTCONT.2923144",
      "street": "R PERO ESCOBAR",
      "house": "85",
      "postcode": "2765-174",
      "city": "ESTORIL",
      "lon": "-9.375918848274175",
      "lat": "38.71077211499498"
    },
    {
      "id": "pt.ine.add.PTCONT.2923145",
      "street": "R PERO ESCOBAR",
      "house": "85",
      "postcode": "2765-174",
      "city": "ESTORIL",
      "lon": "-9.375918848274175",
      "lat": "38.71077211499498"
    },
    {
      "id": "pt.ine.add.PTCONT.2923146",
      "street": "R PERO ESCOBAR",
      "house": "85",
      "postcode": "2765-174",
      "city": "ESTORIL",
      "lon": "-9.375918848274175",
      "lat": "38.71077211499498"
    },
    {
      "id": "pt.ine.add.PTCONT.2923147",
      "street": "R PERO ESCOBAR",
      "house": "85",
      "postcode": "2765-174",
      "city": "ESTORIL",
      "lon": "-9.375918848274175",
      "lat": "38.71077211499498"
    },
    {
      "id": "pt.ine.add.PTCONT.2923148",
      "street": "R PERO ESCOBAR",
      "house": "85",
      "postcode": "2765-174",
      "city": "ESTORIL",
      "lon": "-9.375918848274175",
      "lat": "38.71077211499498"
    },
    {
      "id": "pt.ine.add.PTCONT.2923149",
      "street": "R PERO ESCOBAR",
      "house": "85",
      "postcode": "2765-174",
      "city": "ESTORIL",
      "lon": "-9.375918848274175",
      "lat": "38.71077211499498"
    },
    {
      "id": "pt.ine.add.PTCONT.2923637",
      "street": "R PERO ESCOBAR",
      "house": "85",
      "postcode": "2765-174",
      "city": "ESTORIL",
      "lon": "-9.375918848274175",
      "lat": "38.71077211499498"
    },
    {
      "id": "pt.ine.add.PTCONT.2926060",
      "street": "R PERO ESCOBAR",
      "house": "85",
      "postcode": "2765-174",
      "city": "ESTORIL",
      "lon": "-9.375918848274175",
      "lat": "38.71077211499498"
    },
    {
      "id": "pt.ine.add.PTCONT.2926108",
      "street": "R PERO ESCOBAR",
      "house": "85",
      "postcode": "2765-174",
      "city": "ESTORIL",
      "lon": "-9.375918848274175",
      "lat": "38.71077211499498"
    },
    {
      "id": "pt.ine.add.PTCONT.3084160",
      "street": "R PERO ESCOBAR",
      "house": "",
      "postcode": "2765-174",
      "city": "ESTORIL",
      "lon": "-9.375665970290529",
      "lat": "38.7107748029099"
    },
    {
      "id": "pt.ine.add.PTCONT.3084161",
      "street": "R PERO ESCOBAR",
      "house": "",
      "postcode": "2765-174",
      "city": "ESTORIL",
      "lon": "-9.375665970290529",
      "lat": "38.7107748029099"
    },
    {
      "id": "pt.ine.add.PTCONT.3084162",
      "street": "R PERO ESCOBAR",
      "house": "",
      "postcode": "2765-174",
      "city": "ESTORIL",
      "lon": "-9.375665970290529",
      "lat": "38.7107748029099"
    },
    {
      "id": "pt.ine.add.PTCONT.3084163",
      "street": "R PERO ESCOBAR",
      "house": "",
      "postcode": "2765-174",
      "city": "ESTORIL",
      "lon": "-9.375665970290529",
      "lat": "38.7107748029099"
    },
    {
      "id": "pt.ine.add.PTCONT.3084165",
      "street": "R PERO ESCOBAR",
      "house": "",
      "postcode": "2765-174",
      "city": "ESTORIL",
      "lon": "-9.375665970290529",
      "lat": "38.7107748029099"
    },
    {
      "id": "pt.ine.add.PTCONT.3084166",
      "street": "R PERO ESCOBAR",
      "house": "",
      "postcode": "2765-174",
      "city": "ESTORIL",
      "lon": "-9.375665970290529",
      "lat": "38.7107748029099"
    },
    {
      "id": "pt.ine.add.PTCONT.3084167",
      "street": "R PERO ESCOBAR",
      "house": "",
      "postcode": "2765-174",
      "city": "ESTORIL",
      "lon": "-9.375665970290529",
      "lat": "38.7107748029099"
    },
    {
      "id": "pt.ine.add.PTCONT.3084168",
      "street": "R PERO ESCOBAR",
      "house": "",
      "postcode": "2765-174",
      "city": "ESTORIL",
      "lon": "-9.375665970290529",
      "lat": "38.7107748029099"
    },
    {
      "id": "pt.ine.add.PTCONT.3090258",
      "street": "R PERO ESCOBAR",
      "house": "",
      "postcode": "2765-174",
      "city": "ESTORIL",
      "lon": "-9.375665970290529",
      "lat": "38.7107748029099"
    },
    {
      "id": "pt.ine.add.PTCONT.3267410",
      "street": "R PERO ESCOBAR",
      "house": "179",
      "postcode": "2765-174",
      "city": "ESTORIL",
      "lon": "-9.377275661612055",
      "lat": "38.71078470687909"
    },
    {
      "id": "pt.ine.add.PTCONT.3267411",
      "street": "R PERO ESCOBAR",
      "house": "179",
      "postcode": "2765-174",
      "city": "ESTORIL",
      "lon": "-9.377275661612055",
      "lat": "38.71078470687909"
    },
    {
      "id": "pt.ine.add.PTCONT.3267412",
      "street": "R PERO ESCOBAR",
      "house": "179",
      "postcode": "2765-174",
      "city": "ESTORIL",
      "lon": "-9.377275661612055",
      "lat": "38.71078470687909"
    },
    {
      "id": "pt.ine.add.PTCONT.3267413",
      "street": "R PERO ESCOBAR",
      "house": "179",
      "postcode": "2765-174",
      "city": "ESTORIL",
      "lon": "-9.377275661612055",
      "lat": "38.71078470687909"
    },
    {
      "id": "pt.ine.add.PTCONT.3267414",
      "street": "R PERO ESCOBAR",
      "house": "179",
      "postcode": "2765-174",
      "city": "ESTORIL",
      "lon": "-9.377275661612055",
      "lat": "38.71078470687909"
    },
    {
      "id": "pt.ine.add.PTCONT.3267415",
      "street": "R PERO ESCOBAR",
      "house": "179",
      "postcode": "2765-174",
      "city": "ESTORIL",
      "lon": "-9.377275661612055",
      "lat": "38.71078470687909"
    },
    {
      "id": "pt.ine.add.PTCONT.3267680",
      "street": "R PERO ESCOBAR",
      "house": "179",
      "postcode": "2765-174",
      "city": "ESTORIL",
      "lon": "-9.377275661612055",
      "lat": "38.71078470687909"
    },
    {
      "id": "pt.ine.add.PTCONT.3268117",
      "street": "R PERO ESCOBAR",
      "house": "179",
      "postcode": "2765-174",
      "city": "ESTORIL",
      "lon": "-9.377275661612055",
      "lat": "38.71078470687909"
    },
    {
      "id": "pt.ine.add.PTCONT.3268212",
      "street": "R PERO ESCOBAR",
      "house": "179",
      "postcode": "2765-174",
      "city": "ESTORIL",
      "lon": "-9.377275661612055",
      "lat": "38.71078470687909"
    },
    {
      "id": "pt.ine.add.PTCONT.3278164",
      "street": "R PERO ESCOBAR",
      "house": "107",
      "postcode": "2765-174",
      "city": "ESTORIL",
      "lon": "-9.376194403154772",
      "lat": "38.710751169951195"
    },
    {
      "id": "pt.ine.add.PTCONT.3278165",
      "street": "R PERO ESCOBAR",
      "house": "107",
      "postcode": "2765-174",
      "city": "ESTORIL",
      "lon": "-9.376194403154772",
      "lat": "38.710751169951195"
    },
    {
      "id": "pt.ine.add.PTCONT.3278166",
      "street": "R PERO ESCOBAR",
      "house": "107",
      "postcode": "2765-174",
      "city": "ESTORIL",
      "lon": "-9.376194403154772",
      "lat": "38.710751169951195"
    },
    {
      "id": "pt.ine.add.PTCONT.3278167",
      "street": "R PERO ESCOBAR",
      "house": "107",
      "postcode": "2765-174",
      "city": "ESTORIL",
      "lon": "-9.376194403154772",
      "lat": "38.710751169951195"
    },
    {
      "id": "pt.ine.add.PTCONT.3278168",
      "street": "R PERO ESCOBAR",
      "house": "107",
      "postcode": "2765-174",
      "city": "ESTORIL",
      "lon": "-9.376194403154772",
      "lat": "38.710751169951195"
    },
    {
      "id": "pt.ine.add.PTCONT.3278169",
      "street": "R PERO ESCOBAR",
      "house": "107",
      "postcode": "2765-174",
      "city": "ESTORIL",
      "lon": "-9.376194403154772",
      "lat": "38.710751169951195"
    },
    {
      "id": "pt.ine.add.PTCONT.3278170",
      "street": "R PERO ESCOBAR",
      "house": "107",
      "postcode": "2765-174",
      "city": "ESTORIL",
      "lon": "-9.376194403154772",
      "lat": "38.710751169951195"
    },
    {
      "id": "pt.ine.add.PTCONT.3278171",
      "street": "R PERO ESCOBAR",
      "house": "107",
      "postcode": "2765-174",
      "city": "ESTORIL",
      "lon": "-9.376194403154772",
      "lat": "38.710751169951195"
    },
    {
      "id": "pt.ine.add.PTCONT.3310651",
      "street": "R PERO ESCOBAR",
      "house": "195 193",
      "postcode": "2765-174",
      "city": "ESTORIL",
      "lon": "-9.377265260007539",
      "lat": "38.71084787169894"
    },
    {
      "id": "pt.ine.add.PTCONT.3310652",
      "street": "R PERO ESCOBAR",
      "house": "195 193",
      "postcode": "2765-174",
      "city": "ESTORIL",
      "lon": "-9.377265260007539",
      "lat": "38.71084787169894"
    },
    {
      "id": "pt.ine.add.PTCONT.3408337",
      "street": "R D ANTÓNIO RIBEIRO",
      "house": "141",
      "postcode": "2765-387",
      "city": "ESTORIL",
      "lon": "-9.375099001571826",
      "lat": "38.71056464177884"
    },
    {
      "id": "pt.ine.add.PTCONT.3408338",
      "street": "R D ANTÓNIO RIBEIRO",
      "house": "141",
      "postcode": "2765-387",
      "city": "ESTORIL",
      "lon": "-9.375099001571826",
      "lat": "38.71056464177884"
    },
    {
      "id": "pt.ine.add.PTCONT.3408339",
      "street": "R D ANTÓNIO RIBEIRO",
      "house": "141",
      "postcode": "2765-387",
      "city": "ESTORIL",
      "lon": "-9.375099001571826",
      "lat": "38.71056464177884"
    },
    {
      "id": "pt.ine.add.PTCONT.3408340",
      "street": "R D ANTÓNIO RIBEIRO",
      "house": "141",
      "postcode": "2765-387",
      "city": "ESTORIL",
      "lon": "-9.375099001571826",
      "lat": "38.71056464177884"
    },
    {
      "id": "pt.ine.add.PTCONT.3408532",
      "street": "R D ANTÓNIO RIBEIRO",
      "house": "141",
      "postcode": "2765-387",
      "city": "ESTORIL",
      "lon": "-9.375099001571826",
      "lat": "38.71056464177884"
    },
    {
      "id": "pt.ine.add.PTCONT.3408533",
      "street": "R D ANTÓNIO RIBEIRO",
      "house": "141",
      "postcode": "2765-387",
      "city": "ESTORIL",
      "lon": "-9.375099001571826",
      "lat": "38.71056464177884"
    },
    {
      "id": "pt.ine.add.PTCONT.3408534",
      "street": "R D ANTÓNIO RIBEIRO",
      "house": "141",
      "postcode": "2765-387",
      "city": "ESTORIL",
      "lon": "-9.375099001571826",
      "lat": "38.71056464177884"
    },
    {
      "id": "pt.ine.add.PTCONT.3408535",
      "street": "R D ANTÓNIO RIBEIRO",
      "house": "141",
      "postcode": "2765-387",
      "city": "ESTORIL",
      "lon": "-9.375099001571826",
      "lat": "38.71056464177884"
    },
    {
      "id": "pt.ine.add.PTCONT.3408536",
      "street": "R D ANTÓNIO RIBEIRO",
      "house": "141",
      "postcode": "2765-387",
      "city": "ESTORIL",
      "lon": "-9.375099001571826",
      "lat": "38.71056464177884"
    },
    {
      "id": "pt.ine.add.PTCONT.3408537",
      "street": "R D ANTÓNIO RIBEIRO",
      "house": "141",
      "postcode": "2765-387",
      "city": "ESTORIL",
      "lon": "-9.375099001571826",
      "lat": "38.71056464177884"
    },
    {
      "id": "pt.ine.add.PTCONT.3412887",
      "street": "R D ANTÓNIO RIBEIRO",
      "house": "141",
      "postcode": "2765-387",
      "city": "ESTORIL",
      "lon": "-9.375099001571826",
      "lat": "38.71056464177884"
    },
    {
      "id": "pt.ine.add.PTCONT.3442720",
      "street": "R PERO ESCOBAR",
      "house": "179",
      "postcode": "2765-174",
      "city": "ESTORIL",
      "lon": "-9.377275661612055",
      "lat": "38.71078470687909"
    },
    {
      "id": "pt.ine.add.PTCONT.2359220",
      "street": "R PERO ESCOBAR",
      "house": "37",
      "postcode": "2765-174",
      "city": "ESTORIL",
      "lon": "-9.375390103360802",
      "lat": "38.710777734557176"
    },
    {
      "id": "pt.ine.add.PTCONT.2359221",
      "street": "R PERO ESCOBAR",
      "house": "37",
      "postcode": "2765-174",
      "city": "ESTORIL",
      "lon": "-9.375390103360802",
      "lat": "38.710777734557176"
    },
    {
      "id": "pt.ine.add.PTCONT.2359222",
      "street": "R PERO ESCOBAR",
      "house": "37",
      "postcode": "2765-174",
      "city": "ESTORIL",
      "lon": "-9.375390103360802",
      "lat": "38.710777734557176"
    },
    {
      "id": "pt.ine.add.PTCONT.2359223",
      "street": "R PERO ESCOBAR",
      "house": "37",
      "postcode": "2765-174",
      "city": "ESTORIL",
      "lon": "-9.375390103360802",
      "lat": "38.710777734557176"
    },
    {
      "id": "pt.ine.add.PTCONT.2359224",
      "street": "R PERO ESCOBAR",
      "house": "37",
      "postcode": "2765-174",
      "city": "ESTORIL",
      "lon": "-9.375390103360802",
      "lat": "38.710777734557176"
    },
    {
      "id": "pt.ine.add.PTCONT.2359225",
      "street": "R PERO ESCOBAR",
      "house": "37",
      "postcode": "2765-174",
      "city": "ESTORIL",
      "lon": "-9.375390103360802",
      "lat": "38.710777734557176"
    },
    {
      "id": "pt.ine.add.PTCONT.2359226",
      "street": "R PERO ESCOBAR",
      "house": "37",
      "postcode": "2765-174",
      "city": "ESTORIL",
      "lon": "-9.375390103360802",
      "lat": "38.710777734557176"
    },
    {
      "id": "pt.ine.add.PTCONT.2359227",
      "street": "R PERO ESCOBAR",
      "house": "37",
      "postcode": "2765-174",
      "city": "ESTORIL",
      "lon": "-9.375390103360802",
      "lat": "38.710777734557176"
    },
    {
      "id": "pt.ine.add.PTCONT.2359228",
      "street": "R PERO ESCOBAR",
      "house": "37",
      "postcode": "2765-174",
      "city": "ESTORIL",
      "lon": "-9.375390103360802",
      "lat": "38.710777734557176"
    },
    {
      "id": "pt.ine.add.PTCONT.2359229",
      "street": "R PERO ESCOBAR",
      "house": "37",
      "postcode": "2765-174",
      "city": "ESTORIL",
      "lon": "-9.375390103360802",
      "lat": "38.710777734557176"
    },
    {
      "id": "pt.ine.add.PTCONT.2367576",
      "street": "R PERO ESCOBAR",
      "house": "37",
      "postcode": "2765-174",
      "city": "ESTORIL",
      "lon": "-9.375390103360802",
      "lat": "38.710777734557176"
    },
    {
      "id": "pt.ine.add.PTCONT.2474405",
      "street": "R PERO ESCOBAR",
      "house": "233",
      "postcode": "2765-174",
      "city": "ESTORIL",
      "lon": "-9.377518294247652",
      "lat": "38.7108541863911"
    },
    {
      "id": "pt.ine.add.PTCONT.2560812",
      "street": "R PERO ESCOBAR",
      "house": "21",
      "postcode": "2765-174",
      "city": "ESTORIL",
      "lon": "-9.375102430234687",
      "lat": "38.71076277550773"
    },
    {
      "id": "pt.ine.add.PTCONT.2560813",
      "street": "R PERO ESCOBAR ROSAIS DE ALAPRAIA",
      "house": "",
      "postcode": "2765-174",
      "city": "ESTORIL",
      "lon": "-9.375102430234687",
      "lat": "38.71076277550773"
    },
    {
      "id": "pt.ine.add.PTCONT.2560814",
      "street": "R PERO ESCOBAR",
      "house": "21",
      "postcode": "2765-174",
      "city": "ESTORIL",
      "lon": "-9.375102430234687",
      "lat": "38.71076277550773"
    },
    {
      "id": "pt.ine.add.PTCONT.2560815",
      "street": "R PERO ESCOBAR",
      "house": "21",
      "postcode": "2765-174",
      "city": "ESTORIL",
      "lon": "-9.375102430234687",
      "lat": "38.71076277550773"
    },
    {
      "id": "pt.ine.add.PTCONT.2560816",
      "street": "R PERO ESCOBAR",
      "house": "21",
      "postcode": "2765-174",
      "city": "ESTORIL",
      "lon": "-9.375102430234687",
      "lat": "38.71076277550773"
    },
    {
      "id": "pt.ine.add.PTCONT.2560817",
      "street": "R PERO ESCOBAR",
      "house": "21",
      "postcode": "2765-174",
      "city": "ESTORIL",
      "lon": "-9.375102430234687",
      "lat": "38.71076277550773"
    },
    {
      "id": "pt.ine.add.PTCONT.2566028",
      "street": "R PERO ESCOBAR",
      "house": "21 B",
      "postcode": "2765-174",
      "city": "ESTORIL",
      "lon": "-9.375102430234687",
      "lat": "38.71076277550773"
    },
    {
      "id": "pt.ine.add.PTCONT.2701992",
      "street": "R PERO ESCOBAR",
      "house": "133",
      "postcode": "2765-174",
      "city": "ESTORIL",
      "lon": "-9.376504753238281",
      "lat": "38.7107478696694"
    },
    {
      "id": "pt.ine.add.PTCONT.2701993",
      "street": "R PERO ESCOBAR",
      "house": "133",
      "postcode": "2765-174",
      "city": "ESTORIL",
      "lon": "-9.376504753238281",
      "lat": "38.7107478696694"
    },
    {
      "id": "pt.ine.add.PTCONT.2701994",
      "street": "R PERO ESCOBAR",
      "house": "133",
      "postcode": "2765-174",
      "city": "ESTORIL",
      "lon": "-9.376504753238281",
      "lat": "38.7107478696694"
    },
    {
      "id": "pt.ine.add.PTCONT.2701995",
      "street": "R PERO ESCOBAR",
      "house": "133",
      "postcode": "2765-174",
      "city": "ESTORIL",
      "lon": "-9.376504753238281",
      "lat": "38.7107478696694"
    },
    {
      "id": "pt.ine.add.PTCONT.2702030",
      "street": "R PERO ESCOBAR",
      "house": "133",
      "postcode": "2765-174",
      "city": "ESTORIL",
      "lon": "-9.376504753238281",
      "lat": "38.7107478696694"
    },
    {
      "id": "pt.ine.add.PTCONT.2702031",
      "street": "R PERO ESCOBAR",
      "house": "133",
      "postcode": "2765-174",
      "city": "ESTORIL",
      "lon": "-9.376504753238281",
      "lat": "38.7107478696694"
    },
    {
      "id": "pt.ine.add.PTCONT.2702032",
      "street": "R PERO ESCOBAR",
      "house": "133",
      "postcode": "2765-174",
      "city": "ESTORIL",
      "lon": "-9.376504753238281",
      "lat": "38.7107478696694"
    },
    {
      "id": "pt.ine.add.PTCONT.2707466",
      "street": "R PERO ESCOBAR",
      "house": "133",
      "postcode": "2765-174",
      "city": "ESTORIL",
      "lon": "-9.376504753238281",
      "lat": "38.7107478696694"
    }
  ]
}