{
  "data": {
    "distrito": "Faro",
    "concelho": "Monchique",
    "freguesia": "Monchique",
    "OBJECTID": 96,
    "BGRI2021": "08090300517",
    "DT21": "08",
    "DTMN21": "0809",
    "DTMNFR21": "080903",
    "DTMNFRSEC21": "080903005",
    "SECNUM21": "005",
    "SSNUM21": "17",
    "SECSSNUM21": "00517",
    "OBJECTID_1": 70110,
    "DT": "08",
    "CC": "09",
    "fr": "03",
    "SEC": "005",
    "SS": "17"
  },
  "addresses": [
    {
      "id": "pt.ine.add.PTCONT.1489215",
      "street": "",
      "house": "",
      "postcode": "8550-305",
      "city": "MONCHIQUE",
      "lon": "-8.560144405736347",
      "lat": "37.324793256065966"
    },
    {
      "id": "pt.ine.add.PTCONT.1525807",
      "street": "",
      "house": "",
      "postcode": "8550-305",
      "city": "MONCHIQUE",
      "lon": "-8.558827828411863",
      "lat": "37.32541069812067"
    },
    {
      "id": "pt.ine.add.PTCONT.1534598",
      "street": "",
      "house": "",
      "postcode": "8550-305",
      "city": "MONCHIQUE",
      "lon": "-8.559672941250094",
      "lat": "37.32521843896279"
    },
    {
      "id": "pt.ine.add.PTCONT.1543334",
      "street": "",
      "house": "",
      "postcode": "8550-305",
      "city": "MONCHIQUE",
      "lon": "-8.558288759183693",
      "lat": "37.32585413922754"
    },
    {
      "id": "pt.ine.add.PTCONT.1546007",
      "street": "CASA DAS CAMELIAS",
      "house": "",
      "postcode": "8550-305",
      "city": "MONCHIQUE",
      "lon": "-8.560207816255273",
      "lat": "37.32403616514131"
    },
    {
      "id": "pt.ine.add.PTCONT.1575708",
      "street": "",
      "house": "",
      "postcode": "8550-305",
      "city": "MONCHIQUE",
      "lon": "-8.56017758986976",
      "lat": "37.32467600289139"
    },
    {
      "id": "pt.ine.add.PTCONT.1590361",
      "street": "",
      "house": "",
      "postcode": "8550-305",
      "city": "MONCHIQUE",
      "lon": "-8.558193235764783",
      "lat": "37.322917136618145"
    },
    {
      "id": "pt.ine.add.PTCONT.1627981",
      "street": "",
      "house": "",
      "postcode": "8550-305",
      "city": "MONCHIQUE",
      "lon": "-8.56055848386552",
      "lat": "37.324197083606045"
    },
    {
      "id": "pt.ine.add.PTCONT.1629745",
      "street": "",
      "house": "",
      "postcode": "8550-305",
      "city": "MONCHIQUE",
      "lon": "-8.558107122775958",
      "lat": "37.325656566030474"
    },
    {
      "id": "pt.ine.add.PTCONT.1629746",
      "street": "",
      "house": "",
      "postcode": "8550-305",
      "city": "MONCHIQUE",
      "lon": "-8.558317706523315",
      "lat": "37.32309776058746"
    },
    {
      "id": "pt.ine.add.PTCONT.1635243",
      "street": "",
      "house": "",
      "postcode": "8550-305",
      "city": "MONCHIQUE",
      "lon": "-8.559237913771652",
      "lat": "37.32610301204039"
    },
    {
      "id": "pt.ine.add.PTCONT.1690585",
      "street": "",
      "house": "",
      "postcode": "8550-305",
      "city": "MONCHIQUE",
      "lon": "-8.560366175506228",
      "lat": "37.324107675535934"
    },
    {
      "id": "pt.ine.add.PTCONT.1693623",
      "street": "",
      "house": "",
      "postcode": "8550-305",
      "city": "MONCHIQUE",
      "lon": "-8.558829353352397",
      "lat": "37.325681000473075"
    },
    {
      "id": "pt.ine.add.PTCONT.1730921",
      "street": "",
      "house": "",
      "postcode": "8550-305",
      "city": "MONCHIQUE",
      "lon": "-8.558885359012136",
      "lat": "37.32560871686549"
    },
    {
      "id": "pt.ine.add.PTCONT.1739475",
      "street": "",
      "house": "",
      "postcode": "8550-305",
      "city": "MONCHIQUE",
      "lon": "-8.558706467053605",
      "lat": "37.32389741057483"
    },
    {
      "id": "pt.ine.add.PTCONT.1745619",
      "street": "",
      "house": "",
      "postcode": "8550-305",
      "city": "MONCHIQUE",
      "lon": "-8.558749918639025",
      "lat": "37.32560019389747"
    },
    {
      "id": "pt.ine.add.PTCONT.1757795",
      "street": "",
      "house": "",
      "postcode": "8550-305",
      "city": "MONCHIQUE",
      "lon": "-8.558794438556625",
      "lat": "37.325491910603176"
    },
    {
      "id": "pt.ine.add.PTCONT.1757797",
      "street": "SIT MATA PORCAS",
      "house": "",
      "postcode": "8550-305",
      "city": "MONCHIQUE",
      "lon": "-8.560281170894507",
      "lat": "37.325036039466276"
    },
    {
      "id": "pt.ine.add.PTCONT.1759029",
      "street": "",
      "house": "",
      "postcode": "8550-305",
      "city": "MONCHIQUE",
      "lon": "-8.558794438556625",
      "lat": "37.325491910603176"
    },
    {
      "id": "pt.ine.add.PTCONT.1773167",
      "street": "MATA",
      "house": "",
      "postcode": "8550-305",
      "city": "MONCHIQUE",
      "lon": "-8.558952189402147",
      "lat": "37.32545530192127"
    },
    {
      "id": "pt.ine.add.PTCONT.1776133",
      "street": "",
      "house": "",
      "postcode": "8550-305",
      "city": "MONCHIQUE",
      "lon": "-8.559122484520753",
      "lat": "37.32364362610364"
    },
    {
      "id": "pt.ine.add.PTCONT.1788002",
      "street": "",
      "house": "",
      "postcode": "8550-305",
      "city": "MONCHIQUE",
      "lon": "-8.55994061015906",
      "lat": "37.3246678477239"
    },
    {
      "id": "pt.ine.add.PTCONT.1828638",
      "street": "",
      "house": "",
      "postcode": "8550-305",
      "city": "MONCHIQUE",
      "lon": "-8.56009876656574",
      "lat": "37.324703318149105"
    },
    {
      "id": "pt.ine.add.PTCONT.1844016",
      "street": "",
      "house": "",
      "postcode": "8550-305",
      "city": "MONCHIQUE",
      "lon": "-8.55994061015906",
      "lat": "37.3246678477239"
    }
  ]
}