{
  "data": {
    "distrito": "Setúbal",
    "concelho": "Barreiro",
    "freguesia": "Santo António da Charneca",
    "OBJECTID": 412,
    "BGRI2021": "15040700530",
    "DT21": "15",
    "DTMN21": "1504",
    "DTMNFR21": "150407",
    "DTMNFRSEC21": "150407005",
    "SECNUM21": "005",
    "SSNUM21": "30",
    "SECSSNUM21": "00530",
    "OBJECTID_1": 163079,
    "DT": "15",
    "CC": "04",
    "fr": "07",
    "SEC": "005",
    "SS": "30"
  },
  "addresses": [
    {
      "id": "pt.ine.add.PTCONT.4667837",
      "street": "R FLORES",
      "house": "",
      "postcode": "2835-558",
      "city": "SANTO ANTÓNIO DA CHARNECA",
      "lon": "-9.019353359200077",
      "lat": "38.608669718295666"
    },
    {
      "id": "pt.ine.add.PTCONT.4726565",
      "street": "R FLORES",
      "house": "",
      "postcode": "2835-558",
      "city": "SANTO ANTÓNIO DA CHARNECA",
      "lon": "-9.019792633195296",
      "lat": "38.60798177356029"
    },
    {
      "id": "pt.ine.add.PTCONT.4759260",
      "street": "R MACHADA",
      "house": "",
      "postcode": "2835-556",
      "city": "SANTO ANTÓNIO DA CHARNECA",
      "lon": "-9.02011815713285",
      "lat": "38.61017728661208"
    },
    {
      "id": "pt.ine.add.PTCONT.4759261",
      "street": "R MACHADA A QUINTINHA",
      "house": "",
      "postcode": "2835-556",
      "city": "SANTO ANTÓNIO DA CHARNECA",
      "lon": "-9.02011815713285",
      "lat": "38.61017728661208"
    },
    {
      "id": "pt.ine.add.PTCONT.4762773",
      "street": "R MACHADA",
      "house": "",
      "postcode": "2835-556",
      "city": "SANTO ANTÓNIO DA CHARNECA",
      "lon": "-9.021241766870725",
      "lat": "38.6091238224034"
    },
    {
      "id": "pt.ine.add.PTCONT.4766620",
      "street": "R MACHADA",
      "house": "SN",
      "postcode": "2835-558",
      "city": "SANTO ANTÓNIO DA CHARNECA",
      "lon": "-9.020847338970908",
      "lat": "38.60692883498576"
    },
    {
      "id": "pt.ine.add.PTCONT.4778213",
      "street": "R FLORES",
      "house": "",
      "postcode": "2835-558",
      "city": "SANTO ANTÓNIO DA CHARNECA",
      "lon": "-9.01977388708081",
      "lat": "38.608324224062684"
    },
    {
      "id": "pt.ine.add.PTCONT.4780789",
      "street": "QTA CAPITOLINO",
      "house": "",
      "postcode": "2835-558",
      "city": "SANTO ANTÓNIO DA CHARNECA",
      "lon": "-9.020760943324042",
      "lat": "38.60737088819126"
    },
    {
      "id": "pt.ine.add.PTCONT.4791099",
      "street": "R FLORES",
      "house": "",
      "postcode": "2835-558",
      "city": "SANTO ANTÓNIO DA CHARNECA",
      "lon": "-9.019731073320239",
      "lat": "38.60857677574492"
    },
    {
      "id": "pt.ine.add.PTCONT.4794466",
      "street": "R MACHADA",
      "house": "",
      "postcode": "2835-556",
      "city": "SANTO ANTÓNIO DA CHARNECA",
      "lon": "-9.02191769319183",
      "lat": "38.60993842847975"
    },
    {
      "id": "pt.ine.add.PTCONT.4794467",
      "street": "R FLORES",
      "house": "",
      "postcode": "2835-558",
      "city": "SANTO ANTÓNIO DA CHARNECA",
      "lon": "-9.019969311574636",
      "lat": "38.609277603378025"
    },
    {
      "id": "pt.ine.add.PTCONT.4802069",
      "street": "QTA CAPITOLINO",
      "house": "",
      "postcode": "2835-558",
      "city": "SANTO ANTÓNIO DA CHARNECA",
      "lon": "-9.02006509033568",
      "lat": "38.60679964518261"
    },
    {
      "id": "pt.ine.add.PTCONT.4805534",
      "street": "R FLORES",
      "house": "",
      "postcode": "2835-558",
      "city": "SANTO ANTÓNIO DA CHARNECA",
      "lon": "-9.019501659416994",
      "lat": "38.60765968584922"
    },
    {
      "id": "pt.ine.add.PTCONT.4835539",
      "street": "R FLORES QTA DOS CLÉRIGOS",
      "house": "",
      "postcode": "2835-558",
      "city": "SANTO ANTÓNIO DA CHARNECA",
      "lon": "-9.019765018500724",
      "lat": "38.60760364186655"
    },
    {
      "id": "pt.ine.add.PTCONT.4838702",
      "street": "R FLORES",
      "house": "",
      "postcode": "2835-558",
      "city": "SANTO ANTÓNIO DA CHARNECA",
      "lon": "-9.01983837972847",
      "lat": "38.60890025480523"
    },
    {
      "id": "pt.ine.add.PTCONT.4842998",
      "street": "R FLORES V ALGARVE",
      "house": "V ALGARVE",
      "postcode": "2835-558",
      "city": "SANTO ANTÓNIO DA CHARNECA",
      "lon": "-9.019381637131474",
      "lat": "38.60910189369931"
    },
    {
      "id": "pt.ine.add.PTCONT.4866098",
      "street": "R MACHADA",
      "house": "",
      "postcode": "2835-556",
      "city": "SANTO ANTÓNIO DA CHARNECA",
      "lon": "-9.022936844561887",
      "lat": "38.6087956603387"
    },
    {
      "id": "pt.ine.add.PTCONT.4925983",
      "street": "QTA CAPITOLINO",
      "house": "",
      "postcode": "2835-558",
      "city": "SANTO ANTÓNIO DA CHARNECA",
      "lon": "-9.020955868805116",
      "lat": "38.607351393113426"
    },
    {
      "id": "pt.ine.add.PTCONT.4927698",
      "street": "R DAS FLORES",
      "house": "",
      "postcode": "2835-558",
      "city": "SANTO ANTÓNIO DA CHARNECA",
      "lon": "-9.020807859244544",
      "lat": "38.607451605343215"
    },
    {
      "id": "pt.ine.add.PTCONT.4946433",
      "street": "R MACHADA",
      "house": "",
      "postcode": "2835-556",
      "city": "SANTO ANTÓNIO DA CHARNECA",
      "lon": "-9.021100348440738",
      "lat": "38.60882762789402"
    },
    {
      "id": "pt.ine.add.PTCONT.4946434",
      "street": "R MACHADA",
      "house": "",
      "postcode": "2835-556",
      "city": "SANTO ANTÓNIO DA CHARNECA",
      "lon": "-9.021100348440738",
      "lat": "38.60882762789402"
    },
    {
      "id": "pt.ine.add.PTCONT.4946435",
      "street": "QTA JOSE CARVALHO",
      "house": "",
      "postcode": "2835-558",
      "city": "SANTO ANTÓNIO DA CHARNECA",
      "lon": "-9.021100348440738",
      "lat": "38.60882762789402"
    },
    {
      "id": "pt.ine.add.PTCONT.4946436",
      "street": "R MACHADA",
      "house": "SN",
      "postcode": "2835-558",
      "city": "SANTO ANTÓNIO DA CHARNECA",
      "lon": "-9.021006937600355",
      "lat": "38.60683754288406"
    },
    {
      "id": "pt.ine.add.PTCONT.4983840",
      "street": "R FLORES FAZENDA CARVALHO",
      "house": "",
      "postcode": "2835-558",
      "city": "SANTO ANTÓNIO DA CHARNECA",
      "lon": "-9.019756027687126",
      "lat": "38.608738732755185"
    },
    {
      "id": "pt.ine.add.PTCONT.4983841",
      "street": "R FLORES FAZENDA JOSE CARVALHO",
      "house": "S N",
      "postcode": "2835-558",
      "city": "SANTO ANTÓNIO DA CHARNECA",
      "lon": "-9.019756027687126",
      "lat": "38.608738732755185"
    },
    {
      "id": "pt.ine.add.PTCONT.5016751",
      "street": "R FLORES QTA DOS CLÉRIGOS",
      "house": "",
      "postcode": "2835-558",
      "city": "SANTO ANTÓNIO DA CHARNECA",
      "lon": "-9.019441603289604",
      "lat": "38.60744394592824"
    },
    {
      "id": "pt.ine.add.PTCONT.5016752",
      "street": "R FLORES",
      "house": "",
      "postcode": "2835-558",
      "city": "SANTO ANTÓNIO DA CHARNECA",
      "lon": "-9.020063426997298",
      "lat": "38.60666453600311"
    },
    {
      "id": "pt.ine.add.PTCONT.5131987",
      "street": "QTA JOSE CARVALHO",
      "house": "",
      "postcode": "2835-558",
      "city": "SANTO ANTÓNIO DA CHARNECA",
      "lon": "-9.021100348440738",
      "lat": "38.60882762789402"
    }
  ]
}