{
  "data": {
    "distrito": "Porto",
    "concelho": "Santo Tirso",
    "freguesia": "Vila Nova do Campo",
    "OBJECTID": 1369,
    "BGRI2021": "13143400315",
    "DT21": "13",
    "DTMN21": "1314",
    "DTMNFR21": "131434",
    "DTMNFRSEC21": "131434003",
    "SECNUM21": "003",
    "SSNUM21": "15",
    "SECSSNUM21": "00315",
    "OBJECTID_1": 141416,
    "DT": "13",
    "CC": "14",
    "fr": "34",
    "SEC": "003",
    "SS": "15"
  },
  "addresses": [
    {
      "id": "pt.ine.add.PTCONT.3610943",
      "street": "R MANUEL DE SOUSA OLIVEIRA",
      "house": "",
      "postcode": "4795-476",
      "city": "SÃO MARTINHO CAMPO",
      "lon": "-8.361289064171578",
      "lat": "41.36067713432822"
    },
    {
      "id": "pt.ine.add.PTCONT.3610944",
      "street": "R MANUEL DE SOUSA OLIVEIRA",
      "house": "",
      "postcode": "4795-476",
      "city": "SÃO MARTINHO CAMPO",
      "lon": "-8.361289064171578",
      "lat": "41.36067713432822"
    },
    {
      "id": "pt.ine.add.PTCONT.3611118",
      "street": "R MANUEL DE SOUSA OLIVEIRA",
      "house": "",
      "postcode": "4795-476",
      "city": "SÃO MARTINHO CAMPO",
      "lon": "-8.361289064171578",
      "lat": "41.36067713432822"
    },
    {
      "id": "pt.ine.add.PTCONT.3611119",
      "street": "R MANUEL DE SOUSA OLIVEIRA",
      "house": "",
      "postcode": "4795-476",
      "city": "SÃO MARTINHO CAMPO",
      "lon": "-8.361289064171578",
      "lat": "41.36067713432822"
    },
    {
      "id": "pt.ine.add.PTCONT.3611120",
      "street": "R MANUEL DE SOUSA OLIVEIRA",
      "house": "",
      "postcode": "4795-476",
      "city": "SÃO MARTINHO CAMPO",
      "lon": "-8.361289064171578",
      "lat": "41.36067713432822"
    },
    {
      "id": "pt.ine.add.PTCONT.3615675",
      "street": "R MANUEL DE SOUSA OLIVEIRA",
      "house": "",
      "postcode": "4795-476",
      "city": "SÃO MARTINHO CAMPO",
      "lon": "-8.361289064171578",
      "lat": "41.36067713432822"
    },
    {
      "id": "pt.ine.add.PTCONT.3691661",
      "street": "R MANUEL DE SOUSA OLIVEIRA",
      "house": "742",
      "postcode": "4795-476",
      "city": "SÃO MARTINHO CAMPO",
      "lon": "-8.361088883664308",
      "lat": "41.36153291677741"
    },
    {
      "id": "pt.ine.add.PTCONT.3691662",
      "street": "R MANUEL DE SOUSA OLIVEIRA",
      "house": "742",
      "postcode": "4795-476",
      "city": "SÃO MARTINHO CAMPO",
      "lon": "-8.361088883664308",
      "lat": "41.36153291677741"
    },
    {
      "id": "pt.ine.add.PTCONT.3718001",
      "street": "R MANUEL DE SOUSA OLIVEIRA",
      "house": "738",
      "postcode": "4795-476",
      "city": "SÃO MARTINHO CAMPO",
      "lon": "-8.361041142175244",
      "lat": "41.36155101946176"
    },
    {
      "id": "pt.ine.add.PTCONT.3738009",
      "street": "R MANUEL DE SOUSA OLIVEIRA",
      "house": "",
      "postcode": "4795-476",
      "city": "SÃO MARTINHO CAMPO",
      "lon": "-8.361240851704602",
      "lat": "41.36056017711697"
    },
    {
      "id": "pt.ine.add.PTCONT.3738016",
      "street": "R MANUEL DE SOUSA OLIVEIRA",
      "house": "",
      "postcode": "4795-476",
      "city": "SÃO MARTINHO CAMPO",
      "lon": "-8.361240851704602",
      "lat": "41.36056017711697"
    },
    {
      "id": "pt.ine.add.PTCONT.3738017",
      "street": "R MANUEL DE SOUSA OLIVEIRA",
      "house": "",
      "postcode": "4795-476",
      "city": "SÃO MARTINHO CAMPO",
      "lon": "-8.361240851704602",
      "lat": "41.36056017711697"
    },
    {
      "id": "pt.ine.add.PTCONT.3738018",
      "street": "R MANUEL DE SOUSA OLIVEIRA",
      "house": "",
      "postcode": "4795-476",
      "city": "SÃO MARTINHO CAMPO",
      "lon": "-8.361240851704602",
      "lat": "41.36056017711697"
    },
    {
      "id": "pt.ine.add.PTCONT.3738019",
      "street": "R MANUEL DE SOUSA OLIVEIRA",
      "house": "",
      "postcode": "4795-476",
      "city": "SÃO MARTINHO CAMPO",
      "lon": "-8.361240851704602",
      "lat": "41.36056017711697"
    },
    {
      "id": "pt.ine.add.PTCONT.3739132",
      "street": "R MANUEL DE SOUSA OLIVEIRA",
      "house": "",
      "postcode": "4795-476",
      "city": "SÃO MARTINHO CAMPO",
      "lon": "-8.361240851704602",
      "lat": "41.36056017711697"
    },
    {
      "id": "pt.ine.add.PTCONT.3808583",
      "street": "R MANUEL DE SOUSA OLIVEIRA",
      "house": "",
      "postcode": "4795-476",
      "city": "SÃO MARTINHO CAMPO",
      "lon": "-8.361083918866955",
      "lat": "41.360110285025364"
    },
    {
      "id": "pt.ine.add.PTCONT.3808584",
      "street": "R MANUEL DE SOUSA OLIVEIRA",
      "house": "",
      "postcode": "4795-476",
      "city": "SÃO MARTINHO CAMPO",
      "lon": "-8.361083918866955",
      "lat": "41.360110285025364"
    },
    {
      "id": "pt.ine.add.PTCONT.3808585",
      "street": "R MANUEL DE SOUSA OLIVEIRA",
      "house": "",
      "postcode": "4795-476",
      "city": "SÃO MARTINHO CAMPO",
      "lon": "-8.361083918866955",
      "lat": "41.360110285025364"
    },
    {
      "id": "pt.ine.add.PTCONT.3808812",
      "street": "R MANUEL DE SOUSA OLIVEIRA",
      "house": "",
      "postcode": "4795-476",
      "city": "SÃO MARTINHO CAMPO",
      "lon": "-8.361083918866955",
      "lat": "41.360110285025364"
    },
    {
      "id": "pt.ine.add.PTCONT.3808813",
      "street": "R MANUEL DE SOUSA OLIVEIRA",
      "house": "",
      "postcode": "4795-476",
      "city": "SÃO MARTINHO CAMPO",
      "lon": "-8.361083918866955",
      "lat": "41.360110285025364"
    },
    {
      "id": "pt.ine.add.PTCONT.3810175",
      "street": "R MANUEL DE SOUSA OLIVEIRA",
      "house": "",
      "postcode": "4795-476",
      "city": "SÃO MARTINHO CAMPO",
      "lon": "-8.361083918866955",
      "lat": "41.360110285025364"
    },
    {
      "id": "pt.ine.add.PTCONT.3870353",
      "street": "R MANUEL DE SOUSA OLIVEIRA",
      "house": "",
      "postcode": "4795-476",
      "city": "SÃO MARTINHO CAMPO",
      "lon": "-8.361325231499569",
      "lat": "41.360767103221114"
    },
    {
      "id": "pt.ine.add.PTCONT.3870354",
      "street": "R MANUEL DE SOUSA OLIVEIRA",
      "house": "",
      "postcode": "4795-476",
      "city": "SÃO MARTINHO CAMPO",
      "lon": "-8.361325231499569",
      "lat": "41.360767103221114"
    },
    {
      "id": "pt.ine.add.PTCONT.3870355",
      "street": "R MANUEL DE SOUSA OLIVEIRA",
      "house": "",
      "postcode": "4795-476",
      "city": "SÃO MARTINHO CAMPO",
      "lon": "-8.361325231499569",
      "lat": "41.360767103221114"
    },
    {
      "id": "pt.ine.add.PTCONT.3870356",
      "street": "R MANUEL DE SOUSA OLIVEIRA",
      "house": "",
      "postcode": "4795-476",
      "city": "SÃO MARTINHO CAMPO",
      "lon": "-8.361325231499569",
      "lat": "41.360767103221114"
    },
    {
      "id": "pt.ine.add.PTCONT.3870357",
      "street": "R MANUEL DE SOUSA OLIVEIRA",
      "house": "",
      "postcode": "4795-476",
      "city": "SÃO MARTINHO CAMPO",
      "lon": "-8.361325231499569",
      "lat": "41.360767103221114"
    },
    {
      "id": "pt.ine.add.PTCONT.3870358",
      "street": "R MANUEL DE SOUSA OLIVEIRA",
      "house": "",
      "postcode": "4795-476",
      "city": "SÃO MARTINHO CAMPO",
      "lon": "-8.361325231499569",
      "lat": "41.360767103221114"
    },
    {
      "id": "pt.ine.add.PTCONT.3879122",
      "street": "R MANUEL DE SOUSA OLIVEIRA",
      "house": "808",
      "postcode": "4795-476",
      "city": "SÃO MARTINHO CAMPO",
      "lon": "-8.361314444365966",
      "lat": "41.361100274849754"
    },
    {
      "id": "pt.ine.add.PTCONT.3879123",
      "street": "R MANUEL DE SOUSA OLIVEIRA",
      "house": "",
      "postcode": "4795-476",
      "city": "SÃO MARTINHO CAMPO",
      "lon": "-8.361047720822143",
      "lat": "41.36001131204479"
    },
    {
      "id": "pt.ine.add.PTCONT.3879124",
      "street": "R MANUEL DE SOUSA OLIVEIRA",
      "house": "",
      "postcode": "4795-476",
      "city": "SÃO MARTINHO CAMPO",
      "lon": "-8.361047720822143",
      "lat": "41.36001131204479"
    },
    {
      "id": "pt.ine.add.PTCONT.3879125",
      "street": "R MANUEL DE SOUSA OLIVEIRA",
      "house": "",
      "postcode": "4795-476",
      "city": "SÃO MARTINHO CAMPO",
      "lon": "-8.361047720822143",
      "lat": "41.36001131204479"
    },
    {
      "id": "pt.ine.add.PTCONT.3879126",
      "street": "R MANUEL DE SOUSA OLIVEIRA",
      "house": "",
      "postcode": "4795-476",
      "city": "SÃO MARTINHO CAMPO",
      "lon": "-8.361047720822143",
      "lat": "41.36001131204479"
    },
    {
      "id": "pt.ine.add.PTCONT.3880700",
      "street": "R MANUEL DE SOUSA OLIVEIRA",
      "house": "",
      "postcode": "4795-476",
      "city": "SÃO MARTINHO CAMPO",
      "lon": "-8.361047720822143",
      "lat": "41.36001131204479"
    },
    {
      "id": "pt.ine.add.PTCONT.3903698",
      "street": "R JOSE NARCISO MARTINS DA COSTA",
      "house": "",
      "postcode": "4795-474",
      "city": "SÃO MARTINHO CAMPO",
      "lon": "-8.360938624931405",
      "lat": "41.359570329016925"
    },
    {
      "id": "pt.ine.add.PTCONT.3903699",
      "street": "R JOSE NARCISO MARTINS DA COSTA",
      "house": "",
      "postcode": "4795-474",
      "city": "SÃO MARTINHO CAMPO",
      "lon": "-8.360938624931405",
      "lat": "41.359570329016925"
    },
    {
      "id": "pt.ine.add.PTCONT.3903700",
      "street": "R JOSE NARCISO MARTINS DA COSTA",
      "house": "",
      "postcode": "4795-474",
      "city": "SÃO MARTINHO CAMPO",
      "lon": "-8.360938624931405",
      "lat": "41.359570329016925"
    },
    {
      "id": "pt.ine.add.PTCONT.3903701",
      "street": "R JOSE NARCISO MARTINS DA COSTA",
      "house": "",
      "postcode": "4795-474",
      "city": "SÃO MARTINHO CAMPO",
      "lon": "-8.360938624931405",
      "lat": "41.359570329016925"
    },
    {
      "id": "pt.ine.add.PTCONT.3954887",
      "street": "R MANUEL DE SOUSA OLIVEIRA",
      "house": "",
      "postcode": "4795-476",
      "city": "SÃO MARTINHO CAMPO",
      "lon": "-8.360975262250772",
      "lat": "41.35979535804339"
    },
    {
      "id": "pt.ine.add.PTCONT.3954888",
      "street": "R MANUEL DE SOUSA OLIVEIRA",
      "house": "",
      "postcode": "4795-476",
      "city": "SÃO MARTINHO CAMPO",
      "lon": "-8.360975262250772",
      "lat": "41.35979535804339"
    },
    {
      "id": "pt.ine.add.PTCONT.3954889",
      "street": "R MANUEL DE SOUSA OLIVEIRA",
      "house": "",
      "postcode": "4795-476",
      "city": "SÃO MARTINHO CAMPO",
      "lon": "-8.360975262250772",
      "lat": "41.35979535804339"
    },
    {
      "id": "pt.ine.add.PTCONT.3954890",
      "street": "R MANUEL SOUSA OLIVEIRA",
      "house": "886",
      "postcode": "4795-476",
      "city": "SÃO MARTINHO CAMPO",
      "lon": "-8.360975262250772",
      "lat": "41.35979535804339"
    },
    {
      "id": "pt.ine.add.PTCONT.3954891",
      "street": "R MANUEL DE SOUSA OLIVEIRA",
      "house": "",
      "postcode": "4795-476",
      "city": "SÃO MARTINHO CAMPO",
      "lon": "-8.360975262250772",
      "lat": "41.35979535804339"
    },
    {
      "id": "pt.ine.add.PTCONT.3954892",
      "street": "R MANUEL DE SOUSA OLIVEIRA",
      "house": "",
      "postcode": "4795-476",
      "city": "SÃO MARTINHO CAMPO",
      "lon": "-8.360975262250772",
      "lat": "41.35979535804339"
    },
    {
      "id": "pt.ine.add.PTCONT.4014870",
      "street": "R MANUEL DE SOUSA OLIVEIRA",
      "house": "",
      "postcode": "4795-476",
      "city": "SÃO MARTINHO CAMPO",
      "lon": "-8.361011460064775",
      "lat": "41.359894331051024"
    },
    {
      "id": "pt.ine.add.PTCONT.4014871",
      "street": "R MANUEL DE SOUSA OLIVEIRA",
      "house": "",
      "postcode": "4795-476",
      "city": "SÃO MARTINHO CAMPO",
      "lon": "-8.361011460064775",
      "lat": "41.359894331051024"
    },
    {
      "id": "pt.ine.add.PTCONT.4014872",
      "street": "R MANUEL DE SOUSA OLIVEIRA",
      "house": "",
      "postcode": "4795-476",
      "city": "SÃO MARTINHO CAMPO",
      "lon": "-8.361011460064775",
      "lat": "41.359894331051024"
    },
    {
      "id": "pt.ine.add.PTCONT.4014873",
      "street": "R MANUEL DE SOUSA OLIVEIRA",
      "house": "",
      "postcode": "4795-476",
      "city": "SÃO MARTINHO CAMPO",
      "lon": "-8.361011460064775",
      "lat": "41.359894331051024"
    },
    {
      "id": "pt.ine.add.PTCONT.4014874",
      "street": "R MANUEL DE SOUSA OLIVEIRA",
      "house": "",
      "postcode": "4795-476",
      "city": "SÃO MARTINHO CAMPO",
      "lon": "-8.361011460064775",
      "lat": "41.359894331051024"
    },
    {
      "id": "pt.ine.add.PTCONT.4016284",
      "street": "R MANUEL DE SOUSA OLIVEIRA",
      "house": "",
      "postcode": "4795-476",
      "city": "SÃO MARTINHO CAMPO",
      "lon": "-8.361011460064775",
      "lat": "41.359894331051024"
    },
    {
      "id": "pt.ine.add.PTCONT.4047696",
      "street": "R MANUEL DE SOUSA OLIVEIRA",
      "house": "",
      "postcode": "4795-476",
      "city": "SÃO MARTINHO CAMPO",
      "lon": "-8.361156378151223",
      "lat": "41.3603262389447"
    },
    {
      "id": "pt.ine.add.PTCONT.4047697",
      "street": "R MANUEL DE SOUSA OLIVEIRA",
      "house": "",
      "postcode": "4795-476",
      "city": "SÃO MARTINHO CAMPO",
      "lon": "-8.361156378151223",
      "lat": "41.3603262389447"
    },
    {
      "id": "pt.ine.add.PTCONT.4047698",
      "street": "R MANUEL DE SOUSA OLIVEIRA",
      "house": "",
      "postcode": "4795-476",
      "city": "SÃO MARTINHO CAMPO",
      "lon": "-8.361156378151223",
      "lat": "41.3603262389447"
    },
    {
      "id": "pt.ine.add.PTCONT.4047699",
      "street": "R MANUEL DE SOUSA OLIVEIRA",
      "house": "",
      "postcode": "4795-476",
      "city": "SÃO MARTINHO CAMPO",
      "lon": "-8.361156378151223",
      "lat": "41.3603262389447"
    },
    {
      "id": "pt.ine.add.PTCONT.4047710",
      "street": "R MANUEL DE SOUSA OLIVEIRA",
      "house": "",
      "postcode": "4795-476",
      "city": "SÃO MARTINHO CAMPO",
      "lon": "-8.361156378151223",
      "lat": "41.3603262389447"
    },
    {
      "id": "pt.ine.add.PTCONT.4048692",
      "street": "R MANUEL DE SOUSA OLIVEIRA",
      "house": "",
      "postcode": "4795-476",
      "city": "SÃO MARTINHO CAMPO",
      "lon": "-8.361156378151223",
      "lat": "41.3603262389447"
    },
    {
      "id": "pt.ine.add.PTCONT.4111285",
      "street": "R JULIO MARIA MARTINS DA COSTA",
      "house": "7",
      "postcode": "4795-475",
      "city": "SÃO MARTINHO CAMPO",
      "lon": "-8.361124925480215",
      "lat": "41.36158686973061"
    },
    {
      "id": "pt.ine.add.PTCONT.4218274",
      "street": "R JULIO MARIA MARTINS DA COSTA",
      "house": "123",
      "postcode": "4795-475",
      "city": "SÃO MARTINHO CAMPO",
      "lon": "-8.362282664973176",
      "lat": "41.361152375213685"
    },
    {
      "id": "pt.ine.add.PTCONT.4224531",
      "street": "R MANUEL DE SOUSA OLIVEIRA",
      "house": "",
      "postcode": "4795-476",
      "city": "SÃO MARTINHO CAMPO",
      "lon": "-8.361361493309891",
      "lat": "41.36088408409556"
    },
    {
      "id": "pt.ine.add.PTCONT.4224532",
      "street": "R MANUEL DE SOUSA OLIVEIRA",
      "house": "",
      "postcode": "4795-476",
      "city": "SÃO MARTINHO CAMPO",
      "lon": "-8.361361493309891",
      "lat": "41.36088408409556"
    },
    {
      "id": "pt.ine.add.PTCONT.4224533",
      "street": "R MANUEL DE SOUSA OLIVEIRA",
      "house": "",
      "postcode": "4795-476",
      "city": "SÃO MARTINHO CAMPO",
      "lon": "-8.361361493309891",
      "lat": "41.36088408409556"
    },
    {
      "id": "pt.ine.add.PTCONT.4224534",
      "street": "R MANUEL DE SOUSA OLIVEIRA",
      "house": "",
      "postcode": "4795-476",
      "city": "SÃO MARTINHO CAMPO",
      "lon": "-8.361361493309891",
      "lat": "41.36088408409556"
    },
    {
      "id": "pt.ine.add.PTCONT.4224535",
      "street": "R MANUEL DE SOUSA OLIVEIRA",
      "house": "",
      "postcode": "4795-476",
      "city": "SÃO MARTINHO CAMPO",
      "lon": "-8.361361493309891",
      "lat": "41.36088408409556"
    },
    {
      "id": "pt.ine.add.PTCONT.4224536",
      "street": "R MANUEL DE SOUSA OLIVEIRA",
      "house": "",
      "postcode": "4795-476",
      "city": "SÃO MARTINHO CAMPO",
      "lon": "-8.361361493309891",
      "lat": "41.36088408409556"
    },
    {
      "id": "pt.ine.add.PTCONT.4248580",
      "street": "R MANUEL DE SOUSA OLIVEIRA",
      "house": "764",
      "postcode": "4795-476",
      "city": "SÃO MARTINHO CAMPO",
      "lon": "-8.361255475519243",
      "lat": "41.361325493267614"
    },
    {
      "id": "pt.ine.add.PTCONT.4273599",
      "street": "R MANUEL DE SOUSA OLIVEIRA",
      "house": "",
      "postcode": "4795-476",
      "city": "SÃO MARTINHO CAMPO",
      "lon": "-8.36112017987559",
      "lat": "41.36022726599123"
    },
    {
      "id": "pt.ine.add.PTCONT.4273600",
      "street": "R MANUEL DE SOUSA OLIVEIRA",
      "house": "",
      "postcode": "4795-476",
      "city": "SÃO MARTINHO CAMPO",
      "lon": "-8.36112017987559",
      "lat": "41.36022726599123"
    },
    {
      "id": "pt.ine.add.PTCONT.4273601",
      "street": "R MANUEL DE SOUSA OLIVEIRA",
      "house": "",
      "postcode": "4795-476",
      "city": "SÃO MARTINHO CAMPO",
      "lon": "-8.36112017987559",
      "lat": "41.36022726599123"
    },
    {
      "id": "pt.ine.add.PTCONT.4273602",
      "street": "R MANUEL DE SOUSA OLIVEIRA",
      "house": "",
      "postcode": "4795-476",
      "city": "SÃO MARTINHO CAMPO",
      "lon": "-8.36112017987559",
      "lat": "41.36022726599123"
    },
    {
      "id": "pt.ine.add.PTCONT.4273603",
      "street": "R MANUEL DE SOUSA OLIVEIRA",
      "house": "",
      "postcode": "4795-476",
      "city": "SÃO MARTINHO CAMPO",
      "lon": "-8.36112017987559",
      "lat": "41.36022726599123"
    },
    {
      "id": "pt.ine.add.PTCONT.4278386",
      "street": "R MANUEL DE SOUSA OLIVEIRA",
      "house": "",
      "postcode": "4795-476",
      "city": "SÃO MARTINHO CAMPO",
      "lon": "-8.36112017987559",
      "lat": "41.36022726599123"
    },
    {
      "id": "pt.ine.add.PTCONT.4337116",
      "street": "R MANUEL SOUSA OLIVEIRA",
      "house": "876",
      "postcode": "4795-476",
      "city": "SÃO MARTINHO CAMPO",
      "lon": "-8.361204653169878",
      "lat": "41.36046120419479"
    },
    {
      "id": "pt.ine.add.PTCONT.4337117",
      "street": "R MANUEL DE SOUSA OLIVEIRA",
      "house": "",
      "postcode": "4795-476",
      "city": "SÃO MARTINHO CAMPO",
      "lon": "-8.361204653169878",
      "lat": "41.36046120419479"
    },
    {
      "id": "pt.ine.add.PTCONT.4337118",
      "street": "R MANUEL DE SOUSA OLIVEIRA",
      "house": "",
      "postcode": "4795-476",
      "city": "SÃO MARTINHO CAMPO",
      "lon": "-8.361204653169878",
      "lat": "41.36046120419479"
    },
    {
      "id": "pt.ine.add.PTCONT.4337119",
      "street": "R MANUEL DE SOUSA OLIVEIRA",
      "house": "",
      "postcode": "4795-476",
      "city": "SÃO MARTINHO CAMPO",
      "lon": "-8.361204653169878",
      "lat": "41.36046120419479"
    },
    {
      "id": "pt.ine.add.PTCONT.4337120",
      "street": "R MANUEL DE SOUSA OLIVEIRA",
      "house": "",
      "postcode": "4795-476",
      "city": "SÃO MARTINHO CAMPO",
      "lon": "-8.361204653169878",
      "lat": "41.36046120419479"
    },
    {
      "id": "pt.ine.add.PTCONT.4337121",
      "street": "R MANUEL DE SOUSA OLIVEIRA",
      "house": "",
      "postcode": "4795-476",
      "city": "SÃO MARTINHO CAMPO",
      "lon": "-8.361204653169878",
      "lat": "41.36046120419479"
    },
    {
      "id": "pt.ine.add.PTCONT.4376423",
      "street": "R MANUEL DE SOUSA OLIVEIRA",
      "house": "",
      "postcode": "4795-476",
      "city": "SÃO MARTINHO CAMPO",
      "lon": "-8.361047720822143",
      "lat": "41.36001131204479"
    }
  ]
}