{
  "data": {
    "distrito": "Castelo Branco",
    "concelho": "Idanha-A-Nova",
    "freguesia": "União das freguesias de Idanha-a-Nova e Alcafozes",
    "OBJECTID": 491,
    "BGRI2021": "05051800303",
    "DT21": "05",
    "DTMN21": "0505",
    "DTMNFR21": "050518",
    "DTMNFRSEC21": "050518003",
    "SECNUM21": "003",
    "SSNUM21": "03",
    "SECSSNUM21": "00303",
    "OBJECTID_1": 44261,
    "DT": "05",
    "CC": "05",
    "fr": "18",
    "SEC": "003",
    "SS": "03"
  },
  "addresses": [
    {
      "id": "pt.ine.add.PTCONT.958985",
      "street": "QTA DA FONTE INSONSA",
      "house": "",
      "postcode": "6060-716",
      "city": "IDANHA-A-NOVA",
      "lon": "-7.242434822402194",
      "lat": "39.87599707151903"
    },
    {
      "id": "pt.ine.add.PTCONT.958986",
      "street": "QTA DA FONTE INSONSA",
      "house": "",
      "postcode": "6060-716",
      "city": "IDANHA-A-NOVA",
      "lon": "-7.242434822402194",
      "lat": "39.87599707151903"
    },
    {
      "id": "pt.ine.add.PTCONT.961241",
      "street": "QTA DAS JARDAS",
      "house": "",
      "postcode": "6060-716",
      "city": "IDANHA-A-NOVA",
      "lon": "-7.249410854056177",
      "lat": "39.87344764254876"
    },
    {
      "id": "pt.ine.add.PTCONT.965596",
      "street": "QTA DO MONTE CABELUDO",
      "house": "",
      "postcode": "6060-716",
      "city": "IDANHA-A-NOVA",
      "lon": "-7.233940164460469",
      "lat": "39.85515420248878"
    },
    {
      "id": "pt.ine.add.PTCONT.968931",
      "street": "QTA DA RABAÇA",
      "house": "",
      "postcode": "6060-716",
      "city": "IDANHA-A-NOVA",
      "lon": "-7.221042168866123",
      "lat": "39.885827670788714"
    },
    {
      "id": "pt.ine.add.PTCONT.977235",
      "street": "QTA DE AVELAR",
      "house": "",
      "postcode": "6060-716",
      "city": "IDANHA-A-NOVA",
      "lon": "-7.228894806133324",
      "lat": "39.88164725226922"
    },
    {
      "id": "pt.ine.add.PTCONT.978923",
      "street": "QTA DE VAL CAVA",
      "house": "",
      "postcode": "6060-716",
      "city": "IDANHA-A-NOVA",
      "lon": "-7.2301044730583754",
      "lat": "39.87319986624339"
    },
    {
      "id": "pt.ine.add.PTCONT.990389",
      "street": "QTA DE VAL CAVA",
      "house": "",
      "postcode": "6060-716",
      "city": "IDANHA-A-NOVA",
      "lon": "-7.230049224890314",
      "lat": "39.87295626881252"
    },
    {
      "id": "pt.ine.add.PTCONT.992013",
      "street": "QTA DA PRESA",
      "house": "",
      "postcode": "6060-716",
      "city": "IDANHA-A-NOVA",
      "lon": "-7.212141165553902",
      "lat": "39.88877439231509"
    },
    {
      "id": "pt.ine.add.PTCONT.1002695",
      "street": "QTA DO RIBEIRO FREIXO",
      "house": "",
      "postcode": "6060-716",
      "city": "IDANHA-A-NOVA",
      "lon": "-7.238058321786364",
      "lat": "39.89434499328198"
    },
    {
      "id": "pt.ine.add.PTCONT.1003409",
      "street": "QTA DO RIBEIRO FREIXO",
      "house": "",
      "postcode": "6060-716",
      "city": "IDANHA-A-NOVA",
      "lon": "-7.23838438205848",
      "lat": "39.89444657725076"
    },
    {
      "id": "pt.ine.add.PTCONT.1008137",
      "street": "QTA DO MONTE CABELUDO",
      "house": "",
      "postcode": "6060-716",
      "city": "IDANHA-A-NOVA",
      "lon": "-7.23410515532991",
      "lat": "39.85504740666186"
    },
    {
      "id": "pt.ine.add.PTCONT.1012818",
      "street": "QTA DA FONTE INSONSA",
      "house": "",
      "postcode": "6060-716",
      "city": "IDANHA-A-NOVA",
      "lon": "-7.24193783718033",
      "lat": "39.87556095639604"
    },
    {
      "id": "pt.ine.add.PTCONT.1031251",
      "street": "QTA DE VAL CAVA",
      "house": "",
      "postcode": "6060-716",
      "city": "IDANHA-A-NOVA",
      "lon": "-7.230059376914096",
      "lat": "39.87307342839587"
    },
    {
      "id": "pt.ine.add.PTCONT.1032157",
      "street": "QTA DO RIBEIRO FREIXO",
      "house": "",
      "postcode": "6060-716",
      "city": "IDANHA-A-NOVA",
      "lon": "-7.238129522088515",
      "lat": "39.89426448729995"
    },
    {
      "id": "pt.ine.add.PTCONT.1044923",
      "street": "QTA DA FONTE INSONSA",
      "house": "",
      "postcode": "6060-716",
      "city": "IDANHA-A-NOVA",
      "lon": "-7.24159562502664",
      "lat": "39.87581049988222"
    },
    {
      "id": "pt.ine.add.PTCONT.1058549",
      "street": "QTA DA PRESA",
      "house": "",
      "postcode": "6060-716",
      "city": "IDANHA-A-NOVA",
      "lon": "-7.209875334985917",
      "lat": "39.88947686913315"
    },
    {
      "id": "pt.ine.add.PTCONT.1065501",
      "street": "QTA DA RABAÇA",
      "house": "",
      "postcode": "6060-716",
      "city": "IDANHA-A-NOVA",
      "lon": "-7.221710379100887",
      "lat": "39.885688825275366"
    },
    {
      "id": "pt.ine.add.PTCONT.1074683",
      "street": "QTA DO RIBEIRO FREIXO",
      "house": "",
      "postcode": "6060-716",
      "city": "IDANHA-A-NOVA",
      "lon": "-7.238330142839707",
      "lat": "39.894121936765316"
    },
    {
      "id": "pt.ine.add.PTCONT.1084724",
      "street": "QTA DA RABAÇA",
      "house": "",
      "postcode": "6060-716",
      "city": "IDANHA-A-NOVA",
      "lon": "-7.227611993095163",
      "lat": "39.87874625876304"
    },
    {
      "id": "pt.ine.add.PTCONT.1093904",
      "street": "QTA DO FEIJOAL 3 BICOS",
      "house": "",
      "postcode": "6060-716",
      "city": "IDANHA-A-NOVA",
      "lon": "-7.229561177657499",
      "lat": "39.90212346183516"
    },
    {
      "id": "pt.ine.add.PTCONT.1095012",
      "street": "QTA DA RABAÇA",
      "house": "",
      "postcode": "6060-716",
      "city": "IDANHA-A-NOVA",
      "lon": "-7.227030975907111",
      "lat": "39.88825224489145"
    },
    {
      "id": "pt.ine.add.PTCONT.1095367",
      "street": "QTA DE AVELAR",
      "house": "",
      "postcode": "6060-716",
      "city": "IDANHA-A-NOVA",
      "lon": "-7.229021038026565",
      "lat": "39.8809367479905"
    }
  ]
}