{
  "data": {
    "distrito": "Setúbal",
    "concelho": "Setúbal",
    "freguesia": "Setúbal (São Sebastião)",
    "OBJECTID": 1182,
    "BGRI2021": "15120501705",
    "DT21": "15",
    "DTMN21": "1512",
    "DTMNFR21": "151205",
    "DTMNFRSEC21": "151205017",
    "SECNUM21": "017",
    "SSNUM21": "05",
    "SECSSNUM21": "01705",
    "OBJECTID_1": 170944,
    "DT": "15",
    "CC": "12",
    "fr": "05",
    "SEC": "017",
    "SS": "05"
  },
  "addresses": [
    {
      "id": "pt.ine.add.PTCONT.4690639",
      "street": "R JACINTO JOÃO",
      "house": "7A",
      "postcode": "2910-301",
      "city": "SETÚBAL",
      "lon": "-8.842723762818482",
      "lat": "38.55496893323648"
    },
    {
      "id": "pt.ine.add.PTCONT.4778899",
      "street": "ESTR ALGERUZ",
      "house": "",
      "postcode": "2910-279",
      "city": "SETÚBAL",
      "lon": "-8.845141202540177",
      "lat": "38.55581004136715"
    },
    {
      "id": "pt.ine.add.PTCONT.4785416",
      "street": "ESTR ALGERUZ QTA DA NORA",
      "house": "",
      "postcode": "2910-279",
      "city": "SETÚBAL",
      "lon": "-8.843980091576002",
      "lat": "38.55556486601614"
    },
    {
      "id": "pt.ine.add.PTCONT.4785417",
      "street": "ESTR ALGERUZ",
      "house": "",
      "postcode": "2910-279",
      "city": "SETÚBAL",
      "lon": "-8.844514655345495",
      "lat": "38.55393111921913"
    },
    {
      "id": "pt.ine.add.PTCONT.4791908",
      "street": "ESTR ALGERUZ",
      "house": "6",
      "postcode": "2910-279",
      "city": "SETÚBAL",
      "lon": "-8.844353969015202",
      "lat": "38.5539230873062"
    },
    {
      "id": "pt.ine.add.PTCONT.4805941",
      "street": "ESTR ALGERUZ",
      "house": "",
      "postcode": "2910-279",
      "city": "SETÚBAL",
      "lon": "-8.844525435637655",
      "lat": "38.55269691846106"
    },
    {
      "id": "pt.ine.add.PTCONT.4809495",
      "street": "ESTR ALGERUZ",
      "house": "",
      "postcode": "2910-288",
      "city": "SETÚBAL",
      "lon": "-8.843112946927503",
      "lat": "38.55371442178293"
    },
    {
      "id": "pt.ine.add.PTCONT.4809531",
      "street": "ESTR ALGERUZ",
      "house": "",
      "postcode": "2910-279",
      "city": "SETÚBAL",
      "lon": "-8.844481464760802",
      "lat": "38.555219505605756"
    },
    {
      "id": "pt.ine.add.PTCONT.4823808",
      "street": "ESTR ALGERUZ",
      "house": "",
      "postcode": "2910-279",
      "city": "SETÚBAL",
      "lon": "-8.851805988217917",
      "lat": "38.55575129722055"
    },
    {
      "id": "pt.ine.add.PTCONT.4831486",
      "street": "ESTR ALGERUZ",
      "house": "",
      "postcode": "2910-279",
      "city": "SETÚBAL",
      "lon": "-8.844445582037446",
      "lat": "38.552742445139934"
    },
    {
      "id": "pt.ine.add.PTCONT.4835085",
      "street": "ESTR ALGERUZ",
      "house": "1",
      "postcode": "2910-279",
      "city": "SETÚBAL",
      "lon": "-8.844730833145807",
      "lat": "38.55374963960591"
    },
    {
      "id": "pt.ine.add.PTCONT.4835086",
      "street": "ESTR ALGERUZ",
      "house": "1",
      "postcode": "2910-279",
      "city": "SETÚBAL",
      "lon": "-8.844730833145807",
      "lat": "38.55374963960591"
    },
    {
      "id": "pt.ine.add.PTCONT.4835662",
      "street": "ESTR ALGERUZ",
      "house": "",
      "postcode": "2910-279",
      "city": "SETÚBAL",
      "lon": "-8.844980867324624",
      "lat": "38.55583804132667"
    },
    {
      "id": "pt.ine.add.PTCONT.4837963",
      "street": "R SILVERIO JONES",
      "house": "4",
      "postcode": "2910-301",
      "city": "SETÚBAL",
      "lon": "-8.842124948211346",
      "lat": "38.55473834612536"
    },
    {
      "id": "pt.ine.add.PTCONT.4848473",
      "street": "CSL STO ANTONIO",
      "house": "",
      "postcode": "2910-288",
      "city": "SETÚBAL",
      "lon": "-8.842897296556858",
      "lat": "38.55394994494281"
    },
    {
      "id": "pt.ine.add.PTCONT.4848475",
      "street": "ESTR ALGERUZ QTA DO LEITEIRO",
      "house": "",
      "postcode": "2910-279",
      "city": "SETÚBAL",
      "lon": "-8.845044742569247",
      "lat": "38.553009051532015"
    },
    {
      "id": "pt.ine.add.PTCONT.4849882",
      "street": "ESTR ALGERUZ QTA DO LEITEIRO",
      "house": "",
      "postcode": "2910-279",
      "city": "SETÚBAL",
      "lon": "-8.845044742569247",
      "lat": "38.553009051532015"
    },
    {
      "id": "pt.ine.add.PTCONT.4857198",
      "street": "ESTR ALGERUZ",
      "house": "",
      "postcode": "2910-288",
      "city": "SETÚBAL",
      "lon": "-8.84311374432527",
      "lat": "38.5537954915245"
    },
    {
      "id": "pt.ine.add.PTCONT.4881214",
      "street": "R SILVERIO JONES",
      "house": "",
      "postcode": "2910-301",
      "city": "SETÚBAL",
      "lon": "-8.842173753803218",
      "lat": "38.55503532392921"
    },
    {
      "id": "pt.ine.add.PTCONT.4888250",
      "street": "ESTR ALGERUZ QUIN TITA BARATA",
      "house": "",
      "postcode": "2910-279",
      "city": "SETÚBAL",
      "lon": "-8.845944647981488",
      "lat": "38.553526055939194"
    },
    {
      "id": "pt.ine.add.PTCONT.4911709",
      "street": "R JACINTO JOÃO",
      "house": "7B",
      "postcode": "2910-301",
      "city": "SETÚBAL",
      "lon": "-8.842770268441976",
      "lat": "38.555031709316786"
    },
    {
      "id": "pt.ine.add.PTCONT.4911710",
      "street": "ESTR ALGERUZ",
      "house": "",
      "postcode": "2910-288",
      "city": "SETÚBAL",
      "lon": "-8.843659930275182",
      "lat": "38.55334176332184"
    },
    {
      "id": "pt.ine.add.PTCONT.4916287",
      "street": "R FERNANDO CASACA",
      "house": "16B",
      "postcode": "2910-301",
      "city": "SETÚBAL",
      "lon": "-8.84247741115966",
      "lat": "38.55558298962576"
    },
    {
      "id": "pt.ine.add.PTCONT.4921540",
      "street": "R JACINTO JOÃO",
      "house": "1A",
      "postcode": "2910-301",
      "city": "SETÚBAL",
      "lon": "-8.842572775041825",
      "lat": "38.55478067439783"
    },
    {
      "id": "pt.ine.add.PTCONT.4962949",
      "street": "R FERNANDO CASACA",
      "house": "16",
      "postcode": "2910-301",
      "city": "SETÚBAL",
      "lon": "-8.84260404061677",
      "lat": "38.555627263649306"
    },
    {
      "id": "pt.ine.add.PTCONT.4977497",
      "street": "ESTR ALGERUZ",
      "house": "",
      "postcode": "2910-288",
      "city": "SETÚBAL",
      "lon": "-8.843204096443221",
      "lat": "38.553650810923266"
    },
    {
      "id": "pt.ine.add.PTCONT.4984573",
      "street": "ESTR ALGERUZ",
      "house": "4",
      "postcode": "2910-279",
      "city": "SETÚBAL",
      "lon": "-8.844469391711884",
      "lat": "38.55399445227381"
    },
    {
      "id": "pt.ine.add.PTCONT.4988228",
      "street": "ESTR ALGERUZ",
      "house": "",
      "postcode": "2910-288",
      "city": "SETÚBAL",
      "lon": "-8.843397866185132",
      "lat": "38.55352351939395"
    },
    {
      "id": "pt.ine.add.PTCONT.4989234",
      "street": "R FERNANDO CASACA",
      "house": "6 E 6A",
      "postcode": "2910-301",
      "city": "SETÚBAL",
      "lon": "-8.842189472708682",
      "lat": "38.55546762637718"
    },
    {
      "id": "pt.ine.add.PTCONT.4989332",
      "street": "ESTR ALGERUZ",
      "house": "",
      "postcode": "2910-288",
      "city": "SETÚBAL",
      "lon": "-8.843397866185132",
      "lat": "38.55352351939395"
    },
    {
      "id": "pt.ine.add.PTCONT.4993761",
      "street": "ESTR ALGERUZ",
      "house": "5",
      "postcode": "2910-279",
      "city": "SETÚBAL",
      "lon": "-8.844470101870925",
      "lat": "38.554066514241725"
    },
    {
      "id": "pt.ine.add.PTCONT.5006234",
      "street": "ESTR ALGERUZ",
      "house": "",
      "postcode": "2910-279",
      "city": "SETÚBAL",
      "lon": "-8.84457139014516",
      "lat": "38.55386771643181"
    },
    {
      "id": "pt.ine.add.PTCONT.5021326",
      "street": "ESTR ALGERUZ",
      "house": "",
      "postcode": "2910-288",
      "city": "SETÚBAL",
      "lon": "-8.843466161485097",
      "lat": "38.553469055279784"
    },
    {
      "id": "pt.ine.add.PTCONT.5046851",
      "street": "R FERNANDO CASACA",
      "house": "8",
      "postcode": "2910-301",
      "city": "SETÚBAL",
      "lon": "-8.842292981761025",
      "lat": "38.55549402421294"
    },
    {
      "id": "pt.ine.add.PTCONT.5061579",
      "street": "ESTR ALGERUZ",
      "house": "7",
      "postcode": "2910-279",
      "city": "SETÚBAL",
      "lon": "-8.844307551502528",
      "lat": "38.553869319596174"
    },
    {
      "id": "pt.ine.add.PTCONT.5065178",
      "street": "R JACINTO JOÃO",
      "house": "6B",
      "postcode": "2910-301",
      "city": "SETÚBAL",
      "lon": "-8.842607809006275",
      "lat": "38.55484352006791"
    },
    {
      "id": "pt.ine.add.PTCONT.5068866",
      "street": "R SILVERIO JONES",
      "house": "2",
      "postcode": "2910-301",
      "city": "SETÚBAL",
      "lon": "-8.84174957593075",
      "lat": "38.555064917263614"
    },
    {
      "id": "pt.ine.add.PTCONT.5080417",
      "street": "R SILVERIO JONES",
      "house": "4B",
      "postcode": "2910-301",
      "city": "SETÚBAL",
      "lon": "-8.842204716999007",
      "lat": "38.554683813260375"
    },
    {
      "id": "pt.ine.add.PTCONT.5100669",
      "street": "R SILVERIO JONES",
      "house": "2B",
      "postcode": "2910-301",
      "city": "SETÚBAL",
      "lon": "-8.841818050813993",
      "lat": "38.55502846959873"
    },
    {
      "id": "pt.ine.add.PTCONT.5111321",
      "street": "ESTR ALCERUZ ESCOLA",
      "house": "",
      "postcode": "2910-301",
      "city": "SETÚBAL",
      "lon": "-8.842682353163912",
      "lat": "38.55425752970298"
    }
  ]
}