{
  "data": {
    "distrito": "Vila Real",
    "concelho": "Sabrosa",
    "freguesia": "Covas do Douro",
    "OBJECTID": 41,
    "BGRI2021": "17100200122",
    "DT21": "17",
    "DTMN21": "1710",
    "DTMNFR21": "171002",
    "DTMNFRSEC21": "171002001",
    "SECNUM21": "001",
    "SSNUM21": "22",
    "SECSSNUM21": "00122",
    "OBJECTID_1": 185241,
    "DT": "17",
    "CC": "10",
    "fr": "02",
    "SEC": "001",
    "SS": "22"
  },
  "addresses": [
    {
      "id": "pt.ine.add.PTCONT.5291795",
      "street": "R CAMILO CASTELO BRANCO",
      "house": "6",
      "postcode": "5085-205",
      "city": "COVAS DO DOURO",
      "lon": "-7.592741951999283",
      "lat": "41.18870888464828"
    },
    {
      "id": "pt.ine.add.PTCONT.5291796",
      "street": "R CAMILO CASTELO BRANCO",
      "house": "6A",
      "postcode": "5085-205",
      "city": "COVAS DO DOURO",
      "lon": "-7.592741951999283",
      "lat": "41.18870888464828"
    },
    {
      "id": "pt.ine.add.PTCONT.5302001",
      "street": "",
      "house": "",
      "postcode": "5085-205",
      "city": "COVAS DO DOURO",
      "lon": "-7.591873187801126",
      "lat": "41.18854272807381"
    },
    {
      "id": "pt.ine.add.PTCONT.5302002",
      "street": "R CRUZINHA",
      "house": "3",
      "postcode": "5085-205",
      "city": "COVAS DO DOURO",
      "lon": "-7.591043749909867",
      "lat": "41.187944544296705"
    },
    {
      "id": "pt.ine.add.PTCONT.5324753",
      "street": "R CAMILO CASTELO BRANCO",
      "house": "2",
      "postcode": "5085-205",
      "city": "COVAS DO DOURO",
      "lon": "-7.5930042476077375",
      "lat": "41.188701110727074"
    },
    {
      "id": "pt.ine.add.PTCONT.5328192",
      "street": "R CRUZINHA",
      "house": "5",
      "postcode": "5085-205",
      "city": "COVAS DO DOURO",
      "lon": "-7.591115635295818",
      "lat": "41.187899861177414"
    },
    {
      "id": "pt.ine.add.PTCONT.5332335",
      "street": "R CAMILO CASTELO BRANCO",
      "house": "14",
      "postcode": "5085-205",
      "city": "COVAS DO DOURO",
      "lon": "-7.5919563993151025",
      "lat": "41.188570131949085"
    },
    {
      "id": "pt.ine.add.PTCONT.5349437",
      "street": "R CRUZINHA",
      "house": "1",
      "postcode": "5085-205",
      "city": "COVAS DO DOURO",
      "lon": "-7.591161752218773",
      "lat": "41.188089168216734"
    },
    {
      "id": "pt.ine.add.PTCONT.5367715",
      "street": "",
      "house": "",
      "postcode": "5085-205",
      "city": "COVAS DO DOURO",
      "lon": "-7.592146364402498",
      "lat": "41.188661067244006"
    },
    {
      "id": "pt.ine.add.PTCONT.5368846",
      "street": "R JOÃO LOPES ROSEIRA",
      "house": "6",
      "postcode": "5085-205",
      "city": "COVAS DO DOURO",
      "lon": "-7.592527629231909",
      "lat": "41.18868086601095"
    },
    {
      "id": "pt.ine.add.PTCONT.5391606",
      "street": "R JOÃO LOPES ROSEIRA",
      "house": "8",
      "postcode": "5085-205",
      "city": "COVAS DO DOURO",
      "lon": "-7.592634679525324",
      "lat": "41.188708381287086"
    },
    {
      "id": "pt.ine.add.PTCONT.5405225",
      "street": "R JOÃO LOPES ROSEIRA",
      "house": "",
      "postcode": "5085-205",
      "city": "COVAS DO DOURO",
      "lon": "-7.592861143640202",
      "lat": "41.18870944382129"
    },
    {
      "id": "pt.ine.add.PTCONT.5421556",
      "street": "R CAMILO CASTELO BRANCO",
      "house": "N 8",
      "postcode": "5085-205",
      "city": "COVAS DO DOURO",
      "lon": "-7.592384080780726",
      "lat": "41.18874322214148"
    }
  ]
}