{
  "data": {
    "distrito": "Vila Real",
    "concelho": "Sabrosa",
    "freguesia": "Covas do Douro",
    "OBJECTID": 43,
    "BGRI2021": "17100200124",
    "DT21": "17",
    "DTMN21": "1710",
    "DTMNFR21": "171002",
    "DTMNFRSEC21": "171002001",
    "SECNUM21": "001",
    "SSNUM21": "24",
    "SECSSNUM21": "00124",
    "OBJECTID_1": 185002,
    "DT": "17",
    "CC": "10",
    "fr": "02",
    "SEC": "001",
    "SS": "24"
  },
  "addresses": [
    {
      "id": "pt.ine.add.PTCONT.5291755",
      "street": "R FERRARIA",
      "house": "",
      "postcode": "5085-205",
      "city": "COVAS DO DOURO",
      "lon": "-7.593164744592376",
      "lat": "41.18802654178952"
    },
    {
      "id": "pt.ine.add.PTCONT.5297857",
      "street": "R ADEGAS",
      "house": "",
      "postcode": "5085-205",
      "city": "COVAS DO DOURO",
      "lon": "-7.593922761941442",
      "lat": "41.188615371682204"
    },
    {
      "id": "pt.ine.add.PTCONT.5297858",
      "street": "BC COMBRO",
      "house": "6",
      "postcode": "5085-205",
      "city": "COVAS DO DOURO",
      "lon": "-7.5926626641164185",
      "lat": "41.188204272574424"
    },
    {
      "id": "pt.ine.add.PTCONT.5306152",
      "street": "R FERRARIA",
      "house": "",
      "postcode": "5085-205",
      "city": "COVAS DO DOURO",
      "lon": "-7.593103817771016",
      "lat": "41.18818833330152"
    },
    {
      "id": "pt.ine.add.PTCONT.5309605",
      "street": "R BRASIL",
      "house": "3",
      "postcode": "5085-205",
      "city": "COVAS DO DOURO",
      "lon": "-7.593377586687579",
      "lat": "41.18823463804235"
    },
    {
      "id": "pt.ine.add.PTCONT.5315685",
      "street": "",
      "house": "",
      "postcode": "5085-205",
      "city": "COVAS DO DOURO",
      "lon": "-7.592792885652568",
      "lat": "41.18831293501519"
    },
    {
      "id": "pt.ine.add.PTCONT.5327460",
      "street": "R ADEGAS",
      "house": "7",
      "postcode": "5085-205",
      "city": "COVAS DO DOURO",
      "lon": "-7.59420572069722",
      "lat": "41.188994876062786"
    },
    {
      "id": "pt.ine.add.PTCONT.5343562",
      "street": "R CLEMENTINA",
      "house": "",
      "postcode": "5085-205",
      "city": "COVAS DO DOURO",
      "lon": "-7.592805396906093",
      "lat": "41.188240959417016"
    },
    {
      "id": "pt.ine.add.PTCONT.5355462",
      "street": "R ADEGAS",
      "house": "3",
      "postcode": "5085-205",
      "city": "COVAS DO DOURO",
      "lon": "-7.593828443078798",
      "lat": "41.18848887006643"
    },
    {
      "id": "pt.ine.add.PTCONT.5360102",
      "street": "R SOUTO DA POCA",
      "house": "",
      "postcode": "5085-205",
      "city": "COVAS DO DOURO",
      "lon": "-7.59228592153369",
      "lat": "41.187635233977616"
    },
    {
      "id": "pt.ine.add.PTCONT.5370298",
      "street": "R FERRARIA",
      "house": "6",
      "postcode": "5085-205",
      "city": "COVAS DO DOURO",
      "lon": "-7.592901711628406",
      "lat": "41.188124355492526"
    },
    {
      "id": "pt.ine.add.PTCONT.5375234",
      "street": "R ADEGAS",
      "house": "9",
      "postcode": "5085-205",
      "city": "COVAS DO DOURO",
      "lon": "-7.593650321333926",
      "lat": "41.18840699730227"
    },
    {
      "id": "pt.ine.add.PTCONT.5382669",
      "street": "R SOUTO DA POCA",
      "house": "8",
      "postcode": "5085-205",
      "city": "COVAS DO DOURO",
      "lon": "-7.592818944381841",
      "lat": "41.18804292866063"
    },
    {
      "id": "pt.ine.add.PTCONT.5390240",
      "street": "R ADEGAS",
      "house": "13",
      "postcode": "5085-205",
      "city": "COVAS DO DOURO",
      "lon": "-7.5942410354012555",
      "lat": "41.18904906701639"
    },
    {
      "id": "pt.ine.add.PTCONT.5410375",
      "street": "BC COMBRO",
      "house": "4",
      "postcode": "5085-205",
      "city": "COVAS DO DOURO",
      "lon": "-7.592685761897133",
      "lat": "41.188294423826996"
    },
    {
      "id": "pt.ine.add.PTCONT.5415426",
      "street": "R ADEGAS",
      "house": "3",
      "postcode": "5085-205",
      "city": "COVAS DO DOURO",
      "lon": "-7.593971324873195",
      "lat": "41.18850754758866"
    },
    {
      "id": "pt.ine.add.PTCONT.5424352",
      "street": "R FERRARIA",
      "house": "1",
      "postcode": "5085-205",
      "city": "COVAS DO DOURO",
      "lon": "-7.593020532261006",
      "lat": "41.188169934193425"
    }
  ]
}