{
  "data": {
    "distrito": "Beja",
    "concelho": "Moura",
    "freguesia": "União das freguesias de Moura (Santo Agostinho e São João Baptista) e Santo Amador",
    "OBJECTID": 224,
    "BGRI2021": "02100900611",
    "DT21": "02",
    "DTMN21": "0210",
    "DTMNFR21": "021009",
    "DTMNFRSEC21": "021009006",
    "SECNUM21": "006",
    "SSNUM21": "11",
    "SECSSNUM21": "00611",
    "OBJECTID_1": 16838,
    "DT": "02",
    "CC": "10",
    "fr": "09",
    "SEC": "006",
    "SS": "11"
  },
  "addresses": [
    {
      "id": "pt.ine.add.PTCONT.364058",
      "street": "QTA DE S LOURENÇO",
      "house": "",
      "postcode": "7860-001",
      "city": "MOURA",
      "lon": "-7.444880449257844",
      "lat": "38.11813323580379"
    },
    {
      "id": "pt.ine.add.PTCONT.365652",
      "street": "ZN ZONA RURAL O CAMPINHO FAMILIA HENRIQUES",
      "house": "",
      "postcode": "7860-001",
      "city": "MOURA",
      "lon": "-7.442230689168657",
      "lat": "38.1269757697195"
    },
    {
      "id": "pt.ine.add.PTCONT.394556",
      "street": "ZN ZONA RURAL O CAMPINHO ESTRADA DE PIAS",
      "house": "",
      "postcode": "7860-001",
      "city": "MOURA",
      "lon": "-7.44533567888099",
      "lat": "38.12673944975067"
    },
    {
      "id": "pt.ine.add.PTCONT.409326",
      "street": "ZN ZONA RURAL O CAMPINHO FAMILIA CONSTANTINO",
      "house": "",
      "postcode": "7860-001",
      "city": "MOURA",
      "lon": "-7.442375461065324",
      "lat": "38.12748731635849"
    },
    {
      "id": "pt.ine.add.PTCONT.409327",
      "street": "MTE DE S LOURENÇO",
      "house": "",
      "postcode": "7860-001",
      "city": "MOURA",
      "lon": "-7.444706193355167",
      "lat": "38.11847455522893"
    },
    {
      "id": "pt.ine.add.PTCONT.416657",
      "street": "QTA DE S LOURENÇO",
      "house": "",
      "postcode": "7860-001",
      "city": "MOURA",
      "lon": "-7.446777570265363",
      "lat": "38.12012630440246"
    },
    {
      "id": "pt.ine.add.PTCONT.431868",
      "street": "ZN ZONA RURAL O CAMPINHO FAMILIA PAJOTE",
      "house": "",
      "postcode": "7860-001",
      "city": "MOURA",
      "lon": "-7.441795193613658",
      "lat": "38.126061015309425"
    },
    {
      "id": "pt.ine.add.PTCONT.449070",
      "street": "MTE DE S LOURENÇO CHARRUA",
      "house": "",
      "postcode": "7860-001",
      "city": "MOURA",
      "lon": "-7.445048617233831",
      "lat": "38.11844052536299"
    },
    {
      "id": "pt.ine.add.PTCONT.449725",
      "street": "ZN ZONA RURAL ROSSIO DE S LUIS",
      "house": "",
      "postcode": "7860-001",
      "city": "MOURA",
      "lon": "-7.4453654962878195",
      "lat": "38.127208089403965"
    }
  ]
}