{
  "data": {
    "distrito": "Beja",
    "concelho": "Moura",
    "freguesia": "União das freguesias de Moura (Santo Agostinho e São João Baptista) e Santo Amador",
    "OBJECTID": 225,
    "BGRI2021": "02100900612",
    "DT21": "02",
    "DTMN21": "0210",
    "DTMNFR21": "021009",
    "DTMNFRSEC21": "021009006",
    "SECNUM21": "006",
    "SSNUM21": "12",
    "SECSSNUM21": "00612",
    "OBJECTID_1": 16759,
    "DT": "02",
    "CC": "10",
    "fr": "09",
    "SEC": "006",
    "SS": "12"
  },
  "addresses": [
    {
      "id": "pt.ine.add.PTCONT.458131",
      "street": "R IRMA FLORINDA",
      "house": "88",
      "postcode": "7860-356",
      "city": "MOURA",
      "lon": "-7.4448841976155755",
      "lat": "38.12902653283991"
    },
    {
      "id": "pt.ine.add.PTCONT.358626",
      "street": "R IRMA FLORINDA",
      "house": "",
      "postcode": "7860-356",
      "city": "MOURA",
      "lon": "-7.444780312291759",
      "lat": "38.12879924480852"
    },
    {
      "id": "pt.ine.add.PTCONT.359054",
      "street": "R URBANIZAÇÃO MOURASOL",
      "house": "",
      "postcode": "7860-356",
      "city": "MOURA",
      "lon": "-7.444381457875228",
      "lat": "38.1285341685039"
    },
    {
      "id": "pt.ine.add.PTCONT.359984",
      "street": "R URBANIZAÇÃO MOURASOL",
      "house": "",
      "postcode": "7860-356",
      "city": "MOURA",
      "lon": "-7.444564043497062",
      "lat": "38.12908149596045"
    },
    {
      "id": "pt.ine.add.PTCONT.365688",
      "street": "R IRMA FLORINDA",
      "house": "",
      "postcode": "7860-356",
      "city": "MOURA",
      "lon": "-7.444635692706048",
      "lat": "38.128411012856134"
    },
    {
      "id": "pt.ine.add.PTCONT.365689",
      "street": "R URBANIZAÇÃO MOURASOL",
      "house": "",
      "postcode": "7860-356",
      "city": "MOURA",
      "lon": "-7.444518572894135",
      "lat": "38.12899475892084"
    },
    {
      "id": "pt.ine.add.PTCONT.367491",
      "street": "R IRMA FLORINDA",
      "house": "89",
      "postcode": "7860-356",
      "city": "MOURA",
      "lon": "-7.444859870467703",
      "lat": "38.12888648867201"
    },
    {
      "id": "pt.ine.add.PTCONT.367510",
      "street": "R IRMA FLORINDA",
      "house": "96",
      "postcode": "7860-356",
      "city": "MOURA",
      "lon": "-7.444632905879978",
      "lat": "38.12833530609937"
    },
    {
      "id": "pt.ine.add.PTCONT.368981",
      "street": "R URBANIZAÇÃO MOURASOL",
      "house": "",
      "postcode": "7860-356",
      "city": "MOURA",
      "lon": "-7.444404439764484",
      "lat": "38.12860485856507"
    },
    {
      "id": "pt.ine.add.PTCONT.373774",
      "street": "R URBANIZAÇÃO MOURASOL",
      "house": "",
      "postcode": "7860-356",
      "city": "MOURA",
      "lon": "-7.444696347750531",
      "lat": "38.129398785163104"
    },
    {
      "id": "pt.ine.add.PTCONT.381020",
      "street": "R URBANIZAÇÃO MOURASOL",
      "house": "",
      "postcode": "7860-356",
      "city": "MOURA",
      "lon": "-7.444641849192894",
      "lat": "38.12931075653928"
    },
    {
      "id": "pt.ine.add.PTCONT.384446",
      "street": "R IRMA FLORINDA",
      "house": "85",
      "postcode": "7860-356",
      "city": "MOURA",
      "lon": "-7.444952079980872",
      "lat": "38.129289511400636"
    },
    {
      "id": "pt.ine.add.PTCONT.385702",
      "street": "R IRMA FLORINDA",
      "house": "",
      "postcode": "7860-356",
      "city": "MOURA",
      "lon": "-7.44479478223456",
      "lat": "38.12871674733401"
    },
    {
      "id": "pt.ine.add.PTCONT.396967",
      "street": "R IRMA FLORINDA",
      "house": "",
      "postcode": "7860-356",
      "city": "MOURA",
      "lon": "-7.44469415406942",
      "lat": "38.128457488451865"
    },
    {
      "id": "pt.ine.add.PTCONT.401966",
      "street": "R IRMA FLORINDA",
      "house": "93",
      "postcode": "7860-356",
      "city": "MOURA",
      "lon": "-7.444722433436114",
      "lat": "38.128517660927415"
    },
    {
      "id": "pt.ine.add.PTCONT.402831",
      "street": "R URBANIZAÇÃO MOURASOL",
      "house": "",
      "postcode": "7860-356",
      "city": "MOURA",
      "lon": "-7.444464299332236",
      "lat": "38.128803931407724"
    },
    {
      "id": "pt.ine.add.PTCONT.406110",
      "street": "R URBANIZACAO MOURASOL",
      "house": "61",
      "postcode": "7860-356",
      "city": "MOURA",
      "lon": "-7.444573957562494",
      "lat": "38.1291117718574"
    },
    {
      "id": "pt.ine.add.PTCONT.406149",
      "street": "R URBANIZAÇÃO MOURASOL",
      "house": "",
      "postcode": "7860-356",
      "city": "MOURA",
      "lon": "-7.444446774919783",
      "lat": "38.12876841633109"
    },
    {
      "id": "pt.ine.add.PTCONT.414961",
      "street": "R URBANIZAÇÃO MOURASOL",
      "house": "",
      "postcode": "7860-356",
      "city": "MOURA",
      "lon": "-7.444442479973769",
      "lat": "38.128693497124374"
    },
    {
      "id": "pt.ine.add.PTCONT.422996",
      "street": "R URBANIZAÇÃO MOURASOL",
      "house": "",
      "postcode": "7860-356",
      "city": "MOURA",
      "lon": "-7.444634929900337",
      "lat": "38.129289605338066"
    },
    {
      "id": "pt.ine.add.PTCONT.425367",
      "street": "R IRMA FLORINDA",
      "house": "",
      "postcode": "7860-356",
      "city": "MOURA",
      "lon": "-7.444764518412274",
      "lat": "38.12863712645877"
    },
    {
      "id": "pt.ine.add.PTCONT.425368",
      "street": "R URBANIZAÇÃO MOURASOL",
      "house": "",
      "postcode": "7860-356",
      "city": "MOURA",
      "lon": "-7.444390530475469",
      "lat": "38.128569988092046"
    },
    {
      "id": "pt.ine.add.PTCONT.429408",
      "street": "R URBANIZAÇÃO MOURASOL",
      "house": "",
      "postcode": "7860-356",
      "city": "MOURA",
      "lon": "-7.444355702139714",
      "lat": "38.12847539271528"
    },
    {
      "id": "pt.ine.add.PTCONT.429409",
      "street": "R URBANIZAÇÃO MOURASOL",
      "house": "",
      "postcode": "7860-356",
      "city": "MOURA",
      "lon": "-7.444436229845361",
      "lat": "38.12873393495279"
    },
    {
      "id": "pt.ine.add.PTCONT.431846",
      "street": "R URBANIZAÇÃO MOURASOL",
      "house": "",
      "postcode": "7860-356",
      "city": "MOURA",
      "lon": "-7.444691325215997",
      "lat": "38.12934350119792"
    },
    {
      "id": "pt.ine.add.PTCONT.437773",
      "street": "URB MOURASOL",
      "house": "86",
      "postcode": "7860-356",
      "city": "MOURA",
      "lon": "-7.4449469478429915",
      "lat": "38.12923276194896"
    },
    {
      "id": "pt.ine.add.PTCONT.440251",
      "street": "R S LUIS",
      "house": "59",
      "postcode": "7860-356",
      "city": "MOURA",
      "lon": "-7.444496786183413",
      "lat": "38.12891203454171"
    },
    {
      "id": "pt.ine.add.PTCONT.442601",
      "street": "ROSSIO",
      "house": "17",
      "postcode": "7860-356",
      "city": "MOURA",
      "lon": "-7.44489352405815",
      "lat": "38.12910628687411"
    },
    {
      "id": "pt.ine.add.PTCONT.443432",
      "street": "R URBANIZAÇÃO MOURASOL",
      "house": "",
      "postcode": "7860-356",
      "city": "MOURA",
      "lon": "-7.444508200870922",
      "lat": "38.12895556869029"
    }
  ]
}