{
  "data": {
    "distrito": "Beja",
    "concelho": "Moura",
    "freguesia": "União das freguesias de Moura (Santo Agostinho e São João Baptista) e Santo Amador",
    "OBJECTID": 581,
    "BGRI2021": "02100900641",
    "DT21": "02",
    "DTMN21": "0210",
    "DTMNFR21": "021009",
    "DTMNFRSEC21": "021009006",
    "SECNUM21": "006",
    "SSNUM21": "41",
    "SECSSNUM21": "00641",
    "OBJECTID_1": 16361,
    "DT": "02",
    "CC": "10",
    "fr": "09",
    "SEC": "006",
    "SS": "41"
  },
  "addresses": [
    {
      "id": "pt.ine.add.PTCONT.355119",
      "street": "R IGREJA",
      "house": "27",
      "postcode": "7875-252",
      "city": "SANTO AMADOR",
      "lon": "-7.308466605711681",
      "lat": "38.13695732025641"
    },
    {
      "id": "pt.ine.add.PTCONT.362610",
      "street": "R IGREJA",
      "house": "33",
      "postcode": "7875-252",
      "city": "SANTO AMADOR",
      "lon": "-7.308716915859862",
      "lat": "38.13701313045023"
    },
    {
      "id": "pt.ine.add.PTCONT.368978",
      "street": "R IGREJA",
      "house": "25",
      "postcode": "7875-252",
      "city": "SANTO AMADOR",
      "lon": "-7.308392637178302",
      "lat": "38.13695022447072"
    },
    {
      "id": "pt.ine.add.PTCONT.401116",
      "street": "R IGREJA",
      "house": "17",
      "postcode": "7875-252",
      "city": "SANTO AMADOR",
      "lon": "-7.308045722643474",
      "lat": "38.13685526723772"
    },
    {
      "id": "pt.ine.add.PTCONT.406147",
      "street": "R IGREJA",
      "house": "35",
      "postcode": "7875-252",
      "city": "SANTO AMADOR",
      "lon": "-7.308808048870026",
      "lat": "38.13704008129666"
    },
    {
      "id": "pt.ine.add.PTCONT.407128",
      "street": "R IGREJA",
      "house": "23",
      "postcode": "7875-252",
      "city": "SANTO AMADOR",
      "lon": "-7.308307336074956",
      "lat": "38.13692016655755"
    },
    {
      "id": "pt.ine.add.PTCONT.415113",
      "street": "R IGREJA",
      "house": "13",
      "postcode": "7875-252",
      "city": "SANTO AMADOR",
      "lon": "-7.307806818917474",
      "lat": "38.136799535759486"
    },
    {
      "id": "pt.ine.add.PTCONT.418162",
      "street": "PC D MARIA GERTRUDES",
      "house": "1 A",
      "postcode": "7875-250",
      "city": "SANTO AMADOR",
      "lon": "-7.3088986927151325",
      "lat": "38.13707746810805"
    },
    {
      "id": "pt.ine.add.PTCONT.422176",
      "street": "R IGREJA",
      "house": "15",
      "postcode": "7875-252",
      "city": "SANTO AMADOR",
      "lon": "-7.307920568057882",
      "lat": "38.136827361497076"
    },
    {
      "id": "pt.ine.add.PTCONT.425364",
      "street": "PC D MARIA GERTRUDES",
      "house": "1",
      "postcode": "7875-250",
      "city": "SANTO AMADOR",
      "lon": "-7.309057963006887",
      "lat": "38.137114621011364"
    },
    {
      "id": "pt.ine.add.PTCONT.429364",
      "street": "R IGREJA",
      "house": "19",
      "postcode": "7875-252",
      "city": "SANTO AMADOR",
      "lon": "-7.308162090162444",
      "lat": "38.13687595989989"
    },
    {
      "id": "pt.ine.add.PTCONT.430220",
      "street": "R IGREJA",
      "house": "31",
      "postcode": "7875-252",
      "city": "SANTO AMADOR",
      "lon": "-7.308637382252452",
      "lat": "38.13698554564671"
    },
    {
      "id": "pt.ine.add.PTCONT.435619",
      "street": "R LADEIRA",
      "house": "1",
      "postcode": "7875-266",
      "city": "SANTO AMADOR",
      "lon": "-7.309138712485462",
      "lat": "38.137034107729036"
    },
    {
      "id": "pt.ine.add.PTCONT.453094",
      "street": "R IGREJA",
      "house": "29",
      "postcode": "7875-252",
      "city": "SANTO AMADOR",
      "lon": "-7.308569254080183",
      "lat": "38.136958040851624"
    }
  ]
}