{
  "data": {
    "distrito": "Aveiro",
    "concelho": "Oliveira de Azeméis",
    "freguesia": "União das freguesias de Pinheiro da Bemposta, Travanca e Palmaz",
    "OBJECTID": 1089,
    "BGRI2021": "01132200411",
    "DT21": "01",
    "DTMN21": "0113",
    "DTMNFR21": "011322",
    "DTMNFRSEC21": "011322004",
    "SECNUM21": "004",
    "SSNUM21": "11",
    "SECSSNUM21": "00411",
    "OBJECTID_1": 8465,
    "DT": "01",
    "CC": "13",
    "fr": "22",
    "SEC": "004",
    "SS": "11"
  },
  "addresses": [
    {
      "id": "pt.ine.add.PTCONT.299359",
      "street": "R VALA",
      "house": "300",
      "postcode": "3720-485",
      "city": "PINHEIRO DA BEMPOSTA",
      "lon": "-8.47520587121094",
      "lat": "40.78913163572518"
    },
    {
      "id": "pt.ine.add.PTCONT.314974",
      "street": "R VALA",
      "house": "448",
      "postcode": "3720-485",
      "city": "PINHEIRO DA BEMPOSTA",
      "lon": "-8.475329387740159",
      "lat": "40.79011280810681"
    },
    {
      "id": "pt.ine.add.PTCONT.314977",
      "street": "R DO SARGACAL",
      "house": "18",
      "postcode": "3720-485",
      "city": "PINHEIRO DA BEMPOSTA",
      "lon": "-8.472323707245232",
      "lat": "40.78851880316313"
    },
    {
      "id": "pt.ine.add.PTCONT.320355",
      "street": "R QUINTA DA VALA",
      "house": "245",
      "postcode": "3720-481",
      "city": "PINHEIRO DA BEMPOSTA",
      "lon": "-8.474529258425644",
      "lat": "40.78888150124635"
    },
    {
      "id": "pt.ine.add.PTCONT.329039",
      "street": "R QUINTA DA VALA",
      "house": "125",
      "postcode": "3720-481",
      "city": "PINHEIRO DA BEMPOSTA",
      "lon": "-8.47331151888476",
      "lat": "40.789389374590996"
    },
    {
      "id": "pt.ine.add.PTCONT.29594",
      "street": "R VALA",
      "house": "9",
      "postcode": "3720-481",
      "city": "PINHEIRO DA BEMPOSTA",
      "lon": "-8.473730747014706",
      "lat": "40.79027962706035"
    },
    {
      "id": "pt.ine.add.PTCONT.33417",
      "street": "R 15 DE AGOSTO",
      "house": "243",
      "postcode": "3720-485",
      "city": "PINHEIRO DA BEMPOSTA",
      "lon": "-8.472898544560119",
      "lat": "40.789723774237444"
    },
    {
      "id": "pt.ine.add.PTCONT.49601",
      "street": "R VALA",
      "house": "7",
      "postcode": "3720-481",
      "city": "PINHEIRO DA BEMPOSTA",
      "lon": "-8.473422884236205",
      "lat": "40.79031655517746"
    },
    {
      "id": "pt.ine.add.PTCONT.105948",
      "street": "R VALA",
      "house": "238",
      "postcode": "3720-485",
      "city": "PINHEIRO DA BEMPOSTA",
      "lon": "-8.47453018085651",
      "lat": "40.78906159737026"
    },
    {
      "id": "pt.ine.add.PTCONT.178079",
      "street": "R 15 DE AGOSTO",
      "house": "293",
      "postcode": "3720-485",
      "city": "PINHEIRO DA BEMPOSTA",
      "lon": "-8.472959666159309",
      "lat": "40.79009279683875"
    },
    {
      "id": "pt.ine.add.PTCONT.204530",
      "street": "R VALA",
      "house": "250",
      "postcode": "3720-485",
      "city": "PINHEIRO DA BEMPOSTA",
      "lon": "-8.474719790701945",
      "lat": "40.78907004114689"
    },
    {
      "id": "pt.ine.add.PTCONT.210167",
      "street": "R VALA",
      "house": "368",
      "postcode": "3720-485",
      "city": "PINHEIRO DA BEMPOSTA",
      "lon": "-8.475302409754569",
      "lat": "40.78947353728228"
    },
    {
      "id": "pt.ine.add.PTCONT.221221",
      "street": "R 15 DE AGOSTO",
      "house": "227",
      "postcode": "3720-485",
      "city": "PINHEIRO DA BEMPOSTA",
      "lon": "-8.472802889852645",
      "lat": "40.78955296197024"
    },
    {
      "id": "pt.ine.add.PTCONT.226534",
      "street": "R SARGAFAL",
      "house": "176",
      "postcode": "3720-485",
      "city": "PINHEIRO DA BEMPOSTA",
      "lon": "-8.47369403040349",
      "lat": "40.787731336646445"
    },
    {
      "id": "pt.ine.add.PTCONT.247281",
      "street": "R SARGAFAL",
      "house": "310",
      "postcode": "3720-485",
      "city": "PINHEIRO DA BEMPOSTA",
      "lon": "-8.474324390533742",
      "lat": "40.78820673646583"
    },
    {
      "id": "pt.ine.add.PTCONT.250855",
      "street": "R VALA",
      "house": "300",
      "postcode": "3720-485",
      "city": "PINHEIRO DA BEMPOSTA",
      "lon": "-8.475003905348746",
      "lat": "40.78902417499075"
    },
    {
      "id": "pt.ine.add.PTCONT.269852",
      "street": "R 15 DE AGOSTO",
      "house": "259",
      "postcode": "3720-485",
      "city": "PINHEIRO DA BEMPOSTA",
      "lon": "-8.472982397793068",
      "lat": "40.78990362612141"
    }
  ]
}