{
  "data": {
    "distrito": "Aveiro",
    "concelho": "Oliveira de Azeméis",
    "freguesia": "União das freguesias de Pinheiro da Bemposta, Travanca e Palmaz",
    "OBJECTID": 1009,
    "BGRI2021": "01132200412",
    "DT21": "01",
    "DTMN21": "0113",
    "DTMNFR21": "011322",
    "DTMNFRSEC21": "011322004",
    "SECNUM21": "004",
    "SSNUM21": "12",
    "SECSSNUM21": "00412",
    "OBJECTID_1": 9149,
    "DT": "01",
    "CC": "13",
    "fr": "22",
    "SEC": "004",
    "SS": "12"
  },
  "addresses": [
    {
      "id": "pt.ine.add.PTCONT.301830",
      "street": "R D MANUEL I",
      "house": "52",
      "postcode": "3720-461",
      "city": "PINHEIRO DA BEMPOSTA",
      "lon": "-8.479124132490785",
      "lat": "40.790758852228365"
    },
    {
      "id": "pt.ine.add.PTCONT.336297",
      "street": "R ENG CARLOS RIBEIRO",
      "house": "",
      "postcode": "3720-461",
      "city": "PINHEIRO DA BEMPOSTA",
      "lon": "-8.477485119126438",
      "lat": "40.79228558989649"
    },
    {
      "id": "pt.ine.add.PTCONT.22989",
      "street": "R D MANUEL I",
      "house": "184",
      "postcode": "3720-461",
      "city": "PINHEIRO DA BEMPOSTA",
      "lon": "-8.477813006215026",
      "lat": "40.79153720105699"
    },
    {
      "id": "pt.ine.add.PTCONT.28312",
      "street": "R DR LEOPOLDO SOARES DOS REIS",
      "house": "167",
      "postcode": "3720-461",
      "city": "PINHEIRO DA BEMPOSTA",
      "lon": "-8.478425192147277",
      "lat": "40.7907789558313"
    },
    {
      "id": "pt.ine.add.PTCONT.29475",
      "street": "R DR LEOPOLDO SOARES DOS REIS",
      "house": "34",
      "postcode": "3720-461",
      "city": "PINHEIRO DA BEMPOSTA",
      "lon": "-8.479393923795378",
      "lat": "40.790235756420685"
    },
    {
      "id": "pt.ine.add.PTCONT.41909",
      "street": "R PINHEIRO",
      "house": "",
      "postcode": "3720-461",
      "city": "PINHEIRO DA BEMPOSTA",
      "lon": "-8.479805041940304",
      "lat": "40.78955014647571"
    },
    {
      "id": "pt.ine.add.PTCONT.50320",
      "street": "R D MANUEL I",
      "house": "20",
      "postcode": "3720-461",
      "city": "PINHEIRO DA BEMPOSTA",
      "lon": "-8.479383245345755",
      "lat": "40.79046091196121"
    },
    {
      "id": "pt.ine.add.PTCONT.50868",
      "street": "R PINHEIRO",
      "house": "",
      "postcode": "3720-461",
      "city": "PINHEIRO DA BEMPOSTA",
      "lon": "-8.479594730168172",
      "lat": "40.790118089419586"
    },
    {
      "id": "pt.ine.add.PTCONT.55195",
      "street": "R DR LEOPOLDO SOARES DOS REIS",
      "house": "",
      "postcode": "3720-461",
      "city": "PINHEIRO DA BEMPOSTA",
      "lon": "-8.478248730598649",
      "lat": "40.79102261712124"
    },
    {
      "id": "pt.ine.add.PTCONT.60870",
      "street": "R D MANUEL I",
      "house": "198",
      "postcode": "3720-461",
      "city": "PINHEIRO DA BEMPOSTA",
      "lon": "-8.478347946104616",
      "lat": "40.79187778945787"
    },
    {
      "id": "pt.ine.add.PTCONT.71458",
      "street": "R DR LEOPOLDO SOARES DOS REIS",
      "house": "",
      "postcode": "3720-461",
      "city": "PINHEIRO DA BEMPOSTA",
      "lon": "-8.478542412468974",
      "lat": "40.79053547161954"
    },
    {
      "id": "pt.ine.add.PTCONT.90008",
      "street": "R PINHEIRO",
      "house": "222",
      "postcode": "3720-461",
      "city": "PINHEIRO DA BEMPOSTA",
      "lon": "-8.479663991787978",
      "lat": "40.78976668875273"
    },
    {
      "id": "pt.ine.add.PTCONT.109126",
      "street": "R ENG CARLOS RIBEIRO",
      "house": "265",
      "postcode": "3720-461",
      "city": "PINHEIRO DA BEMPOSTA",
      "lon": "-8.47723876894423",
      "lat": "40.79276358649215"
    },
    {
      "id": "pt.ine.add.PTCONT.136375",
      "street": "R D MANUEL I",
      "house": "240",
      "postcode": "3720-461",
      "city": "PINHEIRO DA BEMPOSTA",
      "lon": "-8.478112146816828",
      "lat": "40.792103618138206"
    },
    {
      "id": "pt.ine.add.PTCONT.154078",
      "street": "R D MANUEL I",
      "house": "",
      "postcode": "3720-461",
      "city": "PINHEIRO DA BEMPOSTA",
      "lon": "-8.479500976356867",
      "lat": "40.79031647957332"
    },
    {
      "id": "pt.ine.add.PTCONT.157256",
      "street": "R D MANUEL I",
      "house": "214",
      "postcode": "3720-461",
      "city": "PINHEIRO DA BEMPOSTA",
      "lon": "-8.47824191822152",
      "lat": "40.79199517082039"
    },
    {
      "id": "pt.ine.add.PTCONT.157693",
      "street": "R D MANUEL I",
      "house": "96",
      "postcode": "3720-461",
      "city": "PINHEIRO DA BEMPOSTA",
      "lon": "-8.478888526630595",
      "lat": "40.79102070170765"
    },
    {
      "id": "pt.ine.add.PTCONT.186240",
      "street": "R D MANUEL I",
      "house": "",
      "postcode": "3720-461",
      "city": "PINHEIRO DA BEMPOSTA",
      "lon": "-8.47841856895094",
      "lat": "40.7917875287641"
    },
    {
      "id": "pt.ine.add.PTCONT.191178",
      "street": "R ENG CARLOS RIBEIRO",
      "house": "277",
      "postcode": "3720-461",
      "city": "PINHEIRO DA BEMPOSTA",
      "lon": "-8.477203874632961",
      "lat": "40.792889759659566"
    },
    {
      "id": "pt.ine.add.PTCONT.191179",
      "street": "R D MANUEL I",
      "house": "38",
      "postcode": "3720-461",
      "city": "PINHEIRO DA BEMPOSTA",
      "lon": "-8.479242004869404",
      "lat": "40.79064143450535"
    },
    {
      "id": "pt.ine.add.PTCONT.191180",
      "street": "R D MANUEL I",
      "house": "38",
      "postcode": "3720-461",
      "city": "PINHEIRO DA BEMPOSTA",
      "lon": "-8.479242004869404",
      "lat": "40.79064143450535"
    },
    {
      "id": "pt.ine.add.PTCONT.192380",
      "street": "R DR LEOPOLDO SOARES DOS REIS",
      "house": "",
      "postcode": "3720-461",
      "city": "PINHEIRO DA BEMPOSTA",
      "lon": "-8.478658931717966",
      "lat": "40.790156915276846"
    },
    {
      "id": "pt.ine.add.PTCONT.221209",
      "street": "R DR LEOPOLDO SOARES DOS REIS",
      "house": "",
      "postcode": "3720-461",
      "city": "PINHEIRO DA BEMPOSTA",
      "lon": "-8.478031830623195",
      "lat": "40.79032088038645"
    },
    {
      "id": "pt.ine.add.PTCONT.231881",
      "street": "R DR LEOPOLDO SOARES DOS REIS",
      "house": "129",
      "postcode": "3720-461",
      "city": "PINHEIRO DA BEMPOSTA",
      "lon": "-8.478446555540232",
      "lat": "40.790328644916464"
    },
    {
      "id": "pt.ine.add.PTCONT.245619",
      "street": "R DR LEOPOLDO SOARES DOS REIS",
      "house": "33",
      "postcode": "3720-461",
      "city": "PINHEIRO DA BEMPOSTA",
      "lon": "-8.479133596462571",
      "lat": "40.79029957193058"
    },
    {
      "id": "pt.ine.add.PTCONT.245620",
      "street": "R D MANUEL I",
      "house": "148",
      "postcode": "3720-461",
      "city": "PINHEIRO DA BEMPOSTA",
      "lon": "-8.478511721400526",
      "lat": "40.79147207713951"
    },
    {
      "id": "pt.ine.add.PTCONT.256329",
      "street": "R D MANUEL I",
      "house": "",
      "postcode": "3720-461",
      "city": "PINHEIRO DA BEMPOSTA",
      "lon": "-8.477332858435984",
      "lat": "40.79262823180489"
    },
    {
      "id": "pt.ine.add.PTCONT.261259",
      "street": "R ENG CARLOS RIBEIRO",
      "house": "175",
      "postcode": "3720-461",
      "city": "PINHEIRO DA BEMPOSTA",
      "lon": "-8.477376716986159",
      "lat": "40.79194372574321"
    },
    {
      "id": "pt.ine.add.PTCONT.280642",
      "street": "R DR LEOPOLDO SOARES DOS REIS",
      "house": "203",
      "postcode": "3720-461",
      "city": "PINHEIRO DA BEMPOSTA",
      "lon": "-8.478308670506419",
      "lat": "40.79115751190685"
    }
  ]
}