{
  "data": {
    "ilha": "Ilha Terceira (Açores)",
    "concelho": "Angra do Heroísmo",
    "freguesia": "Feteira",
    "OBJECTID": 100,
    "BGRI2021": "43010800112",
    "DT21": "43",
    "DTMN21": "4301",
    "DTMNFR21": "430108",
    "DTMNFRSEC21": "430108001",
    "SECNUM21": "001",
    "SSNUM21": "12",
    "SECSSNUM21": "00112",
    "OBJECTID_1": 207985,
    "DT": "43",
    "CC": "01",
    "fr": "08",
    "SEC": "001",
    "SS": "12",
    "BGRI2021_1": "43010800112"
  },
  "addresses": [
    {
      "id": "pt.ine.add.AC26.2276",
      "street": "OUTEIRO DO GALHARDO",
      "house": "25",
      "postcode": "9700-353",
      "city": "FETEIRA AGH",
      "lon": "-27.158846260681997",
      "lat": "38.65669730224625"
    },
    {
      "id": "pt.ine.add.AC26.2277",
      "street": "OUTEIRO DO GALHARDO",
      "house": "18",
      "postcode": "9700-353",
      "city": "FETEIRA AGH",
      "lon": "-27.16067281283628",
      "lat": "38.656316308694265"
    },
    {
      "id": "pt.ine.add.AC26.2279",
      "street": "OUTEIRO DO GALHARDO",
      "house": "11",
      "postcode": "9700-353",
      "city": "FETEIRA AGH",
      "lon": "-27.160511367729367",
      "lat": "38.656073209538256"
    },
    {
      "id": "pt.ine.add.AC26.9050",
      "street": "CAM SERRETINHA",
      "house": "8",
      "postcode": "9700-355",
      "city": "FETEIRA AGH",
      "lon": "-27.15651175569671",
      "lat": "38.6560515935515"
    },
    {
      "id": "pt.ine.add.AC26.9051",
      "street": "ESTR SERRETINHA",
      "house": "32",
      "postcode": "9700-354",
      "city": "FETEIRA AGH",
      "lon": "-27.154898237700444",
      "lat": "38.65396298423342"
    },
    {
      "id": "pt.ine.add.AC26.9052",
      "street": "ESTRADA DA SERRETINHA",
      "house": "38",
      "postcode": "9700-354",
      "city": "FETEIRA AGH",
      "lon": "-27.154070169680264",
      "lat": "38.65368470932599"
    },
    {
      "id": "pt.ine.add.AC26.9053",
      "street": "ESTRADA DA SERRETINHA",
      "house": "40",
      "postcode": "9700-354",
      "city": "FETEIRA AGH",
      "lon": "-27.15396667850588",
      "lat": "38.65365780992637"
    },
    {
      "id": "pt.ine.add.AC26.9054",
      "street": "ESTR SERRETINHA",
      "house": "48",
      "postcode": "9700-354",
      "city": "FETEIRA AGH",
      "lon": "-27.153551348697537",
      "lat": "38.65291036926243"
    },
    {
      "id": "pt.ine.add.AC26.9055",
      "street": "ESTR SERRETINHA",
      "house": "48",
      "postcode": "9700-354",
      "city": "FETEIRA AGH",
      "lon": "-27.153551348697537",
      "lat": "38.65291036926243"
    },
    {
      "id": "pt.ine.add.AC26.9056",
      "street": "ESTR SERRETINHA",
      "house": "54",
      "postcode": "9700-354",
      "city": "FETEIRA AGH",
      "lon": "-27.15329759257762",
      "lat": "38.65247813147842"
    },
    {
      "id": "pt.ine.add.AC26.9057",
      "street": "ESTR SERRETINHA",
      "house": "54",
      "postcode": "9700-354",
      "city": "FETEIRA AGH",
      "lon": "-27.15329759257762",
      "lat": "38.65247813147842"
    },
    {
      "id": "pt.ine.add.AC26.9058",
      "street": "ESTR SERRETINHA",
      "house": "54",
      "postcode": "9700-354",
      "city": "FETEIRA AGH",
      "lon": "-27.15329759257762",
      "lat": "38.65247813147842"
    },
    {
      "id": "pt.ine.add.AC26.9059",
      "street": "ESTR SERRETINHA",
      "house": "54",
      "postcode": "9700-354",
      "city": "FETEIRA AGH",
      "lon": "-27.15329759257762",
      "lat": "38.65247813147842"
    },
    {
      "id": "pt.ine.add.AC26.9060",
      "street": "ESTR SERRETINHA",
      "house": "54",
      "postcode": "9700-354",
      "city": "FETEIRA AGH",
      "lon": "-27.15329759257762",
      "lat": "38.65247813147842"
    },
    {
      "id": "pt.ine.add.AC26.9061",
      "street": "ESTR SERRETINHA",
      "house": "54",
      "postcode": "9700-354",
      "city": "FETEIRA AGH",
      "lon": "-27.15329759257762",
      "lat": "38.65247813147842"
    },
    {
      "id": "pt.ine.add.AC26.9062",
      "street": "CAN ADELAIDE",
      "house": "",
      "postcode": "9700-348",
      "city": "FETEIRA AGH",
      "lon": "-27.154525168876575",
      "lat": "38.651494220549736"
    },
    {
      "id": "pt.ine.add.AC26.9911",
      "street": "CAN ADELAIDE",
      "house": "21",
      "postcode": "9700-348",
      "city": "FETEIRA AGH",
      "lon": "-27.154962048675827",
      "lat": "38.6515747496509"
    },
    {
      "id": "pt.ine.add.AC26.9912",
      "street": "CAN ADELAIDE",
      "house": "17",
      "postcode": "9700-348",
      "city": "FETEIRA AGH",
      "lon": "-27.155443691144853",
      "lat": "38.651096480519534"
    },
    {
      "id": "pt.ine.add.AC26.9913",
      "street": "CAN ADELAIDE",
      "house": "",
      "postcode": "9700-348",
      "city": "FETEIRA AGH",
      "lon": "-27.156304527294573",
      "lat": "38.65059967955562"
    },
    {
      "id": "pt.ine.add.AC26.9914",
      "street": "CAN LAGEDO",
      "house": "44",
      "postcode": "9700-351",
      "city": "FETEIRA AGH",
      "lon": "-27.15398792735002",
      "lat": "38.65284671218094"
    },
    {
      "id": "pt.ine.add.AC26.9924",
      "street": "ESTRADA DA SERRETINHA",
      "house": "32 A",
      "postcode": "9700-354",
      "city": "FETEIRA AGH",
      "lon": "-27.154840483538454",
      "lat": "38.653827882413545"
    },
    {
      "id": "pt.ine.add.AC26.55818",
      "street": "CAN FETEIRA",
      "house": "6",
      "postcode": "9700-351",
      "city": "FETEIRA AGH",
      "lon": "-27.157672802065562",
      "lat": "38.656167188828675"
    },
    {
      "id": "pt.ine.add.AC26.61139",
      "street": "ESTRADA DA SERRETINHA",
      "house": "34",
      "postcode": "9700-354",
      "city": "FETEIRA AGH",
      "lon": "-27.154586929469367",
      "lat": "38.65349477798164"
    },
    {
      "id": "pt.ine.add.AC26.64219",
      "street": "ESTR SERRETINHA",
      "house": "",
      "postcode": "9700-354",
      "city": "FETEIRA AGH",
      "lon": "-27.155382349437765",
      "lat": "38.65462020978298"
    },
    {
      "id": "pt.ine.add.AC26.65188",
      "street": "CAN ADELAIDE",
      "house": "9",
      "postcode": "9700-348",
      "city": "FETEIRA AGH",
      "lon": "-27.15615536480117",
      "lat": "38.6507080214424"
    },
    {
      "id": "pt.ine.add.AC26.65189",
      "street": "CAN ADELAIDE",
      "house": "9 G",
      "postcode": "9700-348",
      "city": "FETEIRA AGH",
      "lon": "-27.15615536480117",
      "lat": "38.6507080214424"
    },
    {
      "id": "pt.ine.add.AC26.65190",
      "street": "CAN ADELAIDE",
      "house": "9 I",
      "postcode": "9700-348",
      "city": "FETEIRA AGH",
      "lon": "-27.15615536480117",
      "lat": "38.6507080214424"
    },
    {
      "id": "pt.ine.add.AC26.65191",
      "street": "CAN ADELAIDE",
      "house": "9E",
      "postcode": "9700-348",
      "city": "FETEIRA AGH",
      "lon": "-27.15615536480117",
      "lat": "38.6507080214424"
    },
    {
      "id": "pt.ine.add.AC26.65192",
      "street": "CAN ADELAIDE",
      "house": "9 F",
      "postcode": "9700-348",
      "city": "FETEIRA AGH",
      "lon": "-27.15615536480117",
      "lat": "38.6507080214424"
    },
    {
      "id": "pt.ine.add.AC26.65193",
      "street": "CAN ADELAIDE",
      "house": "9",
      "postcode": "9700-348",
      "city": "FETEIRA AGH",
      "lon": "-27.15615536480117",
      "lat": "38.6507080214424"
    },
    {
      "id": "pt.ine.add.AC26.65194",
      "street": "CAN ADELAIDE",
      "house": "9",
      "postcode": "9700-348",
      "city": "FETEIRA AGH",
      "lon": "-27.15615536480117",
      "lat": "38.6507080214424"
    },
    {
      "id": "pt.ine.add.AC26.65195",
      "street": "CAN ADELAIDE",
      "house": "9",
      "postcode": "9700-348",
      "city": "FETEIRA AGH",
      "lon": "-27.15615536480117",
      "lat": "38.6507080214424"
    },
    {
      "id": "pt.ine.add.AC26.67337",
      "street": "ESTRADA DA SERRETINHA",
      "house": "50",
      "postcode": "9700-354",
      "city": "FETEIRA AGH",
      "lon": "-27.153470728389916",
      "lat": "38.652829368074364"
    },
    {
      "id": "pt.ine.add.AC26.67338",
      "street": "ESTR SERRETINHA",
      "house": "",
      "postcode": "9700-354",
      "city": "FETEIRA AGH",
      "lon": "-27.152940734288354",
      "lat": "38.65219923004926"
    },
    {
      "id": "pt.ine.add.AC26.80736",
      "street": "ESTR SERRETINHA",
      "house": "54",
      "postcode": "9700-354",
      "city": "FETEIRA AGH",
      "lon": "-27.15329759257762",
      "lat": "38.65247813147842"
    },
    {
      "id": "pt.ine.add.AC26.82083",
      "street": "CAN ADELAIDE",
      "house": "9",
      "postcode": "9700-348",
      "city": "FETEIRA AGH",
      "lon": "-27.15615536480117",
      "lat": "38.6507080214424"
    },
    {
      "id": "pt.ine.add.AC26.85491",
      "street": "ER 1",
      "house": "24",
      "postcode": "9700-353",
      "city": "FETEIRA AGH",
      "lon": "-27.159466646570305",
      "lat": "38.656588315602804"
    },
    {
      "id": "pt.ine.add.AC26.87168",
      "street": "LAJE DO SERRETINHA",
      "house": "",
      "postcode": "9700-128",
      "city": "FETEIRA AGH",
      "lon": "-27.154310160748512",
      "lat": "38.653053560964985"
    },
    {
      "id": "pt.ine.add.AC26.87515",
      "street": "R CANADA LEGUA",
      "house": "",
      "postcode": "9700-360",
      "city": "FETEIRA AGH",
      "lon": "-27.1579378135349",
      "lat": "38.656473235289646"
    },
    {
      "id": "pt.ine.add.AC26.88280",
      "street": "CAN ADELAIDE",
      "house": "",
      "postcode": "9700-348",
      "city": "FETEIRA AGH",
      "lon": "-27.153537355620305",
      "lat": "38.65173884220476"
    },
    {
      "id": "pt.ine.add.AC26.106566",
      "street": "CAN LAGEDO",
      "house": "",
      "postcode": "9700-351",
      "city": "FETEIRA AGH",
      "lon": "-27.154183839960158",
      "lat": "38.6530987869597"
    }
  ]
}