{
  "data": {
    "ilha": "Ilha Terceira (Açores)",
    "concelho": "Praia da Vitória",
    "freguesia": "Vila Nova",
    "OBJECTID": 173,
    "BGRI2021": "43021000217",
    "DT21": "43",
    "DTMN21": "4302",
    "DTMNFR21": "430210",
    "DTMNFRSEC21": "430210002",
    "SECNUM21": "002",
    "SSNUM21": "17",
    "SECSSNUM21": "00217",
    "OBJECTID_1": 208451,
    "DT": "43",
    "CC": "02",
    "fr": "10",
    "SEC": "002",
    "SS": "17",
    "BGRI2021_1": "43021000217"
  },
  "addresses": [
    {
      "id": "pt.ine.add.AC26.3576",
      "street": "CAN BICA",
      "house": "07",
      "postcode": "9760-709",
      "city": "VILA NOVA VPV",
      "lon": "-27.151334007320873",
      "lat": "38.78416090762472"
    },
    {
      "id": "pt.ine.add.AC26.3577",
      "street": "CAN BICA",
      "house": "5",
      "postcode": "9760-709",
      "city": "VILA NOVA VPV",
      "lon": "-27.15149473874306",
      "lat": "38.783944418943044"
    },
    {
      "id": "pt.ine.add.AC26.3578",
      "street": "CAN BICA",
      "house": "03",
      "postcode": "9760-709",
      "city": "VILA NOVA VPV",
      "lon": "-27.151193618645014",
      "lat": "38.783106722159665"
    },
    {
      "id": "pt.ine.add.AC26.3579",
      "street": "CAN BICA",
      "house": "1A",
      "postcode": "9760-709",
      "city": "VILA NOVA VPV",
      "lon": "-27.151193276100123",
      "lat": "38.78294451225078"
    },
    {
      "id": "pt.ine.add.AC26.3580",
      "street": "CAN BICA",
      "house": "01",
      "postcode": "9760-709",
      "city": "VILA NOVA VPV",
      "lon": "-27.151181610560432",
      "lat": "38.78287243385115"
    },
    {
      "id": "pt.ine.add.AC26.3581",
      "street": "CAN BICA",
      "house": "45",
      "postcode": "9760-709",
      "city": "VILA NOVA VPV",
      "lon": "-27.151112378610343",
      "lat": "38.782800429899794"
    },
    {
      "id": "pt.ine.add.AC26.3582",
      "street": "CAN BICA",
      "house": "43",
      "postcode": "9760-709",
      "city": "VILA NOVA VPV",
      "lon": "-27.15110067513925",
      "lat": "38.78271032816588"
    },
    {
      "id": "pt.ine.add.AC26.3583",
      "street": "R MISERICÓRDIA",
      "house": "33",
      "postcode": "9760-727",
      "city": "VILA NOVA VPV",
      "lon": "-27.152883962234633",
      "lat": "38.78211323751998"
    },
    {
      "id": "pt.ine.add.AC26.3584",
      "street": "R FRANCISCO MELO BORGES",
      "house": "31",
      "postcode": "9760-720",
      "city": "VILA NOVA VPV",
      "lon": "-27.15297583658996",
      "lat": "38.782004977043066"
    },
    {
      "id": "pt.ine.add.AC26.3585",
      "street": "R FRANCISCO MELO BORGES",
      "house": "25",
      "postcode": "9760-720",
      "city": "VILA NOVA VPV",
      "lon": "-27.153101286612422",
      "lat": "38.78144608810371"
    },
    {
      "id": "pt.ine.add.AC26.3586",
      "street": "R FRANCISCO MELO BORGES",
      "house": "21",
      "postcode": "9760-720",
      "city": "VILA NOVA VPV",
      "lon": "-27.153112626243864",
      "lat": "38.78136496805065"
    },
    {
      "id": "pt.ine.add.AC26.3587",
      "street": "R PRIMEIRA",
      "house": "1",
      "postcode": "9760-731",
      "city": "VILA NOVA VPV",
      "lon": "-27.153756080105616",
      "lat": "38.7807693517829"
    },
    {
      "id": "pt.ine.add.AC26.3588",
      "street": "ESTR CALVÁRIO",
      "house": "256",
      "postcode": "9760-742",
      "city": "VILA NOVA VPV",
      "lon": "-27.154243409897983",
      "lat": "38.78252598878598"
    },
    {
      "id": "pt.ine.add.AC26.3589",
      "street": "ESTR CALVÁRIO",
      "house": "",
      "postcode": "9760-742",
      "city": "VILA NOVA VPV",
      "lon": "-27.15433534099769",
      "lat": "38.78244476223473"
    },
    {
      "id": "pt.ine.add.AC26.4380",
      "street": "ESTR CALVÁRIO",
      "house": "258A",
      "postcode": "9760-742",
      "city": "VILA NOVA VPV",
      "lon": "-27.154599405814935",
      "lat": "38.782101969097326"
    },
    {
      "id": "pt.ine.add.AC26.4381",
      "street": "ESTR CALVÁRIO",
      "house": "262",
      "postcode": "9760-742",
      "city": "VILA NOVA VPV",
      "lon": "-27.15484059778008",
      "lat": "38.78183129915466"
    },
    {
      "id": "pt.ine.add.AC26.45620",
      "street": "R FRANCISCO MELO BORGES",
      "house": "23",
      "postcode": "9760-720",
      "city": "VILA NOVA VPV",
      "lon": "-27.153078164144386",
      "lat": "38.78140105995047"
    },
    {
      "id": "pt.ine.add.AC26.45621",
      "street": "ESTR CALVÁRIO",
      "house": "258 B",
      "postcode": "9760-742",
      "city": "VILA NOVA VPV",
      "lon": "-27.15455350874476",
      "lat": "38.78217412330292"
    },
    {
      "id": "pt.ine.add.AC26.47703",
      "street": "ESTR CALVÁRIO",
      "house": "250",
      "postcode": "9760-742",
      "city": "VILA NOVA VPV",
      "lon": "-27.15319610985051",
      "lat": "38.78271661177932"
    },
    {
      "id": "pt.ine.add.AC26.47704",
      "street": "ESTR CALVÁRIO",
      "house": "254",
      "postcode": "9760-742",
      "city": "VILA NOVA VPV",
      "lon": "-27.15420906426994",
      "lat": "38.782616150978086"
    },
    {
      "id": "pt.ine.add.AC26.51505",
      "street": "R MISERICÓRDIA",
      "house": "31",
      "postcode": "9760-727",
      "city": "VILA NOVA VPV",
      "lon": "-27.15231868553082",
      "lat": "38.78158228605985"
    },
    {
      "id": "pt.ine.add.AC26.54641",
      "street": "ESTR CALVÁRIO",
      "house": "260",
      "postcode": "9760-742",
      "city": "VILA NOVA VPV",
      "lon": "-27.154691238617918",
      "lat": "38.78197568395348"
    },
    {
      "id": "pt.ine.add.AC26.56532",
      "street": "R PRIMEIRA",
      "house": "02",
      "postcode": "9760-731",
      "city": "VILA NOVA VPV",
      "lon": "-27.153503007522833",
      "lat": "38.78086881304753"
    },
    {
      "id": "pt.ine.add.AC26.59251",
      "street": "CAN BICA",
      "house": "09",
      "postcode": "9760-709",
      "city": "VILA NOVA VPV",
      "lon": "-27.151576229757893",
      "lat": "38.78436786244405"
    },
    {
      "id": "pt.ine.add.AC26.61444",
      "street": "R MISERICÓRDIA",
      "house": "29",
      "postcode": "9760-727",
      "city": "VILA NOVA VPV",
      "lon": "-27.1524684516532",
      "lat": "38.78162714920642"
    },
    {
      "id": "pt.ine.add.AC26.63798",
      "street": "ESTR CALVÁRIO",
      "house": "",
      "postcode": "9760-742",
      "city": "VILA NOVA VPV",
      "lon": "-27.15442719414156",
      "lat": "38.7823274889653"
    },
    {
      "id": "pt.ine.add.AC26.66728",
      "street": "CAN BICA",
      "house": "11",
      "postcode": "9760-709",
      "city": "VILA NOVA VPV",
      "lon": "-27.151737552996156",
      "lat": "38.7844307348795"
    },
    {
      "id": "pt.ine.add.AC26.67211",
      "street": "R FRANCISCO MELO BORGES",
      "house": "03",
      "postcode": "9760-720",
      "city": "VILA NOVA VPV",
      "lon": "-27.153134669411937",
      "lat": "38.78090534303131"
    },
    {
      "id": "pt.ine.add.AC26.72375",
      "street": "ESTR CALVÁRIO",
      "house": "268",
      "postcode": "9760-742",
      "city": "VILA NOVA VPV",
      "lon": "-27.15592157590476",
      "lat": "38.781253113885896"
    },
    {
      "id": "pt.ine.add.AC26.74680",
      "street": "CAN TESTO",
      "house": "02",
      "postcode": "9760-737",
      "city": "VILA NOVA VPV",
      "lon": "-27.156312940411254",
      "lat": "38.78121654432395"
    },
    {
      "id": "pt.ine.add.AC26.79290",
      "street": "R PRIMEIRA",
      "house": "04",
      "postcode": "9760-731",
      "city": "VILA NOVA VPV",
      "lon": "-27.15345730327064",
      "lat": "38.78103108347652"
    },
    {
      "id": "pt.ine.add.AC26.80517",
      "street": "R DR FRANCISCO LOURENÇO VALADAO JUNIOR",
      "house": "39",
      "postcode": "9760-715",
      "city": "VILA NOVA VPV",
      "lon": "-27.151365289884748",
      "lat": "38.78261986886566"
    },
    {
      "id": "pt.ine.add.AC26.83857",
      "street": "R FRANCISCO MELO BORGES",
      "house": "13",
      "postcode": "9760-720",
      "city": "VILA NOVA VPV",
      "lon": "-27.15311210593835",
      "lat": "38.78112165313464"
    },
    {
      "id": "pt.ine.add.AC26.85877",
      "street": "CAN BICA",
      "house": "41",
      "postcode": "9760-709",
      "city": "VILA NOVA VPV",
      "lon": "-27.15113502472945",
      "lat": "38.78262016688075"
    },
    {
      "id": "pt.ine.add.AC26.86498",
      "street": "R FRANCISCO MELO BORGES",
      "house": "19",
      "postcode": "9760-720",
      "city": "VILA NOVA VPV",
      "lon": "-27.15310099757361",
      "lat": "38.78131091315343"
    },
    {
      "id": "pt.ine.add.AC26.89906",
      "street": "R PASSAL",
      "house": "17",
      "postcode": "9760-728",
      "city": "VILA NOVA VPV",
      "lon": "-27.152044093647596",
      "lat": "38.782393695526515"
    },
    {
      "id": "pt.ine.add.AC26.89907",
      "street": "R FRANCISCO MELO BORGES",
      "house": "15",
      "postcode": "9760-720",
      "city": "VILA NOVA VPV",
      "lon": "-27.15310074707486",
      "lat": "38.78119376152733"
    },
    {
      "id": "pt.ine.add.AC26.92794",
      "street": "R FRANCISCO MELO BORGES",
      "house": "01",
      "postcode": "9760-720",
      "city": "VILA NOVA VPV",
      "lon": "-27.153191983672645",
      "lat": "38.7807881159541"
    },
    {
      "id": "pt.ine.add.AC26.93194",
      "street": "R PASSAL",
      "house": "21",
      "postcode": "9760-728",
      "city": "VILA NOVA VPV",
      "lon": "-27.152044399839227",
      "lat": "38.78253788212032"
    },
    {
      "id": "pt.ine.add.AC26.93195",
      "street": "PC VILA NOVA",
      "house": "248",
      "postcode": "9760-747",
      "city": "VILA NOVA VPV",
      "lon": "-27.153502466580733",
      "lat": "38.78061648645089"
    },
    {
      "id": "pt.ine.add.AC26.93528",
      "street": "R PASSAL",
      "house": "15",
      "postcode": "9760-728",
      "city": "VILA NOVA VPV",
      "lon": "-27.15214587428002",
      "lat": "38.78152844103668"
    },
    {
      "id": "pt.ine.add.AC26.95121",
      "street": "R FRANCISCO MELO BORGES",
      "house": "5",
      "postcode": "9760-720",
      "city": "VILA NOVA VPV",
      "lon": "-27.15312332987654",
      "lat": "38.78098646309271"
    },
    {
      "id": "pt.ine.add.AC26.95282",
      "street": "R FRANCISCO MELO BORGES",
      "house": "7",
      "postcode": "9760-720",
      "city": "VILA NOVA VPV",
      "lon": "-27.153111951774964",
      "lat": "38.78104955982424"
    },
    {
      "id": "pt.ine.add.AC26.107331",
      "street": "PRAÇA",
      "house": "238",
      "postcode": "9760-747",
      "city": "VILA NOVA VPV",
      "lon": "-27.153272053569236",
      "lat": "38.78054469534779"
    },
    {
      "id": "pt.ine.add.AC26.108119",
      "street": "R FRANCISCO MELO BORGES",
      "house": "17",
      "postcode": "9760-720",
      "city": "VILA NOVA VPV",
      "lon": "-27.153100862689488",
      "lat": "38.78124783150889"
    }
  ]
}