{
  "data": {
    "distrito": "Viana do Castelo",
    "concelho": "Ponte da Barca",
    "freguesia": "União das freguesias de Ponte da Barca, Vila Nova de Muía e Paço Vedro de Magalhães",
    "OBJECTID": 148,
    "BGRI2021": "16062800301",
    "DT21": "16",
    "DTMN21": "1606",
    "DTMNFR21": "160628",
    "DTMNFRSEC21": "160628003",
    "SECNUM21": "003",
    "SSNUM21": "01",
    "SECSSNUM21": "00301",
    "OBJECTID_1": 174838,
    "DT": "16",
    "CC": "06",
    "fr": "28",
    "SEC": "003",
    "SS": "01"
  },
  "addresses": [
    {
      "id": "pt.ine.add.PTCONT.5135078",
      "street": "LOTEAM RAPOSEIRAS",
      "house": "4",
      "postcode": "4980-608",
      "city": "PONTE DA BARCA",
      "lon": "-8.413259458560002",
      "lat": "41.803544853988065"
    },
    {
      "id": "pt.ine.add.PTCONT.5154488",
      "street": "R MIRA LIMA",
      "house": "",
      "postcode": "4980-609",
      "city": "PONTE DA BARCA",
      "lon": "-8.412377232056821",
      "lat": "41.802664672534576"
    },
    {
      "id": "pt.ine.add.PTCONT.5154522",
      "street": "URB RAPOSEIRAS",
      "house": "26",
      "postcode": "4980-608",
      "city": "PONTE DA BARCA",
      "lon": "-8.411835060609997",
      "lat": "41.80250392873338"
    },
    {
      "id": "pt.ine.add.PTCONT.5154523",
      "street": "URB RAPOSEIRAS",
      "house": "26",
      "postcode": "4980-608",
      "city": "PONTE DA BARCA",
      "lon": "-8.411835060609997",
      "lat": "41.80250392873338"
    },
    {
      "id": "pt.ine.add.PTCONT.5154524",
      "street": "URB RAPOSEIRAS",
      "house": "26",
      "postcode": "4980-608",
      "city": "PONTE DA BARCA",
      "lon": "-8.411835060609997",
      "lat": "41.80250392873338"
    },
    {
      "id": "pt.ine.add.PTCONT.5154525",
      "street": "R RAPOSEIRAS",
      "house": "26",
      "postcode": "4980-608",
      "city": "PONTE DA BARCA",
      "lon": "-8.411835060609997",
      "lat": "41.80250392873338"
    },
    {
      "id": "pt.ine.add.PTCONT.5154526",
      "street": "URB RAPOSEIRAS",
      "house": "5",
      "postcode": "4980-608",
      "city": "PONTE DA BARCA",
      "lon": "-8.411835060609997",
      "lat": "41.80250392873338"
    },
    {
      "id": "pt.ine.add.PTCONT.5154527",
      "street": "URB RAPOSEIRAS",
      "house": "26",
      "postcode": "4980-608",
      "city": "PONTE DA BARCA",
      "lon": "-8.411835060609997",
      "lat": "41.80250392873338"
    },
    {
      "id": "pt.ine.add.PTCONT.5154528",
      "street": "URB RAPOSEIRAS",
      "house": "26",
      "postcode": "4980-608",
      "city": "PONTE DA BARCA",
      "lon": "-8.411835060609997",
      "lat": "41.80250392873338"
    },
    {
      "id": "pt.ine.add.PTCONT.5154529",
      "street": "URB RAPOSEIRAS",
      "house": "26",
      "postcode": "4980-608",
      "city": "PONTE DA BARCA",
      "lon": "-8.411835060609997",
      "lat": "41.80250392873338"
    },
    {
      "id": "pt.ine.add.PTCONT.5154545",
      "street": "URB RAPOSEIRAS",
      "house": "26",
      "postcode": "4980-608",
      "city": "PONTE DA BARCA",
      "lon": "-8.411835060609997",
      "lat": "41.80250392873338"
    },
    {
      "id": "pt.ine.add.PTCONT.5154546",
      "street": "URB RAPOSEIRAS",
      "house": "26",
      "postcode": "4980-608",
      "city": "PONTE DA BARCA",
      "lon": "-8.411835060609997",
      "lat": "41.80250392873338"
    },
    {
      "id": "pt.ine.add.PTCONT.5154547",
      "street": "URB RAPOSEIRAS",
      "house": "26",
      "postcode": "4980-608",
      "city": "PONTE DA BARCA",
      "lon": "-8.411835060609997",
      "lat": "41.80250392873338"
    },
    {
      "id": "pt.ine.add.PTCONT.5155281",
      "street": "URB RAPOSEIRAS",
      "house": "26",
      "postcode": "4980-608",
      "city": "PONTE DA BARCA",
      "lon": "-8.411835060609997",
      "lat": "41.80250392873338"
    },
    {
      "id": "pt.ine.add.PTCONT.5155336",
      "street": "RAPOSEIRAS",
      "house": "26",
      "postcode": "4980-608",
      "city": "PONTE DA BARCA",
      "lon": "-8.411835060609997",
      "lat": "41.80250392873338"
    },
    {
      "id": "pt.ine.add.PTCONT.5160246",
      "street": "TV ACESSO À PRACETA FR AGOSTINHO DA CRUZ",
      "house": "",
      "postcode": "4980-647",
      "city": "PONTE DA BARCA",
      "lon": "-8.412677852542036",
      "lat": "41.802618924513375"
    },
    {
      "id": "pt.ine.add.PTCONT.5160247",
      "street": "TV ACESSO À PRACETA FR AGOSTINHO DA CRUZ",
      "house": "",
      "postcode": "4980-647",
      "city": "PONTE DA BARCA",
      "lon": "-8.412677852542036",
      "lat": "41.802618924513375"
    },
    {
      "id": "pt.ine.add.PTCONT.5160248",
      "street": "TV ACESSO À PRACETA FR AGOSTINHO DA CRUZ",
      "house": "",
      "postcode": "4980-647",
      "city": "PONTE DA BARCA",
      "lon": "-8.412677852542036",
      "lat": "41.802618924513375"
    },
    {
      "id": "pt.ine.add.PTCONT.5163996",
      "street": "PCT FR AGOSTINHO DA CRUZ",
      "house": "3",
      "postcode": "4980-608",
      "city": "PONTE DA BARCA",
      "lon": "-8.412448528551053",
      "lat": "41.80245742182779"
    },
    {
      "id": "pt.ine.add.PTCONT.5164881",
      "street": "LOTEAM RAPOSEIRAS",
      "house": "",
      "postcode": "4980-608",
      "city": "PONTE DA BARCA",
      "lon": "-8.411691839134875",
      "lat": "41.802774377046156"
    },
    {
      "id": "pt.ine.add.PTCONT.5165551",
      "street": "LOTEAM RAPOSEIRAS",
      "house": "",
      "postcode": "4980-608",
      "city": "PONTE DA BARCA",
      "lon": "-8.411691839134875",
      "lat": "41.802774377046156"
    },
    {
      "id": "pt.ine.add.PTCONT.5167024",
      "street": "TV ACSS A PRACETA FR AGOSTINHO DA CRUZ",
      "house": "1 C",
      "postcode": "4980-647",
      "city": "PONTE DA BARCA",
      "lon": "-8.413086883835684",
      "lat": "41.80259992162983"
    },
    {
      "id": "pt.ine.add.PTCONT.5167025",
      "street": "TV ACSS A PRACETA FR AGOSTINHO DA CRUZ",
      "house": "1 C",
      "postcode": "4980-647",
      "city": "PONTE DA BARCA",
      "lon": "-8.413086883835684",
      "lat": "41.80259992162983"
    },
    {
      "id": "pt.ine.add.PTCONT.5167026",
      "street": "TV ACSS A PRACETA FR AGOSTINHO DA CRUZ",
      "house": "1 C",
      "postcode": "4980-647",
      "city": "PONTE DA BARCA",
      "lon": "-8.413086883835684",
      "lat": "41.80259992162983"
    },
    {
      "id": "pt.ine.add.PTCONT.5167027",
      "street": "TV ACSS A PRACETA FR AGOSTINHO DA CRUZ",
      "house": "1 C",
      "postcode": "4980-647",
      "city": "PONTE DA BARCA",
      "lon": "-8.413086883835684",
      "lat": "41.80259992162983"
    },
    {
      "id": "pt.ine.add.PTCONT.5167028",
      "street": "TV ACSS A PRACETA FR AGOSTINHO DA CRUZ",
      "house": "1 C",
      "postcode": "4980-647",
      "city": "PONTE DA BARCA",
      "lon": "-8.413086883835684",
      "lat": "41.80259992162983"
    },
    {
      "id": "pt.ine.add.PTCONT.5169203",
      "street": "LOTEAM RAPOSEIRAS",
      "house": "1A",
      "postcode": "4980-608",
      "city": "PONTE DA BARCA",
      "lon": "-8.412052428683118",
      "lat": "41.80268346840178"
    },
    {
      "id": "pt.ine.add.PTCONT.5192993",
      "street": "TV ACESSO À PRACETA FR AGOSTINHO DA CRUZ",
      "house": "",
      "postcode": "4980-647",
      "city": "PONTE DA BARCA",
      "lon": "-8.412858381270382",
      "lat": "41.8026274883959"
    },
    {
      "id": "pt.ine.add.PTCONT.5192994",
      "street": "TV ACESSO À PRACETA FR AGOSTINHO DA CRUZ",
      "house": "",
      "postcode": "4980-647",
      "city": "PONTE DA BARCA",
      "lon": "-8.412858381270382",
      "lat": "41.8026274883959"
    },
    {
      "id": "pt.ine.add.PTCONT.5192995",
      "street": "TV ACESSO À PRACETA FR AGOSTINHO DA CRUZ",
      "house": "",
      "postcode": "4980-647",
      "city": "PONTE DA BARCA",
      "lon": "-8.412858381270382",
      "lat": "41.8026274883959"
    },
    {
      "id": "pt.ine.add.PTCONT.5193883",
      "street": "TV ACESSO À PRACETA FR AGOSTINHO DA CRUZ",
      "house": "",
      "postcode": "4980-647",
      "city": "PONTE DA BARCA",
      "lon": "-8.412858381270382",
      "lat": "41.8026274883959"
    },
    {
      "id": "pt.ine.add.PTCONT.5204169",
      "street": "R OLIVEIRAS",
      "house": "6",
      "postcode": "4980-608",
      "city": "PONTE DA BARCA",
      "lon": "-8.413319034209943",
      "lat": "41.80340965825475"
    },
    {
      "id": "pt.ine.add.PTCONT.5205111",
      "street": "PCT FR AGOSTINHO CRUZ",
      "house": "1",
      "postcode": "4980-608",
      "city": "PONTE DA BARCA",
      "lon": "-8.412532756806392",
      "lat": "41.80245721698528"
    },
    {
      "id": "pt.ine.add.PTCONT.5209657",
      "street": "PCT FR AGOSTINHO DA CRUZ",
      "house": "7",
      "postcode": "4980-608",
      "city": "PONTE DA BARCA",
      "lon": "-8.412292143727628",
      "lat": "41.80246680535457"
    },
    {
      "id": "pt.ine.add.PTCONT.5210580",
      "street": "LOTEAM RAPOSEIRAS",
      "house": "OS",
      "postcode": "4980-608",
      "city": "PONTE DA BARCA",
      "lon": "-8.413271726692372",
      "lat": "41.80359884424072"
    },
    {
      "id": "pt.ine.add.PTCONT.5211601",
      "street": "R FR AGOSTINHO DA CRUZ",
      "house": "11",
      "postcode": "4980-608",
      "city": "PONTE DA BARCA",
      "lon": "-8.412135758857417",
      "lat": "41.80247618866853"
    },
    {
      "id": "pt.ine.add.PTCONT.5212733",
      "street": "URB RAPOSEIRAS",
      "house": "20",
      "postcode": "4980-608",
      "city": "PONTE DA BARCA",
      "lon": "-8.412367075854592",
      "lat": "41.80309685865206"
    },
    {
      "id": "pt.ine.add.PTCONT.5212734",
      "street": "URB RAPOSEIRAS",
      "house": "20",
      "postcode": "4980-608",
      "city": "PONTE DA BARCA",
      "lon": "-8.412367075854592",
      "lat": "41.80309685865206"
    },
    {
      "id": "pt.ine.add.PTCONT.5212735",
      "street": "URB RAPOSEIRAS",
      "house": "20",
      "postcode": "4980-608",
      "city": "PONTE DA BARCA",
      "lon": "-8.412367075854592",
      "lat": "41.80309685865206"
    },
    {
      "id": "pt.ine.add.PTCONT.5212736",
      "street": "RAPOSEIRAS",
      "house": "4",
      "postcode": "4980-608",
      "city": "PONTE DA BARCA",
      "lon": "-8.412367075854592",
      "lat": "41.80309685865206"
    },
    {
      "id": "pt.ine.add.PTCONT.5212737",
      "street": "OLIVAL CIMA",
      "house": "20",
      "postcode": "4980-608",
      "city": "PONTE DA BARCA",
      "lon": "-8.412367075854592",
      "lat": "41.80309685865206"
    },
    {
      "id": "pt.ine.add.PTCONT.5212738",
      "street": "URB RAPOSEIRAS",
      "house": "20",
      "postcode": "4980-608",
      "city": "PONTE DA BARCA",
      "lon": "-8.412367075854592",
      "lat": "41.80309685865206"
    },
    {
      "id": "pt.ine.add.PTCONT.5216409",
      "street": "R CONG AVELINO JESUS COSTA",
      "house": "5",
      "postcode": "4980-632",
      "city": "PONTE DA BARCA",
      "lon": "-8.413519312829244",
      "lat": "41.80242780299898"
    },
    {
      "id": "pt.ine.add.PTCONT.5216410",
      "street": "R CONG AVELINO JESUS COSTA",
      "house": "",
      "postcode": "4980-632",
      "city": "PONTE DA BARCA",
      "lon": "-8.413519312829244",
      "lat": "41.80242780299898"
    },
    {
      "id": "pt.ine.add.PTCONT.5216411",
      "street": "R CONG AVELINO JESUS COSTA",
      "house": "4",
      "postcode": "4980-632",
      "city": "PONTE DA BARCA",
      "lon": "-8.413519312829244",
      "lat": "41.80242780299898"
    },
    {
      "id": "pt.ine.add.PTCONT.5216412",
      "street": "R CONG AVELINO JESUS COSTA",
      "house": "11",
      "postcode": "4980-632",
      "city": "PONTE DA BARCA",
      "lon": "-8.413519312829244",
      "lat": "41.80242780299898"
    },
    {
      "id": "pt.ine.add.PTCONT.5216413",
      "street": "R CONEGO AVELINO JESUS COSTA",
      "house": "137",
      "postcode": "4980-632",
      "city": "PONTE DA BARCA",
      "lon": "-8.413519312829244",
      "lat": "41.80242780299898"
    },
    {
      "id": "pt.ine.add.PTCONT.5216414",
      "street": "R CONG AVELINO JESUS COSTA",
      "house": "10",
      "postcode": "4980-632",
      "city": "PONTE DA BARCA",
      "lon": "-8.413519312829244",
      "lat": "41.80242780299898"
    },
    {
      "id": "pt.ine.add.PTCONT.5216415",
      "street": "R CONG AVELINO JESUS COSTA",
      "house": "17",
      "postcode": "4980-632",
      "city": "PONTE DA BARCA",
      "lon": "-8.413519312829244",
      "lat": "41.80242780299898"
    },
    {
      "id": "pt.ine.add.PTCONT.5216416",
      "street": "R CONEGO AVELINO JESUS COSTA",
      "house": "137",
      "postcode": "4980-632",
      "city": "PONTE DA BARCA",
      "lon": "-8.413519312829244",
      "lat": "41.80242780299898"
    },
    {
      "id": "pt.ine.add.PTCONT.5216417",
      "street": "R CONEGO AVELINO JESUS COSTA",
      "house": "137",
      "postcode": "4980-632",
      "city": "PONTE DA BARCA",
      "lon": "-8.413519312829244",
      "lat": "41.80242780299898"
    },
    {
      "id": "pt.ine.add.PTCONT.5216418",
      "street": "R CONEGO AVELINO JESUS COSTA",
      "house": "137",
      "postcode": "4980-632",
      "city": "PONTE DA BARCA",
      "lon": "-8.413519312829244",
      "lat": "41.80242780299898"
    },
    {
      "id": "pt.ine.add.PTCONT.5216419",
      "street": "R CONEGO AVELINO JESUS COSTA",
      "house": "137",
      "postcode": "4980-632",
      "city": "PONTE DA BARCA",
      "lon": "-8.413519312829244",
      "lat": "41.80242780299898"
    },
    {
      "id": "pt.ine.add.PTCONT.5216420",
      "street": "R CONG AVELINO JESUS COSTA",
      "house": "1",
      "postcode": "4980-632",
      "city": "PONTE DA BARCA",
      "lon": "-8.413519312829244",
      "lat": "41.80242780299898"
    },
    {
      "id": "pt.ine.add.PTCONT.5216421",
      "street": "R CONG AVELINO JESUS COSTA",
      "house": "2",
      "postcode": "4980-632",
      "city": "PONTE DA BARCA",
      "lon": "-8.413519312829244",
      "lat": "41.80242780299898"
    },
    {
      "id": "pt.ine.add.PTCONT.5216422",
      "street": "R CONEGO AVELINO JESUS COSTA",
      "house": "137",
      "postcode": "4980-632",
      "city": "PONTE DA BARCA",
      "lon": "-8.413519312829244",
      "lat": "41.80242780299898"
    },
    {
      "id": "pt.ine.add.PTCONT.5216423",
      "street": "R CONEGO AVELINO JESUS COSTA",
      "house": "137",
      "postcode": "4980-632",
      "city": "PONTE DA BARCA",
      "lon": "-8.413519312829244",
      "lat": "41.80242780299898"
    },
    {
      "id": "pt.ine.add.PTCONT.5216424",
      "street": "R CONEGO AVELINO JESUS COSTA",
      "house": "137",
      "postcode": "4980-632",
      "city": "PONTE DA BARCA",
      "lon": "-8.413519312829244",
      "lat": "41.80242780299898"
    },
    {
      "id": "pt.ine.add.PTCONT.5216425",
      "street": "R CONEGO AVELINO JESUS COSTA",
      "house": "137",
      "postcode": "4980-632",
      "city": "PONTE DA BARCA",
      "lon": "-8.413519312829244",
      "lat": "41.80242780299898"
    },
    {
      "id": "pt.ine.add.PTCONT.5216426",
      "street": "R CONG AVELINO JESUS COSTA",
      "house": "14",
      "postcode": "4980-632",
      "city": "PONTE DA BARCA",
      "lon": "-8.413519312829244",
      "lat": "41.80242780299898"
    },
    {
      "id": "pt.ine.add.PTCONT.5216427",
      "street": "R CONG AVELINO JESUS COSTA",
      "house": "15",
      "postcode": "4980-632",
      "city": "PONTE DA BARCA",
      "lon": "-8.413519312829244",
      "lat": "41.80242780299898"
    },
    {
      "id": "pt.ine.add.PTCONT.5216428",
      "street": "R CONEGO AVELINO JESUS COSTA",
      "house": "137",
      "postcode": "4980-632",
      "city": "PONTE DA BARCA",
      "lon": "-8.413519312829244",
      "lat": "41.80242780299898"
    },
    {
      "id": "pt.ine.add.PTCONT.5216429",
      "street": "R CONG AVELINO JESUS COSTA",
      "house": "",
      "postcode": "4980-632",
      "city": "PONTE DA BARCA",
      "lon": "-8.413519312829244",
      "lat": "41.80242780299898"
    },
    {
      "id": "pt.ine.add.PTCONT.5216430",
      "street": "R CONG AVELINO JESUS COSTA",
      "house": "21",
      "postcode": "4980-632",
      "city": "PONTE DA BARCA",
      "lon": "-8.413519312829244",
      "lat": "41.80242780299898"
    },
    {
      "id": "pt.ine.add.PTCONT.5216431",
      "street": "R CONEGO AVELINO JESUS COSTA",
      "house": "137",
      "postcode": "4980-632",
      "city": "PONTE DA BARCA",
      "lon": "-8.413519312829244",
      "lat": "41.80242780299898"
    },
    {
      "id": "pt.ine.add.PTCONT.5217328",
      "street": "R CONG AVELINO JESUS COSTA",
      "house": "23",
      "postcode": "4980-632",
      "city": "PONTE DA BARCA",
      "lon": "-8.413519312829244",
      "lat": "41.80242780299898"
    },
    {
      "id": "pt.ine.add.PTCONT.5217351",
      "street": "R CONG AVELINO JESUS COSTA",
      "house": "9",
      "postcode": "4980-632",
      "city": "PONTE DA BARCA",
      "lon": "-8.413519312829244",
      "lat": "41.80242780299898"
    },
    {
      "id": "pt.ine.add.PTCONT.5233703",
      "street": "R FR AGOSTINHO CRUZ",
      "house": "13",
      "postcode": "4980-608",
      "city": "PONTE DA BARCA",
      "lon": "-8.412075595798196",
      "lat": "41.8024763347831"
    },
    {
      "id": "pt.ine.add.PTCONT.5236501",
      "street": "PCT FR AGOSTINHO DA CRUZ",
      "house": "5",
      "postcode": "4980-608",
      "city": "PONTE DA BARCA",
      "lon": "-8.412388326415874",
      "lat": "41.80244856483737"
    },
    {
      "id": "pt.ine.add.PTCONT.5237665",
      "street": "R OLIVAIS CIMA",
      "house": "4",
      "postcode": "4980-608",
      "city": "PONTE DA BARCA",
      "lon": "-8.41213802435527",
      "lat": "41.80299837823906"
    },
    {
      "id": "pt.ine.add.PTCONT.5237666",
      "street": "R OLIVAIS DE CIMA",
      "house": "21",
      "postcode": "4980-608",
      "city": "PONTE DA BARCA",
      "lon": "-8.41213802435527",
      "lat": "41.80299837823906"
    },
    {
      "id": "pt.ine.add.PTCONT.5237667",
      "street": "LOTEAM RAPOSEIRAS",
      "house": "3",
      "postcode": "4980-608",
      "city": "PONTE DA BARCA",
      "lon": "-8.41213802435527",
      "lat": "41.80299837823906"
    },
    {
      "id": "pt.ine.add.PTCONT.5237668",
      "street": "R OLIVAIS DE CIMA",
      "house": "21",
      "postcode": "4980-608",
      "city": "PONTE DA BARCA",
      "lon": "-8.41213802435527",
      "lat": "41.80299837823906"
    },
    {
      "id": "pt.ine.add.PTCONT.5237669",
      "street": "R OLIVAIS CIMA",
      "house": "5",
      "postcode": "4980-608",
      "city": "PONTE DA BARCA",
      "lon": "-8.41213802435527",
      "lat": "41.80299837823906"
    },
    {
      "id": "pt.ine.add.PTCONT.5237670",
      "street": "R OLIVAIS DE CIMA",
      "house": "21",
      "postcode": "4980-608",
      "city": "PONTE DA BARCA",
      "lon": "-8.41213802435527",
      "lat": "41.80299837823906"
    },
    {
      "id": "pt.ine.add.PTCONT.5237691",
      "street": "R OLIVAIS CIMA",
      "house": "21 7",
      "postcode": "4980-608",
      "city": "PONTE DA BARCA",
      "lon": "-8.41213802435527",
      "lat": "41.80299837823906"
    },
    {
      "id": "pt.ine.add.PTCONT.5237692",
      "street": "R OLIVAIS CIMA",
      "house": "8",
      "postcode": "4980-608",
      "city": "PONTE DA BARCA",
      "lon": "-8.41213802435527",
      "lat": "41.80299837823906"
    },
    {
      "id": "pt.ine.add.PTCONT.5237693",
      "street": "R OLIVAIS DE CIMA",
      "house": "21",
      "postcode": "4980-608",
      "city": "PONTE DA BARCA",
      "lon": "-8.41213802435527",
      "lat": "41.80299837823906"
    },
    {
      "id": "pt.ine.add.PTCONT.5237694",
      "street": "LOTEAM DAAS OLIVEIRAS",
      "house": "21",
      "postcode": "4980-608",
      "city": "PONTE DA BARCA",
      "lon": "-8.41213802435527",
      "lat": "41.80299837823906"
    },
    {
      "id": "pt.ine.add.PTCONT.5238652",
      "street": "LOTEAM RAPOSEIRAS",
      "house": "",
      "postcode": "4980-608",
      "city": "PONTE DA BARCA",
      "lon": "-8.41213802435527",
      "lat": "41.80299837823906"
    },
    {
      "id": "pt.ine.add.PTCONT.5251624",
      "street": "LOTEAM OLIVEIRAS",
      "house": "S",
      "postcode": "4980-608",
      "city": "PONTE DA BARCA",
      "lon": "-8.41335536795648",
      "lat": "41.80346358979601"
    },
    {
      "id": "pt.ine.add.PTCONT.5252500",
      "street": "R CONG AVELINO JESUS COSTA",
      "house": "",
      "postcode": "4980-632",
      "city": "PONTE DA BARCA",
      "lon": "-8.412207837318281",
      "lat": "41.80244900348303"
    },
    {
      "id": "pt.ine.add.PTCONT.5262183",
      "street": "R RAPOSEIRAS",
      "house": "",
      "postcode": "4980-608",
      "city": "PONTE DA BARCA",
      "lon": "-8.411727313091426",
      "lat": "41.80263023720007"
    },
    {
      "id": "pt.ine.add.PTCONT.5262184",
      "street": "R RAPOSEIRAS",
      "house": "",
      "postcode": "4980-608",
      "city": "PONTE DA BARCA",
      "lon": "-8.411727313091426",
      "lat": "41.80263023720007"
    },
    {
      "id": "pt.ine.add.PTCONT.5262185",
      "street": "R RAPOSEIRAS",
      "house": "",
      "postcode": "4980-608",
      "city": "PONTE DA BARCA",
      "lon": "-8.411727313091426",
      "lat": "41.80263023720007"
    },
    {
      "id": "pt.ine.add.PTCONT.5262186",
      "street": "R RAPOSEIRAS",
      "house": "",
      "postcode": "4980-608",
      "city": "PONTE DA BARCA",
      "lon": "-8.411727313091426",
      "lat": "41.80263023720007"
    },
    {
      "id": "pt.ine.add.PTCONT.5262187",
      "street": "R RAPOSEIRAS",
      "house": "",
      "postcode": "4980-608",
      "city": "PONTE DA BARCA",
      "lon": "-8.411727313091426",
      "lat": "41.80263023720007"
    },
    {
      "id": "pt.ine.add.PTCONT.5266765",
      "street": "LOTEAM RAPOSEIRAS",
      "house": "",
      "postcode": "4980-608",
      "city": "PONTE DA BARCA",
      "lon": "-8.411620188959372",
      "lat": "41.80290059786358"
    },
    {
      "id": "pt.ine.add.PTCONT.5266766",
      "street": "LOTEAM RAPOSEIRAS",
      "house": "",
      "postcode": "4980-608",
      "city": "PONTE DA BARCA",
      "lon": "-8.411620188959372",
      "lat": "41.80290059786358"
    },
    {
      "id": "pt.ine.add.PTCONT.5266767",
      "street": "LOTEAM RAPOSEIRAS",
      "house": "",
      "postcode": "4980-608",
      "city": "PONTE DA BARCA",
      "lon": "-8.411620188959372",
      "lat": "41.80290059786358"
    },
    {
      "id": "pt.ine.add.PTCONT.5266768",
      "street": "LOTEAM RAPOSEIRAS",
      "house": "",
      "postcode": "4980-608",
      "city": "PONTE DA BARCA",
      "lon": "-8.411620188959372",
      "lat": "41.80290059786358"
    },
    {
      "id": "pt.ine.add.PTCONT.5266769",
      "street": "LOTEAM RAPOSEIRAS",
      "house": "",
      "postcode": "4980-608",
      "city": "PONTE DA BARCA",
      "lon": "-8.411620188959372",
      "lat": "41.80290059786358"
    },
    {
      "id": "pt.ine.add.PTCONT.5266770",
      "street": "LOTEAM RAPOSEIRAS",
      "house": "",
      "postcode": "4980-608",
      "city": "PONTE DA BARCA",
      "lon": "-8.411620188959372",
      "lat": "41.80290059786358"
    },
    {
      "id": "pt.ine.add.PTCONT.5266771",
      "street": "LOTEAM RAPOSEIRAS",
      "house": "",
      "postcode": "4980-608",
      "city": "PONTE DA BARCA",
      "lon": "-8.411620188959372",
      "lat": "41.80290059786358"
    },
    {
      "id": "pt.ine.add.PTCONT.5266772",
      "street": "LOTEAM RAPOSEIRAS",
      "house": "",
      "postcode": "4980-608",
      "city": "PONTE DA BARCA",
      "lon": "-8.411620188959372",
      "lat": "41.80290059786358"
    },
    {
      "id": "pt.ine.add.PTCONT.5266993",
      "street": "R CÓNEGO AVELINO JESUS COSTA",
      "house": "",
      "postcode": "4980-632",
      "city": "PONTE DA BARCA",
      "lon": "-8.411074126273455",
      "lat": "41.801839523499076"
    },
    {
      "id": "pt.ine.add.PTCONT.5267632",
      "street": "LOTEAM RAPOSEIRAS",
      "house": "",
      "postcode": "4980-608",
      "city": "PONTE DA BARCA",
      "lon": "-8.411620188959372",
      "lat": "41.80290059786358"
    },
    {
      "id": "pt.ine.add.PTCONT.5273595",
      "street": "LOTEAM RAPOSEIRAS D",
      "house": "D",
      "postcode": "4980-608",
      "city": "PONTE DA BARCA",
      "lon": "-8.411800952428003",
      "lat": "41.802963183016196"
    },
    {
      "id": "pt.ine.add.PTCONT.5273596",
      "street": "LOTEAM RAPOSEIRAS",
      "house": "",
      "postcode": "4980-608",
      "city": "PONTE DA BARCA",
      "lon": "-8.411800952428003",
      "lat": "41.802963183016196"
    },
    {
      "id": "pt.ine.add.PTCONT.5273597",
      "street": "LOTEAM RAPOSEIRAS",
      "house": "",
      "postcode": "4980-608",
      "city": "PONTE DA BARCA",
      "lon": "-8.411800952428003",
      "lat": "41.802963183016196"
    },
    {
      "id": "pt.ine.add.PTCONT.5273598",
      "street": "LOTEAM RAPOSEIRAS",
      "house": "",
      "postcode": "4980-608",
      "city": "PONTE DA BARCA",
      "lon": "-8.411800952428003",
      "lat": "41.802963183016196"
    },
    {
      "id": "pt.ine.add.PTCONT.5273599",
      "street": "LOTEAM RAPOSEIRAS",
      "house": "",
      "postcode": "4980-608",
      "city": "PONTE DA BARCA",
      "lon": "-8.411800952428003",
      "lat": "41.802963183016196"
    },
    {
      "id": "pt.ine.add.PTCONT.5274851",
      "street": "LOTEAM OLIVEIRAS",
      "house": "7",
      "postcode": "4980-608",
      "city": "PONTE DA BARCA",
      "lon": "-8.413306687625031",
      "lat": "41.80333766147218"
    },
    {
      "id": "pt.ine.add.PTCONT.5282618",
      "street": "TV ACESSO À PRACETA FR AGOSTINHO DA CRUZ",
      "house": "",
      "postcode": "4980-647",
      "city": "PONTE DA BARCA",
      "lon": "-8.412858381270382",
      "lat": "41.8026274883959"
    },
    {
      "id": "pt.ine.add.PTCONT.5283128",
      "street": "SIT RAPOSEIRAS MIRA LIMA",
      "house": "",
      "postcode": "4980-609",
      "city": "PONTE DA BARCA",
      "lon": "-8.411800952428003",
      "lat": "41.802963183016196"
    },
    {
      "id": "pt.ine.add.PTCONT.5284369",
      "street": "R OLIVAIS DE CIMA",
      "house": "21",
      "postcode": "4980-608",
      "city": "PONTE DA BARCA",
      "lon": "-8.41213802435527",
      "lat": "41.80299837823906"
    },
    {
      "id": "pt.ine.add.PTCONT.5285746",
      "street": "MIRA LIMA",
      "house": "11",
      "postcode": "4980-609",
      "city": "PONTE DA BARCA",
      "lon": "-8.411835060609997",
      "lat": "41.80250392873338"
    },
    {
      "id": "pt.ine.add.PTCONT.5285747",
      "street": "URB RAPOSEIRAS",
      "house": "13",
      "postcode": "4980-608",
      "city": "PONTE DA BARCA",
      "lon": "-8.411835060609997",
      "lat": "41.80250392873338"
    },
    {
      "id": "pt.ine.add.PTCONT.5286439",
      "street": "TV ACESSO À PRACETA FR AGOSTINHO DA CRUZ",
      "house": "",
      "postcode": "4980-647",
      "city": "PONTE DA BARCA",
      "lon": "-8.412677852542036",
      "lat": "41.802618924513375"
    }
  ]
}