{
  "data": {
    "distrito": "Santarém",
    "concelho": "Mação",
    "freguesia": "Envendos",
    "OBJECTID": 474,
    "BGRI2021": "14130500154",
    "DT21": "14",
    "DTMN21": "1413",
    "DTMNFR21": "141305",
    "DTMNFRSEC21": "141305001",
    "SECNUM21": "001",
    "SSNUM21": "54",
    "SECSSNUM21": "00154",
    "OBJECTID_1": 152043,
    "DT": "14",
    "CC": "13",
    "fr": "05",
    "SEC": "001",
    "SS": "54"
  },
  "addresses": [
    {
      "id": "pt.ine.add.PTCONT.4396916",
      "street": "R FONTE",
      "house": "",
      "postcode": "6120-019",
      "city": "ENVENDOS",
      "lon": "-7.865622671318671",
      "lat": "39.61926894264983"
    },
    {
      "id": "pt.ine.add.PTCONT.4396917",
      "street": "LG MANUEL S RUFINO",
      "house": "2",
      "postcode": "6120-019",
      "city": "ENVENDOS",
      "lon": "-7.864119444452718",
      "lat": "39.619499648007626"
    },
    {
      "id": "pt.ine.add.PTCONT.4430494",
      "street": "R CENTRO",
      "house": "11",
      "postcode": "6120-019",
      "city": "ENVENDOS",
      "lon": "-7.864706124522696",
      "lat": "39.61836615140768"
    },
    {
      "id": "pt.ine.add.PTCONT.4440070",
      "street": "R SANTO CRISTO",
      "house": "",
      "postcode": "6120-019",
      "city": "ENVENDOS",
      "lon": "-7.865207481784584",
      "lat": "39.61821419342343"
    },
    {
      "id": "pt.ine.add.PTCONT.4455501",
      "street": "R CENTRO",
      "house": "29",
      "postcode": "6120-019",
      "city": "ENVENDOS",
      "lon": "-7.8642021510405495",
      "lat": "39.61919360919219"
    },
    {
      "id": "pt.ine.add.PTCONT.4455577",
      "street": "R SANTO CRISTO",
      "house": "2",
      "postcode": "6120-019",
      "city": "ENVENDOS",
      "lon": "-7.864891726369155",
      "lat": "39.61855572231064"
    },
    {
      "id": "pt.ine.add.PTCONT.4465654",
      "street": "LG MANUEL S RUFINO",
      "house": "4",
      "postcode": "6120-019",
      "city": "ENVENDOS",
      "lon": "-7.864107414981851",
      "lat": "39.61959869465324"
    },
    {
      "id": "pt.ine.add.PTCONT.4497739",
      "street": "R SERRA",
      "house": "4",
      "postcode": "6120-019",
      "city": "ENVENDOS",
      "lon": "-7.865056747555091",
      "lat": "39.618042717017175"
    },
    {
      "id": "pt.ine.add.PTCONT.4502597",
      "street": "R CARPINTEIROS",
      "house": "12",
      "postcode": "6120-019",
      "city": "ENVENDOS",
      "lon": "-7.865741902647232",
      "lat": "39.618548675200806"
    },
    {
      "id": "pt.ine.add.PTCONT.4512034",
      "street": "AZ FONTE",
      "house": "4",
      "postcode": "6120-019",
      "city": "ENVENDOS",
      "lon": "-7.864645042512976",
      "lat": "39.6191045657379"
    },
    {
      "id": "pt.ine.add.PTCONT.4515816",
      "street": "R FONTE",
      "house": "1",
      "postcode": "6120-019",
      "city": "ENVENDOS",
      "lon": "-7.86446802156691",
      "lat": "39.61970761032455"
    },
    {
      "id": "pt.ine.add.PTCONT.4523216",
      "street": "R SANTO CRISTO",
      "house": "6",
      "postcode": "6120-019",
      "city": "ENVENDOS",
      "lon": "-7.865518655988841",
      "lat": "39.619061547331945"
    },
    {
      "id": "pt.ine.add.PTCONT.4525900",
      "street": "R CARPINTEIROS",
      "house": "10",
      "postcode": "6120-019",
      "city": "ENVENDOS",
      "lon": "-7.86555629849249",
      "lat": "39.618359105648054"
    },
    {
      "id": "pt.ine.add.PTCONT.4543426",
      "street": "R CENTRO",
      "house": "31",
      "postcode": "6120-019",
      "city": "ENVENDOS",
      "lon": "-7.864166795087997",
      "lat": "39.61930160862819"
    },
    {
      "id": "pt.ine.add.PTCONT.4546213",
      "street": "R RIBEIRA",
      "house": "1",
      "postcode": "6120-019",
      "city": "ENVENDOS",
      "lon": "-7.864316902708797",
      "lat": "39.619635206609715"
    },
    {
      "id": "pt.ine.add.PTCONT.4549623",
      "street": "R SANTO CRISTO",
      "house": "4",
      "postcode": "6120-019",
      "city": "ENVENDOS",
      "lon": "-7.865252224641035",
      "lat": "39.618691655635104"
    },
    {
      "id": "pt.ine.add.PTCONT.4564493",
      "street": "R CENTRO",
      "house": "21",
      "postcode": "6120-019",
      "city": "ENVENDOS",
      "lon": "-7.864576698759597",
      "lat": "39.61870810974844"
    },
    {
      "id": "pt.ine.add.PTCONT.4570686",
      "street": "AZ FONTE",
      "house": "",
      "postcode": "6120-019",
      "city": "ENVENDOS",
      "lon": "-7.864423840696827",
      "lat": "39.61908604082742"
    },
    {
      "id": "pt.ine.add.PTCONT.4597608",
      "street": "R CARPINTEIROS",
      "house": "14",
      "postcode": "6120-019",
      "city": "ENVENDOS",
      "lon": "-7.86564915244237",
      "lat": "39.61844038041978"
    },
    {
      "id": "pt.ine.add.PTCONT.4601862",
      "street": "R CENTRO",
      "house": "17",
      "postcode": "6120-019",
      "city": "ENVENDOS",
      "lon": "-7.864623664751799",
      "lat": "39.6186091437809"
    },
    {
      "id": "pt.ine.add.PTCONT.4612053",
      "street": "R CENTRO",
      "house": "",
      "postcode": "6120-019",
      "city": "ENVENDOS",
      "lon": "-7.864342110635455",
      "lat": "39.61913989242102"
    },
    {
      "id": "pt.ine.add.PTCONT.4635034",
      "street": "AZ FONTE",
      "house": "25",
      "postcode": "6120-019",
      "city": "ENVENDOS",
      "lon": "-7.864505605446503",
      "lat": "39.61902318248246"
    },
    {
      "id": "pt.ine.add.PTCONT.4639831",
      "street": "R CENTRO",
      "house": "35",
      "postcode": "6120-019",
      "city": "ENVENDOS",
      "lon": "-7.86415476572048",
      "lat": "39.61940065528245"
    }
  ]
}