{
  "data": {
    "distrito": "Lisboa",
    "concelho": "Sintra",
    "freguesia": "União das freguesias de Sintra (Santa Maria e São Miguel, São Martinho e São Pedro de Penaferrim)",
    "OBJECTID": 2761,
    "BGRI2021": "11112801401",
    "DT21": "11",
    "DTMN21": "1111",
    "DTMNFR21": "111128",
    "DTMNFRSEC21": "111128014",
    "SECNUM21": "014",
    "SSNUM21": "01",
    "SECSSNUM21": "01401",
    "OBJECTID_1": 114542,
    "DT": "11",
    "CC": "11",
    "fr": "28",
    "SEC": "014",
    "SS": "01"
  },
  "addresses": [
    {
      "id": "pt.ine.add.PTCONT.2270580",
      "street": "R D JOAO CASTRO",
      "house": "45",
      "postcode": "2710-578",
      "city": "SINTRA",
      "lon": "-9.381613012368403",
      "lat": "38.7961401531035"
    },
    {
      "id": "pt.ine.add.PTCONT.2309153",
      "street": "R D JOÃO DE CASTRO CASA S JOSE",
      "house": "18",
      "postcode": "2710-578",
      "city": "SINTRA",
      "lon": "-9.380984122960674",
      "lat": "38.79613168763436"
    },
    {
      "id": "pt.ine.add.PTCONT.2354071",
      "street": "R FRANCISCO DOS SANTOS",
      "house": "3",
      "postcode": "2710-563",
      "city": "SINTRA",
      "lon": "-9.381271381857667",
      "lat": "38.796350978166075"
    },
    {
      "id": "pt.ine.add.PTCONT.2354072",
      "street": "R FRANCISCO SANTOS",
      "house": "5",
      "postcode": "2710-563",
      "city": "SINTRA",
      "lon": "-9.381271381857667",
      "lat": "38.796350978166075"
    },
    {
      "id": "pt.ine.add.PTCONT.2354073",
      "street": "R FRANCISCO DOS SANTOS",
      "house": "3",
      "postcode": "2710-563",
      "city": "SINTRA",
      "lon": "-9.381271381857667",
      "lat": "38.796350978166075"
    },
    {
      "id": "pt.ine.add.PTCONT.2354074",
      "street": "R FRANCISCO DOS SANTOS",
      "house": "3",
      "postcode": "2710-563",
      "city": "SINTRA",
      "lon": "-9.381271381857667",
      "lat": "38.796350978166075"
    },
    {
      "id": "pt.ine.add.PTCONT.2354075",
      "street": "R FRANCISCO DOS SANTOS",
      "house": "3",
      "postcode": "2710-563",
      "city": "SINTRA",
      "lon": "-9.381271381857667",
      "lat": "38.796350978166075"
    },
    {
      "id": "pt.ine.add.PTCONT.2356352",
      "street": "R FRANCISCO DOS SANTOS",
      "house": "3",
      "postcode": "2710-563",
      "city": "SINTRA",
      "lon": "-9.381271381857667",
      "lat": "38.796350978166075"
    },
    {
      "id": "pt.ine.add.PTCONT.2381294",
      "street": "R D JOÃO DE CASTRO",
      "house": "47A",
      "postcode": "2710-578",
      "city": "SINTRA",
      "lon": "-9.38142004198623",
      "lat": "38.796225157949095"
    },
    {
      "id": "pt.ine.add.PTCONT.2599254",
      "street": "R D JOÃO DE CASTRO CASAL TERESA TENREIRO",
      "house": "5",
      "postcode": "2710-578",
      "city": "SINTRA",
      "lon": "-9.382376234491138",
      "lat": "38.798320841903504"
    },
    {
      "id": "pt.ine.add.PTCONT.2627470",
      "street": "R D JOÃO DE CASTRO CASAL S ROQUE",
      "house": "15",
      "postcode": "2710-578",
      "city": "SINTRA",
      "lon": "-9.382426477545229",
      "lat": "38.79775955542853"
    },
    {
      "id": "pt.ine.add.PTCONT.2627471",
      "street": "R D JOÃO DE CASTRO",
      "house": "",
      "postcode": "2710-578",
      "city": "SINTRA",
      "lon": "-9.382030291639602",
      "lat": "38.796306837750365"
    },
    {
      "id": "pt.ine.add.PTCONT.2635199",
      "street": "R D JOÃO DE CASTRO",
      "house": "10 12",
      "postcode": "2710-578",
      "city": "SINTRA",
      "lon": "-9.3823401042157",
      "lat": "38.79691350326714"
    },
    {
      "id": "pt.ine.add.PTCONT.2649248",
      "street": "R D JOÃO DE CASTRO",
      "house": "25",
      "postcode": "2710-578",
      "city": "SINTRA",
      "lon": "-9.381725172821904",
      "lat": "38.79652065708477"
    },
    {
      "id": "pt.ine.add.PTCONT.2742903",
      "street": "R FRANCISCO DOS SANTOS",
      "house": "9",
      "postcode": "2710-563",
      "city": "SINTRA",
      "lon": "-9.381390391420467",
      "lat": "38.79657489678922"
    },
    {
      "id": "pt.ine.add.PTCONT.2742904",
      "street": "R FRANCISCO DOS SANTOS",
      "house": "9",
      "postcode": "2710-563",
      "city": "SINTRA",
      "lon": "-9.381390391420467",
      "lat": "38.79657489678922"
    },
    {
      "id": "pt.ine.add.PTCONT.2742905",
      "street": "R FRANCISCO DOS SANTOS",
      "house": "9",
      "postcode": "2710-563",
      "city": "SINTRA",
      "lon": "-9.381390391420467",
      "lat": "38.79657489678922"
    },
    {
      "id": "pt.ine.add.PTCONT.2742906",
      "street": "R FRANCISCO DOS SANTOS",
      "house": "9",
      "postcode": "2710-563",
      "city": "SINTRA",
      "lon": "-9.381390391420467",
      "lat": "38.79657489678922"
    },
    {
      "id": "pt.ine.add.PTCONT.2744563",
      "street": "R FRANCISCO DOS SANTOS",
      "house": "9",
      "postcode": "2710-563",
      "city": "SINTRA",
      "lon": "-9.381390391420467",
      "lat": "38.79657489678922"
    },
    {
      "id": "pt.ine.add.PTCONT.2744564",
      "street": "R FRANCISCO DOS SANTOS",
      "house": "9",
      "postcode": "2710-563",
      "city": "SINTRA",
      "lon": "-9.381390391420467",
      "lat": "38.79657489678922"
    },
    {
      "id": "pt.ine.add.PTCONT.2756321",
      "street": "R D JOÃO DE CASTRO",
      "house": "8",
      "postcode": "2710-578",
      "city": "SINTRA",
      "lon": "-9.383049435939899",
      "lat": "38.79732280558912"
    },
    {
      "id": "pt.ine.add.PTCONT.2867123",
      "street": "R D JOÃO DE CASTRO",
      "house": "23",
      "postcode": "2710-578",
      "city": "SINTRA",
      "lon": "-9.382773751069582",
      "lat": "38.79712133616438"
    },
    {
      "id": "pt.ine.add.PTCONT.2958266",
      "street": "R D JOÃO DE CASTRO",
      "house": "16",
      "postcode": "2710-578",
      "city": "SINTRA",
      "lon": "-9.38120818566775",
      "lat": "38.79602737954887"
    },
    {
      "id": "pt.ine.add.PTCONT.2983344",
      "street": "R D JOÃO DE CASTRO",
      "house": "33",
      "postcode": "2710-578",
      "city": "SINTRA",
      "lon": "-9.382204957769341",
      "lat": "38.79642206933826"
    },
    {
      "id": "pt.ine.add.PTCONT.2983345",
      "street": "R D JOÃO DE CASTRO",
      "house": "33",
      "postcode": "2710-578",
      "city": "SINTRA",
      "lon": "-9.382204957769341",
      "lat": "38.79642206933826"
    },
    {
      "id": "pt.ine.add.PTCONT.3013157",
      "street": "R D JOÃO DE CASTRO",
      "house": "4",
      "postcode": "2710-578",
      "city": "SINTRA",
      "lon": "-9.382742643850113",
      "lat": "38.79755127740172"
    },
    {
      "id": "pt.ine.add.PTCONT.3133756",
      "street": "R FRANCISCO SANTOS",
      "house": "13",
      "postcode": "2710-563",
      "city": "SINTRA",
      "lon": "-9.381553537501155",
      "lat": "38.797104198600955"
    },
    {
      "id": "pt.ine.add.PTCONT.3190296",
      "street": "R D JOÃO DE CASTRO",
      "house": "27",
      "postcode": "2710-578",
      "city": "SINTRA",
      "lon": "-9.382299554378074",
      "lat": "38.79654477467223"
    },
    {
      "id": "pt.ine.add.PTCONT.3226878",
      "street": "R D JOÃO DE CASTRO",
      "house": "24",
      "postcode": "2710-578",
      "city": "SINTRA",
      "lon": "-9.380888000221072",
      "lat": "38.796147898367416"
    },
    {
      "id": "pt.ine.add.PTCONT.3264838",
      "street": "R D JOÃO DE CASTRO ALBA LONGA",
      "house": "6",
      "postcode": "2710-578",
      "city": "SINTRA",
      "lon": "-9.382785688559048",
      "lat": "38.79737967258215"
    },
    {
      "id": "pt.ine.add.PTCONT.3265489",
      "street": "R D JOÃO DE CASTRO ALBA LONGA",
      "house": "6",
      "postcode": "2710-578",
      "city": "SINTRA",
      "lon": "-9.382785688559048",
      "lat": "38.79737967258215"
    },
    {
      "id": "pt.ine.add.PTCONT.3306987",
      "street": "R D JOÃO DE CASTRO",
      "house": "21",
      "postcode": "2710-578",
      "city": "SINTRA",
      "lon": "-9.382439497141513",
      "lat": "38.797528377555814"
    },
    {
      "id": "pt.ine.add.PTCONT.3346594",
      "street": "R D JOAO DE CASTRO",
      "house": "11",
      "postcode": "2710-578",
      "city": "SINTRA",
      "lon": "-9.382577095938315",
      "lat": "38.797958389974845"
    },
    {
      "id": "pt.ine.add.PTCONT.3346595",
      "street": "R FRANCISCO SANTOS",
      "house": "15",
      "postcode": "2710-563",
      "city": "SINTRA",
      "lon": "-9.382577095938315",
      "lat": "38.797958389974845"
    },
    {
      "id": "pt.ine.add.PTCONT.3410569",
      "street": "R D JOÃO DE CASTRO",
      "house": "2",
      "postcode": "2710-578",
      "city": "SINTRA",
      "lon": "-9.381948162702622",
      "lat": "38.79621763961911"
    },
    {
      "id": "pt.ine.add.PTCONT.3419836",
      "street": "R D JOÃO DE CASTRO",
      "house": "20",
      "postcode": "2710-578",
      "city": "SINTRA",
      "lon": "-9.381978647444038",
      "lat": "38.79670489710414"
    }
  ]
}