{
  "data": {
    "distrito": "Vila Real",
    "concelho": "Santa Marta de Penagui√£o",
    "freguesia": "Cumieira",
    "OBJECTID": 136,
    "BGRI2021": "17110200109",
    "DT21": "17",
    "DTMN21": "1711",
    "DTMNFR21": "171102",
    "DTMNFRSEC21": "171102001",
    "SECNUM21": "001",
    "SSNUM21": "09",
    "SECSSNUM21": "00109",
    "OBJECTID_1": 185400,
    "DT": "17",
    "CC": "11",
    "fr": "02",
    "SEC": "001",
    "SS": "09"
  },
  "addresses": [
    {
      "id": "pt.ine.add.PTCONT.5292611",
      "street": "R ABELHEIRAS",
      "house": "65",
      "postcode": "5030-083",
      "city": "CUMIEIRA",
      "lon": "-7.779520264227713",
      "lat": "41.24232487691982"
    },
    {
      "id": "pt.ine.add.PTCONT.5295697",
      "street": "R RETORTA",
      "house": "62 CASA 2",
      "postcode": "5030-083",
      "city": "CUMIEIRA",
      "lon": "-7.779717000687692",
      "lat": "41.24123596859088"
    },
    {
      "id": "pt.ine.add.PTCONT.5296584",
      "street": "R RETORTA",
      "house": "68",
      "postcode": "5030-083",
      "city": "CUMIEIRA",
      "lon": "-7.7798732413634974",
      "lat": "41.241020346364685"
    },
    {
      "id": "pt.ine.add.PTCONT.5300875",
      "street": "CAM RENDA",
      "house": "41",
      "postcode": "5030-083",
      "city": "CUMIEIRA",
      "lon": "-7.779389382838033",
      "lat": "41.24226144529965"
    },
    {
      "id": "pt.ine.add.PTCONT.5303940",
      "street": "R TRAS DA PEDREIRA",
      "house": "37",
      "postcode": "5030-083",
      "city": "CUMIEIRA",
      "lon": "-7.77958481116407",
      "lat": "41.24141564750391"
    },
    {
      "id": "pt.ine.add.PTCONT.5313104",
      "street": "R RETORTA",
      "house": "210",
      "postcode": "5030-083",
      "city": "CUMIEIRA",
      "lon": "-7.7807379306934354",
      "lat": "41.2399424874337"
    },
    {
      "id": "pt.ine.add.PTCONT.5317581",
      "street": "R RETORTA",
      "house": "244",
      "postcode": "5030-083",
      "city": "CUMIEIRA",
      "lon": "-7.780965543994527",
      "lat": "41.23976309901352"
    },
    {
      "id": "pt.ine.add.PTCONT.5320975",
      "street": "R TRAS DA PEDREIRA",
      "house": "8",
      "postcode": "5030-083",
      "city": "CUMIEIRA",
      "lon": "-7.77958345251739",
      "lat": "41.241667761892344"
    },
    {
      "id": "pt.ine.add.PTCONT.5331101",
      "street": "R RETORTA",
      "house": "",
      "postcode": "5030-083",
      "city": "CUMIEIRA",
      "lon": "-7.78104957668623",
      "lat": "41.23966430936446"
    },
    {
      "id": "pt.ine.add.PTCONT.5331102",
      "street": "R TRAS DA PEDREIRA",
      "house": "",
      "postcode": "5030-083",
      "city": "CUMIEIRA",
      "lon": "-7.779211902207829",
      "lat": "41.24199077294922"
    },
    {
      "id": "pt.ine.add.PTCONT.5343110",
      "street": "R VEIGA",
      "house": "297",
      "postcode": "5030-083",
      "city": "CUMIEIRA",
      "lon": "-7.779234789056501",
      "lat": "41.24217092795755"
    },
    {
      "id": "pt.ine.add.PTCONT.5350071",
      "street": "R RETORTA",
      "house": "102",
      "postcode": "5030-083",
      "city": "CUMIEIRA",
      "lon": "-7.780220682911494",
      "lat": "41.240742280405144"
    },
    {
      "id": "pt.ine.add.PTCONT.5359084",
      "street": "R RETORTA",
      "house": "90",
      "postcode": "5030-083",
      "city": "CUMIEIRA",
      "lon": "-7.779945590730427",
      "lat": "41.24087650052726"
    },
    {
      "id": "pt.ine.add.PTCONT.5361221",
      "street": "R RETORTA",
      "house": "62CASA3",
      "postcode": "5030-083",
      "city": "CUMIEIRA",
      "lon": "-7.779908446533696",
      "lat": "41.2411285051804"
    },
    {
      "id": "pt.ine.add.PTCONT.5377301",
      "street": "CAM RENDA",
      "house": "37",
      "postcode": "5030-083",
      "city": "CUMIEIRA",
      "lon": "-7.779652795380013",
      "lat": "41.24208216952607"
    },
    {
      "id": "pt.ine.add.PTCONT.5383918",
      "street": "R RETORTA",
      "house": "232",
      "postcode": "5030-083",
      "city": "CUMIEIRA",
      "lon": "-7.780893584828984",
      "lat": "41.23983491281997"
    },
    {
      "id": "pt.ine.add.PTCONT.5384791",
      "street": "R RETORTA",
      "house": "62 CASA 1",
      "postcode": "5030-083",
      "city": "CUMIEIRA",
      "lon": "-7.779788962683649",
      "lat": "41.24116415554854"
    },
    {
      "id": "pt.ine.add.PTCONT.5389286",
      "street": "R RETORTA",
      "house": "54",
      "postcode": "5030-083",
      "city": "CUMIEIRA",
      "lon": "-7.779693579241971",
      "lat": "41.24115485859212"
    },
    {
      "id": "pt.ine.add.PTCONT.5389287",
      "street": "TV ABELHEIRAS",
      "house": "41",
      "postcode": "5030-083",
      "city": "CUMIEIRA",
      "lon": "-7.7794247335001945",
      "lat": "41.2423425919878"
    },
    {
      "id": "pt.ine.add.PTCONT.5396515",
      "street": "R RETORTA",
      "house": "98",
      "postcode": "5030-083",
      "city": "CUMIEIRA",
      "lon": "-7.780100666973366",
      "lat": "41.24087697605936"
    },
    {
      "id": "pt.ine.add.PTCONT.5400981",
      "street": "R TRAS DA PEDREIRA",
      "house": "21",
      "postcode": "5030-083",
      "city": "CUMIEIRA",
      "lon": "-7.779285225398349",
      "lat": "41.241666845868316"
    },
    {
      "id": "pt.ine.add.PTCONT.5414399",
      "street": "CAM RENDA",
      "house": "33",
      "postcode": "5030-083",
      "city": "CUMIEIRA",
      "lon": "-7.779389722694872",
      "lat": "41.242198416711425"
    },
    {
      "id": "pt.ine.add.PTCONT.5417682",
      "street": "R RETORTA",
      "house": "248",
      "postcode": "5030-083",
      "city": "CUMIEIRA",
      "lon": "-7.781025429308364",
      "lat": "41.23971826095526"
    },
    {
      "id": "pt.ine.add.PTCONT.5419595",
      "street": "CAM RENDA",
      "house": "2",
      "postcode": "5030-083",
      "city": "CUMIEIRA",
      "lon": "-7.779496891182483",
      "lat": "41.24223476281169"
    },
    {
      "id": "pt.ine.add.PTCONT.5421478",
      "street": "R RETORTA",
      "house": "86",
      "postcode": "5030-083",
      "city": "CUMIEIRA",
      "lon": "-7.779897584090327",
      "lat": "41.24093037868731"
    },
    {
      "id": "pt.ine.add.PTCONT.5424865",
      "street": "R RETORTA",
      "house": "188",
      "postcode": "5030-083",
      "city": "CUMIEIRA",
      "lon": "-7.780366395873193",
      "lat": "41.24026550237472"
    }
  ]
}