{
  "data": {
    "ilha": "Ilha do Pico (Açores)",
    "concelho": "Madalena",
    "freguesia": "São Mateus",
    "OBJECTID": 78,
    "BGRI2021": "46020600110",
    "DT21": "46",
    "DTMN21": "4602",
    "DTMNFR21": "460206",
    "DTMNFRSEC21": "460206001",
    "SECNUM21": "001",
    "SSNUM21": "10",
    "SECSSNUM21": "00110",
    "OBJECTID_1": 209550,
    "DT": "46",
    "CC": "02",
    "fr": "06",
    "SEC": "001",
    "SS": "10",
    "BGRI2021_1": "46020600110"
  },
  "addresses": [
    {
      "id": "pt.ine.add.AC26.42102",
      "street": "R BOAVISTA",
      "house": "4",
      "postcode": "9950-525",
      "city": "SÃO MATEUS MAD",
      "lon": "-28.4541768307227",
      "lat": "38.43450188597908"
    },
    {
      "id": "pt.ine.add.AC26.42428",
      "street": "R SANTUARIO",
      "house": "11",
      "postcode": "9950-531",
      "city": "SÃO MATEUS MAD",
      "lon": "-28.454418762670752",
      "lat": "38.43342650656234"
    },
    {
      "id": "pt.ine.add.AC26.42429",
      "street": "R SANTUARIO",
      "house": "3",
      "postcode": "9950-531",
      "city": "SÃO MATEUS MAD",
      "lon": "-28.45501834557696",
      "lat": "38.43361731622909"
    },
    {
      "id": "pt.ine.add.AC26.42430",
      "street": "R SANTUARIO",
      "house": "1",
      "postcode": "9950-531",
      "city": "SÃO MATEUS MAD",
      "lon": "-28.455089058740082",
      "lat": "38.43371556522698"
    },
    {
      "id": "pt.ine.add.AC26.42431",
      "street": "R PASSO BRANCO",
      "house": "8",
      "postcode": "9950-530",
      "city": "SÃO MATEUS MAD",
      "lon": "-28.454567716514674",
      "lat": "38.434569126140126"
    },
    {
      "id": "pt.ine.add.AC26.42435",
      "street": "R PASSO BRANCO",
      "house": "6",
      "postcode": "9950-530",
      "city": "SÃO MATEUS MAD",
      "lon": "-28.454611363325373",
      "lat": "38.43446044546477"
    },
    {
      "id": "pt.ine.add.AC26.56848",
      "street": "R SANTUARIO",
      "house": "9",
      "postcode": "9950-531",
      "city": "SÃO MATEUS MAD",
      "lon": "-28.454638014529134",
      "lat": "38.43350488865158"
    },
    {
      "id": "pt.ine.add.AC26.62017",
      "street": "R BOM JESUS",
      "house": "3",
      "postcode": "9950-529",
      "city": "SÃO MATEUS MAD",
      "lon": "-28.45397964945333",
      "lat": "38.433810442691325"
    },
    {
      "id": "pt.ine.add.AC26.66757",
      "street": "R BOAVISTA",
      "house": "6",
      "postcode": "9950-525",
      "city": "SÃO MATEUS MAD",
      "lon": "-28.45403576688577",
      "lat": "38.4343234054854"
    },
    {
      "id": "pt.ine.add.AC26.68756",
      "street": "R PASSO BRANCO",
      "house": "2",
      "postcode": "9950-530",
      "city": "SÃO MATEUS MAD",
      "lon": "-28.454693955496325",
      "lat": "38.43400884174859"
    },
    {
      "id": "pt.ine.add.AC26.73807",
      "street": "R BOAVISTA",
      "house": "10",
      "postcode": "9950-525",
      "city": "SÃO MATEUS MAD",
      "lon": "-28.45369980425695",
      "lat": "38.434138331704986"
    },
    {
      "id": "pt.ine.add.AC26.85853",
      "street": "R SANTUARIO",
      "house": "7",
      "postcode": "9950-531",
      "city": "SÃO MATEUS MAD",
      "lon": "-28.45479891216659",
      "lat": "38.433529925547596"
    }
  ]
}