{
  "data": {
    "distrito": "Guarda",
    "concelho": "Gouveia",
    "freguesia": "Cativelos",
    "OBJECTID": 637,
    "BGRI2021": "09060300128",
    "DT21": "09",
    "DTMN21": "0906",
    "DTMNFR21": "090603",
    "DTMNFRSEC21": "090603001",
    "SECNUM21": "001",
    "SSNUM21": "28",
    "SECSSNUM21": "00128",
    "OBJECTID_1": 77474,
    "DT": "09",
    "CC": "06",
    "fr": "03",
    "SEC": "001",
    "SS": "28"
  },
  "addresses": [
    {
      "id": "pt.ine.add.PTCONT.1901151",
      "street": "R TRAZ DAS EIRAS",
      "house": "38",
      "postcode": "6290-061",
      "city": "CATIVELOS",
      "lon": "-7.690428992808448",
      "lat": "40.53228759599229"
    },
    {
      "id": "pt.ine.add.PTCONT.1901309",
      "street": "R REGADA",
      "house": "2",
      "postcode": "6290-061",
      "city": "CATIVELOS",
      "lon": "-7.6908775373276645",
      "lat": "40.53228030824046"
    },
    {
      "id": "pt.ine.add.PTCONT.1906043",
      "street": "R ESCOLAS",
      "house": "17",
      "postcode": "6290-061",
      "city": "CATIVELOS",
      "lon": "-7.687474484950722",
      "lat": "40.53465364438231"
    },
    {
      "id": "pt.ine.add.PTCONT.1909174",
      "street": "TV RIBEIRO",
      "house": "",
      "postcode": "6290-061",
      "city": "CATIVELOS",
      "lon": "-7.68997843126806",
      "lat": "40.532601055329195"
    },
    {
      "id": "pt.ine.add.PTCONT.1912360",
      "street": "R ESCARDEIRAS",
      "house": "12",
      "postcode": "6290-061",
      "city": "CATIVELOS",
      "lon": "-7.68937104888524",
      "lat": "40.5334272142237"
    },
    {
      "id": "pt.ine.add.PTCONT.1917412",
      "street": "R ESCARDEIRAS",
      "house": "4",
      "postcode": "6290-061",
      "city": "CATIVELOS",
      "lon": "-7.689056754376272",
      "lat": "40.53455167214682"
    },
    {
      "id": "pt.ine.add.PTCONT.1928424",
      "street": "R CÓNEGO ÁLVARO FERNANDES",
      "house": "",
      "postcode": "6290-061",
      "city": "CATIVELOS",
      "lon": "-7.693457226646315",
      "lat": "40.53305560530485"
    },
    {
      "id": "pt.ine.add.PTCONT.1933812",
      "street": "R ESCARDEIRAS",
      "house": "16",
      "postcode": "6290-061",
      "city": "CATIVELOS",
      "lon": "-7.68926571818871",
      "lat": "40.53329172981333"
    },
    {
      "id": "pt.ine.add.PTCONT.1934888",
      "street": "LG OUTEIRO",
      "house": "",
      "postcode": "6290-061",
      "city": "CATIVELOS",
      "lon": "-7.690724404264363",
      "lat": "40.5322346954277"
    },
    {
      "id": "pt.ine.add.PTCONT.1944095",
      "street": "R SEBASTIÃO LOPES MORAIS",
      "house": "24",
      "postcode": "6290-061",
      "city": "CATIVELOS",
      "lon": "-7.692024185608039",
      "lat": "40.53200552597662"
    },
    {
      "id": "pt.ine.add.PTCONT.1946031",
      "street": "R MOINHOS",
      "house": "",
      "postcode": "6290-061",
      "city": "CATIVELOS",
      "lon": "-7.6860431317821805",
      "lat": "40.53513440242939"
    },
    {
      "id": "pt.ine.add.PTCONT.1948969",
      "street": "R ESCOLAS",
      "house": "15",
      "postcode": "6290-061",
      "city": "CATIVELOS",
      "lon": "-7.687593346543631",
      "lat": "40.534528028241944"
    },
    {
      "id": "pt.ine.add.PTCONT.1953986",
      "street": "R CÓNEGO ÁLVARO FERNANDES",
      "house": "2",
      "postcode": "6290-061",
      "city": "CATIVELOS",
      "lon": "-7.693249671171391",
      "lat": "40.532307373351415"
    },
    {
      "id": "pt.ine.add.PTCONT.1963703",
      "street": "R ESCARDEIRAS",
      "house": "8",
      "postcode": "6290-061",
      "city": "CATIVELOS",
      "lon": "-7.689130898824756",
      "lat": "40.534047659016736"
    },
    {
      "id": "pt.ine.add.PTCONT.1964728",
      "street": "R TRAZ DAS EIRAS",
      "house": "36",
      "postcode": "6290-061",
      "city": "CATIVELOS",
      "lon": "-7.69019277004111",
      "lat": "40.53231370672109"
    },
    {
      "id": "pt.ine.add.PTCONT.1972914",
      "street": "R ESCARDEIRAS",
      "house": "30",
      "postcode": "6290-061",
      "city": "CATIVELOS",
      "lon": "-7.68820910864973",
      "lat": "40.53422421987481"
    },
    {
      "id": "pt.ine.add.PTCONT.1976510",
      "street": "R ESCARDEIRAS",
      "house": "6",
      "postcode": "6290-061",
      "city": "CATIVELOS",
      "lon": "-7.688999881633493",
      "lat": "40.53422726196902"
    },
    {
      "id": "pt.ine.add.PTCONT.1977591",
      "street": "R ESCOLAS",
      "house": "9",
      "postcode": "6290-061",
      "city": "CATIVELOS",
      "lon": "-7.687678052167932",
      "lat": "40.53421316854701"
    },
    {
      "id": "pt.ine.add.PTCONT.1851026",
      "street": "R ESCOLAS",
      "house": "13",
      "postcode": "6290-061",
      "city": "CATIVELOS",
      "lon": "-7.687652896448095",
      "lat": "40.5344472099403"
    },
    {
      "id": "pt.ine.add.PTCONT.1856001",
      "street": "R ESCARDEIRAS",
      "house": "14",
      "postcode": "6290-061",
      "city": "CATIVELOS",
      "lon": "-7.689217676554765",
      "lat": "40.533417619796765"
    },
    {
      "id": "pt.ine.add.PTCONT.1866008",
      "street": "R ESCOLAS",
      "house": "11",
      "postcode": "6290-061",
      "city": "CATIVELOS",
      "lon": "-7.687665653237139",
      "lat": "40.53430317396934"
    },
    {
      "id": "pt.ine.add.PTCONT.1866009",
      "street": "R ESCARDEIRAS",
      "house": "",
      "postcode": "6290-061",
      "city": "CATIVELOS",
      "lon": "-7.688380252896127",
      "lat": "40.53511640556102"
    },
    {
      "id": "pt.ine.add.PTCONT.1872040",
      "street": "R ESCARDEIRAS",
      "house": "2",
      "postcode": "6290-061",
      "city": "CATIVELOS",
      "lon": "-7.688585839059652",
      "lat": "40.534369754982556"
    },
    {
      "id": "pt.ine.add.PTCONT.1874762",
      "street": "TV RIBEIRO",
      "house": "",
      "postcode": "6290-061",
      "city": "CATIVELOS",
      "lon": "-7.690096157726802",
      "lat": "40.53264653338314"
    },
    {
      "id": "pt.ine.add.PTCONT.1882674",
      "street": "R ESCARDEIRAS",
      "house": "10",
      "postcode": "6290-061",
      "city": "CATIVELOS",
      "lon": "-7.68914519771169",
      "lat": "40.53366949039235"
    },
    {
      "id": "pt.ine.add.PTCONT.1883447",
      "street": "R PONTE RIBEIRO",
      "house": "34",
      "postcode": "6290-061",
      "city": "CATIVELOS",
      "lon": "-7.690015914260243",
      "lat": "40.53228601268498"
    },
    {
      "id": "pt.ine.add.PTCONT.1888028",
      "street": "R SEBASTIÃO LOPES MORAIS",
      "house": "26",
      "postcode": "6290-061",
      "city": "CATIVELOS",
      "lon": "-7.692234087344368",
      "lat": "40.532393556078596"
    },
    {
      "id": "pt.ine.add.PTCONT.1890834",
      "street": "R OUTEIRO",
      "house": "18",
      "postcode": "6290-061",
      "city": "CATIVELOS",
      "lon": "-7.690512319522278",
      "lat": "40.532179851290536"
    }
  ]
}