{
  "data": {
    "distrito": "Lisboa",
    "concelho": "Cascais",
    "freguesia": "São Domingos de Rana",
    "OBJECTID": 1301,
    "BGRI2021": "11050602010",
    "DT21": "11",
    "DTMN21": "1105",
    "DTMNFR21": "110506",
    "DTMNFRSEC21": "110506020",
    "SECNUM21": "020",
    "SSNUM21": "10",
    "SECSSNUM21": "02010",
    "OBJECTID_1": 100874,
    "DT": "11",
    "CC": "05",
    "fr": "06",
    "SEC": "020",
    "SS": "10"
  },
  "addresses": [
    {
      "id": "pt.ine.add.PTCONT.3018690",
      "street": "R S JOSE",
      "house": "59",
      "postcode": "2785-333",
      "city": "SÃO DOMINGOS DE RANA",
      "lon": "-9.34254977427758",
      "lat": "38.729515891093406"
    },
    {
      "id": "pt.ine.add.PTCONT.3045898",
      "street": "R VASCO DA GAMA",
      "house": "17",
      "postcode": "2785-335",
      "city": "SÃO DOMINGOS DE RANA",
      "lon": "-9.34161494307019",
      "lat": "38.728633794000785"
    },
    {
      "id": "pt.ine.add.PTCONT.3111577",
      "street": "AV LUSIADAS",
      "house": "678",
      "postcode": "2785-320",
      "city": "SÃO DOMINGOS DE RANA",
      "lon": "-9.34319161416825",
      "lat": "38.7287075606029"
    },
    {
      "id": "pt.ine.add.PTCONT.3111578",
      "street": "AV LUSIADAS",
      "house": "678",
      "postcode": "2785-320",
      "city": "SÃO DOMINGOS DE RANA",
      "lon": "-9.34319161416825",
      "lat": "38.7287075606029"
    },
    {
      "id": "pt.ine.add.PTCONT.3176660",
      "street": "R VASCO DA GAMA",
      "house": "136",
      "postcode": "2785-335",
      "city": "SÃO DOMINGOS DE RANA",
      "lon": "-9.342794472658607",
      "lat": "38.72834235404845"
    },
    {
      "id": "pt.ine.add.PTCONT.3222889",
      "street": "AV LUSIADAS",
      "house": "40",
      "postcode": "2785-320",
      "city": "SÃO DOMINGOS DE RANA",
      "lon": "-9.343118831032768",
      "lat": "38.728483120729756"
    },
    {
      "id": "pt.ine.add.PTCONT.3241821",
      "street": "R CARLOS SOTA",
      "house": "85",
      "postcode": "2785-324",
      "city": "SÃO DOMINGOS DE RANA",
      "lon": "-9.34235932589896",
      "lat": "38.72981511648788"
    },
    {
      "id": "pt.ine.add.PTCONT.3274749",
      "street": "R RIBEIRO",
      "house": "16",
      "postcode": "2785-329",
      "city": "SÃO DOMINGOS DE RANA",
      "lon": "-9.34239631481056",
      "lat": "38.72859869014903"
    },
    {
      "id": "pt.ine.add.PTCONT.3351896",
      "street": "R CARLOS SOTA",
      "house": "24",
      "postcode": "2785-324",
      "city": "SÃO DOMINGOS DE RANA",
      "lon": "-9.343024973965099",
      "lat": "38.72973616679231"
    },
    {
      "id": "pt.ine.add.PTCONT.3351897",
      "street": "R CARLOS SOTA",
      "house": "24",
      "postcode": "2785-324",
      "city": "SÃO DOMINGOS DE RANA",
      "lon": "-9.343024973965099",
      "lat": "38.72973616679231"
    },
    {
      "id": "pt.ine.add.PTCONT.3351898",
      "street": "R CARLOS SOTA",
      "house": "6B",
      "postcode": "2785-324",
      "city": "SÃO DOMINGOS DE RANA",
      "lon": "-9.343024973965099",
      "lat": "38.72973616679231"
    },
    {
      "id": "pt.ine.add.PTCONT.3416012",
      "street": "R S JOSE",
      "house": "34",
      "postcode": "2785-333",
      "city": "SÃO DOMINGOS DE RANA",
      "lon": "-9.342147510068328",
      "lat": "38.72952906010003"
    },
    {
      "id": "pt.ine.add.PTCONT.3434358",
      "street": "AV LUSIADAS",
      "house": "762",
      "postcode": "2785-320",
      "city": "SÃO DOMINGOS DE RANA",
      "lon": "-9.34335339034055",
      "lat": "38.72943551199408"
    },
    {
      "id": "pt.ine.add.PTCONT.2273047",
      "street": "R S JOSE",
      "house": "67",
      "postcode": "2785-333",
      "city": "SÃO DOMINGOS DE RANA",
      "lon": "-9.342677918578989",
      "lat": "38.72961365023029"
    },
    {
      "id": "pt.ine.add.PTCONT.2305349",
      "street": "R RIBEIRO",
      "house": "17",
      "postcode": "2785-329",
      "city": "SÃO DOMINGOS DE RANA",
      "lon": "-9.342602357748431",
      "lat": "38.72854251206859"
    },
    {
      "id": "pt.ine.add.PTCONT.2321165",
      "street": "AV LUSIADAS",
      "house": "762",
      "postcode": "2785-320",
      "city": "SÃO DOMINGOS DE RANA",
      "lon": "-9.34335339034055",
      "lat": "38.72943551199408"
    },
    {
      "id": "pt.ine.add.PTCONT.2396558",
      "street": "R VASCO DA GAMA",
      "house": "114",
      "postcode": "2785-335",
      "city": "SÃO DOMINGOS DE RANA",
      "lon": "-9.342565283747946",
      "lat": "38.72838976421294"
    },
    {
      "id": "pt.ine.add.PTCONT.2505782",
      "street": "R S JOSE",
      "house": "37",
      "postcode": "2785-333",
      "city": "SÃO DOMINGOS DE RANA",
      "lon": "-9.34240982904409",
      "lat": "38.72940023843392"
    },
    {
      "id": "pt.ine.add.PTCONT.2532662",
      "street": "PCT FE",
      "house": "31",
      "postcode": "2785-313",
      "city": "SÃO DOMINGOS DE RANA",
      "lon": "-9.343250975768388",
      "lat": "38.72949962638061"
    },
    {
      "id": "pt.ine.add.PTCONT.2532663",
      "street": "PCT FE",
      "house": "31",
      "postcode": "2785-313",
      "city": "SÃO DOMINGOS DE RANA",
      "lon": "-9.343250975768388",
      "lat": "38.72949962638061"
    },
    {
      "id": "pt.ine.add.PTCONT.2541766",
      "street": "R VASCO DA GAMA",
      "house": "16",
      "postcode": "2785-335",
      "city": "SÃO DOMINGOS DE RANA",
      "lon": "-9.341810096378795",
      "lat": "38.72861376082259"
    },
    {
      "id": "pt.ine.add.PTCONT.2561525",
      "street": "PCT INDUSTRIA",
      "house": "67",
      "postcode": "2785-315",
      "city": "SÃO DOMINGOS DE RANA",
      "lon": "-9.342904177465725",
      "lat": "38.728710535731786"
    },
    {
      "id": "pt.ine.add.PTCONT.2658432",
      "street": "R VASCO GAMA",
      "house": "78",
      "postcode": "2785-335",
      "city": "SÃO DOMINGOS DE RANA",
      "lon": "-9.342165910293335",
      "lat": "38.728574050253066"
    },
    {
      "id": "pt.ine.add.PTCONT.2687288",
      "street": "AV LUIS MARCELINO",
      "house": "135",
      "postcode": "2785-318",
      "city": "SÃO DOMINGOS DE RANA",
      "lon": "-9.342265067227377",
      "lat": "38.72968097557692"
    },
    {
      "id": "pt.ine.add.PTCONT.2733245",
      "street": "R VASCO DA GAMA",
      "house": "94",
      "postcode": "2785-335",
      "city": "SÃO DOMINGOS DE RANA",
      "lon": "-9.342348654799586",
      "lat": "38.72850009812803"
    },
    {
      "id": "pt.ine.add.PTCONT.2829488",
      "street": "PCT FE",
      "house": "28",
      "postcode": "2785-313",
      "city": "SÃO DOMINGOS DE RANA",
      "lon": "-9.343252495316637",
      "lat": "38.729589687949016"
    },
    {
      "id": "pt.ine.add.PTCONT.2859858",
      "street": "R VASCO DA GAMA",
      "house": "",
      "postcode": "2785-335",
      "city": "SÃO DOMINGOS DE RANA",
      "lon": "-9.341970301841272",
      "lat": "38.72856706553437"
    },
    {
      "id": "pt.ine.add.PTCONT.2886337",
      "street": "R S JOSE",
      "house": "83",
      "postcode": "2785-333",
      "city": "SÃO DOMINGOS DE RANA",
      "lon": "-9.342760528392201",
      "lat": "38.72973890362074"
    },
    {
      "id": "pt.ine.add.PTCONT.2886338",
      "street": "R VASCO DA GAMA",
      "house": "10",
      "postcode": "2785-335",
      "city": "SÃO DOMINGOS DE RANA",
      "lon": "-9.34263279438307",
      "lat": "38.72898357599028"
    }
  ]
}