{
  "data": {
    "ilha": "Ilha da Madeira (Madeira)",
    "concelho": "Machico",
    "freguesia": "Caniçal",
    "OBJECTID": 188,
    "BGRI2021": "31040200111",
    "DT21": "31",
    "DTMN21": "3104",
    "DTMNFR21": "310402",
    "DTMNFRSEC21": "310402001",
    "SECNUM21": "001",
    "SSNUM21": "11",
    "SECSSNUM21": "00111",
    "OBJECTID_1": 204362,
    "DT": "31",
    "CC": "04",
    "fr": "02",
    "SEC": "001",
    "SS": "11",
    "BGRI2021_1": "31040200111"
  },
  "addresses": [
    {
      "id": "pt.ine.add.MAD.27877",
      "street": "SIT FEITEIRINHAS A",
      "house": "",
      "postcode": "9200-038",
      "city": "CANIÇAL",
      "lon": "-16.73803912691698",
      "lat": "32.74294051427496"
    },
    {
      "id": "pt.ine.add.MAD.27878",
      "street": "R FEITEIRINHAS",
      "house": "21",
      "postcode": "9200-038",
      "city": "CANIÇAL",
      "lon": "-16.738016563118432",
      "lat": "32.742877694136226"
    },
    {
      "id": "pt.ine.add.MAD.27871",
      "street": "R FEITEIRINHAS A",
      "house": "18",
      "postcode": "9200-038",
      "city": "CANIÇAL",
      "lon": "-16.738752918732963",
      "lat": "32.743426657523194"
    },
    {
      "id": "pt.ine.add.MAD.27872",
      "street": "R FEITEIRINHAS A",
      "house": "12",
      "postcode": "9200-038",
      "city": "CANIÇAL",
      "lon": "-16.738558422631638",
      "lat": "32.74330309001635"
    },
    {
      "id": "pt.ine.add.MAD.27873",
      "street": "R FEITEIRINHAS A",
      "house": "8",
      "postcode": "9200-038",
      "city": "CANIÇAL",
      "lon": "-16.738439661466824",
      "lat": "32.74323258559409"
    },
    {
      "id": "pt.ine.add.MAD.27874",
      "street": "R FEITEIRINHAS A",
      "house": "4",
      "postcode": "9200-038",
      "city": "CANIÇAL",
      "lon": "-16.73826808048602",
      "lat": "32.743189870824565"
    },
    {
      "id": "pt.ine.add.MAD.27875",
      "street": "R FEITEIRINHAS A",
      "house": "19",
      "postcode": "9200-038",
      "city": "CANIÇAL",
      "lon": "-16.738213509240964",
      "lat": "32.7431274947321"
    },
    {
      "id": "pt.ine.add.MAD.27876",
      "street": "R FEITEIRINHAS A",
      "house": "",
      "postcode": "9200-038",
      "city": "CANIÇAL",
      "lon": "-16.73807568682929",
      "lat": "32.74317450154176"
    },
    {
      "id": "pt.ine.add.MAD.27879",
      "street": "R FEITEIRINHAS",
      "house": "23",
      "postcode": "9200-038",
      "city": "CANIÇAL",
      "lon": "-16.737906370924215",
      "lat": "32.7426988421558"
    },
    {
      "id": "pt.ine.add.MAD.27880",
      "street": "R FEITEIRINHAS",
      "house": "11",
      "postcode": "9200-038",
      "city": "CANIÇAL",
      "lon": "-16.73782713572369",
      "lat": "32.74246544665436"
    },
    {
      "id": "pt.ine.add.MAD.28697",
      "street": "R FEITEIRINHAS",
      "house": "1",
      "postcode": "9200-038",
      "city": "CANIÇAL",
      "lon": "-16.7376922803155",
      "lat": "32.742115575190454"
    },
    {
      "id": "pt.ine.add.MAD.28698",
      "street": "ESTR S LOURENÇO",
      "house": "12",
      "postcode": "9200-038",
      "city": "CANIÇAL",
      "lon": "-16.73769035464441",
      "lat": "32.74201639271746"
    },
    {
      "id": "pt.ine.add.MAD.28699",
      "street": "ESTR S LOURENÇO",
      "house": "14",
      "postcode": "9200-038",
      "city": "CANIÇAL",
      "lon": "-16.737894115031747",
      "lat": "32.74206768106599"
    },
    {
      "id": "pt.ine.add.MAD.28700",
      "street": "ESTR S LOURENÇO",
      "house": "22",
      "postcode": "9200-038",
      "city": "CANIÇAL",
      "lon": "-16.738485635864684",
      "lat": "32.74230298936729"
    },
    {
      "id": "pt.ine.add.MAD.28701",
      "street": "R FEITEIRINHAS A",
      "house": "7",
      "postcode": "9200-038",
      "city": "CANIÇAL",
      "lon": "-16.73865565461616",
      "lat": "32.74281471425161"
    },
    {
      "id": "pt.ine.add.MAD.28702",
      "street": "R FEITEIRINHAS A",
      "house": "11",
      "postcode": "9200-038",
      "city": "CANIÇAL",
      "lon": "-16.738732615067153",
      "lat": "32.74293089356566"
    },
    {
      "id": "pt.ine.add.MAD.28703",
      "street": "SIT FEITEIRINHAS CANICAL",
      "house": "5",
      "postcode": "9200-038",
      "city": "CANIÇAL",
      "lon": "-16.738509966281136",
      "lat": "32.74300613487997"
    },
    {
      "id": "pt.ine.add.MAD.28704",
      "street": "R FEITEIRINHAS",
      "house": "",
      "postcode": "9200-038",
      "city": "CANIÇAL",
      "lon": "-16.738165754607607",
      "lat": "32.742866605752816"
    },
    {
      "id": "pt.ine.add.MAD.28705",
      "street": "R FEITEIRINHAS",
      "house": "7B",
      "postcode": "9200-038",
      "city": "CANIÇAL",
      "lon": "-16.738261075483074",
      "lat": "32.742829207450555"
    },
    {
      "id": "pt.ine.add.MAD.28706",
      "street": "R FEITEIRINHAS",
      "house": "7B",
      "postcode": "9200-038",
      "city": "CANIÇAL",
      "lon": "-16.738261075483074",
      "lat": "32.742829207450555"
    },
    {
      "id": "pt.ine.add.MAD.28707",
      "street": "R FEITEIRINHAS",
      "house": "",
      "postcode": "9200-038",
      "city": "CANIÇAL",
      "lon": "-16.7383667150399",
      "lat": "32.742773627901585"
    },
    {
      "id": "pt.ine.add.MAD.28708",
      "street": "SIT FEITEIRINHAS",
      "house": "",
      "postcode": "9200-038",
      "city": "CANIÇAL",
      "lon": "-16.738490189598608",
      "lat": "32.742537420554626"
    },
    {
      "id": "pt.ine.add.MAD.28709",
      "street": "SIT FEITEIRINHAS",
      "house": "",
      "postcode": "9200-038",
      "city": "CANIÇAL",
      "lon": "-16.738395044267584",
      "lat": "32.74258383560354"
    },
    {
      "id": "pt.ine.add.MAD.28710",
      "street": "SIT FEITEIRINHAS",
      "house": "",
      "postcode": "9200-038",
      "city": "CANIÇAL",
      "lon": "-16.738247254255334",
      "lat": "32.74266705692355"
    },
    {
      "id": "pt.ine.add.MAD.28711",
      "street": "SIT FEITEIRINHAS",
      "house": "",
      "postcode": "9200-038",
      "city": "CANIÇAL",
      "lon": "-16.738216122793308",
      "lat": "32.742712583838795"
    },
    {
      "id": "pt.ine.add.MAD.28712",
      "street": "SIT FEITEIRINHAS",
      "house": "",
      "postcode": "9200-038",
      "city": "CANIÇAL",
      "lon": "-16.738162952791022",
      "lat": "32.742722340390586"
    },
    {
      "id": "pt.ine.add.MAD.29523",
      "street": "SIT FEITEIRINHAS",
      "house": "",
      "postcode": "9200-038",
      "city": "CANIÇAL",
      "lon": "-16.738078651221464",
      "lat": "32.742777623803924"
    },
    {
      "id": "pt.ine.add.MAD.29524",
      "street": "SIT FEITEIRINHAS",
      "house": "",
      "postcode": "9200-038",
      "city": "CANIÇAL",
      "lon": "-16.73803334859669",
      "lat": "32.74264296694495"
    },
    {
      "id": "pt.ine.add.MAD.29525",
      "street": "SIT FEITEIRINHAS",
      "house": "",
      "postcode": "9200-038",
      "city": "CANIÇAL",
      "lon": "-16.73799713926558",
      "lat": "32.74242701280878"
    },
    {
      "id": "pt.ine.add.MAD.54170",
      "street": "R FEITEIRINHAS",
      "house": "13",
      "postcode": "9200-038",
      "city": "CANIÇAL",
      "lon": "-16.737826260337833",
      "lat": "32.742420363718026"
    },
    {
      "id": "pt.ine.add.MAD.54171",
      "street": "R FEITEIRINHAS",
      "house": "9",
      "postcode": "9200-038",
      "city": "CANIÇAL",
      "lon": "-16.737793202925683",
      "lat": "32.74236670807265"
    },
    {
      "id": "pt.ine.add.MAD.61177",
      "street": "ESTR S LOURENÇO",
      "house": "16",
      "postcode": "9200-038",
      "city": "CANIÇAL",
      "lon": "-16.7381503448639",
      "lat": "32.74207314621672"
    },
    {
      "id": "pt.ine.add.MAD.61178",
      "street": "ESTR S LOURENÇO",
      "house": "20",
      "postcode": "9200-038",
      "city": "CANIÇAL",
      "lon": "-16.73832332463062",
      "lat": "32.742187993911266"
    },
    {
      "id": "pt.ine.add.MAD.61179",
      "street": "SIT FEITEIRINHAS",
      "house": "",
      "postcode": "9200-038",
      "city": "CANIÇAL",
      "lon": "-16.7380204033104",
      "lat": "32.74252589930461"
    },
    {
      "id": "pt.ine.add.MAD.63540",
      "street": "R FEITEIRINHAS A",
      "house": "9",
      "postcode": "9200-038",
      "city": "CANIÇAL",
      "lon": "-16.738688712713007",
      "lat": "32.74286836964273"
    },
    {
      "id": "pt.ine.add.MAD.66310",
      "street": "R FEITEIRINHAS A",
      "house": "3",
      "postcode": "9200-038",
      "city": "CANIÇAL",
      "lon": "-16.738434757459736",
      "lat": "32.74298012125935"
    },
    {
      "id": "pt.ine.add.MAD.66311",
      "street": "SIT FEITEIRINHAS",
      "house": "",
      "postcode": "9200-038",
      "city": "CANIÇAL",
      "lon": "-16.738192333130385",
      "lat": "32.742586647635214"
    },
    {
      "id": "pt.ine.add.MAD.74530",
      "street": "R FEITEIRINHAS A",
      "house": "19",
      "postcode": "9200-038",
      "city": "CANIÇAL",
      "lon": "-16.738896855276657",
      "lat": "32.74314507080844"
    },
    {
      "id": "pt.ine.add.MAD.74531",
      "street": "SIT FEITEIRINHAS",
      "house": "",
      "postcode": "9200-038",
      "city": "CANIÇAL",
      "lon": "-16.73828432635325",
      "lat": "32.74237793420591"
    },
    {
      "id": "pt.ine.add.MAD.76383",
      "street": "R FEITEIRINHAS A",
      "house": "14",
      "postcode": "9200-038",
      "city": "CANIÇAL",
      "lon": "-16.738623312994225",
      "lat": "32.743347284748495"
    },
    {
      "id": "pt.ine.add.MAD.77955",
      "street": "R FEITEIRINHAS A",
      "house": "6",
      "postcode": "9200-038",
      "city": "CANIÇAL",
      "lon": "-16.73836445247041",
      "lat": "32.7432065719379"
    },
    {
      "id": "pt.ine.add.MAD.77956",
      "street": "SIT FEITEIRINHAS",
      "house": "",
      "postcode": "9200-038",
      "city": "CANIÇAL",
      "lon": "-16.737974225459748",
      "lat": "32.74234615947884"
    },
    {
      "id": "pt.ine.add.MAD.80396",
      "street": "SIT FEITEIRINHAS",
      "house": "",
      "postcode": "9200-038",
      "city": "CANIÇAL",
      "lon": "-16.738321411988775",
      "lat": "32.742638971161234"
    },
    {
      "id": "pt.ine.add.MAD.83602",
      "street": "R FEITEIRINHAS A",
      "house": "17",
      "postcode": "9200-038",
      "city": "CANIÇAL",
      "lon": "-16.738853127883143",
      "lat": "32.74309156353392"
    },
    {
      "id": "pt.ine.add.MAD.83603",
      "street": "SIT FEITEIRINHAS",
      "house": "",
      "postcode": "9200-038",
      "city": "CANIÇAL",
      "lon": "-16.73792927341144",
      "lat": "32.74222953573481"
    },
    {
      "id": "pt.ine.add.MAD.88788",
      "street": "R FEITEIRINHAS A",
      "house": "13",
      "postcode": "9200-038",
      "city": "CANIÇAL",
      "lon": "-16.738776342307514",
      "lat": "32.74298440088863"
    },
    {
      "id": "pt.ine.add.MAD.95964",
      "street": "R FEITEIRINHAS A",
      "house": "10",
      "postcode": "9200-038",
      "city": "CANIÇAL",
      "lon": "-16.738515045657188",
      "lat": "32.743267615786344"
    },
    {
      "id": "pt.ine.add.MAD.95965",
      "street": "R FEITEIRINHAS",
      "house": "5",
      "postcode": "9200-038",
      "city": "CANIÇAL",
      "lon": "-16.737791102051872",
      "lat": "32.74225850902125"
    },
    {
      "id": "pt.ine.add.MAD.95966",
      "street": "URB FEITEIRINHAS",
      "house": "1",
      "postcode": "9200-038",
      "city": "CANIÇAL",
      "lon": "-16.73837039286645",
      "lat": "32.74296297616673"
    },
    {
      "id": "pt.ine.add.MAD.95967",
      "street": "SIT FEITEIRINHAS",
      "house": "",
      "postcode": "9200-038",
      "city": "CANIÇAL",
      "lon": "-16.738121489908373",
      "lat": "32.74223588872783"
    },
    {
      "id": "pt.ine.add.MAD.96482",
      "street": "ESTR S LOURENÇO",
      "house": "24",
      "postcode": "9200-038",
      "city": "CANIÇAL",
      "lon": "-16.73864899847273",
      "lat": "32.742472084096896"
    },
    {
      "id": "pt.ine.add.MAD.97468",
      "street": "R FEITEIRINHAS",
      "house": "15",
      "postcode": "9200-038",
      "city": "CANIÇAL",
      "lon": "-16.737838680112414",
      "lat": "32.74251038162816"
    },
    {
      "id": "pt.ine.add.MAD.100443",
      "street": "R FEITEIRINHAS",
      "house": "19",
      "postcode": "9200-038",
      "city": "CANIÇAL",
      "lon": "-16.73786211909137",
      "lat": "32.74261828474414"
    },
    {
      "id": "pt.ine.add.MAD.101075",
      "street": "SIT FEITEIRINHAS",
      "house": "",
      "postcode": "9200-038",
      "city": "CANIÇAL",
      "lon": "-16.73830811607549",
      "lat": "32.74250387039355"
    },
    {
      "id": "pt.ine.add.MAD.101898",
      "street": "R FEITEIRINHAS",
      "house": "21",
      "postcode": "9200-038",
      "city": "CANIÇAL",
      "lon": "-16.737928934595296",
      "lat": "32.742761662320234"
    },
    {
      "id": "pt.ine.add.MAD.102077",
      "street": "SIT FEITEIRINHAS",
      "house": "",
      "postcode": "9200-038",
      "city": "CANIÇAL",
      "lon": "-16.738578344060837",
      "lat": "32.74268050171488"
    },
    {
      "id": "pt.ine.add.MAD.104073",
      "street": "R FEITEIRINHAS",
      "house": "17",
      "postcode": "9200-038",
      "city": "CANIÇAL",
      "lon": "-16.73786106860129",
      "lat": "32.74256418522284"
    },
    {
      "id": "pt.ine.add.MAD.104329",
      "street": "R FEITEIRINHAS",
      "house": "3",
      "postcode": "9200-038",
      "city": "CANIÇAL",
      "lon": "-16.73773670679474",
      "lat": "32.74220514926987"
    },
    {
      "id": "pt.ine.add.MAD.105520",
      "street": "R FEITEIRINHAS",
      "house": "5",
      "postcode": "9200-038",
      "city": "CANIÇAL",
      "lon": "-16.738324564311043",
      "lat": "32.742801269682005"
    },
    {
      "id": "pt.ine.add.MAD.120555",
      "street": "SIT FEITEIRINHAS",
      "house": "",
      "postcode": "9200-038",
      "city": "CANIÇAL",
      "lon": "-16.73846186058383",
      "lat": "32.74272721286822"
    },
    {
      "id": "pt.ine.add.MAD.120930",
      "street": "R FEITEIRINHAS",
      "house": "7",
      "postcode": "9200-038",
      "city": "CANIÇAL",
      "lon": "-16.7377919774146",
      "lat": "32.74230359195958"
    },
    {
      "id": "pt.ine.add.MAD.127666",
      "street": "R FEITEIRINHAS A",
      "house": "15",
      "postcode": "9200-038",
      "city": "CANIÇAL",
      "lon": "-16.738820069600955",
      "lat": "32.74303790819413"
    },
    {
      "id": "pt.ine.add.MAD.128142",
      "street": "R FEITEIRINHAS A",
      "house": "16",
      "postcode": "9200-038",
      "city": "CANIÇAL",
      "lon": "-16.73867753431926",
      "lat": "32.7433916274826"
    }
  ]
}