{
  "data": {
    "distrito": "Viseu",
    "concelho": "Viseu",
    "freguesia": "Abraveses",
    "OBJECTID": 939,
    "BGRI2021": "18230100507",
    "DT21": "18",
    "DTMN21": "1823",
    "DTMNFR21": "182301",
    "DTMNFRSEC21": "182301005",
    "SECNUM21": "005",
    "SSNUM21": "07",
    "SECSSNUM21": "00507",
    "OBJECTID_1": 202231,
    "DT": "18",
    "CC": "23",
    "fr": "01",
    "SEC": "005",
    "SS": "07"
  },
  "addresses": [
    {
      "id": "pt.ine.add.PTCONT.5435302",
      "street": "AV ANTÓNIO CARLOS OLIVEIRA MACHADO",
      "house": "22",
      "postcode": "3515-230",
      "city": "VISEU",
      "lon": "-7.905862121532325",
      "lat": "40.67853588902512"
    },
    {
      "id": "pt.ine.add.PTCONT.5439695",
      "street": "AV ANTÓNIO CARLOS OLIVEIRA MACHADO",
      "house": "",
      "postcode": "3515-230",
      "city": "VISEU",
      "lon": "-7.906653213178195",
      "lat": "40.678951679229975"
    },
    {
      "id": "pt.ine.add.PTCONT.5439720",
      "street": "AV ANTÓNIO CARLOS OLIVEIRA MACHADO",
      "house": "40",
      "postcode": "3515-230",
      "city": "VISEU",
      "lon": "-7.906653213178195",
      "lat": "40.678951679229975"
    },
    {
      "id": "pt.ine.add.PTCONT.5442511",
      "street": "R CAPELA",
      "house": "27",
      "postcode": "3515-231",
      "city": "VISEU",
      "lon": "-7.906048929363208",
      "lat": "40.679256666781534"
    },
    {
      "id": "pt.ine.add.PTCONT.5450160",
      "street": "R CAPELA",
      "house": "57",
      "postcode": "3515-231",
      "city": "VISEU",
      "lon": "-7.907265247442367",
      "lat": "40.67985339074071"
    },
    {
      "id": "pt.ine.add.PTCONT.5465661",
      "street": "R CAPELA",
      "house": "65",
      "postcode": "3515-231",
      "city": "VISEU",
      "lon": "-7.907643819906105",
      "lat": "40.67983612037277"
    },
    {
      "id": "pt.ine.add.PTCONT.5466855",
      "street": "R CAPELA",
      "house": "65",
      "postcode": "3515-231",
      "city": "VISEU",
      "lon": "-7.907643819906105",
      "lat": "40.67983612037277"
    },
    {
      "id": "pt.ine.add.PTCONT.5475495",
      "street": "R CAPELA",
      "house": "37 39",
      "postcode": "3515-231",
      "city": "VISEU",
      "lon": "-7.906331437397012",
      "lat": "40.679662452728245"
    },
    {
      "id": "pt.ine.add.PTCONT.5508280",
      "street": "AV ANTÓNIO CARLOS OLIVEIRA MACHADO",
      "house": "",
      "postcode": "3515-230",
      "city": "VISEU",
      "lon": "-7.9068538381547535",
      "lat": "40.67908714946667"
    },
    {
      "id": "pt.ine.add.PTCONT.5508281",
      "street": "AV ANTÓNIO CARLOS OLIVEIRA MACHADO",
      "house": "",
      "postcode": "3515-230",
      "city": "VISEU",
      "lon": "-7.9068538381547535",
      "lat": "40.67908714946667"
    },
    {
      "id": "pt.ine.add.PTCONT.5521286",
      "street": "R SA CARNEIRO",
      "house": "77",
      "postcode": "3515-236",
      "city": "VISEU",
      "lon": "-7.907915420625729",
      "lat": "40.679971727324805"
    },
    {
      "id": "pt.ine.add.PTCONT.5521287",
      "street": "R SA CARNEIRO",
      "house": "77",
      "postcode": "3515-236",
      "city": "VISEU",
      "lon": "-7.907915420625729",
      "lat": "40.679971727324805"
    },
    {
      "id": "pt.ine.add.PTCONT.5522000",
      "street": "R CAPELA",
      "house": "59",
      "postcode": "3515-231",
      "city": "VISEU",
      "lon": "-7.907501574427591",
      "lat": "40.67992589377793"
    },
    {
      "id": "pt.ine.add.PTCONT.5522003",
      "street": "R CAPELA",
      "house": "61",
      "postcode": "3515-231",
      "city": "VISEU",
      "lon": "-7.907501574427591",
      "lat": "40.67992589377793"
    },
    {
      "id": "pt.ine.add.PTCONT.5538112",
      "street": "R CAPELA",
      "house": "21",
      "postcode": "3515-231",
      "city": "VISEU",
      "lon": "-7.905789194293306",
      "lat": "40.679112073661116"
    },
    {
      "id": "pt.ine.add.PTCONT.5566586",
      "street": "R CAPELA",
      "house": "3",
      "postcode": "3515-231",
      "city": "VISEU",
      "lon": "-7.905387796116316",
      "lat": "40.678886154487905"
    },
    {
      "id": "pt.ine.add.PTCONT.5573817",
      "street": "AV ANTÓNIO CARLOS OLIVEIRA MACHADO",
      "house": "28 30",
      "postcode": "3515-230",
      "city": "VISEU",
      "lon": "-7.90627525595145",
      "lat": "40.67878884500488"
    },
    {
      "id": "pt.ine.add.PTCONT.5574262",
      "street": "R CAPELA",
      "house": "25",
      "postcode": "3515-231",
      "city": "VISEU",
      "lon": "-7.907607970291317",
      "lat": "40.67994411187952"
    },
    {
      "id": "pt.ine.add.PTCONT.5575755",
      "street": "R CAPELA",
      "house": "63",
      "postcode": "3515-231",
      "city": "VISEU",
      "lon": "-7.907797226441968",
      "lat": "40.67994448135692"
    },
    {
      "id": "pt.ine.add.PTCONT.5576226",
      "street": "R CAPELA",
      "house": "63",
      "postcode": "3515-231",
      "city": "VISEU",
      "lon": "-7.907797226441968",
      "lat": "40.67994448135692"
    },
    {
      "id": "pt.ine.add.PTCONT.5579417",
      "street": "R HEROIS LUSITANOS",
      "house": "229",
      "postcode": "3515-233",
      "city": "VISEU",
      "lon": "-7.90512775713705",
      "lat": "40.67883161055302"
    },
    {
      "id": "pt.ine.add.PTCONT.5585440",
      "street": "R SA CARNEIRO",
      "house": "72",
      "postcode": "3515-236",
      "city": "VISEU",
      "lon": "-7.908046412590205",
      "lat": "40.6797108340668"
    },
    {
      "id": "pt.ine.add.PTCONT.5589373",
      "street": "AV ANTÓNIO CARLOS OLIVEIRA MACHADO",
      "house": "26",
      "postcode": "3515-230",
      "city": "VISEU",
      "lon": "-7.906086491871",
      "lat": "40.67864439195095"
    },
    {
      "id": "pt.ine.add.PTCONT.5596452",
      "street": "R CAPELA",
      "house": "23",
      "postcode": "3515-231",
      "city": "VISEU",
      "lon": "-7.90589549666568",
      "lat": "40.679157308540645"
    },
    {
      "id": "pt.ine.add.PTCONT.5602251",
      "street": "AV ANTÓNIO CARLOS OLIVEIRA MACHADO",
      "house": "16",
      "postcode": "3515-230",
      "city": "VISEU",
      "lon": "-7.906499658303329",
      "lat": "40.678888342059"
    },
    {
      "id": "pt.ine.add.PTCONT.5606912",
      "street": "AV ANTÓNIO CARLOS OLIVEIRA MACHADO",
      "house": "16",
      "postcode": "3515-230",
      "city": "VISEU",
      "lon": "-7.906428871390508",
      "lat": "40.67883417233788"
    },
    {
      "id": "pt.ine.add.PTCONT.5622091",
      "street": "AV ANTÓNIO CARLOS OLIVEIRA MACHADO",
      "house": "",
      "postcode": "3515-230",
      "city": "VISEU",
      "lon": "-7.907030989714979",
      "lat": "40.67916854262658"
    },
    {
      "id": "pt.ine.add.PTCONT.5622092",
      "street": "AV ANTÓNIO CARLOS OLIVEIRA MACHADO",
      "house": "",
      "postcode": "3515-230",
      "city": "VISEU",
      "lon": "-7.907030989714979",
      "lat": "40.67916854262658"
    },
    {
      "id": "pt.ine.add.PTCONT.5622093",
      "street": "AV ANTÓNIO CARLOS OLIVEIRA MACHADO",
      "house": "",
      "postcode": "3515-230",
      "city": "VISEU",
      "lon": "-7.907030989714979",
      "lat": "40.67916854262658"
    },
    {
      "id": "pt.ine.add.PTCONT.5624081",
      "street": "R CAPELA",
      "house": "31 33 3",
      "postcode": "3515-231",
      "city": "VISEU",
      "lon": "-7.906166571916184",
      "lat": "40.679446005746634"
    },
    {
      "id": "pt.ine.add.PTCONT.5662183",
      "street": "AV ANTÓNIO CARLOS OLIVEIRA MACHADO",
      "house": "62",
      "postcode": "3515-230",
      "city": "VISEU",
      "lon": "-7.9072198789024775",
      "lat": "40.67927697386074"
    },
    {
      "id": "pt.ine.add.PTCONT.5668956",
      "street": "AV ANTÓNIO CARLOS OLIVEIRA MACHADO",
      "house": "64",
      "postcode": "3515-230",
      "city": "VISEU",
      "lon": "-7.907479769527362",
      "lat": "40.67937653842872"
    }
  ]
}