{
  "data": {
    "ilha": "Ilha Terceira (Açores)",
    "concelho": "Angra do Heroísmo",
    "freguesia": "São Bartolomeu de Regatos",
    "OBJECTID": 521,
    "BGRI2021": "43011400105",
    "DT21": "43",
    "DTMN21": "4301",
    "DTMNFR21": "430114",
    "DTMNFRSEC21": "430114001",
    "SECNUM21": "001",
    "SSNUM21": "05",
    "SECSSNUM21": "00105",
    "OBJECTID_1": 208136,
    "DT": "43",
    "CC": "01",
    "fr": "14",
    "SEC": "001",
    "SS": "05",
    "BGRI2021_1": "43011400105"
  },
  "addresses": [
    {
      "id": "pt.ine.add.AC26.8281",
      "street": "CAN LARGUESA",
      "house": "15",
      "postcode": "9700-516",
      "city": "SÃO BARTOLOMEU DE REGATOS",
      "lon": "-27.278130798728732",
      "lat": "38.67987827228103"
    },
    {
      "id": "pt.ine.add.AC26.8282",
      "street": "R RESTAURACAO",
      "house": "3 A",
      "postcode": "9700-523",
      "city": "SÃO BARTOLOMEU DE REGATOS",
      "lon": "-27.277789939251324",
      "lat": "38.68092445444879"
    },
    {
      "id": "pt.ine.add.AC26.8283",
      "street": "CAM COVA DOS REGATOS",
      "house": "5",
      "postcode": "9700-523",
      "city": "SÃO BARTOLOMEU DE REGATOS",
      "lon": "-27.278066316999816",
      "lat": "38.68104095143214"
    },
    {
      "id": "pt.ine.add.AC26.8284",
      "street": "R RESTAURACAO",
      "house": "7",
      "postcode": "9700-523",
      "city": "SÃO BARTOLOMEU DE REGATOS",
      "lon": "-27.278399865852418",
      "lat": "38.68107620523967"
    },
    {
      "id": "pt.ine.add.AC26.8285",
      "street": "R RESTAURACAO",
      "house": "3",
      "postcode": "9700-523",
      "city": "SÃO BARTOLOMEU DE REGATOS",
      "lon": "-27.279191294458247",
      "lat": "38.68059669180265"
    },
    {
      "id": "pt.ine.add.AC26.8286",
      "street": "R LUIS CAMÕES",
      "house": "13",
      "postcode": "9700-523",
      "city": "SÃO BARTOLOMEU DE REGATOS",
      "lon": "-27.28027399676749",
      "lat": "38.68110777636551"
    },
    {
      "id": "pt.ine.add.AC26.8287",
      "street": "R LUIS CAMOES",
      "house": "7",
      "postcode": "9700-523",
      "city": "SÃO BARTOLOMEU DE REGATOS",
      "lon": "-27.28165535276667",
      "lat": "38.68154603738572"
    },
    {
      "id": "pt.ine.add.AC26.8288",
      "street": "LAD ASNO",
      "house": "13",
      "postcode": "9700-514",
      "city": "SÃO BARTOLOMEU DE REGATOS",
      "lon": "-27.28188667041743",
      "lat": "38.68189694128481"
    },
    {
      "id": "pt.ine.add.AC26.8289",
      "street": "CAN FUNCHAL",
      "house": "72",
      "postcode": "9700-514",
      "city": "SÃO BARTOLOMEU DE REGATOS",
      "lon": "-27.282252061235194",
      "lat": "38.681256220418234"
    },
    {
      "id": "pt.ine.add.AC26.8290",
      "street": "CAN FUNCHAL",
      "house": "70",
      "postcode": "9700-514",
      "city": "SÃO BARTOLOMEU DE REGATOS",
      "lon": "-27.282240210378124",
      "lat": "38.68116613075522"
    },
    {
      "id": "pt.ine.add.AC26.8291",
      "street": "CAN FUNCHAL",
      "house": "68",
      "postcode": "9700-514",
      "city": "SÃO BARTOLOMEU DE REGATOS",
      "lon": "-27.282538987650383",
      "lat": "38.68112936205024"
    },
    {
      "id": "pt.ine.add.AC26.8292",
      "street": "CAN FUNCHAL",
      "house": "56",
      "postcode": "9700-514",
      "city": "SÃO BARTOLOMEU DE REGATOS",
      "lon": "-27.28295202364218",
      "lat": "38.68091207968127"
    },
    {
      "id": "pt.ine.add.AC26.9134",
      "street": "CAN FUNCHAL",
      "house": "50",
      "postcode": "9700-514",
      "city": "SÃO BARTOLOMEU DE REGATOS",
      "lon": "-27.283338510266706",
      "lat": "38.67979367741593"
    },
    {
      "id": "pt.ine.add.AC26.12562",
      "street": "R 25 DE JULHO",
      "house": "48",
      "postcode": "9700-505",
      "city": "SÃO BARTOLOMEU DE REGATOS",
      "lon": "-27.281728936855988",
      "lat": "38.67392185054142"
    },
    {
      "id": "pt.ine.add.AC26.12563",
      "street": "R 25 DE JULHO",
      "house": "38",
      "postcode": "9700-505",
      "city": "SÃO BARTOLOMEU DE REGATOS",
      "lon": "-27.281245622656044",
      "lat": "38.673796847984555"
    },
    {
      "id": "pt.ine.add.AC26.12564",
      "street": "R 25 DE JULHO",
      "house": "40",
      "postcode": "9700-505",
      "city": "SÃO BARTOLOMEU DE REGATOS",
      "lon": "-27.28102699281138",
      "lat": "38.673743302467535"
    },
    {
      "id": "pt.ine.add.AC26.50786",
      "street": "R RESTAURACAO",
      "house": "11",
      "postcode": "9700-523",
      "city": "SÃO BARTOLOMEU DE REGATOS",
      "lon": "-27.278733240247643",
      "lat": "38.68106639937592"
    },
    {
      "id": "pt.ine.add.AC26.52989",
      "street": "CAN FUNCHAL",
      "house": "76",
      "postcode": "9700-514",
      "city": "SÃO BARTOLOMEU DE REGATOS",
      "lon": "-27.282333389312306",
      "lat": "38.681472307942116"
    },
    {
      "id": "pt.ine.add.AC26.56697",
      "street": "CAN FUNCHAL",
      "house": "74",
      "postcode": "9700-514",
      "city": "SÃO BARTOLOMEU DE REGATOS",
      "lon": "-27.28227544443679",
      "lat": "38.68135529407149"
    },
    {
      "id": "pt.ine.add.AC26.58206",
      "street": "CAN LARGUESA",
      "house": "16",
      "postcode": "9700-516",
      "city": "SÃO BARTOLOMEU DE REGATOS",
      "lon": "-27.278672505737628",
      "lat": "38.680228444126904"
    },
    {
      "id": "pt.ine.add.AC26.58207",
      "street": "R RESTAURACAO",
      "house": "3",
      "postcode": "9700-523",
      "city": "SÃO BARTOLOMEU DE REGATOS",
      "lon": "-27.27768692031155",
      "lat": "38.68104185284713"
    },
    {
      "id": "pt.ine.add.AC26.58210",
      "street": "CAN LARGUESA",
      "house": "1",
      "postcode": "9700-516",
      "city": "SÃO BARTOLOMEU DE REGATOS",
      "lon": "-27.284420006265524",
      "lat": "38.67418569264834"
    },
    {
      "id": "pt.ine.add.AC26.61180",
      "street": "CAN LARGUESA",
      "house": "14",
      "postcode": "9700-516",
      "city": "SÃO BARTOLOMEU DE REGATOS",
      "lon": "-27.279258559216327",
      "lat": "38.68015495163816"
    },
    {
      "id": "pt.ine.add.AC26.61181",
      "street": "CAN FUNCHAL",
      "house": "9",
      "postcode": "9700-514",
      "city": "SÃO BARTOLOMEU DE REGATOS",
      "lon": "-27.281759284650015",
      "lat": "38.68166294078144"
    },
    {
      "id": "pt.ine.add.AC26.61318",
      "street": "R 25 DE JULHO",
      "house": "44",
      "postcode": "9700-505",
      "city": "SÃO BARTOLOMEU DE REGATOS",
      "lon": "-27.281429730392723",
      "lat": "38.673841464325164"
    },
    {
      "id": "pt.ine.add.AC26.66573",
      "street": "R RESTAURACAO",
      "house": "15",
      "postcode": "9700-523",
      "city": "SÃO BARTOLOMEU DE REGATOS",
      "lon": "-27.278974604594744",
      "lat": "38.68104780024316"
    },
    {
      "id": "pt.ine.add.AC26.68421",
      "street": "LAD ASNO",
      "house": "11",
      "postcode": "9700-514",
      "city": "SÃO BARTOLOMEU DE REGATOS",
      "lon": "-27.281840293597593",
      "lat": "38.6817979229753"
    },
    {
      "id": "pt.ine.add.AC26.73131",
      "street": "CAN LARGUESA",
      "house": "18",
      "postcode": "9700-516",
      "city": "SÃO BARTOLOMEU DE REGATOS",
      "lon": "-27.278316769985047",
      "lat": "38.68040051593762"
    },
    {
      "id": "pt.ine.add.AC26.73132",
      "street": "R LUIS CAMÕES",
      "house": "6",
      "postcode": "9700-523",
      "city": "SÃO BARTOLOMEU DE REGATOS",
      "lon": "-27.280791778812162",
      "lat": "38.68121467631669"
    },
    {
      "id": "pt.ine.add.AC26.80531",
      "street": "R LUIS CAMÕES",
      "house": "1",
      "postcode": "9700-523",
      "city": "SÃO BARTOLOMEU DE REGATOS",
      "lon": "-27.281033671765243",
      "lat": "38.6813312490615"
    },
    {
      "id": "pt.ine.add.AC26.80820",
      "street": "CAN FUNCHAL",
      "house": "54",
      "postcode": "9700-514",
      "city": "SÃO BARTOLOMEU DE REGATOS",
      "lon": "-27.28314548149501",
      "lat": "38.680406949177765"
    },
    {
      "id": "pt.ine.add.AC26.83941",
      "street": "R 25 DE JULHO",
      "house": "54",
      "postcode": "9700-505",
      "city": "SÃO BARTOLOMEU DE REGATOS",
      "lon": "-27.282557479370094",
      "lat": "38.67413613597136"
    },
    {
      "id": "pt.ine.add.AC26.85411",
      "street": "R 25 DE JULHO",
      "house": "40",
      "postcode": "9700-505",
      "city": "SÃO BARTOLOMEU DE REGATOS",
      "lon": "-27.28102699281138",
      "lat": "38.673743302467535"
    },
    {
      "id": "pt.ine.add.AC26.87648",
      "street": "CAN DA LARGUESA",
      "house": "",
      "postcode": "9700-516",
      "city": "SÃO BARTOLOMEU DE REGATOS",
      "lon": "-27.27800726375048",
      "lat": "38.68063555957924"
    },
    {
      "id": "pt.ine.add.AC26.88566",
      "street": "R 25 DE JULHO",
      "house": "40",
      "postcode": "9700-505",
      "city": "SÃO BARTOLOMEU DE REGATOS",
      "lon": "-27.28102699281138",
      "lat": "38.673743302467535"
    },
    {
      "id": "pt.ine.add.AC26.100779",
      "street": "R 25 DE JULHO",
      "house": "46",
      "postcode": "9700-505",
      "city": "SÃO BARTOLOMEU DE REGATOS",
      "lon": "-27.28132838530375",
      "lat": "38.67438241837484"
    },
    {
      "id": "pt.ine.add.AC26.103520",
      "street": "R 25 DE JULHO",
      "house": "40",
      "postcode": "9700-505",
      "city": "SÃO BARTOLOMEU DE REGATOS",
      "lon": "-27.28102699281138",
      "lat": "38.673743302467535"
    },
    {
      "id": "pt.ine.add.AC26.105666",
      "street": "R 25 DE JULHO",
      "house": "40",
      "postcode": "9700-505",
      "city": "SÃO BARTOLOMEU DE REGATOS",
      "lon": "-27.28102699281138",
      "lat": "38.673743302467535"
    }
  ]
}