{
  "data": {
    "ilha": "Ilha da Madeira (Madeira)",
    "concelho": "Câmara de Lobos",
    "freguesia": "Câmara de Lobos",
    "OBJECTID": 56,
    "BGRI2021": "31020100903",
    "DT21": "31",
    "DTMN21": "3102",
    "DTMNFR21": "310201",
    "DTMNFRSEC21": "310201009",
    "SECNUM21": "009",
    "SSNUM21": "03",
    "SECSSNUM21": "00903",
    "OBJECTID_1": 203541,
    "DT": "31",
    "CC": "02",
    "fr": "01",
    "SEC": "009",
    "SS": "03",
    "BGRI2021_1": "31020100903"
  },
  "addresses": [
    {
      "id": "pt.ine.add.MAD.2802",
      "street": "CAM RIBEIRO REAL",
      "house": "",
      "postcode": "9300-006",
      "city": "CÂMARA DE LOBOS",
      "lon": "-16.97137885576771",
      "lat": "32.665065511252344"
    },
    {
      "id": "pt.ine.add.MAD.2803",
      "street": "ENT N 2 DO CAMINHO DO RIBEIRO REAL",
      "house": "1",
      "postcode": "9300-006",
      "city": "CÂMARA DE LOBOS",
      "lon": "-16.971551463437734",
      "lat": "32.66370098762663"
    },
    {
      "id": "pt.ine.add.MAD.3589",
      "street": "CAM RIBEIRO REAL",
      "house": "39",
      "postcode": "9300-006",
      "city": "CÂMARA DE LOBOS",
      "lon": "-16.971402412628006",
      "lat": "32.663225343155666"
    },
    {
      "id": "pt.ine.add.MAD.3590",
      "street": "CAM RIBEIRO REAL",
      "house": "37",
      "postcode": "9300-006",
      "city": "CÂMARA DE LOBOS",
      "lon": "-16.97146457954654",
      "lat": "32.66314319868553"
    },
    {
      "id": "pt.ine.add.MAD.3591",
      "street": "TV S JOÃO",
      "house": "2",
      "postcode": "9300-337",
      "city": "CÂMARA DE LOBOS",
      "lon": "-16.971766303108474",
      "lat": "32.662317762643674"
    },
    {
      "id": "pt.ine.add.MAD.3592",
      "street": "TV S JOÃO",
      "house": "6",
      "postcode": "9300-337",
      "city": "CÂMARA DE LOBOS",
      "lon": "-16.971956204026412",
      "lat": "32.66271159708595"
    },
    {
      "id": "pt.ine.add.MAD.3593",
      "street": "CAM S JOÃO",
      "house": "56",
      "postcode": "9300-150",
      "city": "CÂMARA DE LOBOS",
      "lon": "-16.974975721198994",
      "lat": "32.663782406817155"
    },
    {
      "id": "pt.ine.add.MAD.3594",
      "street": "CAM S JOÃO",
      "house": "52",
      "postcode": "9300-150",
      "city": "CÂMARA DE LOBOS",
      "lon": "-16.974611902777866",
      "lat": "32.66323799849354"
    },
    {
      "id": "pt.ine.add.MAD.3595",
      "street": "CAM S JOÃO",
      "house": "48",
      "postcode": "9300-150",
      "city": "CÂMARA DE LOBOS",
      "lon": "-16.974532932937183",
      "lat": "32.66304083197128"
    },
    {
      "id": "pt.ine.add.MAD.3596",
      "street": "CAM S JOÃO",
      "house": "46",
      "postcode": "9300-150",
      "city": "CÂMARA DE LOBOS",
      "lon": "-16.974489308936523",
      "lat": "32.66299642549977"
    },
    {
      "id": "pt.ine.add.MAD.3597",
      "street": "ENT N 1 DO CAMINHO DE S JOÃO",
      "house": "1",
      "postcode": "9300-150",
      "city": "CÂMARA DE LOBOS",
      "lon": "-16.974424567064098",
      "lat": "32.662961369979"
    },
    {
      "id": "pt.ine.add.MAD.3598",
      "street": "CAM S JOÃO-ENT Nº 1",
      "house": "3",
      "postcode": "9300-150",
      "city": "CÂMARA DE LOBOS",
      "lon": "-16.974160890150287",
      "lat": "32.66309178002896"
    },
    {
      "id": "pt.ine.add.MAD.3599",
      "street": "CAM S JOÃO",
      "house": "40",
      "postcode": "9300-150",
      "city": "CÂMARA DE LOBOS",
      "lon": "-16.974379356802142",
      "lat": "32.66284483953479"
    },
    {
      "id": "pt.ine.add.MAD.6002",
      "street": "TV S JOÃO",
      "house": "3",
      "postcode": "9300-337",
      "city": "CÂMARA DE LOBOS",
      "lon": "-16.971879976951083",
      "lat": "32.66215364088489"
    },
    {
      "id": "pt.ine.add.MAD.6003",
      "street": "CAM RIBEIRO REAL",
      "house": "35",
      "postcode": "9300-006",
      "city": "CÂMARA DE LOBOS",
      "lon": "-16.9717836232243",
      "lat": "32.66165011261404"
    },
    {
      "id": "pt.ine.add.MAD.6004",
      "street": "CAM RIBEIRO REAL",
      "house": "29",
      "postcode": "9300-006",
      "city": "CÂMARA DE LOBOS",
      "lon": "-16.971819918237465",
      "lat": "32.661360946345226"
    },
    {
      "id": "pt.ine.add.MAD.6005",
      "street": "CAM RIBEIRO REAL",
      "house": "17",
      "postcode": "9300-006",
      "city": "CÂMARA DE LOBOS",
      "lon": "-16.971712804535528",
      "lat": "32.65939657034445"
    },
    {
      "id": "pt.ine.add.MAD.6006",
      "street": "CAM RIBEIRO REAL",
      "house": "15",
      "postcode": "9300-006",
      "city": "CÂMARA DE LOBOS",
      "lon": "-16.971654566182792",
      "lat": "32.659172020005094"
    },
    {
      "id": "pt.ine.add.MAD.6773",
      "street": "CAM RIBEIRO REAL",
      "house": "7",
      "postcode": "9300-006",
      "city": "CÂMARA DE LOBOS",
      "lon": "-16.97133757514036",
      "lat": "32.65881625615566"
    },
    {
      "id": "pt.ine.add.MAD.6774",
      "street": "ESTR JOÃO GONÇALVES ZARCO",
      "house": "462",
      "postcode": "9300-167",
      "city": "CÂMARA DE LOBOS",
      "lon": "-16.972975243051",
      "lat": "32.65814117313162"
    },
    {
      "id": "pt.ine.add.MAD.6775",
      "street": "CAM S JOÃO",
      "house": "2",
      "postcode": "9300-150",
      "city": "CÂMARA DE LOBOS",
      "lon": "-16.972903611883535",
      "lat": "32.65827757884977"
    },
    {
      "id": "pt.ine.add.MAD.6776",
      "street": "CAM S JOÃO",
      "house": "4",
      "postcode": "9300-150",
      "city": "CÂMARA DE LOBOS",
      "lon": "-16.972903611883535",
      "lat": "32.65827757884977"
    },
    {
      "id": "pt.ine.add.MAD.6777",
      "street": "CAM S JOÃO",
      "house": "6",
      "postcode": "9300-150",
      "city": "CÂMARA DE LOBOS",
      "lon": "-16.972775523030617",
      "lat": "32.65827057432403"
    },
    {
      "id": "pt.ine.add.MAD.6778",
      "street": "CAM S JOÃO",
      "house": "12",
      "postcode": "9300-150",
      "city": "CÂMARA DE LOBOS",
      "lon": "-16.972730080308637",
      "lat": "32.66008403156633"
    },
    {
      "id": "pt.ine.add.MAD.6779",
      "street": "CAM S JOÃO",
      "house": "16",
      "postcode": "9300-150",
      "city": "CÂMARA DE LOBOS",
      "lon": "-16.97325735150137",
      "lat": "32.66127521587351"
    },
    {
      "id": "pt.ine.add.MAD.6780",
      "street": "CAM S JOÃO",
      "house": "18D",
      "postcode": "9300-150",
      "city": "CÂMARA DE LOBOS",
      "lon": "-16.973677569026357",
      "lat": "32.66147603402376"
    },
    {
      "id": "pt.ine.add.MAD.54798",
      "street": "CAM S JOAO",
      "house": "20",
      "postcode": "9300-150",
      "city": "CÂMARA DE LOBOS",
      "lon": "-16.9737119214375",
      "lat": "32.66158371698089"
    },
    {
      "id": "pt.ine.add.MAD.59700",
      "street": "CAM S JOAO",
      "house": "18B 18C",
      "postcode": "9300-150",
      "city": "CÂMARA DE LOBOS",
      "lon": "-16.97363374802717",
      "lat": "32.66142261170124"
    },
    {
      "id": "pt.ine.add.MAD.66023",
      "street": "CAM RIBEIRO REAL",
      "house": "31",
      "postcode": "9300-006",
      "city": "CÂMARA DE LOBOS",
      "lon": "-16.971789528613552",
      "lat": "32.661433572929326"
    },
    {
      "id": "pt.ine.add.MAD.71694",
      "street": "TV S JOÃO",
      "house": "4",
      "postcode": "9300-337",
      "city": "CÂMARA DE LOBOS",
      "lon": "-16.97198441532321",
      "lat": "32.66253979991102"
    },
    {
      "id": "pt.ine.add.MAD.75776",
      "street": "TV S JOÃO",
      "house": "5",
      "postcode": "9300-337",
      "city": "CÂMARA DE LOBOS",
      "lon": "-16.972900811224513",
      "lat": "32.66251637362024"
    },
    {
      "id": "pt.ine.add.MAD.78058",
      "street": "CAM S JOÃO",
      "house": "38",
      "postcode": "9300-150",
      "city": "CÂMARA DE LOBOS",
      "lon": "-16.974057631302276",
      "lat": "32.66275971619199"
    },
    {
      "id": "pt.ine.add.MAD.78059",
      "street": "CAM RIBEIRO REAL",
      "house": "19",
      "postcode": "9300-006",
      "city": "CÂMARA DE LOBOS",
      "lon": "-16.971774805366923",
      "lat": "32.65979241533014"
    },
    {
      "id": "pt.ine.add.MAD.82198",
      "street": "CAM S JOÃO",
      "house": "18A",
      "postcode": "9300-150",
      "city": "CÂMARA DE LOBOS",
      "lon": "-16.973524988546743",
      "lat": "32.661325117810456"
    },
    {
      "id": "pt.ine.add.MAD.87820",
      "street": "TV S JOÃO",
      "house": "8",
      "postcode": "9300-337",
      "city": "CÂMARA DE LOBOS",
      "lon": "-16.971991743274234",
      "lat": "32.66287337358232"
    },
    {
      "id": "pt.ine.add.MAD.91641",
      "street": "TV S JOÃO",
      "house": "11",
      "postcode": "9300-337",
      "city": "CÂMARA DE LOBOS",
      "lon": "-16.973063060109485",
      "lat": "32.66262204541393"
    },
    {
      "id": "pt.ine.add.MAD.91642",
      "street": "CAM S JOÃO",
      "house": "28",
      "postcode": "9300-150",
      "city": "CÂMARA DE LOBOS",
      "lon": "-16.973745481052134",
      "lat": "32.66165533793751"
    },
    {
      "id": "pt.ine.add.MAD.93488",
      "street": "ENT N 1 DO CAMINHO DE S JOÃO",
      "house": "2",
      "postcode": "9300-150",
      "city": "CÂMARA DE LOBOS",
      "lon": "-16.974198169176294",
      "lat": "32.66284769086875"
    },
    {
      "id": "pt.ine.add.MAD.97527",
      "street": "ENT N 2 DO CAMINHO DO RIBEIRO REAL",
      "house": "2",
      "postcode": "9300-006",
      "city": "CÂMARA DE LOBOS",
      "lon": "-16.97136215592009",
      "lat": "32.66333419916352"
    },
    {
      "id": "pt.ine.add.MAD.106248",
      "street": "CAM RIBEIRO REAL",
      "house": "",
      "postcode": "9304-007",
      "city": "CÂMARA DE LOBOS",
      "lon": "-16.971976618600834",
      "lat": "32.66121418549888"
    },
    {
      "id": "pt.ine.add.MAD.119349",
      "street": "CAM RIBEIRO REAL",
      "house": "23",
      "postcode": "9300-006",
      "city": "CÂMARA DE LOBOS",
      "lon": "-16.971552543015832",
      "lat": "32.65938105158619"
    },
    {
      "id": "pt.ine.add.MAD.123390",
      "street": "CAM S JOÃO",
      "house": "36",
      "postcode": "9300-150",
      "city": "CÂMARA DE LOBOS",
      "lon": "-16.974095108784223",
      "lat": "32.66252464253828"
    },
    {
      "id": "pt.ine.add.MAD.124163",
      "street": "CAM RIBEIRO REAL",
      "house": "11",
      "postcode": "9300-006",
      "city": "CÂMARA DE LOBOS",
      "lon": "-16.97149173138921",
      "lat": "32.659039299493486"
    },
    {
      "id": "pt.ine.add.MAD.124320",
      "street": "CAM S JOAO",
      "house": "N 22",
      "postcode": "9300-150",
      "city": "CÂMARA DE LOBOS",
      "lon": "-16.9737119214375",
      "lat": "32.66158371698089"
    },
    {
      "id": "pt.ine.add.MAD.125794",
      "street": "TV S JOÃO",
      "house": "5",
      "postcode": "9300-337",
      "city": "CÂMARA DE LOBOS",
      "lon": "-16.972900811224513",
      "lat": "32.66251637362024"
    },
    {
      "id": "pt.ine.add.MAD.125947",
      "street": "CAM RIBEIRO REAL",
      "house": "25",
      "postcode": "9300-006",
      "city": "CÂMARA DE LOBOS",
      "lon": "-16.971935337206943",
      "lat": "32.660790959215134"
    }
  ]
}