{
  "data": {
    "distrito": "Guarda",
    "concelho": "Celorico da Beira",
    "freguesia": "Mesquitela",
    "OBJECTID": 183,
    "BGRI2021": "09031000126",
    "DT21": "09",
    "DTMN21": "0903",
    "DTMNFR21": "090310",
    "DTMNFRSEC21": "090310001",
    "SECNUM21": "001",
    "SSNUM21": "26",
    "SECSSNUM21": "00126",
    "OBJECTID_1": 75998,
    "DT": "09",
    "CC": "03",
    "fr": "10",
    "SEC": "001",
    "SS": "26"
  },
  "addresses": [
    {
      "id": "pt.ine.add.PTCONT.1900712",
      "street": "TV DO OUTEIRO",
      "house": "",
      "postcode": "6360-101",
      "city": "MESQUITELA CLB",
      "lon": "-7.470085689954863",
      "lat": "40.59593586345431"
    },
    {
      "id": "pt.ine.add.PTCONT.1911150",
      "street": "R DO CALVÁRIO",
      "house": "4",
      "postcode": "6360-101",
      "city": "MESQUITELA CLB",
      "lon": "-7.470557587340734",
      "lat": "40.596001607501925"
    },
    {
      "id": "pt.ine.add.PTCONT.1917989",
      "street": "R DA ORDEM DE MALTA",
      "house": "",
      "postcode": "6360-101",
      "city": "MESQUITELA CLB",
      "lon": "-7.468670181788064",
      "lat": "40.59572061045864"
    },
    {
      "id": "pt.ine.add.PTCONT.1920103",
      "street": "TV DO FREIXO",
      "house": "3",
      "postcode": "6360-101",
      "city": "MESQUITELA CLB",
      "lon": "-7.468977229369536",
      "lat": "40.59573138150222"
    },
    {
      "id": "pt.ine.add.PTCONT.1926690",
      "street": "TV DO OUTEIRO",
      "house": "7",
      "postcode": "6360-101",
      "city": "MESQUITELA CLB",
      "lon": "-7.470039861400436",
      "lat": "40.59579151758092"
    },
    {
      "id": "pt.ine.add.PTCONT.1928713",
      "street": "R DA ORDEM DE MALTA",
      "house": "1",
      "postcode": "6360-101",
      "city": "MESQUITELA CLB",
      "lon": "-7.468826780371566",
      "lat": "40.59541533522668"
    },
    {
      "id": "pt.ine.add.PTCONT.1931847",
      "street": "R DIREITA",
      "house": "14",
      "postcode": "6360-101",
      "city": "MESQUITELA CLB",
      "lon": "-7.469629701299562",
      "lat": "40.595455970806746"
    },
    {
      "id": "pt.ine.add.PTCONT.1936440",
      "street": "TV DO FREIXO",
      "house": "2",
      "postcode": "6360-101",
      "city": "MESQUITELA CLB",
      "lon": "-7.468859010734897",
      "lat": "40.59573970688359"
    },
    {
      "id": "pt.ine.add.PTCONT.1938040",
      "street": "R DO CALVÁRIO",
      "house": "",
      "postcode": "6360-101",
      "city": "MESQUITELA CLB",
      "lon": "-7.470380303383799",
      "lat": "40.59600959561865"
    },
    {
      "id": "pt.ine.add.PTCONT.1942099",
      "street": "R DA ORDEM DE MALTA",
      "house": "3",
      "postcode": "6360-101",
      "city": "MESQUITELA CLB",
      "lon": "-7.4687674484977284",
      "lat": "40.59544200951435"
    },
    {
      "id": "pt.ine.add.PTCONT.1950842",
      "street": "R DIREITA",
      "house": "12",
      "postcode": "6360-101",
      "city": "MESQUITELA CLB",
      "lon": "-7.469511750319519",
      "lat": "40.595437282869014"
    },
    {
      "id": "pt.ine.add.PTCONT.1964805",
      "street": "TV DO OUTEIRO",
      "house": "",
      "postcode": "6360-101",
      "city": "MESQUITELA CLB",
      "lon": "-7.470100171585524",
      "lat": "40.59566579132925"
    },
    {
      "id": "pt.ine.add.PTCONT.1968380",
      "street": "TV DO FREIXO",
      "house": "",
      "postcode": "6360-101",
      "city": "MESQUITELA CLB",
      "lon": "-7.468754298586682",
      "lat": "40.595577011507416"
    },
    {
      "id": "pt.ine.add.PTCONT.1969354",
      "street": "R DO PALHEIRÃO",
      "house": "2",
      "postcode": "6360-101",
      "city": "MESQUITELA CLB",
      "lon": "-7.470009048752656",
      "lat": "40.59532307157274"
    },
    {
      "id": "pt.ine.add.PTCONT.1969849",
      "street": "TV DO FREIXO",
      "house": "",
      "postcode": "6360-101",
      "city": "MESQUITELA CLB",
      "lon": "-7.468718324979794",
      "lat": "40.59563083564148"
    },
    {
      "id": "pt.ine.add.PTCONT.1973782",
      "street": "R DA QUINA DA TULHA",
      "house": "1",
      "postcode": "6360-101",
      "city": "MESQUITELA CLB",
      "lon": "-7.469795882916493",
      "lat": "40.59537587867719"
    },
    {
      "id": "pt.ine.add.PTCONT.1861551",
      "street": "TV DO OUTEIRO",
      "house": "6",
      "postcode": "6360-101",
      "city": "MESQUITELA CLB",
      "lon": "-7.469733169349822",
      "lat": "40.59574473070346"
    },
    {
      "id": "pt.ine.add.PTCONT.1862057",
      "street": "TV DO FREIXO",
      "house": "4",
      "postcode": "6360-101",
      "city": "MESQUITELA CLB",
      "lon": "-7.4691559380219115",
      "lat": "40.59557932092691"
    },
    {
      "id": "pt.ine.add.PTCONT.1868797",
      "street": "R DIREITA",
      "house": "8",
      "postcode": "6360-101",
      "city": "MESQUITELA CLB",
      "lon": "-7.469405167071346",
      "lat": "40.59546368600845"
    },
    {
      "id": "pt.ine.add.PTCONT.1872102",
      "street": "TV DO OUTEIRO",
      "house": "",
      "postcode": "6360-101",
      "city": "MESQUITELA CLB",
      "lon": "-7.470017214091723",
      "lat": "40.59569233064329"
    },
    {
      "id": "pt.ine.add.PTCONT.1872103",
      "street": "TV DO OUTEIRO",
      "house": "4",
      "postcode": "6360-101",
      "city": "MESQUITELA CLB",
      "lon": "-7.47010177275242",
      "lat": "40.59550370736306"
    },
    {
      "id": "pt.ine.add.PTCONT.1883705",
      "street": "R DA ORDEM DE MALTA",
      "house": "5",
      "postcode": "6360-101",
      "city": "MESQUITELA CLB",
      "lon": "-7.468683955906618",
      "lat": "40.595522575844285"
    },
    {
      "id": "pt.ine.add.PTCONT.1887274",
      "street": "TV DO OUTEIRO",
      "house": "",
      "postcode": "6360-101",
      "city": "MESQUITELA CLB",
      "lon": "-7.469865158535844",
      "lat": "40.595538369644586"
    },
    {
      "id": "pt.ine.add.PTCONT.1890123",
      "street": "R DIREITA",
      "house": "6",
      "postcode": "6360-101",
      "city": "MESQUITELA CLB",
      "lon": "-7.46927486885655",
      "lat": "40.595498957932"
    },
    {
      "id": "pt.ine.add.PTCONT.1892597",
      "street": "R DA QUINA DA TULHA",
      "house": "3",
      "postcode": "6360-101",
      "city": "MESQUITELA CLB",
      "lon": "-7.4699018430176585",
      "lat": "40.59541250782775"
    },
    {
      "id": "pt.ine.add.PTCONT.1893537",
      "street": "TV DO OUTEIRO",
      "house": "1",
      "postcode": "6360-101",
      "city": "MESQUITELA CLB",
      "lon": "-7.470231803747006",
      "lat": "40.595495448498916"
    },
    {
      "id": "pt.ine.add.PTCONT.1895980",
      "street": "TV DO FREIXO",
      "house": "",
      "postcode": "6360-101",
      "city": "MESQUITELA CLB",
      "lon": "-7.468955118298479",
      "lat": "40.59557816639172"
    },
    {
      "id": "pt.ine.add.PTCONT.1897406",
      "street": "R DA ORDEM DE MALTA",
      "house": "",
      "postcode": "6360-101",
      "city": "MESQUITELA CLB",
      "lon": "-7.468467756540455",
      "lat": "40.59588153898213"
    }
  ]
}