{
  "data": {
    "distrito": "Castelo Branco",
    "concelho": "Castelo Branco",
    "freguesia": "Castelo Branco",
    "OBJECTID": 388,
    "BGRI2021": "05020503416",
    "DT21": "05",
    "DTMN21": "0502",
    "DTMNFR21": "050205",
    "DTMNFRSEC21": "050205034",
    "SECNUM21": "034",
    "SSNUM21": "16",
    "SECSSNUM21": "03416",
    "OBJECTID_1": 41571,
    "DT": "05",
    "CC": "02",
    "fr": "05",
    "SEC": "034",
    "SS": "16"
  },
  "addresses": [
    {
      "id": "pt.ine.add.PTCONT.955191",
      "street": "R CABEÇO",
      "house": "13",
      "postcode": "6000-455",
      "city": "CASTELO BRANCO",
      "lon": "-7.536917075436332",
      "lat": "39.83035823530797"
    },
    {
      "id": "pt.ine.add.PTCONT.956343",
      "street": "R CABEÇO",
      "house": "10",
      "postcode": "6000-455",
      "city": "CASTELO BRANCO",
      "lon": "-7.536818019444513",
      "lat": "39.82830427245494"
    },
    {
      "id": "pt.ine.add.PTCONT.960657",
      "street": "MTE FORMIGA",
      "house": "111",
      "postcode": "6000-455",
      "city": "CASTELO BRANCO",
      "lon": "-7.539070838129517",
      "lat": "39.83120687591178"
    },
    {
      "id": "pt.ine.add.PTCONT.968368",
      "street": "R CABEÇO",
      "house": "2",
      "postcode": "6000-455",
      "city": "CASTELO BRANCO",
      "lon": "-7.535815321920411",
      "lat": "39.83078487434041"
    },
    {
      "id": "pt.ine.add.PTCONT.984162",
      "street": "MTE FORMIGA",
      "house": "109",
      "postcode": "6000-455",
      "city": "CASTELO BRANCO",
      "lon": "-7.53945460895403",
      "lat": "39.83140698051096"
    },
    {
      "id": "pt.ine.add.PTCONT.984163",
      "street": "MTE FORMIGA",
      "house": "110",
      "postcode": "6000-455",
      "city": "CASTELO BRANCO",
      "lon": "-7.53949159040831",
      "lat": "39.831182010387515"
    },
    {
      "id": "pt.ine.add.PTCONT.986107",
      "street": "MTE FORMIGA",
      "house": "104",
      "postcode": "6000-455",
      "city": "CASTELO BRANCO",
      "lon": "-7.5400387570187135",
      "lat": "39.83004099909511"
    },
    {
      "id": "pt.ine.add.PTCONT.992201",
      "street": "R CABECEIRO DA LIRIA",
      "house": "",
      "postcode": "6000-096",
      "city": "CASTELO BRANCO",
      "lon": "-7.529525949972151",
      "lat": "39.83666050118241"
    },
    {
      "id": "pt.ine.add.PTCONT.997259",
      "street": "R RIBEIRO DA SETA",
      "house": "",
      "postcode": "6000-096",
      "city": "CASTELO BRANCO",
      "lon": "-7.537245716068582",
      "lat": "39.83288170805477"
    },
    {
      "id": "pt.ine.add.PTCONT.1005718",
      "street": "R CABEÇO",
      "house": "12",
      "postcode": "6000-455",
      "city": "CASTELO BRANCO",
      "lon": "-7.536951028387325",
      "lat": "39.830484499024735"
    },
    {
      "id": "pt.ine.add.PTCONT.1008319",
      "street": "R RIBEIRO DA SETA",
      "house": "",
      "postcode": "6000-096",
      "city": "CASTELO BRANCO",
      "lon": "-7.535516221933973",
      "lat": "39.834295818749275"
    },
    {
      "id": "pt.ine.add.PTCONT.1014215",
      "street": "R CABEÇO",
      "house": "4",
      "postcode": "6000-455",
      "city": "CASTELO BRANCO",
      "lon": "-7.535935095567771",
      "lat": "39.830443248698494"
    },
    {
      "id": "pt.ine.add.PTCONT.1021172",
      "street": "R CABEÇO",
      "house": "6",
      "postcode": "6000-455",
      "city": "CASTELO BRANCO",
      "lon": "-7.536118963499645",
      "lat": "39.829444487335635"
    },
    {
      "id": "pt.ine.add.PTCONT.1029596",
      "street": "MTE FORMIGA",
      "house": "112",
      "postcode": "6000-455",
      "city": "CASTELO BRANCO",
      "lon": "-7.53894436341088",
      "lat": "39.830972062531195"
    },
    {
      "id": "pt.ine.add.PTCONT.1029597",
      "street": "MTE FORMIGA",
      "house": "101",
      "postcode": "6000-455",
      "city": "CASTELO BRANCO",
      "lon": "-7.541866659766365",
      "lat": "39.83211278859646"
    },
    {
      "id": "pt.ine.add.PTCONT.1032614",
      "street": "MTE FORMIGA",
      "house": "114",
      "postcode": "6000-455",
      "city": "CASTELO BRANCO",
      "lon": "-7.538766198081049",
      "lat": "39.83131339216156"
    },
    {
      "id": "pt.ine.add.PTCONT.1037369",
      "street": "R CABEÇO",
      "house": "6",
      "postcode": "6000-455",
      "city": "CASTELO BRANCO",
      "lon": "-7.536378824198819",
      "lat": "39.82911258827767"
    },
    {
      "id": "pt.ine.add.PTCONT.1039718",
      "street": "R RIBEIRO DA SETA",
      "house": "",
      "postcode": "6000-096",
      "city": "CASTELO BRANCO",
      "lon": "-7.531942405191423",
      "lat": "39.830170450099736"
    },
    {
      "id": "pt.ine.add.PTCONT.1041051",
      "street": "MTE FORMIGA",
      "house": "102",
      "postcode": "6000-455",
      "city": "CASTELO BRANCO",
      "lon": "-7.540306806704708",
      "lat": "39.82875445708823"
    },
    {
      "id": "pt.ine.add.PTCONT.1042160",
      "street": "R CABEÇO",
      "house": "15",
      "postcode": "6000-455",
      "city": "CASTELO BRANCO",
      "lon": "-7.535477664853262",
      "lat": "39.83065704625416"
    },
    {
      "id": "pt.ine.add.PTCONT.1042273",
      "street": "R PENEDO GORDO",
      "house": "",
      "postcode": "6000-114",
      "city": "CASTELO BRANCO",
      "lon": "-7.545346379661845",
      "lat": "39.85146712366193"
    },
    {
      "id": "pt.ine.add.PTCONT.1045595",
      "street": "R CABECEIRO DA LIRIA",
      "house": "",
      "postcode": "6000-096",
      "city": "CASTELO BRANCO",
      "lon": "-7.528247644885862",
      "lat": "39.835888302628646"
    },
    {
      "id": "pt.ine.add.PTCONT.1046693",
      "street": "MTE FORMIGA",
      "house": "105",
      "postcode": "6000-455",
      "city": "CASTELO BRANCO",
      "lon": "-7.540338814554156",
      "lat": "39.83182579477762"
    },
    {
      "id": "pt.ine.add.PTCONT.1050672",
      "street": "R CABEÇO",
      "house": "3",
      "postcode": "6000-455",
      "city": "CASTELO BRANCO",
      "lon": "-7.535886343956499",
      "lat": "39.83067716347643"
    },
    {
      "id": "pt.ine.add.PTCONT.1066111",
      "street": "MTE FORMIGA",
      "house": "107",
      "postcode": "6000-455",
      "city": "CASTELO BRANCO",
      "lon": "-7.53976906984422",
      "lat": "39.83151666565408"
    },
    {
      "id": "pt.ine.add.PTCONT.1075062",
      "street": "R CABEÇO",
      "house": "11",
      "postcode": "6000-455",
      "city": "CASTELO BRANCO",
      "lon": "-7.537510052827986",
      "lat": "39.82797459116014"
    },
    {
      "id": "pt.ine.add.PTCONT.1082645",
      "street": "MTE FORMIGA",
      "house": "108",
      "postcode": "6000-455",
      "city": "CASTELO BRANCO",
      "lon": "-7.54019199184649",
      "lat": "39.83123963021611"
    },
    {
      "id": "pt.ine.add.PTCONT.1082899",
      "street": "R CABEÇO",
      "house": "1",
      "postcode": "6000-455",
      "city": "CASTELO BRANCO",
      "lon": "-7.535844983209341",
      "lat": "39.83140646679491"
    },
    {
      "id": "pt.ine.add.PTCONT.1088718",
      "street": "R CABEÇO",
      "house": "5",
      "postcode": "6000-455",
      "city": "CASTELO BRANCO",
      "lon": "-7.536361922499847",
      "lat": "39.829715928534426"
    },
    {
      "id": "pt.ine.add.PTCONT.1090953",
      "street": "MTE FORMIGA",
      "house": "106",
      "postcode": "6000-455",
      "city": "CASTELO BRANCO",
      "lon": "-7.540585977091982",
      "lat": "39.83161090438609"
    },
    {
      "id": "pt.ine.add.PTCONT.1095989",
      "street": "R CABEÇO",
      "house": "7",
      "postcode": "6000-455",
      "city": "CASTELO BRANCO",
      "lon": "-7.536214124657599",
      "lat": "39.82924683668976"
    },
    {
      "id": "pt.ine.add.PTCONT.1096264",
      "street": "R PENEDO GORDO",
      "house": "",
      "postcode": "6000-114",
      "city": "CASTELO BRANCO",
      "lon": "-7.55003925129239",
      "lat": "39.84923921967203"
    },
    {
      "id": "pt.ine.add.PTCONT.1097560",
      "street": "R CABEÇO",
      "house": "9",
      "postcode": "6000-455",
      "city": "CASTELO BRANCO",
      "lon": "-7.536499526917191",
      "lat": "39.828662890195844"
    },
    {
      "id": "pt.ine.add.PTCONT.1098006",
      "street": "R CABEÇO",
      "house": "11",
      "postcode": "6000-455",
      "city": "CASTELO BRANCO",
      "lon": "-7.535007925432045",
      "lat": "39.83094282952393"
    }
  ]
}