{
  "data": {
    "distrito": "Santar√©m",
    "concelho": "Abrantes",
    "freguesia": "Bemposta",
    "OBJECTID": 690,
    "BGRI2021": "14010400219",
    "DT21": "14",
    "DTMN21": "1401",
    "DTMNFR21": "140104",
    "DTMNFRSEC21": "140104002",
    "SECNUM21": "002",
    "SSNUM21": "19",
    "SECSSNUM21": "00219",
    "OBJECTID_1": 146793,
    "DT": "14",
    "CC": "01",
    "fr": "04",
    "SEC": "002",
    "SS": "19"
  },
  "addresses": [
    {
      "id": "pt.ine.add.PTCONT.4398011",
      "street": "R BAIRRO NOVO",
      "house": "194",
      "postcode": "2205-409",
      "city": "BEMPOSTA ABT",
      "lon": "-8.22340917086907",
      "lat": "39.365796955765"
    },
    {
      "id": "pt.ine.add.PTCONT.4398012",
      "street": "R BAIRRO NOVO",
      "house": "224",
      "postcode": "2205-409",
      "city": "BEMPOSTA ABT",
      "lon": "-8.223316676553946",
      "lat": "39.366058235811444"
    },
    {
      "id": "pt.ine.add.PTCONT.4406260",
      "street": "R BAIRRO NOVO",
      "house": "190",
      "postcode": "2205-409",
      "city": "BEMPOSTA ABT",
      "lon": "-8.2231769677011",
      "lat": "39.36569805669221"
    },
    {
      "id": "pt.ine.add.PTCONT.4417841",
      "street": "R FONTE",
      "house": "105",
      "postcode": "2205-409",
      "city": "BEMPOSTA ABT",
      "lon": "-8.222268402781992",
      "lat": "39.36296957905743"
    },
    {
      "id": "pt.ine.add.PTCONT.4424681",
      "street": "R BAIRRO NOVO",
      "house": "190",
      "postcode": "2205-409",
      "city": "BEMPOSTA ABT",
      "lon": "-8.223409078072415",
      "lat": "39.3657248983694"
    },
    {
      "id": "pt.ine.add.PTCONT.4430450",
      "street": "R 25 DE ABRIL",
      "house": "771",
      "postcode": "2205-409",
      "city": "BEMPOSTA ABT",
      "lon": "-8.222120635063156",
      "lat": "39.365392625196385"
    },
    {
      "id": "pt.ine.add.PTCONT.4436598",
      "street": "R 25 DE ABRIL",
      "house": "563",
      "postcode": "2205-409",
      "city": "BEMPOSTA ABT",
      "lon": "-8.223267921769834",
      "lat": "39.364238822343935"
    },
    {
      "id": "pt.ine.add.PTCONT.4466148",
      "street": "R 25 DE ABRIL",
      "house": "751",
      "postcode": "2205-409",
      "city": "BEMPOSTA ABT",
      "lon": "-8.22205112694223",
      "lat": "39.36548275018058"
    },
    {
      "id": "pt.ine.add.PTCONT.4484987",
      "street": "R 25 DE ABRIL",
      "house": "",
      "postcode": "2205-409",
      "city": "BEMPOSTA ABT",
      "lon": "-8.222039614587278",
      "lat": "39.36555481644973"
    },
    {
      "id": "pt.ine.add.PTCONT.4486668",
      "street": "R 25 DE ABRIL",
      "house": "",
      "postcode": "2205-409",
      "city": "BEMPOSTA ABT",
      "lon": "-8.223047812692391",
      "lat": "39.3645182154135"
    },
    {
      "id": "pt.ine.add.PTCONT.4493454",
      "street": "R BAIRRO NOVO",
      "house": "128",
      "postcode": "2205-409",
      "city": "BEMPOSTA ABT",
      "lon": "-8.223663721526762",
      "lat": "39.36522930538837"
    },
    {
      "id": "pt.ine.add.PTCONT.4494946",
      "street": "R BAIRRO NOVO",
      "house": "230",
      "postcode": "2205-409",
      "city": "BEMPOSTA ABT",
      "lon": "-8.222782796316032",
      "lat": "39.365977583777855"
    },
    {
      "id": "pt.ine.add.PTCONT.4495597",
      "street": "R FONTE",
      "house": "147",
      "postcode": "2205-409",
      "city": "BEMPOSTA ABT",
      "lon": "-8.221943110257198",
      "lat": "39.36265457623548"
    },
    {
      "id": "pt.ine.add.PTCONT.4499623",
      "street": "R BAIRRO NOVO",
      "house": "",
      "postcode": "2205-409",
      "city": "BEMPOSTA ABT",
      "lon": "-8.223247238787211",
      "lat": "39.366202404541696"
    },
    {
      "id": "pt.ine.add.PTCONT.4505621",
      "street": "R 25 DE ABRIL",
      "house": "",
      "postcode": "2205-409",
      "city": "BEMPOSTA ABT",
      "lon": "-8.221796471166632",
      "lat": "39.36597833962548"
    },
    {
      "id": "pt.ine.add.PTCONT.4515110",
      "street": "R BAIRRO NOVO",
      "house": "208",
      "postcode": "2205-409",
      "city": "BEMPOSTA ABT",
      "lon": "-8.223386079245579",
      "lat": "39.365887045513745"
    },
    {
      "id": "pt.ine.add.PTCONT.4515230",
      "street": "R FONTE",
      "house": "57",
      "postcode": "2205-409",
      "city": "BEMPOSTA ABT",
      "lon": "-8.222512761659939",
      "lat": "39.36350982283475"
    },
    {
      "id": "pt.ine.add.PTCONT.4518019",
      "street": "R ANTINGA",
      "house": "",
      "postcode": "2205-409",
      "city": "BEMPOSTA ABT",
      "lon": "-8.220713770646663",
      "lat": "39.363141896289825"
    },
    {
      "id": "pt.ine.add.PTCONT.4536478",
      "street": "R BAIRRO NOVO",
      "house": "118",
      "postcode": "2205-409",
      "city": "BEMPOSTA ABT",
      "lon": "-8.223651978259268",
      "lat": "39.365121228313434"
    },
    {
      "id": "pt.ine.add.PTCONT.4554877",
      "street": "R FONTE",
      "house": "21",
      "postcode": "2205-409",
      "city": "BEMPOSTA ABT",
      "lon": "-8.223035181075373",
      "lat": "39.36371658561954"
    },
    {
      "id": "pt.ine.add.PTCONT.4573698",
      "street": "R BAIRRO NOVO",
      "house": "172",
      "postcode": "2205-409",
      "city": "BEMPOSTA ABT",
      "lon": "-8.22349016523409",
      "lat": "39.36561674921897"
    },
    {
      "id": "pt.ine.add.PTCONT.4574966",
      "street": "R 25 ABRIL",
      "house": "640",
      "postcode": "2205-409",
      "city": "BEMPOSTA ABT",
      "lon": "-8.2223164431621",
      "lat": "39.36424856277365"
    },
    {
      "id": "pt.ine.add.PTCONT.4577793",
      "street": "R BAIRRO NOVO",
      "house": "",
      "postcode": "2205-409",
      "city": "BEMPOSTA ABT",
      "lon": "-8.22328161020658",
      "lat": "39.36586010495871"
    },
    {
      "id": "pt.ine.add.PTCONT.4588331",
      "street": "R BAIRRO NOVO",
      "house": "200",
      "postcode": "2205-409",
      "city": "BEMPOSTA ABT",
      "lon": "-8.223188652478484",
      "lat": "39.36576109793275"
    },
    {
      "id": "pt.ine.add.PTCONT.4598753",
      "street": "R 25 DE ABRIL",
      "house": "",
      "postcode": "2205-409",
      "city": "BEMPOSTA ABT",
      "lon": "-8.223592437267587",
      "lat": "39.36394133334244"
    },
    {
      "id": "pt.ine.add.PTCONT.4613248",
      "street": "R 25 DE ABRIL",
      "house": "",
      "postcode": "2205-409",
      "city": "BEMPOSTA ABT",
      "lon": "-8.221912235644755",
      "lat": "39.36576207894462"
    },
    {
      "id": "pt.ine.add.PTCONT.4617724",
      "street": "R ANTINGA",
      "house": "476",
      "postcode": "2205-409",
      "city": "BEMPOSTA ABT",
      "lon": "-8.220737123678735",
      "lat": "39.363258972146134"
    },
    {
      "id": "pt.ine.add.PTCONT.4621740",
      "street": "R FONTE",
      "house": "33",
      "postcode": "2205-409",
      "city": "BEMPOSTA ABT",
      "lon": "-8.22268689345254",
      "lat": "39.36357273923945"
    },
    {
      "id": "pt.ine.add.PTCONT.4627410",
      "street": "R 25 DE ABRIL",
      "house": "617",
      "postcode": "2205-409",
      "city": "BEMPOSTA ABT",
      "lon": "-8.222641641265321",
      "lat": "39.364482499866156"
    },
    {
      "id": "pt.ine.add.PTCONT.4634073",
      "street": "R 25 DE ABRIL",
      "house": "855",
      "postcode": "2205-409",
      "city": "BEMPOSTA ABT",
      "lon": "-8.221831453598528",
      "lat": "39.366113420706704"
    },
    {
      "id": "pt.ine.add.PTCONT.4638074",
      "street": "R 25 DE ABRIL",
      "house": "",
      "postcode": "2205-409",
      "city": "BEMPOSTA ABT",
      "lon": "-8.223232868056138",
      "lat": "39.36404969859036"
    },
    {
      "id": "pt.ine.add.PTCONT.4646210",
      "street": "R ANTINGA",
      "house": "",
      "postcode": "2205-409",
      "city": "BEMPOSTA ABT",
      "lon": "-8.22093552044246",
      "lat": "39.3641685484509"
    },
    {
      "id": "pt.ine.add.PTCONT.4657897",
      "street": "R 25 DE ABRIL",
      "house": "741",
      "postcode": "2205-409",
      "city": "BEMPOSTA ABT",
      "lon": "-8.22210865406731",
      "lat": "39.36509539727737"
    },
    {
      "id": "pt.ine.add.PTCONT.4660132",
      "street": "R 25 DE ABRIL",
      "house": "",
      "postcode": "2205-409",
      "city": "BEMPOSTA ABT",
      "lon": "-8.221831168673493",
      "lat": "39.36588824134513"
    }
  ]
}