{
  "data": {
    "distrito": "Lisboa",
    "concelho": "Lourinhã",
    "freguesia": "União das freguesias de Lourinhã e Atalaia",
    "OBJECTID": 614,
    "BGRI2021": "11081200822",
    "DT21": "11",
    "DTMN21": "1108",
    "DTMNFR21": "110812",
    "DTMNFRSEC21": "110812008",
    "SECNUM21": "008",
    "SSNUM21": "22",
    "SECSSNUM21": "00822",
    "OBJECTID_1": 107225,
    "DT": "11",
    "CC": "08",
    "fr": "12",
    "SEC": "008",
    "SS": "22"
  },
  "addresses": [
    {
      "id": "pt.ine.add.PTCONT.2298703",
      "street": "R BONS AMIGOS",
      "house": "1",
      "postcode": "2530-931",
      "city": "LOURINHÃ",
      "lon": "-9.256466743290924",
      "lat": "39.25245282072684"
    },
    {
      "id": "pt.ine.add.PTCONT.2433986",
      "street": "R PRINCIPAL",
      "house": "121",
      "postcode": "2530-309",
      "city": "LOURINHÃ",
      "lon": "-9.257503304048505",
      "lat": "39.25207352934589"
    },
    {
      "id": "pt.ine.add.PTCONT.2442180",
      "street": "R PRINCIPAL",
      "house": "117",
      "postcode": "2530-309",
      "city": "LOURINHÃ",
      "lon": "-9.25784819827498",
      "lat": "39.25190807250086"
    },
    {
      "id": "pt.ine.add.PTCONT.2544132",
      "street": "R PRINCIPAL",
      "house": "119",
      "postcode": "2530-309",
      "city": "LOURINHÃ",
      "lon": "-9.257687046428",
      "lat": "39.2519726779477"
    },
    {
      "id": "pt.ine.add.PTCONT.2580416",
      "street": "R MOINHO",
      "house": "22",
      "postcode": "2530-303",
      "city": "LOURINHÃ",
      "lon": "-9.256844459997994",
      "lat": "39.251440390987554"
    },
    {
      "id": "pt.ine.add.PTCONT.2580417",
      "street": "R MOINHO",
      "house": "8",
      "postcode": "2530-303",
      "city": "LOURINHÃ",
      "lon": "-9.258306183439283",
      "lat": "39.25157038873259"
    },
    {
      "id": "pt.ine.add.PTCONT.2626082",
      "street": "R MATA",
      "house": "9 A",
      "postcode": "2530-931",
      "city": "LOURINHÃ",
      "lon": "-9.25718625419369",
      "lat": "39.25180637979527"
    },
    {
      "id": "pt.ine.add.PTCONT.2795141",
      "street": "R PRINCIPAL",
      "house": "123",
      "postcode": "2530-309",
      "city": "LOURINHÃ",
      "lon": "-9.25733258217556",
      "lat": "39.252264324878"
    },
    {
      "id": "pt.ine.add.PTCONT.2869562",
      "street": "R MOINHO",
      "house": "22 A",
      "postcode": "2530-303",
      "city": "LOURINHÃ",
      "lon": "-9.256694028558016",
      "lat": "39.25145084953168"
    },
    {
      "id": "pt.ine.add.PTCONT.2895125",
      "street": "R MOINHO",
      "house": "10",
      "postcode": "2530-303",
      "city": "LOURINHÃ",
      "lon": "-9.258213377738771",
      "lat": "39.25156227840185"
    },
    {
      "id": "pt.ine.add.PTCONT.2896949",
      "street": "R MOINHO",
      "house": "18",
      "postcode": "2530-303",
      "city": "LOURINHÃ",
      "lon": "-9.257030645948934",
      "lat": "39.25149263626995"
    },
    {
      "id": "pt.ine.add.PTCONT.2911212",
      "street": "R MOINHO",
      "house": "26",
      "postcode": "2530-303",
      "city": "LOURINHÃ",
      "lon": "-9.256196403082908",
      "lat": "39.25148267083497"
    },
    {
      "id": "pt.ine.add.PTCONT.2946348",
      "street": "R MOINHO",
      "house": "4",
      "postcode": "2530-303",
      "city": "LOURINHÃ",
      "lon": "-9.25868898916244",
      "lat": "39.25160271735907"
    },
    {
      "id": "pt.ine.add.PTCONT.2946351",
      "street": "CSL POISOS",
      "house": "4",
      "postcode": "2530-297",
      "city": "LOURINHÃ",
      "lon": "-9.254434586584491",
      "lat": "39.265964897746365"
    },
    {
      "id": "pt.ine.add.PTCONT.3086812",
      "street": "R MOINHO",
      "house": "6",
      "postcode": "2530-303",
      "city": "LOURINHÃ",
      "lon": "-9.258503233654261",
      "lat": "39.251577491614945"
    },
    {
      "id": "pt.ine.add.PTCONT.3123238",
      "street": "R PRINCIPAL",
      "house": "129",
      "postcode": "2530-309",
      "city": "LOURINHÃ",
      "lon": "-9.256301765364103",
      "lat": "39.253003839822604"
    },
    {
      "id": "pt.ine.add.PTCONT.3155398",
      "street": "R PRINCIPAL",
      "house": "125",
      "postcode": "2530-309",
      "city": "LOURINHÃ",
      "lon": "-9.256998405165037",
      "lat": "39.252375634694026"
    },
    {
      "id": "pt.ine.add.PTCONT.3160948",
      "street": "R PRINCIPAL",
      "house": "113A",
      "postcode": "2530-309",
      "city": "LOURINHÃ",
      "lon": "-9.25836755186058",
      "lat": "39.25178596405231"
    },
    {
      "id": "pt.ine.add.PTCONT.3208099",
      "street": "R MATA",
      "house": "10",
      "postcode": "2530-931",
      "city": "LOURINHÃ",
      "lon": "-9.25708560401211",
      "lat": "39.25203252662088"
    },
    {
      "id": "pt.ine.add.PTCONT.3244026",
      "street": "R CASAL CALDEIRA",
      "house": "8",
      "postcode": "2530-297",
      "city": "LOURINHÃ",
      "lon": "-9.255692243284594",
      "lat": "39.26635809433256"
    },
    {
      "id": "pt.ine.add.PTCONT.3252468",
      "street": "R PRINCIPAL",
      "house": "113B",
      "postcode": "2530-309",
      "city": "LOURINHÃ",
      "lon": "-9.258541293196242",
      "lat": "39.2517842850832"
    },
    {
      "id": "pt.ine.add.PTCONT.3252476",
      "street": "CSL POISOS",
      "house": "6",
      "postcode": "2530-246",
      "city": "LOURINHÃ",
      "lon": "-9.254295134807553",
      "lat": "39.26593921960785"
    },
    {
      "id": "pt.ine.add.PTCONT.3317828",
      "street": "R PRINCIPAL",
      "house": "127",
      "postcode": "2530-309",
      "city": "LOURINHÃ",
      "lon": "-9.256870993715962",
      "lat": "39.25237686429092"
    },
    {
      "id": "pt.ine.add.PTCONT.3407512",
      "street": "EM CASAL CALDEIRA SOBRAL ARRANCA AREIAS",
      "house": "1",
      "postcode": "2530-297",
      "city": "LOURINHÃ",
      "lon": "-9.256047071508785",
      "lat": "39.266084463175325"
    },
    {
      "id": "pt.ine.add.PTCONT.3439936",
      "street": "R MOINHO",
      "house": "22 A",
      "postcode": "2530-303",
      "city": "LOURINHÃ",
      "lon": "-9.256694028558016",
      "lat": "39.25145084953168"
    },
    {
      "id": "pt.ine.add.PTCONT.3442506",
      "street": "R PRINCIPAL",
      "house": "115",
      "postcode": "2530-309",
      "city": "LOURINHÃ",
      "lon": "-9.258102155874628",
      "lat": "39.251851577322505"
    },
    {
      "id": "pt.ine.add.PTCONT.3453355",
      "street": "R MATA",
      "house": "9",
      "postcode": "2530-931",
      "city": "LOURINHÃ",
      "lon": "-9.257405463732217",
      "lat": "39.251750221543084"
    }
  ]
}