{
  "data": {
    "distrito": "Setúbal",
    "concelho": "Barreiro",
    "freguesia": "Santo António da Charneca",
    "OBJECTID": 116,
    "BGRI2021": "15040700324",
    "DT21": "15",
    "DTMN21": "1504",
    "DTMNFR21": "150407",
    "DTMNFRSEC21": "150407003",
    "SECNUM21": "003",
    "SSNUM21": "24",
    "SECSSNUM21": "00324",
    "OBJECTID_1": 162740,
    "DT": "15",
    "CC": "04",
    "fr": "07",
    "SEC": "003",
    "SS": "24"
  },
  "addresses": [
    {
      "id": "pt.ine.add.PTCONT.4700675",
      "street": "R PARALELA A GAGO COUTINHO",
      "house": "",
      "postcode": "2835-724",
      "city": "SANTO ANTÓNIO DA CHARNECA",
      "lon": "-9.03164916064491",
      "lat": "38.628006406584014"
    },
    {
      "id": "pt.ine.add.PTCONT.4722822",
      "street": "R GAGO COUTINHO",
      "house": "12",
      "postcode": "2835-720",
      "city": "SANTO ANTÓNIO DA CHARNECA",
      "lon": "-9.031901575949885",
      "lat": "38.6261488028187"
    },
    {
      "id": "pt.ine.add.PTCONT.4722823",
      "street": "R GAGO COUTINHO",
      "house": "12",
      "postcode": "2835-720",
      "city": "SANTO ANTÓNIO DA CHARNECA",
      "lon": "-9.031901575949885",
      "lat": "38.6261488028187"
    },
    {
      "id": "pt.ine.add.PTCONT.4722824",
      "street": "R GAGO COUTINHO",
      "house": "12",
      "postcode": "2835-720",
      "city": "SANTO ANTÓNIO DA CHARNECA",
      "lon": "-9.031901575949885",
      "lat": "38.6261488028187"
    },
    {
      "id": "pt.ine.add.PTCONT.4743952",
      "street": "R GAGO COUTINHO",
      "house": "12 T",
      "postcode": "2835-720",
      "city": "SANTO ANTÓNIO DA CHARNECA",
      "lon": "-9.031808368943986",
      "lat": "38.62604142181558"
    },
    {
      "id": "pt.ine.add.PTCONT.4759362",
      "street": "R ENG DUARTE PACHECO",
      "house": "1",
      "postcode": "2835-718",
      "city": "SANTO ANTÓNIO DA CHARNECA",
      "lon": "-9.029953075682492",
      "lat": "38.62644300601356"
    },
    {
      "id": "pt.ine.add.PTCONT.4777818",
      "street": "R ENG DUARTE PACHECO",
      "house": "19",
      "postcode": "2835-718",
      "city": "SANTO ANTÓNIO DA CHARNECA",
      "lon": "-9.031863306258217",
      "lat": "38.625842821963374"
    },
    {
      "id": "pt.ine.add.PTCONT.4849153",
      "street": "QTA CORVO",
      "house": "",
      "postcode": "2835-711",
      "city": "SANTO ANTÓNIO DA CHARNECA",
      "lon": "-9.029647316551381",
      "lat": "38.62678765662629"
    },
    {
      "id": "pt.ine.add.PTCONT.4852868",
      "street": "R PARALELA A GAGO COUTINHO",
      "house": "8",
      "postcode": "2835-724",
      "city": "SANTO ANTÓNIO DA CHARNECA",
      "lon": "-9.031575865115405",
      "lat": "38.62857447854786"
    },
    {
      "id": "pt.ine.add.PTCONT.4873936",
      "street": "R PARALELA A GAGO COUTINHO",
      "house": "6",
      "postcode": "2835-724",
      "city": "SANTO ANTÓNIO DA CHARNECA",
      "lon": "-9.031527911295871",
      "lat": "38.62841270136137"
    },
    {
      "id": "pt.ine.add.PTCONT.4882132",
      "street": "R GAGO COUTINHO",
      "house": "10",
      "postcode": "2835-720",
      "city": "SANTO ANTÓNIO DA CHARNECA",
      "lon": "-9.031899776803883",
      "lat": "38.62600468730343"
    },
    {
      "id": "pt.ine.add.PTCONT.4889145",
      "street": "R PROJETADA À EN 11-2",
      "house": "",
      "postcode": "2835-711",
      "city": "SANTO ANTÓNIO DA CHARNECA",
      "lon": "-9.029575842917568",
      "lat": "38.62658101837628"
    },
    {
      "id": "pt.ine.add.PTCONT.4924868",
      "street": "R ELINA GUIMARÃES",
      "house": "10",
      "postcode": "2835-724",
      "city": "SANTO ANTÓNIO DA CHARNECA",
      "lon": "-9.031601528404417",
      "lat": "38.62879047537651"
    },
    {
      "id": "pt.ine.add.PTCONT.4936883",
      "street": "R PARALELA A GAGO COUTINHO",
      "house": "4",
      "postcode": "2835-724",
      "city": "SANTO ANTÓNIO DA CHARNECA",
      "lon": "-9.031467463529776",
      "lat": "38.6281699473619"
    },
    {
      "id": "pt.ine.add.PTCONT.5021705",
      "street": "R GAGO COUTINHO",
      "house": "6",
      "postcode": "2835-720",
      "city": "SANTO ANTÓNIO DA CHARNECA",
      "lon": "-9.031887057714538",
      "lat": "38.625905696092204"
    },
    {
      "id": "pt.ine.add.PTCONT.5057221",
      "street": "R ENG DUARTE PACHECO",
      "house": "21",
      "postcode": "2835-718",
      "city": "SANTO ANTÓNIO DA CHARNECA",
      "lon": "-9.03177133643507",
      "lat": "38.62583452034398"
    },
    {
      "id": "pt.ine.add.PTCONT.5062700",
      "street": "QTA CORVO",
      "house": "",
      "postcode": "2835-711",
      "city": "SANTO ANTÓNIO DA CHARNECA",
      "lon": "-9.029902845031275",
      "lat": "38.627019908403796"
    },
    {
      "id": "pt.ine.add.PTCONT.5089515",
      "street": "R GAGO COUTINHO",
      "house": "8",
      "postcode": "2835-720",
      "city": "SANTO ANTÓNIO DA CHARNECA",
      "lon": "-9.031887619936333",
      "lat": "38.62595073219206"
    }
  ]
}