{
  "data": {
    "distrito": "Aveiro",
    "concelho": "Castelo de Paiva",
    "freguesia": "União das freguesias de Raiva, Pedorido e Paraíso",
    "OBJECTID": 202,
    "BGRI2021": "01061000423",
    "DT21": "01",
    "DTMN21": "0106",
    "DTMNFR21": "010610",
    "DTMNFRSEC21": "010610004",
    "SECNUM21": "004",
    "SSNUM21": "23",
    "SECSSNUM21": "00423",
    "OBJECTID_1": 4152,
    "DT": "01",
    "CC": "06",
    "fr": "10",
    "SEC": "004",
    "SS": "23"
  },
  "addresses": [
    {
      "id": "pt.ine.add.PTCONT.290119",
      "street": "R PARADA",
      "house": "",
      "postcode": "4550-543",
      "city": "PEDORIDO",
      "lon": "-8.375268357374628",
      "lat": "41.04280547556486"
    },
    {
      "id": "pt.ine.add.PTCONT.300828",
      "street": "CARCAJEDO",
      "house": "",
      "postcode": "4550-525",
      "city": "PEDORIDO",
      "lon": "-8.374353696975618",
      "lat": "41.04311354872683"
    },
    {
      "id": "pt.ine.add.PTCONT.300829",
      "street": "CARCAJEDO",
      "house": "",
      "postcode": "4550-525",
      "city": "PEDORIDO",
      "lon": "-8.373405247697544",
      "lat": "41.043943949339486"
    },
    {
      "id": "pt.ine.add.PTCONT.19122",
      "street": "PARADA",
      "house": "",
      "postcode": "4550-543",
      "city": "PEDORIDO",
      "lon": "-8.374507256739701",
      "lat": "41.04282508135583"
    },
    {
      "id": "pt.ine.add.PTCONT.19123",
      "street": "CARCAJEDO",
      "house": "",
      "postcode": "4550-525",
      "city": "PEDORIDO",
      "lon": "-8.374333066849166",
      "lat": "41.04397802932642"
    },
    {
      "id": "pt.ine.add.PTCONT.19124",
      "street": "CARCAJEDO",
      "house": "",
      "postcode": "4550-525",
      "city": "PEDORIDO",
      "lon": "-8.374333066849166",
      "lat": "41.04397802932642"
    },
    {
      "id": "pt.ine.add.PTCONT.26288",
      "street": "R FONTE",
      "house": "",
      "postcode": "4550-543",
      "city": "PEDORIDO",
      "lon": "-8.376106152327667",
      "lat": "41.0410028004156"
    },
    {
      "id": "pt.ine.add.PTCONT.40785",
      "street": "R CARQUEJEDO",
      "house": "",
      "postcode": "4550-541",
      "city": "PEDORIDO",
      "lon": "-8.37470126943503",
      "lat": "41.04384218973453"
    },
    {
      "id": "pt.ine.add.PTCONT.54189",
      "street": "R PARADA",
      "house": "",
      "postcode": "4550-543",
      "city": "PEDORIDO",
      "lon": "-8.376475694609177",
      "lat": "41.041236139239494"
    },
    {
      "id": "pt.ine.add.PTCONT.62292",
      "street": "CARCAJEDO",
      "house": "",
      "postcode": "4550-525",
      "city": "PEDORIDO",
      "lon": "-8.373607534379028",
      "lat": "41.043970541062116"
    },
    {
      "id": "pt.ine.add.PTCONT.62294",
      "street": "R PARADA",
      "house": "",
      "postcode": "4550-543",
      "city": "PEDORIDO",
      "lon": "-8.376570705413123",
      "lat": "41.04119992033477"
    },
    {
      "id": "pt.ine.add.PTCONT.65514",
      "street": "CARCAJEDO",
      "house": "",
      "postcode": "4550-525",
      "city": "PEDORIDO",
      "lon": "-8.37391705913136",
      "lat": "41.04405093574622"
    },
    {
      "id": "pt.ine.add.PTCONT.75796",
      "street": "R PARADA",
      "house": "",
      "postcode": "4550-543",
      "city": "PEDORIDO",
      "lon": "-8.37631340314195",
      "lat": "41.04238006081157"
    },
    {
      "id": "pt.ine.add.PTCONT.75797",
      "street": "R PARADA",
      "house": "",
      "postcode": "4550-543",
      "city": "PEDORIDO",
      "lon": "-8.376594258986586",
      "lat": "41.041136838657266"
    },
    {
      "id": "pt.ine.add.PTCONT.78568",
      "street": "R OLIVAL",
      "house": "",
      "postcode": "4550-541",
      "city": "PEDORIDO",
      "lon": "-8.377200116712386",
      "lat": "41.04417009300547"
    },
    {
      "id": "pt.ine.add.PTCONT.81317",
      "street": "CARCAJEDO",
      "house": "",
      "postcode": "4550-525",
      "city": "PEDORIDO",
      "lon": "-8.374568697559551",
      "lat": "41.04336522607589"
    },
    {
      "id": "pt.ine.add.PTCONT.97617",
      "street": "R FONTE",
      "house": "",
      "postcode": "4550-543",
      "city": "PEDORIDO",
      "lon": "-8.376523531780604",
      "lat": "41.04130807469429"
    },
    {
      "id": "pt.ine.add.PTCONT.110979",
      "street": "CARCAJEDO",
      "house": "",
      "postcode": "4550-525",
      "city": "PEDORIDO",
      "lon": "-8.37361791981401",
      "lat": "41.043556309806284"
    },
    {
      "id": "pt.ine.add.PTCONT.118576",
      "street": "R OLIVAL",
      "house": "",
      "postcode": "4550-541",
      "city": "PEDORIDO",
      "lon": "-8.37700945550671",
      "lat": "41.044071446546354"
    },
    {
      "id": "pt.ine.add.PTCONT.134656",
      "street": "R OLIVAL",
      "house": "",
      "postcode": "4550-541",
      "city": "PEDORIDO",
      "lon": "-8.375665561512028",
      "lat": "41.0440922918684"
    },
    {
      "id": "pt.ine.add.PTCONT.134657",
      "street": "CARCAJEDO",
      "house": "",
      "postcode": "4550-525",
      "city": "PEDORIDO",
      "lon": "-8.374083600284042",
      "lat": "41.044059592203745"
    },
    {
      "id": "pt.ine.add.PTCONT.137875",
      "street": "CARCAJEDO",
      "house": "",
      "postcode": "4550-525",
      "city": "PEDORIDO",
      "lon": "-8.373144279278812",
      "lat": "41.04413358883404"
    },
    {
      "id": "pt.ine.add.PTCONT.190141",
      "street": "R PARADA",
      "house": "",
      "postcode": "4550-543",
      "city": "PEDORIDO",
      "lon": "-8.375493899167674",
      "lat": "41.04268794219779"
    },
    {
      "id": "pt.ine.add.PTCONT.228147",
      "street": "CARCAJEDO",
      "house": "",
      "postcode": "4550-525",
      "city": "PEDORIDO",
      "lon": "-8.37480415920848",
      "lat": "41.04270739984754"
    },
    {
      "id": "pt.ine.add.PTCONT.228151",
      "street": "PORTELA",
      "house": "",
      "postcode": "4550-546",
      "city": "PEDORIDO",
      "lon": "-8.376946864030918",
      "lat": "41.04322515072279"
    },
    {
      "id": "pt.ine.add.PTCONT.228152",
      "street": "PORTELA",
      "house": "",
      "postcode": "4550-546",
      "city": "PEDORIDO",
      "lon": "-8.376946864030918",
      "lat": "41.04322515072279"
    },
    {
      "id": "pt.ine.add.PTCONT.271508",
      "street": "R OLIVAL",
      "house": "",
      "postcode": "4550-541",
      "city": "PEDORIDO",
      "lon": "-8.375937919441576",
      "lat": "41.04376755433395"
    },
    {
      "id": "pt.ine.add.PTCONT.271509",
      "street": "CARCAJEDO",
      "house": "",
      "postcode": "4550-525",
      "city": "PEDORIDO",
      "lon": "-8.373987664670905",
      "lat": "41.04384368341416"
    },
    {
      "id": "pt.ine.add.PTCONT.279637",
      "street": "R PARADA",
      "house": "",
      "postcode": "4550-543",
      "city": "PEDORIDO",
      "lon": "-8.376522934620168",
      "lat": "41.04114599387796"
    }
  ]
}