{
  "data": {
    "distrito": "Porto",
    "concelho": "Valongo",
    "freguesia": "Ermesinde",
    "OBJECTID": 152,
    "BGRI2021": "13150300106",
    "DT21": "13",
    "DTMN21": "1315",
    "DTMNFR21": "131503",
    "DTMNFRSEC21": "131503001",
    "SECNUM21": "001",
    "SSNUM21": "06",
    "SECSSNUM21": "00106",
    "OBJECTID_1": 142175,
    "DT": "13",
    "CC": "15",
    "fr": "03",
    "SEC": "001",
    "SS": "06"
  },
  "addresses": [
    {
      "id": "pt.ine.add.PTCONT.3541135",
      "street": "R CABEDA",
      "house": "35",
      "postcode": "4445-358",
      "city": "ERMESINDE",
      "lon": "-8.529089285539884",
      "lat": "41.20604380921593"
    },
    {
      "id": "pt.ine.add.PTCONT.3541136",
      "street": "R CABEDA",
      "house": "35",
      "postcode": "4445-358",
      "city": "ERMESINDE",
      "lon": "-8.529089285539884",
      "lat": "41.20604380921593"
    },
    {
      "id": "pt.ine.add.PTCONT.3544929",
      "street": "R CABEDA",
      "house": "35",
      "postcode": "4445-358",
      "city": "ERMESINDE",
      "lon": "-8.529089285539884",
      "lat": "41.20604380921593"
    },
    {
      "id": "pt.ine.add.PTCONT.3549423",
      "street": "R AFONSO LOPES VIEIRA",
      "house": "123",
      "postcode": "4445-315",
      "city": "ERMESINDE",
      "lon": "-8.535200144904355",
      "lat": "41.20887699222575"
    },
    {
      "id": "pt.ine.add.PTCONT.3549489",
      "street": "R LIBERDADE",
      "house": "8",
      "postcode": "4445-493",
      "city": "ERMESINDE",
      "lon": "-8.533305263217388",
      "lat": "41.21114366627466"
    },
    {
      "id": "pt.ine.add.PTCONT.3549603",
      "street": "R AFONSO LOPES VIEIRA",
      "house": "123",
      "postcode": "4445-315",
      "city": "ERMESINDE",
      "lon": "-8.535200144904355",
      "lat": "41.20887699222575"
    },
    {
      "id": "pt.ine.add.PTCONT.3552655",
      "street": "R ALPENDURADA",
      "house": "237",
      "postcode": "4445-320",
      "city": "ERMESINDE",
      "lon": "-8.534777936283717",
      "lat": "41.210184085873465"
    },
    {
      "id": "pt.ine.add.PTCONT.3552656",
      "street": "R ALPENDURADA",
      "house": "237",
      "postcode": "4445-320",
      "city": "ERMESINDE",
      "lon": "-8.534777936283717",
      "lat": "41.210184085873465"
    },
    {
      "id": "pt.ine.add.PTCONT.3556132",
      "street": "R LIBERDADE",
      "house": "106",
      "postcode": "4445-493",
      "city": "ERMESINDE",
      "lon": "-8.533348182915377",
      "lat": "41.210360145108666"
    },
    {
      "id": "pt.ine.add.PTCONT.3556133",
      "street": "R LIBERDADE",
      "house": "108",
      "postcode": "4445-493",
      "city": "ERMESINDE",
      "lon": "-8.533348182915377",
      "lat": "41.210360145108666"
    },
    {
      "id": "pt.ine.add.PTCONT.3558333",
      "street": "R LIBERDADE",
      "house": "108",
      "postcode": "4445-493",
      "city": "ERMESINDE",
      "lon": "-8.533348182915377",
      "lat": "41.210360145108666"
    },
    {
      "id": "pt.ine.add.PTCONT.3568903",
      "street": "R HUMBERTO DELGADO",
      "house": "405",
      "postcode": "4445-450",
      "city": "ERMESINDE",
      "lon": "-8.535927764298332",
      "lat": "41.21102647155772"
    },
    {
      "id": "pt.ine.add.PTCONT.3568904",
      "street": "R HUMBERTO DELGADO",
      "house": "405",
      "postcode": "4445-450",
      "city": "ERMESINDE",
      "lon": "-8.535927764298332",
      "lat": "41.21102647155772"
    },
    {
      "id": "pt.ine.add.PTCONT.3568929",
      "street": "R HUMBERTO DELGADO",
      "house": "363",
      "postcode": "4445-450",
      "city": "ERMESINDE",
      "lon": "-8.535546710495236",
      "lat": "41.21110884229531"
    },
    {
      "id": "pt.ine.add.PTCONT.3568930",
      "street": "R HUMBERTO DELGADO",
      "house": "363",
      "postcode": "4445-450",
      "city": "ERMESINDE",
      "lon": "-8.535546710495236",
      "lat": "41.21110884229531"
    },
    {
      "id": "pt.ine.add.PTCONT.3568984",
      "street": "R PROF AGOSTINHO DA SILVA",
      "house": "5",
      "postcode": "4445-569",
      "city": "ERMESINDE",
      "lon": "-8.534575405335866",
      "lat": "41.21021180493535"
    },
    {
      "id": "pt.ine.add.PTCONT.3569013",
      "street": "R AFONSO LOPES VIEIRA",
      "house": "182",
      "postcode": "4445-315",
      "city": "ERMESINDE",
      "lon": "-8.53533336670322",
      "lat": "41.20858635780997"
    },
    {
      "id": "pt.ine.add.PTCONT.3575232",
      "street": "R VILA NOVA DE GAIA",
      "house": "258",
      "postcode": "4445-621",
      "city": "ERMESINDE",
      "lon": "-8.533467757750582",
      "lat": "41.208459826804265"
    },
    {
      "id": "pt.ine.add.PTCONT.3587957",
      "street": "R AFONSO LOPES VIEIRA",
      "house": "232",
      "postcode": "4445-315",
      "city": "ERMESINDE",
      "lon": "-8.533928125356281",
      "lat": "41.20870628520168"
    },
    {
      "id": "pt.ine.add.PTCONT.3600964",
      "street": "R LIBERDADE",
      "house": "236",
      "postcode": "4445-493",
      "city": "ERMESINDE",
      "lon": "-8.532828519627179",
      "lat": "41.20921840678163"
    },
    {
      "id": "pt.ine.add.PTCONT.3600985",
      "street": "R LIBERDADE",
      "house": "236",
      "postcode": "4445-493",
      "city": "ERMESINDE",
      "lon": "-8.532828519627179",
      "lat": "41.20921840678163"
    },
    {
      "id": "pt.ine.add.PTCONT.3601008",
      "street": "R VILA NOVA DE GAIA",
      "house": "47",
      "postcode": "4445-621",
      "city": "ERMESINDE",
      "lon": "-8.5342003844301",
      "lat": "41.20737676386378"
    },
    {
      "id": "pt.ine.add.PTCONT.3601036",
      "street": "R PROF AGOSTINHO DA SILVA",
      "house": "30",
      "postcode": "4445-569",
      "city": "ERMESINDE",
      "lon": "-8.534218696104448",
      "lat": "41.210375124903436"
    },
    {
      "id": "pt.ine.add.PTCONT.3601040",
      "street": "R VILA NOVA DE GAIA",
      "house": "314",
      "postcode": "4445-621",
      "city": "ERMESINDE",
      "lon": "-8.53409912630023",
      "lat": "41.20836758732125"
    },
    {
      "id": "pt.ine.add.PTCONT.3607375",
      "street": "R PROF AGOSTINHO DA SILVA",
      "house": "18",
      "postcode": "4445-569",
      "city": "ERMESINDE",
      "lon": "-8.534170012995475",
      "lat": "41.21021321748181"
    },
    {
      "id": "pt.ine.add.PTCONT.3615931",
      "street": "R D AFONSO LOPES VIEIRA",
      "house": "115-119",
      "postcode": "4445-999",
      "city": "ERMESINDE",
      "lon": "-8.535294676281572",
      "lat": "41.20889467068231"
    },
    {
      "id": "pt.ine.add.PTCONT.3615932",
      "street": "R D AFONSO LOPES VIEIRA",
      "house": "115-119",
      "postcode": "4445-999",
      "city": "ERMESINDE",
      "lon": "-8.535294676281572",
      "lat": "41.20889467068231"
    },
    {
      "id": "pt.ine.add.PTCONT.3616747",
      "street": "R ALPENDURADA",
      "house": "205",
      "postcode": "4445-320",
      "city": "ERMESINDE",
      "lon": "-8.535099699987066",
      "lat": "41.210155950310714"
    },
    {
      "id": "pt.ine.add.PTCONT.3616748",
      "street": "R ALPENDURADA",
      "house": "205",
      "postcode": "4445-320",
      "city": "ERMESINDE",
      "lon": "-8.535099699987066",
      "lat": "41.210155950310714"
    },
    {
      "id": "pt.ine.add.PTCONT.3626757",
      "street": "R CHAOS",
      "house": "323",
      "postcode": "4445-379",
      "city": "ERMESINDE",
      "lon": "-8.537444430511572",
      "lat": "41.20947242091605"
    },
    {
      "id": "pt.ine.add.PTCONT.3628955",
      "street": "R CHAOS",
      "house": "319",
      "postcode": "4445-379",
      "city": "ERMESINDE",
      "lon": "-8.537444430511572",
      "lat": "41.20947242091605"
    },
    {
      "id": "pt.ine.add.PTCONT.3632973",
      "street": "R HUMBERTO DELGADO",
      "house": "387",
      "postcode": "4445-450",
      "city": "ERMESINDE",
      "lon": "-8.535689792075184",
      "lat": "41.21110834219314"
    },
    {
      "id": "pt.ine.add.PTCONT.3632974",
      "street": "R HUMBERTO DELGADO",
      "house": "387",
      "postcode": "4445-450",
      "city": "ERMESINDE",
      "lon": "-8.535689792075184",
      "lat": "41.21110834219314"
    },
    {
      "id": "pt.ine.add.PTCONT.3633025",
      "street": "TV VILA NOVA DE GAIA",
      "house": "50",
      "postcode": "4445-622",
      "city": "ERMESINDE",
      "lon": "-8.533869677937998",
      "lat": "41.207891159191966"
    },
    {
      "id": "pt.ine.add.PTCONT.3635173",
      "street": "R AFONSO LOPES VIEIRA",
      "house": "206",
      "postcode": "4445-315",
      "city": "ERMESINDE",
      "lon": "-8.534173592484084",
      "lat": "41.20868814057291"
    },
    {
      "id": "pt.ine.add.PTCONT.3639898",
      "street": "R VILA NOVA DE GAIA",
      "house": "308",
      "postcode": "4445-621",
      "city": "ERMESINDE",
      "lon": "-8.534039566417675",
      "lat": "41.20837679897222"
    },
    {
      "id": "pt.ine.add.PTCONT.3642151",
      "street": "R CHAOS",
      "house": "295",
      "postcode": "4445-379",
      "city": "ERMESINDE",
      "lon": "-8.537683781292714",
      "lat": "41.20961564872812"
    },
    {
      "id": "pt.ine.add.PTCONT.3642152",
      "street": "R CHAOS",
      "house": "297",
      "postcode": "4445-379",
      "city": "ERMESINDE",
      "lon": "-8.537683781292714",
      "lat": "41.20961564872812"
    },
    {
      "id": "pt.ine.add.PTCONT.3642708",
      "street": "R HUMBERTO DELGADO",
      "house": "555",
      "postcode": "4445-450",
      "city": "ERMESINDE",
      "lon": "-8.538187443216247",
      "lat": "41.21008210057804"
    },
    {
      "id": "pt.ine.add.PTCONT.3645937",
      "street": "R CABEDA",
      "house": "75",
      "postcode": "4445-358",
      "city": "ERMESINDE",
      "lon": "-8.529151232842628",
      "lat": "41.20643078039126"
    },
    {
      "id": "pt.ine.add.PTCONT.3645967",
      "street": "R AFONSO LOPES VIEIRA",
      "house": "109",
      "postcode": "4445-315",
      "city": "ERMESINDE",
      "lon": "-8.535420959080211",
      "lat": "41.208871597331594"
    },
    {
      "id": "pt.ine.add.PTCONT.3645968",
      "street": "R AFONSO LOPES VIEIRA",
      "house": "109",
      "postcode": "4445-315",
      "city": "ERMESINDE",
      "lon": "-8.535420959080211",
      "lat": "41.208871597331594"
    },
    {
      "id": "pt.ine.add.PTCONT.3646005",
      "street": "TV VILA NOVA GAIA",
      "house": "59",
      "postcode": "4445-622",
      "city": "ERMESINDE",
      "lon": "-8.53405895995194",
      "lat": "41.20764738476405"
    },
    {
      "id": "pt.ine.add.PTCONT.3652395",
      "street": "R JOAQUIM DA ROCHA FERREIRA",
      "house": "25",
      "postcode": "4445-277",
      "city": "ERMESINDE",
      "lon": "-8.532758274590398",
      "lat": "41.20747182030195"
    },
    {
      "id": "pt.ine.add.PTCONT.3659003",
      "street": "R LIBERDADE",
      "house": "104",
      "postcode": "4445-493",
      "city": "ERMESINDE",
      "lon": "-8.533217355398463",
      "lat": "41.210414625384374"
    },
    {
      "id": "pt.ine.add.PTCONT.3659135",
      "street": "R LIBERDADE",
      "house": "104",
      "postcode": "4445-493",
      "city": "ERMESINDE",
      "lon": "-8.533217355398463",
      "lat": "41.210414625384374"
    },
    {
      "id": "pt.ine.add.PTCONT.3659136",
      "street": "TV VILA NOVA DE GAIA",
      "house": "83",
      "postcode": "4445-622",
      "city": "ERMESINDE",
      "lon": "-8.53428549388681",
      "lat": "41.20764659583423"
    },
    {
      "id": "pt.ine.add.PTCONT.3663700",
      "street": "R CABEDA",
      "house": "171",
      "postcode": "4445-358",
      "city": "ERMESINDE",
      "lon": "-8.529620237589265",
      "lat": "41.20709548345283"
    },
    {
      "id": "pt.ine.add.PTCONT.3663701",
      "street": "R AFONSO LOPES VIEIRA",
      "house": "188",
      "postcode": "4445-315",
      "city": "ERMESINDE",
      "lon": "-8.534654638627213",
      "lat": "41.20862771313775"
    },
    {
      "id": "pt.ine.add.PTCONT.3671760",
      "street": "R HUMBERTO DELGADO",
      "house": "473 475",
      "postcode": "4445-450",
      "city": "ERMESINDE",
      "lon": "-8.536581451861345",
      "lat": "41.21068202070068"
    },
    {
      "id": "pt.ine.add.PTCONT.3671790",
      "street": "R 10 DE JUNHO",
      "house": "163",
      "postcode": "4445-301",
      "city": "ERMESINDE",
      "lon": "-8.531668916340317",
      "lat": "41.2087181862679"
    },
    {
      "id": "pt.ine.add.PTCONT.3673751",
      "street": "R HUMBERTO DELGADO",
      "house": "473 475",
      "postcode": "4445-450",
      "city": "ERMESINDE",
      "lon": "-8.536581451861345",
      "lat": "41.21068202070068"
    },
    {
      "id": "pt.ine.add.PTCONT.3674037",
      "street": "TV VILA NOVA DE GAIA",
      "house": "181",
      "postcode": "4445-622",
      "city": "ERMESINDE",
      "lon": "-8.533379467841046",
      "lat": "41.207667757060044"
    },
    {
      "id": "pt.ine.add.PTCONT.3674880",
      "street": "R CHÃOS",
      "house": "291",
      "postcode": "4445-379",
      "city": "ERMESINDE",
      "lon": "-8.537827192506553",
      "lat": "41.20966917047764"
    },
    {
      "id": "pt.ine.add.PTCONT.3674881",
      "street": "R ALPENDURADA",
      "house": "163 161",
      "postcode": "4445-320",
      "city": "ERMESINDE",
      "lon": "-8.535588003156507",
      "lat": "41.21006420198671"
    },
    {
      "id": "pt.ine.add.PTCONT.3674882",
      "street": "R ALPENDURADA",
      "house": "163 161",
      "postcode": "4445-320",
      "city": "ERMESINDE",
      "lon": "-8.535588003156507",
      "lat": "41.21006420198671"
    },
    {
      "id": "pt.ine.add.PTCONT.3674892",
      "street": "R CHÃOS",
      "house": "291",
      "postcode": "4445-379",
      "city": "ERMESINDE",
      "lon": "-8.537827192506553",
      "lat": "41.20966917047764"
    },
    {
      "id": "pt.ine.add.PTCONT.3678549",
      "street": "R HUMBERTO DELGADO",
      "house": "351",
      "postcode": "4445-450",
      "city": "ERMESINDE",
      "lon": "-8.535415442057802",
      "lat": "41.21109129240134"
    },
    {
      "id": "pt.ine.add.PTCONT.3678550",
      "street": "R HUMBERTO DELGADO",
      "house": "351",
      "postcode": "4445-450",
      "city": "ERMESINDE",
      "lon": "-8.535415442057802",
      "lat": "41.21109129240134"
    },
    {
      "id": "pt.ine.add.PTCONT.3690863",
      "street": "AV ENG DUARTE PACHECO",
      "house": "1937",
      "postcode": "4445-416",
      "city": "ERMESINDE",
      "lon": "-8.534700315755824",
      "lat": "41.20723995737495"
    },
    {
      "id": "pt.ine.add.PTCONT.3690864",
      "street": "AV ENG DUARTE PACHECO",
      "house": "1937",
      "postcode": "4445-416",
      "city": "ERMESINDE",
      "lon": "-8.534700315755824",
      "lat": "41.20723995737495"
    },
    {
      "id": "pt.ine.add.PTCONT.3690865",
      "street": "AV ENG DUARTE PACHECO",
      "house": "1937",
      "postcode": "4445-416",
      "city": "ERMESINDE",
      "lon": "-8.534700315755824",
      "lat": "41.20723995737495"
    },
    {
      "id": "pt.ine.add.PTCONT.3690866",
      "street": "AV ENG DUARTE PACHECO",
      "house": "1937",
      "postcode": "4445-416",
      "city": "ERMESINDE",
      "lon": "-8.534700315755824",
      "lat": "41.20723995737495"
    },
    {
      "id": "pt.ine.add.PTCONT.3704836",
      "street": "R DR PINHEIRO BRAGA",
      "house": "15",
      "postcode": "4445-281",
      "city": "ERMESINDE",
      "lon": "-8.533074628159335",
      "lat": "41.20851521852825"
    },
    {
      "id": "pt.ine.add.PTCONT.3704837",
      "street": "R AFONSO LOPES VIEIRA",
      "house": "161",
      "postcode": "4445-315",
      "city": "ERMESINDE",
      "lon": "-8.53469743530385",
      "lat": "41.20892048119953"
    },
    {
      "id": "pt.ine.add.PTCONT.3717233",
      "street": "R HUMBERTO DELGADO",
      "house": "519",
      "postcode": "4445-450",
      "city": "ERMESINDE",
      "lon": "-8.537211673737778",
      "lat": "41.21040067839612"
    },
    {
      "id": "pt.ine.add.PTCONT.3719561",
      "street": "R LIBERDADE",
      "house": "124",
      "postcode": "4445-493",
      "city": "ERMESINDE",
      "lon": "-8.53321587426971",
      "lat": "41.21017151506031"
    },
    {
      "id": "pt.ine.add.PTCONT.3724148",
      "street": "R VILA NOVA DE GAIA",
      "house": "255",
      "postcode": "4445-621",
      "city": "ERMESINDE",
      "lon": "-8.53353781345508",
      "lat": "41.208216467682604"
    },
    {
      "id": "pt.ine.add.PTCONT.3724149",
      "street": "R AFONSO LOPES VIEIRA",
      "house": "116",
      "postcode": "4445-315",
      "city": "ERMESINDE",
      "lon": "-8.534044795019277",
      "lat": "41.2086971584285"
    },
    {
      "id": "pt.ine.add.PTCONT.3730673",
      "street": "R ALPENDURADA",
      "house": "159",
      "postcode": "4445-320",
      "city": "ERMESINDE",
      "lon": "-8.535718883188586",
      "lat": "41.21001872311041"
    },
    {
      "id": "pt.ine.add.PTCONT.3737151",
      "street": "R CABEDA",
      "house": "211",
      "postcode": "4445-358",
      "city": "ERMESINDE",
      "lon": "-8.52942064774808",
      "lat": "41.207609414546155"
    },
    {
      "id": "pt.ine.add.PTCONT.3746372",
      "street": "R ALPENDURADA",
      "house": "225",
      "postcode": "4445-320",
      "city": "ERMESINDE",
      "lon": "-8.534897114179424",
      "lat": "41.210174665853174"
    },
    {
      "id": "pt.ine.add.PTCONT.3746373",
      "street": "R ALPENDURADA",
      "house": "206",
      "postcode": "4445-320",
      "city": "ERMESINDE",
      "lon": "-8.535061670634905",
      "lat": "41.209786907700895"
    },
    {
      "id": "pt.ine.add.PTCONT.3746374",
      "street": "R ALPENDURADA",
      "house": "206",
      "postcode": "4445-320",
      "city": "ERMESINDE",
      "lon": "-8.535061670634905",
      "lat": "41.209786907700895"
    },
    {
      "id": "pt.ine.add.PTCONT.3746375",
      "street": "R ALPENDURADA",
      "house": "225",
      "postcode": "4445-320",
      "city": "ERMESINDE",
      "lon": "-8.534897114179424",
      "lat": "41.210174665853174"
    },
    {
      "id": "pt.ine.add.PTCONT.3749496",
      "street": "R HUMBERTO DELGADO",
      "house": "391",
      "postcode": "4445-450",
      "city": "ERMESINDE",
      "lon": "-8.53580864022761",
      "lat": "41.211044896731664"
    },
    {
      "id": "pt.ine.add.PTCONT.3749497",
      "street": "R HUMBERTO DELGADO",
      "house": "391",
      "postcode": "4445-450",
      "city": "ERMESINDE",
      "lon": "-8.53580864022761",
      "lat": "41.211044896731664"
    },
    {
      "id": "pt.ine.add.PTCONT.3749498",
      "street": "R DR PINHEIRO BRAGA",
      "house": "14",
      "postcode": "4445-281",
      "city": "ERMESINDE",
      "lon": "-8.532977380287685",
      "lat": "41.208209410727854"
    },
    {
      "id": "pt.ine.add.PTCONT.3751470",
      "street": "AV ENG DUARTE PACHECO",
      "house": "2185",
      "postcode": "4445-416",
      "city": "ERMESINDE",
      "lon": "-8.531994230463992",
      "lat": "41.20731239218863"
    },
    {
      "id": "pt.ine.add.PTCONT.3752721",
      "street": "R ALPENDURADA",
      "house": "181",
      "postcode": "4445-320",
      "city": "ERMESINDE",
      "lon": "-8.535349758237611",
      "lat": "41.210101051499784"
    },
    {
      "id": "pt.ine.add.PTCONT.3752722",
      "street": "R ALPENDURADA",
      "house": "181",
      "postcode": "4445-320",
      "city": "ERMESINDE",
      "lon": "-8.535349758237611",
      "lat": "41.210101051499784"
    },
    {
      "id": "pt.ine.add.PTCONT.3757801",
      "street": "R HUMBERTO DELGADO",
      "house": "321",
      "postcode": "4445-450",
      "city": "ERMESINDE",
      "lon": "-8.535010154538336",
      "lat": "41.21111071609513"
    },
    {
      "id": "pt.ine.add.PTCONT.3757802",
      "street": "R HUMBERTO DELGADO",
      "house": "321",
      "postcode": "4445-450",
      "city": "ERMESINDE",
      "lon": "-8.535010154538336",
      "lat": "41.21111071609513"
    },
    {
      "id": "pt.ine.add.PTCONT.3762612",
      "street": "R VILA NOVA DE GAIA",
      "house": "348",
      "postcode": "4445-621",
      "city": "ERMESINDE",
      "lon": "-8.534409288550556",
      "lat": "41.20839351976051"
    },
    {
      "id": "pt.ine.add.PTCONT.3775192",
      "street": "R AFONSO LOPES VIEIRA",
      "house": "198",
      "postcode": "4445-315",
      "city": "ERMESINDE",
      "lon": "-8.53440224099467",
      "lat": "41.208655831770066"
    },
    {
      "id": "pt.ine.add.PTCONT.3777638",
      "street": "R CABEDA",
      "house": "23",
      "postcode": "4445-358",
      "city": "ERMESINDE",
      "lon": "-8.529040509802305",
      "lat": "41.20586389123738"
    },
    {
      "id": "pt.ine.add.PTCONT.3781637",
      "street": "R HUMBERTO DELGADO",
      "house": "609",
      "postcode": "4445-450",
      "city": "ERMESINDE",
      "lon": "-8.538330189169137",
      "lat": "41.21002757272042"
    },
    {
      "id": "pt.ine.add.PTCONT.3781638",
      "street": "R AFONSO LOPES VIEIRA",
      "house": "238",
      "postcode": "4445-315",
      "city": "ERMESINDE",
      "lon": "-8.533842002698927",
      "lat": "41.20871065305344"
    },
    {
      "id": "pt.ine.add.PTCONT.3785094",
      "street": "R ALPENDURADA",
      "house": "236",
      "postcode": "4445-320",
      "city": "ERMESINDE",
      "lon": "-8.534799910387722",
      "lat": "41.20987786381494"
    },
    {
      "id": "pt.ine.add.PTCONT.3785095",
      "street": "R ALPENDURADA",
      "house": "236",
      "postcode": "4445-320",
      "city": "ERMESINDE",
      "lon": "-8.534799910387722",
      "lat": "41.20987786381494"
    },
    {
      "id": "pt.ine.add.PTCONT.3786365",
      "street": "R CABEDA",
      "house": "121",
      "postcode": "4445-358",
      "city": "ERMESINDE",
      "lon": "-8.52922477777239",
      "lat": "41.20676368591917"
    },
    {
      "id": "pt.ine.add.PTCONT.3790650",
      "street": "R ALPENDURADA",
      "house": "276",
      "postcode": "4445-320",
      "city": "ERMESINDE",
      "lon": "-8.53434765230964",
      "lat": "41.210014504602995"
    },
    {
      "id": "pt.ine.add.PTCONT.3791626",
      "street": "R ENG EDUARDO GASPAR",
      "house": "13",
      "postcode": "4445-275",
      "city": "ERMESINDE",
      "lon": "-8.533071557509658",
      "lat": "41.208010989520815"
    },
    {
      "id": "pt.ine.add.PTCONT.3801647",
      "street": "R CABEDA",
      "house": "27",
      "postcode": "4445-358",
      "city": "ERMESINDE",
      "lon": "-8.52907687445674",
      "lat": "41.205962813334374"
    },
    {
      "id": "pt.ine.add.PTCONT.3801692",
      "street": "R ALPENDURADA",
      "house": "186",
      "postcode": "4445-320",
      "city": "ERMESINDE",
      "lon": "-8.5353000800057",
      "lat": "41.20977707104011"
    },
    {
      "id": "pt.ine.add.PTCONT.3801693",
      "street": "R ALPENDURADA",
      "house": "188",
      "postcode": "4445-320",
      "city": "ERMESINDE",
      "lon": "-8.5353000800057",
      "lat": "41.20977707104011"
    },
    {
      "id": "pt.ine.add.PTCONT.3808601",
      "street": "R HUMBERTO DELGADO",
      "house": "329",
      "postcode": "4445-450",
      "city": "ERMESINDE",
      "lon": "-8.53517702793671",
      "lat": "41.211101129320426"
    },
    {
      "id": "pt.ine.add.PTCONT.3808602",
      "street": "R HUMBERTO DELGADO",
      "house": "329",
      "postcode": "4445-450",
      "city": "ERMESINDE",
      "lon": "-8.53517702793671",
      "lat": "41.211101129320426"
    },
    {
      "id": "pt.ine.add.PTCONT.3813750",
      "street": "R CABEDA",
      "house": "173",
      "postcode": "4445-358",
      "city": "ERMESINDE",
      "lon": "-8.529633138801724",
      "lat": "41.20725751610935"
    },
    {
      "id": "pt.ine.add.PTCONT.3813751",
      "street": "TV VILA NOVA DE GAIA",
      "house": "82",
      "postcode": "4445-622",
      "city": "ERMESINDE",
      "lon": "-8.534334615368056",
      "lat": "41.20788053599614"
    },
    {
      "id": "pt.ine.add.PTCONT.3813752",
      "street": "R AFONSO LOPES VIEIRA",
      "house": "115",
      "postcode": "4445-315",
      "city": "ERMESINDE",
      "lon": "-8.535300543845695",
      "lat": "41.20887911060648"
    },
    {
      "id": "pt.ine.add.PTCONT.3813753",
      "street": "R AFONSO LOPES VIEIRA",
      "house": "115",
      "postcode": "4445-315",
      "city": "ERMESINDE",
      "lon": "-8.535300543845695",
      "lat": "41.20887911060648"
    },
    {
      "id": "pt.ine.add.PTCONT.3823775",
      "street": "R HUMBERTO DELGADO",
      "house": "435",
      "postcode": "4445-450",
      "city": "ERMESINDE",
      "lon": "-8.536165404352145",
      "lat": "41.21089057594101"
    },
    {
      "id": "pt.ine.add.PTCONT.3823776",
      "street": "R HUMBERTO DELGADO",
      "house": "435",
      "postcode": "4445-450",
      "city": "ERMESINDE",
      "lon": "-8.536165404352145",
      "lat": "41.21089057594101"
    },
    {
      "id": "pt.ine.add.PTCONT.3823844",
      "street": "R ALPENDURADA",
      "house": "221",
      "postcode": "4445-320",
      "city": "ERMESINDE",
      "lon": "-8.535039973310102",
      "lat": "41.210138150230215"
    },
    {
      "id": "pt.ine.add.PTCONT.3823845",
      "street": "R ALPENDURADA",
      "house": "221",
      "postcode": "4445-320",
      "city": "ERMESINDE",
      "lon": "-8.535039973310102",
      "lat": "41.210138150230215"
    },
    {
      "id": "pt.ine.add.PTCONT.3830415",
      "street": "R CABEDA",
      "house": "65",
      "postcode": "4445-358",
      "city": "ERMESINDE",
      "lon": "-8.529078014358728",
      "lat": "41.20615189937662"
    },
    {
      "id": "pt.ine.add.PTCONT.3830416",
      "street": "R CABEDA",
      "house": "65",
      "postcode": "4445-358",
      "city": "ERMESINDE",
      "lon": "-8.529078014358728",
      "lat": "41.20615189937662"
    },
    {
      "id": "pt.ine.add.PTCONT.3833933",
      "street": "R VILA NOVA DE GAIA",
      "house": "55",
      "postcode": "4445-621",
      "city": "ERMESINDE",
      "lon": "-8.534272856097076",
      "lat": "41.20752958420893"
    },
    {
      "id": "pt.ine.add.PTCONT.3838661",
      "street": "R HUMBERTO DELGADO",
      "house": "425",
      "postcode": "4445-450",
      "city": "ERMESINDE",
      "lon": "-8.536046612071347",
      "lat": "41.21096302585145"
    },
    {
      "id": "pt.ine.add.PTCONT.3838662",
      "street": "R HUMBERTO DELGADO",
      "house": "425",
      "postcode": "4445-450",
      "city": "ERMESINDE",
      "lon": "-8.536046612071347",
      "lat": "41.21096302585145"
    },
    {
      "id": "pt.ine.add.PTCONT.3847005",
      "street": "R AFONSO LOPES VIEIRA",
      "house": "208",
      "postcode": "4445-315",
      "city": "ERMESINDE",
      "lon": "-8.534087276069618",
      "lat": "41.20869337999663"
    },
    {
      "id": "pt.ine.add.PTCONT.3854575",
      "street": "R 10 DE JUNHO",
      "house": "125",
      "postcode": "4445-301",
      "city": "ERMESINDE",
      "lon": "-8.53132347582779",
      "lat": "41.20877340695786"
    },
    {
      "id": "pt.ine.add.PTCONT.3855019",
      "street": "R 10 DE JUNHO",
      "house": "143",
      "postcode": "4445-301",
      "city": "ERMESINDE",
      "lon": "-8.531513971480274",
      "lat": "41.208727726690284"
    },
    {
      "id": "pt.ine.add.PTCONT.3859347",
      "street": "TV VILA NOVA DE GAIA",
      "house": "43",
      "postcode": "4445-622",
      "city": "ERMESINDE",
      "lon": "-8.533820613037326",
      "lat": "41.207666222914206"
    },
    {
      "id": "pt.ine.add.PTCONT.3872032",
      "street": "TV VILA NOVA DE GAIA",
      "house": "4",
      "postcode": "4445-622",
      "city": "ERMESINDE",
      "lon": "-8.533452596539687",
      "lat": "41.207928626996676"
    },
    {
      "id": "pt.ine.add.PTCONT.3880459",
      "street": "R 10 DE JUNHO",
      "house": "197",
      "postcode": "4445-301",
      "city": "ERMESINDE",
      "lon": "-8.53215792495273",
      "lat": "41.20874350566198"
    },
    {
      "id": "pt.ine.add.PTCONT.3885238",
      "street": "R HUMBERTO DELGADO",
      "house": "513",
      "postcode": "4445-450",
      "city": "ERMESINDE",
      "lon": "-8.537104696069138",
      "lat": "41.210455079391686"
    },
    {
      "id": "pt.ine.add.PTCONT.3891284",
      "street": "R JOAQUIM DA ROCHA FERREIRA",
      "house": "9",
      "postcode": "4445-277",
      "city": "ERMESINDE",
      "lon": "-8.532984917594614",
      "lat": "41.20748904211486"
    },
    {
      "id": "pt.ine.add.PTCONT.3891285",
      "street": "R ALPENDURADA",
      "house": "15",
      "postcode": "4445-320",
      "city": "ERMESINDE",
      "lon": "-8.537097827902265",
      "lat": "41.209338573173476"
    },
    {
      "id": "pt.ine.add.PTCONT.3891286",
      "street": "R ALPENDURADA",
      "house": "5",
      "postcode": "4445-320",
      "city": "ERMESINDE",
      "lon": "-8.537097827902265",
      "lat": "41.209338573173476"
    },
    {
      "id": "pt.ine.add.PTCONT.3891501",
      "street": "R AFONSO LOPES VIEIRA",
      "house": "155",
      "postcode": "4445-315",
      "city": "ERMESINDE",
      "lon": "-8.534785201027411",
      "lat": "41.20891510840247"
    },
    {
      "id": "pt.ine.add.PTCONT.3891502",
      "street": "R AFONSO LOPES VIEIRA",
      "house": "155",
      "postcode": "4445-315",
      "city": "ERMESINDE",
      "lon": "-8.534785201027411",
      "lat": "41.20891510840247"
    },
    {
      "id": "pt.ine.add.PTCONT.3906857",
      "street": "R 10 JUNHO",
      "house": "135",
      "postcode": "4445-301",
      "city": "ERMESINDE",
      "lon": "-8.53141875099102",
      "lat": "41.2087550689086"
    },
    {
      "id": "pt.ine.add.PTCONT.3913638",
      "street": "R AFONSO LOPES VIEIRA",
      "house": "182-188",
      "postcode": "4445-999",
      "city": "ERMESINDE",
      "lon": "-8.534398795970707",
      "lat": "41.20862766758454"
    },
    {
      "id": "pt.ine.add.PTCONT.3913639",
      "street": "R AFONSO LOPES VIEIRA",
      "house": "182-188",
      "postcode": "4445-999",
      "city": "ERMESINDE",
      "lon": "-8.534398795970707",
      "lat": "41.20862766758454"
    },
    {
      "id": "pt.ine.add.PTCONT.3917843",
      "street": "R ALPENDURADA",
      "house": "194",
      "postcode": "4445-320",
      "city": "ERMESINDE",
      "lon": "-8.535169145036626",
      "lat": "41.2098135453568"
    },
    {
      "id": "pt.ine.add.PTCONT.3917844",
      "street": "R ALPENDURADA",
      "house": "196",
      "postcode": "4445-320",
      "city": "ERMESINDE",
      "lon": "-8.535169145036626",
      "lat": "41.2098135453568"
    },
    {
      "id": "pt.ine.add.PTCONT.3920832",
      "street": "R CABEDA",
      "house": "161",
      "postcode": "4445-358",
      "city": "ERMESINDE",
      "lon": "-8.529299029535746",
      "lat": "41.20721364461624"
    },
    {
      "id": "pt.ine.add.PTCONT.3920833",
      "street": "R CABEDA",
      "house": "161",
      "postcode": "4445-358",
      "city": "ERMESINDE",
      "lon": "-8.529299029535746",
      "lat": "41.20721364461624"
    },
    {
      "id": "pt.ine.add.PTCONT.3924980",
      "street": "R LIBERDADE",
      "house": "74",
      "postcode": "4445-493",
      "city": "ERMESINDE",
      "lon": "-8.533266804412882",
      "lat": "41.210702590409745"
    },
    {
      "id": "pt.ine.add.PTCONT.3926967",
      "street": "R CHAOS",
      "house": "401",
      "postcode": "4445-379",
      "city": "ERMESINDE",
      "lon": "-8.536774353486104",
      "lat": "41.209087587702534"
    },
    {
      "id": "pt.ine.add.PTCONT.3926968",
      "street": "R CHAOS",
      "house": "405",
      "postcode": "4445-379",
      "city": "ERMESINDE",
      "lon": "-8.536774353486104",
      "lat": "41.209087587702534"
    },
    {
      "id": "pt.ine.add.PTCONT.3937261",
      "street": "R ALPENDURADA",
      "house": "176",
      "postcode": "4445-320",
      "city": "ERMESINDE",
      "lon": "-8.535419146768911",
      "lat": "41.209749642313525"
    },
    {
      "id": "pt.ine.add.PTCONT.3939404",
      "street": "R ALPENDURADA",
      "house": "174",
      "postcode": "4445-320",
      "city": "ERMESINDE",
      "lon": "-8.535419146768911",
      "lat": "41.209749642313525"
    },
    {
      "id": "pt.ine.add.PTCONT.3943178",
      "street": "R HUMBERTO DELGADO",
      "house": "447",
      "postcode": "4445-450",
      "city": "ERMESINDE",
      "lon": "-8.536248481409853",
      "lat": "41.21082725521632"
    },
    {
      "id": "pt.ine.add.PTCONT.3943179",
      "street": "R LIBERDADE",
      "house": "44",
      "postcode": "4445-493",
      "city": "ERMESINDE",
      "lon": "-8.533267627380058",
      "lat": "41.21083765168883"
    },
    {
      "id": "pt.ine.add.PTCONT.3943180",
      "street": "R LIBERDADE",
      "house": "54",
      "postcode": "4445-493",
      "city": "ERMESINDE",
      "lon": "-8.533267627380058",
      "lat": "41.21083765168883"
    },
    {
      "id": "pt.ine.add.PTCONT.3943181",
      "street": "R VILA NOVA DE GAIA",
      "house": "327",
      "postcode": "4445-621",
      "city": "ERMESINDE",
      "lon": "-8.53419302541712",
      "lat": "41.20812414477485"
    },
    {
      "id": "pt.ine.add.PTCONT.3945893",
      "street": "R HUMBERTO DELGADO",
      "house": "447",
      "postcode": "4445-450",
      "city": "ERMESINDE",
      "lon": "-8.536248481409853",
      "lat": "41.21082725521632"
    },
    {
      "id": "pt.ine.add.PTCONT.3952958",
      "street": "R ALPENDURADA",
      "house": "148",
      "postcode": "4445-320",
      "city": "ERMESINDE",
      "lon": "-8.535681181604103",
      "lat": "41.209703705217784"
    },
    {
      "id": "pt.ine.add.PTCONT.3952959",
      "street": "R ALPENDURADA",
      "house": "148",
      "postcode": "4445-320",
      "city": "ERMESINDE",
      "lon": "-8.535681181604103",
      "lat": "41.209703705217784"
    },
    {
      "id": "pt.ine.add.PTCONT.3954501",
      "street": "R CABEDA",
      "house": "205",
      "postcode": "4445-358",
      "city": "ERMESINDE",
      "lon": "-8.529372576121833",
      "lat": "41.20754654999714"
    },
    {
      "id": "pt.ine.add.PTCONT.3972432",
      "street": "R HUMBERTO DELGADO",
      "house": "451 455",
      "postcode": "4445-450",
      "city": "ERMESINDE",
      "lon": "-8.53634326056398",
      "lat": "41.210727876354746"
    },
    {
      "id": "pt.ine.add.PTCONT.3972433",
      "street": "R HUMBERTO DELGADO",
      "house": "451 455",
      "postcode": "4445-450",
      "city": "ERMESINDE",
      "lon": "-8.53634326056398",
      "lat": "41.210727876354746"
    },
    {
      "id": "pt.ine.add.PTCONT.3982247",
      "street": "R AFONSO LOPES VIEIRA",
      "house": "250",
      "postcode": "4445-315",
      "city": "ERMESINDE",
      "lon": "-8.533804917948181",
      "lat": "41.20871499249443"
    },
    {
      "id": "pt.ine.add.PTCONT.3988105",
      "street": "R 10 DE JUNHO",
      "house": "167",
      "postcode": "4445-301",
      "city": "ERMESINDE",
      "lon": "-8.53179996042466",
      "lat": "41.20869972410536"
    },
    {
      "id": "pt.ine.add.PTCONT.3994541",
      "street": "R HUMBERTO DELGADO",
      "house": "485",
      "postcode": "4445-450",
      "city": "ERMESINDE",
      "lon": "-8.536795408631994",
      "lat": "41.21057321957959"
    },
    {
      "id": "pt.ine.add.PTCONT.3994603",
      "street": "R VILA NOVA DE GAIA",
      "house": "244",
      "postcode": "4445-621",
      "city": "ERMESINDE",
      "lon": "-8.533384296839147",
      "lat": "41.20846011692651"
    },
    {
      "id": "pt.ine.add.PTCONT.4001192",
      "street": "R VILA NOVA DE GAIA",
      "house": "365",
      "postcode": "4445-621",
      "city": "ERMESINDE",
      "lon": "-8.534538460037599",
      "lat": "41.20806891549754"
    },
    {
      "id": "pt.ine.add.PTCONT.4001193",
      "street": "R VILA NOVA DE GAIA",
      "house": "365",
      "postcode": "4445-621",
      "city": "ERMESINDE",
      "lon": "-8.534538460037599",
      "lat": "41.20806891549754"
    },
    {
      "id": "pt.ine.add.PTCONT.4001194",
      "street": "R VILA NOVA DE GAIA",
      "house": "315",
      "postcode": "4445-621",
      "city": "ERMESINDE",
      "lon": "-8.534061928206022",
      "lat": "41.20813360556554"
    },
    {
      "id": "pt.ine.add.PTCONT.4001204",
      "street": "R AFONSO LOPES VIEIRA",
      "house": "189",
      "postcode": "4445-315",
      "city": "ERMESINDE",
      "lon": "-8.53436795996294",
      "lat": "41.20893444546207"
    },
    {
      "id": "pt.ine.add.PTCONT.4001205",
      "street": "R AFONSO LOPES VIEIRA",
      "house": "183",
      "postcode": "4445-315",
      "city": "ERMESINDE",
      "lon": "-8.53436795996294",
      "lat": "41.20893444546207"
    },
    {
      "id": "pt.ine.add.PTCONT.4008170",
      "street": "R CHAOS",
      "house": "313",
      "postcode": "4445-379",
      "city": "ERMESINDE",
      "lon": "-8.537576084402765",
      "lat": "41.20955299709177"
    },
    {
      "id": "pt.ine.add.PTCONT.4008171",
      "street": "R AFONSO LOPES VIEIRA",
      "house": "190",
      "postcode": "4445-315",
      "city": "ERMESINDE",
      "lon": "-8.534603661347122",
      "lat": "41.208635232964035"
    },
    {
      "id": "pt.ine.add.PTCONT.4009996",
      "street": "R CHAOS",
      "house": "311",
      "postcode": "4445-379",
      "city": "ERMESINDE",
      "lon": "-8.537576084402765",
      "lat": "41.20955299709177"
    },
    {
      "id": "pt.ine.add.PTCONT.4013983",
      "street": "R VILA NOVA DE GAIA",
      "house": "262",
      "postcode": "4445-621",
      "city": "ERMESINDE",
      "lon": "-8.53356303184674",
      "lat": "41.208441486984746"
    },
    {
      "id": "pt.ine.add.PTCONT.4018557",
      "street": "R CABEDA",
      "house": "149",
      "postcode": "4445-358",
      "city": "ERMESINDE",
      "lon": "-8.529250089410594",
      "lat": "41.207006714482944"
    },
    {
      "id": "pt.ine.add.PTCONT.4030086",
      "street": "R ENG EDUARDO GASPAR",
      "house": "18",
      "postcode": "4445-275",
      "city": "ERMESINDE",
      "lon": "-8.532926728637252",
      "lat": "41.20772335545317"
    },
    {
      "id": "pt.ine.add.PTCONT.4033665",
      "street": "R 10 DE JUNHO",
      "house": "153",
      "postcode": "4445-301",
      "city": "ERMESINDE",
      "lon": "-8.531585455082263",
      "lat": "41.20871847508795"
    },
    {
      "id": "pt.ine.add.PTCONT.4033741",
      "street": "R VILA NOVA DE GAIA",
      "house": "288",
      "postcode": "4445-621",
      "city": "ERMESINDE",
      "lon": "-8.533836985777018",
      "lat": "41.2083955126319"
    },
    {
      "id": "pt.ine.add.PTCONT.4033745",
      "street": "R AFONSO LOPES VIEIRA",
      "house": "143",
      "postcode": "4445-315",
      "city": "ERMESINDE",
      "lon": "-8.535014205533875",
      "lat": "41.20888127271927"
    },
    {
      "id": "pt.ine.add.PTCONT.4040262",
      "street": "R VILA NOVA DE GAIA",
      "house": "105",
      "postcode": "4445-621",
      "city": "ERMESINDE",
      "lon": "-8.533640123110299",
      "lat": "41.207396722370646"
    },
    {
      "id": "pt.ine.add.PTCONT.4046753",
      "street": "R 10 DE JUNHO",
      "house": "181",
      "postcode": "4445-301",
      "city": "ERMESINDE",
      "lon": "-8.531966937569763",
      "lat": "41.20870815018398"
    },
    {
      "id": "pt.ine.add.PTCONT.4046828",
      "street": "R ALPENDURADA",
      "house": "254",
      "postcode": "4445-320",
      "city": "ERMESINDE",
      "lon": "-8.534549632361646",
      "lat": "41.20989674509146"
    },
    {
      "id": "pt.ine.add.PTCONT.4046829",
      "street": "R ALPENDURADA",
      "house": "258",
      "postcode": "4445-320",
      "city": "ERMESINDE",
      "lon": "-8.534549632361646",
      "lat": "41.20989674509146"
    },
    {
      "id": "pt.ine.add.PTCONT.4048799",
      "street": "R D AFONSO LOPES VIEIRA",
      "house": "101-109",
      "postcode": "4445-999",
      "city": "ERMESINDE",
      "lon": "-8.535390115940938",
      "lat": "41.20890334160983"
    },
    {
      "id": "pt.ine.add.PTCONT.4048800",
      "street": "R D AFONSO LOPES VIEIRA",
      "house": "101-109",
      "postcode": "4445-999",
      "city": "ERMESINDE",
      "lon": "-8.535390115940938",
      "lat": "41.20890334160983"
    },
    {
      "id": "pt.ine.add.PTCONT.4049866",
      "street": "R ALPENDURADA",
      "house": "173",
      "postcode": "4445-320",
      "city": "ERMESINDE",
      "lon": "-8.535468770400996",
      "lat": "41.21006461863684"
    },
    {
      "id": "pt.ine.add.PTCONT.4049867",
      "street": "R ALPENDURADA",
      "house": "222",
      "postcode": "4445-320",
      "city": "ERMESINDE",
      "lon": "-8.534907219571458",
      "lat": "41.20987748946001"
    },
    {
      "id": "pt.ine.add.PTCONT.4049869",
      "street": "R ALPENDURADA",
      "house": "222",
      "postcode": "4445-320",
      "city": "ERMESINDE",
      "lon": "-8.534907219571458",
      "lat": "41.20987748946001"
    },
    {
      "id": "pt.ine.add.PTCONT.4053288",
      "street": "R CABEDA",
      "house": "143",
      "postcode": "4445-358",
      "city": "ERMESINDE",
      "lon": "-8.529382108629843",
      "lat": "41.207150328795656"
    },
    {
      "id": "pt.ine.add.PTCONT.4053289",
      "street": "R CABEDA",
      "house": "153",
      "postcode": "4445-358",
      "city": "ERMESINDE",
      "lon": "-8.529382108629843",
      "lat": "41.207150328795656"
    },
    {
      "id": "pt.ine.add.PTCONT.4056314",
      "street": "R ENG EDUARDO GASPAR",
      "house": "14",
      "postcode": "4445-275",
      "city": "ERMESINDE",
      "lon": "-8.533034034325443",
      "lat": "41.20772298285952"
    },
    {
      "id": "pt.ine.add.PTCONT.4062483",
      "street": "R AFONSO LOPES VIEIRA",
      "house": "168",
      "postcode": "4445-315",
      "city": "ERMESINDE",
      "lon": "-8.534470389093785",
      "lat": "41.20863642236835"
    },
    {
      "id": "pt.ine.add.PTCONT.4062484",
      "street": "R AFONSO LOPES VIEIRA",
      "house": "168",
      "postcode": "4445-315",
      "city": "ERMESINDE",
      "lon": "-8.534470389093785",
      "lat": "41.20863642236835"
    },
    {
      "id": "pt.ine.add.PTCONT.4062575",
      "street": "R HUMBERTO DELGADO",
      "house": "527",
      "postcode": "4445-450",
      "city": "ERMESINDE",
      "lon": "-8.53753293836758",
      "lat": "41.210291499303096"
    },
    {
      "id": "pt.ine.add.PTCONT.4063431",
      "street": "R ALPENDURADA",
      "house": "193",
      "postcode": "4445-320",
      "city": "ERMESINDE",
      "lon": "-8.535254482248398",
      "lat": "41.21011939280091"
    },
    {
      "id": "pt.ine.add.PTCONT.4066843",
      "street": "R VILA NOVA DE GAIA",
      "house": "326",
      "postcode": "4445-621",
      "city": "ERMESINDE",
      "lon": "-8.534206323048418",
      "lat": "41.208349205454404"
    },
    {
      "id": "pt.ine.add.PTCONT.4073452",
      "street": "TV VILA NOVA DE GAIA",
      "house": "35",
      "postcode": "4445-622",
      "city": "ERMESINDE",
      "lon": "-8.532761616725773",
      "lat": "41.20802106982692"
    },
    {
      "id": "pt.ine.add.PTCONT.4073462",
      "street": "R VILA NOVA DE GAIA",
      "house": "277",
      "postcode": "4445-621",
      "city": "ERMESINDE",
      "lon": "-8.533764184584216",
      "lat": "41.208188667502775"
    },
    {
      "id": "pt.ine.add.PTCONT.4073470",
      "street": "R VILA NOVA DE GAIA",
      "house": "235",
      "postcode": "4445-621",
      "city": "ERMESINDE",
      "lon": "-8.533406770838182",
      "lat": "41.20823493181764"
    },
    {
      "id": "pt.ine.add.PTCONT.4086215",
      "street": "R 10 DE JUNHO",
      "house": "189",
      "postcode": "4445-301",
      "city": "ERMESINDE",
      "lon": "-8.53205067227954",
      "lat": "41.20875288153657"
    },
    {
      "id": "pt.ine.add.PTCONT.4086216",
      "street": "R CABEDA",
      "house": "217",
      "postcode": "4445-358",
      "city": "ERMESINDE",
      "lon": "-8.529421028066093",
      "lat": "41.20767244320691"
    },
    {
      "id": "pt.ine.add.PTCONT.4086284",
      "street": "TV VILA NOVA DE GAIA",
      "house": "90",
      "postcode": "4445-622",
      "city": "ERMESINDE",
      "lon": "-8.534488457266175",
      "lat": "41.20769091001592"
    },
    {
      "id": "pt.ine.add.PTCONT.4093059",
      "street": "R CABEDA",
      "house": "123",
      "postcode": "4445-358",
      "city": "ERMESINDE",
      "lon": "-8.529249220509328",
      "lat": "41.20686264895198"
    },
    {
      "id": "pt.ine.add.PTCONT.4099653",
      "street": "R 10 DE JUNHO",
      "house": "115",
      "postcode": "4445-301",
      "city": "ERMESINDE",
      "lon": "-8.531240069078779",
      "lat": "41.20878269961851"
    },
    {
      "id": "pt.ine.add.PTCONT.4099715",
      "street": "R DR PINHEIRO BRAGA",
      "house": "26",
      "postcode": "4445-281",
      "city": "ERMESINDE",
      "lon": "-8.532894029306243",
      "lat": "41.20822770867264"
    },
    {
      "id": "pt.ine.add.PTCONT.4099718",
      "street": "R VILA NOVA DE GAIA",
      "house": "351",
      "postcode": "4445-621",
      "city": "ERMESINDE",
      "lon": "-8.534407362989581",
      "lat": "41.20807837668085"
    },
    {
      "id": "pt.ine.add.PTCONT.4099721",
      "street": "R AFONSO LOPES VIEIRA",
      "house": "220",
      "postcode": "4445-315",
      "city": "ERMESINDE",
      "lon": "-8.534289297911766",
      "lat": "41.20867888814893"
    },
    {
      "id": "pt.ine.add.PTCONT.4105729",
      "street": "R HUMBERTO DELGADO",
      "house": "495",
      "postcode": "4445-450",
      "city": "ERMESINDE",
      "lon": "-8.536962003530668",
      "lat": "41.210518609816724"
    },
    {
      "id": "pt.ine.add.PTCONT.4108881",
      "street": "R HUMBERTO DELGADO",
      "house": "615",
      "postcode": "4445-450",
      "city": "ERMESINDE",
      "lon": "-8.53838991662331",
      "lat": "41.21004537109118"
    },
    {
      "id": "pt.ine.add.PTCONT.4108882",
      "street": "R ENG EDUARDO GASPAR",
      "house": "32",
      "postcode": "4445-275",
      "city": "ERMESINDE",
      "lon": "-8.532747721457012",
      "lat": "41.20769696394847"
    },
    {
      "id": "pt.ine.add.PTCONT.4112844",
      "street": "R CABEDA",
      "house": "189",
      "postcode": "4445-358",
      "city": "ERMESINDE",
      "lon": "-8.52937143531595",
      "lat": "41.207357464007565"
    },
    {
      "id": "pt.ine.add.PTCONT.4112845",
      "street": "R HUMBERTO DELGADO",
      "house": "535",
      "postcode": "4445-450",
      "city": "ERMESINDE",
      "lon": "-8.537985080600123",
      "lat": "41.21013683787186"
    },
    {
      "id": "pt.ine.add.PTCONT.4112846",
      "street": "R DR PINHEIRO BRAGA",
      "house": "29",
      "postcode": "4445-281",
      "city": "ERMESINDE",
      "lon": "-8.532895947615943",
      "lat": "41.20854285180247"
    },
    {
      "id": "pt.ine.add.PTCONT.4128328",
      "street": "R ALPENDURADA",
      "house": "162",
      "postcode": "4445-320",
      "city": "ERMESINDE",
      "lon": "-8.535550246996108",
      "lat": "41.209740179966595"
    },
    {
      "id": "pt.ine.add.PTCONT.4128329",
      "street": "R ALPENDURADA",
      "house": "162",
      "postcode": "4445-320",
      "city": "ERMESINDE",
      "lon": "-8.535550246996108",
      "lat": "41.209740179966595"
    },
    {
      "id": "pt.ine.add.PTCONT.4128330",
      "street": "R ENG EDUARDO GASPAR",
      "house": "28",
      "postcode": "4445-275",
      "city": "ERMESINDE",
      "lon": "-8.532843159055238",
      "lat": "41.20770563699803"
    },
    {
      "id": "pt.ine.add.PTCONT.4131842",
      "street": "R HUMBERTO DELGADO",
      "house": "285",
      "postcode": "4445-450",
      "city": "ERMESINDE",
      "lon": "-8.534652340428865",
      "lat": "41.21109395573978"
    },
    {
      "id": "pt.ine.add.PTCONT.4138561",
      "street": "R 10 DE JUNHO",
      "house": "175",
      "postcode": "4445-301",
      "city": "ERMESINDE",
      "lon": "-8.53185968492559",
      "lat": "41.208717525880616"
    },
    {
      "id": "pt.ine.add.PTCONT.4138562",
      "street": "R CHAOS",
      "house": "339",
      "postcode": "4445-379",
      "city": "ERMESINDE",
      "lon": "-8.537396460710006",
      "lat": "41.2094275679439"
    },
    {
      "id": "pt.ine.add.PTCONT.4141430",
      "street": "R CHAOS",
      "house": "341",
      "postcode": "4445-379",
      "city": "ERMESINDE",
      "lon": "-8.537396460710006",
      "lat": "41.2094275679439"
    },
    {
      "id": "pt.ine.add.PTCONT.4145384",
      "street": "R AFONSO LOPES VIEIRA",
      "house": "196",
      "postcode": "4445-315",
      "city": "ERMESINDE",
      "lon": "-8.534509515339142",
      "lat": "41.208650083255016"
    },
    {
      "id": "pt.ine.add.PTCONT.4147519",
      "street": "R CABEDA",
      "house": "97",
      "postcode": "4445-358",
      "city": "ERMESINDE",
      "lon": "-8.529188412442643",
      "lat": "41.20666476388564"
    },
    {
      "id": "pt.ine.add.PTCONT.4154965",
      "street": "R ENG EDUARDO GASPAR",
      "house": "17",
      "postcode": "4445-275",
      "city": "ERMESINDE",
      "lon": "-8.532964251351423",
      "lat": "41.208011362151545"
    },
    {
      "id": "pt.ine.add.PTCONT.4158405",
      "street": "R CABEDA",
      "house": "203",
      "postcode": "4445-358",
      "city": "ERMESINDE",
      "lon": "-8.529371924231425",
      "lat": "41.20743850086102"
    },
    {
      "id": "pt.ine.add.PTCONT.4171900",
      "street": "R VILA NOVA DE GAIA",
      "house": "305",
      "postcode": "4445-621",
      "city": "ERMESINDE",
      "lon": "-8.53387127125248",
      "lat": "41.20815227777065"
    },
    {
      "id": "pt.ine.add.PTCONT.4172082",
      "street": "R CABEDA",
      "house": "67",
      "postcode": "4445-358",
      "city": "ERMESINDE",
      "lon": "-8.529114542091977",
      "lat": "41.206277833746526"
    },
    {
      "id": "pt.ine.add.PTCONT.4178007",
      "street": "AV ENG DUARTE PACHECO",
      "house": "2427",
      "postcode": "4445-416",
      "city": "ERMESINDE",
      "lon": "-8.529399760889811",
      "lat": "41.206123779798155"
    },
    {
      "id": "pt.ine.add.PTCONT.4178008",
      "street": "AV ENG DUARTE PACHECO",
      "house": "2427",
      "postcode": "4445-416",
      "city": "ERMESINDE",
      "lon": "-8.529399760889811",
      "lat": "41.206123779798155"
    },
    {
      "id": "pt.ine.add.PTCONT.4179973",
      "street": "AV ENG DUARTE PACHECO",
      "house": "2427",
      "postcode": "4445-416",
      "city": "ERMESINDE",
      "lon": "-8.529399760889811",
      "lat": "41.206123779798155"
    },
    {
      "id": "pt.ine.add.PTCONT.4184775",
      "street": "R HUMBERTO DELGADO",
      "house": "345",
      "postcode": "4445-450",
      "city": "ERMESINDE",
      "lon": "-8.535296152291759",
      "lat": "41.21108270479872"
    },
    {
      "id": "pt.ine.add.PTCONT.4184776",
      "street": "R HUMBERTO DELGADO",
      "house": "345",
      "postcode": "4445-450",
      "city": "ERMESINDE",
      "lon": "-8.535296152291759",
      "lat": "41.21108270479872"
    },
    {
      "id": "pt.ine.add.PTCONT.4186666",
      "street": "R VILA NOVA GAIA",
      "house": "360",
      "postcode": "4445-621",
      "city": "ERMESINDE",
      "lon": "-8.534587912991771",
      "lat": "41.2083568800547"
    },
    {
      "id": "pt.ine.add.PTCONT.4190770",
      "street": "R CABEDA",
      "house": "225",
      "postcode": "4445-358",
      "city": "ERMESINDE",
      "lon": "-8.529433331246938",
      "lat": "41.20773543083549"
    },
    {
      "id": "pt.ine.add.PTCONT.4190847",
      "street": "R AFONSO LOPES VIEIRA",
      "house": "151",
      "postcode": "4445-315",
      "city": "ERMESINDE",
      "lon": "-8.534899759498948",
      "lat": "41.20887775070921"
    },
    {
      "id": "pt.ine.add.PTCONT.4193215",
      "street": "R AFONSO LOPES VIEIRA",
      "house": "135-137",
      "postcode": "4445-315",
      "city": "ERMESINDE",
      "lon": "-8.535008467650005",
      "lat": "41.208886665597056"
    },
    {
      "id": "pt.ine.add.PTCONT.4193216",
      "street": "R AFONSO LOPES VIEIRA",
      "house": "135-137",
      "postcode": "4445-315",
      "city": "ERMESINDE",
      "lon": "-8.535008467650005",
      "lat": "41.208886665597056"
    },
    {
      "id": "pt.ine.add.PTCONT.4197443",
      "street": "R HUMBERTO DELGADO",
      "house": "521",
      "postcode": "4445-450",
      "city": "ERMESINDE",
      "lon": "-8.537413982388523",
      "lat": "41.21033693837584"
    },
    {
      "id": "pt.ine.add.PTCONT.4197491",
      "street": "R AFONSO LOPES VIEIRA",
      "house": "131",
      "postcode": "4445-315",
      "city": "ERMESINDE",
      "lon": "-8.535109606911913",
      "lat": "41.2088836986453"
    },
    {
      "id": "pt.ine.add.PTCONT.4197492",
      "street": "R AFONSO LOPES VIEIRA",
      "house": "131",
      "postcode": "4445-315",
      "city": "ERMESINDE",
      "lon": "-8.535109606911913",
      "lat": "41.2088836986453"
    },
    {
      "id": "pt.ine.add.PTCONT.4201947",
      "street": "R HUMBERTO DELGADO",
      "house": "483",
      "postcode": "4445-450",
      "city": "ERMESINDE",
      "lon": "-8.536700353711595",
      "lat": "41.21062757840346"
    },
    {
      "id": "pt.ine.add.PTCONT.4201948",
      "street": "R HUMBERTO DELGADO",
      "house": "305",
      "postcode": "4445-450",
      "city": "ERMESINDE",
      "lon": "-8.534854929143483",
      "lat": "41.21107524061761"
    },
    {
      "id": "pt.ine.add.PTCONT.4201949",
      "street": "R HUMBERTO DELGADO",
      "house": "305",
      "postcode": "4445-450",
      "city": "ERMESINDE",
      "lon": "-8.534854929143483",
      "lat": "41.21107524061761"
    },
    {
      "id": "pt.ine.add.PTCONT.4201950",
      "street": "R ALPENDURADA",
      "house": "244",
      "postcode": "4445-320",
      "city": "ERMESINDE",
      "lon": "-8.534633095086841",
      "lat": "41.20989645411642"
    },
    {
      "id": "pt.ine.add.PTCONT.4201951",
      "street": "TV VILA NOVA DE GAIA",
      "house": "30",
      "postcode": "4445-622",
      "city": "ERMESINDE",
      "lon": "-8.533655175856234",
      "lat": "41.207909914017684"
    },
    {
      "id": "pt.ine.add.PTCONT.4206087",
      "street": "R ALPENDURADA",
      "house": "240",
      "postcode": "4445-320",
      "city": "ERMESINDE",
      "lon": "-8.534633095086841",
      "lat": "41.20989645411642"
    },
    {
      "id": "pt.ine.add.PTCONT.4217255",
      "street": "R LIBERDADE",
      "house": "86 A",
      "postcode": "4445-493",
      "city": "ERMESINDE",
      "lon": "-8.533348841414627",
      "lat": "41.21046819413755"
    },
    {
      "id": "pt.ine.add.PTCONT.4219227",
      "street": "R DR PINHEIRO BRAGA",
      "house": "10",
      "postcode": "4445-281",
      "city": "ERMESINDE",
      "lon": "-8.533096774220159",
      "lat": "41.20823600894071"
    },
    {
      "id": "pt.ine.add.PTCONT.4231996",
      "street": "R VILA NOVA DE GAIA",
      "house": "354",
      "postcode": "4445-621",
      "city": "ERMESINDE",
      "lon": "-8.534504617311029",
      "lat": "41.20838418325118"
    },
    {
      "id": "pt.ine.add.PTCONT.4232901",
      "street": "R HUMBERTO DELGADO",
      "house": "625",
      "postcode": "4445-450",
      "city": "ERMESINDE",
      "lon": "-8.538604201872678",
      "lat": "41.20999059110514"
    },
    {
      "id": "pt.ine.add.PTCONT.4239997",
      "street": "R HUMBERTO DELGADO",
      "house": "587",
      "postcode": "4445-450",
      "city": "ERMESINDE",
      "lon": "-8.538246892952644",
      "lat": "41.210054878618365"
    },
    {
      "id": "pt.ine.add.PTCONT.4243464",
      "street": "R ALPENDURADA",
      "house": "141",
      "postcode": "4445-320",
      "city": "ERMESINDE",
      "lon": "-8.535802346056812",
      "lat": "41.21001843128727"
    },
    {
      "id": "pt.ine.add.PTCONT.4243465",
      "street": "R ALPENDURADA",
      "house": "147",
      "postcode": "4445-320",
      "city": "ERMESINDE",
      "lon": "-8.535802346056812",
      "lat": "41.21001843128727"
    },
    {
      "id": "pt.ine.add.PTCONT.4246654",
      "street": "R ENG EDUARDO GASPAR",
      "house": "31",
      "postcode": "4445-275",
      "city": "ERMESINDE",
      "lon": "-8.532856835585397",
      "lat": "41.207993726502146"
    },
    {
      "id": "pt.ine.add.PTCONT.4250600",
      "street": "R CABEDA",
      "house": "135",
      "postcode": "4445-358",
      "city": "ERMESINDE",
      "lon": "-8.529225918132257",
      "lat": "41.20695277193166"
    },
    {
      "id": "pt.ine.add.PTCONT.4250602",
      "street": "TV VILA NOVA DE GAIA",
      "house": "60",
      "postcode": "4445-622",
      "city": "ERMESINDE",
      "lon": "-8.534107915705244",
      "lat": "41.20785431275953"
    },
    {
      "id": "pt.ine.add.PTCONT.4250603",
      "street": "R DR PINHEIRO BRAGA",
      "house": "25",
      "postcode": "4445-281",
      "city": "ERMESINDE",
      "lon": "-8.53297935381678",
      "lat": "41.20853355794456"
    },
    {
      "id": "pt.ine.add.PTCONT.4250604",
      "street": "R VILA NOVA DE GAIA",
      "house": "340",
      "postcode": "4445-621",
      "city": "ERMESINDE",
      "lon": "-8.534325882738028",
      "lat": "41.20840281465257"
    },
    {
      "id": "pt.ine.add.PTCONT.4252193",
      "street": "R LIBERDADE",
      "house": "166",
      "postcode": "4445-493",
      "city": "ERMESINDE",
      "lon": "-8.533082579311172",
      "lat": "41.209820811287244"
    },
    {
      "id": "pt.ine.add.PTCONT.4269565",
      "street": "R LIBERDADE",
      "house": "186",
      "postcode": "4445-493",
      "city": "ERMESINDE",
      "lon": "-8.53297406410442",
      "lat": "41.20962309402234"
    },
    {
      "id": "pt.ine.add.PTCONT.4298493",
      "street": "R LIBERDADE",
      "house": "78",
      "postcode": "4445-493",
      "city": "ERMESINDE",
      "lon": "-8.533266365499347",
      "lat": "41.21063055772629"
    },
    {
      "id": "pt.ine.add.PTCONT.4298494",
      "street": "R LIBERDADE",
      "house": "78",
      "postcode": "4445-493",
      "city": "ERMESINDE",
      "lon": "-8.533266365499347",
      "lat": "41.21063055772629"
    },
    {
      "id": "pt.ine.add.PTCONT.4298495",
      "street": "R CABEDA",
      "house": "85",
      "postcode": "4445-358",
      "city": "ERMESINDE",
      "lon": "-8.529199574925917",
      "lat": "41.20653866553148"
    },
    {
      "id": "pt.ine.add.PTCONT.4303261",
      "street": "R LIBERDADE",
      "house": "98",
      "postcode": "4445-493",
      "city": "ERMESINDE",
      "lon": "-8.533181969335805",
      "lat": "41.21047777825804"
    },
    {
      "id": "pt.ine.add.PTCONT.4303334",
      "street": "R AFONSO LOPES VIEIRA",
      "house": "175",
      "postcode": "4445-315",
      "city": "ERMESINDE",
      "lon": "-8.534573239553165",
      "lat": "41.20892340210929"
    },
    {
      "id": "pt.ine.add.PTCONT.4303335",
      "street": "R AFONSO LOPES VIEIRA",
      "house": "167",
      "postcode": "4445-315",
      "city": "ERMESINDE",
      "lon": "-8.534573239553165",
      "lat": "41.20892340210929"
    },
    {
      "id": "pt.ine.add.PTCONT.4312333",
      "street": "R HUMBERTO DELGADO",
      "house": "467",
      "postcode": "4445-450",
      "city": "ERMESINDE",
      "lon": "-8.536462494510832",
      "lat": "41.21072745879371"
    },
    {
      "id": "pt.ine.add.PTCONT.4324901",
      "street": "R JOAQUIM DA ROCHA FERREIRA",
      "house": "17",
      "postcode": "4445-277",
      "city": "ERMESINDE",
      "lon": "-8.532877557483252",
      "lat": "41.20748041057016"
    },
    {
      "id": "pt.ine.add.PTCONT.4330223",
      "street": "R VILA NOVA DE GAIA",
      "house": "127",
      "postcode": "4445-621",
      "city": "ERMESINDE",
      "lon": "-8.533354085786348",
      "lat": "41.20741572541197"
    },
    {
      "id": "pt.ine.add.PTCONT.4331981",
      "street": "R VILA NOVA DE GAIA",
      "house": "276",
      "postcode": "4445-621",
      "city": "ERMESINDE",
      "lon": "-8.5337177560253",
      "lat": "41.20839592745548"
    },
    {
      "id": "pt.ine.add.PTCONT.4336355",
      "street": "R VILA NOVA DE GAIA",
      "house": "236",
      "postcode": "4445-621",
      "city": "ERMESINDE",
      "lon": "-8.533289022664915",
      "lat": "41.20847845659844"
    },
    {
      "id": "pt.ine.add.PTCONT.4336356",
      "street": "R VILA NOVA DE GAIA",
      "house": "290",
      "postcode": "4445-621",
      "city": "ERMESINDE",
      "lon": "-8.533956215526244",
      "lat": "41.20839509768489"
    },
    {
      "id": "pt.ine.add.PTCONT.4355655",
      "street": "R LIBERDADE",
      "house": "86",
      "postcode": "4445-493",
      "city": "ERMESINDE",
      "lon": "-8.533241915268471",
      "lat": "41.2105315956448"
    },
    {
      "id": "pt.ine.add.PTCONT.4355656",
      "street": "R LIBERDADE",
      "house": "86",
      "postcode": "4445-493",
      "city": "ERMESINDE",
      "lon": "-8.533241915268471",
      "lat": "41.2105315956448"
    },
    {
      "id": "pt.ine.add.PTCONT.4355657",
      "street": "R LIBERDADE",
      "house": "86",
      "postcode": "4445-493",
      "city": "ERMESINDE",
      "lon": "-8.533241915268471",
      "lat": "41.2105315956448"
    },
    {
      "id": "pt.ine.add.PTCONT.4355813",
      "street": "R LIBERDADE",
      "house": "206",
      "postcode": "4445-493",
      "city": "ERMESINDE",
      "lon": "-8.53291357108906",
      "lat": "41.20947923560669"
    },
    {
      "id": "pt.ine.add.PTCONT.4362023",
      "street": "R LIBERDADE",
      "house": "218",
      "postcode": "4445-493",
      "city": "ERMESINDE",
      "lon": "-8.532889067021717",
      "lat": "41.209371269338305"
    },
    {
      "id": "pt.ine.add.PTCONT.4362052",
      "street": "R ALPENDURADA",
      "house": "381",
      "postcode": "4445-320",
      "city": "ERMESINDE",
      "lon": "-8.536882048850485",
      "lat": "41.20915024010073"
    },
    {
      "id": "pt.ine.add.PTCONT.4364373",
      "street": "R ALPENDURADA",
      "house": "14",
      "postcode": "4445-320",
      "city": "ERMESINDE",
      "lon": "-8.536882048850485",
      "lat": "41.20915024010073"
    },
    {
      "id": "pt.ine.add.PTCONT.4368381",
      "street": "R CHAOS",
      "house": "345",
      "postcode": "4445-379",
      "city": "ERMESINDE",
      "lon": "-8.537240961004661",
      "lat": "41.209347075244835"
    },
    {
      "id": "pt.ine.add.PTCONT.4368382",
      "street": "R CHAOS",
      "house": "351",
      "postcode": "4445-379",
      "city": "ERMESINDE",
      "lon": "-8.537240961004661",
      "lat": "41.209347075244835"
    },
    {
      "id": "pt.ine.add.PTCONT.4373110",
      "street": "R LIBERDADE",
      "house": "108",
      "postcode": "4445-493",
      "city": "ERMESINDE",
      "lon": "-8.533348182915377",
      "lat": "41.210360145108666"
    },
    {
      "id": "pt.ine.add.PTCONT.4375418",
      "street": "TV AFONSO LOPES VIEIRA",
      "house": "23",
      "postcode": "4445-315",
      "city": "ERMESINDE",
      "lon": "-8.535280382342325",
      "lat": "41.20850753661079"
    },
    {
      "id": "pt.ine.add.PTCONT.4380114",
      "street": "R DR PINHEIRO BRAGA",
      "house": "32",
      "postcode": "4445-281",
      "city": "ERMESINDE",
      "lon": "-8.532786722791608",
      "lat": "41.20822808113956"
    },
    {
      "id": "pt.ine.add.PTCONT.4383902",
      "street": "R LIBERDADE",
      "house": "18",
      "postcode": "4445-493",
      "city": "ERMESINDE",
      "lon": "-8.53328064813025",
      "lat": "41.211017691956854"
    },
    {
      "id": "pt.ine.add.PTCONT.4388282",
      "street": "R AFONSO LOPES VIEIRA",
      "house": "161",
      "postcode": "4445-315",
      "city": "ERMESINDE",
      "lon": "-8.53469743530385",
      "lat": "41.20892048119953"
    }
  ]
}