{
  "data": {
    "distrito": "Leiria",
    "concelho": "Ã“bidos",
    "freguesia": "Amoreira",
    "OBJECTID": 366,
    "BGRI2021": "10120200130",
    "DT21": "10",
    "DTMN21": "1012",
    "DTMNFR21": "101202",
    "DTMNFRSEC21": "101202001",
    "SECNUM21": "001",
    "SSNUM21": "30",
    "SECSSNUM21": "00130",
    "OBJECTID_1": 93644,
    "DT": "10",
    "CC": "12",
    "fr": "02",
    "SEC": "001",
    "SS": "30"
  },
  "addresses": [
    {
      "id": "pt.ine.add.PTCONT.2094421",
      "street": "R AZENHA",
      "house": "",
      "postcode": "2510-451",
      "city": "AMOREIRA OBD",
      "lon": "-9.27186681958732",
      "lat": "39.39356742828994"
    },
    {
      "id": "pt.ine.add.PTCONT.2097207",
      "street": "R D CARLOTA JOAQUINA DE BOURBON",
      "house": "7",
      "postcode": "2510-451",
      "city": "AMOREIRA OBD",
      "lon": "-9.271612321569867",
      "lat": "39.39433549645716"
    },
    {
      "id": "pt.ine.add.PTCONT.2101184",
      "street": "ESTR VALE BENFEITO",
      "house": "2",
      "postcode": "2510-451",
      "city": "AMOREIRA OBD",
      "lon": "-9.272619719820634",
      "lat": "39.39418152479204"
    },
    {
      "id": "pt.ine.add.PTCONT.2125941",
      "street": "R D CARLOTA JOAQUINA DE BOURBON",
      "house": "6",
      "postcode": "2510-451",
      "city": "AMOREIRA OBD",
      "lon": "-9.271807098882155",
      "lat": "39.39489201119196"
    },
    {
      "id": "pt.ine.add.PTCONT.2147684",
      "street": "R D CARLOTA JOAQUINA DE BOURBON",
      "house": "4",
      "postcode": "2510-451",
      "city": "AMOREIRA OBD",
      "lon": "-9.271341674811064",
      "lat": "39.39482451148542"
    },
    {
      "id": "pt.ine.add.PTCONT.2150286",
      "street": "R D CARLOTA JOAQUINA DE BOURBON",
      "house": "3",
      "postcode": "2510-451",
      "city": "AMOREIRA OBD",
      "lon": "-9.270823682348135",
      "lat": "39.39437923876882"
    },
    {
      "id": "pt.ine.add.PTCONT.2158638",
      "street": "R D CARLOTA JOAQUINA DE BOURBON",
      "house": "1",
      "postcode": "2510-451",
      "city": "AMOREIRA OBD",
      "lon": "-9.270475641095302",
      "lat": "39.39439164869865"
    },
    {
      "id": "pt.ine.add.PTCONT.2162965",
      "street": "R AZENHA",
      "house": "4",
      "postcode": "2510-451",
      "city": "AMOREIRA OBD",
      "lon": "-9.27366882447623",
      "lat": "39.39445045468492"
    },
    {
      "id": "pt.ine.add.PTCONT.2169586",
      "street": "CASAIS MOINHO DA PRAIA",
      "house": "",
      "postcode": "2510-451",
      "city": "AMOREIRA OBD",
      "lon": "-9.273825113436269",
      "lat": "39.39549370987297"
    },
    {
      "id": "pt.ine.add.PTCONT.2171732",
      "street": "R D CARLOTA JOAQUINA DE BOURBON",
      "house": "8",
      "postcode": "2510-451",
      "city": "AMOREIRA OBD",
      "lon": "-9.272398289167764",
      "lat": "39.39484118919294"
    },
    {
      "id": "pt.ine.add.PTCONT.2185313",
      "street": "CSL DO MOINHO DA PAIA",
      "house": "7",
      "postcode": "2510-451",
      "city": "AMOREIRA OBD",
      "lon": "-9.274532371179422",
      "lat": "39.39544173887378"
    },
    {
      "id": "pt.ine.add.PTCONT.2200624",
      "street": "CASAIS DO MOINHO DA PRAIA",
      "house": "2",
      "postcode": "2510-451",
      "city": "AMOREIRA OBD",
      "lon": "-9.274137737443588",
      "lat": "39.39615714635318"
    },
    {
      "id": "pt.ine.add.PTCONT.2205126",
      "street": "CASAIS MOINHO DA PRAIA",
      "house": "8",
      "postcode": "2510-451",
      "city": "AMOREIRA OBD",
      "lon": "-9.273647204136658",
      "lat": "39.39526127769508"
    },
    {
      "id": "pt.ine.add.PTCONT.2205871",
      "street": "R D CARLOTA JOAQUINA DE BOURBON",
      "house": "9",
      "postcode": "2510-451",
      "city": "AMOREIRA OBD",
      "lon": "-9.272041459462086",
      "lat": "39.394313282434"
    },
    {
      "id": "pt.ine.add.PTCONT.2226858",
      "street": "R D CARLOTA JOAQUINA DE BOURBON",
      "house": "5",
      "postcode": "2510-451",
      "city": "AMOREIRA OBD",
      "lon": "-9.271206688521648",
      "lat": "39.394375492541435"
    },
    {
      "id": "pt.ine.add.PTCONT.2229413",
      "street": "R D CARLOTA JOAQUINA DE BOURBON",
      "house": "2",
      "postcode": "2510-451",
      "city": "AMOREIRA OBD",
      "lon": "-9.270876105300703",
      "lat": "39.39474800454231"
    },
    {
      "id": "pt.ine.add.PTCONT.2231215",
      "street": "CASAIS DO MOINHO DA PRAIA",
      "house": "4",
      "postcode": "2510-451",
      "city": "AMOREIRA OBD",
      "lon": "-9.274236767131189",
      "lat": "39.39582292388725"
    },
    {
      "id": "pt.ine.add.PTCONT.2240018",
      "street": "CASAIS MOINHO DA PRAIA",
      "house": "",
      "postcode": "2510-451",
      "city": "AMOREIRA OBD",
      "lon": "-9.274253523862775",
      "lat": "39.39542646085318"
    },
    {
      "id": "pt.ine.add.PTCONT.2260113",
      "street": "R AZENHA",
      "house": "6",
      "postcode": "2510-451",
      "city": "AMOREIRA OBD",
      "lon": "-9.274296882412452",
      "lat": "39.39452535665578"
    }
  ]
}