{
  "data": {
    "distrito": "Viseu",
    "concelho": "Vouzela",
    "freguesia": "Alcofra",
    "OBJECTID": 626,
    "BGRI2021": "18240100119",
    "DT21": "18",
    "DTMN21": "1824",
    "DTMNFR21": "182401",
    "DTMNFRSEC21": "182401001",
    "SECNUM21": "001",
    "SSNUM21": "19",
    "SECSSNUM21": "00119",
    "OBJECTID_1": 202692,
    "DT": "18",
    "CC": "24",
    "fr": "01",
    "SEC": "001",
    "SS": "19"
  },
  "addresses": [
    {
      "id": "pt.ine.add.PTCONT.5460370",
      "street": "",
      "house": "",
      "postcode": "3670-014",
      "city": "ALCOFRA",
      "lon": "-8.178819186944835",
      "lat": "40.618163580860426"
    },
    {
      "id": "pt.ine.add.PTCONT.5464833",
      "street": "",
      "house": "",
      "postcode": "3670-027",
      "city": "ALCOFRA",
      "lon": "-8.181228710624424",
      "lat": "40.61637056039928"
    },
    {
      "id": "pt.ine.add.PTCONT.5473489",
      "street": "",
      "house": "",
      "postcode": "3670-027",
      "city": "ALCOFRA",
      "lon": "-8.181299789595624",
      "lat": "40.616613672131564"
    },
    {
      "id": "pt.ine.add.PTCONT.5473490",
      "street": "",
      "house": "",
      "postcode": "3670-027",
      "city": "ALCOFRA",
      "lon": "-8.181299789595624",
      "lat": "40.616613672131564"
    },
    {
      "id": "pt.ine.add.PTCONT.5493962",
      "street": "",
      "house": "",
      "postcode": "3670-027",
      "city": "ALCOFRA",
      "lon": "-8.181157541849393",
      "lat": "40.61600137533889"
    },
    {
      "id": "pt.ine.add.PTCONT.5502410",
      "street": "",
      "house": "",
      "postcode": "3670-027",
      "city": "ALCOFRA",
      "lon": "-8.18159549202787",
      "lat": "40.61698276302122"
    },
    {
      "id": "pt.ine.add.PTCONT.5528753",
      "street": "",
      "house": "",
      "postcode": "3670-027",
      "city": "ALCOFRA",
      "lon": "-8.181559961504112",
      "lat": "40.616874715109866"
    },
    {
      "id": "pt.ine.add.PTCONT.5533651",
      "street": "ALCOFRA",
      "house": "",
      "postcode": "3670-014",
      "city": "ALCOFRA",
      "lon": "-8.179528130141584",
      "lat": "40.61799219866683"
    },
    {
      "id": "pt.ine.add.PTCONT.5543287",
      "street": "R JOSE PEREIRA",
      "house": "",
      "postcode": "3670-014",
      "city": "ALCOFRA",
      "lon": "-8.179232614232049",
      "lat": "40.617884254257206"
    },
    {
      "id": "pt.ine.add.PTCONT.5543332",
      "street": "R PRICIPAL",
      "house": "",
      "postcode": "3670-027",
      "city": "ALCOFRA",
      "lon": "-8.181157722489846",
      "lat": "40.616253521883756"
    },
    {
      "id": "pt.ine.add.PTCONT.5547218",
      "street": "R CACILDA ANJOS",
      "house": "",
      "postcode": "3670-014",
      "city": "ALCOFRA",
      "lon": "-8.178322934870266",
      "lat": "40.61829885469707"
    },
    {
      "id": "pt.ine.add.PTCONT.5566894",
      "street": "",
      "house": "",
      "postcode": "3670-014",
      "city": "ALCOFRA",
      "lon": "-8.178890019338876",
      "lat": "40.61805549000443"
    },
    {
      "id": "pt.ine.add.PTCONT.5562629",
      "street": "R JOSE RODRIGUES",
      "house": "",
      "postcode": "3670-014",
      "city": "ALCOFRA",
      "lon": "-8.179067407884858",
      "lat": "40.61823552421954"
    },
    {
      "id": "pt.ine.add.PTCONT.5570523",
      "street": "",
      "house": "",
      "postcode": "3670-014",
      "city": "ALCOFRA",
      "lon": "-8.179114468673884",
      "lat": "40.61792932754727"
    },
    {
      "id": "pt.ine.add.PTCONT.5598331",
      "street": "",
      "house": "",
      "postcode": "3670-027",
      "city": "ALCOFRA",
      "lon": "-8.180602510775689",
      "lat": "40.6165419190809"
    },
    {
      "id": "pt.ine.add.PTCONT.5636593",
      "street": "",
      "house": "",
      "postcode": "3670-014",
      "city": "ALCOFRA",
      "lon": "-8.179327515344362",
      "lat": "40.618406519850915"
    },
    {
      "id": "pt.ine.add.PTCONT.5645180",
      "street": "",
      "house": "",
      "postcode": "3670-014",
      "city": "ALCOFRA",
      "lon": "-8.178559246503717",
      "lat": "40.618235725312104"
    },
    {
      "id": "pt.ine.add.PTCONT.5662636",
      "street": "",
      "house": "",
      "postcode": "3670-014",
      "city": "ALCOFRA",
      "lon": "-8.178748329808926",
      "lat": "40.618235650748154"
    },
    {
      "id": "pt.ine.add.PTCONT.5667954",
      "street": "R GUILHERMINA ALMEIDA",
      "house": "",
      "postcode": "3670-014",
      "city": "ALCOFRA",
      "lon": "-8.179173680645812",
      "lat": "40.61810940861622"
    },
    {
      "id": "pt.ine.add.PTCONT.5669076",
      "street": "",
      "house": "",
      "postcode": "3670-027",
      "city": "ALCOFRA",
      "lon": "-8.181299789595624",
      "lat": "40.616613672131564"
    }
  ]
}