{
  "data": {
    "distrito": "Viana do Castelo",
    "concelho": "Valen√ßa",
    "freguesia": "Friestas",
    "OBJECTID": 188,
    "BGRI2021": "16080600105",
    "DT21": "16",
    "DTMN21": "1608",
    "DTMNFR21": "160806",
    "DTMNFRSEC21": "160806001",
    "SECNUM21": "001",
    "SSNUM21": "05",
    "SECSSNUM21": "00105",
    "OBJECTID_1": 177346,
    "DT": "16",
    "CC": "08",
    "fr": "06",
    "SEC": "001",
    "SS": "05"
  },
  "addresses": [
    {
      "id": "pt.ine.add.PTCONT.5146855",
      "street": "R EIDO NOVO",
      "house": "",
      "postcode": "4930-275",
      "city": "FRIESTAS",
      "lon": "-8.564604885291297",
      "lat": "42.04081351412649"
    },
    {
      "id": "pt.ine.add.PTCONT.5148545",
      "street": "R ALMINHAS",
      "house": "127",
      "postcode": "4930-279",
      "city": "FRIESTAS",
      "lon": "-8.56405085151018",
      "lat": "42.04104066999351"
    },
    {
      "id": "pt.ine.add.PTCONT.5164473",
      "street": "R EIDO NOVO",
      "house": "175",
      "postcode": "4930-275",
      "city": "FRIESTAS",
      "lon": "-8.566702393492731",
      "lat": "42.042003004884776"
    },
    {
      "id": "pt.ine.add.PTCONT.5198526",
      "street": "R EIDO NOVO",
      "house": "166",
      "postcode": "4930-275",
      "city": "FRIESTAS",
      "lon": "-8.565654521210755",
      "lat": "42.042430098349904"
    },
    {
      "id": "pt.ine.add.PTCONT.5203870",
      "street": "R ALMINHAS",
      "house": "130",
      "postcode": "4930-279",
      "city": "FRIESTAS",
      "lon": "-8.565949128364023",
      "lat": "42.04134863105643"
    },
    {
      "id": "pt.ine.add.PTCONT.5251581",
      "street": "R EIDO NOVO",
      "house": "168",
      "postcode": "4930-275",
      "city": "FRIESTAS",
      "lon": "-8.566090658672861",
      "lat": "42.04262651925494"
    },
    {
      "id": "pt.ine.add.PTCONT.5264995",
      "street": "R EIDO NOVO",
      "house": "",
      "postcode": "4930-275",
      "city": "FRIESTAS",
      "lon": "-8.564821605852247",
      "lat": "42.040713666459276"
    },
    {
      "id": "pt.ine.add.PTCONT.5273852",
      "street": "R ERMEGIL",
      "house": "172",
      "postcode": "4930-275",
      "city": "FRIESTAS",
      "lon": "-8.566212168493047",
      "lat": "42.04273409645612"
    }
  ]
}