{
  "data": {
    "distrito": "Setúbal",
    "concelho": "Seixal",
    "freguesia": "Corroios",
    "OBJECTID": 1375,
    "BGRI2021": "15100502918",
    "DT21": "15",
    "DTMN21": "1510",
    "DTMNFR21": "151005",
    "DTMNFRSEC21": "151005029",
    "SECNUM21": "029",
    "SSNUM21": "18",
    "SECSSNUM21": "02918",
    "OBJECTID_1": 168593,
    "DT": "15",
    "CC": "10",
    "fr": "05",
    "SEC": "029",
    "SS": "18"
  },
  "addresses": [
    {
      "id": "pt.ine.add.PTCONT.4663346",
      "street": "R ALMADA NEGREIROS",
      "house": "20",
      "postcode": "2855-405",
      "city": "CORROIOS",
      "lon": "-9.161784170776967",
      "lat": "38.62983513937047"
    },
    {
      "id": "pt.ine.add.PTCONT.4716313",
      "street": "R ALMADA NEGREIROS",
      "house": "32",
      "postcode": "2855-405",
      "city": "CORROIOS",
      "lon": "-9.161393384119288",
      "lat": "38.62981155083712"
    },
    {
      "id": "pt.ine.add.PTCONT.4729322",
      "street": "R ALMADA NEGREIROS",
      "house": "24",
      "postcode": "2855-405",
      "city": "CORROIOS",
      "lon": "-9.161634771247682",
      "lat": "38.62982744491964"
    },
    {
      "id": "pt.ine.add.PTCONT.4744686",
      "street": "R CABOUCA",
      "house": "15",
      "postcode": "2855-425",
      "city": "CORROIOS",
      "lon": "-9.162132247060175",
      "lat": "38.630084302299345"
    },
    {
      "id": "pt.ine.add.PTCONT.4774918",
      "street": "R CABOUCA",
      "house": "7",
      "postcode": "2855-425",
      "city": "CORROIOS",
      "lon": "-9.16263747304989",
      "lat": "38.63007985732538"
    },
    {
      "id": "pt.ine.add.PTCONT.4774919",
      "street": "R CABOUCA",
      "house": "23",
      "postcode": "2855-425",
      "city": "CORROIOS",
      "lon": "-9.16129390231624",
      "lat": "38.63008266523337"
    },
    {
      "id": "pt.ine.add.PTCONT.4775381",
      "street": "AV VALE DE MILHACOS",
      "house": "215",
      "postcode": "2855-388",
      "city": "CORROIOS",
      "lon": "-9.162948271185783",
      "lat": "38.630131169842976"
    },
    {
      "id": "pt.ine.add.PTCONT.4782936",
      "street": "R CABOUCA",
      "house": "11",
      "postcode": "2855-425",
      "city": "CORROIOS",
      "lon": "-9.162488330547413",
      "lat": "38.63009017770736"
    },
    {
      "id": "pt.ine.add.PTCONT.4784794",
      "street": "R CABOUCA",
      "house": "1",
      "postcode": "2855-425",
      "city": "CORROIOS",
      "lon": "-9.162890086002953",
      "lat": "38.63007763402043"
    },
    {
      "id": "pt.ine.add.PTCONT.4807232",
      "street": "AV VALE DE MILHAÇOS",
      "house": "219",
      "postcode": "2855-388",
      "city": "CORROIOS",
      "lon": "-9.163231464718093",
      "lat": "38.62985843659586"
    },
    {
      "id": "pt.ine.add.PTCONT.4810022",
      "street": "R CABOUCA",
      "house": "29",
      "postcode": "2855-425",
      "city": "CORROIOS",
      "lon": "-9.16084608816995",
      "lat": "38.63008660006435"
    },
    {
      "id": "pt.ine.add.PTCONT.4845815",
      "street": "R ALMADA NEGREIROS",
      "house": "4",
      "postcode": "2855-405",
      "city": "CORROIOS",
      "lon": "-9.162921054141181",
      "lat": "38.629834145413916"
    },
    {
      "id": "pt.ine.add.PTCONT.4853654",
      "street": "R ALMADA NEGREIROS",
      "house": "10 A",
      "postcode": "2855-405",
      "city": "CORROIOS",
      "lon": "-9.162484981738391",
      "lat": "38.629855999155744"
    },
    {
      "id": "pt.ine.add.PTCONT.4858039",
      "street": "R ALMADA NEGREIROS",
      "house": "14",
      "postcode": "2855-405",
      "city": "CORROIOS",
      "lon": "-9.162220758390589",
      "lat": "38.62984931571318"
    },
    {
      "id": "pt.ine.add.PTCONT.4891786",
      "street": "R ALMADA NEGREIROS",
      "house": "12 A",
      "postcode": "2855-405",
      "city": "CORROIOS",
      "lon": "-9.162301134995449",
      "lat": "38.62984860864693"
    },
    {
      "id": "pt.ine.add.PTCONT.4898207",
      "street": "R ALMADA NEGREIROS",
      "house": "8",
      "postcode": "2855-405",
      "city": "CORROIOS",
      "lon": "-9.162656959676296",
      "lat": "38.62983646982284"
    },
    {
      "id": "pt.ine.add.PTCONT.4902450",
      "street": "R CABOUCA",
      "house": "27",
      "postcode": "2855-425",
      "city": "CORROIOS",
      "lon": "-9.161006584744788",
      "lat": "38.63006717401528"
    },
    {
      "id": "pt.ine.add.PTCONT.4902451",
      "street": "R CABOUCA",
      "house": "27 ANEXO 1",
      "postcode": "2855-425",
      "city": "CORROIOS",
      "lon": "-9.161006584744788",
      "lat": "38.63006717401528"
    },
    {
      "id": "pt.ine.add.PTCONT.4907821",
      "street": "R CABOUCA",
      "house": "13",
      "postcode": "2855-425",
      "city": "CORROIOS",
      "lon": "-9.162235588748956",
      "lat": "38.63008339327756"
    },
    {
      "id": "pt.ine.add.PTCONT.4928897",
      "street": "R ALMADA NEGREIROS",
      "house": "10",
      "postcode": "2855-405",
      "city": "CORROIOS",
      "lon": "-9.162588065463057",
      "lat": "38.629837076092365"
    },
    {
      "id": "pt.ine.add.PTCONT.4938242",
      "street": "R CABOUCA",
      "house": "25",
      "postcode": "2855-425",
      "city": "CORROIOS",
      "lon": "-9.16115611335746",
      "lat": "38.6300838761331"
    },
    {
      "id": "pt.ine.add.PTCONT.4956195",
      "street": "R CABOUCA",
      "house": "5",
      "postcode": "2855-425",
      "city": "CORROIOS",
      "lon": "-9.16271759224221",
      "lat": "38.630061136236165"
    },
    {
      "id": "pt.ine.add.PTCONT.4956196",
      "street": "R CABOUCA",
      "house": "19A",
      "postcode": "2855-425",
      "city": "CORROIOS",
      "lon": "-9.161615538546375",
      "lat": "38.63008884603934"
    },
    {
      "id": "pt.ine.add.PTCONT.4970693",
      "street": "R CABOUCA",
      "house": "9",
      "postcode": "2855-425",
      "city": "CORROIOS",
      "lon": "-9.16255722500503",
      "lat": "38.630089571493215"
    },
    {
      "id": "pt.ine.add.PTCONT.4994606",
      "street": "R CABOUCA",
      "house": "3",
      "postcode": "2855-425",
      "city": "CORROIOS",
      "lon": "-9.162809580316054",
      "lat": "38.6300693346285"
    },
    {
      "id": "pt.ine.add.PTCONT.4996345",
      "street": "R ALMADA NEGREIROS",
      "house": "26",
      "postcode": "2855-405",
      "city": "CORROIOS",
      "lon": "-9.161565877020948",
      "lat": "38.629828050587165"
    },
    {
      "id": "pt.ine.add.PTCONT.5013434",
      "street": "R ALMADA NEGREIROS",
      "house": "6",
      "postcode": "2855-405",
      "city": "CORROIOS",
      "lon": "-9.162760558660286",
      "lat": "38.62985357407608"
    },
    {
      "id": "pt.ine.add.PTCONT.5029343",
      "street": "R ALMADA NEGREIROS",
      "house": "16",
      "postcode": "2855-405",
      "city": "CORROIOS",
      "lon": "-9.1620254293107",
      "lat": "38.62984202577539"
    },
    {
      "id": "pt.ine.add.PTCONT.5047854",
      "street": "R ALMADA NEGREIROS",
      "house": "12",
      "postcode": "2855-405",
      "city": "CORROIOS",
      "lon": "-9.162381640384133",
      "lat": "38.629856908393315"
    },
    {
      "id": "pt.ine.add.PTCONT.5055186",
      "street": "R CABOUCA",
      "house": "11E",
      "postcode": "2855-425",
      "city": "CORROIOS",
      "lon": "-9.162316223173889",
      "lat": "38.63010069993288"
    },
    {
      "id": "pt.ine.add.PTCONT.5057796",
      "street": "AV VALE DE MILHACOS",
      "house": "215A",
      "postcode": "2855-388",
      "city": "CORROIOS",
      "lon": "-9.1630046523321",
      "lat": "38.630058609515515"
    },
    {
      "id": "pt.ine.add.PTCONT.5057797",
      "street": "AV LIBERDADE",
      "house": "18",
      "postcode": "2855-385",
      "city": "CORROIOS",
      "lon": "-9.161082331137068",
      "lat": "38.62974222040786"
    },
    {
      "id": "pt.ine.add.PTCONT.5073985",
      "street": "R CABOUCA",
      "house": "11",
      "postcode": "2855-425",
      "city": "CORROIOS",
      "lon": "-9.161833704377527",
      "lat": "38.630086927849625"
    },
    {
      "id": "pt.ine.add.PTCONT.5084285",
      "street": "R ALMADA NEGREIROS",
      "house": "30",
      "postcode": "2855-675",
      "city": "CORROIOS",
      "lon": "-9.161290300093302",
      "lat": "38.629830472851644"
    },
    {
      "id": "pt.ine.add.PTCONT.5094405",
      "street": "R ALMADA NEGREIROS",
      "house": "18",
      "postcode": "2855-405",
      "city": "CORROIOS",
      "lon": "-9.161933827795144",
      "lat": "38.62986084736826"
    },
    {
      "id": "pt.ine.add.PTCONT.5097128",
      "street": "R ALMADA NEGREIROS",
      "house": "14 A",
      "postcode": "2855-405",
      "city": "CORROIOS",
      "lon": "-9.162129028165204",
      "lat": "38.629859130589836"
    },
    {
      "id": "pt.ine.add.PTCONT.5101354",
      "street": "R ALMADA NEGREIROS",
      "house": "28",
      "postcode": "2855-405",
      "city": "CORROIOS",
      "lon": "-9.161485500420476",
      "lat": "38.629828757148005"
    },
    {
      "id": "pt.ine.add.PTCONT.5113374",
      "street": "R CABOUCA",
      "house": "17",
      "postcode": "2855-425",
      "city": "CORROIOS",
      "lon": "-9.161948657224409",
      "lat": "38.63009492498143"
    },
    {
      "id": "pt.ine.add.PTCONT.5119523",
      "street": "R CABOUCA",
      "house": "21",
      "postcode": "2855-425",
      "city": "CORROIOS",
      "lon": "-9.161489103326996",
      "lat": "38.63008094951433"
    },
    {
      "id": "pt.ine.add.PTCONT.5134263",
      "street": "R ALMADA NEGREIROS",
      "house": "22",
      "postcode": "2855-405",
      "city": "CORROIOS",
      "lon": "-9.161703794174088",
      "lat": "38.629835846081384"
    }
  ]
}