{
  "data": {
    "distrito": "Viseu",
    "concelho": "SÃ£o Pedro do Sul",
    "freguesia": "Vila Maior",
    "OBJECTID": 514,
    "BGRI2021": "18161900104",
    "DT21": "18",
    "DTMN21": "1816",
    "DTMNFR21": "181619",
    "DTMNFRSEC21": "181619001",
    "SECNUM21": "001",
    "SSNUM21": "04",
    "SECSSNUM21": "00104",
    "OBJECTID_1": 197011,
    "DT": "18",
    "CC": "16",
    "fr": "19",
    "SEC": "001",
    "SS": "04"
  },
  "addresses": [
    {
      "id": "pt.ine.add.PTCONT.5455479",
      "street": "LG CRUZEIRO",
      "house": "1",
      "postcode": "3660-727",
      "city": "VILA MAIOR SPS",
      "lon": "-8.035227498486714",
      "lat": "40.78439234355258"
    },
    {
      "id": "pt.ine.add.PTCONT.5500306",
      "street": "R TILIA",
      "house": "28",
      "postcode": "3660-724",
      "city": "VILA MAIOR SPS",
      "lon": "-8.038522013144563",
      "lat": "40.7836746931639"
    },
    {
      "id": "pt.ine.add.PTCONT.5500470",
      "street": "R REGADAS",
      "house": "8",
      "postcode": "3660-727",
      "city": "VILA MAIOR SPS",
      "lon": "-8.035428806750161",
      "lat": "40.784455548928975"
    },
    {
      "id": "pt.ine.add.PTCONT.5522214",
      "street": "ESTR VILA MAIOR",
      "house": "80",
      "postcode": "3660-724",
      "city": "VILA MAIOR SPS",
      "lon": "-8.037957445254694",
      "lat": "40.78081064694703"
    },
    {
      "id": "pt.ine.add.PTCONT.5534320",
      "street": "R CHAFARIZ",
      "house": "11",
      "postcode": "3660-703",
      "city": "VILA MAIOR SPS",
      "lon": "-8.033644662744651",
      "lat": "40.78125725916425"
    },
    {
      "id": "pt.ine.add.PTCONT.5541154",
      "street": "TV FONSECA E OLIVEIRA",
      "house": "5",
      "postcode": "3660-703",
      "city": "VILA MAIOR SPS",
      "lon": "-8.034023524458162",
      "lat": "40.78141066968484"
    },
    {
      "id": "pt.ine.add.PTCONT.5546363",
      "street": "TV FONSECA E OLIVEIRA",
      "house": "3",
      "postcode": "3660-703",
      "city": "VILA MAIOR SPS",
      "lon": "-8.033857565320085",
      "lat": "40.78148256687824"
    },
    {
      "id": "pt.ine.add.PTCONT.5554081",
      "street": "R ESTRADA",
      "house": "13",
      "postcode": "3660-724",
      "city": "VILA MAIOR SPS",
      "lon": "-8.03931896483714",
      "lat": "40.78139708503552"
    },
    {
      "id": "pt.ine.add.PTCONT.5564296",
      "street": "TV FONSECA E OLIVEIRA",
      "house": "16",
      "postcode": "3660-703",
      "city": "VILA MAIOR SPS",
      "lon": "-8.033869143848158",
      "lat": "40.781662676355914"
    },
    {
      "id": "pt.ine.add.PTCONT.5592068",
      "street": "R CHAFARIZ",
      "house": "13",
      "postcode": "3660-703",
      "city": "VILA MAIOR SPS",
      "lon": "-8.033810393575974",
      "lat": "40.78133844667787"
    },
    {
      "id": "pt.ine.add.PTCONT.5638979",
      "street": "R TILIA",
      "house": "4",
      "postcode": "3660-724",
      "city": "VILA MAIOR SPS",
      "lon": "-8.03995651546731",
      "lat": "40.78294645718746"
    },
    {
      "id": "pt.ine.add.PTCONT.5640078",
      "street": "R PASSAL",
      "house": "1",
      "postcode": "3660-727",
      "city": "VILA MAIOR SPS",
      "lon": "-8.035026482049382",
      "lat": "40.78413102869095"
    },
    {
      "id": "pt.ine.add.PTCONT.5659408",
      "street": "R ESTRADA",
      "house": "",
      "postcode": "3660-724",
      "city": "VILA MAIOR SPS",
      "lon": "-8.037507086133342",
      "lat": "40.78094534939044"
    },
    {
      "id": "pt.ine.add.PTCONT.5661392",
      "street": "R REGADAS",
      "house": "5",
      "postcode": "3660-727",
      "city": "VILA MAIOR SPS",
      "lon": "-8.035429176157223",
      "lat": "40.78420341003275"
    }
  ]
}