{
  "data": {
    "distrito": "Leiria",
    "concelho": "Nazaré",
    "freguesia": "Nazaré",
    "OBJECTID": 22,
    "BGRI2021": "10110201615",
    "DT21": "10",
    "DTMN21": "1011",
    "DTMNFR21": "101102",
    "DTMNFRSEC21": "101102016",
    "SECNUM21": "016",
    "SSNUM21": "15",
    "SECSSNUM21": "01615",
    "OBJECTID_1": 93266,
    "DT": "10",
    "CC": "11",
    "fr": "02",
    "SEC": "016",
    "SS": "15"
  },
  "addresses": [
    {
      "id": "pt.ine.add.PTCONT.2053085",
      "street": "R COMBATENTES ULTRAMAR",
      "house": "1 A",
      "postcode": "2450-060",
      "city": "NAZARÉ",
      "lon": "-9.060740935321071",
      "lat": "39.598301525424176"
    },
    {
      "id": "pt.ine.add.PTCONT.2077411",
      "street": "R COMBATENTES DO ULTRAMAR",
      "house": "",
      "postcode": "2450-060",
      "city": "NAZARÉ",
      "lon": "-9.059068839189488",
      "lat": "39.59775645438222"
    },
    {
      "id": "pt.ine.add.PTCONT.2090757",
      "street": "ESTR NACIONAL",
      "house": "",
      "postcode": "2450-060",
      "city": "NAZARÉ",
      "lon": "-9.05887250263453",
      "lat": "39.59787510479441"
    },
    {
      "id": "pt.ine.add.PTCONT.2109281",
      "street": "TV FONTINHA SUL",
      "house": "2",
      "postcode": "2450-060",
      "city": "NAZARÉ",
      "lon": "-9.060763002919503",
      "lat": "39.5973376429116"
    },
    {
      "id": "pt.ine.add.PTCONT.2178110",
      "street": "URB JARDIM MAR D",
      "house": "D",
      "postcode": "2450-060",
      "city": "NAZARÉ",
      "lon": "-9.059985828822708",
      "lat": "39.597550997353764"
    },
    {
      "id": "pt.ine.add.PTCONT.2202843",
      "street": "ESTR NACIONAL",
      "house": "8 5",
      "postcode": "2450-060",
      "city": "NAZARÉ",
      "lon": "-9.060377302718104",
      "lat": "39.5980972763411"
    },
    {
      "id": "pt.ine.add.PTCONT.2211810",
      "street": "ESTR NACIONAL",
      "house": "",
      "postcode": "2450-060",
      "city": "NAZARÉ",
      "lon": "-9.059430426729872",
      "lat": "39.597807611670916"
    },
    {
      "id": "pt.ine.add.PTCONT.2225302",
      "street": "TV FONTINHA NORTE",
      "house": "",
      "postcode": "2450-060",
      "city": "NAZARÉ",
      "lon": "-9.059825497256046",
      "lat": "39.597750421548334"
    }
  ]
}