{
  "data": {
    "distrito": "Lisboa",
    "concelho": "Odivelas",
    "freguesia": "União das freguesias de Pontinha e Famões",
    "OBJECTID": 502,
    "BGRI2021": "11160802551",
    "DT21": "11",
    "DTMN21": "1116",
    "DTMNFR21": "111608",
    "DTMNFRSEC21": "111608025",
    "SECNUM21": "025",
    "SSNUM21": "51",
    "SECSSNUM21": "02551",
    "OBJECTID_1": 119443,
    "DT": "11",
    "CC": "16",
    "fr": "08",
    "SEC": "025",
    "SS": "51"
  },
  "addresses": [
    {
      "id": "pt.ine.add.PTCONT.2349788",
      "street": "R AMÉLIA REY COLAÇO",
      "house": "",
      "postcode": "1685-159",
      "city": "FAMÕES",
      "lon": "-9.217375837554782",
      "lat": "38.8032384146366"
    },
    {
      "id": "pt.ine.add.PTCONT.2540769",
      "street": "R AMÉLIA REY COLAÇO",
      "house": "",
      "postcode": "1685-159",
      "city": "FAMÕES",
      "lon": "-9.217238127720716",
      "lat": "38.803266715687805"
    },
    {
      "id": "pt.ine.add.PTCONT.2610466",
      "street": "R AMÉLIA REY COLAÇO",
      "house": "",
      "postcode": "1685-159",
      "city": "FAMÕES",
      "lon": "-9.217065478504946",
      "lat": "38.80326831762163"
    },
    {
      "id": "pt.ine.add.PTCONT.2619377",
      "street": "R VASCO SANTANA",
      "house": "",
      "postcode": "1685-172",
      "city": "FAMÕES",
      "lon": "-9.216993280208507",
      "lat": "38.80306181017057"
    },
    {
      "id": "pt.ine.add.PTCONT.2905454",
      "street": "R S JOSE",
      "house": "",
      "postcode": "1685-169",
      "city": "FAMÕES",
      "lon": "-9.217774042483823",
      "lat": "38.80292845639246"
    },
    {
      "id": "pt.ine.add.PTCONT.2905455",
      "street": "R S JOSE",
      "house": "",
      "postcode": "1685-169",
      "city": "FAMÕES",
      "lon": "-9.217774042483823",
      "lat": "38.80292845639246"
    },
    {
      "id": "pt.ine.add.PTCONT.2996437",
      "street": "R S JOSE",
      "house": "",
      "postcode": "1685-169",
      "city": "FAMÕES",
      "lon": "-9.217338714141812",
      "lat": "38.803067612716056"
    },
    {
      "id": "pt.ine.add.PTCONT.2997782",
      "street": "R S JOSE",
      "house": "",
      "postcode": "1685-169",
      "city": "FAMÕES",
      "lon": "-9.217338714141812",
      "lat": "38.803067612716056"
    },
    {
      "id": "pt.ine.add.PTCONT.3151232",
      "street": "R S JOSE",
      "house": "794",
      "postcode": "1685-169",
      "city": "FAMÕES",
      "lon": "-9.217463821486362",
      "lat": "38.80296736685555"
    },
    {
      "id": "pt.ine.add.PTCONT.3154978",
      "street": "R S JOSE",
      "house": "794",
      "postcode": "1685-169",
      "city": "FAMÕES",
      "lon": "-9.217463821486362",
      "lat": "38.80296736685555"
    },
    {
      "id": "pt.ine.add.PTCONT.3421744",
      "street": "R VASCO SANTANA",
      "house": "",
      "postcode": "1685-172",
      "city": "FAMÕES",
      "lon": "-9.21697026037793",
      "lat": "38.803062023727314"
    }
  ]
}