{
  "data": {
    "distrito": "Lisboa",
    "concelho": "Odivelas",
    "freguesia": "União das freguesias de Pontinha e Famões",
    "OBJECTID": 544,
    "BGRI2021": "11160802552",
    "DT21": "11",
    "DTMN21": "1116",
    "DTMNFR21": "111608",
    "DTMNFRSEC21": "111608025",
    "SECNUM21": "025",
    "SSNUM21": "52",
    "SECSSNUM21": "02552",
    "OBJECTID_1": 120271,
    "DT": "11",
    "CC": "16",
    "fr": "08",
    "SEC": "025",
    "SS": "52"
  },
  "addresses": [
    {
      "id": "pt.ine.add.PTCONT.2372762",
      "street": "R VASCO MATIAS",
      "house": "",
      "postcode": "1685-226",
      "city": "FAMÕES",
      "lon": "-9.219663989287298",
      "lat": "38.8030640261221"
    },
    {
      "id": "pt.ine.add.PTCONT.2462248",
      "street": "R HEROIS MAR",
      "house": "404",
      "postcode": "1685-216",
      "city": "FAMÕES",
      "lon": "-9.219564640457781",
      "lat": "38.80334418890466"
    },
    {
      "id": "pt.ine.add.PTCONT.2490495",
      "street": "R ALVES REDOL",
      "house": "",
      "postcode": "1685-158",
      "city": "FAMÕES",
      "lon": "-9.219804023550116",
      "lat": "38.80318883159319"
    },
    {
      "id": "pt.ine.add.PTCONT.2557195",
      "street": "R HEROIS DO MAR",
      "house": "",
      "postcode": "1685-216",
      "city": "FAMÕES",
      "lon": "-9.219166328623494",
      "lat": "38.80288849920018"
    },
    {
      "id": "pt.ine.add.PTCONT.2848282",
      "street": "R ALVES REDOL",
      "house": "",
      "postcode": "1685-158",
      "city": "FAMÕES",
      "lon": "-9.219689881901997",
      "lat": "38.803252947136336"
    },
    {
      "id": "pt.ine.add.PTCONT.2938926",
      "street": "R VASCO MATIAS",
      "house": "",
      "postcode": "1685-226",
      "city": "FAMÕES",
      "lon": "-9.219453528503914",
      "lat": "38.802849798278835"
    },
    {
      "id": "pt.ine.add.PTCONT.3061038",
      "street": "R VASCO MATIAS",
      "house": "",
      "postcode": "1685-226",
      "city": "FAMÕES",
      "lon": "-9.219582052085944",
      "lat": "38.80297471105295"
    },
    {
      "id": "pt.ine.add.PTCONT.3144397",
      "street": "R VASCO MATIAS",
      "house": "",
      "postcode": "1685-226",
      "city": "FAMÕES",
      "lon": "-9.219348298587276",
      "lat": "38.80274268420529"
    }
  ]
}