{
  "data": {
    "distrito": "Guarda",
    "concelho": "Guarda",
    "freguesia": "Guarda",
    "OBJECTID": 281,
    "BGRI2021": "09075802424",
    "DT21": "09",
    "DTMN21": "0907",
    "DTMNFR21": "090758",
    "DTMNFRSEC21": "090758024",
    "SECNUM21": "024",
    "SSNUM21": "24",
    "SECSSNUM21": "02424",
    "OBJECTID_1": 78352,
    "DT": "09",
    "CC": "07",
    "fr": "58",
    "SEC": "024",
    "SS": "24"
  },
  "addresses": [
    {
      "id": "pt.ine.add.PTCONT.1902646",
      "street": "R TEN JOSÉ LUIS SIMÃO SARAIVA",
      "house": "6",
      "postcode": "6300-606",
      "city": "GUARDA",
      "lon": "-7.254283602027021",
      "lat": "40.53837541249073"
    },
    {
      "id": "pt.ine.add.PTCONT.1905205",
      "street": "R DAS BARREIRAS",
      "house": "48",
      "postcode": "6300-504",
      "city": "GUARDA",
      "lon": "-7.253742692009106",
      "lat": "40.541829289403296"
    },
    {
      "id": "pt.ine.add.PTCONT.1905206",
      "street": "R DAS BARREIRAS",
      "house": "48",
      "postcode": "6300-504",
      "city": "GUARDA",
      "lon": "-7.253742692009106",
      "lat": "40.541829289403296"
    },
    {
      "id": "pt.ine.add.PTCONT.1905924",
      "street": "R JOSE DOS SANTOS",
      "house": "",
      "postcode": "6300-575",
      "city": "GUARDA",
      "lon": "-7.253568583572426",
      "lat": "40.53709123416818"
    },
    {
      "id": "pt.ine.add.PTCONT.1906120",
      "street": "QTA DAS COBRAS",
      "house": "",
      "postcode": "6300-521",
      "city": "GUARDA",
      "lon": "-7.252572532961948",
      "lat": "40.54014541223237"
    },
    {
      "id": "pt.ine.add.PTCONT.1906121",
      "street": "QTA DAS COBRAS",
      "house": "",
      "postcode": "6300-521",
      "city": "GUARDA",
      "lon": "-7.252572532961948",
      "lat": "40.54014541223237"
    },
    {
      "id": "pt.ine.add.PTCONT.1906122",
      "street": "QTA DAS COBRAS",
      "house": "",
      "postcode": "6300-521",
      "city": "GUARDA",
      "lon": "-7.252588815874191",
      "lat": "40.539803339154794"
    },
    {
      "id": "pt.ine.add.PTCONT.1906176",
      "street": "R TEN JOSÉ LUIS SIMÃO SARAIVA",
      "house": "14",
      "postcode": "6300-606",
      "city": "GUARDA",
      "lon": "-7.254356298230443",
      "lat": "40.538231882356634"
    },
    {
      "id": "pt.ine.add.PTCONT.1909346",
      "street": "R DOS BONS AMIGOS",
      "house": "6",
      "postcode": "6300-524",
      "city": "GUARDA",
      "lon": "-7.254599988920149",
      "lat": "40.537648398046144"
    },
    {
      "id": "pt.ine.add.PTCONT.1910148",
      "street": "R DOS BONS AMIGOS",
      "house": "4",
      "postcode": "6300-524",
      "city": "GUARDA",
      "lon": "-7.254624416562415",
      "lat": "40.537585547431746"
    },
    {
      "id": "pt.ine.add.PTCONT.1911841",
      "street": "QTA DAS COBRAS",
      "house": "",
      "postcode": "6300-607",
      "city": "GUARDA",
      "lon": "-7.252184699271784",
      "lat": "40.540016383127124"
    },
    {
      "id": "pt.ine.add.PTCONT.1912030",
      "street": "R TEN JOSÉ LUIS SIMÃO SARAIVA",
      "house": "",
      "postcode": "6300-606",
      "city": "GUARDA",
      "lon": "-7.254309007142727",
      "lat": "40.539141046991794"
    },
    {
      "id": "pt.ine.add.PTCONT.1914105",
      "street": "R DR EVARISANTO FRANCO",
      "house": "11",
      "postcode": "6300-557",
      "city": "GUARDA",
      "lon": "-7.25392491228023",
      "lat": "40.5378233668513"
    },
    {
      "id": "pt.ine.add.PTCONT.1921070",
      "street": "R DR EVARISANTO FRANCO",
      "house": "13",
      "postcode": "6300-557",
      "city": "GUARDA",
      "lon": "-7.254053323844761",
      "lat": "40.53793240624424"
    },
    {
      "id": "pt.ine.add.PTCONT.1921832",
      "street": "R ANTERO DE QUENTAL",
      "house": "68",
      "postcode": "6300-515",
      "city": "GUARDA",
      "lon": "-7.253780192279069",
      "lat": "40.54076696273"
    },
    {
      "id": "pt.ine.add.PTCONT.1921834",
      "street": "R DR EVARISANTO FRANCO",
      "house": "26",
      "postcode": "6300-557",
      "city": "GUARDA",
      "lon": "-7.254380101291581",
      "lat": "40.53731353372697"
    },
    {
      "id": "pt.ine.add.PTCONT.1921835",
      "street": "R DR EVARISANTO FRANCO",
      "house": "26",
      "postcode": "6300-557",
      "city": "GUARDA",
      "lon": "-7.254380101291581",
      "lat": "40.53731353372697"
    },
    {
      "id": "pt.ine.add.PTCONT.1923563",
      "street": "R DR EVARISANTO FRANCO",
      "house": "30",
      "postcode": "6300-557",
      "city": "GUARDA",
      "lon": "-7.254307641491771",
      "lat": "40.53743905531288"
    },
    {
      "id": "pt.ine.add.PTCONT.1925955",
      "street": "R TEN JOSÉ LUIS SIMÃO SARAIVA",
      "house": "105",
      "postcode": "6300-606",
      "city": "GUARDA",
      "lon": "-7.254499925106592",
      "lat": "40.538079886399686"
    },
    {
      "id": "pt.ine.add.PTCONT.1928854",
      "street": "R TEN JOSE LUIS SIMAO SARAIVA",
      "house": "26",
      "postcode": "6300-606",
      "city": "GUARDA",
      "lon": "-7.254679428380916",
      "lat": "40.53789214226196"
    },
    {
      "id": "pt.ine.add.PTCONT.1929460",
      "street": "R TEN JOSE LUIS SIMAO SARAIVA",
      "house": "26 LT 108",
      "postcode": "6300-606",
      "city": "GUARDA",
      "lon": "-7.254679428380916",
      "lat": "40.53789214226196"
    },
    {
      "id": "pt.ine.add.PTCONT.1938190",
      "street": "R DR EVARISANTO FRANCO",
      "house": "12",
      "postcode": "6300-557",
      "city": "GUARDA",
      "lon": "-7.254006821289915",
      "lat": "40.53787802126807"
    },
    {
      "id": "pt.ine.add.PTCONT.1939783",
      "street": "R ANTERO DE QUENTAL",
      "house": "44",
      "postcode": "6300-515",
      "city": "GUARDA",
      "lon": "-7.254489139880749",
      "lat": "40.539808801070905"
    },
    {
      "id": "pt.ine.add.PTCONT.1942782",
      "street": "R JOSÉ DOS SANTOS",
      "house": "2",
      "postcode": "6300-575",
      "city": "GUARDA",
      "lon": "-7.25467221318196",
      "lat": "40.537540884876215"
    },
    {
      "id": "pt.ine.add.PTCONT.1948124",
      "street": "R DAS FLORES",
      "house": "7",
      "postcode": "6300-568",
      "city": "GUARDA",
      "lon": "-7.253736894717999",
      "lat": "40.54136998075415"
    },
    {
      "id": "pt.ine.add.PTCONT.1948183",
      "street": "R DR EVARISANTO FRANCO",
      "house": "38",
      "postcode": "6300-557",
      "city": "GUARDA",
      "lon": "-7.254128962232015",
      "lat": "40.537563768805654"
    },
    {
      "id": "pt.ine.add.PTCONT.1949143",
      "street": "R TEN JOAQUIM LOPES CRAVEIRO",
      "house": "18",
      "postcode": "6300-607",
      "city": "GUARDA",
      "lon": "-7.2549072847865",
      "lat": "40.539424757019226"
    },
    {
      "id": "pt.ine.add.PTCONT.1949144",
      "street": "R TEN JOAQUIM LOPES CRAVEIRO",
      "house": "18",
      "postcode": "6300-607",
      "city": "GUARDA",
      "lon": "-7.2549072847865",
      "lat": "40.539424757019226"
    },
    {
      "id": "pt.ine.add.PTCONT.1949157",
      "street": "R TEN JOSÉ LUIS SIMÃO SARAIVA",
      "house": "32",
      "postcode": "6300-606",
      "city": "GUARDA",
      "lon": "-7.254811251629842",
      "lat": "40.53774005616134"
    },
    {
      "id": "pt.ine.add.PTCONT.1949158",
      "street": "R TEN JOSÉ LUIS SIMÃO SARAIVA",
      "house": "32",
      "postcode": "6300-606",
      "city": "GUARDA",
      "lon": "-7.254811251629842",
      "lat": "40.53774005616134"
    },
    {
      "id": "pt.ine.add.PTCONT.1949166",
      "street": "R DR EVARISANTO FRANCO",
      "house": "32",
      "postcode": "6300-557",
      "city": "GUARDA",
      "lon": "-7.254189738070463",
      "lat": "40.537429153260426"
    },
    {
      "id": "pt.ine.add.PTCONT.1949167",
      "street": "R TEN JOSÉ LUIS SIMÃO SARAIVA",
      "house": "12",
      "postcode": "6300-606",
      "city": "GUARDA",
      "lon": "-7.2542857209367275",
      "lat": "40.538257888339935"
    },
    {
      "id": "pt.ine.add.PTCONT.1952207",
      "street": "R TEN JOSÉ LUIS SIMÃO SARAIVA",
      "house": "30",
      "postcode": "6300-606",
      "city": "GUARDA",
      "lon": "-7.25477525713003",
      "lat": "40.53778480849523"
    },
    {
      "id": "pt.ine.add.PTCONT.1959035",
      "street": "R TEN JOSÉ LUIS SIMÃO SARAIVA",
      "house": "18",
      "postcode": "6300-606",
      "city": "GUARDA",
      "lon": "-7.254440090458105",
      "lat": "40.53814246771328"
    },
    {
      "id": "pt.ine.add.PTCONT.1959036",
      "street": "R TEN JOSÉ LUIS SIMÃO SARAIVA",
      "house": "2",
      "postcode": "6300-606",
      "city": "GUARDA",
      "lon": "-7.254731811859427",
      "lat": "40.5374963120267"
    },
    {
      "id": "pt.ine.add.PTCONT.1964084",
      "street": "R TEN JOSÉ LUIS SIMÃO SARAIVA",
      "house": "10",
      "postcode": "6300-606",
      "city": "GUARDA",
      "lon": "-7.254355239294547",
      "lat": "40.5383129210311"
    },
    {
      "id": "pt.ine.add.PTCONT.1964939",
      "street": "R DR EVARISANTO FRANCO",
      "house": "18",
      "postcode": "6300-557",
      "city": "GUARDA",
      "lon": "-7.254170404343043",
      "lat": "40.53800533852435"
    },
    {
      "id": "pt.ine.add.PTCONT.1969381",
      "street": "R DAS FLORES",
      "house": "27",
      "postcode": "6300-568",
      "city": "GUARDA",
      "lon": "-7.253761913336122",
      "lat": "40.541262108929836"
    },
    {
      "id": "pt.ine.add.PTCONT.1969409",
      "street": "R TEN JOSÉ LUIS SIMÃO SARAIVA",
      "house": "8",
      "postcode": "6300-606",
      "city": "GUARDA",
      "lon": "-7.2542491365971475",
      "lat": "40.53830310879017"
    },
    {
      "id": "pt.ine.add.PTCONT.1969410",
      "street": "R DR EVARISANTO FRANCO",
      "house": "34",
      "postcode": "6300-557",
      "city": "GUARDA",
      "lon": "-7.254224203005083",
      "lat": "40.537501456984195"
    },
    {
      "id": "pt.ine.add.PTCONT.1969519",
      "street": "R DAS FLORES",
      "house": "27",
      "postcode": "6300-568",
      "city": "GUARDA",
      "lon": "-7.253761913336122",
      "lat": "40.541262108929836"
    },
    {
      "id": "pt.ine.add.PTCONT.1973531",
      "street": "R ANTERO DE QUENTAL",
      "house": "64",
      "postcode": "6300-515",
      "city": "GUARDA",
      "lon": "-7.253985429104324",
      "lat": "40.54041732224173"
    },
    {
      "id": "pt.ine.add.PTCONT.1973872",
      "street": "QTA DA COBRA",
      "house": "",
      "postcode": "6300-568",
      "city": "GUARDA",
      "lon": "-7.252806816442696",
      "lat": "40.540282275378395"
    },
    {
      "id": "pt.ine.add.PTCONT.1977051",
      "street": "R TEN JOSÉ LUIS SIMÃO SARAIVA",
      "house": "36",
      "postcode": "6300-606",
      "city": "GUARDA",
      "lon": "-7.254895160218666",
      "lat": "40.53764163686833"
    },
    {
      "id": "pt.ine.add.PTCONT.1977895",
      "street": "R DR EVARISANTO FRANCO",
      "house": "",
      "postcode": "6300-557",
      "city": "GUARDA",
      "lon": "-7.2541237839540065",
      "lat": "40.53795995789159"
    },
    {
      "id": "pt.ine.add.PTCONT.1849032",
      "street": "QTA DO CABROEIRO",
      "house": "",
      "postcode": "6300-575",
      "city": "GUARDA",
      "lon": "-7.251664678607172",
      "lat": "40.53826541014976"
    },
    {
      "id": "pt.ine.add.PTCONT.1849033",
      "street": "R DOS BONS AMIGOS",
      "house": "8",
      "postcode": "6300-524",
      "city": "GUARDA",
      "lon": "-7.254505218827826",
      "lat": "40.53767469298356"
    },
    {
      "id": "pt.ine.add.PTCONT.1852176",
      "street": "R DAS FLORES",
      "house": "5",
      "postcode": "6300-568",
      "city": "GUARDA",
      "lon": "-7.253781868671945",
      "lat": "40.54154142160919"
    },
    {
      "id": "pt.ine.add.PTCONT.1855709",
      "street": "R DR EVARISANTO FRANCO",
      "house": "28",
      "postcode": "6300-557",
      "city": "GUARDA",
      "lon": "-7.254261609737104",
      "lat": "40.53734865324252"
    },
    {
      "id": "pt.ine.add.PTCONT.1858149",
      "street": "R TEN JOSÉ LUIS SIMÃO SARAIVA",
      "house": "16",
      "postcode": "6300-606",
      "city": "GUARDA",
      "lon": "-7.25440409549316",
      "lat": "40.538187219923614"
    },
    {
      "id": "pt.ine.add.PTCONT.1860728",
      "street": "R TEN JOSÉ LUIS SIMÃO SARAIVA",
      "house": "38",
      "postcode": "6300-606",
      "city": "GUARDA",
      "lon": "-7.254954758840908",
      "lat": "40.53759706390397"
    },
    {
      "id": "pt.ine.add.PTCONT.1864209",
      "street": "TAPADA DAS COBRAS",
      "house": "",
      "postcode": "6300-521",
      "city": "GUARDA",
      "lon": "-7.252433260499915",
      "lat": "40.539964246932264"
    },
    {
      "id": "pt.ine.add.PTCONT.1865225",
      "street": "R TEN JOSÉ LUIS SIMÃO SARAIVA",
      "house": "24",
      "postcode": "6300-606",
      "city": "GUARDA",
      "lon": "-7.254607674241806",
      "lat": "40.537963638233194"
    },
    {
      "id": "pt.ine.add.PTCONT.1865226",
      "street": "R TEN JOSÉ LUIS SIMÃO SARAIVA",
      "house": "24",
      "postcode": "6300-606",
      "city": "GUARDA",
      "lon": "-7.254607674241806",
      "lat": "40.537963638233194"
    },
    {
      "id": "pt.ine.add.PTCONT.1866194",
      "street": "R DR EVARISANTO FRANCO",
      "house": "40",
      "postcode": "6300-557",
      "city": "GUARDA",
      "lon": "-7.254081047545584",
      "lat": "40.53761743542985"
    },
    {
      "id": "pt.ine.add.PTCONT.1868706",
      "street": "R ANTERO DE QUENTAL",
      "house": "66",
      "postcode": "6300-515",
      "city": "GUARDA",
      "lon": "-7.253817013259923",
      "lat": "40.54065918070804"
    },
    {
      "id": "pt.ine.add.PTCONT.1869243",
      "street": "R DOS BONS AMIGOS",
      "house": "16",
      "postcode": "6300-524",
      "city": "GUARDA",
      "lon": "-7.254349555349885",
      "lat": "40.53784460779725"
    },
    {
      "id": "pt.ine.add.PTCONT.1870265",
      "street": "R DR EVARISANTO FRANCO",
      "house": "36",
      "postcode": "6300-557",
      "city": "GUARDA",
      "lon": "-7.254153154913587",
      "lat": "40.53751892688994"
    },
    {
      "id": "pt.ine.add.PTCONT.1873344",
      "street": "TAPADA DAS COBRAS",
      "house": "",
      "postcode": "6300-521",
      "city": "GUARDA",
      "lon": "-7.252505019099692",
      "lat": "40.53989275238256"
    },
    {
      "id": "pt.ine.add.PTCONT.1873345",
      "street": "R TEN JOSÉ LUIS SIMÃO SARAIVA",
      "house": "",
      "postcode": "6300-606",
      "city": "GUARDA",
      "lon": "-7.254039905856228",
      "lat": "40.53895889600488"
    },
    {
      "id": "pt.ine.add.PTCONT.1873413",
      "street": "R DR EVARISANTO FRANCO",
      "house": "10",
      "postcode": "6300-557",
      "city": "GUARDA",
      "lon": "-7.25404481723368",
      "lat": "40.53768019612747"
    },
    {
      "id": "pt.ine.add.PTCONT.1875089",
      "street": "R DAS FLORES",
      "house": "3",
      "postcode": "6300-568",
      "city": "GUARDA",
      "lon": "-7.253756614466173",
      "lat": "40.54166730201276"
    },
    {
      "id": "pt.ine.add.PTCONT.1875090",
      "street": "R DAS FLORES",
      "house": "3",
      "postcode": "6300-568",
      "city": "GUARDA",
      "lon": "-7.253756614466173",
      "lat": "40.54166730201276"
    },
    {
      "id": "pt.ine.add.PTCONT.1875126",
      "street": "R TEN JOSÉ LUIS SIMÃO SARAIVA",
      "house": "34",
      "postcode": "6300-606",
      "city": "GUARDA",
      "lon": "-7.254847363672733",
      "lat": "40.537686299516125"
    },
    {
      "id": "pt.ine.add.PTCONT.1876075",
      "street": "R TEN JOSÉ LUIS SIMÃO SARAIVA",
      "house": "28",
      "postcode": "6300-606",
      "city": "GUARDA",
      "lon": "-7.254727460401887",
      "lat": "40.53782947109045"
    },
    {
      "id": "pt.ine.add.PTCONT.1877982",
      "street": "R DOS BONS AMIGOS",
      "house": "12",
      "postcode": "6300-524",
      "city": "GUARDA",
      "lon": "-7.254433464741609",
      "lat": "40.53774618884976"
    },
    {
      "id": "pt.ine.add.PTCONT.1878904",
      "street": "R TEN JOSÉ LUIS SIMÃO SARAIVA",
      "house": "22",
      "postcode": "6300-606",
      "city": "GUARDA",
      "lon": "-7.2545597596432225",
      "lat": "40.53801730505326"
    },
    {
      "id": "pt.ine.add.PTCONT.1884553",
      "street": "R DAS FLORES",
      "house": "29",
      "postcode": "6300-568",
      "city": "GUARDA",
      "lon": "-7.253645416514532",
      "lat": "40.54114415476729"
    },
    {
      "id": "pt.ine.add.PTCONT.1886312",
      "street": "R DOS BONS AMIGOS",
      "house": "14",
      "postcode": "6300-524",
      "city": "GUARDA",
      "lon": "-7.254432641211608",
      "lat": "40.537809218936616"
    },
    {
      "id": "pt.ine.add.PTCONT.1888682",
      "street": "R ANTERO DE QUENTAL",
      "house": "60",
      "postcode": "6300-515",
      "city": "GUARDA",
      "lon": "-7.254272811055898",
      "lat": "40.54010432699552"
    },
    {
      "id": "pt.ine.add.PTCONT.1890550",
      "street": "R TEN JOSÉ LUIS SIMÃO SARAIVA",
      "house": "4",
      "postcode": "6300-606",
      "city": "GUARDA",
      "lon": "-7.254165579285035",
      "lat": "40.538374514694766"
    },
    {
      "id": "pt.ine.add.PTCONT.1895298",
      "street": "R DOS BONS AMIGOS",
      "house": "8",
      "postcode": "6300-524",
      "city": "GUARDA",
      "lon": "-7.254504513004543",
      "lat": "40.537728718774055"
    },
    {
      "id": "pt.ine.add.PTCONT.1896708",
      "street": "R ANTERO DE QUENTAL",
      "house": "62",
      "postcode": "6300-515",
      "city": "GUARDA",
      "lon": "-7.254082321962505",
      "lat": "40.540228950505885"
    }
  ]
}