{
  "data": {
    "distrito": "Lisboa",
    "concelho": "Torres Vedras",
    "freguesia": "União das freguesias de Campelos e Outeiro da Cabeça",
    "OBJECTID": 1677,
    "BGRI2021": "11132200102",
    "DT21": "11",
    "DTMN21": "1113",
    "DTMNFR21": "111322",
    "DTMNFRSEC21": "111322001",
    "SECNUM21": "001",
    "SSNUM21": "02",
    "SECSSNUM21": "00102",
    "OBJECTID_1": 115026,
    "DT": "11",
    "CC": "13",
    "fr": "22",
    "SEC": "001",
    "SS": "02"
  },
  "addresses": [
    {
      "id": "pt.ine.add.PTCONT.2309955",
      "street": "R ALBERTO MARCELINO",
      "house": "7",
      "postcode": "2565-589",
      "city": "OUTEIRO DA CABEÇA",
      "lon": "-9.1819604419249",
      "lat": "39.17350679517728"
    },
    {
      "id": "pt.ine.add.PTCONT.2382162",
      "street": "CSL PASSADEIRAS",
      "house": "",
      "postcode": "2565-587",
      "city": "OUTEIRO DA CABEÇA",
      "lon": "-9.178738485119712",
      "lat": "39.170824592494455"
    },
    {
      "id": "pt.ine.add.PTCONT.2497054",
      "street": "CSL PASSADEIRAS",
      "house": "",
      "postcode": "2565-587",
      "city": "OUTEIRO DA CABEÇA",
      "lon": "-9.178885957318771",
      "lat": "39.17062511102245"
    },
    {
      "id": "pt.ine.add.PTCONT.2537269",
      "street": "R PEDRAS NEGRAS",
      "house": "4",
      "postcode": "2565-588",
      "city": "OUTEIRO DA CABEÇA",
      "lon": "-9.184454096835026",
      "lat": "39.176222501821904"
    },
    {
      "id": "pt.ine.add.PTCONT.2615329",
      "street": "R CASAL VALE CRUZES",
      "house": "",
      "postcode": "2565-589",
      "city": "OUTEIRO DA CABEÇA",
      "lon": "-9.181964063125879",
      "lat": "39.17530819741005"
    },
    {
      "id": "pt.ine.add.PTCONT.2651074",
      "street": "R ALBERTO MARCELINO",
      "house": "3",
      "postcode": "2565-589",
      "city": "OUTEIRO DA CABEÇA",
      "lon": "-9.181850155799793",
      "lat": "39.17309345778986"
    },
    {
      "id": "pt.ine.add.PTCONT.2715422",
      "street": "R ALBERTO MARCELINO",
      "house": "",
      "postcode": "2565-589",
      "city": "OUTEIRO DA CABEÇA",
      "lon": "-9.182499766251611",
      "lat": "39.173979319396814"
    },
    {
      "id": "pt.ine.add.PTCONT.3097728",
      "street": "CSL PASSADEIRAS",
      "house": "",
      "postcode": "2565-587",
      "city": "OUTEIRO DA CABEÇA",
      "lon": "-9.179205318810606",
      "lat": "39.17187424238756"
    },
    {
      "id": "pt.ine.add.PTCONT.3099175",
      "street": "R ALBERTO MARCELINO",
      "house": "13",
      "postcode": "2565-589",
      "city": "OUTEIRO DA CABEÇA",
      "lon": "-9.182443177344798",
      "lat": "39.17328627656216"
    },
    {
      "id": "pt.ine.add.PTCONT.3150844",
      "street": "CSL VALE CRUZES",
      "house": "",
      "postcode": "2565-589",
      "city": "OUTEIRO DA CABEÇA",
      "lon": "-9.181908753001657",
      "lat": "39.175479831567614"
    },
    {
      "id": "pt.ine.add.PTCONT.3347419",
      "street": "R CASAL VALE CRUZES",
      "house": "11",
      "postcode": "2565-589",
      "city": "OUTEIRO DA CABEÇA",
      "lon": "-9.182332060469957",
      "lat": "39.17671000295838"
    },
    {
      "id": "pt.ine.add.PTCONT.3366593",
      "street": "R ALBERTO MARCELINO",
      "house": "11",
      "postcode": "2565-589",
      "city": "OUTEIRO DA CABEÇA",
      "lon": "-9.182401983415598",
      "lat": "39.17362892019942"
    }
  ]
}