{
  "data": {
    "distrito": "Coimbra",
    "concelho": "Montemor-O-Velho",
    "freguesia": "Arazede",
    "OBJECTID": 238,
    "BGRI2021": "06100200208",
    "DT21": "06",
    "DTMN21": "0610",
    "DTMNFR21": "061002",
    "DTMNFRSEC21": "061002002",
    "SECNUM21": "002",
    "SSNUM21": "08",
    "SECSSNUM21": "00208",
    "OBJECTID_1": 54345,
    "DT": "06",
    "CC": "10",
    "fr": "02",
    "SEC": "002",
    "SS": "08"
  },
  "addresses": [
    {
      "id": "pt.ine.add.PTCONT.1103125",
      "street": "R ARAZEDE",
      "house": "",
      "postcode": "3140-028",
      "city": "ARAZEDE",
      "lon": "-8.708772633274318",
      "lat": "40.293803778345634"
    },
    {
      "id": "pt.ine.add.PTCONT.1123894",
      "street": "R AMIEIRO",
      "house": "",
      "postcode": "3140-028",
      "city": "ARAZEDE",
      "lon": "-8.70863585343811",
      "lat": "40.291544036385964"
    },
    {
      "id": "pt.ine.add.PTCONT.1123895",
      "street": "R AMIEIRO",
      "house": "",
      "postcode": "3140-028",
      "city": "ARAZEDE",
      "lon": "-8.708707865200086",
      "lat": "40.2917147858576"
    },
    {
      "id": "pt.ine.add.PTCONT.1142768",
      "street": "BC LAGOEIRO",
      "house": "",
      "postcode": "3140-028",
      "city": "ARAZEDE",
      "lon": "-8.708182327023067",
      "lat": "40.29214967127939"
    },
    {
      "id": "pt.ine.add.PTCONT.1178168",
      "street": "R MATO DO POVO",
      "house": "",
      "postcode": "3140-028",
      "city": "ARAZEDE",
      "lon": "-8.70656095190585",
      "lat": "40.28955508010247"
    },
    {
      "id": "pt.ine.add.PTCONT.1195853",
      "street": "R AMIEIRO",
      "house": "",
      "postcode": "3140-028",
      "city": "ARAZEDE",
      "lon": "-8.709219817898408",
      "lat": "40.29245070254114"
    },
    {
      "id": "pt.ine.add.PTCONT.1195854",
      "street": "R ARAZEDE",
      "house": "",
      "postcode": "3140-028",
      "city": "ARAZEDE",
      "lon": "-8.709266723425955",
      "lat": "40.293819330233376"
    },
    {
      "id": "pt.ine.add.PTCONT.1197454",
      "street": "R ARAZEDE",
      "house": "",
      "postcode": "3140-028",
      "city": "ARAZEDE",
      "lon": "-8.70628966426553",
      "lat": "40.29363599260281"
    },
    {
      "id": "pt.ine.add.PTCONT.1226066",
      "street": "R AMIEIRO",
      "house": "",
      "postcode": "3140-028",
      "city": "ARAZEDE",
      "lon": "-8.709174306542206",
      "lat": "40.292631042495"
    },
    {
      "id": "pt.ine.add.PTCONT.1252873",
      "street": "R MATO DO POVO",
      "house": "",
      "postcode": "3140-028",
      "city": "ARAZEDE",
      "lon": "-8.706245570564034",
      "lat": "40.2898088016377"
    },
    {
      "id": "pt.ine.add.PTCONT.1265913",
      "street": "R MATO DO POVO",
      "house": "",
      "postcode": "3140-028",
      "city": "ARAZEDE",
      "lon": "-8.707605029893728",
      "lat": "40.29063958680978"
    },
    {
      "id": "pt.ine.add.PTCONT.1265914",
      "street": "R PRINCIPAL DO AMIEIRO",
      "house": "",
      "postcode": "3140-028",
      "city": "ARAZEDE",
      "lon": "-8.708329100367004",
      "lat": "40.291428488176"
    },
    {
      "id": "pt.ine.add.PTCONT.1267747",
      "street": "R MATO DO POVO",
      "house": "",
      "postcode": "3140-028",
      "city": "ARAZEDE",
      "lon": "-8.70549705074013",
      "lat": "40.29029881339152"
    },
    {
      "id": "pt.ine.add.PTCONT.1276355",
      "street": "BUNHOSA",
      "house": "",
      "postcode": "3140-028",
      "city": "ARAZEDE",
      "lon": "-8.708737504869697",
      "lat": "40.29382196445526"
    },
    {
      "id": "pt.ine.add.PTCONT.1290212",
      "street": "R MATO DO POVO",
      "house": "",
      "postcode": "3140-028",
      "city": "ARAZEDE",
      "lon": "-8.70604740430823",
      "lat": "40.29001691356684"
    },
    {
      "id": "pt.ine.add.PTCONT.1309680",
      "street": "R MATO DO POVO",
      "house": "",
      "postcode": "3140-028",
      "city": "ARAZEDE",
      "lon": "-8.705263449337467",
      "lat": "40.29048908792356"
    },
    {
      "id": "pt.ine.add.PTCONT.1312292",
      "street": "R PRINCIPAL DO AMIEIRO",
      "house": "",
      "postcode": "3140-028",
      "city": "ARAZEDE",
      "lon": "-8.707846787799543",
      "lat": "40.291412873737954"
    },
    {
      "id": "pt.ine.add.PTCONT.1318177",
      "street": "R MATO DO POVO",
      "house": "",
      "postcode": "3140-028",
      "city": "ARAZEDE",
      "lon": "-8.706795003311013",
      "lat": "40.28941883473804"
    },
    {
      "id": "pt.ine.add.PTCONT.1322917",
      "street": "R MATO DO POVO",
      "house": "",
      "postcode": "3140-028",
      "city": "ARAZEDE",
      "lon": "-8.706433573929957",
      "lat": "40.289789858841736"
    },
    {
      "id": "pt.ine.add.PTCONT.1342806",
      "street": "R ARAZEDE",
      "house": "",
      "postcode": "3140-028",
      "city": "ARAZEDE",
      "lon": "-8.706793913902876",
      "lat": "40.293462385733605"
    },
    {
      "id": "pt.ine.add.PTCONT.1344371",
      "street": "R AMIEIRO",
      "house": "",
      "postcode": "3140-028",
      "city": "ARAZEDE",
      "lon": "-8.709600199226694",
      "lat": "40.2929261081815"
    },
    {
      "id": "pt.ine.add.PTCONT.1348944",
      "street": "BC LAGOEIRO",
      "house": "",
      "postcode": "3140-028",
      "city": "ARAZEDE",
      "lon": "-8.708016693217056",
      "lat": "40.2920334207471"
    },
    {
      "id": "pt.ine.add.PTCONT.1364601",
      "street": "R AMIEIRO",
      "house": "",
      "postcode": "3140-028",
      "city": "ARAZEDE",
      "lon": "-8.709913928855242",
      "lat": "40.29386113375785"
    }
  ]
}