{
  "data": {
    "distrito": "Lisboa",
    "concelho": "Sintra",
    "freguesia": "União das freguesias do Cacém e São Marcos",
    "OBJECTID": 3397,
    "BGRI2021": "11112400703",
    "DT21": "11",
    "DTMN21": "1111",
    "DTMNFR21": "111124",
    "DTMNFRSEC21": "111124007",
    "SECNUM21": "007",
    "SSNUM21": "03",
    "SECSSNUM21": "00703",
    "OBJECTID_1": 111983,
    "DT": "11",
    "CC": "11",
    "fr": "24",
    "SEC": "007",
    "SS": "03"
  },
  "addresses": [
    {
      "id": "pt.ine.add.PTCONT.2336478",
      "street": "R CIPRIANO VICENTE",
      "house": "6",
      "postcode": "2735-526",
      "city": "AGUALVA-CACÉM",
      "lon": "-9.29542127164786",
      "lat": "38.75061273260452"
    },
    {
      "id": "pt.ine.add.PTCONT.2354559",
      "street": "R NORTE SUL",
      "house": "12",
      "postcode": "2735-516",
      "city": "AGUALVA-CACÉM",
      "lon": "-9.294186172832905",
      "lat": "38.75176899080842"
    },
    {
      "id": "pt.ine.add.PTCONT.2365386",
      "street": "CAM PONTE",
      "house": "22",
      "postcode": "2735-519",
      "city": "AGUALVA-CACÉM",
      "lon": "-9.294777706092919",
      "lat": "38.75206937577359"
    },
    {
      "id": "pt.ine.add.PTCONT.2391446",
      "street": "R GRANJA",
      "house": "12",
      "postcode": "2735-519",
      "city": "AGUALVA-CACÉM",
      "lon": "-9.295567466197669",
      "lat": "38.75111571167044"
    },
    {
      "id": "pt.ine.add.PTCONT.2428267",
      "street": "R CIPRIANO VICENTE",
      "house": "12",
      "postcode": "2735-526",
      "city": "AGUALVA-CACÉM",
      "lon": "-9.29575075581846",
      "lat": "38.75106884987498"
    },
    {
      "id": "pt.ine.add.PTCONT.2428268",
      "street": "R CIPRIANO VICENTE",
      "house": "12",
      "postcode": "2735-526",
      "city": "AGUALVA-CACÉM",
      "lon": "-9.29575075581846",
      "lat": "38.75106884987498"
    },
    {
      "id": "pt.ine.add.PTCONT.2469389",
      "street": "AV BRASIL",
      "house": "120",
      "postcode": "2735-678",
      "city": "AGUALVA-CACÉM",
      "lon": "-9.290517400161646",
      "lat": "38.75039116502388"
    },
    {
      "id": "pt.ine.add.PTCONT.2469390",
      "street": "AV BRASIL",
      "house": "120",
      "postcode": "2735-678",
      "city": "AGUALVA-CACÉM",
      "lon": "-9.290517400161646",
      "lat": "38.75039116502388"
    },
    {
      "id": "pt.ine.add.PTCONT.2469391",
      "street": "AV BRASIL",
      "house": "120",
      "postcode": "2735-678",
      "city": "AGUALVA-CACÉM",
      "lon": "-9.290517400161646",
      "lat": "38.75039116502388"
    },
    {
      "id": "pt.ine.add.PTCONT.2469392",
      "street": "AV BRASIL",
      "house": "120",
      "postcode": "2735-678",
      "city": "AGUALVA-CACÉM",
      "lon": "-9.290517400161646",
      "lat": "38.75039116502388"
    },
    {
      "id": "pt.ine.add.PTCONT.2469393",
      "street": "AV BRASIL",
      "house": "120",
      "postcode": "2735-678",
      "city": "AGUALVA-CACÉM",
      "lon": "-9.290517400161646",
      "lat": "38.75039116502388"
    },
    {
      "id": "pt.ine.add.PTCONT.2469394",
      "street": "AV BRASIL",
      "house": "120",
      "postcode": "2735-678",
      "city": "AGUALVA-CACÉM",
      "lon": "-9.290517400161646",
      "lat": "38.75039116502388"
    },
    {
      "id": "pt.ine.add.PTCONT.2469395",
      "street": "AV BRASIL",
      "house": "120",
      "postcode": "2735-678",
      "city": "AGUALVA-CACÉM",
      "lon": "-9.290517400161646",
      "lat": "38.75039116502388"
    },
    {
      "id": "pt.ine.add.PTCONT.2469396",
      "street": "AV BRASIL",
      "house": "120",
      "postcode": "2735-678",
      "city": "AGUALVA-CACÉM",
      "lon": "-9.290517400161646",
      "lat": "38.75039116502388"
    },
    {
      "id": "pt.ine.add.PTCONT.2469397",
      "street": "AV BRASIL",
      "house": "120",
      "postcode": "2735-678",
      "city": "AGUALVA-CACÉM",
      "lon": "-9.290517400161646",
      "lat": "38.75039116502388"
    },
    {
      "id": "pt.ine.add.PTCONT.2469555",
      "street": "AV BRASIL",
      "house": "120",
      "postcode": "2735-678",
      "city": "AGUALVA-CACÉM",
      "lon": "-9.290517400161646",
      "lat": "38.75039116502388"
    },
    {
      "id": "pt.ine.add.PTCONT.2469556",
      "street": "AV BRASIL",
      "house": "120",
      "postcode": "2735-678",
      "city": "AGUALVA-CACÉM",
      "lon": "-9.290517400161646",
      "lat": "38.75039116502388"
    },
    {
      "id": "pt.ine.add.PTCONT.2469557",
      "street": "AV BRASIL",
      "house": "120",
      "postcode": "2735-678",
      "city": "AGUALVA-CACÉM",
      "lon": "-9.290517400161646",
      "lat": "38.75039116502388"
    },
    {
      "id": "pt.ine.add.PTCONT.2469558",
      "street": "AV BRASIL",
      "house": "120",
      "postcode": "2735-678",
      "city": "AGUALVA-CACÉM",
      "lon": "-9.290517400161646",
      "lat": "38.75039116502388"
    },
    {
      "id": "pt.ine.add.PTCONT.2469559",
      "street": "AV BRASIL",
      "house": "120",
      "postcode": "2735-678",
      "city": "AGUALVA-CACÉM",
      "lon": "-9.290517400161646",
      "lat": "38.75039116502388"
    },
    {
      "id": "pt.ine.add.PTCONT.2469560",
      "street": "AV BRASIL",
      "house": "120",
      "postcode": "2735-678",
      "city": "AGUALVA-CACÉM",
      "lon": "-9.290517400161646",
      "lat": "38.75039116502388"
    },
    {
      "id": "pt.ine.add.PTCONT.2469561",
      "street": "AV BRASIL",
      "house": "120",
      "postcode": "2735-678",
      "city": "AGUALVA-CACÉM",
      "lon": "-9.290517400161646",
      "lat": "38.75039116502388"
    },
    {
      "id": "pt.ine.add.PTCONT.2469562",
      "street": "AV BRASIL",
      "house": "120",
      "postcode": "2735-678",
      "city": "AGUALVA-CACÉM",
      "lon": "-9.290517400161646",
      "lat": "38.75039116502388"
    },
    {
      "id": "pt.ine.add.PTCONT.2469563",
      "street": "AV BRASIL",
      "house": "120",
      "postcode": "2735-678",
      "city": "AGUALVA-CACÉM",
      "lon": "-9.290517400161646",
      "lat": "38.75039116502388"
    },
    {
      "id": "pt.ine.add.PTCONT.2469564",
      "street": "AV BRASIL",
      "house": "120",
      "postcode": "2735-678",
      "city": "AGUALVA-CACÉM",
      "lon": "-9.290517400161646",
      "lat": "38.75039116502388"
    },
    {
      "id": "pt.ine.add.PTCONT.2469565",
      "street": "AV BRASIL",
      "house": "120",
      "postcode": "2735-678",
      "city": "AGUALVA-CACÉM",
      "lon": "-9.290517400161646",
      "lat": "38.75039116502388"
    },
    {
      "id": "pt.ine.add.PTCONT.2469566",
      "street": "AV BRASIL",
      "house": "120",
      "postcode": "2735-678",
      "city": "AGUALVA-CACÉM",
      "lon": "-9.290517400161646",
      "lat": "38.75039116502388"
    },
    {
      "id": "pt.ine.add.PTCONT.2469567",
      "street": "AV BRASIL",
      "house": "120",
      "postcode": "2735-678",
      "city": "AGUALVA-CACÉM",
      "lon": "-9.290517400161646",
      "lat": "38.75039116502388"
    },
    {
      "id": "pt.ine.add.PTCONT.2469781",
      "street": "AV BRASIL",
      "house": "120",
      "postcode": "2735-678",
      "city": "AGUALVA-CACÉM",
      "lon": "-9.290517400161646",
      "lat": "38.75039116502388"
    },
    {
      "id": "pt.ine.add.PTCONT.2469782",
      "street": "AV BRASIL",
      "house": "120",
      "postcode": "2735-678",
      "city": "AGUALVA-CACÉM",
      "lon": "-9.290517400161646",
      "lat": "38.75039116502388"
    },
    {
      "id": "pt.ine.add.PTCONT.2469783",
      "street": "AV BRASIL",
      "house": "120",
      "postcode": "2735-678",
      "city": "AGUALVA-CACÉM",
      "lon": "-9.290517400161646",
      "lat": "38.75039116502388"
    },
    {
      "id": "pt.ine.add.PTCONT.2474302",
      "street": "AV BRASIL",
      "house": "120",
      "postcode": "2735-678",
      "city": "AGUALVA-CACÉM",
      "lon": "-9.290517400161646",
      "lat": "38.75039116502388"
    },
    {
      "id": "pt.ine.add.PTCONT.2474355",
      "street": "AV BRASIL",
      "house": "120",
      "postcode": "2735-678",
      "city": "AGUALVA-CACÉM",
      "lon": "-9.290517400161646",
      "lat": "38.75039116502388"
    },
    {
      "id": "pt.ine.add.PTCONT.2474472",
      "street": "AV BRASIL",
      "house": "120",
      "postcode": "2735-678",
      "city": "AGUALVA-CACÉM",
      "lon": "-9.290517400161646",
      "lat": "38.75039116502388"
    },
    {
      "id": "pt.ine.add.PTCONT.2474560",
      "street": "AV BRASIL",
      "house": "120",
      "postcode": "2735-678",
      "city": "AGUALVA-CACÉM",
      "lon": "-9.290517400161646",
      "lat": "38.75039116502388"
    },
    {
      "id": "pt.ine.add.PTCONT.2482167",
      "street": "AV BRASIL",
      "house": "118",
      "postcode": "2735-678",
      "city": "AGUALVA-CACÉM",
      "lon": "-9.295719612358855",
      "lat": "38.75127633750361"
    },
    {
      "id": "pt.ine.add.PTCONT.2491154",
      "street": "R NORTE SUL",
      "house": "16",
      "postcode": "2735-516",
      "city": "AGUALVA-CACÉM",
      "lon": "-9.293957020717537",
      "lat": "38.751825313417726"
    },
    {
      "id": "pt.ine.add.PTCONT.2670340",
      "street": "ESTR S MARCOS",
      "house": "2",
      "postcode": "2735-521",
      "city": "AGUALVA-CACÉM",
      "lon": "-9.296059930421604",
      "lat": "38.75027309349593"
    },
    {
      "id": "pt.ine.add.PTCONT.2691687",
      "street": "R CIPRIANO VICENTE",
      "house": "8",
      "postcode": "2735-526",
      "city": "AGUALVA-CACÉM",
      "lon": "-9.295781753006608",
      "lat": "38.750852355954784"
    },
    {
      "id": "pt.ine.add.PTCONT.2691688",
      "street": "R CIPRIANO VICENTE",
      "house": "8",
      "postcode": "2735-526",
      "city": "AGUALVA-CACÉM",
      "lon": "-9.295781753006608",
      "lat": "38.750852355954784"
    },
    {
      "id": "pt.ine.add.PTCONT.2691771",
      "street": "R CIPRIANO VICENTE",
      "house": "8",
      "postcode": "2735-526",
      "city": "AGUALVA-CACÉM",
      "lon": "-9.295781753006608",
      "lat": "38.750852355954784"
    },
    {
      "id": "pt.ine.add.PTCONT.2723922",
      "street": "R SOCIEDADE RECREATIVA",
      "house": "13",
      "postcode": "2735-530",
      "city": "AGUALVA-CACÉM",
      "lon": "-9.29766771883987",
      "lat": "38.75152717481199"
    },
    {
      "id": "pt.ine.add.PTCONT.2803403",
      "street": "AV BRASIL",
      "house": "118",
      "postcode": "2735-678",
      "city": "AGUALVA-CACÉM",
      "lon": "-9.290699527725145",
      "lat": "38.750272260753654"
    },
    {
      "id": "pt.ine.add.PTCONT.2803404",
      "street": "AV BRASIL",
      "house": "8",
      "postcode": "2735-674",
      "city": "AGUALVA-CACÉM",
      "lon": "-9.290699527725145",
      "lat": "38.750272260753654"
    },
    {
      "id": "pt.ine.add.PTCONT.2803405",
      "street": "AV BRASIL",
      "house": "118",
      "postcode": "2735-678",
      "city": "AGUALVA-CACÉM",
      "lon": "-9.290699527725145",
      "lat": "38.750272260753654"
    },
    {
      "id": "pt.ine.add.PTCONT.2803406",
      "street": "AV BRASIL",
      "house": "118",
      "postcode": "2735-678",
      "city": "AGUALVA-CACÉM",
      "lon": "-9.290699527725145",
      "lat": "38.750272260753654"
    },
    {
      "id": "pt.ine.add.PTCONT.2803407",
      "street": "AV BRASIL",
      "house": "118",
      "postcode": "2735-678",
      "city": "AGUALVA-CACÉM",
      "lon": "-9.290699527725145",
      "lat": "38.750272260753654"
    },
    {
      "id": "pt.ine.add.PTCONT.2803408",
      "street": "AV BRASIL",
      "house": "118",
      "postcode": "2735-678",
      "city": "AGUALVA-CACÉM",
      "lon": "-9.290699527725145",
      "lat": "38.750272260753654"
    },
    {
      "id": "pt.ine.add.PTCONT.2803409",
      "street": "AV BRASIL",
      "house": "118",
      "postcode": "2735-678",
      "city": "AGUALVA-CACÉM",
      "lon": "-9.290699527725145",
      "lat": "38.750272260753654"
    },
    {
      "id": "pt.ine.add.PTCONT.2803410",
      "street": "AV BRASIL",
      "house": "118",
      "postcode": "2735-678",
      "city": "AGUALVA-CACÉM",
      "lon": "-9.290699527725145",
      "lat": "38.750272260753654"
    },
    {
      "id": "pt.ine.add.PTCONT.2803411",
      "street": "AV BRASIL",
      "house": "118",
      "postcode": "2735-678",
      "city": "AGUALVA-CACÉM",
      "lon": "-9.290699527725145",
      "lat": "38.750272260753654"
    },
    {
      "id": "pt.ine.add.PTCONT.2803412",
      "street": "AV BRASIL",
      "house": "118",
      "postcode": "2735-678",
      "city": "AGUALVA-CACÉM",
      "lon": "-9.290699527725145",
      "lat": "38.750272260753654"
    },
    {
      "id": "pt.ine.add.PTCONT.2803413",
      "street": "AV BRASIL",
      "house": "118",
      "postcode": "2735-678",
      "city": "AGUALVA-CACÉM",
      "lon": "-9.290699527725145",
      "lat": "38.750272260753654"
    },
    {
      "id": "pt.ine.add.PTCONT.2803414",
      "street": "AV BRASIL",
      "house": "118",
      "postcode": "2735-678",
      "city": "AGUALVA-CACÉM",
      "lon": "-9.290699527725145",
      "lat": "38.750272260753654"
    },
    {
      "id": "pt.ine.add.PTCONT.2803561",
      "street": "AV BRASIL",
      "house": "118",
      "postcode": "2735-678",
      "city": "AGUALVA-CACÉM",
      "lon": "-9.290699527725145",
      "lat": "38.750272260753654"
    },
    {
      "id": "pt.ine.add.PTCONT.2803562",
      "street": "AV BRASIL",
      "house": "118",
      "postcode": "2735-678",
      "city": "AGUALVA-CACÉM",
      "lon": "-9.290699527725145",
      "lat": "38.750272260753654"
    },
    {
      "id": "pt.ine.add.PTCONT.2803563",
      "street": "AV BRASIL",
      "house": "118",
      "postcode": "2735-678",
      "city": "AGUALVA-CACÉM",
      "lon": "-9.290699527725145",
      "lat": "38.750272260753654"
    },
    {
      "id": "pt.ine.add.PTCONT.2803564",
      "street": "AV BRASIL",
      "house": "118",
      "postcode": "2735-678",
      "city": "AGUALVA-CACÉM",
      "lon": "-9.290699527725145",
      "lat": "38.750272260753654"
    },
    {
      "id": "pt.ine.add.PTCONT.2803565",
      "street": "AV BRASIL",
      "house": "118",
      "postcode": "2735-678",
      "city": "AGUALVA-CACÉM",
      "lon": "-9.290699527725145",
      "lat": "38.750272260753654"
    },
    {
      "id": "pt.ine.add.PTCONT.2803566",
      "street": "AV BRASIL",
      "house": "118",
      "postcode": "2735-678",
      "city": "AGUALVA-CACÉM",
      "lon": "-9.290699527725145",
      "lat": "38.750272260753654"
    },
    {
      "id": "pt.ine.add.PTCONT.2803567",
      "street": "AV BRASIL",
      "house": "118",
      "postcode": "2735-678",
      "city": "AGUALVA-CACÉM",
      "lon": "-9.290699527725145",
      "lat": "38.750272260753654"
    },
    {
      "id": "pt.ine.add.PTCONT.2803568",
      "street": "AV BRASIL",
      "house": "118",
      "postcode": "2735-678",
      "city": "AGUALVA-CACÉM",
      "lon": "-9.290699527725145",
      "lat": "38.750272260753654"
    },
    {
      "id": "pt.ine.add.PTCONT.2803569",
      "street": "AV BRASIL",
      "house": "118",
      "postcode": "2735-678",
      "city": "AGUALVA-CACÉM",
      "lon": "-9.290699527725145",
      "lat": "38.750272260753654"
    },
    {
      "id": "pt.ine.add.PTCONT.2803570",
      "street": "AV BRASIL",
      "house": "118",
      "postcode": "2735-678",
      "city": "AGUALVA-CACÉM",
      "lon": "-9.290699527725145",
      "lat": "38.750272260753654"
    },
    {
      "id": "pt.ine.add.PTCONT.2803571",
      "street": "AV BRASIL",
      "house": "118",
      "postcode": "2735-678",
      "city": "AGUALVA-CACÉM",
      "lon": "-9.290699527725145",
      "lat": "38.750272260753654"
    },
    {
      "id": "pt.ine.add.PTCONT.2803572",
      "street": "AV BRASIL",
      "house": "118",
      "postcode": "2735-678",
      "city": "AGUALVA-CACÉM",
      "lon": "-9.290699527725145",
      "lat": "38.750272260753654"
    },
    {
      "id": "pt.ine.add.PTCONT.2803573",
      "street": "AV BRASIL",
      "house": "118",
      "postcode": "2735-678",
      "city": "AGUALVA-CACÉM",
      "lon": "-9.290699527725145",
      "lat": "38.750272260753654"
    },
    {
      "id": "pt.ine.add.PTCONT.2803574",
      "street": "AV BRASIL",
      "house": "118",
      "postcode": "2735-678",
      "city": "AGUALVA-CACÉM",
      "lon": "-9.290699527725145",
      "lat": "38.750272260753654"
    },
    {
      "id": "pt.ine.add.PTCONT.2803734",
      "street": "AV BRASIL",
      "house": "118",
      "postcode": "2735-678",
      "city": "AGUALVA-CACÉM",
      "lon": "-9.290699527725145",
      "lat": "38.750272260753654"
    },
    {
      "id": "pt.ine.add.PTCONT.2803735",
      "street": "AV BRASIL",
      "house": "118",
      "postcode": "2735-678",
      "city": "AGUALVA-CACÉM",
      "lon": "-9.290699527725145",
      "lat": "38.750272260753654"
    },
    {
      "id": "pt.ine.add.PTCONT.2803736",
      "street": "AV BRASIL",
      "house": "118",
      "postcode": "2735-678",
      "city": "AGUALVA-CACÉM",
      "lon": "-9.290699527725145",
      "lat": "38.750272260753654"
    },
    {
      "id": "pt.ine.add.PTCONT.2803737",
      "street": "AV BRASIL",
      "house": "118",
      "postcode": "2735-678",
      "city": "AGUALVA-CACÉM",
      "lon": "-9.290699527725145",
      "lat": "38.750272260753654"
    },
    {
      "id": "pt.ine.add.PTCONT.2803738",
      "street": "AV BRASIL",
      "house": "118",
      "postcode": "2735-678",
      "city": "AGUALVA-CACÉM",
      "lon": "-9.290699527725145",
      "lat": "38.750272260753654"
    },
    {
      "id": "pt.ine.add.PTCONT.2803739",
      "street": "AV BRASIL",
      "house": "118",
      "postcode": "2735-678",
      "city": "AGUALVA-CACÉM",
      "lon": "-9.290699527725145",
      "lat": "38.750272260753654"
    },
    {
      "id": "pt.ine.add.PTCONT.2803740",
      "street": "AV BRASIL",
      "house": "118",
      "postcode": "2735-678",
      "city": "AGUALVA-CACÉM",
      "lon": "-9.290699527725145",
      "lat": "38.750272260753654"
    },
    {
      "id": "pt.ine.add.PTCONT.2803741",
      "street": "AV BRASIL",
      "house": "118",
      "postcode": "2735-678",
      "city": "AGUALVA-CACÉM",
      "lon": "-9.290699527725145",
      "lat": "38.750272260753654"
    },
    {
      "id": "pt.ine.add.PTCONT.2803742",
      "street": "AV BRASIL",
      "house": "118",
      "postcode": "2735-678",
      "city": "AGUALVA-CACÉM",
      "lon": "-9.290699527725145",
      "lat": "38.750272260753654"
    },
    {
      "id": "pt.ine.add.PTCONT.2803743",
      "street": "AV BRASIL",
      "house": "118",
      "postcode": "2735-678",
      "city": "AGUALVA-CACÉM",
      "lon": "-9.290699527725145",
      "lat": "38.750272260753654"
    },
    {
      "id": "pt.ine.add.PTCONT.2803744",
      "street": "R NORTE SUL",
      "house": "10",
      "postcode": "2735-516",
      "city": "AGUALVA-CACÉM",
      "lon": "-9.294244555186783",
      "lat": "38.751822457204"
    },
    {
      "id": "pt.ine.add.PTCONT.2805348",
      "street": "AV BRASIL",
      "house": "118",
      "postcode": "2735-678",
      "city": "AGUALVA-CACÉM",
      "lon": "-9.290699527725145",
      "lat": "38.750272260753654"
    },
    {
      "id": "pt.ine.add.PTCONT.2805395",
      "street": "AV BRASIL",
      "house": "118",
      "postcode": "2735-678",
      "city": "AGUALVA-CACÉM",
      "lon": "-9.290699527725145",
      "lat": "38.750272260753654"
    },
    {
      "id": "pt.ine.add.PTCONT.2859642",
      "street": "R SOCIEDADE RECREATIVA",
      "house": "11",
      "postcode": "2735-530",
      "city": "AGUALVA-CACÉM",
      "lon": "-9.297520250313855",
      "lat": "38.751654752310415"
    },
    {
      "id": "pt.ine.add.PTCONT.2869223",
      "street": "R NORTE SUL",
      "house": "4",
      "postcode": "2735-516",
      "city": "AGUALVA-CACÉM",
      "lon": "-9.294326815972513",
      "lat": "38.751929732720384"
    },
    {
      "id": "pt.ine.add.PTCONT.2921883",
      "street": "CAM PONTE",
      "house": "26",
      "postcode": "2735-519",
      "city": "AGUALVA-CACÉM",
      "lon": "-9.29439089013576",
      "lat": "38.752334444010394"
    },
    {
      "id": "pt.ine.add.PTCONT.3040732",
      "street": "R GRANJA",
      "house": "14",
      "postcode": "2735-519",
      "city": "AGUALVA-CACÉM",
      "lon": "-9.295415320722638",
      "lat": "38.75095508562425"
    },
    {
      "id": "pt.ine.add.PTCONT.3134179",
      "street": "R CIPRIANO VICENTE",
      "house": "14",
      "postcode": "2735-526",
      "city": "AGUALVA-CACÉM",
      "lon": "-9.295820201658765",
      "lat": "38.751095182235545"
    },
    {
      "id": "pt.ine.add.PTCONT.3162778",
      "street": "R CIPRIANO VICENTE",
      "house": "16",
      "postcode": "2735-526",
      "city": "AGUALVA-CACÉM",
      "lon": "-9.295764448647722",
      "lat": "38.75120382964231"
    },
    {
      "id": "pt.ine.add.PTCONT.3254317",
      "street": "R CIPRIANO VICENTE",
      "house": "18",
      "postcode": "2735-526",
      "city": "AGUALVA-CACÉM",
      "lon": "-9.295751924646893",
      "lat": "38.751140900103366"
    },
    {
      "id": "pt.ine.add.PTCONT.3282271",
      "street": "R NORTE SUL",
      "house": "18",
      "postcode": "2735-516",
      "city": "AGUALVA-CACÉM",
      "lon": "-9.294011609846173",
      "lat": "38.75164461656897"
    },
    {
      "id": "pt.ine.add.PTCONT.3291403",
      "street": "CAM PONTE",
      "house": "36",
      "postcode": "2735-519",
      "city": "AGUALVA-CACÉM",
      "lon": "-9.293781604414994",
      "lat": "38.752358511739835"
    },
    {
      "id": "pt.ine.add.PTCONT.3291404",
      "street": "CAM PONTE",
      "house": "36",
      "postcode": "2735-519",
      "city": "AGUALVA-CACÉM",
      "lon": "-9.293781604414994",
      "lat": "38.752358511739835"
    },
    {
      "id": "pt.ine.add.PTCONT.3293329",
      "street": "R SOCIEDADE RECREATIVA",
      "house": "9",
      "postcode": "2735-530",
      "city": "AGUALVA-CACÉM",
      "lon": "-9.297657680977563",
      "lat": "38.75161735212747"
    },
    {
      "id": "pt.ine.add.PTCONT.3346943",
      "street": "CAM PONTE",
      "house": "34",
      "postcode": "2735-519",
      "city": "AGUALVA-CACÉM",
      "lon": "-9.293641982526147",
      "lat": "38.75226081316226"
    },
    {
      "id": "pt.ine.add.PTCONT.3346944",
      "street": "CAM PONTE",
      "house": "36",
      "postcode": "2735-519",
      "city": "AGUALVA-CACÉM",
      "lon": "-9.293641982526147",
      "lat": "38.75226081316226"
    },
    {
      "id": "pt.ine.add.PTCONT.3384473",
      "street": "R NORTE SUL",
      "house": "6",
      "postcode": "2735-516",
      "city": "AGUALVA-CACÉM",
      "lon": "-9.294302791702505",
      "lat": "38.75186691728658"
    },
    {
      "id": "pt.ine.add.PTCONT.3438272",
      "street": "AV BRASIL",
      "house": "118",
      "postcode": "2735-678",
      "city": "AGUALVA-CACÉM",
      "lon": "-9.290699527725145",
      "lat": "38.750272260753654"
    },
    {
      "id": "pt.ine.add.PTCONT.3457879",
      "street": "AV BRASIL",
      "house": "120",
      "postcode": "2735-678",
      "city": "AGUALVA-CACÉM",
      "lon": "-9.290517400161646",
      "lat": "38.75039116502388"
    }
  ]
}