{
  "data": {
    "distrito": "Santarém",
    "concelho": "Ourém",
    "freguesia": "União das freguesias de Gondemaria e Olival",
    "OBJECTID": 1260,
    "BGRI2021": "14212000119",
    "DT21": "14",
    "DTMN21": "1421",
    "DTMNFR21": "142120",
    "DTMNFRSEC21": "142120001",
    "SECNUM21": "001",
    "SSNUM21": "19",
    "SECSSNUM21": "00119",
    "OBJECTID_1": 158273,
    "DT": "14",
    "CC": "21",
    "fr": "20",
    "SEC": "001",
    "SS": "19"
  },
  "addresses": [
    {
      "id": "pt.ine.add.PTCONT.4401351",
      "street": "TV HORTAS",
      "house": "11",
      "postcode": "2490-131",
      "city": "GONDEMARIA",
      "lon": "-8.628339756716151",
      "lat": "39.69070983989614"
    },
    {
      "id": "pt.ine.add.PTCONT.4411685",
      "street": "R HORTAS",
      "house": "",
      "postcode": "2490-146",
      "city": "GONDEMARIA",
      "lon": "-8.628499808584378",
      "lat": "39.690267832911445"
    },
    {
      "id": "pt.ine.add.PTCONT.4416031",
      "street": "R ENG TORRES",
      "house": "2",
      "postcode": "2490-152",
      "city": "GONDEMARIA",
      "lon": "-8.62693111105368",
      "lat": "39.68811016330657"
    },
    {
      "id": "pt.ine.add.PTCONT.4421718",
      "street": "TV GALEGAS",
      "house": "2",
      "postcode": "2490-131",
      "city": "GONDEMARIA",
      "lon": "-8.63016938226204",
      "lat": "39.68899076500148"
    },
    {
      "id": "pt.ine.add.PTCONT.4427954",
      "street": "R HORTAS",
      "house": "1",
      "postcode": "2490-146",
      "city": "GONDEMARIA",
      "lon": "-8.626865364293064",
      "lat": "39.68830234427567"
    },
    {
      "id": "pt.ine.add.PTCONT.4432044",
      "street": "TV HORTAS",
      "house": "9",
      "postcode": "2490-146",
      "city": "GONDEMARIA",
      "lon": "-8.6280931465551",
      "lat": "39.69045870605962"
    },
    {
      "id": "pt.ine.add.PTCONT.4432045",
      "street": "R HORTAS",
      "house": "5",
      "postcode": "2490-146",
      "city": "GONDEMARIA",
      "lon": "-8.626797858790717",
      "lat": "39.68864488291518"
    },
    {
      "id": "pt.ine.add.PTCONT.4441165",
      "street": "R JARDIM INFÂNCIA",
      "house": "2",
      "postcode": "2490-148",
      "city": "GONDEMARIA",
      "lon": "-8.627831752957741",
      "lat": "39.688136111978245"
    },
    {
      "id": "pt.ine.add.PTCONT.4454578",
      "street": "R HORTAS",
      "house": "3",
      "postcode": "2490-146",
      "city": "GONDEMARIA",
      "lon": "-8.626854733575518",
      "lat": "39.68844649542692"
    },
    {
      "id": "pt.ine.add.PTCONT.4470856",
      "street": "TV GALEGAS",
      "house": "16",
      "postcode": "2490-131",
      "city": "GONDEMARIA",
      "lon": "-8.629334004023827",
      "lat": "39.69117393951095"
    },
    {
      "id": "pt.ine.add.PTCONT.4484018",
      "street": "TV HORTAS",
      "house": "17",
      "postcode": "2490-131",
      "city": "GONDEMARIA",
      "lon": "-8.629138595512245",
      "lat": "39.691562058909696"
    },
    {
      "id": "pt.ine.add.PTCONT.4486201",
      "street": "R JARDIM INFÂNCIA",
      "house": "6",
      "postcode": "2490-148",
      "city": "GONDEMARIA",
      "lon": "-8.627470381330369",
      "lat": "39.688137650973175"
    },
    {
      "id": "pt.ine.add.PTCONT.4526519",
      "street": "TV GALEGAS",
      "house": "14",
      "postcode": "2490-131",
      "city": "GONDEMARIA",
      "lon": "-8.629379602840181",
      "lat": "39.69102963877058"
    },
    {
      "id": "pt.ine.add.PTCONT.4577059",
      "street": "ESTR DAS GALEGAS",
      "house": "4",
      "postcode": "2490-131",
      "city": "GONDEMARIA",
      "lon": "-8.629858572766906",
      "lat": "39.68954149880019"
    },
    {
      "id": "pt.ine.add.PTCONT.4577188",
      "street": "R JARDIM INFÂNCIA",
      "house": "2",
      "postcode": "2490-148",
      "city": "GONDEMARIA",
      "lon": "-8.627828002315074",
      "lat": "39.68924394235723"
    },
    {
      "id": "pt.ine.add.PTCONT.4595806",
      "street": "ESTR GALEGAS",
      "house": "10",
      "postcode": "2490-131",
      "city": "GONDEMARIA",
      "lon": "-8.629375927071125",
      "lat": "39.69051627728051"
    },
    {
      "id": "pt.ine.add.PTCONT.4616580",
      "street": "R ACHADA DO CACHINHO",
      "house": "8",
      "postcode": "2490-131",
      "city": "GONDEMARIA",
      "lon": "-8.629492163020767",
      "lat": "39.688840549297595"
    },
    {
      "id": "pt.ine.add.PTCONT.4620756",
      "street": "R ENG TORRES",
      "house": "8",
      "postcode": "2490-148",
      "city": "GONDEMARIA",
      "lon": "-8.627693345205786",
      "lat": "39.68834385385946"
    },
    {
      "id": "pt.ine.add.PTCONT.4639208",
      "street": "TV HORTAS",
      "house": "18",
      "postcode": "2490-131",
      "city": "GONDEMARIA",
      "lon": "-8.629311720383349",
      "lat": "39.69131814060336"
    },
    {
      "id": "pt.ine.add.PTCONT.4659091",
      "street": "R ACHADA DO CACHINHO",
      "house": "1",
      "postcode": "2490-131",
      "city": "GONDEMARIA",
      "lon": "-8.629050024677488",
      "lat": "39.688959524502174"
    }
  ]
}