{
  "data": {
    "distrito": "Santarém",
    "concelho": "Torres Novas",
    "freguesia": "União das freguesias de Torres Novas (São Pedro), Lapas e Ribeira Branca",
    "OBJECTID": 602,
    "BGRI2021": "14192100613",
    "DT21": "14",
    "DTMN21": "1419",
    "DTMNFR21": "141921",
    "DTMNFRSEC21": "141921006",
    "SECNUM21": "006",
    "SSNUM21": "13",
    "SECSSNUM21": "00613",
    "OBJECTID_1": 157048,
    "DT": "14",
    "CC": "19",
    "fr": "21",
    "SEC": "006",
    "SS": "13"
  },
  "addresses": [
    {
      "id": "pt.ine.add.PTCONT.4400278",
      "street": "R JOSE MOTA E SILVA",
      "house": "18",
      "postcode": "2350-124",
      "city": "TORRES NOVAS",
      "lon": "-8.553896915677417",
      "lat": "39.49330446657593"
    },
    {
      "id": "pt.ine.add.PTCONT.4430634",
      "street": "LAD ADRO",
      "house": "1",
      "postcode": "2350-109",
      "city": "TORRES NOVAS",
      "lon": "-8.553507551639816",
      "lat": "39.49235113923169"
    },
    {
      "id": "pt.ine.add.PTCONT.4430635",
      "street": "LAD ADRO",
      "house": "3",
      "postcode": "2350-109",
      "city": "TORRES NOVAS",
      "lon": "-8.553507551639816",
      "lat": "39.49235113923169"
    },
    {
      "id": "pt.ine.add.PTCONT.4433158",
      "street": "CC PROF CREMILDE DA ENCARNAÇÃO MARTINS",
      "house": "10",
      "postcode": "2350-150",
      "city": "TORRES NOVAS",
      "lon": "-8.553698807951548",
      "lat": "39.49322412088766"
    },
    {
      "id": "pt.ine.add.PTCONT.4433159",
      "street": "CC PROF CREMILDE DA ENCARNAÇÃO MARTINS",
      "house": "10",
      "postcode": "2350-150",
      "city": "TORRES NOVAS",
      "lon": "-8.553698807951548",
      "lat": "39.49322412088766"
    },
    {
      "id": "pt.ine.add.PTCONT.4433160",
      "street": "LG CATACUMBAS",
      "house": "1",
      "postcode": "2350-124",
      "city": "TORRES NOVAS",
      "lon": "-8.553941730938924",
      "lat": "39.49302508921694"
    },
    {
      "id": "pt.ine.add.PTCONT.4449680",
      "street": "R JOSE MOTA E SILVA",
      "house": "3",
      "postcode": "2350-124",
      "city": "TORRES NOVAS",
      "lon": "-8.554008763090515",
      "lat": "39.49257449951672"
    },
    {
      "id": "pt.ine.add.PTCONT.4456088",
      "street": "LAD ADRO",
      "house": "7",
      "postcode": "2350-109",
      "city": "TORRES NOVAS",
      "lon": "-8.553520261084977",
      "lat": "39.49253123211908"
    },
    {
      "id": "pt.ine.add.PTCONT.4466886",
      "street": "R FR LOURENÇO CRAVEIRO",
      "house": "",
      "postcode": "2350-123",
      "city": "TORRES NOVAS",
      "lon": "-8.553841344009589",
      "lat": "39.49372799386859"
    },
    {
      "id": "pt.ine.add.PTCONT.4472271",
      "street": "R JOSE MOTA E SILVA",
      "house": "15",
      "postcode": "2350-124",
      "city": "TORRES NOVAS",
      "lon": "-8.553875349486788",
      "lat": "39.493583759773514"
    },
    {
      "id": "pt.ine.add.PTCONT.4474525",
      "street": "R FR LOURENÇO CRAVEIRO",
      "house": "13",
      "postcode": "2350-123",
      "city": "TORRES NOVAS",
      "lon": "-8.553688594332568",
      "lat": "39.493458338288"
    },
    {
      "id": "pt.ine.add.PTCONT.4480764",
      "street": "R JOSE MOTA E SILVA",
      "house": "3",
      "postcode": "2350-124",
      "city": "TORRES NOVAS",
      "lon": "-8.553792130854958",
      "lat": "39.49327782492041"
    },
    {
      "id": "pt.ine.add.PTCONT.4486846",
      "street": "LG IGREJA",
      "house": "5",
      "postcode": "2350-111",
      "city": "TORRES NOVAS",
      "lon": "-8.553546059943548",
      "lat": "39.492954465087614"
    },
    {
      "id": "pt.ine.add.PTCONT.4486847",
      "street": "LG IGREJA",
      "house": "5",
      "postcode": "2350-111",
      "city": "TORRES NOVAS",
      "lon": "-8.553546059943548",
      "lat": "39.492954465087614"
    },
    {
      "id": "pt.ine.add.PTCONT.4536693",
      "street": "R JOSE MOTA E SILVA",
      "house": "",
      "postcode": "2350-124",
      "city": "TORRES NOVAS",
      "lon": "-8.55386807416341",
      "lat": "39.492376855992596"
    },
    {
      "id": "pt.ine.add.PTCONT.4547173",
      "street": "R FR LOURENÇO CRAVEIRO",
      "house": "9",
      "postcode": "2350-123",
      "city": "TORRES NOVAS",
      "lon": "-8.55362971120274",
      "lat": "39.49333245409708"
    },
    {
      "id": "pt.ine.add.PTCONT.4550965",
      "street": "LG IGREJA",
      "house": "2",
      "postcode": "2350-111",
      "city": "TORRES NOVAS",
      "lon": "-8.553625261725971",
      "lat": "39.49259390101175"
    },
    {
      "id": "pt.ine.add.PTCONT.4557337",
      "street": "R JOSE MOTA E SILVA",
      "house": "",
      "postcode": "2350-124",
      "city": "TORRES NOVAS",
      "lon": "-8.55368620644311",
      "lat": "39.49306204153386"
    },
    {
      "id": "pt.ine.add.PTCONT.4575895",
      "street": "R FR LOURENÇO CRAVEIRO",
      "house": "15",
      "postcode": "2350-123",
      "city": "TORRES NOVAS",
      "lon": "-8.553770672815235",
      "lat": "39.49357513158973"
    },
    {
      "id": "pt.ine.add.PTCONT.4593894",
      "street": "R JOSE MOTA E SILVA",
      "house": "7",
      "postcode": "2350-124",
      "city": "TORRES NOVAS",
      "lon": "-8.55383971529113",
      "lat": "39.49345779155704"
    },
    {
      "id": "pt.ine.add.PTCONT.4597455",
      "street": "R FR LOURENÇO CRAVEIRO",
      "house": "11",
      "postcode": "2350-123",
      "city": "TORRES NOVAS",
      "lon": "-8.553653286135395",
      "lat": "39.49338641047518"
    },
    {
      "id": "pt.ine.add.PTCONT.4603480",
      "street": "R JOSE MOTA E SILVA",
      "house": "",
      "postcode": "2350-124",
      "city": "TORRES NOVAS",
      "lon": "-8.55358272421773",
      "lat": "39.49325156155814"
    },
    {
      "id": "pt.ine.add.PTCONT.4611327",
      "street": "R FR LOURENÇO CRAVEIRO",
      "house": "",
      "postcode": "2350-123",
      "city": "TORRES NOVAS",
      "lon": "-8.553888331619042",
      "lat": "39.49380888629306"
    },
    {
      "id": "pt.ine.add.PTCONT.4619861",
      "street": "LG IGREJA",
      "house": "1",
      "postcode": "2350-111",
      "city": "TORRES NOVAS",
      "lon": "-8.5535322653619",
      "lat": "39.49259423730721"
    },
    {
      "id": "pt.ine.add.PTCONT.4635306",
      "street": "CC MANUEL PEDRO CARRICHE",
      "house": "1",
      "postcode": "2350-097",
      "city": "TORRES NOVAS",
      "lon": "-8.553523407466095",
      "lat": "39.493053623348246"
    },
    {
      "id": "pt.ine.add.PTCONT.4642992",
      "street": "CC MANUEL PEDRO CARRICHE",
      "house": "5",
      "postcode": "2350-097",
      "city": "TORRES NOVAS",
      "lon": "-8.55360526815375",
      "lat": "39.49313438980006"
    },
    {
      "id": "pt.ine.add.PTCONT.4654883",
      "street": "LG IGREJA",
      "house": "4",
      "postcode": "2350-111",
      "city": "TORRES NOVAS",
      "lon": "-8.553778334924859",
      "lat": "39.49291759719637"
    }
  ]
}