{
  "data": {
    "distrito": "Porto",
    "concelho": "Marco de Canaveses",
    "freguesia": "Penha Longa e Pa√ßos de Gaiolo",
    "OBJECTID": 1230,
    "BGRI2021": "13073800103",
    "DT21": "13",
    "DTMN21": "1307",
    "DTMNFR21": "130738",
    "DTMNFRSEC21": "130738001",
    "SECNUM21": "001",
    "SSNUM21": "03",
    "SECSSNUM21": "00103",
    "OBJECTID_1": 131995,
    "DT": "13",
    "CC": "07",
    "fr": "38",
    "SEC": "001",
    "SS": "03"
  },
  "addresses": [
    {
      "id": "pt.ine.add.PTCONT.3624972",
      "street": "R BAIRRO CARRAPATELO",
      "house": "51",
      "postcode": "4625-291",
      "city": "PENHA LONGA",
      "lon": "-8.138570889972446",
      "lat": "41.085327041477626"
    },
    {
      "id": "pt.ine.add.PTCONT.3677089",
      "street": "R VESSADAS",
      "house": "92",
      "postcode": "4625-382",
      "city": "PENHA LONGA",
      "lon": "-8.1478782762576",
      "lat": "41.0889370285442"
    },
    {
      "id": "pt.ine.add.PTCONT.3815876",
      "street": "LG CARVALHEIRA",
      "house": "59",
      "postcode": "4625-313",
      "city": "PENHA LONGA",
      "lon": "-8.1376427114121",
      "lat": "41.08676780189453"
    },
    {
      "id": "pt.ine.add.PTCONT.3877698",
      "street": "R CARDIA",
      "house": "850",
      "postcode": "4625-310",
      "city": "PENHA LONGA",
      "lon": "-8.141891494110586",
      "lat": "41.08702868685537"
    },
    {
      "id": "pt.ine.add.PTCONT.3905248",
      "street": "LG CARVALHEIRA",
      "house": "59",
      "postcode": "4625-313",
      "city": "PENHA LONGA",
      "lon": "-8.137761729676903",
      "lat": "41.08684883764744"
    },
    {
      "id": "pt.ine.add.PTCONT.3954095",
      "street": "R CARDIA",
      "house": "51",
      "postcode": "4625-310",
      "city": "PENHA LONGA",
      "lon": "-8.141819991160846",
      "lat": "41.086308332285334"
    },
    {
      "id": "pt.ine.add.PTCONT.4228238",
      "street": "R CARDIA",
      "house": "978",
      "postcode": "4625-310",
      "city": "PENHA LONGA",
      "lon": "-8.144069409872952",
      "lat": "41.08689343277008"
    },
    {
      "id": "pt.ine.add.PTCONT.4288103",
      "street": "R VESSADAS",
      "house": "51",
      "postcode": "4625-382",
      "city": "PENHA LONGA",
      "lon": "-8.143581205886955",
      "lat": "41.08530868602509"
    }
  ]
}