{
  "data": {
    "distrito": "Porto",
    "concelho": "Valongo",
    "freguesia": "União das freguesias de Campo e Sobrado",
    "OBJECTID": 930,
    "BGRI2021": "13150600628",
    "DT21": "13",
    "DTMN21": "1315",
    "DTMNFR21": "131506",
    "DTMNFRSEC21": "131506006",
    "SECNUM21": "006",
    "SSNUM21": "28",
    "SECSSNUM21": "00628",
    "OBJECTID_1": 142642,
    "DT": "13",
    "CC": "15",
    "fr": "06",
    "SEC": "006",
    "SS": "28"
  },
  "addresses": [
    {
      "id": "pt.ine.add.PTCONT.3588643",
      "street": "R CENTRAL DA RETORTA",
      "house": "126",
      "postcode": "4440-030",
      "city": "CAMPO VLG",
      "lon": "-8.466969709932604",
      "lat": "41.177543900014555"
    },
    {
      "id": "pt.ine.add.PTCONT.3640613",
      "street": "R 25 DE ABRIL",
      "house": "251",
      "postcode": "4440-014",
      "city": "CAMPO VLG",
      "lon": "-8.466979021226523",
      "lat": "41.17703062580319"
    },
    {
      "id": "pt.ine.add.PTCONT.3838658",
      "street": "R COOPERATIVA",
      "house": "111",
      "postcode": "4440-047",
      "city": "CAMPO VLG",
      "lon": "-8.466980438611145",
      "lat": "41.17730975615364"
    },
    {
      "id": "pt.ine.add.PTCONT.3912304",
      "street": "R NSA SRA DA CONCEIÇÃO",
      "house": "111",
      "postcode": "4440-085",
      "city": "CAMPO VLG",
      "lon": "-8.467134541761215",
      "lat": "41.17714723127427"
    },
    {
      "id": "pt.ine.add.PTCONT.3982617",
      "street": "TV NSA SRA DA CONCEIÇÃO",
      "house": "20",
      "postcode": "4440-189",
      "city": "CAMPO VLG",
      "lon": "-8.46713650874007",
      "lat": "41.17753441206532"
    },
    {
      "id": "pt.ine.add.PTCONT.3982618",
      "street": "R COOPERATIVA",
      "house": "110",
      "postcode": "4440-047",
      "city": "CAMPO VLG",
      "lon": "-8.466860670176077",
      "lat": "41.17719304688454"
    },
    {
      "id": "pt.ine.add.PTCONT.4027307",
      "street": "TV NSA SRA DA CONCEIÇÃO",
      "house": "10",
      "postcode": "4440-189",
      "city": "CAMPO VLG",
      "lon": "-8.46720751024487",
      "lat": "41.17743515842641"
    },
    {
      "id": "pt.ine.add.PTCONT.4202472",
      "street": "R CENTRAL DA RETORTA",
      "house": "140",
      "postcode": "4440-030",
      "city": "CAMPO VLG",
      "lon": "-8.466886013396307",
      "lat": "41.1774901165701"
    },
    {
      "id": "pt.ine.add.PTCONT.4202473",
      "street": "R CENTRAL DA RETORTA",
      "house": "140",
      "postcode": "4440-030",
      "city": "CAMPO VLG",
      "lon": "-8.466886013396307",
      "lat": "41.1774901165701"
    },
    {
      "id": "pt.ine.add.PTCONT.4304152",
      "street": "R COOPERATIVA",
      "house": "",
      "postcode": "4440-047",
      "city": "CAMPO VLG",
      "lon": "-8.467254585155924",
      "lat": "41.17731796548446"
    },
    {
      "id": "pt.ine.add.PTCONT.4337069",
      "street": "R 25 DE ABRIL",
      "house": "301",
      "postcode": "4440-014",
      "city": "CAMPO VLG",
      "lon": "-8.466682822734775",
      "lat": "41.17737364884079"
    }
  ]
}