{
  "data": {
    "distrito": "Setúbal",
    "concelho": "Setúbal",
    "freguesia": "União das freguesias de Azeitão (São Lourenço e São Simão)",
    "OBJECTID": 58,
    "BGRI2021": "15120900216",
    "DT21": "15",
    "DTMN21": "1512",
    "DTMNFR21": "151209",
    "DTMNFRSEC21": "151209002",
    "SECNUM21": "002",
    "SSNUM21": "16",
    "SECSSNUM21": "00216",
    "OBJECTID_1": 170710,
    "DT": "15",
    "CC": "12",
    "fr": "09",
    "SEC": "002",
    "SS": "16"
  },
  "addresses": [
    {
      "id": "pt.ine.add.PTCONT.4668735",
      "street": "R FR JOÃO PINHEIRO",
      "house": "",
      "postcode": "2925-735",
      "city": "AZEITÃO",
      "lon": "-9.03083204966984",
      "lat": "38.51906795317804"
    },
    {
      "id": "pt.ine.add.PTCONT.4727479",
      "street": "R FRANCISCO BINGRE",
      "house": "51",
      "postcode": "2925-724",
      "city": "AZEITÃO",
      "lon": "-9.030150472568044",
      "lat": "38.51681210652189"
    },
    {
      "id": "pt.ine.add.PTCONT.4794311",
      "street": "R FR JOÃO PINHEIRO",
      "house": "",
      "postcode": "2925-735",
      "city": "AZEITÃO",
      "lon": "-9.030546650116433",
      "lat": "38.51916923158124"
    },
    {
      "id": "pt.ine.add.PTCONT.4837814",
      "street": "R MANUEL DE AGUIAR",
      "house": "",
      "postcode": "2925-732",
      "city": "AZEITÃO",
      "lon": "-9.030984332982888",
      "lat": "38.517481334224705"
    },
    {
      "id": "pt.ine.add.PTCONT.4837815",
      "street": "R FRANCISCO BINGRE",
      "house": "51 C",
      "postcode": "2925-724",
      "city": "AZEITÃO",
      "lon": "-9.030220267793545",
      "lat": "38.51689264606291"
    },
    {
      "id": "pt.ine.add.PTCONT.4872016",
      "street": "R MANUEL AGUIAR",
      "house": "7",
      "postcode": "2925-732",
      "city": "AZEITÃO",
      "lon": "-9.029760824413007",
      "lat": "38.51775194868451"
    },
    {
      "id": "pt.ine.add.PTCONT.4872017",
      "street": "R FRANCISCO BINGRE",
      "house": "",
      "postcode": "2925-724",
      "city": "AZEITÃO",
      "lon": "-9.030405718221388",
      "lat": "38.5170533736049"
    },
    {
      "id": "pt.ine.add.PTCONT.4892137",
      "street": "R FRANCISCO BINGRE",
      "house": "48",
      "postcode": "2925-724",
      "city": "AZEITÃO",
      "lon": "-9.029496641522567",
      "lat": "38.51679008873275"
    },
    {
      "id": "pt.ine.add.PTCONT.4926819",
      "street": "R JOSE CÂNDIDO GODINHO",
      "house": "",
      "postcode": "2925-707",
      "city": "AZEITÃO",
      "lon": "-9.029800604828974",
      "lat": "38.51633734899474"
    },
    {
      "id": "pt.ine.add.PTCONT.4962996",
      "street": "R FRANCISCO BINGRE",
      "house": "",
      "postcode": "2925-724",
      "city": "AZEITÃO",
      "lon": "-9.029953446750161",
      "lat": "38.516642458970615"
    },
    {
      "id": "pt.ine.add.PTCONT.5012831",
      "street": "R FRANCISCO BINGRE",
      "house": "",
      "postcode": "2925-724",
      "city": "AZEITÃO",
      "lon": "-9.030312992904205",
      "lat": "38.51697300987241"
    },
    {
      "id": "pt.ine.add.PTCONT.5015365",
      "street": "R FRANCISCO BINGRE",
      "house": "51",
      "postcode": "2925-724",
      "city": "AZEITÃO",
      "lon": "-9.030080565717912",
      "lat": "38.51672255954335"
    },
    {
      "id": "pt.ine.add.PTCONT.5017631",
      "street": "R LOPO DE ABREU",
      "house": "",
      "postcode": "2925-736",
      "city": "AZEITÃO",
      "lon": "-9.030054156091888",
      "lat": "38.51829019699314"
    },
    {
      "id": "pt.ine.add.PTCONT.5028868",
      "street": "R JOSE SACRAMENTO",
      "house": "",
      "postcode": "2925-733",
      "city": "AZEITÃO",
      "lon": "-9.030009190024023",
      "lat": "38.518362607396206"
    },
    {
      "id": "pt.ine.add.PTCONT.5054608",
      "street": "R MANUEL AGUIAR",
      "house": "10",
      "postcode": "2925-732",
      "city": "AZEITÃO",
      "lon": "-9.030479763617663",
      "lat": "38.51747619384384"
    },
    {
      "id": "pt.ine.add.PTCONT.5054609",
      "street": "R JOSE SACRAMENTO",
      "house": "47",
      "postcode": "2925-733",
      "city": "AZEITÃO",
      "lon": "-9.029129990012422",
      "lat": "38.51681091140635"
    },
    {
      "id": "pt.ine.add.PTCONT.5072687",
      "street": "R MANUEL DE AGUIAR",
      "house": "",
      "postcode": "2925-732",
      "city": "AZEITÃO",
      "lon": "-9.030825054426376",
      "lat": "38.51758164616082"
    },
    {
      "id": "pt.ine.add.PTCONT.5073446",
      "street": "URB CARCAVELOS E NABAIS",
      "house": "",
      "postcode": "2925-011",
      "city": "AZEITÃO",
      "lon": "-9.030120487108663",
      "lat": "38.51809150745017"
    },
    {
      "id": "pt.ine.add.PTCONT.5077179",
      "street": "URB CARCAVELOS E NABAIS",
      "house": "",
      "postcode": "2925-999",
      "city": "AZEITÃO",
      "lon": "-9.029496641522567",
      "lat": "38.51679008873275"
    },
    {
      "id": "pt.ine.add.PTCONT.5096274",
      "street": "R LOPO DE ABREU",
      "house": "",
      "postcode": "2925-736",
      "city": "AZEITÃO",
      "lon": "-9.030120487108663",
      "lat": "38.51809150745017"
    },
    {
      "id": "pt.ine.add.PTCONT.5107364",
      "street": "R FR JOÃO PINHEIRO",
      "house": "",
      "postcode": "2925-735",
      "city": "AZEITÃO",
      "lon": "-9.03068400892354",
      "lat": "38.51915016226521"
    }
  ]
}