{
  "data": {
    "distrito": "Aveiro",
    "concelho": "Oliveira de Azeméis",
    "freguesia": "União das freguesias de Nogueira do Cravo e Pindelo",
    "OBJECTID": 531,
    "BGRI2021": "01132000214",
    "DT21": "01",
    "DTMN21": "0113",
    "DTMNFR21": "011320",
    "DTMNFRSEC21": "011320002",
    "SECNUM21": "002",
    "SSNUM21": "14",
    "SECSSNUM21": "00214",
    "OBJECTID_1": 8980,
    "DT": "01",
    "CC": "13",
    "fr": "20",
    "SEC": "002",
    "SS": "14"
  },
  "addresses": [
    {
      "id": "pt.ine.add.PTCONT.306499",
      "street": "R TERRAS DE S MARIA",
      "house": "322",
      "postcode": "3700-771",
      "city": "NOGUEIRA DO CRAVO OAZ",
      "lon": "-8.451522214525754",
      "lat": "40.89079231753312"
    },
    {
      "id": "pt.ine.add.PTCONT.310743",
      "street": "R NSA SRA DOS PRAZERES",
      "house": "138",
      "postcode": "3700-771",
      "city": "NOGUEIRA DO CRAVO OAZ",
      "lon": "-8.450905576175865",
      "lat": "40.89087506136242"
    },
    {
      "id": "pt.ine.add.PTCONT.322657",
      "street": "R MANUEL PEREIRA GODINHO",
      "house": "317",
      "postcode": "3700-784",
      "city": "NOGUEIRA DO CRAVO OAZ",
      "lon": "-8.449906950602884",
      "lat": "40.89048159804088"
    },
    {
      "id": "pt.ine.add.PTCONT.325290",
      "street": "R MANUEL PEREIRA GODINHO",
      "house": "279",
      "postcode": "3700-784",
      "city": "NOGUEIRA DO CRAVO OAZ",
      "lon": "-8.45001232532305",
      "lat": "40.890184150559676"
    },
    {
      "id": "pt.ine.add.PTCONT.328349",
      "street": "R MANUEL PEREIRA GODINHO",
      "house": "237",
      "postcode": "3700-784",
      "city": "NOGUEIRA DO CRAVO OAZ",
      "lon": "-8.450343147899146",
      "lat": "40.88988608308598"
    },
    {
      "id": "pt.ine.add.PTCONT.333662",
      "street": "R MANUEL PEREIRA GODINHO",
      "house": "287",
      "postcode": "3700-784",
      "city": "NOGUEIRA DO CRAVO OAZ",
      "lon": "-8.449953683699597",
      "lat": "40.89032838827776"
    },
    {
      "id": "pt.ine.add.PTCONT.6869",
      "street": "R NSA SRA DOS PRAZERES",
      "house": "128",
      "postcode": "3700-771",
      "city": "NOGUEIRA DO CRAVO OAZ",
      "lon": "-8.450738807620436",
      "lat": "40.89074044895704"
    },
    {
      "id": "pt.ine.add.PTCONT.30160",
      "street": "R NSA SRA DOS PRAZERES",
      "house": "326",
      "postcode": "3700-771",
      "city": "NOGUEIRA DO CRAVO OAZ",
      "lon": "-8.450302436305149",
      "lat": "40.89129994665613"
    },
    {
      "id": "pt.ine.add.PTCONT.32741",
      "street": "R NSA SRA DOS PRAZERES",
      "house": "358",
      "postcode": "3700-771",
      "city": "NOGUEIRA DO CRAVO OAZ",
      "lon": "-8.450087602438602",
      "lat": "40.89103939848726"
    },
    {
      "id": "pt.ine.add.PTCONT.39041",
      "street": "R ENG FERNANDO SOARES DAVID",
      "house": "40",
      "postcode": "3700-757",
      "city": "NOGUEIRA DO CRAVO OAZ",
      "lon": "-8.450994642310837",
      "lat": "40.88965016478832"
    },
    {
      "id": "pt.ine.add.PTCONT.40074",
      "street": "R ENG FERNANDO SOARES DAVID",
      "house": "64",
      "postcode": "3700-757",
      "city": "NOGUEIRA DO CRAVO OAZ",
      "lon": "-8.451149672272297",
      "lat": "40.88981182358652"
    },
    {
      "id": "pt.ine.add.PTCONT.48899",
      "street": "R TERRAS DE S MARIA",
      "house": "338",
      "postcode": "3700-771",
      "city": "NOGUEIRA DO CRAVO OAZ",
      "lon": "-8.451439584890931",
      "lat": "40.89088259349219"
    },
    {
      "id": "pt.ine.add.PTCONT.57396",
      "street": "R ENG FERNANDO SOARES DAVID",
      "house": "10",
      "postcode": "3700-757",
      "city": "NOGUEIRA DO CRAVO OAZ",
      "lon": "-8.450709263132522",
      "lat": "40.88952488394883"
    },
    {
      "id": "pt.ine.add.PTCONT.84101",
      "street": "R TERRAS DE S MARIA",
      "house": "186",
      "postcode": "3700-771",
      "city": "NOGUEIRA DO CRAVO OAZ",
      "lon": "-8.45162848931164",
      "lat": "40.890683966641646"
    },
    {
      "id": "pt.ine.add.PTCONT.86152",
      "street": "R NSA SRA DOS PRAZERES",
      "house": "270",
      "postcode": "3700-771",
      "city": "NOGUEIRA DO CRAVO OAZ",
      "lon": "-8.450813620958705",
      "lat": "40.89149664495349"
    },
    {
      "id": "pt.ine.add.PTCONT.101146",
      "street": "R NSA SRA DOS PRAZERES",
      "house": "150",
      "postcode": "3700-771",
      "city": "NOGUEIRA DO CRAVO OAZ",
      "lon": "-8.450965552076426",
      "lat": "40.89100996788709"
    },
    {
      "id": "pt.ine.add.PTCONT.122175",
      "street": "R NOSSA SRA DOS PRAZERES",
      "house": "125",
      "postcode": "3700-771",
      "city": "NOGUEIRA DO CRAVO OAZ",
      "lon": "-8.451165634254096",
      "lat": "40.89066723440094"
    },
    {
      "id": "pt.ine.add.PTCONT.128863",
      "street": "R NOSSA SRA DOS PRAZERES",
      "house": "111",
      "postcode": "3700-771",
      "city": "NOGUEIRA DO CRAVO OAZ",
      "lon": "-8.451164728747603",
      "lat": "40.89047813636733"
    },
    {
      "id": "pt.ine.add.PTCONT.135552",
      "street": "R NSA SRA DOS PRAZERES",
      "house": "82",
      "postcode": "3700-771",
      "city": "NOGUEIRA DO CRAVO OAZ",
      "lon": "-8.450677971361001",
      "lat": "40.89042544892989"
    },
    {
      "id": "pt.ine.add.PTCONT.138250",
      "street": "R NSA SRA DOS PRAZERES",
      "house": "344",
      "postcode": "3700-771",
      "city": "NOGUEIRA DO CRAVO OAZ",
      "lon": "-8.450218686583097",
      "lat": "40.89115610037393"
    },
    {
      "id": "pt.ine.add.PTCONT.160614",
      "street": "R MANUEL PEREIRA GODINHO",
      "house": "241",
      "postcode": "3700-784",
      "city": "NOGUEIRA DO CRAVO OAZ",
      "lon": "-8.450236915269864",
      "lat": "40.890003437481106"
    },
    {
      "id": "pt.ine.add.PTCONT.160615",
      "street": "R NSA SRA DOS PRAZERES",
      "house": "180",
      "postcode": "3700-771",
      "city": "NOGUEIRA DO CRAVO OAZ",
      "lon": "-8.45103743727487",
      "lat": "40.891153846335314"
    },
    {
      "id": "pt.ine.add.PTCONT.170801",
      "street": "LG ESCOLA MARIA GODINHO",
      "house": "3",
      "postcode": "3700-782",
      "city": "NOGUEIRA DO CRAVO OAZ",
      "lon": "-8.449884077850035",
      "lat": "40.89066175661137"
    },
    {
      "id": "pt.ine.add.PTCONT.179111",
      "street": "R NSA SRA DOS PRAZERES",
      "house": "98",
      "postcode": "3700-771",
      "city": "NOGUEIRA DO CRAVO OAZ",
      "lon": "-8.450749855296907",
      "lat": "40.89056932757658"
    },
    {
      "id": "pt.ine.add.PTCONT.182195",
      "street": "R NOSSA SRA DOS PRAZERES",
      "house": "89",
      "postcode": "3700-771",
      "city": "NOGUEIRA DO CRAVO OAZ",
      "lon": "-8.451104666708721",
      "lat": "40.89032522059609"
    },
    {
      "id": "pt.ine.add.PTCONT.199204",
      "street": "R NSA SRA DOS PRAZERES",
      "house": "250",
      "postcode": "3700-771",
      "city": "NOGUEIRA DO CRAVO OAZ",
      "lon": "-8.451003649557817",
      "lat": "40.89153214048034"
    },
    {
      "id": "pt.ine.add.PTCONT.204383",
      "street": "R NSA SRA DOS PRAZERES",
      "house": "141",
      "postcode": "3700-771",
      "city": "NOGUEIRA DO CRAVO OAZ",
      "lon": "-8.451118645042316",
      "lat": "40.89076641662891"
    },
    {
      "id": "pt.ine.add.PTCONT.212729",
      "street": "R NOSSA SRA DOS PRAZERES",
      "house": "",
      "postcode": "3700-771",
      "city": "NOGUEIRA DO CRAVO OAZ",
      "lon": "-8.451285673246867",
      "lat": "40.890955056487"
    },
    {
      "id": "pt.ine.add.PTCONT.218328",
      "street": "R NOSSA SRA DOS PRAZERES",
      "house": "153",
      "postcode": "3700-771",
      "city": "NOGUEIRA DO CRAVO OAZ",
      "lon": "-8.451154544516106",
      "lat": "40.89082935114657"
    }
  ]
}