{
  "data": {
    "distrito": "Aveiro",
    "concelho": "Oliveira de Azeméis",
    "freguesia": "União das freguesias de Nogueira do Cravo e Pindelo",
    "OBJECTID": 282,
    "BGRI2021": "01132000217",
    "DT21": "01",
    "DTMN21": "0113",
    "DTMNFR21": "011320",
    "DTMNFRSEC21": "011320002",
    "SECNUM21": "002",
    "SSNUM21": "17",
    "SECSSNUM21": "00217",
    "OBJECTID_1": 8984,
    "DT": "01",
    "CC": "13",
    "fr": "20",
    "SEC": "002",
    "SS": "17"
  },
  "addresses": [
    {
      "id": "pt.ine.add.PTCONT.301644",
      "street": "PCT OURO",
      "house": "35",
      "postcode": "3700-793",
      "city": "NOGUEIRA DO CRAVO OAZ",
      "lon": "-8.459849631380745",
      "lat": "40.89268704586624"
    },
    {
      "id": "pt.ine.add.PTCONT.306288",
      "street": "AV BRASIL",
      "house": "11",
      "postcode": "3700-793",
      "city": "NOGUEIRA DO CRAVO OAZ",
      "lon": "-8.459637590738037",
      "lat": "40.89058953161156"
    },
    {
      "id": "pt.ine.add.PTCONT.320216",
      "street": "AV EUROPA",
      "house": "50",
      "postcode": "3700-793",
      "city": "NOGUEIRA DO CRAVO OAZ",
      "lon": "-8.459765325024554",
      "lat": "40.890021868359405"
    },
    {
      "id": "pt.ine.add.PTCONT.322558",
      "street": "AV FRANCA",
      "house": "133",
      "postcode": "3700-793",
      "city": "NOGUEIRA DO CRAVO OAZ",
      "lon": "-8.459269882326462",
      "lat": "40.89061758641466"
    },
    {
      "id": "pt.ine.add.PTCONT.335469",
      "street": "PCT OURO",
      "house": "16",
      "postcode": "3700-793",
      "city": "NOGUEIRA DO CRAVO OAZ",
      "lon": "-8.459528579721885",
      "lat": "40.892552883215046"
    },
    {
      "id": "pt.ine.add.PTCONT.335470",
      "street": "PCT OURO",
      "house": "54",
      "postcode": "3700-793",
      "city": "NOGUEIRA DO CRAVO OAZ",
      "lon": "-8.459541463849732",
      "lat": "40.89275995675498"
    },
    {
      "id": "pt.ine.add.PTCONT.9497",
      "street": "AV EUROPA",
      "house": "352",
      "postcode": "3700-793",
      "city": "NOGUEIRA DO CRAVO OAZ",
      "lon": "-8.46009860022287",
      "lat": "40.89264131635505"
    },
    {
      "id": "pt.ine.add.PTCONT.39040",
      "street": "PCT OURO",
      "house": "7",
      "postcode": "3700-793",
      "city": "NOGUEIRA DO CRAVO OAZ",
      "lon": "-8.45981274818391",
      "lat": "40.892426011644346"
    },
    {
      "id": "pt.ine.add.PTCONT.41754",
      "street": "AV EUROPA",
      "house": "368",
      "postcode": "3700-793",
      "city": "NOGUEIRA DO CRAVO OAZ",
      "lon": "-8.460099043560751",
      "lat": "40.892731362925396"
    },
    {
      "id": "pt.ine.add.PTCONT.44524",
      "street": "AV FRANCA",
      "house": "173",
      "postcode": "3700-793",
      "city": "NOGUEIRA DO CRAVO OAZ",
      "lon": "-8.459473194557049",
      "lat": "40.8909411835682"
    },
    {
      "id": "pt.ine.add.PTCONT.47221",
      "street": "AV FRANCA",
      "house": "157",
      "postcode": "3700-793",
      "city": "NOGUEIRA DO CRAVO OAZ",
      "lon": "-8.45937742689749",
      "lat": "40.89077036359536"
    },
    {
      "id": "pt.ine.add.PTCONT.66677",
      "street": "MOUTADO",
      "house": "",
      "postcode": "3700-800",
      "city": "NOGUEIRA DO CRAVO OAZ",
      "lon": "-8.459196768467466",
      "lat": "40.89264386966445"
    },
    {
      "id": "pt.ine.add.PTCONT.87901",
      "street": "AV EUROPA",
      "house": "314",
      "postcode": "3700-793",
      "city": "NOGUEIRA DO CRAVO OAZ",
      "lon": "-8.460049805587978",
      "lat": "40.892371311194744"
    },
    {
      "id": "pt.ine.add.PTCONT.112285",
      "street": "URB MINA DO PINTOR",
      "house": "",
      "postcode": "3700-800",
      "city": "NOGUEIRA DO CRAVO OAZ",
      "lon": "-8.461360763011502",
      "lat": "40.89111592255118"
    },
    {
      "id": "pt.ine.add.PTCONT.138187",
      "street": "AV REAL CLUBE NOGUEIRENSE",
      "house": "107",
      "postcode": "3700-793",
      "city": "NOGUEIRA DO CRAVO OAZ",
      "lon": "-8.459244321735337",
      "lat": "40.89266174477123"
    },
    {
      "id": "pt.ine.add.PTCONT.160474",
      "street": "PCT OURO",
      "house": "34",
      "postcode": "3700-793",
      "city": "NOGUEIRA DO CRAVO OAZ",
      "lon": "-8.459540977009244",
      "lat": "40.892660905522504"
    },
    {
      "id": "pt.ine.add.PTCONT.167604",
      "street": "AV EUROPA",
      "house": "336",
      "postcode": "3700-793",
      "city": "NOGUEIRA DO CRAVO OAZ",
      "lon": "-8.460062115029931",
      "lat": "40.89246132413168"
    },
    {
      "id": "pt.ine.add.PTCONT.168128",
      "street": "MINA PINTOR",
      "house": "",
      "postcode": "3700-793",
      "city": "NOGUEIRA DO CRAVO OAZ",
      "lon": "-8.459185760443845",
      "lat": "40.89040170940606"
    },
    {
      "id": "pt.ine.add.PTCONT.202300",
      "street": "AV EUROPA",
      "house": "384",
      "postcode": "3700-793",
      "city": "NOGUEIRA DO CRAVO OAZ",
      "lon": "-8.460111663489723",
      "lat": "40.892884408448275"
    },
    {
      "id": "pt.ine.add.PTCONT.223668",
      "street": "PCT OURO",
      "house": "23",
      "postcode": "3700-793",
      "city": "NOGUEIRA DO CRAVO OAZ",
      "lon": "-8.45983732218278",
      "lat": "40.89259703290924"
    },
    {
      "id": "pt.ine.add.PTCONT.229042",
      "street": "PCT OURO",
      "house": "55",
      "postcode": "3700-793",
      "city": "NOGUEIRA DO CRAVO OAZ",
      "lon": "-8.459874161271966",
      "lat": "40.892849062457785"
    },
    {
      "id": "pt.ine.add.PTCONT.245441",
      "street": "R REBELAES",
      "house": "219",
      "postcode": "3700-793",
      "city": "NOGUEIRA DO CRAVO OAZ",
      "lon": "-8.459361005297515",
      "lat": "40.8898429170353"
    },
    {
      "id": "pt.ine.add.PTCONT.280508",
      "street": "AV FRANCA",
      "house": "103",
      "postcode": "3700-793",
      "city": "NOGUEIRA DO CRAVO OAZ",
      "lon": "-8.459114565598425",
      "lat": "40.890401910666995"
    }
  ]
}