{
  "data": {
    "distrito": "Porto",
    "concelho": "Felgueiras",
    "freguesia": "Refontoura",
    "OBJECTID": 893,
    "BGRI2021": "13031700110",
    "DT21": "13",
    "DTMN21": "1303",
    "DTMNFR21": "130317",
    "DTMNFRSEC21": "130317001",
    "SECNUM21": "001",
    "SSNUM21": "10",
    "SECSSNUM21": "00110",
    "OBJECTID_1": 128156,
    "DT": "13",
    "CC": "03",
    "fr": "17",
    "SEC": "001",
    "SS": "10"
  },
  "addresses": [
    {
      "id": "pt.ine.add.PTCONT.3591197",
      "street": "",
      "house": "",
      "postcode": "4610-700",
      "city": "REFONTOURA",
      "lon": "-8.178300077249082",
      "lat": "41.33326091420454"
    },
    {
      "id": "pt.ine.add.PTCONT.3660838",
      "street": "",
      "house": "",
      "postcode": "4615-440",
      "city": "",
      "lon": "-8.176853821731962",
      "lat": "41.3320819340696"
    },
    {
      "id": "pt.ine.add.PTCONT.3702091",
      "street": "",
      "house": "",
      "postcode": "4615-440",
      "city": "",
      "lon": "-8.177260300739333",
      "lat": "41.33255899691871"
    },
    {
      "id": "pt.ine.add.PTCONT.3750193",
      "street": "",
      "house": "",
      "postcode": "4610-680",
      "city": "REFONTOURA",
      "lon": "-8.178991707106867",
      "lat": "41.33149583419926"
    },
    {
      "id": "pt.ine.add.PTCONT.3754509",
      "street": "",
      "house": "",
      "postcode": "4610-700",
      "city": "REFONTOURA",
      "lon": "-8.177356202844122",
      "lat": "41.333054186332845"
    },
    {
      "id": "pt.ine.add.PTCONT.3759726",
      "street": "",
      "house": "",
      "postcode": "4610-700",
      "city": "REFONTOURA",
      "lon": "-8.176663216881856",
      "lat": "41.33287436838756"
    },
    {
      "id": "pt.ine.add.PTCONT.3784030",
      "street": "",
      "house": "",
      "postcode": "4610-680",
      "city": "REFONTOURA",
      "lon": "-8.17877621325291",
      "lat": "41.33082061119765"
    },
    {
      "id": "pt.ine.add.PTCONT.3882349",
      "street": "",
      "house": "",
      "postcode": "4610-700",
      "city": "REFONTOURA",
      "lon": "-8.178957157932466",
      "lat": "41.33333268723909"
    },
    {
      "id": "pt.ine.add.PTCONT.3897610",
      "street": "",
      "house": "",
      "postcode": "4610-700",
      "city": "REFONTOURA",
      "lon": "-8.178932369897423",
      "lat": "41.3320541129733"
    },
    {
      "id": "pt.ine.add.PTCONT.3915692",
      "street": "",
      "house": "",
      "postcode": "4610-680",
      "city": "REFONTOURA",
      "lon": "-8.17887189113165",
      "lat": "41.33098264729243"
    },
    {
      "id": "pt.ine.add.PTCONT.3915693",
      "street": "",
      "house": "",
      "postcode": "4610-680",
      "city": "REFONTOURA",
      "lon": "-8.17887189113165",
      "lat": "41.33098264729243"
    },
    {
      "id": "pt.ine.add.PTCONT.3915694",
      "street": "",
      "house": "",
      "postcode": "4610-680",
      "city": "REFONTOURA",
      "lon": "-8.17887189113165",
      "lat": "41.33098264729243"
    },
    {
      "id": "pt.ine.add.PTCONT.3991715",
      "street": "",
      "house": "",
      "postcode": "4615-440",
      "city": "",
      "lon": "-8.176961551204982",
      "lat": "41.332406041192584"
    },
    {
      "id": "pt.ine.add.PTCONT.3928825",
      "street": "",
      "house": "",
      "postcode": "4610-700",
      "city": "REFONTOURA",
      "lon": "-8.17919581806309",
      "lat": "41.33296342329344"
    },
    {
      "id": "pt.ine.add.PTCONT.3947135",
      "street": "",
      "house": "",
      "postcode": "4610-700",
      "city": "REFONTOURA",
      "lon": "-8.178610648271048",
      "lat": "41.33322477539401"
    },
    {
      "id": "pt.ine.add.PTCONT.3966177",
      "street": "",
      "house": "",
      "postcode": "4610-700",
      "city": "REFONTOURA",
      "lon": "-8.178896746912015",
      "lat": "41.332360267039974"
    },
    {
      "id": "pt.ine.add.PTCONT.3985530",
      "street": "",
      "house": "",
      "postcode": "4610-675",
      "city": "",
      "lon": "-8.178108811069084",
      "lat": "41.33307190277182"
    },
    {
      "id": "pt.ine.add.PTCONT.3985529",
      "street": "",
      "house": "",
      "postcode": "4610-675",
      "city": "",
      "lon": "-8.178108811069084",
      "lat": "41.33307190277182"
    },
    {
      "id": "pt.ine.add.PTCONT.3991714",
      "street": "",
      "house": "",
      "postcode": "4615-440",
      "city": "",
      "lon": "-8.176961551204982",
      "lat": "41.332406041192584"
    },
    {
      "id": "pt.ine.add.PTCONT.3991716",
      "street": "",
      "house": "",
      "postcode": "4615-440",
      "city": "",
      "lon": "-8.176961551204982",
      "lat": "41.332406041192584"
    },
    {
      "id": "pt.ine.add.PTCONT.3998035",
      "street": "",
      "house": "",
      "postcode": "4610-700",
      "city": "REFONTOURA",
      "lon": "-8.17927966858238",
      "lat": "41.333287537754444"
    },
    {
      "id": "pt.ine.add.PTCONT.4110017",
      "street": "",
      "house": "",
      "postcode": "4610-700",
      "city": "REFONTOURA",
      "lon": "-8.179112082398504",
      "lat": "41.33280138275181"
    },
    {
      "id": "pt.ine.add.PTCONT.4096826",
      "street": "",
      "house": "",
      "postcode": "4610-700",
      "city": "REFONTOURA",
      "lon": "-8.177786251454531",
      "lat": "41.333045016091944"
    },
    {
      "id": "pt.ine.add.PTCONT.4103011",
      "street": "",
      "house": "",
      "postcode": "4610-680",
      "city": "REFONTOURA",
      "lon": "-8.179122970207494",
      "lat": "41.33129769125304"
    },
    {
      "id": "pt.ine.add.PTCONT.4122487",
      "street": "",
      "house": "",
      "postcode": "4610-700",
      "city": "REFONTOURA",
      "lon": "-8.17721279659786",
      "lat": "41.33297320435495"
    },
    {
      "id": "pt.ine.add.PTCONT.4139299",
      "street": "",
      "house": "",
      "postcode": "4610-700",
      "city": "REFONTOURA",
      "lon": "-8.177523458595077",
      "lat": "41.33307213013906"
    },
    {
      "id": "pt.ine.add.PTCONT.4214472",
      "street": "",
      "house": "",
      "postcode": "4610-680",
      "city": "REFONTOURA",
      "lon": "-8.178991473353207",
      "lat": "41.33116268200848"
    },
    {
      "id": "pt.ine.add.PTCONT.4260051",
      "street": "VITOR FARIA",
      "house": "",
      "postcode": "4610-670",
      "city": "REFONTOURA",
      "lon": "-8.17710384730198",
      "lat": "41.3308392708182"
    },
    {
      "id": "pt.ine.add.PTCONT.4277625",
      "street": "",
      "house": "",
      "postcode": "4610-700",
      "city": "REFONTOURA",
      "lon": "-8.176794658236982",
      "lat": "41.33292834325379"
    },
    {
      "id": "pt.ine.add.PTCONT.4277626",
      "street": "",
      "house": "",
      "postcode": "4610-700",
      "city": "REFONTOURA",
      "lon": "-8.176794658236982",
      "lat": "41.33292834325379"
    },
    {
      "id": "pt.ine.add.PTCONT.4284069",
      "street": "",
      "house": "",
      "postcode": "4610-700",
      "city": "REFONTOURA",
      "lon": "-8.177499419955526",
      "lat": "41.33285604069491"
    },
    {
      "id": "pt.ine.add.PTCONT.4284070",
      "street": "",
      "house": "",
      "postcode": "4610-700",
      "city": "REFONTOURA",
      "lon": "-8.179016357010061",
      "lat": "41.332576318130975"
    },
    {
      "id": "pt.ine.add.PTCONT.4284071",
      "street": "",
      "house": "",
      "postcode": "4610-700",
      "city": "REFONTOURA",
      "lon": "-8.179231738473812",
      "lat": "41.33308046237537"
    },
    {
      "id": "pt.ine.add.PTCONT.4321595",
      "street": "IN√ÅCIO",
      "house": "",
      "postcode": "4610-670",
      "city": "REFONTOURA",
      "lon": "-8.177282957730649",
      "lat": "41.33073115281646"
    },
    {
      "id": "pt.ine.add.PTCONT.4373013",
      "street": "",
      "house": "",
      "postcode": "4610-700",
      "city": "REFONTOURA",
      "lon": "-8.178300077249082",
      "lat": "41.33326091420454"
    },
    {
      "id": "pt.ine.add.PTCONT.4383455",
      "street": "LUGAR DO PANASCAL",
      "house": "",
      "postcode": "4610-700",
      "city": "REFONTOURA",
      "lon": "-8.178789869671803",
      "lat": "41.33326972496658"
    }
  ]
}