{
  "data": {
    "distrito": "Guarda",
    "concelho": "Guarda",
    "freguesia": "Vela",
    "OBJECTID": 937,
    "BGRI2021": "09074800118",
    "DT21": "09",
    "DTMN21": "0907",
    "DTMNFR21": "090748",
    "DTMNFRSEC21": "090748001",
    "SECNUM21": "001",
    "SSNUM21": "18",
    "SECSSNUM21": "00118",
    "OBJECTID_1": 78122,
    "DT": "09",
    "CC": "07",
    "fr": "48",
    "SEC": "001",
    "SS": "18"
  },
  "addresses": [
    {
      "id": "pt.ine.add.PTCONT.1901540",
      "street": "QTA DA FEITEIRA",
      "house": "",
      "postcode": "6300-242",
      "city": "VELA",
      "lon": "-7.3109126855467546",
      "lat": "40.451729245656466"
    },
    {
      "id": "pt.ine.add.PTCONT.1906125",
      "street": "QTA DO SOITO DA LAURA",
      "house": "",
      "postcode": "6300-242",
      "city": "VELA",
      "lon": "-7.315375772642003",
      "lat": "40.46378303083357"
    },
    {
      "id": "pt.ine.add.PTCONT.1906126",
      "street": "QTA DOS INGLESES",
      "house": "",
      "postcode": "6300-242",
      "city": "VELA",
      "lon": "-7.316098089931431",
      "lat": "40.46352698426122"
    },
    {
      "id": "pt.ine.add.PTCONT.1916795",
      "street": "QTA DA LAMEIRA",
      "house": "",
      "postcode": "6300-242",
      "city": "VELA",
      "lon": "-7.314904874492437",
      "lat": "40.46178051515713"
    },
    {
      "id": "pt.ine.add.PTCONT.1958072",
      "street": "QTA MANUEL BIDARRA",
      "house": "",
      "postcode": "6300-242",
      "city": "VELA",
      "lon": "-7.315956940979667",
      "lat": "40.46252639485101"
    },
    {
      "id": "pt.ine.add.PTCONT.1962995",
      "street": "QTA FONSECA PINA",
      "house": "",
      "postcode": "6300-242",
      "city": "VELA",
      "lon": "-7.315798556428115",
      "lat": "40.46586625169855"
    },
    {
      "id": "pt.ine.add.PTCONT.1974485",
      "street": "QTA FONSECA PINA",
      "house": "",
      "postcode": "6300-242",
      "city": "VELA",
      "lon": "-7.31569310358938",
      "lat": "40.465811474021265"
    },
    {
      "id": "pt.ine.add.PTCONT.1866214",
      "street": "QTA JOAQUIM BIDARRA",
      "house": "",
      "postcode": "6300-242",
      "city": "VELA",
      "lon": "-7.315599659024579",
      "lat": "40.465738770530585"
    },
    {
      "id": "pt.ine.add.PTCONT.1867718",
      "street": "QTA DA LAMEIRA",
      "house": "",
      "postcode": "6300-242",
      "city": "VELA",
      "lon": "-7.314984120380121",
      "lat": "40.462051236028316"
    },
    {
      "id": "pt.ine.add.PTCONT.1867719",
      "street": "QTA DA FEITEIRA",
      "house": "",
      "postcode": "6300-242",
      "city": "VELA",
      "lon": "-7.310185871415655",
      "lat": "40.44946373156017"
    },
    {
      "id": "pt.ine.add.PTCONT.1868533",
      "street": "QTA DA FEITEIRA",
      "house": "",
      "postcode": "6300-242",
      "city": "VELA",
      "lon": "-7.311458802202748",
      "lat": "40.448509214270146"
    },
    {
      "id": "pt.ine.add.PTCONT.1880074",
      "street": "",
      "house": "",
      "postcode": "6300-242",
      "city": "VELA",
      "lon": "-7.31105811039541",
      "lat": "40.45430580817145"
    },
    {
      "id": "pt.ine.add.PTCONT.1885855",
      "street": "",
      "house": "",
      "postcode": "6300-242",
      "city": "VELA",
      "lon": "-7.313283309277225",
      "lat": "40.45939161729714"
    }
  ]
}