{
  "data": {
    "distrito": "Viseu",
    "concelho": "Mangualde",
    "freguesia": "Espinho",
    "OBJECTID": 657,
    "BGRI2021": "18060600154",
    "DT21": "18",
    "DTMN21": "1806",
    "DTMNFR21": "180606",
    "DTMNFRSEC21": "180606001",
    "SECNUM21": "001",
    "SSNUM21": "54",
    "SECSSNUM21": "00154",
    "OBJECTID_1": 192007,
    "DT": "18",
    "CC": "06",
    "fr": "06",
    "SEC": "001",
    "SS": "54"
  },
  "addresses": [
    {
      "id": "pt.ine.add.PTCONT.5429249",
      "street": "R PRINCIPAL",
      "house": "34",
      "postcode": "3530-060",
      "city": "ESPINHO MGL",
      "lon": "-7.80211826622246",
      "lat": "40.5822897502244"
    },
    {
      "id": "pt.ine.add.PTCONT.5438235",
      "street": "R PRINCIPAL",
      "house": "38",
      "postcode": "3530-060",
      "city": "ESPINHO MGL",
      "lon": "-7.802551644989505",
      "lat": "40.583029422970036"
    },
    {
      "id": "pt.ine.add.PTCONT.5484149",
      "street": "R PRINCIPAL",
      "house": "28",
      "postcode": "3530-060",
      "city": "ESPINHO MGL",
      "lon": "-7.800910089576469",
      "lat": "40.58059329183012"
    },
    {
      "id": "pt.ine.add.PTCONT.5492873",
      "street": "TV INSUAS",
      "house": "2",
      "postcode": "3530-060",
      "city": "ESPINHO MGL",
      "lon": "-7.800495905779785",
      "lat": "40.580754194848616"
    },
    {
      "id": "pt.ine.add.PTCONT.5504334",
      "street": "R PRINCIPAL",
      "house": "24",
      "postcode": "3530-060",
      "city": "ESPINHO MGL",
      "lon": "-7.800994012772598",
      "lat": "40.58034138560402"
    },
    {
      "id": "pt.ine.add.PTCONT.5516393",
      "street": "R PRINCIPAL",
      "house": "36",
      "postcode": "3530-060",
      "city": "ESPINHO MGL",
      "lon": "-7.802353602785367",
      "lat": "40.582470529617446"
    },
    {
      "id": "pt.ine.add.PTCONT.5524423",
      "street": "CRZT AGUA LEVADA",
      "house": "",
      "postcode": "3530-060",
      "city": "ESPINHO MGL",
      "lon": "-7.804727093826549",
      "lat": "40.585007780466476"
    },
    {
      "id": "pt.ine.add.PTCONT.5532473",
      "street": "R PRINCIPAL",
      "house": "40",
      "postcode": "3530-060",
      "city": "ESPINHO MGL",
      "lon": "-7.802645825281681",
      "lat": "40.583092729289866"
    },
    {
      "id": "pt.ine.add.PTCONT.5536713",
      "street": "R PRINCIPAL",
      "house": "30-A",
      "postcode": "3530-060",
      "city": "ESPINHO MGL",
      "lon": "-7.80120367039095",
      "lat": "40.580936335922445"
    },
    {
      "id": "pt.ine.add.PTCONT.5536714",
      "street": "R PRINCIPAL",
      "house": "44",
      "postcode": "3530-060",
      "city": "ESPINHO MGL",
      "lon": "-7.803116729408088",
      "lat": "40.58340925973719"
    },
    {
      "id": "pt.ine.add.PTCONT.5542335",
      "street": "TV PONTE",
      "house": "2",
      "postcode": "3530-060",
      "city": "ESPINHO MGL",
      "lon": "-7.800994858944943",
      "lat": "40.58017028791739"
    },
    {
      "id": "pt.ine.add.PTCONT.5547787",
      "street": "R PRINCIPAL",
      "house": "50",
      "postcode": "3530-060",
      "city": "ESPINHO MGL",
      "lon": "-7.803444751193861",
      "lat": "40.583959517448626"
    },
    {
      "id": "pt.ine.add.PTCONT.5553962",
      "street": "TV INSUAS",
      "house": "4",
      "postcode": "3530-060",
      "city": "ESPINHO MGL",
      "lon": "-7.8002947632331505",
      "lat": "40.58082565767058"
    },
    {
      "id": "pt.ine.add.PTCONT.5554916",
      "street": "R PRINCIPAL",
      "house": "46A",
      "postcode": "3530-060",
      "city": "ESPINHO MGL",
      "lon": "-7.803410864349645",
      "lat": "40.58364423648756"
    },
    {
      "id": "pt.ine.add.PTCONT.5563507",
      "street": "TV PONTE",
      "house": "1",
      "postcode": "3530-060",
      "city": "ESPINHO MGL",
      "lon": "-7.801124822376308",
      "lat": "40.580161656216696"
    },
    {
      "id": "pt.ine.add.PTCONT.5563508",
      "street": "R PRINCIPAL",
      "house": "48",
      "postcode": "3530-060",
      "city": "ESPINHO MGL",
      "lon": "-7.80343400084856",
      "lat": "40.58374336042818"
    },
    {
      "id": "pt.ine.add.PTCONT.5565206",
      "street": "R PRINCIPAL",
      "house": "30",
      "postcode": "3530-060",
      "city": "ESPINHO MGL",
      "lon": "-7.801169572940863",
      "lat": "40.580666079890804"
    },
    {
      "id": "pt.ine.add.PTCONT.5567744",
      "street": "R PRINCIPAL",
      "house": "26",
      "postcode": "3530-060",
      "city": "ESPINHO MGL",
      "lon": "-7.80105262169679",
      "lat": "40.580431606781545"
    },
    {
      "id": "pt.ine.add.PTCONT.5587688",
      "street": "TV INSUAS",
      "house": "1",
      "postcode": "3530-060",
      "city": "ESPINHO MGL",
      "lon": "-7.800482667509814",
      "lat": "40.58104232531855"
    },
    {
      "id": "pt.ine.add.PTCONT.5608596",
      "street": "R PRINCIPAL",
      "house": "36 A",
      "postcode": "3530-060",
      "city": "ESPINHO MGL",
      "lon": "-7.802599909709379",
      "lat": "40.58282243996498"
    },
    {
      "id": "pt.ine.add.PTCONT.5636620",
      "street": "R ESCOLA",
      "house": "",
      "postcode": "3530-060",
      "city": "ESPINHO MGL",
      "lon": "-7.799651383720412",
      "lat": "40.58194946070704"
    },
    {
      "id": "pt.ine.add.PTCONT.5656812",
      "street": "R PRINCIPAL",
      "house": "32",
      "postcode": "3530-060",
      "city": "ESPINHO MGL",
      "lon": "-7.801379455537654",
      "lat": "40.58121600416613"
    },
    {
      "id": "pt.ine.add.PTCONT.5669694",
      "street": "R PRINCIPAL",
      "house": "42",
      "postcode": "3530-060",
      "city": "ESPINHO MGL",
      "lon": "-7.80286966473388",
      "lat": "40.583210437864764"
    }
  ]
}