{
  "data": {
    "distrito": "Santarém",
    "concelho": "Cartaxo",
    "freguesia": "Pontével",
    "OBJECTID": 147,
    "BGRI2021": "14060400104",
    "DT21": "14",
    "DTMN21": "1406",
    "DTMNFR21": "140604",
    "DTMNFRSEC21": "140604001",
    "SECNUM21": "001",
    "SSNUM21": "04",
    "SECSSNUM21": "00104",
    "OBJECTID_1": 149440,
    "DT": "14",
    "CC": "06",
    "fr": "04",
    "SEC": "001",
    "SS": "04"
  },
  "addresses": [
    {
      "id": "pt.ine.add.PTCONT.4393591",
      "street": "R CASAIS DO LATAGAO QTA DA CARIDADE",
      "house": "",
      "postcode": "2070-455",
      "city": "PONTÉVEL",
      "lon": "-8.835870401813224",
      "lat": "39.11546138084619"
    },
    {
      "id": "pt.ine.add.PTCONT.4393592",
      "street": "URB QUINTA DA CARIDADE",
      "house": "35",
      "postcode": "2070-455",
      "city": "PONTÉVEL",
      "lon": "-8.83689187260729",
      "lat": "39.114698593966665"
    },
    {
      "id": "pt.ine.add.PTCONT.4397831",
      "street": "R FIGUEIRAL",
      "house": "",
      "postcode": "2070-361",
      "city": "PONTÉVEL",
      "lon": "-8.848871149683815",
      "lat": "39.12162442587673"
    },
    {
      "id": "pt.ine.add.PTCONT.4401789",
      "street": "CSL TELEGRAFOS",
      "house": "",
      "postcode": "2070-463",
      "city": "PONTÉVEL",
      "lon": "-8.844539277089781",
      "lat": "39.11861544267885"
    },
    {
      "id": "pt.ine.add.PTCONT.4401790",
      "street": "R FICTICIO",
      "house": "",
      "postcode": "2070-463",
      "city": "PONTÉVEL",
      "lon": "-8.84180859689213",
      "lat": "39.118433912648705"
    },
    {
      "id": "pt.ine.add.PTCONT.4401799",
      "street": "URB QUINTA DA CARIDADE",
      "house": "38",
      "postcode": "2070-455",
      "city": "PONTÉVEL",
      "lon": "-8.837332021831795",
      "lat": "39.11477700276737"
    },
    {
      "id": "pt.ine.add.PTCONT.4406071",
      "street": "R LIBERDADE",
      "house": "",
      "postcode": "2070-368",
      "city": "PONTÉVEL",
      "lon": "-8.843890298940318",
      "lat": "39.116169381205204"
    },
    {
      "id": "pt.ine.add.PTCONT.4408657",
      "street": "R TELEGRAFOS",
      "house": "",
      "postcode": "2070-463",
      "city": "PONTÉVEL",
      "lon": "-8.845131860135487",
      "lat": "39.11660316840405"
    },
    {
      "id": "pt.ine.add.PTCONT.4410259",
      "street": "URB QUINTA DA CARIDADE",
      "house": "40",
      "postcode": "2070-455",
      "city": "PONTÉVEL",
      "lon": "-8.83772592534974",
      "lat": "39.11485568943797"
    },
    {
      "id": "pt.ine.add.PTCONT.4421864",
      "street": "R CASAIS TELEGRAFOS CASA DO CABECO",
      "house": "",
      "postcode": "2070-463",
      "city": "PONTÉVEL",
      "lon": "-8.844426371586314",
      "lat": "39.11888635445449"
    },
    {
      "id": "pt.ine.add.PTCONT.4426620",
      "street": "URB QUINTA DA CARIDADE",
      "house": "20",
      "postcode": "2070-455",
      "city": "PONTÉVEL",
      "lon": "-8.83817422714141",
      "lat": "39.11459176327375"
    },
    {
      "id": "pt.ine.add.PTCONT.4431169",
      "street": "URB QUINTA DA CARIDADE",
      "house": "2",
      "postcode": "2070-455",
      "city": "PONTÉVEL",
      "lon": "-8.836689950360745",
      "lat": "39.114159366724515"
    },
    {
      "id": "pt.ine.add.PTCONT.4434724",
      "street": "URB QUINTA CARIDADE",
      "house": "1",
      "postcode": "2070-455",
      "city": "PONTÉVEL",
      "lon": "-8.837130096009107",
      "lat": "39.114237776327684"
    },
    {
      "id": "pt.ine.add.PTCONT.4441698",
      "street": "R TELEGRAFOS",
      "house": "",
      "postcode": "2070-463",
      "city": "PONTÉVEL",
      "lon": "-8.845054049207947",
      "lat": "39.118062846902376"
    },
    {
      "id": "pt.ine.add.PTCONT.4442961",
      "street": "URB QUINTA DA CARIDADE",
      "house": "",
      "postcode": "2070-455",
      "city": "PONTÉVEL",
      "lon": "-8.837445665636526",
      "lat": "39.114578152628084"
    },
    {
      "id": "pt.ine.add.PTCONT.4449236",
      "street": "URB QUINTA DA CARIDADE",
      "house": "44",
      "postcode": "2070-455",
      "city": "PONTÉVEL",
      "lon": "-8.837839657883665",
      "lat": "39.114665845818415"
    },
    {
      "id": "pt.ine.add.PTCONT.4451277",
      "street": "CASAIA TELEGRAFOS",
      "house": "1",
      "postcode": "2070-361",
      "city": "PONTÉVEL",
      "lon": "-8.848725825472059",
      "lat": "39.11983284137364"
    },
    {
      "id": "pt.ine.add.PTCONT.4453293",
      "street": "R FICTICIO",
      "house": "",
      "postcode": "2070-463",
      "city": "PONTÉVEL",
      "lon": "-8.843096615649735",
      "lat": "39.11888545367539"
    },
    {
      "id": "pt.ine.add.PTCONT.4456598",
      "street": "R CASAIS TELEGRAFOS CASA DA HERAS",
      "house": "",
      "postcode": "2070-463",
      "city": "PONTÉVEL",
      "lon": "-8.844184015839664",
      "lat": "39.11893287019568"
    },
    {
      "id": "pt.ine.add.PTCONT.4456599",
      "street": "URB QUINTA DA CARIDADE",
      "house": "41",
      "postcode": "2070-455",
      "city": "PONTÉVEL",
      "lon": "-8.837958235454714",
      "lat": "39.1149623742431"
    },
    {
      "id": "pt.ine.add.PTCONT.4459827",
      "street": "URB QUINTA DA CARIDADE",
      "house": "",
      "postcode": "2070-455",
      "city": "PONTÉVEL",
      "lon": "-8.83647422077752",
      "lat": "39.11455699571492"
    },
    {
      "id": "pt.ine.add.PTCONT.4459828",
      "street": "URB QUINTA CARIDADE",
      "house": "4",
      "postcode": "2070-455",
      "city": "PONTÉVEL",
      "lon": "-8.83676747716721",
      "lat": "39.11381661622294"
    },
    {
      "id": "pt.ine.add.PTCONT.4468803",
      "street": "R CASAIS DO LATAGAO",
      "house": "",
      "postcode": "2070-370",
      "city": "PONTÉVEL",
      "lon": "-8.837885269018685",
      "lat": "39.12156526082735"
    },
    {
      "id": "pt.ine.add.PTCONT.4474069",
      "street": "R TELEGRAFOS",
      "house": "",
      "postcode": "2070-368",
      "city": "PONTÉVEL",
      "lon": "-8.844407835526107",
      "lat": "39.118192895765006"
    },
    {
      "id": "pt.ine.add.PTCONT.4474091",
      "street": "URB QUINTA DA CARIDADE",
      "house": "30",
      "postcode": "2070-455",
      "city": "PONTÉVEL",
      "lon": "-8.837408649518217",
      "lat": "39.1143441829638"
    },
    {
      "id": "pt.ine.add.PTCONT.4476494",
      "street": "R FIGUEIRAL",
      "house": "",
      "postcode": "2070-361",
      "city": "PONTÉVEL",
      "lon": "-8.849519278667225",
      "lat": "39.12053955397081"
    },
    {
      "id": "pt.ine.add.PTCONT.4481755",
      "street": "URB QUINTA DA CARIDADE",
      "house": "",
      "postcode": "2070-455",
      "city": "PONTÉVEL",
      "lon": "-8.838164370968745",
      "lat": "39.11476296413768"
    },
    {
      "id": "pt.ine.add.PTCONT.4481809",
      "street": "R TELEGRAFOS",
      "house": "",
      "postcode": "2070-463",
      "city": "PONTÉVEL",
      "lon": "-8.843276435101284",
      "lat": "39.11606503335729"
    },
    {
      "id": "pt.ine.add.PTCONT.4484781",
      "street": "URB QUINTA CARIDADE",
      "house": "26",
      "postcode": "2070-455",
      "city": "PONTÉVEL",
      "lon": "-8.837596235757182",
      "lat": "39.114604265094776"
    },
    {
      "id": "pt.ine.add.PTCONT.4486322",
      "street": "URB QUINTA DA CARIDADE",
      "house": "3",
      "postcode": "2070-455",
      "city": "PONTÉVEL",
      "lon": "-8.836523700678637",
      "lat": "39.113719005631815"
    },
    {
      "id": "pt.ine.add.PTCONT.4491319",
      "street": "URB QUINTA DA CARIDADE",
      "house": "42",
      "postcode": "2070-455",
      "city": "PONTÉVEL",
      "lon": "-8.838109345101815",
      "lat": "39.11504252738287"
    },
    {
      "id": "pt.ine.add.PTCONT.4495440",
      "street": "URB QUINTA CARIDADE",
      "house": "36/37",
      "postcode": "2070-455",
      "city": "PONTÉVEL",
      "lon": "-8.837134398172918",
      "lat": "39.11467010722912"
    },
    {
      "id": "pt.ine.add.PTCONT.4499571",
      "street": "R FIGUEIRAL",
      "house": "",
      "postcode": "2070-361",
      "city": "PONTÉVEL",
      "lon": "-8.848024701031711",
      "lat": "39.12368331159698"
    },
    {
      "id": "pt.ine.add.PTCONT.4533486",
      "street": "URB QUINTA DA CARIDADE",
      "house": "15",
      "postcode": "2070-455",
      "city": "PONTÉVEL",
      "lon": "-8.838345496649277",
      "lat": "39.11437454884316"
    },
    {
      "id": "pt.ine.add.PTCONT.4535022",
      "street": "URB QUINTA DA CARIDADE",
      "house": "25",
      "postcode": "2070-455",
      "city": "PONTÉVEL",
      "lon": "-8.837640329611812",
      "lat": "39.11438782018042"
    },
    {
      "id": "pt.ine.add.PTCONT.4535023",
      "street": "R TELEGRAFOS",
      "house": "",
      "postcode": "2070-361",
      "city": "PONTÉVEL",
      "lon": "-8.848375673170828",
      "lat": "39.11951072321042"
    },
    {
      "id": "pt.ine.add.PTCONT.4536284",
      "street": "URB QUINTA DA CARIDADE",
      "house": "45",
      "postcode": "2070-455",
      "city": "PONTÉVEL",
      "lon": "-8.83826878489954",
      "lat": "39.11479836231697"
    },
    {
      "id": "pt.ine.add.PTCONT.4537825",
      "street": "R FIGUEIRAL",
      "house": "2",
      "postcode": "2070-361",
      "city": "PONTÉVEL",
      "lon": "-8.849747153551105",
      "lat": "39.12020487869583"
    },
    {
      "id": "pt.ine.add.PTCONT.4541505",
      "street": "R TELEGRAFOS",
      "house": "",
      "postcode": "2070-463",
      "city": "PONTÉVEL",
      "lon": "-8.845003087163587",
      "lat": "39.11759477194475"
    },
    {
      "id": "pt.ine.add.PTCONT.4550485",
      "street": "R CASAIS TELEGRAFOS CASA DA MAE",
      "house": "",
      "postcode": "2070-463",
      "city": "PONTÉVEL",
      "lon": "-8.844482733866393",
      "lat": "39.11874189170808"
    },
    {
      "id": "pt.ine.add.PTCONT.4550501",
      "street": "URB QUINTA CARIDADE",
      "house": "8",
      "postcode": "2070-455",
      "city": "PONTÉVEL",
      "lon": "-8.837335783534357",
      "lat": "39.11399333318966"
    },
    {
      "id": "pt.ine.add.PTCONT.4550502",
      "street": "URB QUINTA CARIDADE",
      "house": "17",
      "postcode": "2070-455",
      "city": "PONTÉVEL",
      "lon": "-8.83861285015096",
      "lat": "39.11451705008519"
    },
    {
      "id": "pt.ine.add.PTCONT.4558934",
      "street": "URB QUINTA DA CARIDADE",
      "house": "21",
      "postcode": "2070-455",
      "city": "PONTÉVEL",
      "lon": "-8.837953569279323",
      "lat": "39.11449401587166"
    },
    {
      "id": "pt.ine.add.PTCONT.4561041",
      "street": "R TELEGRAFOS QTA DOS TELEGRAFOS",
      "house": "",
      "postcode": "2070-463",
      "city": "PONTÉVEL",
      "lon": "-8.844655046572399",
      "lat": "39.11747980033172"
    },
    {
      "id": "pt.ine.add.PTCONT.4561053",
      "street": "URB QUINTA DA CARIDADE",
      "house": "23",
      "postcode": "2070-455",
      "city": "PONTÉVEL",
      "lon": "-8.838283758057937",
      "lat": "39.11514055422808"
    },
    {
      "id": "pt.ine.add.PTCONT.4565306",
      "street": "URB QUINTA DA CARIDADE",
      "house": "10",
      "postcode": "2070-455",
      "city": "PONTÉVEL",
      "lon": "-8.837672054388042",
      "lat": "39.11409038308222"
    },
    {
      "id": "pt.ine.add.PTCONT.4567381",
      "street": "URB QUINTA DA CARIDADE",
      "house": "11",
      "postcode": "2070-455",
      "city": "PONTÉVEL",
      "lon": "-8.837846284943913",
      "lat": "39.11417039683909"
    },
    {
      "id": "pt.ine.add.PTCONT.4573531",
      "street": "URB QUINTA DA CARIDADE",
      "house": "7",
      "postcode": "2070-455",
      "city": "PONTÉVEL",
      "lon": "-8.837127407203699",
      "lat": "39.113967569497774"
    },
    {
      "id": "pt.ine.add.PTCONT.4598548",
      "street": "CASAIS TELEGRAFOS",
      "house": "",
      "postcode": "2070-368",
      "city": "PONTÉVEL",
      "lon": "-8.84430341357078",
      "lat": "39.11815750317997"
    },
    {
      "id": "pt.ine.add.PTCONT.4598558",
      "street": "URB QUINTA DA CARIDADE",
      "house": "",
      "postcode": "2070-455",
      "city": "PONTÉVEL",
      "lon": "-8.837756394032693",
      "lat": "39.11443215584652"
    },
    {
      "id": "pt.ine.add.PTCONT.4604700",
      "street": "R FICTICIO",
      "house": "",
      "postcode": "2070-463",
      "city": "PONTÉVEL",
      "lon": "-8.842957144855557",
      "lat": "39.118814243649744"
    },
    {
      "id": "pt.ine.add.PTCONT.4617408",
      "street": "URB QUINTA DA CARIDADE",
      "house": "",
      "postcode": "2070-455",
      "city": "PONTÉVEL",
      "lon": "-8.83803647487793",
      "lat": "39.11469167812707"
    },
    {
      "id": "pt.ine.add.PTCONT.4623536",
      "street": "URB QUINTA DA CARIDADE",
      "house": "6",
      "postcode": "2070-455",
      "city": "PONTÉVEL",
      "lon": "-8.836883808896477",
      "lat": "39.11388797346148"
    },
    {
      "id": "pt.ine.add.PTCONT.4633199",
      "street": "R FIGUEIRAL QTA DAS OLIVEIRAS",
      "house": "",
      "postcode": "2070-361",
      "city": "PONTÉVEL",
      "lon": "-8.847463850790263",
      "lat": "39.12311027530822"
    },
    {
      "id": "pt.ine.add.PTCONT.4647386",
      "street": "URB QUINTA DA CARIDADE",
      "house": "",
      "postcode": "2070-455",
      "city": "PONTÉVEL",
      "lon": "-8.836137859785458",
      "lat": "39.114450935484236"
    },
    {
      "id": "pt.ine.add.PTCONT.4651413",
      "street": "R TELEGRAFOS",
      "house": "",
      "postcode": "2070-368",
      "city": "PONTÉVEL",
      "lon": "-8.845005937191756",
      "lat": "39.119026935278434"
    },
    {
      "id": "pt.ine.add.PTCONT.4652391",
      "street": "URB QUINTA DA CARIDADE",
      "house": "39",
      "postcode": "2070-455",
      "city": "PONTÉVEL",
      "lon": "-8.837482592337055",
      "lat": "39.114803115376475"
    },
    {
      "id": "pt.ine.add.PTCONT.4654360",
      "street": "URB QUINTA DA CARIDADE",
      "house": "26",
      "postcode": "2070-455",
      "city": "PONTÉVEL",
      "lon": "-8.83750114217202",
      "lat": "39.114343624119634"
    },
    {
      "id": "pt.ine.add.PTCONT.4658888",
      "street": "R FIGUEIRAL QTA DAS OLIVEIRAS",
      "house": "",
      "postcode": "2070-361",
      "city": "PONTÉVEL",
      "lon": "-8.847463850790263",
      "lat": "39.12311027530822"
    }
  ]
}