{
  "data": {
    "distrito": "Santarém",
    "concelho": "Cartaxo",
    "freguesia": "Pontével",
    "OBJECTID": 370,
    "BGRI2021": "14060400113",
    "DT21": "14",
    "DTMN21": "1406",
    "DTMNFR21": "140604",
    "DTMNFRSEC21": "140604001",
    "SECNUM21": "001",
    "SSNUM21": "13",
    "SECSSNUM21": "00113",
    "OBJECTID_1": 149830,
    "DT": "14",
    "CC": "06",
    "fr": "04",
    "SEC": "001",
    "SS": "13"
  },
  "addresses": [
    {
      "id": "pt.ine.add.PTCONT.4393569",
      "street": "R SESMARIAS",
      "house": "",
      "postcode": "2070-366",
      "city": "PONTÉVEL",
      "lon": "-8.833038695555974",
      "lat": "39.126089166420265"
    },
    {
      "id": "pt.ine.add.PTCONT.4404371",
      "street": "R CASAIS DO LATAGAO",
      "house": "",
      "postcode": "2070-366",
      "city": "PONTÉVEL",
      "lon": "-8.835295289297942",
      "lat": "39.129741612519155"
    },
    {
      "id": "pt.ine.add.PTCONT.4404372",
      "street": "BC RUA DA VOLTA CASAL VARA",
      "house": "12",
      "postcode": "2070-366",
      "city": "PONTÉVEL",
      "lon": "-8.833574343786603",
      "lat": "39.12879718122046"
    },
    {
      "id": "pt.ine.add.PTCONT.4410295",
      "street": "R VOLTA",
      "house": "29",
      "postcode": "2070-366",
      "city": "PONTÉVEL",
      "lon": "-8.83189197678566",
      "lat": "39.13058173957636"
    },
    {
      "id": "pt.ine.add.PTCONT.4414720",
      "street": "R CASAIS DO LATAGAO",
      "house": "23",
      "postcode": "2070-366",
      "city": "PONTÉVEL",
      "lon": "-8.836329020929243",
      "lat": "39.12437596794282"
    },
    {
      "id": "pt.ine.add.PTCONT.4414835",
      "street": "R VOLTA",
      "house": "7",
      "postcode": "2070-366",
      "city": "PONTÉVEL",
      "lon": "-8.82962425848316",
      "lat": "39.132829150609645"
    },
    {
      "id": "pt.ine.add.PTCONT.4420417",
      "street": "R VOLTA",
      "house": "17",
      "postcode": "2070-366",
      "city": "PONTÉVEL",
      "lon": "-8.830511269459807",
      "lat": "39.13247255778171"
    },
    {
      "id": "pt.ine.add.PTCONT.4422412",
      "street": "R CASAIS LATAGAO",
      "house": "35",
      "postcode": "2070-366",
      "city": "PONTÉVEL",
      "lon": "-8.836676809271152",
      "lat": "39.125625900544684"
    },
    {
      "id": "pt.ine.add.PTCONT.4434723",
      "street": "R CASAIS LATAGAO",
      "house": "55",
      "postcode": "2070-366",
      "city": "PONTÉVEL",
      "lon": "-8.836739459978057",
      "lat": "39.128435836179136"
    },
    {
      "id": "pt.ine.add.PTCONT.4434851",
      "street": "R VOLTA",
      "house": "21",
      "postcode": "2070-366",
      "city": "PONTÉVEL",
      "lon": "-8.830793984304616",
      "lat": "39.13182233232563"
    },
    {
      "id": "pt.ine.add.PTCONT.4436698",
      "street": "BC RUA VOLTA",
      "house": "14",
      "postcode": "2070-366",
      "city": "PONTÉVEL",
      "lon": "-8.834183572064195",
      "lat": "39.12842421455124"
    },
    {
      "id": "pt.ine.add.PTCONT.4447169",
      "street": "BC RUA DA VOLTA",
      "house": "",
      "postcode": "2070-366",
      "city": "PONTÉVEL",
      "lon": "-8.833306708735824",
      "lat": "39.12979861217691"
    },
    {
      "id": "pt.ine.add.PTCONT.4453292",
      "street": "BC RUA DA VOLTA",
      "house": "",
      "postcode": "2070-366",
      "city": "PONTÉVEL",
      "lon": "-8.834938890080704",
      "lat": "39.128788973171964"
    },
    {
      "id": "pt.ine.add.PTCONT.4456924",
      "street": "BC DA RUA DA VOLTA",
      "house": "",
      "postcode": "2070-366",
      "city": "PONTÉVEL",
      "lon": "-8.832611792339838",
      "lat": "39.12969469558558"
    },
    {
      "id": "pt.ine.add.PTCONT.4468809",
      "street": "R VOLTA",
      "house": "27A",
      "postcode": "2070-366",
      "city": "PONTÉVEL",
      "lon": "-8.831526102177081",
      "lat": "39.1310072808043"
    },
    {
      "id": "pt.ine.add.PTCONT.4470388",
      "street": "R FALAGUEIRAS",
      "house": "33",
      "postcode": "2070-366",
      "city": "PONTÉVEL",
      "lon": "-8.832099532156336",
      "lat": "39.132859370004795"
    },
    {
      "id": "pt.ine.add.PTCONT.4472107",
      "street": "R CASAIS DO LATAGAO",
      "house": "",
      "postcode": "2070-366",
      "city": "PONTÉVEL",
      "lon": "-8.836185211075241",
      "lat": "39.127358290798725"
    },
    {
      "id": "pt.ine.add.PTCONT.4476493",
      "street": "R CASAIS DO LATAGAO",
      "house": "",
      "postcode": "2070-366",
      "city": "PONTÉVEL",
      "lon": "-8.837151989508174",
      "lat": "39.12689307726275"
    },
    {
      "id": "pt.ine.add.PTCONT.4476622",
      "street": "R FALAGUEIRAS",
      "house": "27",
      "postcode": "2070-366",
      "city": "PONTÉVEL",
      "lon": "-8.832847221161252",
      "lat": "39.13244955039461"
    },
    {
      "id": "pt.ine.add.PTCONT.4476623",
      "street": "R FALAGUEIRAS",
      "house": "27",
      "postcode": "2070-366",
      "city": "PONTÉVEL",
      "lon": "-8.832847221161252",
      "lat": "39.13244955039461"
    },
    {
      "id": "pt.ine.add.PTCONT.4480306",
      "street": "R FALAGUEIRAS",
      "house": "",
      "postcode": "2070-366",
      "city": "PONTÉVEL",
      "lon": "-8.836025095338936",
      "lat": "39.1287013612635"
    },
    {
      "id": "pt.ine.add.PTCONT.4480307",
      "street": "BC RUA VOLTA",
      "house": "14",
      "postcode": "2070-366",
      "city": "PONTÉVEL",
      "lon": "-8.834275100796006",
      "lat": "39.128324582443966"
    },
    {
      "id": "pt.ine.add.PTCONT.4480360",
      "street": "BC RUA DA VOLTA",
      "house": "6",
      "postcode": "2070-366",
      "city": "PONTÉVEL",
      "lon": "-8.833734848824461",
      "lat": "39.129823061742904"
    },
    {
      "id": "pt.ine.add.PTCONT.4493273",
      "street": "R VOLTA",
      "house": "33",
      "postcode": "2070-366",
      "city": "PONTÉVEL",
      "lon": "-8.832374557675841",
      "lat": "39.130263586059705"
    },
    {
      "id": "pt.ine.add.PTCONT.4498213",
      "street": "R SESMARIAS",
      "house": "18",
      "postcode": "2070-366",
      "city": "PONTÉVEL",
      "lon": "-8.833944090377862",
      "lat": "39.12526405117108"
    },
    {
      "id": "pt.ine.add.PTCONT.4499653",
      "street": "R VOLTA",
      "house": "11",
      "postcode": "2070-366",
      "city": "PONTÉVEL",
      "lon": "-8.82981943698511",
      "lat": "39.13268386556768"
    },
    {
      "id": "pt.ine.add.PTCONT.4505581",
      "street": "BC RUA VOLTA",
      "house": "18",
      "postcode": "2070-366",
      "city": "PONTÉVEL",
      "lon": "-8.835245124671173",
      "lat": "39.12818363214305"
    },
    {
      "id": "pt.ine.add.PTCONT.4510400",
      "street": "R CASAIS DO LATAGAO",
      "house": "33",
      "postcode": "2070-366",
      "city": "PONTÉVEL",
      "lon": "-8.836615856201876",
      "lat": "39.12531100878612"
    },
    {
      "id": "pt.ine.add.PTCONT.4511123",
      "street": "R SESMARIAS",
      "house": "18A",
      "postcode": "2070-366",
      "city": "PONTÉVEL",
      "lon": "-8.834246791923762",
      "lat": "39.12546940146857"
    },
    {
      "id": "pt.ine.add.PTCONT.4511362",
      "street": "R FALAGUEIRAS",
      "house": "11",
      "postcode": "2070-366",
      "city": "PONTÉVEL",
      "lon": "-8.833702246348594",
      "lat": "39.13120139172882"
    },
    {
      "id": "pt.ine.add.PTCONT.4511363",
      "street": "R FALAGUEIRAS",
      "house": "11",
      "postcode": "2070-366",
      "city": "PONTÉVEL",
      "lon": "-8.833702246348594",
      "lat": "39.13120139172882"
    },
    {
      "id": "pt.ine.add.PTCONT.4515704",
      "street": "R SESMARIAS",
      "house": "10",
      "postcode": "2070-366",
      "city": "PONTÉVEL",
      "lon": "-8.832946009189723",
      "lat": "39.12607170809517"
    },
    {
      "id": "pt.ine.add.PTCONT.4517887",
      "street": "R VOLTA",
      "house": "15",
      "postcode": "2070-366",
      "city": "PONTÉVEL",
      "lon": "-8.830060606626963",
      "lat": "39.13251128297746"
    },
    {
      "id": "pt.ine.add.PTCONT.4519736",
      "street": "R SESMARIAS",
      "house": "",
      "postcode": "2070-366",
      "city": "PONTÉVEL",
      "lon": "-8.834139417810478",
      "lat": "39.12513677274496"
    },
    {
      "id": "pt.ine.add.PTCONT.4525231",
      "street": "BC RUA DA VOLTA",
      "house": "",
      "postcode": "2070-366",
      "city": "PONTÉVEL",
      "lon": "-8.83397448146678",
      "lat": "39.12949735424314"
    },
    {
      "id": "pt.ine.add.PTCONT.4534001",
      "street": "R MARCELINO MESQUITA",
      "house": "63",
      "postcode": "2070-366",
      "city": "PONTÉVEL",
      "lon": "-8.830419536045286",
      "lat": "39.133725136497105"
    },
    {
      "id": "pt.ine.add.PTCONT.4538347",
      "street": "R VOLTA",
      "house": "31",
      "postcode": "2070-366",
      "city": "PONTÉVEL",
      "lon": "-8.832377497101985",
      "lat": "39.13056081304136"
    },
    {
      "id": "pt.ine.add.PTCONT.4541603",
      "street": "R FALAGUEIRAS",
      "house": "21",
      "postcode": "2070-366",
      "city": "PONTÉVEL",
      "lon": "-8.833005380190082",
      "lat": "39.132070289613225"
    },
    {
      "id": "pt.ine.add.PTCONT.4542313",
      "street": "R CASAIS DO LATAGAO",
      "house": "",
      "postcode": "2070-366",
      "city": "PONTÉVEL",
      "lon": "-8.837077407388637",
      "lat": "39.1263710975563"
    },
    {
      "id": "pt.ine.add.PTCONT.4555567",
      "street": "R LATAGAO",
      "house": "19",
      "postcode": "2070-366",
      "city": "PONTÉVEL",
      "lon": "-8.836199855554579",
      "lat": "39.12417858385187"
    },
    {
      "id": "pt.ine.add.PTCONT.4555568",
      "street": "R CASAIS DO LATAGAO",
      "house": "23",
      "postcode": "2070-366",
      "city": "PONTÉVEL",
      "lon": "-8.836386926615246",
      "lat": "39.12438462601451"
    },
    {
      "id": "pt.ine.add.PTCONT.4556840",
      "street": "R SESMARIAS",
      "house": "22",
      "postcode": "2070-366",
      "city": "PONTÉVEL",
      "lon": "-8.835655043403206",
      "lat": "39.12404675740606"
    },
    {
      "id": "pt.ine.add.PTCONT.4567396",
      "street": "R FALAGUEIRAS",
      "house": "5",
      "postcode": "2070-366",
      "city": "PONTÉVEL",
      "lon": "-8.8343507841987",
      "lat": "39.13012560988232"
    },
    {
      "id": "pt.ine.add.PTCONT.4575419",
      "street": "R CASAIS DO LATAGAO",
      "house": "27",
      "postcode": "2070-366",
      "city": "PONTÉVEL",
      "lon": "-8.836414531523044",
      "lat": "39.12483483045504"
    },
    {
      "id": "pt.ine.add.PTCONT.4579814",
      "street": "R FALAGUEIRAS",
      "house": "35",
      "postcode": "2070-366",
      "city": "PONTÉVEL",
      "lon": "-8.831860769823574",
      "lat": "39.13327514239355"
    },
    {
      "id": "pt.ine.add.PTCONT.4579815",
      "street": "R MARCELINO MESQUITA",
      "house": "65",
      "postcode": "2070-366",
      "city": "PONTÉVEL",
      "lon": "-8.831136907273818",
      "lat": "39.13375687224061"
    },
    {
      "id": "pt.ine.add.PTCONT.4594382",
      "street": "R CASAIS DO LATAGAO",
      "house": "45",
      "postcode": "2070-366",
      "city": "PONTÉVEL",
      "lon": "-8.837168839724265",
      "lat": "39.12626245632795"
    },
    {
      "id": "pt.ine.add.PTCONT.4594441",
      "street": "R FALAGUEIRAS",
      "house": "9",
      "postcode": "2070-366",
      "city": "PONTÉVEL",
      "lon": "-8.833908083541154",
      "lat": "39.130965961663314"
    },
    {
      "id": "pt.ine.add.PTCONT.4598534",
      "street": "R CASAIS DO LATAGAO",
      "house": "43A",
      "postcode": "2070-366",
      "city": "PONTÉVEL",
      "lon": "-8.836958992933058",
      "lat": "39.12609258270685"
    },
    {
      "id": "pt.ine.add.PTCONT.4603042",
      "street": "R CASAIS DO LATAGAO",
      "house": "",
      "postcode": "2070-366",
      "city": "PONTÉVEL",
      "lon": "-8.836830717385505",
      "lat": "39.12714722494606"
    },
    {
      "id": "pt.ine.add.PTCONT.4607035",
      "street": "R VOLTA",
      "house": "23",
      "postcode": "2070-366",
      "city": "PONTÉVEL",
      "lon": "-8.83227628280066",
      "lat": "39.13202062082953"
    },
    {
      "id": "pt.ine.add.PTCONT.4610903",
      "street": "R CASAIS DO LATAGAO",
      "house": "",
      "postcode": "2070-366",
      "city": "PONTÉVEL",
      "lon": "-8.836663987039579",
      "lat": "39.1266618309397"
    },
    {
      "id": "pt.ine.add.PTCONT.4612412",
      "street": "R CASAIS LATAGAO PONTEVEL",
      "house": "PONTEVEL",
      "postcode": "2070-366",
      "city": "PONTÉVEL",
      "lon": "-8.836663987039579",
      "lat": "39.1266618309397"
    },
    {
      "id": "pt.ine.add.PTCONT.4613089",
      "street": "R FALAGUEIRAS",
      "house": "3",
      "postcode": "2070-366",
      "city": "PONTÉVEL",
      "lon": "-8.834908993123912",
      "lat": "39.130437509725134"
    },
    {
      "id": "pt.ine.add.PTCONT.4617407",
      "street": "R CASAIS DO LATAGAO",
      "house": "25",
      "postcode": "2070-366",
      "city": "PONTÉVEL",
      "lon": "-8.836342464906775",
      "lat": "39.12456504265906"
    },
    {
      "id": "pt.ine.add.PTCONT.4619330",
      "street": "R SESMARIAS",
      "house": "",
      "postcode": "2070-366",
      "city": "PONTÉVEL",
      "lon": "-8.833599151788112",
      "lat": "39.125464287801556"
    },
    {
      "id": "pt.ine.add.PTCONT.4626176",
      "street": "R FALAGUEIRAS",
      "house": "39",
      "postcode": "2070-366",
      "city": "PONTÉVEL",
      "lon": "-8.83150591225281",
      "lat": "39.13364657291349"
    },
    {
      "id": "pt.ine.add.PTCONT.4628009",
      "street": "R SESMARIAS",
      "house": "14",
      "postcode": "2070-366",
      "city": "PONTÉVEL",
      "lon": "-8.833129688008869",
      "lat": "39.12593549388307"
    },
    {
      "id": "pt.ine.add.PTCONT.4635933",
      "street": "R FALAGUEIRAS",
      "house": "7",
      "postcode": "2070-366",
      "city": "PONTÉVEL",
      "lon": "-8.834632166745982",
      "lat": "39.13051123543036"
    },
    {
      "id": "pt.ine.add.PTCONT.4640265",
      "street": "R SESMARIAS",
      "house": "12",
      "postcode": "2070-366",
      "city": "PONTÉVEL",
      "lon": "-8.833326624006718",
      "lat": "39.12597034070744"
    },
    {
      "id": "pt.ine.add.PTCONT.4640266",
      "street": "R CASAIS DO LATAGAO",
      "house": "",
      "postcode": "2070-366",
      "city": "PONTÉVEL",
      "lon": "-8.837381647580802",
      "lat": "39.12672955641588"
    },
    {
      "id": "pt.ine.add.PTCONT.4640267",
      "street": "R VOLTA",
      "house": "19",
      "postcode": "2070-366",
      "city": "PONTÉVEL",
      "lon": "-8.83072673040489",
      "lat": "39.1320389127263"
    },
    {
      "id": "pt.ine.add.PTCONT.4642374",
      "street": "R CASAIS DO LATAGAO",
      "house": "21",
      "postcode": "2070-366",
      "city": "PONTÉVEL",
      "lon": "-8.835925740160523",
      "lat": "39.12452251888708"
    },
    {
      "id": "pt.ine.add.PTCONT.4652427",
      "street": "R MARCELINO MESQUITA",
      "house": "61",
      "postcode": "2070-366",
      "city": "PONTÉVEL",
      "lon": "-8.829818256826888",
      "lat": "39.133737739513776"
    },
    {
      "id": "pt.ine.add.PTCONT.4660690",
      "street": "R CASAIS DO LATAGAO",
      "house": "31",
      "postcode": "2070-366",
      "city": "PONTÉVEL",
      "lon": "-8.836590220822822",
      "lat": "39.125058955771436"
    },
    {
      "id": "pt.ine.add.PTCONT.4663044",
      "street": "R FALAGUEIRAS",
      "house": "19",
      "postcode": "2070-366",
      "city": "PONTÉVEL",
      "lon": "-8.833327580317103",
      "lat": "39.13190622109971"
    }
  ]
}