{
  "data": {
    "distrito": "Faro",
    "concelho": "Lagoa",
    "freguesia": "Uni√£o das freguesias de Lagoa e Carvoeiro",
    "OBJECTID": 163,
    "BGRI2021": "08060801424",
    "DT21": "08",
    "DTMN21": "0806",
    "DTMNFR21": "080608",
    "DTMNFRSEC21": "080608014",
    "SECNUM21": "014",
    "SSNUM21": "24",
    "SECSSNUM21": "01424",
    "OBJECTID_1": 66831,
    "DT": "08",
    "CC": "06",
    "fr": "08",
    "SEC": "014",
    "SS": "24"
  },
  "addresses": [
    {
      "id": "pt.ine.add.PTCONT.1484123",
      "street": "SIT URZAIS",
      "house": "",
      "postcode": "8400-412",
      "city": "LAGOA",
      "lon": "-8.43406774886864",
      "lat": "37.139259752897864"
    },
    {
      "id": "pt.ine.add.PTCONT.1487444",
      "street": "ESTR LAMEIRAS",
      "house": "",
      "postcode": "8400-410",
      "city": "LAGOA",
      "lon": "-8.43064633360311",
      "lat": "37.13928641153263"
    },
    {
      "id": "pt.ine.add.PTCONT.1493294",
      "street": "SIT LAMEIRAS",
      "house": "",
      "postcode": "8400-410",
      "city": "LAGOA",
      "lon": "-8.432696260561634",
      "lat": "37.142525055541"
    },
    {
      "id": "pt.ine.add.PTCONT.1507831",
      "street": "ESTR LAMEIRAS",
      "house": "",
      "postcode": "8400-410",
      "city": "LAGOA",
      "lon": "-8.419571434749415",
      "lat": "37.142278173700525"
    },
    {
      "id": "pt.ine.add.PTCONT.1513252",
      "street": "SIT LAMEIRAS",
      "house": "",
      "postcode": "8400-410",
      "city": "LAGOA",
      "lon": "-8.42675481602182",
      "lat": "37.1429003464576"
    },
    {
      "id": "pt.ine.add.PTCONT.1540904",
      "street": "SIT URZAIS",
      "house": "",
      "postcode": "8400-412",
      "city": "LAGOA",
      "lon": "-8.434416757508272",
      "lat": "37.13928589799658"
    },
    {
      "id": "pt.ine.add.PTCONT.1548049",
      "street": "ESTR LAMEIRAS",
      "house": "",
      "postcode": "8400-412",
      "city": "LAGOA",
      "lon": "-8.434709169991967",
      "lat": "37.139231090882916"
    },
    {
      "id": "pt.ine.add.PTCONT.1551240",
      "street": "SIT LAMEIRAS",
      "house": "",
      "postcode": "8400-410",
      "city": "LAGOA",
      "lon": "-8.428854600264902",
      "lat": "37.14161562435805"
    },
    {
      "id": "pt.ine.add.PTCONT.1554440",
      "street": "SIT LAMEIRAS",
      "house": "",
      "postcode": "8400-410",
      "city": "LAGOA",
      "lon": "-8.424117521293407",
      "lat": "37.14492521900398"
    },
    {
      "id": "pt.ine.add.PTCONT.1558064",
      "street": "ESTR LAMEIRAS",
      "house": "CX 281 L",
      "postcode": "8400-410",
      "city": "LAGOA",
      "lon": "-8.42485629012907",
      "lat": "37.1409227078787"
    },
    {
      "id": "pt.ine.add.PTCONT.1564205",
      "street": "SIT LAMEIRAS",
      "house": "",
      "postcode": "8400-410",
      "city": "LAGOA",
      "lon": "-8.426407184843365",
      "lat": "37.1432345983866"
    },
    {
      "id": "pt.ine.add.PTCONT.1569218",
      "street": "ESTR LAMEIRAS",
      "house": "",
      "postcode": "8400-410",
      "city": "LAGOA",
      "lon": "-8.4207964248351",
      "lat": "37.14178863575012"
    },
    {
      "id": "pt.ine.add.PTCONT.1589499",
      "street": "ESTR LAMEIRAS",
      "house": "261 L",
      "postcode": "8400-410",
      "city": "LAGOA",
      "lon": "-8.426732485566532",
      "lat": "37.140035038547346"
    },
    {
      "id": "pt.ine.add.PTCONT.1607582",
      "street": "ESTR LAMEIRAS",
      "house": "",
      "postcode": "8400-412",
      "city": "LAGOA",
      "lon": "-8.433347970306137",
      "lat": "37.139396736875014"
    },
    {
      "id": "pt.ine.add.PTCONT.1609132",
      "street": "SIT LAMEIRAS",
      "house": "",
      "postcode": "8400-410",
      "city": "LAGOA",
      "lon": "-8.423769731331754",
      "lat": "37.14522342122741"
    },
    {
      "id": "pt.ine.add.PTCONT.1620927",
      "street": "SIT LAMEIRAS",
      "house": "",
      "postcode": "8400-410",
      "city": "LAGOA",
      "lon": "-8.4324153378212",
      "lat": "37.14264290268538"
    },
    {
      "id": "pt.ine.add.PTCONT.1622957",
      "street": "SIT URZAIS",
      "house": "",
      "postcode": "8400-410",
      "city": "LAGOA",
      "lon": "-8.427822962890257",
      "lat": "37.13970795148712"
    },
    {
      "id": "pt.ine.add.PTCONT.1628203",
      "street": "ESTR LAMEIRAS",
      "house": "",
      "postcode": "8400-410",
      "city": "LAGOA",
      "lon": "-8.428871006883234",
      "lat": "37.14004774307865"
    },
    {
      "id": "pt.ine.add.PTCONT.1636680",
      "street": "ESTR LAMEIRAS",
      "house": "",
      "postcode": "8400-410",
      "city": "LAGOA",
      "lon": "-8.421336541189207",
      "lat": "37.14175128131536"
    },
    {
      "id": "pt.ine.add.PTCONT.1642407",
      "street": "SIT URZAIS",
      "house": "",
      "postcode": "8400-410",
      "city": "LAGOA",
      "lon": "-8.425979303144796",
      "lat": "37.14027117690063"
    },
    {
      "id": "pt.ine.add.PTCONT.1657292",
      "street": "ESTR LAMEIRAS",
      "house": "",
      "postcode": "8400-412",
      "city": "LAGOA",
      "lon": "-8.433876130450434",
      "lat": "37.139188154631505"
    },
    {
      "id": "pt.ine.add.PTCONT.1658917",
      "street": "ESTR VALA CASA BACELO DA BOLA",
      "house": "",
      "postcode": "8400-412",
      "city": "LAGOA",
      "lon": "-8.437391872938827",
      "lat": "37.14023341928105"
    },
    {
      "id": "pt.ine.add.PTCONT.1681647",
      "street": "SIT LAMEIRAS",
      "house": "",
      "postcode": "8400-410",
      "city": "LAGOA",
      "lon": "-8.422432867594813",
      "lat": "37.14590248480284"
    },
    {
      "id": "pt.ine.add.PTCONT.1704241",
      "street": "SIT LAMEIRAS",
      "house": "",
      "postcode": "8400-410",
      "city": "LAGOA",
      "lon": "-8.424252590109367",
      "lat": "37.14492488731192"
    },
    {
      "id": "pt.ine.add.PTCONT.1707193",
      "street": "SIT LAMEIRAS",
      "house": "",
      "postcode": "8400-410",
      "city": "LAGOA",
      "lon": "-8.43428001686762",
      "lat": "37.14170107986431"
    },
    {
      "id": "pt.ine.add.PTCONT.1716034",
      "street": "ESTR LAMEIRAS",
      "house": "",
      "postcode": "8400-410",
      "city": "LAGOA",
      "lon": "-8.424353857171228",
      "lat": "37.144915627955285"
    },
    {
      "id": "pt.ine.add.PTCONT.1722478",
      "street": "SIT LAMEIRAS QTA DA AVO MARTA",
      "house": "",
      "postcode": "8400-410",
      "city": "LAGOA",
      "lon": "-8.435302882211515",
      "lat": "37.141356074718715"
    },
    {
      "id": "pt.ine.add.PTCONT.1724331",
      "street": "SIT URZAIS",
      "house": "",
      "postcode": "8400-412",
      "city": "LAGOA",
      "lon": "-8.426361348553248",
      "lat": "37.140108041937374"
    },
    {
      "id": "pt.ine.add.PTCONT.1730190",
      "street": "ESTR LAMEIRAS",
      "house": "",
      "postcode": "8400-412",
      "city": "LAGOA",
      "lon": "-8.431288074645614",
      "lat": "37.13933886243083"
    },
    {
      "id": "pt.ine.add.PTCONT.1744930",
      "street": "ESTR LAMEIRAS",
      "house": "",
      "postcode": "8400-410",
      "city": "LAGOA",
      "lon": "-8.425816512068353",
      "lat": "37.14475884525597"
    },
    {
      "id": "pt.ine.add.PTCONT.1810684",
      "street": "SIT LAMEIRAS",
      "house": "",
      "postcode": "8400-410",
      "city": "LAGOA",
      "lon": "-8.43244761274724",
      "lat": "37.14226437709964"
    },
    {
      "id": "pt.ine.add.PTCONT.1810685",
      "street": "ESTR LAMEIRAS",
      "house": "",
      "postcode": "8400-410",
      "city": "LAGOA",
      "lon": "-8.421729585466688",
      "lat": "37.1415160499269"
    },
    {
      "id": "pt.ine.add.PTCONT.1813500",
      "street": "SIT LAMEIRAS",
      "house": "",
      "postcode": "8400-410",
      "city": "LAGOA",
      "lon": "-8.428731599096775",
      "lat": "37.14182317442079"
    },
    {
      "id": "pt.ine.add.PTCONT.1813501",
      "street": "ESTR LAMEIRAS",
      "house": "",
      "postcode": "8400-410",
      "city": "LAGOA",
      "lon": "-8.428369491025604",
      "lat": "37.14422088951073"
    },
    {
      "id": "pt.ine.add.PTCONT.1813555",
      "street": "SIT LAMEIRAS",
      "house": "",
      "postcode": "8400-410",
      "city": "LAGOA",
      "lon": "-8.421004702509139",
      "lat": "37.14625737454873"
    }
  ]
}