{
  "data": {
    "distrito": "Setúbal",
    "concelho": "Setúbal",
    "freguesia": "União das freguesias de Azeitão (São Lourenço e São Simão)",
    "OBJECTID": 459,
    "BGRI2021": "15120901804",
    "DT21": "15",
    "DTMN21": "1512",
    "DTMNFR21": "151209",
    "DTMNFRSEC21": "151209018",
    "SECNUM21": "018",
    "SSNUM21": "04",
    "SECSSNUM21": "01804",
    "OBJECTID_1": 170556,
    "DT": "15",
    "CC": "12",
    "fr": "09",
    "SEC": "018",
    "SS": "04"
  },
  "addresses": [
    {
      "id": "pt.ine.add.PTCONT.4668774",
      "street": "R RUY LUIS GOMES",
      "house": "",
      "postcode": "2925-689",
      "city": "AZEITÃO",
      "lon": "-9.015387091891974",
      "lat": "38.533166138479935"
    },
    {
      "id": "pt.ine.add.PTCONT.4701581",
      "street": "R JOAO VAZ CORTE REAL",
      "house": "1",
      "postcode": "2925-652",
      "city": "AZEITÃO",
      "lon": "-9.015298762177414",
      "lat": "38.53344605926313"
    },
    {
      "id": "pt.ine.add.PTCONT.4771176",
      "street": "R RUY LUIS GOMES",
      "house": "",
      "postcode": "2925-689",
      "city": "AZEITÃO",
      "lon": "-9.015215629650946",
      "lat": "38.53321247157926"
    },
    {
      "id": "pt.ine.add.PTCONT.4823905",
      "street": "R JOÃO VAZ CORTE REAL",
      "house": "",
      "postcode": "2925-652",
      "city": "AZEITÃO",
      "lon": "-9.01542435484587",
      "lat": "38.533400071718205"
    },
    {
      "id": "pt.ine.add.PTCONT.4827323",
      "street": "R JOÃO VAZ CORTE REAL",
      "house": "",
      "postcode": "2925-652",
      "city": "AZEITÃO",
      "lon": "-9.015549947352364",
      "lat": "38.533354084040106"
    },
    {
      "id": "pt.ine.add.PTCONT.4862813",
      "street": "R LEQUES",
      "house": "14",
      "postcode": "2925-604",
      "city": "AZEITÃO",
      "lon": "-9.015117591406243",
      "lat": "38.53363659708482"
    },
    {
      "id": "pt.ine.add.PTCONT.5036688",
      "street": "R JOÃO VAZ CORTE REAL",
      "house": "9 9A",
      "postcode": "2925-652",
      "city": "AZEITÃO",
      "lon": "-9.015743574288809",
      "lat": "38.53324452573764"
    },
    {
      "id": "pt.ine.add.PTCONT.5054681",
      "street": "R RUY LUIS GOMES",
      "house": "291",
      "postcode": "2925-689",
      "city": "AZEITÃO",
      "lon": "-9.015671797979525",
      "lat": "38.53300184453222"
    },
    {
      "id": "pt.ine.add.PTCONT.5080473",
      "street": "R RUY LUIS GOMES",
      "house": "",
      "postcode": "2925-689",
      "city": "AZEITÃO",
      "lon": "-9.015466594079577",
      "lat": "38.53310248173258"
    },
    {
      "id": "pt.ine.add.PTCONT.5118847",
      "street": "R LEQUES",
      "house": "15",
      "postcode": "2925-604",
      "city": "AZEITÃO",
      "lon": "-9.014978331250914",
      "lat": "38.53350252260448"
    }
  ]
}