{
  "data": {
    "distrito": "Viseu",
    "concelho": "Cinfães",
    "freguesia": "Cinfães",
    "OBJECTID": 738,
    "BGRI2021": "18040300207",
    "DT21": "18",
    "DTMN21": "1804",
    "DTMNFR21": "180403",
    "DTMNFRSEC21": "180403002",
    "SECNUM21": "002",
    "SSNUM21": "07",
    "SECSSNUM21": "00207",
    "OBJECTID_1": 189828,
    "DT": "18",
    "CC": "04",
    "fr": "03",
    "SEC": "002",
    "SS": "07"
  },
  "addresses": [
    {
      "id": "pt.ine.add.PTCONT.5429149",
      "street": "QTA SENRINHA",
      "house": "",
      "postcode": "4690-022",
      "city": "CINFÃES",
      "lon": "-8.095162626630135",
      "lat": "41.073912207893954"
    },
    {
      "id": "pt.ine.add.PTCONT.5432310",
      "street": "R DA SENRINHA",
      "house": "4",
      "postcode": "4690-892",
      "city": "CINFÃES",
      "lon": "-8.09653146315005",
      "lat": "41.07308423463325"
    },
    {
      "id": "pt.ine.add.PTCONT.5432617",
      "street": "",
      "house": "",
      "postcode": "4690-028",
      "city": "CINFÃES",
      "lon": "-8.090535388128648",
      "lat": "41.07166846545532"
    },
    {
      "id": "pt.ine.add.PTCONT.5434056",
      "street": "LG POMBAS",
      "house": "",
      "postcode": "4690-029",
      "city": "CINFÃES",
      "lon": "-8.090119215314338",
      "lat": "41.07124509834836"
    },
    {
      "id": "pt.ine.add.PTCONT.5434185",
      "street": "CC BENTO",
      "house": "",
      "postcode": "4690-024",
      "city": "CINFÃES",
      "lon": "-8.091368057309976",
      "lat": "41.07202895098527"
    },
    {
      "id": "pt.ine.add.PTCONT.5434513",
      "street": "SIT SITIO DO MINHOSO",
      "house": "",
      "postcode": "4690-034",
      "city": "CINFÃES",
      "lon": "-8.090785361162563",
      "lat": "41.07150647611528"
    },
    {
      "id": "pt.ine.add.PTCONT.5434514",
      "street": "SIT SITIO DO MINHOSO",
      "house": "",
      "postcode": "4690-034",
      "city": "CINFÃES",
      "lon": "-8.090785361162563",
      "lat": "41.07150647611528"
    },
    {
      "id": "pt.ine.add.PTCONT.5434515",
      "street": "",
      "house": "",
      "postcode": "4690-035",
      "city": "CINFÃES",
      "lon": "-8.090821541296108",
      "lat": "41.07075010938025"
    },
    {
      "id": "pt.ine.add.PTCONT.5434527",
      "street": "EM 1016",
      "house": "",
      "postcode": "4690-029",
      "city": "CINFÃES",
      "lon": "-8.0918569239842",
      "lat": "41.070390303673136"
    },
    {
      "id": "pt.ine.add.PTCONT.5434528",
      "street": "EM 1016",
      "house": "",
      "postcode": "4690-029",
      "city": "CINFÃES",
      "lon": "-8.0918569239842",
      "lat": "41.070390303673136"
    },
    {
      "id": "pt.ine.add.PTCONT.5434536",
      "street": "R SEM DESIGNACAO",
      "house": "",
      "postcode": "4690-022",
      "city": "CINFÃES",
      "lon": "-8.09522247799114",
      "lat": "41.073290915692716"
    },
    {
      "id": "pt.ine.add.PTCONT.5436279",
      "street": "LG MUSEU",
      "house": "",
      "postcode": "4690-040",
      "city": "CINFÃES",
      "lon": "-8.09104695597883",
      "lat": "41.07177670759124"
    },
    {
      "id": "pt.ine.add.PTCONT.5436280",
      "street": "",
      "house": "",
      "postcode": "4690-040",
      "city": "CINFÃES",
      "lon": "-8.09104695597883",
      "lat": "41.07177670759124"
    },
    {
      "id": "pt.ine.add.PTCONT.5436281",
      "street": "",
      "house": "",
      "postcode": "4690-040",
      "city": "CINFÃES",
      "lon": "-8.09104695597883",
      "lat": "41.07177670759124"
    },
    {
      "id": "pt.ine.add.PTCONT.5436317",
      "street": "R SENRINHA",
      "house": "",
      "postcode": "4690-022",
      "city": "CINFÃES",
      "lon": "-8.095662530010797",
      "lat": "41.07365124034507"
    },
    {
      "id": "pt.ine.add.PTCONT.5436318",
      "street": "R SEM DESIGNACAO",
      "house": "",
      "postcode": "4690-022",
      "city": "CINFÃES",
      "lon": "-8.095662530010797",
      "lat": "41.07365124034507"
    },
    {
      "id": "pt.ine.add.PTCONT.5436319",
      "street": "R SEM DESIGNACAO",
      "house": "",
      "postcode": "4690-022",
      "city": "CINFÃES",
      "lon": "-8.095662530010797",
      "lat": "41.07365124034507"
    },
    {
      "id": "pt.ine.add.PTCONT.5438031",
      "street": "LG MUSEU SERPA PINTO",
      "house": "",
      "postcode": "4690-028",
      "city": "CINFÃES",
      "lon": "-8.089833587524279",
      "lat": "41.07134404120146"
    },
    {
      "id": "pt.ine.add.PTCONT.5443690",
      "street": "SIT SITIO MINHOSO",
      "house": "",
      "postcode": "4690-034",
      "city": "CINFÃES",
      "lon": "-8.090488014987432",
      "lat": "41.07132627605358"
    },
    {
      "id": "pt.ine.add.PTCONT.5449111",
      "street": "LG POMBAS",
      "house": "",
      "postcode": "4690-029",
      "city": "CINFÃES",
      "lon": "-8.091689245864874",
      "lat": "41.07214612567017"
    },
    {
      "id": "pt.ine.add.PTCONT.5458391",
      "street": "SIT SITIO MINHOSO",
      "house": "",
      "postcode": "4690-034",
      "city": "CINFÃES",
      "lon": "-8.090428551770385",
      "lat": "41.07128123142699"
    },
    {
      "id": "pt.ine.add.PTCONT.5459997",
      "street": "R GEN HUMBERTO DELGADO",
      "house": "",
      "postcode": "4690-040",
      "city": "CINFÃES",
      "lon": "-8.093782951344823",
      "lat": "41.07290323902616"
    },
    {
      "id": "pt.ine.add.PTCONT.5459998",
      "street": "CRUZ BOUCAS",
      "house": "",
      "postcode": "4690-045",
      "city": "CINFÃES",
      "lon": "-8.096365642192351",
      "lat": "41.07171549452054"
    },
    {
      "id": "pt.ine.add.PTCONT.5467507",
      "street": "SIT SITIO MINHOSO",
      "house": "",
      "postcode": "4690-034",
      "city": "CINFÃES",
      "lon": "-8.089845651267375",
      "lat": "41.07109191906306"
    },
    {
      "id": "pt.ine.add.PTCONT.5467508",
      "street": "R SENRINHA",
      "house": "14",
      "postcode": "4690-022",
      "city": "CINFÃES",
      "lon": "-8.095031956572731",
      "lat": "41.07353397495095"
    },
    {
      "id": "pt.ine.add.PTCONT.5471643",
      "street": "R DR FLAVIO RESENDE",
      "house": "20",
      "postcode": "4690-038",
      "city": "CINFÃES",
      "lon": "-8.090749318900844",
      "lat": "41.07204673425222"
    },
    {
      "id": "pt.ine.add.PTCONT.5476406",
      "street": "R GEN HUMBERTO DELGADO",
      "house": "",
      "postcode": "4690-040",
      "city": "CINFÃES",
      "lon": "-8.093913784130637",
      "lat": "41.07299332881219"
    },
    {
      "id": "pt.ine.add.PTCONT.5476407",
      "street": "R GEN HUMBERTO DELGADO",
      "house": "",
      "postcode": "4690-040",
      "city": "CINFÃES",
      "lon": "-8.093913784130637",
      "lat": "41.07299332881219"
    },
    {
      "id": "pt.ine.add.PTCONT.5478207",
      "street": "",
      "house": "",
      "postcode": "4690-028",
      "city": "CINFÃES",
      "lon": "-8.090868397077212",
      "lat": "41.07190270559911"
    },
    {
      "id": "pt.ine.add.PTCONT.5478227",
      "street": "",
      "house": "",
      "postcode": "4690-031",
      "city": "CINFÃES",
      "lon": "-8.090999373278226",
      "lat": "41.07175868116757"
    },
    {
      "id": "pt.ine.add.PTCONT.5478240",
      "street": "SIT SITIO MINHOSO",
      "house": "",
      "postcode": "4690-034",
      "city": "CINFÃES",
      "lon": "-8.09066678151436",
      "lat": "41.07087611582928"
    },
    {
      "id": "pt.ine.add.PTCONT.5481852",
      "street": "R MINHOSO",
      "house": "",
      "postcode": "4690-028",
      "city": "CINFÃES",
      "lon": "-8.091106425795083",
      "lat": "41.071812747374395"
    },
    {
      "id": "pt.ine.add.PTCONT.5481853",
      "street": "SIT SITIO DO MINHOSO",
      "house": "",
      "postcode": "4690-034",
      "city": "CINFÃES",
      "lon": "-8.091284944054676",
      "lat": "41.071749780642584"
    },
    {
      "id": "pt.ine.add.PTCONT.5483313",
      "street": "R MINHOSO",
      "house": "",
      "postcode": "4690-028",
      "city": "CINFÃES",
      "lon": "-8.091106425795083",
      "lat": "41.071812747374395"
    },
    {
      "id": "pt.ine.add.PTCONT.5488378",
      "street": "R GEN HUMBERTO DELGADO",
      "house": "98",
      "postcode": "4690-040",
      "city": "CINFÃES",
      "lon": "-8.090452139170853",
      "lat": "41.0716054030072"
    },
    {
      "id": "pt.ine.add.PTCONT.5488583",
      "street": "VLA SEM DESIGNACAO",
      "house": "",
      "postcode": "4690-028",
      "city": "CINFÃES",
      "lon": "-8.090452139170853",
      "lat": "41.0716054030072"
    },
    {
      "id": "pt.ine.add.PTCONT.5495847",
      "street": "CC CALVARIO",
      "house": "",
      "postcode": "4690-025",
      "city": "CINFÃES",
      "lon": "-8.090976455688175",
      "lat": "41.07038098060205"
    },
    {
      "id": "pt.ine.add.PTCONT.5499070",
      "street": "LG 25 ABRIL",
      "house": "8",
      "postcode": "4690-031",
      "city": "CINFÃES",
      "lon": "-8.091546343404673",
      "lat": "41.0723351691862"
    },
    {
      "id": "pt.ine.add.PTCONT.5499071",
      "street": "R GEN HUMBERTO DELGADO",
      "house": "8",
      "postcode": "4690-040",
      "city": "CINFÃES",
      "lon": "-8.091546343404673",
      "lat": "41.0723351691862"
    },
    {
      "id": "pt.ine.add.PTCONT.5499072",
      "street": "R GEN HUMBERTO DELGADO",
      "house": "8",
      "postcode": "4690-040",
      "city": "CINFÃES",
      "lon": "-8.091546343404673",
      "lat": "41.0723351691862"
    },
    {
      "id": "pt.ine.add.PTCONT.5499073",
      "street": "LG 25 ABRIL",
      "house": "8",
      "postcode": "4690-031",
      "city": "CINFÃES",
      "lon": "-8.091546343404673",
      "lat": "41.0723351691862"
    },
    {
      "id": "pt.ine.add.PTCONT.5499793",
      "street": "",
      "house": "",
      "postcode": "4690-034",
      "city": "CINFÃES",
      "lon": "-8.092486541722577",
      "lat": "41.072002337122484"
    },
    {
      "id": "pt.ine.add.PTCONT.5499794",
      "street": "",
      "house": "",
      "postcode": "4690-034",
      "city": "CINFÃES",
      "lon": "-8.092486541722577",
      "lat": "41.072002337122484"
    },
    {
      "id": "pt.ine.add.PTCONT.5499843",
      "street": "BR SENRINHA",
      "house": "",
      "postcode": "4690-022",
      "city": "CINFÃES",
      "lon": "-8.095472240264487",
      "lat": "41.0734890969883"
    },
    {
      "id": "pt.ine.add.PTCONT.5499844",
      "street": "R SEM DESIGNACAO",
      "house": "",
      "postcode": "4690-022",
      "city": "CINFÃES",
      "lon": "-8.095472240264487",
      "lat": "41.0734890969883"
    },
    {
      "id": "pt.ine.add.PTCONT.5499845",
      "street": "R SEM DESIGNACAO",
      "house": "",
      "postcode": "4690-022",
      "city": "CINFÃES",
      "lon": "-8.095472240264487",
      "lat": "41.0734890969883"
    },
    {
      "id": "pt.ine.add.PTCONT.5503778",
      "street": "",
      "house": "",
      "postcode": "4690-028",
      "city": "CINFÃES",
      "lon": "-8.09091596257562",
      "lat": "41.07194774563834"
    },
    {
      "id": "pt.ine.add.PTCONT.5503863",
      "street": "CC CALVARIO",
      "house": "",
      "postcode": "4690-025",
      "city": "CINFÃES",
      "lon": "-8.089905161071648",
      "lat": "41.071064927816984"
    },
    {
      "id": "pt.ine.add.PTCONT.5505512",
      "street": "R GEN HUMBERTO DELGADO",
      "house": "",
      "postcode": "4690-040",
      "city": "CINFÃES",
      "lon": "-8.093996904733297",
      "lat": "41.073281501723"
    },
    {
      "id": "pt.ine.add.PTCONT.5505513",
      "street": "R GEN HUMBERTO DELGADO",
      "house": "",
      "postcode": "4690-040",
      "city": "CINFÃES",
      "lon": "-8.093996904733297",
      "lat": "41.073281501723"
    },
    {
      "id": "pt.ine.add.PTCONT.5505560",
      "street": "R CAMOES",
      "house": "61",
      "postcode": "4690-035",
      "city": "CINFÃES",
      "lon": "-8.09071443289599",
      "lat": "41.070786088124635"
    },
    {
      "id": "pt.ine.add.PTCONT.5505561",
      "street": "CC CALVARIO",
      "house": "",
      "postcode": "4690-025",
      "city": "CINFÃES",
      "lon": "-8.090916751223292",
      "lat": "41.07071412618027"
    },
    {
      "id": "pt.ine.add.PTCONT.5509381",
      "street": "CC CALVARIO",
      "house": "",
      "postcode": "4690-025",
      "city": "CINFÃES",
      "lon": "-8.091071733820112",
      "lat": "41.070236942992594"
    },
    {
      "id": "pt.ine.add.PTCONT.5512318",
      "street": "SIT SITIO MINHOSO",
      "house": "",
      "postcode": "4690-034",
      "city": "CINFÃES",
      "lon": "-8.090238211530862",
      "lat": "41.07122713363102"
    },
    {
      "id": "pt.ine.add.PTCONT.5512319",
      "street": "R DR FERNANDO DE VASCONCELOS",
      "house": "",
      "postcode": "4690-013",
      "city": "CINFÃES",
      "lon": "-8.094722491799613",
      "lat": "41.0736959536441"
    },
    {
      "id": "pt.ine.add.PTCONT.5512849",
      "street": "",
      "house": "",
      "postcode": "4690-038",
      "city": "CINFÃES",
      "lon": "-8.090618625651027",
      "lat": "41.07174953688456"
    },
    {
      "id": "pt.ine.add.PTCONT.5512850",
      "street": "SIT SITIO MINHOSO",
      "house": "",
      "postcode": "4690-034",
      "city": "CINFÃES",
      "lon": "-8.090036026054415",
      "lat": "41.07109199037742"
    },
    {
      "id": "pt.ine.add.PTCONT.5516869",
      "street": "R DR FERNANDO DE VASCONCELOS",
      "house": "",
      "postcode": "4690-013",
      "city": "CINFÃES",
      "lon": "-8.094532083171332",
      "lat": "41.07374091265992"
    },
    {
      "id": "pt.ine.add.PTCONT.5521126",
      "street": "R MINHOSO",
      "house": "",
      "postcode": "4690-034",
      "city": "CINFÃES",
      "lon": "-8.091510902861483",
      "lat": "41.07192995288808"
    },
    {
      "id": "pt.ine.add.PTCONT.5521127",
      "street": "R MINHOSO",
      "house": "",
      "postcode": "4690-034",
      "city": "CINFÃES",
      "lon": "-8.091510902861483",
      "lat": "41.07192995288808"
    },
    {
      "id": "pt.ine.add.PTCONT.5521128",
      "street": "SIT SITIO DO MINHOSO",
      "house": "",
      "postcode": "4690-034",
      "city": "CINFÃES",
      "lon": "-8.091510902861483",
      "lat": "41.07192995288808"
    },
    {
      "id": "pt.ine.add.PTCONT.5521976",
      "street": "R DA SENRINHA",
      "house": "1",
      "postcode": "4690-022",
      "city": "CINFÃES",
      "lon": "-8.09585332902856",
      "lat": "41.072912931488986"
    },
    {
      "id": "pt.ine.add.PTCONT.5527505",
      "street": "R DR FERNANDO DE VASCONCELOS",
      "house": "",
      "postcode": "4690-013",
      "city": "CINFÃES",
      "lon": "-8.094294242821546",
      "lat": "41.073506715270476"
    },
    {
      "id": "pt.ine.add.PTCONT.5528606",
      "street": "R DR FERNANDO DE VASCONCELOS",
      "house": "",
      "postcode": "4690-013",
      "city": "CINFÃES",
      "lon": "-8.094627148373895",
      "lat": "41.07395705292031"
    },
    {
      "id": "pt.ine.add.PTCONT.5529687",
      "street": "R SENRINHA",
      "house": "12",
      "postcode": "4690-022",
      "city": "CINFÃES",
      "lon": "-8.094889587376011",
      "lat": "41.072813566151126"
    },
    {
      "id": "pt.ine.add.PTCONT.5538691",
      "street": "SIT SITIO MINHOSO",
      "house": "",
      "postcode": "4690-034",
      "city": "CINFÃES",
      "lon": "-8.090024062969446",
      "lat": "41.07119103566911"
    },
    {
      "id": "pt.ine.add.PTCONT.5545151",
      "street": "PC 25 DE ABRIL",
      "house": "",
      "postcode": "4690-031",
      "city": "CINFÃES",
      "lon": "-8.091130091171229",
      "lat": "41.07201986002173"
    },
    {
      "id": "pt.ine.add.PTCONT.5545152",
      "street": "PC 25 DE ABRIL",
      "house": "",
      "postcode": "4690-031",
      "city": "CINFÃES",
      "lon": "-8.090820693170349",
      "lat": "41.072073774033925"
    },
    {
      "id": "pt.ine.add.PTCONT.5545153",
      "street": "EM 1016",
      "house": "",
      "postcode": "4690-029",
      "city": "CINFÃES",
      "lon": "-8.093868068304834",
      "lat": "41.06983272546455"
    },
    {
      "id": "pt.ine.add.PTCONT.5545154",
      "street": "EM 1016",
      "house": "",
      "postcode": "4690-045",
      "city": "CINFÃES",
      "lon": "-8.098459104063998",
      "lat": "41.07301279419507"
    },
    {
      "id": "pt.ine.add.PTCONT.5545156",
      "street": "R SEM DESIGNACAO",
      "house": "",
      "postcode": "4690-022",
      "city": "CINFÃES",
      "lon": "-8.095365186599507",
      "lat": "41.07342603033149"
    },
    {
      "id": "pt.ine.add.PTCONT.5545157",
      "street": "BR SENRINHA",
      "house": "11",
      "postcode": "4690-022",
      "city": "CINFÃES",
      "lon": "-8.095365186599507",
      "lat": "41.07342603033149"
    },
    {
      "id": "pt.ine.add.PTCONT.5545158",
      "street": "R SEM DESIGNACAO",
      "house": "",
      "postcode": "4690-022",
      "city": "CINFÃES",
      "lon": "-8.095365186599507",
      "lat": "41.07342603033149"
    },
    {
      "id": "pt.ine.add.PTCONT.5547659",
      "street": "SIT SITIO SANGEMIL",
      "house": "",
      "postcode": "4690-040",
      "city": "CINFÃES",
      "lon": "-8.090690207894857",
      "lat": "41.071452413988105"
    },
    {
      "id": "pt.ine.add.PTCONT.5549061",
      "street": "R DA SENRINHA",
      "house": "",
      "postcode": "4690-022",
      "city": "CINFÃES",
      "lon": "-8.09626952904696",
      "lat": "41.073372295860686"
    },
    {
      "id": "pt.ine.add.PTCONT.5550950",
      "street": "R GEN HUMBERTO DELGADO",
      "house": "66",
      "postcode": "4690-040",
      "city": "CINFÃES",
      "lon": "-8.092272055108536",
      "lat": "41.072506514561475"
    },
    {
      "id": "pt.ine.add.PTCONT.5552826",
      "street": "",
      "house": "",
      "postcode": "4690-022",
      "city": "CINFÃES",
      "lon": "-8.095520112648135",
      "lat": "41.0730028684922"
    },
    {
      "id": "pt.ine.add.PTCONT.5554794",
      "street": "CC CALVARIO",
      "house": "",
      "postcode": "4690-025",
      "city": "CINFÃES",
      "lon": "-8.091238229629552",
      "lat": "41.07036306696191"
    },
    {
      "id": "pt.ine.add.PTCONT.5554805",
      "street": "",
      "house": "",
      "postcode": "4690-022",
      "city": "CINFÃES",
      "lon": "-8.095520056231956",
      "lat": "41.073101918205595"
    },
    {
      "id": "pt.ine.add.PTCONT.5558812",
      "street": "EM 1016",
      "house": "",
      "postcode": "4690-045",
      "city": "CINFÃES",
      "lon": "-8.096900883719004",
      "lat": "41.07206684033143"
    },
    {
      "id": "pt.ine.add.PTCONT.5560081",
      "street": "PC 25 ABRIL",
      "house": "20",
      "postcode": "4690-031",
      "city": "CINFÃES",
      "lon": "-8.091189515496444",
      "lat": "41.07212793592405"
    },
    {
      "id": "pt.ine.add.PTCONT.5560082",
      "street": "PC 25 DE ABRIL",
      "house": "",
      "postcode": "4690-031",
      "city": "CINFÃES",
      "lon": "-8.091189515496444",
      "lat": "41.07212793592405"
    },
    {
      "id": "pt.ine.add.PTCONT.5560091",
      "street": "CC BENTO",
      "house": "",
      "postcode": "4690-024",
      "city": "CINFÃES",
      "lon": "-8.091475167371927",
      "lat": "41.07199297164191"
    },
    {
      "id": "pt.ine.add.PTCONT.5560092",
      "street": "CC BENTO",
      "house": "",
      "postcode": "4690-024",
      "city": "CINFÃES",
      "lon": "-8.091475167371927",
      "lat": "41.07199297164191"
    },
    {
      "id": "pt.ine.add.PTCONT.5560093",
      "street": "CC BENTO",
      "house": "",
      "postcode": "4690-024",
      "city": "CINFÃES",
      "lon": "-8.091475167371927",
      "lat": "41.07199297164191"
    },
    {
      "id": "pt.ine.add.PTCONT.5560109",
      "street": "R POMBAS",
      "house": "1337",
      "postcode": "4690-034",
      "city": "CINFÃES",
      "lon": "-8.090488212695675",
      "lat": "41.07102012231276"
    },
    {
      "id": "pt.ine.add.PTCONT.5561509",
      "street": "CC BENTO",
      "house": "",
      "postcode": "4690-024",
      "city": "CINFÃES",
      "lon": "-8.091475167371927",
      "lat": "41.07199297164191"
    },
    {
      "id": "pt.ine.add.PTCONT.5571013",
      "street": "SIT SITIO DO MINHOSO",
      "house": "",
      "postcode": "4690-034",
      "city": "CINFÃES",
      "lon": "-8.091451466820534",
      "lat": "41.07183988618933"
    },
    {
      "id": "pt.ine.add.PTCONT.5574842",
      "street": "LG POMBAS",
      "house": "",
      "postcode": "4690-029",
      "city": "CINFÃES",
      "lon": "-8.090238778876742",
      "lat": "41.07035369496211"
    },
    {
      "id": "pt.ine.add.PTCONT.5574875",
      "street": "R DR FERNANDO DE VASCONCELOS",
      "house": "",
      "postcode": "4690-013",
      "city": "CINFÃES",
      "lon": "-8.094674681208522",
      "lat": "41.07406512301816"
    },
    {
      "id": "pt.ine.add.PTCONT.5580425",
      "street": "R GEN HUMBERTO DELGADO",
      "house": "56",
      "postcode": "4690-040",
      "city": "CINFÃES",
      "lon": "-8.093295352425848",
      "lat": "41.07248886360239"
    },
    {
      "id": "pt.ine.add.PTCONT.5582275",
      "street": "PC 25 DE ABRIL",
      "house": "",
      "postcode": "4690-031",
      "city": "CINFÃES",
      "lon": "-8.091296688569178",
      "lat": "41.07199290702168"
    },
    {
      "id": "pt.ine.add.PTCONT.5582290",
      "street": "SIT MINHOSO",
      "house": "",
      "postcode": "4690-034",
      "city": "CINFÃES",
      "lon": "-8.090333212364271",
      "lat": "41.0715153136901"
    },
    {
      "id": "pt.ine.add.PTCONT.5583799",
      "street": "",
      "house": "",
      "postcode": "4690-034",
      "city": "CINFÃES",
      "lon": "-8.091403832752453",
      "lat": "41.071902900620195"
    },
    {
      "id": "pt.ine.add.PTCONT.5585608",
      "street": "SIT DO MINHOSO",
      "house": "",
      "postcode": "4690-034",
      "city": "CINFÃES",
      "lon": "-8.089928904889234",
      "lat": "41.07114597743266"
    },
    {
      "id": "pt.ine.add.PTCONT.5587765",
      "street": "LG POMBAS",
      "house": "CP 530",
      "postcode": "4690-029",
      "city": "CINFÃES",
      "lon": "-8.091154907235834",
      "lat": "41.0704170638085"
    },
    {
      "id": "pt.ine.add.PTCONT.5591537",
      "street": "R GEN HUMBERTO DELGADO",
      "house": "",
      "postcode": "4690-040",
      "city": "CINFÃES",
      "lon": "-8.091712862356061",
      "lat": "41.072434278866886"
    },
    {
      "id": "pt.ine.add.PTCONT.5591538",
      "street": "R GEN HUMBERTO DELGADO",
      "house": "",
      "postcode": "4690-040",
      "city": "CINFÃES",
      "lon": "-8.091712862356061",
      "lat": "41.072434278866886"
    },
    {
      "id": "pt.ine.add.PTCONT.5591539",
      "street": "R DR FLAVIO RESENDE",
      "house": "26",
      "postcode": "4690-038",
      "city": "CINFÃES",
      "lon": "-8.090642277885598",
      "lat": "41.07197465867474"
    },
    {
      "id": "pt.ine.add.PTCONT.5591572",
      "street": "EM 1016",
      "house": "",
      "postcode": "4690-045",
      "city": "CINFÃES",
      "lon": "-8.098256891519567",
      "lat": "41.072886669918105"
    },
    {
      "id": "pt.ine.add.PTCONT.5597126",
      "street": "PC 25 DE ABRIL",
      "house": "",
      "postcode": "4690-031",
      "city": "CINFÃES",
      "lon": "-8.091391740659812",
      "lat": "41.07220905001075"
    },
    {
      "id": "pt.ine.add.PTCONT.5597127",
      "street": "PC 25 ABRIL",
      "house": "26",
      "postcode": "4690-031",
      "city": "CINFÃES",
      "lon": "-8.091391740659812",
      "lat": "41.07220905001075"
    },
    {
      "id": "pt.ine.add.PTCONT.5600849",
      "street": "R DR FERNANDO DE VASCONCELOS",
      "house": "",
      "postcode": "4690-013",
      "city": "CINFÃES",
      "lon": "-8.09576958942014",
      "lat": "41.07370530220504"
    },
    {
      "id": "pt.ine.add.PTCONT.5602597",
      "street": "EM 1016",
      "house": "",
      "postcode": "4690-040",
      "city": "CINFÃES",
      "lon": "-8.097424227411908",
      "lat": "41.07242718447369"
    },
    {
      "id": "pt.ine.add.PTCONT.5608393",
      "street": "EM 1016",
      "house": "",
      "postcode": "4690-045",
      "city": "CINFÃES",
      "lon": "-8.09608015812535",
      "lat": "41.07157133076848"
    },
    {
      "id": "pt.ine.add.PTCONT.5617542",
      "street": "",
      "house": "",
      "postcode": "4690-029",
      "city": "CINFÃES",
      "lon": "-8.091309522441197",
      "lat": "41.07051616977018"
    },
    {
      "id": "pt.ine.add.PTCONT.5620887",
      "street": "R DA SENRINHA",
      "house": "3",
      "postcode": "4690-022",
      "city": "CINFÃES",
      "lon": "-8.095971997335871",
      "lat": "41.07348025460634"
    },
    {
      "id": "pt.ine.add.PTCONT.5620888",
      "street": "R DA SENRINHA",
      "house": "3",
      "postcode": "4690-022",
      "city": "CINFÃES",
      "lon": "-8.095971997335871",
      "lat": "41.07348025460634"
    },
    {
      "id": "pt.ine.add.PTCONT.5621274",
      "street": "CRUZ BOUCAS CINFAES",
      "house": "",
      "postcode": "4690-045",
      "city": "CINFÃES",
      "lon": "-8.096972235881271",
      "lat": "41.072138898909024"
    },
    {
      "id": "pt.ine.add.PTCONT.5623092",
      "street": "CC CALVARIO",
      "house": "",
      "postcode": "4690-025",
      "city": "CINFÃES",
      "lon": "-8.091059743761468",
      "lat": "41.070381011023045"
    },
    {
      "id": "pt.ine.add.PTCONT.5630776",
      "street": "EM 1016",
      "house": "",
      "postcode": "4690-040",
      "city": "CINFÃES",
      "lon": "-8.097554942952755",
      "lat": "41.072742383141325"
    },
    {
      "id": "pt.ine.add.PTCONT.5630751",
      "street": "SIT SITIO DO MINHOSO",
      "house": "",
      "postcode": "4690-034",
      "city": "CINFÃES",
      "lon": "-8.091641900345685",
      "lat": "41.071749909642385"
    },
    {
      "id": "pt.ine.add.PTCONT.5630760",
      "street": "CC CALVARIO",
      "house": "",
      "postcode": "4690-025",
      "city": "CINFÃES",
      "lon": "-8.090905008332037",
      "lat": "41.070470999709116"
    },
    {
      "id": "pt.ine.add.PTCONT.5630775",
      "street": "EM 1016",
      "house": "",
      "postcode": "4690-029",
      "city": "CINFÃES",
      "lon": "-8.093785049163",
      "lat": "41.06938247084284"
    },
    {
      "id": "pt.ine.add.PTCONT.5632681",
      "street": "R GEN HUMBERTO DELGADO",
      "house": "",
      "postcode": "4690-040",
      "city": "CINFÃES",
      "lon": "-8.092141147274617",
      "lat": "41.072542486184396"
    },
    {
      "id": "pt.ine.add.PTCONT.5632694",
      "street": "SIT SITIO DO MINHOSO",
      "house": "",
      "postcode": "4690-034",
      "city": "CINFÃES",
      "lon": "-8.09118976143013",
      "lat": "41.07174074153491"
    },
    {
      "id": "pt.ine.add.PTCONT.5634058",
      "street": "",
      "house": "",
      "postcode": "4690-031",
      "city": "CINFÃES",
      "lon": "-8.09110636275704",
      "lat": "41.07191179710299"
    },
    {
      "id": "pt.ine.add.PTCONT.5634148",
      "street": "R SENRINHA",
      "house": "15",
      "postcode": "4690-022",
      "city": "CINFÃES",
      "lon": "-8.095067601262665",
      "lat": "41.07362403192567"
    },
    {
      "id": "pt.ine.add.PTCONT.5636305",
      "street": "R GEN HUMBERTO DELGADO",
      "house": "66",
      "postcode": "4690-040",
      "city": "CINFÃES",
      "lon": "-8.092759961530952",
      "lat": "41.07240763668749"
    },
    {
      "id": "pt.ine.add.PTCONT.5636306",
      "street": "R SENRINHA",
      "house": "",
      "postcode": "4690-022",
      "city": "CINFÃES",
      "lon": "-8.094710771040521",
      "lat": "41.07338979604933"
    },
    {
      "id": "pt.ine.add.PTCONT.5644034",
      "street": "",
      "house": "",
      "postcode": "4690-029",
      "city": "CINFÃES",
      "lon": "-8.091214261571745",
      "lat": "41.07063319400116"
    },
    {
      "id": "pt.ine.add.PTCONT.5645967",
      "street": "CC CALVARIO",
      "house": "S N",
      "postcode": "4690-025",
      "city": "CINFÃES",
      "lon": "-8.09092893155915",
      "lat": "41.070272908913566"
    },
    {
      "id": "pt.ine.add.PTCONT.5645980",
      "street": "EM 1016",
      "house": "",
      "postcode": "4690-040",
      "city": "CINFÃES",
      "lon": "-8.097126795128663",
      "lat": "41.072364060331424"
    },
    {
      "id": "pt.ine.add.PTCONT.5649135",
      "street": "EM 1016",
      "house": "",
      "postcode": "4690-045",
      "city": "CINFÃES",
      "lon": "-8.098114154280049",
      "lat": "41.072796581446305"
    },
    {
      "id": "pt.ine.add.PTCONT.5650071",
      "street": "R DR FERNANDO DE VASCONCELOS",
      "house": "",
      "postcode": "4690-013",
      "city": "CINFÃES",
      "lon": "-8.094163482893464",
      "lat": "41.07329056266082"
    },
    {
      "id": "pt.ine.add.PTCONT.5651288",
      "street": "CAM EIRA VELHA",
      "house": "",
      "postcode": "4690-893",
      "city": "CINFÃES",
      "lon": "-8.094579804952977",
      "lat": "41.07352482014193"
    },
    {
      "id": "pt.ine.add.PTCONT.5654470",
      "street": "CC CALVARIO",
      "house": "",
      "postcode": "4690-025",
      "city": "CINFÃES",
      "lon": "-8.091166765483093",
      "lat": "41.07048009980065"
    },
    {
      "id": "pt.ine.add.PTCONT.5654471",
      "street": "",
      "house": "",
      "postcode": "4690-022",
      "city": "CINFÃES",
      "lon": "-8.09512731851405",
      "lat": "41.07323685724343"
    },
    {
      "id": "pt.ine.add.PTCONT.5655134",
      "street": "",
      "house": "",
      "postcode": "4690-028",
      "city": "CINFÃES",
      "lon": "-8.089916847347048",
      "lat": "41.071389095056155"
    },
    {
      "id": "pt.ine.add.PTCONT.5656804",
      "street": "",
      "house": "",
      "postcode": "4690-035",
      "city": "CINFÃES",
      "lon": "-8.090892902674158",
      "lat": "41.07079515816754"
    },
    {
      "id": "pt.ine.add.PTCONT.5660182",
      "street": "SIT DO MINHOSO",
      "house": "",
      "postcode": "4690-034",
      "city": "CINFÃES",
      "lon": "-8.090928091356474",
      "lat": "41.07158756915794"
    },
    {
      "id": "pt.ine.add.PTCONT.5660691",
      "street": "R GEN HUMBERTO DELGADO",
      "house": "",
      "postcode": "4690-040",
      "city": "CINFÃES",
      "lon": "-8.093973203211354",
      "lat": "41.073119412301445"
    },
    {
      "id": "pt.ine.add.PTCONT.5660692",
      "street": "R GEN HUMBERTO DELGADO",
      "house": "",
      "postcode": "4690-040",
      "city": "CINFÃES",
      "lon": "-8.093973203211354",
      "lat": "41.073119412301445"
    },
    {
      "id": "pt.ine.add.PTCONT.5662059",
      "street": "",
      "house": "",
      "postcode": "4690-028",
      "city": "CINFÃES",
      "lon": "-8.09074946338723",
      "lat": "41.071821621236566"
    },
    {
      "id": "pt.ine.add.PTCONT.5662728",
      "street": "R SENRINHA",
      "house": "",
      "postcode": "4690-022",
      "city": "CINFÃES",
      "lon": "-8.09522247799114",
      "lat": "41.073290915692716"
    },
    {
      "id": "pt.ine.add.PTCONT.5663075",
      "street": "R DA SENRINHA",
      "house": "1",
      "postcode": "4690-022",
      "city": "CINFÃES",
      "lon": "-8.09585332902856",
      "lat": "41.072912931488986"
    },
    {
      "id": "pt.ine.add.PTCONT.5663158",
      "street": "CC CALVARIO",
      "house": "",
      "postcode": "4690-025",
      "city": "CINFÃES",
      "lon": "-8.09071443289599",
      "lat": "41.070786088124635"
    },
    {
      "id": "pt.ine.add.PTCONT.5665176",
      "street": "R DR FLAVIO RESENDE",
      "house": "28",
      "postcode": "4690-038",
      "city": "CINFÃES",
      "lon": "-8.0905471356746",
      "lat": "41.071902587392266"
    },
    {
      "id": "pt.ine.add.PTCONT.5666187",
      "street": "EM 1016",
      "house": "",
      "postcode": "4690-045",
      "city": "CINFÃES",
      "lon": "-8.096258605631945",
      "lat": "41.07162541511005"
    }
  ]
}