{
  "data": {
    "distrito": "Évora",
    "concelho": "Borba",
    "freguesia": "Borba (Matriz)",
    "OBJECTID": 144,
    "BGRI2021": "07030100108",
    "DT21": "07",
    "DTMN21": "0703",
    "DTMNFR21": "070301",
    "DTMNFRSEC21": "070301001",
    "SECNUM21": "001",
    "SSNUM21": "08",
    "SECSSNUM21": "00108",
    "OBJECTID_1": 59099,
    "DT": "07",
    "CC": "03",
    "fr": "01",
    "SEC": "001",
    "SS": "08"
  },
  "addresses": [
    {
      "id": "pt.ine.add.PTCONT.1369825",
      "street": "R EÇA DE QUEIROZ",
      "house": "3",
      "postcode": "7150-250",
      "city": "BORBA",
      "lon": "-7.455703946489558",
      "lat": "38.80151356785033"
    },
    {
      "id": "pt.ine.add.PTCONT.1372184",
      "street": "R EÇA DE QUEIROZ",
      "house": "26",
      "postcode": "7150-250",
      "city": "BORBA",
      "lon": "-7.454957438467484",
      "lat": "38.8010661189003"
    },
    {
      "id": "pt.ine.add.PTCONT.1372185",
      "street": "R EÇA DE QUEIROZ",
      "house": "26",
      "postcode": "7150-250",
      "city": "BORBA",
      "lon": "-7.454957438467484",
      "lat": "38.8010661189003"
    },
    {
      "id": "pt.ine.add.PTCONT.1374554",
      "street": "R EÇA DE QUEIROZ",
      "house": "10",
      "postcode": "7150-250",
      "city": "BORBA",
      "lon": "-7.455649974030742",
      "lat": "38.801134922149295"
    },
    {
      "id": "pt.ine.add.PTCONT.1375414",
      "street": "R MANUEL DA FONSECA",
      "house": "13",
      "postcode": "7150-250",
      "city": "BORBA",
      "lon": "-7.454893373341777",
      "lat": "38.801396944069126"
    },
    {
      "id": "pt.ine.add.PTCONT.1376633",
      "street": "R MANUEL DA FONSECA",
      "house": "1",
      "postcode": "7150-250",
      "city": "BORBA",
      "lon": "-7.45540107895707",
      "lat": "38.8018901443242"
    },
    {
      "id": "pt.ine.add.PTCONT.1378215",
      "street": "R EÇA DE QUEIROZ",
      "house": "2",
      "postcode": "7150-250",
      "city": "BORBA",
      "lon": "-7.456003571521014",
      "lat": "38.801479272861016"
    },
    {
      "id": "pt.ine.add.PTCONT.1379861",
      "street": "R MANUEL DA FONSECA",
      "house": "3",
      "postcode": "7150-250",
      "city": "BORBA",
      "lon": "-7.455310015088931",
      "lat": "38.80178152103548"
    },
    {
      "id": "pt.ine.add.PTCONT.1383485",
      "street": "R EÇA DE QUEIROZ",
      "house": "18",
      "postcode": "7150-250",
      "city": "BORBA",
      "lon": "-7.455227332649746",
      "lat": "38.80096218152554"
    },
    {
      "id": "pt.ine.add.PTCONT.1384175",
      "street": "R EÇA DE QUEIROZ",
      "house": "30",
      "postcode": "7150-250",
      "city": "BORBA",
      "lon": "-7.454838826461492",
      "lat": "38.801118695178594"
    },
    {
      "id": "pt.ine.add.PTCONT.1384954",
      "street": "R EÇA DE QUEIROZ",
      "house": "9",
      "postcode": "7150-250",
      "city": "BORBA",
      "lon": "-7.455418391680011",
      "lat": "38.801277705984056"
    },
    {
      "id": "pt.ine.add.PTCONT.1384955",
      "street": "R EÇA DE QUEIROZ",
      "house": "1",
      "postcode": "7150-250",
      "city": "BORBA",
      "lon": "-7.455783755503303",
      "lat": "38.80159510182652"
    },
    {
      "id": "pt.ine.add.PTCONT.1385727",
      "street": "R EÇA DE QUEIROZ",
      "house": "42",
      "postcode": "7150-250",
      "city": "BORBA",
      "lon": "-7.454508690083572",
      "lat": "38.80130845788972"
    },
    {
      "id": "pt.ine.add.PTCONT.1389389",
      "street": "R EÇA DE QUEIROZ",
      "house": "8",
      "postcode": "7150-250",
      "city": "BORBA",
      "lon": "-7.45572978256639",
      "lat": "38.801216456163225"
    },
    {
      "id": "pt.ine.add.PTCONT.1390118",
      "street": "R EÇA DE QUEIROZ",
      "house": "32",
      "postcode": "7150-250",
      "city": "BORBA",
      "lon": "-7.454788139896312",
      "lat": "38.80114750463522"
    },
    {
      "id": "pt.ine.add.PTCONT.1403765",
      "street": "R EÇA DE QUEIROZ",
      "house": "34",
      "postcode": "7150-250",
      "city": "BORBA",
      "lon": "-7.454740529126888",
      "lat": "38.801178260523336"
    },
    {
      "id": "pt.ine.add.PTCONT.1406023",
      "street": "R EÇA DE QUEIROZ",
      "house": "14",
      "postcode": "7150-250",
      "city": "BORBA",
      "lon": "-7.455340198852427",
      "lat": "38.800910201174474"
    },
    {
      "id": "pt.ine.add.PTCONT.1406195",
      "street": "R MANUEL DA FONSECA",
      "house": "5",
      "postcode": "7150-250",
      "city": "BORBA",
      "lon": "-7.455218610116837",
      "lat": "38.801708927386215"
    },
    {
      "id": "pt.ine.add.PTCONT.1407528",
      "street": "R EÇA DE QUEIROZ",
      "house": "16",
      "postcode": "7150-250",
      "city": "BORBA",
      "lon": "-7.455287663261539",
      "lat": "38.80093907759259"
    },
    {
      "id": "pt.ine.add.PTCONT.1412243",
      "street": "R BENTO DE JESUS CARAÇA",
      "house": "3",
      "postcode": "7150-252",
      "city": "BORBA",
      "lon": "-7.455960682108165",
      "lat": "38.80114573114053"
    },
    {
      "id": "pt.ine.add.PTCONT.1412283",
      "street": "R BENTO DE JESUS CARAÇA",
      "house": "3",
      "postcode": "7150-252",
      "city": "BORBA",
      "lon": "-7.455960682108165",
      "lat": "38.80114573114053"
    },
    {
      "id": "pt.ine.add.PTCONT.1416576",
      "street": "R EÇA DE QUEIROZ",
      "house": "4",
      "postcode": "7150-250",
      "city": "BORBA",
      "lon": "-7.4559124219885335",
      "lat": "38.80137965746"
    },
    {
      "id": "pt.ine.add.PTCONT.1418081",
      "street": "R EÇA DE QUEIROZ",
      "house": "5",
      "postcode": "7150-250",
      "city": "BORBA",
      "lon": "-7.455612541451561",
      "lat": "38.80144097450538"
    },
    {
      "id": "pt.ine.add.PTCONT.1418082",
      "street": "R EÇA DE QUEIROZ",
      "house": "36",
      "postcode": "7150-250",
      "city": "BORBA",
      "lon": "-7.454693520838782",
      "lat": "38.80120471770577"
    },
    {
      "id": "pt.ine.add.PTCONT.1418368",
      "street": "R MANUEL DA FONSECA",
      "house": "7",
      "postcode": "7150-250",
      "city": "BORBA",
      "lon": "-7.455133465251608",
      "lat": "38.80162710894378"
    },
    {
      "id": "pt.ine.add.PTCONT.1419039",
      "street": "R MANUEL DA FONSECA",
      "house": "6",
      "postcode": "7150-250",
      "city": "BORBA",
      "lon": "-7.455427343040581",
      "lat": "38.801547995595406"
    },
    {
      "id": "pt.ine.add.PTCONT.1419483",
      "street": "R MANUEL DA FONSECA",
      "house": "4",
      "postcode": "7150-250",
      "city": "BORBA",
      "lon": "-7.455518492103103",
      "lat": "38.80164761136785"
    },
    {
      "id": "pt.ine.add.PTCONT.1419923",
      "street": "R JOSE SARAMAGO",
      "house": "10",
      "postcode": "7150-250",
      "city": "BORBA",
      "lon": "-7.454839090200544",
      "lat": "38.8016706932185"
    },
    {
      "id": "pt.ine.add.PTCONT.1420150",
      "street": "R MANUEL DA FONSECA",
      "house": "",
      "postcode": "7150-250",
      "city": "BORBA",
      "lon": "-7.4550475677577905",
      "lat": "38.80153678439366"
    },
    {
      "id": "pt.ine.add.PTCONT.1420414",
      "street": "R JOSE SARAMAGO",
      "house": "12",
      "postcode": "7150-250",
      "city": "BORBA",
      "lon": "-7.454770878525097",
      "lat": "38.801580218007885"
    },
    {
      "id": "pt.ine.add.PTCONT.1421116",
      "street": "R EÇA DE QUEIROZ",
      "house": "11",
      "postcode": "7150-250",
      "city": "BORBA",
      "lon": "-7.455327157892132",
      "lat": "38.80118709756123"
    },
    {
      "id": "pt.ine.add.PTCONT.1425544",
      "street": "R EÇA DE QUEIROZ",
      "house": "46",
      "postcode": "7150-250",
      "city": "BORBA",
      "lon": "-7.454392897617814",
      "lat": "38.80137984872001"
    },
    {
      "id": "pt.ine.add.PTCONT.1425644",
      "street": "R MANUEL DA FONSECA",
      "house": "2",
      "postcode": "7150-250",
      "city": "BORBA",
      "lon": "-7.455621322968851",
      "lat": "38.801729278957524"
    },
    {
      "id": "pt.ine.add.PTCONT.1426979",
      "street": "R EÇA DE QUEIROZ",
      "house": "20",
      "postcode": "7150-250",
      "city": "BORBA",
      "lon": "-7.455167883388941",
      "lat": "38.80098799922354"
    },
    {
      "id": "pt.ine.add.PTCONT.1426980",
      "street": "R EÇA DE QUEIROZ",
      "house": "20",
      "postcode": "7150-250",
      "city": "BORBA",
      "lon": "-7.455167883388941",
      "lat": "38.80098799922354"
    },
    {
      "id": "pt.ine.add.PTCONT.1427682",
      "street": "R EÇA DE QUEIROZ",
      "house": "48",
      "postcode": "7150-250",
      "city": "BORBA",
      "lon": "-7.454335001298519",
      "lat": "38.80141554409101"
    },
    {
      "id": "pt.ine.add.PTCONT.1427683",
      "street": "R EÇA DE QUEIROZ",
      "house": "48",
      "postcode": "7150-250",
      "city": "BORBA",
      "lon": "-7.454335001298519",
      "lat": "38.80141554409101"
    },
    {
      "id": "pt.ine.add.PTCONT.1427684",
      "street": "R EÇA DE QUEIROZ",
      "house": "12",
      "postcode": "7150-250",
      "city": "BORBA",
      "lon": "-7.455547143976219",
      "lat": "38.80105325458394"
    },
    {
      "id": "pt.ine.add.PTCONT.1433105",
      "street": "R EÇA DE QUEIROZ",
      "house": "38",
      "postcode": "7150-250",
      "city": "BORBA",
      "lon": "-7.454618115512504",
      "lat": "38.80123473835538"
    },
    {
      "id": "pt.ine.add.PTCONT.1433106",
      "street": "R EÇA DE QUEIROZ",
      "house": "38",
      "postcode": "7150-250",
      "city": "BORBA",
      "lon": "-7.454618115512504",
      "lat": "38.80123473835538"
    },
    {
      "id": "pt.ine.add.PTCONT.1437792",
      "street": "R JOSE SARAMAGO",
      "house": "14",
      "postcode": "7150-250",
      "city": "BORBA",
      "lon": "-7.454656623348266",
      "lat": "38.801489475413945"
    },
    {
      "id": "pt.ine.add.PTCONT.1438433",
      "street": "R EÇA DE QUEIROZ",
      "house": "6",
      "postcode": "7150-250",
      "city": "BORBA",
      "lon": "-7.455809506014162",
      "lat": "38.80130699755239"
    },
    {
      "id": "pt.ine.add.PTCONT.1438536",
      "street": "R MANUEL DA FONSECA",
      "house": "12",
      "postcode": "7150-250",
      "city": "BORBA",
      "lon": "-7.455153214556018",
      "lat": "38.80132120727898"
    },
    {
      "id": "pt.ine.add.PTCONT.1441389",
      "street": "R EÇA DE QUEIROZ",
      "house": "28",
      "postcode": "7150-250",
      "city": "BORBA",
      "lon": "-7.454890427894772",
      "lat": "38.801112499996975"
    },
    {
      "id": "pt.ine.add.PTCONT.1442151",
      "street": "R EÇA DE QUEIROZ",
      "house": "24",
      "postcode": "7150-250",
      "city": "BORBA",
      "lon": "-7.455040666610118",
      "lat": "38.80105031649429"
    },
    {
      "id": "pt.ine.add.PTCONT.1446013",
      "street": "R EÇA DE QUEIROZ",
      "house": "22",
      "postcode": "7150-250",
      "city": "BORBA",
      "lon": "-7.455090481802719",
      "lat": "38.801019297631825"
    },
    {
      "id": "pt.ine.add.PTCONT.1446913",
      "street": "R ECA QUEIROZ",
      "house": "44",
      "postcode": "7150-250",
      "city": "BORBA",
      "lon": "-7.454439368427096",
      "lat": "38.8013350790342"
    },
    {
      "id": "pt.ine.add.PTCONT.1449970",
      "street": "R MANUEL DA FONSECA",
      "house": "10",
      "postcode": "7150-250",
      "city": "BORBA",
      "lon": "-7.45526764077978",
      "lat": "38.80139393453713"
    },
    {
      "id": "pt.ine.add.PTCONT.1450753",
      "street": "R JOSE SARAMAGO",
      "house": "4",
      "postcode": "7150-250",
      "city": "BORBA",
      "lon": "-7.45512464462892",
      "lat": "38.801906556481725"
    },
    {
      "id": "pt.ine.add.PTCONT.1451432",
      "street": "R BENTO DE JESUS CARACA",
      "house": "1",
      "postcode": "7150-252",
      "city": "BORBA",
      "lon": "-7.456143236656912",
      "lat": "38.801317939511215"
    },
    {
      "id": "pt.ine.add.PTCONT.1451433",
      "street": "R BENTO JESUS CARACA",
      "house": "5B",
      "postcode": "7150-252",
      "city": "BORBA",
      "lon": "-7.456143236656912",
      "lat": "38.801317939511215"
    },
    {
      "id": "pt.ine.add.PTCONT.1453003",
      "street": "R MANUEL DA FONSECA",
      "house": "11",
      "postcode": "7150-250",
      "city": "BORBA",
      "lon": "-7.454944567070679",
      "lat": "38.80147313115936"
    },
    {
      "id": "pt.ine.add.PTCONT.1454288",
      "street": "R JOSE SARAMAGO",
      "house": "6",
      "postcode": "7150-250",
      "city": "BORBA",
      "lon": "-7.455033239689177",
      "lat": "38.80183396268922"
    },
    {
      "id": "pt.ine.add.PTCONT.1454383",
      "street": "R EÇA DE QUEIROZ",
      "house": "7",
      "postcode": "7150-250",
      "city": "BORBA",
      "lon": "-7.455532818108231",
      "lat": "38.80135043298483"
    },
    {
      "id": "pt.ine.add.PTCONT.1456017",
      "street": "R MANUEL DA FONSECA",
      "house": "8",
      "postcode": "7150-250",
      "city": "BORBA",
      "lon": "-7.455335938242958",
      "lat": "38.801475402036665"
    },
    {
      "id": "pt.ine.add.PTCONT.1460544",
      "street": "R JOSE SARAMAGO",
      "house": "2",
      "postcode": "7150-250",
      "city": "BORBA",
      "lon": "-7.455204368060948",
      "lat": "38.801997098273155"
    },
    {
      "id": "pt.ine.add.PTCONT.1460545",
      "street": "R BENTO DE JESUS CARACA",
      "house": "5",
      "postcode": "7150-252",
      "city": "BORBA",
      "lon": "-7.4557782137085",
      "lat": "38.80096451505781"
    },
    {
      "id": "pt.ine.add.PTCONT.1461137",
      "street": "R BENTO JESUS CARACA",
      "house": "1 E",
      "postcode": "7150-252",
      "city": "BORBA",
      "lon": "-7.4557782137085",
      "lat": "38.80096451505781"
    },
    {
      "id": "pt.ine.add.PTCONT.1462885",
      "street": "R JOSE SARAMAGO",
      "house": "8",
      "postcode": "7150-250",
      "city": "BORBA",
      "lon": "-7.4549419203147265",
      "lat": "38.80175236139914"
    },
    {
      "id": "pt.ine.add.PTCONT.1465781",
      "street": "R EÇA DE QUEIROZ",
      "house": "38",
      "postcode": "7150-250",
      "city": "BORBA",
      "lon": "-7.454618115512504",
      "lat": "38.80123473835538"
    }
  ]
}