{
  "data": {
    "distrito": "Porto",
    "concelho": "Póvoa de Varzim",
    "freguesia": "União das freguesias da Póvoa de Varzim, Beiriz e Argivai",
    "OBJECTID": 120,
    "BGRI2021": "13131501802",
    "DT21": "13",
    "DTMN21": "1313",
    "DTMNFR21": "131315",
    "DTMNFRSEC21": "131315018",
    "SECNUM21": "018",
    "SSNUM21": "02",
    "SECSSNUM21": "01802",
    "OBJECTID_1": 139827,
    "DT": "13",
    "CC": "13",
    "fr": "15",
    "SEC": "018",
    "SS": "02"
  },
  "addresses": [
    {
      "id": "pt.ine.add.PTCONT.3562343",
      "street": "R SANTOS MINHO",
      "house": "9",
      "postcode": "4490-549",
      "city": "PÓVOA DE VARZIM",
      "lon": "-8.762150511368942",
      "lat": "41.37948817235124"
    },
    {
      "id": "pt.ine.add.PTCONT.3562344",
      "street": "R SANTOS MINHO",
      "house": "9",
      "postcode": "4490-549",
      "city": "PÓVOA DE VARZIM",
      "lon": "-8.762150511368942",
      "lat": "41.37948817235124"
    },
    {
      "id": "pt.ine.add.PTCONT.3562345",
      "street": "R SANTOS MINHO",
      "house": "9",
      "postcode": "4490-549",
      "city": "PÓVOA DE VARZIM",
      "lon": "-8.762150511368942",
      "lat": "41.37948817235124"
    },
    {
      "id": "pt.ine.add.PTCONT.3626488",
      "street": "R MANUEL SILVA",
      "house": "9",
      "postcode": "4490-657",
      "city": "PÓVOA DE VARZIM",
      "lon": "-8.761813465430281",
      "lat": "41.37924690710607"
    },
    {
      "id": "pt.ine.add.PTCONT.3730446",
      "street": "R SANTOS MINHO",
      "house": "7",
      "postcode": "4490-549",
      "city": "PÓVOA DE VARZIM",
      "lon": "-8.761983245737873",
      "lat": "41.379498090563835"
    },
    {
      "id": "pt.ine.add.PTCONT.3730447",
      "street": "R SANTOS MINHO",
      "house": "7",
      "postcode": "4490-549",
      "city": "PÓVOA DE VARZIM",
      "lon": "-8.761983245737873",
      "lat": "41.379498090563835"
    },
    {
      "id": "pt.ine.add.PTCONT.3730453",
      "street": "R SANTOS MINHO",
      "house": "7",
      "postcode": "4490-549",
      "city": "PÓVOA DE VARZIM",
      "lon": "-8.761983245737873",
      "lat": "41.379498090563835"
    },
    {
      "id": "pt.ine.add.PTCONT.3743261",
      "street": "R JUNQUEIRA",
      "house": "6",
      "postcode": "4490-519",
      "city": "PÓVOA DE VARZIM",
      "lon": "-8.762587851121484",
      "lat": "41.37897255442274"
    },
    {
      "id": "pt.ine.add.PTCONT.3847559",
      "street": "R CÂNDIDO LANDOLT",
      "house": "67",
      "postcode": "4490-535",
      "city": "PÓVOA DE VARZIM",
      "lon": "-8.762925245920002",
      "lat": "41.379249831384115"
    },
    {
      "id": "pt.ine.add.PTCONT.3847560",
      "street": "R CÂNDIDO LANDOLT",
      "house": "67",
      "postcode": "4490-535",
      "city": "PÓVOA DE VARZIM",
      "lon": "-8.762925245920002",
      "lat": "41.379249831384115"
    },
    {
      "id": "pt.ine.add.PTCONT.3847561",
      "street": "R CÂNDIDO LANDOLT",
      "house": "67",
      "postcode": "4490-535",
      "city": "PÓVOA DE VARZIM",
      "lon": "-8.762925245920002",
      "lat": "41.379249831384115"
    },
    {
      "id": "pt.ine.add.PTCONT.3847562",
      "street": "R CÂNDIDO LANDOLT",
      "house": "67",
      "postcode": "4490-535",
      "city": "PÓVOA DE VARZIM",
      "lon": "-8.762925245920002",
      "lat": "41.379249831384115"
    },
    {
      "id": "pt.ine.add.PTCONT.3871401",
      "street": "R JUNQUEIRA",
      "house": "12",
      "postcode": "4490-519",
      "city": "PÓVOA DE VARZIM",
      "lon": "-8.76279149729924",
      "lat": "41.37901646009053"
    },
    {
      "id": "pt.ine.add.PTCONT.3899143",
      "street": "R JUNQUEIRA",
      "house": "2",
      "postcode": "4490-519",
      "city": "PÓVOA DE VARZIM",
      "lon": "-8.762420326504717",
      "lat": "41.37895546277086"
    },
    {
      "id": "pt.ine.add.PTCONT.3899144",
      "street": "R JUNQUEIRA",
      "house": "2",
      "postcode": "4490-519",
      "city": "PÓVOA DE VARZIM",
      "lon": "-8.762420326504717",
      "lat": "41.37895546277086"
    },
    {
      "id": "pt.ine.add.PTCONT.3899145",
      "street": "R JUNQUEIRA",
      "house": "2",
      "postcode": "4490-519",
      "city": "PÓVOA DE VARZIM",
      "lon": "-8.762420326504717",
      "lat": "41.37895546277086"
    },
    {
      "id": "pt.ine.add.PTCONT.3899146",
      "street": "R JUNQUEIRA",
      "house": "2",
      "postcode": "4490-519",
      "city": "PÓVOA DE VARZIM",
      "lon": "-8.762420326504717",
      "lat": "41.37895546277086"
    },
    {
      "id": "pt.ine.add.PTCONT.3899147",
      "street": "R JUNQUEIRA",
      "house": "2",
      "postcode": "4490-519",
      "city": "PÓVOA DE VARZIM",
      "lon": "-8.762420326504717",
      "lat": "41.37895546277086"
    },
    {
      "id": "pt.ine.add.PTCONT.3899148",
      "street": "R JUNQUEIRA",
      "house": "2",
      "postcode": "4490-519",
      "city": "PÓVOA DE VARZIM",
      "lon": "-8.762420326504717",
      "lat": "41.37895546277086"
    },
    {
      "id": "pt.ine.add.PTCONT.3899149",
      "street": "R JUNQUEIRA",
      "house": "2",
      "postcode": "4490-519",
      "city": "PÓVOA DE VARZIM",
      "lon": "-8.762420326504717",
      "lat": "41.37895546277086"
    },
    {
      "id": "pt.ine.add.PTCONT.3900190",
      "street": "R JUNQUEIRA",
      "house": "2",
      "postcode": "4490-519",
      "city": "PÓVOA DE VARZIM",
      "lon": "-8.762420326504717",
      "lat": "41.37895546277086"
    },
    {
      "id": "pt.ine.add.PTCONT.3932073",
      "street": "R SANTOS MINHO",
      "house": "13",
      "postcode": "4490-549",
      "city": "PÓVOA DE VARZIM",
      "lon": "-8.762581366891764",
      "lat": "41.37953984008381"
    },
    {
      "id": "pt.ine.add.PTCONT.3932074",
      "street": "R SANTOS MINHO",
      "house": "13",
      "postcode": "4490-549",
      "city": "PÓVOA DE VARZIM",
      "lon": "-8.762581366891764",
      "lat": "41.37953984008381"
    },
    {
      "id": "pt.ine.add.PTCONT.3932075",
      "street": "R SANTOS MINHO",
      "house": "13",
      "postcode": "4490-549",
      "city": "PÓVOA DE VARZIM",
      "lon": "-8.762581366891764",
      "lat": "41.37953984008381"
    },
    {
      "id": "pt.ine.add.PTCONT.3932737",
      "street": "R SANTOS MINHO",
      "house": "13",
      "postcode": "4490-549",
      "city": "PÓVOA DE VARZIM",
      "lon": "-8.762581366891764",
      "lat": "41.37953984008381"
    },
    {
      "id": "pt.ine.add.PTCONT.3963321",
      "street": "R CÂNDIDO LANDOLT",
      "house": "16",
      "postcode": "4490-535",
      "city": "PÓVOA DE VARZIM",
      "lon": "-8.762843741377251",
      "lat": "41.37947537672721"
    },
    {
      "id": "pt.ine.add.PTCONT.3963322",
      "street": "R CÂNDIDO LANDOLT",
      "house": "16",
      "postcode": "4490-535",
      "city": "PÓVOA DE VARZIM",
      "lon": "-8.762843741377251",
      "lat": "41.37947537672721"
    },
    {
      "id": "pt.ine.add.PTCONT.3963323",
      "street": "R CÂNDIDO LANDOLT",
      "house": "16",
      "postcode": "4490-535",
      "city": "PÓVOA DE VARZIM",
      "lon": "-8.762843741377251",
      "lat": "41.37947537672721"
    },
    {
      "id": "pt.ine.add.PTCONT.3963324",
      "street": "R CÂNDIDO LANDOLT",
      "house": "16",
      "postcode": "4490-535",
      "city": "PÓVOA DE VARZIM",
      "lon": "-8.762843741377251",
      "lat": "41.37947537672721"
    },
    {
      "id": "pt.ine.add.PTCONT.3963325",
      "street": "R CÂNDIDO LANDOLT",
      "house": "16",
      "postcode": "4490-535",
      "city": "PÓVOA DE VARZIM",
      "lon": "-8.762843741377251",
      "lat": "41.37947537672721"
    },
    {
      "id": "pt.ine.add.PTCONT.3964460",
      "street": "R CÂNDIDO LANDOLT",
      "house": "16",
      "postcode": "4490-535",
      "city": "PÓVOA DE VARZIM",
      "lon": "-8.762843741377251",
      "lat": "41.37947537672721"
    },
    {
      "id": "pt.ine.add.PTCONT.3968907",
      "street": "R JUNQUEIRA",
      "house": "4",
      "postcode": "4490-519",
      "city": "PÓVOA DE VARZIM",
      "lon": "-8.762504175607468",
      "lat": "41.3789730121243"
    },
    {
      "id": "pt.ine.add.PTCONT.3994360",
      "street": "R SANTOS MINHO",
      "house": "5",
      "postcode": "4490-549",
      "city": "PÓVOA DE VARZIM",
      "lon": "-8.761815719918049",
      "lat": "41.379480998041686"
    },
    {
      "id": "pt.ine.add.PTCONT.3994361",
      "street": "R SANTOS MINHO",
      "house": "5",
      "postcode": "4490-549",
      "city": "PÓVOA DE VARZIM",
      "lon": "-8.761815719918049",
      "lat": "41.379480998041686"
    },
    {
      "id": "pt.ine.add.PTCONT.4013677",
      "street": "R JUNQUEIRA",
      "house": "14",
      "postcode": "4490-519",
      "city": "PÓVOA DE VARZIM",
      "lon": "-8.762899167027872",
      "lat": "41.379024874832965"
    },
    {
      "id": "pt.ine.add.PTCONT.4013678",
      "street": "R JUNQUEIRA",
      "house": "14",
      "postcode": "4490-519",
      "city": "PÓVOA DE VARZIM",
      "lon": "-8.762899167027872",
      "lat": "41.379024874832965"
    },
    {
      "id": "pt.ine.add.PTCONT.4013679",
      "street": "R JUNQUEIRA",
      "house": "14",
      "postcode": "4490-519",
      "city": "PÓVOA DE VARZIM",
      "lon": "-8.762899167027872",
      "lat": "41.379024874832965"
    },
    {
      "id": "pt.ine.add.PTCONT.4020186",
      "street": "R MANUEL SILVA",
      "house": "7",
      "postcode": "4490-657",
      "city": "PÓVOA DE VARZIM",
      "lon": "-8.761860759914711",
      "lat": "41.37919262486933"
    },
    {
      "id": "pt.ine.add.PTCONT.4039945",
      "street": "R MANUEL SILVA",
      "house": "13",
      "postcode": "4490-657",
      "city": "PÓVOA DE VARZIM",
      "lon": "-8.761754303863283",
      "lat": "41.379310258125884"
    },
    {
      "id": "pt.ine.add.PTCONT.4039946",
      "street": "R MANUEL SILVA",
      "house": "13",
      "postcode": "4490-657",
      "city": "PÓVOA DE VARZIM",
      "lon": "-8.761754303863283",
      "lat": "41.379310258125884"
    },
    {
      "id": "pt.ine.add.PTCONT.4039947",
      "street": "R MANUEL SILVA",
      "house": "13",
      "postcode": "4490-657",
      "city": "PÓVOA DE VARZIM",
      "lon": "-8.761754303863283",
      "lat": "41.379310258125884"
    },
    {
      "id": "pt.ine.add.PTCONT.4059943",
      "street": "R SANTOS MINHO",
      "house": "11A",
      "postcode": "4490-549",
      "city": "PÓVOA DE VARZIM",
      "lon": "-8.762365939047546",
      "lat": "41.37951400641983"
    },
    {
      "id": "pt.ine.add.PTCONT.4059944",
      "street": "R SANTOS MINHO",
      "house": "11A",
      "postcode": "4490-549",
      "city": "PÓVOA DE VARZIM",
      "lon": "-8.762365939047546",
      "lat": "41.37951400641983"
    },
    {
      "id": "pt.ine.add.PTCONT.4059945",
      "street": "R SANTOS MINHO",
      "house": "11A",
      "postcode": "4490-549",
      "city": "PÓVOA DE VARZIM",
      "lon": "-8.762365939047546",
      "lat": "41.37951400641983"
    },
    {
      "id": "pt.ine.add.PTCONT.4059946",
      "street": "R SANTOS MINHO",
      "house": "11A",
      "postcode": "4490-549",
      "city": "PÓVOA DE VARZIM",
      "lon": "-8.762365939047546",
      "lat": "41.37951400641983"
    },
    {
      "id": "pt.ine.add.PTCONT.4059947",
      "street": "R SANTOS MINHO",
      "house": "11A",
      "postcode": "4490-549",
      "city": "PÓVOA DE VARZIM",
      "lon": "-8.762365939047546",
      "lat": "41.37951400641983"
    },
    {
      "id": "pt.ine.add.PTCONT.4062092",
      "street": "R SANTOS MINHO",
      "house": "11A",
      "postcode": "4490-549",
      "city": "PÓVOA DE VARZIM",
      "lon": "-8.762365939047546",
      "lat": "41.37951400641983"
    },
    {
      "id": "pt.ine.add.PTCONT.4073138",
      "street": "R SANTOS MINHO",
      "house": "1",
      "postcode": "4490-549",
      "city": "PÓVOA DE VARZIM",
      "lon": "-8.761695749045174",
      "lat": "41.37943663359903"
    },
    {
      "id": "pt.ine.add.PTCONT.4073152",
      "street": "R SANTOS MINHO",
      "house": "1",
      "postcode": "4490-549",
      "city": "PÓVOA DE VARZIM",
      "lon": "-8.761695749045174",
      "lat": "41.37943663359903"
    },
    {
      "id": "pt.ine.add.PTCONT.4073153",
      "street": "R SANTOS MINHO",
      "house": "1",
      "postcode": "4490-549",
      "city": "PÓVOA DE VARZIM",
      "lon": "-8.761695749045174",
      "lat": "41.37943663359903"
    },
    {
      "id": "pt.ine.add.PTCONT.4073154",
      "street": "R SANTOS MINHO",
      "house": "1",
      "postcode": "4490-549",
      "city": "PÓVOA DE VARZIM",
      "lon": "-8.761695749045174",
      "lat": "41.37943663359903"
    },
    {
      "id": "pt.ine.add.PTCONT.4073155",
      "street": "R SANTOS MINHO",
      "house": "1",
      "postcode": "4490-549",
      "city": "PÓVOA DE VARZIM",
      "lon": "-8.761695749045174",
      "lat": "41.37943663359903"
    },
    {
      "id": "pt.ine.add.PTCONT.4075319",
      "street": "R SANTOS MINHO",
      "house": "1",
      "postcode": "4490-549",
      "city": "PÓVOA DE VARZIM",
      "lon": "-8.761695749045174",
      "lat": "41.37943663359903"
    },
    {
      "id": "pt.ine.add.PTCONT.4092824",
      "street": "R JUNQUEIRA",
      "house": "10",
      "postcode": "4490-519",
      "city": "PÓVOA DE VARZIM",
      "lon": "-8.762707648065911",
      "lat": "41.37899891094753"
    },
    {
      "id": "pt.ine.add.PTCONT.4092825",
      "street": "R JUNQUEIRA",
      "house": "10",
      "postcode": "4490-519",
      "city": "PÓVOA DE VARZIM",
      "lon": "-8.762707648065911",
      "lat": "41.37899891094753"
    },
    {
      "id": "pt.ine.add.PTCONT.4170515",
      "street": "PC REPUBLICA",
      "house": "11",
      "postcode": "4490-437",
      "city": "PÓVOA DE VARZIM",
      "lon": "-8.762156392045997",
      "lat": "41.37885786219919"
    },
    {
      "id": "pt.ine.add.PTCONT.4208471",
      "street": "R MANUEL SILVA",
      "house": "15",
      "postcode": "4490-657",
      "city": "PÓVOA DE VARZIM",
      "lon": "-8.76173100334228",
      "lat": "41.37937341321559"
    },
    {
      "id": "pt.ine.add.PTCONT.4223541",
      "street": "R MANUEL SILVA",
      "house": "5",
      "postcode": "4490-657",
      "city": "PÓVOA DE VARZIM",
      "lon": "-8.76190805432081",
      "lat": "41.3791383426132"
    },
    {
      "id": "pt.ine.add.PTCONT.4331072",
      "street": "R MANUEL SILVA",
      "house": "3",
      "postcode": "4490-657",
      "city": "PÓVOA DE VARZIM",
      "lon": "-8.76202628999335",
      "lat": "41.379002636888025"
    },
    {
      "id": "pt.ine.add.PTCONT.4331073",
      "street": "R MANUEL SILVA",
      "house": "3",
      "postcode": "4490-657",
      "city": "PÓVOA DE VARZIM",
      "lon": "-8.76202628999335",
      "lat": "41.379002636888025"
    },
    {
      "id": "pt.ine.add.PTCONT.4331074",
      "street": "R MANUEL SILVA",
      "house": "3",
      "postcode": "4490-657",
      "city": "PÓVOA DE VARZIM",
      "lon": "-8.76202628999335",
      "lat": "41.379002636888025"
    },
    {
      "id": "pt.ine.add.PTCONT.4331075",
      "street": "R MANUEL SILVA",
      "house": "3",
      "postcode": "4490-657",
      "city": "PÓVOA DE VARZIM",
      "lon": "-8.76202628999335",
      "lat": "41.379002636888025"
    },
    {
      "id": "pt.ine.add.PTCONT.4336070",
      "street": "R CÂNDIDO LANDOLT",
      "house": "89",
      "postcode": "4490-535",
      "city": "PÓVOA DE VARZIM",
      "lon": "-8.762983276958252",
      "lat": "41.37906943432373"
    },
    {
      "id": "pt.ine.add.PTCONT.4336071",
      "street": "R CÂNDIDO LANDOLT",
      "house": "89",
      "postcode": "4490-535",
      "city": "PÓVOA DE VARZIM",
      "lon": "-8.762983276958252",
      "lat": "41.37906943432373"
    },
    {
      "id": "pt.ine.add.PTCONT.4336072",
      "street": "R CÂNDIDO LANDOLT",
      "house": "89",
      "postcode": "4490-535",
      "city": "PÓVOA DE VARZIM",
      "lon": "-8.762983276958252",
      "lat": "41.37906943432373"
    },
    {
      "id": "pt.ine.add.PTCONT.4336073",
      "street": "R CÂNDIDO LANDOLT",
      "house": "89",
      "postcode": "4490-535",
      "city": "PÓVOA DE VARZIM",
      "lon": "-8.762983276958252",
      "lat": "41.37906943432373"
    },
    {
      "id": "pt.ine.add.PTCONT.4336074",
      "street": "R CÂNDIDO LANDOLT",
      "house": "89",
      "postcode": "4490-535",
      "city": "PÓVOA DE VARZIM",
      "lon": "-8.762983276958252",
      "lat": "41.37906943432373"
    },
    {
      "id": "pt.ine.add.PTCONT.4387237",
      "street": "PC REPUBLICA",
      "house": "10",
      "postcode": "4490-437",
      "city": "PÓVOA DE VARZIM",
      "lon": "-8.762264408524798",
      "lat": "41.37890229152855"
    }
  ]
}