{
  "data": {
    "distrito": "Faro",
    "concelho": "Loulé",
    "freguesia": "Loulé (São Clemente)",
    "OBJECTID": 382,
    "BGRI2021": "08080800407",
    "DT21": "08",
    "DTMN21": "0808",
    "DTMNFR21": "080808",
    "DTMNFRSEC21": "080808004",
    "SECNUM21": "004",
    "SSNUM21": "07",
    "SECSSNUM21": "00407",
    "OBJECTID_1": 68946,
    "DT": "08",
    "CC": "08",
    "fr": "08",
    "SEC": "004",
    "SS": "07"
  },
  "addresses": [
    {
      "id": "pt.ine.add.PTCONT.1470580",
      "street": "",
      "house": "",
      "postcode": "8100-227",
      "city": "LOULÉ",
      "lon": "-7.983110317366225",
      "lat": "37.14033984293384"
    },
    {
      "id": "pt.ine.add.PTCONT.1476520",
      "street": "",
      "house": "",
      "postcode": "8100-227",
      "city": "LOULÉ",
      "lon": "-7.983144723159645",
      "lat": "37.14001550479173"
    },
    {
      "id": "pt.ine.add.PTCONT.1482327",
      "street": "",
      "house": "",
      "postcode": "8100-255",
      "city": "LOULÉ",
      "lon": "-7.97531545117599",
      "lat": "37.13794191309916"
    },
    {
      "id": "pt.ine.add.PTCONT.1482371",
      "street": "BARREIRAS BRANCAS",
      "house": "251 7",
      "postcode": "8100-227",
      "city": "LOULÉ",
      "lon": "-7.981530855270522",
      "lat": "37.142212038570115"
    },
    {
      "id": "pt.ine.add.PTCONT.1491977",
      "street": "SIT BARREIRAS BRANCAS",
      "house": "255 Z",
      "postcode": "8100-227",
      "city": "LOULÉ",
      "lon": "-7.981181287932244",
      "lat": "37.142535972584476"
    },
    {
      "id": "pt.ine.add.PTCONT.1500322",
      "street": "BARREIRAS BRANCAS",
      "house": "32 Z",
      "postcode": "8100-227",
      "city": "LOULÉ",
      "lon": "-7.983876429496607",
      "lat": "37.139953354019305"
    },
    {
      "id": "pt.ine.add.PTCONT.1516871",
      "street": "QUINTA DE APRA",
      "house": "252-Z",
      "postcode": "8100-227",
      "city": "LOULÉ",
      "lon": "-7.978142380360484",
      "lat": "37.14249599619418"
    },
    {
      "id": "pt.ine.add.PTCONT.1519152",
      "street": "",
      "house": "",
      "postcode": "8100-255",
      "city": "LOULÉ",
      "lon": "-7.975428074005292",
      "lat": "37.13790602054532"
    },
    {
      "id": "pt.ine.add.PTCONT.1537354",
      "street": "BARREIRAS BRANCAS",
      "house": "252 Z",
      "postcode": "8100-227",
      "city": "LOULÉ",
      "lon": "-7.981406865506842",
      "lat": "37.142301985937884"
    },
    {
      "id": "pt.ine.add.PTCONT.1566740",
      "street": "POÇO NOVO CASA VP BEVOND",
      "house": "",
      "postcode": "8100-255",
      "city": "LOULÉ",
      "lon": "-7.974965783340293",
      "lat": "37.13831088189692"
    },
    {
      "id": "pt.ine.add.PTCONT.1609811",
      "street": "",
      "house": "",
      "postcode": "8100-227",
      "city": "LOULÉ",
      "lon": "-7.979594264397248",
      "lat": "37.1425339278328"
    },
    {
      "id": "pt.ine.add.PTCONT.1609812",
      "street": "",
      "house": "",
      "postcode": "8100-227",
      "city": "LOULÉ",
      "lon": "-7.979514674388037",
      "lat": "37.14293029103029"
    },
    {
      "id": "pt.ine.add.PTCONT.1621618",
      "street": "BARREIRAS BRANCAS ADEGA PEGOS",
      "house": "49 A",
      "postcode": "8100-227",
      "city": "LOULÉ",
      "lon": "-7.98313074646728",
      "lat": "37.141394109104354"
    },
    {
      "id": "pt.ine.add.PTCONT.1624336",
      "street": "BARREIRAS BRANCAS",
      "house": "770 5",
      "postcode": "8100-227",
      "city": "LOULÉ",
      "lon": "-7.982725269618628",
      "lat": "37.141537764976704"
    },
    {
      "id": "pt.ine.add.PTCONT.1630321",
      "street": "BARREIRAS BRANCAS",
      "house": "",
      "postcode": "8100-227",
      "city": "LOULÉ",
      "lon": "-7.981487218285116",
      "lat": "37.14151816661219"
    },
    {
      "id": "pt.ine.add.PTCONT.1633597",
      "street": "CASA ARMADILO",
      "house": "372",
      "postcode": "8100-229",
      "city": "LOULÉ",
      "lon": "-7.982954330076588",
      "lat": "37.13953770182525"
    },
    {
      "id": "pt.ine.add.PTCONT.1690568",
      "street": "",
      "house": "",
      "postcode": "8100-227",
      "city": "LOULÉ",
      "lon": "-7.981169744092579",
      "lat": "37.142680127358425"
    },
    {
      "id": "pt.ine.add.PTCONT.1704811",
      "street": "BARREIRAS BRANCAS",
      "house": "34 Z",
      "postcode": "8100-227",
      "city": "LOULÉ",
      "lon": "-7.983381240382919",
      "lat": "37.13993470835889"
    },
    {
      "id": "pt.ine.add.PTCONT.1707771",
      "street": "BARREIRAS BRANCAS",
      "house": "256",
      "postcode": "8100-227",
      "city": "LOULÉ",
      "lon": "-7.981068498623445",
      "lat": "37.14265296574214"
    },
    {
      "id": "pt.ine.add.PTCONT.1707772",
      "street": "",
      "house": "",
      "postcode": "8100-227",
      "city": "LOULÉ",
      "lon": "-7.979594446485912",
      "lat": "37.14244382208704"
    },
    {
      "id": "pt.ine.add.PTCONT.1736251",
      "street": "POÇO NOVO CASA PINHEIRO",
      "house": "",
      "postcode": "8100-255",
      "city": "LOULÉ",
      "lon": "-7.973062497787386",
      "lat": "37.13888500604248"
    },
    {
      "id": "pt.ine.add.PTCONT.1760809",
      "street": "",
      "house": "",
      "postcode": "8100-255",
      "city": "LOULÉ",
      "lon": "-7.975574517153356",
      "lat": "37.13784314102078"
    },
    {
      "id": "pt.ine.add.PTCONT.1763508",
      "street": "BARREIRAS BRANCAS CASA ALGARMINHO",
      "house": "",
      "postcode": "8100-227",
      "city": "LOULÉ",
      "lon": "-7.979087000253699",
      "lat": "37.14291171488796"
    },
    {
      "id": "pt.ine.add.PTCONT.1793887",
      "street": "",
      "house": "",
      "postcode": "8100-255",
      "city": "LOULÉ",
      "lon": "-7.9724060708592654",
      "lat": "37.14060514282095"
    },
    {
      "id": "pt.ine.add.PTCONT.1816724",
      "street": "",
      "house": "",
      "postcode": "8100-255",
      "city": "LOULÉ",
      "lon": "-7.974012733462257",
      "lat": "37.141958900036464"
    },
    {
      "id": "pt.ine.add.PTCONT.1816725",
      "street": "",
      "house": "",
      "postcode": "8100-255",
      "city": "LOULÉ",
      "lon": "-7.977827797917583",
      "lat": "37.142216255960726"
    },
    {
      "id": "pt.ine.add.PTCONT.1830472",
      "street": "",
      "house": "",
      "postcode": "8100-227",
      "city": "LOULÉ",
      "lon": "-7.9794029940713544",
      "lat": "37.14249763756928"
    },
    {
      "id": "pt.ine.add.PTCONT.1834205",
      "street": "",
      "house": "",
      "postcode": "8100-255",
      "city": "LOULÉ",
      "lon": "-7.979781717458936",
      "lat": "37.13888487709678"
    },
    {
      "id": "pt.ine.add.PTCONT.1841073",
      "street": "BARREIRAS BRANCAS",
      "house": "261 Z",
      "postcode": "8100-227",
      "city": "LOULÉ",
      "lon": "-7.981271601974427",
      "lat": "37.14240092933207"
    },
    {
      "id": "pt.ine.add.PTCONT.1847660",
      "street": "",
      "house": "",
      "postcode": "8100-227",
      "city": "LOULÉ",
      "lon": "-7.979852249824211",
      "lat": "37.14297578096393"
    }
  ]
}