{
  "data": {
    "distrito": "Faro",
    "concelho": "Loulé",
    "freguesia": "Loulé (São Clemente)",
    "OBJECTID": 973,
    "BGRI2021": "08080800417",
    "DT21": "08",
    "DTMN21": "0808",
    "DTMNFR21": "080808",
    "DTMNFRSEC21": "080808004",
    "SECNUM21": "004",
    "SSNUM21": "17",
    "SECSSNUM21": "00417",
    "OBJECTID_1": 69169,
    "DT": "08",
    "CC": "08",
    "fr": "08",
    "SEC": "004",
    "SS": "17"
  },
  "addresses": [
    {
      "id": "pt.ine.add.PTCONT.1488116",
      "street": "",
      "house": "",
      "postcode": "8100-243",
      "city": "LOULÉ",
      "lon": "-7.9612705731864075",
      "lat": "37.1473835106331"
    },
    {
      "id": "pt.ine.add.PTCONT.1468500",
      "street": "",
      "house": "",
      "postcode": "8100-243",
      "city": "LOULÉ",
      "lon": "-7.960707968030618",
      "lat": "37.14729258776529"
    },
    {
      "id": "pt.ine.add.PTCONT.1476480",
      "street": "QTA DA COLINA",
      "house": "",
      "postcode": "8100-255",
      "city": "LOULÉ",
      "lon": "-7.964747627293903",
      "lat": "37.14281111962603"
    },
    {
      "id": "pt.ine.add.PTCONT.1505642",
      "street": "",
      "house": "",
      "postcode": "8100-243",
      "city": "LOULÉ",
      "lon": "-7.960312464257851",
      "lat": "37.14796780593697"
    },
    {
      "id": "pt.ine.add.PTCONT.1513901",
      "street": "",
      "house": "",
      "postcode": "8100-255",
      "city": "LOULÉ",
      "lon": "-7.9676644748803245",
      "lat": "37.142049326013705"
    },
    {
      "id": "pt.ine.add.PTCONT.1523476",
      "street": "",
      "house": "",
      "postcode": "8100-268",
      "city": "LOULÉ",
      "lon": "-7.968736181183625",
      "lat": "37.1461236056883"
    },
    {
      "id": "pt.ine.add.PTCONT.1529279",
      "street": "POÇO NOVO QTA DOS 30 ANOS",
      "house": "",
      "postcode": "8100-255",
      "city": "LOULÉ",
      "lon": "-7.969885649799029",
      "lat": "37.14549445272242"
    },
    {
      "id": "pt.ine.add.PTCONT.1529844",
      "street": "",
      "house": "",
      "postcode": "8100-268",
      "city": "LOULÉ",
      "lon": "-7.968161165793913",
      "lat": "37.14656432583686"
    },
    {
      "id": "pt.ine.add.PTCONT.1540423",
      "street": "POÇO NOVO",
      "house": "502 Z",
      "postcode": "8100-255",
      "city": "LOULÉ",
      "lon": "-7.969621228780369",
      "lat": "37.1428359629498"
    },
    {
      "id": "pt.ine.add.PTCONT.1560610",
      "street": "EN 270",
      "house": "CP 484-T",
      "postcode": "8100-243",
      "city": "LOULÉ",
      "lon": "-7.961499015497836",
      "lat": "37.14591511549424"
    },
    {
      "id": "pt.ine.add.PTCONT.1565265",
      "street": "FONTE DE APRA",
      "house": "516 T",
      "postcode": "8100-243",
      "city": "LOULÉ",
      "lon": "-7.960402719390276",
      "lat": "37.14787783160676"
    },
    {
      "id": "pt.ine.add.PTCONT.1569701",
      "street": "NORA DE APRA",
      "house": "398",
      "postcode": "8100-268",
      "city": "LOULÉ",
      "lon": "-7.96799240299957",
      "lat": "37.14652804850008"
    },
    {
      "id": "pt.ine.add.PTCONT.1575556",
      "street": "",
      "house": "",
      "postcode": "8100-255",
      "city": "LOULÉ",
      "lon": "-7.970461843305571",
      "lat": "37.144495068923106"
    },
    {
      "id": "pt.ine.add.PTCONT.1621552",
      "street": "POCO NOVO",
      "house": "353 Z",
      "postcode": "8100-255",
      "city": "LOULÉ",
      "lon": "-7.969888108774205",
      "lat": "37.14435011075941"
    },
    {
      "id": "pt.ine.add.PTCONT.1624338",
      "street": "POÇO NOVO CASA AMENDOAS",
      "house": "320 Z",
      "postcode": "8100-255",
      "city": "LOULÉ",
      "lon": "-7.966832205886849",
      "lat": "37.14175982232957"
    },
    {
      "id": "pt.ine.add.PTCONT.1624339",
      "street": "POÇO NOVO CASA AMENDOAS",
      "house": "320 Z",
      "postcode": "8100-255",
      "city": "LOULÉ",
      "lon": "-7.966832205886849",
      "lat": "37.14175982232957"
    },
    {
      "id": "pt.ine.add.PTCONT.1626129",
      "street": "FONTE DE APRA",
      "house": "603 Z",
      "postcode": "8100-243",
      "city": "LOULÉ",
      "lon": "-7.960765741459351",
      "lat": "37.14663489878338"
    },
    {
      "id": "pt.ine.add.PTCONT.1661147",
      "street": "SIT POÇO NOVO",
      "house": "",
      "postcode": "8100-255",
      "city": "LOULÉ",
      "lon": "-7.970470996179055",
      "lat": "37.145477236149084"
    },
    {
      "id": "pt.ine.add.PTCONT.1661148",
      "street": "SIT POÇO NOVO",
      "house": "",
      "postcode": "8100-255",
      "city": "LOULÉ",
      "lon": "-7.970470996179055",
      "lat": "37.145477236149084"
    },
    {
      "id": "pt.ine.add.PTCONT.1666277",
      "street": "",
      "house": "",
      "postcode": "8100-255",
      "city": "LOULÉ",
      "lon": "-7.967851347570677",
      "lat": "37.14410400255035"
    },
    {
      "id": "pt.ine.add.PTCONT.1673925",
      "street": "",
      "house": "",
      "postcode": "8100-255",
      "city": "LOULÉ",
      "lon": "-7.969698970775271",
      "lat": "37.143322642338866"
    },
    {
      "id": "pt.ine.add.PTCONT.1674965",
      "street": "",
      "house": "",
      "postcode": "8100-243",
      "city": "LOULÉ",
      "lon": "-7.965829803948258",
      "lat": "37.142064772262444"
    },
    {
      "id": "pt.ine.add.PTCONT.1676769",
      "street": "FONTE DE APRA CAFE CALDEIRINHA",
      "house": "",
      "postcode": "8100-243",
      "city": "LOULÉ",
      "lon": "-7.960030646593245",
      "lat": "37.148147606496515"
    },
    {
      "id": "pt.ine.add.PTCONT.1733386",
      "street": "",
      "house": "",
      "postcode": "8100-255",
      "city": "LOULÉ",
      "lon": "-7.969731536040993",
      "lat": "37.143881344137135"
    },
    {
      "id": "pt.ine.add.PTCONT.1733387",
      "street": "",
      "house": "",
      "postcode": "8100-255",
      "city": "LOULÉ",
      "lon": "-7.969731536040993",
      "lat": "37.143881344137135"
    },
    {
      "id": "pt.ine.add.PTCONT.1739455",
      "street": "",
      "house": "",
      "postcode": "8100-243",
      "city": "LOULÉ",
      "lon": "-7.960244721497811",
      "lat": "37.148057813031855"
    },
    {
      "id": "pt.ine.add.PTCONT.1751581",
      "street": "NORA DE APRA CASA SONHO",
      "house": "A08 T",
      "postcode": "8100-268",
      "city": "LOULÉ",
      "lon": "-7.967598322712479",
      "lat": "37.14658156241592"
    },
    {
      "id": "pt.ine.add.PTCONT.1751615",
      "street": "FONTE DE APRA",
      "house": "552 T",
      "postcode": "8100-243",
      "city": "LOULÉ",
      "lon": "-7.959219841850782",
      "lat": "37.1482995997301"
    },
    {
      "id": "pt.ine.add.PTCONT.1756619",
      "street": "NORA DE APRA BILHARES CONTINENTE",
      "house": "",
      "postcode": "8100-268",
      "city": "LOULÉ",
      "lon": "-7.969153548302747",
      "lat": "37.145709696526076"
    },
    {
      "id": "pt.ine.add.PTCONT.1766562",
      "street": "FONTE DE APRA",
      "house": "604 Z",
      "postcode": "8100-243",
      "city": "LOULÉ",
      "lon": "-7.9613603374834",
      "lat": "37.147509788974055"
    },
    {
      "id": "pt.ine.add.PTCONT.1766666",
      "street": "",
      "house": "",
      "postcode": "8100-255",
      "city": "LOULÉ",
      "lon": "-7.970079417836299",
      "lat": "37.14436839523053"
    },
    {
      "id": "pt.ine.add.PTCONT.1771254",
      "street": "",
      "house": "",
      "postcode": "8100-243",
      "city": "LOULÉ",
      "lon": "-7.960560470887955",
      "lat": "37.14780597665982"
    },
    {
      "id": "pt.ine.add.PTCONT.1773113",
      "street": "",
      "house": "",
      "postcode": "8100-255",
      "city": "LOULÉ",
      "lon": "-7.968440551109753",
      "lat": "37.142302703408085"
    },
    {
      "id": "pt.ine.add.PTCONT.1793886",
      "street": "CABECEIRA DE APRA",
      "house": "",
      "postcode": "8100-243",
      "city": "LOULÉ",
      "lon": "-7.959248171020374",
      "lat": "37.14575865526152"
    },
    {
      "id": "pt.ine.add.PTCONT.1797960",
      "street": "POÇO NOVO",
      "house": "504 Z",
      "postcode": "8100-255",
      "city": "LOULÉ",
      "lon": "-7.968753676118158",
      "lat": "37.14324024001981"
    },
    {
      "id": "pt.ine.add.PTCONT.1806058",
      "street": "POÇO NOVO MONTE BRANCO",
      "house": "365 Z",
      "postcode": "8100-255",
      "city": "LOULÉ",
      "lon": "-7.966077363499441",
      "lat": "37.14209215315915"
    },
    {
      "id": "pt.ine.add.PTCONT.1811426",
      "street": "NORA DE APRA",
      "house": "400 T",
      "postcode": "8100-268",
      "city": "LOULÉ",
      "lon": "-7.967857565394532",
      "lat": "37.14641973350007"
    },
    {
      "id": "pt.ine.add.PTCONT.1818218",
      "street": "NORA DE APRA MOVEIS APRA",
      "house": "",
      "postcode": "8100-268",
      "city": "LOULÉ",
      "lon": "-7.968836510909405",
      "lat": "37.14657427432964"
    },
    {
      "id": "pt.ine.add.PTCONT.1840186",
      "street": "",
      "house": "",
      "postcode": "8100-243",
      "city": "LOULÉ",
      "lon": "-7.961732321116234",
      "lat": "37.14727605209854"
    },
    {
      "id": "pt.ine.add.PTCONT.1841443",
      "street": "",
      "house": "",
      "postcode": "8100-255",
      "city": "LOULÉ",
      "lon": "-7.968238481100978",
      "lat": "37.14205913639208"
    },
    {
      "id": "pt.ine.add.PTCONT.1844649",
      "street": "",
      "house": "",
      "postcode": "8100-243",
      "city": "LOULÉ",
      "lon": "-7.960740427842096",
      "lat": "37.14786931261255"
    }
  ]
}