{
  "data": {
    "distrito": "Faro",
    "concelho": "Loulé",
    "freguesia": "Loulé (São Clemente)",
    "OBJECTID": 1750,
    "BGRI2021": "08080800426",
    "DT21": "08",
    "DTMN21": "0808",
    "DTMNFR21": "080808",
    "DTMNFRSEC21": "080808004",
    "SECNUM21": "004",
    "SSNUM21": "26",
    "SECSSNUM21": "00426",
    "OBJECTID_1": 68694,
    "DT": "08",
    "CC": "08",
    "fr": "08",
    "SEC": "004",
    "SS": "26"
  },
  "addresses": [
    {
      "id": "pt.ine.add.PTCONT.1479606",
      "street": "SIT VALE DE UNGEL",
      "house": "",
      "postcode": "8100-229",
      "city": "LOULÉ",
      "lon": "-7.988424653254455",
      "lat": "37.151168172289324"
    },
    {
      "id": "pt.ine.add.PTCONT.1511219",
      "street": "SIT VALE DE UNGEL",
      "house": "",
      "postcode": "8100-229",
      "city": "LOULÉ",
      "lon": "-7.990227804716759",
      "lat": "37.15007106810462"
    },
    {
      "id": "pt.ine.add.PTCONT.1516869",
      "street": "SIT VALE DE UNGEL",
      "house": "",
      "postcode": "8100-229",
      "city": "LOULÉ",
      "lon": "-7.9869221951870895",
      "lat": "37.153923567290825"
    },
    {
      "id": "pt.ine.add.PTCONT.1545950",
      "street": "SIT VALE DE UNGEL",
      "house": "",
      "postcode": "8100-229",
      "city": "LOULÉ",
      "lon": "-7.987676529627251",
      "lat": "37.153870431817325"
    },
    {
      "id": "pt.ine.add.PTCONT.1555001",
      "street": "SIT VALE DE UNGEL",
      "house": "",
      "postcode": "8100-229",
      "city": "LOULÉ",
      "lon": "-7.985997587938565",
      "lat": "37.15470634378374"
    },
    {
      "id": "pt.ine.add.PTCONT.1572369",
      "street": "SIT CABEGA GORDA",
      "house": "",
      "postcode": "8100-229",
      "city": "LOULÉ",
      "lon": "-7.991280456813841",
      "lat": "37.15300077273865"
    },
    {
      "id": "pt.ine.add.PTCONT.1603062",
      "street": "SIT VALE DE UNGEL",
      "house": "",
      "postcode": "8100-229",
      "city": "LOULÉ",
      "lon": "-7.98956359674169",
      "lat": "37.15010630789681"
    },
    {
      "id": "pt.ine.add.PTCONT.1609771",
      "street": "SIT VALE DE UNGEL",
      "house": "",
      "postcode": "8100-229",
      "city": "LOULÉ",
      "lon": "-7.988229385942419",
      "lat": "37.15321333640988"
    },
    {
      "id": "pt.ine.add.PTCONT.1659608",
      "street": "SIT VALE DE UNGEL",
      "house": "",
      "postcode": "8100-229",
      "city": "LOULÉ",
      "lon": "-7.991789086275385",
      "lat": "37.151893078421914"
    },
    {
      "id": "pt.ine.add.PTCONT.1673924",
      "street": "SIT VALE DE UNGEL",
      "house": "",
      "postcode": "8100-229",
      "city": "LOULÉ",
      "lon": "-7.989570885219213",
      "lat": "37.15220578327851"
    },
    {
      "id": "pt.ine.add.PTCONT.1826456",
      "street": "SIT VALE DE UNGEL",
      "house": "",
      "postcode": "8100-229",
      "city": "LOULÉ",
      "lon": "-7.990267306056057",
      "lat": "37.15300856661004"
    },
    {
      "id": "pt.ine.add.PTCONT.1826457",
      "street": "SIT VALE DE UNGEL",
      "house": "",
      "postcode": "8100-229",
      "city": "LOULÉ",
      "lon": "-7.995391189793253",
      "lat": "37.151951382131784"
    },
    {
      "id": "pt.ine.add.PTCONT.1848582",
      "street": "SIT CABEGA GORDA",
      "house": "",
      "postcode": "8100-229",
      "city": "LOULÉ",
      "lon": "-7.99183245423924",
      "lat": "37.15278517799005"
    }
  ]
}