{
  "data": {
    "distrito": "Lisboa",
    "concelho": "Mafra",
    "freguesia": "Encarnação",
    "OBJECTID": 1533,
    "BGRI2021": "11090400406",
    "DT21": "11",
    "DTMN21": "1109",
    "DTMNFR21": "110904",
    "DTMNFRSEC21": "110904004",
    "SECNUM21": "004",
    "SSNUM21": "06",
    "SECSSNUM21": "00406",
    "OBJECTID_1": 108460,
    "DT": "11",
    "CC": "09",
    "fr": "04",
    "SEC": "004",
    "SS": "06"
  },
  "addresses": [
    {
      "id": "pt.ine.add.PTCONT.2316760",
      "street": "R S DOMINGOS",
      "house": "13A",
      "postcode": "2640-232",
      "city": "ENCARNAÇÃO",
      "lon": "-9.368717559661913",
      "lat": "39.02595804296929"
    },
    {
      "id": "pt.ine.add.PTCONT.2369542",
      "street": "R S DOMINGOS",
      "house": "17",
      "postcode": "2640-232",
      "city": "ENCARNAÇÃO",
      "lon": "-9.368637327208031",
      "lat": "39.027318991122826"
    },
    {
      "id": "pt.ine.add.PTCONT.2488625",
      "street": "R S DOMINGOS",
      "house": "5",
      "postcode": "2640-232",
      "city": "ENCARNAÇÃO",
      "lon": "-9.369567233978517",
      "lat": "39.02435475109802"
    },
    {
      "id": "pt.ine.add.PTCONT.2794930",
      "street": "R CASAL",
      "house": "",
      "postcode": "2640-224",
      "city": "ENCARNAÇÃO",
      "lon": "-9.369962875701942",
      "lat": "39.02121602362942"
    },
    {
      "id": "pt.ine.add.PTCONT.2896859",
      "street": "R S DOMINGOS",
      "house": "11",
      "postcode": "2640-232",
      "city": "ENCARNAÇÃO",
      "lon": "-9.36891392781657",
      "lat": "39.02529843151749"
    },
    {
      "id": "pt.ine.add.PTCONT.2902764",
      "street": "R S DOMINGOS",
      "house": "19",
      "postcode": "2640-232",
      "city": "ENCARNAÇÃO",
      "lon": "-9.368638581595942",
      "lat": "39.02739103601053"
    },
    {
      "id": "pt.ine.add.PTCONT.2911526",
      "street": "PCT COVAS DA AREIA CASA SALVADOR",
      "house": "3",
      "postcode": "2640-232",
      "city": "ENCARNAÇÃO",
      "lon": "-9.369598235343506",
      "lat": "39.02547132453726"
    },
    {
      "id": "pt.ine.add.PTCONT.2985692",
      "street": "R S DOMINGOS",
      "house": "3",
      "postcode": "2640-232",
      "city": "ENCARNAÇÃO",
      "lon": "-9.369548942333264",
      "lat": "39.02396763213484"
    },
    {
      "id": "pt.ine.add.PTCONT.3002520",
      "street": "R S DOMINGOS",
      "house": "9",
      "postcode": "2640-232",
      "city": "ENCARNAÇÃO",
      "lon": "-9.369105962133965",
      "lat": "39.02505320027414"
    },
    {
      "id": "pt.ine.add.PTCONT.3114017",
      "street": "R S DOMINGOS",
      "house": "7",
      "postcode": "2640-232",
      "city": "ENCARNAÇÃO",
      "lon": "-9.369318261800082",
      "lat": "39.02464562297027"
    },
    {
      "id": "pt.ine.add.PTCONT.3132529",
      "street": "R CASAL",
      "house": "",
      "postcode": "2640-230",
      "city": "ENCARNAÇÃO",
      "lon": "-9.37004612967947",
      "lat": "39.020692718511434"
    },
    {
      "id": "pt.ine.add.PTCONT.3170936",
      "street": "R S DOMINGOS",
      "house": "15",
      "postcode": "2640-232",
      "city": "ENCARNAÇÃO",
      "lon": "-9.368690136309926",
      "lat": "39.0263726680691"
    },
    {
      "id": "pt.ine.add.PTCONT.3189078",
      "street": "PCT COVAS DA AREIA",
      "house": "4",
      "postcode": "2640-232",
      "city": "ENCARNAÇÃO",
      "lon": "-9.369240018200388",
      "lat": "39.02545710697014"
    }
  ]
}