{
  "data": {
    "distrito": "Lisboa",
    "concelho": "Mafra",
    "freguesia": "Encarnação",
    "OBJECTID": 1646,
    "BGRI2021": "11090400429",
    "DT21": "11",
    "DTMN21": "1109",
    "DTMNFR21": "110904",
    "DTMNFRSEC21": "110904004",
    "SECNUM21": "004",
    "SSNUM21": "29",
    "SECSSNUM21": "00429",
    "OBJECTID_1": 107966,
    "DT": "11",
    "CC": "09",
    "fr": "04",
    "SEC": "004",
    "SS": "29"
  },
  "addresses": [
    {
      "id": "pt.ine.add.PTCONT.2330177",
      "street": "R CASTELOS DE CIMA",
      "house": "8",
      "postcode": "2640-232",
      "city": "ENCARNAÇÃO",
      "lon": "-9.366996605056785",
      "lat": "39.03456919595776"
    },
    {
      "id": "pt.ine.add.PTCONT.2344850",
      "street": "R DR RAUL ANDRADE",
      "house": "10",
      "postcode": "2640-223",
      "city": "ENCARNAÇÃO",
      "lon": "-9.367811252774315",
      "lat": "39.0342633348256"
    },
    {
      "id": "pt.ine.add.PTCONT.2464297",
      "street": "R INDUSTRIA",
      "house": "1",
      "postcode": "2640-232",
      "city": "ENCARNAÇÃO",
      "lon": "-9.367694795101297",
      "lat": "39.03354398661705"
    },
    {
      "id": "pt.ine.add.PTCONT.2525793",
      "street": "R MOINHOS",
      "house": "2",
      "postcode": "2640-229",
      "city": "ENCARNAÇÃO",
      "lon": "-9.367753726971396",
      "lat": "39.034939488451656"
    },
    {
      "id": "pt.ine.add.PTCONT.2544408",
      "street": "R DR RAUL ANDRADE",
      "house": "4",
      "postcode": "2640-223",
      "city": "ENCARNAÇÃO",
      "lon": "-9.36779014562423",
      "lat": "39.033714115247776"
    },
    {
      "id": "pt.ine.add.PTCONT.2601878",
      "street": "R CASTELOS DE CIMA",
      "house": "8",
      "postcode": "2640-232",
      "city": "ENCARNAÇÃO",
      "lon": "-9.366645545215054",
      "lat": "39.03496922904343"
    },
    {
      "id": "pt.ine.add.PTCONT.2604985",
      "street": "R MOINHOS",
      "house": "10",
      "postcode": "2640-229",
      "city": "ENCARNAÇÃO",
      "lon": "-9.367620493356405",
      "lat": "39.03524714568331"
    },
    {
      "id": "pt.ine.add.PTCONT.2644001",
      "street": "R DR RAUL ANDRADE",
      "house": "1E",
      "postcode": "2640-223",
      "city": "ENCARNAÇÃO",
      "lon": "-9.367664123118859",
      "lat": "39.03443603031221"
    },
    {
      "id": "pt.ine.add.PTCONT.2646193",
      "street": "R DR RAUL ANDRADE",
      "house": "22",
      "postcode": "2640-223",
      "city": "ENCARNAÇÃO",
      "lon": "-9.367693642064635",
      "lat": "39.03480501557885"
    },
    {
      "id": "pt.ine.add.PTCONT.2660687",
      "street": "R MOINHOS",
      "house": "10 A",
      "postcode": "2640-229",
      "city": "ENCARNAÇÃO",
      "lon": "-9.367310294596818",
      "lat": "39.03534050133324"
    },
    {
      "id": "pt.ine.add.PTCONT.2668770",
      "street": "R MOINHOS",
      "house": "14",
      "postcode": "2640-229",
      "city": "ENCARNAÇÃO",
      "lon": "-9.3674930565",
      "lat": "39.03588801003624"
    },
    {
      "id": "pt.ine.add.PTCONT.2673275",
      "street": "R DR RAUL ANDRADE",
      "house": "14",
      "postcode": "2640-223",
      "city": "ENCARNAÇÃO",
      "lon": "-9.367685806139805",
      "lat": "39.03435473542881"
    },
    {
      "id": "pt.ine.add.PTCONT.2684750",
      "street": "BC TI AGOSTINHA",
      "house": "7",
      "postcode": "2640-232",
      "city": "ENCARNAÇÃO",
      "lon": "-9.367197756348745",
      "lat": "39.034846292812"
    },
    {
      "id": "pt.ine.add.PTCONT.2794662",
      "street": "R MOINHOS",
      "house": "16",
      "postcode": "2640-229",
      "city": "ENCARNAÇÃO",
      "lon": "-9.367403344428123",
      "lat": "39.03604208293131"
    },
    {
      "id": "pt.ine.add.PTCONT.2813806",
      "street": "R INDUSTRIA",
      "house": "3",
      "postcode": "2640-232",
      "city": "ENCARNAÇÃO",
      "lon": "-9.367684815631685",
      "lat": "39.03363416488842"
    },
    {
      "id": "pt.ine.add.PTCONT.2838688",
      "street": "R MOINHOS",
      "house": "22",
      "postcode": "2640-229",
      "city": "ENCARNAÇÃO",
      "lon": "-9.367196327973499",
      "lat": "39.036755847151056"
    },
    {
      "id": "pt.ine.add.PTCONT.2841959",
      "street": "R DR RAUL ANDRADE",
      "house": "18",
      "postcode": "2640-223",
      "city": "ENCARNAÇÃO",
      "lon": "-9.36774620407811",
      "lat": "39.03450721952809"
    },
    {
      "id": "pt.ine.add.PTCONT.2855313",
      "street": "R MOINHOS",
      "house": "18",
      "postcode": "2640-229",
      "city": "ENCARNAÇÃO",
      "lon": "-9.367341739906687",
      "lat": "39.03648409061309"
    },
    {
      "id": "pt.ine.add.PTCONT.2865841",
      "street": "R MOINHOS",
      "house": "4",
      "postcode": "2640-229",
      "city": "ENCARNAÇÃO",
      "lon": "-9.3674663100166",
      "lat": "39.03501458881695"
    },
    {
      "id": "pt.ine.add.PTCONT.2902787",
      "street": "R CASTELOS DE CIMA",
      "house": "5",
      "postcode": "2640-232",
      "city": "ENCARNAÇÃO",
      "lon": "-9.366919849871097",
      "lat": "39.034804196791434"
    },
    {
      "id": "pt.ine.add.PTCONT.2985509",
      "street": "LG ENG EDUARDO ARANTES E OLIVEIRA",
      "house": "1",
      "postcode": "2640-232",
      "city": "ENCARNAÇÃO",
      "lon": "-9.36777468090324",
      "lat": "39.03348909737801"
    },
    {
      "id": "pt.ine.add.PTCONT.2985510",
      "street": "BC TI AGOSTINHA",
      "house": "11",
      "postcode": "2640-232",
      "city": "ENCARNAÇÃO",
      "lon": "-9.367058098192466",
      "lat": "39.03478471966362"
    },
    {
      "id": "pt.ine.add.PTCONT.3058178",
      "street": "R MOINHOS",
      "house": "24",
      "postcode": "2640-229",
      "city": "ENCARNAÇÃO",
      "lon": "-9.367188697542296",
      "lat": "39.03698110936508"
    },
    {
      "id": "pt.ine.add.PTCONT.3132523",
      "street": "R MOINHOS",
      "house": "20",
      "postcode": "2640-229",
      "city": "ENCARNAÇÃO",
      "lon": "-9.367308352137066",
      "lat": "39.036556502015735"
    },
    {
      "id": "pt.ine.add.PTCONT.3183067",
      "street": "R DR RAÚL ANDRADE",
      "house": "14",
      "postcode": "2640-223",
      "city": "ENCARNAÇÃO",
      "lon": "-9.367719976148342",
      "lat": "39.03432735193094"
    },
    {
      "id": "pt.ine.add.PTCONT.3196550",
      "street": "R CASTELOS DE CIMA",
      "house": "7",
      "postcode": "2640-232",
      "city": "ENCARNAÇÃO",
      "lon": "-9.366725120227992",
      "lat": "39.03489632928575"
    },
    {
      "id": "pt.ine.add.PTCONT.3225509",
      "street": "R DR RAUL ANDRADE",
      "house": "20",
      "postcode": "2640-223",
      "city": "ENCARNAÇÃO",
      "lon": "-9.367703621648173",
      "lat": "39.03471483732198"
    },
    {
      "id": "pt.ine.add.PTCONT.3382951",
      "street": "R MOINHOS",
      "house": "12",
      "postcode": "2640-229",
      "city": "ENCARNAÇÃO",
      "lon": "-9.367545463333917",
      "lat": "39.035581208501554"
    },
    {
      "id": "pt.ine.add.PTCONT.3400749",
      "street": "BC TI AGOSTINHA",
      "house": "3",
      "postcode": "2640-232",
      "city": "ENCARNAÇÃO",
      "lon": "-9.36689362390196",
      "lat": "39.03462432898534"
    }
  ]
}