{
  "data": {
    "distrito": "Faro",
    "concelho": "Faro",
    "freguesia": "União das freguesias de Faro (Sé e São Pedro)",
    "OBJECTID": 399,
    "BGRI2021": "08050800301",
    "DT21": "08",
    "DTMN21": "0805",
    "DTMNFR21": "080508",
    "DTMNFRSEC21": "080508003",
    "SECNUM21": "003",
    "SSNUM21": "01",
    "SECSSNUM21": "00301",
    "OBJECTID_1": 66762,
    "DT": "08",
    "CC": "05",
    "fr": "08",
    "SEC": "003",
    "SS": "01"
  },
  "addresses": [
    {
      "id": "pt.ine.add.PTCONT.1481822",
      "street": "R CRUZ DAS MESTRAS",
      "house": "22",
      "postcode": "8000-261",
      "city": "FARO",
      "lon": "-7.9325675288982405",
      "lat": "37.01917048124512"
    },
    {
      "id": "pt.ine.add.PTCONT.1490434",
      "street": "R CRUZ DAS MESTRAS",
      "house": "26",
      "postcode": "8000-261",
      "city": "FARO",
      "lon": "-7.932500058113964",
      "lat": "37.01918838877184"
    },
    {
      "id": "pt.ine.add.PTCONT.1499185",
      "street": "R CRUZ DAS MESTRAS",
      "house": "18",
      "postcode": "8000-261",
      "city": "FARO",
      "lon": "-7.932792439169681",
      "lat": "37.01910778563135"
    },
    {
      "id": "pt.ine.add.PTCONT.1510666",
      "street": "LG MOURAS VELHAS",
      "house": "",
      "postcode": "8000-139",
      "city": "FARO",
      "lon": "-7.932197483073424",
      "lat": "37.01887249963119"
    },
    {
      "id": "pt.ine.add.PTCONT.1532072",
      "street": "R SOL",
      "house": "3",
      "postcode": "8000-303",
      "city": "FARO",
      "lon": "-7.933231304629026",
      "lat": "37.01887424531197"
    },
    {
      "id": "pt.ine.add.PTCONT.1540896",
      "street": "LG MOURAS VELHAS",
      "house": "N 17",
      "postcode": "8000-139",
      "city": "FARO",
      "lon": "-7.932568286679795",
      "lat": "37.01888213757505"
    },
    {
      "id": "pt.ine.add.PTCONT.1545302",
      "street": "LG MOURAS VELHAS",
      "house": "18",
      "postcode": "8000-139",
      "city": "FARO",
      "lon": "-7.932467175644556",
      "lat": "37.018872955894416"
    },
    {
      "id": "pt.ine.add.PTCONT.1557631",
      "street": "TV S LUIS",
      "house": "3",
      "postcode": "8000-483",
      "city": "FARO",
      "lon": "-7.932320262322291",
      "lat": "37.01918808471208"
    },
    {
      "id": "pt.ine.add.PTCONT.1590575",
      "street": "LG MOURAS VELHAS",
      "house": "19",
      "postcode": "8000-139",
      "city": "FARO",
      "lon": "-7.932410942293576",
      "lat": "37.01889088236977"
    },
    {
      "id": "pt.ine.add.PTCONT.1606152",
      "street": "LG MOURAS VELHAS",
      "house": "12",
      "postcode": "8000-139",
      "city": "FARO",
      "lon": "-7.932804480587702",
      "lat": "37.01880143944072"
    },
    {
      "id": "pt.ine.add.PTCONT.1617741",
      "street": "R CONCEIÇÃO",
      "house": "3",
      "postcode": "8000-266",
      "city": "FARO",
      "lon": "-7.933074550847563",
      "lat": "37.018657722477045"
    },
    {
      "id": "pt.ine.add.PTCONT.1648561",
      "street": "R CONCEIÇÃO",
      "house": "5",
      "postcode": "8000-266",
      "city": "FARO",
      "lon": "-7.933018270542378",
      "lat": "37.01869367072267"
    },
    {
      "id": "pt.ine.add.PTCONT.1648562",
      "street": "R CRUZ DAS MESTRAS",
      "house": "",
      "postcode": "8000-261",
      "city": "FARO",
      "lon": "-7.93244380084235",
      "lat": "37.019215326000506"
    },
    {
      "id": "pt.ine.add.PTCONT.1650189",
      "street": "R CONCEIÇÃO",
      "house": "9",
      "postcode": "8000-266",
      "city": "FARO",
      "lon": "-7.93297327461914",
      "lat": "37.01871161641121"
    },
    {
      "id": "pt.ine.add.PTCONT.1650190",
      "street": "R CRUZ DAS MESTRAS",
      "house": "12",
      "postcode": "8000-261",
      "city": "FARO",
      "lon": "-7.932927380428326",
      "lat": "37.01907197020561"
    },
    {
      "id": "pt.ine.add.PTCONT.1698672",
      "street": "R SOL",
      "house": "7",
      "postcode": "8000-303",
      "city": "FARO",
      "lon": "-7.933197805510418",
      "lat": "37.01879309186665"
    },
    {
      "id": "pt.ine.add.PTCONT.1716003",
      "street": "R CONCEIÇÃO",
      "house": "11",
      "postcode": "8000-266",
      "city": "FARO",
      "lon": "-7.932838310371313",
      "lat": "37.018756442633524"
    },
    {
      "id": "pt.ine.add.PTCONT.1728975",
      "street": "LG MOURAS VELHAS",
      "house": "14",
      "postcode": "8000-139",
      "city": "FARO",
      "lon": "-7.93271432285031",
      "lat": "37.01890040581727"
    },
    {
      "id": "pt.ine.add.PTCONT.1733865",
      "street": "R SOL",
      "house": "11",
      "postcode": "8000-303",
      "city": "FARO",
      "lon": "-7.933130689416441",
      "lat": "37.018675838647816"
    },
    {
      "id": "pt.ine.add.PTCONT.1735686",
      "street": "R CRUZ DAS MESTRAS",
      "house": "10",
      "postcode": "8000-261",
      "city": "FARO",
      "lon": "-7.933062345183226",
      "lat": "37.01902714388589"
    },
    {
      "id": "pt.ine.add.PTCONT.1790058",
      "street": "LG MOURAS VELHAS",
      "house": "13",
      "postcode": "8000-139",
      "city": "FARO",
      "lon": "-7.932793006868166",
      "lat": "37.018891527874835"
    },
    {
      "id": "pt.ine.add.PTCONT.1793246",
      "street": "LG MOURAS VELHAS",
      "house": "11",
      "postcode": "8000-139",
      "city": "FARO",
      "lon": "-7.932928302312657",
      "lat": "37.018720551342234"
    },
    {
      "id": "pt.ine.add.PTCONT.1817324",
      "street": "R CRUZ DAS MESTRAS",
      "house": "20",
      "postcode": "8000-261",
      "city": "FARO",
      "lon": "-7.932668735015582",
      "lat": "37.019143619882826"
    },
    {
      "id": "pt.ine.add.PTCONT.1825155",
      "street": "LG MOURAS VELHAS",
      "house": "21",
      "postcode": "8000-139",
      "city": "FARO",
      "lon": "-7.9323434717204835",
      "lat": "37.01890878980893"
    },
    {
      "id": "pt.ine.add.PTCONT.1833621",
      "street": "LG MOURAS VELHAS",
      "house": "15",
      "postcode": "8000-139",
      "city": "FARO",
      "lon": "-7.93265811320651",
      "lat": "37.018909321669824"
    }
  ]
}