{
  "data": {
    "distrito": "Coimbra",
    "concelho": "Pampilhosa da Serra",
    "freguesia": "Dornelas do Zêzere",
    "OBJECTID": 125,
    "BGRI2021": "06120200108",
    "DT21": "06",
    "DTMN21": "0612",
    "DTMNFR21": "061202",
    "DTMNFRSEC21": "061202001",
    "SECNUM21": "001",
    "SSNUM21": "08",
    "SECSSNUM21": "00108",
    "OBJECTID_1": 55167,
    "DT": "06",
    "CC": "12",
    "fr": "02",
    "SEC": "001",
    "SS": "08"
  },
  "addresses": [
    {
      "id": "pt.ine.add.PTCONT.1111614",
      "street": "AV MARGINAL ENG HORACIO DE MOURA",
      "house": "",
      "postcode": "3320-053",
      "city": "DORNELAS DO ZÊZERE",
      "lon": "-7.747364102584798",
      "lat": "40.10234487177017"
    },
    {
      "id": "pt.ine.add.PTCONT.1150826",
      "street": "TV LAVADOURO",
      "house": "5",
      "postcode": "3320-053",
      "city": "DORNELAS DO ZÊZERE",
      "lon": "-7.7477355274227655",
      "lat": "40.10303056442307"
    },
    {
      "id": "pt.ine.add.PTCONT.1170875",
      "street": "AV ENG HORACIO MOURA",
      "house": "24",
      "postcode": "3320-053",
      "city": "DORNELAS DO ZÊZERE",
      "lon": "-7.749147726647039",
      "lat": "40.10217067796376"
    },
    {
      "id": "pt.ine.add.PTCONT.1202699",
      "street": "R ENCOSTA DAS LADEIRAS",
      "house": "27",
      "postcode": "3320-053",
      "city": "DORNELAS DO ZÊZERE",
      "lon": "-7.748638215079267",
      "lat": "40.10309660627642"
    },
    {
      "id": "pt.ine.add.PTCONT.1204434",
      "street": "AV MARGINAL ENG HORACIO DE MOURA",
      "house": "",
      "postcode": "3320-053",
      "city": "DORNELAS DO ZÊZERE",
      "lon": "-7.749873225779586",
      "lat": "40.10246127280639"
    },
    {
      "id": "pt.ine.add.PTCONT.1232230",
      "street": "AV MARGINAL ENG HORACIO DE MOURA",
      "house": "",
      "postcode": "3320-053",
      "city": "DORNELAS DO ZÊZERE",
      "lon": "-7.748373192647911",
      "lat": "40.102258167912204"
    },
    {
      "id": "pt.ine.add.PTCONT.1234983",
      "street": "AV MARGINAL ENG HORACIO DE MOURA",
      "house": "1",
      "postcode": "3320-053",
      "city": "DORNELAS DO ZÊZERE",
      "lon": "-7.747058622325164",
      "lat": "40.10244292006882"
    },
    {
      "id": "pt.ine.add.PTCONT.1234984",
      "street": "AV MARGINAL ENG HORÁCIO DE MOURA",
      "house": "26",
      "postcode": "3320-053",
      "city": "DORNELAS DO ZÊZERE",
      "lon": "-7.749511436419532",
      "lat": "40.10214486504208"
    },
    {
      "id": "pt.ine.add.PTCONT.1276086",
      "street": "AV MARGINAL ENG HORACIO DE MOURA",
      "house": "",
      "postcode": "3320-053",
      "city": "DORNELAS DO ZÊZERE",
      "lon": "-7.747821889534297",
      "lat": "40.1022743474028"
    },
    {
      "id": "pt.ine.add.PTCONT.1292667",
      "street": "AV MARGINAL ENGHORACIO MOUKA",
      "house": "38",
      "postcode": "3320-053",
      "city": "DORNELAS DO ZÊZERE",
      "lon": "-7.750486195598555",
      "lat": "40.10190492697161"
    },
    {
      "id": "pt.ine.add.PTCONT.1309690",
      "street": "AV MARGINAL ENG HORACIO DE MOURA",
      "house": "32",
      "postcode": "3320-053",
      "city": "DORNELAS DO ZÊZERE",
      "lon": "-7.749675724975473",
      "lat": "40.10212739700092"
    },
    {
      "id": "pt.ine.add.PTCONT.1336125",
      "street": "R BELGAS",
      "house": "",
      "postcode": "3320-053",
      "city": "DORNELAS DO ZÊZERE",
      "lon": "-7.746997285483547",
      "lat": "40.10292003381465"
    },
    {
      "id": "pt.ine.add.PTCONT.1346171",
      "street": "R BELGAS",
      "house": "3",
      "postcode": "3320-053",
      "city": "DORNELAS DO ZÊZERE",
      "lon": "-7.746927326018267",
      "lat": "40.10284775255768"
    }
  ]
}