{
  "data": {
    "distrito": "Coimbra",
    "concelho": "Pampilhosa da Serra",
    "freguesia": "Dornelas do Zêzere",
    "OBJECTID": 26,
    "BGRI2021": "06120200114",
    "DT21": "06",
    "DTMN21": "0612",
    "DTMNFR21": "061202",
    "DTMNFRSEC21": "061202001",
    "SECNUM21": "001",
    "SSNUM21": "14",
    "SECSSNUM21": "00114",
    "OBJECTID_1": 55169,
    "DT": "06",
    "CC": "12",
    "fr": "02",
    "SEC": "001",
    "SS": "14"
  },
  "addresses": [
    {
      "id": "pt.ine.add.PTCONT.1107521",
      "street": "R ESTENDEDORES",
      "house": "3",
      "postcode": "3320-051",
      "city": "DORNELAS DO ZÊZERE",
      "lon": "-7.772639249663556",
      "lat": "40.104290531595666"
    },
    {
      "id": "pt.ine.add.PTCONT.1145645",
      "street": "R TAPADO",
      "house": "",
      "postcode": "3320-051",
      "city": "DORNELAS DO ZÊZERE",
      "lon": "-7.772015519143051",
      "lat": "40.1046938590249"
    },
    {
      "id": "pt.ine.add.PTCONT.1150424",
      "street": "R PRINCIPAL",
      "house": "14",
      "postcode": "3320-051",
      "city": "DORNELAS DO ZÊZERE",
      "lon": "-7.772957379845551",
      "lat": "40.10401233503544"
    },
    {
      "id": "pt.ine.add.PTCONT.1156699",
      "street": "LG CENTRAL",
      "house": "",
      "postcode": "3320-051",
      "city": "DORNELAS DO ZÊZERE",
      "lon": "-7.772616316400577",
      "lat": "40.10419139415864"
    },
    {
      "id": "pt.ine.add.PTCONT.1158665",
      "street": "R PRINCIPAL",
      "house": "",
      "postcode": "3320-051",
      "city": "DORNELAS DO ZÊZERE",
      "lon": "-7.772511334475446",
      "lat": "40.10408299530229"
    },
    {
      "id": "pt.ine.add.PTCONT.1183819",
      "street": "R PRINCIPAL",
      "house": "",
      "postcode": "3320-051",
      "city": "DORNELAS DO ZÊZERE",
      "lon": "-7.77254490208626",
      "lat": "40.104389303997195"
    },
    {
      "id": "pt.ine.add.PTCONT.1189001",
      "street": "R PRINCIPAL",
      "house": "",
      "postcode": "3320-051",
      "city": "DORNELAS DO ZÊZERE",
      "lon": "-7.772216230033811",
      "lat": "40.104442316425754"
    },
    {
      "id": "pt.ine.add.PTCONT.1189002",
      "street": "R CENTRAL",
      "house": "",
      "postcode": "3320-051",
      "city": "DORNELAS DO ZÊZERE",
      "lon": "-7.772334034322913",
      "lat": "40.10434361735804"
    },
    {
      "id": "pt.ine.add.PTCONT.1241094",
      "street": "R PRINCIPAL",
      "house": "",
      "postcode": "3320-051",
      "city": "DORNELAS DO ZÊZERE",
      "lon": "-7.772664179195369",
      "lat": "40.104011422993295"
    },
    {
      "id": "pt.ine.add.PTCONT.1241095",
      "street": "R PRINCIPAL",
      "house": "",
      "postcode": "3320-051",
      "city": "DORNELAS DO ZÊZERE",
      "lon": "-7.774130182579854",
      "lat": "40.10401597578233"
    },
    {
      "id": "pt.ine.add.PTCONT.1255906",
      "street": "R ESTENDEDORES",
      "house": "",
      "postcode": "3320-051",
      "city": "DORNELAS DO ZÊZERE",
      "lon": "-7.772744612254811",
      "lat": "40.104326883472325"
    },
    {
      "id": "pt.ine.add.PTCONT.1268020",
      "street": "LG CENTRAL",
      "house": "",
      "postcode": "3320-051",
      "city": "DORNELAS DO ZÊZERE",
      "lon": "-7.7725461382376695",
      "lat": "40.10415515169674"
    },
    {
      "id": "pt.ine.add.PTCONT.1274159",
      "street": "R PRINCIPAL",
      "house": "",
      "postcode": "3320-051",
      "city": "DORNELAS DO ZÊZERE",
      "lon": "-7.77332075890376",
      "lat": "40.10404948837239"
    },
    {
      "id": "pt.ine.add.PTCONT.1294696",
      "street": "LG CENTRAL",
      "house": "",
      "postcode": "3320-051",
      "city": "DORNELAS DO ZÊZERE",
      "lon": "-7.772439824856595",
      "lat": "40.104298916794164"
    },
    {
      "id": "pt.ine.add.PTCONT.1324571",
      "street": "R PRINCIPAL",
      "house": "",
      "postcode": "3320-051",
      "city": "DORNELAS DO ZÊZERE",
      "lon": "-7.772581892859441",
      "lat": "40.104047190920994"
    },
    {
      "id": "pt.ine.add.PTCONT.1335039",
      "street": "R ESTENDEDORES",
      "house": "3",
      "postcode": "3320-051",
      "city": "DORNELAS DO ZÊZERE",
      "lon": "-7.772709903241436",
      "lat": "40.10423671542255"
    },
    {
      "id": "pt.ine.add.PTCONT.1346172",
      "street": "R PRINCIPAL",
      "house": "",
      "postcode": "3320-051",
      "city": "DORNELAS DO ZÊZERE",
      "lon": "-7.772415274790064",
      "lat": "40.10450597847258"
    },
    {
      "id": "pt.ine.add.PTCONT.1349294",
      "street": "R ESTENDEDORES",
      "house": "",
      "postcode": "3320-051",
      "city": "DORNELAS DO ZÊZERE",
      "lon": "-7.7728266613081205",
      "lat": "40.10433614472148"
    }
  ]
}