{
  "data": {
    "ilha": "Ilha da Madeira (Madeira)",
    "concelho": "Funchal",
    "freguesia": "Imaculado Coração de Maria",
    "OBJECTID": 348,
    "BGRI2021": "31030100305",
    "DT21": "31",
    "DTMN21": "3103",
    "DTMNFR21": "310301",
    "DTMNFRSEC21": "310301003",
    "SECNUM21": "003",
    "SSNUM21": "05",
    "SECSSNUM21": "00305",
    "OBJECTID_1": 204187,
    "DT": "31",
    "CC": "03",
    "fr": "01",
    "SEC": "003",
    "SS": "05",
    "BGRI2021_1": "31030100305"
  },
  "addresses": [
    {
      "id": "pt.ine.add.MAD.2353",
      "street": "R ARCEBISPO D AIRES",
      "house": "68",
      "postcode": "9050-206",
      "city": "FUNCHAL",
      "lon": "-16.91827661226141",
      "lat": "32.65935014592561"
    },
    {
      "id": "pt.ine.add.MAD.5581",
      "street": "R ARCEBISPO D AIRES",
      "house": "70A",
      "postcode": "9050-206",
      "city": "FUNCHAL",
      "lon": "-16.918239244481292",
      "lat": "32.65909819244254"
    },
    {
      "id": "pt.ine.add.MAD.5582",
      "street": "R ARCEBISPO D AIRES",
      "house": "68 A",
      "postcode": "9050-206",
      "city": "FUNCHAL",
      "lon": "-16.91820572945087",
      "lat": "32.659026554899796"
    },
    {
      "id": "pt.ine.add.MAD.5583",
      "street": "BC FORNO",
      "house": "19",
      "postcode": "9050-477",
      "city": "FUNCHAL",
      "lon": "-16.918090032384228",
      "lat": "32.65910047364132"
    },
    {
      "id": "pt.ine.add.MAD.6347",
      "street": "BC FORNO",
      "house": "15B",
      "postcode": "9050-477",
      "city": "FUNCHAL",
      "lon": "-16.917798799613344",
      "lat": "32.658942588187486"
    },
    {
      "id": "pt.ine.add.MAD.6348",
      "street": "BC FORNO",
      "house": "19",
      "postcode": "9050-477",
      "city": "FUNCHAL",
      "lon": "-16.918033853210776",
      "lat": "32.65896605132431"
    },
    {
      "id": "pt.ine.add.MAD.6349",
      "street": "BC FORNO",
      "house": "19",
      "postcode": "9050-477",
      "city": "FUNCHAL",
      "lon": "-16.91811950237744",
      "lat": "32.65898277944443"
    },
    {
      "id": "pt.ine.add.MAD.6350",
      "street": "BC FORNO",
      "house": "16",
      "postcode": "9050-477",
      "city": "FUNCHAL",
      "lon": "-16.91771064705504",
      "lat": "32.65880865442972"
    },
    {
      "id": "pt.ine.add.MAD.6351",
      "street": "BC FORNO",
      "house": "13",
      "postcode": "9050-477",
      "city": "FUNCHAL",
      "lon": "-16.91738301358087",
      "lat": "32.65844389317956"
    },
    {
      "id": "pt.ine.add.MAD.6352",
      "street": "BC FORNO",
      "house": "11",
      "postcode": "9050-477",
      "city": "FUNCHAL",
      "lon": "-16.917349306958386",
      "lat": "32.65836323956253"
    },
    {
      "id": "pt.ine.add.MAD.6353",
      "street": "BC FORNO",
      "house": "7",
      "postcode": "9050-477",
      "city": "FUNCHAL",
      "lon": "-16.917186742819027",
      "lat": "32.65823946124903"
    },
    {
      "id": "pt.ine.add.MAD.6354",
      "street": "BC FORNO",
      "house": "5",
      "postcode": "9050-477",
      "city": "FUNCHAL",
      "lon": "-16.91731290497159",
      "lat": "32.65815636467473"
    },
    {
      "id": "pt.ine.add.MAD.6355",
      "street": "BC FORNO",
      "house": "3",
      "postcode": "9050-477",
      "city": "FUNCHAL",
      "lon": "-16.91712087024051",
      "lat": "32.65815028031611"
    },
    {
      "id": "pt.ine.add.MAD.6356",
      "street": "R D JOAO",
      "house": "41 A",
      "postcode": "9050-048",
      "city": "FUNCHAL",
      "lon": "-16.916713367843244",
      "lat": "32.658039262463724"
    },
    {
      "id": "pt.ine.add.MAD.6357",
      "street": "R D JOAO-EDIFICIO ENCOSTA",
      "house": "41",
      "postcode": "9050-048",
      "city": "FUNCHAL",
      "lon": "-16.916713367843244",
      "lat": "32.658039262463724"
    },
    {
      "id": "pt.ine.add.MAD.6358",
      "street": "R D JOAO",
      "house": "41",
      "postcode": "9050-048",
      "city": "FUNCHAL",
      "lon": "-16.916713367843244",
      "lat": "32.658039262463724"
    },
    {
      "id": "pt.ine.add.MAD.6359",
      "street": "R D JOAO",
      "house": "41",
      "postcode": "9050-048",
      "city": "FUNCHAL",
      "lon": "-16.916713367843244",
      "lat": "32.658039262463724"
    },
    {
      "id": "pt.ine.add.MAD.6360",
      "street": "R D JOAO",
      "house": "41",
      "postcode": "9050-048",
      "city": "FUNCHAL",
      "lon": "-16.916713367843244",
      "lat": "32.658039262463724"
    },
    {
      "id": "pt.ine.add.MAD.6361",
      "street": "R D JOAO",
      "house": "41",
      "postcode": "9050-048",
      "city": "FUNCHAL",
      "lon": "-16.916713367843244",
      "lat": "32.658039262463724"
    },
    {
      "id": "pt.ine.add.MAD.6362",
      "street": "R D JOAO",
      "house": "41",
      "postcode": "9050-048",
      "city": "FUNCHAL",
      "lon": "-16.916713367843244",
      "lat": "32.658039262463724"
    },
    {
      "id": "pt.ine.add.MAD.7100",
      "street": "R D JOAO",
      "house": "39B",
      "postcode": "9050-048",
      "city": "FUNCHAL",
      "lon": "-16.916445188584664",
      "lat": "32.657962190270986"
    },
    {
      "id": "pt.ine.add.MAD.7101",
      "street": "R D JOAO",
      "house": "39",
      "postcode": "9050-048",
      "city": "FUNCHAL",
      "lon": "-16.916445188584664",
      "lat": "32.657962190270986"
    },
    {
      "id": "pt.ine.add.MAD.7102",
      "street": "R D JOÃO",
      "house": "39E",
      "postcode": "9050-048",
      "city": "FUNCHAL",
      "lon": "-16.916869771471195",
      "lat": "32.657874535614944"
    },
    {
      "id": "pt.ine.add.MAD.7103",
      "street": "BC SARDINHA",
      "house": "7A",
      "postcode": "9050-479",
      "city": "FUNCHAL",
      "lon": "-16.917409788770417",
      "lat": "32.65819997786019"
    },
    {
      "id": "pt.ine.add.MAD.7104",
      "street": "BC SARDINHA",
      "house": "7",
      "postcode": "9050-479",
      "city": "FUNCHAL",
      "lon": "-16.917733377338614",
      "lat": "32.65837540724961"
    },
    {
      "id": "pt.ine.add.MAD.7105",
      "street": "BC SARDINHA",
      "house": "3A",
      "postcode": "9050-479",
      "city": "FUNCHAL",
      "lon": "-16.917851770009303",
      "lat": "32.65842771006883"
    },
    {
      "id": "pt.ine.add.MAD.7106",
      "street": "BC SARDINHA",
      "house": "3",
      "postcode": "9050-479",
      "city": "FUNCHAL",
      "lon": "-16.917832957749276",
      "lat": "32.658545241307245"
    },
    {
      "id": "pt.ine.add.MAD.7107",
      "street": "BC SARDINHA",
      "house": "1A",
      "postcode": "9050-479",
      "city": "FUNCHAL",
      "lon": "-16.91792322875546",
      "lat": "32.65877834878971"
    },
    {
      "id": "pt.ine.add.MAD.7108",
      "street": "R ARCEBISPO D AIRES",
      "house": "1A",
      "postcode": "9050-206",
      "city": "FUNCHAL",
      "lon": "-16.917903646161424",
      "lat": "32.65885981683145"
    },
    {
      "id": "pt.ine.add.MAD.8716",
      "street": "BC SARDINHA",
      "house": "2",
      "postcode": "9050-479",
      "city": "FUNCHAL",
      "lon": "-16.917947691368532",
      "lat": "32.65842624381305"
    },
    {
      "id": "pt.ine.add.MAD.8717",
      "street": "BC SARDINHA",
      "house": "4",
      "postcode": "9050-479",
      "city": "FUNCHAL",
      "lon": "-16.917859924312776",
      "lat": "32.658310341741235"
    },
    {
      "id": "pt.ine.add.MAD.8718",
      "street": "BC SARDINHA",
      "house": "8",
      "postcode": "9050-479",
      "city": "FUNCHAL",
      "lon": "-16.916844221164176",
      "lat": "32.65767651350764"
    },
    {
      "id": "pt.ine.add.MAD.11846",
      "street": "R ARCEBISPO D AIRES",
      "house": "52",
      "postcode": "9050-206",
      "city": "FUNCHAL",
      "lon": "-16.917661149476064",
      "lat": "32.657988705148995"
    },
    {
      "id": "pt.ine.add.MAD.11847",
      "street": "R ARCEBISPO D AIRES",
      "house": "52",
      "postcode": "9050-206",
      "city": "FUNCHAL",
      "lon": "-16.91772567445497",
      "lat": "32.658014775168965"
    },
    {
      "id": "pt.ine.add.MAD.11848",
      "street": "R ARCEBISPO D AIRES",
      "house": "54",
      "postcode": "9050-206",
      "city": "FUNCHAL",
      "lon": "-16.917977353972734",
      "lat": "32.65831756543948"
    },
    {
      "id": "pt.ine.add.MAD.11849",
      "street": "R ARCEBISPO D AIRES",
      "house": "56",
      "postcode": "9050-206",
      "city": "FUNCHAL",
      "lon": "-16.91797870215995",
      "lat": "32.658380676042846"
    },
    {
      "id": "pt.ine.add.MAD.56935",
      "street": "R ARCEBISPO D AIRES",
      "house": "52 A",
      "postcode": "9050-206",
      "city": "FUNCHAL",
      "lon": "-16.917845414715448",
      "lat": "32.65813018862705"
    },
    {
      "id": "pt.ine.add.MAD.59469",
      "street": "BC FORNO",
      "house": "1",
      "postcode": "9050-477",
      "city": "FUNCHAL",
      "lon": "-16.91699259042878",
      "lat": "32.65813420283848"
    },
    {
      "id": "pt.ine.add.MAD.59470",
      "street": "R D JOÃO",
      "house": "43",
      "postcode": "9050-048",
      "city": "FUNCHAL",
      "lon": "-16.916845112171988",
      "lat": "32.65821762475622"
    },
    {
      "id": "pt.ine.add.MAD.62687",
      "street": "R ARCEBISPO D AIRES",
      "house": "66",
      "postcode": "9050-206",
      "city": "FUNCHAL",
      "lon": "-16.918225311796693",
      "lat": "32.65894508682183"
    },
    {
      "id": "pt.ine.add.MAD.70556",
      "street": "BC FORNO",
      "house": "15",
      "postcode": "9050-477",
      "city": "FUNCHAL",
      "lon": "-16.9175457709191",
      "lat": "32.65857668701337"
    },
    {
      "id": "pt.ine.add.MAD.70557",
      "street": "BC FORNO",
      "house": "9A",
      "postcode": "9050-477",
      "city": "FUNCHAL",
      "lon": "-16.917230914642786",
      "lat": "32.65831093625436"
    },
    {
      "id": "pt.ine.add.MAD.75311",
      "street": "R ARCEBISPO D AIRES",
      "house": "50C",
      "postcode": "9050-206",
      "city": "FUNCHAL",
      "lon": "-16.917604586603854",
      "lat": "32.65783625096105"
    },
    {
      "id": "pt.ine.add.MAD.75312",
      "street": "R ARCEBISPO D AIRES",
      "house": "52",
      "postcode": "9050-206",
      "city": "FUNCHAL",
      "lon": "-16.917793665870708",
      "lat": "32.65820312958647"
    },
    {
      "id": "pt.ine.add.MAD.75313",
      "street": "R ARCEBISPO D AIRES",
      "house": "58",
      "postcode": "9050-206",
      "city": "FUNCHAL",
      "lon": "-16.918033147397402",
      "lat": "32.658433956213145"
    },
    {
      "id": "pt.ine.add.MAD.86381",
      "street": "BC FORNO",
      "house": "18B",
      "postcode": "9050-477",
      "city": "FUNCHAL",
      "lon": "-16.917744161606713",
      "lat": "32.65888029212491"
    },
    {
      "id": "pt.ine.add.MAD.86383",
      "street": "R ARCEBISPO D AIRES",
      "house": "6",
      "postcode": "9050-206",
      "city": "FUNCHAL",
      "lon": "-16.91746507169547",
      "lat": "32.65779328943021"
    },
    {
      "id": "pt.ine.add.MAD.86384",
      "street": "R ARCEBISPO D AIRES",
      "house": "SOB",
      "postcode": "9050-206",
      "city": "FUNCHAL",
      "lon": "-16.91754783138595",
      "lat": "32.65767478093318"
    },
    {
      "id": "pt.ine.add.MAD.90477",
      "street": "BC JACINTA",
      "house": "1",
      "postcode": "9050-478",
      "city": "FUNCHAL",
      "lon": "-16.918283032312708",
      "lat": "32.659151635425424"
    },
    {
      "id": "pt.ine.add.MAD.90478",
      "street": "BC FORNO",
      "house": "15",
      "postcode": "9050-477",
      "city": "FUNCHAL",
      "lon": "-16.91787417591445",
      "lat": "32.65897751098885"
    },
    {
      "id": "pt.ine.add.MAD.97068",
      "street": "BC SARDINHA",
      "house": "1A",
      "postcode": "9050-479",
      "city": "FUNCHAL",
      "lon": "-16.91804181467942",
      "lat": "32.65883966720202"
    },
    {
      "id": "pt.ine.add.MAD.97173",
      "street": "R ARCEBISPO D AIRES",
      "house": "62",
      "postcode": "9050-206",
      "city": "FUNCHAL",
      "lon": "-16.9180166466214",
      "lat": "32.65865967706878"
    },
    {
      "id": "pt.ine.add.MAD.98491",
      "street": "R ARCEBISPO D AIRES",
      "house": "64",
      "postcode": "9050-206",
      "city": "FUNCHAL",
      "lon": "-16.918171636610435",
      "lat": "32.6589278699495"
    },
    {
      "id": "pt.ine.add.MAD.98870",
      "street": "BC FORNO",
      "house": "13",
      "postcode": "9050-477",
      "city": "FUNCHAL",
      "lon": "-16.91738301358087",
      "lat": "32.65844389317956"
    },
    {
      "id": "pt.ine.add.MAD.99923",
      "street": "R ARCEBISPO D AIRES",
      "house": "66",
      "postcode": "9050-206",
      "city": "FUNCHAL",
      "lon": "-16.918367270614922",
      "lat": "32.65960128458049"
    },
    {
      "id": "pt.ine.add.MAD.103037",
      "street": "R D JOAO",
      "house": "41",
      "postcode": "9050-048",
      "city": "FUNCHAL",
      "lon": "-16.916713367843244",
      "lat": "32.658039262463724"
    },
    {
      "id": "pt.ine.add.MAD.105835",
      "street": "R D JOAO",
      "house": "39 A",
      "postcode": "9050-048",
      "city": "FUNCHAL",
      "lon": "-16.916445188584664",
      "lat": "32.657962190270986"
    },
    {
      "id": "pt.ine.add.MAD.114137",
      "street": "R ARCEBISPO D AIRES",
      "house": "60",
      "postcode": "9050-206",
      "city": "FUNCHAL",
      "lon": "-16.91805715975384",
      "lat": "32.65855985155199"
    },
    {
      "id": "pt.ine.add.MAD.115316",
      "street": "BC FORNO",
      "house": "17",
      "postcode": "9050-477",
      "city": "FUNCHAL",
      "lon": "-16.918003805290187",
      "lat": "32.65905669810745"
    },
    {
      "id": "pt.ine.add.MAD.120730",
      "street": "R COMEND PADRE MÁRIO CASAGRANDE",
      "house": "11",
      "postcode": "9050-569",
      "city": "FUNCHAL",
      "lon": "-16.916645956188876",
      "lat": "32.657877954791296"
    },
    {
      "id": "pt.ine.add.MAD.123313",
      "street": "BC FORNO",
      "house": "3",
      "postcode": "9050-477",
      "city": "FUNCHAL",
      "lon": "-16.91712202530604",
      "lat": "32.65820437514765"
    },
    {
      "id": "pt.ine.add.MAD.124519",
      "street": "R ARCEBISPO D AIRES",
      "house": "52",
      "postcode": "9050-206",
      "city": "FUNCHAL",
      "lon": "-16.917606512177134",
      "lat": "32.65792640899226"
    },
    {
      "id": "pt.ine.add.MAD.125960",
      "street": "BC SARDINHA",
      "house": "1A",
      "postcode": "9050-479",
      "city": "FUNCHAL",
      "lon": "-16.918075329503708",
      "lat": "32.658911304798075"
    },
    {
      "id": "pt.ine.add.MAD.126994",
      "street": "BC SARDINHA",
      "house": "9",
      "postcode": "9050-479",
      "city": "FUNCHAL",
      "lon": "-16.917061613111606",
      "lat": "32.65787160457496"
    }
  ]
}