{
  "data": {
    "distrito": "Setúbal",
    "concelho": "Palmela",
    "freguesia": "Palmela",
    "OBJECTID": 409,
    "BGRI2021": "15080201003",
    "DT21": "15",
    "DTMN21": "1508",
    "DTMNFR21": "150802",
    "DTMNFRSEC21": "150802010",
    "SECNUM21": "010",
    "SSNUM21": "03",
    "SECSSNUM21": "01003",
    "OBJECTID_1": 165672,
    "DT": "15",
    "CC": "08",
    "fr": "02",
    "SEC": "010",
    "SS": "03"
  },
  "addresses": [
    {
      "id": "pt.ine.add.PTCONT.4663737",
      "street": "SIT PADEIRAS",
      "house": "16",
      "postcode": "2950-035",
      "city": "PALMELA",
      "lon": "-8.841663286649055",
      "lat": "38.55562395322167"
    },
    {
      "id": "pt.ine.add.PTCONT.4678323",
      "street": "BR OLIVEIRAS PADEIRAS",
      "house": "11",
      "postcode": "2950-035",
      "city": "PALMELA",
      "lon": "-8.839782212889746",
      "lat": "38.556833425418304"
    },
    {
      "id": "pt.ine.add.PTCONT.4687223",
      "street": "ESTR PALMELA 533",
      "house": "28",
      "postcode": "2950-035",
      "city": "PALMELA",
      "lon": "-8.845884017761362",
      "lat": "38.559003460193246"
    },
    {
      "id": "pt.ine.add.PTCONT.4696784",
      "street": "R VIUVOS",
      "house": "",
      "postcode": "2950-035",
      "city": "PALMELA",
      "lon": "-8.840203065432066",
      "lat": "38.56817230159434"
    },
    {
      "id": "pt.ine.add.PTCONT.4722208",
      "street": "AZ MATA MOUROS",
      "house": "CCI 6009",
      "postcode": "2950-035",
      "city": "PALMELA",
      "lon": "-8.841163482520868",
      "lat": "38.567824181877995"
    },
    {
      "id": "pt.ine.add.PTCONT.4725299",
      "street": "R COMÉRCIO",
      "house": "9",
      "postcode": "2950-057",
      "city": "PALMELA",
      "lon": "-8.835790102054398",
      "lat": "38.566289123152444"
    },
    {
      "id": "pt.ine.add.PTCONT.4729513",
      "street": "R VIUVOS",
      "house": "",
      "postcode": "2950-035",
      "city": "PALMELA",
      "lon": "-8.840166437910309",
      "lat": "38.56794731619855"
    },
    {
      "id": "pt.ine.add.PTCONT.4740855",
      "street": "QTA LOBA CCI",
      "house": "",
      "postcode": "2950-035",
      "city": "PALMELA",
      "lon": "-8.840800219060704",
      "lat": "38.56822274238191"
    },
    {
      "id": "pt.ine.add.PTCONT.4762377",
      "street": "R VIUVOS",
      "house": "",
      "postcode": "2950-057",
      "city": "PALMELA",
      "lon": "-8.836660838591344",
      "lat": "38.566157777097324"
    },
    {
      "id": "pt.ine.add.PTCONT.4766231",
      "street": "ACEIRO DA ESCAMBIRRA",
      "house": "",
      "postcode": "2950-035",
      "city": "PALMELA",
      "lon": "-8.845698423618295",
      "lat": "38.56228360214198"
    },
    {
      "id": "pt.ine.add.PTCONT.4769703",
      "street": "ACEIRO DA ESCAMBIRRA",
      "house": "",
      "postcode": "2950-035",
      "city": "PALMELA",
      "lon": "-8.840996017786583",
      "lat": "38.56478940834081"
    },
    {
      "id": "pt.ine.add.PTCONT.4769704",
      "street": "ACEIRO DA ESCAMBIRRA",
      "house": "",
      "postcode": "2950-035",
      "city": "PALMELA",
      "lon": "-8.8424470158594",
      "lat": "38.56533012901156"
    },
    {
      "id": "pt.ine.add.PTCONT.4778757",
      "street": "ESTR PALMELA 533",
      "house": "25",
      "postcode": "2950-035",
      "city": "PALMELA",
      "lon": "-8.846242321748875",
      "lat": "38.559271526276206"
    },
    {
      "id": "pt.ine.add.PTCONT.4782009",
      "street": "BR OLIVEIRAS PADEIRAS",
      "house": "6",
      "postcode": "2950-035",
      "city": "PALMELA",
      "lon": "-8.840121864692136",
      "lat": "38.556371952109394"
    },
    {
      "id": "pt.ine.add.PTCONT.4792790",
      "street": "SIT PADEIRAS",
      "house": "2",
      "postcode": "2950-035",
      "city": "PALMELA",
      "lon": "-8.840576139686867",
      "lat": "38.555900776852376"
    },
    {
      "id": "pt.ine.add.PTCONT.4805225",
      "street": "BR OLIVEIRAS PADEIRAS",
      "house": "4",
      "postcode": "2950-035",
      "city": "PALMELA",
      "lon": "-8.84029182135881",
      "lat": "38.55615472671366"
    },
    {
      "id": "pt.ine.add.PTCONT.4822574",
      "street": "SIT PADEIRAS",
      "house": "1",
      "postcode": "2950-035",
      "city": "PALMELA",
      "lon": "-8.840712738936299",
      "lat": "38.55579185183746"
    },
    {
      "id": "pt.ine.add.PTCONT.4837900",
      "street": "CRZT PADEIRAS",
      "house": "25",
      "postcode": "2950-035",
      "city": "PALMELA",
      "lon": "-8.84198634727665",
      "lat": "38.55581117135822"
    },
    {
      "id": "pt.ine.add.PTCONT.4843761",
      "street": "SIT PADEIRAS",
      "house": "15",
      "postcode": "2950-035",
      "city": "PALMELA",
      "lon": "-8.841596225791685",
      "lat": "38.55580452478203"
    },
    {
      "id": "pt.ine.add.PTCONT.4848609",
      "street": "BR OLIVEIRAS PADEIRAS",
      "house": "3",
      "postcode": "2950-035",
      "city": "PALMELA",
      "lon": "-8.840439716571744",
      "lat": "38.55602771721139"
    },
    {
      "id": "pt.ine.add.PTCONT.4848610",
      "street": "SIT PADEIRAS",
      "house": "13A",
      "postcode": "2950-035",
      "city": "PALMELA",
      "lon": "-8.841010557770517",
      "lat": "38.55574500985338"
    },
    {
      "id": "pt.ine.add.PTCONT.4863230",
      "street": "QTA FONTE LOBA CCI",
      "house": "CCI 5507",
      "postcode": "2950-035",
      "city": "PALMELA",
      "lon": "-8.840159817260357",
      "lat": "38.56727173619058"
    },
    {
      "id": "pt.ine.add.PTCONT.4873277",
      "street": "BR OLIVEIRAS PADEIRAS",
      "house": "5",
      "postcode": "2950-035",
      "city": "PALMELA",
      "lon": "-8.840235433994962",
      "lat": "38.55625415845866"
    },
    {
      "id": "pt.ine.add.PTCONT.4896819",
      "street": "BR OLIVEIRAS PADEIRAS",
      "house": "8",
      "postcode": "2950-035",
      "city": "PALMELA",
      "lon": "-8.83991846225338",
      "lat": "38.5566884703159"
    },
    {
      "id": "pt.ine.add.PTCONT.4920471",
      "street": "CRZT PADEIRAS",
      "house": "S N",
      "postcode": "2950-035",
      "city": "PALMELA",
      "lon": "-8.842403749323688",
      "lat": "38.55625905722379"
    },
    {
      "id": "pt.ine.add.PTCONT.4921848",
      "street": "SIT PADEIRAS",
      "house": "19",
      "postcode": "2950-035",
      "city": "PALMELA",
      "lon": "-8.841328491041875",
      "lat": "38.55540978032252"
    },
    {
      "id": "pt.ine.add.PTCONT.4921849",
      "street": "SIT PADEIRAS",
      "house": "19",
      "postcode": "2950-035",
      "city": "PALMELA",
      "lon": "-8.841328491041875",
      "lat": "38.55540978032252"
    },
    {
      "id": "pt.ine.add.PTCONT.4921850",
      "street": "SIT PADEIRAS",
      "house": "19",
      "postcode": "2950-035",
      "city": "PALMELA",
      "lon": "-8.841328491041875",
      "lat": "38.55540978032252"
    },
    {
      "id": "pt.ine.add.PTCONT.4936521",
      "street": "R COMÉRCIO",
      "house": "",
      "postcode": "2950-057",
      "city": "PALMELA",
      "lon": "-8.836664231158286",
      "lat": "38.565328995772546"
    },
    {
      "id": "pt.ine.add.PTCONT.4948051",
      "street": "SIT PADEIRAS",
      "house": "13 B",
      "postcode": "2950-035",
      "city": "PALMELA",
      "lon": "-8.841217752657755",
      "lat": "38.555815823014754"
    },
    {
      "id": "pt.ine.add.PTCONT.4950598",
      "street": "R VIUVOS",
      "house": "",
      "postcode": "2950-035",
      "city": "PALMELA",
      "lon": "-8.839706351269681",
      "lat": "38.567832986970394"
    },
    {
      "id": "pt.ine.add.PTCONT.4954319",
      "street": "CRZT PADEIRAS",
      "house": "N 25",
      "postcode": "2950-035",
      "city": "PALMELA",
      "lon": "-8.842285315851244",
      "lat": "38.555881426858576"
    },
    {
      "id": "pt.ine.add.PTCONT.4965299",
      "street": "BR OLIVEIRAS PADEIRAS",
      "house": "10",
      "postcode": "2950-035",
      "city": "PALMELA",
      "lon": "-8.840001322592418",
      "lat": "38.55694921020176"
    },
    {
      "id": "pt.ine.add.PTCONT.5069791",
      "street": "ESCAMBIRRA",
      "house": "",
      "postcode": "2950-770",
      "city": "PALMELA",
      "lon": "-8.845039065647642",
      "lat": "38.56173810944851"
    },
    {
      "id": "pt.ine.add.PTCONT.5027568",
      "street": "SIT PADEIRAS",
      "house": "18",
      "postcode": "2950-035",
      "city": "PALMELA",
      "lon": "-8.84119348403353",
      "lat": "38.55568084554662"
    },
    {
      "id": "pt.ine.add.PTCONT.5041966",
      "street": "R VIUVOS",
      "house": "",
      "postcode": "2950-035",
      "city": "PALMELA",
      "lon": "-8.83976504205084",
      "lat": "38.56796775666268"
    },
    {
      "id": "pt.ine.add.PTCONT.5053167",
      "street": "SIT PADEIRAS",
      "house": "14",
      "postcode": "2950-035",
      "city": "PALMELA",
      "lon": "-8.841413476373393",
      "lat": "38.55588670521458"
    },
    {
      "id": "pt.ine.add.PTCONT.5057153",
      "street": "R VIUVOS",
      "house": "",
      "postcode": "2950-057",
      "city": "PALMELA",
      "lon": "-8.838258784722454",
      "lat": "38.56647245954048"
    },
    {
      "id": "pt.ine.add.PTCONT.5078417",
      "street": "SIT PADEIRAS",
      "house": "17",
      "postcode": "2950-035",
      "city": "PALMELA",
      "lon": "-8.841547510413017",
      "lat": "38.55551655450787"
    },
    {
      "id": "pt.ine.add.PTCONT.5078418",
      "street": "ACEIRO DA ESCAMBIRRA",
      "house": "",
      "postcode": "2950-035",
      "city": "PALMELA",
      "lon": "-8.845575160072633",
      "lat": "38.5625816254206"
    },
    {
      "id": "pt.ine.add.PTCONT.5103096",
      "street": "BR OLIVEIRAS PADEIRAS",
      "house": "7",
      "postcode": "2950-035",
      "city": "PALMELA",
      "lon": "-8.840031414813252",
      "lat": "38.556507622605466"
    },
    {
      "id": "pt.ine.add.PTCONT.5109170",
      "street": "R COMÉRCIO",
      "house": "9",
      "postcode": "2950-057",
      "city": "PALMELA",
      "lon": "-8.835800171673588",
      "lat": "38.56614493037328"
    },
    {
      "id": "pt.ine.add.PTCONT.5121635",
      "street": "ACEIRO DA ESCAMBIRRA QTA DIMENSAO",
      "house": "",
      "postcode": "2950-035",
      "city": "PALMELA",
      "lon": "-8.843824166794915",
      "lat": "38.56419574193453"
    },
    {
      "id": "pt.ine.add.PTCONT.5125346",
      "street": "BR OLIVEIRAS PADEIRAS",
      "house": "9",
      "postcode": "2950-035",
      "city": "PALMELA",
      "lon": "-8.839999646390945",
      "lat": "38.55677806294537"
    }
  ]
}