{
  "data": {
    "distrito": "Setúbal",
    "concelho": "Palmela",
    "freguesia": "Palmela",
    "OBJECTID": 323,
    "BGRI2021": "15080201009",
    "DT21": "15",
    "DTMN21": "1508",
    "DTMNFR21": "150802",
    "DTMNFRSEC21": "150802010",
    "SECNUM21": "010",
    "SSNUM21": "09",
    "SECSSNUM21": "01009",
    "OBJECTID_1": 165952,
    "DT": "15",
    "CC": "08",
    "fr": "02",
    "SEC": "010",
    "SS": "09"
  },
  "addresses": [
    {
      "id": "pt.ine.add.PTCONT.4665840",
      "street": "R MANUEL SIMÕES",
      "house": "",
      "postcode": "2950-057",
      "city": "PALMELA",
      "lon": "-8.83280178569967",
      "lat": "38.570495868795426"
    },
    {
      "id": "pt.ine.add.PTCONT.4689503",
      "street": "R MANUEL SIMÕES",
      "house": "29",
      "postcode": "2950-057",
      "city": "PALMELA",
      "lon": "-8.832879569251567",
      "lat": "38.57023416410196"
    },
    {
      "id": "pt.ine.add.PTCONT.4711119",
      "street": "BC AMALIA",
      "house": "2",
      "postcode": "2950-057",
      "city": "PALMELA",
      "lon": "-8.834329484113011",
      "lat": "38.5694778010072"
    },
    {
      "id": "pt.ine.add.PTCONT.4714663",
      "street": "R COMÉRCIO",
      "house": "",
      "postcode": "2950-057",
      "city": "PALMELA",
      "lon": "-8.83413617361437",
      "lat": "38.570839206983585"
    },
    {
      "id": "pt.ine.add.PTCONT.4744127",
      "street": "R 25 DE ABRIL",
      "house": "",
      "postcode": "2950-057",
      "city": "PALMELA",
      "lon": "-8.833052751272364",
      "lat": "38.56916114491386"
    },
    {
      "id": "pt.ine.add.PTCONT.4761032",
      "street": "R COMÉRCIO",
      "house": "",
      "postcode": "2950-057",
      "city": "PALMELA",
      "lon": "-8.834357334800016",
      "lat": "38.56998209705346"
    },
    {
      "id": "pt.ine.add.PTCONT.4762383",
      "street": "R COMÉRCIO",
      "house": "",
      "postcode": "2950-057",
      "city": "PALMELA",
      "lon": "-8.834234536822063",
      "lat": "38.57033415501275"
    },
    {
      "id": "pt.ine.add.PTCONT.4764824",
      "street": "R MANUEL SIMÕES",
      "house": "57",
      "postcode": "2950-057",
      "city": "PALMELA",
      "lon": "-8.832809066057276",
      "lat": "38.57006342851743"
    },
    {
      "id": "pt.ine.add.PTCONT.4783075",
      "street": "BC AMALIA",
      "house": "3",
      "postcode": "2950-057",
      "city": "PALMELA",
      "lon": "-8.834054289096787",
      "lat": "38.5694974658196"
    },
    {
      "id": "pt.ine.add.PTCONT.4832372",
      "street": "R 25 DE ABRIL",
      "house": "7",
      "postcode": "2950-057",
      "city": "PALMELA",
      "lon": "-8.832996868305601",
      "lat": "38.56931461961069"
    },
    {
      "id": "pt.ine.add.PTCONT.4852906",
      "street": "R 25 DE ABRIL",
      "house": "39",
      "postcode": "2950-057",
      "city": "PALMELA",
      "lon": "-8.832850942444168",
      "lat": "38.569648797929645"
    },
    {
      "id": "pt.ine.add.PTCONT.4857975",
      "street": "R COMÉRCIO",
      "house": "",
      "postcode": "2950-057",
      "city": "PALMELA",
      "lon": "-8.834332986259891",
      "lat": "38.569838110670254"
    },
    {
      "id": "pt.ine.add.PTCONT.4866515",
      "street": "R COMÉRCIO",
      "house": "",
      "postcode": "2950-057",
      "city": "PALMELA",
      "lon": "-8.834547835709971",
      "lat": "38.56951252579576"
    },
    {
      "id": "pt.ine.add.PTCONT.4876276",
      "street": "R COMÉRCIO",
      "house": "",
      "postcode": "2950-057",
      "city": "PALMELA",
      "lon": "-8.83309538785705",
      "lat": "38.570007667022644"
    },
    {
      "id": "pt.ine.add.PTCONT.4886357",
      "street": "R 25 DE ABRIL",
      "house": "",
      "postcode": "2950-057",
      "city": "PALMELA",
      "lon": "-8.832895701708248",
      "lat": "38.56953142287963"
    },
    {
      "id": "pt.ine.add.PTCONT.4886358",
      "street": "R COMÉRCIO",
      "house": "",
      "postcode": "2950-057",
      "city": "PALMELA",
      "lon": "-8.834132847388064",
      "lat": "38.57049691284852"
    },
    {
      "id": "pt.ine.add.PTCONT.4888732",
      "street": "R 25 ABRIL V VILHENA",
      "house": "V VILHENA",
      "postcode": "2950-057",
      "city": "PALMELA",
      "lon": "-8.832761510845446",
      "lat": "38.56989255571973"
    },
    {
      "id": "pt.ine.add.PTCONT.4915024",
      "street": "R COMÉRCIO",
      "house": "",
      "postcode": "2950-057",
      "city": "PALMELA",
      "lon": "-8.834469445966455",
      "lat": "38.569711177377144"
    },
    {
      "id": "pt.ine.add.PTCONT.4996074",
      "street": "R COMÉRCIO",
      "house": "",
      "postcode": "2950-057",
      "city": "PALMELA",
      "lon": "-8.834324139059094",
      "lat": "38.57010841163918"
    },
    {
      "id": "pt.ine.add.PTCONT.5003548",
      "street": "BC AMALIA",
      "house": "4",
      "postcode": "2950-057",
      "city": "PALMELA",
      "lon": "-8.833800204217596",
      "lat": "38.569327830018686"
    },
    {
      "id": "pt.ine.add.PTCONT.5016366",
      "street": "R COMÉRCIO",
      "house": "CCI 5704",
      "postcode": "2950-057",
      "city": "PALMELA",
      "lon": "-8.833229227583848",
      "lat": "38.56961050284561"
    },
    {
      "id": "pt.ine.add.PTCONT.5020796",
      "street": "R 25 DE ABRIL",
      "house": "",
      "postcode": "2950-057",
      "city": "PALMELA",
      "lon": "-8.832783410155873",
      "lat": "38.56978432562132"
    },
    {
      "id": "pt.ine.add.PTCONT.5023859",
      "street": "R 25 DE ABRIL",
      "house": "",
      "postcode": "2950-057",
      "city": "PALMELA",
      "lon": "-8.833293174524105",
      "lat": "38.56910565739243"
    },
    {
      "id": "pt.ine.add.PTCONT.5033786",
      "street": "BC AMALIA",
      "house": "3",
      "postcode": "2950-057",
      "city": "PALMELA",
      "lon": "-8.833961273955047",
      "lat": "38.56937190705506"
    },
    {
      "id": "pt.ine.add.PTCONT.5105018",
      "street": "R MANUEL SIMOES",
      "house": "",
      "postcode": "2950-057",
      "city": "PALMELA",
      "lon": "-8.833166066489515",
      "lat": "38.57019641791648"
    },
    {
      "id": "pt.ine.add.PTCONT.5121682",
      "street": "R 25 ABRIL VVA GRAVE",
      "house": "VVA GRAVE",
      "postcode": "2950-057",
      "city": "PALMELA",
      "lon": "-8.832940722967322",
      "lat": "38.56944107104533"
    },
    {
      "id": "pt.ine.add.PTCONT.5131444",
      "street": "BC AMALIA",
      "house": "4",
      "postcode": "2950-057",
      "city": "PALMELA",
      "lon": "-8.833800204217596",
      "lat": "38.569327830018686"
    }
  ]
}