{
  "data": {
    "distrito": "Bragança",
    "concelho": "Freixo de Espada À Cinta",
    "freguesia": "União das freguesias de Freixo de Espada à Cinta e Mazouco",
    "OBJECTID": 17,
    "BGRI2021": "04040700215",
    "DT21": "04",
    "DTMN21": "0404",
    "DTMNFR21": "040407",
    "DTMNFRSEC21": "040407002",
    "SECNUM21": "002",
    "SSNUM21": "15",
    "SECSSNUM21": "00215",
    "OBJECTID_1": 34998,
    "DT": "04",
    "CC": "04",
    "fr": "07",
    "SEC": "002",
    "SS": "15"
  },
  "addresses": [
    {
      "id": "pt.ine.add.PTCONT.850381",
      "street": "R DA COSTA",
      "house": "",
      "postcode": "5180-133",
      "city": "FREIXO DE ESPADA À CINTA",
      "lon": "-6.806217028805786",
      "lat": "41.08800563057361"
    },
    {
      "id": "pt.ine.add.PTCONT.851170",
      "street": "R DA COSTA",
      "house": "",
      "postcode": "5180-133",
      "city": "FREIXO DE ESPADA À CINTA",
      "lon": "-6.805817138311687",
      "lat": "41.088361190687756"
    },
    {
      "id": "pt.ine.add.PTCONT.855067",
      "street": "R DA COSTA",
      "house": "",
      "postcode": "5180-133",
      "city": "FREIXO DE ESPADA À CINTA",
      "lon": "-6.806780644179802",
      "lat": "41.08720174578014"
    },
    {
      "id": "pt.ine.add.PTCONT.857308",
      "street": "R DA COSTA",
      "house": "",
      "postcode": "5180-133",
      "city": "FREIXO DE ESPADA À CINTA",
      "lon": "-6.807102484806679",
      "lat": "41.08658416306729"
    },
    {
      "id": "pt.ine.add.PTCONT.861567",
      "street": "R DA COSTA",
      "house": "76",
      "postcode": "5180-133",
      "city": "FREIXO DE ESPADA À CINTA",
      "lon": "-6.806510374273013",
      "lat": "41.08762182972869"
    },
    {
      "id": "pt.ine.add.PTCONT.869553",
      "street": "R DA COSTA",
      "house": "",
      "postcode": "5180-133",
      "city": "FREIXO DE ESPADA À CINTA",
      "lon": "-6.807000603143582",
      "lat": "41.08691614455054"
    },
    {
      "id": "pt.ine.add.PTCONT.871831",
      "street": "R DA COSTA",
      "house": "",
      "postcode": "5180-133",
      "city": "FREIXO DE ESPADA À CINTA",
      "lon": "-6.807099045839305",
      "lat": "41.08675520265215"
    },
    {
      "id": "pt.ine.add.PTCONT.873046",
      "street": "AV GUERRA JUNQUEIRO",
      "house": "",
      "postcode": "5180-104",
      "city": "FREIXO DE ESPADA À CINTA",
      "lon": "-6.80579345883054",
      "lat": "41.08539854736132"
    },
    {
      "id": "pt.ine.add.PTCONT.875144",
      "street": "R DA COSTA",
      "house": "",
      "postcode": "5180-133",
      "city": "FREIXO DE ESPADA À CINTA",
      "lon": "-6.806461332691664",
      "lat": "41.087693298326286"
    },
    {
      "id": "pt.ine.add.PTCONT.877502",
      "street": "R DA COSTA",
      "house": "",
      "postcode": "5180-133",
      "city": "FREIXO DE ESPADA À CINTA",
      "lon": "-6.806277969157674",
      "lat": "41.08793429912402"
    },
    {
      "id": "pt.ine.add.PTCONT.883209",
      "street": "R DA COSTA",
      "house": "55",
      "postcode": "5180-133",
      "city": "FREIXO DE ESPADA À CINTA",
      "lon": "-6.806144552303918",
      "lat": "41.08805882078696"
    },
    {
      "id": "pt.ine.add.PTCONT.885455",
      "street": "AV GUERRA JUNQUEIRO",
      "house": "",
      "postcode": "5180-104",
      "city": "FREIXO DE ESPADA À CINTA",
      "lon": "-6.805666025480286",
      "lat": "41.085225999934096"
    },
    {
      "id": "pt.ine.add.PTCONT.886212",
      "street": "R DA COSTA",
      "house": "",
      "postcode": "5180-133",
      "city": "FREIXO DE ESPADA À CINTA",
      "lon": "-6.805964809841039",
      "lat": "41.08811977949546"
    },
    {
      "id": "pt.ine.add.PTCONT.887918",
      "street": "AV GUERRA JUNQUEIRO",
      "house": "",
      "postcode": "5180-104",
      "city": "FREIXO DE ESPADA À CINTA",
      "lon": "-6.806066903648429",
      "lat": "41.081863058342364"
    },
    {
      "id": "pt.ine.add.PTCONT.892605",
      "street": "AV GUERRA JUNQUEIRO",
      "house": "",
      "postcode": "5180-104",
      "city": "FREIXO DE ESPADA À CINTA",
      "lon": "-6.806804722487058",
      "lat": "41.08600446882167"
    },
    {
      "id": "pt.ine.add.PTCONT.892606",
      "street": "AV GUERRA JUNQUEIRO",
      "house": "",
      "postcode": "5180-104",
      "city": "FREIXO DE ESPADA À CINTA",
      "lon": "-6.806804722487058",
      "lat": "41.08600446882167"
    },
    {
      "id": "pt.ine.add.PTCONT.897918",
      "street": "ESTR DA CONGIDA",
      "house": "",
      "postcode": "5180-112",
      "city": "FREIXO DE ESPADA À CINTA",
      "lon": "-6.805222221311814",
      "lat": "41.088354335111944"
    },
    {
      "id": "pt.ine.add.PTCONT.902166",
      "street": "R DA COSTA",
      "house": "79",
      "postcode": "5180-133",
      "city": "FREIXO DE ESPADA À CINTA",
      "lon": "-6.806632977754721",
      "lat": "41.08744315813247"
    },
    {
      "id": "pt.ine.add.PTCONT.905136",
      "street": "R DA COSTA",
      "house": "",
      "postcode": "5180-133",
      "city": "FREIXO DE ESPADA À CINTA",
      "lon": "-6.806902703042705",
      "lat": "41.08705008010692"
    },
    {
      "id": "pt.ine.add.PTCONT.905276",
      "street": "R DA COSTA",
      "house": "",
      "postcode": "5180-133",
      "city": "FREIXO DE ESPADA À CINTA",
      "lon": "-6.80674313926115",
      "lat": "41.087291355652205"
    },
    {
      "id": "pt.ine.add.PTCONT.906734",
      "street": "AV GUERRA JUNQUEIRO",
      "house": "",
      "postcode": "5180-104",
      "city": "FREIXO DE ESPADA À CINTA",
      "lon": "-6.805495894390179",
      "lat": "41.08480984779143"
    },
    {
      "id": "pt.ine.add.PTCONT.906804",
      "street": "AV GUERRA JUNQUEIRO",
      "house": "",
      "postcode": "5180-104",
      "city": "FREIXO DE ESPADA À CINTA",
      "lon": "-6.8059461377079655",
      "lat": "41.08549935212742"
    },
    {
      "id": "pt.ine.add.PTCONT.907863",
      "street": "AV GUERRA JUNQUEIRO",
      "house": "",
      "postcode": "5180-104",
      "city": "FREIXO DE ESPADA À CINTA",
      "lon": "-6.8054582079723085",
      "lat": "41.08490845935584"
    },
    {
      "id": "pt.ine.add.PTCONT.907864",
      "street": "AV GUERRA JUNQUEIRO",
      "house": "",
      "postcode": "5180-104",
      "city": "FREIXO DE ESPADA À CINTA",
      "lon": "-6.8054582079723085",
      "lat": "41.08490845935584"
    },
    {
      "id": "pt.ine.add.PTCONT.910950",
      "street": "R DA COSTA",
      "house": "",
      "postcode": "5180-133",
      "city": "FREIXO DE ESPADA À CINTA",
      "lon": "-6.8063273733446685",
      "lat": "41.08784482645567"
    },
    {
      "id": "pt.ine.add.PTCONT.913154",
      "street": "AV GUERRA JUNQUEIRO",
      "house": "",
      "postcode": "5180-104",
      "city": "FREIXO DE ESPADA À CINTA",
      "lon": "-6.8060620697194985",
      "lat": "41.081511839894944"
    },
    {
      "id": "pt.ine.add.PTCONT.920728",
      "street": "R DA COSTA",
      "house": "",
      "postcode": "5180-133",
      "city": "FREIXO DE ESPADA À CINTA",
      "lon": "-6.806940026577876",
      "lat": "41.086969472256214"
    },
    {
      "id": "pt.ine.add.PTCONT.935900",
      "street": "R ALBANDEIRA",
      "house": "",
      "postcode": "5180-129",
      "city": "FREIXO DE ESPADA À CINTA",
      "lon": "-6.805539670795055",
      "lat": "41.08854708107784"
    },
    {
      "id": "pt.ine.add.PTCONT.935901",
      "street": "ESTR CONGIDA",
      "house": "",
      "postcode": "5180-112",
      "city": "FREIXO DE ESPADA À CINTA",
      "lon": "-6.805539670795055",
      "lat": "41.08854708107784"
    },
    {
      "id": "pt.ine.add.PTCONT.937322",
      "street": "R DA COSTA",
      "house": "",
      "postcode": "5180-133",
      "city": "FREIXO DE ESPADA À CINTA",
      "lon": "-6.807148809979021",
      "lat": "41.08664772541621"
    },
    {
      "id": "pt.ine.add.PTCONT.937323",
      "street": "R DA COSTA",
      "house": "",
      "postcode": "5180-133",
      "city": "FREIXO DE ESPADA À CINTA",
      "lon": "-6.807148809979021",
      "lat": "41.08664772541621"
    },
    {
      "id": "pt.ine.add.PTCONT.938862",
      "street": "ESTR DA CONGIDA",
      "house": "",
      "postcode": "5180-112",
      "city": "FREIXO DE ESPADA À CINTA",
      "lon": "-6.80541005736938",
      "lat": "41.088482558273405"
    },
    {
      "id": "pt.ine.add.PTCONT.940041",
      "street": "R DA COSTA",
      "house": "",
      "postcode": "5180-133",
      "city": "FREIXO DE ESPADA À CINTA",
      "lon": "-6.805891064800521",
      "lat": "41.08823598408028"
    },
    {
      "id": "pt.ine.add.PTCONT.942050",
      "street": "AV GUERRA JUNQUEIRO",
      "house": "",
      "postcode": "5180-104",
      "city": "FREIXO DE ESPADA À CINTA",
      "lon": "-6.8059547576245745",
      "lat": "41.08211388338076"
    },
    {
      "id": "pt.ine.add.PTCONT.942617",
      "street": "R DA COSTA",
      "house": "",
      "postcode": "5180-133",
      "city": "FREIXO DE ESPADA À CINTA",
      "lon": "-6.807064437686191",
      "lat": "41.086700779315265"
    },
    {
      "id": "pt.ine.add.PTCONT.942618",
      "street": "R DA COSTA",
      "house": "65",
      "postcode": "5180-133",
      "city": "FREIXO DE ESPADA À CINTA",
      "lon": "-6.8064005738660125",
      "lat": "41.087755627803034"
    },
    {
      "id": "pt.ine.add.PTCONT.944748",
      "street": "AV GUERRA JUNQUEIRO",
      "house": "",
      "postcode": "5180-104",
      "city": "FREIXO DE ESPADA À CINTA",
      "lon": "-6.806076864505752",
      "lat": "41.081367943525315"
    }
  ]
}