{
  "data": {
    "distrito": "Braga",
    "concelho": "Barcelos",
    "freguesia": "União das freguesias de Negreiros e Chavão",
    "OBJECTID": 950,
    "BGRI2021": "0302FB00103",
    "DT21": "03",
    "DTMN21": "0302",
    "DTMNFR21": "0302FB",
    "DTMNFRSEC21": "0302FB001",
    "SECNUM21": "001",
    "SSNUM21": "03",
    "SECSSNUM21": "00103",
    "OBJECTID_1": 20298,
    "DT": "03",
    "CC": "02",
    "fr": "FB",
    "SEC": "001",
    "SS": "03"
  },
  "addresses": [
    {
      "id": "pt.ine.add.PTCONT.473862",
      "street": "R NSA SRA GRACA",
      "house": "726",
      "postcode": "4775-190",
      "city": "NEGREIROS",
      "lon": "-8.603606263117232",
      "lat": "41.438456203519976"
    },
    {
      "id": "pt.ine.add.PTCONT.531502",
      "street": "TV VITORINA",
      "house": "41",
      "postcode": "4775-190",
      "city": "NEGREIROS",
      "lon": "-8.603834837819338",
      "lat": "41.44028306185721"
    },
    {
      "id": "pt.ine.add.PTCONT.580464",
      "street": "TV OA VITORINA",
      "house": "22",
      "postcode": "4775-190",
      "city": "NEGREIROS",
      "lon": "-8.603928997675222",
      "lat": "41.44006658277609"
    },
    {
      "id": "pt.ine.add.PTCONT.588827",
      "street": "R MONTE PORREIRO",
      "house": "122",
      "postcode": "4775-190",
      "city": "NEGREIROS",
      "lon": "-8.60432404356749",
      "lat": "41.44009197707875"
    },
    {
      "id": "pt.ine.add.PTCONT.621866",
      "street": "R NSA SRA DA GRAÇA",
      "house": "736",
      "postcode": "4775-190",
      "city": "NEGREIROS",
      "lon": "-8.60386877460689",
      "lat": "41.438356086619365"
    },
    {
      "id": "pt.ine.add.PTCONT.663824",
      "street": "R AGRELA",
      "house": "42",
      "postcode": "4775-190",
      "city": "NEGREIROS",
      "lon": "-8.603578951587968",
      "lat": "41.43964483116798"
    },
    {
      "id": "pt.ine.add.PTCONT.674194",
      "street": "R NSA SRA DA GRAÇA",
      "house": "748",
      "postcode": "4775-190",
      "city": "NEGREIROS",
      "lon": "-8.603999672105425",
      "lat": "41.43825650790612"
    },
    {
      "id": "pt.ine.add.PTCONT.680634",
      "street": "R NSA SRA GRACA",
      "house": "756",
      "postcode": "4775-190",
      "city": "NEGREIROS",
      "lon": "-8.604371363548427",
      "lat": "41.43836303284521"
    },
    {
      "id": "pt.ine.add.PTCONT.736774",
      "street": "R AGRELA",
      "house": "37",
      "postcode": "4775-190",
      "city": "NEGREIROS",
      "lon": "-8.603464764875167",
      "lat": "41.43874490722198"
    },
    {
      "id": "pt.ine.add.PTCONT.742814",
      "street": "R AGRELA",
      "house": "231",
      "postcode": "4775-190",
      "city": "NEGREIROS",
      "lon": "-8.603106649127978",
      "lat": "41.44052014067338"
    },
    {
      "id": "pt.ine.add.PTCONT.748799",
      "street": "R ALMAS",
      "house": "14",
      "postcode": "4775-190",
      "city": "NEGREIROS",
      "lon": "-8.604764378492412",
      "lat": "41.43810931277062"
    },
    {
      "id": "pt.ine.add.PTCONT.762255",
      "street": "R AGRELA",
      "house": "171",
      "postcode": "4775-190",
      "city": "NEGREIROS",
      "lon": "-8.603090916222213",
      "lat": "41.43999797834462"
    },
    {
      "id": "pt.ine.add.PTCONT.766721",
      "street": "TV VITORINA",
      "house": "",
      "postcode": "4775-190",
      "city": "NEGREIROS",
      "lon": "-8.603512167319472",
      "lat": "41.440338405123676"
    },
    {
      "id": "pt.ine.add.PTCONT.787563",
      "street": "R AGRELA",
      "house": "",
      "postcode": "4775-190",
      "city": "NEGREIROS",
      "lon": "-8.603025360502803",
      "lat": "41.44086262117964"
    }
  ]
}