{
  "data": {
    "distrito": "Faro",
    "concelho": "Aljezur",
    "freguesia": "Bordeira",
    "OBJECTID": 39,
    "BGRI2021": "08030200132",
    "DT21": "08",
    "DTMN21": "0803",
    "DTMNFR21": "080302",
    "DTMNFRSEC21": "080302001",
    "SECNUM21": "001",
    "SSNUM21": "32",
    "SECSSNUM21": "00132",
    "OBJECTID_1": 65360,
    "DT": "08",
    "CC": "03",
    "fr": "02",
    "SEC": "001",
    "SS": "32"
  },
  "addresses": [
    {
      "id": "pt.ine.add.PTCONT.1467408",
      "street": "MTE ENDIABRADA",
      "house": "",
      "postcode": "8670-220",
      "city": "BORDEIRA",
      "lon": "-8.837904615024593",
      "lat": "37.191311477685566"
    },
    {
      "id": "pt.ine.add.PTCONT.1469657",
      "street": "",
      "house": "",
      "postcode": "8670-143",
      "city": "BORDEIRA",
      "lon": "-8.81602610678791",
      "lat": "37.21432588081231"
    },
    {
      "id": "pt.ine.add.PTCONT.1475631",
      "street": "QTA DAS ANDORINHAS",
      "house": "",
      "postcode": "8670-143",
      "city": "BORDEIRA",
      "lon": "-8.817202142010212",
      "lat": "37.21605808651453"
    },
    {
      "id": "pt.ine.add.PTCONT.1491171",
      "street": "MTE VALE",
      "house": "",
      "postcode": "8670-220",
      "city": "BORDEIRA",
      "lon": "-8.846411487045119",
      "lat": "37.19050369539618"
    },
    {
      "id": "pt.ine.add.PTCONT.1507693",
      "street": "",
      "house": "",
      "postcode": "8670-211",
      "city": "BORDEIRA",
      "lon": "-8.793650235724765",
      "lat": "37.20250506274602"
    },
    {
      "id": "pt.ine.add.PTCONT.1533663",
      "street": "",
      "house": "",
      "postcode": "8670-143",
      "city": "BORDEIRA",
      "lon": "-8.816336853284936",
      "lat": "37.21505392493049"
    },
    {
      "id": "pt.ine.add.PTCONT.1551086",
      "street": "",
      "house": "",
      "postcode": "8670-143",
      "city": "BORDEIRA",
      "lon": "-8.821569324150598",
      "lat": "37.21436587335515"
    },
    {
      "id": "pt.ine.add.PTCONT.1593672",
      "street": "CORTE PERO JAQUES",
      "house": "",
      "postcode": "8670-211",
      "city": "BORDEIRA",
      "lon": "-8.783310772270243",
      "lat": "37.206571873263655"
    },
    {
      "id": "pt.ine.add.PTCONT.1597788",
      "street": "",
      "house": "",
      "postcode": "8670-143",
      "city": "BORDEIRA",
      "lon": "-8.811103696842208",
      "lat": "37.21441723175112"
    },
    {
      "id": "pt.ine.add.PTCONT.1623432",
      "street": "",
      "house": "",
      "postcode": "8670-143",
      "city": "BORDEIRA",
      "lon": "-8.81969445675081",
      "lat": "37.215088571517775"
    },
    {
      "id": "pt.ine.add.PTCONT.1662884",
      "street": "",
      "house": "",
      "postcode": "8670-211",
      "city": "BORDEIRA",
      "lon": "-8.793021071156046",
      "lat": "37.203986267107155"
    },
    {
      "id": "pt.ine.add.PTCONT.1700442",
      "street": "",
      "house": "",
      "postcode": "8670-211",
      "city": "BORDEIRA",
      "lon": "-8.793652277206991",
      "lat": "37.20273932053432"
    },
    {
      "id": "pt.ine.add.PTCONT.1733848",
      "street": "",
      "house": "",
      "postcode": "8670-143",
      "city": "BORDEIRA",
      "lon": "-8.810946142389865",
      "lat": "37.21443615415704"
    },
    {
      "id": "pt.ine.add.PTCONT.1741823",
      "street": "MTE SAMOVAVEIRA",
      "house": "",
      "postcode": "8670-220",
      "city": "BORDEIRA",
      "lon": "-8.834069000801739",
      "lat": "37.201588002585424"
    },
    {
      "id": "pt.ine.add.PTCONT.1775157",
      "street": "",
      "house": "",
      "postcode": "8670-211",
      "city": "BORDEIRA",
      "lon": "-8.793699653338914",
      "lat": "37.20429784714018"
    },
    {
      "id": "pt.ine.add.PTCONT.1789915",
      "street": "",
      "house": "",
      "postcode": "8670-143",
      "city": "BORDEIRA",
      "lon": "-8.816975934679606",
      "lat": "37.21596027927057"
    },
    {
      "id": "pt.ine.add.PTCONT.1813330",
      "street": "MTE HORTINHAS",
      "house": "",
      "postcode": "8670-220",
      "city": "BORDEIRA",
      "lon": "-8.829428213813115",
      "lat": "37.18932526136206"
    }
  ]
}