{
  "data": {
    "distrito": "Faro",
    "concelho": "Aljezur",
    "freguesia": "Bordeira",
    "OBJECTID": 24,
    "BGRI2021": "08030200135",
    "DT21": "08",
    "DTMN21": "0803",
    "DTMNFR21": "080302",
    "DTMNFRSEC21": "080302001",
    "SECNUM21": "001",
    "SSNUM21": "35",
    "SECSSNUM21": "00135",
    "OBJECTID_1": 65395,
    "DT": "08",
    "CC": "03",
    "fr": "02",
    "SEC": "001",
    "SS": "35"
  },
  "addresses": [
    {
      "id": "pt.ine.add.PTCONT.1480638",
      "street": "MTE VIANA",
      "house": "",
      "postcode": "8670-143",
      "city": "BORDEIRA",
      "lon": "-8.83158008690584",
      "lat": "37.22974191451566"
    },
    {
      "id": "pt.ine.add.PTCONT.1481679",
      "street": "MTE MONTES CAIROS",
      "house": "",
      "postcode": "8670-139",
      "city": "BORDEIRA",
      "lon": "-8.83416064577395",
      "lat": "37.22610452833804"
    },
    {
      "id": "pt.ine.add.PTCONT.1481680",
      "street": "MTE TALISCAS",
      "house": "",
      "postcode": "8670-139",
      "city": "BORDEIRA",
      "lon": "-8.834702551064103",
      "lat": "37.22621845317263"
    },
    {
      "id": "pt.ine.add.PTCONT.1520644",
      "street": "MTE MONTES CAIROS",
      "house": "",
      "postcode": "8670-139",
      "city": "BORDEIRA",
      "lon": "-8.833766130947984",
      "lat": "37.22608884239721"
    },
    {
      "id": "pt.ine.add.PTCONT.1532356",
      "street": "APARTAMENTOS ROSA",
      "house": "",
      "postcode": "8670-143",
      "city": "BORDEIRA",
      "lon": "-8.833224556743357",
      "lat": "37.23088552150039"
    },
    {
      "id": "pt.ine.add.PTCONT.1542604",
      "street": "",
      "house": "",
      "postcode": "8670-211",
      "city": "BORDEIRA",
      "lon": "-8.847366727739137",
      "lat": "37.239279741387676"
    },
    {
      "id": "pt.ine.add.PTCONT.1557086",
      "street": "MTE NOVO",
      "house": "",
      "postcode": "8670-236",
      "city": "BORDEIRA",
      "lon": "-8.848460207995572",
      "lat": "37.23096566639895"
    },
    {
      "id": "pt.ine.add.PTCONT.1569053",
      "street": "MTE MONTES CAIROS",
      "house": "",
      "postcode": "8670-139",
      "city": "BORDEIRA",
      "lon": "-8.834658150360983",
      "lat": "37.22629079856712"
    },
    {
      "id": "pt.ine.add.PTCONT.1572965",
      "street": "MTE MONTES CAIROS",
      "house": "1",
      "postcode": "8670-139",
      "city": "BORDEIRA",
      "lon": "-8.837665485372488",
      "lat": "37.22253367241755"
    },
    {
      "id": "pt.ine.add.PTCONT.1631187",
      "street": "",
      "house": "",
      "postcode": "8670-211",
      "city": "BORDEIRA",
      "lon": "-8.847321699431028",
      "lat": "37.23809065718872"
    },
    {
      "id": "pt.ine.add.PTCONT.1636781",
      "street": "MTE MONTES CAIROS",
      "house": "",
      "postcode": "8670-139",
      "city": "BORDEIRA",
      "lon": "-8.833676192101663",
      "lat": "37.22367461431232"
    },
    {
      "id": "pt.ine.add.PTCONT.1637390",
      "street": "MTE MONTES CAIROS",
      "house": "",
      "postcode": "8670-139",
      "city": "BORDEIRA",
      "lon": "-8.833676192101663",
      "lat": "37.22367461431232"
    },
    {
      "id": "pt.ine.add.PTCONT.1658749",
      "street": "MTE MONTES CAIROS",
      "house": "",
      "postcode": "8670-139",
      "city": "BORDEIRA",
      "lon": "-8.843155973892493",
      "lat": "37.22409570556433"
    },
    {
      "id": "pt.ine.add.PTCONT.1658750",
      "street": "MTE MONTES CAIROS",
      "house": "",
      "postcode": "8670-139",
      "city": "BORDEIRA",
      "lon": "-8.835042818933704",
      "lat": "37.22645971492146"
    },
    {
      "id": "pt.ine.add.PTCONT.1673046",
      "street": "",
      "house": "",
      "postcode": "8670-236",
      "city": "BORDEIRA",
      "lon": "-8.846002057008642",
      "lat": "37.23797246515138"
    },
    {
      "id": "pt.ine.add.PTCONT.1678743",
      "street": "MTE MONTES CAIROS",
      "house": "",
      "postcode": "8670-139",
      "city": "BORDEIRA",
      "lon": "-8.834238848080933",
      "lat": "37.226031983022"
    },
    {
      "id": "pt.ine.add.PTCONT.1689727",
      "street": "MTE MONTES CAIROS",
      "house": "",
      "postcode": "8670-139",
      "city": "BORDEIRA",
      "lon": "-8.834735768063247",
      "lat": "37.22615518431379"
    },
    {
      "id": "pt.ine.add.PTCONT.1711969",
      "street": "",
      "house": "1",
      "postcode": "8670-220",
      "city": "BORDEIRA",
      "lon": "-8.861022863749099",
      "lat": "37.19913682069775"
    },
    {
      "id": "pt.ine.add.PTCONT.1712815",
      "street": "",
      "house": "",
      "postcode": "8670-211",
      "city": "BORDEIRA",
      "lon": "-8.848510406189066",
      "lat": "37.237470783309966"
    },
    {
      "id": "pt.ine.add.PTCONT.1727174",
      "street": "MTE RAINHA",
      "house": "",
      "postcode": "8670-139",
      "city": "BORDEIRA",
      "lon": "-8.839331447778948",
      "lat": "37.23082223035708"
    },
    {
      "id": "pt.ine.add.PTCONT.1727181",
      "street": "",
      "house": "",
      "postcode": "8670-211",
      "city": "BORDEIRA",
      "lon": "-8.84728367933988",
      "lat": "37.23883873902537"
    },
    {
      "id": "pt.ine.add.PTCONT.1733779",
      "street": "",
      "house": "",
      "postcode": "8670-211",
      "city": "BORDEIRA",
      "lon": "-8.848421618409182",
      "lat": "37.23761548402514"
    },
    {
      "id": "pt.ine.add.PTCONT.1759985",
      "street": "MTE RAINHA",
      "house": "",
      "postcode": "8670-139",
      "city": "BORDEIRA",
      "lon": "-8.833393278253453",
      "lat": "37.228415703918486"
    },
    {
      "id": "pt.ine.add.PTCONT.1760002",
      "street": "MTE NOVO",
      "house": "",
      "postcode": "8670-236",
      "city": "BORDEIRA",
      "lon": "-8.850110738225403",
      "lat": "37.237479124976375"
    },
    {
      "id": "pt.ine.add.PTCONT.1764157",
      "street": "MTE NOVO",
      "house": "",
      "postcode": "8670-236",
      "city": "BORDEIRA",
      "lon": "-8.845076997971857",
      "lat": "37.23906827349335"
    },
    {
      "id": "pt.ine.add.PTCONT.1775151",
      "street": "BELAVISTA",
      "house": "",
      "postcode": "8670-220",
      "city": "BORDEIRA",
      "lon": "-8.860625458953367",
      "lat": "37.19880587998928"
    },
    {
      "id": "pt.ine.add.PTCONT.1778341",
      "street": "MTE MONTES CAIROS",
      "house": "",
      "postcode": "8670-139",
      "city": "BORDEIRA",
      "lon": "-8.83584249628681",
      "lat": "37.223995161412816"
    },
    {
      "id": "pt.ine.add.PTCONT.1781425",
      "street": "MTE NOVO",
      "house": "",
      "postcode": "8670-236",
      "city": "BORDEIRA",
      "lon": "-8.849344463683302",
      "lat": "37.23748376213707"
    },
    {
      "id": "pt.ine.add.PTCONT.1784934",
      "street": "MTE MALHADADA CERVA",
      "house": "",
      "postcode": "8670-236",
      "city": "BORDEIRA",
      "lon": "-8.856983312128367",
      "lat": "37.22668805429777"
    },
    {
      "id": "pt.ine.add.PTCONT.1789909",
      "street": "MALHADADA CERVA",
      "house": "",
      "postcode": "8670-236",
      "city": "BORDEIRA",
      "lon": "-8.857932135079496",
      "lat": "37.22575419182042"
    },
    {
      "id": "pt.ine.add.PTCONT.1789917",
      "street": "",
      "house": "",
      "postcode": "8670-211",
      "city": "BORDEIRA",
      "lon": "-8.848354346323898",
      "lat": "37.23765193145464"
    },
    {
      "id": "pt.ine.add.PTCONT.1799739",
      "street": "MTE MALHADADA CERVA",
      "house": "",
      "postcode": "8670-236",
      "city": "BORDEIRA",
      "lon": "-8.854448699731027",
      "lat": "37.227937928221344"
    },
    {
      "id": "pt.ine.add.PTCONT.1805068",
      "street": "MTE MONTES CAIROS",
      "house": "",
      "postcode": "8670-139",
      "city": "BORDEIRA",
      "lon": "-8.834408605140087",
      "lat": "37.2261120705923"
    },
    {
      "id": "pt.ine.add.PTCONT.1812516",
      "street": "MTE NOVO",
      "house": "",
      "postcode": "8670-236",
      "city": "BORDEIRA",
      "lon": "-8.852764972942158",
      "lat": "37.238102753505586"
    },
    {
      "id": "pt.ine.add.PTCONT.1842740",
      "street": "MTE NOVO",
      "house": "",
      "postcode": "8670-236",
      "city": "BORDEIRA",
      "lon": "-8.850223596344323",
      "lat": "37.23749646213188"
    }
  ]
}