{
  "data": {
    "distrito": "Santarém",
    "concelho": "Santarém",
    "freguesia": "União das freguesias de Azoia de Cima e Tremês",
    "OBJECTID": 44,
    "BGRI2021": "14163000223",
    "DT21": "14",
    "DTMN21": "1416",
    "DTMNFR21": "141630",
    "DTMNFRSEC21": "141630002",
    "SECNUM21": "002",
    "SSNUM21": "23",
    "SECSSNUM21": "00223",
    "OBJECTID_1": 154862,
    "DT": "14",
    "CC": "16",
    "fr": "30",
    "SEC": "002",
    "SS": "23"
  },
  "addresses": [
    {
      "id": "pt.ine.add.PTCONT.4402742",
      "street": "R PRINCIPAL",
      "house": "",
      "postcode": "2025-502",
      "city": "TREMÊS",
      "lon": "-8.751511389312343",
      "lat": "39.341202785298364"
    },
    {
      "id": "pt.ine.add.PTCONT.4436443",
      "street": "R RIBEIRINHO",
      "house": "4",
      "postcode": "2025-452",
      "city": "AZOIA DE CIMA",
      "lon": "-8.744721530978737",
      "lat": "39.34605747118257"
    },
    {
      "id": "pt.ine.add.PTCONT.4448824",
      "street": "QTA VALE CLERIGO",
      "house": "",
      "postcode": "2025-452",
      "city": "AZOIA DE CIMA",
      "lon": "-8.749642943441543",
      "lat": "39.34241965167698"
    },
    {
      "id": "pt.ine.add.PTCONT.4507011",
      "street": "R CIDADE DE SANTARÉM",
      "house": "",
      "postcode": "2025-452",
      "city": "AZOIA DE CIMA",
      "lon": "-8.745526325017668",
      "lat": "39.34655763756288"
    },
    {
      "id": "pt.ine.add.PTCONT.4511234",
      "street": "R VALE CLERIGO",
      "house": "",
      "postcode": "2025-452",
      "city": "AZOIA DE CIMA",
      "lon": "-8.749301134075917",
      "lat": "39.3431240169951"
    },
    {
      "id": "pt.ine.add.PTCONT.4519389",
      "street": "SIT SILVEIRA",
      "house": "",
      "postcode": "2025-502",
      "city": "TREMÊS",
      "lon": "-8.746923354734355",
      "lat": "39.336516345724895"
    },
    {
      "id": "pt.ine.add.PTCONT.4527586",
      "street": "CSL VILA SANTA RITA",
      "house": "SN",
      "postcode": "2025-452",
      "city": "AZOIA DE CIMA",
      "lon": "-8.747041585458424",
      "lat": "39.346054263243836"
    },
    {
      "id": "pt.ine.add.PTCONT.4537929",
      "street": "R VALE CLERIGO RIBEIRINHO",
      "house": "",
      "postcode": "2025-452",
      "city": "AZOIA DE CIMA",
      "lon": "-8.746313183788116",
      "lat": "39.34500427083229"
    },
    {
      "id": "pt.ine.add.PTCONT.4549343",
      "street": "R PRINCIPAL",
      "house": "",
      "postcode": "2025-502",
      "city": "TREMÊS",
      "lon": "-8.749328076701287",
      "lat": "39.33694498859279"
    },
    {
      "id": "pt.ine.add.PTCONT.4584853",
      "street": "R PRINCIPAL",
      "house": "",
      "postcode": "2025-502",
      "city": "TREMÊS",
      "lon": "-8.749899678179407",
      "lat": "39.33863530054292"
    },
    {
      "id": "pt.ine.add.PTCONT.4616800",
      "street": "R PRINCIPAL",
      "house": "",
      "postcode": "2025-502",
      "city": "TREMÊS",
      "lon": "-8.74949203572199",
      "lat": "39.33712426296703"
    },
    {
      "id": "pt.ine.add.PTCONT.4617587",
      "street": "R PRINCIPAL",
      "house": "",
      "postcode": "2025-502",
      "city": "TREMÊS",
      "lon": "-8.749768294622337",
      "lat": "39.33820365472959"
    },
    {
      "id": "pt.ine.add.PTCONT.4625444",
      "street": "R PRINCIPAL",
      "house": "",
      "postcode": "2025-502",
      "city": "TREMÊS",
      "lon": "-8.749621485784973",
      "lat": "39.33601570070892"
    },
    {
      "id": "pt.ine.add.PTCONT.4633034",
      "street": "CSL CARRASQUEIRAS",
      "house": "",
      "postcode": "2025-502",
      "city": "TREMÊS",
      "lon": "-8.74958002772704",
      "lat": "39.33789840978179"
    },
    {
      "id": "pt.ine.add.PTCONT.4638797",
      "street": "R PRINCIPAL",
      "house": "",
      "postcode": "2025-502",
      "city": "TREMÊS",
      "lon": "-8.74934842668599",
      "lat": "39.33662062427793"
    }
  ]
}