{
  "data": {
    "distrito": "Coimbra",
    "concelho": "Penacova",
    "freguesia": "Lorvão",
    "OBJECTID": 475,
    "BGRI2021": "06130400116",
    "DT21": "06",
    "DTMN21": "0613",
    "DTMNFR21": "061304",
    "DTMNFRSEC21": "061304001",
    "SECNUM21": "001",
    "SSNUM21": "16",
    "SECSSNUM21": "00116",
    "OBJECTID_1": 55807,
    "DT": "06",
    "CC": "13",
    "fr": "04",
    "SEC": "001",
    "SS": "16"
  },
  "addresses": [
    {
      "id": "pt.ine.add.PTCONT.1218881",
      "street": "R PRINCIPAL",
      "house": "12 A",
      "postcode": "3360-107",
      "city": "LORVÃO",
      "lon": "-8.329687238610564",
      "lat": "40.263233553451784"
    },
    {
      "id": "pt.ine.add.PTCONT.1230050",
      "street": "R PRINCIPAL",
      "house": "6",
      "postcode": "3360-107",
      "city": "LORVÃO",
      "lon": "-8.332104955578334",
      "lat": "40.26589513122722"
    },
    {
      "id": "pt.ine.add.PTCONT.1267961",
      "street": "R PRINCIPAL",
      "house": "",
      "postcode": "3360-107",
      "city": "LORVÃO",
      "lon": "-8.330948056541652",
      "lat": "40.26424905778687"
    },
    {
      "id": "pt.ine.add.PTCONT.1292578",
      "street": "R PRINCIPAL",
      "house": "10",
      "postcode": "3360-107",
      "city": "LORVÃO",
      "lon": "-8.331419472536721",
      "lat": "40.264653510866694"
    },
    {
      "id": "pt.ine.add.PTCONT.1296687",
      "street": "R PRINCIPAL",
      "house": "",
      "postcode": "3360-107",
      "city": "LORVÃO",
      "lon": "-8.331265936533907",
      "lat": "40.26441061789144"
    },
    {
      "id": "pt.ine.add.PTCONT.1307952",
      "street": "R PRINCIPAL",
      "house": "14",
      "postcode": "3360-107",
      "city": "LORVÃO",
      "lon": "-8.329475194424964",
      "lat": "40.26308081520767"
    },
    {
      "id": "pt.ine.add.PTCONT.1320433",
      "street": "R PRINCIPAL",
      "house": "10",
      "postcode": "3360-107",
      "city": "LORVÃO",
      "lon": "-8.329899309845358",
      "lat": "40.26339529703597"
    },
    {
      "id": "pt.ine.add.PTCONT.1320487",
      "street": "R PRINCIPAL",
      "house": "4",
      "postcode": "3360-107",
      "city": "LORVÃO",
      "lon": "-8.332257837684356",
      "lat": "40.26591287977367"
    },
    {
      "id": "pt.ine.add.PTCONT.1328652",
      "street": "R PRINCIPAL",
      "house": "18",
      "postcode": "3360-107",
      "city": "LORVÃO",
      "lon": "-8.329133267874084",
      "lat": "40.26273016949042"
    },
    {
      "id": "pt.ine.add.PTCONT.1328653",
      "street": "R COMEADA",
      "house": "",
      "postcode": "3360-107",
      "city": "LORVÃO",
      "lon": "-8.329804142939382",
      "lat": "40.26300821031143"
    },
    {
      "id": "pt.ine.add.PTCONT.1329663",
      "street": "R PRINCIPAL",
      "house": "16",
      "postcode": "3360-107",
      "city": "LORVÃO",
      "lon": "-8.329251291568712",
      "lat": "40.26289207355045"
    },
    {
      "id": "pt.ine.add.PTCONT.1336054",
      "street": "R COMEADA",
      "house": "",
      "postcode": "3360-107",
      "city": "LORVÃO",
      "lon": "-8.33022734456008",
      "lat": "40.26300749020758"
    },
    {
      "id": "pt.ine.add.PTCONT.1342970",
      "street": "R COMEADA",
      "house": "4",
      "postcode": "3360-107",
      "city": "LORVÃO",
      "lon": "-8.330016109302386",
      "lat": "40.26313393074782"
    },
    {
      "id": "pt.ine.add.PTCONT.1343022",
      "street": "R PRINCIPAL",
      "house": "2",
      "postcode": "3360-107",
      "city": "LORVÃO",
      "lon": "-8.332610282617962",
      "lat": "40.26583122071475"
    },
    {
      "id": "pt.ine.add.PTCONT.1350358",
      "street": "R PRINCIPAL",
      "house": "8",
      "postcode": "3360-107",
      "city": "LORVÃO",
      "lon": "-8.33178469535455",
      "lat": "40.264923057713055"
    }
  ]
}