{
  "data": {
    "distrito": "Vila Real",
    "concelho": "Chaves",
    "freguesia": "São Pedro de Agostém",
    "OBJECTID": 275,
    "BGRI2021": "17033300187",
    "DT21": "17",
    "DTMN21": "1703",
    "DTMNFR21": "170333",
    "DTMNFRSEC21": "170333001",
    "SECNUM21": "001",
    "SSNUM21": "87",
    "SECSSNUM21": "00187",
    "OBJECTID_1": 181707,
    "DT": "17",
    "CC": "03",
    "fr": "33",
    "SEC": "001",
    "SS": "87"
  },
  "addresses": [
    {
      "id": "pt.ine.add.PTCONT.5286782",
      "street": "R ENTRE CAMINHOS",
      "house": "20",
      "postcode": "5400-764",
      "city": "SÃO PEDRO DE AGOSTEM",
      "lon": "-7.485685544646431",
      "lat": "41.714144069996344"
    },
    {
      "id": "pt.ine.add.PTCONT.5287978",
      "street": "R DO PRADO",
      "house": "50",
      "postcode": "5400-761",
      "city": "SÃO PEDRO DE AGOSTEM",
      "lon": "-7.482314158805226",
      "lat": "41.71244138120553"
    },
    {
      "id": "pt.ine.add.PTCONT.5290056",
      "street": "R ENTRE CAMINHOS",
      "house": "",
      "postcode": "5400-764",
      "city": "SÃO PEDRO DE AGOSTEM",
      "lon": "-7.487806036094496",
      "lat": "41.71357977662053"
    },
    {
      "id": "pt.ine.add.PTCONT.5315019",
      "street": "R DO PRADO",
      "house": "",
      "postcode": "5400-761",
      "city": "SÃO PEDRO DE AGOSTEM",
      "lon": "-7.480556028598598",
      "lat": "41.71281855919488"
    },
    {
      "id": "pt.ine.add.PTCONT.5317987",
      "street": "R ENTRE CAMINHOS",
      "house": "2",
      "postcode": "5400-764",
      "city": "SÃO PEDRO DE AGOSTEM",
      "lon": "-7.487398323577543",
      "lat": "41.713496455321675"
    },
    {
      "id": "pt.ine.add.PTCONT.5325321",
      "street": "R DIREITA",
      "house": "41",
      "postcode": "5400-761",
      "city": "SÃO PEDRO DE AGOSTEM",
      "lon": "-7.479842315897496",
      "lat": "41.7121032315757"
    },
    {
      "id": "pt.ine.add.PTCONT.5327687",
      "street": "R DA ESCOLA",
      "house": "3",
      "postcode": "5400-762",
      "city": "SÃO PEDRO DE AGOSTEM",
      "lon": "-7.488734672514834",
      "lat": "41.712036394197"
    },
    {
      "id": "pt.ine.add.PTCONT.5334699",
      "street": "R DA ESCOLA",
      "house": "5 A",
      "postcode": "5400-762",
      "city": "SÃO PEDRO DE AGOSTEM",
      "lon": "-7.488730356511075",
      "lat": "41.71246853566011"
    },
    {
      "id": "pt.ine.add.PTCONT.5344748",
      "street": "LG DO PRADO",
      "house": "",
      "postcode": "5400-761",
      "city": "SÃO PEDRO DE AGOSTEM",
      "lon": "-7.481143683587237",
      "lat": "41.71292993615839"
    },
    {
      "id": "pt.ine.add.PTCONT.5348980",
      "street": "R ENTRE CAMINHOS",
      "house": "16",
      "postcode": "5400-764",
      "city": "SÃO PEDRO DE AGOSTEM",
      "lon": "-7.486361029905433",
      "lat": "41.71388677371685"
    },
    {
      "id": "pt.ine.add.PTCONT.5353044",
      "street": "R DA ESCOLA",
      "house": "1",
      "postcode": "5400-762",
      "city": "SÃO PEDRO DE AGOSTEM",
      "lon": "-7.488554768505471",
      "lat": "41.71320583385146"
    },
    {
      "id": "pt.ine.add.PTCONT.5353045",
      "street": "R DA ESCOLA",
      "house": "",
      "postcode": "5400-762",
      "city": "SÃO PEDRO DE AGOSTEM",
      "lon": "-7.48879726546572",
      "lat": "41.71178464851325"
    },
    {
      "id": "pt.ine.add.PTCONT.5358613",
      "street": "R DA ESCOLA",
      "house": "2 A",
      "postcode": "5400-762",
      "city": "SÃO PEDRO DE AGOSTEM",
      "lon": "-7.488115871682536",
      "lat": "41.71263615386373"
    },
    {
      "id": "pt.ine.add.PTCONT.5389746",
      "street": "R DO PRADO",
      "house": "51",
      "postcode": "5400-761",
      "city": "SÃO PEDRO DE AGOSTEM",
      "lon": "-7.483003690750098",
      "lat": "41.713174563576864"
    },
    {
      "id": "pt.ine.add.PTCONT.5391847",
      "street": "R ENTRE CAMINHOS",
      "house": "18",
      "postcode": "5400-764",
      "city": "SÃO PEDRO DE AGOSTEM",
      "lon": "-7.485988821860766",
      "lat": "41.713857667929545"
    },
    {
      "id": "pt.ine.add.PTCONT.5402639",
      "street": "R DA ESCOLA",
      "house": "3 A",
      "postcode": "5400-762",
      "city": "SÃO PEDRO DE AGOSTEM",
      "lon": "-7.488744349846732",
      "lat": "41.71227053820093"
    },
    {
      "id": "pt.ine.add.PTCONT.5403499",
      "street": "R DO SOL",
      "house": "36",
      "postcode": "5400-761",
      "city": "SÃO PEDRO DE AGOSTEM",
      "lon": "-7.479995595902841",
      "lat": "41.712392213230444"
    },
    {
      "id": "pt.ine.add.PTCONT.5410969",
      "street": "R ENTRE CAMINHOS",
      "house": "26",
      "postcode": "5400-764",
      "city": "SÃO PEDRO DE AGOSTEM",
      "lon": "-7.484999395158279",
      "lat": "41.714266250429304"
    },
    {
      "id": "pt.ine.add.PTCONT.5416034",
      "street": "R DA ESCOLA",
      "house": "4",
      "postcode": "5400-762",
      "city": "SÃO PEDRO DE AGOSTEM",
      "lon": "-7.488763794603034",
      "lat": "41.71272982323284"
    },
    {
      "id": "pt.ine.add.PTCONT.5416975",
      "street": "LG DE VALE PEREIRA",
      "house": "",
      "postcode": "5400-764",
      "city": "SÃO PEDRO DE AGOSTEM",
      "lon": "-7.4856160720272165",
      "lat": "41.71388257857344"
    },
    {
      "id": "pt.ine.add.PTCONT.5419246",
      "street": "R ENTRE CAMINHOS",
      "house": "18",
      "postcode": "5400-764",
      "city": "SÃO PEDRO DE AGOSTEM",
      "lon": "-7.48589134352926",
      "lat": "41.71399217067321"
    },
    {
      "id": "pt.ine.add.PTCONT.5420802",
      "street": "R ENTRE CAMINHOS",
      "house": "16 A",
      "postcode": "5400-764",
      "city": "SÃO PEDRO DE AGOSTEM",
      "lon": "-7.486119366595268",
      "lat": "41.71402046506997"
    }
  ]
}