{
  "data": {
    "distrito": "Coimbra",
    "concelho": "Montemor-O-Velho",
    "freguesia": "União das freguesias de Montemor-o-Velho e Gatões",
    "OBJECTID": 363,
    "BGRI2021": "06101600140",
    "DT21": "06",
    "DTMN21": "0610",
    "DTMNFR21": "061016",
    "DTMNFRSEC21": "061016001",
    "SECNUM21": "001",
    "SSNUM21": "40",
    "SECSSNUM21": "00140",
    "OBJECTID_1": 53880,
    "DT": "06",
    "CC": "10",
    "fr": "16",
    "SEC": "001",
    "SS": "40"
  },
  "addresses": [
    {
      "id": "pt.ine.add.PTCONT.1122204",
      "street": "R CUMEADAS",
      "house": "",
      "postcode": "3140-204",
      "city": "MONTEMOR-O-VELHO",
      "lon": "-8.703295140755607",
      "lat": "40.173685064361585"
    },
    {
      "id": "pt.ine.add.PTCONT.1146441",
      "street": "R SERRADO",
      "house": "",
      "postcode": "3140-204",
      "city": "MONTEMOR-O-VELHO",
      "lon": "-8.699451895012588",
      "lat": "40.17741433833814"
    },
    {
      "id": "pt.ine.add.PTCONT.1174926",
      "street": "R CUMEADAS",
      "house": "",
      "postcode": "3140-204",
      "city": "MONTEMOR-O-VELHO",
      "lon": "-8.70171825339655",
      "lat": "40.17464743985423"
    },
    {
      "id": "pt.ine.add.PTCONT.1194235",
      "street": "R CUMEADAS",
      "house": "",
      "postcode": "3140-204",
      "city": "MONTEMOR-O-VELHO",
      "lon": "-8.701393594690149",
      "lat": "40.17513534983215"
    },
    {
      "id": "pt.ine.add.PTCONT.1218584",
      "street": "R MONTE CUMEADAS",
      "house": "MORADIA",
      "postcode": "3140-204",
      "city": "MONTEMOR-O-VELHO",
      "lon": "-8.702907280019684",
      "lat": "40.173632938748206"
    },
    {
      "id": "pt.ine.add.PTCONT.1222644",
      "street": "R SERRADO",
      "house": "",
      "postcode": "3140-204",
      "city": "MONTEMOR-O-VELHO",
      "lon": "-8.699769108146294",
      "lat": "40.177439803719665"
    },
    {
      "id": "pt.ine.add.PTCONT.1228669",
      "street": "R CUMEADAS",
      "house": "",
      "postcode": "3140-204",
      "city": "MONTEMOR-O-VELHO",
      "lon": "-8.703412009667401",
      "lat": "40.17362144777535"
    },
    {
      "id": "pt.ine.add.PTCONT.1301445",
      "street": "R CUMEADAS",
      "house": "",
      "postcode": "3140-204",
      "city": "MONTEMOR-O-VELHO",
      "lon": "-8.702690325109472",
      "lat": "40.174363480301565"
    },
    {
      "id": "pt.ine.add.PTCONT.1320267",
      "street": "R CUMEADAS",
      "house": "",
      "postcode": "3140-204",
      "city": "MONTEMOR-O-VELHO",
      "lon": "-8.701218697552344",
      "lat": "40.17528030178385"
    },
    {
      "id": "pt.ine.add.PTCONT.1328483",
      "street": "R CUMEADAS",
      "house": "",
      "postcode": "3140-204",
      "city": "MONTEMOR-O-VELHO",
      "lon": "-8.701696126633188",
      "lat": "40.17480965384343"
    }
  ]
}