{
  "data": {
    "distrito": "Beja",
    "concelho": "Serpa",
    "freguesia": "Brinches",
    "OBJECTID": 480,
    "BGRI2021": "02130200169",
    "DT21": "02",
    "DTMN21": "0213",
    "DTMNFR21": "021302",
    "DTMNFRSEC21": "021302001",
    "SECNUM21": "001",
    "SSNUM21": "69",
    "SECSSNUM21": "00169",
    "OBJECTID_1": 19084,
    "DT": "02",
    "CC": "13",
    "fr": "02",
    "SEC": "001",
    "SS": "69"
  },
  "addresses": [
    {
      "id": "pt.ine.add.PTCONT.353588",
      "street": "MALHADA CORTES",
      "house": "",
      "postcode": "7830-122",
      "city": "BRINCHES",
      "lon": "-7.614583967311423",
      "lat": "38.06369814579263"
    },
    {
      "id": "pt.ine.add.PTCONT.354397",
      "street": "MTE ZAMBUJEIRA",
      "house": "",
      "postcode": "7830-122",
      "city": "BRINCHES",
      "lon": "-7.608183541373475",
      "lat": "38.08870598756068"
    },
    {
      "id": "pt.ine.add.PTCONT.366607",
      "street": "VALE PALHAS DE BAIXO",
      "house": "",
      "postcode": "7830-122",
      "city": "BRINCHES",
      "lon": "-7.601172664268084",
      "lat": "38.08720598397601"
    },
    {
      "id": "pt.ine.add.PTCONT.373051",
      "street": "MONTADO CHARNECA",
      "house": "",
      "postcode": "7830-122",
      "city": "BRINCHES",
      "lon": "-7.5709427666194316",
      "lat": "38.06643448552623"
    },
    {
      "id": "pt.ine.add.PTCONT.380316",
      "street": "VALE PALHAS DE CIMA",
      "house": "",
      "postcode": "7830-122",
      "city": "BRINCHES",
      "lon": "-7.601243706181368",
      "lat": "38.0884135204111"
    },
    {
      "id": "pt.ine.add.PTCONT.389562",
      "street": "MTE CHARNECA",
      "house": "",
      "postcode": "7830-122",
      "city": "BRINCHES",
      "lon": "-7.588343394665187",
      "lat": "38.06185871916412"
    },
    {
      "id": "pt.ine.add.PTCONT.389593",
      "street": "MTE CHARNECA",
      "house": "",
      "postcode": "7830-122",
      "city": "BRINCHES",
      "lon": "-7.588343394665187",
      "lat": "38.06185871916412"
    },
    {
      "id": "pt.ine.add.PTCONT.394016",
      "street": "HORTA CHEINHA",
      "house": "",
      "postcode": "7830-122",
      "city": "BRINCHES",
      "lon": "-7.5891291502696845",
      "lat": "38.060384865407784"
    },
    {
      "id": "pt.ine.add.PTCONT.396443",
      "street": "MTE CHARNECA",
      "house": "",
      "postcode": "7830-122",
      "city": "BRINCHES",
      "lon": "-7.588410558780973",
      "lat": "38.062021194247905"
    },
    {
      "id": "pt.ine.add.PTCONT.401266",
      "street": "VL JORGE",
      "house": "",
      "postcode": "7830-122",
      "city": "BRINCHES",
      "lon": "-7.600875425039312",
      "lat": "38.08575417817097"
    },
    {
      "id": "pt.ine.add.PTCONT.415876",
      "street": "MTE AFONSO",
      "house": "",
      "postcode": "7830-122",
      "city": "BRINCHES",
      "lon": "-7.6076777809291585",
      "lat": "38.092478525263864"
    },
    {
      "id": "pt.ine.add.PTCONT.441861",
      "street": "MTE MAGOITA DE BAIXO",
      "house": "",
      "postcode": "7830-122",
      "city": "BRINCHES",
      "lon": "-7.588714673301991",
      "lat": "38.080950694338725"
    },
    {
      "id": "pt.ine.add.PTCONT.444368",
      "street": "MTE MAGOITA DE CIMA",
      "house": "",
      "postcode": "7830-122",
      "city": "BRINCHES",
      "lon": "-7.592518245418145",
      "lat": "38.084490798611334"
    }
  ]
}