{
  "data": {
    "distrito": "Lisboa",
    "concelho": "Mafra",
    "freguesia": "Uni√£o das freguesias de Azueira e Sobral da Abelheira",
    "OBJECTID": 965,
    "BGRI2021": "11091800214",
    "DT21": "11",
    "DTMN21": "1109",
    "DTMNFR21": "110918",
    "DTMNFRSEC21": "110918002",
    "SECNUM21": "002",
    "SSNUM21": "14",
    "SECSSNUM21": "00214",
    "OBJECTID_1": 109143,
    "DT": "11",
    "CC": "09",
    "fr": "18",
    "SEC": "002",
    "SS": "14"
  },
  "addresses": [
    {
      "id": "pt.ine.add.PTCONT.2280955",
      "street": "R PRINCIPAL",
      "house": "4",
      "postcode": "2665-017",
      "city": "AZUEIRA",
      "lon": "-9.275419943816578",
      "lat": "38.99908536100758"
    },
    {
      "id": "pt.ine.add.PTCONT.2284332",
      "street": "R PRINCIPAL",
      "house": "40",
      "postcode": "2665-017",
      "city": "AZUEIRA",
      "lon": "-9.270732553282327",
      "lat": "38.99903208288962"
    },
    {
      "id": "pt.ine.add.PTCONT.2289698",
      "street": "R PRINCIPAL",
      "house": "08",
      "postcode": "2665-017",
      "city": "AZUEIRA",
      "lon": "-9.275219728608203",
      "lat": "38.99955570489623"
    },
    {
      "id": "pt.ine.add.PTCONT.2417779",
      "street": "R PRINCIPAL",
      "house": "38",
      "postcode": "2665-017",
      "city": "AZUEIRA",
      "lon": "-9.271189448838916",
      "lat": "38.99945097346885"
    },
    {
      "id": "pt.ine.add.PTCONT.2426656",
      "street": "R PRINCIPAL",
      "house": "6 A",
      "postcode": "2665-017",
      "city": "AZUEIRA",
      "lon": "-9.275318822848721",
      "lat": "38.99925749127772"
    },
    {
      "id": "pt.ine.add.PTCONT.2486630",
      "street": "LG CHAFARIZ",
      "house": "3",
      "postcode": "2665-017",
      "city": "AZUEIRA",
      "lon": "-9.274241309041157",
      "lat": "38.99972741227709"
    },
    {
      "id": "pt.ine.add.PTCONT.2508090",
      "street": "R PRINCIPAL",
      "house": "",
      "postcode": "2665-017",
      "city": "AZUEIRA",
      "lon": "-9.272982688821163",
      "lat": "38.99898309696494"
    },
    {
      "id": "pt.ine.add.PTCONT.2544250",
      "street": "R VAL",
      "house": "22",
      "postcode": "2665-006",
      "city": "AZUEIRA",
      "lon": "-9.273028302445296",
      "lat": "38.99463208549224"
    },
    {
      "id": "pt.ine.add.PTCONT.2570423",
      "street": "R VAL",
      "house": "3",
      "postcode": "2665-006",
      "city": "AZUEIRA",
      "lon": "-9.272791293856116",
      "lat": "38.99496767429101"
    },
    {
      "id": "pt.ine.add.PTCONT.2615396",
      "street": "R PRINCIPAL",
      "house": "44",
      "postcode": "2665-017",
      "city": "AZUEIRA",
      "lon": "-9.270294276456154",
      "lat": "38.99833378013716"
    },
    {
      "id": "pt.ine.add.PTCONT.2615397",
      "street": "R PRINCIPAL",
      "house": "44",
      "postcode": "2665-017",
      "city": "AZUEIRA",
      "lon": "-9.270294276456154",
      "lat": "38.99833378013716"
    },
    {
      "id": "pt.ine.add.PTCONT.2660514",
      "street": "R PRINCIPAL",
      "house": "24",
      "postcode": "2665-017",
      "city": "AZUEIRA",
      "lon": "-9.272790531272804",
      "lat": "38.99923718094844"
    },
    {
      "id": "pt.ine.add.PTCONT.2677560",
      "street": "R PRINCIPAL",
      "house": "14",
      "postcode": "2665-017",
      "city": "AZUEIRA",
      "lon": "-9.27413555503572",
      "lat": "38.99961135076209"
    },
    {
      "id": "pt.ine.add.PTCONT.2683654",
      "street": "R MORGADA QTA DA MORGADAA",
      "house": "",
      "postcode": "2665-006",
      "city": "AZUEIRA",
      "lon": "-9.269827331500283",
      "lat": "38.99584328537505"
    },
    {
      "id": "pt.ine.add.PTCONT.2703845",
      "street": "R PRINCIPAL",
      "house": "6",
      "postcode": "2665-017",
      "city": "AZUEIRA",
      "lon": "-9.275097798745755",
      "lat": "38.99915156653674"
    },
    {
      "id": "pt.ine.add.PTCONT.2766761",
      "street": "R PRINCIPAL",
      "house": "32",
      "postcode": "2665-017",
      "city": "AZUEIRA",
      "lon": "-9.271844135331232",
      "lat": "38.9992464225543"
    },
    {
      "id": "pt.ine.add.PTCONT.2838533",
      "street": "R VAL",
      "house": "28",
      "postcode": "2665-006",
      "city": "AZUEIRA",
      "lon": "-9.273279739996934",
      "lat": "38.99447650291245"
    },
    {
      "id": "pt.ine.add.PTCONT.2936415",
      "street": "ESTR S CRISTINA QTA DO ULMEIRO",
      "house": "",
      "postcode": "2665-010",
      "city": "AZUEIRA",
      "lon": "-9.271362846736206",
      "lat": "38.996584934339026"
    },
    {
      "id": "pt.ine.add.PTCONT.2936416",
      "street": "R VAL",
      "house": "26",
      "postcode": "2665-006",
      "city": "AZUEIRA",
      "lon": "-9.273189871710947",
      "lat": "38.9946305067163"
    },
    {
      "id": "pt.ine.add.PTCONT.2942289",
      "street": "R PRINCIPAL",
      "house": "46",
      "postcode": "2665-017",
      "city": "AZUEIRA",
      "lon": "-9.270241479853746",
      "lat": "38.997919955175085"
    },
    {
      "id": "pt.ine.add.PTCONT.2975251",
      "street": "R PRINCIPAL",
      "house": "28",
      "postcode": "2665-017",
      "city": "AZUEIRA",
      "lon": "-9.272329308069663",
      "lat": "38.99926870791459"
    },
    {
      "id": "pt.ine.add.PTCONT.3030364",
      "street": "EN 8 BELA VISTA",
      "house": "12",
      "postcode": "2665-009",
      "city": "AZUEIRA",
      "lon": "-9.274698878555496",
      "lat": "38.998750138815765"
    },
    {
      "id": "pt.ine.add.PTCONT.3173630",
      "street": "R VAL",
      "house": "30",
      "postcode": "2665-006",
      "city": "AZUEIRA",
      "lon": "-9.27345227132638",
      "lat": "38.99443878709927"
    },
    {
      "id": "pt.ine.add.PTCONT.3234797",
      "street": "EN 8",
      "house": "56",
      "postcode": "2640-647",
      "city": "SOBRAL DA ABELHEIRA",
      "lon": "-9.273166377500406",
      "lat": "38.99532430496515"
    },
    {
      "id": "pt.ine.add.PTCONT.3234798",
      "street": "EN 8",
      "house": "56",
      "postcode": "2640-647",
      "city": "SOBRAL DA ABELHEIRA",
      "lon": "-9.273166377500406",
      "lat": "38.99532430496515"
    },
    {
      "id": "pt.ine.add.PTCONT.3238580",
      "street": "EN 8",
      "house": "56",
      "postcode": "2640-647",
      "city": "SOBRAL DA ABELHEIRA",
      "lon": "-9.273166377500406",
      "lat": "38.99532430496515"
    },
    {
      "id": "pt.ine.add.PTCONT.3244097",
      "street": "R PRINCIPAL",
      "house": "26",
      "postcode": "2665-017",
      "city": "AZUEIRA",
      "lon": "-9.272571099983274",
      "lat": "38.999230317011005"
    },
    {
      "id": "pt.ine.add.PTCONT.3345424",
      "street": "R PRINCIPAL",
      "house": "12",
      "postcode": "2665-017",
      "city": "AZUEIRA",
      "lon": "-9.27447344109745",
      "lat": "38.999806207822104"
    },
    {
      "id": "pt.ine.add.PTCONT.3348615",
      "street": "R PRINCIPAL",
      "house": "12",
      "postcode": "2665-017",
      "city": "AZUEIRA",
      "lon": "-9.27447344109745",
      "lat": "38.999806207822104"
    },
    {
      "id": "pt.ine.add.PTCONT.3354252",
      "street": "R PRINCIPAL",
      "house": "16",
      "postcode": "2665-017",
      "city": "AZUEIRA",
      "lon": "-9.273983490940722",
      "lat": "38.99948673466121"
    },
    {
      "id": "pt.ine.add.PTCONT.3372387",
      "street": "EN 8",
      "house": "50",
      "postcode": "2640-647",
      "city": "SOBRAL DA ABELHEIRA",
      "lon": "-9.27342256405094",
      "lat": "38.994745328578276"
    },
    {
      "id": "pt.ine.add.PTCONT.3382684",
      "street": "EN 8 QTA DAS PALMEIRAS",
      "house": "08",
      "postcode": "2665-009",
      "city": "AZUEIRA",
      "lon": "-9.274784947438613",
      "lat": "38.99764138890143"
    },
    {
      "id": "pt.ine.add.PTCONT.3400605",
      "street": "EN 8",
      "house": "48",
      "postcode": "2640-647",
      "city": "SOBRAL DA ABELHEIRA",
      "lon": "-9.27343251468407",
      "lat": "38.994646150078346"
    },
    {
      "id": "pt.ine.add.PTCONT.3403934",
      "street": "EN 8",
      "house": "48",
      "postcode": "2640-647",
      "city": "SOBRAL DA ABELHEIRA",
      "lon": "-9.27343251468407",
      "lat": "38.994646150078346"
    },
    {
      "id": "pt.ine.add.PTCONT.3418532",
      "street": "R PRINCIPAL",
      "house": "22",
      "postcode": "2665-017",
      "city": "AZUEIRA",
      "lon": "-9.273208912933335",
      "lat": "38.99941324055631"
    },
    {
      "id": "pt.ine.add.PTCONT.3418533",
      "street": "R PRINCIPAL",
      "house": "30",
      "postcode": "2665-017",
      "city": "AZUEIRA",
      "lon": "-9.272121706937732",
      "lat": "38.999279742366966"
    }
  ]
}