{
  "data": {
    "distrito": "Lisboa",
    "concelho": "Mafra",
    "freguesia": "União das freguesias de Azueira e Sobral da Abelheira",
    "OBJECTID": 1801,
    "BGRI2021": "11091800239",
    "DT21": "11",
    "DTMN21": "1109",
    "DTMNFR21": "110918",
    "DTMNFRSEC21": "110918002",
    "SECNUM21": "002",
    "SSNUM21": "39",
    "SECSSNUM21": "00239",
    "OBJECTID_1": 109154,
    "DT": "11",
    "CC": "09",
    "fr": "18",
    "SEC": "002",
    "SS": "39"
  },
  "addresses": [
    {
      "id": "pt.ine.add.PTCONT.2298810",
      "street": "R FRANCISCO MIRANDA",
      "house": "8",
      "postcode": "2665-003",
      "city": "AZUEIRA",
      "lon": "-9.260705295545504",
      "lat": "39.013811455477985"
    },
    {
      "id": "pt.ine.add.PTCONT.2495818",
      "street": "LG DO FONTANÁRIO",
      "house": "5",
      "postcode": "2665-003",
      "city": "AZUEIRA",
      "lon": "-9.260136073860709",
      "lat": "39.01359177233411"
    },
    {
      "id": "pt.ine.add.PTCONT.2517019",
      "street": "R PRINCIPAL",
      "house": "50",
      "postcode": "2665-003",
      "city": "AZUEIRA",
      "lon": "-9.259754128219408",
      "lat": "39.013532410358714"
    },
    {
      "id": "pt.ine.add.PTCONT.2589140",
      "street": "R TERRAS DE CIMA",
      "house": "07",
      "postcode": "2665-003",
      "city": "AZUEIRA",
      "lon": "-9.259704380445912",
      "lat": "39.01330770666509"
    },
    {
      "id": "pt.ine.add.PTCONT.2615394",
      "street": "R PRINCIPAL",
      "house": "64",
      "postcode": "2665-003",
      "city": "AZUEIRA",
      "lon": "-9.258176038144933",
      "lat": "39.01303422145475"
    },
    {
      "id": "pt.ine.add.PTCONT.2677553",
      "street": "R FRANCISCO MIRANDA",
      "house": "4",
      "postcode": "2665-003",
      "city": "AZUEIRA",
      "lon": "-9.260553795630571",
      "lat": "39.01372284620132"
    },
    {
      "id": "pt.ine.add.PTCONT.2800729",
      "street": "R TERRAS DE CIMA",
      "house": "17",
      "postcode": "2665-003",
      "city": "AZUEIRA",
      "lon": "-9.259478447950448",
      "lat": "39.012165952778744"
    },
    {
      "id": "pt.ine.add.PTCONT.2814713",
      "street": "R PRINCIPAL",
      "house": "58",
      "postcode": "2665-003",
      "city": "AZUEIRA",
      "lon": "-9.259255174072882",
      "lat": "39.01337509575891"
    },
    {
      "id": "pt.ine.add.PTCONT.2855500",
      "street": "R PRINCIPAL",
      "house": "62",
      "postcode": "2665-003",
      "city": "AZUEIRA",
      "lon": "-9.258284070519576",
      "lat": "39.0132943931248"
    },
    {
      "id": "pt.ine.add.PTCONT.2882495",
      "street": "LG FONTANARIO",
      "house": "1",
      "postcode": "2665-003",
      "city": "AZUEIRA",
      "lon": "-9.259845763892915",
      "lat": "39.01348648844232"
    },
    {
      "id": "pt.ine.add.PTCONT.2918988",
      "street": "R TERRAS DE CIMA",
      "house": "15",
      "postcode": "2665-003",
      "city": "AZUEIRA",
      "lon": "-9.259433988060254",
      "lat": "39.01227447049202"
    },
    {
      "id": "pt.ine.add.PTCONT.2956992",
      "street": "R TERRAS DE CIMA",
      "house": "11",
      "postcode": "2665-003",
      "city": "AZUEIRA",
      "lon": "-9.259231202933698",
      "lat": "39.012591686201"
    },
    {
      "id": "pt.ine.add.PTCONT.2956993",
      "street": "R TERRAS DE CIMA",
      "house": "09",
      "postcode": "2665-003",
      "city": "AZUEIRA",
      "lon": "-9.259258147004026",
      "lat": "39.01283462501882"
    },
    {
      "id": "pt.ine.add.PTCONT.3002390",
      "street": "R PRINCIPAL",
      "house": "56",
      "postcode": "2665-003",
      "city": "AZUEIRA",
      "lon": "-9.259625288926236",
      "lat": "39.01341655889662"
    },
    {
      "id": "pt.ine.add.PTCONT.3123360",
      "street": "R PRINCIPAL",
      "house": "60",
      "postcode": "2665-003",
      "city": "AZUEIRA",
      "lon": "-9.25910410535094",
      "lat": "39.01331350251702"
    },
    {
      "id": "pt.ine.add.PTCONT.3307893",
      "street": "LG LAVADOURO",
      "house": "1",
      "postcode": "2665-003",
      "city": "AZUEIRA",
      "lon": "-9.260263770481446",
      "lat": "39.01363557533733"
    },
    {
      "id": "pt.ine.add.PTCONT.3439904",
      "street": "LG FONTANARIO",
      "house": "02",
      "postcode": "2665-003",
      "city": "AZUEIRA",
      "lon": "-9.259878965956702",
      "lat": "39.013396094070565"
    }
  ]
}