{
  "data": {
    "distrito": "Lisboa",
    "concelho": "Lisboa",
    "freguesia": "Campo de Ourique",
    "OBJECTID": 564,
    "BGRI2021": "11065901404",
    "DT21": "11",
    "DTMN21": "1106",
    "DTMNFR21": "110659",
    "DTMNFRSEC21": "110659014",
    "SECNUM21": "014",
    "SSNUM21": "04",
    "SECSSNUM21": "01404",
    "OBJECTID_1": 105130,
    "DT": "11",
    "CC": "06",
    "fr": "59",
    "SEC": "014",
    "SS": "04"
  },
  "addresses": [
    {
      "id": "pt.ine.add.PTCONT.2269513",
      "street": "R 7 MOINHOS",
      "house": "18",
      "postcode": "1350-305",
      "city": "LISBOA",
      "lon": "-9.168889167537037",
      "lat": "38.72240641029177"
    },
    {
      "id": "pt.ine.add.PTCONT.2279625",
      "street": "R 7 MOINHOS",
      "house": "32 B",
      "postcode": "1350-305",
      "city": "LISBOA",
      "lon": "-9.171608093085052",
      "lat": "38.72164721383402"
    },
    {
      "id": "pt.ine.add.PTCONT.2288689",
      "street": "R 7 MOINHOS",
      "house": "17",
      "postcode": "1350-305",
      "city": "LISBOA",
      "lon": "-9.171685182372778",
      "lat": "38.72141232470494"
    },
    {
      "id": "pt.ine.add.PTCONT.2297799",
      "street": "R 7 MOINHOS",
      "house": "21",
      "postcode": "1350-305",
      "city": "LISBOA",
      "lon": "-9.171798717828505",
      "lat": "38.7213122295865"
    },
    {
      "id": "pt.ine.add.PTCONT.2303906",
      "street": "R 7 MOINHOS",
      "house": "120",
      "postcode": "1350-305",
      "city": "LISBOA",
      "lon": "-9.16995538611049",
      "lat": "38.72186005624346"
    },
    {
      "id": "pt.ine.add.PTCONT.2303907",
      "street": "R 7 MOINHOS",
      "house": "120",
      "postcode": "1350-305",
      "city": "LISBOA",
      "lon": "-9.16995538611049",
      "lat": "38.72186005624346"
    },
    {
      "id": "pt.ine.add.PTCONT.2304129",
      "street": "R 7 MOINHOS",
      "house": "120",
      "postcode": "1350-305",
      "city": "LISBOA",
      "lon": "-9.16995538611049",
      "lat": "38.72186005624346"
    },
    {
      "id": "pt.ine.add.PTCONT.2333665",
      "street": "R 7 MOINHOS",
      "house": "23",
      "postcode": "1350-305",
      "city": "LISBOA",
      "lon": "-9.169129437024477",
      "lat": "38.72232321055239"
    },
    {
      "id": "pt.ine.add.PTCONT.2344427",
      "street": "R 7 MOINHOS",
      "house": "20",
      "postcode": "1350-305",
      "city": "LISBOA",
      "lon": "-9.169003618804764",
      "lat": "38.72236936477368"
    },
    {
      "id": "pt.ine.add.PTCONT.2344428",
      "street": "R 7 MOINHOS",
      "house": "30 A",
      "postcode": "1350-305",
      "city": "LISBOA",
      "lon": "-9.171755468075999",
      "lat": "38.721501778863455"
    },
    {
      "id": "pt.ine.add.PTCONT.2356385",
      "street": "R 7 MOINHOS",
      "house": "29",
      "postcode": "1350-305",
      "city": "LISBOA",
      "lon": "-9.171892519125894",
      "lat": "38.721437506164065"
    },
    {
      "id": "pt.ine.add.PTCONT.2388534",
      "street": "R 7 MOINHOS",
      "house": "76",
      "postcode": "1350-305",
      "city": "LISBOA",
      "lon": "-9.168708707222825",
      "lat": "38.72232149934173"
    },
    {
      "id": "pt.ine.add.PTCONT.2388535",
      "street": "R 7 MOINHOS",
      "house": "76",
      "postcode": "1350-305",
      "city": "LISBOA",
      "lon": "-9.168708707222825",
      "lat": "38.72232149934173"
    },
    {
      "id": "pt.ine.add.PTCONT.2388536",
      "street": "R 7 MOINHOS",
      "house": "76",
      "postcode": "1350-305",
      "city": "LISBOA",
      "lon": "-9.168708707222825",
      "lat": "38.72232149934173"
    },
    {
      "id": "pt.ine.add.PTCONT.2388537",
      "street": "R 7 MOINHOS",
      "house": "76",
      "postcode": "1350-305",
      "city": "LISBOA",
      "lon": "-9.168708707222825",
      "lat": "38.72232149934173"
    },
    {
      "id": "pt.ine.add.PTCONT.2388542",
      "street": "R 7 MOINHOS",
      "house": "21",
      "postcode": "1350-305",
      "city": "LISBOA",
      "lon": "-9.170918532749235",
      "lat": "38.72167135296609"
    },
    {
      "id": "pt.ine.add.PTCONT.2425573",
      "street": "R 7 MOINHOS",
      "house": "24",
      "postcode": "1350-305",
      "city": "LISBOA",
      "lon": "-9.171867177986101",
      "lat": "38.72127558988309"
    },
    {
      "id": "pt.ine.add.PTCONT.2433182",
      "street": "R 7 MOINHOS",
      "house": "24",
      "postcode": "1350-305",
      "city": "LISBOA",
      "lon": "-9.169186662542804",
      "lat": "38.72230468769105"
    },
    {
      "id": "pt.ine.add.PTCONT.2449696",
      "street": "R 7 MOINHOS",
      "house": "110 108",
      "postcode": "1350-305",
      "city": "LISBOA",
      "lon": "-9.169589171874632",
      "lat": "38.721980405787335"
    },
    {
      "id": "pt.ine.add.PTCONT.2449697",
      "street": "R 7 MOINHOS",
      "house": "110 108",
      "postcode": "1350-305",
      "city": "LISBOA",
      "lon": "-9.169589171874632",
      "lat": "38.721980405787335"
    },
    {
      "id": "pt.ine.add.PTCONT.2449698",
      "street": "R 7 MOINHOS",
      "house": "110 108",
      "postcode": "1350-305",
      "city": "LISBOA",
      "lon": "-9.169589171874632",
      "lat": "38.721980405787335"
    },
    {
      "id": "pt.ine.add.PTCONT.2450113",
      "street": "R 7 MOINHOS",
      "house": "110 108",
      "postcode": "1350-305",
      "city": "LISBOA",
      "lon": "-9.169589171874632",
      "lat": "38.721980405787335"
    },
    {
      "id": "pt.ine.add.PTCONT.2479281",
      "street": "R 7 MOINHOS",
      "house": "25",
      "postcode": "1350-305",
      "city": "LISBOA",
      "lon": "-9.171959805657059",
      "lat": "38.72131980611166"
    },
    {
      "id": "pt.ine.add.PTCONT.2543073",
      "street": "R 7 MOINHOS",
      "house": "80",
      "postcode": "1350-305",
      "city": "LISBOA",
      "lon": "-9.168800164202203",
      "lat": "38.72228465771197"
    },
    {
      "id": "pt.ine.add.PTCONT.2543082",
      "street": "R 7 MOINHOS",
      "house": "23",
      "postcode": "1350-305",
      "city": "LISBOA",
      "lon": "-9.170711977153102",
      "lat": "38.72170020999944"
    },
    {
      "id": "pt.ine.add.PTCONT.2616929",
      "street": "R 7 MOINHOS",
      "house": "36",
      "postcode": "1350-305",
      "city": "LISBOA",
      "lon": "-9.170768159653273",
      "lat": "38.72160963275577"
    },
    {
      "id": "pt.ine.add.PTCONT.2619361",
      "street": "R 7 MOINHOS",
      "house": "36",
      "postcode": "1350-305",
      "city": "LISBOA",
      "lon": "-9.170768159653273",
      "lat": "38.72160963275577"
    },
    {
      "id": "pt.ine.add.PTCONT.2653161",
      "street": "R 7 MOINHOS",
      "house": "30",
      "postcode": "1350-305",
      "city": "LISBOA",
      "lon": "-9.171720325202282",
      "lat": "38.72145705178995"
    },
    {
      "id": "pt.ine.add.PTCONT.2692804",
      "street": "R 7 MOINHOS",
      "house": "25 E",
      "postcode": "1350-305",
      "city": "LISBOA",
      "lon": "-9.172281981401232",
      "lat": "38.72133495849462"
    },
    {
      "id": "pt.ine.add.PTCONT.2729388",
      "street": "R 7 MOINHOS",
      "house": "72",
      "postcode": "1350-305",
      "city": "LISBOA",
      "lon": "-9.168571391585502",
      "lat": "38.7223677549468"
    },
    {
      "id": "pt.ine.add.PTCONT.2729389",
      "street": "R 7 MOINHOS",
      "house": "72",
      "postcode": "1350-305",
      "city": "LISBOA",
      "lon": "-9.168571391585502",
      "lat": "38.7223677549468"
    },
    {
      "id": "pt.ine.add.PTCONT.2734787",
      "street": "R 7 MOINHOS",
      "house": "72",
      "postcode": "1350-305",
      "city": "LISBOA",
      "lon": "-9.168571391585502",
      "lat": "38.7223677549468"
    },
    {
      "id": "pt.ine.add.PTCONT.2756654",
      "street": "R 7 MOINHOS",
      "house": "34",
      "postcode": "1350-305",
      "city": "LISBOA",
      "lon": "-9.171549825856259",
      "lat": "38.721593684266296"
    },
    {
      "id": "pt.ine.add.PTCONT.2799420",
      "street": "R 7 MOINHOS",
      "house": "25",
      "postcode": "1350-305",
      "city": "LISBOA",
      "lon": "-9.169244018105015",
      "lat": "38.72229517150768"
    },
    {
      "id": "pt.ine.add.PTCONT.2844987",
      "street": "R 7 MOINHOS",
      "house": "116",
      "postcode": "1350-305",
      "city": "LISBOA",
      "lon": "-9.169806835410968",
      "lat": "38.72192442865582"
    },
    {
      "id": "pt.ine.add.PTCONT.2872075",
      "street": "R 7 MOINHOS",
      "house": "20",
      "postcode": "1350-305",
      "city": "LISBOA",
      "lon": "-9.171845227247326",
      "lat": "38.72134784778665"
    },
    {
      "id": "pt.ine.add.PTCONT.2910218",
      "street": "R 7 MOINHOS",
      "house": "25 D",
      "postcode": "1350-305",
      "city": "LISBOA",
      "lon": "-9.172202285320207",
      "lat": "38.72138971402336"
    },
    {
      "id": "pt.ine.add.PTCONT.2917549",
      "street": "R 7 MOINHOS",
      "house": "58",
      "postcode": "1350-305",
      "city": "LISBOA",
      "lon": "-9.168263307917787",
      "lat": "38.72253262475575"
    },
    {
      "id": "pt.ine.add.PTCONT.2974269",
      "street": "R 7 MOINHOS",
      "house": "140",
      "postcode": "1350-305",
      "city": "LISBOA",
      "lon": "-9.170618959001764",
      "lat": "38.721628972672946"
    },
    {
      "id": "pt.ine.add.PTCONT.2992305",
      "street": "R 7 MOINHOS",
      "house": "32 A",
      "postcode": "1350-305",
      "city": "LISBOA",
      "lon": "-9.17148045277184",
      "lat": "38.72156727688614"
    },
    {
      "id": "pt.ine.add.PTCONT.3001396",
      "street": "R 7 MOINHOS",
      "house": "20",
      "postcode": "1350-305",
      "city": "LISBOA",
      "lon": "-9.171421142954935",
      "lat": "38.72144169364647"
    },
    {
      "id": "pt.ine.add.PTCONT.3010687",
      "street": "R 7 MOINHOS",
      "house": "3",
      "postcode": "1350-305",
      "city": "LISBOA",
      "lon": "-9.168434465686996",
      "lat": "38.72244103051585"
    },
    {
      "id": "pt.ine.add.PTCONT.3026193",
      "street": "R 7 MOINHOS",
      "house": "21 A 24",
      "postcode": "1350-305",
      "city": "LISBOA",
      "lon": "-9.171329688432742",
      "lat": "38.721478537298516"
    },
    {
      "id": "pt.ine.add.PTCONT.3026194",
      "street": "R 7 MOINHOS",
      "house": "21 A 24",
      "postcode": "1350-305",
      "city": "LISBOA",
      "lon": "-9.171329688432742",
      "lat": "38.721478537298516"
    },
    {
      "id": "pt.ine.add.PTCONT.3026195",
      "street": "R 7 MOINHOS",
      "house": "21 A 24",
      "postcode": "1350-305",
      "city": "LISBOA",
      "lon": "-9.171329688432742",
      "lat": "38.721478537298516"
    },
    {
      "id": "pt.ine.add.PTCONT.3026196",
      "street": "R 7 MOINHOS",
      "house": "21 A 24",
      "postcode": "1350-305",
      "city": "LISBOA",
      "lon": "-9.171329688432742",
      "lat": "38.721478537298516"
    },
    {
      "id": "pt.ine.add.PTCONT.3029191",
      "street": "R 7 MOINHOS",
      "house": "27",
      "postcode": "1350-305",
      "city": "LISBOA",
      "lon": "-9.170928857226745",
      "lat": "38.721590190587335"
    },
    {
      "id": "pt.ine.add.PTCONT.3029192",
      "street": "R 7 MOINHOS",
      "house": "27",
      "postcode": "1350-305",
      "city": "LISBOA",
      "lon": "-9.170928857226745",
      "lat": "38.721590190587335"
    },
    {
      "id": "pt.ine.add.PTCONT.3029193",
      "street": "R 7 MOINHOS",
      "house": "27",
      "postcode": "1350-305",
      "city": "LISBOA",
      "lon": "-9.170928857226745",
      "lat": "38.721590190587335"
    },
    {
      "id": "pt.ine.add.PTCONT.3029194",
      "street": "R 7 MOINHOS",
      "house": "27",
      "postcode": "1350-305",
      "city": "LISBOA",
      "lon": "-9.170928857226745",
      "lat": "38.721590190587335"
    },
    {
      "id": "pt.ine.add.PTCONT.3029195",
      "street": "R 7 MOINHOS",
      "house": "27",
      "postcode": "1350-305",
      "city": "LISBOA",
      "lon": "-9.170928857226745",
      "lat": "38.721590190587335"
    },
    {
      "id": "pt.ine.add.PTCONT.3029196",
      "street": "R 7 MOINHOS",
      "house": "27",
      "postcode": "1350-305",
      "city": "LISBOA",
      "lon": "-9.170928857226745",
      "lat": "38.721590190587335"
    },
    {
      "id": "pt.ine.add.PTCONT.3056785",
      "street": "R 7 MOINHOS",
      "house": "14",
      "postcode": "1350-305",
      "city": "LISBOA",
      "lon": "-9.171570212616805",
      "lat": "38.72141334601288"
    },
    {
      "id": "pt.ine.add.PTCONT.3076067",
      "street": "R 7 MOINHOS",
      "house": "11",
      "postcode": "1350-305",
      "city": "LISBOA",
      "lon": "-9.171523964000704",
      "lat": "38.721395741103414"
    },
    {
      "id": "pt.ine.add.PTCONT.3094716",
      "street": "R 7 MOINHOS",
      "house": "27",
      "postcode": "1350-305",
      "city": "LISBOA",
      "lon": "-9.172053215975215",
      "lat": "38.72141806245895"
    },
    {
      "id": "pt.ine.add.PTCONT.3102241",
      "street": "R 7 MOINHOS",
      "house": "90",
      "postcode": "1350-305",
      "city": "LISBOA",
      "lon": "-9.169017439169519",
      "lat": "38.722201661911996"
    },
    {
      "id": "pt.ine.add.PTCONT.3102242",
      "street": "R 7 MOINHOS",
      "house": "90",
      "postcode": "1350-305",
      "city": "LISBOA",
      "lon": "-9.169017439169519",
      "lat": "38.722201661911996"
    },
    {
      "id": "pt.ine.add.PTCONT.3153646",
      "street": "R 7 MOINHOS",
      "house": "26",
      "postcode": "1350-305",
      "city": "LISBOA",
      "lon": "-9.171903233682215",
      "lat": "38.7213833638102"
    },
    {
      "id": "pt.ine.add.PTCONT.3159849",
      "street": "R 7 MOINHOS",
      "house": "IA",
      "postcode": "1350-305",
      "city": "LISBOA",
      "lon": "-9.168503578579497",
      "lat": "38.72244942628864"
    },
    {
      "id": "pt.ine.add.PTCONT.3166158",
      "street": "R 7 MOINHOS",
      "house": "82 A 88",
      "postcode": "1350-305",
      "city": "LISBOA",
      "lon": "-9.168903118205767",
      "lat": "38.722247714147564"
    },
    {
      "id": "pt.ine.add.PTCONT.3166159",
      "street": "R 7 MOINHOS",
      "house": "82 A 88",
      "postcode": "1350-305",
      "city": "LISBOA",
      "lon": "-9.168903118205767",
      "lat": "38.722247714147564"
    },
    {
      "id": "pt.ine.add.PTCONT.3166160",
      "street": "R 7 MOINHOS",
      "house": "82 A 88",
      "postcode": "1350-305",
      "city": "LISBOA",
      "lon": "-9.168903118205767",
      "lat": "38.722247714147564"
    },
    {
      "id": "pt.ine.add.PTCONT.3166530",
      "street": "R 7 MOINHOS",
      "house": "82 A 88",
      "postcode": "1350-305",
      "city": "LISBOA",
      "lon": "-9.168903118205767",
      "lat": "38.722247714147564"
    },
    {
      "id": "pt.ine.add.PTCONT.3187666",
      "street": "R 7 MOINHOS",
      "house": "106",
      "postcode": "1350-305",
      "city": "LISBOA",
      "lon": "-9.169486218618504",
      "lat": "38.72201734994745"
    },
    {
      "id": "pt.ine.add.PTCONT.3187667",
      "street": "R 7 MOINHOS",
      "house": "106",
      "postcode": "1350-305",
      "city": "LISBOA",
      "lon": "-9.169486218618504",
      "lat": "38.72201734994745"
    },
    {
      "id": "pt.ine.add.PTCONT.3187668",
      "street": "R 7 MOINHOS",
      "house": "106",
      "postcode": "1350-305",
      "city": "LISBOA",
      "lon": "-9.169486218618504",
      "lat": "38.72201734994745"
    },
    {
      "id": "pt.ine.add.PTCONT.3199262",
      "street": "R 7 MOINHOS",
      "house": "60",
      "postcode": "1350-305",
      "city": "LISBOA",
      "lon": "-9.168377889688623",
      "lat": "38.722504586551715"
    },
    {
      "id": "pt.ine.add.PTCONT.3201732",
      "street": "R 7 MOINHOS",
      "house": "60",
      "postcode": "1350-305",
      "city": "LISBOA",
      "lon": "-9.168377889688623",
      "lat": "38.722504586551715"
    },
    {
      "id": "pt.ine.add.PTCONT.3203157",
      "street": "R 7 MOINHOS",
      "house": "25 26",
      "postcode": "1350-305",
      "city": "LISBOA",
      "lon": "-9.171157885170464",
      "lat": "38.721525102202826"
    },
    {
      "id": "pt.ine.add.PTCONT.3203158",
      "street": "R 7 MOINHOS",
      "house": "25 26",
      "postcode": "1350-305",
      "city": "LISBOA",
      "lon": "-9.171157885170464",
      "lat": "38.721525102202826"
    },
    {
      "id": "pt.ine.add.PTCONT.3210844",
      "street": "R 7 MOINHOS",
      "house": "15",
      "postcode": "1350-305",
      "city": "LISBOA",
      "lon": "-9.171628218972318",
      "lat": "38.721448862173666"
    },
    {
      "id": "pt.ine.add.PTCONT.3270220",
      "street": "R 7 MOINHOS",
      "house": "28",
      "postcode": "1350-305",
      "city": "LISBOA",
      "lon": "-9.172007097658494",
      "lat": "38.72140946444141"
    },
    {
      "id": "pt.ine.add.PTCONT.3279484",
      "street": "R 7 MOINHOS",
      "house": "11226 1",
      "postcode": "1350-305",
      "city": "LISBOA",
      "lon": "-9.171403623341293",
      "lat": "38.72182017928606"
    },
    {
      "id": "pt.ine.add.PTCONT.3298175",
      "street": "R 7 MOINHOS",
      "house": "96 98",
      "postcode": "1350-305",
      "city": "LISBOA",
      "lon": "-9.169372028346054",
      "lat": "38.72207240934026"
    },
    {
      "id": "pt.ine.add.PTCONT.3298176",
      "street": "R 7 MOINHOS",
      "house": "96 98",
      "postcode": "1350-305",
      "city": "LISBOA",
      "lon": "-9.169372028346054",
      "lat": "38.72207240934026"
    },
    {
      "id": "pt.ine.add.PTCONT.3298177",
      "street": "R 7 MOINHOS",
      "house": "96 98",
      "postcode": "1350-305",
      "city": "LISBOA",
      "lon": "-9.169372028346054",
      "lat": "38.72207240934026"
    },
    {
      "id": "pt.ine.add.PTCONT.3298178",
      "street": "R 7 MOINHOS",
      "house": "96 98",
      "postcode": "1350-305",
      "city": "LISBOA",
      "lon": "-9.169372028346054",
      "lat": "38.72207240934026"
    },
    {
      "id": "pt.ine.add.PTCONT.3298179",
      "street": "R 7 MOINHOS",
      "house": "18",
      "postcode": "1350-305",
      "city": "LISBOA",
      "lon": "-9.171742276098314",
      "lat": "38.72138479390895"
    },
    {
      "id": "pt.ine.add.PTCONT.3309285",
      "street": "R 7 MOINHOS",
      "house": "70",
      "postcode": "1350-305",
      "city": "LISBOA",
      "lon": "-9.168491301545584",
      "lat": "38.72239548786854"
    },
    {
      "id": "pt.ine.add.PTCONT.3312023",
      "street": "R 7 MOINHOS",
      "house": "70",
      "postcode": "1350-305",
      "city": "LISBOA",
      "lon": "-9.168491301545584",
      "lat": "38.72239548786854"
    },
    {
      "id": "pt.ine.add.PTCONT.3316883",
      "street": "R 7 MOINHOS",
      "house": "31 A",
      "postcode": "1350-305",
      "city": "LISBOA",
      "lon": "-9.171629783408306",
      "lat": "38.721556942574146"
    },
    {
      "id": "pt.ine.add.PTCONT.3335085",
      "street": "R 7 MOINHOS",
      "house": "92",
      "postcode": "1350-305",
      "city": "LISBOA",
      "lon": "-9.169154754191922",
      "lat": "38.72215540579004"
    },
    {
      "id": "pt.ine.add.PTCONT.3335086",
      "street": "R 7 MOINHOS",
      "house": "92",
      "postcode": "1350-305",
      "city": "LISBOA",
      "lon": "-9.169154754191922",
      "lat": "38.72215540579004"
    },
    {
      "id": "pt.ine.add.PTCONT.3344396",
      "street": "R 7 MOINHOS",
      "house": "19",
      "postcode": "1350-305",
      "city": "LISBOA",
      "lon": "-9.168946393185939",
      "lat": "38.72238788754656"
    },
    {
      "id": "pt.ine.add.PTCONT.3399556",
      "street": "R 7 MOINHOS",
      "house": "JMF",
      "postcode": "1350-305",
      "city": "LISBOA",
      "lon": "-9.16923588427745",
      "lat": "38.722199726066684"
    },
    {
      "id": "pt.ine.add.PTCONT.3426409",
      "street": "R 7 MOINHOS",
      "house": "21",
      "postcode": "1350-305",
      "city": "LISBOA",
      "lon": "-9.169072211476072",
      "lat": "38.72234173338606"
    },
    {
      "id": "pt.ine.add.PTCONT.3452119",
      "street": "R 7 MOINHOS",
      "house": "106",
      "postcode": "1350-305",
      "city": "LISBOA",
      "lon": "-9.169486218618504",
      "lat": "38.72201734994745"
    },
    {
      "id": "pt.ine.add.PTCONT.3454396",
      "street": "R 7 MOINHOS",
      "house": "30",
      "postcode": "1350-305",
      "city": "LISBOA",
      "lon": "-9.171720325202282",
      "lat": "38.72145705178995"
    }
  ]
}