{
  "data": {
    "distrito": "Coimbra",
    "concelho": "Coimbra",
    "freguesia": "Almalaguês",
    "OBJECTID": 704,
    "BGRI2021": "06030100215",
    "DT21": "06",
    "DTMN21": "0603",
    "DTMNFR21": "060301",
    "DTMNFRSEC21": "060301002",
    "SECNUM21": "002",
    "SSNUM21": "15",
    "SECSSNUM21": "00215",
    "OBJECTID_1": 49712,
    "DT": "06",
    "CC": "03",
    "fr": "01",
    "SEC": "002",
    "SS": "15"
  },
  "addresses": [
    {
      "id": "pt.ine.add.PTCONT.1101671",
      "street": "R ESCOLA",
      "house": "5",
      "postcode": "3040-462",
      "city": "ALMALAGUÊS",
      "lon": "-8.38894912294215",
      "lat": "40.14801377126072"
    },
    {
      "id": "pt.ine.add.PTCONT.1102278",
      "street": "R ESCOLA",
      "house": "",
      "postcode": "3040-462",
      "city": "ALMALAGUÊS",
      "lon": "-8.388679336722014",
      "lat": "40.14805039081491"
    },
    {
      "id": "pt.ine.add.PTCONT.1110526",
      "street": "R VALONGO",
      "house": "8",
      "postcode": "3040-462",
      "city": "ALMALAGUÊS",
      "lon": "-8.389731111052935",
      "lat": "40.14686828480431"
    },
    {
      "id": "pt.ine.add.PTCONT.1110527",
      "street": "R VALANGO",
      "house": "1",
      "postcode": "3040-462",
      "city": "ALMALAGUÊS",
      "lon": "-8.389998585135933",
      "lat": "40.14621926298169"
    },
    {
      "id": "pt.ine.add.PTCONT.1129091",
      "street": "R VALONGO",
      "house": "22",
      "postcode": "3040-462",
      "city": "ALMALAGUÊS",
      "lon": "-8.389861015402575",
      "lat": "40.14708413975483"
    },
    {
      "id": "pt.ine.add.PTCONT.1139798",
      "street": "CANTO DA EIRA",
      "house": "6",
      "postcode": "3040-462",
      "city": "ALMALAGUÊS",
      "lon": "-8.390245198225625",
      "lat": "40.14626374540819"
    },
    {
      "id": "pt.ine.add.PTCONT.1150168",
      "street": "R VALONGO",
      "house": "6",
      "postcode": "3040-462",
      "city": "ALMALAGUÊS",
      "lon": "-8.38978931402745",
      "lat": "40.14674207244053"
    },
    {
      "id": "pt.ine.add.PTCONT.1157504",
      "street": "R PRINCIPAL",
      "house": "6",
      "postcode": "3040-462",
      "city": "ALMALAGUÊS",
      "lon": "-8.3896232895903",
      "lat": "40.14628313662067"
    },
    {
      "id": "pt.ine.add.PTCONT.1176305",
      "street": "R JARDIM",
      "house": "22",
      "postcode": "3040-462",
      "city": "ALMALAGUÊS",
      "lon": "-8.39004875018251",
      "lat": "40.14707471739718"
    },
    {
      "id": "pt.ine.add.PTCONT.1176884",
      "street": "R BARREIRO",
      "house": "8",
      "postcode": "3040-462",
      "city": "ALMALAGUÊS",
      "lon": "-8.38786775573462",
      "lat": "40.147565857681634"
    },
    {
      "id": "pt.ine.add.PTCONT.1177468",
      "street": "R BARREIRO",
      "house": "18",
      "postcode": "3040-462",
      "city": "ALMALAGUÊS",
      "lon": "-8.388956871606581",
      "lat": "40.1469510516039"
    },
    {
      "id": "pt.ine.add.PTCONT.1204177",
      "street": "R JARDIM",
      "house": "2",
      "postcode": "3040-462",
      "city": "ALMALAGUÊS",
      "lon": "-8.39078329133387",
      "lat": "40.1458032455593"
    },
    {
      "id": "pt.ine.add.PTCONT.1204178",
      "street": "CANTO DA EIRA",
      "house": "",
      "postcode": "3040-462",
      "city": "ALMALAGUÊS",
      "lon": "-8.390221523696923",
      "lat": "40.14620976224301"
    },
    {
      "id": "pt.ine.add.PTCONT.1205905",
      "street": "R VALONGO",
      "house": "2",
      "postcode": "3040-462",
      "city": "ALMALAGUÊS",
      "lon": "-8.389798981713854",
      "lat": "40.146192687744566"
    },
    {
      "id": "pt.ine.add.PTCONT.1206676",
      "street": "R BARREIRO",
      "house": "12",
      "postcode": "3040-462",
      "city": "ALMALAGUÊS",
      "lon": "-8.38810179481173",
      "lat": "40.14738522347737"
    },
    {
      "id": "pt.ine.add.PTCONT.1220096",
      "street": "R BARREIRO",
      "house": "14",
      "postcode": "3040-462",
      "city": "ALMALAGUÊS",
      "lon": "-8.388312867058803",
      "lat": "40.147339728725186"
    },
    {
      "id": "pt.ine.add.PTCONT.1227767",
      "street": "R BARREIRO",
      "house": "6",
      "postcode": "3040-462",
      "city": "ALMALAGUÊS",
      "lon": "-8.38777403886005",
      "lat": "40.147611093591436"
    },
    {
      "id": "pt.ine.add.PTCONT.1231150",
      "street": "R PRINCIPAL",
      "house": "2",
      "postcode": "3040-462",
      "city": "ALMALAGUÊS",
      "lon": "-8.389436166229167",
      "lat": "40.14645466413119"
    },
    {
      "id": "pt.ine.add.PTCONT.1233788",
      "street": "CANTO DA EIRA",
      "house": "2",
      "postcode": "3040-462",
      "city": "ALMALAGUÊS",
      "lon": "-8.390151586556945",
      "lat": "40.146336000881774"
    },
    {
      "id": "pt.ine.add.PTCONT.1251677",
      "street": "R JARDIM",
      "house": "20",
      "postcode": "3040-462",
      "city": "ALMALAGUÊS",
      "lon": "-8.390083074465085",
      "lat": "40.14684048641759"
    },
    {
      "id": "pt.ine.add.PTCONT.1251678",
      "street": "R PRINCIPAL",
      "house": "30",
      "postcode": "3040-462",
      "city": "ALMALAGUÊS",
      "lon": "-8.390666040135436",
      "lat": "40.14583052427306"
    },
    {
      "id": "pt.ine.add.PTCONT.1256791",
      "street": "R ESCOLA",
      "house": "1",
      "postcode": "3040-462",
      "city": "ALMALAGUÊS",
      "lon": "-8.388491531600904",
      "lat": "40.148041799202815"
    },
    {
      "id": "pt.ine.add.PTCONT.1256792",
      "street": "R BARREIRO",
      "house": "4",
      "postcode": "3040-462",
      "city": "ALMALAGUÊS",
      "lon": "-8.387727298067157",
      "lat": "40.14766523209668"
    },
    {
      "id": "pt.ine.add.PTCONT.1256793",
      "street": "R JARDIM",
      "house": "24",
      "postcode": "3040-462",
      "city": "ALMALAGUÊS",
      "lon": "-8.390154947149346",
      "lat": "40.147227582932445"
    },
    {
      "id": "pt.ine.add.PTCONT.1260961",
      "street": "R ESCOLA",
      "house": "9",
      "postcode": "3040-462",
      "city": "ALMALAGUÊS",
      "lon": "-8.389723442237107",
      "lat": "40.14794901624602"
    },
    {
      "id": "pt.ine.add.PTCONT.1265019",
      "street": "R PRINCIPAL",
      "house": "14",
      "postcode": "3040-462",
      "city": "ALMALAGUÊS",
      "lon": "-8.390068726041488",
      "lat": "40.14614705971462"
    },
    {
      "id": "pt.ine.add.PTCONT.1266984",
      "street": "R JARDIM",
      "house": "30",
      "postcode": "3040-462",
      "city": "ALMALAGUÊS",
      "lon": "-8.391611318302425",
      "lat": "40.147530543384704"
    },
    {
      "id": "pt.ine.add.PTCONT.1268842",
      "street": "R JARDIM",
      "house": "18",
      "postcode": "3040-462",
      "city": "ALMALAGUÊS",
      "lon": "-8.390118043387035",
      "lat": "40.14677736712892"
    },
    {
      "id": "pt.ine.add.PTCONT.1280259",
      "street": "R PRINCIPAL",
      "house": "",
      "postcode": "3040-462",
      "city": "ALMALAGUÊS",
      "lon": "-8.390279861052036",
      "lat": "40.14611957314405"
    },
    {
      "id": "pt.ine.add.PTCONT.1288273",
      "street": "R PRINCIPAL",
      "house": "",
      "postcode": "3040-462",
      "city": "ALMALAGUÊS",
      "lon": "-8.389716901748722",
      "lat": "40.14621088157197"
    },
    {
      "id": "pt.ine.add.PTCONT.1295585",
      "street": "R PRINCIPAL",
      "house": "4",
      "postcode": "3040-462",
      "city": "ALMALAGUÊS",
      "lon": "-8.389518043396967",
      "lat": "40.14638243522044"
    },
    {
      "id": "pt.ine.add.PTCONT.1307311",
      "street": "R PRINCIPAL",
      "house": "",
      "postcode": "3040-462",
      "city": "ALMALAGUÊS",
      "lon": "-8.390162167811582",
      "lat": "40.146029774904015"
    },
    {
      "id": "pt.ine.add.PTCONT.1315388",
      "street": "R PRINCIPAL",
      "house": "8",
      "postcode": "3040-462",
      "city": "ALMALAGUÊS",
      "lon": "-8.38968183109503",
      "lat": "40.14624698310462"
    },
    {
      "id": "pt.ine.add.PTCONT.1324839",
      "street": "R JARDIM",
      "house": "8",
      "postcode": "3040-462",
      "city": "ALMALAGUÊS",
      "lon": "-8.390549332788583",
      "lat": "40.146001896953805"
    },
    {
      "id": "pt.ine.add.PTCONT.1336414",
      "street": "R PRINCIPAL",
      "house": "24",
      "postcode": "3040-462",
      "city": "ALMALAGUÊS",
      "lon": "-8.390537155494595",
      "lat": "40.14588484659844"
    },
    {
      "id": "pt.ine.add.PTCONT.1339895",
      "street": "R ESCOLA",
      "house": "11",
      "postcode": "3040-462",
      "city": "ALMALAGUÊS",
      "lon": "-8.389993159631688",
      "lat": "40.147894382506315"
    },
    {
      "id": "pt.ine.add.PTCONT.1356547",
      "street": "R VALANGO",
      "house": "3",
      "postcode": "3040-462",
      "city": "ALMALAGUÊS",
      "lon": "-8.389951982734722",
      "lat": "40.146309425910204"
    },
    {
      "id": "pt.ine.add.PTCONT.1358551",
      "street": "R PADARIA",
      "house": "",
      "postcode": "3040-462",
      "city": "ALMALAGUÊS",
      "lon": "-8.387764321087007",
      "lat": "40.148151472155945"
    },
    {
      "id": "pt.ine.add.PTCONT.1365362",
      "street": "R PRINCIPAL",
      "house": "16",
      "postcode": "3040-462",
      "city": "ALMALAGUÊS",
      "lon": "-8.390080223880013",
      "lat": "40.14608399251033"
    }
  ]
}