{
  "data": {
    "distrito": "Bragança",
    "concelho": "Bragança",
    "freguesia": "União das freguesias de Parada e Faílde",
    "OBJECTID": 514,
    "BGRI2021": "04025300110",
    "DT21": "04",
    "DTMN21": "0402",
    "DTMNFR21": "040253",
    "DTMNFRSEC21": "040253001",
    "SECNUM21": "001",
    "SSNUM21": "10",
    "SECSSNUM21": "00110",
    "OBJECTID_1": 33955,
    "DT": "04",
    "CC": "02",
    "fr": "53",
    "SEC": "001",
    "SS": "10"
  },
  "addresses": [
    {
      "id": "pt.ine.add.PTCONT.854863",
      "street": "R QUATRO ESQUINAS",
      "house": "",
      "postcode": "5300-721",
      "city": "PARADA BGC",
      "lon": "-6.694122340755371",
      "lat": "41.67785018830092"
    },
    {
      "id": "pt.ine.add.PTCONT.862449",
      "street": "LG SANTO AMARO",
      "house": "",
      "postcode": "5300-721",
      "city": "PARADA BGC",
      "lon": "-6.693962026624022",
      "lat": "41.678577442825826"
    },
    {
      "id": "pt.ine.add.PTCONT.864159",
      "street": "R SANTO AMARO",
      "house": "19",
      "postcode": "5300-721",
      "city": "PARADA BGC",
      "lon": "-6.694283402724047",
      "lat": "41.67816731843754"
    },
    {
      "id": "pt.ine.add.PTCONT.873318",
      "street": "R SETE INFANTES DE LARA",
      "house": "",
      "postcode": "5300-721",
      "city": "PARADA BGC",
      "lon": "-6.694852464296122",
      "lat": "41.678498558984955"
    },
    {
      "id": "pt.ine.add.PTCONT.874644",
      "street": "R SETE INFANTES DE LARA",
      "house": "",
      "postcode": "5300-721",
      "city": "PARADA BGC",
      "lon": "-6.694910088303869",
      "lat": "41.678607319060326"
    },
    {
      "id": "pt.ine.add.PTCONT.876065",
      "street": "BR OLEIROS",
      "house": "",
      "postcode": "5300-721",
      "city": "PARADA BGC",
      "lon": "-6.694582544792056",
      "lat": "41.67821607989421"
    },
    {
      "id": "pt.ine.add.PTCONT.877619",
      "street": "BR QUATRO ESQUINAS",
      "house": "4",
      "postcode": "5300-721",
      "city": "PARADA BGC",
      "lon": "-6.6941545477568365",
      "lat": "41.6780216531305"
    },
    {
      "id": "pt.ine.add.PTCONT.881695",
      "street": "R SETE INFANTES DE LARA",
      "house": "",
      "postcode": "5300-721",
      "city": "PARADA BGC",
      "lon": "-6.694831258828095",
      "lat": "41.67837224824617"
    },
    {
      "id": "pt.ine.add.PTCONT.884656",
      "street": "LG SANTO AMARO",
      "house": "",
      "postcode": "5300-721",
      "city": "PARADA BGC",
      "lon": "-6.694018846951117",
      "lat": "41.67872220622244"
    },
    {
      "id": "pt.ine.add.PTCONT.894768",
      "street": "LG SANTO AMARO",
      "house": "24",
      "postcode": "5300-721",
      "city": "PARADA BGC",
      "lon": "-6.694199536742017",
      "lat": "41.67869745926998"
    },
    {
      "id": "pt.ine.add.PTCONT.903866",
      "street": "LG QUATRO ESQUINAS",
      "house": "37",
      "postcode": "5300-721",
      "city": "PARADA BGC",
      "lon": "-6.694357642971025",
      "lat": "41.67806921238894"
    },
    {
      "id": "pt.ine.add.PTCONT.906290",
      "street": "R SANTO AMARO",
      "house": "44",
      "postcode": "5300-721",
      "city": "PARADA BGC",
      "lon": "-6.69426480521785",
      "lat": "41.67792399815773"
    },
    {
      "id": "pt.ine.add.PTCONT.912204",
      "street": "BR OLEIROS",
      "house": "32",
      "postcode": "5300-721",
      "city": "PARADA BGC",
      "lon": "-6.69468738948345",
      "lat": "41.67836144416688"
    },
    {
      "id": "pt.ine.add.PTCONT.914483",
      "street": "R STO AMARO",
      "house": "",
      "postcode": "5300-721",
      "city": "PARADA BGC",
      "lon": "-6.694195752735624",
      "lat": "41.678328279178096"
    },
    {
      "id": "pt.ine.add.PTCONT.915223",
      "street": "LG SANTO AMARO",
      "house": "",
      "postcode": "5300-721",
      "city": "PARADA BGC",
      "lon": "-6.69362485975551",
      "lat": "41.67861823578235"
    },
    {
      "id": "pt.ine.add.PTCONT.916651",
      "street": "LG SANTO AMARO",
      "house": "",
      "postcode": "5300-721",
      "city": "PARADA BGC",
      "lon": "-6.693824776280923",
      "lat": "41.67826961374973"
    },
    {
      "id": "pt.ine.add.PTCONT.933193",
      "street": "LG DR CAVALEIRO FERREIRA",
      "house": "",
      "postcode": "5300-721",
      "city": "PARADA BGC",
      "lon": "-6.693711538680889",
      "lat": "41.67796208529193"
    },
    {
      "id": "pt.ine.add.PTCONT.935161",
      "street": "BR OLEIROS",
      "house": "",
      "postcode": "5300-721",
      "city": "PARADA BGC",
      "lon": "-6.694052913575882",
      "lat": "41.67773227677131"
    },
    {
      "id": "pt.ine.add.PTCONT.938415",
      "street": "LG SANTO AMARO",
      "house": "",
      "postcode": "5300-721",
      "city": "PARADA BGC",
      "lon": "-6.694365037080474",
      "lat": "41.6782763794274"
    }
  ]
}