{
  "data": {
    "distrito": "Faro",
    "concelho": "Portimão",
    "freguesia": "Portimão",
    "OBJECTID": 497,
    "BGRI2021": "08110303004",
    "DT21": "08",
    "DTMN21": "0811",
    "DTMNFR21": "081103",
    "DTMNFRSEC21": "081103030",
    "SECNUM21": "030",
    "SSNUM21": "04",
    "SECSSNUM21": "03004",
    "OBJECTID_1": 71037,
    "DT": "08",
    "CC": "11",
    "fr": "03",
    "SEC": "030",
    "SS": "04"
  },
  "addresses": [
    {
      "id": "pt.ine.add.PTCONT.1476935",
      "street": "R ALFREDO MASCARENHAS",
      "house": "",
      "postcode": "8500-293",
      "city": "PORTIMÃO",
      "lon": "-8.544358669290574",
      "lat": "37.12740391444521"
    },
    {
      "id": "pt.ine.add.PTCONT.1482787",
      "street": "R JOÃO SIMÕES TAVARES",
      "house": "",
      "postcode": "8500-293",
      "city": "PORTIMÃO",
      "lon": "-8.544037983443145",
      "lat": "37.12845025210101"
    },
    {
      "id": "pt.ine.add.PTCONT.1490801",
      "street": "R ALFREDO MASCARENHAS",
      "house": "",
      "postcode": "8500-293",
      "city": "PORTIMÃO",
      "lon": "-8.544045436646362",
      "lat": "37.12774740216232"
    },
    {
      "id": "pt.ine.add.PTCONT.1520604",
      "street": "R JOÃO SIMÕES TAVARES",
      "house": "",
      "postcode": "8500-293",
      "city": "PORTIMÃO",
      "lon": "-8.54408211904767",
      "lat": "37.1282879089327"
    },
    {
      "id": "pt.ine.add.PTCONT.1570170",
      "street": "R JOAQUIM AGOSTINHO FERNANDES",
      "house": "",
      "postcode": "8500-406",
      "city": "PORTIMÃO",
      "lon": "-8.544009631606704",
      "lat": "37.127369082489"
    },
    {
      "id": "pt.ine.add.PTCONT.1582118",
      "street": "R JOÃO SIMÕES TAVARES",
      "house": "",
      "postcode": "8500-293",
      "city": "PORTIMÃO",
      "lon": "-8.543960429086734",
      "lat": "37.12867578502594"
    },
    {
      "id": "pt.ine.add.PTCONT.1598946",
      "street": "AV BRASIL",
      "house": "",
      "postcode": "8500-504",
      "city": "PORTIMÃO",
      "lon": "-8.543668673762799",
      "lat": "37.12882997540579"
    },
    {
      "id": "pt.ine.add.PTCONT.1660031",
      "street": "R JAIME PALHINHA",
      "house": "",
      "postcode": "8500-406",
      "city": "PORTIMÃO",
      "lon": "-8.544896957968774",
      "lat": "37.1270596443552"
    },
    {
      "id": "pt.ine.add.PTCONT.1674323",
      "street": "AV BRASIL",
      "house": "",
      "postcode": "8500-504",
      "city": "PORTIMÃO",
      "lon": "-8.543757677048173",
      "lat": "37.12864044527524"
    },
    {
      "id": "pt.ine.add.PTCONT.1691122",
      "street": "AV BRASIL",
      "house": "",
      "postcode": "8500-504",
      "city": "PORTIMÃO",
      "lon": "-8.543869186193769",
      "lat": "37.1284508370936"
    },
    {
      "id": "pt.ine.add.PTCONT.1700693",
      "street": "R JOAQUIM AGOSTINHO FERNANDES",
      "house": "14",
      "postcode": "8500-406",
      "city": "PORTIMÃO",
      "lon": "-8.543808100229638",
      "lat": "37.127559002738934"
    },
    {
      "id": "pt.ine.add.PTCONT.1725373",
      "street": "R ALFREDO MASCARENHAS",
      "house": "",
      "postcode": "8500-293",
      "city": "PORTIMÃO",
      "lon": "-8.544504421744461",
      "lat": "37.12730429250483"
    },
    {
      "id": "pt.ine.add.PTCONT.1731277",
      "street": "ALTO QUINTAO",
      "house": "8",
      "postcode": "8500-504",
      "city": "PORTIMÃO",
      "lon": "-8.543935828411774",
      "lat": "37.12828841599273"
    },
    {
      "id": "pt.ine.add.PTCONT.1746028",
      "street": "R JAIME PALHINHA",
      "house": "",
      "postcode": "8500-406",
      "city": "PORTIMÃO",
      "lon": "-8.544615683177378",
      "lat": "37.12706963161414"
    },
    {
      "id": "pt.ine.add.PTCONT.1770654",
      "street": "R POETAS POPULARES",
      "house": "",
      "postcode": "8500-293",
      "city": "PORTIMÃO",
      "lon": "-8.545393113802856",
      "lat": "37.1272471417834"
    },
    {
      "id": "pt.ine.add.PTCONT.1776500",
      "street": "AV BRASIL",
      "house": "",
      "postcode": "8500-504",
      "city": "PORTIMÃO",
      "lon": "-8.54400203194082",
      "lat": "37.12804490128211"
    },
    {
      "id": "pt.ine.add.PTCONT.1786124",
      "street": "R JOAQUIM AGOSTINHO FERNANDES",
      "house": "",
      "postcode": "8500-406",
      "city": "PORTIMÃO",
      "lon": "-8.54418904591494",
      "lat": "37.12725132312186"
    },
    {
      "id": "pt.ine.add.PTCONT.1788441",
      "street": "R ALFREDO MASCARENHAS",
      "house": "11",
      "postcode": "8500-293",
      "city": "PORTIMÃO",
      "lon": "-8.544136191920254",
      "lat": "37.127882246020555"
    },
    {
      "id": "pt.ine.add.PTCONT.1812447",
      "street": "R JOAQUIM AGOSTINHO FERNANDES",
      "house": "",
      "postcode": "8500-406",
      "city": "PORTIMÃO",
      "lon": "-8.544435977392316",
      "lat": "37.127133329238724"
    },
    {
      "id": "pt.ine.add.PTCONT.1817101",
      "street": "R JOÃO SIMÕES TAVARES",
      "house": "",
      "postcode": "8500-293",
      "city": "PORTIMÃO",
      "lon": "-8.544215938118038",
      "lat": "37.12806218081105"
    },
    {
      "id": "pt.ine.add.PTCONT.1823166",
      "street": "R JOÃO SIMÕES TAVARES",
      "house": "1",
      "postcode": "8500-293",
      "city": "PORTIMÃO",
      "lon": "-8.543871523663434",
      "lat": "37.12888333609591"
    },
    {
      "id": "pt.ine.add.PTCONT.1840857",
      "street": "AV BRASIL",
      "house": "",
      "postcode": "8500-504",
      "city": "PORTIMÃO",
      "lon": "-8.543887407027752",
      "lat": "37.12765784419069"
    }
  ]
}