{
  "data": {
    "distrito": "Leiria",
    "concelho": "Caldas da Rainha",
    "freguesia": "Alvorninha",
    "OBJECTID": 897,
    "BGRI2021": "10060200319",
    "DT21": "10",
    "DTMN21": "1006",
    "DTMNFR21": "100602",
    "DTMNFRSEC21": "100602003",
    "SECNUM21": "003",
    "SSNUM21": "19",
    "SECSSNUM21": "00319",
    "OBJECTID_1": 87550,
    "DT": "10",
    "CC": "06",
    "fr": "02",
    "SEC": "003",
    "SS": "19"
  },
  "addresses": [
    {
      "id": "pt.ine.add.PTCONT.1982255",
      "street": "R CASAL VELHO",
      "house": "20",
      "postcode": "2500-368",
      "city": "ALVORNINHA",
      "lon": "-9.052991030613473",
      "lat": "39.39751248285443"
    },
    {
      "id": "pt.ine.add.PTCONT.2012949",
      "street": "TV CONDE",
      "house": "",
      "postcode": "2500-368",
      "city": "ALVORNINHA",
      "lon": "-9.04895786662238",
      "lat": "39.39447294544708"
    },
    {
      "id": "pt.ine.add.PTCONT.2028747",
      "street": "R BARREIRAS",
      "house": "",
      "postcode": "2500-344",
      "city": "ALVORNINHA",
      "lon": "-9.058603225673153",
      "lat": "39.39087491433753"
    },
    {
      "id": "pt.ine.add.PTCONT.2043631",
      "street": "TV CONDE",
      "house": "10",
      "postcode": "2500-368",
      "city": "ALVORNINHA",
      "lon": "-9.048861830853587",
      "lat": "39.394230514700176"
    },
    {
      "id": "pt.ine.add.PTCONT.2045844",
      "street": "R CASAL VELHO",
      "house": "14",
      "postcode": "2500-368",
      "city": "ALVORNINHA",
      "lon": "-9.053515746467195",
      "lat": "39.39680579397138"
    },
    {
      "id": "pt.ine.add.PTCONT.2061702",
      "street": "EM 567",
      "house": "33",
      "postcode": "2500-344",
      "city": "ALVORNINHA",
      "lon": "-9.05424085686444",
      "lat": "39.391035630885064"
    },
    {
      "id": "pt.ine.add.PTCONT.2067787",
      "street": "EM 567",
      "house": "29",
      "postcode": "2500-344",
      "city": "ALVORNINHA",
      "lon": "-9.054949089385028",
      "lat": "39.391048035312885"
    },
    {
      "id": "pt.ine.add.PTCONT.2076274",
      "street": "EM 567",
      "house": "23",
      "postcode": "2500-344",
      "city": "ALVORNINHA",
      "lon": "-9.057473122109915",
      "lat": "39.390559649545644"
    },
    {
      "id": "pt.ine.add.PTCONT.2078521",
      "street": "R ESTRADA FUNDA",
      "house": "3",
      "postcode": "2500-368",
      "city": "ALVORNINHA",
      "lon": "-9.05237263801007",
      "lat": "39.397274184216684"
    },
    {
      "id": "pt.ine.add.PTCONT.2086534",
      "street": "EM 567",
      "house": "31",
      "postcode": "2500-344",
      "city": "ALVORNINHA",
      "lon": "-9.054396123655643",
      "lat": "39.391367657422116"
    },
    {
      "id": "pt.ine.add.PTCONT.2139074",
      "street": "TV CONDE",
      "house": "12",
      "postcode": "2500-368",
      "city": "ALVORNINHA",
      "lon": "-9.049001821823929",
      "lat": "39.394283454212406"
    },
    {
      "id": "pt.ine.add.PTCONT.2157499",
      "street": "R CASCALHEIRA",
      "house": "",
      "postcode": "2500-368",
      "city": "ALVORNINHA",
      "lon": "-9.05604519520731",
      "lat": "39.3958310229009"
    },
    {
      "id": "pt.ine.add.PTCONT.2159787",
      "street": "EM 567",
      "house": "27",
      "postcode": "2500-344",
      "city": "ALVORNINHA",
      "lon": "-9.056767863093356",
      "lat": "39.39077240977484"
    },
    {
      "id": "pt.ine.add.PTCONT.2166314",
      "street": "R ESTRADA FUNDA",
      "house": "1",
      "postcode": "2500-368",
      "city": "ALVORNINHA",
      "lon": "-9.052036846944883",
      "lat": "39.39733988535364"
    },
    {
      "id": "pt.ine.add.PTCONT.2173347",
      "street": "EM 567",
      "house": "",
      "postcode": "2500-344",
      "city": "ALVORNINHA",
      "lon": "-9.05860697909668",
      "lat": "39.390280428039965"
    },
    {
      "id": "pt.ine.add.PTCONT.2183706",
      "street": "R TIANQUE",
      "house": "9",
      "postcode": "2500-368",
      "city": "ALVORNINHA",
      "lon": "-9.056176554751096",
      "lat": "39.396109194922836"
    },
    {
      "id": "pt.ine.add.PTCONT.2185320",
      "street": "R DO TANQUE",
      "house": "11",
      "postcode": "2500-368",
      "city": "ALVORNINHA",
      "lon": "-9.056057514555787",
      "lat": "39.39588496662492"
    },
    {
      "id": "pt.ine.add.PTCONT.2198691",
      "street": "R CASCALHEIRA",
      "house": "",
      "postcode": "2500-365",
      "city": "ALVORNINHA",
      "lon": "-9.055114253441849",
      "lat": "39.39654094325338"
    },
    {
      "id": "pt.ine.add.PTCONT.2249713",
      "street": "R CASAL VELHO",
      "house": "24",
      "postcode": "2500-368",
      "city": "ALVORNINHA",
      "lon": "-9.05244665734539",
      "lat": "39.39760685494037"
    }
  ]
}