{
  "data": {
    "distrito": "Leiria",
    "concelho": "Caldas da Rainha",
    "freguesia": "Alvorninha",
    "OBJECTID": 776,
    "BGRI2021": "10060200328",
    "DT21": "10",
    "DTMN21": "1006",
    "DTMNFR21": "100602",
    "DTMNFRSEC21": "100602003",
    "SECNUM21": "003",
    "SSNUM21": "28",
    "SECSSNUM21": "00328",
    "OBJECTID_1": 87982,
    "DT": "10",
    "CC": "06",
    "fr": "02",
    "SEC": "003",
    "SS": "28"
  },
  "addresses": [
    {
      "id": "pt.ine.add.PTCONT.2021213",
      "street": "R CENTRAZ DO SALGUEIRINHO",
      "house": "9",
      "postcode": "2500-363",
      "city": "ALVORNINHA",
      "lon": "-9.049630549922659",
      "lat": "39.3970886596256"
    },
    {
      "id": "pt.ine.add.PTCONT.2026111",
      "street": "R SALGUEIRINHO",
      "house": "1",
      "postcode": "2500-363",
      "city": "ALVORNINHA",
      "lon": "-9.04919471100192",
      "lat": "39.39660571912899"
    },
    {
      "id": "pt.ine.add.PTCONT.2036175",
      "street": "R FONTE",
      "house": "21",
      "postcode": "2500-379",
      "city": "ALVORNINHA",
      "lon": "-9.045885419158335",
      "lat": "39.39654166083173"
    },
    {
      "id": "pt.ine.add.PTCONT.2038769",
      "street": "R CENTRAZ DO SALGUEIRINHO",
      "house": "7",
      "postcode": "2500-363",
      "city": "ALVORNINHA",
      "lon": "-9.049899998228215",
      "lat": "39.397275681729106"
    },
    {
      "id": "pt.ine.add.PTCONT.2065853",
      "street": "R CONDE",
      "house": "13",
      "postcode": "2500-368",
      "city": "ALVORNINHA",
      "lon": "-9.048683984276837",
      "lat": "39.39660973955346"
    },
    {
      "id": "pt.ine.add.PTCONT.2087452",
      "street": "R CENTRAZ DO SALGUEIRINHO",
      "house": "11",
      "postcode": "2500-363",
      "city": "ALVORNINHA",
      "lon": "-9.049395336337863",
      "lat": "39.39685633270818"
    },
    {
      "id": "pt.ine.add.PTCONT.2112329",
      "street": "R CENTRAZ DO SALGUEIRINHO",
      "house": "",
      "postcode": "2500-363",
      "city": "ALVORNINHA",
      "lon": "-9.050672938919258",
      "lat": "39.39779198891846"
    },
    {
      "id": "pt.ine.add.PTCONT.2127646",
      "street": "R CENTRAZ DO SALGUEIRINHO",
      "house": "",
      "postcode": "2500-363",
      "city": "ALVORNINHA",
      "lon": "-9.05016874039844",
      "lat": "39.397408667305676"
    },
    {
      "id": "pt.ine.add.PTCONT.2198693",
      "street": "R CONDE",
      "house": "IT",
      "postcode": "2500-368",
      "city": "ALVORNINHA",
      "lon": "-9.047389563652223",
      "lat": "39.396160566608614"
    },
    {
      "id": "pt.ine.add.PTCONT.2244822",
      "street": "R ESCORIAL",
      "house": "8",
      "postcode": "2500-379",
      "city": "ALVORNINHA",
      "lon": "-9.045126848938922",
      "lat": "39.400690788607754"
    }
  ]
}