{
  "data": {
    "distrito": "Beja",
    "concelho": "Moura",
    "freguesia": "Póvoa de São Miguel",
    "OBJECTID": 213,
    "BGRI2021": "02100200177",
    "DT21": "02",
    "DTMN21": "0210",
    "DTMNFR21": "021002",
    "DTMNFRSEC21": "021002001",
    "SECNUM21": "001",
    "SSNUM21": "77",
    "SECSSNUM21": "00177",
    "OBJECTID_1": 16487,
    "DT": "02",
    "CC": "10",
    "fr": "02",
    "SEC": "001",
    "SS": "77"
  },
  "addresses": [
    {
      "id": "pt.ine.add.PTCONT.354278",
      "street": "MTE BATARDO",
      "house": "",
      "postcode": "7885-276",
      "city": "PÓVOA DE SÃO MIGUEL",
      "lon": "-7.283303317250814",
      "lat": "38.25785564796881"
    },
    {
      "id": "pt.ine.add.PTCONT.358444",
      "street": "MTE CHAINHA",
      "house": "",
      "postcode": "7885-276",
      "city": "PÓVOA DE SÃO MIGUEL",
      "lon": "-7.31651304704622",
      "lat": "38.26732534613808"
    },
    {
      "id": "pt.ine.add.PTCONT.362321",
      "street": "MTE BARRETO",
      "house": "",
      "postcode": "7885-276",
      "city": "PÓVOA DE SÃO MIGUEL",
      "lon": "-7.279426438374588",
      "lat": "38.25622396527515"
    },
    {
      "id": "pt.ine.add.PTCONT.377489",
      "street": "MTE ENG FIRMO",
      "house": "",
      "postcode": "7885-276",
      "city": "PÓVOA DE SÃO MIGUEL",
      "lon": "-7.287544150322524",
      "lat": "38.25668813067242"
    },
    {
      "id": "pt.ine.add.PTCONT.377989",
      "street": "MTE BENTO",
      "house": "",
      "postcode": "7885-276",
      "city": "PÓVOA DE SÃO MIGUEL",
      "lon": "-7.2867194986195285",
      "lat": "38.25588041393561"
    },
    {
      "id": "pt.ine.add.PTCONT.384283",
      "street": "MTE ROCHA",
      "house": "",
      "postcode": "7885-276",
      "city": "PÓVOA DE SÃO MIGUEL",
      "lon": "-7.284859736514471",
      "lat": "38.258614628481375"
    },
    {
      "id": "pt.ine.add.PTCONT.390914",
      "street": "MTE VALHO CHAINHA",
      "house": "",
      "postcode": "7885-276",
      "city": "PÓVOA DE SÃO MIGUEL",
      "lon": "-7.322327659991758",
      "lat": "38.26746476431405"
    },
    {
      "id": "pt.ine.add.PTCONT.398014",
      "street": "MTE RITA ALFAIATE",
      "house": "",
      "postcode": "7885-276",
      "city": "PÓVOA DE SÃO MIGUEL",
      "lon": "-7.278074956557325",
      "lat": "38.25748434707097"
    },
    {
      "id": "pt.ine.add.PTCONT.406367",
      "street": "MTE RAVASCO",
      "house": "",
      "postcode": "7885-276",
      "city": "PÓVOA DE SÃO MIGUEL",
      "lon": "-7.310823227324798",
      "lat": "38.24598007764076"
    },
    {
      "id": "pt.ine.add.PTCONT.415153",
      "street": "MTE CORTES",
      "house": "",
      "postcode": "7885-276",
      "city": "PÓVOA DE SÃO MIGUEL",
      "lon": "-7.324605394923924",
      "lat": "38.24856223888291"
    },
    {
      "id": "pt.ine.add.PTCONT.423930",
      "street": "MTE ALEIXO",
      "house": "",
      "postcode": "7885-276",
      "city": "PÓVOA DE SÃO MIGUEL",
      "lon": "-7.2783481324856565",
      "lat": "38.2556215437815"
    },
    {
      "id": "pt.ine.add.PTCONT.426116",
      "street": "",
      "house": "",
      "postcode": "7885-276",
      "city": "PÓVOA DE SÃO MIGUEL",
      "lon": "-7.280295761118827",
      "lat": "38.255158255030096"
    },
    {
      "id": "pt.ine.add.PTCONT.432307",
      "street": "MTE REBENTÃO",
      "house": "",
      "postcode": "7885-276",
      "city": "PÓVOA DE SÃO MIGUEL",
      "lon": "-7.300580309849038",
      "lat": "38.264672937474536"
    },
    {
      "id": "pt.ine.add.PTCONT.443936",
      "street": "MTE FRASQUILHO",
      "house": "",
      "postcode": "7885-276",
      "city": "PÓVOA DE SÃO MIGUEL",
      "lon": "-7.316799887947722",
      "lat": "38.251904481318014"
    }
  ]
}