{
  "data": {
    "distrito": "Beja",
    "concelho": "Moura",
    "freguesia": "Póvoa de São Miguel",
    "OBJECTID": 216,
    "BGRI2021": "02100200179",
    "DT21": "02",
    "DTMN21": "0210",
    "DTMNFR21": "021002",
    "DTMNFRSEC21": "021002001",
    "SECNUM21": "001",
    "SSNUM21": "79",
    "SECSSNUM21": "00179",
    "OBJECTID_1": 16560,
    "DT": "02",
    "CC": "10",
    "fr": "02",
    "SEC": "001",
    "SS": "79"
  },
  "addresses": [
    {
      "id": "pt.ine.add.PTCONT.356716",
      "street": "MTE POCARRAS",
      "house": "2",
      "postcode": "7885-263",
      "city": "PÓVOA DE SÃO MIGUEL",
      "lon": "-7.330444894079226",
      "lat": "38.253575127224316"
    },
    {
      "id": "pt.ine.add.PTCONT.396862",
      "street": "MTE VELHO DAS ANTAS",
      "house": "",
      "postcode": "7885-263",
      "city": "PÓVOA DE SÃO MIGUEL",
      "lon": "-7.344188644129313",
      "lat": "38.26941552237719"
    },
    {
      "id": "pt.ine.add.PTCONT.422995",
      "street": "MTE POCARAS",
      "house": "",
      "postcode": "7885-263",
      "city": "PÓVOA DE SÃO MIGUEL",
      "lon": "-7.331442835691119",
      "lat": "38.256329600871894"
    },
    {
      "id": "pt.ine.add.PTCONT.427038",
      "street": "MTE FITAS",
      "house": "",
      "postcode": "7885-263",
      "city": "PÓVOA DE SÃO MIGUEL",
      "lon": "-7.344124761813961",
      "lat": "38.26053252801356"
    },
    {
      "id": "pt.ine.add.PTCONT.440210",
      "street": "MTE NOVO DAS ANTAS",
      "house": "",
      "postcode": "7885-263",
      "city": "PÓVOA DE SÃO MIGUEL",
      "lon": "-7.350708072077317",
      "lat": "38.28056687190457"
    },
    {
      "id": "pt.ine.add.PTCONT.441070",
      "street": "MTE ZÉ PRATA",
      "house": "",
      "postcode": "7885-263",
      "city": "PÓVOA DE SÃO MIGUEL",
      "lon": "-7.331839026296078",
      "lat": "38.26810665718027"
    },
    {
      "id": "pt.ine.add.PTCONT.445707",
      "street": "MTE MARCO ALTO",
      "house": "",
      "postcode": "7885-263",
      "city": "PÓVOA DE SÃO MIGUEL",
      "lon": "-7.332070469152914",
      "lat": "38.258477955571635"
    },
    {
      "id": "pt.ine.add.PTCONT.449655",
      "street": "MTE DAS ANTAS",
      "house": "",
      "postcode": "7885-263",
      "city": "PÓVOA DE SÃO MIGUEL",
      "lon": "-7.3408582020331545",
      "lat": "38.27620363885797"
    },
    {
      "id": "pt.ine.add.PTCONT.453047",
      "street": "MTE PADRO",
      "house": "",
      "postcode": "7885-263",
      "city": "PÓVOA DE SÃO MIGUEL",
      "lon": "-7.351080647605783",
      "lat": "38.27673166281464"
    }
  ]
}