{
  "data": {
    "distrito": "Lisboa",
    "concelho": "Odivelas",
    "freguesia": "União das freguesias de Pontinha e Famões",
    "OBJECTID": 115,
    "BGRI2021": "11160801912",
    "DT21": "11",
    "DTMN21": "1116",
    "DTMNFR21": "111608",
    "DTMNFRSEC21": "111608019",
    "SECNUM21": "019",
    "SSNUM21": "12",
    "SECSSNUM21": "01912",
    "OBJECTID_1": 119700,
    "DT": "11",
    "CC": "16",
    "fr": "08",
    "SEC": "019",
    "SS": "12"
  },
  "addresses": [
    {
      "id": "pt.ine.add.PTCONT.2275679",
      "street": "R AFONSO LOPES VIEIRA",
      "house": "",
      "postcode": "1685-695",
      "city": "FAMÕES",
      "lon": "-9.207305651326749",
      "lat": "38.7988005550277"
    },
    {
      "id": "pt.ine.add.PTCONT.2337838",
      "street": "R AFONSO LOPES VIEIRA",
      "house": "",
      "postcode": "1685-695",
      "city": "FAMÕES",
      "lon": "-9.207058954730108",
      "lat": "38.79846953722056"
    },
    {
      "id": "pt.ine.add.PTCONT.2554914",
      "street": "R JOSE REGIO",
      "house": "",
      "postcode": "1685-190",
      "city": "FAMÕES",
      "lon": "-9.20737173190041",
      "lat": "38.79860177762236"
    },
    {
      "id": "pt.ine.add.PTCONT.2718861",
      "street": "R TORCATO FERREIRA",
      "house": "61",
      "postcode": "1685-157",
      "city": "FAMÕES",
      "lon": "-9.207717955801481",
      "lat": "38.79866164779706"
    },
    {
      "id": "pt.ine.add.PTCONT.3210032",
      "street": "R JOSE REGIO",
      "house": "",
      "postcode": "1685-190",
      "city": "FAMÕES",
      "lon": "-9.207623582447482",
      "lat": "38.7985093845096"
    },
    {
      "id": "pt.ine.add.PTCONT.3221970",
      "street": "R TORCATO FERREIRA",
      "house": "",
      "postcode": "1685-157",
      "city": "FAMÕES",
      "lon": "-9.207535025150074",
      "lat": "38.79874439963276"
    },
    {
      "id": "pt.ine.add.PTCONT.3246968",
      "street": "R AFONSO LOPES VIEIRA",
      "house": "",
      "postcode": "1685-695",
      "city": "FAMÕES",
      "lon": "-9.207317295815065",
      "lat": "38.79880945568851"
    },
    {
      "id": "pt.ine.add.PTCONT.3292936",
      "street": "R AFONSO LOPES VIEIRA",
      "house": "",
      "postcode": "1685-695",
      "city": "FAMÕES",
      "lon": "-9.207223463941421",
      "lat": "38.79869321798134"
    },
    {
      "id": "pt.ine.add.PTCONT.3292937",
      "street": "R AFONSO LOPES VIEIRA",
      "house": "",
      "postcode": "1685-695",
      "city": "FAMÕES",
      "lon": "-9.207223463941421",
      "lat": "38.79869321798134"
    },
    {
      "id": "pt.ine.add.PTCONT.3312211",
      "street": "R JOSÉ RÉGIO",
      "house": "",
      "postcode": "1685-137",
      "city": "FAMÕES",
      "lon": "-9.207093482372446",
      "lat": "38.79846921984408"
    }
  ]
}