{
  "data": {
    "distrito": "Leiria",
    "concelho": "Bombarral",
    "freguesia": "Carvalhal",
    "OBJECTID": 161,
    "BGRI2021": "10050200202",
    "DT21": "10",
    "DTMN21": "1005",
    "DTMNFR21": "100502",
    "DTMNFRSEC21": "100502002",
    "SECNUM21": "002",
    "SSNUM21": "02",
    "SECSSNUM21": "00202",
    "OBJECTID_1": 87357,
    "DT": "10",
    "CC": "05",
    "fr": "02",
    "SEC": "002",
    "SS": "02"
  },
  "addresses": [
    {
      "id": "pt.ine.add.PTCONT.2015187",
      "street": "TV CASAL NOVO",
      "house": "2",
      "postcode": "2540-329",
      "city": "CARVALHAL BBR",
      "lon": "-9.111396094141233",
      "lat": "39.30028334448765"
    },
    {
      "id": "pt.ine.add.PTCONT.2034511",
      "street": "LAVANDEIRA",
      "house": "",
      "postcode": "2540-328",
      "city": "CARVALHAL BBR",
      "lon": "-9.110206539822492",
      "lat": "39.3039411787963"
    },
    {
      "id": "pt.ine.add.PTCONT.2039265",
      "street": "TV POR DO SOL",
      "house": "6",
      "postcode": "2540-329",
      "city": "CARVALHAL BBR",
      "lon": "-9.10871086109595",
      "lat": "39.30226040282815"
    },
    {
      "id": "pt.ine.add.PTCONT.2067757",
      "street": "TV POR DO SOL",
      "house": "17",
      "postcode": "2540-329",
      "city": "CARVALHAL BBR",
      "lon": "-9.108588819026979",
      "lat": "39.301820081371964"
    },
    {
      "id": "pt.ine.add.PTCONT.2113891",
      "street": "TV POR DO SOL",
      "house": "",
      "postcode": "2540-329",
      "city": "CARVALHAL BBR",
      "lon": "-9.108404479065927",
      "lat": "39.30190268908599"
    },
    {
      "id": "pt.ine.add.PTCONT.2124338",
      "street": "R DA OLARIA",
      "house": "27",
      "postcode": "2540-325",
      "city": "CARVALHAL BBR",
      "lon": "-9.110033610512264",
      "lat": "39.30317703338289"
    },
    {
      "id": "pt.ine.add.PTCONT.2128943",
      "street": "TV CASAL NOVO",
      "house": "2 A",
      "postcode": "2540-329",
      "city": "CARVALHAL BBR",
      "lon": "-9.111062202514885",
      "lat": "39.300448276264476"
    },
    {
      "id": "pt.ine.add.PTCONT.2155276",
      "street": "R PRINCIPAL DA SAIMOUCA",
      "house": "15",
      "postcode": "2540-423",
      "city": "CARVALHAL BBR",
      "lon": "-9.113443447175554",
      "lat": "39.300788529191564"
    },
    {
      "id": "pt.ine.add.PTCONT.2166285",
      "street": "R CASAL NOVO",
      "house": "4",
      "postcode": "2540-329",
      "city": "CARVALHAL BBR",
      "lon": "-9.110694161660867",
      "lat": "39.30065852897595"
    },
    {
      "id": "pt.ine.add.PTCONT.2194329",
      "street": "R CASAL NOVO",
      "house": "13",
      "postcode": "2540-329",
      "city": "CARVALHAL BBR",
      "lon": "-9.109358696976019",
      "lat": "39.301327248479566"
    },
    {
      "id": "pt.ine.add.PTCONT.2201619",
      "street": "TV POR DO SOL",
      "house": "4",
      "postcode": "2540-329",
      "city": "CARVALHAL BBR",
      "lon": "-9.10853373643878",
      "lat": "39.30202770446018"
    },
    {
      "id": "pt.ine.add.PTCONT.2201635",
      "street": "R CASAL NOVO",
      "house": "",
      "postcode": "2540-329",
      "city": "CARVALHAL BBR",
      "lon": "-9.109436039008477",
      "lat": "39.30021873579516"
    },
    {
      "id": "pt.ine.add.PTCONT.2210537",
      "street": "R CASAL NOVO JRM",
      "house": "",
      "postcode": "2540-329",
      "city": "CARVALHAL BBR",
      "lon": "-9.10872529200577",
      "lat": "39.301629790237364"
    },
    {
      "id": "pt.ine.add.PTCONT.2212897",
      "street": "R PRINCIPAL DA SAIMOUCA",
      "house": "9",
      "postcode": "2540-423",
      "city": "CARVALHAL BBR",
      "lon": "-9.112886731224977",
      "lat": "39.302432493934795"
    },
    {
      "id": "pt.ine.add.PTCONT.2256504",
      "street": "R OLIVEIRAS",
      "house": "1",
      "postcode": "2540-412",
      "city": "CARVALHAL BBR",
      "lon": "-9.111882546839377",
      "lat": "39.30441347842103"
    },
    {
      "id": "pt.ine.add.PTCONT.2261273",
      "street": "TV CASAL NOVO",
      "house": "3",
      "postcode": "2540-329",
      "city": "CARVALHAL BBR",
      "lon": "-9.111229303598298",
      "lat": "39.29996049306784"
    }
  ]
}