{
  "data": {
    "distrito": "Beja",
    "concelho": "Serpa",
    "freguesia": "União das freguesias de Vila Nova de São Bento e Vale de Vargo",
    "OBJECTID": 590,
    "BGRI2021": "02130900409",
    "DT21": "02",
    "DTMN21": "0213",
    "DTMNFR21": "021309",
    "DTMNFRSEC21": "021309004",
    "SECNUM21": "004",
    "SSNUM21": "09",
    "SECSSNUM21": "00409",
    "OBJECTID_1": 19066,
    "DT": "02",
    "CC": "13",
    "fr": "09",
    "SEC": "004",
    "SS": "09"
  },
  "addresses": [
    {
      "id": "pt.ine.add.PTCONT.456445",
      "street": "HRD LAGINHA",
      "house": "",
      "postcode": "7830-020",
      "city": "VILA NOVA DE SÃO BENTO",
      "lon": "-7.39390949115639",
      "lat": "37.91837146832378"
    },
    {
      "id": "pt.ine.add.PTCONT.364164",
      "street": "",
      "house": "",
      "postcode": "7830-020",
      "city": "VILA NOVA DE SÃO BENTO",
      "lon": "-7.393114603435224",
      "lat": "37.894410870068455"
    },
    {
      "id": "pt.ine.add.PTCONT.374733",
      "street": "",
      "house": "",
      "postcode": "7830-020",
      "city": "VILA NOVA DE SÃO BENTO",
      "lon": "-7.394622452018717",
      "lat": "37.903934122808"
    },
    {
      "id": "pt.ine.add.PTCONT.377780",
      "street": "MTE CRUZEIRO",
      "house": "",
      "postcode": "7830-020",
      "city": "VILA NOVA DE SÃO BENTO",
      "lon": "-7.401863283756513",
      "lat": "37.89839358757738"
    },
    {
      "id": "pt.ine.add.PTCONT.390028",
      "street": "MTE PASSINHAS",
      "house": "",
      "postcode": "7830-020",
      "city": "VILA NOVA DE SÃO BENTO",
      "lon": "-7.380443347196837",
      "lat": "37.8939251110939"
    },
    {
      "id": "pt.ine.add.PTCONT.396338",
      "street": "ZN CRUZEIRO",
      "house": "",
      "postcode": "7830-020",
      "city": "VILA NOVA DE SÃO BENTO",
      "lon": "-7.397211666764916",
      "lat": "37.895121260325816"
    },
    {
      "id": "pt.ine.add.PTCONT.397949",
      "street": "MTE TIA CHARRINHA",
      "house": "",
      "postcode": "7830-020",
      "city": "VILA NOVA DE SÃO BENTO",
      "lon": "-7.369965008336824",
      "lat": "37.90018213994476"
    },
    {
      "id": "pt.ine.add.PTCONT.400239",
      "street": "MTE TIA CHARRINHA",
      "house": "",
      "postcode": "7830-020",
      "city": "VILA NOVA DE SÃO BENTO",
      "lon": "-7.370226819136127",
      "lat": "37.90235506607589"
    },
    {
      "id": "pt.ine.add.PTCONT.402544",
      "street": "MTE CHAPARRAL",
      "house": "",
      "postcode": "7830-020",
      "city": "VILA NOVA DE SÃO BENTO",
      "lon": "-7.378530202507127",
      "lat": "37.9187333331371"
    },
    {
      "id": "pt.ine.add.PTCONT.406224",
      "street": "ESTR PENALVA",
      "house": "",
      "postcode": "7830-020",
      "city": "VILA NOVA DE SÃO BENTO",
      "lon": "-7.39317846504068",
      "lat": "37.89143821144959"
    },
    {
      "id": "pt.ine.add.PTCONT.410355",
      "street": "MTE TIA CHARRINHA",
      "house": "",
      "postcode": "7830-020",
      "city": "VILA NOVA DE SÃO BENTO",
      "lon": "-7.385498756036849",
      "lat": "37.90215575615638"
    },
    {
      "id": "pt.ine.add.PTCONT.413532",
      "street": "ESTR PENALVA",
      "house": "",
      "postcode": "7830-020",
      "city": "VILA NOVA DE SÃO BENTO",
      "lon": "-7.394549385028514",
      "lat": "37.893041462636475"
    },
    {
      "id": "pt.ine.add.PTCONT.421490",
      "street": "ESTR PENALVA MONTE DE MANUEL MAURÍCIO",
      "house": "",
      "postcode": "7830-020",
      "city": "VILA NOVA DE SÃO BENTO",
      "lon": "-7.395743325671612",
      "lat": "37.89187774210188"
    },
    {
      "id": "pt.ine.add.PTCONT.423119",
      "street": "CM 1097",
      "house": "",
      "postcode": "7830-020",
      "city": "VILA NOVA DE SÃO BENTO",
      "lon": "-7.400009631626439",
      "lat": "37.89270621543695"
    },
    {
      "id": "pt.ine.add.PTCONT.428691",
      "street": "MTE CATARINA FERRO",
      "house": "",
      "postcode": "7830-020",
      "city": "VILA NOVA DE SÃO BENTO",
      "lon": "-7.378433475874755",
      "lat": "37.88923643237497"
    },
    {
      "id": "pt.ine.add.PTCONT.435713",
      "street": "MTE ARTUR JULIANO",
      "house": "",
      "postcode": "7830-020",
      "city": "VILA NOVA DE SÃO BENTO",
      "lon": "-7.365695108759728",
      "lat": "37.896406529468045"
    },
    {
      "id": "pt.ine.add.PTCONT.439524",
      "street": "CM 1097 MONTE DO CRUZEIRO",
      "house": "",
      "postcode": "7830-020",
      "city": "VILA NOVA DE SÃO BENTO",
      "lon": "-7.398242935778186",
      "lat": "37.897740391556034"
    },
    {
      "id": "pt.ine.add.PTCONT.447524",
      "street": "MTE BIGODE DE ARAME",
      "house": "",
      "postcode": "7830-020",
      "city": "VILA NOVA DE SÃO BENTO",
      "lon": "-7.380473628621663",
      "lat": "37.88760079734085"
    },
    {
      "id": "pt.ine.add.PTCONT.450065",
      "street": "MTE CRUZEIRO",
      "house": "",
      "postcode": "7830-020",
      "city": "VILA NOVA DE SÃO BENTO",
      "lon": "-7.390812486225576",
      "lat": "37.90063078618106"
    },
    {
      "id": "pt.ine.add.PTCONT.453166",
      "street": "MTE JOÃO GAGO",
      "house": "",
      "postcode": "7830-020",
      "city": "VILA NOVA DE SÃO BENTO",
      "lon": "-7.373402198386545",
      "lat": "37.90536667452297"
    }
  ]
}