{
  "data": {
    "distrito": "Beja",
    "concelho": "Serpa",
    "freguesia": "União das freguesias de Vila Nova de São Bento e Vale de Vargo",
    "OBJECTID": 345,
    "BGRI2021": "02130900473",
    "DT21": "02",
    "DTMN21": "0213",
    "DTMNFR21": "021309",
    "DTMNFRSEC21": "021309004",
    "SECNUM21": "004",
    "SSNUM21": "73",
    "SECSSNUM21": "00473",
    "OBJECTID_1": 18560,
    "DT": "02",
    "CC": "13",
    "fr": "09",
    "SEC": "004",
    "SS": "73"
  },
  "addresses": [
    {
      "id": "pt.ine.add.PTCONT.360152",
      "street": "HORTA DOS ALGUEVES",
      "house": "",
      "postcode": "7830-532",
      "city": "VALE DE VARGO",
      "lon": "-7.395299677590719",
      "lat": "37.984075176655026"
    },
    {
      "id": "pt.ine.add.PTCONT.382007",
      "street": "MTE CORTE DE MESSANGIL",
      "house": "",
      "postcode": "7830-532",
      "city": "VALE DE VARGO",
      "lon": "-7.384332735283279",
      "lat": "37.96669029496437"
    },
    {
      "id": "pt.ine.add.PTCONT.389177",
      "street": "MTE ZONA DAS LOUZEIRAS",
      "house": "",
      "postcode": "7830-532",
      "city": "VALE DE VARGO",
      "lon": "-7.392031249372349",
      "lat": "37.97857707197574"
    },
    {
      "id": "pt.ine.add.PTCONT.403807",
      "street": "MTE MAIA",
      "house": "",
      "postcode": "7830-532",
      "city": "VALE DE VARGO",
      "lon": "-7.411663958992815",
      "lat": "37.976338730242325"
    },
    {
      "id": "pt.ine.add.PTCONT.406649",
      "street": "MTE TIO SEBASTIÃO",
      "house": "",
      "postcode": "7830-532",
      "city": "VALE DE VARGO",
      "lon": "-7.394447801138563",
      "lat": "37.972538124534815"
    },
    {
      "id": "pt.ine.add.PTCONT.407600",
      "street": "CORTE DE MESSANGIL",
      "house": "",
      "postcode": "7830-532",
      "city": "VALE DE VARGO",
      "lon": "-7.385038610917956",
      "lat": "37.966658749309346"
    },
    {
      "id": "pt.ine.add.PTCONT.419935",
      "street": "MTE CORTE DE MESSANGIL",
      "house": "",
      "postcode": "7830-469",
      "city": "VALE DE VARGO",
      "lon": "-7.3844030434328864",
      "lat": "37.964249260369165"
    },
    {
      "id": "pt.ine.add.PTCONT.421546",
      "street": "MTE CAZETA",
      "house": "",
      "postcode": "7830-532",
      "city": "VALE DE VARGO",
      "lon": "-7.400011965593008",
      "lat": "37.98637494484454"
    },
    {
      "id": "pt.ine.add.PTCONT.426644",
      "street": "MTE COUTADAS",
      "house": "",
      "postcode": "7830-532",
      "city": "VALE DE VARGO",
      "lon": "-7.407388728507977",
      "lat": "37.97706919965118"
    },
    {
      "id": "pt.ine.add.PTCONT.434472",
      "street": "MTE MANUEL DA LUZ",
      "house": "",
      "postcode": "7830-532",
      "city": "VALE DE VARGO",
      "lon": "-7.388851057715465",
      "lat": "37.983548054604114"
    },
    {
      "id": "pt.ine.add.PTCONT.435592",
      "street": "MTE CLARENCIO",
      "house": "",
      "postcode": "7830-532",
      "city": "VALE DE VARGO",
      "lon": "-7.3947177025585225",
      "lat": "37.976269607502005"
    },
    {
      "id": "pt.ine.add.PTCONT.437946",
      "street": "MTE CORTE DE MESSANGIL",
      "house": "",
      "postcode": "7830-532",
      "city": "VALE DE VARGO",
      "lon": "-7.384446069817968",
      "lat": "37.96673606210138"
    },
    {
      "id": "pt.ine.add.PTCONT.438817",
      "street": "MTE JUNTO A CORTE",
      "house": "",
      "postcode": "7830-532",
      "city": "VALE DE VARGO",
      "lon": "-7.380847889348556",
      "lat": "37.97028974072972"
    },
    {
      "id": "pt.ine.add.PTCONT.440367",
      "street": "MTE LOUSEIRAS",
      "house": "",
      "postcode": "7830-532",
      "city": "VALE DE VARGO",
      "lon": "-7.393339527516774",
      "lat": "37.978639362328934"
    },
    {
      "id": "pt.ine.add.PTCONT.448407",
      "street": "MTE CABRA",
      "house": "",
      "postcode": "7830-532",
      "city": "VALE DE VARGO",
      "lon": "-7.4088638030212755",
      "lat": "37.97521339623101"
    }
  ]
}