{
  "data": {
    "distrito": "Beja",
    "concelho": "Serpa",
    "freguesia": "União das freguesias de Vila Nova de São Bento e Vale de Vargo",
    "OBJECTID": 94,
    "BGRI2021": "02130900477",
    "DT21": "02",
    "DTMN21": "0213",
    "DTMNFR21": "021309",
    "DTMNFRSEC21": "021309004",
    "SECNUM21": "004",
    "SSNUM21": "77",
    "SECSSNUM21": "00477",
    "OBJECTID_1": 19081,
    "DT": "02",
    "CC": "13",
    "fr": "09",
    "SEC": "004",
    "SS": "77"
  },
  "addresses": [
    {
      "id": "pt.ine.add.PTCONT.354423",
      "street": "R 5 DE OUTUBRO",
      "house": "40",
      "postcode": "7830-505",
      "city": "VALE DE VARGO",
      "lon": "-7.415883117798703",
      "lat": "37.986725623783016"
    },
    {
      "id": "pt.ine.add.PTCONT.357426",
      "street": "URB FERRAGIAL DO TELHEIRO",
      "house": "",
      "postcode": "7830-524",
      "city": "VALE DE VARGO",
      "lon": "-7.413833503542948",
      "lat": "37.98610892619566"
    },
    {
      "id": "pt.ine.add.PTCONT.361860",
      "street": "R 5 DE OUTUBRO",
      "house": "38",
      "postcode": "7830-505",
      "city": "VALE DE VARGO",
      "lon": "-7.415896775390849",
      "lat": "37.98667766040949"
    },
    {
      "id": "pt.ine.add.PTCONT.363380",
      "street": "URB FERRAGIAL DO TELHEIRO",
      "house": "",
      "postcode": "7830-524",
      "city": "VALE DE VARGO",
      "lon": "-7.413709002331212",
      "lat": "37.986036091604596"
    },
    {
      "id": "pt.ine.add.PTCONT.367385",
      "street": "URB FERRAGIAL DO TELHEIRO",
      "house": "",
      "postcode": "7830-524",
      "city": "VALE DE VARGO",
      "lon": "-7.414094416502438",
      "lat": "37.986200612941396"
    },
    {
      "id": "pt.ine.add.PTCONT.369093",
      "street": "R 5 DE OUTUBRO",
      "house": "42",
      "postcode": "7830-505",
      "city": "VALE DE VARGO",
      "lon": "-7.415867901355354",
      "lat": "37.986785447193405"
    },
    {
      "id": "pt.ine.add.PTCONT.381170",
      "street": "R OTELO SARAIVA DE CARVALHO",
      "house": "2",
      "postcode": "7830-524",
      "city": "VALE DE VARGO",
      "lon": "-7.41479713171564",
      "lat": "37.98651121757898"
    },
    {
      "id": "pt.ine.add.PTCONT.385796",
      "street": "ESTR PIAS",
      "house": "",
      "postcode": "7830-533",
      "city": "VALE DE VARGO",
      "lon": "-7.4130748149756585",
      "lat": "37.98803224008718"
    },
    {
      "id": "pt.ine.add.PTCONT.388398",
      "street": "R 5 DE OUTUBRO",
      "house": "36",
      "postcode": "7830-505",
      "city": "VALE DE VARGO",
      "lon": "-7.41592301800316",
      "lat": "37.986617188903494"
    },
    {
      "id": "pt.ine.add.PTCONT.395676",
      "street": "R 5 DE OUTUBRO",
      "house": "44",
      "postcode": "7830-505",
      "city": "VALE DE VARGO",
      "lon": "-7.415848199955816",
      "lat": "37.98686012004678"
    },
    {
      "id": "pt.ine.add.PTCONT.397231",
      "street": "R OTELO SARAIVA DE CARVALHO",
      "house": "10",
      "postcode": "7830-524",
      "city": "VALE DE VARGO",
      "lon": "-7.415566743351795",
      "lat": "37.986966372437806"
    },
    {
      "id": "pt.ine.add.PTCONT.398385",
      "street": "R 5 DE OUTUBRO",
      "house": "31",
      "postcode": "7830-505",
      "city": "VALE DE VARGO",
      "lon": "-7.415982374799384",
      "lat": "37.986836105421744"
    },
    {
      "id": "pt.ine.add.PTCONT.410303",
      "street": "R 5 DE OUTUBRO",
      "house": "29",
      "postcode": "7830-505",
      "city": "VALE DE VARGO",
      "lon": "-7.4160094776837875",
      "lat": "37.98676186236265"
    },
    {
      "id": "pt.ine.add.PTCONT.415907",
      "street": "R OTELO SARAIVA CARVALHO",
      "house": "4",
      "postcode": "7830-524",
      "city": "VALE DE VARGO",
      "lon": "-7.4142417708619615",
      "lat": "37.98626457766389"
    },
    {
      "id": "pt.ine.add.PTCONT.419093",
      "street": "R 5 DE OUTUBRO",
      "house": "33",
      "postcode": "7830-505",
      "city": "VALE DE VARGO",
      "lon": "-7.415972216316713",
      "lat": "37.98688957220244"
    },
    {
      "id": "pt.ine.add.PTCONT.419094",
      "street": "R OTELO SARAIVA DE CARVALHO",
      "house": "4",
      "postcode": "7830-524",
      "city": "VALE DE VARGO",
      "lon": "-7.415102962139677",
      "lat": "37.98666624040375"
    },
    {
      "id": "pt.ine.add.PTCONT.430753",
      "street": "R MONTE DOS FRADES",
      "house": "",
      "postcode": "7830-505",
      "city": "VALE DE VARGO",
      "lon": "-7.417538444589177",
      "lat": "37.9878883082199"
    },
    {
      "id": "pt.ine.add.PTCONT.433625",
      "street": "AV JERONIMO REIS TOUCINHO",
      "house": "25",
      "postcode": "7830-502",
      "city": "VALE DE VARGO",
      "lon": "-7.41316215207703",
      "lat": "37.987248979574794"
    },
    {
      "id": "pt.ine.add.PTCONT.434451",
      "street": "R 5 DE OUTUBRO",
      "house": "27 A",
      "postcode": "7830-505",
      "city": "VALE DE VARGO",
      "lon": "-7.416087121280451",
      "lat": "37.98667111906374"
    },
    {
      "id": "pt.ine.add.PTCONT.447566",
      "street": "R 1 DE MAIO",
      "house": "40",
      "postcode": "7830-503",
      "city": "VALE DE VARGO",
      "lon": "-7.415918468626214",
      "lat": "37.98646571747234"
    },
    {
      "id": "pt.ine.add.PTCONT.451561",
      "street": "R OTELO SARAIVA DE CARVALHO",
      "house": "6",
      "postcode": "7830-524",
      "city": "VALE DE VARGO",
      "lon": "-7.415227641369277",
      "lat": "37.98672105632321"
    },
    {
      "id": "pt.ine.add.PTCONT.455662",
      "street": "URB FERRAGIAL DO TELHEIRO",
      "house": "",
      "postcode": "7830-524",
      "city": "VALE DE VARGO",
      "lon": "-7.41358441338756",
      "lat": "37.98597226548764"
    }
  ]
}