{
  "data": {
    "distrito": "Viana do Castelo",
    "concelho": "Arcos de Valdevez",
    "freguesia": "Prozelo",
    "OBJECTID": 447,
    "BGRI2021": "16012800118",
    "DT21": "16",
    "DTMN21": "1601",
    "DTMNFR21": "160128",
    "DTMNFRSEC21": "160128001",
    "SECNUM21": "001",
    "SSNUM21": "18",
    "SECSSNUM21": "00118",
    "OBJECTID_1": 171674,
    "DT": "16",
    "CC": "01",
    "fr": "28",
    "SEC": "001",
    "SS": "18"
  },
  "addresses": [
    {
      "id": "pt.ine.add.PTCONT.5135517",
      "street": "",
      "house": "",
      "postcode": "4970-285",
      "city": "PROZELO AVV",
      "lon": "-8.436162556705762",
      "lat": "41.870831454760605"
    },
    {
      "id": "pt.ine.add.PTCONT.5142370",
      "street": "",
      "house": "",
      "postcode": "4970-285",
      "city": "PROZELO AVV",
      "lon": "-8.432952115255215",
      "lat": "41.872055320638864"
    },
    {
      "id": "pt.ine.add.PTCONT.5146091",
      "street": "",
      "house": "",
      "postcode": "4970-285",
      "city": "PROZELO AVV",
      "lon": "-8.433556673436994",
      "lat": "41.872539916294734"
    },
    {
      "id": "pt.ine.add.PTCONT.5148977",
      "street": "",
      "house": "",
      "postcode": "4970-285",
      "city": "PROZELO AVV",
      "lon": "-8.431861748336921",
      "lat": "41.873300610938685"
    },
    {
      "id": "pt.ine.add.PTCONT.5154733",
      "street": "",
      "house": "",
      "postcode": "4970-285",
      "city": "PROZELO AVV",
      "lon": "-8.435934289069186",
      "lat": "41.870958102431295"
    },
    {
      "id": "pt.ine.add.PTCONT.5158204",
      "street": "",
      "house": "",
      "postcode": "4970-285",
      "city": "PROZELO AVV",
      "lon": "-8.433662006045312",
      "lat": "41.871882403264"
    },
    {
      "id": "pt.ine.add.PTCONT.5165122",
      "street": "",
      "house": "",
      "postcode": "4970-285",
      "city": "PROZELO AVV",
      "lon": "-8.432356384684475",
      "lat": "41.87346138168313"
    },
    {
      "id": "pt.ine.add.PTCONT.5175164",
      "street": "",
      "house": "",
      "postcode": "4970-285",
      "city": "PROZELO AVV",
      "lon": "-8.43196764473585",
      "lat": "41.87276014034374"
    },
    {
      "id": "pt.ine.add.PTCONT.5175165",
      "street": "",
      "house": "",
      "postcode": "4970-285",
      "city": "PROZELO AVV",
      "lon": "-8.43196764473585",
      "lat": "41.87276014034374"
    },
    {
      "id": "pt.ine.add.PTCONT.5180973",
      "street": "",
      "house": "",
      "postcode": "4970-285",
      "city": "PROZELO AVV",
      "lon": "-8.439404755981835",
      "lat": "41.86871609185422"
    },
    {
      "id": "pt.ine.add.PTCONT.5188248",
      "street": "",
      "house": "",
      "postcode": "4970-285",
      "city": "PROZELO AVV",
      "lon": "-8.43324344258702",
      "lat": "41.872531732046866"
    },
    {
      "id": "pt.ine.add.PTCONT.5195606",
      "street": "",
      "house": "",
      "postcode": "4970-285",
      "city": "PROZELO AVV",
      "lon": "-8.432092172196889",
      "lat": "41.873633131575"
    },
    {
      "id": "pt.ine.add.PTCONT.5195989",
      "street": "",
      "house": "",
      "postcode": "4970-285",
      "city": "PROZELO AVV",
      "lon": "-8.434016479891424",
      "lat": "41.8729798718165"
    },
    {
      "id": "pt.ine.add.PTCONT.5205098",
      "street": "",
      "house": "",
      "postcode": "4970-285",
      "city": "PROZELO AVV",
      "lon": "-8.4321355300925",
      "lat": "41.87259764481246"
    },
    {
      "id": "pt.ine.add.PTCONT.5206564",
      "street": "",
      "house": "",
      "postcode": "4970-285",
      "city": "PROZELO AVV",
      "lon": "-8.435839370021299",
      "lat": "41.87126446330355"
    },
    {
      "id": "pt.ine.add.PTCONT.5214374",
      "street": "",
      "house": "",
      "postcode": "4970-285",
      "city": "PROZELO AVV",
      "lon": "-8.43419066028893",
      "lat": "41.87159291447429"
    },
    {
      "id": "pt.ine.add.PTCONT.5214375",
      "street": "",
      "house": "",
      "postcode": "4970-285",
      "city": "PROZELO AVV",
      "lon": "-8.432475121167252",
      "lat": "41.87309193895501"
    },
    {
      "id": "pt.ine.add.PTCONT.5217999",
      "street": "",
      "house": "",
      "postcode": "4970-285",
      "city": "PROZELO AVV",
      "lon": "-8.43420190306353",
      "lat": "41.87142182318422"
    },
    {
      "id": "pt.ine.add.PTCONT.5222599",
      "street": "",
      "house": "",
      "postcode": "4970-285",
      "city": "PROZELO AVV",
      "lon": "-8.43442037121209",
      "lat": "41.87177237710405"
    },
    {
      "id": "pt.ine.add.PTCONT.5227339",
      "street": "",
      "house": "",
      "postcode": "4970-285",
      "city": "PROZELO AVV",
      "lon": "-8.438479219361138",
      "lat": "41.86912370305096"
    },
    {
      "id": "pt.ine.add.PTCONT.5231889",
      "street": "",
      "house": "",
      "postcode": "4970-285",
      "city": "PROZELO AVV",
      "lon": "-8.433889015255712",
      "lat": "41.87148566582132"
    },
    {
      "id": "pt.ine.add.PTCONT.5231892",
      "street": "",
      "house": "",
      "postcode": "4970-285",
      "city": "PROZELO AVV",
      "lon": "-8.439598508008512",
      "lat": "41.86893165313695"
    },
    {
      "id": "pt.ine.add.PTCONT.5240162",
      "street": "",
      "house": "",
      "postcode": "4970-285",
      "city": "PROZELO AVV",
      "lon": "-8.432647209612423",
      "lat": "41.873829756796134"
    },
    {
      "id": "pt.ine.add.PTCONT.5241491",
      "street": "",
      "house": "",
      "postcode": "4970-285",
      "city": "PROZELO AVV",
      "lon": "-8.439309384173331",
      "lat": "41.86892342108178"
    },
    {
      "id": "pt.ine.add.PTCONT.5252812",
      "street": "",
      "house": "",
      "postcode": "4970-285",
      "city": "PROZELO AVV",
      "lon": "-8.433949538373028",
      "lat": "41.87154853007294"
    },
    {
      "id": "pt.ine.add.PTCONT.5254341",
      "street": "",
      "house": "",
      "postcode": "4970-285",
      "city": "PROZELO AVV",
      "lon": "-8.438827282491458",
      "lat": "41.86886168260937"
    },
    {
      "id": "pt.ine.add.PTCONT.5255454",
      "street": "",
      "house": "",
      "postcode": "4970-285",
      "city": "PROZELO AVV",
      "lon": "-8.433975360430257",
      "lat": "41.87191759580816"
    },
    {
      "id": "pt.ine.add.PTCONT.5262409",
      "street": "",
      "house": "",
      "postcode": "4970-285",
      "city": "PROZELO AVV",
      "lon": "-8.433169189230874",
      "lat": "41.87210877321446"
    },
    {
      "id": "pt.ine.add.PTCONT.5265266",
      "street": "CRUZES",
      "house": "",
      "postcode": "4970-285",
      "city": "PROZELO AVV",
      "lon": "-8.434195392341792",
      "lat": "41.872601266353115"
    },
    {
      "id": "pt.ine.add.PTCONT.5267721",
      "street": "",
      "house": "",
      "postcode": "4970-285",
      "city": "PROZELO AVV",
      "lon": "-8.43595702003226",
      "lat": "41.87066993835277"
    },
    {
      "id": "pt.ine.add.PTCONT.5276632",
      "street": "",
      "house": "",
      "postcode": "4970-285",
      "city": "PROZELO AVV",
      "lon": "-8.432861849516613",
      "lat": "41.873361027765284"
    },
    {
      "id": "pt.ine.add.PTCONT.5282464",
      "street": "",
      "house": "",
      "postcode": "4970-285",
      "city": "PROZELO AVV",
      "lon": "-8.435861379302718",
      "lat": "41.870823245838764"
    }
  ]
}