{
  "data": {
    "distrito": "Faro",
    "concelho": "Alcoutim",
    "freguesia": "União das freguesias de Alcoutim e Pereiro",
    "OBJECTID": 252,
    "BGRI2021": "08020600315",
    "DT21": "08",
    "DTMN21": "0802",
    "DTMNFR21": "080206",
    "DTMNFRSEC21": "080206003",
    "SECNUM21": "003",
    "SSNUM21": "15",
    "SECSSNUM21": "00315",
    "OBJECTID_1": 65193,
    "DT": "08",
    "CC": "02",
    "fr": "06",
    "SEC": "003",
    "SS": "15"
  },
  "addresses": [
    {
      "id": "pt.ine.add.PTCONT.1469659",
      "street": "PCT FRANCISCO MADEIRA DO ROSÁRIO",
      "house": "",
      "postcode": "8970-082",
      "city": "ALCOUTIM",
      "lon": "-7.471828740340997",
      "lat": "37.46829143483201"
    },
    {
      "id": "pt.ine.add.PTCONT.1483982",
      "street": "PCT FRANCISCO MADEIRA DO ROSÁRIO",
      "house": "",
      "postcode": "8970-082",
      "city": "ALCOUTIM",
      "lon": "-7.472756731170023",
      "lat": "37.468170485230864"
    },
    {
      "id": "pt.ine.add.PTCONT.1487248",
      "street": "R JOSE CENTENO PASSOS",
      "house": "",
      "postcode": "8970-081",
      "city": "ALCOUTIM",
      "lon": "-7.471909372081329",
      "lat": "37.4681206969547"
    },
    {
      "id": "pt.ine.add.PTCONT.1533664",
      "street": "EM 507 MARGINAL DO GUADIANA",
      "house": "",
      "postcode": "8970-081",
      "city": "ALCOUTIM",
      "lon": "-7.47136800004689",
      "lat": "37.467982517084636"
    },
    {
      "id": "pt.ine.add.PTCONT.1535993",
      "street": "EM 507 MARGINAL DO GUADIANA",
      "house": "",
      "postcode": "8970-081",
      "city": "ALCOUTIM",
      "lon": "-7.47136800004689",
      "lat": "37.467982517084636"
    },
    {
      "id": "pt.ine.add.PTCONT.1560904",
      "street": "ESTR SERRO DA EIRA MARGINAL DOGUADIANA",
      "house": "",
      "postcode": "8970-069",
      "city": "ALCOUTIM",
      "lon": "-7.472580838024986",
      "lat": "37.468890298294944"
    },
    {
      "id": "pt.ine.add.PTCONT.1583287",
      "street": "PCT FRANCISCO MADEIRA DO ROSÁRIO",
      "house": "",
      "postcode": "8970-082",
      "city": "ALCOUTIM",
      "lon": "-7.472168636459125",
      "lat": "37.46820323700374"
    },
    {
      "id": "pt.ine.add.PTCONT.1588493",
      "street": "PCT FRANCISCO MADEIRA DO ROSÁRIO",
      "house": "",
      "postcode": "8970-082",
      "city": "ALCOUTIM",
      "lon": "-7.472528760194997",
      "lat": "37.46838544985395"
    },
    {
      "id": "pt.ine.add.PTCONT.1654069",
      "street": "R JOSE CENTENO PASSOS",
      "house": "",
      "postcode": "8970-081",
      "city": "ALCOUTIM",
      "lon": "-7.471604259594179",
      "lat": "37.46810997929656"
    },
    {
      "id": "pt.ine.add.PTCONT.1672000",
      "street": "R JOSE CENTENO PASSOS",
      "house": "",
      "postcode": "8970-081",
      "city": "ALCOUTIM",
      "lon": "-7.471830803804022",
      "lat": "37.46805718761811"
    },
    {
      "id": "pt.ine.add.PTCONT.1682746",
      "street": "EM 507 MARGINAL COCHOA",
      "house": "",
      "postcode": "8970-020",
      "city": "ALCOUTIM",
      "lon": "-7.470963859688482",
      "lat": "37.467664904767254"
    },
    {
      "id": "pt.ine.add.PTCONT.1707000",
      "street": "PCT FRANCISCO MADEIRA DO ROSÁRIO",
      "house": "",
      "postcode": "8970-082",
      "city": "ALCOUTIM",
      "lon": "-7.472395180570773",
      "lat": "37.46815044424293"
    },
    {
      "id": "pt.ine.add.PTCONT.1796923",
      "street": "PCT FRANCISCO MADEIRA DO ROSÁRIO",
      "house": "",
      "postcode": "8970-082",
      "city": "ALCOUTIM",
      "lon": "-7.472519755914599",
      "lat": "37.468124110890734"
    }
  ]
}