{
  "data": {
    "distrito": "Vila Real",
    "concelho": "Vila Real",
    "freguesia": "União das freguesias de Borbela e Lamas de Olo",
    "OBJECTID": 597,
    "BGRI2021": "17143200205",
    "DT21": "17",
    "DTMN21": "1714",
    "DTMNFR21": "171432",
    "DTMNFRSEC21": "171432002",
    "SECNUM21": "002",
    "SSNUM21": "05",
    "SECSSNUM21": "00205",
    "OBJECTID_1": 187886,
    "DT": "17",
    "CC": "14",
    "fr": "32",
    "SEC": "002",
    "SS": "05"
  },
  "addresses": [
    {
      "id": "pt.ine.add.PTCONT.5287421",
      "street": "R VILA CAMPOS",
      "house": "",
      "postcode": "5000-063",
      "city": "VILA REAL",
      "lon": "-7.735555060997894",
      "lat": "41.31598865194794"
    },
    {
      "id": "pt.ine.add.PTCONT.5288349",
      "street": "URB VILA CAMPOS",
      "house": "38",
      "postcode": "5000-063",
      "city": "VILA REAL",
      "lon": "-7.734714147240383",
      "lat": "41.31679611454138"
    },
    {
      "id": "pt.ine.add.PTCONT.5289301",
      "street": "R URBANIZACAO",
      "house": "28",
      "postcode": "5000-063",
      "city": "VILA REAL",
      "lon": "-7.734160306524839",
      "lat": "41.31556963714142"
    },
    {
      "id": "pt.ine.add.PTCONT.5297562",
      "street": "URB VILA CAMPOS",
      "house": "39",
      "postcode": "5000-063",
      "city": "VILA REAL",
      "lon": "-7.734737484429398",
      "lat": "41.31688623641702"
    },
    {
      "id": "pt.ine.add.PTCONT.5302839",
      "street": "VL CAMPOS",
      "house": "",
      "postcode": "5000-062",
      "city": "VILA REAL",
      "lon": "-7.7350047716975",
      "lat": "41.316139819945235"
    },
    {
      "id": "pt.ine.add.PTCONT.5309573",
      "street": "URB VILA CAMPOS",
      "house": "42",
      "postcode": "5000-063",
      "city": "VILA REAL",
      "lon": "-7.734759670448133",
      "lat": "41.317165440616364"
    },
    {
      "id": "pt.ine.add.PTCONT.5315317",
      "street": "R VILA CAMPOS",
      "house": "65",
      "postcode": "5000-061",
      "city": "VILA REAL",
      "lon": "-7.7351996314722244",
      "lat": "41.315519209978326"
    },
    {
      "id": "pt.ine.add.PTCONT.5319170",
      "street": "R URBANIZACAO",
      "house": "",
      "postcode": "5000-063",
      "city": "VILA REAL",
      "lon": "-7.734812484375827",
      "lat": "41.31633724519609"
    },
    {
      "id": "pt.ine.add.PTCONT.5321108",
      "street": "R URBANIZAÇÃO VILA CAMPOS",
      "house": "36",
      "postcode": "5000-063",
      "city": "VILA REAL",
      "lon": "-7.734608362909429",
      "lat": "41.31651662092618"
    },
    {
      "id": "pt.ine.add.PTCONT.5322673",
      "street": "URB VILA CAMPOS",
      "house": "48",
      "postcode": "5000-063",
      "city": "VILA REAL",
      "lon": "-7.735338352341686",
      "lat": "41.31823893082382"
    },
    {
      "id": "pt.ine.add.PTCONT.5328937",
      "street": "R VILA CAMPOS",
      "house": "59",
      "postcode": "5000-061",
      "city": "VILA REAL",
      "lon": "-7.73486513247409",
      "lat": "41.315536061395285"
    },
    {
      "id": "pt.ine.add.PTCONT.5329513",
      "street": "R URBANIZAÇÃO VILA CAMPOS",
      "house": "54",
      "postcode": "5000-063",
      "city": "VILA REAL",
      "lon": "-7.734894986752205",
      "lat": "41.31651761286965"
    },
    {
      "id": "pt.ine.add.PTCONT.5330550",
      "street": "URB VILA CAMPOS",
      "house": "43",
      "postcode": "5000-063",
      "city": "VILA REAL",
      "lon": "-7.734735181823572",
      "lat": "41.31726440107479"
    },
    {
      "id": "pt.ine.add.PTCONT.5331284",
      "street": "R VILA CAMPOS",
      "house": "60",
      "postcode": "5000-061",
      "city": "VILA REAL",
      "lon": "-7.734839932147459",
      "lat": "41.315752072902775"
    },
    {
      "id": "pt.ine.add.PTCONT.5343705",
      "street": "R VILA CAMPOS",
      "house": "70",
      "postcode": "5000-061",
      "city": "VILA REAL",
      "lon": "-7.735444951135948",
      "lat": "41.31642046895619"
    },
    {
      "id": "pt.ine.add.PTCONT.5347604",
      "street": "R URBANIZACAO",
      "house": "33",
      "postcode": "5000-063",
      "city": "VILA REAL",
      "lon": "-7.7343707717985515",
      "lat": "41.316308703577015"
    },
    {
      "id": "pt.ine.add.PTCONT.5351225",
      "street": "R URB VILA CAMPOS",
      "house": "32",
      "postcode": "5000-063",
      "city": "VILA REAL",
      "lon": "-7.734263672418241",
      "lat": "41.31624530374577"
    },
    {
      "id": "pt.ine.add.PTCONT.5351809",
      "street": "URB VILA CAMPOS",
      "house": "47",
      "postcode": "5000-063",
      "city": "VILA REAL",
      "lon": "-7.7349812685271075",
      "lat": "41.31803960590253"
    },
    {
      "id": "pt.ine.add.PTCONT.5355132",
      "street": "R COALHAL",
      "house": "",
      "postcode": "5000-063",
      "city": "VILA REAL",
      "lon": "-7.735908637111696",
      "lat": "41.316764226167315"
    },
    {
      "id": "pt.ine.add.PTCONT.5355133",
      "street": "R COALHAL",
      "house": "",
      "postcode": "5000-063",
      "city": "VILA REAL",
      "lon": "-7.735908637111696",
      "lat": "41.316764226167315"
    },
    {
      "id": "pt.ine.add.PTCONT.5358577",
      "street": "R VILA CAMPOS",
      "house": "68",
      "postcode": "5000-061",
      "city": "VILA REAL",
      "lon": "-7.735232118973736",
      "lat": "41.31606857312548"
    },
    {
      "id": "pt.ine.add.PTCONT.5364777",
      "street": "R URB VILA CAMPOS",
      "house": "51",
      "postcode": "5000-063",
      "city": "VILA REAL",
      "lon": "-7.734504279951161",
      "lat": "41.31595800563149"
    },
    {
      "id": "pt.ine.add.PTCONT.5368525",
      "street": "URB VILA CAMPOS",
      "house": "45",
      "postcode": "5000-063",
      "city": "VILA REAL",
      "lon": "-7.734649388789782",
      "lat": "41.31762426850131"
    },
    {
      "id": "pt.ine.add.PTCONT.5371646",
      "street": "R URBANIZAÇÃO VILA CAMPOS",
      "house": "49",
      "postcode": "5000-063",
      "city": "VILA REAL",
      "lon": "-7.734482698808504",
      "lat": "41.31557975818447"
    },
    {
      "id": "pt.ine.add.PTCONT.5372777",
      "street": "R VILA CAMPOS",
      "house": "61",
      "postcode": "5000-061",
      "city": "VILA REAL",
      "lon": "-7.734898329569394",
      "lat": "41.31596837363349"
    },
    {
      "id": "pt.ine.add.PTCONT.5373807",
      "street": "R VILA CAMPOS",
      "house": "64",
      "postcode": "5000-061",
      "city": "VILA REAL",
      "lon": "-7.735205824480803",
      "lat": "41.316464663138575"
    },
    {
      "id": "pt.ine.add.PTCONT.5373886",
      "street": "URB VILA CAMPOS",
      "house": "41",
      "postcode": "5000-063",
      "city": "VILA REAL",
      "lon": "-7.734736387955906",
      "lat": "41.3170663148286"
    },
    {
      "id": "pt.ine.add.PTCONT.5376015",
      "street": "URB VILA CAMPOS",
      "house": "46",
      "postcode": "5000-063",
      "city": "VILA REAL",
      "lon": "-7.734767666174896",
      "lat": "41.31781376417266"
    },
    {
      "id": "pt.ine.add.PTCONT.5386555",
      "street": "R URB VILA CAMPOS",
      "house": "50",
      "postcode": "5000-063",
      "city": "VILA REAL",
      "lon": "-7.734481711397013",
      "lat": "41.315741828787054"
    },
    {
      "id": "pt.ine.add.PTCONT.5398424",
      "street": "URB VILA CAMPOS",
      "house": "40",
      "postcode": "5000-063",
      "city": "VILA REAL",
      "lon": "-7.734748878937813",
      "lat": "41.31697631695578"
    },
    {
      "id": "pt.ine.add.PTCONT.5403790",
      "street": "R URBANIZAÇÃO VILA CAMPOS",
      "house": "35",
      "postcode": "5000-063",
      "city": "VILA REAL",
      "lon": "-7.734549033550945",
      "lat": "41.31645338673345"
    },
    {
      "id": "pt.ine.add.PTCONT.5413674",
      "street": "URB VILA CAMPOS",
      "house": "44",
      "postcode": "5000-063",
      "city": "VILA REAL",
      "lon": "-7.734650595197119",
      "lat": "41.317426182269635"
    },
    {
      "id": "pt.ine.add.PTCONT.5413675",
      "street": "R COALHAL",
      "house": "",
      "postcode": "5000-063",
      "city": "VILA REAL",
      "lon": "-7.735818641191716",
      "lat": "41.317817396447765"
    },
    {
      "id": "pt.ine.add.PTCONT.5414526",
      "street": "R URBANIZAÇÃO VILA CAMPOS",
      "house": "34",
      "postcode": "5000-063",
      "city": "VILA REAL",
      "lon": "-7.73448986887649",
      "lat": "41.316363140746226"
    },
    {
      "id": "pt.ine.add.PTCONT.5421151",
      "street": "R VILA CAMPOS",
      "house": "69",
      "postcode": "5000-061",
      "city": "VILA REAL",
      "lon": "-7.735338726358159",
      "lat": "41.31621300736299"
    }
  ]
}