{
  "data": {
    "distrito": "Vila Real",
    "concelho": "Vila Real",
    "freguesia": "Uni√£o das freguesias de Borbela e Lamas de Olo",
    "OBJECTID": 538,
    "BGRI2021": "17143200212",
    "DT21": "17",
    "DTMN21": "1714",
    "DTMNFR21": "171432",
    "DTMNFRSEC21": "171432002",
    "SECNUM21": "002",
    "SSNUM21": "12",
    "SECSSNUM21": "00212",
    "OBJECTID_1": 187577,
    "DT": "17",
    "CC": "14",
    "fr": "32",
    "SEC": "002",
    "SS": "12"
  },
  "addresses": [
    {
      "id": "pt.ine.add.PTCONT.5288386",
      "street": "R COALHAL",
      "house": "",
      "postcode": "5000-063",
      "city": "VILA REAL",
      "lon": "-7.737271207947077",
      "lat": "41.31856073778709"
    },
    {
      "id": "pt.ine.add.PTCONT.5289443",
      "street": "EM 313",
      "house": "",
      "postcode": "5000-063",
      "city": "VILA REAL",
      "lon": "-7.739255757969371",
      "lat": "41.31823439337669"
    },
    {
      "id": "pt.ine.add.PTCONT.5300669",
      "street": "R COALHAL",
      "house": "",
      "postcode": "5000-063",
      "city": "VILA REAL",
      "lon": "-7.738191977180637",
      "lat": "41.31639391004597"
    },
    {
      "id": "pt.ine.add.PTCONT.5300670",
      "street": "EM 313",
      "house": "",
      "postcode": "5000-063",
      "city": "VILA REAL",
      "lon": "-7.739442108335949",
      "lat": "41.31703748423317"
    },
    {
      "id": "pt.ine.add.PTCONT.5300683",
      "street": "EM 313",
      "house": "",
      "postcode": "5000-063",
      "city": "VILA REAL",
      "lon": "-7.739442108335949",
      "lat": "41.31703748423317"
    },
    {
      "id": "pt.ine.add.PTCONT.5303753",
      "street": "EM 313",
      "house": "",
      "postcode": "5000-063",
      "city": "VILA REAL",
      "lon": "-7.738285127604937",
      "lat": "41.31679041050008"
    },
    {
      "id": "pt.ine.add.PTCONT.5304794",
      "street": "EM 313",
      "house": "",
      "postcode": "5000-063",
      "city": "VILA REAL",
      "lon": "-7.739311279899176",
      "lat": "41.316946995610586"
    },
    {
      "id": "pt.ine.add.PTCONT.5304795",
      "street": "EM 313",
      "house": "",
      "postcode": "5000-063",
      "city": "VILA REAL",
      "lon": "-7.739311279899176",
      "lat": "41.316946995610586"
    },
    {
      "id": "pt.ine.add.PTCONT.5308132",
      "street": "EM 313",
      "house": "",
      "postcode": "5000-063",
      "city": "VILA REAL",
      "lon": "-7.740009464172516",
      "lat": "41.318020871227795"
    },
    {
      "id": "pt.ine.add.PTCONT.5319621",
      "street": "QTA COALHAL",
      "house": "",
      "postcode": "5000-063",
      "city": "VILA REAL",
      "lon": "-7.737532885899469",
      "lat": "41.32071361884828"
    },
    {
      "id": "pt.ine.add.PTCONT.5327279",
      "street": "R COALHAL",
      "house": "",
      "postcode": "5000-063",
      "city": "VILA REAL",
      "lon": "-7.736852765389456",
      "lat": "41.318631330898086"
    },
    {
      "id": "pt.ine.add.PTCONT.5329066",
      "street": "EM 313",
      "house": "",
      "postcode": "5000-063",
      "city": "VILA REAL",
      "lon": "-7.738592434917655",
      "lat": "41.31732270671539"
    },
    {
      "id": "pt.ine.add.PTCONT.5333311",
      "street": "R COALHAL",
      "house": "",
      "postcode": "5000-063",
      "city": "VILA REAL",
      "lon": "-7.737930250491057",
      "lat": "41.318202837956086"
    },
    {
      "id": "pt.ine.add.PTCONT.5333312",
      "street": "ESTR MUNICIPAL 313",
      "house": "536",
      "postcode": "5000-063",
      "city": "VILA REAL",
      "lon": "-7.738883022928781",
      "lat": "41.31666640222428"
    },
    {
      "id": "pt.ine.add.PTCONT.5333313",
      "street": "EM 313",
      "house": "",
      "postcode": "5000-063",
      "city": "VILA REAL",
      "lon": "-7.738883022928781",
      "lat": "41.31666640222428"
    },
    {
      "id": "pt.ine.add.PTCONT.5333314",
      "street": "EM 313",
      "house": "",
      "postcode": "5000-063",
      "city": "VILA REAL",
      "lon": "-7.7381404017936095",
      "lat": "41.31702402087007"
    },
    {
      "id": "pt.ine.add.PTCONT.5336298",
      "street": "EM 313",
      "house": "",
      "postcode": "5000-063",
      "city": "VILA REAL",
      "lon": "-7.740227897596738",
      "lat": "41.317445353964246"
    },
    {
      "id": "pt.ine.add.PTCONT.5341524",
      "street": "R COALHAL",
      "house": "329",
      "postcode": "5000-063",
      "city": "VILA REAL",
      "lon": "-7.736699578902952",
      "lat": "41.318288647327385"
    },
    {
      "id": "pt.ine.add.PTCONT.5351363",
      "street": "R COALHAL",
      "house": "",
      "postcode": "5000-063",
      "city": "VILA REAL",
      "lon": "-7.737044453779651",
      "lat": "41.318532945448254"
    },
    {
      "id": "pt.ine.add.PTCONT.5351866",
      "street": "R COALHAL",
      "house": "",
      "postcode": "5000-063",
      "city": "VILA REAL",
      "lon": "-7.736994555524046",
      "lat": "41.3188839339522"
    },
    {
      "id": "pt.ine.add.PTCONT.5366076",
      "street": "EM 313",
      "house": "",
      "postcode": "5000-063",
      "city": "VILA REAL",
      "lon": "-7.740025518524114",
      "lat": "41.31733661369664"
    },
    {
      "id": "pt.ine.add.PTCONT.5374976",
      "street": "EM 313",
      "house": "",
      "postcode": "5000-063",
      "city": "VILA REAL",
      "lon": "-7.73862098943197",
      "lat": "41.31654845104019"
    },
    {
      "id": "pt.ine.add.PTCONT.5376074",
      "street": "EM 313",
      "house": "",
      "postcode": "5000-063",
      "city": "VILA REAL",
      "lon": "-7.738845458598181",
      "lat": "41.31695440512139"
    },
    {
      "id": "pt.ine.add.PTCONT.5376170",
      "street": "EM 313",
      "house": "",
      "postcode": "5000-063",
      "city": "VILA REAL",
      "lon": "-7.738845458598181",
      "lat": "41.31695440512139"
    },
    {
      "id": "pt.ine.add.PTCONT.5386713",
      "street": "R COALHAL",
      "house": "",
      "postcode": "5000-063",
      "city": "VILA REAL",
      "lon": "-7.737402690273123",
      "lat": "41.31854318165355"
    },
    {
      "id": "pt.ine.add.PTCONT.5388901",
      "street": "QTA PRADO",
      "house": "",
      "postcode": "5000-063",
      "city": "VILA REAL",
      "lon": "-7.7414300815163255",
      "lat": "41.318124759256364"
    },
    {
      "id": "pt.ine.add.PTCONT.5393306",
      "street": "R COALHAL",
      "house": "",
      "postcode": "5000-063",
      "city": "VILA REAL",
      "lon": "-7.737380329162867",
      "lat": "41.318290989742295"
    },
    {
      "id": "pt.ine.add.PTCONT.5401790",
      "street": "EM 313",
      "house": "",
      "postcode": "5000-063",
      "city": "VILA REAL",
      "lon": "-7.739847025719978",
      "lat": "41.31722795468238"
    },
    {
      "id": "pt.ine.add.PTCONT.5414962",
      "street": "EM 313",
      "house": "",
      "postcode": "5000-063",
      "city": "VILA REAL",
      "lon": "-7.739644702103823",
      "lat": "41.31711020982109"
    },
    {
      "id": "pt.ine.add.PTCONT.5417453",
      "street": "EM 313",
      "house": "",
      "postcode": "5000-063",
      "city": "VILA REAL",
      "lon": "-7.7384639967821665",
      "lat": "41.316836044454064"
    }
  ]
}