{
  "data": {
    "distrito": "Évora",
    "concelho": "Mourão",
    "freguesia": "Mourão",
    "OBJECTID": 40,
    "BGRI2021": "07080300121",
    "DT21": "07",
    "DTMN21": "0708",
    "DTMNFR21": "070803",
    "DTMNFRSEC21": "070803001",
    "SECNUM21": "001",
    "SSNUM21": "21",
    "SECSSNUM21": "00121",
    "OBJECTID_1": 62408,
    "DT": "07",
    "CC": "08",
    "fr": "03",
    "SEC": "001",
    "SS": "21"
  },
  "addresses": [
    {
      "id": "pt.ine.add.PTCONT.1377344",
      "street": "EN 256 1 HORTA DOS RAMOS À FAIA",
      "house": "",
      "postcode": "7240-256",
      "city": "MOURÃO",
      "lon": "-7.311916281941343",
      "lat": "38.38011673443433"
    },
    {
      "id": "pt.ine.add.PTCONT.1383101",
      "street": "MTE SR INÁCIO CHUMBO",
      "house": "",
      "postcode": "7240-256",
      "city": "MOURÃO",
      "lon": "-7.318616096535424",
      "lat": "38.380703986095874"
    },
    {
      "id": "pt.ine.add.PTCONT.1393503",
      "street": "EN 256 1",
      "house": "",
      "postcode": "7240-256",
      "city": "MOURÃO",
      "lon": "-7.314799653004166",
      "lat": "38.37001133769004"
    },
    {
      "id": "pt.ine.add.PTCONT.1396585",
      "street": "MTE SR ANTÓNIO FERREIRA",
      "house": "",
      "postcode": "7240-256",
      "city": "MOURÃO",
      "lon": "-7.320583125194245",
      "lat": "38.37980777802224"
    },
    {
      "id": "pt.ine.add.PTCONT.1410135",
      "street": "EN 256 1 MONTE DAS PALMEIRAS",
      "house": "",
      "postcode": "7240-256",
      "city": "MOURÃO",
      "lon": "-7.296661814628052",
      "lat": "38.37209041572316"
    },
    {
      "id": "pt.ine.add.PTCONT.1410136",
      "street": "EN 385 MONTE DA BARRUSCA",
      "house": "",
      "postcode": "7240-202",
      "city": "MOURÃO",
      "lon": "-7.331179169166237",
      "lat": "38.379934793317396"
    },
    {
      "id": "pt.ine.add.PTCONT.1414849",
      "street": "MTE DOMINGOS RATO FIALHO",
      "house": "",
      "postcode": "7240-256",
      "city": "MOURÃO",
      "lon": "-7.3159181594818445",
      "lat": "38.37942401998147"
    },
    {
      "id": "pt.ine.add.PTCONT.1416281",
      "street": "EN 256 1",
      "house": "",
      "postcode": "7240-256",
      "city": "MOURÃO",
      "lon": "-7.315947313453901",
      "lat": "38.38090161688231"
    },
    {
      "id": "pt.ine.add.PTCONT.1425883",
      "street": "MTE SR SARDINHA",
      "house": "",
      "postcode": "7240-256",
      "city": "MOURÃO",
      "lon": "-7.3195375506899785",
      "lat": "38.37813395347542"
    },
    {
      "id": "pt.ine.add.PTCONT.1434267",
      "street": "MTE DO BAINETA",
      "house": "",
      "postcode": "7240-256",
      "city": "MOURÃO",
      "lon": "-7.3279644278330975",
      "lat": "38.37776873337303"
    },
    {
      "id": "pt.ine.add.PTCONT.1435180",
      "street": "EN 256 1",
      "house": "",
      "postcode": "7240-256",
      "city": "MOURÃO",
      "lon": "-7.30126460716083",
      "lat": "38.379852455597735"
    },
    {
      "id": "pt.ine.add.PTCONT.1437354",
      "street": "MTE FINCA DO PITO",
      "house": "",
      "postcode": "7240-202",
      "city": "MOURÃO",
      "lon": "-7.32743990269362",
      "lat": "38.38069289394345"
    },
    {
      "id": "pt.ine.add.PTCONT.1445815",
      "street": "MTE DO PALMIRA",
      "house": "",
      "postcode": "7240-256",
      "city": "MOURÃO",
      "lon": "-7.329698006603545",
      "lat": "38.378303120429315"
    },
    {
      "id": "pt.ine.add.PTCONT.1452489",
      "street": "MTE TIO BENTO GAFENHO",
      "house": "",
      "postcode": "7240-256",
      "city": "MOURÃO",
      "lon": "-7.319520717646767",
      "lat": "38.377593326452896"
    },
    {
      "id": "pt.ine.add.PTCONT.1454781",
      "street": "EN 256 1 MONTE DA FAIA",
      "house": "",
      "postcode": "7240-256",
      "city": "MOURÃO",
      "lon": "-7.307733790615587",
      "lat": "38.37554707822267"
    },
    {
      "id": "pt.ine.add.PTCONT.1454782",
      "street": "EN 256 1 MONTE DA FAIA",
      "house": "",
      "postcode": "7240-256",
      "city": "MOURÃO",
      "lon": "-7.307733790615587",
      "lat": "38.37554707822267"
    },
    {
      "id": "pt.ine.add.PTCONT.1455198",
      "street": "MTE ENG BAÇÃO",
      "house": "",
      "postcode": "7240-256",
      "city": "MOURÃO",
      "lon": "-7.317445892587956",
      "lat": "38.378921175287026"
    }
  ]
}