{
  "data": {
    "distrito": "Santarém",
    "concelho": "Mação",
    "freguesia": "União das freguesias de Mação, Penhascoso e Aboboreira",
    "OBJECTID": 492,
    "BGRI2021": "14130900216",
    "DT21": "14",
    "DTMN21": "1413",
    "DTMNFR21": "141309",
    "DTMNFRSEC21": "141309002",
    "SECNUM21": "002",
    "SSNUM21": "16",
    "SECSSNUM21": "00216",
    "OBJECTID_1": 152527,
    "DT": "14",
    "CC": "13",
    "fr": "09",
    "SEC": "002",
    "SS": "16"
  },
  "addresses": [
    {
      "id": "pt.ine.add.PTCONT.4392705",
      "street": "AV ENG ADELINO AMARO DA COSTA",
      "house": "656",
      "postcode": "6120-746",
      "city": "MAÇÃO",
      "lon": "-8.002740321216612",
      "lat": "39.55846440707671"
    },
    {
      "id": "pt.ine.add.PTCONT.4405327",
      "street": "AV DR FRANCISCO SA CARNEIRO",
      "house": "481",
      "postcode": "6120-724",
      "city": "MAÇÃO",
      "lon": "-7.999656519254834",
      "lat": "39.558623030958564"
    },
    {
      "id": "pt.ine.add.PTCONT.4405617",
      "street": "AV DR FRANCISCO SA CARNEIRO",
      "house": "481",
      "postcode": "6120-724",
      "city": "MAÇÃO",
      "lon": "-7.999656519254834",
      "lat": "39.558623030958564"
    },
    {
      "id": "pt.ine.add.PTCONT.4441502",
      "street": "AV DR FRANCISCO SA CARNEIRO",
      "house": "505",
      "postcode": "6120-724",
      "city": "MAÇÃO",
      "lon": "-7.999714439672798",
      "lat": "39.55875820066943"
    },
    {
      "id": "pt.ine.add.PTCONT.4446118",
      "street": "AV VICENTE MENDES MIRRADO",
      "house": "829",
      "postcode": "6120-725",
      "city": "MAÇÃO",
      "lon": "-7.999402464565078",
      "lat": "39.563675597225654"
    },
    {
      "id": "pt.ine.add.PTCONT.4473119",
      "street": "AV DR FRANCISCO SA CARNEIRO",
      "house": "469",
      "postcode": "6120-724",
      "city": "MAÇÃO",
      "lon": "-7.999563795235777",
      "lat": "39.55843377994099"
    },
    {
      "id": "pt.ine.add.PTCONT.4481842",
      "street": "AV VICENTE MENDES MIRRADO",
      "house": "847",
      "postcode": "6120-725",
      "city": "MAÇÃO",
      "lon": "-7.999530226199007",
      "lat": "39.563801840367105"
    },
    {
      "id": "pt.ine.add.PTCONT.4489734",
      "street": "AV VICENTE MENDES MIRRADO",
      "house": "4",
      "postcode": "6120-725",
      "city": "MAÇÃO",
      "lon": "-8.000216276225286",
      "lat": "39.56407283305063"
    },
    {
      "id": "pt.ine.add.PTCONT.4491439",
      "street": "AV VICENTE MENDES MIRRADO",
      "house": "873",
      "postcode": "6120-725",
      "city": "MAÇÃO",
      "lon": "-7.999669642286641",
      "lat": "39.563919089874105"
    },
    {
      "id": "pt.ine.add.PTCONT.4512107",
      "street": "R TRAS DE S MIGUEL",
      "house": "",
      "postcode": "6120-777",
      "city": "MAÇÃO",
      "lon": "-8.003053473880037",
      "lat": "39.56523792913737"
    },
    {
      "id": "pt.ine.add.PTCONT.4512109",
      "street": "AV DR FRANCISCO SA CARNEIRO",
      "house": "",
      "postcode": "6120-724",
      "city": "MAÇÃO",
      "lon": "-8.004317961652983",
      "lat": "39.56107816117771"
    },
    {
      "id": "pt.ine.add.PTCONT.4527380",
      "street": "AV S MIGUEL",
      "house": "171",
      "postcode": "6120-777",
      "city": "MAÇÃO",
      "lon": "-8.00135403620317",
      "lat": "39.56547019360935"
    },
    {
      "id": "pt.ine.add.PTCONT.4543452",
      "street": "R TRAS DE S MIGUEL",
      "house": "7",
      "postcode": "6120-777",
      "city": "MAÇÃO",
      "lon": "-8.002249948814942",
      "lat": "39.56554326079379"
    },
    {
      "id": "pt.ine.add.PTCONT.4578731",
      "street": "AV ENG ADELINO AMARO DA COSTA",
      "house": "442",
      "postcode": "6120-746",
      "city": "MAÇÃO",
      "lon": "-8.000973163911548",
      "lat": "39.55767881267208"
    },
    {
      "id": "pt.ine.add.PTCONT.4578903",
      "street": "AV S MIGUEL",
      "house": "272",
      "postcode": "6120-777",
      "city": "MAÇÃO",
      "lon": "-8.002085929040877",
      "lat": "39.56612852257177"
    },
    {
      "id": "pt.ine.add.PTCONT.4579179",
      "street": "R TRÁS DE S MIGUEL",
      "house": "17",
      "postcode": "6120-777",
      "city": "MAÇÃO",
      "lon": "-8.002401094538314",
      "lat": "39.56561548584632"
    },
    {
      "id": "pt.ine.add.PTCONT.4582176",
      "street": "AV DR FRANCISCO SA CARNEIRO",
      "house": "",
      "postcode": "6120-724",
      "city": "MAÇÃO",
      "lon": "-7.999795545877157",
      "lat": "39.55893843135035"
    },
    {
      "id": "pt.ine.add.PTCONT.4628985",
      "street": "AV VICENTE MENDES MIRRADO",
      "house": "879",
      "postcode": "6120-725",
      "city": "MAÇÃO",
      "lon": "-7.999832297855732",
      "lat": "39.564054379610035"
    },
    {
      "id": "pt.ine.add.PTCONT.4630799",
      "street": "AV DR FRANCISCO SA CARNEIRO",
      "house": "549",
      "postcode": "6120-724",
      "city": "MAÇÃO",
      "lon": "-7.999969705461176",
      "lat": "39.55913678236371"
    },
    {
      "id": "pt.ine.add.PTCONT.4639883",
      "street": "R VALE DA GUEIFOA",
      "house": "67",
      "postcode": "6120-794",
      "city": "MAÇÃO",
      "lon": "-8.001530604701767",
      "lat": "39.55824687868563"
    },
    {
      "id": "pt.ine.add.PTCONT.4649429",
      "street": "R TRAS DE S MIGUEL",
      "house": "37",
      "postcode": "6120-777",
      "city": "MAÇÃO",
      "lon": "-8.002505861439223",
      "lat": "39.565597589885066"
    }
  ]
}