{
  "data": {
    "distrito": "Braga",
    "concelho": "Vieira do Minho",
    "freguesia": "Salamonde",
    "OBJECTID": 480,
    "BGRI2021": "03111500119",
    "DT21": "03",
    "DTMN21": "0311",
    "DTMNFR21": "031115",
    "DTMNFRSEC21": "031115001",
    "SECNUM21": "001",
    "SSNUM21": "19",
    "SECSSNUM21": "00119",
    "OBJECTID_1": 29842,
    "DT": "03",
    "CC": "11",
    "fr": "15",
    "SEC": "001",
    "SS": "19"
  },
  "addresses": [
    {
      "id": "pt.ine.add.PTCONT.477420",
      "street": "R CABINE",
      "house": "103",
      "postcode": "4850-372",
      "city": "SALAMONDE",
      "lon": "-8.087283665896143",
      "lat": "41.68965938162194"
    },
    {
      "id": "pt.ine.add.PTCONT.477421",
      "street": "R CABINE",
      "house": "103",
      "postcode": "4850-372",
      "city": "SALAMONDE",
      "lon": "-8.087283665896143",
      "lat": "41.68965938162194"
    },
    {
      "id": "pt.ine.add.PTCONT.495966",
      "street": "R MOINHO VELHO",
      "house": "47",
      "postcode": "4850-363",
      "city": "SALAMONDE",
      "lon": "-8.087155970715243",
      "lat": "41.68342886863301"
    },
    {
      "id": "pt.ine.add.PTCONT.505206",
      "street": "TV POUSADA",
      "house": "60",
      "postcode": "4850-372",
      "city": "SALAMONDE",
      "lon": "-8.087163875563403",
      "lat": "41.68920015257963"
    },
    {
      "id": "pt.ine.add.PTCONT.530758",
      "street": "R SECARIAS",
      "house": "528",
      "postcode": "4850-363",
      "city": "SALAMONDE",
      "lon": "-8.08953236399033",
      "lat": "41.6859417876551"
    },
    {
      "id": "pt.ine.add.PTCONT.543907",
      "street": "R SECARIAS",
      "house": "1210",
      "postcode": "4850-372",
      "city": "SALAMONDE",
      "lon": "-8.089109530927855",
      "lat": "41.689534045388"
    },
    {
      "id": "pt.ine.add.PTCONT.546921",
      "street": "R SECARIAS",
      "house": "88",
      "postcode": "4850-363",
      "city": "SALAMONDE",
      "lon": "-8.08806892917256",
      "lat": "41.68320414095648"
    },
    {
      "id": "pt.ine.add.PTCONT.552225",
      "street": "R POUSADA",
      "house": "220",
      "postcode": "4850-372",
      "city": "SALAMONDE",
      "lon": "-8.088341139100024",
      "lat": "41.68902054610109"
    },
    {
      "id": "pt.ine.add.PTCONT.566750",
      "street": "R SECARIAS",
      "house": "1170",
      "postcode": "4850-372",
      "city": "SALAMONDE",
      "lon": "-8.088737348213417",
      "lat": "41.68927279925412"
    },
    {
      "id": "pt.ine.add.PTCONT.568856",
      "street": "R MOINHO VELHO",
      "house": "103",
      "postcode": "4850-363",
      "city": "SALAMONDE",
      "lon": "-8.086855404023025",
      "lat": "41.6838519154978"
    },
    {
      "id": "pt.ine.add.PTCONT.578998",
      "street": "R SECARIAS",
      "house": "1188",
      "postcode": "4850-372",
      "city": "SALAMONDE",
      "lon": "-8.088929448102823",
      "lat": "41.68939892300634"
    },
    {
      "id": "pt.ine.add.PTCONT.587660",
      "street": "R FRAGAS DA PENA MA",
      "house": "2412",
      "postcode": "4850-372",
      "city": "SALAMONDE",
      "lon": "-8.088580147711713",
      "lat": "41.69079433880184"
    },
    {
      "id": "pt.ine.add.PTCONT.618827",
      "street": "R CABINE",
      "house": "128",
      "postcode": "4850-372",
      "city": "SALAMONDE",
      "lon": "-8.086815235235322",
      "lat": "41.68962317968208"
    },
    {
      "id": "pt.ine.add.PTCONT.618828",
      "street": "R SECARIAS",
      "house": "26",
      "postcode": "4850-363",
      "city": "SALAMONDE",
      "lon": "-8.087204313657201",
      "lat": "41.683005720488666"
    },
    {
      "id": "pt.ine.add.PTCONT.623249",
      "street": "R SECARIAS",
      "house": "810",
      "postcode": "4850-370",
      "city": "SALAMONDE",
      "lon": "-8.089795531427558",
      "lat": "41.6875445203747"
    },
    {
      "id": "pt.ine.add.PTCONT.627283",
      "street": "R FRAGAS DA PENA MA",
      "house": "2490",
      "postcode": "4850-372",
      "city": "SALAMONDE",
      "lon": "-8.089216773144342",
      "lat": "41.6908035872457"
    },
    {
      "id": "pt.ine.add.PTCONT.627284",
      "street": "TV POUSADA",
      "house": "50",
      "postcode": "4850-372",
      "city": "SALAMONDE",
      "lon": "-8.086935738491063",
      "lat": "41.689083014953965"
    },
    {
      "id": "pt.ine.add.PTCONT.627285",
      "street": "R SECARIAS",
      "house": "500",
      "postcode": "4850-363",
      "city": "SALAMONDE",
      "lon": "-8.089352088982029",
      "lat": "41.686103783218265"
    },
    {
      "id": "pt.ine.add.PTCONT.630296",
      "street": "R SECARIAS",
      "house": "494",
      "postcode": "4850-363",
      "city": "SALAMONDE",
      "lon": "-8.089184130329759",
      "lat": "41.685815605270264"
    },
    {
      "id": "pt.ine.add.PTCONT.634088",
      "street": "R SECARIAS",
      "house": "334",
      "postcode": "4850-370",
      "city": "SALAMONDE",
      "lon": "-8.088319975950892",
      "lat": "41.68489690867033"
    },
    {
      "id": "pt.ine.add.PTCONT.642864",
      "street": "R POUSADA",
      "house": "422",
      "postcode": "4850-372",
      "city": "SALAMONDE",
      "lon": "-8.087416100455085",
      "lat": "41.689227263793995"
    },
    {
      "id": "pt.ine.add.PTCONT.647984",
      "street": "R SECARIAS",
      "house": "490",
      "postcode": "4850-363",
      "city": "SALAMONDE",
      "lon": "-8.089028042768277",
      "lat": "41.68573451347934"
    },
    {
      "id": "pt.ine.add.PTCONT.677244",
      "street": "ALMAS SALAMODE",
      "house": "",
      "postcode": "4850-363",
      "city": "SALAMONDE",
      "lon": "-8.087047882223743",
      "lat": "41.68341982180321"
    },
    {
      "id": "pt.ine.add.PTCONT.696687",
      "street": "R LAGAR NOVO",
      "house": "9",
      "postcode": "4850-363",
      "city": "SALAMONDE",
      "lon": "-8.087456399825893",
      "lat": "41.68319489572362"
    },
    {
      "id": "pt.ine.add.PTCONT.714643",
      "street": "R POUSADA",
      "house": "204",
      "postcode": "4850-372",
      "city": "SALAMONDE",
      "lon": "-8.088689091104085",
      "lat": "41.68957890142545"
    },
    {
      "id": "pt.ine.add.PTCONT.717660",
      "street": "R SECARIAS",
      "house": "868",
      "postcode": "4850-370",
      "city": "SALAMONDE",
      "lon": "-8.090119722965957",
      "lat": "41.687715709659926"
    },
    {
      "id": "pt.ine.add.PTCONT.720766",
      "street": "R POUSADA",
      "house": "206",
      "postcode": "4850-372",
      "city": "SALAMONDE",
      "lon": "-8.088545081310002",
      "lat": "41.68938977105911"
    },
    {
      "id": "pt.ine.add.PTCONT.750581",
      "street": "R SECARIAS",
      "house": "1130",
      "postcode": "4850-372",
      "city": "SALAMONDE",
      "lon": "-8.088377336015705",
      "lat": "41.68878646778777"
    },
    {
      "id": "pt.ine.add.PTCONT.760930",
      "street": "TV POUSADA",
      "house": "4",
      "postcode": "4850-372",
      "city": "SALAMONDE",
      "lon": "-8.087080237050323",
      "lat": "41.68857887387932"
    },
    {
      "id": "pt.ine.add.PTCONT.771497",
      "street": "R SECARIAS",
      "house": "1230",
      "postcode": "4850-372",
      "city": "SALAMONDE",
      "lon": "-8.089169479058864",
      "lat": "41.68969613227674"
    },
    {
      "id": "pt.ine.add.PTCONT.782202",
      "street": "R LAGAR NOVO",
      "house": "13",
      "postcode": "4850-363",
      "city": "SALAMONDE",
      "lon": "-8.087528373885272",
      "lat": "41.68332097417153"
    },
    {
      "id": "pt.ine.add.PTCONT.786425",
      "street": "R POUSADA",
      "house": "314",
      "postcode": "4850-372",
      "city": "SALAMONDE",
      "lon": "-8.087368347325148",
      "lat": "41.68881308131864"
    },
    {
      "id": "pt.ine.add.PTCONT.789241",
      "street": "R POUSADA",
      "house": "316",
      "postcode": "4850-372",
      "city": "SALAMONDE",
      "lon": "-8.08730839814802",
      "lat": "41.68865999702002"
    },
    {
      "id": "pt.ine.add.PTCONT.801444",
      "street": "R CORTE DE CAVALO",
      "house": "20",
      "postcode": "4850-372",
      "city": "SALAMONDE",
      "lon": "-8.086767666585796",
      "lat": "41.68895689755376"
    },
    {
      "id": "pt.ine.add.PTCONT.807748",
      "street": "R SECARIAS",
      "house": "1148",
      "postcode": "4850-372",
      "city": "SALAMONDE",
      "lon": "-8.088617380765587",
      "lat": "41.689056667586314"
    },
    {
      "id": "pt.ine.add.PTCONT.844531",
      "street": "R SECARIAS",
      "house": "1142",
      "postcode": "4850-372",
      "city": "SALAMONDE",
      "lon": "-8.088533392842503",
      "lat": "41.68892158173277"
    }
  ]
}