{
  "data": {
    "distrito": "Porto",
    "concelho": "Porto",
    "freguesia": "Ramalde",
    "OBJECTID": 1233,
    "BGRI2021": "13121100901",
    "DT21": "13",
    "DTMN21": "1312",
    "DTMNFR21": "131211",
    "DTMNFRSEC21": "131211009",
    "SECNUM21": "009",
    "SSNUM21": "01",
    "SECSSNUM21": "00901",
    "OBJECTID_1": 138600,
    "DT": "13",
    "CC": "12",
    "fr": "11",
    "SEC": "009",
    "SS": "01"
  },
  "addresses": [
    {
      "id": "pt.ine.add.PTCONT.3575390",
      "street": "R RUI LOURENÇO TAVORA",
      "house": "71",
      "postcode": "4250-412",
      "city": "PORTO",
      "lon": "-8.648385729965883",
      "lat": "41.17981956898273"
    },
    {
      "id": "pt.ine.add.PTCONT.3588169",
      "street": "R RUI LOURENÇO TAVORA",
      "house": "79",
      "postcode": "4250-412",
      "city": "PORTO",
      "lon": "-8.648410270908732",
      "lat": "41.17990950223374"
    },
    {
      "id": "pt.ine.add.PTCONT.3994614",
      "street": "R D JERONIMO DE AZEVEDO",
      "house": "167",
      "postcode": "4250-239",
      "city": "PORTO",
      "lon": "-8.648754045624285",
      "lat": "41.17967385172538"
    },
    {
      "id": "pt.ine.add.PTCONT.3994615",
      "street": "R D JERONIMO DE AZEVEDO",
      "house": "167",
      "postcode": "4250-239",
      "city": "PORTO",
      "lon": "-8.648754045624285",
      "lat": "41.17967385172538"
    },
    {
      "id": "pt.ine.add.PTCONT.3994616",
      "street": "R D JERONIMO DE AZEVEDO",
      "house": "167",
      "postcode": "4250-239",
      "city": "PORTO",
      "lon": "-8.648754045624285",
      "lat": "41.17967385172538"
    },
    {
      "id": "pt.ine.add.PTCONT.3994617",
      "street": "R D JERONIMO DE AZEVEDO",
      "house": "167",
      "postcode": "4250-239",
      "city": "PORTO",
      "lon": "-8.648754045624285",
      "lat": "41.17967385172538"
    },
    {
      "id": "pt.ine.add.PTCONT.3994618",
      "street": "R D JERONIMO AZEVEDO FN",
      "house": "FN",
      "postcode": "4250-239",
      "city": "PORTO",
      "lon": "-8.648754045624285",
      "lat": "41.17967385172538"
    },
    {
      "id": "pt.ine.add.PTCONT.3994779",
      "street": "R D JERONIMO DE AZEVEDO",
      "house": "167",
      "postcode": "4250-239",
      "city": "PORTO",
      "lon": "-8.648754045624285",
      "lat": "41.17967385172538"
    },
    {
      "id": "pt.ine.add.PTCONT.3994780",
      "street": "R D JERONIMO DE AZEVEDO",
      "house": "167",
      "postcode": "4250-239",
      "city": "PORTO",
      "lon": "-8.648754045624285",
      "lat": "41.17967385172538"
    },
    {
      "id": "pt.ine.add.PTCONT.3996604",
      "street": "R D JERONIMO DE AZEVEDO",
      "house": "167",
      "postcode": "4250-239",
      "city": "PORTO",
      "lon": "-8.648754045624285",
      "lat": "41.17967385172538"
    },
    {
      "id": "pt.ine.add.PTCONT.4040366",
      "street": "R D JOÃO DE AZEVEDO GARAGEM",
      "house": "FN",
      "postcode": "4250-250",
      "city": "PORTO",
      "lon": "-8.648851999686704",
      "lat": "41.18000657240784"
    },
    {
      "id": "pt.ine.add.PTCONT.4243634",
      "street": "R D JERONIMO DE AZEVEDO",
      "house": "135",
      "postcode": "4250-239",
      "city": "PORTO",
      "lon": "-8.648994516703164",
      "lat": "41.1799429040106"
    },
    {
      "id": "pt.ine.add.PTCONT.4243635",
      "street": "R D JERONIMO DE AZEVEDO",
      "house": "135",
      "postcode": "4250-239",
      "city": "PORTO",
      "lon": "-8.648994516703164",
      "lat": "41.1799429040106"
    },
    {
      "id": "pt.ine.add.PTCONT.4243636",
      "street": "R D JERONIMO DE AZEVEDO",
      "house": "135",
      "postcode": "4250-239",
      "city": "PORTO",
      "lon": "-8.648994516703164",
      "lat": "41.1799429040106"
    },
    {
      "id": "pt.ine.add.PTCONT.4243637",
      "street": "R D JERONIMO DE AZEVEDO",
      "house": "135",
      "postcode": "4250-239",
      "city": "PORTO",
      "lon": "-8.648994516703164",
      "lat": "41.1799429040106"
    },
    {
      "id": "pt.ine.add.PTCONT.4243638",
      "street": "R D JERONIMO DE AZEVEDO",
      "house": "135",
      "postcode": "4250-239",
      "city": "PORTO",
      "lon": "-8.648994516703164",
      "lat": "41.1799429040106"
    },
    {
      "id": "pt.ine.add.PTCONT.4243639",
      "street": "R D JERONIMO DE AZEVEDO",
      "house": "135",
      "postcode": "4250-239",
      "city": "PORTO",
      "lon": "-8.648994516703164",
      "lat": "41.1799429040106"
    },
    {
      "id": "pt.ine.add.PTCONT.4243640",
      "street": "R D JERONIMO DE AZEVEDO",
      "house": "135",
      "postcode": "4250-239",
      "city": "PORTO",
      "lon": "-8.648994516703164",
      "lat": "41.1799429040106"
    },
    {
      "id": "pt.ine.add.PTCONT.4243641",
      "street": "R D JERONIMO DE AZEVEDO",
      "house": "135",
      "postcode": "4250-239",
      "city": "PORTO",
      "lon": "-8.648994516703164",
      "lat": "41.1799429040106"
    },
    {
      "id": "pt.ine.add.PTCONT.4310330",
      "street": "R RUI LOURENÇO TAVORA",
      "house": "63",
      "postcode": "4250-412",
      "city": "PORTO",
      "lon": "-8.648373106675498",
      "lat": "41.17972958240904"
    },
    {
      "id": "pt.ine.add.PTCONT.4328966",
      "street": "R RUI LOURENÇO TAVORA",
      "house": "47",
      "postcode": "4250-412",
      "city": "PORTO",
      "lon": "-8.648360201153631",
      "lat": "41.17960357987505"
    },
    {
      "id": "pt.ine.add.PTCONT.4336544",
      "street": "R RUI LOURENÇO TAVORA",
      "house": "55",
      "postcode": "4250-412",
      "city": "PORTO",
      "lon": "-8.648348706983672",
      "lat": "41.179657657125226"
    },
    {
      "id": "pt.ine.add.PTCONT.4356775",
      "street": "R RUI LOURENÇO TAVORA",
      "house": "87",
      "postcode": "4250-412",
      "city": "PORTO",
      "lon": "-8.648434882497902",
      "lat": "41.18000843946634"
    },
    {
      "id": "pt.ine.add.PTCONT.4375409",
      "street": "R D JERONIMO DE AZEVEDO",
      "house": "167",
      "postcode": "4250-239",
      "city": "PORTO",
      "lon": "-8.648754045624285",
      "lat": "41.17967385172538"
    }
  ]
}