{
  "data": {
    "distrito": "Castelo Branco",
    "concelho": "Vila de Rei",
    "freguesia": "Vila de Rei",
    "OBJECTID": 130,
    "BGRI2021": "05100300215",
    "DT21": "05",
    "DTMN21": "0510",
    "DTMNFR21": "051003",
    "DTMNFRSEC21": "051003002",
    "SECNUM21": "002",
    "SSNUM21": "15",
    "SECSSNUM21": "00215",
    "OBJECTID_1": 46468,
    "DT": "05",
    "CC": "10",
    "fr": "03",
    "SEC": "002",
    "SS": "15"
  },
  "addresses": [
    {
      "id": "pt.ine.add.PTCONT.954932",
      "street": "R CALÇADA",
      "house": "",
      "postcode": "6110-133",
      "city": "VILA DE REI",
      "lon": "-8.1191790221803",
      "lat": "39.62260231571168"
    },
    {
      "id": "pt.ine.add.PTCONT.961530",
      "street": "BC LATADA",
      "house": "",
      "postcode": "6110-133",
      "city": "VILA DE REI",
      "lon": "-8.11922563369884",
      "lat": "39.622476226277804"
    },
    {
      "id": "pt.ine.add.PTCONT.962652",
      "street": "",
      "house": "",
      "postcode": "6110-133",
      "city": "VILA DE REI",
      "lon": "-8.119470211454288",
      "lat": "39.62247625524671"
    },
    {
      "id": "pt.ine.add.PTCONT.975643",
      "street": "R TULHAS",
      "house": "",
      "postcode": "6110-133",
      "city": "VILA DE REI",
      "lon": "-8.117781050985243",
      "lat": "39.624331442444884"
    },
    {
      "id": "pt.ine.add.PTCONT.981596",
      "street": "R CALÇADA",
      "house": "",
      "postcode": "6110-133",
      "city": "VILA DE REI",
      "lon": "-8.119190728298399",
      "lat": "39.62230509315061"
    },
    {
      "id": "pt.ine.add.PTCONT.1001981",
      "street": "R TULHAS",
      "house": "",
      "postcode": "6110-133",
      "city": "VILA DE REI",
      "lon": "-8.118247035630077",
      "lat": "39.62381811628633"
    },
    {
      "id": "pt.ine.add.PTCONT.1011998",
      "street": "R TULHAS",
      "house": "",
      "postcode": "6110-133",
      "city": "VILA DE REI",
      "lon": "-8.118153843904828",
      "lat": "39.623899165389076"
    },
    {
      "id": "pt.ine.add.PTCONT.1035718",
      "street": "R CABO DO VALADO",
      "house": "",
      "postcode": "6110-133",
      "city": "VILA DE REI",
      "lon": "-8.120215683202959",
      "lat": "39.62198096707434"
    },
    {
      "id": "pt.ine.add.PTCONT.1038468",
      "street": "",
      "house": "",
      "postcode": "6110-133",
      "city": "VILA DE REI",
      "lon": "-8.117944525888543",
      "lat": "39.62241301861786"
    },
    {
      "id": "pt.ine.add.PTCONT.1042975",
      "street": "R TULHAS",
      "house": "",
      "postcode": "6110-133",
      "city": "VILA DE REI",
      "lon": "-8.11857325112067",
      "lat": "39.623313777595314"
    },
    {
      "id": "pt.ine.add.PTCONT.1043028",
      "street": "R CALCADA",
      "house": "",
      "postcode": "6110-133",
      "city": "VILA DE REI",
      "lon": "-8.119074273903",
      "lat": "39.622251038418916"
    },
    {
      "id": "pt.ine.add.PTCONT.1056535",
      "street": "R TAPADINHA",
      "house": "",
      "postcode": "6110-133",
      "city": "VILA DE REI",
      "lon": "-8.118002488401286",
      "lat": "39.6236559626199"
    },
    {
      "id": "pt.ine.add.PTCONT.1060418",
      "street": "LG CHAFARIZ",
      "house": "",
      "postcode": "6110-133",
      "city": "VILA DE REI",
      "lon": "-8.119178971620931",
      "lat": "39.62285450572374"
    },
    {
      "id": "pt.ine.add.PTCONT.1069330",
      "street": "R TULHAS",
      "house": "",
      "postcode": "6110-133",
      "city": "VILA DE REI",
      "lon": "-8.117874263474611",
      "lat": "39.62416032580947"
    },
    {
      "id": "pt.ine.add.PTCONT.1070420",
      "street": "R TULHAS",
      "house": "",
      "postcode": "6110-137",
      "city": "VILA DE REI",
      "lon": "-8.117990747573385",
      "lat": "39.62408828675226"
    },
    {
      "id": "pt.ine.add.PTCONT.1086237",
      "street": "R CALÇADA",
      "house": "",
      "postcode": "6110-133",
      "city": "VILA DE REI",
      "lon": "-8.119050942591405",
      "lat": "39.62244017812423"
    },
    {
      "id": "pt.ine.add.PTCONT.1098158",
      "street": "BC LATADA",
      "house": "",
      "postcode": "6110-133",
      "city": "VILA DE REI",
      "lon": "-8.119272234286647",
      "lat": "39.622404177542606"
    },
    {
      "id": "pt.ine.add.PTCONT.1098334",
      "street": "",
      "house": "",
      "postcode": "6110-133",
      "city": "VILA DE REI",
      "lon": "-8.118387113838711",
      "lat": "39.62232300767418"
    }
  ]
}