{
  "data": {
    "distrito": "Vila Real",
    "concelho": "Alijó",
    "freguesia": "União das freguesias de Castedo e Cotas",
    "OBJECTID": 401,
    "BGRI2021": "17012100110",
    "DT21": "17",
    "DTMN21": "1701",
    "DTMNFR21": "170121",
    "DTMNFRSEC21": "170121001",
    "SECNUM21": "001",
    "SSNUM21": "10",
    "SECSSNUM21": "00110",
    "OBJECTID_1": 179797,
    "DT": "17",
    "CC": "01",
    "fr": "21",
    "SEC": "001",
    "SS": "10"
  },
  "addresses": [
    {
      "id": "pt.ine.add.PTCONT.5286714",
      "street": "R SANTO ANDRÉ",
      "house": "",
      "postcode": "5070-252",
      "city": "COTAS",
      "lon": "-7.503700661276562",
      "lat": "41.22373339549461"
    },
    {
      "id": "pt.ine.add.PTCONT.5287989",
      "street": "R VEIGA",
      "house": "2",
      "postcode": "5070-252",
      "city": "COTAS",
      "lon": "-7.503249917787617",
      "lat": "41.223478812920064"
    },
    {
      "id": "pt.ine.add.PTCONT.5301901",
      "street": "R VEIGA",
      "house": "",
      "postcode": "5070-252",
      "city": "COTAS",
      "lon": "-7.503418599214968",
      "lat": "41.22329965120165"
    },
    {
      "id": "pt.ine.add.PTCONT.5303340",
      "street": "BR NOVO",
      "house": "2",
      "postcode": "5070-252",
      "city": "COTAS",
      "lon": "-7.505389323094151",
      "lat": "41.224237844935985"
    },
    {
      "id": "pt.ine.add.PTCONT.5307141",
      "street": "R SANTO ANDRÉ",
      "house": "",
      "postcode": "5070-253",
      "city": "COTAS",
      "lon": "-7.503629281975459",
      "lat": "41.22371499689195"
    },
    {
      "id": "pt.ine.add.PTCONT.5320534",
      "street": "R SANTO ANDRÉ",
      "house": "",
      "postcode": "5070-252",
      "city": "COTAS",
      "lon": "-7.504473393517761",
      "lat": "41.22398973456483"
    },
    {
      "id": "pt.ine.add.PTCONT.5330248",
      "street": "R PORTAL",
      "house": "",
      "postcode": "5070-252",
      "city": "COTAS",
      "lon": "-7.503001388268792",
      "lat": "41.22327936054833"
    },
    {
      "id": "pt.ine.add.PTCONT.5330268",
      "street": "BR NOVO",
      "house": "1",
      "postcode": "5070-252",
      "city": "COTAS",
      "lon": "-7.5052816497749255",
      "lat": "41.22427327477451"
    },
    {
      "id": "pt.ine.add.PTCONT.5330595",
      "street": "R SANTO ANDRÉ",
      "house": "",
      "postcode": "5070-252",
      "city": "COTAS",
      "lon": "-7.504424915875422",
      "lat": "41.224070507812705"
    },
    {
      "id": "pt.ine.add.PTCONT.5333459",
      "street": "R DE SANTO ANDRÉ",
      "house": "2",
      "postcode": "5070-252",
      "city": "COTAS",
      "lon": "-7.504092471627892",
      "lat": "41.2239156206914"
    },
    {
      "id": "pt.ine.add.PTCONT.5334812",
      "street": "R PORTAL CONCELHO",
      "house": "",
      "postcode": "5070-252",
      "city": "COTAS",
      "lon": "-7.503017202702425",
      "lat": "41.22287425748524"
    },
    {
      "id": "pt.ine.add.PTCONT.5338088",
      "street": "R PORTAL CONCELHO",
      "house": "",
      "postcode": "5070-252",
      "city": "COTAS",
      "lon": "-7.5029660446946185",
      "lat": "41.2232341460774"
    },
    {
      "id": "pt.ine.add.PTCONT.5338638",
      "street": "R STO ANDRÉ",
      "house": "27",
      "postcode": "5070-252",
      "city": "COTAS",
      "lon": "-7.50377160899466",
      "lat": "41.22379681275627"
    },
    {
      "id": "pt.ine.add.PTCONT.5346031",
      "street": "R PORTAL DO CONCELHO",
      "house": "8",
      "postcode": "5070-252",
      "city": "COTAS",
      "lon": "-7.503003203266496",
      "lat": "41.22309028200415"
    },
    {
      "id": "pt.ine.add.PTCONT.5346602",
      "street": "R S JOSE",
      "house": "3",
      "postcode": "5070-252",
      "city": "COTAS",
      "lon": "-7.5040580761029485",
      "lat": "41.22377136540123"
    },
    {
      "id": "pt.ine.add.PTCONT.5347150",
      "street": "R SANTO ANDRÉ",
      "house": "",
      "postcode": "5070-252",
      "city": "COTAS",
      "lon": "-7.503334172233204",
      "lat": "41.22339823583371"
    },
    {
      "id": "pt.ine.add.PTCONT.5348056",
      "street": "BR NOVO",
      "house": "3",
      "postcode": "5070-252",
      "city": "COTAS",
      "lon": "-7.506522238852519",
      "lat": "41.22424401522148"
    },
    {
      "id": "pt.ine.add.PTCONT.5350121",
      "street": "R PORTAL CONCELHO",
      "house": "",
      "postcode": "5070-252",
      "city": "COTAS",
      "lon": "-7.502894839032854",
      "lat": "41.22319773954315"
    },
    {
      "id": "pt.ine.add.PTCONT.5351502",
      "street": "R PORTAL CONCELHO",
      "house": "",
      "postcode": "5070-252",
      "city": "COTAS",
      "lon": "-7.50352290396791",
      "lat": "41.22361536898246"
    },
    {
      "id": "pt.ine.add.PTCONT.5351871",
      "street": "R S JOSE",
      "house": "3",
      "postcode": "5070-252",
      "city": "COTAS",
      "lon": "-7.504117357691057",
      "lat": "41.223807706081985"
    },
    {
      "id": "pt.ine.add.PTCONT.5362117",
      "street": "R VEIGA",
      "house": "",
      "postcode": "5070-252",
      "city": "COTAS",
      "lon": "-7.503097135913579",
      "lat": "41.223243867588586"
    },
    {
      "id": "pt.ine.add.PTCONT.5369778",
      "street": "R S JOSE",
      "house": "5",
      "postcode": "5070-252",
      "city": "COTAS",
      "lon": "-7.504082703319661",
      "lat": "41.22369046202045"
    },
    {
      "id": "pt.ine.add.PTCONT.5384466",
      "street": "R SANTO ANDRÉ",
      "house": "",
      "postcode": "5070-252",
      "city": "COTAS",
      "lon": "-7.503807212385036",
      "lat": "41.22381501575994"
    },
    {
      "id": "pt.ine.add.PTCONT.5389010",
      "street": "R PORTAL CONCELHO",
      "house": "",
      "postcode": "5070-252",
      "city": "COTAS",
      "lon": "-7.503036731891395",
      "lat": "41.22332457500843"
    },
    {
      "id": "pt.ine.add.PTCONT.5393456",
      "street": "R STO ANDRÉ",
      "house": "",
      "postcode": "5070-252",
      "city": "COTAS",
      "lon": "-7.503083827990924",
      "lat": "41.22338786218501"
    },
    {
      "id": "pt.ine.add.PTCONT.5395502",
      "street": "R SANTO ANDRÉ",
      "house": "",
      "postcode": "5070-252",
      "city": "COTAS",
      "lon": "-7.504866327852396",
      "lat": "41.224054908504876"
    },
    {
      "id": "pt.ine.add.PTCONT.5401946",
      "street": "R SANTO ANDRÉ",
      "house": "",
      "postcode": "5070-252",
      "city": "COTAS",
      "lon": "-7.504270317035184",
      "lat": "41.2240246425902"
    },
    {
      "id": "pt.ine.add.PTCONT.5418150",
      "street": "R VEIGA",
      "house": "3",
      "postcode": "5070-252",
      "city": "COTAS",
      "lon": "-7.503288630894795",
      "lat": "41.223172881427345"
    },
    {
      "id": "pt.ine.add.PTCONT.5418606",
      "street": "BR NOVO",
      "house": "4",
      "postcode": "5070-252",
      "city": "COTAS",
      "lon": "-7.505652715317941",
      "lat": "41.224131229917326"
    },
    {
      "id": "pt.ine.add.PTCONT.5426204",
      "street": "BR NOVO",
      "house": "5",
      "postcode": "5070-252",
      "city": "COTAS",
      "lon": "-7.505746741706125",
      "lat": "41.22427580962425"
    }
  ]
}