{
  "data": {
    "distrito": "Faro",
    "concelho": "Albufeira",
    "freguesia": "Paderne",
    "OBJECTID": 125,
    "BGRI2021": "08010300102",
    "DT21": "08",
    "DTMN21": "0801",
    "DTMNFR21": "080103",
    "DTMNFRSEC21": "080103001",
    "SECNUM21": "001",
    "SSNUM21": "02",
    "SECSSNUM21": "00102",
    "OBJECTID_1": 64441,
    "DT": "08",
    "CC": "01",
    "fr": "03",
    "SEC": "001",
    "SS": "02"
  },
  "addresses": [
    {
      "id": "pt.ine.add.PTCONT.1489924",
      "street": "ESTR MONTE NOVO",
      "house": "J",
      "postcode": "8200-493",
      "city": "PADERNE ABF",
      "lon": "-8.191243177684004",
      "lat": "37.17201160292035"
    },
    {
      "id": "pt.ine.add.PTCONT.1498916",
      "street": "ESTR MONTE NOVO",
      "house": "A",
      "postcode": "8200-493",
      "city": "PADERNE ABF",
      "lon": "-8.190815075705244",
      "lat": "37.17171446365715"
    },
    {
      "id": "pt.ine.add.PTCONT.1504559",
      "street": "ESTR MONTE NOVO",
      "house": "BQ",
      "postcode": "8200-493",
      "city": "PADERNE ABF",
      "lon": "-8.18997053991206",
      "lat": "37.17165179798781"
    },
    {
      "id": "pt.ine.add.PTCONT.1510214",
      "street": "ESTR MONTE NOVO",
      "house": "",
      "postcode": "8200-493",
      "city": "PADERNE ABF",
      "lon": "-8.191107811064771",
      "lat": "37.17168728905661"
    },
    {
      "id": "pt.ine.add.PTCONT.1512844",
      "street": "ESTR MONTE NOVO",
      "house": "C",
      "postcode": "8200-493",
      "city": "PADERNE ABF",
      "lon": "-8.191063315338889",
      "lat": "37.172399145122434"
    },
    {
      "id": "pt.ine.add.PTCONT.1529048",
      "street": "ESTR MONTE NOVO",
      "house": "6",
      "postcode": "8200-493",
      "city": "PADERNE ABF",
      "lon": "-8.191378427837241",
      "lat": "37.17218273714231"
    },
    {
      "id": "pt.ine.add.PTCONT.1529049",
      "street": "ESTR MONTE NOVO",
      "house": "AQ",
      "postcode": "8200-493",
      "city": "PADERNE ABF",
      "lon": "-8.189869228330434",
      "lat": "37.171687888804136"
    },
    {
      "id": "pt.ine.add.PTCONT.1529688",
      "street": "ESTR MONTE NOVO",
      "house": "CQ",
      "postcode": "8200-493",
      "city": "PADERNE ABF",
      "lon": "-8.19007183786965",
      "lat": "37.17159768596843"
    },
    {
      "id": "pt.ine.add.PTCONT.1530944",
      "street": "ESTR MONTE NOVO",
      "house": "CP 90-N",
      "postcode": "8200-493",
      "city": "PADERNE ABF",
      "lon": "-8.189260943428149",
      "lat": "37.17134577726787"
    },
    {
      "id": "pt.ine.add.PTCONT.1565670",
      "street": "ESTR MONTE NOVO",
      "house": "A",
      "postcode": "8200-493",
      "city": "PADERNE ABF",
      "lon": "-8.190883245346768",
      "lat": "37.17251637033442"
    },
    {
      "id": "pt.ine.add.PTCONT.1565675",
      "street": "ESTR MONTE NOVO",
      "house": "J",
      "postcode": "8200-493",
      "city": "PADERNE ABF",
      "lon": "-8.190386854658179",
      "lat": "37.1712551327761"
    },
    {
      "id": "pt.ine.add.PTCONT.1581711",
      "street": "ESTR MONTE NOVO",
      "house": "E",
      "postcode": "8200-493",
      "city": "PADERNE ABF",
      "lon": "-8.190274453714704",
      "lat": "37.17151649334359"
    },
    {
      "id": "pt.ine.add.PTCONT.1581712",
      "street": "ESTR MONTE NOVO",
      "house": "",
      "postcode": "8200-493",
      "city": "PADERNE ABF",
      "lon": "-8.190071682303403",
      "lat": "37.17139044312668"
    },
    {
      "id": "pt.ine.add.PTCONT.1583073",
      "street": "ESTR MONTE NOVO",
      "house": "L",
      "postcode": "8200-493",
      "city": "PADERNE ABF",
      "lon": "-8.191096847300384",
      "lat": "37.17207474854328"
    },
    {
      "id": "pt.ine.add.PTCONT.1588651",
      "street": "ESTR MONTE NOVO",
      "house": "72N",
      "postcode": "8200-493",
      "city": "PADERNE ABF",
      "lon": "-8.190117242726298",
      "lat": "37.17208423443047"
    },
    {
      "id": "pt.ine.add.PTCONT.1589410",
      "street": "ESTR MONTE NOVO",
      "house": "D 2 FASE",
      "postcode": "8200-493",
      "city": "PADERNE ABF",
      "lon": "-8.19069108747922",
      "lat": "37.1715433233059"
    },
    {
      "id": "pt.ine.add.PTCONT.1594396",
      "street": "ESTR MONTE NOVO",
      "house": "66N",
      "postcode": "8200-493",
      "city": "PADERNE ABF",
      "lon": "-8.190511639204226",
      "lat": "37.172480508690285"
    },
    {
      "id": "pt.ine.add.PTCONT.1608681",
      "street": "ESTR MONTE NOVO",
      "house": "P",
      "postcode": "8200-493",
      "city": "PADERNE ABF",
      "lon": "-8.190826808444188",
      "lat": "37.17233618663443"
    },
    {
      "id": "pt.ine.add.PTCONT.1638411",
      "street": "ESTR MONTE NOVO",
      "house": "F",
      "postcode": "8200-493",
      "city": "PADERNE ABF",
      "lon": "-8.19128841759041",
      "lat": "37.17227288697329"
    },
    {
      "id": "pt.ine.add.PTCONT.1643646",
      "street": "ESTR MONTE NOVO",
      "house": "K",
      "postcode": "8200-493",
      "city": "PADERNE ABF",
      "lon": "-8.190285557382516",
      "lat": "37.171309245067356"
    },
    {
      "id": "pt.ine.add.PTCONT.1662648",
      "street": "ESTR MONTE NOVO",
      "house": "B",
      "postcode": "8200-493",
      "city": "PADERNE ABF",
      "lon": "-8.190680005393697",
      "lat": "37.171777603284525"
    },
    {
      "id": "pt.ine.add.PTCONT.1664865",
      "street": "ESTR MONTE NOVO",
      "house": "Q",
      "postcode": "8200-493",
      "city": "PADERNE ABF",
      "lon": "-8.190748029935193",
      "lat": "37.17239028834098"
    },
    {
      "id": "pt.ine.add.PTCONT.1666233",
      "street": "ESTR MONTE NOVO",
      "house": "I",
      "postcode": "8200-493",
      "city": "PADERNE ABF",
      "lon": "-8.191288258697824",
      "lat": "37.172065644159666"
    },
    {
      "id": "pt.ine.add.PTCONT.1686915",
      "street": "ESTR MONTE NOVO",
      "house": "O",
      "postcode": "8200-493",
      "city": "PADERNE ABF",
      "lon": "-8.190894313186432",
      "lat": "37.17226406925249"
    },
    {
      "id": "pt.ine.add.PTCONT.1689370",
      "street": "ESTR MONTE NOVO",
      "house": "N",
      "postcode": "8200-493",
      "city": "PADERNE ABF",
      "lon": "-8.190973098331039",
      "lat": "37.17221897800485"
    },
    {
      "id": "pt.ine.add.PTCONT.1689492",
      "street": "ESTR MONTE NOVO",
      "house": "B",
      "postcode": "8200-493",
      "city": "PADERNE ABF",
      "lon": "-8.190973283847903",
      "lat": "37.17246226304122"
    },
    {
      "id": "pt.ine.add.PTCONT.1701286",
      "street": "ESTR MONTE NOVO",
      "house": "",
      "postcode": "8200-493",
      "city": "PADERNE ABF",
      "lon": "-8.189767748460087",
      "lat": "37.171498715578565"
    },
    {
      "id": "pt.ine.add.PTCONT.1706764",
      "street": "ESTR MONTE NOVO",
      "house": "I",
      "postcode": "8200-493",
      "city": "PADERNE ABF",
      "lon": "-8.190510678146794",
      "lat": "37.171210020050154"
    },
    {
      "id": "pt.ine.add.PTCONT.1715395",
      "street": "ESTR MONTE NOVO",
      "house": "",
      "postcode": "8200-493",
      "city": "PADERNE ABF",
      "lon": "-8.190184246408178",
      "lat": "37.17134533615458"
    },
    {
      "id": "pt.ine.add.PTCONT.1718304",
      "street": "ESTR MONTE NOVO",
      "house": "K",
      "postcode": "8200-493",
      "city": "PADERNE ABF",
      "lon": "-8.191209363516325",
      "lat": "37.171966566700526"
    },
    {
      "id": "pt.ine.add.PTCONT.1723895",
      "street": "ESTR DO MONTE NOVO",
      "house": "",
      "postcode": "8200-493",
      "city": "PADERNE ABF",
      "lon": "-8.191142107414112",
      "lat": "37.1723630643203"
    },
    {
      "id": "pt.ine.add.PTCONT.1723896",
      "street": "ESTR MONTE NOVO",
      "house": "E",
      "postcode": "8200-493",
      "city": "PADERNE ABF",
      "lon": "-8.191232152450388",
      "lat": "37.17231796738622"
    },
    {
      "id": "pt.ine.add.PTCONT.1723902",
      "street": "ESTR MONTE NOVO",
      "house": "87N",
      "postcode": "8200-493",
      "city": "PADERNE ABF",
      "lon": "-8.18940733410085",
      "lat": "37.17136372893241"
    },
    {
      "id": "pt.ine.add.PTCONT.1726920",
      "street": "ESTR MONTE NOVO",
      "house": "M",
      "postcode": "8200-493",
      "city": "PADERNE ABF",
      "lon": "-8.191051848980532",
      "lat": "37.172128833918656"
    },
    {
      "id": "pt.ine.add.PTCONT.1729802",
      "street": "ESTR MONTE NOVO",
      "house": "H",
      "postcode": "8200-493",
      "city": "PADERNE ABF",
      "lon": "-8.19057838690452",
      "lat": "37.17140821959297"
    },
    {
      "id": "pt.ine.add.PTCONT.1738287",
      "street": "ESTR MONTE NOVO",
      "house": "H",
      "postcode": "8200-493",
      "city": "PADERNE ABF",
      "lon": "-8.191333346689582",
      "lat": "37.172128695938454"
    },
    {
      "id": "pt.ine.add.PTCONT.1738288",
      "street": "ESTR MONTE NOVO",
      "house": "",
      "postcode": "8200-493",
      "city": "PADERNE ABF",
      "lon": "-8.189993295995087",
      "lat": "37.171967156705"
    },
    {
      "id": "pt.ine.add.PTCONT.1756830",
      "street": "ESTR MONTE NOVO",
      "house": "DQ",
      "postcode": "8200-493",
      "city": "PADERNE ABF",
      "lon": "-8.190173149234319",
      "lat": "37.17156159497851"
    },
    {
      "id": "pt.ine.add.PTCONT.1781208",
      "street": "ESTR CERCA VELHA",
      "house": "",
      "postcode": "8200-466",
      "city": "PADERNE ABF",
      "lon": "-8.19195342423347",
      "lat": "37.17313757233386"
    },
    {
      "id": "pt.ine.add.PTCONT.1781216",
      "street": "ESTR MONTE NOVO",
      "house": "",
      "postcode": "8200-493",
      "city": "PADERNE ABF",
      "lon": "-8.189880319647425",
      "lat": "37.17146261945415"
    },
    {
      "id": "pt.ine.add.PTCONT.1783707",
      "street": "ESTR MONTE NOVO",
      "house": "",
      "postcode": "8200-493",
      "city": "PADERNE ABF",
      "lon": "-8.190578543854674",
      "lat": "37.17161546243225"
    },
    {
      "id": "pt.ine.add.PTCONT.1785666",
      "street": "ESTR MONTE NOVO",
      "house": "67N",
      "postcode": "8200-493",
      "city": "PADERNE ABF",
      "lon": "-8.190207430422184",
      "lat": "37.17222835997697"
    },
    {
      "id": "pt.ine.add.PTCONT.1801566",
      "street": "ESTR CERCA VELHA",
      "house": "",
      "postcode": "8200-466",
      "city": "PADERNE ABF",
      "lon": "-8.192134131869814",
      "lat": "37.173840306018164"
    },
    {
      "id": "pt.ine.add.PTCONT.1801570",
      "street": "ESTR MONTE NOVO",
      "house": "",
      "postcode": "8200-493",
      "city": "PADERNE ABF",
      "lon": "-8.190387024686752",
      "lat": "37.1714803967381"
    },
    {
      "id": "pt.ine.add.PTCONT.1801575",
      "street": "ESTR MONTE NOVO",
      "house": "",
      "postcode": "8200-493",
      "city": "PADERNE ABF",
      "lon": "-8.189970371118752",
      "lat": "37.17142653403074"
    },
    {
      "id": "pt.ine.add.PTCONT.1804363",
      "street": "ESTR CERCA VELHA",
      "house": "",
      "postcode": "8200-466",
      "city": "PADERNE ABF",
      "lon": "-8.192134131869814",
      "lat": "37.173840306018164"
    },
    {
      "id": "pt.ine.add.PTCONT.1807441",
      "street": "ESTR MONTE NOVO",
      "house": "6",
      "postcode": "8200-493",
      "city": "PADERNE ABF",
      "lon": "-8.19049959555159",
      "lat": "37.171444300025506"
    },
    {
      "id": "pt.ine.add.PTCONT.1833295",
      "street": "ESTR MONTE NOVO",
      "house": "79N",
      "postcode": "8200-493",
      "city": "PADERNE ABF",
      "lon": "-8.189880609513668",
      "lat": "37.171850073453236"
    }
  ]
}