{
  "data": {
    "distrito": "Santarém",
    "concelho": "Abrantes",
    "freguesia": "União das freguesias de Abrantes (São Vicente e São João) e Alferrarede",
    "OBJECTID": 358,
    "BGRI2021": "14012000614",
    "DT21": "14",
    "DTMN21": "1401",
    "DTMNFR21": "140120",
    "DTMNFRSEC21": "140120006",
    "SECNUM21": "006",
    "SSNUM21": "14",
    "SECSSNUM21": "00614",
    "OBJECTID_1": 147033,
    "DT": "14",
    "CC": "01",
    "fr": "20",
    "SEC": "006",
    "SS": "14"
  },
  "addresses": [
    {
      "id": "pt.ine.add.PTCONT.4403429",
      "street": "AV RAINHA D LEONOR",
      "house": "802",
      "postcode": "2200-196",
      "city": "ABRANTES",
      "lon": "-8.197103160473823",
      "lat": "39.454516469189876"
    },
    {
      "id": "pt.ine.add.PTCONT.4445269",
      "street": "AV RAINHA D LEONOR",
      "house": "",
      "postcode": "2200-196",
      "city": "ABRANTES",
      "lon": "-8.19733543976643",
      "lat": "39.45441726363544"
    },
    {
      "id": "pt.ine.add.PTCONT.4447321",
      "street": "AV RAINHA D LEONOR",
      "house": "790",
      "postcode": "2200-196",
      "city": "ABRANTES",
      "lon": "-8.196963820558384",
      "lat": "39.45460661624251"
    },
    {
      "id": "pt.ine.add.PTCONT.4493449",
      "street": "AV PAIOL",
      "house": "612",
      "postcode": "2200-102",
      "city": "ABRANTES",
      "lon": "-8.199449092024658",
      "lat": "39.45345232311985"
    },
    {
      "id": "pt.ine.add.PTCONT.4498809",
      "street": "AV RAINHA D LEONOR",
      "house": "676",
      "postcode": "2200-196",
      "city": "ABRANTES",
      "lon": "-8.195849015528083",
      "lat": "39.45524672324261"
    },
    {
      "id": "pt.ine.add.PTCONT.4503149",
      "street": "AV RAINHA D LEONOR",
      "house": "484",
      "postcode": "2200-196",
      "city": "ABRANTES",
      "lon": "-8.194199963981456",
      "lat": "39.4561573126802"
    },
    {
      "id": "pt.ine.add.PTCONT.4503150",
      "street": "AV RAINHA D LEONOR",
      "house": "726",
      "postcode": "2200-196",
      "city": "ABRANTES",
      "lon": "-8.196232202828323",
      "lat": "39.454994318616976"
    },
    {
      "id": "pt.ine.add.PTCONT.4515029",
      "street": "AV RAINHA D LEONOR",
      "house": "",
      "postcode": "2200-196",
      "city": "ABRANTES",
      "lon": "-8.197625752621207",
      "lat": "39.454254976107855"
    },
    {
      "id": "pt.ine.add.PTCONT.4519686",
      "street": "AV RAINHA D LEONOR",
      "house": "744",
      "postcode": "2200-196",
      "city": "ABRANTES",
      "lon": "-8.196452882692215",
      "lat": "39.45491313521986"
    },
    {
      "id": "pt.ine.add.PTCONT.4530226",
      "street": "AV RAINHA D LEONOR",
      "house": "506",
      "postcode": "2200-196",
      "city": "ABRANTES",
      "lon": "-8.194327660222879",
      "lat": "39.4560311469129"
    },
    {
      "id": "pt.ine.add.PTCONT.4533559",
      "street": "R JULIO D ANTAS",
      "house": "",
      "postcode": "2200-196",
      "city": "ABRANTES",
      "lon": "-8.195849322761179",
      "lat": "39.45558899080162"
    },
    {
      "id": "pt.ine.add.PTCONT.4533560",
      "street": "R JULIO D ANTAS",
      "house": "",
      "postcode": "2200-196",
      "city": "ABRANTES",
      "lon": "-8.195849322761179",
      "lat": "39.45558899080162"
    },
    {
      "id": "pt.ine.add.PTCONT.4538492",
      "street": "AV PAIOL",
      "house": "724",
      "postcode": "2200-102",
      "city": "ABRANTES",
      "lon": "-8.199368890687198",
      "lat": "39.45464129909518"
    },
    {
      "id": "pt.ine.add.PTCONT.4545668",
      "street": "AV RAINHA D LEONOR",
      "house": "",
      "postcode": "2200-196",
      "city": "ABRANTES",
      "lon": "-8.194409315495413",
      "lat": "39.45640039271512"
    },
    {
      "id": "pt.ine.add.PTCONT.4545669",
      "street": "AV RAINHA D LEONOR",
      "house": "924",
      "postcode": "2200-196",
      "city": "ABRANTES",
      "lon": "-8.198218059823361",
      "lat": "39.45400244870772"
    },
    {
      "id": "pt.ine.add.PTCONT.4545670",
      "street": "AV RAINHA D LEONOR",
      "house": "910",
      "postcode": "2200-196",
      "city": "ABRANTES",
      "lon": "-8.198218059823361",
      "lat": "39.45400244870772"
    },
    {
      "id": "pt.ine.add.PTCONT.4555547",
      "street": "AV RAINHA D LEONOR",
      "house": "868",
      "postcode": "2200-196",
      "city": "ABRANTES",
      "lon": "-8.197823191610805",
      "lat": "39.45417380299135"
    },
    {
      "id": "pt.ine.add.PTCONT.4565472",
      "street": "AV RAINHA D LEONOR",
      "house": "762",
      "postcode": "2200-196",
      "city": "ABRANTES",
      "lon": "-8.196708368576829",
      "lat": "39.454777890097105"
    },
    {
      "id": "pt.ine.add.PTCONT.4569626",
      "street": "R BARCA",
      "house": "9",
      "postcode": "2200-106",
      "city": "ABRANTES",
      "lon": "-8.194513979928697",
      "lat": "39.456508422027696"
    },
    {
      "id": "pt.ine.add.PTCONT.4577777",
      "street": "AV RAINHA D LEONOR",
      "house": "656",
      "postcode": "2200-196",
      "city": "ABRANTES",
      "lon": "-8.195651603450695",
      "lat": "39.4553639211617"
    },
    {
      "id": "pt.ine.add.PTCONT.4579946",
      "street": "AV PAIOL",
      "house": "442",
      "postcode": "2200-102",
      "city": "ABRANTES",
      "lon": "-8.199449416866159",
      "lat": "39.4537945907605"
    },
    {
      "id": "pt.ine.add.PTCONT.4592249",
      "street": "AV RAINHA D LEONOR",
      "house": "",
      "postcode": "2200-196",
      "city": "ABRANTES",
      "lon": "-8.197521252765187",
      "lat": "39.454327090406146"
    },
    {
      "id": "pt.ine.add.PTCONT.4592250",
      "street": "AV PAIOL",
      "house": "656",
      "postcode": "2200-102",
      "city": "ABRANTES",
      "lon": "-8.199344970792135",
      "lat": "39.453920748957586"
    },
    {
      "id": "pt.ine.add.PTCONT.4592251",
      "street": "AV PAIOL",
      "house": "656",
      "postcode": "2200-102",
      "city": "ABRANTES",
      "lon": "-8.199344970792135",
      "lat": "39.453920748957586"
    },
    {
      "id": "pt.ine.add.PTCONT.4593796",
      "street": "AV PAIOL",
      "house": "656",
      "postcode": "2200-102",
      "city": "ABRANTES",
      "lon": "-8.199344970792135",
      "lat": "39.453920748957586"
    },
    {
      "id": "pt.ine.add.PTCONT.4594592",
      "street": "AV RAINHA D LEONOR",
      "house": "880",
      "postcode": "2200-196",
      "city": "ABRANTES",
      "lon": "-8.197974164716028",
      "lat": "39.4541016625102"
    },
    {
      "id": "pt.ine.add.PTCONT.4598744",
      "street": "AV PAIOL",
      "house": "",
      "postcode": "2200-102",
      "city": "ABRANTES",
      "lon": "-8.19948416941848",
      "lat": "39.45368648635797"
    },
    {
      "id": "pt.ine.add.PTCONT.4609095",
      "street": "AV ENG ADELINO AMARO DA COSTA",
      "house": "263",
      "postcode": "2200-195",
      "city": "ABRANTES",
      "lon": "-8.195316281714831",
      "lat": "39.4571835239025"
    },
    {
      "id": "pt.ine.add.PTCONT.4613226",
      "street": "R JULIO D ANTAS",
      "house": "131",
      "postcode": "2200-196",
      "city": "ABRANTES",
      "lon": "-8.19630223199748",
      "lat": "39.45534555537245"
    },
    {
      "id": "pt.ine.add.PTCONT.4615319",
      "street": "AV RAINHA D LEONOR",
      "house": "7",
      "postcode": "2200-196",
      "city": "ABRANTES",
      "lon": "-8.194316254422674",
      "lat": "39.45627434311209"
    },
    {
      "id": "pt.ine.add.PTCONT.4615325",
      "street": "AV ENG ADELINO AMARO DA COSTA",
      "house": "480",
      "postcode": "2200-195",
      "city": "ABRANTES",
      "lon": "-8.195455564612134",
      "lat": "39.457021322549636"
    },
    {
      "id": "pt.ine.add.PTCONT.4626757",
      "street": "AV RAINHA D LEONOR",
      "house": "632",
      "postcode": "2200-196",
      "city": "ABRANTES",
      "lon": "-8.195442580066425",
      "lat": "39.45549013201255"
    },
    {
      "id": "pt.ine.add.PTCONT.4626758",
      "street": "AV RAINHA D LEONOR",
      "house": "632",
      "postcode": "2200-196",
      "city": "ABRANTES",
      "lon": "-8.195442580066425",
      "lat": "39.45549013201255"
    },
    {
      "id": "pt.ine.add.PTCONT.4640157",
      "street": "AV RAINHA D LEONOR",
      "house": "694",
      "postcode": "2200-196",
      "city": "ABRANTES",
      "lon": "-8.19603481643339",
      "lat": "39.45513853831484"
    },
    {
      "id": "pt.ine.add.PTCONT.4643017",
      "street": "R JULIO D ANTAS",
      "house": "",
      "postcode": "2200-196",
      "city": "ABRANTES",
      "lon": "-8.195675042332539",
      "lat": "39.45558908468755"
    },
    {
      "id": "pt.ine.add.PTCONT.4643018",
      "street": "R JULIO D ANTAS",
      "house": "",
      "postcode": "2200-196",
      "city": "ABRANTES",
      "lon": "-8.195675042332539",
      "lat": "39.45558908468755"
    }
  ]
}