{
  "data": {
    "distrito": "Viana do Castelo",
    "concelho": "Ponte da Barca",
    "freguesia": "União das freguesias de Ponte da Barca, Vila Nova de Muía e Paço Vedro de Magalhães",
    "OBJECTID": 324,
    "BGRI2021": "16062800128",
    "DT21": "16",
    "DTMN21": "1606",
    "DTMNFR21": "160628",
    "DTMNFRSEC21": "160628001",
    "SECNUM21": "001",
    "SSNUM21": "28",
    "SECSSNUM21": "00128",
    "OBJECTID_1": 174831,
    "DT": "16",
    "CC": "06",
    "fr": "28",
    "SEC": "001",
    "SS": "28"
  },
  "addresses": [
    {
      "id": "pt.ine.add.PTCONT.5141442",
      "street": "ARMANDO BARBEIRO",
      "house": "",
      "postcode": "4980-820",
      "city": "VILA NOVA DE MUIA",
      "lon": "-8.387260985219196",
      "lat": "41.810826007803165"
    },
    {
      "id": "pt.ine.add.PTCONT.5153386",
      "street": "TIA S DO BRITO",
      "house": "",
      "postcode": "4980-820",
      "city": "VILA NOVA DE MUIA",
      "lon": "-8.387465317276346",
      "lat": "41.81076253208017"
    },
    {
      "id": "pt.ine.add.PTCONT.5153387",
      "street": "",
      "house": "",
      "postcode": "4980-820",
      "city": "VILA NOVA DE MUIA",
      "lon": "-8.387633510764934",
      "lat": "41.810690132717575"
    },
    {
      "id": "pt.ine.add.PTCONT.5162648",
      "street": "",
      "house": "",
      "postcode": "4980-820",
      "city": "VILA NOVA DE MUIA",
      "lon": "-8.386984625240295",
      "lat": "41.810934659131846"
    },
    {
      "id": "pt.ine.add.PTCONT.5172852",
      "street": "TIO ARMANDO",
      "house": "",
      "postcode": "4980-820",
      "city": "VILA NOVA DE MUIA",
      "lon": "-8.386635810380033",
      "lat": "41.810980446257595"
    },
    {
      "id": "pt.ine.add.PTCONT.5186347",
      "street": "",
      "house": "",
      "postcode": "4980-820",
      "city": "VILA NOVA DE MUIA",
      "lon": "-8.385226287540053",
      "lat": "41.810596404248265"
    },
    {
      "id": "pt.ine.add.PTCONT.5225906",
      "street": "LIGEIRINHO",
      "house": "",
      "postcode": "4980-820",
      "city": "VILA NOVA DE MUIA",
      "lon": "-8.387837663676834",
      "lat": "41.81058163996315"
    },
    {
      "id": "pt.ine.add.PTCONT.5225923",
      "street": "LIGEIRINHO",
      "house": "",
      "postcode": "4980-820",
      "city": "VILA NOVA DE MUIA",
      "lon": "-8.387837663676834",
      "lat": "41.81058163996315"
    },
    {
      "id": "pt.ine.add.PTCONT.5245938",
      "street": "",
      "house": "",
      "postcode": "4980-820",
      "city": "VILA NOVA DE MUIA",
      "lon": "-8.387633154364547",
      "lat": "41.810600099977705"
    }
  ]
}