{
  "data": {
    "distrito": "Faro",
    "concelho": "Silves",
    "freguesia": "União das freguesias de Alcantarilha e Pêra",
    "OBJECTID": 188,
    "BGRI2021": "08130900314",
    "DT21": "08",
    "DTMN21": "0813",
    "DTMNFR21": "081309",
    "DTMNFRSEC21": "081309003",
    "SECNUM21": "003",
    "SSNUM21": "14",
    "SECSSNUM21": "00314",
    "OBJECTID_1": 72227,
    "DT": "08",
    "CC": "13",
    "fr": "09",
    "SEC": "003",
    "SS": "14"
  },
  "addresses": [
    {
      "id": "pt.ine.add.PTCONT.1477843",
      "street": "R 13 DE MAIO",
      "house": "23",
      "postcode": "8365-040",
      "city": "ALCANTARILHA",
      "lon": "-8.349357248165058",
      "lat": "37.129487846190976"
    },
    {
      "id": "pt.ine.add.PTCONT.1485826",
      "street": "QTA S SEBASTIÃO",
      "house": "AZ",
      "postcode": "8365-011",
      "city": "ALCANTARILHA",
      "lon": "-8.351944492186293",
      "lat": "37.129113663474094"
    },
    {
      "id": "pt.ine.add.PTCONT.1488664",
      "street": "R CÓNEGO CARLOS DO NASCIMENTO PATRICIO",
      "house": "101",
      "postcode": "8365-041",
      "city": "ALCANTARILHA",
      "lon": "-8.35052511319367",
      "lat": "37.12861168093996"
    },
    {
      "id": "pt.ine.add.PTCONT.1500042",
      "street": "R 13 DE MAIO",
      "house": "",
      "postcode": "8365-040",
      "city": "ALCANTARILHA",
      "lon": "-8.350223099398477",
      "lat": "37.1292519877487"
    },
    {
      "id": "pt.ine.add.PTCONT.1500043",
      "street": "R 13 DE MAIO",
      "house": "",
      "postcode": "8365-040",
      "city": "ALCANTARILHA",
      "lon": "-8.349637328111196",
      "lat": "37.12904581508666"
    },
    {
      "id": "pt.ine.add.PTCONT.1517558",
      "street": "R PADRE ANTÓNIO PATRICIO",
      "house": "",
      "postcode": "8365-040",
      "city": "ALCANTARILHA",
      "lon": "-8.348558095434464",
      "lat": "37.12943523761228"
    },
    {
      "id": "pt.ine.add.PTCONT.1543894",
      "street": "R 13 DE MAIO CAJA BEAUELLA",
      "house": "22",
      "postcode": "8365-040",
      "city": "ALCANTARILHA",
      "lon": "-8.349458452834124",
      "lat": "37.12946062970794"
    },
    {
      "id": "pt.ine.add.PTCONT.1557304",
      "street": "R 13 DE MAIO",
      "house": "11",
      "postcode": "8365-040",
      "city": "ALCANTARILHA",
      "lon": "-8.350245838042156",
      "lat": "37.1293330415864"
    },
    {
      "id": "pt.ine.add.PTCONT.1572292",
      "street": "R 13 DE MAIO",
      "house": "",
      "postcode": "8365-040",
      "city": "ALCANTARILHA",
      "lon": "-8.35014391335837",
      "lat": "37.129107962994006"
    },
    {
      "id": "pt.ine.add.PTCONT.1575437",
      "street": "R CÓNEGO CARLOS DO NASCIMENTO PATRICIO",
      "house": "54",
      "postcode": "8365-041",
      "city": "ALCANTARILHA",
      "lon": "-8.348849740214716",
      "lat": "37.12910131466007"
    },
    {
      "id": "pt.ine.add.PTCONT.1579345",
      "street": "R CÓNEGO CARLOS DO NASCIMENTO PATRICIO",
      "house": "55",
      "postcode": "8365-041",
      "city": "ALCANTARILHA",
      "lon": "-8.349029667522052",
      "lat": "37.12905593403181"
    },
    {
      "id": "pt.ine.add.PTCONT.1596231",
      "street": "R CÓNEGO CARLOS DO NASCIMENTO PATRICIO",
      "house": "50",
      "postcode": "8365-041",
      "city": "ALCANTARILHA",
      "lon": "-8.348467403543724",
      "lat": "37.12920112655085"
    },
    {
      "id": "pt.ine.add.PTCONT.1606881",
      "street": "R PADRE ANTÓNIO PATRICIO",
      "house": "",
      "postcode": "8365-040",
      "city": "ALCANTARILHA",
      "lon": "-8.348569578841769",
      "lat": "37.12951631222614"
    },
    {
      "id": "pt.ine.add.PTCONT.1615182",
      "street": "R 13 DE MAIO",
      "house": "",
      "postcode": "8365-040",
      "city": "ALCANTARILHA",
      "lon": "-8.350109689906677",
      "lat": "37.128945834667896"
    },
    {
      "id": "pt.ine.add.PTCONT.1619714",
      "street": "R 13 DE MAIO",
      "house": "13",
      "postcode": "8365-040",
      "city": "ALCANTARILHA",
      "lon": "-8.350200386541367",
      "lat": "37.12917994446781"
    },
    {
      "id": "pt.ine.add.PTCONT.1627462",
      "street": "R PADRE ANTÓNIO PATRICIO",
      "house": "",
      "postcode": "8365-040",
      "city": "ALCANTARILHA",
      "lon": "-8.348603543785384",
      "lat": "37.12958833536397"
    },
    {
      "id": "pt.ine.add.PTCONT.1642895",
      "street": "R CÓNEGO CARLOS DO NASCIMENTO PATRICIO",
      "house": "51",
      "postcode": "8365-041",
      "city": "ALCANTARILHA",
      "lon": "-8.348557354686557",
      "lat": "37.129173931278885"
    },
    {
      "id": "pt.ine.add.PTCONT.1645446",
      "street": "R CÓNEGO CARLOS DO NASCIMENTO PATRICIO",
      "house": "57",
      "postcode": "8365-041",
      "city": "ALCANTARILHA",
      "lon": "-8.349625612615316",
      "lat": "37.12888364550473"
    },
    {
      "id": "pt.ine.add.PTCONT.1645448",
      "street": "R 13 DE MAIO",
      "house": "28A",
      "postcode": "8365-040",
      "city": "ALCANTARILHA",
      "lon": "-8.348761016484094",
      "lat": "37.1295610171795"
    },
    {
      "id": "pt.ine.add.PTCONT.1646612",
      "street": "R CÓNEGO CARLOS DO NASCIMENTO PATRICIO",
      "house": "52",
      "postcode": "8365-041",
      "city": "ALCANTARILHA",
      "lon": "-8.348647305764725",
      "lat": "37.12914673593876"
    },
    {
      "id": "pt.ine.add.PTCONT.1646613",
      "street": "EN 125",
      "house": "",
      "postcode": "8365-011",
      "city": "ALCANTARILHA",
      "lon": "-8.348884191287645",
      "lat": "37.12934453842127"
    },
    {
      "id": "pt.ine.add.PTCONT.1651978",
      "street": "R 13 DE MAIO",
      "house": "25",
      "postcode": "8365-040",
      "city": "ALCANTARILHA",
      "lon": "-8.349087163843182",
      "lat": "37.12948833855656"
    },
    {
      "id": "pt.ine.add.PTCONT.1685557",
      "street": "R PADRE ANTÓNIO PATRICIO",
      "house": "",
      "postcode": "8365-040",
      "city": "ALCANTARILHA",
      "lon": "-8.348524130602994",
      "lat": "37.12936321445919"
    },
    {
      "id": "pt.ine.add.PTCONT.1688510",
      "street": "R 13 DE MAIO",
      "house": "27",
      "postcode": "8365-040",
      "city": "ALCANTARILHA",
      "lon": "-8.348828460905125",
      "lat": "37.129533862643264"
    },
    {
      "id": "pt.ine.add.PTCONT.1696454",
      "street": "URB QUINTALGARVE",
      "house": "",
      "postcode": "8365-011",
      "city": "ALCANTARILHA",
      "lon": "-8.34983978738733",
      "lat": "37.12900940268232"
    },
    {
      "id": "pt.ine.add.PTCONT.1705474",
      "street": "R CÓNEGO CARLOS DO NASCIMENTO PATRICIO",
      "house": "56",
      "postcode": "8365-041",
      "city": "ALCANTARILHA",
      "lon": "-8.349288266194574",
      "lat": "37.1289743672549"
    },
    {
      "id": "pt.ine.add.PTCONT.1711479",
      "street": "R CÓNEGO CARLOS DO NASCIMENTO PATRICIO",
      "house": "102",
      "postcode": "8365-041",
      "city": "ALCANTARILHA",
      "lon": "-8.350839872336199",
      "lat": "37.128493965324125"
    },
    {
      "id": "pt.ine.add.PTCONT.1711480",
      "street": "R 13 DE MAIO",
      "house": "26",
      "postcode": "8365-040",
      "city": "ALCANTARILHA",
      "lon": "-8.348952147269749",
      "lat": "37.129497595071314"
    },
    {
      "id": "pt.ine.add.PTCONT.1740260",
      "street": "R 13 DE MAIO",
      "house": "20",
      "postcode": "8365-040",
      "city": "ALCANTARILHA",
      "lon": "-8.349660887627577",
      "lat": "37.12941520704544"
    },
    {
      "id": "pt.ine.add.PTCONT.1754639",
      "street": "QTA S SEBASTIÃO",
      "house": "",
      "postcode": "8365-011",
      "city": "ALCANTARILHA",
      "lon": "-8.351899167094828",
      "lat": "37.1290056198203"
    },
    {
      "id": "pt.ine.add.PTCONT.1758496",
      "street": "R 13 DE MAIO",
      "house": "21",
      "postcode": "8365-040",
      "city": "ALCANTARILHA",
      "lon": "-8.349559683092268",
      "lat": "37.12944242370106"
    },
    {
      "id": "pt.ine.add.PTCONT.1764948",
      "street": "R CÓNEGO CARLOS DO NASCIMENTO PATRICIO",
      "house": "99",
      "postcode": "8365-041",
      "city": "ALCANTARILHA",
      "lon": "-8.349929249406937",
      "lat": "37.12881100567298"
    },
    {
      "id": "pt.ine.add.PTCONT.1805726",
      "street": "PCT 13 DE MAIO",
      "house": "24",
      "postcode": "8365-040",
      "city": "ALCANTARILHA",
      "lon": "-8.349177140717938",
      "lat": "37.129470153377895"
    },
    {
      "id": "pt.ine.add.PTCONT.1817413",
      "street": "QTA S SEBASTIÃO",
      "house": "",
      "postcode": "8365-011",
      "city": "ALCANTARILHA",
      "lon": "-8.351189838386944",
      "lat": "37.12888077828421"
    },
    {
      "id": "pt.ine.add.PTCONT.1817414",
      "street": "QTA S SEBASTIÃO",
      "house": "",
      "postcode": "8365-011",
      "city": "ALCANTARILHA",
      "lon": "-8.351189838386944",
      "lat": "37.12888077828421"
    },
    {
      "id": "pt.ine.add.PTCONT.1817415",
      "street": "QTA S SEBASTIÃO",
      "house": "",
      "postcode": "8365-011",
      "city": "ALCANTARILHA",
      "lon": "-8.351189838386944",
      "lat": "37.12888077828421"
    },
    {
      "id": "pt.ine.add.PTCONT.1817416",
      "street": "QTA S SEBASTIÃO",
      "house": "",
      "postcode": "8365-011",
      "city": "ALCANTARILHA",
      "lon": "-8.351189838386944",
      "lat": "37.12888077828421"
    },
    {
      "id": "pt.ine.add.PTCONT.1817417",
      "street": "QTA S SEBASTIÃO",
      "house": "",
      "postcode": "8365-011",
      "city": "ALCANTARILHA",
      "lon": "-8.351189838386944",
      "lat": "37.12888077828421"
    },
    {
      "id": "pt.ine.add.PTCONT.1817418",
      "street": "QTA S SEBASTIÃO",
      "house": "",
      "postcode": "8365-011",
      "city": "ALCANTARILHA",
      "lon": "-8.351189838386944",
      "lat": "37.12888077828421"
    },
    {
      "id": "pt.ine.add.PTCONT.1817419",
      "street": "QTA S SEBASTIÃO",
      "house": "",
      "postcode": "8365-011",
      "city": "ALCANTARILHA",
      "lon": "-8.351189838386944",
      "lat": "37.12888077828421"
    },
    {
      "id": "pt.ine.add.PTCONT.1817420",
      "street": "R 13 DE MAIO",
      "house": "",
      "postcode": "8365-040",
      "city": "ALCANTARILHA",
      "lon": "-8.349727278647437",
      "lat": "37.12901861892823"
    },
    {
      "id": "pt.ine.add.PTCONT.1818388",
      "street": "QTA S SEBASTIÃO",
      "house": "",
      "postcode": "8365-011",
      "city": "ALCANTARILHA",
      "lon": "-8.351189838386944",
      "lat": "37.12888077828421"
    },
    {
      "id": "pt.ine.add.PTCONT.1818644",
      "street": "QTA S SEBASTIÃO",
      "house": "",
      "postcode": "8365-011",
      "city": "ALCANTARILHA",
      "lon": "-8.351189838386944",
      "lat": "37.12888077828421"
    },
    {
      "id": "pt.ine.add.PTCONT.1819631",
      "street": "R 13 DE MAIO",
      "house": "",
      "postcode": "8365-040",
      "city": "ALCANTARILHA",
      "lon": "-8.34976214346183",
      "lat": "37.12940601142825"
    },
    {
      "id": "pt.ine.add.PTCONT.1837870",
      "street": "R CÓNEGO CARLOS DO NASCIMENTO PATRICIO",
      "house": "53",
      "postcode": "8365-041",
      "city": "ALCANTARILHA",
      "lon": "-8.348748535802907",
      "lat": "37.12912853062426"
    },
    {
      "id": "pt.ine.add.PTCONT.1839677",
      "street": "R 13 MAIO",
      "house": "8",
      "postcode": "8365-040",
      "city": "ALCANTARILHA",
      "lon": "-8.34925501839157",
      "lat": "37.12915464007732"
    },
    {
      "id": "pt.ine.add.PTCONT.1846099",
      "street": "R 13 DE MAIO VILLA SOL",
      "house": "3",
      "postcode": "8365-040",
      "city": "ALCANTARILHA",
      "lon": "-8.350954368808415",
      "lat": "37.12917856133786"
    },
    {
      "id": "pt.ine.add.PTCONT.1846976",
      "street": "R 13 DE MAIO",
      "house": "",
      "postcode": "8365-040",
      "city": "ALCANTARILHA",
      "lon": "-8.349536098399769",
      "lat": "37.12906402115933"
    }
  ]
}