{
  "data": {
    "distrito": "Viseu",
    "concelho": "Moimenta da Beira",
    "freguesia": "Passô",
    "OBJECTID": 431,
    "BGRI2021": "18071300104",
    "DT21": "18",
    "DTMN21": "1807",
    "DTMNFR21": "180713",
    "DTMNFRSEC21": "180713001",
    "SECNUM21": "001",
    "SSNUM21": "04",
    "SECSSNUM21": "00104",
    "OBJECTID_1": 192815,
    "DT": "18",
    "CC": "07",
    "fr": "13",
    "SEC": "001",
    "SS": "04"
  },
  "addresses": [
    {
      "id": "pt.ine.add.PTCONT.5434662",
      "street": "R DIREITA",
      "house": "54",
      "postcode": "3620-422",
      "city": "PASSÔ",
      "lon": "-7.723123086325656",
      "lat": "41.0157762143841"
    },
    {
      "id": "pt.ine.add.PTCONT.5441920",
      "street": "R DIREITA",
      "house": "58",
      "postcode": "3620-422",
      "city": "PASSÔ",
      "lon": "-7.7230527624086065",
      "lat": "41.015613881808875"
    },
    {
      "id": "pt.ine.add.PTCONT.5443848",
      "street": "R DIREITA",
      "house": "",
      "postcode": "3620-422",
      "city": "PASSÔ",
      "lon": "-7.722839446378561",
      "lat": "41.015505067789064"
    },
    {
      "id": "pt.ine.add.PTCONT.5453210",
      "street": "R BONFIM",
      "house": "9",
      "postcode": "3620-422",
      "city": "PASSÔ",
      "lon": "-7.723209261695801",
      "lat": "41.015299278179796"
    },
    {
      "id": "pt.ine.add.PTCONT.5471078",
      "street": "R DIREITA",
      "house": "",
      "postcode": "3620-422",
      "city": "PASSÔ",
      "lon": "-7.7235700406028345",
      "lat": "41.01655219701187"
    },
    {
      "id": "pt.ine.add.PTCONT.5474819",
      "street": "R DIREITA",
      "house": "",
      "postcode": "3620-422",
      "city": "PASSÔ",
      "lon": "-7.722940742475113",
      "lat": "41.01642389528546"
    },
    {
      "id": "pt.ine.add.PTCONT.5483652",
      "street": "R DIREITA",
      "house": "50",
      "postcode": "3620-422",
      "city": "PASSÔ",
      "lon": "-7.722956093530372",
      "lat": "41.015865666070994"
    },
    {
      "id": "pt.ine.add.PTCONT.5486720",
      "street": "R EIRA",
      "house": "1",
      "postcode": "3620-422",
      "city": "PASSÔ",
      "lon": "-7.723223772777654",
      "lat": "41.016794089774166"
    },
    {
      "id": "pt.ine.add.PTCONT.5495883",
      "street": "R DIREITA",
      "house": "",
      "postcode": "3620-422",
      "city": "PASSÔ",
      "lon": "-7.7229877929703425",
      "lat": "41.016505103903256"
    },
    {
      "id": "pt.ine.add.PTCONT.5505750",
      "street": "R DIREITA",
      "house": "",
      "postcode": "3620-422",
      "city": "PASSÔ",
      "lon": "-7.722941245156628",
      "lat": "41.01634285587501"
    },
    {
      "id": "pt.ine.add.PTCONT.5542344",
      "street": "R ENCHIDRO",
      "house": "",
      "postcode": "3620-422",
      "city": "PASSÔ",
      "lon": "-7.723123812081191",
      "lat": "41.01565915744165"
    },
    {
      "id": "pt.ine.add.PTCONT.5542345",
      "street": "R BONFIM",
      "house": "8",
      "postcode": "3620-422",
      "city": "PASSÔ",
      "lon": "-7.723219698621748",
      "lat": "41.015533434355"
    },
    {
      "id": "pt.ine.add.PTCONT.5554920",
      "street": "R DIREITA",
      "house": "57",
      "postcode": "3620-422",
      "city": "PASSÔ",
      "lon": "-7.722945378238044",
      "lat": "41.01567653179002"
    },
    {
      "id": "pt.ine.add.PTCONT.5556626",
      "street": "R BONFIM",
      "house": "3",
      "postcode": "3620-422",
      "city": "PASSÔ",
      "lon": "-7.722994494472367",
      "lat": "41.01542457834507"
    },
    {
      "id": "pt.ine.add.PTCONT.5567752",
      "street": "R BONFIM",
      "house": "",
      "postcode": "3620-422",
      "city": "PASSÔ",
      "lon": "-7.722995164602536",
      "lat": "41.015316525778026"
    },
    {
      "id": "pt.ine.add.PTCONT.5591697",
      "street": "BR ALTO",
      "house": "",
      "postcode": "3620-422",
      "city": "PASSÔ",
      "lon": "-7.723060574509787",
      "lat": "41.016271243823475"
    },
    {
      "id": "pt.ine.add.PTCONT.5597314",
      "street": "R EIRA",
      "house": "5",
      "postcode": "3620-422",
      "city": "PASSÔ",
      "lon": "-7.723520312156125",
      "lat": "41.01690319882653"
    },
    {
      "id": "pt.ine.add.PTCONT.5597328",
      "street": "R BONFIM",
      "house": "",
      "postcode": "3620-422",
      "city": "PASSÔ",
      "lon": "-7.723043163626676",
      "lat": "41.01524465991358"
    },
    {
      "id": "pt.ine.add.PTCONT.5602734",
      "street": "R BONFIM",
      "house": "",
      "postcode": "3620-422",
      "city": "PASSÔ",
      "lon": "-7.723136705080158",
      "lat": "41.01549712087839"
    },
    {
      "id": "pt.ine.add.PTCONT.5617693",
      "street": "R DIREITA",
      "house": "",
      "postcode": "3620-422",
      "city": "PASSÔ",
      "lon": "-7.722886719541775",
      "lat": "41.01555025893681"
    },
    {
      "id": "pt.ine.add.PTCONT.5625296",
      "street": "R EIRA",
      "house": "6",
      "postcode": "3620-422",
      "city": "PASSÔ",
      "lon": "-7.723686637792182",
      "lat": "41.01692179889533"
    },
    {
      "id": "pt.ine.add.PTCONT.5635298",
      "street": "BR ALTO",
      "house": "",
      "postcode": "3620-422",
      "city": "PASSÔ",
      "lon": "-7.72315534558836",
      "lat": "41.01632560839579"
    },
    {
      "id": "pt.ine.add.PTCONT.5642328",
      "street": "R DIREITA",
      "house": "45",
      "postcode": "3620-422",
      "city": "PASSÔ",
      "lon": "-7.722942306366428",
      "lat": "41.01617177267141"
    },
    {
      "id": "pt.ine.add.PTCONT.5655305",
      "street": "R DIREITA",
      "house": "",
      "postcode": "3620-422",
      "city": "PASSÔ",
      "lon": "-7.722929747875555",
      "lat": "41.01627978291682"
    },
    {
      "id": "pt.ine.add.PTCONT.5667369",
      "street": "R EIRA",
      "house": "3",
      "postcode": "3620-422",
      "city": "PASSÔ",
      "lon": "-7.723366042368881",
      "lat": "41.0168576276438"
    }
  ]
}