{
  "data": {
    "distrito": "Coimbra",
    "concelho": "Arganil",
    "freguesia": "União das freguesias de Côja e Barril de Alva",
    "OBJECTID": 353,
    "BGRI2021": "06012100118",
    "DT21": "06",
    "DTMN21": "0601",
    "DTMNFR21": "060121",
    "DTMNFRSEC21": "060121001",
    "SECNUM21": "001",
    "SSNUM21": "18",
    "SECSSNUM21": "00118",
    "OBJECTID_1": 47224,
    "DT": "06",
    "CC": "01",
    "fr": "21",
    "SEC": "001",
    "SS": "18"
  },
  "addresses": [
    {
      "id": "pt.ine.add.PTCONT.1109922",
      "street": "BR LADEIRAS",
      "house": "",
      "postcode": "3305-104",
      "city": "COJA",
      "lon": "-7.987589991716108",
      "lat": "40.27161235273274"
    },
    {
      "id": "pt.ine.add.PTCONT.1112434",
      "street": "EN 342",
      "house": "",
      "postcode": "3305-104",
      "city": "COJA",
      "lon": "-7.986788372491895",
      "lat": "40.27260197654458"
    },
    {
      "id": "pt.ine.add.PTCONT.1118474",
      "street": "R PROF JOSE EDUARDO FERRÃO",
      "house": "",
      "postcode": "3305-152",
      "city": "COJA",
      "lon": "-7.990337219334375",
      "lat": "40.273488974879676"
    },
    {
      "id": "pt.ine.add.PTCONT.1120479",
      "street": "R RAMBOIAS",
      "house": "",
      "postcode": "3305-104",
      "city": "COJA",
      "lon": "-7.988210197718863",
      "lat": "40.27298200796485"
    },
    {
      "id": "pt.ine.add.PTCONT.1122266",
      "street": "BR LADEIRAS",
      "house": "",
      "postcode": "3305-104",
      "city": "COJA",
      "lon": "-7.988210197718863",
      "lat": "40.27298200796485"
    },
    {
      "id": "pt.ine.add.PTCONT.1126448",
      "street": "BR PADRE CALINAS",
      "house": "",
      "postcode": "3305-112",
      "city": "COJA",
      "lon": "-7.988307809993752",
      "lat": "40.2713160627612"
    },
    {
      "id": "pt.ine.add.PTCONT.1126746",
      "street": "",
      "house": "",
      "postcode": "3305-099",
      "city": "COJA",
      "lon": "-7.988550089126537",
      "lat": "40.27900728899393"
    },
    {
      "id": "pt.ine.add.PTCONT.1133140",
      "street": "BR LADEIRAS",
      "house": "",
      "postcode": "3305-104",
      "city": "COJA",
      "lon": "-7.988141211180622",
      "lat": "40.27225245427496"
    },
    {
      "id": "pt.ine.add.PTCONT.1135194",
      "street": "BR LADEIRAS",
      "house": "",
      "postcode": "3305-104",
      "city": "COJA",
      "lon": "-7.987507556671405",
      "lat": "40.27167528943046"
    },
    {
      "id": "pt.ine.add.PTCONT.1147128",
      "street": "R RAMBOIAS",
      "house": "",
      "postcode": "3305-104",
      "city": "COJA",
      "lon": "-7.9886942800432905",
      "lat": "40.27202800158776"
    },
    {
      "id": "pt.ine.add.PTCONT.1152654",
      "street": "",
      "house": "",
      "postcode": "3305-099",
      "city": "COJA",
      "lon": "-7.987796433105141",
      "lat": "40.279528678991305"
    },
    {
      "id": "pt.ine.add.PTCONT.1159328",
      "street": "BR SOCIAL",
      "house": "21",
      "postcode": "3305-113",
      "city": "COJA",
      "lon": "-7.989644995266858",
      "lat": "40.27279467457686"
    },
    {
      "id": "pt.ine.add.PTCONT.1167026",
      "street": "",
      "house": "",
      "postcode": "3305-097",
      "city": "COJA",
      "lon": "-7.989061930771251",
      "lat": "40.276072049114354"
    },
    {
      "id": "pt.ine.add.PTCONT.1174840",
      "street": "BR LADEIRAS",
      "house": "",
      "postcode": "3305-104",
      "city": "COJA",
      "lon": "-7.987467243021482",
      "lat": "40.274025744286696"
    },
    {
      "id": "pt.ine.add.PTCONT.1181236",
      "street": "BR LADEIRAS",
      "house": "",
      "postcode": "3305-104",
      "city": "COJA",
      "lon": "-7.987942146965756",
      "lat": "40.27187396238706"
    },
    {
      "id": "pt.ine.add.PTCONT.1187569",
      "street": "QTA VALE FONTE",
      "house": "",
      "postcode": "3305-113",
      "city": "COJA",
      "lon": "-7.987259567449372",
      "lat": "40.27765480555001"
    },
    {
      "id": "pt.ine.add.PTCONT.1191452",
      "street": "",
      "house": "",
      "postcode": "3305-104",
      "city": "COJA",
      "lon": "-7.987478285768943",
      "lat": "40.27435897154331"
    },
    {
      "id": "pt.ine.add.PTCONT.1193123",
      "street": "BR ATALHOS",
      "house": "",
      "postcode": "3305-113",
      "city": "COJA",
      "lon": "-7.990501388513201",
      "lat": "40.27369630997251"
    },
    {
      "id": "pt.ine.add.PTCONT.1199316",
      "street": "",
      "house": "",
      "postcode": "3305-097",
      "city": "COJA",
      "lon": "-7.98814062229004",
      "lat": "40.27803415467028"
    },
    {
      "id": "pt.ine.add.PTCONT.1208894",
      "street": "R PADRE CALINAS",
      "house": "",
      "postcode": "3305-112",
      "city": "COJA",
      "lon": "-7.988742132252104",
      "lat": "40.27164081317881"
    },
    {
      "id": "pt.ine.add.PTCONT.1218256",
      "street": "",
      "house": "",
      "postcode": "3305-113",
      "city": "COJA",
      "lon": "-7.98869379579735",
      "lat": "40.27778268508212"
    },
    {
      "id": "pt.ine.add.PTCONT.1223231",
      "street": "",
      "house": "",
      "postcode": "3305-113",
      "city": "COJA",
      "lon": "-7.986836506274412",
      "lat": "40.277546202398135"
    },
    {
      "id": "pt.ine.add.PTCONT.1225041",
      "street": "QTA VALE DA FONTE",
      "house": "",
      "postcode": "3305-113",
      "city": "COJA",
      "lon": "-7.988316957386519",
      "lat": "40.27805238697546"
    },
    {
      "id": "pt.ine.add.PTCONT.1241546",
      "street": "BR SOCIAL",
      "house": "18",
      "postcode": "3305-113",
      "city": "COJA",
      "lon": "-7.989481250021697",
      "lat": "40.272389211842025"
    },
    {
      "id": "pt.ine.add.PTCONT.1274655",
      "street": "",
      "house": "",
      "postcode": "3305-099",
      "city": "COJA",
      "lon": "-7.987232799642324",
      "lat": "40.279167739461606"
    },
    {
      "id": "pt.ine.add.PTCONT.1278465",
      "street": "BR LADEIRAS",
      "house": "",
      "postcode": "3305-104",
      "city": "COJA",
      "lon": "-7.987754707104943",
      "lat": "40.271558525129585"
    },
    {
      "id": "pt.ine.add.PTCONT.1304861",
      "street": "",
      "house": "",
      "postcode": "3305-104",
      "city": "COJA",
      "lon": "-7.987660611618658",
      "lat": "40.271576418436965"
    },
    {
      "id": "pt.ine.add.PTCONT.1309212",
      "street": "BR LADEIRAS",
      "house": "",
      "postcode": "3305-104",
      "city": "COJA",
      "lon": "-7.988318337913825",
      "lat": "40.2718924452492"
    },
    {
      "id": "pt.ine.add.PTCONT.1309211",
      "street": "R RAMBOIAS",
      "house": "",
      "postcode": "3305-104",
      "city": "COJA",
      "lon": "-7.987881627383973",
      "lat": "40.27268440570022"
    },
    {
      "id": "pt.ine.add.PTCONT.1323186",
      "street": "BR SOCIAL",
      "house": "",
      "postcode": "3305-113",
      "city": "COJA",
      "lon": "-7.990090407781406",
      "lat": "40.27344364125708"
    },
    {
      "id": "pt.ine.add.PTCONT.1324938",
      "street": "BR SOCIAL",
      "house": "",
      "postcode": "3305-113",
      "city": "COJA",
      "lon": "-7.990431146434714",
      "lat": "40.273552131104346"
    },
    {
      "id": "pt.ine.add.PTCONT.1341495",
      "street": "BR PADRE CALINAS",
      "house": "",
      "postcode": "3305-112",
      "city": "COJA",
      "lon": "-7.988190162395404",
      "lat": "40.27135193856794"
    },
    {
      "id": "pt.ine.add.PTCONT.1345469",
      "street": "BR LADEIRAS",
      "house": "",
      "postcode": "3305-104",
      "city": "COJA",
      "lon": "-7.987719146491528",
      "lat": "40.2716935670126"
    },
    {
      "id": "pt.ine.add.PTCONT.1347791",
      "street": "BR SOCIAL",
      "house": "20",
      "postcode": "3305-113",
      "city": "COJA",
      "lon": "-7.989527650541769",
      "lat": "40.27268645980772"
    },
    {
      "id": "pt.ine.add.PTCONT.1350149",
      "street": "",
      "house": "",
      "postcode": "3305-104",
      "city": "COJA",
      "lon": "-7.988976242407084",
      "lat": "40.2721274166033"
    },
    {
      "id": "pt.ine.add.PTCONT.1351946",
      "street": "BR SOCIAL",
      "house": "19",
      "postcode": "3305-113",
      "city": "COJA",
      "lon": "-7.989480945191179",
      "lat": "40.27253330377212"
    },
    {
      "id": "pt.ine.add.PTCONT.1353774",
      "street": "BR PADRE CALINAS",
      "house": "",
      "postcode": "3305-112",
      "city": "COJA",
      "lon": "-7.988613033849074",
      "lat": "40.2715325827979"
    },
    {
      "id": "pt.ine.add.PTCONT.1353775",
      "street": "BR SOCIAL",
      "house": "23",
      "postcode": "3305-113",
      "city": "COJA",
      "lon": "-7.989785664940626",
      "lat": "40.2729929758027"
    },
    {
      "id": "pt.ine.add.PTCONT.1356302",
      "street": "BR PADRE CALINAS",
      "house": "",
      "postcode": "3305-112",
      "city": "COJA",
      "lon": "-7.988847678503364",
      "lat": "40.27176702559497"
    },
    {
      "id": "pt.ine.add.PTCONT.1360314",
      "street": "BR PADRE CALINAS",
      "house": "",
      "postcode": "3305-112",
      "city": "COJA",
      "lon": "-7.988507430856749",
      "lat": "40.2714333874046"
    },
    {
      "id": "pt.ine.add.PTCONT.1363214",
      "street": "",
      "house": "",
      "postcode": "3305-113",
      "city": "COJA",
      "lon": "-7.986989284670714",
      "lat": "40.27758241846914"
    },
    {
      "id": "pt.ine.add.PTCONT.1364924",
      "street": "BR SOCIAL",
      "house": "22",
      "postcode": "3305-113",
      "city": "COJA",
      "lon": "-7.989715310980041",
      "lat": "40.27290283095688"
    },
    {
      "id": "pt.ine.add.PTCONT.1367400",
      "street": "R RAMBOIAS",
      "house": "",
      "postcode": "3305-104",
      "city": "COJA",
      "lon": "-7.988459500711495",
      "lat": "40.27185659871315"
    }
  ]
}