{
  "data": {
    "distrito": "Leiria",
    "concelho": "Nazar√©",
    "freguesia": "Valado dos Frades",
    "OBJECTID": 124,
    "BGRI2021": "10110300312",
    "DT21": "10",
    "DTMN21": "1011",
    "DTMNFR21": "101103",
    "DTMNFRSEC21": "101103003",
    "SECNUM21": "003",
    "SSNUM21": "12",
    "SECSSNUM21": "00312",
    "OBJECTID_1": 93036,
    "DT": "10",
    "CC": "11",
    "fr": "03",
    "SEC": "003",
    "SS": "12"
  },
  "addresses": [
    {
      "id": "pt.ine.add.PTCONT.1998334",
      "street": "R PROF XAVIER COELHO",
      "house": "",
      "postcode": "2450-388",
      "city": "VALADO DOS FRADES",
      "lon": "-9.022643629788107",
      "lat": "39.58434196033372"
    },
    {
      "id": "pt.ine.add.PTCONT.2011965",
      "street": "PC 25 DE ABRIL",
      "house": "10",
      "postcode": "2450-340",
      "city": "VALADO DOS FRADES",
      "lon": "-9.022495088970249",
      "lat": "39.58455925674164"
    },
    {
      "id": "pt.ine.add.PTCONT.2050358",
      "street": "R JACINTO BENTO PAIVA",
      "house": "18",
      "postcode": "2450-373",
      "city": "VALADO DOS FRADES",
      "lon": "-9.02259015687279",
      "lat": "39.58471164189635"
    },
    {
      "id": "pt.ine.add.PTCONT.2050359",
      "street": "R PROF XAVIER COELHO",
      "house": "15",
      "postcode": "2450-388",
      "city": "VALADO DOS FRADES",
      "lon": "-9.0224457707276",
      "lat": "39.58434347487634"
    },
    {
      "id": "pt.ine.add.PTCONT.2066362",
      "street": "R LAGAR",
      "house": "2",
      "postcode": "2450-409",
      "city": "VALADO DOS FRADES",
      "lon": "-9.022390800203056",
      "lat": "39.58459608150327"
    },
    {
      "id": "pt.ine.add.PTCONT.2085031",
      "street": "R JACINTO BENTO PAIVA",
      "house": "20",
      "postcode": "2450-373",
      "city": "VALADO DOS FRADES",
      "lon": "-9.022554319256377",
      "lat": "39.58463986311704"
    },
    {
      "id": "pt.ine.add.PTCONT.2085740",
      "street": "R PROF XAVIER COELHO",
      "house": "41",
      "postcode": "2450-388",
      "city": "VALADO DOS FRADES",
      "lon": "-9.022052238980052",
      "lat": "39.584517612378924"
    },
    {
      "id": "pt.ine.add.PTCONT.2094192",
      "street": "R ESTREITA",
      "house": "1",
      "postcode": "2450-369",
      "city": "VALADO DOS FRADES",
      "lon": "-9.022053504809687",
      "lat": "39.584616675729556"
    },
    {
      "id": "pt.ine.add.PTCONT.2098650",
      "street": "R PROF XAVIER COELHO",
      "house": "150",
      "postcode": "2450-388",
      "city": "VALADO DOS FRADES",
      "lon": "-9.022165864818364",
      "lat": "39.584300583684474"
    },
    {
      "id": "pt.ine.add.PTCONT.2099917",
      "street": "R PROF XAVIER COELHO",
      "house": "150",
      "postcode": "2450-388",
      "city": "VALADO DOS FRADES",
      "lon": "-9.022165864818364",
      "lat": "39.584300583684474"
    },
    {
      "id": "pt.ine.add.PTCONT.2102948",
      "street": "R LAGAR",
      "house": "10-12",
      "postcode": "2450-409",
      "city": "VALADO DOS FRADES",
      "lon": "-9.022250098556926",
      "lat": "39.584516098500835"
    },
    {
      "id": "pt.ine.add.PTCONT.2106054",
      "street": "R PROF XAVIER COELHO",
      "house": "164",
      "postcode": "2450-388",
      "city": "VALADO DOS FRADES",
      "lon": "-9.022386080355952",
      "lat": "39.58422684540197"
    },
    {
      "id": "pt.ine.add.PTCONT.2106055",
      "street": "R PROF XAVIER COELHO",
      "house": "158",
      "postcode": "2450-388",
      "city": "VALADO DOS FRADES",
      "lon": "-9.022270153268359",
      "lat": "39.58426375912654"
    },
    {
      "id": "pt.ine.add.PTCONT.2106056",
      "street": "R PROF XAVIER COELHO",
      "house": "19",
      "postcode": "2450-388",
      "city": "VALADO DOS FRADES",
      "lon": "-9.022364644690098",
      "lat": "39.584371115689756"
    },
    {
      "id": "pt.ine.add.PTCONT.2138314",
      "street": "R PROF XAVIER COELHO",
      "house": "13",
      "postcode": "2450-388",
      "city": "VALADO DOS FRADES",
      "lon": "-9.022503273774031",
      "lat": "39.58428899490697"
    },
    {
      "id": "pt.ine.add.PTCONT.2167495",
      "street": "PC 25 DE ABRIL",
      "house": "12",
      "postcode": "2450-340",
      "city": "VALADO DOS FRADES",
      "lon": "-9.022587508538612",
      "lat": "39.58450450946758"
    },
    {
      "id": "pt.ine.add.PTCONT.2187419",
      "street": "R PROF XAVIER COELHO",
      "house": "39",
      "postcode": "2450-388",
      "city": "VALADO DOS FRADES",
      "lon": "-9.022226130374973",
      "lat": "39.58446224206856"
    },
    {
      "id": "pt.ine.add.PTCONT.2189267",
      "street": "R LAGAR",
      "house": "4",
      "postcode": "2450-409",
      "city": "VALADO DOS FRADES",
      "lon": "-9.022309213415124",
      "lat": "39.58458769924684"
    },
    {
      "id": "pt.ine.add.PTCONT.2204846",
      "street": "R PROF XAVIER COELHO",
      "house": "1-3",
      "postcode": "2450-388",
      "city": "VALADO DOS FRADES",
      "lon": "-9.022516639550611",
      "lat": "39.584423992195035"
    },
    {
      "id": "pt.ine.add.PTCONT.2206855",
      "street": "R PROF XAVIER COELHO",
      "house": "37",
      "postcode": "2450-388",
      "city": "VALADO DOS FRADES",
      "lon": "-9.022307026359407",
      "lat": "39.584416589833005"
    },
    {
      "id": "pt.ine.add.PTCONT.2224757",
      "street": "R JACINTO BENTO PAIVA",
      "house": "22",
      "postcode": "2450-373",
      "city": "VALADO DOS FRADES",
      "lon": "-9.022611822457431",
      "lat": "39.58458538309493"
    },
    {
      "id": "pt.ine.add.PTCONT.2226815",
      "street": "R JACINTO BENTO PAIVA",
      "house": "16",
      "postcode": "2450-373",
      "city": "VALADO DOS FRADES",
      "lon": "-9.022567800355036",
      "lat": "39.58478386614684"
    },
    {
      "id": "pt.ine.add.PTCONT.2230950",
      "street": "R PROF XAVIER COELHO",
      "house": "",
      "postcode": "2450-388",
      "city": "VALADO DOS FRADES",
      "lon": "-9.02257276090492",
      "lat": "39.58426144309205"
    },
    {
      "id": "pt.ine.add.PTCONT.2233324",
      "street": "R PROF XAVIER COELHO",
      "house": "144",
      "postcode": "2450-388",
      "city": "VALADO DOS FRADES",
      "lon": "-9.022038643936687",
      "lat": "39.58436460351071"
    },
    {
      "id": "pt.ine.add.PTCONT.2250469",
      "street": "R PROF XAVIER COELHO",
      "house": "",
      "postcode": "2450-388",
      "city": "VALADO DOS FRADES",
      "lon": "-9.022548562289668",
      "lat": "39.584189575208796"
    },
    {
      "id": "pt.ine.add.PTCONT.2258545",
      "street": "R PROF XAVIER COELHO",
      "house": "138",
      "postcode": "2450-388",
      "city": "VALADO DOS FRADES",
      "lon": "-9.02195809302007",
      "lat": "39.584437272839935"
    }
  ]
}