{
  "data": {
    "distrito": "Santarém",
    "concelho": "Abrantes",
    "freguesia": "União das freguesias de São Miguel do Rio Torto e Rossio ao Sul do Tejo",
    "OBJECTID": 341,
    "BGRI2021": "14012400404",
    "DT21": "14",
    "DTMN21": "1401",
    "DTMNFR21": "140124",
    "DTMNFRSEC21": "140124004",
    "SECNUM21": "004",
    "SSNUM21": "04",
    "SECSSNUM21": "00404",
    "OBJECTID_1": 146630,
    "DT": "14",
    "CC": "01",
    "fr": "24",
    "SEC": "004",
    "SS": "04"
  },
  "addresses": [
    {
      "id": "pt.ine.add.PTCONT.4397982",
      "street": "BC LAGAR",
      "house": "",
      "postcode": "2205-459",
      "city": "SÃO MIGUEL DO RIO TORTO",
      "lon": "-8.171057330503334",
      "lat": "39.4170404314463"
    },
    {
      "id": "pt.ine.add.PTCONT.4401962",
      "street": "R CIRCUNVALAÇÃO DO PARQUE DESPORTIVO",
      "house": "",
      "postcode": "2205-460",
      "city": "SÃO MIGUEL DO RIO TORTO",
      "lon": "-8.169988828232238",
      "lat": "39.4167165192773"
    },
    {
      "id": "pt.ine.add.PTCONT.4403920",
      "street": "R PRINCIPAL",
      "house": "74",
      "postcode": "2205-465",
      "city": "SÃO MIGUEL DO RIO TORTO",
      "lon": "-8.171568370594589",
      "lat": "39.417220405729864"
    },
    {
      "id": "pt.ine.add.PTCONT.4406231",
      "street": "R PRINCIPAL",
      "house": "108",
      "postcode": "2205-465",
      "city": "SÃO MIGUEL DO RIO TORTO",
      "lon": "-8.171823901589885",
      "lat": "39.4173284062343"
    },
    {
      "id": "pt.ine.add.PTCONT.4409449",
      "street": "R PRINCIPAL",
      "house": "60",
      "postcode": "2205-465",
      "city": "SÃO MIGUEL DO RIO TORTO",
      "lon": "-8.170743682222554",
      "lat": "39.41682436279739"
    },
    {
      "id": "pt.ine.add.PTCONT.4417070",
      "street": "BC LAGAR",
      "house": "10",
      "postcode": "2205-459",
      "city": "SÃO MIGUEL DO RIO TORTO",
      "lon": "-8.17109225538321",
      "lat": "39.41720254794792"
    },
    {
      "id": "pt.ine.add.PTCONT.4417071",
      "street": "R PRINCIPAL",
      "house": "64",
      "postcode": "2205-465",
      "city": "SÃO MIGUEL DO RIO TORTO",
      "lon": "-8.17105728655078",
      "lat": "39.41695936750919"
    },
    {
      "id": "pt.ine.add.PTCONT.4420553",
      "street": "BC LAGAR",
      "house": "8",
      "postcode": "2205-459",
      "city": "SÃO MIGUEL DO RIO TORTO",
      "lon": "-8.171034169356114",
      "lat": "39.41715753137166"
    },
    {
      "id": "pt.ine.add.PTCONT.4423872",
      "street": "R PRINCIPAL",
      "house": "62",
      "postcode": "2205-465",
      "city": "SÃO MIGUEL DO RIO TORTO",
      "lon": "-8.170836609449957",
      "lat": "39.416878375333226"
    },
    {
      "id": "pt.ine.add.PTCONT.4424034",
      "street": "R CIRCUNVALAÇÃO DO PARQUE DESPORTIVO",
      "house": "24",
      "postcode": "2205-460",
      "city": "SÃO MIGUEL DO RIO TORTO",
      "lon": "-8.16979148616917",
      "lat": "39.416842681156524"
    },
    {
      "id": "pt.ine.add.PTCONT.4432059",
      "street": "R PRINCIPAL",
      "house": "66",
      "postcode": "2205-465",
      "city": "SÃO MIGUEL DO RIO TORTO",
      "lon": "-8.171126979827449",
      "lat": "39.41699537317704"
    },
    {
      "id": "pt.ine.add.PTCONT.4432146",
      "street": "TV CATROGAS",
      "house": "",
      "postcode": "2205-467",
      "city": "SÃO MIGUEL DO RIO TORTO",
      "lon": "-8.170441960389816",
      "lat": "39.41719375135024"
    },
    {
      "id": "pt.ine.add.PTCONT.4440968",
      "street": "BC VICENTE COSTA",
      "house": "7",
      "postcode": "2205-459",
      "city": "SÃO MIGUEL DO RIO TORTO",
      "lon": "-8.171765949309597",
      "lat": "39.417526581817015"
    },
    {
      "id": "pt.ine.add.PTCONT.4443121",
      "street": "R PRINCIPAL",
      "house": "54",
      "postcode": "2205-465",
      "city": "SÃO MIGUEL DO RIO TORTO",
      "lon": "-8.17045326513642",
      "lat": "39.41661729294566"
    },
    {
      "id": "pt.ine.add.PTCONT.4459351",
      "street": "R PRINCIPAL",
      "house": "52",
      "postcode": "2205-465",
      "city": "SÃO MIGUEL DO RIO TORTO",
      "lon": "-8.17038357258263",
      "lat": "39.41658128687154"
    },
    {
      "id": "pt.ine.add.PTCONT.4461841",
      "street": "BC VICENTE COSTA",
      "house": "5",
      "postcode": "2205-459",
      "city": "SÃO MIGUEL DO RIO TORTO",
      "lon": "-8.171673035393399",
      "lat": "39.417499591340274"
    },
    {
      "id": "pt.ine.add.PTCONT.4469965",
      "street": "BC VICENTE COSTA",
      "house": "9",
      "postcode": "2205-459",
      "city": "SÃO MIGUEL DO RIO TORTO",
      "lon": "-8.171835643515525",
      "lat": "39.41756258705634"
    },
    {
      "id": "pt.ine.add.PTCONT.4470008",
      "street": "BC LAGAR",
      "house": "22",
      "postcode": "2205-459",
      "city": "SÃO MIGUEL DO RIO TORTO",
      "lon": "-8.171185070679606",
      "lat": "39.417049396812274"
    },
    {
      "id": "pt.ine.add.PTCONT.4471589",
      "street": "BC COSTA",
      "house": "",
      "postcode": "2205-459",
      "city": "SÃO MIGUEL DO RIO TORTO",
      "lon": "-8.171359427457398",
      "lat": "39.41736458830269"
    },
    {
      "id": "pt.ine.add.PTCONT.4477428",
      "street": "R PRINCIPAL",
      "house": "",
      "postcode": "2205-465",
      "city": "SÃO MIGUEL DO RIO TORTO",
      "lon": "-8.171928427686845",
      "lat": "39.41735539271703"
    },
    {
      "id": "pt.ine.add.PTCONT.4477824",
      "street": "R CIRCUNVALAÇÃO DO PARQUE DESPORTIVO",
      "house": "36",
      "postcode": "2205-460",
      "city": "SÃO MIGUEL DO RIO TORTO",
      "lon": "-8.170279057803288",
      "lat": "39.416572313206075"
    },
    {
      "id": "pt.ine.add.PTCONT.4480496",
      "street": "TV CATROGAS",
      "house": "",
      "postcode": "2205-467",
      "city": "SÃO MIGUEL DO RIO TORTO",
      "lon": "-8.170198106371686",
      "lat": "39.417202836456795"
    },
    {
      "id": "pt.ine.add.PTCONT.4486540",
      "street": "R CIRCUNVALAÇÃO DO PARQUE DESPORTIVO",
      "house": "20",
      "postcode": "2205-460",
      "city": "SÃO MIGUEL DO RIO TORTO",
      "lon": "-8.169466436319974",
      "lat": "39.41702292531554"
    },
    {
      "id": "pt.ine.add.PTCONT.4488323",
      "street": "BC LAGAR",
      "house": "13",
      "postcode": "2205-459",
      "city": "SÃO MIGUEL DO RIO TORTO",
      "lon": "-8.171301287058293",
      "lat": "39.417220493720755"
    },
    {
      "id": "pt.ine.add.PTCONT.4490562",
      "street": "BC LAGAR",
      "house": "6",
      "postcode": "2205-459",
      "city": "SÃO MIGUEL DO RIO TORTO",
      "lon": "-8.170871640651772",
      "lat": "39.41723864819232"
    },
    {
      "id": "pt.ine.add.PTCONT.4499717",
      "street": "TV CATROGAS",
      "house": "3",
      "postcode": "2205-467",
      "city": "SÃO MIGUEL DO RIO TORTO",
      "lon": "-8.170349009085358",
      "lat": "39.41709470298208"
    },
    {
      "id": "pt.ine.add.PTCONT.4503451",
      "street": "R PRINCIPAL",
      "house": "",
      "postcode": "2205-465",
      "city": "SÃO MIGUEL DO RIO TORTO",
      "lon": "-8.17196329473843",
      "lat": "39.417409423707504"
    },
    {
      "id": "pt.ine.add.PTCONT.4503452",
      "street": "R PRINCIPAL",
      "house": "",
      "postcode": "2205-465",
      "city": "SÃO MIGUEL DO RIO TORTO",
      "lon": "-8.17151038308589",
      "lat": "39.417355531464935"
    },
    {
      "id": "pt.ine.add.PTCONT.4507673",
      "street": "BC LAGAR",
      "house": "11",
      "postcode": "2205-459",
      "city": "SÃO MIGUEL DO RIO TORTO",
      "lon": "-8.171254813202165",
      "lat": "39.417175473441944"
    },
    {
      "id": "pt.ine.add.PTCONT.4512611",
      "street": "TV CATROGAS",
      "house": "1",
      "postcode": "2205-467",
      "city": "SÃO MIGUEL DO RIO TORTO",
      "lon": "-8.17019789635817",
      "lat": "39.4168065238717"
    },
    {
      "id": "pt.ine.add.PTCONT.4522111",
      "street": "R PRINCIPAL",
      "house": "70",
      "postcode": "2205-465",
      "city": "SÃO MIGUEL DO RIO TORTO",
      "lon": "-8.171394141336759",
      "lat": "39.41713939925049"
    },
    {
      "id": "pt.ine.add.PTCONT.4523987",
      "street": "BC LAGAR",
      "house": "15",
      "postcode": "2205-459",
      "city": "SÃO MIGUEL DO RIO TORTO",
      "lon": "-8.171394210314812",
      "lat": "39.417265498703344"
    },
    {
      "id": "pt.ine.add.PTCONT.4541795",
      "street": "R PRINCIPAL",
      "house": "76",
      "postcode": "2205-465",
      "city": "SÃO MIGUEL DO RIO TORTO",
      "lon": "-8.171672896431883",
      "lat": "39.41724739244282"
    },
    {
      "id": "pt.ine.add.PTCONT.4548542",
      "street": "R PRINCIPAL",
      "house": "56",
      "postcode": "2205-465",
      "city": "SÃO MIGUEL DO RIO TORTO",
      "lon": "-8.170511355154806",
      "lat": "39.416671316921246"
    },
    {
      "id": "pt.ine.add.PTCONT.4550145",
      "street": "R CIRCUNVALAÇÃO DO PARQUE DESPORTIVO",
      "house": "26",
      "postcode": "2205-460",
      "city": "SÃO MIGUEL DO RIO TORTO",
      "lon": "-8.16989596341701",
      "lat": "39.416779598423176"
    },
    {
      "id": "pt.ine.add.PTCONT.4561214",
      "street": "R TEN SENICA",
      "house": "181",
      "postcode": "2205-472",
      "city": "SÃO MIGUEL DO RIO TORTO",
      "lon": "-8.171487326312912",
      "lat": "39.417661780640955"
    },
    {
      "id": "pt.ine.add.PTCONT.4561215",
      "street": "BC COSTA",
      "house": "",
      "postcode": "2205-459",
      "city": "SÃO MIGUEL DO RIO TORTO",
      "lon": "-8.171440689253394",
      "lat": "39.4173195260293"
    },
    {
      "id": "pt.ine.add.PTCONT.4575605",
      "street": "BC COSTA",
      "house": "",
      "postcode": "2205-459",
      "city": "SÃO MIGUEL DO RIO TORTO",
      "lon": "-8.171429131156097",
      "lat": "39.417418607993646"
    },
    {
      "id": "pt.ine.add.PTCONT.4582357",
      "street": "R TEN SENICA",
      "house": "23",
      "postcode": "2205-472",
      "city": "SÃO MIGUEL DO RIO TORTO",
      "lon": "-8.171928507619668",
      "lat": "39.41749950637096"
    },
    {
      "id": "pt.ine.add.PTCONT.4582358",
      "street": "BC VICENTE COSTA",
      "house": "17",
      "postcode": "2205-459",
      "city": "SÃO MIGUEL DO RIO TORTO",
      "lon": "-8.171289974461775",
      "lat": "39.417769930835796"
    },
    {
      "id": "pt.ine.add.PTCONT.4582359",
      "street": "TV CATROGAS",
      "house": "",
      "postcode": "2205-467",
      "city": "SÃO MIGUEL DO RIO TORTO",
      "lon": "-8.170441845083362",
      "lat": "39.4169775808529"
    },
    {
      "id": "pt.ine.add.PTCONT.4586169",
      "street": "BC VICENTE COSTA",
      "house": "UZ",
      "postcode": "2205-459",
      "city": "SÃO MIGUEL DO RIO TORTO",
      "lon": "-8.171498864605544",
      "lat": "39.41752667026209"
    },
    {
      "id": "pt.ine.add.PTCONT.4590426",
      "street": "R PRINCIPAL",
      "house": "S8",
      "postcode": "2205-465",
      "city": "SÃO MIGUEL DO RIO TORTO",
      "lon": "-8.170581057508507",
      "lat": "39.416725337127424"
    },
    {
      "id": "pt.ine.add.PTCONT.4592571",
      "street": "TV CATROGAS",
      "house": "",
      "postcode": "2205-467",
      "city": "SÃO MIGUEL DO RIO TORTO",
      "lon": "-8.170801840547144",
      "lat": "39.417004486085254"
    },
    {
      "id": "pt.ine.add.PTCONT.4592572",
      "street": "R PRINCIPAL",
      "house": "50",
      "postcode": "2205-465",
      "city": "SÃO MIGUEL DO RIO TORTO",
      "lon": "-8.170337104532114",
      "lat": "39.41654527332557"
    },
    {
      "id": "pt.ine.add.PTCONT.4597785",
      "street": "R PRINCIPAL",
      "house": "32",
      "postcode": "2205-465",
      "city": "SÃO MIGUEL DO RIO TORTO",
      "lon": "-8.170174590750186",
      "lat": "39.41665341049496"
    },
    {
      "id": "pt.ine.add.PTCONT.4598725",
      "street": "BC VICENTE COSTA",
      "house": "",
      "postcode": "2205-459",
      "city": "SÃO MIGUEL DO RIO TORTO",
      "lon": "-8.171568494330879",
      "lat": "39.41744558331873"
    },
    {
      "id": "pt.ine.add.PTCONT.4600780",
      "street": "BC LAGAR",
      "house": "",
      "postcode": "2205-459",
      "city": "SÃO MIGUEL DO RIO TORTO",
      "lon": "-8.17099924950946",
      "lat": "39.417004421955426"
    },
    {
      "id": "pt.ine.add.PTCONT.4615303",
      "street": "BC LAGAR",
      "house": "4",
      "postcode": "2205-459",
      "city": "SÃO MIGUEL DO RIO TORTO",
      "lon": "-8.170976083403737",
      "lat": "39.41711251476602"
    },
    {
      "id": "pt.ine.add.PTCONT.4623718",
      "street": "TV CATROGAS",
      "house": "7",
      "postcode": "2205-467",
      "city": "SÃO MIGUEL DO RIO TORTO",
      "lon": "-8.170546456846324",
      "lat": "39.41716669645234"
    },
    {
      "id": "pt.ine.add.PTCONT.4631408",
      "street": "R CIRCUNVALAÇÃO DO PARQUE DESPORTIVO",
      "house": "30",
      "postcode": "2205-460",
      "city": "SÃO MIGUEL DO RIO TORTO",
      "lon": "-8.170116577206391",
      "lat": "39.41674350002662"
    },
    {
      "id": "pt.ine.add.PTCONT.4639335",
      "street": "TV CATROGAS",
      "house": "15",
      "postcode": "2205-467",
      "city": "SÃO MIGUEL DO RIO TORTO",
      "lon": "-8.170952756510482",
      "lat": "39.41692337313721"
    },
    {
      "id": "pt.ine.add.PTCONT.4639565",
      "street": "R CIRCUNVALAÇÃO DO PARQUE DESPORTIVO",
      "house": "34",
      "postcode": "2205-460",
      "city": "SÃO MIGUEL DO RIO TORTO",
      "lon": "-8.170221011029593",
      "lat": "39.416599353057514"
    },
    {
      "id": "pt.ine.add.PTCONT.4639692",
      "street": "TV CATROGAS",
      "house": "4",
      "postcode": "2205-467",
      "city": "SÃO MIGUEL DO RIO TORTO",
      "lon": "-8.170128394309344",
      "lat": "39.41713080181769"
    },
    {
      "id": "pt.ine.add.PTCONT.4646121",
      "street": "BC VALADOR",
      "house": "1",
      "postcode": "2205-459",
      "city": "SÃO MIGUEL DO RIO TORTO",
      "lon": "-8.171649766006007",
      "lat": "39.41741853510677"
    },
    {
      "id": "pt.ine.add.PTCONT.4646122",
      "street": "R PRINCIPAL",
      "house": "",
      "postcode": "2205-465",
      "city": "SÃO MIGUEL DO RIO TORTO",
      "lon": "-8.171510284246628",
      "lat": "39.41717538939162"
    },
    {
      "id": "pt.ine.add.PTCONT.4646123",
      "street": "BC LAGAR",
      "house": "14",
      "postcode": "2205-459",
      "city": "SÃO MIGUEL DO RIO TORTO",
      "lon": "-8.170964700065737",
      "lat": "39.417535852416016"
    },
    {
      "id": "pt.ine.add.PTCONT.4652550",
      "street": "BC VICENTE COSTA",
      "house": "19",
      "postcode": "2205-459",
      "city": "SÃO MIGUEL DO RIO TORTO",
      "lon": "-8.171011369087802",
      "lat": "39.41794115692582"
    }
  ]
}