{
  "data": {
    "distrito": "Santarém",
    "concelho": "Abrantes",
    "freguesia": "União das freguesias de São Miguel do Rio Torto e Rossio ao Sul do Tejo",
    "OBJECTID": 704,
    "BGRI2021": "14012400411",
    "DT21": "14",
    "DTMN21": "1401",
    "DTMNFR21": "140124",
    "DTMNFRSEC21": "140124004",
    "SECNUM21": "004",
    "SSNUM21": "11",
    "SECSSNUM21": "00411",
    "OBJECTID_1": 146931,
    "DT": "14",
    "CC": "01",
    "fr": "24",
    "SEC": "004",
    "SS": "11"
  },
  "addresses": [
    {
      "id": "pt.ine.add.PTCONT.4391590",
      "street": "BC BERNARDINO CARAÇA",
      "house": "4",
      "postcode": "2205-468",
      "city": "SÃO MIGUEL DO RIO TORTO",
      "lon": "-8.172869483435278",
      "lat": "39.41815670718716"
    },
    {
      "id": "pt.ine.add.PTCONT.4395867",
      "street": "LG 25 DE ABRIL",
      "house": "131",
      "postcode": "2205-456",
      "city": "SÃO MIGUEL DO RIO TORTO",
      "lon": "-8.174681902834378",
      "lat": "39.419624231351804"
    },
    {
      "id": "pt.ine.add.PTCONT.4395868",
      "street": "LG 25 DE ABRIL",
      "house": "131",
      "postcode": "2205-456",
      "city": "SÃO MIGUEL DO RIO TORTO",
      "lon": "-8.174681902834378",
      "lat": "39.419624231351804"
    },
    {
      "id": "pt.ine.add.PTCONT.4398007",
      "street": "CANTO DOS CHATOS",
      "house": "8",
      "postcode": "2205-455",
      "city": "",
      "lon": "-8.171592085549605",
      "lat": "39.41811210124992"
    },
    {
      "id": "pt.ine.add.PTCONT.4403984",
      "street": "BR PINHAL",
      "house": "63",
      "postcode": "2205-453",
      "city": "SÃO MIGUEL DO RIO TORTO",
      "lon": "-8.17002498094928",
      "lat": "39.419211475685664"
    },
    {
      "id": "pt.ine.add.PTCONT.4406259",
      "street": "CANTO DOS CHATOS",
      "house": "6",
      "postcode": "2205-455",
      "city": "",
      "lon": "-8.171441281230523",
      "lat": "39.41840037835925"
    },
    {
      "id": "pt.ine.add.PTCONT.4410425",
      "street": "R TEN SENICA",
      "house": "192",
      "postcode": "2205-472",
      "city": "SÃO MIGUEL DO RIO TORTO",
      "lon": "-8.171696384290263",
      "lat": "39.417724761216654"
    },
    {
      "id": "pt.ine.add.PTCONT.4422615",
      "street": "BC CASTELOS",
      "house": "7",
      "postcode": "2205-454",
      "city": "SÃO MIGUEL DO RIO TORTO",
      "lon": "-8.172369878878715",
      "lat": "39.41767950034574"
    },
    {
      "id": "pt.ine.add.PTCONT.4426796",
      "street": "R TEN SENICA",
      "house": "28",
      "postcode": "2205-472",
      "city": "SÃO MIGUEL DO RIO TORTO",
      "lon": "-8.171858913166181",
      "lat": "39.417643643250486"
    },
    {
      "id": "pt.ine.add.PTCONT.4429498",
      "street": "TV MORGADOS",
      "house": "16",
      "postcode": "2205-472",
      "city": "SÃO MIGUEL DO RIO TORTO",
      "lon": "-8.17192866748704",
      "lat": "39.41778773366803"
    },
    {
      "id": "pt.ine.add.PTCONT.4432865",
      "street": "BC JOSE MARIA",
      "house": "12",
      "postcode": "2205-468",
      "city": "SÃO MIGUEL DO RIO TORTO",
      "lon": "-8.172869401563023",
      "lat": "39.418012593551204"
    },
    {
      "id": "pt.ine.add.PTCONT.4432868",
      "street": "BR PINHAL",
      "house": "",
      "postcode": "2205-453",
      "city": "SÃO MIGUEL DO RIO TORTO",
      "lon": "-8.16992028225704",
      "lat": "39.41886023186259"
    },
    {
      "id": "pt.ine.add.PTCONT.4449405",
      "street": "R PRINCIPAL",
      "house": "96",
      "postcode": "2205-465",
      "city": "SÃO MIGUEL DO RIO TORTO",
      "lon": "-8.172683418870772",
      "lat": "39.417688401211386"
    },
    {
      "id": "pt.ine.add.PTCONT.4451488",
      "street": "R TEN SENICA",
      "house": "30",
      "postcode": "2205-472",
      "city": "SÃO MIGUEL DO RIO TORTO",
      "lon": "-8.171928562573815",
      "lat": "39.417598584505946"
    },
    {
      "id": "pt.ine.add.PTCONT.4451489",
      "street": "R PRINCIPAL",
      "house": "100",
      "postcode": "2205-465",
      "city": "SÃO MIGUEL DO RIO TORTO",
      "lon": "-8.172857650986382",
      "lat": "39.417769405750775"
    },
    {
      "id": "pt.ine.add.PTCONT.4451490",
      "street": "R PRINCIPAL",
      "house": "100",
      "postcode": "2205-465",
      "city": "SÃO MIGUEL DO RIO TORTO",
      "lon": "-8.172857650986382",
      "lat": "39.417769405750775"
    },
    {
      "id": "pt.ine.add.PTCONT.4455373",
      "street": "R PRINCIPAL",
      "house": "116",
      "postcode": "2205-465",
      "city": "SÃO MIGUEL DO RIO TORTO",
      "lon": "-8.173438671560325",
      "lat": "39.41846275277822"
    },
    {
      "id": "pt.ine.add.PTCONT.4463948",
      "street": "R TEN SENICA",
      "house": "13",
      "postcode": "2205-472",
      "city": "SÃO MIGUEL DO RIO TORTO",
      "lon": "-8.171441049369017",
      "lat": "39.417977044554"
    },
    {
      "id": "pt.ine.add.PTCONT.4470055",
      "street": "CANTO DOS CHATOS",
      "house": "4",
      "postcode": "2205-455",
      "city": "",
      "lon": "-8.171394786791174",
      "lat": "39.41831932973788"
    },
    {
      "id": "pt.ine.add.PTCONT.4471553",
      "street": "BC BERNARDINO CARACA",
      "house": "3",
      "postcode": "2205-468",
      "city": "SÃO MIGUEL DO RIO TORTO",
      "lon": "-8.172753414730224",
      "lat": "39.418255824941724"
    },
    {
      "id": "pt.ine.add.PTCONT.4474265",
      "street": "R BEATRIZ SOARES MENDES",
      "house": "132",
      "postcode": "2205-466",
      "city": "SÃO MIGUEL DO RIO TORTO",
      "lon": "-8.174252247854824",
      "lat": "39.419651405408096"
    },
    {
      "id": "pt.ine.add.PTCONT.4477532",
      "street": "R PRINCIPAL",
      "house": "92",
      "postcode": "2205-465",
      "city": "SÃO MIGUEL DO RIO TORTO",
      "lon": "-8.172544034483577",
      "lat": "39.41762539881166"
    },
    {
      "id": "pt.ine.add.PTCONT.4480502",
      "street": "R PRINCIPAL",
      "house": "88",
      "postcode": "2205-465",
      "city": "SÃO MIGUEL DO RIO TORTO",
      "lon": "-8.172311736137596",
      "lat": "39.417535406277814"
    },
    {
      "id": "pt.ine.add.PTCONT.4480512",
      "street": "R BEATRIZ SOARES MENDES",
      "house": "91",
      "postcode": "2205-466",
      "city": "SÃO MIGUEL DO RIO TORTO",
      "lon": "-8.173915321109149",
      "lat": "39.41938131103022"
    },
    {
      "id": "pt.ine.add.PTCONT.4482645",
      "street": "BC BERNARDINO CARAÇA",
      "house": "6",
      "postcode": "2205-468",
      "city": "SÃO MIGUEL DO RIO TORTO",
      "lon": "-8.172950724667505",
      "lat": "39.41807561545623"
    },
    {
      "id": "pt.ine.add.PTCONT.4484959",
      "street": "R TEN SENICA",
      "house": "14",
      "postcode": "2205-472",
      "city": "SÃO MIGUEL DO RIO TORTO",
      "lon": "-8.171150806580012",
      "lat": "39.41810323928613"
    },
    {
      "id": "pt.ine.add.PTCONT.4484970",
      "street": "BR PINHAL",
      "house": "49",
      "postcode": "2205-453",
      "city": "SÃO MIGUEL DO RIO TORTO",
      "lon": "-8.169990090761551",
      "lat": "39.419112408626134"
    },
    {
      "id": "pt.ine.add.PTCONT.4486769",
      "street": "R TEN SENICA",
      "house": "17",
      "postcode": "2205-472",
      "city": "SÃO MIGUEL DO RIO TORTO",
      "lon": "-8.171533894598241",
      "lat": "39.41787793577694"
    },
    {
      "id": "pt.ine.add.PTCONT.4486770",
      "street": "TV MORGADOS",
      "house": "7",
      "postcode": "2205-472",
      "city": "SÃO MIGUEL DO RIO TORTO",
      "lon": "-8.171777745816291",
      "lat": "39.41785984076766"
    },
    {
      "id": "pt.ine.add.PTCONT.4495590",
      "street": "BR PINHAL",
      "house": "69",
      "postcode": "2205-453",
      "city": "SÃO MIGUEL DO RIO TORTO",
      "lon": "-8.170059847457672",
      "lat": "39.41926550722959"
    },
    {
      "id": "pt.ine.add.PTCONT.4501593",
      "street": "R PRINCIPAL",
      "house": "108",
      "postcode": "2205-465",
      "city": "SÃO MIGUEL DO RIO TORTO",
      "lon": "-8.17320624543571",
      "lat": "39.41815659159947"
    },
    {
      "id": "pt.ine.add.PTCONT.4502867",
      "street": "BC JOSE MARIA",
      "house": "2",
      "postcode": "2205-468",
      "city": "SÃO MIGUEL DO RIO TORTO",
      "lon": "-8.172370035512031",
      "lat": "39.41795872052989"
    },
    {
      "id": "pt.ine.add.PTCONT.4503567",
      "street": "BR PINHAL",
      "house": "75",
      "postcode": "2205-453",
      "city": "SÃO MIGUEL DO RIO TORTO",
      "lon": "-8.170025052216637",
      "lat": "39.41934658219603"
    },
    {
      "id": "pt.ine.add.PTCONT.4510657",
      "street": "R BEATRIZ SOARES MENDES",
      "house": "54",
      "postcode": "2205-466",
      "city": "SÃO MIGUEL DO RIO TORTO",
      "lon": "-8.173624868386154",
      "lat": "39.41914722789621"
    },
    {
      "id": "pt.ine.add.PTCONT.4511142",
      "street": "R PRINCIPAL",
      "house": "104",
      "postcode": "2205-465",
      "city": "SÃO MIGUEL DO RIO TORTO",
      "lon": "-8.173008679180796",
      "lat": "39.417886446406094"
    },
    {
      "id": "pt.ine.add.PTCONT.4518006",
      "street": "R TEN SENICA",
      "house": "26",
      "postcode": "2205-472",
      "city": "SÃO MIGUEL DO RIO TORTO",
      "lon": "-8.171789253712994",
      "lat": "39.41767068774706"
    },
    {
      "id": "pt.ine.add.PTCONT.4518009",
      "street": "BC CASTELOS",
      "house": "5",
      "postcode": "2205-454",
      "city": "SÃO MIGUEL DO RIO TORTO",
      "lon": "-8.172335077004847",
      "lat": "39.41774256181793"
    },
    {
      "id": "pt.ine.add.PTCONT.4519844",
      "street": "BC CASTELOS",
      "house": "J",
      "postcode": "2205-454",
      "city": "SÃO MIGUEL DO RIO TORTO",
      "lon": "-8.172056399113472",
      "lat": "39.41777868386975"
    },
    {
      "id": "pt.ine.add.PTCONT.4519845",
      "street": "BC CASTELOS",
      "house": "6",
      "postcode": "2205-454",
      "city": "SÃO MIGUEL DO RIO TORTO",
      "lon": "-8.172462823689798",
      "lat": "39.41776053288186"
    },
    {
      "id": "pt.ine.add.PTCONT.4530657",
      "street": "BC CASTELOS",
      "house": "7",
      "postcode": "2205-454",
      "city": "SÃO MIGUEL DO RIO TORTO",
      "lon": "-8.172427915596588",
      "lat": "39.41763444522115"
    },
    {
      "id": "pt.ine.add.PTCONT.4530658",
      "street": "R TEN SENICA",
      "house": "15",
      "postcode": "2205-472",
      "city": "SÃO MIGUEL DO RIO TORTO",
      "lon": "-8.171475862040346",
      "lat": "39.41793199755668"
    },
    {
      "id": "pt.ine.add.PTCONT.4532226",
      "street": "BR PINHAL",
      "house": "",
      "postcode": "2205-453",
      "city": "SÃO MIGUEL DO RIO TORTO",
      "lon": "-8.169920196980456",
      "lat": "39.418698104035975"
    },
    {
      "id": "pt.ine.add.PTCONT.4535308",
      "street": "R PRINCIPAL",
      "house": "112",
      "postcode": "2205-465",
      "city": "SÃO MIGUEL DO RIO TORTO",
      "lon": "-8.173310830214033",
      "lat": "39.41828265495705"
    },
    {
      "id": "pt.ine.add.PTCONT.4544338",
      "street": "R PRINCIPAL",
      "house": "98",
      "postcode": "2205-465",
      "city": "SÃO MIGUEL DO RIO TORTO",
      "lon": "-8.172764731223998",
      "lat": "39.417733409044644"
    },
    {
      "id": "pt.ine.add.PTCONT.4546152",
      "street": "R PRINCIPAL",
      "house": "90",
      "postcode": "2205-465",
      "city": "SÃO MIGUEL DO RIO TORTO",
      "lon": "-8.172427880175851",
      "lat": "39.41757139549984"
    },
    {
      "id": "pt.ine.add.PTCONT.4566873",
      "street": "R TEN SENICA",
      "house": "22",
      "postcode": "2205-472",
      "city": "SÃO MIGUEL DO RIO TORTO",
      "lon": "-8.17165001400547",
      "lat": "39.41786889025995"
    },
    {
      "id": "pt.ine.add.PTCONT.4567576",
      "street": "BC JOSE MARIA",
      "house": "4",
      "postcode": "2205-468",
      "city": "SÃO MIGUEL DO RIO TORTO",
      "lon": "-8.172439735520625",
      "lat": "39.41800373250667"
    },
    {
      "id": "pt.ine.add.PTCONT.4577779",
      "street": "BC JOSE MARIA",
      "house": "7",
      "postcode": "2205-468",
      "city": "SÃO MIGUEL DO RIO TORTO",
      "lon": "-8.17256742684966",
      "lat": "39.41792262532761"
    },
    {
      "id": "pt.ine.add.PTCONT.4577790",
      "street": "CANTO DOS CHATOS",
      "house": "2",
      "postcode": "2205-455",
      "city": "",
      "lon": "-8.171348297380858",
      "lat": "39.418247288198934"
    },
    {
      "id": "pt.ine.add.PTCONT.4579937",
      "street": "R TEN SENICA",
      "house": "20",
      "postcode": "2205-472",
      "city": "SÃO MIGUEL DO RIO TORTO",
      "lon": "-8.171324929755187",
      "lat": "39.41798608986236"
    },
    {
      "id": "pt.ine.add.PTCONT.4582460",
      "street": "BC JOSE MARIA",
      "house": "IO",
      "postcode": "2205-468",
      "city": "SÃO MIGUEL DO RIO TORTO",
      "lon": "-8.172718403914258",
      "lat": "39.41794959533271"
    },
    {
      "id": "pt.ine.add.PTCONT.4588321",
      "street": "BC BERNARDINO CARAÇA",
      "house": "8",
      "postcode": "2205-468",
      "city": "SÃO MIGUEL DO RIO TORTO",
      "lon": "-8.173020373801327",
      "lat": "39.41803055606152"
    },
    {
      "id": "pt.ine.add.PTCONT.4589767",
      "street": "R TEN SENICA",
      "house": "34",
      "postcode": "2205-472",
      "city": "SÃO MIGUEL DO RIO TORTO",
      "lon": "-8.17207948854114",
      "lat": "39.41753548431095"
    },
    {
      "id": "pt.ine.add.PTCONT.4597914",
      "street": "R BEATRIZ SOARES MENDES",
      "house": "147",
      "postcode": "2205-466",
      "city": "SÃO MIGUEL DO RIO TORTO",
      "lon": "-8.174484561043627",
      "lat": "39.41975040112874"
    },
    {
      "id": "pt.ine.add.PTCONT.4607161",
      "street": "R TEN SENICA",
      "house": "16",
      "postcode": "2205-472",
      "city": "SÃO MIGUEL DO RIO TORTO",
      "lon": "-8.171220456900995",
      "lat": "39.41805818096864"
    },
    {
      "id": "pt.ine.add.PTCONT.4607162",
      "street": "R PRINCIPAL",
      "house": "106",
      "postcode": "2205-465",
      "city": "SÃO MIGUEL DO RIO TORTO",
      "lon": "-8.173113304386446",
      "lat": "39.418084566765785"
    },
    {
      "id": "pt.ine.add.PTCONT.4609096",
      "street": "BC JOSE MARIA",
      "house": "11",
      "postcode": "2205-468",
      "city": "SÃO MIGUEL DO RIO TORTO",
      "lon": "-8.172799711485526",
      "lat": "39.41798559603688"
    },
    {
      "id": "pt.ine.add.PTCONT.4611084",
      "street": "R PRINCIPAL",
      "house": "86",
      "postcode": "2205-465",
      "city": "SÃO MIGUEL DO RIO TORTO",
      "lon": "-8.172172357416606",
      "lat": "39.41748141053403"
    },
    {
      "id": "pt.ine.add.PTCONT.4619563",
      "street": "R PRINCIPAL",
      "house": "102",
      "postcode": "2205-465",
      "city": "SÃO MIGUEL DO RIO TORTO",
      "lon": "-8.172950586226522",
      "lat": "39.41783242369033"
    },
    {
      "id": "pt.ine.add.PTCONT.4619564",
      "street": "R PRINCIPAL",
      "house": "102",
      "postcode": "2205-465",
      "city": "SÃO MIGUEL DO RIO TORTO",
      "lon": "-8.172950586226522",
      "lat": "39.41783242369033"
    },
    {
      "id": "pt.ine.add.PTCONT.4619572",
      "street": "R BEATRIZ SOARES MENDES",
      "house": "56",
      "postcode": "2205-466",
      "city": "SÃO MIGUEL DO RIO TORTO",
      "lon": "-8.173706203939584",
      "lat": "39.419228263460575"
    },
    {
      "id": "pt.ine.add.PTCONT.4621727",
      "street": "R BEATRIZ SOARES MENDES",
      "house": "8E",
      "postcode": "2205-466",
      "city": "SÃO MIGUEL DO RIO TORTO",
      "lon": "-8.173868844136374",
      "lat": "39.419336291814076"
    },
    {
      "id": "pt.ine.add.PTCONT.4625497",
      "street": "BC CASTELOS",
      "house": "3",
      "postcode": "2205-454",
      "city": "SÃO MIGUEL DO RIO TORTO",
      "lon": "-8.172137676009239",
      "lat": "39.41776064242124"
    },
    {
      "id": "pt.ine.add.PTCONT.4632284",
      "street": "BR PINHAL",
      "house": "39",
      "postcode": "2205-453",
      "city": "SÃO MIGUEL DO RIO TORTO",
      "lon": "-8.169978425923372",
      "lat": "39.41901333419581"
    },
    {
      "id": "pt.ine.add.PTCONT.4639731",
      "street": "R TEN SENICA",
      "house": "32",
      "postcode": "2205-472",
      "city": "SÃO MIGUEL DO RIO TORTO",
      "lon": "-8.171986609515526",
      "lat": "39.41757154380705"
    },
    {
      "id": "pt.ine.add.PTCONT.4639732",
      "street": "R TEN SENICA",
      "house": "20",
      "postcode": "2205-472",
      "city": "SÃO MIGUEL DO RIO TORTO",
      "lon": "-8.171592021165571",
      "lat": "39.41799500891829"
    },
    {
      "id": "pt.ine.add.PTCONT.4646217",
      "street": "CANTO DOS CHATOS",
      "house": "10",
      "postcode": "2205-455",
      "city": "",
      "lon": "-8.17178944785392",
      "lat": "39.41802196475367"
    },
    {
      "id": "pt.ine.add.PTCONT.4654548",
      "street": "BC CASTELOS",
      "house": "2",
      "postcode": "2205-454",
      "city": "SÃO MIGUEL DO RIO TORTO",
      "lon": "-8.172277075422697",
      "lat": "39.417850666614534"
    },
    {
      "id": "pt.ine.add.PTCONT.4659996",
      "street": "R TEN SENICA",
      "house": "18",
      "postcode": "2205-472",
      "city": "SÃO MIGUEL DO RIO TORTO",
      "lon": "-8.171243657295465",
      "lat": "39.418013137845094"
    }
  ]
}