{
  "data": {
    "distrito": "Santarém",
    "concelho": "Abrantes",
    "freguesia": "União das freguesias de São Miguel do Rio Torto e Rossio ao Sul do Tejo",
    "OBJECTID": 439,
    "BGRI2021": "14012400418",
    "DT21": "14",
    "DTMN21": "1401",
    "DTMNFR21": "140124",
    "DTMNFRSEC21": "140124004",
    "SECNUM21": "004",
    "SSNUM21": "18",
    "SECSSNUM21": "00418",
    "OBJECTID_1": 147523,
    "DT": "14",
    "CC": "01",
    "fr": "24",
    "SEC": "004",
    "SS": "18"
  },
  "addresses": [
    {
      "id": "pt.ine.add.PTCONT.4399974",
      "street": "AV JOÃO AUGUSTO DA SILVA MARTINS",
      "house": "157",
      "postcode": "2205-471",
      "city": "SÃO MIGUEL DO RIO TORTO",
      "lon": "-8.18906739435426",
      "lat": "39.43079600280776"
    },
    {
      "id": "pt.ine.add.PTCONT.4401958",
      "street": "AV JOÃO AUGUSTO DA SILVA MARTINS",
      "house": "73",
      "postcode": "2205-471",
      "city": "SÃO MIGUEL DO RIO TORTO",
      "lon": "-8.19096419836096",
      "lat": "39.4351815230051"
    },
    {
      "id": "pt.ine.add.PTCONT.4403831",
      "street": "AV JOÃO AUGUSTO DA SILVA MARTINS",
      "house": "177",
      "postcode": "2205-471",
      "city": "SÃO MIGUEL DO RIO TORTO",
      "lon": "-8.188590603757918",
      "lat": "39.430048643188805"
    },
    {
      "id": "pt.ine.add.PTCONT.4403832",
      "street": "AV JOÃO AUGUSTO DA SILVA MARTINS",
      "house": "177",
      "postcode": "2205-471",
      "city": "SÃO MIGUEL DO RIO TORTO",
      "lon": "-8.188590603757918",
      "lat": "39.430048643188805"
    },
    {
      "id": "pt.ine.add.PTCONT.4405644",
      "street": "AV JOÃO AUGUSTO DA SILVA MARTINS",
      "house": "119",
      "postcode": "2205-471",
      "city": "SÃO MIGUEL DO RIO TORTO",
      "lon": "-8.18993996578408",
      "lat": "39.432615010418594"
    },
    {
      "id": "pt.ine.add.PTCONT.4405645",
      "street": "AV JOÃO AUGUSTO DA SILVA MARTINS",
      "house": "119",
      "postcode": "2205-471",
      "city": "SÃO MIGUEL DO RIO TORTO",
      "lon": "-8.18993996578408",
      "lat": "39.432615010418594"
    },
    {
      "id": "pt.ine.add.PTCONT.4405646",
      "street": "AV JOÃO AUGUSTO DA SILVA MARTINS",
      "house": "119",
      "postcode": "2205-471",
      "city": "SÃO MIGUEL DO RIO TORTO",
      "lon": "-8.18993996578408",
      "lat": "39.432615010418594"
    },
    {
      "id": "pt.ine.add.PTCONT.4405647",
      "street": "AV JOÃO AUGUSTO DA SILVA MARTINS",
      "house": "119",
      "postcode": "2205-471",
      "city": "SÃO MIGUEL DO RIO TORTO",
      "lon": "-8.18993996578408",
      "lat": "39.432615010418594"
    },
    {
      "id": "pt.ine.add.PTCONT.4422595",
      "street": "AV JOAO AUGUSTO SILVA MARTINS",
      "house": "191 H",
      "postcode": "2205-471",
      "city": "SÃO MIGUEL DO RIO TORTO",
      "lon": "-8.187602827917772",
      "lat": "39.42934655745021"
    },
    {
      "id": "pt.ine.add.PTCONT.4423977",
      "street": "AV JOÃO AUGUSTO DA SILVA MARTINS",
      "house": "191",
      "postcode": "2205-471",
      "city": "SÃO MIGUEL DO RIO TORTO",
      "lon": "-8.187602827917772",
      "lat": "39.42934655745021"
    },
    {
      "id": "pt.ine.add.PTCONT.4423978",
      "street": "AV JOÃO AUGUSTO DA SILVA MARTINS",
      "house": "191",
      "postcode": "2205-471",
      "city": "SÃO MIGUEL DO RIO TORTO",
      "lon": "-8.187602827917772",
      "lat": "39.42934655745021"
    },
    {
      "id": "pt.ine.add.PTCONT.4423979",
      "street": "AV JOÃO AUGUSTO DA SILVA MARTINS",
      "house": "191",
      "postcode": "2205-471",
      "city": "SÃO MIGUEL DO RIO TORTO",
      "lon": "-8.187602827917772",
      "lat": "39.42934655745021"
    },
    {
      "id": "pt.ine.add.PTCONT.4423980",
      "street": "AV JOÃO AUGUSTO DA SILVA MARTINS",
      "house": "191",
      "postcode": "2205-471",
      "city": "SÃO MIGUEL DO RIO TORTO",
      "lon": "-8.187602827917772",
      "lat": "39.42934655745021"
    },
    {
      "id": "pt.ine.add.PTCONT.4423981",
      "street": "AV JOÃO AUGUSTO DA SILVA MARTINS",
      "house": "191",
      "postcode": "2205-471",
      "city": "SÃO MIGUEL DO RIO TORTO",
      "lon": "-8.187602827917772",
      "lat": "39.42934655745021"
    },
    {
      "id": "pt.ine.add.PTCONT.4423982",
      "street": "AV JOÃO AUGUSTO DA SILVA MARTINS",
      "house": "191",
      "postcode": "2205-471",
      "city": "SÃO MIGUEL DO RIO TORTO",
      "lon": "-8.187602827917772",
      "lat": "39.42934655745021"
    },
    {
      "id": "pt.ine.add.PTCONT.4423983",
      "street": "AV JOÃO AUGUSTO DA SILVA MARTINS",
      "house": "191",
      "postcode": "2205-471",
      "city": "SÃO MIGUEL DO RIO TORTO",
      "lon": "-8.187602827917772",
      "lat": "39.42934655745021"
    },
    {
      "id": "pt.ine.add.PTCONT.4423984",
      "street": "AV JOÃO AUGUSTO DA SILVA MARTINS",
      "house": "191",
      "postcode": "2205-471",
      "city": "SÃO MIGUEL DO RIO TORTO",
      "lon": "-8.187602827917772",
      "lat": "39.42934655745021"
    },
    {
      "id": "pt.ine.add.PTCONT.4423987",
      "street": "AV JOÃO AUGUSTO DA SILVA MARTINS",
      "house": "191",
      "postcode": "2205-471",
      "city": "SÃO MIGUEL DO RIO TORTO",
      "lon": "-8.187602827917772",
      "lat": "39.42934655745021"
    },
    {
      "id": "pt.ine.add.PTCONT.4423988",
      "street": "AV JOÃO AUGUSTO DA SILVA MARTINS",
      "house": "191",
      "postcode": "2205-471",
      "city": "SÃO MIGUEL DO RIO TORTO",
      "lon": "-8.187602827917772",
      "lat": "39.42934655745021"
    },
    {
      "id": "pt.ine.add.PTCONT.4426783",
      "street": "AV JOÃO AUGUSTO DA SILVA MARTINS",
      "house": "41",
      "postcode": "2205-471",
      "city": "SÃO MIGUEL DO RIO TORTO",
      "lon": "-8.191511606852107",
      "lat": "39.43696465040796"
    },
    {
      "id": "pt.ine.add.PTCONT.4432052",
      "street": "AV JOÃO AUGUSTO DA SILVA MARTINS",
      "house": "105A",
      "postcode": "2205-471",
      "city": "SÃO MIGUEL DO RIO TORTO",
      "lon": "-8.190045174178424",
      "lat": "39.43344361036089"
    },
    {
      "id": "pt.ine.add.PTCONT.4434943",
      "street": "AV JOÃO AUGUSTO DA SILVA MARTINS",
      "house": "83",
      "postcode": "2205-471",
      "city": "SÃO MIGUEL DO RIO TORTO",
      "lon": "-8.190568671230162",
      "lat": "39.4344431387017"
    },
    {
      "id": "pt.ine.add.PTCONT.4434944",
      "street": "AV JOÃO AUGUSTO DA SILVA MARTINS",
      "house": "69",
      "postcode": "2205-471",
      "city": "SÃO MIGUEL DO RIO TORTO",
      "lon": "-8.191022431501615",
      "lat": "39.43537064263959"
    },
    {
      "id": "pt.ine.add.PTCONT.4439070",
      "street": "BC CANAVIAIS",
      "house": "131",
      "postcode": "2205-044",
      "city": "SÃO MIGUEL DO RIO TORTO",
      "lon": "-8.187269721972037",
      "lat": "39.434138480872356"
    },
    {
      "id": "pt.ine.add.PTCONT.4443039",
      "street": "AV JOÃO AUGUSTO DA SILVA MARTINS",
      "house": "139",
      "postcode": "2205-471",
      "city": "SÃO MIGUEL DO RIO TORTO",
      "lon": "-8.189312125441703",
      "lat": "39.431822692285415"
    },
    {
      "id": "pt.ine.add.PTCONT.4445251",
      "street": "AV JOÃO AUGUSTO DA SILVA MARTINS",
      "house": "113A",
      "postcode": "2205-471",
      "city": "SÃO MIGUEL DO RIO TORTO",
      "lon": "-8.190149408195794",
      "lat": "39.43307426901466"
    },
    {
      "id": "pt.ine.add.PTCONT.4449397",
      "street": "AV JOÃO AUGUSTO DA SILVA MARTINS",
      "house": "171",
      "postcode": "2205-471",
      "city": "SÃO MIGUEL DO RIO TORTO",
      "lon": "-8.188741720586991",
      "lat": "39.43021069854162"
    },
    {
      "id": "pt.ine.add.PTCONT.4451475",
      "street": "AV JOÃO AUGUSTO DA SILVA MARTINS",
      "house": "71",
      "postcode": "2205-471",
      "city": "SÃO MIGUEL DO RIO TORTO",
      "lon": "-8.191010763970723",
      "lat": "39.435307598911"
    },
    {
      "id": "pt.ine.add.PTCONT.4452716",
      "street": "AV JOÃO AUGUSTO DA SILVA MARTINS",
      "house": "83A",
      "postcode": "2205-471",
      "city": "SÃO MIGUEL DO RIO TORTO",
      "lon": "-8.190417673849533",
      "lat": "39.434443213193575"
    },
    {
      "id": "pt.ine.add.PTCONT.4455125",
      "street": "AV JOÃO AUGUSTO DA SILVA MARTINS",
      "house": "165",
      "postcode": "2205-471",
      "city": "SÃO MIGUEL DO RIO TORTO",
      "lon": "-8.188916117428448",
      "lat": "39.43043579211814"
    },
    {
      "id": "pt.ine.add.PTCONT.4459317",
      "street": "AV JOAO AUGUSTO SILVA MARTINS",
      "house": "",
      "postcode": "2205-471",
      "city": "SÃO MIGUEL DO RIO TORTO",
      "lon": "-8.191162226715566",
      "lat": "39.43586596214948"
    },
    {
      "id": "pt.ine.add.PTCONT.4461850",
      "street": "AV JOÃO AUGUSTO DA SILVA MARTINS",
      "house": "145",
      "postcode": "2205-471",
      "city": "SÃO MIGUEL DO RIO TORTO",
      "lon": "-8.189416426174907",
      "lat": "39.43153441520492"
    },
    {
      "id": "pt.ine.add.PTCONT.4463931",
      "street": "AV JOÃO AUGUSTO DA SILVA MARTINS",
      "house": "125",
      "postcode": "2205-471",
      "city": "SÃO MIGUEL DO RIO TORTO",
      "lon": "-8.189382270409952",
      "lat": "39.43239010452549"
    },
    {
      "id": "pt.ine.add.PTCONT.4466153",
      "street": "AV JOÃO AUGUSTO DA SILVA MARTINS",
      "house": "163",
      "postcode": "2205-471",
      "city": "SÃO MIGUEL DO RIO TORTO",
      "lon": "-8.188939403970812",
      "lat": "39.43050783761858"
    },
    {
      "id": "pt.ine.add.PTCONT.4478142",
      "street": "AV JOÃO AUGUSTO DA SILVA MARTINS",
      "house": "147",
      "postcode": "2205-471",
      "city": "SÃO MIGUEL DO RIO TORTO",
      "lon": "-8.189381524109995",
      "lat": "39.43146237543268"
    },
    {
      "id": "pt.ine.add.PTCONT.4480493",
      "street": "AV JOÃO AUGUSTO DA SILVA MARTINS",
      "house": "135",
      "postcode": "2205-471",
      "city": "SÃO MIGUEL DO RIO TORTO",
      "lon": "-8.189637447569105",
      "lat": "39.431957640876405"
    },
    {
      "id": "pt.ine.add.PTCONT.4482629",
      "street": "AV JOÃO AUGUSTO DA SILVA MARTINS",
      "house": "161",
      "postcode": "2205-471",
      "city": "SÃO MIGUEL DO RIO TORTO",
      "lon": "-8.188927875682612",
      "lat": "39.43061592816167"
    },
    {
      "id": "pt.ine.add.PTCONT.4484938",
      "street": "AV JOÃO AUGUSTO DA SILVA MARTINS",
      "house": "47A",
      "postcode": "2205-471",
      "city": "SÃO MIGUEL DO RIO TORTO",
      "lon": "-8.191313669397264",
      "lat": "39.43639730392127"
    },
    {
      "id": "pt.ine.add.PTCONT.4484948",
      "street": "AV JOÃO AUGUSTO DA SILVA MARTINS",
      "house": "123",
      "postcode": "2205-471",
      "city": "SÃO MIGUEL DO RIO TORTO",
      "lon": "-8.1898817013219",
      "lat": "39.432380854759764"
    },
    {
      "id": "pt.ine.add.PTCONT.4491372",
      "street": "AV JOÃO AUGUSTO DA SILVA MARTINS",
      "house": "167",
      "postcode": "2205-471",
      "city": "SÃO MIGUEL DO RIO TORTO",
      "lon": "-8.18886958756337",
      "lat": "39.43034574358728"
    },
    {
      "id": "pt.ine.add.PTCONT.4492840",
      "street": "AV JOAO AUGUSTO SILVA MARTINS",
      "house": "135",
      "postcode": "2205-471",
      "city": "SÃO MIGUEL DO RIO TORTO",
      "lon": "-8.189532994549802",
      "lat": "39.43205676949168"
    },
    {
      "id": "pt.ine.add.PTCONT.4493427",
      "street": "AV JOÃO AUGUSTO DA SILVA MARTINS",
      "house": "43",
      "postcode": "2205-471",
      "city": "SÃO MIGUEL DO RIO TORTO",
      "lon": "-8.191488300466974",
      "lat": "39.43687459136509"
    },
    {
      "id": "pt.ine.add.PTCONT.4505624",
      "street": "AV JOAO AUGUSTO SILVA MARTINS",
      "house": "105",
      "postcode": "2205-471",
      "city": "SÃO MIGUEL DO RIO TORTO",
      "lon": "-8.190265815346333",
      "lat": "39.43338945967435"
    },
    {
      "id": "pt.ine.add.PTCONT.4505625",
      "street": "AV JOAO AUGUSTO SILVA MARTINS",
      "house": "103",
      "postcode": "2205-471",
      "city": "SÃO MIGUEL DO RIO TORTO",
      "lon": "-8.190265815346333",
      "lat": "39.43338945967435"
    },
    {
      "id": "pt.ine.add.PTCONT.4510477",
      "street": "AV JOÃO AUGUSTO DA SILVA MARTINS",
      "house": "169",
      "postcode": "2205-471",
      "city": "SÃO MIGUEL DO RIO TORTO",
      "lon": "-8.188823064991453",
      "lat": "39.4302647021176"
    },
    {
      "id": "pt.ine.add.PTCONT.4510478",
      "street": "AV JOAO AUGUSTO SILVA MARTINS",
      "house": "109",
      "postcode": "2205-471",
      "city": "SÃO MIGUEL DO RIO TORTO",
      "lon": "-8.190219281775253",
      "lat": "39.43329941173196"
    },
    {
      "id": "pt.ine.add.PTCONT.4510560",
      "street": "AV JOAO AUGUSTO SILVA MARTINS",
      "house": "107",
      "postcode": "2205-471",
      "city": "SÃO MIGUEL DO RIO TORTO",
      "lon": "-8.190219281775253",
      "lat": "39.43329941173196"
    },
    {
      "id": "pt.ine.add.PTCONT.4513503",
      "street": "AV JOÃO AUGUSTO DA SILVA MARTINS",
      "house": "159",
      "postcode": "2205-471",
      "city": "SÃO MIGUEL DO RIO TORTO",
      "lon": "-8.188962805622614",
      "lat": "39.43072399640332"
    },
    {
      "id": "pt.ine.add.PTCONT.4513504",
      "street": "AV JOÃO AUGUSTO DA SILVA MARTINS",
      "house": "87A",
      "postcode": "2205-471",
      "city": "SÃO MIGUEL DO RIO TORTO",
      "lon": "-8.190347938526571",
      "lat": "39.43438920506102"
    },
    {
      "id": "pt.ine.add.PTCONT.4522109",
      "street": "AV JOÃO AUGUSTO DA SILVA MARTINS",
      "house": "87-85",
      "postcode": "2205-471",
      "city": "SÃO MIGUEL DO RIO TORTO",
      "lon": "-8.190661540817526",
      "lat": "39.434380043241575"
    },
    {
      "id": "pt.ine.add.PTCONT.4530462",
      "street": "AV JOÃO AUGUSTO DA SILVA MARTINS",
      "house": "61",
      "postcode": "2205-471",
      "city": "SÃO MIGUEL DO RIO TORTO",
      "lon": "-8.191092325127165",
      "lat": "39.435613798884724"
    },
    {
      "id": "pt.ine.add.PTCONT.4530463",
      "street": "AV JOÃO AUGUSTO DA SILVA MARTINS",
      "house": "33",
      "postcode": "2205-471",
      "city": "SÃO MIGUEL DO RIO TORTO",
      "lon": "-8.191604757661457",
      "lat": "39.43723481581923"
    },
    {
      "id": "pt.ine.add.PTCONT.4532002",
      "street": "AV JOÃO AUGUSTO DA SILVA MARTINS",
      "house": "81",
      "postcode": "2205-471",
      "city": "SÃO MIGUEL DO RIO TORTO",
      "lon": "-8.19066170386121",
      "lat": "39.43457819887851"
    },
    {
      "id": "pt.ine.add.PTCONT.4535089",
      "street": "AV JOÃO AUGUSTO DA SILVA MARTINS",
      "house": "173",
      "postcode": "2205-471",
      "city": "SÃO MIGUEL DO RIO TORTO",
      "lon": "-8.188695212566644",
      "lat": "39.430147671181665"
    },
    {
      "id": "pt.ine.add.PTCONT.4535193",
      "street": "AV JOÃO AUGUSTO DA SILVA MARTINS",
      "house": "65",
      "postcode": "2205-471",
      "city": "SÃO MIGUEL DO RIO TORTO",
      "lon": "-8.191080612700592",
      "lat": "39.43549671272957"
    },
    {
      "id": "pt.ine.add.PTCONT.4538464",
      "street": "R CANAVIAIS",
      "house": "257",
      "postcode": "2205-044",
      "city": "SÃO MIGUEL DO RIO TORTO",
      "lon": "-8.187058419652093",
      "lat": "39.431247306080536"
    },
    {
      "id": "pt.ine.add.PTCONT.4538470",
      "street": "AV JOÃO AUGUSTO DA SILVA MARTINS",
      "house": "147B",
      "postcode": "2205-471",
      "city": "SÃO MIGUEL DO RIO TORTO",
      "lon": "-8.189067970752356",
      "lat": "39.431516569193"
    },
    {
      "id": "pt.ine.add.PTCONT.4539720",
      "street": "AV JOÃO AUGUSTO DA SILVA MARTINS",
      "house": "167A",
      "postcode": "2205-471",
      "city": "SÃO MIGUEL DO RIO TORTO",
      "lon": "-8.188567639042718",
      "lat": "39.43038191627586"
    },
    {
      "id": "pt.ine.add.PTCONT.4548535",
      "street": "AV JOAO AUGUSTO SILVA MARTINS",
      "house": "77",
      "postcode": "2205-471",
      "city": "SÃO MIGUEL DO RIO TORTO",
      "lon": "-8.190882809384316",
      "lat": "39.43508248561063"
    },
    {
      "id": "pt.ine.add.PTCONT.4563339",
      "street": "BC CANAVIAIS",
      "house": "",
      "postcode": "2205-044",
      "city": "SÃO MIGUEL DO RIO TORTO",
      "lon": "-8.187652599955888",
      "lat": "39.43359787722005"
    },
    {
      "id": "pt.ine.add.PTCONT.4571719",
      "street": "AV JOÃO AUGUSTO DA SILVA MARTINS",
      "house": "47",
      "postcode": "2205-471",
      "city": "SÃO MIGUEL DO RIO TORTO",
      "lon": "-8.191348575920061",
      "lat": "39.4364693430492"
    },
    {
      "id": "pt.ine.add.PTCONT.4571723",
      "street": "AV JOÃO AUGUSTO DA SILVA MARTINS",
      "house": "175",
      "postcode": "2205-471",
      "city": "SÃO MIGUEL DO RIO TORTO",
      "lon": "-8.188671947857275",
      "lat": "39.430102646872164"
    },
    {
      "id": "pt.ine.add.PTCONT.4573614",
      "street": "AV JOÃO AUGUSTO DA SILVA MARTINS",
      "house": "73A",
      "postcode": "2205-471",
      "city": "SÃO MIGUEL DO RIO TORTO",
      "lon": "-8.190755130282243",
      "lat": "39.4351906338813"
    },
    {
      "id": "pt.ine.add.PTCONT.4581412",
      "street": "AV JOÃO AUGUSTO DA SILVA MARTINS",
      "house": "127",
      "postcode": "2205-471",
      "city": "SÃO MIGUEL DO RIO TORTO",
      "lon": "-8.189788600142911",
      "lat": "39.432155723123955"
    },
    {
      "id": "pt.ine.add.PTCONT.4588300",
      "street": "AV JOÃO AUGUSTO DA SILVA MARTINS",
      "house": "39",
      "postcode": "2205-471",
      "city": "SÃO MIGUEL DO RIO TORTO",
      "lon": "-8.191534883200555",
      "lat": "39.437018681163515"
    },
    {
      "id": "pt.ine.add.PTCONT.4592454",
      "street": "AV JOÃO AUGUSTO DA SILVA MARTINS",
      "house": "437",
      "postcode": "2205-471",
      "city": "SÃO MIGUEL DO RIO TORTO",
      "lon": "-8.189567686249987",
      "lat": "39.43186760393629"
    },
    {
      "id": "pt.ine.add.PTCONT.4592455",
      "street": "AV JOÃO AUGUSTO DA SILVA MARTINS",
      "house": "437",
      "postcode": "2205-471",
      "city": "SÃO MIGUEL DO RIO TORTO",
      "lon": "-8.189567686249987",
      "lat": "39.43186760393629"
    },
    {
      "id": "pt.ine.add.PTCONT.4592456",
      "street": "AV JOÃO AUGUSTO DA SILVA MARTINS",
      "house": "437",
      "postcode": "2205-471",
      "city": "SÃO MIGUEL DO RIO TORTO",
      "lon": "-8.189567686249987",
      "lat": "39.43186760393629"
    },
    {
      "id": "pt.ine.add.PTCONT.4593758",
      "street": "AV JOÃO AUGUSTO DA SILVA MARTINS",
      "house": "93",
      "postcode": "2205-471",
      "city": "SÃO MIGUEL DO RIO TORTO",
      "lon": "-8.19055675274816",
      "lat": "39.43407385437344"
    },
    {
      "id": "pt.ine.add.PTCONT.4600775",
      "street": "AV JOÃO AUGUSTO DA SILVA MARTINS",
      "house": "49",
      "postcode": "2205-471",
      "city": "SÃO MIGUEL DO RIO TORTO",
      "lon": "-8.19127875545542",
      "lat": "39.436316257710466"
    },
    {
      "id": "pt.ine.add.PTCONT.4602574",
      "street": "AV JOÃO AUGUSTO DA SILVA MARTINS",
      "house": "37",
      "postcode": "2205-471",
      "city": "SÃO MIGUEL DO RIO TORTO",
      "lon": "-8.191558174639454",
      "lat": "39.437090726054365"
    },
    {
      "id": "pt.ine.add.PTCONT.4604712",
      "street": "AV JOÃO AUGUSTO DA SILVA MARTINS",
      "house": "143",
      "postcode": "2205-471",
      "city": "SÃO MIGUEL DO RIO TORTO",
      "lon": "-8.189079758409179",
      "lat": "39.43173273350299"
    },
    {
      "id": "pt.ine.add.PTCONT.4604713",
      "street": "AV JOÃO AUGUSTO DA SILVA MARTINS",
      "house": "111",
      "postcode": "2205-471",
      "city": "SÃO MIGUEL DO RIO TORTO",
      "lon": "-8.190044998225114",
      "lat": "39.433227440530196"
    },
    {
      "id": "pt.ine.add.PTCONT.4609085",
      "street": "AV JOÃO AUGUSTO DA SILVA MARTINS",
      "house": "105B",
      "postcode": "2205-471",
      "city": "SÃO MIGUEL DO RIO TORTO",
      "lon": "-8.189963876378643",
      "lat": "39.43345265720561"
    },
    {
      "id": "pt.ine.add.PTCONT.4615310",
      "street": "AV JOÃO AUGUSTO DA SILVA MARTINS",
      "house": "121",
      "postcode": "2205-471",
      "city": "SÃO MIGUEL DO RIO TORTO",
      "lon": "-8.189916626304983",
      "lat": "39.432479915602784"
    },
    {
      "id": "pt.ine.add.PTCONT.4619549",
      "street": "AV JOÃO AUGUSTO DA SILVA MARTINS",
      "house": "105C",
      "postcode": "2205-471",
      "city": "SÃO MIGUEL DO RIO TORTO",
      "lon": "-8.189998626204344",
      "lat": "39.433335548178334"
    },
    {
      "id": "pt.ine.add.PTCONT.4620945",
      "street": "AV JOÃO AUGUSTO DA SILVA MARTINS",
      "house": "141",
      "postcode": "2205-471",
      "city": "SÃO MIGUEL DO RIO TORTO",
      "lon": "-8.189323631618574",
      "lat": "39.43168758049024"
    },
    {
      "id": "pt.ine.add.PTCONT.4623708",
      "street": "BC CANAVIAIS",
      "house": "",
      "postcode": "2205-044",
      "city": "SÃO MIGUEL DO RIO TORTO",
      "lon": "-8.186665383328352",
      "lat": "39.43367939966134"
    },
    {
      "id": "pt.ine.add.PTCONT.4623715",
      "street": "AV DR JOÃO AUGUSTO SILVA MARTINS",
      "house": "113",
      "postcode": "2205-471",
      "city": "SÃO MIGUEL DO RIO TORTO",
      "lon": "-8.189998435744908",
      "lat": "39.433101364190165"
    },
    {
      "id": "pt.ine.add.PTCONT.4626868",
      "street": "R CANAVIAIS",
      "house": "",
      "postcode": "2205-044",
      "city": "SÃO MIGUEL DO RIO TORTO",
      "lon": "-8.18702363122721",
      "lat": "39.43131937887514"
    },
    {
      "id": "pt.ine.add.PTCONT.4627523",
      "street": "AV JOÃO AUGUSTO DA SILVA MARTINS",
      "house": "183",
      "postcode": "2205-471",
      "city": "SÃO MIGUEL DO RIO TORTO",
      "lon": "-8.188195485369082",
      "lat": "39.42976060424607"
    },
    {
      "id": "pt.ine.add.PTCONT.4627524",
      "street": "AV DR JOÃO AUGUSTO SILVA MARTINS",
      "house": "117",
      "postcode": "2205-471",
      "city": "SÃO MIGUEL DO RIO TORTO",
      "lon": "-8.189974905611336",
      "lat": "39.43273208539444"
    },
    {
      "id": "pt.ine.add.PTCONT.4627563",
      "street": "AV DR JOÃO AUGUSTO SILVA MARTINS",
      "house": "117",
      "postcode": "2205-471",
      "city": "SÃO MIGUEL DO RIO TORTO",
      "lon": "-8.189974905611336",
      "lat": "39.43273208539444"
    },
    {
      "id": "pt.ine.add.PTCONT.4627564",
      "street": "AV DR JOÃO AUGUSTO SILVA MARTINS",
      "house": "117",
      "postcode": "2205-471",
      "city": "SÃO MIGUEL DO RIO TORTO",
      "lon": "-8.189974905611336",
      "lat": "39.43273208539444"
    },
    {
      "id": "pt.ine.add.PTCONT.4627565",
      "street": "AV DR JOÃO AUGUSTO SILVA MARTINS",
      "house": "117",
      "postcode": "2205-471",
      "city": "SÃO MIGUEL DO RIO TORTO",
      "lon": "-8.189974905611336",
      "lat": "39.43273208539444"
    },
    {
      "id": "pt.ine.add.PTCONT.4629184",
      "street": "AV DR JOÃO AUGUSTO SILVA MARTINS",
      "house": "117",
      "postcode": "2205-471",
      "city": "SÃO MIGUEL DO RIO TORTO",
      "lon": "-8.189974905611336",
      "lat": "39.43273208539444"
    },
    {
      "id": "pt.ine.add.PTCONT.4629288",
      "street": "AV DR JOÃO AUGUSTO SILVA MARTINS",
      "house": "117",
      "postcode": "2205-471",
      "city": "SÃO MIGUEL DO RIO TORTO",
      "lon": "-8.189974905611336",
      "lat": "39.43273208539444"
    },
    {
      "id": "pt.ine.add.PTCONT.4631950",
      "street": "AV JOÃO AUGUSTO DA SILVA MARTINS",
      "house": "147A",
      "postcode": "2205-471",
      "city": "SÃO MIGUEL DO RIO TORTO",
      "lon": "-8.18925378422436",
      "lat": "39.43148945840704"
    },
    {
      "id": "pt.ine.add.PTCONT.4638046",
      "street": "R AUGUSTO SILVA MARTINS",
      "house": "53",
      "postcode": "2205-064",
      "city": "ABRANTES",
      "lon": "-8.187500042590738",
      "lat": "39.43158936957121"
    },
    {
      "id": "pt.ine.add.PTCONT.4643346",
      "street": "AV JOÃO AUGUSTO DA SILVA MARTINS",
      "house": "79",
      "postcode": "2205-471",
      "city": "SÃO MIGUEL DO RIO TORTO",
      "lon": "-8.190882690349257",
      "lat": "39.43493837243389"
    },
    {
      "id": "pt.ine.add.PTCONT.4643347",
      "street": "AV JOÃO AUGUSTO DA SILVA MARTINS",
      "house": "79",
      "postcode": "2205-471",
      "city": "SÃO MIGUEL DO RIO TORTO",
      "lon": "-8.190882690349257",
      "lat": "39.43493837243389"
    },
    {
      "id": "pt.ine.add.PTCONT.4644335",
      "street": "AV JOÃO AUGUSTO DA SILVA MARTINS",
      "house": "53",
      "postcode": "2205-471",
      "city": "SÃO MIGUEL DO RIO TORTO",
      "lon": "-8.191208882922849",
      "lat": "39.43610012282327"
    },
    {
      "id": "pt.ine.add.PTCONT.4646023",
      "street": "AV JOÃO AUGUSTO DA SILVA MARTINS",
      "house": "155",
      "postcode": "2205-471",
      "city": "SÃO MIGUEL DO RIO TORTO",
      "lon": "-8.189079073789303",
      "lat": "39.43087706094264"
    },
    {
      "id": "pt.ine.add.PTCONT.4646024",
      "street": "AV JOÃO AUGUSTO DA SILVA MARTINS",
      "house": "63",
      "postcode": "2205-471",
      "city": "SÃO MIGUEL DO RIO TORTO",
      "lon": "-8.191092272859379",
      "lat": "39.435550749376354"
    },
    {
      "id": "pt.ine.add.PTCONT.4646025",
      "street": "AV JOÃO AUGUSTO DA SILVA MARTINS",
      "house": "35",
      "postcode": "2205-471",
      "city": "SÃO MIGUEL DO RIO TORTO",
      "lon": "-8.191581466126422",
      "lat": "39.437162770939594"
    },
    {
      "id": "pt.ine.add.PTCONT.4650991",
      "street": "AV JOÃO AUGUSTO DA SILVA MARTINS",
      "house": "67",
      "postcode": "2205-471",
      "city": "SÃO MIGUEL DO RIO TORTO",
      "lon": "-8.191057329748604",
      "lat": "39.435433674795455"
    },
    {
      "id": "pt.ine.add.PTCONT.4652549",
      "street": "BC CANAVIAIS",
      "house": "",
      "postcode": "2205-044",
      "city": "SÃO MIGUEL DO RIO TORTO",
      "lon": "-8.186456202391426",
      "lat": "39.43353538251206"
    }
  ]
}