{
  "data": {
    "distrito": "Faro",
    "concelho": "Lagoa",
    "freguesia": "União das freguesias de Estômbar e Parchal",
    "OBJECTID": 488,
    "BGRI2021": "08060700218",
    "DT21": "08",
    "DTMN21": "0806",
    "DTMNFR21": "080607",
    "DTMNFRSEC21": "080607002",
    "SECNUM21": "002",
    "SSNUM21": "18",
    "SECSSNUM21": "00218",
    "OBJECTID_1": 67157,
    "DT": "08",
    "CC": "06",
    "fr": "07",
    "SEC": "002",
    "SS": "18"
  },
  "addresses": [
    {
      "id": "pt.ine.add.PTCONT.1468211",
      "street": "BR ALVES",
      "house": "3",
      "postcode": "8400-049",
      "city": "ESTOMBAR",
      "lon": "-8.488609072434318",
      "lat": "37.14639826866981"
    },
    {
      "id": "pt.ine.add.PTCONT.1472692",
      "street": "R 25 DE ABRIL",
      "house": "37",
      "postcode": "8400-035",
      "city": "ESTOMBAR",
      "lon": "-8.487948932342663",
      "lat": "37.14724723879153"
    },
    {
      "id": "pt.ine.add.PTCONT.1472693",
      "street": "R 25 DE ABRIL",
      "house": "37",
      "postcode": "8400-035",
      "city": "ESTOMBAR",
      "lon": "-8.487948932342663",
      "lat": "37.14724723879153"
    },
    {
      "id": "pt.ine.add.PTCONT.1475831",
      "street": "R 25 DE ABRIL",
      "house": "24",
      "postcode": "8400-035",
      "city": "ESTOMBAR",
      "lon": "-8.487565176801061",
      "lat": "37.147023123223875"
    },
    {
      "id": "pt.ine.add.PTCONT.1475832",
      "street": "R 25 DE ABRIL",
      "house": "24",
      "postcode": "8400-035",
      "city": "ESTOMBAR",
      "lon": "-8.487565176801061",
      "lat": "37.147023123223875"
    },
    {
      "id": "pt.ine.add.PTCONT.1475834",
      "street": "R ARRAIS",
      "house": "16",
      "postcode": "8400-065",
      "city": "ESTOMBAR",
      "lon": "-8.490954031090675",
      "lat": "37.14718414083127"
    },
    {
      "id": "pt.ine.add.PTCONT.1475835",
      "street": "R ARRAIS",
      "house": "",
      "postcode": "8400-065",
      "city": "ESTOMBAR",
      "lon": "-8.492275243328919",
      "lat": "37.148081199651855"
    },
    {
      "id": "pt.ine.add.PTCONT.1481862",
      "street": "R 25 DE ABRIL",
      "house": "32 34",
      "postcode": "8400-035",
      "city": "ESTOMBAR",
      "lon": "-8.487655981700158",
      "lat": "37.147185041585864"
    },
    {
      "id": "pt.ine.add.PTCONT.1481863",
      "street": "R 25 DE ABRIL",
      "house": "32 34",
      "postcode": "8400-035",
      "city": "ESTOMBAR",
      "lon": "-8.487655981700158",
      "lat": "37.147185041585864"
    },
    {
      "id": "pt.ine.add.PTCONT.1487469",
      "street": "R 25 DE ABRIL",
      "house": "41",
      "postcode": "8400-035",
      "city": "ESTOMBAR",
      "lon": "-8.488016763118804",
      "lat": "37.147310109569965"
    },
    {
      "id": "pt.ine.add.PTCONT.1496165",
      "street": "R JOÃO DE DEUS",
      "house": "38",
      "postcode": "8400-025",
      "city": "ESTOMBAR",
      "lon": "-8.486573518733222",
      "lat": "37.14678279970581"
    },
    {
      "id": "pt.ine.add.PTCONT.1500141",
      "street": "R JOÃO DE DEUS",
      "house": "14",
      "postcode": "8400-025",
      "city": "ESTOMBAR",
      "lon": "-8.48571764887054",
      "lat": "37.146695243405084"
    },
    {
      "id": "pt.ine.add.PTCONT.1501233",
      "street": "R 25 DE ABRIL",
      "house": "10",
      "postcode": "8400-035",
      "city": "ESTOMBAR",
      "lon": "-8.487463200415622",
      "lat": "37.14687925929287"
    },
    {
      "id": "pt.ine.add.PTCONT.1507845",
      "street": "R 25 DE ABRIL",
      "house": "50",
      "postcode": "8400-035",
      "city": "ESTOMBAR",
      "lon": "-8.487803403734905",
      "lat": "37.14741887487637"
    },
    {
      "id": "pt.ine.add.PTCONT.1520562",
      "street": "R 25 DE ABRIL",
      "house": "43",
      "postcode": "8400-035",
      "city": "ESTOMBAR",
      "lon": "-8.488096018488447",
      "lat": "37.147408988301486"
    },
    {
      "id": "pt.ine.add.PTCONT.1523333",
      "street": "QTA CAVACO",
      "house": "254 Z",
      "postcode": "8400-160",
      "city": "ESTOMBAR",
      "lon": "-8.48362667885344",
      "lat": "37.1497109698676"
    },
    {
      "id": "pt.ine.add.PTCONT.1525178",
      "street": "R JOÃO DE DEUS",
      "house": "10",
      "postcode": "8400-025",
      "city": "ESTOMBAR",
      "lon": "-8.485638857367809",
      "lat": "37.14669547777743"
    },
    {
      "id": "pt.ine.add.PTCONT.1525180",
      "street": "R 25 DE ABRIL",
      "house": "11",
      "postcode": "8400-035",
      "city": "ESTOMBAR",
      "lon": "-8.487631535031346",
      "lat": "37.14677062927216"
    },
    {
      "id": "pt.ine.add.PTCONT.1525184",
      "street": "R MARIA DOROTEIA",
      "house": "29",
      "postcode": "8400-048",
      "city": "ESTOMBAR",
      "lon": "-8.488585379909074",
      "lat": "37.14614604422158"
    },
    {
      "id": "pt.ine.add.PTCONT.1533862",
      "street": "SIT SITIO DO POMBAL",
      "house": "",
      "postcode": "8400-165",
      "city": "ESTOMBAR",
      "lon": "-8.48824727636206",
      "lat": "37.14846276969865"
    },
    {
      "id": "pt.ine.add.PTCONT.1533866",
      "street": "R ARRAIS",
      "house": "",
      "postcode": "8400-065",
      "city": "ESTOMBAR",
      "lon": "-8.491822509028546",
      "lat": "37.14993874375549"
    },
    {
      "id": "pt.ine.add.PTCONT.1538232",
      "street": "R 25 DE ABRIL",
      "house": "14 16",
      "postcode": "8400-035",
      "city": "ESTOMBAR",
      "lon": "-8.4874747926835",
      "lat": "37.146951309060555"
    },
    {
      "id": "pt.ine.add.PTCONT.1538233",
      "street": "R 25 DE ABRIL",
      "house": "14 16",
      "postcode": "8400-035",
      "city": "ESTOMBAR",
      "lon": "-8.4874747926835",
      "lat": "37.146951309060555"
    },
    {
      "id": "pt.ine.add.PTCONT.1538234",
      "street": "R 25 DE ABRIL",
      "house": "33",
      "postcode": "8400-035",
      "city": "ESTOMBAR",
      "lon": "-8.48790348740488",
      "lat": "37.14715726930828"
    },
    {
      "id": "pt.ine.add.PTCONT.1539690",
      "street": "R ESCOLA",
      "house": "",
      "postcode": "8400-062",
      "city": "ESTOMBAR",
      "lon": "-8.485256406424833",
      "lat": "37.14675067799183"
    },
    {
      "id": "pt.ine.add.PTCONT.1539691",
      "street": "R JOÃO DE DEUS",
      "house": "16",
      "postcode": "8400-025",
      "city": "ESTOMBAR",
      "lon": "-8.485841547777616",
      "lat": "37.146712895858585"
    },
    {
      "id": "pt.ine.add.PTCONT.1539692",
      "street": "R 25 ABRIL",
      "house": "40",
      "postcode": "8400-035",
      "city": "ESTOMBAR",
      "lon": "-8.487701426362415",
      "lat": "37.14727501116504"
    },
    {
      "id": "pt.ine.add.PTCONT.1539693",
      "street": "R ARRAIS",
      "house": "301Z",
      "postcode": "8400-065",
      "city": "ESTOMBAR",
      "lon": "-8.495224906098747",
      "lat": "37.150550125157544"
    },
    {
      "id": "pt.ine.add.PTCONT.1542809",
      "street": "R ARRAIS",
      "house": "",
      "postcode": "8400-065",
      "city": "ESTOMBAR",
      "lon": "-8.495896851883163",
      "lat": "37.149827226618065"
    },
    {
      "id": "pt.ine.add.PTCONT.1542810",
      "street": "R ARRAIS",
      "house": "",
      "postcode": "8400-065",
      "city": "ESTOMBAR",
      "lon": "-8.495896851883163",
      "lat": "37.149827226618065"
    },
    {
      "id": "pt.ine.add.PTCONT.1548067",
      "street": "R JOÃO DE DEUS",
      "house": "40",
      "postcode": "8400-025",
      "city": "ESTOMBAR",
      "lon": "-8.486629798437152",
      "lat": "37.14678263185819"
    },
    {
      "id": "pt.ine.add.PTCONT.1551264",
      "street": "BR ALVES",
      "house": "8",
      "postcode": "8400-049",
      "city": "ESTOMBAR",
      "lon": "-8.488935535197815",
      "lat": "37.14640629961133"
    },
    {
      "id": "pt.ine.add.PTCONT.1554429",
      "street": "R ARRAIS",
      "house": "12",
      "postcode": "8400-065",
      "city": "ESTOMBAR",
      "lon": "-8.487790170071689",
      "lat": "37.14699541850497"
    },
    {
      "id": "pt.ine.add.PTCONT.1554430",
      "street": "R 25 DE ABRIL",
      "house": "25",
      "postcode": "8400-035",
      "city": "ESTOMBAR",
      "lon": "-8.487790170071689",
      "lat": "37.14699541850497"
    },
    {
      "id": "pt.ine.add.PTCONT.1556752",
      "street": "R 25 DE ABRIL",
      "house": "44 46",
      "postcode": "8400-035",
      "city": "ESTOMBAR",
      "lon": "-8.487724274942618",
      "lat": "37.14734702722709"
    },
    {
      "id": "pt.ine.add.PTCONT.1556753",
      "street": "R 25 DE ABRIL",
      "house": "44 46",
      "postcode": "8400-035",
      "city": "ESTOMBAR",
      "lon": "-8.487724274942618",
      "lat": "37.14734702722709"
    },
    {
      "id": "pt.ine.add.PTCONT.1561501",
      "street": "R JOÃO DE DEUS",
      "house": "4",
      "postcode": "8400-025",
      "city": "ESTOMBAR",
      "lon": "-8.485391143341284",
      "lat": "37.14667819317562"
    },
    {
      "id": "pt.ine.add.PTCONT.1562896",
      "street": "R ARRAIS",
      "house": "",
      "postcode": "8400-065",
      "city": "ESTOMBAR",
      "lon": "-8.49190055615518",
      "lat": "37.14739753261651"
    },
    {
      "id": "pt.ine.add.PTCONT.1580763",
      "street": "SIT SITIO DO POMBAL",
      "house": "",
      "postcode": "8400-165",
      "city": "ESTOMBAR",
      "lon": "-8.491021008250852",
      "lat": "37.1518423920461"
    },
    {
      "id": "pt.ine.add.PTCONT.1583457",
      "street": "R 25 ABRIL",
      "house": "17",
      "postcode": "8400-035",
      "city": "ESTOMBAR",
      "lon": "-8.487676895286484",
      "lat": "37.146842578013754"
    },
    {
      "id": "pt.ine.add.PTCONT.1594858",
      "street": "BR ALVES",
      "house": "",
      "postcode": "8400-049",
      "city": "ESTOMBAR",
      "lon": "-8.488451068550996",
      "lat": "37.14630863692947"
    },
    {
      "id": "pt.ine.add.PTCONT.1594859",
      "street": "BR ALVES",
      "house": "",
      "postcode": "8400-049",
      "city": "ESTOMBAR",
      "lon": "-8.488451068550996",
      "lat": "37.14630863692947"
    },
    {
      "id": "pt.ine.add.PTCONT.1599578",
      "street": "BR ALVES",
      "house": "5",
      "postcode": "8400-049",
      "city": "ESTOMBAR",
      "lon": "-8.488744100820336",
      "lat": "37.146388853047576"
    },
    {
      "id": "pt.ine.add.PTCONT.1604466",
      "street": "R MARIA DOROTEIA",
      "house": "9",
      "postcode": "8400-048",
      "city": "ESTOMBAR",
      "lon": "-8.4893731621546",
      "lat": "37.1461166473037"
    },
    {
      "id": "pt.ine.add.PTCONT.1606160",
      "street": "R MARIA DOROTEIA",
      "house": "23",
      "postcode": "8400-048",
      "city": "ESTOMBAR",
      "lon": "-8.489058040889534",
      "lat": "37.14612660461341"
    },
    {
      "id": "pt.ine.add.PTCONT.1606271",
      "street": "R MARIA DOROTEIA",
      "house": "23",
      "postcode": "8400-048",
      "city": "ESTOMBAR",
      "lon": "-8.489058040889534",
      "lat": "37.14612660461341"
    },
    {
      "id": "pt.ine.add.PTCONT.1606272",
      "street": "R MARIA DOROTEIA",
      "house": "23",
      "postcode": "8400-048",
      "city": "ESTOMBAR",
      "lon": "-8.489058040889534",
      "lat": "37.14612660461341"
    },
    {
      "id": "pt.ine.add.PTCONT.1606273",
      "street": "R MARIA DOROTEIA",
      "house": "23",
      "postcode": "8400-048",
      "city": "ESTOMBAR",
      "lon": "-8.489058040889534",
      "lat": "37.14612660461341"
    },
    {
      "id": "pt.ine.add.PTCONT.1609100",
      "street": "R ARRAIS",
      "house": "",
      "postcode": "8400-065",
      "city": "ESTOMBAR",
      "lon": "-8.492566708546",
      "lat": "37.14782802066391"
    },
    {
      "id": "pt.ine.add.PTCONT.1625129",
      "street": "R 25 DE ABRIL",
      "house": "21 19",
      "postcode": "8400-035",
      "city": "ESTOMBAR",
      "lon": "-8.487744725474585",
      "lat": "37.14690544895523"
    },
    {
      "id": "pt.ine.add.PTCONT.1626112",
      "street": "R 25 DE ABRIL",
      "house": "21 19",
      "postcode": "8400-035",
      "city": "ESTOMBAR",
      "lon": "-8.487744725474585",
      "lat": "37.14690544895523"
    },
    {
      "id": "pt.ine.add.PTCONT.1626697",
      "street": "ESTR FONTES QTA DE OXALÁ",
      "house": "",
      "postcode": "8400-160",
      "city": "ESTOMBAR",
      "lon": "-8.485505532158026",
      "lat": "37.14949815587747"
    },
    {
      "id": "pt.ine.add.PTCONT.1628573",
      "street": "ESTR FONTES QTA DE OXALÁ",
      "house": "",
      "postcode": "8400-160",
      "city": "ESTOMBAR",
      "lon": "-8.485505532158026",
      "lat": "37.14949815587747"
    },
    {
      "id": "pt.ine.add.PTCONT.1639867",
      "street": "ESTR FONTES QTA DAS MELROAS",
      "house": "",
      "postcode": "8400-062",
      "city": "ESTOMBAR",
      "lon": "-8.485588682829407",
      "lat": "37.14801116773345"
    },
    {
      "id": "pt.ine.add.PTCONT.1639868",
      "street": "ESTR FONTES",
      "house": "12",
      "postcode": "8400-062",
      "city": "ESTOMBAR",
      "lon": "-8.485588682829407",
      "lat": "37.14801116773345"
    },
    {
      "id": "pt.ine.add.PTCONT.1639869",
      "street": "ESTR FONTES",
      "house": "2",
      "postcode": "8400-062",
      "city": "ESTOMBAR",
      "lon": "-8.485588682829407",
      "lat": "37.14801116773345"
    },
    {
      "id": "pt.ine.add.PTCONT.1640213",
      "street": "ESTR FONTES",
      "house": "8",
      "postcode": "8400-062",
      "city": "ESTOMBAR",
      "lon": "-8.485588682829407",
      "lat": "37.14801116773345"
    },
    {
      "id": "pt.ine.add.PTCONT.1643088",
      "street": "R ARRAIS",
      "house": "2",
      "postcode": "8400-065",
      "city": "ESTOMBAR",
      "lon": "-8.489665813954401",
      "lat": "37.146115767305275"
    },
    {
      "id": "pt.ine.add.PTCONT.1644103",
      "street": "R 25 DE ABRIL",
      "house": "7",
      "postcode": "8400-035",
      "city": "ESTOMBAR",
      "lon": "-8.487563578909368",
      "lat": "37.14668072698022"
    },
    {
      "id": "pt.ine.add.PTCONT.1644104",
      "street": "R 25 ABRIL",
      "house": "5",
      "postcode": "8400-035",
      "city": "ESTOMBAR",
      "lon": "-8.487563578909368",
      "lat": "37.14668072698022"
    },
    {
      "id": "pt.ine.add.PTCONT.1645852",
      "street": "R ESCOLA",
      "house": "8",
      "postcode": "8400-062",
      "city": "ESTOMBAR",
      "lon": "-8.48553751219673",
      "lat": "37.14668676860667"
    },
    {
      "id": "pt.ine.add.PTCONT.1650229",
      "street": "R JOÃO DE DEUS",
      "house": "52",
      "postcode": "8400-025",
      "city": "ESTOMBAR",
      "lon": "-8.486787171818406",
      "lat": "37.14673710960093"
    },
    {
      "id": "pt.ine.add.PTCONT.1663238",
      "street": "LG IGREJA",
      "house": "2",
      "postcode": "8400-049",
      "city": "ESTOMBAR",
      "lon": "-8.487585459978986",
      "lat": "37.14654550323941"
    },
    {
      "id": "pt.ine.add.PTCONT.1663239",
      "street": "R MARIA DOROTEIA",
      "house": "35",
      "postcode": "8400-048",
      "city": "ESTOMBAR",
      "lon": "-8.488371898170206",
      "lat": "37.14622777926868"
    },
    {
      "id": "pt.ine.add.PTCONT.1666122",
      "street": "R JOÃO DE DEUS",
      "house": "34",
      "postcode": "8400-025",
      "city": "ESTOMBAR",
      "lon": "-8.486472382945577",
      "lat": "37.146819143478574"
    },
    {
      "id": "pt.ine.add.PTCONT.1678969",
      "street": "BR ALVES",
      "house": "",
      "postcode": "8400-048",
      "city": "ESTOMBAR",
      "lon": "-8.489025497809632",
      "lat": "37.14638800839676"
    },
    {
      "id": "pt.ine.add.PTCONT.1682754",
      "street": "R MARIA DOROTEIA",
      "house": "15",
      "postcode": "8400-048",
      "city": "ESTOMBAR",
      "lon": "-8.48913683177299",
      "lat": "37.14612636797124"
    },
    {
      "id": "pt.ine.add.PTCONT.1682755",
      "street": "R ARRAIS",
      "house": "14",
      "postcode": "8400-065",
      "city": "ESTOMBAR",
      "lon": "-8.490310235805707",
      "lat": "37.146717534054126"
    },
    {
      "id": "pt.ine.add.PTCONT.1682756",
      "street": "R ARRAIS",
      "house": "14",
      "postcode": "8400-065",
      "city": "ESTOMBAR",
      "lon": "-8.490310235805707",
      "lat": "37.146717534054126"
    },
    {
      "id": "pt.ine.add.PTCONT.1682757",
      "street": "R ARRAIS",
      "house": "14",
      "postcode": "8400-065",
      "city": "ESTOMBAR",
      "lon": "-8.490310235805707",
      "lat": "37.146717534054126"
    },
    {
      "id": "pt.ine.add.PTCONT.1687287",
      "street": "R JOÃO DE DEUS",
      "house": "6",
      "postcode": "8400-025",
      "city": "ESTOMBAR",
      "lon": "-8.485481232557206",
      "lat": "37.14668693593527"
    },
    {
      "id": "pt.ine.add.PTCONT.1704225",
      "street": "R JOÃO DE DEUS",
      "house": "56",
      "postcode": "8400-025",
      "city": "ESTOMBAR",
      "lon": "-8.48698965267957",
      "lat": "37.14670947357525"
    },
    {
      "id": "pt.ine.add.PTCONT.1710042",
      "street": "ESTR FONTES",
      "house": "",
      "postcode": "8400-160",
      "city": "ESTOMBAR",
      "lon": "-8.483923983237798",
      "lat": "37.14827741265949"
    },
    {
      "id": "pt.ine.add.PTCONT.1716076",
      "street": "R 25 ABRIL",
      "house": "25",
      "postcode": "8400-035",
      "city": "ESTOMBAR",
      "lon": "-8.490106612698563",
      "lat": "37.14650189426245"
    },
    {
      "id": "pt.ine.add.PTCONT.1716078",
      "street": "R ARRAIS",
      "house": "",
      "postcode": "8400-065",
      "city": "ESTOMBAR",
      "lon": "-8.49586514863045",
      "lat": "37.150259829868766"
    },
    {
      "id": "pt.ine.add.PTCONT.1724356",
      "street": "R JOÃO DE DEUS",
      "house": "18",
      "postcode": "8400-025",
      "city": "ESTOMBAR",
      "lon": "-8.48592038115124",
      "lat": "37.14672167178067"
    },
    {
      "id": "pt.ine.add.PTCONT.1724360",
      "street": "SIT SITIO DO POMBAL",
      "house": "",
      "postcode": "8400-165",
      "city": "ESTOMBAR",
      "lon": "-8.490478948811374",
      "lat": "37.15147459537632"
    },
    {
      "id": "pt.ine.add.PTCONT.1724361",
      "street": "R MARIA DOROTEIA",
      "house": "7",
      "postcode": "8400-048",
      "city": "ESTOMBAR",
      "lon": "-8.489508232217625",
      "lat": "37.146116241240385"
    },
    {
      "id": "pt.ine.add.PTCONT.1727346",
      "street": "R JOÃO DE DEUS",
      "house": "22",
      "postcode": "8400-025",
      "city": "ESTOMBAR",
      "lon": "-8.485999256406588",
      "lat": "37.14673945807938"
    },
    {
      "id": "pt.ine.add.PTCONT.1735712",
      "street": "R 25 DE ABRIL",
      "house": "2",
      "postcode": "8400-035",
      "city": "ESTOMBAR",
      "lon": "-8.48734971634047",
      "lat": "37.146681366342314"
    },
    {
      "id": "pt.ine.add.PTCONT.1738779",
      "street": "SIT SITIO DO POMBAL",
      "house": "",
      "postcode": "8400-165",
      "city": "ESTOMBAR",
      "lon": "-8.487872983911474",
      "lat": "37.15026600046938"
    },
    {
      "id": "pt.ine.add.PTCONT.1742132",
      "street": "R JOÃO DE DEUS",
      "house": "28",
      "postcode": "8400-025",
      "city": "ESTOMBAR",
      "lon": "-8.486145792968129",
      "lat": "37.146784074474326"
    },
    {
      "id": "pt.ine.add.PTCONT.1748094",
      "street": "R MARIA DOROTEIA",
      "house": "25",
      "postcode": "8400-048",
      "city": "ESTOMBAR",
      "lon": "-8.488889287690736",
      "lat": "37.1461451323819"
    },
    {
      "id": "pt.ine.add.PTCONT.1748095",
      "street": "R ARRAIS",
      "house": "8",
      "postcode": "8400-065",
      "city": "ESTOMBAR",
      "lon": "-8.489970822269525",
      "lat": "37.14634912377338"
    },
    {
      "id": "pt.ine.add.PTCONT.1751068",
      "street": "R 25 DE ABRIL",
      "house": "54 56",
      "postcode": "8400-035",
      "city": "ESTOMBAR",
      "lon": "-8.487882532677022",
      "lat": "37.14749072247111"
    },
    {
      "id": "pt.ine.add.PTCONT.1753112",
      "street": "R 25 ABRIL",
      "house": "56",
      "postcode": "8400-035",
      "city": "ESTOMBAR",
      "lon": "-8.487882532677022",
      "lat": "37.14749072247111"
    },
    {
      "id": "pt.ine.add.PTCONT.1757222",
      "street": "R JOÃO DE DEUS",
      "house": "42",
      "postcode": "8400-025",
      "city": "ESTOMBAR",
      "lon": "-8.4866747383117",
      "lat": "37.14676447670396"
    },
    {
      "id": "pt.ine.add.PTCONT.1767369",
      "street": "BR ALVES",
      "house": "6",
      "postcode": "8400-049",
      "city": "ESTOMBAR",
      "lon": "-8.488822849780158",
      "lat": "37.14637960618571"
    },
    {
      "id": "pt.ine.add.PTCONT.1767370",
      "street": "R MARIA DOROTEIA",
      "house": "27",
      "postcode": "8400-048",
      "city": "ESTOMBAR",
      "lon": "-8.488731748066922",
      "lat": "37.14615461571232"
    },
    {
      "id": "pt.ine.add.PTCONT.1778493",
      "street": "R ARRAIS",
      "house": "",
      "postcode": "8400-065",
      "city": "ESTOMBAR",
      "lon": "-8.493138568202781",
      "lat": "37.149736521325806"
    },
    {
      "id": "pt.ine.add.PTCONT.1787430",
      "street": "R JOÃO DE DEUS",
      "house": "44",
      "postcode": "8400-025",
      "city": "ESTOMBAR",
      "lon": "-8.48673097605066",
      "lat": "37.14675529837996"
    },
    {
      "id": "pt.ine.add.PTCONT.1787449",
      "street": "R MARIA DOROTEIA",
      "house": "33",
      "postcode": "8400-048",
      "city": "ESTOMBAR",
      "lon": "-8.488450520548751",
      "lat": "37.146191501371774"
    },
    {
      "id": "pt.ine.add.PTCONT.1790098",
      "street": "R 25 DE ABRIL",
      "house": "29 A 29 B",
      "postcode": "8400-035",
      "city": "ESTOMBAR",
      "lon": "-8.487835656859504",
      "lat": "37.147094398462166"
    },
    {
      "id": "pt.ine.add.PTCONT.1792071",
      "street": "R 25 DE ABRIL",
      "house": "29 A 29 B",
      "postcode": "8400-035",
      "city": "ESTOMBAR",
      "lon": "-8.487835656859504",
      "lat": "37.147094398462166"
    },
    {
      "id": "pt.ine.add.PTCONT.1793279",
      "street": "R JOÃO DE DEUS",
      "house": "36",
      "postcode": "8400-025",
      "city": "ESTOMBAR",
      "lon": "-8.48651728095429",
      "lat": "37.146791977955274"
    },
    {
      "id": "pt.ine.add.PTCONT.1799225",
      "street": "SIT SITIO DO POMBAL",
      "house": "",
      "postcode": "8400-165",
      "city": "ESTOMBAR",
      "lon": "-8.491610849194132",
      "lat": "37.15040793260873"
    },
    {
      "id": "pt.ine.add.PTCONT.1810710",
      "street": "R 25 DE ABRIL",
      "house": "1",
      "postcode": "8400-035",
      "city": "ESTOMBAR",
      "lon": "-8.487529306592084",
      "lat": "37.1465727028237"
    },
    {
      "id": "pt.ine.add.PTCONT.1810711",
      "street": "LG IGREJA",
      "house": "1",
      "postcode": "8400-049",
      "city": "ESTOMBAR",
      "lon": "-8.487529306592084",
      "lat": "37.1465727028237"
    },
    {
      "id": "pt.ine.add.PTCONT.1813524",
      "street": "R JOÃO DE DEUS",
      "house": "",
      "postcode": "8400-025",
      "city": "ESTOMBAR",
      "lon": "-8.485809579171615",
      "lat": "37.147100444796465"
    },
    {
      "id": "pt.ine.add.PTCONT.1820784",
      "street": "R JOÃO DE DEUS",
      "house": "30",
      "postcode": "8400-025",
      "city": "ESTOMBAR",
      "lon": "-8.486224668339972",
      "lat": "37.14680186062225"
    },
    {
      "id": "pt.ine.add.PTCONT.1820785",
      "street": "R 25 ABRIL",
      "house": "",
      "postcode": "8400-035",
      "city": "ESTOMBAR",
      "lon": "-8.489791447425924",
      "lat": "37.14889964975821"
    },
    {
      "id": "pt.ine.add.PTCONT.1822159",
      "street": "R JOÃO DE DEUS",
      "house": "48",
      "postcode": "8400-025",
      "city": "ESTOMBAR",
      "lon": "-8.486776167621358",
      "lat": "37.14679120575768"
    },
    {
      "id": "pt.ine.add.PTCONT.1822162",
      "street": "LG IGREJA",
      "house": "5",
      "postcode": "8400-049",
      "city": "ESTOMBAR",
      "lon": "-8.487810283514767",
      "lat": "37.14648175677618"
    },
    {
      "id": "pt.ine.add.PTCONT.1825973",
      "street": "BR ALVES",
      "house": "2",
      "postcode": "8400-049",
      "city": "ESTOMBAR",
      "lon": "-8.488496724418292",
      "lat": "37.14644365835098"
    },
    {
      "id": "pt.ine.add.PTCONT.1826115",
      "street": "BR ALVES",
      "house": "2",
      "postcode": "8400-049",
      "city": "ESTOMBAR",
      "lon": "-8.488496724418292",
      "lat": "37.14644365835098"
    },
    {
      "id": "pt.ine.add.PTCONT.1827980",
      "street": "LG IGREJA",
      "house": "3",
      "postcode": "8400-049",
      "city": "ESTOMBAR",
      "lon": "-8.487697850761883",
      "lat": "37.146509124847"
    },
    {
      "id": "pt.ine.add.PTCONT.1831791",
      "street": "R JOÃO DE DEUS",
      "house": "60",
      "postcode": "8400-025",
      "city": "ESTOMBAR",
      "lon": "-8.487236989048302",
      "lat": "37.14664566098141"
    },
    {
      "id": "pt.ine.add.PTCONT.1831792",
      "street": "R 25 DE ABRIL",
      "house": "6",
      "postcode": "8400-035",
      "city": "ESTOMBAR",
      "lon": "-8.487406500334659",
      "lat": "37.14678932326011"
    },
    {
      "id": "pt.ine.add.PTCONT.1831883",
      "street": "R 25 DE ABRIL",
      "house": "6",
      "postcode": "8400-035",
      "city": "ESTOMBAR",
      "lon": "-8.487406500334659",
      "lat": "37.14678932326011"
    },
    {
      "id": "pt.ine.add.PTCONT.1833642",
      "street": "R 25 DE ABRIL",
      "house": "26 28",
      "postcode": "8400-035",
      "city": "ESTOMBAR",
      "lon": "-8.487610579201935",
      "lat": "37.14710408241438"
    },
    {
      "id": "pt.ine.add.PTCONT.1833648",
      "street": "R MARIA DOROTEIA",
      "house": "11",
      "postcode": "8400-048",
      "city": "ESTOMBAR",
      "lon": "-8.489238134336086",
      "lat": "37.14612606364007"
    },
    {
      "id": "pt.ine.add.PTCONT.1835385",
      "street": "R 25 DE ABRIL",
      "house": "26 28",
      "postcode": "8400-035",
      "city": "ESTOMBAR",
      "lon": "-8.487610579201935",
      "lat": "37.14710408241438"
    },
    {
      "id": "pt.ine.add.PTCONT.1836514",
      "street": "R JOÃO DE DEUS",
      "house": "54",
      "postcode": "8400-025",
      "city": "ESTOMBAR",
      "lon": "-8.486877177320142",
      "lat": "37.146727830441584"
    },
    {
      "id": "pt.ine.add.PTCONT.1843829",
      "street": "R JOÃO DE DEUS",
      "house": "2",
      "postcode": "8400-025",
      "city": "ESTOMBAR",
      "lon": "-8.485301137707602",
      "lat": "37.1466874712072"
    },
    {
      "id": "pt.ine.add.PTCONT.1844512",
      "street": "R ARRAIS",
      "house": "10",
      "postcode": "8400-065",
      "city": "ESTOMBAR",
      "lon": "-8.490038653901639",
      "lat": "37.14641199339966"
    },
    {
      "id": "pt.ine.add.PTCONT.1847424",
      "street": "R ARRAIS",
      "house": "",
      "postcode": "8400-065",
      "city": "ESTOMBAR",
      "lon": "-8.495896851883163",
      "lat": "37.149827226618065"
    },
    {
      "id": "pt.ine.add.PTCONT.1848584",
      "street": "R 25 DE ABRIL",
      "house": "38 40",
      "postcode": "8400-035",
      "city": "ESTOMBAR",
      "lon": "-8.487701426362415",
      "lat": "37.14727501116504"
    }
  ]
}