{
  "data": {
    "distrito": "Ã‰vora",
    "concelho": "Alandroal",
    "freguesia": "Santiago Maior",
    "OBJECTID": 169,
    "BGRI2021": "07010300256",
    "DT21": "07",
    "DTMN21": "0701",
    "DTMNFR21": "070103",
    "DTMNFRSEC21": "070103002",
    "SECNUM21": "002",
    "SSNUM21": "56",
    "SECSSNUM21": "00256",
    "OBJECTID_1": 58479,
    "DT": "07",
    "CC": "01",
    "fr": "03",
    "SEC": "002",
    "SS": "56"
  },
  "addresses": [
    {
      "id": "pt.ine.add.PTCONT.1369690",
      "street": "",
      "house": "",
      "postcode": "7200-017",
      "city": "SANTIAGO MAIOR",
      "lon": "-7.472053747709301",
      "lat": "38.59761012001945"
    },
    {
      "id": "pt.ine.add.PTCONT.1379763",
      "street": "MTE CENTRAL",
      "house": "",
      "postcode": "7200-017",
      "city": "SANTIAGO MAIOR",
      "lon": "-7.473680785560995",
      "lat": "38.59793458784168"
    },
    {
      "id": "pt.ine.add.PTCONT.1393791",
      "street": "",
      "house": "",
      "postcode": "7200-017",
      "city": "SANTIAGO MAIOR",
      "lon": "-7.472980779324725",
      "lat": "38.59916477011407"
    },
    {
      "id": "pt.ine.add.PTCONT.1396934",
      "street": "",
      "house": "",
      "postcode": "7200-017",
      "city": "SANTIAGO MAIOR",
      "lon": "-7.472483070925125",
      "lat": "38.598360228285785"
    },
    {
      "id": "pt.ine.add.PTCONT.1405337",
      "street": "ESTR PRINCIPAL",
      "house": "",
      "postcode": "7200-017",
      "city": "SANTIAGO MAIOR",
      "lon": "-7.472040864797058",
      "lat": "38.597763187331516"
    },
    {
      "id": "pt.ine.add.PTCONT.1406289",
      "street": "",
      "house": "",
      "postcode": "7200-017",
      "city": "SANTIAGO MAIOR",
      "lon": "-7.472046559538333",
      "lat": "38.59839379627877"
    },
    {
      "id": "pt.ine.add.PTCONT.1412282",
      "street": "",
      "house": "",
      "postcode": "7200-017",
      "city": "SANTIAGO MAIOR",
      "lon": "-7.4721398786633655",
      "lat": "38.596980029653814"
    },
    {
      "id": "pt.ine.add.PTCONT.1413113",
      "street": "SIT ORVALHOS",
      "house": "",
      "postcode": "7200-017",
      "city": "SANTIAGO MAIOR",
      "lon": "-7.473083072971484",
      "lat": "38.596769155179665"
    },
    {
      "id": "pt.ine.add.PTCONT.1414745",
      "street": "MTE MONTINHO",
      "house": "",
      "postcode": "7200-017",
      "city": "SANTIAGO MAIOR",
      "lon": "-7.474250555092708",
      "lat": "38.59713606353134"
    },
    {
      "id": "pt.ine.add.PTCONT.1420317",
      "street": "MTE MONTINHO",
      "house": "",
      "postcode": "7200-017",
      "city": "SANTIAGO MAIOR",
      "lon": "-7.47418119144463",
      "lat": "38.59718972244933"
    },
    {
      "id": "pt.ine.add.PTCONT.1425574",
      "street": "MTE MONTINHO",
      "house": "",
      "postcode": "7200-017",
      "city": "SANTIAGO MAIOR",
      "lon": "-7.474593256689705",
      "lat": "38.597318157259444"
    },
    {
      "id": "pt.ine.add.PTCONT.1426252",
      "street": "MTE CENTRAL",
      "house": "",
      "postcode": "7200-017",
      "city": "SANTIAGO MAIOR",
      "lon": "-7.473589617960798",
      "lat": "38.59786200816615"
    },
    {
      "id": "pt.ine.add.PTCONT.1428411",
      "street": "MTE ABAIXO",
      "house": "",
      "postcode": "7200-017",
      "city": "SANTIAGO MAIOR",
      "lon": "-7.476273997374898",
      "lat": "38.59804826211013"
    },
    {
      "id": "pt.ine.add.PTCONT.1446035",
      "street": "MTE CENTRAL",
      "house": "",
      "postcode": "7200-017",
      "city": "SANTIAGO MAIOR",
      "lon": "-7.47376162867407",
      "lat": "38.59788099390821"
    },
    {
      "id": "pt.ine.add.PTCONT.1446813",
      "street": "",
      "house": "",
      "postcode": "7200-017",
      "city": "SANTIAGO MAIOR",
      "lon": "-7.472394381447198",
      "lat": "38.59676526900116"
    },
    {
      "id": "pt.ine.add.PTCONT.1449865",
      "street": "",
      "house": "",
      "postcode": "7200-017",
      "city": "SANTIAGO MAIOR",
      "lon": "-7.47205911208149",
      "lat": "38.59827676007427"
    },
    {
      "id": "pt.ine.add.PTCONT.1452148",
      "street": "MTE CENTRAL",
      "house": "",
      "postcode": "7200-017",
      "city": "SANTIAGO MAIOR",
      "lon": "-7.473830910904099",
      "lat": "38.597836343030465"
    },
    {
      "id": "pt.ine.add.PTCONT.1462798",
      "street": "MTE CEBOLA",
      "house": "",
      "postcode": "7200-017",
      "city": "SANTIAGO MAIOR",
      "lon": "-7.472524032496457",
      "lat": "38.60015309889152"
    },
    {
      "id": "pt.ine.add.PTCONT.1464446",
      "street": "",
      "house": "",
      "postcode": "7200-017",
      "city": "SANTIAGO MAIOR",
      "lon": "-7.472597696153479",
      "lat": "38.60088318181942"
    }
  ]
}