{
  "data": {
    "distrito": "Leiria",
    "concelho": "Alcobaça",
    "freguesia": "União das freguesias de Pataias e Martingança",
    "OBJECTID": 717,
    "BGRI2021": "10012300211",
    "DT21": "10",
    "DTMN21": "1001",
    "DTMNFR21": "100123",
    "DTMNFRSEC21": "100123002",
    "SECNUM21": "002",
    "SSNUM21": "11",
    "SECSSNUM21": "00211",
    "OBJECTID_1": 83851,
    "DT": "10",
    "CC": "01",
    "fr": "23",
    "SEC": "002",
    "SS": "11"
  },
  "addresses": [
    {
      "id": "pt.ine.add.PTCONT.1984278",
      "street": "AV RAINHA STA ISABEL",
      "house": "7S",
      "postcode": "2445-204",
      "city": "PATAIAS",
      "lon": "-8.991070335787136",
      "lat": "39.6715650019152"
    },
    {
      "id": "pt.ine.add.PTCONT.1993339",
      "street": "AV RAINHA S ISABEL AVENIDA RAINHA SANTA ISABEL",
      "house": "83",
      "postcode": "2445-204",
      "city": "PATAIAS",
      "lon": "-8.99171869439432",
      "lat": "39.67121796226465"
    },
    {
      "id": "pt.ine.add.PTCONT.2015085",
      "street": "R ROSSIO ALONCA",
      "house": "4",
      "postcode": "2445-270",
      "city": "PATAIAS",
      "lon": "-8.99123125604917",
      "lat": "39.671383682506885"
    },
    {
      "id": "pt.ine.add.PTCONT.2015086",
      "street": "R INDEPENDENCIA",
      "house": "3 4 10",
      "postcode": "2445-291",
      "city": "PATAIAS",
      "lon": "-8.99123125604917",
      "lat": "39.671383682506885"
    },
    {
      "id": "pt.ine.add.PTCONT.2016840",
      "street": "R ROSSIO DA ALONCA",
      "house": "3 4 10",
      "postcode": "2445-270",
      "city": "PATAIAS",
      "lon": "-8.99123125604917",
      "lat": "39.671383682506885"
    },
    {
      "id": "pt.ine.add.PTCONT.2021309",
      "street": "AV RAINHA STA ISABEL",
      "house": "97",
      "postcode": "2445-204",
      "city": "PATAIAS",
      "lon": "-8.99256626973236",
      "lat": "39.67095951002388"
    },
    {
      "id": "pt.ine.add.PTCONT.2025864",
      "street": "AV RAINHA STA ISABEL",
      "house": "85",
      "postcode": "2445-204",
      "city": "PATAIAS",
      "lon": "-8.991974177620035",
      "lat": "39.67114402089624"
    },
    {
      "id": "pt.ine.add.PTCONT.2030346",
      "street": "AV RAINHA STA ISABEL",
      "house": "91",
      "postcode": "2445-204",
      "city": "PATAIAS",
      "lon": "-8.992252967096665",
      "lat": "39.67106990654716"
    },
    {
      "id": "pt.ine.add.PTCONT.2056906",
      "street": "AV PADRE FRANKLIM HENRIQUES CUNHA",
      "house": "5",
      "postcode": "2445-203",
      "city": "PATAIAS",
      "lon": "-8.992421965899196",
      "lat": "39.67060031701667"
    },
    {
      "id": "pt.ine.add.PTCONT.2061268",
      "street": "R ROSSIO DA ALONCA",
      "house": "18",
      "postcode": "2445-270",
      "city": "PATAIAS",
      "lon": "-8.99139117243881",
      "lat": "39.671121311595456"
    },
    {
      "id": "pt.ine.add.PTCONT.2063620",
      "street": "AV PADRE FRANKLIM HENRIQUES CUNHA",
      "house": "7",
      "postcode": "2445-203",
      "city": "PATAIAS",
      "lon": "-8.992470029811901",
      "lat": "39.67071704614448"
    },
    {
      "id": "pt.ine.add.PTCONT.2140099",
      "street": "AV RAINHA STA ISABEL",
      "house": "93",
      "postcode": "2445-204",
      "city": "PATAIAS",
      "lon": "-8.992403680265303",
      "lat": "39.67100574580821"
    },
    {
      "id": "pt.ine.add.PTCONT.2140100",
      "street": "AV RAINHA STA ISABEL",
      "house": "93",
      "postcode": "2445-204",
      "city": "PATAIAS",
      "lon": "-8.992403680265303",
      "lat": "39.67100574580821"
    },
    {
      "id": "pt.ine.add.PTCONT.2236267",
      "street": "AV PADRE FRANKLIM HENRIQUES CUNHA",
      "house": "9",
      "postcode": "2445-203",
      "city": "PATAIAS",
      "lon": "-8.992304093894981",
      "lat": "39.67049311088512"
    }
  ]
}