{
  "data": {
    "distrito": "Porto",
    "concelho": "Paços de Ferreira",
    "freguesia": "Figueiró",
    "OBJECTID": 246,
    "BGRI2021": "13090600109",
    "DT21": "13",
    "DTMN21": "1309",
    "DTMNFR21": "130906",
    "DTMNFRSEC21": "130906001",
    "SECNUM21": "001",
    "SSNUM21": "09",
    "SECSSNUM21": "00109",
    "OBJECTID_1": 133898,
    "DT": "13",
    "CC": "09",
    "fr": "06",
    "SEC": "001",
    "SS": "09"
  },
  "addresses": [
    {
      "id": "pt.ine.add.PTCONT.3574262",
      "street": "R CENTRAL ALMINHAS",
      "house": "195",
      "postcode": "4590-207",
      "city": "FIGUEIRÓ",
      "lon": "-8.340726248091173",
      "lat": "41.30200928056005"
    },
    {
      "id": "pt.ine.add.PTCONT.3574263",
      "street": "R CENTRAL ALMINHAS",
      "house": "195",
      "postcode": "4590-207",
      "city": "FIGUEIRÓ",
      "lon": "-8.340726248091173",
      "lat": "41.30200928056005"
    },
    {
      "id": "pt.ine.add.PTCONT.3593201",
      "street": "R CENTRAL DAS ALMINHAS",
      "house": "341",
      "postcode": "4590-207",
      "city": "FIGUEIRÓ",
      "lon": "-8.339587598161712",
      "lat": "41.304424441475774"
    },
    {
      "id": "pt.ine.add.PTCONT.3597754",
      "street": "R CENTRAL DAS ALMINHAS",
      "house": "341",
      "postcode": "4590-207",
      "city": "FIGUEIRÓ",
      "lon": "-8.339587598161712",
      "lat": "41.304424441475774"
    },
    {
      "id": "pt.ine.add.PTCONT.3689759",
      "street": "R BUSSACOS",
      "house": "68",
      "postcode": "4590-227",
      "city": "FIGUEIRÓ",
      "lon": "-8.341465366912391",
      "lat": "41.30163877478838"
    },
    {
      "id": "pt.ine.add.PTCONT.3703489",
      "street": "R IGREJA",
      "house": "77",
      "postcode": "4590-216",
      "city": "FIGUEIRÓ",
      "lon": "-8.34108418650987",
      "lat": "41.305682328261604"
    },
    {
      "id": "pt.ine.add.PTCONT.3703490",
      "street": "R CENTRAL DAS ALMINHAS",
      "house": "287",
      "postcode": "4590-207",
      "city": "FIGUEIRÓ",
      "lon": "-8.34013439113554",
      "lat": "41.30364009822807"
    },
    {
      "id": "pt.ine.add.PTCONT.3729670",
      "street": "R IGREJA",
      "house": "29",
      "postcode": "4590-216",
      "city": "FIGUEIRÓ",
      "lon": "-8.339948578058571",
      "lat": "41.305297195971804"
    },
    {
      "id": "pt.ine.add.PTCONT.3758202",
      "street": "R CENTRAL ALMINHAS",
      "house": "173",
      "postcode": "4590-207",
      "city": "FIGUEIRÓ",
      "lon": "-8.34009259058595",
      "lat": "41.30174930117948"
    },
    {
      "id": "pt.ine.add.PTCONT.3764674",
      "street": "R CENTRAL DAS ALMINHAS",
      "house": "351",
      "postcode": "4590-207",
      "city": "FIGUEIRÓ",
      "lon": "-8.339420911315589",
      "lat": "41.304577810902664"
    },
    {
      "id": "pt.ine.add.PTCONT.3815431",
      "street": "R BUSSACOS",
      "house": "12",
      "postcode": "4590-227",
      "city": "FIGUEIRÓ",
      "lon": "-8.340020095727112",
      "lat": "41.30147930685402"
    },
    {
      "id": "pt.ine.add.PTCONT.3836028",
      "street": "R IGREJA",
      "house": "17",
      "postcode": "4590-216",
      "city": "FIGUEIRÓ",
      "lon": "-8.339566358080404",
      "lat": "41.30526186553025"
    },
    {
      "id": "pt.ine.add.PTCONT.3858221",
      "street": "R BUSSACOS",
      "house": "78",
      "postcode": "4590-227",
      "city": "FIGUEIRÓ",
      "lon": "-8.341728193804059",
      "lat": "41.30168331954781"
    },
    {
      "id": "pt.ine.add.PTCONT.3864885",
      "street": "R CENTRAL DAS ALMINHAS",
      "house": "",
      "postcode": "4590-207",
      "city": "FIGUEIRÓ",
      "lon": "-8.34027696496331",
      "lat": "41.30341473792583"
    },
    {
      "id": "pt.ine.add.PTCONT.4006988",
      "street": "R CENTRAL DAS ALMINHAS",
      "house": "187",
      "postcode": "4590-207",
      "city": "FIGUEIRÓ",
      "lon": "-8.34052289340546",
      "lat": "41.30189259313694"
    },
    {
      "id": "pt.ine.add.PTCONT.4009691",
      "street": "R CENTRAL DAS ALMINHAS",
      "house": "187",
      "postcode": "4590-207",
      "city": "FIGUEIRÓ",
      "lon": "-8.34052289340546",
      "lat": "41.30189259313694"
    },
    {
      "id": "pt.ine.add.PTCONT.4009917",
      "street": "R CENTRAL DAS ALMINHAS",
      "house": "187",
      "postcode": "4590-207",
      "city": "FIGUEIRÓ",
      "lon": "-8.34052289340546",
      "lat": "41.30189259313694"
    },
    {
      "id": "pt.ine.add.PTCONT.4023689",
      "street": "R CENTRAL ALMINHAS",
      "house": "355",
      "postcode": "4590-207",
      "city": "FIGUEIRÓ",
      "lon": "-8.339600817058152",
      "lat": "41.30482960453325"
    },
    {
      "id": "pt.ine.add.PTCONT.4216364",
      "street": "LG NSA SRA DE TODO-O-MUNDO",
      "house": "3",
      "postcode": "4590-203",
      "city": "FIGUEIRÓ",
      "lon": "-8.341205570720986",
      "lat": "41.306303395114135"
    },
    {
      "id": "pt.ine.add.PTCONT.4320397",
      "street": "R CENTRAL DAS ALMINHAS",
      "house": "303",
      "postcode": "4590-207",
      "city": "FIGUEIRÓ",
      "lon": "-8.339955710107576",
      "lat": "41.30377548171541"
    },
    {
      "id": "pt.ine.add.PTCONT.4320398",
      "street": "R CENTRAL ALMINHAS",
      "house": "291",
      "postcode": "4590-207",
      "city": "FIGUEIRÓ",
      "lon": "-8.339955710107576",
      "lat": "41.30377548171541"
    },
    {
      "id": "pt.ine.add.PTCONT.4320399",
      "street": "R CENTRAL DAS ALMINHAS",
      "house": "303",
      "postcode": "4590-207",
      "city": "FIGUEIRÓ",
      "lon": "-8.339955710107576",
      "lat": "41.30377548171541"
    },
    {
      "id": "pt.ine.add.PTCONT.4325222",
      "street": "R CENTRAL ALMINHAS",
      "house": "299",
      "postcode": "4590-207",
      "city": "FIGUEIRÓ",
      "lon": "-8.339955710107576",
      "lat": "41.30377548171541"
    },
    {
      "id": "pt.ine.add.PTCONT.4328923",
      "street": "R CENTRAL DAS ALMINHAS",
      "house": "285",
      "postcode": "4590-207",
      "city": "FIGUEIRÓ",
      "lon": "-8.340277392420175",
      "lat": "41.30354979943907"
    },
    {
      "id": "pt.ine.add.PTCONT.4352415",
      "street": "R IGREJA",
      "house": "7",
      "postcode": "4590-216",
      "city": "FIGUEIRÓ",
      "lon": "-8.339267922711363",
      "lat": "41.305289412843194"
    },
    {
      "id": "pt.ine.add.PTCONT.4352414",
      "street": "R IGREJA",
      "house": "7",
      "postcode": "4590-216",
      "city": "FIGUEIRÓ",
      "lon": "-8.339267922711363",
      "lat": "41.305289412843194"
    }
  ]
}