{
  "data": {
    "distrito": "Porto",
    "concelho": "Paços de Ferreira",
    "freguesia": "Figueiró",
    "OBJECTID": 34,
    "BGRI2021": "13090600117",
    "DT21": "13",
    "DTMN21": "1309",
    "DTMNFR21": "130906",
    "DTMNFRSEC21": "130906001",
    "SECNUM21": "001",
    "SSNUM21": "17",
    "SECSSNUM21": "00117",
    "OBJECTID_1": 134268,
    "DT": "13",
    "CC": "09",
    "fr": "06",
    "SEC": "001",
    "SS": "17"
  },
  "addresses": [
    {
      "id": "pt.ine.add.PTCONT.3716228",
      "street": "R JOSE MARIA CARNEIRO LEÃO",
      "house": "6",
      "postcode": "4590-247",
      "city": "FIGUEIRÓ",
      "lon": "-8.34522212528446",
      "lat": "41.30764668596494"
    },
    {
      "id": "pt.ine.add.PTCONT.3753220",
      "street": "R S TIAGO DE FIGUEIRO",
      "house": "43",
      "postcode": "4590-235",
      "city": "FIGUEIRÓ",
      "lon": "-8.344219931670684",
      "lat": "41.307918652676115"
    },
    {
      "id": "pt.ine.add.PTCONT.3796656",
      "street": "LG FIGUEIRO",
      "house": "31",
      "postcode": "4590-202",
      "city": "FIGUEIRÓ",
      "lon": "-8.345437330657834",
      "lat": "41.30772732651631"
    },
    {
      "id": "pt.ine.add.PTCONT.3819692",
      "street": "R COSTEIRA",
      "house": "43",
      "postcode": "4590-210",
      "city": "FIGUEIRÓ",
      "lon": "-8.343289377791939",
      "lat": "41.30819047986945"
    },
    {
      "id": "pt.ine.add.PTCONT.3819693",
      "street": "R COSTEIRA",
      "house": "43",
      "postcode": "4590-210",
      "city": "FIGUEIRÓ",
      "lon": "-8.343289377791939",
      "lat": "41.30819047986945"
    },
    {
      "id": "pt.ine.add.PTCONT.3872893",
      "street": "R S TIAGO DE FIGUEIRO",
      "house": "35",
      "postcode": "4590-235",
      "city": "FIGUEIRÓ",
      "lon": "-8.344374412861598",
      "lat": "41.30768426148572"
    },
    {
      "id": "pt.ine.add.PTCONT.3876273",
      "street": "R ENG LUIS CARNEIRO LEÃO",
      "house": "4",
      "postcode": "4590-244",
      "city": "FIGUEIRÓ",
      "lon": "-8.345414324377453",
      "lat": "41.307997493297634"
    },
    {
      "id": "pt.ine.add.PTCONT.3933974",
      "street": "R COSTEIRA",
      "house": "43",
      "postcode": "4590-210",
      "city": "FIGUEIRÓ",
      "lon": "-8.34352863901316",
      "lat": "41.30832510492223"
    },
    {
      "id": "pt.ine.add.PTCONT.3954608",
      "street": "R S TIAGO DE FIGUEIRO",
      "house": "27",
      "postcode": "4590-235",
      "city": "FIGUEIRÓ",
      "lon": "-8.344553560791173",
      "lat": "41.30769293669887"
    },
    {
      "id": "pt.ine.add.PTCONT.3958361",
      "street": "R TONINHO DE CASTRO",
      "house": "36",
      "postcode": "4590-256",
      "city": "FIGUEIRÓ",
      "lon": "-8.34479375471233",
      "lat": "41.30811569005336"
    },
    {
      "id": "pt.ine.add.PTCONT.3974305",
      "street": "R ENG LUIS CARNEIRO LEÃO",
      "house": "14",
      "postcode": "4590-244",
      "city": "FIGUEIRÓ",
      "lon": "-8.34509202559298",
      "lat": "41.308034103857146"
    },
    {
      "id": "pt.ine.add.PTCONT.4016365",
      "street": "VLA D ANINHAS BARROS",
      "house": "23",
      "postcode": "4590-271",
      "city": "FIGUEIRÓ",
      "lon": "-8.34385012830703",
      "lat": "41.30803638417489"
    },
    {
      "id": "pt.ine.add.PTCONT.4065700",
      "street": "R ENG LUIS CARNEIRO LEAO",
      "house": "60",
      "postcode": "4590-244",
      "city": "FIGUEIRÓ",
      "lon": "-8.344138084550973",
      "lat": "41.308459051422524"
    },
    {
      "id": "pt.ine.add.PTCONT.4148668",
      "street": "R ENG LUIS CARNEIRO LEÃO",
      "house": "32",
      "postcode": "4590-244",
      "city": "FIGUEIRÓ",
      "lon": "-8.344674690648308",
      "lat": "41.308223958679726"
    },
    {
      "id": "pt.ine.add.PTCONT.4222700",
      "street": "R TONINHO DE CASTRO",
      "house": "16",
      "postcode": "4590-256",
      "city": "FIGUEIRÓ",
      "lon": "-8.344673526384023",
      "lat": "41.30786379503207"
    },
    {
      "id": "pt.ine.add.PTCONT.4245520",
      "street": "R COSTEIRA",
      "house": "53",
      "postcode": "4590-210",
      "city": "FIGUEIRÓ",
      "lon": "-8.343684224518615",
      "lat": "41.30843287014205"
    },
    {
      "id": "pt.ine.add.PTCONT.4320235",
      "street": "R ENG LUIS CARNEIRO LEÃO",
      "house": "48",
      "postcode": "4590-244",
      "city": "FIGUEIRÓ",
      "lon": "-8.344436183373977",
      "lat": "41.308323442379354"
    },
    {
      "id": "pt.ine.add.PTCONT.4348010",
      "street": "R ENG LUIS CARNEIRO LEÃO",
      "house": "54",
      "postcode": "4590-244",
      "city": "FIGUEIRÓ",
      "lon": "-8.34428126510981",
      "lat": "41.30842277226888"
    },
    {
      "id": "pt.ine.add.PTCONT.4377030",
      "street": "R S TIAGO DE FIGUEIRO",
      "house": "7",
      "postcode": "4590-235",
      "city": "FIGUEIRÓ",
      "lon": "-8.344923302661147",
      "lat": "41.30755719475733"
    },
    {
      "id": "pt.ine.add.PTCONT.4380605",
      "street": "R S TIAGO DE FIGUEIRO",
      "house": "45",
      "postcode": "4590-235",
      "city": "FIGUEIRÓ",
      "lon": "-8.344064230422324",
      "lat": "41.30777487180218"
    },
    {
      "id": "pt.ine.add.PTCONT.4385710",
      "street": "R TONINHO DE CASTRO",
      "house": "28",
      "postcode": "4590-256",
      "city": "FIGUEIRÓ",
      "lon": "-8.344793230497928",
      "lat": "41.307953616412895"
    }
  ]
}