{
  "data": {
    "distrito": "Vila Real",
    "concelho": "Alijó",
    "freguesia": "Pinhão",
    "OBJECTID": 327,
    "BGRI2021": "17010900103",
    "DT21": "17",
    "DTMN21": "1701",
    "DTMNFR21": "170109",
    "DTMNFRSEC21": "170109001",
    "SECNUM21": "001",
    "SSNUM21": "03",
    "SECSSNUM21": "00103",
    "OBJECTID_1": 179614,
    "DT": "17",
    "CC": "01",
    "fr": "09",
    "SEC": "001",
    "SS": "03"
  },
  "addresses": [
    {
      "id": "pt.ine.add.PTCONT.5331810",
      "street": "LG VIDEIRA",
      "house": "",
      "postcode": "5085-035",
      "city": "PINHÃO",
      "lon": "-7.541862446762104",
      "lat": "41.189440390021794"
    },
    {
      "id": "pt.ine.add.PTCONT.5331827",
      "street": "LG VIDEIRA",
      "house": "",
      "postcode": "5085-035",
      "city": "PINHÃO",
      "lon": "-7.541862446762104",
      "lat": "41.189440390021794"
    },
    {
      "id": "pt.ine.add.PTCONT.5331828",
      "street": "LG VIDEIRA",
      "house": "",
      "postcode": "5085-035",
      "city": "PINHÃO",
      "lon": "-7.541862446762104",
      "lat": "41.189440390021794"
    },
    {
      "id": "pt.ine.add.PTCONT.5331829",
      "street": "LG VIDEIRA",
      "house": "",
      "postcode": "5085-035",
      "city": "PINHÃO",
      "lon": "-7.541862446762104",
      "lat": "41.189440390021794"
    },
    {
      "id": "pt.ine.add.PTCONT.5331830",
      "street": "LG VIDEIRA",
      "house": "",
      "postcode": "5085-035",
      "city": "PINHÃO",
      "lon": "-7.541862446762104",
      "lat": "41.189440390021794"
    },
    {
      "id": "pt.ine.add.PTCONT.5331831",
      "street": "LG VIDEIRA",
      "house": "",
      "postcode": "5085-035",
      "city": "PINHÃO",
      "lon": "-7.541862446762104",
      "lat": "41.189440390021794"
    },
    {
      "id": "pt.ine.add.PTCONT.5343119",
      "street": "R ANTÓNIO MANUEL SARAIVA",
      "house": "20",
      "postcode": "5085-037",
      "city": "PINHÃO",
      "lon": "-7.5477145029158015",
      "lat": "41.190838933852255"
    },
    {
      "id": "pt.ine.add.PTCONT.5369125",
      "street": "LG VIDEIRA",
      "house": "",
      "postcode": "5085-035",
      "city": "PINHÃO",
      "lon": "-7.541719740549835",
      "lat": "41.18940364022292"
    },
    {
      "id": "pt.ine.add.PTCONT.5369126",
      "street": "LG VIDEIRA",
      "house": "",
      "postcode": "5085-035",
      "city": "PINHÃO",
      "lon": "-7.541719740549835",
      "lat": "41.18940364022292"
    },
    {
      "id": "pt.ine.add.PTCONT.5369127",
      "street": "LG VIDEIRA",
      "house": "2 BL",
      "postcode": "5085-035",
      "city": "PINHÃO",
      "lon": "-7.541719740549835",
      "lat": "41.18940364022292"
    },
    {
      "id": "pt.ine.add.PTCONT.5369128",
      "street": "LG VIDEIRA",
      "house": "",
      "postcode": "5085-035",
      "city": "PINHÃO",
      "lon": "-7.541719740549835",
      "lat": "41.18940364022292"
    },
    {
      "id": "pt.ine.add.PTCONT.5369129",
      "street": "LG VIDEIRA",
      "house": "",
      "postcode": "5085-035",
      "city": "PINHÃO",
      "lon": "-7.541719740549835",
      "lat": "41.18940364022292"
    },
    {
      "id": "pt.ine.add.PTCONT.5402695",
      "street": "BR CP",
      "house": "2",
      "postcode": "5085-037",
      "city": "PINHÃO",
      "lon": "-7.542421111227434",
      "lat": "41.18961433790296"
    },
    {
      "id": "pt.ine.add.PTCONT.5402696",
      "street": "BR CP",
      "house": "2",
      "postcode": "5085-037",
      "city": "PINHÃO",
      "lon": "-7.542421111227434",
      "lat": "41.18961433790296"
    },
    {
      "id": "pt.ine.add.PTCONT.5402697",
      "street": "BR CP",
      "house": "2",
      "postcode": "5085-037",
      "city": "PINHÃO",
      "lon": "-7.542421111227434",
      "lat": "41.18961433790296"
    },
    {
      "id": "pt.ine.add.PTCONT.5402698",
      "street": "BR CP",
      "house": "2",
      "postcode": "5085-037",
      "city": "PINHÃO",
      "lon": "-7.542421111227434",
      "lat": "41.18961433790296"
    },
    {
      "id": "pt.ine.add.PTCONT.5414761",
      "street": "BR CP",
      "house": "",
      "postcode": "5085-037",
      "city": "PINHÃO",
      "lon": "-7.54258765676146",
      "lat": "41.18965120906958"
    },
    {
      "id": "pt.ine.add.PTCONT.5414812",
      "street": "BR CP",
      "house": "",
      "postcode": "5085-037",
      "city": "PINHÃO",
      "lon": "-7.54258765676146",
      "lat": "41.18965120906958"
    },
    {
      "id": "pt.ine.add.PTCONT.5414813",
      "street": "BR REFER",
      "house": "1",
      "postcode": "5085-037",
      "city": "PINHÃO",
      "lon": "-7.54258765676146",
      "lat": "41.18965120906958"
    },
    {
      "id": "pt.ine.add.PTCONT.5414814",
      "street": "BR REFER",
      "house": "",
      "postcode": "5085-037",
      "city": "PINHÃO",
      "lon": "-7.54258765676146",
      "lat": "41.18965120906958"
    },
    {
      "id": "pt.ine.add.PTCONT.5425765",
      "street": "LG VIDEIRA",
      "house": "",
      "postcode": "5085-035",
      "city": "PINHÃO",
      "lon": "-7.541719740549835",
      "lat": "41.18940364022292"
    }
  ]
}