{
  "data": {
    "distrito": "Setúbal",
    "concelho": "Grândola",
    "freguesia": "Azinheira dos Barros e São Mamede do Sádão",
    "OBJECTID": 14,
    "BGRI2021": "15050100133",
    "DT21": "15",
    "DTMN21": "1505",
    "DTMNFR21": "150501",
    "DTMNFRSEC21": "150501001",
    "SECNUM21": "001",
    "SSNUM21": "33",
    "SECSSNUM21": "00133",
    "OBJECTID_1": 163226,
    "DT": "15",
    "CC": "05",
    "fr": "01",
    "SEC": "001",
    "SS": "33"
  },
  "addresses": [
    {
      "id": "pt.ine.add.PTCONT.4682331",
      "street": "MTE VISO",
      "house": "",
      "postcode": "7570-004",
      "city": "",
      "lon": "-8.509849692462474",
      "lat": "38.06601719443547"
    },
    {
      "id": "pt.ine.add.PTCONT.4697253",
      "street": "MTE BRONHEIRAS DE BAIXO",
      "house": "",
      "postcode": "7570-004",
      "city": "",
      "lon": "-8.470987457449027",
      "lat": "38.073840741751575"
    },
    {
      "id": "pt.ine.add.PTCONT.4706002",
      "street": "MTE COURELA DOS PEREIROS",
      "house": "",
      "postcode": "7570-004",
      "city": "",
      "lon": "-8.490118366516795",
      "lat": "38.07067816514714"
    },
    {
      "id": "pt.ine.add.PTCONT.4708235",
      "street": "MTE ZAMBUJEIRO",
      "house": "",
      "postcode": "7570-004",
      "city": "",
      "lon": "-8.505214325936375",
      "lat": "38.070814715839006"
    },
    {
      "id": "pt.ine.add.PTCONT.4787431",
      "street": "MTE MOITINHA",
      "house": "",
      "postcode": "7570-004",
      "city": "",
      "lon": "-8.467779369302688",
      "lat": "38.07066081501179"
    },
    {
      "id": "pt.ine.add.PTCONT.4836740",
      "street": "MTE CABACINHO BAIXO",
      "house": "",
      "postcode": "7570-004",
      "city": "",
      "lon": "-8.480672910597514",
      "lat": "38.0739321755963"
    },
    {
      "id": "pt.ine.add.PTCONT.4844162",
      "street": "MTE COURELA DOS PEREIROS",
      "house": "",
      "postcode": "7570-004",
      "city": "",
      "lon": "-8.494289225710725",
      "lat": "38.06866731378422"
    },
    {
      "id": "pt.ine.add.PTCONT.4858178",
      "street": "MTE VISO",
      "house": "",
      "postcode": "7570-004",
      "city": "",
      "lon": "-8.509194388479097",
      "lat": "38.0659879745157"
    },
    {
      "id": "pt.ine.add.PTCONT.4883290",
      "street": "MTE VALE JUNCO",
      "house": "",
      "postcode": "7570-004",
      "city": "",
      "lon": "-8.498396457884558",
      "lat": "38.06174109427886"
    },
    {
      "id": "pt.ine.add.PTCONT.4921443",
      "street": "MTE CABACINHO BAIXO",
      "house": "",
      "postcode": "7570-004",
      "city": "",
      "lon": "-8.479630270709125",
      "lat": "38.07255477613916"
    },
    {
      "id": "pt.ine.add.PTCONT.4980160",
      "street": "MTE CABACINHO BAIXO",
      "house": "",
      "postcode": "7570-004",
      "city": "",
      "lon": "-8.479527275095304",
      "lat": "38.07261137068628"
    },
    {
      "id": "pt.ine.add.PTCONT.4987428",
      "street": "MTE COURELA DOS PEREIROS",
      "house": "",
      "postcode": "7570-004",
      "city": "",
      "lon": "-8.494045914656683",
      "lat": "38.06941280943726"
    },
    {
      "id": "pt.ine.add.PTCONT.5044089",
      "street": "MTE BRONHEIRAS DE CIMA",
      "house": "",
      "postcode": "7570-004",
      "city": "",
      "lon": "-8.472222219276622",
      "lat": "38.07519555343662"
    },
    {
      "id": "pt.ine.add.PTCONT.5046004",
      "street": "MTE VALE JUNCO",
      "house": "",
      "postcode": "7570-004",
      "city": "",
      "lon": "-8.499613019131365",
      "lat": "38.06186502199052"
    },
    {
      "id": "pt.ine.add.PTCONT.5085816",
      "street": "MTE VALE JUNCO",
      "house": "",
      "postcode": "7570-004",
      "city": "",
      "lon": "-8.502648018247744",
      "lat": "38.058228184200566"
    },
    {
      "id": "pt.ine.add.PTCONT.5126306",
      "street": "MTE VALE DE EGUA",
      "house": "",
      "postcode": "7570-004",
      "city": "",
      "lon": "-8.510069479740087",
      "lat": "38.07083007647612"
    }
  ]
}