{
  "data": {
    "distrito": "Braga",
    "concelho": "Vila Verde",
    "freguesia": "Pico",
    "OBJECTID": 926,
    "BGRI2021": "03133500118",
    "DT21": "03",
    "DTMN21": "0313",
    "DTMNFR21": "031335",
    "DTMNFRSEC21": "031335001",
    "SECNUM21": "001",
    "SSNUM21": "18",
    "SECSSNUM21": "00118",
    "OBJECTID_1": 31838,
    "DT": "03",
    "CC": "13",
    "fr": "35",
    "SEC": "001",
    "SS": "18"
  },
  "addresses": [
    {
      "id": "pt.ine.add.PTCONT.464254",
      "street": "",
      "house": "",
      "postcode": "4730-380",
      "city": "PICO",
      "lon": "-8.416318115963438",
      "lat": "41.700123809853515"
    },
    {
      "id": "pt.ine.add.PTCONT.488095",
      "street": "SIT LOUREDA",
      "house": "209",
      "postcode": "4730-380",
      "city": "PICO",
      "lon": "-8.418156489739534",
      "lat": "41.705629418676956"
    },
    {
      "id": "pt.ine.add.PTCONT.488096",
      "street": "SIT LOUREDA",
      "house": "209",
      "postcode": "4730-380",
      "city": "PICO",
      "lon": "-8.418156489739534",
      "lat": "41.705629418676956"
    },
    {
      "id": "pt.ine.add.PTCONT.490927",
      "street": "",
      "house": "",
      "postcode": "4730-380",
      "city": "PICO",
      "lon": "-8.416797287371876",
      "lat": "41.702544575428895"
    },
    {
      "id": "pt.ine.add.PTCONT.527038",
      "street": "LOUREDA",
      "house": "",
      "postcode": "4730-381",
      "city": "PICO",
      "lon": "-8.41762769156391",
      "lat": "41.705594715024276"
    },
    {
      "id": "pt.ine.add.PTCONT.533569",
      "street": "SIT COTO",
      "house": "179",
      "postcode": "4730-380",
      "city": "PICO",
      "lon": "-8.4162918374848",
      "lat": "41.69961067372258"
    },
    {
      "id": "pt.ine.add.PTCONT.575881",
      "street": "SIT CASAS NOVAS",
      "house": "120",
      "postcode": "4730-380",
      "city": "PICO",
      "lon": "-8.413918312380039",
      "lat": "41.700795959471385"
    },
    {
      "id": "pt.ine.add.PTCONT.579519",
      "street": "SIT CASAS NOVAS",
      "house": "122",
      "postcode": "4730-380",
      "city": "PICO",
      "lon": "-8.413862317039843",
      "lat": "41.70173246260587"
    },
    {
      "id": "pt.ine.add.PTCONT.614207",
      "street": "SEM DESIGNACAO",
      "house": "209A",
      "postcode": "4730-380",
      "city": "PICO",
      "lon": "-8.417724641616138",
      "lat": "41.705783548772274"
    },
    {
      "id": "pt.ine.add.PTCONT.617896",
      "street": "SIT VENDA",
      "house": "115",
      "postcode": "4730-380",
      "city": "PICO",
      "lon": "-8.4147417927879",
      "lat": "41.69954245454154"
    },
    {
      "id": "pt.ine.add.PTCONT.624146",
      "street": "",
      "house": "",
      "postcode": "4730-380",
      "city": "PICO",
      "lon": "-8.41627116783775",
      "lat": "41.70037602420454"
    },
    {
      "id": "pt.ine.add.PTCONT.630124",
      "street": "SIT LOUREDA",
      "house": "199",
      "postcode": "4730-380",
      "city": "PICO",
      "lon": "-8.416652487017027",
      "lat": "41.702400876458384"
    },
    {
      "id": "pt.ine.add.PTCONT.656278",
      "street": "SIT LOUREDA",
      "house": "211",
      "postcode": "4730-380",
      "city": "PICO",
      "lon": "-8.418229571367265",
      "lat": "41.70585432525649"
    },
    {
      "id": "pt.ine.add.PTCONT.691831",
      "street": "",
      "house": "",
      "postcode": "4730-380",
      "city": "PICO",
      "lon": "-8.416575349032344",
      "lat": "41.70398568611268"
    },
    {
      "id": "pt.ine.add.PTCONT.700212",
      "street": "SIT LOUREDA",
      "house": "205",
      "postcode": "4730-380",
      "city": "PICO",
      "lon": "-8.416518875751237",
      "lat": "41.704805145462736"
    },
    {
      "id": "pt.ine.add.PTCONT.738896",
      "street": "SIT COTO",
      "house": "181",
      "postcode": "4730-380",
      "city": "PICO",
      "lon": "-8.416434536252732",
      "lat": "41.699277191584905"
    },
    {
      "id": "pt.ine.add.PTCONT.741947",
      "street": "SIT CASAS NOVAS",
      "house": "126",
      "postcode": "4730-380",
      "city": "PICO",
      "lon": "-8.414259831673292",
      "lat": "41.701974585874375"
    },
    {
      "id": "pt.ine.add.PTCONT.772123",
      "street": "",
      "house": "",
      "postcode": "4730-380",
      "city": "PICO",
      "lon": "-8.416300251139756",
      "lat": "41.70152840343832"
    },
    {
      "id": "pt.ine.add.PTCONT.781202",
      "street": "CASA QTA CASAS NOVAS",
      "house": "124",
      "postcode": "4730-380",
      "city": "PICO",
      "lon": "-8.414042406631392",
      "lat": "41.701705011943886"
    },
    {
      "id": "pt.ine.add.PTCONT.792796",
      "street": "",
      "house": "",
      "postcode": "4730-380",
      "city": "PICO",
      "lon": "-8.414765042200669",
      "lat": "41.70211740513084"
    },
    {
      "id": "pt.ine.add.PTCONT.814218",
      "street": "SIT LOUREDA",
      "house": "207",
      "postcode": "4730-380",
      "city": "PICO",
      "lon": "-8.416700238774391",
      "lat": "41.705065800028926"
    },
    {
      "id": "pt.ine.add.PTCONT.817252",
      "street": "SIT LOUREDA",
      "house": "203",
      "postcode": "4730-380",
      "city": "PICO",
      "lon": "-8.417339660056175",
      "lat": "41.70293939015341"
    },
    {
      "id": "pt.ine.add.PTCONT.840107",
      "street": "SIT COTO",
      "house": "195",
      "postcode": "4730-380",
      "city": "PICO",
      "lon": "-8.416140005695265",
      "lat": "41.70060143538856"
    },
    {
      "id": "pt.ine.add.PTCONT.843519",
      "street": "SIT CASAS NOVAS",
      "house": "118",
      "postcode": "4730-380",
      "city": "PICO",
      "lon": "-8.414037429906912",
      "lat": "41.70056157674559"
    }
  ]
}