{
  "data": {
    "distrito": "Santar√©m",
    "concelho": "Tomar",
    "freguesia": "Carregueiros",
    "OBJECTID": 981,
    "BGRI2021": "14180400115",
    "DT21": "14",
    "DTMN21": "1418",
    "DTMNFR21": "141804",
    "DTMNFRSEC21": "141804001",
    "SECNUM21": "001",
    "SSNUM21": "15",
    "SECSSNUM21": "00115",
    "OBJECTID_1": 155607,
    "DT": "14",
    "CC": "18",
    "fr": "04",
    "SEC": "001",
    "SS": "15"
  },
  "addresses": [
    {
      "id": "pt.ine.add.PTCONT.4394528",
      "street": "R JOSEFA BALBINA FERREIRA",
      "house": "3A",
      "postcode": "2305-204",
      "city": "CARREGUEIROS",
      "lon": "-8.441876672091457",
      "lat": "39.623976170817734"
    },
    {
      "id": "pt.ine.add.PTCONT.4407078",
      "street": "R JOSEFA BALBINA FERREIRA",
      "house": "5",
      "postcode": "2305-204",
      "city": "CARREGUEIROS",
      "lon": "-8.442202778061318",
      "lat": "39.623975303630026"
    },
    {
      "id": "pt.ine.add.PTCONT.4407088",
      "street": "R AMOREIRA",
      "house": "45",
      "postcode": "2305-204",
      "city": "CARREGUEIROS",
      "lon": "-8.44162881297516",
      "lat": "39.62323827496683"
    },
    {
      "id": "pt.ine.add.PTCONT.4464691",
      "street": "R ZS DE ABRIL",
      "house": "77",
      "postcode": "2305-204",
      "city": "CARREGUEIROS",
      "lon": "-8.441596472821352",
      "lat": "39.62382380027948"
    },
    {
      "id": "pt.ine.add.PTCONT.4492448",
      "street": "R ZS DE ABRIL",
      "house": "79",
      "postcode": "2305-204",
      "city": "CARREGUEIROS",
      "lon": "-8.441608359395833",
      "lat": "39.62387780927524"
    },
    {
      "id": "pt.ine.add.PTCONT.4494195",
      "street": "R 25 DE ABRIL",
      "house": "99",
      "postcode": "2305-204",
      "city": "CARREGUEIROS",
      "lon": "-8.441668392567822",
      "lat": "39.624282954024864"
    },
    {
      "id": "pt.ine.add.PTCONT.4494196",
      "street": "R 25 DE ABRIL",
      "house": "99",
      "postcode": "2305-204",
      "city": "CARREGUEIROS",
      "lon": "-8.441668392567822",
      "lat": "39.624282954024864"
    },
    {
      "id": "pt.ine.add.PTCONT.4496336",
      "street": "R ZS DE ABRIL",
      "house": "87",
      "postcode": "2305-204",
      "city": "CARREGUEIROS",
      "lon": "-8.441690365820412",
      "lat": "39.623985672596106"
    },
    {
      "id": "pt.ine.add.PTCONT.4509998",
      "street": "R ZS DE ABRIL",
      "house": "55",
      "postcode": "2305-204",
      "city": "CARREGUEIROS",
      "lon": "-8.441559813552677",
      "lat": "39.62343660692375"
    },
    {
      "id": "pt.ine.add.PTCONT.4518785",
      "street": "TV COURELAS",
      "house": "9",
      "postcode": "2305-204",
      "city": "CARREGUEIROS",
      "lon": "-8.442351939397621",
      "lat": "39.62347052810757"
    },
    {
      "id": "pt.ine.add.PTCONT.4522930",
      "street": "R AMOREIRA",
      "house": "49",
      "postcode": "2305-204",
      "city": "CARREGUEIROS",
      "lon": "-8.441559173777632",
      "lat": "39.623292500450184"
    },
    {
      "id": "pt.ine.add.PTCONT.4523849",
      "street": "TV COURELAS",
      "house": "1",
      "postcode": "2305-204",
      "city": "CARREGUEIROS",
      "lon": "-8.44185013684895",
      "lat": "39.62324669375355"
    },
    {
      "id": "pt.ine.add.PTCONT.4544085",
      "street": "R ZS DE ABRIL",
      "house": "63",
      "postcode": "2305-204",
      "city": "CARREGUEIROS",
      "lon": "-8.441607119621377",
      "lat": "39.62359860300201"
    },
    {
      "id": "pt.ine.add.PTCONT.4549345",
      "street": "R ZS DE ABRIL",
      "house": "73",
      "postcode": "2305-204",
      "city": "CARREGUEIROS",
      "lon": "-8.441584466296392",
      "lat": "39.62374277132004"
    },
    {
      "id": "pt.ine.add.PTCONT.4558436",
      "street": "R ZS DE ABRIL",
      "house": "53",
      "postcode": "2305-204",
      "city": "CARREGUEIROS",
      "lon": "-8.441559453678648",
      "lat": "39.623355547032844"
    },
    {
      "id": "pt.ine.add.PTCONT.4570330",
      "street": "R D JOSEFA BALBINA FERREIRA",
      "house": "",
      "postcode": "2305-204",
      "city": "CARREGUEIROS",
      "lon": "-8.441620845910393",
      "lat": "39.624066918072565"
    },
    {
      "id": "pt.ine.add.PTCONT.4587682",
      "street": "R 25 ABRIL",
      "house": "101",
      "postcode": "2305-204",
      "city": "CARREGUEIROS",
      "lon": "-8.441819759563282",
      "lat": "39.62427354513175"
    },
    {
      "id": "pt.ine.add.PTCONT.4595357",
      "street": "R AMOREIRA",
      "house": "43",
      "postcode": "2305-204",
      "city": "CARREGUEIROS",
      "lon": "-8.441698692086499",
      "lat": "39.623238089369906"
    },
    {
      "id": "pt.ine.add.PTCONT.4613905",
      "street": "R 25 DE ABRIL",
      "house": "93",
      "postcode": "2305-204",
      "city": "CARREGUEIROS",
      "lon": "-8.441679719239115",
      "lat": "39.62421086986532"
    },
    {
      "id": "pt.ine.add.PTCONT.4616111",
      "street": "R JOSEFA BALBINA FERREIRA",
      "house": "7",
      "postcode": "2305-204",
      "city": "CARREGUEIROS",
      "lon": "-8.442330851030249",
      "lat": "39.62396595604572"
    },
    {
      "id": "pt.ine.add.PTCONT.4616118",
      "street": "R ZS DE ABRIL",
      "house": "57",
      "postcode": "2305-204",
      "city": "CARREGUEIROS",
      "lon": "-8.44158326661306",
      "lat": "39.623472571694116"
    },
    {
      "id": "pt.ine.add.PTCONT.4624490",
      "street": "R JOSEFA BALBINA FERREIRA",
      "house": "3",
      "postcode": "2305-204",
      "city": "CARREGUEIROS",
      "lon": "-8.44198149186902",
      "lat": "39.62397589217866"
    },
    {
      "id": "pt.ine.add.PTCONT.4625448",
      "street": "R 25 DE ABRIL",
      "house": "89",
      "postcode": "2305-204",
      "city": "CARREGUEIROS",
      "lon": "-8.44166783255054",
      "lat": "39.62415686088041"
    },
    {
      "id": "pt.ine.add.PTCONT.4634797",
      "street": "R ZS DE ABRIL",
      "house": "81",
      "postcode": "2305-204",
      "city": "CARREGUEIROS",
      "lon": "-8.441620285983692",
      "lat": "39.62394082492286"
    },
    {
      "id": "pt.ine.add.PTCONT.4651932",
      "street": "R ZS DE ABRIL",
      "house": "61",
      "postcode": "2305-204",
      "city": "CARREGUEIROS",
      "lon": "-8.441595233097036",
      "lat": "39.623544594003356"
    },
    {
      "id": "pt.ine.add.PTCONT.4656919",
      "street": "R AMOREIRA",
      "house": "47",
      "postcode": "2305-204",
      "city": "CARREGUEIROS",
      "lon": "-8.441547327328635",
      "lat": "39.62324749809822"
    },
    {
      "id": "pt.ine.add.PTCONT.4659740",
      "street": "TV COURELAS",
      "house": "3",
      "postcode": "2305-204",
      "city": "CARREGUEIROS",
      "lon": "-8.441966682122963",
      "lat": "39.623264397488924"
    },
    {
      "id": "pt.ine.add.PTCONT.4662770",
      "street": "R ZS DE ABRIL",
      "house": "69",
      "postcode": "2305-204",
      "city": "CARREGUEIROS",
      "lon": "-8.441595872952593",
      "lat": "39.62368870047015"
    }
  ]
}