{
  "data": {
    "distrito": "Santarém",
    "concelho": "Coruche",
    "freguesia": "União das freguesias de Coruche, Fajarda e Erra",
    "OBJECTID": 77,
    "BGRI2021": "14090900111",
    "DT21": "14",
    "DTMN21": "1409",
    "DTMNFR21": "140909",
    "DTMNFRSEC21": "140909001",
    "SECNUM21": "001",
    "SSNUM21": "11",
    "SECSSNUM21": "00111",
    "OBJECTID_1": 150497,
    "DT": "14",
    "CC": "09",
    "fr": "09",
    "SEC": "001",
    "SS": "11"
  },
  "addresses": [
    {
      "id": "pt.ine.add.PTCONT.4396043",
      "street": "R BO RREGO",
      "house": "5",
      "postcode": "2100-626",
      "city": "ERRA",
      "lon": "-8.456007675788532",
      "lat": "39.01939980573171"
    },
    {
      "id": "pt.ine.add.PTCONT.4406452",
      "street": "R PRINCIPAL",
      "house": "",
      "postcode": "2100-626",
      "city": "ERRA",
      "lon": "-8.457831843427122",
      "lat": "39.02439400948045"
    },
    {
      "id": "pt.ine.add.PTCONT.4455939",
      "street": "R BARREIRO VERMELHO",
      "house": "",
      "postcode": "2100-626",
      "city": "ERRA",
      "lon": "-8.455454971142293",
      "lat": "39.022283795226016"
    },
    {
      "id": "pt.ine.add.PTCONT.4459512",
      "street": "R BO RREGO",
      "house": "",
      "postcode": "2100-626",
      "city": "ERRA",
      "lon": "-8.455049536873995",
      "lat": "39.01945649997892"
    },
    {
      "id": "pt.ine.add.PTCONT.4465242",
      "street": "R BARREIRO VERMELHO",
      "house": "",
      "postcode": "2100-626",
      "city": "ERRA",
      "lon": "-8.453815544312148",
      "lat": "39.022351367610206"
    },
    {
      "id": "pt.ine.add.PTCONT.4498927",
      "street": "R BARREIRO VERMELHO",
      "house": "",
      "postcode": "2100-626",
      "city": "ERRA",
      "lon": "-8.45399671750671",
      "lat": "39.02155819275416"
    },
    {
      "id": "pt.ine.add.PTCONT.4548735",
      "street": "R BARREIRO VERMELHO",
      "house": "54",
      "postcode": "2100-626",
      "city": "ERRA",
      "lon": "-8.453980015668447",
      "lat": "39.02297244580945"
    },
    {
      "id": "pt.ine.add.PTCONT.4556163",
      "street": "R BORREGO",
      "house": "",
      "postcode": "2100-626",
      "city": "ERRA",
      "lon": "-8.4567213187031",
      "lat": "39.0189024051512"
    },
    {
      "id": "pt.ine.add.PTCONT.4595961",
      "street": "R BORREGO",
      "house": "",
      "postcode": "2100-626",
      "city": "ERRA",
      "lon": "-8.454485089053444",
      "lat": "39.01975531016575"
    },
    {
      "id": "pt.ine.add.PTCONT.4607333",
      "street": "R BARREIRO VERMELHO",
      "house": "",
      "postcode": "2100-626",
      "city": "ERRA",
      "lon": "-8.454041277166487",
      "lat": "39.02119776257603"
    },
    {
      "id": "pt.ine.add.PTCONT.4631998",
      "street": "R BARREIRO VERMELHO",
      "house": "",
      "postcode": "2100-626",
      "city": "ERRA",
      "lon": "-8.453433061504668",
      "lat": "39.02203714938018"
    },
    {
      "id": "pt.ine.add.PTCONT.4643382",
      "street": "R BARREIRO VERMELHO",
      "house": "5",
      "postcode": "2100-626",
      "city": "ERRA",
      "lon": "-8.453251718319946",
      "lat": "39.022794293021484"
    },
    {
      "id": "pt.ine.add.PTCONT.4644496",
      "street": "R BARREIRO VERMELHO",
      "house": "5",
      "postcode": "2100-626",
      "city": "ERRA",
      "lon": "-8.45422112516221",
      "lat": "39.02266552098597"
    }
  ]
}