{
  "data": {
    "distrito": "Leiria",
    "concelho": "Leiria",
    "freguesia": "União das freguesias de Monte Real e Carvide",
    "OBJECTID": 304,
    "BGRI2021": "10093500418",
    "DT21": "10",
    "DTMN21": "1009",
    "DTMNFR21": "100935",
    "DTMNFRSEC21": "100935004",
    "SECNUM21": "004",
    "SSNUM21": "18",
    "SECSSNUM21": "00418",
    "OBJECTID_1": 91704,
    "DT": "10",
    "CC": "09",
    "fr": "35",
    "SEC": "004",
    "SS": "18"
  },
  "addresses": [
    {
      "id": "pt.ine.add.PTCONT.1980373",
      "street": "R CERRO",
      "house": "313",
      "postcode": "2425-074",
      "city": "MONTE REAL",
      "lon": "-8.876753987329838",
      "lat": "39.834649396125435"
    },
    {
      "id": "pt.ine.add.PTCONT.1987172",
      "street": "R CASAL DE PEREIRA",
      "house": "36",
      "postcode": "2425-072",
      "city": "MONTE REAL",
      "lon": "-8.8783601670691",
      "lat": "39.83842174174821"
    },
    {
      "id": "pt.ine.add.PTCONT.2000629",
      "street": "R CERRO",
      "house": "",
      "postcode": "2425-074",
      "city": "MONTE REAL",
      "lon": "-8.876180534620543",
      "lat": "39.834554001066884"
    },
    {
      "id": "pt.ine.add.PTCONT.2001622",
      "street": "R CERRO",
      "house": "327",
      "postcode": "2425-074",
      "city": "MONTE REAL",
      "lon": "-8.876437523520993",
      "lat": "39.83455235473798"
    },
    {
      "id": "pt.ine.add.PTCONT.2025407",
      "street": "TV CASAL DA PEREIRA",
      "house": "129",
      "postcode": "2425-072",
      "city": "MONTE REAL",
      "lon": "-8.877918302789107",
      "lat": "39.83753295445138"
    },
    {
      "id": "pt.ine.add.PTCONT.2048120",
      "street": "R 11 DE DEZEMBRO",
      "house": "33",
      "postcode": "2425-081",
      "city": "MONTE REAL",
      "lon": "-8.878051776219005",
      "lat": "39.835829903861125"
    },
    {
      "id": "pt.ine.add.PTCONT.2062894",
      "street": "R CASAL DE PEREIRA",
      "house": "39",
      "postcode": "2425-072",
      "city": "MONTE REAL",
      "lon": "-8.87696724015488",
      "lat": "39.8360079829432"
    },
    {
      "id": "pt.ine.add.PTCONT.2062895",
      "street": "R CASAL DE PEREIRA",
      "house": "43",
      "postcode": "2425-072",
      "city": "MONTE REAL",
      "lon": "-8.876815379892463",
      "lat": "39.836008956565465"
    },
    {
      "id": "pt.ine.add.PTCONT.2065931",
      "street": "R CASAL DE PEREIRA",
      "house": "376",
      "postcode": "2425-072",
      "city": "MONTE REAL",
      "lon": "-8.876557026136062",
      "lat": "39.83588452405588"
    },
    {
      "id": "pt.ine.add.PTCONT.2065932",
      "street": "R 11 DE DEZEMBRO",
      "house": "97",
      "postcode": "2425-081",
      "city": "MONTE REAL",
      "lon": "-8.878595455377003",
      "lat": "39.83641182199469"
    },
    {
      "id": "pt.ine.add.PTCONT.2070255",
      "street": "R CERRO",
      "house": "205",
      "postcode": "2425-074",
      "city": "MONTE REAL",
      "lon": "-8.877899827358668",
      "lat": "39.83474111505877"
    },
    {
      "id": "pt.ine.add.PTCONT.2074618",
      "street": "R CASAL DE PEREIRA",
      "house": "406",
      "postcode": "2425-072",
      "city": "MONTE REAL",
      "lon": "-8.876449562152274",
      "lat": "39.83566906106629"
    },
    {
      "id": "pt.ine.add.PTCONT.2074619",
      "street": "R CERRO",
      "house": "245",
      "postcode": "2425-074",
      "city": "MONTE REAL",
      "lon": "-8.87749078594492",
      "lat": "39.83472572772494"
    },
    {
      "id": "pt.ine.add.PTCONT.2079089",
      "street": "TV CASAL DA PEREIRA",
      "house": "216",
      "postcode": "2425-072",
      "city": "MONTE REAL",
      "lon": "-8.877467976817858",
      "lat": "39.836941428002966"
    },
    {
      "id": "pt.ine.add.PTCONT.2086045",
      "street": "R CASAL DA PEREIRA",
      "house": "82 B",
      "postcode": "2425-072",
      "city": "MONTE REAL",
      "lon": "-8.878145025771483",
      "lat": "39.83797280798464"
    },
    {
      "id": "pt.ine.add.PTCONT.2093155",
      "street": "R CASAL DE PEREIRA",
      "house": "25",
      "postcode": "2425-072",
      "city": "MONTE REAL",
      "lon": "-8.876957015936823",
      "lat": "39.83614314324896"
    },
    {
      "id": "pt.ine.add.PTCONT.2096678",
      "street": "R CASAL DA PEREIRA",
      "house": "82 A",
      "postcode": "2425-072",
      "city": "MONTE REAL",
      "lon": "-8.87818104466177",
      "lat": "39.83806263979059"
    },
    {
      "id": "pt.ine.add.PTCONT.2108657",
      "street": "R BASE AÉREA",
      "house": "1739",
      "postcode": "2425-022",
      "city": "MONTE REAL",
      "lon": "-8.878723860905303",
      "lat": "39.837482748226556"
    },
    {
      "id": "pt.ine.add.PTCONT.2123241",
      "street": "TV CASAL DA PEREIRA",
      "house": "115",
      "postcode": "2425-072",
      "city": "MONTE REAL",
      "lon": "-8.877989853116048",
      "lat": "39.837667589768785"
    },
    {
      "id": "pt.ine.add.PTCONT.2127793",
      "street": "R CASAL DE PEREIRA",
      "house": "48",
      "postcode": "2425-072",
      "city": "MONTE REAL",
      "lon": "-8.877024384806836",
      "lat": "39.83589053440207"
    },
    {
      "id": "pt.ine.add.PTCONT.2155879",
      "street": "R 11 DE DEZEMBRO",
      "house": "91",
      "postcode": "2425-081",
      "city": "MONTE REAL",
      "lon": "-8.877138479178008",
      "lat": "39.835637625845735"
    },
    {
      "id": "pt.ine.add.PTCONT.2160282",
      "street": "R 11 DE DEZEMBRO",
      "house": "139",
      "postcode": "2425-081",
      "city": "MONTE REAL",
      "lon": "-8.878497913353963",
      "lat": "39.83603418349622"
    },
    {
      "id": "pt.ine.add.PTCONT.2164647",
      "street": "R 11 DE DEZEMBRO",
      "house": "109",
      "postcode": "2425-081",
      "city": "MONTE REAL",
      "lon": "-8.878582702690032",
      "lat": "39.836312834471784"
    },
    {
      "id": "pt.ine.add.PTCONT.2177587",
      "street": "TV CASAL DA PEREIRA",
      "house": "112",
      "postcode": "2425-072",
      "city": "MONTE REAL",
      "lon": "-8.8780256770363",
      "lat": "39.83773941025325"
    },
    {
      "id": "pt.ine.add.PTCONT.2179763",
      "street": "R CERRO",
      "house": "276",
      "postcode": "2425-074",
      "city": "MONTE REAL",
      "lon": "-8.877255798475979",
      "lat": "39.834601146804225"
    },
    {
      "id": "pt.ine.add.PTCONT.2188652",
      "street": "R 11 DE DEZEMBRO",
      "house": "7",
      "postcode": "2425-081",
      "city": "MONTE REAL",
      "lon": "-8.878160315891183",
      "lat": "39.83614442791451"
    },
    {
      "id": "pt.ine.add.PTCONT.2192793",
      "street": "TV CASAL DA PEREIRA",
      "house": "260",
      "postcode": "2425-072",
      "city": "MONTE REAL",
      "lon": "-8.87732283870556",
      "lat": "39.83648303707386"
    },
    {
      "id": "pt.ine.add.PTCONT.2215593",
      "street": "R 11 DE DEZEMBRO",
      "house": "83",
      "postcode": "2425-081",
      "city": "MONTE REAL",
      "lon": "-8.878632155639812",
      "lat": "39.836564693513424"
    },
    {
      "id": "pt.ine.add.PTCONT.2227381",
      "street": "TV CASAL DA PEREIRA",
      "house": "126",
      "postcode": "2425-072",
      "city": "MONTE REAL",
      "lon": "-8.877954126563024",
      "lat": "39.83760477496095"
    },
    {
      "id": "pt.ine.add.PTCONT.2232725",
      "street": "R CASAL DA PEREIRA",
      "house": "60",
      "postcode": "2425-072",
      "city": "MONTE REAL",
      "lon": "-8.878241011470386",
      "lat": "39.8382063556455"
    },
    {
      "id": "pt.ine.add.PTCONT.2237018",
      "street": "R 11 DE DEZEMBRO",
      "house": "80",
      "postcode": "2425-081",
      "city": "MONTE REAL",
      "lon": "-8.877174689861087",
      "lat": "39.83574546941103"
    },
    {
      "id": "pt.ine.add.PTCONT.2243853",
      "street": "R CASAL DE PEREIRA",
      "house": "27",
      "postcode": "2425-072",
      "city": "MONTE REAL",
      "lon": "-8.877459421113798",
      "lat": "39.83614892711786"
    },
    {
      "id": "pt.ine.add.PTCONT.2243854",
      "street": "R CASAL DE PEREIRA",
      "house": "394",
      "postcode": "2425-072",
      "city": "MONTE REAL",
      "lon": "-8.876613394510063",
      "lat": "39.83569503014975"
    },
    {
      "id": "pt.ine.add.PTCONT.2251537",
      "street": "R CASAL DE PEREIRA",
      "house": "51",
      "postcode": "2425-072",
      "city": "MONTE REAL",
      "lon": "-8.876896373620776",
      "lat": "39.8359363867806"
    },
    {
      "id": "pt.ine.add.PTCONT.2261606",
      "street": "R 11 DE DEZEMBRO",
      "house": "173",
      "postcode": "2425-081",
      "city": "MONTE REAL",
      "lon": "-8.878412735339435",
      "lat": "39.83571950967426"
    },
    {
      "id": "pt.ine.add.PTCONT.2263282",
      "street": "TV CASAL PEREIRA",
      "house": "",
      "postcode": "2425-072",
      "city": "MONTE REAL",
      "lon": "-8.878359194033603",
      "lat": "39.83725092725948"
    },
    {
      "id": "pt.ine.add.PTCONT.2266225",
      "street": "R CASAL DE PEREIRA",
      "house": "",
      "postcode": "2425-072",
      "city": "MONTE REAL",
      "lon": "-8.877619851478036",
      "lat": "39.83585969552575"
    }
  ]
}