{
  "data": {
    "distrito": "Porto",
    "concelho": "Pa√ßos de Ferreira",
    "freguesia": "Sanfins Lamoso Codessos",
    "OBJECTID": 411,
    "BGRI2021": "13091900119",
    "DT21": "13",
    "DTMN21": "1309",
    "DTMNFR21": "130919",
    "DTMNFRSEC21": "130919001",
    "SECNUM21": "001",
    "SSNUM21": "19",
    "SECSSNUM21": "00119",
    "OBJECTID_1": 133714,
    "DT": "13",
    "CC": "09",
    "fr": "19",
    "SEC": "001",
    "SS": "19"
  },
  "addresses": [
    {
      "id": "pt.ine.add.PTCONT.3567699",
      "street": "R NOVA",
      "house": "129",
      "postcode": "4590-152",
      "city": "CODESSOS",
      "lon": "-8.347106879859721",
      "lat": "41.325300299001306"
    },
    {
      "id": "pt.ine.add.PTCONT.3586852",
      "street": "R D PALMIRA MIRANDA",
      "house": "61",
      "postcode": "4590-423",
      "city": "LAMOSO",
      "lon": "-8.348575930860155",
      "lat": "41.3252615419038"
    },
    {
      "id": "pt.ine.add.PTCONT.3709699",
      "street": "R 23 DE NOVEMBRO",
      "house": "42",
      "postcode": "4590-888",
      "city": "LAMOSO",
      "lon": "-8.347726840023665",
      "lat": "41.32494798411484"
    },
    {
      "id": "pt.ine.add.PTCONT.3809105",
      "street": "R D PALMIRA MIRANDA",
      "house": "43",
      "postcode": "4590-423",
      "city": "LAMOSO",
      "lon": "-8.348385086194119",
      "lat": "41.32534293605503"
    },
    {
      "id": "pt.ine.add.PTCONT.3877743",
      "street": "R D PALMIRA MIRANDA",
      "house": "57",
      "postcode": "4590-423",
      "city": "LAMOSO",
      "lon": "-8.348624094389239",
      "lat": "41.32537850525859"
    },
    {
      "id": "pt.ine.add.PTCONT.3877744",
      "street": "R GIESTAL",
      "house": "57",
      "postcode": "4590-152",
      "city": "CODESSOS",
      "lon": "-8.348624094389239",
      "lat": "41.32537850525859"
    },
    {
      "id": "pt.ine.add.PTCONT.3905483",
      "street": "R D PALMIRA MIRANDA",
      "house": "25",
      "postcode": "4590-423",
      "city": "LAMOSO",
      "lon": "-8.347740143548364",
      "lat": "41.325362148719684"
    },
    {
      "id": "pt.ine.add.PTCONT.3967902",
      "street": "R NOVA",
      "house": "133",
      "postcode": "4590-152",
      "city": "CODESSOS",
      "lon": "-8.347155158656987",
      "lat": "41.32545327922605"
    },
    {
      "id": "pt.ine.add.PTCONT.3979731",
      "street": "R GIESTAL",
      "house": "30 RC",
      "postcode": "4590-152",
      "city": "CODESSOS",
      "lon": "-8.348791257761887",
      "lat": "41.32536018390978"
    },
    {
      "id": "pt.ine.add.PTCONT.3979732",
      "street": "R D PALMIRA MIRANDA",
      "house": "65",
      "postcode": "4590-423",
      "city": "LAMOSO",
      "lon": "-8.348791257761887",
      "lat": "41.32536018390978"
    },
    {
      "id": "pt.ine.add.PTCONT.4242321",
      "street": "R LEBRE",
      "house": "19",
      "postcode": "4590-881",
      "city": "LAMOSO",
      "lon": "-8.34894576346958",
      "lat": "41.32512578723618"
    }
  ]
}