{
  "data": {
    "distrito": "Coimbra",
    "concelho": "Figueira da Foz",
    "freguesia": "Buarcos e São Julião",
    "OBJECTID": 211,
    "BGRI2021": "06052001514",
    "DT21": "06",
    "DTMN21": "0605",
    "DTMNFR21": "060520",
    "DTMNFRSEC21": "060520015",
    "SECNUM21": "015",
    "SSNUM21": "14",
    "SECSSNUM21": "01514",
    "OBJECTID_1": 51734,
    "DT": "06",
    "CC": "05",
    "fr": "20",
    "SEC": "015",
    "SS": "14"
  },
  "addresses": [
    {
      "id": "pt.ine.add.PTCONT.1121406",
      "street": "R VIGÁRIOS",
      "house": "10",
      "postcode": "3080-885",
      "city": "FIGUEIRA DA FOZ",
      "lon": "-8.867072619588532",
      "lat": "40.1892072156733"
    },
    {
      "id": "pt.ine.add.PTCONT.1156109",
      "street": "TV RUA DAS MOURAS",
      "house": "",
      "postcode": "3080-878",
      "city": "FIGUEIRA DA FOZ",
      "lon": "-8.872033335632485",
      "lat": "40.18644690667352"
    },
    {
      "id": "pt.ine.add.PTCONT.1164986",
      "street": "R CMDT ACACIO RIBEIRO",
      "house": "135",
      "postcode": "3080-359",
      "city": "FIGUEIRA DA FOZ",
      "lon": "-8.866809347798306",
      "lat": "40.1887495898126"
    },
    {
      "id": "pt.ine.add.PTCONT.1183787",
      "street": "R CMDT ACACIO RIBEIRO",
      "house": "137",
      "postcode": "3080-359",
      "city": "FIGUEIRA DA FOZ",
      "lon": "-8.866329191489875",
      "lat": "40.18886970710686"
    },
    {
      "id": "pt.ine.add.PTCONT.1190260",
      "street": "R MOURAS",
      "house": "1",
      "postcode": "3080-875",
      "city": "FIGUEIRA DA FOZ",
      "lon": "-8.866749666573426",
      "lat": "40.189749609495614"
    },
    {
      "id": "pt.ine.add.PTCONT.1192165",
      "street": "R MOURAS",
      "house": "11",
      "postcode": "3080-875",
      "city": "FIGUEIRA DA FOZ",
      "lon": "-8.868554439800427",
      "lat": "40.18941394992536"
    },
    {
      "id": "pt.ine.add.PTCONT.1219903",
      "street": "TV RUA DAS MOURAS",
      "house": "1",
      "postcode": "3080-878",
      "city": "FIGUEIRA DA FOZ",
      "lon": "-8.87097478327131",
      "lat": "40.188452941642154"
    },
    {
      "id": "pt.ine.add.PTCONT.1255221",
      "street": "R MOURAS",
      "house": "9A",
      "postcode": "3080-875",
      "city": "FIGUEIRA DA FOZ",
      "lon": "-8.868504359528119",
      "lat": "40.18912608316978"
    },
    {
      "id": "pt.ine.add.PTCONT.1261439",
      "street": "R MOURAS",
      "house": "3",
      "postcode": "3080-875",
      "city": "FIGUEIRA DA FOZ",
      "lon": "-8.867218280451851",
      "lat": "40.18964757521301"
    },
    {
      "id": "pt.ine.add.PTCONT.1313942",
      "street": "R MOURAS",
      "house": "",
      "postcode": "3080-875",
      "city": "FIGUEIRA DA FOZ",
      "lon": "-8.869550073433079",
      "lat": "40.18918247599535"
    },
    {
      "id": "pt.ine.add.PTCONT.1342511",
      "street": "R MOURAS",
      "house": "9",
      "postcode": "3080-875",
      "city": "FIGUEIRA DA FOZ",
      "lon": "-8.86803944478918",
      "lat": "40.18957031873956"
    }
  ]
}