{
  "data": {
    "distrito": "Vila Real",
    "concelho": "Vila Pouca de Aguiar",
    "freguesia": "União das freguesias de Pensalvos e Parada de Monteiros",
    "OBJECTID": 481,
    "BGRI2021": "17132000116",
    "DT21": "17",
    "DTMN21": "1713",
    "DTMNFR21": "171320",
    "DTMNFRSEC21": "171320001",
    "SECNUM21": "001",
    "SSNUM21": "16",
    "SECSSNUM21": "00116",
    "OBJECTID_1": 186911,
    "DT": "17",
    "CC": "13",
    "fr": "20",
    "SEC": "001",
    "SS": "16"
  },
  "addresses": [
    {
      "id": "pt.ine.add.PTCONT.5294866",
      "street": "R DO CRUZEIRO",
      "house": "4",
      "postcode": "5450-232",
      "city": "PENSALVOS",
      "lon": "-7.653671628325409",
      "lat": "41.56196960631205"
    },
    {
      "id": "pt.ine.add.PTCONT.5302694",
      "street": "R DO CALVÁRIO",
      "house": "23",
      "postcode": "5450-232",
      "city": "PENSALVOS",
      "lon": "-7.657318505499612",
      "lat": "41.561624605669046"
    },
    {
      "id": "pt.ine.add.PTCONT.5306609",
      "street": "R DA LAGE",
      "house": "15",
      "postcode": "5450-231",
      "city": "PENSALVOS",
      "lon": "-7.651352300086185",
      "lat": "41.559501897590636"
    },
    {
      "id": "pt.ine.add.PTCONT.5307016",
      "street": "R DO CALVÁRIO",
      "house": "11",
      "postcode": "5450-232",
      "city": "PENSALVOS",
      "lon": "-7.655411689007974",
      "lat": "41.56172474437216"
    },
    {
      "id": "pt.ine.add.PTCONT.5309474",
      "street": "R DA LAGE",
      "house": "22",
      "postcode": "5450-231",
      "city": "PENSALVOS",
      "lon": "-7.651576714225093",
      "lat": "41.5599530235305"
    },
    {
      "id": "pt.ine.add.PTCONT.5313133",
      "street": "R DO CALVÁRIO",
      "house": "15",
      "postcode": "5450-232",
      "city": "PENSALVOS",
      "lon": "-7.655615543978025",
      "lat": "41.56171658737335"
    },
    {
      "id": "pt.ine.add.PTCONT.5313134",
      "street": "R DE SEIXEDO",
      "house": "4",
      "postcode": "5450-231",
      "city": "PENSALVOS",
      "lon": "-7.654189488864863",
      "lat": "41.561647630621344"
    },
    {
      "id": "pt.ine.add.PTCONT.5314287",
      "street": "R DOS SEQUEIROS",
      "house": "1",
      "postcode": "5450-231",
      "city": "PENSALVOS",
      "lon": "-7.6521890254825236",
      "lat": "41.55820886445695"
    },
    {
      "id": "pt.ine.add.PTCONT.5315424",
      "street": "R DO MURO",
      "house": "1",
      "postcode": "5450-231",
      "city": "PENSALVOS",
      "lon": "-7.651366809269227",
      "lat": "41.55754815102081"
    },
    {
      "id": "pt.ine.add.PTCONT.5318321",
      "street": "R DO CALVÁRIO",
      "house": "21",
      "postcode": "5450-232",
      "city": "PENSALVOS",
      "lon": "-7.6564069882513355",
      "lat": "41.561683856368475"
    },
    {
      "id": "pt.ine.add.PTCONT.5318495",
      "street": "R DOS SEQUEIROS",
      "house": "2",
      "postcode": "5450-231",
      "city": "PENSALVOS",
      "lon": "-7.651266166911607",
      "lat": "41.5581869935636"
    },
    {
      "id": "pt.ine.add.PTCONT.5319680",
      "street": "R DO CRUZEIRO",
      "house": "2",
      "postcode": "5450-231",
      "city": "PENSALVOS",
      "lon": "-7.65331213317859",
      "lat": "41.56195009938511"
    },
    {
      "id": "pt.ine.add.PTCONT.5323948",
      "street": "R DO CALVÁRIO",
      "house": "19",
      "postcode": "5450-232",
      "city": "PENSALVOS",
      "lon": "-7.65578330368579",
      "lat": "41.5617262876132"
    },
    {
      "id": "pt.ine.add.PTCONT.5325583",
      "street": "R DA LAGE",
      "house": "35",
      "postcode": "5450-231",
      "city": "PENSALVOS",
      "lon": "-7.651850817503063",
      "lat": "41.56017026031383"
    },
    {
      "id": "pt.ine.add.PTCONT.5370086",
      "street": "R DA LAGE",
      "house": "13",
      "postcode": "5450-231",
      "city": "PENSALVOS",
      "lon": "-7.6512454189300865",
      "lat": "41.55936639395632"
    },
    {
      "id": "pt.ine.add.PTCONT.5371877",
      "street": "R DE SEIXEDO",
      "house": "1",
      "postcode": "5450-231",
      "city": "PENSALVOS",
      "lon": "-7.653913309536346",
      "lat": "41.561709506003034"
    },
    {
      "id": "pt.ine.add.PTCONT.5372891",
      "street": "R DOS SEQUEIROS",
      "house": "6",
      "postcode": "5450-231",
      "city": "PENSALVOS",
      "lon": "-7.651636290980035",
      "lat": "41.55838662579999"
    },
    {
      "id": "pt.ine.add.PTCONT.5380114",
      "street": "R DO MURO",
      "house": "11",
      "postcode": "5450-231",
      "city": "PENSALVOS",
      "lon": "-7.650950826757462",
      "lat": "41.55868087636115"
    },
    {
      "id": "pt.ine.add.PTCONT.5382419",
      "street": "R DO MURO",
      "house": "13",
      "postcode": "5450-231",
      "city": "PENSALVOS",
      "lon": "-7.650868189451814",
      "lat": "41.55850945913333"
    },
    {
      "id": "pt.ine.add.PTCONT.5383480",
      "street": "R DOS SEQUEIROS",
      "house": "10",
      "postcode": "5450-231",
      "city": "PENSALVOS",
      "lon": "-7.651645939130774",
      "lat": "41.558701796417786"
    },
    {
      "id": "pt.ine.add.PTCONT.5390062",
      "street": "R LAGE",
      "house": "1",
      "postcode": "5450-231",
      "city": "PENSALVOS",
      "lon": "-7.6511148985068855",
      "lat": "41.559185772535514"
    },
    {
      "id": "pt.ine.add.PTCONT.5397392",
      "street": "R DO CALVÁRIO",
      "house": "13",
      "postcode": "5450-232",
      "city": "PENSALVOS",
      "lon": "-7.655507589567216",
      "lat": "41.561725142742866"
    },
    {
      "id": "pt.ine.add.PTCONT.5398422",
      "street": "R DA LAGE",
      "house": "17",
      "postcode": "5450-231",
      "city": "PENSALVOS",
      "lon": "-7.651436009587198",
      "lat": "41.559529259433376"
    },
    {
      "id": "pt.ine.add.PTCONT.5399543",
      "street": "R DA LAGE",
      "house": "23",
      "postcode": "5450-231",
      "city": "PENSALVOS",
      "lon": "-7.6517451368384055",
      "lat": "41.55987269525098"
    },
    {
      "id": "pt.ine.add.PTCONT.5400725",
      "street": "R DA LAGE",
      "house": "9",
      "postcode": "5450-231",
      "city": "PENSALVOS",
      "lon": "-7.651304886458332",
      "lat": "41.5594296691803"
    },
    {
      "id": "pt.ine.add.PTCONT.5403914",
      "street": "R DO CALVÁRIO",
      "house": "17",
      "postcode": "5450-232",
      "city": "PENSALVOS",
      "lon": "-7.655687403120999",
      "lat": "41.5617258894724"
    },
    {
      "id": "pt.ine.add.PTCONT.5404939",
      "street": "R DA LAGE",
      "house": "7",
      "postcode": "5450-231",
      "city": "PENSALVOS",
      "lon": "-7.651413104991882",
      "lat": "41.559385103979224"
    },
    {
      "id": "pt.ine.add.PTCONT.5404947",
      "street": "R DO MURO",
      "house": "7",
      "postcode": "5450-231",
      "city": "PENSALVOS",
      "lon": "-7.651014843292066",
      "lat": "41.55813191781395"
    },
    {
      "id": "pt.ine.add.PTCONT.5407678",
      "street": "R LAGE",
      "house": "39",
      "postcode": "5450-231",
      "city": "PENSALVOS",
      "lon": "-7.651860667272363",
      "lat": "41.56045842050877"
    },
    {
      "id": "pt.ine.add.PTCONT.5414520",
      "street": "R DA LAGE",
      "house": "11",
      "postcode": "5450-231",
      "city": "PENSALVOS",
      "lon": "-7.651138003058397",
      "lat": "41.5593029177335"
    },
    {
      "id": "pt.ine.add.PTCONT.5417324",
      "street": "R DA LAGE",
      "house": "21",
      "postcode": "5450-231",
      "city": "PENSALVOS",
      "lon": "-7.65185402378506",
      "lat": "41.55973809525043"
    },
    {
      "id": "pt.ine.add.PTCONT.5417325",
      "street": "R DO MURO",
      "house": "3",
      "postcode": "5450-231",
      "city": "PENSALVOS",
      "lon": "-7.651125534920443",
      "lat": "41.5577542255464"
    },
    {
      "id": "pt.ine.add.PTCONT.5419922",
      "street": "R DA LAGE",
      "house": "19",
      "postcode": "5450-231",
      "city": "PENSALVOS",
      "lon": "-7.651579053459668",
      "lat": "41.559637903175755"
    },
    {
      "id": "pt.ine.add.PTCONT.5422339",
      "street": "R DA LAGE",
      "house": "29",
      "postcode": "5450-231",
      "city": "PENSALVOS",
      "lon": "-7.651396504528831",
      "lat": "41.56000629102797"
    }
  ]
}