{
  "data": {
    "distrito": "Vila Real",
    "concelho": "Alij√≥",
    "freguesia": "Vila Verde",
    "OBJECTID": 275,
    "BGRI2021": "17011700110",
    "DT21": "17",
    "DTMN21": "1701",
    "DTMNFR21": "170117",
    "DTMNFRSEC21": "170117001",
    "SECNUM21": "001",
    "SSNUM21": "10",
    "SECSSNUM21": "00110",
    "OBJECTID_1": 179634,
    "DT": "17",
    "CC": "01",
    "fr": "17",
    "SEC": "001",
    "SS": "10"
  },
  "addresses": [
    {
      "id": "pt.ine.add.PTCONT.5288894",
      "street": "R FONTE",
      "house": "9",
      "postcode": "5070-558",
      "city": "VILA VERDE ALJ",
      "lon": "-7.551733858246089",
      "lat": "41.36274833919077"
    },
    {
      "id": "pt.ine.add.PTCONT.5292034",
      "street": "R FUNDO",
      "house": "3",
      "postcode": "5070-558",
      "city": "VILA VERDE ALJ",
      "lon": "-7.551664798369032",
      "lat": "41.36245085804343"
    },
    {
      "id": "pt.ine.add.PTCONT.5293239",
      "street": "R FUNDO",
      "house": "9",
      "postcode": "5070-558",
      "city": "VILA VERDE ALJ",
      "lon": "-7.551847664662578",
      "lat": "41.3620466014694"
    },
    {
      "id": "pt.ine.add.PTCONT.5298033",
      "street": "R FUNDO",
      "house": "8",
      "postcode": "5070-558",
      "city": "VILA VERDE ALJ",
      "lon": "-7.551246843759467",
      "lat": "41.362412729544054"
    },
    {
      "id": "pt.ine.add.PTCONT.5305271",
      "street": "R REGEDOR",
      "house": "8",
      "postcode": "5070-558",
      "city": "VILA VERDE ALJ",
      "lon": "-7.551264729256689",
      "lat": "41.361746523374116"
    },
    {
      "id": "pt.ine.add.PTCONT.5314905",
      "street": "R FONTE",
      "house": "",
      "postcode": "5070-558",
      "city": "VILA VERDE ALJ",
      "lon": "-7.551938703807892",
      "lat": "41.362560289712"
    },
    {
      "id": "pt.ine.add.PTCONT.5324191",
      "street": "R MARIA ARMINDA TEIXEIRA",
      "house": "4",
      "postcode": "5070-558",
      "city": "VILA VERDE ALJ",
      "lon": "-7.551213397815207",
      "lat": "41.36214244019894"
    },
    {
      "id": "pt.ine.add.PTCONT.5329725",
      "street": "R MARIA ARMINDA TEIXEIRA",
      "house": "1",
      "postcode": "5070-558",
      "city": "VILA VERDE ALJ",
      "lon": "-7.551068786384355",
      "lat": "41.362276769012425"
    },
    {
      "id": "pt.ine.add.PTCONT.5331071",
      "street": "R FUNDO",
      "house": "11",
      "postcode": "5070-558",
      "city": "VILA VERDE ALJ",
      "lon": "-7.551342930649743",
      "lat": "41.362359191284725"
    },
    {
      "id": "pt.ine.add.PTCONT.5332790",
      "street": "R FUNDO",
      "house": "6",
      "postcode": "5070-558",
      "city": "VILA VERDE ALJ",
      "lon": "-7.551162867869606",
      "lat": "41.36244832095157"
    },
    {
      "id": "pt.ine.add.PTCONT.5347218",
      "street": "TV CARREIRA",
      "house": "15",
      "postcode": "5070-558",
      "city": "VILA VERDE ALJ",
      "lon": "-7.551947610497168",
      "lat": "41.36290248696622"
    },
    {
      "id": "pt.ine.add.PTCONT.5349447",
      "street": "R FUNDO",
      "house": "18",
      "postcode": "5070-558",
      "city": "VILA VERDE ALJ",
      "lon": "-7.551668805583446",
      "lat": "41.36200067789172"
    },
    {
      "id": "pt.ine.add.PTCONT.5350842",
      "street": "R LAGE CONCECHO",
      "house": "10",
      "postcode": "5070-558",
      "city": "VILA VERDE ALJ",
      "lon": "-7.551401401295877",
      "lat": "41.36250355097684"
    },
    {
      "id": "pt.ine.add.PTCONT.5350849",
      "street": "R LAJE CONCELHO",
      "house": "10",
      "postcode": "5070-558",
      "city": "VILA VERDE ALJ",
      "lon": "-7.551401401295877",
      "lat": "41.36250355097684"
    },
    {
      "id": "pt.ine.add.PTCONT.5368019",
      "street": "R FUNDO",
      "house": "16",
      "postcode": "5070-558",
      "city": "VILA VERDE ALJ",
      "lon": "-7.5516559733413935",
      "lat": "41.3620996571474"
    },
    {
      "id": "pt.ine.add.PTCONT.5375550",
      "street": "R FUNDO",
      "house": "12",
      "postcode": "5070-558",
      "city": "VILA VERDE ALJ",
      "lon": "-7.5514868201828085",
      "lat": "41.36230589455036"
    },
    {
      "id": "pt.ine.add.PTCONT.5385189",
      "street": "TV CARREIRA",
      "house": "10",
      "postcode": "5070-558",
      "city": "VILA VERDE ALJ",
      "lon": "-7.5518287433878175",
      "lat": "41.362829854565305"
    },
    {
      "id": "pt.ine.add.PTCONT.5388375",
      "street": "R MARIA ARMINDA TEIXEIRA",
      "house": "3",
      "postcode": "5070-558",
      "city": "VILA VERDE ALJ",
      "lon": "-7.551187571429479",
      "lat": "41.36235840579522"
    },
    {
      "id": "pt.ine.add.PTCONT.5391748",
      "street": "R MARIA ARMINDA TEIXEIRA",
      "house": "9",
      "postcode": "5070-558",
      "city": "VILA VERDE ALJ",
      "lon": "-7.551296090160172",
      "lat": "41.36225090639019"
    },
    {
      "id": "pt.ine.add.PTCONT.5397940",
      "street": "R FONTE",
      "house": "7",
      "postcode": "5070-558",
      "city": "VILA VERDE ALJ",
      "lon": "-7.551674665351358",
      "lat": "41.362685012088974"
    },
    {
      "id": "pt.ine.add.PTCONT.5402779",
      "street": "R FONTE",
      "house": "5",
      "postcode": "5070-558",
      "city": "VILA VERDE ALJ",
      "lon": "-7.551865396963312",
      "lat": "41.36273999962792"
    },
    {
      "id": "pt.ine.add.PTCONT.5405598",
      "street": "R FUNDO",
      "house": "15",
      "postcode": "5070-558",
      "city": "VILA VERDE ALJ",
      "lon": "-7.551754303119383",
      "lat": "41.36179401763609"
    },
    {
      "id": "pt.ine.add.PTCONT.5410879",
      "street": "R FUNDO",
      "house": "7",
      "postcode": "5070-558",
      "city": "VILA VERDE ALJ",
      "lon": "-7.551726475280827",
      "lat": "41.362235073461704"
    },
    {
      "id": "pt.ine.add.PTCONT.5417250",
      "street": "R FUNDO",
      "house": "7",
      "postcode": "5070-558",
      "city": "VILA VERDE ALJ",
      "lon": "-7.551162226153446",
      "lat": "41.36252034976616"
    }
  ]
}