{
  "data": {
    "distrito": "Vila Real",
    "concelho": "Alij√≥",
    "freguesia": "Vila Verde",
    "OBJECTID": 433,
    "BGRI2021": "17011700145",
    "DT21": "17",
    "DTMN21": "1701",
    "DTMNFR21": "170117",
    "DTMNFRSEC21": "170117001",
    "SECNUM21": "001",
    "SSNUM21": "45",
    "SECSSNUM21": "00145",
    "OBJECTID_1": 179703,
    "DT": "17",
    "CC": "01",
    "fr": "17",
    "SEC": "001",
    "SS": "45"
  },
  "addresses": [
    {
      "id": "pt.ine.add.PTCONT.5304331",
      "street": "R PASSADEIRAS",
      "house": "",
      "postcode": "5070-555",
      "city": "VILA VERDE ALJ",
      "lon": "-7.543499226007745",
      "lat": "41.387917604716804"
    },
    {
      "id": "pt.ine.add.PTCONT.5310042",
      "street": "R RIBEIRINHO",
      "house": "",
      "postcode": "5070-555",
      "city": "VILA VERDE ALJ",
      "lon": "-7.541953721096861",
      "lat": "41.38826983378366"
    },
    {
      "id": "pt.ine.add.PTCONT.5311891",
      "street": "R GREGORIO",
      "house": "",
      "postcode": "5070-555",
      "city": "VILA VERDE ALJ",
      "lon": "-7.5416510816997775",
      "lat": "41.388682460985656"
    },
    {
      "id": "pt.ine.add.PTCONT.5313886",
      "street": "R DIREITA",
      "house": "",
      "postcode": "5070-555",
      "city": "VILA VERDE ALJ",
      "lon": "-7.542646403104323",
      "lat": "41.38835442600877"
    },
    {
      "id": "pt.ine.add.PTCONT.5314978",
      "street": "LG CAPELA",
      "house": "",
      "postcode": "5070-555",
      "city": "VILA VERDE ALJ",
      "lon": "-7.542381997735267",
      "lat": "41.38850613633726"
    },
    {
      "id": "pt.ine.add.PTCONT.5317961",
      "street": "R FONTE HORTAS",
      "house": "7",
      "postcode": "5070-555",
      "city": "VILA VERDE ALJ",
      "lon": "-7.542601269759773",
      "lat": "41.38805706353217"
    },
    {
      "id": "pt.ine.add.PTCONT.5317969",
      "street": "R IGREJA",
      "house": "",
      "postcode": "5070-555",
      "city": "VILA VERDE ALJ",
      "lon": "-7.541792181937139",
      "lat": "41.38894430114101"
    },
    {
      "id": "pt.ine.add.PTCONT.5320773",
      "street": "R GREGORIO",
      "house": "",
      "postcode": "5070-555",
      "city": "VILA VERDE ALJ",
      "lon": "-7.541389529995301",
      "lat": "41.38851904492137"
    },
    {
      "id": "pt.ine.add.PTCONT.5326455",
      "street": "R FONTE DAS HORTAS",
      "house": "",
      "postcode": "5070-555",
      "city": "VILA VERDE ALJ",
      "lon": "-7.542827282163513",
      "lat": "41.38818427868752"
    },
    {
      "id": "pt.ine.add.PTCONT.5335844",
      "street": "R IGREJA",
      "house": "23",
      "postcode": "5070-555",
      "city": "VILA VERDE ALJ",
      "lon": "-7.5406659894468655",
      "lat": "41.38919962322817"
    },
    {
      "id": "pt.ine.add.PTCONT.5343827",
      "street": "R IGREJA",
      "house": "",
      "postcode": "5070-555",
      "city": "VILA VERDE ALJ",
      "lon": "-7.540401984953539",
      "lat": "41.38930631121871"
    },
    {
      "id": "pt.ine.add.PTCONT.5348237",
      "street": "R RIBEIRINHO",
      "house": "",
      "postcode": "5070-555",
      "city": "VILA VERDE ALJ",
      "lon": "-7.54109039804258",
      "lat": "41.38854451818301"
    },
    {
      "id": "pt.ine.add.PTCONT.5349278",
      "street": "R IGREJA",
      "house": "",
      "postcode": "5070-555",
      "city": "VILA VERDE ALJ",
      "lon": "-7.540869234658845",
      "lat": "41.38920066948992"
    },
    {
      "id": "pt.ine.add.PTCONT.5350894",
      "street": "R RIBEIRINHO",
      "house": "3",
      "postcode": "5070-555",
      "city": "VILA VERDE ALJ",
      "lon": "-7.54146232399844",
      "lat": "41.38840236768509"
    },
    {
      "id": "pt.ine.add.PTCONT.5353001",
      "street": "R DIREITA",
      "house": "",
      "postcode": "5070-555",
      "city": "VILA VERDE ALJ",
      "lon": "-7.542946266412162",
      "lat": "41.38824791675865"
    },
    {
      "id": "pt.ine.add.PTCONT.5354850",
      "street": "R GREGORIO",
      "house": "",
      "postcode": "5070-555",
      "city": "VILA VERDE ALJ",
      "lon": "-7.542036267478524",
      "lat": "41.38839631334783"
    },
    {
      "id": "pt.ine.add.PTCONT.5356085",
      "street": "R RIBEIRINHO",
      "house": "",
      "postcode": "5070-555",
      "city": "VILA VERDE ALJ",
      "lon": "-7.54119799737573",
      "lat": "41.38854507172703"
    },
    {
      "id": "pt.ine.add.PTCONT.5363698",
      "street": "",
      "house": "",
      "postcode": "5070-555",
      "city": "VILA VERDE ALJ",
      "lon": "-7.541843511864061",
      "lat": "41.38855739442427"
    },
    {
      "id": "pt.ine.add.PTCONT.5371265",
      "street": "",
      "house": "",
      "postcode": "5070-555",
      "city": "VILA VERDE ALJ",
      "lon": "-7.5418178877688895",
      "lat": "41.38874634601647"
    },
    {
      "id": "pt.ine.add.PTCONT.5372403",
      "street": "R RIBEIRINHO",
      "house": "",
      "postcode": "5070-555",
      "city": "VILA VERDE ALJ",
      "lon": "-7.54134211630002",
      "lat": "41.38847378126824"
    },
    {
      "id": "pt.ine.add.PTCONT.5375598",
      "street": "TV CHAFARIZ",
      "house": "",
      "postcode": "5070-555",
      "city": "VILA VERDE ALJ",
      "lon": "-7.540175809862139",
      "lat": "41.38919709841423"
    },
    {
      "id": "pt.ine.add.PTCONT.5379503",
      "street": "R FONTE HORTAS",
      "house": "1",
      "postcode": "5070-555",
      "city": "VILA VERDE ALJ",
      "lon": "-7.542862089802444",
      "lat": "41.388301508794875"
    },
    {
      "id": "pt.ine.add.PTCONT.5380945",
      "street": "R RIBEIRINHO",
      "house": "",
      "postcode": "5070-555",
      "city": "VILA VERDE ALJ",
      "lon": "-7.541678338172993",
      "lat": "41.388313438514814"
    },
    {
      "id": "pt.ine.add.PTCONT.5384035",
      "street": "R FONTE DAS HORTAS",
      "house": "8",
      "postcode": "5070-555",
      "city": "VILA VERDE ALJ",
      "lon": "-7.542469190012331",
      "lat": "41.38811941340825"
    },
    {
      "id": "pt.ine.add.PTCONT.5385262",
      "street": "R RIBEIRINHO",
      "house": "",
      "postcode": "5070-555",
      "city": "VILA VERDE ALJ",
      "lon": "-7.541582449825274",
      "lat": "41.388339957519534"
    },
    {
      "id": "pt.ine.add.PTCONT.5396979",
      "street": "",
      "house": "",
      "postcode": "5070-555",
      "city": "VILA VERDE ALJ",
      "lon": "-7.542191443836358",
      "lat": "41.388424122239236"
    },
    {
      "id": "pt.ine.add.PTCONT.5398005",
      "street": "TV CHAFARIZ",
      "house": "33",
      "postcode": "5070-555",
      "city": "VILA VERDE ALJ",
      "lon": "-7.540175237222077",
      "lat": "41.3892601232089"
    },
    {
      "id": "pt.ine.add.PTCONT.5399053",
      "street": "R PASSADEIRAS",
      "house": "",
      "postcode": "5070-555",
      "city": "VILA VERDE ALJ",
      "lon": "-7.54291211004899",
      "lat": "41.388058658288266"
    },
    {
      "id": "pt.ine.add.PTCONT.5399063",
      "street": "R PASSADEIRAS",
      "house": "",
      "postcode": "5070-555",
      "city": "VILA VERDE ALJ",
      "lon": "-7.543667089135773",
      "lat": "41.38786444092828"
    },
    {
      "id": "pt.ine.add.PTCONT.5405542",
      "street": "R IGREJA",
      "house": "",
      "postcode": "5070-555",
      "city": "VILA VERDE ALJ",
      "lon": "-7.5416473280336636",
      "lat": "41.389096624056926"
    },
    {
      "id": "pt.ine.add.PTCONT.5412078",
      "street": "TV CHAFARIZ",
      "house": "29",
      "postcode": "5070-555",
      "city": "VILA VERDE ALJ",
      "lon": "-7.540176382500376",
      "lat": "41.38913407361886"
    },
    {
      "id": "pt.ine.add.PTCONT.5413228",
      "street": "R GREGORIO",
      "house": "9",
      "postcode": "5070-555",
      "city": "VILA VERDE ALJ",
      "lon": "-7.5415429108223995",
      "lat": "41.388744932679735"
    },
    {
      "id": "pt.ine.add.PTCONT.5414151",
      "street": "R IGREJA",
      "house": "",
      "postcode": "5070-555",
      "city": "VILA VERDE ALJ",
      "lon": "-7.5417435438267315",
      "lat": "41.38903409082911"
    },
    {
      "id": "pt.ine.add.PTCONT.5416481",
      "street": "R IGREJA",
      "house": "17",
      "postcode": "5070-555",
      "city": "VILA VERDE ALJ",
      "lon": "-7.541024739163718",
      "lat": "41.389192465786685"
    },
    {
      "id": "pt.ine.add.PTCONT.5417216",
      "street": "R IGREJA",
      "house": "15",
      "postcode": "5070-555",
      "city": "VILA VERDE ALJ",
      "lon": "-7.541216028766117",
      "lat": "41.38919344991704"
    },
    {
      "id": "pt.ine.add.PTCONT.5419562",
      "street": "R IGREJA",
      "house": "35",
      "postcode": "5070-555",
      "city": "VILA VERDE ALJ",
      "lon": "-7.540114641027642",
      "lat": "41.389349850580025"
    },
    {
      "id": "pt.ine.add.PTCONT.5421868",
      "street": "",
      "house": "",
      "postcode": "5070-555",
      "city": "VILA VERDE ALJ",
      "lon": "-7.542252280863427",
      "lat": "41.38830738309462"
    },
    {
      "id": "pt.ine.add.PTCONT.5424532",
      "street": "TV CHAFARIZ",
      "house": "27",
      "postcode": "5070-555",
      "city": "VILA VERDE ALJ",
      "lon": "-7.5403304965916575",
      "lat": "41.38927893107206"
    }
  ]
}