{
  "data": {
    "distrito": "Lisboa",
    "concelho": "Alenquer",
    "freguesia": "União das freguesias de Aldeia Galega da Merceana e Aldeia Gavinha",
    "OBJECTID": 59,
    "BGRI2021": "11011800319",
    "DT21": "11",
    "DTMN21": "1101",
    "DTMNFR21": "110118",
    "DTMNFRSEC21": "110118003",
    "SECNUM21": "003",
    "SSNUM21": "19",
    "SECSSNUM21": "00319",
    "OBJECTID_1": 99102,
    "DT": "11",
    "CC": "01",
    "fr": "18",
    "SEC": "003",
    "SS": "19"
  },
  "addresses": [
    {
      "id": "pt.ine.add.PTCONT.2277637",
      "street": "R VAL DA BICA",
      "house": "5",
      "postcode": "2580-083",
      "city": "ALDEIA GALEGA DA MERCEANA",
      "lon": "-9.123752450106425",
      "lat": "39.102390474290836"
    },
    {
      "id": "pt.ine.add.PTCONT.2304464",
      "street": "R VAL",
      "house": "10",
      "postcode": "2580-082",
      "city": "ALDEIA GALEGA DA MERCEANA",
      "lon": "-9.124083830925155",
      "lat": "39.103765776975536"
    },
    {
      "id": "pt.ine.add.PTCONT.2374509",
      "street": "R VAL DA BICA",
      "house": "6",
      "postcode": "2580-082",
      "city": "ALDEIA GALEGA DA MERCEANA",
      "lon": "-9.123516305728291",
      "lat": "39.10368953406421"
    },
    {
      "id": "pt.ine.add.PTCONT.2405361",
      "street": "ESTR CUNCA",
      "house": "",
      "postcode": "2580-083",
      "city": "ALDEIA GALEGA DA MERCEANA",
      "lon": "-9.12350728554826",
      "lat": "39.101392745215925"
    },
    {
      "id": "pt.ine.add.PTCONT.2438592",
      "street": "ESTR CUNCA QTA DA AMIZADE",
      "house": "",
      "postcode": "2580-082",
      "city": "ALDEIA GALEGA DA MERCEANA",
      "lon": "-9.122084317601967",
      "lat": "39.10131475216001"
    },
    {
      "id": "pt.ine.add.PTCONT.2561318",
      "street": "ESTR CUNCA",
      "house": "1",
      "postcode": "2580-083",
      "city": "ALDEIA GALEGA DA MERCEANA",
      "lon": "-9.122780001778226",
      "lat": "39.102290645969354"
    },
    {
      "id": "pt.ine.add.PTCONT.2608188",
      "street": "TV HORTA DO LOURENÇO",
      "house": "2",
      "postcode": "2580-082",
      "city": "ALDEIA GALEGA DA MERCEANA",
      "lon": "-9.123710035139982",
      "lat": "39.103489727128334"
    },
    {
      "id": "pt.ine.add.PTCONT.2791414",
      "street": "R VAL",
      "house": "2",
      "postcode": "2580-082",
      "city": "ALDEIA GALEGA DA MERCEANA",
      "lon": "-9.12399812625059",
      "lat": "39.10342422756114"
    },
    {
      "id": "pt.ine.add.PTCONT.2797290",
      "street": "QTA SANTO ANTÓNIO",
      "house": "",
      "postcode": "2580-087",
      "city": "ALDEIA GALEGA DA MERCEANA",
      "lon": "-9.118303147173126",
      "lat": "39.101238679706434"
    },
    {
      "id": "pt.ine.add.PTCONT.2797291",
      "street": "QTA SANTO ANTÓNIO",
      "house": "",
      "postcode": "2580-087",
      "city": "ALDEIA GALEGA DA MERCEANA",
      "lon": "-9.118303147173126",
      "lat": "39.101238679706434"
    },
    {
      "id": "pt.ine.add.PTCONT.2999455",
      "street": "R VAL",
      "house": "4",
      "postcode": "2580-082",
      "city": "ALDEIA GALEGA DA MERCEANA",
      "lon": "-9.123630761124119",
      "lat": "39.103607495803445"
    },
    {
      "id": "pt.ine.add.PTCONT.3117989",
      "street": "QTA SANTO ANTÓNIO",
      "house": "",
      "postcode": "2580-087",
      "city": "ALDEIA GALEGA DA MERCEANA",
      "lon": "-9.117986929256949",
      "lat": "39.10094410999308"
    },
    {
      "id": "pt.ine.add.PTCONT.3183250",
      "street": "QTA SANTO ANTÓNIO",
      "house": "",
      "postcode": "2580-087",
      "city": "ALDEIA GALEGA DA MERCEANA",
      "lon": "-9.118632954303994",
      "lat": "39.100848577309364"
    },
    {
      "id": "pt.ine.add.PTCONT.3183251",
      "street": "QTA SANTO ANTÓNIO",
      "house": "",
      "postcode": "2580-087",
      "city": "ALDEIA GALEGA DA MERCEANA",
      "lon": "-9.118632954303994",
      "lat": "39.100848577309364"
    },
    {
      "id": "pt.ine.add.PTCONT.3260549",
      "street": "R VAL",
      "house": "6",
      "postcode": "2580-082",
      "city": "ALDEIA GALEGA DA MERCEANA",
      "lon": "-9.124023387827295",
      "lat": "39.10357713717533"
    },
    {
      "id": "pt.ine.add.PTCONT.3300107",
      "street": "LG VENDA",
      "house": "3",
      "postcode": "2580-082",
      "city": "ALDEIA GALEGA DA MERCEANA",
      "lon": "-9.123997117481693",
      "lat": "39.10335217762301"
    },
    {
      "id": "pt.ine.add.PTCONT.3378996",
      "street": "R VAL",
      "house": "8",
      "postcode": "2580-082",
      "city": "ALDEIA GALEGA DA MERCEANA",
      "lon": "-9.124035955608091",
      "lat": "39.1036490888575"
    },
    {
      "id": "pt.ine.add.PTCONT.3424183",
      "street": "R VAL DA BICA QTA HORIZONTE VERDE",
      "house": "",
      "postcode": "2580-082",
      "city": "ALDEIA GALEGA DA MERCEANA",
      "lon": "-9.124542095905564",
      "lat": "39.10677032240719"
    }
  ]
}