{
  "data": {
    "distrito": "Lisboa",
    "concelho": "Lourinhã",
    "freguesia": "União das freguesias de Lourinhã e Atalaia",
    "OBJECTID": 600,
    "BGRI2021": "11081200707",
    "DT21": "11",
    "DTMN21": "1108",
    "DTMNFR21": "110812",
    "DTMNFRSEC21": "110812007",
    "SECNUM21": "007",
    "SSNUM21": "07",
    "SECSSNUM21": "00707",
    "OBJECTID_1": 107236,
    "DT": "11",
    "CC": "08",
    "fr": "12",
    "SEC": "007",
    "SS": "07"
  },
  "addresses": [
    {
      "id": "pt.ine.add.PTCONT.2525507",
      "street": "EM 247-1 CASAL DAS AROTEIAS",
      "house": "",
      "postcode": "2530-059",
      "city": "LOURINHÃ",
      "lon": "-9.296748268554017",
      "lat": "39.27427747087658"
    },
    {
      "id": "pt.ine.add.PTCONT.2563104",
      "street": "EM 247-1",
      "house": "",
      "postcode": "2530-059",
      "city": "LOURINHÃ",
      "lon": "-9.29675538544596",
      "lat": "39.27400719110866"
    },
    {
      "id": "pt.ine.add.PTCONT.2565717",
      "street": "EM 247-1",
      "house": "",
      "postcode": "2530-059",
      "city": "LOURINHÃ",
      "lon": "-9.29675538544596",
      "lat": "39.27400719110866"
    },
    {
      "id": "pt.ine.add.PTCONT.2566156",
      "street": "EM 247-1",
      "house": "",
      "postcode": "2530-059",
      "city": "LOURINHÃ",
      "lon": "-9.29675538544596",
      "lat": "39.27400719110866"
    },
    {
      "id": "pt.ine.add.PTCONT.2739281",
      "street": "R POR DO SOL CASA DO VALE",
      "house": "",
      "postcode": "2530-060",
      "city": "LOURINHÃ",
      "lon": "-9.296603060698517",
      "lat": "39.27250455169604"
    },
    {
      "id": "pt.ine.add.PTCONT.2756549",
      "street": "R PANORAMICA",
      "house": "5",
      "postcode": "2530-060",
      "city": "LOURINHÃ",
      "lon": "-9.298762507614647",
      "lat": "39.27624785926406"
    },
    {
      "id": "pt.ine.add.PTCONT.2756550",
      "street": "R PANORAMICA",
      "house": "5",
      "postcode": "2530-060",
      "city": "LOURINHÃ",
      "lon": "-9.298762507614647",
      "lat": "39.27624785926406"
    },
    {
      "id": "pt.ine.add.PTCONT.2894976",
      "street": "EM 247-1 CASAL DAS AROTEIAS",
      "house": "62",
      "postcode": "2530-059",
      "city": "LOURINHÃ",
      "lon": "-9.296855525156717",
      "lat": "39.274456537978885"
    },
    {
      "id": "pt.ine.add.PTCONT.2902493",
      "street": "R CASAL ARRAIA",
      "house": "14",
      "postcode": "2530-060",
      "city": "LOURINHÃ",
      "lon": "-9.299869277730293",
      "lat": "39.27729959347518"
    }
  ]
}