{
  "data": {
    "distrito": "Viseu",
    "concelho": "Mangualde",
    "freguesia": "União das freguesias de Tavares (Chãs, Várzea e Travanca)",
    "OBJECTID": 387,
    "BGRI2021": "18062200215",
    "DT21": "18",
    "DTMN21": "1806",
    "DTMNFR21": "180622",
    "DTMNFRSEC21": "180622002",
    "SECNUM21": "002",
    "SSNUM21": "15",
    "SECSSNUM21": "00215",
    "OBJECTID_1": 192153,
    "DT": "18",
    "CC": "06",
    "fr": "22",
    "SEC": "002",
    "SS": "15"
  },
  "addresses": [
    {
      "id": "pt.ine.add.PTCONT.5428389",
      "street": "R PACO",
      "house": "2",
      "postcode": "3530-031",
      "city": "CHÃS DE TAVARES",
      "lon": "-7.6098989236984105",
      "lat": "40.62342622146361"
    },
    {
      "id": "pt.ine.add.PTCONT.5450483",
      "street": "LG CRUZEIRO",
      "house": "1",
      "postcode": "3530-031",
      "city": "CHÃS DE TAVARES",
      "lon": "-7.6099113742169076",
      "lat": "40.62334523135955"
    },
    {
      "id": "pt.ine.add.PTCONT.5482009",
      "street": "LG CRUZEIRO",
      "house": "3",
      "postcode": "3530-031",
      "city": "CHÃS DE TAVARES",
      "lon": "-7.609745709720398",
      "lat": "40.62337149624639"
    },
    {
      "id": "pt.ine.add.PTCONT.5538825",
      "street": "LG OUTEIRO",
      "house": "5",
      "postcode": "3530-031",
      "city": "CHÃS DE TAVARES",
      "lon": "-7.60853112050763",
      "lat": "40.623023789387545"
    },
    {
      "id": "pt.ine.add.PTCONT.5547802",
      "street": "R PACO",
      "house": "8",
      "postcode": "3530-031",
      "city": "CHÃS DE TAVARES",
      "lon": "-7.609860798955766",
      "lat": "40.62376824509534"
    },
    {
      "id": "pt.ine.add.PTCONT.5551511",
      "street": "R IGREJA",
      "house": "",
      "postcode": "3530-031",
      "city": "CHÃS DE TAVARES",
      "lon": "-7.609767729416918",
      "lat": "40.62357871488087"
    },
    {
      "id": "pt.ine.add.PTCONT.5558570",
      "street": "R SENHOR DO BOM SUCESSO",
      "house": "11",
      "postcode": "3530-031",
      "city": "CHÃS DE TAVARES",
      "lon": "-7.608493904963882",
      "lat": "40.62324874953407"
    },
    {
      "id": "pt.ine.add.PTCONT.5567760",
      "street": "R PRAÇA",
      "house": "5",
      "postcode": "3530-031",
      "city": "CHÃS DE TAVARES",
      "lon": "-7.609754575808613",
      "lat": "40.62374975345036"
    },
    {
      "id": "pt.ine.add.PTCONT.5569537",
      "street": "R IGREJA",
      "house": "",
      "postcode": "3530-031",
      "city": "CHÃS DE TAVARES",
      "lon": "-7.609695836344303",
      "lat": "40.623704461417105"
    },
    {
      "id": "pt.ine.add.PTCONT.5597319",
      "street": "R SENHOR DO BOM SUCESSO",
      "house": "",
      "postcode": "3530-031",
      "city": "CHÃS DE TAVARES",
      "lon": "-7.608528725200356",
      "lat": "40.623329954206554"
    },
    {
      "id": "pt.ine.add.PTCONT.5623265",
      "street": "R PACO",
      "house": "4",
      "postcode": "3530-031",
      "city": "CHÃS DE TAVARES",
      "lon": "-7.609945212571546",
      "lat": "40.623552503502566"
    },
    {
      "id": "pt.ine.add.PTCONT.5627700",
      "street": "R IGREJA",
      "house": "",
      "postcode": "3530-031",
      "city": "CHÃS DE TAVARES",
      "lon": "-7.609838146435589",
      "lat": "40.62364207012279"
    },
    {
      "id": "pt.ine.add.PTCONT.5632890",
      "street": "R PACO",
      "house": "",
      "postcode": "3530-031",
      "city": "CHÃS DE TAVARES",
      "lon": "-7.609920803355793",
      "lat": "40.62365144976771"
    },
    {
      "id": "pt.ine.add.PTCONT.5636312",
      "street": "LG CARVALHAS",
      "house": "1",
      "postcode": "3530-031",
      "city": "CHÃS DE TAVARES",
      "lon": "-7.608670260815442",
      "lat": "40.623366617671756"
    },
    {
      "id": "pt.ine.add.PTCONT.5638542",
      "street": "R COELHO VASCONCELOS",
      "house": "1",
      "postcode": "3530-031",
      "city": "CHÃS DE TAVARES",
      "lon": "-7.608766707068813",
      "lat": "40.62312391606699"
    }
  ]
}