{
  "data": {
    "distrito": "Lisboa",
    "concelho": "Sintra",
    "freguesia": "União das freguesias de São João das Lampas e Terrugem",
    "OBJECTID": 2906,
    "BGRI2021": "11112700622",
    "DT21": "11",
    "DTMN21": "1111",
    "DTMNFR21": "111127",
    "DTMNFRSEC21": "111127006",
    "SECNUM21": "006",
    "SSNUM21": "22",
    "SECSSNUM21": "00622",
    "OBJECTID_1": 112148,
    "DT": "11",
    "CC": "11",
    "fr": "27",
    "SEC": "006",
    "SS": "22"
  },
  "addresses": [
    {
      "id": "pt.ine.add.PTCONT.2270586",
      "street": "BC JOGO",
      "house": "5",
      "postcode": "2705-713",
      "city": "SÃO JOÃO DAS LAMPAS",
      "lon": "-9.370304545030033",
      "lat": "38.88095843413565"
    },
    {
      "id": "pt.ine.add.PTCONT.2282126",
      "street": "AV DR JOÃO RAUL BRANCO GUERREIRO",
      "house": "39",
      "postcode": "2705-713",
      "city": "SÃO JOÃO DAS LAMPAS",
      "lon": "-9.37013156117379",
      "lat": "38.88095125945313"
    },
    {
      "id": "pt.ine.add.PTCONT.2282127",
      "street": "AV DR JOÃO RAUL BRANCO GUERREIRO",
      "house": "47",
      "postcode": "2705-713",
      "city": "SÃO JOÃO DAS LAMPAS",
      "lon": "-9.370376175333842",
      "lat": "38.88110179490716"
    },
    {
      "id": "pt.ine.add.PTCONT.2344547",
      "street": "QTA S JORGE",
      "house": "",
      "postcode": "2705-572",
      "city": "SÃO JOÃO DAS LAMPAS",
      "lon": "-9.377636258504994",
      "lat": "38.87251256113819"
    },
    {
      "id": "pt.ine.add.PTCONT.2345353",
      "street": "AV DR JOÃO RAUL BRANCO GUERREIRO",
      "house": "55",
      "postcode": "2705-713",
      "city": "SÃO JOÃO DAS LAMPAS",
      "lon": "-9.370576890162836",
      "lat": "38.881378899911816"
    },
    {
      "id": "pt.ine.add.PTCONT.2365170",
      "street": "AV DR JOÃO RAUL BRANCO GUERREIRO",
      "house": "",
      "postcode": "2705-713",
      "city": "SÃO JOÃO DAS LAMPAS",
      "lon": "-9.370523772516503",
      "lat": "38.88097412597417"
    },
    {
      "id": "pt.ine.add.PTCONT.2374833",
      "street": "AV DR JOÃO RAÚL BRANCO GUERREIRO",
      "house": "43",
      "postcode": "2705-725",
      "city": "SÃO JOÃO DAS LAMPAS",
      "lon": "-9.370620126227863",
      "lat": "38.88054975290917"
    },
    {
      "id": "pt.ine.add.PTCONT.2374834",
      "street": "AV DR JOÃO RAÚL BRANCO GUERREIRO",
      "house": "43",
      "postcode": "2705-725",
      "city": "SÃO JOÃO DAS LAMPAS",
      "lon": "-9.370620126227863",
      "lat": "38.88054975290917"
    },
    {
      "id": "pt.ine.add.PTCONT.2374835",
      "street": "AV DR JOÃO RAÚL BRANCO GUERREIRO",
      "house": "43",
      "postcode": "2705-725",
      "city": "SÃO JOÃO DAS LAMPAS",
      "lon": "-9.370620126227863",
      "lat": "38.88054975290917"
    },
    {
      "id": "pt.ine.add.PTCONT.2391045",
      "street": "BR COSTA",
      "house": "26A",
      "postcode": "2705-705",
      "city": "SÃO JOÃO DAS LAMPAS",
      "lon": "-9.373654266706103",
      "lat": "38.88074274281836"
    },
    {
      "id": "pt.ine.add.PTCONT.2409596",
      "street": "BR COSTA",
      "house": "26",
      "postcode": "2705-705",
      "city": "SÃO JOÃO DAS LAMPAS",
      "lon": "-9.373863625774774",
      "lat": "38.88019106168144"
    },
    {
      "id": "pt.ine.add.PTCONT.2421247",
      "street": "AV DR JOÃO RAUL BRANCO GUERREIRO",
      "house": "45",
      "postcode": "2705-713",
      "city": "SÃO JOÃO DAS LAMPAS",
      "lon": "-9.370145737959913",
      "lat": "38.88110423653234"
    },
    {
      "id": "pt.ine.add.PTCONT.2545433",
      "street": "BC JOGO",
      "house": "4",
      "postcode": "2705-713",
      "city": "SÃO JOÃO DAS LAMPAS",
      "lon": "-9.370259238584893",
      "lat": "38.88100395162683"
    },
    {
      "id": "pt.ine.add.PTCONT.2637899",
      "street": "R FONTE DAS PARREIRAS",
      "house": "21",
      "postcode": "2705-710",
      "city": "SÃO JOÃO DAS LAMPAS",
      "lon": "-9.37260327929928",
      "lat": "38.88060978469771"
    },
    {
      "id": "pt.ine.add.PTCONT.2650464",
      "street": "BC JOGO",
      "house": "2",
      "postcode": "2705-713",
      "city": "SÃO JOÃO DAS LAMPAS",
      "lon": "-9.370202254041523",
      "lat": "38.881040585344934"
    },
    {
      "id": "pt.ine.add.PTCONT.2697818",
      "street": "AV DR JOÃO RAUL BRANCO GUERREIRO",
      "house": "29",
      "postcode": "2705-713",
      "city": "SÃO JOÃO DAS LAMPAS",
      "lon": "-9.368974983804073",
      "lat": "38.880044743252654"
    },
    {
      "id": "pt.ine.add.PTCONT.2740983",
      "street": "AV DR JOÃO RAUL BRANCO GUERREIRO",
      "house": "E 57",
      "postcode": "2705-713",
      "city": "SÃO JOÃO DAS LAMPAS",
      "lon": "-9.37073897817273",
      "lat": "38.88142221936443"
    },
    {
      "id": "pt.ine.add.PTCONT.2803863",
      "street": "R FONTE DAS PARREIRAS",
      "house": "29",
      "postcode": "2705-710",
      "city": "SÃO JOÃO DAS LAMPAS",
      "lon": "-9.37333760625233",
      "lat": "38.88108839121399"
    },
    {
      "id": "pt.ine.add.PTCONT.2821925",
      "street": "AV DR JOÃO RAUL BRANCO GUERREIRO",
      "house": "31",
      "postcode": "2705-713",
      "city": "SÃO JOÃO DAS LAMPAS",
      "lon": "-9.369567429536145",
      "lat": "38.880317703143554"
    },
    {
      "id": "pt.ine.add.PTCONT.2828161",
      "street": "R FONTE DAS PARREIRAS",
      "house": "3",
      "postcode": "2705-710",
      "city": "SÃO JOÃO DAS LAMPAS",
      "lon": "-9.371133693056853",
      "lat": "38.88158917704717"
    },
    {
      "id": "pt.ine.add.PTCONT.2839693",
      "street": "AV DR JOÃO RAUL BRANCO GUERREIRO",
      "house": "43",
      "postcode": "2705-713",
      "city": "SÃO JOÃO DAS LAMPAS",
      "lon": "-9.370187920972963",
      "lat": "38.88087860244047"
    },
    {
      "id": "pt.ine.add.PTCONT.2850947",
      "street": "R LOMBA",
      "house": "9",
      "postcode": "2705-705",
      "city": "SÃO JOÃO DAS LAMPAS",
      "lon": "-9.3740489843469",
      "lat": "38.88090969061333"
    },
    {
      "id": "pt.ine.add.PTCONT.2936849",
      "street": "R FONTE PARREIRAS",
      "house": "5D",
      "postcode": "2705-710",
      "city": "SÃO JOÃO DAS LAMPAS",
      "lon": "-9.37108416680488",
      "lat": "38.8813915374899"
    },
    {
      "id": "pt.ine.add.PTCONT.2949087",
      "street": "R LOMBA",
      "house": "1",
      "postcode": "2705-705",
      "city": "SÃO JOÃO DAS LAMPAS",
      "lon": "-9.373579721755283",
      "lat": "38.88109482670357"
    },
    {
      "id": "pt.ine.add.PTCONT.2976462",
      "street": "AV DR JOÃO RAUL BRANCO GUERREIRO",
      "house": "51",
      "postcode": "2705-713",
      "city": "SÃO JOÃO DAS LAMPAS",
      "lon": "-9.370391446121419",
      "lat": "38.8813178127606"
    },
    {
      "id": "pt.ine.add.PTCONT.3031667",
      "street": "BC JOGO",
      "house": "7",
      "postcode": "2705-713",
      "city": "SÃO JOÃO DAS LAMPAS",
      "lon": "-9.370634616423626",
      "lat": "38.88072074158557"
    },
    {
      "id": "pt.ine.add.PTCONT.3031671",
      "street": "R FONTE DAS PARREIRAS",
      "house": "27",
      "postcode": "2705-710",
      "city": "SÃO JOÃO DAS LAMPAS",
      "lon": "-9.373519920100057",
      "lat": "38.88096935724275"
    },
    {
      "id": "pt.ine.add.PTCONT.3040309",
      "street": "AV DR JOAO RAUL BRANCO GUERREIRO",
      "house": "57",
      "postcode": "2705-713",
      "city": "SÃO JOÃO DAS LAMPAS",
      "lon": "-9.37079736905126",
      "lat": "38.881466637850735"
    },
    {
      "id": "pt.ine.add.PTCONT.3049455",
      "street": "R FONTE DAS PARREIRAS",
      "house": "5 C",
      "postcode": "2705-710",
      "city": "SÃO JOÃO DAS LAMPAS",
      "lon": "-9.3709107130345",
      "lat": "38.88135734649428"
    },
    {
      "id": "pt.ine.add.PTCONT.3145164",
      "street": "CSL GFLUPA",
      "house": "",
      "postcode": "2705-432",
      "city": "SÃO JOÃO DAS LAMPAS",
      "lon": "-9.372716072119573",
      "lat": "38.877816266112035"
    },
    {
      "id": "pt.ine.add.PTCONT.3171420",
      "street": "BC JOGO",
      "house": "1",
      "postcode": "2705-713",
      "city": "SÃO JOÃO DAS LAMPAS",
      "lon": "-9.370203815848987",
      "lat": "38.8811306436643"
    },
    {
      "id": "pt.ine.add.PTCONT.3226853",
      "street": "R FONTE DAS PARREIRAS",
      "house": "25",
      "postcode": "2705-710",
      "city": "SÃO JOÃO DAS LAMPAS",
      "lon": "-9.37332436207883",
      "lat": "38.88098944956311"
    },
    {
      "id": "pt.ine.add.PTCONT.3302724",
      "street": "AV DR JOÃO RAUL BRANCO GUERREIRO",
      "house": "47 C",
      "postcode": "2705-713",
      "city": "SÃO JOÃO DAS LAMPAS",
      "lon": "-9.37075124070587",
      "lat": "38.88080057283274"
    },
    {
      "id": "pt.ine.add.PTCONT.3319295",
      "street": "BC JOGO",
      "house": "6",
      "postcode": "2705-713",
      "city": "SÃO JOÃO DAS LAMPAS",
      "lon": "-9.370372738891538",
      "lat": "38.880903666614536"
    },
    {
      "id": "pt.ine.add.PTCONT.3337796",
      "street": "AV DR JOÃO RAUL BRANCO GUERREIRO",
      "house": "23",
      "postcode": "2705-713",
      "city": "SÃO JOÃO DAS LAMPAS",
      "lon": "-9.369064480415757",
      "lat": "38.879224114381415"
    },
    {
      "id": "pt.ine.add.PTCONT.3390663",
      "street": "ESTR CONCELHO INTERGADOS",
      "house": "",
      "postcode": "2705-572",
      "city": "SÃO JOÃO DAS LAMPAS",
      "lon": "-9.381737659028383",
      "lat": "38.873792876920724"
    }
  ]
}