{
  "data": {
    "distrito": "Porto",
    "concelho": "Penafiel",
    "freguesia": "Oldrões",
    "OBJECTID": 1318,
    "BGRI2021": "13112100117",
    "DT21": "13",
    "DTMN21": "1311",
    "DTMNFR21": "131121",
    "DTMNFRSEC21": "131121001",
    "SECNUM21": "001",
    "SSNUM21": "17",
    "SECSSNUM21": "00117",
    "OBJECTID_1": 136004,
    "DT": "13",
    "CC": "11",
    "fr": "21",
    "SEC": "001",
    "SS": "17"
  },
  "addresses": [
    {
      "id": "pt.ine.add.PTCONT.3632428",
      "street": "AV CENTRAL DE OLDROES",
      "house": "",
      "postcode": "4575-261",
      "city": "OLDRÕES",
      "lon": "-8.297925394375788",
      "lat": "41.14729497023132"
    },
    {
      "id": "pt.ine.add.PTCONT.3636433",
      "street": "AV CENTRAL DE OLDROES",
      "house": "",
      "postcode": "4575-261",
      "city": "OLDRÕES",
      "lon": "-8.297925394375788",
      "lat": "41.14729497023132"
    },
    {
      "id": "pt.ine.add.PTCONT.3726071",
      "street": "R IGREJA VELHA",
      "house": "",
      "postcode": "4575-267",
      "city": "OLDRÕES",
      "lon": "-8.30376005529808",
      "lat": "41.14640404322648"
    },
    {
      "id": "pt.ine.add.PTCONT.3794895",
      "street": "R SANTO ESTEVÃO",
      "house": "",
      "postcode": "4575-267",
      "city": "OLDRÕES",
      "lon": "-8.301347368542183",
      "lat": "41.14387735489131"
    },
    {
      "id": "pt.ine.add.PTCONT.3936589",
      "street": "R IGREJA VELHA",
      "house": "",
      "postcode": "4575-267",
      "city": "OLDRÕES",
      "lon": "-8.302984963348388",
      "lat": "41.14609003480581"
    },
    {
      "id": "pt.ine.add.PTCONT.4029264",
      "street": "PADIM",
      "house": "",
      "postcode": "4575-267",
      "city": "OLDRÕES",
      "lon": "-8.303059782736",
      "lat": "41.1473865581037"
    },
    {
      "id": "pt.ine.add.PTCONT.4039571",
      "street": "R OUTEIRO",
      "house": "",
      "postcode": "4575-269",
      "city": "OLDRÕES",
      "lon": "-8.302988379517972",
      "lat": "41.147413676623415"
    },
    {
      "id": "pt.ine.add.PTCONT.4059256",
      "street": "R PADRE LOPES COELHO",
      "house": "",
      "postcode": "4575-267",
      "city": "OLDRÕES",
      "lon": "-8.29920763394714",
      "lat": "41.14560030110738"
    },
    {
      "id": "pt.ine.add.PTCONT.4078896",
      "street": "R IGREJA VELHA",
      "house": "",
      "postcode": "4575-267",
      "city": "OLDRÕES",
      "lon": "-8.302328557615123",
      "lat": "41.1456047632235"
    },
    {
      "id": "pt.ine.add.PTCONT.4092302",
      "street": "R OUTEIRO",
      "house": "",
      "postcode": "4575-269",
      "city": "OLDRÕES",
      "lon": "-8.303546968687868",
      "lat": "41.146917609525275"
    },
    {
      "id": "pt.ine.add.PTCONT.4124804",
      "street": "R PADIM",
      "house": "S N",
      "postcode": "4575-270",
      "city": "OLDRÕES",
      "lon": "-8.303403884054749",
      "lat": "41.146863794738245"
    },
    {
      "id": "pt.ine.add.PTCONT.4124805",
      "street": "R OUTEIRO",
      "house": "",
      "postcode": "4575-269",
      "city": "OLDRÕES",
      "lon": "-8.303403884054749",
      "lat": "41.146863794738245"
    },
    {
      "id": "pt.ine.add.PTCONT.4229447",
      "street": "R IGREJA VELHA",
      "house": "",
      "postcode": "4575-267",
      "city": "OLDRÕES",
      "lon": "-8.30321154582359",
      "lat": "41.14618874886137"
    },
    {
      "id": "pt.ine.add.PTCONT.4268917",
      "street": "AV CENTRAL DE OLDRÕES",
      "house": "",
      "postcode": "4575-261",
      "city": "OLDRÕES",
      "lon": "-8.297697892823727",
      "lat": "41.14682706669613"
    },
    {
      "id": "pt.ine.add.PTCONT.4268918",
      "street": "AV CENTRAL DE OLDRÕES",
      "house": "",
      "postcode": "4575-261",
      "city": "OLDRÕES",
      "lon": "-8.297697892823727",
      "lat": "41.14682706669613"
    },
    {
      "id": "pt.ine.add.PTCONT.4268919",
      "street": "R PADRE LOPES COELHO",
      "house": "",
      "postcode": "4575-267",
      "city": "OLDRÕES",
      "lon": "-8.297697892823727",
      "lat": "41.14682706669613"
    },
    {
      "id": "pt.ine.add.PTCONT.4273063",
      "street": "R PADRE LOPES COELHO",
      "house": "637",
      "postcode": "4575-261",
      "city": "OLDRÕES",
      "lon": "-8.297697892823727",
      "lat": "41.14682706669613"
    },
    {
      "id": "pt.ine.add.PTCONT.4294077",
      "street": "R REAL ALEM",
      "house": "S N",
      "postcode": "4575-261",
      "city": "OLDRÕES",
      "lon": "-8.299344417504846",
      "lat": "41.14787821715843"
    },
    {
      "id": "pt.ine.add.PTCONT.4335762",
      "street": "AV CENTRAL DE OLDROES",
      "house": "",
      "postcode": "4575-261",
      "city": "OLDRÕES",
      "lon": "-8.297733944289401",
      "lat": "41.146953076787504"
    }
  ]
}