{
  "data": {
    "distrito": "Setúbal",
    "concelho": "Palmela",
    "freguesia": "União das freguesias de Poceirão e Marateca",
    "OBJECTID": 508,
    "BGRI2021": "15080600204",
    "DT21": "15",
    "DTMN21": "1508",
    "DTMNFR21": "150806",
    "DTMNFRSEC21": "150806002",
    "SECNUM21": "002",
    "SSNUM21": "04",
    "SECSSNUM21": "00204",
    "OBJECTID_1": 165613,
    "DT": "15",
    "CC": "08",
    "fr": "06",
    "SEC": "002",
    "SS": "04"
  },
  "addresses": [
    {
      "id": "pt.ine.add.PTCONT.4668483",
      "street": "EN 10",
      "house": "CCI 8009",
      "postcode": "2965-589",
      "city": "ÁGUAS DE MOURA",
      "lon": "-8.785759681773586",
      "lat": "38.56202957465852"
    },
    {
      "id": "pt.ine.add.PTCONT.4672198",
      "street": "R MANUEL LANDUM",
      "house": "CCI 4047",
      "postcode": "2965-516",
      "city": "ÁGUAS DE MOURA",
      "lon": "-8.78988133975678",
      "lat": "38.56611430406001"
    },
    {
      "id": "pt.ine.add.PTCONT.4682934",
      "street": "R JOSE PEIXOTO",
      "house": "CCI 4042",
      "postcode": "2965-514",
      "city": "ÁGUAS DE MOURA",
      "lon": "-8.786694334136799",
      "lat": "38.56515023835188"
    },
    {
      "id": "pt.ine.add.PTCONT.4687808",
      "street": "R JOSE PEIXOTO",
      "house": "CCI 4006",
      "postcode": "2965-514",
      "city": "ÁGUAS DE MOURA",
      "lon": "-8.784544783251876",
      "lat": "38.56471180590324"
    },
    {
      "id": "pt.ine.add.PTCONT.4708568",
      "street": "R CAIXINHAS",
      "house": "",
      "postcode": "2965-509",
      "city": "ÁGUAS DE MOURA",
      "lon": "-8.792313388320466",
      "lat": "38.5648124476654"
    },
    {
      "id": "pt.ine.add.PTCONT.4708569",
      "street": "R JOSE PEIXOTO",
      "house": "CCI 4004",
      "postcode": "2965-514",
      "city": "ÁGUAS DE MOURA",
      "lon": "-8.784753495698169",
      "lat": "38.56495386815251"
    },
    {
      "id": "pt.ine.add.PTCONT.4711955",
      "street": "R CAIXINHAS",
      "house": "CCI 7938",
      "postcode": "2965-509",
      "city": "ÁGUAS DE MOURA",
      "lon": "-8.789516325784446",
      "lat": "38.56382824532714"
    },
    {
      "id": "pt.ine.add.PTCONT.4719245",
      "street": "R CAIXINHAS",
      "house": "CCI 7932",
      "postcode": "2965-509",
      "city": "ÁGUAS DE MOURA",
      "lon": "-8.791788092061052",
      "lat": "38.56508565341572"
    },
    {
      "id": "pt.ine.add.PTCONT.4719246",
      "street": "R CAIXINHAS",
      "house": "",
      "postcode": "2965-509",
      "city": "ÁGUAS DE MOURA",
      "lon": "-8.790111270328255",
      "lat": "38.56238358050242"
    },
    {
      "id": "pt.ine.add.PTCONT.4725187",
      "street": "R CAIXINHAS",
      "house": "CCI 7935",
      "postcode": "2965-509",
      "city": "ÁGUAS DE MOURA",
      "lon": "-8.790385905315308",
      "lat": "38.56482328637809"
    },
    {
      "id": "pt.ine.add.PTCONT.4733621",
      "street": "EN 10",
      "house": "CCI 8003",
      "postcode": "2965-589",
      "city": "ÁGUAS DE MOURA",
      "lon": "-8.785769362156262",
      "lat": "38.56183133812704"
    },
    {
      "id": "pt.ine.add.PTCONT.4733622",
      "street": "EN 10",
      "house": "CCI 8003",
      "postcode": "2965-589",
      "city": "ÁGUAS DE MOURA",
      "lon": "-8.785769362156262",
      "lat": "38.56183133812704"
    },
    {
      "id": "pt.ine.add.PTCONT.4733623",
      "street": "EN 10",
      "house": "CCI 8003",
      "postcode": "2965-589",
      "city": "ÁGUAS DE MOURA",
      "lon": "-8.785769362156262",
      "lat": "38.56183133812704"
    },
    {
      "id": "pt.ine.add.PTCONT.4733624",
      "street": "EN 10",
      "house": "CCI 8003",
      "postcode": "2965-589",
      "city": "ÁGUAS DE MOURA",
      "lon": "-8.785769362156262",
      "lat": "38.56183133812704"
    },
    {
      "id": "pt.ine.add.PTCONT.4737883",
      "street": "R CAIXINHAS",
      "house": "",
      "postcode": "2965-509",
      "city": "ÁGUAS DE MOURA",
      "lon": "-8.79196495994351",
      "lat": "38.56560713889132"
    },
    {
      "id": "pt.ine.add.PTCONT.4751687",
      "street": "R JOSE PEIXOTO",
      "house": "CCI 4041",
      "postcode": "2965-514",
      "city": "ÁGUAS DE MOURA",
      "lon": "-8.785916358431596",
      "lat": "38.56539780349571"
    },
    {
      "id": "pt.ine.add.PTCONT.4761509",
      "street": "R CAIXINHAS",
      "house": "CCI 7935",
      "postcode": "2965-509",
      "city": "ÁGUAS DE MOURA",
      "lon": "-8.790097601098822",
      "lat": "38.564662755596906"
    },
    {
      "id": "pt.ine.add.PTCONT.4778108",
      "street": "R MANUEL LANDUM",
      "house": "",
      "postcode": "2965-516",
      "city": "ÁGUAS DE MOURA",
      "lon": "-8.789470265544098",
      "lat": "38.56759396919826"
    },
    {
      "id": "pt.ine.add.PTCONT.4781917",
      "street": "R JOSE PEIXOTO",
      "house": "CCI 40045",
      "postcode": "2965-514",
      "city": "ÁGUAS DE MOURA",
      "lon": "-8.785193703534118",
      "lat": "38.56414967853143"
    },
    {
      "id": "pt.ine.add.PTCONT.4783315",
      "street": "R CAIXINHAS",
      "house": "CCI 7939",
      "postcode": "2965-509",
      "city": "ÁGUAS DE MOURA",
      "lon": "-8.788847537884314",
      "lat": "38.563462653605406"
    },
    {
      "id": "pt.ine.add.PTCONT.4788001",
      "street": "R MANUEL LANDUM",
      "house": "CCI 40039",
      "postcode": "2965-516",
      "city": "ÁGUAS DE MOURA",
      "lon": "-8.790639665341361",
      "lat": "38.56748831500246"
    },
    {
      "id": "pt.ine.add.PTCONT.4801815",
      "street": "R JOSE PEIXOTO",
      "house": "CCI 4000",
      "postcode": "2965-514",
      "city": "ÁGUAS DE MOURA",
      "lon": "-8.785282149752398",
      "lat": "38.56377984569205"
    },
    {
      "id": "pt.ine.add.PTCONT.4806401",
      "street": "R MANUEL LANDUM",
      "house": "CCI 40062",
      "postcode": "2965-516",
      "city": "ÁGUAS DE MOURA",
      "lon": "-8.790125478474799",
      "lat": "38.566464257302165"
    },
    {
      "id": "pt.ine.add.PTCONT.4847733",
      "street": "R CAIXINHAS",
      "house": "",
      "postcode": "2965-509",
      "city": "ÁGUAS DE MOURA",
      "lon": "-8.791321636884433",
      "lat": "38.565520675188495"
    },
    {
      "id": "pt.ine.add.PTCONT.4847809",
      "street": "R CAIXINHAS",
      "house": "",
      "postcode": "2965-509",
      "city": "ÁGUAS DE MOURA",
      "lon": "-8.791870337698674",
      "lat": "38.56404022875628"
    },
    {
      "id": "pt.ine.add.PTCONT.4856101",
      "street": "R CAIXINHAS",
      "house": "",
      "postcode": "2965-509",
      "city": "ÁGUAS DE MOURA",
      "lon": "-8.78941487463408",
      "lat": "38.562765835412094"
    },
    {
      "id": "pt.ine.add.PTCONT.4860704",
      "street": "R CAIXINHAS",
      "house": "",
      "postcode": "2965-509",
      "city": "ÁGUAS DE MOURA",
      "lon": "-8.792172666803785",
      "lat": "38.5644799332687"
    },
    {
      "id": "pt.ine.add.PTCONT.4881550",
      "street": "R JOSE PEIXOTO",
      "house": "CCI 40057",
      "postcode": "2965-514",
      "city": "ÁGUAS DE MOURA",
      "lon": "-8.783930145037717",
      "lat": "38.562715383064116"
    },
    {
      "id": "pt.ine.add.PTCONT.4891020",
      "street": "R CAIXINHAS",
      "house": "",
      "postcode": "2965-509",
      "city": "ÁGUAS DE MOURA",
      "lon": "-8.788327740156992",
      "lat": "38.56307820757114"
    },
    {
      "id": "pt.ine.add.PTCONT.4891021",
      "street": "R JOSE PEIXOTO",
      "house": "",
      "postcode": "2965-514",
      "city": "ÁGUAS DE MOURA",
      "lon": "-8.786149817557138",
      "lat": "38.56583790762266"
    },
    {
      "id": "pt.ine.add.PTCONT.4893072",
      "street": "R MANUEL LANDUM",
      "house": "",
      "postcode": "2965-516",
      "city": "ÁGUAS DE MOURA",
      "lon": "-8.788861430037565",
      "lat": "38.567516306950736"
    },
    {
      "id": "pt.ine.add.PTCONT.4893073",
      "street": "R JOSE PEIXOTO",
      "house": "",
      "postcode": "2965-514",
      "city": "ÁGUAS DE MOURA",
      "lon": "-8.784130546139352",
      "lat": "38.56330881632247"
    },
    {
      "id": "pt.ine.add.PTCONT.4896653",
      "street": "R MANUEL LANDUM",
      "house": "",
      "postcode": "2965-516",
      "city": "ÁGUAS DE MOURA",
      "lon": "-8.789104407904702",
      "lat": "38.570262472803755"
    },
    {
      "id": "pt.ine.add.PTCONT.4909205",
      "street": "R CAIXINHAS",
      "house": "CCI 7957",
      "postcode": "2965-509",
      "city": "ÁGUAS DE MOURA",
      "lon": "-8.792150506347491",
      "lat": "38.56582229334445"
    },
    {
      "id": "pt.ine.add.PTCONT.4911191",
      "street": "R JOSE PEIXOTO",
      "house": "",
      "postcode": "2965-514",
      "city": "ÁGUAS DE MOURA",
      "lon": "-8.788801827037762",
      "lat": "38.569795737369084"
    },
    {
      "id": "pt.ine.add.PTCONT.4911192",
      "street": "R CAIXINHAS",
      "house": "",
      "postcode": "2965-509",
      "city": "ÁGUAS DE MOURA",
      "lon": "-8.792345832517123",
      "lat": "38.56459606596173"
    },
    {
      "id": "pt.ine.add.PTCONT.4923557",
      "street": "R MANUEL LANDUM",
      "house": "",
      "postcode": "2965-516",
      "city": "ÁGUAS DE MOURA",
      "lon": "-8.789651385634036",
      "lat": "38.56858386505369"
    },
    {
      "id": "pt.ine.add.PTCONT.4928725",
      "street": "R CAIXINHAS",
      "house": "CCI 7944",
      "postcode": "2965-509",
      "city": "ÁGUAS DE MOURA",
      "lon": "-8.787558242614608",
      "lat": "38.56299242923322"
    },
    {
      "id": "pt.ine.add.PTCONT.4932485",
      "street": "R MANUEL LANDUM",
      "house": "",
      "postcode": "2965-516",
      "city": "ÁGUAS DE MOURA",
      "lon": "-8.788823079864507",
      "lat": "38.56708412392669"
    },
    {
      "id": "pt.ine.add.PTCONT.4942006",
      "street": "R MANUEL LANDUM",
      "house": "",
      "postcode": "2965-516",
      "city": "ÁGUAS DE MOURA",
      "lon": "-8.791400124174169",
      "lat": "38.567835364006264"
    },
    {
      "id": "pt.ine.add.PTCONT.4951547",
      "street": "R JOSE PEIXOTO",
      "house": "CCI 40052",
      "postcode": "2965-514",
      "city": "ÁGUAS DE MOURA",
      "lon": "-8.78380126387476",
      "lat": "38.562418825709024"
    },
    {
      "id": "pt.ine.add.PTCONT.4959168",
      "street": "R JOSE PEIXOTO",
      "house": "",
      "postcode": "2965-514",
      "city": "ÁGUAS DE MOURA",
      "lon": "-8.788945685446981",
      "lat": "38.56668707232513"
    },
    {
      "id": "pt.ine.add.PTCONT.4966181",
      "street": "EN 10",
      "house": "CCI 8006",
      "postcode": "2965-589",
      "city": "ÁGUAS DE MOURA",
      "lon": "-8.786139747546843",
      "lat": "38.56218960439479"
    },
    {
      "id": "pt.ine.add.PTCONT.4966182",
      "street": "EN 10",
      "house": "CCI 8006",
      "postcode": "2965-589",
      "city": "ÁGUAS DE MOURA",
      "lon": "-8.786139747546843",
      "lat": "38.56218960439479"
    },
    {
      "id": "pt.ine.add.PTCONT.4966195",
      "street": "EN 10",
      "house": "CCI 8006",
      "postcode": "2965-589",
      "city": "ÁGUAS DE MOURA",
      "lon": "-8.786139747546843",
      "lat": "38.56218960439479"
    },
    {
      "id": "pt.ine.add.PTCONT.4967305",
      "street": "R MANUEL LANDUM",
      "house": "CCI 40066",
      "postcode": "2965-516",
      "city": "ÁGUAS DE MOURA",
      "lon": "-8.79019204491525",
      "lat": "38.56873397216324"
    },
    {
      "id": "pt.ine.add.PTCONT.4991576",
      "street": "R MANUEL LANDUM",
      "house": "",
      "postcode": "2965-516",
      "city": "ÁGUAS DE MOURA",
      "lon": "-8.78939683343264",
      "lat": "38.56835107708067"
    },
    {
      "id": "pt.ine.add.PTCONT.4999133",
      "street": "R CAIXINHAS",
      "house": "7937",
      "postcode": "2965-509",
      "city": "ÁGUAS DE MOURA",
      "lon": "-8.790640101118477",
      "lat": "38.56375888026398"
    },
    {
      "id": "pt.ine.add.PTCONT.5009624",
      "street": "R CAIXINHAS",
      "house": "CCI 7936",
      "postcode": "2965-509",
      "city": "ÁGUAS DE MOURA",
      "lon": "-8.789888051823336",
      "lat": "38.5643306246883"
    },
    {
      "id": "pt.ine.add.PTCONT.5013872",
      "street": "R CAIXINHAS",
      "house": "CCI 7943",
      "postcode": "2965-509",
      "city": "ÁGUAS DE MOURA",
      "lon": "-8.793671977302845",
      "lat": "38.56783157377062"
    },
    {
      "id": "pt.ine.add.PTCONT.5013873",
      "street": "R JOSE PEIXOTO",
      "house": "EEI 40400",
      "postcode": "2965-514",
      "city": "ÁGUAS DE MOURA",
      "lon": "-8.786045090723242",
      "lat": "38.56567634257298"
    },
    {
      "id": "pt.ine.add.PTCONT.5017288",
      "street": "EN 10",
      "house": "CCI 8001",
      "postcode": "2965-589",
      "city": "ÁGUAS DE MOURA",
      "lon": "-8.784636659931477",
      "lat": "38.562179963302825"
    },
    {
      "id": "pt.ine.add.PTCONT.5021513",
      "street": "R MANUEL LANDUM",
      "house": "CCI 40059",
      "postcode": "2965-516",
      "city": "ÁGUAS DE MOURA",
      "lon": "-8.792366210494906",
      "lat": "38.56808215894851"
    },
    {
      "id": "pt.ine.add.PTCONT.5021514",
      "street": "R MANUEL LANDUM",
      "house": "",
      "postcode": "2965-516",
      "city": "ÁGUAS DE MOURA",
      "lon": "-8.793001049983225",
      "lat": "38.56849296289731"
    },
    {
      "id": "pt.ine.add.PTCONT.5033155",
      "street": "R CAIXINHAS",
      "house": "CCI 4038",
      "postcode": "2965-509",
      "city": "ÁGUAS DE MOURA",
      "lon": "-8.78911206977207",
      "lat": "38.56353323780439"
    },
    {
      "id": "pt.ine.add.PTCONT.5039387",
      "street": "R CAIXINHAS CCI",
      "house": "CCI 7947",
      "postcode": "2965-509",
      "city": "ÁGUAS DE MOURA",
      "lon": "-8.794109294006162",
      "lat": "38.56797323764943"
    },
    {
      "id": "pt.ine.add.PTCONT.5041218",
      "street": "R JOSE PEIXOTO",
      "house": "CCI 4043",
      "postcode": "2965-514",
      "city": "ÁGUAS DE MOURA",
      "lon": "-8.785616262660662",
      "lat": "38.565201294253036"
    },
    {
      "id": "pt.ine.add.PTCONT.5042927",
      "street": "R JOSE PEIXOTO",
      "house": "CCI 40054",
      "postcode": "2965-514",
      "city": "ÁGUAS DE MOURA",
      "lon": "-8.783961476138552",
      "lat": "38.56237289354433"
    },
    {
      "id": "pt.ine.add.PTCONT.5068669",
      "street": "R MANUEL LANDUM",
      "house": "CCI 40036",
      "postcode": "2965-516",
      "city": "ÁGUAS DE MOURA",
      "lon": "-8.789747926428195",
      "lat": "38.567844643994"
    },
    {
      "id": "pt.ine.add.PTCONT.5070261",
      "street": "R JOSE PEIXOTO",
      "house": "CCI 4043",
      "postcode": "2965-514",
      "city": "ÁGUAS DE MOURA",
      "lon": "-8.785823431900623",
      "lat": "38.56527220559514"
    },
    {
      "id": "pt.ine.add.PTCONT.5086356",
      "street": "R CAIXINHAS",
      "house": "CCI",
      "postcode": "2965-509",
      "city": "ÁGUAS DE MOURA",
      "lon": "-8.793356997223439",
      "lat": "38.567265828798526"
    },
    {
      "id": "pt.ine.add.PTCONT.5129971",
      "street": "VALE ABRUNHEIRA AGERUZ GARRE CCI",
      "house": "CCI 4006",
      "postcode": "2965-514",
      "city": "ÁGUAS DE MOURA",
      "lon": "-8.784158625717513",
      "lat": "38.56260601296976"
    }
  ]
}