{
  "data": {
    "distrito": "Viseu",
    "concelho": "Viseu",
    "freguesia": "Freguesia de Faíl e Vila Chã de Sá",
    "OBJECTID": 851,
    "BGRI2021": "18233800220",
    "DT21": "18",
    "DTMN21": "1823",
    "DTMNFR21": "182338",
    "DTMNFRSEC21": "182338002",
    "SECNUM21": "002",
    "SSNUM21": "20",
    "SECSSNUM21": "00220",
    "OBJECTID_1": 200961,
    "DT": "18",
    "CC": "23",
    "fr": "38",
    "SEC": "002",
    "SS": "20"
  },
  "addresses": [
    {
      "id": "pt.ine.add.PTCONT.5446810",
      "street": "BR GORGULHÃO",
      "house": "1",
      "postcode": "3510-125",
      "city": "VISEU",
      "lon": "-7.955936052803864",
      "lat": "40.61869411647964"
    },
    {
      "id": "pt.ine.add.PTCONT.5457805",
      "street": "BR GORGULHÃO",
      "house": "21",
      "postcode": "3510-125",
      "city": "VISEU",
      "lon": "-7.956598035564299",
      "lat": "40.61862308826124"
    },
    {
      "id": "pt.ine.add.PTCONT.5475895",
      "street": "BR GORGULHÃO",
      "house": "",
      "postcode": "3510-125",
      "city": "VISEU",
      "lon": "-7.955854494930847",
      "lat": "40.61825273523726"
    },
    {
      "id": "pt.ine.add.PTCONT.5481310",
      "street": "BR GORGULHÃO",
      "house": "33",
      "postcode": "3510-125",
      "city": "VISEU",
      "lon": "-7.957071453606835",
      "lat": "40.61835365400656"
    },
    {
      "id": "pt.ine.add.PTCONT.5483098",
      "street": "BR GORGULHÃO",
      "house": "55",
      "postcode": "3510-125",
      "city": "VISEU",
      "lon": "-7.956066285614068",
      "lat": "40.61860426392161"
    },
    {
      "id": "pt.ine.add.PTCONT.5487656",
      "street": "BR GORGULHÃO",
      "house": "41",
      "postcode": "3510-125",
      "city": "VISEU",
      "lon": "-7.956918273338326",
      "lat": "40.618182321118105"
    },
    {
      "id": "pt.ine.add.PTCONT.5496136",
      "street": "BR GORGULHÃO",
      "house": "27",
      "postcode": "3510-125",
      "city": "VISEU",
      "lon": "-7.956964787052489",
      "lat": "40.61847055932636"
    },
    {
      "id": "pt.ine.add.PTCONT.5501075",
      "street": "BR GORGULHÃO",
      "house": "25",
      "postcode": "3510-125",
      "city": "VISEU",
      "lon": "-7.956787332209147",
      "lat": "40.618542330365976"
    },
    {
      "id": "pt.ine.add.PTCONT.5513122",
      "street": "BR GORGULHÃO",
      "house": "45",
      "postcode": "3510-125",
      "city": "VISEU",
      "lon": "-7.956728954184402",
      "lat": "40.61827208442627"
    },
    {
      "id": "pt.ine.add.PTCONT.5519946",
      "street": "BR GORGULHÃO",
      "house": "49",
      "postcode": "3510-125",
      "city": "VISEU",
      "lon": "-7.956563340995083",
      "lat": "40.61833486798079"
    },
    {
      "id": "pt.ine.add.PTCONT.5519947",
      "street": "BR GORGULHÃO",
      "house": "",
      "postcode": "3510-125",
      "city": "VISEU",
      "lon": "-7.956266759404088",
      "lat": "40.618766665123836"
    },
    {
      "id": "pt.ine.add.PTCONT.5519948",
      "street": "BR GORGULHÃO",
      "house": "",
      "postcode": "3510-125",
      "city": "VISEU",
      "lon": "-7.956266759404088",
      "lat": "40.618766665123836"
    },
    {
      "id": "pt.ine.add.PTCONT.5531820",
      "street": "BR GORGULHAO",
      "house": "3-5",
      "postcode": "3510-125",
      "city": "VISEU",
      "lon": "-7.956077485272916",
      "lat": "40.61883841697051"
    },
    {
      "id": "pt.ine.add.PTCONT.5544376",
      "street": "BR GORGULHÃO",
      "house": "",
      "postcode": "3510-125",
      "city": "VISEU",
      "lon": "-7.957061952540254",
      "lat": "40.61747112722443"
    },
    {
      "id": "pt.ine.add.PTCONT.5570618",
      "street": "BR GORGULHÃO",
      "house": "",
      "postcode": "3510-125",
      "city": "VISEU",
      "lon": "-7.956067331614837",
      "lat": "40.618208035549806"
    },
    {
      "id": "pt.ine.add.PTCONT.5579837",
      "street": "R MACEIRA",
      "house": "",
      "postcode": "3510-936",
      "city": "VISEU",
      "lon": "-7.955384604621203",
      "lat": "40.61718939626182"
    },
    {
      "id": "pt.ine.add.PTCONT.5579991",
      "street": "BR DO GORGULÃO",
      "house": "",
      "postcode": "3510-935",
      "city": "VISEU",
      "lon": "-7.956055585288179",
      "lat": "40.6181810018625"
    },
    {
      "id": "pt.ine.add.PTCONT.5598377",
      "street": "BR GORGULHÃO",
      "house": "",
      "postcode": "3510-125",
      "city": "VISEU",
      "lon": "-7.956718486568996",
      "lat": "40.61775877048025"
    },
    {
      "id": "pt.ine.add.PTCONT.5613909",
      "street": "BR GORGULHÃO",
      "house": "",
      "postcode": "3510-125",
      "city": "VISEU",
      "lon": "-7.956420579926297",
      "lat": "40.61869485873376"
    },
    {
      "id": "pt.ine.add.PTCONT.5640733",
      "street": "BR GORGULHÃO",
      "house": "29",
      "postcode": "3510-125",
      "city": "VISEU",
      "lon": "-7.95721404512323",
      "lat": "40.618056698758885"
    },
    {
      "id": "pt.ine.add.PTCONT.5645273",
      "street": "BR GORGULHÃO",
      "house": "53",
      "postcode": "3510-125",
      "city": "VISEU",
      "lon": "-7.956267400547517",
      "lat": "40.61852352499407"
    },
    {
      "id": "pt.ine.add.PTCONT.5649858",
      "street": "R MACEIRA",
      "house": "",
      "postcode": "3510-936",
      "city": "VISEU",
      "lon": "-7.9552543020121105",
      "lat": "40.61730626365195"
    }
  ]
}