{
  "data": {
    "distrito": "Guarda",
    "concelho": "Guarda",
    "freguesia": "Guarda",
    "OBJECTID": 1292,
    "BGRI2021": "09075800106",
    "DT21": "09",
    "DTMN21": "0907",
    "DTMNFR21": "090758",
    "DTMNFRSEC21": "090758001",
    "SECNUM21": "001",
    "SSNUM21": "06",
    "SECSSNUM21": "00106",
    "OBJECTID_1": 77819,
    "DT": "09",
    "CC": "07",
    "fr": "58",
    "SEC": "001",
    "SS": "06"
  },
  "addresses": [
    {
      "id": "pt.ine.add.PTCONT.1900206",
      "street": "AV ESTADIO MUNICIPAL",
      "house": "16",
      "postcode": "6300-705",
      "city": "GUARDA",
      "lon": "-7.279326691143498",
      "lat": "40.53588864211883"
    },
    {
      "id": "pt.ine.add.PTCONT.1900207",
      "street": "AV ESTADIO",
      "house": "16 B",
      "postcode": "6300-705",
      "city": "GUARDA",
      "lon": "-7.279326691143498",
      "lat": "40.53588864211883"
    },
    {
      "id": "pt.ine.add.PTCONT.1900208",
      "street": "AV ESTADIO MUNICIPAL",
      "house": "16",
      "postcode": "6300-705",
      "city": "GUARDA",
      "lon": "-7.279326691143498",
      "lat": "40.53588864211883"
    },
    {
      "id": "pt.ine.add.PTCONT.1900209",
      "street": "R ESTADIO",
      "house": "16",
      "postcode": "6300-705",
      "city": "GUARDA",
      "lon": "-7.279326691143498",
      "lat": "40.53588864211883"
    },
    {
      "id": "pt.ine.add.PTCONT.1900210",
      "street": "R ESTADIO",
      "house": "16",
      "postcode": "6300-705",
      "city": "GUARDA",
      "lon": "-7.279326691143498",
      "lat": "40.53588864211883"
    },
    {
      "id": "pt.ine.add.PTCONT.1900211",
      "street": "AV ESTADIO MUNICIPAL",
      "house": "16",
      "postcode": "6300-705",
      "city": "GUARDA",
      "lon": "-7.279326691143498",
      "lat": "40.53588864211883"
    },
    {
      "id": "pt.ine.add.PTCONT.1900212",
      "street": "AV ESTADIO MUNICIPAL",
      "house": "16",
      "postcode": "6300-705",
      "city": "GUARDA",
      "lon": "-7.279326691143498",
      "lat": "40.53588864211883"
    },
    {
      "id": "pt.ine.add.PTCONT.1900213",
      "street": "R ESTADIO",
      "house": "16",
      "postcode": "6300-705",
      "city": "GUARDA",
      "lon": "-7.279326691143498",
      "lat": "40.53588864211883"
    },
    {
      "id": "pt.ine.add.PTCONT.1900214",
      "street": "R ESTADIO",
      "house": "16",
      "postcode": "6300-705",
      "city": "GUARDA",
      "lon": "-7.279326691143498",
      "lat": "40.53588864211883"
    },
    {
      "id": "pt.ine.add.PTCONT.1900215",
      "street": "AV ESTADIO MUNICIPAL",
      "house": "16",
      "postcode": "6300-705",
      "city": "GUARDA",
      "lon": "-7.279326691143498",
      "lat": "40.53588864211883"
    },
    {
      "id": "pt.ine.add.PTCONT.1900216",
      "street": "AV ESTADIO MUNICIPAL",
      "house": "16",
      "postcode": "6300-705",
      "city": "GUARDA",
      "lon": "-7.279326691143498",
      "lat": "40.53588864211883"
    },
    {
      "id": "pt.ine.add.PTCONT.1900217",
      "street": "R ESTADIO",
      "house": "16",
      "postcode": "6300-705",
      "city": "GUARDA",
      "lon": "-7.279326691143498",
      "lat": "40.53588864211883"
    },
    {
      "id": "pt.ine.add.PTCONT.1900218",
      "street": "AV ESTADIO MUNICIPAL",
      "house": "16",
      "postcode": "6300-705",
      "city": "GUARDA",
      "lon": "-7.279326691143498",
      "lat": "40.53588864211883"
    },
    {
      "id": "pt.ine.add.PTCONT.1901105",
      "street": "AV ESTADIO MUNICIPAL",
      "house": "16",
      "postcode": "6300-705",
      "city": "GUARDA",
      "lon": "-7.279326691143498",
      "lat": "40.53588864211883"
    },
    {
      "id": "pt.ine.add.PTCONT.1902040",
      "street": "R DR AFONSO COSTA",
      "house": "",
      "postcode": "6300-551",
      "city": "GUARDA",
      "lon": "-7.27653994950397",
      "lat": "40.53598508331574"
    },
    {
      "id": "pt.ine.add.PTCONT.1905579",
      "street": "R DA BOA ESPERANÇA",
      "house": "7",
      "postcode": "6300-522",
      "city": "GUARDA",
      "lon": "-7.2781527828886645",
      "lat": "40.53445713896682"
    },
    {
      "id": "pt.ine.add.PTCONT.1910693",
      "street": "BR DA FRATERNIDADE",
      "house": "13",
      "postcode": "6300-708",
      "city": "GUARDA",
      "lon": "-7.277252304713379",
      "lat": "40.53380209730321"
    },
    {
      "id": "pt.ine.add.PTCONT.1915210",
      "street": "BR DA FRATERNIDADE",
      "house": "5",
      "postcode": "6300-708",
      "city": "GUARDA",
      "lon": "-7.276514645984141",
      "lat": "40.5342649015329"
    },
    {
      "id": "pt.ine.add.PTCONT.1916323",
      "street": "BR DA FRATERNIDADE",
      "house": "22",
      "postcode": "6300-708",
      "city": "GUARDA",
      "lon": "-7.276686854862108",
      "lat": "40.53464439679896"
    },
    {
      "id": "pt.ine.add.PTCONT.1919142",
      "street": "BR DA FRATERNIDADE",
      "house": "6",
      "postcode": "6300-708",
      "city": "GUARDA",
      "lon": "-7.2764315758753515",
      "lat": "40.534300306458995"
    },
    {
      "id": "pt.ine.add.PTCONT.1925961",
      "street": "R DA BOA ESPERANÇA",
      "house": "9",
      "postcode": "6300-522",
      "city": "GUARDA",
      "lon": "-7.278073032972344",
      "lat": "40.534231418641774"
    },
    {
      "id": "pt.ine.add.PTCONT.1925962",
      "street": "R DA BOA ESPERANÇA",
      "house": "9",
      "postcode": "6300-522",
      "city": "GUARDA",
      "lon": "-7.278073032972344",
      "lat": "40.534231418641774"
    },
    {
      "id": "pt.ine.add.PTCONT.1927447",
      "street": "BR DA FRATERNIDADE",
      "house": "1",
      "postcode": "6300-708",
      "city": "GUARDA",
      "lon": "-7.2768028143606625",
      "lat": "40.533879813716105"
    },
    {
      "id": "pt.ine.add.PTCONT.1929860",
      "street": "BR DA FRATERNIDADE",
      "house": "7",
      "postcode": "6300-708",
      "city": "GUARDA",
      "lon": "-7.27633658934448",
      "lat": "40.5343446281668"
    },
    {
      "id": "pt.ine.add.PTCONT.1932974",
      "street": "BR DA FRATERNIDADE",
      "house": "9",
      "postcode": "6300-708",
      "city": "GUARDA",
      "lon": "-7.276797082471803",
      "lat": "40.534330031576566"
    },
    {
      "id": "pt.ine.add.PTCONT.1934640",
      "street": "BR DA FRATERNIDADE",
      "house": "20",
      "postcode": "6300-708",
      "city": "GUARDA",
      "lon": "-7.276912462475411",
      "lat": "40.53453800639432"
    },
    {
      "id": "pt.ine.add.PTCONT.1935088",
      "street": "BR DA FRATERNIDADE",
      "house": "36",
      "postcode": "6300-708",
      "city": "GUARDA",
      "lon": "-7.277077802743091",
      "lat": "40.53360268999044"
    },
    {
      "id": "pt.ine.add.PTCONT.1938177",
      "street": "BR DA FRATERNIDADE",
      "house": "16",
      "postcode": "6300-708",
      "city": "GUARDA",
      "lon": "-7.277295271775324",
      "lat": "40.53413560823893"
    },
    {
      "id": "pt.ine.add.PTCONT.1942218",
      "street": "BR DA FRATERNIDADE",
      "house": "38",
      "postcode": "6300-708",
      "city": "GUARDA",
      "lon": "-7.276912352391074",
      "lat": "40.533619474473205"
    },
    {
      "id": "pt.ine.add.PTCONT.1951579",
      "street": "AV DO ESTÁDIO MUNICIPAL",
      "house": "20",
      "postcode": "6300-705",
      "city": "GUARDA",
      "lon": "-7.279247507241196",
      "lat": "40.535617900799586"
    },
    {
      "id": "pt.ine.add.PTCONT.1951580",
      "street": "AV DO ESTÁDIO MUNICIPAL",
      "house": "20",
      "postcode": "6300-705",
      "city": "GUARDA",
      "lon": "-7.279247507241196",
      "lat": "40.535617900799586"
    },
    {
      "id": "pt.ine.add.PTCONT.1951581",
      "street": "AV DO ESTÁDIO MUNICIPAL",
      "house": "20",
      "postcode": "6300-705",
      "city": "GUARDA",
      "lon": "-7.279247507241196",
      "lat": "40.535617900799586"
    },
    {
      "id": "pt.ine.add.PTCONT.1951582",
      "street": "AV DO ESTÁDIO MUNICIPAL",
      "house": "20",
      "postcode": "6300-705",
      "city": "GUARDA",
      "lon": "-7.279247507241196",
      "lat": "40.535617900799586"
    },
    {
      "id": "pt.ine.add.PTCONT.1952203",
      "street": "R DO CABEÇO",
      "house": "3",
      "postcode": "6300-313",
      "city": "GUARDA",
      "lon": "-7.27728094895593",
      "lat": "40.53340608033831"
    },
    {
      "id": "pt.ine.add.PTCONT.1952204",
      "street": "R DO CABEÇO",
      "house": "3",
      "postcode": "6300-313",
      "city": "GUARDA",
      "lon": "-7.27728094895593",
      "lat": "40.53340608033831"
    },
    {
      "id": "pt.ine.add.PTCONT.1952205",
      "street": "R DO CABEÇO",
      "house": "3",
      "postcode": "6300-313",
      "city": "GUARDA",
      "lon": "-7.27728094895593",
      "lat": "40.53340608033831"
    },
    {
      "id": "pt.ine.add.PTCONT.1952206",
      "street": "R DO CABEÇO",
      "house": "3",
      "postcode": "6300-313",
      "city": "GUARDA",
      "lon": "-7.27728094895593",
      "lat": "40.53340608033831"
    },
    {
      "id": "pt.ine.add.PTCONT.1953153",
      "street": "BR DA FRATERNIDADE",
      "house": "34",
      "postcode": "6300-708",
      "city": "GUARDA",
      "lon": "-7.276949476158011",
      "lat": "40.533484671452705"
    },
    {
      "id": "pt.ine.add.PTCONT.1954154",
      "street": "BR DA FRATERNIDADE",
      "house": "18",
      "postcode": "6300-708",
      "city": "GUARDA",
      "lon": "-7.277162704001552",
      "lat": "40.53435075118329"
    },
    {
      "id": "pt.ine.add.PTCONT.1956073",
      "street": "BR DA FRATERNIDADE",
      "house": "7",
      "postcode": "6300-708",
      "city": "GUARDA",
      "lon": "-7.276524154095784",
      "lat": "40.53444507615124"
    },
    {
      "id": "pt.ine.add.PTCONT.1960001",
      "street": "BR DA FRATERNIDADE",
      "house": "4",
      "postcode": "6300-708",
      "city": "GUARDA",
      "lon": "-7.276704503814095",
      "lat": "40.53418526209579"
    },
    {
      "id": "pt.ine.add.PTCONT.1971927",
      "street": "BR DA FRATERNIDADE",
      "house": "19",
      "postcode": "6300-708",
      "city": "GUARDA",
      "lon": "-7.27707917571264",
      "lat": "40.534422174006814"
    },
    {
      "id": "pt.ine.add.PTCONT.1973875",
      "street": "BR DA FRATERNIDADE",
      "house": "28",
      "postcode": "6300-708",
      "city": "GUARDA",
      "lon": "-7.276970786880202",
      "lat": "40.53366493351862"
    },
    {
      "id": "pt.ine.add.PTCONT.1978091",
      "street": "BR DA FRATERNIDADE",
      "house": "2",
      "postcode": "6300-708",
      "city": "GUARDA",
      "lon": "-7.276849218172786",
      "lat": "40.53394319407148"
    },
    {
      "id": "pt.ine.add.PTCONT.1851209",
      "street": "AV DO ESTÁDIO MUNICIPAL",
      "house": "18",
      "postcode": "6300-705",
      "city": "GUARDA",
      "lon": "-7.2792577086994825",
      "lat": "40.53574404906511"
    },
    {
      "id": "pt.ine.add.PTCONT.1851210",
      "street": "AV DO ESTÁDIO MUNICIPAL",
      "house": "18",
      "postcode": "6300-705",
      "city": "GUARDA",
      "lon": "-7.2792577086994825",
      "lat": "40.53574404906511"
    },
    {
      "id": "pt.ine.add.PTCONT.1851211",
      "street": "AV DO ESTÁDIO MUNICIPAL",
      "house": "18",
      "postcode": "6300-705",
      "city": "GUARDA",
      "lon": "-7.2792577086994825",
      "lat": "40.53574404906511"
    },
    {
      "id": "pt.ine.add.PTCONT.1851212",
      "street": "AV DO ESTÁDIO MUNICIPAL",
      "house": "18",
      "postcode": "6300-705",
      "city": "GUARDA",
      "lon": "-7.2792577086994825",
      "lat": "40.53574404906511"
    },
    {
      "id": "pt.ine.add.PTCONT.1851220",
      "street": "AV DO ESTÁDIO MUNICIPAL",
      "house": "18",
      "postcode": "6300-705",
      "city": "GUARDA",
      "lon": "-7.2792577086994825",
      "lat": "40.53574404906511"
    },
    {
      "id": "pt.ine.add.PTCONT.1851221",
      "street": "AV DO ESTÁDIO MUNICIPAL",
      "house": "18",
      "postcode": "6300-705",
      "city": "GUARDA",
      "lon": "-7.2792577086994825",
      "lat": "40.53574404906511"
    },
    {
      "id": "pt.ine.add.PTCONT.1851222",
      "street": "AV DO ESTÁDIO MUNICIPAL",
      "house": "18",
      "postcode": "6300-705",
      "city": "GUARDA",
      "lon": "-7.2792577086994825",
      "lat": "40.53574404906511"
    },
    {
      "id": "pt.ine.add.PTCONT.1851223",
      "street": "AV DO ESTÁDIO MUNICIPAL",
      "house": "18",
      "postcode": "6300-705",
      "city": "GUARDA",
      "lon": "-7.2792577086994825",
      "lat": "40.53574404906511"
    },
    {
      "id": "pt.ine.add.PTCONT.1851800",
      "street": "AV DO ESTÁDIO MUNICIPAL",
      "house": "18",
      "postcode": "6300-705",
      "city": "GUARDA",
      "lon": "-7.2792577086994825",
      "lat": "40.53574404906511"
    },
    {
      "id": "pt.ine.add.PTCONT.1851840",
      "street": "AV DO ESTÁDIO MUNICIPAL",
      "house": "18",
      "postcode": "6300-705",
      "city": "GUARDA",
      "lon": "-7.2792577086994825",
      "lat": "40.53574404906511"
    },
    {
      "id": "pt.ine.add.PTCONT.1855061",
      "street": "BR DA FRATERNIDADE",
      "house": "3",
      "postcode": "6300-708",
      "city": "GUARDA",
      "lon": "-7.276859529559407",
      "lat": "40.534060338179316"
    },
    {
      "id": "pt.ine.add.PTCONT.1855107",
      "street": "AV DO ESTÁDIO MUNICIPAL",
      "house": "26",
      "postcode": "6300-705",
      "city": "GUARDA",
      "lon": "-7.278511884190521",
      "lat": "40.53499110282879"
    },
    {
      "id": "pt.ine.add.PTCONT.1855108",
      "street": "AV DO ESTÁDIO MUNICIPAL",
      "house": "26",
      "postcode": "6300-705",
      "city": "GUARDA",
      "lon": "-7.278511884190521",
      "lat": "40.53499110282879"
    },
    {
      "id": "pt.ine.add.PTCONT.1855109",
      "street": "AV DO ESTÁDIO MUNICIPAL",
      "house": "26",
      "postcode": "6300-705",
      "city": "GUARDA",
      "lon": "-7.278511884190521",
      "lat": "40.53499110282879"
    },
    {
      "id": "pt.ine.add.PTCONT.1855110",
      "street": "AV DO ESTÁDIO MUNICIPAL",
      "house": "26",
      "postcode": "6300-705",
      "city": "GUARDA",
      "lon": "-7.278511884190521",
      "lat": "40.53499110282879"
    },
    {
      "id": "pt.ine.add.PTCONT.1855111",
      "street": "AV DO ESTÁDIO MUNICIPAL",
      "house": "26",
      "postcode": "6300-705",
      "city": "GUARDA",
      "lon": "-7.278511884190521",
      "lat": "40.53499110282879"
    },
    {
      "id": "pt.ine.add.PTCONT.1855112",
      "street": "AV DO ESTÁDIO MUNICIPAL",
      "house": "26",
      "postcode": "6300-705",
      "city": "GUARDA",
      "lon": "-7.278511884190521",
      "lat": "40.53499110282879"
    },
    {
      "id": "pt.ine.add.PTCONT.1855113",
      "street": "AV DO ESTÁDIO MUNICIPAL",
      "house": "26",
      "postcode": "6300-705",
      "city": "GUARDA",
      "lon": "-7.278511884190521",
      "lat": "40.53499110282879"
    },
    {
      "id": "pt.ine.add.PTCONT.1855114",
      "street": "AV DO ESTÁDIO MUNICIPAL",
      "house": "26",
      "postcode": "6300-705",
      "city": "GUARDA",
      "lon": "-7.278511884190521",
      "lat": "40.53499110282879"
    },
    {
      "id": "pt.ine.add.PTCONT.1855115",
      "street": "AV DO ESTÁDIO MUNICIPAL",
      "house": "26",
      "postcode": "6300-705",
      "city": "GUARDA",
      "lon": "-7.278511884190521",
      "lat": "40.53499110282879"
    },
    {
      "id": "pt.ine.add.PTCONT.1855116",
      "street": "AV DO ESTÁDIO MUNICIPAL",
      "house": "26",
      "postcode": "6300-705",
      "city": "GUARDA",
      "lon": "-7.278511884190521",
      "lat": "40.53499110282879"
    },
    {
      "id": "pt.ine.add.PTCONT.1855117",
      "street": "AV DO ESTÁDIO MUNICIPAL",
      "house": "26",
      "postcode": "6300-705",
      "city": "GUARDA",
      "lon": "-7.278511884190521",
      "lat": "40.53499110282879"
    },
    {
      "id": "pt.ine.add.PTCONT.1855118",
      "street": "AV DO ESTÁDIO MUNICIPAL",
      "house": "26",
      "postcode": "6300-705",
      "city": "GUARDA",
      "lon": "-7.278511884190521",
      "lat": "40.53499110282879"
    },
    {
      "id": "pt.ine.add.PTCONT.1855119",
      "street": "AV DO ESTÁDIO MUNICIPAL",
      "house": "26",
      "postcode": "6300-705",
      "city": "GUARDA",
      "lon": "-7.278511884190521",
      "lat": "40.53499110282879"
    },
    {
      "id": "pt.ine.add.PTCONT.1855120",
      "street": "AV DO ESTÁDIO MUNICIPAL",
      "house": "26",
      "postcode": "6300-705",
      "city": "GUARDA",
      "lon": "-7.278511884190521",
      "lat": "40.53499110282879"
    },
    {
      "id": "pt.ine.add.PTCONT.1855160",
      "street": "AV DO ESTÁDIO MUNICIPAL",
      "house": "26",
      "postcode": "6300-705",
      "city": "GUARDA",
      "lon": "-7.278511884190521",
      "lat": "40.53499110282879"
    },
    {
      "id": "pt.ine.add.PTCONT.1855161",
      "street": "AV DO ESTÁDIO MUNICIPAL",
      "house": "26",
      "postcode": "6300-705",
      "city": "GUARDA",
      "lon": "-7.278511884190521",
      "lat": "40.53499110282879"
    },
    {
      "id": "pt.ine.add.PTCONT.1855162",
      "street": "AV DO ESTÁDIO MUNICIPAL",
      "house": "26",
      "postcode": "6300-705",
      "city": "GUARDA",
      "lon": "-7.278511884190521",
      "lat": "40.53499110282879"
    },
    {
      "id": "pt.ine.add.PTCONT.1855163",
      "street": "AV DO ESTÁDIO MUNICIPAL",
      "house": "26",
      "postcode": "6300-705",
      "city": "GUARDA",
      "lon": "-7.278511884190521",
      "lat": "40.53499110282879"
    },
    {
      "id": "pt.ine.add.PTCONT.1855164",
      "street": "AV DO ESTÁDIO MUNICIPAL",
      "house": "26",
      "postcode": "6300-705",
      "city": "GUARDA",
      "lon": "-7.278511884190521",
      "lat": "40.53499110282879"
    },
    {
      "id": "pt.ine.add.PTCONT.1855753",
      "street": "AV DO ESTÁDIO MUNICIPAL",
      "house": "26",
      "postcode": "6300-705",
      "city": "GUARDA",
      "lon": "-7.278511884190521",
      "lat": "40.53499110282879"
    },
    {
      "id": "pt.ine.add.PTCONT.1855817",
      "street": "AV DO ESTÁDIO MUNICIPAL",
      "house": "26",
      "postcode": "6300-705",
      "city": "GUARDA",
      "lon": "-7.278511884190521",
      "lat": "40.53499110282879"
    },
    {
      "id": "pt.ine.add.PTCONT.1855846",
      "street": "AV DO ESTÁDIO MUNICIPAL",
      "house": "26",
      "postcode": "6300-705",
      "city": "GUARDA",
      "lon": "-7.278511884190521",
      "lat": "40.53499110282879"
    },
    {
      "id": "pt.ine.add.PTCONT.1855848",
      "street": "AV DO ESTÁDIO MUNICIPAL",
      "house": "26",
      "postcode": "6300-705",
      "city": "GUARDA",
      "lon": "-7.278511884190521",
      "lat": "40.53499110282879"
    },
    {
      "id": "pt.ine.add.PTCONT.1858114",
      "street": "BR DA FRATERNIDADE",
      "house": "10",
      "postcode": "6300-708",
      "city": "GUARDA",
      "lon": "-7.277071385143052",
      "lat": "40.53410693405228"
    },
    {
      "id": "pt.ine.add.PTCONT.1858124",
      "street": "R ESTADIO",
      "house": "22",
      "postcode": "6300-705",
      "city": "GUARDA",
      "lon": "-7.279072651668522",
      "lat": "40.53544550953614"
    },
    {
      "id": "pt.ine.add.PTCONT.1858125",
      "street": "AV ESTADIO MUNICIPAL",
      "house": "22",
      "postcode": "6300-705",
      "city": "GUARDA",
      "lon": "-7.279072651668522",
      "lat": "40.53544550953614"
    },
    {
      "id": "pt.ine.add.PTCONT.1858126",
      "street": "AV ESTADIO MUNICIPAL",
      "house": "22",
      "postcode": "6300-705",
      "city": "GUARDA",
      "lon": "-7.279072651668522",
      "lat": "40.53544550953614"
    },
    {
      "id": "pt.ine.add.PTCONT.1858127",
      "street": "AV ESTADIO MUNICIPAL",
      "house": "22",
      "postcode": "6300-705",
      "city": "GUARDA",
      "lon": "-7.279072651668522",
      "lat": "40.53544550953614"
    },
    {
      "id": "pt.ine.add.PTCONT.1858128",
      "street": "AV ESTADIO MUNICIPAL",
      "house": "22",
      "postcode": "6300-705",
      "city": "GUARDA",
      "lon": "-7.279072651668522",
      "lat": "40.53544550953614"
    },
    {
      "id": "pt.ine.add.PTCONT.1858129",
      "street": "AV ESTADIO MUNICIPAL",
      "house": "22",
      "postcode": "6300-705",
      "city": "GUARDA",
      "lon": "-7.279072651668522",
      "lat": "40.53544550953614"
    },
    {
      "id": "pt.ine.add.PTCONT.1858130",
      "street": "AV ESTADIO MUNICIPAL",
      "house": "22",
      "postcode": "6300-705",
      "city": "GUARDA",
      "lon": "-7.279072651668522",
      "lat": "40.53544550953614"
    },
    {
      "id": "pt.ine.add.PTCONT.1858131",
      "street": "AV ESTADIO MUNICIPAL",
      "house": "22",
      "postcode": "6300-705",
      "city": "GUARDA",
      "lon": "-7.279072651668522",
      "lat": "40.53544550953614"
    },
    {
      "id": "pt.ine.add.PTCONT.1858132",
      "street": "AV ESTADIO MUNICIPAL",
      "house": "22",
      "postcode": "6300-705",
      "city": "GUARDA",
      "lon": "-7.279072651668522",
      "lat": "40.53544550953614"
    },
    {
      "id": "pt.ine.add.PTCONT.1858135",
      "street": "AV ESTÁDIO MUNICIPAL",
      "house": "24",
      "postcode": "6300-705",
      "city": "GUARDA",
      "lon": "-7.278780122054396",
      "lat": "40.53524523233264"
    },
    {
      "id": "pt.ine.add.PTCONT.1858136",
      "street": "AV ESTÁDIO MUNICIPAL",
      "house": "24",
      "postcode": "6300-705",
      "city": "GUARDA",
      "lon": "-7.278780122054396",
      "lat": "40.53524523233264"
    },
    {
      "id": "pt.ine.add.PTCONT.1858137",
      "street": "AV ESTÁDIO MUNICIPAL",
      "house": "24",
      "postcode": "6300-705",
      "city": "GUARDA",
      "lon": "-7.278780122054396",
      "lat": "40.53524523233264"
    },
    {
      "id": "pt.ine.add.PTCONT.1858138",
      "street": "AV ESTÁDIO MUNICIPAL",
      "house": "24",
      "postcode": "6300-705",
      "city": "GUARDA",
      "lon": "-7.278780122054396",
      "lat": "40.53524523233264"
    },
    {
      "id": "pt.ine.add.PTCONT.1858139",
      "street": "AV ESTÁDIO MUNICIPAL",
      "house": "24",
      "postcode": "6300-705",
      "city": "GUARDA",
      "lon": "-7.278780122054396",
      "lat": "40.53524523233264"
    },
    {
      "id": "pt.ine.add.PTCONT.1858140",
      "street": "AV ESTÁDIO MUNICIPAL",
      "house": "24",
      "postcode": "6300-705",
      "city": "GUARDA",
      "lon": "-7.278780122054396",
      "lat": "40.53524523233264"
    },
    {
      "id": "pt.ine.add.PTCONT.1858141",
      "street": "AV ESTÁDIO MUNICIPAL",
      "house": "24",
      "postcode": "6300-705",
      "city": "GUARDA",
      "lon": "-7.278780122054396",
      "lat": "40.53524523233264"
    },
    {
      "id": "pt.ine.add.PTCONT.1858142",
      "street": "AV ESTÁDIO MUNICIPAL",
      "house": "24",
      "postcode": "6300-705",
      "city": "GUARDA",
      "lon": "-7.278780122054396",
      "lat": "40.53524523233264"
    },
    {
      "id": "pt.ine.add.PTCONT.1858143",
      "street": "AV ESTÁDIO MUNICIPAL",
      "house": "24",
      "postcode": "6300-705",
      "city": "GUARDA",
      "lon": "-7.278780122054396",
      "lat": "40.53524523233264"
    },
    {
      "id": "pt.ine.add.PTCONT.1858151",
      "street": "R DA BOA ESPERANÇA",
      "house": "11",
      "postcode": "6300-522",
      "city": "GUARDA",
      "lon": "-7.277993741489187",
      "lat": "40.53396968081758"
    },
    {
      "id": "pt.ine.add.PTCONT.1858152",
      "street": "R DA BOA ESPERANÇA",
      "house": "11",
      "postcode": "6300-522",
      "city": "GUARDA",
      "lon": "-7.277993741489187",
      "lat": "40.53396968081758"
    },
    {
      "id": "pt.ine.add.PTCONT.1858153",
      "street": "R DA BOA ESPERANÇA",
      "house": "11",
      "postcode": "6300-522",
      "city": "GUARDA",
      "lon": "-7.277993741489187",
      "lat": "40.53396968081758"
    },
    {
      "id": "pt.ine.add.PTCONT.1858154",
      "street": "R DA BOA ESPERANÇA",
      "house": "11",
      "postcode": "6300-522",
      "city": "GUARDA",
      "lon": "-7.277993741489187",
      "lat": "40.53396968081758"
    },
    {
      "id": "pt.ine.add.PTCONT.1858155",
      "street": "R DA BOA ESPERANÇA",
      "house": "11",
      "postcode": "6300-522",
      "city": "GUARDA",
      "lon": "-7.277993741489187",
      "lat": "40.53396968081758"
    },
    {
      "id": "pt.ine.add.PTCONT.1858156",
      "street": "R DA BOA ESPERANÇA",
      "house": "11",
      "postcode": "6300-522",
      "city": "GUARDA",
      "lon": "-7.277993741489187",
      "lat": "40.53396968081758"
    },
    {
      "id": "pt.ine.add.PTCONT.1858157",
      "street": "R DA BOA ESPERANÇA",
      "house": "11",
      "postcode": "6300-522",
      "city": "GUARDA",
      "lon": "-7.277993741489187",
      "lat": "40.53396968081758"
    },
    {
      "id": "pt.ine.add.PTCONT.1858727",
      "street": "R DA BOA ESPERANÇA",
      "house": "11",
      "postcode": "6300-522",
      "city": "GUARDA",
      "lon": "-7.277993741489187",
      "lat": "40.53396968081758"
    },
    {
      "id": "pt.ine.add.PTCONT.1858777",
      "street": "AV ESTÁDIO MUNICIPAL",
      "house": "24",
      "postcode": "6300-705",
      "city": "GUARDA",
      "lon": "-7.278780122054396",
      "lat": "40.53524523233264"
    },
    {
      "id": "pt.ine.add.PTCONT.1858783",
      "street": "AV ESTADIO MUNICIPAL",
      "house": "24",
      "postcode": "6300-705",
      "city": "GUARDA",
      "lon": "-7.278780122054396",
      "lat": "40.53524523233264"
    },
    {
      "id": "pt.ine.add.PTCONT.1858794",
      "street": "AV ESTÁDIO MUNICIPAL",
      "house": "24",
      "postcode": "6300-705",
      "city": "GUARDA",
      "lon": "-7.278780122054396",
      "lat": "40.53524523233264"
    },
    {
      "id": "pt.ine.add.PTCONT.1858816",
      "street": "R ESTADIO",
      "house": "22",
      "postcode": "6300-705",
      "city": "GUARDA",
      "lon": "-7.279072651668522",
      "lat": "40.53544550953614"
    },
    {
      "id": "pt.ine.add.PTCONT.1862179",
      "street": "BR DA FRATERNIDADE",
      "house": "8",
      "postcode": "6300-708",
      "city": "GUARDA",
      "lon": "-7.276678378194203",
      "lat": "40.53438318298761"
    },
    {
      "id": "pt.ine.add.PTCONT.1871608",
      "street": "BR DA FRATERNIDADE",
      "house": "14",
      "postcode": "6300-708",
      "city": "GUARDA",
      "lon": "-7.2772862199142105",
      "lat": "40.53391941621945"
    },
    {
      "id": "pt.ine.add.PTCONT.1873738",
      "street": "BR DA FRATERNIDADE",
      "house": "17",
      "postcode": "6300-708",
      "city": "GUARDA",
      "lon": "-7.27725883577917",
      "lat": "40.53421638521045"
    },
    {
      "id": "pt.ine.add.PTCONT.1878895",
      "street": "BR DA FRATERNIDADE",
      "house": "12",
      "postcode": "6300-708",
      "city": "GUARDA",
      "lon": "-7.277027387753827",
      "lat": "40.53385446226692"
    },
    {
      "id": "pt.ine.add.PTCONT.1878902",
      "street": "R DO CABEÇO",
      "house": "1",
      "postcode": "6300-313",
      "city": "GUARDA",
      "lon": "-7.277893595296319",
      "lat": "40.53349166357427"
    },
    {
      "id": "pt.ine.add.PTCONT.1878903",
      "street": "R DO CABEÇO",
      "house": "1",
      "postcode": "6300-313",
      "city": "GUARDA",
      "lon": "-7.277893595296319",
      "lat": "40.53349166357427"
    },
    {
      "id": "pt.ine.add.PTCONT.1878911",
      "street": "R DO CABEÇO",
      "house": "1",
      "postcode": "6300-313",
      "city": "GUARDA",
      "lon": "-7.277893595296319",
      "lat": "40.53349166357427"
    },
    {
      "id": "pt.ine.add.PTCONT.1878912",
      "street": "R DO CABEÇO",
      "house": "1",
      "postcode": "6300-313",
      "city": "GUARDA",
      "lon": "-7.277893595296319",
      "lat": "40.53349166357427"
    },
    {
      "id": "pt.ine.add.PTCONT.1878913",
      "street": "R DO CABEÇO",
      "house": "1",
      "postcode": "6300-313",
      "city": "GUARDA",
      "lon": "-7.277893595296319",
      "lat": "40.53349166357427"
    },
    {
      "id": "pt.ine.add.PTCONT.1878914",
      "street": "R DO CABEÇO",
      "house": "1",
      "postcode": "6300-313",
      "city": "GUARDA",
      "lon": "-7.277893595296319",
      "lat": "40.53349166357427"
    },
    {
      "id": "pt.ine.add.PTCONT.1878915",
      "street": "R DO CABEÇO",
      "house": "1",
      "postcode": "6300-313",
      "city": "GUARDA",
      "lon": "-7.277893595296319",
      "lat": "40.53349166357427"
    },
    {
      "id": "pt.ine.add.PTCONT.1878916",
      "street": "R DO CABEÇO",
      "house": "1",
      "postcode": "6300-313",
      "city": "GUARDA",
      "lon": "-7.277893595296319",
      "lat": "40.53349166357427"
    },
    {
      "id": "pt.ine.add.PTCONT.1878919",
      "street": "R BOA ESPERANÇA",
      "house": "3",
      "postcode": "6300-522",
      "city": "GUARDA",
      "lon": "-7.278222562818795",
      "lat": "40.53453870215588"
    },
    {
      "id": "pt.ine.add.PTCONT.1878920",
      "street": "R BOA ESPERANÇA",
      "house": "3",
      "postcode": "6300-522",
      "city": "GUARDA",
      "lon": "-7.278222562818795",
      "lat": "40.53453870215588"
    },
    {
      "id": "pt.ine.add.PTCONT.1879521",
      "street": "BR DA FRATERNIDADE",
      "house": "11",
      "postcode": "6300-708",
      "city": "GUARDA",
      "lon": "-7.277073218759622",
      "lat": "40.53396286432492"
    },
    {
      "id": "pt.ine.add.PTCONT.1879565",
      "street": "R DO CABEÇO",
      "house": "1",
      "postcode": "6300-313",
      "city": "GUARDA",
      "lon": "-7.277893595296319",
      "lat": "40.53349166357427"
    },
    {
      "id": "pt.ine.add.PTCONT.1883843",
      "street": "AV DO ESTÁDIO MUNICIPAL",
      "house": "28",
      "postcode": "6300-705",
      "city": "GUARDA",
      "lon": "-7.277967744119861",
      "lat": "40.53508613402779"
    },
    {
      "id": "pt.ine.add.PTCONT.1883844",
      "street": "AV DO ESTÁDIO MUNICIPAL",
      "house": "28",
      "postcode": "6300-705",
      "city": "GUARDA",
      "lon": "-7.277967744119861",
      "lat": "40.53508613402779"
    },
    {
      "id": "pt.ine.add.PTCONT.1883845",
      "street": "AV DO ESTÁDIO MUNICIPAL",
      "house": "28",
      "postcode": "6300-705",
      "city": "GUARDA",
      "lon": "-7.277967744119861",
      "lat": "40.53508613402779"
    },
    {
      "id": "pt.ine.add.PTCONT.1883847",
      "street": "AV DO ESTÁDIO MUNICIPAL",
      "house": "28",
      "postcode": "6300-705",
      "city": "GUARDA",
      "lon": "-7.277967744119861",
      "lat": "40.53508613402779"
    },
    {
      "id": "pt.ine.add.PTCONT.1883848",
      "street": "AV DO ESTÁDIO MUNICIPAL",
      "house": "28",
      "postcode": "6300-705",
      "city": "GUARDA",
      "lon": "-7.277967744119861",
      "lat": "40.53508613402779"
    },
    {
      "id": "pt.ine.add.PTCONT.1883849",
      "street": "AV DO ESTÁDIO MUNICIPAL",
      "house": "28",
      "postcode": "6300-705",
      "city": "GUARDA",
      "lon": "-7.277967744119861",
      "lat": "40.53508613402779"
    },
    {
      "id": "pt.ine.add.PTCONT.1883850",
      "street": "AV DO ESTÁDIO MUNICIPAL",
      "house": "28",
      "postcode": "6300-705",
      "city": "GUARDA",
      "lon": "-7.277967744119861",
      "lat": "40.53508613402779"
    },
    {
      "id": "pt.ine.add.PTCONT.1883851",
      "street": "AV DO ESTÁDIO MUNICIPAL",
      "house": "28",
      "postcode": "6300-705",
      "city": "GUARDA",
      "lon": "-7.277967744119861",
      "lat": "40.53508613402779"
    },
    {
      "id": "pt.ine.add.PTCONT.1883852",
      "street": "AV DO ESTÁDIO MUNICIPAL",
      "house": "28",
      "postcode": "6300-705",
      "city": "GUARDA",
      "lon": "-7.277967744119861",
      "lat": "40.53508613402779"
    },
    {
      "id": "pt.ine.add.PTCONT.1883853",
      "street": "AV DO ESTÁDIO MUNICIPAL",
      "house": "28",
      "postcode": "6300-705",
      "city": "GUARDA",
      "lon": "-7.277967744119861",
      "lat": "40.53508613402779"
    },
    {
      "id": "pt.ine.add.PTCONT.1883854",
      "street": "AV DO ESTÁDIO MUNICIPAL",
      "house": "28",
      "postcode": "6300-705",
      "city": "GUARDA",
      "lon": "-7.277967744119861",
      "lat": "40.53508613402779"
    },
    {
      "id": "pt.ine.add.PTCONT.1883855",
      "street": "AV DO ESTÁDIO MUNICIPAL",
      "house": "28",
      "postcode": "6300-705",
      "city": "GUARDA",
      "lon": "-7.277967744119861",
      "lat": "40.53508613402779"
    },
    {
      "id": "pt.ine.add.PTCONT.1883856",
      "street": "AV DO ESTÁDIO MUNICIPAL",
      "house": "28",
      "postcode": "6300-705",
      "city": "GUARDA",
      "lon": "-7.277967744119861",
      "lat": "40.53508613402779"
    },
    {
      "id": "pt.ine.add.PTCONT.1883857",
      "street": "AV DO ESTÁDIO MUNICIPAL",
      "house": "28",
      "postcode": "6300-705",
      "city": "GUARDA",
      "lon": "-7.277967744119861",
      "lat": "40.53508613402779"
    },
    {
      "id": "pt.ine.add.PTCONT.1883858",
      "street": "AV DO ESTÁDIO MUNICIPAL",
      "house": "28",
      "postcode": "6300-705",
      "city": "GUARDA",
      "lon": "-7.277967744119861",
      "lat": "40.53508613402779"
    },
    {
      "id": "pt.ine.add.PTCONT.1883859",
      "street": "AV DO ESTÁDIO MUNICIPAL",
      "house": "28",
      "postcode": "6300-705",
      "city": "GUARDA",
      "lon": "-7.277967744119861",
      "lat": "40.53508613402779"
    },
    {
      "id": "pt.ine.add.PTCONT.1883860",
      "street": "AV DO ESTÁDIO MUNICIPAL",
      "house": "28",
      "postcode": "6300-705",
      "city": "GUARDA",
      "lon": "-7.277967744119861",
      "lat": "40.53508613402779"
    },
    {
      "id": "pt.ine.add.PTCONT.1883864",
      "street": "AV DO ESTÁDIO MUNICIPAL",
      "house": "28",
      "postcode": "6300-705",
      "city": "GUARDA",
      "lon": "-7.277967744119861",
      "lat": "40.53508613402779"
    },
    {
      "id": "pt.ine.add.PTCONT.1883865",
      "street": "AV DO ESTÁDIO MUNICIPAL",
      "house": "28",
      "postcode": "6300-705",
      "city": "GUARDA",
      "lon": "-7.277967744119861",
      "lat": "40.53508613402779"
    },
    {
      "id": "pt.ine.add.PTCONT.1883866",
      "street": "AV DO ESTÁDIO MUNICIPAL",
      "house": "28",
      "postcode": "6300-705",
      "city": "GUARDA",
      "lon": "-7.277967744119861",
      "lat": "40.53508613402779"
    },
    {
      "id": "pt.ine.add.PTCONT.1884476",
      "street": "AV DO ESTÁDIO MUNICIPAL",
      "house": "28",
      "postcode": "6300-705",
      "city": "GUARDA",
      "lon": "-7.277967744119861",
      "lat": "40.53508613402779"
    },
    {
      "id": "pt.ine.add.PTCONT.1884477",
      "street": "AV DO ESTÁDIO MUNICIPAL",
      "house": "28",
      "postcode": "6300-705",
      "city": "GUARDA",
      "lon": "-7.277967744119861",
      "lat": "40.53508613402779"
    },
    {
      "id": "pt.ine.add.PTCONT.1884506",
      "street": "AV DO ESTÁDIO MUNICIPAL",
      "house": "28",
      "postcode": "6300-705",
      "city": "GUARDA",
      "lon": "-7.277967744119861",
      "lat": "40.53508613402779"
    },
    {
      "id": "pt.ine.add.PTCONT.1884512",
      "street": "AV DO ESTÁDIO MUNICIPAL",
      "house": "28",
      "postcode": "6300-705",
      "city": "GUARDA",
      "lon": "-7.277967744119861",
      "lat": "40.53508613402779"
    },
    {
      "id": "pt.ine.add.PTCONT.1887409",
      "street": "R DA BOA ESPERANÇA",
      "house": "1",
      "postcode": "6300-522",
      "city": "GUARDA",
      "lon": "-7.27834974931492",
      "lat": "40.53474676290054"
    },
    {
      "id": "pt.ine.add.PTCONT.1887410",
      "street": "R DA BOA ESPERANÇA",
      "house": "1",
      "postcode": "6300-522",
      "city": "GUARDA",
      "lon": "-7.27834974931492",
      "lat": "40.53474676290054"
    },
    {
      "id": "pt.ine.add.PTCONT.1887411",
      "street": "R DA BOA ESPERANÇA",
      "house": "1",
      "postcode": "6300-522",
      "city": "GUARDA",
      "lon": "-7.27834974931492",
      "lat": "40.53474676290054"
    },
    {
      "id": "pt.ine.add.PTCONT.1887412",
      "street": "R DA BOA ESPERANÇA",
      "house": "1",
      "postcode": "6300-522",
      "city": "GUARDA",
      "lon": "-7.27834974931492",
      "lat": "40.53474676290054"
    },
    {
      "id": "pt.ine.add.PTCONT.1887413",
      "street": "R DA BOA ESPERANÇA",
      "house": "1",
      "postcode": "6300-522",
      "city": "GUARDA",
      "lon": "-7.27834974931492",
      "lat": "40.53474676290054"
    },
    {
      "id": "pt.ine.add.PTCONT.1887414",
      "street": "R DA BOA ESPERANÇA",
      "house": "1",
      "postcode": "6300-522",
      "city": "GUARDA",
      "lon": "-7.27834974931492",
      "lat": "40.53474676290054"
    },
    {
      "id": "pt.ine.add.PTCONT.1888299",
      "street": "R DA BOA ESPERANÇA",
      "house": "1",
      "postcode": "6300-522",
      "city": "GUARDA",
      "lon": "-7.27834974931492",
      "lat": "40.53474676290054"
    },
    {
      "id": "pt.ine.add.PTCONT.1888386",
      "street": "R DA BOA ESPERANÇA",
      "house": "1",
      "postcode": "6300-522",
      "city": "GUARDA",
      "lon": "-7.27834974931492",
      "lat": "40.53474676290054"
    },
    {
      "id": "pt.ine.add.PTCONT.1888694",
      "street": "BR DA FRATERNIDADE",
      "house": "31",
      "postcode": "6300-708",
      "city": "GUARDA",
      "lon": "-7.276821264654081",
      "lat": "40.53335764841623"
    },
    {
      "id": "pt.ine.add.PTCONT.1889920",
      "street": "BR DA FRATERNIDADE",
      "house": "15",
      "postcode": "6300-708",
      "city": "GUARDA",
      "lon": "-7.277308791922196",
      "lat": "40.534000630276964"
    },
    {
      "id": "pt.ine.add.PTCONT.1892709",
      "street": "BR DA FRATERNIDADE",
      "house": "30",
      "postcode": "6300-708",
      "city": "GUARDA",
      "lon": "-7.2770055037857135",
      "lat": "40.53371922200684"
    },
    {
      "id": "pt.ine.add.PTCONT.1893630",
      "street": "BR DA FRATERNIDADE",
      "house": "21",
      "postcode": "6300-708",
      "city": "GUARDA",
      "lon": "-7.276793757916974",
      "lat": "40.534591157919216"
    },
    {
      "id": "pt.ine.add.PTCONT.1898150",
      "street": "R DO CABEÇO",
      "house": "2",
      "postcode": "6300-313",
      "city": "GUARDA",
      "lon": "-7.277540123261427",
      "lat": "40.533444020632835"
    },
    {
      "id": "pt.ine.add.PTCONT.1898151",
      "street": "R DO CABEÇO",
      "house": "2",
      "postcode": "6300-313",
      "city": "GUARDA",
      "lon": "-7.277540123261427",
      "lat": "40.533444020632835"
    },
    {
      "id": "pt.ine.add.PTCONT.1898152",
      "street": "R DO CABEÇO",
      "house": "2",
      "postcode": "6300-313",
      "city": "GUARDA",
      "lon": "-7.277540123261427",
      "lat": "40.533444020632835"
    },
    {
      "id": "pt.ine.add.PTCONT.1898153",
      "street": "R DO CABEÇO",
      "house": "2",
      "postcode": "6300-313",
      "city": "GUARDA",
      "lon": "-7.277540123261427",
      "lat": "40.533444020632835"
    },
    {
      "id": "pt.ine.add.PTCONT.1898154",
      "street": "R DO CABEÇO",
      "house": "2",
      "postcode": "6300-313",
      "city": "GUARDA",
      "lon": "-7.277540123261427",
      "lat": "40.533444020632835"
    },
    {
      "id": "pt.ine.add.PTCONT.1898168",
      "street": "R DO CABEÇO",
      "house": "2",
      "postcode": "6300-313",
      "city": "GUARDA",
      "lon": "-7.277540123261427",
      "lat": "40.533444020632835"
    }
  ]
}