{
  "data": {
    "distrito": "Leiria",
    "concelho": "Nazaré",
    "freguesia": "Valado dos Frades",
    "OBJECTID": 61,
    "BGRI2021": "10110300213",
    "DT21": "10",
    "DTMN21": "1011",
    "DTMNFR21": "101103",
    "DTMNFRSEC21": "101103002",
    "SECNUM21": "002",
    "SSNUM21": "13",
    "SECSSNUM21": "00213",
    "OBJECTID_1": 93331,
    "DT": "10",
    "CC": "11",
    "fr": "03",
    "SEC": "002",
    "SS": "13"
  },
  "addresses": [
    {
      "id": "pt.ine.add.PTCONT.1983338",
      "street": "R DR JOSE LABORINHO MARQUES DA SILVEIRA",
      "house": "14A",
      "postcode": "2450-368",
      "city": "VALADO DOS FRADES",
      "lon": "-9.024233515460342",
      "lat": "39.5912378660719"
    },
    {
      "id": "pt.ine.add.PTCONT.2007652",
      "street": "R DR JOSE LABORINHO MARQUES DA SILVEIRA",
      "house": "",
      "postcode": "2450-368",
      "city": "VALADO DOS FRADES",
      "lon": "-9.024439605250715",
      "lat": "39.59278542514078"
    },
    {
      "id": "pt.ine.add.PTCONT.2022646",
      "street": "R LAFAYELE SOUSA PAIVA",
      "house": "3",
      "postcode": "2450-375",
      "city": "VALADO DOS FRADES",
      "lon": "-9.024944681867886",
      "lat": "39.5904128063671"
    },
    {
      "id": "pt.ine.add.PTCONT.2029978",
      "street": "R VALES",
      "house": "8",
      "postcode": "2450-367",
      "city": "VALADO DOS FRADES",
      "lon": "-9.025401174828817",
      "lat": "39.59060744744188"
    },
    {
      "id": "pt.ine.add.PTCONT.2034230",
      "street": "R VALES",
      "house": "6",
      "postcode": "2450-367",
      "city": "VALADO DOS FRADES",
      "lon": "-9.02478863119751",
      "lat": "39.5900447322314"
    },
    {
      "id": "pt.ine.add.PTCONT.2035191",
      "street": "R DR JOSE LABORINHO MARQUES DA SILVEIRA",
      "house": "14 B",
      "postcode": "2450-368",
      "city": "VALADO DOS FRADES",
      "lon": "-9.024558394261565",
      "lat": "39.59115431429282"
    },
    {
      "id": "pt.ine.add.PTCONT.2042581",
      "street": "R DR JOSE LABORINHO MARQUES DA SILVEIRA",
      "house": "2",
      "postcode": "2450-368",
      "city": "VALADO DOS FRADES",
      "lon": "-9.024428146218733",
      "lat": "39.59007451801629"
    },
    {
      "id": "pt.ine.add.PTCONT.2056007",
      "street": "R AFONSO VENÂNCIO FERREIRA",
      "house": "",
      "postcode": "2450-367",
      "city": "VALADO DOS FRADES",
      "lon": "-9.025089491430805",
      "lat": "39.59262732515518"
    },
    {
      "id": "pt.ine.add.PTCONT.2058173",
      "street": "R LAFAYELE SOUSA PAIVA",
      "house": "7 9",
      "postcode": "2450-375",
      "city": "VALADO DOS FRADES",
      "lon": "-9.024479783257672",
      "lat": "39.59047041359774"
    },
    {
      "id": "pt.ine.add.PTCONT.2077426",
      "street": "R AFONSO VENÂNCIO FERREIRA",
      "house": "",
      "postcode": "2450-367",
      "city": "VALADO DOS FRADES",
      "lon": "-9.02570364517836",
      "lat": "39.592406449670094"
    },
    {
      "id": "pt.ine.add.PTCONT.2093788",
      "street": "R AFONSO VENÂNCIO FERREIRA",
      "house": "",
      "postcode": "2450-367",
      "city": "VALADO DOS FRADES",
      "lon": "-9.025275040613531",
      "lat": "39.59257186079544"
    },
    {
      "id": "pt.ine.add.PTCONT.2119384",
      "street": "R DR JOSE LABORINHO MARQUES DA SILVEIRA",
      "house": "18",
      "postcode": "2450-368",
      "city": "VALADO DOS FRADES",
      "lon": "-9.024191340231786",
      "lat": "39.59158044139845"
    },
    {
      "id": "pt.ine.add.PTCONT.2125946",
      "street": "R DR JOSE LABORINHO MARQUES DA SILVEIRA",
      "house": "16",
      "postcode": "2450-368",
      "city": "VALADO DOS FRADES",
      "lon": "-9.024177623436394",
      "lat": "39.59141842729001"
    },
    {
      "id": "pt.ine.add.PTCONT.2132037",
      "street": "R AFONSO VENÂNCIO FERREIRA",
      "house": "",
      "postcode": "2450-367",
      "city": "VALADO DOS FRADES",
      "lon": "-9.02468347166462",
      "lat": "39.59273852096131"
    },
    {
      "id": "pt.ine.add.PTCONT.2134549",
      "street": "R AFONSO VENÂNCIO FERREIRA",
      "house": "",
      "postcode": "2450-367",
      "city": "VALADO DOS FRADES",
      "lon": "-9.025958918238544",
      "lat": "39.59234144193683"
    },
    {
      "id": "pt.ine.add.PTCONT.2152001",
      "street": "R AFONSO VENÂNCIO FERREIRA",
      "house": "",
      "postcode": "2450-367",
      "city": "VALADO DOS FRADES",
      "lon": "-9.025483176436934",
      "lat": "39.59246218291308"
    },
    {
      "id": "pt.ine.add.PTCONT.2159194",
      "street": "R LIBERDADE",
      "house": "",
      "postcode": "2450-404",
      "city": "VALADO DOS FRADES",
      "lon": "-9.02560786626498",
      "lat": "39.59220003302717"
    },
    {
      "id": "pt.ine.add.PTCONT.2162967",
      "street": "R AFONSO VENÂNCIO FERREIRA",
      "house": "",
      "postcode": "2450-367",
      "city": "VALADO DOS FRADES",
      "lon": "-9.024892417267326",
      "lat": "39.59269188430302"
    },
    {
      "id": "pt.ine.add.PTCONT.2200628",
      "street": "R DR JOSE LABORINHO MARQUES DA SILVEIRA",
      "house": "10",
      "postcode": "2450-368",
      "city": "VALADO DOS FRADES",
      "lon": "-9.024917037199462",
      "lat": "39.590980436174036"
    },
    {
      "id": "pt.ine.add.PTCONT.2216150",
      "street": "R DR JOSE LABORINHO MARQUES DA SILVEIRA",
      "house": "8",
      "postcode": "2450-368",
      "city": "VALADO DOS FRADES",
      "lon": "-9.024259088829172",
      "lat": "39.59050813298967"
    },
    {
      "id": "pt.ine.add.PTCONT.2222682",
      "street": "R LAFAYELE SOUSA PAIVA",
      "house": "13",
      "postcode": "2450-375",
      "city": "VALADO DOS FRADES",
      "lon": "-9.024258396518201",
      "lat": "39.590454098522336"
    },
    {
      "id": "pt.ine.add.PTCONT.2227383",
      "street": "R DR JOSE LABORINHO MARQUES DA SILVEIRA",
      "house": "181",
      "postcode": "2450-368",
      "city": "VALADO DOS FRADES",
      "lon": "-9.02477183794163",
      "lat": "39.59145890183974"
    },
    {
      "id": "pt.ine.add.PTCONT.2239969",
      "street": "R DR JOSE LABORINHO MARQUES DA SILVEIRA",
      "house": "4",
      "postcode": "2450-368",
      "city": "VALADO DOS FRADES",
      "lon": "-9.024348629888967",
      "lat": "39.59022824068086"
    },
    {
      "id": "pt.ine.add.PTCONT.2240457",
      "street": "R DR JOSE LABORINHO MARQUES DA SILVEIRA",
      "house": "4",
      "postcode": "2450-368",
      "city": "VALADO DOS FRADES",
      "lon": "-9.024348629888967",
      "lat": "39.59022824068086"
    },
    {
      "id": "pt.ine.add.PTCONT.2251452",
      "street": "R LIBERDADE",
      "house": "",
      "postcode": "2450-404",
      "city": "VALADO DOS FRADES",
      "lon": "-9.025828218479752",
      "lat": "39.59213529381743"
    },
    {
      "id": "pt.ine.add.PTCONT.2260052",
      "street": "R VALES",
      "house": "",
      "postcode": "2450-367",
      "city": "VALADO DOS FRADES",
      "lon": "-9.026188250875784",
      "lat": "39.592069480635935"
    },
    {
      "id": "pt.ine.add.PTCONT.2267118",
      "street": "R DR JOSE LABORINHO MARQUES DA SILVEIRA",
      "house": "22 24",
      "postcode": "2450-368",
      "city": "VALADO DOS FRADES",
      "lon": "-9.02429806170992",
      "lat": "39.591732735553315"
    }
  ]
}