{
  "data": {
    "distrito": "Set√∫bal",
    "concelho": "Sines",
    "freguesia": "Porto Covo",
    "OBJECTID": 186,
    "BGRI2021": "15130200101",
    "DT21": "15",
    "DTMN21": "1513",
    "DTMNFR21": "151302",
    "DTMNFRSEC21": "151302001",
    "SECNUM21": "001",
    "SSNUM21": "01",
    "SECSSNUM21": "00101",
    "OBJECTID_1": 171489,
    "DT": "15",
    "CC": "13",
    "fr": "02",
    "SEC": "001",
    "SS": "01"
  },
  "addresses": [
    {
      "id": "pt.ine.add.PTCONT.4680314",
      "street": "MTE SOALHEIRINHA",
      "house": "",
      "postcode": "7520-409",
      "city": "PORTO COVO",
      "lon": "-8.741141123170125",
      "lat": "37.82351485630859"
    },
    {
      "id": "pt.ine.add.PTCONT.4680315",
      "street": "SIT SITIO MONTE DO BEMPARECE",
      "house": "",
      "postcode": "7520-409",
      "city": "PORTO COVO",
      "lon": "-8.742415262518193",
      "lat": "37.82238209206518"
    },
    {
      "id": "pt.ine.add.PTCONT.4680316",
      "street": "SIT SITIO MONTE DO BEMPARECE",
      "house": "",
      "postcode": "7520-409",
      "city": "PORTO COVO",
      "lon": "-8.742415262518193",
      "lat": "37.82238209206518"
    },
    {
      "id": "pt.ine.add.PTCONT.4716407",
      "street": "MTE SOALHEIRINHA",
      "house": "",
      "postcode": "7520-409",
      "city": "PORTO COVO",
      "lon": "-8.740914490268386",
      "lat": "37.82357909210466"
    },
    {
      "id": "pt.ine.add.PTCONT.4741357",
      "street": "MTE MIRANDA",
      "house": "",
      "postcode": "7520-409",
      "city": "PORTO COVO",
      "lon": "-8.74009992804916",
      "lat": "37.82535815195925"
    },
    {
      "id": "pt.ine.add.PTCONT.4848710",
      "street": "SIT SITIO MONTE DO BEMPARECE",
      "house": "",
      "postcode": "7520-409",
      "city": "PORTO COVO",
      "lon": "-8.742368277937862",
      "lat": "37.822193136866666"
    },
    {
      "id": "pt.ine.add.PTCONT.4863843",
      "street": "SIT SITIO MONTE DO BEMPARECE",
      "house": "",
      "postcode": "7520-409",
      "city": "PORTO COVO",
      "lon": "-8.743763444083516",
      "lat": "37.82196968535652"
    },
    {
      "id": "pt.ine.add.PTCONT.4934997",
      "street": "SIT SITIO SOALMEIRINHA",
      "house": "",
      "postcode": "7520-409",
      "city": "PORTO COVO",
      "lon": "-8.739653437184536",
      "lat": "37.82354054564246"
    },
    {
      "id": "pt.ine.add.PTCONT.4956545",
      "street": "SIT SITIO AREIA BRANCA MONNE AREIA",
      "house": "",
      "postcode": "7520-409",
      "city": "PORTO COVO",
      "lon": "-8.739520238394364",
      "lat": "37.82530708135627"
    }
  ]
}