{
  "data": {
    "distrito": "Leiria",
    "concelho": "Pedrógão Grande",
    "freguesia": "Pedrógão Grande",
    "OBJECTID": 196,
    "BGRI2021": "10130200324",
    "DT21": "10",
    "DTMN21": "1013",
    "DTMNFR21": "101302",
    "DTMNFRSEC21": "101302003",
    "SECNUM21": "003",
    "SSNUM21": "24",
    "SECSSNUM21": "00324",
    "OBJECTID_1": 93889,
    "DT": "10",
    "CC": "13",
    "fr": "02",
    "SEC": "003",
    "SS": "24"
  },
  "addresses": [
    {
      "id": "pt.ine.add.PTCONT.1980324",
      "street": "R CABECO MOINHO",
      "house": "",
      "postcode": "3270-065",
      "city": "PEDRÓGÃO GRANDE",
      "lon": "-8.171815391609975",
      "lat": "39.9656640293446"
    },
    {
      "id": "pt.ine.add.PTCONT.1983221",
      "street": "R SOUTINHO",
      "house": "",
      "postcode": "3270-065",
      "city": "PEDRÓGÃO GRANDE",
      "lon": "-8.169861126800985",
      "lat": "39.96641218428181"
    },
    {
      "id": "pt.ine.add.PTCONT.1985509",
      "street": "",
      "house": "",
      "postcode": "3270-065",
      "city": "PEDRÓGÃO GRANDE",
      "lon": "-8.170914396815775",
      "lat": "39.96613265177853"
    },
    {
      "id": "pt.ine.add.PTCONT.1985503",
      "street": "",
      "house": "",
      "postcode": "3270-066",
      "city": "PEDRÓGÃO GRANDE",
      "lon": "-8.159684866158328",
      "lat": "39.95384222355405"
    },
    {
      "id": "pt.ine.add.PTCONT.1987617",
      "street": "",
      "house": "",
      "postcode": "3270-066",
      "city": "PEDRÓGÃO GRANDE",
      "lon": "-8.160644841454156",
      "lat": "39.954751632793226"
    },
    {
      "id": "pt.ine.add.PTCONT.1987618",
      "street": "",
      "house": "",
      "postcode": "3270-066",
      "city": "PEDRÓGÃO GRANDE",
      "lon": "-8.160445981237038",
      "lat": "39.95496783031716"
    },
    {
      "id": "pt.ine.add.PTCONT.1987620",
      "street": "",
      "house": "",
      "postcode": "3270-066",
      "city": "PEDRÓGÃO GRANDE",
      "lon": "-8.159813860608875",
      "lat": "39.95452667045186"
    },
    {
      "id": "pt.ine.add.PTCONT.1992185",
      "street": "",
      "house": "",
      "postcode": "3270-066",
      "city": "PEDRÓGÃO GRANDE",
      "lon": "-8.159462693673452",
      "lat": "39.954301594064646"
    },
    {
      "id": "pt.ine.add.PTCONT.1994655",
      "street": "",
      "house": "",
      "postcode": "3270-066",
      "city": "PEDRÓGÃO GRANDE",
      "lon": "-8.16282115021423",
      "lat": "39.95383245590053"
    },
    {
      "id": "pt.ine.add.PTCONT.1998472",
      "street": "",
      "house": "",
      "postcode": "3270-066",
      "city": "PEDRÓGÃO GRANDE",
      "lon": "-8.159439233123688",
      "lat": "39.954157499072224"
    },
    {
      "id": "pt.ine.add.PTCONT.2001031",
      "street": "",
      "house": "",
      "postcode": "3270-066",
      "city": "PEDRÓGÃO GRANDE",
      "lon": "-8.159896288882337",
      "lat": "39.95583256039851"
    },
    {
      "id": "pt.ine.add.PTCONT.2006027",
      "street": "R VALEIRAS",
      "house": "",
      "postcode": "3270-065",
      "city": "PEDRÓGÃO GRANDE",
      "lon": "-8.170879500910466",
      "lat": "39.966528938204995"
    },
    {
      "id": "pt.ine.add.PTCONT.2019194",
      "street": "",
      "house": "",
      "postcode": "3270-066",
      "city": "PEDRÓGÃO GRANDE",
      "lon": "-8.159860481861585",
      "lat": "39.95404032111712"
    },
    {
      "id": "pt.ine.add.PTCONT.2022959",
      "street": "",
      "house": "",
      "postcode": "3270-066",
      "city": "PEDRÓGÃO GRANDE",
      "lon": "-8.159521123755226",
      "lat": "39.95408543028124"
    },
    {
      "id": "pt.ine.add.PTCONT.2027649",
      "street": "",
      "house": "",
      "postcode": "3270-066",
      "city": "PEDRÓGÃO GRANDE",
      "lon": "-8.160141670498316",
      "lat": "39.95486883271589"
    },
    {
      "id": "pt.ine.add.PTCONT.2028676",
      "street": "",
      "house": "",
      "postcode": "3270-066",
      "city": "PEDRÓGÃO GRANDE",
      "lon": "-8.162540265486145",
      "lat": "39.953778489923884"
    },
    {
      "id": "pt.ine.add.PTCONT.2035536",
      "street": "",
      "house": "",
      "postcode": "3270-066",
      "city": "PEDRÓGÃO GRANDE",
      "lon": "-8.163876778390712",
      "lat": "39.959181902899765"
    },
    {
      "id": "pt.ine.add.PTCONT.2046814",
      "street": "",
      "house": "",
      "postcode": "3270-066",
      "city": "PEDRÓGÃO GRANDE",
      "lon": "-8.159965868679137",
      "lat": "39.954202409617224"
    },
    {
      "id": "pt.ine.add.PTCONT.2048804",
      "street": "",
      "house": "",
      "postcode": "3270-066",
      "city": "PEDRÓGÃO GRANDE",
      "lon": "-8.1592870406783",
      "lat": "39.95400442694108"
    },
    {
      "id": "pt.ine.add.PTCONT.2066585",
      "street": "R QUINA",
      "house": "",
      "postcode": "3270-065",
      "city": "PEDRÓGÃO GRANDE",
      "lon": "-8.170750748893541",
      "lat": "39.9665289800842"
    },
    {
      "id": "pt.ine.add.PTCONT.2066586",
      "street": "",
      "house": "",
      "postcode": "3270-065",
      "city": "PEDRÓGÃO GRANDE",
      "lon": "-8.170774410424217",
      "lat": "39.96698829117404"
    },
    {
      "id": "pt.ine.add.PTCONT.2070521",
      "street": "",
      "house": "",
      "postcode": "3270-066",
      "city": "PEDRÓGÃO GRANDE",
      "lon": "-8.16110086943564",
      "lat": "39.953823877760875"
    },
    {
      "id": "pt.ine.add.PTCONT.2072364",
      "street": "R SOUTINHO",
      "house": "",
      "postcode": "3270-065",
      "city": "PEDRÓGÃO GRANDE",
      "lon": "-8.169826142763805",
      "lat": "39.96665536414134"
    },
    {
      "id": "pt.ine.add.PTCONT.2082381",
      "street": "R RIBEIRA",
      "house": "",
      "postcode": "3270-066",
      "city": "PEDRÓGÃO GRANDE",
      "lon": "-8.161276393116271",
      "lat": "39.95378781016383"
    },
    {
      "id": "pt.ine.add.PTCONT.2089136",
      "street": "LG JOGO",
      "house": "",
      "postcode": "3270-065",
      "city": "PEDRÓGÃO GRANDE",
      "lon": "-8.170669116448295",
      "lat": "39.96707838783905"
    },
    {
      "id": "pt.ine.add.PTCONT.2122790",
      "street": "",
      "house": "",
      "postcode": "3270-066",
      "city": "PEDRÓGÃO GRANDE",
      "lon": "-8.160293734829501",
      "lat": "39.95468867177091"
    },
    {
      "id": "pt.ine.add.PTCONT.2092312",
      "street": "",
      "house": "",
      "postcode": "3270-066",
      "city": "PEDRÓGÃO GRANDE",
      "lon": "-8.160821389213073",
      "lat": "39.95724632680172"
    },
    {
      "id": "pt.ine.add.PTCONT.2092373",
      "street": "",
      "house": "",
      "postcode": "3270-066",
      "city": "PEDRÓGÃO GRANDE",
      "lon": "-8.161419118760787",
      "lat": "39.95935364811137"
    },
    {
      "id": "pt.ine.add.PTCONT.2106063",
      "street": "",
      "house": "",
      "postcode": "3270-066",
      "city": "PEDRÓGÃO GRANDE",
      "lon": "-8.160340359936205",
      "lat": "39.9542203347967"
    },
    {
      "id": "pt.ine.add.PTCONT.2106064",
      "street": "",
      "house": "",
      "postcode": "3270-066",
      "city": "PEDRÓGÃO GRANDE",
      "lon": "-8.159579574301656",
      "lat": "39.95392330407996"
    },
    {
      "id": "pt.ine.add.PTCONT.2112077",
      "street": "R QUINA",
      "house": "",
      "postcode": "3270-065",
      "city": "PEDRÓGÃO GRANDE",
      "lon": "-8.170680431776153",
      "lat": "39.966366890378154"
    },
    {
      "id": "pt.ine.add.PTCONT.2112080",
      "street": "",
      "house": "",
      "postcode": "3270-066",
      "city": "PEDRÓGÃO GRANDE",
      "lon": "-8.160000944818803",
      "lat": "39.95412134505335"
    },
    {
      "id": "pt.ine.add.PTCONT.2122789",
      "street": "",
      "house": "",
      "postcode": "3270-066",
      "city": "PEDRÓGÃO GRANDE",
      "lon": "-8.160235139435871",
      "lat": "39.95448154129466"
    },
    {
      "id": "pt.ine.add.PTCONT.2125785",
      "street": "",
      "house": "",
      "postcode": "3270-066",
      "city": "PEDRÓGÃO GRANDE",
      "lon": "-8.159228513999837",
      "lat": "39.9539684150598"
    },
    {
      "id": "pt.ine.add.PTCONT.2125788",
      "street": "",
      "house": "",
      "postcode": "3270-065",
      "city": "PEDRÓGÃO GRANDE",
      "lon": "-8.170692097023329",
      "lat": "39.96629483658742"
    },
    {
      "id": "pt.ine.add.PTCONT.2127303",
      "street": "",
      "house": "",
      "postcode": "3270-065",
      "city": "PEDRÓGÃO GRANDE",
      "lon": "-8.170855972574227",
      "lat": "39.96631279584413"
    },
    {
      "id": "pt.ine.add.PTCONT.2127304",
      "street": "",
      "house": "",
      "postcode": "3270-066",
      "city": "PEDRÓGÃO GRANDE",
      "lon": "-8.159041323601247",
      "lat": "39.95410355114093"
    },
    {
      "id": "pt.ine.add.PTCONT.2141230",
      "street": "",
      "house": "",
      "postcode": "3270-066",
      "city": "PEDRÓGÃO GRANDE",
      "lon": "-8.160176757421818",
      "lat": "39.95481478691352"
    },
    {
      "id": "pt.ine.add.PTCONT.2147559",
      "street": "",
      "house": "",
      "postcode": "3270-065",
      "city": "PEDRÓGÃO GRANDE",
      "lon": "-8.170797478787954",
      "lat": "39.96636685238317"
    },
    {
      "id": "pt.ine.add.PTCONT.2151895",
      "street": "R CABECO DO MOINHO",
      "house": "",
      "postcode": "3270-065",
      "city": "PEDRÓGÃO GRANDE",
      "lon": "-8.171698381243859",
      "lat": "39.96572711212"
    },
    {
      "id": "pt.ine.add.PTCONT.2151896",
      "street": "",
      "house": "",
      "postcode": "3270-065",
      "city": "PEDRÓGÃO GRANDE",
      "lon": "-8.17096135453827",
      "lat": "39.966384811490585"
    },
    {
      "id": "pt.ine.add.PTCONT.2154204",
      "street": "",
      "house": "",
      "postcode": "3270-065",
      "city": "PEDRÓGÃO GRANDE",
      "lon": "-8.170833018616134",
      "lat": "39.96714137836659"
    },
    {
      "id": "pt.ine.add.PTCONT.2154302",
      "street": "",
      "house": "",
      "postcode": "3270-066",
      "city": "PEDRÓGÃO GRANDE",
      "lon": "-8.16098385110855",
      "lat": "39.95384191849791"
    },
    {
      "id": "pt.ine.add.PTCONT.2207726",
      "street": "",
      "house": "",
      "postcode": "3270-066",
      "city": "PEDRÓGÃO GRANDE",
      "lon": "-8.160129627506297",
      "lat": "39.95400423361603"
    },
    {
      "id": "pt.ine.add.PTCONT.2158468",
      "street": "R QUINA",
      "house": "",
      "postcode": "3270-065",
      "city": "PEDRÓGÃO GRANDE",
      "lon": "-8.17087932248241",
      "lat": "39.966204713223185"
    },
    {
      "id": "pt.ine.add.PTCONT.2160747",
      "street": "",
      "house": "",
      "postcode": "3270-065",
      "city": "PEDRÓGÃO GRANDE",
      "lon": "-8.169217206702186",
      "lat": "39.96610617409793"
    },
    {
      "id": "pt.ine.add.PTCONT.2165089",
      "street": "",
      "house": "",
      "postcode": "3270-066",
      "city": "PEDRÓGÃO GRANDE",
      "lon": "-8.159322107203693",
      "lat": "39.95389634376981"
    },
    {
      "id": "pt.ine.add.PTCONT.2167365",
      "street": "",
      "house": "",
      "postcode": "3270-066",
      "city": "PEDRÓGÃO GRANDE",
      "lon": "-8.160656179231092",
      "lat": "39.95384199682165"
    },
    {
      "id": "pt.ine.add.PTCONT.2180236",
      "street": "",
      "house": "",
      "postcode": "3270-065",
      "city": "PEDRÓGÃO GRANDE",
      "lon": "-8.170914332324463",
      "lat": "39.96601557052923"
    },
    {
      "id": "pt.ine.add.PTCONT.2191344",
      "street": "",
      "house": "",
      "postcode": "3270-066",
      "city": "PEDRÓGÃO GRANDE",
      "lon": "-8.162001913797955",
      "lat": "39.953697568906435"
    },
    {
      "id": "pt.ine.add.PTCONT.2181896",
      "street": "R SOUTINHO",
      "house": "",
      "postcode": "3270-065",
      "city": "PEDRÓGÃO GRANDE",
      "lon": "-8.16931093421668",
      "lat": "39.96627726364208"
    },
    {
      "id": "pt.ine.add.PTCONT.2184596",
      "street": "",
      "house": "",
      "postcode": "3270-066",
      "city": "PEDRÓGÃO GRANDE",
      "lon": "-8.160223550570413",
      "lat": "39.95476974463208"
    },
    {
      "id": "pt.ine.add.PTCONT.2186817",
      "street": "",
      "house": "",
      "postcode": "3270-066",
      "city": "PEDRÓGÃO GRANDE",
      "lon": "-8.159216958664329",
      "lat": "39.95435568728596"
    },
    {
      "id": "pt.ine.add.PTCONT.2196061",
      "street": "",
      "house": "",
      "postcode": "3270-065",
      "city": "PEDRÓGÃO GRANDE",
      "lon": "-8.171464354833219",
      "lat": "39.96584427106439"
    },
    {
      "id": "pt.ine.add.PTCONT.2200478",
      "street": "",
      "house": "",
      "postcode": "3270-066",
      "city": "PEDRÓGÃO GRANDE",
      "lon": "-8.162308332424594",
      "lat": "39.95875901421473"
    },
    {
      "id": "pt.ine.add.PTCONT.2231223",
      "street": "",
      "house": "",
      "postcode": "3270-065",
      "city": "PEDRÓGÃO GRANDE",
      "lon": "-8.170797320530415",
      "lat": "39.96607865239192"
    },
    {
      "id": "pt.ine.add.PTCONT.2213891",
      "street": "",
      "house": "",
      "postcode": "3270-065",
      "city": "PEDRÓGÃO GRANDE",
      "lon": "-8.170703707980334",
      "lat": "39.96612371404668"
    },
    {
      "id": "pt.ine.add.PTCONT.2216016",
      "street": "",
      "house": "",
      "postcode": "3270-066",
      "city": "PEDRÓGÃO GRANDE",
      "lon": "-8.159837493864112",
      "lat": "39.95511207250841"
    },
    {
      "id": "pt.ine.add.PTCONT.2229316",
      "street": "",
      "house": "",
      "postcode": "3270-066",
      "city": "PEDRÓGÃO GRANDE",
      "lon": "-8.159895688043074",
      "lat": "39.95429248855599"
    },
    {
      "id": "pt.ine.add.PTCONT.2231345",
      "street": "",
      "house": "",
      "postcode": "3270-066",
      "city": "PEDRÓGÃO GRANDE",
      "lon": "-8.159626360278596",
      "lat": "39.953860249492735"
    },
    {
      "id": "pt.ine.add.PTCONT.2233191",
      "street": "",
      "house": "",
      "postcode": "3270-066",
      "city": "PEDRÓGÃO GRANDE",
      "lon": "-8.16065631653525",
      "lat": "39.95418423506886"
    },
    {
      "id": "pt.ine.add.PTCONT.2237429",
      "street": "",
      "house": "",
      "postcode": "3270-066",
      "city": "PEDRÓGÃO GRANDE",
      "lon": "-8.164122250330026",
      "lat": "39.95851537403272"
    },
    {
      "id": "pt.ine.add.PTCONT.2239857",
      "street": "",
      "house": "",
      "postcode": "3270-066",
      "city": "PEDRÓGÃO GRANDE",
      "lon": "-8.160471034220722",
      "lat": "39.959101700416205"
    },
    {
      "id": "pt.ine.add.PTCONT.2254103",
      "street": "",
      "house": "",
      "postcode": "3270-066",
      "city": "PEDRÓGÃO GRANDE",
      "lon": "-8.160317004636262",
      "lat": "39.95434642806184"
    },
    {
      "id": "pt.ine.add.PTCONT.2257705",
      "street": "",
      "house": "",
      "postcode": "3270-066",
      "city": "PEDRÓGÃO GRANDE",
      "lon": "-8.161241237473421",
      "lat": "39.95367073717775"
    },
    {
      "id": "pt.ine.add.PTCONT.2259979",
      "street": "R SOUTINHO",
      "house": "",
      "postcode": "3270-065",
      "city": "PEDRÓGÃO GRANDE",
      "lon": "-8.169556766103383",
      "lat": "39.966340230368054"
    },
    {
      "id": "pt.ine.add.PTCONT.2263793",
      "street": "",
      "house": "",
      "postcode": "3270-066",
      "city": "PEDRÓGÃO GRANDE",
      "lon": "-8.16148697960092",
      "lat": "39.95364365847131"
    },
    {
      "id": "pt.ine.add.PTCONT.2265157",
      "street": "",
      "house": "",
      "postcode": "3270-066",
      "city": "PEDRÓGÃO GRANDE",
      "lon": "-8.159731875472366",
      "lat": "39.95435557018095"
    }
  ]
}