{
  "data": {
    "distrito": "Braga",
    "concelho": "Esposende",
    "freguesia": "Uni√£o das freguesias de Esposende, Marinhas e Gandra",
    "OBJECTID": 117,
    "BGRI2021": "03061800715",
    "DT21": "03",
    "DTMN21": "0306",
    "DTMNFR21": "030618",
    "DTMNFRSEC21": "030618007",
    "SECNUM21": "007",
    "SSNUM21": "15",
    "SECSSNUM21": "00715",
    "OBJECTID_1": 24899,
    "DT": "03",
    "CC": "06",
    "fr": "18",
    "SEC": "007",
    "SS": "15"
  },
  "addresses": [
    {
      "id": "pt.ine.add.PTCONT.460836",
      "street": "R ANTA",
      "house": "56",
      "postcode": "4740-574",
      "city": "ESPOSENDE",
      "lon": "-8.773686619302033",
      "lat": "41.541268610185966"
    },
    {
      "id": "pt.ine.add.PTCONT.461471",
      "street": "TV VASCO DA GAMA",
      "house": "4",
      "postcode": "4740-302",
      "city": "ESPOSENDE",
      "lon": "-8.77828340187698",
      "lat": "41.53593071629075"
    },
    {
      "id": "pt.ine.add.PTCONT.463004",
      "street": "LG PINTOR HENRIQUE MEDINA",
      "house": "7",
      "postcode": "4740-534",
      "city": "ESPOSENDE",
      "lon": "-8.765499944758847",
      "lat": "41.539882331859936"
    },
    {
      "id": "pt.ine.add.PTCONT.464604",
      "street": "R S MIGUEL",
      "house": "144",
      "postcode": "4740-540",
      "city": "ESPOSENDE",
      "lon": "-8.767111364874717",
      "lat": "41.542907711996676"
    },
    {
      "id": "pt.ine.add.PTCONT.464605",
      "street": "R S MIGUEL",
      "house": "144",
      "postcode": "4740-540",
      "city": "ESPOSENDE",
      "lon": "-8.767111364874717",
      "lat": "41.542907711996676"
    },
    {
      "id": "pt.ine.add.PTCONT.464606",
      "street": "R FONTE",
      "house": "11",
      "postcode": "4740-539",
      "city": "ESPOSENDE",
      "lon": "-8.765024058656604",
      "lat": "41.54146960271609"
    },
    {
      "id": "pt.ine.add.PTCONT.464607",
      "street": "R FONTE",
      "house": "11",
      "postcode": "4740-539",
      "city": "ESPOSENDE",
      "lon": "-8.765024058656604",
      "lat": "41.54146960271609"
    },
    {
      "id": "pt.ine.add.PTCONT.465893",
      "street": "R FONTE DA ZAO",
      "house": "54",
      "postcode": "4740-548",
      "city": "ESPOSENDE",
      "lon": "-8.766272355455929",
      "lat": "41.53921180608675"
    },
    {
      "id": "pt.ine.add.PTCONT.483173",
      "street": "R VASCO DA GAMA",
      "house": "101",
      "postcode": "4740-291",
      "city": "ESPOSENDE",
      "lon": "-8.775714211883392",
      "lat": "41.53665639615454"
    },
    {
      "id": "pt.ine.add.PTCONT.483174",
      "street": "TV VASCO DA GAMA",
      "house": "",
      "postcode": "4740-302",
      "city": "ESPOSENDE",
      "lon": "-8.779284872064508",
      "lat": "41.53782487881131"
    },
    {
      "id": "pt.ine.add.PTCONT.486643",
      "street": "TV VASCO DA GAMA",
      "house": "",
      "postcode": "4740-302",
      "city": "ESPOSENDE",
      "lon": "-8.779550735228247",
      "lat": "41.538048477600626"
    },
    {
      "id": "pt.ine.add.PTCONT.488182",
      "street": "R VASCO DA GAMA",
      "house": "109",
      "postcode": "4740-291",
      "city": "ESPOSENDE",
      "lon": "-8.77510505789293",
      "lat": "41.53685788050009"
    },
    {
      "id": "pt.ine.add.PTCONT.498657",
      "street": "TV LARGO DO MEDINA",
      "house": "1",
      "postcode": "4740-554",
      "city": "ESPOSENDE",
      "lon": "-8.766181583396097",
      "lat": "41.539734521718515"
    },
    {
      "id": "pt.ine.add.PTCONT.501569",
      "street": "R S MIGUEL",
      "house": "134",
      "postcode": "4740-574",
      "city": "ESPOSENDE",
      "lon": "-8.768353095511511",
      "lat": "41.54365717118143"
    },
    {
      "id": "pt.ine.add.PTCONT.519278",
      "street": "TV VASCO DA GAMA",
      "house": "73",
      "postcode": "4740-302",
      "city": "ESPOSENDE",
      "lon": "-8.77730092919559",
      "lat": "41.53594522793077"
    },
    {
      "id": "pt.ine.add.PTCONT.525398",
      "street": "TV ANTA",
      "house": "12",
      "postcode": "4740-574",
      "city": "ESPOSENDE",
      "lon": "-8.769092921953755",
      "lat": "41.54332894806363"
    },
    {
      "id": "pt.ine.add.PTCONT.537249",
      "street": "R VASCO DA GAMA",
      "house": "105",
      "postcode": "4740-291",
      "city": "ESPOSENDE",
      "lon": "-8.775403822206727",
      "lat": "41.53677517864556"
    },
    {
      "id": "pt.ine.add.PTCONT.537566",
      "street": "R ANTA",
      "house": "108",
      "postcode": "4740-574",
      "city": "ESPOSENDE",
      "lon": "-8.769037678055287",
      "lat": "41.543806450479266"
    },
    {
      "id": "pt.ine.add.PTCONT.540152",
      "street": "TV VASCO DA GAMA",
      "house": "",
      "postcode": "4740-302",
      "city": "ESPOSENDE",
      "lon": "-8.778716650678156",
      "lat": "41.536117362970415"
    },
    {
      "id": "pt.ine.add.PTCONT.546065",
      "street": "R VASCO DA GAMA",
      "house": "81",
      "postcode": "4740-291",
      "city": "ESPOSENDE",
      "lon": "-8.776693839708914",
      "lat": "41.536353794801684"
    },
    {
      "id": "pt.ine.add.PTCONT.546066",
      "street": "TV VASCO DA GAMA",
      "house": "",
      "postcode": "4740-302",
      "city": "ESPOSENDE",
      "lon": "-8.778296279086938",
      "lat": "41.536020681290424"
    },
    {
      "id": "pt.ine.add.PTCONT.546380",
      "street": "R FONTE",
      "house": "7",
      "postcode": "4740-539",
      "city": "ESPOSENDE",
      "lon": "-8.764528355387949",
      "lat": "41.54102213969111"
    },
    {
      "id": "pt.ine.add.PTCONT.556331",
      "street": "R REGADIA",
      "house": "162",
      "postcode": "4740-318",
      "city": "ESPOSENDE",
      "lon": "-8.765761108045178",
      "lat": "41.5420868066463"
    },
    {
      "id": "pt.ine.add.PTCONT.561279",
      "street": "R S MIGUEL",
      "house": "164",
      "postcode": "4740-540",
      "city": "ESPOSENDE",
      "lon": "-8.76552318993594",
      "lat": "41.54226818970765"
    },
    {
      "id": "pt.ine.add.PTCONT.561280",
      "street": "R S MIGUEL",
      "house": "164",
      "postcode": "4740-540",
      "city": "ESPOSENDE",
      "lon": "-8.76552318993594",
      "lat": "41.54226818970765"
    },
    {
      "id": "pt.ine.add.PTCONT.573046",
      "street": "EN 13",
      "house": "2",
      "postcode": "4740-209",
      "city": "ESPOSENDE",
      "lon": "-8.778422269371175",
      "lat": "41.53543473221429"
    },
    {
      "id": "pt.ine.add.PTCONT.580499",
      "street": "R VASCO DA GAMA",
      "house": "97",
      "postcode": "4740-291",
      "city": "ESPOSENDE",
      "lon": "-8.775917202934702",
      "lat": "41.53658323184274"
    },
    {
      "id": "pt.ine.add.PTCONT.581170",
      "street": "R ANTA",
      "house": "110",
      "postcode": "4740-574",
      "city": "ESPOSENDE",
      "lon": "-8.768907265895885",
      "lat": "41.5439512310451"
    },
    {
      "id": "pt.ine.add.PTCONT.582433",
      "street": "R FONTE",
      "house": "23",
      "postcode": "4740-539",
      "city": "ESPOSENDE",
      "lon": "-8.764704621270994",
      "lat": "41.54189453244735"
    },
    {
      "id": "pt.ine.add.PTCONT.592754",
      "street": "R VASCO DA GAMA",
      "house": "91",
      "postcode": "4740-291",
      "city": "ESPOSENDE",
      "lon": "-8.776108300124074",
      "lat": "41.53651913740241"
    },
    {
      "id": "pt.ine.add.PTCONT.595789",
      "street": "R FONTE",
      "house": "21",
      "postcode": "4740-539",
      "city": "ESPOSENDE",
      "lon": "-8.764572188599823",
      "lat": "41.54183223372676"
    },
    {
      "id": "pt.ine.add.PTCONT.598620",
      "street": "TV VASCO DA GAMA",
      "house": "",
      "postcode": "4740-302",
      "city": "ESPOSENDE",
      "lon": "-8.779337168040385",
      "lat": "41.53705926854826"
    },
    {
      "id": "pt.ine.add.PTCONT.599033",
      "street": "R FONTE",
      "house": "19",
      "postcode": "4740-539",
      "city": "ESPOSENDE",
      "lon": "-8.764438267478353",
      "lat": "41.541616879804295"
    },
    {
      "id": "pt.ine.add.PTCONT.599144",
      "street": "LG PINTOR HENRIQUE MEDINA",
      "house": "5",
      "postcode": "4740-534",
      "city": "ESPOSENDE",
      "lon": "-8.765617320573336",
      "lat": "41.53962958210323"
    },
    {
      "id": "pt.ine.add.PTCONT.599982",
      "street": "R ANTA",
      "house": "20",
      "postcode": "4740-574",
      "city": "ESPOSENDE",
      "lon": "-8.78117090763103",
      "lat": "41.53948895724077"
    },
    {
      "id": "pt.ine.add.PTCONT.607962",
      "street": "R ANTA",
      "house": "112",
      "postcode": "4740-574",
      "city": "ESPOSENDE",
      "lon": "-8.768717462228736",
      "lat": "41.54415036204364"
    },
    {
      "id": "pt.ine.add.PTCONT.607973",
      "street": "R ANTA",
      "house": "104",
      "postcode": "4740-574",
      "city": "ESPOSENDE",
      "lon": "-8.76960646158365",
      "lat": "41.543146032381706"
    },
    {
      "id": "pt.ine.add.PTCONT.607980",
      "street": "R REGADIA",
      "house": "4",
      "postcode": "4740-318",
      "city": "ESPOSENDE",
      "lon": "-8.76597470649997",
      "lat": "41.54186954206293"
    },
    {
      "id": "pt.ine.add.PTCONT.610389",
      "street": "R S MIGUEL",
      "house": "138",
      "postcode": "4740-540",
      "city": "ESPOSENDE",
      "lon": "-8.767822809803812",
      "lat": "41.54335397307624"
    },
    {
      "id": "pt.ine.add.PTCONT.632265",
      "street": "R S MIGUEL",
      "house": "156",
      "postcode": "4740-540",
      "city": "ESPOSENDE",
      "lon": "-8.765776601986232",
      "lat": "41.54244687010881"
    },
    {
      "id": "pt.ine.add.PTCONT.654289",
      "street": "TV VASCO DA GAMA",
      "house": "12",
      "postcode": "4740-302",
      "city": "ESPOSENDE",
      "lon": "-8.77833338976567",
      "lat": "41.53613752149193"
    },
    {
      "id": "pt.ine.add.PTCONT.658414",
      "street": "R S MIGUEL",
      "house": "152",
      "postcode": "4740-540",
      "city": "ESPOSENDE",
      "lon": "-8.76624528337968",
      "lat": "41.54257934630694"
    },
    {
      "id": "pt.ine.add.PTCONT.659524",
      "street": "R REGADIA",
      "house": "158",
      "postcode": "4740-318",
      "city": "ESPOSENDE",
      "lon": "-8.766048363915319",
      "lat": "41.542049211024555"
    },
    {
      "id": "pt.ine.add.PTCONT.684205",
      "street": "R GALVARINHA",
      "house": "9",
      "postcode": "4740-315",
      "city": "ESPOSENDE",
      "lon": "-8.767984507161485",
      "lat": "41.54273182404772"
    },
    {
      "id": "pt.ine.add.PTCONT.685758",
      "street": "TV LARGO DO MEDINA",
      "house": "3",
      "postcode": "4740-554",
      "city": "ESPOSENDE",
      "lon": "-8.766590329862339",
      "lat": "41.53986732654451"
    },
    {
      "id": "pt.ine.add.PTCONT.685759",
      "street": "TV LARGO DO MEDINA",
      "house": "3",
      "postcode": "4740-554",
      "city": "ESPOSENDE",
      "lon": "-8.766590329862339",
      "lat": "41.53986732654451"
    },
    {
      "id": "pt.ine.add.PTCONT.686796",
      "street": "EN 13",
      "house": "6",
      "postcode": "4740-209",
      "city": "ESPOSENDE",
      "lon": "-8.7786404586175",
      "lat": "41.53568561191522"
    },
    {
      "id": "pt.ine.add.PTCONT.688457",
      "street": "TV VASCO DA GAMA",
      "house": "",
      "postcode": "4740-302",
      "city": "ESPOSENDE",
      "lon": "-8.779312485751705",
      "lat": "41.53698737746807"
    },
    {
      "id": "pt.ine.add.PTCONT.691614",
      "street": "R VASCO DA GAMA",
      "house": "110",
      "postcode": "4740-291",
      "city": "ESPOSENDE",
      "lon": "-8.77493012488722",
      "lat": "41.537345058068404"
    },
    {
      "id": "pt.ine.add.PTCONT.691615",
      "street": "R VASCO DA GAMA",
      "house": "110",
      "postcode": "4740-291",
      "city": "ESPOSENDE",
      "lon": "-8.77493012488722",
      "lat": "41.537345058068404"
    },
    {
      "id": "pt.ine.add.PTCONT.701855",
      "street": "R VASCO DA GAMA",
      "house": "67",
      "postcode": "4740-291",
      "city": "ESPOSENDE",
      "lon": "-8.777526093763935",
      "lat": "41.53569186205595"
    },
    {
      "id": "pt.ine.add.PTCONT.704643",
      "street": "R ANTA",
      "house": "21",
      "postcode": "4740-574",
      "city": "ESPOSENDE",
      "lon": "-8.777369569238557",
      "lat": "41.540446704139015"
    },
    {
      "id": "pt.ine.add.PTCONT.707932",
      "street": "R FONTE",
      "house": "9",
      "postcode": "4740-539",
      "city": "ESPOSENDE",
      "lon": "-8.764530107018215",
      "lat": "41.5412022044673"
    },
    {
      "id": "pt.ine.add.PTCONT.710949",
      "street": "R S MIGUEL",
      "house": "162",
      "postcode": "4740-540",
      "city": "ESPOSENDE",
      "lon": "-8.765679153023006",
      "lat": "41.54228533929949"
    },
    {
      "id": "pt.ine.add.PTCONT.710950",
      "street": "R S MIGUEL",
      "house": "162",
      "postcode": "4740-540",
      "city": "ESPOSENDE",
      "lon": "-8.765679153023006",
      "lat": "41.54228533929949"
    },
    {
      "id": "pt.ine.add.PTCONT.713779",
      "street": "TV VASCO DA GAMA",
      "house": "",
      "postcode": "4740-302",
      "city": "ESPOSENDE",
      "lon": "-8.779175055527805",
      "lat": "41.537627413960024"
    },
    {
      "id": "pt.ine.add.PTCONT.717043",
      "street": "LG PINTOR HENRIQUE MEDINA",
      "house": "2",
      "postcode": "4740-534",
      "city": "ESPOSENDE",
      "lon": "-8.766077860907346",
      "lat": "41.540158267590115"
    },
    {
      "id": "pt.ine.add.PTCONT.717044",
      "street": "LG PINTOR HENRIQUE MEDINA",
      "house": "2",
      "postcode": "4740-534",
      "city": "ESPOSENDE",
      "lon": "-8.766077860907346",
      "lat": "41.540158267590115"
    },
    {
      "id": "pt.ine.add.PTCONT.723035",
      "street": "R VASCO DA GAMA",
      "house": "61",
      "postcode": "4740-291",
      "city": "ESPOSENDE",
      "lon": "-8.778206228860164",
      "lat": "41.53539992945145"
    },
    {
      "id": "pt.ine.add.PTCONT.732099",
      "street": "TV VASCO DA GAMA",
      "house": "2",
      "postcode": "4740-291",
      "city": "ESPOSENDE",
      "lon": "-8.778162414326522",
      "lat": "41.535814346597554"
    },
    {
      "id": "pt.ine.add.PTCONT.734814",
      "street": "R S MIGUEL",
      "house": "154",
      "postcode": "4740-540",
      "city": "ESPOSENDE",
      "lon": "-8.766016275859023",
      "lat": "41.54244555121461"
    },
    {
      "id": "pt.ine.add.PTCONT.734815",
      "street": "R S MIGUEL",
      "house": "154",
      "postcode": "4740-540",
      "city": "ESPOSENDE",
      "lon": "-8.766016275859023",
      "lat": "41.54244555121461"
    },
    {
      "id": "pt.ine.add.PTCONT.737877",
      "street": "R S MIGUEL",
      "house": "168",
      "postcode": "4740-540",
      "city": "ESPOSENDE",
      "lon": "-8.765141115464266",
      "lat": "41.542414349820035"
    },
    {
      "id": "pt.ine.add.PTCONT.752238",
      "street": "R VASCO DA GAMA",
      "house": "89",
      "postcode": "4740-291",
      "city": "ESPOSENDE",
      "lon": "-8.776346970362166",
      "lat": "41.53641876165091"
    },
    {
      "id": "pt.ine.add.PTCONT.755924",
      "street": "R S MIGUEL",
      "house": "140",
      "postcode": "4740-540",
      "city": "ESPOSENDE",
      "lon": "-8.767605516105741",
      "lat": "41.543193105372126"
    },
    {
      "id": "pt.ine.add.PTCONT.760088",
      "street": "R FONTE",
      "house": "15",
      "postcode": "4740-539",
      "city": "ESPOSENDE",
      "lon": "-8.764796547097049",
      "lat": "41.54148886016455"
    },
    {
      "id": "pt.ine.add.PTCONT.760089",
      "street": "R FONTE",
      "house": "15",
      "postcode": "4740-539",
      "city": "ESPOSENDE",
      "lon": "-8.764796547097049",
      "lat": "41.54148886016455"
    },
    {
      "id": "pt.ine.add.PTCONT.765983",
      "street": "R VASCO DA GAMA",
      "house": "75",
      "postcode": "4740-291",
      "city": "ESPOSENDE",
      "lon": "-8.77709767379432",
      "lat": "41.53599138499347"
    },
    {
      "id": "pt.ine.add.PTCONT.770568",
      "street": "TV VASCO DA GAMA",
      "house": "8",
      "postcode": "4740-302",
      "city": "ESPOSENDE",
      "lon": "-8.778285280817611",
      "lat": "41.536119783966804"
    },
    {
      "id": "pt.ine.add.PTCONT.776632",
      "street": "R ANTA",
      "house": "21",
      "postcode": "4740-574",
      "city": "ESPOSENDE",
      "lon": "-8.777705012151387",
      "lat": "41.54043582057758"
    },
    {
      "id": "pt.ine.add.PTCONT.779815",
      "street": "TV VASCO DA GAMA",
      "house": "6",
      "postcode": "4740-302",
      "city": "ESPOSENDE",
      "lon": "-8.778188973539452",
      "lat": "41.536075305632664"
    },
    {
      "id": "pt.ine.add.PTCONT.788319",
      "street": "TV VASCO DA GAMA",
      "house": "",
      "postcode": "4740-302",
      "city": "ESPOSENDE",
      "lon": "-8.779623708313387",
      "lat": "41.53815611201163"
    },
    {
      "id": "pt.ine.add.PTCONT.796811",
      "street": "TV LARGO DO MEDINA",
      "house": "5",
      "postcode": "4740-554",
      "city": "ESPOSENDE",
      "lon": "-8.766711831750092",
      "lat": "41.54003772784507"
    },
    {
      "id": "pt.ine.add.PTCONT.800868",
      "street": "R S MIGUEL",
      "house": "136",
      "postcode": "4740-540",
      "city": "ESPOSENDE",
      "lon": "-8.767944145427302",
      "lat": "41.543506366444404"
    },
    {
      "id": "pt.ine.add.PTCONT.814411",
      "street": "R S MIGUEL",
      "house": "148",
      "postcode": "4740-540",
      "city": "ESPOSENDE",
      "lon": "-8.766833716165706",
      "lat": "41.54270215698107"
    },
    {
      "id": "pt.ine.add.PTCONT.817675",
      "street": "LG PINTOR HENRIQUE MEDINA",
      "house": "1",
      "postcode": "4740-534",
      "city": "ESPOSENDE",
      "lon": "-8.766104065348403",
      "lat": "41.53915871024586"
    },
    {
      "id": "pt.ine.add.PTCONT.817690",
      "street": "LG PINTOR HENRIQUE MEDINA",
      "house": "1",
      "postcode": "4740-534",
      "city": "ESPOSENDE",
      "lon": "-8.766104065348403",
      "lat": "41.53915871024586"
    },
    {
      "id": "pt.ine.add.PTCONT.825832",
      "street": "R S MIGUEL",
      "house": "166",
      "postcode": "4740-540",
      "city": "ESPOSENDE",
      "lon": "-8.765428460870247",
      "lat": "41.54238575897176"
    },
    {
      "id": "pt.ine.add.PTCONT.825833",
      "street": "R S MIGUEL",
      "house": "166",
      "postcode": "4740-540",
      "city": "ESPOSENDE",
      "lon": "-8.765428460870247",
      "lat": "41.54238575897176"
    },
    {
      "id": "pt.ine.add.PTCONT.830444",
      "street": "R VASCO DA GAMA",
      "house": "65",
      "postcode": "4740-291",
      "city": "ESPOSENDE",
      "lon": "-8.777896565151275",
      "lat": "41.53559074441185"
    },
    {
      "id": "pt.ine.add.PTCONT.832235",
      "street": "LG PINTOR HENRIQUE MEDINA",
      "house": "3",
      "postcode": "4740-534",
      "city": "ESPOSENDE",
      "lon": "-8.765796278409915",
      "lat": "41.539547564131766"
    },
    {
      "id": "pt.ine.add.PTCONT.832236",
      "street": "LG PINTOR HENRIQUE MEDINA",
      "house": "3",
      "postcode": "4740-534",
      "city": "ESPOSENDE",
      "lon": "-8.765796278409915",
      "lat": "41.539547564131766"
    },
    {
      "id": "pt.ine.add.PTCONT.840830",
      "street": "R ANTA",
      "house": "106",
      "postcode": "4740-574",
      "city": "ESPOSENDE",
      "lon": "-8.769166236754701",
      "lat": "41.54347260200164"
    },
    {
      "id": "pt.ine.add.PTCONT.842411",
      "street": "TV VASCO DA GAMA",
      "house": "17",
      "postcode": "4740-302",
      "city": "ESPOSENDE",
      "lon": "-8.77816688716701",
      "lat": "41.536264507740526"
    },
    {
      "id": "pt.ine.add.PTCONT.844206",
      "street": "TV ANTA",
      "house": "2",
      "postcode": "4740-574",
      "city": "ESPOSENDE",
      "lon": "-8.76924818253287",
      "lat": "41.54327406696881"
    },
    {
      "id": "pt.ine.add.PTCONT.848144",
      "street": "TV VASCO DA GAMA",
      "house": "A",
      "postcode": "4740-302",
      "city": "ESPOSENDE",
      "lon": "-8.779017398297292",
      "lat": "41.53743922144318"
    }
  ]
}