{
  "data": {
    "distrito": "Santarém",
    "concelho": "Santarém",
    "freguesia": "União das freguesias da cidade de Santarém",
    "OBJECTID": 512,
    "BGRI2021": "14163302516",
    "DT21": "14",
    "DTMN21": "1416",
    "DTMNFR21": "141633",
    "DTMNFRSEC21": "141633025",
    "SECNUM21": "025",
    "SSNUM21": "16",
    "SECSSNUM21": "02516",
    "OBJECTID_1": 153838,
    "DT": "14",
    "CC": "16",
    "fr": "33",
    "SEC": "025",
    "SS": "16"
  },
  "addresses": [
    {
      "id": "pt.ine.add.PTCONT.4394339",
      "street": "R PEDRO CANAVARRO",
      "house": "26",
      "postcode": "2000-030",
      "city": "SANTARÉM",
      "lon": "-8.685307926225953",
      "lat": "39.235853978322844"
    },
    {
      "id": "pt.ine.add.PTCONT.4408043",
      "street": "R PEDRO CANAVARRO",
      "house": "03",
      "postcode": "2000-030",
      "city": "SANTARÉM",
      "lon": "-8.684937801360146",
      "lat": "39.23591878356888"
    },
    {
      "id": "pt.ine.add.PTCONT.4425281",
      "street": "R ENG AGRONOMO ANTÓNIO ANTUNES JUNIOR",
      "house": "14",
      "postcode": "2000-040",
      "city": "SANTARÉM",
      "lon": "-8.685075442598404",
      "lat": "39.235746992633146"
    },
    {
      "id": "pt.ine.add.PTCONT.4425324",
      "street": "R ENG AGRONOMO ANTÓNIO ANTUNES JUNIOR",
      "house": "14",
      "postcode": "2000-040",
      "city": "SANTARÉM",
      "lon": "-8.685075442598404",
      "lat": "39.235746992633146"
    },
    {
      "id": "pt.ine.add.PTCONT.4427359",
      "street": "R PEDRO CANAVARRO",
      "house": "43",
      "postcode": "2000-030",
      "city": "SANTARÉM",
      "lon": "-8.685620353207943",
      "lat": "39.235816467516635"
    },
    {
      "id": "pt.ine.add.PTCONT.4444426",
      "street": "R REITOR PEDRO CALMON",
      "house": "6",
      "postcode": "2000-031",
      "city": "SANTARÉM",
      "lon": "-8.686046618500542",
      "lat": "39.23552621103802"
    },
    {
      "id": "pt.ine.add.PTCONT.4444427",
      "street": "R REITOR PEDRO CALMON",
      "house": "6",
      "postcode": "2000-031",
      "city": "SANTARÉM",
      "lon": "-8.686046618500542",
      "lat": "39.23552621103802"
    },
    {
      "id": "pt.ine.add.PTCONT.4444428",
      "street": "R REITOR PEDRO CALMON",
      "house": "6",
      "postcode": "2000-031",
      "city": "SANTARÉM",
      "lon": "-8.686046618500542",
      "lat": "39.23552621103802"
    },
    {
      "id": "pt.ine.add.PTCONT.4444429",
      "street": "R REITOR PEDRO CALMON",
      "house": "6",
      "postcode": "2000-031",
      "city": "SANTARÉM",
      "lon": "-8.686046618500542",
      "lat": "39.23552621103802"
    },
    {
      "id": "pt.ine.add.PTCONT.4444430",
      "street": "R REITOR PEDRO CALMON",
      "house": "6",
      "postcode": "2000-031",
      "city": "SANTARÉM",
      "lon": "-8.686046618500542",
      "lat": "39.23552621103802"
    },
    {
      "id": "pt.ine.add.PTCONT.4444431",
      "street": "R REITOR PEDRO CALMON",
      "house": "6",
      "postcode": "2000-031",
      "city": "SANTARÉM",
      "lon": "-8.686046618500542",
      "lat": "39.23552621103802"
    },
    {
      "id": "pt.ine.add.PTCONT.4444432",
      "street": "R REITOR PEDRO CALMON",
      "house": "6",
      "postcode": "2000-031",
      "city": "SANTARÉM",
      "lon": "-8.686046618500542",
      "lat": "39.23552621103802"
    },
    {
      "id": "pt.ine.add.PTCONT.4465233",
      "street": "R PEDRO CANAVARRO",
      "house": "35",
      "postcode": "2000-030",
      "city": "SANTARÉM",
      "lon": "-8.685446767010758",
      "lat": "39.23583530540822"
    },
    {
      "id": "pt.ine.add.PTCONT.4466766",
      "street": "R PEDRO CANAVARRO",
      "house": "51",
      "postcode": "2000-030",
      "city": "SANTARÉM",
      "lon": "-8.685979107137147",
      "lat": "39.23577873598499"
    },
    {
      "id": "pt.ine.add.PTCONT.4481022",
      "street": "R PEDRO CANAVARRO",
      "house": "49",
      "postcode": "2000-030",
      "city": "SANTARÉM",
      "lon": "-8.68581703229103",
      "lat": "39.23578851248481"
    },
    {
      "id": "pt.ine.add.PTCONT.4492489",
      "street": "R ENG AGRONOMO ANTÓNIO ANTUNES JUNIOR",
      "house": "11",
      "postcode": "2000-040",
      "city": "SANTARÉM",
      "lon": "-8.685132857617301",
      "lat": "39.23568366941623"
    },
    {
      "id": "pt.ine.add.PTCONT.4572332",
      "street": "R CAPELO E IVENS",
      "house": "73",
      "postcode": "2000-039",
      "city": "SANTARÉM",
      "lon": "-8.68482163017046",
      "lat": "39.23587429738148"
    },
    {
      "id": "pt.ine.add.PTCONT.4578340",
      "street": "R PEDRO CANAVARRO",
      "house": "09",
      "postcode": "2000-030",
      "city": "SANTARÉM",
      "lon": "-8.685030314999304",
      "lat": "39.23590033062518"
    },
    {
      "id": "pt.ine.add.PTCONT.4596334",
      "street": "R REITOR PEDRO CALMON",
      "house": "10",
      "postcode": "2000-031",
      "city": "SANTARÉM",
      "lon": "-8.686094218307588",
      "lat": "39.23568811651184"
    },
    {
      "id": "pt.ine.add.PTCONT.4662155",
      "street": "R PEDRO CANAVARRO",
      "house": "13",
      "postcode": "2000-030",
      "city": "SANTARÉM",
      "lon": "-8.685157574111958",
      "lat": "39.235881712934166"
    },
    {
      "id": "pt.ine.add.PTCONT.4662524",
      "street": "R REITOR PEDRO CALMON",
      "house": "6",
      "postcode": "2000-031",
      "city": "SANTARÉM",
      "lon": "-8.686046618500542",
      "lat": "39.23552621103802"
    }
  ]
}