{
  "data": {
    "distrito": "Santarém",
    "concelho": "Santarém",
    "freguesia": "União das freguesias da cidade de Santarém",
    "OBJECTID": 157,
    "BGRI2021": "14163302519",
    "DT21": "14",
    "DTMN21": "1416",
    "DTMNFR21": "141633",
    "DTMNFRSEC21": "141633025",
    "SECNUM21": "025",
    "SSNUM21": "19",
    "SECSSNUM21": "02519",
    "OBJECTID_1": 153822,
    "DT": "14",
    "CC": "16",
    "fr": "33",
    "SEC": "025",
    "SS": "19"
  },
  "addresses": [
    {
      "id": "pt.ine.add.PTCONT.4400627",
      "street": "ESCNH FIGUEIRAS",
      "house": "2",
      "postcode": "2005-136",
      "city": "SANTARÉM",
      "lon": "-8.68473474479866",
      "lat": "39.23809050495972"
    },
    {
      "id": "pt.ine.add.PTCONT.4404624",
      "street": "BC FELEIJO",
      "house": "29",
      "postcode": "2000-045",
      "city": "SANTARÉM",
      "lon": "-8.684204173243515",
      "lat": "39.236895045594345"
    },
    {
      "id": "pt.ine.add.PTCONT.4404625",
      "street": "BC FELEIJO",
      "house": "29",
      "postcode": "2000-045",
      "city": "SANTARÉM",
      "lon": "-8.684204173243515",
      "lat": "39.236895045594345"
    },
    {
      "id": "pt.ine.add.PTCONT.4404626",
      "street": "BC FELEIJO",
      "house": "29",
      "postcode": "2000-045",
      "city": "SANTARÉM",
      "lon": "-8.684204173243515",
      "lat": "39.236895045594345"
    },
    {
      "id": "pt.ine.add.PTCONT.4404627",
      "street": "BC FELEIJO",
      "house": "29",
      "postcode": "2000-045",
      "city": "SANTARÉM",
      "lon": "-8.684204173243515",
      "lat": "39.236895045594345"
    },
    {
      "id": "pt.ine.add.PTCONT.4405514",
      "street": "LG NSA SRA DA PIEDADE",
      "house": "7",
      "postcode": "2005-197",
      "city": "SANTARÉM",
      "lon": "-8.685011094541915",
      "lat": "39.23788202794504"
    },
    {
      "id": "pt.ine.add.PTCONT.4415537",
      "street": "BC FELEIJO",
      "house": "3",
      "postcode": "2000-045",
      "city": "SANTARÉM",
      "lon": "-8.684365898449284",
      "lat": "39.2368402364822"
    },
    {
      "id": "pt.ine.add.PTCONT.4423204",
      "street": "R 31 DE JANEIRO",
      "house": "14",
      "postcode": "2005-188",
      "city": "SANTARÉM",
      "lon": "-8.685060105205919",
      "lat": "39.23822407307695"
    },
    {
      "id": "pt.ine.add.PTCONT.4423205",
      "street": "R 31 DE JANEIRO",
      "house": "14",
      "postcode": "2005-188",
      "city": "SANTARÉM",
      "lon": "-8.685060105205919",
      "lat": "39.23822407307695"
    },
    {
      "id": "pt.ine.add.PTCONT.4423206",
      "street": "R DR JOAQUIM LUIS MARTINS",
      "house": "4",
      "postcode": "2000-141",
      "city": "SANTARÉM",
      "lon": "-8.684507279623961",
      "lat": "39.23714581550279"
    },
    {
      "id": "pt.ine.add.PTCONT.4427463",
      "street": "R DR JOAQUIM LUIS MARTINS",
      "house": "35",
      "postcode": "2000-141",
      "city": "SANTARÉM",
      "lon": "-8.684196255450145",
      "lat": "39.23736346270856"
    },
    {
      "id": "pt.ine.add.PTCONT.4457939",
      "street": "BC FELEIJO",
      "house": "21",
      "postcode": "2000-045",
      "city": "SANTARÉM",
      "lon": "-8.684136160800668",
      "lat": "39.2370845206966"
    },
    {
      "id": "pt.ine.add.PTCONT.4458051",
      "street": "R DR JOAQUIM LUIS MARTINS",
      "house": "6",
      "postcode": "2000-141",
      "city": "SANTARÉM",
      "lon": "-8.684438210305178",
      "lat": "39.237200186264566"
    },
    {
      "id": "pt.ine.add.PTCONT.4458052",
      "street": "R DR JOAQUIM LUIS MARTINS",
      "house": "6",
      "postcode": "2000-141",
      "city": "SANTARÉM",
      "lon": "-8.684438210305178",
      "lat": "39.237200186264566"
    },
    {
      "id": "pt.ine.add.PTCONT.4458053",
      "street": "R DR JOAQUIM LUIS MARTINS",
      "house": "6",
      "postcode": "2000-141",
      "city": "SANTARÉM",
      "lon": "-8.684438210305178",
      "lat": "39.237200186264566"
    },
    {
      "id": "pt.ine.add.PTCONT.4458982",
      "street": "R DR JOAQUIM LUIS MARTINS",
      "house": "6",
      "postcode": "2000-141",
      "city": "SANTARÉM",
      "lon": "-8.684438210305178",
      "lat": "39.237200186264566"
    },
    {
      "id": "pt.ine.add.PTCONT.4462503",
      "street": "LG PADRE FRANCISCO NUNES DA SILVA",
      "house": "1 A",
      "postcode": "2000-134",
      "city": "SANTARÉM",
      "lon": "-8.684272537699263",
      "lat": "39.23675060528937"
    },
    {
      "id": "pt.ine.add.PTCONT.4466348",
      "street": "TV FIGUEIRAS",
      "house": "",
      "postcode": "2000-143",
      "city": "SANTARÉM",
      "lon": "-8.684103880577064",
      "lat": "39.23739992893504"
    },
    {
      "id": "pt.ine.add.PTCONT.4492581",
      "street": "BC FELEIJO",
      "house": "11",
      "postcode": "2000-045",
      "city": "SANTARÉM",
      "lon": "-8.684274722431098",
      "lat": "39.23702982129279"
    },
    {
      "id": "pt.ine.add.PTCONT.4496236",
      "street": "R DR JOAQUIM LUIS MARTINS",
      "house": "17",
      "postcode": "2000-141",
      "city": "SANTARÉM",
      "lon": "-8.684612011706738",
      "lat": "39.237208370755184"
    },
    {
      "id": "pt.ine.add.PTCONT.4498267",
      "street": "R DR JOAQUIM LUIS MARTINS",
      "house": "",
      "postcode": "2000-141",
      "city": "SANTARÉM",
      "lon": "-8.684497389685196",
      "lat": "39.23736203753898"
    },
    {
      "id": "pt.ine.add.PTCONT.4506739",
      "street": "LG NSA SRA DA PIEDADE",
      "house": "18",
      "postcode": "2005-197",
      "city": "SANTARÉM",
      "lon": "-8.684951066767526",
      "lat": "39.237612093370196"
    },
    {
      "id": "pt.ine.add.PTCONT.4517177",
      "street": "R SERPA PINTO",
      "house": "124",
      "postcode": "2000-046",
      "city": "SANTARÉM",
      "lon": "-8.684505164466092",
      "lat": "39.23687560648343"
    },
    {
      "id": "pt.ine.add.PTCONT.4540798",
      "street": "R DR JOAQUIM LUIS MARTINS",
      "house": "21",
      "postcode": "2000-141",
      "city": "SANTARÉM",
      "lon": "-8.68447366149862",
      "lat": "39.237290091460046"
    },
    {
      "id": "pt.ine.add.PTCONT.4540799",
      "street": "R DR JOAQUIM LUIS MARTINS",
      "house": "21",
      "postcode": "2000-141",
      "city": "SANTARÉM",
      "lon": "-8.68447366149862",
      "lat": "39.237290091460046"
    },
    {
      "id": "pt.ine.add.PTCONT.4540800",
      "street": "R DR JOAQUIM LUIS MARTINS",
      "house": "21",
      "postcode": "2000-141",
      "city": "SANTARÉM",
      "lon": "-8.68447366149862",
      "lat": "39.237290091460046"
    },
    {
      "id": "pt.ine.add.PTCONT.4549217",
      "street": "TV FIGUEIRAS",
      "house": "3",
      "postcode": "2000-143",
      "city": "SANTARÉM",
      "lon": "-8.684046604141699",
      "lat": "39.23748126557722"
    },
    {
      "id": "pt.ine.add.PTCONT.4549218",
      "street": "TV FIGUEIRAS",
      "house": "3",
      "postcode": "2000-143",
      "city": "SANTARÉM",
      "lon": "-8.684046604141699",
      "lat": "39.23748126557722"
    },
    {
      "id": "pt.ine.add.PTCONT.4557724",
      "street": "R 31 DE JANEIRO",
      "house": "16",
      "postcode": "2005-188",
      "city": "SANTARÉM",
      "lon": "-8.684991246981658",
      "lat": "39.238305465054786"
    },
    {
      "id": "pt.ine.add.PTCONT.4557725",
      "street": "R 31 DE JANEIRO",
      "house": "16",
      "postcode": "2005-188",
      "city": "SANTARÉM",
      "lon": "-8.684991246981658",
      "lat": "39.238305465054786"
    },
    {
      "id": "pt.ine.add.PTCONT.4586927",
      "street": "PC SA DA BANDEIRA",
      "house": "6",
      "postcode": "2000-135",
      "city": "SANTARÉM",
      "lon": "-8.685040830203983",
      "lat": "39.23724236873662"
    }
  ]
}