{
  "data": {
    "distrito": "Coimbra",
    "concelho": "Pampilhosa da Serra",
    "freguesia": "Fajão-Vidual",
    "OBJECTID": 139,
    "BGRI2021": "06121100122",
    "DT21": "06",
    "DTMN21": "0612",
    "DTMNFR21": "061211",
    "DTMNFRSEC21": "061211001",
    "SECNUM21": "001",
    "SSNUM21": "22",
    "SECSSNUM21": "00122",
    "OBJECTID_1": 55486,
    "DT": "06",
    "CC": "12",
    "fr": "11",
    "SEC": "001",
    "SS": "22"
  },
  "addresses": [
    {
      "id": "pt.ine.add.PTCONT.1109603",
      "street": "R QUELHA",
      "house": "",
      "postcode": "3320-080",
      "city": "FAJÃO",
      "lon": "-7.922878369444546",
      "lat": "40.15004184021006"
    },
    {
      "id": "pt.ine.add.PTCONT.1113515",
      "street": "R ANTÓNIO TOME",
      "house": "",
      "postcode": "3320-080",
      "city": "FAJÃO",
      "lon": "-7.922962076373843",
      "lat": "40.14953765866443"
    },
    {
      "id": "pt.ine.add.PTCONT.1113516",
      "street": "R ANTÓNIO TOME",
      "house": "",
      "postcode": "3320-080",
      "city": "FAJÃO",
      "lon": "-7.922962076373843",
      "lat": "40.14953765866443"
    },
    {
      "id": "pt.ine.add.PTCONT.1119829",
      "street": "ANTÓNIO MOREIRA",
      "house": "",
      "postcode": "3320-080",
      "city": "FAJÃO",
      "lon": "-7.92280892502493",
      "lat": "40.14972650568986"
    },
    {
      "id": "pt.ine.add.PTCONT.1132430",
      "street": "ESTR NSA SRA DA GUIA",
      "house": "",
      "postcode": "3320-080",
      "city": "FAJÃO",
      "lon": "-7.920390851903375",
      "lat": "40.14986618425844"
    },
    {
      "id": "pt.ine.add.PTCONT.1132432",
      "street": "R JOSE MARIA ALMEIDA",
      "house": "",
      "postcode": "3320-080",
      "city": "FAJÃO",
      "lon": "-7.922914327280098",
      "lat": "40.14979874470396"
    },
    {
      "id": "pt.ine.add.PTCONT.1137385",
      "street": "R CESAR VICENTE DA SILVA",
      "house": "",
      "postcode": "3320-080",
      "city": "FAJÃO",
      "lon": "-7.921895383083286",
      "lat": "40.149121443980285"
    },
    {
      "id": "pt.ine.add.PTCONT.1148417",
      "street": "R JOSE MARIA SIMAO",
      "house": "",
      "postcode": "3320-080",
      "city": "FAJÃO",
      "lon": "-7.923209225548477",
      "lat": "40.14931295802857"
    },
    {
      "id": "pt.ine.add.PTCONT.1184015",
      "street": "JULIO ANTUNES",
      "house": "",
      "postcode": "3320-080",
      "city": "FAJÃO",
      "lon": "-7.92301989624274",
      "lat": "40.14981694819373"
    },
    {
      "id": "pt.ine.add.PTCONT.1184016",
      "street": "JULIO ANTUNES",
      "house": "",
      "postcode": "3320-080",
      "city": "FAJÃO",
      "lon": "-7.92301989624274",
      "lat": "40.14981694819373"
    },
    {
      "id": "pt.ine.add.PTCONT.1192747",
      "street": "PRECIOSA MOTA",
      "house": "",
      "postcode": "3320-080",
      "city": "FAJÃO",
      "lon": "-7.922785064052719",
      "lat": "40.14985254572464"
    },
    {
      "id": "pt.ine.add.PTCONT.1205064",
      "street": "PC DR JOSÉ MARIA CARDOSO",
      "house": "",
      "postcode": "3320-080",
      "city": "FAJÃO",
      "lon": "-7.923103185804978",
      "lat": "40.14944785510455"
    },
    {
      "id": "pt.ine.add.PTCONT.1214744",
      "street": "BC LOUREIRO",
      "house": "",
      "postcode": "3320-080",
      "city": "FAJÃO",
      "lon": "-7.9231371458556366",
      "lat": "40.14985318467803"
    },
    {
      "id": "pt.ine.add.PTCONT.1216265",
      "street": "R LIGA PRO MELHORAMENTOS FREGUESIA FAJAO",
      "house": "",
      "postcode": "3320-080",
      "city": "FAJÃO",
      "lon": "-7.923115226873065",
      "lat": "40.14934881142812"
    },
    {
      "id": "pt.ine.add.PTCONT.1234887",
      "street": "R RICARDO MOREIRA",
      "house": "",
      "postcode": "3320-080",
      "city": "FAJÃO",
      "lon": "-7.923301589251473",
      "lat": "40.149808452965615"
    },
    {
      "id": "pt.ine.add.PTCONT.1237081",
      "street": "ESTR NSA SRA DA GUIA",
      "house": "",
      "postcode": "3320-080",
      "city": "FAJÃO",
      "lon": "-7.920097478529598",
      "lat": "40.14985663901016"
    },
    {
      "id": "pt.ine.add.PTCONT.1245064",
      "street": "R CESAR VICENTE DA SILVA",
      "house": "",
      "postcode": "3320-080",
      "city": "FAJÃO",
      "lon": "-7.922446971967347",
      "lat": "40.14912244875495"
    },
    {
      "id": "pt.ine.add.PTCONT.1252888",
      "street": "MARIA DE FÁTIMA SILVA ANTUNES",
      "house": "",
      "postcode": "3320-080",
      "city": "FAJÃO",
      "lon": "-7.923396114717208",
      "lat": "40.1496014872213"
    },
    {
      "id": "pt.ine.add.PTCONT.1252889",
      "street": "MARIA DE FÁTIMA SILVA ANTUNES",
      "house": "",
      "postcode": "3320-080",
      "city": "FAJÃO",
      "lon": "-7.923396114717208",
      "lat": "40.1496014872213"
    },
    {
      "id": "pt.ine.add.PTCONT.1252890",
      "street": "LG BARROQUINHO",
      "house": "",
      "postcode": "3320-080",
      "city": "FAJÃO",
      "lon": "-7.923101743518988",
      "lat": "40.149916162163514"
    },
    {
      "id": "pt.ine.add.PTCONT.1257908",
      "street": "ESTR NSA SRA DA GUIA",
      "house": "",
      "postcode": "3320-080",
      "city": "FAJÃO",
      "lon": "-7.92028238833344",
      "lat": "40.15077558631653"
    },
    {
      "id": "pt.ine.add.PTCONT.1280236",
      "street": "R LIGA PRO MELHORAMENTOS FREGUESIA FAJAO",
      "house": "",
      "postcode": "3320-080",
      "city": "FAJÃO",
      "lon": "-7.922962492692472",
      "lat": "40.14940257008598"
    },
    {
      "id": "pt.ine.add.PTCONT.1282191",
      "street": "R GERMANO AUGUSTO RAMOS",
      "house": "",
      "postcode": "3320-080",
      "city": "FAJÃO",
      "lon": "-7.923360574240203",
      "lat": "40.14970949431523"
    },
    {
      "id": "pt.ine.add.PTCONT.1286339",
      "street": "PC JOSE MARIA CARDOSO",
      "house": "",
      "postcode": "3320-080",
      "city": "FAJÃO",
      "lon": "-7.923161671659961",
      "lat": "40.149511002846346"
    },
    {
      "id": "pt.ine.add.PTCONT.1286342",
      "street": "LG BARROQUINHO",
      "house": "",
      "postcode": "3320-080",
      "city": "FAJÃO",
      "lon": "-7.923031382584391",
      "lat": "40.14989802262759"
    },
    {
      "id": "pt.ine.add.PTCONT.1294585",
      "street": "LG MUSEU",
      "house": "",
      "postcode": "3320-080",
      "city": "FAJÃO",
      "lon": "-7.923466696948809",
      "lat": "40.14954757929324"
    },
    {
      "id": "pt.ine.add.PTCONT.1294590",
      "street": "R JOSE MARIA ALMEIDA",
      "house": "",
      "postcode": "3320-080",
      "city": "FAJÃO",
      "lon": "-7.922972813259311",
      "lat": "40.14986189253764"
    },
    {
      "id": "pt.ine.add.PTCONT.1300835",
      "street": "R CESAR VICENTE DA SILVA",
      "house": "",
      "postcode": "3320-080",
      "city": "FAJÃO",
      "lon": "-7.921344213745373",
      "lat": "40.14898534800411"
    },
    {
      "id": "pt.ine.add.PTCONT.1309792",
      "street": "R GERMANO AUGUSTO RAMOS",
      "house": "",
      "postcode": "3320-080",
      "city": "FAJÃO",
      "lon": "-7.923137755953456",
      "lat": "40.14965505477051"
    },
    {
      "id": "pt.ine.add.PTCONT.1322881",
      "street": "BC LOUREIRO",
      "house": "",
      "postcode": "3320-080",
      "city": "FAJÃO",
      "lon": "-7.92312565939551",
      "lat": "40.149772110253714"
    },
    {
      "id": "pt.ine.add.PTCONT.1328700",
      "street": "ESTR NSA SRA DA GUIA",
      "house": "",
      "postcode": "3320-080",
      "city": "FAJÃO",
      "lon": "-7.920391301415086",
      "lat": "40.149722089806794"
    },
    {
      "id": "pt.ine.add.PTCONT.1353377",
      "street": "R QUELHA",
      "house": "",
      "postcode": "3320-080",
      "city": "FAJÃO",
      "lon": "-7.922619786205548",
      "lat": "40.15016745382669"
    },
    {
      "id": "pt.ine.add.PTCONT.1359587",
      "street": "R GERMANO AUGUSTO RAMOS",
      "house": "",
      "postcode": "3320-080",
      "city": "FAJÃO",
      "lon": "-7.923220074461219",
      "lat": "40.14960116827379"
    },
    {
      "id": "pt.ine.add.PTCONT.1362808",
      "street": "ESTR NSA SRA DA GUIA",
      "house": "",
      "postcode": "3320-080",
      "city": "FAJÃO",
      "lon": "-7.920391301415086",
      "lat": "40.149722089806794"
    }
  ]
}