{
  "data": {
    "distrito": "Coimbra",
    "concelho": "Pampilhosa da Serra",
    "freguesia": "Fajão-Vidual",
    "OBJECTID": 165,
    "BGRI2021": "06121100137",
    "DT21": "06",
    "DTMN21": "0612",
    "DTMNFR21": "061211",
    "DTMNFRSEC21": "061211001",
    "SECNUM21": "001",
    "SSNUM21": "37",
    "SECSSNUM21": "00137",
    "OBJECTID_1": 55386,
    "DT": "06",
    "CC": "12",
    "fr": "11",
    "SEC": "001",
    "SS": "37"
  },
  "addresses": [
    {
      "id": "pt.ine.add.PTCONT.1134503",
      "street": "R PRINCIPAL",
      "house": "",
      "postcode": "3320-072",
      "city": "FAJÃO",
      "lon": "-7.860665701727224",
      "lat": "40.176299547766476"
    },
    {
      "id": "pt.ine.add.PTCONT.1137384",
      "street": "",
      "house": "",
      "postcode": "3320-072",
      "city": "FAJÃO",
      "lon": "-7.859793108506201",
      "lat": "40.17431619134684"
    },
    {
      "id": "pt.ine.add.PTCONT.1142404",
      "street": "R BAIXO",
      "house": "",
      "postcode": "3320-072",
      "city": "FAJÃO",
      "lon": "-7.860525463622796",
      "lat": "40.17613711135935"
    },
    {
      "id": "pt.ine.add.PTCONT.1144055",
      "street": "LG RECINTO DE FESTAS",
      "house": "",
      "postcode": "3320-072",
      "city": "FAJÃO",
      "lon": "-7.860513939307002",
      "lat": "40.17608304878429"
    },
    {
      "id": "pt.ine.add.PTCONT.1144056",
      "street": "LG RECINTO DE FESTAS",
      "house": "",
      "postcode": "3320-072",
      "city": "FAJÃO",
      "lon": "-7.860513939307002",
      "lat": "40.17608304878429"
    },
    {
      "id": "pt.ine.add.PTCONT.1176515",
      "street": "R PRINCIPAL",
      "house": "",
      "postcode": "3320-072",
      "city": "FAJÃO",
      "lon": "-7.860760274284232",
      "lat": "40.176137663944424"
    },
    {
      "id": "pt.ine.add.PTCONT.1190821",
      "street": "JOSE PEREIRA",
      "house": "",
      "postcode": "3320-072",
      "city": "FAJÃO",
      "lon": "-7.86044771337205",
      "lat": "40.1750292016144"
    },
    {
      "id": "pt.ine.add.PTCONT.1200611",
      "street": "ESCNH CAPELA",
      "house": "",
      "postcode": "3320-072",
      "city": "FAJÃO",
      "lon": "-7.860064911761623",
      "lat": "40.1768024632266"
    },
    {
      "id": "pt.ine.add.PTCONT.1220835",
      "street": "R PRINCIPAL",
      "house": "",
      "postcode": "3320-072",
      "city": "FAJÃO",
      "lon": "-7.860701211503443",
      "lat": "40.17622758406526"
    },
    {
      "id": "pt.ine.add.PTCONT.1267924",
      "street": "R GIMNODESPORTIVO",
      "house": "",
      "postcode": "3320-072",
      "city": "FAJÃO",
      "lon": "-7.859142109024994",
      "lat": "40.17562951540785"
    },
    {
      "id": "pt.ine.add.PTCONT.1277999",
      "street": "",
      "house": "",
      "postcode": "3320-072",
      "city": "FAJÃO",
      "lon": "-7.860702687963898",
      "lat": "40.17585834534425"
    },
    {
      "id": "pt.ine.add.PTCONT.1282156",
      "street": "R BAIXO",
      "house": "",
      "postcode": "3320-072",
      "city": "FAJÃO",
      "lon": "-7.860501730292113",
      "lat": "40.176200096829476"
    },
    {
      "id": "pt.ine.add.PTCONT.1296654",
      "street": "",
      "house": "",
      "postcode": "3320-072",
      "city": "FAJÃO",
      "lon": "-7.860489557273803",
      "lat": "40.176308139049"
    },
    {
      "id": "pt.ine.add.PTCONT.1320449",
      "street": "R GIMNODESPORTIVO",
      "house": "",
      "postcode": "3320-072",
      "city": "FAJÃO",
      "lon": "-7.859094857463387",
      "lat": "40.17570145084849"
    },
    {
      "id": "pt.ine.add.PTCONT.1335484",
      "street": "LG RECINTO DE FESTAS",
      "house": "",
      "postcode": "3320-072",
      "city": "FAJÃO",
      "lon": "-7.860631596687537",
      "lat": "40.176020284390944"
    },
    {
      "id": "pt.ine.add.PTCONT.1349151",
      "street": "LUIS PEREIRA",
      "house": "",
      "postcode": "3320-072",
      "city": "FAJÃO",
      "lon": "-7.860609052270081",
      "lat": "40.17578607774001"
    },
    {
      "id": "pt.ine.add.PTCONT.1357667",
      "street": "",
      "house": "",
      "postcode": "3320-072",
      "city": "FAJÃO",
      "lon": "-7.859983413267474",
      "lat": "40.176631158783174"
    },
    {
      "id": "pt.ine.add.PTCONT.1357668",
      "street": "LG RECINTO DE FESTAS",
      "house": "",
      "postcode": "3320-072",
      "city": "FAJÃO",
      "lon": "-7.860561766115046",
      "lat": "40.175867019604816"
    },
    {
      "id": "pt.ine.add.PTCONT.1357669",
      "street": "LG RECINTO DE FESTAS",
      "house": "",
      "postcode": "3320-072",
      "city": "FAJÃO",
      "lon": "-7.860561766115046",
      "lat": "40.175867019604816"
    }
  ]
}