{
  "data": {
    "distrito": "Viseu",
    "concelho": "Moimenta da Beira",
    "freguesia": "União das freguesias de Pêra Velha, Aldeia de Nacomba e Ariz",
    "OBJECTID": 465,
    "BGRI2021": "18072200108",
    "DT21": "18",
    "DTMN21": "1807",
    "DTMNFR21": "180722",
    "DTMNFRSEC21": "180722001",
    "SECNUM21": "001",
    "SSNUM21": "08",
    "SECSSNUM21": "00108",
    "OBJECTID_1": 192495,
    "DT": "18",
    "CC": "07",
    "fr": "22",
    "SEC": "001",
    "SS": "08"
  },
  "addresses": [
    {
      "id": "pt.ine.add.PTCONT.5427750",
      "street": "R CALÇADA",
      "house": "13",
      "postcode": "3620-080",
      "city": "ARIZ MBR",
      "lon": "-7.656722499214788",
      "lat": "40.90726698166665"
    },
    {
      "id": "pt.ine.add.PTCONT.5434732",
      "street": "R BOUCAS",
      "house": "",
      "postcode": "3620-080",
      "city": "ARIZ MBR",
      "lon": "-7.655543944638023",
      "lat": "40.90775736768668"
    },
    {
      "id": "pt.ine.add.PTCONT.5440279",
      "street": "R BOUCAS",
      "house": "11",
      "postcode": "3620-080",
      "city": "ARIZ MBR",
      "lon": "-7.655461965311412",
      "lat": "40.90760394767605"
    },
    {
      "id": "pt.ine.add.PTCONT.5443899",
      "street": "R ESCALEIRINHA",
      "house": "3",
      "postcode": "3620-080",
      "city": "ARIZ MBR",
      "lon": "-7.655747266472875",
      "lat": "40.90754209582697"
    },
    {
      "id": "pt.ine.add.PTCONT.5456842",
      "street": "R LOUREIROS",
      "house": "5",
      "postcode": "3620-080",
      "city": "ARIZ MBR",
      "lon": "-7.65621454285288",
      "lat": "40.90693170702001"
    },
    {
      "id": "pt.ine.add.PTCONT.5458610",
      "street": "R OUTEIRO",
      "house": "7",
      "postcode": "3620-080",
      "city": "ARIZ MBR",
      "lon": "-7.656951086830725",
      "lat": "40.90849256969248"
    },
    {
      "id": "pt.ine.add.PTCONT.5465315",
      "street": "LG PENEDOS",
      "house": "12",
      "postcode": "3620-080",
      "city": "ARIZ MBR",
      "lon": "-7.656101967165206",
      "lat": "40.90773266293783"
    },
    {
      "id": "pt.ine.add.PTCONT.5465316",
      "street": "R ESCALEIRINHA",
      "house": "4",
      "postcode": "3620-080",
      "city": "ARIZ MBR",
      "lon": "-7.655591030735007",
      "lat": "40.907811591074505"
    },
    {
      "id": "pt.ine.add.PTCONT.5470686",
      "street": "R CORGO",
      "house": "8",
      "postcode": "3620-080",
      "city": "ARIZ MBR",
      "lon": "-7.656549706394427",
      "lat": "40.906536884085774"
    },
    {
      "id": "pt.ine.add.PTCONT.5473176",
      "street": "R CORGO",
      "house": "12",
      "postcode": "3620-080",
      "city": "ARIZ MBR",
      "lon": "-7.6567410235398246",
      "lat": "40.90633957028628"
    },
    {
      "id": "pt.ine.add.PTCONT.5474880",
      "street": "R BOUÇAS",
      "house": "15",
      "postcode": "3620-080",
      "city": "ARIZ MBR",
      "lon": "-7.655626248200335",
      "lat": "40.90786576530299"
    },
    {
      "id": "pt.ine.add.PTCONT.5476643",
      "street": "LG PENEDOS",
      "house": "8",
      "postcode": "3620-080",
      "city": "ARIZ MBR",
      "lon": "-7.656127904447879",
      "lat": "40.90742660920804"
    },
    {
      "id": "pt.ine.add.PTCONT.5485771",
      "street": "R OUTEIRO",
      "house": "16",
      "postcode": "3620-080",
      "city": "ARIZ MBR",
      "lon": "-7.657021589342755",
      "lat": "40.908591912843754"
    },
    {
      "id": "pt.ine.add.PTCONT.5485772",
      "street": "R OUTEIRO",
      "house": "16",
      "postcode": "3620-080",
      "city": "ARIZ MBR",
      "lon": "-7.657021589342755",
      "lat": "40.908591912843754"
    },
    {
      "id": "pt.ine.add.PTCONT.5487512",
      "street": "R DA CALÇADA",
      "house": "3",
      "postcode": "3620-080",
      "city": "ARIZ MBR",
      "lon": "-7.6560723791836365",
      "lat": "40.9068951001062"
    },
    {
      "id": "pt.ine.add.PTCONT.5490454",
      "street": "TV CORGO",
      "house": "2",
      "postcode": "3620-080",
      "city": "ARIZ MBR",
      "lon": "-7.656037485428742",
      "lat": "40.90679590366051"
    },
    {
      "id": "pt.ine.add.PTCONT.5493088",
      "street": "TV CALVÁRIO",
      "house": "10",
      "postcode": "3620-080",
      "city": "ARIZ MBR",
      "lon": "-7.656890597625848",
      "lat": "40.9069975338386"
    },
    {
      "id": "pt.ine.add.PTCONT.5497517",
      "street": "R CORGO",
      "house": "14",
      "postcode": "3620-080",
      "city": "ARIZ MBR",
      "lon": "-7.656991035729317",
      "lat": "40.90623254587642"
    },
    {
      "id": "pt.ine.add.PTCONT.5497832",
      "street": "LG PENEDOS",
      "house": "5",
      "postcode": "3620-080",
      "city": "ARIZ MBR",
      "lon": "-7.655938135817915",
      "lat": "40.907407814698466"
    },
    {
      "id": "pt.ine.add.PTCONT.5500058",
      "street": "R CALÇADA",
      "house": "14",
      "postcode": "3620-080",
      "city": "ARIZ MBR",
      "lon": "-7.65682783066907",
      "lat": "40.9074745256539"
    },
    {
      "id": "pt.ine.add.PTCONT.5516206",
      "street": "R CORGO",
      "house": "10",
      "postcode": "3620-080",
      "city": "ARIZ MBR",
      "lon": "-7.656633238126699",
      "lat": "40.90647419607385"
    },
    {
      "id": "pt.ine.add.PTCONT.5517049",
      "street": "R EIRO",
      "house": "8",
      "postcode": "3620-080",
      "city": "ARIZ MBR",
      "lon": "-7.655665740293518",
      "lat": "40.90732564468012"
    },
    {
      "id": "pt.ine.add.PTCONT.5524508",
      "street": "R CALÇADA",
      "house": "10",
      "postcode": "3620-080",
      "city": "ARIZ MBR",
      "lon": "-7.65646054940641",
      "lat": "40.90738296086623"
    },
    {
      "id": "pt.ine.add.PTCONT.5529120",
      "street": "R MACHOQUEIRA",
      "house": "2",
      "postcode": "3620-080",
      "city": "ARIZ MBR",
      "lon": "-7.65657244812628",
      "lat": "40.90832892049974"
    },
    {
      "id": "pt.ine.add.PTCONT.5529121",
      "street": "R BOUÇAS",
      "house": "17",
      "postcode": "3620-080",
      "city": "ARIZ MBR",
      "lon": "-7.6556614009556245",
      "lat": "40.90792894398734"
    },
    {
      "id": "pt.ine.add.PTCONT.5530007",
      "street": "LG PENEDOS",
      "house": "1",
      "postcode": "3620-080",
      "city": "ARIZ MBR",
      "lon": "-7.6562714923158754",
      "lat": "40.90726511774993"
    },
    {
      "id": "pt.ine.add.PTCONT.5535844",
      "street": "R MACHOQUEIRA",
      "house": "3",
      "postcode": "3620-080",
      "city": "ARIZ MBR",
      "lon": "-7.656432091843808",
      "lat": "40.90804018893019"
    },
    {
      "id": "pt.ine.add.PTCONT.5535846",
      "street": "R CALÇADA",
      "house": "11",
      "postcode": "3620-080",
      "city": "ARIZ MBR",
      "lon": "-7.656532924805285",
      "lat": "40.90722117472952"
    },
    {
      "id": "pt.ine.add.PTCONT.5538865",
      "street": "R OUTEIRO",
      "house": "8",
      "postcode": "3620-080",
      "city": "ARIZ MBR",
      "lon": "-7.656735767831327",
      "lat": "40.90872580355191"
    },
    {
      "id": "pt.ine.add.PTCONT.5544498",
      "street": "TV CORGO",
      "house": "6",
      "postcode": "3620-080",
      "city": "ARIZ MBR",
      "lon": "-7.656288147256843",
      "lat": "40.90659883610383"
    },
    {
      "id": "pt.ine.add.PTCONT.5546049",
      "street": "R CALÇADA",
      "house": "4",
      "postcode": "3620-080",
      "city": "ARIZ MBR",
      "lon": "-7.656213637191212",
      "lat": "40.9070577695858"
    },
    {
      "id": "pt.ine.add.PTCONT.5554152",
      "street": "R MACHOQUEIRA",
      "house": "",
      "postcode": "3620-080",
      "city": "ARIZ MBR",
      "lon": "-7.656822920379697",
      "lat": "40.908158865259786"
    },
    {
      "id": "pt.ine.add.PTCONT.5554239",
      "street": "TV CALVÁRIO",
      "house": "6",
      "postcode": "3620-080",
      "city": "ARIZ MBR",
      "lon": "-7.656509834120653",
      "lat": "40.90713103194278"
    },
    {
      "id": "pt.ine.add.PTCONT.5554477",
      "street": "R BOUCAS",
      "house": "19",
      "postcode": "3620-080",
      "city": "ARIZ MBR",
      "lon": "-7.656111247611156",
      "lat": "40.90809289072532"
    },
    {
      "id": "pt.ine.add.PTCONT.5556173",
      "street": "R OUTEIRO",
      "house": "1",
      "postcode": "3620-080",
      "city": "ARIZ MBR",
      "lon": "-7.656536001303731",
      "lat": "40.90844583143703"
    },
    {
      "id": "pt.ine.add.PTCONT.5559158",
      "street": "TV CALVÁRIO",
      "house": "4",
      "postcode": "3620-080",
      "city": "ARIZ MBR",
      "lon": "-7.656403922219827",
      "lat": "40.90700452788476"
    },
    {
      "id": "pt.ine.add.PTCONT.5591778",
      "street": "TV CORGO",
      "house": "4",
      "postcode": "3620-080",
      "city": "ARIZ MBR",
      "lon": "-7.656145143175948",
      "lat": "40.906679287385614"
    },
    {
      "id": "pt.ine.add.PTCONT.5597369",
      "street": "R MACHOQUEIRA",
      "house": "1",
      "postcode": "3620-080",
      "city": "ARIZ MBR",
      "lon": "-7.656407513699656",
      "lat": "40.90815714888964"
    },
    {
      "id": "pt.ine.add.PTCONT.5604214",
      "street": "R BOUCAS",
      "house": "13",
      "postcode": "3620-080",
      "city": "ARIZ MBR",
      "lon": "-7.65546138216844",
      "lat": "40.90768498787888"
    },
    {
      "id": "pt.ine.add.PTCONT.5606333",
      "street": "R EIRO",
      "house": "4",
      "postcode": "3620-080",
      "city": "ARIZ MBR",
      "lon": "-7.655379597534562",
      "lat": "40.907504554407936"
    },
    {
      "id": "pt.ine.add.PTCONT.5608901",
      "street": "TV OUTEIRO",
      "house": "5",
      "postcode": "3620-080",
      "city": "ARIZ MBR",
      "lon": "-7.656711254583065",
      "lat": "40.90883375909696"
    },
    {
      "id": "pt.ine.add.PTCONT.5610014",
      "street": "R ESCALEIRINHA",
      "house": "1",
      "postcode": "3620-080",
      "city": "ARIZ MBR",
      "lon": "-7.655975359781423",
      "lat": "40.90718285031224"
    },
    {
      "id": "pt.ine.add.PTCONT.5610027",
      "street": "R EIRO",
      "house": "2",
      "postcode": "3620-080",
      "city": "ARIZ MBR",
      "lon": "-7.65535547140128",
      "lat": "40.90755848287627"
    },
    {
      "id": "pt.ine.add.PTCONT.5612171",
      "street": "R BECO",
      "house": "3",
      "postcode": "3620-080",
      "city": "ARIZ MBR",
      "lon": "-7.656799719634591",
      "lat": "40.90642986010015"
    },
    {
      "id": "pt.ine.add.PTCONT.5615684",
      "street": "R CALÇADA",
      "house": "6",
      "postcode": "3620-080",
      "city": "ARIZ MBR",
      "lon": "-7.656129780816584",
      "lat": "40.9071654796244"
    },
    {
      "id": "pt.ine.add.PTCONT.5615685",
      "street": "TV CALVÁRIO",
      "house": "14",
      "postcode": "3620-080",
      "city": "ARIZ MBR",
      "lon": "-7.65665232169556",
      "lat": "40.90712261597333"
    },
    {
      "id": "pt.ine.add.PTCONT.5621468",
      "street": "R OUTEIRO",
      "house": "3",
      "postcode": "3620-080",
      "city": "ARIZ MBR",
      "lon": "-7.656618113419153",
      "lat": "40.908581241747214"
    },
    {
      "id": "pt.ine.add.PTCONT.5623344",
      "street": "TV CALVÁRIO",
      "house": "16",
      "postcode": "3620-080",
      "city": "ARIZ MBR",
      "lon": "-7.656734884778349",
      "lat": "40.907194994938905"
    },
    {
      "id": "pt.ine.add.PTCONT.5629092",
      "street": "R CALÇADA",
      "house": "2",
      "postcode": "3620-080",
      "city": "ARIZ MBR",
      "lon": "-7.655987875580003",
      "lat": "40.90709285473105"
    },
    {
      "id": "pt.ine.add.PTCONT.5630998",
      "street": "R OUTEIRO",
      "house": "4",
      "postcode": "3620-080",
      "city": "ARIZ MBR",
      "lon": "-7.656461684736898",
      "lat": "40.908877751531165"
    },
    {
      "id": "pt.ine.add.PTCONT.5632934",
      "street": "R OUTEIRO",
      "house": "2",
      "postcode": "3620-080",
      "city": "ARIZ MBR",
      "lon": "-7.6563924114943775",
      "lat": "40.90860732318087"
    },
    {
      "id": "pt.ine.add.PTCONT.5637017",
      "street": "R CALÇADA",
      "house": "12",
      "postcode": "3620-080",
      "city": "ARIZ MBR",
      "lon": "-7.656567367018583",
      "lat": "40.907383402305506"
    },
    {
      "id": "pt.ine.add.PTCONT.5646191",
      "street": "R ESCALEIRINHA",
      "house": "5",
      "postcode": "3620-080",
      "city": "ARIZ MBR",
      "lon": "-7.65580447307146",
      "lat": "40.90783948887386"
    },
    {
      "id": "pt.ine.add.PTCONT.5646222",
      "street": "R CORGO",
      "house": "6",
      "postcode": "3620-080",
      "city": "ARIZ MBR",
      "lon": "-7.656371614645109",
      "lat": "40.90654515275374"
    },
    {
      "id": "pt.ine.add.PTCONT.5651705",
      "street": "R ESCALEIRINHA",
      "house": "7",
      "postcode": "3620-080",
      "city": "ARIZ MBR",
      "lon": "-7.65579402884323",
      "lat": "40.90764134147117"
    },
    {
      "id": "pt.ine.add.PTCONT.5651722",
      "street": "R MACHOQUEIRA",
      "house": "4",
      "postcode": "3620-080",
      "city": "ARIZ MBR",
      "lon": "-7.656574128874584",
      "lat": "40.90809480434346"
    },
    {
      "id": "pt.ine.add.PTCONT.5653823",
      "street": "R OUTEIRO",
      "house": "5",
      "postcode": "3620-080",
      "city": "ARIZ MBR",
      "lon": "-7.6567252560838615",
      "lat": "40.90853666071509"
    },
    {
      "id": "pt.ine.add.PTCONT.5663618",
      "street": "TV OUTEIRO",
      "house": "",
      "postcode": "3620-080",
      "city": "ARIZ MBR",
      "lon": "-7.656557864169155",
      "lat": "40.90870705907156"
    },
    {
      "id": "pt.ine.add.PTCONT.5666338",
      "street": "TV OUTEIRO",
      "house": "3",
      "postcode": "3620-080",
      "city": "ARIZ MBR",
      "lon": "-7.656591983963861",
      "lat": "40.90891430893546"
    },
    {
      "id": "pt.ine.add.PTCONT.5666831",
      "street": "R CALÇADA",
      "house": "9",
      "postcode": "3620-080",
      "city": "ARIZ MBR",
      "lon": "-7.656354960560472",
      "lat": "40.907211434422805"
    }
  ]
}