{
  "data": {
    "distrito": "Aveiro",
    "concelho": "Oliveira de Azeméis",
    "freguesia": "União das freguesias de Oliveira de Azeméis, Santiago da Riba-Ul, Ul, Macinhata da Seixa e Madail",
    "OBJECTID": 744,
    "BGRI2021": "01132101306",
    "DT21": "01",
    "DTMN21": "0113",
    "DTMNFR21": "011321",
    "DTMNFRSEC21": "011321013",
    "SECNUM21": "013",
    "SSNUM21": "06",
    "SECSSNUM21": "01306",
    "OBJECTID_1": 8865,
    "DT": "01",
    "CC": "13",
    "fr": "21",
    "SEC": "013",
    "SS": "06"
  },
  "addresses": [
    {
      "id": "pt.ine.add.PTCONT.293331",
      "street": "R PADRE ALBERGARIA",
      "house": "436",
      "postcode": "3720-121",
      "city": "MADAIL",
      "lon": "-8.504739098102956",
      "lat": "40.837333583079776"
    },
    {
      "id": "pt.ine.add.PTCONT.303534",
      "street": "R PADRE ALBERGARIA",
      "house": "460",
      "postcode": "3720-121",
      "city": "MADAIL",
      "lon": "-8.50489388378797",
      "lat": "40.83745014757448"
    },
    {
      "id": "pt.ine.add.PTCONT.1548",
      "street": "R TALEGRE",
      "house": "",
      "postcode": "3720-123",
      "city": "MADAIL",
      "lon": "-8.505584976717516",
      "lat": "40.83806024895262"
    },
    {
      "id": "pt.ine.add.PTCONT.1549",
      "street": "R TALEGRE",
      "house": "",
      "postcode": "3720-123",
      "city": "MADAIL",
      "lon": "-8.505584976717516",
      "lat": "40.83806024895262"
    },
    {
      "id": "pt.ine.add.PTCONT.1550",
      "street": "R TALEGRE",
      "house": "",
      "postcode": "3720-123",
      "city": "MADAIL",
      "lon": "-8.505584976717516",
      "lat": "40.83806024895262"
    },
    {
      "id": "pt.ine.add.PTCONT.1551",
      "street": "R TALEGRE",
      "house": "",
      "postcode": "3720-123",
      "city": "MADAIL",
      "lon": "-8.505584976717516",
      "lat": "40.83806024895262"
    },
    {
      "id": "pt.ine.add.PTCONT.2246",
      "street": "R TALEGRE",
      "house": "",
      "postcode": "3720-123",
      "city": "MADAIL",
      "lon": "-8.505584976717516",
      "lat": "40.83806024895262"
    },
    {
      "id": "pt.ine.add.PTCONT.20003",
      "street": "LG SOUTO",
      "house": "52",
      "postcode": "3720-123",
      "city": "MADAIL",
      "lon": "-8.504682280436029",
      "lat": "40.83777500435821"
    },
    {
      "id": "pt.ine.add.PTCONT.20006",
      "street": "LG SOUTO",
      "house": "52",
      "postcode": "3720-123",
      "city": "MADAIL",
      "lon": "-8.504682280436029",
      "lat": "40.83777500435821"
    },
    {
      "id": "pt.ine.add.PTCONT.20007",
      "street": "LG SOUTO",
      "house": "52",
      "postcode": "3720-123",
      "city": "MADAIL",
      "lon": "-8.504682280436029",
      "lat": "40.83777500435821"
    },
    {
      "id": "pt.ine.add.PTCONT.20008",
      "street": "LG SOUTO",
      "house": "52",
      "postcode": "3720-123",
      "city": "MADAIL",
      "lon": "-8.504682280436029",
      "lat": "40.83777500435821"
    },
    {
      "id": "pt.ine.add.PTCONT.25474",
      "street": "R JOAQUIM MOREIRA",
      "house": "295",
      "postcode": "3720-113",
      "city": "MADAIL",
      "lon": "-8.503608114420985",
      "lat": "40.83863392094634"
    },
    {
      "id": "pt.ine.add.PTCONT.39025",
      "street": "R FONTANHEIRA",
      "house": "85",
      "postcode": "3720-123",
      "city": "MADAIL",
      "lon": "-8.505029990188987",
      "lat": "40.83846725825422"
    },
    {
      "id": "pt.ine.add.PTCONT.41735",
      "street": "R TALEGRE",
      "house": "",
      "postcode": "3720-123",
      "city": "MADAIL",
      "lon": "-8.506025884293985",
      "lat": "40.838455038453255"
    },
    {
      "id": "pt.ine.add.PTCONT.63119",
      "street": "R TALEGRE",
      "house": "",
      "postcode": "3720-123",
      "city": "MADAIL",
      "lon": "-8.506191925503947",
      "lat": "40.83846350646461"
    },
    {
      "id": "pt.ine.add.PTCONT.63321",
      "street": "R MANUEL ADAO",
      "house": "",
      "postcode": "3720-525",
      "city": "SANTIAGO DE RIBA-UL",
      "lon": "-8.507462237001782",
      "lat": "40.84297082479014"
    },
    {
      "id": "pt.ine.add.PTCONT.84041",
      "street": "R TALEGRE",
      "house": "190",
      "postcode": "3720-123",
      "city": "MADAIL",
      "lon": "-8.50638445792943",
      "lat": "40.83896715584911"
    },
    {
      "id": "pt.ine.add.PTCONT.95524",
      "street": "R PADRE ALBERGARIA",
      "house": "198",
      "postcode": "3720-121",
      "city": "MADAIL",
      "lon": "-8.502991019054862",
      "lat": "40.83640269515066"
    },
    {
      "id": "pt.ine.add.PTCONT.122172",
      "street": "R CRUZEIRO",
      "house": "44",
      "postcode": "3720-121",
      "city": "MADAIL",
      "lon": "-8.503325895904243",
      "lat": "40.83692390311087"
    },
    {
      "id": "pt.ine.add.PTCONT.124523",
      "street": "R MANUEL ADAO",
      "house": "",
      "postcode": "3720-525",
      "city": "SANTIAGO DE RIBA-UL",
      "lon": "-8.507320050896796",
      "lat": "40.84298929580873"
    },
    {
      "id": "pt.ine.add.PTCONT.138177",
      "street": "R TALEGRE",
      "house": "70",
      "postcode": "3720-123",
      "city": "MADAIL",
      "lon": "-8.505740017700262",
      "lat": "40.838221835776366"
    },
    {
      "id": "pt.ine.add.PTCONT.138178",
      "street": "R SOUTO",
      "house": "",
      "postcode": "3720-123",
      "city": "MADAIL",
      "lon": "-8.505740017700262",
      "lat": "40.838221835776366"
    },
    {
      "id": "pt.ine.add.PTCONT.138179",
      "street": "R SOUTO",
      "house": "",
      "postcode": "3720-123",
      "city": "MADAIL",
      "lon": "-8.505740017700262",
      "lat": "40.838221835776366"
    },
    {
      "id": "pt.ine.add.PTCONT.138180",
      "street": "R SOUTO",
      "house": "",
      "postcode": "3720-123",
      "city": "MADAIL",
      "lon": "-8.505740017700262",
      "lat": "40.838221835776366"
    },
    {
      "id": "pt.ine.add.PTCONT.138181",
      "street": "R SOUTO",
      "house": "",
      "postcode": "3720-123",
      "city": "MADAIL",
      "lon": "-8.505740017700262",
      "lat": "40.838221835776366"
    },
    {
      "id": "pt.ine.add.PTCONT.138182",
      "street": "R SOUTO",
      "house": "",
      "postcode": "3720-123",
      "city": "MADAIL",
      "lon": "-8.505740017700262",
      "lat": "40.838221835776366"
    },
    {
      "id": "pt.ine.add.PTCONT.138183",
      "street": "R SOUTO",
      "house": "",
      "postcode": "3720-123",
      "city": "MADAIL",
      "lon": "-8.505740017700262",
      "lat": "40.838221835776366"
    },
    {
      "id": "pt.ine.add.PTCONT.138184",
      "street": "R SOUTO",
      "house": "",
      "postcode": "3720-123",
      "city": "MADAIL",
      "lon": "-8.505740017700262",
      "lat": "40.838221835776366"
    },
    {
      "id": "pt.ine.add.PTCONT.138185",
      "street": "R TALEGRE",
      "house": "70",
      "postcode": "3720-123",
      "city": "MADAIL",
      "lon": "-8.505740017700262",
      "lat": "40.838221835776366"
    },
    {
      "id": "pt.ine.add.PTCONT.138345",
      "street": "R TALEGRE",
      "house": "70",
      "postcode": "3720-123",
      "city": "MADAIL",
      "lon": "-8.505740017700262",
      "lat": "40.838221835776366"
    },
    {
      "id": "pt.ine.add.PTCONT.143463",
      "street": "TV RESIDENCIA",
      "house": "26",
      "postcode": "3720-121",
      "city": "MADAIL",
      "lon": "-8.503017434187464",
      "lat": "40.836888873122255"
    },
    {
      "id": "pt.ine.add.PTCONT.155796",
      "street": "FELGUEIRA",
      "house": "",
      "postcode": "3720-525",
      "city": "SANTIAGO DE RIBA-UL",
      "lon": "-8.507911494838169",
      "lat": "40.84273523985987"
    },
    {
      "id": "pt.ine.add.PTCONT.164618",
      "street": "R ESCOLA PRIMARIA",
      "house": "",
      "postcode": "3720-113",
      "city": "MADAIL",
      "lon": "-8.504057156059009",
      "lat": "40.83836233211595"
    },
    {
      "id": "pt.ine.add.PTCONT.199103",
      "street": "LG SOUTO",
      "house": "54",
      "postcode": "3720-123",
      "city": "MADAIL",
      "lon": "-8.504871328224258",
      "lat": "40.83765733209902"
    },
    {
      "id": "pt.ine.add.PTCONT.201355",
      "street": "R CRUZEIRO",
      "house": "186",
      "postcode": "3720-121",
      "city": "MADAIL",
      "lon": "-8.502529630152642",
      "lat": "40.83658427080943"
    },
    {
      "id": "pt.ine.add.PTCONT.201356",
      "street": "R PADRE ALBERGARIA",
      "house": "224",
      "postcode": "3720-121",
      "city": "MADAIL",
      "lon": "-8.503180416500781",
      "lat": "40.83634805856716"
    },
    {
      "id": "pt.ine.add.PTCONT.235669",
      "street": "R JOAQUIM MOREIRA",
      "house": "543",
      "postcode": "3720-113",
      "city": "MADAIL",
      "lon": "-8.504498010945541",
      "lat": "40.84087326948288"
    },
    {
      "id": "pt.ine.add.PTCONT.239935",
      "street": "R FONTANHEIRA",
      "house": "",
      "postcode": "3720-123",
      "city": "MADAIL",
      "lon": "-8.504325183080951",
      "lat": "40.83752401781575"
    },
    {
      "id": "pt.ine.add.PTCONT.250684",
      "street": "LG SOUTO",
      "house": "80",
      "postcode": "3720-123",
      "city": "MADAIL",
      "lon": "-8.505262939942464",
      "lat": "40.837719103505094"
    },
    {
      "id": "pt.ine.add.PTCONT.256210",
      "street": "R JOAQUIM MOREIRA",
      "house": "611",
      "postcode": "3720-113",
      "city": "MADAIL",
      "lon": "-8.504735652146389",
      "lat": "40.84096255277115"
    },
    {
      "id": "pt.ine.add.PTCONT.261119",
      "street": "LG SOUTO",
      "house": "58",
      "postcode": "3720-123",
      "city": "MADAIL",
      "lon": "-8.505155830028675",
      "lat": "40.83764741008172"
    },
    {
      "id": "pt.ine.add.PTCONT.269688",
      "street": "R JOAQUIM MOREIRA",
      "house": "265",
      "postcode": "3720-113",
      "city": "MADAIL",
      "lon": "-8.503180278262322",
      "lat": "40.838455196948615"
    },
    {
      "id": "pt.ine.add.PTCONT.269690",
      "street": "R PADRE ALBERGARIA",
      "house": "420",
      "postcode": "3720-121",
      "city": "MADAIL",
      "lon": "-8.504584363227014",
      "lat": "40.83722602307387"
    },
    {
      "id": "pt.ine.add.PTCONT.269696",
      "street": "TV RESIDENCIA",
      "house": "32",
      "postcode": "3720-121",
      "city": "MADAIL",
      "lon": "-8.50301643310754",
      "lat": "40.836708779053176"
    },
    {
      "id": "pt.ine.add.PTCONT.278015",
      "street": "LG SOUTO",
      "house": "100",
      "postcode": "3720-123",
      "city": "MADAIL",
      "lon": "-8.505393762812709",
      "lat": "40.837790720308135"
    },
    {
      "id": "pt.ine.add.PTCONT.283098",
      "street": "R MANUEL ADAO",
      "house": "251",
      "postcode": "3720-525",
      "city": "SANTIAGO DE RIBA-UL",
      "lon": "-8.507142495334383",
      "lat": "40.84304390074906"
    }
  ]
}