{
  "data": {
    "distrito": "Évora",
    "concelho": "Montemor-O-Novo",
    "freguesia": "União das freguesias de Nossa Senhora da Vila, Nossa Senhora do Bispo e Silveiras",
    "OBJECTID": 530,
    "BGRI2021": "07061200807",
    "DT21": "07",
    "DTMN21": "0706",
    "DTMNFR21": "070612",
    "DTMNFRSEC21": "070612008",
    "SECNUM21": "008",
    "SSNUM21": "07",
    "SECSSNUM21": "00807",
    "OBJECTID_1": 61893,
    "DT": "07",
    "CC": "06",
    "fr": "12",
    "SEC": "008",
    "SS": "07"
  },
  "addresses": [
    {
      "id": "pt.ine.add.PTCONT.1377796",
      "street": "CAM 7 - HORTA DO CHAFARIZ",
      "house": "",
      "postcode": "7050-352",
      "city": "MONTEMOR-O-NOVO",
      "lon": "-8.20901913532079",
      "lat": "38.60810957068817"
    },
    {
      "id": "pt.ine.add.PTCONT.1378842",
      "street": "EN 2 - MONTE FONTE DA BARREIRA",
      "house": "",
      "postcode": "7050-352",
      "city": "MONTEMOR-O-NOVO",
      "lon": "-8.204129106644029",
      "lat": "38.60889636761519"
    },
    {
      "id": "pt.ine.add.PTCONT.1391294",
      "street": "CAM 7 - QTA DOS LIRIOS",
      "house": "",
      "postcode": "7050-352",
      "city": "MONTEMOR-O-NOVO",
      "lon": "-8.214147333311704",
      "lat": "38.604818080664714"
    },
    {
      "id": "pt.ine.add.PTCONT.1391295",
      "street": "CAM 7 - COURELA N 1 - VV GALIANO",
      "house": "CCI 1022",
      "postcode": "7050-352",
      "city": "MONTEMOR-O-NOVO",
      "lon": "-8.209501002197179",
      "lat": "38.60780297297742"
    },
    {
      "id": "pt.ine.add.PTCONT.1396656",
      "street": "CAM 7 - QUINTA DO BARREIRO",
      "house": "CCI 1098",
      "postcode": "7050-352",
      "city": "MONTEMOR-O-NOVO",
      "lon": "-8.211599684404288",
      "lat": "38.60570263654001"
    },
    {
      "id": "pt.ine.add.PTCONT.1399093",
      "street": "FTE BARREIRA CCI",
      "house": "CCI 1096",
      "postcode": "7050-352",
      "city": "MONTEMOR-O-NOVO",
      "lon": "-8.203712055740993",
      "lat": "38.60849839478767"
    },
    {
      "id": "pt.ine.add.PTCONT.1404860",
      "street": "CAM 7 COURELA DO VALE",
      "house": "",
      "postcode": "7050-352",
      "city": "MONTEMOR-O-NOVO",
      "lon": "-8.209879606265412",
      "lat": "38.60755949956115"
    },
    {
      "id": "pt.ine.add.PTCONT.1409965",
      "street": "CAM 10 - COURELA DA FONTE NOVA - QTA DO POÇO",
      "house": "",
      "postcode": "7050-352",
      "city": "MONTEMOR-O-NOVO",
      "lon": "-8.205045886018933",
      "lat": "38.60720223649741"
    },
    {
      "id": "pt.ine.add.PTCONT.1419288",
      "street": "QTA STO ONOFRE",
      "house": "",
      "postcode": "7050-352",
      "city": "MONTEMOR-O-NOVO",
      "lon": "-8.203444712890116",
      "lat": "38.6082463217935"
    },
    {
      "id": "pt.ine.add.PTCONT.1419289",
      "street": "CAM 10 - QUINTINHA DO POÇO",
      "house": "",
      "postcode": "7050-352",
      "city": "MONTEMOR-O-NOVO",
      "lon": "-8.206124926370297",
      "lat": "38.607066442829804"
    },
    {
      "id": "pt.ine.add.PTCONT.1421770",
      "street": "CAM 7 - MONTE DA LADEIRA - COURELA DOS BARREIROS",
      "house": "CCI 1014",
      "postcode": "7050-352",
      "city": "MONTEMOR-O-NOVO",
      "lon": "-8.213092112335087",
      "lat": "38.60568360929528"
    },
    {
      "id": "pt.ine.add.PTCONT.1425129",
      "street": "EN 2",
      "house": "CCI 2008",
      "postcode": "7050-352",
      "city": "MONTEMOR-O-NOVO",
      "lon": "-8.204703732518785",
      "lat": "38.60948156056"
    },
    {
      "id": "pt.ine.add.PTCONT.1440205",
      "street": "CAM 7 - COURELA DO CHAFARIZ",
      "house": "CCI 1011",
      "postcode": "7050-352",
      "city": "MONTEMOR-O-NOVO",
      "lon": "-8.207745228964576",
      "lat": "38.60855179958809"
    },
    {
      "id": "pt.ine.add.PTCONT.1444013",
      "street": "CAM 10 - COURELA DA VEREDAS",
      "house": "",
      "postcode": "7050-352",
      "city": "MONTEMOR-O-NOVO",
      "lon": "-8.209350475676514",
      "lat": "38.60659595114586"
    },
    {
      "id": "pt.ine.add.PTCONT.1444014",
      "street": "CAM 7 - COURELA DOS DOIS EUCALIPTOS",
      "house": "",
      "postcode": "7050-352",
      "city": "MONTEMOR-O-NOVO",
      "lon": "-8.212816752972085",
      "lat": "38.605836939297475"
    },
    {
      "id": "pt.ine.add.PTCONT.1446377",
      "street": "CAM 7 - COURELA DO BARREIRO - VV SIMÕES",
      "house": "",
      "postcode": "7050-352",
      "city": "MONTEMOR-O-NOVO",
      "lon": "-8.211520096283289",
      "lat": "38.606414350323305"
    },
    {
      "id": "pt.ine.add.PTCONT.1447870",
      "street": "CAM 10 - COURELA DO VALADO O QUINTAL",
      "house": "",
      "postcode": "7050-352",
      "city": "MONTEMOR-O-NOVO",
      "lon": "-8.210795582646828",
      "lat": "38.60526176342969"
    },
    {
      "id": "pt.ine.add.PTCONT.1450930",
      "street": "CAM 10 - COURELA DO AZINHAL",
      "house": "",
      "postcode": "7050-352",
      "city": "MONTEMOR-O-NOVO",
      "lon": "-8.213617290253826",
      "lat": "38.603070824088384"
    },
    {
      "id": "pt.ine.add.PTCONT.1450931",
      "street": "CAM 7 - COURELA N 1",
      "house": "",
      "postcode": "7050-352",
      "city": "MONTEMOR-O-NOVO",
      "lon": "-8.209397742629402",
      "lat": "38.60786609884036"
    },
    {
      "id": "pt.ine.add.PTCONT.1461558",
      "street": "CAM 10 - COURELA DAS HORTAS VELHAS",
      "house": "",
      "postcode": "7050-352",
      "city": "MONTEMOR-O-NOVO",
      "lon": "-8.207376598265869",
      "lat": "38.60734491426463"
    }
  ]
}