{
  "data": {
    "distrito": "Évora",
    "concelho": "Montemor-O-Novo",
    "freguesia": "União das freguesias de Nossa Senhora da Vila, Nossa Senhora do Bispo e Silveiras",
    "OBJECTID": 502,
    "BGRI2021": "07061200816",
    "DT21": "07",
    "DTMN21": "0706",
    "DTMNFR21": "070612",
    "DTMNFRSEC21": "070612008",
    "SECNUM21": "008",
    "SSNUM21": "16",
    "SECSSNUM21": "00816",
    "OBJECTID_1": 61488,
    "DT": "07",
    "CC": "06",
    "fr": "12",
    "SEC": "008",
    "SS": "16"
  },
  "addresses": [
    {
      "id": "pt.ine.add.PTCONT.1370163",
      "street": "MTE DO FERRAGIAL",
      "house": "",
      "postcode": "7050-021",
      "city": "MONTEMOR-O-NOVO",
      "lon": "-8.229427952764823",
      "lat": "38.6223097202061"
    },
    {
      "id": "pt.ine.add.PTCONT.1370164",
      "street": "MTE DO FERRAGIAL",
      "house": "",
      "postcode": "7050-021",
      "city": "MONTEMOR-O-NOVO",
      "lon": "-8.229427952764823",
      "lat": "38.6223097202061"
    },
    {
      "id": "pt.ine.add.PTCONT.1370165",
      "street": "MTE DO CARLANCA",
      "house": "CCI 918",
      "postcode": "7050-340",
      "city": "MONTEMOR-O-NOVO",
      "lon": "-8.233219374393101",
      "lat": "38.61550524194415"
    },
    {
      "id": "pt.ine.add.PTCONT.1370171",
      "street": "MTE DO CARLANCA",
      "house": "CCI 918",
      "postcode": "7050-340",
      "city": "MONTEMOR-O-NOVO",
      "lon": "-8.233219374393101",
      "lat": "38.61550524194415"
    },
    {
      "id": "pt.ine.add.PTCONT.1372736",
      "street": "MTE VALE DE FREIRA",
      "house": "CCI 903",
      "postcode": "7050-340",
      "city": "MONTEMOR-O-NOVO",
      "lon": "-8.230760386088326",
      "lat": "38.61413805137242"
    },
    {
      "id": "pt.ine.add.PTCONT.1373332",
      "street": "FAZENDA DA CABRELA",
      "house": "",
      "postcode": "7050-352",
      "city": "MONTEMOR-O-NOVO",
      "lon": "-8.229849629303171",
      "lat": "38.6199311717266"
    },
    {
      "id": "pt.ine.add.PTCONT.1376845",
      "street": "MTE TELHEIRO",
      "house": "",
      "postcode": "7050-340",
      "city": "MONTEMOR-O-NOVO",
      "lon": "-8.231334132453771",
      "lat": "38.62230813555596"
    },
    {
      "id": "pt.ine.add.PTCONT.1377813",
      "street": "MTE DO FEIOEIRO",
      "house": "",
      "postcode": "7050-352",
      "city": "MONTEMOR-O-NOVO",
      "lon": "-8.229813536310258",
      "lat": "38.61870606753793"
    },
    {
      "id": "pt.ine.add.PTCONT.1378551",
      "street": "MTE DA CHUPETA",
      "house": "",
      "postcode": "7050-352",
      "city": "MONTEMOR-O-NOVO",
      "lon": "-8.230477776006031",
      "lat": "38.61741732402796"
    },
    {
      "id": "pt.ine.add.PTCONT.1378852",
      "street": "MTE DA CHUPETA",
      "house": "",
      "postcode": "7050-352",
      "city": "MONTEMOR-O-NOVO",
      "lon": "-8.230477776006031",
      "lat": "38.61741732402796"
    },
    {
      "id": "pt.ine.add.PTCONT.1380097",
      "street": "MTE DOS GAMOS",
      "house": "CCI 936",
      "postcode": "7050-340",
      "city": "MONTEMOR-O-NOVO",
      "lon": "-8.232671541881176",
      "lat": "38.61789292005531"
    },
    {
      "id": "pt.ine.add.PTCONT.1383844",
      "street": "MTE VOLTA",
      "house": "",
      "postcode": "7050-352",
      "city": "MONTEMOR-O-NOVO",
      "lon": "-8.233879906470966",
      "lat": "38.61983768685098"
    },
    {
      "id": "pt.ine.add.PTCONT.1388984",
      "street": "MTE DO TELHEIRO",
      "house": "CCI 917",
      "postcode": "7050-340",
      "city": "MONTEMOR-O-NOVO",
      "lon": "-8.230966749590541",
      "lat": "38.62236249338744"
    },
    {
      "id": "pt.ine.add.PTCONT.1396801",
      "street": "SEM DESIGNACAO",
      "house": "987",
      "postcode": "7050-021",
      "city": "MONTEMOR-O-NOVO",
      "lon": "-8.230130006383078",
      "lat": "38.623489231790565"
    },
    {
      "id": "pt.ine.add.PTCONT.1396808",
      "street": "",
      "house": "",
      "postcode": "7050-021",
      "city": "MONTEMOR-O-NOVO",
      "lon": "-8.230130006383078",
      "lat": "38.623489231790565"
    },
    {
      "id": "pt.ine.add.PTCONT.1397280",
      "street": "MTE ALMEIDA",
      "house": "",
      "postcode": "7050-340",
      "city": "MONTEMOR-O-NOVO",
      "lon": "-8.232201907648802",
      "lat": "38.61872208597386"
    },
    {
      "id": "pt.ine.add.PTCONT.1399095",
      "street": "MTE DO TELHEIRO",
      "house": "CCI 730",
      "postcode": "7050-340",
      "city": "MONTEMOR-O-NOVO",
      "lon": "-8.231414575010673",
      "lat": "38.62235310966767"
    },
    {
      "id": "pt.ine.add.PTCONT.1403090",
      "street": "MTE VALE DE FREIRA",
      "house": "",
      "postcode": "7050-340",
      "city": "MONTEMOR-O-NOVO",
      "lon": "-8.232760184652495",
      "lat": "38.61556869230431"
    },
    {
      "id": "pt.ine.add.PTCONT.1406404",
      "street": "QTA NOVA DO TELHEIRO",
      "house": "CCI 907",
      "postcode": "7050-340",
      "city": "MONTEMOR-O-NOVO",
      "lon": "-8.23280305971226",
      "lat": "38.62165829316178"
    },
    {
      "id": "pt.ine.add.PTCONT.1407862",
      "street": "MTE FUSCA",
      "house": "",
      "postcode": "7050-340",
      "city": "MONTEMOR-O-NOVO",
      "lon": "-8.23184936093756",
      "lat": "38.62120868509218"
    },
    {
      "id": "pt.ine.add.PTCONT.1416949",
      "street": "MTE VALE DE FREIRA",
      "house": "CCI 904",
      "postcode": "7050-340",
      "city": "MONTEMOR-O-NOVO",
      "lon": "-8.232230689195166",
      "lat": "38.6146052491374"
    },
    {
      "id": "pt.ine.add.PTCONT.1417669",
      "street": "MTE FORNEIRAS FIDALGA",
      "house": "",
      "postcode": "7050-021",
      "city": "MONTEMOR-O-NOVO",
      "lon": "-8.230257549088254",
      "lat": "38.624398967420156"
    },
    {
      "id": "pt.ine.add.PTCONT.1417670",
      "street": "MTE FORNEIRAS",
      "house": "",
      "postcode": "7050-021",
      "city": "MONTEMOR-O-NOVO",
      "lon": "-8.230257549088254",
      "lat": "38.624398967420156"
    },
    {
      "id": "pt.ine.add.PTCONT.1417671",
      "street": "MTE FORNEIRAS",
      "house": "",
      "postcode": "7050-021",
      "city": "MONTEMOR-O-NOVO",
      "lon": "-8.230257549088254",
      "lat": "38.624398967420156"
    },
    {
      "id": "pt.ine.add.PTCONT.1420037",
      "street": "QTA NOVA DO TELHEIRO",
      "house": "CCI 907",
      "postcode": "7050-340",
      "city": "MONTEMOR-O-NOVO",
      "lon": "-8.232734261979438",
      "lat": "38.62173041843497"
    },
    {
      "id": "pt.ine.add.PTCONT.1421459",
      "street": "MTE DO TORRES",
      "house": "CCI 908",
      "postcode": "7050-340",
      "city": "MONTEMOR-O-NOVO",
      "lon": "-8.234494349812964",
      "lat": "38.61584646127518"
    },
    {
      "id": "pt.ine.add.PTCONT.1439474",
      "street": "VENDA DO BRAVO",
      "house": "CCI 910",
      "postcode": "7050-340",
      "city": "MONTEMOR-O-NOVO",
      "lon": "-8.23412030854815",
      "lat": "38.61931499597822"
    },
    {
      "id": "pt.ine.add.PTCONT.1452444",
      "street": "FAZENDA CALCAO CCI",
      "house": "CCI 921",
      "postcode": "7050-340",
      "city": "MONTEMOR-O-NOVO",
      "lon": "-8.234482626940348",
      "lat": "38.61567531290296"
    },
    {
      "id": "pt.ine.add.PTCONT.1460066",
      "street": "QTA DO TORRES",
      "house": "CCI 908",
      "postcode": "7050-021",
      "city": "MONTEMOR-O-NOVO",
      "lon": "-8.234989030535624",
      "lat": "38.61652165734191"
    },
    {
      "id": "pt.ine.add.PTCONT.1461568",
      "street": "MTE VALE DE FREIRA",
      "house": "",
      "postcode": "7050-340",
      "city": "MONTEMOR-O-NOVO",
      "lon": "-8.232770819010204",
      "lat": "38.61495611582213"
    },
    {
      "id": "pt.ine.add.PTCONT.1466721",
      "street": "MTE CABRELA CCI",
      "house": "CCI 988",
      "postcode": "7050-021",
      "city": "MONTEMOR-O-NOVO",
      "lon": "-8.227487052344646",
      "lat": "38.62210411012956"
    }
  ]
}