{
  "data": {
    "distrito": "Évora",
    "concelho": "Montemor-O-Novo",
    "freguesia": "União das freguesias de Nossa Senhora da Vila, Nossa Senhora do Bispo e Silveiras",
    "OBJECTID": 594,
    "BGRI2021": "07061200823",
    "DT21": "07",
    "DTMN21": "0706",
    "DTMNFR21": "070612",
    "DTMNFRSEC21": "070612008",
    "SECNUM21": "008",
    "SSNUM21": "23",
    "SECSSNUM21": "00823",
    "OBJECTID_1": 61827,
    "DT": "07",
    "CC": "06",
    "fr": "12",
    "SEC": "008",
    "SS": "23"
  },
  "addresses": [
    {
      "id": "pt.ine.add.PTCONT.1377808",
      "street": "POMAR DO MEIO",
      "house": "",
      "postcode": "7050-662",
      "city": "SILVEIRAS",
      "lon": "-8.181849074672394",
      "lat": "38.63232044031544"
    },
    {
      "id": "pt.ine.add.PTCONT.1380083",
      "street": "POMAR DO CALVO",
      "house": "",
      "postcode": "7050-013",
      "city": "MONTEMOR-O-NOVO",
      "lon": "-8.18284938814014",
      "lat": "38.633986558367546"
    },
    {
      "id": "pt.ine.add.PTCONT.1380091",
      "street": "MTE DA TORRE",
      "house": "",
      "postcode": "7050-322",
      "city": "MONTEMOR-O-NOVO",
      "lon": "-8.178759803348775",
      "lat": "38.63246581960401"
    },
    {
      "id": "pt.ine.add.PTCONT.1386070",
      "street": "MTE CALVO",
      "house": "",
      "postcode": "7050-662",
      "city": "SILVEIRAS",
      "lon": "-8.182711619181086",
      "lat": "38.6340586834002"
    },
    {
      "id": "pt.ine.add.PTCONT.1433461",
      "street": "MTE PICOTE",
      "house": "",
      "postcode": "7050-322",
      "city": "MONTEMOR-O-NOVO",
      "lon": "-8.176048272193631",
      "lat": "38.63053005696451"
    },
    {
      "id": "pt.ine.add.PTCONT.1434121",
      "street": "MTE CALVO",
      "house": "",
      "postcode": "7050-013",
      "city": "MONTEMOR-O-NOVO",
      "lon": "-8.182688581133588",
      "lat": "38.63395960166896"
    },
    {
      "id": "pt.ine.add.PTCONT.1460359",
      "street": "POMAR DAS MINAS",
      "house": "",
      "postcode": "7050-322",
      "city": "MONTEMOR-O-NOVO",
      "lon": "-8.179105275155091",
      "lat": "38.63392503200803"
    },
    {
      "id": "pt.ine.add.PTCONT.1462045",
      "street": "MTE CALCAO CCI",
      "house": "CCI 1391",
      "postcode": "7050-662",
      "city": "SILVEIRAS",
      "lon": "-8.181264570396294",
      "lat": "38.63413135448938"
    },
    {
      "id": "pt.ine.add.PTCONT.1463073",
      "street": "POMAR DO MEIO",
      "house": "",
      "postcode": "7050-662",
      "city": "SILVEIRAS",
      "lon": "-8.181665168849175",
      "lat": "38.632095308767084"
    }
  ]
}