{
  "data": {
    "distrito": "Évora",
    "concelho": "Montemor-O-Novo",
    "freguesia": "União das freguesias de Nossa Senhora da Vila, Nossa Senhora do Bispo e Silveiras",
    "OBJECTID": 554,
    "BGRI2021": "07061200824",
    "DT21": "07",
    "DTMN21": "0706",
    "DTMNFR21": "070612",
    "DTMNFRSEC21": "070612008",
    "SECNUM21": "008",
    "SSNUM21": "24",
    "SECSSNUM21": "00824",
    "OBJECTID_1": 62051,
    "DT": "07",
    "CC": "06",
    "fr": "12",
    "SEC": "008",
    "SS": "24"
  },
  "addresses": [
    {
      "id": "pt.ine.add.PTCONT.1381256",
      "street": "",
      "house": "",
      "postcode": "7050-021",
      "city": "MONTEMOR-O-NOVO",
      "lon": "-8.228416708165959",
      "lat": "38.63042705144562"
    },
    {
      "id": "pt.ine.add.PTCONT.1368686",
      "street": "MTE SESMO",
      "house": "",
      "postcode": "7050-352",
      "city": "MONTEMOR-O-NOVO",
      "lon": "-8.224168300476133",
      "lat": "38.621971614912916"
    },
    {
      "id": "pt.ine.add.PTCONT.1368687",
      "street": "VIVENDA DAS FORNEIRAS",
      "house": "",
      "postcode": "7050-352",
      "city": "MONTEMOR-O-NOVO",
      "lon": "-8.230074434278013",
      "lat": "38.624858544153625"
    },
    {
      "id": "pt.ine.add.PTCONT.1370923",
      "street": "MTE MAIA CCI",
      "house": "CCI 734",
      "postcode": "7050-021",
      "city": "MONTEMOR-O-NOVO",
      "lon": "-8.228405688931225",
      "lat": "38.63077838494313"
    },
    {
      "id": "pt.ine.add.PTCONT.1371712",
      "street": "EN 253 - MTE DA TAPADINHA",
      "house": "",
      "postcode": "7050-021",
      "city": "MONTEMOR-O-NOVO",
      "lon": "-8.22611404228734",
      "lat": "38.63482496373072"
    },
    {
      "id": "pt.ine.add.PTCONT.1371718",
      "street": "MTE LEIRIA",
      "house": "703",
      "postcode": "7050-021",
      "city": "MONTEMOR-O-NOVO",
      "lon": "-8.228508809428574",
      "lat": "38.630598134487926"
    },
    {
      "id": "pt.ine.add.PTCONT.1374379",
      "street": "QTA OLIVAL A REINALDA",
      "house": "",
      "postcode": "7050-021",
      "city": "MONTEMOR-O-NOVO",
      "lon": "-8.229758074056662",
      "lat": "38.628714369806566"
    },
    {
      "id": "pt.ine.add.PTCONT.1374474",
      "street": "BARCADIAS CCI",
      "house": "CCI 718",
      "postcode": "7050-021",
      "city": "MONTEMOR-O-NOVO",
      "lon": "-8.22876055508884",
      "lat": "38.62991329650929"
    },
    {
      "id": "pt.ine.add.PTCONT.1378144",
      "street": "MTE FAZENDINHA",
      "house": "",
      "postcode": "7050-021",
      "city": "MONTEMOR-O-NOVO",
      "lon": "-8.225351252535681",
      "lat": "38.63109612412011"
    },
    {
      "id": "pt.ine.add.PTCONT.1379253",
      "street": "MTE DAS BARCADIAS",
      "house": "CCI 704",
      "postcode": "7050-021",
      "city": "MONTEMOR-O-NOVO",
      "lon": "-8.227968582839653",
      "lat": "38.63024724919394"
    },
    {
      "id": "pt.ine.add.PTCONT.1380778",
      "street": "MTE NOVO - VALE DE RÃ",
      "house": "",
      "postcode": "7050-021",
      "city": "MONTEMOR-O-NOVO",
      "lon": "-8.226618434697672",
      "lat": "38.63409488815222"
    },
    {
      "id": "pt.ine.add.PTCONT.1381283",
      "street": "QTA DE PAIVA",
      "house": "",
      "postcode": "7050-352",
      "city": "MONTEMOR-O-NOVO",
      "lon": "-8.224132059481537",
      "lat": "38.62963773085538"
    },
    {
      "id": "pt.ine.add.PTCONT.1383409",
      "street": "MTE DAS BARCADIAS",
      "house": "CCI 704",
      "postcode": "7050-021",
      "city": "MONTEMOR-O-NOVO",
      "lon": "-8.227922764374764",
      "lat": "38.63033736954835"
    },
    {
      "id": "pt.ine.add.PTCONT.1391291",
      "street": "MTE LEIRIA HAIA",
      "house": "",
      "postcode": "7050-021",
      "city": "MONTEMOR-O-NOVO",
      "lon": "-8.228554591494094",
      "lat": "38.630480988974305"
    },
    {
      "id": "pt.ine.add.PTCONT.1392696",
      "street": "MTE DO COTA",
      "house": "CCI 714",
      "postcode": "7050-021",
      "city": "MONTEMOR-O-NOVO",
      "lon": "-8.230399670328662",
      "lat": "38.62759680579637"
    },
    {
      "id": "pt.ine.add.PTCONT.1397250",
      "street": "EN 253 - MTE DA TAPADINHA",
      "house": "",
      "postcode": "7050-021",
      "city": "MONTEMOR-O-NOVO",
      "lon": "-8.224403438732",
      "lat": "38.63534879327444"
    },
    {
      "id": "pt.ine.add.PTCONT.1398012",
      "street": "EN 253 - MTE DA TAPADINHA",
      "house": "",
      "postcode": "7050-021",
      "city": "MONTEMOR-O-NOVO",
      "lon": "-8.224655870149052",
      "lat": "38.63515942142976"
    },
    {
      "id": "pt.ine.add.PTCONT.1399094",
      "street": "QTA NOVA DAS BARCADIAS",
      "house": "",
      "postcode": "7050-352",
      "city": "MONTEMOR-O-NOVO",
      "lon": "-8.226740600166895",
      "lat": "38.622059668156574"
    },
    {
      "id": "pt.ine.add.PTCONT.1400681",
      "street": "MTE DO SESMO",
      "house": "",
      "postcode": "7050-352",
      "city": "MONTEMOR-O-NOVO",
      "lon": "-8.224306278512197",
      "lat": "38.622115640806"
    },
    {
      "id": "pt.ine.add.PTCONT.1403054",
      "street": "QUINTINHA DA REBOLA",
      "house": "",
      "postcode": "7050-021",
      "city": "MONTEMOR-O-NOVO",
      "lon": "-8.22331214045154",
      "lat": "38.63517848177227"
    },
    {
      "id": "pt.ine.add.PTCONT.1407854",
      "street": "QTA NOVA DAS BARCADIAS",
      "house": "",
      "postcode": "7050-352",
      "city": "MONTEMOR-O-NOVO",
      "lon": "-8.226786883617848",
      "lat": "38.62232988113538"
    },
    {
      "id": "pt.ine.add.PTCONT.1409964",
      "street": "EN 253 - MTE DA TAPADINHA",
      "house": "",
      "postcode": "7050-021",
      "city": "MONTEMOR-O-NOVO",
      "lon": "-8.224036314084081",
      "lat": "38.63566437015275"
    },
    {
      "id": "pt.ine.add.PTCONT.1413914",
      "street": "EN 253 - MTE DA TAPADINHA",
      "house": "",
      "postcode": "7050-021",
      "city": "MONTEMOR-O-NOVO",
      "lon": "-8.224300198446578",
      "lat": "38.63544796524181"
    },
    {
      "id": "pt.ine.add.PTCONT.1415342",
      "street": "MTE DAS CAROCHINHAS",
      "house": "",
      "postcode": "7050-352",
      "city": "MONTEMOR-O-NOVO",
      "lon": "-8.223441132288032",
      "lat": "38.62814288454585"
    },
    {
      "id": "pt.ine.add.PTCONT.1418481",
      "street": "EN 253 - MTE DA TAPADINHA",
      "house": "",
      "postcode": "7050-021",
      "city": "MONTEMOR-O-NOVO",
      "lon": "-8.224128058524888",
      "lat": "38.63555619905185"
    },
    {
      "id": "pt.ine.add.PTCONT.1422493",
      "street": "QTA NOVA DAS BARCADIAS",
      "house": "",
      "postcode": "7050-352",
      "city": "MONTEMOR-O-NOVO",
      "lon": "-8.227108396268815",
      "lat": "38.62232061495483"
    },
    {
      "id": "pt.ine.add.PTCONT.1422888",
      "street": "MTE DAS BARCADIAS",
      "house": "",
      "postcode": "7050-352",
      "city": "MONTEMOR-O-NOVO",
      "lon": "-8.227510726866639",
      "lat": "38.6226445910612"
    },
    {
      "id": "pt.ine.add.PTCONT.1423751",
      "street": "OUINTA DAS BARCADIAS DE CINA",
      "house": "",
      "postcode": "7050-352",
      "city": "MONTEMOR-O-NOVO",
      "lon": "-8.224664324012362",
      "lat": "38.623745869492595"
    },
    {
      "id": "pt.ine.add.PTCONT.1426531",
      "street": "QUINTINHA DA REBOLA",
      "house": "",
      "postcode": "7050-021",
      "city": "MONTEMOR-O-NOVO",
      "lon": "-8.22169001900213",
      "lat": "38.63296367540109"
    },
    {
      "id": "pt.ine.add.PTCONT.1427977",
      "street": "EN 253 - MTE DA TAPADINHA",
      "house": "",
      "postcode": "7050-021",
      "city": "MONTEMOR-O-NOVO",
      "lon": "-8.224564104114616",
      "lat": "38.635249576339994"
    },
    {
      "id": "pt.ine.add.PTCONT.1428316",
      "street": "MTE SESMO",
      "house": "",
      "postcode": "7050-352",
      "city": "MONTEMOR-O-NOVO",
      "lon": "-8.224122277559104",
      "lat": "38.62189958404242"
    },
    {
      "id": "pt.ine.add.PTCONT.1429472",
      "street": "MTE DA MAIA",
      "house": "",
      "postcode": "7050-352",
      "city": "MONTEMOR-O-NOVO",
      "lon": "-8.22513978850777",
      "lat": "38.62738486141897"
    },
    {
      "id": "pt.ine.add.PTCONT.1433436",
      "street": "MTE NOVO - VALE DE RÃ",
      "house": "",
      "postcode": "7050-021",
      "city": "MONTEMOR-O-NOVO",
      "lon": "-8.226469025952783",
      "lat": "38.63401393262744"
    },
    {
      "id": "pt.ine.add.PTCONT.1434653",
      "street": "MTE BOA SISTA MAIA E CCI",
      "house": "",
      "postcode": "7050-021",
      "city": "MONTEMOR-O-NOVO",
      "lon": "-8.22738524416363",
      "lat": "38.6320493847428"
    },
    {
      "id": "pt.ine.add.PTCONT.1436569",
      "street": "MTE DA CAROCHINHA",
      "house": "",
      "postcode": "7050-352",
      "city": "MONTEMOR-O-NOVO",
      "lon": "-8.223370455522947",
      "lat": "38.626728631869184"
    },
    {
      "id": "pt.ine.add.PTCONT.1441004",
      "street": "MTE DAS BARCADIAS",
      "house": "",
      "postcode": "7050-352",
      "city": "MONTEMOR-O-NOVO",
      "lon": "-8.227568236724132",
      "lat": "38.62271661131527"
    },
    {
      "id": "pt.ine.add.PTCONT.1442753",
      "street": "MTE DAS PEREIRAS",
      "house": "",
      "postcode": "7050-352",
      "city": "MONTEMOR-O-NOVO",
      "lon": "-8.228146147595174",
      "lat": "38.62556277596561"
    },
    {
      "id": "pt.ine.add.PTCONT.1443251",
      "street": "MTE DAS BARCADIAS",
      "house": "",
      "postcode": "7050-352",
      "city": "MONTEMOR-O-NOVO",
      "lon": "-8.225193509282919",
      "lat": "38.62449314571713"
    },
    {
      "id": "pt.ine.add.PTCONT.1444019",
      "street": "MTE DAS BARCADIAS",
      "house": "",
      "postcode": "7050-352",
      "city": "MONTEMOR-O-NOVO",
      "lon": "-8.226124359662272",
      "lat": "38.62503290924695"
    },
    {
      "id": "pt.ine.add.PTCONT.1445851",
      "street": "MTE OLIVAL AO POCO",
      "house": "781",
      "postcode": "7050-021",
      "city": "MONTEMOR-O-NOVO",
      "lon": "-8.22863226837186",
      "lat": "38.628436036300535"
    },
    {
      "id": "pt.ine.add.PTCONT.1447136",
      "street": "MTE DO VALE VERDE",
      "house": "",
      "postcode": "7050-352",
      "city": "MONTEMOR-O-NOVO",
      "lon": "-8.223540878345442",
      "lat": "38.625269151064934"
    },
    {
      "id": "pt.ine.add.PTCONT.1450253",
      "street": "MTE DE LEIRIA",
      "house": "CCI 734",
      "postcode": "7050-021",
      "city": "MONTEMOR-O-NOVO",
      "lon": "-8.228313754470143",
      "lat": "38.63073341818289"
    },
    {
      "id": "pt.ine.add.PTCONT.1453247",
      "street": "MTE SESMO",
      "house": "",
      "postcode": "7050-352",
      "city": "MONTEMOR-O-NOVO",
      "lon": "-8.224133680798456",
      "lat": "38.621836516828495"
    },
    {
      "id": "pt.ine.add.PTCONT.1453343",
      "street": "MTE LEIRIA",
      "house": "",
      "postcode": "7050-021",
      "city": "MONTEMOR-O-NOVO",
      "lon": "-8.228405366958196",
      "lat": "38.63053516053863"
    },
    {
      "id": "pt.ine.add.PTCONT.1454732",
      "street": "VIVENDA COTA",
      "house": "",
      "postcode": "7050-352",
      "city": "MONTEMOR-O-NOVO",
      "lon": "-8.230947847176855",
      "lat": "38.62535327519775"
    },
    {
      "id": "pt.ine.add.PTCONT.1458579",
      "street": "EN 253 - MTE DA TAPADINHA",
      "house": "11",
      "postcode": "7050-021",
      "city": "MONTEMOR-O-NOVO",
      "lon": "-8.224781953416617",
      "lat": "38.63496113978842"
    },
    {
      "id": "pt.ine.add.PTCONT.1460040",
      "street": "FAZENDA DA CASINHA",
      "house": "",
      "postcode": "7050-021",
      "city": "MONTEMOR-O-NOVO",
      "lon": "-8.226615169837249",
      "lat": "38.631581570115564"
    },
    {
      "id": "pt.ine.add.PTCONT.1462048",
      "street": "BARCADIAS",
      "house": "",
      "postcode": "7050-021",
      "city": "MONTEMOR-O-NOVO",
      "lon": "-8.229276707365045",
      "lat": "38.62943543231489"
    },
    {
      "id": "pt.ine.add.PTCONT.1464870",
      "street": "MTE LUAR CCI",
      "house": "",
      "postcode": "7050-021",
      "city": "MONTEMOR-O-NOVO",
      "lon": "-8.227301115747936",
      "lat": "38.62919381470982"
    },
    {
      "id": "pt.ine.add.PTCONT.1466068",
      "street": "VIVENDA S JOAO DE DEUS",
      "house": "",
      "postcode": "7050-352",
      "city": "MONTEMOR-O-NOVO",
      "lon": "-8.230269542963208",
      "lat": "38.6247773073317"
    }
  ]
}