{
  "data": {
    "distrito": "Faro",
    "concelho": "Albufeira",
    "freguesia": "Guia",
    "OBJECTID": 10,
    "BGRI2021": "08010200601",
    "DT21": "08",
    "DTMN21": "0801",
    "DTMNFR21": "080102",
    "DTMNFRSEC21": "080102006",
    "SECNUM21": "006",
    "SSNUM21": "01",
    "SECSSNUM21": "00601",
    "OBJECTID_1": 64657,
    "DT": "08",
    "CC": "01",
    "fr": "02",
    "SEC": "006",
    "SS": "01"
  },
  "addresses": [
    {
      "id": "pt.ine.add.PTCONT.1469435",
      "street": "ESTR VALE PARRA CASA DOS REIS",
      "house": "215-A",
      "postcode": "8200-419",
      "city": "GUIA ABF",
      "lon": "-8.323822347131125",
      "lat": "37.10235560409568"
    },
    {
      "id": "pt.ine.add.PTCONT.1489902",
      "street": "CAM MONTES JUNTOS QUINTA SAUDADE",
      "house": "",
      "postcode": "8200-419",
      "city": "GUIA ABF",
      "lon": "-8.324694580899369",
      "lat": "37.10340674330375"
    },
    {
      "id": "pt.ine.add.PTCONT.1502669",
      "street": "QTA FELICIDADE CASA ROSA",
      "house": "",
      "postcode": "8200-427",
      "city": "GUIA ABF",
      "lon": "-8.321985986386528",
      "lat": "37.10234009402031"
    },
    {
      "id": "pt.ine.add.PTCONT.1502670",
      "street": "CAM MONTES JUNTOS",
      "house": "",
      "postcode": "8200-419",
      "city": "GUIA ABF",
      "lon": "-8.321468032735629",
      "lat": "37.10302605201194"
    },
    {
      "id": "pt.ine.add.PTCONT.1504472",
      "street": "QTA FELICIDADE CASA JESSICA",
      "house": "13",
      "postcode": "8200-427",
      "city": "GUIA ABF",
      "lon": "-8.322109222765153",
      "lat": "37.10306583380389"
    },
    {
      "id": "pt.ine.add.PTCONT.1507432",
      "street": "CAM MONTES JUNTOS VILLA LA BARCA",
      "house": "",
      "postcode": "8200-419",
      "city": "GUIA ABF",
      "lon": "-8.321664716701704",
      "lat": "37.10290870454368"
    },
    {
      "id": "pt.ine.add.PTCONT.1509618",
      "street": "VL TORIBA",
      "house": "",
      "postcode": "8200-422",
      "city": "GUIA ABF",
      "lon": "-8.321862807296988",
      "lat": "37.1015027272169"
    },
    {
      "id": "pt.ine.add.PTCONT.1523315",
      "street": "CAM MONTES JUNTOS",
      "house": "",
      "postcode": "8200-419",
      "city": "GUIA ABF",
      "lon": "-8.325996999098612",
      "lat": "37.10373071653428"
    },
    {
      "id": "pt.ine.add.PTCONT.1524756",
      "street": "QTA FELICIDADE",
      "house": "",
      "postcode": "8200-422",
      "city": "GUIA ABF",
      "lon": "-8.323711387097543",
      "lat": "37.102968506973866"
    },
    {
      "id": "pt.ine.add.PTCONT.1533333",
      "street": "QTA FELICIDADE CASA PETRONELLA",
      "house": "",
      "postcode": "8200-427",
      "city": "GUIA ABF",
      "lon": "-8.322616810926663",
      "lat": "37.102762735168795"
    },
    {
      "id": "pt.ine.add.PTCONT.1553903",
      "street": "QTA FELICIDADE CASA HELENA",
      "house": "",
      "postcode": "8200-427",
      "city": "GUIA ABF",
      "lon": "-8.321755737349385",
      "lat": "37.10240005971899"
    },
    {
      "id": "pt.ine.add.PTCONT.1568727",
      "street": "CAM MONTES JUNTOS",
      "house": "",
      "postcode": "8200-419",
      "city": "GUIA ABF",
      "lon": "-8.326425083732044",
      "lat": "37.103964296349844"
    },
    {
      "id": "pt.ine.add.PTCONT.1568728",
      "street": "CAM MONTES JUNTOS",
      "house": "",
      "postcode": "8200-419",
      "city": "GUIA ABF",
      "lon": "-8.326425083732044",
      "lat": "37.103964296349844"
    },
    {
      "id": "pt.ine.add.PTCONT.1568729",
      "street": "CAM MONTES JUNTOS",
      "house": "",
      "postcode": "8200-419",
      "city": "GUIA ABF",
      "lon": "-8.326425083732044",
      "lat": "37.103964296349844"
    },
    {
      "id": "pt.ine.add.PTCONT.1572815",
      "street": "QTA FELICIDADE CASA MARGARETA",
      "house": "",
      "postcode": "8200-427",
      "city": "GUIA ABF",
      "lon": "-8.32233406633056",
      "lat": "37.102746466533695"
    },
    {
      "id": "pt.ine.add.PTCONT.1578507",
      "street": "ESTR VALE PARRA QUINTA DA MEIA ENCOSTA",
      "house": "",
      "postcode": "8200-419",
      "city": "GUIA ABF",
      "lon": "-8.322705613419854",
      "lat": "37.10114095641028"
    },
    {
      "id": "pt.ine.add.PTCONT.1583020",
      "street": "CAM MONTES JUNTOS",
      "house": "",
      "postcode": "8200-419",
      "city": "GUIA ABF",
      "lon": "-8.320990465052722",
      "lat": "37.10300401180074"
    },
    {
      "id": "pt.ine.add.PTCONT.1597539",
      "street": "ESTR VALE PARRA",
      "house": "",
      "postcode": "8200-419",
      "city": "GUIA ABF",
      "lon": "-8.322840965009178",
      "lat": "37.10128491042231"
    },
    {
      "id": "pt.ine.add.PTCONT.1607422",
      "street": "QTA FELICIDADE",
      "house": "",
      "postcode": "8200-422",
      "city": "GUIA ABF",
      "lon": "-8.323362784480144",
      "lat": "37.103023130725006"
    },
    {
      "id": "pt.ine.add.PTCONT.1632750",
      "street": "QTA FELICIDADE",
      "house": "",
      "postcode": "8200-422",
      "city": "GUIA ABF",
      "lon": "-8.322434672880291",
      "lat": "37.10197170231739"
    },
    {
      "id": "pt.ine.add.PTCONT.1662748",
      "street": "CAM MONTES JUNTOS QUINTA SAUDADE",
      "house": "CP 395 R",
      "postcode": "8200-419",
      "city": "GUIA ABF",
      "lon": "-8.325783071874925",
      "lat": "37.10365897911625"
    },
    {
      "id": "pt.ine.add.PTCONT.1670021",
      "street": "CAM MONTES JUNTOS",
      "house": "",
      "postcode": "8200-419",
      "city": "GUIA ABF",
      "lon": "-8.32420695829796",
      "lat": "37.103201986344075"
    },
    {
      "id": "pt.ine.add.PTCONT.1703831",
      "street": "QTA DA FELICIDADE",
      "house": "",
      "postcode": "8200-427",
      "city": "GUIA ABF",
      "lon": "-8.322333299414742",
      "lat": "37.1029410690477"
    },
    {
      "id": "pt.ine.add.PTCONT.1715511",
      "street": "QTA FELICIDADE CASA IRMA",
      "house": "",
      "postcode": "8200-427",
      "city": "GUIA ABF",
      "lon": "-8.322576937693926",
      "lat": "37.10259467539825"
    },
    {
      "id": "pt.ine.add.PTCONT.1715513",
      "street": "CAM MONTE JUNTOS QUINTA DAS AMENDOEIRAS",
      "house": "CP 380A",
      "postcode": "8200-419",
      "city": "GUIA ABF",
      "lon": "-8.322567449471475",
      "lat": "37.103520564944986"
    },
    {
      "id": "pt.ine.add.PTCONT.1723857",
      "street": "QTA FELICIDADE",
      "house": "",
      "postcode": "8200-422",
      "city": "GUIA ABF",
      "lon": "-8.321770519519253",
      "lat": "37.10181496895904"
    },
    {
      "id": "pt.ine.add.PTCONT.1796766",
      "street": "QTA FELICIDADE CASA BRANCA",
      "house": "",
      "postcode": "8200-427",
      "city": "GUIA ABF",
      "lon": "-8.32197951474868",
      "lat": "37.10271311118148"
    },
    {
      "id": "pt.ine.add.PTCONT.1799591",
      "street": "CAM MONTES JUNTOS",
      "house": "395",
      "postcode": "8200-419",
      "city": "GUIA ABF",
      "lon": "-8.325906567460637",
      "lat": "37.103559661212245"
    },
    {
      "id": "pt.ine.add.PTCONT.1806269",
      "street": "QTA FELICIDADE CASA CHIQUITA",
      "house": "3",
      "postcode": "8200-427",
      "city": "GUIA ABF",
      "lon": "-8.321942489247363",
      "lat": "37.102949831371824"
    },
    {
      "id": "pt.ine.add.PTCONT.1813076",
      "street": "QTA FELICIDADE CASA MARIA",
      "house": "",
      "postcode": "8200-427",
      "city": "GUIA ABF",
      "lon": "-8.322584739423432",
      "lat": "37.102922646232315"
    },
    {
      "id": "pt.ine.add.PTCONT.1817138",
      "street": "ESTR VALE PARRA",
      "house": "",
      "postcode": "8200-419",
      "city": "GUIA ABF",
      "lon": "-8.323327075513902",
      "lat": "37.10223926110796"
    },
    {
      "id": "pt.ine.add.PTCONT.1831479",
      "street": "CAM MONTES JUNTOS",
      "house": "",
      "postcode": "8200-419",
      "city": "GUIA ABF",
      "lon": "-8.324726141329188",
      "lat": "37.10346901178342"
    },
    {
      "id": "pt.ine.add.PTCONT.1841097",
      "street": "CAM MONTE JUNTOS QUINTA ISABELLA",
      "house": "CP 378 A",
      "postcode": "8200-419",
      "city": "GUIA ABF",
      "lon": "-8.320002469565837",
      "lat": "37.10438007253087"
    }
  ]
}