{
  "data": {
    "distrito": "Aveiro",
    "concelho": "Ílhavo",
    "freguesia": "Gafanha da Nazaré",
    "OBJECTID": 142,
    "BGRI2021": "01100600903",
    "DT21": "01",
    "DTMN21": "0110",
    "DTMNFR21": "011006",
    "DTMNFRSEC21": "011006009",
    "SECNUM21": "009",
    "SSNUM21": "03",
    "SECSSNUM21": "00903",
    "OBJECTID_1": 7259,
    "DT": "01",
    "CC": "10",
    "fr": "06",
    "SEC": "009",
    "SS": "03"
  },
  "addresses": [
    {
      "id": "pt.ine.add.PTCONT.290767",
      "street": "AV JOÃO CORTE REAL",
      "house": "156",
      "postcode": "3830-751",
      "city": "GAFANHA DA NAZARÉ",
      "lon": "-8.747149303619608",
      "lat": "40.63828773218083"
    },
    {
      "id": "pt.ine.add.PTCONT.290768",
      "street": "AV JOÃO CORTE REAL",
      "house": "156",
      "postcode": "3830-751",
      "city": "GAFANHA DA NAZARÉ",
      "lon": "-8.747149303619608",
      "lat": "40.63828773218083"
    },
    {
      "id": "pt.ine.add.PTCONT.290769",
      "street": "AV JOÃO CORTE REAL",
      "house": "156",
      "postcode": "3830-751",
      "city": "GAFANHA DA NAZARÉ",
      "lon": "-8.747149303619608",
      "lat": "40.63828773218083"
    },
    {
      "id": "pt.ine.add.PTCONT.290770",
      "street": "AV JOÃO CORTE REAL",
      "house": "156",
      "postcode": "3830-751",
      "city": "GAFANHA DA NAZARÉ",
      "lon": "-8.747149303619608",
      "lat": "40.63828773218083"
    },
    {
      "id": "pt.ine.add.PTCONT.290771",
      "street": "AV JOÃO CORTE REAL",
      "house": "156",
      "postcode": "3830-751",
      "city": "GAFANHA DA NAZARÉ",
      "lon": "-8.747149303619608",
      "lat": "40.63828773218083"
    },
    {
      "id": "pt.ine.add.PTCONT.290772",
      "street": "AV JOÃO CORTE REAL",
      "house": "156",
      "postcode": "3830-751",
      "city": "GAFANHA DA NAZARÉ",
      "lon": "-8.747149303619608",
      "lat": "40.63828773218083"
    },
    {
      "id": "pt.ine.add.PTCONT.296267",
      "street": "LG FAROL",
      "house": "",
      "postcode": "3830-753",
      "city": "GAFANHA DA NAZARÉ",
      "lon": "-8.747537510611847",
      "lat": "40.643238482631915"
    },
    {
      "id": "pt.ine.add.PTCONT.296268",
      "street": "LG FAROL",
      "house": "",
      "postcode": "3830-753",
      "city": "GAFANHA DA NAZARÉ",
      "lon": "-8.747537510611847",
      "lat": "40.643238482631915"
    },
    {
      "id": "pt.ine.add.PTCONT.296269",
      "street": "LG FAROL",
      "house": "",
      "postcode": "3830-753",
      "city": "GAFANHA DA NAZARÉ",
      "lon": "-8.747537510611847",
      "lat": "40.643238482631915"
    },
    {
      "id": "pt.ine.add.PTCONT.296270",
      "street": "LG FAROL",
      "house": "",
      "postcode": "3830-753",
      "city": "GAFANHA DA NAZARÉ",
      "lon": "-8.747537510611847",
      "lat": "40.643238482631915"
    },
    {
      "id": "pt.ine.add.PTCONT.301413",
      "street": "AV JOÃO CORTE REAL",
      "house": "112",
      "postcode": "3830-751",
      "city": "GAFANHA DA NAZARÉ",
      "lon": "-8.747184249192031",
      "lat": "40.63952124803479"
    },
    {
      "id": "pt.ine.add.PTCONT.302632",
      "street": "AV JOÃO CORTE REAL",
      "house": "120",
      "postcode": "3830-751",
      "city": "GAFANHA DA NAZARÉ",
      "lon": "-8.747170283028247",
      "lat": "40.639287189156214"
    },
    {
      "id": "pt.ine.add.PTCONT.302633",
      "street": "AV JOÃO CORTE REAL",
      "house": "120",
      "postcode": "3830-751",
      "city": "GAFANHA DA NAZARÉ",
      "lon": "-8.747170283028247",
      "lat": "40.639287189156214"
    },
    {
      "id": "pt.ine.add.PTCONT.302634",
      "street": "AV JOÃO CORTE REAL",
      "house": "120",
      "postcode": "3830-751",
      "city": "GAFANHA DA NAZARÉ",
      "lon": "-8.747170283028247",
      "lat": "40.639287189156214"
    },
    {
      "id": "pt.ine.add.PTCONT.302635",
      "street": "AV JOÃO CORTE REAL",
      "house": "120",
      "postcode": "3830-751",
      "city": "GAFANHA DA NAZARÉ",
      "lon": "-8.747170283028247",
      "lat": "40.639287189156214"
    },
    {
      "id": "pt.ine.add.PTCONT.302636",
      "street": "AV JOÃO CORTE REAL",
      "house": "120",
      "postcode": "3830-751",
      "city": "GAFANHA DA NAZARÉ",
      "lon": "-8.747170283028247",
      "lat": "40.639287189156214"
    },
    {
      "id": "pt.ine.add.PTCONT.302637",
      "street": "AV JOÃO CORTE REAL",
      "house": "120",
      "postcode": "3830-751",
      "city": "GAFANHA DA NAZARÉ",
      "lon": "-8.747170283028247",
      "lat": "40.639287189156214"
    },
    {
      "id": "pt.ine.add.PTCONT.314582",
      "street": "R MANUEL FACICA",
      "house": "",
      "postcode": "3830-781",
      "city": "GAFANHA DA NAZARÉ",
      "lon": "-8.747652976104204",
      "lat": "40.63649303324584"
    },
    {
      "id": "pt.ine.add.PTCONT.317247",
      "street": "AV INF D HENRIQUE",
      "house": "",
      "postcode": "3830-750",
      "city": "GAFANHA DA NAZARÉ",
      "lon": "-8.747918523270998",
      "lat": "40.64353362349645"
    },
    {
      "id": "pt.ine.add.PTCONT.317248",
      "street": "AV INF D HENRIQUE",
      "house": "",
      "postcode": "3830-750",
      "city": "GAFANHA DA NAZARÉ",
      "lon": "-8.747918523270998",
      "lat": "40.64353362349645"
    },
    {
      "id": "pt.ine.add.PTCONT.317249",
      "street": "AV INF D HENRIQUE",
      "house": "",
      "postcode": "3830-750",
      "city": "GAFANHA DA NAZARÉ",
      "lon": "-8.747918523270998",
      "lat": "40.64353362349645"
    },
    {
      "id": "pt.ine.add.PTCONT.317250",
      "street": "AV INF D HENRIQUE",
      "house": "",
      "postcode": "3830-750",
      "city": "GAFANHA DA NAZARÉ",
      "lon": "-8.747918523270998",
      "lat": "40.64353362349645"
    },
    {
      "id": "pt.ine.add.PTCONT.317251",
      "street": "AV INF D HENRIQUE",
      "house": "",
      "postcode": "3830-750",
      "city": "GAFANHA DA NAZARÉ",
      "lon": "-8.747918523270998",
      "lat": "40.64353362349645"
    },
    {
      "id": "pt.ine.add.PTCONT.317252",
      "street": "AV INF D HENRIQUE",
      "house": "",
      "postcode": "3830-750",
      "city": "GAFANHA DA NAZARÉ",
      "lon": "-8.747918523270998",
      "lat": "40.64353362349645"
    },
    {
      "id": "pt.ine.add.PTCONT.321899",
      "street": "AV JOÃO CORTE REAL",
      "house": "162",
      "postcode": "3830-751",
      "city": "GAFANHA DA NAZARÉ",
      "lon": "-8.74714625083262",
      "lat": "40.6379545588647"
    },
    {
      "id": "pt.ine.add.PTCONT.321900",
      "street": "AV JOÃO CORTE REAL",
      "house": "162",
      "postcode": "3830-751",
      "city": "GAFANHA DA NAZARÉ",
      "lon": "-8.74714625083262",
      "lat": "40.6379545588647"
    },
    {
      "id": "pt.ine.add.PTCONT.321901",
      "street": "AV JOÃO CORTE REAL",
      "house": "182",
      "postcode": "3830-751",
      "city": "GAFANHA DA NAZARÉ",
      "lon": "-8.747244630992471",
      "lat": "40.637080538697425"
    },
    {
      "id": "pt.ine.add.PTCONT.321902",
      "street": "AV JOÃO CORTE REAL",
      "house": "182",
      "postcode": "3830-751",
      "city": "GAFANHA DA NAZARÉ",
      "lon": "-8.747244630992471",
      "lat": "40.637080538697425"
    },
    {
      "id": "pt.ine.add.PTCONT.321903",
      "street": "AV JOÃO CORTE REAL",
      "house": "182",
      "postcode": "3830-751",
      "city": "GAFANHA DA NAZARÉ",
      "lon": "-8.747244630992471",
      "lat": "40.637080538697425"
    },
    {
      "id": "pt.ine.add.PTCONT.321904",
      "street": "AV JOÃO CORTE REAL",
      "house": "182",
      "postcode": "3830-751",
      "city": "GAFANHA DA NAZARÉ",
      "lon": "-8.747244630992471",
      "lat": "40.637080538697425"
    },
    {
      "id": "pt.ine.add.PTCONT.321905",
      "street": "AV JOÃO CORTE REAL",
      "house": "182",
      "postcode": "3830-751",
      "city": "GAFANHA DA NAZARÉ",
      "lon": "-8.747244630992471",
      "lat": "40.637080538697425"
    },
    {
      "id": "pt.ine.add.PTCONT.321906",
      "street": "AV JOÃO CORTE REAL",
      "house": "182",
      "postcode": "3830-751",
      "city": "GAFANHA DA NAZARÉ",
      "lon": "-8.747244630992471",
      "lat": "40.637080538697425"
    },
    {
      "id": "pt.ine.add.PTCONT.321907",
      "street": "AV JOÃO CORTE REAL",
      "house": "182",
      "postcode": "3830-751",
      "city": "GAFANHA DA NAZARÉ",
      "lon": "-8.747244630992471",
      "lat": "40.637080538697425"
    },
    {
      "id": "pt.ine.add.PTCONT.321908",
      "street": "AV JOÃO CORTE REAL",
      "house": "182",
      "postcode": "3830-751",
      "city": "GAFANHA DA NAZARÉ",
      "lon": "-8.747244630992471",
      "lat": "40.637080538697425"
    },
    {
      "id": "pt.ine.add.PTCONT.323495",
      "street": "AV JOÃO CORTE REAL",
      "house": "162",
      "postcode": "3830-751",
      "city": "GAFANHA DA NAZARÉ",
      "lon": "-8.74714625083262",
      "lat": "40.6379545588647"
    },
    {
      "id": "pt.ine.add.PTCONT.323550",
      "street": "AV JOÃO CORTE REAL",
      "house": "162",
      "postcode": "3830-751",
      "city": "GAFANHA DA NAZARÉ",
      "lon": "-8.74714625083262",
      "lat": "40.6379545588647"
    },
    {
      "id": "pt.ine.add.PTCONT.324145",
      "street": "AV JOÃO CORTE REAL",
      "house": "134",
      "postcode": "3830-751",
      "city": "GAFANHA DA NAZARÉ",
      "lon": "-8.747142516042109",
      "lat": "40.63883708072972"
    },
    {
      "id": "pt.ine.add.PTCONT.324146",
      "street": "AV JOÃO CORTE REAL",
      "house": "134",
      "postcode": "3830-751",
      "city": "GAFANHA DA NAZARÉ",
      "lon": "-8.747142516042109",
      "lat": "40.63883708072972"
    },
    {
      "id": "pt.ine.add.PTCONT.324147",
      "street": "AV JOÃO CORTE REAL",
      "house": "134",
      "postcode": "3830-751",
      "city": "GAFANHA DA NAZARÉ",
      "lon": "-8.747142516042109",
      "lat": "40.63883708072972"
    },
    {
      "id": "pt.ine.add.PTCONT.324148",
      "street": "AV JOÃO CORTE REAL",
      "house": "134",
      "postcode": "3830-751",
      "city": "GAFANHA DA NAZARÉ",
      "lon": "-8.747142516042109",
      "lat": "40.63883708072972"
    },
    {
      "id": "pt.ine.add.PTCONT.324149",
      "street": "AV JOÃO CORTE REAL",
      "house": "134",
      "postcode": "3830-751",
      "city": "GAFANHA DA NAZARÉ",
      "lon": "-8.747142516042109",
      "lat": "40.63883708072972"
    },
    {
      "id": "pt.ine.add.PTCONT.324150",
      "street": "AV JOÃO CORTE REAL",
      "house": "134",
      "postcode": "3830-751",
      "city": "GAFANHA DA NAZARÉ",
      "lon": "-8.747142516042109",
      "lat": "40.63883708072972"
    },
    {
      "id": "pt.ine.add.PTCONT.324151",
      "street": "AV JOÃO CORTE REAL",
      "house": "134",
      "postcode": "3830-751",
      "city": "GAFANHA DA NAZARÉ",
      "lon": "-8.747142516042109",
      "lat": "40.63883708072972"
    },
    {
      "id": "pt.ine.add.PTCONT.328023",
      "street": "LG FAROL",
      "house": "",
      "postcode": "3830-753",
      "city": "GAFANHA DA NAZARÉ",
      "lon": "-8.747624236446184",
      "lat": "40.642382535171066"
    },
    {
      "id": "pt.ine.add.PTCONT.328024",
      "street": "LG FAROL",
      "house": "",
      "postcode": "3830-753",
      "city": "GAFANHA DA NAZARÉ",
      "lon": "-8.747624236446184",
      "lat": "40.642382535171066"
    },
    {
      "id": "pt.ine.add.PTCONT.328026",
      "street": "LG FAROL",
      "house": "",
      "postcode": "3830-753",
      "city": "GAFANHA DA NAZARÉ",
      "lon": "-8.747624236446184",
      "lat": "40.642382535171066"
    },
    {
      "id": "pt.ine.add.PTCONT.328027",
      "street": "LG FAROL",
      "house": "",
      "postcode": "3830-753",
      "city": "GAFANHA DA NAZARÉ",
      "lon": "-8.747624236446184",
      "lat": "40.642382535171066"
    },
    {
      "id": "pt.ine.add.PTCONT.328028",
      "street": "LG FAROL",
      "house": "",
      "postcode": "3830-753",
      "city": "GAFANHA DA NAZARÉ",
      "lon": "-8.747624236446184",
      "lat": "40.642382535171066"
    },
    {
      "id": "pt.ine.add.PTCONT.328029",
      "street": "LG FAROL",
      "house": "",
      "postcode": "3830-753",
      "city": "GAFANHA DA NAZARÉ",
      "lon": "-8.747624236446184",
      "lat": "40.642382535171066"
    },
    {
      "id": "pt.ine.add.PTCONT.330331",
      "street": "AV JOÃO CORTE REAL",
      "house": "44",
      "postcode": "3830-751",
      "city": "GAFANHA DA NAZARÉ",
      "lon": "-8.747240755733406",
      "lat": "40.641817252878006"
    },
    {
      "id": "pt.ine.add.PTCONT.330449",
      "street": "AV JOÃO CORTE REAL",
      "house": "134 A",
      "postcode": "3830-751",
      "city": "GAFANHA DA NAZARÉ",
      "lon": "-8.747473494566064",
      "lat": "40.63883532036076"
    },
    {
      "id": "pt.ine.add.PTCONT.333414",
      "street": "LG FAROL",
      "house": "",
      "postcode": "3830-753",
      "city": "GAFANHA DA NAZARÉ",
      "lon": "-8.747691106702517",
      "lat": "40.64322866016226"
    },
    {
      "id": "pt.ine.add.PTCONT.333415",
      "street": "LG FAROL",
      "house": "",
      "postcode": "3830-753",
      "city": "GAFANHA DA NAZARÉ",
      "lon": "-8.747691106702517",
      "lat": "40.64322866016226"
    },
    {
      "id": "pt.ine.add.PTCONT.333416",
      "street": "LG FAROL",
      "house": "",
      "postcode": "3830-753",
      "city": "GAFANHA DA NAZARÉ",
      "lon": "-8.747691106702517",
      "lat": "40.64322866016226"
    },
    {
      "id": "pt.ine.add.PTCONT.333417",
      "street": "LG FAROL",
      "house": "",
      "postcode": "3830-753",
      "city": "GAFANHA DA NAZARÉ",
      "lon": "-8.747691106702517",
      "lat": "40.64322866016226"
    },
    {
      "id": "pt.ine.add.PTCONT.338770",
      "street": "AV JOÃO CORTE REAL",
      "house": "80",
      "postcode": "3830-751",
      "city": "GAFANHA DA NAZARÉ",
      "lon": "-8.747216307981752",
      "lat": "40.64043959979805"
    },
    {
      "id": "pt.ine.add.PTCONT.338771",
      "street": "AV JOÃO CORTE REAL",
      "house": "80",
      "postcode": "3830-751",
      "city": "GAFANHA DA NAZARÉ",
      "lon": "-8.747216307981752",
      "lat": "40.64043959979805"
    },
    {
      "id": "pt.ine.add.PTCONT.338772",
      "street": "AV JOÃO CORTE REAL",
      "house": "80",
      "postcode": "3830-751",
      "city": "GAFANHA DA NAZARÉ",
      "lon": "-8.747216307981752",
      "lat": "40.64043959979805"
    },
    {
      "id": "pt.ine.add.PTCONT.338773",
      "street": "AV JOÃO CORTE REAL",
      "house": "80",
      "postcode": "3830-751",
      "city": "GAFANHA DA NAZARÉ",
      "lon": "-8.747216307981752",
      "lat": "40.64043959979805"
    },
    {
      "id": "pt.ine.add.PTCONT.338774",
      "street": "AV JOÃO CORTE REAL",
      "house": "80",
      "postcode": "3830-751",
      "city": "GAFANHA DA NAZARÉ",
      "lon": "-8.747216307981752",
      "lat": "40.64043959979805"
    },
    {
      "id": "pt.ine.add.PTCONT.338775",
      "street": "AV JOÃO CORTE REAL",
      "house": "80",
      "postcode": "3830-751",
      "city": "GAFANHA DA NAZARÉ",
      "lon": "-8.747216307981752",
      "lat": "40.64043959979805"
    },
    {
      "id": "pt.ine.add.PTCONT.338776",
      "street": "AV JOÃO CORTE REAL",
      "house": "80",
      "postcode": "3830-751",
      "city": "GAFANHA DA NAZARÉ",
      "lon": "-8.747216307981752",
      "lat": "40.64043959979805"
    },
    {
      "id": "pt.ine.add.PTCONT.338777",
      "street": "AV JOÃO CORTE REAL",
      "house": "80",
      "postcode": "3830-751",
      "city": "GAFANHA DA NAZARÉ",
      "lon": "-8.747216307981752",
      "lat": "40.64043959979805"
    },
    {
      "id": "pt.ine.add.PTCONT.341445",
      "street": "AV JOÃO CORTE REAL",
      "house": "36",
      "postcode": "3830-751",
      "city": "GAFANHA DA NAZARÉ",
      "lon": "-8.747243396744613",
      "lat": "40.642105402575716"
    },
    {
      "id": "pt.ine.add.PTCONT.343339",
      "street": "PCT S JOÃO",
      "house": "10",
      "postcode": "3830-759",
      "city": "GAFANHA DA NAZARÉ",
      "lon": "-8.747857935861719",
      "lat": "40.642084122458"
    },
    {
      "id": "pt.ine.add.PTCONT.348100",
      "street": "PCT MOLHO SUL",
      "house": "1",
      "postcode": "3830-760",
      "city": "GAFANHA DA NAZARÉ",
      "lon": "-8.747521340723328",
      "lat": "40.6401858339075"
    },
    {
      "id": "pt.ine.add.PTCONT.348192",
      "street": "PCT S JOÃO",
      "house": "8",
      "postcode": "3830-759",
      "city": "GAFANHA DA NAZARÉ",
      "lon": "-8.747680699949113",
      "lat": "40.64209407095994"
    },
    {
      "id": "pt.ine.add.PTCONT.348638",
      "street": "R MANUEL FACICA",
      "house": "",
      "postcode": "3830-781",
      "city": "GAFANHA DA NAZARÉ",
      "lon": "-8.747296223069535",
      "lat": "40.63626079792716"
    },
    {
      "id": "pt.ine.add.PTCONT.350018",
      "street": "LG FAROL",
      "house": "",
      "postcode": "3830-753",
      "city": "GAFANHA DA NAZARÉ",
      "lon": "-8.747584796362158",
      "lat": "40.643238231024675"
    },
    {
      "id": "pt.ine.add.PTCONT.350860",
      "street": "AV JOÃO CORTE REAL",
      "house": "100",
      "postcode": "3830-751",
      "city": "GAFANHA DA NAZARÉ",
      "lon": "-8.747233677935212",
      "lat": "40.63975511831535"
    },
    {
      "id": "pt.ine.add.PTCONT.351482",
      "street": "AV JOÃO CORTE REAL",
      "house": "52",
      "postcode": "3830-751",
      "city": "GAFANHA DA NAZARÉ",
      "lon": "-8.747320697634937",
      "lat": "40.6415106537128"
    },
    {
      "id": "pt.ine.add.PTCONT.6608",
      "street": "PCT S JOÃO",
      "house": "10",
      "postcode": "3830-759",
      "city": "GAFANHA DA NAZARÉ",
      "lon": "-8.747857935861719",
      "lat": "40.642084122458"
    },
    {
      "id": "pt.ine.add.PTCONT.6610",
      "street": "PCT S JOÃO",
      "house": "10",
      "postcode": "3830-759",
      "city": "GAFANHA DA NAZARÉ",
      "lon": "-8.747857935861719",
      "lat": "40.642084122458"
    },
    {
      "id": "pt.ine.add.PTCONT.6611",
      "street": "PCT S JOÃO",
      "house": "10",
      "postcode": "3830-759",
      "city": "GAFANHA DA NAZARÉ",
      "lon": "-8.747857935861719",
      "lat": "40.642084122458"
    },
    {
      "id": "pt.ine.add.PTCONT.6612",
      "street": "PCT S JOÃO",
      "house": "10",
      "postcode": "3830-759",
      "city": "GAFANHA DA NAZARÉ",
      "lon": "-8.747857935861719",
      "lat": "40.642084122458"
    },
    {
      "id": "pt.ine.add.PTCONT.6613",
      "street": "PCT S JOÃO",
      "house": "10",
      "postcode": "3830-759",
      "city": "GAFANHA DA NAZARÉ",
      "lon": "-8.747857935861719",
      "lat": "40.642084122458"
    },
    {
      "id": "pt.ine.add.PTCONT.17604",
      "street": "AV INF D HENRIQUE",
      "house": "6",
      "postcode": "3830-750",
      "city": "GAFANHA DA NAZARÉ",
      "lon": "-8.747693914975585",
      "lat": "40.64353481911468"
    },
    {
      "id": "pt.ine.add.PTCONT.17605",
      "street": "AV INF D HENRIQUE",
      "house": "",
      "postcode": "3830-750",
      "city": "GAFANHA DA NAZARÉ",
      "lon": "-8.747693914975585",
      "lat": "40.64353481911468"
    },
    {
      "id": "pt.ine.add.PTCONT.17606",
      "street": "AV INF D HENRIQUE",
      "house": "",
      "postcode": "3830-750",
      "city": "GAFANHA DA NAZARÉ",
      "lon": "-8.747693914975585",
      "lat": "40.64353481911468"
    },
    {
      "id": "pt.ine.add.PTCONT.17607",
      "street": "AV INF D HENRIQUE",
      "house": "",
      "postcode": "3830-750",
      "city": "GAFANHA DA NAZARÉ",
      "lon": "-8.747693914975585",
      "lat": "40.64353481911468"
    },
    {
      "id": "pt.ine.add.PTCONT.17743",
      "street": "AV INF D HENRIQUE",
      "house": "",
      "postcode": "3830-750",
      "city": "GAFANHA DA NAZARÉ",
      "lon": "-8.747693914975585",
      "lat": "40.64353481911468"
    },
    {
      "id": "pt.ine.add.PTCONT.17744",
      "street": "AV JOÃO CORTE REAL",
      "house": "52 A",
      "postcode": "3830-751",
      "city": "GAFANHA DA NAZARÉ",
      "lon": "-8.747462551231994",
      "lat": "40.64150989912558"
    },
    {
      "id": "pt.ine.add.PTCONT.17745",
      "street": "AV JOÃO CORTE REAL",
      "house": "52 A",
      "postcode": "3830-751",
      "city": "GAFANHA DA NAZARÉ",
      "lon": "-8.747462551231994",
      "lat": "40.64150989912558"
    },
    {
      "id": "pt.ine.add.PTCONT.17746",
      "street": "AV JOÃO CORTE REAL",
      "house": "52 A",
      "postcode": "3830-751",
      "city": "GAFANHA DA NAZARÉ",
      "lon": "-8.747462551231994",
      "lat": "40.64150989912558"
    },
    {
      "id": "pt.ine.add.PTCONT.17747",
      "street": "AV JOÃO CORTE REAL",
      "house": "52 A",
      "postcode": "3830-751",
      "city": "GAFANHA DA NAZARÉ",
      "lon": "-8.747462551231994",
      "lat": "40.64150989912558"
    },
    {
      "id": "pt.ine.add.PTCONT.17748",
      "street": "AV JOÃO CORTE REAL",
      "house": "52 A",
      "postcode": "3830-751",
      "city": "GAFANHA DA NAZARÉ",
      "lon": "-8.747462551231994",
      "lat": "40.64150989912558"
    },
    {
      "id": "pt.ine.add.PTCONT.17749",
      "street": "AV JOÃO CORTE REAL",
      "house": "52 A",
      "postcode": "3830-751",
      "city": "GAFANHA DA NAZARÉ",
      "lon": "-8.747462551231994",
      "lat": "40.64150989912558"
    },
    {
      "id": "pt.ine.add.PTCONT.27868",
      "street": "AV JOÃO CORTE REAL",
      "house": "",
      "postcode": "3830-751",
      "city": "GAFANHA DA NAZARÉ",
      "lon": "-8.747278511998578",
      "lat": "40.64335692691249"
    },
    {
      "id": "pt.ine.add.PTCONT.27869",
      "street": "AV JOÃO CORTE REAL",
      "house": "",
      "postcode": "3830-751",
      "city": "GAFANHA DA NAZARÉ",
      "lon": "-8.747278511998578",
      "lat": "40.64335692691249"
    },
    {
      "id": "pt.ine.add.PTCONT.27870",
      "street": "AV JOÃO CORTE REAL",
      "house": "",
      "postcode": "3830-751",
      "city": "GAFANHA DA NAZARÉ",
      "lon": "-8.747278511998578",
      "lat": "40.64335692691249"
    },
    {
      "id": "pt.ine.add.PTCONT.27871",
      "street": "AV JOÃO CORTE REAL",
      "house": "",
      "postcode": "3830-751",
      "city": "GAFANHA DA NAZARÉ",
      "lon": "-8.747278511998578",
      "lat": "40.64335692691249"
    },
    {
      "id": "pt.ine.add.PTCONT.27872",
      "street": "AV JOÃO CORTE REAL",
      "house": "122",
      "postcode": "3830-751",
      "city": "GAFANHA DA NAZARÉ",
      "lon": "-8.747192934305517",
      "lat": "40.63917900725136"
    },
    {
      "id": "pt.ine.add.PTCONT.27873",
      "street": "AV JOÃO CORTE REAL",
      "house": "122",
      "postcode": "3830-751",
      "city": "GAFANHA DA NAZARÉ",
      "lon": "-8.747192934305517",
      "lat": "40.63917900725136"
    },
    {
      "id": "pt.ine.add.PTCONT.27874",
      "street": "AV JOÃO CORTE REAL",
      "house": "122",
      "postcode": "3830-751",
      "city": "GAFANHA DA NAZARÉ",
      "lon": "-8.747192934305517",
      "lat": "40.63917900725136"
    },
    {
      "id": "pt.ine.add.PTCONT.30268",
      "street": "AV INF D HENRIQUE",
      "house": "",
      "postcode": "3830-750",
      "city": "GAFANHA DA NAZARÉ",
      "lon": "-8.747445746249593",
      "lat": "40.64354514475447"
    },
    {
      "id": "pt.ine.add.PTCONT.33864",
      "street": "AV JOÃO CORTE REAL",
      "house": "34",
      "postcode": "3830-751",
      "city": "GAFANHA DA NAZARÉ",
      "lon": "-8.747232153221363",
      "lat": "40.64216849818754"
    },
    {
      "id": "pt.ine.add.PTCONT.35909",
      "street": "AV JOÃO CORTE REAL",
      "house": "100",
      "postcode": "3830-751",
      "city": "GAFANHA DA NAZARÉ",
      "lon": "-8.747233677935212",
      "lat": "40.63975511831535"
    },
    {
      "id": "pt.ine.add.PTCONT.35910",
      "street": "AV JOÃO CORTE REAL",
      "house": "100",
      "postcode": "3830-751",
      "city": "GAFANHA DA NAZARÉ",
      "lon": "-8.747233677935212",
      "lat": "40.63975511831535"
    },
    {
      "id": "pt.ine.add.PTCONT.35911",
      "street": "AV JOÃO CORTE REAL",
      "house": "100",
      "postcode": "3830-751",
      "city": "GAFANHA DA NAZARÉ",
      "lon": "-8.747233677935212",
      "lat": "40.63975511831535"
    },
    {
      "id": "pt.ine.add.PTCONT.35912",
      "street": "AV JOÃO CORTE REAL",
      "house": "100",
      "postcode": "3830-751",
      "city": "GAFANHA DA NAZARÉ",
      "lon": "-8.747233677935212",
      "lat": "40.63975511831535"
    },
    {
      "id": "pt.ine.add.PTCONT.35913",
      "street": "AV JOÃO CORTE REAL",
      "house": "100",
      "postcode": "3830-751",
      "city": "GAFANHA DA NAZARÉ",
      "lon": "-8.747233677935212",
      "lat": "40.63975511831535"
    },
    {
      "id": "pt.ine.add.PTCONT.35919",
      "street": "AV JOÃO CORTE REAL",
      "house": "100",
      "postcode": "3830-751",
      "city": "GAFANHA DA NAZARÉ",
      "lon": "-8.747233677935212",
      "lat": "40.63975511831535"
    },
    {
      "id": "pt.ine.add.PTCONT.35920",
      "street": "AV JOÃO CORTE REAL",
      "house": "100",
      "postcode": "3830-751",
      "city": "GAFANHA DA NAZARÉ",
      "lon": "-8.747233677935212",
      "lat": "40.63975511831535"
    },
    {
      "id": "pt.ine.add.PTCONT.35921",
      "street": "AV JOÃO CORTE REAL",
      "house": "100",
      "postcode": "3830-751",
      "city": "GAFANHA DA NAZARÉ",
      "lon": "-8.747233677935212",
      "lat": "40.63975511831535"
    },
    {
      "id": "pt.ine.add.PTCONT.35922",
      "street": "AV JOÃO CORTE REAL",
      "house": "100",
      "postcode": "3830-751",
      "city": "GAFANHA DA NAZARÉ",
      "lon": "-8.747233677935212",
      "lat": "40.63975511831535"
    },
    {
      "id": "pt.ine.add.PTCONT.35923",
      "street": "AV JOÃO CORTE REAL",
      "house": "100",
      "postcode": "3830-751",
      "city": "GAFANHA DA NAZARÉ",
      "lon": "-8.747233677935212",
      "lat": "40.63975511831535"
    },
    {
      "id": "pt.ine.add.PTCONT.35924",
      "street": "AV JOÃO CORTE REAL",
      "house": "100",
      "postcode": "3830-751",
      "city": "GAFANHA DA NAZARÉ",
      "lon": "-8.747233677935212",
      "lat": "40.63975511831535"
    },
    {
      "id": "pt.ine.add.PTCONT.37326",
      "street": "LG FAROL",
      "house": "",
      "postcode": "3830-753",
      "city": "GAFANHA DA NAZARÉ",
      "lon": "-8.748089564238645",
      "lat": "40.642848324002024"
    },
    {
      "id": "pt.ine.add.PTCONT.37327",
      "street": "LG FAROL",
      "house": "",
      "postcode": "3830-753",
      "city": "GAFANHA DA NAZARÉ",
      "lon": "-8.748089564238645",
      "lat": "40.642848324002024"
    },
    {
      "id": "pt.ine.add.PTCONT.37328",
      "street": "LG FAROL",
      "house": "",
      "postcode": "3830-753",
      "city": "GAFANHA DA NAZARÉ",
      "lon": "-8.748089564238645",
      "lat": "40.642848324002024"
    },
    {
      "id": "pt.ine.add.PTCONT.37329",
      "street": "LG FAROL",
      "house": "",
      "postcode": "3830-753",
      "city": "GAFANHA DA NAZARÉ",
      "lon": "-8.748089564238645",
      "lat": "40.642848324002024"
    },
    {
      "id": "pt.ine.add.PTCONT.37330",
      "street": "LG FAROL",
      "house": "",
      "postcode": "3830-753",
      "city": "GAFANHA DA NAZARÉ",
      "lon": "-8.748089564238645",
      "lat": "40.642848324002024"
    },
    {
      "id": "pt.ine.add.PTCONT.44266",
      "street": "AV JOÃO CORTE REAL",
      "house": "142",
      "postcode": "3830-751",
      "city": "GAFANHA DA NAZARÉ",
      "lon": "-8.747187818329285",
      "lat": "40.638620716909706"
    },
    {
      "id": "pt.ine.add.PTCONT.44267",
      "street": "AV JOÃO CORTE REAL",
      "house": "142",
      "postcode": "3830-751",
      "city": "GAFANHA DA NAZARÉ",
      "lon": "-8.747187818329285",
      "lat": "40.638620716909706"
    },
    {
      "id": "pt.ine.add.PTCONT.44268",
      "street": "AV JOÃO CORTE REAL",
      "house": "142",
      "postcode": "3830-751",
      "city": "GAFANHA DA NAZARÉ",
      "lon": "-8.747187818329285",
      "lat": "40.638620716909706"
    },
    {
      "id": "pt.ine.add.PTCONT.44269",
      "street": "AV JOÃO CORTE REAL",
      "house": "142",
      "postcode": "3830-751",
      "city": "GAFANHA DA NAZARÉ",
      "lon": "-8.747187818329285",
      "lat": "40.638620716909706"
    },
    {
      "id": "pt.ine.add.PTCONT.44270",
      "street": "AV JOÃO CORTE REAL",
      "house": "142",
      "postcode": "3830-751",
      "city": "GAFANHA DA NAZARÉ",
      "lon": "-8.747187818329285",
      "lat": "40.638620716909706"
    },
    {
      "id": "pt.ine.add.PTCONT.44271",
      "street": "AV JOÃO CORTE REAL",
      "house": "142",
      "postcode": "3830-751",
      "city": "GAFANHA DA NAZARÉ",
      "lon": "-8.747187818329285",
      "lat": "40.638620716909706"
    },
    {
      "id": "pt.ine.add.PTCONT.44272",
      "street": "AV JOÃO CORTE REAL",
      "house": "142",
      "postcode": "3830-751",
      "city": "GAFANHA DA NAZARÉ",
      "lon": "-8.747187818329285",
      "lat": "40.638620716909706"
    },
    {
      "id": "pt.ine.add.PTCONT.44273",
      "street": "AV JOÃO CORTE REAL",
      "house": "142",
      "postcode": "3830-751",
      "city": "GAFANHA DA NAZARÉ",
      "lon": "-8.747187818329285",
      "lat": "40.638620716909706"
    },
    {
      "id": "pt.ine.add.PTCONT.44274",
      "street": "AV JOÃO CORTE REAL",
      "house": "142",
      "postcode": "3830-751",
      "city": "GAFANHA DA NAZARÉ",
      "lon": "-8.747187818329285",
      "lat": "40.638620716909706"
    },
    {
      "id": "pt.ine.add.PTCONT.44275",
      "street": "AV JOÃO CORTE REAL",
      "house": "142",
      "postcode": "3830-751",
      "city": "GAFANHA DA NAZARÉ",
      "lon": "-8.747187818329285",
      "lat": "40.638620716909706"
    },
    {
      "id": "pt.ine.add.PTCONT.44276",
      "street": "AV JOÃO CORTE REAL",
      "house": "142",
      "postcode": "3830-751",
      "city": "GAFANHA DA NAZARÉ",
      "lon": "-8.747187818329285",
      "lat": "40.638620716909706"
    },
    {
      "id": "pt.ine.add.PTCONT.45257",
      "street": "AV JOÃO CORTE REAL",
      "house": "142",
      "postcode": "3830-751",
      "city": "GAFANHA DA NAZARÉ",
      "lon": "-8.747187818329285",
      "lat": "40.638620716909706"
    },
    {
      "id": "pt.ine.add.PTCONT.50684",
      "street": "AV JOÃO CORTE REAL",
      "house": "140",
      "postcode": "3830-751",
      "city": "GAFANHA DA NAZARÉ",
      "lon": "-8.747165332245",
      "lat": "40.63874690818913"
    },
    {
      "id": "pt.ine.add.PTCONT.50685",
      "street": "AV JOÃO CORTE REAL",
      "house": "140",
      "postcode": "3830-751",
      "city": "GAFANHA DA NAZARÉ",
      "lon": "-8.747165332245",
      "lat": "40.63874690818913"
    },
    {
      "id": "pt.ine.add.PTCONT.51650",
      "street": "AV JOÃO CORTE REAL",
      "house": "",
      "postcode": "3830-751",
      "city": "GAFANHA DA NAZARÉ",
      "lon": "-8.747228109253522",
      "lat": "40.64172726896089"
    },
    {
      "id": "pt.ine.add.PTCONT.51651",
      "street": "AV JOÃO CORTE REAL",
      "house": "158",
      "postcode": "3830-751",
      "city": "GAFANHA DA NAZARÉ",
      "lon": "-8.747148561045101",
      "lat": "40.63820669002464"
    },
    {
      "id": "pt.ine.add.PTCONT.51652",
      "street": "AV JOÃO CORTE REAL",
      "house": "158",
      "postcode": "3830-751",
      "city": "GAFANHA DA NAZARÉ",
      "lon": "-8.747148561045101",
      "lat": "40.63820669002464"
    },
    {
      "id": "pt.ine.add.PTCONT.51653",
      "street": "AV JOÃO CORTE REAL",
      "house": "158",
      "postcode": "3830-751",
      "city": "GAFANHA DA NAZARÉ",
      "lon": "-8.747148561045101",
      "lat": "40.63820669002464"
    },
    {
      "id": "pt.ine.add.PTCONT.51654",
      "street": "AV JOÃO CORTE REAL",
      "house": "158",
      "postcode": "3830-751",
      "city": "GAFANHA DA NAZARÉ",
      "lon": "-8.747148561045101",
      "lat": "40.63820669002464"
    },
    {
      "id": "pt.ine.add.PTCONT.51655",
      "street": "AV JOÃO CORTE REAL",
      "house": "158",
      "postcode": "3830-751",
      "city": "GAFANHA DA NAZARÉ",
      "lon": "-8.747148561045101",
      "lat": "40.63820669002464"
    },
    {
      "id": "pt.ine.add.PTCONT.60150",
      "street": "AV JOÃO CORTE REAL",
      "house": "106",
      "postcode": "3830-751",
      "city": "GAFANHA DA NAZARÉ",
      "lon": "-8.747208963519254",
      "lat": "40.63963818317921"
    },
    {
      "id": "pt.ine.add.PTCONT.62892",
      "street": "AV JOÃO CORTE REAL",
      "house": "176 H 178",
      "postcode": "3830-751",
      "city": "GAFANHA DA NAZARÉ",
      "lon": "-8.747200567556566",
      "lat": "40.63743197286815"
    },
    {
      "id": "pt.ine.add.PTCONT.62893",
      "street": "AV JOÃO CORTE REAL",
      "house": "176 H 178",
      "postcode": "3830-751",
      "city": "GAFANHA DA NAZARÉ",
      "lon": "-8.747200567556566",
      "lat": "40.63743197286815"
    },
    {
      "id": "pt.ine.add.PTCONT.70996",
      "street": "LG FAROL",
      "house": "",
      "postcode": "3830-753",
      "city": "GAFANHA DA NAZARÉ",
      "lon": "-8.747584796362158",
      "lat": "40.643238231024675"
    },
    {
      "id": "pt.ine.add.PTCONT.70997",
      "street": "LG FAROL",
      "house": "",
      "postcode": "3830-753",
      "city": "GAFANHA DA NAZARÉ",
      "lon": "-8.747584796362158",
      "lat": "40.643238231024675"
    },
    {
      "id": "pt.ine.add.PTCONT.70998",
      "street": "LG FAROL",
      "house": "",
      "postcode": "3830-753",
      "city": "GAFANHA DA NAZARÉ",
      "lon": "-8.747584796362158",
      "lat": "40.643238231024675"
    },
    {
      "id": "pt.ine.add.PTCONT.70999",
      "street": "AV JOÃO CORTE REAL",
      "house": "196",
      "postcode": "3830-751",
      "city": "GAFANHA DA NAZARÉ",
      "lon": "-8.747276131011091",
      "lat": "40.63664812518079"
    },
    {
      "id": "pt.ine.add.PTCONT.71000",
      "street": "AV JOÃO CORTE REAL",
      "house": "196",
      "postcode": "3830-751",
      "city": "GAFANHA DA NAZARÉ",
      "lon": "-8.747276131011091",
      "lat": "40.63664812518079"
    },
    {
      "id": "pt.ine.add.PTCONT.71001",
      "street": "AV JOÃO CORTE REAL",
      "house": "196",
      "postcode": "3830-751",
      "city": "GAFANHA DA NAZARÉ",
      "lon": "-8.747276131011091",
      "lat": "40.63664812518079"
    },
    {
      "id": "pt.ine.add.PTCONT.71002",
      "street": "AV JOÃO CORTE REAL",
      "house": "196",
      "postcode": "3830-751",
      "city": "GAFANHA DA NAZARÉ",
      "lon": "-8.747276131011091",
      "lat": "40.63664812518079"
    },
    {
      "id": "pt.ine.add.PTCONT.71003",
      "street": "AV JOÃO CORTE REAL",
      "house": "196",
      "postcode": "3830-751",
      "city": "GAFANHA DA NAZARÉ",
      "lon": "-8.747276131011091",
      "lat": "40.63664812518079"
    },
    {
      "id": "pt.ine.add.PTCONT.71004",
      "street": "AV JOÃO CORTE REAL",
      "house": "196",
      "postcode": "3830-751",
      "city": "GAFANHA DA NAZARÉ",
      "lon": "-8.747276131011091",
      "lat": "40.63664812518079"
    },
    {
      "id": "pt.ine.add.PTCONT.71005",
      "street": "AV JOÃO CORTE REAL",
      "house": "196",
      "postcode": "3830-751",
      "city": "GAFANHA DA NAZARÉ",
      "lon": "-8.747276131011091",
      "lat": "40.63664812518079"
    },
    {
      "id": "pt.ine.add.PTCONT.79219",
      "street": "AV JOÃO CORTE REAL",
      "house": "6",
      "postcode": "3830-751",
      "city": "GAFANHA DA NAZARÉ",
      "lon": "-8.747291489051385",
      "lat": "40.6434829294985"
    },
    {
      "id": "pt.ine.add.PTCONT.79220",
      "street": "AV JOÃO CORTE REAL",
      "house": "6",
      "postcode": "3830-751",
      "city": "GAFANHA DA NAZARÉ",
      "lon": "-8.747291489051385",
      "lat": "40.6434829294985"
    },
    {
      "id": "pt.ine.add.PTCONT.79229",
      "street": "AV JOÃO CORTE REAL",
      "house": "6",
      "postcode": "3830-751",
      "city": "GAFANHA DA NAZARÉ",
      "lon": "-8.747291489051385",
      "lat": "40.6434829294985"
    },
    {
      "id": "pt.ine.add.PTCONT.79230",
      "street": "AV JOÃO CORTE REAL",
      "house": "6",
      "postcode": "3830-751",
      "city": "GAFANHA DA NAZARÉ",
      "lon": "-8.747291489051385",
      "lat": "40.6434829294985"
    },
    {
      "id": "pt.ine.add.PTCONT.79231",
      "street": "AV JOÃO CORTE REAL",
      "house": "6",
      "postcode": "3830-751",
      "city": "GAFANHA DA NAZARÉ",
      "lon": "-8.747291489051385",
      "lat": "40.6434829294985"
    },
    {
      "id": "pt.ine.add.PTCONT.79232",
      "street": "AV JOÃO CORTE REAL",
      "house": "6",
      "postcode": "3830-751",
      "city": "GAFANHA DA NAZARÉ",
      "lon": "-8.747291489051385",
      "lat": "40.6434829294985"
    },
    {
      "id": "pt.ine.add.PTCONT.100777",
      "street": "AV JOÃO CORTE REAL",
      "house": "52",
      "postcode": "3830-751",
      "city": "GAFANHA DA NAZARÉ",
      "lon": "-8.747320697634937",
      "lat": "40.6415106537128"
    },
    {
      "id": "pt.ine.add.PTCONT.100778",
      "street": "AV JOÃO CORTE REAL",
      "house": "52",
      "postcode": "3830-751",
      "city": "GAFANHA DA NAZARÉ",
      "lon": "-8.747320697634937",
      "lat": "40.6415106537128"
    },
    {
      "id": "pt.ine.add.PTCONT.100779",
      "street": "AV JOÃO CORTE REAL",
      "house": "52",
      "postcode": "3830-751",
      "city": "GAFANHA DA NAZARÉ",
      "lon": "-8.747320697634937",
      "lat": "40.6415106537128"
    },
    {
      "id": "pt.ine.add.PTCONT.100780",
      "street": "AV JOÃO CORTE REAL",
      "house": "52",
      "postcode": "3830-751",
      "city": "GAFANHA DA NAZARÉ",
      "lon": "-8.747320697634937",
      "lat": "40.6415106537128"
    },
    {
      "id": "pt.ine.add.PTCONT.100781",
      "street": "AV JOÃO CORTE REAL",
      "house": "52",
      "postcode": "3830-751",
      "city": "GAFANHA DA NAZARÉ",
      "lon": "-8.747320697634937",
      "lat": "40.6415106537128"
    },
    {
      "id": "pt.ine.add.PTCONT.104112",
      "street": "AV INF D HENRIQUE",
      "house": "",
      "postcode": "3830-750",
      "city": "GAFANHA DA NAZARÉ",
      "lon": "-8.74756396116732",
      "lat": "40.643544515790076"
    },
    {
      "id": "pt.ine.add.PTCONT.104113",
      "street": "AV INF D HENRIQUE",
      "house": "",
      "postcode": "3830-750",
      "city": "GAFANHA DA NAZARÉ",
      "lon": "-8.74756396116732",
      "lat": "40.643544515790076"
    },
    {
      "id": "pt.ine.add.PTCONT.104114",
      "street": "AV INF D HENRIQUE",
      "house": "",
      "postcode": "3830-750",
      "city": "GAFANHA DA NAZARÉ",
      "lon": "-8.74756396116732",
      "lat": "40.643544515790076"
    },
    {
      "id": "pt.ine.add.PTCONT.104115",
      "street": "AV INF D HENRIQUE",
      "house": "",
      "postcode": "3830-750",
      "city": "GAFANHA DA NAZARÉ",
      "lon": "-8.74756396116732",
      "lat": "40.643544515790076"
    },
    {
      "id": "pt.ine.add.PTCONT.104116",
      "street": "AV INF D HENRIQUE",
      "house": "",
      "postcode": "3830-750",
      "city": "GAFANHA DA NAZARÉ",
      "lon": "-8.74756396116732",
      "lat": "40.643544515790076"
    },
    {
      "id": "pt.ine.add.PTCONT.104117",
      "street": "AV JOÃO CORTE REAL",
      "house": "74",
      "postcode": "3830-751",
      "city": "GAFANHA DA NAZARÉ",
      "lon": "-8.747218618660243",
      "lat": "40.64069173084583"
    },
    {
      "id": "pt.ine.add.PTCONT.104118",
      "street": "AV JOÃO CORTE REAL",
      "house": "168",
      "postcode": "3830-751",
      "city": "GAFANHA DA NAZARÉ",
      "lon": "-8.747179979611492",
      "lat": "40.63776527192528"
    },
    {
      "id": "pt.ine.add.PTCONT.105685",
      "street": "AV JOÃO CORTE REAL",
      "house": "144",
      "postcode": "3830-751",
      "city": "GAFANHA DA NAZARÉ",
      "lon": "-8.747162774392912",
      "lat": "40.63846776300275"
    },
    {
      "id": "pt.ine.add.PTCONT.105686",
      "street": "AV JOÃO CORTE REAL",
      "house": "144",
      "postcode": "3830-751",
      "city": "GAFANHA DA NAZARÉ",
      "lon": "-8.747162774392912",
      "lat": "40.63846776300275"
    },
    {
      "id": "pt.ine.add.PTCONT.105687",
      "street": "AV JOÃO CORTE REAL",
      "house": "144",
      "postcode": "3830-751",
      "city": "GAFANHA DA NAZARÉ",
      "lon": "-8.747162774392912",
      "lat": "40.63846776300275"
    },
    {
      "id": "pt.ine.add.PTCONT.105688",
      "street": "AV JOÃO CORTE REAL",
      "house": "144",
      "postcode": "3830-751",
      "city": "GAFANHA DA NAZARÉ",
      "lon": "-8.747162774392912",
      "lat": "40.63846776300275"
    },
    {
      "id": "pt.ine.add.PTCONT.105689",
      "street": "AV JOÃO CORTE REAL",
      "house": "144",
      "postcode": "3830-751",
      "city": "GAFANHA DA NAZARÉ",
      "lon": "-8.747162774392912",
      "lat": "40.63846776300275"
    },
    {
      "id": "pt.ine.add.PTCONT.105690",
      "street": "AV JOÃO CORTE REAL",
      "house": "144",
      "postcode": "3830-751",
      "city": "GAFANHA DA NAZARÉ",
      "lon": "-8.747162774392912",
      "lat": "40.63846776300275"
    },
    {
      "id": "pt.ine.add.PTCONT.105781",
      "street": "AV JOÃO CORTE REAL",
      "house": "144",
      "postcode": "3830-751",
      "city": "GAFANHA DA NAZARÉ",
      "lon": "-8.747162774392912",
      "lat": "40.63846776300275"
    },
    {
      "id": "pt.ine.add.PTCONT.106905",
      "street": "AV JOÃO CORTE REAL",
      "house": "144",
      "postcode": "3830-751",
      "city": "GAFANHA DA NAZARÉ",
      "lon": "-8.747162774392912",
      "lat": "40.63846776300275"
    },
    {
      "id": "pt.ine.add.PTCONT.108730",
      "street": "PCT S JOÃO",
      "house": "9",
      "postcode": "3830-759",
      "city": "GAFANHA DA NAZARÉ",
      "lon": "-8.74767855259755",
      "lat": "40.64185994935039"
    },
    {
      "id": "pt.ine.add.PTCONT.108731",
      "street": "PCT S JOÃO",
      "house": "9",
      "postcode": "3830-759",
      "city": "GAFANHA DA NAZARÉ",
      "lon": "-8.74767855259755",
      "lat": "40.64185994935039"
    },
    {
      "id": "pt.ine.add.PTCONT.108732",
      "street": "PCT S JOÃO",
      "house": "9",
      "postcode": "3830-759",
      "city": "GAFANHA DA NAZARÉ",
      "lon": "-8.74767855259755",
      "lat": "40.64185994935039"
    },
    {
      "id": "pt.ine.add.PTCONT.108733",
      "street": "PCT S JOÃO",
      "house": "9",
      "postcode": "3830-759",
      "city": "GAFANHA DA NAZARÉ",
      "lon": "-8.74767855259755",
      "lat": "40.64185994935039"
    },
    {
      "id": "pt.ine.add.PTCONT.108734",
      "street": "PCT S JOÃO",
      "house": "9",
      "postcode": "3830-759",
      "city": "GAFANHA DA NAZARÉ",
      "lon": "-8.74767855259755",
      "lat": "40.64185994935039"
    },
    {
      "id": "pt.ine.add.PTCONT.108735",
      "street": "PCT S JOÃO",
      "house": "9",
      "postcode": "3830-759",
      "city": "GAFANHA DA NAZARÉ",
      "lon": "-8.74767855259755",
      "lat": "40.64185994935039"
    },
    {
      "id": "pt.ine.add.PTCONT.108739",
      "street": "AV JOÃO CORTE REAL",
      "house": "180",
      "postcode": "3830-751",
      "city": "GAFANHA DA NAZARÉ",
      "lon": "-8.74718701441425",
      "lat": "40.63724293733215"
    },
    {
      "id": "pt.ine.add.PTCONT.108740",
      "street": "AV JOÃO CORTE REAL",
      "house": "202",
      "postcode": "3830-751",
      "city": "GAFANHA DA NAZARÉ",
      "lon": "-8.74715561813126",
      "lat": "40.63639662253539"
    },
    {
      "id": "pt.ine.add.PTCONT.116524",
      "street": "AV JOÃO CORTE REAL",
      "house": "52 B",
      "postcode": "3830-751",
      "city": "GAFANHA DA NAZARÉ",
      "lon": "-8.747627964506306",
      "lat": "40.64150001387548"
    },
    {
      "id": "pt.ine.add.PTCONT.116525",
      "street": "AV JOÃO CORTE REAL",
      "house": "52 B",
      "postcode": "3830-751",
      "city": "GAFANHA DA NAZARÉ",
      "lon": "-8.747627964506306",
      "lat": "40.64150001387548"
    },
    {
      "id": "pt.ine.add.PTCONT.116526",
      "street": "AV JOÃO CORTE REAL",
      "house": "52 B",
      "postcode": "3830-751",
      "city": "GAFANHA DA NAZARÉ",
      "lon": "-8.747627964506306",
      "lat": "40.64150001387548"
    },
    {
      "id": "pt.ine.add.PTCONT.116527",
      "street": "AV JOÃO CORTE REAL",
      "house": "52 B",
      "postcode": "3830-751",
      "city": "GAFANHA DA NAZARÉ",
      "lon": "-8.747627964506306",
      "lat": "40.64150001387548"
    },
    {
      "id": "pt.ine.add.PTCONT.116528",
      "street": "AV JOÃO CORTE REAL",
      "house": "52 B",
      "postcode": "3830-751",
      "city": "GAFANHA DA NAZARÉ",
      "lon": "-8.747627964506306",
      "lat": "40.64150001387548"
    },
    {
      "id": "pt.ine.add.PTCONT.116529",
      "street": "AV JOÃO CORTE REAL",
      "house": "52 B",
      "postcode": "3830-751",
      "city": "GAFANHA DA NAZARÉ",
      "lon": "-8.747627964506306",
      "lat": "40.64150001387548"
    },
    {
      "id": "pt.ine.add.PTCONT.127975",
      "street": "LG FAROL",
      "house": "",
      "postcode": "3830-753",
      "city": "GAFANHA DA NAZARÉ",
      "lon": "-8.747785678185949",
      "lat": "40.643228156802714"
    },
    {
      "id": "pt.ine.add.PTCONT.127976",
      "street": "LG FAROL",
      "house": "",
      "postcode": "3830-753",
      "city": "GAFANHA DA NAZARÉ",
      "lon": "-8.747785678185949",
      "lat": "40.643228156802714"
    },
    {
      "id": "pt.ine.add.PTCONT.128845",
      "street": "LG FAROL",
      "house": "7",
      "postcode": "3830-753",
      "city": "GAFANHA DA NAZARÉ",
      "lon": "-8.747506023579803",
      "lat": "40.642383164182434"
    },
    {
      "id": "pt.ine.add.PTCONT.128846",
      "street": "LG FAROL",
      "house": "5",
      "postcode": "3830-753",
      "city": "GAFANHA DA NAZARÉ",
      "lon": "-8.747506023579803",
      "lat": "40.642383164182434"
    },
    {
      "id": "pt.ine.add.PTCONT.132517",
      "street": "AV JOÃO CORTE REAL",
      "house": "146",
      "postcode": "3830-751",
      "city": "GAFANHA DA NAZARÉ",
      "lon": "-8.747162031797401",
      "lat": "40.63838672084929"
    },
    {
      "id": "pt.ine.add.PTCONT.132518",
      "street": "AV JOÃO CORTE REAL",
      "house": "146",
      "postcode": "3830-751",
      "city": "GAFANHA DA NAZARÉ",
      "lon": "-8.747162031797401",
      "lat": "40.63838672084929"
    },
    {
      "id": "pt.ine.add.PTCONT.132519",
      "street": "AV JOÃO CORTE REAL",
      "house": "146",
      "postcode": "3830-751",
      "city": "GAFANHA DA NAZARÉ",
      "lon": "-8.747162031797401",
      "lat": "40.63838672084929"
    },
    {
      "id": "pt.ine.add.PTCONT.132520",
      "street": "AV JOÃO CORTE REAL",
      "house": "146",
      "postcode": "3830-751",
      "city": "GAFANHA DA NAZARÉ",
      "lon": "-8.747162031797401",
      "lat": "40.63838672084929"
    },
    {
      "id": "pt.ine.add.PTCONT.132521",
      "street": "AV JOÃO CORTE REAL",
      "house": "146",
      "postcode": "3830-751",
      "city": "GAFANHA DA NAZARÉ",
      "lon": "-8.747162031797401",
      "lat": "40.63838672084929"
    },
    {
      "id": "pt.ine.add.PTCONT.132522",
      "street": "AV JOÃO CORTE REAL",
      "house": "146",
      "postcode": "3830-751",
      "city": "GAFANHA DA NAZARÉ",
      "lon": "-8.747162031797401",
      "lat": "40.63838672084929"
    },
    {
      "id": "pt.ine.add.PTCONT.132524",
      "street": "AV JOÃO CORTE REAL",
      "house": "188",
      "postcode": "3830-751",
      "city": "GAFANHA DA NAZARÉ",
      "lon": "-8.747218432354652",
      "lat": "40.63680151915394"
    },
    {
      "id": "pt.ine.add.PTCONT.132525",
      "street": "AV JOÃO CORTE REAL",
      "house": "188",
      "postcode": "3830-751",
      "city": "GAFANHA DA NAZARÉ",
      "lon": "-8.747218432354652",
      "lat": "40.63680151915394"
    },
    {
      "id": "pt.ine.add.PTCONT.132526",
      "street": "AV JOÃO CORTE REAL",
      "house": "188",
      "postcode": "3830-751",
      "city": "GAFANHA DA NAZARÉ",
      "lon": "-8.747218432354652",
      "lat": "40.63680151915394"
    },
    {
      "id": "pt.ine.add.PTCONT.132527",
      "street": "AV JOÃO CORTE REAL",
      "house": "188",
      "postcode": "3830-751",
      "city": "GAFANHA DA NAZARÉ",
      "lon": "-8.747218432354652",
      "lat": "40.63680151915394"
    },
    {
      "id": "pt.ine.add.PTCONT.132528",
      "street": "AV JOÃO CORTE REAL",
      "house": "188",
      "postcode": "3830-751",
      "city": "GAFANHA DA NAZARÉ",
      "lon": "-8.747218432354652",
      "lat": "40.63680151915394"
    },
    {
      "id": "pt.ine.add.PTCONT.132529",
      "street": "AV JOÃO CORTE REAL",
      "house": "188",
      "postcode": "3830-751",
      "city": "GAFANHA DA NAZARÉ",
      "lon": "-8.747218432354652",
      "lat": "40.63680151915394"
    },
    {
      "id": "pt.ine.add.PTCONT.132530",
      "street": "AV JOÃO CORTE REAL",
      "house": "188",
      "postcode": "3830-751",
      "city": "GAFANHA DA NAZARÉ",
      "lon": "-8.747218432354652",
      "lat": "40.63680151915394"
    },
    {
      "id": "pt.ine.add.PTCONT.133570",
      "street": "AV JOÃO CORTE REAL",
      "house": "188",
      "postcode": "3830-751",
      "city": "GAFANHA DA NAZARÉ",
      "lon": "-8.747218432354652",
      "lat": "40.63680151915394"
    },
    {
      "id": "pt.ine.add.PTCONT.135288",
      "street": "LG FAROL",
      "house": "",
      "postcode": "3830-753",
      "city": "GAFANHA DA NAZARÉ",
      "lon": "-8.747884139500902",
      "lat": "40.6423631415675"
    },
    {
      "id": "pt.ine.add.PTCONT.135289",
      "street": "LG FAROL",
      "house": "",
      "postcode": "3830-753",
      "city": "GAFANHA DA NAZARÉ",
      "lon": "-8.747884139500902",
      "lat": "40.6423631415675"
    },
    {
      "id": "pt.ine.add.PTCONT.135290",
      "street": "LG FAROL",
      "house": "",
      "postcode": "3830-753",
      "city": "GAFANHA DA NAZARÉ",
      "lon": "-8.747884139500902",
      "lat": "40.6423631415675"
    },
    {
      "id": "pt.ine.add.PTCONT.135291",
      "street": "LG FAROL",
      "house": "",
      "postcode": "3830-753",
      "city": "GAFANHA DA NAZARÉ",
      "lon": "-8.747884139500902",
      "lat": "40.6423631415675"
    },
    {
      "id": "pt.ine.add.PTCONT.135292",
      "street": "LG FAROL",
      "house": "",
      "postcode": "3830-753",
      "city": "GAFANHA DA NAZARÉ",
      "lon": "-8.747884139500902",
      "lat": "40.6423631415675"
    },
    {
      "id": "pt.ine.add.PTCONT.135293",
      "street": "LG FAROL",
      "house": "",
      "postcode": "3830-753",
      "city": "GAFANHA DA NAZARÉ",
      "lon": "-8.747884139500902",
      "lat": "40.6423631415675"
    },
    {
      "id": "pt.ine.add.PTCONT.143211",
      "street": "AV JOÃO CORTE REAL",
      "house": "160",
      "postcode": "3830-751",
      "city": "GAFANHA DA NAZARÉ",
      "lon": "-8.747159391482272",
      "lat": "40.63809857096103"
    },
    {
      "id": "pt.ine.add.PTCONT.143212",
      "street": "AV JOÃO CORTE REAL",
      "house": "160",
      "postcode": "3830-751",
      "city": "GAFANHA DA NAZARÉ",
      "lon": "-8.747159391482272",
      "lat": "40.63809857096103"
    },
    {
      "id": "pt.ine.add.PTCONT.151539",
      "street": "AV JOÃO CORTE REAL",
      "house": "130 A",
      "postcode": "3830-751",
      "city": "GAFANHA DA NAZARÉ",
      "lon": "-8.74716698249117",
      "lat": "40.638927001850526"
    },
    {
      "id": "pt.ine.add.PTCONT.151540",
      "street": "AV JOÃO CORTE REAL",
      "house": "130 A",
      "postcode": "3830-751",
      "city": "GAFANHA DA NAZARÉ",
      "lon": "-8.74716698249117",
      "lat": "40.638927001850526"
    },
    {
      "id": "pt.ine.add.PTCONT.151541",
      "street": "AV JOÃO CORTE REAL",
      "house": "130 A",
      "postcode": "3830-751",
      "city": "GAFANHA DA NAZARÉ",
      "lon": "-8.74716698249117",
      "lat": "40.638927001850526"
    },
    {
      "id": "pt.ine.add.PTCONT.151645",
      "street": "AV JOÃO CORTE REAL",
      "house": "130 A",
      "postcode": "3830-751",
      "city": "GAFANHA DA NAZARÉ",
      "lon": "-8.74716698249117",
      "lat": "40.638927001850526"
    },
    {
      "id": "pt.ine.add.PTCONT.151841",
      "street": "AV JOÃO CORTE REAL",
      "house": "130 A",
      "postcode": "3830-751",
      "city": "GAFANHA DA NAZARÉ",
      "lon": "-8.74716698249117",
      "lat": "40.638927001850526"
    },
    {
      "id": "pt.ine.add.PTCONT.156080",
      "street": "AV JOÃO CORTE REAL",
      "house": "",
      "postcode": "3830-751",
      "city": "GAFANHA DA NAZARÉ",
      "lon": "-8.747276714511251",
      "lat": "40.64187109233998"
    },
    {
      "id": "pt.ine.add.PTCONT.162379",
      "street": "AV JOÃO CORTE REAL",
      "house": "90",
      "postcode": "3830-751",
      "city": "GAFANHA DA NAZARÉ",
      "lon": "-8.747225983281188",
      "lat": "40.64020541523777"
    },
    {
      "id": "pt.ine.add.PTCONT.164377",
      "street": "AV JOGO CORTE REAL",
      "house": "134 B",
      "postcode": "3830-751",
      "city": "GAFANHA DA NAZARÉ",
      "lon": "-8.747579797946106",
      "lat": "40.63882574964406"
    },
    {
      "id": "pt.ine.add.PTCONT.171974",
      "street": "AV JOÃO CORTE REAL",
      "house": "164",
      "postcode": "3830-751",
      "city": "GAFANHA DA NAZARÉ",
      "lon": "-8.747145343257143",
      "lat": "40.637855507334514"
    },
    {
      "id": "pt.ine.add.PTCONT.171975",
      "street": "AV JOÃO CORTE REAL",
      "house": "164",
      "postcode": "3830-751",
      "city": "GAFANHA DA NAZARÉ",
      "lon": "-8.747145343257143",
      "lat": "40.637855507334514"
    },
    {
      "id": "pt.ine.add.PTCONT.171976",
      "street": "AV JOÃO CORTE REAL",
      "house": "164",
      "postcode": "3830-751",
      "city": "GAFANHA DA NAZARÉ",
      "lon": "-8.747145343257143",
      "lat": "40.637855507334514"
    },
    {
      "id": "pt.ine.add.PTCONT.171977",
      "street": "AV JOÃO CORTE REAL",
      "house": "164",
      "postcode": "3830-751",
      "city": "GAFANHA DA NAZARÉ",
      "lon": "-8.747145343257143",
      "lat": "40.637855507334514"
    },
    {
      "id": "pt.ine.add.PTCONT.171978",
      "street": "AV JOÃO CORTE REAL",
      "house": "164",
      "postcode": "3830-751",
      "city": "GAFANHA DA NAZARÉ",
      "lon": "-8.747145343257143",
      "lat": "40.637855507334514"
    },
    {
      "id": "pt.ine.add.PTCONT.171979",
      "street": "AV JOÃO CORTE REAL",
      "house": "164",
      "postcode": "3830-751",
      "city": "GAFANHA DA NAZARÉ",
      "lon": "-8.747145343257143",
      "lat": "40.637855507334514"
    },
    {
      "id": "pt.ine.add.PTCONT.172091",
      "street": "AV JOÃO CORTE REAL",
      "house": "164",
      "postcode": "3830-751",
      "city": "GAFANHA DA NAZARÉ",
      "lon": "-8.747145343257143",
      "lat": "40.637855507334514"
    },
    {
      "id": "pt.ine.add.PTCONT.173602",
      "street": "AV JOÃO CORTE REAL",
      "house": "118",
      "postcode": "3830-751",
      "city": "GAFANHA DA NAZARÉ",
      "lon": "-8.747183011445273",
      "lat": "40.639386177803665"
    },
    {
      "id": "pt.ine.add.PTCONT.173603",
      "street": "AV JOÃO CORTE REAL",
      "house": "118",
      "postcode": "3830-751",
      "city": "GAFANHA DA NAZARÉ",
      "lon": "-8.747183011445273",
      "lat": "40.639386177803665"
    },
    {
      "id": "pt.ine.add.PTCONT.173604",
      "street": "AV JOÃO CORTE REAL",
      "house": "118",
      "postcode": "3830-751",
      "city": "GAFANHA DA NAZARÉ",
      "lon": "-8.747183011445273",
      "lat": "40.639386177803665"
    },
    {
      "id": "pt.ine.add.PTCONT.173605",
      "street": "AV JOÃO CORTE REAL",
      "house": "118",
      "postcode": "3830-751",
      "city": "GAFANHA DA NAZARÉ",
      "lon": "-8.747183011445273",
      "lat": "40.639386177803665"
    },
    {
      "id": "pt.ine.add.PTCONT.173613",
      "street": "AV JOÃO CORTE REAL",
      "house": "118",
      "postcode": "3830-751",
      "city": "GAFANHA DA NAZARÉ",
      "lon": "-8.747183011445273",
      "lat": "40.639386177803665"
    },
    {
      "id": "pt.ine.add.PTCONT.182260",
      "street": "LG FAROL",
      "house": "6",
      "postcode": "3830-753",
      "city": "GAFANHA DA NAZARÉ",
      "lon": "-8.74744310423414",
      "lat": "40.643256995139744"
    },
    {
      "id": "pt.ine.add.PTCONT.182261",
      "street": "AV JOÃO CORTE REAL",
      "house": "140 TRAS",
      "postcode": "3830-751",
      "city": "GAFANHA DA NAZARÉ",
      "lon": "-8.747519951612302",
      "lat": "40.638745021976604"
    },
    {
      "id": "pt.ine.add.PTCONT.196232",
      "street": "AV JOÃO CORTE REAL",
      "house": "72",
      "postcode": "3830-751",
      "city": "GAFANHA DA NAZARÉ",
      "lon": "-8.747219774010453",
      "lat": "40.64081779636556"
    },
    {
      "id": "pt.ine.add.PTCONT.204095",
      "street": "AV JOÃO CORTE REAL",
      "house": "30",
      "postcode": "3830-751",
      "city": "GAFANHA DA NAZARÉ",
      "lon": "-8.7472570337353",
      "lat": "40.642303442615564"
    },
    {
      "id": "pt.ine.add.PTCONT.204096",
      "street": "AV JOÃO CORTE REAL",
      "house": "30",
      "postcode": "3830-751",
      "city": "GAFANHA DA NAZARÉ",
      "lon": "-8.7472570337353",
      "lat": "40.642303442615564"
    },
    {
      "id": "pt.ine.add.PTCONT.204097",
      "street": "AV JOÃO CORTE REAL",
      "house": "30",
      "postcode": "3830-751",
      "city": "GAFANHA DA NAZARÉ",
      "lon": "-8.7472570337353",
      "lat": "40.642303442615564"
    },
    {
      "id": "pt.ine.add.PTCONT.204098",
      "street": "AV JOÃO CORTE REAL",
      "house": "30",
      "postcode": "3830-751",
      "city": "GAFANHA DA NAZARÉ",
      "lon": "-8.7472570337353",
      "lat": "40.642303442615564"
    },
    {
      "id": "pt.ine.add.PTCONT.204099",
      "street": "AV JOÃO CORTE REAL",
      "house": "30",
      "postcode": "3830-751",
      "city": "GAFANHA DA NAZARÉ",
      "lon": "-8.7472570337353",
      "lat": "40.642303442615564"
    },
    {
      "id": "pt.ine.add.PTCONT.204100",
      "street": "AV JOÃO CORTE REAL",
      "house": "30",
      "postcode": "3830-751",
      "city": "GAFANHA DA NAZARÉ",
      "lon": "-8.7472570337353",
      "lat": "40.642303442615564"
    },
    {
      "id": "pt.ine.add.PTCONT.204101",
      "street": "AV JOÃO CORTE REAL",
      "house": "30",
      "postcode": "3830-751",
      "city": "GAFANHA DA NAZARÉ",
      "lon": "-8.7472570337353",
      "lat": "40.642303442615564"
    },
    {
      "id": "pt.ine.add.PTCONT.204102",
      "street": "AV JOÃO CORTE REAL",
      "house": "32",
      "postcode": "3830-751",
      "city": "GAFANHA DA NAZARÉ",
      "lon": "-8.747244552199026",
      "lat": "40.642231468063905"
    },
    {
      "id": "pt.ine.add.PTCONT.204105",
      "street": "AV JOÃO CORTE REAL",
      "house": "200",
      "postcode": "3830-751",
      "city": "GAFANHA DA NAZARÉ",
      "lon": "-8.747144622923532",
      "lat": "40.63648673225495"
    },
    {
      "id": "pt.ine.add.PTCONT.209650",
      "street": "LG FAROL",
      "house": "13",
      "postcode": "3830-753",
      "city": "GAFANHA DA NAZARÉ",
      "lon": "-8.747906460114848",
      "lat": "40.64221894087491"
    },
    {
      "id": "pt.ine.add.PTCONT.209651",
      "street": "LG FAROL",
      "house": "13",
      "postcode": "3830-753",
      "city": "GAFANHA DA NAZARÉ",
      "lon": "-8.747906460114848",
      "lat": "40.64221894087491"
    },
    {
      "id": "pt.ine.add.PTCONT.209652",
      "street": "LG FAROL",
      "house": "13",
      "postcode": "3830-753",
      "city": "GAFANHA DA NAZARÉ",
      "lon": "-8.747906460114848",
      "lat": "40.64221894087491"
    },
    {
      "id": "pt.ine.add.PTCONT.209653",
      "street": "LG FAROL",
      "house": "13",
      "postcode": "3830-753",
      "city": "GAFANHA DA NAZARÉ",
      "lon": "-8.747906460114848",
      "lat": "40.64221894087491"
    },
    {
      "id": "pt.ine.add.PTCONT.209654",
      "street": "LG FAROL",
      "house": "13",
      "postcode": "3830-753",
      "city": "GAFANHA DA NAZARÉ",
      "lon": "-8.747906460114848",
      "lat": "40.64221894087491"
    },
    {
      "id": "pt.ine.add.PTCONT.209655",
      "street": "LG FAROL",
      "house": "13",
      "postcode": "3830-753",
      "city": "GAFANHA DA NAZARÉ",
      "lon": "-8.747906460114848",
      "lat": "40.64221894087491"
    },
    {
      "id": "pt.ine.add.PTCONT.212300",
      "street": "PCT S JOÃO",
      "house": "8",
      "postcode": "3830-759",
      "city": "GAFANHA DA NAZARÉ",
      "lon": "-8.747680699949113",
      "lat": "40.64209407095994"
    },
    {
      "id": "pt.ine.add.PTCONT.212301",
      "street": "PCT S JOÃO",
      "house": "8",
      "postcode": "3830-759",
      "city": "GAFANHA DA NAZARÉ",
      "lon": "-8.747680699949113",
      "lat": "40.64209407095994"
    },
    {
      "id": "pt.ine.add.PTCONT.212302",
      "street": "PCT S JOÃO",
      "house": "8",
      "postcode": "3830-759",
      "city": "GAFANHA DA NAZARÉ",
      "lon": "-8.747680699949113",
      "lat": "40.64209407095994"
    },
    {
      "id": "pt.ine.add.PTCONT.212303",
      "street": "PCT S JOÃO",
      "house": "8",
      "postcode": "3830-759",
      "city": "GAFANHA DA NAZARÉ",
      "lon": "-8.747680699949113",
      "lat": "40.64209407095994"
    },
    {
      "id": "pt.ine.add.PTCONT.212304",
      "street": "PCT S JOÃO",
      "house": "8",
      "postcode": "3830-759",
      "city": "GAFANHA DA NAZARÉ",
      "lon": "-8.747680699949113",
      "lat": "40.64209407095994"
    },
    {
      "id": "pt.ine.add.PTCONT.212305",
      "street": "PCT S JOÃO",
      "house": "8",
      "postcode": "3830-759",
      "city": "GAFANHA DA NAZARÉ",
      "lon": "-8.747680699949113",
      "lat": "40.64209407095994"
    },
    {
      "id": "pt.ine.add.PTCONT.220771",
      "street": "PCT S JOÃO",
      "house": "6",
      "postcode": "3830-759",
      "city": "GAFANHA DA NAZARÉ",
      "lon": "-8.747503463980493",
      "lat": "40.6421040191902"
    },
    {
      "id": "pt.ine.add.PTCONT.220772",
      "street": "PCT S JOÃO",
      "house": "6",
      "postcode": "3830-759",
      "city": "GAFANHA DA NAZARÉ",
      "lon": "-8.747503463980493",
      "lat": "40.6421040191902"
    },
    {
      "id": "pt.ine.add.PTCONT.220773",
      "street": "PCT S JOÃO",
      "house": "6",
      "postcode": "3830-759",
      "city": "GAFANHA DA NAZARÉ",
      "lon": "-8.747503463980493",
      "lat": "40.6421040191902"
    },
    {
      "id": "pt.ine.add.PTCONT.223423",
      "street": "PCT MOLHE SUL",
      "house": "7",
      "postcode": "3830-751",
      "city": "GAFANHA DA NAZARÉ",
      "lon": "-8.747505969676654",
      "lat": "40.63979869553129"
    },
    {
      "id": "pt.ine.add.PTCONT.223424",
      "street": "PCT MOLHE SUL",
      "house": "7",
      "postcode": "3830-751",
      "city": "GAFANHA DA NAZARÉ",
      "lon": "-8.747505969676654",
      "lat": "40.63979869553129"
    },
    {
      "id": "pt.ine.add.PTCONT.223425",
      "street": "PCT MOLHE SUL",
      "house": "7",
      "postcode": "3830-751",
      "city": "GAFANHA DA NAZARÉ",
      "lon": "-8.747505969676654",
      "lat": "40.63979869553129"
    },
    {
      "id": "pt.ine.add.PTCONT.223426",
      "street": "PCT MOLHE SUL",
      "house": "7",
      "postcode": "3830-751",
      "city": "GAFANHA DA NAZARÉ",
      "lon": "-8.747505969676654",
      "lat": "40.63979869553129"
    },
    {
      "id": "pt.ine.add.PTCONT.223427",
      "street": "PCT MOLHE SUL",
      "house": "7",
      "postcode": "3830-751",
      "city": "GAFANHA DA NAZARÉ",
      "lon": "-8.747505969676654",
      "lat": "40.63979869553129"
    },
    {
      "id": "pt.ine.add.PTCONT.223428",
      "street": "PCT MOLHE SUL",
      "house": "7",
      "postcode": "3830-751",
      "city": "GAFANHA DA NAZARÉ",
      "lon": "-8.747505969676654",
      "lat": "40.63979869553129"
    },
    {
      "id": "pt.ine.add.PTCONT.223429",
      "street": "PCT MOLHE SUL",
      "house": "7",
      "postcode": "3830-751",
      "city": "GAFANHA DA NAZARÉ",
      "lon": "-8.747505969676654",
      "lat": "40.63979869553129"
    },
    {
      "id": "pt.ine.add.PTCONT.223430",
      "street": "PCT MOLHE SUL",
      "house": "7",
      "postcode": "3830-751",
      "city": "GAFANHA DA NAZARÉ",
      "lon": "-8.747505969676654",
      "lat": "40.63979869553129"
    },
    {
      "id": "pt.ine.add.PTCONT.223431",
      "street": "PCT MOLHE SUL",
      "house": "7",
      "postcode": "3830-751",
      "city": "GAFANHA DA NAZARÉ",
      "lon": "-8.747505969676654",
      "lat": "40.63979869553129"
    },
    {
      "id": "pt.ine.add.PTCONT.230117",
      "street": "PCT MOLHO SUL",
      "house": "1",
      "postcode": "3830-760",
      "city": "GAFANHA DA NAZARÉ",
      "lon": "-8.747521340723328",
      "lat": "40.6401858339075"
    },
    {
      "id": "pt.ine.add.PTCONT.230118",
      "street": "PCT MOLHO SUL",
      "house": "1",
      "postcode": "3830-760",
      "city": "GAFANHA DA NAZARÉ",
      "lon": "-8.747521340723328",
      "lat": "40.6401858339075"
    },
    {
      "id": "pt.ine.add.PTCONT.230130",
      "street": "PCT MOLHO SUL",
      "house": "1",
      "postcode": "3830-760",
      "city": "GAFANHA DA NAZARÉ",
      "lon": "-8.747521340723328",
      "lat": "40.6401858339075"
    },
    {
      "id": "pt.ine.add.PTCONT.234091",
      "street": "AV JOÃO CORTE REAL",
      "house": "174 A",
      "postcode": "3830-751",
      "city": "GAFANHA DA NAZARÉ",
      "lon": "-8.747154440994297",
      "lat": "40.63755828988128"
    },
    {
      "id": "pt.ine.add.PTCONT.234092",
      "street": "AV JOÃO CORTE REAL",
      "house": "174 A",
      "postcode": "3830-751",
      "city": "GAFANHA DA NAZARÉ",
      "lon": "-8.747154440994297",
      "lat": "40.63755828988128"
    },
    {
      "id": "pt.ine.add.PTCONT.234093",
      "street": "AV JOÃO CORTE REAL",
      "house": "174 A",
      "postcode": "3830-751",
      "city": "GAFANHA DA NAZARÉ",
      "lon": "-8.747154440994297",
      "lat": "40.63755828988128"
    },
    {
      "id": "pt.ine.add.PTCONT.234094",
      "street": "AV JOÃO CORTE REAL",
      "house": "174 A",
      "postcode": "3830-751",
      "city": "GAFANHA DA NAZARÉ",
      "lon": "-8.747154440994297",
      "lat": "40.63755828988128"
    },
    {
      "id": "pt.ine.add.PTCONT.234095",
      "street": "AV JOÃO CORTE REAL",
      "house": "174 A",
      "postcode": "3830-751",
      "city": "GAFANHA DA NAZARÉ",
      "lon": "-8.747154440994297",
      "lat": "40.63755828988128"
    },
    {
      "id": "pt.ine.add.PTCONT.235103",
      "street": "AV JOÃO CORTE REAL",
      "house": "174 A",
      "postcode": "3830-751",
      "city": "GAFANHA DA NAZARÉ",
      "lon": "-8.747154440994297",
      "lat": "40.63755828988128"
    },
    {
      "id": "pt.ine.add.PTCONT.247774",
      "street": "AV JOÃO CORTE REAL",
      "house": "170",
      "postcode": "3830-751",
      "city": "GAFANHA DA NAZARÉ",
      "lon": "-8.747167169027673",
      "lat": "40.63765727856261"
    },
    {
      "id": "pt.ine.add.PTCONT.250464",
      "street": "R MANUEL FACICA",
      "house": "",
      "postcode": "3830-781",
      "city": "GAFANHA DA NAZARÉ",
      "lon": "-8.747296223069535",
      "lat": "40.63626079792716"
    },
    {
      "id": "pt.ine.add.PTCONT.250465",
      "street": "R MANUEL FACICA",
      "house": "",
      "postcode": "3830-781",
      "city": "GAFANHA DA NAZARÉ",
      "lon": "-8.747296223069535",
      "lat": "40.63626079792716"
    },
    {
      "id": "pt.ine.add.PTCONT.250466",
      "street": "R MANUEL FACICA",
      "house": "",
      "postcode": "3830-781",
      "city": "GAFANHA DA NAZARÉ",
      "lon": "-8.747296223069535",
      "lat": "40.63626079792716"
    },
    {
      "id": "pt.ine.add.PTCONT.250467",
      "street": "R MANUEL FACICA",
      "house": "",
      "postcode": "3830-781",
      "city": "GAFANHA DA NAZARÉ",
      "lon": "-8.747296223069535",
      "lat": "40.63626079792716"
    },
    {
      "id": "pt.ine.add.PTCONT.250468",
      "street": "R MANUEL FACICA",
      "house": "",
      "postcode": "3830-781",
      "city": "GAFANHA DA NAZARÉ",
      "lon": "-8.747296223069535",
      "lat": "40.63626079792716"
    },
    {
      "id": "pt.ine.add.PTCONT.250469",
      "street": "R MANUEL FACICA",
      "house": "",
      "postcode": "3830-781",
      "city": "GAFANHA DA NAZARÉ",
      "lon": "-8.747296223069535",
      "lat": "40.63626079792716"
    },
    {
      "id": "pt.ine.add.PTCONT.250470",
      "street": "R MANUEL FACICA",
      "house": "",
      "postcode": "3830-781",
      "city": "GAFANHA DA NAZARÉ",
      "lon": "-8.747296223069535",
      "lat": "40.63626079792716"
    },
    {
      "id": "pt.ine.add.PTCONT.250471",
      "street": "R MANUEL FACICA",
      "house": "",
      "postcode": "3830-781",
      "city": "GAFANHA DA NAZARÉ",
      "lon": "-8.747296223069535",
      "lat": "40.63626079792716"
    },
    {
      "id": "pt.ine.add.PTCONT.250472",
      "street": "R MANUEL FACICA",
      "house": "",
      "postcode": "3830-781",
      "city": "GAFANHA DA NAZARÉ",
      "lon": "-8.747296223069535",
      "lat": "40.63626079792716"
    },
    {
      "id": "pt.ine.add.PTCONT.250473",
      "street": "R MANUEL FACICA",
      "house": "",
      "postcode": "3830-781",
      "city": "GAFANHA DA NAZARÉ",
      "lon": "-8.747532627209239",
      "lat": "40.63625954036821"
    },
    {
      "id": "pt.ine.add.PTCONT.250474",
      "street": "R MANUEL FACICA",
      "house": "",
      "postcode": "3830-781",
      "city": "GAFANHA DA NAZARÉ",
      "lon": "-8.747532627209239",
      "lat": "40.63625954036821"
    },
    {
      "id": "pt.ine.add.PTCONT.250475",
      "street": "R MANUEL FACICA",
      "house": "",
      "postcode": "3830-781",
      "city": "GAFANHA DA NAZARÉ",
      "lon": "-8.747532627209239",
      "lat": "40.63625954036821"
    },
    {
      "id": "pt.ine.add.PTCONT.250476",
      "street": "R MANUEL FACICA",
      "house": "",
      "postcode": "3830-781",
      "city": "GAFANHA DA NAZARÉ",
      "lon": "-8.747532627209239",
      "lat": "40.63625954036821"
    },
    {
      "id": "pt.ine.add.PTCONT.250477",
      "street": "R MANUEL FACICA",
      "house": "",
      "postcode": "3830-781",
      "city": "GAFANHA DA NAZARÉ",
      "lon": "-8.747532627209239",
      "lat": "40.63625954036821"
    },
    {
      "id": "pt.ine.add.PTCONT.250478",
      "street": "R MANUEL FACICA",
      "house": "",
      "postcode": "3830-781",
      "city": "GAFANHA DA NAZARÉ",
      "lon": "-8.747532627209239",
      "lat": "40.63625954036821"
    },
    {
      "id": "pt.ine.add.PTCONT.250479",
      "street": "R MANUEL FACICA",
      "house": "",
      "postcode": "3830-781",
      "city": "GAFANHA DA NAZARÉ",
      "lon": "-8.747532627209239",
      "lat": "40.63625954036821"
    },
    {
      "id": "pt.ine.add.PTCONT.250480",
      "street": "R MANUEL FACICA",
      "house": "",
      "postcode": "3830-781",
      "city": "GAFANHA DA NAZARÉ",
      "lon": "-8.747532627209239",
      "lat": "40.63625954036821"
    },
    {
      "id": "pt.ine.add.PTCONT.250481",
      "street": "R MANUEL FACICA",
      "house": "",
      "postcode": "3830-781",
      "city": "GAFANHA DA NAZARÉ",
      "lon": "-8.747532627209239",
      "lat": "40.63625954036821"
    },
    {
      "id": "pt.ine.add.PTCONT.250482",
      "street": "R MANUEL FACICA",
      "house": "",
      "postcode": "3830-781",
      "city": "GAFANHA DA NAZARÉ",
      "lon": "-8.747532627209239",
      "lat": "40.63625954036821"
    },
    {
      "id": "pt.ine.add.PTCONT.251443",
      "street": "R MANUEL FACICA",
      "house": "",
      "postcode": "3830-781",
      "city": "GAFANHA DA NAZARÉ",
      "lon": "-8.747296223069535",
      "lat": "40.63626079792716"
    },
    {
      "id": "pt.ine.add.PTCONT.275651",
      "street": "AV JOÃO CORTE REAL",
      "house": "198",
      "postcode": "3830-751",
      "city": "GAFANHA DA NAZARÉ",
      "lon": "-8.747169005971838",
      "lat": "40.636567648731415"
    },
    {
      "id": "pt.ine.add.PTCONT.277365",
      "street": "AV JOÃO CORTE REAL",
      "house": "84",
      "postcode": "3830-751",
      "city": "GAFANHA DA NAZARÉ",
      "lon": "-8.74720357929605",
      "lat": "40.640340611174075"
    },
    {
      "id": "pt.ine.add.PTCONT.277366",
      "street": "AV JOÃO CORTE REAL",
      "house": "84",
      "postcode": "3830-751",
      "city": "GAFANHA DA NAZARÉ",
      "lon": "-8.74720357929605",
      "lat": "40.640340611174075"
    },
    {
      "id": "pt.ine.add.PTCONT.277367",
      "street": "AV JOÃO CORTE REAL",
      "house": "84",
      "postcode": "3830-751",
      "city": "GAFANHA DA NAZARÉ",
      "lon": "-8.74720357929605",
      "lat": "40.640340611174075"
    },
    {
      "id": "pt.ine.add.PTCONT.277368",
      "street": "AV JOÃO CORTE REAL",
      "house": "84",
      "postcode": "3830-751",
      "city": "GAFANHA DA NAZARÉ",
      "lon": "-8.74720357929605",
      "lat": "40.640340611174075"
    },
    {
      "id": "pt.ine.add.PTCONT.277369",
      "street": "AV JOÃO CORTE REAL",
      "house": "84",
      "postcode": "3830-751",
      "city": "GAFANHA DA NAZARÉ",
      "lon": "-8.74720357929605",
      "lat": "40.640340611174075"
    },
    {
      "id": "pt.ine.add.PTCONT.277370",
      "street": "AV JOÃO CORTE REAL",
      "house": "84",
      "postcode": "3830-751",
      "city": "GAFANHA DA NAZARÉ",
      "lon": "-8.74720357929605",
      "lat": "40.640340611174075"
    },
    {
      "id": "pt.ine.add.PTCONT.277371",
      "street": "AV JOÃO CORTE REAL",
      "house": "84",
      "postcode": "3830-751",
      "city": "GAFANHA DA NAZARÉ",
      "lon": "-8.74720357929605",
      "lat": "40.640340611174075"
    },
    {
      "id": "pt.ine.add.PTCONT.277372",
      "street": "AV JOÃO CORTE REAL",
      "house": "84",
      "postcode": "3830-751",
      "city": "GAFANHA DA NAZARÉ",
      "lon": "-8.74720357929605",
      "lat": "40.640340611174075"
    },
    {
      "id": "pt.ine.add.PTCONT.277505",
      "street": "AV JOÃO CORTE REAL",
      "house": "84",
      "postcode": "3830-751",
      "city": "GAFANHA DA NAZARÉ",
      "lon": "-8.74720357929605",
      "lat": "40.640340611174075"
    },
    {
      "id": "pt.ine.add.PTCONT.277506",
      "street": "AV JOÃO CORTE REAL",
      "house": "84",
      "postcode": "3830-751",
      "city": "GAFANHA DA NAZARÉ",
      "lon": "-8.74720357929605",
      "lat": "40.640340611174075"
    },
    {
      "id": "pt.ine.add.PTCONT.277507",
      "street": "AV JOÃO CORTE REAL",
      "house": "84",
      "postcode": "3830-751",
      "city": "GAFANHA DA NAZARÉ",
      "lon": "-8.74720357929605",
      "lat": "40.640340611174075"
    },
    {
      "id": "pt.ine.add.PTCONT.277508",
      "street": "AV JOÃO CORTE REAL",
      "house": "84",
      "postcode": "3830-751",
      "city": "GAFANHA DA NAZARÉ",
      "lon": "-8.74720357929605",
      "lat": "40.640340611174075"
    },
    {
      "id": "pt.ine.add.PTCONT.277509",
      "street": "AV JOÃO CORTE REAL",
      "house": "84",
      "postcode": "3830-751",
      "city": "GAFANHA DA NAZARÉ",
      "lon": "-8.74720357929605",
      "lat": "40.640340611174075"
    },
    {
      "id": "pt.ine.add.PTCONT.280208",
      "street": "AV JOÃO CORTE REAL",
      "house": "",
      "postcode": "3830-751",
      "city": "GAFANHA DA NAZARÉ",
      "lon": "-8.7472285218992",
      "lat": "40.641772292352925"
    },
    {
      "id": "pt.ine.add.PTCONT.280210",
      "street": "AV JOÃO CORTE REAL",
      "house": "186",
      "postcode": "3830-751",
      "city": "GAFANHA DA NAZARÉ",
      "lon": "-8.74723116032477",
      "lat": "40.636900507841496"
    },
    {
      "id": "pt.ine.add.PTCONT.280211",
      "street": "AV JOÃO CORTE REAL",
      "house": "186",
      "postcode": "3830-751",
      "city": "GAFANHA DA NAZARÉ",
      "lon": "-8.74723116032477",
      "lat": "40.636900507841496"
    },
    {
      "id": "pt.ine.add.PTCONT.280212",
      "street": "AV JOÃO CORTE REAL",
      "house": "186",
      "postcode": "3830-751",
      "city": "GAFANHA DA NAZARÉ",
      "lon": "-8.74723116032477",
      "lat": "40.636900507841496"
    },
    {
      "id": "pt.ine.add.PTCONT.280213",
      "street": "AV JOÃO CORTE REAL",
      "house": "186",
      "postcode": "3830-751",
      "city": "GAFANHA DA NAZARÉ",
      "lon": "-8.74723116032477",
      "lat": "40.636900507841496"
    },
    {
      "id": "pt.ine.add.PTCONT.280214",
      "street": "AV JOÃO CORTE REAL",
      "house": "186",
      "postcode": "3830-751",
      "city": "GAFANHA DA NAZARÉ",
      "lon": "-8.74723116032477",
      "lat": "40.636900507841496"
    },
    {
      "id": "pt.ine.add.PTCONT.280215",
      "street": "AV JOÃO CORTE REAL",
      "house": "186",
      "postcode": "3830-751",
      "city": "GAFANHA DA NAZARÉ",
      "lon": "-8.74723116032477",
      "lat": "40.636900507841496"
    },
    {
      "id": "pt.ine.add.PTCONT.280216",
      "street": "AV JOÃO CORTE REAL",
      "house": "186",
      "postcode": "3830-751",
      "city": "GAFANHA DA NAZARÉ",
      "lon": "-8.74723116032477",
      "lat": "40.636900507841496"
    },
    {
      "id": "pt.ine.add.PTCONT.281133",
      "street": "AV JOÃO CORTE REAL",
      "house": "186",
      "postcode": "3830-751",
      "city": "GAFANHA DA NAZARÉ",
      "lon": "-8.74723116032477",
      "lat": "40.636900507841496"
    },
    {
      "id": "pt.ine.add.PTCONT.285350",
      "street": "AV JOÃO CORTE REAL",
      "house": "78",
      "postcode": "3830-751",
      "city": "GAFANHA DA NAZARÉ",
      "lon": "-8.747217380793128",
      "lat": "40.64055666064304"
    },
    {
      "id": "pt.ine.add.PTCONT.288100",
      "street": "AV JOÃO CORTE REAL",
      "house": "184",
      "postcode": "3830-751",
      "city": "GAFANHA DA NAZARÉ",
      "lon": "-8.747231985480722",
      "lat": "40.63699055470068"
    },
    {
      "id": "pt.ine.add.PTCONT.288101",
      "street": "AV JOÃO CORTE REAL",
      "house": "184",
      "postcode": "3830-751",
      "city": "GAFANHA DA NAZARÉ",
      "lon": "-8.747231985480722",
      "lat": "40.63699055470068"
    },
    {
      "id": "pt.ine.add.PTCONT.288102",
      "street": "AV JOÃO CORTE REAL",
      "house": "184",
      "postcode": "3830-751",
      "city": "GAFANHA DA NAZARÉ",
      "lon": "-8.747231985480722",
      "lat": "40.63699055470068"
    },
    {
      "id": "pt.ine.add.PTCONT.288103",
      "street": "AV JOÃO CORTE REAL",
      "house": "184",
      "postcode": "3830-751",
      "city": "GAFANHA DA NAZARÉ",
      "lon": "-8.747231985480722",
      "lat": "40.63699055470068"
    },
    {
      "id": "pt.ine.add.PTCONT.288104",
      "street": "AV JOÃO CORTE REAL",
      "house": "184",
      "postcode": "3830-751",
      "city": "GAFANHA DA NAZARÉ",
      "lon": "-8.747231985480722",
      "lat": "40.63699055470068"
    },
    {
      "id": "pt.ine.add.PTCONT.288105",
      "street": "AV JOÃO CORTE REAL",
      "house": "184",
      "postcode": "3830-751",
      "city": "GAFANHA DA NAZARÉ",
      "lon": "-8.747231985480722",
      "lat": "40.63699055470068"
    },
    {
      "id": "pt.ine.add.PTCONT.288106",
      "street": "AV JOÃO CORTE REAL",
      "house": "184",
      "postcode": "3830-751",
      "city": "GAFANHA DA NAZARÉ",
      "lon": "-8.747231985480722",
      "lat": "40.63699055470068"
    },
    {
      "id": "pt.ine.add.PTCONT.288107",
      "street": "AV JOÃO CORTE REAL",
      "house": "184",
      "postcode": "3830-751",
      "city": "GAFANHA DA NAZARÉ",
      "lon": "-8.747231985480722",
      "lat": "40.63699055470068"
    }
  ]
}