{
  "data": {
    "distrito": "Santarém",
    "concelho": "Almeirim",
    "freguesia": "Benfica do Ribatejo",
    "OBJECTID": 115,
    "BGRI2021": "14030200324",
    "DT21": "14",
    "DTMN21": "1403",
    "DTMNFR21": "140302",
    "DTMNFRSEC21": "140302003",
    "SECNUM21": "003",
    "SSNUM21": "24",
    "SECSSNUM21": "00324",
    "OBJECTID_1": 148392,
    "DT": "14",
    "CC": "03",
    "fr": "02",
    "SEC": "003",
    "SS": "24"
  },
  "addresses": [
    {
      "id": "pt.ine.add.PTCONT.4399644",
      "street": "R 1 MAIO",
      "house": "",
      "postcode": "2080-400",
      "city": "BENFICA DO RIBATEJO",
      "lon": "-8.659935361951835",
      "lat": "39.12477520523036"
    },
    {
      "id": "pt.ine.add.PTCONT.4405865",
      "street": "R CAMPO DA BOLA",
      "house": "",
      "postcode": "2080-400",
      "city": "BENFICA DO RIBATEJO",
      "lon": "-8.66155094394634",
      "lat": "39.11967866376407"
    },
    {
      "id": "pt.ine.add.PTCONT.4409669",
      "street": "R 1 MAIO",
      "house": "",
      "postcode": "2080-400",
      "city": "BENFICA DO RIBATEJO",
      "lon": "-8.658201607802757",
      "lat": "39.12333282329595"
    },
    {
      "id": "pt.ine.add.PTCONT.4415695",
      "street": "R CAMPO DA BOLA",
      "house": "84",
      "postcode": "2080-400",
      "city": "BENFICA DO RIBATEJO",
      "lon": "-8.656500980622612",
      "lat": "39.12010678373802"
    },
    {
      "id": "pt.ine.add.PTCONT.4424220",
      "street": "R 1 MAIO",
      "house": "102",
      "postcode": "2080-400",
      "city": "BENFICA DO RIBATEJO",
      "lon": "-8.655595760170542",
      "lat": "39.121227773118015"
    },
    {
      "id": "pt.ine.add.PTCONT.4424221",
      "street": "R CAMPO DA BOLA",
      "house": "82",
      "postcode": "2080-400",
      "city": "BENFICA DO RIBATEJO",
      "lon": "-8.65653680244188",
      "lat": "39.120259750211154"
    },
    {
      "id": "pt.ine.add.PTCONT.4429810",
      "street": "R 1 MAIO",
      "house": "62",
      "postcode": "2080-400",
      "city": "BENFICA DO RIBATEJO",
      "lon": "-8.658387492469119",
      "lat": "39.12344908310667"
    },
    {
      "id": "pt.ine.add.PTCONT.4436874",
      "street": "R 1 MAIO",
      "house": "84 A",
      "postcode": "2080-400",
      "city": "BENFICA DO RIBATEJO",
      "lon": "-8.656991537681963",
      "lat": "39.1223294295393"
    },
    {
      "id": "pt.ine.add.PTCONT.4438360",
      "street": "R 1 MAIO",
      "house": "96",
      "postcode": "2080-400",
      "city": "BENFICA DO RIBATEJO",
      "lon": "-8.656279781835197",
      "lat": "39.12146790739499"
    },
    {
      "id": "pt.ine.add.PTCONT.4443469",
      "street": "R 1 MAIO",
      "house": "70",
      "postcode": "2080-400",
      "city": "BENFICA DO RIBATEJO",
      "lon": "-8.658073407144292",
      "lat": "39.123198288454475"
    },
    {
      "id": "pt.ine.add.PTCONT.4451022",
      "street": "R 1 MAIO",
      "house": "",
      "postcode": "2080-400",
      "city": "BENFICA DO RIBATEJO",
      "lon": "-8.662431258465052",
      "lat": "39.12606097538203"
    },
    {
      "id": "pt.ine.add.PTCONT.4451033",
      "street": "R 1 MAIO",
      "house": "78",
      "postcode": "2080-400",
      "city": "BENFICA DO RIBATEJO",
      "lon": "-8.657826365546816",
      "lat": "39.1226319292113"
    },
    {
      "id": "pt.ine.add.PTCONT.4451034",
      "street": "R 1 MAIO",
      "house": "78",
      "postcode": "2080-400",
      "city": "BENFICA DO RIBATEJO",
      "lon": "-8.657826365546816",
      "lat": "39.1226319292113"
    },
    {
      "id": "pt.ine.add.PTCONT.4451057",
      "street": "R CAMPO BOLA",
      "house": "132",
      "postcode": "2080-400",
      "city": "BENFICA DO RIBATEJO",
      "lon": "-8.660507736634006",
      "lat": "39.119341103553054"
    },
    {
      "id": "pt.ine.add.PTCONT.4451058",
      "street": "R CAMPO BOLA",
      "house": "130",
      "postcode": "2080-400",
      "city": "BENFICA DO RIBATEJO",
      "lon": "-8.660507736634006",
      "lat": "39.119341103553054"
    },
    {
      "id": "pt.ine.add.PTCONT.4452800",
      "street": "R 1 MAIO",
      "house": "40",
      "postcode": "2080-400",
      "city": "BENFICA DO RIBATEJO",
      "lon": "-8.660225930667004",
      "lat": "39.1249720562267"
    },
    {
      "id": "pt.ine.add.PTCONT.4455266",
      "street": "R 1 MAIO",
      "house": "",
      "postcode": "2080-400",
      "city": "BENFICA DO RIBATEJO",
      "lon": "-8.660572035662897",
      "lat": "39.124862400868814"
    },
    {
      "id": "pt.ine.add.PTCONT.4458111",
      "street": "R C",
      "house": "",
      "postcode": "2080-344",
      "city": "BENFICA DO RIBATEJO",
      "lon": "-8.6826783359613",
      "lat": "39.137713008399615"
    },
    {
      "id": "pt.ine.add.PTCONT.4458113",
      "street": "R 1 MAIO",
      "house": "",
      "postcode": "2080-400",
      "city": "BENFICA DO RIBATEJO",
      "lon": "-8.657269857349362",
      "lat": "39.12243626822493"
    },
    {
      "id": "pt.ine.add.PTCONT.4461413",
      "street": "R CAMPO DA BOLA",
      "house": "104",
      "postcode": "2080-400",
      "city": "BENFICA DO RIBATEJO",
      "lon": "-8.658270100660204",
      "lat": "39.118540531469264"
    },
    {
      "id": "pt.ine.add.PTCONT.4476602",
      "street": "R FONTE BRANCA",
      "house": "",
      "postcode": "2080-344",
      "city": "BENFICA DO RIBATEJO",
      "lon": "-8.680464594322984",
      "lat": "39.13562468786777"
    },
    {
      "id": "pt.ine.add.PTCONT.4476604",
      "street": "R 1 DE MAIO ROSA MARQUES",
      "house": "",
      "postcode": "2080-381",
      "city": "BENFICA DO RIBATEJO",
      "lon": "-8.663736820461155",
      "lat": "39.12744219103494"
    },
    {
      "id": "pt.ine.add.PTCONT.4482263",
      "street": "R 1 MAIO",
      "house": "",
      "postcode": "2080-400",
      "city": "BENFICA DO RIBATEJO",
      "lon": "-8.658015055278826",
      "lat": "39.123126491352345"
    },
    {
      "id": "pt.ine.add.PTCONT.4488540",
      "street": "R 1º DE MAIO",
      "house": "",
      "postcode": "2080-400",
      "city": "BENFICA DO RIBATEJO",
      "lon": "-8.661632610340659",
      "lat": "39.12596551698538"
    },
    {
      "id": "pt.ine.add.PTCONT.4491897",
      "street": "R CAMPO DA BOLA",
      "house": "102",
      "postcode": "2080-400",
      "city": "BENFICA DO RIBATEJO",
      "lon": "-8.65791172511664",
      "lat": "39.11855115288634"
    },
    {
      "id": "pt.ine.add.PTCONT.4495149",
      "street": "R 1 MAIO",
      "house": "13",
      "postcode": "2080-400",
      "city": "BENFICA DO RIBATEJO",
      "lon": "-8.660403482716953",
      "lat": "39.12552070949241"
    },
    {
      "id": "pt.ine.add.PTCONT.4503459",
      "street": "R 1 MAIO",
      "house": "22",
      "postcode": "2080-400",
      "city": "BENFICA DO RIBATEJO",
      "lon": "-8.660400729326563",
      "lat": "39.12515141526866"
    },
    {
      "id": "pt.ine.add.PTCONT.4503460",
      "street": "R 1 MAIO",
      "house": "22",
      "postcode": "2080-400",
      "city": "BENFICA DO RIBATEJO",
      "lon": "-8.660400729326563",
      "lat": "39.12515141526866"
    },
    {
      "id": "pt.ine.add.PTCONT.4504895",
      "street": "R 1 MAIO",
      "house": "50 52",
      "postcode": "2080-400",
      "city": "BENFICA DO RIBATEJO",
      "lon": "-8.659550006182704",
      "lat": "39.124272527236315"
    },
    {
      "id": "pt.ine.add.PTCONT.4506109",
      "street": "R FONTE BRANCA",
      "house": "",
      "postcode": "2080-344",
      "city": "BENFICA DO RIBATEJO",
      "lon": "-8.682073794397542",
      "lat": "39.13582429153883"
    },
    {
      "id": "pt.ine.add.PTCONT.4506111",
      "street": "R 1 MAIO",
      "house": "",
      "postcode": "2080-400",
      "city": "BENFICA DO RIBATEJO",
      "lon": "-8.661478713515594",
      "lat": "39.12548881827385"
    },
    {
      "id": "pt.ine.add.PTCONT.4506112",
      "street": "R 1 MAIO",
      "house": "88",
      "postcode": "2080-400",
      "city": "BENFICA DO RIBATEJO",
      "lon": "-8.656828384607962",
      "lat": "39.12215902042795"
    },
    {
      "id": "pt.ine.add.PTCONT.4507814",
      "street": "R 1 MAIO",
      "house": "5",
      "postcode": "2080-400",
      "city": "BENFICA DO RIBATEJO",
      "lon": "-8.661115329857745",
      "lat": "39.126382205234464"
    },
    {
      "id": "pt.ine.add.PTCONT.4517509",
      "street": "R 1 MAIO",
      "house": "",
      "postcode": "2080-400",
      "city": "BENFICA DO RIBATEJO",
      "lon": "-8.66057754422658",
      "lat": "39.12560098930896"
    },
    {
      "id": "pt.ine.add.PTCONT.4517510",
      "street": "R 1 MAIO",
      "house": "19",
      "postcode": "2080-400",
      "city": "BENFICA DO RIBATEJO",
      "lon": "-8.660124206521399",
      "lat": "39.12528777798894"
    },
    {
      "id": "pt.ine.add.PTCONT.4527743",
      "street": "R 1 DE MAIO",
      "house": "",
      "postcode": "2080-381",
      "city": "BENFICA DO RIBATEJO",
      "lon": "-8.665850686549106",
      "lat": "39.13018883591905"
    },
    {
      "id": "pt.ine.add.PTCONT.4532122",
      "street": "R 1 MAIO",
      "house": "58",
      "postcode": "2080-400",
      "city": "BENFICA DO RIBATEJO",
      "lon": "-8.658887332554078",
      "lat": "39.12379812151893"
    },
    {
      "id": "pt.ine.add.PTCONT.4532123",
      "street": "R CAMPO DA BOLA",
      "house": "",
      "postcode": "2080-400",
      "city": "BENFICA DO RIBATEJO",
      "lon": "-8.657853978636945",
      "lat": "39.118560420332756"
    },
    {
      "id": "pt.ine.add.PTCONT.4534061",
      "street": "R CAMPO DA BOLA",
      "house": "",
      "postcode": "2080-400",
      "city": "BENFICA DO RIBATEJO",
      "lon": "-8.661257102627374",
      "lat": "39.12058975168408"
    },
    {
      "id": "pt.ine.add.PTCONT.4544504",
      "street": "R FONTE BRANCA",
      "house": "",
      "postcode": "2080-344",
      "city": "BENFICA DO RIBATEJO",
      "lon": "-8.681832458251744",
      "lat": "39.13602359198602"
    },
    {
      "id": "pt.ine.add.PTCONT.4548162",
      "street": "R FONTE BRANCA",
      "house": "",
      "postcode": "2080-344",
      "city": "BENFICA DO RIBATEJO",
      "lon": "-8.681937596364829",
      "lat": "39.13615820883231"
    },
    {
      "id": "pt.ine.add.PTCONT.4549884",
      "street": "R FONTE BRANCA",
      "house": "1",
      "postcode": "2080-344",
      "city": "BENFICA DO RIBATEJO",
      "lon": "-8.681651008973795",
      "lat": "39.134997595857"
    },
    {
      "id": "pt.ine.add.PTCONT.4552449",
      "street": "R 1 MAIO",
      "house": "8",
      "postcode": "2080-400",
      "city": "BENFICA DO RIBATEJO",
      "lon": "-8.661203334904071",
      "lat": "39.12577830550408"
    },
    {
      "id": "pt.ine.add.PTCONT.4554437",
      "street": "R C",
      "house": "",
      "postcode": "2080-339",
      "city": "BENFICA DO RIBATEJO",
      "lon": "-8.68282827039231",
      "lat": "39.13765825663351"
    },
    {
      "id": "pt.ine.add.PTCONT.4565106",
      "street": "R 1 MAIO",
      "house": "",
      "postcode": "2080-400",
      "city": "BENFICA DO RIBATEJO",
      "lon": "-8.661694505793301",
      "lat": "39.12341611932814"
    },
    {
      "id": "pt.ine.add.PTCONT.4565107",
      "street": "R 1 MAIO",
      "house": "98",
      "postcode": "2080-400",
      "city": "BENFICA DO RIBATEJO",
      "lon": "-8.65618667723666",
      "lat": "39.121387257826726"
    },
    {
      "id": "pt.ine.add.PTCONT.4593929",
      "street": "R ANTÓNIO ALEXANDRE MENDES",
      "house": "17",
      "postcode": "2080-301",
      "city": "BENFICA DO RIBATEJO",
      "lon": "-8.682910778813001",
      "lat": "39.13636980137785"
    },
    {
      "id": "pt.ine.add.PTCONT.4597039",
      "street": "R 1 MAIO",
      "house": "76",
      "postcode": "2080-400",
      "city": "BENFICA DO RIBATEJO",
      "lon": "-8.657909113295867",
      "lat": "39.12287475879486"
    },
    {
      "id": "pt.ine.add.PTCONT.4600091",
      "street": "R A",
      "house": "14 A",
      "postcode": "2080-344",
      "city": "BENFICA DO RIBATEJO",
      "lon": "-8.682010709843498",
      "lat": "39.136233077710344"
    },
    {
      "id": "pt.ine.add.PTCONT.4600398",
      "street": "R 1 MAIO",
      "house": "92",
      "postcode": "2080-400",
      "city": "BENFICA DO RIBATEJO",
      "lon": "-8.657122022476013",
      "lat": "39.121211914733095"
    },
    {
      "id": "pt.ine.add.PTCONT.4602412",
      "street": "R 1 MAIO",
      "house": "82",
      "postcode": "2080-400",
      "city": "BENFICA DO RIBATEJO",
      "lon": "-8.657375729625109",
      "lat": "39.122678994217644"
    },
    {
      "id": "pt.ine.add.PTCONT.4602413",
      "street": "R 1 MAIO",
      "house": "82",
      "postcode": "2080-400",
      "city": "BENFICA DO RIBATEJO",
      "lon": "-8.657375729625109",
      "lat": "39.122678994217644"
    },
    {
      "id": "pt.ine.add.PTCONT.4606810",
      "street": "R 1 MAIO",
      "house": "",
      "postcode": "2080-400",
      "city": "BENFICA DO RIBATEJO",
      "lon": "-8.65795402999634",
      "lat": "39.12269440687761"
    },
    {
      "id": "pt.ine.add.PTCONT.4606811",
      "street": "R 1 MAIO",
      "house": "86",
      "postcode": "2080-400",
      "city": "BENFICA DO RIBATEJO",
      "lon": "-8.657300408514514",
      "lat": "39.12187766672862"
    },
    {
      "id": "pt.ine.add.PTCONT.4612806",
      "street": "R 1 MAIO",
      "house": "",
      "postcode": "2080-400",
      "city": "BENFICA DO RIBATEJO",
      "lon": "-8.661029137108235",
      "lat": "39.12413072564983"
    },
    {
      "id": "pt.ine.add.PTCONT.4614545",
      "street": "R AFONSO COSTA",
      "house": "63",
      "postcode": "2080-326",
      "city": "BENFICA DO RIBATEJO",
      "lon": "-8.681590714993579",
      "lat": "39.13717669156797"
    },
    {
      "id": "pt.ine.add.PTCONT.4614606",
      "street": "PCT ENG JOSÉ MANUEL MALFEITO FERREIRA",
      "house": "12-12 A",
      "postcode": "2080-301",
      "city": "BENFICA DO RIBATEJO",
      "lon": "-8.682403225396984",
      "lat": "39.13654333605682"
    },
    {
      "id": "pt.ine.add.PTCONT.4619049",
      "street": "R 1 MAIO",
      "house": "1",
      "postcode": "2080-400",
      "city": "BENFICA DO RIBATEJO",
      "lon": "-8.661166629806816",
      "lat": "39.12705753367344"
    },
    {
      "id": "pt.ine.add.PTCONT.4626971",
      "street": "R 1 MAIO",
      "house": "42",
      "postcode": "2080-400",
      "city": "BENFICA DO RIBATEJO",
      "lon": "-8.660236218830137",
      "lat": "39.124800867569995"
    },
    {
      "id": "pt.ine.add.PTCONT.4627367",
      "street": "R 1 DE MAIO",
      "house": "",
      "postcode": "2080-381",
      "city": "BENFICA DO RIBATEJO",
      "lon": "-8.664378868453523",
      "lat": "39.12824093182163"
    },
    {
      "id": "pt.ine.add.PTCONT.4629432",
      "street": "R FONTE BRANCA",
      "house": "",
      "postcode": "2080-344",
      "city": "BENFICA DO RIBATEJO",
      "lon": "-8.68177061512211",
      "lat": "39.13699668839061"
    },
    {
      "id": "pt.ine.add.PTCONT.4633367",
      "street": "R A",
      "house": "12 A",
      "postcode": "2080-344",
      "city": "BENFICA DO RIBATEJO",
      "lon": "-8.681869460873981",
      "lat": "39.13609539186743"
    },
    {
      "id": "pt.ine.add.PTCONT.4632536",
      "street": "R 1 MAIO",
      "house": "",
      "postcode": "2080-400",
      "city": "BENFICA DO RIBATEJO",
      "lon": "-8.66124763415218",
      "lat": "39.12396760123722"
    },
    {
      "id": "pt.ine.add.PTCONT.4633689",
      "street": "R 1 MAIO",
      "house": "",
      "postcode": "2080-400",
      "city": "BENFICA DO RIBATEJO",
      "lon": "-8.661822781026776",
      "lat": "39.123559657308945"
    },
    {
      "id": "pt.ine.add.PTCONT.4637702",
      "street": "R 1 MAIO",
      "house": "20",
      "postcode": "2080-400",
      "city": "BENFICA DO RIBATEJO",
      "lon": "-8.661181077509633",
      "lat": "39.124346216991725"
    },
    {
      "id": "pt.ine.add.PTCONT.4637703",
      "street": "R 1 MAIO",
      "house": "32",
      "postcode": "2080-400",
      "city": "BENFICA DO RIBATEJO",
      "lon": "-8.66179817284226",
      "lat": "39.12336160430635"
    },
    {
      "id": "pt.ine.add.PTCONT.4639650",
      "street": "R 1 MAIO",
      "house": "26",
      "postcode": "2080-400",
      "city": "BENFICA DO RIBATEJO",
      "lon": "-8.661340747905996",
      "lat": "39.12404824666459"
    },
    {
      "id": "pt.ine.add.PTCONT.4643878",
      "street": "R AFONSO COSTA",
      "house": "",
      "postcode": "2080-326",
      "city": "BENFICA DO RIBATEJO",
      "lon": "-8.680621920343604",
      "lat": "39.136524694698146"
    },
    {
      "id": "pt.ine.add.PTCONT.4643934",
      "street": "R 1 MAIO",
      "house": "",
      "postcode": "2080-400",
      "city": "BENFICA DO RIBATEJO",
      "lon": "-8.660284084887943",
      "lat": "39.125016830643034"
    },
    {
      "id": "pt.ine.add.PTCONT.4654164",
      "street": "R 1 MAIO",
      "house": "18",
      "postcode": "2080-400",
      "city": "BENFICA DO RIBATEJO",
      "lon": "-8.66053982998859",
      "lat": "39.12519582336777"
    },
    {
      "id": "pt.ine.add.PTCONT.4661840",
      "street": "R DIREITA",
      "house": "",
      "postcode": "2080-329",
      "city": "BENFICA DO RIBATEJO",
      "lon": "-8.663643869269363",
      "lat": "39.13354967951323"
    }
  ]
}