{
  "data": {
    "distrito": "Leiria",
    "concelho": "Alcobaça",
    "freguesia": "Aljubarrota",
    "OBJECTID": 325,
    "BGRI2021": "10012000119",
    "DT21": "10",
    "DTMN21": "1001",
    "DTMNFR21": "100120",
    "DTMNFRSEC21": "100120001",
    "SECNUM21": "001",
    "SSNUM21": "19",
    "SECSSNUM21": "00119",
    "OBJECTID_1": 84793,
    "DT": "10",
    "CC": "01",
    "fr": "20",
    "SEC": "001",
    "SS": "19"
  },
  "addresses": [
    {
      "id": "pt.ine.add.PTCONT.1984206",
      "street": "R ES COLA",
      "house": "10",
      "postcode": "2460-605",
      "city": "ALJUBARROTA (PRAZERES)",
      "lon": "-8.941667678439861",
      "lat": "39.526480046397225"
    },
    {
      "id": "pt.ine.add.PTCONT.1994894",
      "street": "R ESCOLA",
      "house": "6",
      "postcode": "2460-605",
      "city": "ALJUBARROTA (PRAZERES)",
      "lon": "-8.942430068194197",
      "lat": "39.52703316012129"
    },
    {
      "id": "pt.ine.add.PTCONT.2006103",
      "street": "R NOVA",
      "house": "2 A",
      "postcode": "2460-605",
      "city": "ALJUBARROTA (PRAZERES)",
      "lon": "-8.939625786270621",
      "lat": "39.528926057476326"
    },
    {
      "id": "pt.ine.add.PTCONT.2014970",
      "street": "R LAGOA",
      "house": "",
      "postcode": "2460-613",
      "city": "ALJUBARROTA (PRAZERES)",
      "lon": "-8.931794066852916",
      "lat": "39.52753905081266"
    },
    {
      "id": "pt.ine.add.PTCONT.2030217",
      "street": "R LAGOA",
      "house": "48",
      "postcode": "2460-613",
      "city": "ALJUBARROTA (PRAZERES)",
      "lon": "-8.93148811420143",
      "lat": "39.52824368032706"
    },
    {
      "id": "pt.ine.add.PTCONT.2045639",
      "street": "R NOVA",
      "house": "2",
      "postcode": "2460-605",
      "city": "ALJUBARROTA (PRAZERES)",
      "lon": "-8.940077991536318",
      "lat": "39.528805831126576"
    },
    {
      "id": "pt.ine.add.PTCONT.2050912",
      "street": "R LAGOA",
      "house": "",
      "postcode": "2460-613",
      "city": "ALJUBARROTA (PRAZERES)",
      "lon": "-8.931228343193204",
      "lat": "39.52790320714256"
    },
    {
      "id": "pt.ine.add.PTCONT.2075994",
      "street": "R CABECO",
      "house": "3",
      "postcode": "2460-613",
      "city": "ALJUBARROTA (PRAZERES)",
      "lon": "-8.933024215497857",
      "lat": "39.52730542286271"
    },
    {
      "id": "pt.ine.add.PTCONT.2091833",
      "street": "R NOVA",
      "house": "4",
      "postcode": "2460-605",
      "city": "ALJUBARROTA (PRAZERES)",
      "lon": "-8.939149486745245",
      "lat": "39.5289743950621"
    },
    {
      "id": "pt.ine.add.PTCONT.2124550",
      "street": "R CABECO",
      "house": "",
      "postcode": "2460-613",
      "city": "ALJUBARROTA (PRAZERES)",
      "lon": "-8.932612680060048",
      "lat": "39.527929720961005"
    },
    {
      "id": "pt.ine.add.PTCONT.2128927",
      "street": "TV ESCOLA",
      "house": "10",
      "postcode": "2460-605",
      "city": "ALJUBARROTA (PRAZERES)",
      "lon": "-8.941160225162681",
      "lat": "39.527852603005144"
    },
    {
      "id": "pt.ine.add.PTCONT.2131048",
      "street": "R NOVA",
      "house": "",
      "postcode": "2460-613",
      "city": "ALJUBARROTA (PRAZERES)",
      "lon": "-8.93589335678821",
      "lat": "39.52901494197484"
    },
    {
      "id": "pt.ine.add.PTCONT.2133202",
      "street": "R GRAÇAS",
      "house": "",
      "postcode": "2460-613",
      "city": "ALJUBARROTA (PRAZERES)",
      "lon": "-8.934281577566578",
      "lat": "39.529440373293255"
    },
    {
      "id": "pt.ine.add.PTCONT.2133232",
      "street": "R LAMEIRAO",
      "house": "2",
      "postcode": "2460-605",
      "city": "ALJUBARROTA (PRAZERES)",
      "lon": "-8.940475853240379",
      "lat": "39.528010473391056"
    },
    {
      "id": "pt.ine.add.PTCONT.2142302",
      "street": "R CABECO",
      "house": "5",
      "postcode": "2460-613",
      "city": "ALJUBARROTA (PRAZERES)",
      "lon": "-8.933079055910985",
      "lat": "39.52701682894489"
    },
    {
      "id": "pt.ine.add.PTCONT.2192469",
      "street": "R NOVA",
      "house": "6",
      "postcode": "2460-605",
      "city": "ALJUBARROTA (PRAZERES)",
      "lon": "-8.938881689714236",
      "lat": "39.528949231456814"
    },
    {
      "id": "pt.ine.add.PTCONT.2194634",
      "street": "R NOVA",
      "house": "",
      "postcode": "2460-613",
      "city": "ALJUBARROTA (PRAZERES)",
      "lon": "-8.936482427855726",
      "lat": "39.52865960845879"
    },
    {
      "id": "pt.ine.add.PTCONT.2206703",
      "street": "R LAMEIRAO",
      "house": "6",
      "postcode": "2460-605",
      "city": "ALJUBARROTA (PRAZERES)",
      "lon": "-8.940098597250833",
      "lat": "39.527571761723415"
    },
    {
      "id": "pt.ine.add.PTCONT.2206704",
      "street": "R LAMEIRAO",
      "house": "6",
      "postcode": "2460-605",
      "city": "ALJUBARROTA (PRAZERES)",
      "lon": "-8.940098597250833",
      "lat": "39.527571761723415"
    },
    {
      "id": "pt.ine.add.PTCONT.2210361",
      "street": "R SEDE",
      "house": "",
      "postcode": "2460-605",
      "city": "ALJUBARROTA (PRAZERES)",
      "lon": "-8.93772710706047",
      "lat": "39.52766926225121"
    },
    {
      "id": "pt.ine.add.PTCONT.2212379",
      "street": "R DA ESCOLA",
      "house": "8",
      "postcode": "2460-605",
      "city": "ALJUBARROTA (PRAZERES)",
      "lon": "-8.942252549754878",
      "lat": "39.52691477713323"
    },
    {
      "id": "pt.ine.add.PTCONT.2230757",
      "street": "R CABECO",
      "house": "",
      "postcode": "2460-613",
      "city": "ALJUBARROTA (PRAZERES)",
      "lon": "-8.932469613458851",
      "lat": "39.52762447485876"
    },
    {
      "id": "pt.ine.add.PTCONT.2236191",
      "street": "R LAMEIRAO",
      "house": "4",
      "postcode": "2460-605",
      "city": "ALJUBARROTA (PRAZERES)",
      "lon": "-8.940265373269007",
      "lat": "39.52791286074396"
    }
  ]
}