{
  "data": {
    "distrito": "Faro",
    "concelho": "Loulé",
    "freguesia": "Loulé (São Sebastião)",
    "OBJECTID": 1752,
    "BGRI2021": "08080900613",
    "DT21": "08",
    "DTMN21": "0808",
    "DTMNFR21": "080809",
    "DTMNFRSEC21": "080809006",
    "SECNUM21": "006",
    "SSNUM21": "13",
    "SECSSNUM21": "00613",
    "OBJECTID_1": 69682,
    "DT": "08",
    "CC": "08",
    "fr": "09",
    "SEC": "006",
    "SS": "13"
  },
  "addresses": [
    {
      "id": "pt.ine.add.PTCONT.1476654",
      "street": "",
      "house": "",
      "postcode": "8100-313",
      "city": "LOULÉ",
      "lon": "-8.079625999087463",
      "lat": "37.15294741637466"
    },
    {
      "id": "pt.ine.add.PTCONT.1480833",
      "street": "",
      "house": "",
      "postcode": "8100-313",
      "city": "LOULÉ",
      "lon": "-8.075031490657617",
      "lat": "37.155071752881575"
    },
    {
      "id": "pt.ine.add.PTCONT.1538854",
      "street": "",
      "house": "",
      "postcode": "8100-313",
      "city": "LOULÉ",
      "lon": "-8.074885317467524",
      "lat": "37.154846416495204"
    },
    {
      "id": "pt.ine.add.PTCONT.1563077",
      "street": "",
      "house": "",
      "postcode": "8100-313",
      "city": "LOULÉ",
      "lon": "-8.074548132199224",
      "lat": "37.15415243514098"
    },
    {
      "id": "pt.ine.add.PTCONT.1565472",
      "street": "SIT PALMEIRAL",
      "house": "",
      "postcode": "8100-336",
      "city": "LOULÉ",
      "lon": "-8.083477935159856",
      "lat": "37.149858458723386"
    },
    {
      "id": "pt.ine.add.PTCONT.1569858",
      "street": "",
      "house": "",
      "postcode": "8100-313",
      "city": "LOULÉ",
      "lon": "-8.074693949534431",
      "lat": "37.15483731174369"
    },
    {
      "id": "pt.ine.add.PTCONT.1569862",
      "street": "CASA MIMOSA",
      "house": "",
      "postcode": "8100-283",
      "city": "LOULÉ",
      "lon": "-8.074406844806564",
      "lat": "37.14761067478345"
    },
    {
      "id": "pt.ine.add.PTCONT.1580665",
      "street": "ROCHAS FLORIDAS",
      "house": "",
      "postcode": "8100-283",
      "city": "LOULÉ",
      "lon": "-8.074168232434987",
      "lat": "37.15048493640049"
    },
    {
      "id": "pt.ine.add.PTCONT.1600316",
      "street": "",
      "house": "",
      "postcode": "8100-283",
      "city": "LOULÉ",
      "lon": "-8.083702018016188",
      "lat": "37.151471448602706"
    },
    {
      "id": "pt.ine.add.PTCONT.1605211",
      "street": "SKERRY",
      "house": "",
      "postcode": "8100-313",
      "city": "LOULÉ",
      "lon": "-8.07642717019097",
      "lat": "37.15538779909952"
    },
    {
      "id": "pt.ine.add.PTCONT.1607886",
      "street": "",
      "house": "",
      "postcode": "8100-313",
      "city": "LOULÉ",
      "lon": "-8.074738771112306",
      "lat": "37.155107651427514"
    },
    {
      "id": "pt.ine.add.PTCONT.1633424",
      "street": "EN 270",
      "house": "",
      "postcode": "8100-336",
      "city": "LOULÉ",
      "lon": "-8.083050457286925",
      "lat": "37.149443791576275"
    },
    {
      "id": "pt.ine.add.PTCONT.1642222",
      "street": "SIT CABECOS MOMPROLE",
      "house": "",
      "postcode": "8100-284",
      "city": "LOULÉ",
      "lon": "-8.073854232998345",
      "lat": "37.148961989339575"
    },
    {
      "id": "pt.ine.add.PTCONT.1659760",
      "street": "SERRINHO",
      "house": "",
      "postcode": "8100-283",
      "city": "LOULÉ",
      "lon": "-8.07384532481895",
      "lat": "37.14595244511417"
    },
    {
      "id": "pt.ine.add.PTCONT.1671250",
      "street": "",
      "house": "",
      "postcode": "8100-313",
      "city": "LOULÉ",
      "lon": "-8.075673127156207",
      "lat": "37.15511711849286"
    },
    {
      "id": "pt.ine.add.PTCONT.1693736",
      "street": "CAJA DO ARTESAO",
      "house": "",
      "postcode": "8100-336",
      "city": "LOULÉ",
      "lon": "-8.08070996617454",
      "lat": "37.148181296501235"
    },
    {
      "id": "pt.ine.add.PTCONT.1693737",
      "street": "CAJA DO ARTESAO",
      "house": "",
      "postcode": "8100-336",
      "city": "LOULÉ",
      "lon": "-8.08070996617454",
      "lat": "37.148181296501235"
    },
    {
      "id": "pt.ine.add.PTCONT.1699566",
      "street": "",
      "house": "",
      "postcode": "8100-313",
      "city": "LOULÉ",
      "lon": "-8.074402017940457",
      "lat": "37.15385501344707"
    },
    {
      "id": "pt.ine.add.PTCONT.1719473",
      "street": "",
      "house": "",
      "postcode": "8100-283",
      "city": "LOULÉ",
      "lon": "-8.073619907892398",
      "lat": "37.146330777399534"
    },
    {
      "id": "pt.ine.add.PTCONT.1725146",
      "street": "ROCHA DE MONPROLE",
      "house": "",
      "postcode": "8100-283",
      "city": "LOULÉ",
      "lon": "-8.074541600460515",
      "lat": "37.148025228934934"
    },
    {
      "id": "pt.ine.add.PTCONT.1806488",
      "street": "",
      "house": "",
      "postcode": "8100-313",
      "city": "LOULÉ",
      "lon": "-8.074154093749927",
      "lat": "37.154197292733066"
    },
    {
      "id": "pt.ine.add.PTCONT.1806955",
      "street": "",
      "house": "",
      "postcode": "8100-313",
      "city": "LOULÉ",
      "lon": "-8.074154093749927",
      "lat": "37.154197292733066"
    },
    {
      "id": "pt.ine.add.PTCONT.1811576",
      "street": "",
      "house": "",
      "postcode": "8100-313",
      "city": "LOULÉ",
      "lon": "-8.07452615298348",
      "lat": "37.15345860896656"
    },
    {
      "id": "pt.ine.add.PTCONT.1816506",
      "street": "",
      "house": "",
      "postcode": "8100-313",
      "city": "LOULÉ",
      "lon": "-8.074232244741507",
      "lat": "37.155035316193214"
    },
    {
      "id": "pt.ine.add.PTCONT.1819606",
      "street": "CASA LAGO",
      "house": "",
      "postcode": "8100-313",
      "city": "LOULÉ",
      "lon": "-8.079366659350109",
      "lat": "37.153551008563305"
    },
    {
      "id": "pt.ine.add.PTCONT.1821262",
      "street": "",
      "house": "",
      "postcode": "8100-313",
      "city": "LOULÉ",
      "lon": "-8.074198794191757",
      "lat": "37.15462081257394"
    },
    {
      "id": "pt.ine.add.PTCONT.1840823",
      "street": "QTA DOS CADECOS",
      "house": "",
      "postcode": "8100-283",
      "city": "LOULÉ",
      "lon": "-8.074260687801498",
      "lat": "37.14738533735641"
    }
  ]
}