{
  "data": {
    "distrito": "Faro",
    "concelho": "Loulé",
    "freguesia": "Loulé (São Sebastião)",
    "OBJECTID": 1321,
    "BGRI2021": "08080900617",
    "DT21": "08",
    "DTMN21": "0808",
    "DTMNFR21": "080809",
    "DTMNFRSEC21": "080809006",
    "SECNUM21": "006",
    "SSNUM21": "17",
    "SECSSNUM21": "00617",
    "OBJECTID_1": 68228,
    "DT": "08",
    "CC": "08",
    "fr": "09",
    "SEC": "006",
    "SS": "17"
  },
  "addresses": [
    {
      "id": "pt.ine.add.PTCONT.1563076",
      "street": "",
      "house": "",
      "postcode": "8100-327",
      "city": "LOULÉ",
      "lon": "-8.069695433421856",
      "lat": "37.15514110266995"
    },
    {
      "id": "pt.ine.add.PTCONT.1564955",
      "street": "",
      "house": "",
      "postcode": "8100-280",
      "city": "LOULÉ",
      "lon": "-8.067994864774336",
      "lat": "37.1559601438722"
    },
    {
      "id": "pt.ine.add.PTCONT.1598697",
      "street": "",
      "house": "",
      "postcode": "8100-327",
      "city": "LOULÉ",
      "lon": "-8.069290644573519",
      "lat": "37.15457321844099"
    },
    {
      "id": "pt.ine.add.PTCONT.1677420",
      "street": "VILLA JASMIN",
      "house": "",
      "postcode": "8100-280",
      "city": "LOULÉ",
      "lon": "-8.071158379233449",
      "lat": "37.1557726173879"
    },
    {
      "id": "pt.ine.add.PTCONT.1713792",
      "street": "",
      "house": "",
      "postcode": "8100-280",
      "city": "LOULÉ",
      "lon": "-8.068592125234222",
      "lat": "37.155239623663014"
    },
    {
      "id": "pt.ine.add.PTCONT.1737748",
      "street": "SOBRADINHO ALFEICAO",
      "house": "652 Z",
      "postcode": "8100-327",
      "city": "LOULÉ",
      "lon": "-8.069357371358436",
      "lat": "37.15554639767494"
    },
    {
      "id": "pt.ine.add.PTCONT.1753267",
      "street": "",
      "house": "",
      "postcode": "8100-327",
      "city": "LOULÉ",
      "lon": "-8.070191281114612",
      "lat": "37.15451062586252"
    },
    {
      "id": "pt.ine.add.PTCONT.1754608",
      "street": "",
      "house": "",
      "postcode": "8100-327",
      "city": "LOULÉ",
      "lon": "-8.069200123537247",
      "lat": "37.15512281544993"
    },
    {
      "id": "pt.ine.add.PTCONT.1760978",
      "street": "TARA",
      "house": "",
      "postcode": "8100-280",
      "city": "LOULÉ",
      "lon": "-8.067972852186639",
      "lat": "37.15537444372981"
    },
    {
      "id": "pt.ine.add.PTCONT.1801061",
      "street": "SOBRADINHO DE ALFEICAO",
      "house": "651 Z",
      "postcode": "8100-327",
      "city": "LOULÉ",
      "lon": "-8.068501422000502",
      "lat": "37.15599646343019"
    },
    {
      "id": "pt.ine.add.PTCONT.1842623",
      "street": "VILLA JASMIM",
      "house": "",
      "postcode": "8100-280",
      "city": "LOULÉ",
      "lon": "-8.070932927086497",
      "lat": "37.15614193331516"
    }
  ]
}