{
  "data": {
    "distrito": "Santarém",
    "concelho": "Torres Novas",
    "freguesia": "União das freguesias de Olaia e Paço",
    "OBJECTID": 370,
    "BGRI2021": "14191900126",
    "DT21": "14",
    "DTMN21": "1419",
    "DTMNFR21": "141919",
    "DTMNFRSEC21": "141919001",
    "SECNUM21": "001",
    "SSNUM21": "26",
    "SECSSNUM21": "00126",
    "OBJECTID_1": 157246,
    "DT": "14",
    "CC": "19",
    "fr": "19",
    "SEC": "001",
    "SS": "26"
  },
  "addresses": [
    {
      "id": "pt.ine.add.PTCONT.4400291",
      "street": "R JOSE ANTUNES SIRGADO",
      "house": "4",
      "postcode": "2350-151",
      "city": "OLAIA",
      "lon": "-8.490093066055664",
      "lat": "39.51026176713163"
    },
    {
      "id": "pt.ine.add.PTCONT.4428982",
      "street": "R MAESTRO BONIFACIO RODRIGUES",
      "house": "13",
      "postcode": "2350-151",
      "city": "OLAIA",
      "lon": "-8.489951553965955",
      "lat": "39.50987490366998"
    },
    {
      "id": "pt.ine.add.PTCONT.4435034",
      "street": "R MAESTRO BONIFACIO RODRIGUES",
      "house": "2",
      "postcode": "2350-151",
      "city": "OLAIA",
      "lon": "-8.490275510283896",
      "lat": "39.50955866639523"
    },
    {
      "id": "pt.ine.add.PTCONT.4472360",
      "street": "R GUILHERMINA ANTUNES",
      "house": "25",
      "postcode": "2350-151",
      "city": "OLAIA",
      "lon": "-8.489890928885085",
      "lat": "39.50938871559214"
    },
    {
      "id": "pt.ine.add.PTCONT.4477300",
      "street": "R DR VITOR LOPES DAS NEVES",
      "house": "1",
      "postcode": "2350-151",
      "city": "OLAIA",
      "lon": "-8.490424360576379",
      "lat": "39.50910786256924"
    },
    {
      "id": "pt.ine.add.PTCONT.4478873",
      "street": "TV MARIA JOSE FELICIO",
      "house": "1",
      "postcode": "2350-151",
      "city": "OLAIA",
      "lon": "-8.489940525387667",
      "lat": "39.509992027584666"
    },
    {
      "id": "pt.ine.add.PTCONT.4487089",
      "street": "TV MARIA JOSE FELICIO",
      "house": "3",
      "postcode": "2350-151",
      "city": "OLAIA",
      "lon": "-8.489987450218067",
      "lat": "39.51007294590241"
    },
    {
      "id": "pt.ine.add.PTCONT.4502846",
      "street": "TV CATARINA EUFEMIA",
      "house": "1",
      "postcode": "2350-151",
      "city": "OLAIA",
      "lon": "-8.490135611999506",
      "lat": "39.50948704066598"
    },
    {
      "id": "pt.ine.add.PTCONT.4547233",
      "street": "LG S MARTA",
      "house": "13",
      "postcode": "2350-151",
      "city": "OLAIA",
      "lon": "-8.490448030569219",
      "lat": "39.509188852182334"
    },
    {
      "id": "pt.ine.add.PTCONT.4548826",
      "street": "R JOSE ANTUNES SIRGADO",
      "house": "2",
      "postcode": "2350-151",
      "city": "OLAIA",
      "lon": "-8.490093665255063",
      "lat": "39.51037885534837"
    },
    {
      "id": "pt.ine.add.PTCONT.4550037",
      "street": "LG S MARTA",
      "house": "",
      "postcode": "2350-151",
      "city": "OLAIA",
      "lon": "-8.490307948381854",
      "lat": "39.509081199503186"
    },
    {
      "id": "pt.ine.add.PTCONT.4573100",
      "street": "TV MARIA JOSE FELICIO",
      "house": "5",
      "postcode": "2350-151",
      "city": "OLAIA",
      "lon": "-8.48998786492254",
      "lat": "39.51015400697935"
    },
    {
      "id": "pt.ine.add.PTCONT.4606346",
      "street": "BC NEVES",
      "house": "3",
      "postcode": "2350-151",
      "city": "OLAIA",
      "lon": "-8.489881190058087",
      "lat": "39.509758029552096"
    },
    {
      "id": "pt.ine.add.PTCONT.4628514",
      "street": "TERR S MARTA",
      "house": "",
      "postcode": "2350-151",
      "city": "OLAIA",
      "lon": "-8.48994961890882",
      "lat": "39.50949661861477"
    },
    {
      "id": "pt.ine.add.PTCONT.4631602",
      "street": "R DR VITOR LOPES DAS NEVES",
      "house": "3",
      "postcode": "2350-151",
      "city": "OLAIA",
      "lon": "-8.490447107849356",
      "lat": "39.50900871643327"
    },
    {
      "id": "pt.ine.add.PTCONT.4634308",
      "street": "R MAESTRO BONIFACIO RODRIGUES",
      "house": "6",
      "postcode": "2350-151",
      "city": "OLAIA",
      "lon": "-8.490149267772606",
      "lat": "39.509883303579265"
    },
    {
      "id": "pt.ine.add.PTCONT.4648630",
      "street": "LG S MARTA",
      "house": "29",
      "postcode": "2350-151",
      "city": "OLAIA",
      "lon": "-8.490216312531086",
      "lat": "39.50935168888149"
    },
    {
      "id": "pt.ine.add.PTCONT.4658002",
      "street": "R MAESTRO BONIFACIO RODRIGUES",
      "house": "4",
      "postcode": "2350-151",
      "city": "OLAIA",
      "lon": "-8.490171646869848",
      "lat": "39.509712103213715"
    }
  ]
}