{
  "data": {
    "distrito": "Ã‰vora",
    "concelho": "Redondo",
    "freguesia": "Redondo",
    "OBJECTID": 1,
    "BGRI2021": "07100200109",
    "DT21": "07",
    "DTMN21": "0710",
    "DTMNFR21": "071002",
    "DTMNFRSEC21": "071002001",
    "SECNUM21": "001",
    "SSNUM21": "09",
    "SECSSNUM21": "00109",
    "OBJECTID_1": 62856,
    "DT": "07",
    "CC": "10",
    "fr": "02",
    "SEC": "001",
    "SS": "09"
  },
  "addresses": [
    {
      "id": "pt.ine.add.PTCONT.1383920",
      "street": "",
      "house": "",
      "postcode": "7170-105",
      "city": "REDONDO",
      "lon": "-7.6549636684331075",
      "lat": "38.58141160582886"
    },
    {
      "id": "pt.ine.add.PTCONT.1379649",
      "street": "FORO DA FUZETA",
      "house": "",
      "postcode": "7170-105",
      "city": "REDONDO",
      "lon": "-7.6544827505597",
      "lat": "38.57951789078547"
    },
    {
      "id": "pt.ine.add.PTCONT.1380385",
      "street": "FONO DO TIO MANUELINHO",
      "house": "",
      "postcode": "7170-105",
      "city": "REDONDO",
      "lon": "-7.653474682731848",
      "lat": "38.58269370450477"
    },
    {
      "id": "pt.ine.add.PTCONT.1381731",
      "street": "FORO DO TIO MANUELINHO",
      "house": "",
      "postcode": "7170-105",
      "city": "REDONDO",
      "lon": "-7.653416761867432",
      "lat": "38.582774542076756"
    },
    {
      "id": "pt.ine.add.PTCONT.1383203",
      "street": "",
      "house": "",
      "postcode": "7170-105",
      "city": "REDONDO",
      "lon": "-7.654145334701677",
      "lat": "38.581939751337046"
    },
    {
      "id": "pt.ine.add.PTCONT.1385413",
      "street": "FORO DO FIGUEIRA",
      "house": "",
      "postcode": "7170-105",
      "city": "REDONDO",
      "lon": "-7.65519829071475",
      "lat": "38.57970431881898"
    },
    {
      "id": "pt.ine.add.PTCONT.1389127",
      "street": "FOMO DO BONITO",
      "house": "",
      "postcode": "7170-105",
      "city": "REDONDO",
      "lon": "-7.649888988769681",
      "lat": "38.580012490627816"
    },
    {
      "id": "pt.ine.add.PTCONT.1390650",
      "street": "FORO DO TIO MANUELINHO",
      "house": "",
      "postcode": "7170-105",
      "city": "REDONDO",
      "lon": "-7.6531865159474215",
      "lat": "38.582881698125526"
    },
    {
      "id": "pt.ine.add.PTCONT.1395003",
      "street": "",
      "house": "",
      "postcode": "7170-105",
      "city": "REDONDO",
      "lon": "-7.656400720022096",
      "lat": "38.581144357546066"
    },
    {
      "id": "pt.ine.add.PTCONT.1395004",
      "street": "FORO DA FIGUEIRA",
      "house": "",
      "postcode": "7170-105",
      "city": "REDONDO",
      "lon": "-7.655131870203096",
      "lat": "38.57969375557938"
    },
    {
      "id": "pt.ine.add.PTCONT.1397374",
      "street": "FORO DO JARRETA",
      "house": "",
      "postcode": "7170-105",
      "city": "REDONDO",
      "lon": "-7.6549307307001015",
      "lat": "38.581379300722716"
    },
    {
      "id": "pt.ine.add.PTCONT.1397548",
      "street": "",
      "house": "",
      "postcode": "7170-105",
      "city": "REDONDO",
      "lon": "-7.650032333228341",
      "lat": "38.58259847247224"
    },
    {
      "id": "pt.ine.add.PTCONT.1398197",
      "street": "FORO DA FONTANA",
      "house": "",
      "postcode": "7170-105",
      "city": "REDONDO",
      "lon": "-7.655460482419884",
      "lat": "38.58090916786687"
    },
    {
      "id": "pt.ine.add.PTCONT.1401984",
      "street": "FORO DO MIRA",
      "house": "",
      "postcode": "7170-105",
      "city": "REDONDO",
      "lon": "-7.647840645495069",
      "lat": "38.58084179074749"
    },
    {
      "id": "pt.ine.add.PTCONT.1405031",
      "street": "MTE FORO BONITO",
      "house": "",
      "postcode": "7170-105",
      "city": "REDONDO",
      "lon": "-7.6500825100712",
      "lat": "38.580247505990386"
    },
    {
      "id": "pt.ine.add.PTCONT.1409517",
      "street": "",
      "house": "",
      "postcode": "7170-105",
      "city": "REDONDO",
      "lon": "-7.656308994178415",
      "lat": "38.58102072744452"
    },
    {
      "id": "pt.ine.add.PTCONT.1410154",
      "street": "",
      "house": "",
      "postcode": "7170-105",
      "city": "REDONDO",
      "lon": "-7.654208527479946",
      "lat": "38.57933660246707"
    },
    {
      "id": "pt.ine.add.PTCONT.1414776",
      "street": "ZONA DO LAMEIRAO",
      "house": "",
      "postcode": "7170-105",
      "city": "REDONDO",
      "lon": "-7.656767976749171",
      "lat": "38.581031604609535"
    },
    {
      "id": "pt.ine.add.PTCONT.1416413",
      "street": "FORO DO BONITO",
      "house": "",
      "postcode": "7170-105",
      "city": "REDONDO",
      "lon": "-7.652578786967379",
      "lat": "38.57935694796244"
    },
    {
      "id": "pt.ine.add.PTCONT.1419863",
      "street": "FORO DA FONTANA",
      "house": "",
      "postcode": "7170-105",
      "city": "REDONDO",
      "lon": "-7.655689645258913",
      "lat": "38.58096415281389"
    },
    {
      "id": "pt.ine.add.PTCONT.1420846",
      "street": "R ESCOLA VELHA",
      "house": "",
      "postcode": "7170-105",
      "city": "REDONDO",
      "lon": "-7.655468238410469",
      "lat": "38.5797381164718"
    },
    {
      "id": "pt.ine.add.PTCONT.1424268",
      "street": "FORO DA FIGUEIRA",
      "house": "",
      "postcode": "7170-105",
      "city": "REDONDO",
      "lon": "-7.654791581767694",
      "lat": "38.57967229489712"
    },
    {
      "id": "pt.ine.add.PTCONT.1426009",
      "street": "RONTE BRANCO",
      "house": "",
      "postcode": "7170-105",
      "city": "REDONDO",
      "lon": "-7.656447401970859",
      "lat": "38.58108106145916"
    },
    {
      "id": "pt.ine.add.PTCONT.1434293",
      "street": "LG FONTANA",
      "house": "",
      "postcode": "7170-105",
      "city": "REDONDO",
      "lon": "-7.655586480184307",
      "lat": "38.58094571530384"
    },
    {
      "id": "pt.ine.add.PTCONT.1447287",
      "street": "FORO DO BONITO",
      "house": "",
      "postcode": "7170-105",
      "city": "REDONDO",
      "lon": "-7.649933926663212",
      "lat": "38.580156809421595"
    },
    {
      "id": "pt.ine.add.PTCONT.1448218",
      "street": "",
      "house": "",
      "postcode": "7170-105",
      "city": "REDONDO",
      "lon": "-7.655330647617326",
      "lat": "38.5797195382474"
    },
    {
      "id": "pt.ine.add.PTCONT.1454907",
      "street": "CURVA DA MURTA",
      "house": "",
      "postcode": "7170-105",
      "city": "REDONDO",
      "lon": "-7.653072029247644",
      "lat": "38.58111559637079"
    },
    {
      "id": "pt.ine.add.PTCONT.1458432",
      "street": "",
      "house": "",
      "postcode": "7170-105",
      "city": "REDONDO",
      "lon": "-7.654372999299263",
      "lat": "38.57939418543414"
    },
    {
      "id": "pt.ine.add.PTCONT.1464778",
      "street": "",
      "house": "",
      "postcode": "7170-105",
      "city": "REDONDO",
      "lon": "-7.654208527479946",
      "lat": "38.57933660246707"
    },
    {
      "id": "pt.ine.add.PTCONT.1465744",
      "street": "R LAMEIRAO",
      "house": "",
      "postcode": "7170-105",
      "city": "REDONDO",
      "lon": "-7.65626348367802",
      "lat": "38.58107173187847"
    }
  ]
}