{
  "data": {
    "distrito": "Viseu",
    "concelho": "Carregal do Sal",
    "freguesia": "Carregal do Sal",
    "OBJECTID": 281,
    "BGRI2021": "18020800310",
    "DT21": "18",
    "DTMN21": "1802",
    "DTMNFR21": "180208",
    "DTMNFRSEC21": "180208003",
    "SECNUM21": "003",
    "SSNUM21": "10",
    "SECSSNUM21": "00310",
    "OBJECTID_1": 188926,
    "DT": "18",
    "CC": "02",
    "fr": "08",
    "SEC": "003",
    "SS": "10"
  },
  "addresses": [
    {
      "id": "pt.ine.add.PTCONT.5434196",
      "street": "R NOGUEIRAO",
      "house": "",
      "postcode": "3430-701",
      "city": "PAPÍZIOS",
      "lon": "-8.055118973113512",
      "lat": "40.428474966110905"
    },
    {
      "id": "pt.ine.add.PTCONT.5435947",
      "street": "R DIREITA",
      "house": "",
      "postcode": "3430-701",
      "city": "PAPÍZIOS",
      "lon": "-8.05209091763308",
      "lat": "40.42802260738251"
    },
    {
      "id": "pt.ine.add.PTCONT.5435946",
      "street": "R CORTINHAIS",
      "house": "",
      "postcode": "3430-701",
      "city": "PAPÍZIOS",
      "lon": "-8.051713797036527",
      "lat": "40.428040353558416"
    },
    {
      "id": "pt.ine.add.PTCONT.5439563",
      "street": "R NOGUEIRAO",
      "house": "",
      "postcode": "3430-701",
      "city": "PAPÍZIOS",
      "lon": "-8.053292686151972",
      "lat": "40.42822156492631"
    },
    {
      "id": "pt.ine.add.PTCONT.5443377",
      "street": "R NOGUEIRAO",
      "house": "13",
      "postcode": "3430-701",
      "city": "PAPÍZIOS",
      "lon": "-8.055614022121224",
      "lat": "40.42838524370229"
    },
    {
      "id": "pt.ine.add.PTCONT.5459806",
      "street": "LG ANTÓNIO DIAS RABINO",
      "house": "3",
      "postcode": "3430-701",
      "city": "PAPÍZIOS",
      "lon": "-8.052916292078491",
      "lat": "40.427626939503796"
    },
    {
      "id": "pt.ine.add.PTCONT.5474366",
      "street": "R CARVALHAS",
      "house": "",
      "postcode": "3430-701",
      "city": "PAPÍZIOS",
      "lon": "-8.05395386751833",
      "lat": "40.427150361399825"
    },
    {
      "id": "pt.ine.add.PTCONT.5484872",
      "street": "R DIREITA",
      "house": "",
      "postcode": "3430-701",
      "city": "PAPÍZIOS",
      "lon": "-8.051855079105078",
      "lat": "40.42814851928994"
    },
    {
      "id": "pt.ine.add.PTCONT.5497578",
      "street": "R DIREITA",
      "house": "1",
      "postcode": "3430-701",
      "city": "PAPÍZIOS",
      "lon": "-8.052161774826267",
      "lat": "40.4278965795989"
    },
    {
      "id": "pt.ine.add.PTCONT.5499472",
      "street": "R NOGUEIRÃO",
      "house": "1",
      "postcode": "3430-701",
      "city": "PAPÍZIOS",
      "lon": "-8.054871500294137",
      "lat": "40.42847479891003"
    },
    {
      "id": "pt.ine.add.PTCONT.5499489",
      "street": "R SURGACAL",
      "house": "2",
      "postcode": "3430-701",
      "city": "PAPÍZIOS",
      "lon": "-8.05701672150876",
      "lat": "40.428070981866234"
    },
    {
      "id": "pt.ine.add.PTCONT.5499541",
      "street": "R SURGACAL",
      "house": "",
      "postcode": "3430-701",
      "city": "PAPÍZIOS",
      "lon": "-8.057500010963507",
      "lat": "40.42795422704473"
    },
    {
      "id": "pt.ine.add.PTCONT.5507148",
      "street": "R SOITO",
      "house": "",
      "postcode": "3430-701",
      "city": "PAPÍZIOS",
      "lon": "-8.052810383574903",
      "lat": "40.42750078857167"
    },
    {
      "id": "pt.ine.add.PTCONT.5514399",
      "street": "R DIREITA",
      "house": "",
      "postcode": "3430-701",
      "city": "PAPÍZIOS",
      "lon": "-8.05202028730007",
      "lat": "40.42795951915933"
    },
    {
      "id": "pt.ine.add.PTCONT.5545373",
      "street": "R NOGUEIRAO",
      "house": "11",
      "postcode": "3430-701",
      "city": "PAPÍZIOS",
      "lon": "-8.055413625067507",
      "lat": "40.42843914238073"
    },
    {
      "id": "pt.ine.add.PTCONT.5546023",
      "street": "R CARVALHAS",
      "house": "14",
      "postcode": "3430-701",
      "city": "PAPÍZIOS",
      "lon": "-8.05400069829315",
      "lat": "40.42741155384513"
    },
    {
      "id": "pt.ine.add.PTCONT.5552728",
      "street": "R CARVALHAS",
      "house": "6",
      "postcode": "3430-701",
      "city": "PAPÍZIOS",
      "lon": "-8.0539301512957",
      "lat": "40.42727642259285"
    },
    {
      "id": "pt.ine.add.PTCONT.5554399",
      "street": "R NOGUEIRAO",
      "house": "",
      "postcode": "3430-701",
      "city": "PAPÍZIOS",
      "lon": "-8.053375240587778",
      "lat": "40.42816758871299"
    },
    {
      "id": "pt.ine.add.PTCONT.5559720",
      "street": "R AMIEIRA",
      "house": "11",
      "postcode": "3430-701",
      "city": "PAPÍZIOS",
      "lon": "-8.053339951327064",
      "lat": "40.428113531194036"
    },
    {
      "id": "pt.ine.add.PTCONT.5559799",
      "street": "R CARVALHAS",
      "house": "",
      "postcode": "3430-701",
      "city": "PAPÍZIOS",
      "lon": "-8.054708892107955",
      "lat": "40.42643043332497"
    },
    {
      "id": "pt.ine.add.PTCONT.5567276",
      "street": "R NOGUEIRAO",
      "house": "",
      "postcode": "3430-701",
      "city": "PAPÍZIOS",
      "lon": "-8.055012913333524",
      "lat": "40.42847489451826"
    },
    {
      "id": "pt.ine.add.PTCONT.5571827",
      "street": "R CARVALHAS",
      "house": "",
      "postcode": "3430-701",
      "city": "PAPÍZIOS",
      "lon": "-8.05460270989533",
      "lat": "40.42653842765843"
    },
    {
      "id": "pt.ine.add.PTCONT.5571828",
      "street": "R DIREITA",
      "house": "",
      "postcode": "3430-701",
      "city": "PAPÍZIOS",
      "lon": "-8.051996826827189",
      "lat": "40.42786944740539"
    },
    {
      "id": "pt.ine.add.PTCONT.5574496",
      "street": "R CARVALHAS",
      "house": "",
      "postcode": "3430-701",
      "city": "PAPÍZIOS",
      "lon": "-8.054130598745422",
      "lat": "40.42717749885415"
    },
    {
      "id": "pt.ine.add.PTCONT.5574516",
      "street": "R CARVALHAS",
      "house": "20",
      "postcode": "3430-701",
      "city": "PAPÍZIOS",
      "lon": "-8.054909231610377",
      "lat": "40.426421563469916"
    },
    {
      "id": "pt.ine.add.PTCONT.5576423",
      "street": "R DIREITA",
      "house": "",
      "postcode": "3430-701",
      "city": "PAPÍZIOS",
      "lon": "-8.052020081806104",
      "lat": "40.428130624076104"
    },
    {
      "id": "pt.ine.add.PTCONT.5594949",
      "street": "R NOGUEIRAO",
      "house": "17",
      "postcode": "3430-701",
      "city": "PAPÍZIOS",
      "lon": "-8.05619125276159",
      "lat": "40.42856573974782"
    },
    {
      "id": "pt.ine.add.PTCONT.5596831",
      "street": "R NOGUEIRAO",
      "house": "",
      "postcode": "3430-701",
      "city": "PAPÍZIOS",
      "lon": "-8.053540264161573",
      "lat": "40.428131680285084"
    },
    {
      "id": "pt.ine.add.PTCONT.5605711",
      "street": "R CARVALHAS",
      "house": "",
      "postcode": "3430-701",
      "city": "PAPÍZIOS",
      "lon": "-8.054118414209745",
      "lat": "40.42751970069616"
    },
    {
      "id": "pt.ine.add.PTCONT.5607520",
      "street": "R NOGUEIRAO",
      "house": "21",
      "postcode": "3430-701",
      "city": "PAPÍZIOS",
      "lon": "-8.056757404707257",
      "lat": "40.42812484408445"
    },
    {
      "id": "pt.ine.add.PTCONT.5614175",
      "street": "R CAPELA-DIREITA",
      "house": "",
      "postcode": "3430-701",
      "city": "PAPÍZIOS",
      "lon": "-8.051796222366871",
      "lat": "40.42809444473452"
    },
    {
      "id": "pt.ine.add.PTCONT.5619122",
      "street": "R DIREITA",
      "house": "",
      "postcode": "3430-701",
      "city": "PAPÍZIOS",
      "lon": "-8.05196141977065",
      "lat": "40.427914450208384"
    },
    {
      "id": "pt.ine.add.PTCONT.5622756",
      "street": "R CARVALHAS",
      "house": "16",
      "postcode": "3430-701",
      "city": "PAPÍZIOS",
      "lon": "-8.05450797598233",
      "lat": "40.42693460668608"
    },
    {
      "id": "pt.ine.add.PTCONT.5626536",
      "street": "R NOGUEIRAO",
      "house": "4",
      "postcode": "3430-701",
      "city": "PAPÍZIOS",
      "lon": "-8.053139435942539",
      "lat": "40.428266486673444"
    },
    {
      "id": "pt.ine.add.PTCONT.5628505",
      "street": "R AMIEIRA",
      "house": "",
      "postcode": "3430-701",
      "city": "PAPÍZIOS",
      "lon": "-8.052620772795672",
      "lat": "40.428392204166414"
    },
    {
      "id": "pt.ine.add.PTCONT.5632376",
      "street": "R NOGUEIRAO",
      "house": "9",
      "postcode": "3430-701",
      "city": "PAPÍZIOS",
      "lon": "-8.055225022505702",
      "lat": "40.42848404312819"
    },
    {
      "id": "pt.ine.add.PTCONT.5632382",
      "street": "R CARVALHAS",
      "house": "",
      "postcode": "3430-701",
      "city": "PAPÍZIOS",
      "lon": "-8.054555238309499",
      "lat": "40.42682657243018"
    },
    {
      "id": "pt.ine.add.PTCONT.5636784",
      "street": "R CAPELA",
      "house": "11",
      "postcode": "3430-701",
      "city": "PAPÍZIOS",
      "lon": "-8.05177254517627",
      "lat": "40.42818448337356"
    },
    {
      "id": "pt.ine.add.PTCONT.5638076",
      "street": "R AMIEIRA",
      "house": "",
      "postcode": "3430-701",
      "city": "PAPÍZIOS",
      "lon": "-8.052750465558601",
      "lat": "40.428338261207685"
    },
    {
      "id": "pt.ine.add.PTCONT.5643740",
      "street": "R AMIEIRA",
      "house": "",
      "postcode": "3430-701",
      "city": "PAPÍZIOS",
      "lon": "-8.05183123936243",
      "lat": "40.428373640762516"
    },
    {
      "id": "pt.ine.add.PTCONT.5651153",
      "street": "R DIREITA",
      "house": "",
      "postcode": "3430-701",
      "city": "PAPÍZIOS",
      "lon": "-8.051996458994678",
      "lat": "40.42817563515224"
    }
  ]
}