{
  "data": {
    "distrito": "Castelo Branco",
    "concelho": "Penamacor",
    "freguesia": "Penamacor",
    "OBJECTID": 168,
    "BGRI2021": "05071000121",
    "DT21": "05",
    "DTMN21": "0507",
    "DTMNFR21": "050710",
    "DTMNFRSEC21": "050710001",
    "SECNUM21": "001",
    "SSNUM21": "21",
    "SECSSNUM21": "00121",
    "OBJECTID_1": 45236,
    "DT": "05",
    "CC": "07",
    "fr": "10",
    "SEC": "001",
    "SS": "21"
  },
  "addresses": [
    {
      "id": "pt.ine.add.PTCONT.959020",
      "street": "SIT DA CORREDOURA",
      "house": "",
      "postcode": "6090-531",
      "city": "PENAMACOR",
      "lon": "-7.171020969245401",
      "lat": "40.1616086510404"
    },
    {
      "id": "pt.ine.add.PTCONT.961267",
      "street": "QTA DOS POCINHOS",
      "house": "",
      "postcode": "6090-533",
      "city": "PENAMACOR",
      "lon": "-7.164155510669336",
      "lat": "40.16400095498765"
    },
    {
      "id": "pt.ine.add.PTCONT.975554",
      "street": "ESTR DAS ÁGUAS FÉRREAS",
      "house": "",
      "postcode": "6090-531",
      "city": "PENAMACOR",
      "lon": "-7.1694618428344254",
      "lat": "40.163126658580836"
    },
    {
      "id": "pt.ine.add.PTCONT.980163",
      "street": "QTA DOS POCINHOS",
      "house": "",
      "postcode": "6090-533",
      "city": "PENAMACOR",
      "lon": "-7.16266037726723",
      "lat": "40.16513215912821"
    },
    {
      "id": "pt.ine.add.PTCONT.988146",
      "street": "TV DO OLIVAL",
      "house": "",
      "postcode": "6090-531",
      "city": "PENAMACOR",
      "lon": "-7.169046597861255",
      "lat": "40.16343840210733"
    },
    {
      "id": "pt.ine.add.PTCONT.989321",
      "street": "EM 569",
      "house": "",
      "postcode": "6090-531",
      "city": "PENAMACOR",
      "lon": "-7.157820589588373",
      "lat": "40.16619919376954"
    },
    {
      "id": "pt.ine.add.PTCONT.1071280",
      "street": "R DO CHÃO DAS HORTAS",
      "house": "",
      "postcode": "6090-531",
      "city": "PENAMACOR",
      "lon": "-7.1592572692346605",
      "lat": "40.165058555315476"
    },
    {
      "id": "pt.ine.add.PTCONT.1083532",
      "street": "R DO CHÃO DAS HORTAS",
      "house": "",
      "postcode": "6090-531",
      "city": "PENAMACOR",
      "lon": "-7.157060118889352",
      "lat": "40.16520215608855"
    }
  ]
}