{
  "data": {
    "distrito": "Castelo Branco",
    "concelho": "Penamacor",
    "freguesia": "Penamacor",
    "OBJECTID": 15,
    "BGRI2021": "05071000133",
    "DT21": "05",
    "DTMN21": "0507",
    "DTMNFR21": "050710",
    "DTMNFRSEC21": "050710001",
    "SECNUM21": "001",
    "SSNUM21": "33",
    "SECSSNUM21": "00133",
    "OBJECTID_1": 45300,
    "DT": "05",
    "CC": "07",
    "fr": "10",
    "SEC": "001",
    "SS": "33"
  },
  "addresses": [
    {
      "id": "pt.ine.add.PTCONT.957828",
      "street": "SIT DA RAZA",
      "house": "",
      "postcode": "6090-539",
      "city": "PENAMACOR",
      "lon": "-6.961117023584204",
      "lat": "40.24529001016205"
    },
    {
      "id": "pt.ine.add.PTCONT.967924",
      "street": "VENTOSA",
      "house": "",
      "postcode": "6090-539",
      "city": "PENAMACOR",
      "lon": "-6.9782578418430745",
      "lat": "40.24147290106907"
    },
    {
      "id": "pt.ine.add.PTCONT.967925",
      "street": "ESTR MUNICIPAL",
      "house": "",
      "postcode": "6090-539",
      "city": "PENAMACOR",
      "lon": "-6.963647570759231",
      "lat": "40.24301920843645"
    },
    {
      "id": "pt.ine.add.PTCONT.969954",
      "street": "QTA DO VALE MOURISCO",
      "house": "",
      "postcode": "6090-539",
      "city": "PENAMACOR",
      "lon": "-6.957444546245397",
      "lat": "40.24834164227201"
    },
    {
      "id": "pt.ine.add.PTCONT.970012",
      "street": "SIT DA RIBEIRA DA DEVESA",
      "house": "",
      "postcode": "6090-539",
      "city": "PENAMACOR",
      "lon": "-6.963047835103166",
      "lat": "40.2437245808221"
    },
    {
      "id": "pt.ine.add.PTCONT.972077",
      "street": "QTA DO VALE MOURISCO",
      "house": "",
      "postcode": "6090-539",
      "city": "PENAMACOR",
      "lon": "-6.959851165524368",
      "lat": "40.24781673313876"
    },
    {
      "id": "pt.ine.add.PTCONT.981310",
      "street": "SIT DO COITO DA RAZA",
      "house": "",
      "postcode": "6090-539",
      "city": "PENAMACOR",
      "lon": "-6.961801279631207",
      "lat": "40.24581925736774"
    },
    {
      "id": "pt.ine.add.PTCONT.987315",
      "street": "SIT DA RAZA",
      "house": "",
      "postcode": "6090-539",
      "city": "PENAMACOR",
      "lon": "-6.962164225063015",
      "lat": "40.24453514383977"
    },
    {
      "id": "pt.ine.add.PTCONT.992967",
      "street": "DA RIBEIRA DA DEVESA",
      "house": "51",
      "postcode": "6090-539",
      "city": "PENAMACOR",
      "lon": "-6.96328841289404",
      "lat": "40.24340281494499"
    },
    {
      "id": "pt.ine.add.PTCONT.994877",
      "street": "R DO MOINHO",
      "house": "",
      "postcode": "6090-539",
      "city": "PENAMACOR",
      "lon": "-6.954175655000424",
      "lat": "40.25453117655387"
    },
    {
      "id": "pt.ine.add.PTCONT.994876",
      "street": "SIT DO MOINHO MEGRE",
      "house": "",
      "postcode": "6090-539",
      "city": "PENAMACOR",
      "lon": "-6.956149426596484",
      "lat": "40.25186763467445"
    },
    {
      "id": "pt.ine.add.PTCONT.1000541",
      "street": "SIT DO MOINHO VEIGAS",
      "house": "",
      "postcode": "6090-539",
      "city": "PENAMACOR",
      "lon": "-6.954150771404836",
      "lat": "40.25867344397872"
    },
    {
      "id": "pt.ine.add.PTCONT.1006357",
      "street": "SIT DA RAZA",
      "house": "",
      "postcode": "6090-539",
      "city": "PENAMACOR",
      "lon": "-6.960497159387323",
      "lat": "40.2457970440095"
    },
    {
      "id": "pt.ine.add.PTCONT.1006358",
      "street": "SIT DO COITO DA RAZA",
      "house": "",
      "postcode": "6090-539",
      "city": "PENAMACOR",
      "lon": "-6.96305548761215",
      "lat": "40.245327637767126"
    },
    {
      "id": "pt.ine.add.PTCONT.1012830",
      "street": "SIT DO MOINHO DO MANEIO",
      "house": "",
      "postcode": "6090-539",
      "city": "PENAMACOR",
      "lon": "-6.955359100436165",
      "lat": "40.25406593745615"
    },
    {
      "id": "pt.ine.add.PTCONT.1013455",
      "street": "SIT DO MOINHO DO MANEIO",
      "house": "",
      "postcode": "6090-539",
      "city": "PENAMACOR",
      "lon": "-6.955359100436165",
      "lat": "40.25406593745615"
    },
    {
      "id": "pt.ine.add.PTCONT.1017362",
      "street": "SIT DA CARREIRA DE TIRO",
      "house": "",
      "postcode": "6090-539",
      "city": "PENAMACOR",
      "lon": "-6.971207715435312",
      "lat": "40.24005150145372"
    },
    {
      "id": "pt.ine.add.PTCONT.1031269",
      "street": "SIT DO MOINHO VENTO OU QUARTA",
      "house": "",
      "postcode": "6090-539",
      "city": "PENAMACOR",
      "lon": "-6.9543861001027745",
      "lat": "40.25798241971527"
    },
    {
      "id": "pt.ine.add.PTCONT.1049588",
      "street": "QTA DO SALGUEIRINHO",
      "house": "",
      "postcode": "6090-539",
      "city": "PENAMACOR",
      "lon": "-6.9742869653854624",
      "lat": "40.24278403187474"
    },
    {
      "id": "pt.ine.add.PTCONT.1057503",
      "street": "SIT DA RAZA",
      "house": "",
      "postcode": "6090-539",
      "city": "PENAMACOR",
      "lon": "-6.961556436154777",
      "lat": "40.245024294672305"
    },
    {
      "id": "pt.ine.add.PTCONT.1059822",
      "street": "SIT DA RAZA",
      "house": "",
      "postcode": "6090-539",
      "city": "PENAMACOR",
      "lon": "-6.962653885522624",
      "lat": "40.24408081698183"
    },
    {
      "id": "pt.ine.add.PTCONT.1065867",
      "street": "QTA DA BAS√ÅGUEDA",
      "house": "",
      "postcode": "6090-539",
      "city": "PENAMACOR",
      "lon": "-6.977327552704775",
      "lat": "40.24296753424895"
    },
    {
      "id": "pt.ine.add.PTCONT.1066516",
      "street": "R DO MOINHO",
      "house": "",
      "postcode": "6090-539",
      "city": "PENAMACOR",
      "lon": "-6.954315522434194",
      "lat": "40.25663087881531"
    },
    {
      "id": "pt.ine.add.PTCONT.1075707",
      "street": "QTA DO VALE MOURISCO",
      "house": "",
      "postcode": "6090-539",
      "city": "PENAMACOR",
      "lon": "-6.9555142544291435",
      "lat": "40.249861953659334"
    },
    {
      "id": "pt.ine.add.PTCONT.1077973",
      "street": "QTA DO VALE MOURISCO",
      "house": "",
      "postcode": "6090-539",
      "city": "PENAMACOR",
      "lon": "-6.957695603777475",
      "lat": "40.247416626719584"
    },
    {
      "id": "pt.ine.add.PTCONT.1084753",
      "street": "SIT DO MOINHO DO MANEIO",
      "house": "",
      "postcode": "6090-539",
      "city": "PENAMACOR",
      "lon": "-6.955295885734663",
      "lat": "40.252966624779404"
    },
    {
      "id": "pt.ine.add.PTCONT.1085959",
      "street": "R DO MOINHO",
      "house": "",
      "postcode": "6090-539",
      "city": "PENAMACOR",
      "lon": "-6.953579495249198",
      "lat": "40.25569581368959"
    },
    {
      "id": "pt.ine.add.PTCONT.1088462",
      "street": "SIT DO MOINHO VENTO OU QUARTA",
      "house": "",
      "postcode": "6090-539",
      "city": "PENAMACOR",
      "lon": "-6.952277249104072",
      "lat": "40.25690727677051"
    },
    {
      "id": "pt.ine.add.PTCONT.1095431",
      "street": "",
      "house": "",
      "postcode": "6090-539",
      "city": "PENAMACOR",
      "lon": "-6.973879103505633",
      "lat": "40.24120398206935"
    },
    {
      "id": "pt.ine.add.PTCONT.1098354",
      "street": "R DO MOINHO",
      "house": "",
      "postcode": "6090-558",
      "city": "PENAMACOR",
      "lon": "-6.954729523517657",
      "lat": "40.25986806237687"
    }
  ]
}