{
  "data": {
    "distrito": "Braga",
    "concelho": "Fafe",
    "freguesia": "Uni√£o de freguesias de Freitas e Vila Cova",
    "OBJECTID": 96,
    "BGRI2021": "03074200140",
    "DT21": "03",
    "DTMN21": "0307",
    "DTMNFR21": "030742",
    "DTMNFRSEC21": "030742001",
    "SECNUM21": "001",
    "SSNUM21": "40",
    "SECSSNUM21": "00140",
    "OBJECTID_1": 25333,
    "DT": "03",
    "CC": "07",
    "fr": "42",
    "SEC": "001",
    "SS": "40"
  },
  "addresses": [
    {
      "id": "pt.ine.add.PTCONT.501590",
      "street": "R PORTELA",
      "house": "20",
      "postcode": "4820-825",
      "city": "VILA COVA FAF",
      "lon": "-8.192861198966634",
      "lat": "41.51479231901235"
    },
    {
      "id": "pt.ine.add.PTCONT.593014",
      "street": "R REGO",
      "house": "37",
      "postcode": "4820-825",
      "city": "VILA COVA FAF",
      "lon": "-8.192141752738422",
      "lat": "41.514036368988954"
    },
    {
      "id": "pt.ine.add.PTCONT.625700",
      "street": "R FORNELO",
      "house": "178",
      "postcode": "4820-825",
      "city": "VILA COVA FAF",
      "lon": "-8.193113513031008",
      "lat": "41.51560253206042"
    },
    {
      "id": "pt.ine.add.PTCONT.642938",
      "street": "R FORNELO",
      "house": "236",
      "postcode": "4820-825",
      "city": "VILA COVA FAF",
      "lon": "-8.19240652727014",
      "lat": "41.515386806917355"
    },
    {
      "id": "pt.ine.add.PTCONT.666561",
      "street": "R CALDEIRAS",
      "house": "68",
      "postcode": "4820-825",
      "city": "VILA COVA FAF",
      "lon": "-8.19264524948213",
      "lat": "41.51444128172324"
    },
    {
      "id": "pt.ine.add.PTCONT.687192",
      "street": "R FORNELO",
      "house": "90",
      "postcode": "4820-825",
      "city": "VILA COVA FAF",
      "lon": "-8.194192155993969",
      "lat": "41.51612418612461"
    },
    {
      "id": "pt.ine.add.PTCONT.752786",
      "street": "R FONTE DA RISCA",
      "house": "26",
      "postcode": "4820-825",
      "city": "VILA COVA FAF",
      "lon": "-8.19129159391822",
      "lat": "41.51444197449813"
    },
    {
      "id": "pt.ine.add.PTCONT.825680",
      "street": "R REGO",
      "house": "105",
      "postcode": "4820-825",
      "city": "VILA COVA FAF",
      "lon": "-8.191902291389239",
      "lat": "41.51417154908036"
    }
  ]
}