{
  "data": {
    "distrito": "Faro",
    "concelho": "Lagos",
    "freguesia": "São Gonçalo de Lagos",
    "OBJECTID": 430,
    "BGRI2021": "08070801701",
    "DT21": "08",
    "DTMN21": "0807",
    "DTMNFR21": "080708",
    "DTMNFRSEC21": "080708017",
    "SECNUM21": "017",
    "SSNUM21": "01",
    "SECSSNUM21": "01701",
    "OBJECTID_1": 67623,
    "DT": "08",
    "CC": "07",
    "fr": "08",
    "SEC": "017",
    "SS": "01"
  },
  "addresses": [
    {
      "id": "pt.ine.add.PTCONT.1470122",
      "street": "ESTR ALBARDEIRA CASA ESTEVÃO",
      "house": "",
      "postcode": "8600-302",
      "city": "LAGOS",
      "lon": "-8.66617653168656",
      "lat": "37.118088414031305"
    },
    {
      "id": "pt.ine.add.PTCONT.1472877",
      "street": "R PROF DR ANTÓNIO DE SOUSA FRANCO",
      "house": "36",
      "postcode": "8600-302",
      "city": "LAGOS",
      "lon": "-8.664068249128352",
      "lat": "37.11909804429453"
    },
    {
      "id": "pt.ine.add.PTCONT.1472882",
      "street": "TV PROF DR ANTÓNIO DE SOUSA FRANCO",
      "house": "64",
      "postcode": "8600-302",
      "city": "LAGOS",
      "lon": "-8.663422384470804",
      "lat": "37.11845217636753"
    },
    {
      "id": "pt.ine.add.PTCONT.1476014",
      "street": "R PROF DR ANTÓNIO DE SOUSA FRANCO",
      "house": "",
      "postcode": "8600-302",
      "city": "LAGOS",
      "lon": "-8.664044613388478",
      "lat": "37.11893596048576"
    },
    {
      "id": "pt.ine.add.PTCONT.1477884",
      "street": "ESTR ALBARDEIRA",
      "house": "",
      "postcode": "8600-302",
      "city": "LAGOS",
      "lon": "-8.66681950022253",
      "lat": "37.11671591956751"
    },
    {
      "id": "pt.ine.add.PTCONT.1484143",
      "street": "R ARISTIDES DE SOUSA MENDES",
      "house": "",
      "postcode": "8600-302",
      "city": "LAGOS",
      "lon": "-8.664876597602532",
      "lat": "37.118842126320025"
    },
    {
      "id": "pt.ine.add.PTCONT.1493547",
      "street": "R ARISTIDES DE SOUSA MENDES",
      "house": "12",
      "postcode": "8600-302",
      "city": "LAGOS",
      "lon": "-8.664230161853887",
      "lat": "37.11811517050279"
    },
    {
      "id": "pt.ine.add.PTCONT.1493551",
      "street": "ESTR ALBARDEIRA CASA CHARRUA",
      "house": "",
      "postcode": "8600-302",
      "city": "LAGOS",
      "lon": "-8.66560157345989",
      "lat": "37.11792880811968"
    },
    {
      "id": "pt.ine.add.PTCONT.1500303",
      "street": "URB ALBARDEIRA",
      "house": "",
      "postcode": "8600-302",
      "city": "LAGOS",
      "lon": "-8.664325020690686",
      "lat": "37.118808556889526"
    },
    {
      "id": "pt.ine.add.PTCONT.1500304",
      "street": "ESTR ALBARDEIRA CASA AZUL",
      "house": "",
      "postcode": "8600-302",
      "city": "LAGOS",
      "lon": "-8.66468495739053",
      "lat": "37.1155721600356"
    },
    {
      "id": "pt.ine.add.PTCONT.1516379",
      "street": "ESTR ALBARDEIRA",
      "house": "",
      "postcode": "8600-302",
      "city": "LAGOS",
      "lon": "-8.665001562424793",
      "lat": "37.11579600362665"
    },
    {
      "id": "pt.ine.add.PTCONT.1516380",
      "street": "CASA VELHA",
      "house": "",
      "postcode": "8600-315",
      "city": "LAGOS",
      "lon": "-8.663757843995953",
      "lat": "37.114927554125856"
    },
    {
      "id": "pt.ine.add.PTCONT.1519926",
      "street": "URB ULRICH MUCHUA",
      "house": "2",
      "postcode": "8600-302",
      "city": "LAGOS",
      "lon": "-8.665339385438331",
      "lat": "37.11744341636146"
    },
    {
      "id": "pt.ine.add.PTCONT.1523458",
      "street": "R ARISTIDES DE SOUSA MENDES",
      "house": "",
      "postcode": "8600-302",
      "city": "LAGOS",
      "lon": "-8.664874454931478",
      "lat": "37.11853577767944"
    },
    {
      "id": "pt.ine.add.PTCONT.1525370",
      "street": "R PROF DR ANTONIO SOUSA FRANCO",
      "house": "13",
      "postcode": "8600-302",
      "city": "LAGOS",
      "lon": "-8.664851293557385",
      "lat": "37.11683288981925"
    },
    {
      "id": "pt.ine.add.PTCONT.1527818",
      "street": "R ARISTIDES DE SOUSA MENDES",
      "house": "",
      "postcode": "8600-302",
      "city": "LAGOS",
      "lon": "-8.664349790232238",
      "lat": "37.11913282521986"
    },
    {
      "id": "pt.ine.add.PTCONT.1531178",
      "street": "R ARISTIDES DE SOUSA MENDES",
      "house": "44",
      "postcode": "8600-302",
      "city": "LAGOS",
      "lon": "-8.663645090676026",
      "lat": "37.119730676193996"
    },
    {
      "id": "pt.ine.add.PTCONT.1542979",
      "street": "BC PROF DR ANTÓNIO DE SOUSA FRANCO",
      "house": "",
      "postcode": "8600-302",
      "city": "LAGOS",
      "lon": "-8.663234941697679",
      "lat": "37.119002657439125"
    },
    {
      "id": "pt.ine.add.PTCONT.1542994",
      "street": "ESTR ALBARDEIRA",
      "house": "3",
      "postcode": "8600-302",
      "city": "LAGOS",
      "lon": "-8.665359049760864",
      "lat": "37.11703785383783"
    },
    {
      "id": "pt.ine.add.PTCONT.1542995",
      "street": "ESTR ALBARDEIRA",
      "house": "3",
      "postcode": "8600-302",
      "city": "LAGOS",
      "lon": "-8.665359049760864",
      "lat": "37.11703785383783"
    },
    {
      "id": "pt.ine.add.PTCONT.1542996",
      "street": "ESTR ALBARDEIRA",
      "house": "3",
      "postcode": "8600-302",
      "city": "LAGOS",
      "lon": "-8.665359049760864",
      "lat": "37.11703785383783"
    },
    {
      "id": "pt.ine.add.PTCONT.1542997",
      "street": "ESTR ALBARDEIRA",
      "house": "3",
      "postcode": "8600-302",
      "city": "LAGOS",
      "lon": "-8.665359049760864",
      "lat": "37.11703785383783"
    },
    {
      "id": "pt.ine.add.PTCONT.1542998",
      "street": "ESTR ALBARDEIRA",
      "house": "3",
      "postcode": "8600-302",
      "city": "LAGOS",
      "lon": "-8.665359049760864",
      "lat": "37.11703785383783"
    },
    {
      "id": "pt.ine.add.PTCONT.1542999",
      "street": "ESTR ALBARDEIRA",
      "house": "3",
      "postcode": "8600-302",
      "city": "LAGOS",
      "lon": "-8.665359049760864",
      "lat": "37.11703785383783"
    },
    {
      "id": "pt.ine.add.PTCONT.1548254",
      "street": "R ARISTIDES DE SOUSA MENDES",
      "house": "23",
      "postcode": "8600-302",
      "city": "LAGOS",
      "lon": "-8.66504139909885",
      "lat": "37.11827372319118"
    },
    {
      "id": "pt.ine.add.PTCONT.1561647",
      "street": "BC PROF DR ANTÓNIO DE SOUSA FRANCO",
      "house": "",
      "postcode": "8600-302",
      "city": "LAGOS",
      "lon": "-8.66294258953973",
      "lat": "37.11903099593697"
    },
    {
      "id": "pt.ine.add.PTCONT.1580647",
      "street": "ESTR ALBARDEIRA",
      "house": "",
      "postcode": "8600-302",
      "city": "LAGOS",
      "lon": "-8.66599701420715",
      "lat": "37.11816130534914"
    },
    {
      "id": "pt.ine.add.PTCONT.1583698",
      "street": "ESTR ALBARDEIRA",
      "house": "",
      "postcode": "8600-302",
      "city": "LAGOS",
      "lon": "-8.665375599390112",
      "lat": "37.1177946647759"
    },
    {
      "id": "pt.ine.add.PTCONT.1589615",
      "street": "BC PROF DR ANTONIO SOUSA FRANCO",
      "house": "327",
      "postcode": "8600-302",
      "city": "LAGOS",
      "lon": "-8.66393819095026",
      "lat": "37.11819757296714"
    },
    {
      "id": "pt.ine.add.PTCONT.1592303",
      "street": "R ARISTIDES DE SOUSA MENDES VILA CORNELIA",
      "house": "39",
      "postcode": "8600-302",
      "city": "LAGOS",
      "lon": "-8.664518060039365",
      "lat": "37.11905998681123"
    },
    {
      "id": "pt.ine.add.PTCONT.1598156",
      "street": "ESTR ALBARDEIRA CASA JACARANDAS",
      "house": "",
      "postcode": "8600-302",
      "city": "LAGOS",
      "lon": "-8.665892783822464",
      "lat": "37.1177382785293"
    },
    {
      "id": "pt.ine.add.PTCONT.1605683",
      "street": "R ARISTIDES DE SOUSA MENDES",
      "house": "12",
      "postcode": "8600-302",
      "city": "LAGOS",
      "lon": "-8.664510439879692",
      "lat": "37.117969745964814"
    },
    {
      "id": "pt.ine.add.PTCONT.1609331",
      "street": "TV PROF DR ANTÓNIO DE SOUSA FRANCO",
      "house": "60",
      "postcode": "8600-302",
      "city": "LAGOS",
      "lon": "-8.662873573364738",
      "lat": "37.11881505145741"
    },
    {
      "id": "pt.ine.add.PTCONT.1612118",
      "street": "R ARISTIDES DE SOUSA MENDES",
      "house": "",
      "postcode": "8600-302",
      "city": "LAGOS",
      "lon": "-8.664183785910883",
      "lat": "37.119530032539394"
    },
    {
      "id": "pt.ine.add.PTCONT.1624711",
      "street": "R ARISTIDES DE SOUSA MENDES",
      "house": "",
      "postcode": "8600-302",
      "city": "LAGOS",
      "lon": "-8.664804866655725",
      "lat": "37.118238742052334"
    },
    {
      "id": "pt.ine.add.PTCONT.1626173",
      "street": "R ARISTIDES DE SOUSA MENDES",
      "house": "",
      "postcode": "8600-302",
      "city": "LAGOS",
      "lon": "-8.665067054084265",
      "lat": "37.11872413493292"
    },
    {
      "id": "pt.ine.add.PTCONT.1626174",
      "street": "R PROF DR ANTÓNIO DE SOUSA FRANCO",
      "house": "",
      "postcode": "8600-302",
      "city": "LAGOS",
      "lon": "-8.664080570451238",
      "lat": "37.11925116823117"
    },
    {
      "id": "pt.ine.add.PTCONT.1630055",
      "street": "R ARISTIDES DE SOUSA MENDES CASA MAURICE",
      "house": "11",
      "postcode": "8600-302",
      "city": "LAGOS",
      "lon": "-8.664746719344624",
      "lat": "37.11796868667875"
    },
    {
      "id": "pt.ine.add.PTCONT.1635452",
      "street": "ESTR ALBARDEIRA",
      "house": "720",
      "postcode": "8600-302",
      "city": "LAGOS",
      "lon": "-8.666098845539176",
      "lat": "37.11824194243316"
    },
    {
      "id": "pt.ine.add.PTCONT.1635453",
      "street": "ESTR ALBARDEIRA",
      "house": "720",
      "postcode": "8600-302",
      "city": "LAGOS",
      "lon": "-8.666098845539176",
      "lat": "37.11824194243316"
    },
    {
      "id": "pt.ine.add.PTCONT.1641873",
      "street": "ESTR ALBARDEIRA",
      "house": "",
      "postcode": "8600-302",
      "city": "LAGOS",
      "lon": "-8.66684092743341",
      "lat": "37.11656264394369"
    },
    {
      "id": "pt.ine.add.PTCONT.1641874",
      "street": "URB BELO HORIZONTE",
      "house": "2",
      "postcode": "8600-302",
      "city": "LAGOS",
      "lon": "-8.666519636380045",
      "lat": "37.11567204643147"
    },
    {
      "id": "pt.ine.add.PTCONT.1644291",
      "street": "BC PROF DR ANTÓNIO DE SOUSA FRANCO",
      "house": "",
      "postcode": "8600-302",
      "city": "LAGOS",
      "lon": "-8.663448532751433",
      "lat": "37.11897467056764"
    },
    {
      "id": "pt.ine.add.PTCONT.1645840",
      "street": "BC PROF DR ANTÓNIO DE SOUSA FRANCO",
      "house": "",
      "postcode": "8600-302",
      "city": "LAGOS",
      "lon": "-8.663448532751433",
      "lat": "37.11897467056764"
    },
    {
      "id": "pt.ine.add.PTCONT.1647667",
      "street": "ESTR ALBARDEIRA MEIA PRAIA",
      "house": "",
      "postcode": "8600-302",
      "city": "LAGOS",
      "lon": "-8.666798136172437",
      "lat": "37.11687820543827"
    },
    {
      "id": "pt.ine.add.PTCONT.1647668",
      "street": "ESTR ALBARDEIRA MEIA PRAIA",
      "house": "",
      "postcode": "8600-302",
      "city": "LAGOS",
      "lon": "-8.666798136172437",
      "lat": "37.11687820543827"
    },
    {
      "id": "pt.ine.add.PTCONT.1647669",
      "street": "ESTR ALBARDEIRA MEIA PRAIA",
      "house": "",
      "postcode": "8600-302",
      "city": "LAGOS",
      "lon": "-8.666798136172437",
      "lat": "37.11687820543827"
    },
    {
      "id": "pt.ine.add.PTCONT.1648923",
      "street": "ESTR ALBARDEIRA MEIA PRAIA",
      "house": "",
      "postcode": "8600-302",
      "city": "LAGOS",
      "lon": "-8.666798136172437",
      "lat": "37.11687820543827"
    },
    {
      "id": "pt.ine.add.PTCONT.1650425",
      "street": "R PROF DR ANTÓNIO DE SOUSA FRANCO",
      "house": "",
      "postcode": "8600-302",
      "city": "LAGOS",
      "lon": "-8.663351042483248",
      "lat": "37.11790285263253"
    },
    {
      "id": "pt.ine.add.PTCONT.1657295",
      "street": "ESTR ALBARDEIRA",
      "house": "3",
      "postcode": "8600-302",
      "city": "LAGOS",
      "lon": "-8.664956588300676",
      "lat": "37.117409092028"
    },
    {
      "id": "pt.ine.add.PTCONT.1657296",
      "street": "QTA PALMEIRA",
      "house": "",
      "postcode": "8600-302",
      "city": "LAGOS",
      "lon": "-8.665016973507239",
      "lat": "37.11639063017145"
    },
    {
      "id": "pt.ine.add.PTCONT.1659081",
      "street": "ESTR ALBARDEIRA",
      "house": "",
      "postcode": "8600-302",
      "city": "LAGOS",
      "lon": "-8.665877554894328",
      "lat": "37.117170683054354"
    },
    {
      "id": "pt.ine.add.PTCONT.1659082",
      "street": "ESTR ALBARDEIRA",
      "house": "",
      "postcode": "8600-302",
      "city": "LAGOS",
      "lon": "-8.665877554894328",
      "lat": "37.117170683054354"
    },
    {
      "id": "pt.ine.add.PTCONT.1659083",
      "street": "ESTR ALBARDEIRA",
      "house": "",
      "postcode": "8600-302",
      "city": "LAGOS",
      "lon": "-8.665877554894328",
      "lat": "37.117170683054354"
    },
    {
      "id": "pt.ine.add.PTCONT.1659084",
      "street": "ESTR ALBARDEIRA",
      "house": "",
      "postcode": "8600-302",
      "city": "LAGOS",
      "lon": "-8.665877554894328",
      "lat": "37.117170683054354"
    },
    {
      "id": "pt.ine.add.PTCONT.1659085",
      "street": "ESTR ALBARDEIRA",
      "house": "",
      "postcode": "8600-302",
      "city": "LAGOS",
      "lon": "-8.665877554894328",
      "lat": "37.117170683054354"
    },
    {
      "id": "pt.ine.add.PTCONT.1659086",
      "street": "ESTR ALBARDEIRA",
      "house": "",
      "postcode": "8600-302",
      "city": "LAGOS",
      "lon": "-8.665877554894328",
      "lat": "37.117170683054354"
    },
    {
      "id": "pt.ine.add.PTCONT.1676289",
      "street": "R ARISTIDES DE SOUSA MENDES",
      "house": "47",
      "postcode": "8600-302",
      "city": "LAGOS",
      "lon": "-8.663508247750544",
      "lat": "37.119469982940274"
    },
    {
      "id": "pt.ine.add.PTCONT.1676290",
      "street": "R ARISTIDES DE SOUSA MENDES",
      "house": "40",
      "postcode": "8600-302",
      "city": "LAGOS",
      "lon": "-8.664722478278815",
      "lat": "37.1193293864526"
    },
    {
      "id": "pt.ine.add.PTCONT.1676291",
      "street": "TV PROF DR ANTÓNIO DE SOUSA FRANCO",
      "house": "",
      "postcode": "8600-302",
      "city": "LAGOS",
      "lon": "-8.663613659571718",
      "lat": "37.11845132063243"
    },
    {
      "id": "pt.ine.add.PTCONT.1682935",
      "street": "R ARISTIDES DE SOUSA MENDES",
      "house": "",
      "postcode": "8600-302",
      "city": "LAGOS",
      "lon": "-8.66494918156363",
      "lat": "37.11795876808937"
    },
    {
      "id": "pt.ine.add.PTCONT.1686289",
      "street": "ESTR ALBARDEIRA",
      "house": "",
      "postcode": "8600-302",
      "city": "LAGOS",
      "lon": "-8.666964121170817",
      "lat": "37.11648099443409"
    },
    {
      "id": "pt.ine.add.PTCONT.1690112",
      "street": "URB ALBARDEIRA VIA AMARELA",
      "house": "20",
      "postcode": "8600-302",
      "city": "LAGOS",
      "lon": "-8.664254427164874",
      "lat": "37.11836735685192"
    },
    {
      "id": "pt.ine.add.PTCONT.1692046",
      "street": "CASA PERAS",
      "house": "",
      "postcode": "8600-302",
      "city": "LAGOS",
      "lon": "-8.664069798909024",
      "lat": "37.11609752794394"
    },
    {
      "id": "pt.ine.add.PTCONT.1692047",
      "street": "CASA PERAS",
      "house": "",
      "postcode": "8600-302",
      "city": "LAGOS",
      "lon": "-8.664069798909024",
      "lat": "37.11609752794394"
    },
    {
      "id": "pt.ine.add.PTCONT.1692048",
      "street": "CASA PERAS",
      "house": "",
      "postcode": "8600-302",
      "city": "LAGOS",
      "lon": "-8.664069798909024",
      "lat": "37.11609752794394"
    },
    {
      "id": "pt.ine.add.PTCONT.1692049",
      "street": "CASA PERAS",
      "house": "",
      "postcode": "8600-302",
      "city": "LAGOS",
      "lon": "-8.664069798909024",
      "lat": "37.11609752794394"
    },
    {
      "id": "pt.ine.add.PTCONT.1698952",
      "street": "BC PROF DR ANTÓNIO DE SOUSA FRANCO",
      "house": "",
      "postcode": "8600-302",
      "city": "LAGOS",
      "lon": "-8.663147881581232",
      "lat": "37.119426541919424"
    },
    {
      "id": "pt.ine.add.PTCONT.1703203",
      "street": "R ARISTIDES DE SOUSA MENDES",
      "house": "",
      "postcode": "8600-302",
      "city": "LAGOS",
      "lon": "-8.665481341158571",
      "lat": "37.11843393815971"
    },
    {
      "id": "pt.ine.add.PTCONT.1707399",
      "street": "R ARISTIDES DE SOUSA MENDES",
      "house": "22",
      "postcode": "8600-302",
      "city": "LAGOS",
      "lon": "-8.664534957980683",
      "lat": "37.11825797327708"
    },
    {
      "id": "pt.ine.add.PTCONT.1716232",
      "street": "BC PROF DR ANTÓNIO DE SOUSA FRANCO",
      "house": "",
      "postcode": "8600-302",
      "city": "LAGOS",
      "lon": "-8.663707004077477",
      "lat": "37.118928461386545"
    },
    {
      "id": "pt.ine.add.PTCONT.1718875",
      "street": "R ARISTIDES DE SOUSA MENDES",
      "house": "",
      "postcode": "8600-302",
      "city": "LAGOS",
      "lon": "-8.665148021513453",
      "lat": "37.11903914038458"
    },
    {
      "id": "pt.ine.add.PTCONT.1718876",
      "street": "R ARISTIDES DE SOUSA MENDES",
      "house": "",
      "postcode": "8600-302",
      "city": "LAGOS",
      "lon": "-8.665174146523771",
      "lat": "37.117948748168864"
    },
    {
      "id": "pt.ine.add.PTCONT.1721899",
      "street": "R PROF DR ANTÓNIO DE SOUSA FRANCO",
      "house": "",
      "postcode": "8600-302",
      "city": "LAGOS",
      "lon": "-8.663902989861745",
      "lat": "37.117990488194515"
    },
    {
      "id": "pt.ine.add.PTCONT.1721995",
      "street": "QTA ALBARDEIRA PERAS",
      "house": "",
      "postcode": "8600-302",
      "city": "LAGOS",
      "lon": "-8.664203302016642",
      "lat": "37.11588067700146"
    },
    {
      "id": "pt.ine.add.PTCONT.1721996",
      "street": "QTA ALBARDEIRA PERAS",
      "house": "",
      "postcode": "8600-302",
      "city": "LAGOS",
      "lon": "-8.664203302016642",
      "lat": "37.11588067700146"
    },
    {
      "id": "pt.ine.add.PTCONT.1723475",
      "street": "QTA ALBARDEIRA PERAS",
      "house": "",
      "postcode": "8600-302",
      "city": "LAGOS",
      "lon": "-8.663840436900614",
      "lat": "37.11547682752605"
    },
    {
      "id": "pt.ine.add.PTCONT.1723476",
      "street": "QTA ALBARDEIRA PERAS",
      "house": "",
      "postcode": "8600-302",
      "city": "LAGOS",
      "lon": "-8.663840436900614",
      "lat": "37.11547682752605"
    },
    {
      "id": "pt.ine.add.PTCONT.1723477",
      "street": "QTA ALBARDEIRA PERAS",
      "house": "",
      "postcode": "8600-302",
      "city": "LAGOS",
      "lon": "-8.663840436900614",
      "lat": "37.11547682752605"
    },
    {
      "id": "pt.ine.add.PTCONT.1723478",
      "street": "QTA ALBARDEIRA PERAS",
      "house": "",
      "postcode": "8600-302",
      "city": "LAGOS",
      "lon": "-8.663840436900614",
      "lat": "37.11547682752605"
    },
    {
      "id": "pt.ine.add.PTCONT.1723479",
      "street": "QTA ALBARDEIRA PERAS",
      "house": "",
      "postcode": "8600-302",
      "city": "LAGOS",
      "lon": "-8.663840436900614",
      "lat": "37.11547682752605"
    },
    {
      "id": "pt.ine.add.PTCONT.1723504",
      "street": "QTA ALBARDEIRA PERAS",
      "house": "",
      "postcode": "8600-302",
      "city": "LAGOS",
      "lon": "-8.663840436900614",
      "lat": "37.11547682752605"
    },
    {
      "id": "pt.ine.add.PTCONT.1724565",
      "street": "R ARISTIDES DE SOUSA MENDES",
      "house": "",
      "postcode": "8600-302",
      "city": "LAGOS",
      "lon": "-8.663295283674499",
      "lat": "37.11958807247916"
    },
    {
      "id": "pt.ine.add.PTCONT.1724566",
      "street": "TV PROF DR ANTÓNIO DE SOUSA FRANCO",
      "house": "",
      "postcode": "8600-302",
      "city": "LAGOS",
      "lon": "-8.662983828036039",
      "lat": "37.11849017938752"
    },
    {
      "id": "pt.ine.add.PTCONT.1727551",
      "street": "URB BELO HORIZONTE",
      "house": "3",
      "postcode": "8600-302",
      "city": "LAGOS",
      "lon": "-8.66673321681073",
      "lat": "37.11564405370983"
    },
    {
      "id": "pt.ine.add.PTCONT.1735868",
      "street": "TV PROF DR ANTÓNIO DE SOUSA FRANCO",
      "house": "",
      "postcode": "8600-302",
      "city": "LAGOS",
      "lon": "-8.663660866118391",
      "lat": "37.11876647819934"
    },
    {
      "id": "pt.ine.add.PTCONT.1738988",
      "street": "BC PROF DR ANTÓNIO DE SOUSA FRANCO",
      "house": "",
      "postcode": "8600-302",
      "city": "LAGOS",
      "lon": "-8.66340534907925",
      "lat": "37.11923616929843"
    },
    {
      "id": "pt.ine.add.PTCONT.1738990",
      "street": "AURORA BOREAL",
      "house": "4",
      "postcode": "8600-302",
      "city": "LAGOS",
      "lon": "-8.664663739022975",
      "lat": "37.11736535267454"
    },
    {
      "id": "pt.ine.add.PTCONT.1742375",
      "street": "ESTR ALBARDEIRA",
      "house": "",
      "postcode": "8600-302",
      "city": "LAGOS",
      "lon": "-8.66566327564247",
      "lat": "37.117099561455"
    },
    {
      "id": "pt.ine.add.PTCONT.1742376",
      "street": "ESTR ALBARDEIRA",
      "house": "",
      "postcode": "8600-302",
      "city": "LAGOS",
      "lon": "-8.66566327564247",
      "lat": "37.117099561455"
    },
    {
      "id": "pt.ine.add.PTCONT.1742377",
      "street": "ESTR ALBARDEIRA",
      "house": "",
      "postcode": "8600-302",
      "city": "LAGOS",
      "lon": "-8.66566327564247",
      "lat": "37.117099561455"
    },
    {
      "id": "pt.ine.add.PTCONT.1742378",
      "street": "ESTR ALBARDEIRA",
      "house": "",
      "postcode": "8600-302",
      "city": "LAGOS",
      "lon": "-8.66566327564247",
      "lat": "37.117099561455"
    },
    {
      "id": "pt.ine.add.PTCONT.1742379",
      "street": "ESTR ALBARDEIRA",
      "house": "",
      "postcode": "8600-302",
      "city": "LAGOS",
      "lon": "-8.66566327564247",
      "lat": "37.117099561455"
    },
    {
      "id": "pt.ine.add.PTCONT.1742380",
      "street": "ESTR ALBARDEIRA",
      "house": "",
      "postcode": "8600-302",
      "city": "LAGOS",
      "lon": "-8.66566327564247",
      "lat": "37.117099561455"
    },
    {
      "id": "pt.ine.add.PTCONT.1748001",
      "street": "QTA ALBARDEIRA COLINA ARENOSA",
      "house": "",
      "postcode": "8600-302",
      "city": "LAGOS",
      "lon": "-8.663635908589672",
      "lat": "37.11680229245537"
    },
    {
      "id": "pt.ine.add.PTCONT.1749890",
      "street": "QTA ALBARDEIRA COLINA ARENOSA",
      "house": "",
      "postcode": "8600-302",
      "city": "LAGOS",
      "lon": "-8.663635908589672",
      "lat": "37.11680229245537"
    },
    {
      "id": "pt.ine.add.PTCONT.1750044",
      "street": "R ARISTIDES DE SOUSA MENDES",
      "house": "",
      "postcode": "8600-302",
      "city": "LAGOS",
      "lon": "-8.665625843249316",
      "lat": "37.11818099416068"
    },
    {
      "id": "pt.ine.add.PTCONT.1763000",
      "street": "R ARISTIDES DE SOUSA MENDES",
      "house": "48",
      "postcode": "8600-302",
      "city": "LAGOS",
      "lon": "-8.663721714239081",
      "lat": "37.11942397505968"
    },
    {
      "id": "pt.ine.add.PTCONT.1766825",
      "street": "R PROF DR ANTÓNIO DE SOUSA FRANCO",
      "house": "",
      "postcode": "8600-302",
      "city": "LAGOS",
      "lon": "-8.663126391429845",
      "lat": "37.117957920383695"
    },
    {
      "id": "pt.ine.add.PTCONT.1768356",
      "street": "URB SITA NA ALBARDEIRA",
      "house": "",
      "postcode": "8600-315",
      "city": "LAGOS",
      "lon": "-8.663586441673496",
      "lat": "37.11777565205622"
    },
    {
      "id": "pt.ine.add.PTCONT.1778696",
      "street": "ESTR ALBARDEIRA",
      "house": "",
      "postcode": "8600-302",
      "city": "LAGOS",
      "lon": "-8.666897942442954",
      "lat": "37.116670513729716"
    },
    {
      "id": "pt.ine.add.PTCONT.1784605",
      "street": "QTA ALBARDEIRA",
      "house": "",
      "postcode": "8600-302",
      "city": "LAGOS",
      "lon": "-8.664331218709238",
      "lat": "37.116474799621336"
    },
    {
      "id": "pt.ine.add.PTCONT.1790318",
      "street": "R ARISTIDES DE SOUSA MENDES",
      "house": "43",
      "postcode": "8600-302",
      "city": "LAGOS",
      "lon": "-8.66393675322037",
      "lat": "37.119603223153625"
    },
    {
      "id": "pt.ine.add.PTCONT.1810918",
      "street": "TV PROF DR ANTÓNIO DE SOUSA FRANCO",
      "house": "",
      "postcode": "8600-302",
      "city": "LAGOS",
      "lon": "-8.66277030092981",
      "lat": "37.11852717567222"
    },
    {
      "id": "pt.ine.add.PTCONT.1813740",
      "street": "R PROF DR ANTÓNIO DE SOUSA FRANCO",
      "house": "",
      "postcode": "8600-302",
      "city": "LAGOS",
      "lon": "-8.663587321784737",
      "lat": "37.117901795658604"
    },
    {
      "id": "pt.ine.add.PTCONT.1817579",
      "street": "BC PROF DR ANTÓNIO DE SOUSA FRANCO",
      "house": "",
      "postcode": "8600-302",
      "city": "LAGOS",
      "lon": "-8.663033858093067",
      "lat": "37.11921079875885"
    },
    {
      "id": "pt.ine.add.PTCONT.1821164",
      "street": "R ARISTIDES DE SOUSA MENDES",
      "house": "",
      "postcode": "8600-302",
      "city": "LAGOS",
      "lon": "-8.665254861275825",
      "lat": "37.11822771257451"
    },
    {
      "id": "pt.ine.add.PTCONT.1826297",
      "street": "R ARISTIDES DE SOUSA MENDES",
      "house": "49",
      "postcode": "8600-302",
      "city": "LAGOS",
      "lon": "-8.663397868262136",
      "lat": "37.11977683492858"
    },
    {
      "id": "pt.ine.add.PTCONT.1827330",
      "street": "URB ALBARDEIRA",
      "house": "4",
      "postcode": "8600-302",
      "city": "LAGOS",
      "lon": "-8.665100081555199",
      "lat": "37.117011984526506"
    },
    {
      "id": "pt.ine.add.PTCONT.1827331",
      "street": "URB ALBARDEIRA",
      "house": "4",
      "postcode": "8600-302",
      "city": "LAGOS",
      "lon": "-8.665100081555199",
      "lat": "37.117011984526506"
    },
    {
      "id": "pt.ine.add.PTCONT.1827332",
      "street": "URB ALBARDEIRA",
      "house": "4",
      "postcode": "8600-302",
      "city": "LAGOS",
      "lon": "-8.665100081555199",
      "lat": "37.117011984526506"
    },
    {
      "id": "pt.ine.add.PTCONT.1827333",
      "street": "URB ALBARDEIRA",
      "house": "4",
      "postcode": "8600-302",
      "city": "LAGOS",
      "lon": "-8.665100081555199",
      "lat": "37.117011984526506"
    },
    {
      "id": "pt.ine.add.PTCONT.1827334",
      "street": "URB ALBARDEIRA",
      "house": "4",
      "postcode": "8600-302",
      "city": "LAGOS",
      "lon": "-8.665100081555199",
      "lat": "37.117011984526506"
    },
    {
      "id": "pt.ine.add.PTCONT.1827337",
      "street": "URB ALBARDEIRA",
      "house": "4",
      "postcode": "8600-302",
      "city": "LAGOS",
      "lon": "-8.665100081555199",
      "lat": "37.117011984526506"
    },
    {
      "id": "pt.ine.add.PTCONT.1828159",
      "street": "R PROF DR ANTÓNIO DE SOUSA FRANCO",
      "house": "68",
      "postcode": "8600-302",
      "city": "LAGOS",
      "lon": "-8.66315090428302",
      "lat": "37.118246148023914"
    },
    {
      "id": "pt.ine.add.PTCONT.1831395",
      "street": "R ARISTIDES DE SOUSA MENDES",
      "house": "",
      "postcode": "8600-302",
      "city": "LAGOS",
      "lon": "-8.6655283661349",
      "lat": "37.11872206416374"
    },
    {
      "id": "pt.ine.add.PTCONT.1833790",
      "street": "TV PROF DR ANTÓNIO DE SOUSA FRANCO",
      "house": "",
      "postcode": "8600-302",
      "city": "LAGOS",
      "lon": "-8.663424709828607",
      "lat": "37.118785555853"
    },
    {
      "id": "pt.ine.add.PTCONT.1836691",
      "street": "ESTR ALBARDEIRA",
      "house": "",
      "postcode": "8600-302",
      "city": "LAGOS",
      "lon": "-8.663292088895563",
      "lat": "37.11590277637405"
    },
    {
      "id": "pt.ine.add.PTCONT.1842488",
      "street": "R ARISTIDES DE SOUSA MENDES CASA SOPHIA",
      "house": "13",
      "postcode": "8600-302",
      "city": "LAGOS",
      "lon": "-8.664228714196462",
      "lat": "37.11790793461221"
    },
    {
      "id": "pt.ine.add.PTCONT.1847952",
      "street": "R ARISTIDES DE SOUSA MENDES",
      "house": "",
      "postcode": "8600-302",
      "city": "LAGOS",
      "lon": "-8.665098917243345",
      "lat": "37.118453675855314"
    }
  ]
}