{
  "data": {
    "distrito": "Bragança",
    "concelho": "Mogadouro",
    "freguesia": "União das freguesias de Remondes e Soutelo",
    "OBJECTID": 148,
    "BGRI2021": "04083100118",
    "DT21": "04",
    "DTMN21": "0408",
    "DTMNFR21": "040831",
    "DTMNFRSEC21": "040831001",
    "SECNUM21": "001",
    "SSNUM21": "18",
    "SECSSNUM21": "00118",
    "OBJECTID_1": 38172,
    "DT": "04",
    "CC": "08",
    "fr": "31",
    "SEC": "001",
    "SS": "18"
  },
  "addresses": [
    {
      "id": "pt.ine.add.PTCONT.850589",
      "street": "TV FACIEIRA",
      "house": "",
      "postcode": "5200-410",
      "city": "SOUTELO MGD",
      "lon": "-6.730655300475961",
      "lat": "41.398834465155794"
    },
    {
      "id": "pt.ine.add.PTCONT.855292",
      "street": "R FACIEIRA",
      "house": "",
      "postcode": "5200-410",
      "city": "SOUTELO MGD",
      "lon": "-6.730585703054465",
      "lat": "41.39873457636437"
    },
    {
      "id": "pt.ine.add.PTCONT.875758",
      "street": "",
      "house": "",
      "postcode": "5200-410",
      "city": "SOUTELO MGD",
      "lon": "-6.7307644384537",
      "lat": "41.39876376623192"
    },
    {
      "id": "pt.ine.add.PTCONT.892492",
      "street": "LG CRUZEIRO",
      "house": "",
      "postcode": "5200-410",
      "city": "SOUTELO MGD",
      "lon": "-6.730436730727115",
      "lat": "41.39787741171745"
    },
    {
      "id": "pt.ine.add.PTCONT.895498",
      "street": "",
      "house": "",
      "postcode": "5200-410",
      "city": "SOUTELO MGD",
      "lon": "-6.731022253163957",
      "lat": "41.39845178027376"
    },
    {
      "id": "pt.ine.add.PTCONT.921783",
      "street": "",
      "house": "",
      "postcode": "5200-410",
      "city": "SOUTELO MGD",
      "lon": "-6.731225090177683",
      "lat": "41.39847225949138"
    },
    {
      "id": "pt.ine.add.PTCONT.927625",
      "street": "TV IGREJA 1",
      "house": "",
      "postcode": "5200-410",
      "city": "SOUTELO MGD",
      "lon": "-6.730627953254774",
      "lat": "41.39843797042875"
    },
    {
      "id": "pt.ine.add.PTCONT.928872",
      "street": "TV IGREJA 2",
      "house": "",
      "postcode": "5200-410",
      "city": "SOUTELO MGD",
      "lon": "-6.730558549834948",
      "lat": "41.398329080313815"
    },
    {
      "id": "pt.ine.add.PTCONT.947339",
      "street": "R IGREJA",
      "house": "",
      "postcode": "5200-410",
      "city": "SOUTELO MGD",
      "lon": "-6.731002988277645",
      "lat": "41.398235457462334"
    },
    {
      "id": "pt.ine.add.PTCONT.949490",
      "street": "TV IGREJA",
      "house": "",
      "postcode": "5200-410",
      "city": "SOUTELO MGD",
      "lon": "-6.73080649434578",
      "lat": "41.39847616152798"
    }
  ]
}