{
  "data": {
    "distrito": "Braga",
    "concelho": "Celorico de Basto",
    "freguesia": "Uni√£o das freguesias de Veade, Gagos e Molares",
    "OBJECTID": 150,
    "BGRI2021": "03052700223",
    "DT21": "03",
    "DTMN21": "0305",
    "DTMNFR21": "030527",
    "DTMNFRSEC21": "030527002",
    "SECNUM21": "002",
    "SSNUM21": "23",
    "SECSSNUM21": "00223",
    "OBJECTID_1": 24055,
    "DT": "03",
    "CC": "05",
    "fr": "27",
    "SEC": "002",
    "SS": "23"
  },
  "addresses": [
    {
      "id": "pt.ine.add.PTCONT.462681",
      "street": "",
      "house": "",
      "postcode": "4890-416",
      "city": "MOLARES",
      "lon": "-7.98667917332568",
      "lat": "41.421650339913334"
    },
    {
      "id": "pt.ine.add.PTCONT.462682",
      "street": "",
      "house": "",
      "postcode": "4890-416",
      "city": "MOLARES",
      "lon": "-7.986358587083453",
      "lat": "41.42058746283023"
    },
    {
      "id": "pt.ine.add.PTCONT.462683",
      "street": "R ESCOLA",
      "house": "",
      "postcode": "4890-416",
      "city": "MOLARES",
      "lon": "-7.988174722650489",
      "lat": "41.421526177969156"
    },
    {
      "id": "pt.ine.add.PTCONT.468548",
      "street": "ESTR NACIONAL",
      "house": "",
      "postcode": "4890-416",
      "city": "MOLARES",
      "lon": "-7.988212230165989",
      "lat": "41.42079690352173"
    },
    {
      "id": "pt.ine.add.PTCONT.471570",
      "street": "",
      "house": "",
      "postcode": "4890-416",
      "city": "MOLARES",
      "lon": "-7.988824523998671",
      "lat": "41.41978922802914"
    },
    {
      "id": "pt.ine.add.PTCONT.474792",
      "street": "",
      "house": "",
      "postcode": "4890-416",
      "city": "MOLARES",
      "lon": "-7.986441429426063",
      "lat": "41.4209837432299"
    },
    {
      "id": "pt.ine.add.PTCONT.479084",
      "street": "",
      "house": "",
      "postcode": "4890-416",
      "city": "MOLARES",
      "lon": "-7.988932598481534",
      "lat": "41.419600280057175"
    },
    {
      "id": "pt.ine.add.PTCONT.501288",
      "street": "TAPADA PERGUICA",
      "house": "",
      "postcode": "4890-416",
      "city": "MOLARES",
      "lon": "-7.98889715134807",
      "lat": "41.41940214820282"
    },
    {
      "id": "pt.ine.add.PTCONT.519208",
      "street": "",
      "house": "",
      "postcode": "4890-416",
      "city": "MOLARES",
      "lon": "-7.987025530925086",
      "lat": "41.4218938873992"
    },
    {
      "id": "pt.ine.add.PTCONT.546000",
      "street": "",
      "house": "",
      "postcode": "4890-416",
      "city": "MOLARES",
      "lon": "-7.986861554867951",
      "lat": "41.42033599202025"
    },
    {
      "id": "pt.ine.add.PTCONT.573827",
      "street": "",
      "house": "",
      "postcode": "4890-416",
      "city": "MOLARES",
      "lon": "-7.9879948096445395",
      "lat": "41.421742046491396"
    },
    {
      "id": "pt.ine.add.PTCONT.574203",
      "street": "",
      "house": "",
      "postcode": "4890-416",
      "city": "MOLARES",
      "lon": "-7.988918505764282",
      "lat": "41.42056368752925"
    },
    {
      "id": "pt.ine.add.PTCONT.601592",
      "street": "TAPADA PREGUICA",
      "house": "",
      "postcode": "4890-416",
      "city": "MOLARES",
      "lon": "-7.989159315549794",
      "lat": "41.419852675196445"
    },
    {
      "id": "pt.ine.add.PTCONT.605954",
      "street": "",
      "house": "",
      "postcode": "4890-416",
      "city": "MOLARES",
      "lon": "-7.988486616977232",
      "lat": "41.42113039570224"
    },
    {
      "id": "pt.ine.add.PTCONT.616378",
      "street": "",
      "house": "",
      "postcode": "4890-416",
      "city": "MOLARES",
      "lon": "-7.98867015757001",
      "lat": "41.41927580782441"
    },
    {
      "id": "pt.ine.add.PTCONT.622274",
      "street": "BR PERGUICA",
      "house": "",
      "postcode": "4890-416",
      "city": "MOLARES",
      "lon": "-7.98869240551598",
      "lat": "41.42003216955593"
    },
    {
      "id": "pt.ine.add.PTCONT.657795",
      "street": "",
      "house": "",
      "postcode": "4890-416",
      "city": "MOLARES",
      "lon": "-7.990251728481674",
      "lat": "41.418080253673786"
    },
    {
      "id": "pt.ine.add.PTCONT.664199",
      "street": "",
      "house": "",
      "postcode": "4890-416",
      "city": "MOLARES",
      "lon": "-7.986440619088616",
      "lat": "41.42134390105198"
    },
    {
      "id": "pt.ine.add.PTCONT.664200",
      "street": "",
      "house": "",
      "postcode": "4890-413",
      "city": "MOLARES",
      "lon": "-7.990004193315964",
      "lat": "41.41641421018841"
    },
    {
      "id": "pt.ine.add.PTCONT.666236",
      "street": "",
      "house": "",
      "postcode": "4890-416",
      "city": "MOLARES",
      "lon": "-7.986476930700075",
      "lat": "41.42115486393868"
    },
    {
      "id": "pt.ine.add.PTCONT.674860",
      "street": "TAPADA PREGUICA",
      "house": "",
      "postcode": "4890-416",
      "city": "MOLARES",
      "lon": "-7.988548463912874",
      "lat": "41.42021206825554"
    },
    {
      "id": "pt.ine.add.PTCONT.674861",
      "street": "TAPADA PREGUICA",
      "house": "",
      "postcode": "4890-416",
      "city": "MOLARES",
      "lon": "-7.988548463912874",
      "lat": "41.42021206825554"
    },
    {
      "id": "pt.ine.add.PTCONT.674862",
      "street": "",
      "house": "",
      "postcode": "4890-416",
      "city": "MOLARES",
      "lon": "-7.988548463912874",
      "lat": "41.42021206825554"
    },
    {
      "id": "pt.ine.add.PTCONT.674863",
      "street": "FERMIL BASTO",
      "house": "",
      "postcode": "4890-416",
      "city": "MOLARES",
      "lon": "-7.988548463912874",
      "lat": "41.42021206825554"
    },
    {
      "id": "pt.ine.add.PTCONT.674866",
      "street": "",
      "house": "",
      "postcode": "4890-416",
      "city": "MOLARES",
      "lon": "-7.988548463912874",
      "lat": "41.42021206825554"
    },
    {
      "id": "pt.ine.add.PTCONT.674867",
      "street": "",
      "house": "",
      "postcode": "4890-416",
      "city": "MOLARES",
      "lon": "-7.988548463912874",
      "lat": "41.42021206825554"
    },
    {
      "id": "pt.ine.add.PTCONT.704588",
      "street": "",
      "house": "",
      "postcode": "4890-416",
      "city": "MOLARES",
      "lon": "-7.988594714634028",
      "lat": "41.420932444150296"
    },
    {
      "id": "pt.ine.add.PTCONT.718345",
      "street": "",
      "house": "",
      "postcode": "4890-416",
      "city": "MOLARES",
      "lon": "-7.989146995818258",
      "lat": "41.4200147313043"
    },
    {
      "id": "pt.ine.add.PTCONT.725670",
      "street": "",
      "house": "",
      "postcode": "4890-416",
      "city": "MOLARES",
      "lon": "-7.988728570267146",
      "lat": "41.41990615931641"
    },
    {
      "id": "pt.ine.add.PTCONT.732096",
      "street": "ESCOLA",
      "house": "",
      "postcode": "4890-416",
      "city": "MOLARES",
      "lon": "-7.988330710282909",
      "lat": "41.42131027905345"
    },
    {
      "id": "pt.ine.add.PTCONT.732097",
      "street": "",
      "house": "",
      "postcode": "4890-416",
      "city": "MOLARES",
      "lon": "-7.988261538631433",
      "lat": "41.42013967561125"
    },
    {
      "id": "pt.ine.add.PTCONT.734503",
      "street": "TAPADA PREGUICA",
      "house": "",
      "postcode": "4890-416",
      "city": "MOLARES",
      "lon": "-7.9884764129062535",
      "lat": "41.42033803332596"
    },
    {
      "id": "pt.ine.add.PTCONT.740353",
      "street": "",
      "house": "",
      "postcode": "4890-416",
      "city": "MOLARES",
      "lon": "-7.986750845157056",
      "lat": "41.42169545095984"
    },
    {
      "id": "pt.ine.add.PTCONT.742071",
      "street": "",
      "house": "",
      "postcode": "4890-416",
      "city": "MOLARES",
      "lon": "-7.987300339208002",
      "lat": "41.42203829951177"
    },
    {
      "id": "pt.ine.add.PTCONT.770505",
      "street": "",
      "house": "",
      "postcode": "4890-416",
      "city": "MOLARES",
      "lon": "-7.986906716740439",
      "lat": "41.42153357766052"
    },
    {
      "id": "pt.ine.add.PTCONT.784054",
      "street": "",
      "house": "",
      "postcode": "4890-416",
      "city": "MOLARES",
      "lon": "-7.986906110905064",
      "lat": "41.42180369600893"
    },
    {
      "id": "pt.ine.add.PTCONT.788311",
      "street": "VL FERMIL",
      "house": "S N",
      "postcode": "4890-416",
      "city": "MOLARES",
      "lon": "-7.988978932662467",
      "lat": "41.42028464008886"
    },
    {
      "id": "pt.ine.add.PTCONT.791409",
      "street": "",
      "house": "",
      "postcode": "4890-416",
      "city": "MOLARES",
      "lon": "-7.987196548833782",
      "lat": "41.42030940542361"
    },
    {
      "id": "pt.ine.add.PTCONT.791415",
      "street": "TAPADA PREGUICA",
      "house": "",
      "postcode": "4890-416",
      "city": "MOLARES",
      "lon": "-7.988369455398576",
      "lat": "41.42002275976865"
    },
    {
      "id": "pt.ine.add.PTCONT.799065",
      "street": "",
      "house": "",
      "postcode": "4890-416",
      "city": "MOLARES",
      "lon": "-7.987587291866868",
      "lat": "41.42210169059646"
    },
    {
      "id": "pt.ine.add.PTCONT.803694",
      "street": "",
      "house": "",
      "postcode": "4890-416",
      "city": "MOLARES",
      "lon": "-7.986406130967047",
      "lat": "41.42072258304373"
    },
    {
      "id": "pt.ine.add.PTCONT.809998",
      "street": "",
      "house": "",
      "postcode": "4890-416",
      "city": "MOLARES",
      "lon": "-7.988609690382491",
      "lat": "41.41957286304896"
    },
    {
      "id": "pt.ine.add.PTCONT.833623",
      "street": "TAPADA PERGUICA",
      "house": "",
      "postcode": "4890-416",
      "city": "MOLARES",
      "lon": "-7.9885853676157685",
      "lat": "41.419752911976325"
    },
    {
      "id": "pt.ine.add.PTCONT.843286",
      "street": "",
      "house": "",
      "postcode": "4890-416",
      "city": "MOLARES",
      "lon": "-7.989148149067633",
      "lat": "41.41949250227112"
    },
    {
      "id": "pt.ine.add.PTCONT.848200",
      "street": "",
      "house": "",
      "postcode": "4890-416",
      "city": "MOLARES",
      "lon": "-7.988177545270689",
      "lat": "41.42025662148791"
    }
  ]
}