{
  "data": {
    "distrito": "Braga",
    "concelho": "Celorico de Basto",
    "freguesia": "Uni√£o das freguesias de Veade, Gagos e Molares",
    "OBJECTID": 156,
    "BGRI2021": "03052700226",
    "DT21": "03",
    "DTMN21": "0305",
    "DTMNFR21": "030527",
    "DTMNFRSEC21": "030527002",
    "SECNUM21": "002",
    "SSNUM21": "26",
    "SECSSNUM21": "00226",
    "OBJECTID_1": 23874,
    "DT": "03",
    "CC": "05",
    "fr": "27",
    "SEC": "002",
    "SS": "26"
  },
  "addresses": [
    {
      "id": "pt.ine.add.PTCONT.467086",
      "street": "",
      "house": "",
      "postcode": "4890-568",
      "city": "VEADE",
      "lon": "-7.98629612084602",
      "lat": "41.42176690338627"
    },
    {
      "id": "pt.ine.add.PTCONT.480558",
      "street": "",
      "house": "",
      "postcode": "4890-568",
      "city": "VEADE",
      "lon": "-7.984690381113282",
      "lat": "41.4229983870337"
    },
    {
      "id": "pt.ine.add.PTCONT.489529",
      "street": "",
      "house": "",
      "postcode": "4890-568",
      "city": "VEADE",
      "lon": "-7.986320329049298",
      "lat": "41.42164087868649"
    },
    {
      "id": "pt.ine.add.PTCONT.514020",
      "street": "",
      "house": "",
      "postcode": "4890-568",
      "city": "VEADE",
      "lon": "-7.984797284683288",
      "lat": "41.4233316717092"
    },
    {
      "id": "pt.ine.add.PTCONT.521807",
      "street": "",
      "house": "",
      "postcode": "4890-568",
      "city": "VEADE",
      "lon": "-7.985074445660627",
      "lat": "41.422440635758846"
    },
    {
      "id": "pt.ine.add.PTCONT.601475",
      "street": "",
      "house": "",
      "postcode": "4890-568",
      "city": "VEADE",
      "lon": "-7.985816596325739",
      "lat": "41.42222549297731"
    },
    {
      "id": "pt.ine.add.PTCONT.679466",
      "street": "",
      "house": "",
      "postcode": "4890-568",
      "city": "VEADE",
      "lon": "-7.986140450193952",
      "lat": "41.421838736405356"
    },
    {
      "id": "pt.ine.add.PTCONT.654246",
      "street": "",
      "house": "",
      "postcode": "4890-568",
      "city": "VEADE",
      "lon": "-7.9854976728293385",
      "lat": "41.42043329401055"
    }
  ]
}