{
  "data": {
    "distrito": "Leiria",
    "concelho": "Alcoba√ßa",
    "freguesia": "Turquel",
    "OBJECTID": 1035,
    "BGRI2021": "10011400222",
    "DT21": "10",
    "DTMN21": "1001",
    "DTMNFR21": "100114",
    "DTMNFRSEC21": "100114002",
    "SECNUM21": "002",
    "SSNUM21": "22",
    "SECSSNUM21": "00222",
    "OBJECTID_1": 83798,
    "DT": "10",
    "CC": "01",
    "fr": "14",
    "SEC": "002",
    "SS": "22"
  },
  "addresses": [
    {
      "id": "pt.ine.add.PTCONT.2050489",
      "street": "R PRINCIPAL",
      "house": "",
      "postcode": "2460-797",
      "city": "TURQUEL",
      "lon": "-8.951538752081822",
      "lat": "39.481620180995364"
    },
    {
      "id": "pt.ine.add.PTCONT.2067583",
      "street": "R PRINCIPAL",
      "house": "",
      "postcode": "2460-797",
      "city": "TURQUEL",
      "lon": "-8.951583128116305",
      "lat": "39.481439732082414"
    },
    {
      "id": "pt.ine.add.PTCONT.2106195",
      "street": "R MATA DO COELHO",
      "house": "",
      "postcode": "2460-798",
      "city": "TURQUEL",
      "lon": "-8.94771764393196",
      "lat": "39.48086341956947"
    },
    {
      "id": "pt.ine.add.PTCONT.2108469",
      "street": "R PRINCIPAL",
      "house": "",
      "postcode": "2460-819",
      "city": "TURQUEL",
      "lon": "-8.953303944509836",
      "lat": "39.477536655800606"
    },
    {
      "id": "pt.ine.add.PTCONT.2122042",
      "street": "R PRINCIPAL",
      "house": "",
      "postcode": "2460-819",
      "city": "TURQUEL",
      "lon": "-8.953460398922104",
      "lat": "39.47700414894366"
    },
    {
      "id": "pt.ine.add.PTCONT.2145262",
      "street": "R PRINCIPAL",
      "house": "",
      "postcode": "2460-819",
      "city": "TURQUEL",
      "lon": "-8.955293433727098",
      "lat": "39.473766755328555"
    },
    {
      "id": "pt.ine.add.PTCONT.2146474",
      "street": "R PRINCIPAL",
      "house": "",
      "postcode": "2460-819",
      "city": "TURQUEL",
      "lon": "-8.953093166633689",
      "lat": "39.47641228811032"
    },
    {
      "id": "pt.ine.add.PTCONT.2146475",
      "street": "R PRINCIPAL",
      "house": "",
      "postcode": "2460-819",
      "city": "TURQUEL",
      "lon": "-8.953093166633689",
      "lat": "39.47641228811032"
    },
    {
      "id": "pt.ine.add.PTCONT.2148134",
      "street": "R PRINCIPAL",
      "house": "",
      "postcode": "2460-819",
      "city": "TURQUEL",
      "lon": "-8.953093166633689",
      "lat": "39.47641228811032"
    },
    {
      "id": "pt.ine.add.PTCONT.2154477",
      "street": "R MATA DO COELHOALE DE VENTOS",
      "house": "",
      "postcode": "2460-797",
      "city": "TURQUEL",
      "lon": "-8.947719809793087",
      "lat": "39.480052789597494"
    },
    {
      "id": "pt.ine.add.PTCONT.2163803",
      "street": "R PRINCIPAL",
      "house": "",
      "postcode": "2460-797",
      "city": "TURQUEL",
      "lon": "-8.951930942310957",
      "lat": "39.48037447750604"
    },
    {
      "id": "pt.ine.add.PTCONT.2166150",
      "street": "R MATA DO COELHOALE DE VENTOS",
      "house": "",
      "postcode": "2460-797",
      "city": "TURQUEL",
      "lon": "-8.94823883441847",
      "lat": "39.48070665093921"
    },
    {
      "id": "pt.ine.add.PTCONT.2212750",
      "street": "R PRINCIPAL",
      "house": "",
      "postcode": "2460-819",
      "city": "TURQUEL",
      "lon": "-8.953403789954612",
      "lat": "39.47812139560125"
    },
    {
      "id": "pt.ine.add.PTCONT.2227373",
      "street": "R MATA DO COELHO",
      "house": "",
      "postcode": "2460-797",
      "city": "TURQUEL",
      "lon": "-8.951037008328425",
      "lat": "39.481452581795274"
    },
    {
      "id": "pt.ine.add.PTCONT.2229369",
      "street": "R PRINCIPAL",
      "house": "",
      "postcode": "2460-819",
      "city": "TURQUEL",
      "lon": "-8.953644325539663",
      "lat": "39.47683172135299"
    }
  ]
}