{
  "data": {
    "distrito": "Santar√©m",
    "concelho": "Torres Novas",
    "freguesia": "Assentiz",
    "OBJECTID": 34,
    "BGRI2021": "14190200432",
    "DT21": "14",
    "DTMN21": "1419",
    "DTMNFR21": "141902",
    "DTMNFRSEC21": "141902004",
    "SECNUM21": "004",
    "SSNUM21": "32",
    "SECSSNUM21": "00432",
    "OBJECTID_1": 157303,
    "DT": "14",
    "CC": "19",
    "fr": "02",
    "SEC": "004",
    "SS": "32"
  },
  "addresses": [
    {
      "id": "pt.ine.add.PTCONT.4401282",
      "street": "BR COIMBRAS",
      "house": "",
      "postcode": "2350-016",
      "city": "ASSENTIZ TNV",
      "lon": "-8.521581092802549",
      "lat": "39.574956249424304"
    },
    {
      "id": "pt.ine.add.PTCONT.4402260",
      "street": "EN 349",
      "house": "",
      "postcode": "2350-016",
      "city": "ASSENTIZ TNV",
      "lon": "-8.520432456285615",
      "lat": "39.57559956774762"
    },
    {
      "id": "pt.ine.add.PTCONT.4428133",
      "street": "BR COIMBRAS",
      "house": "7",
      "postcode": "2350-016",
      "city": "ASSENTIZ TNV",
      "lon": "-8.521721255743374",
      "lat": "39.57504584900833"
    },
    {
      "id": "pt.ine.add.PTCONT.4431809",
      "street": "R PRINCIPAL",
      "house": "50",
      "postcode": "2350-028",
      "city": "ASSENTIZ TNV",
      "lon": "-8.51887766727213",
      "lat": "39.57016461712864"
    },
    {
      "id": "pt.ine.add.PTCONT.4457953",
      "street": "R QUATRO VENTOS",
      "house": "3",
      "postcode": "2350-023",
      "city": "ASSENTIZ TNV",
      "lon": "-8.519320763451127",
      "lat": "39.57661203150152"
    },
    {
      "id": "pt.ine.add.PTCONT.4470593",
      "street": "EN 349",
      "house": "1",
      "postcode": "2350-016",
      "city": "ASSENTIZ TNV",
      "lon": "-8.521559123156658",
      "lat": "39.5751905002106"
    },
    {
      "id": "pt.ine.add.PTCONT.4485220",
      "street": "BR MOINHO FIGO",
      "house": "2",
      "postcode": "2350-016",
      "city": "ASSENTIZ TNV",
      "lon": "-8.520564151084749",
      "lat": "39.572077460881054"
    },
    {
      "id": "pt.ine.add.PTCONT.4530637",
      "street": "BR COIMBRAS",
      "house": "",
      "postcode": "2350-016",
      "city": "ASSENTIZ TNV",
      "lon": "-8.521534841060623",
      "lat": "39.575010444954614"
    },
    {
      "id": "pt.ine.add.PTCONT.4547920",
      "street": "BR MOINHO FIGO",
      "house": "3",
      "postcode": "2350-016",
      "city": "ASSENTIZ TNV",
      "lon": "-8.521038098628427",
      "lat": "39.57358902629639"
    },
    {
      "id": "pt.ine.add.PTCONT.4550962",
      "street": "BR MOINHO FIGO",
      "house": "4",
      "postcode": "2350-016",
      "city": "ASSENTIZ TNV",
      "lon": "-8.520775739368196",
      "lat": "39.57245504192018"
    },
    {
      "id": "pt.ine.add.PTCONT.4554415",
      "street": "BR MOINHO FIGO",
      "house": "1",
      "postcode": "2350-016",
      "city": "ASSENTIZ TNV",
      "lon": "-8.521217930044983",
      "lat": "39.57244455916832"
    },
    {
      "id": "pt.ine.add.PTCONT.4561519",
      "street": "EN 349",
      "house": "3",
      "postcode": "2350-016",
      "city": "ASSENTIZ TNV",
      "lon": "-8.520885402131421",
      "lat": "39.57542692761895"
    },
    {
      "id": "pt.ine.add.PTCONT.4646996",
      "street": "R QUATRO VENTOS",
      "house": "1",
      "postcode": "2350-023",
      "city": "ASSENTIZ TNV",
      "lon": "-8.519063964644092",
      "lat": "39.57647778238112"
    },
    {
      "id": "pt.ine.add.PTCONT.4648610",
      "street": "R ESTRADA DAS MOREIRAS",
      "house": "1",
      "postcode": "2350-023",
      "city": "ASSENTIZ TNV",
      "lon": "-8.519532358994596",
      "lat": "39.57698961447529"
    },
    {
      "id": "pt.ine.add.PTCONT.4654864",
      "street": "BR COIMBRAS",
      "house": "11",
      "postcode": "2350-016",
      "city": "ASSENTIZ TNV",
      "lon": "-8.521660700679718",
      "lat": "39.574622730886034"
    },
    {
      "id": "pt.ine.add.PTCONT.4654865",
      "street": "BR COIMBRAS",
      "house": "9",
      "postcode": "2350-016",
      "city": "ASSENTIZ TNV",
      "lon": "-8.521767406768596",
      "lat": "39.57497364009889"
    },
    {
      "id": "pt.ine.add.PTCONT.4661887",
      "street": "R COIMBRASGO",
      "house": "13",
      "postcode": "2350-016",
      "city": "ASSENTIZ TNV",
      "lon": "-8.52160896918595",
      "lat": "39.57369520112703"
    }
  ]
}