{
  "data": {
    "distrito": "Santar√©m",
    "concelho": "Torres Novas",
    "freguesia": "Assentiz",
    "OBJECTID": 58,
    "BGRI2021": "14190200435",
    "DT21": "14",
    "DTMN21": "1419",
    "DTMNFR21": "141902",
    "DTMNFRSEC21": "141902004",
    "SECNUM21": "004",
    "SSNUM21": "35",
    "SECSSNUM21": "00435",
    "OBJECTID_1": 157060,
    "DT": "14",
    "CC": "19",
    "fr": "02",
    "SEC": "004",
    "SS": "35"
  },
  "addresses": [
    {
      "id": "pt.ine.add.PTCONT.4444110",
      "street": "R TOJAIS",
      "house": "",
      "postcode": "2350-028",
      "city": "ASSENTIZ TNV",
      "lon": "-8.510878563115824",
      "lat": "39.57157794642472"
    },
    {
      "id": "pt.ine.add.PTCONT.4479447",
      "street": "R 25 ABRIL",
      "house": "8",
      "postcode": "2350-028",
      "city": "ASSENTIZ TNV",
      "lon": "-8.511671793912667",
      "lat": "39.57191762465513"
    },
    {
      "id": "pt.ine.add.PTCONT.4485232",
      "street": "R CAMPO DA BOLA",
      "house": "13",
      "postcode": "2350-028",
      "city": "ASSENTIZ TNV",
      "lon": "-8.507024590723573",
      "lat": "39.5734097897615"
    },
    {
      "id": "pt.ine.add.PTCONT.4486378",
      "street": "R TOJAIS",
      "house": "19",
      "postcode": "2350-028",
      "city": "ASSENTIZ TNV",
      "lon": "-8.510760816990661",
      "lat": "39.57132613791222"
    },
    {
      "id": "pt.ine.add.PTCONT.4488545",
      "street": "MOREIRAS GRANDES",
      "house": "",
      "postcode": "2350-026",
      "city": "ASSENTIZ TNV",
      "lon": "-8.506829161144594",
      "lat": "39.57386075971158"
    },
    {
      "id": "pt.ine.add.PTCONT.4518293",
      "street": "R TOJAIS",
      "house": "17",
      "postcode": "2350-028",
      "city": "ASSENTIZ TNV",
      "lon": "-8.510667177643969",
      "lat": "39.57122736704976"
    },
    {
      "id": "pt.ine.add.PTCONT.4542748",
      "street": "R CAMPO DA BOLA",
      "house": "7",
      "postcode": "2350-028",
      "city": "ASSENTIZ TNV",
      "lon": "-8.507425094389474",
      "lat": "39.57213853776453"
    },
    {
      "id": "pt.ine.add.PTCONT.4545205",
      "street": "R 25 ABRIL",
      "house": "2",
      "postcode": "2350-028",
      "city": "ASSENTIZ TNV",
      "lon": "-8.510899345576075",
      "lat": "39.571118530589395"
    },
    {
      "id": "pt.ine.add.PTCONT.4550987",
      "street": "R 25 ABRIL",
      "house": "",
      "postcode": "2350-028",
      "city": "ASSENTIZ TNV",
      "lon": "-8.511390674609997",
      "lat": "39.57158528741826"
    },
    {
      "id": "pt.ine.add.PTCONT.4553084",
      "street": "R CAMPO DA BOLA",
      "house": "5",
      "postcode": "2350-028",
      "city": "ASSENTIZ TNV",
      "lon": "-8.5073975565869",
      "lat": "39.57134602550495"
    },
    {
      "id": "pt.ine.add.PTCONT.4565740",
      "street": "R CAMPO DA BOLA",
      "house": "3",
      "postcode": "2350-028",
      "city": "ASSENTIZ TNV",
      "lon": "-8.507687240183364",
      "lat": "39.57111091458224"
    },
    {
      "id": "pt.ine.add.PTCONT.4613491",
      "street": "R 25 ABRIL",
      "house": "4",
      "postcode": "2350-028",
      "city": "ASSENTIZ TNV",
      "lon": "-8.511168627197929",
      "lat": "39.57141488024343"
    },
    {
      "id": "pt.ine.add.PTCONT.4641323",
      "street": "R TOJAIS",
      "house": "21",
      "postcode": "2350-028",
      "city": "ASSENTIZ TNV",
      "lon": "-8.510726294655338",
      "lat": "39.57139830472444"
    },
    {
      "id": "pt.ine.add.PTCONT.4646997",
      "street": "R CASTELO",
      "house": "8",
      "postcode": "2350-025",
      "city": "ASSENTIZ TNV",
      "lon": "-8.506757896580956",
      "lat": "39.575761428817124"
    }
  ]
}