{
  "data": {
    "distrito": "Viseu",
    "concelho": "Tondela",
    "freguesia": "Uni√£o das freguesias de Barreiro de Besteiros e Tourigo",
    "OBJECTID": 137,
    "BGRI2021": "18212700113",
    "DT21": "18",
    "DTMN21": "1821",
    "DTMNFR21": "182127",
    "DTMNFRSEC21": "182127001",
    "SECNUM21": "001",
    "SSNUM21": "13",
    "SECSSNUM21": "00113",
    "OBJECTID_1": 199556,
    "DT": "18",
    "CC": "21",
    "fr": "27",
    "SEC": "001",
    "SS": "13"
  },
  "addresses": [
    {
      "id": "pt.ine.add.PTCONT.5434055",
      "street": "R PRINCIPAL",
      "house": "395",
      "postcode": "3465-013",
      "city": "BARREIRO DE BESTEIROS",
      "lon": "-8.150753046899732",
      "lat": "40.48662132280594"
    },
    {
      "id": "pt.ine.add.PTCONT.5438110",
      "street": "R PRINCIPAL",
      "house": "204",
      "postcode": "3465-013",
      "city": "BARREIRO DE BESTEIROS",
      "lon": "-8.152061973249348",
      "lat": "40.48564852803504"
    },
    {
      "id": "pt.ine.add.PTCONT.5455630",
      "street": "R PRINCIPAL",
      "house": "235",
      "postcode": "3465-013",
      "city": "BARREIRO DE BESTEIROS",
      "lon": "-8.151719954860406",
      "lat": "40.48572062714284"
    },
    {
      "id": "pt.ine.add.PTCONT.5498845",
      "street": "R NESPREIRA",
      "house": "22",
      "postcode": "3465-013",
      "city": "BARREIRO DE BESTEIROS",
      "lon": "-8.151932576751232",
      "lat": "40.486873289010454"
    },
    {
      "id": "pt.ine.add.PTCONT.5517560",
      "street": "R BAIRRO NOVO",
      "house": "",
      "postcode": "3465-013",
      "city": "BARREIRO DE BESTEIROS",
      "lon": "-8.149821193547494",
      "lat": "40.48629726548451"
    },
    {
      "id": "pt.ine.add.PTCONT.5537975",
      "street": "R PRINCIPAL",
      "house": "245",
      "postcode": "3465-013",
      "city": "BARREIRO DE BESTEIROS",
      "lon": "-8.151590248171928",
      "lat": "40.48583771868544"
    },
    {
      "id": "pt.ine.add.PTCONT.5540791",
      "street": "R EMIGRANTES",
      "house": "203",
      "postcode": "3465-013",
      "city": "BARREIRO DE BESTEIROS",
      "lon": "-8.152864070631063",
      "lat": "40.48590955149561"
    },
    {
      "id": "pt.ine.add.PTCONT.5548966",
      "street": "R PRINCIPAL",
      "house": "413",
      "postcode": "3465-013",
      "city": "BARREIRO DE BESTEIROS",
      "lon": "-8.150694135040675",
      "lat": "40.486855473203306"
    },
    {
      "id": "pt.ine.add.PTCONT.5561611",
      "street": "R EMIGRANTES",
      "house": "116",
      "postcode": "3465-013",
      "city": "BARREIRO DE BESTEIROS",
      "lon": "-8.152793611642227",
      "lat": "40.48696319995458"
    },
    {
      "id": "pt.ine.add.PTCONT.5577504",
      "street": "R PRINCIPAL",
      "house": "119",
      "postcode": "3465-013",
      "city": "BARREIRO DE BESTEIROS",
      "lon": "-8.152793293291138",
      "lat": "40.48587354180994"
    },
    {
      "id": "pt.ine.add.PTCONT.5587445",
      "street": "R PRINCIPAL",
      "house": "253",
      "postcode": "3465-013",
      "city": "BARREIRO DE BESTEIROS",
      "lon": "-8.152569146473367",
      "lat": "40.4856934709555"
    },
    {
      "id": "pt.ine.add.PTCONT.5590550",
      "street": "R PRINCIPAL",
      "house": "124",
      "postcode": "3465-013",
      "city": "BARREIRO DE BESTEIROS",
      "lon": "-8.152769678087305",
      "lat": "40.48578349142375"
    },
    {
      "id": "pt.ine.add.PTCONT.5597958",
      "street": "R PRINCIPAL",
      "house": "381",
      "postcode": "3465-013",
      "city": "BARREIRO DE BESTEIROS",
      "lon": "-8.151012527969653",
      "lat": "40.486621282901"
    },
    {
      "id": "pt.ine.add.PTCONT.5629694",
      "street": "R EMIGRANTES",
      "house": "149",
      "postcode": "3465-013",
      "city": "BARREIRO DE BESTEIROS",
      "lon": "-8.152946820170856",
      "lat": "40.48654892355845"
    },
    {
      "id": "pt.ine.add.PTCONT.5629695",
      "street": "R EMIGRANTES",
      "house": "141",
      "postcode": "3465-013",
      "city": "BARREIRO DE BESTEIROS",
      "lon": "-8.152946854640598",
      "lat": "40.48666599426424"
    },
    {
      "id": "pt.ine.add.PTCONT.5635991",
      "street": "R PRINCIPAL",
      "house": "311",
      "postcode": "3465-013",
      "city": "BARREIRO DE BESTEIROS",
      "lon": "-8.1512837331854",
      "lat": "40.486360082823154"
    },
    {
      "id": "pt.ine.add.PTCONT.5636395",
      "street": "R PRINCIPAL",
      "house": "376",
      "postcode": "3465-013",
      "city": "BARREIRO DE BESTEIROS",
      "lon": "-8.150469902386389",
      "lat": "40.486333191618606"
    }
  ]
}