{
  "data": {
    "ilha": "Ilha de Porto Santo (Madeira)",
    "concelho": "Porto Santo",
    "freguesia": "Porto Santo",
    "OBJECTID": 30,
    "BGRI2021": "32010100703",
    "DT21": "32",
    "DTMN21": "3201",
    "DTMNFR21": "320101",
    "DTMNFRSEC21": "320101007",
    "SECNUM21": "007",
    "SSNUM21": "03",
    "SECSSNUM21": "00703",
    "OBJECTID_1": 205708,
    "DT": "32",
    "CC": "01",
    "fr": "01",
    "SEC": "007",
    "SS": "03",
    "BGRI2021_1": "32010100703"
  },
  "addresses": [
    {
      "id": "pt.ine.add.MAD.45900",
      "street": "R BRUM DO CANTO",
      "house": "",
      "postcode": "9400-035",
      "city": "PORTO SANTO",
      "lon": "-16.357827236831287",
      "lat": "33.057546262834855"
    },
    {
      "id": "pt.ine.add.MAD.45901",
      "street": "R BISPO D FRANCISCO SANTANA",
      "house": "18",
      "postcode": "9400-126",
      "city": "PORTO SANTO",
      "lon": "-16.357426998362573",
      "lat": "33.057289061335844"
    },
    {
      "id": "pt.ine.add.MAD.45902",
      "street": "R BISPO D FRANCISCO SANTANA",
      "house": "",
      "postcode": "9400-126",
      "city": "PORTO SANTO",
      "lon": "-16.356453333099438",
      "lat": "33.057353771083875"
    },
    {
      "id": "pt.ine.add.MAD.45903",
      "street": "R BISPO D FRANCISCO SANTANA",
      "house": "",
      "postcode": "9400-126",
      "city": "PORTO SANTO",
      "lon": "-16.35630285741566",
      "lat": "33.05731933063332"
    },
    {
      "id": "pt.ine.add.MAD.45904",
      "street": "R BISPO D FRANCISCO SANTANA",
      "house": "10A",
      "postcode": "9400-126",
      "city": "PORTO SANTO",
      "lon": "-16.35628695297878",
      "lat": "33.056282288172255"
    },
    {
      "id": "pt.ine.add.MAD.45905",
      "street": "ESTR LAPEIRA DENTRO",
      "house": "",
      "postcode": "9400-055",
      "city": "PORTO SANTO",
      "lon": "-16.355937439834854",
      "lat": "33.05653862818089"
    },
    {
      "id": "pt.ine.add.MAD.46675",
      "street": "R BISPO D FRANCISCO SANTANA",
      "house": "7",
      "postcode": "9400-126",
      "city": "PORTO SANTO",
      "lon": "-16.355876845593944",
      "lat": "33.05607930441804"
    },
    {
      "id": "pt.ine.add.MAD.46676",
      "street": "R BISPO D FRANCISCO SANTANA",
      "house": "",
      "postcode": "9400-126",
      "city": "PORTO SANTO",
      "lon": "-16.356174058874885",
      "lat": "33.05590470671672"
    },
    {
      "id": "pt.ine.add.MAD.46677",
      "street": "R BISPO D FRANCISCO SANTANA",
      "house": "",
      "postcode": "9400-126",
      "city": "PORTO SANTO",
      "lon": "-16.356312578840758",
      "lat": "33.0558581039989"
    },
    {
      "id": "pt.ine.add.MAD.46678",
      "street": "R BISPO D FRANCISCO SANTANA",
      "house": "3B",
      "postcode": "9400-126",
      "city": "PORTO SANTO",
      "lon": "-16.356332474695392",
      "lat": "33.05575867569639"
    },
    {
      "id": "pt.ine.add.MAD.46679",
      "street": "R PEDRO REINOLD S",
      "house": "16",
      "postcode": "9400-239",
      "city": "PORTO SANTO",
      "lon": "-16.355496516159487",
      "lat": "33.055722668088286"
    },
    {
      "id": "pt.ine.add.MAD.46680",
      "street": "R BISPO D FRANCISCO SANTANA",
      "house": "14",
      "postcode": "9400-126",
      "city": "PORTO SANTO",
      "lon": "-16.355570784938774",
      "lat": "33.05567676451286"
    },
    {
      "id": "pt.ine.add.MAD.46681",
      "street": "R JOÃO NASCIMENTO",
      "house": "20",
      "postcode": "9400-239",
      "city": "PORTO SANTO",
      "lon": "-16.354271535868726",
      "lat": "33.05476189507768"
    },
    {
      "id": "pt.ine.add.MAD.46682",
      "street": "R JOÃO NASCIMENTO",
      "house": "18",
      "postcode": "9400-239",
      "city": "PORTO SANTO",
      "lon": "-16.35436708330461",
      "lat": "33.054706741881006"
    },
    {
      "id": "pt.ine.add.MAD.46683",
      "street": "R JOÃO NASCIMENTO",
      "house": "",
      "postcode": "9400-239",
      "city": "PORTO SANTO",
      "lon": "-16.354890138870765",
      "lat": "33.05459282935524"
    },
    {
      "id": "pt.ine.add.MAD.46684",
      "street": "R JOÃO NASCIMENTO",
      "house": "8",
      "postcode": "9400-239",
      "city": "PORTO SANTO",
      "lon": "-16.35503964226834",
      "lat": "33.05456414728023"
    },
    {
      "id": "pt.ine.add.MAD.51848",
      "street": "BC VENDA",
      "house": "8",
      "postcode": "9400-131",
      "city": "PORTO SANTO",
      "lon": "-16.35719116328038",
      "lat": "33.05867157511408"
    },
    {
      "id": "pt.ine.add.MAD.51849",
      "street": "ESTR DR FRANCISCO RODRIGUES JARDIM",
      "house": "",
      "postcode": "9400-132",
      "city": "PORTO SANTO",
      "lon": "-16.356846126118157",
      "lat": "33.0585220022168"
    },
    {
      "id": "pt.ine.add.MAD.51850",
      "street": "ESTR DR FRANCISCO RODRIGUES JARDIM",
      "house": "",
      "postcode": "9400-132",
      "city": "PORTO SANTO",
      "lon": "-16.35675464412098",
      "lat": "33.05814418852596"
    },
    {
      "id": "pt.ine.add.MAD.51851",
      "street": "ESTR DR FRANCISCO RODRIGUES JARDIM",
      "house": "",
      "postcode": "9400-132",
      "city": "PORTO SANTO",
      "lon": "-16.356741306596216",
      "lat": "33.05797296764719"
    },
    {
      "id": "pt.ine.add.MAD.51852",
      "street": "R S JOÃO",
      "house": "",
      "postcode": "9400-225",
      "city": "PORTO SANTO",
      "lon": "-16.355346671561144",
      "lat": "33.05782578563453"
    },
    {
      "id": "pt.ine.add.MAD.51853",
      "street": "R S JOÃO",
      "house": "",
      "postcode": "9400-225",
      "city": "PORTO SANTO",
      "lon": "-16.35558661549962",
      "lat": "33.05740829151995"
    },
    {
      "id": "pt.ine.add.MAD.51854",
      "street": "R S JOÃO",
      "house": "",
      "postcode": "9400-225",
      "city": "PORTO SANTO",
      "lon": "-16.35600494837924",
      "lat": "33.05744883991593"
    },
    {
      "id": "pt.ine.add.MAD.51855",
      "street": "R S JOÃO",
      "house": "",
      "postcode": "9400-225",
      "city": "PORTO SANTO",
      "lon": "-16.355907601684677",
      "lat": "33.05738676350058"
    },
    {
      "id": "pt.ine.add.MAD.52610",
      "street": "R PEDRO REINOLD S",
      "house": "2",
      "postcode": "9400-239",
      "city": "PORTO SANTO",
      "lon": "-16.35628092811184",
      "lat": "33.05519102249924"
    },
    {
      "id": "pt.ine.add.MAD.52611",
      "street": "R PEDRO REINOLD S",
      "house": "4",
      "postcode": "9400-239",
      "city": "PORTO SANTO",
      "lon": "-16.356196228185407",
      "lat": "33.05525507845621"
    },
    {
      "id": "pt.ine.add.MAD.52612",
      "street": "R BISPO D FRANCISCO SANTANA",
      "house": "8",
      "postcode": "9400-126",
      "city": "PORTO SANTO",
      "lon": "-16.355846165733954",
      "lat": "33.05547534709731"
    },
    {
      "id": "pt.ine.add.MAD.52613",
      "street": "R PEDRO REINOLD S",
      "house": "12",
      "postcode": "9400-239",
      "city": "PORTO SANTO",
      "lon": "-16.35576132697857",
      "lat": "33.05553038500691"
    },
    {
      "id": "pt.ine.add.MAD.52652",
      "street": "R PADRE CARLOS DE FREITAS",
      "house": "10",
      "postcode": "9400-055",
      "city": "PORTO SANTO",
      "lon": "-16.3528075506154",
      "lat": "33.05357822034778"
    },
    {
      "id": "pt.ine.add.MAD.52653",
      "street": "R PADRE CARLOS DE FREITAS",
      "house": "12",
      "postcode": "9400-055",
      "city": "PORTO SANTO",
      "lon": "-16.352957053075652",
      "lat": "33.053549540792005"
    },
    {
      "id": "pt.ine.add.MAD.52654",
      "street": "R PADRE CARLOS DE FREITAS",
      "house": "20",
      "postcode": "9400-055",
      "city": "PORTO SANTO",
      "lon": "-16.353795279295227",
      "lat": "33.0530353654867"
    },
    {
      "id": "pt.ine.add.MAD.52655",
      "street": "R PADRE CARLOS DE FREITAS",
      "house": "",
      "postcode": "9400-055",
      "city": "PORTO SANTO",
      "lon": "-16.35402084248828",
      "lat": "33.053078013212"
    },
    {
      "id": "pt.ine.add.MAD.52656",
      "street": "R PADRE CARLOS DE FREITAS",
      "house": "",
      "postcode": "9400-055",
      "city": "PORTO SANTO",
      "lon": "-16.354138771192307",
      "lat": "33.05308575212606"
    },
    {
      "id": "pt.ine.add.MAD.52657",
      "street": "R PADRE CARLOS FREITAS",
      "house": "7D",
      "postcode": "9400-055",
      "city": "PORTO SANTO",
      "lon": "-16.354622299294633",
      "lat": "33.05318873253188"
    },
    {
      "id": "pt.ine.add.MAD.52658",
      "street": "R PADRE CARLOS FREITAS",
      "house": "8 RC",
      "postcode": "9400-055",
      "city": "PORTO SANTO",
      "lon": "-16.354622299294633",
      "lat": "33.05318873253188"
    },
    {
      "id": "pt.ine.add.MAD.52659",
      "street": "R PADRE CARLOS DE FREITAS",
      "house": "",
      "postcode": "9400-055",
      "city": "PORTO SANTO",
      "lon": "-16.354622299294633",
      "lat": "33.05318873253188"
    },
    {
      "id": "pt.ine.add.MAD.52660",
      "street": "R PADRE CARLOS FREITAS",
      "house": "19",
      "postcode": "9400-055",
      "city": "PORTO SANTO",
      "lon": "-16.354622299294633",
      "lat": "33.05318873253188"
    },
    {
      "id": "pt.ine.add.MAD.52661",
      "street": "ESTR PADRE CARLOS FREITAS",
      "house": "",
      "postcode": "9400-055",
      "city": "PORTO SANTO",
      "lon": "-16.354622299294633",
      "lat": "33.05318873253188"
    },
    {
      "id": "pt.ine.add.MAD.52662",
      "street": "APARTAMENTOS CAMARARIOS",
      "house": "APT 59",
      "postcode": "9400-055",
      "city": "PORTO SANTO",
      "lon": "-16.355032252149694",
      "lat": "33.05338270315337"
    },
    {
      "id": "pt.ine.add.MAD.52663",
      "street": "ESTR PADRE CARLOS FREITAS F",
      "house": "F1",
      "postcode": "9400-055",
      "city": "PORTO SANTO",
      "lon": "-16.355032252149694",
      "lat": "33.05338270315337"
    },
    {
      "id": "pt.ine.add.MAD.52664",
      "street": "ESTR PADRE CARLOS FREITAS",
      "house": "",
      "postcode": "9400-055",
      "city": "PORTO SANTO",
      "lon": "-16.355032252149694",
      "lat": "33.05338270315337"
    },
    {
      "id": "pt.ine.add.MAD.52665",
      "street": "R PADRE CARLOS FREITAS",
      "house": "12",
      "postcode": "9400-055",
      "city": "PORTO SANTO",
      "lon": "-16.355032252149694",
      "lat": "33.05338270315337"
    },
    {
      "id": "pt.ine.add.MAD.52666",
      "street": "APARTAMENTOS CAMARARIOS",
      "house": "21",
      "postcode": "9400-055",
      "city": "PORTO SANTO",
      "lon": "-16.355032252149694",
      "lat": "33.05338270315337"
    },
    {
      "id": "pt.ine.add.MAD.52667",
      "street": "ESTR PADRE CARLOS FREITAS",
      "house": "18",
      "postcode": "9400-055",
      "city": "PORTO SANTO",
      "lon": "-16.355032252149694",
      "lat": "33.05338270315337"
    },
    {
      "id": "pt.ine.add.MAD.52668",
      "street": "ESTR PADRE CARLOS FREITAS",
      "house": "",
      "postcode": "9400-055",
      "city": "PORTO SANTO",
      "lon": "-16.354712247011477",
      "lat": "33.05346735296306"
    },
    {
      "id": "pt.ine.add.MAD.52669",
      "street": "ESTR PADRE CARLOS FREITAS",
      "house": "",
      "postcode": "9400-055",
      "city": "PORTO SANTO",
      "lon": "-16.354712247011477",
      "lat": "33.05346735296306"
    },
    {
      "id": "pt.ine.add.MAD.52670",
      "street": "R PADRE CARLOS DE FREITAS",
      "house": "",
      "postcode": "9400-055",
      "city": "PORTO SANTO",
      "lon": "-16.354712247011477",
      "lat": "33.05346735296306"
    },
    {
      "id": "pt.ine.add.MAD.52671",
      "street": "ESTR PADRE CARLOS FREITAS",
      "house": "",
      "postcode": "9400-055",
      "city": "PORTO SANTO",
      "lon": "-16.354507270495603",
      "lat": "33.053370367298584"
    },
    {
      "id": "pt.ine.add.MAD.52672",
      "street": "ESTR PADRE CARLOS FREITAS",
      "house": "",
      "postcode": "9400-055",
      "city": "PORTO SANTO",
      "lon": "-16.354507270495603",
      "lat": "33.053370367298584"
    },
    {
      "id": "pt.ine.add.MAD.52673",
      "street": "ESTR PADRE CARLOS FREITAS",
      "house": "",
      "postcode": "9400-055",
      "city": "PORTO SANTO",
      "lon": "-16.354507270495603",
      "lat": "33.053370367298584"
    },
    {
      "id": "pt.ine.add.MAD.52674",
      "street": "R PADRE CARLOS DE FREITAS",
      "house": "",
      "postcode": "9400-055",
      "city": "PORTO SANTO",
      "lon": "-16.354507270495603",
      "lat": "33.053370367298584"
    },
    {
      "id": "pt.ine.add.MAD.53370",
      "street": "R PADRE CARLOS FREITAS",
      "house": "13",
      "postcode": "9400-055",
      "city": "PORTO SANTO",
      "lon": "-16.354507270495603",
      "lat": "33.053370367298584"
    },
    {
      "id": "pt.ine.add.MAD.53371",
      "street": "ESTR MOINHOS",
      "house": "N 5",
      "postcode": "9400-055",
      "city": "PORTO SANTO",
      "lon": "-16.355655063207063",
      "lat": "33.054187669184756"
    },
    {
      "id": "pt.ine.add.MAD.53372",
      "street": "ESTR MOINHOS",
      "house": "7",
      "postcode": "9400-055",
      "city": "PORTO SANTO",
      "lon": "-16.355460930572125",
      "lat": "33.054099586537035"
    },
    {
      "id": "pt.ine.add.MAD.53373",
      "street": "ESTR MOINHOS",
      "house": "9",
      "postcode": "9400-055",
      "city": "PORTO SANTO",
      "lon": "-16.355277644845344",
      "lat": "33.05402040497902"
    },
    {
      "id": "pt.ine.add.MAD.53374",
      "street": "ESTR PADRE CARLOS DE FREITAS",
      "house": "13",
      "postcode": "9400-136",
      "city": "PORTO SANTO",
      "lon": "-16.356370311020783",
      "lat": "33.05403558418513"
    },
    {
      "id": "pt.ine.add.MAD.53375",
      "street": "ESTR PADRE CARLOS DE FREITAS",
      "house": "32",
      "postcode": "9400-136",
      "city": "PORTO SANTO",
      "lon": "-16.35576635839177",
      "lat": "33.053762553714265"
    },
    {
      "id": "pt.ine.add.MAD.55524",
      "street": "R BISPO D FRANCISCO SANTANA",
      "house": "2B",
      "postcode": "9400-126",
      "city": "PORTO SANTO",
      "lon": "-16.356064284351692",
      "lat": "33.056429017810046"
    },
    {
      "id": "pt.ine.add.MAD.55525",
      "street": "R BISPO D FRANCISCO SANTANA",
      "house": "2B",
      "postcode": "9400-126",
      "city": "PORTO SANTO",
      "lon": "-16.356064284351692",
      "lat": "33.056429017810046"
    },
    {
      "id": "pt.ine.add.MAD.55526",
      "street": "R BISPO D FRANCISCO SANTANA",
      "house": "2B",
      "postcode": "9400-126",
      "city": "PORTO SANTO",
      "lon": "-16.356064284351692",
      "lat": "33.056429017810046"
    },
    {
      "id": "pt.ine.add.MAD.55723",
      "street": "ESTR DR FRANCISCO RODRIGUES JARDIM",
      "house": "",
      "postcode": "9400-132",
      "city": "PORTO SANTO",
      "lon": "-16.35584300973512",
      "lat": "33.058063910557514"
    },
    {
      "id": "pt.ine.add.MAD.55733",
      "street": "ESTR PADRE CARLOS DE FREITAS",
      "house": "36",
      "postcode": "9400-136",
      "city": "PORTO SANTO",
      "lon": "-16.356176039780983",
      "lat": "33.05393848489356"
    },
    {
      "id": "pt.ine.add.MAD.58859",
      "street": "R BISPO D FRANCISCO SANTANA",
      "house": "",
      "postcode": "9400-126",
      "city": "PORTO SANTO",
      "lon": "-16.355988079494576",
      "lat": "33.056348673012366"
    },
    {
      "id": "pt.ine.add.MAD.58870",
      "street": "ESTR DR FRANCISCO RODRIGUES JARDIM",
      "house": "",
      "postcode": "9400-132",
      "city": "PORTO SANTO",
      "lon": "-16.356882596753575",
      "lat": "33.05810671936994"
    },
    {
      "id": "pt.ine.add.MAD.58997",
      "street": "R PADRE CARLOS DE FREITAS",
      "house": "",
      "postcode": "9400-055",
      "city": "PORTO SANTO",
      "lon": "-16.352452935447122",
      "lat": "33.053500892858196"
    },
    {
      "id": "pt.ine.add.MAD.62226",
      "street": "R JOÃO NASCIMENTO",
      "house": "39",
      "postcode": "9400-239",
      "city": "PORTO SANTO",
      "lon": "-16.354516587085882",
      "lat": "33.0546780604243"
    },
    {
      "id": "pt.ine.add.MAD.62417",
      "street": "R JOÃO NASCIMENTO",
      "house": "14",
      "postcode": "9400-239",
      "city": "PORTO SANTO",
      "lon": "-16.35462339516902",
      "lat": "33.054658861814055"
    },
    {
      "id": "pt.ine.add.MAD.62425",
      "street": "BC VENDA",
      "house": "4A",
      "postcode": "9400-132",
      "city": "PORTO SANTO",
      "lon": "-16.35737907886467",
      "lat": "33.05835385577516"
    },
    {
      "id": "pt.ine.add.MAD.64819",
      "street": "R BRUM DO CANTO",
      "house": "51B",
      "postcode": "9400-035",
      "city": "PORTO SANTO",
      "lon": "-16.35782599069733",
      "lat": "33.05746510305083"
    },
    {
      "id": "pt.ine.add.MAD.64821",
      "street": "R PEDRO REINOLD S",
      "house": "9",
      "postcode": "9400-239",
      "city": "PORTO SANTO",
      "lon": "-16.35589342389081",
      "lat": "33.055763449853714"
    },
    {
      "id": "pt.ine.add.MAD.64825",
      "street": "URB COLOMBO",
      "house": "",
      "postcode": "9400-225",
      "city": "PORTO SANTO",
      "lon": "-16.352488051505212",
      "lat": "33.05509692351484"
    },
    {
      "id": "pt.ine.add.MAD.65006",
      "street": "R PADRE CARLOS DE FREITAS",
      "house": "16",
      "postcode": "9400-055",
      "city": "PORTO SANTO",
      "lon": "-16.35349972649945",
      "lat": "33.053318170781814"
    },
    {
      "id": "pt.ine.add.MAD.65007",
      "street": "R PADRE CARLOS DE FREITAS",
      "house": "18B",
      "postcode": "9400-055",
      "city": "PORTO SANTO",
      "lon": "-16.35388563836104",
      "lat": "33.05334103991591"
    },
    {
      "id": "pt.ine.add.MAD.65008",
      "street": "ESTR PADRE CARLOS FREITAS",
      "house": "5",
      "postcode": "9400-055",
      "city": "PORTO SANTO",
      "lon": "-16.35490637753214",
      "lat": "33.05355543684007"
    },
    {
      "id": "pt.ine.add.MAD.65009",
      "street": "ESTR PADRE CARLOS FREITAS",
      "house": "APT 6",
      "postcode": "9400-055",
      "city": "PORTO SANTO",
      "lon": "-16.35490637753214",
      "lat": "33.05355543684007"
    },
    {
      "id": "pt.ine.add.MAD.65010",
      "street": "ESTR PADRE CARLOS FREITAS",
      "house": "APT 15",
      "postcode": "9400-055",
      "city": "PORTO SANTO",
      "lon": "-16.35490637753214",
      "lat": "33.05355543684007"
    },
    {
      "id": "pt.ine.add.MAD.65011",
      "street": "ESTR PADRE CARLOS FREITAS",
      "house": "",
      "postcode": "9400-055",
      "city": "PORTO SANTO",
      "lon": "-16.35490637753214",
      "lat": "33.05355543684007"
    },
    {
      "id": "pt.ine.add.MAD.67315",
      "street": "R PEDRO REINOLD S",
      "house": "11",
      "postcode": "9400-239",
      "city": "PORTO SANTO",
      "lon": "-16.355808584896106",
      "lat": "33.05581848779933"
    },
    {
      "id": "pt.ine.add.MAD.67316",
      "street": "R PEDRO REINOLD S",
      "house": "18",
      "postcode": "9400-239",
      "city": "PORTO SANTO",
      "lon": "-16.355681464436607",
      "lat": "33.05591006237789"
    },
    {
      "id": "pt.ine.add.MAD.67496",
      "street": "R PEDRO REINOLD S",
      "house": "8",
      "postcode": "9400-239",
      "city": "PORTO SANTO",
      "lon": "-16.35598399391929",
      "lat": "33.05538365593497"
    },
    {
      "id": "pt.ine.add.MAD.67502",
      "street": "ESTR PADRE CARLOS FREITAS",
      "house": "10",
      "postcode": "9400-055",
      "city": "PORTO SANTO",
      "lon": "-16.354816843499815",
      "lat": "33.053303869884225"
    },
    {
      "id": "pt.ine.add.MAD.67503",
      "street": "R PADRE CARLOS DE FREITAS",
      "house": "",
      "postcode": "9400-055",
      "city": "PORTO SANTO",
      "lon": "-16.354816843499815",
      "lat": "33.053303869884225"
    },
    {
      "id": "pt.ine.add.MAD.67504",
      "street": "ESTR PADRE CARLOS FREITAS",
      "house": "",
      "postcode": "9400-055",
      "city": "PORTO SANTO",
      "lon": "-16.354816843499815",
      "lat": "33.053303869884225"
    },
    {
      "id": "pt.ine.add.MAD.67673",
      "street": "R PADRE CARLOS DE FREITAS",
      "house": "",
      "postcode": "9400-055",
      "city": "PORTO SANTO",
      "lon": "-16.354816843499815",
      "lat": "33.053303869884225"
    },
    {
      "id": "pt.ine.add.MAD.70514",
      "street": "R BISPO D FRANCISCO SANTANA",
      "house": "",
      "postcode": "9400-126",
      "city": "PORTO SANTO",
      "lon": "-16.356344585934323",
      "lat": "33.05724672269279"
    },
    {
      "id": "pt.ine.add.MAD.70517",
      "street": "R BISPO D FRANCISCO SANTANA",
      "house": "",
      "postcode": "9400-126",
      "city": "PORTO SANTO",
      "lon": "-16.356057232458895",
      "lat": "33.05596911193389"
    },
    {
      "id": "pt.ine.add.MAD.70518",
      "street": "R PEDRO REINOLD S",
      "house": "19",
      "postcode": "9400-239",
      "city": "PORTO SANTO",
      "lon": "-16.355596625167372",
      "lat": "33.0559651001851"
    },
    {
      "id": "pt.ine.add.MAD.70735",
      "street": "ESTR MOINHOS",
      "house": "6",
      "postcode": "9400-055",
      "city": "PORTO SANTO",
      "lon": "-16.35585575737242",
      "lat": "33.054005102122495"
    },
    {
      "id": "pt.ine.add.MAD.70736",
      "street": "ESTR MOINHOS",
      "house": "",
      "postcode": "9400-055",
      "city": "PORTO SANTO",
      "lon": "-16.35604989016745",
      "lat": "33.05409318415201"
    },
    {
      "id": "pt.ine.add.MAD.72179",
      "street": "R JOÃO NASCIMENTO",
      "house": "12",
      "postcode": "9400-239",
      "city": "PORTO SANTO",
      "lon": "-16.354783469066923",
      "lat": "33.05462104595996"
    },
    {
      "id": "pt.ine.add.MAD.72417",
      "street": "ESTR MOINHOS",
      "house": "3",
      "postcode": "9400-055",
      "city": "PORTO SANTO",
      "lon": "-16.35587061297599",
      "lat": "33.05427551868598"
    },
    {
      "id": "pt.ine.add.MAD.72418",
      "street": "ESTR PADRE CARLOS DE FREITAS",
      "house": "34",
      "postcode": "9400-136",
      "city": "PORTO SANTO",
      "lon": "-16.35594978223589",
      "lat": "33.053850752325715"
    },
    {
      "id": "pt.ine.add.MAD.75280",
      "street": "R BISPO D FRANCISCO SANTANA",
      "house": "",
      "postcode": "9400-126",
      "city": "PORTO SANTO",
      "lon": "-16.355781297689738",
      "lat": "33.05613445877376"
    },
    {
      "id": "pt.ine.add.MAD.75442",
      "street": "ESTR DR FRANCISCO RODRIGUES JARDIM",
      "house": "",
      "postcode": "9400-132",
      "city": "PORTO SANTO",
      "lon": "-16.355692947777463",
      "lat": "33.05805652268217"
    },
    {
      "id": "pt.ine.add.MAD.78238",
      "street": "R PADRE CARLOS DE FREITAS",
      "house": "6",
      "postcode": "9400-055",
      "city": "PORTO SANTO",
      "lon": "-16.352605471843937",
      "lat": "33.053670604865346"
    },
    {
      "id": "pt.ine.add.MAD.81168",
      "street": "R BISPO D FRANCISCO SANTANA",
      "house": "2",
      "postcode": "9400-126",
      "city": "PORTO SANTO",
      "lon": "-16.35733075814949",
      "lat": "33.057299128098336"
    },
    {
      "id": "pt.ine.add.MAD.81254",
      "street": "R BISPO D FRANCISCO SANTANA",
      "house": "6",
      "postcode": "9400-126",
      "city": "PORTO SANTO",
      "lon": "-16.356107379975235",
      "lat": "33.055048601451254"
    },
    {
      "id": "pt.ine.add.MAD.81255",
      "street": "R BISPO D FRANCISCO SANTANA",
      "house": "",
      "postcode": "9400-126",
      "city": "PORTO SANTO",
      "lon": "-16.355662665424937",
      "lat": "33.05468364633302"
    },
    {
      "id": "pt.ine.add.MAD.83477",
      "street": "R BISPO D FRANCISCO SANTANA",
      "house": "6",
      "postcode": "9400-126",
      "city": "PORTO SANTO",
      "lon": "-16.355972255115088",
      "lat": "33.056015132228815"
    },
    {
      "id": "pt.ine.add.MAD.83478",
      "street": "R PEDRO REINOLD S",
      "house": "1",
      "postcode": "9400-239",
      "city": "PORTO SANTO",
      "lon": "-16.3563601747576",
      "lat": "33.055469757923255"
    },
    {
      "id": "pt.ine.add.MAD.83483",
      "street": "R JOÃO NASCIMENTO",
      "house": "32",
      "postcode": "9400-239",
      "city": "PORTO SANTO",
      "lon": "-16.355413193014897",
      "lat": "33.05447891466804"
    },
    {
      "id": "pt.ine.add.MAD.89655",
      "street": "R BRUM DO CANTO",
      "house": "",
      "postcode": "9400-035",
      "city": "PORTO SANTO",
      "lon": "-16.357850177444014",
      "lat": "33.05764522493109"
    },
    {
      "id": "pt.ine.add.MAD.89676",
      "street": "BC VENDA",
      "house": "",
      "postcode": "9400-132",
      "city": "PORTO SANTO",
      "lon": "-16.357483814220892",
      "lat": "33.05819938831601"
    },
    {
      "id": "pt.ine.add.MAD.89677",
      "street": "ESTR DR FRANCISCO RODRIGUES JARDIM",
      "house": "33",
      "postcode": "9400-132",
      "city": "PORTO SANTO",
      "lon": "-16.355397451347883",
      "lat": "33.05764484845509"
    },
    {
      "id": "pt.ine.add.MAD.89683",
      "street": "ESTR MOINHOS",
      "house": "1",
      "postcode": "9400-055",
      "city": "PORTO SANTO",
      "lon": "-16.356043191352892",
      "lat": "33.05435481577489"
    },
    {
      "id": "pt.ine.add.MAD.91613",
      "street": "R PEDRO REINOLD S",
      "house": "14",
      "postcode": "9400-239",
      "city": "PORTO SANTO",
      "lon": "-16.356084103831893",
      "lat": "33.05562608762864"
    },
    {
      "id": "pt.ine.add.MAD.91614",
      "street": "R PEDRO REINOLD S",
      "house": "7",
      "postcode": "9400-239",
      "city": "PORTO SANTO",
      "lon": "-16.356009973636287",
      "lat": "33.05568100926545"
    },
    {
      "id": "pt.ine.add.MAD.91621",
      "street": "R JOÃO NASCIMENTO",
      "house": "33",
      "postcode": "9400-239",
      "city": "PORTO SANTO",
      "lon": "-16.355306523530317",
      "lat": "33.054507131712874"
    },
    {
      "id": "pt.ine.add.MAD.91825",
      "street": "ESTR MOINHOS",
      "house": "7",
      "postcode": "9400-055",
      "city": "PORTO SANTO",
      "lon": "-16.356233453256415",
      "lat": "33.054190400081374"
    },
    {
      "id": "pt.ine.add.MAD.96043",
      "street": "BC VENDA",
      "house": "5",
      "postcode": "9400-132",
      "city": "PORTO SANTO",
      "lon": "-16.357292715900314",
      "lat": "33.05830969944975"
    },
    {
      "id": "pt.ine.add.MAD.96044",
      "street": "BC VENDA",
      "house": "3",
      "postcode": "9400-132",
      "city": "PORTO SANTO",
      "lon": "-16.357197166559086",
      "lat": "33.05836485491067"
    },
    {
      "id": "pt.ine.add.MAD.96047",
      "street": "R PADRE CARLOS DE FREITAS",
      "house": "",
      "postcode": "9400-055",
      "city": "PORTO SANTO",
      "lon": "-16.352570588828183",
      "lat": "33.0534905976852"
    },
    {
      "id": "pt.ine.add.MAD.96048",
      "street": "R PADRE CARLOS DE FREITAS",
      "house": "8",
      "postcode": "9400-055",
      "city": "PORTO SANTO",
      "lon": "-16.352733006225797",
      "lat": "33.05360608672705"
    },
    {
      "id": "pt.ine.add.MAD.97402",
      "street": "R PADRE CARLOS DE FREITAS",
      "house": "",
      "postcode": "9400-055",
      "city": "PORTO SANTO",
      "lon": "-16.354712247011477",
      "lat": "33.05346735296306"
    },
    {
      "id": "pt.ine.add.MAD.99106",
      "street": "ESTR DR FRANCISCO RODRIGUES JARDIM",
      "house": "",
      "postcode": "9400-132",
      "city": "PORTO SANTO",
      "lon": "-16.355786700474013",
      "lat": "33.057884137465685"
    },
    {
      "id": "pt.ine.add.MAD.100483",
      "street": "R JOÃO NASCIMENTO",
      "house": "",
      "postcode": "9400-239",
      "city": "PORTO SANTO",
      "lon": "-16.35516772873876",
      "lat": "33.05453569774599"
    },
    {
      "id": "pt.ine.add.MAD.100932",
      "street": "R BISPO D FRANCISCO SANTANA",
      "house": "203",
      "postcode": "9400-126",
      "city": "PORTO SANTO",
      "lon": "-16.356164948912202",
      "lat": "33.056707520408246"
    },
    {
      "id": "pt.ine.add.MAD.101530",
      "street": "ESTR PADRE CARLOS FREITAS",
      "house": "9",
      "postcode": "9400-055",
      "city": "PORTO SANTO",
      "lon": "-16.354816843499815",
      "lat": "33.053303869884225"
    },
    {
      "id": "pt.ine.add.MAD.102178",
      "street": "R BISPO D FRANCISCO SANTANA",
      "house": "10",
      "postcode": "9400-126",
      "city": "PORTO SANTO",
      "lon": "-16.356242182428595",
      "lat": "33.05615650534066"
    },
    {
      "id": "pt.ine.add.MAD.103420",
      "street": "R BISPO D FRANCISCO SANTANA",
      "house": "",
      "postcode": "9400-126",
      "city": "PORTO SANTO",
      "lon": "-16.356487257530222",
      "lat": "33.05747065251475"
    },
    {
      "id": "pt.ine.add.MAD.103545",
      "street": "ESTR DR FRANCISCO RODRIGUES JARDIM",
      "house": "",
      "postcode": "9400-132",
      "city": "PORTO SANTO",
      "lon": "-16.355733985888257",
      "lat": "33.05793882612751"
    },
    {
      "id": "pt.ine.add.MAD.103629",
      "street": "R PEDRO REINOLD S",
      "house": "13",
      "postcode": "9400-239",
      "city": "PORTO SANTO",
      "lon": "-16.356243763909497",
      "lat": "33.05556121658852"
    },
    {
      "id": "pt.ine.add.MAD.103737",
      "street": "R PADRE CARLOS FREITAS",
      "house": "8",
      "postcode": "9400-055",
      "city": "PORTO SANTO",
      "lon": "-16.354622299294633",
      "lat": "33.05318873253188"
    },
    {
      "id": "pt.ine.add.MAD.103738",
      "street": "SIT CAMPO BAIXO",
      "house": "14",
      "postcode": "9400-055",
      "city": "PORTO SANTO",
      "lon": "-16.354712247011477",
      "lat": "33.05346735296306"
    },
    {
      "id": "pt.ine.add.MAD.103943",
      "street": "ESTR MOINHOS",
      "house": "N 08",
      "postcode": "9400-055",
      "city": "PORTO SANTO",
      "lon": "-16.355661210297544",
      "lat": "33.05388996647829"
    },
    {
      "id": "pt.ine.add.MAD.105077",
      "street": "R PADRE CARLOS FREITAS",
      "house": "4",
      "postcode": "9400-055",
      "city": "PORTO SANTO",
      "lon": "-16.352355504171626",
      "lat": "33.054133298598984"
    },
    {
      "id": "pt.ine.add.MAD.106731",
      "street": "SIT DO CAMPO DE BAIXO",
      "house": "",
      "postcode": "9400-050",
      "city": "PORTO SANTO",
      "lon": "-16.352484922449687",
      "lat": "33.05349152670956"
    },
    {
      "id": "pt.ine.add.MAD.106737",
      "street": "SIT DO CAMPO DE BAIXO",
      "house": "",
      "postcode": "9400-050",
      "city": "PORTO SANTO",
      "lon": "-16.352484922449687",
      "lat": "33.05349152670956"
    },
    {
      "id": "pt.ine.add.MAD.106948",
      "street": "ESTR DR FRANCISCO RODRIGUES JARDIM",
      "house": "",
      "postcode": "9400-132",
      "city": "PORTO SANTO",
      "lon": "-16.35688121309412",
      "lat": "33.05801654180483"
    },
    {
      "id": "pt.ine.add.MAD.128168",
      "street": "R BISPO D FRANCISCO SANTANA",
      "house": "2B",
      "postcode": "9400-126",
      "city": "PORTO SANTO",
      "lon": "-16.356064284351692",
      "lat": "33.056429017810046"
    },
    {
      "id": "pt.ine.add.MAD.128254",
      "street": "APARTAMENTOS CAMARARIOS",
      "house": "2",
      "postcode": "9400-055",
      "city": "PORTO SANTO",
      "lon": "-16.35490637753214",
      "lat": "33.05355543684007"
    },
    {
      "id": "pt.ine.add.MAD.129038",
      "street": "R PEDRO REINOLD S",
      "house": "6",
      "postcode": "9400-239",
      "city": "PORTO SANTO",
      "lon": "-16.356079540897124",
      "lat": "33.05532850144163"
    },
    {
      "id": "pt.ine.add.MAD.129514",
      "street": "R PADRE CARLOS FREITAS",
      "house": "20",
      "postcode": "9400-055",
      "city": "PORTO SANTO",
      "lon": "-16.354816843499815",
      "lat": "33.053303869884225"
    },
    {
      "id": "pt.ine.add.MAD.129895",
      "street": "R S JOÃO",
      "house": "",
      "postcode": "9400-225",
      "city": "PORTO SANTO",
      "lon": "-16.355660470901206",
      "lat": "33.05733533458135"
    }
  ]
}