{
  "data": {
    "distrito": "Porto",
    "concelho": "Gondomar",
    "freguesia": "União das freguesias de Fânzeres e São Pedro da Cova",
    "OBJECTID": 1014,
    "BGRI2021": "13041301702",
    "DT21": "13",
    "DTMN21": "1304",
    "DTMNFR21": "130413",
    "DTMNFRSEC21": "130413017",
    "SECNUM21": "017",
    "SSNUM21": "02",
    "SECSSNUM21": "01702",
    "OBJECTID_1": 129524,
    "DT": "13",
    "CC": "04",
    "fr": "13",
    "SEC": "017",
    "SS": "02"
  },
  "addresses": [
    {
      "id": "pt.ine.add.PTCONT.3551802",
      "street": "ESTR D MIGUEL",
      "house": "3089",
      "postcode": "4510-547",
      "city": "FÂNZERES",
      "lon": "-8.518685395286614",
      "lat": "41.168242981323495"
    },
    {
      "id": "pt.ine.add.PTCONT.3553281",
      "street": "ESTR D MIGUEL",
      "house": "3005",
      "postcode": "4510-547",
      "city": "FÂNZERES",
      "lon": "-8.518740644800136",
      "lat": "41.16750444007084"
    },
    {
      "id": "pt.ine.add.PTCONT.3553282",
      "street": "ESTR D MIGUEL",
      "house": "3005",
      "postcode": "4510-547",
      "city": "FÂNZERES",
      "lon": "-8.518740644800136",
      "lat": "41.16750444007084"
    },
    {
      "id": "pt.ine.add.PTCONT.3553283",
      "street": "ESTR D MIGUEL",
      "house": "3005",
      "postcode": "4510-547",
      "city": "FÂNZERES",
      "lon": "-8.518740644800136",
      "lat": "41.16750444007084"
    },
    {
      "id": "pt.ine.add.PTCONT.3558469",
      "street": "ESTR D MIGUEL",
      "house": "3005",
      "postcode": "4510-547",
      "city": "FÂNZERES",
      "lon": "-8.518740644800136",
      "lat": "41.16750444007084"
    },
    {
      "id": "pt.ine.add.PTCONT.3591145",
      "street": "ESTR D MIGUEL",
      "house": "3007",
      "postcode": "4510-547",
      "city": "FÂNZERES",
      "lon": "-8.518717394320296",
      "lat": "41.16760356571155"
    },
    {
      "id": "pt.ine.add.PTCONT.3603925",
      "street": "R EÇA DE QUEIRÓS",
      "house": "160",
      "postcode": "4510-555",
      "city": "FÂNZERES",
      "lon": "-8.519911442910919",
      "lat": "41.16802276630295"
    },
    {
      "id": "pt.ine.add.PTCONT.3603926",
      "street": "R EÇA DE QUEIRÓS",
      "house": "160",
      "postcode": "4510-555",
      "city": "FÂNZERES",
      "lon": "-8.519911442910919",
      "lat": "41.16802276630295"
    },
    {
      "id": "pt.ine.add.PTCONT.3603927",
      "street": "R EÇA DE QUEIRÓS",
      "house": "160",
      "postcode": "4510-555",
      "city": "FÂNZERES",
      "lon": "-8.519911442910919",
      "lat": "41.16802276630295"
    },
    {
      "id": "pt.ine.add.PTCONT.3603928",
      "street": "R EÇA DE QUEIRÓS",
      "house": "160",
      "postcode": "4510-555",
      "city": "FÂNZERES",
      "lon": "-8.519911442910919",
      "lat": "41.16802276630295"
    },
    {
      "id": "pt.ine.add.PTCONT.3603929",
      "street": "R EÇA DE QUEIRÓS",
      "house": "160",
      "postcode": "4510-555",
      "city": "FÂNZERES",
      "lon": "-8.519911442910919",
      "lat": "41.16802276630295"
    },
    {
      "id": "pt.ine.add.PTCONT.3603930",
      "street": "R EÇA DE QUEIRÓS",
      "house": "160",
      "postcode": "4510-555",
      "city": "FÂNZERES",
      "lon": "-8.519911442910919",
      "lat": "41.16802276630295"
    },
    {
      "id": "pt.ine.add.PTCONT.3603931",
      "street": "R EÇA DE QUEIRÓS",
      "house": "160",
      "postcode": "4510-555",
      "city": "FÂNZERES",
      "lon": "-8.519911442910919",
      "lat": "41.16802276630295"
    },
    {
      "id": "pt.ine.add.PTCONT.3603932",
      "street": "R EÇA DE QUEIRÓS",
      "house": "160",
      "postcode": "4510-555",
      "city": "FÂNZERES",
      "lon": "-8.519911442910919",
      "lat": "41.16802276630295"
    },
    {
      "id": "pt.ine.add.PTCONT.3603933",
      "street": "R EÇA DE QUEIRÓS",
      "house": "160",
      "postcode": "4510-555",
      "city": "FÂNZERES",
      "lon": "-8.519911442910919",
      "lat": "41.16802276630295"
    },
    {
      "id": "pt.ine.add.PTCONT.3603934",
      "street": "R EÇA DE QUEIRÓS",
      "house": "160",
      "postcode": "4510-555",
      "city": "FÂNZERES",
      "lon": "-8.519911442910919",
      "lat": "41.16802276630295"
    },
    {
      "id": "pt.ine.add.PTCONT.3603935",
      "street": "R EÇA DE QUEIRÓS",
      "house": "160",
      "postcode": "4510-555",
      "city": "FÂNZERES",
      "lon": "-8.519911442910919",
      "lat": "41.16802276630295"
    },
    {
      "id": "pt.ine.add.PTCONT.3614770",
      "street": "R EMIGRANTE",
      "house": "102",
      "postcode": "4510-557",
      "city": "FÂNZERES",
      "lon": "-8.51892534697898",
      "lat": "41.16852131249818"
    },
    {
      "id": "pt.ine.add.PTCONT.3623899",
      "street": "R EMIGRANTE",
      "house": "94",
      "postcode": "4510-557",
      "city": "FÂNZERES",
      "lon": "-8.519389585851748",
      "lat": "41.16843871744517"
    },
    {
      "id": "pt.ine.add.PTCONT.3623900",
      "street": "ESTR D MIGUEL",
      "house": "3027",
      "postcode": "4510-547",
      "city": "FÂNZERES",
      "lon": "-8.51870595381249",
      "lat": "41.16768464311979"
    },
    {
      "id": "pt.ine.add.PTCONT.3623901",
      "street": "ESTR D MIGUEL",
      "house": "2967",
      "postcode": "4510-547",
      "city": "FÂNZERES",
      "lon": "-8.518917160225289",
      "lat": "41.16712566643693"
    },
    {
      "id": "pt.ine.add.PTCONT.3636962",
      "street": "R JORGE SENA",
      "house": "52",
      "postcode": "4510-583",
      "city": "FÂNZERES",
      "lon": "-8.51930635408678",
      "lat": "41.166440031822106"
    },
    {
      "id": "pt.ine.add.PTCONT.3636963",
      "street": "R JORGE SENA",
      "house": "52",
      "postcode": "4510-583",
      "city": "FÂNZERES",
      "lon": "-8.51930635408678",
      "lat": "41.166440031822106"
    },
    {
      "id": "pt.ine.add.PTCONT.3636964",
      "street": "R JORGE SENA",
      "house": "52",
      "postcode": "4510-583",
      "city": "FÂNZERES",
      "lon": "-8.51930635408678",
      "lat": "41.166440031822106"
    },
    {
      "id": "pt.ine.add.PTCONT.3636965",
      "street": "R JORGE SENA",
      "house": "52",
      "postcode": "4510-583",
      "city": "FÂNZERES",
      "lon": "-8.51930635408678",
      "lat": "41.166440031822106"
    },
    {
      "id": "pt.ine.add.PTCONT.3636967",
      "street": "R JORGE SENA",
      "house": "52",
      "postcode": "4510-583",
      "city": "FÂNZERES",
      "lon": "-8.51930635408678",
      "lat": "41.166440031822106"
    },
    {
      "id": "pt.ine.add.PTCONT.3636968",
      "street": "R JORGE SENA",
      "house": "52",
      "postcode": "4510-583",
      "city": "FÂNZERES",
      "lon": "-8.51930635408678",
      "lat": "41.166440031822106"
    },
    {
      "id": "pt.ine.add.PTCONT.3636969",
      "street": "R JORGE SENA",
      "house": "52",
      "postcode": "4510-583",
      "city": "FÂNZERES",
      "lon": "-8.51930635408678",
      "lat": "41.166440031822106"
    },
    {
      "id": "pt.ine.add.PTCONT.3636970",
      "street": "R JORGE SENA",
      "house": "52",
      "postcode": "4510-583",
      "city": "FÂNZERES",
      "lon": "-8.51930635408678",
      "lat": "41.166440031822106"
    },
    {
      "id": "pt.ine.add.PTCONT.3636971",
      "street": "R JORGE SENA",
      "house": "52",
      "postcode": "4510-583",
      "city": "FÂNZERES",
      "lon": "-8.51930635408678",
      "lat": "41.166440031822106"
    },
    {
      "id": "pt.ine.add.PTCONT.3636972",
      "street": "R JORGE SENA",
      "house": "52",
      "postcode": "4510-583",
      "city": "FÂNZERES",
      "lon": "-8.51930635408678",
      "lat": "41.166440031822106"
    },
    {
      "id": "pt.ine.add.PTCONT.3636973",
      "street": "R JORGE SENA",
      "house": "52",
      "postcode": "4510-583",
      "city": "FÂNZERES",
      "lon": "-8.51930635408678",
      "lat": "41.166440031822106"
    },
    {
      "id": "pt.ine.add.PTCONT.3636974",
      "street": "R JORGE SENA",
      "house": "52",
      "postcode": "4510-583",
      "city": "FÂNZERES",
      "lon": "-8.51930635408678",
      "lat": "41.166440031822106"
    },
    {
      "id": "pt.ine.add.PTCONT.3636980",
      "street": "R VITORINO NEMESIO",
      "house": "908",
      "postcode": "4510-685",
      "city": "FÂNZERES",
      "lon": "-8.520937358807723",
      "lat": "41.16821741210938"
    },
    {
      "id": "pt.ine.add.PTCONT.3684219",
      "street": "R VITORINO NEMESIO",
      "house": "890",
      "postcode": "4510-685",
      "city": "FÂNZERES",
      "lon": "-8.521124982285041",
      "lat": "41.16770353257556"
    },
    {
      "id": "pt.ine.add.PTCONT.3688141",
      "street": "ESTR D MIGUEL",
      "house": "3063",
      "postcode": "4510-547",
      "city": "FÂNZERES",
      "lon": "-8.51871903080474",
      "lat": "41.16788269493437"
    },
    {
      "id": "pt.ine.add.PTCONT.3701251",
      "street": "R EMIGRANTE",
      "house": "84",
      "postcode": "4510-557",
      "city": "FÂNZERES",
      "lon": "-8.519640504512427",
      "lat": "41.16855493215048"
    },
    {
      "id": "pt.ine.add.PTCONT.3708164",
      "street": "ESTR D MIGUEL",
      "house": "2867",
      "postcode": "4510-547",
      "city": "FÂNZERES",
      "lon": "-8.518887519954394",
      "lat": "41.166135287552535"
    },
    {
      "id": "pt.ine.add.PTCONT.3708165",
      "street": "ESTR D MIGUEL",
      "house": "2867",
      "postcode": "4510-547",
      "city": "FÂNZERES",
      "lon": "-8.518887519954394",
      "lat": "41.166135287552535"
    },
    {
      "id": "pt.ine.add.PTCONT.3708166",
      "street": "ESTR D MIGUEL",
      "house": "2867",
      "postcode": "4510-547",
      "city": "FÂNZERES",
      "lon": "-8.518887519954394",
      "lat": "41.166135287552535"
    },
    {
      "id": "pt.ine.add.PTCONT.3708167",
      "street": "ESTR D MIGUEL",
      "house": "22",
      "postcode": "4510-547",
      "city": "FÂNZERES",
      "lon": "-8.518887519954394",
      "lat": "41.166135287552535"
    },
    {
      "id": "pt.ine.add.PTCONT.3721185",
      "street": "R VITORINO NEMESIO",
      "house": "902",
      "postcode": "4510-685",
      "city": "FÂNZERES",
      "lon": "-8.52099598149958",
      "lat": "41.16805513651039"
    },
    {
      "id": "pt.ine.add.PTCONT.3727858",
      "street": "R EÇA DE QUEIRÓS",
      "house": "69",
      "postcode": "4510-555",
      "city": "FÂNZERES",
      "lon": "-8.520646713049613",
      "lat": "41.16742600802696"
    },
    {
      "id": "pt.ine.add.PTCONT.3727859",
      "street": "R EÇA DE QUEIRÓS",
      "house": "69",
      "postcode": "4510-555",
      "city": "FÂNZERES",
      "lon": "-8.520646713049613",
      "lat": "41.16742600802696"
    },
    {
      "id": "pt.ine.add.PTCONT.3727860",
      "street": "R EÇA DE QUEIRÓS",
      "house": "69",
      "postcode": "4510-555",
      "city": "FÂNZERES",
      "lon": "-8.520646713049613",
      "lat": "41.16742600802696"
    },
    {
      "id": "pt.ine.add.PTCONT.3727861",
      "street": "R EÇA DE QUEIRÓS",
      "house": "69",
      "postcode": "4510-555",
      "city": "FÂNZERES",
      "lon": "-8.520646713049613",
      "lat": "41.16742600802696"
    },
    {
      "id": "pt.ine.add.PTCONT.3727862",
      "street": "R EÇA DE QUEIRÓS",
      "house": "69",
      "postcode": "4510-555",
      "city": "FÂNZERES",
      "lon": "-8.520646713049613",
      "lat": "41.16742600802696"
    },
    {
      "id": "pt.ine.add.PTCONT.3727863",
      "street": "R EÇA DE QUEIRÓS",
      "house": "69",
      "postcode": "4510-555",
      "city": "FÂNZERES",
      "lon": "-8.520646713049613",
      "lat": "41.16742600802696"
    },
    {
      "id": "pt.ine.add.PTCONT.3727864",
      "street": "R EÇA DE QUEIRÓS",
      "house": "69",
      "postcode": "4510-555",
      "city": "FÂNZERES",
      "lon": "-8.520646713049613",
      "lat": "41.16742600802696"
    },
    {
      "id": "pt.ine.add.PTCONT.3727865",
      "street": "R EÇA DE QUEIRÓS",
      "house": "69",
      "postcode": "4510-555",
      "city": "FÂNZERES",
      "lon": "-8.520646713049613",
      "lat": "41.16742600802696"
    },
    {
      "id": "pt.ine.add.PTCONT.3727866",
      "street": "R EÇA DE QUEIRÓS",
      "house": "69",
      "postcode": "4510-555",
      "city": "FÂNZERES",
      "lon": "-8.520646713049613",
      "lat": "41.16742600802696"
    },
    {
      "id": "pt.ine.add.PTCONT.3727867",
      "street": "R EÇA DE QUEIRÓS",
      "house": "69",
      "postcode": "4510-555",
      "city": "FÂNZERES",
      "lon": "-8.520646713049613",
      "lat": "41.16742600802696"
    },
    {
      "id": "pt.ine.add.PTCONT.3727868",
      "street": "R EÇA DE QUEIRÓS",
      "house": "69",
      "postcode": "4510-555",
      "city": "FÂNZERES",
      "lon": "-8.520646713049613",
      "lat": "41.16742600802696"
    },
    {
      "id": "pt.ine.add.PTCONT.3727869",
      "street": "R EÇA DE QUEIRÓS",
      "house": "69",
      "postcode": "4510-555",
      "city": "FÂNZERES",
      "lon": "-8.520646713049613",
      "lat": "41.16742600802696"
    },
    {
      "id": "pt.ine.add.PTCONT.3741707",
      "street": "ESTR D MIGUEL",
      "house": "2979",
      "postcode": "4510-547",
      "city": "FÂNZERES",
      "lon": "-8.518822680975127",
      "lat": "41.16727005239533"
    },
    {
      "id": "pt.ine.add.PTCONT.3750082",
      "street": "R ALTO DE BARREIROS",
      "house": "880",
      "postcode": "4510-485",
      "city": "FÂNZERES",
      "lon": "-8.521349624999871",
      "lat": "41.16740563221336"
    },
    {
      "id": "pt.ine.add.PTCONT.3750083",
      "street": "R ALTO DE BARREIROS",
      "house": "880",
      "postcode": "4510-485",
      "city": "FÂNZERES",
      "lon": "-8.521349624999871",
      "lat": "41.16740563221336"
    },
    {
      "id": "pt.ine.add.PTCONT.3759892",
      "street": "R VITORINO NEMESIO",
      "house": "898",
      "postcode": "4510-685",
      "city": "FÂNZERES",
      "lon": "-8.521031038142189",
      "lat": "41.16793796197056"
    },
    {
      "id": "pt.ine.add.PTCONT.3775794",
      "street": "R JORGE SENA",
      "house": "78",
      "postcode": "4510-583",
      "city": "FÂNZERES",
      "lon": "-8.519295971831506",
      "lat": "41.16670119269397"
    },
    {
      "id": "pt.ine.add.PTCONT.3775935",
      "street": "R JORGE SENA",
      "house": "78",
      "postcode": "4510-583",
      "city": "FÂNZERES",
      "lon": "-8.519295971831506",
      "lat": "41.16670119269397"
    },
    {
      "id": "pt.ine.add.PTCONT.3775936",
      "street": "R JORGE SENA",
      "house": "78",
      "postcode": "4510-583",
      "city": "FÂNZERES",
      "lon": "-8.519295971831506",
      "lat": "41.16670119269397"
    },
    {
      "id": "pt.ine.add.PTCONT.3775937",
      "street": "R JORGE SENA",
      "house": "78",
      "postcode": "4510-583",
      "city": "FÂNZERES",
      "lon": "-8.519295971831506",
      "lat": "41.16670119269397"
    },
    {
      "id": "pt.ine.add.PTCONT.3775938",
      "street": "R JORGE SENA",
      "house": "78",
      "postcode": "4510-583",
      "city": "FÂNZERES",
      "lon": "-8.519295971831506",
      "lat": "41.16670119269397"
    },
    {
      "id": "pt.ine.add.PTCONT.3775939",
      "street": "R JORGE SENA",
      "house": "78",
      "postcode": "4510-583",
      "city": "FÂNZERES",
      "lon": "-8.519295971831506",
      "lat": "41.16670119269397"
    },
    {
      "id": "pt.ine.add.PTCONT.3775940",
      "street": "R JORGE SENA",
      "house": "78",
      "postcode": "4510-583",
      "city": "FÂNZERES",
      "lon": "-8.519295971831506",
      "lat": "41.16670119269397"
    },
    {
      "id": "pt.ine.add.PTCONT.3775941",
      "street": "R JORGE SENA",
      "house": "78",
      "postcode": "4510-583",
      "city": "FÂNZERES",
      "lon": "-8.519295971831506",
      "lat": "41.16670119269397"
    },
    {
      "id": "pt.ine.add.PTCONT.3775942",
      "street": "R JORGE SENA",
      "house": "78",
      "postcode": "4510-583",
      "city": "FÂNZERES",
      "lon": "-8.519295971831506",
      "lat": "41.16670119269397"
    },
    {
      "id": "pt.ine.add.PTCONT.3777960",
      "street": "ESTR D MIGUEL",
      "house": "2955",
      "postcode": "4510-547",
      "city": "FÂNZERES",
      "lon": "-8.518844875062037",
      "lat": "41.166990843341175"
    },
    {
      "id": "pt.ine.add.PTCONT.3777961",
      "street": "R JORGE SENA",
      "house": "78",
      "postcode": "4510-583",
      "city": "FÂNZERES",
      "lon": "-8.519295971831506",
      "lat": "41.16670119269397"
    },
    {
      "id": "pt.ine.add.PTCONT.3805139",
      "street": "ESTR D MIGUEL",
      "house": "3057",
      "postcode": "4510-547",
      "city": "FÂNZERES",
      "lon": "-8.518777975474494",
      "lat": "41.16777444544269"
    },
    {
      "id": "pt.ine.add.PTCONT.3805140",
      "street": "ESTR D MIGUEL",
      "house": "3057",
      "postcode": "4510-547",
      "city": "FÂNZERES",
      "lon": "-8.518777975474494",
      "lat": "41.16777444544269"
    },
    {
      "id": "pt.ine.add.PTCONT.3805224",
      "street": "R JORGE SENA",
      "house": "81",
      "postcode": "4510-583",
      "city": "FÂNZERES",
      "lon": "-8.519881363580591",
      "lat": "41.16696035454929"
    },
    {
      "id": "pt.ine.add.PTCONT.3810549",
      "street": "R CAMILO CASTELO BRANCO",
      "house": "81",
      "postcode": "4510-513",
      "city": "FÂNZERES",
      "lon": "-8.519881363580591",
      "lat": "41.16696035454929"
    },
    {
      "id": "pt.ine.add.PTCONT.3810550",
      "street": "R JORGE SENA",
      "house": "81",
      "postcode": "4510-583",
      "city": "FÂNZERES",
      "lon": "-8.519881363580591",
      "lat": "41.16696035454929"
    },
    {
      "id": "pt.ine.add.PTCONT.3810653",
      "street": "R EÇA DE QUEIRÓS",
      "house": "81",
      "postcode": "4510-555",
      "city": "FÂNZERES",
      "lon": "-8.519881363580591",
      "lat": "41.16696035454929"
    },
    {
      "id": "pt.ine.add.PTCONT.3810654",
      "street": "R EÇA DE QUEIRÓS",
      "house": "81",
      "postcode": "4510-555",
      "city": "FÂNZERES",
      "lon": "-8.519881363580591",
      "lat": "41.16696035454929"
    },
    {
      "id": "pt.ine.add.PTCONT.3810655",
      "street": "R EÇA DE QUEIRÓS",
      "house": "81",
      "postcode": "4510-555",
      "city": "FÂNZERES",
      "lon": "-8.519881363580591",
      "lat": "41.16696035454929"
    },
    {
      "id": "pt.ine.add.PTCONT.3810656",
      "street": "R EÇA DE QUEIRÓS",
      "house": "81",
      "postcode": "4510-555",
      "city": "FÂNZERES",
      "lon": "-8.519881363580591",
      "lat": "41.16696035454929"
    },
    {
      "id": "pt.ine.add.PTCONT.3810657",
      "street": "R EÇA DE QUEIRÓS",
      "house": "81",
      "postcode": "4510-555",
      "city": "FÂNZERES",
      "lon": "-8.519881363580591",
      "lat": "41.16696035454929"
    },
    {
      "id": "pt.ine.add.PTCONT.3810658",
      "street": "R EÇA DE QUEIRÓS",
      "house": "81",
      "postcode": "4510-555",
      "city": "FÂNZERES",
      "lon": "-8.519881363580591",
      "lat": "41.16696035454929"
    },
    {
      "id": "pt.ine.add.PTCONT.3810659",
      "street": "R EÇA DE QUEIRÓS",
      "house": "81",
      "postcode": "4510-555",
      "city": "FÂNZERES",
      "lon": "-8.519881363580591",
      "lat": "41.16696035454929"
    },
    {
      "id": "pt.ine.add.PTCONT.3810660",
      "street": "R EÇA DE QUEIRÓS",
      "house": "81",
      "postcode": "4510-555",
      "city": "FÂNZERES",
      "lon": "-8.519881363580591",
      "lat": "41.16696035454929"
    },
    {
      "id": "pt.ine.add.PTCONT.3810662",
      "street": "R EÇA DE QUEIRÓS",
      "house": "81",
      "postcode": "4510-555",
      "city": "FÂNZERES",
      "lon": "-8.519881363580591",
      "lat": "41.16696035454929"
    },
    {
      "id": "pt.ine.add.PTCONT.3814459",
      "street": "ESTR D MIGUEL",
      "house": "3073",
      "postcode": "4510-547",
      "city": "FÂNZERES",
      "lon": "-8.51870774861948",
      "lat": "41.167990784843404"
    },
    {
      "id": "pt.ine.add.PTCONT.3848774",
      "street": "R EMIGRANTE",
      "house": "54",
      "postcode": "4510-557",
      "city": "FÂNZERES",
      "lon": "-8.520092773967871",
      "lat": "41.16846337008714"
    },
    {
      "id": "pt.ine.add.PTCONT.3874554",
      "street": "ESTR D MIGUEL",
      "house": "2975",
      "postcode": "4510-547",
      "city": "FÂNZERES",
      "lon": "-8.518762733716958",
      "lat": "41.16720722270348"
    },
    {
      "id": "pt.ine.add.PTCONT.3882506",
      "street": "R EMIGRANTE",
      "house": "80",
      "postcode": "4510-557",
      "city": "FÂNZERES",
      "lon": "-8.519866851193195",
      "lat": "41.16854516800441"
    },
    {
      "id": "pt.ine.add.PTCONT.3894719",
      "street": "R EÇA DE QUEIRÓS",
      "house": "140",
      "postcode": "4510-555",
      "city": "FÂNZERES",
      "lon": "-8.51991070156159",
      "lat": "41.16789670796674"
    },
    {
      "id": "pt.ine.add.PTCONT.3894720",
      "street": "R EÇA DE QUEIRÓS",
      "house": "140",
      "postcode": "4510-555",
      "city": "FÂNZERES",
      "lon": "-8.51991070156159",
      "lat": "41.16789670796674"
    },
    {
      "id": "pt.ine.add.PTCONT.3894721",
      "street": "R EÇA DE QUEIRÓS",
      "house": "140",
      "postcode": "4510-555",
      "city": "FÂNZERES",
      "lon": "-8.51991070156159",
      "lat": "41.16789670796674"
    },
    {
      "id": "pt.ine.add.PTCONT.3894722",
      "street": "R EÇA DE QUEIRÓS",
      "house": "140",
      "postcode": "4510-555",
      "city": "FÂNZERES",
      "lon": "-8.51991070156159",
      "lat": "41.16789670796674"
    },
    {
      "id": "pt.ine.add.PTCONT.3894723",
      "street": "R EÇA DE QUEIRÓS",
      "house": "140",
      "postcode": "4510-555",
      "city": "FÂNZERES",
      "lon": "-8.51991070156159",
      "lat": "41.16789670796674"
    },
    {
      "id": "pt.ine.add.PTCONT.3894724",
      "street": "R EÇA DE QUEIRÓS",
      "house": "140",
      "postcode": "4510-555",
      "city": "FÂNZERES",
      "lon": "-8.51991070156159",
      "lat": "41.16789670796674"
    },
    {
      "id": "pt.ine.add.PTCONT.3894725",
      "street": "R EÇA DE QUEIRÓS",
      "house": "140",
      "postcode": "4510-555",
      "city": "FÂNZERES",
      "lon": "-8.51991070156159",
      "lat": "41.16789670796674"
    },
    {
      "id": "pt.ine.add.PTCONT.3894726",
      "street": "R EÇA DE QUEIRÓS",
      "house": "140",
      "postcode": "4510-555",
      "city": "FÂNZERES",
      "lon": "-8.51991070156159",
      "lat": "41.16789670796674"
    },
    {
      "id": "pt.ine.add.PTCONT.3894727",
      "street": "R EÇA DE QUEIRÓS",
      "house": "140",
      "postcode": "4510-555",
      "city": "FÂNZERES",
      "lon": "-8.51991070156159",
      "lat": "41.16789670796674"
    },
    {
      "id": "pt.ine.add.PTCONT.3894728",
      "street": "R EÇA DE QUEIRÓS",
      "house": "140",
      "postcode": "4510-555",
      "city": "FÂNZERES",
      "lon": "-8.51991070156159",
      "lat": "41.16789670796674"
    },
    {
      "id": "pt.ine.add.PTCONT.3894729",
      "street": "R EÇA DE QUEIRÓS",
      "house": "140",
      "postcode": "4510-555",
      "city": "FÂNZERES",
      "lon": "-8.51991070156159",
      "lat": "41.16789670796674"
    },
    {
      "id": "pt.ine.add.PTCONT.3894864",
      "street": "R EÇA DE QUEIRÓS",
      "house": "140",
      "postcode": "4510-555",
      "city": "FÂNZERES",
      "lon": "-8.51991070156159",
      "lat": "41.16789670796674"
    },
    {
      "id": "pt.ine.add.PTCONT.3896181",
      "street": "R EÇA DE QUEIRÓS",
      "house": "180",
      "postcode": "4510-555",
      "city": "FÂNZERES",
      "lon": "-8.519912237218994",
      "lat": "41.16815782880296"
    },
    {
      "id": "pt.ine.add.PTCONT.3896182",
      "street": "R EÇA DE QUEIRÓS",
      "house": "180",
      "postcode": "4510-555",
      "city": "FÂNZERES",
      "lon": "-8.519912237218994",
      "lat": "41.16815782880296"
    },
    {
      "id": "pt.ine.add.PTCONT.3896183",
      "street": "R EÇA DE QUEIRÓS",
      "house": "180",
      "postcode": "4510-555",
      "city": "FÂNZERES",
      "lon": "-8.519912237218994",
      "lat": "41.16815782880296"
    },
    {
      "id": "pt.ine.add.PTCONT.3896184",
      "street": "R EÇA DE QUEIRÓS",
      "house": "180",
      "postcode": "4510-555",
      "city": "FÂNZERES",
      "lon": "-8.519912237218994",
      "lat": "41.16815782880296"
    },
    {
      "id": "pt.ine.add.PTCONT.3896185",
      "street": "R EÇA DE QUEIRÓS",
      "house": "180",
      "postcode": "4510-555",
      "city": "FÂNZERES",
      "lon": "-8.519912237218994",
      "lat": "41.16815782880296"
    },
    {
      "id": "pt.ine.add.PTCONT.3896186",
      "street": "R EÇA DE QUEIRÓS",
      "house": "180",
      "postcode": "4510-555",
      "city": "FÂNZERES",
      "lon": "-8.519912237218994",
      "lat": "41.16815782880296"
    },
    {
      "id": "pt.ine.add.PTCONT.3896187",
      "street": "R EÇA DE QUEIRÓS",
      "house": "180",
      "postcode": "4510-555",
      "city": "FÂNZERES",
      "lon": "-8.519912237218994",
      "lat": "41.16815782880296"
    },
    {
      "id": "pt.ine.add.PTCONT.3896188",
      "street": "R EÇA DE QUEIRÓS",
      "house": "180",
      "postcode": "4510-555",
      "city": "FÂNZERES",
      "lon": "-8.519912237218994",
      "lat": "41.16815782880296"
    },
    {
      "id": "pt.ine.add.PTCONT.3896189",
      "street": "R EÇA DE QUEIRÓS",
      "house": "180",
      "postcode": "4510-555",
      "city": "FÂNZERES",
      "lon": "-8.519912237218994",
      "lat": "41.16815782880296"
    },
    {
      "id": "pt.ine.add.PTCONT.3896190",
      "street": "R EÇA DE QUEIRÓS",
      "house": "180",
      "postcode": "4510-555",
      "city": "FÂNZERES",
      "lon": "-8.519912237218994",
      "lat": "41.16815782880296"
    },
    {
      "id": "pt.ine.add.PTCONT.3896356",
      "street": "R EÇA DE QUEIRÓS",
      "house": "180",
      "postcode": "4510-555",
      "city": "FÂNZERES",
      "lon": "-8.519912237218994",
      "lat": "41.16815782880296"
    },
    {
      "id": "pt.ine.add.PTCONT.3896357",
      "street": "R EÇA DE QUEIRÓS",
      "house": "180",
      "postcode": "4510-555",
      "city": "FÂNZERES",
      "lon": "-8.519912237218994",
      "lat": "41.16815782880296"
    },
    {
      "id": "pt.ine.add.PTCONT.3901671",
      "street": "ESTR D MIGUEL",
      "house": "2877",
      "postcode": "4510-547",
      "city": "FÂNZERES",
      "lon": "-8.518888048055715",
      "lat": "41.16622532926005"
    },
    {
      "id": "pt.ine.add.PTCONT.3906950",
      "street": "ESTR D MIGUEL",
      "house": "2991",
      "postcode": "4510-547",
      "city": "FÂNZERES",
      "lon": "-8.518775652383022",
      "lat": "41.16737826202086"
    },
    {
      "id": "pt.ine.add.PTCONT.3911320",
      "street": "R VITORINO NEMESIO",
      "house": "888",
      "postcode": "4510-685",
      "city": "FÂNZERES",
      "lon": "-8.518696835911607",
      "lat": "41.16816190392466"
    },
    {
      "id": "pt.ine.add.PTCONT.3922579",
      "street": "R JORGE SENA",
      "house": "82",
      "postcode": "4510-583",
      "city": "FÂNZERES",
      "lon": "-8.519284902245253",
      "lat": "41.166845299353874"
    },
    {
      "id": "pt.ine.add.PTCONT.3922796",
      "street": "R JORGE SENA",
      "house": "82",
      "postcode": "4510-583",
      "city": "FÂNZERES",
      "lon": "-8.519284902245253",
      "lat": "41.166845299353874"
    },
    {
      "id": "pt.ine.add.PTCONT.3922797",
      "street": "R JORGE SENA",
      "house": "82",
      "postcode": "4510-583",
      "city": "FÂNZERES",
      "lon": "-8.519284902245253",
      "lat": "41.166845299353874"
    },
    {
      "id": "pt.ine.add.PTCONT.3922798",
      "street": "R JORGE SENA",
      "house": "82",
      "postcode": "4510-583",
      "city": "FÂNZERES",
      "lon": "-8.519284902245253",
      "lat": "41.166845299353874"
    },
    {
      "id": "pt.ine.add.PTCONT.3922799",
      "street": "R JORGE SENA",
      "house": "82",
      "postcode": "4510-583",
      "city": "FÂNZERES",
      "lon": "-8.519284902245253",
      "lat": "41.166845299353874"
    },
    {
      "id": "pt.ine.add.PTCONT.3922800",
      "street": "R JORGE SENA",
      "house": "82",
      "postcode": "4510-583",
      "city": "FÂNZERES",
      "lon": "-8.519284902245253",
      "lat": "41.166845299353874"
    },
    {
      "id": "pt.ine.add.PTCONT.3922801",
      "street": "R JORGE SENA",
      "house": "82",
      "postcode": "4510-583",
      "city": "FÂNZERES",
      "lon": "-8.519284902245253",
      "lat": "41.166845299353874"
    },
    {
      "id": "pt.ine.add.PTCONT.3922802",
      "street": "R JORGE SENA",
      "house": "82",
      "postcode": "4510-583",
      "city": "FÂNZERES",
      "lon": "-8.519284902245253",
      "lat": "41.166845299353874"
    },
    {
      "id": "pt.ine.add.PTCONT.3926548",
      "street": "R JORGE SENA",
      "house": "82",
      "postcode": "4510-583",
      "city": "FÂNZERES",
      "lon": "-8.519284902245253",
      "lat": "41.166845299353874"
    },
    {
      "id": "pt.ine.add.PTCONT.3926946",
      "street": "R JORGE SENA",
      "house": "82",
      "postcode": "4510-583",
      "city": "FÂNZERES",
      "lon": "-8.519284902245253",
      "lat": "41.166845299353874"
    },
    {
      "id": "pt.ine.add.PTCONT.3926947",
      "street": "R JORGE SENA",
      "house": "82",
      "postcode": "4510-583",
      "city": "FÂNZERES",
      "lon": "-8.519284902245253",
      "lat": "41.166845299353874"
    },
    {
      "id": "pt.ine.add.PTCONT.3926948",
      "street": "R JORGE SENA",
      "house": "82",
      "postcode": "4510-583",
      "city": "FÂNZERES",
      "lon": "-8.519284902245253",
      "lat": "41.166845299353874"
    },
    {
      "id": "pt.ine.add.PTCONT.3934434",
      "street": "R VITORINO NEMESIO",
      "house": "906",
      "postcode": "4510-685",
      "city": "FÂNZERES",
      "lon": "-8.520960871635962",
      "lat": "41.168163306872295"
    },
    {
      "id": "pt.ine.add.PTCONT.3939506",
      "street": "R ECA QUEIROS",
      "house": "89 BLC F",
      "postcode": "4510-555",
      "city": "FÂNZERES",
      "lon": "-8.52065947749481",
      "lat": "41.16757003460471"
    },
    {
      "id": "pt.ine.add.PTCONT.3939741",
      "street": "R EÇA DE QUEIRÓS",
      "house": "89",
      "postcode": "4510-555",
      "city": "FÂNZERES",
      "lon": "-8.52065947749481",
      "lat": "41.16757003460471"
    },
    {
      "id": "pt.ine.add.PTCONT.3939742",
      "street": "R EÇA DE QUEIRÓS",
      "house": "89",
      "postcode": "4510-555",
      "city": "FÂNZERES",
      "lon": "-8.52065947749481",
      "lat": "41.16757003460471"
    },
    {
      "id": "pt.ine.add.PTCONT.3939743",
      "street": "R EÇA DE QUEIRÓS",
      "house": "89",
      "postcode": "4510-555",
      "city": "FÂNZERES",
      "lon": "-8.52065947749481",
      "lat": "41.16757003460471"
    },
    {
      "id": "pt.ine.add.PTCONT.3939744",
      "street": "R EÇA DE QUEIRÓS",
      "house": "89",
      "postcode": "4510-555",
      "city": "FÂNZERES",
      "lon": "-8.52065947749481",
      "lat": "41.16757003460471"
    },
    {
      "id": "pt.ine.add.PTCONT.3939745",
      "street": "R EÇA DE QUEIRÓS",
      "house": "89",
      "postcode": "4510-555",
      "city": "FÂNZERES",
      "lon": "-8.52065947749481",
      "lat": "41.16757003460471"
    },
    {
      "id": "pt.ine.add.PTCONT.3939746",
      "street": "R EÇA DE QUEIRÓS",
      "house": "89",
      "postcode": "4510-555",
      "city": "FÂNZERES",
      "lon": "-8.52065947749481",
      "lat": "41.16757003460471"
    },
    {
      "id": "pt.ine.add.PTCONT.3939747",
      "street": "R EÇA DE QUEIRÓS",
      "house": "89",
      "postcode": "4510-555",
      "city": "FÂNZERES",
      "lon": "-8.52065947749481",
      "lat": "41.16757003460471"
    },
    {
      "id": "pt.ine.add.PTCONT.3939748",
      "street": "R EÇA DE QUEIRÓS",
      "house": "89",
      "postcode": "4510-555",
      "city": "FÂNZERES",
      "lon": "-8.52065947749481",
      "lat": "41.16757003460471"
    },
    {
      "id": "pt.ine.add.PTCONT.3939749",
      "street": "R EÇA DE QUEIRÓS",
      "house": "89",
      "postcode": "4510-555",
      "city": "FÂNZERES",
      "lon": "-8.52065947749481",
      "lat": "41.16757003460471"
    },
    {
      "id": "pt.ine.add.PTCONT.3939750",
      "street": "R EÇA DE QUEIRÓS",
      "house": "89",
      "postcode": "4510-555",
      "city": "FÂNZERES",
      "lon": "-8.52065947749481",
      "lat": "41.16757003460471"
    },
    {
      "id": "pt.ine.add.PTCONT.3939751",
      "street": "R EÇA DE QUEIRÓS",
      "house": "89",
      "postcode": "4510-555",
      "city": "FÂNZERES",
      "lon": "-8.52065947749481",
      "lat": "41.16757003460471"
    },
    {
      "id": "pt.ine.add.PTCONT.3943822",
      "street": "R VITORINO NEMESIO",
      "house": "904",
      "postcode": "4510-685",
      "city": "FÂNZERES",
      "lon": "-8.520984384425821",
      "lat": "41.16810920163008"
    },
    {
      "id": "pt.ine.add.PTCONT.3956684",
      "street": "ESTR D MIGUEL",
      "house": "3079",
      "postcode": "4510-547",
      "city": "FÂNZERES",
      "lon": "-8.518934674531415",
      "lat": "41.16808006838304"
    },
    {
      "id": "pt.ine.add.PTCONT.3985001",
      "street": "R JORGE SENA",
      "house": "121",
      "postcode": "4510-583",
      "city": "FÂNZERES",
      "lon": "-8.51987098354268",
      "lat": "41.16722151543964"
    },
    {
      "id": "pt.ine.add.PTCONT.3985002",
      "street": "R JORGE SENA",
      "house": "121",
      "postcode": "4510-583",
      "city": "FÂNZERES",
      "lon": "-8.51987098354268",
      "lat": "41.16722151543964"
    },
    {
      "id": "pt.ine.add.PTCONT.3985003",
      "street": "R JORGE SENA",
      "house": "121",
      "postcode": "4510-583",
      "city": "FÂNZERES",
      "lon": "-8.51987098354268",
      "lat": "41.16722151543964"
    },
    {
      "id": "pt.ine.add.PTCONT.3987940",
      "street": "R JORGE SENA",
      "house": "121",
      "postcode": "4510-583",
      "city": "FÂNZERES",
      "lon": "-8.51987098354268",
      "lat": "41.16722151543964"
    },
    {
      "id": "pt.ine.add.PTCONT.3990556",
      "street": "R EÇA DE QUEIRÓS",
      "house": "121",
      "postcode": "4510-555",
      "city": "FÂNZERES",
      "lon": "-8.51987098354268",
      "lat": "41.16722151543964"
    },
    {
      "id": "pt.ine.add.PTCONT.3990557",
      "street": "R EÇA DE QUEIRÓS",
      "house": "121",
      "postcode": "4510-555",
      "city": "FÂNZERES",
      "lon": "-8.51987098354268",
      "lat": "41.16722151543964"
    },
    {
      "id": "pt.ine.add.PTCONT.3990558",
      "street": "R EÇA DE QUEIRÓS",
      "house": "121",
      "postcode": "4510-555",
      "city": "FÂNZERES",
      "lon": "-8.51987098354268",
      "lat": "41.16722151543964"
    },
    {
      "id": "pt.ine.add.PTCONT.3990559",
      "street": "R EÇA DE QUEIRÓS",
      "house": "121",
      "postcode": "4510-555",
      "city": "FÂNZERES",
      "lon": "-8.51987098354268",
      "lat": "41.16722151543964"
    },
    {
      "id": "pt.ine.add.PTCONT.3990560",
      "street": "R EÇA DE QUEIRÓS",
      "house": "121",
      "postcode": "4510-555",
      "city": "FÂNZERES",
      "lon": "-8.51987098354268",
      "lat": "41.16722151543964"
    },
    {
      "id": "pt.ine.add.PTCONT.3990561",
      "street": "R EÇA DE QUEIRÓS",
      "house": "121",
      "postcode": "4510-555",
      "city": "FÂNZERES",
      "lon": "-8.51987098354268",
      "lat": "41.16722151543964"
    },
    {
      "id": "pt.ine.add.PTCONT.3990562",
      "street": "R EÇA DE QUEIRÓS",
      "house": "121",
      "postcode": "4510-555",
      "city": "FÂNZERES",
      "lon": "-8.51987098354268",
      "lat": "41.16722151543964"
    },
    {
      "id": "pt.ine.add.PTCONT.4011519",
      "street": "R ALTO DE BARREIROS",
      "house": "884",
      "postcode": "4510-485",
      "city": "FÂNZERES",
      "lon": "-8.521314409767559",
      "lat": "41.167495794359"
    },
    {
      "id": "pt.ine.add.PTCONT.4011520",
      "street": "R ALTO DE BARREIROS",
      "house": "884",
      "postcode": "4510-485",
      "city": "FÂNZERES",
      "lon": "-8.521314409767559",
      "lat": "41.167495794359"
    },
    {
      "id": "pt.ine.add.PTCONT.4020647",
      "street": "R VITORINO NEMESIO",
      "house": "894",
      "postcode": "4510-685",
      "city": "FÂNZERES",
      "lon": "-8.52108992593174",
      "lat": "41.1678207071475"
    },
    {
      "id": "pt.ine.add.PTCONT.4030780",
      "street": "R ECA QUEIROS",
      "house": "49",
      "postcode": "4510-555",
      "city": "FÂNZERES",
      "lon": "-8.519870295238112",
      "lat": "41.16710446125349"
    },
    {
      "id": "pt.ine.add.PTCONT.4030811",
      "street": "ESTR D MIGUEL",
      "house": "2991",
      "postcode": "4510-547",
      "city": "FÂNZERES",
      "lon": "-8.518775335601413",
      "lat": "41.16732423700667"
    },
    {
      "id": "pt.ine.add.PTCONT.4036230",
      "street": "R EÇA DE QUEIRÓS",
      "house": "101",
      "postcode": "4510-555",
      "city": "FÂNZERES",
      "lon": "-8.519870295238112",
      "lat": "41.16710446125349"
    },
    {
      "id": "pt.ine.add.PTCONT.4036231",
      "street": "R EÇA DE QUEIRÓS",
      "house": "101",
      "postcode": "4510-555",
      "city": "FÂNZERES",
      "lon": "-8.519870295238112",
      "lat": "41.16710446125349"
    },
    {
      "id": "pt.ine.add.PTCONT.4036232",
      "street": "R EÇA DE QUEIRÓS",
      "house": "101",
      "postcode": "4510-555",
      "city": "FÂNZERES",
      "lon": "-8.519870295238112",
      "lat": "41.16710446125349"
    },
    {
      "id": "pt.ine.add.PTCONT.4036233",
      "street": "R EÇA DE QUEIRÓS",
      "house": "101",
      "postcode": "4510-555",
      "city": "FÂNZERES",
      "lon": "-8.519870295238112",
      "lat": "41.16710446125349"
    },
    {
      "id": "pt.ine.add.PTCONT.4036234",
      "street": "R EÇA DE QUEIRÓS",
      "house": "101",
      "postcode": "4510-555",
      "city": "FÂNZERES",
      "lon": "-8.519870295238112",
      "lat": "41.16710446125349"
    },
    {
      "id": "pt.ine.add.PTCONT.4036235",
      "street": "R EÇA DE QUEIRÓS",
      "house": "101",
      "postcode": "4510-555",
      "city": "FÂNZERES",
      "lon": "-8.519870295238112",
      "lat": "41.16710446125349"
    },
    {
      "id": "pt.ine.add.PTCONT.4036236",
      "street": "R EÇA DE QUEIRÓS",
      "house": "101",
      "postcode": "4510-555",
      "city": "FÂNZERES",
      "lon": "-8.519870295238112",
      "lat": "41.16710446125349"
    },
    {
      "id": "pt.ine.add.PTCONT.4036237",
      "street": "R EÇA DE QUEIRÓS",
      "house": "101",
      "postcode": "4510-555",
      "city": "FÂNZERES",
      "lon": "-8.519870295238112",
      "lat": "41.16710446125349"
    },
    {
      "id": "pt.ine.add.PTCONT.4036238",
      "street": "R EÇA DE QUEIRÓS",
      "house": "101",
      "postcode": "4510-555",
      "city": "FÂNZERES",
      "lon": "-8.519870295238112",
      "lat": "41.16710446125349"
    },
    {
      "id": "pt.ine.add.PTCONT.4036239",
      "street": "R EÇA DE QUEIRÓS",
      "house": "101",
      "postcode": "4510-555",
      "city": "FÂNZERES",
      "lon": "-8.519870295238112",
      "lat": "41.16710446125349"
    },
    {
      "id": "pt.ine.add.PTCONT.4037441",
      "street": "R EÇA DE QUEIRÓS",
      "house": "133",
      "postcode": "4510-555",
      "city": "FÂNZERES",
      "lon": "-8.520506643164639",
      "lat": "41.1679217181913"
    },
    {
      "id": "pt.ine.add.PTCONT.4037442",
      "street": "R EÇA DE QUEIRÓS",
      "house": "133",
      "postcode": "4510-555",
      "city": "FÂNZERES",
      "lon": "-8.520506643164639",
      "lat": "41.1679217181913"
    },
    {
      "id": "pt.ine.add.PTCONT.4037443",
      "street": "R EÇA DE QUEIRÓS",
      "house": "133",
      "postcode": "4510-555",
      "city": "FÂNZERES",
      "lon": "-8.520506643164639",
      "lat": "41.1679217181913"
    },
    {
      "id": "pt.ine.add.PTCONT.4037444",
      "street": "R EÇA DE QUEIRÓS",
      "house": "133",
      "postcode": "4510-555",
      "city": "FÂNZERES",
      "lon": "-8.520506643164639",
      "lat": "41.1679217181913"
    },
    {
      "id": "pt.ine.add.PTCONT.4037445",
      "street": "R EÇA DE QUEIRÓS",
      "house": "133",
      "postcode": "4510-555",
      "city": "FÂNZERES",
      "lon": "-8.520506643164639",
      "lat": "41.1679217181913"
    },
    {
      "id": "pt.ine.add.PTCONT.4037446",
      "street": "R EÇA DE QUEIRÓS",
      "house": "133",
      "postcode": "4510-555",
      "city": "FÂNZERES",
      "lon": "-8.520506643164639",
      "lat": "41.1679217181913"
    },
    {
      "id": "pt.ine.add.PTCONT.4037447",
      "street": "R EÇA DE QUEIRÓS",
      "house": "133",
      "postcode": "4510-555",
      "city": "FÂNZERES",
      "lon": "-8.520506643164639",
      "lat": "41.1679217181913"
    },
    {
      "id": "pt.ine.add.PTCONT.4037448",
      "street": "R EÇA DE QUEIRÓS",
      "house": "133",
      "postcode": "4510-555",
      "city": "FÂNZERES",
      "lon": "-8.520506643164639",
      "lat": "41.1679217181913"
    },
    {
      "id": "pt.ine.add.PTCONT.4037449",
      "street": "R EÇA DE QUEIRÓS",
      "house": "133",
      "postcode": "4510-555",
      "city": "FÂNZERES",
      "lon": "-8.520506643164639",
      "lat": "41.1679217181913"
    },
    {
      "id": "pt.ine.add.PTCONT.4037450",
      "street": "R EÇA DE QUEIRÓS",
      "house": "133",
      "postcode": "4510-555",
      "city": "FÂNZERES",
      "lon": "-8.520506643164639",
      "lat": "41.1679217181913"
    },
    {
      "id": "pt.ine.add.PTCONT.4044067",
      "street": "ESTR D MIGUEL",
      "house": "3069",
      "postcode": "4510-547",
      "city": "FÂNZERES",
      "lon": "-8.518707431886819",
      "lat": "41.16793675983451"
    },
    {
      "id": "pt.ine.add.PTCONT.4076834",
      "street": "R VITORINO NEMESIO",
      "house": "896",
      "postcode": "4510-685",
      "city": "FÂNZERES",
      "lon": "-8.521066413330166",
      "lat": "41.167874812413125"
    },
    {
      "id": "pt.ine.add.PTCONT.4083524",
      "street": "R ALTO DE BARREIROS",
      "house": "918",
      "postcode": "4510-485",
      "city": "FÂNZERES",
      "lon": "-8.520962995560009",
      "lat": "41.16852347347837"
    },
    {
      "id": "pt.ine.add.PTCONT.4116344",
      "street": "R ECA QUEIROS",
      "house": "143 A",
      "postcode": "4510-555",
      "city": "FÂNZERES",
      "lon": "-8.520495576047114",
      "lat": "41.16806582492619"
    },
    {
      "id": "pt.ine.add.PTCONT.4121500",
      "street": "R EÇA DE QUEIRÓS",
      "house": "143",
      "postcode": "4510-555",
      "city": "FÂNZERES",
      "lon": "-8.520495576047114",
      "lat": "41.16806582492619"
    },
    {
      "id": "pt.ine.add.PTCONT.4121501",
      "street": "R EÇA DE QUEIRÓS",
      "house": "143",
      "postcode": "4510-555",
      "city": "FÂNZERES",
      "lon": "-8.520495576047114",
      "lat": "41.16806582492619"
    },
    {
      "id": "pt.ine.add.PTCONT.4121502",
      "street": "R EÇA DE QUEIRÓS",
      "house": "143",
      "postcode": "4510-555",
      "city": "FÂNZERES",
      "lon": "-8.520495576047114",
      "lat": "41.16806582492619"
    },
    {
      "id": "pt.ine.add.PTCONT.4121503",
      "street": "R EÇA DE QUEIRÓS",
      "house": "143",
      "postcode": "4510-555",
      "city": "FÂNZERES",
      "lon": "-8.520495576047114",
      "lat": "41.16806582492619"
    },
    {
      "id": "pt.ine.add.PTCONT.4121504",
      "street": "R EÇA DE QUEIRÓS",
      "house": "143",
      "postcode": "4510-555",
      "city": "FÂNZERES",
      "lon": "-8.520495576047114",
      "lat": "41.16806582492619"
    },
    {
      "id": "pt.ine.add.PTCONT.4121505",
      "street": "R EÇA DE QUEIRÓS",
      "house": "143",
      "postcode": "4510-555",
      "city": "FÂNZERES",
      "lon": "-8.520495576047114",
      "lat": "41.16806582492619"
    },
    {
      "id": "pt.ine.add.PTCONT.4121506",
      "street": "R EÇA DE QUEIRÓS",
      "house": "143",
      "postcode": "4510-555",
      "city": "FÂNZERES",
      "lon": "-8.520495576047114",
      "lat": "41.16806582492619"
    },
    {
      "id": "pt.ine.add.PTCONT.4121507",
      "street": "R EÇA DE QUEIRÓS",
      "house": "143",
      "postcode": "4510-555",
      "city": "FÂNZERES",
      "lon": "-8.520495576047114",
      "lat": "41.16806582492619"
    },
    {
      "id": "pt.ine.add.PTCONT.4121508",
      "street": "R EÇA DE QUEIRÓS",
      "house": "143",
      "postcode": "4510-555",
      "city": "FÂNZERES",
      "lon": "-8.520495576047114",
      "lat": "41.16806582492619"
    },
    {
      "id": "pt.ine.add.PTCONT.4139196",
      "street": "R EMIGRANTE",
      "house": "96",
      "postcode": "4510-557",
      "city": "FÂNZERES",
      "lon": "-8.519306122733127",
      "lat": "41.168429992976556"
    },
    {
      "id": "pt.ine.add.PTCONT.4142764",
      "street": "ESTR D MIGUEL",
      "house": "3091",
      "postcode": "4510-547",
      "city": "FÂNZERES",
      "lon": "-8.518687084459057",
      "lat": "41.16853111468359"
    },
    {
      "id": "pt.ine.add.PTCONT.4142765",
      "street": "ESTR D MIGUEL",
      "house": "3081",
      "postcode": "4510-547",
      "city": "FÂNZERES",
      "lon": "-8.518732160672686",
      "lat": "41.16808975090829"
    },
    {
      "id": "pt.ine.add.PTCONT.4149084",
      "street": "R ECA QUEIROS",
      "house": "ENT F",
      "postcode": "4510-555",
      "city": "FÂNZERES",
      "lon": "-8.52066980138946",
      "lat": "41.1672998695056"
    },
    {
      "id": "pt.ine.add.PTCONT.4154481",
      "street": "R EÇA DE QUEIRÓS",
      "house": "49",
      "postcode": "4510-555",
      "city": "FÂNZERES",
      "lon": "-8.52066980138946",
      "lat": "41.1672998695056"
    },
    {
      "id": "pt.ine.add.PTCONT.4154482",
      "street": "R EÇA DE QUEIRÓS",
      "house": "49",
      "postcode": "4510-555",
      "city": "FÂNZERES",
      "lon": "-8.52066980138946",
      "lat": "41.1672998695056"
    },
    {
      "id": "pt.ine.add.PTCONT.4154483",
      "street": "R EÇA DE QUEIRÓS",
      "house": "49",
      "postcode": "4510-555",
      "city": "FÂNZERES",
      "lon": "-8.52066980138946",
      "lat": "41.1672998695056"
    },
    {
      "id": "pt.ine.add.PTCONT.4154484",
      "street": "R EÇA DE QUEIRÓS",
      "house": "49",
      "postcode": "4510-555",
      "city": "FÂNZERES",
      "lon": "-8.52066980138946",
      "lat": "41.1672998695056"
    },
    {
      "id": "pt.ine.add.PTCONT.4154485",
      "street": "R EÇA DE QUEIRÓS",
      "house": "49",
      "postcode": "4510-555",
      "city": "FÂNZERES",
      "lon": "-8.52066980138946",
      "lat": "41.1672998695056"
    },
    {
      "id": "pt.ine.add.PTCONT.4154486",
      "street": "R EÇA DE QUEIRÓS",
      "house": "49",
      "postcode": "4510-555",
      "city": "FÂNZERES",
      "lon": "-8.52066980138946",
      "lat": "41.1672998695056"
    },
    {
      "id": "pt.ine.add.PTCONT.4154487",
      "street": "R EÇA DE QUEIRÓS",
      "house": "49",
      "postcode": "4510-555",
      "city": "FÂNZERES",
      "lon": "-8.52066980138946",
      "lat": "41.1672998695056"
    },
    {
      "id": "pt.ine.add.PTCONT.4154488",
      "street": "R EÇA DE QUEIRÓS",
      "house": "49",
      "postcode": "4510-555",
      "city": "FÂNZERES",
      "lon": "-8.52066980138946",
      "lat": "41.1672998695056"
    },
    {
      "id": "pt.ine.add.PTCONT.4154489",
      "street": "R EÇA DE QUEIRÓS",
      "house": "49",
      "postcode": "4510-555",
      "city": "FÂNZERES",
      "lon": "-8.52066980138946",
      "lat": "41.1672998695056"
    },
    {
      "id": "pt.ine.add.PTCONT.4154490",
      "street": "R EÇA DE QUEIRÓS",
      "house": "49",
      "postcode": "4510-555",
      "city": "FÂNZERES",
      "lon": "-8.52066980138946",
      "lat": "41.1672998695056"
    },
    {
      "id": "pt.ine.add.PTCONT.4154492",
      "street": "R EÇA DE QUEIRÓS",
      "house": "49",
      "postcode": "4510-555",
      "city": "FÂNZERES",
      "lon": "-8.52066980138946",
      "lat": "41.1672998695056"
    },
    {
      "id": "pt.ine.add.PTCONT.4155677",
      "street": "R EMIGRANTE",
      "house": "114",
      "postcode": "4510-557",
      "city": "FÂNZERES",
      "lon": "-8.519020567433774",
      "lat": "41.16850298481897"
    },
    {
      "id": "pt.ine.add.PTCONT.4160453",
      "street": "R VITORINO NEMESIO",
      "house": "910",
      "postcode": "4510-685",
      "city": "FÂNZERES",
      "lon": "-8.520913952123921",
      "lat": "41.16828952567192"
    },
    {
      "id": "pt.ine.add.PTCONT.4181284",
      "street": "ESTR D MIGUEL",
      "house": "3095",
      "postcode": "4510-547",
      "city": "FÂNZERES",
      "lon": "-8.518745449012087",
      "lat": "41.168323819375544"
    },
    {
      "id": "pt.ine.add.PTCONT.4194680",
      "street": "R JORGE SENA",
      "house": "66",
      "postcode": "4510-583",
      "city": "FÂNZERES",
      "lon": "-8.519307147108176",
      "lat": "41.166575094369"
    },
    {
      "id": "pt.ine.add.PTCONT.4194681",
      "street": "R JORGE SENA",
      "house": "66",
      "postcode": "4510-583",
      "city": "FÂNZERES",
      "lon": "-8.519307147108176",
      "lat": "41.166575094369"
    },
    {
      "id": "pt.ine.add.PTCONT.4194682",
      "street": "R JORGE SENA",
      "house": "66",
      "postcode": "4510-583",
      "city": "FÂNZERES",
      "lon": "-8.519307147108176",
      "lat": "41.166575094369"
    },
    {
      "id": "pt.ine.add.PTCONT.4194683",
      "street": "R JORGE SENA",
      "house": "66",
      "postcode": "4510-583",
      "city": "FÂNZERES",
      "lon": "-8.519307147108176",
      "lat": "41.166575094369"
    },
    {
      "id": "pt.ine.add.PTCONT.4194684",
      "street": "R JORGE SENA",
      "house": "66",
      "postcode": "4510-583",
      "city": "FÂNZERES",
      "lon": "-8.519307147108176",
      "lat": "41.166575094369"
    },
    {
      "id": "pt.ine.add.PTCONT.4194685",
      "street": "R JORGE SENA",
      "house": "66",
      "postcode": "4510-583",
      "city": "FÂNZERES",
      "lon": "-8.519307147108176",
      "lat": "41.166575094369"
    },
    {
      "id": "pt.ine.add.PTCONT.4194686",
      "street": "R JORGE SENA",
      "house": "66",
      "postcode": "4510-583",
      "city": "FÂNZERES",
      "lon": "-8.519307147108176",
      "lat": "41.166575094369"
    },
    {
      "id": "pt.ine.add.PTCONT.4194687",
      "street": "R JORGE SENA",
      "house": "66",
      "postcode": "4510-583",
      "city": "FÂNZERES",
      "lon": "-8.519307147108176",
      "lat": "41.166575094369"
    },
    {
      "id": "pt.ine.add.PTCONT.4194688",
      "street": "R JORGE SENA",
      "house": "66",
      "postcode": "4510-583",
      "city": "FÂNZERES",
      "lon": "-8.519307147108176",
      "lat": "41.166575094369"
    },
    {
      "id": "pt.ine.add.PTCONT.4194689",
      "street": "R JORGE SENA",
      "house": "66",
      "postcode": "4510-583",
      "city": "FÂNZERES",
      "lon": "-8.519307147108176",
      "lat": "41.166575094369"
    },
    {
      "id": "pt.ine.add.PTCONT.4194690",
      "street": "R JORGE SENA",
      "house": "66",
      "postcode": "4510-583",
      "city": "FÂNZERES",
      "lon": "-8.519307147108176",
      "lat": "41.166575094369"
    },
    {
      "id": "pt.ine.add.PTCONT.4194691",
      "street": "R JORGE SENA",
      "house": "66",
      "postcode": "4510-583",
      "city": "FÂNZERES",
      "lon": "-8.519307147108176",
      "lat": "41.166575094369"
    },
    {
      "id": "pt.ine.add.PTCONT.4194699",
      "street": "R EMIGRANTE",
      "house": "120",
      "postcode": "4510-557",
      "city": "FÂNZERES",
      "lon": "-8.519115893526232",
      "lat": "41.168502665394975"
    },
    {
      "id": "pt.ine.add.PTCONT.4194700",
      "street": "R EMIGRANTE",
      "house": "116",
      "postcode": "4510-557",
      "city": "FÂNZERES",
      "lon": "-8.519115893526232",
      "lat": "41.168502665394975"
    },
    {
      "id": "pt.ine.add.PTCONT.4206067",
      "street": "ESTR D MIGUEL",
      "house": "2991",
      "postcode": "4510-547",
      "city": "FÂNZERES",
      "lon": "-8.519037953157216",
      "lat": "41.16740439649807"
    },
    {
      "id": "pt.ine.add.PTCONT.4221055",
      "street": "R EÇA DE QUEIRÓS",
      "house": "120",
      "postcode": "4510-555",
      "city": "FÂNZERES",
      "lon": "-8.519921769935433",
      "lat": "41.1677526012783"
    },
    {
      "id": "pt.ine.add.PTCONT.4221056",
      "street": "R EÇA DE QUEIRÓS",
      "house": "120",
      "postcode": "4510-555",
      "city": "FÂNZERES",
      "lon": "-8.519921769935433",
      "lat": "41.1677526012783"
    },
    {
      "id": "pt.ine.add.PTCONT.4221057",
      "street": "R EÇA DE QUEIRÓS",
      "house": "120",
      "postcode": "4510-555",
      "city": "FÂNZERES",
      "lon": "-8.519921769935433",
      "lat": "41.1677526012783"
    },
    {
      "id": "pt.ine.add.PTCONT.4221058",
      "street": "R EÇA DE QUEIRÓS",
      "house": "120",
      "postcode": "4510-555",
      "city": "FÂNZERES",
      "lon": "-8.519921769935433",
      "lat": "41.1677526012783"
    },
    {
      "id": "pt.ine.add.PTCONT.4221059",
      "street": "R EÇA DE QUEIRÓS",
      "house": "120",
      "postcode": "4510-555",
      "city": "FÂNZERES",
      "lon": "-8.519921769935433",
      "lat": "41.1677526012783"
    },
    {
      "id": "pt.ine.add.PTCONT.4221060",
      "street": "R EÇA DE QUEIRÓS",
      "house": "120",
      "postcode": "4510-555",
      "city": "FÂNZERES",
      "lon": "-8.519921769935433",
      "lat": "41.1677526012783"
    },
    {
      "id": "pt.ine.add.PTCONT.4221061",
      "street": "R EÇA DE QUEIRÓS",
      "house": "120",
      "postcode": "4510-555",
      "city": "FÂNZERES",
      "lon": "-8.519921769935433",
      "lat": "41.1677526012783"
    },
    {
      "id": "pt.ine.add.PTCONT.4221108",
      "street": "ESTR D MIGUEL",
      "house": "2855",
      "postcode": "4510-547",
      "city": "FÂNZERES",
      "lon": "-8.518863055609238",
      "lat": "41.16602731731376"
    },
    {
      "id": "pt.ine.add.PTCONT.4221110",
      "street": "R EÇA DE QUEIRÓS",
      "house": "120",
      "postcode": "4510-555",
      "city": "FÂNZERES",
      "lon": "-8.519921769935433",
      "lat": "41.1677526012783"
    },
    {
      "id": "pt.ine.add.PTCONT.4221111",
      "street": "R EÇA DE QUEIRÓS",
      "house": "120",
      "postcode": "4510-555",
      "city": "FÂNZERES",
      "lon": "-8.519921769935433",
      "lat": "41.1677526012783"
    },
    {
      "id": "pt.ine.add.PTCONT.4221112",
      "street": "R EÇA DE QUEIRÓS",
      "house": "120",
      "postcode": "4510-555",
      "city": "FÂNZERES",
      "lon": "-8.519921769935433",
      "lat": "41.1677526012783"
    },
    {
      "id": "pt.ine.add.PTCONT.4221113",
      "street": "R EÇA DE QUEIRÓS",
      "house": "120",
      "postcode": "4510-555",
      "city": "FÂNZERES",
      "lon": "-8.519921769935433",
      "lat": "41.1677526012783"
    },
    {
      "id": "pt.ine.add.PTCONT.4227259",
      "street": "ESTR D MIGUEL",
      "house": "3081",
      "postcode": "4510-547",
      "city": "FÂNZERES",
      "lon": "-8.518710440881858",
      "lat": "41.168449997398085"
    },
    {
      "id": "pt.ine.add.PTCONT.4248114",
      "street": "R VITORINO NEMESIO",
      "house": "912",
      "postcode": "4510-685",
      "city": "FÂNZERES",
      "lon": "-8.52089038612439",
      "lat": "41.16833462673341"
    },
    {
      "id": "pt.ine.add.PTCONT.4253693",
      "street": "R EMIGRANTE",
      "house": "92",
      "postcode": "4510-557",
      "city": "FÂNZERES",
      "lon": "-8.519472996097598",
      "lat": "41.16843843768663"
    },
    {
      "id": "pt.ine.add.PTCONT.4277707",
      "street": "R VITORINO NEMESIO",
      "house": "892",
      "postcode": "4510-685",
      "city": "FÂNZERES",
      "lon": "-8.521101522869627",
      "lat": "41.167766642015074"
    },
    {
      "id": "pt.ine.add.PTCONT.4300575",
      "street": "R JORGE SENA",
      "house": "141",
      "postcode": "4510-583",
      "city": "FÂNZERES",
      "lon": "-8.519859862192517",
      "lat": "41.167356617968736"
    },
    {
      "id": "pt.ine.add.PTCONT.4300576",
      "street": "R ECA QUEIROS",
      "house": "141 C",
      "postcode": "4510-555",
      "city": "FÂNZERES",
      "lon": "-8.519859862192517",
      "lat": "41.167356617968736"
    },
    {
      "id": "pt.ine.add.PTCONT.4300577",
      "street": "R ECA QUEIROS",
      "house": "",
      "postcode": "4510-555",
      "city": "FÂNZERES",
      "lon": "-8.519859862192517",
      "lat": "41.167356617968736"
    },
    {
      "id": "pt.ine.add.PTCONT.4300578",
      "street": "R ECA QUEIROS",
      "house": "BC 141",
      "postcode": "4510-555",
      "city": "FÂNZERES",
      "lon": "-8.519859862192517",
      "lat": "41.167356617968736"
    },
    {
      "id": "pt.ine.add.PTCONT.4300587",
      "street": "R JORGE SENA",
      "house": "141",
      "postcode": "4510-583",
      "city": "FÂNZERES",
      "lon": "-8.519859862192517",
      "lat": "41.167356617968736"
    },
    {
      "id": "pt.ine.add.PTCONT.4300628",
      "street": "R EMIGRANTE",
      "house": "110",
      "postcode": "4510-557",
      "city": "FÂNZERES",
      "lon": "-8.519223188238778",
      "lat": "41.16851131011543"
    },
    {
      "id": "pt.ine.add.PTCONT.4305609",
      "street": "R EMIGRANTE",
      "house": "110",
      "postcode": "4510-557",
      "city": "FÂNZERES",
      "lon": "-8.519223188238778",
      "lat": "41.16851131011543"
    },
    {
      "id": "pt.ine.add.PTCONT.4305890",
      "street": "R EÇA DE QUEIRÓS",
      "house": "141",
      "postcode": "4510-555",
      "city": "FÂNZERES",
      "lon": "-8.519859862192517",
      "lat": "41.167356617968736"
    },
    {
      "id": "pt.ine.add.PTCONT.4305891",
      "street": "R EÇA DE QUEIRÓS",
      "house": "141",
      "postcode": "4510-555",
      "city": "FÂNZERES",
      "lon": "-8.519859862192517",
      "lat": "41.167356617968736"
    },
    {
      "id": "pt.ine.add.PTCONT.4305892",
      "street": "R EÇA DE QUEIRÓS",
      "house": "141",
      "postcode": "4510-555",
      "city": "FÂNZERES",
      "lon": "-8.519859862192517",
      "lat": "41.167356617968736"
    },
    {
      "id": "pt.ine.add.PTCONT.4305893",
      "street": "R EÇA DE QUEIRÓS",
      "house": "141",
      "postcode": "4510-555",
      "city": "FÂNZERES",
      "lon": "-8.519859862192517",
      "lat": "41.167356617968736"
    },
    {
      "id": "pt.ine.add.PTCONT.4305894",
      "street": "R EÇA DE QUEIRÓS",
      "house": "141",
      "postcode": "4510-555",
      "city": "FÂNZERES",
      "lon": "-8.519859862192517",
      "lat": "41.167356617968736"
    },
    {
      "id": "pt.ine.add.PTCONT.4305895",
      "street": "R EÇA DE QUEIRÓS",
      "house": "141",
      "postcode": "4510-555",
      "city": "FÂNZERES",
      "lon": "-8.519859862192517",
      "lat": "41.167356617968736"
    },
    {
      "id": "pt.ine.add.PTCONT.4305896",
      "street": "R EÇA DE QUEIRÓS",
      "house": "141",
      "postcode": "4510-555",
      "city": "FÂNZERES",
      "lon": "-8.519859862192517",
      "lat": "41.167356617968736"
    },
    {
      "id": "pt.ine.add.PTCONT.4326889",
      "street": "R EÇA DE QUEIRÓS",
      "house": "29",
      "postcode": "4510-555",
      "city": "FÂNZERES",
      "lon": "-8.520680761894454",
      "lat": "41.16713775440238"
    },
    {
      "id": "pt.ine.add.PTCONT.4326890",
      "street": "R EÇA DE QUEIRÓS",
      "house": "29",
      "postcode": "4510-555",
      "city": "FÂNZERES",
      "lon": "-8.520680761894454",
      "lat": "41.16713775440238"
    },
    {
      "id": "pt.ine.add.PTCONT.4326891",
      "street": "R EÇA DE QUEIRÓS",
      "house": "29",
      "postcode": "4510-555",
      "city": "FÂNZERES",
      "lon": "-8.520680761894454",
      "lat": "41.16713775440238"
    },
    {
      "id": "pt.ine.add.PTCONT.4326892",
      "street": "R EÇA DE QUEIRÓS",
      "house": "29",
      "postcode": "4510-555",
      "city": "FÂNZERES",
      "lon": "-8.520680761894454",
      "lat": "41.16713775440238"
    },
    {
      "id": "pt.ine.add.PTCONT.4326893",
      "street": "R EÇA DE QUEIRÓS",
      "house": "29",
      "postcode": "4510-555",
      "city": "FÂNZERES",
      "lon": "-8.520680761894454",
      "lat": "41.16713775440238"
    },
    {
      "id": "pt.ine.add.PTCONT.4326894",
      "street": "R EÇA DE QUEIRÓS",
      "house": "29",
      "postcode": "4510-555",
      "city": "FÂNZERES",
      "lon": "-8.520680761894454",
      "lat": "41.16713775440238"
    },
    {
      "id": "pt.ine.add.PTCONT.4326895",
      "street": "R EÇA DE QUEIRÓS",
      "house": "29",
      "postcode": "4510-555",
      "city": "FÂNZERES",
      "lon": "-8.520680761894454",
      "lat": "41.16713775440238"
    },
    {
      "id": "pt.ine.add.PTCONT.4326896",
      "street": "R EÇA DE QUEIRÓS",
      "house": "29",
      "postcode": "4510-555",
      "city": "FÂNZERES",
      "lon": "-8.520680761894454",
      "lat": "41.16713775440238"
    },
    {
      "id": "pt.ine.add.PTCONT.4326897",
      "street": "R EÇA DE QUEIRÓS",
      "house": "29",
      "postcode": "4510-555",
      "city": "FÂNZERES",
      "lon": "-8.520680761894454",
      "lat": "41.16713775440238"
    },
    {
      "id": "pt.ine.add.PTCONT.4326898",
      "street": "R EÇA DE QUEIRÓS",
      "house": "29",
      "postcode": "4510-555",
      "city": "FÂNZERES",
      "lon": "-8.520680761894454",
      "lat": "41.16713775440238"
    },
    {
      "id": "pt.ine.add.PTCONT.4326952",
      "street": "R EÇA DE QUEIRÓS",
      "house": "29",
      "postcode": "4510-555",
      "city": "FÂNZERES",
      "lon": "-8.520680761894454",
      "lat": "41.16713775440238"
    },
    {
      "id": "pt.ine.add.PTCONT.4326953",
      "street": "R EÇA DE QUEIRÓS",
      "house": "29",
      "postcode": "4510-555",
      "city": "FÂNZERES",
      "lon": "-8.520680761894454",
      "lat": "41.16713775440238"
    },
    {
      "id": "pt.ine.add.PTCONT.4342990",
      "street": "ESTR D MIGUEL",
      "house": "2955",
      "postcode": "4510-547",
      "city": "FÂNZERES",
      "lon": "-8.51873779404282",
      "lat": "41.1670182149334"
    },
    {
      "id": "pt.ine.add.PTCONT.4351989",
      "street": "TV ROSÁRIO",
      "house": "53",
      "postcode": "4510-806",
      "city": "FÂNZERES",
      "lon": "-8.519162499532708",
      "lat": "41.16832242231423"
    },
    {
      "id": "pt.ine.add.PTCONT.4351990",
      "street": "TV ROSÁRIO",
      "house": "53",
      "postcode": "4510-806",
      "city": "FÂNZERES",
      "lon": "-8.519162499532708",
      "lat": "41.16832242231423"
    },
    {
      "id": "pt.ine.add.PTCONT.4359346",
      "street": "R EMIGRANTE",
      "house": "90",
      "postcode": "4510-557",
      "city": "FÂNZERES",
      "lon": "-8.519532627746528",
      "lat": "41.16844724198864"
    },
    {
      "id": "pt.ine.add.PTCONT.4371993",
      "street": "R EÇA DE QUEIRÓS",
      "house": "160",
      "postcode": "4510-555",
      "city": "FÂNZERES",
      "lon": "-8.519911442910919",
      "lat": "41.16802276630295"
    },
    {
      "id": "pt.ine.add.PTCONT.4377418",
      "street": "R EÇA DE QUEIRÓS",
      "house": "121",
      "postcode": "4510-555",
      "city": "FÂNZERES",
      "lon": "-8.51987098354268",
      "lat": "41.16722151543964"
    },
    {
      "id": "pt.ine.add.PTCONT.4381494",
      "street": "R EÇA DE QUEIRÓS",
      "house": "120",
      "postcode": "4510-555",
      "city": "FÂNZERES",
      "lon": "-8.519921769935433",
      "lat": "41.1677526012783"
    },
    {
      "id": "pt.ine.add.PTCONT.4386452",
      "street": "R EÇA DE QUEIRÓS",
      "house": "101",
      "postcode": "4510-555",
      "city": "FÂNZERES",
      "lon": "-8.519870295238112",
      "lat": "41.16710446125349"
    },
    {
      "id": "pt.ine.add.PTCONT.4387550",
      "street": "R ALTO DE BARREIROS",
      "house": "880",
      "postcode": "4510-485",
      "city": "FÂNZERES",
      "lon": "-8.521349624999871",
      "lat": "41.16740563221336"
    },
    {
      "id": "pt.ine.add.PTCONT.4389712",
      "street": "R JORGE SENA",
      "house": "78",
      "postcode": "4510-583",
      "city": "FÂNZERES",
      "lon": "-8.519295971831506",
      "lat": "41.16670119269397"
    },
    {
      "id": "pt.ine.add.PTCONT.4389717",
      "street": "R JORGE SENA",
      "house": "78",
      "postcode": "4510-583",
      "city": "FÂNZERES",
      "lon": "-8.519295971831506",
      "lat": "41.16670119269397"
    }
  ]
}