{
  "data": {
    "distrito": "Porto",
    "concelho": "Vila Nova de Gaia",
    "freguesia": "Arcozelo",
    "OBJECTID": 1450,
    "BGRI2021": "13170100401",
    "DT21": "13",
    "DTMN21": "1317",
    "DTMNFR21": "131701",
    "DTMNFRSEC21": "131701004",
    "SECNUM21": "004",
    "SSNUM21": "01",
    "SECSSNUM21": "00401",
    "OBJECTID_1": 143597,
    "DT": "13",
    "CC": "17",
    "fr": "01",
    "SEC": "004",
    "SS": "01"
  },
  "addresses": [
    {
      "id": "pt.ine.add.PTCONT.3550516",
      "street": "AV GOMES GUERRA",
      "house": "914",
      "postcode": "4410-467",
      "city": "ARCOZELO VNG",
      "lon": "-8.653806280987046",
      "lat": "41.052986192685076"
    },
    {
      "id": "pt.ine.add.PTCONT.3677615",
      "street": "AV GOMES GUERRA",
      "house": "928",
      "postcode": "4410-467",
      "city": "ARCOZELO VNG",
      "lon": "-8.653879424168807",
      "lat": "41.0532109747002"
    },
    {
      "id": "pt.ine.add.PTCONT.3744290",
      "street": "AV REPUBLICA",
      "house": "452",
      "postcode": "4410-496",
      "city": "ARCOZELO VNG",
      "lon": "-8.653305853580017",
      "lat": "41.052880398647616"
    },
    {
      "id": "pt.ine.add.PTCONT.3757943",
      "street": "AV REPUBLICA",
      "house": "478",
      "postcode": "4410-496",
      "city": "ARCOZELO VNG",
      "lon": "-8.653197099793957",
      "lat": "41.05266478146882"
    },
    {
      "id": "pt.ine.add.PTCONT.3763617",
      "street": "AV REPUBLICA",
      "house": "426",
      "postcode": "4410-496",
      "city": "ARCOZELO VNG",
      "lon": "-8.653415317510214",
      "lat": "41.05318605751612"
    },
    {
      "id": "pt.ine.add.PTCONT.3785965",
      "street": "AV REPUBLICA",
      "house": "",
      "postcode": "4410-496",
      "city": "ARCOZELO VNG",
      "lon": "-8.65349009153039",
      "lat": "41.05361793591306"
    },
    {
      "id": "pt.ine.add.PTCONT.3785966",
      "street": "AV REPUBLICA",
      "house": "",
      "postcode": "4410-496",
      "city": "ARCOZELO VNG",
      "lon": "-8.65349009153039",
      "lat": "41.05361793591306"
    },
    {
      "id": "pt.ine.add.PTCONT.3785964",
      "street": "AV REPUBLICA",
      "house": "",
      "postcode": "4410-496",
      "city": "ARCOZELO VNG",
      "lon": "-8.65349009153039",
      "lat": "41.05361793591306"
    },
    {
      "id": "pt.ine.add.PTCONT.3785967",
      "street": "AV REPUBLICA",
      "house": "",
      "postcode": "4410-496",
      "city": "ARCOZELO VNG",
      "lon": "-8.65349009153039",
      "lat": "41.05361793591306"
    },
    {
      "id": "pt.ine.add.PTCONT.3891232",
      "street": "AV REPUBLICA",
      "house": "",
      "postcode": "4410-496",
      "city": "ARCOZELO VNG",
      "lon": "-8.653514732595976",
      "lat": "41.05372587864191"
    },
    {
      "id": "pt.ine.add.PTCONT.3891233",
      "street": "AV REPUBLICA",
      "house": "",
      "postcode": "4410-496",
      "city": "ARCOZELO VNG",
      "lon": "-8.653514732595976",
      "lat": "41.05372587864191"
    },
    {
      "id": "pt.ine.add.PTCONT.3891234",
      "street": "AV REPUBLICA",
      "house": "",
      "postcode": "4410-496",
      "city": "ARCOZELO VNG",
      "lon": "-8.653514732595976",
      "lat": "41.05372587864191"
    },
    {
      "id": "pt.ine.add.PTCONT.3891235",
      "street": "AV REPUBLICA",
      "house": "",
      "postcode": "4410-496",
      "city": "ARCOZELO VNG",
      "lon": "-8.653514732595976",
      "lat": "41.05372587864191"
    },
    {
      "id": "pt.ine.add.PTCONT.4074330",
      "street": "AV GOMES GUERRA",
      "house": "914",
      "postcode": "4410-467",
      "city": "ARCOZELO VNG",
      "lon": "-8.65384281701425",
      "lat": "41.053094081609956"
    },
    {
      "id": "pt.ine.add.PTCONT.4100605",
      "street": "AV GOMES GUERRA",
      "house": "936",
      "postcode": "4410-467",
      "city": "ARCOZELO VNG",
      "lon": "-8.653927926188924",
      "lat": "41.05332781402012"
    },
    {
      "id": "pt.ine.add.PTCONT.4113281",
      "street": "AV REPUBLICA",
      "house": "414",
      "postcode": "4410-496",
      "city": "ARCOZELO VNG",
      "lon": "-8.653440029231804",
      "lat": "41.053303004450925"
    },
    {
      "id": "pt.ine.add.PTCONT.4135415",
      "street": "AV PEDRA AGUDA",
      "house": "",
      "postcode": "4410-369",
      "city": "ARCOZELO VNG",
      "lon": "-8.653740307980218",
      "lat": "41.05367083278048"
    },
    {
      "id": "pt.ine.add.PTCONT.4135416",
      "street": "AV PEDRA AGUDA",
      "house": "",
      "postcode": "4410-369",
      "city": "ARCOZELO VNG",
      "lon": "-8.653740307980218",
      "lat": "41.05367083278048"
    },
    {
      "id": "pt.ine.add.PTCONT.4135417",
      "street": "AV PEDRA AGUDA",
      "house": "",
      "postcode": "4410-369",
      "city": "ARCOZELO VNG",
      "lon": "-8.653740307980218",
      "lat": "41.05367083278048"
    },
    {
      "id": "pt.ine.add.PTCONT.4135418",
      "street": "AV PEDRA AGUDA",
      "house": "",
      "postcode": "4410-369",
      "city": "ARCOZELO VNG",
      "lon": "-8.653740307980218",
      "lat": "41.05367083278048"
    },
    {
      "id": "pt.ine.add.PTCONT.4135612",
      "street": "AV PEDRA AGUDA",
      "house": "95",
      "postcode": "4410-369",
      "city": "ARCOZELO VNG",
      "lon": "-8.653740307980218",
      "lat": "41.05367083278048"
    },
    {
      "id": "pt.ine.add.PTCONT.4159406",
      "street": "AV REPUBLICA",
      "house": "438",
      "postcode": "4410-496",
      "city": "ARCOZELO VNG",
      "lon": "-8.65335470901007",
      "lat": "41.05304225912687"
    },
    {
      "id": "pt.ine.add.PTCONT.4342402",
      "street": "AV REPUBLICA",
      "house": "402",
      "postcode": "4410-496",
      "city": "ARCOZELO VNG",
      "lon": "-8.653464741043022",
      "lat": "41.05341995137756"
    },
    {
      "id": "pt.ine.add.PTCONT.4369322",
      "street": "R DR M√ÅRIO VASCONCELOS E SA",
      "house": "828",
      "postcode": "4410-431",
      "city": "ARCOZELO VNG",
      "lon": "-8.653600523179872",
      "lat": "41.05253689710339"
    },
    {
      "id": "pt.ine.add.PTCONT.4377831",
      "street": "AV REPUBLICA",
      "house": "",
      "postcode": "4410-496",
      "city": "ARCOZELO VNG",
      "lon": "-8.653514732595976",
      "lat": "41.05372587864191"
    }
  ]
}