{
  "data": {
    "distrito": "Viseu",
    "concelho": "Mangualde",
    "freguesia": "União das freguesias de Mangualde, Mesquitela e Cunha Alta",
    "OBJECTID": 550,
    "BGRI2021": "18061901018",
    "DT21": "18",
    "DTMN21": "1806",
    "DTMNFR21": "180619",
    "DTMNFRSEC21": "180619010",
    "SECNUM21": "010",
    "SSNUM21": "18",
    "SECSSNUM21": "01018",
    "OBJECTID_1": 191720,
    "DT": "18",
    "CC": "06",
    "fr": "19",
    "SEC": "010",
    "SS": "18"
  },
  "addresses": [
    {
      "id": "pt.ine.add.PTCONT.5440153",
      "street": "R AZURARA DA BEIRA",
      "house": "",
      "postcode": "3530-274",
      "city": "MANGUALDE",
      "lon": "-7.75353246399605",
      "lat": "40.60419415834801"
    },
    {
      "id": "pt.ine.add.PTCONT.5440169",
      "street": "R JOSE ALBUQUERQUE FAISCA",
      "house": "1",
      "postcode": "3530-102",
      "city": "MANGUALDE",
      "lon": "-7.752625825748169",
      "lat": "40.60364185659166"
    },
    {
      "id": "pt.ine.add.PTCONT.5465707",
      "street": "R LUIS DE CAMÕES",
      "house": "9",
      "postcode": "3530-214",
      "city": "MANGUALDE",
      "lon": "-7.753535877110865",
      "lat": "40.60359081946182"
    },
    {
      "id": "pt.ine.add.PTCONT.5476548",
      "street": "R LUIS DE CAMÕES",
      "house": "15",
      "postcode": "3530-214",
      "city": "MANGUALDE",
      "lon": "-7.753240505348384",
      "lat": "40.60358984842426"
    },
    {
      "id": "pt.ine.add.PTCONT.5484790",
      "street": "R AZURARA DA BEIRA",
      "house": "146",
      "postcode": "3530-274",
      "city": "MANGUALDE",
      "lon": "-7.752965651238556",
      "lat": "40.60413826290741"
    },
    {
      "id": "pt.ine.add.PTCONT.5498207",
      "street": "R LUIS CAMOES",
      "house": "5",
      "postcode": "3530-214",
      "city": "MANGUALDE",
      "lon": "-7.753854929528914",
      "lat": "40.60358286227522"
    },
    {
      "id": "pt.ine.add.PTCONT.5538795",
      "street": "R LUIS DE CAMÕES",
      "house": "3B",
      "postcode": "3530-214",
      "city": "MANGUALDE",
      "lon": "-7.752779980640959",
      "lat": "40.603543306808824"
    },
    {
      "id": "pt.ine.add.PTCONT.5580566",
      "street": "R LUIS DE CAMÕES",
      "house": "3",
      "postcode": "3530-214",
      "city": "MANGUALDE",
      "lon": "-7.754090972596184",
      "lat": "40.60362866320376"
    },
    {
      "id": "pt.ine.add.PTCONT.5588599",
      "street": "R ANTÓNIO OLIVEIRA",
      "house": "5",
      "postcode": "3530-102",
      "city": "MANGUALDE",
      "lon": "-7.752635189629848",
      "lat": "40.60407413825227"
    },
    {
      "id": "pt.ine.add.PTCONT.5588600",
      "street": "R ANTÓNIO OLIVEIRA",
      "house": "4",
      "postcode": "3530-102",
      "city": "MANGUALDE",
      "lon": "-7.752624498090244",
      "lat": "40.60387598808047"
    },
    {
      "id": "pt.ine.add.PTCONT.5597266",
      "street": "R AZURARA BEIRA",
      "house": "150",
      "postcode": "3530-274",
      "city": "MANGUALDE",
      "lon": "-7.75269339646406",
      "lat": "40.60422741879597"
    },
    {
      "id": "pt.ine.add.PTCONT.5615935",
      "street": "R DR VEIGA SIMAO",
      "house": "1",
      "postcode": "3530-207",
      "city": "MANGUALDE",
      "lon": "-7.754101770165269",
      "lat": "40.60380880315013"
    },
    {
      "id": "pt.ine.add.PTCONT.5628985",
      "street": "R AZURARA DA BEIRA",
      "house": "144",
      "postcode": "3530-274",
      "city": "MANGUALDE",
      "lon": "-7.753366901424981",
      "lat": "40.60422062982054"
    }
  ]
}