{
  "data": {
    "distrito": "Santarém",
    "concelho": "Torres Novas",
    "freguesia": "União das freguesias de Torres Novas (São Pedro), Lapas e Ribeira Branca",
    "OBJECTID": 270,
    "BGRI2021": "14192100505",
    "DT21": "14",
    "DTMN21": "1419",
    "DTMNFR21": "141921",
    "DTMNFRSEC21": "141921005",
    "SECNUM21": "005",
    "SSNUM21": "05",
    "SECSSNUM21": "00505",
    "OBJECTID_1": 157156,
    "DT": "14",
    "CC": "19",
    "fr": "21",
    "SEC": "005",
    "SS": "05"
  },
  "addresses": [
    {
      "id": "pt.ine.add.PTCONT.4391769",
      "street": "R DIREITA DE S PEDRO",
      "house": "97",
      "postcode": "2350-764",
      "city": "TORRES NOVAS",
      "lon": "-8.543944190607743",
      "lat": "39.4791721211027"
    },
    {
      "id": "pt.ine.add.PTCONT.4391770",
      "street": "R DIREITA DE S PEDRO",
      "house": "97",
      "postcode": "2350-764",
      "city": "TORRES NOVAS",
      "lon": "-8.543944190607743",
      "lat": "39.4791721211027"
    },
    {
      "id": "pt.ine.add.PTCONT.4396248",
      "street": "R DIREITA DE S PEDRO",
      "house": "63",
      "postcode": "2350-764",
      "city": "TORRES NOVAS",
      "lon": "-8.542898339793506",
      "lat": "39.4792028323267"
    },
    {
      "id": "pt.ine.add.PTCONT.4408505",
      "street": "R DIREITA DE S PEDRO",
      "house": "",
      "postcode": "2350-764",
      "city": "TORRES NOVAS",
      "lon": "-8.543107753278429",
      "lat": "39.479238122014294"
    },
    {
      "id": "pt.ine.add.PTCONT.4410816",
      "street": "R DIREITA DE S PEDRO",
      "house": "61",
      "postcode": "2350-764",
      "city": "TORRES NOVAS",
      "lon": "-8.542886928862464",
      "lat": "39.47923890039799"
    },
    {
      "id": "pt.ine.add.PTCONT.4410817",
      "street": "R DIREITA DE S PEDRO",
      "house": "61",
      "postcode": "2350-764",
      "city": "TORRES NOVAS",
      "lon": "-8.542886928862464",
      "lat": "39.47923890039799"
    },
    {
      "id": "pt.ine.add.PTCONT.4410818",
      "street": "R DIREITA DE S PEDRO",
      "house": "61",
      "postcode": "2350-764",
      "city": "TORRES NOVAS",
      "lon": "-8.542886928862464",
      "lat": "39.47923890039799"
    },
    {
      "id": "pt.ine.add.PTCONT.4410819",
      "street": "R DIREITA DE S PEDRO",
      "house": "61",
      "postcode": "2350-764",
      "city": "TORRES NOVAS",
      "lon": "-8.542886928862464",
      "lat": "39.47923890039799"
    },
    {
      "id": "pt.ine.add.PTCONT.4410820",
      "street": "R DIREITA DE S PEDRO",
      "house": "61",
      "postcode": "2350-764",
      "city": "TORRES NOVAS",
      "lon": "-8.542886928862464",
      "lat": "39.47923890039799"
    },
    {
      "id": "pt.ine.add.PTCONT.4412794",
      "street": "LG QUINCHOSO",
      "house": "2",
      "postcode": "2350-728",
      "city": "TORRES NOVAS",
      "lon": "-8.542197359334196",
      "lat": "39.478583819885394"
    },
    {
      "id": "pt.ine.add.PTCONT.4413811",
      "street": "LG QUINCHOSO",
      "house": "2",
      "postcode": "2350-728",
      "city": "TORRES NOVAS",
      "lon": "-8.542197359334196",
      "lat": "39.478583819885394"
    },
    {
      "id": "pt.ine.add.PTCONT.4413850",
      "street": "LAD CIMO DE VILA",
      "house": "",
      "postcode": "2350-715",
      "city": "TORRES NOVAS",
      "lon": "-8.544105365952172",
      "lat": "39.47891034957263"
    },
    {
      "id": "pt.ine.add.PTCONT.4415662",
      "street": "TV QUINCHOSO",
      "house": "8",
      "postcode": "2350-728",
      "city": "TORRES NOVAS",
      "lon": "-8.543187417196751",
      "lat": "39.47894961822642"
    },
    {
      "id": "pt.ine.add.PTCONT.4425027",
      "street": "TV QUINCHOSO",
      "house": "",
      "postcode": "2350-728",
      "city": "TORRES NOVAS",
      "lon": "-8.54289675425419",
      "lat": "39.47893262896327"
    },
    {
      "id": "pt.ine.add.PTCONT.4428659",
      "street": "CC CANITOS",
      "house": "18",
      "postcode": "2350-521",
      "city": "TORRES NOVAS",
      "lon": "-8.54219414101209",
      "lat": "39.47803440625963"
    },
    {
      "id": "pt.ine.add.PTCONT.4434118",
      "street": "LG GEN HUMBERTO DELGADO",
      "house": "",
      "postcode": "2350-522",
      "city": "TORRES NOVAS",
      "lon": "-8.544378784382088",
      "lat": "39.477972658445324"
    },
    {
      "id": "pt.ine.add.PTCONT.4442204",
      "street": "LG QUINCHOSO",
      "house": "",
      "postcode": "2350-728",
      "city": "TORRES NOVAS",
      "lon": "-8.542292500848218",
      "lat": "39.47895277072895"
    },
    {
      "id": "pt.ine.add.PTCONT.4442205",
      "street": "TV QUINCHOSO",
      "house": "4",
      "postcode": "2350-728",
      "city": "TORRES NOVAS",
      "lon": "-8.543012977122233",
      "lat": "39.47893221933272"
    },
    {
      "id": "pt.ine.add.PTCONT.4451844",
      "street": "R MIGUEL DE ARNIDE",
      "house": "84",
      "postcode": "2350-522",
      "city": "TORRES NOVAS",
      "lon": "-8.543273624445707",
      "lat": "39.47779642253136"
    },
    {
      "id": "pt.ine.add.PTCONT.4451845",
      "street": "R MIGUEL DE ARNIDE",
      "house": "84",
      "postcode": "2350-522",
      "city": "TORRES NOVAS",
      "lon": "-8.543273624445707",
      "lat": "39.47779642253136"
    },
    {
      "id": "pt.ine.add.PTCONT.4451846",
      "street": "R MIGUEL DE ARNIDE",
      "house": "84",
      "postcode": "2350-522",
      "city": "TORRES NOVAS",
      "lon": "-8.543273624445707",
      "lat": "39.47779642253136"
    },
    {
      "id": "pt.ine.add.PTCONT.4451847",
      "street": "R MIGUEL DE ARNIDE",
      "house": "84",
      "postcode": "2350-522",
      "city": "TORRES NOVAS",
      "lon": "-8.543273624445707",
      "lat": "39.47779642253136"
    },
    {
      "id": "pt.ine.add.PTCONT.4451848",
      "street": "R MIGUEL DE ARNIDE",
      "house": "84",
      "postcode": "2350-522",
      "city": "TORRES NOVAS",
      "lon": "-8.543273624445707",
      "lat": "39.47779642253136"
    },
    {
      "id": "pt.ine.add.PTCONT.4453806",
      "street": "R DIREITA DE S PEDRO",
      "house": "83",
      "postcode": "2350-764",
      "city": "TORRES NOVAS",
      "lon": "-8.54364195719558",
      "lat": "39.47916418154797"
    },
    {
      "id": "pt.ine.add.PTCONT.4453807",
      "street": "CANTO DO QUINCHOSO",
      "house": "",
      "postcode": "2350-728",
      "city": "TORRES NOVAS",
      "lon": "-8.542944406260332",
      "lat": "39.47913061425825"
    },
    {
      "id": "pt.ine.add.PTCONT.4454682",
      "street": "R DIREITA DE S PEDRO",
      "house": "59",
      "postcode": "2350-764",
      "city": "TORRES NOVAS",
      "lon": "-8.542828658644435",
      "lat": "39.47921208483026"
    },
    {
      "id": "pt.ine.add.PTCONT.4458937",
      "street": "R DIREITA DE S PEDRO",
      "house": "41",
      "postcode": "2350-764",
      "city": "TORRES NOVAS",
      "lon": "-8.542398157203413",
      "lat": "39.47913253819774"
    },
    {
      "id": "pt.ine.add.PTCONT.4460931",
      "street": "R DIREITA DE S PEDRO",
      "house": "",
      "postcode": "2350-764",
      "city": "TORRES NOVAS",
      "lon": "-8.542619298190008",
      "lat": "39.479185801417685"
    },
    {
      "id": "pt.ine.add.PTCONT.4474608",
      "street": "CANTO QUICHOSO",
      "house": "18A",
      "postcode": "2350-728",
      "city": "TORRES NOVAS",
      "lon": "-8.543385683995291",
      "lat": "39.47906600940949"
    },
    {
      "id": "pt.ine.add.PTCONT.4474621",
      "street": "CANTO DO QUINCHOSO",
      "house": "15",
      "postcode": "2350-728",
      "city": "TORRES NOVAS",
      "lon": "-8.543223183248541",
      "lat": "39.47910261049638"
    },
    {
      "id": "pt.ine.add.PTCONT.4476324",
      "street": "LG QUINCHOSO",
      "house": "1",
      "postcode": "2350-728",
      "city": "TORRES NOVAS",
      "lon": "-8.54202302588317",
      "lat": "39.47858443306039"
    },
    {
      "id": "pt.ine.add.PTCONT.4485296",
      "street": "R MIGUEL DE ARNIDE",
      "house": "72",
      "postcode": "2350-522",
      "city": "TORRES NOVAS",
      "lon": "-8.542530971809304",
      "lat": "39.47799719294664"
    },
    {
      "id": "pt.ine.add.PTCONT.4485297",
      "street": "R MIGUEL DE ARNIDE",
      "house": "72",
      "postcode": "2350-522",
      "city": "TORRES NOVAS",
      "lon": "-8.542530971809304",
      "lat": "39.47799719294664"
    },
    {
      "id": "pt.ine.add.PTCONT.4488301",
      "street": "R MIGUEL DE ARNIDE",
      "house": "96",
      "postcode": "2350-522",
      "city": "TORRES NOVAS",
      "lon": "-8.543784890776855",
      "lat": "39.477776604114375"
    },
    {
      "id": "pt.ine.add.PTCONT.4491123",
      "street": "R DIREITA DE S PEDRO",
      "house": "107",
      "postcode": "2350-764",
      "city": "TORRES NOVAS",
      "lon": "-8.54403685121855",
      "lat": "39.479117751904155"
    },
    {
      "id": "pt.ine.add.PTCONT.4491124",
      "street": "R DIREITA DE S PEDRO",
      "house": "8S",
      "postcode": "2350-764",
      "city": "TORRES NOVAS",
      "lon": "-8.543723313465618",
      "lat": "39.47916389429601"
    },
    {
      "id": "pt.ine.add.PTCONT.4498693",
      "street": "CC CANITOS",
      "house": "20",
      "postcode": "2350-521",
      "city": "TORRES NOVAS",
      "lon": "-8.542333553895329",
      "lat": "39.47802490875997"
    },
    {
      "id": "pt.ine.add.PTCONT.4504707",
      "street": "TV QUINCHOSO",
      "house": "10",
      "postcode": "2350-728",
      "city": "TORRES NOVAS",
      "lon": "-8.543257256727266",
      "lat": "39.478967385844726"
    },
    {
      "id": "pt.ine.add.PTCONT.4505389",
      "street": "R MIGUEL DE ARNIDE",
      "house": "86",
      "postcode": "2350-522",
      "city": "TORRES NOVAS",
      "lon": "-8.543320430255635",
      "lat": "39.47785029922776"
    },
    {
      "id": "pt.ine.add.PTCONT.4505390",
      "street": "R MIGUEL DE ARNIDE",
      "house": "86",
      "postcode": "2350-522",
      "city": "TORRES NOVAS",
      "lon": "-8.543320430255635",
      "lat": "39.47785029922776"
    },
    {
      "id": "pt.ine.add.PTCONT.4508653",
      "street": "CANTO DO QUINCHOSO",
      "house": "29",
      "postcode": "2350-728",
      "city": "TORRES NOVAS",
      "lon": "-8.542862680092856",
      "lat": "39.479067853513655"
    },
    {
      "id": "pt.ine.add.PTCONT.4509824",
      "street": "TV QUINCHOSO",
      "house": "6",
      "postcode": "2350-728",
      "city": "TORRES NOVAS",
      "lon": "-8.5430943860049",
      "lat": "39.478940939301"
    },
    {
      "id": "pt.ine.add.PTCONT.4511844",
      "street": "CC CANITOS",
      "house": "16",
      "postcode": "2350-521",
      "city": "TORRES NOVAS",
      "lon": "-8.54184784898767",
      "lat": "39.47844093748087"
    },
    {
      "id": "pt.ine.add.PTCONT.4511845",
      "street": "CC CANITOS",
      "house": "16",
      "postcode": "2350-521",
      "city": "TORRES NOVAS",
      "lon": "-8.54184784898767",
      "lat": "39.47844093748087"
    },
    {
      "id": "pt.ine.add.PTCONT.4512811",
      "street": "CC CANITOS",
      "house": "16",
      "postcode": "2350-521",
      "city": "TORRES NOVAS",
      "lon": "-8.54184784898767",
      "lat": "39.47844093748087"
    },
    {
      "id": "pt.ine.add.PTCONT.4512812",
      "street": "CC CANITOS",
      "house": "16",
      "postcode": "2350-521",
      "city": "TORRES NOVAS",
      "lon": "-8.54184784898767",
      "lat": "39.47844093748087"
    },
    {
      "id": "pt.ine.add.PTCONT.4512813",
      "street": "CC CANITOS",
      "house": "16",
      "postcode": "2350-521",
      "city": "TORRES NOVAS",
      "lon": "-8.54184784898767",
      "lat": "39.47844093748087"
    },
    {
      "id": "pt.ine.add.PTCONT.4512814",
      "street": "CC CANITOS",
      "house": "16",
      "postcode": "2350-521",
      "city": "TORRES NOVAS",
      "lon": "-8.54184784898767",
      "lat": "39.47844093748087"
    },
    {
      "id": "pt.ine.add.PTCONT.4513135",
      "street": "CC CANITOS",
      "house": "16",
      "postcode": "2350-521",
      "city": "TORRES NOVAS",
      "lon": "-8.54184784898767",
      "lat": "39.47844093748087"
    },
    {
      "id": "pt.ine.add.PTCONT.4516854",
      "street": "R DIREITA DE S PEDRO",
      "house": "75",
      "postcode": "2350-764",
      "city": "TORRES NOVAS",
      "lon": "-8.54344448352188",
      "lat": "39.479182892478846"
    },
    {
      "id": "pt.ine.add.PTCONT.4521066",
      "street": "R CANITOS",
      "house": "24",
      "postcode": "2350-521",
      "city": "TORRES NOVAS",
      "lon": "-8.542449616886245",
      "lat": "39.47799747935735"
    },
    {
      "id": "pt.ine.add.PTCONT.4521445",
      "street": "R DIREITA DE S PEDRO",
      "house": "63",
      "postcode": "2350-764",
      "city": "TORRES NOVAS",
      "lon": "-8.542991318447854",
      "lat": "39.47920250462843"
    },
    {
      "id": "pt.ine.add.PTCONT.4522469",
      "street": "R MIGUEL DE ARNIDE",
      "house": "721",
      "postcode": "2350-522",
      "city": "TORRES NOVAS",
      "lon": "-8.542623948862802",
      "lat": "39.477996865550395"
    },
    {
      "id": "pt.ine.add.PTCONT.4522470",
      "street": "R MIGUEL DE ARNIDE",
      "house": "721",
      "postcode": "2350-522",
      "city": "TORRES NOVAS",
      "lon": "-8.542623948862802",
      "lat": "39.477996865550395"
    },
    {
      "id": "pt.ine.add.PTCONT.4522471",
      "street": "R MIGUEL DE ARNIDE",
      "house": "721",
      "postcode": "2350-522",
      "city": "TORRES NOVAS",
      "lon": "-8.542623948862802",
      "lat": "39.477996865550395"
    },
    {
      "id": "pt.ine.add.PTCONT.4527286",
      "street": "TV QUINCHOSO",
      "house": "",
      "postcode": "2350-728",
      "city": "TORRES NOVAS",
      "lon": "-8.542954865688506",
      "lat": "39.478932424162515"
    },
    {
      "id": "pt.ine.add.PTCONT.4527287",
      "street": "R SACO",
      "house": "18",
      "postcode": "2350-583",
      "city": "TORRES NOVAS",
      "lon": "-8.545508736521986",
      "lat": "39.478409997923144"
    },
    {
      "id": "pt.ine.add.PTCONT.4533108",
      "street": "R DIREITA DE S PEDRO",
      "house": "73",
      "postcode": "2350-764",
      "city": "TORRES NOVAS",
      "lon": "-8.543328471871433",
      "lat": "39.47921932965517"
    },
    {
      "id": "pt.ine.add.PTCONT.4533692",
      "street": "R DIREITA DE S PEDRO",
      "house": "55",
      "postcode": "2350-764",
      "city": "TORRES NOVAS",
      "lon": "-8.542758871809136",
      "lat": "39.47920332373471"
    },
    {
      "id": "pt.ine.add.PTCONT.4534486",
      "street": "TV QUINCHOSO",
      "house": "4",
      "postcode": "2350-728",
      "city": "TORRES NOVAS",
      "lon": "-8.542106755183244",
      "lat": "39.478989452049476"
    },
    {
      "id": "pt.ine.add.PTCONT.4534487",
      "street": "TV QUINCHOSO",
      "house": "4",
      "postcode": "2350-728",
      "city": "TORRES NOVAS",
      "lon": "-8.542106755183244",
      "lat": "39.478989452049476"
    },
    {
      "id": "pt.ine.add.PTCONT.4534488",
      "street": "TV QUINCHOSO",
      "house": "4",
      "postcode": "2350-728",
      "city": "TORRES NOVAS",
      "lon": "-8.542106755183244",
      "lat": "39.478989452049476"
    },
    {
      "id": "pt.ine.add.PTCONT.4534489",
      "street": "R DTA S PEDRO",
      "house": "25",
      "postcode": "2350-728",
      "city": "TORRES NOVAS",
      "lon": "-8.542106755183244",
      "lat": "39.478989452049476"
    },
    {
      "id": "pt.ine.add.PTCONT.4534490",
      "street": "CANTO DO QUINCHOSO",
      "house": "",
      "postcode": "2350-728",
      "city": "TORRES NOVAS",
      "lon": "-8.543594726719187",
      "lat": "39.47903825077518"
    },
    {
      "id": "pt.ine.add.PTCONT.4535444",
      "street": "LG GEN HUMBERTO DELGADO",
      "house": "64",
      "postcode": "2350-583",
      "city": "TORRES NOVAS",
      "lon": "-8.544658246139162",
      "lat": "39.47806173938609"
    },
    {
      "id": "pt.ine.add.PTCONT.4535758",
      "street": "TV QUINCHOSO",
      "house": "4",
      "postcode": "2350-728",
      "city": "TORRES NOVAS",
      "lon": "-8.542106755183244",
      "lat": "39.478989452049476"
    },
    {
      "id": "pt.ine.add.PTCONT.4536761",
      "street": "R SACO",
      "house": "",
      "postcode": "2350-583",
      "city": "TORRES NOVAS",
      "lon": "-8.545380732852111",
      "lat": "39.478383430918186"
    },
    {
      "id": "pt.ine.add.PTCONT.4538856",
      "street": "R DIREITA DE S PEDRO",
      "house": "71",
      "postcode": "2350-764",
      "city": "TORRES NOVAS",
      "lon": "-8.543200679086604",
      "lat": "39.47922878737013"
    },
    {
      "id": "pt.ine.add.PTCONT.4553160",
      "street": "R DIREITA DE S PEDRO",
      "house": "25",
      "postcode": "2350-764",
      "city": "TORRES NOVAS",
      "lon": "-8.542142096859733",
      "lat": "39.479070390426486"
    },
    {
      "id": "pt.ine.add.PTCONT.4554958",
      "street": "LG QUINCHOSO",
      "house": "35",
      "postcode": "2350-728",
      "city": "TORRES NOVAS",
      "lon": "-8.542199469757174",
      "lat": "39.478944091087"
    },
    {
      "id": "pt.ine.add.PTCONT.4561586",
      "street": "R SACO",
      "house": "22",
      "postcode": "2350-583",
      "city": "TORRES NOVAS",
      "lon": "-8.54556700708546",
      "lat": "39.47843681214968"
    },
    {
      "id": "pt.ine.add.PTCONT.4561587",
      "street": "R SACO",
      "house": "20",
      "postcode": "2350-583",
      "city": "TORRES NOVAS",
      "lon": "-8.54556700708546",
      "lat": "39.47843681214968"
    },
    {
      "id": "pt.ine.add.PTCONT.4566838",
      "street": "R DIREITA DE S PEDRO",
      "house": "45",
      "postcode": "2350-764",
      "city": "TORRES NOVAS",
      "lon": "-8.542246908726977",
      "lat": "39.4791060495599"
    },
    {
      "id": "pt.ine.add.PTCONT.4567889",
      "street": "R SACO",
      "house": "",
      "postcode": "2350-583",
      "city": "TORRES NOVAS",
      "lon": "-8.545310840216521",
      "lat": "39.47835665779606"
    },
    {
      "id": "pt.ine.add.PTCONT.4572137",
      "street": "R MIGUEL DE ARNIDE",
      "house": "98",
      "postcode": "2350-522",
      "city": "TORRES NOVAS",
      "lon": "-8.5441114224948",
      "lat": "39.47796459676339"
    },
    {
      "id": "pt.ine.add.PTCONT.4572138",
      "street": "R MIGUEL DE ARNIDE",
      "house": "98",
      "postcode": "2350-522",
      "city": "TORRES NOVAS",
      "lon": "-8.5441114224948",
      "lat": "39.47796459676339"
    },
    {
      "id": "pt.ine.add.PTCONT.4572139",
      "street": "LG GEN HUMBERTO DELGADO",
      "house": "15",
      "postcode": "2350-522",
      "city": "TORRES NOVAS",
      "lon": "-8.544553222380115",
      "lat": "39.47799005530375"
    },
    {
      "id": "pt.ine.add.PTCONT.4578130",
      "street": "LG QUINCHOSO",
      "house": "4",
      "postcode": "2350-728",
      "city": "TORRES NOVAS",
      "lon": "-8.542371534432245",
      "lat": "39.478556186108605"
    },
    {
      "id": "pt.ine.add.PTCONT.4578131",
      "street": "LG QUINCHOSO",
      "house": "4",
      "postcode": "2350-728",
      "city": "TORRES NOVAS",
      "lon": "-8.542371534432245",
      "lat": "39.478556186108605"
    },
    {
      "id": "pt.ine.add.PTCONT.4578132",
      "street": "LG QUINCHOSO",
      "house": "4",
      "postcode": "2350-728",
      "city": "TORRES NOVAS",
      "lon": "-8.542371534432245",
      "lat": "39.478556186108605"
    },
    {
      "id": "pt.ine.add.PTCONT.4578133",
      "street": "LG QUINCHOSO",
      "house": "4",
      "postcode": "2350-728",
      "city": "TORRES NOVAS",
      "lon": "-8.542371534432245",
      "lat": "39.478556186108605"
    },
    {
      "id": "pt.ine.add.PTCONT.4590812",
      "street": "R DIREITA DE S PEDRO",
      "house": "51",
      "postcode": "2350-764",
      "city": "TORRES NOVAS",
      "lon": "-8.542677462660164",
      "lat": "39.47919460353332"
    },
    {
      "id": "pt.ine.add.PTCONT.4590813",
      "street": "R MIGUEL ARNIDE",
      "house": "100",
      "postcode": "2350-522",
      "city": "TORRES NOVAS",
      "lon": "-8.54419304244431",
      "lat": "39.47800934308525"
    },
    {
      "id": "pt.ine.add.PTCONT.4596676",
      "street": "R DIREITA DE S PEDRO",
      "house": "91",
      "postcode": "2350-764",
      "city": "TORRES NOVAS",
      "lon": "-8.543839536706502",
      "lat": "39.47916348383737"
    },
    {
      "id": "pt.ine.add.PTCONT.4596784",
      "street": "R DIREITA DE S PEDRO",
      "house": "91",
      "postcode": "2350-764",
      "city": "TORRES NOVAS",
      "lon": "-8.543839536706502",
      "lat": "39.47916348383737"
    },
    {
      "id": "pt.ine.add.PTCONT.4596785",
      "street": "R DIREITA DE S PEDRO",
      "house": "91",
      "postcode": "2350-764",
      "city": "TORRES NOVAS",
      "lon": "-8.543839536706502",
      "lat": "39.47916348383737"
    },
    {
      "id": "pt.ine.add.PTCONT.4599080",
      "street": "R DIREITA DE S PEDRO",
      "house": "87",
      "postcode": "2350-764",
      "city": "TORRES NOVAS",
      "lon": "-8.543781478051855",
      "lat": "39.479172695858836"
    },
    {
      "id": "pt.ine.add.PTCONT.4599081",
      "street": "R DIREITA DE S PEDRO",
      "house": "87",
      "postcode": "2350-764",
      "city": "TORRES NOVAS",
      "lon": "-8.543781478051855",
      "lat": "39.479172695858836"
    },
    {
      "id": "pt.ine.add.PTCONT.4599082",
      "street": "R DIREITA DE S PEDRO",
      "house": "87",
      "postcode": "2350-764",
      "city": "TORRES NOVAS",
      "lon": "-8.543781478051855",
      "lat": "39.479172695858836"
    },
    {
      "id": "pt.ine.add.PTCONT.4599083",
      "street": "CANTO QUINCHOSO",
      "house": "16",
      "postcode": "2350-728",
      "city": "TORRES NOVAS",
      "lon": "-8.543130204729888",
      "lat": "39.479102938379384"
    },
    {
      "id": "pt.ine.add.PTCONT.4599084",
      "street": "R MIGUEL DE ARNIDE",
      "house": "88",
      "postcode": "2350-522",
      "city": "TORRES NOVAS",
      "lon": "-8.543470935482011",
      "lat": "39.47775069156591"
    },
    {
      "id": "pt.ine.add.PTCONT.4604035",
      "street": "R SACO",
      "house": "22",
      "postcode": "2350-583",
      "city": "TORRES NOVAS",
      "lon": "-8.545625224491562",
      "lat": "39.47845461957"
    },
    {
      "id": "pt.ine.add.PTCONT.4606138",
      "street": "R MIGUEL DE ARNIDE",
      "house": "100",
      "postcode": "2350-522",
      "city": "TORRES NOVAS",
      "lon": "-8.54415796400263",
      "lat": "39.477973439221905"
    },
    {
      "id": "pt.ine.add.PTCONT.4609468",
      "street": "R SACO",
      "house": "10",
      "postcode": "2350-583",
      "city": "TORRES NOVAS",
      "lon": "-8.545147810747556",
      "lat": "39.478303193790296"
    },
    {
      "id": "pt.ine.add.PTCONT.4616732",
      "street": "R MIGUEL DE ARNIDE",
      "house": "92",
      "postcode": "2350-522",
      "city": "TORRES NOVAS",
      "lon": "-8.543714893445582",
      "lat": "39.47773181646406"
    },
    {
      "id": "pt.ine.add.PTCONT.4618188",
      "street": "R DIREITA DE S PEDRO",
      "house": "63",
      "postcode": "2350-764",
      "city": "TORRES NOVAS",
      "lon": "-8.543014774578014",
      "lat": "39.47923844980589"
    },
    {
      "id": "pt.ine.add.PTCONT.4619940",
      "street": "R MIGUEL DE ARNIDE",
      "house": "80",
      "postcode": "2350-522",
      "city": "TORRES NOVAS",
      "lon": "-8.543122801568915",
      "lat": "39.477841989256696"
    },
    {
      "id": "pt.ine.add.PTCONT.4619941",
      "street": "R MIGUEL DE ARNIDE",
      "house": "80",
      "postcode": "2350-522",
      "city": "TORRES NOVAS",
      "lon": "-8.543122801568915",
      "lat": "39.477841989256696"
    },
    {
      "id": "pt.ine.add.PTCONT.4619942",
      "street": "R MIGUEL DE ARNIDE",
      "house": "80",
      "postcode": "2350-522",
      "city": "TORRES NOVAS",
      "lon": "-8.543122801568915",
      "lat": "39.477841989256696"
    },
    {
      "id": "pt.ine.add.PTCONT.4622048",
      "street": "CANTO DO QUINCHOSO",
      "house": "17",
      "postcode": "2350-728",
      "city": "TORRES NOVAS",
      "lon": "-8.543002412129166",
      "lat": "39.479112395875674"
    },
    {
      "id": "pt.ine.add.PTCONT.4624117",
      "street": "R SACO",
      "house": "",
      "postcode": "2350-583",
      "city": "TORRES NOVAS",
      "lon": "-8.545264245155751",
      "lat": "39.47833880902443"
    },
    {
      "id": "pt.ine.add.PTCONT.4629032",
      "street": "R DIREITA DE S PEDRO",
      "house": "81",
      "postcode": "2350-764",
      "city": "TORRES NOVAS",
      "lon": "-8.543525892748294",
      "lat": "39.479191612142834"
    },
    {
      "id": "pt.ine.add.PTCONT.4630206",
      "street": "TV QUINCHOSO",
      "house": "12",
      "postcode": "2350-728",
      "city": "TORRES NOVAS",
      "lon": "-8.543361857355952",
      "lat": "39.47896701685791"
    },
    {
      "id": "pt.ine.add.PTCONT.4631715",
      "street": "R SACO",
      "house": "",
      "postcode": "2350-583",
      "city": "TORRES NOVAS",
      "lon": "-8.545194405755135",
      "lat": "39.478321042608975"
    },
    {
      "id": "pt.ine.add.PTCONT.4634385",
      "street": "R MIGUEL DE ARNIDE",
      "house": "102",
      "postcode": "2350-522",
      "city": "TORRES NOVAS",
      "lon": "-8.544262510105531",
      "lat": "39.47796406265369"
    },
    {
      "id": "pt.ine.add.PTCONT.4641274",
      "street": "R MIGUEL DE ARNIDE",
      "house": "72B",
      "postcode": "2350-522",
      "city": "TORRES NOVAS",
      "lon": "-8.542774983738013",
      "lat": "39.47798732659236"
    },
    {
      "id": "pt.ine.add.PTCONT.4641275",
      "street": "R MIGUEL DE ARNIDE",
      "house": "72B",
      "postcode": "2350-522",
      "city": "TORRES NOVAS",
      "lon": "-8.542774983738013",
      "lat": "39.47798732659236"
    },
    {
      "id": "pt.ine.add.PTCONT.4641276",
      "street": "R MIGUEL DE ARNIDE",
      "house": "72B",
      "postcode": "2350-522",
      "city": "TORRES NOVAS",
      "lon": "-8.542774983738013",
      "lat": "39.47798732659236"
    },
    {
      "id": "pt.ine.add.PTCONT.4641277",
      "street": "R MIGUEL DE ARNIDE",
      "house": "72B",
      "postcode": "2350-522",
      "city": "TORRES NOVAS",
      "lon": "-8.542774983738013",
      "lat": "39.47798732659236"
    },
    {
      "id": "pt.ine.add.PTCONT.4648700",
      "street": "R SACO",
      "house": "6",
      "postcode": "2350-583",
      "city": "TORRES NOVAS",
      "lon": "-8.54496164341803",
      "lat": "39.478267825437904"
    },
    {
      "id": "pt.ine.add.PTCONT.4654960",
      "street": "LG GEN HUMBERTO DELGADO",
      "house": "66",
      "postcode": "2350-522",
      "city": "TORRES NOVAS",
      "lon": "-8.544588354099794",
      "lat": "39.47803496582509"
    }
  ]
}