{
  "data": {
    "distrito": "Guarda",
    "concelho": "Mêda",
    "freguesia": "Mêda, Outeiro de Gatos e Fonte Longa",
    "OBJECTID": 259,
    "BGRI2021": "09091700203",
    "DT21": "09",
    "DTMN21": "0909",
    "DTMNFR21": "090917",
    "DTMNFRSEC21": "090917002",
    "SECNUM21": "002",
    "SSNUM21": "03",
    "SECSSNUM21": "00203",
    "OBJECTID_1": 79491,
    "DT": "09",
    "CC": "09",
    "fr": "17",
    "SEC": "002",
    "SS": "03"
  },
  "addresses": [
    {
      "id": "pt.ine.add.PTCONT.1901102",
      "street": "R DR SILVINA ALMEIDA",
      "house": "",
      "postcode": "6430-102",
      "city": "MEDA",
      "lon": "-7.255486822038487",
      "lat": "40.964377793545886"
    },
    {
      "id": "pt.ine.add.PTCONT.1904896",
      "street": "R DR SILVINA ALMEIDA",
      "house": "",
      "postcode": "6430-102",
      "city": "MEDA",
      "lon": "-7.255583942213844",
      "lat": "40.96511690516581"
    },
    {
      "id": "pt.ine.add.PTCONT.1904897",
      "street": "R DR SILVINA ALMEIDA",
      "house": "",
      "postcode": "6430-102",
      "city": "MEDA",
      "lon": "-7.255583942213844",
      "lat": "40.96511690516581"
    },
    {
      "id": "pt.ine.add.PTCONT.1911399",
      "street": "R JOÃO PERDIGÃO",
      "house": "",
      "postcode": "6430-102",
      "city": "MEDA",
      "lon": "-7.25566355855985",
      "lat": "40.964487193321915"
    },
    {
      "id": "pt.ine.add.PTCONT.1926092",
      "street": "R JOÃO PERDIGÃO",
      "house": "",
      "postcode": "6430-102",
      "city": "MEDA",
      "lon": "-7.2557268357063505",
      "lat": "40.96509097912671"
    },
    {
      "id": "pt.ine.add.PTCONT.1936626",
      "street": "R DR SILVINA ALMEIDA",
      "house": "",
      "postcode": "6430-102",
      "city": "MEDA",
      "lon": "-7.255516849308259",
      "lat": "40.96480123554381"
    },
    {
      "id": "pt.ine.add.PTCONT.1946392",
      "street": "R JOÃO PERDIGÃO",
      "house": "11",
      "postcode": "6430-102",
      "city": "MEDA",
      "lon": "-7.255728028264807",
      "lat": "40.96500094280103"
    },
    {
      "id": "pt.ine.add.PTCONT.1952347",
      "street": "R JOÃO PERDIGÃO",
      "house": "",
      "postcode": "6430-102",
      "city": "MEDA",
      "lon": "-7.25568469057794",
      "lat": "40.96468545405538"
    },
    {
      "id": "pt.ine.add.PTCONT.1952348",
      "street": "R JOÃO PERDIGÃO",
      "house": "91",
      "postcode": "6430-102",
      "city": "MEDA",
      "lon": "-7.255618909535962",
      "lat": "40.96427074450027"
    },
    {
      "id": "pt.ine.add.PTCONT.1960824",
      "street": "R DR SILVINA ALMEIDA",
      "house": "102",
      "postcode": "6430-102",
      "city": "MEDA",
      "lon": "-7.255464259237919",
      "lat": "40.9642875763712"
    },
    {
      "id": "pt.ine.add.PTCONT.1964411",
      "street": "R DR SILVINA ALMEIDA",
      "house": "",
      "postcode": "6430-102",
      "city": "MEDA",
      "lon": "-7.2555508131624125",
      "lat": "40.96492755764796"
    },
    {
      "id": "pt.ine.add.PTCONT.1964412",
      "street": "R DR SILVINA ALMEIDA",
      "house": "",
      "postcode": "6430-102",
      "city": "MEDA",
      "lon": "-7.2555508131624125",
      "lat": "40.96492755764796"
    },
    {
      "id": "pt.ine.add.PTCONT.1974029",
      "street": "R DR SILVINA ALMEIDA",
      "house": "",
      "postcode": "6430-102",
      "city": "MEDA",
      "lon": "-7.255549739646046",
      "lat": "40.965008590338336"
    },
    {
      "id": "pt.ine.add.PTCONT.1975039",
      "street": "R DR SILVINA ALMEIDA",
      "house": "",
      "postcode": "6430-102",
      "city": "MEDA",
      "lon": "-7.255420803922882",
      "lat": "40.96398109113863"
    },
    {
      "id": "pt.ine.add.PTCONT.1977021",
      "street": "R JOÃO PERDIGÃO",
      "house": "",
      "postcode": "6430-102",
      "city": "MEDA",
      "lon": "-7.255597300747429",
      "lat": "40.964108498278975"
    },
    {
      "id": "pt.ine.add.PTCONT.1854400",
      "street": "R JOÃO PERDIGÃO",
      "house": "",
      "postcode": "6430-102",
      "city": "MEDA",
      "lon": "-7.255641353277683",
      "lat": "40.964369965280476"
    },
    {
      "id": "pt.ine.add.PTCONT.1863392",
      "street": "R ANTÓNIO BRANDÃO",
      "house": "",
      "postcode": "6430-102",
      "city": "MEDA",
      "lon": "-7.255469865734472",
      "lat": "40.9638644055985"
    },
    {
      "id": "pt.ine.add.PTCONT.1866309",
      "street": "R JOÃO PERDIGÃO",
      "house": "",
      "postcode": "6430-102",
      "city": "MEDA",
      "lon": "-7.255695256630523",
      "lat": "40.96478458441858"
    },
    {
      "id": "pt.ine.add.PTCONT.1867961",
      "street": "R JOÃO PERDIGÃO",
      "house": "",
      "postcode": "6430-102",
      "city": "MEDA",
      "lon": "-7.255564768477096",
      "lat": "40.963874132566964"
    },
    {
      "id": "pt.ine.add.PTCONT.1871220",
      "street": "R JOÃO PERDIGÃO",
      "house": "",
      "postcode": "6430-102",
      "city": "MEDA",
      "lon": "-7.255673647509301",
      "lat": "40.96462233822235"
    },
    {
      "id": "pt.ine.add.PTCONT.1872348",
      "street": "R JOÃO PERDIGÃO",
      "house": "121",
      "postcode": "6430-102",
      "city": "MEDA",
      "lon": "-7.255575453514001",
      "lat": "40.96396425931801"
    },
    {
      "id": "pt.ine.add.PTCONT.1880814",
      "street": "R JOÃO PERDIGÃO",
      "house": "51",
      "postcode": "6430-102",
      "city": "MEDA",
      "lon": "-7.255705584195824",
      "lat": "40.96490172204499"
    }
  ]
}