{
  "data": {
    "distrito": "Coimbra",
    "concelho": "Coimbra",
    "freguesia": "Uni√£o das freguesias de Trouxemil e Torre de Vilela",
    "OBJECTID": 1589,
    "BGRI2021": "06034100220",
    "DT21": "06",
    "DTMN21": "0603",
    "DTMNFR21": "060341",
    "DTMNFRSEC21": "060341002",
    "SECNUM21": "002",
    "SSNUM21": "20",
    "SECSSNUM21": "00220",
    "OBJECTID_1": 49307,
    "DT": "06",
    "CC": "03",
    "fr": "41",
    "SEC": "002",
    "SS": "20"
  },
  "addresses": [
    {
      "id": "pt.ine.add.PTCONT.1127422",
      "street": "R NSA SRA DAS NEVES",
      "house": "23",
      "postcode": "3025-003",
      "city": "COIMBRA",
      "lon": "-8.454630004266756",
      "lat": "40.276345417124624"
    },
    {
      "id": "pt.ine.add.PTCONT.1141646",
      "street": "R NSA SRA DAS NEVES",
      "house": "17",
      "postcode": "3025-003",
      "city": "COIMBRA",
      "lon": "-8.454439705453826",
      "lat": "40.27588665275917"
    },
    {
      "id": "pt.ine.add.PTCONT.1142841",
      "street": "R AROICA",
      "house": "20A",
      "postcode": "3025-138",
      "city": "COIMBRA",
      "lon": "-8.455957392771897",
      "lat": "40.27608055459349"
    },
    {
      "id": "pt.ine.add.PTCONT.1147670",
      "street": "R AROICA",
      "house": "6",
      "postcode": "3025-138",
      "city": "COIMBRA",
      "lon": "-8.455764046669804",
      "lat": "40.27498239294559"
    },
    {
      "id": "pt.ine.add.PTCONT.1161939",
      "street": "R QUEBRA COSTAS",
      "house": "5",
      "postcode": "3025-208",
      "city": "COIMBRA",
      "lon": "-8.454649595391448",
      "lat": "40.27551683414898"
    },
    {
      "id": "pt.ine.add.PTCONT.1161943",
      "street": "R AROICA",
      "house": "32A",
      "postcode": "3025-138",
      "city": "COIMBRA",
      "lon": "-8.456548197912454",
      "lat": "40.276691295267774"
    },
    {
      "id": "pt.ine.add.PTCONT.1174882",
      "street": "R FONTE GRANDE",
      "house": "3",
      "postcode": "3025-076",
      "city": "COIMBRA",
      "lon": "-8.455492382612846",
      "lat": "40.274721983490004"
    },
    {
      "id": "pt.ine.add.PTCONT.1194927",
      "street": "R NSA SRA DAS NEVES",
      "house": "",
      "postcode": "3025-003",
      "city": "COIMBRA",
      "lon": "-8.456374231813175",
      "lat": "40.27719610302654"
    },
    {
      "id": "pt.ine.add.PTCONT.1194928",
      "street": "LG 5 DE OUTUBRO",
      "house": "14",
      "postcode": "3025-155",
      "city": "COIMBRA",
      "lon": "-8.454319827207154",
      "lat": "40.275400675342034"
    },
    {
      "id": "pt.ine.add.PTCONT.1202974",
      "street": "R AROICA",
      "house": "14",
      "postcode": "3025-138",
      "city": "COIMBRA",
      "lon": "-8.456531505720791",
      "lat": "40.2756556813285"
    },
    {
      "id": "pt.ine.add.PTCONT.1209822",
      "street": "R NOSSO SENHOR DOS AFLITOS",
      "house": "41",
      "postcode": "3025-004",
      "city": "COIMBRA",
      "lon": "-8.454634653773295",
      "lat": "40.27732703025379"
    },
    {
      "id": "pt.ine.add.PTCONT.1216110",
      "street": "R NSA SRA DAS NEVES",
      "house": "35",
      "postcode": "3025-003",
      "city": "COIMBRA",
      "lon": "-8.454620763057695",
      "lat": "40.2768767816933"
    },
    {
      "id": "pt.ine.add.PTCONT.1222129",
      "street": "R NSA SRA DAS NEVES",
      "house": "3",
      "postcode": "3025-003",
      "city": "COIMBRA",
      "lon": "-8.454344109551153",
      "lat": "40.27556271135599"
    },
    {
      "id": "pt.ine.add.PTCONT.1222900",
      "street": "R QUEBRA COSTAS",
      "house": "8",
      "postcode": "3025-208",
      "city": "COIMBRA",
      "lon": "-8.454426583669544",
      "lat": "40.27559850534792"
    },
    {
      "id": "pt.ine.add.PTCONT.1229318",
      "street": "R FONTE GRANDE",
      "house": "17",
      "postcode": "3025-076",
      "city": "COIMBRA",
      "lon": "-8.45474276055417",
      "lat": "40.27532745456397"
    },
    {
      "id": "pt.ine.add.PTCONT.1237419",
      "street": "R NSA SRA DAS NEVES",
      "house": "21",
      "postcode": "3025-003",
      "city": "COIMBRA",
      "lon": "-8.45488846228461",
      "lat": "40.276299669953175"
    },
    {
      "id": "pt.ine.add.PTCONT.1251909",
      "street": "R AROICA",
      "house": "20",
      "postcode": "3025-138",
      "city": "COIMBRA",
      "lon": "-8.455663363517012",
      "lat": "40.27606336310322"
    },
    {
      "id": "pt.ine.add.PTCONT.1256222",
      "street": "R AROICA",
      "house": "24",
      "postcode": "3025-138",
      "city": "COIMBRA",
      "lon": "-8.456475248397556",
      "lat": "40.27618717749576"
    },
    {
      "id": "pt.ine.add.PTCONT.1259215",
      "street": "R NSA SRA DAS NEVES",
      "house": "17",
      "postcode": "3025-003",
      "city": "COIMBRA",
      "lon": "-8.455927472931853",
      "lat": "40.27720635602843"
    },
    {
      "id": "pt.ine.add.PTCONT.1261466",
      "street": "R QUEBRA COSTAS",
      "house": "1",
      "postcode": "3025-208",
      "city": "COIMBRA",
      "lon": "-8.4546015838424",
      "lat": "40.27530983540019"
    },
    {
      "id": "pt.ine.add.PTCONT.1262541",
      "street": "R NOSSO SENHOR DOS AFLITOS",
      "house": "37",
      "postcode": "3025-004",
      "city": "COIMBRA",
      "lon": "-8.455664732859338",
      "lat": "40.2763515431066"
    },
    {
      "id": "pt.ine.add.PTCONT.1267212",
      "street": "R AROICA",
      "house": "2",
      "postcode": "3025-138",
      "city": "COIMBRA",
      "lon": "-8.455692345898544",
      "lat": "40.274739437699935"
    },
    {
      "id": "pt.ine.add.PTCONT.1273402",
      "street": "R NSA SRA DAS NEVES",
      "house": "27",
      "postcode": "3025-003",
      "city": "COIMBRA",
      "lon": "-8.454630985336275",
      "lat": "40.27655254651445"
    },
    {
      "id": "pt.ine.add.PTCONT.1281341",
      "street": "R NSA SRA DAS NEVES",
      "house": "25",
      "postcode": "3025-003",
      "city": "COIMBRA",
      "lon": "-8.456773958799626",
      "lat": "40.277185979866026"
    },
    {
      "id": "pt.ine.add.PTCONT.1288552",
      "street": "R AROICA",
      "house": "22",
      "postcode": "3025-138",
      "city": "COIMBRA",
      "lon": "-8.456698345415633",
      "lat": "40.27612351360745"
    },
    {
      "id": "pt.ine.add.PTCONT.1291876",
      "street": "R NSA SRA DAS NEVES",
      "house": "19",
      "postcode": "3025-003",
      "city": "COIMBRA",
      "lon": "-8.454676523509546",
      "lat": "40.276237218922276"
    },
    {
      "id": "pt.ine.add.PTCONT.1297151",
      "street": "LG 5 DE OUTUBRO",
      "house": "11",
      "postcode": "3025-155",
      "city": "COIMBRA",
      "lon": "-8.454425475377585",
      "lat": "40.27536435903717"
    },
    {
      "id": "pt.ine.add.PTCONT.1297152",
      "street": "LG 5 DE OUTUBRO",
      "house": "11",
      "postcode": "3025-155",
      "city": "COIMBRA",
      "lon": "-8.454425475377585",
      "lat": "40.27536435903717"
    },
    {
      "id": "pt.ine.add.PTCONT.1298079",
      "street": "R AROICA",
      "house": "28",
      "postcode": "3025-138",
      "city": "COIMBRA",
      "lon": "-8.456852656493403",
      "lat": "40.27642927727193"
    },
    {
      "id": "pt.ine.add.PTCONT.1299838",
      "street": "R AROICA",
      "house": "32",
      "postcode": "3025-138",
      "city": "COIMBRA",
      "lon": "-8.456994867356228",
      "lat": "40.276663028635575"
    },
    {
      "id": "pt.ine.add.PTCONT.1302314",
      "street": "TV CEREJEIRA",
      "house": "4",
      "postcode": "3025-153",
      "city": "COIMBRA",
      "lon": "-8.455577679691904",
      "lat": "40.27535214805123"
    },
    {
      "id": "pt.ine.add.PTCONT.1302315",
      "street": "R AROICA",
      "house": "4",
      "postcode": "3025-138",
      "city": "COIMBRA",
      "lon": "-8.455739761155252",
      "lat": "40.274820357225735"
    },
    {
      "id": "pt.ine.add.PTCONT.1303701",
      "street": "R QUEBRA COSTAS",
      "house": "3",
      "postcode": "3025-208",
      "city": "COIMBRA",
      "lon": "-8.454731472272973",
      "lat": "40.275426549144306"
    },
    {
      "id": "pt.ine.add.PTCONT.1308682",
      "street": "R NSA SRA DAS NEVES",
      "house": "15",
      "postcode": "3025-003",
      "city": "COIMBRA",
      "lon": "-8.455715829978907",
      "lat": "40.27720694628999"
    },
    {
      "id": "pt.ine.add.PTCONT.1332362",
      "street": "R NSA SRA DAS NEVES",
      "house": "25",
      "postcode": "3025-003",
      "city": "COIMBRA",
      "lon": "-8.454841772605471",
      "lat": "40.276371845736236"
    },
    {
      "id": "pt.ine.add.PTCONT.1354122",
      "street": "R NSA SRA DAS NEVES",
      "house": "37",
      "postcode": "3025-003",
      "city": "COIMBRA",
      "lon": "-8.454657060542898",
      "lat": "40.2770928186726"
    },
    {
      "id": "pt.ine.add.PTCONT.1364733",
      "street": "TV CEREJEIRA",
      "house": "2",
      "postcode": "3025-153",
      "city": "COIMBRA",
      "lon": "-8.455342612766099",
      "lat": "40.27537081439126"
    },
    {
      "id": "pt.ine.add.PTCONT.1366326",
      "street": "TV CEREJEIRA",
      "house": "6",
      "postcode": "3025-153",
      "city": "COIMBRA",
      "lon": "-8.455707527078273",
      "lat": "40.275459855065726"
    }
  ]
}