{
  "data": {
    "distrito": "Viana do Castelo",
    "concelho": "Valença",
    "freguesia": "União das freguesias de Gandra e Taião",
    "OBJECTID": 510,
    "BGRI2021": "16081700164",
    "DT21": "16",
    "DTMN21": "1608",
    "DTMNFR21": "160817",
    "DTMNFRSEC21": "160817001",
    "SECNUM21": "001",
    "SSNUM21": "64",
    "SECSSNUM21": "00164",
    "OBJECTID_1": 177445,
    "DT": "16",
    "CC": "08",
    "fr": "17",
    "SEC": "001",
    "SS": "64"
  },
  "addresses": [
    {
      "id": "pt.ine.add.PTCONT.5159416",
      "street": "R TRAVESSA CAP LOURENCO",
      "house": "2",
      "postcode": "4930-319",
      "city": "GANDRA VLN",
      "lon": "-8.617949987828984",
      "lat": "42.018363197150535"
    },
    {
      "id": "pt.ine.add.PTCONT.5178374",
      "street": "R SAMPAIO",
      "house": "2",
      "postcode": "4930-319",
      "city": "GANDRA VLN",
      "lon": "-8.618375552118442",
      "lat": "42.018757530893254"
    },
    {
      "id": "pt.ine.add.PTCONT.5191093",
      "street": "R DR VIRGILIO",
      "house": "14",
      "postcode": "4930-319",
      "city": "GANDRA VLN",
      "lon": "-8.616667664898204",
      "lat": "42.01802649229911"
    },
    {
      "id": "pt.ine.add.PTCONT.5213139",
      "street": "R DR VIRGILIO",
      "house": "",
      "postcode": "4930-319",
      "city": "GANDRA VLN",
      "lon": "-8.616283387927815",
      "lat": "42.016704668947014"
    },
    {
      "id": "pt.ine.add.PTCONT.5215685",
      "street": "TV FONTAINHA",
      "house": "3",
      "postcode": "4930-319",
      "city": "GANDRA VLN",
      "lon": "-8.617753539710154",
      "lat": "42.017931882645016"
    },
    {
      "id": "pt.ine.add.PTCONT.5226218",
      "street": "R DR VIRGILIO",
      "house": "",
      "postcode": "4930-319",
      "city": "GANDRA VLN",
      "lon": "-8.617526068611161",
      "lat": "42.01818492691608"
    },
    {
      "id": "pt.ine.add.PTCONT.5236771",
      "street": "TV FONTAINHA",
      "house": "1",
      "postcode": "4930-319",
      "city": "GANDRA VLN",
      "lon": "-8.61831265488595",
      "lat": "42.01842468572128"
    },
    {
      "id": "pt.ine.add.PTCONT.5247964",
      "street": "R DR VIRGILIO",
      "house": "",
      "postcode": "4930-319",
      "city": "GANDRA VLN",
      "lon": "-8.615913971351814",
      "lat": "42.017345436671405"
    },
    {
      "id": "pt.ine.add.PTCONT.5262455",
      "street": "TV FONTINHA",
      "house": "3",
      "postcode": "4930-319",
      "city": "GANDRA VLN",
      "lon": "-8.618195072793887",
      "lat": "42.01883932076023"
    }
  ]
}