{
  "data": {
    "distrito": "Beja",
    "concelho": "Beja",
    "freguesia": "São Matias",
    "OBJECTID": 396,
    "BGRI2021": "02051600120",
    "DT21": "02",
    "DTMN21": "0205",
    "DTMNFR21": "020516",
    "DTMNFRSEC21": "020516001",
    "SECNUM21": "001",
    "SSNUM21": "20",
    "SECSSNUM21": "00120",
    "OBJECTID_1": 13554,
    "DT": "02",
    "CC": "05",
    "fr": "16",
    "SEC": "001",
    "SS": "20"
  },
  "addresses": [
    {
      "id": "pt.ine.add.PTCONT.359958",
      "street": "MTE BAIAO",
      "house": "",
      "postcode": "7800-751",
      "city": "SÃO MATIAS BJA",
      "lon": "-7.847773607258864",
      "lat": "38.10764028571364"
    },
    {
      "id": "pt.ine.add.PTCONT.360778",
      "street": "MTE RUAZ",
      "house": "",
      "postcode": "7800-751",
      "city": "SÃO MATIAS BJA",
      "lon": "-7.847617669383866",
      "lat": "38.10962190917763"
    },
    {
      "id": "pt.ine.add.PTCONT.373745",
      "street": "MTE GOILAO",
      "house": "",
      "postcode": "7800-751",
      "city": "SÃO MATIAS BJA",
      "lon": "-7.844869889797309",
      "lat": "38.109579164161225"
    },
    {
      "id": "pt.ine.add.PTCONT.388979",
      "street": "MTE PARDIEIRO",
      "house": "",
      "postcode": "7800-751",
      "city": "SÃO MATIAS BJA",
      "lon": "-7.848803634252216",
      "lat": "38.10958874842215"
    },
    {
      "id": "pt.ine.add.PTCONT.394606",
      "street": "MTE FRANCISCO",
      "house": "",
      "postcode": "7800-751",
      "city": "SÃO MATIAS BJA",
      "lon": "-7.845865440529598",
      "lat": "38.10867168308686"
    },
    {
      "id": "pt.ine.add.PTCONT.408254",
      "street": "MTE BALANCHO",
      "house": "",
      "postcode": "7800-751",
      "city": "SÃO MATIAS BJA",
      "lon": "-7.84778694967542",
      "lat": "38.11007277533366"
    },
    {
      "id": "pt.ine.add.PTCONT.410112",
      "street": "MTE ZORRINHO",
      "house": "",
      "postcode": "7800-751",
      "city": "SÃO MATIAS BJA",
      "lon": "-7.845122505733901",
      "lat": "38.109129328620156"
    },
    {
      "id": "pt.ine.add.PTCONT.414116",
      "street": "MTE ANTÓNIO BAIAO",
      "house": "",
      "postcode": "7800-751",
      "city": "SÃO MATIAS BJA",
      "lon": "-7.847203795345575",
      "lat": "38.107566827774896"
    },
    {
      "id": "pt.ine.add.PTCONT.421586",
      "street": "MTE EDUARDO",
      "house": "",
      "postcode": "7800-751",
      "city": "SÃO MATIAS BJA",
      "lon": "-7.8491763844475395",
      "lat": "38.107553592825845"
    },
    {
      "id": "pt.ine.add.PTCONT.422940",
      "street": "MTE BALANCHO",
      "house": "",
      "postcode": "7800-751",
      "city": "SÃO MATIAS BJA",
      "lon": "-7.846291249067129",
      "lat": "38.11058265233866"
    },
    {
      "id": "pt.ine.add.PTCONT.438606",
      "street": "QTA AVO",
      "house": "",
      "postcode": "7800-751",
      "city": "SÃO MATIAS BJA",
      "lon": "-7.847785582949467",
      "lat": "38.11042412686327"
    },
    {
      "id": "pt.ine.add.PTCONT.442511",
      "street": "MTE BALANCHO",
      "house": "",
      "postcode": "7800-751",
      "city": "SÃO MATIAS BJA",
      "lon": "-7.847639071245475",
      "lat": "38.10998232515088"
    },
    {
      "id": "pt.ine.add.PTCONT.448195",
      "street": "MTE PARDIEIROS",
      "house": "",
      "postcode": "7800-751",
      "city": "SÃO MATIAS BJA",
      "lon": "-7.846799737711273",
      "lat": "38.10884513633522"
    },
    {
      "id": "pt.ine.add.PTCONT.449896",
      "street": "MTE RUAZ",
      "house": "",
      "postcode": "7800-751",
      "city": "SÃO MATIAS BJA",
      "lon": "-7.8478456776411765",
      "lat": "38.1096314720651"
    }
  ]
}