{
  "data": {
    "distrito": "Coimbra",
    "concelho": "Oliveira do Hospital",
    "freguesia": "Bobadela",
    "OBJECTID": 610,
    "BGRI2021": "06110400114",
    "DT21": "06",
    "DTMN21": "0611",
    "DTMNFR21": "061104",
    "DTMNFRSEC21": "061104001",
    "SECNUM21": "001",
    "SSNUM21": "14",
    "SECSSNUM21": "00114",
    "OBJECTID_1": 54939,
    "DT": "06",
    "CC": "11",
    "fr": "04",
    "SEC": "001",
    "SS": "14"
  },
  "addresses": [
    {
      "id": "pt.ine.add.PTCONT.1107339",
      "street": "R PROF MARIA NATÁLIA GAMEIRO AFONSO",
      "house": "21",
      "postcode": "3405-022",
      "city": "BOBADELA OHP",
      "lon": "-7.884275274212966",
      "lat": "40.36261892333411"
    },
    {
      "id": "pt.ine.add.PTCONT.1111403",
      "street": "R PROF MARIA NATÁLIA GAMEIRO AFONSO",
      "house": "1",
      "postcode": "3405-022",
      "city": "BOBADELA OHP",
      "lon": "-7.88410376093803",
      "lat": "40.36443768900921"
    },
    {
      "id": "pt.ine.add.PTCONT.1143502",
      "street": "R PROF MARIA NATÁLIA GAMEIRO AFONSO",
      "house": "15",
      "postcode": "3405-022",
      "city": "BOBADELA OHP",
      "lon": "-7.885289255830456",
      "lat": "40.36220684195126"
    },
    {
      "id": "pt.ine.add.PTCONT.1154477",
      "street": "R JOSÉ RODRIGUES SILVA",
      "house": "1",
      "postcode": "3405-022",
      "city": "BOBADELA OHP",
      "lon": "-7.8810519300109165",
      "lat": "40.36512451057048"
    },
    {
      "id": "pt.ine.add.PTCONT.1166488",
      "street": "R PROF MARIA NATÁLIA GAMEIRO AFONSO",
      "house": "17",
      "postcode": "3405-022",
      "city": "BOBADELA OHP",
      "lon": "-7.885194941685031",
      "lat": "40.36224266230442"
    },
    {
      "id": "pt.ine.add.PTCONT.1166489",
      "street": "R PROF MARIA NATÁLIA GAMEIRO AFONSO",
      "house": "17",
      "postcode": "3405-022",
      "city": "BOBADELA OHP",
      "lon": "-7.885194941685031",
      "lat": "40.36224266230442"
    },
    {
      "id": "pt.ine.add.PTCONT.1197789",
      "street": "R CAMPO FUTEBOL",
      "house": "11",
      "postcode": "3405-028",
      "city": "BOBADELA OHP",
      "lon": "-7.892940475054287",
      "lat": "40.362529174365335"
    },
    {
      "id": "pt.ine.add.PTCONT.1216465",
      "street": "R PROF MARIA NATÁLIA GAMEIRO AFONSO",
      "house": "13",
      "postcode": "3405-022",
      "city": "BOBADELA OHP",
      "lon": "-7.88544230188615",
      "lat": "40.36220716978437"
    },
    {
      "id": "pt.ine.add.PTCONT.1219128",
      "street": "LOTEAM DAS DEVESAS",
      "house": "12",
      "postcode": "3405-008",
      "city": "BOBADELA OHP",
      "lon": "-7.881440950555258",
      "lat": "40.364990273515815"
    },
    {
      "id": "pt.ine.add.PTCONT.1224602",
      "street": "R DO CAMPO DE FUTEBOL",
      "house": "",
      "postcode": "3405-028",
      "city": "BOBADELA OHP",
      "lon": "-7.888144889793302",
      "lat": "40.36363581335635"
    },
    {
      "id": "pt.ine.add.PTCONT.1252329",
      "street": "R PROF MARIA NATÁLIA GAMEIRO AFONSO",
      "house": "11",
      "postcode": "3405-022",
      "city": "BOBADELA OHP",
      "lon": "-7.886748620887478",
      "lat": "40.3623360384319"
    },
    {
      "id": "pt.ine.add.PTCONT.1268247",
      "street": "TV DAS DEVESAS",
      "house": "2",
      "postcode": "3405-022",
      "city": "BOBADELA OHP",
      "lon": "-7.882136841768852",
      "lat": "40.36464957230429"
    },
    {
      "id": "pt.ine.add.PTCONT.1279830",
      "street": "R DO CAMPO DE FUTEBOL",
      "house": "4",
      "postcode": "3405-028",
      "city": "BOBADELA OHP",
      "lon": "-7.892752749361431",
      "lat": "40.36234867197785"
    },
    {
      "id": "pt.ine.add.PTCONT.1282072",
      "street": "R JOSÉ RODRIGUES SILVA",
      "house": "5",
      "postcode": "3405-022",
      "city": "BOBADELA OHP",
      "lon": "-7.881206625274502",
      "lat": "40.36468357245342"
    },
    {
      "id": "pt.ine.add.PTCONT.1300484",
      "street": "R PROF MARIA NATÁLIA GAMEIRO AFONSO",
      "house": "19",
      "postcode": "3405-022",
      "city": "BOBADELA OHP",
      "lon": "-7.8844150922077025",
      "lat": "40.36301547130338"
    },
    {
      "id": "pt.ine.add.PTCONT.1301210",
      "street": "R CASIMIRO AUGUSTO RODRIGUES",
      "house": "1",
      "postcode": "3405-013",
      "city": "BOBADELA OHP",
      "lon": "-7.89202100684917",
      "lat": "40.362860469316566"
    },
    {
      "id": "pt.ine.add.PTCONT.1341395",
      "street": "R JOSÉ RODRIGUES SILVA",
      "house": "12",
      "postcode": "3405-022",
      "city": "BOBADELA OHP",
      "lon": "-7.881915524492149",
      "lat": "40.364009693070095"
    },
    {
      "id": "pt.ine.add.PTCONT.1343518",
      "street": "TV PROF MARIA NATÁLIA GAMEIRO AFONSO",
      "house": "15",
      "postcode": "3405-022",
      "city": "BOBADELA OHP",
      "lon": "-7.8857352715991675",
      "lat": "40.36257702718978"
    },
    {
      "id": "pt.ine.add.PTCONT.1343873",
      "street": "R DO CAMPO DE FUTEBOL",
      "house": "6",
      "postcode": "3405-028",
      "city": "BOBADELA OHP",
      "lon": "-7.891313668005494",
      "lat": "40.36312916127731"
    },
    {
      "id": "pt.ine.add.PTCONT.1349068",
      "street": "R ÁLVARO ANTÓNIO COSTA PIANO",
      "house": "24",
      "postcode": "3405-011",
      "city": "BOBADELA OHP",
      "lon": "-7.8921741506448315",
      "lat": "40.36283377158687"
    },
    {
      "id": "pt.ine.add.PTCONT.1355052",
      "street": "R JOSÉ RODRIGUES SILVA",
      "house": "28",
      "postcode": "3405-022",
      "city": "BOBADELA OHP",
      "lon": "-7.883497967584875",
      "lat": "40.36269829892773"
    }
  ]
}