{
  "data": {
    "distrito": "Bragança",
    "concelho": "Mirandela",
    "freguesia": "Vale de Telhas",
    "OBJECTID": 158,
    "BGRI2021": "04073400109",
    "DT21": "04",
    "DTMN21": "0407",
    "DTMNFR21": "040734",
    "DTMNFRSEC21": "040734001",
    "SECNUM21": "001",
    "SSNUM21": "09",
    "SECSSNUM21": "00109",
    "OBJECTID_1": 36665,
    "DT": "04",
    "CC": "07",
    "fr": "34",
    "SEC": "001",
    "SS": "09"
  },
  "addresses": [
    {
      "id": "pt.ine.add.PTCONT.862900",
      "street": "R DIREITA",
      "house": "33",
      "postcode": "5385-140",
      "city": "VALE DE TELHAS",
      "lon": "-7.229318537622048",
      "lat": "41.61560847505044"
    },
    {
      "id": "pt.ine.add.PTCONT.864529",
      "street": "R POULAO",
      "house": "1",
      "postcode": "5385-140",
      "city": "VALE DE TELHAS",
      "lon": "-7.2297457621481955",
      "lat": "41.61594496400005"
    },
    {
      "id": "pt.ine.add.PTCONT.866206",
      "street": "R POULÃO",
      "house": "15",
      "postcode": "5385-140",
      "city": "VALE DE TELHAS",
      "lon": "-7.2308878933085685",
      "lat": "41.61663820244069"
    },
    {
      "id": "pt.ine.add.PTCONT.870524",
      "street": "R CIMA",
      "house": "15",
      "postcode": "5385-140",
      "city": "VALE DE TELHAS",
      "lon": "-7.228367879567473",
      "lat": "41.6149527422581"
    },
    {
      "id": "pt.ine.add.PTCONT.878982",
      "street": "R DIREITA",
      "house": "12",
      "postcode": "5385-140",
      "city": "VALE DE TELHAS",
      "lon": "-7.228546818334607",
      "lat": "41.61502617874289"
    },
    {
      "id": "pt.ine.add.PTCONT.880342",
      "street": "R DIREITA",
      "house": "8",
      "postcode": "5385-140",
      "city": "VALE DE TELHAS",
      "lon": "-7.229058009929517",
      "lat": "41.61536333096725"
    },
    {
      "id": "pt.ine.add.PTCONT.882639",
      "street": "LG CANTO",
      "house": "2",
      "postcode": "5385-140",
      "city": "VALE DE TELHAS",
      "lon": "-7.229662037736941",
      "lat": "41.615926298948715"
    },
    {
      "id": "pt.ine.add.PTCONT.884237",
      "street": "R CIMA",
      "house": "3",
      "postcode": "5385-140",
      "city": "VALE DE TELHAS",
      "lon": "-7.2288459726877194",
      "lat": "41.61508255359598"
    },
    {
      "id": "pt.ine.add.PTCONT.887409",
      "street": "R CIMA",
      "house": "14",
      "postcode": "5385-140",
      "city": "VALE DE TELHAS",
      "lon": "-7.2290385431435",
      "lat": "41.61503905057777"
    },
    {
      "id": "pt.ine.add.PTCONT.887629",
      "street": "LG CANTO",
      "house": "4",
      "postcode": "5385-140",
      "city": "VALE DE TELHAS",
      "lon": "-7.229665304351366",
      "lat": "41.615692232708575"
    },
    {
      "id": "pt.ine.add.PTCONT.890822",
      "street": "R DIREITA",
      "house": "6",
      "postcode": "5385-140",
      "city": "VALE DE TELHAS",
      "lon": "-7.229393532615641",
      "lat": "41.615392979802174"
    },
    {
      "id": "pt.ine.add.PTCONT.898468",
      "street": "R DIREITA",
      "house": "10",
      "postcode": "5385-140",
      "city": "VALE DE TELHAS",
      "lon": "-7.2288677019767205",
      "lat": "41.615244788169555"
    },
    {
      "id": "pt.ine.add.PTCONT.899222",
      "street": "R CIMA",
      "house": "6",
      "postcode": "5385-140",
      "city": "VALE DE TELHAS",
      "lon": "-7.22895419144113",
      "lat": "41.61506539775782"
    },
    {
      "id": "pt.ine.add.PTCONT.908073",
      "street": "R CIMA",
      "house": "7",
      "postcode": "5385-140",
      "city": "VALE DE TELHAS",
      "lon": "-7.228728147060688",
      "lat": "41.61492856656651"
    },
    {
      "id": "pt.ine.add.PTCONT.912594",
      "street": "R CIMA",
      "house": "8",
      "postcode": "5385-140",
      "city": "VALE DE TELHAS",
      "lon": "-7.229011658718696",
      "lat": "41.61524592046475"
    },
    {
      "id": "pt.ine.add.PTCONT.912876",
      "street": "R POULAO",
      "house": "17",
      "postcode": "5385-140",
      "city": "VALE DE TELHAS",
      "lon": "-7.231332773040718",
      "lat": "41.61656966499527"
    },
    {
      "id": "pt.ine.add.PTCONT.914900",
      "street": "R CIMA",
      "house": "9",
      "postcode": "5385-140",
      "city": "VALE DE TELHAS",
      "lon": "-7.228644550042152",
      "lat": "41.614900898240165"
    },
    {
      "id": "pt.ine.add.PTCONT.916334",
      "street": "R CIMA",
      "house": "5",
      "postcode": "5385-140",
      "city": "VALE DE TELHAS",
      "lon": "-7.228811241136231",
      "lat": "41.614992245020225"
    },
    {
      "id": "pt.ine.add.PTCONT.916759",
      "street": "R DIREITA",
      "house": "6",
      "postcode": "5385-140",
      "city": "VALE DE TELHAS",
      "lon": "-7.22916522345",
      "lat": "41.61541819531147"
    },
    {
      "id": "pt.ine.add.PTCONT.918008",
      "street": "R CIMA",
      "house": "11",
      "postcode": "5385-140",
      "city": "VALE DE TELHAS",
      "lon": "-7.228573326780342",
      "lat": "41.614846316610304"
    },
    {
      "id": "pt.ine.add.PTCONT.926568",
      "street": "R CIMA",
      "house": "10",
      "postcode": "5385-140",
      "city": "VALE DE TELHAS",
      "lon": "-7.229287952896768",
      "lat": "41.61522108255041"
    },
    {
      "id": "pt.ine.add.PTCONT.942275",
      "street": "R DIREITA",
      "house": "6",
      "postcode": "5385-140",
      "city": "VALE DE TELHAS",
      "lon": "-7.229412247214182",
      "lat": "41.61577127541364"
    },
    {
      "id": "pt.ine.add.PTCONT.944958",
      "street": "R DIREITA",
      "house": "2",
      "postcode": "5385-140",
      "city": "VALE DE TELHAS",
      "lon": "-7.228820345166576",
      "lat": "41.61519939796517"
    },
    {
      "id": "pt.ine.add.PTCONT.945259",
      "street": "R DIREITA",
      "house": "1",
      "postcode": "5385-140",
      "city": "VALE DE TELHAS",
      "lon": "-7.228689516866372",
      "lat": "41.61511733689945"
    },
    {
      "id": "pt.ine.add.PTCONT.947845",
      "street": "R POULAO",
      "house": "21",
      "postcode": "5385-140",
      "city": "VALE DE TELHAS",
      "lon": "-7.232039196966093",
      "lat": "41.61667424341981"
    },
    {
      "id": "pt.ine.add.PTCONT.949415",
      "street": "R POULAO",
      "house": "3",
      "postcode": "5385-140",
      "city": "VALE DE TELHAS",
      "lon": "-7.2298656018141925",
      "lat": "41.615954909236486"
    }
  ]
}