{
  "data": {
    "distrito": "Santarém",
    "concelho": "Cartaxo",
    "freguesia": "Vila Chã de Ourique",
    "OBJECTID": 25,
    "BGRI2021": "14060700223",
    "DT21": "14",
    "DTMN21": "1406",
    "DTMNFR21": "140607",
    "DTMNFRSEC21": "140607002",
    "SECNUM21": "002",
    "SSNUM21": "23",
    "SECSSNUM21": "00223",
    "OBJECTID_1": 149767,
    "DT": "14",
    "CC": "06",
    "fr": "07",
    "SEC": "002",
    "SS": "23"
  },
  "addresses": [
    {
      "id": "pt.ine.add.PTCONT.4408944",
      "street": "QUINTAS DE CIMA QUINTINHA DO FORMIGÃO",
      "house": "",
      "postcode": "2070-687",
      "city": "VILA CHÃ DE OURIQUE",
      "lon": "-8.79531014998888",
      "lat": "39.190847511873585"
    },
    {
      "id": "pt.ine.add.PTCONT.4417415",
      "street": "QUINTAS DE CIMA QUINTINHA DOS PINHEIRO",
      "house": "",
      "postcode": "2070-687",
      "city": "VILA CHÃ DE OURIQUE",
      "lon": "-8.794670946268077",
      "lat": "39.19180592047401"
    },
    {
      "id": "pt.ine.add.PTCONT.4423943",
      "street": "EN 114",
      "house": "",
      "postcode": "2070-611",
      "city": "VILA CHÃ DE OURIQUE",
      "lon": "-8.794056085292974",
      "lat": "39.190422280598156"
    },
    {
      "id": "pt.ine.add.PTCONT.4438321",
      "street": "QUINTAS DE CIMA CASAL DO VALE",
      "house": "",
      "postcode": "2070-687",
      "city": "VILA CHÃ DE OURIQUE",
      "lon": "-8.791709252737503",
      "lat": "39.18824678689813"
    },
    {
      "id": "pt.ine.add.PTCONT.4472503",
      "street": "BR FALCÃO VALADAS",
      "house": "",
      "postcode": "2070-611",
      "city": "VILA CHÃ DE OURIQUE",
      "lon": "-8.791435080393125",
      "lat": "39.192355681877224"
    },
    {
      "id": "pt.ine.add.PTCONT.4488404",
      "street": "QUINTAS DE CIMA QUINTINHA DOS SANTOS",
      "house": "",
      "postcode": "2070-687",
      "city": "VILA CHÃ DE OURIQUE",
      "lon": "-8.795340392139247",
      "lat": "39.19036995124346"
    },
    {
      "id": "pt.ine.add.PTCONT.4517843",
      "street": "",
      "house": "",
      "postcode": "2070-687",
      "city": "VILA CHÃ DE OURIQUE",
      "lon": "-8.791930752554707",
      "lat": "39.188416674098065"
    },
    {
      "id": "pt.ine.add.PTCONT.4526270",
      "street": "",
      "house": "",
      "postcode": "2070-687",
      "city": "VILA CHÃ DE OURIQUE",
      "lon": "-8.79458891798734",
      "lat": "39.19046429340938"
    },
    {
      "id": "pt.ine.add.PTCONT.4536288",
      "street": "QUINTAS DE CIMA QTA DO PINHEIRO",
      "house": "",
      "postcode": "2070-687",
      "city": "VILA CHÃ DE OURIQUE",
      "lon": "-8.795774556396605",
      "lat": "39.19099799614224"
    },
    {
      "id": "pt.ine.add.PTCONT.4536304",
      "street": "R PROF FERNANDES JAIME SOARES DA COSTA CASAL DOS PAULOS",
      "house": "",
      "postcode": "2070-684",
      "city": "VILA CHÃ DE OURIQUE",
      "lon": "-8.791018803482585",
      "lat": "39.191160057748455"
    },
    {
      "id": "pt.ine.add.PTCONT.4550053",
      "street": "EN 114-2 QTA DE CIMA",
      "house": "",
      "postcode": "2070-611",
      "city": "VILA CHÃ DE OURIQUE",
      "lon": "-8.796955672284009",
      "lat": "39.19227932104782"
    },
    {
      "id": "pt.ine.add.PTCONT.4598574",
      "street": "BR FALCÃO VALADAS",
      "house": "",
      "postcode": "2070-684",
      "city": "VILA CHÃ DE OURIQUE",
      "lon": "-8.790377021131357",
      "lat": "39.19184823744049"
    },
    {
      "id": "pt.ine.add.PTCONT.4607021",
      "street": "QUINTAS DE CIMA",
      "house": "",
      "postcode": "2070-687",
      "city": "VILA CHÃ DE OURIQUE",
      "lon": "-8.785798706568801",
      "lat": "39.188676369698605"
    },
    {
      "id": "pt.ine.add.PTCONT.4616663",
      "street": "QUINTAS DE CIMA QTA DOS FILHOTES",
      "house": "",
      "postcode": "2070-687",
      "city": "VILA CHÃ DE OURIQUE",
      "lon": "-8.79563965370017",
      "lat": "39.19265611256597"
    },
    {
      "id": "pt.ine.add.PTCONT.4621488",
      "street": "",
      "house": "",
      "postcode": "2070-687",
      "city": "VILA CHÃ DE OURIQUE",
      "lon": "-8.791500168143049",
      "lat": "39.1881669025143"
    },
    {
      "id": "pt.ine.add.PTCONT.4648178",
      "street": "R PROF FERNANDES JAIME SOARES DA COSTA FAMILIA CRUA",
      "house": "",
      "postcode": "2070-684",
      "city": "VILA CHÃ DE OURIQUE",
      "lon": "-8.789236951759687",
      "lat": "39.19123315714027"
    }
  ]
}