{
  "data": {
    "distrito": "Guarda",
    "concelho": "Mêda",
    "freguesia": "Aveloso",
    "OBJECTID": 238,
    "BGRI2021": "09090100114",
    "DT21": "09",
    "DTMN21": "0909",
    "DTMNFR21": "090901",
    "DTMNFRSEC21": "090901001",
    "SECNUM21": "001",
    "SSNUM21": "14",
    "SECSSNUM21": "00114",
    "OBJECTID_1": 79628,
    "DT": "09",
    "CC": "09",
    "fr": "01",
    "SEC": "001",
    "SS": "14"
  },
  "addresses": [
    {
      "id": "pt.ine.add.PTCONT.1899529",
      "street": "R DE STO ANTÓNIO",
      "house": "",
      "postcode": "6430-011",
      "city": "AVELOSO",
      "lon": "-7.314971906875716",
      "lat": "40.935937583917"
    },
    {
      "id": "pt.ine.add.PTCONT.1904649",
      "street": "R DE STO ANTÓNIO",
      "house": "",
      "postcode": "6430-011",
      "city": "AVELOSO",
      "lon": "-7.315084428036032",
      "lat": "40.93547914741189"
    },
    {
      "id": "pt.ine.add.PTCONT.1904650",
      "street": "R DE BAIXO",
      "house": "",
      "postcode": "6430-011",
      "city": "AVELOSO",
      "lon": "-7.315932503079743",
      "lat": "40.93314396310582"
    },
    {
      "id": "pt.ine.add.PTCONT.1904651",
      "street": "R DOS POUSADOUROS",
      "house": "",
      "postcode": "6430-011",
      "city": "AVELOSO",
      "lon": "-7.316310959054565",
      "lat": "40.93037322435577"
    },
    {
      "id": "pt.ine.add.PTCONT.1907610",
      "street": "R DE BAIXO",
      "house": "",
      "postcode": "6430-011",
      "city": "AVELOSO",
      "lon": "-7.315763183264257",
      "lat": "40.93243139883803"
    },
    {
      "id": "pt.ine.add.PTCONT.1909528",
      "street": "R DE BAIXO",
      "house": "",
      "postcode": "6430-011",
      "city": "AVELOSO",
      "lon": "-7.315809784787936",
      "lat": "40.932503766046466"
    },
    {
      "id": "pt.ine.add.PTCONT.1911446",
      "street": "R DOS POUSADOUROS",
      "house": "",
      "postcode": "6430-011",
      "city": "AVELOSO",
      "lon": "-7.316265245576975",
      "lat": "40.93022882670816"
    },
    {
      "id": "pt.ine.add.PTCONT.1919734",
      "street": "R DE BAIXO",
      "house": "",
      "postcode": "6430-011",
      "city": "AVELOSO",
      "lon": "-7.315748202027489",
      "lat": "40.93364691488056"
    },
    {
      "id": "pt.ine.add.PTCONT.1921222",
      "street": "R DE STO ANTÓNIO",
      "house": "",
      "postcode": "6430-011",
      "city": "AVELOSO",
      "lon": "-7.315521397731809",
      "lat": "40.934707850572856"
    },
    {
      "id": "pt.ine.add.PTCONT.1922091",
      "street": "R DOS POUSADOUROS",
      "house": "",
      "postcode": "6430-011",
      "city": "AVELOSO",
      "lon": "-7.316545615905005",
      "lat": "40.929636508007086"
    },
    {
      "id": "pt.ine.add.PTCONT.1923666",
      "street": "R DOS POUSADOUROS",
      "house": "",
      "postcode": "6430-011",
      "city": "AVELOSO",
      "lon": "-7.316522104232926",
      "lat": "40.930581825964715"
    },
    {
      "id": "pt.ine.add.PTCONT.1927396",
      "street": "QTA VALE DOS CAVALOS",
      "house": "",
      "postcode": "6430-011",
      "city": "AVELOSO",
      "lon": "-7.3103062737460665",
      "lat": "40.938740833612705"
    },
    {
      "id": "pt.ine.add.PTCONT.1928054",
      "street": "R DO CASTELO",
      "house": "",
      "postcode": "6430-011",
      "city": "AVELOSO",
      "lon": "-7.315859604098888",
      "lat": "40.93327851557411"
    },
    {
      "id": "pt.ine.add.PTCONT.1929012",
      "street": "R DE BAIXO",
      "house": "",
      "postcode": "6430-011",
      "city": "AVELOSO",
      "lon": "-7.315978437927972",
      "lat": "40.93230685993683"
    },
    {
      "id": "pt.ine.add.PTCONT.1930073",
      "street": "R DE BAIXO",
      "house": "",
      "postcode": "6430-011",
      "city": "AVELOSO",
      "lon": "-7.315803570798569",
      "lat": "40.93300798013982"
    },
    {
      "id": "pt.ine.add.PTCONT.1933170",
      "street": "R DA DEVESA",
      "house": "",
      "postcode": "6430-011",
      "city": "AVELOSO",
      "lon": "-7.315515630606782",
      "lat": "40.934212556299"
    },
    {
      "id": "pt.ine.add.PTCONT.1935271",
      "street": "R DOS POUSADOUROS",
      "house": "",
      "postcode": "6430-011",
      "city": "AVELOSO",
      "lon": "-7.316333594099058",
      "lat": "40.93046343082796"
    },
    {
      "id": "pt.ine.add.PTCONT.1938365",
      "street": "R DE STO ANTÓNIO",
      "house": "",
      "postcode": "6430-011",
      "city": "AVELOSO",
      "lon": "-7.314973128861198",
      "lat": "40.93583854193756"
    },
    {
      "id": "pt.ine.add.PTCONT.1938372",
      "street": "R DOS POUSADOUROS",
      "house": "",
      "postcode": "6430-011",
      "city": "AVELOSO",
      "lon": "-7.316672437413303",
      "lat": "40.92994356293675"
    },
    {
      "id": "pt.ine.add.PTCONT.1944473",
      "street": "R DA CABINE",
      "house": "",
      "postcode": "6430-011",
      "city": "AVELOSO",
      "lon": "-7.316208325801021",
      "lat": "40.930030321964175"
    },
    {
      "id": "pt.ine.add.PTCONT.1946449",
      "street": "R DE STO ANTÓNIO",
      "house": "",
      "postcode": "6430-011",
      "city": "AVELOSO",
      "lon": "-7.314910986844755",
      "lat": "40.93606321610173"
    },
    {
      "id": "pt.ine.add.PTCONT.1946453",
      "street": "R DE BAIXO",
      "house": "",
      "postcode": "6430-011",
      "city": "AVELOSO",
      "lon": "-7.316227534095514",
      "lat": "40.93232663415327"
    },
    {
      "id": "pt.ine.add.PTCONT.1947691",
      "street": "R DE BAIXO",
      "house": "",
      "postcode": "6430-011",
      "city": "AVELOSO",
      "lon": "-7.316290887805881",
      "lat": "40.93200291698153"
    },
    {
      "id": "pt.ine.add.PTCONT.1948383",
      "street": "R D AFONSO HENRIQUES",
      "house": "",
      "postcode": "6430-011",
      "city": "AVELOSO",
      "lon": "-7.315377045094972",
      "lat": "40.933896412276724"
    },
    {
      "id": "pt.ine.add.PTCONT.1949362",
      "street": "R DOS POUSADOUROS",
      "house": "",
      "postcode": "6430-011",
      "city": "AVELOSO",
      "lon": "-7.316253823437215",
      "lat": "40.931156220924656"
    },
    {
      "id": "pt.ine.add.PTCONT.1951040",
      "street": "R STO ANTONIO",
      "house": "94",
      "postcode": "6430-011",
      "city": "AVELOSO",
      "lon": "-7.3150863162662985",
      "lat": "40.93532608251729"
    },
    {
      "id": "pt.ine.add.PTCONT.1956729",
      "street": "",
      "house": "",
      "postcode": "6430-011",
      "city": "AVELOSO",
      "lon": "-7.315224616959917",
      "lat": "40.93085177297338"
    },
    {
      "id": "pt.ine.add.PTCONT.1957648",
      "street": "R DA CABINE",
      "house": "",
      "postcode": "6430-011",
      "city": "AVELOSO",
      "lon": "-7.315422222980768",
      "lat": "40.931195349718855"
    },
    {
      "id": "pt.ine.add.PTCONT.1958222",
      "street": "R DE BAIXO",
      "house": "",
      "postcode": "6430-011",
      "city": "AVELOSO",
      "lon": "-7.315800686560888",
      "lat": "40.932278586301834"
    },
    {
      "id": "pt.ine.add.PTCONT.1959223",
      "street": "R DOS POUSADOUROS",
      "house": "23",
      "postcode": "6430-011",
      "city": "AVELOSO",
      "lon": "-7.316350795979196",
      "lat": "40.930994824838805"
    },
    {
      "id": "pt.ine.add.PTCONT.1966024",
      "street": "R DA CABINE",
      "house": "",
      "postcode": "6430-011",
      "city": "AVELOSO",
      "lon": "-7.31622751679187",
      "lat": "40.9294361533725"
    },
    {
      "id": "pt.ine.add.PTCONT.1969506",
      "street": "R DE BAIXO",
      "house": "",
      "postcode": "6430-011",
      "city": "AVELOSO",
      "lon": "-7.316088397705296",
      "lat": "40.933019003313184"
    },
    {
      "id": "pt.ine.add.PTCONT.1979206",
      "street": "R DE BAIXO",
      "house": "",
      "postcode": "6430-011",
      "city": "AVELOSO",
      "lon": "-7.315756746993238",
      "lat": "40.93295362057726"
    },
    {
      "id": "pt.ine.add.PTCONT.1849255",
      "street": "R DE BAIXO",
      "house": "",
      "postcode": "6430-011",
      "city": "AVELOSO",
      "lon": "-7.315716359891645",
      "lat": "40.93237703925784"
    },
    {
      "id": "pt.ine.add.PTCONT.1849254",
      "street": "R DA DEVESA",
      "house": "",
      "postcode": "6430-011",
      "city": "AVELOSO",
      "lon": "-7.315289828681452",
      "lat": "40.934228964185195"
    },
    {
      "id": "pt.ine.add.PTCONT.1851414",
      "street": "R DA CABINE",
      "house": "",
      "postcode": "6430-011",
      "city": "AVELOSO",
      "lon": "-7.315631262183746",
      "lat": "40.93061153211664"
    },
    {
      "id": "pt.ine.add.PTCONT.1852408",
      "street": "R DA DEVESA",
      "house": "",
      "postcode": "6430-011",
      "city": "AVELOSO",
      "lon": "-7.3151838634824005",
      "lat": "40.93415617569731"
    },
    {
      "id": "pt.ine.add.PTCONT.1855555",
      "street": "R DE STO ANTÓNIO",
      "house": "",
      "postcode": "6430-011",
      "city": "AVELOSO",
      "lon": "-7.315295705160254",
      "lat": "40.934715254634064"
    },
    {
      "id": "pt.ine.add.PTCONT.1857660",
      "street": "R DOS POUSADOUROS",
      "house": "",
      "postcode": "6430-011",
      "city": "AVELOSO",
      "lon": "-7.316645146819471",
      "lat": "40.9302315173482"
    },
    {
      "id": "pt.ine.add.PTCONT.1859400",
      "street": "R DO OITÃO",
      "house": "",
      "postcode": "6430-011",
      "city": "AVELOSO",
      "lon": "-7.31555903140193",
      "lat": "40.93069206151937"
    },
    {
      "id": "pt.ine.add.PTCONT.1859401",
      "street": "R DA CABINE",
      "house": "",
      "postcode": "6430-011",
      "city": "AVELOSO",
      "lon": "-7.316292981365694",
      "lat": "40.929904857087564"
    },
    {
      "id": "pt.ine.add.PTCONT.1862353",
      "street": "R DE BAIXO",
      "house": "",
      "postcode": "6430-011",
      "city": "AVELOSO",
      "lon": "-7.316095275075158",
      "lat": "40.932460766240006"
    },
    {
      "id": "pt.ine.add.PTCONT.1869419",
      "street": "R DOS POUSADOUROS",
      "house": "",
      "postcode": "6430-011",
      "city": "AVELOSO",
      "lon": "-7.315977548520651",
      "lat": "40.93141539713911"
    },
    {
      "id": "pt.ine.add.PTCONT.1874361",
      "street": "R DOS POUSADOUROS",
      "house": "",
      "postcode": "6430-011",
      "city": "AVELOSO",
      "lon": "-7.31653497391975",
      "lat": "40.930500875586525"
    },
    {
      "id": "pt.ine.add.PTCONT.1876234",
      "street": "R DO CASTELO",
      "house": "",
      "postcode": "6430-011",
      "city": "AVELOSO",
      "lon": "-7.315421433380696",
      "lat": "40.933185363012"
    },
    {
      "id": "pt.ine.add.PTCONT.1882333",
      "street": "R DO CASTELO",
      "house": "",
      "postcode": "6430-011",
      "city": "AVELOSO",
      "lon": "-7.315564568652851",
      "lat": "40.93313235031921"
    },
    {
      "id": "pt.ine.add.PTCONT.1893278",
      "street": "R DOS POUSADOUROS",
      "house": "",
      "postcode": "6430-011",
      "city": "AVELOSO",
      "lon": "-7.316596107300389",
      "lat": "40.930357234688785"
    },
    {
      "id": "pt.ine.add.PTCONT.1893864",
      "street": "R DO CASTELO",
      "house": "",
      "postcode": "6430-011",
      "city": "AVELOSO",
      "lon": "-7.315705928031208",
      "lat": "40.93322339860211"
    },
    {
      "id": "pt.ine.add.PTCONT.1897722",
      "street": "R DE STO ANTÓNIO",
      "house": "",
      "postcode": "6430-011",
      "city": "AVELOSO",
      "lon": "-7.315488332932551",
      "lat": "40.93450051016077"
    }
  ]
}