{
  "data": {
    "distrito": "Santarém",
    "concelho": "Tomar",
    "freguesia": "União das freguesias de Além da Ribeira e Pedreira",
    "OBJECTID": 1328,
    "BGRI2021": "14181700210",
    "DT21": "14",
    "DTMN21": "1418",
    "DTMNFR21": "141817",
    "DTMNFRSEC21": "141817002",
    "SECNUM21": "002",
    "SSNUM21": "10",
    "SECSSNUM21": "00210",
    "OBJECTID_1": 156500,
    "DT": "14",
    "CC": "18",
    "fr": "17",
    "SEC": "002",
    "SS": "10"
  },
  "addresses": [
    {
      "id": "pt.ine.add.PTCONT.4402637",
      "street": "R APARICIO CARDOSO",
      "house": "185",
      "postcode": "2305-554",
      "city": "PEDREIRA TMR",
      "lon": "-8.409217095192073",
      "lat": "39.64105412308548"
    },
    {
      "id": "pt.ine.add.PTCONT.4408492",
      "street": "R PACADICO",
      "house": "140",
      "postcode": "2305-554",
      "city": "PEDREIRA TMR",
      "lon": "-8.409461843072792",
      "lat": "39.64108056128886"
    },
    {
      "id": "pt.ine.add.PTCONT.4425362",
      "street": "LG N SRA DAS NEVES",
      "house": "139",
      "postcode": "2305-554",
      "city": "PEDREIRA TMR",
      "lon": "-8.40949722193145",
      "lat": "39.64118855797181"
    },
    {
      "id": "pt.ine.add.PTCONT.4466572",
      "street": "R PASSADISO",
      "house": "70",
      "postcode": "2305-554",
      "city": "PEDREIRA TMR",
      "lon": "-8.409298355362187",
      "lat": "39.640981875999685"
    },
    {
      "id": "pt.ine.add.PTCONT.4476311",
      "street": "R MEIO",
      "house": "71",
      "postcode": "2305-554",
      "city": "PEDREIRA TMR",
      "lon": "-8.409449835069147",
      "lat": "39.64099052247386"
    },
    {
      "id": "pt.ine.add.PTCONT.4521047",
      "street": "R APARICIO CARDOSO",
      "house": "186",
      "postcode": "2305-554",
      "city": "PEDREIRA TMR",
      "lon": "-8.409170282173685",
      "lat": "39.64100019391861"
    },
    {
      "id": "pt.ine.add.PTCONT.4537027",
      "street": "R MEIO",
      "house": "73",
      "postcode": "2305-554",
      "city": "PEDREIRA TMR",
      "lon": "-8.409590023923048",
      "lat": "39.64108926300677"
    },
    {
      "id": "pt.ine.add.PTCONT.4540516",
      "street": "R MAIO",
      "house": "92",
      "postcode": "2305-554",
      "city": "PEDREIRA TMR",
      "lon": "-8.409683112658746",
      "lat": "39.64106202118903"
    },
    {
      "id": "pt.ine.add.PTCONT.4540517",
      "street": "R 5 DE RAIO",
      "house": "133",
      "postcode": "2305-554",
      "city": "PEDREIRA TMR",
      "lon": "-8.409764659445006",
      "lat": "39.641061827000684"
    },
    {
      "id": "pt.ine.add.PTCONT.4582604",
      "street": "R MEIO",
      "house": "",
      "postcode": "2305-554",
      "city": "PEDREIRA TMR",
      "lon": "-8.409741037410097",
      "lat": "39.64098082261424"
    },
    {
      "id": "pt.ine.add.PTCONT.4592200",
      "street": "R 5 DE MAIO RESIDENCIA AVO ANITA",
      "house": "",
      "postcode": "2305-554",
      "city": "PEDREIRA TMR",
      "lon": "-8.409624613873628",
      "lat": "39.64099911329024"
    },
    {
      "id": "pt.ine.add.PTCONT.4624384",
      "street": "R 5 DE MAIO",
      "house": "74",
      "postcode": "2305-554",
      "city": "PEDREIRA TMR",
      "lon": "-8.409566366221156",
      "lat": "39.64099925193163"
    }
  ]
}