{
  "data": {
    "distrito": "Braga",
    "concelho": "PÃ³voa de Lanhoso",
    "freguesia": "Covelas",
    "OBJECTID": 158,
    "BGRI2021": "03090600105",
    "DT21": "03",
    "DTMN21": "0309",
    "DTMNFR21": "030906",
    "DTMNFRSEC21": "030906001",
    "SECNUM21": "001",
    "SSNUM21": "05",
    "SECSSNUM21": "00105",
    "OBJECTID_1": 28855,
    "DT": "03",
    "CC": "09",
    "fr": "06",
    "SEC": "001",
    "SS": "05"
  },
  "addresses": [
    {
      "id": "pt.ine.add.PTCONT.522380",
      "street": "TV VADIEIRO",
      "house": "138",
      "postcode": "4830-121",
      "city": "COVELAS PVL",
      "lon": "-8.341800699404457",
      "lat": "41.58952079660093"
    },
    {
      "id": "pt.ine.add.PTCONT.529263",
      "street": "AV COVELAS",
      "house": "1528",
      "postcode": "4830-121",
      "city": "COVELAS PVL",
      "lon": "-8.339817882793277",
      "lat": "41.588281867327225"
    },
    {
      "id": "pt.ine.add.PTCONT.623242",
      "street": "R VILA",
      "house": "1295",
      "postcode": "4830-130",
      "city": "COVELAS PVL",
      "lon": "-8.33985720843213",
      "lat": "41.593089773342896"
    },
    {
      "id": "pt.ine.add.PTCONT.646594",
      "street": "R SOUTAL",
      "house": "128",
      "postcode": "4830-128",
      "city": "COVELAS PVL",
      "lon": "-8.338188283747487",
      "lat": "41.58873497084022"
    },
    {
      "id": "pt.ine.add.PTCONT.711570",
      "street": "R VILA",
      "house": "1305",
      "postcode": "4830-130",
      "city": "COVELAS PVL",
      "lon": "-8.339738190163002",
      "lat": "41.593378105632624"
    },
    {
      "id": "pt.ine.add.PTCONT.822693",
      "street": "R VILA",
      "house": "1475",
      "postcode": "4830-130",
      "city": "COVELAS PVL",
      "lon": "-8.341093427595185",
      "lat": "41.593357654605704"
    },
    {
      "id": "pt.ine.add.PTCONT.823882",
      "street": "R VADIEIRO",
      "house": "454",
      "postcode": "4830-129",
      "city": "COVELAS PVL",
      "lon": "-8.337323574442962",
      "lat": "41.588349350639156"
    },
    {
      "id": "pt.ine.add.PTCONT.838818",
      "street": "R SOUTO",
      "house": "1111",
      "postcode": "4830-128",
      "city": "COVELAS PVL",
      "lon": "-8.340152131412161",
      "lat": "41.591549610067595"
    }
  ]
}