{
  "data": {
    "ilha": "Ilha do Faial (AÃ§ores)",
    "concelho": "Horta",
    "freguesia": "Pedro Miguel",
    "OBJECTID": 118,
    "BGRI2021": "47010900113",
    "DT21": "47",
    "DTMN21": "4701",
    "DTMNFR21": "470109",
    "DTMNFRSEC21": "470109001",
    "SECNUM21": "001",
    "SSNUM21": "13",
    "SECSSNUM21": "00113",
    "OBJECTID_1": 209885,
    "DT": "47",
    "CC": "01",
    "fr": "09",
    "SEC": "001",
    "SS": "13",
    "BGRI2021_1": "47010900113"
  },
  "addresses": [
    {
      "id": "pt.ine.add.AC26.46078",
      "street": "R IGREJA",
      "house": "47",
      "postcode": "9900-427",
      "city": "PEDRO MIGUEL",
      "lon": "-28.629795565377464",
      "lat": "38.580345087301396"
    },
    {
      "id": "pt.ine.add.AC26.40663",
      "street": "R BOAVISTA",
      "house": "6",
      "postcode": "9900-421",
      "city": "PEDRO MIGUEL",
      "lon": "-28.623174501666895",
      "lat": "38.57894125931057"
    },
    {
      "id": "pt.ine.add.AC26.41653",
      "street": "R IGREJA",
      "house": "65",
      "postcode": "9900-427",
      "city": "PEDRO MIGUEL",
      "lon": "-28.624717386793844",
      "lat": "38.57812686233158"
    },
    {
      "id": "pt.ine.add.AC26.41654",
      "street": "R IGREJA",
      "house": "",
      "postcode": "9900-427",
      "city": "PEDRO MIGUEL",
      "lon": "-28.62542269963183",
      "lat": "38.578351358513"
    },
    {
      "id": "pt.ine.add.AC26.41655",
      "street": "R IGREJA",
      "house": "47A",
      "postcode": "9900-427",
      "city": "PEDRO MIGUEL",
      "lon": "-28.629877121170498",
      "lat": "38.580398018493106"
    },
    {
      "id": "pt.ine.add.AC26.46077",
      "street": "R IGREJA",
      "house": "27",
      "postcode": "9900-427",
      "city": "PEDRO MIGUEL",
      "lon": "-28.623770475246566",
      "lat": "38.57787868097285"
    },
    {
      "id": "pt.ine.add.AC26.53939",
      "street": "R IGREJA",
      "house": "45",
      "postcode": "9900-427",
      "city": "PEDRO MIGUEL",
      "lon": "-28.62952753901169",
      "lat": "38.58016859629154"
    },
    {
      "id": "pt.ine.add.AC26.60529",
      "street": "R BOAVISTA",
      "house": "",
      "postcode": "9900-421",
      "city": "PEDRO MIGUEL",
      "lon": "-28.62822436740434",
      "lat": "38.58143028051837"
    },
    {
      "id": "pt.ine.add.AC26.63015",
      "street": "R BOAVISTA",
      "house": "22",
      "postcode": "9900-421",
      "city": "PEDRO MIGUEL",
      "lon": "-28.628492192009837",
      "lat": "38.581597766089054"
    },
    {
      "id": "pt.ine.add.AC26.63017",
      "street": "R IGREJA",
      "house": "55",
      "postcode": "9900-427",
      "city": "PEDRO MIGUEL",
      "lon": "-28.626408521021332",
      "lat": "38.578797231836525"
    },
    {
      "id": "pt.ine.add.AC26.69070",
      "street": "R BOAVISTA",
      "house": "2Z",
      "postcode": "9900-421",
      "city": "PEDRO MIGUEL",
      "lon": "-28.630992293841754",
      "lat": "38.580977218599884"
    },
    {
      "id": "pt.ine.add.AC26.70752",
      "street": "R IGREJA",
      "house": "51",
      "postcode": "9900-427",
      "city": "PEDRO MIGUEL",
      "lon": "-28.630306428696258",
      "lat": "38.580599295329904"
    },
    {
      "id": "pt.ine.add.AC26.76249",
      "street": "R IGREJA",
      "house": "49",
      "postcode": "9900-427",
      "city": "PEDRO MIGUEL",
      "lon": "-28.630074254686328",
      "lat": "38.58048538439551"
    },
    {
      "id": "pt.ine.add.AC26.92523",
      "street": "R BOAVISTA",
      "house": "2",
      "postcode": "9900-421",
      "city": "PEDRO MIGUEL",
      "lon": "-28.62240200245089",
      "lat": "38.57777150532898"
    },
    {
      "id": "pt.ine.add.AC26.92816",
      "street": "R BOAVISTA",
      "house": "4",
      "postcode": "9900-421",
      "city": "PEDRO MIGUEL",
      "lon": "-28.622463311135018",
      "lat": "38.57845550635146"
    },
    {
      "id": "pt.ine.add.AC26.101036",
      "street": "R IGREJA",
      "house": "37",
      "postcode": "9900-427",
      "city": "PEDRO MIGUEL",
      "lon": "-28.628639797659673",
      "lat": "38.58000073149891"
    },
    {
      "id": "pt.ine.add.AC26.104418",
      "street": "R IGREJA",
      "house": "53",
      "postcode": "9900-427",
      "city": "PEDRO MIGUEL",
      "lon": "-28.630445163049462",
      "lat": "38.58064241828636"
    }
  ]
}