{
  "data": {
    "distrito": "Portalegre",
    "concelho": "Marvão",
    "freguesia": "São Salvador da Aramenha",
    "OBJECTID": 107,
    "BGRI2021": "12100400125",
    "DT21": "12",
    "DTMN21": "1210",
    "DTMNFR21": "121004",
    "DTMNFRSEC21": "121004001",
    "SECNUM21": "001",
    "SSNUM21": "25",
    "SECSSNUM21": "00125",
    "OBJECTID_1": 122833,
    "DT": "12",
    "CC": "10",
    "fr": "04",
    "SEC": "001",
    "SS": "25"
  },
  "addresses": [
    {
      "id": "pt.ine.add.PTCONT.3538058",
      "street": "SIT MONTINHO",
      "house": "",
      "postcode": "7330-317",
      "city": "SÃO SALVADOR DA ARAMENHA",
      "lon": "-7.418260964019221",
      "lat": "39.3861179897298"
    },
    {
      "id": "pt.ine.add.PTCONT.3539555",
      "street": "SIT VALE",
      "house": "31",
      "postcode": "7330-313",
      "city": "SÃO SALVADOR DA ARAMENHA",
      "lon": "-7.409658907652195",
      "lat": "39.3896135844867"
    },
    {
      "id": "pt.ine.add.PTCONT.3460605",
      "street": "QTA NAVE DO LOBO",
      "house": "",
      "postcode": "7330-326",
      "city": "SÃO SALVADOR DA ARAMENHA",
      "lon": "-7.414516631754366",
      "lat": "39.369810220441835"
    },
    {
      "id": "pt.ine.add.PTCONT.3461509",
      "street": "RIBEIRO PINHEIRO",
      "house": "8",
      "postcode": "7330-337",
      "city": "SÃO SALVADOR DA ARAMENHA",
      "lon": "-7.402408676102752",
      "lat": "39.37916517829829"
    },
    {
      "id": "pt.ine.add.PTCONT.3461510",
      "street": "RIBEIRO PINHEIRO",
      "house": "8",
      "postcode": "7330-337",
      "city": "SÃO SALVADOR DA ARAMENHA",
      "lon": "-7.402408676102752",
      "lat": "39.37916517829829"
    },
    {
      "id": "pt.ine.add.PTCONT.3466493",
      "street": "EN 246",
      "house": "",
      "postcode": "7330-313",
      "city": "SÃO SALVADOR DA ARAMENHA",
      "lon": "-7.407001287351096",
      "lat": "39.388444132495174"
    },
    {
      "id": "pt.ine.add.PTCONT.3470696",
      "street": "SIT MONTINHO",
      "house": "",
      "postcode": "7330-317",
      "city": "SÃO SALVADOR DA ARAMENHA",
      "lon": "-7.413279142544007",
      "lat": "39.3874833628561"
    },
    {
      "id": "pt.ine.add.PTCONT.3476609",
      "street": "SIT MONTINHO",
      "house": "",
      "postcode": "7330-317",
      "city": "SÃO SALVADOR DA ARAMENHA",
      "lon": "-7.419067569501263",
      "lat": "39.387834275370885"
    },
    {
      "id": "pt.ine.add.PTCONT.3479371",
      "street": "SIT VALE",
      "house": "31",
      "postcode": "7330-313",
      "city": "SÃO SALVADOR DA ARAMENHA",
      "lon": "-7.409658907652195",
      "lat": "39.3896135844867"
    },
    {
      "id": "pt.ine.add.PTCONT.3482587",
      "street": "SIT NAVE DO LOBO",
      "house": "",
      "postcode": "7330-326",
      "city": "SÃO SALVADOR DA ARAMENHA",
      "lon": "-7.418792291003787",
      "lat": "39.37043100994437"
    },
    {
      "id": "pt.ine.add.PTCONT.3487963",
      "street": "CX 9",
      "house": "",
      "postcode": "7330-330",
      "city": "SÃO SALVADOR DA ARAMENHA",
      "lon": "-7.402340078687491",
      "lat": "39.379065670279985"
    },
    {
      "id": "pt.ine.add.PTCONT.3497335",
      "street": "SIT MONTINHO",
      "house": "",
      "postcode": "7330-317",
      "city": "SÃO SALVADOR DA ARAMENHA",
      "lon": "-7.413347167646546",
      "lat": "39.386511026318445"
    },
    {
      "id": "pt.ine.add.PTCONT.3502053",
      "street": "SIT QUINTA DA DEFESA",
      "house": "2",
      "postcode": "7330-313",
      "city": "SÃO SALVADOR DA ARAMENHA",
      "lon": "-7.40819376874711",
      "lat": "39.38425430084228"
    },
    {
      "id": "pt.ine.add.PTCONT.3512441",
      "street": "SIT MALVA",
      "house": "",
      "postcode": "7330-305",
      "city": "SÃO SALVADOR DA ARAMENHA",
      "lon": "-7.41315037949886",
      "lat": "39.390977285725555"
    },
    {
      "id": "pt.ine.add.PTCONT.3514885",
      "street": "",
      "house": "",
      "postcode": "7330-305",
      "city": "SÃO SALVADOR DA ARAMENHA",
      "lon": "-7.413068574637361",
      "lat": "39.39103082153388"
    },
    {
      "id": "pt.ine.add.PTCONT.3515394",
      "street": "SIT NAVE DO LOBO",
      "house": "",
      "postcode": "7330-326",
      "city": "SÃO SALVADOR DA ARAMENHA",
      "lon": "-7.417257247461137",
      "lat": "39.36734116855369"
    },
    {
      "id": "pt.ine.add.PTCONT.3517469",
      "street": "ESTR TAPADA NOVA",
      "house": "29",
      "postcode": "7330-313",
      "city": "SÃO SALVADOR DA ARAMENHA",
      "lon": "-7.408237978031534",
      "lat": "39.388956236141325"
    },
    {
      "id": "pt.ine.add.PTCONT.3525489",
      "street": "SIT MONTINHO",
      "house": "",
      "postcode": "7330-317",
      "city": "SÃO SALVADOR DA ARAMENHA",
      "lon": "-7.415608356826595",
      "lat": "39.38785803009561"
    }
  ]
}