{
  "data": {
    "distrito": "Portalegre",
    "concelho": "Marvão",
    "freguesia": "São Salvador da Aramenha",
    "OBJECTID": 232,
    "BGRI2021": "12100400144",
    "DT21": "12",
    "DTMN21": "1210",
    "DTMNFR21": "121004",
    "DTMNFRSEC21": "121004001",
    "SECNUM21": "001",
    "SSNUM21": "44",
    "SECSSNUM21": "00144",
    "OBJECTID_1": 122835,
    "DT": "12",
    "CC": "10",
    "fr": "04",
    "SEC": "001",
    "SS": "44"
  },
  "addresses": [
    {
      "id": "pt.ine.add.PTCONT.3538565",
      "street": "R CURRAIS DA PEDRA",
      "house": "",
      "postcode": "7330-313",
      "city": "SÃO SALVADOR DA ARAMENHA",
      "lon": "-7.416482890712688",
      "lat": "39.39427640919717"
    },
    {
      "id": "pt.ine.add.PTCONT.3467659",
      "street": "R CURRAIS DA PEDRA",
      "house": "",
      "postcode": "7330-313",
      "city": "SÃO SALVADOR DA ARAMENHA",
      "lon": "-7.416343691491672",
      "lat": "39.394266544726605"
    },
    {
      "id": "pt.ine.add.PTCONT.3470234",
      "street": "R MINA",
      "house": "10",
      "postcode": "7330-313",
      "city": "SÃO SALVADOR DA ARAMENHA",
      "lon": "-7.410687444536304",
      "lat": "39.39455581334675"
    },
    {
      "id": "pt.ine.add.PTCONT.3482933",
      "street": "R CURRAIS DA PEDRA",
      "house": "",
      "postcode": "7330-313",
      "city": "SÃO SALVADOR DA ARAMENHA",
      "lon": "-7.41786438119361",
      "lat": "39.39426689614958"
    },
    {
      "id": "pt.ine.add.PTCONT.3484753",
      "street": "EN 246",
      "house": "",
      "postcode": "7330-305",
      "city": "SÃO SALVADOR DA ARAMENHA",
      "lon": "-7.420559795015562",
      "lat": "39.395184135425964"
    },
    {
      "id": "pt.ine.add.PTCONT.3491096",
      "street": "R CURRAIS DA PEDRA",
      "house": "",
      "postcode": "7330-313",
      "city": "SÃO SALVADOR DA ARAMENHA",
      "lon": "-7.415354552647862",
      "lat": "39.39450363588808"
    },
    {
      "id": "pt.ine.add.PTCONT.3505533",
      "street": "R CURRAIS DA PEDRA",
      "house": "",
      "postcode": "7330-313",
      "city": "SÃO SALVADOR DA ARAMENHA",
      "lon": "-7.414404481301247",
      "lat": "39.39432663787633"
    },
    {
      "id": "pt.ine.add.PTCONT.3513078",
      "street": "R TRAS DE FAZENDA",
      "house": "",
      "postcode": "7330-313",
      "city": "SÃO SALVADOR DA ARAMENHA",
      "lon": "-7.411255471239952",
      "lat": "39.393505519844915"
    },
    {
      "id": "pt.ine.add.PTCONT.3514256",
      "street": "R CURRAIS DA PEDRA",
      "house": "",
      "postcode": "7330-313",
      "city": "SÃO SALVADOR DA ARAMENHA",
      "lon": "-7.41663369759301",
      "lat": "39.39428634498309"
    },
    {
      "id": "pt.ine.add.PTCONT.3525486",
      "street": "R DR ANTÓNIO MATOS MAGALHÃES",
      "house": "",
      "postcode": "7330-313",
      "city": "SÃO SALVADOR DA ARAMENHA",
      "lon": "-7.411986371333811",
      "lat": "39.393546080287166"
    },
    {
      "id": "pt.ine.add.PTCONT.3526763",
      "street": "R DR ANTÓNIO MATOS MAGALHÃES",
      "house": "26",
      "postcode": "7330-313",
      "city": "SÃO SALVADOR DA ARAMENHA",
      "lon": "-7.4116167872581435",
      "lat": "39.39336364896574"
    },
    {
      "id": "pt.ine.add.PTCONT.3528374",
      "street": "SIT ATALAIA",
      "house": "",
      "postcode": "7330-313",
      "city": "SÃO SALVADOR DA ARAMENHA",
      "lon": "-7.422515661933898",
      "lat": "39.39577254570144"
    },
    {
      "id": "pt.ine.add.PTCONT.3531767",
      "street": "R CURRAIS DA PEDRA",
      "house": "",
      "postcode": "7330-313",
      "city": "SÃO SALVADOR DA ARAMENHA",
      "lon": "-7.41622153153106",
      "lat": "39.394860254228746"
    }
  ]
}