{
  "data": {
    "distrito": "Guarda",
    "concelho": "Mêda",
    "freguesia": "Prova e Casteição",
    "OBJECTID": 49,
    "BGRI2021": "09091800101",
    "DT21": "09",
    "DTMN21": "0909",
    "DTMNFR21": "090918",
    "DTMNFRSEC21": "090918001",
    "SECNUM21": "001",
    "SSNUM21": "01",
    "SECSSNUM21": "00101",
    "OBJECTID_1": 79798,
    "DT": "09",
    "CC": "09",
    "fr": "18",
    "SEC": "001",
    "SS": "01"
  },
  "addresses": [
    {
      "id": "pt.ine.add.PTCONT.1901144",
      "street": "R DERSA",
      "house": "",
      "postcode": "6430-041",
      "city": "CASTEIÇÃO",
      "lon": "-7.327013659222757",
      "lat": "40.88010351419362"
    },
    {
      "id": "pt.ine.add.PTCONT.1905140",
      "street": "R DERSA",
      "house": "",
      "postcode": "6430-041",
      "city": "CASTEIÇÃO",
      "lon": "-7.326848670072422",
      "lat": "40.88001231399725"
    },
    {
      "id": "pt.ine.add.PTCONT.1907621",
      "street": "TV DA IGREJA",
      "house": "",
      "postcode": "6430-041",
      "city": "CASTEIÇÃO",
      "lon": "-7.327407649010083",
      "lat": "40.87989915921279"
    },
    {
      "id": "pt.ine.add.PTCONT.1919325",
      "street": "LG DA IGREJA",
      "house": "",
      "postcode": "6430-041",
      "city": "CASTEIÇÃO",
      "lon": "-7.327631844334664",
      "lat": "40.87999977680645"
    },
    {
      "id": "pt.ine.add.PTCONT.1921175",
      "street": "",
      "house": "",
      "postcode": "6430-041",
      "city": "CASTEIÇÃO",
      "lon": "-7.327599857705549",
      "lat": "40.87970239849029"
    },
    {
      "id": "pt.ine.add.PTCONT.1926596",
      "street": "R DO CASTELO",
      "house": "",
      "postcode": "6430-041",
      "city": "CASTEIÇÃO",
      "lon": "-7.327799999405881",
      "lat": "40.8798298618489"
    },
    {
      "id": "pt.ine.add.PTCONT.1930019",
      "street": "R DERSA",
      "house": "",
      "postcode": "6430-041",
      "city": "CASTEIÇÃO",
      "lon": "-7.326919520120076",
      "lat": "40.88003982334222"
    },
    {
      "id": "pt.ine.add.PTCONT.1933113",
      "street": "LG DO PELOURINHO",
      "house": "",
      "postcode": "6430-041",
      "city": "CASTEIÇÃO",
      "lon": "-7.3277747456284175",
      "lat": "40.8799557512405"
    },
    {
      "id": "pt.ine.add.PTCONT.1940008",
      "street": "",
      "house": "",
      "postcode": "6430-041",
      "city": "CASTEIÇÃO",
      "lon": "-7.327029345518308",
      "lat": "40.87978845952574"
    },
    {
      "id": "pt.ine.add.PTCONT.1948330",
      "street": "R DO CASTELO",
      "house": "",
      "postcode": "6430-041",
      "city": "CASTEIÇÃO",
      "lon": "-7.327872050011841",
      "lat": "40.87975832734991"
    },
    {
      "id": "pt.ine.add.PTCONT.1948389",
      "street": "TV DA IGREJA",
      "house": "",
      "postcode": "6430-041",
      "city": "CASTEIÇÃO",
      "lon": "-7.326787388368716",
      "lat": "40.880173970077344"
    },
    {
      "id": "pt.ine.add.PTCONT.1951096",
      "street": "R DO CASTELO",
      "house": "",
      "postcode": "6430-041",
      "city": "CASTEIÇÃO",
      "lon": "-7.327813062778442",
      "lat": "40.879730901418064"
    },
    {
      "id": "pt.ine.add.PTCONT.1963075",
      "street": "LG DO PELOURINHO",
      "house": "",
      "postcode": "6430-041",
      "city": "CASTEIÇÃO",
      "lon": "-7.326741138432463",
      "lat": "40.88007459509503"
    },
    {
      "id": "pt.ine.add.PTCONT.1964203",
      "street": "R DO CEMITÉRIO",
      "house": "",
      "postcode": "6430-041",
      "city": "CASTEIÇÃO",
      "lon": "-7.328026922647998",
      "lat": "40.87970538035292"
    },
    {
      "id": "pt.ine.add.PTCONT.1972064",
      "street": "R DO SOL",
      "house": "",
      "postcode": "6430-041",
      "city": "CASTEIÇÃO",
      "lon": "-7.3266851020640935",
      "lat": "40.879804062474804"
    },
    {
      "id": "pt.ine.add.PTCONT.1972541",
      "street": "LG DO PELOURINHO",
      "house": "",
      "postcode": "6430-041",
      "city": "CASTEIÇÃO",
      "lon": "-7.327870631417812",
      "lat": "40.879875378477855"
    },
    {
      "id": "pt.ine.add.PTCONT.1862311",
      "street": "R DO CASTELO",
      "house": "",
      "postcode": "6430-041",
      "city": "CASTEIÇÃO",
      "lon": "-7.326498027906099",
      "lat": "40.8795776369352"
    },
    {
      "id": "pt.ine.add.PTCONT.1869364",
      "street": "R DO CASTELO",
      "house": "",
      "postcode": "6430-041",
      "city": "CASTEIÇÃO",
      "lon": "-7.327753420764728",
      "lat": "40.87975749905316"
    },
    {
      "id": "pt.ine.add.PTCONT.1873354",
      "street": "R DO LAMEIRO",
      "house": "",
      "postcode": "6430-041",
      "city": "CASTEIÇÃO",
      "lon": "-7.326765629302414",
      "lat": "40.8800117334626"
    },
    {
      "id": "pt.ine.add.PTCONT.1877126",
      "street": "R DO CASTELO",
      "house": "",
      "postcode": "6430-041",
      "city": "CASTEIÇÃO",
      "lon": "-7.327479263407555",
      "lat": "40.879863640692456"
    },
    {
      "id": "pt.ine.add.PTCONT.1878091",
      "street": "R DA IGREJA",
      "house": "",
      "postcode": "6430-041",
      "city": "CASTEIÇÃO",
      "lon": "-7.3272783578117835",
      "lat": "40.879799204304604"
    },
    {
      "id": "pt.ine.add.PTCONT.1889301",
      "street": "R DO CASTELO",
      "house": "",
      "postcode": "6430-041",
      "city": "CASTEIÇÃO",
      "lon": "-7.327361616709869",
      "lat": "40.87978177660396"
    }
  ]
}