{
  "data": {
    "distrito": "Guarda",
    "concelho": "Mêda",
    "freguesia": "Prova e Casteição",
    "OBJECTID": 54,
    "BGRI2021": "09091800105",
    "DT21": "09",
    "DTMN21": "0909",
    "DTMNFR21": "090918",
    "DTMNFRSEC21": "090918001",
    "SECNUM21": "001",
    "SSNUM21": "05",
    "SECSSNUM21": "00105",
    "OBJECTID_1": 79616,
    "DT": "09",
    "CC": "09",
    "fr": "18",
    "SEC": "001",
    "SS": "05"
  },
  "addresses": [
    {
      "id": "pt.ine.add.PTCONT.1905139",
      "street": "R DO FORNO",
      "house": "",
      "postcode": "6430-041",
      "city": "CASTEIÇÃO",
      "lon": "-7.326629562769593",
      "lat": "40.880470021478224"
    },
    {
      "id": "pt.ine.add.PTCONT.1911448",
      "street": "R DO POÇO",
      "house": "",
      "postcode": "6430-041",
      "city": "CASTEIÇÃO",
      "lon": "-7.327083744822675",
      "lat": "40.88019405095282"
    },
    {
      "id": "pt.ine.add.PTCONT.1935213",
      "street": "R DO LAMEIRÃO",
      "house": "",
      "postcode": "6430-041",
      "city": "CASTEIÇÃO",
      "lon": "-7.328212693486343",
      "lat": "40.88003985066057"
    },
    {
      "id": "pt.ine.add.PTCONT.1946383",
      "street": "LG DO PELOURINHO",
      "house": "",
      "postcode": "6430-041",
      "city": "CASTEIÇÃO",
      "lon": "-7.328011350211249",
      "lat": "40.880011431272486"
    },
    {
      "id": "pt.ine.add.PTCONT.1948331",
      "street": "R DO FORNO",
      "house": "",
      "postcode": "6430-041",
      "city": "CASTEIÇÃO",
      "lon": "-7.327415035366751",
      "lat": "40.8802684032751"
    },
    {
      "id": "pt.ine.add.PTCONT.1951804",
      "street": "",
      "house": "",
      "postcode": "6430-041",
      "city": "CASTEIÇÃO",
      "lon": "-7.328415672684293",
      "lat": "40.87993321069112"
    },
    {
      "id": "pt.ine.add.PTCONT.1953311",
      "street": "LG DA IGREJA",
      "house": "",
      "postcode": "6430-041",
      "city": "CASTEIÇÃO",
      "lon": "-7.3275227850444695",
      "lat": "40.880188113685"
    },
    {
      "id": "pt.ine.add.PTCONT.1958156",
      "street": "R DO FORNO",
      "house": "",
      "postcode": "6430-041",
      "city": "CASTEIÇÃO",
      "lon": "-7.327331775870146",
      "lat": "40.880285831007264"
    },
    {
      "id": "pt.ine.add.PTCONT.1964202",
      "street": "TV DA IGREJA",
      "house": "",
      "postcode": "6430-041",
      "city": "CASTEIÇÃO",
      "lon": "-7.328118553307536",
      "lat": "40.879976160777325"
    },
    {
      "id": "pt.ine.add.PTCONT.1965042",
      "street": "R DO LAMEIRÃO",
      "house": "",
      "postcode": "6430-041",
      "city": "CASTEIÇÃO",
      "lon": "-7.32807011958223",
      "lat": "40.88005686497066"
    },
    {
      "id": "pt.ine.add.PTCONT.1968455",
      "street": "R DO POÇO",
      "house": "",
      "postcode": "6430-041",
      "city": "CASTEIÇÃO",
      "lon": "-7.326725778521297",
      "lat": "40.880362637906224"
    },
    {
      "id": "pt.ine.add.PTCONT.1975021",
      "street": "R DO FORNO",
      "house": "",
      "postcode": "6430-041",
      "city": "CASTEIÇÃO",
      "lon": "-7.327403718290432",
      "lat": "40.88022330074701"
    },
    {
      "id": "pt.ine.add.PTCONT.1851361",
      "street": "R DO ADRO",
      "house": "",
      "postcode": "6430-041",
      "city": "CASTEIÇÃO",
      "lon": "-7.3283338316442475",
      "lat": "40.879833588013334"
    },
    {
      "id": "pt.ine.add.PTCONT.1860049",
      "street": "R DO LAMEIRÃO",
      "house": "",
      "postcode": "6430-041",
      "city": "CASTEIÇÃO",
      "lon": "-7.32815272409348",
      "lat": "40.880093460299214"
    },
    {
      "id": "pt.ine.add.PTCONT.1861524",
      "street": "R DA CALÇADA",
      "house": "",
      "postcode": "6430-041",
      "city": "CASTEIÇÃO",
      "lon": "-7.326246555532662",
      "lat": "40.88074648814287"
    },
    {
      "id": "pt.ine.add.PTCONT.1866296",
      "street": "R DO LAMEIRÃO",
      "house": "",
      "postcode": "6430-041",
      "city": "CASTEIÇÃO",
      "lon": "-7.328261999587879",
      "lat": "40.879887114936444"
    },
    {
      "id": "pt.ine.add.PTCONT.1868033",
      "street": "R DO FORNO",
      "house": "",
      "postcode": "6430-041",
      "city": "CASTEIÇÃO",
      "lon": "-7.32642482995434",
      "lat": "40.88072072110669"
    },
    {
      "id": "pt.ine.add.PTCONT.1873355",
      "street": "R DO LAMEIRÃO",
      "house": "",
      "postcode": "6430-041",
      "city": "CASTEIÇÃO",
      "lon": "-7.328260908885905",
      "lat": "40.87997715427245"
    },
    {
      "id": "pt.ine.add.PTCONT.1878137",
      "street": "R DO FORNO",
      "house": "",
      "postcode": "6430-041",
      "city": "CASTEIÇÃO",
      "lon": "-7.3272131456970095",
      "lat": "40.8802850021461"
    },
    {
      "id": "pt.ine.add.PTCONT.1879096",
      "street": "LG DA IGREJA",
      "house": "",
      "postcode": "6430-041",
      "city": "CASTEIÇÃO",
      "lon": "-7.327626277325941",
      "lat": "40.88045897732505"
    },
    {
      "id": "pt.ine.add.PTCONT.1884059",
      "street": "LG DA IGREJA",
      "house": "",
      "postcode": "6430-041",
      "city": "CASTEIÇÃO",
      "lon": "-7.327531809617064",
      "lat": "40.88042229876115"
    },
    {
      "id": "pt.ine.add.PTCONT.1890267",
      "street": "R DA CALÇADA",
      "house": "",
      "postcode": "6430-041",
      "city": "CASTEIÇÃO",
      "lon": "-7.326149244846216",
      "lat": "40.88094391056956"
    },
    {
      "id": "pt.ine.add.PTCONT.1890610",
      "street": "TV DE LOMBORCO",
      "house": "",
      "postcode": "6430-041",
      "city": "CASTEIÇÃO",
      "lon": "-7.326076425502561",
      "lat": "40.881078471437334"
    },
    {
      "id": "pt.ine.add.PTCONT.1890611",
      "street": "R CAPELA",
      "house": "",
      "postcode": "6430-041",
      "city": "CASTEIÇÃO",
      "lon": "-7.32724993604209",
      "lat": "40.88018620757753"
    },
    {
      "id": "pt.ine.add.PTCONT.1898628",
      "street": "R DO LAMEIRÃO",
      "house": "",
      "postcode": "6430-041",
      "city": "CASTEIÇÃO",
      "lon": "-7.328204321007295",
      "lat": "40.87975164199801"
    }
  ]
}