{
  "data": {
    "distrito": "Guarda",
    "concelho": "Mêda",
    "freguesia": "Prova e Casteição",
    "OBJECTID": 428,
    "BGRI2021": "09091800123",
    "DT21": "09",
    "DTMN21": "0909",
    "DTMNFR21": "090918",
    "DTMNFRSEC21": "090918001",
    "SECNUM21": "001",
    "SSNUM21": "23",
    "SECSSNUM21": "00123",
    "OBJECTID_1": 79504,
    "DT": "09",
    "CC": "09",
    "fr": "18",
    "SEC": "001",
    "SS": "23"
  },
  "addresses": [
    {
      "id": "pt.ine.add.PTCONT.1902893",
      "street": "R DO CIMO DO ADRO",
      "house": "",
      "postcode": "6430-341",
      "city": "PROVA",
      "lon": "-7.342049675143914",
      "lat": "40.911615928163144"
    },
    {
      "id": "pt.ine.add.PTCONT.1910485",
      "street": "R TRÁS DA IGREJA",
      "house": "",
      "postcode": "6430-341",
      "city": "PROVA",
      "lon": "-7.340625974081938",
      "lat": "40.91156112974835"
    },
    {
      "id": "pt.ine.add.PTCONT.1911838",
      "street": "ADRO DA IGREJA",
      "house": "",
      "postcode": "6430-341",
      "city": "PROVA",
      "lon": "-7.340922152833896",
      "lat": "40.91160818801682"
    },
    {
      "id": "pt.ine.add.PTCONT.1915866",
      "street": "R DO ADRO",
      "house": "",
      "postcode": "6430-341",
      "city": "PROVA",
      "lon": "-7.341524769408009",
      "lat": "40.91183744244645"
    },
    {
      "id": "pt.ine.add.PTCONT.1917166",
      "street": "R DA FONTE DA TEJA",
      "house": "",
      "postcode": "6430-341",
      "city": "PROVA",
      "lon": "-7.342798794563328",
      "lat": "40.911504004116544"
    },
    {
      "id": "pt.ine.add.PTCONT.1920618",
      "street": "ADRO DA IGREJA",
      "house": "",
      "postcode": "6430-341",
      "city": "PROVA",
      "lon": "-7.3405881102352355",
      "lat": "40.91174996718256"
    },
    {
      "id": "pt.ine.add.PTCONT.1941370",
      "street": "R DA FONTE DA TEJA",
      "house": "",
      "postcode": "6430-341",
      "city": "PROVA",
      "lon": "-7.343494567364747",
      "lat": "40.910887449435755"
    },
    {
      "id": "pt.ine.add.PTCONT.1942347",
      "street": "R DOS AMARAIS",
      "house": "",
      "postcode": "6430-341",
      "city": "PROVA",
      "lon": "-7.340007621061293",
      "lat": "40.91165592979544"
    },
    {
      "id": "pt.ine.add.PTCONT.1942348",
      "street": "R DO ADRO",
      "house": "",
      "postcode": "6430-341",
      "city": "PROVA",
      "lon": "-7.341394321162705",
      "lat": "40.91182754227257"
    },
    {
      "id": "pt.ine.add.PTCONT.1954341",
      "street": "R DA FONTE DA TEJA",
      "house": "",
      "postcode": "6430-341",
      "city": "PROVA",
      "lon": "-7.34404308904475",
      "lat": "40.91067509236417"
    },
    {
      "id": "pt.ine.add.PTCONT.1959195",
      "street": "R PADRE MANUEL FONSECA",
      "house": "",
      "postcode": "6430-341",
      "city": "PROVA",
      "lon": "-7.339943758241506",
      "lat": "40.912033685832945"
    },
    {
      "id": "pt.ine.add.PTCONT.1960180",
      "street": "R TRÁS DA IGREJA",
      "house": "",
      "postcode": "6430-341",
      "city": "PROVA",
      "lon": "-7.3404716817098965",
      "lat": "40.911560069317794"
    },
    {
      "id": "pt.ine.add.PTCONT.1960972",
      "street": "R DO CIMO DO ADRO",
      "house": "",
      "postcode": "6430-341",
      "city": "PROVA",
      "lon": "-7.34227689630601",
      "lat": "40.91147341223247"
    },
    {
      "id": "pt.ine.add.PTCONT.1976543",
      "street": "R PADRE MANUEL FONSECA",
      "house": "",
      "postcode": "6430-341",
      "city": "PROVA",
      "lon": "-7.340385589882296",
      "lat": "40.911811607725106"
    },
    {
      "id": "pt.ine.add.PTCONT.1979198",
      "street": "R DO CIMO DO ADRO",
      "house": "",
      "postcode": "6430-341",
      "city": "PROVA",
      "lon": "-7.342133077682824",
      "lat": "40.911589486310426"
    },
    {
      "id": "pt.ine.add.PTCONT.1851380",
      "street": "R DA FONTE DA TEJA",
      "house": "",
      "postcode": "6430-341",
      "city": "PROVA",
      "lon": "-7.343863883824419",
      "lat": "40.91077291718398"
    },
    {
      "id": "pt.ine.add.PTCONT.1859376",
      "street": "R DO CIMO DO ADRO",
      "house": "",
      "postcode": "6430-341",
      "city": "PROVA",
      "lon": "-7.34256110001134",
      "lat": "40.91152938882008"
    },
    {
      "id": "pt.ine.add.PTCONT.1870703",
      "street": "R DA FONTE NOVA",
      "house": "",
      "postcode": "6430-341",
      "city": "PROVA",
      "lon": "-7.339827869203885",
      "lat": "40.91179876779392"
    },
    {
      "id": "pt.ine.add.PTCONT.1891367",
      "street": "R DO CIMO DO ADRO",
      "house": "",
      "postcode": "6430-341",
      "city": "PROVA",
      "lon": "-7.3419186905496305",
      "lat": "40.91165104815556"
    }
  ]
}