{
  "data": {
    "distrito": "Guarda",
    "concelho": "Mêda",
    "freguesia": "Prova e Casteição",
    "OBJECTID": 89,
    "BGRI2021": "09091800129",
    "DT21": "09",
    "DTMN21": "0909",
    "DTMNFR21": "090918",
    "DTMNFRSEC21": "090918001",
    "SECNUM21": "001",
    "SSNUM21": "29",
    "SECSSNUM21": "00129",
    "OBJECTID_1": 79427,
    "DT": "09",
    "CC": "09",
    "fr": "18",
    "SEC": "001",
    "SS": "29"
  },
  "addresses": [
    {
      "id": "pt.ine.add.PTCONT.1899917",
      "street": "R DA CRECHE",
      "house": "",
      "postcode": "6430-341",
      "city": "PROVA",
      "lon": "-7.341277241230059",
      "lat": "40.913681695975015"
    },
    {
      "id": "pt.ine.add.PTCONT.1900283",
      "street": "R SUCURCHÃO",
      "house": "",
      "postcode": "6430-341",
      "city": "PROVA",
      "lon": "-7.342784607849328",
      "lat": "40.913692036633435"
    },
    {
      "id": "pt.ine.add.PTCONT.1912594",
      "street": "R PADRE AMÂNDIO JOSÉ DO AMARAL",
      "house": "",
      "postcode": "6430-341",
      "city": "PROVA",
      "lon": "-7.3413612912121184",
      "lat": "40.91360123125961"
    },
    {
      "id": "pt.ine.add.PTCONT.1917165",
      "street": "R NSA SRA DA PAZ",
      "house": "",
      "postcode": "6430-341",
      "city": "PROVA",
      "lon": "-7.341662526513633",
      "lat": "40.913225103916545"
    },
    {
      "id": "pt.ine.add.PTCONT.1918293",
      "street": "R PADRE AMÂNDIO JOSÉ DO AMARAL",
      "house": "",
      "postcode": "6430-341",
      "city": "PROVA",
      "lon": "-7.341467575275617",
      "lat": "40.91364698418078"
    },
    {
      "id": "pt.ine.add.PTCONT.1920631",
      "street": "R DIREITA",
      "house": "",
      "postcode": "6430-341",
      "city": "PROVA",
      "lon": "-7.342986917403677",
      "lat": "40.913648399755836"
    },
    {
      "id": "pt.ine.add.PTCONT.1922979",
      "street": "R PADRE AMÂNDIO JOSÉ DO AMARAL",
      "house": "",
      "postcode": "6430-341",
      "city": "PROVA",
      "lon": "-7.341222086308211",
      "lat": "40.91333013599052"
    },
    {
      "id": "pt.ine.add.PTCONT.1928011",
      "street": "R DO GORGULÃO",
      "house": "",
      "postcode": "6430-341",
      "city": "PROVA",
      "lon": "-7.342397435664378",
      "lat": "40.91331118728016"
    },
    {
      "id": "pt.ine.add.PTCONT.1930028",
      "street": "R DO GORGULÃO",
      "house": "",
      "postcode": "6430-341",
      "city": "PROVA",
      "lon": "-7.3426823980170655",
      "lat": "40.913304136235645"
    },
    {
      "id": "pt.ine.add.PTCONT.1935224",
      "street": "R PADRE AMÂNDIO JOSÉ DO AMARAL",
      "house": "",
      "postcode": "6430-341",
      "city": "PROVA",
      "lon": "-7.341666449321258",
      "lat": "40.913891474741966"
    },
    {
      "id": "pt.ine.add.PTCONT.1935225",
      "street": "R NSA SRA DA PAZ",
      "house": "",
      "postcode": "6430-341",
      "city": "PROVA",
      "lon": "-7.3418162860047484",
      "lat": "40.91327118234487"
    },
    {
      "id": "pt.ine.add.PTCONT.1935705",
      "street": "LG DOS AUTARCAS",
      "house": "",
      "postcode": "6430-341",
      "city": "PROVA",
      "lon": "-7.342303020434154",
      "lat": "40.9132655166069"
    },
    {
      "id": "pt.ine.add.PTCONT.1938339",
      "street": "TV DA R DO APOLINÁRIO",
      "house": "",
      "postcode": "6430-341",
      "city": "PROVA",
      "lon": "-7.34191602172138",
      "lat": "40.91386617340888"
    },
    {
      "id": "pt.ine.add.PTCONT.1940277",
      "street": "R DA CRECHE",
      "house": "",
      "postcode": "6430-341",
      "city": "PROVA",
      "lon": "-7.3412431382934855",
      "lat": "40.913555396738694"
    },
    {
      "id": "pt.ine.add.PTCONT.1941352",
      "street": "R APOLINÁRIO",
      "house": "",
      "postcode": "6430-341",
      "city": "PROVA",
      "lon": "-7.341877838057139",
      "lat": "40.91408202294331"
    },
    {
      "id": "pt.ine.add.PTCONT.1955304",
      "street": "R NSA SRA DA PAZ",
      "house": "",
      "postcode": "6430-341",
      "city": "PROVA",
      "lon": "-7.342162095362513",
      "lat": "40.91313848502537"
    },
    {
      "id": "pt.ine.add.PTCONT.1965047",
      "street": "R PADRE AMÂNDIO JOSÉ DO AMARAL",
      "house": "",
      "postcode": "6430-341",
      "city": "PROVA",
      "lon": "-7.34140683376357",
      "lat": "40.913763627587585"
    },
    {
      "id": "pt.ine.add.PTCONT.1967046",
      "street": "R DA ESCOLA",
      "house": "",
      "postcode": "6430-341",
      "city": "PROVA",
      "lon": "-7.34110178483694",
      "lat": "40.91346437951835"
    },
    {
      "id": "pt.ine.add.PTCONT.1971538",
      "street": "R SUCURCHÃO",
      "house": "",
      "postcode": "6430-341",
      "city": "PROVA",
      "lon": "-7.342889928119544",
      "lat": "40.913818823466286"
    },
    {
      "id": "pt.ine.add.PTCONT.1975041",
      "street": "LG DA DEVESA",
      "house": "",
      "postcode": "6430-341",
      "city": "PROVA",
      "lon": "-7.3412006046845395",
      "lat": "40.91314089087117"
    },
    {
      "id": "pt.ine.add.PTCONT.1850386",
      "street": "R PADRE AMÂNDIO JOSÉ DO AMARAL",
      "house": "",
      "postcode": "6430-341",
      "city": "PROVA",
      "lon": "-7.341497113107234",
      "lat": "40.9131609359876"
    },
    {
      "id": "pt.ine.add.PTCONT.1855796",
      "street": "R SUCURCHÃO",
      "house": "",
      "postcode": "6430-341",
      "city": "PROVA",
      "lon": "-7.342725584404686",
      "lat": "40.913664618156055"
    },
    {
      "id": "pt.ine.add.PTCONT.1860935",
      "street": "LG DOS AUTARCAS",
      "house": "",
      "postcode": "6430-341",
      "city": "PROVA",
      "lon": "-7.342618977671909",
      "lat": "40.91364587812327"
    },
    {
      "id": "pt.ine.add.PTCONT.1860936",
      "street": "LG DOS AUTARCAS",
      "house": "",
      "postcode": "6430-341",
      "city": "PROVA",
      "lon": "-7.342618977671909",
      "lat": "40.91364587812327"
    },
    {
      "id": "pt.ine.add.PTCONT.1867063",
      "street": "R NSA SRA DA PAZ",
      "house": "",
      "postcode": "6430-341",
      "city": "PROVA",
      "lon": "-7.341482666467873",
      "lat": "40.91337694836008"
    },
    {
      "id": "pt.ine.add.PTCONT.1873599",
      "street": "R MARIA CÂNDIDA GAMBOA INFANÇÃO",
      "house": "",
      "postcode": "6430-341",
      "city": "PROVA",
      "lon": "-7.342154154145776",
      "lat": "40.91380477448026"
    },
    {
      "id": "pt.ine.add.PTCONT.1873853",
      "street": "R PADRE AMÂNDIO JOSÉ DO AMARAL",
      "house": "",
      "postcode": "6430-341",
      "city": "PROVA",
      "lon": "-7.341448885514009",
      "lat": "40.91322363744459"
    },
    {
      "id": "pt.ine.add.PTCONT.1882997",
      "street": "R MARIA CÂNDIDA GAMBOA INFANÇÃO",
      "house": "",
      "postcode": "6430-341",
      "city": "PROVA",
      "lon": "-7.341916987852103",
      "lat": "40.91378513821462"
    },
    {
      "id": "pt.ine.add.PTCONT.1884000",
      "street": "R NSA SRA DA PAZ",
      "house": "",
      "postcode": "6430-341",
      "city": "PROVA",
      "lon": "-7.341555061643772",
      "lat": "40.91327839419355"
    },
    {
      "id": "pt.ine.add.PTCONT.1895367",
      "street": "R MARIA CÂNDIDA GAMBOA INFANÇÃO",
      "house": "",
      "postcode": "6430-341",
      "city": "PROVA",
      "lon": "-7.341798941578624",
      "lat": "40.91373030034767"
    }
  ]
}