{
  "data": {
    "distrito": "Viseu",
    "concelho": "Penalva do Castelo",
    "freguesia": "Real",
    "OBJECTID": 23,
    "BGRI2021": "18111000116",
    "DT21": "18",
    "DTMN21": "1811",
    "DTMNFR21": "181110",
    "DTMNFRSEC21": "181110001",
    "SECNUM21": "001",
    "SSNUM21": "16",
    "SECSSNUM21": "00116",
    "OBJECTID_1": 194626,
    "DT": "18",
    "CC": "11",
    "fr": "10",
    "SEC": "001",
    "SS": "16"
  },
  "addresses": [
    {
      "id": "pt.ine.add.PTCONT.5462501",
      "street": "TV FIGUEIRA",
      "house": "",
      "postcode": "3550-271",
      "city": "REAL PCT",
      "lon": "-7.678897090412774",
      "lat": "40.642403915505305"
    },
    {
      "id": "pt.ine.add.PTCONT.5464567",
      "street": "TV FIGUEIRA",
      "house": "2",
      "postcode": "3550-271",
      "city": "REAL PCT",
      "lon": "-7.678743775995895",
      "lat": "40.64234928146403"
    },
    {
      "id": "pt.ine.add.PTCONT.5475582",
      "street": "LG CRUZEIRO",
      "house": "",
      "postcode": "3550-271",
      "city": "REAL PCT",
      "lon": "-7.678376573397091",
      "lat": "40.64245589791616"
    },
    {
      "id": "pt.ine.add.PTCONT.5522690",
      "street": "R PAZ",
      "house": "18",
      "postcode": "3550-271",
      "city": "REAL PCT",
      "lon": "-7.679701873235039",
      "lat": "40.64227200083295"
    },
    {
      "id": "pt.ine.add.PTCONT.5539595",
      "street": "R PROF DR AGUIAR E SILVA",
      "house": "9",
      "postcode": "3550-271",
      "city": "REAL PCT",
      "lon": "-7.678410816077438",
      "lat": "40.64263613579076"
    },
    {
      "id": "pt.ine.add.PTCONT.5544802",
      "street": "TV FIGUEIRA",
      "house": "4",
      "postcode": "3550-271",
      "city": "REAL PCT",
      "lon": "-7.678649142206013",
      "lat": "40.64235791423272"
    },
    {
      "id": "pt.ine.add.PTCONT.5558100",
      "street": "R PROF DR AGUIAR E SILVA",
      "house": "23",
      "postcode": "3550-271",
      "city": "REAL PCT",
      "lon": "-7.678338052719576",
      "lat": "40.64290600381279"
    },
    {
      "id": "pt.ine.add.PTCONT.5558101",
      "street": "R PAZ",
      "house": "12",
      "postcode": "3550-271",
      "city": "REAL PCT",
      "lon": "-7.679335343365432",
      "lat": "40.642279566301845"
    },
    {
      "id": "pt.ine.add.PTCONT.5575820",
      "street": "R PROF DR AGUIAR E SILVA",
      "house": "3",
      "postcode": "3550-271",
      "city": "REAL PCT",
      "lon": "-7.678375901167443",
      "lat": "40.64255495194164"
    },
    {
      "id": "pt.ine.add.PTCONT.5588451",
      "street": "R FLORES",
      "house": "5",
      "postcode": "3550-271",
      "city": "REAL PCT",
      "lon": "-7.678506672177666",
      "lat": "40.64244740498968"
    },
    {
      "id": "pt.ine.add.PTCONT.5590676",
      "street": "R PROF DR AGUIAR E SILVA",
      "house": "1",
      "postcode": "3550-271",
      "city": "REAL PCT",
      "lon": "-7.678317282000052",
      "lat": "40.64248267988136"
    },
    {
      "id": "pt.ine.add.PTCONT.5593009",
      "street": "R PAZ",
      "house": "16",
      "postcode": "3550-271",
      "city": "REAL PCT",
      "lon": "-7.67956007526",
      "lat": "40.6422624388535"
    },
    {
      "id": "pt.ine.add.PTCONT.5606994",
      "street": "R PROF DR AGUIAR E SILVA",
      "house": "17",
      "postcode": "3550-271",
      "city": "REAL PCT",
      "lon": "-7.6782801667936145",
      "lat": "40.64272567280599"
    },
    {
      "id": "pt.ine.add.PTCONT.5610789",
      "street": "R PROF DR AGUIAR E SILVA",
      "house": "",
      "postcode": "3550-271",
      "city": "REAL PCT",
      "lon": "-7.678323541753549",
      "lat": "40.64330217331495"
    },
    {
      "id": "pt.ine.add.PTCONT.5616145",
      "street": "R FLORES",
      "house": "8",
      "postcode": "3550-271",
      "city": "REAL PCT",
      "lon": "-7.678447136430704",
      "lat": "40.64251020666814"
    },
    {
      "id": "pt.ine.add.PTCONT.5620341",
      "street": "R PROF DR AGUIAR E SILVA",
      "house": "27",
      "postcode": "3550-271",
      "city": "REAL PCT",
      "lon": "-7.678312392338871",
      "lat": "40.64320307274562"
    },
    {
      "id": "pt.ine.add.PTCONT.5629837",
      "street": "TV FIGUEIRA",
      "house": "",
      "postcode": "3550-271",
      "city": "REAL PCT",
      "lon": "-7.678755231222101",
      "lat": "40.642403357449005"
    },
    {
      "id": "pt.ine.add.PTCONT.5650960",
      "street": "LG CRUZEIRO",
      "house": "2",
      "postcode": "3550-271",
      "city": "REAL PCT",
      "lon": "-7.6784834566453695",
      "lat": "40.64238427753064"
    },
    {
      "id": "pt.ine.add.PTCONT.5665815",
      "street": "R PROF DR AGUIAR E SILVA",
      "house": "",
      "postcode": "3550-271",
      "city": "REAL PCT",
      "lon": "-7.678338786130957",
      "lat": "40.64279794488297"
    }
  ]
}