{
  "data": {
    "distrito": "Setúbal",
    "concelho": "Montijo",
    "freguesia": "União das freguesias de Atalaia e Alto Estanqueiro-Jardia",
    "OBJECTID": 141,
    "BGRI2021": "15070900334",
    "DT21": "15",
    "DTMN21": "1507",
    "DTMNFR21": "150709",
    "DTMNFRSEC21": "150709003",
    "SECNUM21": "003",
    "SSNUM21": "34",
    "SECSSNUM21": "00334",
    "OBJECTID_1": 164353,
    "DT": "15",
    "CC": "07",
    "fr": "09",
    "SEC": "003",
    "SS": "34"
  },
  "addresses": [
    {
      "id": "pt.ine.add.PTCONT.4751879",
      "street": "CAM FURO COLECTIVO",
      "house": "",
      "postcode": "2870-709",
      "city": "ATALAIA MTJ",
      "lon": "-8.920470929524308",
      "lat": "38.69889934435384"
    },
    {
      "id": "pt.ine.add.PTCONT.4764836",
      "street": "R 25 DE ABRIL",
      "house": "661",
      "postcode": "2870-709",
      "city": "ATALAIA MTJ",
      "lon": "-8.921332473213818",
      "lat": "38.699893431295266"
    },
    {
      "id": "pt.ine.add.PTCONT.4829834",
      "street": "CAM FURO COLECTIVO",
      "house": "",
      "postcode": "2870-709",
      "city": "ATALAIA MTJ",
      "lon": "-8.917102707028643",
      "lat": "38.695724123290304"
    },
    {
      "id": "pt.ine.add.PTCONT.4847920",
      "street": "ESCNH ADRO DA IGREJA",
      "house": "",
      "postcode": "2870-704",
      "city": "ATALAIA MTJ",
      "lon": "-8.921179605549868",
      "lat": "38.70272298204641"
    },
    {
      "id": "pt.ine.add.PTCONT.4847921",
      "street": "ESCNH ADRO DA IGREJA",
      "house": "",
      "postcode": "2870-704",
      "city": "ATALAIA MTJ",
      "lon": "-8.921179605549868",
      "lat": "38.70272298204641"
    },
    {
      "id": "pt.ine.add.PTCONT.4847998",
      "street": "ESCNH ADRO DA IGREJA",
      "house": "",
      "postcode": "2870-704",
      "city": "ATALAIA MTJ",
      "lon": "-8.921179605549868",
      "lat": "38.70272298204641"
    },
    {
      "id": "pt.ine.add.PTCONT.4856055",
      "street": "CAM FURO COLECTIVO",
      "house": "",
      "postcode": "2870-709",
      "city": "ATALAIA MTJ",
      "lon": "-8.920521449649796",
      "lat": "38.69931337356506"
    },
    {
      "id": "pt.ine.add.PTCONT.4880068",
      "street": "CAM FURO COLECTIVO A",
      "house": "A",
      "postcode": "2870-709",
      "city": "ATALAIA MTJ",
      "lon": "-8.920344059249748",
      "lat": "38.69990909792036"
    },
    {
      "id": "pt.ine.add.PTCONT.4880069",
      "street": "CAM FURO COLECTIVO C",
      "house": "C",
      "postcode": "2870-709",
      "city": "ATALAIA MTJ",
      "lon": "-8.920344059249748",
      "lat": "38.69990909792036"
    },
    {
      "id": "pt.ine.add.PTCONT.4880070",
      "street": "CAM FURO COLECTIVO B",
      "house": "B",
      "postcode": "2870-709",
      "city": "ATALAIA MTJ",
      "lon": "-8.920344059249748",
      "lat": "38.69990909792036"
    },
    {
      "id": "pt.ine.add.PTCONT.4890996",
      "street": "ESCNH ADRO DA IGREJA",
      "house": "",
      "postcode": "2870-704",
      "city": "ATALAIA MTJ",
      "lon": "-8.919698700795562",
      "lat": "38.70185917502559"
    },
    {
      "id": "pt.ine.add.PTCONT.4893315",
      "street": "CAM FURO COLECTIVO",
      "house": "",
      "postcode": "2870-709",
      "city": "ATALAIA MTJ",
      "lon": "-8.919342286074807",
      "lat": "38.697654822101185"
    },
    {
      "id": "pt.ine.add.PTCONT.4912612",
      "street": "R 25 DE ABRIL",
      "house": "667",
      "postcode": "2870-709",
      "city": "ATALAIA MTJ",
      "lon": "-8.921932058472965",
      "lat": "38.700060540568636"
    },
    {
      "id": "pt.ine.add.PTCONT.4928955",
      "street": "ESTR VALE PORRIM",
      "house": "",
      "postcode": "2870-741",
      "city": "ATALAIA MTJ",
      "lon": "-8.916837959274455",
      "lat": "38.69568986583784"
    },
    {
      "id": "pt.ine.add.PTCONT.4928956",
      "street": "ESTR VALE PORRIM",
      "house": "",
      "postcode": "2870-741",
      "city": "ATALAIA MTJ",
      "lon": "-8.916837959274455",
      "lat": "38.69568986583784"
    },
    {
      "id": "pt.ine.add.PTCONT.4938478",
      "street": "R 25 DE ABRIL",
      "house": "741",
      "postcode": "2870-709",
      "city": "ATALAIA MTJ",
      "lon": "-8.921609841721375",
      "lat": "38.698981750295836"
    },
    {
      "id": "pt.ine.add.PTCONT.4959116",
      "street": "R 25 DE ABRIL",
      "house": "435",
      "postcode": "2870-709",
      "city": "ATALAIA MTJ",
      "lon": "-8.9221762860359",
      "lat": "38.70240998763049"
    },
    {
      "id": "pt.ine.add.PTCONT.4962650",
      "street": "CAM FURO COLECTIVO",
      "house": "",
      "postcode": "2870-709",
      "city": "ATALAIA MTJ",
      "lon": "-8.921959401187172",
      "lat": "38.700456709340465"
    },
    {
      "id": "pt.ine.add.PTCONT.4989311",
      "street": "R 25 ABRIL",
      "house": "",
      "postcode": "2870-709",
      "city": "ATALAIA MTJ",
      "lon": "-8.919487109335963",
      "lat": "38.702482152019165"
    },
    {
      "id": "pt.ine.add.PTCONT.4995944",
      "street": "R 25 DE ABRIL",
      "house": "",
      "postcode": "2870-709",
      "city": "ATALAIA MTJ",
      "lon": "-8.921699717934217",
      "lat": "38.69879197557516"
    },
    {
      "id": "pt.ine.add.PTCONT.5005961",
      "street": "R 25 DE ABRIL",
      "house": "651",
      "postcode": "2870-709",
      "city": "ATALAIA MTJ",
      "lon": "-8.921599909008767",
      "lat": "38.700170877120556"
    },
    {
      "id": "pt.ine.add.PTCONT.5017248",
      "street": "CAM FURO COLECTIVO",
      "house": "",
      "postcode": "2870-709",
      "city": "ATALAIA MTJ",
      "lon": "-8.918297388324696",
      "lat": "38.69670699140843"
    },
    {
      "id": "pt.ine.add.PTCONT.5028531",
      "street": "R 25 DE ABRIL",
      "house": "705",
      "postcode": "2870-709",
      "city": "ATALAIA MTJ",
      "lon": "-8.921532448232043",
      "lat": "38.699261521075684"
    },
    {
      "id": "pt.ine.add.PTCONT.5047957",
      "street": "R 25 DE ABRIL",
      "house": "589",
      "postcode": "2870-709",
      "city": "ATALAIA MTJ",
      "lon": "-8.921965635472835",
      "lat": "38.70102417299603"
    },
    {
      "id": "pt.ine.add.PTCONT.5080621",
      "street": "R 25 DE ABRIL",
      "house": "",
      "postcode": "2870-709",
      "city": "ATALAIA MTJ",
      "lon": "-8.921865153249838",
      "lat": "38.701295091639366"
    },
    {
      "id": "pt.ine.add.PTCONT.5095753",
      "street": "R 25 DE ABRIL QTA LAGOA DE STA MARIA",
      "house": "",
      "postcode": "2870-709",
      "city": "ATALAIA MTJ",
      "lon": "-8.920301439262918",
      "lat": "38.70021565783513"
    },
    {
      "id": "pt.ine.add.PTCONT.5111026",
      "street": "R 25 DE ABRIL CASAL DOS VIRGULINOS",
      "house": "",
      "postcode": "2870-709",
      "city": "ATALAIA MTJ",
      "lon": "-8.92102620788511",
      "lat": "38.69921989318166"
    }
  ]
}