{
  "data": {
    "distrito": "Viseu",
    "concelho": "Tarouca",
    "freguesia": "União das freguesias de Tarouca e Dálvares",
    "OBJECTID": 386,
    "BGRI2021": "18201300316",
    "DT21": "18",
    "DTMN21": "1820",
    "DTMNFR21": "182013",
    "DTMNFRSEC21": "182013003",
    "SECNUM21": "003",
    "SSNUM21": "16",
    "SECSSNUM21": "00316",
    "OBJECTID_1": 198595,
    "DT": "18",
    "CC": "20",
    "fr": "13",
    "SEC": "003",
    "SS": "16"
  },
  "addresses": [
    {
      "id": "pt.ine.add.PTCONT.5429634",
      "street": "R NSA SRA DA CONCEIÇÃO",
      "house": "",
      "postcode": "3610-013",
      "city": "DALVARES",
      "lon": "-7.75754661236876",
      "lat": "41.03764854850334"
    },
    {
      "id": "pt.ine.add.PTCONT.5430556",
      "street": "LG EIRO",
      "house": "12",
      "postcode": "3610-013",
      "city": "DALVARES",
      "lon": "-7.758796351859314",
      "lat": "41.03536545798035"
    },
    {
      "id": "pt.ine.add.PTCONT.5432316",
      "street": "R PADRE TOMAS",
      "house": "3",
      "postcode": "3610-013",
      "city": "DALVARES",
      "lon": "-7.759163823783939",
      "lat": "41.0355737555647"
    },
    {
      "id": "pt.ine.add.PTCONT.5470719",
      "street": "",
      "house": "",
      "postcode": "3610-013",
      "city": "DALVARES",
      "lon": "-7.756658164600166",
      "lat": "41.03077517453488"
    },
    {
      "id": "pt.ine.add.PTCONT.5447080",
      "street": "AV PROF CELSO GOMES",
      "house": "42",
      "postcode": "3610-013",
      "city": "DALVARES",
      "lon": "-7.758765477998071",
      "lat": "41.036616990506445"
    },
    {
      "id": "pt.ine.add.PTCONT.5453614",
      "street": "R PADRE TOMAS",
      "house": "6",
      "postcode": "3610-013",
      "city": "DALVARES",
      "lon": "-7.7589729945728925",
      "lat": "41.035672186340896"
    },
    {
      "id": "pt.ine.add.PTCONT.5501308",
      "street": "AV PROF CELSO GOMES",
      "house": "46",
      "postcode": "3610-013",
      "city": "DALVARES",
      "lon": "-7.758991272362787",
      "lat": "41.036644737319435"
    },
    {
      "id": "pt.ine.add.PTCONT.5501329",
      "street": "R PE TOMÁS",
      "house": "1 A",
      "postcode": "3610-013",
      "city": "DALVARES",
      "lon": "-7.7591501994551715",
      "lat": "41.03587986616085"
    },
    {
      "id": "pt.ine.add.PTCONT.5516470",
      "street": "AV PROF CELSO GOMES",
      "house": "40",
      "postcode": "3610-013",
      "city": "DALVARES",
      "lon": "-7.75878992503108",
      "lat": "41.03650001073652"
    },
    {
      "id": "pt.ine.add.PTCONT.5520176",
      "street": "R PADRE TOMAS",
      "house": "9",
      "postcode": "3610-013",
      "city": "DALVARES",
      "lon": "-7.758842490841155",
      "lat": "41.03561773530971"
    },
    {
      "id": "pt.ine.add.PTCONT.5527693",
      "street": "AV PROF CELSO GOMES",
      "house": "52",
      "postcode": "3610-013",
      "city": "DALVARES",
      "lon": "-7.758464809434675",
      "lat": "41.03721031391169"
    },
    {
      "id": "pt.ine.add.PTCONT.5532957",
      "street": "R PADRE TOMAS",
      "house": "5",
      "postcode": "3610-013",
      "city": "DALVARES",
      "lon": "-7.7590458744806",
      "lat": "41.035402286301405"
    },
    {
      "id": "pt.ine.add.PTCONT.5543615",
      "street": "LG EIRO",
      "house": "14",
      "postcode": "3610-013",
      "city": "DALVARES",
      "lon": "-7.758831670071449",
      "lat": "41.03542860455243"
    },
    {
      "id": "pt.ine.add.PTCONT.5543616",
      "street": "R PADRE TOMAS",
      "house": "",
      "postcode": "3610-013",
      "city": "DALVARES",
      "lon": "-7.759141416107137",
      "lat": "41.035330559918215"
    },
    {
      "id": "pt.ine.add.PTCONT.5550926",
      "street": "R NSA SRA DA CONCEIÇÃO",
      "house": "8",
      "postcode": "3610-013",
      "city": "DALVARES",
      "lon": "-7.757736886728647",
      "lat": "41.03764916837223"
    },
    {
      "id": "pt.ine.add.PTCONT.5554468",
      "street": "OVEIRAS",
      "house": "50 A",
      "postcode": "3610-013",
      "city": "DALVARES",
      "lon": "-7.757729444996757",
      "lat": "41.03686574825086"
    },
    {
      "id": "pt.ine.add.PTCONT.5568147",
      "street": "R PADRE TOMAS",
      "house": "",
      "postcode": "3610-013",
      "city": "DALVARES",
      "lon": "-7.758995809567118",
      "lat": "41.03584334690561"
    },
    {
      "id": "pt.ine.add.PTCONT.5576376",
      "street": "AV PROF CELSO GOMES",
      "house": "36",
      "postcode": "3610-013",
      "city": "DALVARES",
      "lon": "-7.759196747748626",
      "lat": "41.03606010823648"
    },
    {
      "id": "pt.ine.add.PTCONT.5583778",
      "street": "EIRO",
      "house": "",
      "postcode": "3610-013",
      "city": "DALVARES",
      "lon": "-7.758464046855092",
      "lat": "41.0352473190749"
    },
    {
      "id": "pt.ine.add.PTCONT.5589384",
      "street": "R NSA SRA DA CONCEIÇÃO",
      "house": "12",
      "postcode": "3610-013",
      "city": "DALVARES",
      "lon": "-7.757486639755128",
      "lat": "41.037738398558346"
    },
    {
      "id": "pt.ine.add.PTCONT.5592139",
      "street": "R NSA SRA DA CONCEIÇÃO",
      "house": "",
      "postcode": "3610-013",
      "city": "DALVARES",
      "lon": "-7.757879848172898",
      "lat": "41.03760461115098"
    },
    {
      "id": "pt.ine.add.PTCONT.5592140",
      "street": "R PADRE TOMAS",
      "house": "",
      "postcode": "3610-013",
      "city": "DALVARES",
      "lon": "-7.758865356475878",
      "lat": "41.03577989151308"
    },
    {
      "id": "pt.ine.add.PTCONT.5596775",
      "street": "AV PROF CELSO GOMES",
      "house": "54",
      "postcode": "3610-013",
      "city": "DALVARES",
      "lon": "-7.758713471486968",
      "lat": "41.03740021750772"
    },
    {
      "id": "pt.ine.add.PTCONT.5604027",
      "street": "R PADRE TOMAS",
      "house": "8",
      "postcode": "3610-013",
      "city": "DALVARES",
      "lon": "-7.758973402424935",
      "lat": "41.03560015124007"
    },
    {
      "id": "pt.ine.add.PTCONT.5607604",
      "street": "R PADRE TOMAS",
      "house": "11",
      "postcode": "3610-013",
      "city": "DALVARES",
      "lon": "-7.758724185190561",
      "lat": "41.03550929643531"
    },
    {
      "id": "pt.ine.add.PTCONT.5613579",
      "street": "LG EIRO",
      "house": "8",
      "postcode": "3610-013",
      "city": "DALVARES",
      "lon": "-7.7586659509240645",
      "lat": "41.03529299797385"
    },
    {
      "id": "pt.ine.add.PTCONT.5617187",
      "street": "R PADRE TOMAS",
      "house": "7",
      "postcode": "3610-013",
      "city": "DALVARES",
      "lon": "-7.758830089047382",
      "lat": "41.035707740566906"
    },
    {
      "id": "pt.ine.add.PTCONT.5619091",
      "street": "R NSA SRA DA CONCEIÇÃO",
      "house": "6",
      "postcode": "3610-013",
      "city": "DALVARES",
      "lon": "-7.757820898894087",
      "lat": "41.0375143737156"
    },
    {
      "id": "pt.ine.add.PTCONT.5630415",
      "street": "AV PROF CELSO GOMES",
      "house": "56",
      "postcode": "3610-013",
      "city": "DALVARES",
      "lon": "-7.7585692350425175",
      "lat": "41.03766988537335"
    },
    {
      "id": "pt.ine.add.PTCONT.5643703",
      "street": "AV PROF CELSO GOMES",
      "house": "38",
      "postcode": "3610-013",
      "city": "DALVARES",
      "lon": "-7.75906512173251",
      "lat": "41.03620375397145"
    },
    {
      "id": "pt.ine.add.PTCONT.5649241",
      "street": "AV PROF CELSO GOMES",
      "house": "50",
      "postcode": "3610-013",
      "city": "DALVARES",
      "lon": "-7.758943041651219",
      "lat": "41.036761639919135"
    },
    {
      "id": "pt.ine.add.PTCONT.5662986",
      "street": "R PADRE TOMAS",
      "house": "10",
      "postcode": "3610-013",
      "city": "DALVARES",
      "lon": "-7.758985753022749",
      "lat": "41.03551915035265"
    },
    {
      "id": "pt.ine.add.PTCONT.5667049",
      "street": "R PADRE TOMAS",
      "house": "4",
      "postcode": "3610-013",
      "city": "DALVARES",
      "lon": "-7.759092727953085",
      "lat": "41.035528502104334"
    },
    {
      "id": "pt.ine.add.PTCONT.5668625",
      "street": "AV CELSO GOMES",
      "house": "3 A",
      "postcode": "3610-013",
      "city": "DALVARES",
      "lon": "-7.759268863059763",
      "lat": "41.03592527388499"
    },
    {
      "id": "pt.ine.add.PTCONT.5669471",
      "street": "R PADRE TOMAS",
      "house": "1",
      "postcode": "3610-013",
      "city": "DALVARES",
      "lon": "-7.7592818755762405",
      "lat": "41.03572721592929"
    }
  ]
}