{
  "data": {
    "distrito": "Viana do Castelo",
    "concelho": "Valença",
    "freguesia": "Fontoura",
    "OBJECTID": 195,
    "BGRI2021": "16080500128",
    "DT21": "16",
    "DTMN21": "1608",
    "DTMNFR21": "160805",
    "DTMNFRSEC21": "160805001",
    "SECNUM21": "001",
    "SSNUM21": "28",
    "SECSSNUM21": "00128",
    "OBJECTID_1": 177502,
    "DT": "16",
    "CC": "08",
    "fr": "05",
    "SEC": "001",
    "SS": "28"
  },
  "addresses": [
    {
      "id": "pt.ine.add.PTCONT.5144295",
      "street": "R ROCHA",
      "house": "",
      "postcode": "4930-245",
      "city": "FONTOURA",
      "lon": "-8.64209670342043",
      "lat": "41.953229637507604"
    },
    {
      "id": "pt.ine.add.PTCONT.5151942",
      "street": "R SANTO ANTÓNIO",
      "house": "",
      "postcode": "4930-245",
      "city": "FONTOURA",
      "lon": "-8.640700531998581",
      "lat": "41.95359594259534"
    },
    {
      "id": "pt.ine.add.PTCONT.5157207",
      "street": "R CARVALHEIRAS",
      "house": "321",
      "postcode": "4930-250",
      "city": "FONTOURA",
      "lon": "-8.645016301807056",
      "lat": "41.95333369738445"
    },
    {
      "id": "pt.ine.add.PTCONT.5163692",
      "street": "BC PORTELA",
      "house": "",
      "postcode": "4930-255",
      "city": "FONTOURA",
      "lon": "-8.640741190315959",
      "lat": "41.9511199098353"
    },
    {
      "id": "pt.ine.add.PTCONT.5175222",
      "street": "R S MIGUEL",
      "house": "",
      "postcode": "4930-255",
      "city": "FONTOURA",
      "lon": "-8.63979422077039",
      "lat": "41.9503318196693"
    },
    {
      "id": "pt.ine.add.PTCONT.5178150",
      "street": "R S GABRIEL",
      "house": "",
      "postcode": "4930-255",
      "city": "FONTOURA",
      "lon": "-8.64010449691765",
      "lat": "41.95143783177471"
    },
    {
      "id": "pt.ine.add.PTCONT.5179729",
      "street": "R ROCHA",
      "house": "69",
      "postcode": "4930-245",
      "city": "FONTOURA",
      "lon": "-8.642073728235903",
      "lat": "41.95337378896214"
    },
    {
      "id": "pt.ine.add.PTCONT.5181969",
      "street": "R STO ANTONIO",
      "house": "",
      "postcode": "4930-245",
      "city": "FONTOURA",
      "lon": "-8.640637871719445",
      "lat": "41.95329911730078"
    },
    {
      "id": "pt.ine.add.PTCONT.5186001",
      "street": "R STO ANTONIO",
      "house": "",
      "postcode": "4930-245",
      "city": "FONTOURA",
      "lon": "-8.640793373594061",
      "lat": "41.95313637398492"
    },
    {
      "id": "pt.ine.add.PTCONT.5188007",
      "street": "R FONTE DA RUA",
      "house": "",
      "postcode": "4930-255",
      "city": "FONTOURA",
      "lon": "-8.640449603905315",
      "lat": "41.95085110556655"
    },
    {
      "id": "pt.ine.add.PTCONT.5188388",
      "street": "ESTR S GABRIEL",
      "house": "",
      "postcode": "4930-255",
      "city": "FONTOURA",
      "lon": "-8.639892626543256",
      "lat": "41.95057446918107"
    },
    {
      "id": "pt.ine.add.PTCONT.5206607",
      "street": "R STO ANTONIO",
      "house": "151",
      "postcode": "4930-245",
      "city": "FONTOURA",
      "lon": "-8.64088108463521",
      "lat": "41.953550128714426"
    },
    {
      "id": "pt.ine.add.PTCONT.5213056",
      "street": "R CARVALHEIRAS",
      "house": "321",
      "postcode": "4930-250",
      "city": "FONTOURA",
      "lon": "-8.645209992136163",
      "lat": "41.95342286461374"
    },
    {
      "id": "pt.ine.add.PTCONT.5213794",
      "street": "R SANTO ANTÓNIO",
      "house": "",
      "postcode": "4930-245",
      "city": "FONTOURA",
      "lon": "-8.639957484866251",
      "lat": "41.9526719058952"
    },
    {
      "id": "pt.ine.add.PTCONT.5224477",
      "street": "R SANTO ANTÓNIO",
      "house": "",
      "postcode": "4930-245",
      "city": "FONTOURA",
      "lon": "-8.641714701111878",
      "lat": "41.95372650087742"
    },
    {
      "id": "pt.ine.add.PTCONT.5232520",
      "street": "R SANTO ANTÓNIO",
      "house": "",
      "postcode": "4930-245",
      "city": "FONTOURA",
      "lon": "-8.640540030100976",
      "lat": "41.95312849086219"
    },
    {
      "id": "pt.ine.add.PTCONT.5244322",
      "street": "R SANTO ANTÓNIO",
      "house": "195",
      "postcode": "4930-245",
      "city": "FONTOURA",
      "lon": "-8.640931614124607",
      "lat": "41.95383800441881"
    },
    {
      "id": "pt.ine.add.PTCONT.5244895",
      "street": "R FONTE DA RUA",
      "house": "",
      "postcode": "4930-255",
      "city": "FONTOURA",
      "lon": "-8.640560779897433",
      "lat": "41.94966220436541"
    },
    {
      "id": "pt.ine.add.PTCONT.5245387",
      "street": "R STO ANTONIO",
      "house": "136",
      "postcode": "4930-245",
      "city": "FONTOURA",
      "lon": "-8.641095674316968",
      "lat": "41.95323407095113"
    },
    {
      "id": "pt.ine.add.PTCONT.5245467",
      "street": "R SANTO ANTÓNIO",
      "house": "147",
      "postcode": "4930-245",
      "city": "FONTOURA",
      "lon": "-8.641122726637606",
      "lat": "41.95360307835835"
    },
    {
      "id": "pt.ine.add.PTCONT.5250856",
      "street": "ESTR S GABRIEL",
      "house": "",
      "postcode": "4930-255",
      "city": "FONTOURA",
      "lon": "-8.639982325187914",
      "lat": "41.95124030292604"
    },
    {
      "id": "pt.ine.add.PTCONT.5254382",
      "street": "BC PORTELA",
      "house": "",
      "postcode": "4930-255",
      "city": "FONTOURA",
      "lon": "-8.64058447918688",
      "lat": "41.951129605715415"
    },
    {
      "id": "pt.ine.add.PTCONT.5257853",
      "street": "ESTR S GABRIEL",
      "house": "5",
      "postcode": "4930-255",
      "city": "FONTOURA",
      "lon": "-8.639652978769721",
      "lat": "41.952295119490174"
    },
    {
      "id": "pt.ine.add.PTCONT.5257854",
      "street": "ESTR S GABRIEL",
      "house": "",
      "postcode": "4930-255",
      "city": "FONTOURA",
      "lon": "-8.640564921315711",
      "lat": "41.95018436618826"
    },
    {
      "id": "pt.ine.add.PTCONT.5264993",
      "street": "ESTR S GABRIEL",
      "house": "",
      "postcode": "4930-255",
      "city": "FONTOURA",
      "lon": "-8.639570868605542",
      "lat": "41.94954053182949"
    },
    {
      "id": "pt.ine.add.PTCONT.5271114",
      "street": "R SANTO ANTÓNIO",
      "house": "",
      "postcode": "4930-245",
      "city": "FONTOURA",
      "lon": "-8.641509526375337",
      "lat": "41.95370940340384"
    },
    {
      "id": "pt.ine.add.PTCONT.5281455",
      "street": "R SANTO ANTÓNIO",
      "house": "107",
      "postcode": "4930-245",
      "city": "FONTOURA",
      "lon": "-8.640297747996694",
      "lat": "41.9529945149053"
    }
  ]
}