{
  "data": {
    "distrito": "Beja",
    "concelho": "Odemira",
    "freguesia": "Vila Nova de Milfontes",
    "OBJECTID": 1195,
    "BGRI2021": "02111100507",
    "DT21": "02",
    "DTMN21": "0211",
    "DTMNFR21": "021111",
    "DTMNFRSEC21": "021111005",
    "SECNUM21": "005",
    "SSNUM21": "07",
    "SECSSNUM21": "00507",
    "OBJECTID_1": 17424,
    "DT": "02",
    "CC": "11",
    "fr": "11",
    "SEC": "005",
    "SS": "07"
  },
  "addresses": [
    {
      "id": "pt.ine.add.PTCONT.456343",
      "street": "",
      "house": "",
      "postcode": "7645-059",
      "city": "VILA NOVA DE MILFONTES",
      "lon": "-8.790878226366832",
      "lat": "37.73903597636495"
    },
    {
      "id": "pt.ine.add.PTCONT.364351",
      "street": "CERCAS DO CANAL",
      "house": "",
      "postcode": "7645-022",
      "city": "VILA NOVA DE MILFONTES",
      "lon": "-8.792998351694242",
      "lat": "37.73760061801846"
    },
    {
      "id": "pt.ine.add.PTCONT.365129",
      "street": "",
      "house": "",
      "postcode": "7645-059",
      "city": "VILA NOVA DE MILFONTES",
      "lon": "-8.790603090288986",
      "lat": "37.738713167783644"
    },
    {
      "id": "pt.ine.add.PTCONT.374190",
      "street": "CERCAS DO CANAL",
      "house": "",
      "postcode": "7645-022",
      "city": "VILA NOVA DE MILFONTES",
      "lon": "-8.791780295542727",
      "lat": "37.735850568932634"
    },
    {
      "id": "pt.ine.add.PTCONT.378889",
      "street": "",
      "house": "",
      "postcode": "7645-059",
      "city": "VILA NOVA DE MILFONTES",
      "lon": "-8.791041456443464",
      "lat": "37.73825123490718"
    },
    {
      "id": "pt.ine.add.PTCONT.379712",
      "street": "",
      "house": "",
      "postcode": "7645-059",
      "city": "VILA NOVA DE MILFONTES",
      "lon": "-8.790153570661545",
      "lat": "37.73791382474562"
    },
    {
      "id": "pt.ine.add.PTCONT.381422",
      "street": "CM 1099 - CERCAS DO CANAL",
      "house": "",
      "postcode": "7645-059",
      "city": "VILA NOVA DE MILFONTES",
      "lon": "-8.788431343828064",
      "lat": "37.73430157291077"
    },
    {
      "id": "pt.ine.add.PTCONT.381423",
      "street": "CM 1099 - CERCAS DO CANAL",
      "house": "",
      "postcode": "7645-059",
      "city": "VILA NOVA DE MILFONTES",
      "lon": "-8.788431343828064",
      "lat": "37.73430157291077"
    },
    {
      "id": "pt.ine.add.PTCONT.392566",
      "street": "CERCAS DO CANAL",
      "house": "",
      "postcode": "7645-059",
      "city": "VILA NOVA DE MILFONTES",
      "lon": "-8.790998995233155",
      "lat": "37.73601710406348"
    },
    {
      "id": "pt.ine.add.PTCONT.399073",
      "street": "CM 1099 - CERCAS DO CANAL",
      "house": "",
      "postcode": "7645-022",
      "city": "VILA NOVA DE MILFONTES",
      "lon": "-8.790001160299251",
      "lat": "37.73478836057203"
    },
    {
      "id": "pt.ine.add.PTCONT.399900",
      "street": "BREJO DO BOM COMER",
      "house": "",
      "postcode": "7645-022",
      "city": "VILA NOVA DE MILFONTES",
      "lon": "-8.790225690942178",
      "lat": "37.7358051883552"
    },
    {
      "id": "pt.ine.add.PTCONT.400714",
      "street": "",
      "house": "",
      "postcode": "7645-059",
      "city": "VILA NOVA DE MILFONTES",
      "lon": "-8.79085051545797",
      "lat": "37.73846852964093"
    },
    {
      "id": "pt.ine.add.PTCONT.402234",
      "street": "CERCAS DO CANAL",
      "house": "",
      "postcode": "7645-022",
      "city": "VILA NOVA DE MILFONTES",
      "lon": "-8.793062364019761",
      "lat": "37.739699483512794"
    },
    {
      "id": "pt.ine.add.PTCONT.403929",
      "street": "CERCAS DO CANAL - CASA DOS OLHARES",
      "house": "",
      "postcode": "7645-022",
      "city": "VILA NOVA DE MILFONTES",
      "lon": "-8.793077068011755",
      "lat": "37.740077801975595"
    },
    {
      "id": "pt.ine.add.PTCONT.407221",
      "street": "",
      "house": "",
      "postcode": "7645-059",
      "city": "VILA NOVA DE MILFONTES",
      "lon": "-8.789637029984265",
      "lat": "37.73723197728907"
    },
    {
      "id": "pt.ine.add.PTCONT.412022",
      "street": "CM 1099 - CERCAS DO CANAL",
      "house": "",
      "postcode": "7645-022",
      "city": "VILA NOVA DE MILFONTES",
      "lon": "-8.792209050888744",
      "lat": "37.73558689537974"
    },
    {
      "id": "pt.ine.add.PTCONT.421669",
      "street": "CM 1099 - CERCAS DO CANAL",
      "house": "",
      "postcode": "7645-022",
      "city": "VILA NOVA DE MILFONTES",
      "lon": "-8.791614776756825",
      "lat": "37.735094691519855"
    },
    {
      "id": "pt.ine.add.PTCONT.421671",
      "street": "",
      "house": "",
      "postcode": "7645-059",
      "city": "VILA NOVA DE MILFONTES",
      "lon": "-8.790483989563265",
      "lat": "37.73807415430159"
    },
    {
      "id": "pt.ine.add.PTCONT.424075",
      "street": "CM 1099 - CERCAS DO CANAL",
      "house": "",
      "postcode": "7645-022",
      "city": "VILA NOVA DE MILFONTES",
      "lon": "-8.790319424653541",
      "lat": "37.734858662946415"
    },
    {
      "id": "pt.ine.add.PTCONT.425615",
      "street": "CERCAS DO CANAL",
      "house": "",
      "postcode": "7645-022",
      "city": "VILA NOVA DE MILFONTES",
      "lon": "-8.79278353037472",
      "lat": "37.737682906377195"
    },
    {
      "id": "pt.ine.add.PTCONT.425617",
      "street": "",
      "house": "",
      "postcode": "7645-059",
      "city": "VILA NOVA DE MILFONTES",
      "lon": "-8.789740798891117",
      "lat": "37.737420599781814"
    },
    {
      "id": "pt.ine.add.PTCONT.434628",
      "street": "CERCAS DO CANAL",
      "house": "",
      "postcode": "7645-022",
      "city": "VILA NOVA DE MILFONTES",
      "lon": "-8.793217907939091",
      "lat": "37.73932922125558"
    },
    {
      "id": "pt.ine.add.PTCONT.435473",
      "street": "",
      "house": "",
      "postcode": "7645-059",
      "city": "VILA NOVA DE MILFONTES",
      "lon": "-8.789924216954933",
      "lat": "37.7376358070205"
    },
    {
      "id": "pt.ine.add.PTCONT.446972",
      "street": "CERCAS DO CANAL",
      "house": "",
      "postcode": "7645-022",
      "city": "VILA NOVA DE MILFONTES",
      "lon": "-8.792934364281809",
      "lat": "37.73806046305996"
    },
    {
      "id": "pt.ine.add.PTCONT.447697",
      "street": "CERCAS DO CANAL",
      "house": "",
      "postcode": "7645-022",
      "city": "VILA NOVA DE MILFONTES",
      "lon": "-8.791909470272726",
      "lat": "37.736345372236336"
    }
  ]
}