{
  "data": {
    "distrito": "Beja",
    "concelho": "Odemira",
    "freguesia": "Vila Nova de Milfontes",
    "OBJECTID": 526,
    "BGRI2021": "02111100509",
    "DT21": "02",
    "DTMN21": "0211",
    "DTMNFR21": "021111",
    "DTMNFRSEC21": "021111005",
    "SECNUM21": "005",
    "SSNUM21": "09",
    "SECSSNUM21": "00509",
    "OBJECTID_1": 17876,
    "DT": "02",
    "CC": "11",
    "fr": "11",
    "SEC": "005",
    "SS": "09"
  },
  "addresses": [
    {
      "id": "pt.ine.add.PTCONT.354566",
      "street": "COMENDA",
      "house": "",
      "postcode": "7645-012",
      "city": "VILA NOVA DE MILFONTES",
      "lon": "-8.775643867330285",
      "lat": "37.74259871694855"
    },
    {
      "id": "pt.ine.add.PTCONT.373201",
      "street": "CAM FOROS DA COMENDA",
      "house": "",
      "postcode": "7645-029",
      "city": "VILA NOVA DE MILFONTES",
      "lon": "-8.773309979417666",
      "lat": "37.74227703806366"
    },
    {
      "id": "pt.ine.add.PTCONT.376321",
      "street": "CAM FOROS DA COMENDA",
      "house": "",
      "postcode": "7645-029",
      "city": "VILA NOVA DE MILFONTES",
      "lon": "-8.773340072358542",
      "lat": "37.740501993399846"
    },
    {
      "id": "pt.ine.add.PTCONT.377104",
      "street": "",
      "house": "",
      "postcode": "7645-012",
      "city": "VILA NOVA DE MILFONTES",
      "lon": "-8.771948967946788",
      "lat": "37.739689671995734"
    },
    {
      "id": "pt.ine.add.PTCONT.377275",
      "street": "LOTEAM ALAGOACHOS SN",
      "house": "SN",
      "postcode": "7645-012",
      "city": "VILA NOVA DE MILFONTES",
      "lon": "-8.771948967946788",
      "lat": "37.739689671995734"
    },
    {
      "id": "pt.ine.add.PTCONT.377286",
      "street": "R CASA NOVA DA COMENDA",
      "house": "",
      "postcode": "7645-029",
      "city": "VILA NOVA DE MILFONTES",
      "lon": "-8.771948967946788",
      "lat": "37.739689671995734"
    },
    {
      "id": "pt.ine.add.PTCONT.384682",
      "street": "COMENDA",
      "house": "",
      "postcode": "7645-012",
      "city": "VILA NOVA DE MILFONTES",
      "lon": "-8.773724991832985",
      "lat": "37.744355988364504"
    },
    {
      "id": "pt.ine.add.PTCONT.393368",
      "street": "COMENDA",
      "house": "",
      "postcode": "7645-012",
      "city": "VILA NOVA DE MILFONTES",
      "lon": "-8.773472444956425",
      "lat": "37.74401499800808"
    },
    {
      "id": "pt.ine.add.PTCONT.394109",
      "street": "LOTEAM ALAGOACHOS SN",
      "house": "SN",
      "postcode": "7645-012",
      "city": "VILA NOVA DE MILFONTES",
      "lon": "-8.77224574883552",
      "lat": "37.74262397909286"
    },
    {
      "id": "pt.ine.add.PTCONT.395769",
      "street": "R CASA NOVA DA COMENDA",
      "house": "",
      "postcode": "7645-012",
      "city": "VILA NOVA DE MILFONTES",
      "lon": "-8.773309901820266",
      "lat": "37.742268028937175"
    },
    {
      "id": "pt.ine.add.PTCONT.398184",
      "street": "COMENDA",
      "house": "",
      "postcode": "7645-012",
      "city": "VILA NOVA DE MILFONTES",
      "lon": "-8.774534773956969",
      "lat": "37.7422163219387"
    },
    {
      "id": "pt.ine.add.PTCONT.398185",
      "street": "COMENDA",
      "house": "",
      "postcode": "7645-012",
      "city": "VILA NOVA DE MILFONTES",
      "lon": "-8.776024319405751",
      "lat": "37.74259561708135"
    },
    {
      "id": "pt.ine.add.PTCONT.406152",
      "street": "LOTEAM ALAGOADOS",
      "house": "",
      "postcode": "7645-012",
      "city": "VILA NOVA DE MILFONTES",
      "lon": "-8.771419406785151",
      "lat": "37.74011598990036"
    },
    {
      "id": "pt.ine.add.PTCONT.406153",
      "street": "LOTEAM ALAGOACHOS",
      "house": "50",
      "postcode": "7645-012",
      "city": "VILA NOVA DE MILFONTES",
      "lon": "-8.771419406785151",
      "lat": "37.74011598990036"
    },
    {
      "id": "pt.ine.add.PTCONT.413666",
      "street": "COMENDA",
      "house": "",
      "postcode": "7645-012",
      "city": "VILA NOVA DE MILFONTES",
      "lon": "-8.775544033370654",
      "lat": "37.742580914092855"
    },
    {
      "id": "pt.ine.add.PTCONT.418437",
      "street": "MTE DA CAIADA",
      "house": "",
      "postcode": "7645-033",
      "city": "VILA NOVA DE MILFONTES",
      "lon": "-8.773533440975404",
      "lat": "37.74451019157002"
    },
    {
      "id": "pt.ine.add.PTCONT.422469",
      "street": "COMENDA",
      "house": "",
      "postcode": "7645-012",
      "city": "VILA NOVA DE MILFONTES",
      "lon": "-8.774167148757053",
      "lat": "37.744317546178685"
    },
    {
      "id": "pt.ine.add.PTCONT.423283",
      "street": "R COMENDA",
      "house": "",
      "postcode": "7645-029",
      "city": "VILA NOVA DE MILFONTES",
      "lon": "-8.773309901820266",
      "lat": "37.742268028937175"
    },
    {
      "id": "pt.ine.add.PTCONT.428822",
      "street": "R CASA NOVA DA COMENDA",
      "house": "",
      "postcode": "7645-012",
      "city": "VILA NOVA DE MILFONTES",
      "lon": "-8.773309901820266",
      "lat": "37.742268028937175"
    },
    {
      "id": "pt.ine.add.PTCONT.444501",
      "street": "LOTEAMENTO DOS ALAGOACHOS - MTE DAS CHAVISCAS",
      "house": "50",
      "postcode": "7645-012",
      "city": "VILA NOVA DE MILFONTES",
      "lon": "-8.7709112336757",
      "lat": "37.74171343128636"
    }
  ]
}