{
  "data": {
    "distrito": "Guarda",
    "concelho": "Guarda",
    "freguesia": "União de freguesias de Mizarela, Pêro Soares e Vila Soeiro",
    "OBJECTID": 502,
    "BGRI2021": "09076300114",
    "DT21": "09",
    "DTMN21": "0907",
    "DTMNFR21": "090763",
    "DTMNFRSEC21": "090763001",
    "SECNUM21": "001",
    "SSNUM21": "14",
    "SECSSNUM21": "00114",
    "OBJECTID_1": 79099,
    "DT": "09",
    "CC": "07",
    "fr": "63",
    "SEC": "001",
    "SS": "14"
  },
  "addresses": [
    {
      "id": "pt.ine.add.PTCONT.1903988",
      "street": "R DO CRUZEIRO",
      "house": "12",
      "postcode": "6300-140",
      "city": "MIZARELA",
      "lon": "-7.337925524899512",
      "lat": "40.54913923303841"
    },
    {
      "id": "pt.ine.add.PTCONT.1904145",
      "street": "R DO AMEAL",
      "house": "12",
      "postcode": "6300-140",
      "city": "MIZARELA",
      "lon": "-7.337291469719788",
      "lat": "40.549846278392096"
    },
    {
      "id": "pt.ine.add.PTCONT.1913010",
      "street": "R DO CRUZEIRO",
      "house": "14",
      "postcode": "6300-140",
      "city": "MIZARELA",
      "lon": "-7.337795037149137",
      "lat": "40.54919236607412"
    },
    {
      "id": "pt.ine.add.PTCONT.1919993",
      "street": "R DO AMEAL",
      "house": "10",
      "postcode": "6300-140",
      "city": "MIZARELA",
      "lon": "-7.337685920631393",
      "lat": "40.54943475541095"
    },
    {
      "id": "pt.ine.add.PTCONT.1926079",
      "street": "R DO CRUZEIRO",
      "house": "8",
      "postcode": "6300-140",
      "city": "MIZARELA",
      "lon": "-7.337974340139081",
      "lat": "40.54900449092917"
    },
    {
      "id": "pt.ine.add.PTCONT.1937287",
      "street": "R DO CRUZEIRO",
      "house": "18",
      "postcode": "6300-140",
      "city": "MIZARELA",
      "lon": "-7.337888939967985",
      "lat": "40.549238038485505"
    },
    {
      "id": "pt.ine.add.PTCONT.1937288",
      "street": "R DO CRUZEIRO",
      "house": "2",
      "postcode": "6300-140",
      "city": "MIZARELA",
      "lon": "-7.338140347017473",
      "lat": "40.548942596892836"
    },
    {
      "id": "pt.ine.add.PTCONT.1960148",
      "street": "LG DE STO ANTÓNIO",
      "house": "",
      "postcode": "6300-140",
      "city": "MIZARELA",
      "lon": "-7.3378983317624815",
      "lat": "40.54744606697973"
    },
    {
      "id": "pt.ine.add.PTCONT.1964400",
      "street": "R DO CRUZEIRO",
      "house": "10",
      "postcode": "6300-140",
      "city": "MIZARELA",
      "lon": "-7.337902874698483",
      "lat": "40.54905803028831"
    },
    {
      "id": "pt.ine.add.PTCONT.1965027",
      "street": "R DO AMEAL",
      "house": "8",
      "postcode": "6300-140",
      "city": "MIZARELA",
      "lon": "-7.3377445168208775",
      "lat": "40.549471179645344"
    },
    {
      "id": "pt.ine.add.PTCONT.1974905",
      "street": "EM 556",
      "house": "",
      "postcode": "6300-270",
      "city": "VILA SOEIRO",
      "lon": "-7.337737974480849",
      "lat": "40.54703072354306"
    },
    {
      "id": "pt.ine.add.PTCONT.1855056",
      "street": "R DO CRUZEIRO",
      "house": "22",
      "postcode": "6300-140",
      "city": "MIZARELA",
      "lon": "-7.337840976570744",
      "lat": "40.549300744774214"
    },
    {
      "id": "pt.ine.add.PTCONT.1860777",
      "street": "R DO CRUZEIRO",
      "house": "6",
      "postcode": "6300-140",
      "city": "MIZARELA",
      "lon": "-7.338032936115946",
      "lat": "40.549040915017876"
    },
    {
      "id": "pt.ine.add.PTCONT.1873689",
      "street": "AV PRINCIPAL",
      "house": "1",
      "postcode": "6300-140",
      "city": "MIZARELA",
      "lon": "-7.337125033347197",
      "lat": "40.549944189048446"
    },
    {
      "id": "pt.ine.add.PTCONT.1882973",
      "street": "R DO AMEAL",
      "house": "",
      "postcode": "6300-140",
      "city": "MIZARELA",
      "lon": "-7.3376752881717735",
      "lat": "40.54933562495081"
    }
  ]
}