{
  "data": {
    "distrito": "Lisboa",
    "concelho": "Alenquer",
    "freguesia": "Olhalvo",
    "OBJECTID": 140,
    "BGRI2021": "11010800201",
    "DT21": "11",
    "DTMN21": "1101",
    "DTMNFR21": "110108",
    "DTMNFRSEC21": "110108002",
    "SECNUM21": "002",
    "SSNUM21": "01",
    "SECSSNUM21": "00201",
    "OBJECTID_1": 99080,
    "DT": "11",
    "CC": "01",
    "fr": "08",
    "SEC": "002",
    "SS": "01"
  },
  "addresses": [
    {
      "id": "pt.ine.add.PTCONT.2293122",
      "street": "R EDUARDO PERDIGAO",
      "house": "",
      "postcode": "2580-206",
      "city": "OLHALVO",
      "lon": "-9.065479617863245",
      "lat": "39.09990767288876"
    },
    {
      "id": "pt.ine.add.PTCONT.2341364",
      "street": "R MORGADOS DE MONTE DE LOYOS",
      "house": "",
      "postcode": "2580-217",
      "city": "OLHALVO",
      "lon": "-9.065972362989195",
      "lat": "39.09957946644373"
    },
    {
      "id": "pt.ine.add.PTCONT.2358575",
      "street": "R EDUARDO PERDIGAO",
      "house": "10",
      "postcode": "2580-206",
      "city": "OLHALVO",
      "lon": "-9.064954502531766",
      "lat": "39.0995335625735"
    },
    {
      "id": "pt.ine.add.PTCONT.2365331",
      "street": "R FRANCISCO DE GOES",
      "house": "23",
      "postcode": "2580-209",
      "city": "OLHALVO",
      "lon": "-9.06461112779806",
      "lat": "39.098914799336804"
    },
    {
      "id": "pt.ine.add.PTCONT.2371420",
      "street": "R FRANCISCO DOS SANTOS REIS",
      "house": "16",
      "postcode": "2580-622",
      "city": "OLHALVO",
      "lon": "-9.068963856146263",
      "lat": "39.1011407841903"
    },
    {
      "id": "pt.ine.add.PTCONT.2371421",
      "street": "R FRANCISCO DOS SANTOS REIS",
      "house": "16",
      "postcode": "2580-622",
      "city": "OLHALVO",
      "lon": "-9.068963856146263",
      "lat": "39.1011407841903"
    },
    {
      "id": "pt.ine.add.PTCONT.2386370",
      "street": "R EDUARDO PERDIGAO",
      "house": "38",
      "postcode": "2580-206",
      "city": "OLHALVO",
      "lon": "-9.063184985492773",
      "lat": "39.099466626777996"
    },
    {
      "id": "pt.ine.add.PTCONT.2438534",
      "street": "R FRANCISCO DOS SANTOS REIS",
      "house": "4",
      "postcode": "2580-622",
      "city": "OLHALVO",
      "lon": "-9.068646531857311",
      "lat": "39.10074700777573"
    },
    {
      "id": "pt.ine.add.PTCONT.2445237",
      "street": "R EDUARDO PERDIGAO",
      "house": "8",
      "postcode": "2580-206",
      "city": "OLHALVO",
      "lon": "-9.065105474616177",
      "lat": "39.099586399862204"
    },
    {
      "id": "pt.ine.add.PTCONT.2477080",
      "street": "R FRANCISCO DOS SANTOS REIS",
      "house": "6",
      "postcode": "2580-622",
      "city": "OLHALVO",
      "lon": "-9.068717431668116",
      "lat": "39.10086353432484"
    },
    {
      "id": "pt.ine.add.PTCONT.2571296",
      "street": "R FRANCISCO GOES",
      "house": "33",
      "postcode": "2580-209",
      "city": "OLHALVO",
      "lon": "-9.064238533912533",
      "lat": "39.09871060665542"
    },
    {
      "id": "pt.ine.add.PTCONT.2576986",
      "street": "R MORGADOS DE MONTE DE LOYOS",
      "house": "1",
      "postcode": "2580-217",
      "city": "OLHALVO",
      "lon": "-9.066262631784433",
      "lat": "39.09967622428162"
    },
    {
      "id": "pt.ine.add.PTCONT.2585950",
      "street": "R DR LUIS VILLAR",
      "house": "15",
      "postcode": "2580-211",
      "city": "OLHALVO",
      "lon": "-9.063353865214266",
      "lat": "39.09912299993391"
    },
    {
      "id": "pt.ine.add.PTCONT.2585959",
      "street": "R FRANCISCO DOS SANTOS REIS",
      "house": "22",
      "postcode": "2580-622",
      "city": "OLHALVO",
      "lon": "-9.069106015165437",
      "lat": "39.10140085598878"
    },
    {
      "id": "pt.ine.add.PTCONT.2595561",
      "street": "R FRANCISCO DOS SANTOS REIS",
      "house": "18",
      "postcode": "2580-622",
      "city": "OLHALVO",
      "lon": "-9.06875341741517",
      "lat": "39.1009623263472"
    },
    {
      "id": "pt.ine.add.PTCONT.2609601",
      "street": "R FRANCISCO DE GOES",
      "house": "31",
      "postcode": "2580-209",
      "city": "OLHALVO",
      "lon": "-9.064319797973937",
      "lat": "39.09873697964442"
    },
    {
      "id": "pt.ine.add.PTCONT.2640506",
      "street": "R FRANCISCO DE GOES",
      "house": "39",
      "postcode": "2580-209",
      "city": "OLHALVO",
      "lon": "-9.063924681324492",
      "lat": "39.09857800261586"
    },
    {
      "id": "pt.ine.add.PTCONT.2640509",
      "street": "R FRANCISCO DOS SANTOS REIS",
      "house": "14",
      "postcode": "2580-622",
      "city": "OLHALVO",
      "lon": "-9.068710277839577",
      "lat": "39.101196863606354"
    },
    {
      "id": "pt.ine.add.PTCONT.2702062",
      "street": "R FRANCISCO DOS SANTOS REIS",
      "house": "26",
      "postcode": "2580-622",
      "city": "OLHALVO",
      "lon": "-9.069169288283804",
      "lat": "39.10181468591551"
    },
    {
      "id": "pt.ine.add.PTCONT.2746377",
      "street": "R EDUARDO PERDIGAO",
      "house": "34",
      "postcode": "2580-206",
      "city": "OLHALVO",
      "lon": "-9.063554265535757",
      "lat": "39.09941864336724"
    },
    {
      "id": "pt.ine.add.PTCONT.2761601",
      "street": "R FRANCISCO GOES",
      "house": "41",
      "postcode": "2580-209",
      "city": "OLHALVO",
      "lon": "-9.063866771134963",
      "lat": "39.09856945761077"
    },
    {
      "id": "pt.ine.add.PTCONT.2804366",
      "street": "R FRANCISCO DE GOES",
      "house": "37",
      "postcode": "2580-209",
      "city": "OLHALVO",
      "lon": "-9.064029654060942",
      "lat": "39.098649223282536"
    },
    {
      "id": "pt.ine.add.PTCONT.2829293",
      "street": "R FRANCISCO GOES",
      "house": "29",
      "postcode": "2580-209",
      "city": "OLHALVO",
      "lon": "-9.06438950371337",
      "lat": "39.098763444906524"
    },
    {
      "id": "pt.ine.add.PTCONT.2829294",
      "street": "R PROF MARIA JOSE JESUS MATOS",
      "house": "",
      "postcode": "2580-647",
      "city": "OLHALVO",
      "lon": "-9.06512623709997",
      "lat": "39.10291895315099"
    },
    {
      "id": "pt.ine.add.PTCONT.2835285",
      "street": "R EDUARDO PERDIGAO",
      "house": "36",
      "postcode": "2580-206",
      "city": "OLHALVO",
      "lon": "-9.063370039857283",
      "lat": "39.099474157648004"
    },
    {
      "id": "pt.ine.add.PTCONT.2890350",
      "street": "R FRANCISCO DOS SANTOS REIS",
      "house": "24",
      "postcode": "2580-622",
      "city": "OLHALVO",
      "lon": "-9.069073839858456",
      "lat": "39.10159026859762"
    },
    {
      "id": "pt.ine.add.PTCONT.2899196",
      "street": "R EDUARDO PERDIGAO",
      "house": "24",
      "postcode": "2580-206",
      "city": "OLHALVO",
      "lon": "-9.064683797076949",
      "lat": "39.09916642456549"
    },
    {
      "id": "pt.ine.add.PTCONT.2941071",
      "street": "R FRANCISCO DE GOES",
      "house": "35",
      "postcode": "2580-209",
      "city": "OLHALVO",
      "lon": "-9.064168828280172",
      "lat": "39.098684141301476"
    },
    {
      "id": "pt.ine.add.PTCONT.2947556",
      "street": "R FRANCISCO GOES",
      "house": "21",
      "postcode": "2580-209",
      "city": "OLHALVO",
      "lon": "-9.064750421353619",
      "lat": "39.09895872305592"
    },
    {
      "id": "pt.ine.add.PTCONT.2963191",
      "street": "R FRANCISCO DE GOES",
      "house": "9",
      "postcode": "2580-209",
      "city": "OLHALVO",
      "lon": "-9.06535513581312",
      "lat": "39.09923311699009"
    },
    {
      "id": "pt.ine.add.PTCONT.2972169",
      "street": "R EDUARDO PERDIGAO",
      "house": "16",
      "postcode": "2580-206",
      "city": "OLHALVO",
      "lon": "-9.064779820952536",
      "lat": "39.09943587780412"
    },
    {
      "id": "pt.ine.add.PTCONT.3054640",
      "street": "R FRANCISCO DE GOES",
      "house": "97",
      "postcode": "2580-209",
      "city": "OLHALVO",
      "lon": "-9.065063684252019",
      "lat": "39.099046292800445"
    },
    {
      "id": "pt.ine.add.PTCONT.3102599",
      "street": "R COMBATENTES GRANDE GUERRA",
      "house": "8",
      "postcode": "2580-232",
      "city": "OLHALVO",
      "lon": "-9.066301698145324",
      "lat": "39.10263932936805"
    },
    {
      "id": "pt.ine.add.PTCONT.3138218",
      "street": "R COMBATENTES DA GRANDE GUERRA",
      "house": "",
      "postcode": "2580-232",
      "city": "OLHALVO",
      "lon": "-9.068616010300397",
      "lat": "39.101936222557676"
    },
    {
      "id": "pt.ine.add.PTCONT.3175867",
      "street": "R FRANCISCO DOS SANTOS REIS",
      "house": "18",
      "postcode": "2580-622",
      "city": "OLHALVO",
      "lon": "-9.06898911722685",
      "lat": "39.10130271365654"
    },
    {
      "id": "pt.ine.add.PTCONT.3286499",
      "street": "R COMBATENTES GRANDE GUERRA",
      "house": "6",
      "postcode": "2580-232",
      "city": "OLHALVO",
      "lon": "-9.066738920701603",
      "lat": "39.10248270378974"
    },
    {
      "id": "pt.ine.add.PTCONT.3314431",
      "street": "R FRANCISCO DE GOES",
      "house": "27",
      "postcode": "2580-209",
      "city": "OLHALVO",
      "lon": "-9.064518068007722",
      "lat": "39.09887050608609"
    },
    {
      "id": "pt.ine.add.PTCONT.3324686",
      "street": "R DR LUIS VILLAR",
      "house": "23",
      "postcode": "2580-211",
      "city": "OLHALVO",
      "lon": "-9.063230154369233",
      "lat": "39.09938520024038"
    },
    {
      "id": "pt.ine.add.PTCONT.3333106",
      "street": "R FRANCISCO DE GOES",
      "house": "27",
      "postcode": "2580-209",
      "city": "OLHALVO",
      "lon": "-9.064459209504294",
      "lat": "39.09878991012619"
    },
    {
      "id": "pt.ine.add.PTCONT.3394395",
      "street": "R DR LUIS VILLAR",
      "house": "5",
      "postcode": "2580-211",
      "city": "OLHALVO",
      "lon": "-9.063615328812652",
      "lat": "39.09878764126431"
    },
    {
      "id": "pt.ine.add.PTCONT.3394512",
      "street": "R EDUARDO PERDIGAO",
      "house": "32",
      "postcode": "2580-206",
      "city": "OLHALVO",
      "lon": "-9.063855023145882",
      "lat": "39.09943425733353"
    },
    {
      "id": "pt.ine.add.PTCONT.3397700",
      "street": "R DR LUIS VILLAR",
      "house": "21",
      "postcode": "2580-211",
      "city": "OLHALVO",
      "lon": "-9.063344318900057",
      "lat": "39.09927620111443"
    },
    {
      "id": "pt.ine.add.PTCONT.3446754",
      "street": "R FRANCISCO DOS SANTOS REIS",
      "house": "2",
      "postcode": "2580-622",
      "city": "OLHALVO",
      "lon": "-9.068460283588854",
      "lat": "39.10064942139531"
    }
  ]
}