{
  "data": {
    "distrito": "Aveiro",
    "concelho": "Águeda",
    "freguesia": "União das freguesias de Belazaima do Chão, Castanheira do Vouga e Agadão",
    "OBJECTID": 185,
    "BGRI2021": "01012300127",
    "DT21": "01",
    "DTMN21": "0101",
    "DTMNFR21": "010123",
    "DTMNFRSEC21": "010123001",
    "SECNUM21": "001",
    "SSNUM21": "27",
    "SECSSNUM21": "00127",
    "OBJECTID_1": 279,
    "DT": "01",
    "CC": "01",
    "fr": "23",
    "SEC": "001",
    "SS": "27"
  },
  "addresses": [
    {
      "id": "pt.ine.add.PTCONT.331699",
      "street": "R VILAMENDO DE CIMA",
      "house": "20",
      "postcode": "3750-019",
      "city": "AGADÃO",
      "lon": "-8.31710668338253",
      "lat": "40.543732462288375"
    },
    {
      "id": "pt.ine.add.PTCONT.336942",
      "street": "R VALINHOS",
      "house": "",
      "postcode": "3750-017",
      "city": "AGADÃO",
      "lon": "-8.31453625271919",
      "lat": "40.54045858125936"
    },
    {
      "id": "pt.ine.add.PTCONT.5288",
      "street": "EM 610",
      "house": "500",
      "postcode": "3750-019",
      "city": "AGADÃO",
      "lon": "-8.31703011108781",
      "lat": "40.54594789811784"
    },
    {
      "id": "pt.ine.add.PTCONT.23903",
      "street": "R PRINCIPAL",
      "house": "58",
      "postcode": "3750-019",
      "city": "AGADÃO",
      "lon": "-8.315725380298739",
      "lat": "40.543671616328865"
    },
    {
      "id": "pt.ine.add.PTCONT.23904",
      "street": "R ESTREITA",
      "house": "",
      "postcode": "3750-017",
      "city": "AGADÃO",
      "lon": "-8.314747678328086",
      "lat": "40.540071019101006"
    },
    {
      "id": "pt.ine.add.PTCONT.29835",
      "street": "R PRINCIPAL",
      "house": "442",
      "postcode": "3750-017",
      "city": "AGADÃO",
      "lon": "-8.314333886454946",
      "lat": "40.53982852443227"
    },
    {
      "id": "pt.ine.add.PTCONT.59035",
      "street": "R PEREIRINHAS",
      "house": "",
      "postcode": "3750-019",
      "city": "AGADÃO",
      "lon": "-8.317578939304306",
      "lat": "40.54375872529323"
    },
    {
      "id": "pt.ine.add.PTCONT.69671",
      "street": "R VILAMENDO DE CIMA",
      "house": "78",
      "postcode": "3750-019",
      "city": "AGADÃO",
      "lon": "-8.316989475221906",
      "lat": "40.54403883052944"
    },
    {
      "id": "pt.ine.add.PTCONT.80632",
      "street": "R PRINCIPAL",
      "house": "",
      "postcode": "3750-017",
      "city": "AGADÃO",
      "lon": "-8.314924931662782",
      "lat": "40.540142783106454"
    },
    {
      "id": "pt.ine.add.PTCONT.97074",
      "street": "R CAMINHO DAS LOUSEIRAS",
      "house": "",
      "postcode": "3750-017",
      "city": "AGADÃO",
      "lon": "-8.313626573278414",
      "lat": "40.540171834912115"
    },
    {
      "id": "pt.ine.add.PTCONT.120591",
      "street": "R VILAMENDO DE CIMA",
      "house": "",
      "postcode": "3750-019",
      "city": "AGADÃO",
      "lon": "-8.316977941497171",
      "lat": "40.544137907649684"
    },
    {
      "id": "pt.ine.add.PTCONT.123811",
      "street": "R PRINCIPAL",
      "house": "248",
      "postcode": "3750-019",
      "city": "AGADÃO",
      "lon": "-8.317720890590193",
      "lat": "40.54386656268317"
    },
    {
      "id": "pt.ine.add.PTCONT.134002",
      "street": "R VALE",
      "house": "30",
      "postcode": "3750-019",
      "city": "AGADÃO",
      "lon": "-8.317015843009505",
      "lat": "40.54504738682021"
    },
    {
      "id": "pt.ine.add.PTCONT.136619",
      "street": "R EIRA",
      "house": "35",
      "postcode": "3750-017",
      "city": "AGADÃO",
      "lon": "-8.313921526067343",
      "lat": "40.54011734162968"
    },
    {
      "id": "pt.ine.add.PTCONT.146408",
      "street": "R CAMINHO DAS LOUSEIRAS",
      "house": "47",
      "postcode": "3750-017",
      "city": "AGADÃO",
      "lon": "-8.313450818504323",
      "lat": "40.540658398174294"
    },
    {
      "id": "pt.ine.add.PTCONT.148898",
      "street": "R PRINCIPAL",
      "house": "718",
      "postcode": "3750-017",
      "city": "AGADÃO",
      "lon": "-8.315460796316328",
      "lat": "40.5418709653129"
    },
    {
      "id": "pt.ine.add.PTCONT.159956",
      "street": "R PEREIRINHAS",
      "house": "45",
      "postcode": "3750-019",
      "city": "AGADÃO",
      "lon": "-8.31749675195207",
      "lat": "40.54392095264931"
    },
    {
      "id": "pt.ine.add.PTCONT.182550",
      "street": "EM 610",
      "house": "510",
      "postcode": "3750-019",
      "city": "AGADÃO",
      "lon": "-8.317242599904862",
      "lat": "40.54594755967494"
    },
    {
      "id": "pt.ine.add.PTCONT.184032",
      "street": "R VILAMENDO DE CIMA",
      "house": "87",
      "postcode": "3750-019",
      "city": "AGADÃO",
      "lon": "-8.317285502849064",
      "lat": "40.54437155668883"
    },
    {
      "id": "pt.ine.add.PTCONT.184285",
      "street": "R PRINCIPAL",
      "house": "578",
      "postcode": "3750-017",
      "city": "AGADÃO",
      "lon": "-8.315221419605095",
      "lat": "40.540655621029586"
    },
    {
      "id": "pt.ine.add.PTCONT.200514",
      "street": "R PEREIRINHAS",
      "house": "",
      "postcode": "3750-019",
      "city": "AGADÃO",
      "lon": "-8.317662139628293",
      "lat": "40.543965715308"
    },
    {
      "id": "pt.ine.add.PTCONT.205554",
      "street": "R VILAMENDO DE CIMA",
      "house": "",
      "postcode": "3750-019",
      "city": "AGADÃO",
      "lon": "-8.317119794048356",
      "lat": "40.54420972455998"
    },
    {
      "id": "pt.ine.add.PTCONT.208330",
      "street": "R PRINCIPAL",
      "house": "126",
      "postcode": "3750-019",
      "city": "AGADÃO",
      "lon": "-8.3164926750901",
      "lat": "40.54367040105258"
    },
    {
      "id": "pt.ine.add.PTCONT.238058",
      "street": "R PRINCIPAL",
      "house": "",
      "postcode": "3750-017",
      "city": "AGADÃO",
      "lon": "-8.3138851460371",
      "lat": "40.53975718459349"
    },
    {
      "id": "pt.ine.add.PTCONT.240587",
      "street": "R VILAMENDO DE CIMA",
      "house": "72",
      "postcode": "3750-019",
      "city": "AGADÃO",
      "lon": "-8.31726095633871",
      "lat": "40.544029392814444"
    },
    {
      "id": "pt.ine.add.PTCONT.243908",
      "street": "R CAMINHO DO LAGAR",
      "house": "32",
      "postcode": "3750-019",
      "city": "AGADÃO",
      "lon": "-8.317432046661924",
      "lat": "40.54615438040442"
    },
    {
      "id": "pt.ine.add.PTCONT.284150",
      "street": "R PRINCIPAL",
      "house": "820",
      "postcode": "3750-019",
      "city": "AGADÃO",
      "lon": "-8.315380510075114",
      "lat": "40.54273560513456"
    }
  ]
}