{
  "data": {
    "distrito": "Aveiro",
    "concelho": "Águeda",
    "freguesia": "União das freguesias de Belazaima do Chão, Castanheira do Vouga e Agadão",
    "OBJECTID": 149,
    "BGRI2021": "01012300136",
    "DT21": "01",
    "DTMN21": "0101",
    "DTMNFR21": "010123",
    "DTMNFRSEC21": "010123001",
    "SECNUM21": "001",
    "SSNUM21": "36",
    "SECSSNUM21": "00136",
    "OBJECTID_1": 171,
    "DT": "01",
    "CC": "01",
    "fr": "23",
    "SEC": "001",
    "SS": "36"
  },
  "addresses": [
    {
      "id": "pt.ine.add.PTCONT.352129",
      "street": "R PRINCIPAL",
      "house": "",
      "postcode": "3750-014",
      "city": "AGADÃO",
      "lon": "-8.322482584210942",
      "lat": "40.54963127780912"
    },
    {
      "id": "pt.ine.add.PTCONT.1446",
      "street": "R FONTE",
      "house": "",
      "postcode": "3750-012",
      "city": "AGADÃO",
      "lon": "-8.323122140257537",
      "lat": "40.5628860629182"
    },
    {
      "id": "pt.ine.add.PTCONT.1447",
      "street": "R BARREIRAS",
      "house": "",
      "postcode": "3750-018",
      "city": "AGADÃO",
      "lon": "-8.323578367405286",
      "lat": "40.553042496796074"
    },
    {
      "id": "pt.ine.add.PTCONT.2543",
      "street": "R PRINCIPAL DA FOZ",
      "house": "449",
      "postcode": "3750-014",
      "city": "AGADÃO",
      "lon": "-8.321605386043524",
      "lat": "40.54835395479444"
    },
    {
      "id": "pt.ine.add.PTCONT.18517",
      "street": "R ALÉM DA CORGA",
      "house": "25",
      "postcode": "3750-012",
      "city": "AGADÃO",
      "lon": "-8.322480528943563",
      "lat": "40.56147328216831"
    },
    {
      "id": "pt.ine.add.PTCONT.18518",
      "street": "R ALÉM DA CORGA",
      "house": "25",
      "postcode": "3750-012",
      "city": "AGADÃO",
      "lon": "-8.322480528943563",
      "lat": "40.56147328216831"
    },
    {
      "id": "pt.ine.add.PTCONT.22404",
      "street": "R PRINCIPAL DA POVINHA",
      "house": "495",
      "postcode": "3750-018",
      "city": "AGADÃO",
      "lon": "-8.323520356898978",
      "lat": "40.55340280551621"
    },
    {
      "id": "pt.ine.add.PTCONT.42967",
      "street": "R PRINCIPAL",
      "house": "",
      "postcode": "3750-014",
      "city": "AGADÃO",
      "lon": "-8.322161984960552",
      "lat": "40.548974413483215"
    },
    {
      "id": "pt.ine.add.PTCONT.45716",
      "street": "R PRINCIPAL DA POVINHA",
      "house": "",
      "postcode": "3750-018",
      "city": "AGADÃO",
      "lon": "-8.322654108405791",
      "lat": "40.55184630808048"
    },
    {
      "id": "pt.ine.add.PTCONT.45717",
      "street": "R PRINCIPAL",
      "house": "",
      "postcode": "3750-014",
      "city": "AGADÃO",
      "lon": "-8.322636107492588",
      "lat": "40.54964903673955"
    },
    {
      "id": "pt.ine.add.PTCONT.50187",
      "street": "R LARGA",
      "house": "",
      "postcode": "3750-012",
      "city": "AGADÃO",
      "lon": "-8.323617893557456",
      "lat": "40.56282220929585"
    },
    {
      "id": "pt.ine.add.PTCONT.51198",
      "street": "R PRINCIPAL",
      "house": "",
      "postcode": "3750-014",
      "city": "AGADÃO",
      "lon": "-8.322529096068019",
      "lat": "40.54937905222913"
    },
    {
      "id": "pt.ine.add.PTCONT.61571",
      "street": "R EIRA DA CAL",
      "house": "",
      "postcode": "3750-014",
      "city": "AGADÃO",
      "lon": "-8.322635701290409",
      "lat": "40.5495049520736"
    },
    {
      "id": "pt.ine.add.PTCONT.65967",
      "street": "R PRINCIPAL DO CASELHO",
      "house": "",
      "postcode": "3750-012",
      "city": "AGADÃO",
      "lon": "-8.323588315712952",
      "lat": "40.564884474259856"
    },
    {
      "id": "pt.ine.add.PTCONT.66206",
      "street": "R PRINCIPAL DO CASELHO",
      "house": "981",
      "postcode": "3750-012",
      "city": "AGADÃO",
      "lon": "-8.323100357708405",
      "lat": "40.563534481201465"
    },
    {
      "id": "pt.ine.add.PTCONT.77523",
      "street": "R FONTE",
      "house": "",
      "postcode": "3750-012",
      "city": "AGADÃO",
      "lon": "-8.32337015726495",
      "lat": "40.56290366536019"
    },
    {
      "id": "pt.ine.add.PTCONT.88102",
      "street": "R EIRA",
      "house": "42",
      "postcode": "3750-018",
      "city": "AGADÃO",
      "lon": "-8.323186293565382",
      "lat": "40.55216962563017"
    },
    {
      "id": "pt.ine.add.PTCONT.88855",
      "street": "R ALEA DA CORBA",
      "house": "4",
      "postcode": "3750-012",
      "city": "AGADÃO",
      "lon": "-8.32241019035945",
      "lat": "40.561653503733375"
    },
    {
      "id": "pt.ine.add.PTCONT.107429",
      "street": "R FONTE",
      "house": "",
      "postcode": "3750-012",
      "city": "AGADÃO",
      "lon": "-8.322992736798131",
      "lat": "40.56305737661119"
    },
    {
      "id": "pt.ine.add.PTCONT.112745",
      "street": "R LARGA",
      "house": "107",
      "postcode": "3750-012",
      "city": "AGADÃO",
      "lon": "-8.323546739935592",
      "lat": "40.56271426285541"
    },
    {
      "id": "pt.ine.add.PTCONT.131294",
      "street": "R ALÉM DA CORGA",
      "house": "",
      "postcode": "3750-012",
      "city": "AGADÃO",
      "lon": "-8.322717088640985",
      "lat": "40.56161697920326"
    },
    {
      "id": "pt.ine.add.PTCONT.141091",
      "street": "R EIRA DA CAL",
      "house": "",
      "postcode": "3750-014",
      "city": "AGADÃO",
      "lon": "-8.322682466423275",
      "lat": "40.54934277934826"
    },
    {
      "id": "pt.ine.add.PTCONT.141977",
      "street": "R PRINCIPAL DA POVINHA",
      "house": "206",
      "postcode": "3750-018",
      "city": "AGADÃO",
      "lon": "-8.322406183109877",
      "lat": "40.551846714551864"
    },
    {
      "id": "pt.ine.add.PTCONT.155057",
      "street": "R PRINCIPAL DO CASELHO",
      "house": "",
      "postcode": "3750-012",
      "city": "AGADÃO",
      "lon": "-8.32234073896967",
      "lat": "40.56214890978358"
    },
    {
      "id": "pt.ine.add.PTCONT.161357",
      "street": "R PRINCIPAL DA POVINHA",
      "house": "407",
      "postcode": "3750-018",
      "city": "AGADÃO",
      "lon": "-8.322975591083358",
      "lat": "40.552809350417206"
    },
    {
      "id": "pt.ine.add.PTCONT.165770",
      "street": "R ALEA DA CORBA",
      "house": "78",
      "postcode": "3750-012",
      "city": "AGADÃO",
      "lon": "-8.32256462971236",
      "lat": "40.5619864471988"
    },
    {
      "id": "pt.ine.add.PTCONT.165771",
      "street": "R BARREIRAS",
      "house": "219",
      "postcode": "3750-018",
      "city": "AGADÃO",
      "lon": "-8.324453511177133",
      "lat": "40.55356335972523"
    },
    {
      "id": "pt.ine.add.PTCONT.168421",
      "street": "R EIRA",
      "house": "",
      "postcode": "3750-018",
      "city": "AGADÃO",
      "lon": "-8.322997346322834",
      "lat": "40.552151925668234"
    },
    {
      "id": "pt.ine.add.PTCONT.193562",
      "street": "R FONTE",
      "house": "73",
      "postcode": "3750-012",
      "city": "AGADÃO",
      "lon": "-8.32315878652143",
      "lat": "40.56331825762057"
    },
    {
      "id": "pt.ine.add.PTCONT.193563",
      "street": "R PRINCIPAL DO CASELHO",
      "house": "",
      "postcode": "3750-012",
      "city": "AGADÃO",
      "lon": "-8.322270526060622",
      "lat": "40.562374157604026"
    },
    {
      "id": "pt.ine.add.PTCONT.219614",
      "street": "R PRINCIPAL DA FOZ",
      "house": "485",
      "postcode": "3750-014",
      "city": "AGADÃO",
      "lon": "-8.321901278530616",
      "lat": "40.54862363173056"
    },
    {
      "id": "pt.ine.add.PTCONT.222175",
      "street": "R EIRA DA CAL",
      "house": "",
      "postcode": "3750-014",
      "city": "AGADÃO",
      "lon": "-8.323001520876511",
      "lat": "40.549450319409324"
    },
    {
      "id": "pt.ine.add.PTCONT.230264",
      "street": "R LARGA",
      "house": "94",
      "postcode": "3750-012",
      "city": "AGADÃO",
      "lon": "-8.323488159806564",
      "lat": "40.562876455029155"
    },
    {
      "id": "pt.ine.add.PTCONT.238452",
      "street": "R GADO",
      "house": "21",
      "postcode": "3750-018",
      "city": "AGADÃO",
      "lon": "-8.322629658644162",
      "lat": "40.55154917230077"
    }
  ]
}