{
  "data": {
    "distrito": "Aveiro",
    "concelho": "Águeda",
    "freguesia": "União das freguesias de Belazaima do Chão, Castanheira do Vouga e Agadão",
    "OBJECTID": 746,
    "BGRI2021": "01012300143",
    "DT21": "01",
    "DTMN21": "0101",
    "DTMNFR21": "010123",
    "DTMNFRSEC21": "010123001",
    "SECNUM21": "001",
    "SSNUM21": "43",
    "SECSSNUM21": "00143",
    "OBJECTID_1": 71,
    "DT": "01",
    "CC": "01",
    "fr": "23",
    "SEC": "001",
    "SS": "43"
  },
  "addresses": [
    {
      "id": "pt.ine.add.PTCONT.303328",
      "street": "R PRINCIPAL DE ALCAFAZ",
      "house": "348",
      "postcode": "3750-011",
      "city": "AGADÃO",
      "lon": "-8.32510806806267",
      "lat": "40.57604853109129"
    },
    {
      "id": "pt.ine.add.PTCONT.303329",
      "street": "R LOMBITAS",
      "house": "",
      "postcode": "3750-011",
      "city": "AGADÃO",
      "lon": "-8.324493731439265",
      "lat": "40.57597750816212"
    },
    {
      "id": "pt.ine.add.PTCONT.326693",
      "street": "R PORTELA",
      "house": "",
      "postcode": "3750-011",
      "city": "AGADÃO",
      "lon": "-8.323392933051945",
      "lat": "40.57511481851675"
    },
    {
      "id": "pt.ine.add.PTCONT.340117",
      "street": "R PORTELA",
      "house": "99",
      "postcode": "3750-011",
      "city": "AGADÃO",
      "lon": "-8.322402918767262",
      "lat": "40.57583686841632"
    },
    {
      "id": "pt.ine.add.PTCONT.29834",
      "street": "R PORTELA",
      "house": "61",
      "postcode": "3750-011",
      "city": "AGADÃO",
      "lon": "-8.322875122509007",
      "lat": "40.57576405135995"
    },
    {
      "id": "pt.ine.add.PTCONT.50186",
      "street": "R PORTELA",
      "house": "",
      "postcode": "3750-011",
      "city": "AGADÃO",
      "lon": "-8.32278015797686",
      "lat": "40.57559310676073"
    },
    {
      "id": "pt.ine.add.PTCONT.75161",
      "street": "R PORTELA",
      "house": "41",
      "postcode": "3750-011",
      "city": "AGADÃO",
      "lon": "-8.323064238027403",
      "lat": "40.57581777230131"
    },
    {
      "id": "pt.ine.add.PTCONT.101702",
      "street": "R PORTELA",
      "house": "",
      "postcode": "3750-011",
      "city": "AGADÃO",
      "lon": "-8.323193461873803",
      "lat": "40.57557441684771"
    }
  ]
}