{
  "data": {
    "distrito": "Lisboa",
    "concelho": "Sintra",
    "freguesia": "Rio de Mouro",
    "OBJECTID": 1820,
    "BGRI2021": "11110801508",
    "DT21": "11",
    "DTMN21": "1111",
    "DTMNFR21": "111108",
    "DTMNFRSEC21": "111108015",
    "SECNUM21": "015",
    "SSNUM21": "08",
    "SECSSNUM21": "01508",
    "OBJECTID_1": 111132,
    "DT": "11",
    "CC": "11",
    "fr": "08",
    "SEC": "015",
    "SS": "08"
  },
  "addresses": [
    {
      "id": "pt.ine.add.PTCONT.2299922",
      "street": "R GONÇALVES CORREIA",
      "house": "92 A",
      "postcode": "2635-037",
      "city": "RIO DE MOURO",
      "lon": "-9.352264731056781",
      "lat": "38.75508693101155"
    },
    {
      "id": "pt.ine.add.PTCONT.2342762",
      "street": "R ANTÓNIO GASPAR",
      "house": "39",
      "postcode": "2635-015",
      "city": "RIO DE MOURO",
      "lon": "-9.354767345305412",
      "lat": "38.75545713620768"
    },
    {
      "id": "pt.ine.add.PTCONT.2354011",
      "street": "R BOA VISTA",
      "house": "57",
      "postcode": "2635-019",
      "city": "RIO DE MOURO",
      "lon": "-9.355658599417072",
      "lat": "38.75847439716836"
    },
    {
      "id": "pt.ine.add.PTCONT.2370011",
      "street": "R GONÇALVES CORREIA",
      "house": "72",
      "postcode": "2635-037",
      "city": "RIO DE MOURO",
      "lon": "-9.352249839019597",
      "lat": "38.75624007001316"
    },
    {
      "id": "pt.ine.add.PTCONT.2391008",
      "street": "PCT DOMINGOS CASTRO",
      "house": "9",
      "postcode": "2635-015",
      "city": "RIO DE MOURO",
      "lon": "-9.35430344947499",
      "lat": "38.75591236854127"
    },
    {
      "id": "pt.ine.add.PTCONT.2400490",
      "street": "R DEPOSITO",
      "house": "",
      "postcode": "2635-321",
      "city": "RIO DE MOURO",
      "lon": "-9.351676201977723",
      "lat": "38.752949239122806"
    },
    {
      "id": "pt.ine.add.PTCONT.2409554",
      "street": "R ANTÓNIO GASPAR",
      "house": "3 B",
      "postcode": "2635-015",
      "city": "RIO DE MOURO",
      "lon": "-9.355491269144594",
      "lat": "38.75810683264303"
    },
    {
      "id": "pt.ine.add.PTCONT.2430170",
      "street": "PCT SUSANA FEITOR",
      "house": "7",
      "postcode": "2635-090",
      "city": "RIO DE MOURO",
      "lon": "-9.354508781370678",
      "lat": "38.75513556207035"
    },
    {
      "id": "pt.ine.add.PTCONT.2444361",
      "street": "PCT DOMINGOS CASTRO",
      "house": "7",
      "postcode": "2635-015",
      "city": "RIO DE MOURO",
      "lon": "-9.354271860304296",
      "lat": "38.75608384458741"
    },
    {
      "id": "pt.ine.add.PTCONT.2444362",
      "street": "PCT DOMINGOS CASTRO",
      "house": "1",
      "postcode": "2635-015",
      "city": "RIO DE MOURO",
      "lon": "-9.354698809088323",
      "lat": "38.756160451853596"
    },
    {
      "id": "pt.ine.add.PTCONT.2454951",
      "street": "R GONÇALVES CORREIA",
      "house": "66",
      "postcode": "2635-037",
      "city": "RIO DE MOURO",
      "lon": "-9.352690128064639",
      "lat": "38.75642463766728"
    },
    {
      "id": "pt.ine.add.PTCONT.2457187",
      "street": "PCT DOMINGOS CASTRO",
      "house": "3",
      "postcode": "2635-015",
      "city": "RIO DE MOURO",
      "lon": "-9.354515701031332",
      "lat": "38.756216411730875"
    },
    {
      "id": "pt.ine.add.PTCONT.2469742",
      "street": "R ANTÓNIO GASPAR",
      "house": "47",
      "postcode": "2635-015",
      "city": "RIO DE MOURO",
      "lon": "-9.354738046820414",
      "lat": "38.755088127434036"
    },
    {
      "id": "pt.ine.add.PTCONT.2509186",
      "street": "R GONÇALVES CORREIA",
      "house": "70",
      "postcode": "2635-037",
      "city": "RIO DE MOURO",
      "lon": "-9.35225244394775",
      "lat": "38.75639317346522"
    },
    {
      "id": "pt.ine.add.PTCONT.2518325",
      "street": "R ANTÓNIO GASPAR",
      "house": "37",
      "postcode": "2635-015",
      "city": "RIO DE MOURO",
      "lon": "-9.354837891067518",
      "lat": "38.75554647560499"
    },
    {
      "id": "pt.ine.add.PTCONT.2520719",
      "street": "R BOA VISTA",
      "house": "57",
      "postcode": "2635-019",
      "city": "RIO DE MOURO",
      "lon": "-9.355428555635903",
      "lat": "38.75847680339353"
    },
    {
      "id": "pt.ine.add.PTCONT.2526870",
      "street": "PCT CARLOS CALADO",
      "house": "5",
      "postcode": "2635-091",
      "city": "RIO DE MOURO",
      "lon": "-9.354451909303348",
      "lat": "38.756523339586536"
    },
    {
      "id": "pt.ine.add.PTCONT.2545381",
      "street": "R ANTÓNIO GASPAR",
      "house": "21",
      "postcode": "2635-015",
      "city": "RIO DE MOURO",
      "lon": "-9.354986370904138",
      "lat": "38.75683302189502"
    },
    {
      "id": "pt.ine.add.PTCONT.2572654",
      "street": "PCT DOMINGOS CASTRO",
      "house": "8",
      "postcode": "2635-015",
      "city": "RIO DE MOURO",
      "lon": "-9.354270478953474",
      "lat": "38.75600278987587"
    },
    {
      "id": "pt.ine.add.PTCONT.2581735",
      "street": "R GONÇALVES CORREIA",
      "house": "92",
      "postcode": "2635-037",
      "city": "RIO DE MOURO",
      "lon": "-9.35209312538789",
      "lat": "38.755142767108595"
    },
    {
      "id": "pt.ine.add.PTCONT.2581736",
      "street": "R GONÇALVES CORREIA",
      "house": "92",
      "postcode": "2635-037",
      "city": "RIO DE MOURO",
      "lon": "-9.35209312538789",
      "lat": "38.755142767108595"
    },
    {
      "id": "pt.ine.add.PTCONT.2604516",
      "street": "R DEPOSITO",
      "house": "6",
      "postcode": "2635-321",
      "city": "RIO DE MOURO",
      "lon": "-9.351954238111663",
      "lat": "38.75238786315327"
    },
    {
      "id": "pt.ine.add.PTCONT.2604517",
      "street": "R CARLOS LOPES",
      "house": "",
      "postcode": "2635-209",
      "city": "RIO DE MOURO",
      "lon": "-9.352453702975618",
      "lat": "38.75199532267958"
    },
    {
      "id": "pt.ine.add.PTCONT.2614776",
      "street": "R ANTÓNIO GASPAR",
      "house": "7",
      "postcode": "2635-015",
      "city": "RIO DE MOURO",
      "lon": "-9.355405684217187",
      "lat": "38.75781047436618"
    },
    {
      "id": "pt.ine.add.PTCONT.2614777",
      "street": "R ANTÓNIO GASPAR",
      "house": "7",
      "postcode": "2635-015",
      "city": "RIO DE MOURO",
      "lon": "-9.355405684217187",
      "lat": "38.75781047436618"
    },
    {
      "id": "pt.ine.add.PTCONT.2615134",
      "street": "R DEPOSITO",
      "house": "7",
      "postcode": "2635-321",
      "city": "RIO DE MOURO",
      "lon": "-9.351973104861983",
      "lat": "38.75214445876622"
    },
    {
      "id": "pt.ine.add.PTCONT.2627014",
      "street": "R GONÇALVES CORREIA",
      "house": "66",
      "postcode": "2635-037",
      "city": "RIO DE MOURO",
      "lon": "-9.35248891831615",
      "lat": "38.756769029136194"
    },
    {
      "id": "pt.ine.add.PTCONT.2627015",
      "street": "R GONÇALVES CORREIA",
      "house": "66 4",
      "postcode": "2635-037",
      "city": "RIO DE MOURO",
      "lon": "-9.352379883988403",
      "lat": "38.756445890103684"
    },
    {
      "id": "pt.ine.add.PTCONT.2627016",
      "street": "PCT JOAQUIM PEREIRA",
      "house": "6",
      "postcode": "2635-031",
      "city": "RIO DE MOURO",
      "lon": "-9.354402821050357",
      "lat": "38.75566812271919"
    },
    {
      "id": "pt.ine.add.PTCONT.2642275",
      "street": "R DEPOSITO",
      "house": "3",
      "postcode": "2635-321",
      "city": "RIO DE MOURO",
      "lon": "-9.351615938997046",
      "lat": "38.75278772901903"
    },
    {
      "id": "pt.ine.add.PTCONT.2669774",
      "street": "PCT SUSANA FEITOR",
      "house": "5 5 A",
      "postcode": "2635-090",
      "city": "RIO DE MOURO",
      "lon": "-9.354232588098956",
      "lat": "38.755129440482385"
    },
    {
      "id": "pt.ine.add.PTCONT.2669778",
      "street": "PCT SUSANA FEITOR",
      "house": "2",
      "postcode": "2635-090",
      "city": "RIO DE MOURO",
      "lon": "-9.35441002483856",
      "lat": "38.75541583230483"
    },
    {
      "id": "pt.ine.add.PTCONT.2669779",
      "street": "R ANTÓNIO GASPAR",
      "house": "19",
      "postcode": "2635-015",
      "city": "RIO DE MOURO",
      "lon": "-9.355104615627607",
      "lat": "38.75702094688968"
    },
    {
      "id": "pt.ine.add.PTCONT.2678900",
      "street": "PCT SUSANA FEITOR",
      "house": "4 4A",
      "postcode": "2635-090",
      "city": "RIO DE MOURO",
      "lon": "-9.354249307946716",
      "lat": "38.755435527039026"
    },
    {
      "id": "pt.ine.add.PTCONT.2714644",
      "street": "R GONÇALVES CORREIA",
      "house": "66",
      "postcode": "2635-037",
      "city": "RIO DE MOURO",
      "lon": "-9.352506864421473",
      "lat": "38.75647158834672"
    },
    {
      "id": "pt.ine.add.PTCONT.2723358",
      "street": "R CARLOS CAPITULO",
      "house": "2",
      "postcode": "2635-051",
      "city": "RIO DE MOURO",
      "lon": "-9.354228290865906",
      "lat": "38.754877270219914"
    },
    {
      "id": "pt.ine.add.PTCONT.2750926",
      "street": "R ANTÓNIO GASPAR",
      "house": "17 17 A",
      "postcode": "2635-015",
      "city": "RIO DE MOURO",
      "lon": "-9.355140657481678",
      "lat": "38.75711064683733"
    },
    {
      "id": "pt.ine.add.PTCONT.2821861",
      "street": "R GONÇALVES CORREIA",
      "house": "74",
      "postcode": "2635-037",
      "city": "RIO DE MOURO",
      "lon": "-9.35208513616514",
      "lat": "38.75602560357123"
    },
    {
      "id": "pt.ine.add.PTCONT.2827789",
      "street": "R ANTÓNIO GASPAR",
      "house": "23",
      "postcode": "2635-015",
      "city": "RIO DE MOURO",
      "lon": "-9.354903553902751",
      "lat": "38.75669877249526"
    },
    {
      "id": "pt.ine.add.PTCONT.2839665",
      "street": "R ANTÓNIO GASPAR",
      "house": "13",
      "postcode": "2635-015",
      "city": "RIO DE MOURO",
      "lon": "-9.355274245502999",
      "lat": "38.757523603211865"
    },
    {
      "id": "pt.ine.add.PTCONT.2942099",
      "street": "R BOA VISTA",
      "house": "47",
      "postcode": "2635-019",
      "city": "RIO DE MOURO",
      "lon": "-9.354097063717406",
      "lat": "38.75865285993713"
    },
    {
      "id": "pt.ine.add.PTCONT.2948900",
      "street": "PCT CARLOS CALADO",
      "house": "3",
      "postcode": "2635-091",
      "city": "RIO DE MOURO",
      "lon": "-9.354543463783678",
      "lat": "38.756495359727865"
    },
    {
      "id": "pt.ine.add.PTCONT.2958219",
      "street": "PCT DOMINGOS CASTRO",
      "house": "6",
      "postcode": "2635-015",
      "city": "RIO DE MOURO",
      "lon": "-9.354227541322853",
      "lat": "38.75618339216778"
    },
    {
      "id": "pt.ine.add.PTCONT.2983877",
      "street": "R ANTÓNIO GASPAR",
      "house": "41",
      "postcode": "2635-015",
      "city": "RIO DE MOURO",
      "lon": "-9.354754154649276",
      "lat": "38.7553581895716"
    },
    {
      "id": "pt.ine.add.PTCONT.2994636",
      "street": "PCT DOMINGOS CASTRO",
      "house": "2",
      "postcode": "2635-015",
      "city": "RIO DE MOURO",
      "lon": "-9.354642528228835",
      "lat": "38.7562331015707"
    },
    {
      "id": "pt.ine.add.PTCONT.3040267",
      "street": "PCT DOMINGOS CASTRO",
      "house": "5",
      "postcode": "2635-015",
      "city": "RIO DE MOURO",
      "lon": "-9.354274776507618",
      "lat": "38.75625496008569"
    },
    {
      "id": "pt.ine.add.PTCONT.3059254",
      "street": "R CARLOS CAPITULO",
      "house": "37",
      "postcode": "2635-051",
      "city": "RIO DE MOURO",
      "lon": "-9.354343153548246",
      "lat": "38.754867062357704"
    },
    {
      "id": "pt.ine.add.PTCONT.3153806",
      "street": "PCT JOAQUIM PEREIRA",
      "house": "7A",
      "postcode": "2635-031",
      "city": "RIO DE MOURO",
      "lon": "-9.354517838480472",
      "lat": "38.75566692074537"
    },
    {
      "id": "pt.ine.add.PTCONT.3162287",
      "street": "R GONÇALVES CORREIA",
      "house": "66",
      "postcode": "2635-037",
      "city": "RIO DE MOURO",
      "lon": "-9.352392458612687",
      "lat": "38.75650881270129"
    },
    {
      "id": "pt.ine.add.PTCONT.3173715",
      "street": "R CARLOS CAPITULO",
      "house": "6",
      "postcode": "2635-051",
      "city": "RIO DE MOURO",
      "lon": "-9.354423204363824",
      "lat": "38.754839202802415"
    },
    {
      "id": "pt.ine.add.PTCONT.3180529",
      "street": "R ANTÓNIO GASPAR",
      "house": "34",
      "postcode": "2635-015",
      "city": "RIO DE MOURO",
      "lon": "-9.354618731727943",
      "lat": "38.75483715938205"
    },
    {
      "id": "pt.ine.add.PTCONT.3205641",
      "street": "PCT JOAQUIM PEREIRA",
      "house": "8",
      "postcode": "2635-031",
      "city": "RIO DE MOURO",
      "lon": "-9.354632702376954",
      "lat": "38.75565671257998"
    },
    {
      "id": "pt.ine.add.PTCONT.3226789",
      "street": "R ANTÓNIO GASPAR",
      "house": "25",
      "postcode": "2635-015",
      "city": "RIO DE MOURO",
      "lon": "-9.354855549992322",
      "lat": "38.75658217447068"
    },
    {
      "id": "pt.ine.add.PTCONT.3226790",
      "street": "R ANTÓNIO GASPAR",
      "house": "11",
      "postcode": "2635-015",
      "city": "RIO DE MOURO",
      "lon": "-9.355213816730426",
      "lat": "38.75735308920826"
    },
    {
      "id": "pt.ine.add.PTCONT.3236079",
      "street": "PCT DOMINGOS CASTRO",
      "house": "4",
      "postcode": "2635-015",
      "city": "RIO DE MOURO",
      "lon": "-9.35444822511268",
      "lat": "38.756307193717326"
    },
    {
      "id": "pt.ine.add.PTCONT.3290853",
      "street": "PCT CARLOS CALADO",
      "house": "5",
      "postcode": "2635-091",
      "city": "RIO DE MOURO",
      "lon": "-9.354276608833482",
      "lat": "38.755687456918906"
    },
    {
      "id": "pt.ine.add.PTCONT.3319245",
      "street": "PCT SUSANA FEITOR",
      "house": "6",
      "postcode": "2635-090",
      "city": "RIO DE MOURO",
      "lon": "-9.354370761476563",
      "lat": "38.75513700439813"
    },
    {
      "id": "pt.ine.add.PTCONT.3337743",
      "street": "PCT CARLOS CALADO",
      "house": "4",
      "postcode": "2635-091",
      "city": "RIO DE MOURO",
      "lon": "-9.354360508247341",
      "lat": "38.75656032545245"
    },
    {
      "id": "pt.ine.add.PTCONT.3355501",
      "street": "R GONÇALVES CORREIA",
      "house": "64",
      "postcode": "2635-037",
      "city": "RIO DE MOURO",
      "lon": "-9.35336827828404",
      "lat": "38.756390535969146"
    },
    {
      "id": "pt.ine.add.PTCONT.3355502",
      "street": "R ANTÓNIO GASPAR",
      "house": "49",
      "postcode": "2635-015",
      "city": "RIO DE MOURO",
      "lon": "-9.354690044326256",
      "lat": "38.75497152928802"
    },
    {
      "id": "pt.ine.add.PTCONT.3355534",
      "street": "PCT DOMINGOS CASTRO",
      "house": "12",
      "postcode": "2635-015",
      "city": "RIO DE MOURO",
      "lon": "-9.35456799046538",
      "lat": "38.75590960404268"
    },
    {
      "id": "pt.ine.add.PTCONT.3357800",
      "street": "PCT JOAQUIM PEREIRA",
      "house": "9",
      "postcode": "2635-031",
      "city": "RIO DE MOURO",
      "lon": "-9.354828078404903",
      "lat": "38.755645662695336"
    },
    {
      "id": "pt.ine.add.PTCONT.3383919",
      "street": "R ANTÓNIO GASPAR",
      "house": "24",
      "postcode": "2635-015",
      "city": "RIO DE MOURO",
      "lon": "-9.354547584723624",
      "lat": "38.75538737168463"
    },
    {
      "id": "pt.ine.add.PTCONT.3401695",
      "street": "PCT SUSANA FEITOR",
      "house": "3",
      "postcode": "2635-090",
      "city": "RIO DE MOURO",
      "lon": "-9.35420099905361",
      "lat": "38.75530091652903"
    },
    {
      "id": "pt.ine.add.PTCONT.3410928",
      "street": "R GONÇALVES CORREIA",
      "house": "66 5",
      "postcode": "2635-037",
      "city": "RIO DE MOURO",
      "lon": "-9.352448282222339",
      "lat": "38.75640914577688"
    },
    {
      "id": "pt.ine.add.PTCONT.3410929",
      "street": "R ANTONIO GASPAR",
      "house": "5",
      "postcode": "2635-015",
      "city": "RIO DE MOURO",
      "lon": "-9.355454458105731",
      "lat": "38.75797210247347"
    },
    {
      "id": "pt.ine.add.PTCONT.3410930",
      "street": "R ANTONIO GASPAR",
      "house": "5 A",
      "postcode": "2635-015",
      "city": "RIO DE MOURO",
      "lon": "-9.355454458105731",
      "lat": "38.75797210247347"
    },
    {
      "id": "pt.ine.add.PTCONT.3428625",
      "street": "PCT CARLOS CALADO",
      "house": "2",
      "postcode": "2635-091",
      "city": "RIO DE MOURO",
      "lon": "-9.354657868397684",
      "lat": "38.756458133285854"
    },
    {
      "id": "pt.ine.add.PTCONT.3428626",
      "street": "R ANTÓNIO GASPAR",
      "house": "15 15 A",
      "postcode": "2635-015",
      "city": "RIO DE MOURO",
      "lon": "-9.355142807868008",
      "lat": "38.757236731878756"
    },
    {
      "id": "pt.ine.add.PTCONT.3439706",
      "street": "PCT SUSANA FEITOR",
      "house": "8",
      "postcode": "2635-090",
      "city": "RIO DE MOURO",
      "lon": "-9.354716732400446",
      "lat": "38.75518743474679"
    },
    {
      "id": "pt.ine.add.PTCONT.3447801",
      "street": "R CARLOS CAPITULO",
      "house": "8",
      "postcode": "2635-051",
      "city": "RIO DE MOURO",
      "lon": "-9.354526718853181",
      "lat": "38.75483812103237"
    },
    {
      "id": "pt.ine.add.PTCONT.3449756",
      "street": "PCT CARLOS CALADO",
      "house": "1",
      "postcode": "2635-091",
      "city": "RIO DE MOURO",
      "lon": "-9.354794969512804",
      "lat": "38.75640265411774"
    }
  ]
}