{
  "data": {
    "distrito": "Porto",
    "concelho": "Matosinhos",
    "freguesia": "Uni√£o das freguesias de Perafita, Lavra e Santa Cruz do Bispo",
    "OBJECTID": 1377,
    "BGRI2021": "13081301303",
    "DT21": "13",
    "DTMN21": "1308",
    "DTMNFR21": "130813",
    "DTMNFRSEC21": "130813013",
    "SECNUM21": "013",
    "SSNUM21": "03",
    "SECSSNUM21": "01303",
    "OBJECTID_1": 133103,
    "DT": "13",
    "CC": "08",
    "fr": "13",
    "SEC": "013",
    "SS": "03"
  },
  "addresses": [
    {
      "id": "pt.ine.add.PTCONT.3561210",
      "street": "R CIDRES",
      "house": "238",
      "postcode": "4455-808",
      "city": "SANTA CRUZ DO BISPO",
      "lon": "-8.676801136129855",
      "lat": "41.21327789262198"
    },
    {
      "id": "pt.ine.add.PTCONT.3743356",
      "street": "R GATANHAL",
      "house": "300",
      "postcode": "4455-816",
      "city": "SANTA CRUZ DO BISPO",
      "lon": "-8.676815686517303",
      "lat": "41.21361696888189"
    },
    {
      "id": "pt.ine.add.PTCONT.3751450",
      "street": "R CIDRES",
      "house": "266",
      "postcode": "4455-808",
      "city": "SANTA CRUZ DO BISPO",
      "lon": "-8.677028821063251",
      "lat": "41.213435877448944"
    },
    {
      "id": "pt.ine.add.PTCONT.3890102",
      "street": "R MONTE AVO",
      "house": "326",
      "postcode": "4455-839",
      "city": "SANTA CRUZ DO BISPO",
      "lon": "-8.676667012487007",
      "lat": "41.21294235220581"
    },
    {
      "id": "pt.ine.add.PTCONT.3890103",
      "street": "R CIDRES",
      "house": "238",
      "postcode": "4455-808",
      "city": "SANTA CRUZ DO BISPO",
      "lon": "-8.676861144458435",
      "lat": "41.21334662684232"
    },
    {
      "id": "pt.ine.add.PTCONT.3940656",
      "street": "R CIDRES",
      "house": "202",
      "postcode": "4455-808",
      "city": "SANTA CRUZ DO BISPO",
      "lon": "-8.676833793147617",
      "lat": "41.2129235563626"
    },
    {
      "id": "pt.ine.add.PTCONT.3990313",
      "street": "R CIDRES",
      "house": "238",
      "postcode": "4455-808",
      "city": "SANTA CRUZ DO BISPO",
      "lon": "-8.676955936911288",
      "lat": "41.21327414523324"
    },
    {
      "id": "pt.ine.add.PTCONT.4007841",
      "street": "R CIDRES",
      "house": "222",
      "postcode": "4455-808",
      "city": "SANTA CRUZ DO BISPO",
      "lon": "-8.67688305312217",
      "lat": "41.21311241296465"
    },
    {
      "id": "pt.ine.add.PTCONT.4222363",
      "street": "R CIDRES",
      "house": "204",
      "postcode": "4455-808",
      "city": "SANTA CRUZ DO BISPO",
      "lon": "-8.676799215276235",
      "lat": "41.21306778758058"
    },
    {
      "id": "pt.ine.add.PTCONT.4258489",
      "street": "R CIDRES",
      "house": "238",
      "postcode": "4455-808",
      "city": "SANTA CRUZ DO BISPO",
      "lon": "-8.676807417161843",
      "lat": "41.21332736381544"
    },
    {
      "id": "pt.ine.add.PTCONT.4261609",
      "street": "R MONTE AVO",
      "house": "324",
      "postcode": "4455-839",
      "city": "SANTA CRUZ DO BISPO",
      "lon": "-8.676784085948306",
      "lat": "41.21290733668626"
    },
    {
      "id": "pt.ine.add.PTCONT.4308653",
      "street": "R GATANHAL",
      "house": "300",
      "postcode": "4455-816",
      "city": "SANTA CRUZ DO BISPO",
      "lon": "-8.676804433802692",
      "lat": "41.213698060229106"
    },
    {
      "id": "pt.ine.add.PTCONT.4357603",
      "street": "R GATANHAL",
      "house": "300",
      "postcode": "4455-816",
      "city": "SANTA CRUZ DO BISPO",
      "lon": "-8.676685495021871",
      "lat": "41.213734638704416"
    }
  ]
}