{
  "data": {
    "distrito": "Santarém",
    "concelho": "Ourém",
    "freguesia": "União das freguesias de Rio de Couros e Casal dos Bernardos",
    "OBJECTID": 1101,
    "BGRI2021": "14212200312",
    "DT21": "14",
    "DTMN21": "1421",
    "DTMNFR21": "142122",
    "DTMNFRSEC21": "142122003",
    "SECNUM21": "003",
    "SSNUM21": "12",
    "SECSSNUM21": "00312",
    "OBJECTID_1": 158761,
    "DT": "14",
    "CC": "21",
    "fr": "22",
    "SEC": "003",
    "SS": "12"
  },
  "addresses": [
    {
      "id": "pt.ine.add.PTCONT.4403400",
      "street": "R BREJOEIRA",
      "house": "64",
      "postcode": "2435-522",
      "city": "RIO DE COUROS",
      "lon": "-8.518612548888045",
      "lat": "39.74471522920069"
    },
    {
      "id": "pt.ine.add.PTCONT.4437728",
      "street": "R PRINCIPAL",
      "house": "133",
      "postcode": "2435-522",
      "city": "RIO DE COUROS",
      "lon": "-8.516857274358467",
      "lat": "39.74798141865161"
    },
    {
      "id": "pt.ine.add.PTCONT.4437729",
      "street": "R PRINCIPAL",
      "house": "",
      "postcode": "2435-522",
      "city": "RIO DE COUROS",
      "lon": "-8.514864669649054",
      "lat": "39.74633078259148"
    },
    {
      "id": "pt.ine.add.PTCONT.4455730",
      "street": "R MURTAS",
      "house": "",
      "postcode": "2435-522",
      "city": "RIO DE COUROS",
      "lon": "-8.51688630475892",
      "lat": "39.74480200815574"
    },
    {
      "id": "pt.ine.add.PTCONT.4460591",
      "street": "R MURTAS",
      "house": "",
      "postcode": "2435-522",
      "city": "RIO DE COUROS",
      "lon": "-8.517074524296655",
      "lat": "39.745080589062354"
    },
    {
      "id": "pt.ine.add.PTCONT.4471444",
      "street": "R PRINCIPAL",
      "house": "129",
      "postcode": "2435-522",
      "city": "RIO DE COUROS",
      "lon": "-8.516424133066087",
      "lat": "39.74772165967912"
    },
    {
      "id": "pt.ine.add.PTCONT.4519222",
      "street": "R BREJOEIRA",
      "house": "66",
      "postcode": "2435-522",
      "city": "RIO DE COUROS",
      "lon": "-8.518904672145347",
      "lat": "39.744795317738294"
    },
    {
      "id": "pt.ine.add.PTCONT.4547447",
      "street": "R BREJOEIRA",
      "house": "60",
      "postcode": "2435-522",
      "city": "RIO DE COUROS",
      "lon": "-8.518238858736526",
      "lat": "39.744653423689"
    },
    {
      "id": "pt.ine.add.PTCONT.4553891",
      "street": "R PONTE",
      "house": "",
      "postcode": "2435-522",
      "city": "RIO DE COUROS",
      "lon": "-8.518014993325393",
      "lat": "39.74635640563373"
    },
    {
      "id": "pt.ine.add.PTCONT.4562519",
      "street": "R PRINCIPAL",
      "house": "111",
      "postcode": "2435-522",
      "city": "RIO DE COUROS",
      "lon": "-8.514889246607842",
      "lat": "39.74655586568847"
    },
    {
      "id": "pt.ine.add.PTCONT.4574070",
      "street": "R PONTE",
      "house": "48",
      "postcode": "2435-522",
      "city": "RIO DE COUROS",
      "lon": "-8.517307500563575",
      "lat": "39.747115300115254"
    },
    {
      "id": "pt.ine.add.PTCONT.4578908",
      "street": "R PONTE",
      "house": "50",
      "postcode": "2435-522",
      "city": "RIO DE COUROS",
      "lon": "-8.516969050197476",
      "lat": "39.74709840669685"
    },
    {
      "id": "pt.ine.add.PTCONT.4599948",
      "street": "R PONTE",
      "house": "",
      "postcode": "2435-522",
      "city": "RIO DE COUROS",
      "lon": "-8.518292948146923",
      "lat": "39.74598621482205"
    },
    {
      "id": "pt.ine.add.PTCONT.4620625",
      "street": "R PONTE",
      "house": "40",
      "postcode": "2435-522",
      "city": "RIO DE COUROS",
      "lon": "-8.51771224894978",
      "lat": "39.74646548776593"
    }
  ]
}