{
  "data": {
    "distrito": "Faro",
    "concelho": "Albufeira",
    "freguesia": "Albufeira e Olhos de Água",
    "OBJECTID": 479,
    "BGRI2021": "08010604405",
    "DT21": "08",
    "DTMN21": "0801",
    "DTMNFR21": "080106",
    "DTMNFRSEC21": "080106044",
    "SECNUM21": "044",
    "SSNUM21": "05",
    "SECSSNUM21": "04405",
    "OBJECTID_1": 64678,
    "DT": "08",
    "CC": "01",
    "fr": "06",
    "SEC": "044",
    "SS": "05"
  },
  "addresses": [
    {
      "id": "pt.ine.add.PTCONT.1468313",
      "street": "",
      "house": "",
      "postcode": "8200-592",
      "city": "ALBUFEIRA",
      "lon": "-8.186932269167073",
      "lat": "37.11076853960635"
    },
    {
      "id": "pt.ine.add.PTCONT.1481479",
      "street": "URB VALE AZINHEIRA A",
      "house": "A47",
      "postcode": "8200-633",
      "city": "ALBUFEIRA",
      "lon": "-8.19391549676597",
      "lat": "37.106349941905776"
    },
    {
      "id": "pt.ine.add.PTCONT.1492072",
      "street": "R PRAIA",
      "house": "",
      "postcode": "8200-592",
      "city": "ALBUFEIRA",
      "lon": "-8.187697441213885",
      "lat": "37.11093038156761"
    },
    {
      "id": "pt.ine.add.PTCONT.1499744",
      "street": "R VINHA",
      "house": "A",
      "postcode": "8200-389",
      "city": "ALBUFEIRA",
      "lon": "-8.193228382204586",
      "lat": "37.10526901289401"
    },
    {
      "id": "pt.ine.add.PTCONT.1507495",
      "street": "URB VALE DA AZINHEIRA",
      "house": "B",
      "postcode": "8200-633",
      "city": "ALBUFEIRA",
      "lon": "-8.19346494685634",
      "lat": "37.10566536184602"
    },
    {
      "id": "pt.ine.add.PTCONT.1515694",
      "street": "",
      "house": "",
      "postcode": "8200-671",
      "city": "ALBUFEIRA",
      "lon": "-8.192465751532707",
      "lat": "37.10830598955148"
    },
    {
      "id": "pt.ine.add.PTCONT.1515716",
      "street": "",
      "house": "",
      "postcode": "8200-633",
      "city": "ALBUFEIRA",
      "lon": "-8.19421752835211",
      "lat": "37.1042052490087"
    },
    {
      "id": "pt.ine.add.PTCONT.1515717",
      "street": "SEM DESIGNACAO",
      "house": "CX 760 A",
      "postcode": "8200-633",
      "city": "ALBUFEIRA",
      "lon": "-8.19421752835211",
      "lat": "37.1042052490087"
    },
    {
      "id": "pt.ine.add.PTCONT.1517983",
      "street": "",
      "house": "",
      "postcode": "8200-633",
      "city": "ALBUFEIRA",
      "lon": "-8.19421752835211",
      "lat": "37.1042052490087"
    },
    {
      "id": "pt.ine.add.PTCONT.1523207",
      "street": "BC PONTÃO",
      "house": "",
      "postcode": "8200-592",
      "city": "ALBUFEIRA",
      "lon": "-8.19051032164115",
      "lat": "37.111154319506056"
    },
    {
      "id": "pt.ine.add.PTCONT.1524809",
      "street": "R CANGA",
      "house": "D7",
      "postcode": "8200-389",
      "city": "ALBUFEIRA",
      "lon": "-8.194758236598",
      "lat": "37.10508801411782"
    },
    {
      "id": "pt.ine.add.PTCONT.1526863",
      "street": "R CANGA",
      "house": "D7",
      "postcode": "8200-389",
      "city": "ALBUFEIRA",
      "lon": "-8.194758236598",
      "lat": "37.10508801411782"
    },
    {
      "id": "pt.ine.add.PTCONT.1533407",
      "street": "",
      "house": "",
      "postcode": "8200-633",
      "city": "ALBUFEIRA",
      "lon": "-8.19290129635083",
      "lat": "37.104205920025365"
    },
    {
      "id": "pt.ine.add.PTCONT.1533399",
      "street": "R CANCA",
      "house": "A7",
      "postcode": "8200-633",
      "city": "ALBUFEIRA",
      "lon": "-8.194668440963149",
      "lat": "37.105340359316344"
    },
    {
      "id": "pt.ine.add.PTCONT.1537417",
      "street": "",
      "house": "",
      "postcode": "8200-633",
      "city": "ALBUFEIRA",
      "lon": "-8.193430067706146",
      "lat": "37.10424169486858"
    },
    {
      "id": "pt.ine.add.PTCONT.1544984",
      "street": "R CANGA",
      "house": "A12",
      "postcode": "8200-633",
      "city": "ALBUFEIRA",
      "lon": "-8.194950182113777",
      "lat": "37.10594392704724"
    },
    {
      "id": "pt.ine.add.PTCONT.1550825",
      "street": "",
      "house": "",
      "postcode": "8200-671",
      "city": "ALBUFEIRA",
      "lon": "-8.192139523365372",
      "lat": "37.108351205700586"
    },
    {
      "id": "pt.ine.add.PTCONT.1550841",
      "street": "URB VALE AZINHEIRA A",
      "house": "A 40",
      "postcode": "8200-389",
      "city": "ALBUFEIRA",
      "lon": "-8.193769611124472",
      "lat": "37.106809560305265"
    },
    {
      "id": "pt.ine.add.PTCONT.1553967",
      "street": "R ARADO",
      "house": "",
      "postcode": "8200-389",
      "city": "ALBUFEIRA",
      "lon": "-8.193948627453668",
      "lat": "37.10557500804256"
    },
    {
      "id": "pt.ine.add.PTCONT.1564291",
      "street": "URB VALE AZINHEIRA",
      "house": "A4",
      "postcode": "8200-633",
      "city": "ALBUFEIRA",
      "lon": "-8.195005890050044",
      "lat": "37.10527710901074"
    },
    {
      "id": "pt.ine.add.PTCONT.1572951",
      "street": "",
      "house": "",
      "postcode": "8200-592",
      "city": "ALBUFEIRA",
      "lon": "-8.18728105094768",
      "lat": "37.11077739142102"
    },
    {
      "id": "pt.ine.add.PTCONT.1575623",
      "street": "BC PONTÃO",
      "house": "",
      "postcode": "8200-592",
      "city": "ALBUFEIRA",
      "lon": "-8.190656521645924",
      "lat": "37.111073152755466"
    },
    {
      "id": "pt.ine.add.PTCONT.1578807",
      "street": "R CHARRUA",
      "house": "A18",
      "postcode": "8200-633",
      "city": "ALBUFEIRA",
      "lon": "-8.195164345726011",
      "lat": "37.10644841216687"
    },
    {
      "id": "pt.ine.add.PTCONT.1578808",
      "street": "R CHARRUA",
      "house": "A18",
      "postcode": "8200-633",
      "city": "ALBUFEIRA",
      "lon": "-8.195164345726011",
      "lat": "37.10644841216687"
    },
    {
      "id": "pt.ine.add.PTCONT.1580732",
      "street": "R CANCA",
      "house": "",
      "postcode": "8200-633",
      "city": "ALBUFEIRA",
      "lon": "-8.195230853342608",
      "lat": "37.1052319380539"
    },
    {
      "id": "pt.ine.add.PTCONT.1580734",
      "street": "",
      "house": "",
      "postcode": "8200-592",
      "city": "ALBUFEIRA",
      "lon": "-8.187787571037758",
      "lat": "37.1111015424608"
    },
    {
      "id": "pt.ine.add.PTCONT.1590276",
      "street": "R ARADO",
      "house": "A59",
      "postcode": "8200-389",
      "city": "ALBUFEIRA",
      "lon": "-8.19451024253794",
      "lat": "37.104475417708045"
    },
    {
      "id": "pt.ine.add.PTCONT.1590278",
      "street": "R VINHA",
      "house": "",
      "postcode": "8200-633",
      "city": "ALBUFEIRA",
      "lon": "-8.194116547115796",
      "lat": "37.10453869556261"
    },
    {
      "id": "pt.ine.add.PTCONT.1591705",
      "street": "URB VALE DA AZINHEIRA",
      "house": "H",
      "postcode": "8200-633",
      "city": "ALBUFEIRA",
      "lon": "-8.193251658760698",
      "lat": "37.106251163204966"
    },
    {
      "id": "pt.ine.add.PTCONT.1594384",
      "street": "URB VALE DA AZINHEIRA",
      "house": "F",
      "postcode": "8200-633",
      "city": "ALBUFEIRA",
      "lon": "-8.193476554468548",
      "lat": "37.10611588900676"
    },
    {
      "id": "pt.ine.add.PTCONT.1611633",
      "street": "",
      "house": "",
      "postcode": "8200-633",
      "city": "ALBUFEIRA",
      "lon": "-8.193148821416859",
      "lat": "37.104241837608"
    },
    {
      "id": "pt.ine.add.PTCONT.1615322",
      "street": "R VINHA",
      "house": "",
      "postcode": "8200-389",
      "city": "ALBUFEIRA",
      "lon": "-8.192688254998332",
      "lat": "37.10510709359131"
    },
    {
      "id": "pt.ine.add.PTCONT.1620452",
      "street": "R CANCA",
      "house": "",
      "postcode": "8200-633",
      "city": "ALBUFEIRA",
      "lon": "-8.194724851604686",
      "lat": "37.10553856458132"
    },
    {
      "id": "pt.ine.add.PTCONT.1624410",
      "street": "R ARADO",
      "house": "154",
      "postcode": "8200-389",
      "city": "ALBUFEIRA",
      "lon": "-8.194015687644919",
      "lat": "37.10502532321722"
    },
    {
      "id": "pt.ine.add.PTCONT.1627630",
      "street": "R CHARRUA",
      "house": "A43",
      "postcode": "8200-389",
      "city": "ALBUFEIRA",
      "lon": "-8.193477219532948",
      "lat": "37.10695388008663"
    },
    {
      "id": "pt.ine.add.PTCONT.1629333",
      "street": "R CHARRUA",
      "house": "A 41",
      "postcode": "8200-389",
      "city": "ALBUFEIRA",
      "lon": "-8.193747024462482",
      "lat": "37.10670144393737"
    },
    {
      "id": "pt.ine.add.PTCONT.1640994",
      "street": "R CANCA",
      "house": "A5",
      "postcode": "8200-633",
      "city": "ALBUFEIRA",
      "lon": "-8.194893404644006",
      "lat": "37.10529518899986"
    },
    {
      "id": "pt.ine.add.PTCONT.1643642",
      "street": "R CHARRUA EINDA",
      "house": "A 48",
      "postcode": "8200-389",
      "city": "ALBUFEIRA",
      "lon": "-8.193994197421269",
      "lat": "37.10628682689574"
    },
    {
      "id": "pt.ine.add.PTCONT.1648165",
      "street": "R ARADE",
      "house": "",
      "postcode": "8200-633",
      "city": "ALBUFEIRA",
      "lon": "-8.195174191648048",
      "lat": "37.10472737061416"
    },
    {
      "id": "pt.ine.add.PTCONT.1654065",
      "street": "R CHARRUA",
      "house": "A13",
      "postcode": "8200-633",
      "city": "ALBUFEIRA",
      "lon": "-8.195253898084593",
      "lat": "37.10589871495226"
    },
    {
      "id": "pt.ine.add.PTCONT.1657271",
      "street": "R VINHA",
      "house": "",
      "postcode": "8200-389",
      "city": "ALBUFEIRA",
      "lon": "-8.192801016415492",
      "lat": "37.10544043138723"
    },
    {
      "id": "pt.ine.add.PTCONT.1666011",
      "street": "R CHARRUA",
      "house": "A 44",
      "postcode": "8200-389",
      "city": "ALBUFEIRA",
      "lon": "-8.193398410628097",
      "lat": "37.106881834905074"
    },
    {
      "id": "pt.ine.add.PTCONT.1666012",
      "street": "",
      "house": "",
      "postcode": "8200-592",
      "city": "ALBUFEIRA",
      "lon": "-8.1875529090515",
      "lat": "37.11334530279368"
    },
    {
      "id": "pt.ine.add.PTCONT.1666270",
      "street": "URB VALE AZINHEIRA A",
      "house": "A38",
      "postcode": "8200-389",
      "city": "ALBUFEIRA",
      "lon": "-8.194062081032373",
      "lat": "37.10676435702079"
    },
    {
      "id": "pt.ine.add.PTCONT.1672806",
      "street": "R CANCA",
      "house": "3A",
      "postcode": "8200-633",
      "city": "ALBUFEIRA",
      "lon": "-8.195118360711788",
      "lat": "37.10524100759802"
    },
    {
      "id": "pt.ine.add.PTCONT.1675036",
      "street": "R CHARRUA",
      "house": "",
      "postcode": "8200-389",
      "city": "ALBUFEIRA",
      "lon": "-8.193533528060545",
      "lat": "37.10702593668308"
    },
    {
      "id": "pt.ine.add.PTCONT.1677483",
      "street": "URB VALE AZINHEIRA",
      "house": "",
      "postcode": "8200-633",
      "city": "ALBUFEIRA",
      "lon": "-8.193724351698297",
      "lat": "37.106485199682425"
    },
    {
      "id": "pt.ine.add.PTCONT.1678549",
      "street": "R CHARRUA",
      "house": "A36",
      "postcode": "8200-389",
      "city": "ALBUFEIRA",
      "lon": "-8.194287056532438",
      "lat": "37.10672819851776"
    },
    {
      "id": "pt.ine.add.PTCONT.1682743",
      "street": "R VINHA",
      "house": "",
      "postcode": "8200-389",
      "city": "ALBUFEIRA",
      "lon": "-8.192722103797813",
      "lat": "37.10523322585421"
    },
    {
      "id": "pt.ine.add.PTCONT.1683770",
      "street": "",
      "house": "",
      "postcode": "8200-389",
      "city": "ALBUFEIRA",
      "lon": "-8.19248813988569",
      "lat": "37.108161807815875"
    },
    {
      "id": "pt.ine.add.PTCONT.1685711",
      "street": "R VINHA",
      "house": "",
      "postcode": "8200-389",
      "city": "ALBUFEIRA",
      "lon": "-8.193093460322743",
      "lat": "37.10536819850973"
    },
    {
      "id": "pt.ine.add.PTCONT.1685810",
      "street": "URB VALE DA AZINHEIRA",
      "house": "A",
      "postcode": "8200-633",
      "city": "ALBUFEIRA",
      "lon": "-8.193408617973938",
      "lat": "37.10556627322473"
    },
    {
      "id": "pt.ine.add.PTCONT.1695976",
      "street": "BC PONTÃO",
      "house": "",
      "postcode": "8200-592",
      "city": "ALBUFEIRA",
      "lon": "-8.190813972189007",
      "lat": "37.11099198034873"
    },
    {
      "id": "pt.ine.add.PTCONT.1709506",
      "street": "R PRAIA",
      "house": "",
      "postcode": "8200-592",
      "city": "ALBUFEIRA",
      "lon": "-8.186887208549992",
      "lat": "37.11068746416389"
    },
    {
      "id": "pt.ine.add.PTCONT.1709538",
      "street": "R ARADE",
      "house": "",
      "postcode": "8200-633",
      "city": "ALBUFEIRA",
      "lon": "-8.194881752186616",
      "lat": "37.104799608627076"
    },
    {
      "id": "pt.ine.add.PTCONT.1712600",
      "street": "R CHARRUA",
      "house": "",
      "postcode": "8200-633",
      "city": "ALBUFEIRA",
      "lon": "-8.194883164464876",
      "lat": "37.1065386655931"
    },
    {
      "id": "pt.ine.add.PTCONT.1712610",
      "street": "",
      "house": "",
      "postcode": "8200-592",
      "city": "ALBUFEIRA",
      "lon": "-8.186988619012286",
      "lat": "37.110903673825526"
    },
    {
      "id": "pt.ine.add.PTCONT.1715587",
      "street": "R ARADO I",
      "house": "I",
      "postcode": "8200-389",
      "city": "ALBUFEIRA",
      "lon": "-8.195016399402292",
      "lat": "37.10436702656627"
    },
    {
      "id": "pt.ine.add.PTCONT.1715588",
      "street": "R ARADO A",
      "house": "A2",
      "postcode": "8200-389",
      "city": "ALBUFEIRA",
      "lon": "-8.195016399402292",
      "lat": "37.10436702656627"
    },
    {
      "id": "pt.ine.add.PTCONT.1715589",
      "street": "R ARADO G",
      "house": "G1",
      "postcode": "8200-389",
      "city": "ALBUFEIRA",
      "lon": "-8.195016399402292",
      "lat": "37.10436702656627"
    },
    {
      "id": "pt.ine.add.PTCONT.1715590",
      "street": "R ARADO",
      "house": "",
      "postcode": "8200-389",
      "city": "ALBUFEIRA",
      "lon": "-8.195016399402292",
      "lat": "37.10436702656627"
    },
    {
      "id": "pt.ine.add.PTCONT.1715591",
      "street": "R ARADO B",
      "house": "B2",
      "postcode": "8200-389",
      "city": "ALBUFEIRA",
      "lon": "-8.195016399402292",
      "lat": "37.10436702656627"
    },
    {
      "id": "pt.ine.add.PTCONT.1723910",
      "street": "",
      "house": "",
      "postcode": "8200-633",
      "city": "ALBUFEIRA",
      "lon": "-8.193936282201662",
      "lat": "37.10420539361573"
    },
    {
      "id": "pt.ine.add.PTCONT.1723911",
      "street": "",
      "house": "",
      "postcode": "8200-633",
      "city": "ALBUFEIRA",
      "lon": "-8.193936282201662",
      "lat": "37.10420539361573"
    },
    {
      "id": "pt.ine.add.PTCONT.1723912",
      "street": "",
      "house": "",
      "postcode": "8200-633",
      "city": "ALBUFEIRA",
      "lon": "-8.193936282201662",
      "lat": "37.10420539361573"
    },
    {
      "id": "pt.ine.add.PTCONT.1723913",
      "street": "",
      "house": "",
      "postcode": "8200-633",
      "city": "ALBUFEIRA",
      "lon": "-8.193936282201662",
      "lat": "37.10420539361573"
    },
    {
      "id": "pt.ine.add.PTCONT.1726918",
      "street": "R CHARRUA",
      "house": "",
      "postcode": "8200-633",
      "city": "ALBUFEIRA",
      "lon": "-8.195254060039803",
      "lat": "37.10609694941269"
    },
    {
      "id": "pt.ine.add.PTCONT.1738281",
      "street": "R CHARRUA",
      "house": "A 39",
      "postcode": "8200-389",
      "city": "ALBUFEIRA",
      "lon": "-8.193927121566073",
      "lat": "37.106818490280354"
    },
    {
      "id": "pt.ine.add.PTCONT.1738282",
      "street": "R CHARRUA",
      "house": "17 A",
      "postcode": "8200-633",
      "city": "ALBUFEIRA",
      "lon": "-8.195276788585769",
      "lat": "37.10637626798273"
    },
    {
      "id": "pt.ine.add.PTCONT.1738284",
      "street": "R ARADO",
      "house": "A55",
      "postcode": "8200-389",
      "city": "ALBUFEIRA",
      "lon": "-8.194083100777",
      "lat": "37.10491716061788"
    },
    {
      "id": "pt.ine.add.PTCONT.1741550",
      "street": "",
      "house": "",
      "postcode": "8200-671",
      "city": "ALBUFEIRA",
      "lon": "-8.192308259219153",
      "lat": "37.10832408960274"
    },
    {
      "id": "pt.ine.add.PTCONT.1747360",
      "street": "R ARADO",
      "house": "58",
      "postcode": "8200-389",
      "city": "ALBUFEIRA",
      "lon": "-8.194813938291796",
      "lat": "37.10441218541428"
    },
    {
      "id": "pt.ine.add.PTCONT.1747361",
      "street": "R ARADO",
      "house": "58",
      "postcode": "8200-389",
      "city": "ALBUFEIRA",
      "lon": "-8.194813938291796",
      "lat": "37.10441218541428"
    },
    {
      "id": "pt.ine.add.PTCONT.1750594",
      "street": "ESTR APEADEIRO",
      "house": "",
      "postcode": "8200-389",
      "city": "ALBUFEIRA",
      "lon": "-8.189226206028042",
      "lat": "37.10910050484972"
    },
    {
      "id": "pt.ine.add.PTCONT.1759712",
      "street": "R ARADO",
      "house": "",
      "postcode": "8200-389",
      "city": "ALBUFEIRA",
      "lon": "-8.194050000612009",
      "lat": "37.105728137235076"
    },
    {
      "id": "pt.ine.add.PTCONT.1769068",
      "street": "R CHARRUA",
      "house": "A 46",
      "postcode": "8200-389",
      "city": "ALBUFEIRA",
      "lon": "-8.193814295634908",
      "lat": "37.10641306838444"
    },
    {
      "id": "pt.ine.add.PTCONT.1769071",
      "street": "R CANCA",
      "house": "A6",
      "postcode": "8200-633",
      "city": "ALBUFEIRA",
      "lon": "-8.194769676478682",
      "lat": "37.10532228539136"
    },
    {
      "id": "pt.ine.add.PTCONT.1769072",
      "street": "URB VALE DA AZINHEIRA",
      "house": "E",
      "postcode": "8200-633",
      "city": "ALBUFEIRA",
      "lon": "-8.19358899127584",
      "lat": "37.106034735760566"
    },
    {
      "id": "pt.ine.add.PTCONT.1769088",
      "street": "",
      "house": "",
      "postcode": "8200-633",
      "city": "ALBUFEIRA",
      "lon": "-8.193565030118938",
      "lat": "37.10419657281528"
    },
    {
      "id": "pt.ine.add.PTCONT.1772092",
      "street": "R CANCA",
      "house": "A1",
      "postcode": "8200-633",
      "city": "ALBUFEIRA",
      "lon": "-8.195320838584662",
      "lat": "37.10521386955165"
    },
    {
      "id": "pt.ine.add.PTCONT.1772093",
      "street": "URB VALE DA AZINHEIRA",
      "house": "G",
      "postcode": "8200-633",
      "city": "ALBUFEIRA",
      "lon": "-8.193341602869625",
      "lat": "37.1061790322625"
    },
    {
      "id": "pt.ine.add.PTCONT.1774347",
      "street": "URB VALE DA AZINHEIRA",
      "house": "A11",
      "postcode": "8200-633",
      "city": "ALBUFEIRA",
      "lon": "-8.194905108499402",
      "lat": "37.10585384393314"
    },
    {
      "id": "pt.ine.add.PTCONT.1777838",
      "street": "",
      "house": "",
      "postcode": "8200-592",
      "city": "ALBUFEIRA",
      "lon": "-8.1874273244712",
      "lat": "37.110795345809265"
    },
    {
      "id": "pt.ine.add.PTCONT.1777837",
      "street": "",
      "house": "",
      "postcode": "8200-592",
      "city": "ALBUFEIRA",
      "lon": "-8.1874273244712",
      "lat": "37.110795345809265"
    },
    {
      "id": "pt.ine.add.PTCONT.1781206",
      "street": "R CANCA",
      "house": "A10",
      "postcode": "8200-633",
      "city": "ALBUFEIRA",
      "lon": "-8.194848806856207",
      "lat": "37.105790798631794"
    },
    {
      "id": "pt.ine.add.PTCONT.1781212",
      "street": "URB VALE DA AZINHEIRA",
      "house": "I",
      "postcode": "8200-633",
      "city": "ALBUFEIRA",
      "lon": "-8.193139207051132",
      "lat": "37.10631429481464"
    },
    {
      "id": "pt.ine.add.PTCONT.1786934",
      "street": "URB VALE DA AZINHEIRA",
      "house": "D",
      "postcode": "8200-633",
      "city": "ALBUFEIRA",
      "lon": "-8.19363385551858",
      "lat": "37.10586351030397"
    },
    {
      "id": "pt.ine.add.PTCONT.1792855",
      "street": "R CHARRUA",
      "house": "19A",
      "postcode": "8200-633",
      "city": "ALBUFEIRA",
      "lon": "-8.195006887235065",
      "lat": "37.106502558430435"
    },
    {
      "id": "pt.ine.add.PTCONT.1801573",
      "street": "R CANGA",
      "house": "D 6",
      "postcode": "8200-389",
      "city": "ALBUFEIRA",
      "lon": "-8.194994442118318",
      "lat": "37.10503382710006"
    },
    {
      "id": "pt.ine.add.PTCONT.1801574",
      "street": "URB VALE AZINHEIRA D",
      "house": "D6",
      "postcode": "8200-633",
      "city": "ALBUFEIRA",
      "lon": "-8.194994442118318",
      "lat": "37.10503382710006"
    },
    {
      "id": "pt.ine.add.PTCONT.1806853",
      "street": "R ARADO",
      "house": "",
      "postcode": "8200-389",
      "city": "ALBUFEIRA",
      "lon": "-8.194420294288019",
      "lat": "37.10453853889524"
    },
    {
      "id": "pt.ine.add.PTCONT.1807440",
      "street": "R CHARRUA",
      "house": "A15",
      "postcode": "8200-633",
      "city": "ALBUFEIRA",
      "lon": "-8.195209140457235",
      "lat": "37.10619609021679"
    },
    {
      "id": "pt.ine.add.PTCONT.1813129",
      "street": "",
      "house": "",
      "postcode": "8200-633",
      "city": "ALBUFEIRA",
      "lon": "-8.193700021079621",
      "lat": "37.104187493249526"
    },
    {
      "id": "pt.ine.add.PTCONT.1818862",
      "street": "R CANCA A",
      "house": "A9",
      "postcode": "8200-633",
      "city": "ALBUFEIRA",
      "lon": "-8.194814976210324",
      "lat": "37.10569169896487"
    },
    {
      "id": "pt.ine.add.PTCONT.1826083",
      "street": "R ARADO",
      "house": "57",
      "postcode": "8200-389",
      "city": "ALBUFEIRA",
      "lon": "-8.194364081090884",
      "lat": "37.10458362126457"
    },
    {
      "id": "pt.ine.add.PTCONT.1827607",
      "street": "CAM PONTÃO",
      "house": "",
      "postcode": "8200-671",
      "city": "ALBUFEIRA",
      "lon": "-8.193928151862172",
      "lat": "37.108107013985915"
    },
    {
      "id": "pt.ine.add.PTCONT.1833291",
      "street": "R CHARRUA",
      "house": "",
      "postcode": "8200-633",
      "city": "ALBUFEIRA",
      "lon": "-8.195254214634883",
      "lat": "37.1062861732096"
    },
    {
      "id": "pt.ine.add.PTCONT.1841685",
      "street": "R VINHA",
      "house": "772 A",
      "postcode": "8200-633",
      "city": "ALBUFEIRA",
      "lon": "-8.194037848368692",
      "lat": "37.10460181067078"
    },
    {
      "id": "pt.ine.add.PTCONT.1843760",
      "street": "",
      "house": "",
      "postcode": "8200-592",
      "city": "ALBUFEIRA",
      "lon": "-8.18774247694664",
      "lat": "37.11097541409445"
    },
    {
      "id": "pt.ine.add.PTCONT.1845494",
      "street": "R ARADO",
      "house": "58",
      "postcode": "8200-389",
      "city": "ALBUFEIRA",
      "lon": "-8.194813938291796",
      "lat": "37.10441218541428"
    },
    {
      "id": "pt.ine.add.PTCONT.1845905",
      "street": "R ARADO B",
      "house": "B3",
      "postcode": "8200-389",
      "city": "ALBUFEIRA",
      "lon": "-8.195016399402292",
      "lat": "37.10436702656627"
    },
    {
      "id": "pt.ine.add.PTCONT.1846760",
      "street": "R CHARRUA",
      "house": "A37",
      "postcode": "8200-389",
      "city": "ALBUFEIRA",
      "lon": "-8.194174561575284",
      "lat": "37.10673726716631"
    },
    {
      "id": "pt.ine.add.PTCONT.1848309",
      "street": "URB VALE DA AZINHEIRA",
      "house": "C",
      "postcode": "8200-633",
      "city": "ALBUFEIRA",
      "lon": "-8.193532511647115",
      "lat": "37.10574642339055"
    }
  ]
}