{
  "data": {
    "distrito": "Porto",
    "concelho": "Baião",
    "freguesia": "Grilo",
    "OBJECTID": 144,
    "BGRI2021": "13020700110",
    "DT21": "13",
    "DTMN21": "1302",
    "DTMNFR21": "130207",
    "DTMNFRSEC21": "130207001",
    "SECNUM21": "001",
    "SSNUM21": "10",
    "SECSSNUM21": "00110",
    "OBJECTID_1": 126976,
    "DT": "13",
    "CC": "02",
    "fr": "07",
    "SEC": "001",
    "SS": "10"
  },
  "addresses": [
    {
      "id": "pt.ine.add.PTCONT.3699929",
      "street": "R CHÃOS",
      "house": "",
      "postcode": "4640-301",
      "city": "GRILO",
      "lon": "-8.067368372512398",
      "lat": "41.14386439150906"
    },
    {
      "id": "pt.ine.add.PTCONT.3727795",
      "street": "R VISC DE VILA MOURA",
      "house": "5",
      "postcode": "4640-308",
      "city": "GRILO",
      "lon": "-8.064531619446008",
      "lat": "41.145591584071255"
    },
    {
      "id": "pt.ine.add.PTCONT.3745516",
      "street": "R CHÃOS",
      "house": "131",
      "postcode": "4640-301",
      "city": "GRILO",
      "lon": "-8.067545368908883",
      "lat": "41.145548316708755"
    },
    {
      "id": "pt.ine.add.PTCONT.3758517",
      "street": "R CHÃOS",
      "house": "",
      "postcode": "4640-308",
      "city": "GRILO",
      "lon": "-8.06759252346143",
      "lat": "41.146043585892365"
    },
    {
      "id": "pt.ine.add.PTCONT.3758518",
      "street": "R CHÃOS",
      "house": "",
      "postcode": "4640-301",
      "city": "GRILO",
      "lon": "-8.067771551405308",
      "lat": "41.1456925157244"
    },
    {
      "id": "pt.ine.add.PTCONT.3789499",
      "street": "R VISC DE VILA MOURA",
      "house": "",
      "postcode": "4640-308",
      "city": "GRILO",
      "lon": "-8.064388752144396",
      "lat": "41.14551946367922"
    },
    {
      "id": "pt.ine.add.PTCONT.3798853",
      "street": "R GRILO",
      "house": "",
      "postcode": "4640-308",
      "city": "GRILO",
      "lon": "-8.064900505038045",
      "lat": "41.14596098374302"
    },
    {
      "id": "pt.ine.add.PTCONT.3861778",
      "street": "R CHÃOS",
      "house": "259",
      "postcode": "4640-301",
      "city": "GRILO",
      "lon": "-8.067189130997441",
      "lat": "41.1444315668509"
    },
    {
      "id": "pt.ine.add.PTCONT.3878421",
      "street": "R GRILO",
      "house": "15",
      "postcode": "4640-308",
      "city": "GRILO",
      "lon": "-8.064400297451492",
      "lat": "41.14587064242119"
    },
    {
      "id": "pt.ine.add.PTCONT.3882392",
      "street": "TV VILA MOURA",
      "house": "16",
      "postcode": "4640-308",
      "city": "GRILO",
      "lon": "-8.064710306934485",
      "lat": "41.14558268589918"
    },
    {
      "id": "pt.ine.add.PTCONT.3934352",
      "street": "CAM BARROQUINHA",
      "house": "23",
      "postcode": "4640-307",
      "city": "GRILO",
      "lon": "-8.072800639859633",
      "lat": "41.14321904594642"
    },
    {
      "id": "pt.ine.add.PTCONT.3956656",
      "street": "R PADRE ANTÓNIO OLIVEIRA GOMES",
      "house": "",
      "postcode": "4640-302",
      "city": "GRILO",
      "lon": "-8.075675807926036",
      "lat": "41.138051981197655"
    },
    {
      "id": "pt.ine.add.PTCONT.4003398",
      "street": "",
      "house": "",
      "postcode": "4640-302",
      "city": "GRILO",
      "lon": "-8.075711076343682",
      "lat": "41.13858325945961"
    },
    {
      "id": "pt.ine.add.PTCONT.4003399",
      "street": "",
      "house": "",
      "postcode": "4640-302",
      "city": "GRILO",
      "lon": "-8.075711076343682",
      "lat": "41.13858325945961"
    },
    {
      "id": "pt.ine.add.PTCONT.4037355",
      "street": "R PADRE ANTÓNIO OLIVEIRA GOMES",
      "house": "383",
      "postcode": "4640-302",
      "city": "GRILO",
      "lon": "-8.075771327274648",
      "lat": "41.13778189620841"
    },
    {
      "id": "pt.ine.add.PTCONT.4116273",
      "street": "R FR DOMINGOS VIEIRA",
      "house": "",
      "postcode": "4640-307",
      "city": "GRILO",
      "lon": "-8.071288072016955",
      "lat": "41.143020147127324"
    },
    {
      "id": "pt.ine.add.PTCONT.4128938",
      "street": "R FR DOMINGOS VIEIRA",
      "house": "",
      "postcode": "4640-307",
      "city": "GRILO",
      "lon": "-8.071609419364895",
      "lat": "41.143299455860166"
    },
    {
      "id": "pt.ine.add.PTCONT.4260111",
      "street": "R GRILO",
      "house": "465",
      "postcode": "4640-308",
      "city": "GRILO",
      "lon": "-8.065947093042366",
      "lat": "41.147591395960184"
    },
    {
      "id": "pt.ine.add.PTCONT.4380431",
      "street": "R DG GRILO",
      "house": "465",
      "postcode": "4640-308",
      "city": "GRILO",
      "lon": "-8.065947093042366",
      "lat": "41.147591395960184"
    },
    {
      "id": "pt.ine.add.PTCONT.4387538",
      "street": "R GRILO",
      "house": "675",
      "postcode": "4640-308",
      "city": "GRILO",
      "lon": "-8.067449032064722",
      "lat": "41.146592772939"
    }
  ]
}