{
  "data": {
    "distrito": "Lisboa",
    "concelho": "Torres Vedras",
    "freguesia": "São Pedro da Cadeira",
    "OBJECTID": 1031,
    "BGRI2021": "11131400309",
    "DT21": "11",
    "DTMN21": "1113",
    "DTMNFR21": "111314",
    "DTMNFRSEC21": "111314003",
    "SECNUM21": "003",
    "SSNUM21": "09",
    "SECSSNUM21": "00309",
    "OBJECTID_1": 116914,
    "DT": "11",
    "CC": "13",
    "fr": "14",
    "SEC": "003",
    "SS": "09"
  },
  "addresses": [
    {
      "id": "pt.ine.add.PTCONT.2346068",
      "street": "R PATIO",
      "house": "4",
      "postcode": "2560-211",
      "city": "SÃO PEDRO DA CADEIRA",
      "lon": "-9.367637987656346",
      "lat": "39.068096352899865"
    },
    {
      "id": "pt.ine.add.PTCONT.2410287",
      "street": "R MOINHO",
      "house": "4",
      "postcode": "2560-209",
      "city": "SÃO PEDRO DA CADEIRA",
      "lon": "-9.365965066148956",
      "lat": "39.06757362037523"
    },
    {
      "id": "pt.ine.add.PTCONT.2411596",
      "street": "R DQ DE BRAGANÇA",
      "house": "4",
      "postcode": "2560-215",
      "city": "SÃO PEDRO DA CADEIRA",
      "lon": "-9.36679943535424",
      "lat": "39.06705138417024"
    },
    {
      "id": "pt.ine.add.PTCONT.2428443",
      "street": "R DQ DE BRAGANÇA",
      "house": "12",
      "postcode": "2560-215",
      "city": "SÃO PEDRO DA CADEIRA",
      "lon": "-9.367317293677429",
      "lat": "39.06759534392486"
    },
    {
      "id": "pt.ine.add.PTCONT.2455595",
      "street": "R MOINHO",
      "house": "11",
      "postcode": "2560-209",
      "city": "SÃO PEDRO DA CADEIRA",
      "lon": "-9.366473987312181",
      "lat": "39.06760426716163"
    },
    {
      "id": "pt.ine.add.PTCONT.2496412",
      "street": "R DQ DE BRAGANÇA",
      "house": "22",
      "postcode": "2560-215",
      "city": "SÃO PEDRO DA CADEIRA",
      "lon": "-9.367635634177597",
      "lat": "39.06796126962896"
    },
    {
      "id": "pt.ine.add.PTCONT.2519087",
      "street": "R MOINHO",
      "house": "21",
      "postcode": "2560-209",
      "city": "SÃO PEDRO DA CADEIRA",
      "lon": "-9.367186769689233",
      "lat": "39.067398566730034"
    },
    {
      "id": "pt.ine.add.PTCONT.2527539",
      "street": "R PATIO",
      "house": "8",
      "postcode": "2560-211",
      "city": "SÃO PEDRO DA CADEIRA",
      "lon": "-9.367463449338425",
      "lat": "39.068026143019985"
    },
    {
      "id": "pt.ine.add.PTCONT.2564001",
      "street": "R PATIO",
      "house": "12",
      "postcode": "2560-211",
      "city": "SÃO PEDRO DA CADEIRA",
      "lon": "-9.367357753962052",
      "lat": "39.06792818253838"
    },
    {
      "id": "pt.ine.add.PTCONT.2635884",
      "street": "R ULMEIROS",
      "house": "13",
      "postcode": "2560-213",
      "city": "SÃO PEDRO DA CADEIRA",
      "lon": "-9.367698102358556",
      "lat": "39.06823082459553"
    },
    {
      "id": "pt.ine.add.PTCONT.2648971",
      "street": "R MOINHO",
      "house": "17",
      "postcode": "2560-209",
      "city": "SÃO PEDRO DA CADEIRA",
      "lon": "-9.366980713477938",
      "lat": "39.067508833958684"
    },
    {
      "id": "pt.ine.add.PTCONT.2670575",
      "street": "R PATIO",
      "house": "10",
      "postcode": "2560-211",
      "city": "SÃO PEDRO DA CADEIRA",
      "lon": "-9.367416299279062",
      "lat": "39.067972598871634"
    },
    {
      "id": "pt.ine.add.PTCONT.2689042",
      "street": "BC FELICIANOS",
      "house": "3",
      "postcode": "2560-209",
      "city": "SÃO PEDRO DA CADEIRA",
      "lon": "-9.366707646028358",
      "lat": "39.06708838415903"
    },
    {
      "id": "pt.ine.add.PTCONT.2698735",
      "street": "R MOINHO",
      "house": "15",
      "postcode": "2560-209",
      "city": "SÃO PEDRO DA CADEIRA",
      "lon": "-9.366854580857263",
      "lat": "39.06756421190577"
    },
    {
      "id": "pt.ine.add.PTCONT.2743428",
      "street": "R MOINHO",
      "house": "6",
      "postcode": "2560-209",
      "city": "SÃO PEDRO DA CADEIRA",
      "lon": "-9.366068722028556",
      "lat": "39.06755450991919"
    },
    {
      "id": "pt.ine.add.PTCONT.2805549",
      "street": "R PATIO",
      "house": "6",
      "postcode": "2560-211",
      "city": "SÃO PEDRO DA CADEIRA",
      "lon": "-9.367499361014922",
      "lat": "39.06809782054889"
    },
    {
      "id": "pt.ine.add.PTCONT.2913377",
      "street": "R MOINHO",
      "house": "12",
      "postcode": "2560-209",
      "city": "SÃO PEDRO DA CADEIRA",
      "lon": "-9.366304153134704",
      "lat": "39.0678042221897"
    },
    {
      "id": "pt.ine.add.PTCONT.2982882",
      "street": "R MOINHO",
      "house": "16",
      "postcode": "2560-209",
      "city": "SÃO PEDRO DA CADEIRA",
      "lon": "-9.366938425153116",
      "lat": "39.06773446178681"
    },
    {
      "id": "pt.ine.add.PTCONT.3032282",
      "street": "R MOINHO",
      "house": "5",
      "postcode": "2560-209",
      "city": "SÃO PEDRO DA CADEIRA",
      "lon": "-9.365997842322852",
      "lat": "39.06746518724557"
    },
    {
      "id": "pt.ine.add.PTCONT.3040946",
      "street": "R DQ DE BRAGANÇA",
      "house": "16",
      "postcode": "2560-215",
      "city": "SÃO PEDRO DA CADEIRA",
      "lon": "-9.36745780182855",
      "lat": "39.06770194313911"
    },
    {
      "id": "pt.ine.add.PTCONT.3059986",
      "street": "R DQ DE BRAGANÇA",
      "house": "2",
      "postcode": "2560-215",
      "city": "SÃO PEDRO DA CADEIRA",
      "lon": "-9.366330770662127",
      "lat": "39.06667803884168"
    },
    {
      "id": "pt.ine.add.PTCONT.3059989",
      "street": "R ULMEIROS",
      "house": "1",
      "postcode": "2560-213",
      "city": "SÃO PEDRO DA CADEIRA",
      "lon": "-9.36506415544667",
      "lat": "39.0675921496778"
    },
    {
      "id": "pt.ine.add.PTCONT.3064685",
      "street": "R MOINHO",
      "house": "8",
      "postcode": "2560-209",
      "city": "SÃO PEDRO DA CADEIRA",
      "lon": "-9.366114930580812",
      "lat": "39.067554021293674"
    },
    {
      "id": "pt.ine.add.PTCONT.3079021",
      "street": "R ULMEIROS",
      "house": "9",
      "postcode": "2560-213",
      "city": "SÃO PEDRO DA CADEIRA",
      "lon": "-9.367274120167943",
      "lat": "39.06843347169842"
    },
    {
      "id": "pt.ine.add.PTCONT.3106314",
      "street": "R DQ DE BRAGANÇA",
      "house": "20",
      "postcode": "2560-215",
      "city": "SÃO PEDRO DA CADEIRA",
      "lon": "-9.367472648385217",
      "lat": "39.06789093744509"
    },
    {
      "id": "pt.ine.add.PTCONT.3115973",
      "street": "R MOINHO",
      "house": "10",
      "postcode": "2560-209",
      "city": "SÃO PEDRO DA CADEIRA",
      "lon": "-9.366207504396277",
      "lat": "39.06756204954472"
    },
    {
      "id": "pt.ine.add.PTCONT.3115974",
      "street": "R MOINHO",
      "house": "19",
      "postcode": "2560-209",
      "city": "SÃO PEDRO DA CADEIRA",
      "lon": "-9.367070778137235",
      "lat": "39.06737277265425"
    },
    {
      "id": "pt.ine.add.PTCONT.3134399",
      "street": "R PATIO",
      "house": "7",
      "postcode": "2560-211",
      "city": "SÃO PEDRO DA CADEIRA",
      "lon": "-9.367302973255587",
      "lat": "39.068099899436376"
    },
    {
      "id": "pt.ine.add.PTCONT.3164544",
      "street": "R DQ DE BRAGANÇA",
      "house": "24",
      "postcode": "2560-215",
      "city": "SÃO PEDRO DA CADEIRA",
      "lon": "-9.3677060457122",
      "lat": "39.06802357460467"
    },
    {
      "id": "pt.ine.add.PTCONT.3204515",
      "street": "R DQ DE BRAGANÇA",
      "house": "",
      "postcode": "2560-215",
      "city": "SÃO PEDRO DA CADEIRA",
      "lon": "-9.367588327142698",
      "lat": "39.0678987199993"
    },
    {
      "id": "pt.ine.add.PTCONT.3229332",
      "street": "R DQ DE BRAGANÇA",
      "house": "26",
      "postcode": "2560-215",
      "city": "SÃO PEDRO DA CADEIRA",
      "lon": "-9.367777085038123",
      "lat": "39.06812190173845"
    },
    {
      "id": "pt.ine.add.PTCONT.3245973",
      "street": "R PATIO",
      "house": "11",
      "postcode": "2560-211",
      "city": "SÃO PEDRO DA CADEIRA",
      "lon": "-9.367073183426804",
      "lat": "39.068174389188194"
    },
    {
      "id": "pt.ine.add.PTCONT.3262578",
      "street": "R PAINEL",
      "house": "3",
      "postcode": "2560-210",
      "city": "SÃO PEDRO DA CADEIRA",
      "lon": "-9.36755869100865",
      "lat": "39.06818726456335"
    },
    {
      "id": "pt.ine.add.PTCONT.3301559",
      "street": "R MOINHO",
      "house": "8",
      "postcode": "2560-209",
      "city": "SÃO PEDRO DA CADEIRA",
      "lon": "-9.366147393103898",
      "lat": "39.06742757701065"
    },
    {
      "id": "pt.ine.add.PTCONT.3319958",
      "street": "TV REIS",
      "house": "2",
      "postcode": "2560-222",
      "city": "SÃO PEDRO DA CADEIRA",
      "lon": "-9.367147932438852",
      "lat": "39.067822316803145"
    },
    {
      "id": "pt.ine.add.PTCONT.3319959",
      "street": "R DQ DE BRAGANÇA",
      "house": "18",
      "postcode": "2560-215",
      "city": "SÃO PEDRO DA CADEIRA",
      "lon": "-9.367563967659324",
      "lat": "39.06782692019287"
    },
    {
      "id": "pt.ine.add.PTCONT.3338356",
      "street": "R MOINHO",
      "house": "2",
      "postcode": "2560-209",
      "city": "SÃO PEDRO DA CADEIRA",
      "lon": "-9.365872492340703",
      "lat": "39.0675655919315"
    },
    {
      "id": "pt.ine.add.PTCONT.3356224",
      "street": "R MOINHO",
      "house": "7",
      "postcode": "2560-209",
      "city": "SÃO PEDRO DA CADEIRA",
      "lon": "-9.36627524999994",
      "lat": "39.067471260948956"
    },
    {
      "id": "pt.ine.add.PTCONT.3356225",
      "street": "TV REIS",
      "house": "4",
      "postcode": "2560-222",
      "city": "SÃO PEDRO DA CADEIRA",
      "lon": "-9.367297797027392",
      "lat": "39.067802716198734"
    }
  ]
}