{
  "data": {
    "distrito": "Coimbra",
    "concelho": "Soure",
    "freguesia": "Granja do Ulmeiro",
    "OBJECTID": 637,
    "BGRI2021": "06150600113",
    "DT21": "06",
    "DTMN21": "0615",
    "DTMNFR21": "061506",
    "DTMNFRSEC21": "061506001",
    "SECNUM21": "001",
    "SSNUM21": "13",
    "SECSSNUM21": "00113",
    "OBJECTID_1": 56656,
    "DT": "06",
    "CC": "15",
    "fr": "06",
    "SEC": "001",
    "SS": "13"
  },
  "addresses": [
    {
      "id": "pt.ine.add.PTCONT.1103668",
      "street": "R CANTO DAS FLORES",
      "house": "",
      "postcode": "3130-081",
      "city": "GRANJA DO ULMEIRO",
      "lon": "-8.62515853769543",
      "lat": "40.159868248273824"
    },
    {
      "id": "pt.ine.add.PTCONT.1122029",
      "street": "R CANTO DAS FLORES",
      "house": "",
      "postcode": "3130-081",
      "city": "GRANJA DO ULMEIRO",
      "lon": "-8.625063793295478",
      "lat": "40.15975157424652"
    },
    {
      "id": "pt.ine.add.PTCONT.1132571",
      "street": "R CANTO DAS FLORES",
      "house": "",
      "postcode": "3130-081",
      "city": "GRANJA DO ULMEIRO",
      "lon": "-8.625309108366537",
      "lat": "40.1595884256221"
    },
    {
      "id": "pt.ine.add.PTCONT.1132572",
      "street": "R CANTO DAS FLORES",
      "house": "",
      "postcode": "3130-081",
      "city": "GRANJA DO ULMEIRO",
      "lon": "-8.625309108366537",
      "lat": "40.1595884256221"
    },
    {
      "id": "pt.ine.add.PTCONT.1142805",
      "street": "R CANTO DAS FLORES",
      "house": "",
      "postcode": "3130-081",
      "city": "GRANJA DO ULMEIRO",
      "lon": "-8.624982216302676",
      "lat": "40.15983297385791"
    },
    {
      "id": "pt.ine.add.PTCONT.1164798",
      "street": "R CANTO DAS FLORES",
      "house": "",
      "postcode": "3130-081",
      "city": "GRANJA DO ULMEIRO",
      "lon": "-8.624982801180684",
      "lat": "40.159914024411684"
    },
    {
      "id": "pt.ine.add.PTCONT.1173531",
      "street": "R FONTANARIO",
      "house": "",
      "postcode": "3130-080",
      "city": "GRANJA DO ULMEIRO",
      "lon": "-8.625742089728652",
      "lat": "40.15940646639422"
    },
    {
      "id": "pt.ine.add.PTCONT.1186061",
      "street": "R ALMINHAS",
      "house": "7",
      "postcode": "3130-081",
      "city": "GRANJA DO ULMEIRO",
      "lon": "-8.624672367237045",
      "lat": "40.15918586534558"
    },
    {
      "id": "pt.ine.add.PTCONT.1195755",
      "street": "R CANTO DOS OLIVEIROS",
      "house": "",
      "postcode": "3130-080",
      "city": "GRANJA DO ULMEIRO",
      "lon": "-8.625786695834282",
      "lat": "40.1590820644224"
    },
    {
      "id": "pt.ine.add.PTCONT.1229021",
      "street": "R CANTO DAS FLORES",
      "house": "",
      "postcode": "3130-080",
      "city": "GRANJA DO ULMEIRO",
      "lon": "-8.625248665899072",
      "lat": "40.1593455234089"
    },
    {
      "id": "pt.ine.add.PTCONT.1229022",
      "street": "R CANTO DAS FLORES",
      "house": "",
      "postcode": "3130-080",
      "city": "GRANJA DO ULMEIRO",
      "lon": "-8.625248665899072",
      "lat": "40.1593455234089"
    },
    {
      "id": "pt.ine.add.PTCONT.1235737",
      "street": "",
      "house": "",
      "postcode": "3130-081",
      "city": "GRANJA DO ULMEIRO",
      "lon": "-8.625438739926308",
      "lat": "40.15965992165021"
    },
    {
      "id": "pt.ine.add.PTCONT.1237186",
      "street": "R FONTENARIO",
      "house": "",
      "postcode": "3130-081",
      "city": "GRANJA DO ULMEIRO",
      "lon": "-8.625438739926308",
      "lat": "40.15965992165021"
    },
    {
      "id": "pt.ine.add.PTCONT.1240512",
      "street": "R LADEIRA DO FONTENARIO",
      "house": "",
      "postcode": "3130-081",
      "city": "GRANJA DO ULMEIRO",
      "lon": "-8.624405784298796",
      "lat": "40.15965530326638"
    },
    {
      "id": "pt.ine.add.PTCONT.1243127",
      "street": "R CANTO DAS FLORES",
      "house": "",
      "postcode": "3130-080",
      "city": "GRANJA DO ULMEIRO",
      "lon": "-8.624709204111358",
      "lat": "40.15958240057168"
    },
    {
      "id": "pt.ine.add.PTCONT.1245212",
      "street": "R ALMINHAS",
      "house": "5",
      "postcode": "3130-081",
      "city": "GRANJA DO ULMEIRO",
      "lon": "-8.624694867661301",
      "lat": "40.1590506814052"
    },
    {
      "id": "pt.ine.add.PTCONT.1250080",
      "street": "R ALMINHAS",
      "house": "23",
      "postcode": "3130-081",
      "city": "GRANJA DO ULMEIRO",
      "lon": "-8.624597673538423",
      "lat": "40.160221860175966"
    },
    {
      "id": "pt.ine.add.PTCONT.1292699",
      "street": "R CANTO AS FLORES",
      "house": "",
      "postcode": "3130-081",
      "city": "GRANJA DO ULMEIRO",
      "lon": "-8.624679121559993",
      "lat": "40.16012244960127"
    },
    {
      "id": "pt.ine.add.PTCONT.1292700",
      "street": "R CANTO DAS FLORES",
      "house": "",
      "postcode": "3130-080",
      "city": "GRANJA DO ULMEIRO",
      "lon": "-8.624801461659482",
      "lat": "40.159630088602405"
    },
    {
      "id": "pt.ine.add.PTCONT.1308686",
      "street": "R CANTO DAS FLORES",
      "house": "",
      "postcode": "3130-081",
      "city": "GRANJA DO ULMEIRO",
      "lon": "-8.625238293961829",
      "lat": "40.15953469126174"
    },
    {
      "id": "pt.ine.add.PTCONT.1312672",
      "street": "R CANTO DAS FLORES",
      "house": "",
      "postcode": "3130-081",
      "city": "GRANJA DO ULMEIRO",
      "lon": "-8.624957896675664",
      "lat": "40.15971600055334"
    }
  ]
}