{
  "data": {
    "distrito": "Lisboa",
    "concelho": "Sintra",
    "freguesia": "Casal de Cambra",
    "OBJECTID": 82,
    "BGRI2021": "11111500609",
    "DT21": "11",
    "DTMN21": "1111",
    "DTMNFR21": "111115",
    "DTMNFRSEC21": "111115006",
    "SECNUM21": "006",
    "SSNUM21": "09",
    "SECSSNUM21": "00609",
    "OBJECTID_1": 111683,
    "DT": "11",
    "CC": "11",
    "fr": "15",
    "SEC": "006",
    "SS": "09"
  },
  "addresses": [
    {
      "id": "pt.ine.add.PTCONT.2470610",
      "street": "R KIEV",
      "house": "7A",
      "postcode": "2605-690",
      "city": "CASAL DE CAMBRA",
      "lon": "-9.235222363319775",
      "lat": "38.79674802165973"
    },
    {
      "id": "pt.ine.add.PTCONT.2605419",
      "street": "AV S MARTA",
      "house": "51",
      "postcode": "2605-699",
      "city": "CASAL DE CAMBRA",
      "lon": "-9.235479581500352",
      "lat": "38.79700681852947"
    },
    {
      "id": "pt.ine.add.PTCONT.2627726",
      "street": "R KIEV",
      "house": "1",
      "postcode": "2605-690",
      "city": "CASAL DE CAMBRA",
      "lon": "-9.235461412406794",
      "lat": "38.79657462011877"
    },
    {
      "id": "pt.ine.add.PTCONT.2685636",
      "street": "R KIEV",
      "house": "3",
      "postcode": "2605-690",
      "city": "CASAL DE CAMBRA",
      "lon": "-9.235393192068813",
      "lat": "38.79662930997702"
    },
    {
      "id": "pt.ine.add.PTCONT.2784946",
      "street": "R LYON",
      "house": "23",
      "postcode": "2605-810",
      "city": "CASAL DE CAMBRA",
      "lon": "-9.23502311025612",
      "lat": "38.79726334017901"
    },
    {
      "id": "pt.ine.add.PTCONT.3040404",
      "street": "R LYON",
      "house": "",
      "postcode": "2605-810",
      "city": "CASAL DE CAMBRA",
      "lon": "-9.234847425611976",
      "lat": "38.797066827445725"
    },
    {
      "id": "pt.ine.add.PTCONT.3154484",
      "street": "AV S MARTA",
      "house": "45",
      "postcode": "2605-699",
      "city": "CASAL DE CAMBRA",
      "lon": "-9.235286705369148",
      "lat": "38.79718879224944"
    },
    {
      "id": "pt.ine.add.PTCONT.3154485",
      "street": "AV S MARTA",
      "house": "45",
      "postcode": "2605-699",
      "city": "CASAL DE CAMBRA",
      "lon": "-9.235286705369148",
      "lat": "38.79718879224944"
    },
    {
      "id": "pt.ine.add.PTCONT.3201778",
      "street": "R KIEV",
      "house": "9A",
      "postcode": "2605-690",
      "city": "CASAL DE CAMBRA",
      "lon": "-9.235142911223308",
      "lat": "38.79682083272851"
    },
    {
      "id": "pt.ine.add.PTCONT.3409723",
      "street": "AV S MARTA",
      "house": "49",
      "postcode": "2605-699",
      "city": "CASAL DE CAMBRA",
      "lon": "-9.23542314715314",
      "lat": "38.7970794126108"
    }
  ]
}