{
  "data": {
    "distrito": "Porto",
    "concelho": "Matosinhos",
    "freguesia": "União das freguesias de Custóias, Leça do Balio e Guifões",
    "OBJECTID": 1171,
    "BGRI2021": "13081100601",
    "DT21": "13",
    "DTMN21": "1308",
    "DTMNFR21": "130811",
    "DTMNFRSEC21": "130811006",
    "SECNUM21": "006",
    "SSNUM21": "01",
    "SECSSNUM21": "00601",
    "OBJECTID_1": 132599,
    "DT": "13",
    "CC": "08",
    "fr": "11",
    "SEC": "006",
    "SS": "01"
  },
  "addresses": [
    {
      "id": "pt.ine.add.PTCONT.3558961",
      "street": "R CENTRAL DO SEIXO",
      "house": "656",
      "postcode": "4465-599",
      "city": "LEÇA DO BALIO",
      "lon": "-8.62787644705257",
      "lat": "41.188631618810355"
    },
    {
      "id": "pt.ine.add.PTCONT.3558962",
      "street": "R CENTRAL DO SEIXO",
      "house": "656",
      "postcode": "4465-599",
      "city": "LEÇA DO BALIO",
      "lon": "-8.62787644705257",
      "lat": "41.188631618810355"
    },
    {
      "id": "pt.ine.add.PTCONT.3558963",
      "street": "R CENTRAL DO SEIXO",
      "house": "656",
      "postcode": "4465-599",
      "city": "LEÇA DO BALIO",
      "lon": "-8.62787644705257",
      "lat": "41.188631618810355"
    },
    {
      "id": "pt.ine.add.PTCONT.3559081",
      "street": "R CENTRAL DO SEIXO",
      "house": "656",
      "postcode": "4465-599",
      "city": "LEÇA DO BALIO",
      "lon": "-8.62787644705257",
      "lat": "41.188631618810355"
    },
    {
      "id": "pt.ine.add.PTCONT.3561083",
      "street": "R CENTRAL DO SEIXO",
      "house": "704",
      "postcode": "4465-599",
      "city": "LEÇA DO BALIO",
      "lon": "-8.628062450202602",
      "lat": "41.188990407901755"
    },
    {
      "id": "pt.ine.add.PTCONT.3565355",
      "street": "R CENTRAL DO SEIXO",
      "house": "664",
      "postcode": "4465-599",
      "city": "LEÇA DO BALIO",
      "lon": "-8.627907047918914",
      "lat": "41.1887305219826"
    },
    {
      "id": "pt.ine.add.PTCONT.3565356",
      "street": "R CENTRAL DO SEIXO",
      "house": "664",
      "postcode": "4465-599",
      "city": "LEÇA DO BALIO",
      "lon": "-8.627907047918914",
      "lat": "41.1887305219826"
    },
    {
      "id": "pt.ine.add.PTCONT.3565357",
      "street": "R CENTRAL DO SEIXO",
      "house": "664",
      "postcode": "4465-599",
      "city": "LEÇA DO BALIO",
      "lon": "-8.627907047918914",
      "lat": "41.1887305219826"
    },
    {
      "id": "pt.ine.add.PTCONT.3565358",
      "street": "R CENTRAL DO SEIXO",
      "house": "664",
      "postcode": "4465-599",
      "city": "LEÇA DO BALIO",
      "lon": "-8.627907047918914",
      "lat": "41.1887305219826"
    },
    {
      "id": "pt.ine.add.PTCONT.3573750",
      "street": "R CENTRAL DO SEIXO",
      "house": "604",
      "postcode": "4465-599",
      "city": "LEÇA DO BALIO",
      "lon": "-8.627757815546246",
      "lat": "41.188238180566835"
    },
    {
      "id": "pt.ine.add.PTCONT.3610475",
      "street": "R CENTRAL DO SEIXO",
      "house": "620",
      "postcode": "4465-599",
      "city": "LEÇA DO BALIO",
      "lon": "-8.627792859221053",
      "lat": "41.188352703355115"
    },
    {
      "id": "pt.ine.add.PTCONT.3677848",
      "street": "R CENTRAL DO SEIXO",
      "house": "638",
      "postcode": "4465-599",
      "city": "LEÇA DO BALIO",
      "lon": "-8.627818162138848",
      "lat": "41.18845469077218"
    },
    {
      "id": "pt.ine.add.PTCONT.3699658",
      "street": "R CENTRAL DO SEIXO",
      "house": "648",
      "postcode": "4465-599",
      "city": "LEÇA DO BALIO",
      "lon": "-8.627843634837836",
      "lat": "41.18855467849896"
    },
    {
      "id": "pt.ine.add.PTCONT.3741565",
      "street": "R CENTRAL DO SEIXO",
      "house": "732",
      "postcode": "4465-599",
      "city": "LEÇA DO BALIO",
      "lon": "-8.628110924786636",
      "lat": "41.18923866315751"
    },
    {
      "id": "pt.ine.add.PTCONT.3767426",
      "street": "R CENTRAL DO SEIXO",
      "house": "676",
      "postcode": "4465-599",
      "city": "LEÇA DO BALIO",
      "lon": "-8.627961885562216",
      "lat": "41.18880003904354"
    },
    {
      "id": "pt.ine.add.PTCONT.3795075",
      "street": "R CENTRAL DO SEIXO",
      "house": "720",
      "postcode": "4465-599",
      "city": "LEÇA DO BALIO",
      "lon": "-8.628102907494588",
      "lat": "41.189112993170035"
    },
    {
      "id": "pt.ine.add.PTCONT.3825792",
      "street": "R CENTRAL DO SEIXO",
      "house": "688",
      "postcode": "4465-599",
      "city": "LEÇA DO BALIO",
      "lon": "-8.627990120806997",
      "lat": "41.18888266718803"
    },
    {
      "id": "pt.ine.add.PTCONT.3825793",
      "street": "R CENTRAL DO SEIXO",
      "house": "G92",
      "postcode": "4465-599",
      "city": "LEÇA DO BALIO",
      "lon": "-8.628014162776521",
      "lat": "41.18890957676168"
    },
    {
      "id": "pt.ine.add.PTCONT.3842015",
      "street": "R CENTRAL SEIXO",
      "house": "594",
      "postcode": "4465-599",
      "city": "LEÇA DO BALIO",
      "lon": "-8.627750361053682",
      "lat": "41.1882028617189"
    },
    {
      "id": "pt.ine.add.PTCONT.3868422",
      "street": "R PICOUTOS",
      "house": "496",
      "postcode": "4465-599",
      "city": "LEÇA DO BALIO",
      "lon": "-8.627389836684841",
      "lat": "41.18823156290603"
    },
    {
      "id": "pt.ine.add.PTCONT.3868423",
      "street": "R PICOUTOS",
      "house": "496",
      "postcode": "4465-599",
      "city": "LEÇA DO BALIO",
      "lon": "-8.627389836684841",
      "lat": "41.18823156290603"
    },
    {
      "id": "pt.ine.add.PTCONT.3868424",
      "street": "R PICOUTOS",
      "house": "496",
      "postcode": "4465-599",
      "city": "LEÇA DO BALIO",
      "lon": "-8.627389836684841",
      "lat": "41.18823156290603"
    },
    {
      "id": "pt.ine.add.PTCONT.3948428",
      "street": "R CENTRAL DO SEIXO",
      "house": "668",
      "postcode": "4465-599",
      "city": "LEÇA DO BALIO",
      "lon": "-8.62792945454321",
      "lat": "41.18876188041911"
    },
    {
      "id": "pt.ine.add.PTCONT.3971919",
      "street": "R CENTRAL DO SEIXO",
      "house": "726",
      "postcode": "4465-599",
      "city": "LEÇA DO BALIO",
      "lon": "-8.628111254784802",
      "lat": "41.189165365886446"
    },
    {
      "id": "pt.ine.add.PTCONT.3971920",
      "street": "R CENTRAL DO SEIXO",
      "house": "726",
      "postcode": "4465-599",
      "city": "LEÇA DO BALIO",
      "lon": "-8.628111254784802",
      "lat": "41.189165365886446"
    },
    {
      "id": "pt.ine.add.PTCONT.3971990",
      "street": "R CENTRAL DO SEIXO",
      "house": "726",
      "postcode": "4465-599",
      "city": "LEÇA DO BALIO",
      "lon": "-8.628111254784802",
      "lat": "41.189165365886446"
    },
    {
      "id": "pt.ine.add.PTCONT.3972535",
      "street": "R CENTRAL DO SEIXO",
      "house": "620",
      "postcode": "4465-599",
      "city": "LEÇA DO BALIO",
      "lon": "-8.627666457594712",
      "lat": "41.188373540989815"
    },
    {
      "id": "pt.ine.add.PTCONT.3985616",
      "street": "R CENTRAL DO SEIXO",
      "house": "748",
      "postcode": "4465-599",
      "city": "LEÇA DO BALIO",
      "lon": "-8.62811435495794",
      "lat": "41.18936775738077"
    },
    {
      "id": "pt.ine.add.PTCONT.3985617",
      "street": "R CENTRAL DO SEIXO",
      "house": "694",
      "postcode": "4465-599",
      "city": "LEÇA DO BALIO",
      "lon": "-8.62802628547499",
      "lat": "41.18893653755099"
    },
    {
      "id": "pt.ine.add.PTCONT.4084680",
      "street": "R CENTRAL DO SEIXO",
      "house": "628",
      "postcode": "4465-599",
      "city": "LEÇA DO BALIO",
      "lon": "-8.627811577329117",
      "lat": "41.18841789509124"
    },
    {
      "id": "pt.ine.add.PTCONT.4088503",
      "street": "R CENTRAL DO SEIXO",
      "house": "628",
      "postcode": "4465-599",
      "city": "LEÇA DO BALIO",
      "lon": "-8.627811577329117",
      "lat": "41.18841789509124"
    },
    {
      "id": "pt.ine.add.PTCONT.4113310",
      "street": "R CENTRAL DO SEIXO",
      "house": "744",
      "postcode": "4465-599",
      "city": "LEÇA DO BALIO",
      "lon": "-8.62810126219449",
      "lat": "41.189316625144"
    },
    {
      "id": "pt.ine.add.PTCONT.4150289",
      "street": "R CENTRAL DO SEIXO",
      "house": "714",
      "postcode": "4465-599",
      "city": "LEÇA DO BALIO",
      "lon": "-8.628086763492357",
      "lat": "41.18905333347028"
    },
    {
      "id": "pt.ine.add.PTCONT.4163471",
      "street": "R CENTRAL DO SEIXO",
      "house": "662",
      "postcode": "4465-599",
      "city": "LEÇA DO BALIO",
      "lon": "-8.627898631439654",
      "lat": "41.18869442030501"
    },
    {
      "id": "pt.ine.add.PTCONT.4185764",
      "street": "R CENTRAL DO SEIXO",
      "house": "700",
      "postcode": "4465-599",
      "city": "LEÇA DO BALIO",
      "lon": "-8.628050327479176",
      "lat": "41.18896344711664"
    },
    {
      "id": "pt.ine.add.PTCONT.4189183",
      "street": "R CENTRAL DO SEIXO",
      "house": "596",
      "postcode": "4465-599",
      "city": "LEÇA DO BALIO",
      "lon": "-8.627728447812657",
      "lat": "41.188156883551805"
    }
  ]
}