{
  "data": {
    "distrito": "Santarém",
    "concelho": "Almeirim",
    "freguesia": "Fazendas de Almeirim",
    "OBJECTID": 29,
    "BGRI2021": "14030300510",
    "DT21": "14",
    "DTMN21": "1403",
    "DTMNFR21": "140303",
    "DTMNFRSEC21": "140303005",
    "SECNUM21": "005",
    "SSNUM21": "10",
    "SECSSNUM21": "00510",
    "OBJECTID_1": 148362,
    "DT": "14",
    "CC": "03",
    "fr": "03",
    "SEC": "005",
    "SS": "10"
  },
  "addresses": [
    {
      "id": "pt.ine.add.PTCONT.4391989",
      "street": "R BENTOS",
      "house": "45",
      "postcode": "2080-557",
      "city": "FAZENDAS DE ALMEIRIM",
      "lon": "-8.60138794049276",
      "lat": "39.18085330562114"
    },
    {
      "id": "pt.ine.add.PTCONT.4395467",
      "street": "R MARECHAL CRAVEIRO LOPES",
      "house": "122",
      "postcode": "2080-588",
      "city": "FAZENDAS DE ALMEIRIM",
      "lon": "-8.597274208082256",
      "lat": "39.18005909809192"
    },
    {
      "id": "pt.ine.add.PTCONT.4395468",
      "street": "R MARECHAL CRAVEIRO LOPES",
      "house": "122",
      "postcode": "2080-588",
      "city": "FAZENDAS DE ALMEIRIM",
      "lon": "-8.597274208082256",
      "lat": "39.18005909809192"
    },
    {
      "id": "pt.ine.add.PTCONT.4395469",
      "street": "R MARECHAL CRAVEIRO LOPES",
      "house": "122",
      "postcode": "2080-588",
      "city": "FAZENDAS DE ALMEIRIM",
      "lon": "-8.597274208082256",
      "lat": "39.18005909809192"
    },
    {
      "id": "pt.ine.add.PTCONT.4395470",
      "street": "R MARECHAL CRAVEIRO LOPES",
      "house": "122",
      "postcode": "2080-588",
      "city": "FAZENDAS DE ALMEIRIM",
      "lon": "-8.597274208082256",
      "lat": "39.18005909809192"
    },
    {
      "id": "pt.ine.add.PTCONT.4399604",
      "street": "R BENTOS",
      "house": "18",
      "postcode": "2080-557",
      "city": "FAZENDAS DE ALMEIRIM",
      "lon": "-8.600021304875666",
      "lat": "39.182453101440636"
    },
    {
      "id": "pt.ine.add.PTCONT.4401608",
      "street": "R BAIRRO CAETANO FELÍCIO",
      "house": "",
      "postcode": "2080-524",
      "city": "FAZENDAS DE ALMEIRIM",
      "lon": "-8.59871304184203",
      "lat": "39.180629832070146"
    },
    {
      "id": "pt.ine.add.PTCONT.4401625",
      "street": "R PROJECTADA A RUA MARECHAL CRAVEIRO LOPES",
      "house": "6 17",
      "postcode": "2080-588",
      "city": "FAZENDAS DE ALMEIRIM",
      "lon": "-8.597601981649612",
      "lat": "39.180625258967495"
    },
    {
      "id": "pt.ine.add.PTCONT.4404028",
      "street": "R BENTOS",
      "house": "28",
      "postcode": "2080-557",
      "city": "FAZENDAS DE ALMEIRIM",
      "lon": "-8.600906592331771",
      "lat": "39.181566824508515"
    },
    {
      "id": "pt.ine.add.PTCONT.4404029",
      "street": "R BAIRRO CAETANO FELÍCIO",
      "house": "36",
      "postcode": "2080-524",
      "city": "FAZENDAS DE ALMEIRIM",
      "lon": "-8.59839642199312",
      "lat": "39.18175702321811"
    },
    {
      "id": "pt.ine.add.PTCONT.4404030",
      "street": "R ANTÓNIO GERARDO",
      "house": "",
      "postcode": "2080-615",
      "city": "FAZENDAS DE ALMEIRIM",
      "lon": "-8.600460794890578",
      "lat": "39.17891142676689"
    },
    {
      "id": "pt.ine.add.PTCONT.4405837",
      "street": "ESTR VELHA DOS PACOS",
      "house": "88",
      "postcode": "2080-524",
      "city": "FAZENDAS DE ALMEIRIM",
      "lon": "-8.596095085974168",
      "lat": "39.18202740497252"
    },
    {
      "id": "pt.ine.add.PTCONT.4405838",
      "street": "ESTR VELHA DOS PACOS",
      "house": "92",
      "postcode": "2080-524",
      "city": "FAZENDAS DE ALMEIRIM",
      "lon": "-8.595839177333444",
      "lat": "39.181830258479486"
    },
    {
      "id": "pt.ine.add.PTCONT.4405859",
      "street": "R MARECHAL CRAVEIRO LOPES",
      "house": "",
      "postcode": "2080-588",
      "city": "FAZENDAS DE ALMEIRIM",
      "lon": "-8.599736779707156",
      "lat": "39.17967995856721"
    },
    {
      "id": "pt.ine.add.PTCONT.4408937",
      "street": "ESTR VALE DE BARROCAS",
      "house": "",
      "postcode": "2080-522",
      "city": "FAZENDAS DE ALMEIRIM",
      "lon": "-8.603860888251125",
      "lat": "39.18029388905003"
    },
    {
      "id": "pt.ine.add.PTCONT.4414150",
      "street": "R MARECHAL CRAVEIRO LOPES",
      "house": "84",
      "postcode": "2080-588",
      "city": "FAZENDAS DE ALMEIRIM",
      "lon": "-8.596111791857734",
      "lat": "39.18104553074733"
    },
    {
      "id": "pt.ine.add.PTCONT.4417563",
      "street": "R MARECHAL CRAVEIRO LOPES",
      "house": "108",
      "postcode": "2080-588",
      "city": "FAZENDAS DE ALMEIRIM",
      "lon": "-8.596744993401131",
      "lat": "39.18053859789561"
    },
    {
      "id": "pt.ine.add.PTCONT.4418151",
      "street": "R MARECHAL CRAVEIRO LOPES",
      "house": "",
      "postcode": "2080-588",
      "city": "FAZENDAS DE ALMEIRIM",
      "lon": "-8.598722535165772",
      "lat": "39.18031453470275"
    },
    {
      "id": "pt.ine.add.PTCONT.4422227",
      "street": "R BAIRRO CAETANO FELÍCIO",
      "house": "52",
      "postcode": "2080-524",
      "city": "FAZENDAS DE ALMEIRIM",
      "lon": "-8.598830554030204",
      "lat": "39.180899584809296"
    },
    {
      "id": "pt.ine.add.PTCONT.4429922",
      "street": "R ANTÓNIO GERARDO",
      "house": "",
      "postcode": "2080-615",
      "city": "FAZENDAS DE ALMEIRIM",
      "lon": "-8.599901972543867",
      "lat": "39.17840925150847"
    },
    {
      "id": "pt.ine.add.PTCONT.4432496",
      "street": "R PROJECTADA A RUA MARECHAL CRAVEIRO LOPES",
      "house": "",
      "postcode": "2080-588",
      "city": "FAZENDAS DE ALMEIRIM",
      "lon": "-8.59743705728305",
      "lat": "39.18018455305964"
    },
    {
      "id": "pt.ine.add.PTCONT.4432497",
      "street": "R PROJECTADA A RUA MARECHAL CRAVEIRO LOPES",
      "house": "",
      "postcode": "2080-588",
      "city": "FAZENDAS DE ALMEIRIM",
      "lon": "-8.59743705728305",
      "lat": "39.18018455305964"
    },
    {
      "id": "pt.ine.add.PTCONT.4434073",
      "street": "R PROJECTADA A RUA MARECHAL CRAVEIRO LOPES",
      "house": "",
      "postcode": "2080-588",
      "city": "FAZENDAS DE ALMEIRIM",
      "lon": "-8.59743705728305",
      "lat": "39.18018455305964"
    },
    {
      "id": "pt.ine.add.PTCONT.4434153",
      "street": "R BAIRRO CAETANO FELÍCIO",
      "house": "22",
      "postcode": "2080-524",
      "city": "FAZENDAS DE ALMEIRIM",
      "lon": "-8.597934150071639",
      "lat": "39.18185794973523"
    },
    {
      "id": "pt.ine.add.PTCONT.4434172",
      "street": "R PROJECTADA A RUA MARECHAL CRAVEIRO LOPES",
      "house": "",
      "postcode": "2080-588",
      "city": "FAZENDAS DE ALMEIRIM",
      "lon": "-8.59743705728305",
      "lat": "39.18018455305964"
    },
    {
      "id": "pt.ine.add.PTCONT.4435550",
      "street": "R MARECHAL CRAVEIRO LOPES",
      "house": "",
      "postcode": "2080-588",
      "city": "FAZENDAS DE ALMEIRIM",
      "lon": "-8.600993743441874",
      "lat": "39.180746800215246"
    },
    {
      "id": "pt.ine.add.PTCONT.4436911",
      "street": "R BAIRRO CAETANO FELÍCIO",
      "house": "40",
      "postcode": "2080-524",
      "city": "FAZENDAS DE ALMEIRIM",
      "lon": "-8.598267336933288",
      "lat": "39.18148731627999"
    },
    {
      "id": "pt.ine.add.PTCONT.4436912",
      "street": "R ANTÓNIO GERARDO",
      "house": "",
      "postcode": "2080-615",
      "city": "FAZENDAS DE ALMEIRIM",
      "lon": "-8.599972956778936",
      "lat": "39.17864315991742"
    },
    {
      "id": "pt.ine.add.PTCONT.4438241",
      "street": "R BAIRRO CAETANO FELÍCIO",
      "house": "50",
      "postcode": "2080-524",
      "city": "FAZENDAS DE ALMEIRIM",
      "lon": "-8.598578799900427",
      "lat": "39.18133294650815"
    },
    {
      "id": "pt.ine.add.PTCONT.4438651",
      "street": "ESTR VELHA DOS PACOS",
      "house": "56",
      "postcode": "2080-524",
      "city": "FAZENDAS DE ALMEIRIM",
      "lon": "-8.597177371185948",
      "lat": "39.182932847972666"
    },
    {
      "id": "pt.ine.add.PTCONT.4438673",
      "street": "R MARECHAL CRAVEIRO LOPES",
      "house": "",
      "postcode": "2080-588",
      "city": "FAZENDAS DE ALMEIRIM",
      "lon": "-8.598077895640222",
      "lat": "39.18083953875421"
    },
    {
      "id": "pt.ine.add.PTCONT.4441097",
      "street": "ESTR VELHA PACOS",
      "house": "66",
      "postcode": "2080-524",
      "city": "FAZENDAS DE ALMEIRIM",
      "lon": "-8.5969330887041",
      "lat": "39.182744665030796"
    },
    {
      "id": "pt.ine.add.PTCONT.4441098",
      "street": "R BAIRRO CAETANO FELÍCIO",
      "house": "42",
      "postcode": "2080-524",
      "city": "FAZENDAS DE ALMEIRIM",
      "lon": "-8.598359505852917",
      "lat": "39.181423896425876"
    },
    {
      "id": "pt.ine.add.PTCONT.4451015",
      "street": "R MARECHAL CRAVEIRO LOPES",
      "house": "94",
      "postcode": "2080-588",
      "city": "FAZENDAS DE ALMEIRIM",
      "lon": "-8.596388006662067",
      "lat": "39.18081024015649"
    },
    {
      "id": "pt.ine.add.PTCONT.4455387",
      "street": "ESTR VELHA DOS PACOS",
      "house": "34",
      "postcode": "2080-524",
      "city": "FAZENDAS DE ALMEIRIM",
      "lon": "-8.598619589987576",
      "lat": "39.184007984036455"
    },
    {
      "id": "pt.ine.add.PTCONT.4455388",
      "street": "R MARECHAL CRAVEIRO LOPES",
      "house": "68",
      "postcode": "2080-588",
      "city": "FAZENDAS DE ALMEIRIM",
      "lon": "-8.595697289101848",
      "lat": "39.181371443876586"
    },
    {
      "id": "pt.ine.add.PTCONT.4458498",
      "street": "ESTR VELHA DOS PACOS",
      "house": "",
      "postcode": "2080-524",
      "city": "FAZENDAS DE ALMEIRIM",
      "lon": "-8.60146011259484",
      "lat": "39.18475322325045"
    },
    {
      "id": "pt.ine.add.PTCONT.4458499",
      "street": "R BAIRRO CAETANO FELÍCIO",
      "house": "",
      "postcode": "2080-524",
      "city": "FAZENDAS DE ALMEIRIM",
      "lon": "-8.597726426699719",
      "lat": "39.18194885230019"
    },
    {
      "id": "pt.ine.add.PTCONT.4458500",
      "street": "ESTR VELHA DOS PACOS",
      "house": "98",
      "postcode": "2080-524",
      "city": "FAZENDAS DE ALMEIRIM",
      "lon": "-8.595490331322756",
      "lat": "39.18157943577706"
    },
    {
      "id": "pt.ine.add.PTCONT.4458501",
      "street": "ESTR VELHA DOS PACOS",
      "house": "98",
      "postcode": "2080-524",
      "city": "FAZENDAS DE ALMEIRIM",
      "lon": "-8.595490331322756",
      "lat": "39.18157943577706"
    },
    {
      "id": "pt.ine.add.PTCONT.4458502",
      "street": "ESTR VELHA DOS PACOS",
      "house": "98",
      "postcode": "2080-524",
      "city": "FAZENDAS DE ALMEIRIM",
      "lon": "-8.595490331322756",
      "lat": "39.18157943577706"
    },
    {
      "id": "pt.ine.add.PTCONT.4458503",
      "street": "ESTR VELHA DOS PACOS",
      "house": "98",
      "postcode": "2080-524",
      "city": "FAZENDAS DE ALMEIRIM",
      "lon": "-8.595490331322756",
      "lat": "39.18157943577706"
    },
    {
      "id": "pt.ine.add.PTCONT.4458504",
      "street": "R ANTÓNIO GERARDO",
      "house": "6",
      "postcode": "2080-615",
      "city": "FAZENDAS DE ALMEIRIM",
      "lon": "-8.600318100915366",
      "lat": "39.18008296274419"
    },
    {
      "id": "pt.ine.add.PTCONT.4459360",
      "street": "R PROJECTADA A RUA MARECHAL CRAVEIRO LOPES",
      "house": "",
      "postcode": "2080-588",
      "city": "FAZENDAS DE ALMEIRIM",
      "lon": "-8.597485304237646",
      "lat": "39.18048160541829"
    },
    {
      "id": "pt.ine.add.PTCONT.4463534",
      "street": "ESTR VELHA DOS PACOS",
      "house": "90",
      "postcode": "2080-524",
      "city": "FAZENDAS DE ALMEIRIM",
      "lon": "-8.596059303052305",
      "lat": "39.181865413752455"
    },
    {
      "id": "pt.ine.add.PTCONT.4463555",
      "street": "R MARECHAL CRAVEIRO LOPES",
      "house": "",
      "postcode": "2080-588",
      "city": "FAZENDAS DE ALMEIRIM",
      "lon": "-8.6003331318284",
      "lat": "39.18060533238052"
    },
    {
      "id": "pt.ine.add.PTCONT.4465303",
      "street": "R MARECHAL CRAVEIRO LOPES",
      "house": "",
      "postcode": "2080-588",
      "city": "FAZENDAS DE ALMEIRIM",
      "lon": "-8.6003331318284",
      "lat": "39.18060533238052"
    },
    {
      "id": "pt.ine.add.PTCONT.4466822",
      "street": "R MARECHAL CRAVEIRO LOPES",
      "house": "",
      "postcode": "2080-588",
      "city": "FAZENDAS DE ALMEIRIM",
      "lon": "-8.60028374011016",
      "lat": "39.18013714498701"
    },
    {
      "id": "pt.ine.add.PTCONT.4468046",
      "street": "R CALADOS",
      "house": "",
      "postcode": "2080-524",
      "city": "FAZENDAS DE ALMEIRIM",
      "lon": "-8.600847480515162",
      "lat": "39.1831253435551"
    },
    {
      "id": "pt.ine.add.PTCONT.4468047",
      "street": "R BAIRRO CAETANO FELÍCIO",
      "house": "30",
      "postcode": "2080-524",
      "city": "FAZENDAS DE ALMEIRIM",
      "lon": "-8.598117895885615",
      "lat": "39.18164103874162"
    },
    {
      "id": "pt.ine.add.PTCONT.4470097",
      "street": "ESTR VALE DE BARROCAS",
      "house": "",
      "postcode": "2080-522",
      "city": "FAZENDAS DE ALMEIRIM",
      "lon": "-8.604542100764021",
      "lat": "39.18178636501647"
    },
    {
      "id": "pt.ine.add.PTCONT.4472765",
      "street": "ESTR VELHA DOS PACOS",
      "house": "7B",
      "postcode": "2080-524",
      "city": "FAZENDAS DE ALMEIRIM",
      "lon": "-8.59647889248103",
      "lat": "39.182314116454684"
    },
    {
      "id": "pt.ine.add.PTCONT.4479762",
      "street": "R BAIRRO CAETANO FELICIO",
      "house": "46",
      "postcode": "2080-524",
      "city": "FAZENDAS DE ALMEIRIM",
      "lon": "-8.598478885196267",
      "lat": "39.18134071545803"
    },
    {
      "id": "pt.ine.add.PTCONT.4480029",
      "street": "R BENTOS",
      "house": "",
      "postcode": "2080-557",
      "city": "FAZENDAS DE ALMEIRIM",
      "lon": "-8.599526692047554",
      "lat": "39.18291446020533"
    },
    {
      "id": "pt.ine.add.PTCONT.4482266",
      "street": "BC SAPATEIROS",
      "house": "5",
      "postcode": "2080-609",
      "city": "FAZENDAS DE ALMEIRIM",
      "lon": "-8.604378874461737",
      "lat": "39.18160687711759"
    },
    {
      "id": "pt.ine.add.PTCONT.4482267",
      "street": "BC SAPATEIROS",
      "house": "7",
      "postcode": "2080-609",
      "city": "FAZENDAS DE ALMEIRIM",
      "lon": "-8.604378874461737",
      "lat": "39.18160687711759"
    },
    {
      "id": "pt.ine.add.PTCONT.4492085",
      "street": "ESTR VELHA DOS PACOS",
      "house": "20",
      "postcode": "2080-524",
      "city": "FAZENDAS DE ALMEIRIM",
      "lon": "-8.59956204240076",
      "lat": "39.18476083712743"
    },
    {
      "id": "pt.ine.add.PTCONT.4493029",
      "street": "ESTR VALE DE BARROCAS",
      "house": "89",
      "postcode": "2080-522",
      "city": "FAZENDAS DE ALMEIRIM",
      "lon": "-8.600626867835196",
      "lat": "39.17777582625608"
    },
    {
      "id": "pt.ine.add.PTCONT.4497594",
      "street": "R ANTÓNIO GERARDO",
      "house": "3",
      "postcode": "2080-615",
      "city": "FAZENDAS DE ALMEIRIM",
      "lon": "-8.600154721381266",
      "lat": "39.17812900885259"
    },
    {
      "id": "pt.ine.add.PTCONT.4500285",
      "street": "ESTR VELHA DOS PACOS",
      "house": "",
      "postcode": "2080-524",
      "city": "FAZENDAS DE ALMEIRIM",
      "lon": "-8.601415192915743",
      "lat": "39.184960574110725"
    },
    {
      "id": "pt.ine.add.PTCONT.4500286",
      "street": "R ANTÓNIO GERARDO",
      "house": "",
      "postcode": "2080-615",
      "city": "FAZENDAS DE ALMEIRIM",
      "lon": "-8.59967087856224",
      "lat": "39.17846422152654"
    },
    {
      "id": "pt.ine.add.PTCONT.4501205",
      "street": "R MARECHAL CRAVEIRO LOPES",
      "house": "76",
      "postcode": "2080-588",
      "city": "FAZENDAS DE ALMEIRIM",
      "lon": "-8.595904481899275",
      "lat": "39.18119948031825"
    },
    {
      "id": "pt.ine.add.PTCONT.4502885",
      "street": "R BAIRRO CAETANO FELÍCIO",
      "house": "52",
      "postcode": "2080-524",
      "city": "FAZENDAS DE ALMEIRIM",
      "lon": "-8.598773699402708",
      "lat": "39.181052938031634"
    },
    {
      "id": "pt.ine.add.PTCONT.4503575",
      "street": "ESTR VELHA DOS PACOS",
      "house": "24",
      "postcode": "2080-524",
      "city": "FAZENDAS DE ALMEIRIM",
      "lon": "-8.599386772083381",
      "lat": "39.18450933128124"
    },
    {
      "id": "pt.ine.add.PTCONT.4506272",
      "street": "ESTR VALE BARROCAS",
      "house": "65167",
      "postcode": "2080-522",
      "city": "FAZENDAS DE ALMEIRIM",
      "lon": "-8.60173258921183",
      "lat": "39.17872617065544"
    },
    {
      "id": "pt.ine.add.PTCONT.4508255",
      "street": "R BAIRRO CAETANO FELÍCIO",
      "house": "19",
      "postcode": "2080-524",
      "city": "FAZENDAS DE ALMEIRIM",
      "lon": "-8.597748149888943",
      "lat": "39.18173258782648"
    },
    {
      "id": "pt.ine.add.PTCONT.4508256",
      "street": "R MARECHAL CRAVEIRO LOPES",
      "house": "",
      "postcode": "2080-588",
      "city": "FAZENDAS DE ALMEIRIM",
      "lon": "-8.598493037486962",
      "lat": "39.1806126961379"
    },
    {
      "id": "pt.ine.add.PTCONT.4508257",
      "street": "R MARECHAL CRAVEIRO LOPES",
      "house": "",
      "postcode": "2080-588",
      "city": "FAZENDAS DE ALMEIRIM",
      "lon": "-8.598493037486962",
      "lat": "39.1806126961379"
    },
    {
      "id": "pt.ine.add.PTCONT.4508258",
      "street": "R MARECHAL CRAVEIRO LOPES",
      "house": "",
      "postcode": "2080-588",
      "city": "FAZENDAS DE ALMEIRIM",
      "lon": "-8.598493037486962",
      "lat": "39.1806126961379"
    },
    {
      "id": "pt.ine.add.PTCONT.4509610",
      "street": "R BAIRRO CAETANO FELÍCIO",
      "house": "20",
      "postcode": "2080-524",
      "city": "FAZENDAS DE ALMEIRIM",
      "lon": "-8.597795450443591",
      "lat": "39.18188552518175"
    },
    {
      "id": "pt.ine.add.PTCONT.4509679",
      "street": "R MARECHAL CRAVEIRO LOPES",
      "house": "144",
      "postcode": "2080-588",
      "city": "FAZENDAS DE ALMEIRIM",
      "lon": "-8.597919380373607",
      "lat": "39.17961516301979"
    },
    {
      "id": "pt.ine.add.PTCONT.4511697",
      "street": "R BAIRRO CAETANO FELÍCIO",
      "house": "",
      "postcode": "2080-524",
      "city": "FAZENDAS DE ALMEIRIM",
      "lon": "-8.59845167460675",
      "lat": "39.18136047649915"
    },
    {
      "id": "pt.ine.add.PTCONT.4519941",
      "street": "R MARECHAL CRAVEIRO LOPES",
      "house": "102",
      "postcode": "2080-588",
      "city": "FAZENDAS DE ALMEIRIM",
      "lon": "-8.596560713907238",
      "lat": "39.180674442177285"
    },
    {
      "id": "pt.ine.add.PTCONT.4531117",
      "street": "ESTR VALE DE BARROCAS",
      "house": "45",
      "postcode": "2080-522",
      "city": "FAZENDAS DE ALMEIRIM",
      "lon": "-8.602760207733454",
      "lat": "39.18010917495496"
    },
    {
      "id": "pt.ine.add.PTCONT.4531595",
      "street": "R MARECHAL CRAVEIRO LOPES",
      "house": "114",
      "postcode": "2080-588",
      "city": "FAZENDAS DE ALMEIRIM",
      "lon": "-8.596906244774306",
      "lat": "39.18042085980814"
    },
    {
      "id": "pt.ine.add.PTCONT.4531692",
      "street": "R MARECHAL CRAVEIRO LOPES",
      "house": "110",
      "postcode": "2080-588",
      "city": "FAZENDAS DE ALMEIRIM",
      "lon": "-8.596814135011858",
      "lat": "39.18049328570097"
    },
    {
      "id": "pt.ine.add.PTCONT.4534320",
      "street": "R PROJECTADA A RUA MARECHAL CRAVEIRO LOPES",
      "house": "419",
      "postcode": "2080-588",
      "city": "FAZENDAS DE ALMEIRIM",
      "lon": "-8.597659964842997",
      "lat": "39.18064304263986"
    },
    {
      "id": "pt.ine.add.PTCONT.4536059",
      "street": "R CALADOS",
      "house": "",
      "postcode": "2080-524",
      "city": "FAZENDAS DE ALMEIRIM",
      "lon": "-8.600734373112587",
      "lat": "39.18352212346646"
    },
    {
      "id": "pt.ine.add.PTCONT.4536069",
      "street": "ESTR VELHA DOS PACOS",
      "house": "58",
      "postcode": "2080-524",
      "city": "FAZENDAS DE ALMEIRIM",
      "lon": "-8.597096061976382",
      "lat": "39.18288813473044"
    },
    {
      "id": "pt.ine.add.PTCONT.4536092",
      "street": "ESTR VALE DE BARROCAS",
      "house": "911",
      "postcode": "2080-522",
      "city": "FAZENDAS DE ALMEIRIM",
      "lon": "-8.60531593194593",
      "lat": "39.18154903898205"
    },
    {
      "id": "pt.ine.add.PTCONT.4538095",
      "street": "ESTR VELHA DOS PACOS",
      "house": "26",
      "postcode": "2080-524",
      "city": "FAZENDAS DE ALMEIRIM",
      "lon": "-8.59953520437142",
      "lat": "39.18420248539164"
    },
    {
      "id": "pt.ine.add.PTCONT.4538119",
      "street": "ESTR VELHA DOS PACOS",
      "house": "94",
      "postcode": "2080-524",
      "city": "FAZENDAS DE ALMEIRIM",
      "lon": "-8.595999015432342",
      "lat": "39.181496349404604"
    },
    {
      "id": "pt.ine.add.PTCONT.4542061",
      "street": "ESTR VELHA DOS PACOS",
      "house": "48",
      "postcode": "2080-524",
      "city": "FAZENDAS DE ALMEIRIM",
      "lon": "-8.597756570098657",
      "lat": "39.183011606428195"
    },
    {
      "id": "pt.ine.add.PTCONT.4542106",
      "street": "ESTR VALE DE BARROCAS",
      "house": "45",
      "postcode": "2080-522",
      "city": "FAZENDAS DE ALMEIRIM",
      "lon": "-8.602437306319626",
      "lat": "39.180281616802326"
    },
    {
      "id": "pt.ine.add.PTCONT.4542107",
      "street": "ESTR VELHA DOS PACOS",
      "house": "",
      "postcode": "2080-524",
      "city": "FAZENDAS DE ALMEIRIM",
      "lon": "-8.597872955722496",
      "lat": "39.18311022375531"
    },
    {
      "id": "pt.ine.add.PTCONT.4544834",
      "street": "R CALADOS",
      "house": "262",
      "postcode": "2080-524",
      "city": "FAZENDAS DE ALMEIRIM",
      "lon": "-8.600996620130575",
      "lat": "39.18292658180783"
    },
    {
      "id": "pt.ine.add.PTCONT.4544943",
      "street": "R MARECHAL CRAVEIRO LOPES",
      "house": "120",
      "postcode": "2080-588",
      "city": "FAZENDAS DE ALMEIRIM",
      "lon": "-8.597090049274245",
      "lat": "39.180212957562986"
    },
    {
      "id": "pt.ine.add.PTCONT.4544944",
      "street": "R MARECHAL CRAVEIRO LOPES",
      "house": "120",
      "postcode": "2080-588",
      "city": "FAZENDAS DE ALMEIRIM",
      "lon": "-8.597090049274245",
      "lat": "39.180212957562986"
    },
    {
      "id": "pt.ine.add.PTCONT.4544945",
      "street": "R MARECHAL CRAVEIRO LOPES",
      "house": "120",
      "postcode": "2080-588",
      "city": "FAZENDAS DE ALMEIRIM",
      "lon": "-8.597090049274245",
      "lat": "39.180212957562986"
    },
    {
      "id": "pt.ine.add.PTCONT.4544946",
      "street": "R MARECHAL CRAVEIRO LOPES",
      "house": "120",
      "postcode": "2080-588",
      "city": "FAZENDAS DE ALMEIRIM",
      "lon": "-8.597090049274245",
      "lat": "39.180212957562986"
    },
    {
      "id": "pt.ine.add.PTCONT.4548196",
      "street": "R BAIRRO CAETANO FELÍCIO",
      "house": "24",
      "postcode": "2080-524",
      "city": "FAZENDAS DE ALMEIRIM",
      "lon": "-8.598154811009985",
      "lat": "39.181974165604196"
    },
    {
      "id": "pt.ine.add.PTCONT.4548210",
      "street": "R MARECHAL CRAVEIRO LOPES",
      "house": "70",
      "postcode": "2080-588",
      "city": "FAZENDAS DE ALMEIRIM",
      "lon": "-8.595766314118734",
      "lat": "39.181308117946365"
    },
    {
      "id": "pt.ine.add.PTCONT.4554799",
      "street": "R PROJECTADA A RUA MARECHAL CRAVEIRO LOPES",
      "house": "",
      "postcode": "2080-588",
      "city": "FAZENDAS DE ALMEIRIM",
      "lon": "-8.597427321220431",
      "lat": "39.18046382165748"
    },
    {
      "id": "pt.ine.add.PTCONT.4554800",
      "street": "R MARECHAL CRAVEIRO LOPES",
      "house": "136",
      "postcode": "2080-588",
      "city": "FAZENDAS DE ALMEIRIM",
      "lon": "-8.597712137846457",
      "lat": "39.17977812297277"
    },
    {
      "id": "pt.ine.add.PTCONT.4554801",
      "street": "BC SAPATEIROS",
      "house": "1",
      "postcode": "2080-609",
      "city": "FAZENDAS DE ALMEIRIM",
      "lon": "-8.604873807507946",
      "lat": "39.1811995408977"
    },
    {
      "id": "pt.ine.add.PTCONT.4558662",
      "street": "ESTR VELHA DOS PACOS",
      "house": "64",
      "postcode": "2080-524",
      "city": "FAZENDAS DE ALMEIRIM",
      "lon": "-8.597026207749112",
      "lat": "39.18282536100606"
    },
    {
      "id": "pt.ine.add.PTCONT.4562911",
      "street": "R CALADOS",
      "house": "",
      "postcode": "2080-524",
      "city": "FAZENDAS DE ALMEIRIM",
      "lon": "-8.601412422117225",
      "lat": "39.18279880770387"
    },
    {
      "id": "pt.ine.add.PTCONT.4562912",
      "street": "R CALADOS",
      "house": "",
      "postcode": "2080-524",
      "city": "FAZENDAS DE ALMEIRIM",
      "lon": "-8.601412422117225",
      "lat": "39.18279880770387"
    },
    {
      "id": "pt.ine.add.PTCONT.4565062",
      "street": "R BAIRRO CAETANO FELÍCIO",
      "house": "28",
      "postcode": "2080-524",
      "city": "FAZENDAS DE ALMEIRIM",
      "lon": "-8.598048991337288",
      "lat": "39.18172238039833"
    },
    {
      "id": "pt.ine.add.PTCONT.4565110",
      "street": "BC SAPATEIROS",
      "house": "17",
      "postcode": "2080-609",
      "city": "FAZENDAS DE ALMEIRIM",
      "lon": "-8.603276139249607",
      "lat": "39.182854354263846"
    },
    {
      "id": "pt.ine.add.PTCONT.4571022",
      "street": "R CALADOS",
      "house": "",
      "postcode": "2080-524",
      "city": "FAZENDAS DE ALMEIRIM",
      "lon": "-8.600927598269195",
      "lat": "39.18298991080004"
    },
    {
      "id": "pt.ine.add.PTCONT.4571297",
      "street": "R BENTOS",
      "house": "20",
      "postcode": "2080-557",
      "city": "FAZENDAS DE ALMEIRIM",
      "lon": "-8.601022084228948",
      "lat": "39.18153033114752"
    },
    {
      "id": "pt.ine.add.PTCONT.4571298",
      "street": "R BENTOS",
      "house": "30",
      "postcode": "2080-557",
      "city": "FAZENDAS DE ALMEIRIM",
      "lon": "-8.601022084228948",
      "lat": "39.18153033114752"
    },
    {
      "id": "pt.ine.add.PTCONT.4571356",
      "street": "BC SAPATEIROS",
      "house": "",
      "postcode": "2080-609",
      "city": "FAZENDAS DE ALMEIRIM",
      "lon": "-8.603285852399594",
      "lat": "39.18257508543068"
    },
    {
      "id": "pt.ine.add.PTCONT.4575034",
      "street": "R PROJECTADA A RUA MARCHAL CRAVEIRO LOPES",
      "house": "",
      "postcode": "2080-588",
      "city": "FAZENDAS DE ALMEIRIM",
      "lon": "-8.597485956090283",
      "lat": "39.18058068435919"
    },
    {
      "id": "pt.ine.add.PTCONT.4575035",
      "street": "R PROJECTADA A RUA MARCHAL CRAVEIRO LOPES",
      "house": "",
      "postcode": "2080-588",
      "city": "FAZENDAS DE ALMEIRIM",
      "lon": "-8.597485956090283",
      "lat": "39.18058068435919"
    },
    {
      "id": "pt.ine.add.PTCONT.4575036",
      "street": "R PROJECTADA A RUA MARCHAL CRAVEIRO LOPES",
      "house": "",
      "postcode": "2080-588",
      "city": "FAZENDAS DE ALMEIRIM",
      "lon": "-8.597485956090283",
      "lat": "39.18058068435919"
    },
    {
      "id": "pt.ine.add.PTCONT.4575037",
      "street": "R PROJECTADA A RUA MARCHAL CRAVEIRO LOPES",
      "house": "",
      "postcode": "2080-588",
      "city": "FAZENDAS DE ALMEIRIM",
      "lon": "-8.597485956090283",
      "lat": "39.18058068435919"
    },
    {
      "id": "pt.ine.add.PTCONT.4575038",
      "street": "R PROJECTADA A RUA MARCHAL CRAVEIRO LOPES",
      "house": "",
      "postcode": "2080-588",
      "city": "FAZENDAS DE ALMEIRIM",
      "lon": "-8.597485956090283",
      "lat": "39.18058068435919"
    },
    {
      "id": "pt.ine.add.PTCONT.4575039",
      "street": "R PROJECTADA A RUA MARCHAL CRAVEIRO LOPES",
      "house": "",
      "postcode": "2080-588",
      "city": "FAZENDAS DE ALMEIRIM",
      "lon": "-8.597485956090283",
      "lat": "39.18058068435919"
    },
    {
      "id": "pt.ine.add.PTCONT.4575040",
      "street": "R PROJECTADA A RUA MARCHAL CRAVEIRO LOPES",
      "house": "",
      "postcode": "2080-588",
      "city": "FAZENDAS DE ALMEIRIM",
      "lon": "-8.597485956090283",
      "lat": "39.18058068435919"
    },
    {
      "id": "pt.ine.add.PTCONT.4575041",
      "street": "R PROJECTADA A RUA MARCHAL CRAVEIRO LOPES",
      "house": "",
      "postcode": "2080-588",
      "city": "FAZENDAS DE ALMEIRIM",
      "lon": "-8.597485956090283",
      "lat": "39.18058068435919"
    },
    {
      "id": "pt.ine.add.PTCONT.4577329",
      "street": "R BENTOS",
      "house": "26",
      "postcode": "2080-557",
      "city": "FAZENDAS DE ALMEIRIM",
      "lon": "-8.6009302160907",
      "lat": "39.181638788944724"
    },
    {
      "id": "pt.ine.add.PTCONT.4585727",
      "street": "R BENTOS",
      "house": "46",
      "postcode": "2080-557",
      "city": "FAZENDAS DE ALMEIRIM",
      "lon": "-8.601574004531315",
      "lat": "39.180987668883944"
    },
    {
      "id": "pt.ine.add.PTCONT.4587530",
      "street": "R CALADOS",
      "house": "",
      "postcode": "2080-524",
      "city": "FAZENDAS DE ALMEIRIM",
      "lon": "-8.599547789896793",
      "lat": "39.18435556091839"
    },
    {
      "id": "pt.ine.add.PTCONT.4590019",
      "street": "R BAIRRO CAETANO FELÍCIO",
      "house": "2",
      "postcode": "2080-524",
      "city": "FAZENDAS DE ALMEIRIM",
      "lon": "-8.597082712297176",
      "lat": "39.18261796560947"
    },
    {
      "id": "pt.ine.add.PTCONT.4593106",
      "street": "BC SAPATEIROS",
      "house": "22",
      "postcode": "2080-609",
      "city": "FAZENDAS DE ALMEIRIM",
      "lon": "-8.60290609398692",
      "lat": "39.18290088386723"
    },
    {
      "id": "pt.ine.add.PTCONT.4594177",
      "street": "R MARECHAL CRAVEIRO LOPES",
      "house": "140",
      "postcode": "2080-588",
      "city": "FAZENDAS DE ALMEIRIM",
      "lon": "-8.597804245754432",
      "lat": "39.17970569637235"
    },
    {
      "id": "pt.ine.add.PTCONT.4598345",
      "street": "R BAIRRO CAETANO FELICIO",
      "house": "10",
      "postcode": "2080-524",
      "city": "FAZENDAS DE ALMEIRIM",
      "lon": "-8.597660129941458",
      "lat": "39.18242650936375"
    },
    {
      "id": "pt.ine.add.PTCONT.4598359",
      "street": "R MARECHAL CRAVEIRO LOPES",
      "house": "128",
      "postcode": "2080-588",
      "city": "FAZENDAS DE ALMEIRIM",
      "lon": "-8.597516467176446",
      "lat": "39.17994103643505"
    },
    {
      "id": "pt.ine.add.PTCONT.4600356",
      "street": "R BAIRRO CAETANO FELÍCIO",
      "house": "50 A",
      "postcode": "2080-524",
      "city": "FAZENDAS DE ALMEIRIM",
      "lon": "-8.598636189839981",
      "lat": "39.1812606579495"
    },
    {
      "id": "pt.ine.add.PTCONT.4604948",
      "street": "R PROJECTADA A RUA MARECHAL CRAVEIRO LOPES",
      "house": "",
      "postcode": "2080-588",
      "city": "FAZENDAS DE ALMEIRIM",
      "lon": "-8.598549951775533",
      "lat": "39.18046835021458"
    },
    {
      "id": "pt.ine.add.PTCONT.4606792",
      "street": "R PROJECTADA A RUA MARECHAL CRAVEIRO LOPES",
      "house": "",
      "postcode": "2080-588",
      "city": "FAZENDAS DE ALMEIRIM",
      "lon": "-8.597292652103235",
      "lat": "39.181103884479164"
    },
    {
      "id": "pt.ine.add.PTCONT.4606814",
      "street": "R MARECHAL CRAVEIRO LOPES",
      "house": "174",
      "postcode": "2080-588",
      "city": "FAZENDAS DE ALMEIRIM",
      "lon": "-8.600221951137906",
      "lat": "39.17779546498086"
    },
    {
      "id": "pt.ine.add.PTCONT.4614833",
      "street": "R BENTOS",
      "house": "32",
      "postcode": "2080-557",
      "city": "FAZENDAS DE ALMEIRIM",
      "lon": "-8.60117205626639",
      "lat": "39.18145766953118"
    },
    {
      "id": "pt.ine.add.PTCONT.4614834",
      "street": "R BENTOS",
      "house": "42",
      "postcode": "2080-557",
      "city": "FAZENDAS DE ALMEIRIM",
      "lon": "-8.601366945776647",
      "lat": "39.18117765678334"
    },
    {
      "id": "pt.ine.add.PTCONT.4618109",
      "street": "ESTR VELHA DOS PACOS",
      "house": "44",
      "postcode": "2080-524",
      "city": "FAZENDAS DE ALMEIRIM",
      "lon": "-8.598084420811738",
      "lat": "39.18358677272509"
    },
    {
      "id": "pt.ine.add.PTCONT.4618110",
      "street": "BC SAPATEIROS",
      "house": "4",
      "postcode": "2080-609",
      "city": "FAZENDAS DE ALMEIRIM",
      "lon": "-8.604595573960395",
      "lat": "39.18112860777704"
    },
    {
      "id": "pt.ine.add.PTCONT.4618717",
      "street": "ESTR VELHA DOS PACOS",
      "house": "44",
      "postcode": "2080-524",
      "city": "FAZENDAS DE ALMEIRIM",
      "lon": "-8.598084420811738",
      "lat": "39.18358677272509"
    },
    {
      "id": "pt.ine.add.PTCONT.4618847",
      "street": "R MARECHAL CRAVEIRO LOPES",
      "house": "154",
      "postcode": "2080-588",
      "city": "FAZENDAS DE ALMEIRIM",
      "lon": "-8.598564603935852",
      "lat": "39.17918023156771"
    },
    {
      "id": "pt.ine.add.PTCONT.4619084",
      "street": "R CALADOS",
      "house": "",
      "postcode": "2080-524",
      "city": "FAZENDAS DE ALMEIRIM",
      "lon": "-8.60129591260063",
      "lat": "39.18268217959738"
    },
    {
      "id": "pt.ine.add.PTCONT.4619125",
      "street": "R MARECHAL CRAVEIRO LOPES",
      "house": "146",
      "postcode": "2080-588",
      "city": "FAZENDAS DE ALMEIRIM",
      "lon": "-8.597999974431312",
      "lat": "39.179551789605505"
    },
    {
      "id": "pt.ine.add.PTCONT.4623301",
      "street": "R MARECHAL CRAVEIRO LOPES",
      "house": "100",
      "postcode": "2080-588",
      "city": "FAZENDAS DE ALMEIRIM",
      "lon": "-8.5965147769785",
      "lat": "39.18072866935148"
    },
    {
      "id": "pt.ine.add.PTCONT.4623302",
      "street": "R PROJECTADA A RUA MARECHAL CRAVEIRO LOPES",
      "house": "",
      "postcode": "2080-588",
      "city": "FAZENDAS DE ALMEIRIM",
      "lon": "-8.597357409878619",
      "lat": "39.18039204091609"
    },
    {
      "id": "pt.ine.add.PTCONT.4625508",
      "street": "R CALADOS",
      "house": "",
      "postcode": "2080-524",
      "city": "FAZENDAS DE ALMEIRIM",
      "lon": "-8.601378658465082",
      "lat": "39.18294306192494"
    },
    {
      "id": "pt.ine.add.PTCONT.4627695",
      "street": "R MARECHAL CRAVEIRO LOPES",
      "house": "86",
      "postcode": "2080-588",
      "city": "FAZENDAS DE ALMEIRIM",
      "lon": "-8.596180816184456",
      "lat": "39.180982204572146"
    },
    {
      "id": "pt.ine.add.PTCONT.4627696",
      "street": "BC SAPATEIROS",
      "house": "",
      "postcode": "2080-609",
      "city": "FAZENDAS DE ALMEIRIM",
      "lon": "-8.603184332881817",
      "lat": "39.18297182096831"
    },
    {
      "id": "pt.ine.add.PTCONT.4629449",
      "street": "ESTR VELHA DOS PACOS",
      "house": "38",
      "postcode": "2080-524",
      "city": "FAZENDAS DE ALMEIRIM",
      "lon": "-8.598410020285904",
      "lat": "39.183819665554324"
    },
    {
      "id": "pt.ine.add.PTCONT.4629463",
      "street": "R BAIRRO CAETANO FELÍCIO",
      "house": "38",
      "postcode": "2080-524",
      "city": "FAZENDAS DE ALMEIRIM",
      "lon": "-8.598209827724347",
      "lat": "39.18154159030965"
    },
    {
      "id": "pt.ine.add.PTCONT.4629495",
      "street": "R PROJECTADA A RUA MARECHAL CRAVEIRO LOPES",
      "house": "",
      "postcode": "2080-588",
      "city": "FAZENDAS DE ALMEIRIM",
      "lon": "-8.597426965710419",
      "lat": "39.18040977859747"
    },
    {
      "id": "pt.ine.add.PTCONT.4629496",
      "street": "R PROJECTADA A RUA MARECHAL CRAVEIRO LOPES",
      "house": "",
      "postcode": "2080-588",
      "city": "FAZENDAS DE ALMEIRIM",
      "lon": "-8.597508864878543",
      "lat": "39.1805445634084"
    },
    {
      "id": "pt.ine.add.PTCONT.4632709",
      "street": "R BENTOS",
      "house": "43",
      "postcode": "2080-557",
      "city": "FAZENDAS DE ALMEIRIM",
      "lon": "-8.6011929324815",
      "lat": "39.18111530407217"
    },
    {
      "id": "pt.ine.add.PTCONT.4632710",
      "street": "R MARECHAL CRAVEIRO LOPES",
      "house": "92",
      "postcode": "2080-588",
      "city": "FAZENDAS DE ALMEIRIM",
      "lon": "-8.596307468829956",
      "lat": "39.18088261963688"
    },
    {
      "id": "pt.ine.add.PTCONT.4633676",
      "street": "R PROJECTADA A RUA MARECHAL CRAVEIRO LOPES",
      "house": "",
      "postcode": "2080-588",
      "city": "FAZENDAS DE ALMEIRIM",
      "lon": "-8.59757848016944",
      "lat": "39.18057130817403"
    },
    {
      "id": "pt.ine.add.PTCONT.4642799",
      "street": "ESTR VELHA DOS PACOS",
      "house": "",
      "postcode": "2080-524",
      "city": "FAZENDAS DE ALMEIRIM",
      "lon": "-8.597742031931737",
      "lat": "39.18256129394739"
    },
    {
      "id": "pt.ine.add.PTCONT.4643886",
      "street": "R CALADOS",
      "house": "",
      "postcode": "2080-524",
      "city": "FAZENDAS DE ALMEIRIM",
      "lon": "-8.60076688498535",
      "lat": "39.18318871890931"
    },
    {
      "id": "pt.ine.add.PTCONT.4646617",
      "street": "R MARECHAL CRAVEIRO LOPES",
      "house": "64",
      "postcode": "2080-588",
      "city": "FAZENDAS DE ALMEIRIM",
      "lon": "-8.595477932163245",
      "lat": "39.18145338121607"
    },
    {
      "id": "pt.ine.add.PTCONT.4646618",
      "street": "R MARECHAL CRAVEIRO LOPES",
      "house": "64",
      "postcode": "2080-588",
      "city": "FAZENDAS DE ALMEIRIM",
      "lon": "-8.595477932163245",
      "lat": "39.18145338121607"
    },
    {
      "id": "pt.ine.add.PTCONT.4646688",
      "street": "R MARECHAL CRAVEIRO LOPES",
      "house": "64",
      "postcode": "2080-588",
      "city": "FAZENDAS DE ALMEIRIM",
      "lon": "-8.595477932163245",
      "lat": "39.18145338121607"
    },
    {
      "id": "pt.ine.add.PTCONT.4646689",
      "street": "R MARECHAL CRAVEIRO LOPES",
      "house": "24 A",
      "postcode": "2080-588",
      "city": "FAZENDAS DE ALMEIRIM",
      "lon": "-8.595477932163245",
      "lat": "39.18145338121607"
    },
    {
      "id": "pt.ine.add.PTCONT.4646690",
      "street": "R MARECHAL CRAVEIRO LOPES",
      "house": "78",
      "postcode": "2080-588",
      "city": "FAZENDAS DE ALMEIRIM",
      "lon": "-8.595961933549924",
      "lat": "39.181136200236814"
    },
    {
      "id": "pt.ine.add.PTCONT.4647685",
      "street": "ESTR VALE BARROCAS",
      "house": "72",
      "postcode": "2080-522",
      "city": "FAZENDAS DE ALMEIRIM",
      "lon": "-8.601476378188492",
      "lat": "39.17848400058268"
    },
    {
      "id": "pt.ine.add.PTCONT.4651547",
      "street": "R BAIRRO CAETANO FELÍCIO",
      "house": "34",
      "postcode": "2080-524",
      "city": "FAZENDAS DE ALMEIRIM",
      "lon": "-8.598163832163225",
      "lat": "39.18158681094778"
    },
    {
      "id": "pt.ine.add.PTCONT.4651548",
      "street": "ESTR VALE DE BARROCAS",
      "house": "47",
      "postcode": "2080-522",
      "city": "FAZENDAS DE ALMEIRIM",
      "lon": "-8.601172684311475",
      "lat": "39.1780618723688"
    },
    {
      "id": "pt.ine.add.PTCONT.4652177",
      "street": "R MARECHAL CRAVEIRO LOPES",
      "house": "130",
      "postcode": "2080-588",
      "city": "FAZENDAS DE ALMEIRIM",
      "lon": "-8.597585429893691",
      "lat": "39.179868702252506"
    },
    {
      "id": "pt.ine.add.PTCONT.4652200",
      "street": "ESTR VALE DE BARROCAS",
      "house": "",
      "postcode": "2080-522",
      "city": "FAZENDAS DE ALMEIRIM",
      "lon": "-8.603416038993148",
      "lat": "39.183006915601865"
    },
    {
      "id": "pt.ine.add.PTCONT.4654138",
      "street": "R PROJECTADA A RUA MARECHAL CRAVEIRO LOPES",
      "house": "",
      "postcode": "2080-588",
      "city": "FAZENDAS DE ALMEIRIM",
      "lon": "-8.597229634296289",
      "lat": "39.180320490624425"
    },
    {
      "id": "pt.ine.add.PTCONT.4654139",
      "street": "R PROJECTADA A RUA MARECHAL CRAVEIRO LOPES",
      "house": "",
      "postcode": "2080-588",
      "city": "FAZENDAS DE ALMEIRIM",
      "lon": "-8.597229634296289",
      "lat": "39.180320490624425"
    },
    {
      "id": "pt.ine.add.PTCONT.4654140",
      "street": "R PROJECTADA A RUA MARECHAL CRAVEIRO LOPES",
      "house": "",
      "postcode": "2080-588",
      "city": "FAZENDAS DE ALMEIRIM",
      "lon": "-8.597229634296289",
      "lat": "39.180320490624425"
    },
    {
      "id": "pt.ine.add.PTCONT.4655964",
      "street": "R PROJECTADA A RUA MARECHAL CRAVEIRO LOPES",
      "house": "",
      "postcode": "2080-588",
      "city": "FAZENDAS DE ALMEIRIM",
      "lon": "-8.597229634296289",
      "lat": "39.180320490624425"
    },
    {
      "id": "pt.ine.add.PTCONT.4661120",
      "street": "R BENTOS",
      "house": "38",
      "postcode": "2080-557",
      "city": "FAZENDAS DE ALMEIRIM",
      "lon": "-8.601205759925547",
      "lat": "39.18130440816448"
    }
  ]
}