{
  "data": {
    "distrito": "Lisboa",
    "concelho": "Cascais",
    "freguesia": "Uni√£o das freguesias de Cascais e Estoril",
    "OBJECTID": 1007,
    "BGRI2021": "11050805401",
    "DT21": "11",
    "DTMN21": "1105",
    "DTMNFR21": "110508",
    "DTMNFRSEC21": "110508054",
    "SECNUM21": "054",
    "SSNUM21": "01",
    "SECSSNUM21": "05401",
    "OBJECTID_1": 102334,
    "DT": "11",
    "CC": "05",
    "fr": "08",
    "SEC": "054",
    "SS": "01"
  },
  "addresses": [
    {
      "id": "pt.ine.add.PTCONT.2922930",
      "street": "R DR MANUEL DE ARRIAGA",
      "house": "7",
      "postcode": "2765-244",
      "city": "ESTORIL",
      "lon": "-9.399150162756127",
      "lat": "38.709937347125276"
    },
    {
      "id": "pt.ine.add.PTCONT.2947599",
      "street": "R LISBOA",
      "house": "5 A",
      "postcode": "2765-240",
      "city": "ESTORIL",
      "lon": "-9.398206020357799",
      "lat": "38.708551371092256"
    },
    {
      "id": "pt.ine.add.PTCONT.2947600",
      "street": "R LISBOA",
      "house": "5 A",
      "postcode": "2765-240",
      "city": "ESTORIL",
      "lon": "-9.398206020357799",
      "lat": "38.708551371092256"
    },
    {
      "id": "pt.ine.add.PTCONT.2947601",
      "street": "R LISBOA",
      "house": "5 A",
      "postcode": "2765-240",
      "city": "ESTORIL",
      "lon": "-9.398206020357799",
      "lat": "38.708551371092256"
    },
    {
      "id": "pt.ine.add.PTCONT.2947602",
      "street": "R LISBOA",
      "house": "5 A",
      "postcode": "2765-240",
      "city": "ESTORIL",
      "lon": "-9.398206020357799",
      "lat": "38.708551371092256"
    },
    {
      "id": "pt.ine.add.PTCONT.2948097",
      "street": "R LISBOA",
      "house": "5 A",
      "postcode": "2765-240",
      "city": "ESTORIL",
      "lon": "-9.398206020357799",
      "lat": "38.708551371092256"
    },
    {
      "id": "pt.ine.add.PTCONT.2948098",
      "street": "R LISBOA",
      "house": "5 A",
      "postcode": "2765-240",
      "city": "ESTORIL",
      "lon": "-9.398206020357799",
      "lat": "38.708551371092256"
    },
    {
      "id": "pt.ine.add.PTCONT.2948099",
      "street": "R LISBOA",
      "house": "5 A",
      "postcode": "2765-240",
      "city": "ESTORIL",
      "lon": "-9.398206020357799",
      "lat": "38.708551371092256"
    },
    {
      "id": "pt.ine.add.PTCONT.2948100",
      "street": "R LISBOA",
      "house": "5 A",
      "postcode": "2765-240",
      "city": "ESTORIL",
      "lon": "-9.398206020357799",
      "lat": "38.708551371092256"
    },
    {
      "id": "pt.ine.add.PTCONT.2948101",
      "street": "R LISBOA",
      "house": "5 A",
      "postcode": "2765-240",
      "city": "ESTORIL",
      "lon": "-9.398206020357799",
      "lat": "38.708551371092256"
    },
    {
      "id": "pt.ine.add.PTCONT.2948102",
      "street": "R LISBOA",
      "house": "5 A",
      "postcode": "2765-240",
      "city": "ESTORIL",
      "lon": "-9.398206020357799",
      "lat": "38.708551371092256"
    },
    {
      "id": "pt.ine.add.PTCONT.2951127",
      "street": "R LISBOA",
      "house": "5 A",
      "postcode": "2765-240",
      "city": "ESTORIL",
      "lon": "-9.398206020357799",
      "lat": "38.708551371092256"
    },
    {
      "id": "pt.ine.add.PTCONT.2951534",
      "street": "R LISBOA",
      "house": "5 A",
      "postcode": "2765-240",
      "city": "ESTORIL",
      "lon": "-9.398206020357799",
      "lat": "38.708551371092256"
    },
    {
      "id": "pt.ine.add.PTCONT.3018395",
      "street": "R PROF DR EGAS MONIZ",
      "house": "3",
      "postcode": "2765-218",
      "city": "ESTORIL",
      "lon": "-9.398087363693266",
      "lat": "38.70899403326286"
    },
    {
      "id": "pt.ine.add.PTCONT.3165001",
      "street": "R PROF DR EGAS MONIZ CASA DO VIMEIRO",
      "house": "O7",
      "postcode": "2765-218",
      "city": "ESTORIL",
      "lon": "-9.39810473060982",
      "lat": "38.7093271309567"
    },
    {
      "id": "pt.ine.add.PTCONT.3173215",
      "street": "R LISBOA",
      "house": "3",
      "postcode": "2765-240",
      "city": "ESTORIL",
      "lon": "-9.398557094606293",
      "lat": "38.70825031687671"
    },
    {
      "id": "pt.ine.add.PTCONT.3386950",
      "street": "R LISBOA",
      "house": "5",
      "postcode": "2765-240",
      "city": "ESTORIL",
      "lon": "-9.398591991235325",
      "lat": "38.708925518116416"
    },
    {
      "id": "pt.ine.add.PTCONT.3386953",
      "street": "R LISBOA",
      "house": "5",
      "postcode": "2765-240",
      "city": "ESTORIL",
      "lon": "-9.398591991235325",
      "lat": "38.708925518116416"
    },
    {
      "id": "pt.ine.add.PTCONT.3250271",
      "street": "R MELO E SOUSA",
      "house": "626 B",
      "postcode": "2765-253",
      "city": "ESTORIL",
      "lon": "-9.398714871902884",
      "lat": "38.709374573892525"
    },
    {
      "id": "pt.ine.add.PTCONT.3294105",
      "street": "R MELO E SOUSA",
      "house": "18",
      "postcode": "2765-253",
      "city": "ESTORIL",
      "lon": "-9.398591991235325",
      "lat": "38.708925518116416"
    },
    {
      "id": "pt.ine.add.PTCONT.3315104",
      "street": "R LISBOA",
      "house": "7",
      "postcode": "2765-240",
      "city": "ESTORIL",
      "lon": "-9.397934766700368",
      "lat": "38.708815529858576"
    },
    {
      "id": "pt.ine.add.PTCONT.3315105",
      "street": "R LISBOA",
      "house": "7",
      "postcode": "2765-240",
      "city": "ESTORIL",
      "lon": "-9.397934766700368",
      "lat": "38.708815529858576"
    },
    {
      "id": "pt.ine.add.PTCONT.3315106",
      "street": "R LISBOA",
      "house": "7",
      "postcode": "2765-240",
      "city": "ESTORIL",
      "lon": "-9.397934766700368",
      "lat": "38.708815529858576"
    },
    {
      "id": "pt.ine.add.PTCONT.3315107",
      "street": "R LISBOA",
      "house": "7",
      "postcode": "2765-240",
      "city": "ESTORIL",
      "lon": "-9.397934766700368",
      "lat": "38.708815529858576"
    },
    {
      "id": "pt.ine.add.PTCONT.3315108",
      "street": "R LISBOA",
      "house": "7",
      "postcode": "2765-240",
      "city": "ESTORIL",
      "lon": "-9.397934766700368",
      "lat": "38.708815529858576"
    },
    {
      "id": "pt.ine.add.PTCONT.3315109",
      "street": "R LISBOA",
      "house": "7",
      "postcode": "2765-240",
      "city": "ESTORIL",
      "lon": "-9.397934766700368",
      "lat": "38.708815529858576"
    },
    {
      "id": "pt.ine.add.PTCONT.3315111",
      "street": "R LISBOA",
      "house": "7",
      "postcode": "2765-240",
      "city": "ESTORIL",
      "lon": "-9.397934766700368",
      "lat": "38.708815529858576"
    },
    {
      "id": "pt.ine.add.PTCONT.3315112",
      "street": "R LISBOA",
      "house": "7",
      "postcode": "2765-240",
      "city": "ESTORIL",
      "lon": "-9.397934766700368",
      "lat": "38.708815529858576"
    },
    {
      "id": "pt.ine.add.PTCONT.3315113",
      "street": "R LISBOA",
      "house": "7",
      "postcode": "2765-240",
      "city": "ESTORIL",
      "lon": "-9.397934766700368",
      "lat": "38.708815529858576"
    },
    {
      "id": "pt.ine.add.PTCONT.3315114",
      "street": "R LISBOA",
      "house": "7",
      "postcode": "2765-240",
      "city": "ESTORIL",
      "lon": "-9.397934766700368",
      "lat": "38.708815529858576"
    },
    {
      "id": "pt.ine.add.PTCONT.3315115",
      "street": "R LISBOA",
      "house": "7",
      "postcode": "2765-240",
      "city": "ESTORIL",
      "lon": "-9.397934766700368",
      "lat": "38.708815529858576"
    },
    {
      "id": "pt.ine.add.PTCONT.3321336",
      "street": "R LISBOA",
      "house": "7",
      "postcode": "2765-240",
      "city": "ESTORIL",
      "lon": "-9.397934766700368",
      "lat": "38.708815529858576"
    },
    {
      "id": "pt.ine.add.PTCONT.3379629",
      "street": "R MELO E SOUSA CASA DAS MIMOSAS",
      "house": "626",
      "postcode": "2765-253",
      "city": "ESTORIL",
      "lon": "-9.399014672278131",
      "lat": "38.70942537438365"
    },
    {
      "id": "pt.ine.add.PTCONT.3379630",
      "street": "R MELO E SOUSA CASA DAS MIMOSAS",
      "house": "626",
      "postcode": "2765-253",
      "city": "ESTORIL",
      "lon": "-9.399014672278131",
      "lat": "38.70942537438365"
    },
    {
      "id": "pt.ine.add.PTCONT.3439176",
      "street": "R LISBOA",
      "house": "1",
      "postcode": "2765-240",
      "city": "ESTORIL",
      "lon": "-9.398883907581826",
      "lat": "38.707877462518134"
    },
    {
      "id": "pt.ine.add.PTCONT.3440819",
      "street": "R LISBOA",
      "house": "5",
      "postcode": "2765-240",
      "city": "ESTORIL",
      "lon": "-9.398411483487106",
      "lat": "38.70846807814043"
    },
    {
      "id": "pt.ine.add.PTCONT.3450855",
      "street": "R LISBOA",
      "house": "5 A",
      "postcode": "2765-240",
      "city": "ESTORIL",
      "lon": "-9.398206020357799",
      "lat": "38.708551371092256"
    },
    {
      "id": "pt.ine.add.PTCONT.2350565",
      "street": "R PROF DR EGAS MONIZ",
      "house": "11",
      "postcode": "2765-218",
      "city": "ESTORIL",
      "lon": "-9.398417453426745",
      "lat": "38.709458862627116"
    },
    {
      "id": "pt.ine.add.PTCONT.2484718",
      "street": "R MELO E SOUSA",
      "house": "14",
      "postcode": "2765-253",
      "city": "ESTORIL",
      "lon": "-9.398591991235325",
      "lat": "38.708925518116416"
    },
    {
      "id": "pt.ine.add.PTCONT.2523331",
      "street": "R MELO E SOUSA VILLAS SOLMAR",
      "house": "14",
      "postcode": "2765-253",
      "city": "ESTORIL",
      "lon": "-9.398817584404627",
      "lat": "38.7086798676152"
    },
    {
      "id": "pt.ine.add.PTCONT.2523332",
      "street": "R MELO E SOUSA VILLAS SOLMAR",
      "house": "14",
      "postcode": "2765-253",
      "city": "ESTORIL",
      "lon": "-9.398817584404627",
      "lat": "38.7086798676152"
    },
    {
      "id": "pt.ine.add.PTCONT.2523333",
      "street": "R MELO E SOUSA VILLAS SOLMAR",
      "house": "14",
      "postcode": "2765-253",
      "city": "ESTORIL",
      "lon": "-9.398817584404627",
      "lat": "38.7086798676152"
    },
    {
      "id": "pt.ine.add.PTCONT.2556090",
      "street": "R DR MANUEL DE ARRIAGA",
      "house": "5",
      "postcode": "2765-244",
      "city": "ESTORIL",
      "lon": "-9.3988845251205",
      "lat": "38.70986816169653"
    },
    {
      "id": "pt.ine.add.PTCONT.2577581",
      "street": "R DR MANUEL DE ARRIAGA SANTA CECILIA",
      "house": "3",
      "postcode": "2765-244",
      "city": "ESTORIL",
      "lon": "-9.398687853164581",
      "lat": "38.70979822911899"
    },
    {
      "id": "pt.ine.add.PTCONT.2687568",
      "street": "R MELO E SOUSA",
      "house": "18",
      "postcode": "2765-253",
      "city": "ESTORIL",
      "lon": "-9.39896377185834",
      "lat": "38.70914668625281"
    },
    {
      "id": "pt.ine.add.PTCONT.2701969",
      "street": "R MELO E SOUSA",
      "house": "670",
      "postcode": "2765-253",
      "city": "ESTORIL",
      "lon": "-9.399135014776624",
      "lat": "38.70973033366652"
    },
    {
      "id": "pt.ine.add.PTCONT.2737756",
      "street": "R LISBOA",
      "house": "5",
      "postcode": "2765-240",
      "city": "ESTORIL",
      "lon": "-9.398411483487106",
      "lat": "38.70846807814043"
    },
    {
      "id": "pt.ine.add.PTCONT.2737757",
      "street": "R LISBOA",
      "house": "5",
      "postcode": "2765-240",
      "city": "ESTORIL",
      "lon": "-9.398411483487106",
      "lat": "38.70846807814043"
    },
    {
      "id": "pt.ine.add.PTCONT.2737758",
      "street": "R LISBOA",
      "house": "5",
      "postcode": "2765-240",
      "city": "ESTORIL",
      "lon": "-9.398411483487106",
      "lat": "38.70846807814043"
    },
    {
      "id": "pt.ine.add.PTCONT.2737759",
      "street": "R LISBOA",
      "house": "5",
      "postcode": "2765-240",
      "city": "ESTORIL",
      "lon": "-9.398411483487106",
      "lat": "38.70846807814043"
    },
    {
      "id": "pt.ine.add.PTCONT.2737760",
      "street": "R LISBOA",
      "house": "5",
      "postcode": "2765-240",
      "city": "ESTORIL",
      "lon": "-9.398411483487106",
      "lat": "38.70846807814043"
    },
    {
      "id": "pt.ine.add.PTCONT.2737761",
      "street": "R LISBOA",
      "house": "5",
      "postcode": "2765-240",
      "city": "ESTORIL",
      "lon": "-9.398411483487106",
      "lat": "38.70846807814043"
    },
    {
      "id": "pt.ine.add.PTCONT.2737762",
      "street": "R LISBOA",
      "house": "5",
      "postcode": "2765-240",
      "city": "ESTORIL",
      "lon": "-9.398411483487106",
      "lat": "38.70846807814043"
    },
    {
      "id": "pt.ine.add.PTCONT.2737785",
      "street": "R LISBOA",
      "house": "5",
      "postcode": "2765-240",
      "city": "ESTORIL",
      "lon": "-9.398411483487106",
      "lat": "38.70846807814043"
    },
    {
      "id": "pt.ine.add.PTCONT.2737786",
      "street": "R LISBOA",
      "house": "5",
      "postcode": "2765-240",
      "city": "ESTORIL",
      "lon": "-9.398411483487106",
      "lat": "38.70846807814043"
    },
    {
      "id": "pt.ine.add.PTCONT.2737787",
      "street": "R LISBOA",
      "house": "5",
      "postcode": "2765-240",
      "city": "ESTORIL",
      "lon": "-9.398411483487106",
      "lat": "38.70846807814043"
    },
    {
      "id": "pt.ine.add.PTCONT.2737788",
      "street": "R LISBOA",
      "house": "5",
      "postcode": "2765-240",
      "city": "ESTORIL",
      "lon": "-9.398411483487106",
      "lat": "38.70846807814043"
    },
    {
      "id": "pt.ine.add.PTCONT.2737789",
      "street": "R LISBOA",
      "house": "5",
      "postcode": "2765-240",
      "city": "ESTORIL",
      "lon": "-9.398411483487106",
      "lat": "38.70846807814043"
    },
    {
      "id": "pt.ine.add.PTCONT.2744237",
      "street": "R LISBOA",
      "house": "5",
      "postcode": "2765-240",
      "city": "ESTORIL",
      "lon": "-9.398411483487106",
      "lat": "38.70846807814043"
    },
    {
      "id": "pt.ine.add.PTCONT.2764835",
      "street": "R MELO E SOUSA",
      "house": "534",
      "postcode": "2765-253",
      "city": "ESTORIL",
      "lon": "-9.398870448744105",
      "lat": "38.708418071426394"
    },
    {
      "id": "pt.ine.add.PTCONT.2764836",
      "street": "R MELO E SOUSA",
      "house": "534",
      "postcode": "2765-253",
      "city": "ESTORIL",
      "lon": "-9.398870448744105",
      "lat": "38.708418071426394"
    },
    {
      "id": "pt.ine.add.PTCONT.2856750",
      "street": "R MELO E SOUSA",
      "house": "16",
      "postcode": "2765-253",
      "city": "ESTORIL",
      "lon": "-9.39891350716629",
      "lat": "38.70890402207691"
    },
    {
      "id": "pt.ine.add.PTCONT.2863145",
      "street": "R LISBOA",
      "house": "1",
      "postcode": "2765-240",
      "city": "ESTORIL",
      "lon": "-9.398883907581826",
      "lat": "38.707877462518134"
    },
    {
      "id": "pt.ine.add.PTCONT.2863134",
      "street": "R LISBOA",
      "house": "1",
      "postcode": "2765-240",
      "city": "ESTORIL",
      "lon": "-9.398883907581826",
      "lat": "38.707877462518134"
    },
    {
      "id": "pt.ine.add.PTCONT.2863135",
      "street": "R LISBOA",
      "house": "1",
      "postcode": "2765-240",
      "city": "ESTORIL",
      "lon": "-9.398883907581826",
      "lat": "38.707877462518134"
    },
    {
      "id": "pt.ine.add.PTCONT.2863136",
      "street": "R LISBOA",
      "house": "1",
      "postcode": "2765-240",
      "city": "ESTORIL",
      "lon": "-9.398883907581826",
      "lat": "38.707877462518134"
    },
    {
      "id": "pt.ine.add.PTCONT.2863137",
      "street": "R LISBOA",
      "house": "1",
      "postcode": "2765-240",
      "city": "ESTORIL",
      "lon": "-9.398883907581826",
      "lat": "38.707877462518134"
    },
    {
      "id": "pt.ine.add.PTCONT.2863138",
      "street": "R LISBOA",
      "house": "1",
      "postcode": "2765-240",
      "city": "ESTORIL",
      "lon": "-9.398883907581826",
      "lat": "38.707877462518134"
    },
    {
      "id": "pt.ine.add.PTCONT.2863139",
      "street": "R LISBOA",
      "house": "1",
      "postcode": "2765-240",
      "city": "ESTORIL",
      "lon": "-9.398883907581826",
      "lat": "38.707877462518134"
    },
    {
      "id": "pt.ine.add.PTCONT.2863140",
      "street": "R LISBOA",
      "house": "1",
      "postcode": "2765-240",
      "city": "ESTORIL",
      "lon": "-9.398883907581826",
      "lat": "38.707877462518134"
    },
    {
      "id": "pt.ine.add.PTCONT.2863141",
      "street": "R LISBOA",
      "house": "1",
      "postcode": "2765-240",
      "city": "ESTORIL",
      "lon": "-9.398883907581826",
      "lat": "38.707877462518134"
    },
    {
      "id": "pt.ine.add.PTCONT.2863142",
      "street": "R LISBOA",
      "house": "1",
      "postcode": "2765-240",
      "city": "ESTORIL",
      "lon": "-9.398883907581826",
      "lat": "38.707877462518134"
    },
    {
      "id": "pt.ine.add.PTCONT.2863143",
      "street": "R LISBOA",
      "house": "1",
      "postcode": "2765-240",
      "city": "ESTORIL",
      "lon": "-9.398883907581826",
      "lat": "38.707877462518134"
    },
    {
      "id": "pt.ine.add.PTCONT.2863144",
      "street": "R LISBOA",
      "house": "1",
      "postcode": "2765-240",
      "city": "ESTORIL",
      "lon": "-9.398883907581826",
      "lat": "38.707877462518134"
    },
    {
      "id": "pt.ine.add.PTCONT.2863146",
      "street": "R LISBOA",
      "house": "1",
      "postcode": "2765-240",
      "city": "ESTORIL",
      "lon": "-9.398883907581826",
      "lat": "38.707877462518134"
    },
    {
      "id": "pt.ine.add.PTCONT.2863147",
      "street": "R LISBOA",
      "house": "1",
      "postcode": "2765-240",
      "city": "ESTORIL",
      "lon": "-9.398883907581826",
      "lat": "38.707877462518134"
    },
    {
      "id": "pt.ine.add.PTCONT.2863148",
      "street": "R LISBOA",
      "house": "1",
      "postcode": "2765-240",
      "city": "ESTORIL",
      "lon": "-9.398883907581826",
      "lat": "38.707877462518134"
    },
    {
      "id": "pt.ine.add.PTCONT.2863149",
      "street": "R LISBOA",
      "house": "1",
      "postcode": "2765-240",
      "city": "ESTORIL",
      "lon": "-9.398883907581826",
      "lat": "38.707877462518134"
    },
    {
      "id": "pt.ine.add.PTCONT.2863150",
      "street": "R LISBOA",
      "house": "1",
      "postcode": "2765-240",
      "city": "ESTORIL",
      "lon": "-9.398883907581826",
      "lat": "38.707877462518134"
    },
    {
      "id": "pt.ine.add.PTCONT.2863151",
      "street": "R LISBOA",
      "house": "1",
      "postcode": "2765-240",
      "city": "ESTORIL",
      "lon": "-9.398883907581826",
      "lat": "38.707877462518134"
    },
    {
      "id": "pt.ine.add.PTCONT.2863152",
      "street": "R LISBOA",
      "house": "1",
      "postcode": "2765-240",
      "city": "ESTORIL",
      "lon": "-9.398883907581826",
      "lat": "38.707877462518134"
    },
    {
      "id": "pt.ine.add.PTCONT.2863187",
      "street": "R LISBOA",
      "house": "1",
      "postcode": "2765-240",
      "city": "ESTORIL",
      "lon": "-9.398883907581826",
      "lat": "38.707877462518134"
    },
    {
      "id": "pt.ine.add.PTCONT.2863188",
      "street": "R LISBOA",
      "house": "1",
      "postcode": "2765-240",
      "city": "ESTORIL",
      "lon": "-9.398883907581826",
      "lat": "38.707877462518134"
    },
    {
      "id": "pt.ine.add.PTCONT.2863189",
      "street": "R LISBOA",
      "house": "1",
      "postcode": "2765-240",
      "city": "ESTORIL",
      "lon": "-9.398883907581826",
      "lat": "38.707877462518134"
    },
    {
      "id": "pt.ine.add.PTCONT.2863190",
      "street": "R LISBOA",
      "house": "1",
      "postcode": "2765-240",
      "city": "ESTORIL",
      "lon": "-9.398883907581826",
      "lat": "38.707877462518134"
    },
    {
      "id": "pt.ine.add.PTCONT.2863191",
      "street": "R LISBOA",
      "house": "1",
      "postcode": "2765-240",
      "city": "ESTORIL",
      "lon": "-9.398883907581826",
      "lat": "38.707877462518134"
    },
    {
      "id": "pt.ine.add.PTCONT.2863192",
      "street": "R LISBOA",
      "house": "1",
      "postcode": "2765-240",
      "city": "ESTORIL",
      "lon": "-9.398883907581826",
      "lat": "38.707877462518134"
    },
    {
      "id": "pt.ine.add.PTCONT.2863193",
      "street": "R LISBOA",
      "house": "1",
      "postcode": "2765-240",
      "city": "ESTORIL",
      "lon": "-9.398883907581826",
      "lat": "38.707877462518134"
    },
    {
      "id": "pt.ine.add.PTCONT.2863194",
      "street": "R LISBOA",
      "house": "1",
      "postcode": "2765-240",
      "city": "ESTORIL",
      "lon": "-9.398883907581826",
      "lat": "38.707877462518134"
    },
    {
      "id": "pt.ine.add.PTCONT.2863195",
      "street": "R LISBOA",
      "house": "1",
      "postcode": "2765-240",
      "city": "ESTORIL",
      "lon": "-9.398883907581826",
      "lat": "38.707877462518134"
    },
    {
      "id": "pt.ine.add.PTCONT.2863196",
      "street": "R LISBOA",
      "house": "1",
      "postcode": "2765-240",
      "city": "ESTORIL",
      "lon": "-9.398883907581826",
      "lat": "38.707877462518134"
    },
    {
      "id": "pt.ine.add.PTCONT.2863197",
      "street": "R LISBOA",
      "house": "1",
      "postcode": "2765-240",
      "city": "ESTORIL",
      "lon": "-9.398883907581826",
      "lat": "38.707877462518134"
    },
    {
      "id": "pt.ine.add.PTCONT.2863199",
      "street": "R LISBOA",
      "house": "1",
      "postcode": "2765-240",
      "city": "ESTORIL",
      "lon": "-9.398883907581826",
      "lat": "38.707877462518134"
    },
    {
      "id": "pt.ine.add.PTCONT.2863200",
      "street": "R LISBOA",
      "house": "1",
      "postcode": "2765-240",
      "city": "ESTORIL",
      "lon": "-9.398883907581826",
      "lat": "38.707877462518134"
    },
    {
      "id": "pt.ine.add.PTCONT.2863201",
      "street": "R LISBOA",
      "house": "1",
      "postcode": "2765-240",
      "city": "ESTORIL",
      "lon": "-9.398883907581826",
      "lat": "38.707877462518134"
    },
    {
      "id": "pt.ine.add.PTCONT.2863202",
      "street": "R LISBOA",
      "house": "1",
      "postcode": "2765-240",
      "city": "ESTORIL",
      "lon": "-9.398883907581826",
      "lat": "38.707877462518134"
    },
    {
      "id": "pt.ine.add.PTCONT.2863203",
      "street": "R LISBOA",
      "house": "1",
      "postcode": "2765-240",
      "city": "ESTORIL",
      "lon": "-9.398883907581826",
      "lat": "38.707877462518134"
    },
    {
      "id": "pt.ine.add.PTCONT.2863204",
      "street": "R LISBOA",
      "house": "1",
      "postcode": "2765-240",
      "city": "ESTORIL",
      "lon": "-9.398883907581826",
      "lat": "38.707877462518134"
    },
    {
      "id": "pt.ine.add.PTCONT.2863205",
      "street": "R LISBOA",
      "house": "1",
      "postcode": "2765-240",
      "city": "ESTORIL",
      "lon": "-9.398883907581826",
      "lat": "38.707877462518134"
    },
    {
      "id": "pt.ine.add.PTCONT.2863206",
      "street": "R LISBOA",
      "house": "1",
      "postcode": "2765-240",
      "city": "ESTORIL",
      "lon": "-9.398883907581826",
      "lat": "38.707877462518134"
    },
    {
      "id": "pt.ine.add.PTCONT.2863207",
      "street": "R LISBOA",
      "house": "1",
      "postcode": "2765-240",
      "city": "ESTORIL",
      "lon": "-9.398883907581826",
      "lat": "38.707877462518134"
    },
    {
      "id": "pt.ine.add.PTCONT.2863208",
      "street": "R LISBOA",
      "house": "1",
      "postcode": "2765-240",
      "city": "ESTORIL",
      "lon": "-9.398883907581826",
      "lat": "38.707877462518134"
    },
    {
      "id": "pt.ine.add.PTCONT.2863209",
      "street": "R LISBOA",
      "house": "1",
      "postcode": "2765-240",
      "city": "ESTORIL",
      "lon": "-9.398883907581826",
      "lat": "38.707877462518134"
    },
    {
      "id": "pt.ine.add.PTCONT.2863210",
      "street": "R LISBOA",
      "house": "1",
      "postcode": "2765-240",
      "city": "ESTORIL",
      "lon": "-9.398883907581826",
      "lat": "38.707877462518134"
    },
    {
      "id": "pt.ine.add.PTCONT.2863211",
      "street": "R LISBOA",
      "house": "1",
      "postcode": "2765-240",
      "city": "ESTORIL",
      "lon": "-9.398883907581826",
      "lat": "38.707877462518134"
    },
    {
      "id": "pt.ine.add.PTCONT.2863212",
      "street": "R LISBOA",
      "house": "1",
      "postcode": "2765-240",
      "city": "ESTORIL",
      "lon": "-9.398883907581826",
      "lat": "38.707877462518134"
    },
    {
      "id": "pt.ine.add.PTCONT.2863213",
      "street": "R LISBOA",
      "house": "1",
      "postcode": "2765-240",
      "city": "ESTORIL",
      "lon": "-9.398883907581826",
      "lat": "38.707877462518134"
    },
    {
      "id": "pt.ine.add.PTCONT.2863214",
      "street": "R LISBOA",
      "house": "1",
      "postcode": "2765-240",
      "city": "ESTORIL",
      "lon": "-9.398883907581826",
      "lat": "38.707877462518134"
    },
    {
      "id": "pt.ine.add.PTCONT.2863215",
      "street": "R LISBOA",
      "house": "1",
      "postcode": "2765-240",
      "city": "ESTORIL",
      "lon": "-9.398883907581826",
      "lat": "38.707877462518134"
    },
    {
      "id": "pt.ine.add.PTCONT.2863216",
      "street": "R LISBOA",
      "house": "1",
      "postcode": "2765-240",
      "city": "ESTORIL",
      "lon": "-9.398883907581826",
      "lat": "38.707877462518134"
    },
    {
      "id": "pt.ine.add.PTCONT.2869168",
      "street": "R LISBOA",
      "house": "1",
      "postcode": "2765-240",
      "city": "ESTORIL",
      "lon": "-9.398883907581826",
      "lat": "38.707877462518134"
    },
    {
      "id": "pt.ine.add.PTCONT.2869575",
      "street": "R LISBOA",
      "house": "1",
      "postcode": "2765-240",
      "city": "ESTORIL",
      "lon": "-9.398883907581826",
      "lat": "38.707877462518134"
    },
    {
      "id": "pt.ine.add.PTCONT.2871738",
      "street": "R PROF DR EGAS MONIZ CASA ALVA",
      "house": "9",
      "postcode": "2765-218",
      "city": "ESTORIL",
      "lon": "-9.398177505025544",
      "lat": "38.70954252875401"
    },
    {
      "id": "pt.ine.add.PTCONT.2871739",
      "street": "R PROF DR EGAS MONIZ",
      "house": "S",
      "postcode": "2765-218",
      "city": "ESTORIL",
      "lon": "-9.398090538163647",
      "lat": "38.70917415329812"
    }
  ]
}