{
  "data": {
    "distrito": "Braga",
    "concelho": "Vila Nova de Famalicão",
    "freguesia": "União das freguesias de Vale (São Cosme), Telhado e Portela",
    "OBJECTID": 1484,
    "BGRI2021": "03125900321",
    "DT21": "03",
    "DTMN21": "0312",
    "DTMNFR21": "031259",
    "DTMNFRSEC21": "031259003",
    "SECNUM21": "003",
    "SSNUM21": "21",
    "SECSSNUM21": "00321",
    "OBJECTID_1": 31378,
    "DT": "03",
    "CC": "12",
    "fr": "59",
    "SEC": "003",
    "SS": "21"
  },
  "addresses": [
    {
      "id": "pt.ine.add.PTCONT.463965",
      "street": "AV AZIVEIRO",
      "house": "655",
      "postcode": "4770-702",
      "city": "TELHADO VNF",
      "lon": "-8.45516645093445",
      "lat": "41.44590953654342"
    },
    {
      "id": "pt.ine.add.PTCONT.469738",
      "street": "AV AZIVEIRO",
      "house": "1025",
      "postcode": "4770-702",
      "city": "TELHADO VNF",
      "lon": "-8.452877511388964",
      "lat": "41.447671685463895"
    },
    {
      "id": "pt.ine.add.PTCONT.483857",
      "street": "AV RAPOSEIRA",
      "house": "664",
      "postcode": "4770-718",
      "city": "TELHADO VNF",
      "lon": "-8.456954409828878",
      "lat": "41.449307997356684"
    },
    {
      "id": "pt.ine.add.PTCONT.487842",
      "street": "R FULAO",
      "house": "230",
      "postcode": "4770-704",
      "city": "TELHADO VNF",
      "lon": "-8.459128293265818",
      "lat": "41.44608745950946"
    },
    {
      "id": "pt.ine.add.PTCONT.491164",
      "street": "AV AZIVEIRO",
      "house": "1163",
      "postcode": "4770-702",
      "city": "TELHADO VNF",
      "lon": "-8.452667985328215",
      "lat": "41.44886978835775"
    },
    {
      "id": "pt.ine.add.PTCONT.503021",
      "street": "R LAGE",
      "house": "63",
      "postcode": "4770-702",
      "city": "TELHADO VNF",
      "lon": "-8.453414732368309",
      "lat": "41.44740907738579"
    },
    {
      "id": "pt.ine.add.PTCONT.508217",
      "street": "AV RAPOSEIRA",
      "house": "684",
      "postcode": "4770-718",
      "city": "TELHADO VNF",
      "lon": "-8.456476620862285",
      "lat": "41.44948941962381"
    },
    {
      "id": "pt.ine.add.PTCONT.508225",
      "street": "AV AZIVEIRO",
      "house": "889",
      "postcode": "4770-702",
      "city": "TELHADO VNF",
      "lon": "-8.452800760511108",
      "lat": "41.446663460111"
    },
    {
      "id": "pt.ine.add.PTCONT.516603",
      "street": "AV AZIVEIRO",
      "house": "807",
      "postcode": "4770-702",
      "city": "TELHADO VNF",
      "lon": "-8.453445229591106",
      "lat": "41.44631051458863"
    },
    {
      "id": "pt.ine.add.PTCONT.521311",
      "street": "AV RAPOSEIRA",
      "house": "728",
      "postcode": "4770-718",
      "city": "TELHADO VNF",
      "lon": "-8.456741508195822",
      "lat": "41.44981281558827"
    },
    {
      "id": "pt.ine.add.PTCONT.532952",
      "street": "AV AZIVEIRO",
      "house": "1377",
      "postcode": "4770-702",
      "city": "TELHADO VNF",
      "lon": "-8.452411112581585",
      "lat": "41.45017606899527"
    },
    {
      "id": "pt.ine.add.PTCONT.558315",
      "street": "AV RAPOSEIRA",
      "house": "684",
      "postcode": "4770-718",
      "city": "TELHADO VNF",
      "lon": "-8.45651207505513",
      "lat": "41.44939928083319"
    },
    {
      "id": "pt.ine.add.PTCONT.559627",
      "street": "AV AZIVEIRO",
      "house": "1123",
      "postcode": "4770-702",
      "city": "TELHADO VNF",
      "lon": "-8.452641798235234",
      "lat": "41.44841066146495"
    },
    {
      "id": "pt.ine.add.PTCONT.564819",
      "street": "AV AZIVEIRO",
      "house": "1019",
      "postcode": "4770-702",
      "city": "TELHADO VNF",
      "lon": "-8.453055553416302",
      "lat": "41.447374061210375"
    },
    {
      "id": "pt.ine.add.PTCONT.572412",
      "street": "AV RAPOSEIRA",
      "house": "302",
      "postcode": "4770-718",
      "city": "TELHADO VNF",
      "lon": "-8.459323590348639",
      "lat": "41.44685223883356"
    },
    {
      "id": "pt.ine.add.PTCONT.579774",
      "street": "AV AZIVEIRO",
      "house": "1529",
      "postcode": "4770-702",
      "city": "TELHADO VNF",
      "lon": "-8.453310869427083",
      "lat": "41.450623763709466"
    },
    {
      "id": "pt.ine.add.PTCONT.590860",
      "street": "AV RAPOSEIRA",
      "house": "298",
      "postcode": "4770-718",
      "city": "TELHADO VNF",
      "lon": "-8.459562245853013",
      "lat": "41.446716503101136"
    },
    {
      "id": "pt.ine.add.PTCONT.590861",
      "street": "AV RAPOSEIRA",
      "house": "298",
      "postcode": "4770-718",
      "city": "TELHADO VNF",
      "lon": "-8.459562245853013",
      "lat": "41.446716503101136"
    },
    {
      "id": "pt.ine.add.PTCONT.593814",
      "street": "AV RAPOSEIRA",
      "house": "704",
      "postcode": "4770-718",
      "city": "TELHADO VNF",
      "lon": "-8.456788884596454",
      "lat": "41.44971363926498"
    },
    {
      "id": "pt.ine.add.PTCONT.608884",
      "street": "AV AZIVEIRO",
      "house": "777",
      "postcode": "4770-702",
      "city": "TELHADO VNF",
      "lon": "-8.453719883612411",
      "lat": "41.4461926985475"
    },
    {
      "id": "pt.ine.add.PTCONT.608885",
      "street": "AV AZIVEIRO",
      "house": "777",
      "postcode": "4770-702",
      "city": "TELHADO VNF",
      "lon": "-8.453719883612411",
      "lat": "41.4461926985475"
    },
    {
      "id": "pt.ine.add.PTCONT.608886",
      "street": "AV AZIVEIRO",
      "house": "776",
      "postcode": "4770-702",
      "city": "TELHADO VNF",
      "lon": "-8.453719883612411",
      "lat": "41.4461926985475"
    },
    {
      "id": "pt.ine.add.PTCONT.615107",
      "street": "TV AZIVEIRO",
      "house": "25",
      "postcode": "4770-702",
      "city": "TELHADO VNF",
      "lon": "-8.453012418871298",
      "lat": "41.448337600128795"
    },
    {
      "id": "pt.ine.add.PTCONT.651683",
      "street": "AV RAPOSEIRA",
      "house": "740",
      "postcode": "4770-718",
      "city": "TELHADO VNF",
      "lon": "-8.456502567185872",
      "lat": "41.44989452274078"
    },
    {
      "id": "pt.ine.add.PTCONT.652972",
      "street": "AV RAPOSEIRA",
      "house": "684",
      "postcode": "4770-718",
      "city": "TELHADO VNF",
      "lon": "-8.456764279045947",
      "lat": "41.449578649808316"
    },
    {
      "id": "pt.ine.add.PTCONT.667843",
      "street": "AV AZIVEIRO",
      "house": "1535",
      "postcode": "4770-702",
      "city": "TELHADO VNF",
      "lon": "-8.453563290952603",
      "lat": "41.45084815861612"
    },
    {
      "id": "pt.ine.add.PTCONT.670385",
      "street": "R FULAO",
      "house": "16",
      "postcode": "4770-704",
      "city": "TELHADO VNF",
      "lon": "-8.456946632240975",
      "lat": "41.44533729232089"
    },
    {
      "id": "pt.ine.add.PTCONT.685086",
      "street": "AV RAPOSEIRA",
      "house": "332",
      "postcode": "4770-718",
      "city": "TELHADO VNF",
      "lon": "-8.459168429928345",
      "lat": "41.446933713952966"
    },
    {
      "id": "pt.ine.add.PTCONT.745419",
      "street": "AV AZIVEIRO",
      "house": "1515 A",
      "postcode": "4770-702",
      "city": "TELHADO VNF",
      "lon": "-8.453168456390168",
      "lat": "41.45086726561121"
    },
    {
      "id": "pt.ine.add.PTCONT.745420",
      "street": "AV AZIVEIRO",
      "house": "1515 B",
      "postcode": "4770-702",
      "city": "TELHADO VNF",
      "lon": "-8.453168456390168",
      "lat": "41.45086726561121"
    },
    {
      "id": "pt.ine.add.PTCONT.777745",
      "street": "AV RAPOSEIRA",
      "house": "654",
      "postcode": "4770-718",
      "city": "TELHADO VNF",
      "lon": "-8.456834470491303",
      "lat": "41.449254311453245"
    },
    {
      "id": "pt.ine.add.PTCONT.787093",
      "street": "AV AZIVEIRO",
      "house": "1581",
      "postcode": "4770-702",
      "city": "TELHADO VNF",
      "lon": "-8.453935299560907",
      "lat": "41.45105421169128"
    },
    {
      "id": "pt.ine.add.PTCONT.787094",
      "street": "AV AZIVEIRO",
      "house": "1227",
      "postcode": "4770-702",
      "city": "TELHADO VNF",
      "lon": "-8.452490511533428",
      "lat": "41.449284461236104"
    },
    {
      "id": "pt.ine.add.PTCONT.792603",
      "street": "TV SA CARNEIRO",
      "house": "55",
      "postcode": "4770-718",
      "city": "TELHADO VNF",
      "lon": "-8.456022852810689",
      "lat": "41.44968878030424"
    },
    {
      "id": "pt.ine.add.PTCONT.794605",
      "street": "AV AZIVEIRO",
      "house": "579",
      "postcode": "4770-702",
      "city": "TELHADO VNF",
      "lon": "-8.455811881129966",
      "lat": "41.44575466125293"
    },
    {
      "id": "pt.ine.add.PTCONT.794606",
      "street": "AV AZIVEIRO",
      "house": "455",
      "postcode": "4770-702",
      "city": "TELHADO VNF",
      "lon": "-8.457376255276682",
      "lat": "41.4451019802547"
    },
    {
      "id": "pt.ine.add.PTCONT.814509",
      "street": "AV AZIVEIRO",
      "house": "1021",
      "postcode": "4770-702",
      "city": "TELHADO VNF",
      "lon": "-8.452948781456891",
      "lat": "41.44756344034839"
    },
    {
      "id": "pt.ine.add.PTCONT.816105",
      "street": "R SA CARNEIRO",
      "house": "34",
      "postcode": "4770-718",
      "city": "TELHADO VNF",
      "lon": "-8.456122341547477",
      "lat": "41.4504448295856"
    },
    {
      "id": "pt.ine.add.PTCONT.816109",
      "street": "AV AZIVEIRO",
      "house": "599",
      "postcode": "4770-702",
      "city": "TELHADO VNF",
      "lon": "-8.455836750905089",
      "lat": "41.44594367377421"
    },
    {
      "id": "pt.ine.add.PTCONT.820369",
      "street": "AV SÁ CARNEIRO",
      "house": "",
      "postcode": "4770-718",
      "city": "TELHADO VNF",
      "lon": "-8.456107783989783",
      "lat": "41.44992264358974"
    },
    {
      "id": "pt.ine.add.PTCONT.822946",
      "street": "AV AZIVEIRO",
      "house": "1497",
      "postcode": "4770-702",
      "city": "TELHADO VNF",
      "lon": "-8.452894091216805",
      "lat": "41.4510481068279"
    },
    {
      "id": "pt.ine.add.PTCONT.822947",
      "street": "AV AZIVEIRO",
      "house": "1493",
      "postcode": "4770-702",
      "city": "TELHADO VNF",
      "lon": "-8.452894091216805",
      "lat": "41.4510481068279"
    },
    {
      "id": "pt.ine.add.PTCONT.822964",
      "street": "AV RAPOSEIRA",
      "house": "248",
      "postcode": "4770-718",
      "city": "TELHADO VNF",
      "lon": "-8.459860688057738",
      "lat": "41.44657159315839"
    },
    {
      "id": "pt.ine.add.PTCONT.823441",
      "street": "AV AZIVEIRO",
      "house": "1493",
      "postcode": "4770-702",
      "city": "TELHADO VNF",
      "lon": "-8.452894091216805",
      "lat": "41.4510481068279"
    },
    {
      "id": "pt.ine.add.PTCONT.832147",
      "street": "AV AZIVEIRO",
      "house": "1017",
      "postcode": "4770-702",
      "city": "TELHADO VNF",
      "lon": "-8.45266113735963",
      "lat": "41.44747420054134"
    },
    {
      "id": "pt.ine.add.PTCONT.845343",
      "street": "AV RAPOSEIRA",
      "house": "576",
      "postcode": "4770-718",
      "city": "TELHADO VNF",
      "lon": "-8.457225888375962",
      "lat": "41.44855090408288"
    }
  ]
}