{
  "data": {
    "distrito": "Leiria",
    "concelho": "Ã“bidos",
    "freguesia": "Olho Marinho",
    "OBJECTID": 310,
    "BGRI2021": "10120300119",
    "DT21": "10",
    "DTMN21": "1012",
    "DTMNFR21": "101203",
    "DTMNFRSEC21": "101203001",
    "SECNUM21": "001",
    "SSNUM21": "19",
    "SECSSNUM21": "00119",
    "OBJECTID_1": 93344,
    "DT": "10",
    "CC": "12",
    "fr": "03",
    "SEC": "001",
    "SS": "19"
  },
  "addresses": [
    {
      "id": "pt.ine.add.PTCONT.1987682",
      "street": "R PRINCIPAL",
      "house": "90",
      "postcode": "2510-552",
      "city": "OLHO MARINHO",
      "lon": "-9.232519099778425",
      "lat": "39.32865516315837"
    },
    {
      "id": "pt.ine.add.PTCONT.1987686",
      "street": "R 1 DE JANEIRO",
      "house": "5",
      "postcode": "2510-511",
      "city": "OLHO MARINHO",
      "lon": "-9.232782552455014",
      "lat": "39.32844551531287"
    },
    {
      "id": "pt.ine.add.PTCONT.1992270",
      "street": "R ANTIGA",
      "house": "6",
      "postcode": "2510-561",
      "city": "OLHO MARINHO",
      "lon": "-9.232010201634278",
      "lat": "39.32800246431093"
    },
    {
      "id": "pt.ine.add.PTCONT.2014092",
      "street": "R ANTIGA",
      "house": "11",
      "postcode": "2510-561",
      "city": "OLHO MARINHO",
      "lon": "-9.231678624774705",
      "lat": "39.32756425557143"
    },
    {
      "id": "pt.ine.add.PTCONT.2018340",
      "street": "R ANTIGA",
      "house": "9",
      "postcode": "2510-561",
      "city": "OLHO MARINHO",
      "lon": "-9.231657547786208",
      "lat": "39.32769955823606"
    },
    {
      "id": "pt.ine.add.PTCONT.2021896",
      "street": "R PRINCIPAL",
      "house": "86",
      "postcode": "2510-552",
      "city": "OLHO MARINHO",
      "lon": "-9.232602243049334",
      "lat": "39.328780474550946"
    },
    {
      "id": "pt.ine.add.PTCONT.2027171",
      "street": "R PEREIRAS",
      "house": "S",
      "postcode": "2510-551",
      "city": "OLHO MARINHO",
      "lon": "-9.233031419409969",
      "lat": "39.32878542641378"
    },
    {
      "id": "pt.ine.add.PTCONT.2028427",
      "street": "R PRINCIPAL",
      "house": "74",
      "postcode": "2510-552",
      "city": "OLHO MARINHO",
      "lon": "-9.23298077838359",
      "lat": "39.329254264421834"
    },
    {
      "id": "pt.ine.add.PTCONT.2028428",
      "street": "R 5 DE MARCO DE 1925",
      "house": "5",
      "postcode": "2510-516",
      "city": "OLHO MARINHO",
      "lon": "-9.23235013500756",
      "lat": "39.328233434114004"
    },
    {
      "id": "pt.ine.add.PTCONT.2033573",
      "street": "R PRINCIPAL",
      "house": "82",
      "postcode": "2510-552",
      "city": "OLHO MARINHO",
      "lon": "-9.232779138626205",
      "lat": "39.32896794852258"
    },
    {
      "id": "pt.ine.add.PTCONT.2042582",
      "street": "R PEREIRAS",
      "house": "",
      "postcode": "2510-551",
      "city": "OLHO MARINHO",
      "lon": "-9.233087139495119",
      "lat": "39.32864078922412"
    },
    {
      "id": "pt.ine.add.PTCONT.2044730",
      "street": "R 1 DE JANEIRO",
      "house": "1",
      "postcode": "2510-511",
      "city": "OLHO MARINHO",
      "lon": "-9.233248206712823",
      "lat": "39.328558204688804"
    },
    {
      "id": "pt.ine.add.PTCONT.2046892",
      "street": "R PEREIRAS",
      "house": "3",
      "postcode": "2510-551",
      "city": "OLHO MARINHO",
      "lon": "-9.232962551559282",
      "lat": "39.32883111177845"
    },
    {
      "id": "pt.ine.add.PTCONT.2049146",
      "street": "R ANTIGA",
      "house": "10",
      "postcode": "2510-561",
      "city": "OLHO MARINHO",
      "lon": "-9.231915887808578",
      "lat": "39.32790427867195"
    },
    {
      "id": "pt.ine.add.PTCONT.2055947",
      "street": "R IMACULADO CORACAO DE MARIA",
      "house": "4",
      "postcode": "2510-539",
      "city": "OLHO MARINHO",
      "lon": "-9.231665056614599",
      "lat": "39.32743828681795"
    },
    {
      "id": "pt.ine.add.PTCONT.2063461",
      "street": "R ANTIGA",
      "house": "3",
      "postcode": "2510-561",
      "city": "OLHO MARINHO",
      "lon": "-9.232174229338286",
      "lat": "39.32810899850599"
    },
    {
      "id": "pt.ine.add.PTCONT.2069555",
      "street": "R 5 DE MARCO DE 1925",
      "house": "3",
      "postcode": "2510-516",
      "city": "OLHO MARINHO",
      "lon": "-9.232431867289772",
      "lat": "39.32826868982856"
    },
    {
      "id": "pt.ine.add.PTCONT.2077382",
      "street": "R ANTIGA",
      "house": "ZA",
      "postcode": "2510-561",
      "city": "OLHO MARINHO",
      "lon": "-9.232104233777099",
      "lat": "39.328082638701645"
    },
    {
      "id": "pt.ine.add.PTCONT.2081222",
      "street": "R IMACULADO CORACAO DE MARIA",
      "house": "6",
      "postcode": "2510-539",
      "city": "OLHO MARINHO",
      "lon": "-9.231770401085978",
      "lat": "39.32750034088893"
    },
    {
      "id": "pt.ine.add.PTCONT.2090740",
      "street": "R 5 DE MARCO DE 1925",
      "house": "8",
      "postcode": "2510-516",
      "city": "OLHO MARINHO",
      "lon": "-9.232595191059465",
      "lat": "39.328330195499994"
    },
    {
      "id": "pt.ine.add.PTCONT.2099138",
      "street": "R PRINCIPAL",
      "house": "80",
      "postcode": "2510-552",
      "city": "OLHO MARINHO",
      "lon": "-9.232872608642474",
      "lat": "39.329012099930424"
    },
    {
      "id": "pt.ine.add.PTCONT.2101491",
      "street": "R PRINCIPAL",
      "house": "76",
      "postcode": "2510-552",
      "city": "OLHO MARINHO",
      "lon": "-9.23292195374658",
      "lat": "39.32920077882016"
    },
    {
      "id": "pt.ine.add.PTCONT.2114973",
      "street": "R IMACULADO CORACAO DE MARIA",
      "house": "18",
      "postcode": "2510-539",
      "city": "OLHO MARINHO",
      "lon": "-9.232042168594576",
      "lat": "39.32782202419851"
    },
    {
      "id": "pt.ine.add.PTCONT.2125874",
      "street": "R IMACULADO CORACAO DE MARIA",
      "house": "8",
      "postcode": "2510-539",
      "city": "OLHO MARINHO",
      "lon": "-9.23186443227344",
      "lat": "39.32758051549358"
    },
    {
      "id": "pt.ine.add.PTCONT.2127227",
      "street": "R 5 DE MARCO DE 1925",
      "house": "1",
      "postcode": "2510-516",
      "city": "OLHO MARINHO",
      "lon": "-9.23245604536072",
      "lat": "39.3283315098584"
    },
    {
      "id": "pt.ine.add.PTCONT.2136804",
      "street": "R 1 DE JANEIRO",
      "house": "3",
      "postcode": "2510-511",
      "city": "OLHO MARINHO",
      "lon": "-9.23310835506714",
      "lat": "39.32851449193662"
    },
    {
      "id": "pt.ine.add.PTCONT.2156369",
      "street": "R IMACULADO CORACAO DE MARIA",
      "house": "20",
      "postcode": "2510-539",
      "city": "OLHO MARINHO",
      "lon": "-9.232124323169824",
      "lat": "39.327884296891305"
    },
    {
      "id": "pt.ine.add.PTCONT.2175949",
      "street": "R JOGO",
      "house": "3",
      "postcode": "2510-542",
      "city": "OLHO MARINHO",
      "lon": "-9.233228402595097",
      "lat": "39.32877455778594"
    },
    {
      "id": "pt.ine.add.PTCONT.2189224",
      "street": "R PEREIRAS",
      "house": "2",
      "postcode": "2510-551",
      "city": "OLHO MARINHO",
      "lon": "-9.23306874588032",
      "lat": "39.3289471980888"
    },
    {
      "id": "pt.ine.add.PTCONT.2191423",
      "street": "R 5 DE MARCO DE 1925",
      "house": "2",
      "postcode": "2510-516",
      "city": "OLHO MARINHO",
      "lon": "-9.232471730496572",
      "lat": "39.32859256219996"
    },
    {
      "id": "pt.ine.add.PTCONT.2193774",
      "street": "R IMACULADO CORACAO DE MARIA",
      "house": "10",
      "postcode": "2510-539",
      "city": "OLHO MARINHO",
      "lon": "-9.231900064006117",
      "lat": "39.32763422060919"
    },
    {
      "id": "pt.ine.add.PTCONT.2193775",
      "street": "R IMACULADO CORACAO DE MARIA",
      "house": "14",
      "postcode": "2510-539",
      "city": "OLHO MARINHO",
      "lon": "-9.231879833089934",
      "lat": "39.32782355681283"
    },
    {
      "id": "pt.ine.add.PTCONT.2196132",
      "street": "R 5 DE MARCO DE 1925",
      "house": "6",
      "postcode": "2510-516",
      "city": "OLHO MARINHO",
      "lon": "-9.232481069620032",
      "lat": "39.328448363371464"
    },
    {
      "id": "pt.ine.add.PTCONT.2196918",
      "street": "R ANTIGA",
      "house": "4",
      "postcode": "2510-561",
      "city": "OLHO MARINHO",
      "lon": "-9.232068742623248",
      "lat": "39.32803793924147"
    },
    {
      "id": "pt.ine.add.PTCONT.2196919",
      "street": "R ANTIGA",
      "house": "1",
      "postcode": "2510-561",
      "city": "OLHO MARINHO",
      "lon": "-9.23182129237552",
      "lat": "39.32778808178209"
    },
    {
      "id": "pt.ine.add.PTCONT.2200574",
      "street": "R PRINCIPAL",
      "house": "84",
      "postcode": "2510-552",
      "city": "OLHO MARINHO",
      "lon": "-9.23264975362486",
      "lat": "39.32885208103123"
    },
    {
      "id": "pt.ine.add.PTCONT.2206430",
      "street": "R PEREIRAS",
      "house": "4",
      "postcode": "2510-551",
      "city": "OLHO MARINHO",
      "lon": "-9.233125453769587",
      "lat": "39.32886559993746"
    },
    {
      "id": "pt.ine.add.PTCONT.2228362",
      "street": "R PRINCIPAL",
      "house": "78",
      "postcode": "2510-552",
      "city": "OLHO MARINHO",
      "lon": "-9.232931715251175",
      "lat": "39.32908359671994"
    },
    {
      "id": "pt.ine.add.PTCONT.2239967",
      "street": "R RAFAEL DIONISIO MONTEIRO",
      "house": "4",
      "postcode": "2510-553",
      "city": "OLHO MARINHO",
      "lon": "-9.232291452715772",
      "lat": "39.32818895374797"
    },
    {
      "id": "pt.ine.add.PTCONT.2243640",
      "street": "R IMACULADO CORACAO DE MARIA",
      "house": "17",
      "postcode": "2510-539",
      "city": "OLHO MARINHO",
      "lon": "-9.231924664219175",
      "lat": "39.327724057519184"
    },
    {
      "id": "pt.ine.add.PTCONT.2243641",
      "street": "R JOGO",
      "house": "1",
      "postcode": "2510-542",
      "city": "OLHO MARINHO",
      "lon": "-9.233117668132277",
      "lat": "39.32910886015493"
    },
    {
      "id": "pt.ine.add.PTCONT.2260054",
      "street": "R PEREIRAS",
      "house": "",
      "postcode": "2510-551",
      "city": "OLHO MARINHO",
      "lon": "-9.233065218348848",
      "lat": "39.328722058609564"
    }
  ]
}