{
  "data": {
    "distrito": "Vila Real",
    "concelho": "Peso da Régua",
    "freguesia": "União das freguesias de Peso da Régua e Godim",
    "OBJECTID": 288,
    "BGRI2021": "17081500401",
    "DT21": "17",
    "DTMN21": "1708",
    "DTMNFR21": "170815",
    "DTMNFRSEC21": "170815004",
    "SECNUM21": "004",
    "SSNUM21": "01",
    "SECSSNUM21": "00401",
    "OBJECTID_1": 184213,
    "DT": "17",
    "CC": "08",
    "fr": "15",
    "SEC": "004",
    "SS": "01"
  },
  "addresses": [
    {
      "id": "pt.ine.add.PTCONT.5292837",
      "street": "R ALEGRIA",
      "house": "4",
      "postcode": "5050-256",
      "city": "PESO DA RÉGUA",
      "lon": "-7.788991890198043",
      "lat": "41.16045047643744"
    },
    {
      "id": "pt.ine.add.PTCONT.5293670",
      "street": "R ALEGRIA",
      "house": "12",
      "postcode": "5050-256",
      "city": "PESO DA RÉGUA",
      "lon": "-7.788811996769244",
      "lat": "41.160675047924045"
    },
    {
      "id": "pt.ine.add.PTCONT.5296739",
      "street": "R ALEGRIA",
      "house": "8",
      "postcode": "5050-256",
      "city": "PESO DA RÉGUA",
      "lon": "-7.788931847349058",
      "lat": "41.16054034066793"
    },
    {
      "id": "pt.ine.add.PTCONT.5298281",
      "street": "R BARÃO DE FORRESTER",
      "house": "8",
      "postcode": "5050-252",
      "city": "PESO DA RÉGUA",
      "lon": "-7.788384163577666",
      "lat": "41.16046666800165"
    },
    {
      "id": "pt.ine.add.PTCONT.5298939",
      "street": "R ALEGRIA",
      "house": "",
      "postcode": "5050-256",
      "city": "PESO DA RÉGUA",
      "lon": "-7.789087016729769",
      "lat": "41.160486778033416"
    },
    {
      "id": "pt.ine.add.PTCONT.5305107",
      "street": "AV GALIZA",
      "house": "",
      "postcode": "5050-222",
      "city": "PESO DA RÉGUA",
      "lon": "-7.788706746916183",
      "lat": "41.160296550071926"
    },
    {
      "id": "pt.ine.add.PTCONT.5342020",
      "street": "R ALEGRIA",
      "house": "4",
      "postcode": "5050-256",
      "city": "PESO DA RÉGUA",
      "lon": "-7.789039453450734",
      "lat": "41.160468627245216"
    },
    {
      "id": "pt.ine.add.PTCONT.5344665",
      "street": "R ALEGRIA",
      "house": "4",
      "postcode": "5050-256",
      "city": "PESO DA RÉGUA",
      "lon": "-7.788955911610799",
      "lat": "41.16049539075833"
    },
    {
      "id": "pt.ine.add.PTCONT.5358551",
      "street": "R ALEGRIA",
      "house": "20",
      "postcode": "5050-256",
      "city": "PESO DA RÉGUA",
      "lon": "-7.788728266039633",
      "lat": "41.16073782815325"
    },
    {
      "id": "pt.ine.add.PTCONT.5366658",
      "street": "R BARÃO DE FORRESTER",
      "house": "",
      "postcode": "5050-252",
      "city": "PESO DA RÉGUA",
      "lon": "-7.788528173445266",
      "lat": "41.160269002924046"
    },
    {
      "id": "pt.ine.add.PTCONT.5407184",
      "street": "R ALEGRIA",
      "house": "",
      "postcode": "5050-256",
      "city": "PESO DA RÉGUA",
      "lon": "-7.789027209440582",
      "lat": "41.16053162120628"
    },
    {
      "id": "pt.ine.add.PTCONT.5411635",
      "street": "AV JOAO FRANCO",
      "house": "S N",
      "postcode": "5050-226",
      "city": "PESO DA RÉGUA",
      "lon": "-7.788908772340965",
      "lat": "41.16039620192286"
    },
    {
      "id": "pt.ine.add.PTCONT.5411636",
      "street": "AV DR MANUEL ARRIAGA",
      "house": "CASA 8",
      "postcode": "5050-225",
      "city": "PESO DA RÉGUA",
      "lon": "-7.788908772340965",
      "lat": "41.16039620192286"
    }
  ]
}