{
  "data": {
    "distrito": "Coimbra",
    "concelho": "Coimbra",
    "freguesia": "Almalaguês",
    "OBJECTID": 702,
    "BGRI2021": "06030100311",
    "DT21": "06",
    "DTMN21": "0603",
    "DTMNFR21": "060301",
    "DTMNFRSEC21": "060301003",
    "SECNUM21": "003",
    "SSNUM21": "11",
    "SECSSNUM21": "00311",
    "OBJECTID_1": 49212,
    "DT": "06",
    "CC": "03",
    "fr": "01",
    "SEC": "003",
    "SS": "11"
  },
  "addresses": [
    {
      "id": "pt.ine.add.PTCONT.1106330",
      "street": "R MEIO",
      "house": "11",
      "postcode": "3040-483",
      "city": "ALMALAGUÊS",
      "lon": "-8.411220855896953",
      "lat": "40.14732300050747"
    },
    {
      "id": "pt.ine.add.PTCONT.1110503",
      "street": "R ESTRADA REAL",
      "house": "12",
      "postcode": "3040-478",
      "city": "ALMALAGUÊS",
      "lon": "-8.41135095330576",
      "lat": "40.144692949647514"
    },
    {
      "id": "pt.ine.add.PTCONT.1114644",
      "street": "R CHUMBRAS",
      "house": "",
      "postcode": "3040-469",
      "city": "ALMALAGUÊS",
      "lon": "-8.409972717011376",
      "lat": "40.14340840127603"
    },
    {
      "id": "pt.ine.add.PTCONT.1129070",
      "street": "R ESTRADA REAL",
      "house": "",
      "postcode": "3040-478",
      "city": "ALMALAGUÊS",
      "lon": "-8.411578333134852",
      "lat": "40.145773117605216"
    },
    {
      "id": "pt.ine.add.PTCONT.1150256",
      "street": "R ESTRADA REAL",
      "house": "30",
      "postcode": "3040-478",
      "city": "ALMALAGUÊS",
      "lon": "-8.411243041440413",
      "lat": "40.147007738923236"
    },
    {
      "id": "pt.ine.add.PTCONT.1156972",
      "street": "R MEIO",
      "house": "5",
      "postcode": "3040-483",
      "city": "ALMALAGUÊS",
      "lon": "-8.411063998812729",
      "lat": "40.146269680739294"
    },
    {
      "id": "pt.ine.add.PTCONT.1187818",
      "street": "R QUINTEIRA",
      "house": "23",
      "postcode": "3040-469",
      "city": "ALMALAGUÊS",
      "lon": "-8.409682010659862",
      "lat": "40.14406653080617"
    },
    {
      "id": "pt.ine.add.PTCONT.1210306",
      "street": "R QUINTEIRA",
      "house": "9",
      "postcode": "3040-469",
      "city": "ALMALAGUÊS",
      "lon": "-8.40891450073328",
      "lat": "40.14289758688411"
    },
    {
      "id": "pt.ine.add.PTCONT.1262992",
      "street": "R ESTRADA REAL",
      "house": "20",
      "postcode": "3040-478",
      "city": "ALMALAGUÊS",
      "lon": "-8.411626488064607",
      "lat": "40.14607019825289"
    },
    {
      "id": "pt.ine.add.PTCONT.1276837",
      "street": "R ESTRADA REAL",
      "house": "10",
      "postcode": "3040-478",
      "city": "ALMALAGUÊS",
      "lon": "-8.411349998019052",
      "lat": "40.14445879710185"
    },
    {
      "id": "pt.ine.add.PTCONT.1319203",
      "street": "R ESTRADA REAL",
      "house": "24",
      "postcode": "3040-478",
      "city": "ALMALAGUÊS",
      "lon": "-8.411615745744575",
      "lat": "40.1463133848172"
    },
    {
      "id": "pt.ine.add.PTCONT.1323440",
      "street": "R ESTRADA REAL",
      "house": "J8",
      "postcode": "3040-478",
      "city": "ALMALAGUÊS",
      "lon": "-8.411438722474335",
      "lat": "40.1460706497104"
    },
    {
      "id": "pt.ine.add.PTCONT.1325465",
      "street": "R ESTRADA REAL",
      "house": "14",
      "postcode": "3040-478",
      "city": "ALMALAGUÊS",
      "lon": "-8.411304931255945",
      "lat": "40.14491820909602"
    },
    {
      "id": "pt.ine.add.PTCONT.1344814",
      "street": "R QUINTEIRA",
      "house": "11",
      "postcode": "3040-469",
      "city": "ALMALAGUÊS",
      "lon": "-8.409009289945423",
      "lat": "40.14312251003864"
    },
    {
      "id": "pt.ine.add.PTCONT.1348055",
      "street": "R ESTRADA REAL",
      "house": "26",
      "postcode": "3040-478",
      "city": "ALMALAGUÊS",
      "lon": "-8.411499310927429",
      "lat": "40.14653881360783"
    },
    {
      "id": "pt.ine.add.PTCONT.1348056",
      "street": "R ESTRADA REAL",
      "house": "26",
      "postcode": "3040-478",
      "city": "ALMALAGUÊS",
      "lon": "-8.411499310927429",
      "lat": "40.14653881360783"
    }
  ]
}