{
  "data": {
    "distrito": "Viana do Castelo",
    "concelho": "Viana do Castelo",
    "freguesia": "Darque",
    "OBJECTID": 1086,
    "BGRI2021": "16091100602",
    "DT21": "16",
    "DTMN21": "1609",
    "DTMNFR21": "160911",
    "DTMNFRSEC21": "160911006",
    "SECNUM21": "006",
    "SSNUM21": "02",
    "SECSSNUM21": "00602",
    "OBJECTID_1": 178922,
    "DT": "16",
    "CC": "09",
    "fr": "11",
    "SEC": "006",
    "SS": "02"
  },
  "addresses": [
    {
      "id": "pt.ine.add.PTCONT.5139939",
      "street": "R MANUEL IGLESIAS",
      "house": "52",
      "postcode": "4935-228",
      "city": "VIANA DO CASTELO",
      "lon": "-8.821926490396006",
      "lat": "41.680338472116624"
    },
    {
      "id": "pt.ine.add.PTCONT.5160497",
      "street": "R FLAVIO GONÇALVES",
      "house": "329",
      "postcode": "4935-146",
      "city": "VIANA DO CASTELO",
      "lon": "-8.82244682008194",
      "lat": "41.67957905903239"
    },
    {
      "id": "pt.ine.add.PTCONT.5161848",
      "street": "R CAMPO DA AREIA",
      "house": "115",
      "postcode": "4935-152",
      "city": "VIANA DO CASTELO",
      "lon": "-8.822114502031608",
      "lat": "41.68107563135489"
    },
    {
      "id": "pt.ine.add.PTCONT.5166203",
      "street": "R FLAVIO GONÇALVES",
      "house": "",
      "postcode": "4935-146",
      "city": "VIANA DO CASTELO",
      "lon": "-8.822714483459658",
      "lat": "41.6810270153595"
    },
    {
      "id": "pt.ine.add.PTCONT.5175294",
      "street": "R FLAVIO GONÇALVES",
      "house": "125",
      "postcode": "4935-146",
      "city": "VIANA DO CASTELO",
      "lon": "-8.822729946888439",
      "lat": "41.680225611899026"
    },
    {
      "id": "pt.ine.add.PTCONT.5179830",
      "street": "R MARIA DO ROSÁRIO MOREIRA \" A POLONIA\"",
      "house": "52",
      "postcode": "4935-229",
      "city": "VIANA DO CASTELO",
      "lon": "-8.822448166482921",
      "lat": "41.68083053626472"
    },
    {
      "id": "pt.ine.add.PTCONT.5198012",
      "street": "R MANUEL IGLESIAS",
      "house": "",
      "postcode": "4935-228",
      "city": "VIANA DO CASTELO",
      "lon": "-8.822102881618871",
      "lat": "41.67998627860986"
    },
    {
      "id": "pt.ine.add.PTCONT.5210048",
      "street": "R CAMPO DA AREIA",
      "house": "165",
      "postcode": "4935-152",
      "city": "VIANA DO CASTELO",
      "lon": "-8.82251388203264",
      "lat": "41.68136134799268"
    },
    {
      "id": "pt.ine.add.PTCONT.5210432",
      "street": "R FLAVIO GONÇALVES",
      "house": "17",
      "postcode": "4935-146",
      "city": "VIANA DO CASTELO",
      "lon": "-8.822002872500986",
      "lat": "41.67961773494529"
    },
    {
      "id": "pt.ine.add.PTCONT.5221548",
      "street": "R FLAVIO GONÇALVES",
      "house": "159",
      "postcode": "4935-146",
      "city": "VIANA DO CASTELO",
      "lon": "-8.822596021019267",
      "lat": "41.68005534910296"
    },
    {
      "id": "pt.ine.add.PTCONT.5227436",
      "street": "R PERO VAZ DE CAMINHA",
      "house": "50",
      "postcode": "4935-055",
      "city": "VIANA DO CASTELO",
      "lon": "-8.82323655592218",
      "lat": "41.68155508743012"
    },
    {
      "id": "pt.ine.add.PTCONT.5239911",
      "street": "R PERO VAZ DE CAMINHA",
      "house": "92",
      "postcode": "4935-055",
      "city": "VIANA DO CASTELO",
      "lon": "-8.82359529579762",
      "lat": "41.68140887683677"
    },
    {
      "id": "pt.ine.add.PTCONT.5253676",
      "street": "R FLAVIO GONÇALVES",
      "house": "85",
      "postcode": "4935-146",
      "city": "VIANA DO CASTELO",
      "lon": "-8.822563165116184",
      "lat": "41.6803526614274"
    },
    {
      "id": "pt.ine.add.PTCONT.5263728",
      "street": "R MARIA DO ROSÁRIO MOREIRA \" A POLONIA\"",
      "house": "68",
      "postcode": "4935-229",
      "city": "VIANA DO CASTELO",
      "lon": "-8.822651457782849",
      "lat": "41.68074828531966"
    },
    {
      "id": "pt.ine.add.PTCONT.5269965",
      "street": "R PERO VAZ DE CAMINHA",
      "house": "81",
      "postcode": "4935-055",
      "city": "VIANA DO CASTELO",
      "lon": "-8.82290231387975",
      "lat": "41.68174616731345"
    },
    {
      "id": "pt.ine.add.PTCONT.5270673",
      "street": "R FLAVIO GONÇALVES",
      "house": "67",
      "postcode": "4935-146",
      "city": "VIANA DO CASTELO",
      "lon": "-8.82242068918806",
      "lat": "41.68050657540593"
    }
  ]
}