{
  "data": {
    "distrito": "Évora",
    "concelho": "Reguengos de Monsaraz",
    "freguesia": "Reguengos de Monsaraz",
    "OBJECTID": 85,
    "BGRI2021": "07110400402",
    "DT21": "07",
    "DTMN21": "0711",
    "DTMNFR21": "071104",
    "DTMNFRSEC21": "071104004",
    "SECNUM21": "004",
    "SSNUM21": "02",
    "SECSSNUM21": "00402",
    "OBJECTID_1": 63156,
    "DT": "07",
    "CC": "11",
    "fr": "04",
    "SEC": "004",
    "SS": "02"
  },
  "addresses": [
    {
      "id": "pt.ine.add.PTCONT.1374252",
      "street": "PCT DR FRANCISCO SA CARNEIRO",
      "house": "3",
      "postcode": "7200-335",
      "city": "REGUENGOS DE MONSARAZ",
      "lon": "-7.5371355776930695",
      "lat": "38.427245366023094"
    },
    {
      "id": "pt.ine.add.PTCONT.1374432",
      "street": "PCT DR FRANCISCO SA CARNEIRO",
      "house": "5",
      "postcode": "7200-335",
      "city": "REGUENGOS DE MONSARAZ",
      "lon": "-7.5371355776930695",
      "lat": "38.427245366023094"
    },
    {
      "id": "pt.ine.add.PTCONT.1381576",
      "street": "R DR JOSE PIRES GONÇALVES",
      "house": "3",
      "postcode": "7200-356",
      "city": "REGUENGOS DE MONSARAZ",
      "lon": "-7.537486150977622",
      "lat": "38.42742592529736"
    },
    {
      "id": "pt.ine.add.PTCONT.1385539",
      "street": "R DR JOSE PIRES GONÇALVES",
      "house": "21",
      "postcode": "7200-356",
      "city": "REGUENGOS DE MONSARAZ",
      "lon": "-7.537895156681268",
      "lat": "38.42713891624508"
    },
    {
      "id": "pt.ine.add.PTCONT.1390888",
      "street": "LG POÇO DO PRÍNCIPE",
      "house": "8",
      "postcode": "7200-331",
      "city": "REGUENGOS DE MONSARAZ",
      "lon": "-7.537671149014549",
      "lat": "38.42673016586224"
    },
    {
      "id": "pt.ine.add.PTCONT.1394504",
      "street": "R JOSE DA SILVA DOMINGUES",
      "house": "5",
      "postcode": "7200-359",
      "city": "REGUENGOS DE MONSARAZ",
      "lon": "-7.537616071346175",
      "lat": "38.427054816328656"
    },
    {
      "id": "pt.ine.add.PTCONT.1394838",
      "street": "R DR JOSE PIRES GONÇALVES",
      "house": "1",
      "postcode": "7200-356",
      "city": "REGUENGOS DE MONSARAZ",
      "lon": "-7.537417919204235",
      "lat": "38.42747720993737"
    },
    {
      "id": "pt.ine.add.PTCONT.1398960",
      "street": "R JOSE DA SILVA DOMINGUES",
      "house": "12",
      "postcode": "7200-359",
      "city": "REGUENGOS DE MONSARAZ",
      "lon": "-7.537479320209771",
      "lat": "38.426973044602654"
    },
    {
      "id": "pt.ine.add.PTCONT.1398961",
      "street": "R CRUZ VERMELHA",
      "house": "9",
      "postcode": "7200-340",
      "city": "REGUENGOS DE MONSARAZ",
      "lon": "-7.537229107763384",
      "lat": "38.42684610543223"
    },
    {
      "id": "pt.ine.add.PTCONT.1399603",
      "street": "R CRUZ VERMELHA",
      "house": "17",
      "postcode": "7200-340",
      "city": "REGUENGOS DE MONSARAZ",
      "lon": "-7.53702682724889",
      "lat": "38.42696291000793"
    },
    {
      "id": "pt.ine.add.PTCONT.1401365",
      "street": "R CRUZ VERMELHA",
      "house": "5",
      "postcode": "7200-340",
      "city": "REGUENGOS DE MONSARAZ",
      "lon": "-7.537339636595233",
      "lat": "38.426787840828325"
    },
    {
      "id": "pt.ine.add.PTCONT.1403325",
      "street": "R DR JOSE PIRES GONÇALVES",
      "house": "17",
      "postcode": "7200-356",
      "city": "REGUENGOS DE MONSARAZ",
      "lon": "-7.537771076693805",
      "lat": "38.427229821582884"
    },
    {
      "id": "pt.ine.add.PTCONT.1406579",
      "street": "R JOSE DA SILVA DOMINGUES",
      "house": "7",
      "postcode": "7200-359",
      "city": "REGUENGOS DE MONSARAZ",
      "lon": "-7.537523868084368",
      "lat": "38.427126415961034"
    },
    {
      "id": "pt.ine.add.PTCONT.1407134",
      "street": "R CRUZ VERMELHA",
      "house": "15",
      "postcode": "7200-340",
      "city": "REGUENGOS DE MONSARAZ",
      "lon": "-7.537100090673827",
      "lat": "38.42692445499957"
    },
    {
      "id": "pt.ine.add.PTCONT.1408092",
      "street": "R JOSE DA SILVA DOMINGUES",
      "house": "8",
      "postcode": "7200-359",
      "city": "REGUENGOS DE MONSARAZ",
      "lon": "-7.537743364028639",
      "lat": "38.4268094348516"
    },
    {
      "id": "pt.ine.add.PTCONT.1410681",
      "street": "R DR JOSE PIRES GONÇALVES",
      "house": "15",
      "postcode": "7200-356",
      "city": "REGUENGOS DE MONSARAZ",
      "lon": "-7.537702330871644",
      "lat": "38.427264259638534"
    },
    {
      "id": "pt.ine.add.PTCONT.1411182",
      "street": "R JOAQUIM AGOSTINHO",
      "house": "6",
      "postcode": "7200-358",
      "city": "REGUENGOS DE MONSARAZ",
      "lon": "-7.538095487363717",
      "lat": "38.42695440029512"
    },
    {
      "id": "pt.ine.add.PTCONT.1423468",
      "street": "R CRUZ VERMELHA",
      "house": "1",
      "postcode": "7200-340",
      "city": "REGUENGOS DE MONSARAZ",
      "lon": "-7.537607800859732",
      "lat": "38.4266674076712"
    },
    {
      "id": "pt.ine.add.PTCONT.1442613",
      "street": "R ANTÓNIO JANEIRO",
      "house": "3",
      "postcode": "7200-337",
      "city": "REGUENGOS DE MONSARAZ",
      "lon": "-7.537797266585776",
      "lat": "38.42700740620466"
    },
    {
      "id": "pt.ine.add.PTCONT.1444285",
      "street": "PCT DR FRANCISCO SA CARNEIRO",
      "house": "9",
      "postcode": "7200-335",
      "city": "REGUENGOS DE MONSARAZ",
      "lon": "-7.537241471183078",
      "lat": "38.42736120463428"
    },
    {
      "id": "pt.ine.add.PTCONT.1444286",
      "street": "PCT DR FRANCISCO SA CARNEIRO",
      "house": "7",
      "postcode": "7200-335",
      "city": "REGUENGOS DE MONSARAZ",
      "lon": "-7.537241471183078",
      "lat": "38.42736120463428"
    },
    {
      "id": "pt.ine.add.PTCONT.1450489",
      "street": "R CRUZ VERMELHA",
      "house": "11",
      "postcode": "7200-340",
      "city": "REGUENGOS DE MONSARAZ",
      "lon": "-7.537157150742108",
      "lat": "38.42689338831466"
    },
    {
      "id": "pt.ine.add.PTCONT.1453464",
      "street": "R CRUZ VERMELHA",
      "house": "7",
      "postcode": "7200-340",
      "city": "REGUENGOS DE MONSARAZ",
      "lon": "-7.537276286026883",
      "lat": "38.4268185080716"
    },
    {
      "id": "pt.ine.add.PTCONT.1457324",
      "street": "R DR JOSE PIRES GONÇALVES",
      "house": "11",
      "postcode": "7200-356",
      "city": "REGUENGOS DE MONSARAZ",
      "lon": "-7.537602178699991",
      "lat": "38.42735202708108"
    },
    {
      "id": "pt.ine.add.PTCONT.1459464",
      "street": "R JOSE DA SILVA DOMINGUES",
      "house": "9",
      "postcode": "7200-359",
      "city": "REGUENGOS DE MONSARAZ",
      "lon": "-7.5374315906426705",
      "lat": "38.427207023668096"
    },
    {
      "id": "pt.ine.add.PTCONT.1464151",
      "street": "R JOAQUIM AGOSTINHO",
      "house": "2",
      "postcode": "7200-358",
      "city": "REGUENGOS DE MONSARAZ",
      "lon": "-7.537936128816835",
      "lat": "38.42683648020323"
    },
    {
      "id": "pt.ine.add.PTCONT.1464152",
      "street": "R LISBOA",
      "house": "15",
      "postcode": "7200-287",
      "city": "REGUENGOS DE MONSARAZ",
      "lon": "-7.537936128816835",
      "lat": "38.42683648020323"
    }
  ]
}