{
  "data": {
    "distrito": "Setúbal",
    "concelho": "Montijo",
    "freguesia": "União das freguesias de Pegões",
    "OBJECTID": 3,
    "BGRI2021": "15071100134",
    "DT21": "15",
    "DTMN21": "1507",
    "DTMNFR21": "150711",
    "DTMNFRSEC21": "150711001",
    "SECNUM21": "001",
    "SSNUM21": "34",
    "SECSSNUM21": "00134",
    "OBJECTID_1": 164316,
    "DT": "15",
    "CC": "07",
    "fr": "11",
    "SEC": "001",
    "SS": "34"
  },
  "addresses": [
    {
      "id": "pt.ine.add.PTCONT.4663974",
      "street": "R ANTÓNIO ALEIXO",
      "house": "203",
      "postcode": "2985-156",
      "city": "SANTO ISIDRO DE PEGÕES",
      "lon": "-8.645034766530559",
      "lat": "38.692151082822086"
    },
    {
      "id": "pt.ine.add.PTCONT.4795628",
      "street": "R ANTÓNIO ALEIXO",
      "house": "201",
      "postcode": "2985-156",
      "city": "SANTO ISIDRO DE PEGÕES",
      "lon": "-8.646167240365205",
      "lat": "38.69138943529802"
    },
    {
      "id": "pt.ine.add.PTCONT.4795629",
      "street": "R ANTÓNIO ALEIXO",
      "house": "201",
      "postcode": "2985-156",
      "city": "SANTO ISIDRO DE PEGÕES",
      "lon": "-8.646167240365205",
      "lat": "38.69138943529802"
    },
    {
      "id": "pt.ine.add.PTCONT.4827968",
      "street": "JOÃO DIREITINHO OSTRIC HLAND",
      "house": "",
      "postcode": "2985-156",
      "city": "SANTO ISIDRO DE PEGÕES",
      "lon": "-8.652022970297748",
      "lat": "38.701668911051904"
    },
    {
      "id": "pt.ine.add.PTCONT.4859314",
      "street": "R ANTÓNIO ALEIXO",
      "house": "205",
      "postcode": "2985-156",
      "city": "SANTO ISIDRO DE PEGÕES",
      "lon": "-8.643797991420504",
      "lat": "38.69279606893767"
    },
    {
      "id": "pt.ine.add.PTCONT.4876446",
      "street": "R ANTÓNIO ALEIXO",
      "house": "CASAL 207",
      "postcode": "2985-156",
      "city": "SANTO ISIDRO DE PEGÕES",
      "lon": "-8.642503277150897",
      "lat": "38.693378237313475"
    },
    {
      "id": "pt.ine.add.PTCONT.4883957",
      "street": "R ANTÓNIO ALEIXO",
      "house": "200",
      "postcode": "2985-156",
      "city": "SANTO ISIDRO DE PEGÕES",
      "lon": "-8.646693047668151",
      "lat": "38.69098176051842"
    },
    {
      "id": "pt.ine.add.PTCONT.4934526",
      "street": "R ANTÓNIO ALEIXO",
      "house": "204",
      "postcode": "2985-156",
      "city": "SANTO ISIDRO DE PEGÕES",
      "lon": "-8.644428035848705",
      "lat": "38.692496046921875"
    },
    {
      "id": "pt.ine.add.PTCONT.4959189",
      "street": "R ANTÓNIO ALEIXO",
      "house": "207",
      "postcode": "2985-156",
      "city": "SANTO ISIDRO DE PEGÕES",
      "lon": "-8.642662850089359",
      "lat": "38.69318837099635"
    },
    {
      "id": "pt.ine.add.PTCONT.4962741",
      "street": "R ANTÓNIO ALEIXO",
      "house": "206",
      "postcode": "2985-156",
      "city": "SANTO ISIDRO DE PEGÕES",
      "lon": "-8.643179435582923",
      "lat": "38.69309603744689"
    },
    {
      "id": "pt.ine.add.PTCONT.4977312",
      "street": "R ANTÓNIO ALEIXO",
      "house": "CASAL 207",
      "postcode": "2985-156",
      "city": "SANTO ISIDRO DE PEGÕES",
      "lon": "-8.642412603227383",
      "lat": "38.6935587952131"
    },
    {
      "id": "pt.ine.add.PTCONT.4984389",
      "street": "VALE DA JUDIA",
      "house": "",
      "postcode": "2985-156",
      "city": "SANTO ISIDRO DE PEGÕES",
      "lon": "-8.642815019426338",
      "lat": "38.693575058219785"
    },
    {
      "id": "pt.ine.add.PTCONT.5005931",
      "street": "ESTR PEIXE CAMPO TIRO DESPORTIVO PEGÕES",
      "house": "",
      "postcode": "2985-131",
      "city": "SANTO ISIDRO DE PEGÕES",
      "lon": "-8.661792316931663",
      "lat": "38.70140895492767"
    },
    {
      "id": "pt.ine.add.PTCONT.5020398",
      "street": "R ANTÓNIO ALEIXO",
      "house": "202",
      "postcode": "2985-156",
      "city": "SANTO ISIDRO DE PEGÕES",
      "lon": "-8.645606881825527",
      "lat": "38.691788250973964"
    }
  ]
}