{
  "data": {
    "distrito": "Setúbal",
    "concelho": "Sesimbra",
    "freguesia": "Quinta do Conde",
    "OBJECTID": 712,
    "BGRI2021": "15110301713",
    "DT21": "15",
    "DTMN21": "1511",
    "DTMNFR21": "151103",
    "DTMNFRSEC21": "151103017",
    "SECNUM21": "017",
    "SSNUM21": "13",
    "SECSSNUM21": "01713",
    "OBJECTID_1": 169628,
    "DT": "15",
    "CC": "11",
    "fr": "03",
    "SEC": "017",
    "SS": "13"
  },
  "addresses": [
    {
      "id": "pt.ine.add.PTCONT.4724166",
      "street": "R VASCO DA GAMA",
      "house": "",
      "postcode": "2975-401",
      "city": "QUINTA DO CONDE",
      "lon": "-9.043911600541266",
      "lat": "38.56607984607876"
    },
    {
      "id": "pt.ine.add.PTCONT.4724167",
      "street": "R VASCO DA GAMA",
      "house": "",
      "postcode": "2975-401",
      "city": "QUINTA DO CONDE",
      "lon": "-9.043911600541266",
      "lat": "38.56607984607876"
    },
    {
      "id": "pt.ine.add.PTCONT.4724168",
      "street": "R VASCO DA GAMA",
      "house": "",
      "postcode": "2975-401",
      "city": "QUINTA DO CONDE",
      "lon": "-9.043911600541266",
      "lat": "38.56607984607876"
    },
    {
      "id": "pt.ine.add.PTCONT.4724169",
      "street": "R VASCO DA GAMA",
      "house": "",
      "postcode": "2975-401",
      "city": "QUINTA DO CONDE",
      "lon": "-9.043911600541266",
      "lat": "38.56607984607876"
    },
    {
      "id": "pt.ine.add.PTCONT.4724170",
      "street": "R VASCO DA GAMA",
      "house": "",
      "postcode": "2975-401",
      "city": "QUINTA DO CONDE",
      "lon": "-9.043911600541266",
      "lat": "38.56607984607876"
    },
    {
      "id": "pt.ine.add.PTCONT.4724171",
      "street": "R VASCO DA GAMA",
      "house": "",
      "postcode": "2975-401",
      "city": "QUINTA DO CONDE",
      "lon": "-9.043911600541266",
      "lat": "38.56607984607876"
    },
    {
      "id": "pt.ine.add.PTCONT.4724172",
      "street": "R VASCO GAMA",
      "house": "2963",
      "postcode": "2975-401",
      "city": "QUINTA DO CONDE",
      "lon": "-9.043911600541266",
      "lat": "38.56607984607876"
    },
    {
      "id": "pt.ine.add.PTCONT.4724173",
      "street": "R VASCO DA GAMA",
      "house": "",
      "postcode": "2975-401",
      "city": "QUINTA DO CONDE",
      "lon": "-9.043911600541266",
      "lat": "38.56607984607876"
    },
    {
      "id": "pt.ine.add.PTCONT.4805279",
      "street": "R JOÃO DE CASTRO",
      "house": "",
      "postcode": "2975-384",
      "city": "QUINTA DO CONDE",
      "lon": "-9.044817482052279",
      "lat": "38.566036761029686"
    },
    {
      "id": "pt.ine.add.PTCONT.4841877",
      "street": "R GAGO COUTINHO",
      "house": "",
      "postcode": "2975-375",
      "city": "QUINTA DO CONDE",
      "lon": "-9.045214354813611",
      "lat": "38.56566433428802"
    },
    {
      "id": "pt.ine.add.PTCONT.4841878",
      "street": "R GAGO COUTINHO",
      "house": "",
      "postcode": "2975-375",
      "city": "QUINTA DO CONDE",
      "lon": "-9.045214354813611",
      "lat": "38.56566433428802"
    },
    {
      "id": "pt.ine.add.PTCONT.4841879",
      "street": "R GAGO COUTINHO",
      "house": "",
      "postcode": "2975-375",
      "city": "QUINTA DO CONDE",
      "lon": "-9.045214354813611",
      "lat": "38.56566433428802"
    },
    {
      "id": "pt.ine.add.PTCONT.4841880",
      "street": "R GAGO COUTINHO",
      "house": "",
      "postcode": "2975-375",
      "city": "QUINTA DO CONDE",
      "lon": "-9.045214354813611",
      "lat": "38.56566433428802"
    },
    {
      "id": "pt.ine.add.PTCONT.4841881",
      "street": "R GAGO COUTINHO",
      "house": "",
      "postcode": "2975-375",
      "city": "QUINTA DO CONDE",
      "lon": "-9.045214354813611",
      "lat": "38.56566433428802"
    },
    {
      "id": "pt.ine.add.PTCONT.4842366",
      "street": "R GAGO COUTINHO",
      "house": "",
      "postcode": "2975-375",
      "city": "QUINTA DO CONDE",
      "lon": "-9.045214354813611",
      "lat": "38.56566433428802"
    },
    {
      "id": "pt.ine.add.PTCONT.4903780",
      "street": "R JOAO CASTRO",
      "house": "2684",
      "postcode": "2975-384",
      "city": "QUINTA DO CONDE",
      "lon": "-9.045160407855308",
      "lat": "38.56593499965504"
    },
    {
      "id": "pt.ine.add.PTCONT.4903781",
      "street": "R JOAO DE CASTRO",
      "house": "",
      "postcode": "2975-384",
      "city": "QUINTA DO CONDE",
      "lon": "-9.045160407855308",
      "lat": "38.56593499965504"
    },
    {
      "id": "pt.ine.add.PTCONT.4963430",
      "street": "R JOÃO DE CASTRO",
      "house": "",
      "postcode": "2975-384",
      "city": "QUINTA DO CONDE",
      "lon": "-9.044497614297162",
      "lat": "38.56614735003545"
    },
    {
      "id": "pt.ine.add.PTCONT.4999754",
      "street": "R JOÃO DE CASTRO",
      "house": "",
      "postcode": "2975-384",
      "city": "QUINTA DO CONDE",
      "lon": "-9.044680152133978",
      "lat": "38.56606485510837"
    },
    {
      "id": "pt.ine.add.PTCONT.5029263",
      "street": "R FEBO MONIZ",
      "house": "",
      "postcode": "2975-370",
      "city": "QUINTA DO CONDE",
      "lon": "-9.045042380413047",
      "lat": "38.56567468241196"
    },
    {
      "id": "pt.ine.add.PTCONT.5059243",
      "street": "R JOÃO DE CASTRO",
      "house": "",
      "postcode": "2975-384",
      "city": "QUINTA DO CONDE",
      "lon": "-9.045308982159144",
      "lat": "38.56588880105204"
    },
    {
      "id": "pt.ine.add.PTCONT.5059244",
      "street": "R JOÃO DE CASTRO",
      "house": "",
      "postcode": "2975-384",
      "city": "QUINTA DO CONDE",
      "lon": "-9.045308982159144",
      "lat": "38.56588880105204"
    },
    {
      "id": "pt.ine.add.PTCONT.5059250",
      "street": "R JOÃO DE CASTRO",
      "house": "",
      "postcode": "2975-384",
      "city": "QUINTA DO CONDE",
      "lon": "-9.045308982159144",
      "lat": "38.56588880105204"
    },
    {
      "id": "pt.ine.add.PTCONT.5069278",
      "street": "R JOAO CASTRO",
      "house": "2678",
      "postcode": "2975-384",
      "city": "QUINTA DO CONDE",
      "lon": "-9.044302465853182",
      "lat": "38.56613986117969"
    },
    {
      "id": "pt.ine.add.PTCONT.5123312",
      "street": "R JOÃO DE CASTRO",
      "house": "",
      "postcode": "2975-384",
      "city": "QUINTA DO CONDE",
      "lon": "-9.044383343068011",
      "lat": "38.566184272390615"
    },
    {
      "id": "pt.ine.add.PTCONT.5124760",
      "street": "R FEBO MONIZ",
      "house": "",
      "postcode": "2975-370",
      "city": "QUINTA DO CONDE",
      "lon": "-9.044882447635446",
      "lat": "38.56572997732156"
    }
  ]
}