{
  "data": {
    "distrito": "Set√∫bal",
    "concelho": "Sesimbra",
    "freguesia": "Quinta do Conde",
    "OBJECTID": 888,
    "BGRI2021": "15110301720",
    "DT21": "15",
    "DTMN21": "1511",
    "DTMNFR21": "151103",
    "DTMNFRSEC21": "151103017",
    "SECNUM21": "017",
    "SSNUM21": "20",
    "SECSSNUM21": "01720",
    "OBJECTID_1": 169118,
    "DT": "15",
    "CC": "11",
    "fr": "03",
    "SEC": "017",
    "SS": "20"
  },
  "addresses": [
    {
      "id": "pt.ine.add.PTCONT.4669560",
      "street": "R GAGO COUTINHO",
      "house": "",
      "postcode": "2975-375",
      "city": "QUINTA DO CONDE",
      "lon": "-9.045900438598757",
      "lat": "38.56637238959732"
    },
    {
      "id": "pt.ine.add.PTCONT.4676320",
      "street": "R SACADURA CABRAL",
      "house": "2568 B",
      "postcode": "2975-395",
      "city": "QUINTA DO CONDE",
      "lon": "-9.045464442033264",
      "lat": "38.56457239696015"
    },
    {
      "id": "pt.ine.add.PTCONT.4716165",
      "street": "R GAGO COUTINHO",
      "house": "",
      "postcode": "2975-375",
      "city": "QUINTA DO CONDE",
      "lon": "-9.045860847774367",
      "lat": "38.56627077003393"
    },
    {
      "id": "pt.ine.add.PTCONT.4716166",
      "street": "R GAGO COUTINHO",
      "house": "",
      "postcode": "2975-375",
      "city": "QUINTA DO CONDE",
      "lon": "-9.045860847774367",
      "lat": "38.56627077003393"
    },
    {
      "id": "pt.ine.add.PTCONT.4716167",
      "street": "R GAGO COUTINHO",
      "house": "",
      "postcode": "2975-375",
      "city": "QUINTA DO CONDE",
      "lon": "-9.045860847774367",
      "lat": "38.56627077003393"
    },
    {
      "id": "pt.ine.add.PTCONT.4716168",
      "street": "R GAGO COUTINHO",
      "house": "",
      "postcode": "2975-375",
      "city": "QUINTA DO CONDE",
      "lon": "-9.045860847774367",
      "lat": "38.56627077003393"
    },
    {
      "id": "pt.ine.add.PTCONT.4720027",
      "street": "R GAGO COUTINHO",
      "house": "2576",
      "postcode": "2975-375",
      "city": "QUINTA DO CONDE",
      "lon": "-9.045324525131129",
      "lat": "38.56530314906101"
    },
    {
      "id": "pt.ine.add.PTCONT.4720997",
      "street": "R GAGO COUTINHO",
      "house": "",
      "postcode": "2975-375",
      "city": "QUINTA DO CONDE",
      "lon": "-9.046433114885428",
      "lat": "38.56745667474451"
    },
    {
      "id": "pt.ine.add.PTCONT.4720998",
      "street": "R GAGO COUTINHO",
      "house": "",
      "postcode": "2975-375",
      "city": "QUINTA DO CONDE",
      "lon": "-9.046433114885428",
      "lat": "38.56745667474451"
    },
    {
      "id": "pt.ine.add.PTCONT.4720999",
      "street": "R GAGO COUTINHO",
      "house": "2560",
      "postcode": "2975-375",
      "city": "QUINTA DO CONDE",
      "lon": "-9.046147904390292",
      "lat": "38.566193065334595"
    },
    {
      "id": "pt.ine.add.PTCONT.4721000",
      "street": "R GAGO COUTINHO",
      "house": "2560",
      "postcode": "2975-375",
      "city": "QUINTA DO CONDE",
      "lon": "-9.046147904390292",
      "lat": "38.566193065334595"
    },
    {
      "id": "pt.ine.add.PTCONT.4721001",
      "street": "R GAGO COUTINHO",
      "house": "2560",
      "postcode": "2975-375",
      "city": "QUINTA DO CONDE",
      "lon": "-9.046147904390292",
      "lat": "38.566193065334595"
    },
    {
      "id": "pt.ine.add.PTCONT.4721002",
      "street": "R GAGO COUTINHO",
      "house": "2560",
      "postcode": "2975-375",
      "city": "QUINTA DO CONDE",
      "lon": "-9.046147904390292",
      "lat": "38.566193065334595"
    },
    {
      "id": "pt.ine.add.PTCONT.4721003",
      "street": "R GAGO COUTINHO",
      "house": "2560",
      "postcode": "2975-375",
      "city": "QUINTA DO CONDE",
      "lon": "-9.046147904390292",
      "lat": "38.566193065334595"
    },
    {
      "id": "pt.ine.add.PTCONT.4721004",
      "street": "R GAGO COUTINHO",
      "house": "2560",
      "postcode": "2975-375",
      "city": "QUINTA DO CONDE",
      "lon": "-9.046147904390292",
      "lat": "38.566193065334595"
    },
    {
      "id": "pt.ine.add.PTCONT.4724086",
      "street": "R GAGO COUTINHO",
      "house": "",
      "postcode": "2975-375",
      "city": "QUINTA DO CONDE",
      "lon": "-9.046220063745956",
      "lat": "38.566670005470385"
    },
    {
      "id": "pt.ine.add.PTCONT.4724115",
      "street": "R SACADURA CABRAL",
      "house": "2552",
      "postcode": "2975-395",
      "city": "QUINTA DO CONDE",
      "lon": "-9.04655516604198",
      "lat": "38.56714911776554"
    },
    {
      "id": "pt.ine.add.PTCONT.4724116",
      "street": "R SACADURA CABRAL",
      "house": "2552",
      "postcode": "2975-395",
      "city": "QUINTA DO CONDE",
      "lon": "-9.04655516604198",
      "lat": "38.56714911776554"
    },
    {
      "id": "pt.ine.add.PTCONT.4724117",
      "street": "R SACADURA CABRAL",
      "house": "2552",
      "postcode": "2975-395",
      "city": "QUINTA DO CONDE",
      "lon": "-9.04655516604198",
      "lat": "38.56714911776554"
    },
    {
      "id": "pt.ine.add.PTCONT.4724118",
      "street": "R SACADURA CABRAL",
      "house": "2552",
      "postcode": "2975-395",
      "city": "QUINTA DO CONDE",
      "lon": "-9.04655516604198",
      "lat": "38.56714911776554"
    },
    {
      "id": "pt.ine.add.PTCONT.4724119",
      "street": "R SACADURA CABRAL",
      "house": "2552",
      "postcode": "2975-395",
      "city": "QUINTA DO CONDE",
      "lon": "-9.04655516604198",
      "lat": "38.56714911776554"
    },
    {
      "id": "pt.ine.add.PTCONT.4724120",
      "street": "R SACADURA CABRAL",
      "house": "2552",
      "postcode": "2975-395",
      "city": "QUINTA DO CONDE",
      "lon": "-9.04655516604198",
      "lat": "38.56714911776554"
    },
    {
      "id": "pt.ine.add.PTCONT.4727871",
      "street": "R GAGO COUTINHO",
      "house": "",
      "postcode": "2975-375",
      "city": "QUINTA DO CONDE",
      "lon": "-9.046374877828484",
      "lat": "38.567610057135845"
    },
    {
      "id": "pt.ine.add.PTCONT.4746190",
      "street": "R GAGO COUTINHO",
      "house": "",
      "postcode": "2975-375",
      "city": "QUINTA DO CONDE",
      "lon": "-9.046010586410034",
      "lat": "38.56662361958895"
    },
    {
      "id": "pt.ine.add.PTCONT.4746451",
      "street": "R GAGO COUTINHO",
      "house": "",
      "postcode": "2975-375",
      "city": "QUINTA DO CONDE",
      "lon": "-9.046010586410034",
      "lat": "38.56662361958895"
    },
    {
      "id": "pt.ine.add.PTCONT.4756046",
      "street": "R SACADURA CABRAL",
      "house": "2555",
      "postcode": "2975-395",
      "city": "QUINTA DO CONDE",
      "lon": "-9.0464088135731",
      "lat": "38.56674310877562"
    },
    {
      "id": "pt.ine.add.PTCONT.4784385",
      "street": "R SACADURA CABRAL",
      "house": "2548 B",
      "postcode": "2975-395",
      "city": "QUINTA DO CONDE",
      "lon": "-9.046807246944923",
      "lat": "38.567636194474105"
    },
    {
      "id": "pt.ine.add.PTCONT.4785153",
      "street": "R SACADURA CABRAL",
      "house": "2567",
      "postcode": "2975-395",
      "city": "QUINTA DO CONDE",
      "lon": "-9.045466264324482",
      "lat": "38.56471651345154"
    },
    {
      "id": "pt.ine.add.PTCONT.4807077",
      "street": "R SACADURA CABRAL",
      "house": "2561",
      "postcode": "2975-395",
      "city": "QUINTA DO CONDE",
      "lon": "-9.045670522600332",
      "lat": "38.5654445827771"
    },
    {
      "id": "pt.ine.add.PTCONT.4817355",
      "street": "R SACADURA CABRAL",
      "house": "2550",
      "postcode": "2975-395",
      "city": "QUINTA DO CONDE",
      "lon": "-9.046661840720454",
      "lat": "38.567354674884854"
    },
    {
      "id": "pt.ine.add.PTCONT.4817356",
      "street": "R SACADURA CABRAL",
      "house": "2550",
      "postcode": "2975-395",
      "city": "QUINTA DO CONDE",
      "lon": "-9.046661840720454",
      "lat": "38.567354674884854"
    },
    {
      "id": "pt.ine.add.PTCONT.4817357",
      "street": "R SACADURA CABRAL",
      "house": "2550",
      "postcode": "2975-395",
      "city": "QUINTA DO CONDE",
      "lon": "-9.046661840720454",
      "lat": "38.567354674884854"
    },
    {
      "id": "pt.ine.add.PTCONT.4817358",
      "street": "R SACADURA CABRAL",
      "house": "2550",
      "postcode": "2975-395",
      "city": "QUINTA DO CONDE",
      "lon": "-9.046661840720454",
      "lat": "38.567354674884854"
    },
    {
      "id": "pt.ine.add.PTCONT.4817379",
      "street": "R SACADURA CABRAL",
      "house": "2550",
      "postcode": "2975-395",
      "city": "QUINTA DO CONDE",
      "lon": "-9.046661840720454",
      "lat": "38.567354674884854"
    },
    {
      "id": "pt.ine.add.PTCONT.4817380",
      "street": "R SACADURA CABRAL",
      "house": "2550",
      "postcode": "2975-395",
      "city": "QUINTA DO CONDE",
      "lon": "-9.046661840720454",
      "lat": "38.567354674884854"
    },
    {
      "id": "pt.ine.add.PTCONT.4817381",
      "street": "R SACADURA CABRAL",
      "house": "2550",
      "postcode": "2975-395",
      "city": "QUINTA DO CONDE",
      "lon": "-9.046661840720454",
      "lat": "38.567354674884854"
    },
    {
      "id": "pt.ine.add.PTCONT.4817734",
      "street": "R SACADURA CABRAL",
      "house": "2550",
      "postcode": "2975-395",
      "city": "QUINTA DO CONDE",
      "lon": "-9.046661840720454",
      "lat": "38.567354674884854"
    },
    {
      "id": "pt.ine.add.PTCONT.4827592",
      "street": "R GAGO COUTINHO",
      "house": "",
      "postcode": "2975-375",
      "city": "QUINTA DO CONDE",
      "lon": "-9.04588721883357",
      "lat": "38.56651308132491"
    },
    {
      "id": "pt.ine.add.PTCONT.4831217",
      "street": "AV COVA DOS VIDROS",
      "house": "2569",
      "postcode": "2975-333",
      "city": "QUINTA DO CONDE",
      "lon": "-9.045360279619556",
      "lat": "38.564501143449114"
    },
    {
      "id": "pt.ine.add.PTCONT.4833631",
      "street": "R GAGO COUTINHO",
      "house": "",
      "postcode": "2975-375",
      "city": "QUINTA DO CONDE",
      "lon": "-9.046127336601408",
      "lat": "38.567089514771816"
    },
    {
      "id": "pt.ine.add.PTCONT.4833632",
      "street": "R SACADURA CABRAL",
      "house": "2582",
      "postcode": "2975-395",
      "city": "QUINTA DO CONDE",
      "lon": "-9.046717295006825",
      "lat": "38.56748901229561"
    },
    {
      "id": "pt.ine.add.PTCONT.4833633",
      "street": "R SACADURA CABRAL",
      "house": "2550",
      "postcode": "2975-395",
      "city": "QUINTA DO CONDE",
      "lon": "-9.046717295006825",
      "lat": "38.56748901229561"
    },
    {
      "id": "pt.ine.add.PTCONT.4833634",
      "street": "R SACADURA CABRAL",
      "house": "2582",
      "postcode": "2975-395",
      "city": "QUINTA DO CONDE",
      "lon": "-9.046717295006825",
      "lat": "38.56748901229561"
    },
    {
      "id": "pt.ine.add.PTCONT.4835555",
      "street": "R SACADURA CABRAL",
      "house": "2582",
      "postcode": "2975-395",
      "city": "QUINTA DO CONDE",
      "lon": "-9.046717295006825",
      "lat": "38.56748901229561"
    },
    {
      "id": "pt.ine.add.PTCONT.4838863",
      "street": "R GAGO COUTINHO",
      "house": "2570",
      "postcode": "2975-375",
      "city": "QUINTA DO CONDE",
      "lon": "-9.04519978037954",
      "lat": "38.56451140236133"
    },
    {
      "id": "pt.ine.add.PTCONT.4841823",
      "street": "R GAGO COUTINHO",
      "house": "2572 B",
      "postcode": "2975-375",
      "city": "QUINTA DO CONDE",
      "lon": "-9.04514640341219",
      "lat": "38.56482710417081"
    },
    {
      "id": "pt.ine.add.PTCONT.4884598",
      "street": "R SACADURA CABRAL",
      "house": "2547",
      "postcode": "2975-395",
      "city": "QUINTA DO CONDE",
      "lon": "-9.046756157285962",
      "lat": "38.56778292908056"
    },
    {
      "id": "pt.ine.add.PTCONT.4898525",
      "street": "R SACADURA CABRAL",
      "house": "2568 A",
      "postcode": "2975-395",
      "city": "QUINTA DO CONDE",
      "lon": "-9.045396177204669",
      "lat": "38.56461796986716"
    },
    {
      "id": "pt.ine.add.PTCONT.4899526",
      "street": "R GAGO COUTINHO",
      "house": "",
      "postcode": "2975-375",
      "city": "QUINTA DO CONDE",
      "lon": "-9.046493888933355",
      "lat": "38.56769013171235"
    },
    {
      "id": "pt.ine.add.PTCONT.4899527",
      "street": "R GAGO COUTINHO",
      "house": "",
      "postcode": "2975-375",
      "city": "QUINTA DO CONDE",
      "lon": "-9.046493888933355",
      "lat": "38.56769013171235"
    },
    {
      "id": "pt.ine.add.PTCONT.4902955",
      "street": "TV GAGO COUTINHO",
      "house": "2593 A",
      "postcode": "2975-411",
      "city": "QUINTA DO CONDE",
      "lon": "-9.046683814322568",
      "lat": "38.56786299438325"
    },
    {
      "id": "pt.ine.add.PTCONT.4902956",
      "street": "TV GAGO COUTINHO",
      "house": "2593 A",
      "postcode": "2975-411",
      "city": "QUINTA DO CONDE",
      "lon": "-9.046683814322568",
      "lat": "38.56786299438325"
    },
    {
      "id": "pt.ine.add.PTCONT.4903778",
      "street": "R GAGO COUTINHO",
      "house": "",
      "postcode": "2975-375",
      "city": "QUINTA DO CONDE",
      "lon": "-9.046035526599661",
      "lat": "38.566509508715974"
    },
    {
      "id": "pt.ine.add.PTCONT.4903779",
      "street": "R GAGO COUTINHO",
      "house": "2582",
      "postcode": "2975-375",
      "city": "QUINTA DO CONDE",
      "lon": "-9.046035526599661",
      "lat": "38.566509508715974"
    },
    {
      "id": "pt.ine.add.PTCONT.4910005",
      "street": "R SACADURA CABRAL",
      "house": "2557",
      "postcode": "2975-395",
      "city": "QUINTA DO CONDE",
      "lon": "-9.04629480293357",
      "lat": "38.56651497021018"
    },
    {
      "id": "pt.ine.add.PTCONT.4910006",
      "street": "R SACADURA CABRAL",
      "house": "2557",
      "postcode": "2975-395",
      "city": "QUINTA DO CONDE",
      "lon": "-9.04629480293357",
      "lat": "38.56651497021018"
    },
    {
      "id": "pt.ine.add.PTCONT.4910007",
      "street": "R SACADURA CABRAL",
      "house": "2557",
      "postcode": "2975-395",
      "city": "QUINTA DO CONDE",
      "lon": "-9.04629480293357",
      "lat": "38.56651497021018"
    },
    {
      "id": "pt.ine.add.PTCONT.4910008",
      "street": "R SACADURA CABRAL",
      "house": "2557",
      "postcode": "2975-395",
      "city": "QUINTA DO CONDE",
      "lon": "-9.04629480293357",
      "lat": "38.56651497021018"
    },
    {
      "id": "pt.ine.add.PTCONT.4910009",
      "street": "R SACADURA CABRAL",
      "house": "2557",
      "postcode": "2975-395",
      "city": "QUINTA DO CONDE",
      "lon": "-9.04629480293357",
      "lat": "38.56651497021018"
    },
    {
      "id": "pt.ine.add.PTCONT.4910010",
      "street": "R SACADURA CABRAL",
      "house": "2557",
      "postcode": "2975-395",
      "city": "QUINTA DO CONDE",
      "lon": "-9.04629480293357",
      "lat": "38.56651497021018"
    },
    {
      "id": "pt.ine.add.PTCONT.4910012",
      "street": "R SACADURA CABRAL",
      "house": "2557",
      "postcode": "2975-395",
      "city": "QUINTA DO CONDE",
      "lon": "-9.04629480293357",
      "lat": "38.56651497021018"
    },
    {
      "id": "pt.ine.add.PTCONT.4934362",
      "street": "R SACADURA CABRAL",
      "house": "2563",
      "postcode": "2975-395",
      "city": "QUINTA DO CONDE",
      "lon": "-9.045598725788768",
      "lat": "38.56521093014828"
    },
    {
      "id": "pt.ine.add.PTCONT.4941604",
      "street": "R SACADURA CABRAL",
      "house": "2551",
      "postcode": "2975-395",
      "city": "QUINTA DO CONDE",
      "lon": "-9.046584287293085",
      "lat": "38.56725916934701"
    },
    {
      "id": "pt.ine.add.PTCONT.4941605",
      "street": "R SACADURA CABRAL",
      "house": "2551",
      "postcode": "2975-395",
      "city": "QUINTA DO CONDE",
      "lon": "-9.046584287293085",
      "lat": "38.56725916934701"
    },
    {
      "id": "pt.ine.add.PTCONT.4941606",
      "street": "R SACADURA CABRAL",
      "house": "2552",
      "postcode": "2975-395",
      "city": "QUINTA DO CONDE",
      "lon": "-9.046584287293085",
      "lat": "38.56725916934701"
    },
    {
      "id": "pt.ine.add.PTCONT.4941607",
      "street": "R SACADURA CABRAL",
      "house": "2551",
      "postcode": "2975-395",
      "city": "QUINTA DO CONDE",
      "lon": "-9.046584287293085",
      "lat": "38.56725916934701"
    },
    {
      "id": "pt.ine.add.PTCONT.4941608",
      "street": "R SACADURA CABRAL",
      "house": "2551",
      "postcode": "2975-395",
      "city": "QUINTA DO CONDE",
      "lon": "-9.046584287293085",
      "lat": "38.56725916934701"
    },
    {
      "id": "pt.ine.add.PTCONT.4941614",
      "street": "TV GAGO COUTINHO",
      "house": "",
      "postcode": "2975-411",
      "city": "QUINTA DO CONDE",
      "lon": "-9.046916634558603",
      "lat": "38.56782699821099"
    },
    {
      "id": "pt.ine.add.PTCONT.4942111",
      "street": "R SACADURA CABRAL",
      "house": "2551",
      "postcode": "2975-395",
      "city": "QUINTA DO CONDE",
      "lon": "-9.046584287293085",
      "lat": "38.56725916934701"
    },
    {
      "id": "pt.ine.add.PTCONT.4963339",
      "street": "R SACADURA CABRAL",
      "house": "2564",
      "postcode": "2975-395",
      "city": "QUINTA DO CONDE",
      "lon": "-9.045642906929753",
      "lat": "38.565075463207634"
    },
    {
      "id": "pt.ine.add.PTCONT.4966731",
      "street": "TV GAGO COUTINHO",
      "house": "2546 A",
      "postcode": "2975-411",
      "city": "QUINTA DO CONDE",
      "lon": "-9.04681470297281",
      "lat": "38.56786162140162"
    },
    {
      "id": "pt.ine.add.PTCONT.4974187",
      "street": "TV D NUNO √ÅLVARES PEREIRA",
      "house": "2593",
      "postcode": "2975-410",
      "city": "QUINTA DO CONDE",
      "lon": "-9.046561978819309",
      "lat": "38.56788785021186"
    },
    {
      "id": "pt.ine.add.PTCONT.5012820",
      "street": "R SACADURA CABRAL",
      "house": "2548 A",
      "postcode": "2975-395",
      "city": "QUINTA DO CONDE",
      "lon": "-9.046764305178106",
      "lat": "38.56759113663734"
    },
    {
      "id": "pt.ine.add.PTCONT.5012821",
      "street": "R SACADURA CABRAL",
      "house": "2549",
      "postcode": "2975-395",
      "city": "QUINTA DO CONDE",
      "lon": "-9.046764305178106",
      "lat": "38.56759113663734"
    },
    {
      "id": "pt.ine.add.PTCONT.5014563",
      "street": "R SACADURA CABRAL",
      "house": "2549",
      "postcode": "2975-395",
      "city": "QUINTA DO CONDE",
      "lon": "-9.046764305178106",
      "lat": "38.56759113663734"
    },
    {
      "id": "pt.ine.add.PTCONT.5029198",
      "street": "R GAGO COUTINHO",
      "house": "",
      "postcode": "2975-375",
      "city": "QUINTA DO CONDE",
      "lon": "-9.046346085479351",
      "lat": "38.56709876220372"
    },
    {
      "id": "pt.ine.add.PTCONT.5032808",
      "street": "R GAGO COUTINHO",
      "house": "2575",
      "postcode": "2975-375",
      "city": "QUINTA DO CONDE",
      "lon": "-9.045356892726906",
      "lat": "38.56514074978997"
    },
    {
      "id": "pt.ine.add.PTCONT.5036578",
      "street": "R GAGO COUTINHO",
      "house": "2572 A",
      "postcode": "2975-375",
      "city": "QUINTA DO CONDE",
      "lon": "-9.045077455067355",
      "lat": "38.56481863320754"
    },
    {
      "id": "pt.ine.add.PTCONT.5040061",
      "street": "R SACADURA CABRAL",
      "house": "2559",
      "postcode": "2975-395",
      "city": "QUINTA DO CONDE",
      "lon": "-9.046179334918675",
      "lat": "38.566299087689586"
    },
    {
      "id": "pt.ine.add.PTCONT.5040062",
      "street": "R SACADURA CABRAL",
      "house": "2559",
      "postcode": "2975-395",
      "city": "QUINTA DO CONDE",
      "lon": "-9.046179334918675",
      "lat": "38.566299087689586"
    },
    {
      "id": "pt.ine.add.PTCONT.5040070",
      "street": "R SACADURA CABRAL",
      "house": "2559",
      "postcode": "2975-395",
      "city": "QUINTA DO CONDE",
      "lon": "-9.046179334918675",
      "lat": "38.566299087689586"
    },
    {
      "id": "pt.ine.add.PTCONT.5040071",
      "street": "R SACADURA CABRAL",
      "house": "2559",
      "postcode": "2975-395",
      "city": "QUINTA DO CONDE",
      "lon": "-9.046179334918675",
      "lat": "38.566299087689586"
    },
    {
      "id": "pt.ine.add.PTCONT.5040852",
      "street": "R SACADURA CABRAL",
      "house": "2559",
      "postcode": "2975-395",
      "city": "QUINTA DO CONDE",
      "lon": "-9.046179334918675",
      "lat": "38.566299087689586"
    },
    {
      "id": "pt.ine.add.PTCONT.5040853",
      "street": "R SACADURA CABRAL",
      "house": "2559",
      "postcode": "2975-395",
      "city": "QUINTA DO CONDE",
      "lon": "-9.046179334918675",
      "lat": "38.566299087689586"
    },
    {
      "id": "pt.ine.add.PTCONT.5043632",
      "street": "R GAGO COUTINHO",
      "house": "",
      "postcode": "2975-375",
      "city": "QUINTA DO CONDE",
      "lon": "-9.046484369765109",
      "lat": "38.567573099869904"
    },
    {
      "id": "pt.ine.add.PTCONT.5057198",
      "street": "R GAGO COUTINHO",
      "house": "2571",
      "postcode": "2975-375",
      "city": "QUINTA DO CONDE",
      "lon": "-9.045062908880984",
      "lat": "38.564575525985695"
    },
    {
      "id": "pt.ine.add.PTCONT.5069206",
      "street": "R GAGO COUTINHO",
      "house": "2578",
      "postcode": "2975-375",
      "city": "QUINTA DO CONDE",
      "lon": "-9.045464928531958",
      "lat": "38.56551825079161"
    },
    {
      "id": "pt.ine.add.PTCONT.5069207",
      "street": "R GAGO COUTINHO",
      "house": "2577 A",
      "postcode": "2975-375",
      "city": "QUINTA DO CONDE",
      "lon": "-9.045383140331248",
      "lat": "38.56540178208453"
    },
    {
      "id": "pt.ine.add.PTCONT.5080367",
      "street": "R GAGO COUTINHO",
      "house": "2577 B",
      "postcode": "2975-375",
      "city": "QUINTA DO CONDE",
      "lon": "-9.045440730652128",
      "lat": "38.56541934955943"
    },
    {
      "id": "pt.ine.add.PTCONT.5082706",
      "street": "R GAGO COUTINHO",
      "house": "",
      "postcode": "2975-375",
      "city": "QUINTA DO CONDE",
      "lon": "-9.046167516252654",
      "lat": "38.566859797634514"
    },
    {
      "id": "pt.ine.add.PTCONT.5082707",
      "street": "R GAGO COUTINHO",
      "house": "",
      "postcode": "2975-375",
      "city": "QUINTA DO CONDE",
      "lon": "-9.046167516252654",
      "lat": "38.566859797634514"
    },
    {
      "id": "pt.ine.add.PTCONT.5082708",
      "street": "R GAGO COUTINHO",
      "house": "",
      "postcode": "2975-375",
      "city": "QUINTA DO CONDE",
      "lon": "-9.04605811232082",
      "lat": "38.56675248185233"
    },
    {
      "id": "pt.ine.add.PTCONT.5084169",
      "street": "R SACADURA CABRAL",
      "house": "2566",
      "postcode": "2975-395",
      "city": "QUINTA DO CONDE",
      "lon": "-9.045547937955032",
      "lat": "38.56482397484178"
    },
    {
      "id": "pt.ine.add.PTCONT.5100868",
      "street": "R GAGO COUTINHO",
      "house": "",
      "postcode": "2975-375",
      "city": "QUINTA DO CONDE",
      "lon": "-9.046315893636313",
      "lat": "38.567232244722405"
    },
    {
      "id": "pt.ine.add.PTCONT.5104701",
      "street": "R SACADURA CABRAL",
      "house": "2556",
      "postcode": "2975-395",
      "city": "QUINTA DO CONDE",
      "lon": "-9.046323313778565",
      "lat": "38.56666178805369"
    },
    {
      "id": "pt.ine.add.PTCONT.5104702",
      "street": "R SACADURA CABRAL",
      "house": "2557",
      "postcode": "2975-395",
      "city": "QUINTA DO CONDE",
      "lon": "-9.046323313778565",
      "lat": "38.56666178805369"
    },
    {
      "id": "pt.ine.add.PTCONT.5119363",
      "street": "R GAGO COUTINHO",
      "house": "",
      "postcode": "2975-375",
      "city": "QUINTA DO CONDE",
      "lon": "-9.046269228018492",
      "lat": "38.56742170997064"
    },
    {
      "id": "pt.ine.add.PTCONT.5123220",
      "street": "R GAGO COUTINHO",
      "house": "2578",
      "postcode": "2975-375",
      "city": "QUINTA DO CONDE",
      "lon": "-9.045611906974264",
      "lat": "38.56534594990346"
    }
  ]
}