{
  "data": {
    "distrito": "Viseu",
    "concelho": "Lamego",
    "freguesia": "Lalim",
    "OBJECTID": 477,
    "BGRI2021": "18051000113",
    "DT21": "18",
    "DTMN21": "1805",
    "DTMNFR21": "180510",
    "DTMNFRSEC21": "180510001",
    "SECNUM21": "001",
    "SSNUM21": "13",
    "SECSSNUM21": "00113",
    "OBJECTID_1": 191387,
    "DT": "18",
    "CC": "05",
    "fr": "10",
    "SEC": "001",
    "SS": "13"
  },
  "addresses": [
    {
      "id": "pt.ine.add.PTCONT.5430776",
      "street": "R VILA",
      "house": "",
      "postcode": "5100-550",
      "city": "LALIM",
      "lon": "-7.8154919834473064",
      "lat": "41.03893036228454"
    },
    {
      "id": "pt.ine.add.PTCONT.5443556",
      "street": "R VILA",
      "house": "",
      "postcode": "5100-550",
      "city": "LALIM",
      "lon": "-7.814729608344868",
      "lat": "41.039189390888865"
    },
    {
      "id": "pt.ine.add.PTCONT.5452948",
      "street": "R VILA",
      "house": "",
      "postcode": "5100-550",
      "city": "LALIM",
      "lon": "-7.815265896935579",
      "lat": "41.03895675267364"
    },
    {
      "id": "pt.ine.add.PTCONT.5462851",
      "street": "R LAGES",
      "house": "8",
      "postcode": "5100-550",
      "city": "LALIM",
      "lon": "-7.8156828682907635",
      "lat": "41.03880482439396"
    },
    {
      "id": "pt.ine.add.PTCONT.5463506",
      "street": "R LAGES",
      "house": "",
      "postcode": "5100-550",
      "city": "LALIM",
      "lon": "-7.815540851600206",
      "lat": "41.03866036027596"
    },
    {
      "id": "pt.ine.add.PTCONT.5466371",
      "street": "R 1 DE MAIO",
      "house": "",
      "postcode": "5100-550",
      "city": "LALIM",
      "lon": "-7.814766587361344",
      "lat": "41.038919356379985"
    },
    {
      "id": "pt.ine.add.PTCONT.5467613",
      "street": "R 1 DE MAIO",
      "house": "",
      "postcode": "5100-550",
      "city": "LALIM",
      "lon": "-7.815076354460246",
      "lat": "41.03880315235622"
    },
    {
      "id": "pt.ine.add.PTCONT.5469063",
      "street": "R 1 DE MAIO",
      "house": "",
      "postcode": "5100-550",
      "city": "LALIM",
      "lon": "-7.815312557254681",
      "lat": "41.03914597700385"
    },
    {
      "id": "pt.ine.add.PTCONT.5474536",
      "street": "R 1 DE MAIO",
      "house": "9",
      "postcode": "5100-550",
      "city": "LALIM",
      "lon": "-7.815015678525436",
      "lat": "41.039055112460545"
    },
    {
      "id": "pt.ine.add.PTCONT.5498809",
      "street": "R 1 DE MAIO",
      "house": "22",
      "postcode": "5100-550",
      "city": "LALIM",
      "lon": "-7.814695710001935",
      "lat": "41.038820110476266"
    },
    {
      "id": "pt.ine.add.PTCONT.5514316",
      "street": "R LAGES",
      "house": "",
      "postcode": "5100-550",
      "city": "LALIM",
      "lon": "-7.8156605543342685",
      "lat": "41.0384986080341"
    },
    {
      "id": "pt.ine.add.PTCONT.5520942",
      "street": "R 1 DE MAIO",
      "house": "",
      "postcode": "5100-550",
      "city": "LALIM",
      "lon": "-7.814528391071872",
      "lat": "41.038990734649275"
    },
    {
      "id": "pt.ine.add.PTCONT.5523194",
      "street": "R 1 DE MAIO",
      "house": "3",
      "postcode": "5100-550",
      "city": "LALIM",
      "lon": "-7.815158084885194",
      "lat": "41.03911853729492"
    },
    {
      "id": "pt.ine.add.PTCONT.5524150",
      "street": "R 1 DE MAIO",
      "house": "",
      "postcode": "5100-550",
      "city": "LALIM",
      "lon": "-7.81450486666858",
      "lat": "41.03893664228924"
    },
    {
      "id": "pt.ine.add.PTCONT.5526567",
      "street": "R VILA",
      "house": "",
      "postcode": "5100-550",
      "city": "LALIM",
      "lon": "-7.814777091565878",
      "lat": "41.039207531158794"
    },
    {
      "id": "pt.ine.add.PTCONT.5529773",
      "street": "R 1 DE MAIO",
      "house": "",
      "postcode": "5100-550",
      "city": "LALIM",
      "lon": "-7.814802481600789",
      "lat": "41.038874432741494"
    },
    {
      "id": "pt.ine.add.PTCONT.5538540",
      "street": "R JOAQUIM PEREIRA MORAIS",
      "house": "9",
      "postcode": "5100-550",
      "city": "LALIM",
      "lon": "-7.814931780791049",
      "lat": "41.03918994920191"
    },
    {
      "id": "pt.ine.add.PTCONT.5541895",
      "street": "R 1 DE MAIO",
      "house": "6",
      "postcode": "5100-550",
      "city": "LALIM",
      "lon": "-7.8150991858683705",
      "lat": "41.039001315575774"
    },
    {
      "id": "pt.ine.add.PTCONT.5545626",
      "street": "R VILA",
      "house": "",
      "postcode": "5100-550",
      "city": "LALIM",
      "lon": "-7.815069035584537",
      "lat": "41.039178486148025"
    },
    {
      "id": "pt.ine.add.PTCONT.5553959",
      "street": "R VILA",
      "house": "",
      "postcode": "5100-550",
      "city": "LALIM",
      "lon": "-7.815574884413765",
      "lat": "41.03900262715881"
    },
    {
      "id": "pt.ine.add.PTCONT.5559747",
      "street": "AV JOAQUIM P MORAIS",
      "house": "157",
      "postcode": "5100-550",
      "city": "LALIM",
      "lon": "-7.8148777240514935",
      "lat": "41.03919263729051"
    },
    {
      "id": "pt.ine.add.PTCONT.5565630",
      "street": "R VILA",
      "house": "",
      "postcode": "5100-550",
      "city": "LALIM",
      "lon": "-7.815278092590684",
      "lat": "41.038893754417956"
    },
    {
      "id": "pt.ine.add.PTCONT.5582157",
      "street": "R VILA",
      "house": "",
      "postcode": "5100-550",
      "city": "LALIM",
      "lon": "-7.815373058939042",
      "lat": "41.03893003448779"
    },
    {
      "id": "pt.ine.add.PTCONT.5583992",
      "street": "R VILA",
      "house": "",
      "postcode": "5100-550",
      "city": "LALIM",
      "lon": "-7.815337814647428",
      "lat": "41.03883989176368"
    },
    {
      "id": "pt.ine.add.PTCONT.5583993",
      "street": "R 1 DE MAIO",
      "house": "",
      "postcode": "5100-550",
      "city": "LALIM",
      "lon": "-7.815443461224683",
      "lat": "41.039128328772144"
    },
    {
      "id": "pt.ine.add.PTCONT.5585880",
      "street": "R 1 DE MAIO",
      "house": "",
      "postcode": "5100-550",
      "city": "LALIM",
      "lon": "-7.815004436327404",
      "lat": "41.038920013102235"
    },
    {
      "id": "pt.ine.add.PTCONT.5585881",
      "street": "R 1 DE MAIO",
      "house": "",
      "postcode": "5100-550",
      "city": "LALIM",
      "lon": "-7.814909166646535",
      "lat": "41.038946763779244"
    },
    {
      "id": "pt.ine.add.PTCONT.5595306",
      "street": "R 1 DE MAIO",
      "house": "",
      "postcode": "5100-550",
      "city": "LALIM",
      "lon": "-7.81496841213043",
      "lat": "41.03899195011063"
    },
    {
      "id": "pt.ine.add.PTCONT.5596785",
      "street": "R 1 DE MAIO",
      "house": "23",
      "postcode": "5100-550",
      "city": "LALIM",
      "lon": "-7.814635640228039",
      "lat": "41.03894600827981"
    },
    {
      "id": "pt.ine.add.PTCONT.5600406",
      "street": "TV PELOURINHO",
      "house": "",
      "postcode": "5100-550",
      "city": "LALIM",
      "lon": "-7.815504178881964",
      "lat": "41.03886736400381"
    },
    {
      "id": "pt.ine.add.PTCONT.5600681",
      "street": "R 1 DE MAIO",
      "house": "",
      "postcode": "5100-550",
      "city": "LALIM",
      "lon": "-7.815146495727738",
      "lat": "41.039055473436775"
    },
    {
      "id": "pt.ine.add.PTCONT.5602453",
      "street": "R VILA",
      "house": "",
      "postcode": "5100-550",
      "city": "LALIM",
      "lon": "-7.814670189259241",
      "lat": "41.03918022217656"
    },
    {
      "id": "pt.ine.add.PTCONT.5605980",
      "street": "TV PELOURINHO",
      "house": "1",
      "postcode": "5100-550",
      "city": "LALIM",
      "lon": "-7.815420368972945",
      "lat": "41.038984192237656"
    },
    {
      "id": "pt.ine.add.PTCONT.5613731",
      "street": "TV PELOURINHO",
      "house": "8",
      "postcode": "5100-550",
      "city": "LALIM",
      "lon": "-7.815433127295546",
      "lat": "41.038804136294345"
    },
    {
      "id": "pt.ine.add.PTCONT.5613732",
      "street": "LUGAR DA FONTE CUTERRES",
      "house": "",
      "postcode": "5100-550",
      "city": "LALIM",
      "lon": "-7.813494923112302",
      "lat": "41.03874475032133"
    },
    {
      "id": "pt.ine.add.PTCONT.5622940",
      "street": "R 1 DE MAIO",
      "house": "",
      "postcode": "5100-550",
      "city": "LALIM",
      "lon": "-7.815088593606424",
      "lat": "41.03873114968331"
    },
    {
      "id": "pt.ine.add.PTCONT.5651337",
      "street": "R 1 DE MAIO",
      "house": "",
      "postcode": "5100-550",
      "city": "LALIM",
      "lon": "-7.815147925684659",
      "lat": "41.03875832705165"
    },
    {
      "id": "pt.ine.add.PTCONT.5654348",
      "street": "R 1 DE MAIO",
      "house": "",
      "postcode": "5100-550",
      "city": "LALIM",
      "lon": "-7.815147102378741",
      "lat": "41.038929411335864"
    },
    {
      "id": "pt.ine.add.PTCONT.5654349",
      "street": "R 1 DE MAIO",
      "house": "",
      "postcode": "5100-550",
      "city": "LALIM",
      "lon": "-7.814850398340368",
      "lat": "41.038802528624196"
    },
    {
      "id": "pt.ine.add.PTCONT.5654999",
      "street": "R VILA",
      "house": "",
      "postcode": "5100-550",
      "city": "LALIM",
      "lon": "-7.815551315871162",
      "lat": "41.03895753944553"
    },
    {
      "id": "pt.ine.add.PTCONT.5658786",
      "street": "R 1 DE MAIO",
      "house": "",
      "postcode": "5100-550",
      "city": "LALIM",
      "lon": "-7.815087900167936",
      "lat": "41.0388752206597"
    }
  ]
}