{
  "data": {
    "distrito": "Lisboa",
    "concelho": "Mafra",
    "freguesia": "União das freguesias de Igreja Nova e Cheleiros",
    "OBJECTID": 359,
    "BGRI2021": "11092000416",
    "DT21": "11",
    "DTMN21": "1109",
    "DTMNFR21": "110920",
    "DTMNFRSEC21": "110920004",
    "SECNUM21": "004",
    "SSNUM21": "16",
    "SECSSNUM21": "00416",
    "OBJECTID_1": 109204,
    "DT": "11",
    "CC": "09",
    "fr": "20",
    "SEC": "004",
    "SS": "16"
  },
  "addresses": [
    {
      "id": "pt.ine.add.PTCONT.2334815",
      "street": "R INACIO PEDROSO",
      "house": "3",
      "postcode": "2640-324",
      "city": "IGREJA NOVA MFR",
      "lon": "-9.317427142676767",
      "lat": "38.917410629233515"
    },
    {
      "id": "pt.ine.add.PTCONT.2334818",
      "street": "TV ADRO",
      "house": "5",
      "postcode": "2640-323",
      "city": "IGREJA NOVA MFR",
      "lon": "-9.317427142676767",
      "lat": "38.917410629233515"
    },
    {
      "id": "pt.ine.add.PTCONT.2563938",
      "street": "R LIBERDADE",
      "house": "12",
      "postcode": "2640-336",
      "city": "IGREJA NOVA MFR",
      "lon": "-9.31740019432096",
      "lat": "38.91717670840419"
    },
    {
      "id": "pt.ine.add.PTCONT.2563939",
      "street": "R LIBERDADE",
      "house": "12",
      "postcode": "2640-336",
      "city": "IGREJA NOVA MFR",
      "lon": "-9.31740019432096",
      "lat": "38.91717670840419"
    },
    {
      "id": "pt.ine.add.PTCONT.2601217",
      "street": "ESCNH ADRO",
      "house": "2",
      "postcode": "2640-324",
      "city": "IGREJA NOVA MFR",
      "lon": "-9.317830920857304",
      "lat": "38.91742454685426"
    },
    {
      "id": "pt.ine.add.PTCONT.2642206",
      "street": "R INÁCIO PEDROSO",
      "house": "9",
      "postcode": "2640-324",
      "city": "IGREJA NOVA MFR",
      "lon": "-9.317447952876245",
      "lat": "38.91727530603907"
    },
    {
      "id": "pt.ine.add.PTCONT.2767004",
      "street": "R LIBERDADE",
      "house": "8",
      "postcode": "2640-336",
      "city": "IGREJA NOVA MFR",
      "lon": "-9.317632998870987",
      "lat": "38.917309458318044"
    },
    {
      "id": "pt.ine.add.PTCONT.2865768",
      "street": "R INÁCIO PEDROSO",
      "house": "",
      "postcode": "2640-324",
      "city": "IGREJA NOVA MFR",
      "lon": "-9.31771534172312",
      "lat": "38.917407704890316"
    },
    {
      "id": "pt.ine.add.PTCONT.2945441",
      "street": "R INÁCIO PEDROSO",
      "house": "6",
      "postcode": "2640-324",
      "city": "IGREJA NOVA MFR",
      "lon": "-9.317633747562425",
      "lat": "38.91735448807282"
    },
    {
      "id": "pt.ine.add.PTCONT.3011981",
      "street": "R INÁCIO PEDROSO",
      "house": "5",
      "postcode": "2640-324",
      "city": "IGREJA NOVA MFR",
      "lon": "-9.317218142476564",
      "lat": "38.917322674797674"
    },
    {
      "id": "pt.ine.add.PTCONT.3030457",
      "street": "ESCNH ADRO",
      "house": "4",
      "postcode": "2640-324",
      "city": "IGREJA NOVA MFR",
      "lon": "-9.317853078184918",
      "lat": "38.91737027715231"
    },
    {
      "id": "pt.ine.add.PTCONT.3086987",
      "street": "R SOCIEDADE",
      "house": "15",
      "postcode": "2640-344",
      "city": "IGREJA NOVA MFR",
      "lon": "-9.31709373316186",
      "lat": "38.91677448098571"
    },
    {
      "id": "pt.ine.add.PTCONT.3123413",
      "street": "R SOCIEDADE",
      "house": "17",
      "postcode": "2640-344",
      "city": "IGREJA NOVA MFR",
      "lon": "-9.316917074126353",
      "lat": "38.91655108587448"
    },
    {
      "id": "pt.ine.add.PTCONT.3244173",
      "street": "R SOC",
      "house": "11",
      "postcode": "2640-344",
      "city": "IGREJA NOVA MFR",
      "lon": "-9.317281472137044",
      "lat": "38.91697074100239"
    },
    {
      "id": "pt.ine.add.PTCONT.3244174",
      "street": "R SOC",
      "house": "13",
      "postcode": "2640-344",
      "city": "IGREJA NOVA MFR",
      "lon": "-9.317281472137044",
      "lat": "38.91697074100239"
    },
    {
      "id": "pt.ine.add.PTCONT.3244175",
      "street": "R SOC",
      "house": "13A",
      "postcode": "2640-344",
      "city": "IGREJA NOVA MFR",
      "lon": "-9.317281472137044",
      "lat": "38.91697074100239"
    },
    {
      "id": "pt.ine.add.PTCONT.3271369",
      "street": "R INÁCIO PEDROSO",
      "house": "",
      "postcode": "2640-324",
      "city": "IGREJA NOVA MFR",
      "lon": "-9.317923444112175",
      "lat": "38.91744162272231"
    },
    {
      "id": "pt.ine.add.PTCONT.3411064",
      "street": "R CENTIEIRAS",
      "house": "2",
      "postcode": "2640-330",
      "city": "IGREJA NOVA MFR",
      "lon": "-9.316980096239803",
      "lat": "38.917568290987"
    },
    {
      "id": "pt.ine.add.PTCONT.3450211",
      "street": "ESCNH ADRO",
      "house": "1",
      "postcode": "2640-324",
      "city": "IGREJA NOVA MFR",
      "lon": "-9.317725671682183",
      "lat": "38.91733554029703"
    }
  ]
}