{
  "data": {
    "distrito": "Viseu",
    "concelho": "Moimenta da Beira",
    "freguesia": "União das freguesias de Peva e Segões",
    "OBJECTID": 43,
    "BGRI2021": "18072300102",
    "DT21": "18",
    "DTMN21": "1807",
    "DTMNFR21": "180723",
    "DTMNFRSEC21": "180723001",
    "SECNUM21": "001",
    "SSNUM21": "02",
    "SECSSNUM21": "00102",
    "OBJECTID_1": 192675,
    "DT": "18",
    "CC": "07",
    "fr": "23",
    "SEC": "001",
    "SS": "02"
  },
  "addresses": [
    {
      "id": "pt.ine.add.PTCONT.5427082",
      "street": "R PONTE",
      "house": "",
      "postcode": "3620-490",
      "city": "SEGÕES",
      "lon": "-7.669835204719043",
      "lat": "40.85657847849618"
    },
    {
      "id": "pt.ine.add.PTCONT.5429162",
      "street": "LG CRUZEIRO",
      "house": "",
      "postcode": "3620-490",
      "city": "SEGÕES",
      "lon": "-7.669080071681559",
      "lat": "40.857719055009376"
    },
    {
      "id": "pt.ine.add.PTCONT.5432717",
      "street": "LG CRUZEIRO",
      "house": "",
      "postcode": "3620-490",
      "city": "SEGÕES",
      "lon": "-7.669143203003976",
      "lat": "40.85717001517312"
    },
    {
      "id": "pt.ine.add.PTCONT.5443727",
      "street": "LG CRUZEIRO",
      "house": "",
      "postcode": "3620-490",
      "city": "SEGÕES",
      "lon": "-7.669425951661442",
      "lat": "40.857441296567565"
    },
    {
      "id": "pt.ine.add.PTCONT.5443853",
      "street": "R PACO",
      "house": "",
      "postcode": "3620-490",
      "city": "SEGÕES",
      "lon": "-7.668547073758492",
      "lat": "40.85761785672104"
    },
    {
      "id": "pt.ine.add.PTCONT.5453217",
      "street": "R PACO",
      "house": "",
      "postcode": "3620-490",
      "city": "SEGÕES",
      "lon": "-7.6685728691071215",
      "lat": "40.857320801680345"
    },
    {
      "id": "pt.ine.add.PTCONT.5454877",
      "street": "R PONTE",
      "house": "",
      "postcode": "3620-490",
      "city": "SEGÕES",
      "lon": "-7.66984455509451",
      "lat": "40.85693870873648"
    },
    {
      "id": "pt.ine.add.PTCONT.5456670",
      "street": "LG CRUZEIRO",
      "house": "",
      "postcode": "3620-490",
      "city": "SEGÕES",
      "lon": "-7.669270393397461",
      "lat": "40.85763877711675"
    },
    {
      "id": "pt.ine.add.PTCONT.5458436",
      "street": "AV AQUILINO RIBEIRO",
      "house": "",
      "postcode": "3620-490",
      "city": "SEGÕES",
      "lon": "-7.663852368239815",
      "lat": "40.85903061952452"
    },
    {
      "id": "pt.ine.add.PTCONT.5458575",
      "street": "R PACO",
      "house": "",
      "postcode": "3620-490",
      "city": "SEGÕES",
      "lon": "-7.6688912581815",
      "lat": "40.85758322308185"
    },
    {
      "id": "pt.ine.add.PTCONT.5461137",
      "street": "R PACO",
      "house": "",
      "postcode": "3620-490",
      "city": "SEGÕES",
      "lon": "-7.668653371323226",
      "lat": "40.85768131847448"
    },
    {
      "id": "pt.ine.add.PTCONT.5462860",
      "street": "LG CRUZEIRO",
      "house": "",
      "postcode": "3620-490",
      "city": "SEGÕES",
      "lon": "-7.669271586779145",
      "lat": "40.85746769041386"
    },
    {
      "id": "pt.ine.add.PTCONT.5466385",
      "street": "R PONTE",
      "house": "",
      "postcode": "3620-490",
      "city": "SEGÕES",
      "lon": "-7.670012471265622",
      "lat": "40.85666923845848"
    },
    {
      "id": "pt.ine.add.PTCONT.5466386",
      "street": "R CARGA",
      "house": "",
      "postcode": "3620-490",
      "city": "SEGÕES",
      "lon": "-7.668615779256436",
      "lat": "40.85796932119836"
    },
    {
      "id": "pt.ine.add.PTCONT.5471272",
      "street": "R PACO",
      "house": "",
      "postcode": "3620-490",
      "city": "SEGÕES",
      "lon": "-7.668787098287409",
      "lat": "40.8572136064048"
    },
    {
      "id": "pt.ine.add.PTCONT.5489122",
      "street": "R PONTE",
      "house": "",
      "postcode": "3620-490",
      "city": "SEGÕES",
      "lon": "-7.669890550986689",
      "lat": "40.85714600423487"
    },
    {
      "id": "pt.ine.add.PTCONT.5489123",
      "street": "R CARGA",
      "house": "",
      "postcode": "3620-490",
      "city": "SEGÕES",
      "lon": "-7.6687117897693415",
      "lat": "40.857807621091595"
    },
    {
      "id": "pt.ine.add.PTCONT.5489124",
      "street": "R CARGA",
      "house": "",
      "postcode": "3620-490",
      "city": "SEGÕES",
      "lon": "-7.66866397324908",
      "lat": "40.85786145746978"
    },
    {
      "id": "pt.ine.add.PTCONT.5509524",
      "street": "R PACO",
      "house": "",
      "postcode": "3620-490",
      "city": "SEGÕES",
      "lon": "-7.6685855465349295",
      "lat": "40.85720379012218"
    },
    {
      "id": "pt.ine.add.PTCONT.5514124",
      "street": "LG CRUZEIRO",
      "house": "",
      "postcode": "3620-490",
      "city": "SEGÕES",
      "lon": "-7.669353851324517",
      "lat": "40.857576078963554"
    },
    {
      "id": "pt.ine.add.PTCONT.5516887",
      "street": "R PONTE",
      "house": "",
      "postcode": "3620-490",
      "city": "SEGÕES",
      "lon": "-7.669938742307307",
      "lat": "40.857038139943924"
    },
    {
      "id": "pt.ine.add.PTCONT.5523207",
      "street": "LG CRUZEIRO",
      "house": "",
      "postcode": "3620-490",
      "city": "SEGÕES",
      "lon": "-7.669486254780283",
      "lat": "40.85729746189234"
    },
    {
      "id": "pt.ine.add.PTCONT.5523208",
      "street": "R PACO",
      "house": "",
      "postcode": "3620-490",
      "city": "SEGÕES",
      "lon": "-7.668809937460524",
      "lat": "40.85733976576221"
    },
    {
      "id": "pt.ine.add.PTCONT.5524340",
      "street": "R PONTE",
      "house": "",
      "postcode": "3620-490",
      "city": "SEGÕES",
      "lon": "-7.669904982288071",
      "lat": "40.85677686469192"
    },
    {
      "id": "pt.ine.add.PTCONT.5526376",
      "street": "R PONTE",
      "house": "",
      "postcode": "3620-490",
      "city": "SEGÕES",
      "lon": "-7.66984386505687",
      "lat": "40.857037758950625"
    },
    {
      "id": "pt.ine.add.PTCONT.5532150",
      "street": "R PONTE",
      "house": "",
      "postcode": "3620-490",
      "city": "SEGÕES",
      "lon": "-7.669737128152303",
      "lat": "40.85703733023992"
    },
    {
      "id": "pt.ine.add.PTCONT.5532151",
      "street": "LG CRUZEIRO",
      "house": "",
      "postcode": "3620-490",
      "city": "SEGÕES",
      "lon": "-7.669532877531224",
      "lat": "40.85741471187817"
    },
    {
      "id": "pt.ine.add.PTCONT.5533856",
      "street": "R PACO",
      "house": "",
      "postcode": "3620-490",
      "city": "SEGÕES",
      "lon": "-7.669213418827148",
      "lat": "40.8573053698143"
    },
    {
      "id": "pt.ine.add.PTCONT.5535112",
      "street": "R PONTE",
      "house": "",
      "postcode": "3620-490",
      "city": "SEGÕES",
      "lon": "-7.669977206053256",
      "lat": "40.856624072790765"
    },
    {
      "id": "pt.ine.add.PTCONT.5540029",
      "street": "R PACO",
      "house": "",
      "postcode": "3620-490",
      "city": "SEGÕES",
      "lon": "-7.668511179923116",
      "lat": "40.85766273623782"
    },
    {
      "id": "pt.ine.add.PTCONT.5551340",
      "street": "LG CRUZEIRO",
      "house": "",
      "postcode": "3620-490",
      "city": "SEGÕES",
      "lon": "-7.669187751987173",
      "lat": "40.85758441588821"
    },
    {
      "id": "pt.ine.add.PTCONT.5556630",
      "street": "R PACO",
      "house": "",
      "postcode": "3620-490",
      "city": "SEGÕES",
      "lon": "-7.6689528196314605",
      "lat": "40.857259297432215"
    },
    {
      "id": "pt.ine.add.PTCONT.5560150",
      "street": "LG CRUZEIRO",
      "house": "",
      "postcode": "3620-490",
      "city": "SEGÕES",
      "lon": "-7.669403174076529",
      "lat": "40.85730613276397"
    },
    {
      "id": "pt.ine.add.PTCONT.5567759",
      "street": "R PACO",
      "house": "",
      "postcode": "3620-490",
      "city": "SEGÕES",
      "lon": "-7.6684043791083925",
      "lat": "40.857671310850634"
    },
    {
      "id": "pt.ine.add.PTCONT.5588971",
      "street": "R PONTE",
      "house": "",
      "postcode": "3620-490",
      "city": "SEGÕES",
      "lon": "-7.669652416124443",
      "lat": "40.85728011996915"
    },
    {
      "id": "pt.ine.add.PTCONT.5589776",
      "street": "LG CRUZEIRO",
      "house": "",
      "postcode": "3620-490",
      "city": "SEGÕES",
      "lon": "-7.669198920725783",
      "lat": "40.857683513778625"
    },
    {
      "id": "pt.ine.add.PTCONT.5617579",
      "street": "LG CRUZEIRO",
      "house": "",
      "postcode": "3620-490",
      "city": "SEGÕES",
      "lon": "-7.668961222511253",
      "lat": "40.857754596116806"
    },
    {
      "id": "pt.ine.add.PTCONT.5625300",
      "street": "R PACO",
      "house": "",
      "postcode": "3620-490",
      "city": "SEGÕES",
      "lon": "-7.669034266463842",
      "lat": "40.857484745530606"
    },
    {
      "id": "pt.ine.add.PTCONT.5627823",
      "street": "R PACO",
      "house": "",
      "postcode": "3620-490",
      "city": "SEGÕES",
      "lon": "-7.669130777875624",
      "lat": "40.857251008544296"
    },
    {
      "id": "pt.ine.add.PTCONT.5629038",
      "street": "R PACO",
      "house": "",
      "postcode": "3620-490",
      "city": "SEGÕES",
      "lon": "-7.668999378567711",
      "lat": "40.85738555219241"
    },
    {
      "id": "pt.ine.add.PTCONT.5636437",
      "street": "LG CRUZEIRO",
      "house": "",
      "postcode": "3620-490",
      "city": "SEGÕES",
      "lon": "-7.66932065857198",
      "lat": "40.857233762501394"
    },
    {
      "id": "pt.ine.add.PTCONT.5641160",
      "street": "LG CRUZEIRO",
      "house": "",
      "postcode": "3620-490",
      "city": "SEGÕES",
      "lon": "-7.669285895989217",
      "lat": "40.857116560115905"
    },
    {
      "id": "pt.ine.add.PTCONT.5642214",
      "street": "R PONTE",
      "house": "",
      "postcode": "3620-490",
      "city": "SEGÕES",
      "lon": "-7.669857982947489",
      "lat": "40.85671364223487"
    },
    {
      "id": "pt.ine.add.PTCONT.5649794",
      "street": "R PACO",
      "house": "",
      "postcode": "3620-490",
      "city": "SEGÕES",
      "lon": "-7.668691591928879",
      "lat": "40.85730327009328"
    },
    {
      "id": "pt.ine.add.PTCONT.5664284",
      "street": "R PACO",
      "house": "",
      "postcode": "3620-490",
      "city": "SEGÕES",
      "lon": "-7.669047571507654",
      "lat": "40.857277688287006"
    }
  ]
}