{
  "data": {
    "distrito": "Coimbra",
    "concelho": "Oliveira do Hospital",
    "freguesia": "Travanca de Lagos",
    "OBJECTID": 540,
    "BGRI2021": "06111900111",
    "DT21": "06",
    "DTMN21": "0611",
    "DTMNFR21": "061119",
    "DTMNFRSEC21": "061119001",
    "SECNUM21": "001",
    "SSNUM21": "11",
    "SECSSNUM21": "00111",
    "OBJECTID_1": 54548,
    "DT": "06",
    "CC": "11",
    "fr": "19",
    "SEC": "001",
    "SS": "11"
  },
  "addresses": [
    {
      "id": "pt.ine.add.PTCONT.1119909",
      "street": "QTA DA RIBEIRA",
      "house": "",
      "postcode": "3405-507",
      "city": "TRAVANCA DE LAGOS",
      "lon": "-7.9208849753857615",
      "lat": "40.37520069123351"
    },
    {
      "id": "pt.ine.add.PTCONT.1156684",
      "street": "R DOS LAMEIROS",
      "house": "9",
      "postcode": "3405-501",
      "city": "TRAVANCA DE LAGOS",
      "lon": "-7.904963035459557",
      "lat": "40.37578275812953"
    },
    {
      "id": "pt.ine.add.PTCONT.1156685",
      "street": "TV DA DEVESSA",
      "house": "3",
      "postcode": "3405-501",
      "city": "TRAVANCA DE LAGOS",
      "lon": "-7.907027359407704",
      "lat": "40.37468812866818"
    },
    {
      "id": "pt.ine.add.PTCONT.1178235",
      "street": "R DA CALÇADA",
      "house": "38",
      "postcode": "3405-501",
      "city": "TRAVANCA DE LAGOS",
      "lon": "-7.907899336380708",
      "lat": "40.37450071233985"
    },
    {
      "id": "pt.ine.add.PTCONT.1201205",
      "street": "R DOS LAMEIROS",
      "house": "15",
      "postcode": "3405-501",
      "city": "TRAVANCA DE LAGOS",
      "lon": "-7.902869020243767",
      "lat": "40.37520224970479"
    },
    {
      "id": "pt.ine.add.PTCONT.1211114",
      "street": "QTA DA ALAGOA",
      "house": "",
      "postcode": "3405-488",
      "city": "TRAVANCA DE LAGOS",
      "lon": "-7.91220647377194",
      "lat": "40.37887673580486"
    },
    {
      "id": "pt.ine.add.PTCONT.1216775",
      "street": "R DA CALÇADA",
      "house": "26",
      "postcode": "3405-501",
      "city": "TRAVANCA DE LAGOS",
      "lon": "-7.906709375109176",
      "lat": "40.374705517810256"
    },
    {
      "id": "pt.ine.add.PTCONT.1219031",
      "street": "ESTR PRINCIPAL",
      "house": "10",
      "postcode": "3405-501",
      "city": "TRAVANCA DE LAGOS",
      "lon": "-7.902364904859145",
      "lat": "40.37455284162892"
    },
    {
      "id": "pt.ine.add.PTCONT.1234982",
      "street": "ESTR PRINCIPAL",
      "house": "14",
      "postcode": "3405-501",
      "city": "TRAVANCA DE LAGOS",
      "lon": "-7.902799320436091",
      "lat": "40.37492293726247"
    },
    {
      "id": "pt.ine.add.PTCONT.1238849",
      "street": "R DA CALÇADA",
      "house": "40",
      "postcode": "3405-501",
      "city": "TRAVANCA DE LAGOS",
      "lon": "-7.907969985972445",
      "lat": "40.37450084989812"
    },
    {
      "id": "pt.ine.add.PTCONT.1243098",
      "street": "R ALTO DAS PALHEIRAS",
      "house": "6",
      "postcode": "3405-501",
      "city": "TRAVANCA DE LAGOS",
      "lon": "-7.908346634193916",
      "lat": "40.37454661053891"
    },
    {
      "id": "pt.ine.add.PTCONT.1257988",
      "street": "ESTR PRINCIPAL",
      "house": "12",
      "postcode": "3405-501",
      "city": "TRAVANCA DE LAGOS",
      "lon": "-7.9027057032176895",
      "lat": "40.37475164434716"
    },
    {
      "id": "pt.ine.add.PTCONT.1258373",
      "street": "QTA DA ALAGOA",
      "house": "",
      "postcode": "3405-488",
      "city": "TRAVANCA DE LAGOS",
      "lon": "-7.911523955412665",
      "lat": "40.378731340521995"
    },
    {
      "id": "pt.ine.add.PTCONT.1266572",
      "street": "QTA DA ALAGOA",
      "house": "",
      "postcode": "3405-533",
      "city": "TRAVANCA DE LAGOS",
      "lon": "-7.912360468987088",
      "lat": "40.37859785634649"
    },
    {
      "id": "pt.ine.add.PTCONT.1268047",
      "street": "TV DA DEVESSA",
      "house": "5",
      "postcode": "3405-501",
      "city": "TRAVANCA DE LAGOS",
      "lon": "-7.907074158348336",
      "lat": "40.37477827617429"
    },
    {
      "id": "pt.ine.add.PTCONT.1270140",
      "street": "R DOS LAMEIROS",
      "house": "13",
      "postcode": "3405-501",
      "city": "TRAVANCA DE LAGOS",
      "lon": "-7.903186762939187",
      "lat": "40.37525691545944"
    },
    {
      "id": "pt.ine.add.PTCONT.1276432",
      "street": "QTA DA ALAGOA",
      "house": "",
      "postcode": "3405-488",
      "city": "TRAVANCA DE LAGOS",
      "lon": "-7.912466861112007",
      "lat": "40.37847198101693"
    },
    {
      "id": "pt.ine.add.PTCONT.1280353",
      "street": "TV DA DEVESSA",
      "house": "7",
      "postcode": "3405-501",
      "city": "TRAVANCA DE LAGOS",
      "lon": "-7.90712092732781",
      "lat": "40.37487742920421"
    },
    {
      "id": "pt.ine.add.PTCONT.1282286",
      "street": "R DA CALÇADA",
      "house": "36",
      "postcode": "3405-501",
      "city": "TRAVANCA DE LAGOS",
      "lon": "-7.907828656798648",
      "lat": "40.3745095802833"
    },
    {
      "id": "pt.ine.add.PTCONT.1288244",
      "street": "R MARIA PRECIOSA DE MATOS",
      "house": "2",
      "postcode": "3405-501",
      "city": "TRAVANCA DE LAGOS",
      "lon": "-7.908582521577969",
      "lat": "40.3744299958986"
    },
    {
      "id": "pt.ine.add.PTCONT.1296782",
      "street": "R DA CALÇADA",
      "house": "34",
      "postcode": "3405-501",
      "city": "TRAVANCA DE LAGOS",
      "lon": "-7.907758127199264",
      "lat": "40.374473420459346"
    },
    {
      "id": "pt.ine.add.PTCONT.1316849",
      "street": "R DOS LAMEIROS",
      "house": "17",
      "postcode": "3405-501",
      "city": "TRAVANCA DE LAGOS",
      "lon": "-7.902785491024957",
      "lat": "40.37552628503095"
    },
    {
      "id": "pt.ine.add.PTCONT.1324610",
      "street": "R DA CALÇADA",
      "house": "28",
      "postcode": "3405-501",
      "city": "TRAVANCA DE LAGOS",
      "lon": "-7.907027810871411",
      "lat": "40.3745530455055"
    },
    {
      "id": "pt.ine.add.PTCONT.1326620",
      "street": "TV DA DEVESSA",
      "house": "1",
      "postcode": "3405-501",
      "city": "TRAVANCA DE LAGOS",
      "lon": "-7.906968665221592",
      "lat": "40.37463398029454"
    },
    {
      "id": "pt.ine.add.PTCONT.1337204",
      "street": "QTA DA ALAGOA",
      "house": "",
      "postcode": "3405-488",
      "city": "TRAVANCA DE LAGOS",
      "lon": "-7.911785701788807",
      "lat": "40.37791233235455"
    }
  ]
}