{
  "data": {
    "distrito": "Lisboa",
    "concelho": "Torres Vedras",
    "freguesia": "Silveira",
    "OBJECTID": 244,
    "BGRI2021": "11131600420",
    "DT21": "11",
    "DTMN21": "1113",
    "DTMNFR21": "111316",
    "DTMNFRSEC21": "111316004",
    "SECNUM21": "004",
    "SSNUM21": "20",
    "SECSSNUM21": "00420",
    "OBJECTID_1": 115220,
    "DT": "11",
    "CC": "13",
    "fr": "16",
    "SEC": "004",
    "SS": "20"
  },
  "addresses": [
    {
      "id": "pt.ine.add.PTCONT.2447386",
      "street": "TV BOGALHOS",
      "house": "2",
      "postcode": "2560-434",
      "city": "SILVEIRA",
      "lon": "-9.34607347761541",
      "lat": "39.10159528233709"
    },
    {
      "id": "pt.ine.add.PTCONT.2563886",
      "street": "R 1 DE MAIO",
      "house": "7",
      "postcode": "2560-434",
      "city": "SILVEIRA",
      "lon": "-9.346846613057213",
      "lat": "39.101515177749434"
    },
    {
      "id": "pt.ine.add.PTCONT.2646008",
      "street": "TV BOGALHOS",
      "house": "1",
      "postcode": "2560-434",
      "city": "SILVEIRA",
      "lon": "-9.346199841374988",
      "lat": "39.10154893154306"
    },
    {
      "id": "pt.ine.add.PTCONT.2841964",
      "street": "R 1 DE MAIO",
      "house": "1",
      "postcode": "2560-434",
      "city": "SILVEIRA",
      "lon": "-9.346051905461634",
      "lat": "39.10168557857596"
    },
    {
      "id": "pt.ine.add.PTCONT.2913610",
      "street": "TV QUINTINOS",
      "house": "2",
      "postcode": "2560-434",
      "city": "SILVEIRA",
      "lon": "-9.345667103851861",
      "lat": "39.101491423875885"
    },
    {
      "id": "pt.ine.add.PTCONT.2931372",
      "street": "TV QUINTINOS",
      "house": "8",
      "postcode": "2560-434",
      "city": "SILVEIRA",
      "lon": "-9.346523150105014",
      "lat": "39.10152755230836"
    },
    {
      "id": "pt.ine.add.PTCONT.3060238",
      "street": "TV QUINTINOS",
      "house": "6",
      "postcode": "2560-434",
      "city": "SILVEIRA",
      "lon": "-9.346350246755357",
      "lat": "39.10155637346815"
    },
    {
      "id": "pt.ine.add.PTCONT.3079275",
      "street": "TV QUINTINOS",
      "house": "4",
      "postcode": "2560-434",
      "city": "SILVEIRA",
      "lon": "-9.34602554880066",
      "lat": "39.10149670207591"
    },
    {
      "id": "pt.ine.add.PTCONT.3330423",
      "street": "R PRINCIPAL",
      "house": "47",
      "postcode": "2560-441",
      "city": "SILVEIRA",
      "lon": "-9.34571626654712",
      "lat": "39.10166204887755"
    },
    {
      "id": "pt.ine.add.PTCONT.3392367",
      "street": "R 1 DE MAIO",
      "house": "5",
      "postcode": "2560-434",
      "city": "SILVEIRA",
      "lon": "-9.346501732943032",
      "lat": "39.101626854192574"
    }
  ]
}