{
  "data": {
    "distrito": "Coimbra",
    "concelho": "TÃ¡bua",
    "freguesia": "Mouronho",
    "OBJECTID": 464,
    "BGRI2021": "06160900143",
    "DT21": "06",
    "DTMN21": "0616",
    "DTMNFR21": "061609",
    "DTMNFRSEC21": "061609001",
    "SECNUM21": "001",
    "SSNUM21": "43",
    "SECSSNUM21": "00143",
    "OBJECTID_1": 57705,
    "DT": "06",
    "CC": "16",
    "fr": "09",
    "SEC": "001",
    "SS": "43"
  },
  "addresses": [
    {
      "id": "pt.ine.add.PTCONT.1125160",
      "street": "R MARQUES ABREU",
      "house": "501",
      "postcode": "3420-170",
      "city": "MOURONHO",
      "lon": "-8.026411554338463",
      "lat": "40.30188696009385"
    },
    {
      "id": "pt.ine.add.PTCONT.1130417",
      "street": "R MARQUES ABREU",
      "house": "",
      "postcode": "3420-170",
      "city": "MOURONHO",
      "lon": "-8.026835776370893",
      "lat": "40.30139203561706"
    },
    {
      "id": "pt.ine.add.PTCONT.1229954",
      "street": "R MARQUES ABREU",
      "house": "217",
      "postcode": "3420-170",
      "city": "MOURONHO",
      "lon": "-8.026321524752344",
      "lat": "40.29930223324733"
    },
    {
      "id": "pt.ine.add.PTCONT.1247355",
      "street": "R DO VALE DA VACA",
      "house": "",
      "postcode": "3420-170",
      "city": "MOURONHO",
      "lon": "-8.027903673089419",
      "lat": "40.30298702493533"
    },
    {
      "id": "pt.ine.add.PTCONT.1255989",
      "street": "R MARQUES ABREU",
      "house": "177",
      "postcode": "3420-170",
      "city": "MOURONHO",
      "lon": "-8.026239758761612",
      "lat": "40.29894192855939"
    },
    {
      "id": "pt.ine.add.PTCONT.1282361",
      "street": "R MARQUES ABREU",
      "house": "269",
      "postcode": "3420-170",
      "city": "MOURONHO",
      "lon": "-8.026367707982141",
      "lat": "40.29985162533717"
    },
    {
      "id": "pt.ine.add.PTCONT.1320648",
      "street": "R MARQUES ABREU",
      "house": "437",
      "postcode": "3420-170",
      "city": "MOURONHO",
      "lon": "-8.02653008393033",
      "lat": "40.301310702884216"
    },
    {
      "id": "pt.ine.add.PTCONT.1353515",
      "street": "R MARQUES ABREU",
      "house": "295",
      "postcode": "3420-170",
      "city": "MOURONHO",
      "lon": "-8.026590649172533",
      "lat": "40.30019404848245"
    },
    {
      "id": "pt.ine.add.PTCONT.1362911",
      "street": "R MARQUES ABREU",
      "house": "295",
      "postcode": "3420-170",
      "city": "MOURONHO",
      "lon": "-8.026437954422853",
      "lat": "40.30005882187897"
    }
  ]
}