{
  "data": {
    "distrito": "Vila Real",
    "concelho": "Peso da Régua",
    "freguesia": "União das freguesias de Moura Morta e Vinhós",
    "OBJECTID": 427,
    "BGRI2021": "17081400114",
    "DT21": "17",
    "DTMN21": "1708",
    "DTMNFR21": "170814",
    "DTMNFRSEC21": "170814001",
    "SECNUM21": "001",
    "SSNUM21": "14",
    "SECSSNUM21": "00114",
    "OBJECTID_1": 184414,
    "DT": "17",
    "CC": "08",
    "fr": "14",
    "SEC": "001",
    "SS": "14"
  },
  "addresses": [
    {
      "id": "pt.ine.add.PTCONT.5296677",
      "street": "R PRAÇA",
      "house": "",
      "postcode": "5050-326",
      "city": "MOURA MORTA PRG",
      "lon": "-7.839617814760943",
      "lat": "41.19493315087765"
    },
    {
      "id": "pt.ine.add.PTCONT.5313091",
      "street": "R PRAÇA",
      "house": "",
      "postcode": "5050-326",
      "city": "MOURA MORTA PRG",
      "lon": "-7.839415767090597",
      "lat": "41.19479757109871"
    },
    {
      "id": "pt.ine.add.PTCONT.5333633",
      "street": "R JAMPAEIRA",
      "house": "",
      "postcode": "5050-327",
      "city": "MOURA MORTA PRG",
      "lon": "-7.840117198042985",
      "lat": "41.19522256044485"
    },
    {
      "id": "pt.ine.add.PTCONT.5336286",
      "street": "R JAMPAEIRA",
      "house": "5",
      "postcode": "5050-327",
      "city": "MOURA MORTA PRG",
      "lon": "-7.839546009166574",
      "lat": "41.19499599806992"
    },
    {
      "id": "pt.ine.add.PTCONT.5355460",
      "street": "R PEDREIRA",
      "house": "900",
      "postcode": "5050-329",
      "city": "MOURA MORTA PRG",
      "lon": "-7.839858357872274",
      "lat": "41.194456534933096"
    },
    {
      "id": "pt.ine.add.PTCONT.5373267",
      "street": "CAM SOBREIROS",
      "house": "598",
      "postcode": "5050-329",
      "city": "MOURA MORTA PRG",
      "lon": "-7.841281029818652",
      "lat": "41.19621598981646"
    },
    {
      "id": "pt.ine.add.PTCONT.5392093",
      "street": "R PEDREIRA",
      "house": "931",
      "postcode": "5050-329",
      "city": "MOURA MORTA PRG",
      "lon": "-7.839798232471214",
      "lat": "41.194573437918"
    },
    {
      "id": "pt.ine.add.PTCONT.5408058",
      "street": "R PRAÇA",
      "house": "15",
      "postcode": "5050-326",
      "city": "MOURA MORTA PRG",
      "lon": "-7.8394748874634255",
      "lat": "41.194905773618814"
    },
    {
      "id": "pt.ine.add.PTCONT.5410673",
      "street": "R PEDREIRA",
      "house": "999",
      "postcode": "5050-329",
      "city": "MOURA MORTA PRG",
      "lon": "-7.839582736533077",
      "lat": "41.19477998813608"
    },
    {
      "id": "pt.ine.add.PTCONT.5419209",
      "street": "CAM SOBREIROS",
      "house": "92",
      "postcode": "5050-329",
      "city": "MOURA MORTA PRG",
      "lon": "-7.843872780779656",
      "lat": "41.19510599303572"
    }
  ]
}