{
  "data": {
    "distrito": "Leiria",
    "concelho": "Caldas da Rainha",
    "freguesia": "Nadadouro",
    "OBJECTID": 873,
    "BGRI2021": "10060800111",
    "DT21": "10",
    "DTMN21": "1006",
    "DTMNFR21": "100608",
    "DTMNFRSEC21": "100608001",
    "SECNUM21": "001",
    "SSNUM21": "11",
    "SECSSNUM21": "00111",
    "OBJECTID_1": 88580,
    "DT": "10",
    "CC": "06",
    "fr": "08",
    "SEC": "001",
    "SS": "11"
  },
  "addresses": [
    {
      "id": "pt.ine.add.PTCONT.1993818",
      "street": "R ALTO",
      "house": "14",
      "postcode": "2500-591",
      "city": "NADADOURO",
      "lon": "-9.199076991195996",
      "lat": "39.417458708941034"
    },
    {
      "id": "pt.ine.add.PTCONT.2002434",
      "street": "PCT ALECRIM",
      "house": "",
      "postcode": "2500-603",
      "city": "NADADOURO",
      "lon": "-9.199285188753619",
      "lat": "39.41588061065029"
    },
    {
      "id": "pt.ine.add.PTCONT.2003971",
      "street": "R CAMELIAS",
      "house": "6",
      "postcode": "2500-590",
      "city": "NADADOURO",
      "lon": "-9.198247248797356",
      "lat": "39.41329615974876"
    },
    {
      "id": "pt.ine.add.PTCONT.2011172",
      "street": "R ALTO",
      "house": "54",
      "postcode": "2500-591",
      "city": "NADADOURO",
      "lon": "-9.198292493802972",
      "lat": "39.41398026271105"
    },
    {
      "id": "pt.ine.add.PTCONT.2046175",
      "street": "PCT ALECRIM",
      "house": "",
      "postcode": "2500-603",
      "city": "NADADOURO",
      "lon": "-9.199688166546839",
      "lat": "39.416417324456965"
    },
    {
      "id": "pt.ine.add.PTCONT.2049002",
      "street": "PCT ALECRIM",
      "house": "4",
      "postcode": "2500-603",
      "city": "NADADOURO",
      "lon": "-9.199549750807138",
      "lat": "39.415716063005135"
    },
    {
      "id": "pt.ine.add.PTCONT.2050729",
      "street": "R LAGOA",
      "house": "22",
      "postcode": "2500-590",
      "city": "NADADOURO",
      "lon": "-9.199561443985178",
      "lat": "39.41495938436409"
    },
    {
      "id": "pt.ine.add.PTCONT.2061731",
      "street": "R ALTO",
      "house": "20",
      "postcode": "2500-591",
      "city": "NADADOURO",
      "lon": "-9.198956910085496",
      "lat": "39.41719861210203"
    },
    {
      "id": "pt.ine.add.PTCONT.2072421",
      "street": "R ALTO",
      "house": "10",
      "postcode": "2500-591",
      "city": "NADADOURO",
      "lon": "-9.199207448899005",
      "lat": "39.41763764934226"
    },
    {
      "id": "pt.ine.add.PTCONT.2072422",
      "street": "R LAGOA",
      "house": "20",
      "postcode": "2500-590",
      "city": "NADADOURO",
      "lon": "-9.199165608650613",
      "lat": "39.41489095830047"
    },
    {
      "id": "pt.ine.add.PTCONT.2076556",
      "street": "R LAGOA",
      "house": "",
      "postcode": "2500-590",
      "city": "NADADOURO",
      "lon": "-9.198876913322229",
      "lat": "39.41347052855008"
    },
    {
      "id": "pt.ine.add.PTCONT.2078810",
      "street": "R ALTO",
      "house": "24",
      "postcode": "2500-591",
      "city": "NADADOURO",
      "lon": "-9.198885465300348",
      "lat": "39.417082178321564"
    },
    {
      "id": "pt.ine.add.PTCONT.2078815",
      "street": "R ORQUIDEAS",
      "house": "1",
      "postcode": "2500-590",
      "city": "NADADOURO",
      "lon": "-9.198886649543702",
      "lat": "39.414109922538536"
    },
    {
      "id": "pt.ine.add.PTCONT.2087807",
      "street": "R ALTO",
      "house": "52",
      "postcode": "2500-591",
      "city": "NADADOURO",
      "lon": "-9.198434963867406",
      "lat": "39.41418611453703"
    },
    {
      "id": "pt.ine.add.PTCONT.2094373",
      "street": "R ALTO",
      "house": "56",
      "postcode": "2500-591",
      "city": "NADADOURO",
      "lon": "-9.198125708831448",
      "lat": "39.4137025788723"
    },
    {
      "id": "pt.ine.add.PTCONT.2094374",
      "street": "R CAMELIAS",
      "house": "2",
      "postcode": "2500-590",
      "city": "NADADOURO",
      "lon": "-9.19879125773848",
      "lat": "39.41318309550035"
    },
    {
      "id": "pt.ine.add.PTCONT.2098506",
      "street": "R ALTO",
      "house": "26",
      "postcode": "2500-591",
      "city": "NADADOURO",
      "lon": "-9.198849537286014",
      "lat": "39.41701045309648"
    },
    {
      "id": "pt.ine.add.PTCONT.2098507",
      "street": "R ALTO",
      "house": "32",
      "postcode": "2500-591",
      "city": "NADADOURO",
      "lon": "-9.198742302199873",
      "lat": "39.41683129952277"
    },
    {
      "id": "pt.ine.add.PTCONT.2099985",
      "street": "R ORQUIDEAS",
      "house": "2",
      "postcode": "2500-590",
      "city": "NADADOURO",
      "lon": "-9.19898606340487",
      "lat": "39.41377575985242"
    },
    {
      "id": "pt.ine.add.PTCONT.2107924",
      "street": "PCT ALECRIM CACTUS",
      "house": "8",
      "postcode": "2500-603",
      "city": "NADADOURO",
      "lon": "-9.199218820605848",
      "lat": "39.416097382193286"
    },
    {
      "id": "pt.ine.add.PTCONT.2114252",
      "street": "R ALTO",
      "house": "50",
      "postcode": "2500-591",
      "city": "NADADOURO",
      "lon": "-9.19857812024877",
      "lat": "39.414436993915174"
    },
    {
      "id": "pt.ine.add.PTCONT.2123006",
      "street": "R ALTO CASA DAS CAMELIAS",
      "house": "58",
      "postcode": "2500-591",
      "city": "NADADOURO",
      "lon": "-9.19794786354448",
      "lat": "39.413461023249575"
    },
    {
      "id": "pt.ine.add.PTCONT.2125113",
      "street": "R ALTO",
      "house": "18",
      "postcode": "2500-591",
      "city": "NADADOURO",
      "lon": "-9.199004585797116",
      "lat": "39.417279236442646"
    },
    {
      "id": "pt.ine.add.PTCONT.2125114",
      "street": "R LAGOA",
      "house": "18",
      "postcode": "2500-590",
      "city": "NADADOURO",
      "lon": "-9.198930118669407",
      "lat": "39.414676952947765"
    },
    {
      "id": "pt.ine.add.PTCONT.2133809",
      "street": "R CAMELIAS",
      "house": "3",
      "postcode": "2500-590",
      "city": "NADADOURO",
      "lon": "-9.198461020394404",
      "lat": "39.41360944034071"
    },
    {
      "id": "pt.ine.add.PTCONT.2168794",
      "street": "R LAGOA",
      "house": "16",
      "postcode": "2500-590",
      "city": "NADADOURO",
      "lon": "-9.198890900667228",
      "lat": "39.41438909453894"
    },
    {
      "id": "pt.ine.add.PTCONT.2182059",
      "street": "R ALTO",
      "house": "30",
      "postcode": "2500-591",
      "city": "NADADOURO",
      "lon": "-9.198789566006848",
      "lat": "39.41688490732944"
    },
    {
      "id": "pt.ine.add.PTCONT.2202006",
      "street": "R ORQUIDEAS",
      "house": "4",
      "postcode": "2500-590",
      "city": "NADADOURO",
      "lon": "-9.19855705115873",
      "lat": "39.413815717336945"
    },
    {
      "id": "pt.ine.add.PTCONT.2204401",
      "street": "R ALTO",
      "house": "22",
      "postcode": "2500-591",
      "city": "NADADOURO",
      "lon": "-9.19892153054115",
      "lat": "39.41716290907748"
    },
    {
      "id": "pt.ine.add.PTCONT.2249744",
      "street": "R LAGOA",
      "house": "29",
      "postcode": "2500-590",
      "city": "NADADOURO",
      "lon": "-9.19992107752332",
      "lat": "39.41493807306229"
    },
    {
      "id": "pt.ine.add.PTCONT.2255763",
      "street": "R ALTO",
      "house": "28",
      "postcode": "2500-591",
      "city": "NADADOURO",
      "lon": "-9.198871660696254",
      "lat": "39.41693819599222"
    },
    {
      "id": "pt.ine.add.PTCONT.2262030",
      "street": "R ALTO",
      "house": "12",
      "postcode": "2500-591",
      "city": "NADADOURO",
      "lon": "-9.199124667228853",
      "lat": "39.417539333224596"
    },
    {
      "id": "pt.ine.add.PTCONT.2265749",
      "street": "R ALTO",
      "house": "16",
      "postcode": "2500-591",
      "city": "NADADOURO",
      "lon": "-9.199029178108356",
      "lat": "39.41736907909218"
    }
  ]
}