{
  "data": {
    "distrito": "Viseu",
    "concelho": "Sernancelhe",
    "freguesia": "Uni√£o das freguesias de Fonte Arcada e Escurquela",
    "OBJECTID": 19,
    "BGRI2021": "18181900115",
    "DT21": "18",
    "DTMN21": "1818",
    "DTMNFR21": "181819",
    "DTMNFRSEC21": "181819001",
    "SECNUM21": "001",
    "SSNUM21": "15",
    "SECSSNUM21": "00115",
    "OBJECTID_1": 198071,
    "DT": "18",
    "CC": "18",
    "fr": "19",
    "SEC": "001",
    "SS": "15"
  },
  "addresses": [
    {
      "id": "pt.ine.add.PTCONT.5433213",
      "street": "EM 505",
      "house": "",
      "postcode": "3640-110",
      "city": "FONTE ARCADA SRN",
      "lon": "-7.520298648198815",
      "lat": "40.96918711414567"
    },
    {
      "id": "pt.ine.add.PTCONT.5497783",
      "street": "BR CABECO",
      "house": "",
      "postcode": "3640-110",
      "city": "FONTE ARCADA SRN",
      "lon": "-7.522011777608602",
      "lat": "40.968926069170124"
    },
    {
      "id": "pt.ine.add.PTCONT.5500310",
      "street": "AV S MARTINHO",
      "house": "",
      "postcode": "3640-110",
      "city": "FONTE ARCADA SRN",
      "lon": "-7.520043134911219",
      "lat": "40.96855543290213"
    },
    {
      "id": "pt.ine.add.PTCONT.5517296",
      "street": "BR CABECO",
      "house": "",
      "postcode": "3640-110",
      "city": "FONTE ARCADA SRN",
      "lon": "-7.521253826408449",
      "lat": "40.968669919951196"
    },
    {
      "id": "pt.ine.add.PTCONT.5533020",
      "street": "TV S MARTINHO",
      "house": "",
      "postcode": "3640-110",
      "city": "FONTE ARCADA SRN",
      "lon": "-7.520035172679991",
      "lat": "40.96813217379525"
    },
    {
      "id": "pt.ine.add.PTCONT.5547275",
      "street": "CHARCO",
      "house": "",
      "postcode": "3640-110",
      "city": "FONTE ARCADA SRN",
      "lon": "-7.521517635152864",
      "lat": "40.972264158762634"
    },
    {
      "id": "pt.ine.add.PTCONT.5566244",
      "street": "TV S MARTINHO",
      "house": "",
      "postcode": "3640-110",
      "city": "FONTE ARCADA SRN",
      "lon": "-7.520697162931274",
      "lat": "40.9684868720597"
    },
    {
      "id": "pt.ine.add.PTCONT.5586462",
      "street": "LG S MARTINHO",
      "house": "",
      "postcode": "3640-110",
      "city": "FONTE ARCADA SRN",
      "lon": "-7.5203831687575216",
      "lat": "40.96775583008486"
    },
    {
      "id": "pt.ine.add.PTCONT.5591106",
      "street": "BR S MARTINHO",
      "house": "",
      "postcode": "3640-110",
      "city": "FONTE ARCADA SRN",
      "lon": "-7.520160844763224",
      "lat": "40.968673118736234"
    },
    {
      "id": "pt.ine.add.PTCONT.5592043",
      "street": "TV S MARTINHO",
      "house": "",
      "postcode": "3640-110",
      "city": "FONTE ARCADA SRN",
      "lon": "-7.520722836242742",
      "lat": "40.96827990235407"
    },
    {
      "id": "pt.ine.add.PTCONT.5597713",
      "street": "",
      "house": "",
      "postcode": "3640-110",
      "city": "FONTE ARCADA SRN",
      "lon": "-7.521481912066791",
      "lat": "40.972272973853194"
    },
    {
      "id": "pt.ine.add.PTCONT.5597684",
      "street": "BR CABECO",
      "house": "",
      "postcode": "3640-110",
      "city": "FONTE ARCADA SRN",
      "lon": "-7.52185701330241",
      "lat": "40.96896126716767"
    },
    {
      "id": "pt.ine.add.PTCONT.5597712",
      "street": "R POUSADOURO SN",
      "house": "SN",
      "postcode": "3640-110",
      "city": "FONTE ARCADA SRN",
      "lon": "-7.521481912066791",
      "lat": "40.972272973853194"
    },
    {
      "id": "pt.ine.add.PTCONT.5621723",
      "street": "TV S MARTINHO",
      "house": "",
      "postcode": "3640-110",
      "city": "FONTE ARCADA SRN",
      "lon": "-7.52034195023695",
      "lat": "40.96835892005483"
    },
    {
      "id": "pt.ine.add.PTCONT.5626689",
      "street": "TV S MARTINHO",
      "house": "",
      "postcode": "3640-110",
      "city": "FONTE ARCADA SRN",
      "lon": "-7.520606541554216",
      "lat": "40.96800914618992"
    }
  ]
}