{
  "data": {
    "distrito": "Porto",
    "concelho": "Marco de Canaveses",
    "freguesia": "VÃ¡rzea, Aliviada e Folhada",
    "OBJECTID": 37,
    "BGRI2021": "13074000213",
    "DT21": "13",
    "DTMN21": "1307",
    "DTMNFR21": "130740",
    "DTMNFRSEC21": "130740002",
    "SECNUM21": "002",
    "SSNUM21": "13",
    "SECSSNUM21": "00213",
    "OBJECTID_1": 130942,
    "DT": "13",
    "CC": "07",
    "fr": "40",
    "SEC": "002",
    "SS": "13"
  },
  "addresses": [
    {
      "id": "pt.ine.add.PTCONT.3567061",
      "street": "R OUTEIRO",
      "house": "368",
      "postcode": "4635-219",
      "city": "FOLHADA",
      "lon": "-8.07513018470847",
      "lat": "41.21657870708073"
    },
    {
      "id": "pt.ine.add.PTCONT.3582490",
      "street": "R LAMEIRA",
      "house": "57",
      "postcode": "4635-203",
      "city": "FOLHADA",
      "lon": "-8.078935508975826",
      "lat": "41.21496879088838"
    },
    {
      "id": "pt.ine.add.PTCONT.3670055",
      "street": "R 29 AGOSTO 1984",
      "house": "1984",
      "postcode": "4635-163",
      "city": "FOLHADA",
      "lon": "-8.078899230122296",
      "lat": "41.215581066063066"
    },
    {
      "id": "pt.ine.add.PTCONT.3703465",
      "street": "R OUTEIRO",
      "house": "635",
      "postcode": "4635-219",
      "city": "FOLHADA",
      "lon": "-8.076943223839454",
      "lat": "41.216021339246645"
    },
    {
      "id": "pt.ine.add.PTCONT.3825466",
      "street": "CAM GUARDAL",
      "house": "136",
      "postcode": "4635-200",
      "city": "FOLHADA",
      "lon": "-8.074926626227505",
      "lat": "41.21752405537863"
    },
    {
      "id": "pt.ine.add.PTCONT.3911385",
      "street": "CAM FEIJOZES",
      "house": "7",
      "postcode": "4635-217",
      "city": "FOLHADA",
      "lon": "-8.072363127005225",
      "lat": "41.21713554702708"
    },
    {
      "id": "pt.ine.add.PTCONT.3944146",
      "street": "R CAMPOS",
      "house": "447",
      "postcode": "4635-179",
      "city": "FOLHADA",
      "lon": "-8.071612190519325",
      "lat": "41.21678398096346"
    },
    {
      "id": "pt.ine.add.PTCONT.3944147",
      "street": "R CAMPOS",
      "house": "447",
      "postcode": "4635-179",
      "city": "FOLHADA",
      "lon": "-8.071612190519325",
      "lat": "41.21678398096346"
    },
    {
      "id": "pt.ine.add.PTCONT.3955538",
      "street": "R CAMPOS",
      "house": "583",
      "postcode": "4635-179",
      "city": "FOLHADA",
      "lon": "-8.072469910099496",
      "lat": "41.21772088242959"
    },
    {
      "id": "pt.ine.add.PTCONT.4038327",
      "street": "R CAMPOS",
      "house": "533",
      "postcode": "4635-179",
      "city": "FOLHADA",
      "lon": "-8.072410460137501",
      "lat": "41.21753176093771"
    },
    {
      "id": "pt.ine.add.PTCONT.4038329",
      "street": "CAM GUARDALINHO",
      "house": "121",
      "postcode": "4635-199",
      "city": "FOLHADA",
      "lon": "-8.073389204435179",
      "lat": "41.21654180022122"
    },
    {
      "id": "pt.ine.add.PTCONT.4064998",
      "street": "R OUTEIRO",
      "house": "560",
      "postcode": "4635-219",
      "city": "FOLHADA",
      "lon": "-8.076334584179712",
      "lat": "41.216579307151605"
    },
    {
      "id": "pt.ine.add.PTCONT.4071471",
      "street": "CAM GUARDAL QTA DO GUARDAL",
      "house": "136",
      "postcode": "4635-200",
      "city": "FOLHADA",
      "lon": "-8.074783215251745",
      "lat": "41.21787515029388"
    },
    {
      "id": "pt.ine.add.PTCONT.4254471",
      "street": "R OUTEIRO",
      "house": "564",
      "postcode": "4635-219",
      "city": "FOLHADA",
      "lon": "-8.076227300455196",
      "lat": "41.216534232732016"
    },
    {
      "id": "pt.ine.add.PTCONT.4273806",
      "street": "R 29 DE AGOSTO",
      "house": "2146",
      "postcode": "4635-163",
      "city": "FOLHADA",
      "lon": "-8.077264048215987",
      "lat": "41.21736313529852"
    },
    {
      "id": "pt.ine.add.PTCONT.4390709",
      "street": "R OUTEIRO",
      "house": "529",
      "postcode": "4635-219",
      "city": "FOLHADA",
      "lon": "-8.075845834445708",
      "lat": "41.216389974947866"
    }
  ]
}