{
  "data": {
    "distrito": "Viseu",
    "concelho": "Tondela",
    "freguesia": "União das freguesias de Tondela e Nandufe",
    "OBJECTID": 592,
    "BGRI2021": "18213200113",
    "DT21": "18",
    "DTMN21": "1821",
    "DTMNFR21": "182132",
    "DTMNFRSEC21": "182132001",
    "SECNUM21": "001",
    "SSNUM21": "13",
    "SECSSNUM21": "00113",
    "OBJECTID_1": 199110,
    "DT": "18",
    "CC": "21",
    "fr": "32",
    "SEC": "001",
    "SS": "13"
  },
  "addresses": [
    {
      "id": "pt.ine.add.PTCONT.5444586",
      "street": "R A",
      "house": "6",
      "postcode": "3460-586",
      "city": "TONDELA",
      "lon": "-8.070316762751363",
      "lat": "40.521519592495665"
    },
    {
      "id": "pt.ine.add.PTCONT.5459144",
      "street": "QTA ÍNSUA",
      "house": "",
      "postcode": "3460-586",
      "city": "TONDELA",
      "lon": "-8.070681548610725",
      "lat": "40.522636457650464"
    },
    {
      "id": "pt.ine.add.PTCONT.5521283",
      "street": "R A",
      "house": "7",
      "postcode": "3460-586",
      "city": "TONDELA",
      "lon": "-8.069526830439049",
      "lat": "40.52076270825226"
    },
    {
      "id": "pt.ine.add.PTCONT.5536081",
      "street": "QTA INSUA",
      "house": "",
      "postcode": "3460-586",
      "city": "TONDELA",
      "lon": "-8.070484067623378",
      "lat": "40.51926833684041"
    },
    {
      "id": "pt.ine.add.PTCONT.5560880",
      "street": "R A",
      "house": "1",
      "postcode": "3460-586",
      "city": "TONDELA",
      "lon": "-8.070292312330286",
      "lat": "40.52242912292092"
    },
    {
      "id": "pt.ine.add.PTCONT.5562606",
      "street": "R A",
      "house": "2",
      "postcode": "3460-586",
      "city": "TONDELA",
      "lon": "-8.070304264476098",
      "lat": "40.52226703252849"
    },
    {
      "id": "pt.ine.add.PTCONT.5563894",
      "street": "R A",
      "house": "8",
      "postcode": "3460-586",
      "city": "TONDELA",
      "lon": "-8.069326365862713",
      "lat": "40.520609506228865"
    },
    {
      "id": "pt.ine.add.PTCONT.5581796",
      "street": "R A",
      "house": "5",
      "postcode": "3460-586",
      "city": "TONDELA",
      "lon": "-8.070269299260563",
      "lat": "40.52179873359264"
    },
    {
      "id": "pt.ine.add.PTCONT.5586787",
      "street": "R A",
      "house": "3",
      "postcode": "3460-586",
      "city": "TONDELA",
      "lon": "-8.070292614954756",
      "lat": "40.52210492930289"
    },
    {
      "id": "pt.ine.add.PTCONT.5594267",
      "street": "R A",
      "house": "4",
      "postcode": "3460-586",
      "city": "TONDELA",
      "lon": "-8.070292741046835",
      "lat": "40.52196984862333"
    },
    {
      "id": "pt.ine.add.PTCONT.5668354",
      "street": "QTA DA ÍNSUA",
      "house": "",
      "postcode": "3460-586",
      "city": "TONDELA",
      "lon": "-8.068654045469025",
      "lat": "40.52028493929984"
    }
  ]
}