{
  "data": {
    "distrito": "Leiria",
    "concelho": "Leiria",
    "freguesia": "Uni√£o das freguesias de Leiria, Pousos, Barreira e Cortes",
    "OBJECTID": 143,
    "BGRI2021": "10093301026",
    "DT21": "10",
    "DTMN21": "1009",
    "DTMNFR21": "100933",
    "DTMNFRSEC21": "100933010",
    "SECNUM21": "010",
    "SSNUM21": "26",
    "SECSSNUM21": "01026",
    "OBJECTID_1": 89792,
    "DT": "10",
    "CC": "09",
    "fr": "33",
    "SEC": "010",
    "SS": "26"
  },
  "addresses": [
    {
      "id": "pt.ine.add.PTCONT.1981309",
      "street": "R MALHAO CASA ANTIGA",
      "house": "9",
      "postcode": "2410-517",
      "city": "LEIRIA",
      "lon": "-8.785022857763595",
      "lat": "39.70195066857895"
    },
    {
      "id": "pt.ine.add.PTCONT.1984752",
      "street": "TV PALMEIRAS",
      "house": "07",
      "postcode": "2410-524",
      "city": "LEIRIA",
      "lon": "-8.78550626636871",
      "lat": "39.701281468372734"
    },
    {
      "id": "pt.ine.add.PTCONT.2015545",
      "street": "R FE",
      "house": "30",
      "postcode": "2410-508",
      "city": "LEIRIA",
      "lon": "-8.786837266020925",
      "lat": "39.70147212645072"
    },
    {
      "id": "pt.ine.add.PTCONT.2017702",
      "street": "TV EMIGRANTE",
      "house": "",
      "postcode": "2410-525",
      "city": "LEIRIA",
      "lon": "-8.78631812727467",
      "lat": "39.70206047417572"
    },
    {
      "id": "pt.ine.add.PTCONT.2017703",
      "street": "R FE SOLAR",
      "house": "16",
      "postcode": "2410-508",
      "city": "LEIRIA",
      "lon": "-8.78574139836979",
      "lat": "39.701487297766995"
    },
    {
      "id": "pt.ine.add.PTCONT.2037472",
      "street": "ESTR RIBEIRA",
      "house": "16",
      "postcode": "2410-502",
      "city": "LEIRIA",
      "lon": "-8.786964906322908",
      "lat": "39.70264225973811"
    },
    {
      "id": "pt.ine.add.PTCONT.2037473",
      "street": "TV EMIGRANTE",
      "house": "08",
      "postcode": "2410-525",
      "city": "LEIRIA",
      "lon": "-8.785880170327056",
      "lat": "39.70260333040245"
    },
    {
      "id": "pt.ine.add.PTCONT.2044032",
      "street": "TV EMIGRANTE",
      "house": "",
      "postcode": "2410-525",
      "city": "LEIRIA",
      "lon": "-8.786463897680472",
      "lat": "39.702681106210534"
    },
    {
      "id": "pt.ine.add.PTCONT.2054039",
      "street": "TV PALMEIRAS",
      "house": "05",
      "postcode": "2410-524",
      "city": "LEIRIA",
      "lon": "-8.785447292791293",
      "lat": "39.70120974726864"
    },
    {
      "id": "pt.ine.add.PTCONT.2074450",
      "street": "TV EMIGRANTE",
      "house": "06",
      "postcode": "2410-525",
      "city": "LEIRIA",
      "lon": "-8.78614901244103",
      "lat": "39.70267387109231"
    },
    {
      "id": "pt.ine.add.PTCONT.2082265",
      "street": "TV EMIGRANTE",
      "house": "10",
      "postcode": "2410-525",
      "city": "LEIRIA",
      "lon": "-8.785540864375957",
      "lat": "39.70247914572766"
    },
    {
      "id": "pt.ine.add.PTCONT.2083029",
      "street": "ESTR RIBEIRA",
      "house": "08",
      "postcode": "2410-502",
      "city": "LEIRIA",
      "lon": "-8.786935638125474",
      "lat": "39.70201196581464"
    },
    {
      "id": "pt.ine.add.PTCONT.2083030",
      "street": "ESTR RIBEIRA",
      "house": "08",
      "postcode": "2410-502",
      "city": "LEIRIA",
      "lon": "-8.786935638125474",
      "lat": "39.70201196581464"
    },
    {
      "id": "pt.ine.add.PTCONT.2090023",
      "street": "R MALHAO",
      "house": "05",
      "postcode": "2410-517",
      "city": "LEIRIA",
      "lon": "-8.785265834863178",
      "lat": "39.701751159909435"
    },
    {
      "id": "pt.ine.add.PTCONT.2096461",
      "street": "R FE SOLAR",
      "house": "025",
      "postcode": "2410-508",
      "city": "LEIRIA",
      "lon": "-8.786882627509955",
      "lat": "39.70133677272585"
    },
    {
      "id": "pt.ine.add.PTCONT.2099916",
      "street": "R MALHAO",
      "house": "01",
      "postcode": "2410-517",
      "city": "LEIRIA",
      "lon": "-8.78535758162275",
      "lat": "39.701588526574234"
    },
    {
      "id": "pt.ine.add.PTCONT.2100076",
      "street": "R FE SOLAR",
      "house": "IGB",
      "postcode": "2410-508",
      "city": "LEIRIA",
      "lon": "-8.785719522410218",
      "lat": "39.701640532158805"
    },
    {
      "id": "pt.ine.add.PTCONT.2104080",
      "street": "TV EMIGRANTE",
      "house": "C",
      "postcode": "2410-525",
      "city": "LEIRIA",
      "lon": "-8.786249106223638",
      "lat": "39.70215993454268"
    },
    {
      "id": "pt.ine.add.PTCONT.2116897",
      "street": "ESTR RIBEIRA",
      "house": "014",
      "postcode": "2410-502",
      "city": "LEIRIA",
      "lon": "-8.78694014285816",
      "lat": "39.702489287784886"
    },
    {
      "id": "pt.ine.add.PTCONT.2118649",
      "street": "ESTR RIBEIRA",
      "house": "7",
      "postcode": "2410-502",
      "city": "LEIRIA",
      "lon": "-8.787014702110081",
      "lat": "39.70174132395248"
    },
    {
      "id": "pt.ine.add.PTCONT.2124034",
      "street": "R FE SOLAR",
      "house": "22",
      "postcode": "2410-508",
      "city": "LEIRIA",
      "lon": "-8.786266566018705",
      "lat": "39.70153838407649"
    },
    {
      "id": "pt.ine.add.PTCONT.2145880",
      "street": "R HELENA DE ABOIM LOPES VIEIRA SOLAR",
      "house": "",
      "postcode": "2410-520",
      "city": "LEIRIA",
      "lon": "-8.786856759978711",
      "lat": "39.701066721717005"
    },
    {
      "id": "pt.ine.add.PTCONT.2174251",
      "street": "TV PALMEIRAS",
      "house": "09",
      "postcode": "2410-524",
      "city": "LEIRIA",
      "lon": "-8.785542091590084",
      "lat": "39.70137133262977"
    },
    {
      "id": "pt.ine.add.PTCONT.2177397",
      "street": "TV PALMEIRAS",
      "house": "1",
      "postcode": "2410-524",
      "city": "LEIRIA",
      "lon": "-8.78543410743326",
      "lat": "39.70104770334242"
    },
    {
      "id": "pt.ine.add.PTCONT.2177398",
      "street": "TV PALMEIRAS",
      "house": "1",
      "postcode": "2410-524",
      "city": "LEIRIA",
      "lon": "-8.78543410743326",
      "lat": "39.70104770334242"
    },
    {
      "id": "pt.ine.add.PTCONT.2188432",
      "street": "TV PALMEIRAS",
      "house": "IA",
      "postcode": "2410-524",
      "city": "LEIRIA",
      "lon": "-8.785399723976022",
      "lat": "39.70111094239717"
    },
    {
      "id": "pt.ine.add.PTCONT.2197808",
      "street": "TV EMIGRANTE",
      "house": "",
      "postcode": "2410-525",
      "city": "LEIRIA",
      "lon": "-8.786324156252116",
      "lat": "39.70269990555874"
    },
    {
      "id": "pt.ine.add.PTCONT.2199883",
      "street": "ESTR RIBEIRA",
      "house": "",
      "postcode": "2410-502",
      "city": "LEIRIA",
      "lon": "-8.786995378945601",
      "lat": "39.702164740809685"
    },
    {
      "id": "pt.ine.add.PTCONT.2205117",
      "street": "R FE SOLAR",
      "house": "24",
      "postcode": "2410-508",
      "city": "LEIRIA",
      "lon": "-8.78641770942593",
      "lat": "39.70149250098187"
    },
    {
      "id": "pt.ine.add.PTCONT.2208807",
      "street": "TV EMIGRANTE",
      "house": "A",
      "postcode": "2410-525",
      "city": "LEIRIA",
      "lon": "-8.786398637431507",
      "lat": "39.70194293601623"
    },
    {
      "id": "pt.ine.add.PTCONT.2216765",
      "street": "R HELENA DE ABOIM LOPES VIEIRA SOLAR",
      "house": "",
      "postcode": "2410-520",
      "city": "LEIRIA",
      "lon": "-8.786796510608374",
      "lat": "39.700859910147855"
    },
    {
      "id": "pt.ine.add.PTCONT.2231195",
      "street": "TV EMIGRANTE",
      "house": "E",
      "postcode": "2410-525",
      "city": "LEIRIA",
      "lon": "-8.786344417722663",
      "lat": "39.70237555565177"
    },
    {
      "id": "pt.ine.add.PTCONT.2248115",
      "street": "R FE SOLAR",
      "house": "20",
      "postcode": "2410-508",
      "city": "LEIRIA",
      "lon": "-8.786102999362036",
      "lat": "39.7015032778478"
    },
    {
      "id": "pt.ine.add.PTCONT.2261998",
      "street": "R MALHAO",
      "house": "07",
      "postcode": "2410-517",
      "city": "LEIRIA",
      "lon": "-8.785173579089774",
      "lat": "39.70185975669924"
    },
    {
      "id": "pt.ine.add.PTCONT.2262836",
      "street": "TV EMIGRANTE",
      "house": "D",
      "postcode": "2410-525",
      "city": "LEIRIA",
      "lon": "-8.786203573177312",
      "lat": "39.70227727586314"
    },
    {
      "id": "pt.ine.add.PTCONT.2267387",
      "street": "TV PALMEIRAS",
      "house": "05",
      "postcode": "2410-524",
      "city": "LEIRIA",
      "lon": "-8.785447292791293",
      "lat": "39.70120974726864"
    }
  ]
}