{
  "data": {
    "distrito": "Bragança",
    "concelho": "Vila Flor",
    "freguesia": "União das freguesias de Vila Flor e Nabo",
    "OBJECTID": 48,
    "BGRI2021": "04102300114",
    "DT21": "04",
    "DTMN21": "0410",
    "DTMNFR21": "041023",
    "DTMNFRSEC21": "041023001",
    "SECNUM21": "001",
    "SSNUM21": "14",
    "SECSSNUM21": "00114",
    "OBJECTID_1": 39026,
    "DT": "04",
    "CC": "10",
    "fr": "23",
    "SEC": "001",
    "SS": "14"
  },
  "addresses": [
    {
      "id": "pt.ine.add.PTCONT.852235",
      "street": "R DA SENHORA DE FÁTIMA",
      "house": "6",
      "postcode": "5360-396",
      "city": "VILA FLOR",
      "lon": "-7.148209781163483",
      "lat": "41.30816655927705"
    },
    {
      "id": "pt.ine.add.PTCONT.853035",
      "street": "R DA SENHORA DE FÁTIMA",
      "house": "4",
      "postcode": "5360-396",
      "city": "VILA FLOR",
      "lon": "-7.1482720536656545",
      "lat": "41.307996016516995"
    },
    {
      "id": "pt.ine.add.PTCONT.853036",
      "street": "R DA SENHORA DE FÁTIMA",
      "house": "4",
      "postcode": "5360-396",
      "city": "VILA FLOR",
      "lon": "-7.1482720536656545",
      "lat": "41.307996016516995"
    },
    {
      "id": "pt.ine.add.PTCONT.853037",
      "street": "R DA SENHORA DE FÁTIMA",
      "house": "4",
      "postcode": "5360-396",
      "city": "VILA FLOR",
      "lon": "-7.1482720536656545",
      "lat": "41.307996016516995"
    },
    {
      "id": "pt.ine.add.PTCONT.853192",
      "street": "R DA SENHORA DE FÁTIMA",
      "house": "4",
      "postcode": "5360-396",
      "city": "VILA FLOR",
      "lon": "-7.1482720536656545",
      "lat": "41.307996016516995"
    },
    {
      "id": "pt.ine.add.PTCONT.855328",
      "street": "AV DR JOÃO CARLOS NORONHA",
      "house": "7",
      "postcode": "5360-302",
      "city": "VILA FLOR",
      "lon": "-7.148132436739184",
      "lat": "41.307751714388544"
    },
    {
      "id": "pt.ine.add.PTCONT.867475",
      "street": "R DA AMENDOEIRA",
      "house": "5",
      "postcode": "5360-341",
      "city": "VILA FLOR",
      "lon": "-7.147935982246714",
      "lat": "41.308110192221825"
    },
    {
      "id": "pt.ine.add.PTCONT.898823",
      "street": "AV DR JOÃO CARLOS NORONHA",
      "house": "5",
      "postcode": "5360-302",
      "city": "VILA FLOR",
      "lon": "-7.148394159281025",
      "lat": "41.307816981640165"
    },
    {
      "id": "pt.ine.add.PTCONT.901757",
      "street": "R DA SENHORA DE FÁTIMA",
      "house": "10",
      "postcode": "5360-396",
      "city": "VILA FLOR",
      "lon": "-7.148013732369404",
      "lat": "41.308498028752716"
    },
    {
      "id": "pt.ine.add.PTCONT.908119",
      "street": "R DA AMENDOEIRA",
      "house": "9",
      "postcode": "5360-341",
      "city": "VILA FLOR",
      "lon": "-7.147871133476643",
      "lat": "41.30845178833087"
    },
    {
      "id": "pt.ine.add.PTCONT.917866",
      "street": "R DA AMENDOEIRA",
      "house": "3",
      "postcode": "5360-341",
      "city": "VILA FLOR",
      "lon": "-7.148045878349437",
      "lat": "41.307949061174476"
    },
    {
      "id": "pt.ine.add.PTCONT.938736",
      "street": "R DA SENHORA DE FÁTIMA",
      "house": "8",
      "postcode": "5360-396",
      "city": "VILA FLOR",
      "lon": "-7.148123628952154",
      "lat": "41.30833689764698"
    },
    {
      "id": "pt.ine.add.PTCONT.944125",
      "street": "R DA AMENDOEIRA",
      "house": "7",
      "postcode": "5360-341",
      "city": "VILA FLOR",
      "lon": "-7.147885919512477",
      "lat": "41.308262831349445"
    },
    {
      "id": "pt.ine.add.PTCONT.948485",
      "street": "R DA SENHORA DO ROSÁRIO",
      "house": "12",
      "postcode": "5360-451",
      "city": "VILA FLOR",
      "lon": "-7.147927714732255",
      "lat": "41.308659364137824"
    }
  ]
}