{
  "data": {
    "distrito": "Bragança",
    "concelho": "Vila Flor",
    "freguesia": "União das freguesias de Vila Flor e Nabo",
    "OBJECTID": 57,
    "BGRI2021": "04102300122",
    "DT21": "04",
    "DTMN21": "0410",
    "DTMNFR21": "041023",
    "DTMNFRSEC21": "041023001",
    "SECNUM21": "001",
    "SSNUM21": "22",
    "SECSSNUM21": "00122",
    "OBJECTID_1": 39016,
    "DT": "04",
    "CC": "10",
    "fr": "23",
    "SEC": "001",
    "SS": "22"
  },
  "addresses": [
    {
      "id": "pt.ine.add.PTCONT.851485",
      "street": "AV MARECHAL CARMONA",
      "house": "31",
      "postcode": "5360-303",
      "city": "VILA FLOR",
      "lon": "-7.155804330467235",
      "lat": "41.30896962055379"
    },
    {
      "id": "pt.ine.add.PTCONT.862212",
      "street": "R PRIMEIRO SARG ALÍPIO ESTEVES",
      "house": "4",
      "postcode": "5360-334",
      "city": "VILA FLOR",
      "lon": "-7.156053857166016",
      "lat": "41.30905277480894"
    },
    {
      "id": "pt.ine.add.PTCONT.865419",
      "street": "AV DR FRANCISCO GUERRA",
      "house": "8",
      "postcode": "5360-301",
      "city": "VILA FLOR",
      "lon": "-7.155666941075676",
      "lat": "41.30937363300835"
    },
    {
      "id": "pt.ine.add.PTCONT.892206",
      "street": "R DR EDUARDO CABRAL",
      "house": "7",
      "postcode": "5360-381",
      "city": "VILA FLOR",
      "lon": "-7.155573708109852",
      "lat": "41.30921977357303"
    },
    {
      "id": "pt.ine.add.PTCONT.898217",
      "street": "AV DR FRANCISCO GUERRA",
      "house": "10",
      "postcode": "5360-301",
      "city": "VILA FLOR",
      "lon": "-7.155547542035509",
      "lat": "41.30937261899814"
    },
    {
      "id": "pt.ine.add.PTCONT.905862",
      "street": "AV DR FRANCISCO GUERRA",
      "house": "6",
      "postcode": "5360-301",
      "city": "VILA FLOR",
      "lon": "-7.155738446038863",
      "lat": "41.30938324419284"
    },
    {
      "id": "pt.ine.add.PTCONT.925122",
      "street": "AV DR FRANCISCO GUERRA",
      "house": "4",
      "postcode": "5360-301",
      "city": "VILA FLOR",
      "lon": "-7.155798145571276",
      "lat": "41.30938375111452"
    },
    {
      "id": "pt.ine.add.PTCONT.932997",
      "street": "AV MARECHAL CARMONA",
      "house": "29",
      "postcode": "5360-303",
      "city": "VILA FLOR",
      "lon": "-7.1558758350119165",
      "lat": "41.30897923164894"
    },
    {
      "id": "pt.ine.add.PTCONT.937128",
      "street": "AV MARECHAL CARMONA",
      "house": "25",
      "postcode": "5360-303",
      "city": "VILA FLOR",
      "lon": "-7.155946801844855",
      "lat": "41.309024854055615"
    }
  ]
}