{
  "data": {
    "distrito": "Castelo Branco",
    "concelho": "Castelo Branco",
    "freguesia": "Benquerenças",
    "OBJECTID": 480,
    "BGRI2021": "05020300128",
    "DT21": "05",
    "DTMN21": "0502",
    "DTMNFR21": "050203",
    "DTMNFRSEC21": "050203001",
    "SECNUM21": "001",
    "SSNUM21": "28",
    "SECSSNUM21": "00128",
    "OBJECTID_1": 40641,
    "DT": "05",
    "CC": "02",
    "fr": "03",
    "SEC": "001",
    "SS": "28"
  },
  "addresses": [
    {
      "id": "pt.ine.add.PTCONT.957309",
      "street": "QTA RIBEIRO DA VELHA",
      "house": "",
      "postcode": "6000-020",
      "city": "BENQUERENÇAS",
      "lon": "-7.54617011376694",
      "lat": "39.8151035606688"
    },
    {
      "id": "pt.ine.add.PTCONT.958416",
      "street": "",
      "house": "",
      "postcode": "6000-020",
      "city": "BENQUERENÇAS",
      "lon": "-7.562388234844447",
      "lat": "39.79156061804768"
    },
    {
      "id": "pt.ine.add.PTCONT.989814",
      "street": "ESTRADINHA",
      "house": "",
      "postcode": "6000-020",
      "city": "BENQUERENÇAS",
      "lon": "-7.5647177487267285",
      "lat": "39.78796947317715"
    },
    {
      "id": "pt.ine.add.PTCONT.998755",
      "street": "",
      "house": "",
      "postcode": "6000-020",
      "city": "BENQUERENÇAS",
      "lon": "-7.5650078169227415",
      "lat": "39.78818704827868"
    },
    {
      "id": "pt.ine.add.PTCONT.1005402",
      "street": "ESTRADINHA",
      "house": "",
      "postcode": "6000-022",
      "city": "BENQUERENÇAS",
      "lon": "-7.559494409005682",
      "lat": "39.7955902406639"
    },
    {
      "id": "pt.ine.add.PTCONT.1015263",
      "street": "QTA RIBEIRO DA VELHA",
      "house": "",
      "postcode": "6000-022",
      "city": "BENQUERENÇAS",
      "lon": "-7.548714545954849",
      "lat": "39.81390954597207"
    },
    {
      "id": "pt.ine.add.PTCONT.1087288",
      "street": "",
      "house": "",
      "postcode": "6000-020",
      "city": "BENQUERENÇAS",
      "lon": "-7.565241960892097",
      "lat": "39.78810713622989"
    },
    {
      "id": "pt.ine.add.PTCONT.1096942",
      "street": "QTA RIBEIRO DA VELHA",
      "house": "",
      "postcode": "6000-020",
      "city": "BENQUERENÇAS",
      "lon": "-7.54428320709346",
      "lat": "39.81587755708576"
    }
  ]
}