{
  "data": {
    "distrito": "Braga",
    "concelho": "Esposende",
    "freguesia": "Gemeses",
    "OBJECTID": 257,
    "BGRI2021": "03061000107",
    "DT21": "03",
    "DTMN21": "0306",
    "DTMNFR21": "030610",
    "DTMNFRSEC21": "030610001",
    "SECNUM21": "001",
    "SSNUM21": "07",
    "SECSSNUM21": "00107",
    "OBJECTID_1": 24339,
    "DT": "03",
    "CC": "06",
    "fr": "10",
    "SEC": "001",
    "SS": "07"
  },
  "addresses": [
    {
      "id": "pt.ine.add.PTCONT.474961",
      "street": "R SANTAES",
      "house": "12",
      "postcode": "4740-496",
      "city": "GEMESES",
      "lon": "-8.734953079652229",
      "lat": "41.51790605447481"
    },
    {
      "id": "pt.ine.add.PTCONT.480735",
      "street": "R RIBEIRA",
      "house": "4",
      "postcode": "4740-496",
      "city": "GEMESES",
      "lon": "-8.734387388890884",
      "lat": "41.51762089308091"
    },
    {
      "id": "pt.ine.add.PTCONT.532334",
      "street": "R COMBATENTES",
      "house": "49",
      "postcode": "4740-496",
      "city": "GEMESES",
      "lon": "-8.73443630569503",
      "lat": "41.517728682467016"
    },
    {
      "id": "pt.ine.add.PTCONT.558240",
      "street": "R SENHORA DA BOA MORTE",
      "house": "3",
      "postcode": "4740-496",
      "city": "GEMESES",
      "lon": "-8.734189140919765",
      "lat": "41.516910632129616"
    },
    {
      "id": "pt.ine.add.PTCONT.575806",
      "street": "R COMBATENTES",
      "house": "51",
      "postcode": "4740-496",
      "city": "GEMESES",
      "lon": "-8.734544868718396",
      "lat": "41.517809148628686"
    },
    {
      "id": "pt.ine.add.PTCONT.607824",
      "street": "R RIBEIRA",
      "house": "1A",
      "postcode": "4740-496",
      "city": "GEMESES",
      "lon": "-8.733700330264693",
      "lat": "41.51716529126876"
    },
    {
      "id": "pt.ine.add.PTCONT.654386",
      "street": "R COMBATENTES",
      "house": "53",
      "postcode": "4740-496",
      "city": "GEMESES",
      "lon": "-8.73468845259062",
      "lat": "41.51779039011764"
    },
    {
      "id": "pt.ine.add.PTCONT.666395",
      "street": "R RIBEIRA",
      "house": "1",
      "postcode": "4740-496",
      "city": "GEMESES",
      "lon": "-8.734100721381848",
      "lat": "41.51771242913265"
    },
    {
      "id": "pt.ine.add.PTCONT.677679",
      "street": "R SENHORA DA BOA MORTE",
      "house": "5",
      "postcode": "4740-496",
      "city": "GEMESES",
      "lon": "-8.734333556142703",
      "lat": "41.51698190735172"
    },
    {
      "id": "pt.ine.add.PTCONT.725849",
      "street": "R SENHORA DA BOA MORTE",
      "house": "1",
      "postcode": "4740-496",
      "city": "GEMESES",
      "lon": "-8.734116017212363",
      "lat": "41.51677595783625"
    },
    {
      "id": "pt.ine.add.PTCONT.770657",
      "street": "R SENHORA DA BOA MORTE",
      "house": "4",
      "postcode": "4740-496",
      "city": "GEMESES",
      "lon": "-8.734085577150903",
      "lat": "41.51737036529212"
    },
    {
      "id": "pt.ine.add.PTCONT.773756",
      "street": "R RIBEIRA",
      "house": "2",
      "postcode": "4740-496",
      "city": "GEMESES",
      "lon": "-8.734244555113",
      "lat": "41.51772068115698"
    },
    {
      "id": "pt.ine.add.PTCONT.806970",
      "street": "R RIBEIRA",
      "house": "3",
      "postcode": "4740-496",
      "city": "GEMESES",
      "lon": "-8.734384722283705",
      "lat": "41.51733278661687"
    },
    {
      "id": "pt.ine.add.PTCONT.810167",
      "street": "R SRA BOA MORTE",
      "house": "7",
      "postcode": "4740-496",
      "city": "GEMESES",
      "lon": "-8.734745930584987",
      "lat": "41.5175289803328"
    },
    {
      "id": "pt.ine.add.PTCONT.817426",
      "street": "R RIBEIRA",
      "house": "5",
      "postcode": "4740-496",
      "city": "GEMESES",
      "lon": "-8.734788593873203",
      "lat": "41.51696152006887"
    }
  ]
}