{
  "data": {
    "distrito": "Santarém",
    "concelho": "Torres Novas",
    "freguesia": "Pedrógão",
    "OBJECTID": 516,
    "BGRI2021": "14190900111",
    "DT21": "14",
    "DTMN21": "1419",
    "DTMNFR21": "141909",
    "DTMNFRSEC21": "141909001",
    "SECNUM21": "001",
    "SSNUM21": "11",
    "SECSSNUM21": "00111",
    "OBJECTID_1": 157456,
    "DT": "14",
    "CC": "19",
    "fr": "09",
    "SEC": "001",
    "SS": "11"
  },
  "addresses": [
    {
      "id": "pt.ine.add.PTCONT.4401261",
      "street": "R FONTE",
      "house": "12",
      "postcode": "2350-221",
      "city": "PEDRÓGÃO TNV",
      "lon": "-8.56349798015148",
      "lat": "39.525162806097434"
    },
    {
      "id": "pt.ine.add.PTCONT.4403398",
      "street": "R FONTE",
      "house": "14",
      "postcode": "2350-221",
      "city": "PEDRÓGÃO TNV",
      "lon": "-8.563462534330899",
      "lat": "39.52507286843152"
    },
    {
      "id": "pt.ine.add.PTCONT.4424909",
      "street": "R FONTE",
      "house": "",
      "postcode": "2350-221",
      "city": "PEDRÓGÃO TNV",
      "lon": "-8.563264714145074",
      "lat": "39.52505558682057"
    },
    {
      "id": "pt.ine.add.PTCONT.4441536",
      "street": "R FELICIANO DIAS ROSA",
      "house": "14",
      "postcode": "2350-221",
      "city": "PEDRÓGÃO TNV",
      "lon": "-8.562886946974515",
      "lat": "39.52037339964141"
    },
    {
      "id": "pt.ine.add.PTCONT.4445509",
      "street": "R SARDINHEIRAS",
      "house": "",
      "postcode": "2350-221",
      "city": "PEDRÓGÃO TNV",
      "lon": "-8.562961558252075",
      "lat": "39.524930611747074"
    },
    {
      "id": "pt.ine.add.PTCONT.4445510",
      "street": "TV CANDEIAS",
      "house": "",
      "postcode": "2350-221",
      "city": "PEDRÓGÃO TNV",
      "lon": "-8.563125932560482",
      "lat": "39.5251821967261"
    },
    {
      "id": "pt.ine.add.PTCONT.4451750",
      "street": "R SARDINHEIRAS",
      "house": "",
      "postcode": "2350-221",
      "city": "PEDRÓGÃO TNV",
      "lon": "-8.562703757634003",
      "lat": "39.52461632358516"
    },
    {
      "id": "pt.ine.add.PTCONT.4456207",
      "street": "R SARDINHEIRAS",
      "house": "1",
      "postcode": "2350-221",
      "city": "PEDRÓGÃO TNV",
      "lon": "-8.563047544071907",
      "lat": "39.52378641866367"
    },
    {
      "id": "pt.ine.add.PTCONT.4493695",
      "street": "R FONTE",
      "house": "10",
      "postcode": "2350-221",
      "city": "PEDRÓGÃO TNV",
      "lon": "-8.563603372744826",
      "lat": "39.52527950540901"
    },
    {
      "id": "pt.ine.add.PTCONT.4500914",
      "street": "R CALCADA",
      "house": "1",
      "postcode": "2350-221",
      "city": "PEDRÓGÃO TNV",
      "lon": "-8.563122099598894",
      "lat": "39.5245607355123"
    },
    {
      "id": "pt.ine.add.PTCONT.4512788",
      "street": "TV CANDEIAS",
      "house": "",
      "postcode": "2350-221",
      "city": "PEDRÓGÃO TNV",
      "lon": "-8.562890501766594",
      "lat": "39.5247237160052"
    },
    {
      "id": "pt.ine.add.PTCONT.4517368",
      "street": "RETIRO DOS PACATOS",
      "house": "",
      "postcode": "2350-221",
      "city": "PEDRÓGÃO TNV",
      "lon": "-8.563144581586728",
      "lat": "39.52443455588281"
    },
    {
      "id": "pt.ine.add.PTCONT.4584326",
      "street": "R FONTE",
      "house": "",
      "postcode": "2350-221",
      "city": "PEDRÓGÃO TNV",
      "lon": "-8.564253370452198",
      "lat": "39.52506993804262"
    },
    {
      "id": "pt.ine.add.PTCONT.4590693",
      "street": "R SARDINHEIRAS",
      "house": "2",
      "postcode": "2350-221",
      "city": "PEDRÓGÃO TNV",
      "lon": "-8.562611883838715",
      "lat": "39.52480580775991"
    },
    {
      "id": "pt.ine.add.PTCONT.4594847",
      "street": "R FONTE",
      "house": "",
      "postcode": "2350-221",
      "city": "PEDRÓGÃO TNV",
      "lon": "-8.563878652492953",
      "lat": "39.52465701028409"
    },
    {
      "id": "pt.ine.add.PTCONT.4613455",
      "street": "R FONTE",
      "house": "2",
      "postcode": "2350-221",
      "city": "PEDRÓGÃO TNV",
      "lon": "-8.562940019737416",
      "lat": "39.52520990496224"
    },
    {
      "id": "pt.ine.add.PTCONT.4613456",
      "street": "LG CAPELA",
      "house": "1",
      "postcode": "2350-221",
      "city": "PEDRÓGÃO TNV",
      "lon": "-8.562462303606",
      "lat": "39.52506756012254"
    },
    {
      "id": "pt.ine.add.PTCONT.4628804",
      "street": "R FONTE",
      "house": "",
      "postcode": "2350-221",
      "city": "PEDRÓGÃO TNV",
      "lon": "-8.564195777631964",
      "lat": "39.52516022052175"
    },
    {
      "id": "pt.ine.add.PTCONT.4628805",
      "street": "R FONTE",
      "house": "",
      "postcode": "2350-221",
      "city": "PEDRÓGÃO TNV",
      "lon": "-8.563475331791938",
      "lat": "39.52526196572761"
    },
    {
      "id": "pt.ine.add.PTCONT.4646384",
      "street": "TV CANDEIAS",
      "house": "",
      "postcode": "2350-221",
      "city": "PEDRÓGÃO TNV",
      "lon": "-8.562752164170574",
      "lat": "39.524922378948716"
    }
  ]
}