{
  "data": {
    "distrito": "Santar√©m",
    "concelho": "Benavente",
    "freguesia": "Benavente",
    "OBJECTID": 259,
    "BGRI2021": "14050100517",
    "DT21": "14",
    "DTMN21": "1405",
    "DTMNFR21": "140501",
    "DTMNFRSEC21": "140501005",
    "SECNUM21": "005",
    "SSNUM21": "17",
    "SECSSNUM21": "00517",
    "OBJECTID_1": 148866,
    "DT": "14",
    "CC": "05",
    "fr": "01",
    "SEC": "005",
    "SS": "17"
  },
  "addresses": [
    {
      "id": "pt.ine.add.PTCONT.4443470",
      "street": "R ALDEIA DO PEIXE",
      "house": "",
      "postcode": "2130-370",
      "city": "BENAVENTE",
      "lon": "-8.750267342006529",
      "lat": "38.98070636781515"
    },
    {
      "id": "pt.ine.add.PTCONT.4455138",
      "street": "R PESCADORES",
      "house": "8",
      "postcode": "2130-370",
      "city": "BENAVENTE",
      "lon": "-8.753536373527504",
      "lat": "38.97973421909013"
    },
    {
      "id": "pt.ine.add.PTCONT.4455271",
      "street": "R PESCADORES",
      "house": "12",
      "postcode": "2130-370",
      "city": "BENAVENTE",
      "lon": "-8.751867406058262",
      "lat": "38.980238502924806"
    },
    {
      "id": "pt.ine.add.PTCONT.4475581",
      "street": "R PESCADORES",
      "house": "2",
      "postcode": "2130-370",
      "city": "BENAVENTE",
      "lon": "-8.754013180607693",
      "lat": "38.97883091565575"
    },
    {
      "id": "pt.ine.add.PTCONT.4536372",
      "street": "R PESCADORES",
      "house": "6",
      "postcode": "2130-370",
      "city": "BENAVENTE",
      "lon": "-8.75340605569044",
      "lat": "38.979347581968696"
    },
    {
      "id": "pt.ine.add.PTCONT.4561132",
      "street": "LUGAR BILRETE DE CIMA",
      "house": "",
      "postcode": "2130-370",
      "city": "BENAVENTE",
      "lon": "-8.75228341743356",
      "lat": "38.97632696514364"
    },
    {
      "id": "pt.ine.add.PTCONT.4565399",
      "street": "R PESCADORES",
      "house": "11",
      "postcode": "2130-370",
      "city": "BENAVENTE",
      "lon": "-8.753146445571812",
      "lat": "38.9786914015196"
    },
    {
      "id": "pt.ine.add.PTCONT.4575535",
      "street": "R PESCADORES",
      "house": "",
      "postcode": "2130-370",
      "city": "BENAVENTE",
      "lon": "-8.753331249358881",
      "lat": "38.98003256273018"
    }
  ]
}