{
  "data": {
    "distrito": "Viseu",
    "concelho": "Viseu",
    "freguesia": "Cota",
    "OBJECTID": 1672,
    "BGRI2021": "18231000129",
    "DT21": "18",
    "DTMN21": "1823",
    "DTMNFR21": "182310",
    "DTMNFRSEC21": "182310001",
    "SECNUM21": "001",
    "SSNUM21": "29",
    "SECSSNUM21": "00129",
    "OBJECTID_1": 202077,
    "DT": "18",
    "CC": "23",
    "fr": "10",
    "SEC": "001",
    "SS": "29"
  },
  "addresses": [
    {
      "id": "pt.ine.add.PTCONT.5435794",
      "street": "R BELICHE",
      "house": "4",
      "postcode": "3505-234",
      "city": "CÔTA",
      "lon": "-7.794746684140895",
      "lat": "40.790718515505255"
    },
    {
      "id": "pt.ine.add.PTCONT.5487973",
      "street": "R CIMO DO POVO",
      "house": "13",
      "postcode": "3505-234",
      "city": "CÔTA",
      "lon": "-7.793526245454101",
      "lat": "40.7907329402826"
    },
    {
      "id": "pt.ine.add.PTCONT.5514079",
      "street": "R CIMO DO POVO",
      "house": "11",
      "postcode": "3505-234",
      "city": "CÔTA",
      "lon": "-7.793586265359236",
      "lat": "40.79058003291107"
    },
    {
      "id": "pt.ine.add.PTCONT.5530050",
      "street": "R CIMO DO POVO",
      "house": "",
      "postcode": "3505-234",
      "city": "CÔTA",
      "lon": "-7.793284556217835",
      "lat": "40.79165973753554"
    },
    {
      "id": "pt.ine.add.PTCONT.5622705",
      "street": "R CALDEIRÃO",
      "house": "9",
      "postcode": "3505-234",
      "city": "CÔTA",
      "lon": "-7.793868463456352",
      "lat": "40.79100409506841"
    },
    {
      "id": "pt.ine.add.PTCONT.5624777",
      "street": "R CALDEIRÃO",
      "house": "7",
      "postcode": "3505-234",
      "city": "CÔTA",
      "lon": "-7.794176788254514",
      "lat": "40.79095097145503"
    },
    {
      "id": "pt.ine.add.PTCONT.5640243",
      "street": "R CIMO DO POVO",
      "house": "15",
      "postcode": "3505-234",
      "city": "CÔTA",
      "lon": "-7.793477843915464",
      "lat": "40.79093090651448"
    },
    {
      "id": "pt.ine.add.PTCONT.5663557",
      "street": "R CIMO DO POVO",
      "house": "",
      "postcode": "3505-234",
      "city": "CÔTA",
      "lon": "-7.7934637016044075",
      "lat": "40.79138111186388"
    }
  ]
}