{
  "data": {
    "distrito": "Coimbra",
    "concelho": "Tábua",
    "freguesia": "União das freguesias de Covas e Vila Nova de Oliveirinha",
    "OBJECTID": 244,
    "BGRI2021": "06161700235",
    "DT21": "06",
    "DTMN21": "0616",
    "DTMNFR21": "061617",
    "DTMNFRSEC21": "061617002",
    "SECNUM21": "002",
    "SSNUM21": "35",
    "SECSSNUM21": "00235",
    "OBJECTID_1": 57674,
    "DT": "06",
    "CC": "16",
    "fr": "17",
    "SEC": "002",
    "SS": "35"
  },
  "addresses": [
    {
      "id": "pt.ine.add.PTCONT.1109811",
      "street": "TV DAS ALMAS",
      "house": "",
      "postcode": "3420-053",
      "city": "COVAS TBU",
      "lon": "-7.927840078489584",
      "lat": "40.34934909231315"
    },
    {
      "id": "pt.ine.add.PTCONT.1120072",
      "street": "BC DO CIMO DO POVO",
      "house": "",
      "postcode": "3420-053",
      "city": "COVAS TBU",
      "lon": "-7.927474671089153",
      "lat": "40.34951955049659"
    },
    {
      "id": "pt.ine.add.PTCONT.1136789",
      "street": "TV MARIA MENDES",
      "house": "",
      "postcode": "3420-053",
      "city": "COVAS TBU",
      "lon": "-7.92701526128096",
      "lat": "40.349635806199466"
    },
    {
      "id": "pt.ine.add.PTCONT.1200874",
      "street": "LG ACÁCIO DA SILVA PINTO",
      "house": "",
      "postcode": "3420-053",
      "city": "COVAS TBU",
      "lon": "-7.927886560257758",
      "lat": "40.3495472989686"
    },
    {
      "id": "pt.ine.add.PTCONT.1205159",
      "street": "BC DO CIMO DO POVO",
      "house": "",
      "postcode": "3420-053",
      "city": "COVAS TBU",
      "lon": "-7.927568890578561",
      "lat": "40.349501706677025"
    },
    {
      "id": "pt.ine.add.PTCONT.1229144",
      "street": "TV MARIA MENDES",
      "house": "",
      "postcode": "3420-053",
      "city": "COVAS TBU",
      "lon": "-7.926991966778414",
      "lat": "40.34955471389478"
    },
    {
      "id": "pt.ine.add.PTCONT.1264341",
      "street": "R DO JOGO DA BOLA",
      "house": "",
      "postcode": "3420-053",
      "city": "COVAS TBU",
      "lon": "-7.927665869898898",
      "lat": "40.34857429754437"
    },
    {
      "id": "pt.ine.add.PTCONT.1274325",
      "street": "R DO CIMO DO POVO",
      "house": "",
      "postcode": "3420-053",
      "city": "COVAS TBU",
      "lon": "-7.927651011489525",
      "lat": "40.34959190902"
    },
    {
      "id": "pt.ine.add.PTCONT.1296920",
      "street": "R JOSÉ MOREIRA SALVADOR",
      "house": "",
      "postcode": "3420-053",
      "city": "COVAS TBU",
      "lon": "-7.928028325812026",
      "lat": "40.34937644317184"
    },
    {
      "id": "pt.ine.add.PTCONT.1308575",
      "street": "R DO CIMO DO POVO",
      "house": "",
      "postcode": "3420-053",
      "city": "COVAS TBU",
      "lon": "-7.927698230554191",
      "lat": "40.3495469646659"
    },
    {
      "id": "pt.ine.add.PTCONT.1341282",
      "street": "LG ACÁCIO DA SILVA PINTO",
      "house": "",
      "postcode": "3420-053",
      "city": "COVAS TBU",
      "lon": "-7.927957429480965",
      "lat": "40.34946637389075"
    },
    {
      "id": "pt.ine.add.PTCONT.1364851",
      "street": "BC DO CIMO DO POVO",
      "house": "",
      "postcode": "3420-053",
      "city": "COVAS TBU",
      "lon": "-7.927533332692141",
      "lat": "40.349582694281395"
    },
    {
      "id": "pt.ine.add.PTCONT.1365195",
      "street": "TV MARIA MENDES",
      "house": "",
      "postcode": "3420-053",
      "city": "COVAS TBU",
      "lon": "-7.926885729587809",
      "lat": "40.34965358661351"
    }
  ]
}