{
  "data": {
    "distrito": "Faro",
    "concelho": "Albufeira",
    "freguesia": "Guia",
    "OBJECTID": 88,
    "BGRI2021": "08010200201",
    "DT21": "08",
    "DTMN21": "0801",
    "DTMNFR21": "080102",
    "DTMNFRSEC21": "080102002",
    "SECNUM21": "002",
    "SSNUM21": "01",
    "SECSSNUM21": "00201",
    "OBJECTID_1": 64511,
    "DT": "08",
    "CC": "01",
    "fr": "02",
    "SEC": "002",
    "SS": "01"
  },
  "addresses": [
    {
      "id": "pt.ine.add.PTCONT.1478566",
      "street": "R NAUS VILLA LORIAN",
      "house": "12",
      "postcode": "8200-416",
      "city": "GUIA ABF",
      "lon": "-8.309019399566424",
      "lat": "37.07866239277823"
    },
    {
      "id": "pt.ine.add.PTCONT.1481494",
      "street": "ESTR GALE",
      "house": "118",
      "postcode": "8200-416",
      "city": "GUIA ABF",
      "lon": "-8.308224123242145",
      "lat": "37.080051216122946"
    },
    {
      "id": "pt.ine.add.PTCONT.1489745",
      "street": "ESTR GALE",
      "house": "121",
      "postcode": "8200-416",
      "city": "GUIA ABF",
      "lon": "-8.30790916674204",
      "lat": "37.080024648652696"
    },
    {
      "id": "pt.ine.add.PTCONT.1503349",
      "street": "TV ARMAÇÃO",
      "house": "146",
      "postcode": "8200-416",
      "city": "GUIA ABF",
      "lon": "-8.30952603433461",
      "lat": "37.07890492897644"
    },
    {
      "id": "pt.ine.add.PTCONT.1503350",
      "street": "BC NAUS THE HIDEAWAY",
      "house": "",
      "postcode": "8200-416",
      "city": "GUIA ABF",
      "lon": "-8.307804684180574",
      "lat": "37.07860111330414"
    },
    {
      "id": "pt.ine.add.PTCONT.1510216",
      "street": "ESTR GALE",
      "house": "126",
      "postcode": "8200-416",
      "city": "GUIA ABF",
      "lon": "-8.306727984196144",
      "lat": "37.07988221254507"
    },
    {
      "id": "pt.ine.add.PTCONT.1521681",
      "street": "R NAUS CASA DAS GARÇAS",
      "house": "16",
      "postcode": "8200-416",
      "city": "GUIA ABF",
      "lon": "-8.309152351906887",
      "lat": "37.077797168972005"
    },
    {
      "id": "pt.ine.add.PTCONT.1524814",
      "street": "TV MAREANTES",
      "house": "137",
      "postcode": "8200-416",
      "city": "GUIA ABF",
      "lon": "-8.308301561389667",
      "lat": "37.07949243892537"
    },
    {
      "id": "pt.ine.add.PTCONT.1524818",
      "street": "BC NAUS VILLA TAMARISCUS",
      "house": "19",
      "postcode": "8200-416",
      "city": "GUIA ABF",
      "lon": "-8.308051164913262",
      "lat": "37.07819526881888"
    },
    {
      "id": "pt.ine.add.PTCONT.1538448",
      "street": "TV MAREANTES",
      "house": "134",
      "postcode": "8200-416",
      "city": "GUIA ABF",
      "lon": "-8.307818225158172",
      "lat": "37.07960128017343"
    },
    {
      "id": "pt.ine.add.PTCONT.1550852",
      "street": "TV MAREANTES VILA GALE",
      "house": "",
      "postcode": "8200-416",
      "city": "GUIA ABF",
      "lon": "-8.306839623847349",
      "lat": "37.07952162142043"
    },
    {
      "id": "pt.ine.add.PTCONT.1550853",
      "street": "TV ARMAÇÃO",
      "house": "",
      "postcode": "8200-416",
      "city": "GUIA ABF",
      "lon": "-8.309885636282514",
      "lat": "37.07878725455547"
    },
    {
      "id": "pt.ine.add.PTCONT.1562592",
      "street": "",
      "house": "",
      "postcode": "8200-416",
      "city": "GUIA ABF",
      "lon": "-8.309567928028898",
      "lat": "37.0775712840763"
    },
    {
      "id": "pt.ine.add.PTCONT.1562591",
      "street": "R NAUS",
      "house": "",
      "postcode": "8200-416",
      "city": "GUIA ABF",
      "lon": "-8.308840586174467",
      "lat": "37.07914923522704"
    },
    {
      "id": "pt.ine.add.PTCONT.1576728",
      "street": "TV MAREANTES",
      "house": "135",
      "postcode": "8200-416",
      "city": "GUIA ABF",
      "lon": "-8.308009285747955",
      "lat": "37.07954693443425"
    },
    {
      "id": "pt.ine.add.PTCONT.1583074",
      "street": "ESTR GALE",
      "house": "122",
      "postcode": "8200-416",
      "city": "GUIA ABF",
      "lon": "-8.307729206457461",
      "lat": "37.08001590305114"
    },
    {
      "id": "pt.ine.add.PTCONT.1583078",
      "street": "R MAREANTES",
      "house": "",
      "postcode": "8200-416",
      "city": "GUIA ABF",
      "lon": "-8.308925790352435",
      "lat": "37.07708566017197"
    },
    {
      "id": "pt.ine.add.PTCONT.1591709",
      "street": "R NAUS",
      "house": "11",
      "postcode": "8200-416",
      "city": "GUIA ABF",
      "lon": "-8.309031124421246",
      "lat": "37.07886962131259"
    },
    {
      "id": "pt.ine.add.PTCONT.1591710",
      "street": "R NAUS CASA DAS LAPAS",
      "house": "13",
      "postcode": "8200-416",
      "city": "GUIA ABF",
      "lon": "-8.309041475217814",
      "lat": "37.07848214618155"
    },
    {
      "id": "pt.ine.add.PTCONT.1594403",
      "street": "BC NAUS",
      "house": "20",
      "postcode": "8200-416",
      "city": "GUIA ABF",
      "lon": "-8.307939222583547",
      "lat": "37.078420701208174"
    },
    {
      "id": "pt.ine.add.PTCONT.1600260",
      "street": "ESTR GALE",
      "house": "124",
      "postcode": "8200-416",
      "city": "GUIA ABF",
      "lon": "-8.307369203517084",
      "lat": "37.07996236838679"
    },
    {
      "id": "pt.ine.add.PTCONT.1617457",
      "street": "TV MAREANTES",
      "house": "140",
      "postcode": "8200-416",
      "city": "GUIA ABF",
      "lon": "-8.30872887341204",
      "lat": "37.07947378558965"
    },
    {
      "id": "pt.ine.add.PTCONT.1620462",
      "street": "ESTR GALE VILLA LENA",
      "house": "116",
      "postcode": "8200-416",
      "city": "GUIA ABF",
      "lon": "-8.308516608250374",
      "lat": "37.08008682668264"
    },
    {
      "id": "pt.ine.add.PTCONT.1625450",
      "street": "ESTR GALE",
      "house": "125",
      "postcode": "8200-416",
      "city": "GUIA ABF",
      "lon": "-8.30695299060456",
      "lat": "37.07991792572195"
    },
    {
      "id": "pt.ine.add.PTCONT.1625451",
      "street": "R NAUS",
      "house": "",
      "postcode": "8200-416",
      "city": "GUIA ABF",
      "lon": "-8.307896265698194",
      "lat": "37.07930381237306"
    },
    {
      "id": "pt.ine.add.PTCONT.1626406",
      "street": "R NAUS CASA CANDEIAS",
      "house": "14",
      "postcode": "8200-416",
      "city": "GUIA ABF",
      "lon": "-8.309063446655337",
      "lat": "37.07825684626442"
    },
    {
      "id": "pt.ine.add.PTCONT.1633519",
      "street": "TV ARMAÇÃO",
      "house": "",
      "postcode": "8200-416",
      "city": "GUIA ABF",
      "lon": "-8.309468468325605",
      "lat": "37.07832833026451"
    },
    {
      "id": "pt.ine.add.PTCONT.1633518",
      "street": "",
      "house": "",
      "postcode": "8200-416",
      "city": "GUIA ABF",
      "lon": "-8.309320164561814",
      "lat": "37.07741847062527"
    },
    {
      "id": "pt.ine.add.PTCONT.1636482",
      "street": "ESTR GALE",
      "house": "120",
      "postcode": "8200-416",
      "city": "GUIA ABF",
      "lon": "-8.308010403475569",
      "lat": "37.080033510097266"
    },
    {
      "id": "pt.ine.add.PTCONT.1649775",
      "street": "TV MAREANTES CASA LUAR DE JANEIRO",
      "house": "141",
      "postcode": "8200-416",
      "city": "GUIA ABF",
      "lon": "-8.308032419796598",
      "lat": "37.079826231741876"
    },
    {
      "id": "pt.ine.add.PTCONT.1655586",
      "street": "TV ARMAÇÃO VILLA BRANCA",
      "house": "",
      "postcode": "8200-416",
      "city": "GUIA ABF",
      "lon": "-8.309468990082852",
      "lat": "37.0785535968089"
    },
    {
      "id": "pt.ine.add.PTCONT.1657934",
      "street": "R NAUS MOLTER",
      "house": "2",
      "postcode": "8200-416",
      "city": "GUIA ABF",
      "lon": "-8.307109531503551",
      "lat": "37.07952122575904"
    },
    {
      "id": "pt.ine.add.PTCONT.1662810",
      "street": "TV MAREANTES",
      "house": "131",
      "postcode": "8200-416",
      "city": "GUIA ABF",
      "lon": "-8.307357359276109",
      "lat": "37.07970107575014"
    },
    {
      "id": "pt.ine.add.PTCONT.1666445",
      "street": "VALE RABELHO",
      "house": "",
      "postcode": "8200-429",
      "city": "GUIA ABF",
      "lon": "-8.310358599322386",
      "lat": "37.07905686944475"
    },
    {
      "id": "pt.ine.add.PTCONT.1678153",
      "street": "ESTR VALE RABELHO",
      "house": "156A B",
      "postcode": "8200-428",
      "city": "GUIA ABF",
      "lon": "-8.309697107592111",
      "lat": "37.07993189320297"
    },
    {
      "id": "pt.ine.add.PTCONT.1678154",
      "street": "ESTR VALE RABELHO",
      "house": "156A B",
      "postcode": "8200-428",
      "city": "GUIA ABF",
      "lon": "-8.309697107592111",
      "lat": "37.07993189320297"
    },
    {
      "id": "pt.ine.add.PTCONT.1678155",
      "street": "ESTR VALE RABELHO",
      "house": "156A B",
      "postcode": "8200-428",
      "city": "GUIA ABF",
      "lon": "-8.309697107592111",
      "lat": "37.07993189320297"
    },
    {
      "id": "pt.ine.add.PTCONT.1678156",
      "street": "ESTR VALE RABELHO",
      "house": "156A B",
      "postcode": "8200-428",
      "city": "GUIA ABF",
      "lon": "-8.309697107592111",
      "lat": "37.07993189320297"
    },
    {
      "id": "pt.ine.add.PTCONT.1678157",
      "street": "ESTR VALE RABELHO",
      "house": "156A B",
      "postcode": "8200-428",
      "city": "GUIA ABF",
      "lon": "-8.309697107592111",
      "lat": "37.07993189320297"
    },
    {
      "id": "pt.ine.add.PTCONT.1678158",
      "street": "ESTR VALE RABELHO",
      "house": "156A B",
      "postcode": "8200-428",
      "city": "GUIA ABF",
      "lon": "-8.309697107592111",
      "lat": "37.07993189320297"
    },
    {
      "id": "pt.ine.add.PTCONT.1678159",
      "street": "ESTR VALE RABELHO",
      "house": "156A B",
      "postcode": "8200-428",
      "city": "GUIA ABF",
      "lon": "-8.309697107592111",
      "lat": "37.07993189320297"
    },
    {
      "id": "pt.ine.add.PTCONT.1678160",
      "street": "ESTR VALE RABELHO",
      "house": "156A B",
      "postcode": "8200-428",
      "city": "GUIA ABF",
      "lon": "-8.309697107592111",
      "lat": "37.07993189320297"
    },
    {
      "id": "pt.ine.add.PTCONT.1678161",
      "street": "ESTR VALE RABELHO",
      "house": "156A B",
      "postcode": "8200-428",
      "city": "GUIA ABF",
      "lon": "-8.309697107592111",
      "lat": "37.07993189320297"
    },
    {
      "id": "pt.ine.add.PTCONT.1678162",
      "street": "ESTR VALE RABELHO",
      "house": "156A B",
      "postcode": "8200-428",
      "city": "GUIA ABF",
      "lon": "-8.309697107592111",
      "lat": "37.07993189320297"
    },
    {
      "id": "pt.ine.add.PTCONT.1678163",
      "street": "ESTR VALE RABELHO",
      "house": "156A B",
      "postcode": "8200-428",
      "city": "GUIA ABF",
      "lon": "-8.309697107592111",
      "lat": "37.07993189320297"
    },
    {
      "id": "pt.ine.add.PTCONT.1678164",
      "street": "ESTR VALE RABELHO",
      "house": "156A B",
      "postcode": "8200-428",
      "city": "GUIA ABF",
      "lon": "-8.309697107592111",
      "lat": "37.07993189320297"
    },
    {
      "id": "pt.ine.add.PTCONT.1678165",
      "street": "ESTR VALE RABELHO",
      "house": "156A B",
      "postcode": "8200-428",
      "city": "GUIA ABF",
      "lon": "-8.309697107592111",
      "lat": "37.07993189320297"
    },
    {
      "id": "pt.ine.add.PTCONT.1678166",
      "street": "ESTR VALE RABELHO",
      "house": "156A B",
      "postcode": "8200-428",
      "city": "GUIA ABF",
      "lon": "-8.309697107592111",
      "lat": "37.07993189320297"
    },
    {
      "id": "pt.ine.add.PTCONT.1678167",
      "street": "ESTR VALE RABELHO",
      "house": "156A B",
      "postcode": "8200-428",
      "city": "GUIA ABF",
      "lon": "-8.309697107592111",
      "lat": "37.07993189320297"
    },
    {
      "id": "pt.ine.add.PTCONT.1678168",
      "street": "ESTR VALE RABELHO",
      "house": "156A B",
      "postcode": "8200-428",
      "city": "GUIA ABF",
      "lon": "-8.309697107592111",
      "lat": "37.07993189320297"
    },
    {
      "id": "pt.ine.add.PTCONT.1678169",
      "street": "ESTR VALE RABELHO",
      "house": "156A B",
      "postcode": "8200-428",
      "city": "GUIA ABF",
      "lon": "-8.309697107592111",
      "lat": "37.07993189320297"
    },
    {
      "id": "pt.ine.add.PTCONT.1678170",
      "street": "ESTR VALE RABELHO",
      "house": "156A B",
      "postcode": "8200-428",
      "city": "GUIA ABF",
      "lon": "-8.309697107592111",
      "lat": "37.07993189320297"
    },
    {
      "id": "pt.ine.add.PTCONT.1678171",
      "street": "ESTR VALE RABELHO",
      "house": "156A B",
      "postcode": "8200-428",
      "city": "GUIA ABF",
      "lon": "-8.309697107592111",
      "lat": "37.07993189320297"
    },
    {
      "id": "pt.ine.add.PTCONT.1678172",
      "street": "ESTR VALE RABELHO",
      "house": "156A B",
      "postcode": "8200-428",
      "city": "GUIA ABF",
      "lon": "-8.309697107592111",
      "lat": "37.07993189320297"
    },
    {
      "id": "pt.ine.add.PTCONT.1678173",
      "street": "ESTR VALE RABELHO",
      "house": "156A B",
      "postcode": "8200-428",
      "city": "GUIA ABF",
      "lon": "-8.309697107592111",
      "lat": "37.07993189320297"
    },
    {
      "id": "pt.ine.add.PTCONT.1678174",
      "street": "ESTR VALE RABELHO",
      "house": "156A B",
      "postcode": "8200-428",
      "city": "GUIA ABF",
      "lon": "-8.309697107592111",
      "lat": "37.07993189320297"
    },
    {
      "id": "pt.ine.add.PTCONT.1678175",
      "street": "ESTR VALE RABELHO",
      "house": "156A B",
      "postcode": "8200-428",
      "city": "GUIA ABF",
      "lon": "-8.309697107592111",
      "lat": "37.07993189320297"
    },
    {
      "id": "pt.ine.add.PTCONT.1678176",
      "street": "ESTR VALE RABELHO",
      "house": "156A B",
      "postcode": "8200-428",
      "city": "GUIA ABF",
      "lon": "-8.309697107592111",
      "lat": "37.07993189320297"
    },
    {
      "id": "pt.ine.add.PTCONT.1678177",
      "street": "ESTR VALE RABELHO",
      "house": "156A B",
      "postcode": "8200-428",
      "city": "GUIA ABF",
      "lon": "-8.309697107592111",
      "lat": "37.07993189320297"
    },
    {
      "id": "pt.ine.add.PTCONT.1678178",
      "street": "ESTR VALE RABELHO",
      "house": "156A B",
      "postcode": "8200-428",
      "city": "GUIA ABF",
      "lon": "-8.309697107592111",
      "lat": "37.07993189320297"
    },
    {
      "id": "pt.ine.add.PTCONT.1678179",
      "street": "ESTR VALE RABELHO",
      "house": "156A B",
      "postcode": "8200-428",
      "city": "GUIA ABF",
      "lon": "-8.309697107592111",
      "lat": "37.07993189320297"
    },
    {
      "id": "pt.ine.add.PTCONT.1678180",
      "street": "ESTR VALE RABELHO",
      "house": "156A B",
      "postcode": "8200-428",
      "city": "GUIA ABF",
      "lon": "-8.309697107592111",
      "lat": "37.07993189320297"
    },
    {
      "id": "pt.ine.add.PTCONT.1678181",
      "street": "ESTR VALE RABELHO",
      "house": "156A B",
      "postcode": "8200-428",
      "city": "GUIA ABF",
      "lon": "-8.309697107592111",
      "lat": "37.07993189320297"
    },
    {
      "id": "pt.ine.add.PTCONT.1678182",
      "street": "ESTR VALE RABELHO",
      "house": "156A B",
      "postcode": "8200-428",
      "city": "GUIA ABF",
      "lon": "-8.309697107592111",
      "lat": "37.07993189320297"
    },
    {
      "id": "pt.ine.add.PTCONT.1678183",
      "street": "ESTR VALE RABELHO",
      "house": "156A B",
      "postcode": "8200-428",
      "city": "GUIA ABF",
      "lon": "-8.309697107592111",
      "lat": "37.07993189320297"
    },
    {
      "id": "pt.ine.add.PTCONT.1678184",
      "street": "ESTR VALE RABELHO",
      "house": "156A B",
      "postcode": "8200-428",
      "city": "GUIA ABF",
      "lon": "-8.309697107592111",
      "lat": "37.07993189320297"
    },
    {
      "id": "pt.ine.add.PTCONT.1678185",
      "street": "ESTR VALE RABELHO",
      "house": "156A B",
      "postcode": "8200-428",
      "city": "GUIA ABF",
      "lon": "-8.309697107592111",
      "lat": "37.07993189320297"
    },
    {
      "id": "pt.ine.add.PTCONT.1678186",
      "street": "ESTR VALE RABELHO",
      "house": "156A B",
      "postcode": "8200-428",
      "city": "GUIA ABF",
      "lon": "-8.309697107592111",
      "lat": "37.07993189320297"
    },
    {
      "id": "pt.ine.add.PTCONT.1678187",
      "street": "ESTR VALE RABELHO",
      "house": "156A B",
      "postcode": "8200-428",
      "city": "GUIA ABF",
      "lon": "-8.309697107592111",
      "lat": "37.07993189320297"
    },
    {
      "id": "pt.ine.add.PTCONT.1678188",
      "street": "ESTR VALE RABELHO",
      "house": "156A B",
      "postcode": "8200-428",
      "city": "GUIA ABF",
      "lon": "-8.309697107592111",
      "lat": "37.07993189320297"
    },
    {
      "id": "pt.ine.add.PTCONT.1678189",
      "street": "ESTR VALE RABELHO",
      "house": "156A B",
      "postcode": "8200-428",
      "city": "GUIA ABF",
      "lon": "-8.309697107592111",
      "lat": "37.07993189320297"
    },
    {
      "id": "pt.ine.add.PTCONT.1678190",
      "street": "ESTR VALE RABELHO",
      "house": "156A B",
      "postcode": "8200-428",
      "city": "GUIA ABF",
      "lon": "-8.309697107592111",
      "lat": "37.07993189320297"
    },
    {
      "id": "pt.ine.add.PTCONT.1678199",
      "street": "ESTR VALE RABELHO",
      "house": "156A B",
      "postcode": "8200-428",
      "city": "GUIA ABF",
      "lon": "-8.309697107592111",
      "lat": "37.07993189320297"
    },
    {
      "id": "pt.ine.add.PTCONT.1678200",
      "street": "ESTR VALE RABELHO",
      "house": "156A B",
      "postcode": "8200-428",
      "city": "GUIA ABF",
      "lon": "-8.309697107592111",
      "lat": "37.07993189320297"
    },
    {
      "id": "pt.ine.add.PTCONT.1678201",
      "street": "ESTR VALE RABELHO",
      "house": "156A B",
      "postcode": "8200-428",
      "city": "GUIA ABF",
      "lon": "-8.309697107592111",
      "lat": "37.07993189320297"
    },
    {
      "id": "pt.ine.add.PTCONT.1678202",
      "street": "ESTR VALE RABELHO",
      "house": "156A B",
      "postcode": "8200-428",
      "city": "GUIA ABF",
      "lon": "-8.309697107592111",
      "lat": "37.07993189320297"
    },
    {
      "id": "pt.ine.add.PTCONT.1678203",
      "street": "ESTR VALE RABELHO",
      "house": "156A B",
      "postcode": "8200-428",
      "city": "GUIA ABF",
      "lon": "-8.309697107592111",
      "lat": "37.07993189320297"
    },
    {
      "id": "pt.ine.add.PTCONT.1678204",
      "street": "ESTR VALE RABELHO",
      "house": "156A B",
      "postcode": "8200-428",
      "city": "GUIA ABF",
      "lon": "-8.309697107592111",
      "lat": "37.07993189320297"
    },
    {
      "id": "pt.ine.add.PTCONT.1678205",
      "street": "ESTR VALE RABELHO",
      "house": "156A B",
      "postcode": "8200-428",
      "city": "GUIA ABF",
      "lon": "-8.309697107592111",
      "lat": "37.07993189320297"
    },
    {
      "id": "pt.ine.add.PTCONT.1678206",
      "street": "ESTR VALE RABELHO",
      "house": "156A B",
      "postcode": "8200-428",
      "city": "GUIA ABF",
      "lon": "-8.309697107592111",
      "lat": "37.07993189320297"
    },
    {
      "id": "pt.ine.add.PTCONT.1678207",
      "street": "ESTR VALE RABELHO",
      "house": "156A B",
      "postcode": "8200-428",
      "city": "GUIA ABF",
      "lon": "-8.309697107592111",
      "lat": "37.07993189320297"
    },
    {
      "id": "pt.ine.add.PTCONT.1678208",
      "street": "ESTR VALE RABELHO",
      "house": "156A B",
      "postcode": "8200-428",
      "city": "GUIA ABF",
      "lon": "-8.309697107592111",
      "lat": "37.07993189320297"
    },
    {
      "id": "pt.ine.add.PTCONT.1678209",
      "street": "ESTR VALE RABELHO",
      "house": "156A B",
      "postcode": "8200-428",
      "city": "GUIA ABF",
      "lon": "-8.309697107592111",
      "lat": "37.07993189320297"
    },
    {
      "id": "pt.ine.add.PTCONT.1678210",
      "street": "ESTR VALE RABELHO",
      "house": "156A B",
      "postcode": "8200-428",
      "city": "GUIA ABF",
      "lon": "-8.309697107592111",
      "lat": "37.07993189320297"
    },
    {
      "id": "pt.ine.add.PTCONT.1678211",
      "street": "ESTR VALE RABELHO",
      "house": "156A B",
      "postcode": "8200-428",
      "city": "GUIA ABF",
      "lon": "-8.309697107592111",
      "lat": "37.07993189320297"
    },
    {
      "id": "pt.ine.add.PTCONT.1678212",
      "street": "ESTR VALE RABELHO",
      "house": "156A B",
      "postcode": "8200-428",
      "city": "GUIA ABF",
      "lon": "-8.309697107592111",
      "lat": "37.07993189320297"
    },
    {
      "id": "pt.ine.add.PTCONT.1678213",
      "street": "ESTR VALE RABELHO",
      "house": "156A B",
      "postcode": "8200-428",
      "city": "GUIA ABF",
      "lon": "-8.309697107592111",
      "lat": "37.07993189320297"
    },
    {
      "id": "pt.ine.add.PTCONT.1678214",
      "street": "ESTR VALE RABELHO",
      "house": "156A B",
      "postcode": "8200-428",
      "city": "GUIA ABF",
      "lon": "-8.309697107592111",
      "lat": "37.07993189320297"
    },
    {
      "id": "pt.ine.add.PTCONT.1678215",
      "street": "ESTR VALE RABELHO",
      "house": "156A B",
      "postcode": "8200-428",
      "city": "GUIA ABF",
      "lon": "-8.309697107592111",
      "lat": "37.07993189320297"
    },
    {
      "id": "pt.ine.add.PTCONT.1678216",
      "street": "ESTR VALE RABELHO",
      "house": "156A B",
      "postcode": "8200-428",
      "city": "GUIA ABF",
      "lon": "-8.309697107592111",
      "lat": "37.07993189320297"
    },
    {
      "id": "pt.ine.add.PTCONT.1678217",
      "street": "ESTR VALE RABELHO",
      "house": "156A B",
      "postcode": "8200-428",
      "city": "GUIA ABF",
      "lon": "-8.309697107592111",
      "lat": "37.07993189320297"
    },
    {
      "id": "pt.ine.add.PTCONT.1678218",
      "street": "ESTR VALE RABELHO",
      "house": "156A B",
      "postcode": "8200-428",
      "city": "GUIA ABF",
      "lon": "-8.309697107592111",
      "lat": "37.07993189320297"
    },
    {
      "id": "pt.ine.add.PTCONT.1678219",
      "street": "ESTR VALE RABELHO",
      "house": "156A B",
      "postcode": "8200-428",
      "city": "GUIA ABF",
      "lon": "-8.309697107592111",
      "lat": "37.07993189320297"
    },
    {
      "id": "pt.ine.add.PTCONT.1678220",
      "street": "ESTR VALE RABELHO",
      "house": "156A B",
      "postcode": "8200-428",
      "city": "GUIA ABF",
      "lon": "-8.309697107592111",
      "lat": "37.07993189320297"
    },
    {
      "id": "pt.ine.add.PTCONT.1678221",
      "street": "ESTR VALE RABELHO",
      "house": "156A B",
      "postcode": "8200-428",
      "city": "GUIA ABF",
      "lon": "-8.309697107592111",
      "lat": "37.07993189320297"
    },
    {
      "id": "pt.ine.add.PTCONT.1678222",
      "street": "ESTR VALE RABELHO",
      "house": "156A B",
      "postcode": "8200-428",
      "city": "GUIA ABF",
      "lon": "-8.309697107592111",
      "lat": "37.07993189320297"
    },
    {
      "id": "pt.ine.add.PTCONT.1678223",
      "street": "ESTR VALE RABELHO",
      "house": "156A B",
      "postcode": "8200-428",
      "city": "GUIA ABF",
      "lon": "-8.309697107592111",
      "lat": "37.07993189320297"
    },
    {
      "id": "pt.ine.add.PTCONT.1678224",
      "street": "ESTR VALE RABELHO",
      "house": "156A B",
      "postcode": "8200-428",
      "city": "GUIA ABF",
      "lon": "-8.309697107592111",
      "lat": "37.07993189320297"
    },
    {
      "id": "pt.ine.add.PTCONT.1678225",
      "street": "ESTR VALE RABELHO",
      "house": "156A B",
      "postcode": "8200-428",
      "city": "GUIA ABF",
      "lon": "-8.309697107592111",
      "lat": "37.07993189320297"
    },
    {
      "id": "pt.ine.add.PTCONT.1678226",
      "street": "ESTR VALE RABELHO",
      "house": "156A B",
      "postcode": "8200-428",
      "city": "GUIA ABF",
      "lon": "-8.309697107592111",
      "lat": "37.07993189320297"
    },
    {
      "id": "pt.ine.add.PTCONT.1678227",
      "street": "ESTR VALE RABELHO",
      "house": "156A B",
      "postcode": "8200-428",
      "city": "GUIA ABF",
      "lon": "-8.309697107592111",
      "lat": "37.07993189320297"
    },
    {
      "id": "pt.ine.add.PTCONT.1678228",
      "street": "ESTR VALE RABELHO",
      "house": "156A B",
      "postcode": "8200-428",
      "city": "GUIA ABF",
      "lon": "-8.309697107592111",
      "lat": "37.07993189320297"
    },
    {
      "id": "pt.ine.add.PTCONT.1678229",
      "street": "ESTR VALE RABELHO",
      "house": "156A B",
      "postcode": "8200-428",
      "city": "GUIA ABF",
      "lon": "-8.309697107592111",
      "lat": "37.07993189320297"
    },
    {
      "id": "pt.ine.add.PTCONT.1678230",
      "street": "ESTR VALE RABELHO",
      "house": "156A B",
      "postcode": "8200-428",
      "city": "GUIA ABF",
      "lon": "-8.309697107592111",
      "lat": "37.07993189320297"
    },
    {
      "id": "pt.ine.add.PTCONT.1678231",
      "street": "ESTR VALE RABELHO",
      "house": "156A B",
      "postcode": "8200-428",
      "city": "GUIA ABF",
      "lon": "-8.309697107592111",
      "lat": "37.07993189320297"
    },
    {
      "id": "pt.ine.add.PTCONT.1678232",
      "street": "ESTR VALE RABELHO",
      "house": "156A B",
      "postcode": "8200-428",
      "city": "GUIA ABF",
      "lon": "-8.309697107592111",
      "lat": "37.07993189320297"
    },
    {
      "id": "pt.ine.add.PTCONT.1678233",
      "street": "ESTR VALE RABELHO",
      "house": "156A B",
      "postcode": "8200-428",
      "city": "GUIA ABF",
      "lon": "-8.309697107592111",
      "lat": "37.07993189320297"
    },
    {
      "id": "pt.ine.add.PTCONT.1678234",
      "street": "ESTR VALE RABELHO",
      "house": "156A B",
      "postcode": "8200-428",
      "city": "GUIA ABF",
      "lon": "-8.309697107592111",
      "lat": "37.07993189320297"
    },
    {
      "id": "pt.ine.add.PTCONT.1678235",
      "street": "ESTR VALE RABELHO",
      "house": "156A B",
      "postcode": "8200-428",
      "city": "GUIA ABF",
      "lon": "-8.309697107592111",
      "lat": "37.07993189320297"
    },
    {
      "id": "pt.ine.add.PTCONT.1678236",
      "street": "ESTR VALE RABELHO",
      "house": "156A B",
      "postcode": "8200-428",
      "city": "GUIA ABF",
      "lon": "-8.309697107592111",
      "lat": "37.07993189320297"
    },
    {
      "id": "pt.ine.add.PTCONT.1678237",
      "street": "ESTR VALE RABELHO",
      "house": "156A B",
      "postcode": "8200-428",
      "city": "GUIA ABF",
      "lon": "-8.309697107592111",
      "lat": "37.07993189320297"
    },
    {
      "id": "pt.ine.add.PTCONT.1678238",
      "street": "ESTR VALE RABELHO",
      "house": "156A B",
      "postcode": "8200-428",
      "city": "GUIA ABF",
      "lon": "-8.309697107592111",
      "lat": "37.07993189320297"
    },
    {
      "id": "pt.ine.add.PTCONT.1678239",
      "street": "ESTR VALE RABELHO",
      "house": "156A B",
      "postcode": "8200-428",
      "city": "GUIA ABF",
      "lon": "-8.309697107592111",
      "lat": "37.07993189320297"
    },
    {
      "id": "pt.ine.add.PTCONT.1678240",
      "street": "ESTR VALE RABELHO",
      "house": "156A B",
      "postcode": "8200-428",
      "city": "GUIA ABF",
      "lon": "-8.309697107592111",
      "lat": "37.07993189320297"
    },
    {
      "id": "pt.ine.add.PTCONT.1678241",
      "street": "ESTR VALE RABELHO",
      "house": "156A B",
      "postcode": "8200-428",
      "city": "GUIA ABF",
      "lon": "-8.309697107592111",
      "lat": "37.07993189320297"
    },
    {
      "id": "pt.ine.add.PTCONT.1678242",
      "street": "ESTR VALE RABELHO",
      "house": "156A B",
      "postcode": "8200-428",
      "city": "GUIA ABF",
      "lon": "-8.309697107592111",
      "lat": "37.07993189320297"
    },
    {
      "id": "pt.ine.add.PTCONT.1678243",
      "street": "ESTR VALE RABELHO",
      "house": "156A B",
      "postcode": "8200-428",
      "city": "GUIA ABF",
      "lon": "-8.309697107592111",
      "lat": "37.07993189320297"
    },
    {
      "id": "pt.ine.add.PTCONT.1678244",
      "street": "ESTR VALE RABELHO",
      "house": "156A B",
      "postcode": "8200-428",
      "city": "GUIA ABF",
      "lon": "-8.309697107592111",
      "lat": "37.07993189320297"
    },
    {
      "id": "pt.ine.add.PTCONT.1678245",
      "street": "ESTR VALE RABELHO",
      "house": "156A B",
      "postcode": "8200-428",
      "city": "GUIA ABF",
      "lon": "-8.309697107592111",
      "lat": "37.07993189320297"
    },
    {
      "id": "pt.ine.add.PTCONT.1678246",
      "street": "ESTR VALE RABELHO",
      "house": "156A B",
      "postcode": "8200-428",
      "city": "GUIA ABF",
      "lon": "-8.309697107592111",
      "lat": "37.07993189320297"
    },
    {
      "id": "pt.ine.add.PTCONT.1678247",
      "street": "ESTR VALE RABELHO",
      "house": "156A B",
      "postcode": "8200-428",
      "city": "GUIA ABF",
      "lon": "-8.309697107592111",
      "lat": "37.07993189320297"
    },
    {
      "id": "pt.ine.add.PTCONT.1678248",
      "street": "ESTR VALE RABELHO",
      "house": "156A B",
      "postcode": "8200-428",
      "city": "GUIA ABF",
      "lon": "-8.309697107592111",
      "lat": "37.07993189320297"
    },
    {
      "id": "pt.ine.add.PTCONT.1678249",
      "street": "ESTR VALE RABELHO",
      "house": "156A B",
      "postcode": "8200-428",
      "city": "GUIA ABF",
      "lon": "-8.309697107592111",
      "lat": "37.07993189320297"
    },
    {
      "id": "pt.ine.add.PTCONT.1678250",
      "street": "ESTR VALE RABELHO",
      "house": "156A B",
      "postcode": "8200-428",
      "city": "GUIA ABF",
      "lon": "-8.309697107592111",
      "lat": "37.07993189320297"
    },
    {
      "id": "pt.ine.add.PTCONT.1678251",
      "street": "ESTR VALE RABELHO",
      "house": "156A B",
      "postcode": "8200-428",
      "city": "GUIA ABF",
      "lon": "-8.309697107592111",
      "lat": "37.07993189320297"
    },
    {
      "id": "pt.ine.add.PTCONT.1678252",
      "street": "ESTR VALE RABELHO",
      "house": "156A B",
      "postcode": "8200-428",
      "city": "GUIA ABF",
      "lon": "-8.309697107592111",
      "lat": "37.07993189320297"
    },
    {
      "id": "pt.ine.add.PTCONT.1678253",
      "street": "ESTR VALE RABELHO",
      "house": "156A B",
      "postcode": "8200-428",
      "city": "GUIA ABF",
      "lon": "-8.309697107592111",
      "lat": "37.07993189320297"
    },
    {
      "id": "pt.ine.add.PTCONT.1678254",
      "street": "ESTR VALE RABELHO",
      "house": "156A B",
      "postcode": "8200-428",
      "city": "GUIA ABF",
      "lon": "-8.309697107592111",
      "lat": "37.07993189320297"
    },
    {
      "id": "pt.ine.add.PTCONT.1678256",
      "street": "ESTR VALE RABELHO",
      "house": "156A B",
      "postcode": "8200-428",
      "city": "GUIA ABF",
      "lon": "-8.309697107592111",
      "lat": "37.07993189320297"
    },
    {
      "id": "pt.ine.add.PTCONT.1678257",
      "street": "ESTR VALE RABELHO",
      "house": "156A B",
      "postcode": "8200-428",
      "city": "GUIA ABF",
      "lon": "-8.309697107592111",
      "lat": "37.07993189320297"
    },
    {
      "id": "pt.ine.add.PTCONT.1678259",
      "street": "ESTR VALE RABELHO",
      "house": "156A B",
      "postcode": "8200-428",
      "city": "GUIA ABF",
      "lon": "-8.309697107592111",
      "lat": "37.07993189320297"
    },
    {
      "id": "pt.ine.add.PTCONT.1678260",
      "street": "ESTR VALE RABELHO",
      "house": "156A B",
      "postcode": "8200-428",
      "city": "GUIA ABF",
      "lon": "-8.309697107592111",
      "lat": "37.07993189320297"
    },
    {
      "id": "pt.ine.add.PTCONT.1678261",
      "street": "ESTR VALE RABELHO",
      "house": "156A B",
      "postcode": "8200-428",
      "city": "GUIA ABF",
      "lon": "-8.309697107592111",
      "lat": "37.07993189320297"
    },
    {
      "id": "pt.ine.add.PTCONT.1678262",
      "street": "ESTR VALE RABELHO",
      "house": "156A B",
      "postcode": "8200-428",
      "city": "GUIA ABF",
      "lon": "-8.309697107592111",
      "lat": "37.07993189320297"
    },
    {
      "id": "pt.ine.add.PTCONT.1678263",
      "street": "ESTR VALE RABELHO",
      "house": "156A B",
      "postcode": "8200-428",
      "city": "GUIA ABF",
      "lon": "-8.309697107592111",
      "lat": "37.07993189320297"
    },
    {
      "id": "pt.ine.add.PTCONT.1678265",
      "street": "ESTR VALE RABELHO",
      "house": "156A B",
      "postcode": "8200-428",
      "city": "GUIA ABF",
      "lon": "-8.309697107592111",
      "lat": "37.07993189320297"
    },
    {
      "id": "pt.ine.add.PTCONT.1678266",
      "street": "ESTR VALE RABELHO",
      "house": "156A B",
      "postcode": "8200-428",
      "city": "GUIA ABF",
      "lon": "-8.309697107592111",
      "lat": "37.07993189320297"
    },
    {
      "id": "pt.ine.add.PTCONT.1678267",
      "street": "ESTR VALE RABELHO",
      "house": "156A B",
      "postcode": "8200-428",
      "city": "GUIA ABF",
      "lon": "-8.309697107592111",
      "lat": "37.07993189320297"
    },
    {
      "id": "pt.ine.add.PTCONT.1678268",
      "street": "ESTR VALE RABELHO",
      "house": "156A B",
      "postcode": "8200-428",
      "city": "GUIA ABF",
      "lon": "-8.309697107592111",
      "lat": "37.07993189320297"
    },
    {
      "id": "pt.ine.add.PTCONT.1684140",
      "street": "TV MAREANTES CASA FLOR DE MAIO",
      "house": "142",
      "postcode": "8200-416",
      "city": "GUIA ABF",
      "lon": "-8.308167394874026",
      "lat": "37.07983504328967"
    },
    {
      "id": "pt.ine.add.PTCONT.1684141",
      "street": "TV ARMAÇÃO",
      "house": "",
      "postcode": "8200-416",
      "city": "GUIA ABF",
      "lon": "-8.309907647150606",
      "lat": "37.07857997582263"
    },
    {
      "id": "pt.ine.add.PTCONT.1692460",
      "street": "TV MAREANTES CASA DO MAR",
      "house": "138",
      "postcode": "8200-416",
      "city": "GUIA ABF",
      "lon": "-8.308447719802833",
      "lat": "37.079474201561744"
    },
    {
      "id": "pt.ine.add.PTCONT.1696716",
      "street": "R MAREANTES CASA PAPOULA",
      "house": "",
      "postcode": "8200-416",
      "city": "GUIA ABF",
      "lon": "-8.308095216900377",
      "lat": "37.07778972261996"
    },
    {
      "id": "pt.ine.add.PTCONT.1701284",
      "street": "ESTR GALE",
      "house": "117",
      "postcode": "8200-416",
      "city": "GUIA ABF",
      "lon": "-8.308325360046583",
      "lat": "37.08006007729845"
    },
    {
      "id": "pt.ine.add.PTCONT.1701288",
      "street": "R ARMAÇÃO",
      "house": "",
      "postcode": "8200-416",
      "city": "GUIA ABF",
      "lon": "-8.310097216610835",
      "lat": "37.07788586972908"
    },
    {
      "id": "pt.ine.add.PTCONT.1709541",
      "street": "TV MAREANTES",
      "house": "",
      "postcode": "8200-416",
      "city": "GUIA ABF",
      "lon": "-8.308121685167281",
      "lat": "37.079519736558545"
    },
    {
      "id": "pt.ine.add.PTCONT.1709542",
      "street": "R ARMAÇÃO",
      "house": "",
      "postcode": "8200-416",
      "city": "GUIA ABF",
      "lon": "-8.310062892560742",
      "lat": "37.07763362151768"
    },
    {
      "id": "pt.ine.add.PTCONT.1712604",
      "street": "ESTR GALE",
      "house": "119",
      "postcode": "8200-416",
      "city": "GUIA ABF",
      "lon": "-8.308111640232323",
      "lat": "37.080042371455356"
    },
    {
      "id": "pt.ine.add.PTCONT.1712609",
      "street": "BC NAUS",
      "house": "",
      "postcode": "8200-416",
      "city": "GUIA ABF",
      "lon": "-8.30891552234452",
      "lat": "37.07750917803936"
    },
    {
      "id": "pt.ine.add.PTCONT.1726925",
      "street": "R NAUS",
      "house": "",
      "postcode": "8200-416",
      "city": "GUIA ABF",
      "lon": "-8.309200440410608",
      "lat": "37.079139690814436"
    },
    {
      "id": "pt.ine.add.PTCONT.1729810",
      "street": "TV MAREANTES",
      "house": "133",
      "postcode": "8200-416",
      "city": "GUIA ABF",
      "lon": "-8.307728276514023",
      "lat": "37.07961042332746"
    },
    {
      "id": "pt.ine.add.PTCONT.1735382",
      "street": "ESTR GALE VILLA REIS",
      "house": "",
      "postcode": "8200-416",
      "city": "GUIA ABF",
      "lon": "-8.308707794242853",
      "lat": "37.08008654377912"
    },
    {
      "id": "pt.ine.add.PTCONT.1750618",
      "street": "R NAUS",
      "house": "",
      "postcode": "8200-416",
      "city": "GUIA ABF",
      "lon": "-8.307671487911266",
      "lat": "37.07936721825279"
    },
    {
      "id": "pt.ine.add.PTCONT.1759720",
      "street": "R MAREANTES CASA MIMAO",
      "house": "",
      "postcode": "8200-416",
      "city": "GUIA ABF",
      "lon": "-8.308295300456605",
      "lat": "37.07677121875591"
    },
    {
      "id": "pt.ine.add.PTCONT.1772097",
      "street": "R NAUS VILA MAR ALI",
      "house": "",
      "postcode": "8200-416",
      "city": "GUIA ABF",
      "lon": "-8.307401807699568",
      "lat": "37.07946673246575"
    },
    {
      "id": "pt.ine.add.PTCONT.1789710",
      "street": "R ARMAÇÃO",
      "house": "",
      "postcode": "8200-416",
      "city": "GUIA ABF",
      "lon": "-8.310324840105217",
      "lat": "37.079047909199254"
    },
    {
      "id": "pt.ine.add.PTCONT.1792863",
      "street": "R MAREANTES",
      "house": "",
      "postcode": "8200-416",
      "city": "GUIA ABF",
      "lon": "-8.30840792385792",
      "lat": "37.0768431379201"
    },
    {
      "id": "pt.ine.add.PTCONT.1798474",
      "street": "TV MAREANTES VILA AMARELO",
      "house": "132",
      "postcode": "8200-416",
      "city": "GUIA ABF",
      "lon": "-8.307514785136286",
      "lat": "37.07969183367326"
    },
    {
      "id": "pt.ine.add.PTCONT.1806718",
      "street": "BC NAUS STOCL",
      "house": "18",
      "postcode": "8200-416",
      "city": "GUIA ABF",
      "lon": "-8.308680148910351",
      "lat": "37.07785193306258"
    },
    {
      "id": "pt.ine.add.PTCONT.1818842",
      "street": "ESTR GALE VILLA ESTRELA",
      "house": "",
      "postcode": "8200-416",
      "city": "GUIA ABF",
      "lon": "-8.308629070599213",
      "lat": "37.08008666030612"
    },
    {
      "id": "pt.ine.add.PTCONT.1821771",
      "street": "ESTR GALE",
      "house": "123",
      "postcode": "8200-416",
      "city": "GUIA ABF",
      "lon": "-8.307515445620936",
      "lat": "37.07998017481229"
    },
    {
      "id": "pt.ine.add.PTCONT.1839056",
      "street": "TV MAREANTES",
      "house": "139",
      "postcode": "8200-416",
      "city": "GUIA ABF",
      "lon": "-8.308616432739262",
      "lat": "37.07948296271908"
    },
    {
      "id": "pt.ine.add.PTCONT.1842156",
      "street": "ESTR VALE RABELHO",
      "house": "156A B",
      "postcode": "8200-428",
      "city": "GUIA ABF",
      "lon": "-8.309697107592111",
      "lat": "37.07993189320297"
    },
    {
      "id": "pt.ine.add.PTCONT.1842157",
      "street": "ESTR VALE RABELHO",
      "house": "156A B",
      "postcode": "8200-428",
      "city": "GUIA ABF",
      "lon": "-8.309697107592111",
      "lat": "37.07993189320297"
    },
    {
      "id": "pt.ine.add.PTCONT.1846717",
      "street": "R NAUS CASA DAS FLORES",
      "house": "25",
      "postcode": "8200-416",
      "city": "GUIA ABF",
      "lon": "-8.306996308578727",
      "lat": "37.079187996214294"
    },
    {
      "id": "pt.ine.add.PTCONT.1847981",
      "street": "R NAUS",
      "house": "",
      "postcode": "8200-416",
      "city": "GUIA ABF",
      "lon": "-8.308626910344074",
      "lat": "37.07914955162553"
    }
  ]
}