{
  "data": {
    "distrito": "Lisboa",
    "concelho": "Oeiras",
    "freguesia": "União das freguesias de Oeiras e São Julião da Barra, Paço de Arcos e Caxias",
    "OBJECTID": 183,
    "BGRI2021": "11101404209",
    "DT21": "11",
    "DTMN21": "1110",
    "DTMNFR21": "111014",
    "DTMNFRSEC21": "111014042",
    "SECNUM21": "042",
    "SSNUM21": "09",
    "SECSSNUM21": "04209",
    "OBJECTID_1": 110539,
    "DT": "11",
    "CC": "10",
    "fr": "14",
    "SEC": "042",
    "SS": "09"
  },
  "addresses": [
    {
      "id": "pt.ine.add.PTCONT.2269600",
      "street": "R SAFIRAS",
      "house": "25",
      "postcode": "2760-104",
      "city": "CAXIAS",
      "lon": "-9.274271530479135",
      "lat": "38.713303762975755"
    },
    {
      "id": "pt.ine.add.PTCONT.2335548",
      "street": "R QUARTZO",
      "house": "16",
      "postcode": "2760-097",
      "city": "CAXIAS",
      "lon": "-9.274347127975856",
      "lat": "38.71299675974947"
    },
    {
      "id": "pt.ine.add.PTCONT.2486838",
      "street": "R SAFIRAS",
      "house": "25 A",
      "postcode": "2760-104",
      "city": "CAXIAS",
      "lon": "-9.274214770080153",
      "lat": "38.71334935600805"
    },
    {
      "id": "pt.ine.add.PTCONT.2669357",
      "street": "R SAFIRAS",
      "house": "28",
      "postcode": "2760-104",
      "city": "CAXIAS",
      "lon": "-9.274134875816612",
      "lat": "38.71338616699239"
    },
    {
      "id": "pt.ine.add.PTCONT.2876558",
      "street": "R TURQUESAS",
      "house": "2 18 A",
      "postcode": "2760-116",
      "city": "CAXIAS",
      "lon": "-9.274234180501718",
      "lat": "38.713123971478154"
    },
    {
      "id": "pt.ine.add.PTCONT.2935979",
      "street": "R TURQUESAS",
      "house": "32",
      "postcode": "2760-116",
      "city": "CAXIAS",
      "lon": "-9.274156148047393",
      "lat": "38.713277865744566"
    },
    {
      "id": "pt.ine.add.PTCONT.3265038",
      "street": "R QUARTZO",
      "house": "19",
      "postcode": "2760-097",
      "city": "CAXIAS",
      "lon": "-9.274362490189857",
      "lat": "38.71323982047313"
    },
    {
      "id": "pt.ine.add.PTCONT.3297356",
      "street": "R TURQUESAS",
      "house": "31",
      "postcode": "2760-116",
      "city": "CAXIAS",
      "lon": "-9.274189488281907",
      "lat": "38.7132054779185"
    }
  ]
}