{
  "data": {
    "distrito": "Coimbra",
    "concelho": "Vila Nova de Poiares",
    "freguesia": "Poiares (Santo André)",
    "OBJECTID": 195,
    "BGRI2021": "06170300407",
    "DT21": "06",
    "DTMN21": "0617",
    "DTMNFR21": "061703",
    "DTMNFRSEC21": "061703004",
    "SECNUM21": "004",
    "SSNUM21": "07",
    "SECSSNUM21": "00407",
    "OBJECTID_1": 58035,
    "DT": "06",
    "CC": "17",
    "fr": "03",
    "SEC": "004",
    "SS": "07"
  },
  "addresses": [
    {
      "id": "pt.ine.add.PTCONT.1105710",
      "street": "",
      "house": "",
      "postcode": "3350-084",
      "city": "VILA NOVA DE POIARES",
      "lon": "-8.253104027894121",
      "lat": "40.212914696100185"
    },
    {
      "id": "pt.ine.add.PTCONT.1128364",
      "street": "AV MANUEL CARVALHO COELHO",
      "house": "",
      "postcode": "3350-154",
      "city": "VILA NOVA DE POIARES",
      "lon": "-8.256649131225656",
      "lat": "40.21154207543759"
    },
    {
      "id": "pt.ine.add.PTCONT.1128365",
      "street": "AV MANUEL CARVALHO COELHO B",
      "house": "B",
      "postcode": "3350-154",
      "city": "VILA NOVA DE POIARES",
      "lon": "-8.256649131225656",
      "lat": "40.21154207543759"
    },
    {
      "id": "pt.ine.add.PTCONT.1128371",
      "street": "AV MANUEL CARVALHO COELHO",
      "house": "",
      "postcode": "3350-154",
      "city": "VILA NOVA DE POIARES",
      "lon": "-8.256649131225656",
      "lat": "40.21154207543759"
    },
    {
      "id": "pt.ine.add.PTCONT.1128372",
      "street": "AV MANUEL CARVALHO COELHO",
      "house": "8200 A",
      "postcode": "3350-154",
      "city": "VILA NOVA DE POIARES",
      "lon": "-8.256649131225656",
      "lat": "40.21154207543759"
    },
    {
      "id": "pt.ine.add.PTCONT.1128373",
      "street": "AV MANUEL CARVALHO COELHO",
      "house": "",
      "postcode": "3350-154",
      "city": "VILA NOVA DE POIARES",
      "lon": "-8.256649131225656",
      "lat": "40.21154207543759"
    },
    {
      "id": "pt.ine.add.PTCONT.1128374",
      "street": "AV MANUEL CARVALHO COELHO",
      "house": "",
      "postcode": "3350-154",
      "city": "VILA NOVA DE POIARES",
      "lon": "-8.256649131225656",
      "lat": "40.21154207543759"
    },
    {
      "id": "pt.ine.add.PTCONT.1128375",
      "street": "AV MANUEL CARVALHO COELHO",
      "house": "",
      "postcode": "3350-154",
      "city": "VILA NOVA DE POIARES",
      "lon": "-8.256649131225656",
      "lat": "40.21154207543759"
    },
    {
      "id": "pt.ine.add.PTCONT.1128376",
      "street": "AV MANUEL CARVALHO COELHO B",
      "house": "B",
      "postcode": "3350-154",
      "city": "VILA NOVA DE POIARES",
      "lon": "-8.256649131225656",
      "lat": "40.21154207543759"
    },
    {
      "id": "pt.ine.add.PTCONT.1128377",
      "street": "AV MANUEL CARVALHO COELHO",
      "house": "",
      "postcode": "3350-154",
      "city": "VILA NOVA DE POIARES",
      "lon": "-8.256649131225656",
      "lat": "40.21154207543759"
    },
    {
      "id": "pt.ine.add.PTCONT.1128378",
      "street": "AV MANUEL CARVALHO COELHO",
      "house": "",
      "postcode": "3350-154",
      "city": "VILA NOVA DE POIARES",
      "lon": "-8.256649131225656",
      "lat": "40.21154207543759"
    },
    {
      "id": "pt.ine.add.PTCONT.1128473",
      "street": "AV MANUEL CARVALHO COELHO",
      "house": "",
      "postcode": "3350-154",
      "city": "VILA NOVA DE POIARES",
      "lon": "-8.256649131225656",
      "lat": "40.21154207543759"
    },
    {
      "id": "pt.ine.add.PTCONT.1132632",
      "street": "R CABOUCO",
      "house": "2",
      "postcode": "3350-102",
      "city": "VILA NOVA DE POIARES",
      "lon": "-8.252694688028155",
      "lat": "40.21394178807508"
    },
    {
      "id": "pt.ine.add.PTCONT.1213337",
      "street": "CATRAIA DAS NECESSIDADES",
      "house": "3",
      "postcode": "3350-084",
      "city": "VILA NOVA DE POIARES",
      "lon": "-8.252635841461968",
      "lat": "40.21387880782011"
    },
    {
      "id": "pt.ine.add.PTCONT.1229093",
      "street": "AV MANUEL CARVALHO COELHO",
      "house": "",
      "postcode": "3350-154",
      "city": "VILA NOVA DE POIARES",
      "lon": "-8.25660188270674",
      "lat": "40.2113980320033"
    },
    {
      "id": "pt.ine.add.PTCONT.1229094",
      "street": "AV MANUEL CARVALHO COELHO",
      "house": "",
      "postcode": "3350-154",
      "city": "VILA NOVA DE POIARES",
      "lon": "-8.25660188270674",
      "lat": "40.2113980320033"
    },
    {
      "id": "pt.ine.add.PTCONT.1229095",
      "street": "AV MANUEL CARVALHO COELHO",
      "house": "",
      "postcode": "3350-154",
      "city": "VILA NOVA DE POIARES",
      "lon": "-8.25660188270674",
      "lat": "40.2113980320033"
    },
    {
      "id": "pt.ine.add.PTCONT.1229096",
      "street": "AV MANUEL CARVALHO COELHO",
      "house": "",
      "postcode": "3350-154",
      "city": "VILA NOVA DE POIARES",
      "lon": "-8.25660188270674",
      "lat": "40.2113980320033"
    },
    {
      "id": "pt.ine.add.PTCONT.1229097",
      "street": "AV MANUEL CARVALHO COELHO",
      "house": "",
      "postcode": "3350-154",
      "city": "VILA NOVA DE POIARES",
      "lon": "-8.25660188270674",
      "lat": "40.2113980320033"
    },
    {
      "id": "pt.ine.add.PTCONT.1229098",
      "street": "AV MANUEL CARVALHO COELHO",
      "house": "",
      "postcode": "3350-154",
      "city": "VILA NOVA DE POIARES",
      "lon": "-8.25660188270674",
      "lat": "40.2113980320033"
    },
    {
      "id": "pt.ine.add.PTCONT.1229102",
      "street": "AV MANUEL CARVALHO COELHO",
      "house": "",
      "postcode": "3350-154",
      "city": "VILA NOVA DE POIARES",
      "lon": "-8.25660188270674",
      "lat": "40.2113980320033"
    },
    {
      "id": "pt.ine.add.PTCONT.1229103",
      "street": "AV MANUEL CARVALHO COELHO A",
      "house": "A",
      "postcode": "3350-154",
      "city": "VILA NOVA DE POIARES",
      "lon": "-8.25660188270674",
      "lat": "40.2113980320033"
    },
    {
      "id": "pt.ine.add.PTCONT.1229104",
      "street": "AV MANUEL CARVALHO COELHO",
      "house": "",
      "postcode": "3350-154",
      "city": "VILA NOVA DE POIARES",
      "lon": "-8.25660188270674",
      "lat": "40.2113980320033"
    },
    {
      "id": "pt.ine.add.PTCONT.1229105",
      "street": "AV MANUEL CARVALHO COELHO",
      "house": "",
      "postcode": "3350-154",
      "city": "VILA NOVA DE POIARES",
      "lon": "-8.25660188270674",
      "lat": "40.2113980320033"
    },
    {
      "id": "pt.ine.add.PTCONT.1229106",
      "street": "AV MANUEL CARVALHO COELHO",
      "house": "",
      "postcode": "3350-154",
      "city": "VILA NOVA DE POIARES",
      "lon": "-8.25660188270674",
      "lat": "40.2113980320033"
    },
    {
      "id": "pt.ine.add.PTCONT.1229205",
      "street": "AV MANUEL CARVALHO COELHO",
      "house": "",
      "postcode": "3350-154",
      "city": "VILA NOVA DE POIARES",
      "lon": "-8.25660188270674",
      "lat": "40.2113980320033"
    },
    {
      "id": "pt.ine.add.PTCONT.1294764",
      "street": "",
      "house": "",
      "postcode": "3350-102",
      "city": "VILA NOVA DE POIARES",
      "lon": "-8.252777013207778",
      "lat": "40.21399573816725"
    },
    {
      "id": "pt.ine.add.PTCONT.1318601",
      "street": "R ESCOLA SECUNDÁRIA",
      "house": "",
      "postcode": "3350-098",
      "city": "VILA NOVA DE POIARES",
      "lon": "-8.253477445847732",
      "lat": "40.21150939350876"
    },
    {
      "id": "pt.ine.add.PTCONT.1367356",
      "street": "AV MANUEL CARVALHO COELHO",
      "house": "",
      "postcode": "3350-154",
      "city": "VILA NOVA DE POIARES",
      "lon": "-8.256649131225656",
      "lat": "40.21154207543759"
    }
  ]
}