{
  "data": {
    "distrito": "Bragança",
    "concelho": "Vila Flor",
    "freguesia": "União das freguesias de Vila Flor e Nabo",
    "OBJECTID": 38,
    "BGRI2021": "04102300228",
    "DT21": "04",
    "DTMN21": "0410",
    "DTMNFR21": "041023",
    "DTMNFRSEC21": "041023002",
    "SECNUM21": "002",
    "SSNUM21": "28",
    "SECSSNUM21": "00228",
    "OBJECTID_1": 39025,
    "DT": "04",
    "CC": "10",
    "fr": "23",
    "SEC": "002",
    "SS": "28"
  },
  "addresses": [
    {
      "id": "pt.ine.add.PTCONT.865271",
      "street": "R RESIDENCIA",
      "house": "4",
      "postcode": "5360-353",
      "city": "VILA FLOR",
      "lon": "-7.1523627634645495",
      "lat": "41.306743375829974"
    },
    {
      "id": "pt.ine.add.PTCONT.865273",
      "street": "TV DA RESIDÊNCIA",
      "house": "8",
      "postcode": "5360-407",
      "city": "VILA FLOR",
      "lon": "-7.152186506015064",
      "lat": "41.306552790223584"
    },
    {
      "id": "pt.ine.add.PTCONT.865409",
      "street": "R RESIDENCIA",
      "house": "1",
      "postcode": "5360-353",
      "city": "VILA FLOR",
      "lon": "-7.1523627634645495",
      "lat": "41.306743375829974"
    },
    {
      "id": "pt.ine.add.PTCONT.867465",
      "street": "TV DA RESIDÊNCIA",
      "house": "4",
      "postcode": "5360-407",
      "city": "VILA FLOR",
      "lon": "-7.15213780388541",
      "lat": "41.306615403040325"
    },
    {
      "id": "pt.ine.add.PTCONT.867466",
      "street": "TV DA RESIDÊNCIA",
      "house": "4",
      "postcode": "5360-407",
      "city": "VILA FLOR",
      "lon": "-7.15213780388541",
      "lat": "41.306615403040325"
    },
    {
      "id": "pt.ine.add.PTCONT.868087",
      "street": "R DA RESIDÊNCIA",
      "house": "8",
      "postcode": "5360-353",
      "city": "VILA FLOR",
      "lon": "-7.152124784913274",
      "lat": "41.30668732394313"
    },
    {
      "id": "pt.ine.add.PTCONT.930262",
      "street": "R RESIDENCIA",
      "house": "6",
      "postcode": "5360-353",
      "city": "VILA FLOR",
      "lon": "-7.152219760387407",
      "lat": "41.30672414928844"
    },
    {
      "id": "pt.ine.add.PTCONT.930263",
      "street": "R RESIDENCIA",
      "house": "12",
      "postcode": "5360-353",
      "city": "VILA FLOR",
      "lon": "-7.152219760387407",
      "lat": "41.30672414928844"
    },
    {
      "id": "pt.ine.add.PTCONT.946736",
      "street": "TV DA R NOVA",
      "house": "5",
      "postcode": "5360-408",
      "city": "VILA FLOR",
      "lon": "-7.152245798109443",
      "lat": "41.306580307457466"
    },
    {
      "id": "pt.ine.add.PTCONT.948097",
      "street": "TV DA R NOVA",
      "house": "3",
      "postcode": "5360-408",
      "city": "VILA FLOR",
      "lon": "-7.152305090254054",
      "lat": "41.30660782466121"
    }
  ]
}