{
  "data": {
    "distrito": "Leiria",
    "concelho": "Alvaiázere",
    "freguesia": "Alvaiázere",
    "OBJECTID": 241,
    "BGRI2021": "10020800242",
    "DT21": "10",
    "DTMN21": "1002",
    "DTMNFR21": "100208",
    "DTMNFRSEC21": "100208002",
    "SECNUM21": "002",
    "SSNUM21": "42",
    "SECSSNUM21": "00242",
    "OBJECTID_1": 85612,
    "DT": "10",
    "CC": "02",
    "fr": "08",
    "SEC": "002",
    "SS": "42"
  },
  "addresses": [
    {
      "id": "pt.ine.add.PTCONT.2091795",
      "street": "R AZENHAS",
      "house": "41",
      "postcode": "3250-204",
      "city": "MAÇÃS DE CAMINHO",
      "lon": "-8.381085462221481",
      "lat": "39.843495544119016"
    },
    {
      "id": "pt.ine.add.PTCONT.2113701",
      "street": "R AZENHAS",
      "house": "35",
      "postcode": "3250-204",
      "city": "MAÇÃS DE CAMINHO",
      "lon": "-8.380897292753406",
      "lat": "39.84315370192386"
    },
    {
      "id": "pt.ine.add.PTCONT.2144684",
      "street": "R ALBERGARIA MAZANIS",
      "house": "100",
      "postcode": "3250-208",
      "city": "MAÇÃS DE CAMINHO",
      "lon": "-8.38582743200758",
      "lat": "39.84623227073099"
    },
    {
      "id": "pt.ine.add.PTCONT.2146244",
      "street": "R ALBERGARIA MAZANIS",
      "house": "86",
      "postcode": "3250-208",
      "city": "MAÇÃS DE CAMINHO",
      "lon": "-8.385402055133909",
      "lat": "39.844936271580934"
    },
    {
      "id": "pt.ine.add.PTCONT.2146250",
      "street": "R ALBERGARIA MAZANIS",
      "house": "86",
      "postcode": "3250-208",
      "city": "MAÇÃS DE CAMINHO",
      "lon": "-8.385402055133909",
      "lat": "39.844936271580934"
    },
    {
      "id": "pt.ine.add.PTCONT.2155088",
      "street": "R CASTELO",
      "house": "18",
      "postcode": "3250-204",
      "city": "MAÇÃS DE CAMINHO",
      "lon": "-8.382343655226734",
      "lat": "39.84248412792479"
    },
    {
      "id": "pt.ine.add.PTCONT.2238485",
      "street": "R AZENHAS",
      "house": "25",
      "postcode": "3250-204",
      "city": "MAÇÃS DE CAMINHO",
      "lon": "-8.38097732956445",
      "lat": "39.84266718380755"
    },
    {
      "id": "pt.ine.add.PTCONT.2243582",
      "street": "R AZENHAS",
      "house": "47",
      "postcode": "3250-204",
      "city": "MAÇÃS DE CAMINHO",
      "lon": "-8.381343801000426",
      "lat": "39.84385524871742"
    }
  ]
}