{
  "data": {
    "distrito": "Évora",
    "concelho": "Montemor-O-Novo",
    "freguesia": "União das freguesias de Nossa Senhora da Vila, Nossa Senhora do Bispo e Silveiras",
    "OBJECTID": 413,
    "BGRI2021": "07061200501",
    "DT21": "07",
    "DTMN21": "0706",
    "DTMNFR21": "070612",
    "DTMNFRSEC21": "070612005",
    "SECNUM21": "005",
    "SSNUM21": "01",
    "SECSSNUM21": "00501",
    "OBJECTID_1": 61752,
    "DT": "07",
    "CC": "06",
    "fr": "12",
    "SEC": "005",
    "SS": "01"
  },
  "addresses": [
    {
      "id": "pt.ine.add.PTCONT.1369447",
      "street": "PCT DE DIU",
      "house": "3",
      "postcode": "7050-136",
      "city": "MONTEMOR-O-NOVO",
      "lon": "-8.212658767309797",
      "lat": "38.64766693255595"
    },
    {
      "id": "pt.ine.add.PTCONT.1369448",
      "street": "PCT DE DIU",
      "house": "3",
      "postcode": "7050-136",
      "city": "MONTEMOR-O-NOVO",
      "lon": "-8.212658767309797",
      "lat": "38.64766693255595"
    },
    {
      "id": "pt.ine.add.PTCONT.1378559",
      "street": "CARREIRA DE S FRANCISCO",
      "house": "11",
      "postcode": "7050-160",
      "city": "MONTEMOR-O-NOVO",
      "lon": "-8.212082933669125",
      "lat": "38.64753454943311"
    },
    {
      "id": "pt.ine.add.PTCONT.1378562",
      "street": "CARREIRA DE S FRANCISCO",
      "house": "11",
      "postcode": "7050-160",
      "city": "MONTEMOR-O-NOVO",
      "lon": "-8.212082933669125",
      "lat": "38.64753454943311"
    },
    {
      "id": "pt.ine.add.PTCONT.1378563",
      "street": "R DAMAO",
      "house": "6",
      "postcode": "7050-196",
      "city": "MONTEMOR-O-NOVO",
      "lon": "-8.212082933669125",
      "lat": "38.64753454943311"
    },
    {
      "id": "pt.ine.add.PTCONT.1378564",
      "street": "TV HEROIS DADRA",
      "house": "21",
      "postcode": "7050-294",
      "city": "MONTEMOR-O-NOVO",
      "lon": "-8.212082933669125",
      "lat": "38.64753454943311"
    },
    {
      "id": "pt.ine.add.PTCONT.1397330",
      "street": "R DAMAO",
      "house": "4",
      "postcode": "7050-196",
      "city": "MONTEMOR-O-NOVO",
      "lon": "-8.21247401968596",
      "lat": "38.64770449200994"
    },
    {
      "id": "pt.ine.add.PTCONT.1397331",
      "street": "R DAMAO",
      "house": "2",
      "postcode": "7050-196",
      "city": "MONTEMOR-O-NOVO",
      "lon": "-8.21247401968596",
      "lat": "38.64770449200994"
    },
    {
      "id": "pt.ine.add.PTCONT.1409044",
      "street": "R DE GOA",
      "house": "2",
      "postcode": "7050-197",
      "city": "MONTEMOR-O-NOVO",
      "lon": "-8.21298345042882",
      "lat": "38.64725299452389"
    },
    {
      "id": "pt.ine.add.PTCONT.1409699",
      "street": "R DE GOA",
      "house": "2",
      "postcode": "7050-197",
      "city": "MONTEMOR-O-NOVO",
      "lon": "-8.21298345042882",
      "lat": "38.64725299452389"
    },
    {
      "id": "pt.ine.add.PTCONT.1420293",
      "street": "R DE GOA",
      "house": "4",
      "postcode": "7050-197",
      "city": "MONTEMOR-O-NOVO",
      "lon": "-8.212961288485197",
      "lat": "38.647316067726365"
    },
    {
      "id": "pt.ine.add.PTCONT.1420296",
      "street": "R DE GOA",
      "house": "4",
      "postcode": "7050-197",
      "city": "MONTEMOR-O-NOVO",
      "lon": "-8.212961288485197",
      "lat": "38.647316067726365"
    },
    {
      "id": "pt.ine.add.PTCONT.1426568",
      "street": "PCT DE DIU",
      "house": "1",
      "postcode": "7050-136",
      "city": "MONTEMOR-O-NOVO",
      "lon": "-8.212752677995633",
      "lat": "38.64769327017195"
    },
    {
      "id": "pt.ine.add.PTCONT.1436575",
      "street": "R DE DAMÃO",
      "house": "4",
      "postcode": "7050-196",
      "city": "MONTEMOR-O-NOVO",
      "lon": "-8.212315659442723",
      "lat": "38.64767059932716"
    },
    {
      "id": "pt.ine.add.PTCONT.1436576",
      "street": "R DE DAMÃO",
      "house": "4",
      "postcode": "7050-196",
      "city": "MONTEMOR-O-NOVO",
      "lon": "-8.212315659442723",
      "lat": "38.64767059932716"
    },
    {
      "id": "pt.ine.add.PTCONT.1436577",
      "street": "R DE DAMÃO",
      "house": "4",
      "postcode": "7050-196",
      "city": "MONTEMOR-O-NOVO",
      "lon": "-8.212315659442723",
      "lat": "38.64767059932716"
    },
    {
      "id": "pt.ine.add.PTCONT.1436955",
      "street": "R DE DAMÃO",
      "house": "4",
      "postcode": "7050-196",
      "city": "MONTEMOR-O-NOVO",
      "lon": "-8.212315659442723",
      "lat": "38.64767059932716"
    },
    {
      "id": "pt.ine.add.PTCONT.1450325",
      "street": "R GOA",
      "house": "6",
      "postcode": "7050-197",
      "city": "MONTEMOR-O-NOVO",
      "lon": "-8.212916849843348",
      "lat": "38.64743828117297"
    },
    {
      "id": "pt.ine.add.PTCONT.1450326",
      "street": "R DAMAO",
      "house": "6",
      "postcode": "7050-196",
      "city": "MONTEMOR-O-NOVO",
      "lon": "-8.212180316006801",
      "lat": "38.64763045803505"
    },
    {
      "id": "pt.ine.add.PTCONT.1450327",
      "street": "TV HEROIS DADRA",
      "house": "19",
      "postcode": "7050-294",
      "city": "MONTEMOR-O-NOVO",
      "lon": "-8.212180316006801",
      "lat": "38.64763045803505"
    },
    {
      "id": "pt.ine.add.PTCONT.1450536",
      "street": "R GOA",
      "house": "",
      "postcode": "7050-197",
      "city": "MONTEMOR-O-NOVO",
      "lon": "-8.212916849843348",
      "lat": "38.64743828117297"
    },
    {
      "id": "pt.ine.add.PTCONT.1461584",
      "street": "R GOA",
      "house": "10",
      "postcode": "7050-197",
      "city": "MONTEMOR-O-NOVO",
      "lon": "-8.21285470012318",
      "lat": "38.64756343346991"
    },
    {
      "id": "pt.ine.add.PTCONT.1461585",
      "street": "R GOA",
      "house": "12",
      "postcode": "7050-197",
      "city": "MONTEMOR-O-NOVO",
      "lon": "-8.21285470012318",
      "lat": "38.64756343346991"
    },
    {
      "id": "pt.ine.add.PTCONT.1462015",
      "street": "R GOA",
      "house": "12",
      "postcode": "7050-197",
      "city": "MONTEMOR-O-NOVO",
      "lon": "-8.21285470012318",
      "lat": "38.64756343346991"
    }
  ]
}