{
  "data": {
    "distrito": "Évora",
    "concelho": "Montemor-O-Novo",
    "freguesia": "União das freguesias de Nossa Senhora da Vila, Nossa Senhora do Bispo e Silveiras",
    "OBJECTID": 196,
    "BGRI2021": "07061200515",
    "DT21": "07",
    "DTMN21": "0706",
    "DTMNFR21": "070612",
    "DTMNFRSEC21": "070612005",
    "SECNUM21": "005",
    "SSNUM21": "15",
    "SECSSNUM21": "00515",
    "OBJECTID_1": 61808,
    "DT": "07",
    "CC": "06",
    "fr": "12",
    "SEC": "005",
    "SS": "15"
  },
  "addresses": [
    {
      "id": "pt.ine.add.PTCONT.1374882",
      "street": "R MANUEL FRAGOSO",
      "house": "17",
      "postcode": "7050-342",
      "city": "MONTEMOR-O-NOVO",
      "lon": "-8.206987144494251",
      "lat": "38.65256298851047"
    },
    {
      "id": "pt.ine.add.PTCONT.1379279",
      "street": "R TOME ADELINO VIDIGAL",
      "house": "9 BL 4",
      "postcode": "7050-342",
      "city": "MONTEMOR-O-NOVO",
      "lon": "-8.206831656232813",
      "lat": "38.651783796648"
    },
    {
      "id": "pt.ine.add.PTCONT.1379280",
      "street": "R TOME ADELINO VIDIGAL",
      "house": "",
      "postcode": "7050-342",
      "city": "MONTEMOR-O-NOVO",
      "lon": "-8.206831656232813",
      "lat": "38.651783796648"
    },
    {
      "id": "pt.ine.add.PTCONT.1379281",
      "street": "R TOME ADELINO VIDIGAL",
      "house": "9",
      "postcode": "7050-342",
      "city": "MONTEMOR-O-NOVO",
      "lon": "-8.206831656232813",
      "lat": "38.651783796648"
    },
    {
      "id": "pt.ine.add.PTCONT.1379282",
      "street": "R TOME ADELINO VIDIGAL",
      "house": "",
      "postcode": "7050-342",
      "city": "MONTEMOR-O-NOVO",
      "lon": "-8.206831656232813",
      "lat": "38.651783796648"
    },
    {
      "id": "pt.ine.add.PTCONT.1379632",
      "street": "R TOME ADELINO VIDIGAL",
      "house": "9",
      "postcode": "7050-342",
      "city": "MONTEMOR-O-NOVO",
      "lon": "-8.206831656232813",
      "lat": "38.651783796648"
    },
    {
      "id": "pt.ine.add.PTCONT.1380089",
      "street": "R TOME ADELINO VIDIGAL",
      "house": "20",
      "postcode": "7050-342",
      "city": "MONTEMOR-O-NOVO",
      "lon": "-8.207011260264471",
      "lat": "38.6522470057563"
    },
    {
      "id": "pt.ine.add.PTCONT.1389698",
      "street": "R TOME ADELINO VIDIGAL",
      "house": "9",
      "postcode": "7050-342",
      "city": "MONTEMOR-O-NOVO",
      "lon": "-8.206649701282517",
      "lat": "38.651861649110174"
    },
    {
      "id": "pt.ine.add.PTCONT.1389699",
      "street": "R TOME ADELINO VIDIGAL",
      "house": "",
      "postcode": "7050-342",
      "city": "MONTEMOR-O-NOVO",
      "lon": "-8.206649701282517",
      "lat": "38.651861649110174"
    },
    {
      "id": "pt.ine.add.PTCONT.1389700",
      "street": "R TOME ADELINO VIDIGAL",
      "house": "9 BLOCO3",
      "postcode": "7050-342",
      "city": "MONTEMOR-O-NOVO",
      "lon": "-8.206649701282517",
      "lat": "38.651861649110174"
    },
    {
      "id": "pt.ine.add.PTCONT.1389983",
      "street": "R TOME ADELINO VIDIGAL",
      "house": "9",
      "postcode": "7050-342",
      "city": "MONTEMOR-O-NOVO",
      "lon": "-8.206649701282517",
      "lat": "38.651861649110174"
    },
    {
      "id": "pt.ine.add.PTCONT.1391113",
      "street": "R TOME ADELINO VIDIGAL",
      "house": "13",
      "postcode": "7050-342",
      "city": "MONTEMOR-O-NOVO",
      "lon": "-8.207374206733462",
      "lat": "38.6523802373037"
    },
    {
      "id": "pt.ine.add.PTCONT.1391114",
      "street": "R TOME ADELINO VIDIGAL",
      "house": "13",
      "postcode": "7050-342",
      "city": "MONTEMOR-O-NOVO",
      "lon": "-8.207374206733462",
      "lat": "38.6523802373037"
    },
    {
      "id": "pt.ine.add.PTCONT.1419828",
      "street": "R TOME ADELINO VIDIGAL",
      "house": "9",
      "postcode": "7050-342",
      "city": "MONTEMOR-O-NOVO",
      "lon": "-8.20666731997505",
      "lat": "38.65203459898802"
    },
    {
      "id": "pt.ine.add.PTCONT.1419829",
      "street": "R TOME ADELINO VIDIGAL",
      "house": "9",
      "postcode": "7050-342",
      "city": "MONTEMOR-O-NOVO",
      "lon": "-8.20666731997505",
      "lat": "38.65203459898802"
    },
    {
      "id": "pt.ine.add.PTCONT.1419830",
      "street": "R TOME ADELINO VIDIGAL",
      "house": "9",
      "postcode": "7050-342",
      "city": "MONTEMOR-O-NOVO",
      "lon": "-8.20666731997505",
      "lat": "38.65203459898802"
    },
    {
      "id": "pt.ine.add.PTCONT.1419858",
      "street": "R TOME ADELINO VIDIGAL",
      "house": "9",
      "postcode": "7050-342",
      "city": "MONTEMOR-O-NOVO",
      "lon": "-8.20666731997505",
      "lat": "38.65203459898802"
    },
    {
      "id": "pt.ine.add.PTCONT.1419859",
      "street": "R TOME ADELINO VIDIGAL",
      "house": "9",
      "postcode": "7050-342",
      "city": "MONTEMOR-O-NOVO",
      "lon": "-8.20666731997505",
      "lat": "38.65203459898802"
    },
    {
      "id": "pt.ine.add.PTCONT.1420161",
      "street": "R TOME ADELINO VIDIGAL",
      "house": "9",
      "postcode": "7050-342",
      "city": "MONTEMOR-O-NOVO",
      "lon": "-8.20666731997505",
      "lat": "38.65203459898802"
    },
    {
      "id": "pt.ine.add.PTCONT.1426982",
      "street": "R MANUEL FRAGOSO",
      "house": "9",
      "postcode": "7050-342",
      "city": "MONTEMOR-O-NOVO",
      "lon": "-8.206758880209554",
      "lat": "38.65223248501618"
    },
    {
      "id": "pt.ine.add.PTCONT.1426983",
      "street": "R MANUEL FRAGOSO",
      "house": "9",
      "postcode": "7050-342",
      "city": "MONTEMOR-O-NOVO",
      "lon": "-8.206758880209554",
      "lat": "38.65223248501618"
    },
    {
      "id": "pt.ine.add.PTCONT.1426984",
      "street": "R MANUEL FRAGOSO",
      "house": "9",
      "postcode": "7050-342",
      "city": "MONTEMOR-O-NOVO",
      "lon": "-8.206758880209554",
      "lat": "38.65223248501618"
    },
    {
      "id": "pt.ine.add.PTCONT.1426985",
      "street": "R MANUEL FRAGOSO",
      "house": "9",
      "postcode": "7050-342",
      "city": "MONTEMOR-O-NOVO",
      "lon": "-8.206758880209554",
      "lat": "38.65223248501618"
    },
    {
      "id": "pt.ine.add.PTCONT.1426986",
      "street": "R MANUEL FRAGOSO",
      "house": "9",
      "postcode": "7050-342",
      "city": "MONTEMOR-O-NOVO",
      "lon": "-8.206758880209554",
      "lat": "38.65223248501618"
    },
    {
      "id": "pt.ine.add.PTCONT.1426987",
      "street": "R MANUEL FRAGOSO",
      "house": "9",
      "postcode": "7050-342",
      "city": "MONTEMOR-O-NOVO",
      "lon": "-8.206758880209554",
      "lat": "38.65223248501618"
    },
    {
      "id": "pt.ine.add.PTCONT.1427998",
      "street": "R IMPRENSA LOCAL",
      "house": "2",
      "postcode": "7050-138",
      "city": "MONTEMOR-O-NOVO",
      "lon": "-8.20732419106015",
      "lat": "38.652504955468245"
    },
    {
      "id": "pt.ine.add.PTCONT.1427999",
      "street": "R IMPRENSA LOCAL",
      "house": "4",
      "postcode": "7050-138",
      "city": "MONTEMOR-O-NOVO",
      "lon": "-8.20732419106015",
      "lat": "38.652504955468245"
    },
    {
      "id": "pt.ine.add.PTCONT.1437993",
      "street": "R TOME ADELINO VIDIGAL",
      "house": "19",
      "postcode": "7050-342",
      "city": "MONTEMOR-O-NOVO",
      "lon": "-8.207148558395122",
      "lat": "38.652297729290176"
    },
    {
      "id": "pt.ine.add.PTCONT.1460866",
      "street": "R MANUEL FRAGOSO",
      "house": "16",
      "postcode": "7050-342",
      "city": "MONTEMOR-O-NOVO",
      "lon": "-8.207198198214275",
      "lat": "38.652634408765486"
    },
    {
      "id": "pt.ine.add.PTCONT.1460867",
      "street": "R MANUEL FRAGOSO",
      "house": "16",
      "postcode": "7050-342",
      "city": "MONTEMOR-O-NOVO",
      "lon": "-8.207198198214275",
      "lat": "38.652634408765486"
    },
    {
      "id": "pt.ine.add.PTCONT.1466551",
      "street": "R TOME ADELINO VIDIGAL",
      "house": "9 BL 3",
      "postcode": "7050-342",
      "city": "MONTEMOR-O-NOVO",
      "lon": "-8.206649701282517",
      "lat": "38.651861649110174"
    }
  ]
}