{
  "data": {
    "distrito": "Faro",
    "concelho": "Loulé",
    "freguesia": "Loulé (São Clemente)",
    "OBJECTID": 323,
    "BGRI2021": "08080801802",
    "DT21": "08",
    "DTMN21": "0808",
    "DTMNFR21": "080808",
    "DTMNFRSEC21": "080808018",
    "SECNUM21": "018",
    "SSNUM21": "02",
    "SECSSNUM21": "01802",
    "OBJECTID_1": 68179,
    "DT": "08",
    "CC": "08",
    "fr": "08",
    "SEC": "018",
    "SS": "02"
  },
  "addresses": [
    {
      "id": "pt.ine.add.PTCONT.1479768",
      "street": "SITIO DOS QUARTOS",
      "house": "64 A",
      "postcode": "8100-256",
      "city": "LOULÉ",
      "lon": "-8.032845802498956",
      "lat": "37.10713410349903"
    },
    {
      "id": "pt.ine.add.PTCONT.1490147",
      "street": "CASA TRANQUILIDADE",
      "house": "",
      "postcode": "8100-256",
      "city": "LOULÉ",
      "lon": "-8.031505082761248",
      "lat": "37.10858367784709"
    },
    {
      "id": "pt.ine.add.PTCONT.1529499",
      "street": "CASA TRES TOUROS",
      "house": "",
      "postcode": "8100-256",
      "city": "LOULÉ",
      "lon": "-8.032258160173036",
      "lat": "37.10911594936856"
    },
    {
      "id": "pt.ine.add.PTCONT.1553103",
      "street": "SIT DOS QUARTOS CASA SRESRA ELIAS",
      "house": "68A",
      "postcode": "8100-256",
      "city": "LOULÉ",
      "lon": "-8.033565041395887",
      "lat": "37.107729412823694"
    },
    {
      "id": "pt.ine.add.PTCONT.1562525",
      "street": "VILLA DO CAMPO",
      "house": "",
      "postcode": "8100-256",
      "city": "LOULÉ",
      "lon": "-8.032245595177638",
      "lat": "37.110107110540106"
    },
    {
      "id": "pt.ine.add.PTCONT.1572151",
      "street": "QTA SOLAR",
      "house": "",
      "postcode": "8100-256",
      "city": "LOULÉ",
      "lon": "-8.033754555485565",
      "lat": "37.10906314874461"
    },
    {
      "id": "pt.ine.add.PTCONT.1598701",
      "street": "SITIO DOS QUARTOS",
      "house": "2",
      "postcode": "8100-256",
      "city": "LOULÉ",
      "lon": "-8.032481907730142",
      "lat": "37.11007126871455"
    },
    {
      "id": "pt.ine.add.PTCONT.1609927",
      "street": "SITIO DOS QUARTOS",
      "house": "74A",
      "postcode": "8100-256",
      "city": "LOULÉ",
      "lon": "-8.03356400364812",
      "lat": "37.10852234964776"
    },
    {
      "id": "pt.ine.add.PTCONT.1627724",
      "street": "CASA DA COLINA",
      "house": "",
      "postcode": "8100-256",
      "city": "LOULÉ",
      "lon": "-8.032020509163765",
      "lat": "37.1101609827709"
    },
    {
      "id": "pt.ine.add.PTCONT.1655545",
      "street": "",
      "house": "",
      "postcode": "8100-256",
      "city": "LOULÉ",
      "lon": "-8.03163967983918",
      "lat": "37.10889015535985"
    },
    {
      "id": "pt.ine.add.PTCONT.1667952",
      "street": "",
      "house": "",
      "postcode": "8100-256",
      "city": "LOULÉ",
      "lon": "-8.031786680912912",
      "lat": "37.1083316204707"
    },
    {
      "id": "pt.ine.add.PTCONT.1688054",
      "street": "",
      "house": "",
      "postcode": "8100-256",
      "city": "LOULÉ",
      "lon": "-8.032156677885606",
      "lat": "37.10928706543422"
    },
    {
      "id": "pt.ine.add.PTCONT.1688055",
      "street": "CASA DAS FARROBEIRAS",
      "house": "",
      "postcode": "8100-256",
      "city": "LOULÉ",
      "lon": "-8.032033915302458",
      "lat": "37.108539076542954"
    },
    {
      "id": "pt.ine.add.PTCONT.1702447",
      "street": "",
      "house": "",
      "postcode": "8100-256",
      "city": "LOULÉ",
      "lon": "-8.032732075053124",
      "lat": "37.10806210488629"
    },
    {
      "id": "pt.ine.add.PTCONT.1707909",
      "street": "VILLA DOS QUARTOS",
      "house": "",
      "postcode": "8100-256",
      "city": "LOULÉ",
      "lon": "-8.032564295669195",
      "lat": "37.107323088927195"
    },
    {
      "id": "pt.ine.add.PTCONT.1728020",
      "street": "",
      "house": "",
      "postcode": "8100-256",
      "city": "LOULÉ",
      "lon": "-8.032640976817559",
      "lat": "37.108891007995744"
    },
    {
      "id": "pt.ine.add.PTCONT.1736452",
      "street": "SITIO DOS QUARTOS",
      "house": "66 A",
      "postcode": "8100-256",
      "city": "LOULÉ",
      "lon": "-8.032991901806932",
      "lat": "37.10725136548687"
    },
    {
      "id": "pt.ine.add.PTCONT.1751751",
      "street": "CASA RAMSAR",
      "house": "",
      "postcode": "8100-256",
      "city": "LOULÉ",
      "lon": "-8.03197814214945",
      "lat": "37.10817860278125"
    },
    {
      "id": "pt.ine.add.PTCONT.1760986",
      "street": "",
      "house": "",
      "postcode": "8100-256",
      "city": "LOULÉ",
      "lon": "-8.03202159899268",
      "lat": "37.10934101427373"
    },
    {
      "id": "pt.ine.add.PTCONT.1763858",
      "street": "",
      "house": "",
      "postcode": "8100-256",
      "city": "LOULÉ",
      "lon": "-8.032327263423223",
      "lat": "37.1079085803607"
    },
    {
      "id": "pt.ine.add.PTCONT.1834412",
      "street": "CASA UM SONHO",
      "house": "",
      "postcode": "8100-256",
      "city": "LOULÉ",
      "lon": "-8.032359128764002",
      "lat": "37.1093322908961"
    },
    {
      "id": "pt.ine.add.PTCONT.1834413",
      "street": "CASA AVALON",
      "house": "",
      "postcode": "8100-256",
      "city": "LOULÉ",
      "lon": "-8.032979536528082",
      "lat": "37.10809835673523"
    },
    {
      "id": "pt.ine.add.PTCONT.1842094",
      "street": "CASA TAMARY",
      "house": "",
      "postcode": "8100-256",
      "city": "LOULÉ",
      "lon": "-8.032729530219981",
      "lat": "37.10999038272945"
    },
    {
      "id": "pt.ine.add.PTCONT.1847236",
      "street": "",
      "house": "",
      "postcode": "8100-256",
      "city": "LOULÉ",
      "lon": "-8.031683696650987",
      "lat": "37.10962906662745"
    }
  ]
}