{
  "data": {
    "distrito": "Santarém",
    "concelho": "Mação",
    "freguesia": "União das freguesias de Mação, Penhascoso e Aboboreira",
    "OBJECTID": 181,
    "BGRI2021": "14130900310",
    "DT21": "14",
    "DTMN21": "1413",
    "DTMNFR21": "141309",
    "DTMNFRSEC21": "141309003",
    "SECNUM21": "003",
    "SSNUM21": "10",
    "SECSSNUM21": "00310",
    "OBJECTID_1": 151995,
    "DT": "14",
    "CC": "13",
    "fr": "09",
    "SEC": "003",
    "SS": "10"
  },
  "addresses": [
    {
      "id": "pt.ine.add.PTCONT.4392597",
      "street": "R S JOÃO",
      "house": "123",
      "postcode": "6120-773",
      "city": "MAÇÃO",
      "lon": "-8.016701717754326",
      "lat": "39.587265154681184"
    },
    {
      "id": "pt.ine.add.PTCONT.4396864",
      "street": "R S JOÃO",
      "house": "12",
      "postcode": "6120-773",
      "city": "MAÇÃO",
      "lon": "-8.015795281949423",
      "lat": "39.5863545524124"
    },
    {
      "id": "pt.ine.add.PTCONT.4398966",
      "street": "R BREJO",
      "house": "154",
      "postcode": "6120-773",
      "city": "MAÇÃO",
      "lon": "-8.017958042112575",
      "lat": "39.587788803006475"
    },
    {
      "id": "pt.ine.add.PTCONT.4437673",
      "street": "R BARROQUEIRA",
      "house": "57",
      "postcode": "6120-773",
      "city": "MAÇÃO",
      "lon": "-8.016714563936874",
      "lat": "39.586544620463094"
    },
    {
      "id": "pt.ine.add.PTCONT.4448314",
      "street": "R S JOÃO",
      "house": "116",
      "postcode": "6120-773",
      "city": "MAÇÃO",
      "lon": "-8.015456870100294",
      "lat": "39.58684958641906"
    },
    {
      "id": "pt.ine.add.PTCONT.4467332",
      "street": "R PRINCIPAL",
      "house": "466",
      "postcode": "6120-773",
      "city": "MAÇÃO",
      "lon": "-8.016552185188988",
      "lat": "39.58619319096781"
    },
    {
      "id": "pt.ine.add.PTCONT.4477459",
      "street": "TV S JOÃO",
      "house": "39",
      "postcode": "6120-773",
      "city": "MAÇÃO",
      "lon": "-8.01522437922656",
      "lat": "39.58666020718417"
    },
    {
      "id": "pt.ine.add.PTCONT.4481383",
      "street": "R BREJO",
      "house": "12",
      "postcode": "6120-773",
      "city": "MAÇÃO",
      "lon": "-8.018030046854623",
      "lat": "39.58648288278401"
    },
    {
      "id": "pt.ine.add.PTCONT.4494495",
      "street": "R REVOLTA",
      "house": "125",
      "postcode": "6120-773",
      "city": "MAÇÃO",
      "lon": "-8.015619244835213",
      "lat": "39.587201017399146"
    },
    {
      "id": "pt.ine.add.PTCONT.4496499",
      "street": "R S JOÃO",
      "house": "120",
      "postcode": "6120-773",
      "city": "MAÇÃO",
      "lon": "-8.016107787658322",
      "lat": "39.58741767443372"
    },
    {
      "id": "pt.ine.add.PTCONT.4499608",
      "street": "R PRINCIPAL",
      "house": "542",
      "postcode": "6120-773",
      "city": "MAÇÃO",
      "lon": "-8.017401729037225",
      "lat": "39.58632013574033"
    },
    {
      "id": "pt.ine.add.PTCONT.4499610",
      "street": "TV S JOÃO",
      "house": "26",
      "postcode": "6120-773",
      "city": "MAÇÃO",
      "lon": "-8.015492202947048",
      "lat": "39.58660643754002"
    },
    {
      "id": "pt.ine.add.PTCONT.4518973",
      "street": "R PRINCIPAL",
      "house": "336",
      "postcode": "6120-773",
      "city": "MAÇÃO",
      "lon": "-8.015061961894599",
      "lat": "39.58633579609594"
    },
    {
      "id": "pt.ine.add.PTCONT.4532590",
      "street": "R PRINCIPAL",
      "house": "405",
      "postcode": "6120-773",
      "city": "MAÇÃO",
      "lon": "-8.01702932381233",
      "lat": "39.58626572329268"
    },
    {
      "id": "pt.ine.add.PTCONT.4540575",
      "street": "R PRINCIPAL",
      "house": "442",
      "postcode": "6120-773",
      "city": "MAÇÃO",
      "lon": "-8.016354252030787",
      "lat": "39.58622001278403"
    },
    {
      "id": "pt.ine.add.PTCONT.4601751",
      "street": "R BREJO",
      "house": "108",
      "postcode": "6120-773",
      "city": "MAÇÃO",
      "lon": "-8.01822649278428",
      "lat": "39.58735674051088"
    },
    {
      "id": "pt.ine.add.PTCONT.4605792",
      "street": "R REVOLTA",
      "house": "91",
      "postcode": "6120-773",
      "city": "MAÇÃO",
      "lon": "-8.015421826500967",
      "lat": "39.58692160564152"
    },
    {
      "id": "pt.ine.add.PTCONT.4610051",
      "street": "TV S JOÃO",
      "house": "29",
      "postcode": "6120-773",
      "city": "MAÇÃO",
      "lon": "-8.015352486117429",
      "lat": "39.58662430971802"
    },
    {
      "id": "pt.ine.add.PTCONT.4659804",
      "street": "TV REVOLTA",
      "house": "34",
      "postcode": "6120-773",
      "city": "MAÇÃO",
      "lon": "-8.015782244005477",
      "lat": "39.58718316841251"
    }
  ]
}