{
  "data": {
    "distrito": "Faro",
    "concelho": "Alcoutim",
    "freguesia": "Uni√£o das freguesias de Alcoutim e Pereiro",
    "OBJECTID": 132,
    "BGRI2021": "08020600204",
    "DT21": "08",
    "DTMN21": "0802",
    "DTMNFR21": "080206",
    "DTMNFRSEC21": "080206002",
    "SECNUM21": "002",
    "SSNUM21": "04",
    "SECSSNUM21": "00204",
    "OBJECTID_1": 65106,
    "DT": "08",
    "CC": "02",
    "fr": "06",
    "SEC": "002",
    "SS": "04"
  },
  "addresses": [
    {
      "id": "pt.ine.add.PTCONT.1487235",
      "street": "SEM NOME",
      "house": "",
      "postcode": "8970-019",
      "city": "ALCOUTIM",
      "lon": "-7.466656543993022",
      "lat": "37.38743357013856"
    },
    {
      "id": "pt.ine.add.PTCONT.1523428",
      "street": "SEM NOME",
      "house": "",
      "postcode": "8970-019",
      "city": "ALCOUTIM",
      "lon": "-7.467172834376122",
      "lat": "37.387787871560256"
    },
    {
      "id": "pt.ine.add.PTCONT.1528818",
      "street": "R CORTE DAS DONAS",
      "house": "",
      "postcode": "8970-019",
      "city": "ALCOUTIM",
      "lon": "-7.467234550079315",
      "lat": "37.38719355435985"
    },
    {
      "id": "pt.ine.add.PTCONT.1531544",
      "street": "SEM NOME",
      "house": "",
      "postcode": "8970-019",
      "city": "ALCOUTIM",
      "lon": "-7.466825912999989",
      "lat": "37.38743452456268"
    },
    {
      "id": "pt.ine.add.PTCONT.1542586",
      "street": "SEM NOME",
      "house": "",
      "postcode": "8970-019",
      "city": "ALCOUTIM",
      "lon": "-7.4674203671722355",
      "lat": "37.387888376078095"
    },
    {
      "id": "pt.ine.add.PTCONT.1545175",
      "street": "SEM NOME",
      "house": "",
      "postcode": "8970-019",
      "city": "ALCOUTIM",
      "lon": "-7.467161941517317",
      "lat": "37.387742759859364"
    },
    {
      "id": "pt.ine.add.PTCONT.1560906",
      "street": "SEM NOME",
      "house": "",
      "postcode": "8970-019",
      "city": "ALCOUTIM",
      "lon": "-7.467383704832575",
      "lat": "37.38820352216977"
    },
    {
      "id": "pt.ine.add.PTCONT.1575333",
      "street": "R SEM NOME",
      "house": "",
      "postcode": "8970-019",
      "city": "ALCOUTIM",
      "lon": "-7.467438568537578",
      "lat": "37.388384032441614"
    },
    {
      "id": "pt.ine.add.PTCONT.1583269",
      "street": "R CORTE DAS DONAS",
      "house": "",
      "postcode": "8970-019",
      "city": "ALCOUTIM",
      "lon": "-7.467099214692055",
      "lat": "37.38717477206567"
    },
    {
      "id": "pt.ine.add.PTCONT.1596816",
      "street": "SEM NOME",
      "house": "",
      "postcode": "8970-019",
      "city": "ALCOUTIM",
      "lon": "-7.467371138747664",
      "lat": "37.38834761255576"
    },
    {
      "id": "pt.ine.add.PTCONT.1601737",
      "street": "R CORTE DAS DONAS",
      "house": "",
      "postcode": "8970-019",
      "city": "ALCOUTIM",
      "lon": "-7.467345311337802",
      "lat": "37.38743744995086"
    },
    {
      "id": "pt.ine.add.PTCONT.1615092",
      "street": "SEM NOME",
      "house": "",
      "postcode": "8970-019",
      "city": "ALCOUTIM",
      "lon": "-7.467052216582517",
      "lat": "37.38738173901348"
    },
    {
      "id": "pt.ine.add.PTCONT.1618586",
      "street": "SEM NOME",
      "house": "",
      "postcode": "8970-019",
      "city": "ALCOUTIM",
      "lon": "-7.467038454424894",
      "lat": "37.387660973718255"
    },
    {
      "id": "pt.ine.add.PTCONT.1620687",
      "street": "SEM NOME",
      "house": "",
      "postcode": "8970-019",
      "city": "ALCOUTIM",
      "lon": "-7.467162658747339",
      "lat": "37.3876616732555"
    },
    {
      "id": "pt.ine.add.PTCONT.1676398",
      "street": "SEM NOME",
      "house": "",
      "postcode": "8970-019",
      "city": "ALCOUTIM",
      "lon": "-7.467375679828278",
      "lat": "37.38783406407634"
    },
    {
      "id": "pt.ine.add.PTCONT.1678727",
      "street": "SEM NOME",
      "house": "",
      "postcode": "8970-019",
      "city": "ALCOUTIM",
      "lon": "-7.467039251492376",
      "lat": "37.38757087749269"
    },
    {
      "id": "pt.ine.add.PTCONT.1692654",
      "street": "SEM NOME",
      "house": "",
      "postcode": "8970-019",
      "city": "ALCOUTIM",
      "lon": "-7.466982316770547",
      "lat": "37.38762461721404"
    },
    {
      "id": "pt.ine.add.PTCONT.1692655",
      "street": "R CORTE DAS DONAS",
      "house": "",
      "postcode": "8970-019",
      "city": "ALCOUTIM",
      "lon": "-7.46708720616511",
      "lat": "37.38725579508073"
    },
    {
      "id": "pt.ine.add.PTCONT.1701495",
      "street": "SEM NOME",
      "house": "",
      "postcode": "8970-019",
      "city": "ALCOUTIM",
      "lon": "-7.467239944837894",
      "lat": "37.387860330047175"
    },
    {
      "id": "pt.ine.add.PTCONT.1733644",
      "street": "SEM NOME CASA DA FERNANDA",
      "house": "",
      "postcode": "8970-019",
      "city": "ALCOUTIM",
      "lon": "-7.466947645704229",
      "lat": "37.38771452261568"
    },
    {
      "id": "pt.ine.add.PTCONT.1733645",
      "street": "SEM NOME",
      "house": "",
      "postcode": "8970-019",
      "city": "ALCOUTIM",
      "lon": "-7.467220788642649",
      "lat": "37.38747278910157"
    },
    {
      "id": "pt.ine.add.PTCONT.1741792",
      "street": "SEM NOME",
      "house": "",
      "postcode": "8970-019",
      "city": "ALCOUTIM",
      "lon": "-7.467206389590922",
      "lat": "37.38782410080842"
    },
    {
      "id": "pt.ine.add.PTCONT.1769297",
      "street": "R CORTE DAS DONAS",
      "house": "",
      "postcode": "8970-019",
      "city": "ALCOUTIM",
      "lon": "-7.4674806472619295",
      "lat": "37.38745623196772"
    },
    {
      "id": "pt.ine.add.PTCONT.1778323",
      "street": "SEM NOME",
      "house": "",
      "postcode": "8970-019",
      "city": "ALCOUTIM",
      "lon": "-7.4674072435717544",
      "lat": "37.38809553383468"
    },
    {
      "id": "pt.ine.add.PTCONT.1778324",
      "street": "SEM NOME FAMILIA RUIVO",
      "house": "",
      "postcode": "8970-019",
      "city": "ALCOUTIM",
      "lon": "-7.467297038911296",
      "lat": "37.387788570958364"
    },
    {
      "id": "pt.ine.add.PTCONT.1793043",
      "street": "SEM NOME",
      "house": "",
      "postcode": "8970-019",
      "city": "ALCOUTIM",
      "lon": "-7.46724114008473",
      "lat": "37.387725185707296"
    },
    {
      "id": "pt.ine.add.PTCONT.1798357",
      "street": "SEM NOME",
      "house": "",
      "postcode": "8970-019",
      "city": "ALCOUTIM",
      "lon": "-7.467117174748521",
      "lat": "37.38769745738384"
    },
    {
      "id": "pt.ine.add.PTCONT.1821220",
      "street": "SEM NOME",
      "house": "",
      "postcode": "8970-019",
      "city": "ALCOUTIM",
      "lon": "-7.467095389134949",
      "lat": "37.387607233970115"
    },
    {
      "id": "pt.ine.add.PTCONT.1833476",
      "street": "R CORTE DAS DONAS",
      "house": "",
      "postcode": "8970-019",
      "city": "ALCOUTIM",
      "lon": "-7.4672794759781",
      "lat": "37.3872208375454"
    },
    {
      "id": "pt.ine.add.PTCONT.1836245",
      "street": "SEM NOME",
      "house": "",
      "postcode": "8970-019",
      "city": "ALCOUTIM",
      "lon": "-7.467197807657855",
      "lat": "37.38751771004953"
    },
    {
      "id": "pt.ine.add.PTCONT.1838993",
      "street": "R CORTE DAS DONAS",
      "house": "",
      "postcode": "8970-019",
      "city": "ALCOUTIM",
      "lon": "-7.467111223191845",
      "lat": "37.38709374904803"
    }
  ]
}