{
  "data": {
    "distrito": "Guarda",
    "concelho": "Almeida",
    "freguesia": "União das freguesias de Miuzela e Porto de Ovelha",
    "OBJECTID": 125,
    "BGRI2021": "09023600119",
    "DT21": "09",
    "DTMN21": "0902",
    "DTMNFR21": "090236",
    "DTMNFRSEC21": "090236001",
    "SECNUM21": "001",
    "SSNUM21": "19",
    "SECSSNUM21": "00119",
    "OBJECTID_1": 75906,
    "DT": "09",
    "CC": "02",
    "fr": "36",
    "SEC": "001",
    "SS": "19"
  },
  "addresses": [
    {
      "id": "pt.ine.add.PTCONT.1905521",
      "street": "R DA RONDA",
      "house": "",
      "postcode": "6355-110",
      "city": "MIUZELA",
      "lon": "-7.006846387462962",
      "lat": "40.511059013955304"
    },
    {
      "id": "pt.ine.add.PTCONT.1906474",
      "street": "R DO QUEBRA COSTAS",
      "house": "",
      "postcode": "6355-110",
      "city": "MIUZELA",
      "lon": "-7.006525962873572",
      "lat": "40.511875356673116"
    },
    {
      "id": "pt.ine.add.PTCONT.1907965",
      "street": "R DO TAMBOR",
      "house": "",
      "postcode": "6355-110",
      "city": "MIUZELA",
      "lon": "-7.006613512641883",
      "lat": "40.51157904112858"
    },
    {
      "id": "pt.ine.add.PTCONT.1909048",
      "street": "R DR RAMIRO LADEIRO MONTEIRO",
      "house": "",
      "postcode": "6355-110",
      "city": "MIUZELA",
      "lon": "-7.00643671314721",
      "lat": "40.51156831221405"
    },
    {
      "id": "pt.ine.add.PTCONT.1920754",
      "street": "R DO TAMBOR",
      "house": "",
      "postcode": "6355-110",
      "city": "MIUZELA",
      "lon": "-7.0064922304055575",
      "lat": "40.51177597140647"
    },
    {
      "id": "pt.ine.add.PTCONT.1929532",
      "street": "R DR RAMIRO LADEIRO MONTEIRO",
      "house": "",
      "postcode": "6355-110",
      "city": "MIUZELA",
      "lon": "-7.006728270894062",
      "lat": "40.511066867719684"
    },
    {
      "id": "pt.ine.add.PTCONT.1932668",
      "street": "R DAS FORÇAS ARMADAS",
      "house": "",
      "postcode": "6355-110",
      "city": "MIUZELA",
      "lon": "-7.007053604894162",
      "lat": "40.51136720782892"
    },
    {
      "id": "pt.ine.add.PTCONT.1934779",
      "street": "R DR RAMIRO LADEIRO MONTEIRO",
      "house": "",
      "postcode": "6355-110",
      "city": "MIUZELA",
      "lon": "-7.006496751441654",
      "lat": "40.511505861740424"
    },
    {
      "id": "pt.ine.add.PTCONT.1941934",
      "street": "R DO TAMBOR",
      "house": "",
      "postcode": "6355-110",
      "city": "MIUZELA",
      "lon": "-7.006803163499321",
      "lat": "40.51152685916659"
    },
    {
      "id": "pt.ine.add.PTCONT.1954841",
      "street": "R DR RAMIRO LADEIRO MONTEIRO",
      "house": "",
      "postcode": "6355-110",
      "city": "MIUZELA",
      "lon": "-7.006712707569868",
      "lat": "40.511291844147216"
    },
    {
      "id": "pt.ine.add.PTCONT.1961757",
      "street": "R DR RAMIRO LADEIRO MONTEIRO",
      "house": "",
      "postcode": "6355-110",
      "city": "MIUZELA",
      "lon": "-7.006400569545894",
      "lat": "40.511612985406465"
    },
    {
      "id": "pt.ine.add.PTCONT.1970901",
      "street": "R DR RAMIRO LADEIRO MONTEIRO",
      "house": "",
      "postcode": "6355-110",
      "city": "MIUZELA",
      "lon": "-7.006726764221819",
      "lat": "40.51115690429052"
    },
    {
      "id": "pt.ine.add.PTCONT.1972863",
      "street": "R DR RAMIRO LADEIRO MONTEIRO",
      "house": "",
      "postcode": "6355-110",
      "city": "MIUZELA",
      "lon": "-7.006616827694439",
      "lat": "40.51138096069304"
    },
    {
      "id": "pt.ine.add.PTCONT.1974544",
      "street": "R DO TAMBOR",
      "house": "",
      "postcode": "6355-110",
      "city": "MIUZELA",
      "lon": "-7.006878764295032",
      "lat": "40.511239432049614"
    },
    {
      "id": "pt.ine.add.PTCONT.1849139",
      "street": "R DO TAMBOR",
      "house": "",
      "postcode": "6355-110",
      "city": "MIUZELA",
      "lon": "-7.00704045260714",
      "lat": "40.511448125783836"
    },
    {
      "id": "pt.ine.add.PTCONT.1850921",
      "street": "R DAS FORÇAS ARMADAS",
      "house": "",
      "postcode": "6355-110",
      "city": "MIUZELA",
      "lon": "-7.006745837473479",
      "lat": "40.51142724398548"
    },
    {
      "id": "pt.ine.add.PTCONT.1857836",
      "street": "R DR RAMIRO LADEIRO MONTEIRO",
      "house": "",
      "postcode": "6355-110",
      "city": "MIUZELA",
      "lon": "-7.006544992967369",
      "lat": "40.51144329621909"
    },
    {
      "id": "pt.ine.add.PTCONT.1863854",
      "street": "R DO FORNO",
      "house": "",
      "postcode": "6355-110",
      "city": "MIUZELA",
      "lon": "-7.0065016159012865",
      "lat": "40.511920144910746"
    },
    {
      "id": "pt.ine.add.PTCONT.1864873",
      "street": "R DA ATALAIA",
      "house": "",
      "postcode": "6355-110",
      "city": "MIUZELA",
      "lon": "-7.006714214268084",
      "lat": "40.51120180757893"
    },
    {
      "id": "pt.ine.add.PTCONT.1877634",
      "street": "TV DO RELÓGIO",
      "house": "",
      "postcode": "6355-110",
      "city": "MIUZELA",
      "lon": "-7.006610197556406",
      "lat": "40.51177712155709"
    },
    {
      "id": "pt.ine.add.PTCONT.1879855",
      "street": "R DO TAMBOR",
      "house": "",
      "postcode": "6355-110",
      "city": "MIUZELA",
      "lon": "-7.007031969763364",
      "lat": "40.511249930350566"
    },
    {
      "id": "pt.ine.add.PTCONT.1882502",
      "street": "R DO TAMBOR",
      "house": "",
      "postcode": "6355-110",
      "city": "MIUZELA",
      "lon": "-7.006671290627636",
      "lat": "40.51165164540373"
    },
    {
      "id": "pt.ine.add.PTCONT.1882564",
      "street": "R DR RAMIRO LADEIRO MONTEIRO",
      "house": "",
      "postcode": "6355-110",
      "city": "MIUZELA",
      "lon": "-7.00631663622222",
      "lat": "40.51169321306128"
    },
    {
      "id": "pt.ine.add.PTCONT.1884749",
      "street": "R DO RELÓGIO",
      "house": "",
      "postcode": "6355-110",
      "city": "MIUZELA",
      "lon": "-7.007039096959968",
      "lat": "40.51152915870098"
    },
    {
      "id": "pt.ine.add.PTCONT.1892396",
      "street": "R DO QUEBRA COSTAS",
      "house": "",
      "postcode": "6355-110",
      "city": "MIUZELA",
      "lon": "-7.0065950856879144",
      "lat": "40.51197508696809"
    }
  ]
}