{
  "data": {
    "distrito": "Guarda",
    "concelho": "Almeida",
    "freguesia": "União das freguesias de Miuzela e Porto de Ovelha",
    "OBJECTID": 59,
    "BGRI2021": "09023600121",
    "DT21": "09",
    "DTMN21": "0902",
    "DTMNFR21": "090236",
    "DTMNFRSEC21": "090236001",
    "SECNUM21": "001",
    "SSNUM21": "21",
    "SECSSNUM21": "00121",
    "OBJECTID_1": 75899,
    "DT": "09",
    "CC": "02",
    "fr": "36",
    "SEC": "001",
    "SS": "21"
  },
  "addresses": [
    {
      "id": "pt.ine.add.PTCONT.1901245",
      "street": "R DR JOSÉ PINTO PEIXOTO",
      "house": "",
      "postcode": "6355-110",
      "city": "MIUZELA",
      "lon": "-7.006156797002973",
      "lat": "40.51207887458204"
    },
    {
      "id": "pt.ine.add.PTCONT.1903970",
      "street": "QLHA DO MERCADO",
      "house": "",
      "postcode": "6355-110",
      "city": "MIUZELA",
      "lon": "-7.005747529492424",
      "lat": "40.51185875921868"
    },
    {
      "id": "pt.ine.add.PTCONT.1904307",
      "street": "R DO FORNO DE CIMA",
      "house": "",
      "postcode": "6355-110",
      "city": "MIUZELA",
      "lon": "-7.0061614701799195",
      "lat": "40.511799761307095"
    },
    {
      "id": "pt.ine.add.PTCONT.1908260",
      "street": "R DR RAMIRO LADEIRO MONTEIRO",
      "house": "",
      "postcode": "6355-110",
      "city": "MIUZELA",
      "lon": "-7.006285657048874",
      "lat": "40.51213416205047"
    },
    {
      "id": "pt.ine.add.PTCONT.1908261",
      "street": "R DO FORNO DE CIMA",
      "house": "",
      "postcode": "6355-110",
      "city": "MIUZELA",
      "lon": "-7.005959267479521",
      "lat": "40.511896845388954"
    },
    {
      "id": "pt.ine.add.PTCONT.1912994",
      "street": "R DA RONDA",
      "house": "",
      "postcode": "6355-110",
      "city": "MIUZELA",
      "lon": "-7.005698080451764",
      "lat": "40.51199335360926"
    },
    {
      "id": "pt.ine.add.PTCONT.1914941",
      "street": "R DR RAMIRO LADEIRO MONTEIRO",
      "house": "",
      "postcode": "6355-110",
      "city": "MIUZELA",
      "lon": "-7.006368686649117",
      "lat": "40.512107956358825"
    },
    {
      "id": "pt.ine.add.PTCONT.1924758",
      "street": "R DA RONDA",
      "house": "",
      "postcode": "6355-110",
      "city": "MIUZELA",
      "lon": "-7.006035060208714",
      "lat": "40.51230281529304"
    },
    {
      "id": "pt.ine.add.PTCONT.1931681",
      "street": "TV DA RONDA",
      "house": "",
      "postcode": "6355-110",
      "city": "MIUZELA",
      "lon": "-7.006340722089457",
      "lat": "40.5123688322573"
    },
    {
      "id": "pt.ine.add.PTCONT.1933718",
      "street": "R DO FORNO DE CIMA",
      "house": "",
      "postcode": "6355-110",
      "city": "MIUZELA",
      "lon": "-7.006338270228176",
      "lat": "40.51181049064995"
    },
    {
      "id": "pt.ine.add.PTCONT.1934832",
      "street": "LG DO MERCADO",
      "house": "",
      "postcode": "6355-110",
      "city": "MIUZELA",
      "lon": "-7.005240572067549",
      "lat": "40.51183580161936"
    },
    {
      "id": "pt.ine.add.PTCONT.1940152",
      "street": "R DO FORNO DE CIMA",
      "house": "",
      "postcode": "6355-110",
      "city": "MIUZELA",
      "lon": "-7.006042598432223",
      "lat": "40.51185263262099"
    },
    {
      "id": "pt.ine.add.PTCONT.1942826",
      "street": "R DA RONDA",
      "house": "",
      "postcode": "6355-110",
      "city": "MIUZELA",
      "lon": "-7.005906953970095",
      "lat": "40.5122025092811"
    },
    {
      "id": "pt.ine.add.PTCONT.1944034",
      "street": "R DO QUEBRA COSTAS",
      "house": "",
      "postcode": "6355-110",
      "city": "MIUZELA",
      "lon": "-7.006487860012468",
      "lat": "40.51203707740456"
    },
    {
      "id": "pt.ine.add.PTCONT.1945646",
      "street": "R DO TAMBOR",
      "house": "",
      "postcode": "6355-110",
      "city": "MIUZELA",
      "lon": "-7.006214424166077",
      "lat": "40.512160482732426"
    },
    {
      "id": "pt.ine.add.PTCONT.1947895",
      "street": "R DA RONDA",
      "house": "",
      "postcode": "6355-110",
      "city": "MIUZELA",
      "lon": "-7.005941590440695",
      "lat": "40.51224787278572"
    },
    {
      "id": "pt.ine.add.PTCONT.1953924",
      "street": "LG DO MERCADO",
      "house": "",
      "postcode": "6355-110",
      "city": "MIUZELA",
      "lon": "-7.005321942236794",
      "lat": "40.51190863684512"
    },
    {
      "id": "pt.ine.add.PTCONT.1954902",
      "street": "LG DE STO ANTÓNIO",
      "house": "13",
      "postcode": "6355-110",
      "city": "MIUZELA",
      "lon": "-7.005792454450861",
      "lat": "40.51199427439198"
    },
    {
      "id": "pt.ine.add.PTCONT.1962730",
      "street": "R DA RONDA",
      "house": "",
      "postcode": "6355-110",
      "city": "MIUZELA",
      "lon": "-7.005732415065195",
      "lat": "40.51205672447984"
    },
    {
      "id": "pt.ine.add.PTCONT.1976569",
      "street": "R DA RONDA",
      "house": "",
      "postcode": "6355-110",
      "city": "MIUZELA",
      "lon": "-7.006092988925966",
      "lat": "40.51236641619534"
    },
    {
      "id": "pt.ine.add.PTCONT.1977641",
      "street": "R DO FORNO DE CIMA",
      "house": "",
      "postcode": "6355-110",
      "city": "MIUZELA",
      "lon": "-7.006336461547289",
      "lat": "40.51191853450633"
    },
    {
      "id": "pt.ine.add.PTCONT.1853997",
      "street": "R DO FORNO DE CIMA",
      "house": "",
      "postcode": "6355-110",
      "city": "MIUZELA",
      "lon": "-7.006182953200451",
      "lat": "40.511926042573656"
    },
    {
      "id": "pt.ine.add.PTCONT.1858902",
      "street": "TV DO MERCADO",
      "house": "",
      "postcode": "6355-110",
      "city": "MIUZELA",
      "lon": "-7.005664349156717",
      "lat": "40.511893968118535"
    },
    {
      "id": "pt.ine.add.PTCONT.1864921",
      "street": "R DO MERCADO",
      "house": "",
      "postcode": "6355-110",
      "city": "MIUZELA",
      "lon": "-7.006020964930902",
      "lat": "40.51173535498453"
    },
    {
      "id": "pt.ine.add.PTCONT.1867130",
      "street": "LG DO MERCADO",
      "house": "",
      "postcode": "6355-110",
      "city": "MIUZELA",
      "lon": "-7.005415109328035",
      "lat": "40.51198158714716"
    },
    {
      "id": "pt.ine.add.PTCONT.1867170",
      "street": "R DO FORNO DE CIMA",
      "house": "",
      "postcode": "6355-110",
      "city": "MIUZELA",
      "lon": "-7.005875785632484",
      "lat": "40.511950061748145"
    },
    {
      "id": "pt.ine.add.PTCONT.1873962",
      "street": "R DA RONDA",
      "house": "",
      "postcode": "6355-110",
      "city": "MIUZELA",
      "lon": "-7.005836927208954",
      "lat": "40.51215680050526"
    },
    {
      "id": "pt.ine.add.PTCONT.1880796",
      "street": "R DA RONDA",
      "house": "",
      "postcode": "6355-110",
      "city": "MIUZELA",
      "lon": "-7.006199311022606",
      "lat": "40.512358448061995"
    },
    {
      "id": "pt.ine.add.PTCONT.1898248",
      "street": "R DO FORNO DE CIMA",
      "house": "",
      "postcode": "6355-110",
      "city": "MIUZELA",
      "lon": "-7.006028540233058",
      "lat": "40.511987572358116"
    }
  ]
}