{
  "data": {
    "distrito": "Viseu",
    "concelho": "Cinfães",
    "freguesia": "Espadanedo",
    "OBJECTID": 412,
    "BGRI2021": "18040400114",
    "DT21": "18",
    "DTMN21": "1804",
    "DTMNFR21": "180404",
    "DTMNFRSEC21": "180404001",
    "SECNUM21": "001",
    "SSNUM21": "14",
    "SECSSNUM21": "00114",
    "OBJECTID_1": 190454,
    "DT": "18",
    "CC": "04",
    "fr": "04",
    "SEC": "001",
    "SS": "14"
  },
  "addresses": [
    {
      "id": "pt.ine.add.PTCONT.5465188",
      "street": "R RECOUTAS",
      "house": "140",
      "postcode": "4690-152",
      "city": "ESPADANEDO CNF",
      "lon": "-8.20550889870779",
      "lat": "41.080694119123024"
    },
    {
      "id": "pt.ine.add.PTCONT.5492648",
      "street": "R BOTICA",
      "house": "75",
      "postcode": "4690-179",
      "city": "ESPADANEDO CNF",
      "lon": "-8.202939724364441",
      "lat": "41.081884299703724"
    },
    {
      "id": "pt.ine.add.PTCONT.5516754",
      "street": "R GRAÇA",
      "house": "61",
      "postcode": "4690-106",
      "city": "ESPADANEDO CNF",
      "lon": "-8.203629214010403",
      "lat": "41.08119953726127"
    },
    {
      "id": "pt.ine.add.PTCONT.5536872",
      "street": "R GRAÇA",
      "house": "105",
      "postcode": "4690-106",
      "city": "ESPADANEDO CNF",
      "lon": "-8.203379625445324",
      "lat": "41.08149683848241"
    },
    {
      "id": "pt.ine.add.PTCONT.5558910",
      "street": "R VILA DO MONTE",
      "house": "94",
      "postcode": "4690-179",
      "city": "ESPADANEDO CNF",
      "lon": "-8.205711825525405",
      "lat": "41.08126127544232"
    },
    {
      "id": "pt.ine.add.PTCONT.5617460",
      "street": "R GRACA",
      "house": "45",
      "postcode": "4690-106",
      "city": "ESPADANEDO CNF",
      "lon": "-8.203153739726115",
      "lat": "41.0817040796744"
    },
    {
      "id": "pt.ine.add.PTCONT.5621203",
      "street": "VL MONTE",
      "house": "58",
      "postcode": "4690-179",
      "city": "ESPADANEDO CNF",
      "lon": "-8.20609240447447",
      "lat": "41.08105393134705"
    },
    {
      "id": "pt.ine.add.PTCONT.5656906",
      "street": "R BOTICA",
      "house": "141",
      "postcode": "4690-179",
      "city": "ESPADANEDO CNF",
      "lon": "-8.201940460090908",
      "lat": "41.082236076686655"
    },
    {
      "id": "pt.ine.add.PTCONT.5664835",
      "street": "R RECOUTAS",
      "house": "140",
      "postcode": "4690-164",
      "city": "ESPADANEDO CNF",
      "lon": "-8.206246129021057",
      "lat": "41.0801713920496"
    }
  ]
}