{
  "data": {
    "distrito": "Vila Real",
    "concelho": "Peso da Régua",
    "freguesia": "União das freguesias de Peso da Régua e Godim",
    "OBJECTID": 89,
    "BGRI2021": "17081500801",
    "DT21": "17",
    "DTMN21": "1708",
    "DTMNFR21": "170815",
    "DTMNFRSEC21": "170815008",
    "SECNUM21": "008",
    "SSNUM21": "01",
    "SECSSNUM21": "00801",
    "OBJECTID_1": 184360,
    "DT": "17",
    "CC": "08",
    "fr": "15",
    "SEC": "008",
    "SS": "01"
  },
  "addresses": [
    {
      "id": "pt.ine.add.PTCONT.5293470",
      "street": "AV DIOCESE",
      "house": "",
      "postcode": "5050-205",
      "city": "PESO DA RÉGUA",
      "lon": "-7.7774243846388025",
      "lat": "41.15796615152757"
    },
    {
      "id": "pt.ine.add.PTCONT.5296710",
      "street": "AV DIOCESE",
      "house": "17",
      "postcode": "5050-221",
      "city": "PESO DA RÉGUA",
      "lon": "-7.780228482190396",
      "lat": "41.15938846114749"
    },
    {
      "id": "pt.ine.add.PTCONT.5311995",
      "street": "AV DIOCESE DE VILA REAL QTA DA GARCIA",
      "house": "",
      "postcode": "5050-221",
      "city": "PESO DA RÉGUA",
      "lon": "-7.776989246211053",
      "lat": "41.15911736561198"
    },
    {
      "id": "pt.ine.add.PTCONT.5313528",
      "street": "VAR CORGO",
      "house": "",
      "postcode": "5050-205",
      "city": "PESO DA RÉGUA",
      "lon": "-7.7800456626358905",
      "lat": "41.16015327171188"
    },
    {
      "id": "pt.ine.add.PTCONT.5327302",
      "street": "AV DIOCESE",
      "house": "15",
      "postcode": "5050-221",
      "city": "PESO DA RÉGUA",
      "lon": "-7.780214491261495",
      "lat": "41.15977560587051"
    },
    {
      "id": "pt.ine.add.PTCONT.5346516",
      "street": "",
      "house": "",
      "postcode": "5050-200",
      "city": "PESO DA RÉGUA",
      "lon": "-7.776519556207548",
      "lat": "41.155649231862455"
    },
    {
      "id": "pt.ine.add.PTCONT.5354603",
      "street": "QTA DO PENEDO",
      "house": "",
      "postcode": "5050-204",
      "city": "PESO DA RÉGUA",
      "lon": "-7.7737620499769795",
      "lat": "41.158828207829956"
    },
    {
      "id": "pt.ine.add.PTCONT.5358297",
      "street": "QTA VALE SALGUEIRO",
      "house": "",
      "postcode": "5050-207",
      "city": "PESO DA RÉGUA",
      "lon": "-7.776926389578398",
      "lat": "41.15752339883874"
    },
    {
      "id": "pt.ine.add.PTCONT.5373084",
      "street": "AV DIOCESE DE VILA REAL",
      "house": "",
      "postcode": "5050-221",
      "city": "PESO DA RÉGUA",
      "lon": "-7.77688151305168",
      "lat": "41.157010011223555"
    },
    {
      "id": "pt.ine.add.PTCONT.5376386",
      "street": "VAR CORGO",
      "house": "",
      "postcode": "5050-221",
      "city": "PESO DA RÉGUA",
      "lon": "-7.778947318032793",
      "lat": "41.16056410052528"
    },
    {
      "id": "pt.ine.add.PTCONT.5378411",
      "street": "",
      "house": "",
      "postcode": "5050-200",
      "city": "PESO DA RÉGUA",
      "lon": "-7.776685857101515",
      "lat": "41.15573979023568"
    },
    {
      "id": "pt.ine.add.PTCONT.5425667",
      "street": "AV DIOCESE",
      "house": "",
      "postcode": "5050-221",
      "city": "PESO DA RÉGUA",
      "lon": "-7.779991842216797",
      "lat": "41.15908158761156"
    }
  ]
}