{
  "data": {
    "distrito": "Castelo Branco",
    "concelho": "Belmonte",
    "freguesia": "Caria",
    "OBJECTID": 275,
    "BGRI2021": "05010200117",
    "DT21": "05",
    "DTMN21": "0501",
    "DTMNFR21": "050102",
    "DTMNFRSEC21": "050102001",
    "SECNUM21": "001",
    "SSNUM21": "17",
    "SECSSNUM21": "00117",
    "OBJECTID_1": 40495,
    "DT": "05",
    "CC": "01",
    "fr": "02",
    "SEC": "001",
    "SS": "17"
  },
  "addresses": [
    {
      "id": "pt.ine.add.PTCONT.957792",
      "street": "",
      "house": "",
      "postcode": "6250-111",
      "city": "CARIA BMT",
      "lon": "-7.3591669977537855",
      "lat": "40.27941807306748"
    },
    {
      "id": "pt.ine.add.PTCONT.962953",
      "street": "QTA PANASCO",
      "house": "",
      "postcode": "6250-119",
      "city": "CARIA BMT",
      "lon": "-7.3716496051794325",
      "lat": "40.262020940141184"
    },
    {
      "id": "pt.ine.add.PTCONT.972738",
      "street": "QTA PANASCO",
      "house": "",
      "postcode": "6250-119",
      "city": "CARIA BMT",
      "lon": "-7.372188997770153",
      "lat": "40.26004324327487"
    },
    {
      "id": "pt.ine.add.PTCONT.979195",
      "street": "QTA LAMEIROES",
      "house": "",
      "postcode": "6250-117",
      "city": "CARIA BMT",
      "lon": "-7.368402428025845",
      "lat": "40.26330534682545"
    },
    {
      "id": "pt.ine.add.PTCONT.981634",
      "street": "QTA LAMEIROES",
      "house": "",
      "postcode": "6250-113",
      "city": "CARIA BMT",
      "lon": "-7.36986326090931",
      "lat": "40.264071466536436"
    },
    {
      "id": "pt.ine.add.PTCONT.987817",
      "street": "QTA PANASCO",
      "house": "",
      "postcode": "6250-119",
      "city": "CARIA BMT",
      "lon": "-7.371302553229936",
      "lat": "40.259425025953874"
    },
    {
      "id": "pt.ine.add.PTCONT.998714",
      "street": "",
      "house": "",
      "postcode": "6250-111",
      "city": "CARIA BMT",
      "lon": "-7.361200416146518",
      "lat": "40.274316458190256"
    },
    {
      "id": "pt.ine.add.PTCONT.1010218",
      "street": "SIT SANTO ANTÃO",
      "house": "",
      "postcode": "6250-111",
      "city": "CARIA BMT",
      "lon": "-7.359388636581427",
      "lat": "40.27751036224307"
    },
    {
      "id": "pt.ine.add.PTCONT.1012787",
      "street": "QTA PANASCO",
      "house": "",
      "postcode": "6250-119",
      "city": "CARIA BMT",
      "lon": "-7.372249687957794",
      "lat": "40.261970853435706"
    },
    {
      "id": "pt.ine.add.PTCONT.1012788",
      "street": "R PORTELA",
      "house": "1",
      "postcode": "6250-111",
      "city": "CARIA BMT",
      "lon": "-7.379131432796467",
      "lat": "40.25941326149416"
    },
    {
      "id": "pt.ine.add.PTCONT.1012789",
      "street": "QTA LAGARTIXAS",
      "house": "12",
      "postcode": "6250-115",
      "city": "CARIA BMT",
      "lon": "-7.3777957664567095",
      "lat": "40.25584731279203"
    },
    {
      "id": "pt.ine.add.PTCONT.1021135",
      "street": "",
      "house": "",
      "postcode": "6250-111",
      "city": "CARIA BMT",
      "lon": "-7.358829755562737",
      "lat": "40.272904745277316"
    },
    {
      "id": "pt.ine.add.PTCONT.1024340",
      "street": "R SALGUEIRINHO",
      "house": "",
      "postcode": "6250-119",
      "city": "CARIA BMT",
      "lon": "-7.380814797938001",
      "lat": "40.25601106955919"
    },
    {
      "id": "pt.ine.add.PTCONT.1029552",
      "street": "QTA PORTELA",
      "house": "",
      "postcode": "6250-111",
      "city": "CARIA BMT",
      "lon": "-7.379827248350431",
      "lat": "40.25814799428201"
    },
    {
      "id": "pt.ine.add.PTCONT.1030627",
      "street": "SIT SANTO ANTÃO",
      "house": "",
      "postcode": "6250-111",
      "city": "CARIA BMT",
      "lon": "-7.360987966794074",
      "lat": "40.279556317923834"
    },
    {
      "id": "pt.ine.add.PTCONT.1048902",
      "street": "EN 345",
      "house": "",
      "postcode": "6250-119",
      "city": "CARIA BMT",
      "lon": "-7.372279394599689",
      "lat": "40.25826972221099"
    },
    {
      "id": "pt.ine.add.PTCONT.1086697",
      "street": "R PORTELA",
      "house": "",
      "postcode": "6250-111",
      "city": "CARIA BMT",
      "lon": "-7.377473514203854",
      "lat": "40.25945648116432"
    },
    {
      "id": "pt.ine.add.PTCONT.1092456",
      "street": "SIT SANTO ANTÃO",
      "house": "",
      "postcode": "6250-111",
      "city": "CARIA BMT",
      "lon": "-7.359122124497223",
      "lat": "40.27922865474335"
    }
  ]
}