{
  "data": {
    "distrito": "Viana do Castelo",
    "concelho": "Ponte de Lima",
    "freguesia": "Beiral do Lima",
    "OBJECTID": 777,
    "BGRI2021": "16070700150",
    "DT21": "16",
    "DTMN21": "1607",
    "DTMNFR21": "160707",
    "DTMNFRSEC21": "160707001",
    "SECNUM21": "001",
    "SSNUM21": "50",
    "SECSSNUM21": "00150",
    "OBJECTID_1": 176266,
    "DT": "16",
    "CC": "07",
    "fr": "07",
    "SEC": "001",
    "SS": "50"
  },
  "addresses": [
    {
      "id": "pt.ine.add.PTCONT.5144709",
      "street": "",
      "house": "",
      "postcode": "4990-545",
      "city": "BEIRAL DO LIMA",
      "lon": "-8.494027893920556",
      "lat": "41.774121538329986"
    },
    {
      "id": "pt.ine.add.PTCONT.5176612",
      "street": "",
      "house": "",
      "postcode": "4990-545",
      "city": "BEIRAL DO LIMA",
      "lon": "-8.494649719307432",
      "lat": "41.77348034178693"
    },
    {
      "id": "pt.ine.add.PTCONT.5182373",
      "street": "",
      "house": "",
      "postcode": "4990-545",
      "city": "BEIRAL DO LIMA",
      "lon": "-8.494208352636575",
      "lat": "41.77412997468741"
    },
    {
      "id": "pt.ine.add.PTCONT.5197747",
      "street": "",
      "house": "",
      "postcode": "4990-545",
      "city": "BEIRAL DO LIMA",
      "lon": "-8.49522365214251",
      "lat": "41.7750181156175"
    },
    {
      "id": "pt.ine.add.PTCONT.5206450",
      "street": "",
      "house": "",
      "postcode": "4990-545",
      "city": "BEIRAL DO LIMA",
      "lon": "-8.494452940126614",
      "lat": "41.77270666831789"
    },
    {
      "id": "pt.ine.add.PTCONT.5209085",
      "street": "",
      "house": "",
      "postcode": "4990-545",
      "city": "BEIRAL DO LIMA",
      "lon": "-8.49800034347791",
      "lat": "41.7747212215656"
    },
    {
      "id": "pt.ine.add.PTCONT.5217861",
      "street": "",
      "house": "",
      "postcode": "4990-545",
      "city": "BEIRAL DO LIMA",
      "lon": "-8.494128161988725",
      "lat": "41.77269868592476"
    },
    {
      "id": "pt.ine.add.PTCONT.5252592",
      "street": "R DA COUTADA",
      "house": "285",
      "postcode": "4990-545",
      "city": "BEIRAL DO LIMA",
      "lon": "-8.494638349460127",
      "lat": "41.773597421776536"
    },
    {
      "id": "pt.ine.add.PTCONT.5266924",
      "street": "R PACO",
      "house": "120",
      "postcode": "4990-545",
      "city": "BEIRAL DO LIMA",
      "lon": "-8.49507013095475",
      "lat": "41.775522789685404"
    },
    {
      "id": "pt.ine.add.PTCONT.5268261",
      "street": "",
      "house": "",
      "postcode": "4990-545",
      "city": "BEIRAL DO LIMA",
      "lon": "-8.497965537138471",
      "lat": "41.77494641706722"
    },
    {
      "id": "pt.ine.add.PTCONT.5271526",
      "street": "",
      "house": "",
      "postcode": "4990-545",
      "city": "BEIRAL DO LIMA",
      "lon": "-8.49501938912281",
      "lat": "41.775054772838665"
    },
    {
      "id": "pt.ine.add.PTCONT.5284406",
      "street": "R DO PAÃ‡O",
      "house": "234",
      "postcode": "4990-640",
      "city": "GANDRA PTL",
      "lon": "-8.493895493648418",
      "lat": "41.774103947381576"
    }
  ]
}