{
  "data": {
    "distrito": "Viseu",
    "concelho": "Lamego",
    "freguesia": "Samodães",
    "OBJECTID": 3,
    "BGRI2021": "18051900108",
    "DT21": "18",
    "DTMN21": "1805",
    "DTMNFR21": "180519",
    "DTMNFRSEC21": "180519001",
    "SECNUM21": "001",
    "SSNUM21": "08",
    "SECSSNUM21": "00108",
    "OBJECTID_1": 190847,
    "DT": "18",
    "CC": "05",
    "fr": "19",
    "SEC": "001",
    "SS": "08"
  },
  "addresses": [
    {
      "id": "pt.ine.add.PTCONT.5465416",
      "street": "R CIMO DE VILA",
      "house": "",
      "postcode": "5100-753",
      "city": "SAMODÃES",
      "lon": "-7.82671321293206",
      "lat": "41.14000898934534"
    },
    {
      "id": "pt.ine.add.PTCONT.5474162",
      "street": "BC CIMO DE VILA",
      "house": "",
      "postcode": "5100-756",
      "city": "SAMODÃES",
      "lon": "-7.8263917917465315",
      "lat": "41.139972116411215"
    },
    {
      "id": "pt.ine.add.PTCONT.5488931",
      "street": "BC CIMO DE VILA",
      "house": "",
      "postcode": "5100-756",
      "city": "SAMODÃES",
      "lon": "-7.826534678173076",
      "lat": "41.13998150115804"
    },
    {
      "id": "pt.ine.add.PTCONT.5502534",
      "street": "BC CIMO DE VILA",
      "house": "",
      "postcode": "5100-756",
      "city": "SAMODÃES",
      "lon": "-7.826451219406537",
      "lat": "41.13999928781902"
    },
    {
      "id": "pt.ine.add.PTCONT.5536510",
      "street": "BC CIMO DE VILA",
      "house": "9",
      "postcode": "5100-756",
      "city": "SAMODÃES",
      "lon": "-7.826093856391056",
      "lat": "41.14000734036484"
    },
    {
      "id": "pt.ine.add.PTCONT.5537337",
      "street": "BC CIMO DE VILA",
      "house": "",
      "postcode": "5100-756",
      "city": "SAMODÃES",
      "lon": "-7.826440105600504",
      "lat": "41.13982817465468"
    },
    {
      "id": "pt.ine.add.PTCONT.5571138",
      "street": "R CIMO DE VILA",
      "house": "",
      "postcode": "5100-753",
      "city": "SAMODÃES",
      "lon": "-7.826654497667013",
      "lat": "41.13982874518606"
    },
    {
      "id": "pt.ine.add.PTCONT.5585837",
      "street": "R BARROCA",
      "house": "",
      "postcode": "5100-756",
      "city": "SAMODÃES",
      "lon": "-7.824771810732527",
      "lat": "41.13999480499965"
    },
    {
      "id": "pt.ine.add.PTCONT.5591407",
      "street": "BC CIMO DE VILA",
      "house": "",
      "postcode": "5100-756",
      "city": "SAMODÃES",
      "lon": "-7.82648779021656",
      "lat": "41.139819297186484"
    },
    {
      "id": "pt.ine.add.PTCONT.5593345",
      "street": "R CORUJEIRAS",
      "house": "",
      "postcode": "5100-756",
      "city": "SAMODÃES",
      "lon": "-7.8271000890529105",
      "lat": "41.13877641490841"
    },
    {
      "id": "pt.ine.add.PTCONT.5624930",
      "street": "BC CIMO DE VILA",
      "house": "",
      "postcode": "5100-756",
      "city": "SAMODÃES",
      "lon": "-7.826368599628252",
      "lat": "41.13983698867619"
    },
    {
      "id": "pt.ine.add.PTCONT.5632525",
      "street": "BC CIMO DE VILA",
      "house": "",
      "postcode": "5100-756",
      "city": "SAMODÃES",
      "lon": "-7.826368264015966",
      "lat": "41.13990902297413"
    },
    {
      "id": "pt.ine.add.PTCONT.5645778",
      "street": "BC CIMO DE VILA",
      "house": "",
      "postcode": "5100-756",
      "city": "SAMODÃES",
      "lon": "-7.826236868758474",
      "lat": "41.13998971262049"
    },
    {
      "id": "pt.ine.add.PTCONT.5653387",
      "street": "BC CIMO DE VILA",
      "house": "",
      "postcode": "5100-756",
      "city": "SAMODÃES",
      "lon": "-7.826463717248639",
      "lat": "41.13987325950354"
    },
    {
      "id": "pt.ine.add.PTCONT.5653388",
      "street": "BC CIMO DE VILA",
      "house": "",
      "postcode": "5100-756",
      "city": "SAMODÃES",
      "lon": "-7.826463717248639",
      "lat": "41.13987325950354"
    },
    {
      "id": "pt.ine.add.PTCONT.5653389",
      "street": "BC CIMO DE VILA",
      "house": "",
      "postcode": "5100-756",
      "city": "SAMODÃES",
      "lon": "-7.8265111922341735",
      "lat": "41.13990940346245"
    }
  ]
}