{
  "data": {
    "distrito": "Aveiro",
    "concelho": "Oliveira do Bairro",
    "freguesia": "Uni√£o das freguesias de Bustos, Troviscal e Mamarrosa",
    "OBJECTID": 319,
    "BGRI2021": "01140700220",
    "DT21": "01",
    "DTMN21": "0114",
    "DTMNFR21": "011407",
    "DTMNFRSEC21": "011407002",
    "SECNUM21": "002",
    "SSNUM21": "20",
    "SECSSNUM21": "00220",
    "OBJECTID_1": 9874,
    "DT": "01",
    "CC": "14",
    "fr": "07",
    "SEC": "002",
    "SS": "20"
  },
  "addresses": [
    {
      "id": "pt.ine.add.PTCONT.293664",
      "street": "R DR JOSE GREGORIO HERNANDEZ",
      "house": "38",
      "postcode": "3770-014",
      "city": "BUSTOS",
      "lon": "-8.599144419354854",
      "lat": "40.4998395423731"
    },
    {
      "id": "pt.ine.add.PTCONT.296578",
      "street": "R PICADA",
      "house": "15",
      "postcode": "3770-014",
      "city": "BUSTOS",
      "lon": "-8.59835247406665",
      "lat": "40.49790657803063"
    },
    {
      "id": "pt.ine.add.PTCONT.307524",
      "street": "R DR MANUEL DOS SANTOS PATO",
      "house": "",
      "postcode": "3770-012",
      "city": "BUSTOS",
      "lon": "-8.603559304841252",
      "lat": "40.49856090254713"
    },
    {
      "id": "pt.ine.add.PTCONT.317570",
      "street": "R 18 DE FEVEREIRO",
      "house": "188",
      "postcode": "3770-018",
      "city": "BUSTOS",
      "lon": "-8.601499610922344",
      "lat": "40.49754265613355"
    },
    {
      "id": "pt.ine.add.PTCONT.321330",
      "street": "R PICADA",
      "house": "5",
      "postcode": "3770-014",
      "city": "BUSTOS",
      "lon": "-8.598715478710155",
      "lat": "40.49751788499057"
    },
    {
      "id": "pt.ine.add.PTCONT.321331",
      "street": "R PICADA",
      "house": "5",
      "postcode": "3770-014",
      "city": "BUSTOS",
      "lon": "-8.598715478710155",
      "lat": "40.49751788499057"
    },
    {
      "id": "pt.ine.add.PTCONT.333757",
      "street": "R DR MANUEL DOS SANTOS PATO",
      "house": "20",
      "postcode": "3770-012",
      "city": "BUSTOS",
      "lon": "-8.604305732813716",
      "lat": "40.50071014520724"
    },
    {
      "id": "pt.ine.add.PTCONT.335489",
      "street": "R DR JOSE GREGORIO HERNANDEZ",
      "house": "34",
      "postcode": "3770-014",
      "city": "BUSTOS",
      "lon": "-8.599204773089731",
      "lat": "40.50003741714406"
    },
    {
      "id": "pt.ine.add.PTCONT.351332",
      "street": "R DR MANUEL DOS SANTOS PATO",
      "house": "18",
      "postcode": "3770-012",
      "city": "BUSTOS",
      "lon": "-8.60442256499744",
      "lat": "40.50054757214489"
    },
    {
      "id": "pt.ine.add.PTCONT.2275",
      "street": "R DR JOSE GREGORIO HERNANDEZ",
      "house": "52",
      "postcode": "3770-014",
      "city": "BUSTOS",
      "lon": "-8.598050933178317",
      "lat": "40.498655237605334"
    },
    {
      "id": "pt.ine.add.PTCONT.4335",
      "street": "R 18 DE FEVEREIRO",
      "house": "178",
      "postcode": "3770-018",
      "city": "BUSTOS",
      "lon": "-8.600753517076587",
      "lat": "40.49712242496398"
    },
    {
      "id": "pt.ine.add.PTCONT.6941",
      "street": "R DR JOSE GREGORIO HERNANDEZ",
      "house": "48",
      "postcode": "3770-014",
      "city": "BUSTOS",
      "lon": "-8.598525150450078",
      "lat": "40.498995532984345"
    },
    {
      "id": "pt.ine.add.PTCONT.25576",
      "street": "R DR JOSE GREGORIO HERNANDEZ",
      "house": "40",
      "postcode": "3770-014",
      "city": "BUSTOS",
      "lon": "-8.599096111702195",
      "lat": "40.49967764047913"
    },
    {
      "id": "pt.ine.add.PTCONT.30685",
      "street": "R 18 DE FEVEREIRO",
      "house": "190",
      "postcode": "3770-018",
      "city": "BUSTOS",
      "lon": "-8.601571953498482",
      "lat": "40.4977674972713"
    },
    {
      "id": "pt.ine.add.PTCONT.30686",
      "street": "R DR MANUEL DOS SANTOS PATO",
      "house": "14",
      "postcode": "3770-012",
      "city": "BUSTOS",
      "lon": "-8.603993982275371",
      "lat": "40.499990986304915"
    },
    {
      "id": "pt.ine.add.PTCONT.32613",
      "street": "R DR MANUEL DOS SANTOS PATO",
      "house": "",
      "postcode": "3770-012",
      "city": "BUSTOS",
      "lon": "-8.603584658827259",
      "lat": "40.49881294976057"
    },
    {
      "id": "pt.ine.add.PTCONT.41819",
      "street": "R DR JOSE GREGORIO HERNANDEZ",
      "house": "50",
      "postcode": "3770-014",
      "city": "BUSTOS",
      "lon": "-8.59825252779927",
      "lat": "40.49880751773939"
    },
    {
      "id": "pt.ine.add.PTCONT.41825",
      "street": "R 18 DE FEVEREIRO",
      "house": "174",
      "postcode": "3770-018",
      "city": "BUSTOS",
      "lon": "-8.60065664825795",
      "lat": "40.496762601872256"
    },
    {
      "id": "pt.ine.add.PTCONT.44609",
      "street": "R 18 DE FEVEREIRO",
      "house": "176",
      "postcode": "3770-018",
      "city": "BUSTOS",
      "lon": "-8.600858055403554",
      "lat": "40.49688786214173"
    },
    {
      "id": "pt.ine.add.PTCONT.48794",
      "street": "R DR JOSE GREGORIO HERNANDEZ",
      "house": "36",
      "postcode": "3770-014",
      "city": "BUSTOS",
      "lon": "-8.599156776737283",
      "lat": "40.4999205408829"
    },
    {
      "id": "pt.ine.add.PTCONT.48795",
      "street": "R DR JOSE GREGORIO HERNANDEZ",
      "house": "44",
      "postcode": "3770-014",
      "city": "BUSTOS",
      "lon": "-8.598929092224028",
      "lat": "40.499408152650936"
    },
    {
      "id": "pt.ine.add.PTCONT.55098",
      "street": "R 18 DE FEVEREIRO",
      "house": "164",
      "postcode": "3770-018",
      "city": "BUSTOS",
      "lon": "-8.59975940524322",
      "lat": "40.49665816377801"
    },
    {
      "id": "pt.ine.add.PTCONT.74146",
      "street": "R PICADA",
      "house": "21",
      "postcode": "3770-014",
      "city": "BUSTOS",
      "lon": "-8.598000080452406",
      "lat": "40.49812412511569"
    },
    {
      "id": "pt.ine.add.PTCONT.76815",
      "street": "R 18 DE FEVEREIRO VILA SILVIA",
      "house": "",
      "postcode": "3770-018",
      "city": "BUSTOS",
      "lon": "-8.601830904777056",
      "lat": "40.49768539893814"
    },
    {
      "id": "pt.ine.add.PTCONT.82318",
      "street": "R 18 DE FEVEREIRO",
      "house": "200",
      "postcode": "3770-012",
      "city": "BUSTOS",
      "lon": "-8.603109663360183",
      "lat": "40.4983646138601"
    },
    {
      "id": "pt.ine.add.PTCONT.85888",
      "street": "R DR JOSE GREGORIO HERNANDEZ",
      "house": "56",
      "postcode": "3770-014",
      "city": "BUSTOS",
      "lon": "-8.598143562639043",
      "lat": "40.498402714444936"
    },
    {
      "id": "pt.ine.add.PTCONT.85889",
      "street": "R DR JOSE GREGORIO HERNANDEZ",
      "house": "56",
      "postcode": "3770-014",
      "city": "BUSTOS",
      "lon": "-8.598143562639043",
      "lat": "40.498402714444936"
    },
    {
      "id": "pt.ine.add.PTCONT.85890",
      "street": "R DR JOSE GREGORIO HERNANDEZ",
      "house": "56",
      "postcode": "3770-014",
      "city": "BUSTOS",
      "lon": "-8.598143562639043",
      "lat": "40.498402714444936"
    },
    {
      "id": "pt.ine.add.PTCONT.85891",
      "street": "R DR JOSE GREGORIO HERNANDEZ",
      "house": "56",
      "postcode": "3770-014",
      "city": "BUSTOS",
      "lon": "-8.598143562639043",
      "lat": "40.498402714444936"
    },
    {
      "id": "pt.ine.add.PTCONT.85892",
      "street": "R DR JOSE GREGORIO HERNANDEZ",
      "house": "56",
      "postcode": "3770-014",
      "city": "BUSTOS",
      "lon": "-8.598143562639043",
      "lat": "40.498402714444936"
    },
    {
      "id": "pt.ine.add.PTCONT.85893",
      "street": "R DR JOSE GREGORIO HERNANDEZ",
      "house": "56",
      "postcode": "3770-014",
      "city": "BUSTOS",
      "lon": "-8.598143562639043",
      "lat": "40.498402714444936"
    },
    {
      "id": "pt.ine.add.PTCONT.101509",
      "street": "R JACINTO DOS LOUROS",
      "house": "",
      "postcode": "3770-018",
      "city": "BUSTOS",
      "lon": "-8.599132910861568",
      "lat": "40.49647157886376"
    },
    {
      "id": "pt.ine.add.PTCONT.101510",
      "street": "R DR MANUEL DOS SANTOS PATO",
      "house": "",
      "postcode": "3770-012",
      "city": "BUSTOS",
      "lon": "-8.60457680385191",
      "lat": "40.500673018179825"
    },
    {
      "id": "pt.ine.add.PTCONT.101805",
      "street": "R PICADA",
      "house": "3",
      "postcode": "3770-014",
      "city": "BUSTOS",
      "lon": "-8.598914206479975",
      "lat": "40.49725592829249"
    },
    {
      "id": "pt.ine.add.PTCONT.104246",
      "street": "R PICADA",
      "house": "15",
      "postcode": "3770-014",
      "city": "BUSTOS",
      "lon": "-8.59828126160257",
      "lat": "40.49784382706607"
    },
    {
      "id": "pt.ine.add.PTCONT.113147",
      "street": "R DR MANUEL DOS SANTOS PATO",
      "house": "",
      "postcode": "3770-012",
      "city": "BUSTOS",
      "lon": "-8.604098639602334",
      "lat": "40.499774430933975"
    },
    {
      "id": "pt.ine.add.PTCONT.122892",
      "street": "R DR JOSE GREGORIO HERNANDEZ",
      "house": "32",
      "postcode": "3770-014",
      "city": "BUSTOS",
      "lon": "-8.599229114135658",
      "lat": "40.500145383424"
    },
    {
      "id": "pt.ine.add.PTCONT.124769",
      "street": "R DR JOSE GREGORIO HERNANDEZ",
      "house": "54",
      "postcode": "3770-014",
      "city": "BUSTOS",
      "lon": "-8.598109417336715",
      "lat": "40.49858295931338"
    },
    {
      "id": "pt.ine.add.PTCONT.126796",
      "street": "R DR JOSE GREGORIO FERNANDEZ",
      "house": "2",
      "postcode": "3770-012",
      "city": "BUSTOS",
      "lon": "-8.603689693209246",
      "lat": "40.498650425416564"
    },
    {
      "id": "pt.ine.add.PTCONT.135617",
      "street": "R PICADA",
      "house": "1",
      "postcode": "3770-014",
      "city": "BUSTOS",
      "lon": "-8.59887670093585",
      "lat": "40.49694989667729"
    },
    {
      "id": "pt.ine.add.PTCONT.138613",
      "street": "R 18 DE FEVEREIRO",
      "house": "162",
      "postcode": "3770-018",
      "city": "BUSTOS",
      "lon": "-8.600169079064615",
      "lat": "40.49619723464337"
    },
    {
      "id": "pt.ine.add.PTCONT.143564",
      "street": "R 18 DE FEVEREIRO",
      "house": "202",
      "postcode": "3770-012",
      "city": "BUSTOS",
      "lon": "-8.603487206340322",
      "lat": "40.49837208319393"
    },
    {
      "id": "pt.ine.add.PTCONT.143567",
      "street": "R DR JOSE GREGORIO FERNANDEZ",
      "house": "10",
      "postcode": "3770-012",
      "city": "BUSTOS",
      "lon": "-8.602452589603285",
      "lat": "40.50056459485477"
    },
    {
      "id": "pt.ine.add.PTCONT.153197",
      "street": "R 18 DE FEVEREIRO",
      "house": "166",
      "postcode": "3770-018",
      "city": "BUSTOS",
      "lon": "-8.600264320508689",
      "lat": "40.49632292497208"
    },
    {
      "id": "pt.ine.add.PTCONT.153198",
      "street": "R 18 DE FEVEREIRO",
      "house": "166",
      "postcode": "3770-018",
      "city": "BUSTOS",
      "lon": "-8.600264320508689",
      "lat": "40.49632292497208"
    },
    {
      "id": "pt.ine.add.PTCONT.158016",
      "street": "R DR JOSE GREGORIO FERNANDEZ",
      "house": "",
      "postcode": "3770-012",
      "city": "BUSTOS",
      "lon": "-8.602912532882273",
      "lat": "40.500544715258606"
    },
    {
      "id": "pt.ine.add.PTCONT.160910",
      "street": "R DR JOSE GREGORIO FERNANDEZ",
      "house": "20",
      "postcode": "3770-012",
      "city": "BUSTOS",
      "lon": "-8.60096909065947",
      "lat": "40.50098485718785"
    },
    {
      "id": "pt.ine.add.PTCONT.180537",
      "street": "R PICADA",
      "house": "13",
      "postcode": "3770-014",
      "city": "BUSTOS",
      "lon": "-8.59839878781483",
      "lat": "40.497780316329376"
    },
    {
      "id": "pt.ine.add.PTCONT.180538",
      "street": "R DR MANUEL DOS SANTOS PATO",
      "house": "2",
      "postcode": "3770-012",
      "city": "BUSTOS",
      "lon": "-8.60376040809096",
      "lat": "40.49864113207814"
    },
    {
      "id": "pt.ine.add.PTCONT.204452",
      "street": "R 18 DE FEVEREIRO",
      "house": "178",
      "postcode": "3770-018",
      "city": "BUSTOS",
      "lon": "-8.60095304890839",
      "lat": "40.49697753138575"
    },
    {
      "id": "pt.ine.add.PTCONT.207964",
      "street": "R DR MANUEL DOS SANTOS PATO",
      "house": "",
      "postcode": "3770-012",
      "city": "BUSTOS",
      "lon": "-8.604684108811961",
      "lat": "40.50083467700674"
    },
    {
      "id": "pt.ine.add.PTCONT.210068",
      "street": "R 18 DE FEVEREIRO",
      "house": "192",
      "postcode": "3770-018",
      "city": "BUSTOS",
      "lon": "-8.601735846444832",
      "lat": "40.497586725318406"
    },
    {
      "id": "pt.ine.add.PTCONT.212212",
      "street": "R 18 DE FEVEREIRO",
      "house": "104",
      "postcode": "3770-018",
      "city": "BUSTOS",
      "lon": "-8.601179113223056",
      "lat": "40.49725578264824"
    },
    {
      "id": "pt.ine.add.PTCONT.215584",
      "street": "R PICADA",
      "house": "4",
      "postcode": "3770-014",
      "city": "BUSTOS",
      "lon": "-8.598668729996112",
      "lat": "40.497581110950144"
    },
    {
      "id": "pt.ine.add.PTCONT.221146",
      "street": "R 18 DE FEVEREIRO",
      "house": "IGO",
      "postcode": "3770-018",
      "city": "BUSTOS",
      "lon": "-8.600050620840836",
      "lat": "40.49612567030209"
    },
    {
      "id": "pt.ine.add.PTCONT.234477",
      "street": "R 18 DE FEVEREIRO",
      "house": "158",
      "postcode": "3770-018",
      "city": "BUSTOS",
      "lon": "-8.599920616662576",
      "lat": "40.49609017398428"
    },
    {
      "id": "pt.ine.add.PTCONT.242771",
      "street": "R 18 DE FEVEREIRO",
      "house": "164",
      "postcode": "3770-018",
      "city": "BUSTOS",
      "lon": "-8.600159094072664",
      "lat": "40.49645843092168"
    },
    {
      "id": "pt.ine.add.PTCONT.261526",
      "street": "R JACINTO DOS LOUROS",
      "house": "3",
      "postcode": "3770-018",
      "city": "BUSTOS",
      "lon": "-8.598850680353536",
      "lat": "40.49659879186681"
    },
    {
      "id": "pt.ine.add.PTCONT.269780",
      "street": "R DR MANUEL DOS SANTOS PATO",
      "house": "6",
      "postcode": "3770-012",
      "city": "BUSTOS",
      "lon": "-8.603670253288717",
      "lat": "40.49924485912163"
    },
    {
      "id": "pt.ine.add.PTCONT.270493",
      "street": "R JOS√â GREG√ìRIO HERNANDES",
      "house": "",
      "postcode": "3770-017",
      "city": "BUSTOS",
      "lon": "-8.599120950945299",
      "lat": "40.499857647752414"
    },
    {
      "id": "pt.ine.add.PTCONT.273939",
      "street": "R DR JOSE GREGORIO FERNANDEZ",
      "house": "10",
      "postcode": "3770-012",
      "city": "BUSTOS",
      "lon": "-8.602487665696161",
      "lat": "40.50051942554828"
    },
    {
      "id": "pt.ine.add.PTCONT.288446",
      "street": "R DR MANUEL DOS SANTOS PATO",
      "house": "8",
      "postcode": "3770-012",
      "city": "BUSTOS",
      "lon": "-8.603883218088086",
      "lat": "40.49933404549953"
    },
    {
      "id": "pt.ine.add.PTCONT.288447",
      "street": "R DR JOSE GREGORIO FERNANDEZ",
      "house": "",
      "postcode": "3770-012",
      "city": "BUSTOS",
      "lon": "-8.602146692319792",
      "lat": "40.50068290657891"
    }
  ]
}