{
  "data": {
    "distrito": "Porto",
    "concelho": "Baião",
    "freguesia": "União das freguesias de Santa Cruz do Douro e São Tomé de Covelas",
    "OBJECTID": 9,
    "BGRI2021": "13022500208",
    "DT21": "13",
    "DTMN21": "1302",
    "DTMNFR21": "130225",
    "DTMNFRSEC21": "130225002",
    "SECNUM21": "002",
    "SSNUM21": "08",
    "SECSSNUM21": "00208",
    "OBJECTID_1": 127006,
    "DT": "13",
    "CC": "02",
    "fr": "25",
    "SEC": "002",
    "SS": "08"
  },
  "addresses": [
    {
      "id": "pt.ine.add.PTCONT.3572359",
      "street": "R MIRÃO",
      "house": "1777",
      "postcode": "4640-215",
      "city": "SÃO TOMÉ DE COVELAS",
      "lon": "-7.986538508748384",
      "lat": "41.11619133438771"
    },
    {
      "id": "pt.ine.add.PTCONT.3604637",
      "street": "R MIRÃO",
      "house": "869",
      "postcode": "4640-215",
      "city": "SÃO TOMÉ DE COVELAS",
      "lon": "-7.982814532517711",
      "lat": "41.12019351525277"
    },
    {
      "id": "pt.ine.add.PTCONT.3623784",
      "street": "R S TOMÉ DE COVELAS",
      "house": "1205",
      "postcode": "4640-209",
      "city": "SÃO TOMÉ DE COVELAS",
      "lon": "-7.975630377398963",
      "lat": "41.12687421643608"
    },
    {
      "id": "pt.ine.add.PTCONT.3667233",
      "street": "R AUTARQUIA",
      "house": "281",
      "postcode": "4640-218",
      "city": "SÃO TOMÉ DE COVELAS",
      "lon": "-7.981950144949577",
      "lat": "41.12327190311846"
    },
    {
      "id": "pt.ine.add.PTCONT.3683938",
      "street": "R BARREIROS",
      "house": "",
      "postcode": "4640-215",
      "city": "SÃO TOMÉ DE COVELAS",
      "lon": "-7.978914666461673",
      "lat": "41.12283566739482"
    },
    {
      "id": "pt.ine.add.PTCONT.3714573",
      "street": "R LAGOINHAS",
      "house": "60",
      "postcode": "4640-208",
      "city": "SÃO TOMÉ DE COVELAS",
      "lon": "-7.97158685417049",
      "lat": "41.12954293398193"
    },
    {
      "id": "pt.ine.add.PTCONT.3727779",
      "street": "R MIRÃO",
      "house": "",
      "postcode": "4640-215",
      "city": "SÃO TOMÉ DE COVELAS",
      "lon": "-7.979664412722259",
      "lat": "41.12302576162188"
    },
    {
      "id": "pt.ine.add.PTCONT.3742033",
      "street": "R LAGOINHAS",
      "house": "37",
      "postcode": "4640-208",
      "city": "SÃO TOMÉ DE COVELAS",
      "lon": "-7.9714668808697855",
      "lat": "41.12990294281497"
    },
    {
      "id": "pt.ine.add.PTCONT.3751461",
      "street": "TV AUTARQUIA",
      "house": "53",
      "postcode": "4640-218",
      "city": "SÃO TOMÉ DE COVELAS",
      "lon": "-7.982686537325936",
      "lat": "41.1241012752132"
    },
    {
      "id": "pt.ine.add.PTCONT.3759779",
      "street": "R MIRÃO",
      "house": "",
      "postcode": "4640-215",
      "city": "SÃO TOMÉ DE COVELAS",
      "lon": "-7.985870535935313",
      "lat": "41.116730749622974"
    },
    {
      "id": "pt.ine.add.PTCONT.3766026",
      "street": "CAM ALVITES",
      "house": "544",
      "postcode": "4640-215",
      "city": "SÃO TOMÉ DE COVELAS",
      "lon": "-7.968994615102569",
      "lat": "41.12319114535242"
    },
    {
      "id": "pt.ine.add.PTCONT.3776502",
      "street": "EN 108",
      "house": "67",
      "postcode": "4640-207",
      "city": "SÃO TOMÉ DE COVELAS",
      "lon": "-7.96929241055914",
      "lat": "41.13272726076254"
    },
    {
      "id": "pt.ine.add.PTCONT.3788890",
      "street": "R MIRÃO",
      "house": "",
      "postcode": "4640-215",
      "city": "SÃO TOMÉ DE COVELAS",
      "lon": "-7.98432356929467",
      "lat": "41.11633256649144"
    },
    {
      "id": "pt.ine.add.PTCONT.3793335",
      "street": "R S TOMÉ DE COVELAS",
      "house": "1775",
      "postcode": "4640-209",
      "city": "SÃO TOMÉ DE COVELAS",
      "lon": "-7.98138707697078",
      "lat": "41.12474789065735"
    },
    {
      "id": "pt.ine.add.PTCONT.3805707",
      "street": "R AUTARQUIA",
      "house": "16",
      "postcode": "4640-218",
      "city": "SÃO TOMÉ DE COVELAS",
      "lon": "-7.981592786522714",
      "lat": "41.12332546032289"
    },
    {
      "id": "pt.ine.add.PTCONT.3845623",
      "street": "R PIOVIDIO",
      "house": "",
      "postcode": "4640-215",
      "city": "SÃO TOMÉ DE COVELAS",
      "lon": "-7.976914851946696",
      "lat": "41.122544831458114"
    },
    {
      "id": "pt.ine.add.PTCONT.3856290",
      "street": "R ESTIVADA",
      "house": "",
      "postcode": "4640-215",
      "city": "SÃO TOMÉ DE COVELAS",
      "lon": "-7.9808453373255634",
      "lat": "41.11698534693533"
    },
    {
      "id": "pt.ine.add.PTCONT.3882373",
      "street": "R AUTARQUIA",
      "house": "36",
      "postcode": "4640-218",
      "city": "SÃO TOMÉ DE COVELAS",
      "lon": "-7.981723544874567",
      "lat": "41.12342468103468"
    },
    {
      "id": "pt.ine.add.PTCONT.3928470",
      "street": "R MIRÃO",
      "house": "245",
      "postcode": "4640-215",
      "city": "SÃO TOMÉ DE COVELAS",
      "lon": "-7.982271099034721",
      "lat": "41.123515443607346"
    },
    {
      "id": "pt.ine.add.PTCONT.3928529",
      "street": "R MIRÃO",
      "house": "2259",
      "postcode": "4640-215",
      "city": "SÃO TOMÉ DE COVELAS",
      "lon": "-7.980609975617321",
      "lat": "41.11578744392291"
    },
    {
      "id": "pt.ine.add.PTCONT.3943546",
      "street": "R ALVITES",
      "house": "116",
      "postcode": "4640-215",
      "city": "SÃO TOMÉ DE COVELAS",
      "lon": "-7.9705091261932415",
      "lat": "41.12229284897285"
    },
    {
      "id": "pt.ine.add.PTCONT.3956455",
      "street": "TV AUTARQUIA",
      "house": "16",
      "postcode": "4640-218",
      "city": "SÃO TOMÉ DE COVELAS",
      "lon": "-7.982245881095975",
      "lat": "41.124127712334534"
    },
    {
      "id": "pt.ine.add.PTCONT.3960586",
      "street": "R MIRÃO",
      "house": "",
      "postcode": "4640-215",
      "city": "SÃO TOMÉ DE COVELAS",
      "lon": "-7.983750850562765",
      "lat": "41.116863087939805"
    },
    {
      "id": "pt.ine.add.PTCONT.3980623",
      "street": "R PIOVIDIO",
      "house": "",
      "postcode": "4640-215",
      "city": "SÃO TOMÉ DE COVELAS",
      "lon": "-7.972512053416109",
      "lat": "41.126176570405875"
    },
    {
      "id": "pt.ine.add.PTCONT.4024385",
      "street": "R MIRÃO",
      "house": "",
      "postcode": "4640-215",
      "city": "SÃO TOMÉ DE COVELAS",
      "lon": "-7.980476330965884",
      "lat": "41.12208137401188"
    },
    {
      "id": "pt.ine.add.PTCONT.4048749",
      "street": "R AUTARQUIA",
      "house": "57",
      "postcode": "4640-218",
      "city": "SÃO TOMÉ DE COVELAS",
      "lon": "-7.98217600128061",
      "lat": "41.123443283556355"
    },
    {
      "id": "pt.ine.add.PTCONT.4056991",
      "street": "R SILVA ROSA",
      "house": "267",
      "postcode": "4640-215",
      "city": "SÃO TOMÉ DE COVELAS",
      "lon": "-7.969056867809579",
      "lat": "41.126883052269484"
    },
    {
      "id": "pt.ine.add.PTCONT.4109755",
      "street": "R PIOVIDIO",
      "house": "",
      "postcode": "4640-215",
      "city": "SÃO TOMÉ DE COVELAS",
      "lon": "-7.974885292613642",
      "lat": "41.12473014027834"
    },
    {
      "id": "pt.ine.add.PTCONT.4128922",
      "street": "R PIOVIDIO",
      "house": "",
      "postcode": "4640-215",
      "city": "SÃO TOMÉ DE COVELAS",
      "lon": "-7.972333230733667",
      "lat": "41.12625736088859"
    },
    {
      "id": "pt.ine.add.PTCONT.4128925",
      "street": "R MIRÃO",
      "house": "849",
      "postcode": "4640-215",
      "city": "SÃO TOMÉ DE COVELAS",
      "lon": "-7.982290160060456",
      "lat": "41.12039092774838"
    },
    {
      "id": "pt.ine.add.PTCONT.4140807",
      "street": "",
      "house": "",
      "postcode": "4640-209",
      "city": "SÃO TOMÉ DE COVELAS",
      "lon": "-7.973034269155639",
      "lat": "41.126897651797286"
    },
    {
      "id": "pt.ine.add.PTCONT.4142652",
      "street": "R LAGOINHAS",
      "house": "18",
      "postcode": "4640-208",
      "city": "SÃO TOMÉ DE COVELAS",
      "lon": "-7.972074614084172",
      "lat": "41.129750718646136"
    },
    {
      "id": "pt.ine.add.PTCONT.4169748",
      "street": "R AUTARQUIA",
      "house": "104",
      "postcode": "4640-218",
      "city": "SÃO TOMÉ DE COVELAS",
      "lon": "-7.981556275898592",
      "lat": "41.12366758094132"
    },
    {
      "id": "pt.ine.add.PTCONT.4169751",
      "street": "",
      "house": "",
      "postcode": "4640-209",
      "city": "SÃO TOMÉ DE COVELAS",
      "lon": "-7.973236472504001",
      "lat": "41.126996981325476"
    },
    {
      "id": "pt.ine.add.PTCONT.4194598",
      "street": "R CEMITÉRIO",
      "house": "292",
      "postcode": "4640-215",
      "city": "SÃO TOMÉ DE COVELAS",
      "lon": "-7.97988727591826",
      "lat": "41.11936125056959"
    },
    {
      "id": "pt.ine.add.PTCONT.4204643",
      "street": "R MIRÃO",
      "house": "867",
      "postcode": "4640-215",
      "city": "SÃO TOMÉ DE COVELAS",
      "lon": "-7.982481129528529",
      "lat": "41.12019307983795"
    },
    {
      "id": "pt.ine.add.PTCONT.4227147",
      "street": "R MIRÃO",
      "house": "",
      "postcode": "4640-215",
      "city": "SÃO TOMÉ DE COVELAS",
      "lon": "-7.98054837944536",
      "lat": "41.11667880285132"
    },
    {
      "id": "pt.ine.add.PTCONT.4253549",
      "street": "R MIRÃO",
      "house": "",
      "postcode": "4640-215",
      "city": "SÃO TOMÉ DE COVELAS",
      "lon": "-7.98475015754948",
      "lat": "41.11724256590949"
    },
    {
      "id": "pt.ine.add.PTCONT.4253559",
      "street": "R MIRÃO",
      "house": "",
      "postcode": "4640-215",
      "city": "SÃO TOMÉ DE COVELAS",
      "lon": "-7.980276114609701",
      "lat": "41.11599410387447"
    },
    {
      "id": "pt.ine.add.PTCONT.4295916",
      "street": "R MIRÃO",
      "house": "219",
      "postcode": "4640-215",
      "city": "SÃO TOMÉ DE COVELAS",
      "lon": "-7.982401838187005",
      "lat": "41.12362366795921"
    },
    {
      "id": "pt.ine.add.PTCONT.4327581",
      "street": "TV AUTARQUIA",
      "house": "17",
      "postcode": "4640-218",
      "city": "SÃO TOMÉ DE COVELAS",
      "lon": "-7.982389106253047",
      "lat": "41.1239838288031"
    },
    {
      "id": "pt.ine.add.PTCONT.4333639",
      "street": "R AUTARQUIA",
      "house": "62",
      "postcode": "4640-218",
      "city": "SÃO TOMÉ DE COVELAS",
      "lon": "-7.981901997029206",
      "lat": "41.123496950889084"
    },
    {
      "id": "pt.ine.add.PTCONT.4346207",
      "street": "R CEMITÉRIO",
      "house": "",
      "postcode": "4640-215",
      "city": "SÃO TOMÉ DE COVELAS",
      "lon": "-7.984500969429797",
      "lat": "41.11686405793506"
    },
    {
      "id": "pt.ine.add.PTCONT.4359237",
      "street": "R ESTIVADA",
      "house": "",
      "postcode": "4640-215",
      "city": "SÃO TOMÉ DE COVELAS",
      "lon": "-7.979331236078253",
      "lat": "41.11782074955724"
    },
    {
      "id": "pt.ine.add.PTCONT.4365662",
      "street": "R MIRÃO",
      "house": "537",
      "postcode": "4640-215",
      "city": "SÃO TOMÉ DE COVELAS",
      "lon": "-7.980653298624271",
      "lat": "41.12279295905134"
    },
    {
      "id": "pt.ine.add.PTCONT.4386227",
      "street": "R MIRÃO",
      "house": "187",
      "postcode": "4640-215",
      "city": "SÃO TOMÉ DE COVELAS",
      "lon": "-7.98248492562376",
      "lat": "41.12374083430813"
    }
  ]
}