{
  "data": {
    "distrito": "Setúbal",
    "concelho": "Almada",
    "freguesia": "União das freguesias de Charneca de Caparica e Sobreda",
    "OBJECTID": 226,
    "BGRI2021": "15031401107",
    "DT21": "15",
    "DTMN21": "1503",
    "DTMNFR21": "150314",
    "DTMNFRSEC21": "150314011",
    "SECNUM21": "011",
    "SSNUM21": "07",
    "SECSSNUM21": "01107",
    "OBJECTID_1": 161877,
    "DT": "15",
    "CC": "03",
    "fr": "14",
    "SEC": "011",
    "SS": "07"
  },
  "addresses": [
    {
      "id": "pt.ine.add.PTCONT.4670972",
      "street": "R GUILHERME DE AZEVEDO",
      "house": "",
      "postcode": "2820-439",
      "city": "CHARNECA DA CAPARICA",
      "lon": "-9.194777726499163",
      "lat": "38.62598222581805"
    },
    {
      "id": "pt.ine.add.PTCONT.4670973",
      "street": "R AMOREIRA",
      "house": "",
      "postcode": "2820-213",
      "city": "CHARNECA DA CAPARICA",
      "lon": "-9.194946288804031",
      "lat": "38.62495378557749"
    },
    {
      "id": "pt.ine.add.PTCONT.4681669",
      "street": "R AMOREIRA",
      "house": "6",
      "postcode": "2820-213",
      "city": "CHARNECA DA CAPARICA",
      "lon": "-9.19484029907614",
      "lat": "38.62477458774247"
    },
    {
      "id": "pt.ine.add.PTCONT.4686437",
      "street": "R GUILHERME DE AZEVEDO",
      "house": "",
      "postcode": "2820-439",
      "city": "CHARNECA DA CAPARICA",
      "lon": "-9.194352507613008",
      "lat": "38.62595905979936"
    },
    {
      "id": "pt.ine.add.PTCONT.4689173",
      "street": "R OLIVEIRA FEIJÃO",
      "house": "",
      "postcode": "2820-656",
      "city": "CHARNECA DA CAPARICA",
      "lon": "-9.196076392974087",
      "lat": "38.6252768187688"
    },
    {
      "id": "pt.ine.add.PTCONT.4695005",
      "street": "R AMOREIRA",
      "house": "2",
      "postcode": "2820-213",
      "city": "CHARNECA DA CAPARICA",
      "lon": "-9.195414636964701",
      "lat": "38.62478739013314"
    },
    {
      "id": "pt.ine.add.PTCONT.4703655",
      "street": "R AMOREIRA",
      "house": "1 A",
      "postcode": "2820-213",
      "city": "CHARNECA DA CAPARICA",
      "lon": "-9.195692052611054",
      "lat": "38.624910982685755"
    },
    {
      "id": "pt.ine.add.PTCONT.4752911",
      "street": "R GUILHERME DE AZEVEDO",
      "house": "",
      "postcode": "2820-439",
      "city": "CHARNECA DA CAPARICA",
      "lon": "-9.194155328676143",
      "lat": "38.62582572844848"
    },
    {
      "id": "pt.ine.add.PTCONT.4752912",
      "street": "R OLIVEIRA FEIJAO MF",
      "house": "MF ANEXO A",
      "postcode": "2820-205",
      "city": "CHARNECA DA CAPARICA",
      "lon": "-9.19595453066214",
      "lat": "38.6248005026201"
    },
    {
      "id": "pt.ine.add.PTCONT.4752913",
      "street": "R OLIVEIRA FEIJAO",
      "house": "",
      "postcode": "2820-205",
      "city": "CHARNECA DA CAPARICA",
      "lon": "-9.19595453066214",
      "lat": "38.6248005026201"
    },
    {
      "id": "pt.ine.add.PTCONT.4752914",
      "street": "R OLIVEIRA FEIJAO MF",
      "house": "MF",
      "postcode": "2820-205",
      "city": "CHARNECA DA CAPARICA",
      "lon": "-9.19595453066214",
      "lat": "38.6248005026201"
    },
    {
      "id": "pt.ine.add.PTCONT.4752915",
      "street": "R OLIVEIRA FEIJÃO",
      "house": "4",
      "postcode": "2820-656",
      "city": "CHARNECA DA CAPARICA",
      "lon": "-9.195126139412006",
      "lat": "38.624690921475036"
    },
    {
      "id": "pt.ine.add.PTCONT.4752916",
      "street": "R OLIVEIRA FEIJÃO",
      "house": "4",
      "postcode": "2820-656",
      "city": "CHARNECA DA CAPARICA",
      "lon": "-9.195126139412006",
      "lat": "38.624690921475036"
    },
    {
      "id": "pt.ine.add.PTCONT.4762080",
      "street": "R AZINHAL ABELHO",
      "house": "3",
      "postcode": "2820-437",
      "city": "CHARNECA DA CAPARICA",
      "lon": "-9.194919358473738",
      "lat": "38.62624217205632"
    },
    {
      "id": "pt.ine.add.PTCONT.4765951",
      "street": "R OLIVEIRA FEIJÃO",
      "house": "",
      "postcode": "2820-656",
      "city": "CHARNECA DA CAPARICA",
      "lon": "-9.195755092112393",
      "lat": "38.62451405868149"
    },
    {
      "id": "pt.ine.add.PTCONT.4799611",
      "street": "R AMOREIRA",
      "house": "",
      "postcode": "2820-213",
      "city": "CHARNECA DA CAPARICA",
      "lon": "-9.194454975443806",
      "lat": "38.625120387491705"
    },
    {
      "id": "pt.ine.add.PTCONT.4811961",
      "street": "R AMOREIRA",
      "house": "",
      "postcode": "2820-213",
      "city": "CHARNECA DA CAPARICA",
      "lon": "-9.195281643291247",
      "lat": "38.62511288517997"
    },
    {
      "id": "pt.ine.add.PTCONT.4818859",
      "street": "R OLIVEIRA FEIJÃO",
      "house": "",
      "postcode": "2820-656",
      "city": "CHARNECA DA CAPARICA",
      "lon": "-9.19589255570626",
      "lat": "38.62526948092903"
    },
    {
      "id": "pt.ine.add.PTCONT.4852840",
      "street": "R VALE DO ROSAL QTA VALE DA MURTA",
      "house": "",
      "postcode": "2820-236",
      "city": "CHARNECA DA CAPARICA",
      "lon": "-9.193368668283266",
      "lat": "38.62621119572352"
    },
    {
      "id": "pt.ine.add.PTCONT.4859746",
      "street": "R AMOREIRA",
      "house": "",
      "postcode": "2820-213",
      "city": "CHARNECA DA CAPARICA",
      "lon": "-9.195298493721275",
      "lat": "38.624698364782766"
    },
    {
      "id": "pt.ine.add.PTCONT.4870639",
      "street": "R AMOREIRA",
      "house": "3",
      "postcode": "2820-213",
      "city": "CHARNECA DA CAPARICA",
      "lon": "-9.195220648260156",
      "lat": "38.62487022327857"
    },
    {
      "id": "pt.ine.add.PTCONT.4875741",
      "street": "R OLIVEIRA FEIJÃO",
      "house": "1056",
      "postcode": "2820-656",
      "city": "CHARNECA DA CAPARICA",
      "lon": "-9.195251825082797",
      "lat": "38.62387005356529"
    },
    {
      "id": "pt.ine.add.PTCONT.4886815",
      "street": "R AMOREIRA",
      "house": "",
      "postcode": "2820-213",
      "city": "CHARNECA DA CAPARICA",
      "lon": "-9.194314143982744",
      "lat": "38.624914481288904"
    },
    {
      "id": "pt.ine.add.PTCONT.4889875",
      "street": "R AZINHAL ABELHO",
      "house": "5",
      "postcode": "2820-437",
      "city": "CHARNECA DA CAPARICA",
      "lon": "-9.194769432558038",
      "lat": "38.62619849274181"
    },
    {
      "id": "pt.ine.add.PTCONT.4895099",
      "street": "R AMOREIRA",
      "house": "",
      "postcode": "2820-213",
      "city": "CHARNECA DA CAPARICA",
      "lon": "-9.194553794122209",
      "lat": "38.62481321940439"
    },
    {
      "id": "pt.ine.add.PTCONT.4938510",
      "street": "R VALE DO ROSAL CASA SILVA",
      "house": "",
      "postcode": "2820-236",
      "city": "CHARNECA DA CAPARICA",
      "lon": "-9.192994281270305",
      "lat": "38.62652085959436"
    },
    {
      "id": "pt.ine.add.PTCONT.4939739",
      "street": "R VALE DO ROSAL",
      "house": "24",
      "postcode": "2820-441",
      "city": "CHARNECA DA CAPARICA",
      "lon": "-9.194991038376111",
      "lat": "38.626430689167435"
    },
    {
      "id": "pt.ine.add.PTCONT.4943228",
      "street": "R AMOREIRA",
      "house": "",
      "postcode": "2820-213",
      "city": "CHARNECA DA CAPARICA",
      "lon": "-9.194763780584157",
      "lat": "38.62503651377025"
    },
    {
      "id": "pt.ine.add.PTCONT.4950332",
      "street": "R AZINHAL ABELHO",
      "house": "11",
      "postcode": "2820-437",
      "city": "CHARNECA DA CAPARICA",
      "lon": "-9.194298551244385",
      "lat": "38.62619375686538"
    },
    {
      "id": "pt.ine.add.PTCONT.4961466",
      "street": "R AZINHAL ABELHO",
      "house": "7",
      "postcode": "2820-437",
      "city": "CHARNECA DA CAPARICA",
      "lon": "-9.194631386896488",
      "lat": "38.62618172939735"
    },
    {
      "id": "pt.ine.add.PTCONT.4961495",
      "street": "R VALE DO ROSAL QTA VALE DA MURTA",
      "house": "",
      "postcode": "2820-236",
      "city": "CHARNECA DA CAPARICA",
      "lon": "-9.193155555951462",
      "lat": "38.626555430369436"
    },
    {
      "id": "pt.ine.add.PTCONT.4967756",
      "street": "R AMOREIRA",
      "house": "1 A",
      "postcode": "2820-213",
      "city": "CHARNECA DA CAPARICA",
      "lon": "-9.19585199537014",
      "lat": "38.62485548199211"
    },
    {
      "id": "pt.ine.add.PTCONT.4997842",
      "street": "R OLIVEIRA FEIJÃO",
      "house": "",
      "postcode": "2820-656",
      "city": "CHARNECA DA CAPARICA",
      "lon": "-9.19582610763397",
      "lat": "38.62465754143067"
    },
    {
      "id": "pt.ine.add.PTCONT.5001447",
      "street": "R GUILHERME DE AZEVEDO",
      "house": "",
      "postcode": "2820-439",
      "city": "CHARNECA DA CAPARICA",
      "lon": "-9.19461459317295",
      "lat": "38.62582156233086"
    },
    {
      "id": "pt.ine.add.PTCONT.5008321",
      "street": "R AZINHAL ABELHO",
      "house": "17",
      "postcode": "2820-437",
      "city": "CHARNECA DA CAPARICA",
      "lon": "-9.193748890563576",
      "lat": "38.62629782915775"
    },
    {
      "id": "pt.ine.add.PTCONT.5012393",
      "street": "R AMOREIRA",
      "house": "5",
      "postcode": "2820-213",
      "city": "CHARNECA DA CAPARICA",
      "lon": "-9.194998116734808",
      "lat": "38.62457497969392"
    },
    {
      "id": "pt.ine.add.PTCONT.5027339",
      "street": "R AZINHAL ABELHO",
      "house": "9",
      "postcode": "2820-437",
      "city": "CHARNECA DA CAPARICA",
      "lon": "-9.19441403184365",
      "lat": "38.626237749262906"
    },
    {
      "id": "pt.ine.add.PTCONT.5027340",
      "street": "R AZINHAL ABELHO",
      "house": "9",
      "postcode": "2820-437",
      "city": "CHARNECA DA CAPARICA",
      "lon": "-9.19441403184365",
      "lat": "38.626237749262906"
    },
    {
      "id": "pt.ine.add.PTCONT.5073364",
      "street": "R AMOREIRA",
      "house": "",
      "postcode": "2820-213",
      "city": "CHARNECA DA CAPARICA",
      "lon": "-9.195574579674082",
      "lat": "38.62473188981851"
    },
    {
      "id": "pt.ine.add.PTCONT.5087934",
      "street": "R AMOREIRA",
      "house": "1 A",
      "postcode": "2820-213",
      "city": "CHARNECA DA CAPARICA",
      "lon": "-9.195464151088842",
      "lat": "38.625030156186064"
    },
    {
      "id": "pt.ine.add.PTCONT.5092394",
      "street": "R AZINHAL ABELHO",
      "house": "13",
      "postcode": "2820-437",
      "city": "CHARNECA DA CAPARICA",
      "lon": "-9.194046883568534",
      "lat": "38.626259095266185"
    }
  ]
}