{
  "data": {
    "distrito": "Setúbal",
    "concelho": "Almada",
    "freguesia": "União das freguesias de Charneca de Caparica e Sobreda",
    "OBJECTID": 362,
    "BGRI2021": "15031401110",
    "DT21": "15",
    "DTMN21": "1503",
    "DTMNFR21": "150314",
    "DTMNFRSEC21": "150314011",
    "SECNUM21": "011",
    "SSNUM21": "10",
    "SECSSNUM21": "01110",
    "OBJECTID_1": 162318,
    "DT": "15",
    "CC": "03",
    "fr": "14",
    "SEC": "011",
    "SS": "10"
  },
  "addresses": [
    {
      "id": "pt.ine.add.PTCONT.4769485",
      "street": "ESTR BELA VISTA MJR",
      "house": "",
      "postcode": "2820-172",
      "city": "CHARNECA DA CAPARICA",
      "lon": "-9.197060038631895",
      "lat": "38.62889809460414"
    },
    {
      "id": "pt.ine.add.PTCONT.4769491",
      "street": "ESTR BELA VISTA MJR",
      "house": "",
      "postcode": "2820-172",
      "city": "CHARNECA DA CAPARICA",
      "lon": "-9.197060038631895",
      "lat": "38.62889809460414"
    },
    {
      "id": "pt.ine.add.PTCONT.4769492",
      "street": "ESTR BELA VISTA MRJ",
      "house": "MRJ",
      "postcode": "2820-172",
      "city": "CHARNECA DA CAPARICA",
      "lon": "-9.197060038631895",
      "lat": "38.62889809460414"
    },
    {
      "id": "pt.ine.add.PTCONT.4769493",
      "street": "ESTR BELA VISTA MJR",
      "house": "",
      "postcode": "2820-172",
      "city": "CHARNECA DA CAPARICA",
      "lon": "-9.197060038631895",
      "lat": "38.62889809460414"
    },
    {
      "id": "pt.ine.add.PTCONT.4769494",
      "street": "ESTR BELA VISTA MJR",
      "house": "",
      "postcode": "2820-172",
      "city": "CHARNECA DA CAPARICA",
      "lon": "-9.197060038631895",
      "lat": "38.62889809460414"
    },
    {
      "id": "pt.ine.add.PTCONT.4771891",
      "street": "ESTR BELA VISTA MJR",
      "house": "",
      "postcode": "2820-172",
      "city": "CHARNECA DA CAPARICA",
      "lon": "-9.197060038631895",
      "lat": "38.62889809460414"
    },
    {
      "id": "pt.ine.add.PTCONT.4854087",
      "street": "R ISIDORO CALDEIRÃO",
      "house": "",
      "postcode": "2820-227",
      "city": "CHARNECA DA CAPARICA",
      "lon": "-9.196072711432675",
      "lat": "38.628916077536736"
    },
    {
      "id": "pt.ine.add.PTCONT.4872918",
      "street": "R ALEXANDRE CABRAL",
      "house": "23",
      "postcode": "2820-508",
      "city": "CHARNECA DA CAPARICA",
      "lon": "-9.196267774090524",
      "lat": "38.62890529706785"
    },
    {
      "id": "pt.ine.add.PTCONT.4935602",
      "street": "R ISIDORO CALDEIRÃO",
      "house": "3",
      "postcode": "2820-227",
      "city": "CHARNECA DA CAPARICA",
      "lon": "-9.196772853209751",
      "lat": "38.62889169804173"
    }
  ]
}