{
  "data": {
    "distrito": "Braga",
    "concelho": "Braga",
    "freguesia": "União das freguesias de Ferreiros e Gondizalves",
    "OBJECTID": 1102,
    "BGRI2021": "03037100409",
    "DT21": "03",
    "DTMN21": "0303",
    "DTMNFR21": "030371",
    "DTMNFRSEC21": "030371004",
    "SECNUM21": "004",
    "SSNUM21": "09",
    "SECSSNUM21": "00409",
    "OBJECTID_1": 21816,
    "DT": "03",
    "CC": "03",
    "fr": "71",
    "SEC": "004",
    "SS": "09"
  },
  "addresses": [
    {
      "id": "pt.ine.add.PTCONT.470832",
      "street": "PCT AMANDIO FERREIRA PINTO",
      "house": "16",
      "postcode": "4705-127",
      "city": "BRAGA",
      "lon": "-8.442974568406655",
      "lat": "41.53430680956472"
    },
    {
      "id": "pt.ine.add.PTCONT.470833",
      "street": "R PADRE PORFIRIO ALVES",
      "house": "48",
      "postcode": "4705-127",
      "city": "BRAGA",
      "lon": "-8.442974568406655",
      "lat": "41.53430680956472"
    },
    {
      "id": "pt.ine.add.PTCONT.524880",
      "street": "R SEBASTIÃO LOPES",
      "house": "5",
      "postcode": "4705-128",
      "city": "BRAGA",
      "lon": "-8.443166765340825",
      "lat": "41.53440533312322"
    },
    {
      "id": "pt.ine.add.PTCONT.556287",
      "street": "R PADRE PORFIRIO ALVES",
      "house": "14",
      "postcode": "4705-127",
      "city": "BRAGA",
      "lon": "-8.44170572364898",
      "lat": "41.534589338673925"
    },
    {
      "id": "pt.ine.add.PTCONT.556288",
      "street": "R PADRE PORFIRIO ALVES",
      "house": "14",
      "postcode": "4705-127",
      "city": "BRAGA",
      "lon": "-8.44170572364898",
      "lat": "41.534589338673925"
    },
    {
      "id": "pt.ine.add.PTCONT.556289",
      "street": "R PADRE PORFIRIO ALVES",
      "house": "14",
      "postcode": "4705-127",
      "city": "BRAGA",
      "lon": "-8.44170572364898",
      "lat": "41.534589338673925"
    },
    {
      "id": "pt.ine.add.PTCONT.556290",
      "street": "R PADRE PORFIRIO ALVES",
      "house": "14",
      "postcode": "4705-127",
      "city": "BRAGA",
      "lon": "-8.44170572364898",
      "lat": "41.534589338673925"
    },
    {
      "id": "pt.ine.add.PTCONT.556291",
      "street": "R PADRE PORFIRIO ALVES",
      "house": "14",
      "postcode": "4705-127",
      "city": "BRAGA",
      "lon": "-8.44170572364898",
      "lat": "41.534589338673925"
    },
    {
      "id": "pt.ine.add.PTCONT.556292",
      "street": "R PADRE PORFIRIO ALVES",
      "house": "14",
      "postcode": "4705-127",
      "city": "BRAGA",
      "lon": "-8.44170572364898",
      "lat": "41.534589338673925"
    },
    {
      "id": "pt.ine.add.PTCONT.556293",
      "street": "R SEBASTIÃO LOPES",
      "house": "6",
      "postcode": "4705-128",
      "city": "BRAGA",
      "lon": "-8.443154997553444",
      "lat": "41.53445038375565"
    },
    {
      "id": "pt.ine.add.PTCONT.567713",
      "street": "R PADRE PORFIRIO ALVES",
      "house": "1",
      "postcode": "4705-127",
      "city": "BRAGA",
      "lon": "-8.44278305915676",
      "lat": "41.53435234433175"
    },
    {
      "id": "pt.ine.add.PTCONT.581130",
      "street": "R PADRE PORFIRIO ALVES",
      "house": "36",
      "postcode": "4705-127",
      "city": "BRAGA",
      "lon": "-8.442520554108327",
      "lat": "41.53458714921985"
    },
    {
      "id": "pt.ine.add.PTCONT.581131",
      "street": "R PADRE PORFIRIO ALVES",
      "house": "127",
      "postcode": "4705-127",
      "city": "BRAGA",
      "lon": "-8.442520554108327",
      "lat": "41.53458714921985"
    },
    {
      "id": "pt.ine.add.PTCONT.581132",
      "street": "R PADRE PORFIRIO ALVES",
      "house": "36",
      "postcode": "4705-127",
      "city": "BRAGA",
      "lon": "-8.442520554108327",
      "lat": "41.53458714921985"
    },
    {
      "id": "pt.ine.add.PTCONT.581133",
      "street": "R PADRE PORFIRIO ALVES",
      "house": "36",
      "postcode": "4705-127",
      "city": "BRAGA",
      "lon": "-8.442520554108327",
      "lat": "41.53458714921985"
    },
    {
      "id": "pt.ine.add.PTCONT.581134",
      "street": "R PADRE PORFIRIO ALVES",
      "house": "36",
      "postcode": "4705-127",
      "city": "BRAGA",
      "lon": "-8.442520554108327",
      "lat": "41.53458714921985"
    },
    {
      "id": "pt.ine.add.PTCONT.581135",
      "street": "R PADRE PORFIRIO ALVES",
      "house": "36",
      "postcode": "4705-127",
      "city": "BRAGA",
      "lon": "-8.442520554108327",
      "lat": "41.53458714921985"
    },
    {
      "id": "pt.ine.add.PTCONT.631090",
      "street": "R PADRE PORFIRIO ALVES",
      "house": "2",
      "postcode": "4705-127",
      "city": "BRAGA",
      "lon": "-8.442866895496673",
      "lat": "41.5343431147631"
    },
    {
      "id": "pt.ine.add.PTCONT.633431",
      "street": "R FR JOSÉ VILAÇA",
      "house": "10",
      "postcode": "4705-265",
      "city": "BRAGA",
      "lon": "-8.443167668288918",
      "lat": "41.53459441008784"
    },
    {
      "id": "pt.ine.add.PTCONT.636017",
      "street": "R SEBASTIÃO LOPES",
      "house": "7",
      "postcode": "4705-128",
      "city": "BRAGA",
      "lon": "-8.443167281310108",
      "lat": "41.53451337710377"
    },
    {
      "id": "pt.ine.add.PTCONT.645051",
      "street": "R PADRE PORFIRIO ALVES",
      "house": "28",
      "postcode": "4705-127",
      "city": "BRAGA",
      "lon": "-8.442161070093253",
      "lat": "41.53458811586715"
    },
    {
      "id": "pt.ine.add.PTCONT.645052",
      "street": "R PADRE PORFIRIO ALVES",
      "house": "28",
      "postcode": "4705-127",
      "city": "BRAGA",
      "lon": "-8.442161070093253",
      "lat": "41.53458811586715"
    },
    {
      "id": "pt.ine.add.PTCONT.645053",
      "street": "R PADRE PORFIRIO ALVES",
      "house": "28",
      "postcode": "4705-127",
      "city": "BRAGA",
      "lon": "-8.442161070093253",
      "lat": "41.53458811586715"
    },
    {
      "id": "pt.ine.add.PTCONT.645054",
      "street": "R PADRE PORFIRIO ALVES",
      "house": "28",
      "postcode": "4705-127",
      "city": "BRAGA",
      "lon": "-8.442161070093253",
      "lat": "41.53458811586715"
    },
    {
      "id": "pt.ine.add.PTCONT.645055",
      "street": "R PADRE PORFIRIO ALVES",
      "house": "28",
      "postcode": "4705-127",
      "city": "BRAGA",
      "lon": "-8.442161070093253",
      "lat": "41.53458811586715"
    },
    {
      "id": "pt.ine.add.PTCONT.645056",
      "street": "R PADRE PORFIRIO ALVES",
      "house": "28",
      "postcode": "4705-127",
      "city": "BRAGA",
      "lon": "-8.442161070093253",
      "lat": "41.53458811586715"
    },
    {
      "id": "pt.ine.add.PTCONT.653673",
      "street": "R FR JOSE VILACA",
      "house": "9",
      "postcode": "4705-265",
      "city": "BRAGA",
      "lon": "-8.443108012221495",
      "lat": "41.53464859359996"
    },
    {
      "id": "pt.ine.add.PTCONT.658238",
      "street": "R FR JOSE VILACA",
      "house": "",
      "postcode": "4705-265",
      "city": "BRAGA",
      "lon": "-8.442988012220125",
      "lat": "41.53461290189338"
    },
    {
      "id": "pt.ine.add.PTCONT.732502",
      "street": "R PADRE PORFIRIO ALVES",
      "house": "24",
      "postcode": "4705-127",
      "city": "BRAGA",
      "lon": "-8.441969388109595",
      "lat": "41.534597634618784"
    },
    {
      "id": "pt.ine.add.PTCONT.732651",
      "street": "R PADRE PORFIRIO ALVES",
      "house": "24",
      "postcode": "4705-127",
      "city": "BRAGA",
      "lon": "-8.441969388109595",
      "lat": "41.534597634618784"
    },
    {
      "id": "pt.ine.add.PTCONT.732652",
      "street": "R PADRE PORFIRIO ALVES",
      "house": "24",
      "postcode": "4705-127",
      "city": "BRAGA",
      "lon": "-8.441969388109595",
      "lat": "41.534597634618784"
    },
    {
      "id": "pt.ine.add.PTCONT.732653",
      "street": "R PADRE PORFIRIO ALVES",
      "house": "24",
      "postcode": "4705-127",
      "city": "BRAGA",
      "lon": "-8.441969388109595",
      "lat": "41.534597634618784"
    },
    {
      "id": "pt.ine.add.PTCONT.732654",
      "street": "R PADRE PORFIRIO ALVES",
      "house": "24",
      "postcode": "4705-127",
      "city": "BRAGA",
      "lon": "-8.441969388109595",
      "lat": "41.534597634618784"
    },
    {
      "id": "pt.ine.add.PTCONT.732655",
      "street": "R PADRE PORFIRIO ALVES",
      "house": "24",
      "postcode": "4705-127",
      "city": "BRAGA",
      "lon": "-8.441969388109595",
      "lat": "41.534597634618784"
    },
    {
      "id": "pt.ine.add.PTCONT.733107",
      "street": "R PADRE PORFIRIO ALVES",
      "house": "24",
      "postcode": "4705-127",
      "city": "BRAGA",
      "lon": "-8.441969388109595",
      "lat": "41.534597634618784"
    },
    {
      "id": "pt.ine.add.PTCONT.736962",
      "street": "R PADRE PORFIRIO ALVES",
      "house": "32",
      "postcode": "4705-127",
      "city": "BRAGA",
      "lon": "-8.442364949249635",
      "lat": "41.534623582900316"
    },
    {
      "id": "pt.ine.add.PTCONT.736963",
      "street": "R PADRE PORFIRIO ALVES",
      "house": "32",
      "postcode": "4705-127",
      "city": "BRAGA",
      "lon": "-8.442364949249635",
      "lat": "41.534623582900316"
    },
    {
      "id": "pt.ine.add.PTCONT.736964",
      "street": "R PADRE PORFIRIO ALVES",
      "house": "32",
      "postcode": "4705-127",
      "city": "BRAGA",
      "lon": "-8.442364949249635",
      "lat": "41.534623582900316"
    },
    {
      "id": "pt.ine.add.PTCONT.736965",
      "street": "R PADRE PORFIRIO ALVES",
      "house": "32",
      "postcode": "4705-127",
      "city": "BRAGA",
      "lon": "-8.442364949249635",
      "lat": "41.534623582900316"
    },
    {
      "id": "pt.ine.add.PTCONT.736966",
      "street": "R PADRE PORFIRIO ALVES",
      "house": "32",
      "postcode": "4705-127",
      "city": "BRAGA",
      "lon": "-8.442364949249635",
      "lat": "41.534623582900316"
    },
    {
      "id": "pt.ine.add.PTCONT.802045",
      "street": "R SEBASTIAO LOPES",
      "house": "11",
      "postcode": "4705-128",
      "city": "BRAGA",
      "lon": "-8.44328753931047",
      "lat": "41.534603090612755"
    },
    {
      "id": "pt.ine.add.PTCONT.809360",
      "street": "R SEBASTIÃO LOPES",
      "house": "4",
      "postcode": "4705-128",
      "city": "BRAGA",
      "lon": "-8.443214180358131",
      "lat": "41.534297159901044"
    },
    {
      "id": "pt.ine.add.PTCONT.821071",
      "street": "R PADRE PORFIRIO ALVES",
      "house": "40",
      "postcode": "4705-127",
      "city": "BRAGA",
      "lon": "-8.442688356240613",
      "lat": "41.53459570139849"
    },
    {
      "id": "pt.ine.add.PTCONT.821072",
      "street": "R PADRE PORFIRIO ALVES",
      "house": "40",
      "postcode": "4705-127",
      "city": "BRAGA",
      "lon": "-8.442688356240613",
      "lat": "41.53459570139849"
    },
    {
      "id": "pt.ine.add.PTCONT.821073",
      "street": "R PADRE PORFIRIO ALVES",
      "house": "40",
      "postcode": "4705-127",
      "city": "BRAGA",
      "lon": "-8.442688356240613",
      "lat": "41.53459570139849"
    },
    {
      "id": "pt.ine.add.PTCONT.821075",
      "street": "R PADRE PORFIRIO ALVES",
      "house": "40",
      "postcode": "4705-127",
      "city": "BRAGA",
      "lon": "-8.442688356240613",
      "lat": "41.53459570139849"
    },
    {
      "id": "pt.ine.add.PTCONT.821076",
      "street": "R PADRE PORFIRIO ALVES",
      "house": "40",
      "postcode": "4705-127",
      "city": "BRAGA",
      "lon": "-8.442688356240613",
      "lat": "41.53459570139849"
    },
    {
      "id": "pt.ine.add.PTCONT.823362",
      "street": "R PADRE PORFIRIO ALVES",
      "house": "40",
      "postcode": "4705-127",
      "city": "BRAGA",
      "lon": "-8.442688356240613",
      "lat": "41.53459570139849"
    }
  ]
}