{
  "data": {
    "distrito": "Coimbra",
    "concelho": "Cantanhede",
    "freguesia": "União das freguesias de Sepins e Bolho",
    "OBJECTID": 429,
    "BGRI2021": "06022300205",
    "DT21": "06",
    "DTMN21": "0602",
    "DTMNFR21": "060223",
    "DTMNFRSEC21": "060223002",
    "SECNUM21": "002",
    "SSNUM21": "05",
    "SECSSNUM21": "00205",
    "OBJECTID_1": 47725,
    "DT": "06",
    "CC": "02",
    "fr": "23",
    "SEC": "002",
    "SS": "05"
  },
  "addresses": [
    {
      "id": "pt.ine.add.PTCONT.1104106",
      "street": "URB VIVER SEPINS",
      "house": "",
      "postcode": "3060-529",
      "city": "SEPINS",
      "lon": "-8.501742600563565",
      "lat": "40.382048378223125"
    },
    {
      "id": "pt.ine.add.PTCONT.1110333",
      "street": "R PORTO FEITO",
      "house": "",
      "postcode": "3060-555",
      "city": "SEPINS",
      "lon": "-8.501786661129556",
      "lat": "40.38148989224112"
    },
    {
      "id": "pt.ine.add.PTCONT.1172956",
      "street": "R DA FÁBRICA",
      "house": "",
      "postcode": "3060-540",
      "city": "SEPINS",
      "lon": "-8.500295363363525",
      "lat": "40.38227812183532"
    },
    {
      "id": "pt.ine.add.PTCONT.1174955",
      "street": "URB VIVER SEPINS",
      "house": "",
      "postcode": "3060-529",
      "city": "SEPINS",
      "lon": "-8.501788084834287",
      "lat": "40.381751049324"
    },
    {
      "id": "pt.ine.add.PTCONT.1177397",
      "street": "URB VIVER SEPINS",
      "house": "",
      "postcode": "3060-529",
      "city": "SEPINS",
      "lon": "-8.500270295434193",
      "lat": "40.38199902867714"
    },
    {
      "id": "pt.ine.add.PTCONT.1181595",
      "street": "URB VIVER SEPINS",
      "house": "",
      "postcode": "3060-529",
      "city": "SEPINS",
      "lon": "-8.499930254328333",
      "lat": "40.38227027497573"
    },
    {
      "id": "pt.ine.add.PTCONT.1187667",
      "street": "URB VIVER SEPINS",
      "house": "19",
      "postcode": "3060-529",
      "city": "SEPINS",
      "lon": "-8.501115919385063",
      "lat": "40.381582084400584"
    },
    {
      "id": "pt.ine.add.PTCONT.1227552",
      "street": "R PORTO FEITO",
      "house": "",
      "postcode": "3060-555",
      "city": "SEPINS",
      "lon": "-8.501777045176057",
      "lat": "40.381886168111706"
    },
    {
      "id": "pt.ine.add.PTCONT.1239584",
      "street": "R SEPINS PEQUENO",
      "house": "40",
      "postcode": "3060-547",
      "city": "SEPINS",
      "lon": "-8.49890066480662",
      "lat": "40.381336956651694"
    },
    {
      "id": "pt.ine.add.PTCONT.1247052",
      "street": "URB VIVER SEPINS",
      "house": "",
      "postcode": "3060-529",
      "city": "SEPINS",
      "lon": "-8.499482566075388",
      "lat": "40.38223567189903"
    },
    {
      "id": "pt.ine.add.PTCONT.1266686",
      "street": "R FÁBRICA",
      "house": "",
      "postcode": "3060-540",
      "city": "SEPINS",
      "lon": "-8.500259839395227",
      "lat": "40.3822422123354"
    },
    {
      "id": "pt.ine.add.PTCONT.1308991",
      "street": "R FÁBRICA",
      "house": "1",
      "postcode": "3060-540",
      "city": "SEPINS",
      "lon": "-8.498010452666177",
      "lat": "40.38222231526958"
    },
    {
      "id": "pt.ine.add.PTCONT.1317226",
      "street": "URB VIVER SEPINS",
      "house": "",
      "postcode": "3060-529",
      "city": "SEPINS",
      "lon": "-8.500507235937722",
      "lat": "40.38225943776158"
    },
    {
      "id": "pt.ine.add.PTCONT.1341799",
      "street": "URB VIVER SEPINS",
      "house": "",
      "postcode": "3060-529",
      "city": "SEPINS",
      "lon": "-8.499223588750327",
      "lat": "40.382254503235046"
    },
    {
      "id": "pt.ine.add.PTCONT.1344873",
      "street": "URB VIVER SEPINS",
      "house": "",
      "postcode": "3060-529",
      "city": "SEPINS",
      "lon": "-8.500644683104342",
      "lat": "40.38154756074771"
    },
    {
      "id": "pt.ine.add.PTCONT.1356383",
      "street": "URB VIVER SEPINS",
      "house": "",
      "postcode": "3060-529",
      "city": "SEPINS",
      "lon": "-8.500423433465132",
      "lat": "40.38200754794068"
    }
  ]
}