{
  "data": {
    "distrito": "Coimbra",
    "concelho": "Cantanhede",
    "freguesia": "Uni√£o das freguesias de Sepins e Bolho",
    "OBJECTID": 464,
    "BGRI2021": "06022300215",
    "DT21": "06",
    "DTMN21": "0602",
    "DTMNFR21": "060223",
    "DTMNFRSEC21": "060223002",
    "SECNUM21": "002",
    "SSNUM21": "15",
    "SECSSNUM21": "00215",
    "OBJECTID_1": 47973,
    "DT": "06",
    "CC": "02",
    "fr": "23",
    "SEC": "002",
    "SS": "15"
  },
  "addresses": [
    {
      "id": "pt.ine.add.PTCONT.1106186",
      "street": "R SERRADO",
      "house": "17",
      "postcode": "3060-532",
      "city": "SEPINS",
      "lon": "-8.512997938459202",
      "lat": "40.38783855316654"
    },
    {
      "id": "pt.ine.add.PTCONT.1126882",
      "street": "R CABECO",
      "house": "1",
      "postcode": "3060-532",
      "city": "SEPINS",
      "lon": "-8.512174047252666",
      "lat": "40.38793131244167"
    },
    {
      "id": "pt.ine.add.PTCONT.1147255",
      "street": "R SERRADO",
      "house": "9",
      "postcode": "3060-532",
      "city": "SEPINS",
      "lon": "-8.512422730480544",
      "lat": "40.38817364714522"
    },
    {
      "id": "pt.ine.add.PTCONT.1161506",
      "street": "R SERRADO",
      "house": "",
      "postcode": "3060-532",
      "city": "SEPINS",
      "lon": "-8.511799399200827",
      "lat": "40.388328784635426"
    },
    {
      "id": "pt.ine.add.PTCONT.1207167",
      "street": "R GALEGA",
      "house": "27",
      "postcode": "3060-532",
      "city": "SEPINS",
      "lon": "-8.509206266577609",
      "lat": "40.38795000833832"
    },
    {
      "id": "pt.ine.add.PTCONT.1256648",
      "street": "R BEIJOEIRA",
      "house": "59",
      "postcode": "3060-532",
      "city": "SEPINS",
      "lon": "-8.511493091897352",
      "lat": "40.388311776196055"
    },
    {
      "id": "pt.ine.add.PTCONT.1272897",
      "street": "R BEIJOEIRA",
      "house": "2",
      "postcode": "3060-532",
      "city": "SEPINS",
      "lon": "-8.511267109493103",
      "lat": "40.387916270713674"
    },
    {
      "id": "pt.ine.add.PTCONT.1291266",
      "street": "R GALEGA",
      "house": "45",
      "postcode": "3060-532",
      "city": "SEPINS",
      "lon": "-8.510490524401108",
      "lat": "40.38804488553508"
    },
    {
      "id": "pt.ine.add.PTCONT.1307208",
      "street": "R CABECO",
      "house": "5",
      "postcode": "3060-532",
      "city": "SEPINS",
      "lon": "-8.512195632338555",
      "lat": "40.387580024770024"
    },
    {
      "id": "pt.ine.add.PTCONT.1322037",
      "street": "",
      "house": "",
      "postcode": "3060-532",
      "city": "SEPINS",
      "lon": "-8.509784448699888",
      "lat": "40.38814624880462"
    },
    {
      "id": "pt.ine.add.PTCONT.1330911",
      "street": "R OLHO",
      "house": "65",
      "postcode": "3060-554",
      "city": "SEPINS",
      "lon": "-8.505984161771662",
      "lat": "40.386699663947184"
    }
  ]
}