{
  "data": {
    "distrito": "Aveiro",
    "concelho": "Oliveira de Azeméis",
    "freguesia": "União das freguesias de Oliveira de Azeméis, Santiago da Riba-Ul, Ul, Macinhata da Seixa e Madail",
    "OBJECTID": 617,
    "BGRI2021": "01132101207",
    "DT21": "01",
    "DTMN21": "0113",
    "DTMNFR21": "011321",
    "DTMNFRSEC21": "011321012",
    "SECNUM21": "012",
    "SSNUM21": "07",
    "SECSSNUM21": "01207",
    "OBJECTID_1": 9366,
    "DT": "01",
    "CC": "13",
    "fr": "21",
    "SEC": "012",
    "SS": "07"
  },
  "addresses": [
    {
      "id": "pt.ine.add.PTCONT.314843",
      "street": "R COMEND MANUEL LINO DA COSTA",
      "house": "25",
      "postcode": "3720-125",
      "city": "OLIVEIRA DE AZEMÉIS",
      "lon": "-8.47088349919268",
      "lat": "40.8386263180116"
    },
    {
      "id": "pt.ine.add.PTCONT.314856",
      "street": "R GALIZA",
      "house": "",
      "postcode": "3720-125",
      "city": "OLIVEIRA DE AZEMÉIS",
      "lon": "-8.471092663678279",
      "lat": "40.83778825284571"
    },
    {
      "id": "pt.ine.add.PTCONT.314867",
      "street": "R GALIZA",
      "house": "",
      "postcode": "3720-125",
      "city": "OLIVEIRA DE AZEMÉIS",
      "lon": "-8.471092663678279",
      "lat": "40.83778825284571"
    },
    {
      "id": "pt.ine.add.PTCONT.314868",
      "street": "R GALIZA",
      "house": "",
      "postcode": "3720-125",
      "city": "OLIVEIRA DE AZEMÉIS",
      "lon": "-8.471092663678279",
      "lat": "40.83778825284571"
    },
    {
      "id": "pt.ine.add.PTCONT.315586",
      "street": "R COMEND MANUEL LINO DA COSTA",
      "house": "25",
      "postcode": "3720-125",
      "city": "OLIVEIRA DE AZEMÉIS",
      "lon": "-8.47088349919268",
      "lat": "40.8386263180116"
    },
    {
      "id": "pt.ine.add.PTCONT.315630",
      "street": "R GALIZA",
      "house": "",
      "postcode": "3720-125",
      "city": "OLIVEIRA DE AZEMÉIS",
      "lon": "-8.471092663678279",
      "lat": "40.83778825284571"
    },
    {
      "id": "pt.ine.add.PTCONT.315631",
      "street": "R GALIZA",
      "house": "",
      "postcode": "3720-125",
      "city": "OLIVEIRA DE AZEMÉIS",
      "lon": "-8.471092663678279",
      "lat": "40.83778825284571"
    },
    {
      "id": "pt.ine.add.PTCONT.315632",
      "street": "R GALIZA",
      "house": "",
      "postcode": "3720-125",
      "city": "OLIVEIRA DE AZEMÉIS",
      "lon": "-8.471092663678279",
      "lat": "40.83778825284571"
    },
    {
      "id": "pt.ine.add.PTCONT.315633",
      "street": "R GALIZA",
      "house": "",
      "postcode": "3720-125",
      "city": "OLIVEIRA DE AZEMÉIS",
      "lon": "-8.471092663678279",
      "lat": "40.83778825284571"
    },
    {
      "id": "pt.ine.add.PTCONT.315634",
      "street": "R GALIZA",
      "house": "",
      "postcode": "3720-125",
      "city": "OLIVEIRA DE AZEMÉIS",
      "lon": "-8.471092663678279",
      "lat": "40.83778825284571"
    },
    {
      "id": "pt.ine.add.PTCONT.315635",
      "street": "R GALIZA",
      "house": "",
      "postcode": "3720-125",
      "city": "OLIVEIRA DE AZEMÉIS",
      "lon": "-8.471092663678279",
      "lat": "40.83778825284571"
    },
    {
      "id": "pt.ine.add.PTCONT.315639",
      "street": "R GALIZA",
      "house": "",
      "postcode": "3720-125",
      "city": "OLIVEIRA DE AZEMÉIS",
      "lon": "-8.471092663678279",
      "lat": "40.83778825284571"
    },
    {
      "id": "pt.ine.add.PTCONT.326451",
      "street": "R MADALENA SOTTO",
      "house": "",
      "postcode": "3720-126",
      "city": "OLIVEIRA DE AZEMÉIS",
      "lon": "-8.471426748989694",
      "lat": "40.838201497459885"
    },
    {
      "id": "pt.ine.add.PTCONT.326452",
      "street": "R MADALENA SOTTO",
      "house": "",
      "postcode": "3720-126",
      "city": "OLIVEIRA DE AZEMÉIS",
      "lon": "-8.471426748989694",
      "lat": "40.838201497459885"
    },
    {
      "id": "pt.ine.add.PTCONT.326453",
      "street": "R MADALENA SOTTO",
      "house": "",
      "postcode": "3720-126",
      "city": "OLIVEIRA DE AZEMÉIS",
      "lon": "-8.471426748989694",
      "lat": "40.838201497459885"
    },
    {
      "id": "pt.ine.add.PTCONT.326454",
      "street": "R MADALENA SOTTO",
      "house": "",
      "postcode": "3720-126",
      "city": "OLIVEIRA DE AZEMÉIS",
      "lon": "-8.471426748989694",
      "lat": "40.838201497459885"
    },
    {
      "id": "pt.ine.add.PTCONT.326455",
      "street": "R MADALENA SOTTO",
      "house": "",
      "postcode": "3720-126",
      "city": "OLIVEIRA DE AZEMÉIS",
      "lon": "-8.471426748989694",
      "lat": "40.838201497459885"
    },
    {
      "id": "pt.ine.add.PTCONT.326456",
      "street": "R MADALENA SOTTO",
      "house": "",
      "postcode": "3720-126",
      "city": "OLIVEIRA DE AZEMÉIS",
      "lon": "-8.471426748989694",
      "lat": "40.838201497459885"
    },
    {
      "id": "pt.ine.add.PTCONT.326457",
      "street": "R MADALENA SOTTO",
      "house": "",
      "postcode": "3720-126",
      "city": "OLIVEIRA DE AZEMÉIS",
      "lon": "-8.471426748989694",
      "lat": "40.838201497459885"
    },
    {
      "id": "pt.ine.add.PTCONT.326458",
      "street": "R MADALENA SOTTO",
      "house": "",
      "postcode": "3720-126",
      "city": "OLIVEIRA DE AZEMÉIS",
      "lon": "-8.471426748989694",
      "lat": "40.838201497459885"
    },
    {
      "id": "pt.ine.add.PTCONT.326459",
      "street": "R MADALENA SOTTO",
      "house": "",
      "postcode": "3720-126",
      "city": "OLIVEIRA DE AZEMÉIS",
      "lon": "-8.471426748989694",
      "lat": "40.838201497459885"
    },
    {
      "id": "pt.ine.add.PTCONT.326460",
      "street": "R MADALENA SOTTO",
      "house": "",
      "postcode": "3720-126",
      "city": "OLIVEIRA DE AZEMÉIS",
      "lon": "-8.471426748989694",
      "lat": "40.838201497459885"
    },
    {
      "id": "pt.ine.add.PTCONT.326461",
      "street": "R MADALENA SOTTO",
      "house": "",
      "postcode": "3720-126",
      "city": "OLIVEIRA DE AZEMÉIS",
      "lon": "-8.471426748989694",
      "lat": "40.838201497459885"
    },
    {
      "id": "pt.ine.add.PTCONT.326465",
      "street": "R MADALENA SOTTO",
      "house": "",
      "postcode": "3720-126",
      "city": "OLIVEIRA DE AZEMÉIS",
      "lon": "-8.471426748989694",
      "lat": "40.838201497459885"
    },
    {
      "id": "pt.ine.add.PTCONT.331094",
      "street": "BC SERICALHO",
      "house": "52",
      "postcode": "3720-125",
      "city": "OLIVEIRA DE AZEMÉIS",
      "lon": "-8.471357257918791",
      "lat": "40.83852587640461"
    },
    {
      "id": "pt.ine.add.PTCONT.348487",
      "street": "R MADALENA SOTTO",
      "house": "",
      "postcode": "3720-126",
      "city": "OLIVEIRA DE AZEMÉIS",
      "lon": "-8.471590174703882",
      "lat": "40.83769674555182"
    },
    {
      "id": "pt.ine.add.PTCONT.48335",
      "street": "R GALIZA",
      "house": "99",
      "postcode": "3720-125",
      "city": "OLIVEIRA DE AZEMÉIS",
      "lon": "-8.470963066135583",
      "lat": "40.83795072005643"
    },
    {
      "id": "pt.ine.add.PTCONT.48336",
      "street": "R GALIZA",
      "house": "99",
      "postcode": "3720-125",
      "city": "OLIVEIRA DE AZEMÉIS",
      "lon": "-8.470963066135583",
      "lat": "40.83795072005643"
    },
    {
      "id": "pt.ine.add.PTCONT.48337",
      "street": "R GALIZA",
      "house": "99",
      "postcode": "3720-125",
      "city": "OLIVEIRA DE AZEMÉIS",
      "lon": "-8.470963066135583",
      "lat": "40.83795072005643"
    },
    {
      "id": "pt.ine.add.PTCONT.48338",
      "street": "R GALIZA",
      "house": "99",
      "postcode": "3720-125",
      "city": "OLIVEIRA DE AZEMÉIS",
      "lon": "-8.470963066135583",
      "lat": "40.83795072005643"
    },
    {
      "id": "pt.ine.add.PTCONT.48339",
      "street": "R GALIZA",
      "house": "99",
      "postcode": "3720-125",
      "city": "OLIVEIRA DE AZEMÉIS",
      "lon": "-8.470963066135583",
      "lat": "40.83795072005643"
    },
    {
      "id": "pt.ine.add.PTCONT.48340",
      "street": "R GALIZA",
      "house": "99",
      "postcode": "3720-125",
      "city": "OLIVEIRA DE AZEMÉIS",
      "lon": "-8.470963066135583",
      "lat": "40.83795072005643"
    },
    {
      "id": "pt.ine.add.PTCONT.48341",
      "street": "R GALIZA",
      "house": "99",
      "postcode": "3720-125",
      "city": "OLIVEIRA DE AZEMÉIS",
      "lon": "-8.470963066135583",
      "lat": "40.83795072005643"
    },
    {
      "id": "pt.ine.add.PTCONT.48342",
      "street": "R GALIZA",
      "house": "99",
      "postcode": "3720-125",
      "city": "OLIVEIRA DE AZEMÉIS",
      "lon": "-8.470963066135583",
      "lat": "40.83795072005643"
    },
    {
      "id": "pt.ine.add.PTCONT.50019",
      "street": "R GALIZA",
      "house": "99",
      "postcode": "3720-125",
      "city": "OLIVEIRA DE AZEMÉIS",
      "lon": "-8.470963066135583",
      "lat": "40.83795072005643"
    },
    {
      "id": "pt.ine.add.PTCONT.50523",
      "street": "R GALIZA",
      "house": "99",
      "postcode": "3720-125",
      "city": "OLIVEIRA DE AZEMÉIS",
      "lon": "-8.470963066135583",
      "lat": "40.83795072005643"
    },
    {
      "id": "pt.ine.add.PTCONT.53219",
      "street": "BC SERICALHO",
      "house": "53",
      "postcode": "3720-125",
      "city": "OLIVEIRA DE AZEMÉIS",
      "lon": "-8.470693017680638",
      "lat": "40.838473792843445"
    },
    {
      "id": "pt.ine.add.PTCONT.53220",
      "street": "BC SERICALHO",
      "house": "53",
      "postcode": "3720-125",
      "city": "OLIVEIRA DE AZEMÉIS",
      "lon": "-8.470693017680638",
      "lat": "40.838473792843445"
    },
    {
      "id": "pt.ine.add.PTCONT.79501",
      "street": "CAM IGREJA VELHA",
      "house": "112",
      "postcode": "3720-126",
      "city": "OLIVEIRA DE AZEMÉIS",
      "lon": "-8.472537307877065",
      "lat": "40.83742381676333"
    },
    {
      "id": "pt.ine.add.PTCONT.87086",
      "street": "BC SERICALHO",
      "house": "30",
      "postcode": "3720-125",
      "city": "OLIVEIRA DE AZEMÉIS",
      "lon": "-8.47094173048997",
      "lat": "40.838419035588096"
    },
    {
      "id": "pt.ine.add.PTCONT.90519",
      "street": "R MADALENA SOTTO",
      "house": "",
      "postcode": "3720-126",
      "city": "OLIVEIRA DE AZEMÉIS",
      "lon": "-8.471531717068432",
      "lat": "40.83785900465607"
    },
    {
      "id": "pt.ine.add.PTCONT.90520",
      "street": "R MADALENA SOTTO",
      "house": "",
      "postcode": "3720-126",
      "city": "OLIVEIRA DE AZEMÉIS",
      "lon": "-8.471531717068432",
      "lat": "40.83785900465607"
    },
    {
      "id": "pt.ine.add.PTCONT.90521",
      "street": "R MADALENA SOTTO",
      "house": "",
      "postcode": "3720-126",
      "city": "OLIVEIRA DE AZEMÉIS",
      "lon": "-8.471531717068432",
      "lat": "40.83785900465607"
    },
    {
      "id": "pt.ine.add.PTCONT.90522",
      "street": "R MADALENA SOTTO",
      "house": "",
      "postcode": "3720-126",
      "city": "OLIVEIRA DE AZEMÉIS",
      "lon": "-8.471531717068432",
      "lat": "40.83785900465607"
    },
    {
      "id": "pt.ine.add.PTCONT.90523",
      "street": "R MADALENA SOTTO",
      "house": "",
      "postcode": "3720-126",
      "city": "OLIVEIRA DE AZEMÉIS",
      "lon": "-8.471531717068432",
      "lat": "40.83785900465607"
    },
    {
      "id": "pt.ine.add.PTCONT.90524",
      "street": "R MADALENA SOTTO",
      "house": "",
      "postcode": "3720-126",
      "city": "OLIVEIRA DE AZEMÉIS",
      "lon": "-8.471531717068432",
      "lat": "40.83785900465607"
    },
    {
      "id": "pt.ine.add.PTCONT.90525",
      "street": "R MADALENA SOTTO",
      "house": "",
      "postcode": "3720-126",
      "city": "OLIVEIRA DE AZEMÉIS",
      "lon": "-8.471531717068432",
      "lat": "40.83785900465607"
    },
    {
      "id": "pt.ine.add.PTCONT.90917",
      "street": "R MADALENA SOTTO",
      "house": "",
      "postcode": "3720-126",
      "city": "OLIVEIRA DE AZEMÉIS",
      "lon": "-8.471531717068432",
      "lat": "40.83785900465607"
    },
    {
      "id": "pt.ine.add.PTCONT.101854",
      "street": "BC TANQUE DO CANARIO",
      "house": "",
      "postcode": "3720-126",
      "city": "OLIVEIRA DE AZEMÉIS",
      "lon": "-8.47258523854606",
      "lat": "40.83752272927128"
    },
    {
      "id": "pt.ine.add.PTCONT.119513",
      "street": "R GALIZA",
      "house": "",
      "postcode": "3720-125",
      "city": "OLIVEIRA DE AZEMÉIS",
      "lon": "-8.470821565797344",
      "lat": "40.838104217095314"
    },
    {
      "id": "pt.ine.add.PTCONT.119514",
      "street": "R GALIZA",
      "house": "",
      "postcode": "3720-125",
      "city": "OLIVEIRA DE AZEMÉIS",
      "lon": "-8.470821565797344",
      "lat": "40.838104217095314"
    },
    {
      "id": "pt.ine.add.PTCONT.119515",
      "street": "R GALIZA",
      "house": "",
      "postcode": "3720-125",
      "city": "OLIVEIRA DE AZEMÉIS",
      "lon": "-8.470821565797344",
      "lat": "40.838104217095314"
    },
    {
      "id": "pt.ine.add.PTCONT.119516",
      "street": "R GALIZA",
      "house": "",
      "postcode": "3720-125",
      "city": "OLIVEIRA DE AZEMÉIS",
      "lon": "-8.470821565797344",
      "lat": "40.838104217095314"
    },
    {
      "id": "pt.ine.add.PTCONT.119518",
      "street": "R GALIZA",
      "house": "",
      "postcode": "3720-125",
      "city": "OLIVEIRA DE AZEMÉIS",
      "lon": "-8.470821565797344",
      "lat": "40.838104217095314"
    },
    {
      "id": "pt.ine.add.PTCONT.119519",
      "street": "R GALIZA",
      "house": "",
      "postcode": "3720-125",
      "city": "OLIVEIRA DE AZEMÉIS",
      "lon": "-8.470821565797344",
      "lat": "40.838104217095314"
    },
    {
      "id": "pt.ine.add.PTCONT.119520",
      "street": "R GALIZA",
      "house": "",
      "postcode": "3720-125",
      "city": "OLIVEIRA DE AZEMÉIS",
      "lon": "-8.470821565797344",
      "lat": "40.838104217095314"
    },
    {
      "id": "pt.ine.add.PTCONT.119521",
      "street": "R GALIZA",
      "house": "",
      "postcode": "3720-125",
      "city": "OLIVEIRA DE AZEMÉIS",
      "lon": "-8.470821565797344",
      "lat": "40.838104217095314"
    },
    {
      "id": "pt.ine.add.PTCONT.119522",
      "street": "R GALIZA",
      "house": "",
      "postcode": "3720-125",
      "city": "OLIVEIRA DE AZEMÉIS",
      "lon": "-8.470821565797344",
      "lat": "40.838104217095314"
    },
    {
      "id": "pt.ine.add.PTCONT.119523",
      "street": "R GALIZA",
      "house": "",
      "postcode": "3720-125",
      "city": "OLIVEIRA DE AZEMÉIS",
      "lon": "-8.470821565797344",
      "lat": "40.838104217095314"
    },
    {
      "id": "pt.ine.add.PTCONT.119524",
      "street": "R GALIZA",
      "house": "",
      "postcode": "3720-125",
      "city": "OLIVEIRA DE AZEMÉIS",
      "lon": "-8.470821565797344",
      "lat": "40.838104217095314"
    },
    {
      "id": "pt.ine.add.PTCONT.119525",
      "street": "R GALIZA",
      "house": "",
      "postcode": "3720-125",
      "city": "OLIVEIRA DE AZEMÉIS",
      "lon": "-8.470821565797344",
      "lat": "40.838104217095314"
    },
    {
      "id": "pt.ine.add.PTCONT.119526",
      "street": "R GALIZA",
      "house": "",
      "postcode": "3720-125",
      "city": "OLIVEIRA DE AZEMÉIS",
      "lon": "-8.470821565797344",
      "lat": "40.838104217095314"
    },
    {
      "id": "pt.ine.add.PTCONT.125934",
      "street": "R MADALENA SOTTO",
      "house": "",
      "postcode": "3720-126",
      "city": "OLIVEIRA DE AZEMÉIS",
      "lon": "-8.471473304938108",
      "lat": "40.838030268459505"
    },
    {
      "id": "pt.ine.add.PTCONT.125935",
      "street": "R MADALENA SOTTO",
      "house": "",
      "postcode": "3720-126",
      "city": "OLIVEIRA DE AZEMÉIS",
      "lon": "-8.471473304938108",
      "lat": "40.838030268459505"
    },
    {
      "id": "pt.ine.add.PTCONT.125936",
      "street": "R MADALENA SOTTO",
      "house": "",
      "postcode": "3720-126",
      "city": "OLIVEIRA DE AZEMÉIS",
      "lon": "-8.471473304938108",
      "lat": "40.838030268459505"
    },
    {
      "id": "pt.ine.add.PTCONT.125937",
      "street": "R MADALENA SOTTO",
      "house": "",
      "postcode": "3720-126",
      "city": "OLIVEIRA DE AZEMÉIS",
      "lon": "-8.471473304938108",
      "lat": "40.838030268459505"
    },
    {
      "id": "pt.ine.add.PTCONT.125938",
      "street": "R MADALENA SOTTO",
      "house": "",
      "postcode": "3720-126",
      "city": "OLIVEIRA DE AZEMÉIS",
      "lon": "-8.471473304938108",
      "lat": "40.838030268459505"
    },
    {
      "id": "pt.ine.add.PTCONT.125939",
      "street": "R MADALENA SOTTO",
      "house": "",
      "postcode": "3720-126",
      "city": "OLIVEIRA DE AZEMÉIS",
      "lon": "-8.471473304938108",
      "lat": "40.838030268459505"
    },
    {
      "id": "pt.ine.add.PTCONT.125944",
      "street": "R MADALENA SOTTO",
      "house": "",
      "postcode": "3720-126",
      "city": "OLIVEIRA DE AZEMÉIS",
      "lon": "-8.47170795967843",
      "lat": "40.83754331716945"
    },
    {
      "id": "pt.ine.add.PTCONT.125945",
      "street": "R MADALENA SOTTO",
      "house": "",
      "postcode": "3720-126",
      "city": "OLIVEIRA DE AZEMÉIS",
      "lon": "-8.47170795967843",
      "lat": "40.83754331716945"
    },
    {
      "id": "pt.ine.add.PTCONT.125946",
      "street": "R MADALENA SOTTO",
      "house": "",
      "postcode": "3720-126",
      "city": "OLIVEIRA DE AZEMÉIS",
      "lon": "-8.47170795967843",
      "lat": "40.83754331716945"
    },
    {
      "id": "pt.ine.add.PTCONT.125947",
      "street": "R MADALENA SOTTO",
      "house": "",
      "postcode": "3720-126",
      "city": "OLIVEIRA DE AZEMÉIS",
      "lon": "-8.47170795967843",
      "lat": "40.83754331716945"
    },
    {
      "id": "pt.ine.add.PTCONT.125948",
      "street": "R MADALENA SOTTO",
      "house": "",
      "postcode": "3720-126",
      "city": "OLIVEIRA DE AZEMÉIS",
      "lon": "-8.47170795967843",
      "lat": "40.83754331716945"
    },
    {
      "id": "pt.ine.add.PTCONT.125949",
      "street": "R MADALENA SOTTO",
      "house": "",
      "postcode": "3720-126",
      "city": "OLIVEIRA DE AZEMÉIS",
      "lon": "-8.47170795967843",
      "lat": "40.83754331716945"
    },
    {
      "id": "pt.ine.add.PTCONT.125950",
      "street": "R MADALENA SOTTO",
      "house": "",
      "postcode": "3720-126",
      "city": "OLIVEIRA DE AZEMÉIS",
      "lon": "-8.47170795967843",
      "lat": "40.83754331716945"
    },
    {
      "id": "pt.ine.add.PTCONT.125951",
      "street": "R MADALENA SOTTO",
      "house": "",
      "postcode": "3720-126",
      "city": "OLIVEIRA DE AZEMÉIS",
      "lon": "-8.47170795967843",
      "lat": "40.83754331716945"
    },
    {
      "id": "pt.ine.add.PTCONT.125964",
      "street": "R MADALENA SOTTO",
      "house": "",
      "postcode": "3720-126",
      "city": "OLIVEIRA DE AZEMÉIS",
      "lon": "-8.471473304938108",
      "lat": "40.838030268459505"
    },
    {
      "id": "pt.ine.add.PTCONT.125967",
      "street": "R MADALENA SOTTO",
      "house": "",
      "postcode": "3720-126",
      "city": "OLIVEIRA DE AZEMÉIS",
      "lon": "-8.471473304938108",
      "lat": "40.838030268459505"
    },
    {
      "id": "pt.ine.add.PTCONT.138263",
      "street": "R MADALENA SOTTO",
      "house": "ED 114",
      "postcode": "3720-126",
      "city": "OLIVEIRA DE AZEMÉIS",
      "lon": "-8.472182351796583",
      "lat": "40.83756893844674"
    },
    {
      "id": "pt.ine.add.PTCONT.138350",
      "street": "R MADALENA SOTTO",
      "house": "ED 114",
      "postcode": "3720-126",
      "city": "OLIVEIRA DE AZEMÉIS",
      "lon": "-8.472182351796583",
      "lat": "40.83756893844674"
    },
    {
      "id": "pt.ine.add.PTCONT.139045",
      "street": "R MADALENA SOTTO",
      "house": "ED 114",
      "postcode": "3720-126",
      "city": "OLIVEIRA DE AZEMÉIS",
      "lon": "-8.472182351796583",
      "lat": "40.83756893844674"
    },
    {
      "id": "pt.ine.add.PTCONT.139046",
      "street": "R MADALENA SOTTO",
      "house": "ED 114",
      "postcode": "3720-126",
      "city": "OLIVEIRA DE AZEMÉIS",
      "lon": "-8.472182351796583",
      "lat": "40.83756893844674"
    },
    {
      "id": "pt.ine.add.PTCONT.148090",
      "street": "BC TANQUE DO CANARIO",
      "house": "94",
      "postcode": "3720-126",
      "city": "OLIVEIRA DE AZEMÉIS",
      "lon": "-8.472242321993535",
      "lat": "40.837703835176576"
    },
    {
      "id": "pt.ine.add.PTCONT.157999",
      "street": "R MADALENA SOTTO",
      "house": "",
      "postcode": "3720-126",
      "city": "OLIVEIRA DE AZEMÉIS",
      "lon": "-8.471849502618332",
      "lat": "40.83739882377409"
    },
    {
      "id": "pt.ine.add.PTCONT.158000",
      "street": "R MADALENA SOTTO",
      "house": "",
      "postcode": "3720-126",
      "city": "OLIVEIRA DE AZEMÉIS",
      "lon": "-8.471849502618332",
      "lat": "40.83739882377409"
    },
    {
      "id": "pt.ine.add.PTCONT.158001",
      "street": "R MADALENA SOTTO",
      "house": "",
      "postcode": "3720-126",
      "city": "OLIVEIRA DE AZEMÉIS",
      "lon": "-8.471849502618332",
      "lat": "40.83739882377409"
    },
    {
      "id": "pt.ine.add.PTCONT.158002",
      "street": "R MADALENA SOTTO",
      "house": "",
      "postcode": "3720-126",
      "city": "OLIVEIRA DE AZEMÉIS",
      "lon": "-8.471849502618332",
      "lat": "40.83739882377409"
    },
    {
      "id": "pt.ine.add.PTCONT.158003",
      "street": "R MADALENA SOTTO",
      "house": "",
      "postcode": "3720-126",
      "city": "OLIVEIRA DE AZEMÉIS",
      "lon": "-8.471849502618332",
      "lat": "40.83739882377409"
    },
    {
      "id": "pt.ine.add.PTCONT.158004",
      "street": "R MADALENA SOTTO",
      "house": "",
      "postcode": "3720-126",
      "city": "OLIVEIRA DE AZEMÉIS",
      "lon": "-8.471849502618332",
      "lat": "40.83739882377409"
    },
    {
      "id": "pt.ine.add.PTCONT.158005",
      "street": "R MADALENA SOTTO",
      "house": "",
      "postcode": "3720-126",
      "city": "OLIVEIRA DE AZEMÉIS",
      "lon": "-8.471849502618332",
      "lat": "40.83739882377409"
    },
    {
      "id": "pt.ine.add.PTCONT.158006",
      "street": "R MADALENA SOTTO",
      "house": "",
      "postcode": "3720-126",
      "city": "OLIVEIRA DE AZEMÉIS",
      "lon": "-8.471849502618332",
      "lat": "40.83739882377409"
    },
    {
      "id": "pt.ine.add.PTCONT.158007",
      "street": "R MADALENA SOTTO",
      "house": "",
      "postcode": "3720-126",
      "city": "OLIVEIRA DE AZEMÉIS",
      "lon": "-8.471849502618332",
      "lat": "40.83739882377409"
    },
    {
      "id": "pt.ine.add.PTCONT.158008",
      "street": "R MADALENA SOTTO",
      "house": "",
      "postcode": "3720-126",
      "city": "OLIVEIRA DE AZEMÉIS",
      "lon": "-8.471849502618332",
      "lat": "40.83739882377409"
    },
    {
      "id": "pt.ine.add.PTCONT.158061",
      "street": "R GALIZA",
      "house": "",
      "postcode": "3720-125",
      "city": "OLIVEIRA DE AZEMÉIS",
      "lon": "-8.471387197039567",
      "lat": "40.83741819002366"
    },
    {
      "id": "pt.ine.add.PTCONT.158062",
      "street": "R GALIZA",
      "house": "",
      "postcode": "3720-125",
      "city": "OLIVEIRA DE AZEMÉIS",
      "lon": "-8.471387197039567",
      "lat": "40.83741819002366"
    },
    {
      "id": "pt.ine.add.PTCONT.158063",
      "street": "R GALIZA",
      "house": "",
      "postcode": "3720-125",
      "city": "OLIVEIRA DE AZEMÉIS",
      "lon": "-8.471387197039567",
      "lat": "40.83741819002366"
    },
    {
      "id": "pt.ine.add.PTCONT.158064",
      "street": "R GALIZA",
      "house": "",
      "postcode": "3720-125",
      "city": "OLIVEIRA DE AZEMÉIS",
      "lon": "-8.471387197039567",
      "lat": "40.83741819002366"
    },
    {
      "id": "pt.ine.add.PTCONT.158065",
      "street": "R GALIZA",
      "house": "",
      "postcode": "3720-125",
      "city": "OLIVEIRA DE AZEMÉIS",
      "lon": "-8.471387197039567",
      "lat": "40.83741819002366"
    },
    {
      "id": "pt.ine.add.PTCONT.158066",
      "street": "R GALIZA",
      "house": "",
      "postcode": "3720-125",
      "city": "OLIVEIRA DE AZEMÉIS",
      "lon": "-8.471387197039567",
      "lat": "40.83741819002366"
    },
    {
      "id": "pt.ine.add.PTCONT.158067",
      "street": "R GALIZA",
      "house": "",
      "postcode": "3720-125",
      "city": "OLIVEIRA DE AZEMÉIS",
      "lon": "-8.471387197039567",
      "lat": "40.83741819002366"
    },
    {
      "id": "pt.ine.add.PTCONT.158068",
      "street": "R GALIZA",
      "house": "",
      "postcode": "3720-125",
      "city": "OLIVEIRA DE AZEMÉIS",
      "lon": "-8.471387197039567",
      "lat": "40.83741819002366"
    },
    {
      "id": "pt.ine.add.PTCONT.160001",
      "street": "R MADALENA SOTTO",
      "house": "",
      "postcode": "3720-126",
      "city": "OLIVEIRA DE AZEMÉIS",
      "lon": "-8.471849502618332",
      "lat": "40.83739882377409"
    },
    {
      "id": "pt.ine.add.PTCONT.160018",
      "street": "R MADALENA SOTTO",
      "house": "",
      "postcode": "3720-126",
      "city": "OLIVEIRA DE AZEMÉIS",
      "lon": "-8.471849502618332",
      "lat": "40.83739882377409"
    },
    {
      "id": "pt.ine.add.PTCONT.177965",
      "street": "R GALIZA",
      "house": "",
      "postcode": "3720-125",
      "city": "OLIVEIRA DE AZEMÉIS",
      "lon": "-8.471198639334768",
      "lat": "40.83764386444862"
    },
    {
      "id": "pt.ine.add.PTCONT.177966",
      "street": "R GALIZA",
      "house": "",
      "postcode": "3720-125",
      "city": "OLIVEIRA DE AZEMÉIS",
      "lon": "-8.471198639334768",
      "lat": "40.83764386444862"
    },
    {
      "id": "pt.ine.add.PTCONT.177967",
      "street": "R GALIZA",
      "house": "",
      "postcode": "3720-125",
      "city": "OLIVEIRA DE AZEMÉIS",
      "lon": "-8.471198639334768",
      "lat": "40.83764386444862"
    },
    {
      "id": "pt.ine.add.PTCONT.177968",
      "street": "R GALIZA",
      "house": "",
      "postcode": "3720-125",
      "city": "OLIVEIRA DE AZEMÉIS",
      "lon": "-8.471198639334768",
      "lat": "40.83764386444862"
    },
    {
      "id": "pt.ine.add.PTCONT.177969",
      "street": "R GALIZA",
      "house": "",
      "postcode": "3720-125",
      "city": "OLIVEIRA DE AZEMÉIS",
      "lon": "-8.471198639334768",
      "lat": "40.83764386444862"
    },
    {
      "id": "pt.ine.add.PTCONT.177970",
      "street": "R GALIZA",
      "house": "",
      "postcode": "3720-125",
      "city": "OLIVEIRA DE AZEMÉIS",
      "lon": "-8.471198639334768",
      "lat": "40.83764386444862"
    },
    {
      "id": "pt.ine.add.PTCONT.177971",
      "street": "R GALIZA",
      "house": "",
      "postcode": "3720-125",
      "city": "OLIVEIRA DE AZEMÉIS",
      "lon": "-8.471198639334768",
      "lat": "40.83764386444862"
    },
    {
      "id": "pt.ine.add.PTCONT.177972",
      "street": "R GALIZA",
      "house": "",
      "postcode": "3720-125",
      "city": "OLIVEIRA DE AZEMÉIS",
      "lon": "-8.471198639334768",
      "lat": "40.83764386444862"
    },
    {
      "id": "pt.ine.add.PTCONT.177973",
      "street": "R GALIZA",
      "house": "",
      "postcode": "3720-125",
      "city": "OLIVEIRA DE AZEMÉIS",
      "lon": "-8.471198639334768",
      "lat": "40.83764386444862"
    },
    {
      "id": "pt.ine.add.PTCONT.178598",
      "street": "R GALIZA",
      "house": "",
      "postcode": "3720-125",
      "city": "OLIVEIRA DE AZEMÉIS",
      "lon": "-8.471198639334768",
      "lat": "40.83764386444862"
    },
    {
      "id": "pt.ine.add.PTCONT.199219",
      "street": "BC SERICALHO",
      "house": "37",
      "postcode": "3720-125",
      "city": "OLIVEIRA DE AZEMÉIS",
      "lon": "-8.471155056340208",
      "lat": "40.83840040095809"
    },
    {
      "id": "pt.ine.add.PTCONT.200052",
      "street": "R MADALENA SOTTO",
      "house": "",
      "postcode": "3720-126",
      "city": "OLIVEIRA DE AZEMÉIS",
      "lon": "-8.47151697568486",
      "lat": "40.837291741263144"
    },
    {
      "id": "pt.ine.add.PTCONT.200053",
      "street": "R MADALENA SOTTO",
      "house": "",
      "postcode": "3720-126",
      "city": "OLIVEIRA DE AZEMÉIS",
      "lon": "-8.47151697568486",
      "lat": "40.837291741263144"
    },
    {
      "id": "pt.ine.add.PTCONT.200054",
      "street": "R MADALENA SOTTO",
      "house": "",
      "postcode": "3720-126",
      "city": "OLIVEIRA DE AZEMÉIS",
      "lon": "-8.47151697568486",
      "lat": "40.837291741263144"
    },
    {
      "id": "pt.ine.add.PTCONT.200055",
      "street": "R MADALENA SOTTO",
      "house": "",
      "postcode": "3720-126",
      "city": "OLIVEIRA DE AZEMÉIS",
      "lon": "-8.47151697568486",
      "lat": "40.837291741263144"
    },
    {
      "id": "pt.ine.add.PTCONT.200056",
      "street": "R MADALENA SOTTO",
      "house": "",
      "postcode": "3720-126",
      "city": "OLIVEIRA DE AZEMÉIS",
      "lon": "-8.47151697568486",
      "lat": "40.837291741263144"
    },
    {
      "id": "pt.ine.add.PTCONT.200057",
      "street": "R MADALENA SOTTO",
      "house": "",
      "postcode": "3720-126",
      "city": "OLIVEIRA DE AZEMÉIS",
      "lon": "-8.47151697568486",
      "lat": "40.837291741263144"
    },
    {
      "id": "pt.ine.add.PTCONT.200058",
      "street": "R MADALENA SOTTO",
      "house": "",
      "postcode": "3720-126",
      "city": "OLIVEIRA DE AZEMÉIS",
      "lon": "-8.47151697568486",
      "lat": "40.837291741263144"
    },
    {
      "id": "pt.ine.add.PTCONT.200059",
      "street": "R MADALENA SOTTO",
      "house": "",
      "postcode": "3720-126",
      "city": "OLIVEIRA DE AZEMÉIS",
      "lon": "-8.47151697568486",
      "lat": "40.837291741263144"
    },
    {
      "id": "pt.ine.add.PTCONT.200060",
      "street": "R MADALENA SOTTO",
      "house": "",
      "postcode": "3720-126",
      "city": "OLIVEIRA DE AZEMÉIS",
      "lon": "-8.47151697568486",
      "lat": "40.837291741263144"
    },
    {
      "id": "pt.ine.add.PTCONT.200061",
      "street": "R MADALENA SOTTO",
      "house": "",
      "postcode": "3720-126",
      "city": "OLIVEIRA DE AZEMÉIS",
      "lon": "-8.47151697568486",
      "lat": "40.837291741263144"
    },
    {
      "id": "pt.ine.add.PTCONT.200062",
      "street": "R MADALENA SOTTO",
      "house": "",
      "postcode": "3720-126",
      "city": "OLIVEIRA DE AZEMÉIS",
      "lon": "-8.47151697568486",
      "lat": "40.837291741263144"
    },
    {
      "id": "pt.ine.add.PTCONT.200076",
      "street": "R MADALENA SOTTO",
      "house": "",
      "postcode": "3720-126",
      "city": "OLIVEIRA DE AZEMÉIS",
      "lon": "-8.47151697568486",
      "lat": "40.837291741263144"
    },
    {
      "id": "pt.ine.add.PTCONT.235442",
      "street": "R MADALENA SOTTO",
      "house": "",
      "postcode": "3720-126",
      "city": "OLIVEIRA DE AZEMÉIS",
      "lon": "-8.471590174703882",
      "lat": "40.83769674555182"
    },
    {
      "id": "pt.ine.add.PTCONT.235443",
      "street": "R MADALENA SOTTO",
      "house": "",
      "postcode": "3720-126",
      "city": "OLIVEIRA DE AZEMÉIS",
      "lon": "-8.471590174703882",
      "lat": "40.83769674555182"
    },
    {
      "id": "pt.ine.add.PTCONT.235444",
      "street": "R MADALENA SOTTO",
      "house": "",
      "postcode": "3720-126",
      "city": "OLIVEIRA DE AZEMÉIS",
      "lon": "-8.471590174703882",
      "lat": "40.83769674555182"
    },
    {
      "id": "pt.ine.add.PTCONT.235445",
      "street": "R MADALENA SOTTO",
      "house": "",
      "postcode": "3720-126",
      "city": "OLIVEIRA DE AZEMÉIS",
      "lon": "-8.471590174703882",
      "lat": "40.83769674555182"
    },
    {
      "id": "pt.ine.add.PTCONT.235446",
      "street": "R MADALENA SOTTO",
      "house": "",
      "postcode": "3720-126",
      "city": "OLIVEIRA DE AZEMÉIS",
      "lon": "-8.471590174703882",
      "lat": "40.83769674555182"
    },
    {
      "id": "pt.ine.add.PTCONT.235447",
      "street": "R MADALENA SOTTO",
      "house": "",
      "postcode": "3720-126",
      "city": "OLIVEIRA DE AZEMÉIS",
      "lon": "-8.471590174703882",
      "lat": "40.83769674555182"
    },
    {
      "id": "pt.ine.add.PTCONT.235448",
      "street": "R MADALENA SOTTO",
      "house": "",
      "postcode": "3720-126",
      "city": "OLIVEIRA DE AZEMÉIS",
      "lon": "-8.471590174703882",
      "lat": "40.83769674555182"
    },
    {
      "id": "pt.ine.add.PTCONT.285660",
      "street": "CAM IGREJA VELHA",
      "house": "",
      "postcode": "3720-126",
      "city": "OLIVEIRA DE AZEMÉIS",
      "lon": "-8.47240716361636",
      "lat": "40.83747822880473"
    }
  ]
}