{
  "data": {
    "distrito": "Aveiro",
    "concelho": "Oliveira de Azeméis",
    "freguesia": "União das freguesias de Oliveira de Azeméis, Santiago da Riba-Ul, Ul, Macinhata da Seixa e Madail",
    "OBJECTID": 626,
    "BGRI2021": "01132101211",
    "DT21": "01",
    "DTMN21": "0113",
    "DTMNFR21": "011321",
    "DTMNFRSEC21": "011321012",
    "SECNUM21": "012",
    "SSNUM21": "11",
    "SECSSNUM21": "01211",
    "OBJECTID_1": 8703,
    "DT": "01",
    "CC": "13",
    "fr": "21",
    "SEC": "012",
    "SS": "11"
  },
  "addresses": [
    {
      "id": "pt.ine.add.PTCONT.301664",
      "street": "PC JOSE COSTA",
      "house": "34",
      "postcode": "3720-217",
      "city": "OLIVEIRA DE AZEMÉIS",
      "lon": "-8.476805034276417",
      "lat": "40.83959936351019"
    },
    {
      "id": "pt.ine.add.PTCONT.310123",
      "street": "R FERNANDO PAUL",
      "house": "5",
      "postcode": "3720-342",
      "city": "OLIVEIRA DE AZEMÉIS",
      "lon": "-8.476850972593573",
      "lat": "40.839311071006044"
    },
    {
      "id": "pt.ine.add.PTCONT.328362",
      "street": "R 16 DE MAIO",
      "house": "147",
      "postcode": "3720-246",
      "city": "OLIVEIRA DE AZEMÉIS",
      "lon": "-8.475630291621119",
      "lat": "40.83942276008503"
    },
    {
      "id": "pt.ine.add.PTCONT.345209",
      "street": "R 16 DE MAIO",
      "house": "127 C",
      "postcode": "3720-246",
      "city": "OLIVEIRA DE AZEMÉIS",
      "lon": "-8.475783222917205",
      "lat": "40.83918817946114"
    },
    {
      "id": "pt.ine.add.PTCONT.74065",
      "street": "R FERNANDO PAUL",
      "house": "53",
      "postcode": "3720-342",
      "city": "OLIVEIRA DE AZEMÉIS",
      "lon": "-8.47628106288663",
      "lat": "40.83915968502736"
    },
    {
      "id": "pt.ine.add.PTCONT.90625",
      "street": "R CONS BOAVENTURA SOUSA",
      "house": "8",
      "postcode": "3720-218",
      "city": "OLIVEIRA DE AZEMÉIS",
      "lon": "-8.47583282936557",
      "lat": "40.839611260699485"
    },
    {
      "id": "pt.ine.add.PTCONT.148176",
      "street": "R 16 DE MAIO",
      "house": "127 C",
      "postcode": "3720-246",
      "city": "OLIVEIRA DE AZEMÉIS",
      "lon": "-8.475783222917205",
      "lat": "40.83918817946114"
    },
    {
      "id": "pt.ine.add.PTCONT.148177",
      "street": "R 16 DE MAIO",
      "house": "127 C",
      "postcode": "3720-246",
      "city": "OLIVEIRA DE AZEMÉIS",
      "lon": "-8.475783222917205",
      "lat": "40.83918817946114"
    },
    {
      "id": "pt.ine.add.PTCONT.148178",
      "street": "R 16 DE MAIO",
      "house": "127 C",
      "postcode": "3720-246",
      "city": "OLIVEIRA DE AZEMÉIS",
      "lon": "-8.475783222917205",
      "lat": "40.83918817946114"
    },
    {
      "id": "pt.ine.add.PTCONT.148179",
      "street": "R 16 DE MAIO",
      "house": "127 C",
      "postcode": "3720-246",
      "city": "OLIVEIRA DE AZEMÉIS",
      "lon": "-8.475783222917205",
      "lat": "40.83918817946114"
    },
    {
      "id": "pt.ine.add.PTCONT.148180",
      "street": "R 16 MAIO",
      "house": "127",
      "postcode": "3720-246",
      "city": "OLIVEIRA DE AZEMÉIS",
      "lon": "-8.475783222917205",
      "lat": "40.83918817946114"
    },
    {
      "id": "pt.ine.add.PTCONT.148181",
      "street": "R 16 DE MAIO",
      "house": "127 C",
      "postcode": "3720-246",
      "city": "OLIVEIRA DE AZEMÉIS",
      "lon": "-8.475783222917205",
      "lat": "40.83918817946114"
    },
    {
      "id": "pt.ine.add.PTCONT.148182",
      "street": "R 16 DE MAIO",
      "house": "127 C",
      "postcode": "3720-246",
      "city": "OLIVEIRA DE AZEMÉIS",
      "lon": "-8.475783222917205",
      "lat": "40.83918817946114"
    },
    {
      "id": "pt.ine.add.PTCONT.148183",
      "street": "R 16 DE MAIO",
      "house": "127 C",
      "postcode": "3720-246",
      "city": "OLIVEIRA DE AZEMÉIS",
      "lon": "-8.475783222917205",
      "lat": "40.83918817946114"
    },
    {
      "id": "pt.ine.add.PTCONT.148184",
      "street": "R 16 DE MAIO",
      "house": "127 C",
      "postcode": "3720-246",
      "city": "OLIVEIRA DE AZEMÉIS",
      "lon": "-8.475783222917205",
      "lat": "40.83918817946114"
    },
    {
      "id": "pt.ine.add.PTCONT.149333",
      "street": "R 16 DE MAIO",
      "house": "127 C",
      "postcode": "3720-246",
      "city": "OLIVEIRA DE AZEMÉIS",
      "lon": "-8.475783222917205",
      "lat": "40.83918817946114"
    },
    {
      "id": "pt.ine.add.PTCONT.169948",
      "street": "R CONS BOAVENTURA SOUSA",
      "house": "76",
      "postcode": "3720-218",
      "city": "OLIVEIRA DE AZEMÉIS",
      "lon": "-8.47599794187349",
      "lat": "40.83943967765663"
    },
    {
      "id": "pt.ine.add.PTCONT.256231",
      "street": "R CONS BOAVENTURA SOUSA",
      "house": "",
      "postcode": "3720-218",
      "city": "OLIVEIRA DE AZEMÉIS",
      "lon": "-8.476046575285967",
      "lat": "40.83967365954812"
    },
    {
      "id": "pt.ine.add.PTCONT.258917",
      "street": "PC JOSE COSTA",
      "house": "16",
      "postcode": "3720-217",
      "city": "OLIVEIRA DE AZEMÉIS",
      "lon": "-8.476839999729018",
      "lat": "40.83948219611008"
    },
    {
      "id": "pt.ine.add.PTCONT.261249",
      "street": "R FERNANDO PAUL",
      "house": "63",
      "postcode": "3720-342",
      "city": "OLIVEIRA DE AZEMÉIS",
      "lon": "-8.47605550817958",
      "lat": "40.83910632657528"
    }
  ]
}