{
  "data": {
    "distrito": "Leiria",
    "concelho": "Alcoba√ßa",
    "freguesia": "Benedita",
    "OBJECTID": 1067,
    "BGRI2021": "10010500406",
    "DT21": "10",
    "DTMN21": "1001",
    "DTMNFR21": "100105",
    "DTMNFRSEC21": "100105004",
    "SECNUM21": "004",
    "SSNUM21": "06",
    "SECSSNUM21": "00406",
    "OBJECTID_1": 84555,
    "DT": "10",
    "CC": "01",
    "fr": "05",
    "SEC": "004",
    "SS": "06"
  },
  "addresses": [
    {
      "id": "pt.ine.add.PTCONT.1984114",
      "street": "R MILHARADA",
      "house": "11",
      "postcode": "2475-013",
      "city": "BENEDITA",
      "lon": "-8.992870944150734",
      "lat": "39.411842973176036"
    },
    {
      "id": "pt.ine.add.PTCONT.1999734",
      "street": "BC CARRIS",
      "house": "",
      "postcode": "2475-013",
      "city": "BENEDITA",
      "lon": "-8.993270447255187",
      "lat": "39.412227317204454"
    },
    {
      "id": "pt.ine.add.PTCONT.1999735",
      "street": "R MILHARADA",
      "house": "21",
      "postcode": "2475-013",
      "city": "BENEDITA",
      "lon": "-8.993523533196962",
      "lat": "39.411090574257194"
    },
    {
      "id": "pt.ine.add.PTCONT.2017047",
      "street": "R MILHARADA",
      "house": "7",
      "postcode": "2475-013",
      "city": "BENEDITA",
      "lon": "-8.995372074275911",
      "lat": "39.41128404625341"
    },
    {
      "id": "pt.ine.add.PTCONT.2045545",
      "street": "R SANTO AMARO",
      "house": "4",
      "postcode": "2475-013",
      "city": "BENEDITA",
      "lon": "-8.994086040625726",
      "lat": "39.41245546346195"
    },
    {
      "id": "pt.ine.add.PTCONT.2065590",
      "street": "R MILHARADA",
      "house": "1S",
      "postcode": "2475-013",
      "city": "BENEDITA",
      "lon": "-8.99294856434405",
      "lat": "39.41154517127364"
    },
    {
      "id": "pt.ine.add.PTCONT.2080499",
      "street": "BC CARRIS",
      "house": "7",
      "postcode": "2475-013",
      "city": "BENEDITA",
      "lon": "-8.993547763335757",
      "lat": "39.412117183376765"
    },
    {
      "id": "pt.ine.add.PTCONT.2110786",
      "street": "R MILHARADA",
      "house": "9",
      "postcode": "2475-013",
      "city": "BENEDITA",
      "lon": "-8.992849272505056",
      "lat": "39.411969230154426"
    },
    {
      "id": "pt.ine.add.PTCONT.2130649",
      "street": "R MILHARADA",
      "house": "7",
      "postcode": "2475-013",
      "city": "BENEDITA",
      "lon": "-8.992908871972789",
      "lat": "39.412094886474776"
    },
    {
      "id": "pt.ine.add.PTCONT.2133118",
      "street": "R MILHARADA",
      "house": "23",
      "postcode": "2475-013",
      "city": "BENEDITA",
      "lon": "-8.99331322511276",
      "lat": "39.410984046574036"
    },
    {
      "id": "pt.ine.add.PTCONT.2142247",
      "street": "R MILHARADA",
      "house": "19",
      "postcode": "2475-013",
      "city": "BENEDITA",
      "lon": "-8.993130452856727",
      "lat": "39.41122858467364"
    },
    {
      "id": "pt.ine.add.PTCONT.2170356",
      "street": "R MILHARADA",
      "house": "1",
      "postcode": "2475-013",
      "city": "BENEDITA",
      "lon": "-8.992970905566887",
      "lat": "39.412418676885956"
    },
    {
      "id": "pt.ine.add.PTCONT.2178885",
      "street": "R SANTO AMARO",
      "house": "",
      "postcode": "2475-013",
      "city": "BENEDITA",
      "lon": "-8.994419634217987",
      "lat": "39.41220080040562"
    },
    {
      "id": "pt.ine.add.PTCONT.2204047",
      "street": "R MILHARADA",
      "house": "5",
      "postcode": "2475-013",
      "city": "BENEDITA",
      "lon": "-8.992933862341948",
      "lat": "39.412238812401114"
    },
    {
      "id": "pt.ine.add.PTCONT.2223454",
      "street": "R MILHARADA",
      "house": "27",
      "postcode": "2475-013",
      "city": "BENEDITA",
      "lon": "-8.993611763402862",
      "lat": "39.41071163116388"
    },
    {
      "id": "pt.ine.add.PTCONT.2225468",
      "street": "R MILHARADA",
      "house": "27",
      "postcode": "2475-013",
      "city": "BENEDITA",
      "lon": "-8.993611763402862",
      "lat": "39.41071163116388"
    },
    {
      "id": "pt.ine.add.PTCONT.2227420",
      "street": "R DA MILHARADA",
      "house": "17",
      "postcode": "2475-013",
      "city": "BENEDITA",
      "lon": "-8.993039342847188",
      "lat": "39.41137336886215"
    },
    {
      "id": "pt.ine.add.PTCONT.2227716",
      "street": "R MILHARADA",
      "house": "13",
      "postcode": "2475-013",
      "city": "BENEDITA",
      "lon": "-8.993912643663979",
      "lat": "39.41157406906471"
    },
    {
      "id": "pt.ine.add.PTCONT.2236106",
      "street": "BC CARRIS",
      "house": "3",
      "postcode": "2475-013",
      "city": "BENEDITA",
      "lon": "-8.993366649273478",
      "lat": "39.41249681325441"
    },
    {
      "id": "pt.ine.add.PTCONT.2249657",
      "street": "BC CARRIS",
      "house": "1",
      "postcode": "2475-013",
      "city": "BENEDITA",
      "lon": "-8.99305372613647",
      "lat": "39.412544161476525"
    }
  ]
}