{
  "data": {
    "distrito": "Leiria",
    "concelho": "Alcobaça",
    "freguesia": "Benedita",
    "OBJECTID": 1152,
    "BGRI2021": "10010500424",
    "DT21": "10",
    "DTMN21": "1001",
    "DTMNFR21": "100105",
    "DTMNFRSEC21": "100105004",
    "SECNUM21": "004",
    "SSNUM21": "24",
    "SECSSNUM21": "00424",
    "OBJECTID_1": 85043,
    "DT": "10",
    "CC": "01",
    "fr": "05",
    "SEC": "004",
    "SS": "24"
  },
  "addresses": [
    {
      "id": "pt.ine.add.PTCONT.1986370",
      "street": "R VALE DA FRANCA",
      "house": "13",
      "postcode": "2475-011",
      "city": "BENEDITA",
      "lon": "-8.98939900378126",
      "lat": "39.418470647811034"
    },
    {
      "id": "pt.ine.add.PTCONT.1999111",
      "street": "R CABECO",
      "house": "",
      "postcode": "2475-040",
      "city": "BENEDITA",
      "lon": "-8.992315747586806",
      "lat": "39.41674683512375"
    },
    {
      "id": "pt.ine.add.PTCONT.1999683",
      "street": "R VALE DA FRANCA",
      "house": "16",
      "postcode": "2475-011",
      "city": "BENEDITA",
      "lon": "-8.989218334999629",
      "lat": "39.417940570086046"
    },
    {
      "id": "pt.ine.add.PTCONT.2019982",
      "street": "R VALE DA FRANCA",
      "house": "2",
      "postcode": "2475-011",
      "city": "BENEDITA",
      "lon": "-8.989604444876155",
      "lat": "39.41628045662263"
    },
    {
      "id": "pt.ine.add.PTCONT.2032355",
      "street": "R VALE DA FRANCA",
      "house": "4",
      "postcode": "2475-011",
      "city": "BENEDITA",
      "lon": "-8.989502922464121",
      "lat": "39.41652439063866"
    },
    {
      "id": "pt.ine.add.PTCONT.2043351",
      "street": "R ALGARÃO",
      "house": "14",
      "postcode": "2475-011",
      "city": "BENEDITA",
      "lon": "-8.98861950201494",
      "lat": "39.4164498288362"
    },
    {
      "id": "pt.ine.add.PTCONT.2049188",
      "street": "R BARREIRO",
      "house": "15",
      "postcode": "2475-011",
      "city": "BENEDITA",
      "lon": "-8.991202880285652",
      "lat": "39.415953434747735"
    },
    {
      "id": "pt.ine.add.PTCONT.2049190",
      "street": "R ALGARÃO",
      "house": "16",
      "postcode": "2475-011",
      "city": "BENEDITA",
      "lon": "-8.988952867260245",
      "lat": "39.41712289486705"
    },
    {
      "id": "pt.ine.add.PTCONT.2053121",
      "street": "R BARREIRO",
      "house": "7",
      "postcode": "2475-011",
      "city": "BENEDITA",
      "lon": "-8.989255237282354",
      "lat": "39.416210971984725"
    },
    {
      "id": "pt.ine.add.PTCONT.2056566",
      "street": "R SOUSINHO",
      "house": "3",
      "postcode": "2475-040",
      "city": "BENEDITA",
      "lon": "-8.992523197583232",
      "lat": "39.4175649312338"
    },
    {
      "id": "pt.ine.add.PTCONT.2073215",
      "street": "R VALE DA FRANCA",
      "house": "10",
      "postcode": "2475-011",
      "city": "BENEDITA",
      "lon": "-8.989243803662902",
      "lat": "39.417174795448815"
    },
    {
      "id": "pt.ine.add.PTCONT.2078184",
      "street": "R BARREIRO",
      "house": "11",
      "postcode": "2475-011",
      "city": "BENEDITA",
      "lon": "-8.990143618110306",
      "lat": "39.41669080334631"
    },
    {
      "id": "pt.ine.add.PTCONT.2087198",
      "street": "R FACA",
      "house": "1",
      "postcode": "2475-011",
      "city": "BENEDITA",
      "lon": "-8.989074530216179",
      "lat": "39.41662661968145"
    },
    {
      "id": "pt.ine.add.PTCONT.2091527",
      "street": "R VALE DA FRANCA",
      "house": "30",
      "postcode": "2475-011",
      "city": "BENEDITA",
      "lon": "-8.98949251576698",
      "lat": "39.419469725968845"
    },
    {
      "id": "pt.ine.add.PTCONT.2095700",
      "street": "R BARREIRO",
      "house": "11 A",
      "postcode": "2475-011",
      "city": "BENEDITA",
      "lon": "-8.990733127324647",
      "lat": "39.41647029281681"
    },
    {
      "id": "pt.ine.add.PTCONT.2105593",
      "street": "R FACA",
      "house": "2",
      "postcode": "2475-011",
      "city": "BENEDITA",
      "lon": "-8.98914661927608",
      "lat": "39.41682424121304"
    },
    {
      "id": "pt.ine.add.PTCONT.2113623",
      "street": "R PARQUE",
      "house": "",
      "postcode": "2475-040",
      "city": "BENEDITA",
      "lon": "-8.991423596203083",
      "lat": "39.415960813317234"
    },
    {
      "id": "pt.ine.add.PTCONT.2113644",
      "street": "R BARREIRO",
      "house": "11",
      "postcode": "2475-011",
      "city": "BENEDITA",
      "lon": "-8.990115212994153",
      "lat": "39.416267687875916"
    },
    {
      "id": "pt.ine.add.PTCONT.2139318",
      "street": "R SOUSINHO",
      "house": "1",
      "postcode": "2475-040",
      "city": "BENEDITA",
      "lon": "-8.992567651078396",
      "lat": "39.417402478480355"
    },
    {
      "id": "pt.ine.add.PTCONT.2163426",
      "street": "R BARREIRO",
      "house": "13",
      "postcode": "2475-011",
      "city": "BENEDITA",
      "lon": "-8.99075171389499",
      "lat": "39.416091865589"
    },
    {
      "id": "pt.ine.add.PTCONT.2170354",
      "street": "R PARQUE",
      "house": "9",
      "postcode": "2475-040",
      "city": "BENEDITA",
      "lon": "-8.991563146913364",
      "lat": "39.415977797379405"
    },
    {
      "id": "pt.ine.add.PTCONT.2190019",
      "street": "R SOUSINHO",
      "house": "5",
      "postcode": "2475-040",
      "city": "BENEDITA",
      "lon": "-8.9926071296823",
      "lat": "39.41778047686606"
    },
    {
      "id": "pt.ine.add.PTCONT.2199133",
      "street": "R CABEÇO",
      "house": "5",
      "postcode": "2475-040",
      "city": "BENEDITA",
      "lon": "-8.992352681253385",
      "lat": "39.41691769356751"
    },
    {
      "id": "pt.ine.add.PTCONT.2212623",
      "street": "R CABECO",
      "house": "13",
      "postcode": "2475-040",
      "city": "BENEDITA",
      "lon": "-8.99250683101392",
      "lat": "39.41717775515036"
    },
    {
      "id": "pt.ine.add.PTCONT.2212642",
      "street": "R VALE DA FRANCA",
      "house": "36",
      "postcode": "2475-011",
      "city": "BENEDITA",
      "lon": "-8.989231733734607",
      "lat": "39.41998503914757"
    },
    {
      "id": "pt.ine.add.PTCONT.2221315",
      "street": "R ALGARÃO",
      "house": "18",
      "postcode": "2475-011",
      "city": "BENEDITA",
      "lon": "-8.988886284693196",
      "lat": "39.417375578162606"
    },
    {
      "id": "pt.ine.add.PTCONT.2223448",
      "street": "R CABECO",
      "house": "9",
      "postcode": "2475-040",
      "city": "BENEDITA",
      "lon": "-8.992447227769139",
      "lat": "39.417052098772494"
    },
    {
      "id": "pt.ine.add.PTCONT.2246761",
      "street": "R ALGARÃO",
      "house": "5",
      "postcode": "2475-011",
      "city": "BENEDITA",
      "lon": "-8.989023350425503",
      "lat": "39.41623969913852"
    },
    {
      "id": "pt.ine.add.PTCONT.2266575",
      "street": "R DO BARREIRO",
      "house": "11B",
      "postcode": "2475-011",
      "city": "BENEDITA",
      "lon": "-8.99060198675131",
      "lat": "39.41619204539517"
    }
  ]
}