{
  "data": {
    "distrito": "Lisboa",
    "concelho": "Mafra",
    "freguesia": "Mafra",
    "OBJECTID": 1033,
    "BGRI2021": "11090901434",
    "DT21": "11",
    "DTMN21": "1109",
    "DTMNFR21": "110909",
    "DTMNFRSEC21": "110909014",
    "SECNUM21": "014",
    "SSNUM21": "34",
    "SECSSNUM21": "01434",
    "OBJECTID_1": 109647,
    "DT": "11",
    "CC": "09",
    "fr": "09",
    "SEC": "014",
    "SS": "34"
  },
  "addresses": [
    {
      "id": "pt.ine.add.PTCONT.2320494",
      "street": "R ENG RUI MANUEL NOGUEIRA SIMÕES",
      "house": "7",
      "postcode": "2640-541",
      "city": "MAFRA",
      "lon": "-9.354377261611509",
      "lat": "38.943448673357835"
    },
    {
      "id": "pt.ine.add.PTCONT.2352937",
      "street": "R ANTÓNIO FIGUEIREDO DE CARDOSO",
      "house": "13",
      "postcode": "2640-406",
      "city": "MAFRA",
      "lon": "-9.361889826206578",
      "lat": "38.94500916395642"
    },
    {
      "id": "pt.ine.add.PTCONT.2550618",
      "street": "R ENG RUI MANUEL NOGUEIRA SIMOES",
      "house": "24",
      "postcode": "2640-541",
      "city": "MAFRA",
      "lon": "-9.353563892742482",
      "lat": "38.94377244113973"
    },
    {
      "id": "pt.ine.add.PTCONT.2568308",
      "street": "CAM FONTAÍNHAS",
      "house": "",
      "postcode": "2640-431",
      "city": "MAFRA",
      "lon": "-9.36449705013844",
      "lat": "38.94370263322724"
    },
    {
      "id": "pt.ine.add.PTCONT.2772977",
      "street": "CAM FONTAÍNHAS",
      "house": "",
      "postcode": "2640-431",
      "city": "MAFRA",
      "lon": "-9.364403859207698",
      "lat": "38.94364957206854"
    },
    {
      "id": "pt.ine.add.PTCONT.2781667",
      "street": "CAM FONTAÍNHAS",
      "house": "",
      "postcode": "2640-431",
      "city": "MAFRA",
      "lon": "-9.35951805353471",
      "lat": "38.94325064650936"
    },
    {
      "id": "pt.ine.add.PTCONT.3153006",
      "street": "R COMEND JOSE NORONHA GORJÃO",
      "house": "5",
      "postcode": "2640-408",
      "city": "MAFRA",
      "lon": "-9.357659569070078",
      "lat": "38.94450417565717"
    },
    {
      "id": "pt.ine.add.PTCONT.3397317",
      "street": "CAM FONTAÍNHAS",
      "house": "",
      "postcode": "2640-431",
      "city": "MAFRA",
      "lon": "-9.364440013245597",
      "lat": "38.943739264610656"
    },
    {
      "id": "pt.ine.add.PTCONT.3450737",
      "street": "AV ANTÓNIO SEVERINO ALVES",
      "house": "25",
      "postcode": "2640-407",
      "city": "MAFRA",
      "lon": "-9.361209047927963",
      "lat": "38.946331409893"
    }
  ]
}