{
  "data": {
    "distrito": "Braga",
    "concelho": "Guimarães",
    "freguesia": "União das freguesias de Souto Santa Maria, Souto São Salvador e Gondomar",
    "OBJECTID": 136,
    "BGRI2021": "03089000219",
    "DT21": "03",
    "DTMN21": "0308",
    "DTMNFR21": "030890",
    "DTMNFRSEC21": "030890002",
    "SECNUM21": "002",
    "SSNUM21": "19",
    "SECSSNUM21": "00219",
    "OBJECTID_1": 26243,
    "DT": "03",
    "CC": "08",
    "fr": "90",
    "SEC": "002",
    "SS": "19"
  },
  "addresses": [
    {
      "id": "pt.ine.add.PTCONT.483822",
      "street": "R BOAVISTA",
      "house": "237",
      "postcode": "4800-196",
      "city": "GONDOMAR GMR",
      "lon": "-8.263758579751151",
      "lat": "41.52857249524357"
    },
    {
      "id": "pt.ine.add.PTCONT.483823",
      "street": "R CANTONEIRO",
      "house": "168",
      "postcode": "4800-196",
      "city": "GONDOMAR GMR",
      "lon": "-8.26336162613604",
      "lat": "41.52779861836223"
    },
    {
      "id": "pt.ine.add.PTCONT.519632",
      "street": "TV S JOAO",
      "house": "125",
      "postcode": "4800-196",
      "city": "GONDOMAR GMR",
      "lon": "-8.264569061284867",
      "lat": "41.52645567742411"
    },
    {
      "id": "pt.ine.add.PTCONT.519633",
      "street": "R PAUL",
      "house": "125",
      "postcode": "4800-196",
      "city": "GONDOMAR GMR",
      "lon": "-8.264569061284867",
      "lat": "41.52645567742411"
    },
    {
      "id": "pt.ine.add.PTCONT.540510",
      "street": "CC FLORES",
      "house": "79",
      "postcode": "4800-196",
      "city": "GONDOMAR GMR",
      "lon": "-8.263804314517092",
      "lat": "41.527482982946815"
    },
    {
      "id": "pt.ine.add.PTCONT.543524",
      "street": "R PAUL",
      "house": "103",
      "postcode": "4800-196",
      "city": "GONDOMAR GMR",
      "lon": "-8.265024264680594",
      "lat": "41.52641013714954"
    },
    {
      "id": "pt.ine.add.PTCONT.581191",
      "street": "R CANTONEIRO",
      "house": "",
      "postcode": "4800-196",
      "city": "GONDOMAR GMR",
      "lon": "-8.26410151258497",
      "lat": "41.52632115382088"
    },
    {
      "id": "pt.ine.add.PTCONT.583942",
      "street": "TV S JOÃO",
      "house": "13",
      "postcode": "4800-196",
      "city": "GONDOMAR GMR",
      "lon": "-8.26515770809231",
      "lat": "41.52722032656635"
    },
    {
      "id": "pt.ine.add.PTCONT.587253",
      "street": "AV D AFONSO HENRIQUES",
      "house": "4406",
      "postcode": "4800-440",
      "city": "GONDOMAR GMR",
      "lon": "-8.26314979601597",
      "lat": "41.52971666818163"
    },
    {
      "id": "pt.ine.add.PTCONT.593088",
      "street": "TV S JOÃO",
      "house": "248",
      "postcode": "4800-196",
      "city": "GONDOMAR GMR",
      "lon": "-8.264461465030358",
      "lat": "41.52657284985375"
    },
    {
      "id": "pt.ine.add.PTCONT.593089",
      "street": "R AZENHA",
      "house": "141",
      "postcode": "4800-196",
      "city": "GONDOMAR GMR",
      "lon": "-8.265120463890366",
      "lat": "41.52658109909187"
    },
    {
      "id": "pt.ine.add.PTCONT.604886",
      "street": "R CANTONEIRO",
      "house": "180",
      "postcode": "4800-196",
      "city": "GONDOMAR GMR",
      "lon": "-8.263361951194796",
      "lat": "41.52796068647753"
    },
    {
      "id": "pt.ine.add.PTCONT.610130",
      "street": "R CHORIZ",
      "house": "128",
      "postcode": "4800-196",
      "city": "GONDOMAR GMR",
      "lon": "-8.262585939722694",
      "lat": "41.52936615610885"
    },
    {
      "id": "pt.ine.add.PTCONT.614467",
      "street": "R AZENHA",
      "house": "87",
      "postcode": "4800-196",
      "city": "GONDOMAR GMR",
      "lon": "-8.26508519648039",
      "lat": "41.526914280403986"
    },
    {
      "id": "pt.ine.add.PTCONT.623106",
      "street": "R CHORIZ",
      "house": "",
      "postcode": "4800-196",
      "city": "GONDOMAR GMR",
      "lon": "-8.262453886855187",
      "lat": "41.52924025147218"
    },
    {
      "id": "pt.ine.add.PTCONT.634080",
      "street": "TV S JOÃO",
      "house": "5",
      "postcode": "4800-196",
      "city": "GONDOMAR GMR",
      "lon": "-8.264774370415779",
      "lat": "41.527256781303656"
    },
    {
      "id": "pt.ine.add.PTCONT.644062",
      "street": "R BOAVISTA",
      "house": "101",
      "postcode": "4800-196",
      "city": "GONDOMAR GMR",
      "lon": "-8.263328082284236",
      "lat": "41.52899616225776"
    },
    {
      "id": "pt.ine.add.PTCONT.663013",
      "street": "TV S JOÃO",
      "house": "48",
      "postcode": "4800-196",
      "city": "GONDOMAR GMR",
      "lon": "-8.26449879382173",
      "lat": "41.527257096476"
    },
    {
      "id": "pt.ine.add.PTCONT.669653",
      "street": "TV S JOÃO",
      "house": "61",
      "postcode": "4800-196",
      "city": "GONDOMAR GMR",
      "lon": "-8.26440255883597",
      "lat": "41.52706812646274"
    },
    {
      "id": "pt.ine.add.PTCONT.723369",
      "street": "R CANTONEIRO",
      "house": "207",
      "postcode": "4800-196",
      "city": "GONDOMAR GMR",
      "lon": "-8.263158496327398",
      "lat": "41.52807796618871"
    },
    {
      "id": "pt.ine.add.PTCONT.729032",
      "street": "TV S JOÃO",
      "house": "297",
      "postcode": "4800-196",
      "city": "GONDOMAR GMR",
      "lon": "-8.264233580870501",
      "lat": "41.52645606041988"
    },
    {
      "id": "pt.ine.add.PTCONT.736167",
      "street": "CC FLORES",
      "house": "3",
      "postcode": "4800-196",
      "city": "GONDOMAR GMR",
      "lon": "-8.264091982669152",
      "lat": "41.52753667849838"
    },
    {
      "id": "pt.ine.add.PTCONT.750128",
      "street": "R BOAVISTA",
      "house": "434",
      "postcode": "4800-196",
      "city": "GONDOMAR GMR",
      "lon": "-8.264092382187586",
      "lat": "41.52773476175309"
    },
    {
      "id": "pt.ine.add.PTCONT.756055",
      "street": "R BOAVISTA",
      "house": "243",
      "postcode": "4800-196",
      "city": "GONDOMAR GMR",
      "lon": "-8.26437961489568",
      "lat": "41.52757236576064"
    },
    {
      "id": "pt.ine.add.PTCONT.797451",
      "street": "R BOAVISTA",
      "house": "343",
      "postcode": "4800-196",
      "city": "GONDOMAR GMR",
      "lon": "-8.264212835168953",
      "lat": "41.5280497576599"
    },
    {
      "id": "pt.ine.add.PTCONT.827997",
      "street": "R BOAVISTA",
      "house": "569",
      "postcode": "4800-196",
      "city": "GONDOMAR GMR",
      "lon": "-8.26493040523627",
      "lat": "41.52739165963804"
    },
    {
      "id": "pt.ine.add.PTCONT.827998",
      "street": "R BOAVISTA",
      "house": "569",
      "postcode": "4800-196",
      "city": "GONDOMAR GMR",
      "lon": "-8.26493040523627",
      "lat": "41.52739165963804"
    },
    {
      "id": "pt.ine.add.PTCONT.831474",
      "street": "CC BRASILEIRO",
      "house": "345",
      "postcode": "4800-196",
      "city": "GONDOMAR GMR",
      "lon": "-8.26578003310056",
      "lat": "41.52686846189217"
    },
    {
      "id": "pt.ine.add.PTCONT.844656",
      "street": "CC FLORES",
      "house": "3",
      "postcode": "4800-196",
      "city": "GONDOMAR GMR",
      "lon": "-8.264091982669152",
      "lat": "41.52753667849838"
    }
  ]
}