{
  "data": {
    "distrito": "Santarém",
    "concelho": "Torres Novas",
    "freguesia": "Riachos",
    "OBJECTID": 765,
    "BGRI2021": "14191000516",
    "DT21": "14",
    "DTMN21": "1419",
    "DTMNFR21": "141910",
    "DTMNFRSEC21": "141910005",
    "SECNUM21": "005",
    "SSNUM21": "16",
    "SECSSNUM21": "00516",
    "OBJECTID_1": 157888,
    "DT": "14",
    "CC": "19",
    "fr": "10",
    "SEC": "005",
    "SS": "16"
  },
  "addresses": [
    {
      "id": "pt.ine.add.PTCONT.4402247",
      "street": "R CAMPO QTA NOSA",
      "house": "",
      "postcode": "2350-350",
      "city": "RIACHOS",
      "lon": "-8.518989845030296",
      "lat": "39.43696072441788"
    },
    {
      "id": "pt.ine.add.PTCONT.4402318",
      "street": "R CAMPO",
      "house": "36",
      "postcode": "2350-350",
      "city": "RIACHOS",
      "lon": "-8.518099295130085",
      "lat": "39.435549570675704"
    },
    {
      "id": "pt.ine.add.PTCONT.4413806",
      "street": "R CAMPO",
      "house": "54",
      "postcode": "2350-350",
      "city": "RIACHOS",
      "lon": "-8.51781562808582",
      "lat": "39.434658812419535"
    },
    {
      "id": "pt.ine.add.PTCONT.4415656",
      "street": "R CAMPO",
      "house": "32",
      "postcode": "2350-350",
      "city": "RIACHOS",
      "lon": "-8.518158362361143",
      "lat": "39.43572951590797"
    },
    {
      "id": "pt.ine.add.PTCONT.4420895",
      "street": "R CAMPO",
      "house": "60",
      "postcode": "2350-350",
      "city": "RIACHOS",
      "lon": "-8.517732986105468",
      "lat": "39.434415895657295"
    },
    {
      "id": "pt.ine.add.PTCONT.4445608",
      "street": "R CAMPO",
      "house": "38",
      "postcode": "2350-350",
      "city": "RIACHOS",
      "lon": "-8.518064003654084",
      "lat": "39.435468624139546"
    },
    {
      "id": "pt.ine.add.PTCONT.4456214",
      "street": "R RIACHINHOS QTA DA VÁRZEA",
      "house": "66",
      "postcode": "2350-359",
      "city": "RIACHOS",
      "lon": "-8.518632502583598",
      "lat": "39.43956494196231"
    },
    {
      "id": "pt.ine.add.PTCONT.4479452",
      "street": "R CAMPO",
      "house": "56",
      "postcode": "2350-350",
      "city": "RIACHOS",
      "lon": "-8.517780089727433",
      "lat": "39.434532831404304"
    },
    {
      "id": "pt.ine.add.PTCONT.4493796",
      "street": "R CAMPO",
      "house": "30",
      "postcode": "2350-350",
      "city": "RIACHOS",
      "lon": "-8.518229045069114",
      "lat": "39.43590942264675"
    },
    {
      "id": "pt.ine.add.PTCONT.4499115",
      "street": "R CAMPO",
      "house": "40",
      "postcode": "2350-350",
      "city": "RIACHOS",
      "lon": "-8.51804027777498",
      "lat": "39.435378632280205"
    },
    {
      "id": "pt.ine.add.PTCONT.4499116",
      "street": "R CAMPO",
      "house": "58",
      "postcode": "2350-350",
      "city": "RIACHOS",
      "lon": "-8.517744848671505",
      "lat": "39.434460891628355"
    },
    {
      "id": "pt.ine.add.PTCONT.4501851",
      "street": "R RIACHINHOS QTA DA VÁRZEA",
      "house": "66",
      "postcode": "2350-359",
      "city": "RIACHOS",
      "lon": "-8.519005698414167",
      "lat": "39.43983391534269"
    },
    {
      "id": "pt.ine.add.PTCONT.4530429",
      "street": "R CAMPO",
      "house": "22",
      "postcode": "2350-350",
      "city": "RIACHOS",
      "lon": "-8.518418460307542",
      "lat": "39.436557301976094"
    },
    {
      "id": "pt.ine.add.PTCONT.4536759",
      "street": "R CAMPO",
      "house": "18",
      "postcode": "2350-350",
      "city": "RIACHOS",
      "lon": "-8.518535456859281",
      "lat": "39.436710033966385"
    },
    {
      "id": "pt.ine.add.PTCONT.4538837",
      "street": "R CAMPO",
      "house": "44",
      "postcode": "2350-350",
      "city": "RIACHOS",
      "lon": "-8.517969397863009",
      "lat": "39.435162697908495"
    },
    {
      "id": "pt.ine.add.PTCONT.4561584",
      "street": "R CAMPO",
      "house": "28A",
      "postcode": "2350-350",
      "city": "RIACHOS",
      "lon": "-8.518462043186668",
      "lat": "39.436034749488954"
    },
    {
      "id": "pt.ine.add.PTCONT.4578125",
      "street": "R CAMPO",
      "house": "20",
      "postcode": "2350-350",
      "city": "RIACHOS",
      "lon": "-8.518442137462356",
      "lat": "39.436638286864294"
    },
    {
      "id": "pt.ine.add.PTCONT.4584444",
      "street": "R CAMPO",
      "house": "46",
      "postcode": "2350-350",
      "city": "RIACHOS",
      "lon": "-8.517945473989512",
      "lat": "39.43503667852636"
    },
    {
      "id": "pt.ine.add.PTCONT.4606073",
      "street": "R CAMPO",
      "house": "62",
      "postcode": "2350-350",
      "city": "RIACHOS",
      "lon": "-8.517721024503693",
      "lat": "39.434352885933144"
    },
    {
      "id": "pt.ine.add.PTCONT.4618537",
      "street": "R CAMPO",
      "house": "42",
      "postcode": "2350-350",
      "city": "RIACHOS",
      "lon": "-8.518016502392559",
      "lat": "39.43527963354031"
    },
    {
      "id": "pt.ine.add.PTCONT.4628956",
      "street": "R CAMPO",
      "house": "34",
      "postcode": "2350-350",
      "city": "RIACHOS",
      "lon": "-8.518134586688452",
      "lat": "39.43563051719964"
    },
    {
      "id": "pt.ine.add.PTCONT.4634365",
      "street": "R CAMPO",
      "house": "48",
      "postcode": "2350-350",
      "city": "RIACHOS",
      "lon": "-8.517910182954784",
      "lat": "39.43495573193423"
    },
    {
      "id": "pt.ine.add.PTCONT.4642439",
      "street": "R CAMPO",
      "house": "52",
      "postcode": "2350-350",
      "city": "RIACHOS",
      "lon": "-8.517839303883017",
      "lat": "39.43473979746348"
    },
    {
      "id": "pt.ine.add.PTCONT.4650370",
      "street": "R CAMPO",
      "house": "28",
      "postcode": "2350-350",
      "city": "RIACHOS",
      "lon": "-8.51828786493685",
      "lat": "39.43604433343649"
    },
    {
      "id": "pt.ine.add.PTCONT.4659762",
      "street": "R CAMPO",
      "house": "18 A",
      "postcode": "2350-350",
      "city": "RIACHOS",
      "lon": "-8.518732867329465",
      "lat": "39.43670037262761"
    }
  ]
}