{
  "data": {
    "ilha": "Ilha de São Miguel (Açores)",
    "concelho": "Ponta Delgada",
    "freguesia": "Ponta Delgada (São José)",
    "OBJECTID": 834,
    "BGRI2021": "42031300403",
    "DT21": "42",
    "DTMN21": "4203",
    "DTMNFR21": "420313",
    "DTMNFRSEC21": "420313004",
    "SECNUM21": "004",
    "SSNUM21": "03",
    "SECSSNUM21": "00403",
    "OBJECTID_1": 206481,
    "DT": "42",
    "CC": "03",
    "fr": "13",
    "SEC": "004",
    "SS": "03",
    "BGRI2021_1": "42031300403"
  },
  "addresses": [
    {
      "id": "pt.ine.add.AC26.15497",
      "street": "R ANTÓNIO BORGES",
      "house": "33",
      "postcode": "9500-161",
      "city": "PONTA DELGADA",
      "lon": "-25.677234352460157",
      "lat": "37.74493310463791"
    },
    {
      "id": "pt.ine.add.AC26.15498",
      "street": "R ANTÓNIO BORGES",
      "house": "27",
      "postcode": "9500-161",
      "city": "PONTA DELGADA",
      "lon": "-25.677193453197635",
      "lat": "37.74468029041929"
    },
    {
      "id": "pt.ine.add.AC26.15499",
      "street": "R ANTÓNIO BORGES",
      "house": "25",
      "postcode": "9500-161",
      "city": "PONTA DELGADA",
      "lon": "-25.677126811311823",
      "lat": "37.74459842821919"
    },
    {
      "id": "pt.ine.add.AC26.15500",
      "street": "R ANTÓNIO BORGES",
      "house": "23",
      "postcode": "9500-161",
      "city": "PONTA DELGADA",
      "lon": "-25.677082864711327",
      "lat": "37.744516820748686"
    },
    {
      "id": "pt.ine.add.AC26.15501",
      "street": "R ANTÓNIO BORGES",
      "house": "17",
      "postcode": "9500-161",
      "city": "PONTA DELGADA",
      "lon": "-25.676940319663554",
      "lat": "37.74423582731529"
    },
    {
      "id": "pt.ine.add.AC26.15502",
      "street": "R DR ARMANDO NARCISO",
      "house": "11",
      "postcode": "9500-185",
      "city": "PONTA DELGADA",
      "lon": "-25.67682287726571",
      "lat": "37.74381992527689"
    },
    {
      "id": "pt.ine.add.AC26.15503",
      "street": "R ENG CANTO RESENDE",
      "house": "2",
      "postcode": "9500-192",
      "city": "PONTA DELGADA",
      "lon": "-25.67725392050294",
      "lat": "37.74383377675428"
    },
    {
      "id": "pt.ine.add.AC26.16273",
      "street": "R ENG CANTO RESENDE",
      "house": "4",
      "postcode": "9500-192",
      "city": "PONTA DELGADA",
      "lon": "-25.677275171953223",
      "lat": "37.74391512944538"
    },
    {
      "id": "pt.ine.add.AC26.16274",
      "street": "R ENG CANTO RESENDE",
      "house": "8",
      "postcode": "9500-192",
      "city": "PONTA DELGADA",
      "lon": "-25.677363385757996",
      "lat": "37.74406032246769"
    },
    {
      "id": "pt.ine.add.AC26.16275",
      "street": "R ENG CANTO RESENDE",
      "house": "10",
      "postcode": "9500-192",
      "city": "PONTA DELGADA",
      "lon": "-25.67738463738612",
      "lat": "37.74414167513945"
    },
    {
      "id": "pt.ine.add.AC26.16276",
      "street": "R ENG CANTO RESENDE",
      "house": "20",
      "postcode": "9500-192",
      "city": "PONTA DELGADA",
      "lon": "-25.677548916932878",
      "lat": "37.74447698805487"
    },
    {
      "id": "pt.ine.add.AC26.16277",
      "street": "R ENG CANTO RESENDE",
      "house": "22",
      "postcode": "9500-192",
      "city": "PONTA DELGADA",
      "lon": "-25.677570489581132",
      "lat": "37.74454031892317"
    },
    {
      "id": "pt.ine.add.AC26.16278",
      "street": "R ENG CANTO RESENDE",
      "house": "24",
      "postcode": "9500-192",
      "city": "PONTA DELGADA",
      "lon": "-25.677557538436595",
      "lat": "37.74463030043908"
    },
    {
      "id": "pt.ine.add.AC26.53542",
      "street": "R ENG CANTO RESENDE",
      "house": "26",
      "postcode": "9500-192",
      "city": "PONTA DELGADA",
      "lon": "-25.67759013802491",
      "lat": "37.74471178040919"
    },
    {
      "id": "pt.ine.add.AC26.53543",
      "street": "R ANTÓNIO BORGES",
      "house": "15",
      "postcode": "9500-161",
      "city": "PONTA DELGADA",
      "lon": "-25.676919068500457",
      "lat": "37.74415447457329"
    },
    {
      "id": "pt.ine.add.AC26.67073",
      "street": "R ANTÓNIO BORGES",
      "house": "",
      "postcode": "9500-161",
      "city": "PONTA DELGADA",
      "lon": "-25.676866021003725",
      "lat": "37.74394658725875"
    },
    {
      "id": "pt.ine.add.AC26.68213",
      "street": "R ANTÓNIO BORGES",
      "house": "31",
      "postcode": "9500-161",
      "city": "PONTA DELGADA",
      "lon": "-25.677201432371646",
      "lat": "37.744869646344654"
    },
    {
      "id": "pt.ine.add.AC26.70755",
      "street": "R ENG CANTO RESENDE",
      "house": "6",
      "postcode": "9500-192",
      "city": "PONTA DELGADA",
      "lon": "-25.677318958048378",
      "lat": "37.74400574773474"
    },
    {
      "id": "pt.ine.add.AC26.72142",
      "street": "R ANTÓNIO BORGES",
      "house": "19",
      "postcode": "9500-161",
      "city": "PONTA DELGADA",
      "lon": "-25.677018308566815",
      "lat": "37.744317817003676"
    },
    {
      "id": "pt.ine.add.AC26.78621",
      "street": "R ENG CANTO RESENDE",
      "house": "28",
      "postcode": "9500-192",
      "city": "PONTA DELGADA",
      "lon": "-25.67768986131892",
      "lat": "37.7448480896455"
    },
    {
      "id": "pt.ine.add.AC26.82320",
      "street": "R ENG CANTO RESENDE",
      "house": "16",
      "postcode": "9500-192",
      "city": "PONTA DELGADA",
      "lon": "-25.677505290656264",
      "lat": "37.74437735896231"
    },
    {
      "id": "pt.ine.add.AC26.82966",
      "street": "R ENG CANTO RESENDE",
      "house": "18",
      "postcode": "9500-192",
      "city": "PONTA DELGADA",
      "lon": "-25.677504328482385",
      "lat": "37.744431424273564"
    },
    {
      "id": "pt.ine.add.AC26.84834",
      "street": "R ANTÓNIO BORGES",
      "house": "29",
      "postcode": "9500-161",
      "city": "PONTA DELGADA",
      "lon": "-25.677214704795876",
      "lat": "37.744761643113186"
    },
    {
      "id": "pt.ine.add.AC26.85127",
      "street": "R ENG CANTO RESENDE",
      "house": "12",
      "postcode": "9500-192",
      "city": "PONTA DELGADA",
      "lon": "-25.677417076213082",
      "lat": "37.74423216604157"
    },
    {
      "id": "pt.ine.add.AC26.90765",
      "street": "AV ANTERO DE QUENTAL",
      "house": "15",
      "postcode": "9500-160",
      "city": "PONTA DELGADA",
      "lon": "-25.67746194664331",
      "lat": "37.74489960824871"
    },
    {
      "id": "pt.ine.add.AC26.90766",
      "street": "AV ANTERO DE QUENTAL",
      "house": "13",
      "postcode": "9500-160",
      "city": "PONTA DELGADA",
      "lon": "-25.677403925472625",
      "lat": "37.74497105857577"
    },
    {
      "id": "pt.ine.add.AC26.90767",
      "street": "AV ANTERO DE QUENTAL",
      "house": "11",
      "postcode": "9500-160",
      "city": "PONTA DELGADA",
      "lon": "-25.677233069272635",
      "lat": "37.74500519170475"
    },
    {
      "id": "pt.ine.add.AC26.100272",
      "street": "R ANTÓNIO BORGES",
      "house": "21",
      "postcode": "9500-161",
      "city": "PONTA DELGADA",
      "lon": "-25.677062254984502",
      "lat": "37.744399424497416"
    },
    {
      "id": "pt.ine.add.AC26.105972",
      "street": "R ENG CANTO RESENDE",
      "house": "14",
      "postcode": "9500-192",
      "city": "PONTA DELGADA",
      "lon": "-25.677438648683367",
      "lat": "37.744295496933134"
    }
  ]
}