{
  "data": {
    "distrito": "Lisboa",
    "concelho": "Torres Vedras",
    "freguesia": "Uni√£o das freguesias de Maxial e Monte Redondo",
    "OBJECTID": 865,
    "BGRI2021": "11132500331",
    "DT21": "11",
    "DTMN21": "1113",
    "DTMNFR21": "111325",
    "DTMNFRSEC21": "111325003",
    "SECNUM21": "003",
    "SSNUM21": "31",
    "SECSSNUM21": "00331",
    "OBJECTID_1": 116082,
    "DT": "11",
    "CC": "13",
    "fr": "25",
    "SEC": "003",
    "SS": "31"
  },
  "addresses": [
    {
      "id": "pt.ine.add.PTCONT.2284210",
      "street": "R VITTOR MANUEL FARIA",
      "house": "12",
      "postcode": "2565-437",
      "city": "MAXIAL",
      "lon": "-9.154391616141814",
      "lat": "39.11714123435379"
    },
    {
      "id": "pt.ine.add.PTCONT.2309782",
      "street": "R VITOR MANUEL FARIA",
      "house": "3",
      "postcode": "2565-437",
      "city": "MAXIAL",
      "lon": "-9.15232013159095",
      "lat": "39.11541195312519"
    },
    {
      "id": "pt.ine.add.PTCONT.2554595",
      "street": "TV PEDREIRAS",
      "house": "3",
      "postcode": "2565-437",
      "city": "MAXIAL",
      "lon": "-9.155751736948492",
      "lat": "39.11924601910432"
    },
    {
      "id": "pt.ine.add.PTCONT.2598956",
      "street": "R ALBERTO AUGUSTO DA SILVEIRA",
      "house": "4",
      "postcode": "2565-437",
      "city": "MAXIAL",
      "lon": "-9.156142480265258",
      "lat": "39.11908045946003"
    },
    {
      "id": "pt.ine.add.PTCONT.2696286",
      "street": "R VITOR MANUEL FARIA",
      "house": "",
      "postcode": "2565-437",
      "city": "MAXIAL",
      "lon": "-9.15244639196795",
      "lat": "39.11534779813095"
    },
    {
      "id": "pt.ine.add.PTCONT.2715206",
      "street": "R ALBERTO AUGUSTO DA SILVEIRA",
      "house": "2",
      "postcode": "2565-437",
      "city": "MAXIAL",
      "lon": "-9.156347979468208",
      "lat": "39.11889851025053"
    },
    {
      "id": "pt.ine.add.PTCONT.3004203",
      "street": "R VITOR FARIA",
      "house": "",
      "postcode": "2565-437",
      "city": "MAXIAL",
      "lon": "-9.154217810019809",
      "lat": "39.11711573519036"
    },
    {
      "id": "pt.ine.add.PTCONT.3088667",
      "street": "R VITOR MANUEL FARIA",
      "house": "9",
      "postcode": "2565-437",
      "city": "MAXIAL",
      "lon": "-9.153803291847117",
      "lat": "39.11563316481781"
    },
    {
      "id": "pt.ine.add.PTCONT.3194858",
      "street": "TV PEDREIRAS",
      "house": "1",
      "postcode": "2565-437",
      "city": "MAXIAL",
      "lon": "-9.155712235141717",
      "lat": "39.118913096577934"
    },
    {
      "id": "pt.ine.add.PTCONT.3319984",
      "street": "R VITOR MANUEL FARIA",
      "house": "",
      "postcode": "2565-437",
      "city": "MAXIAL",
      "lon": "-9.153027422317491",
      "lat": "39.11474823529273"
    }
  ]
}