{
  "data": {
    "distrito": "Lisboa",
    "concelho": "Loures",
    "freguesia": "Fanhões",
    "OBJECTID": 949,
    "BGRI2021": "11070500117",
    "DT21": "11",
    "DTMN21": "1107",
    "DTMNFR21": "110705",
    "DTMNFRSEC21": "110705001",
    "SECNUM21": "001",
    "SSNUM21": "17",
    "SECSSNUM21": "00117",
    "OBJECTID_1": 106042,
    "DT": "11",
    "CC": "07",
    "fr": "05",
    "SEC": "001",
    "SS": "17"
  },
  "addresses": [
    {
      "id": "pt.ine.add.PTCONT.2936074",
      "street": "R 25 DE ABRIL",
      "house": "10",
      "postcode": "2670-692",
      "city": "FANHÕES",
      "lon": "-9.169431557215768",
      "lat": "38.88273390671561"
    },
    {
      "id": "pt.ine.add.PTCONT.2956499",
      "street": "LG 5 DE OUTUBRO",
      "house": "",
      "postcode": "2670-692",
      "city": "FANHÕES",
      "lon": "-9.1675657551658",
      "lat": "38.88281350469481"
    },
    {
      "id": "pt.ine.add.PTCONT.2988008",
      "street": "R 25 DE ABRIL",
      "house": "14",
      "postcode": "2670-692",
      "city": "FANHÕES",
      "lon": "-9.169553198728249",
      "lat": "38.88317420032956"
    },
    {
      "id": "pt.ine.add.PTCONT.3033991",
      "street": "R 1 DE MAIO",
      "house": "16",
      "postcode": "2670-692",
      "city": "FANHÕES",
      "lon": "-9.168428146584573",
      "lat": "38.882679754640165"
    },
    {
      "id": "pt.ine.add.PTCONT.3154579",
      "street": "R 25 DE ABRIL",
      "house": "30",
      "postcode": "2670-692",
      "city": "FANHÕES",
      "lon": "-9.170315943297657",
      "lat": "38.88332055692515"
    },
    {
      "id": "pt.ine.add.PTCONT.3154580",
      "street": "R 25 DE ABRIL",
      "house": "18",
      "postcode": "2670-692",
      "city": "FANHÕES",
      "lon": "-9.16985004798797",
      "lat": "38.8829824050377"
    },
    {
      "id": "pt.ine.add.PTCONT.3160452",
      "street": "BC LOURENCOS",
      "house": "11",
      "postcode": "2670-692",
      "city": "FANHÕES",
      "lon": "-9.169000486742519",
      "lat": "38.883206127951624"
    },
    {
      "id": "pt.ine.add.PTCONT.3160453",
      "street": "BC LOURENCOS",
      "house": "11",
      "postcode": "2670-692",
      "city": "FANHÕES",
      "lon": "-9.169000486742519",
      "lat": "38.883206127951624"
    },
    {
      "id": "pt.ine.add.PTCONT.3178488",
      "street": "R 1 DE MAIO",
      "house": "20",
      "postcode": "2670-692",
      "city": "FANHÕES",
      "lon": "-9.168680212797652",
      "lat": "38.88257843556313"
    },
    {
      "id": "pt.ine.add.PTCONT.3289017",
      "street": "BC LOURENÇOS",
      "house": "7",
      "postcode": "2670-692",
      "city": "FANHÕES",
      "lon": "-9.169080624625105",
      "lat": "38.88316938649806"
    },
    {
      "id": "pt.ine.add.PTCONT.3298646",
      "street": "R 1 DE MAIO",
      "house": "18",
      "postcode": "2670-692",
      "city": "FANHÕES",
      "lon": "-9.16857755246554",
      "lat": "38.88265140695025"
    },
    {
      "id": "pt.ine.add.PTCONT.3335710",
      "street": "BC LOURENÇOS",
      "house": "5",
      "postcode": "2670-692",
      "city": "FANHÕES",
      "lon": "-9.16937812935728",
      "lat": "38.883022624674744"
    },
    {
      "id": "pt.ine.add.PTCONT.3335711",
      "street": "BC LOURENÇOS",
      "house": "5",
      "postcode": "2670-692",
      "city": "FANHÕES",
      "lon": "-9.16937812935728",
      "lat": "38.883022624674744"
    },
    {
      "id": "pt.ine.add.PTCONT.3344874",
      "street": "R 25 DE ABRIL",
      "house": "4",
      "postcode": "2670-692",
      "city": "FANHÕES",
      "lon": "-9.169060207304332",
      "lat": "38.88255704959148"
    },
    {
      "id": "pt.ine.add.PTCONT.3353602",
      "street": "R PATEIRA",
      "house": "11",
      "postcode": "2670-692",
      "city": "FANHÕES",
      "lon": "-9.169386512184339",
      "lat": "38.88280636744209"
    },
    {
      "id": "pt.ine.add.PTCONT.3426727",
      "street": "R 25 DE ABRIL",
      "house": "20",
      "postcode": "2670-692",
      "city": "FANHÕES",
      "lon": "-9.169897056215037",
      "lat": "38.883045040970764"
    },
    {
      "id": "pt.ine.add.PTCONT.2289190",
      "street": "R 25 DE ABRIL",
      "house": "14",
      "postcode": "2670-692",
      "city": "FANHÕES",
      "lon": "-9.16966777440545",
      "lat": "38.88312814516895"
    },
    {
      "id": "pt.ine.add.PTCONT.2334142",
      "street": "R SOCIEDADE RECREATIVA",
      "house": "5",
      "postcode": "2670-692",
      "city": "FANHÕES",
      "lon": "-9.167882362222784",
      "lat": "38.88318901933753"
    },
    {
      "id": "pt.ine.add.PTCONT.2378329",
      "street": "R 25 DE ABRIL",
      "house": "14",
      "postcode": "2670-692",
      "city": "FANHÕES",
      "lon": "-9.169960300401858",
      "lat": "38.88343180693424"
    },
    {
      "id": "pt.ine.add.PTCONT.2383396",
      "street": "BC LOURENÇOS",
      "house": "1",
      "postcode": "2670-692",
      "city": "FANHÕES",
      "lon": "-9.169574281775505",
      "lat": "38.88303889892027"
    },
    {
      "id": "pt.ine.add.PTCONT.2389030",
      "street": "BC LOURENÇOS",
      "house": "3",
      "postcode": "2670-692",
      "city": "FANHÕES",
      "lon": "-9.16950553643495",
      "lat": "38.8830665319746"
    },
    {
      "id": "pt.ine.add.PTCONT.2417254",
      "street": "R 25 DE ABRIL",
      "house": "26",
      "postcode": "2670-692",
      "city": "FANHÕES",
      "lon": "-9.170095565534446",
      "lat": "38.883223430524765"
    },
    {
      "id": "pt.ine.add.PTCONT.2579796",
      "street": "R SOCIEDADE RECREATIVA",
      "house": "7",
      "postcode": "2670-692",
      "city": "FANHÕES",
      "lon": "-9.167977420929757",
      "lat": "38.883386344489175"
    },
    {
      "id": "pt.ine.add.PTCONT.2579797",
      "street": "R SOCIEDADE RECREATIVA",
      "house": "7",
      "postcode": "2670-692",
      "city": "FANHÕES",
      "lon": "-9.167977420929757",
      "lat": "38.883386344489175"
    },
    {
      "id": "pt.ine.add.PTCONT.2618911",
      "street": "R 25 DE ABRIL",
      "house": "22",
      "postcode": "2670-692",
      "city": "FANHÕES",
      "lon": "-9.169932934260054",
      "lat": "38.88313479856873"
    },
    {
      "id": "pt.ine.add.PTCONT.2627915",
      "street": "R 25 DE ABRIL",
      "house": "8",
      "postcode": "2670-692",
      "city": "FANHÕES",
      "lon": "-9.169350765831826",
      "lat": "38.88272561611692"
    },
    {
      "id": "pt.ine.add.PTCONT.2652390",
      "street": "R PATEIRA",
      "house": "8",
      "postcode": "2670-692",
      "city": "FANHÕES",
      "lon": "-9.168893379382471",
      "lat": "38.88297288004701"
    },
    {
      "id": "pt.ine.add.PTCONT.2655154",
      "street": "R 1 DE MAIO",
      "house": "18",
      "postcode": "2670-692",
      "city": "FANHÕES",
      "lon": "-9.168874794578839",
      "lat": "38.882486633493265"
    },
    {
      "id": "pt.ine.add.PTCONT.2660007",
      "street": "LG 5 DE OUTUBRO",
      "house": "2",
      "postcode": "2670-692",
      "city": "FANHÕES",
      "lon": "-9.167714377926247",
      "lat": "38.88273111932873"
    },
    {
      "id": "pt.ine.add.PTCONT.2686064",
      "street": "LG 5 DE OUTUBRO",
      "house": "1",
      "postcode": "2670-692",
      "city": "FANHÕES",
      "lon": "-9.16770141810034",
      "lat": "38.88263215034481"
    },
    {
      "id": "pt.ine.add.PTCONT.2703263",
      "street": "R 1 DE MAIO",
      "house": "8",
      "postcode": "2670-692",
      "city": "FANHÕES",
      "lon": "-9.167981496145115",
      "lat": "38.882872874105196"
    },
    {
      "id": "pt.ine.add.PTCONT.2739185",
      "street": "R PATEIRA",
      "house": "",
      "postcode": "2670-692",
      "city": "FANHÕES",
      "lon": "-9.169547310003935",
      "lat": "38.882768909790784"
    },
    {
      "id": "pt.ine.add.PTCONT.2814313",
      "street": "R 25 DE ABRIL",
      "house": "24",
      "postcode": "2670-692",
      "city": "FANHÕES",
      "lon": "-9.170002857760435",
      "lat": "38.88318822335813"
    },
    {
      "id": "pt.ine.add.PTCONT.2814314",
      "street": "R 25 DE ABRIL",
      "house": "16",
      "postcode": "2670-692",
      "city": "FANHÕES",
      "lon": "-9.169768732727427",
      "lat": "38.8829380889102"
    },
    {
      "id": "pt.ine.add.PTCONT.2845383",
      "street": "R SOCIEDADE RECREATIVA",
      "house": "3",
      "postcode": "2670-692",
      "city": "FANHÕES",
      "lon": "-9.167706773797075",
      "lat": "38.883001415283296"
    }
  ]
}