{
  "data": {
    "distrito": "Guarda",
    "concelho": "Mêda",
    "freguesia": "Coriscada",
    "OBJECTID": 57,
    "BGRI2021": "09090500118",
    "DT21": "09",
    "DTMN21": "0909",
    "DTMNFR21": "090905",
    "DTMNFRSEC21": "090905001",
    "SECNUM21": "001",
    "SSNUM21": "18",
    "SECSSNUM21": "00118",
    "OBJECTID_1": 79391,
    "DT": "09",
    "CC": "09",
    "fr": "05",
    "SEC": "001",
    "SS": "18"
  },
  "addresses": [
    {
      "id": "pt.ine.add.PTCONT.1905142",
      "street": "TV DO CONCELHO",
      "house": "",
      "postcode": "6430-051",
      "city": "CORISCADA",
      "lon": "-7.20696398277414",
      "lat": "40.86550588560003"
    },
    {
      "id": "pt.ine.add.PTCONT.1907003",
      "street": "LG DA IGREJA",
      "house": "",
      "postcode": "6430-051",
      "city": "CORISCADA",
      "lon": "-7.206875191806063",
      "lat": "40.86591938763383"
    },
    {
      "id": "pt.ine.add.PTCONT.1911402",
      "street": "TV DO CONCELHO",
      "house": "",
      "postcode": "6430-051",
      "city": "CORISCADA",
      "lon": "-7.207318779708953",
      "lat": "40.865580771346195"
    },
    {
      "id": "pt.ine.add.PTCONT.1918309",
      "street": "LG DR FELIZARDO SARAIVA",
      "house": "",
      "postcode": "6430-051",
      "city": "CORISCADA",
      "lon": "-7.206686936386764",
      "lat": "40.865809819617866"
    },
    {
      "id": "pt.ine.add.PTCONT.1926597",
      "street": "LG DA IGREJA",
      "house": "",
      "postcode": "6430-051",
      "city": "CORISCADA",
      "lon": "-7.207148098983955",
      "lat": "40.86591257419825"
    },
    {
      "id": "pt.ine.add.PTCONT.1928014",
      "street": "R DORNA",
      "house": "",
      "postcode": "6430-051",
      "city": "CORISCADA",
      "lon": "-7.207153868235639",
      "lat": "40.8654984054811"
    },
    {
      "id": "pt.ine.add.PTCONT.1931094",
      "street": "AV DR LUIS DE ALMEIDA",
      "house": "",
      "postcode": "6430-051",
      "city": "CORISCADA",
      "lon": "-7.207686314913431",
      "lat": "40.8655927254821"
    },
    {
      "id": "pt.ine.add.PTCONT.1937315",
      "street": "TV DO CONCELHO",
      "house": "",
      "postcode": "6430-051",
      "city": "CORISCADA",
      "lon": "-7.20717507994767",
      "lat": "40.86567866926297"
    },
    {
      "id": "pt.ine.add.PTCONT.1948342",
      "street": "AV DR LUIS DE ALMEIDA",
      "house": "",
      "postcode": "6430-051",
      "city": "CORISCADA",
      "lon": "-7.207494172533894",
      "lat": "40.865762272511496"
    },
    {
      "id": "pt.ine.add.PTCONT.1952354",
      "street": "AV DR LUIS DE ALMEIDA",
      "house": "",
      "postcode": "6430-051",
      "city": "CORISCADA",
      "lon": "-7.207626262690731",
      "lat": "40.865646271694146"
    },
    {
      "id": "pt.ine.add.PTCONT.1956804",
      "street": "TV DO CONCELHO",
      "house": "",
      "postcode": "6430-051",
      "city": "CORISCADA",
      "lon": "-7.207105173990468",
      "lat": "40.86558806130223"
    },
    {
      "id": "pt.ine.add.PTCONT.1959193",
      "street": "TERR CONCELHO",
      "house": "",
      "postcode": "6430-051",
      "city": "CORISCADA",
      "lon": "-7.207275699553765",
      "lat": "40.865444066858814"
    },
    {
      "id": "pt.ine.add.PTCONT.1960889",
      "street": "R DA IGREJA",
      "house": "",
      "postcode": "6430-051",
      "city": "CORISCADA",
      "lon": "-7.206791920340747",
      "lat": "40.86593672824651"
    },
    {
      "id": "pt.ine.add.PTCONT.1960890",
      "street": "R DORNA",
      "house": "63",
      "postcode": "6430-051",
      "city": "CORISCADA",
      "lon": "-7.2071165638835915",
      "lat": "40.865350450936404"
    },
    {
      "id": "pt.ine.add.PTCONT.1970111",
      "street": "LG DO CONCELHO",
      "house": "",
      "postcode": "6430-051",
      "city": "CORISCADA",
      "lon": "-7.207532134655289",
      "lat": "40.865591488331916"
    },
    {
      "id": "pt.ine.add.PTCONT.1973324",
      "street": "R DO PONTÃO",
      "house": "",
      "postcode": "6430-051",
      "city": "CORISCADA",
      "lon": "-7.206938381070674",
      "lat": "40.865640750145936"
    },
    {
      "id": "pt.ine.add.PTCONT.1976069",
      "street": "LG DA IGREJA",
      "house": "",
      "postcode": "6430-051",
      "city": "CORISCADA",
      "lon": "-7.206754708951614",
      "lat": "40.86605349015271"
    },
    {
      "id": "pt.ine.add.PTCONT.1976768",
      "street": "R DO PONTÃO",
      "house": "",
      "postcode": "6430-051",
      "city": "CORISCADA",
      "lon": "-7.206771462420307",
      "lat": "40.8657024424119"
    },
    {
      "id": "pt.ine.add.PTCONT.1976948",
      "street": "R NOVA",
      "house": "",
      "postcode": "6430-051",
      "city": "CORISCADA",
      "lon": "-7.207102540069746",
      "lat": "40.865777138323494"
    },
    {
      "id": "pt.ine.add.PTCONT.1869981",
      "street": "TV DO CONCELHO",
      "house": "",
      "postcode": "6430-051",
      "city": "CORISCADA",
      "lon": "-7.2072469925837295",
      "lat": "40.86562521849369"
    },
    {
      "id": "pt.ine.add.PTCONT.1873356",
      "street": "LG DA IGREJA",
      "house": "",
      "postcode": "6430-051",
      "city": "CORISCADA",
      "lon": "-7.207208151831805",
      "lat": "40.865859028244365"
    },
    {
      "id": "pt.ine.add.PTCONT.1879057",
      "street": "R DIREITA",
      "house": "",
      "postcode": "6430-051",
      "city": "CORISCADA",
      "lon": "-7.2066246243366034",
      "lat": "40.86602543128574"
    },
    {
      "id": "pt.ine.add.PTCONT.1880126",
      "street": "LG DA IGREJA",
      "house": "",
      "postcode": "6430-051",
      "city": "CORISCADA",
      "lon": "-7.206982308817238",
      "lat": "40.86589323375682"
    },
    {
      "id": "pt.ine.add.PTCONT.1893819",
      "street": "LG DO CONCELHO",
      "house": "",
      "postcode": "6430-051",
      "city": "CORISCADA",
      "lon": "-7.207604046912749",
      "lat": "40.8655380373351"
    }
  ]
}