{
  "data": {
    "distrito": "Lisboa",
    "concelho": "Cascais",
    "freguesia": "São Domingos de Rana",
    "OBJECTID": 1600,
    "BGRI2021": "11050601212",
    "DT21": "11",
    "DTMN21": "1105",
    "DTMNFR21": "110506",
    "DTMNFRSEC21": "110506012",
    "SECNUM21": "012",
    "SSNUM21": "12",
    "SECSSNUM21": "01212",
    "OBJECTID_1": 100621,
    "DT": "11",
    "CC": "05",
    "fr": "06",
    "SEC": "012",
    "SS": "12"
  },
  "addresses": [
    {
      "id": "pt.ine.add.PTCONT.2940787",
      "street": "R FELICIANO CASTILHO",
      "house": "67",
      "postcode": "2785-365",
      "city": "SÃO DOMINGOS DE RANA",
      "lon": "-9.36180011308172",
      "lat": "38.706687708745065"
    },
    {
      "id": "pt.ine.add.PTCONT.2940788",
      "street": "R FELICIANO CASTILHO",
      "house": "67",
      "postcode": "2785-365",
      "city": "SÃO DOMINGOS DE RANA",
      "lon": "-9.36180011308172",
      "lat": "38.706687708745065"
    },
    {
      "id": "pt.ine.add.PTCONT.2940789",
      "street": "R FELICIANO CASTILHO",
      "house": "67",
      "postcode": "2785-365",
      "city": "SÃO DOMINGOS DE RANA",
      "lon": "-9.36180011308172",
      "lat": "38.706687708745065"
    },
    {
      "id": "pt.ine.add.PTCONT.2940790",
      "street": "R FELICIANO CASTILHO",
      "house": "67",
      "postcode": "2785-365",
      "city": "SÃO DOMINGOS DE RANA",
      "lon": "-9.36180011308172",
      "lat": "38.706687708745065"
    },
    {
      "id": "pt.ine.add.PTCONT.2940791",
      "street": "R FELICIANO CASTILHO",
      "house": "67",
      "postcode": "2785-365",
      "city": "SÃO DOMINGOS DE RANA",
      "lon": "-9.36180011308172",
      "lat": "38.706687708745065"
    },
    {
      "id": "pt.ine.add.PTCONT.2940792",
      "street": "R FELICIANO CASTILHO",
      "house": "4",
      "postcode": "2785-365",
      "city": "SÃO DOMINGOS DE RANA",
      "lon": "-9.36180011308172",
      "lat": "38.706687708745065"
    },
    {
      "id": "pt.ine.add.PTCONT.2944638",
      "street": "QTA CARAMUJA",
      "house": "3",
      "postcode": "2785-548",
      "city": "SÃO DOMINGOS DE RANA",
      "lon": "-9.361554381910851",
      "lat": "38.70912238300119"
    },
    {
      "id": "pt.ine.add.PTCONT.2944639",
      "street": "QTA CARAMUJA",
      "house": "3",
      "postcode": "2785-548",
      "city": "SÃO DOMINGOS DE RANA",
      "lon": "-9.361554381910851",
      "lat": "38.70912238300119"
    },
    {
      "id": "pt.ine.add.PTCONT.2970719",
      "street": "R JOAQUIM AGOSTINHO",
      "house": "91 A",
      "postcode": "2785-380",
      "city": "SÃO DOMINGOS DE RANA",
      "lon": "-9.360496840604702",
      "lat": "38.70644017310765"
    },
    {
      "id": "pt.ine.add.PTCONT.2970720",
      "street": "R JOAQUIM AGOSTINHO",
      "house": "91 A",
      "postcode": "2785-380",
      "city": "SÃO DOMINGOS DE RANA",
      "lon": "-9.360496840604702",
      "lat": "38.70644017310765"
    },
    {
      "id": "pt.ine.add.PTCONT.2970721",
      "street": "R JOAQUIM AGOSTINHO",
      "house": "91 A",
      "postcode": "2785-380",
      "city": "SÃO DOMINGOS DE RANA",
      "lon": "-9.360496840604702",
      "lat": "38.70644017310765"
    },
    {
      "id": "pt.ine.add.PTCONT.2970722",
      "street": "R JOAQUIM AGOSTINHO",
      "house": "91 A",
      "postcode": "2785-380",
      "city": "SÃO DOMINGOS DE RANA",
      "lon": "-9.360496840604702",
      "lat": "38.70644017310765"
    },
    {
      "id": "pt.ine.add.PTCONT.2970723",
      "street": "R JOAQUIM AGOSTINHO",
      "house": "91 A",
      "postcode": "2785-380",
      "city": "SÃO DOMINGOS DE RANA",
      "lon": "-9.360496840604702",
      "lat": "38.70644017310765"
    },
    {
      "id": "pt.ine.add.PTCONT.2970724",
      "street": "R JOAQUIM AGOSTINHO",
      "house": "91 A",
      "postcode": "2785-380",
      "city": "SÃO DOMINGOS DE RANA",
      "lon": "-9.360496840604702",
      "lat": "38.70644017310765"
    },
    {
      "id": "pt.ine.add.PTCONT.2970725",
      "street": "R JOAQUIM AGOSTINHO",
      "house": "91 A",
      "postcode": "2785-380",
      "city": "SÃO DOMINGOS DE RANA",
      "lon": "-9.360496840604702",
      "lat": "38.70644017310765"
    },
    {
      "id": "pt.ine.add.PTCONT.2970900",
      "street": "R JOAQUIM AGOSTINHO",
      "house": "91 A",
      "postcode": "2785-380",
      "city": "SÃO DOMINGOS DE RANA",
      "lon": "-9.360496840604702",
      "lat": "38.70644017310765"
    },
    {
      "id": "pt.ine.add.PTCONT.2973038",
      "street": "R JOAQUIM AGOSTINHO",
      "house": "3",
      "postcode": "2785-380",
      "city": "SÃO DOMINGOS DE RANA",
      "lon": "-9.360759870536455",
      "lat": "38.7070319230502"
    },
    {
      "id": "pt.ine.add.PTCONT.2973039",
      "street": "R JOAQUIM AGOSTINHO",
      "house": "81",
      "postcode": "2785-380",
      "city": "SÃO DOMINGOS DE RANA",
      "lon": "-9.36054004394575",
      "lat": "38.70627758002211"
    },
    {
      "id": "pt.ine.add.PTCONT.3000233",
      "street": "R D JOÃO II",
      "house": "42",
      "postcode": "2785-458",
      "city": "SÃO DOMINGOS DE RANA",
      "lon": "-9.358962636321051",
      "lat": "38.70882530766649"
    },
    {
      "id": "pt.ine.add.PTCONT.3009176",
      "street": "R ANEXA",
      "house": "18",
      "postcode": "2785-365",
      "city": "SÃO DOMINGOS DE RANA",
      "lon": "-9.361114240719154",
      "lat": "38.707586681968834"
    },
    {
      "id": "pt.ine.add.PTCONT.3009177",
      "street": "R ANEXA",
      "house": "18",
      "postcode": "2785-365",
      "city": "SÃO DOMINGOS DE RANA",
      "lon": "-9.361114240719154",
      "lat": "38.707586681968834"
    },
    {
      "id": "pt.ine.add.PTCONT.3015679",
      "street": "R DO FUNDADOR",
      "house": "",
      "postcode": "2785-138",
      "city": "SÃO DOMINGOS DE RANA",
      "lon": "-9.359152543426111",
      "lat": "38.709174618503205"
    },
    {
      "id": "pt.ine.add.PTCONT.3027823",
      "street": "R FUNDADOR",
      "house": "8",
      "postcode": "2785-138",
      "city": "SÃO DOMINGOS DE RANA",
      "lon": "-9.359291814453558",
      "lat": "38.7085786465036"
    },
    {
      "id": "pt.ine.add.PTCONT.3034389",
      "street": "R FUNDADOR",
      "house": "",
      "postcode": "2785-138",
      "city": "SÃO DOMINGOS DE RANA",
      "lon": "-9.35918425706284",
      "lat": "38.7090121464534"
    },
    {
      "id": "pt.ine.add.PTCONT.3045851",
      "street": "R D JOÃO II",
      "house": "12",
      "postcode": "2785-458",
      "city": "SÃO DOMINGOS DE RANA",
      "lon": "-9.359015954260741",
      "lat": "38.708581539382585"
    },
    {
      "id": "pt.ine.add.PTCONT.3055504",
      "street": "R MAJOR SERPA PINTO",
      "house": "74",
      "postcode": "2785-392",
      "city": "SÃO DOMINGOS DE RANA",
      "lon": "-9.362188282789019",
      "lat": "38.70653049698239"
    },
    {
      "id": "pt.ine.add.PTCONT.3055505",
      "street": "R MAJOR SERPA PINTO",
      "house": "74",
      "postcode": "2785-392",
      "city": "SÃO DOMINGOS DE RANA",
      "lon": "-9.362188282789019",
      "lat": "38.70653049698239"
    },
    {
      "id": "pt.ine.add.PTCONT.3084419",
      "street": "R TREPADEIRAS",
      "house": "71",
      "postcode": "2785-429",
      "city": "SÃO DOMINGOS DE RANA",
      "lon": "-9.361015384611298",
      "lat": "38.70920010716187"
    },
    {
      "id": "pt.ine.add.PTCONT.3093461",
      "street": "R D JOÃO II",
      "house": "62",
      "postcode": "2785-458",
      "city": "SÃO DOMINGOS DE RANA",
      "lon": "-9.358907626155377",
      "lat": "38.70897000842511"
    },
    {
      "id": "pt.ine.add.PTCONT.3102164",
      "street": "R FELICIANO CASTILHO",
      "house": "35",
      "postcode": "2785-365",
      "city": "SÃO DOMINGOS DE RANA",
      "lon": "-9.3619334141822",
      "lat": "38.70641607527181"
    },
    {
      "id": "pt.ine.add.PTCONT.3102165",
      "street": "R FELICIANO CASTILHO",
      "house": "35",
      "postcode": "2785-365",
      "city": "SÃO DOMINGOS DE RANA",
      "lon": "-9.3619334141822",
      "lat": "38.70641607527181"
    },
    {
      "id": "pt.ine.add.PTCONT.3102166",
      "street": "R FELICIANO CASTILHO",
      "house": "35",
      "postcode": "2785-365",
      "city": "SÃO DOMINGOS DE RANA",
      "lon": "-9.3619334141822",
      "lat": "38.70641607527181"
    },
    {
      "id": "pt.ine.add.PTCONT.3102167",
      "street": "R FELICIANO CASTILHO",
      "house": "35",
      "postcode": "2785-365",
      "city": "SÃO DOMINGOS DE RANA",
      "lon": "-9.3619334141822",
      "lat": "38.70641607527181"
    },
    {
      "id": "pt.ine.add.PTCONT.3102168",
      "street": "R FELICIANO CASTILHO",
      "house": "35",
      "postcode": "2785-365",
      "city": "SÃO DOMINGOS DE RANA",
      "lon": "-9.3619334141822",
      "lat": "38.70641607527181"
    },
    {
      "id": "pt.ine.add.PTCONT.3102169",
      "street": "R FELICIANO CASTILHO",
      "house": "35",
      "postcode": "2785-365",
      "city": "SÃO DOMINGOS DE RANA",
      "lon": "-9.3619334141822",
      "lat": "38.70641607527181"
    },
    {
      "id": "pt.ine.add.PTCONT.3102170",
      "street": "R FELICIANO CASTILHO",
      "house": "35",
      "postcode": "2785-365",
      "city": "SÃO DOMINGOS DE RANA",
      "lon": "-9.3619334141822",
      "lat": "38.70641607527181"
    },
    {
      "id": "pt.ine.add.PTCONT.3110451",
      "street": "R FELICIANO CASTILHO",
      "house": "51",
      "postcode": "2785-365",
      "city": "SÃO DOMINGOS DE RANA",
      "lon": "-9.3619334141822",
      "lat": "38.70641607527181"
    },
    {
      "id": "pt.ine.add.PTCONT.3111533",
      "street": "R FELICIANO CASTILHO",
      "house": "139",
      "postcode": "2785-365",
      "city": "SÃO DOMINGOS DE RANA",
      "lon": "-9.360869264210859",
      "lat": "38.706706495309184"
    },
    {
      "id": "pt.ine.add.PTCONT.3111534",
      "street": "R FELICIANO CASTILHO",
      "house": "139",
      "postcode": "2785-365",
      "city": "SÃO DOMINGOS DE RANA",
      "lon": "-9.360869264210859",
      "lat": "38.706706495309184"
    },
    {
      "id": "pt.ine.add.PTCONT.3111535",
      "street": "R FELICIANO CASTILHO",
      "house": "139",
      "postcode": "2785-365",
      "city": "SÃO DOMINGOS DE RANA",
      "lon": "-9.360869264210859",
      "lat": "38.706706495309184"
    },
    {
      "id": "pt.ine.add.PTCONT.3111536",
      "street": "R FELICIANO CASTILHO",
      "house": "139",
      "postcode": "2785-365",
      "city": "SÃO DOMINGOS DE RANA",
      "lon": "-9.360869264210859",
      "lat": "38.706706495309184"
    },
    {
      "id": "pt.ine.add.PTCONT.3111537",
      "street": "R FELICIANO CASTILHO",
      "house": "139",
      "postcode": "2785-365",
      "city": "SÃO DOMINGOS DE RANA",
      "lon": "-9.360869264210859",
      "lat": "38.706706495309184"
    },
    {
      "id": "pt.ine.add.PTCONT.3111538",
      "street": "R FELICIANO CASTILHO",
      "house": "139",
      "postcode": "2785-365",
      "city": "SÃO DOMINGOS DE RANA",
      "lon": "-9.360869264210859",
      "lat": "38.706706495309184"
    },
    {
      "id": "pt.ine.add.PTCONT.3127881",
      "street": "AV DESCOBERTAS",
      "house": "657",
      "postcode": "2785-438",
      "city": "SÃO DOMINGOS DE RANA",
      "lon": "-9.358234231407657",
      "lat": "38.709256307036334"
    },
    {
      "id": "pt.ine.add.PTCONT.3127871",
      "street": "AV DESCOBERTAS",
      "house": "657",
      "postcode": "2785-438",
      "city": "SÃO DOMINGOS DE RANA",
      "lon": "-9.358234231407657",
      "lat": "38.709256307036334"
    },
    {
      "id": "pt.ine.add.PTCONT.3127872",
      "street": "AV DESCOBERTAS",
      "house": "657",
      "postcode": "2785-438",
      "city": "SÃO DOMINGOS DE RANA",
      "lon": "-9.358234231407657",
      "lat": "38.709256307036334"
    },
    {
      "id": "pt.ine.add.PTCONT.3127873",
      "street": "AV DESCOBERTAS",
      "house": "657",
      "postcode": "2785-438",
      "city": "SÃO DOMINGOS DE RANA",
      "lon": "-9.358234231407657",
      "lat": "38.709256307036334"
    },
    {
      "id": "pt.ine.add.PTCONT.3127874",
      "street": "AV DESCOBERTAS",
      "house": "657",
      "postcode": "2785-438",
      "city": "SÃO DOMINGOS DE RANA",
      "lon": "-9.358234231407657",
      "lat": "38.709256307036334"
    },
    {
      "id": "pt.ine.add.PTCONT.3127875",
      "street": "AV DESCOBERTAS",
      "house": "657",
      "postcode": "2785-438",
      "city": "SÃO DOMINGOS DE RANA",
      "lon": "-9.358234231407657",
      "lat": "38.709256307036334"
    },
    {
      "id": "pt.ine.add.PTCONT.3127876",
      "street": "AV DESCOBERTAS",
      "house": "657",
      "postcode": "2785-438",
      "city": "SÃO DOMINGOS DE RANA",
      "lon": "-9.358234231407657",
      "lat": "38.709256307036334"
    },
    {
      "id": "pt.ine.add.PTCONT.3127877",
      "street": "AV DESCOBERTAS",
      "house": "657",
      "postcode": "2785-438",
      "city": "SÃO DOMINGOS DE RANA",
      "lon": "-9.358234231407657",
      "lat": "38.709256307036334"
    },
    {
      "id": "pt.ine.add.PTCONT.3127878",
      "street": "AV DESCOBERTAS",
      "house": "657",
      "postcode": "2785-438",
      "city": "SÃO DOMINGOS DE RANA",
      "lon": "-9.358234231407657",
      "lat": "38.709256307036334"
    },
    {
      "id": "pt.ine.add.PTCONT.3127879",
      "street": "AV DESCOBERTAS",
      "house": "657",
      "postcode": "2785-438",
      "city": "SÃO DOMINGOS DE RANA",
      "lon": "-9.358234231407657",
      "lat": "38.709256307036334"
    },
    {
      "id": "pt.ine.add.PTCONT.3127880",
      "street": "AV DESCOBERTAS",
      "house": "657",
      "postcode": "2785-438",
      "city": "SÃO DOMINGOS DE RANA",
      "lon": "-9.358234231407657",
      "lat": "38.709256307036334"
    },
    {
      "id": "pt.ine.add.PTCONT.3127882",
      "street": "AV DESCOBERTAS",
      "house": "657",
      "postcode": "2785-438",
      "city": "SÃO DOMINGOS DE RANA",
      "lon": "-9.358234231407657",
      "lat": "38.709256307036334"
    },
    {
      "id": "pt.ine.add.PTCONT.3127883",
      "street": "AV DESCOBERTAS",
      "house": "657",
      "postcode": "2785-438",
      "city": "SÃO DOMINGOS DE RANA",
      "lon": "-9.358234231407657",
      "lat": "38.709256307036334"
    },
    {
      "id": "pt.ine.add.PTCONT.3128094",
      "street": "AV DESCOBERTAS",
      "house": "657",
      "postcode": "2785-438",
      "city": "SÃO DOMINGOS DE RANA",
      "lon": "-9.358234231407657",
      "lat": "38.709256307036334"
    },
    {
      "id": "pt.ine.add.PTCONT.3129218",
      "street": "AV DESCOBERTAS",
      "house": "725",
      "postcode": "2785-438",
      "city": "SÃO DOMINGOS DE RANA",
      "lon": "-9.359100302403958",
      "lat": "38.70948142976822"
    },
    {
      "id": "pt.ine.add.PTCONT.3129219",
      "street": "AV DESCOBERTAS",
      "house": "725",
      "postcode": "2785-438",
      "city": "SÃO DOMINGOS DE RANA",
      "lon": "-9.359100302403958",
      "lat": "38.70948142976822"
    },
    {
      "id": "pt.ine.add.PTCONT.3130196",
      "street": "R JOÃO DE DEUS",
      "house": "35",
      "postcode": "2785-377",
      "city": "SÃO DOMINGOS DE RANA",
      "lon": "-9.358560109326655",
      "lat": "38.70746935723794"
    },
    {
      "id": "pt.ine.add.PTCONT.3130212",
      "street": "SIT ALTO DO ESPARGAL",
      "house": "2",
      "postcode": "2785-548",
      "city": "SÃO DOMINGOS DE RANA",
      "lon": "-9.361715918063023",
      "lat": "38.7091567165601"
    },
    {
      "id": "pt.ine.add.PTCONT.3138982",
      "street": "R JOÃO DE DEUS",
      "house": "179",
      "postcode": "2785-377",
      "city": "SÃO DOMINGOS DE RANA",
      "lon": "-9.358154813168532",
      "lat": "38.70864461227152"
    },
    {
      "id": "pt.ine.add.PTCONT.3148005",
      "street": "R JOÃO DE DEUS",
      "house": "253",
      "postcode": "2785-377",
      "city": "SÃO DOMINGOS DE RANA",
      "lon": "-9.357947950033592",
      "lat": "38.70932236085528"
    },
    {
      "id": "pt.ine.add.PTCONT.3158473",
      "street": "R MAJOR SERPA PINTO",
      "house": "130",
      "postcode": "2785-392",
      "city": "SÃO DOMINGOS DE RANA",
      "lon": "-9.362233250717503",
      "lat": "38.707142551209394"
    },
    {
      "id": "pt.ine.add.PTCONT.3186283",
      "street": "R MAJ SERPA PINTO",
      "house": "17",
      "postcode": "2785-392",
      "city": "SÃO DOMINGOS DE RANA",
      "lon": "-9.361942047973368",
      "lat": "38.70692041852309"
    },
    {
      "id": "pt.ine.add.PTCONT.3186284",
      "street": "R MAJOR SERPA PINTO",
      "house": "2",
      "postcode": "2785-392",
      "city": "SÃO DOMINGOS DE RANA",
      "lon": "-9.361942047973368",
      "lat": "38.70692041852309"
    },
    {
      "id": "pt.ine.add.PTCONT.3220603",
      "street": "R JOAQUIM AGOSTINHO",
      "house": "7",
      "postcode": "2785-380",
      "city": "SÃO DOMINGOS DE RANA",
      "lon": "-9.360667034674984",
      "lat": "38.705636696363136"
    },
    {
      "id": "pt.ine.add.PTCONT.3220604",
      "street": "R JOAQUIM AGOSTINHO",
      "house": "7",
      "postcode": "2785-380",
      "city": "SÃO DOMINGOS DE RANA",
      "lon": "-9.360667034674984",
      "lat": "38.705636696363136"
    },
    {
      "id": "pt.ine.add.PTCONT.3222882",
      "street": "R JOÃO DE DEUS",
      "house": "",
      "postcode": "2785-377",
      "city": "SÃO DOMINGOS DE RANA",
      "lon": "-9.358298242211106",
      "lat": "38.708291807054145"
    },
    {
      "id": "pt.ine.add.PTCONT.3238301",
      "street": "R D FERNANDO",
      "house": "",
      "postcode": "2785-445",
      "city": "SÃO DOMINGOS DE RANA",
      "lon": "-9.360067928050663",
      "lat": "38.708921806277786"
    },
    {
      "id": "pt.ine.add.PTCONT.3239218",
      "street": "R PADRE ANTÓNIO VIEIRA",
      "house": "138",
      "postcode": "2785-352",
      "city": "SÃO DOMINGOS DE RANA",
      "lon": "-9.360991168921931",
      "lat": "38.70576840895783"
    },
    {
      "id": "pt.ine.add.PTCONT.3239219",
      "street": "R PADRE ANTÓNIO VIEIRA",
      "house": "138",
      "postcode": "2785-352",
      "city": "SÃO DOMINGOS DE RANA",
      "lon": "-9.360991168921931",
      "lat": "38.70576840895783"
    },
    {
      "id": "pt.ine.add.PTCONT.3241808",
      "street": "R JOAQUIM AGOSTINHO",
      "house": "79",
      "postcode": "2785-380",
      "city": "SÃO DOMINGOS DE RANA",
      "lon": "-9.36060931475721",
      "lat": "38.70629486826964"
    },
    {
      "id": "pt.ine.add.PTCONT.3259106",
      "street": "R SERPA PINTO",
      "house": "396",
      "postcode": "2785-404",
      "city": "SÃO DOMINGOS DE RANA",
      "lon": "-9.361937855258905",
      "lat": "38.70936156223305"
    },
    {
      "id": "pt.ine.add.PTCONT.3266575",
      "street": "R D JOÃO II",
      "house": "100",
      "postcode": "2785-458",
      "city": "SÃO DOMINGOS DE RANA",
      "lon": "-9.358798374156464",
      "lat": "38.70930444054537"
    },
    {
      "id": "pt.ine.add.PTCONT.3266576",
      "street": "R D JOÃO II",
      "house": "100",
      "postcode": "2785-458",
      "city": "SÃO DOMINGOS DE RANA",
      "lon": "-9.358798374156464",
      "lat": "38.70930444054537"
    },
    {
      "id": "pt.ine.add.PTCONT.3293548",
      "street": "R JOAQUIM AGOSTINHO",
      "house": "47",
      "postcode": "2785-380",
      "city": "SÃO DOMINGOS DE RANA",
      "lon": "-9.360639175881513",
      "lat": "38.70602432220379"
    },
    {
      "id": "pt.ine.add.PTCONT.3310658",
      "street": "R FUNDADOR",
      "house": "4",
      "postcode": "2785-138",
      "city": "SÃO DOMINGOS DE RANA",
      "lon": "-9.3591077970158",
      "lat": "38.70924714972729"
    },
    {
      "id": "pt.ine.add.PTCONT.3324203",
      "street": "R PADRE ANTÓNIO VIEIRA",
      "house": "1 18",
      "postcode": "2785-352",
      "city": "SÃO DOMINGOS DE RANA",
      "lon": "-9.360806345279675",
      "lat": "38.705716303363126"
    },
    {
      "id": "pt.ine.add.PTCONT.3342978",
      "street": "R MAJOR SERPA PINTO",
      "house": "116",
      "postcode": "2785-392",
      "city": "SÃO DOMINGOS DE RANA",
      "lon": "-9.362196301568973",
      "lat": "38.70699881566324"
    },
    {
      "id": "pt.ine.add.PTCONT.3398448",
      "street": "R JOÃO DE DEUS",
      "house": "229",
      "postcode": "2785-377",
      "city": "SÃO DOMINGOS DE RANA",
      "lon": "-9.358002040228564",
      "lat": "38.70912362368709"
    },
    {
      "id": "pt.ine.add.PTCONT.3407127",
      "street": "R FUNDADOR",
      "house": "",
      "postcode": "2785-138",
      "city": "SÃO DOMINGOS DE RANA",
      "lon": "-9.359450932790455",
      "lat": "38.70914446573022"
    },
    {
      "id": "pt.ine.add.PTCONT.3407128",
      "street": "R FUNDADOR",
      "house": "",
      "postcode": "2785-138",
      "city": "SÃO DOMINGOS DE RANA",
      "lon": "-9.359450932790455",
      "lat": "38.70914446573022"
    },
    {
      "id": "pt.ine.add.PTCONT.3434655",
      "street": "R FELICIANO CASTILHO",
      "house": "1",
      "postcode": "2785-365",
      "city": "SÃO DOMINGOS DE RANA",
      "lon": "-9.361999910182362",
      "lat": "38.70627125234989"
    },
    {
      "id": "pt.ine.add.PTCONT.3447259",
      "street": "R FELICIANO CASTILHO",
      "house": "4",
      "postcode": "2785-365",
      "city": "SÃO DOMINGOS DE RANA",
      "lon": "-9.36180011308172",
      "lat": "38.706687708745065"
    },
    {
      "id": "pt.ine.add.PTCONT.3449911",
      "street": "R FELICIANO CASTILHO",
      "house": "4",
      "postcode": "2785-365",
      "city": "SÃO DOMINGOS DE RANA",
      "lon": "-9.36180011308172",
      "lat": "38.706687708745065"
    },
    {
      "id": "pt.ine.add.PTCONT.3452530",
      "street": "R PADRE ANTÓNIO VIEIRA",
      "house": "152",
      "postcode": "2785-352",
      "city": "SÃO DOMINGOS DE RANA",
      "lon": "-9.361072241182182",
      "lat": "38.705803588496"
    },
    {
      "id": "pt.ine.add.PTCONT.3454163",
      "street": "R FELICIANO CASTILHO",
      "house": "7",
      "postcode": "2785-365",
      "city": "SÃO DOMINGOS DE RANA",
      "lon": "-9.361171032242153",
      "lat": "38.70687447322414"
    },
    {
      "id": "pt.ine.add.PTCONT.3456348",
      "street": "PCT RAUL PROENCA",
      "house": "40",
      "postcode": "2785-377",
      "city": "SÃO DOMINGOS DE RANA",
      "lon": "-9.358387464271898",
      "lat": "38.7088043137633"
    },
    {
      "id": "pt.ine.add.PTCONT.2274148",
      "street": "R MAJ SERPA PINTO",
      "house": "256",
      "postcode": "2785-392",
      "city": "SÃO DOMINGOS DE RANA",
      "lon": "-9.362034770089236",
      "lat": "38.706964482679716"
    },
    {
      "id": "pt.ine.add.PTCONT.2274149",
      "street": "R MAJ SERPA PINTO",
      "house": "256",
      "postcode": "2785-392",
      "city": "SÃO DOMINGOS DE RANA",
      "lon": "-9.362034770089236",
      "lat": "38.706964482679716"
    },
    {
      "id": "pt.ine.add.PTCONT.2277478",
      "street": "AV DESCOBERTAS",
      "house": "725",
      "postcode": "2785-438",
      "city": "SÃO DOMINGOS DE RANA",
      "lon": "-9.359019688343297",
      "lat": "38.70947326734148"
    },
    {
      "id": "pt.ine.add.PTCONT.2287403",
      "street": "R TREPADEIRAS",
      "house": "121",
      "postcode": "2785-429",
      "city": "SÃO DOMINGOS DE RANA",
      "lon": "-9.36161555272498",
      "lat": "38.70933792615607"
    },
    {
      "id": "pt.ine.add.PTCONT.2296596",
      "street": "R D JOÃO II",
      "house": "78",
      "postcode": "2785-458",
      "city": "SÃO DOMINGOS DE RANA",
      "lon": "-9.358840660114181",
      "lat": "38.709087811257284"
    },
    {
      "id": "pt.ine.add.PTCONT.2305315",
      "street": "R TREPADEIRAS",
      "house": "67",
      "postcode": "2785-429",
      "city": "SÃO DOMINGOS DE RANA",
      "lon": "-9.360911936214901",
      "lat": "38.70920119360714"
    },
    {
      "id": "pt.ine.add.PTCONT.2314329",
      "street": "R FELICIANO CASTILHO",
      "house": "22",
      "postcode": "2785-365",
      "city": "SÃO DOMINGOS DE RANA",
      "lon": "-9.361359095322506",
      "lat": "38.707115706927766"
    },
    {
      "id": "pt.ine.add.PTCONT.2314330",
      "street": "R FELICIANO CASTILHO",
      "house": "22",
      "postcode": "2785-365",
      "city": "SÃO DOMINGOS DE RANA",
      "lon": "-9.361359095322506",
      "lat": "38.707115706927766"
    },
    {
      "id": "pt.ine.add.PTCONT.2330391",
      "street": "R FELICIANO CASTILHO",
      "house": "1",
      "postcode": "2785-365",
      "city": "SÃO DOMINGOS DE RANA",
      "lon": "-9.361999910182362",
      "lat": "38.70627125234989"
    },
    {
      "id": "pt.ine.add.PTCONT.2330392",
      "street": "R FELICIANO CASTILHO",
      "house": "1",
      "postcode": "2785-365",
      "city": "SÃO DOMINGOS DE RANA",
      "lon": "-9.361999910182362",
      "lat": "38.70627125234989"
    },
    {
      "id": "pt.ine.add.PTCONT.2330393",
      "street": "R FELICIANO CASTILHO",
      "house": "1",
      "postcode": "2785-365",
      "city": "SÃO DOMINGOS DE RANA",
      "lon": "-9.361999910182362",
      "lat": "38.70627125234989"
    },
    {
      "id": "pt.ine.add.PTCONT.2330411",
      "street": "R FELICIANO CASTILHO",
      "house": "1",
      "postcode": "2785-365",
      "city": "SÃO DOMINGOS DE RANA",
      "lon": "-9.361999910182362",
      "lat": "38.70627125234989"
    },
    {
      "id": "pt.ine.add.PTCONT.2330412",
      "street": "R FELICIANO CASTILHO",
      "house": "1",
      "postcode": "2785-365",
      "city": "SÃO DOMINGOS DE RANA",
      "lon": "-9.361999910182362",
      "lat": "38.70627125234989"
    },
    {
      "id": "pt.ine.add.PTCONT.2330413",
      "street": "R FELICIANO CASTILHO",
      "house": "1",
      "postcode": "2785-365",
      "city": "SÃO DOMINGOS DE RANA",
      "lon": "-9.361999910182362",
      "lat": "38.70627125234989"
    },
    {
      "id": "pt.ine.add.PTCONT.2330414",
      "street": "R FELICIANO CASTILHO",
      "house": "1",
      "postcode": "2785-365",
      "city": "SÃO DOMINGOS DE RANA",
      "lon": "-9.361999910182362",
      "lat": "38.70627125234989"
    },
    {
      "id": "pt.ine.add.PTCONT.2332429",
      "street": "R D FERNANDO",
      "house": "29",
      "postcode": "2785-445",
      "city": "SÃO DOMINGOS DE RANA",
      "lon": "-9.35999378017435",
      "lat": "38.70929190206583"
    },
    {
      "id": "pt.ine.add.PTCONT.2342129",
      "street": "R D JOAO II GAMITO",
      "house": "GAMITO",
      "postcode": "2785-458",
      "city": "SÃO DOMINGOS DE RANA",
      "lon": "-9.359204784035976",
      "lat": "38.70886780720641"
    },
    {
      "id": "pt.ine.add.PTCONT.2377917",
      "street": "R FELICIANO CASTILHO",
      "house": "83",
      "postcode": "2785-365",
      "city": "SÃO DOMINGOS DE RANA",
      "lon": "-9.361744801892739",
      "lat": "38.706814398510176"
    },
    {
      "id": "pt.ine.add.PTCONT.2377918",
      "street": "R FELICIANO CASTILHO",
      "house": "83",
      "postcode": "2785-365",
      "city": "SÃO DOMINGOS DE RANA",
      "lon": "-9.361744801892739",
      "lat": "38.706814398510176"
    },
    {
      "id": "pt.ine.add.PTCONT.2377919",
      "street": "R FELICIANO CASTILHO",
      "house": "83",
      "postcode": "2785-365",
      "city": "SÃO DOMINGOS DE RANA",
      "lon": "-9.361744801892739",
      "lat": "38.706814398510176"
    },
    {
      "id": "pt.ine.add.PTCONT.2377920",
      "street": "R FELICIANO CASTILHO",
      "house": "83",
      "postcode": "2785-365",
      "city": "SÃO DOMINGOS DE RANA",
      "lon": "-9.361744801892739",
      "lat": "38.706814398510176"
    },
    {
      "id": "pt.ine.add.PTCONT.2377921",
      "street": "R FELICIANO CASTILHO",
      "house": "5",
      "postcode": "2785-365",
      "city": "SÃO DOMINGOS DE RANA",
      "lon": "-9.361744801892739",
      "lat": "38.706814398510176"
    },
    {
      "id": "pt.ine.add.PTCONT.2377922",
      "street": "R FELICIANO CASTILHO",
      "house": "5",
      "postcode": "2785-365",
      "city": "SÃO DOMINGOS DE RANA",
      "lon": "-9.361744801892739",
      "lat": "38.706814398510176"
    },
    {
      "id": "pt.ine.add.PTCONT.2377923",
      "street": "R FELICIANO CASTILHO",
      "house": "83",
      "postcode": "2785-365",
      "city": "SÃO DOMINGOS DE RANA",
      "lon": "-9.361744801892739",
      "lat": "38.706814398510176"
    },
    {
      "id": "pt.ine.add.PTCONT.2378088",
      "street": "R FELICIANO CASTILHO",
      "house": "83",
      "postcode": "2785-365",
      "city": "SÃO DOMINGOS DE RANA",
      "lon": "-9.361744801892739",
      "lat": "38.706814398510176"
    },
    {
      "id": "pt.ine.add.PTCONT.2396511",
      "street": "R FELICIANO CASTILHO",
      "house": "7",
      "postcode": "2785-365",
      "city": "SÃO DOMINGOS DE RANA",
      "lon": "-9.361171032242153",
      "lat": "38.70687447322414"
    },
    {
      "id": "pt.ine.add.PTCONT.2396512",
      "street": "R FELICIANO CASTILHO",
      "house": "7",
      "postcode": "2785-365",
      "city": "SÃO DOMINGOS DE RANA",
      "lon": "-9.361171032242153",
      "lat": "38.70687447322414"
    },
    {
      "id": "pt.ine.add.PTCONT.2396513",
      "street": "R FELICIANO CASTILHO",
      "house": "7",
      "postcode": "2785-365",
      "city": "SÃO DOMINGOS DE RANA",
      "lon": "-9.361171032242153",
      "lat": "38.70687447322414"
    },
    {
      "id": "pt.ine.add.PTCONT.2396525",
      "street": "R FELICIANO CASTILHO",
      "house": "7",
      "postcode": "2785-365",
      "city": "SÃO DOMINGOS DE RANA",
      "lon": "-9.361171032242153",
      "lat": "38.70687447322414"
    },
    {
      "id": "pt.ine.add.PTCONT.2396526",
      "street": "R FELICIANO CASTILHO",
      "house": "7",
      "postcode": "2785-365",
      "city": "SÃO DOMINGOS DE RANA",
      "lon": "-9.361171032242153",
      "lat": "38.70687447322414"
    },
    {
      "id": "pt.ine.add.PTCONT.2403635",
      "street": "R MAJOR SERPA PINTO",
      "house": "58",
      "postcode": "2785-404",
      "city": "SÃO DOMINGOS DE RANA",
      "lon": "-9.362221067985084",
      "lat": "38.70643106707169"
    },
    {
      "id": "pt.ine.add.PTCONT.2403638",
      "street": "R MAJOR SERPA PINTO",
      "house": "58",
      "postcode": "2785-404",
      "city": "SÃO DOMINGOS DE RANA",
      "lon": "-9.362221067985084",
      "lat": "38.70643106707169"
    },
    {
      "id": "pt.ine.add.PTCONT.2459448",
      "street": "R JOAQUIM AGOSTINHO",
      "house": "",
      "postcode": "2785-380",
      "city": "SÃO DOMINGOS DE RANA",
      "lon": "-9.36072692902747",
      "lat": "38.70712234644596"
    },
    {
      "id": "pt.ine.add.PTCONT.2491283",
      "street": "PCT RAUL PROENCA",
      "house": "40",
      "postcode": "2785-377",
      "city": "SÃO DOMINGOS DE RANA",
      "lon": "-9.358387464271898",
      "lat": "38.7088043137633"
    },
    {
      "id": "pt.ine.add.PTCONT.2491284",
      "street": "PCT RAUL PROENCA",
      "house": "40",
      "postcode": "2785-377",
      "city": "SÃO DOMINGOS DE RANA",
      "lon": "-9.358387464271898",
      "lat": "38.7088043137633"
    },
    {
      "id": "pt.ine.add.PTCONT.2491285",
      "street": "PCT RAUL PROENCA",
      "house": "40",
      "postcode": "2785-377",
      "city": "SÃO DOMINGOS DE RANA",
      "lon": "-9.358387464271898",
      "lat": "38.7088043137633"
    },
    {
      "id": "pt.ine.add.PTCONT.2491286",
      "street": "PCT RAUL PROENCA",
      "house": "40",
      "postcode": "2785-377",
      "city": "SÃO DOMINGOS DE RANA",
      "lon": "-9.358387464271898",
      "lat": "38.7088043137633"
    },
    {
      "id": "pt.ine.add.PTCONT.2491287",
      "street": "PCT RAUL PROENCA",
      "house": "2",
      "postcode": "2785-377",
      "city": "SÃO DOMINGOS DE RANA",
      "lon": "-9.358387464271898",
      "lat": "38.7088043137633"
    },
    {
      "id": "pt.ine.add.PTCONT.2491288",
      "street": "PCT RAUL PROENCA",
      "house": "40",
      "postcode": "2785-377",
      "city": "SÃO DOMINGOS DE RANA",
      "lon": "-9.358387464271898",
      "lat": "38.7088043137633"
    },
    {
      "id": "pt.ine.add.PTCONT.2491289",
      "street": "PCT RAUL PROENCA",
      "house": "40",
      "postcode": "2785-377",
      "city": "SÃO DOMINGOS DE RANA",
      "lon": "-9.358387464271898",
      "lat": "38.7088043137633"
    },
    {
      "id": "pt.ine.add.PTCONT.2491290",
      "street": "PCT RAUL PROENCA",
      "house": "40",
      "postcode": "2785-377",
      "city": "SÃO DOMINGOS DE RANA",
      "lon": "-9.358387464271898",
      "lat": "38.7088043137633"
    },
    {
      "id": "pt.ine.add.PTCONT.2491291",
      "street": "PCT RAUL PROENCA",
      "house": "40",
      "postcode": "2785-377",
      "city": "SÃO DOMINGOS DE RANA",
      "lon": "-9.358387464271898",
      "lat": "38.7088043137633"
    },
    {
      "id": "pt.ine.add.PTCONT.2491292",
      "street": "PCT RAUL PROENCA",
      "house": "40",
      "postcode": "2785-377",
      "city": "SÃO DOMINGOS DE RANA",
      "lon": "-9.358387464271898",
      "lat": "38.7088043137633"
    },
    {
      "id": "pt.ine.add.PTCONT.2491293",
      "street": "PCT RAUL PROENCA",
      "house": "40",
      "postcode": "2785-377",
      "city": "SÃO DOMINGOS DE RANA",
      "lon": "-9.358387464271898",
      "lat": "38.7088043137633"
    },
    {
      "id": "pt.ine.add.PTCONT.2493619",
      "street": "PCT RAUL PROENCA",
      "house": "40",
      "postcode": "2785-377",
      "city": "SÃO DOMINGOS DE RANA",
      "lon": "-9.358387464271898",
      "lat": "38.7088043137633"
    },
    {
      "id": "pt.ine.add.PTCONT.2493850",
      "street": "PCT RAUL PROENCA",
      "house": "40",
      "postcode": "2785-377",
      "city": "SÃO DOMINGOS DE RANA",
      "lon": "-9.358387464271898",
      "lat": "38.7088043137633"
    },
    {
      "id": "pt.ine.add.PTCONT.2493901",
      "street": "R D FERNANDO",
      "house": "31",
      "postcode": "2785-445",
      "city": "SÃO DOMINGOS DE RANA",
      "lon": "-9.359919631582999",
      "lat": "38.709661997796445"
    },
    {
      "id": "pt.ine.add.PTCONT.2514433",
      "street": "R NAGEL",
      "house": "",
      "postcode": "2785-445",
      "city": "SÃO DOMINGOS DE RANA",
      "lon": "-9.359732594647333",
      "lat": "38.70880822426044"
    },
    {
      "id": "pt.ine.add.PTCONT.2541741",
      "street": "R FUNDADOR",
      "house": "3",
      "postcode": "2785-138",
      "city": "SÃO DOMINGOS DE RANA",
      "lon": "-9.3590869620947",
      "lat": "38.70937347668319"
    },
    {
      "id": "pt.ine.add.PTCONT.2556196",
      "street": "R PADRE ANTÓNIO VIEIRA",
      "house": "152",
      "postcode": "2785-352",
      "city": "SÃO DOMINGOS DE RANA",
      "lon": "-9.361072241182182",
      "lat": "38.705803588496"
    },
    {
      "id": "pt.ine.add.PTCONT.2577751",
      "street": "R NAGEL",
      "house": "26",
      "postcode": "2785-445",
      "city": "SÃO DOMINGOS DE RANA",
      "lon": "-9.359616469407747",
      "lat": "38.70941296167649"
    },
    {
      "id": "pt.ine.add.PTCONT.2609737",
      "street": "R FELICIANO CASTILHO",
      "house": "99",
      "postcode": "2785-365",
      "city": "SÃO DOMINGOS DE RANA",
      "lon": "-9.361388953874197",
      "lat": "38.70684516074843"
    },
    {
      "id": "pt.ine.add.PTCONT.2609738",
      "street": "R FELICIANO CASTILHO",
      "house": "99",
      "postcode": "2785-365",
      "city": "SÃO DOMINGOS DE RANA",
      "lon": "-9.361388953874197",
      "lat": "38.70684516074843"
    },
    {
      "id": "pt.ine.add.PTCONT.2609739",
      "street": "R FELICIANO CASTILHO",
      "house": "99",
      "postcode": "2785-365",
      "city": "SÃO DOMINGOS DE RANA",
      "lon": "-9.361388953874197",
      "lat": "38.70684516074843"
    },
    {
      "id": "pt.ine.add.PTCONT.2609740",
      "street": "R FELICIANO CASTILHO",
      "house": "99",
      "postcode": "2785-365",
      "city": "SÃO DOMINGOS DE RANA",
      "lon": "-9.361388953874197",
      "lat": "38.70684516074843"
    },
    {
      "id": "pt.ine.add.PTCONT.2609741",
      "street": "R FELICIANO CASTILHO",
      "house": "6",
      "postcode": "2785-365",
      "city": "SÃO DOMINGOS DE RANA",
      "lon": "-9.361388953874197",
      "lat": "38.70684516074843"
    },
    {
      "id": "pt.ine.add.PTCONT.2610170",
      "street": "R FELICIANO CASTILHO",
      "house": "",
      "postcode": "2785-365",
      "city": "SÃO DOMINGOS DE RANA",
      "lon": "-9.361388953874197",
      "lat": "38.70684516074843"
    },
    {
      "id": "pt.ine.add.PTCONT.2611076",
      "street": "R JOAQUIM AGOSTINHO",
      "house": "41",
      "postcode": "2785-380",
      "city": "SÃO DOMINGOS DE RANA",
      "lon": "-9.360812198381192",
      "lat": "38.706058536474345"
    },
    {
      "id": "pt.ine.add.PTCONT.2611095",
      "street": "R JOAQUIM AGOSTINHO",
      "house": "41",
      "postcode": "2785-380",
      "city": "SÃO DOMINGOS DE RANA",
      "lon": "-9.360812198381192",
      "lat": "38.706058536474345"
    },
    {
      "id": "pt.ine.add.PTCONT.2611096",
      "street": "R JOAQUIM AGOSTINHO",
      "house": "41",
      "postcode": "2785-380",
      "city": "SÃO DOMINGOS DE RANA",
      "lon": "-9.360812198381192",
      "lat": "38.706058536474345"
    },
    {
      "id": "pt.ine.add.PTCONT.2612058",
      "street": "R FELICIANO CASTILHO",
      "house": "99",
      "postcode": "2785-365",
      "city": "SÃO DOMINGOS DE RANA",
      "lon": "-9.361388953874197",
      "lat": "38.70684516074843"
    },
    {
      "id": "pt.ine.add.PTCONT.2621376",
      "street": "R JOÃO DE DEUS",
      "house": "67",
      "postcode": "2785-377",
      "city": "SÃO DOMINGOS DE RANA",
      "lon": "-9.358541733938107",
      "lat": "38.70773978237176"
    },
    {
      "id": "pt.ine.add.PTCONT.2629315",
      "street": "R D JOÃO II",
      "house": "88",
      "postcode": "2785-458",
      "city": "SÃO DOMINGOS DE RANA",
      "lon": "-9.358808330482661",
      "lat": "38.70921425868078"
    },
    {
      "id": "pt.ine.add.PTCONT.2629316",
      "street": "R D JOÃO II",
      "house": "88",
      "postcode": "2785-458",
      "city": "SÃO DOMINGOS DE RANA",
      "lon": "-9.358808330482661",
      "lat": "38.70921425868078"
    },
    {
      "id": "pt.ine.add.PTCONT.2675333",
      "street": "R JOÃO DE DEUS",
      "house": "138",
      "postcode": "2785-377",
      "city": "SÃO DOMINGOS DE RANA",
      "lon": "-9.358539427625159",
      "lat": "38.70760469028071"
    },
    {
      "id": "pt.ine.add.PTCONT.2686571",
      "street": "R FELICIANO CASTILHO",
      "house": "133",
      "postcode": "2785-365",
      "city": "SÃO DOMINGOS DE RANA",
      "lon": "-9.36102022508144",
      "lat": "38.70679498743372"
    },
    {
      "id": "pt.ine.add.PTCONT.2686572",
      "street": "R FELICIANO CASTILHO",
      "house": "133",
      "postcode": "2785-365",
      "city": "SÃO DOMINGOS DE RANA",
      "lon": "-9.36102022508144",
      "lat": "38.70679498743372"
    },
    {
      "id": "pt.ine.add.PTCONT.2686573",
      "street": "R FELICIANO CASTILHO",
      "house": "133",
      "postcode": "2785-365",
      "city": "SÃO DOMINGOS DE RANA",
      "lon": "-9.36102022508144",
      "lat": "38.70679498743372"
    },
    {
      "id": "pt.ine.add.PTCONT.2686574",
      "street": "R FELICIANO CASTILHO",
      "house": "8",
      "postcode": "2785-365",
      "city": "SÃO DOMINGOS DE RANA",
      "lon": "-9.36102022508144",
      "lat": "38.70679498743372"
    },
    {
      "id": "pt.ine.add.PTCONT.2686575",
      "street": "R FELICIANO CASTILHO",
      "house": "133",
      "postcode": "2785-365",
      "city": "SÃO DOMINGOS DE RANA",
      "lon": "-9.36102022508144",
      "lat": "38.70679498743372"
    },
    {
      "id": "pt.ine.add.PTCONT.2686576",
      "street": "R FELICIANO CASTILHO",
      "house": "8",
      "postcode": "2785-365",
      "city": "SÃO DOMINGOS DE RANA",
      "lon": "-9.36102022508144",
      "lat": "38.70679498743372"
    },
    {
      "id": "pt.ine.add.PTCONT.2686577",
      "street": "R FELICIANO CASTILHO",
      "house": "133",
      "postcode": "2785-365",
      "city": "SÃO DOMINGOS DE RANA",
      "lon": "-9.36102022508144",
      "lat": "38.70679498743372"
    },
    {
      "id": "pt.ine.add.PTCONT.2686578",
      "street": "R FELICIANO CASTILHO",
      "house": "133",
      "postcode": "2785-365",
      "city": "SÃO DOMINGOS DE RANA",
      "lon": "-9.36102022508144",
      "lat": "38.70679498743372"
    },
    {
      "id": "pt.ine.add.PTCONT.2686579",
      "street": "R FELICIANO CASTILHO",
      "house": "133",
      "postcode": "2785-365",
      "city": "SÃO DOMINGOS DE RANA",
      "lon": "-9.36102022508144",
      "lat": "38.70679498743372"
    },
    {
      "id": "pt.ine.add.PTCONT.2686580",
      "street": "R FELICIANO CASTILHO",
      "house": "133",
      "postcode": "2785-365",
      "city": "SÃO DOMINGOS DE RANA",
      "lon": "-9.36102022508144",
      "lat": "38.70679498743372"
    },
    {
      "id": "pt.ine.add.PTCONT.2686581",
      "street": "R FELICIANO CASTILHO",
      "house": "133",
      "postcode": "2785-365",
      "city": "SÃO DOMINGOS DE RANA",
      "lon": "-9.36102022508144",
      "lat": "38.70679498743372"
    },
    {
      "id": "pt.ine.add.PTCONT.2686582",
      "street": "R FELICIANO CASTILHO",
      "house": "133",
      "postcode": "2785-365",
      "city": "SÃO DOMINGOS DE RANA",
      "lon": "-9.36102022508144",
      "lat": "38.70679498743372"
    },
    {
      "id": "pt.ine.add.PTCONT.2686702",
      "street": "R JOAQUIM AGOSTINHO",
      "house": "127",
      "postcode": "2785-380",
      "city": "SÃO DOMINGOS DE RANA",
      "lon": "-9.360489966551143",
      "lat": "38.706710477806006"
    },
    {
      "id": "pt.ine.add.PTCONT.2686703",
      "street": "R JOAQUIM AGOSTINHO",
      "house": "127",
      "postcode": "2785-380",
      "city": "SÃO DOMINGOS DE RANA",
      "lon": "-9.360489966551143",
      "lat": "38.706710477806006"
    },
    {
      "id": "pt.ine.add.PTCONT.2689730",
      "street": "R FELICIANO CASTILHO",
      "house": "133",
      "postcode": "2785-365",
      "city": "SÃO DOMINGOS DE RANA",
      "lon": "-9.36102022508144",
      "lat": "38.70679498743372"
    },
    {
      "id": "pt.ine.add.PTCONT.2701694",
      "street": "R D JOÃO II",
      "house": "",
      "postcode": "2785-458",
      "city": "SÃO DOMINGOS DE RANA",
      "lon": "-9.358766813324278",
      "lat": "38.70947591863483"
    },
    {
      "id": "pt.ine.add.PTCONT.2719640",
      "street": "R FELICIANO CASTILHO",
      "house": "3",
      "postcode": "2785-365",
      "city": "SÃO DOMINGOS DE RANA",
      "lon": "-9.361878257593405",
      "lat": "38.70655177122835"
    },
    {
      "id": "pt.ine.add.PTCONT.2719641",
      "street": "R FELICIANO CASTILHO",
      "house": "51",
      "postcode": "2785-365",
      "city": "SÃO DOMINGOS DE RANA",
      "lon": "-9.361878257593405",
      "lat": "38.70655177122835"
    },
    {
      "id": "pt.ine.add.PTCONT.2719642",
      "street": "R FELICIANO CASTILHO",
      "house": "51",
      "postcode": "2785-365",
      "city": "SÃO DOMINGOS DE RANA",
      "lon": "-9.361878257593405",
      "lat": "38.70655177122835"
    },
    {
      "id": "pt.ine.add.PTCONT.2719643",
      "street": "R FELICIANO CASTILHO",
      "house": "51",
      "postcode": "2785-365",
      "city": "SÃO DOMINGOS DE RANA",
      "lon": "-9.361878257593405",
      "lat": "38.70655177122835"
    },
    {
      "id": "pt.ine.add.PTCONT.2719644",
      "street": "R FELICIANO CASTILHO",
      "house": "51",
      "postcode": "2785-365",
      "city": "SÃO DOMINGOS DE RANA",
      "lon": "-9.361878257593405",
      "lat": "38.70655177122835"
    },
    {
      "id": "pt.ine.add.PTCONT.2719645",
      "street": "R FELICIANO CASTILHO",
      "house": "51",
      "postcode": "2785-365",
      "city": "SÃO DOMINGOS DE RANA",
      "lon": "-9.361878257593405",
      "lat": "38.70655177122835"
    },
    {
      "id": "pt.ine.add.PTCONT.2719646",
      "street": "R FELICIANO CASTILHO",
      "house": "51",
      "postcode": "2785-365",
      "city": "SÃO DOMINGOS DE RANA",
      "lon": "-9.361878257593405",
      "lat": "38.70655177122835"
    },
    {
      "id": "pt.ine.add.PTCONT.2719649",
      "street": "R JOAQUIM AGOSTINHO",
      "house": "129",
      "postcode": "2785-380",
      "city": "SÃO DOMINGOS DE RANA",
      "lon": "-9.360397861610148",
      "lat": "38.706702436939906"
    },
    {
      "id": "pt.ine.add.PTCONT.2719656",
      "street": "R JOAO DE DEUS",
      "house": "73",
      "postcode": "2785-377",
      "city": "SÃO DOMINGOS DE RANA",
      "lon": "-9.358590170285158",
      "lat": "38.70788339869008"
    },
    {
      "id": "pt.ine.add.PTCONT.2719657",
      "street": "R JOAO DEUS",
      "house": "",
      "postcode": "2785-377",
      "city": "SÃO DOMINGOS DE RANA",
      "lon": "-9.358590170285158",
      "lat": "38.70788339869008"
    },
    {
      "id": "pt.ine.add.PTCONT.2719658",
      "street": "R JOAO DEUS",
      "house": "",
      "postcode": "2785-377",
      "city": "SÃO DOMINGOS DE RANA",
      "lon": "-9.358590170285158",
      "lat": "38.70788339869008"
    },
    {
      "id": "pt.ine.add.PTCONT.2725689",
      "street": "R JOAQUIM AGOSTINHO",
      "house": "129",
      "postcode": "2785-380",
      "city": "SÃO DOMINGOS DE RANA",
      "lon": "-9.360397861610148",
      "lat": "38.706702436939906"
    },
    {
      "id": "pt.ine.add.PTCONT.2725793",
      "street": "R FELICIANO CASTILHO",
      "house": "3",
      "postcode": "2785-365",
      "city": "SÃO DOMINGOS DE RANA",
      "lon": "-9.361878257593405",
      "lat": "38.70655177122835"
    },
    {
      "id": "pt.ine.add.PTCONT.2737360",
      "street": "R LUCIO DINIOS CASAL DAS MULAT",
      "house": "",
      "postcode": "2785-404",
      "city": "SÃO DOMINGOS DE RANA",
      "lon": "-9.362172933875218",
      "lat": "38.70630546458458"
    },
    {
      "id": "pt.ine.add.PTCONT.2760095",
      "street": "R D JOÃO II",
      "house": "24",
      "postcode": "2785-458",
      "city": "SÃO DOMINGOS DE RANA",
      "lon": "-9.359006305898754",
      "lat": "38.70868973354128"
    },
    {
      "id": "pt.ine.add.PTCONT.2775860",
      "street": "R MAJOR SERPA PINTO",
      "house": "",
      "postcode": "2785-392",
      "city": "SÃO DOMINGOS DE RANA",
      "lon": "-9.362156422718488",
      "lat": "38.70668396365636"
    },
    {
      "id": "pt.ine.add.PTCONT.2780418",
      "street": "R TREPADEIRAS",
      "house": "103",
      "postcode": "2785-429",
      "city": "SÃO DOMINGOS DE RANA",
      "lon": "-9.361373402122245",
      "lat": "38.7092954316627"
    },
    {
      "id": "pt.ine.add.PTCONT.2780419",
      "street": "R TREPADEIRAS",
      "house": "103",
      "postcode": "2785-429",
      "city": "SÃO DOMINGOS DE RANA",
      "lon": "-9.361373402122245",
      "lat": "38.7092954316627"
    },
    {
      "id": "pt.ine.add.PTCONT.2791004",
      "street": "R JOÃO DE DEUS",
      "house": "27",
      "postcode": "2785-377",
      "city": "SÃO DOMINGOS DE RANA",
      "lon": "-9.358557803001405",
      "lat": "38.70733426514157"
    },
    {
      "id": "pt.ine.add.PTCONT.2791005",
      "street": "R TREPADEIRAS",
      "house": "91",
      "postcode": "2785-429",
      "city": "SÃO DOMINGOS DE RANA",
      "lon": "-9.361234854356884",
      "lat": "38.709260856150046"
    },
    {
      "id": "pt.ine.add.PTCONT.2818289",
      "street": "R JOAQUIM AGOSTINHO",
      "house": "",
      "postcode": "2785-380",
      "city": "SÃO DOMINGOS DE RANA",
      "lon": "-9.36101350706268",
      "lat": "38.707074298246994"
    },
    {
      "id": "pt.ine.add.PTCONT.2818294",
      "street": "R SERPA PINTO",
      "house": "386",
      "postcode": "2785-404",
      "city": "SÃO DOMINGOS DE RANA",
      "lon": "-9.36190075125391",
      "lat": "38.70920882053032"
    },
    {
      "id": "pt.ine.add.PTCONT.2836161",
      "street": "R JOAQUIM AGOSTINHO",
      "house": "63",
      "postcode": "2785-380",
      "city": "SÃO DOMINGOS DE RANA",
      "lon": "-9.360618652460278",
      "lat": "38.706168661710755"
    },
    {
      "id": "pt.ine.add.PTCONT.2849947",
      "street": "R FUNDADOR",
      "house": "",
      "postcode": "2785-138",
      "city": "SÃO DOMINGOS DE RANA",
      "lon": "-9.359384736838786",
      "lat": "38.70930729952857"
    },
    {
      "id": "pt.ine.add.PTCONT.2872000",
      "street": "R FUNDADOR S JOSE",
      "house": "SAO JOSE",
      "postcode": "2785-138",
      "city": "SÃO DOMINGOS DE RANA",
      "lon": "-9.359331265819138",
      "lat": "38.70954206180548"
    },
    {
      "id": "pt.ine.add.PTCONT.2886777",
      "street": "R MAJOR SERPA PINTO",
      "house": "",
      "postcode": "2785-392",
      "city": "SÃO DOMINGOS DE RANA",
      "lon": "-9.36225839763038",
      "lat": "38.707268395322075"
    },
    {
      "id": "pt.ine.add.PTCONT.2890638",
      "street": "R PADRE ANTÓNIO VIEIRA",
      "house": "162",
      "postcode": "2785-352",
      "city": "SÃO DOMINGOS DE RANA",
      "lon": "-9.361108417075986",
      "lat": "38.70590229380612"
    },
    {
      "id": "pt.ine.add.PTCONT.2897710",
      "street": "R D JOÃO II",
      "house": "2",
      "postcode": "2785-458",
      "city": "SÃO DOMINGOS DE RANA",
      "lon": "-9.359104984898377",
      "lat": "38.70840945857359"
    },
    {
      "id": "pt.ine.add.PTCONT.2897711",
      "street": "R D JOÃO II",
      "house": "2",
      "postcode": "2785-458",
      "city": "SÃO DOMINGOS DE RANA",
      "lon": "-9.359104984898377",
      "lat": "38.70840945857359"
    },
    {
      "id": "pt.ine.add.PTCONT.2897928",
      "street": "R D JOÃO II",
      "house": "2",
      "postcode": "2785-458",
      "city": "SÃO DOMINGOS DE RANA",
      "lon": "-9.359104984898377",
      "lat": "38.70840945857359"
    }
  ]
}