{
  "data": {
    "distrito": "Leiria",
    "concelho": "Leiria",
    "freguesia": "Maceira",
    "OBJECTID": 612,
    "BGRI2021": "10091300715",
    "DT21": "10",
    "DTMN21": "1009",
    "DTMNFR21": "100913",
    "DTMNFRSEC21": "100913007",
    "SECNUM21": "007",
    "SSNUM21": "15",
    "SECSSNUM21": "00715",
    "OBJECTID_1": 92039,
    "DT": "10",
    "CC": "09",
    "fr": "13",
    "SEC": "007",
    "SS": "15"
  },
  "addresses": [
    {
      "id": "pt.ine.add.PTCONT.1980754",
      "street": "EN 356",
      "house": "",
      "postcode": "2405-035",
      "city": "MACEIRA LRA",
      "lon": "-8.883497079737037",
      "lat": "39.672508061910406"
    },
    {
      "id": "pt.ine.add.PTCONT.1982766",
      "street": "R ALQUEBE",
      "house": "4",
      "postcode": "2405-005",
      "city": "MACEIRA LRA",
      "lon": "-8.882581368506766",
      "lat": "39.680520805796455"
    },
    {
      "id": "pt.ine.add.PTCONT.2011412",
      "street": "R RIBEIRO",
      "house": "1",
      "postcode": "2405-005",
      "city": "MACEIRA LRA",
      "lon": "-8.884789272632014",
      "lat": "39.67882230962104"
    },
    {
      "id": "pt.ine.add.PTCONT.2013438",
      "street": "EN 356",
      "house": "15",
      "postcode": "2405-035",
      "city": "MACEIRA LRA",
      "lon": "-8.881608166425156",
      "lat": "39.67243018618476"
    },
    {
      "id": "pt.ine.add.PTCONT.2022183",
      "street": "R ALQUEBE",
      "house": "",
      "postcode": "2405-005",
      "city": "MACEIRA LRA",
      "lon": "-8.884151368479529",
      "lat": "39.679114646714645"
    },
    {
      "id": "pt.ine.add.PTCONT.2028381",
      "street": "R ALQUEBE",
      "house": "1",
      "postcode": "2405-005",
      "city": "MACEIRA LRA",
      "lon": "-8.884073294534534",
      "lat": "39.67943938756461"
    },
    {
      "id": "pt.ine.add.PTCONT.2059054",
      "street": "R RIBEIRA",
      "house": "1",
      "postcode": "2405-031",
      "city": "MACEIRA LRA",
      "lon": "-8.880845893299185",
      "lat": "39.68172085845468"
    },
    {
      "id": "pt.ine.add.PTCONT.2062812",
      "street": "EN 356",
      "house": "17",
      "postcode": "2405-035",
      "city": "MACEIRA LRA",
      "lon": "-8.88107169629268",
      "lat": "39.6723976163784"
    },
    {
      "id": "pt.ine.add.PTCONT.2066554",
      "street": "EN 356",
      "house": "5",
      "postcode": "2405-035",
      "city": "MACEIRA LRA",
      "lon": "-8.88375395412807",
      "lat": "39.67255143464334"
    },
    {
      "id": "pt.ine.add.PTCONT.2067271",
      "street": "R CASAL",
      "house": "",
      "postcode": "2405-005",
      "city": "MACEIRA LRA",
      "lon": "-8.88456390657473",
      "lat": "39.67631093899408"
    },
    {
      "id": "pt.ine.add.PTCONT.2074579",
      "street": "R CARREIRA VELHA",
      "house": "4",
      "postcode": "2405-035",
      "city": "MACEIRA LRA",
      "lon": "-8.885682036827324",
      "lat": "39.673016303829364"
    },
    {
      "id": "pt.ine.add.PTCONT.2096639",
      "street": "EN 356",
      "house": "",
      "postcode": "2405-035",
      "city": "MACEIRA LRA",
      "lon": "-8.885960169407703",
      "lat": "39.67287039608787"
    },
    {
      "id": "pt.ine.add.PTCONT.2104667",
      "street": "R CASAL",
      "house": "",
      "postcode": "2405-005",
      "city": "MACEIRA LRA",
      "lon": "-8.884965499027278",
      "lat": "39.677875480523646"
    },
    {
      "id": "pt.ine.add.PTCONT.2104793",
      "street": "R CARREIRA V ELHA",
      "house": "12",
      "postcode": "2405-035",
      "city": "MACEIRA LRA",
      "lon": "-8.885000209529295",
      "lat": "39.673552107519846"
    },
    {
      "id": "pt.ine.add.PTCONT.2109008",
      "street": "R ALQUEBE",
      "house": "2A",
      "postcode": "2405-005",
      "city": "MACEIRA LRA",
      "lon": "-8.88286895291267",
      "lat": "39.680167693821375"
    },
    {
      "id": "pt.ine.add.PTCONT.2125322",
      "street": "R ALQUEBE",
      "house": "2",
      "postcode": "2405-005",
      "city": "MACEIRA LRA",
      "lon": "-8.883227147548155",
      "lat": "39.67987717090766"
    },
    {
      "id": "pt.ine.add.PTCONT.2131092",
      "street": "R RIBEIRA",
      "house": "1A",
      "postcode": "2405-031",
      "city": "MACEIRA LRA",
      "lon": "-8.880468742414921",
      "lat": "39.68133600462596"
    },
    {
      "id": "pt.ine.add.PTCONT.2140728",
      "street": "R CARREIRA V ELHA",
      "house": "16",
      "postcode": "2405-035",
      "city": "MACEIRA LRA",
      "lon": "-8.88456164646758",
      "lat": "39.67395123491133"
    },
    {
      "id": "pt.ine.add.PTCONT.2143132",
      "street": "EN 356",
      "house": "3",
      "postcode": "2405-035",
      "city": "MACEIRA LRA",
      "lon": "-8.884547594398827",
      "lat": "39.672654380801674"
    },
    {
      "id": "pt.ine.add.PTCONT.2164584",
      "street": "R ALQUEBE",
      "house": "15",
      "postcode": "2405-005",
      "city": "MACEIRA LRA",
      "lon": "-8.883446841909699",
      "lat": "39.67971363362067"
    },
    {
      "id": "pt.ine.add.PTCONT.2200025",
      "street": "R ALQUEBE",
      "house": "",
      "postcode": "2405-005",
      "city": "MACEIRA LRA",
      "lon": "-8.882858855867779",
      "lat": "39.68031186385675"
    },
    {
      "id": "pt.ine.add.PTCONT.2225406",
      "street": "R RIBEIRA",
      "house": "",
      "postcode": "2405-031",
      "city": "MACEIRA LRA",
      "lon": "-8.879544471384369",
      "lat": "39.68101771350068"
    },
    {
      "id": "pt.ine.add.PTCONT.2226274",
      "street": "R ALQUEBE",
      "house": "1 A",
      "postcode": "2405-005",
      "city": "MACEIRA LRA",
      "lon": "-8.88394538080507",
      "lat": "39.679467234346326"
    },
    {
      "id": "pt.ine.add.PTCONT.2235913",
      "street": "R ALQUEBE",
      "house": "1B",
      "postcode": "2405-005",
      "city": "MACEIRA LRA",
      "lon": "-8.883736563562563",
      "lat": "39.67955864984199"
    },
    {
      "id": "pt.ine.add.PTCONT.2244186",
      "street": "EN 356",
      "house": "3A",
      "postcode": "2405-035",
      "city": "MACEIRA LRA",
      "lon": "-8.884209433972496",
      "lat": "39.672638555280045"
    },
    {
      "id": "pt.ine.add.PTCONT.2262553",
      "street": "R ALQUEBE",
      "house": "2",
      "postcode": "2405-005",
      "city": "MACEIRA LRA",
      "lon": "-8.883252114375228",
      "lat": "39.6800301210336"
    }
  ]
}