{
  "data": {
    "distrito": "Aveiro",
    "concelho": "Oliveira de Azeméis",
    "freguesia": "União das freguesias de Oliveira de Azeméis, Santiago da Riba-Ul, Ul, Macinhata da Seixa e Madail",
    "OBJECTID": 598,
    "BGRI2021": "01132101419",
    "DT21": "01",
    "DTMN21": "0113",
    "DTMNFR21": "011321",
    "DTMNFRSEC21": "011321014",
    "SECNUM21": "014",
    "SSNUM21": "19",
    "SECSSNUM21": "01419",
    "OBJECTID_1": 9247,
    "DT": "01",
    "CC": "13",
    "fr": "21",
    "SEC": "014",
    "SS": "19"
  },
  "addresses": [
    {
      "id": "pt.ine.add.PTCONT.302378",
      "street": "R PADRE ALBERGARIA",
      "house": "141",
      "postcode": "3720-121",
      "city": "MADAIL",
      "lon": "-8.502219522213037",
      "lat": "40.836252083419865"
    },
    {
      "id": "pt.ine.add.PTCONT.312199",
      "street": "R D URRACA MOEREIRA",
      "house": "101",
      "postcode": "3720-119",
      "city": "MADAIL",
      "lon": "-8.499073546686052",
      "lat": "40.83551470213803"
    },
    {
      "id": "pt.ine.add.PTCONT.320211",
      "street": "R VILA",
      "house": "20",
      "postcode": "3720-120",
      "city": "MADAIL",
      "lon": "-8.496028695847393",
      "lat": "40.833741356892844"
    },
    {
      "id": "pt.ine.add.PTCONT.337078",
      "street": "R PADRE ALBERGARIA",
      "house": "155",
      "postcode": "3720-121",
      "city": "MADAIL",
      "lon": "-8.502433481599242",
      "lat": "40.836350452175466"
    },
    {
      "id": "pt.ine.add.PTCONT.344707",
      "street": "R MANICA",
      "house": "90",
      "postcode": "3720-120",
      "city": "MADAIL",
      "lon": "-8.495748625118138",
      "lat": "40.8345616806856"
    },
    {
      "id": "pt.ine.add.PTCONT.12272",
      "street": "R EIRA VELHA",
      "house": "65",
      "postcode": "3720-119",
      "city": "MADAIL",
      "lon": "-8.499366526357834",
      "lat": "40.8348924365548"
    },
    {
      "id": "pt.ine.add.PTCONT.14769",
      "street": "R RELVA",
      "house": "91",
      "postcode": "3720-120",
      "city": "MADAIL",
      "lon": "-8.497584350642063",
      "lat": "40.83420470585718"
    },
    {
      "id": "pt.ine.add.PTCONT.16734",
      "street": "R EIRA VELHA",
      "house": "203",
      "postcode": "3720-119",
      "city": "MADAIL",
      "lon": "-8.500609401978753",
      "lat": "40.83452828936453"
    },
    {
      "id": "pt.ine.add.PTCONT.22497",
      "street": "R HOSPITAL",
      "house": "6",
      "postcode": "3720-117",
      "city": "MADAIL",
      "lon": "-8.498125859587459",
      "lat": "40.835661782362216"
    },
    {
      "id": "pt.ine.add.PTCONT.32604",
      "street": "R RESIDENCIA",
      "house": "",
      "postcode": "3720-121",
      "city": "MADAIL",
      "lon": "-8.503118332222959",
      "lat": "40.83584398526352"
    },
    {
      "id": "pt.ine.add.PTCONT.32605",
      "street": "R RESIDENCIA",
      "house": "485",
      "postcode": "3720-121",
      "city": "MADAIL",
      "lon": "-8.503118332222959",
      "lat": "40.83584398526352"
    },
    {
      "id": "pt.ine.add.PTCONT.36226",
      "street": "R PADRE ALBERGARIA",
      "house": "219",
      "postcode": "3720-121",
      "city": "MADAIL",
      "lon": "-8.502942944017434",
      "lat": "40.83628578603672"
    },
    {
      "id": "pt.ine.add.PTCONT.44522",
      "street": "R EIRA VELHA",
      "house": "85",
      "postcode": "3720-119",
      "city": "MADAIL",
      "lon": "-8.499483994307322",
      "lat": "40.83469395647894"
    },
    {
      "id": "pt.ine.add.PTCONT.55012",
      "street": "R MANICA",
      "house": "116",
      "postcode": "3720-120",
      "city": "MADAIL",
      "lon": "-8.49534587097533",
      "lat": "40.834625980064445"
    },
    {
      "id": "pt.ine.add.PTCONT.60638",
      "street": "R MANICA",
      "house": "100",
      "postcode": "3720-120",
      "city": "MADAIL",
      "lon": "-8.495570837151517",
      "lat": "40.83457124426917"
    },
    {
      "id": "pt.ine.add.PTCONT.76715",
      "street": "R RESIDENCIA",
      "house": "82",
      "postcode": "3720-121",
      "city": "MADAIL",
      "lon": "-8.502998170442545",
      "lat": "40.83555621489043"
    },
    {
      "id": "pt.ine.add.PTCONT.105817",
      "street": "R EIRA VELHA",
      "house": "43",
      "postcode": "3720-119",
      "city": "MADAIL",
      "lon": "-8.49934400393939",
      "lat": "40.835108624870294"
    },
    {
      "id": "pt.ine.add.PTCONT.111304",
      "street": "R HOSPITAL",
      "house": "48",
      "postcode": "3720-117",
      "city": "MADAIL",
      "lon": "-8.497733970414064",
      "lat": "40.83554595836283"
    },
    {
      "id": "pt.ine.add.PTCONT.114338",
      "street": "R RESIDENCIA",
      "house": "25",
      "postcode": "3720-121",
      "city": "MADAIL",
      "lon": "-8.502881612108455",
      "lat": "40.83591678316803"
    },
    {
      "id": "pt.ine.add.PTCONT.116788",
      "street": "R RESIDENCIA",
      "house": "54",
      "postcode": "3720-121",
      "city": "MADAIL",
      "lon": "-8.503011527946862",
      "lat": "40.835826318032844"
    },
    {
      "id": "pt.ine.add.PTCONT.119485",
      "street": "R D URRACA MOEREIRA",
      "house": "65",
      "postcode": "3720-119",
      "city": "MADAIL",
      "lon": "-8.498800859465804",
      "lat": "40.835515566833806"
    },
    {
      "id": "pt.ine.add.PTCONT.149812",
      "street": "R PADRE ALBERGARIA",
      "house": "151",
      "postcode": "3720-121",
      "city": "MADAIL",
      "lon": "-8.502348939983822",
      "lat": "40.83607157197681"
    },
    {
      "id": "pt.ine.add.PTCONT.172666",
      "street": "R EIRA VELHA",
      "house": "105",
      "postcode": "3720-119",
      "city": "MADAIL",
      "lon": "-8.49968405525243",
      "lat": "40.834423174925114"
    },
    {
      "id": "pt.ine.add.PTCONT.174910",
      "street": "R PADRE ALBERGARIA",
      "house": "189",
      "postcode": "3720-121",
      "city": "MADAIL",
      "lon": "-8.502777408828907",
      "lat": "40.8363673603652"
    },
    {
      "id": "pt.ine.add.PTCONT.190991",
      "street": "R MANICA",
      "house": "138",
      "postcode": "3720-120",
      "city": "MADAIL",
      "lon": "-8.495156471893534",
      "lat": "40.83468060380862"
    },
    {
      "id": "pt.ine.add.PTCONT.215516",
      "street": "R MANICA",
      "house": "160",
      "postcode": "3720-120",
      "city": "MADAIL",
      "lon": "-8.49493140708891",
      "lat": "40.83471732936816"
    },
    {
      "id": "pt.ine.add.PTCONT.221049",
      "street": "R HOSPITAL",
      "house": "34",
      "postcode": "3720-117",
      "city": "MADAIL",
      "lon": "-8.497758175763243",
      "lat": "40.83563593052326"
    },
    {
      "id": "pt.ine.add.PTCONT.239950",
      "street": "R D URRACA MOEREIRA",
      "house": "115",
      "postcode": "3720-119",
      "city": "MADAIL",
      "lon": "-8.499251039376082",
      "lat": "40.83545110489351"
    },
    {
      "id": "pt.ine.add.PTCONT.248652",
      "street": "R RELVA",
      "house": "65",
      "postcode": "3720-120",
      "city": "MADAIL",
      "lon": "-8.497181748257882",
      "lat": "40.83429602577185"
    },
    {
      "id": "pt.ine.add.PTCONT.264278",
      "street": "R EIRA VELHA",
      "house": "207",
      "postcode": "3720-119",
      "city": "MADAIL",
      "lon": "-8.500619815726507",
      "lat": "40.834267115017695"
    }
  ]
}