{
  "data": {
    "distrito": "Coimbra",
    "concelho": "Arganil",
    "freguesia": "União das freguesias de Côja e Barril de Alva",
    "OBJECTID": 323,
    "BGRI2021": "06012100226",
    "DT21": "06",
    "DTMN21": "0601",
    "DTMNFR21": "060121",
    "DTMNFRSEC21": "060121002",
    "SECNUM21": "002",
    "SSNUM21": "26",
    "SECSSNUM21": "00226",
    "OBJECTID_1": 47174,
    "DT": "06",
    "CC": "01",
    "fr": "21",
    "SEC": "002",
    "SS": "26"
  },
  "addresses": [
    {
      "id": "pt.ine.add.PTCONT.1117844",
      "street": "R ERNESTO SENA DE OLIVEIRA",
      "house": "",
      "postcode": "3305-145",
      "city": "COJA",
      "lon": "-7.9846470083508025",
      "lat": "40.267925253148235"
    },
    {
      "id": "pt.ine.add.PTCONT.1123809",
      "street": "R ANTÓNIO SANTOS CALINAS",
      "house": "",
      "postcode": "3305-120",
      "city": "COJA",
      "lon": "-7.98428239951001",
      "lat": "40.26799683100566"
    },
    {
      "id": "pt.ine.add.PTCONT.1125965",
      "street": "R OUTEIRO",
      "house": "",
      "postcode": "3305-137",
      "city": "COJA",
      "lon": "-7.984083724989812",
      "lat": "40.26745622874082"
    },
    {
      "id": "pt.ine.add.PTCONT.1148943",
      "street": "R ERNESTO SENA DE OLIVEIRA",
      "house": "",
      "postcode": "3305-145",
      "city": "COJA",
      "lon": "-7.984871128595325",
      "lat": "40.26758332096683"
    },
    {
      "id": "pt.ine.add.PTCONT.1148949",
      "street": "R ERNESTO SENA DE OLIVEIRA",
      "house": "",
      "postcode": "3305-145",
      "city": "COJA",
      "lon": "-7.984871128595325",
      "lat": "40.26758332096683"
    },
    {
      "id": "pt.ine.add.PTCONT.1150253",
      "street": "R ANTÓNIO SANTOS CALINAS",
      "house": "",
      "postcode": "3305-120",
      "city": "COJA",
      "lon": "-7.983812555568068",
      "lat": "40.267807104487524"
    },
    {
      "id": "pt.ine.add.PTCONT.1150323",
      "street": "R ERNESTO SENA DE OLIVEIRA",
      "house": "",
      "postcode": "3305-145",
      "city": "COJA",
      "lon": "-7.984717901492109",
      "lat": "40.26776324010809"
    },
    {
      "id": "pt.ine.add.PTCONT.1150771",
      "street": "R ERNESTO SENA DE OLIVEIRA",
      "house": "",
      "postcode": "3305-145",
      "city": "COJA",
      "lon": "-7.984717901492109",
      "lat": "40.26776324010809"
    },
    {
      "id": "pt.ine.add.PTCONT.1152799",
      "street": "R COMEND EDUARDO FILIPE",
      "house": "",
      "postcode": "3305-143",
      "city": "COJA",
      "lon": "-7.985165882864667",
      "lat": "40.267196449768704"
    },
    {
      "id": "pt.ine.add.PTCONT.1155296",
      "street": "R ERNESTO SENA DE OLIVEIRA",
      "house": "",
      "postcode": "3305-145",
      "city": "COJA",
      "lon": "-7.9848121694707315",
      "lat": "40.26766429741302"
    },
    {
      "id": "pt.ine.add.PTCONT.1168159",
      "street": "R ERNESTO SENA DE OLIVEIRA",
      "house": "",
      "postcode": "3305-145",
      "city": "COJA",
      "lon": "-7.984694211431749",
      "lat": "40.26784426171301"
    },
    {
      "id": "pt.ine.add.PTCONT.1216205",
      "street": "R OUTEIRO",
      "house": "",
      "postcode": "3305-137",
      "city": "COJA",
      "lon": "-7.984589309305995",
      "lat": "40.26742986140589"
    },
    {
      "id": "pt.ine.add.PTCONT.1218972",
      "street": "R ERNESTO SENA DE OLIVEIRA",
      "house": "",
      "postcode": "3305-145",
      "city": "COJA",
      "lon": "-7.9852595807639055",
      "lat": "40.26735867350759"
    },
    {
      "id": "pt.ine.add.PTCONT.1227435",
      "street": "R OUTEIRO",
      "house": "",
      "postcode": "3305-137",
      "city": "COJA",
      "lon": "-7.984213065141662",
      "lat": "40.26744738945818"
    },
    {
      "id": "pt.ine.add.PTCONT.1233467",
      "street": "R ERNESTO SENA DE OLIVEIRA",
      "house": "138",
      "postcode": "3305-145",
      "city": "COJA",
      "lon": "-7.984341399016506",
      "lat": "40.267897843334346"
    },
    {
      "id": "pt.ine.add.PTCONT.1240393",
      "street": "R OUTEIRO",
      "house": "",
      "postcode": "3305-137",
      "city": "COJA",
      "lon": "-7.984389056096221",
      "lat": "40.26760971975111"
    },
    {
      "id": "pt.ine.add.PTCONT.1253191",
      "street": "R ANTÓNIO SANTOS CALINAS",
      "house": "",
      "postcode": "3305-120",
      "city": "COJA",
      "lon": "-7.984164913585553",
      "lat": "40.26796065674327"
    },
    {
      "id": "pt.ine.add.PTCONT.1262722",
      "street": "R COMEND EDUARDO FILIPE",
      "house": "",
      "postcode": "3305-143",
      "city": "COJA",
      "lon": "-7.985071832017156",
      "lat": "40.26719632948995"
    },
    {
      "id": "pt.ine.add.PTCONT.1305039",
      "street": "R ERNESTO SENA DE OLIVEIRA",
      "house": "",
      "postcode": "3305-145",
      "city": "COJA",
      "lon": "-7.984505615228656",
      "lat": "40.268069164075754"
    },
    {
      "id": "pt.ine.add.PTCONT.1347019",
      "street": "R ANTÓNIO SANTOS CALINAS",
      "house": "",
      "postcode": "3305-120",
      "city": "COJA",
      "lon": "-7.984000461188139",
      "lat": "40.26789740452475"
    },
    {
      "id": "pt.ine.add.PTCONT.1355531",
      "street": "R OUTEIRO",
      "house": "",
      "postcode": "3305-137",
      "city": "COJA",
      "lon": "-7.984318793799478",
      "lat": "40.26748354855773"
    },
    {
      "id": "pt.ine.add.PTCONT.1355532",
      "street": "R ERNESTO SENA DE OLIVEIRA",
      "house": "",
      "postcode": "3305-145",
      "city": "COJA",
      "lon": "-7.984965317510608",
      "lat": "40.26752040114929"
    },
    {
      "id": "pt.ine.add.PTCONT.1361624",
      "street": "R OUTEIRO",
      "house": "",
      "postcode": "3305-137",
      "city": "COJA",
      "lon": "-7.984389056096221",
      "lat": "40.26760971975111"
    },
    {
      "id": "pt.ine.add.PTCONT.1361640",
      "street": "R OUTEIRO",
      "house": "",
      "postcode": "3305-137",
      "city": "COJA",
      "lon": "-7.984048258097883",
      "lat": "40.267546240827045"
    }
  ]
}