{
  "data": {
    "distrito": "Braga",
    "concelho": "Vila Nova de Famalicão",
    "freguesia": "União das freguesias de Carreira e Bente",
    "OBJECTID": 1434,
    "BGRI2021": "03125300112",
    "DT21": "03",
    "DTMN21": "0312",
    "DTMNFR21": "031253",
    "DTMNFRSEC21": "031253001",
    "SECNUM21": "001",
    "SSNUM21": "12",
    "SECSSNUM21": "00112",
    "OBJECTID_1": 30337,
    "DT": "03",
    "CC": "12",
    "fr": "53",
    "SEC": "001",
    "SS": "12"
  },
  "addresses": [
    {
      "id": "pt.ine.add.PTCONT.459931",
      "street": "R AGRA",
      "house": "400",
      "postcode": "4770-060",
      "city": "BENTE",
      "lon": "-8.450206816598744",
      "lat": "41.38822591243686"
    },
    {
      "id": "pt.ine.add.PTCONT.490572",
      "street": "TV AGRA",
      "house": "60",
      "postcode": "4770-060",
      "city": "BENTE",
      "lon": "-8.451127857980389",
      "lat": "41.388313410740615"
    },
    {
      "id": "pt.ine.add.PTCONT.491799",
      "street": "R VILA BENEDICTI",
      "house": "40",
      "postcode": "4770-060",
      "city": "BENTE",
      "lon": "-8.449671029433183",
      "lat": "41.38868659210437"
    },
    {
      "id": "pt.ine.add.PTCONT.496315",
      "street": "R VILA BENEDICTI",
      "house": "20",
      "postcode": "4770-060",
      "city": "BENTE",
      "lon": "-8.449803244132944",
      "lat": "41.38883029243578"
    },
    {
      "id": "pt.ine.add.PTCONT.508082",
      "street": "R AGRA",
      "house": "282",
      "postcode": "4770-060",
      "city": "BENTE",
      "lon": "-8.449397831400498",
      "lat": "41.389056507696864"
    },
    {
      "id": "pt.ine.add.PTCONT.511237",
      "street": "R AGRA",
      "house": "378",
      "postcode": "4770-060",
      "city": "BENTE",
      "lon": "-8.449944442939845",
      "lat": "41.3883616952939"
    },
    {
      "id": "pt.ine.add.PTCONT.511238",
      "street": "R AGRA",
      "house": "378",
      "postcode": "4770-060",
      "city": "BENTE",
      "lon": "-8.449944442939845",
      "lat": "41.3883616952939"
    },
    {
      "id": "pt.ine.add.PTCONT.525583",
      "street": "R JOSE PINTO MALHEIRO",
      "house": "1",
      "postcode": "4770-060",
      "city": "BENTE",
      "lon": "-8.452708769640543",
      "lat": "41.38886727924756"
    },
    {
      "id": "pt.ine.add.PTCONT.526791",
      "street": "R JOSE PINTO MALHEIRO",
      "house": "1",
      "postcode": "4770-060",
      "city": "BENTE",
      "lon": "-8.452708769640543",
      "lat": "41.38886727924756"
    },
    {
      "id": "pt.ine.add.PTCONT.538398",
      "street": "R AGRA",
      "house": "544",
      "postcode": "4770-060",
      "city": "BENTE",
      "lon": "-8.451614182686612",
      "lat": "41.38751971282302"
    },
    {
      "id": "pt.ine.add.PTCONT.541151",
      "street": "R AGRA",
      "house": "638",
      "postcode": "4770-060",
      "city": "BENTE",
      "lon": "-8.452484132317426",
      "lat": "41.38694104492153"
    },
    {
      "id": "pt.ine.add.PTCONT.541152",
      "street": "R AGRA",
      "house": "638",
      "postcode": "4770-060",
      "city": "BENTE",
      "lon": "-8.452484132317426",
      "lat": "41.38694104492153"
    },
    {
      "id": "pt.ine.add.PTCONT.544113",
      "street": "R VILLA BENEDICTI",
      "house": "45",
      "postcode": "4770-060",
      "city": "BENTE",
      "lon": "-8.449958059994174",
      "lat": "41.388703810132306"
    },
    {
      "id": "pt.ine.add.PTCONT.559322",
      "street": "R AGRA",
      "house": "298",
      "postcode": "4770-060",
      "city": "BENTE",
      "lon": "-8.44957690990347",
      "lat": "41.38900199128261"
    },
    {
      "id": "pt.ine.add.PTCONT.569002",
      "street": "R AGRA",
      "house": "222",
      "postcode": "4770-060",
      "city": "BENTE",
      "lon": "-8.449112804977549",
      "lat": "41.389453467125335"
    },
    {
      "id": "pt.ine.add.PTCONT.575412",
      "street": "R AGRA",
      "house": "442",
      "postcode": "4770-060",
      "city": "BENTE",
      "lon": "-8.450648351732863",
      "lat": "41.38805361868125"
    },
    {
      "id": "pt.ine.add.PTCONT.584413",
      "street": "R JOSE PINTO MALHEIRO",
      "house": "53",
      "postcode": "4770-060",
      "city": "BENTE",
      "lon": "-8.452339102790093",
      "lat": "41.389066393551616"
    },
    {
      "id": "pt.ine.add.PTCONT.584414",
      "street": "R PRAGA",
      "house": "406",
      "postcode": "4770-060",
      "city": "BENTE",
      "lon": "-8.452344848594507",
      "lat": "41.387796812392814"
    },
    {
      "id": "pt.ine.add.PTCONT.584415",
      "street": "R PRAGA",
      "house": "406",
      "postcode": "4770-060",
      "city": "BENTE",
      "lon": "-8.452344848594507",
      "lat": "41.387796812392814"
    },
    {
      "id": "pt.ine.add.PTCONT.602659",
      "street": "R AGRA",
      "house": "578",
      "postcode": "4770-060",
      "city": "BENTE",
      "lon": "-8.451899889170507",
      "lat": "41.38726680937021"
    },
    {
      "id": "pt.ine.add.PTCONT.608739",
      "street": "R VILA BENEDICTI",
      "house": "10",
      "postcode": "4770-060",
      "city": "BENTE",
      "lon": "-8.449875373406964",
      "lat": "41.38891112997411"
    },
    {
      "id": "pt.ine.add.PTCONT.614607",
      "street": "R AGRA",
      "house": "302",
      "postcode": "4770-060",
      "city": "BENTE",
      "lon": "-8.449432913925081",
      "lat": "41.38889433911533"
    },
    {
      "id": "pt.ine.add.PTCONT.625599",
      "street": "R VILA BENEDICTI",
      "house": "30",
      "postcode": "4770-060",
      "city": "BENTE",
      "lon": "-8.449731158721589",
      "lat": "41.38875845873871"
    },
    {
      "id": "pt.ine.add.PTCONT.625749",
      "street": "R AGRA",
      "house": "610",
      "postcode": "4770-060",
      "city": "BENTE",
      "lon": "-8.452114607680521",
      "lat": "41.38716717020008"
    },
    {
      "id": "pt.ine.add.PTCONT.637171",
      "street": "R AGRA",
      "house": "17",
      "postcode": "4770-060",
      "city": "BENTE",
      "lon": "-8.451149400334428",
      "lat": "41.38782713469776"
    },
    {
      "id": "pt.ine.add.PTCONT.652769",
      "street": "R AGRA",
      "house": "564",
      "postcode": "4770-060",
      "city": "BENTE",
      "lon": "-8.451733080797986",
      "lat": "41.38738432350891"
    },
    {
      "id": "pt.ine.add.PTCONT.658723",
      "street": "R VILLA BENEDICTI",
      "house": "55",
      "postcode": "4770-060",
      "city": "BENTE",
      "lon": "-8.450018233336973",
      "lat": "41.388784680503214"
    },
    {
      "id": "pt.ine.add.PTCONT.659564",
      "street": "R PRAGA",
      "house": "446",
      "postcode": "4770-060",
      "city": "BENTE",
      "lon": "-8.451964946475387",
      "lat": "41.388347110277344"
    },
    {
      "id": "pt.ine.add.PTCONT.662653",
      "street": "R FLORES",
      "house": "39",
      "postcode": "4770-060",
      "city": "BENTE",
      "lon": "-8.450744699666972",
      "lat": "41.388197416915595"
    },
    {
      "id": "pt.ine.add.PTCONT.667252",
      "street": "R AGRA",
      "house": "414",
      "postcode": "4770-060",
      "city": "BENTE",
      "lon": "-8.45033811243418",
      "lat": "41.3881805305058"
    },
    {
      "id": "pt.ine.add.PTCONT.687991",
      "street": "R ALMAS",
      "house": "27 ESQ",
      "postcode": "4770-060",
      "city": "BENTE",
      "lon": "-8.447170766705252",
      "lat": "41.393357517921494"
    },
    {
      "id": "pt.ine.add.PTCONT.688512",
      "street": "R ALMAS",
      "house": "27",
      "postcode": "4770-060",
      "city": "BENTE",
      "lon": "-8.447170766705252",
      "lat": "41.393357517921494"
    },
    {
      "id": "pt.ine.add.PTCONT.690828",
      "street": "R PRAGA",
      "house": "380",
      "postcode": "4770-060",
      "city": "BENTE",
      "lon": "-8.452259660959198",
      "lat": "41.38749091235792"
    },
    {
      "id": "pt.ine.add.PTCONT.690829",
      "street": "R PRAGA",
      "house": "380",
      "postcode": "4770-060",
      "city": "BENTE",
      "lon": "-8.452259660959198",
      "lat": "41.38749091235792"
    },
    {
      "id": "pt.ine.add.PTCONT.690830",
      "street": "R PRAGA",
      "house": "380",
      "postcode": "4770-060",
      "city": "BENTE",
      "lon": "-8.452259660959198",
      "lat": "41.38749091235792"
    },
    {
      "id": "pt.ine.add.PTCONT.690831",
      "street": "R PRAGA",
      "house": "380",
      "postcode": "4770-060",
      "city": "BENTE",
      "lon": "-8.452259660959198",
      "lat": "41.38749091235792"
    },
    {
      "id": "pt.ine.add.PTCONT.711708",
      "street": "R PRAÇA",
      "house": "436",
      "postcode": "4770-060",
      "city": "BENTE",
      "lon": "-8.45221434738715",
      "lat": "41.38800426658141"
    },
    {
      "id": "pt.ine.add.PTCONT.714853",
      "street": "R VILA BENEDICTI",
      "house": "5",
      "postcode": "4770-060",
      "city": "BENTE",
      "lon": "-8.449753541645336",
      "lat": "41.3884432568453"
    },
    {
      "id": "pt.ine.add.PTCONT.717877",
      "street": "R VILLA BENEDICTI",
      "house": "15",
      "postcode": "4770-060",
      "city": "BENTE",
      "lon": "-8.44978967155083",
      "lat": "41.388497181472395"
    },
    {
      "id": "pt.ine.add.PTCONT.738574",
      "street": "R AGRA",
      "house": "610",
      "postcode": "4770-060",
      "city": "BENTE",
      "lon": "-8.45225816393306",
      "lat": "41.3871847801576"
    },
    {
      "id": "pt.ine.add.PTCONT.757165",
      "street": "SIT FONTELA",
      "house": "",
      "postcode": "4770-060",
      "city": "BENTE",
      "lon": "-8.449457786146448",
      "lat": "41.389092358917566"
    },
    {
      "id": "pt.ine.add.PTCONT.759376",
      "street": "R VILA BENEDICTI",
      "house": "50",
      "postcode": "4770-060",
      "city": "BENTE",
      "lon": "-8.44961090027751",
      "lat": "41.388614725437215"
    },
    {
      "id": "pt.ine.add.PTCONT.784356",
      "street": "R VILLA BENEDICTI",
      "house": "35",
      "postcode": "4770-060",
      "city": "BENTE",
      "lon": "-8.449909930169241",
      "lat": "41.38864091458938"
    },
    {
      "id": "pt.ine.add.PTCONT.793534",
      "street": "R VILLA BENEDICTI",
      "house": "25",
      "postcode": "4770-060",
      "city": "BENTE",
      "lon": "-8.449849800793672",
      "lat": "41.388569048047295"
    },
    {
      "id": "pt.ine.add.PTCONT.804796",
      "street": "R AGRA",
      "house": "266",
      "postcode": "4770-060",
      "city": "BENTE",
      "lon": "-8.449243144467232",
      "lat": "41.38921000090955"
    },
    {
      "id": "pt.ine.add.PTCONT.804797",
      "street": "R PRAÇA",
      "house": "420",
      "postcode": "4770-060",
      "city": "BENTE",
      "lon": "-8.452130480480102",
      "lat": "41.387968483087185"
    },
    {
      "id": "pt.ine.add.PTCONT.804798",
      "street": "TV AGRA",
      "house": "71",
      "postcode": "4770-060",
      "city": "BENTE",
      "lon": "-8.451343107974319",
      "lat": "41.38832181966377"
    },
    {
      "id": "pt.ine.add.PTCONT.813913",
      "street": "R AGRA",
      "house": "536",
      "postcode": "4770-060",
      "city": "BENTE",
      "lon": "-8.45143524171577",
      "lat": "41.38760124406695"
    },
    {
      "id": "pt.ine.add.PTCONT.813914",
      "street": "R AGRA",
      "house": "536",
      "postcode": "4770-060",
      "city": "BENTE",
      "lon": "-8.45143524171577",
      "lat": "41.38760124406695"
    },
    {
      "id": "pt.ine.add.PTCONT.813915",
      "street": "TV AGRA",
      "house": "49",
      "postcode": "4770-060",
      "city": "BENTE",
      "lon": "-8.451294713710885",
      "lat": "41.3882049013736"
    },
    {
      "id": "pt.ine.add.PTCONT.814354",
      "street": "TV AGRA",
      "house": "49",
      "postcode": "4770-060",
      "city": "BENTE",
      "lon": "-8.451294713710885",
      "lat": "41.3882049013736"
    },
    {
      "id": "pt.ine.add.PTCONT.818556",
      "street": "R JOSE PINTO MALHEIRO",
      "house": "300",
      "postcode": "4770-060",
      "city": "BENTE",
      "lon": "-8.449507662014991",
      "lat": "41.389515410145556"
    },
    {
      "id": "pt.ine.add.PTCONT.818560",
      "street": "R FLORES",
      "house": "67",
      "postcode": "4770-060",
      "city": "BENTE",
      "lon": "-8.450925133952365",
      "lat": "41.3884220189354"
    },
    {
      "id": "pt.ine.add.PTCONT.825046",
      "street": "AV EMIGRANTE",
      "house": "1717",
      "postcode": "4770-060",
      "city": "BENTE",
      "lon": "-8.447395777921578",
      "lat": "41.39290670347291"
    },
    {
      "id": "pt.ine.add.PTCONT.834594",
      "street": "R AGRA",
      "house": "472",
      "postcode": "4770-060",
      "city": "BENTE",
      "lon": "-8.450815119939659",
      "lat": "41.38792710222701"
    },
    {
      "id": "pt.ine.add.PTCONT.834595",
      "street": "R AGRA",
      "house": "472",
      "postcode": "4770-060",
      "city": "BENTE",
      "lon": "-8.450815119939659",
      "lat": "41.38792710222701"
    },
    {
      "id": "pt.ine.add.PTCONT.844578",
      "street": "R VILLA BENEDICTI",
      "house": "65",
      "postcode": "4770-060",
      "city": "BENTE",
      "lon": "-8.450078363097647",
      "lat": "41.38885654695323"
    }
  ]
}