{
  "data": {
    "distrito": "Beja",
    "concelho": "Odemira",
    "freguesia": "Longueira/Almograve",
    "OBJECTID": 773,
    "BGRI2021": "02111700210",
    "DT21": "02",
    "DTMN21": "0211",
    "DTMNFR21": "021117",
    "DTMNFRSEC21": "021117002",
    "SECNUM21": "002",
    "SSNUM21": "10",
    "SECSSNUM21": "00210",
    "OBJECTID_1": 17100,
    "DT": "02",
    "CC": "11",
    "fr": "17",
    "SEC": "002",
    "SS": "10"
  },
  "addresses": [
    {
      "id": "pt.ine.add.PTCONT.355384",
      "street": "CM 1123",
      "house": "",
      "postcode": "7630-084",
      "city": "LONGUEIRA-ALMOGRAVE",
      "lon": "-8.76916854142739",
      "lat": "37.65597833752164"
    },
    {
      "id": "pt.ine.add.PTCONT.355385",
      "street": "EN 373 - MTE BRANCO DA CASCALHEIRA",
      "house": "APT 6194",
      "postcode": "7630-063",
      "city": "LONGUEIRA-ALMOGRAVE",
      "lon": "-8.76003031032193",
      "lat": "37.65411720517584"
    },
    {
      "id": "pt.ine.add.PTCONT.368423",
      "street": "EN 373 - MTE DA CASCALHEIRA NOVA",
      "house": "",
      "postcode": "7630-063",
      "city": "LONGUEIRA-ALMOGRAVE",
      "lon": "-8.760102145311714",
      "lat": "37.65053096678951"
    },
    {
      "id": "pt.ine.add.PTCONT.369241",
      "street": "MTE BARRANCO DE CIMA",
      "house": "",
      "postcode": "7630-063",
      "city": "LONGUEIRA-ALMOGRAVE",
      "lon": "-8.760651828687095",
      "lat": "37.64717643739631"
    },
    {
      "id": "pt.ine.add.PTCONT.369243",
      "street": "MTE CASCALHEIRA",
      "house": "",
      "postcode": "7630-063",
      "city": "LONGUEIRA-ALMOGRAVE",
      "lon": "-8.762642832145364",
      "lat": "37.65113910421807"
    },
    {
      "id": "pt.ine.add.PTCONT.370083",
      "street": "MTE CASCALHEIRA",
      "house": "",
      "postcode": "7630-063",
      "city": "LONGUEIRA-ALMOGRAVE",
      "lon": "-8.762678784502816",
      "lat": "37.65104881544189"
    },
    {
      "id": "pt.ine.add.PTCONT.370144",
      "street": "CM 1123",
      "house": "",
      "postcode": "7630-084",
      "city": "LONGUEIRA-ALMOGRAVE",
      "lon": "-8.76883127365466",
      "lat": "37.65629549445916"
    },
    {
      "id": "pt.ine.add.PTCONT.370859",
      "street": "MTE BARRANQUINHO",
      "house": "",
      "postcode": "7630-063",
      "city": "LONGUEIRA-ALMOGRAVE",
      "lon": "-8.76846873452515",
      "lat": "37.64965730974233"
    },
    {
      "id": "pt.ine.add.PTCONT.374934",
      "street": "EN 373 - MTE SILVA",
      "house": "",
      "postcode": "7630-063",
      "city": "LONGUEIRA-ALMOGRAVE",
      "lon": "-8.75987882887635",
      "lat": "37.64957712601147"
    },
    {
      "id": "pt.ine.add.PTCONT.378828",
      "street": "MTE CASCALHEIRA",
      "house": "",
      "postcode": "7630-063",
      "city": "LONGUEIRA-ALMOGRAVE",
      "lon": "-8.762893543605099",
      "lat": "37.65098460125845"
    },
    {
      "id": "pt.ine.add.PTCONT.395004",
      "street": "CM 1123",
      "house": "APT 6325",
      "postcode": "7630-084",
      "city": "LONGUEIRA-ALMOGRAVE",
      "lon": "-8.76884368103191",
      "lat": "37.65642156311004"
    },
    {
      "id": "pt.ine.add.PTCONT.397410",
      "street": "MTE CASCALHEIRINHA",
      "house": "",
      "postcode": "7630-063",
      "city": "LONGUEIRA-ALMOGRAVE",
      "lon": "-8.762693612651637",
      "lat": "37.65012073808928"
    },
    {
      "id": "pt.ine.add.PTCONT.399022",
      "street": "MTE VISTOSO",
      "house": "",
      "postcode": "7630-084",
      "city": "LONGUEIRA-ALMOGRAVE",
      "lon": "-8.770654796570682",
      "lat": "37.654853113607004"
    },
    {
      "id": "pt.ine.add.PTCONT.410462",
      "street": "MTE BARRANQUINHO",
      "house": "",
      "postcode": "7630-063",
      "city": "LONGUEIRA-ALMOGRAVE",
      "lon": "-8.768718398634638",
      "lat": "37.64970101325184"
    },
    {
      "id": "pt.ine.add.PTCONT.411176",
      "street": "MTE NOVO DA FIGUEIRA",
      "house": "",
      "postcode": "7630-084",
      "city": "LONGUEIRA-ALMOGRAVE",
      "lon": "-8.77124088641946",
      "lat": "37.655804970618405"
    },
    {
      "id": "pt.ine.add.PTCONT.411384",
      "street": "EN 373 - MTE BRANCO DA CASCALHEIRA",
      "house": "",
      "postcode": "7630-063",
      "city": "LONGUEIRA-ALMOGRAVE",
      "lon": "-8.760368742974867",
      "lat": "37.65393521230497"
    },
    {
      "id": "pt.ine.add.PTCONT.413711",
      "street": "MTE BARRANQUINHO",
      "house": "",
      "postcode": "7630-063",
      "city": "LONGUEIRA-ALMOGRAVE",
      "lon": "-8.767908918336625",
      "lat": "37.64911974209857"
    },
    {
      "id": "pt.ine.add.PTCONT.416084",
      "street": "EN 373 - MTE BRANCO DA CASCALHEIRA",
      "house": "",
      "postcode": "7630-063",
      "city": "LONGUEIRA-ALMOGRAVE",
      "lon": "-8.759772711836433",
      "lat": "37.65447896141567"
    },
    {
      "id": "pt.ine.add.PTCONT.416087",
      "street": "MTE CASCALHEIRA",
      "house": "",
      "postcode": "7630-063",
      "city": "LONGUEIRA-ALMOGRAVE",
      "lon": "-8.763279271419142",
      "lat": "37.65237904319711"
    },
    {
      "id": "pt.ine.add.PTCONT.416167",
      "street": "CM 1123",
      "house": "APT 6280",
      "postcode": "7630-063",
      "city": "LONGUEIRA-ALMOGRAVE",
      "lon": "-8.764112157313539",
      "lat": "37.65572619393273"
    },
    {
      "id": "pt.ine.add.PTCONT.417652",
      "street": "MTE MALJULGADA",
      "house": "",
      "postcode": "7630-084",
      "city": "LONGUEIRA-ALMOGRAVE",
      "lon": "-8.766685175322825",
      "lat": "37.65579348915193"
    },
    {
      "id": "pt.ine.add.PTCONT.424154",
      "street": "MTE CASCALHEIRA",
      "house": "",
      "postcode": "7630-063",
      "city": "LONGUEIRA-ALMOGRAVE",
      "lon": "-8.763723915909255",
      "lat": "37.65135857217437"
    },
    {
      "id": "pt.ine.add.PTCONT.428133",
      "street": "",
      "house": "CP 3610",
      "postcode": "7630-063",
      "city": "LONGUEIRA-ALMOGRAVE",
      "lon": "-8.76323346616405",
      "lat": "37.64964034196394"
    },
    {
      "id": "pt.ine.add.PTCONT.434643",
      "street": "EN 373 - MTE DAS PEDRINHAS",
      "house": "",
      "postcode": "7630-063",
      "city": "LONGUEIRA-ALMOGRAVE",
      "lon": "-8.759806200306569",
      "lat": "37.64767646609205"
    },
    {
      "id": "pt.ine.add.PTCONT.434648",
      "street": "MTE CASCALHEIRA",
      "house": "",
      "postcode": "7630-063",
      "city": "LONGUEIRA-ALMOGRAVE",
      "lon": "-8.762577108407967",
      "lat": "37.651085396798706"
    },
    {
      "id": "pt.ine.add.PTCONT.442038",
      "street": "MTE CASCALHEIRA",
      "house": "",
      "postcode": "7630-063",
      "city": "LONGUEIRA-ALMOGRAVE",
      "lon": "-8.762826241499859",
      "lat": "37.65106604776401"
    },
    {
      "id": "pt.ine.add.PTCONT.444465",
      "street": "CM 1123",
      "house": "",
      "postcode": "7630-063",
      "city": "LONGUEIRA-ALMOGRAVE",
      "lon": "-8.76077626908706",
      "lat": "37.655230439403056"
    },
    {
      "id": "pt.ine.add.PTCONT.452599",
      "street": "MTE CASCALHEIRA",
      "house": "",
      "postcode": "7630-063",
      "city": "LONGUEIRA-ALMOGRAVE",
      "lon": "-8.762532544227085",
      "lat": "37.65117573149417"
    }
  ]
}