{
  "data": {
    "distrito": "Santarém",
    "concelho": "Torres Novas",
    "freguesia": "União das freguesias de Torres Novas (São Pedro), Lapas e Ribeira Branca",
    "OBJECTID": 173,
    "BGRI2021": "14192100812",
    "DT21": "14",
    "DTMN21": "1419",
    "DTMNFR21": "141921",
    "DTMNFRSEC21": "141921008",
    "SECNUM21": "008",
    "SSNUM21": "12",
    "SECSSNUM21": "00812",
    "OBJECTID_1": 156905,
    "DT": "14",
    "CC": "19",
    "fr": "21",
    "SEC": "008",
    "SS": "12"
  },
  "addresses": [
    {
      "id": "pt.ine.add.PTCONT.4394025",
      "street": "R 1 DE MAIO",
      "house": "10",
      "postcode": "2350-144",
      "city": "TORRES NOVAS",
      "lon": "-8.550618731110928",
      "lat": "39.49719827444282"
    },
    {
      "id": "pt.ine.add.PTCONT.4406563",
      "street": "R 1 DE MAIO",
      "house": "",
      "postcode": "2350-144",
      "city": "TORRES NOVAS",
      "lon": "-8.550841876378374",
      "lat": "39.497575764211135"
    },
    {
      "id": "pt.ine.add.PTCONT.4406564",
      "street": "R 1 MAIO",
      "house": "19",
      "postcode": "2350-144",
      "city": "TORRES NOVAS",
      "lon": "-8.551119644693083",
      "lat": "39.49736760641293"
    },
    {
      "id": "pt.ine.add.PTCONT.4434907",
      "street": "R 1 DE MAIO",
      "house": "",
      "postcode": "2350-144",
      "city": "TORRES NOVAS",
      "lon": "-8.551558923608695",
      "lat": "39.49695170727615"
    },
    {
      "id": "pt.ine.add.PTCONT.4442802",
      "street": "R 1 MAIO",
      "house": "17",
      "postcode": "2350-144",
      "city": "TORRES NOVAS",
      "lon": "-8.55121199994278",
      "lat": "39.49725919112191"
    },
    {
      "id": "pt.ine.add.PTCONT.4445519",
      "street": "R 1 DE MAIO",
      "house": "18",
      "postcode": "2350-144",
      "city": "TORRES NOVAS",
      "lon": "-8.550413245299177",
      "lat": "39.49782949757569"
    },
    {
      "id": "pt.ine.add.PTCONT.4512762",
      "street": "R 1 DE MAIO",
      "house": "22",
      "postcode": "2350-144",
      "city": "TORRES NOVAS",
      "lon": "-8.550042953659329",
      "lat": "39.49811904790322"
    },
    {
      "id": "pt.ine.add.PTCONT.4547115",
      "street": "R ALTO DAS PEDREIRAS",
      "house": "9",
      "postcode": "2350-105",
      "city": "TORRES NOVAS",
      "lon": "-8.549459476996752",
      "lat": "39.49775185444169"
    },
    {
      "id": "pt.ine.add.PTCONT.4584358",
      "street": "R 1 DE MAIO",
      "house": "",
      "postcode": "2350-144",
      "city": "TORRES NOVAS",
      "lon": "-8.550934394103288",
      "lat": "39.497494369363984"
    },
    {
      "id": "pt.ine.add.PTCONT.4605252",
      "street": "R 1 DE MAIO",
      "house": "",
      "postcode": "2350-144",
      "city": "TORRES NOVAS",
      "lon": "-8.550992143417522",
      "lat": "39.49743111327822"
    },
    {
      "id": "pt.ine.add.PTCONT.4625460",
      "street": "R DR LUIS ANTÓNIO TRINCAO",
      "house": "16",
      "postcode": "2350-147",
      "city": "TORRES NOVAS",
      "lon": "-8.551092860270387",
      "lat": "39.49871874279013"
    },
    {
      "id": "pt.ine.add.PTCONT.4625461",
      "street": "R 1 DE MAIO",
      "house": "20",
      "postcode": "2350-144",
      "city": "TORRES NOVAS",
      "lon": "-8.550239725309908",
      "lat": "39.4979742311794"
    },
    {
      "id": "pt.ine.add.PTCONT.4648603",
      "street": "R 1 DE MAIO",
      "house": "",
      "postcode": "2350-144",
      "city": "TORRES NOVAS",
      "lon": "-8.551327551548821",
      "lat": "39.49714168538652"
    }
  ]
}