{
  "data": {
    "distrito": "Lisboa",
    "concelho": "Torres Vedras",
    "freguesia": "São Pedro da Cadeira",
    "OBJECTID": 2059,
    "BGRI2021": "11131400206",
    "DT21": "11",
    "DTMN21": "1113",
    "DTMNFR21": "111314",
    "DTMNFRSEC21": "111314002",
    "SECNUM21": "002",
    "SSNUM21": "06",
    "SECSSNUM21": "00206",
    "OBJECTID_1": 116917,
    "DT": "11",
    "CC": "13",
    "fr": "14",
    "SEC": "002",
    "SS": "06"
  },
  "addresses": [
    {
      "id": "pt.ine.add.PTCONT.2336627",
      "street": "R CASALEIRO",
      "house": "5",
      "postcode": "2560-192",
      "city": "SÃO PEDRO DA CADEIRA",
      "lon": "-9.39359039817696",
      "lat": "39.08570695077748"
    },
    {
      "id": "pt.ine.add.PTCONT.2436193",
      "street": "R PRINCIPAL",
      "house": "14",
      "postcode": "2560-192",
      "city": "SÃO PEDRO DA CADEIRA",
      "lon": "-9.39454400200918",
      "lat": "39.0860389091714"
    },
    {
      "id": "pt.ine.add.PTCONT.2455533",
      "street": "R PRINCIPAL",
      "house": "10",
      "postcode": "2560-192",
      "city": "SÃO PEDRO DA CADEIRA",
      "lon": "-9.394287706350307",
      "lat": "39.08592458880618"
    },
    {
      "id": "pt.ine.add.PTCONT.2455534",
      "street": "R CASALEIRO",
      "house": "9",
      "postcode": "2560-192",
      "city": "SÃO PEDRO DA CADEIRA",
      "lon": "-9.393737875336393",
      "lat": "39.086200750426"
    },
    {
      "id": "pt.ine.add.PTCONT.2509937",
      "street": "R CASALEIRO",
      "house": "13",
      "postcode": "2560-192",
      "city": "SÃO PEDRO DA CADEIRA",
      "lon": "-9.393485587504523",
      "lat": "39.086311564144125"
    },
    {
      "id": "pt.ine.add.PTCONT.2599186",
      "street": "R PEDROS",
      "house": "5",
      "postcode": "2560-192",
      "city": "SÃO PEDRO DA CADEIRA",
      "lon": "-9.393755522623156",
      "lat": "39.08654283194921"
    },
    {
      "id": "pt.ine.add.PTCONT.2624420",
      "street": "R CASALEI RO",
      "house": "1",
      "postcode": "2560-192",
      "city": "SÃO PEDRO DA CADEIRA",
      "lon": "-9.393814122753142",
      "lat": "39.0852902019877"
    },
    {
      "id": "pt.ine.add.PTCONT.2648409",
      "street": "R CASALEIRO",
      "house": "7",
      "postcode": "2560-192",
      "city": "SÃO PEDRO DA CADEIRA",
      "lon": "-9.393640946301112",
      "lat": "39.0859495977882"
    },
    {
      "id": "pt.ine.add.PTCONT.2751439",
      "street": "R PRINCIPAL",
      "house": "8",
      "postcode": "2560-192",
      "city": "SÃO PEDRO DA CADEIRA",
      "lon": "-9.394226723715134",
      "lat": "39.08574510513249"
    },
    {
      "id": "pt.ine.add.PTCONT.2783044",
      "street": "R PRINCIPAL",
      "house": "4",
      "postcode": "2560-192",
      "city": "SÃO PEDRO DA CADEIRA",
      "lon": "-9.393966902046492",
      "lat": "39.085432664491655"
    },
    {
      "id": "pt.ine.add.PTCONT.2788535",
      "street": "R PRINCIPAL",
      "house": "12",
      "postcode": "2560-192",
      "city": "SÃO PEDRO DA CADEIRA",
      "lon": "-9.394232657770786",
      "lat": "39.086078306132606"
    },
    {
      "id": "pt.ine.add.PTCONT.2802946",
      "street": "R CASALEIRO",
      "house": "3",
      "postcode": "2560-192",
      "city": "SÃO PEDRO DA CADEIRA",
      "lon": "-9.393667275346512",
      "lat": "39.085480940376904"
    },
    {
      "id": "pt.ine.add.PTCONT.2822500",
      "street": "R PRINCIPAL",
      "house": "6",
      "postcode": "2560-192",
      "city": "SÃO PEDRO DA CADEIRA",
      "lon": "-9.39408421529922",
      "lat": "39.08553047455156"
    },
    {
      "id": "pt.ine.add.PTCONT.2840381",
      "street": "R PEDROS",
      "house": "9",
      "postcode": "2560-192",
      "city": "SÃO PEDRO DA CADEIRA",
      "lon": "-9.393951959533835",
      "lat": "39.08654070768024"
    },
    {
      "id": "pt.ine.add.PTCONT.2891663",
      "street": "TV CAMÕES",
      "house": "4",
      "postcode": "2560-192",
      "city": "SÃO PEDRO DA CADEIRA",
      "lon": "-9.393812828601414",
      "lat": "39.08586667473945"
    },
    {
      "id": "pt.ine.add.PTCONT.3081157",
      "street": "R CASALEIRO",
      "house": "15",
      "postcode": "2560-192",
      "city": "SÃO PEDRO DA CADEIRA",
      "lon": "-9.393418500953784",
      "lat": "39.086438389726446"
    },
    {
      "id": "pt.ine.add.PTCONT.3236750",
      "street": "R PEDROS",
      "house": "17",
      "postcode": "2560-192",
      "city": "SÃO PEDRO DA CADEIRA",
      "lon": "-9.394571443524589",
      "lat": "39.086281805754574"
    },
    {
      "id": "pt.ine.add.PTCONT.3254459",
      "street": "R PEDROS",
      "house": "3",
      "postcode": "2560-192",
      "city": "SÃO PEDRO DA CADEIRA",
      "lon": "-9.393582035618904",
      "lat": "39.08653570059572"
    },
    {
      "id": "pt.ine.add.PTCONT.3444681",
      "street": "R PRINCIPAL",
      "house": "16",
      "postcode": "2560-192",
      "city": "SÃO PEDRO DA CADEIRA",
      "lon": "-9.394546247904266",
      "lat": "39.08616498520605"
    }
  ]
}