{
  "data": {
    "ilha": "Ilha de São Miguel (Açores)",
    "concelho": "Ponta Delgada",
    "freguesia": "Pilar da Bretanha",
    "OBJECTID": 36,
    "BGRI2021": "42032400115",
    "DT21": "42",
    "DTMN21": "4203",
    "DTMNFR21": "420324",
    "DTMNFRSEC21": "420324001",
    "SECNUM21": "001",
    "SSNUM21": "15",
    "SECSSNUM21": "00115",
    "OBJECTID_1": 207075,
    "DT": "42",
    "CC": "03",
    "fr": "24",
    "SEC": "001",
    "SS": "15",
    "BGRI2021_1": "42032400115"
  },
  "addresses": [
    {
      "id": "pt.ine.add.AC26.36142",
      "street": "R GROTA DA COVA",
      "house": "5",
      "postcode": "9545-061",
      "city": "PILAR DA BRETANHA",
      "lon": "-25.77489060656035",
      "lat": "37.90498094801822"
    },
    {
      "id": "pt.ine.add.AC26.36143",
      "street": "R GROTA DA COVA",
      "house": "290",
      "postcode": "9545-061",
      "city": "PILAR DA BRETANHA",
      "lon": "-25.774234295655642",
      "lat": "37.90546079089293"
    },
    {
      "id": "pt.ine.add.AC26.36144",
      "street": "R GROTA DA COVA",
      "house": "302",
      "postcode": "9545-061",
      "city": "PILAR DA BRETANHA",
      "lon": "-25.773157632036124",
      "lat": "37.904539305898375"
    },
    {
      "id": "pt.ine.add.AC26.36145",
      "street": "R GROTA DA COVA",
      "house": "287",
      "postcode": "9545-061",
      "city": "PILAR DA BRETANHA",
      "lon": "-25.772587953681278",
      "lat": "37.905281406135934"
    },
    {
      "id": "pt.ine.add.AC26.36146",
      "street": "R LOMBA GRANDE",
      "house": "308",
      "postcode": "9545-061",
      "city": "PILAR DA BRETANHA",
      "lon": "-25.772463303828772",
      "lat": "37.90525306842453"
    },
    {
      "id": "pt.ine.add.AC26.36147",
      "street": "ER 1-1 - PILAR DA BRETANHA",
      "house": "275",
      "postcode": "9545-056",
      "city": "PILAR DA BRETANHA",
      "lon": "-25.77518687187194",
      "lat": "37.904263028832034"
    },
    {
      "id": "pt.ine.add.AC26.52449",
      "street": "ER 1-1 - PILAR DA BRETANHA",
      "house": "279",
      "postcode": "9545-056",
      "city": "PILAR DA BRETANHA",
      "lon": "-25.773595754531463",
      "lat": "37.90212851240356"
    },
    {
      "id": "pt.ine.add.AC26.82962",
      "street": "ER 1-1 - PILAR DA BRETANHA",
      "house": "299",
      "postcode": "9545-056",
      "city": "PILAR DA BRETANHA",
      "lon": "-25.771237058269733",
      "lat": "37.903068250822606"
    },
    {
      "id": "pt.ine.add.AC26.88113",
      "street": "R BRENO BOTELHO DE VASCONCELOS",
      "house": "4",
      "postcode": "9545-080",
      "city": "PILAR DA BRETANHA",
      "lon": "-25.77130962167228",
      "lat": "37.903492597585334"
    },
    {
      "id": "pt.ine.add.AC26.99125",
      "street": "CAN GROTA DA COVA",
      "house": "3",
      "postcode": "9545-080",
      "city": "PILAR DA BRETANHA",
      "lon": "-25.77459642769729",
      "lat": "37.905572712575605"
    },
    {
      "id": "pt.ine.add.AC26.100582",
      "street": "ER 1-1 - PILAR DA BRETANHA",
      "house": "271",
      "postcode": "9545-056",
      "city": "PILAR DA BRETANHA",
      "lon": "-25.775504256268665",
      "lat": "37.904329419309946"
    },
    {
      "id": "pt.ine.add.AC26.102221",
      "street": "ER 1-1 - PILAR DA BRETANHA",
      "house": "287",
      "postcode": "9545-056",
      "city": "PILAR DA BRETANHA",
      "lon": "-25.77224934205137",
      "lat": "37.90306980304291"
    },
    {
      "id": "pt.ine.add.AC26.102412",
      "street": "R LOMBA GRANDE",
      "house": "308",
      "postcode": "9545-061",
      "city": "PILAR DA BRETANHA",
      "lon": "-25.77244953575075",
      "lat": "37.90539712534665"
    },
    {
      "id": "pt.ine.add.AC26.104073",
      "street": "R GROTA DA COVA",
      "house": "292",
      "postcode": "9545-061",
      "city": "PILAR DA BRETANHA",
      "lon": "-25.77421319482601",
      "lat": "37.90536143323219"
    },
    {
      "id": "pt.ine.add.AC26.107014",
      "street": "CAN GROTA DA COVA",
      "house": "S",
      "postcode": "9545-080",
      "city": "PILAR DA BRETANHA",
      "lon": "-25.774480309293512",
      "lat": "37.90571570398411"
    },
    {
      "id": "pt.ine.add.AC26.108341",
      "street": "ER 1-1 - PILAR DA BRETANHA",
      "house": "277",
      "postcode": "9545-056",
      "city": "PILAR DA BRETANHA",
      "lon": "-25.775073744529788",
      "lat": "37.90422580126855"
    }
  ]
}