{
  "data": {
    "distrito": "Aveiro",
    "concelho": "Sever do Vouga",
    "freguesia": "Sever do Vouga",
    "OBJECTID": 113,
    "BGRI2021": "01170600109",
    "DT21": "01",
    "DTMN21": "0117",
    "DTMNFR21": "011706",
    "DTMNFRSEC21": "011706001",
    "SECNUM21": "001",
    "SSNUM21": "09",
    "SECSSNUM21": "00109",
    "OBJECTID_1": 11209,
    "DT": "01",
    "CC": "17",
    "fr": "06",
    "SEC": "001",
    "SS": "09"
  },
  "addresses": [
    {
      "id": "pt.ine.add.PTCONT.304757",
      "street": "R AZIBAL",
      "house": "",
      "postcode": "3740-202",
      "city": "SEVER DO VOUGA",
      "lon": "-8.368008633430474",
      "lat": "40.736117080053866"
    },
    {
      "id": "pt.ine.add.PTCONT.315535",
      "street": "TV AZIBAL",
      "house": "",
      "postcode": "3740-202",
      "city": "SEVER DO VOUGA",
      "lon": "-8.368581927133071",
      "lat": "40.7375477127493"
    },
    {
      "id": "pt.ine.add.PTCONT.328904",
      "street": "",
      "house": "",
      "postcode": "3740-213",
      "city": "SEVER DO VOUGA",
      "lon": "-8.368226480855164",
      "lat": "40.7374673920156"
    },
    {
      "id": "pt.ine.add.PTCONT.334261",
      "street": "TV AZIBAL",
      "house": "",
      "postcode": "3740-202",
      "city": "SEVER DO VOUGA",
      "lon": "-8.368451035037626",
      "lat": "40.73735887395501"
    },
    {
      "id": "pt.ine.add.PTCONT.339542",
      "street": "R AZIBAL",
      "house": "",
      "postcode": "3740-202",
      "city": "SEVER DO VOUGA",
      "lon": "-8.3678194714929",
      "lat": "40.73618950516122"
    },
    {
      "id": "pt.ine.add.PTCONT.12802",
      "street": "R AZIBAL",
      "house": "",
      "postcode": "3740-202",
      "city": "SEVER DO VOUGA",
      "lon": "-8.367915730528656",
      "lat": "40.73663055621261"
    },
    {
      "id": "pt.ine.add.PTCONT.15367",
      "street": "TV AZIBAL",
      "house": "",
      "postcode": "3740-202",
      "city": "SEVER DO VOUGA",
      "lon": "-8.368639850238248",
      "lat": "40.737187393137326"
    },
    {
      "id": "pt.ine.add.PTCONT.47795",
      "street": "R AZIBAL",
      "house": "",
      "postcode": "3740-202",
      "city": "SEVER DO VOUGA",
      "lon": "-8.367925257729459",
      "lat": "40.73597316909395"
    },
    {
      "id": "pt.ine.add.PTCONT.55664",
      "street": "VLA AZIBAL",
      "house": "",
      "postcode": "3740-202",
      "city": "SEVER DO VOUGA",
      "lon": "-8.368308558770279",
      "lat": "40.737242098899536"
    },
    {
      "id": "pt.ine.add.PTCONT.59263",
      "street": "R AZIBAL",
      "house": "",
      "postcode": "3740-202",
      "city": "SEVER DO VOUGA",
      "lon": "-8.368701394226798",
      "lat": "40.737853640164715"
    },
    {
      "id": "pt.ine.add.PTCONT.84227",
      "street": "R AZIBAL",
      "house": "",
      "postcode": "3740-202",
      "city": "SEVER DO VOUGA",
      "lon": "-8.36883073049786",
      "lat": "40.73760123511838"
    },
    {
      "id": "pt.ine.add.PTCONT.86882",
      "street": "R AZIBAL",
      "house": "",
      "postcode": "3740-202",
      "city": "SEVER DO VOUGA",
      "lon": "-8.368308812488351",
      "lat": "40.737314138670015"
    },
    {
      "id": "pt.ine.add.PTCONT.89820",
      "street": "TV AZIBAL",
      "house": "",
      "postcode": "3740-202",
      "city": "SEVER DO VOUGA",
      "lon": "-8.368393586670074",
      "lat": "40.737854268021586"
    },
    {
      "id": "pt.ine.add.PTCONT.99069",
      "street": "R AZIBAL",
      "house": "",
      "postcode": "3740-202",
      "city": "SEVER DO VOUGA",
      "lon": "-8.368829427303876",
      "lat": "40.73723203131745"
    },
    {
      "id": "pt.ine.add.PTCONT.123974",
      "street": "R AZIBAL",
      "house": "",
      "postcode": "3740-202",
      "city": "SEVER DO VOUGA",
      "lon": "-8.36882070349735",
      "lat": "40.73811454258905"
    },
    {
      "id": "pt.ine.add.PTCONT.144057",
      "street": "R AZIBAL",
      "house": "",
      "postcode": "3740-202",
      "city": "SEVER DO VOUGA",
      "lon": "-8.368095684979552",
      "lat": "40.73730556772669"
    },
    {
      "id": "pt.ine.add.PTCONT.144061",
      "street": "R AZIBAL",
      "house": "",
      "postcode": "3740-202",
      "city": "SEVER DO VOUGA",
      "lon": "-8.368187446291868",
      "lat": "40.73646791247806"
    },
    {
      "id": "pt.ine.add.PTCONT.151028",
      "street": "R AZIBAL",
      "house": "",
      "postcode": "3740-202",
      "city": "SEVER DO VOUGA",
      "lon": "-8.36813221506031",
      "lat": "40.737593654492976"
    },
    {
      "id": "pt.ine.add.PTCONT.153576",
      "street": "R AZIBAL",
      "house": "",
      "postcode": "3740-202",
      "city": "SEVER DO VOUGA",
      "lon": "-8.368781850287576",
      "lat": "40.737169093217695"
    },
    {
      "id": "pt.ine.add.PTCONT.171376",
      "street": "R LOMBAL",
      "house": "",
      "postcode": "3740-202",
      "city": "SEVER DO VOUGA",
      "lon": "-8.36809476608959",
      "lat": "40.73704442355005"
    },
    {
      "id": "pt.ine.add.PTCONT.191596",
      "street": "TV AZIBAL",
      "house": "",
      "postcode": "3740-202",
      "city": "SEVER DO VOUGA",
      "lon": "-8.36848766189899",
      "lat": "40.73767397551364"
    },
    {
      "id": "pt.ine.add.PTCONT.197052",
      "street": "TV AZIBAL",
      "house": "",
      "postcode": "3740-202",
      "city": "SEVER DO VOUGA",
      "lon": "-8.36813319749799",
      "lat": "40.73787280858499"
    },
    {
      "id": "pt.ine.add.PTCONT.204940",
      "street": "R LOMBA",
      "house": "",
      "postcode": "3740-202",
      "city": "SEVER DO VOUGA",
      "lon": "-8.367783386551698",
      "lat": "40.736027487851764"
    },
    {
      "id": "pt.ine.add.PTCONT.224244",
      "street": "TV AZIBAL",
      "house": "",
      "postcode": "3740-202",
      "city": "SEVER DO VOUGA",
      "lon": "-8.368392666597419",
      "lat": "40.73759312387543"
    },
    {
      "id": "pt.ine.add.PTCONT.235027",
      "street": "VLA AZIBAL",
      "house": "",
      "postcode": "3740-202",
      "city": "SEVER DO VOUGA",
      "lon": "-8.368355627856642",
      "lat": "40.73716095765309"
    },
    {
      "id": "pt.ine.add.PTCONT.253997",
      "street": "TV AZIBAL",
      "house": "",
      "postcode": "3740-202",
      "city": "SEVER DO VOUGA",
      "lon": "-8.368345914456542",
      "lat": "40.73776431483756"
    },
    {
      "id": "pt.ine.add.PTCONT.275244",
      "street": "TV AZIBAL",
      "house": "",
      "postcode": "3740-202",
      "city": "SEVER DO VOUGA",
      "lon": "-8.368615760142005",
      "lat": "40.73707037682242"
    }
  ]
}