{
  "data": {
    "distrito": "Viseu",
    "concelho": "Moimenta da Beira",
    "freguesia": "Moimenta da Beira",
    "OBJECTID": 54,
    "BGRI2021": "18071000104",
    "DT21": "18",
    "DTMN21": "1807",
    "DTMNFR21": "180710",
    "DTMNFRSEC21": "180710001",
    "SECNUM21": "001",
    "SSNUM21": "04",
    "SECSSNUM21": "00104",
    "OBJECTID_1": 192649,
    "DT": "18",
    "CC": "07",
    "fr": "10",
    "SEC": "001",
    "SS": "04"
  },
  "addresses": [
    {
      "id": "pt.ine.add.PTCONT.5436350",
      "street": "AV 25 DE ABRIL",
      "house": "",
      "postcode": "3620-304",
      "city": "MOIMENTA DA BEIRA",
      "lon": "-7.612982701539053",
      "lat": "40.978755194895164"
    },
    {
      "id": "pt.ine.add.PTCONT.5465792",
      "street": "PCT FERNAO MERGULHAO",
      "house": "",
      "postcode": "3620-325",
      "city": "MOIMENTA DA BEIRA",
      "lon": "-7.613206467123514",
      "lat": "40.9790083334967"
    },
    {
      "id": "pt.ine.add.PTCONT.5465793",
      "street": "PCT FERNAO MERGULHAO",
      "house": "",
      "postcode": "3620-325",
      "city": "MOIMENTA DA BEIRA",
      "lon": "-7.613206467123514",
      "lat": "40.9790083334967"
    },
    {
      "id": "pt.ine.add.PTCONT.5465794",
      "street": "PCT FERNAO MERGULHAO",
      "house": "",
      "postcode": "3620-325",
      "city": "MOIMENTA DA BEIRA",
      "lon": "-7.613206467123514",
      "lat": "40.9790083334967"
    },
    {
      "id": "pt.ine.add.PTCONT.5465795",
      "street": "PCT FERNAO MERGULHAO",
      "house": "",
      "postcode": "3620-325",
      "city": "MOIMENTA DA BEIRA",
      "lon": "-7.613206467123514",
      "lat": "40.9790083334967"
    },
    {
      "id": "pt.ine.add.PTCONT.5465796",
      "street": "AV CALOUSTE GULBENKIAN",
      "house": "1",
      "postcode": "3620-369",
      "city": "MOIMENTA DA BEIRA",
      "lon": "-7.612405417032931",
      "lat": "40.97661849445495"
    },
    {
      "id": "pt.ine.add.PTCONT.5465797",
      "street": "AV CALOUSTE GULBENKIAN",
      "house": "",
      "postcode": "3620-369",
      "city": "MOIMENTA DA BEIRA",
      "lon": "-7.612405417032931",
      "lat": "40.97661849445495"
    },
    {
      "id": "pt.ine.add.PTCONT.5465798",
      "street": "AV CALOUSTE GULBENKIAN",
      "house": "1",
      "postcode": "3620-369",
      "city": "MOIMENTA DA BEIRA",
      "lon": "-7.612405417032931",
      "lat": "40.97661849445495"
    },
    {
      "id": "pt.ine.add.PTCONT.5465799",
      "street": "AV CALOUSTE GULBENKIAN",
      "house": "1",
      "postcode": "3620-369",
      "city": "MOIMENTA DA BEIRA",
      "lon": "-7.612405417032931",
      "lat": "40.97661849445495"
    },
    {
      "id": "pt.ine.add.PTCONT.5465897",
      "street": "AV CALOUSTE GULBENKIAN",
      "house": "",
      "postcode": "3620-369",
      "city": "MOIMENTA DA BEIRA",
      "lon": "-7.612405417032931",
      "lat": "40.97661849445495"
    },
    {
      "id": "pt.ine.add.PTCONT.5465898",
      "street": "AV CALOUSTE GULBENKIAN",
      "house": "1",
      "postcode": "3620-369",
      "city": "MOIMENTA DA BEIRA",
      "lon": "-7.612405417032931",
      "lat": "40.97661849445495"
    },
    {
      "id": "pt.ine.add.PTCONT.5465899",
      "street": "AV CALOUSTE GULBENKIAN",
      "house": "1",
      "postcode": "3620-369",
      "city": "MOIMENTA DA BEIRA",
      "lon": "-7.612405417032931",
      "lat": "40.97661849445495"
    },
    {
      "id": "pt.ine.add.PTCONT.5465900",
      "street": "AV CALOUSTE GULBENKIAN",
      "house": "",
      "postcode": "3620-369",
      "city": "MOIMENTA DA BEIRA",
      "lon": "-7.612405417032931",
      "lat": "40.97661849445495"
    },
    {
      "id": "pt.ine.add.PTCONT.5465901",
      "street": "AV CALOUSTE GULBENKIAN",
      "house": "1",
      "postcode": "3620-369",
      "city": "MOIMENTA DA BEIRA",
      "lon": "-7.612405417032931",
      "lat": "40.97661849445495"
    },
    {
      "id": "pt.ine.add.PTCONT.5465902",
      "street": "AV CALOUSTE GULBENKIAN",
      "house": "1",
      "postcode": "3620-369",
      "city": "MOIMENTA DA BEIRA",
      "lon": "-7.612405417032931",
      "lat": "40.97661849445495"
    },
    {
      "id": "pt.ine.add.PTCONT.5465903",
      "street": "AV CALOUSTE GULBENKIAN",
      "house": "1",
      "postcode": "3620-369",
      "city": "MOIMENTA DA BEIRA",
      "lon": "-7.612405417032931",
      "lat": "40.97661849445495"
    },
    {
      "id": "pt.ine.add.PTCONT.5465904",
      "street": "AV CALOUSTE GULBENKIAN",
      "house": "1",
      "postcode": "3620-369",
      "city": "MOIMENTA DA BEIRA",
      "lon": "-7.612405417032931",
      "lat": "40.97661849445495"
    },
    {
      "id": "pt.ine.add.PTCONT.5466771",
      "street": "AV CALOUSTE GULBENKIAN",
      "house": "",
      "postcode": "3620-369",
      "city": "MOIMENTA DA BEIRA",
      "lon": "-7.612405417032931",
      "lat": "40.97661849445495"
    },
    {
      "id": "pt.ine.add.PTCONT.5466807",
      "street": "AV CALOUSTE GULBENKIAN",
      "house": "",
      "postcode": "3620-369",
      "city": "MOIMENTA DA BEIRA",
      "lon": "-7.612405417032931",
      "lat": "40.97661849445495"
    },
    {
      "id": "pt.ine.add.PTCONT.5474703",
      "street": "AV 25 DE ABRIL",
      "house": "",
      "postcode": "3620-304",
      "city": "MOIMENTA DA BEIRA",
      "lon": "-7.612867284160814",
      "lat": "40.978322452505104"
    },
    {
      "id": "pt.ine.add.PTCONT.5474704",
      "street": "AV 25 ABRIL",
      "house": "29 C",
      "postcode": "3620-304",
      "city": "MOIMENTA DA BEIRA",
      "lon": "-7.612867284160814",
      "lat": "40.978322452505104"
    },
    {
      "id": "pt.ine.add.PTCONT.5474705",
      "street": "AV 25 ABRIL",
      "house": "29",
      "postcode": "3620-304",
      "city": "MOIMENTA DA BEIRA",
      "lon": "-7.612867284160814",
      "lat": "40.978322452505104"
    },
    {
      "id": "pt.ine.add.PTCONT.5474706",
      "street": "AV 25 ABRIL",
      "house": "19",
      "postcode": "3620-304",
      "city": "MOIMENTA DA BEIRA",
      "lon": "-7.612867284160814",
      "lat": "40.978322452505104"
    },
    {
      "id": "pt.ine.add.PTCONT.5474707",
      "street": "AV 25 ABRIL",
      "house": "29 C",
      "postcode": "3620-304",
      "city": "MOIMENTA DA BEIRA",
      "lon": "-7.612867284160814",
      "lat": "40.978322452505104"
    },
    {
      "id": "pt.ine.add.PTCONT.5474708",
      "street": "AV 25 ABRIL",
      "house": "29C",
      "postcode": "3620-304",
      "city": "MOIMENTA DA BEIRA",
      "lon": "-7.612867284160814",
      "lat": "40.978322452505104"
    },
    {
      "id": "pt.ine.add.PTCONT.5474722",
      "street": "AV 25 DE ABRIL",
      "house": "",
      "postcode": "3620-304",
      "city": "MOIMENTA DA BEIRA",
      "lon": "-7.612867284160814",
      "lat": "40.978322452505104"
    },
    {
      "id": "pt.ine.add.PTCONT.5474723",
      "street": "AV 25 ABRIL",
      "house": "29 C",
      "postcode": "3620-304",
      "city": "MOIMENTA DA BEIRA",
      "lon": "-7.612867284160814",
      "lat": "40.978322452505104"
    },
    {
      "id": "pt.ine.add.PTCONT.5474724",
      "street": "AV 25 DE ABRIL",
      "house": "",
      "postcode": "3620-304",
      "city": "MOIMENTA DA BEIRA",
      "lon": "-7.612867284160814",
      "lat": "40.978322452505104"
    },
    {
      "id": "pt.ine.add.PTCONT.5474725",
      "street": "AV 25 ABRIL",
      "house": "29 C",
      "postcode": "3620-304",
      "city": "MOIMENTA DA BEIRA",
      "lon": "-7.612867284160814",
      "lat": "40.978322452505104"
    },
    {
      "id": "pt.ine.add.PTCONT.5474726",
      "street": "AV 25 ABRIL",
      "house": "29",
      "postcode": "3620-304",
      "city": "MOIMENTA DA BEIRA",
      "lon": "-7.612867284160814",
      "lat": "40.978322452505104"
    },
    {
      "id": "pt.ine.add.PTCONT.5474727",
      "street": "AV 25 DE ABRIL",
      "house": "",
      "postcode": "3620-304",
      "city": "MOIMENTA DA BEIRA",
      "lon": "-7.612867284160814",
      "lat": "40.978322452505104"
    },
    {
      "id": "pt.ine.add.PTCONT.5476016",
      "street": "AV 25 DE ABRIL",
      "house": "",
      "postcode": "3620-304",
      "city": "MOIMENTA DA BEIRA",
      "lon": "-7.612867284160814",
      "lat": "40.978322452505104"
    },
    {
      "id": "pt.ine.add.PTCONT.5478336",
      "street": "AV CALOUSTE GULBENKIAN",
      "house": "",
      "postcode": "3620-369",
      "city": "MOIMENTA DA BEIRA",
      "lon": "-7.612878532579634",
      "lat": "40.97689076897159"
    },
    {
      "id": "pt.ine.add.PTCONT.5478337",
      "street": "AV CALOUSTE GULBENKIAN",
      "house": "",
      "postcode": "3620-369",
      "city": "MOIMENTA DA BEIRA",
      "lon": "-7.612878532579634",
      "lat": "40.97689076897159"
    },
    {
      "id": "pt.ine.add.PTCONT.5478338",
      "street": "AV CALOUSTE GULBENKIAN",
      "house": "",
      "postcode": "3620-369",
      "city": "MOIMENTA DA BEIRA",
      "lon": "-7.612878532579634",
      "lat": "40.97689076897159"
    },
    {
      "id": "pt.ine.add.PTCONT.5478339",
      "street": "AV CALOUSTE GULBENKIAN",
      "house": "",
      "postcode": "3620-369",
      "city": "MOIMENTA DA BEIRA",
      "lon": "-7.612878532579634",
      "lat": "40.97689076897159"
    },
    {
      "id": "pt.ine.add.PTCONT.5478340",
      "street": "AV CALOUSTE GULBENKIAN",
      "house": "",
      "postcode": "3620-369",
      "city": "MOIMENTA DA BEIRA",
      "lon": "-7.612878532579634",
      "lat": "40.97689076897159"
    },
    {
      "id": "pt.ine.add.PTCONT.5478341",
      "street": "AV CALOUSTE GULBENKIAN",
      "house": "",
      "postcode": "3620-369",
      "city": "MOIMENTA DA BEIRA",
      "lon": "-7.612878532579634",
      "lat": "40.97689076897159"
    },
    {
      "id": "pt.ine.add.PTCONT.5478357",
      "street": "AV CALOUSTE GULBENKIAN",
      "house": "",
      "postcode": "3620-369",
      "city": "MOIMENTA DA BEIRA",
      "lon": "-7.612878532579634",
      "lat": "40.97689076897159"
    },
    {
      "id": "pt.ine.add.PTCONT.5501471",
      "street": "AV 25 DE ABRIL",
      "house": "",
      "postcode": "3620-304",
      "city": "MOIMENTA DA BEIRA",
      "lon": "-7.6127858843606955",
      "lat": "40.97809696971323"
    },
    {
      "id": "pt.ine.add.PTCONT.5501472",
      "street": "AV 25 DE ABRIL",
      "house": "",
      "postcode": "3620-304",
      "city": "MOIMENTA DA BEIRA",
      "lon": "-7.6127858843606955",
      "lat": "40.97809696971323"
    },
    {
      "id": "pt.ine.add.PTCONT.5501473",
      "street": "AV 25 ABRIL",
      "house": "29 B",
      "postcode": "3620-304",
      "city": "MOIMENTA DA BEIRA",
      "lon": "-7.6127858843606955",
      "lat": "40.97809696971323"
    },
    {
      "id": "pt.ine.add.PTCONT.5501474",
      "street": "AV 25 ABRIL",
      "house": "29 B",
      "postcode": "3620-304",
      "city": "MOIMENTA DA BEIRA",
      "lon": "-7.6127858843606955",
      "lat": "40.97809696971323"
    },
    {
      "id": "pt.ine.add.PTCONT.5501475",
      "street": "AV 25 DE ABRIL",
      "house": "",
      "postcode": "3620-304",
      "city": "MOIMENTA DA BEIRA",
      "lon": "-7.6127858843606955",
      "lat": "40.97809696971323"
    },
    {
      "id": "pt.ine.add.PTCONT.5501476",
      "street": "AV 25 ABRIL",
      "house": "29 B",
      "postcode": "3620-304",
      "city": "MOIMENTA DA BEIRA",
      "lon": "-7.6127858843606955",
      "lat": "40.97809696971323"
    },
    {
      "id": "pt.ine.add.PTCONT.5501477",
      "street": "AV 25 DE ABRIL",
      "house": "",
      "postcode": "3620-304",
      "city": "MOIMENTA DA BEIRA",
      "lon": "-7.6127858843606955",
      "lat": "40.97809696971323"
    },
    {
      "id": "pt.ine.add.PTCONT.5501478",
      "street": "AV 25 DE ABRIL",
      "house": "",
      "postcode": "3620-304",
      "city": "MOIMENTA DA BEIRA",
      "lon": "-7.6127858843606955",
      "lat": "40.97809696971323"
    },
    {
      "id": "pt.ine.add.PTCONT.5501479",
      "street": "AV 25 DE ABRIL",
      "house": "",
      "postcode": "3620-304",
      "city": "MOIMENTA DA BEIRA",
      "lon": "-7.6127858843606955",
      "lat": "40.97809696971323"
    },
    {
      "id": "pt.ine.add.PTCONT.5507581",
      "street": "AV CALOUSTE GULBENKIAN",
      "house": "20",
      "postcode": "3620-369",
      "city": "MOIMENTA DA BEIRA",
      "lon": "-7.613126760707761",
      "lat": "40.97705397199521"
    },
    {
      "id": "pt.ine.add.PTCONT.5507582",
      "street": "AV CALOUSTE GULBENKIAN",
      "house": "",
      "postcode": "3620-369",
      "city": "MOIMENTA DA BEIRA",
      "lon": "-7.613126760707761",
      "lat": "40.97705397199521"
    },
    {
      "id": "pt.ine.add.PTCONT.5507583",
      "street": "AV CALOUSTE GULBENKIAN",
      "house": "",
      "postcode": "3620-369",
      "city": "MOIMENTA DA BEIRA",
      "lon": "-7.613126760707761",
      "lat": "40.97705397199521"
    },
    {
      "id": "pt.ine.add.PTCONT.5507584",
      "street": "AV CALOUSTE GULBENKIAN",
      "house": "",
      "postcode": "3620-369",
      "city": "MOIMENTA DA BEIRA",
      "lon": "-7.613126760707761",
      "lat": "40.97705397199521"
    },
    {
      "id": "pt.ine.add.PTCONT.5507585",
      "street": "AV CALOUSTE GULBENKIAN",
      "house": "",
      "postcode": "3620-369",
      "city": "MOIMENTA DA BEIRA",
      "lon": "-7.613126760707761",
      "lat": "40.97705397199521"
    },
    {
      "id": "pt.ine.add.PTCONT.5507586",
      "street": "AV CALOUSTE GULBENKIAN",
      "house": "",
      "postcode": "3620-369",
      "city": "MOIMENTA DA BEIRA",
      "lon": "-7.613126760707761",
      "lat": "40.97705397199521"
    },
    {
      "id": "pt.ine.add.PTCONT.5507587",
      "street": "AV CALOUSTE GULBENKIAN",
      "house": "",
      "postcode": "3620-369",
      "city": "MOIMENTA DA BEIRA",
      "lon": "-7.613126760707761",
      "lat": "40.97705397199521"
    },
    {
      "id": "pt.ine.add.PTCONT.5513706",
      "street": "AV 25 DE ABRIL",
      "house": "",
      "postcode": "3620-304",
      "city": "MOIMENTA DA BEIRA",
      "lon": "-7.612484973079157",
      "lat": "40.977078089339244"
    },
    {
      "id": "pt.ine.add.PTCONT.5513707",
      "street": "AV 25 DE ABRIL",
      "house": "",
      "postcode": "3620-304",
      "city": "MOIMENTA DA BEIRA",
      "lon": "-7.612484973079157",
      "lat": "40.977078089339244"
    },
    {
      "id": "pt.ine.add.PTCONT.5513708",
      "street": "AV 25 DE ABRIL",
      "house": "",
      "postcode": "3620-304",
      "city": "MOIMENTA DA BEIRA",
      "lon": "-7.612484973079157",
      "lat": "40.977078089339244"
    },
    {
      "id": "pt.ine.add.PTCONT.5513709",
      "street": "AV 25 DE ABRIL",
      "house": "",
      "postcode": "3620-304",
      "city": "MOIMENTA DA BEIRA",
      "lon": "-7.612484973079157",
      "lat": "40.977078089339244"
    },
    {
      "id": "pt.ine.add.PTCONT.5513710",
      "street": "AV 25 DE ABRIL",
      "house": "",
      "postcode": "3620-304",
      "city": "MOIMENTA DA BEIRA",
      "lon": "-7.612484973079157",
      "lat": "40.977078089339244"
    },
    {
      "id": "pt.ine.add.PTCONT.5513711",
      "street": "AV 25 DE ABRIL",
      "house": "",
      "postcode": "3620-304",
      "city": "MOIMENTA DA BEIRA",
      "lon": "-7.612484973079157",
      "lat": "40.977078089339244"
    },
    {
      "id": "pt.ine.add.PTCONT.5513838",
      "street": "AV 25 DE ABRIL",
      "house": "",
      "postcode": "3620-304",
      "city": "MOIMENTA DA BEIRA",
      "lon": "-7.612484973079157",
      "lat": "40.977078089339244"
    },
    {
      "id": "pt.ine.add.PTCONT.5513839",
      "street": "AV 25 DE ABRIL",
      "house": "",
      "postcode": "3620-304",
      "city": "MOIMENTA DA BEIRA",
      "lon": "-7.612484973079157",
      "lat": "40.977078089339244"
    },
    {
      "id": "pt.ine.add.PTCONT.5513840",
      "street": "AV 25 ABRIL",
      "house": "N 13",
      "postcode": "3620-304",
      "city": "MOIMENTA DA BEIRA",
      "lon": "-7.612484973079157",
      "lat": "40.977078089339244"
    },
    {
      "id": "pt.ine.add.PTCONT.5514452",
      "street": "AV 25 DE ABRIL",
      "house": "",
      "postcode": "3620-304",
      "city": "MOIMENTA DA BEIRA",
      "lon": "-7.612484973079157",
      "lat": "40.977078089339244"
    },
    {
      "id": "pt.ine.add.PTCONT.5544995",
      "street": "AV 25 DE ABRIL",
      "house": "",
      "postcode": "3620-304",
      "city": "MOIMENTA DA BEIRA",
      "lon": "-7.613005756900432",
      "lat": "40.978845345075385"
    },
    {
      "id": "pt.ine.add.PTCONT.5554822",
      "street": "PCT FERNÃO MERGULHÃO",
      "house": "",
      "postcode": "3620-325",
      "city": "MOIMENTA DA BEIRA",
      "lon": "-7.613052150703449",
      "lat": "40.978989628230835"
    },
    {
      "id": "pt.ine.add.PTCONT.5554839",
      "street": "PCT FERNÃO MERGULHÃO",
      "house": "",
      "postcode": "3620-325",
      "city": "MOIMENTA DA BEIRA",
      "lon": "-7.613052150703449",
      "lat": "40.978989628230835"
    },
    {
      "id": "pt.ine.add.PTCONT.5554840",
      "street": "PCT FERNÃO MERGULHÃO",
      "house": "",
      "postcode": "3620-325",
      "city": "MOIMENTA DA BEIRA",
      "lon": "-7.613052150703449",
      "lat": "40.978989628230835"
    },
    {
      "id": "pt.ine.add.PTCONT.5554841",
      "street": "PCT FERNÃO MERGULHÃO",
      "house": "",
      "postcode": "3620-325",
      "city": "MOIMENTA DA BEIRA",
      "lon": "-7.613052150703449",
      "lat": "40.978989628230835"
    },
    {
      "id": "pt.ine.add.PTCONT.5554842",
      "street": "PCT FERNÃO MERGULHÃO",
      "house": "",
      "postcode": "3620-325",
      "city": "MOIMENTA DA BEIRA",
      "lon": "-7.613052150703449",
      "lat": "40.978989628230835"
    },
    {
      "id": "pt.ine.add.PTCONT.5554843",
      "street": "PCT FERNÃO MERGULHÃO",
      "house": "",
      "postcode": "3620-325",
      "city": "MOIMENTA DA BEIRA",
      "lon": "-7.613052150703449",
      "lat": "40.978989628230835"
    },
    {
      "id": "pt.ine.add.PTCONT.5554844",
      "street": "PCT FERNÃO MERGULHÃO",
      "house": "",
      "postcode": "3620-325",
      "city": "MOIMENTA DA BEIRA",
      "lon": "-7.613052150703449",
      "lat": "40.978989628230835"
    },
    {
      "id": "pt.ine.add.PTCONT.5554845",
      "street": "PCT FERNÃO MERGULHÃO",
      "house": "",
      "postcode": "3620-325",
      "city": "MOIMENTA DA BEIRA",
      "lon": "-7.613052150703449",
      "lat": "40.978989628230835"
    },
    {
      "id": "pt.ine.add.PTCONT.5554846",
      "street": "PCT FERNÃO MERGULHÃO",
      "house": "",
      "postcode": "3620-325",
      "city": "MOIMENTA DA BEIRA",
      "lon": "-7.613052150703449",
      "lat": "40.978989628230835"
    },
    {
      "id": "pt.ine.add.PTCONT.5593556",
      "street": "AV 25 ABRIL",
      "house": "N 27",
      "postcode": "3620-304",
      "city": "MOIMENTA DA BEIRA",
      "lon": "-7.612763112591775",
      "lat": "40.977970802287906"
    },
    {
      "id": "pt.ine.add.PTCONT.5593557",
      "street": "AV 25 ABRIL",
      "house": "27",
      "postcode": "3620-304",
      "city": "MOIMENTA DA BEIRA",
      "lon": "-7.612763112591775",
      "lat": "40.977970802287906"
    },
    {
      "id": "pt.ine.add.PTCONT.5593558",
      "street": "AV 25 DE ABRIL",
      "house": "",
      "postcode": "3620-304",
      "city": "MOIMENTA DA BEIRA",
      "lon": "-7.612763112591775",
      "lat": "40.977970802287906"
    },
    {
      "id": "pt.ine.add.PTCONT.5593559",
      "street": "AV 25 ABRIL",
      "house": "N 27",
      "postcode": "3620-304",
      "city": "MOIMENTA DA BEIRA",
      "lon": "-7.612763112591775",
      "lat": "40.977970802287906"
    },
    {
      "id": "pt.ine.add.PTCONT.5593560",
      "street": "AV 25 DE ABRIL",
      "house": "",
      "postcode": "3620-304",
      "city": "MOIMENTA DA BEIRA",
      "lon": "-7.612763112591775",
      "lat": "40.977970802287906"
    },
    {
      "id": "pt.ine.add.PTCONT.5593561",
      "street": "AV 25 ABRIL",
      "house": "N 27",
      "postcode": "3620-304",
      "city": "MOIMENTA DA BEIRA",
      "lon": "-7.612763112591775",
      "lat": "40.977970802287906"
    },
    {
      "id": "pt.ine.add.PTCONT.5593562",
      "street": "AV 25 DE ABRIL",
      "house": "",
      "postcode": "3620-304",
      "city": "MOIMENTA DA BEIRA",
      "lon": "-7.612763112591775",
      "lat": "40.977970802287906"
    },
    {
      "id": "pt.ine.add.PTCONT.5593563",
      "street": "AV 25 DE ABRIL",
      "house": "",
      "postcode": "3620-304",
      "city": "MOIMENTA DA BEIRA",
      "lon": "-7.612763112591775",
      "lat": "40.977970802287906"
    },
    {
      "id": "pt.ine.add.PTCONT.5593564",
      "street": "AV 25 DE ABRIL",
      "house": "",
      "postcode": "3620-304",
      "city": "MOIMENTA DA BEIRA",
      "lon": "-7.612763112591775",
      "lat": "40.977970802287906"
    },
    {
      "id": "pt.ine.add.PTCONT.5593565",
      "street": "AV 25 DE ABRIL",
      "house": "",
      "postcode": "3620-304",
      "city": "MOIMENTA DA BEIRA",
      "lon": "-7.612763112591775",
      "lat": "40.977970802287906"
    },
    {
      "id": "pt.ine.add.PTCONT.5600309",
      "street": "AV 25 DE ABRIL",
      "house": "",
      "postcode": "3620-304",
      "city": "MOIMENTA DA BEIRA",
      "lon": "-7.612924709704593",
      "lat": "40.97857484090767"
    },
    {
      "id": "pt.ine.add.PTCONT.5628943",
      "street": "AV 25 DE ABRIL",
      "house": "",
      "postcode": "3620-304",
      "city": "MOIMENTA DA BEIRA",
      "lon": "-7.612554560355814",
      "lat": "40.97729451442382"
    },
    {
      "id": "pt.ine.add.PTCONT.5628944",
      "street": "AV 25 DE ABRIL",
      "house": "",
      "postcode": "3620-304",
      "city": "MOIMENTA DA BEIRA",
      "lon": "-7.612554560355814",
      "lat": "40.97729451442382"
    },
    {
      "id": "pt.ine.add.PTCONT.5628945",
      "street": "AV 25 DE ABRIL",
      "house": "",
      "postcode": "3620-304",
      "city": "MOIMENTA DA BEIRA",
      "lon": "-7.612554560355814",
      "lat": "40.97729451442382"
    },
    {
      "id": "pt.ine.add.PTCONT.5628946",
      "street": "AV 25 DE ABRIL",
      "house": "",
      "postcode": "3620-304",
      "city": "MOIMENTA DA BEIRA",
      "lon": "-7.612554560355814",
      "lat": "40.97729451442382"
    },
    {
      "id": "pt.ine.add.PTCONT.5628947",
      "street": "AV 25 DE ABRIL",
      "house": "",
      "postcode": "3620-304",
      "city": "MOIMENTA DA BEIRA",
      "lon": "-7.612554560355814",
      "lat": "40.97729451442382"
    },
    {
      "id": "pt.ine.add.PTCONT.5628948",
      "street": "AV 25 DE ABRIL",
      "house": "",
      "postcode": "3620-304",
      "city": "MOIMENTA DA BEIRA",
      "lon": "-7.612554560355814",
      "lat": "40.97729451442382"
    },
    {
      "id": "pt.ine.add.PTCONT.5628949",
      "street": "AV 25 ABRIL",
      "house": "17",
      "postcode": "3620-304",
      "city": "MOIMENTA DA BEIRA",
      "lon": "-7.612554560355814",
      "lat": "40.97729451442382"
    },
    {
      "id": "pt.ine.add.PTCONT.5628950",
      "street": "AV 25 DE ABRIL",
      "house": "",
      "postcode": "3620-304",
      "city": "MOIMENTA DA BEIRA",
      "lon": "-7.612554560355814",
      "lat": "40.97729451442382"
    },
    {
      "id": "pt.ine.add.PTCONT.5628951",
      "street": "AV 25 DE ABRIL",
      "house": "",
      "postcode": "3620-304",
      "city": "MOIMENTA DA BEIRA",
      "lon": "-7.612554560355814",
      "lat": "40.97729451442382"
    },
    {
      "id": "pt.ine.add.PTCONT.5628952",
      "street": "AV 25 DE ABRIL",
      "house": "",
      "postcode": "3620-304",
      "city": "MOIMENTA DA BEIRA",
      "lon": "-7.612554560355814",
      "lat": "40.97729451442382"
    },
    {
      "id": "pt.ine.add.PTCONT.5628953",
      "street": "AV 25 DE ABRIL",
      "house": "",
      "postcode": "3620-304",
      "city": "MOIMENTA DA BEIRA",
      "lon": "-7.612554560355814",
      "lat": "40.97729451442382"
    },
    {
      "id": "pt.ine.add.PTCONT.5628954",
      "street": "AV 25 DE ABRIL",
      "house": "",
      "postcode": "3620-304",
      "city": "MOIMENTA DA BEIRA",
      "lon": "-7.612554560355814",
      "lat": "40.97729451442382"
    },
    {
      "id": "pt.ine.add.PTCONT.5628955",
      "street": "AV 25 DE ABRIL",
      "house": "",
      "postcode": "3620-304",
      "city": "MOIMENTA DA BEIRA",
      "lon": "-7.612554560355814",
      "lat": "40.97729451442382"
    },
    {
      "id": "pt.ine.add.PTCONT.5628956",
      "street": "AV 25 DE ABRIL",
      "house": "",
      "postcode": "3620-304",
      "city": "MOIMENTA DA BEIRA",
      "lon": "-7.612554560355814",
      "lat": "40.97729451442382"
    },
    {
      "id": "pt.ine.add.PTCONT.5628957",
      "street": "AV 25 DE ABRIL",
      "house": "",
      "postcode": "3620-304",
      "city": "MOIMENTA DA BEIRA",
      "lon": "-7.612554560355814",
      "lat": "40.97729451442382"
    },
    {
      "id": "pt.ine.add.PTCONT.5628958",
      "street": "AV 25 DE ABRIL",
      "house": "",
      "postcode": "3620-304",
      "city": "MOIMENTA DA BEIRA",
      "lon": "-7.612554560355814",
      "lat": "40.97729451442382"
    },
    {
      "id": "pt.ine.add.PTCONT.5628974",
      "street": "AV 25 DE ABRIL",
      "house": "",
      "postcode": "3620-304",
      "city": "MOIMENTA DA BEIRA",
      "lon": "-7.612554560355814",
      "lat": "40.97729451442382"
    },
    {
      "id": "pt.ine.add.PTCONT.5628975",
      "street": "AV 25 DE ABRIL",
      "house": "",
      "postcode": "3620-304",
      "city": "MOIMENTA DA BEIRA",
      "lon": "-7.612554560355814",
      "lat": "40.97729451442382"
    },
    {
      "id": "pt.ine.add.PTCONT.5630245",
      "street": "AV 25 DE ABRIL",
      "house": "",
      "postcode": "3620-304",
      "city": "MOIMENTA DA BEIRA",
      "lon": "-7.612554560355814",
      "lat": "40.97729451442382"
    },
    {
      "id": "pt.ine.add.PTCONT.5630294",
      "street": "AV 25 ABRIL",
      "house": "N 17",
      "postcode": "3620-304",
      "city": "MOIMENTA DA BEIRA",
      "lon": "-7.612554560355814",
      "lat": "40.97729451442382"
    },
    {
      "id": "pt.ine.add.PTCONT.5642273",
      "street": "AV 25 DE ABRIL",
      "house": "",
      "postcode": "3620-304",
      "city": "MOIMENTA DA BEIRA",
      "lon": "-7.6124274088454",
      "lat": "40.97684370926907"
    },
    {
      "id": "pt.ine.add.PTCONT.5642274",
      "street": "AV 25 DE ABRIL",
      "house": "",
      "postcode": "3620-304",
      "city": "MOIMENTA DA BEIRA",
      "lon": "-7.6124274088454",
      "lat": "40.97684370926907"
    },
    {
      "id": "pt.ine.add.PTCONT.5642275",
      "street": "AV 25 DE ABRIL",
      "house": "",
      "postcode": "3620-304",
      "city": "MOIMENTA DA BEIRA",
      "lon": "-7.6124274088454",
      "lat": "40.97684370926907"
    },
    {
      "id": "pt.ine.add.PTCONT.5642276",
      "street": "AV 25 DE ABRIL",
      "house": "",
      "postcode": "3620-304",
      "city": "MOIMENTA DA BEIRA",
      "lon": "-7.6124274088454",
      "lat": "40.97684370926907"
    },
    {
      "id": "pt.ine.add.PTCONT.5642277",
      "street": "AV 25 DE ABRIL",
      "house": "",
      "postcode": "3620-304",
      "city": "MOIMENTA DA BEIRA",
      "lon": "-7.6124274088454",
      "lat": "40.97684370926907"
    },
    {
      "id": "pt.ine.add.PTCONT.5642278",
      "street": "AV 25 DE ABRIL",
      "house": "",
      "postcode": "3620-304",
      "city": "MOIMENTA DA BEIRA",
      "lon": "-7.6124274088454",
      "lat": "40.97684370926907"
    },
    {
      "id": "pt.ine.add.PTCONT.5642279",
      "street": "AV 25 DE ABRIL",
      "house": "",
      "postcode": "3620-304",
      "city": "MOIMENTA DA BEIRA",
      "lon": "-7.6124274088454",
      "lat": "40.97684370926907"
    },
    {
      "id": "pt.ine.add.PTCONT.5642280",
      "street": "AV 25 DE ABRIL",
      "house": "",
      "postcode": "3620-304",
      "city": "MOIMENTA DA BEIRA",
      "lon": "-7.6124274088454",
      "lat": "40.97684370926907"
    },
    {
      "id": "pt.ine.add.PTCONT.5643514",
      "street": "AV 25 DE ABRIL",
      "house": "",
      "postcode": "3620-304",
      "city": "MOIMENTA DA BEIRA",
      "lon": "-7.6124274088454",
      "lat": "40.97684370926907"
    },
    {
      "id": "pt.ine.add.PTCONT.5663251",
      "street": "AV CALOUSTE GULBENKIAN",
      "house": "",
      "postcode": "3620-369",
      "city": "MOIMENTA DA BEIRA",
      "lon": "-7.613126760707761",
      "lat": "40.97705397199521"
    },
    {
      "id": "pt.ine.add.PTCONT.5668260",
      "street": "AV CALOUSTE GULBENKIAN",
      "house": "1",
      "postcode": "3620-369",
      "city": "MOIMENTA DA BEIRA",
      "lon": "-7.612405417032931",
      "lat": "40.97661849445495"
    },
    {
      "id": "pt.ine.add.PTCONT.5669201",
      "street": "AV 25 DE ABRIL",
      "house": "",
      "postcode": "3620-304",
      "city": "MOIMENTA DA BEIRA",
      "lon": "-7.612867284160814",
      "lat": "40.978322452505104"
    },
    {
      "id": "pt.ine.add.PTCONT.5669754",
      "street": "AV CALOUSTE GULBENKIAN",
      "house": "",
      "postcode": "3620-369",
      "city": "MOIMENTA DA BEIRA",
      "lon": "-7.612878532579634",
      "lat": "40.97689076897159"
    }
  ]
}