{
  "data": {
    "distrito": "Santarém",
    "concelho": "Ourém",
    "freguesia": "Seiça",
    "OBJECTID": 685,
    "BGRI2021": "14211300330",
    "DT21": "14",
    "DTMN21": "1421",
    "DTMNFR21": "142113",
    "DTMNFRSEC21": "142113003",
    "SECNUM21": "003",
    "SSNUM21": "30",
    "SECSSNUM21": "00330",
    "OBJECTID_1": 158839,
    "DT": "14",
    "CC": "21",
    "fr": "13",
    "SEC": "003",
    "SS": "30"
  },
  "addresses": [
    {
      "id": "pt.ine.add.PTCONT.4401208",
      "street": "R LUIS FRIAS ANTUNES",
      "house": "15",
      "postcode": "2435-575",
      "city": "SEIÇA",
      "lon": "-8.490945250298305",
      "lat": "39.703193338598815"
    },
    {
      "id": "pt.ine.add.PTCONT.4401209",
      "street": "R LUIS FRIAS ANTUNES",
      "house": "13 P",
      "postcode": "2435-575",
      "city": "SEIÇA",
      "lon": "-8.490131007348632",
      "lat": "39.703574123452206"
    },
    {
      "id": "pt.ine.add.PTCONT.4434101",
      "street": "R LAVADOURO",
      "house": "2",
      "postcode": "2435-575",
      "city": "SEIÇA",
      "lon": "-8.491289692149017",
      "lat": "39.70215651422649"
    },
    {
      "id": "pt.ine.add.PTCONT.4442218",
      "street": "R ARRIMAS",
      "house": "19",
      "postcode": "2435-575",
      "city": "SEIÇA",
      "lon": "-8.487999219172922",
      "lat": "39.703967943657744"
    },
    {
      "id": "pt.ine.add.PTCONT.4442219",
      "street": "R LUIS FRIAS ANTUNES",
      "house": "19",
      "postcode": "2435-575",
      "city": "SEIÇA",
      "lon": "-8.487999219172922",
      "lat": "39.703967943657744"
    },
    {
      "id": "pt.ine.add.PTCONT.4470546",
      "street": "R LUIS FRIAS ANTUNES",
      "house": "5",
      "postcode": "2435-575",
      "city": "SEIÇA",
      "lon": "-8.48629860349192",
      "lat": "39.706603063834095"
    },
    {
      "id": "pt.ine.add.PTCONT.4510999",
      "street": "R LUIS FRIAS ANTUNES",
      "house": "13",
      "postcode": "2435-575",
      "city": "SEIÇA",
      "lon": "-8.487770306774559",
      "lat": "39.70480625942115"
    },
    {
      "id": "pt.ine.add.PTCONT.4524092",
      "street": "R VALE",
      "house": "1",
      "postcode": "2435-575",
      "city": "SEIÇA",
      "lon": "-8.48978009585003",
      "lat": "39.703359042814824"
    },
    {
      "id": "pt.ine.add.PTCONT.4527083",
      "street": "R LUIS FRIAS ANTUNES",
      "house": "3",
      "postcode": "2435-575",
      "city": "SEIÇA",
      "lon": "-8.485962835500088",
      "lat": "39.70707242913379"
    },
    {
      "id": "pt.ine.add.PTCONT.4540632",
      "street": "R LUIS FRIAS ANTUNES",
      "house": "11",
      "postcode": "2435-575",
      "city": "SEIÇA",
      "lon": "-8.487584343237176",
      "lat": "39.70492391343674"
    },
    {
      "id": "pt.ine.add.PTCONT.4543637",
      "street": "R LUIS FRIAS ANTUNES",
      "house": "",
      "postcode": "2435-575",
      "city": "SEIÇA",
      "lon": "-8.485543834728276",
      "lat": "39.70722681429459"
    },
    {
      "id": "pt.ine.add.PTCONT.4568746",
      "street": "R LUIS FRIAS ANTUNES",
      "house": "17",
      "postcode": "2435-575",
      "city": "SEIÇA",
      "lon": "-8.492109045647034",
      "lat": "39.702766434660695"
    },
    {
      "id": "pt.ine.add.PTCONT.4568764",
      "street": "R LAVADOURO",
      "house": "23",
      "postcode": "2435-575",
      "city": "SEIÇA",
      "lon": "-8.49258452786064",
      "lat": "39.702269598983705"
    },
    {
      "id": "pt.ine.add.PTCONT.4595865",
      "street": "R LUIS FRIAS ANTUNES",
      "house": "21",
      "postcode": "2435-575",
      "city": "SEIÇA",
      "lon": "-8.492433978995795",
      "lat": "39.70246821081707"
    },
    {
      "id": "pt.ine.add.PTCONT.4602038",
      "street": "R LUIS FRIAS ANTUNES",
      "house": "1",
      "postcode": "2435-575",
      "city": "SEIÇA",
      "lon": "-8.486161845196918",
      "lat": "39.70722493678015"
    },
    {
      "id": "pt.ine.add.PTCONT.4620806",
      "street": "R LAVADOURO",
      "house": "4",
      "postcode": "2435-575",
      "city": "SEIÇA",
      "lon": "-8.49152251369793",
      "lat": "39.70208374276213"
    },
    {
      "id": "pt.ine.add.PTCONT.4637256",
      "street": "R LUIS FRIAS ANTUNES",
      "house": "9",
      "postcode": "2435-575",
      "city": "SEIÇA",
      "lon": "-8.486389177230704",
      "lat": "39.70607139744362"
    },
    {
      "id": "pt.ine.add.PTCONT.4637458",
      "street": "R LUIS FRIAS ANTUNES",
      "house": "9",
      "postcode": "2435-575",
      "city": "SEIÇA",
      "lon": "-8.486389177230704",
      "lat": "39.70607139744362"
    },
    {
      "id": "pt.ine.add.PTCONT.4641994",
      "street": "R VALE",
      "house": "3",
      "postcode": "2435-575",
      "city": "SEIÇA",
      "lon": "-8.489780976851083",
      "lat": "39.70353016604766"
    },
    {
      "id": "pt.ine.add.PTCONT.4650327",
      "street": "R LAVADOURO",
      "house": "6",
      "postcode": "2435-575",
      "city": "SEIÇA",
      "lon": "-8.492234502459326",
      "lat": "39.70222564894293"
    },
    {
      "id": "pt.ine.add.PTCONT.4661579",
      "street": "R BECO DA FONTE",
      "house": "",
      "postcode": "2435-575",
      "city": "SEIÇA",
      "lon": "-8.487710853410071",
      "lat": "39.70458127533387"
    }
  ]
}