{
  "data": {
    "distrito": "Coimbra",
    "concelho": "Coimbra",
    "freguesia": "Ceira",
    "OBJECTID": 885,
    "BGRI2021": "06031100320",
    "DT21": "06",
    "DTMN21": "0603",
    "DTMNFR21": "060311",
    "DTMNFRSEC21": "060311003",
    "SECNUM21": "003",
    "SSNUM21": "20",
    "SECSSNUM21": "00320",
    "OBJECTID_1": 49023,
    "DT": "06",
    "CC": "03",
    "fr": "11",
    "SEC": "003",
    "SS": "20"
  },
  "addresses": [
    {
      "id": "pt.ine.add.PTCONT.1100253",
      "street": "R PARREIRAS",
      "house": "17",
      "postcode": "3030-881",
      "city": "CEIRA",
      "lon": "-8.374962070182582",
      "lat": "40.181662959330225"
    },
    {
      "id": "pt.ine.add.PTCONT.1108212",
      "street": "",
      "house": "",
      "postcode": "3030-881",
      "city": "CEIRA",
      "lon": "-8.374810325346033",
      "lat": "40.181915441477656"
    },
    {
      "id": "pt.ine.add.PTCONT.1110444",
      "street": "R NSA SRA LURDES",
      "house": "72",
      "postcode": "3030-881",
      "city": "CEIRA",
      "lon": "-8.373910046210002",
      "lat": "40.182998025589754"
    },
    {
      "id": "pt.ine.add.PTCONT.1112511",
      "street": "R EIRA",
      "house": "16",
      "postcode": "3030-881",
      "city": "CEIRA",
      "lon": "-8.375959071262546",
      "lat": "40.181372683443314"
    },
    {
      "id": "pt.ine.add.PTCONT.1114601",
      "street": "R EIRA",
      "house": "38",
      "postcode": "3030-881",
      "city": "CEIRA",
      "lon": "-8.375924167929709",
      "lat": "40.18146281567487"
    },
    {
      "id": "pt.ine.add.PTCONT.1117194",
      "street": "R NSA SRA LURDES",
      "house": "66",
      "postcode": "3030-881",
      "city": "CEIRA",
      "lon": "-8.37381391611015",
      "lat": "40.18237681834891"
    },
    {
      "id": "pt.ine.add.PTCONT.1120674",
      "street": "R EIRA",
      "house": "14",
      "postcode": "3030-881",
      "city": "CEIRA",
      "lon": "-8.375970459497534",
      "lat": "40.181273594627186"
    },
    {
      "id": "pt.ine.add.PTCONT.1129014",
      "street": "R PARREIRAS",
      "house": "2",
      "postcode": "3030-881",
      "city": "CEIRA",
      "lon": "-8.374809782047327",
      "lat": "40.18176234228058"
    },
    {
      "id": "pt.ine.add.PTCONT.1131156",
      "street": "R EIRA",
      "house": "4",
      "postcode": "3030-881",
      "city": "CEIRA",
      "lon": "-8.375781312908105",
      "lat": "40.18091375512846"
    },
    {
      "id": "pt.ine.add.PTCONT.1135375",
      "street": "TV PARREIRAS",
      "house": "",
      "postcode": "3030-881",
      "city": "CEIRA",
      "lon": "-8.37506783978319",
      "lat": "40.1816897560367"
    },
    {
      "id": "pt.ine.add.PTCONT.1139694",
      "street": "R FONTE",
      "house": "8",
      "postcode": "3030-881",
      "city": "CEIRA",
      "lon": "-8.374950808326941",
      "lat": "40.181798071385494"
    },
    {
      "id": "pt.ine.add.PTCONT.1143081",
      "street": "R NSA SRA LURDES",
      "house": "8",
      "postcode": "3030-881",
      "city": "CEIRA",
      "lon": "-8.375807170318023",
      "lat": "40.18158013772322"
    },
    {
      "id": "pt.ine.add.PTCONT.1146732",
      "street": "R ADRO CAPELA",
      "house": "1",
      "postcode": "3030-881",
      "city": "CEIRA",
      "lon": "-8.374050883426774",
      "lat": "40.18297972077407"
    },
    {
      "id": "pt.ine.add.PTCONT.1152542",
      "street": "R NSA SRA LURDES",
      "house": "",
      "postcode": "3030-881",
      "city": "CEIRA",
      "lon": "-8.374374898776802",
      "lat": "40.18163716672869"
    },
    {
      "id": "pt.ine.add.PTCONT.1169434",
      "street": "R NSA SRA LURDES",
      "house": "64",
      "postcode": "3030-881",
      "city": "CEIRA",
      "lon": "-8.374367176709276",
      "lat": "40.182771926387126"
    },
    {
      "id": "pt.ine.add.PTCONT.1176396",
      "street": "R PARREIRAS",
      "house": "3",
      "postcode": "3030-881",
      "city": "CEIRA",
      "lon": "-8.374668500395869",
      "lat": "40.18165456631963"
    },
    {
      "id": "pt.ine.add.PTCONT.1191636",
      "street": "R PEDRA LONGA",
      "house": "10",
      "postcode": "3030-901",
      "city": "CEIRA",
      "lon": "-8.375921879949624",
      "lat": "40.17752723982796"
    },
    {
      "id": "pt.ine.add.PTCONT.1194282",
      "street": "",
      "house": "",
      "postcode": "3030-881",
      "city": "CEIRA",
      "lon": "-8.374504502237505",
      "lat": "40.181762979202716"
    },
    {
      "id": "pt.ine.add.PTCONT.1198018",
      "street": "R ADRO DA CAPELA",
      "house": "10",
      "postcode": "3030-881",
      "city": "CEIRA",
      "lon": "-8.373955866696862",
      "lat": "40.18267371786401"
    },
    {
      "id": "pt.ine.add.PTCONT.1199477",
      "street": "TV PARREIRA",
      "house": "9",
      "postcode": "3030-881",
      "city": "CEIRA",
      "lon": "-8.3749746112058",
      "lat": "40.18188808067956"
    },
    {
      "id": "pt.ine.add.PTCONT.1212079",
      "street": "R NSA SRA LURDES",
      "house": "14",
      "postcode": "3030-881",
      "city": "CEIRA",
      "lon": "-8.375654659114485",
      "lat": "40.18161648093843"
    },
    {
      "id": "pt.ine.add.PTCONT.1215360",
      "street": "TV PARREIRAS",
      "house": "",
      "postcode": "3030-881",
      "city": "CEIRA",
      "lon": "-8.375068255689035",
      "lat": "40.18180683189289"
    },
    {
      "id": "pt.ine.add.PTCONT.1216957",
      "street": "TV PARREIRA",
      "house": "16",
      "postcode": "3030-881",
      "city": "CEIRA",
      "lon": "-8.375080509139739",
      "lat": "40.181950900711676"
    },
    {
      "id": "pt.ine.add.PTCONT.1220230",
      "street": "TV PARREIRA",
      "house": "",
      "postcode": "3030-881",
      "city": "CEIRA",
      "lon": "-8.375408888448334",
      "lat": "40.181842143108256"
    },
    {
      "id": "pt.ine.add.PTCONT.1223406",
      "street": "R FONTE",
      "house": "",
      "postcode": "3030-881",
      "city": "CEIRA",
      "lon": "-8.376014566857972",
      "lat": "40.18047197670932"
    },
    {
      "id": "pt.ine.add.PTCONT.1227650",
      "street": "R NSA SRA LURDES",
      "house": "18",
      "postcode": "3030-881",
      "city": "CEIRA",
      "lon": "-8.375525662823359",
      "lat": "40.181661780620225"
    },
    {
      "id": "pt.ine.add.PTCONT.1233674",
      "street": "TV PARREIRA",
      "house": "",
      "postcode": "3030-881",
      "city": "CEIRA",
      "lon": "-8.375173833513696",
      "lat": "40.18177959349135"
    },
    {
      "id": "pt.ine.add.PTCONT.1241258",
      "street": "TV PARREIRAS",
      "house": "",
      "postcode": "3030-881",
      "city": "CEIRA",
      "lon": "-8.37524377045947",
      "lat": "40.18163535281278"
    },
    {
      "id": "pt.ine.add.PTCONT.1243860",
      "street": "R FONTE",
      "house": "14",
      "postcode": "3030-881",
      "city": "CEIRA",
      "lon": "-8.375233309534785",
      "lat": "40.18199561076373"
    },
    {
      "id": "pt.ine.add.PTCONT.1243861",
      "street": "R FONTE",
      "house": "",
      "postcode": "3030-881",
      "city": "CEIRA",
      "lon": "-8.375373279417442",
      "lat": "40.18173414680482"
    },
    {
      "id": "pt.ine.add.PTCONT.1246536",
      "street": "R NSA SRA LURDES",
      "house": "76",
      "postcode": "3030-881",
      "city": "CEIRA",
      "lon": "-8.374492409623246",
      "lat": "40.181663939492815"
    },
    {
      "id": "pt.ine.add.PTCONT.1248068",
      "street": "R EIRA",
      "house": "",
      "postcode": "3030-881",
      "city": "CEIRA",
      "lon": "-8.376013250095282",
      "lat": "40.18010273740294"
    },
    {
      "id": "pt.ine.add.PTCONT.1254545",
      "street": "R NSA SRA LURDES",
      "house": "4",
      "postcode": "3030-881",
      "city": "CEIRA",
      "lon": "-8.375864401315907",
      "lat": "40.18116574622389"
    },
    {
      "id": "pt.ine.add.PTCONT.1260673",
      "street": "R PARREIRAS",
      "house": "21",
      "postcode": "3030-881",
      "city": "CEIRA",
      "lon": "-8.375419829009957",
      "lat": "40.18161697266221"
    },
    {
      "id": "pt.ine.add.PTCONT.1274427",
      "street": "R FONTE",
      "house": "22",
      "postcode": "3030-881",
      "city": "CEIRA",
      "lon": "-8.37460950544521",
      "lat": "40.18157363627481"
    },
    {
      "id": "pt.ine.add.PTCONT.1288512",
      "street": "R FONTE",
      "house": "5",
      "postcode": "3030-881",
      "city": "CEIRA",
      "lon": "-8.374906527802247",
      "lat": "40.18255465958389"
    },
    {
      "id": "pt.ine.add.PTCONT.1295491",
      "street": "R PEDRA LONGA",
      "house": "24",
      "postcode": "3030-901",
      "city": "CEIRA",
      "lon": "-8.375889706754512",
      "lat": "40.1783828685361"
    },
    {
      "id": "pt.ine.add.PTCONT.1297398",
      "street": "TV PARREIRA",
      "house": "",
      "postcode": "3030-881",
      "city": "CEIRA",
      "lon": "-8.37542037367712",
      "lat": "40.18177007185623"
    },
    {
      "id": "pt.ine.add.PTCONT.1307369",
      "street": "R NSA SRA LURDES",
      "house": "50",
      "postcode": "3030-881",
      "city": "CEIRA",
      "lon": "-8.374648754065277",
      "lat": "40.18270829797289"
    },
    {
      "id": "pt.ine.add.PTCONT.1311255",
      "street": "R EIRA",
      "house": "",
      "postcode": "3030-881",
      "city": "CEIRA",
      "lon": "-8.375417522230565",
      "lat": "40.180968552501206"
    },
    {
      "id": "pt.ine.add.PTCONT.1319155",
      "street": "R NSA SRA LURDES",
      "house": "78",
      "postcode": "3030-881",
      "city": "CEIRA",
      "lon": "-8.373709959328746",
      "lat": "40.18286335307704"
    },
    {
      "id": "pt.ine.add.PTCONT.1319158",
      "street": "R EIRA",
      "house": "",
      "postcode": "3030-881",
      "city": "CEIRA",
      "lon": "-8.375720905856037",
      "lat": "40.180436568840975"
    },
    {
      "id": "pt.ine.add.PTCONT.1323376",
      "street": "LG CAPELA",
      "house": "",
      "postcode": "3030-881",
      "city": "CEIRA",
      "lon": "-8.374109209726074",
      "lat": "40.18287152857182"
    },
    {
      "id": "pt.ine.add.PTCONT.1325409",
      "street": "R NSA SRA LURDES",
      "house": "62",
      "postcode": "3030-881",
      "city": "CEIRA",
      "lon": "-8.374484466095481",
      "lat": "40.18273565831089"
    },
    {
      "id": "pt.ine.add.PTCONT.1327412",
      "street": "R FONTE",
      "house": "13",
      "postcode": "3030-881",
      "city": "CEIRA",
      "lon": "-8.375128019408985",
      "lat": "40.18210390173047"
    },
    {
      "id": "pt.ine.add.PTCONT.1330191",
      "street": "R NSA SRA LURDES",
      "house": "22",
      "postcode": "3030-881",
      "city": "CEIRA",
      "lon": "-8.375337414274572",
      "lat": "40.18155410380684"
    },
    {
      "id": "pt.ine.add.PTCONT.1330192",
      "street": "R NSA SRA LURDES",
      "house": "22",
      "postcode": "3030-881",
      "city": "CEIRA",
      "lon": "-8.375337414274572",
      "lat": "40.18155410380684"
    },
    {
      "id": "pt.ine.add.PTCONT.1331851",
      "street": "R NSA SRA LURDES",
      "house": "40",
      "postcode": "3030-881",
      "city": "CEIRA",
      "lon": "-8.37536230665312",
      "lat": "40.18195031140785"
    },
    {
      "id": "pt.ine.add.PTCONT.1333611",
      "street": "R FONTE",
      "house": "21",
      "postcode": "3030-881",
      "city": "CEIRA",
      "lon": "-8.375045572360357",
      "lat": "40.18203202683897"
    },
    {
      "id": "pt.ine.add.PTCONT.1339791",
      "street": "EIRA",
      "house": "8",
      "postcode": "3030-881",
      "city": "CEIRA",
      "lon": "-8.37575446150341",
      "lat": "40.179968191496535"
    },
    {
      "id": "pt.ine.add.PTCONT.1346499",
      "street": "R FONTE",
      "house": "9",
      "postcode": "3030-881",
      "city": "CEIRA",
      "lon": "-8.374917853810679",
      "lat": "40.182437559218286"
    },
    {
      "id": "pt.ine.add.PTCONT.1361618",
      "street": "R LAGOAS",
      "house": "444",
      "postcode": "3030-881",
      "city": "CEIRA",
      "lon": "-8.376216804845395",
      "lat": "40.18121003628986"
    }
  ]
}