{
  "data": {
    "distrito": "Faro",
    "concelho": "Portim√£o",
    "freguesia": "Mexilhoeira Grande",
    "OBJECTID": 179,
    "BGRI2021": "08110200519",
    "DT21": "08",
    "DTMN21": "0811",
    "DTMNFR21": "081102",
    "DTMNFRSEC21": "081102005",
    "SECNUM21": "005",
    "SSNUM21": "19",
    "SECSSNUM21": "00519",
    "OBJECTID_1": 70872,
    "DT": "08",
    "CC": "11",
    "fr": "02",
    "SEC": "005",
    "SS": "19"
  },
  "addresses": [
    {
      "id": "pt.ine.add.PTCONT.1476728",
      "street": "SIT VALE FURTADO",
      "house": "",
      "postcode": "8500-142",
      "city": "MEXILHOEIRA GRANDE",
      "lon": "-8.605933232875968",
      "lat": "37.22811861252314"
    },
    {
      "id": "pt.ine.add.PTCONT.1497080",
      "street": "SIT MONTES DE CIMA",
      "house": "",
      "postcode": "8500-142",
      "city": "MEXILHOEIRA GRANDE",
      "lon": "-8.609355938973124",
      "lat": "37.23842178861263"
    },
    {
      "id": "pt.ine.add.PTCONT.1508784",
      "street": "SIT VALE DE BOTAS QTA VALVERDE",
      "house": "",
      "postcode": "8500-152",
      "city": "MEXILHOEIRA GRANDE",
      "lon": "-8.600756282365886",
      "lat": "37.22367902023361"
    },
    {
      "id": "pt.ine.add.PTCONT.1508785",
      "street": "SIT MOINHO DA ROCHA",
      "house": "",
      "postcode": "8500-140",
      "city": "MEXILHOEIRA GRANDE",
      "lon": "-8.590620532811487",
      "lat": "37.2338282733583"
    },
    {
      "id": "pt.ine.add.PTCONT.1514180",
      "street": "",
      "house": "",
      "postcode": "8500-152",
      "city": "MEXILHOEIRA GRANDE",
      "lon": "-8.590561363883568",
      "lat": "37.224034199846045"
    },
    {
      "id": "pt.ine.add.PTCONT.1543576",
      "street": "",
      "house": "",
      "postcode": "8500-152",
      "city": "MEXILHOEIRA GRANDE",
      "lon": "-8.589973221032299",
      "lat": "37.225532197084625"
    },
    {
      "id": "pt.ine.add.PTCONT.1560622",
      "street": "",
      "house": "",
      "postcode": "8500-152",
      "city": "MEXILHOEIRA GRANDE",
      "lon": "-8.591587612195541",
      "lat": "37.22418340850346"
    },
    {
      "id": "pt.ine.add.PTCONT.1582013",
      "street": "SIT VALE FURTADO",
      "house": "",
      "postcode": "8500-142",
      "city": "MEXILHOEIRA GRANDE",
      "lon": "-8.60756869737205",
      "lat": "37.23196851878884"
    },
    {
      "id": "pt.ine.add.PTCONT.1582014",
      "street": "SIT VALE FURTADO",
      "house": "",
      "postcode": "8500-142",
      "city": "MEXILHOEIRA GRANDE",
      "lon": "-8.60756869737205",
      "lat": "37.23196851878884"
    },
    {
      "id": "pt.ine.add.PTCONT.1588009",
      "street": "SIT VALE FURTADO",
      "house": "",
      "postcode": "8500-142",
      "city": "MEXILHOEIRA GRANDE",
      "lon": "-8.60671161833841",
      "lat": "37.23006174698651"
    },
    {
      "id": "pt.ine.add.PTCONT.1588010",
      "street": "",
      "house": "",
      "postcode": "8500-152",
      "city": "MEXILHOEIRA GRANDE",
      "lon": "-8.591438668762782",
      "lat": "37.22749981287195"
    },
    {
      "id": "pt.ine.add.PTCONT.1592986",
      "street": "",
      "house": "",
      "postcode": "8500-152",
      "city": "MEXILHOEIRA GRANDE",
      "lon": "-8.589917318355361",
      "lat": "37.2256044959374"
    },
    {
      "id": "pt.ine.add.PTCONT.1603859",
      "street": "",
      "house": "",
      "postcode": "8500-152",
      "city": "MEXILHOEIRA GRANDE",
      "lon": "-8.606429356100833",
      "lat": "37.228170693149735"
    },
    {
      "id": "pt.ine.add.PTCONT.1610061",
      "street": "EM 532",
      "house": "",
      "postcode": "8500-140",
      "city": "MEXILHOEIRA GRANDE",
      "lon": "-8.589803858515854",
      "lat": "37.232948407244216"
    },
    {
      "id": "pt.ine.add.PTCONT.1621929",
      "street": "MTE VIDAL",
      "house": "",
      "postcode": "8500-152",
      "city": "MEXILHOEIRA GRANDE",
      "lon": "-8.589790910199648",
      "lat": "37.22706466850238"
    },
    {
      "id": "pt.ine.add.PTCONT.1626865",
      "street": "EM 532",
      "house": "",
      "postcode": "8500-142",
      "city": "MEXILHOEIRA GRANDE",
      "lon": "-8.609011972878083",
      "lat": "37.241072221588674"
    },
    {
      "id": "pt.ine.add.PTCONT.1641320",
      "street": "SIT MONTES DE CIMA",
      "house": "",
      "postcode": "8500-142",
      "city": "MEXILHOEIRA GRANDE",
      "lon": "-8.609374351077191",
      "lat": "37.23955702190764"
    },
    {
      "id": "pt.ine.add.PTCONT.1679792",
      "street": "SIT VALE DE BOTAS QTA VALVERDE",
      "house": "",
      "postcode": "8500-152",
      "city": "MEXILHOEIRA GRANDE",
      "lon": "-8.600272237477414",
      "lat": "37.2237530136926"
    },
    {
      "id": "pt.ine.add.PTCONT.1683412",
      "street": "SIT MONTES DE CIMA",
      "house": "",
      "postcode": "8500-142",
      "city": "MEXILHOEIRA GRANDE",
      "lon": "-8.60925580961017",
      "lat": "37.23683636475424"
    },
    {
      "id": "pt.ine.add.PTCONT.1699688",
      "street": "",
      "house": "",
      "postcode": "8500-152",
      "city": "MEXILHOEIRA GRANDE",
      "lon": "-8.589777937516702",
      "lat": "37.22865054881744"
    },
    {
      "id": "pt.ine.add.PTCONT.1745836",
      "street": "SIT VALE LAMATEIRO CASA MEDRONHERA",
      "house": "",
      "postcode": "8500-140",
      "city": "MEXILHOEIRA GRANDE",
      "lon": "-8.594302476196463",
      "lat": "37.22963316995492"
    },
    {
      "id": "pt.ine.add.PTCONT.1763530",
      "street": "ESTR MONTES DE CIMA",
      "house": "",
      "postcode": "8500-142",
      "city": "MEXILHOEIRA GRANDE",
      "lon": "-8.595126315653784",
      "lat": "37.2335314586072"
    },
    {
      "id": "pt.ine.add.PTCONT.1788268",
      "street": "QTA LUSITANA",
      "house": "",
      "postcode": "8500-152",
      "city": "MEXILHOEIRA GRANDE",
      "lon": "-8.590395510131799",
      "lat": "37.22455744378757"
    },
    {
      "id": "pt.ine.add.PTCONT.1796519",
      "street": "",
      "house": "",
      "postcode": "8500-152",
      "city": "MEXILHOEIRA GRANDE",
      "lon": "-8.590409171218631",
      "lat": "37.22495384881188"
    },
    {
      "id": "pt.ine.add.PTCONT.1812543",
      "street": "EM 532",
      "house": "",
      "postcode": "8500-142",
      "city": "MEXILHOEIRA GRANDE",
      "lon": "-8.608270218269366",
      "lat": "37.23960650928137"
    },
    {
      "id": "pt.ine.add.PTCONT.1817094",
      "street": "SIT VALE FURTADO",
      "house": "",
      "postcode": "8500-142",
      "city": "MEXILHOEIRA GRANDE",
      "lon": "-8.606182850511903",
      "lat": "37.232001093960214"
    },
    {
      "id": "pt.ine.add.PTCONT.1824939",
      "street": "SIT MONTES DE CIMA",
      "house": "",
      "postcode": "8500-142",
      "city": "MEXILHOEIRA GRANDE",
      "lon": "-8.609116959131427",
      "lat": "37.238053324006685"
    },
    {
      "id": "pt.ine.add.PTCONT.1847188",
      "street": "SIT MOINHO DA ROCHA",
      "house": "",
      "postcode": "8500-140",
      "city": "MEXILHOEIRA GRANDE",
      "lon": "-8.590490154089784",
      "lat": "37.2327655508455"
    }
  ]
}