{
  "data": {
    "distrito": "Braga",
    "concelho": "Vila Verde",
    "freguesia": "União das freguesias da Ribeira do Neiva",
    "OBJECTID": 495,
    "BGRI2021": "03136000216",
    "DT21": "03",
    "DTMN21": "0313",
    "DTMNFR21": "031360",
    "DTMNFRSEC21": "031360002",
    "SECNUM21": "002",
    "SSNUM21": "16",
    "SECSSNUM21": "00216",
    "OBJECTID_1": 31879,
    "DT": "03",
    "CC": "13",
    "fr": "60",
    "SEC": "002",
    "SS": "16"
  },
  "addresses": [
    {
      "id": "pt.ine.add.PTCONT.472839",
      "street": "SIT BOAVISTA",
      "house": "3Q",
      "postcode": "4730-050",
      "city": "AZÕES",
      "lon": "-8.506129655569959",
      "lat": "41.6955547045214"
    },
    {
      "id": "pt.ine.add.PTCONT.483096",
      "street": "LUGAR DA PARREIRA",
      "house": "",
      "postcode": "4730-050",
      "city": "AZÕES",
      "lon": "-8.502967568688298",
      "lat": "41.69507873428272"
    },
    {
      "id": "pt.ine.add.PTCONT.483097",
      "street": "LUGAR DA PARREIRA",
      "house": "",
      "postcode": "4730-050",
      "city": "AZÕES",
      "lon": "-8.502967568688298",
      "lat": "41.69507873428272"
    },
    {
      "id": "pt.ine.add.PTCONT.502588",
      "street": "SIT BOAVISTA",
      "house": "6Q",
      "postcode": "4730-050",
      "city": "AZÕES",
      "lon": "-8.505759189409158",
      "lat": "41.695889036671836"
    },
    {
      "id": "pt.ine.add.PTCONT.544285",
      "street": "SIT AMARELHA",
      "house": "3R",
      "postcode": "4730-050",
      "city": "AZÕES",
      "lon": "-8.502728298754333",
      "lat": "41.69525057099886"
    },
    {
      "id": "pt.ine.add.PTCONT.555957",
      "street": "SIT PARREIRA",
      "house": "6R",
      "postcode": "4730-050",
      "city": "AZÕES",
      "lon": "-8.502957361481931",
      "lat": "41.69539389041934"
    },
    {
      "id": "pt.ine.add.PTCONT.585291",
      "street": "SIT AMARELHA",
      "house": "16P",
      "postcode": "4730-050",
      "city": "AZÕES",
      "lon": "-8.503564007260424",
      "lat": "41.69434752785181"
    },
    {
      "id": "pt.ine.add.PTCONT.587982",
      "street": "SIT BOAVISTA",
      "house": "8Q",
      "postcode": "4730-050",
      "city": "AZÕES",
      "lon": "-8.506139071931445",
      "lat": "41.69718431114036"
    },
    {
      "id": "pt.ine.add.PTCONT.622750",
      "street": "SIT VENTOSA",
      "house": "3T",
      "postcode": "4730-050",
      "city": "AZÕES",
      "lon": "-8.504917494405468",
      "lat": "41.69783652310481"
    },
    {
      "id": "pt.ine.add.PTCONT.622751",
      "street": "SIT BOAVISTA",
      "house": "1Q",
      "postcode": "4730-050",
      "city": "AZÕES",
      "lon": "-8.505572559119065",
      "lat": "41.69477320494928"
    },
    {
      "id": "pt.ine.add.PTCONT.652504",
      "street": "SIT PARREIRA",
      "house": "13R",
      "postcode": "4730-050",
      "city": "AZÕES",
      "lon": "-8.501533420054525",
      "lat": "41.69637084444258"
    },
    {
      "id": "pt.ine.add.PTCONT.661487",
      "street": "SIT PARREIRA",
      "house": "52",
      "postcode": "4730-050",
      "city": "AZÕES",
      "lon": "-8.50258461251716",
      "lat": "41.695332064733336"
    },
    {
      "id": "pt.ine.add.PTCONT.685135",
      "street": "SIT PARREIRA",
      "house": "7R",
      "postcode": "4730-050",
      "city": "AZÕES",
      "lon": "-8.502322911756831",
      "lat": "41.69578308189129"
    },
    {
      "id": "pt.ine.add.PTCONT.685451",
      "street": "SIT PARREIRA",
      "house": "8R",
      "postcode": "4730-050",
      "city": "AZÕES",
      "lon": "-8.502573733569925",
      "lat": "41.69553017719728"
    },
    {
      "id": "pt.ine.add.PTCONT.692735",
      "street": "SIT BOAVISTA",
      "house": "7Q",
      "postcode": "4730-050",
      "city": "AZÕES",
      "lon": "-8.505883318656425",
      "lat": "41.696581905192176"
    },
    {
      "id": "pt.ine.add.PTCONT.705831",
      "street": "SIT PARREIRA",
      "house": "142",
      "postcode": "4730-050",
      "city": "AZÕES",
      "lon": "-8.501616995071716",
      "lat": "41.696280541277346"
    },
    {
      "id": "pt.ine.add.PTCONT.729844",
      "street": "SIT PARREIRA",
      "house": "10R",
      "postcode": "4730-050",
      "city": "AZÕES",
      "lon": "-8.502130195542108",
      "lat": "41.695693665644924"
    },
    {
      "id": "pt.ine.add.PTCONT.765803",
      "street": "",
      "house": "",
      "postcode": "4730-050",
      "city": "AZÕES",
      "lon": "-8.506035479500154",
      "lat": "41.695888140449455"
    },
    {
      "id": "pt.ine.add.PTCONT.771920",
      "street": "QTA CAPELA",
      "house": "17P",
      "postcode": "4730-050",
      "city": "AZÕES",
      "lon": "-8.503938251166248",
      "lat": "41.6946704477328"
    },
    {
      "id": "pt.ine.add.PTCONT.816960",
      "street": "SIT PARREIRA",
      "house": "1R",
      "postcode": "4730-050",
      "city": "AZÕES",
      "lon": "-8.503146207528395",
      "lat": "41.69480805354785"
    },
    {
      "id": "pt.ine.add.PTCONT.845738",
      "street": "",
      "house": "",
      "postcode": "4730-050",
      "city": "AZÕES",
      "lon": "-8.506035479500154",
      "lat": "41.695888140449455"
    }
  ]
}