{
  "data": {
    "distrito": "Viana do Castelo",
    "concelho": "Caminha",
    "freguesia": "União das freguesias de Arga (Baixo, Cima e São João)",
    "OBJECTID": 118,
    "BGRI2021": "16022100105",
    "DT21": "16",
    "DTMN21": "1602",
    "DTMNFR21": "160221",
    "DTMNFRSEC21": "160221001",
    "SECNUM21": "001",
    "SSNUM21": "05",
    "SECSSNUM21": "00105",
    "OBJECTID_1": 172464,
    "DT": "16",
    "CC": "02",
    "fr": "21",
    "SEC": "001",
    "SS": "05"
  },
  "addresses": [
    {
      "id": "pt.ine.add.PTCONT.5156396",
      "street": "ALMERINDA LÚZIA DA SILVA AFONSO",
      "house": "",
      "postcode": "4910-035",
      "city": "ARGA DE BAIXO",
      "lon": "-8.713206268481331",
      "lat": "41.846474874241125"
    },
    {
      "id": "pt.ine.add.PTCONT.5179524",
      "street": "",
      "house": "",
      "postcode": "4910-035",
      "city": "ARGA DE BAIXO",
      "lon": "-8.712664126457188",
      "lat": "41.84644159811679"
    },
    {
      "id": "pt.ine.add.PTCONT.5205896",
      "street": "",
      "house": "",
      "postcode": "4910-035",
      "city": "ARGA DE BAIXO",
      "lon": "-8.712499478645272",
      "lat": "41.84554210321334"
    },
    {
      "id": "pt.ine.add.PTCONT.5206101",
      "street": "OLIVIA ROSA GONSALVES COSTINHA",
      "house": "",
      "postcode": "4910-035",
      "city": "ARGA DE BAIXO",
      "lon": "-8.712608409180097",
      "lat": "41.84560457645832"
    },
    {
      "id": "pt.ine.add.PTCONT.5220324",
      "street": "MARIA DE FÁTIMA GONÇALVES LOURENÇO",
      "house": "",
      "postcode": "4910-035",
      "city": "ARGA DE BAIXO",
      "lon": "-8.71328990039033",
      "lat": "41.846402425773825"
    },
    {
      "id": "pt.ine.add.PTCONT.5226845",
      "street": "MARIA DO CARMO GONSALVES",
      "house": "",
      "postcode": "4910-035",
      "city": "ARGA DE BAIXO",
      "lon": "-8.712414547490665",
      "lat": "41.845470505563014"
    },
    {
      "id": "pt.ine.add.PTCONT.5238753",
      "street": "",
      "house": "",
      "postcode": "4910-035",
      "city": "ARGA DE BAIXO",
      "lon": "-8.71348441562474",
      "lat": "41.84527603604361"
    },
    {
      "id": "pt.ine.add.PTCONT.5240230",
      "street": "MARIA DO CARMO GONSALVES",
      "house": "",
      "postcode": "4910-035",
      "city": "ARGA DE BAIXO",
      "lon": "-8.713218881652953",
      "lat": "41.84520535144048"
    },
    {
      "id": "pt.ine.add.PTCONT.5266177",
      "street": "MARIA DE FÁTIMA GONÇALVES LOURENÇO",
      "house": "",
      "postcode": "4910-035",
      "city": "ARGA DE BAIXO",
      "lon": "-8.714076189258236",
      "lat": "41.84680359769147"
    },
    {
      "id": "pt.ine.add.PTCONT.5276991",
      "street": "ANTÓNIO GONÇALVES VILA VERDE",
      "house": "",
      "postcode": "4910-035",
      "city": "ARGA DE BAIXO",
      "lon": "-8.713086596523958",
      "lat": "41.84655650789598"
    }
  ]
}