{
  "data": {
    "distrito": "Viseu",
    "concelho": "Tarouca",
    "freguesia": "Mondim da Beira",
    "OBJECTID": 181,
    "BGRI2021": "18200400110",
    "DT21": "18",
    "DTMN21": "1820",
    "DTMNFR21": "182004",
    "DTMNFRSEC21": "182004001",
    "SECNUM21": "001",
    "SSNUM21": "10",
    "SECSSNUM21": "00110",
    "OBJECTID_1": 198596,
    "DT": "18",
    "CC": "20",
    "fr": "04",
    "SEC": "001",
    "SS": "10"
  },
  "addresses": [
    {
      "id": "pt.ine.add.PTCONT.5435003",
      "street": "R PROF JOÃO ANTÓNIO LOPES RIBEIRO",
      "house": "14",
      "postcode": "3610-052",
      "city": "MONDIM DA BEIRA",
      "lon": "-7.746851279738414",
      "lat": "41.01596622596201"
    },
    {
      "id": "pt.ine.add.PTCONT.5441953",
      "street": "R PROF JOÃO ANTÓNIO LOPES RIBEIRO",
      "house": "18",
      "postcode": "3610-052",
      "city": "MONDIM DA BEIRA",
      "lon": "-7.746850806365732",
      "lat": "41.01604726561333"
    },
    {
      "id": "pt.ine.add.PTCONT.5451770",
      "street": "R PROF JOÃO ANTÓNIO LOPES RIBEIRO",
      "house": "",
      "postcode": "3610-052",
      "city": "MONDIM DA BEIRA",
      "lon": "-7.746683634232519",
      "lat": "41.01617276943464"
    },
    {
      "id": "pt.ine.add.PTCONT.5451771",
      "street": "R OURO",
      "house": "",
      "postcode": "3610-055",
      "city": "MONDIM DA BEIRA",
      "lon": "-7.745184341583421",
      "lat": "41.01842788280354"
    },
    {
      "id": "pt.ine.add.PTCONT.5458900",
      "street": "R FERNANDES CANHAO",
      "house": "14",
      "postcode": "3610-051",
      "city": "MONDIM DA BEIRA",
      "lon": "-7.7465615933229515",
      "lat": "41.01671263510159"
    },
    {
      "id": "pt.ine.add.PTCONT.5461419",
      "street": "TV TERREIRO",
      "house": "4",
      "postcode": "3610-055",
      "city": "MONDIM DA BEIRA",
      "lon": "-7.745166111430181",
      "lat": "41.01748234068777"
    },
    {
      "id": "pt.ine.add.PTCONT.5476956",
      "street": "R FERNANDES CANHAO",
      "house": "4",
      "postcode": "3610-051",
      "city": "MONDIM DA BEIRA",
      "lon": "-7.746837129749573",
      "lat": "41.0163533755577"
    },
    {
      "id": "pt.ine.add.PTCONT.5480602",
      "street": "TV TERREIRO",
      "house": "",
      "postcode": "3610-055",
      "city": "MONDIM DA BEIRA",
      "lon": "-7.744893204540105",
      "lat": "41.01739137605038"
    },
    {
      "id": "pt.ine.add.PTCONT.5493763",
      "street": "R FERNANDES CANHAO",
      "house": "6",
      "postcode": "3610-051",
      "city": "MONDIM DA BEIRA",
      "lon": "-7.7467655895013365",
      "lat": "41.016389154117185"
    },
    {
      "id": "pt.ine.add.PTCONT.5520900",
      "street": "AV 25 DE ABRIL",
      "house": "17",
      "postcode": "3610-051",
      "city": "MONDIM DA BEIRA",
      "lon": "-7.744815158199491",
      "lat": "41.0185346946418"
    },
    {
      "id": "pt.ine.add.PTCONT.5520901",
      "street": "R FERNANDES CANHAO",
      "house": "12",
      "postcode": "3610-051",
      "city": "MONDIM DA BEIRA",
      "lon": "-7.746526612575672",
      "lat": "41.01659545823418"
    },
    {
      "id": "pt.ine.add.PTCONT.5529888",
      "street": "R FERNANDES CANHÃO",
      "house": "10",
      "postcode": "3610-051",
      "city": "MONDIM DA BEIRA",
      "lon": "-7.746657331747947",
      "lat": "41.016604901156434"
    },
    {
      "id": "pt.ine.add.PTCONT.5534261",
      "street": "R SERRA",
      "house": "",
      "postcode": "3610-055",
      "city": "MONDIM DA BEIRA",
      "lon": "-7.744842583945212",
      "lat": "41.01791347113342"
    },
    {
      "id": "pt.ine.add.PTCONT.5537030",
      "street": "R PROF JOÃO ANTÓNIO LOPES RIBEIRO",
      "house": "",
      "postcode": "3610-052",
      "city": "MONDIM DA BEIRA",
      "lon": "-7.74685170051251",
      "lat": "41.01589419071543"
    },
    {
      "id": "pt.ine.add.PTCONT.5544103",
      "street": "TV TERREIRO",
      "house": "10",
      "postcode": "3610-055",
      "city": "MONDIM DA BEIRA",
      "lon": "-7.7454510131755185",
      "lat": "41.017555335861715"
    },
    {
      "id": "pt.ine.add.PTCONT.5552208",
      "street": "TV TERREIRO",
      "house": "1",
      "postcode": "3610-056",
      "city": "MONDIM DA BEIRA",
      "lon": "-7.745260427205888",
      "lat": "41.01761772677651"
    },
    {
      "id": "pt.ine.add.PTCONT.5556979",
      "street": "R SERRA",
      "house": "13",
      "postcode": "3610-055",
      "city": "MONDIM DA BEIRA",
      "lon": "-7.744985934009863",
      "lat": "41.01779689439521"
    },
    {
      "id": "pt.ine.add.PTCONT.5560611",
      "street": "AV PROF MARIA CÂNDIDA DE MOURA REBELO",
      "house": "6",
      "postcode": "3610-049",
      "city": "MONDIM DA BEIRA",
      "lon": "-7.745451805030048",
      "lat": "41.017420269833316"
    },
    {
      "id": "pt.ine.add.PTCONT.5560612",
      "street": "R OURO",
      "house": "14",
      "postcode": "3610-055",
      "city": "MONDIM DA BEIRA",
      "lon": "-7.745268143278663",
      "lat": "41.018329114453394"
    },
    {
      "id": "pt.ine.add.PTCONT.5569859",
      "street": "R SERRA",
      "house": "5",
      "postcode": "3610-051",
      "city": "MONDIM DA BEIRA",
      "lon": "-7.744948682548996",
      "lat": "41.01806690631397"
    },
    {
      "id": "pt.ine.add.PTCONT.5572256",
      "street": "R SERRA",
      "house": "7",
      "postcode": "3610-055",
      "city": "MONDIM DA BEIRA",
      "lon": "-7.744949158286574",
      "lat": "41.01798586670936"
    },
    {
      "id": "pt.ine.add.PTCONT.5577253",
      "street": "R SERRA",
      "house": "",
      "postcode": "3610-055",
      "city": "MONDIM DA BEIRA",
      "lon": "-7.745065560547833",
      "lat": "41.01840947382333"
    },
    {
      "id": "pt.ine.add.PTCONT.5579099",
      "street": "R SERRA",
      "house": "",
      "postcode": "3610-055",
      "city": "MONDIM DA BEIRA",
      "lon": "-7.744381999671792",
      "lat": "41.017389653149955"
    },
    {
      "id": "pt.ine.add.PTCONT.5586527",
      "street": "R PROF JOÃO ANTÓNIO LOPES RIBEIRO",
      "house": "",
      "postcode": "3610-052",
      "city": "MONDIM DA BEIRA",
      "lon": "-7.745662456622134",
      "lat": "41.0159622360312"
    },
    {
      "id": "pt.ine.add.PTCONT.5588021",
      "street": "R SERRA",
      "house": "12",
      "postcode": "3610-055",
      "city": "MONDIM DA BEIRA",
      "lon": "-7.745032378436694",
      "lat": "41.01798614692987"
    },
    {
      "id": "pt.ine.add.PTCONT.5593991",
      "street": "R SERRA",
      "house": "6",
      "postcode": "3610-055",
      "city": "MONDIM DA BEIRA",
      "lon": "-7.745018534380704",
      "lat": "41.01831926971646"
    },
    {
      "id": "pt.ine.add.PTCONT.5596268",
      "street": "R SERRA",
      "house": "1",
      "postcode": "3610-051",
      "city": "MONDIM DA BEIRA",
      "lon": "-7.744887177644901",
      "lat": "41.01841787772339"
    },
    {
      "id": "pt.ine.add.PTCONT.5597703",
      "street": "R PROF JOÃO ANTÓNIO LOPES RIBEIRO",
      "house": "20",
      "postcode": "3610-052",
      "city": "MONDIM DA BEIRA",
      "lon": "-7.746897938628084",
      "lat": "41.016119460201026"
    },
    {
      "id": "pt.ine.add.PTCONT.5610342",
      "street": "AV 25 DE ABRIL",
      "house": "9",
      "postcode": "3610-051",
      "city": "MONDIM DA BEIRA",
      "lon": "-7.743758272423933",
      "lat": "41.01630699832564"
    },
    {
      "id": "pt.ine.add.PTCONT.5610343",
      "street": "R FERNANDES CANHAO",
      "house": "",
      "postcode": "3610-051",
      "city": "MONDIM DA BEIRA",
      "lon": "-7.746694891078681",
      "lat": "41.016280862151774"
    },
    {
      "id": "pt.ine.add.PTCONT.5611262",
      "street": "R SERRA",
      "house": "",
      "postcode": "3610-055",
      "city": "MONDIM DA BEIRA",
      "lon": "-7.745043210091437",
      "lat": "41.01816627496715"
    },
    {
      "id": "pt.ine.add.PTCONT.5612493",
      "street": "R OURO",
      "house": "",
      "postcode": "3610-055",
      "city": "MONDIM DA BEIRA",
      "lon": "-7.74511422481897",
      "lat": "41.01822054150505"
    },
    {
      "id": "pt.ine.add.PTCONT.5612494",
      "street": "R SERRA",
      "house": "10",
      "postcode": "3610-055",
      "city": "MONDIM DA BEIRA",
      "lon": "-7.745043844255521",
      "lat": "41.01805822216142"
    },
    {
      "id": "pt.ine.add.PTCONT.5613373",
      "street": "R PROF JOÃO ANTÓNIO LOPES RIBEIRO",
      "house": "",
      "postcode": "3610-052",
      "city": "MONDIM DA BEIRA",
      "lon": "-7.74509139891897",
      "lat": "41.016032351740144"
    },
    {
      "id": "pt.ine.add.PTCONT.5618113",
      "street": "R PROF JOÃO ANTÓNIO LOPES RIBEIRO",
      "house": "1",
      "postcode": "3610-052",
      "city": "MONDIM DA BEIRA",
      "lon": "-7.746790470840154",
      "lat": "41.01620014130016"
    },
    {
      "id": "pt.ine.add.PTCONT.5618114",
      "street": "R SERRA",
      "house": "2",
      "postcode": "3610-055",
      "city": "MONDIM DA BEIRA",
      "lon": "-7.744933675073987",
      "lat": "41.018598125878505"
    },
    {
      "id": "pt.ine.add.PTCONT.5623749",
      "street": "AV PROF MARIA CÂNDIDA DE MOURA REBELO",
      "house": "2",
      "postcode": "3610-049",
      "city": "MONDIM DA BEIRA",
      "lon": "-7.745882796426876",
      "lat": "41.01690845748195"
    },
    {
      "id": "pt.ine.add.PTCONT.5628191",
      "street": "R SERRA",
      "house": "",
      "postcode": "3610-055",
      "city": "MONDIM DA BEIRA",
      "lon": "-7.744749009020538",
      "lat": "41.017652023100666"
    },
    {
      "id": "pt.ine.add.PTCONT.5639002",
      "street": "R SERRA",
      "house": "",
      "postcode": "3610-055",
      "city": "MONDIM DA BEIRA",
      "lon": "-7.7448660438794965",
      "lat": "41.01796757762777"
    },
    {
      "id": "pt.ine.add.PTCONT.5641677",
      "street": "R SERRA",
      "house": "",
      "postcode": "3610-055",
      "city": "MONDIM DA BEIRA",
      "lon": "-7.744771728420367",
      "lat": "41.017832191225935"
    },
    {
      "id": "pt.ine.add.PTCONT.5642698",
      "street": "R PROF JOÃO ANTÓNIO LOPES RIBEIRO",
      "house": "",
      "postcode": "3610-052",
      "city": "MONDIM DA BEIRA",
      "lon": "-7.746199165616214",
      "lat": "41.01566688764215"
    },
    {
      "id": "pt.ine.add.PTCONT.5642699",
      "street": "R SERRA",
      "house": "11",
      "postcode": "3610-055",
      "city": "MONDIM DA BEIRA",
      "lon": "-7.744915078431923",
      "lat": "41.01771561457396"
    },
    {
      "id": "pt.ine.add.PTCONT.5644556",
      "street": "R SERRA",
      "house": "3",
      "postcode": "3610-051",
      "city": "MONDIM DA BEIRA",
      "lon": "-7.744912540943803",
      "lat": "41.01814782580388"
    },
    {
      "id": "pt.ine.add.PTCONT.5646531",
      "street": "R PROF JOÃO ANTÓNIO LOPES RIBEIRO",
      "house": "3",
      "postcode": "3610-052",
      "city": "MONDIM DA BEIRA",
      "lon": "-7.746767115161258",
      "lat": "41.01612802636586"
    },
    {
      "id": "pt.ine.add.PTCONT.5649627",
      "street": "AV PROF MARIA CÂNDIDA DE MOURA REBELO",
      "house": "6",
      "postcode": "3610-049",
      "city": "MONDIM DA BEIRA",
      "lon": "-7.7456671696639265",
      "lat": "41.017186874875016"
    },
    {
      "id": "pt.ine.add.PTCONT.5653428",
      "street": "AV PROF MARIA CÂNDIDA DE MOURA REBELO",
      "house": "4",
      "postcode": "3610-049",
      "city": "MONDIM DA BEIRA",
      "lon": "-7.745751338294208",
      "lat": "41.017025075322096"
    },
    {
      "id": "pt.ine.add.PTCONT.5658085",
      "street": "AV 25 DE ABRIL",
      "house": "5",
      "postcode": "3610-051",
      "city": "MONDIM DA BEIRA",
      "lon": "-7.744824102570201",
      "lat": "41.01498692006458"
    },
    {
      "id": "pt.ine.add.PTCONT.5659424",
      "street": "AV 25 DE ABRIL",
      "house": "13",
      "postcode": "3610-051",
      "city": "MONDIM DA BEIRA",
      "lon": "-7.744630282404127",
      "lat": "41.01762460927532"
    },
    {
      "id": "pt.ine.add.PTCONT.5660247",
      "street": "AV 25 DE ABRIL",
      "house": "7",
      "postcode": "3610-051",
      "city": "MONDIM DA BEIRA",
      "lon": "-7.744716211030744",
      "lat": "41.01513963448169"
    },
    {
      "id": "pt.ine.add.PTCONT.5662670",
      "street": "R SERRA",
      "house": "14",
      "postcode": "3610-055",
      "city": "MONDIM DA BEIRA",
      "lon": "-7.745080355542465",
      "lat": "41.01791427182271"
    },
    {
      "id": "pt.ine.add.PTCONT.5664128",
      "street": "R SERRA",
      "house": "8",
      "postcode": "3610-055",
      "city": "MONDIM DA BEIRA",
      "lon": "-7.745091187317698",
      "lat": "41.01809439985829"
    },
    {
      "id": "pt.ine.add.PTCONT.5667233",
      "street": "R FERNANDES CANHAO",
      "house": "8",
      "postcode": "3610-051",
      "city": "MONDIM DA BEIRA",
      "lon": "-7.746669746321981",
      "lat": "41.01651489696789"
    }
  ]
}