{
  "data": {
    "distrito": "Viseu",
    "concelho": "Tarouca",
    "freguesia": "Mondim da Beira",
    "OBJECTID": 363,
    "BGRI2021": "18200400122",
    "DT21": "18",
    "DTMN21": "1820",
    "DTMNFR21": "182004",
    "DTMNFRSEC21": "182004001",
    "SECNUM21": "001",
    "SSNUM21": "22",
    "SECSSNUM21": "00122",
    "OBJECTID_1": 198643,
    "DT": "18",
    "CC": "20",
    "fr": "04",
    "SEC": "001",
    "SS": "22"
  },
  "addresses": [
    {
      "id": "pt.ine.add.PTCONT.5437071",
      "street": "LG SENHORA DA SAÚDE",
      "house": "13",
      "postcode": "3610-055",
      "city": "MONDIM DA BEIRA",
      "lon": "-7.745655066193299",
      "lat": "41.02330994529969"
    },
    {
      "id": "pt.ine.add.PTCONT.5444256",
      "street": "R PONTE NOVA",
      "house": "20",
      "postcode": "3610-054",
      "city": "MONDIM DA BEIRA",
      "lon": "-7.755067416073155",
      "lat": "41.02823068135244"
    },
    {
      "id": "pt.ine.add.PTCONT.5446130",
      "street": "R ESTRADA",
      "house": "",
      "postcode": "3610-050",
      "city": "MONDIM DA BEIRA",
      "lon": "-7.748873340786822",
      "lat": "41.0301101611543"
    },
    {
      "id": "pt.ine.add.PTCONT.5477091",
      "street": "LG SENHOR DOS AFLITOS",
      "house": "",
      "postcode": "3610-055",
      "city": "MONDIM DA BEIRA",
      "lon": "-7.75018738608668",
      "lat": "41.02291088148401"
    },
    {
      "id": "pt.ine.add.PTCONT.5482387",
      "street": "R ESTRADA",
      "house": "9",
      "postcode": "3610-050",
      "city": "MONDIM DA BEIRA",
      "lon": "-7.745732523475458",
      "lat": "41.02835276286747"
    },
    {
      "id": "pt.ine.add.PTCONT.5482530",
      "street": "LG SENHORA DA SAÚDE",
      "house": "11",
      "postcode": "3610-055",
      "city": "MONDIM DA BEIRA",
      "lon": "-7.7451239469718764",
      "lat": "41.02264182045566"
    },
    {
      "id": "pt.ine.add.PTCONT.5491445",
      "street": "R PONTE NOVA",
      "house": "18",
      "postcode": "3610-054",
      "city": "MONDIM DA BEIRA",
      "lon": "-7.755032208270748",
      "lat": "41.02814952478974"
    },
    {
      "id": "pt.ine.add.PTCONT.5501764",
      "street": "R ESTRADA",
      "house": "13",
      "postcode": "3610-050",
      "city": "MONDIM DA BEIRA",
      "lon": "-7.747586300556629",
      "lat": "41.03059210955131"
    },
    {
      "id": "pt.ine.add.PTCONT.5504485",
      "street": "R RAPOSEIRA",
      "house": "",
      "postcode": "3610-050",
      "city": "MONDIM DA BEIRA",
      "lon": "-7.751385222316125",
      "lat": "41.033729335381594"
    },
    {
      "id": "pt.ine.add.PTCONT.5511327",
      "street": "R GAMBOA",
      "house": "",
      "postcode": "3610-054",
      "city": "MONDIM DA BEIRA",
      "lon": "-7.754272066500982",
      "lat": "41.03007400521891"
    },
    {
      "id": "pt.ine.add.PTCONT.5511328",
      "street": "R PONTE NOVA",
      "house": "16",
      "postcode": "3610-054",
      "city": "MONDIM DA BEIRA",
      "lon": "-7.755008787958166",
      "lat": "41.028086416012876"
    },
    {
      "id": "pt.ine.add.PTCONT.5520902",
      "street": "R TIA PALMIRA",
      "house": "1",
      "postcode": "3610-050",
      "city": "MONDIM DA BEIRA",
      "lon": "-7.748333485401547",
      "lat": "41.03092777507745"
    },
    {
      "id": "pt.ine.add.PTCONT.5520903",
      "street": "R RAPOSEIRA",
      "house": "8",
      "postcode": "3610-050",
      "city": "MONDIM DA BEIRA",
      "lon": "-7.749882411203348",
      "lat": "41.034498739947416"
    },
    {
      "id": "pt.ine.add.PTCONT.5542815",
      "street": "LG SENHOR DOS AFLITOS",
      "house": "",
      "postcode": "3610-055",
      "city": "MONDIM DA BEIRA",
      "lon": "-7.745992455432313",
      "lat": "41.02254569041617"
    },
    {
      "id": "pt.ine.add.PTCONT.5548276",
      "street": "R ESTRADA",
      "house": "1",
      "postcode": "3610-055",
      "city": "MONDIM DA BEIRA",
      "lon": "-7.745304564483227",
      "lat": "41.02428126005486"
    },
    {
      "id": "pt.ine.add.PTCONT.5552209",
      "street": "LG SENHORA DA SAÚDE",
      "house": "9",
      "postcode": "3610-055",
      "city": "MONDIM DA BEIRA",
      "lon": "-7.744978313394006",
      "lat": "41.02314558611308"
    },
    {
      "id": "pt.ine.add.PTCONT.5556981",
      "street": "R ESTRADA",
      "house": "11",
      "postcode": "3610-050",
      "city": "MONDIM DA BEIRA",
      "lon": "-7.745480553166972",
      "lat": "41.02873911190661"
    },
    {
      "id": "pt.ine.add.PTCONT.5556982",
      "street": "R PONTE NOVA",
      "house": "10",
      "postcode": "3610-054",
      "city": "MONDIM DA BEIRA",
      "lon": "-7.752969455282261",
      "lat": "41.02500014630334"
    },
    {
      "id": "pt.ine.add.PTCONT.5564313",
      "street": "R ESTRADA",
      "house": "",
      "postcode": "3610-055",
      "city": "MONDIM DA BEIRA",
      "lon": "-7.744363711807553",
      "lat": "41.0225221994643"
    },
    {
      "id": "pt.ine.add.PTCONT.5566421",
      "street": "LG SENHORA DA SAÚDE",
      "house": "",
      "postcode": "3610-055",
      "city": "MONDIM DA BEIRA",
      "lon": "-7.745771534850315",
      "lat": "41.023724546978556"
    },
    {
      "id": "pt.ine.add.PTCONT.5568264",
      "street": "LG SENHORA DA SAÚDE",
      "house": "",
      "postcode": "3610-055",
      "city": "MONDIM DA BEIRA",
      "lon": "-7.744647099951671",
      "lat": "41.02285632404276"
    },
    {
      "id": "pt.ine.add.PTCONT.5582780",
      "street": "R TIA PALMIRA",
      "house": "",
      "postcode": "3610-050",
      "city": "MONDIM DA BEIRA",
      "lon": "-7.748468582694099",
      "lat": "41.030189852132004"
    },
    {
      "id": "pt.ine.add.PTCONT.5588023",
      "street": "R ESTRADA",
      "house": "",
      "postcode": "3610-050",
      "city": "MONDIM DA BEIRA",
      "lon": "-7.748076081637027",
      "lat": "41.03020655071363"
    },
    {
      "id": "pt.ine.add.PTCONT.5589277",
      "street": "R ESTRADA",
      "house": "5",
      "postcode": "3610-050",
      "city": "MONDIM DA BEIRA",
      "lon": "-7.746153960962092",
      "lat": "41.027453722198196"
    },
    {
      "id": "pt.ine.add.PTCONT.5596271",
      "street": "R RAPOSEIRA",
      "house": "",
      "postcode": "3610-050",
      "city": "MONDIM DA BEIRA",
      "lon": "-7.7505155316812635",
      "lat": "41.03400559288811"
    },
    {
      "id": "pt.ine.add.PTCONT.5596272",
      "street": "R PONTE NOVA",
      "house": "12",
      "postcode": "3610-054",
      "city": "MONDIM DA BEIRA",
      "lon": "-7.753202957443876",
      "lat": "41.02574829534877"
    },
    {
      "id": "pt.ine.add.PTCONT.5605515",
      "street": "R ESTRADA",
      "house": "7",
      "postcode": "3610-050",
      "city": "MONDIM DA BEIRA",
      "lon": "-7.7461769509057135",
      "lat": "41.027588867837906"
    },
    {
      "id": "pt.ine.add.PTCONT.5612672",
      "street": "AV SR AFLITOS",
      "house": "",
      "postcode": "3610-055",
      "city": "MONDIM DA BEIRA",
      "lon": "-7.746547993586118",
      "lat": "41.02310583832745"
    },
    {
      "id": "pt.ine.add.PTCONT.5619989",
      "street": "R PONTE NOVA",
      "house": "6",
      "postcode": "3610-054",
      "city": "MONDIM DA BEIRA",
      "lon": "-7.7525198695896735",
      "lat": "41.02461146617528"
    },
    {
      "id": "pt.ine.add.PTCONT.5619990",
      "street": "R PONTE NOVA",
      "house": "6",
      "postcode": "3610-054",
      "city": "MONDIM DA BEIRA",
      "lon": "-7.7525198695896735",
      "lat": "41.02461146617528"
    },
    {
      "id": "pt.ine.add.PTCONT.5621779",
      "street": "R ESTRADA",
      "house": "",
      "postcode": "3610-050",
      "city": "MONDIM DA BEIRA",
      "lon": "-7.74773040853268",
      "lat": "41.03034946838112"
    },
    {
      "id": "pt.ine.add.PTCONT.5623750",
      "street": "R GAMBOA",
      "house": "2",
      "postcode": "3610-054",
      "city": "MONDIM DA BEIRA",
      "lon": "-7.752162058479829",
      "lat": "41.033056563965545"
    },
    {
      "id": "pt.ine.add.PTCONT.5634754",
      "street": "R SENHOR DOS AFLITOS",
      "house": "18",
      "postcode": "3610-051",
      "city": "MONDIM DA BEIRA",
      "lon": "-7.7518459423731985",
      "lat": "41.02395190530239"
    },
    {
      "id": "pt.ine.add.PTCONT.5636057",
      "street": "SIT REGADAS",
      "house": "",
      "postcode": "3610-050",
      "city": "MONDIM DA BEIRA",
      "lon": "-7.749539433468167",
      "lat": "41.03007636155877"
    },
    {
      "id": "pt.ine.add.PTCONT.5640206",
      "street": "R NSA SRA DA PIEDADE",
      "house": "1",
      "postcode": "3610-050",
      "city": "MONDIM DA BEIRA",
      "lon": "-7.746440592276375",
      "lat": "41.02723857460214"
    },
    {
      "id": "pt.ine.add.PTCONT.5642700",
      "street": "R NSA SRA DA PIEDADE",
      "house": "3",
      "postcode": "3610-050",
      "city": "MONDIM DA BEIRA",
      "lon": "-7.746797194803548",
      "lat": "41.027257779505305"
    },
    {
      "id": "pt.ine.add.PTCONT.5646546",
      "street": "R ESTRADA",
      "house": "",
      "postcode": "3610-050",
      "city": "MONDIM DA BEIRA",
      "lon": "-7.746631686612482",
      "lat": "41.02506011052903"
    },
    {
      "id": "pt.ine.add.PTCONT.5646685",
      "street": "LG SENHOR DOS AFLITOS",
      "house": "4",
      "postcode": "3610-055",
      "city": "MONDIM DA BEIRA",
      "lon": "-7.745815907718339",
      "lat": "41.022238941884964"
    },
    {
      "id": "pt.ine.add.PTCONT.5653537",
      "street": "R GAMBOA",
      "house": "2",
      "postcode": "3610-054",
      "city": "MONDIM DA BEIRA",
      "lon": "-7.754477356370083",
      "lat": "41.029525401545015"
    },
    {
      "id": "pt.ine.add.PTCONT.5653538",
      "street": "R PONTE NOVA",
      "house": "",
      "postcode": "3610-054",
      "city": "MONDIM DA BEIRA",
      "lon": "-7.751528754658987",
      "lat": "41.025346563881065"
    },
    {
      "id": "pt.ine.add.PTCONT.5658087",
      "street": "R PONTE NOVA",
      "house": "4",
      "postcode": "3610-054",
      "city": "MONDIM DA BEIRA",
      "lon": "-7.75223295812202",
      "lat": "41.02488065550979"
    },
    {
      "id": "pt.ine.add.PTCONT.5662350",
      "street": "R PONTE NOVA",
      "house": "14",
      "postcode": "3610-054",
      "city": "MONDIM DA BEIRA",
      "lon": "-7.754903680469703",
      "lat": "41.02775290227548"
    },
    {
      "id": "pt.ine.add.PTCONT.5665278",
      "street": "LG SRA AFLITOS",
      "house": "10",
      "postcode": "3610-055",
      "city": "MONDIM DA BEIRA",
      "lon": "-7.746441777932299",
      "lat": "41.02297041348958"
    },
    {
      "id": "pt.ine.add.PTCONT.5666149",
      "street": "R PONTE NOVA",
      "house": "8",
      "postcode": "3610-054",
      "city": "MONDIM DA BEIRA",
      "lon": "-7.752756577510128",
      "lat": "41.0248013434963"
    }
  ]
}