{
  "data": {
    "distrito": "Guarda",
    "concelho": "Figueira de Castelo Rodrigo",
    "freguesia": "Vermiosa",
    "OBJECTID": 333,
    "BGRI2021": "09041500116",
    "DT21": "09",
    "DTMN21": "0904",
    "DTMNFR21": "090415",
    "DTMNFRSEC21": "090415001",
    "SECNUM21": "001",
    "SSNUM21": "16",
    "SECSSNUM21": "00116",
    "OBJECTID_1": 76740,
    "DT": "09",
    "CC": "04",
    "fr": "15",
    "SEC": "001",
    "SS": "16"
  },
  "addresses": [
    {
      "id": "pt.ine.add.PTCONT.1910725",
      "street": "TV S BRAS",
      "house": "3",
      "postcode": "6440-261",
      "city": "VERMIOSA",
      "lon": "-6.876805200693785",
      "lat": "40.827273418151094"
    },
    {
      "id": "pt.ine.add.PTCONT.1910893",
      "street": "TV S BRAS",
      "house": "",
      "postcode": "6440-261",
      "city": "VERMIOSA",
      "lon": "-6.876805200693785",
      "lat": "40.827273418151094"
    },
    {
      "id": "pt.ine.add.PTCONT.1915732",
      "street": "R DA CAPELA",
      "house": "9",
      "postcode": "6440-261",
      "city": "VERMIOSA",
      "lon": "-6.876788080996707",
      "lat": "40.82755237391479"
    },
    {
      "id": "pt.ine.add.PTCONT.1922684",
      "street": "R DA IGREJA",
      "house": "",
      "postcode": "6440-261",
      "city": "VERMIOSA",
      "lon": "-6.87656539831035",
      "lat": "40.828045200737826"
    },
    {
      "id": "pt.ine.add.PTCONT.1926629",
      "street": "R DO STO CRISTO",
      "house": "1",
      "postcode": "6440-261",
      "city": "VERMIOSA",
      "lon": "-6.8763810356212405",
      "lat": "40.827764050151664"
    },
    {
      "id": "pt.ine.add.PTCONT.1928648",
      "street": "R DA PRAÇA",
      "house": "9",
      "postcode": "6440-261",
      "city": "VERMIOSA",
      "lon": "-6.876615185788348",
      "lat": "40.82791967884799"
    },
    {
      "id": "pt.ine.add.PTCONT.1933791",
      "street": "R DA PRAÇA",
      "house": "11",
      "postcode": "6440-261",
      "city": "VERMIOSA",
      "lon": "-6.876425043874901",
      "lat": "40.827944621326345"
    },
    {
      "id": "pt.ine.add.PTCONT.1943000",
      "street": "TV DA IGREJA",
      "house": "3",
      "postcode": "6440-261",
      "city": "VERMIOSA",
      "lon": "-6.875954874891298",
      "lat": "40.827732392778636"
    },
    {
      "id": "pt.ine.add.PTCONT.1944092",
      "street": "TERR DE S BRÁS",
      "house": "6",
      "postcode": "6440-261",
      "city": "VERMIOSA",
      "lon": "-6.877102177373348",
      "lat": "40.82724063374168"
    },
    {
      "id": "pt.ine.add.PTCONT.1951616",
      "street": "R DA CAPELA",
      "house": "4",
      "postcode": "6440-261",
      "city": "VERMIOSA",
      "lon": "-6.876672280797409",
      "lat": "40.827407039278995"
    },
    {
      "id": "pt.ine.add.PTCONT.1953984",
      "street": "R DO LAGAR",
      "house": "13",
      "postcode": "6440-261",
      "city": "VERMIOSA",
      "lon": "-6.87630096179211",
      "lat": "40.82761009977967"
    },
    {
      "id": "pt.ine.add.PTCONT.1955887",
      "street": "R DOS CORREIOS",
      "house": "7",
      "postcode": "6440-261",
      "city": "VERMIOSA",
      "lon": "-6.876282867868342",
      "lat": "40.827312751263875"
    },
    {
      "id": "pt.ine.add.PTCONT.1956685",
      "street": "TV DA IGREJA",
      "house": "1",
      "postcode": "6440-261",
      "city": "VERMIOSA",
      "lon": "-6.8759569154184925",
      "lat": "40.82762435997646"
    },
    {
      "id": "pt.ine.add.PTCONT.1957829",
      "street": "R DA IGREJA",
      "house": "",
      "postcode": "6440-261",
      "city": "VERMIOSA",
      "lon": "-6.877047124605093",
      "lat": "40.827645240741504"
    },
    {
      "id": "pt.ine.add.PTCONT.1965685",
      "street": "R DA PRAÇA",
      "house": "13",
      "postcode": "6440-261",
      "city": "VERMIOSA",
      "lon": "-6.876426233747573",
      "lat": "40.82788160218295"
    },
    {
      "id": "pt.ine.add.PTCONT.1969361",
      "street": "R DO STO CRISTO",
      "house": "",
      "postcode": "6440-261",
      "city": "VERMIOSA",
      "lon": "-6.876411878810524",
      "lat": "40.82738619351274"
    },
    {
      "id": "pt.ine.add.PTCONT.1971090",
      "street": "TERR DE S BRÁS",
      "house": "1",
      "postcode": "6440-261",
      "city": "VERMIOSA",
      "lon": "-6.876615060696177",
      "lat": "40.82729836097352"
    },
    {
      "id": "pt.ine.add.PTCONT.1849345",
      "street": "R DOS CORREIOS",
      "house": "1",
      "postcode": "6440-261",
      "city": "VERMIOSA",
      "lon": "-6.876984847892446",
      "lat": "40.827176324052715"
    },
    {
      "id": "pt.ine.add.PTCONT.1850065",
      "street": "TERR DE S BRÁS",
      "house": "8",
      "postcode": "6440-261",
      "city": "VERMIOSA",
      "lon": "-6.877133655835649",
      "lat": "40.827457086589746"
    },
    {
      "id": "pt.ine.add.PTCONT.1855981",
      "street": "R DO LAGAR",
      "house": "",
      "postcode": "6440-261",
      "city": "VERMIOSA",
      "lon": "-6.8761468865520845",
      "lat": "40.827608420991915"
    },
    {
      "id": "pt.ine.add.PTCONT.1855985",
      "street": "TERR DE S BRÁS",
      "house": "",
      "postcode": "6440-261",
      "city": "VERMIOSA",
      "lon": "-6.8769458941420725",
      "lat": "40.827355991624266"
    },
    {
      "id": "pt.ine.add.PTCONT.1863018",
      "street": "R DA CAPELA",
      "house": "1",
      "postcode": "6440-261",
      "city": "VERMIOSA",
      "lon": "-6.87709623130611",
      "lat": "40.827555729568246"
    },
    {
      "id": "pt.ine.add.PTCONT.1867576",
      "street": "R DA CAPELA",
      "house": "2",
      "postcode": "6440-261",
      "city": "VERMIOSA",
      "lon": "-6.876671261123477",
      "lat": "40.82746105569723"
    },
    {
      "id": "pt.ine.add.PTCONT.1871661",
      "street": "R DOS CORREIOS",
      "house": "3",
      "postcode": "6440-261",
      "city": "VERMIOSA",
      "lon": "-6.876782856361521",
      "lat": "40.827201138098324"
    },
    {
      "id": "pt.ine.add.PTCONT.1872033",
      "street": "R DA IGREJA",
      "house": "9",
      "postcode": "6440-261",
      "city": "VERMIOSA",
      "lon": "-6.8769150539995145",
      "lat": "40.82773384845251"
    },
    {
      "id": "pt.ine.add.PTCONT.1873397",
      "street": "R DA PRAÇA",
      "house": "",
      "postcode": "6440-261",
      "city": "VERMIOSA",
      "lon": "-6.8768063471477",
      "lat": "40.82784071963707"
    },
    {
      "id": "pt.ine.add.PTCONT.1881346",
      "street": "R DA PRAÇA",
      "house": "",
      "postcode": "6440-261",
      "city": "VERMIOSA",
      "lon": "-6.876284009861726",
      "lat": "40.827880052686034"
    },
    {
      "id": "pt.ine.add.PTCONT.1885294",
      "street": "R DA CAPELA",
      "house": "5",
      "postcode": "6440-261",
      "city": "VERMIOSA",
      "lon": "-6.876989563885436",
      "lat": "40.82755456808901"
    },
    {
      "id": "pt.ine.add.PTCONT.1892514",
      "street": "R DA PRAÇA",
      "house": "",
      "postcode": "6440-261",
      "city": "VERMIOSA",
      "lon": "-6.876000412318372",
      "lat": "40.8278319394994"
    },
    {
      "id": "pt.ine.add.PTCONT.1893444",
      "street": "TV S BRAS",
      "house": "5",
      "postcode": "6440-261",
      "city": "VERMIOSA",
      "lon": "-6.876935741335718",
      "lat": "40.827265835186246"
    },
    {
      "id": "pt.ine.add.PTCONT.1893445",
      "street": "TV S BRAS",
      "house": "3",
      "postcode": "6440-261",
      "city": "VERMIOSA",
      "lon": "-6.876935741335718",
      "lat": "40.827265835186246"
    }
  ]
}