{
  "data": {
    "distrito": "Vila Real",
    "concelho": "Sabrosa",
    "freguesia": "Gouvinhas",
    "OBJECTID": 187,
    "BGRI2021": "17100400102",
    "DT21": "17",
    "DTMN21": "1710",
    "DTMNFR21": "171004",
    "DTMNFRSEC21": "171004001",
    "SECNUM21": "001",
    "SSNUM21": "02",
    "SECSSNUM21": "00102",
    "OBJECTID_1": 185047,
    "DT": "17",
    "CC": "10",
    "fr": "04",
    "SEC": "001",
    "SS": "02"
  },
  "addresses": [
    {
      "id": "pt.ine.add.PTCONT.5314626",
      "street": "QTA CALEIRO",
      "house": "",
      "postcode": "5060-052",
      "city": "GOUVINHAS",
      "lon": "-7.6373094333161164",
      "lat": "41.16184239535083"
    },
    {
      "id": "pt.ine.add.PTCONT.5320181",
      "street": "QTA CONDE",
      "house": "",
      "postcode": "5060-052",
      "city": "GOUVINHAS",
      "lon": "-7.644613916331358",
      "lat": "41.17457871141693"
    },
    {
      "id": "pt.ine.add.PTCONT.5329591",
      "street": "QTA CELEIRO",
      "house": "",
      "postcode": "5060-052",
      "city": "GOUVINHAS",
      "lon": "-7.63664222814294",
      "lat": "41.16183952151673"
    },
    {
      "id": "pt.ine.add.PTCONT.5336980",
      "street": "QTA COSTA LIMA",
      "house": "",
      "postcode": "5060-052",
      "city": "GOUVINHAS",
      "lon": "-7.645978846090621",
      "lat": "41.167281985694"
    },
    {
      "id": "pt.ine.add.PTCONT.5349507",
      "street": "QTA MOINHOS",
      "house": "",
      "postcode": "5060-052",
      "city": "GOUVINHAS",
      "lon": "-7.6439071640824094",
      "lat": "41.18467854743175"
    },
    {
      "id": "pt.ine.add.PTCONT.5366394",
      "street": "QTA CRASTO",
      "house": "",
      "postcode": "5060-056",
      "city": "GOUVINHAS",
      "lon": "-7.63664222814294",
      "lat": "41.16183952151673"
    },
    {
      "id": "pt.ine.add.PTCONT.5384369",
      "street": "QTA COSTA DE BAIXO",
      "house": "",
      "postcode": "5060-052",
      "city": "GOUVINHAS",
      "lon": "-7.6518659784458825",
      "lat": "41.165550888459094"
    },
    {
      "id": "pt.ine.add.PTCONT.5385978",
      "street": "QTA CERRINHO",
      "house": "",
      "postcode": "5060-052",
      "city": "GOUVINHAS",
      "lon": "-7.638609385259825",
      "lat": "41.18227878710087"
    },
    {
      "id": "pt.ine.add.PTCONT.5393610",
      "street": "QTA LINDO VAZ",
      "house": "",
      "postcode": "5060-052",
      "city": "GOUVINHAS",
      "lon": "-7.6463542866157495",
      "lat": "41.16646417885478"
    }
  ]
}