{
  "data": {
    "distrito": "Porto",
    "concelho": "Vila Nova de Gaia",
    "freguesia": "Arcozelo",
    "OBJECTID": 551,
    "BGRI2021": "13170100521",
    "DT21": "13",
    "DTMN21": "1317",
    "DTMNFR21": "131701",
    "DTMNFRSEC21": "131701005",
    "SECNUM21": "005",
    "SSNUM21": "21",
    "SECSSNUM21": "00521",
    "OBJECTID_1": 145070,
    "DT": "13",
    "CC": "17",
    "fr": "01",
    "SEC": "005",
    "SS": "21"
  },
  "addresses": [
    {
      "id": "pt.ine.add.PTCONT.3757657",
      "street": "R LUIS DE CAMÕES",
      "house": "26",
      "postcode": "4410-345",
      "city": "ARCOZELO VNG",
      "lon": "-8.647971952418276",
      "lat": "41.06903139299388"
    },
    {
      "id": "pt.ine.add.PTCONT.3854742",
      "street": "AV VASCO DA GAMA",
      "house": "591",
      "postcode": "4410-336",
      "city": "ARCOZELO VNG",
      "lon": "-8.648370705849555",
      "lat": "41.06829124351951"
    },
    {
      "id": "pt.ine.add.PTCONT.3964163",
      "street": "AV VASCO DA GAMA",
      "house": "829",
      "postcode": "4410-336",
      "city": "ARCOZELO VNG",
      "lon": "-8.648180417063639",
      "lat": "41.06830109870101"
    },
    {
      "id": "pt.ine.add.PTCONT.3970292",
      "street": "R MOREIRA LOBO",
      "house": "766",
      "postcode": "4410-461",
      "city": "ARCOZELO VNG",
      "lon": "-8.648435817200404",
      "lat": "41.06901131057157"
    },
    {
      "id": "pt.ine.add.PTCONT.4191969",
      "street": "R LUIS DE CAMÕES",
      "house": "86",
      "postcode": "4410-336",
      "city": "ARCOZELO VNG",
      "lon": "-8.647967176178584",
      "lat": "41.06841910985663"
    },
    {
      "id": "pt.ine.add.PTCONT.4198634",
      "street": "R JOSE TEIXEIRA LOPES",
      "house": "",
      "postcode": "4410-399",
      "city": "ARCOZELO VNG",
      "lon": "-8.648669056184884",
      "lat": "41.068406967299424"
    },
    {
      "id": "pt.ine.add.PTCONT.4198635",
      "street": "R MOREIRA LOBO",
      "house": "115",
      "postcode": "4410-399",
      "city": "ARCOZELO VNG",
      "lon": "-8.648611467676202",
      "lat": "41.06865034583671"
    },
    {
      "id": "pt.ine.add.PTCONT.4278469",
      "street": "R LUIS DE CAMÕES",
      "house": "48",
      "postcode": "4410-345",
      "city": "ARCOZELO VNG",
      "lon": "-8.647983007096945",
      "lat": "41.068923289874824"
    },
    {
      "id": "pt.ine.add.PTCONT.4311140",
      "street": "R LUIS DE CAMÕES",
      "house": "50",
      "postcode": "4410-345",
      "city": "ARCOZELO VNG",
      "lon": "-8.648017435339291",
      "lat": "41.068761055448576"
    },
    {
      "id": "pt.ine.add.PTCONT.4387139",
      "street": "R TEIXEIRA LOPES",
      "house": "147",
      "postcode": "4410-447",
      "city": "ARCOZELO VNG",
      "lon": "-8.648717490109584",
      "lat": "41.06851480432994"
    }
  ]
}