{
  "data": {
    "distrito": "Leiria",
    "concelho": "Alvaiázere",
    "freguesia": "Pussos São Pedro",
    "OBJECTID": 454,
    "BGRI2021": "10020900213",
    "DT21": "10",
    "DTMN21": "1002",
    "DTMNFR21": "100209",
    "DTMNFRSEC21": "100209002",
    "SECNUM21": "002",
    "SSNUM21": "13",
    "SECSSNUM21": "00213",
    "OBJECTID_1": 85337,
    "DT": "10",
    "CC": "02",
    "fr": "09",
    "SEC": "002",
    "SS": "13"
  },
  "addresses": [
    {
      "id": "pt.ine.add.PTCONT.1979709",
      "street": "R NOSSA SRA AJUDA",
      "house": "81",
      "postcode": "3250-422",
      "city": "REGO DA MURTA",
      "lon": "-8.36710027567506",
      "lat": "39.774697054021495"
    },
    {
      "id": "pt.ine.add.PTCONT.1982155",
      "street": "R NOSSA SRA AJUDA",
      "house": "143",
      "postcode": "3250-422",
      "city": "REGO DA MURTA",
      "lon": "-8.372414413527007",
      "lat": "39.77228147304653"
    },
    {
      "id": "pt.ine.add.PTCONT.1982156",
      "street": "R ANTAS",
      "house": "4",
      "postcode": "3250-422",
      "city": "REGO DA MURTA",
      "lon": "-8.367552400536303",
      "lat": "39.773786481392705"
    },
    {
      "id": "pt.ine.add.PTCONT.1991019",
      "street": "R NOSSA SR AJUDA",
      "house": "97",
      "postcode": "3250-422",
      "city": "REGO DA MURTA",
      "lon": "-8.368112897785931",
      "lat": "39.77385740014459"
    },
    {
      "id": "pt.ine.add.PTCONT.1994488",
      "street": "R NOSSA SR AJUDA",
      "house": "61",
      "postcode": "3250-422",
      "city": "REGO DA MURTA",
      "lon": "-8.365939733170476",
      "lat": "39.77321330930383"
    },
    {
      "id": "pt.ine.add.PTCONT.1999082",
      "street": "R NOSSA SRA AJUDA",
      "house": "91",
      "postcode": "3250-422",
      "city": "REGO DA MURTA",
      "lon": "-8.367623899143386",
      "lat": "39.7742186507303"
    },
    {
      "id": "pt.ine.add.PTCONT.2004289",
      "street": "R NOSSA SR AJUDA",
      "house": "117",
      "postcode": "3250-422",
      "city": "REGO DA MURTA",
      "lon": "-8.369347444041725",
      "lat": "39.77307132506359"
    },
    {
      "id": "pt.ine.add.PTCONT.2028863",
      "street": "R PREGUEIRAS",
      "house": "6",
      "postcode": "3250-422",
      "city": "REGO DA MURTA",
      "lon": "-8.371713367409402",
      "lat": "39.77206675943462"
    },
    {
      "id": "pt.ine.add.PTCONT.2041337",
      "street": "R NOSSA SR AJUDA",
      "house": "82",
      "postcode": "3250-422",
      "city": "REGO DA MURTA",
      "lon": "-8.369603884593204",
      "lat": "39.77297173088794"
    },
    {
      "id": "pt.ine.add.PTCONT.2065152",
      "street": "R PRAGUEIRAS",
      "house": "15",
      "postcode": "3250-422",
      "city": "REGO DA MURTA",
      "lon": "-8.371209253303897",
      "lat": "39.771419323802775"
    },
    {
      "id": "pt.ine.add.PTCONT.2080733",
      "street": "R NOSSA SRA AJUDA",
      "house": "93",
      "postcode": "3250-422",
      "city": "REGO DA MURTA",
      "lon": "-8.367751679463485",
      "lat": "39.77403826172691"
    },
    {
      "id": "pt.ine.add.PTCONT.2084519",
      "street": "R NOSSA SRA AJUDA",
      "house": "24",
      "postcode": "3250-422",
      "city": "REGO DA MURTA",
      "lon": "-8.371918881863468",
      "lat": "39.77074237526768"
    },
    {
      "id": "pt.ine.add.PTCONT.2085239",
      "street": "CC RAMALHAL",
      "house": "7",
      "postcode": "3250-422",
      "city": "REGO DA MURTA",
      "lon": "-8.37108334759187",
      "lat": "39.772140105243984"
    },
    {
      "id": "pt.ine.add.PTCONT.2085240",
      "street": "R PRAGUEIRAS",
      "house": "10",
      "postcode": "3250-422",
      "city": "REGO DA MURTA",
      "lon": "-8.371431788602703",
      "lat": "39.77164403058202"
    },
    {
      "id": "pt.ine.add.PTCONT.2098321",
      "street": "R NOSSA SR AJUDA",
      "house": "109",
      "postcode": "3250-422",
      "city": "REGO DA MURTA",
      "lon": "-8.36861340972402",
      "lat": "39.773451091429926"
    },
    {
      "id": "pt.ine.add.PTCONT.2118145",
      "street": "R NOSSA SR AJUDA",
      "house": "101",
      "postcode": "3250-422",
      "city": "REGO DA MURTA",
      "lon": "-8.36819334515482",
      "lat": "39.77348796918258"
    },
    {
      "id": "pt.ine.add.PTCONT.2139327",
      "street": "R NOSSA SRA AJUDA",
      "house": "57",
      "postcode": "3250-422",
      "city": "REGO DA MURTA",
      "lon": "-8.3654131688694",
      "lat": "39.772818076723475"
    },
    {
      "id": "pt.ine.add.PTCONT.2166243",
      "street": "R NOSSA SRA AJUDA",
      "house": "59",
      "postcode": "3250-422",
      "city": "REGO DA MURTA",
      "lon": "-8.365589123904115",
      "lat": "39.77307891404271"
    },
    {
      "id": "pt.ine.add.PTCONT.2183030",
      "street": "R NOSSA SRA DA AJUDA",
      "house": "21",
      "postcode": "3250-430",
      "city": "REGO DA MURTA",
      "lon": "-8.35748936113832",
      "lat": "39.76964534993006"
    },
    {
      "id": "pt.ine.add.PTCONT.2190225",
      "street": "R PRAGUEIRAS",
      "house": "19",
      "postcode": "3250-422",
      "city": "REGO DA MURTA",
      "lon": "-8.371208601705751",
      "lat": "39.77123018777994"
    },
    {
      "id": "pt.ine.add.PTCONT.2203323",
      "street": "R NOSSA SR AJUDA",
      "house": "103",
      "postcode": "3250-422",
      "city": "REGO DA MURTA",
      "lon": "-8.368509129921586",
      "lat": "39.773676466423545"
    },
    {
      "id": "pt.ine.add.PTCONT.2210491",
      "street": "R NOSSA SRA AJUDA",
      "house": "67",
      "postcode": "3250-422",
      "city": "REGO DA MURTA",
      "lon": "-8.366188304448949",
      "lat": "39.7742395556927"
    },
    {
      "id": "pt.ine.add.PTCONT.2217207",
      "street": "R PRAGUEIRAS",
      "house": "9",
      "postcode": "3250-422",
      "city": "REGO DA MURTA",
      "lon": "-8.370288841437317",
      "lat": "39.77189855498781"
    },
    {
      "id": "pt.ine.add.PTCONT.2219393",
      "street": "R NOSSA SR AJUDA",
      "house": "113",
      "postcode": "3250-422",
      "city": "REGO DA MURTA",
      "lon": "-8.369079822981892",
      "lat": "39.77331504601493"
    },
    {
      "id": "pt.ine.add.PTCONT.2221037",
      "street": "R NOSSA SR AJUDA",
      "house": "105",
      "postcode": "3250-422",
      "city": "REGO DA MURTA",
      "lon": "-8.371419371697534",
      "lat": "39.771427899104104"
    },
    {
      "id": "pt.ine.add.PTCONT.2227956",
      "street": "R NOSSA SRA AJUDA",
      "house": "85",
      "postcode": "3250-422",
      "city": "REGO DA MURTA",
      "lon": "-8.367192889564404",
      "lat": "39.77447170385729"
    },
    {
      "id": "pt.ine.add.PTCONT.2238640",
      "street": "R PRINCIPAL DO RAMALHAL",
      "house": "95",
      "postcode": "3250-422",
      "city": "REGO DA MURTA",
      "lon": "-8.367856329411486",
      "lat": "39.77392096512507"
    },
    {
      "id": "pt.ine.add.PTCONT.2258839",
      "street": "R ANTAS",
      "house": "3",
      "postcode": "3250-422",
      "city": "REGO DA MURTA",
      "lon": "-8.36755334773689",
      "lat": "39.77406568213644"
    }
  ]
}