{
  "data": {
    "distrito": "Leiria",
    "concelho": "Alvaiázere",
    "freguesia": "Pussos São Pedro",
    "OBJECTID": 340,
    "BGRI2021": "10020900214",
    "DT21": "10",
    "DTMN21": "1002",
    "DTMNFR21": "100209",
    "DTMNFRSEC21": "100209002",
    "SECNUM21": "002",
    "SSNUM21": "14",
    "SECSSNUM21": "00214",
    "OBJECTID_1": 85555,
    "DT": "10",
    "CC": "02",
    "fr": "09",
    "SEC": "002",
    "SS": "14"
  },
  "addresses": [
    {
      "id": "pt.ine.add.PTCONT.1979710",
      "street": "R CAVALEIROS",
      "house": "54",
      "postcode": "3250-423",
      "city": "REGO DA MURTA",
      "lon": "-8.383006918019138",
      "lat": "39.767548728184764"
    },
    {
      "id": "pt.ine.add.PTCONT.1994489",
      "street": "R CAVALEIROS",
      "house": "38",
      "postcode": "3250-423",
      "city": "REGO DA MURTA",
      "lon": "-8.382066736606276",
      "lat": "39.768982789190524"
    },
    {
      "id": "pt.ine.add.PTCONT.2023635",
      "street": "R CAVALEIROS",
      "house": "44",
      "postcode": "3250-423",
      "city": "REGO DA MURTA",
      "lon": "-8.382601591464498",
      "lat": "39.76842323500491"
    },
    {
      "id": "pt.ine.add.PTCONT.2080734",
      "street": "R CAVALEIROS",
      "house": "40",
      "postcode": "3250-423",
      "city": "REGO DA MURTA",
      "lon": "-8.382276329348088",
      "lat": "39.768847241280575"
    },
    {
      "id": "pt.ine.add.PTCONT.2082447",
      "street": "R CAVALEIROS",
      "house": "66",
      "postcode": "3250-423",
      "city": "REGO DA MURTA",
      "lon": "-8.383295788083291",
      "lat": "39.76674652328412"
    },
    {
      "id": "pt.ine.add.PTCONT.2112921",
      "street": "R CAVALEIROS",
      "house": "",
      "postcode": "3250-423",
      "city": "REGO DA MURTA",
      "lon": "-8.380622003800495",
      "lat": "39.76967938291445"
    },
    {
      "id": "pt.ine.add.PTCONT.2132796",
      "street": "R CAVALEIROS",
      "house": "8",
      "postcode": "3250-423",
      "city": "REGO DA MURTA",
      "lon": "-8.376045587733609",
      "lat": "39.76931978379143"
    },
    {
      "id": "pt.ine.add.PTCONT.2201587",
      "street": "R CAVALEIROS",
      "house": "64",
      "postcode": "3250-423",
      "city": "REGO DA MURTA",
      "lon": "-8.383168126968027",
      "lat": "39.76694494241284"
    },
    {
      "id": "pt.ine.add.PTCONT.2206801",
      "street": "R CAVALEIROS",
      "house": "50",
      "postcode": "3250-423",
      "city": "REGO DA MURTA",
      "lon": "-8.383007829749426",
      "lat": "39.76780090948595"
    },
    {
      "id": "pt.ine.add.PTCONT.2249865",
      "street": "R CAVALEIROS",
      "house": "60",
      "postcode": "3250-423",
      "city": "REGO DA MURTA",
      "lon": "-8.383028924591537",
      "lat": "39.7671794124305"
    },
    {
      "id": "pt.ine.add.PTCONT.2268055",
      "street": "R STA MARTA",
      "house": "66",
      "postcode": "3250-423",
      "city": "REGO DA MURTA",
      "lon": "-8.384064093633713",
      "lat": "39.76620447182048"
    }
  ]
}