{
  "data": {
    "distrito": "Lisboa",
    "concelho": "Torres Vedras",
    "freguesia": "União das freguesias de A dos Cunhados e Maceira",
    "OBJECTID": 743,
    "BGRI2021": "11132100402",
    "DT21": "11",
    "DTMN21": "1113",
    "DTMNFR21": "111321",
    "DTMNFRSEC21": "111321004",
    "SECNUM21": "004",
    "SSNUM21": "02",
    "SECSSNUM21": "00402",
    "OBJECTID_1": 114987,
    "DT": "11",
    "CC": "13",
    "fr": "21",
    "SEC": "004",
    "SS": "02"
  },
  "addresses": [
    {
      "id": "pt.ine.add.PTCONT.2336593",
      "street": "R FORNO",
      "house": "28",
      "postcode": "2560-101",
      "city": "MACEIRA TVD",
      "lon": "-9.334516980768111",
      "lat": "39.13038476111465"
    },
    {
      "id": "pt.ine.add.PTCONT.2373391",
      "street": "R S JOSE PALHAGUEIRAS",
      "house": "23",
      "postcode": "2560-044",
      "city": "A DOS CUNHADOS",
      "lon": "-9.325776836574093",
      "lat": "39.13328475767687"
    },
    {
      "id": "pt.ine.add.PTCONT.2391542",
      "street": "CSL FIGUEIRAS VELHAS",
      "house": "",
      "postcode": "2560-044",
      "city": "A DOS CUNHADOS",
      "lon": "-9.330006168540974",
      "lat": "39.128981021118456"
    },
    {
      "id": "pt.ine.add.PTCONT.2455492",
      "street": "R CASAIS DO FORNO",
      "house": "40",
      "postcode": "2560-044",
      "city": "A DOS CUNHADOS",
      "lon": "-9.334469488206006",
      "lat": "39.13167327201147"
    },
    {
      "id": "pt.ine.add.PTCONT.2462181",
      "street": "CSL CABECA RUIVA",
      "house": "3",
      "postcode": "2560-044",
      "city": "A DOS CUNHADOS",
      "lon": "-9.321489807217963",
      "lat": "39.13005895391232"
    },
    {
      "id": "pt.ine.add.PTCONT.2572230",
      "street": "R S JOSE",
      "house": "17",
      "postcode": "2560-044",
      "city": "A DOS CUNHADOS",
      "lon": "-9.323959044785475",
      "lat": "39.13247468806379"
    },
    {
      "id": "pt.ine.add.PTCONT.2598418",
      "street": "R FORNO",
      "house": "",
      "postcode": "2560-101",
      "city": "MACEIRA TVD",
      "lon": "-9.333292262899718",
      "lat": "39.13590074173119"
    },
    {
      "id": "pt.ine.add.PTCONT.2904343",
      "street": "ESTR PRINCIPAL",
      "house": "1",
      "postcode": "2560-044",
      "city": "A DOS CUNHADOS",
      "lon": "-9.329127888954847",
      "lat": "39.12901705858005"
    },
    {
      "id": "pt.ine.add.PTCONT.2904346",
      "street": "R FORNO",
      "house": "30",
      "postcode": "2560-049",
      "city": "A DOS CUNHADOS",
      "lon": "-9.333480175105098",
      "lat": "39.13062062261926"
    },
    {
      "id": "pt.ine.add.PTCONT.2984050",
      "street": "R S JOSE",
      "house": "",
      "postcode": "2560-049",
      "city": "A DOS CUNHADOS",
      "lon": "-9.33215195845689",
      "lat": "39.136858228301705"
    },
    {
      "id": "pt.ine.add.PTCONT.3004032",
      "street": "CSL FIGUEIRAS VELHAS",
      "house": "",
      "postcode": "2560-044",
      "city": "A DOS CUNHADOS",
      "lon": "-9.330007388120764",
      "lat": "39.12905306578053"
    },
    {
      "id": "pt.ine.add.PTCONT.3101313",
      "street": "FONTAÍNHAS",
      "house": "",
      "postcode": "2560-044",
      "city": "A DOS CUNHADOS",
      "lon": "-9.328599598776375",
      "lat": "39.13402144434471"
    },
    {
      "id": "pt.ine.add.PTCONT.3162847",
      "street": "R FORNO",
      "house": "36",
      "postcode": "2560-101",
      "city": "MACEIRA TVD",
      "lon": "-9.33424138106669",
      "lat": "39.13118023027224"
    },
    {
      "id": "pt.ine.add.PTCONT.3190829",
      "street": "R FORNO",
      "house": "53",
      "postcode": "2560-049",
      "city": "A DOS CUNHADOS",
      "lon": "-9.333118505549276",
      "lat": "39.13588451668642"
    },
    {
      "id": "pt.ine.add.PTCONT.3190832",
      "street": "R CASAIS DO FORNO",
      "house": "38",
      "postcode": "2560-044",
      "city": "A DOS CUNHADOS",
      "lon": "-9.33442063583161",
      "lat": "39.13152065415725"
    },
    {
      "id": "pt.ine.add.PTCONT.3192618",
      "street": "R FORNO",
      "house": "48",
      "postcode": "2560-049",
      "city": "A DOS CUNHADOS",
      "lon": "-9.333221812006467",
      "lat": "39.13583841726291"
    },
    {
      "id": "pt.ine.add.PTCONT.3319875",
      "street": "R FORNO",
      "house": "50",
      "postcode": "2560-049",
      "city": "A DOS CUNHADOS",
      "lon": "-9.332957228870306",
      "lat": "39.13592220570901"
    }
  ]
}