{
  "data": {
    "distrito": "Leiria",
    "concelho": "Porto de Mós",
    "freguesia": "Alqueidão da Serra",
    "OBJECTID": 591,
    "BGRI2021": "10160200211",
    "DT21": "10",
    "DTMN21": "1016",
    "DTMNFR21": "101602",
    "DTMNFRSEC21": "101602002",
    "SECNUM21": "002",
    "SSNUM21": "11",
    "SECSSNUM21": "00211",
    "OBJECTID_1": 98230,
    "DT": "10",
    "CC": "16",
    "fr": "02",
    "SEC": "002",
    "SS": "11"
  },
  "addresses": [
    {
      "id": "pt.ine.add.PTCONT.1981538",
      "street": "R PADRE JULIO PEREIRA ROQUE",
      "house": "",
      "postcode": "2480-013",
      "city": "ALQUEIDÃO DA SERRA",
      "lon": "-8.783222002780624",
      "lat": "39.61682118135347"
    },
    {
      "id": "pt.ine.add.PTCONT.1995024",
      "street": "R CAMINHO VELHO",
      "house": "",
      "postcode": "2480-013",
      "city": "ALQUEIDÃO DA SERRA",
      "lon": "-8.786001211325308",
      "lat": "39.61886812622812"
    },
    {
      "id": "pt.ine.add.PTCONT.2014499",
      "street": "R PADRE JULIO PEREIRA ROQUE",
      "house": "",
      "postcode": "2480-013",
      "city": "ALQUEIDÃO DA SERRA",
      "lon": "-8.783200885992311",
      "lat": "39.618298395828354"
    },
    {
      "id": "pt.ine.add.PTCONT.2016647",
      "street": "R FUNDO LUGAR",
      "house": "",
      "postcode": "2480-013",
      "city": "ALQUEIDÃO DA SERRA",
      "lon": "-8.782891605369196",
      "lat": "39.6188495337886"
    },
    {
      "id": "pt.ine.add.PTCONT.2021926",
      "street": "R E",
      "house": "",
      "postcode": "2480-013",
      "city": "ALQUEIDÃO DA SERRA",
      "lon": "-8.783055584940803",
      "lat": "39.61770476766474"
    },
    {
      "id": "pt.ine.add.PTCONT.2034448",
      "street": "R PORTO DE MOS",
      "house": "4",
      "postcode": "2480-013",
      "city": "ALQUEIDÃO DA SERRA",
      "lon": "-8.784302442799202",
      "lat": "39.61654492963843"
    },
    {
      "id": "pt.ine.add.PTCONT.2034724",
      "street": "R CHA",
      "house": "SA",
      "postcode": "2480-013",
      "city": "ALQUEIDÃO DA SERRA",
      "lon": "-8.786078141500317",
      "lat": "39.62085817020231"
    },
    {
      "id": "pt.ine.add.PTCONT.2051417",
      "street": "R FUNDO LUGAR",
      "house": "",
      "postcode": "2480-013",
      "city": "ALQUEIDÃO DA SERRA",
      "lon": "-8.782782167284768",
      "lat": "39.618354778262926"
    },
    {
      "id": "pt.ine.add.PTCONT.2052280",
      "street": "BC CANTO",
      "house": "",
      "postcode": "2480-013",
      "city": "ALQUEIDÃO DA SERRA",
      "lon": "-8.783238197616678",
      "lat": "39.617307451746186"
    },
    {
      "id": "pt.ine.add.PTCONT.2056340",
      "street": "R CHA",
      "house": "1 B",
      "postcode": "2480-013",
      "city": "ALQUEIDÃO DA SERRA",
      "lon": "-8.784853079608032",
      "lat": "39.62062186911943"
    },
    {
      "id": "pt.ine.add.PTCONT.2056343",
      "street": "R CAMINHO VELHO",
      "house": "",
      "postcode": "2480-013",
      "city": "ALQUEIDÃO DA SERRA",
      "lon": "-8.784294680149088",
      "lat": "39.6169592806909"
    },
    {
      "id": "pt.ine.add.PTCONT.2058612",
      "street": "LG CRUZEIRO",
      "house": "2",
      "postcode": "2480-013",
      "city": "ALQUEIDÃO DA SERRA",
      "lon": "-8.783027452466301",
      "lat": "39.61967738865506"
    },
    {
      "id": "pt.ine.add.PTCONT.2058613",
      "street": "R PADRE JOAQUIM VIEIRA DA ROSA",
      "house": "1",
      "postcode": "2480-013",
      "city": "ALQUEIDÃO DA SERRA",
      "lon": "-8.782965372772475",
      "lat": "39.618020506283194"
    },
    {
      "id": "pt.ine.add.PTCONT.2064711",
      "street": "R E",
      "house": "",
      "postcode": "2480-013",
      "city": "ALQUEIDÃO DA SERRA",
      "lon": "-8.782960150796352",
      "lat": "39.61746212104825"
    },
    {
      "id": "pt.ine.add.PTCONT.2081334",
      "street": "LG S JOÃO",
      "house": "",
      "postcode": "2480-013",
      "city": "ALQUEIDÃO DA SERRA",
      "lon": "-8.782772652491316",
      "lat": "39.6173370761221"
    },
    {
      "id": "pt.ine.add.PTCONT.2088925",
      "street": "R E",
      "house": "",
      "postcode": "2480-013",
      "city": "ALQUEIDÃO DA SERRA",
      "lon": "-8.783384257873168",
      "lat": "39.61798213562751"
    },
    {
      "id": "pt.ine.add.PTCONT.2088929",
      "street": "R PADRE JULIO PEREIRA ROQUE",
      "house": "13",
      "postcode": "2480-013",
      "city": "ALQUEIDÃO DA SERRA",
      "lon": "-8.782759155194606",
      "lat": "39.61713900452012"
    },
    {
      "id": "pt.ine.add.PTCONT.2089199",
      "street": "TV TI JOÃO BISCOITO",
      "house": "1",
      "postcode": "2480-013",
      "city": "ALQUEIDÃO DA SERRA",
      "lon": "-8.78298672562625",
      "lat": "39.617813233097856"
    },
    {
      "id": "pt.ine.add.PTCONT.2091155",
      "street": "R CAMINHO VELHO",
      "house": "",
      "postcode": "2480-013",
      "city": "ALQUEIDÃO DA SERRA",
      "lon": "-8.785758269403933",
      "lat": "39.61904061825611"
    },
    {
      "id": "pt.ine.add.PTCONT.2094561",
      "street": "R CHA",
      "house": "235",
      "postcode": "2480-013",
      "city": "ALQUEIDÃO DA SERRA",
      "lon": "-8.785264560382323",
      "lat": "39.62103386715728"
    },
    {
      "id": "pt.ine.add.PTCONT.2095538",
      "street": "TV TI JOÃO BISCOITO",
      "house": "2",
      "postcode": "2480-013",
      "city": "ALQUEIDÃO DA SERRA",
      "lon": "-8.782601345369217",
      "lat": "39.61769830136982"
    },
    {
      "id": "pt.ine.add.PTCONT.2099309",
      "street": "R PORTO DE MOS",
      "house": "2",
      "postcode": "2480-013",
      "city": "ALQUEIDÃO DA SERRA",
      "lon": "-8.784208946767881",
      "lat": "39.61650942692687"
    },
    {
      "id": "pt.ine.add.PTCONT.2102213",
      "street": "R PADRE JULIO PEREIRA ROQUE",
      "house": "",
      "postcode": "2480-013",
      "city": "ALQUEIDÃO DA SERRA",
      "lon": "-8.783258959633141",
      "lat": "39.617037134995954"
    },
    {
      "id": "pt.ine.add.PTCONT.2105086",
      "street": "R E LARGO ENG ARTUR H TRINDADE",
      "house": "",
      "postcode": "2480-013",
      "city": "ALQUEIDÃO DA SERRA",
      "lon": "-8.783125960475234",
      "lat": "39.617758414029495"
    },
    {
      "id": "pt.ine.add.PTCONT.2106546",
      "street": "LG S JOÃO",
      "house": "6",
      "postcode": "2480-013",
      "city": "ALQUEIDÃO DA SERRA",
      "lon": "-8.782644810605936",
      "lat": "39.6173648110158"
    },
    {
      "id": "pt.ine.add.PTCONT.2106547",
      "street": "R PADRE JULIO PEREIRA ROQUE",
      "house": "9",
      "postcode": "2480-013",
      "city": "ALQUEIDÃO DA SERRA",
      "lon": "-8.783096857720132",
      "lat": "39.61713711559542"
    },
    {
      "id": "pt.ine.add.PTCONT.2137505",
      "street": "TV TI JOÃO BISCOITO",
      "house": "4",
      "postcode": "2480-013",
      "city": "ALQUEIDÃO DA SERRA",
      "lon": "-8.782672730805633",
      "lat": "39.617860022579386"
    },
    {
      "id": "pt.ine.add.PTCONT.2141955",
      "street": "R PADRE JOAQUIM VIEIRA ROSA",
      "house": "6",
      "postcode": "2480-013",
      "city": "ALQUEIDÃO DA SERRA",
      "lon": "-8.783549986320327",
      "lat": "39.618269421740436"
    },
    {
      "id": "pt.ine.add.PTCONT.2148036",
      "street": "R FUNDO LUGAR",
      "house": "",
      "postcode": "2480-013",
      "city": "ALQUEIDÃO DA SERRA",
      "lon": "-8.782692653260074",
      "lat": "39.6174996437939"
    },
    {
      "id": "pt.ine.add.PTCONT.2148136",
      "street": "LG FISCAL LOURENCO COSTA",
      "house": "1",
      "postcode": "2480-013",
      "city": "ALQUEIDÃO DA SERRA",
      "lon": "-8.784057311191127",
      "lat": "39.6164832566052"
    },
    {
      "id": "pt.ine.add.PTCONT.2161143",
      "street": "R CHA",
      "house": "",
      "postcode": "2480-013",
      "city": "ALQUEIDÃO DA SERRA",
      "lon": "-8.78633171836329",
      "lat": "39.6205775375973"
    },
    {
      "id": "pt.ine.add.PTCONT.2167822",
      "street": "R PADRE JOAQUIM VIEIRA DA ROSA",
      "house": "5",
      "postcode": "2480-013",
      "city": "ALQUEIDÃO DA SERRA",
      "lon": "-8.783116674335073",
      "lat": "39.61801065314814"
    },
    {
      "id": "pt.ine.add.PTCONT.2178533",
      "street": "R PADRE JULIO PEREIRA ROQUE",
      "house": "3",
      "postcode": "2480-013",
      "city": "ALQUEIDÃO DA SERRA",
      "lon": "-8.783256431799046",
      "lat": "39.61676694856859"
    },
    {
      "id": "pt.ine.add.PTCONT.2182568",
      "street": "R PADRE JULIO PEREIRA ROQUE",
      "house": "",
      "postcode": "2480-013",
      "city": "ALQUEIDÃO DA SERRA",
      "lon": "-8.783211790256104",
      "lat": "39.61697435216093"
    },
    {
      "id": "pt.ine.add.PTCONT.2192083",
      "street": "R PADRE JOAQUIM VIEIRA DA ROSA",
      "house": "4",
      "postcode": "2480-013",
      "city": "ALQUEIDÃO DA SERRA",
      "lon": "-8.783316915710547",
      "lat": "39.61825271306732"
    },
    {
      "id": "pt.ine.add.PTCONT.2198110",
      "street": "LG ENG TRINDADE",
      "house": "1",
      "postcode": "2480-013",
      "city": "ALQUEIDÃO DA SERRA",
      "lon": "-8.78297364874106",
      "lat": "39.617660192610714"
    },
    {
      "id": "pt.ine.add.PTCONT.2205492",
      "street": "R PADRE JOAQUIM VIEIRA DA ROSA",
      "house": "2",
      "postcode": "2480-013",
      "city": "ALQUEIDÃO DA SERRA",
      "lon": "-8.78298984211559",
      "lat": "39.61814646298073"
    },
    {
      "id": "pt.ine.add.PTCONT.2207453",
      "street": "R CHA",
      "house": "1",
      "postcode": "2480-013",
      "city": "ALQUEIDÃO DA SERRA",
      "lon": "-8.784257302525932",
      "lat": "39.6204270630368"
    },
    {
      "id": "pt.ine.add.PTCONT.2207454",
      "street": "R CAMINHO VELHO",
      "house": "2",
      "postcode": "2480-013",
      "city": "ALQUEIDÃO DA SERRA",
      "lon": "-8.784905029027597",
      "lat": "39.6174692389817"
    },
    {
      "id": "pt.ine.add.PTCONT.2229536",
      "street": "R TI MARIA AMADA",
      "house": "",
      "postcode": "2480-013",
      "city": "ALQUEIDÃO DA SERRA",
      "lon": "-8.783349000704106",
      "lat": "39.6167033836889"
    },
    {
      "id": "pt.ine.add.PTCONT.2240321",
      "street": "R FUNDO LUGAR",
      "house": "14",
      "postcode": "2480-013",
      "city": "ALQUEIDÃO DA SERRA",
      "lon": "-8.78279600175573",
      "lat": "39.61858887466837"
    }
  ]
}