{
  "data": {
    "distrito": "Castelo Branco",
    "concelho": "Sertã",
    "freguesia": "União das freguesias de Cernache do Bonjardim, Nesperal e Palhais",
    "OBJECTID": 345,
    "BGRI2021": "05091500104",
    "DT21": "05",
    "DTMN21": "0509",
    "DTMNFR21": "050915",
    "DTMNFRSEC21": "050915001",
    "SECNUM21": "001",
    "SSNUM21": "04",
    "SECSSNUM21": "00104",
    "OBJECTID_1": 46346,
    "DT": "05",
    "CC": "09",
    "fr": "15",
    "SEC": "001",
    "SS": "04"
  },
  "addresses": [
    {
      "id": "pt.ine.add.PTCONT.953702",
      "street": "",
      "house": "",
      "postcode": "6100-481",
      "city": "PALHAIS SRT",
      "lon": "-8.193382787068686",
      "lat": "39.760569827804815"
    },
    {
      "id": "pt.ine.add.PTCONT.969189",
      "street": "",
      "house": "",
      "postcode": "6100-481",
      "city": "PALHAIS SRT",
      "lon": "-8.189847966559666",
      "lat": "39.76194060820095"
    },
    {
      "id": "pt.ine.add.PTCONT.970173",
      "street": "",
      "house": "",
      "postcode": "6100-481",
      "city": "PALHAIS SRT",
      "lon": "-8.190208911298024",
      "lat": "39.76094070195167"
    },
    {
      "id": "pt.ine.add.PTCONT.977735",
      "street": "",
      "house": "",
      "postcode": "6100-488",
      "city": "PALHAIS SRT",
      "lon": "-8.203497873155117",
      "lat": "39.75799726126591"
    },
    {
      "id": "pt.ine.add.PTCONT.992543",
      "street": "",
      "house": "",
      "postcode": "6100-481",
      "city": "PALHAIS SRT",
      "lon": "-8.192706087235102",
      "lat": "39.76074130207771"
    },
    {
      "id": "pt.ine.add.PTCONT.1000765",
      "street": "",
      "house": "",
      "postcode": "6100-481",
      "city": "PALHAIS SRT",
      "lon": "-8.192052693005726",
      "lat": "39.760876734286065"
    },
    {
      "id": "pt.ine.add.PTCONT.1018221",
      "street": "",
      "house": "",
      "postcode": "6100-481",
      "city": "PALHAIS SRT",
      "lon": "-8.194607809693819",
      "lat": "39.76022693550024"
    },
    {
      "id": "pt.ine.add.PTCONT.1013208",
      "street": "",
      "house": "",
      "postcode": "6100-488",
      "city": "PALHAIS SRT",
      "lon": "-8.202308762716468",
      "lat": "39.75915982429816"
    },
    {
      "id": "pt.ine.add.PTCONT.1026925",
      "street": "",
      "house": "",
      "postcode": "6100-481",
      "city": "PALHAIS SRT",
      "lon": "-8.197687893109519",
      "lat": "39.75945069750391"
    },
    {
      "id": "pt.ine.add.PTCONT.1023108",
      "street": "",
      "house": "",
      "postcode": "6100-481",
      "city": "PALHAIS SRT",
      "lon": "-8.189894047406817",
      "lat": "39.76121105352934"
    },
    {
      "id": "pt.ine.add.PTCONT.1031477",
      "street": "",
      "house": "",
      "postcode": "6100-488",
      "city": "PALHAIS SRT",
      "lon": "-8.20158565252526",
      "lat": "39.75956554891647"
    },
    {
      "id": "pt.ine.add.PTCONT.1032605",
      "street": "",
      "house": "",
      "postcode": "6100-481",
      "city": "PALHAIS SRT",
      "lon": "-8.19634677145433",
      "lat": "39.76041513911086"
    },
    {
      "id": "pt.ine.add.PTCONT.1057630",
      "street": "",
      "house": "",
      "postcode": "6100-481",
      "city": "PALHAIS SRT",
      "lon": "-8.198643766686832",
      "lat": "39.75836036636099"
    },
    {
      "id": "pt.ine.add.PTCONT.1038422",
      "street": "",
      "house": "",
      "postcode": "6100-481",
      "city": "PALHAIS SRT",
      "lon": "-8.1978987222246",
      "lat": "39.76027918463849"
    },
    {
      "id": "pt.ine.add.PTCONT.1040028",
      "street": "R ATALAIA",
      "house": "",
      "postcode": "6100-481",
      "city": "PALHAIS SRT",
      "lon": "-8.198902439119669",
      "lat": "39.7604047120348"
    },
    {
      "id": "pt.ine.add.PTCONT.1046394",
      "street": "",
      "house": "",
      "postcode": "6100-481",
      "city": "PALHAIS SRT",
      "lon": "-8.190465221993824",
      "lat": "39.7604272010348"
    },
    {
      "id": "pt.ine.add.PTCONT.1048652",
      "street": "",
      "house": "",
      "postcode": "6100-481",
      "city": "PALHAIS SRT",
      "lon": "-8.190592907902028",
      "lat": "39.75960753981778"
    },
    {
      "id": "pt.ine.add.PTCONT.1056493",
      "street": "",
      "house": "",
      "postcode": "6100-488",
      "city": "PALHAIS SRT",
      "lon": "-8.201130537720957",
      "lat": "39.75956581651818"
    },
    {
      "id": "pt.ine.add.PTCONT.1060539",
      "street": "",
      "house": "",
      "postcode": "6100-481",
      "city": "PALHAIS SRT",
      "lon": "-8.191024615934847",
      "lat": "39.7595262660605"
    },
    {
      "id": "pt.ine.add.PTCONT.1078496",
      "street": "",
      "house": "",
      "postcode": "6100-481",
      "city": "PALHAIS SRT",
      "lon": "-8.190080713703903",
      "lat": "39.761147916065674"
    },
    {
      "id": "pt.ine.add.PTCONT.1083873",
      "street": "VALE DA PEDRA",
      "house": "",
      "postcode": "6100-331",
      "city": "CERNACHE DO BONJARDIM",
      "lon": "-8.20300896252318",
      "lat": "39.75918642446264"
    },
    {
      "id": "pt.ine.add.PTCONT.1084977",
      "street": "",
      "house": "",
      "postcode": "6100-481",
      "city": "PALHAIS SRT",
      "lon": "-8.191036187445198",
      "lat": "39.759409174839305"
    },
    {
      "id": "pt.ine.add.PTCONT.1089499",
      "street": "",
      "house": "",
      "postcode": "6100-481",
      "city": "PALHAIS SRT",
      "lon": "-8.196906911375082",
      "lat": "39.760405826014676"
    },
    {
      "id": "pt.ine.add.PTCONT.1092690",
      "street": "",
      "house": "",
      "postcode": "6100-481",
      "city": "PALHAIS SRT",
      "lon": "-8.191294040107492",
      "lat": "39.760742018507266"
    },
    {
      "id": "pt.ine.add.PTCONT.1095814",
      "street": "",
      "house": "",
      "postcode": "6100-481",
      "city": "PALHAIS SRT",
      "lon": "-8.190406947843819",
      "lat": "39.76051729552897"
    }
  ]
}