{
  "data": {
    "distrito": "Castelo Branco",
    "concelho": "Sertã",
    "freguesia": "União das freguesias de Cernache do Bonjardim, Nesperal e Palhais",
    "OBJECTID": 222,
    "BGRI2021": "05091500121",
    "DT21": "05",
    "DTMN21": "0509",
    "DTMNFR21": "050915",
    "DTMNFRSEC21": "050915001",
    "SECNUM21": "001",
    "SSNUM21": "21",
    "SECSSNUM21": "00121",
    "OBJECTID_1": 46354,
    "DT": "05",
    "CC": "09",
    "fr": "15",
    "SEC": "001",
    "SS": "21"
  },
  "addresses": [
    {
      "id": "pt.ine.add.PTCONT.953682",
      "street": "TAPADA NOVA",
      "house": "",
      "postcode": "6100-492",
      "city": "PALHAIS SRT",
      "lon": "-8.150160936588604",
      "lat": "39.77290520208629"
    },
    {
      "id": "pt.ine.add.PTCONT.962576",
      "street": "",
      "house": "",
      "postcode": "6100-492",
      "city": "PALHAIS SRT",
      "lon": "-8.15957070892277",
      "lat": "39.778766700885235"
    },
    {
      "id": "pt.ine.add.PTCONT.965841",
      "street": "",
      "house": "",
      "postcode": "6100-492",
      "city": "PALHAIS SRT",
      "lon": "-8.161765098189885",
      "lat": "39.778504990038265"
    },
    {
      "id": "pt.ine.add.PTCONT.970151",
      "street": "",
      "house": "",
      "postcode": "6100-492",
      "city": "PALHAIS SRT",
      "lon": "-8.158730637093829",
      "lat": "39.779775622168984"
    },
    {
      "id": "pt.ine.add.PTCONT.982683",
      "street": "",
      "house": "",
      "postcode": "6100-492",
      "city": "PALHAIS SRT",
      "lon": "-8.160084300682508",
      "lat": "39.77873055647234"
    },
    {
      "id": "pt.ine.add.PTCONT.987098",
      "street": "",
      "house": "",
      "postcode": "6100-492",
      "city": "PALHAIS SRT",
      "lon": "-8.160119664300527",
      "lat": "39.779613189444746"
    },
    {
      "id": "pt.ine.add.PTCONT.989507",
      "street": "",
      "house": "",
      "postcode": "6100-492",
      "city": "PALHAIS SRT",
      "lon": "-8.1597458400127",
      "lat": "39.77886573279926"
    },
    {
      "id": "pt.ine.add.PTCONT.996093",
      "street": "",
      "house": "",
      "postcode": "6100-492",
      "city": "PALHAIS SRT",
      "lon": "-8.159559232595155",
      "lat": "39.77928007645632"
    },
    {
      "id": "pt.ine.add.PTCONT.1003853",
      "street": "",
      "house": "",
      "postcode": "6100-492",
      "city": "PALHAIS SRT",
      "lon": "-8.160516174826602",
      "lat": "39.77867641602602"
    },
    {
      "id": "pt.ine.add.PTCONT.1014835",
      "street": "",
      "house": "",
      "postcode": "6100-492",
      "city": "PALHAIS SRT",
      "lon": "-8.15891742239914",
      "lat": "39.7798206134914"
    },
    {
      "id": "pt.ine.add.PTCONT.1014836",
      "street": "",
      "house": "",
      "postcode": "6100-492",
      "city": "PALHAIS SRT",
      "lon": "-8.159757603207682",
      "lat": "39.77909990022021"
    },
    {
      "id": "pt.ine.add.PTCONT.1042914",
      "street": "",
      "house": "",
      "postcode": "6100-492",
      "city": "PALHAIS SRT",
      "lon": "-8.158578170563269",
      "lat": "39.77783024234897"
    },
    {
      "id": "pt.ine.add.PTCONT.1042915",
      "street": "",
      "house": "",
      "postcode": "6100-492",
      "city": "PALHAIS SRT",
      "lon": "-8.159827536215946",
      "lat": "39.77882968784657"
    },
    {
      "id": "pt.ine.add.PTCONT.1049743",
      "street": "",
      "house": "",
      "postcode": "6100-492",
      "city": "PALHAIS SRT",
      "lon": "-8.158718843878502",
      "lat": "39.77945138925414"
    },
    {
      "id": "pt.ine.add.PTCONT.1071476",
      "street": "",
      "house": "",
      "postcode": "6100-492",
      "city": "PALHAIS SRT",
      "lon": "-8.161590087638114",
      "lat": "39.77870317708016"
    },
    {
      "id": "pt.ine.add.PTCONT.1079333",
      "street": "",
      "house": "",
      "postcode": "6100-492",
      "city": "PALHAIS SRT",
      "lon": "-8.16146062564899",
      "lat": "39.7761183302049"
    },
    {
      "id": "pt.ine.add.PTCONT.1084950",
      "street": "",
      "house": "",
      "postcode": "6100-496",
      "city": "PALHAIS SRT",
      "lon": "-8.151164872745401",
      "lat": "39.77349948268841"
    },
    {
      "id": "pt.ine.add.PTCONT.1088396",
      "street": "",
      "house": "",
      "postcode": "6100-492",
      "city": "PALHAIS SRT",
      "lon": "-8.161753522456436",
      "lat": "39.778739163031155"
    },
    {
      "id": "pt.ine.add.PTCONT.1097017",
      "street": "",
      "house": "",
      "postcode": "6100-492",
      "city": "PALHAIS SRT",
      "lon": "-8.159337473965284",
      "lat": "39.779352179126164"
    }
  ]
}