{
  "data": {
    "distrito": "Santarém",
    "concelho": "Alcanena",
    "freguesia": "Serra de Santo António",
    "OBJECTID": 506,
    "BGRI2021": "14020900111",
    "DT21": "14",
    "DTMN21": "1402",
    "DTMNFR21": "140209",
    "DTMNFRSEC21": "140209001",
    "SECNUM21": "001",
    "SSNUM21": "11",
    "SECSSNUM21": "00111",
    "OBJECTID_1": 148135,
    "DT": "14",
    "CC": "02",
    "fr": "09",
    "SEC": "001",
    "SS": "11"
  },
  "addresses": [
    {
      "id": "pt.ine.add.PTCONT.4423993",
      "street": "R JOÃO DIAS FRAZAO",
      "house": "147",
      "postcode": "2380-608",
      "city": "SERRA DE SANTO ANTÓNIO",
      "lon": "-8.729026712348627",
      "lat": "39.51110196151682"
    },
    {
      "id": "pt.ine.add.PTCONT.4432344",
      "street": "R JOAQUIM MARIA BATISTA",
      "house": "180",
      "postcode": "2380-608",
      "city": "SERRA DE SANTO ANTÓNIO",
      "lon": "-8.728132715257795",
      "lat": "39.5112596573197"
    },
    {
      "id": "pt.ine.add.PTCONT.4456998",
      "street": "R JOÃO ASSUNÇAO",
      "house": "379",
      "postcode": "2380-608",
      "city": "SERRA DE SANTO ANTÓNIO",
      "lon": "-8.731499581454962",
      "lat": "39.50929689314434"
    },
    {
      "id": "pt.ine.add.PTCONT.4473689",
      "street": "R JOÃO DIAS FRAZAO",
      "house": "162",
      "postcode": "2380-608",
      "city": "SERRA DE SANTO ANTÓNIO",
      "lon": "-8.729173865379835",
      "lat": "39.51063285008714"
    },
    {
      "id": "pt.ine.add.PTCONT.4550084",
      "street": "R OUTEIROS",
      "house": "225",
      "postcode": "2380-608",
      "city": "SERRA DE SANTO ANTÓNIO",
      "lon": "-8.730106498619032",
      "lat": "39.509556247421756"
    },
    {
      "id": "pt.ine.add.PTCONT.4552295",
      "street": "R JOAQUIM MARIA BATISTA",
      "house": "212",
      "postcode": "2380-608",
      "city": "SERRA DE SANTO ANTÓNIO",
      "lon": "-8.727910336584243",
      "lat": "39.51108966482418"
    },
    {
      "id": "pt.ine.add.PTCONT.4560647",
      "street": "R COVA ALTA",
      "house": "69",
      "postcode": "2380-608",
      "city": "SERRA DE SANTO ANTÓNIO",
      "lon": "-8.730518207818278",
      "lat": "39.5087525212218"
    },
    {
      "id": "pt.ine.add.PTCONT.4593998",
      "street": "R JAIME LUIS COVINHA",
      "house": "9",
      "postcode": "2380-608",
      "city": "SERRA DE SANTO ANTÓNIO",
      "lon": "-8.728704223668988",
      "lat": "39.511463888738774"
    },
    {
      "id": "pt.ine.add.PTCONT.4600141",
      "street": "R JAIME LUIS COVINHA",
      "house": "61",
      "postcode": "2380-608",
      "city": "SERRA DE SANTO ANTÓNIO",
      "lon": "-8.72895894878072",
      "lat": "39.511336487356594"
    },
    {
      "id": "pt.ine.add.PTCONT.4600142",
      "street": "R JAIME LUIS COVINHA",
      "house": "61",
      "postcode": "2380-608",
      "city": "SERRA DE SANTO ANTÓNIO",
      "lon": "-8.72895894878072",
      "lat": "39.511336487356594"
    },
    {
      "id": "pt.ine.add.PTCONT.4608527",
      "street": "R JOÃO ASSUNÇAO",
      "house": "385",
      "postcode": "2380-608",
      "city": "SERRA DE SANTO ANTÓNIO",
      "lon": "-8.731382152750422",
      "lat": "39.509162394478246"
    },
    {
      "id": "pt.ine.add.PTCONT.4618934",
      "street": "R JOAQUIM MARIA BATISTA",
      "house": "246",
      "postcode": "2380-608",
      "city": "SERRA DE SANTO ANTÓNIO",
      "lon": "-8.72762936199378",
      "lat": "39.51086593036033"
    },
    {
      "id": "pt.ine.add.PTCONT.4633438",
      "street": "R JOÃO ASSUNÇAO",
      "house": "351",
      "postcode": "2380-608",
      "city": "SERRA DE SANTO ANTÓNIO",
      "lon": "-8.731378636239505",
      "lat": "39.51010813366396"
    },
    {
      "id": "pt.ine.add.PTCONT.4639517",
      "street": "R JOÃO ASSUNÇAO",
      "house": "161",
      "postcode": "2380-608",
      "city": "SERRA DE SANTO ANTÓNIO",
      "lon": "-8.73067025234817",
      "lat": "39.511570889173534"
    },
    {
      "id": "pt.ine.add.PTCONT.4641584",
      "street": "R JOÃO DIAS FRAZAO",
      "house": "1942",
      "postcode": "2380-608",
      "city": "SERRA DE SANTO ANTÓNIO",
      "lon": "-8.729749762698534",
      "lat": "39.51135044524051"
    }
  ]
}