{
  "data": {
    "distrito": "Santarém",
    "concelho": "Alcanena",
    "freguesia": "Serra de Santo António",
    "OBJECTID": 38,
    "BGRI2021": "14020900115",
    "DT21": "14",
    "DTMN21": "1402",
    "DTMNFR21": "140209",
    "DTMNFRSEC21": "140209001",
    "SECNUM21": "001",
    "SSNUM21": "15",
    "SECSSNUM21": "00115",
    "OBJECTID_1": 147981,
    "DT": "14",
    "CC": "02",
    "fr": "09",
    "SEC": "001",
    "SS": "15"
  },
  "addresses": [
    {
      "id": "pt.ine.add.PTCONT.4408645",
      "street": "R JOAO ASSUNCAO",
      "house": "3",
      "postcode": "2380-608",
      "city": "SERRA DE SANTO ANTÓNIO",
      "lon": "-8.729900618462626",
      "lat": "39.51267367999265"
    },
    {
      "id": "pt.ine.add.PTCONT.4408646",
      "street": "R JOAO ASSUNCAO",
      "house": "3",
      "postcode": "2380-608",
      "city": "SERRA DE SANTO ANTÓNIO",
      "lon": "-8.729900618462626",
      "lat": "39.51267367999265"
    },
    {
      "id": "pt.ine.add.PTCONT.4426197",
      "street": "R JAIME LUIS COVINHA",
      "house": "104",
      "postcode": "2380-608",
      "city": "SERRA DE SANTO ANTÓNIO",
      "lon": "-8.729774404138384",
      "lat": "39.51151244235033"
    },
    {
      "id": "pt.ine.add.PTCONT.4432343",
      "street": "R JOÃO ASSUNÇAO",
      "house": "61",
      "postcode": "2380-608",
      "city": "SERRA DE SANTO ANTÓNIO",
      "lon": "-8.73024697826516",
      "lat": "39.51238368182814"
    },
    {
      "id": "pt.ine.add.PTCONT.4444689",
      "street": "R JAIME LUIS COVINHA",
      "house": "194",
      "postcode": "2380-608",
      "city": "SERRA DE SANTO ANTÓNIO",
      "lon": "-8.730278468071239",
      "lat": "39.51198721806548"
    },
    {
      "id": "pt.ine.add.PTCONT.4456997",
      "street": "R JAIME LUIS COVINHA",
      "house": "78",
      "postcode": "2380-608",
      "city": "SERRA DE SANTO ANTÓNIO",
      "lon": "-8.729425967721587",
      "lat": "39.511559264441004"
    },
    {
      "id": "pt.ine.add.PTCONT.4517385",
      "street": "R JOAQUIM MARIA BATISTA",
      "house": "86",
      "postcode": "2380-608",
      "city": "SERRA DE SANTO ANTÓNIO",
      "lon": "-8.728917362923792",
      "lat": "39.51191313986435"
    },
    {
      "id": "pt.ine.add.PTCONT.4529691",
      "street": "R JOAQUIM MARIA BATISTA",
      "house": "12",
      "postcode": "2380-608",
      "city": "SERRA DE SANTO ANTÓNIO",
      "lon": "-8.728694134328999",
      "lat": "39.5116440777355"
    },
    {
      "id": "pt.ine.add.PTCONT.4531809",
      "street": "R JOÃO ASSUNÇAO",
      "house": "85",
      "postcode": "2380-608",
      "city": "SERRA DE SANTO ANTÓNIO",
      "lon": "-8.730465201571782",
      "lat": "39.512067320504094"
    },
    {
      "id": "pt.ine.add.PTCONT.4558519",
      "street": "R JAIME LUIS COVINHA",
      "house": "198",
      "postcode": "2380-608",
      "city": "SERRA DE SANTO ANTÓNIO",
      "lon": "-8.730313967340868",
      "lat": "39.51205909062546"
    },
    {
      "id": "pt.ine.add.PTCONT.4566968",
      "street": "R JOAQUIM MARIA BATISTA",
      "house": "2",
      "postcode": "2380-608",
      "city": "SERRA DE SANTO ANTÓNIO",
      "lon": "-8.729610006157182",
      "lat": "39.51268417833489"
    },
    {
      "id": "pt.ine.add.PTCONT.4573191",
      "street": "R JOAQUIM MARIA BATISTA",
      "house": "12",
      "postcode": "2380-608",
      "city": "SERRA DE SANTO ANTÓNIO",
      "lon": "-8.729701100889182",
      "lat": "39.512458539308746"
    },
    {
      "id": "pt.ine.add.PTCONT.4583488",
      "street": "R JAIME LUIS COVINHA",
      "house": "",
      "postcode": "2380-608",
      "city": "SERRA DE SANTO ANTÓNIO",
      "lon": "-8.730136163378948",
      "lat": "39.51166370182716"
    },
    {
      "id": "pt.ine.add.PTCONT.4604483",
      "street": "R JOAO DIAS FRAZAO",
      "house": "15",
      "postcode": "2380-608",
      "city": "SERRA DE SANTO ANTÓNIO",
      "lon": "-8.72918741108664",
      "lat": "39.51221798895688"
    },
    {
      "id": "pt.ine.add.PTCONT.4604502",
      "street": "R JOAO DIAS FRAZAO",
      "house": "5",
      "postcode": "2380-608",
      "city": "SERRA DE SANTO ANTÓNIO",
      "lon": "-8.72918741108664",
      "lat": "39.51221798895688"
    },
    {
      "id": "pt.ine.add.PTCONT.4616902",
      "street": "R JAIME LUIS COVINHA",
      "house": "90",
      "postcode": "2380-608",
      "city": "SERRA DE SANTO ANTÓNIO",
      "lon": "-8.729611851883833",
      "lat": "39.511540297102194"
    },
    {
      "id": "pt.ine.add.PTCONT.4647770",
      "street": "R JOÃO DIAS FRAZAO",
      "house": "10",
      "postcode": "2380-608",
      "city": "SERRA DE SANTO ANTÓNIO",
      "lon": "-8.729478406551829",
      "lat": "39.51225252403"
    },
    {
      "id": "pt.ine.add.PTCONT.4653980",
      "street": "R JOÃO DIAS FRAZAO",
      "house": "48",
      "postcode": "2380-608",
      "city": "SERRA DE SANTO ANTÓNIO",
      "lon": "-8.729464545962916",
      "lat": "39.51199139606642"
    }
  ]
}