{
  "data": {
    "distrito": "Santarém",
    "concelho": "Alcanena",
    "freguesia": "Serra de Santo António",
    "OBJECTID": 306,
    "BGRI2021": "14020900137",
    "DT21": "14",
    "DTMN21": "1402",
    "DTMNFR21": "140209",
    "DTMNFRSEC21": "140209001",
    "SECNUM21": "001",
    "SSNUM21": "37",
    "SECSSNUM21": "00137",
    "OBJECTID_1": 148064,
    "DT": "14",
    "CC": "02",
    "fr": "09",
    "SEC": "001",
    "SS": "37"
  },
  "addresses": [
    {
      "id": "pt.ine.add.PTCONT.4401439",
      "street": "R EZEQUIEL ARRIAGA GALO",
      "house": "37",
      "postcode": "2380-608",
      "city": "SERRA DE SANTO ANTÓNIO",
      "lon": "-8.730281276462389",
      "lat": "39.51503152296588"
    },
    {
      "id": "pt.ine.add.PTCONT.4463353",
      "street": "R EZEQUIEL ARRIAGA GALO",
      "house": "48",
      "postcode": "2380-608",
      "city": "SERRA DE SANTO ANTÓNIO",
      "lon": "-8.730387933530544",
      "lat": "39.51526515338434"
    },
    {
      "id": "pt.ine.add.PTCONT.4463354",
      "street": "R EZEQUIEL ARRIAGA GALO",
      "house": "48",
      "postcode": "2380-608",
      "city": "SERRA DE SANTO ANTÓNIO",
      "lon": "-8.730387933530544",
      "lat": "39.51526515338434"
    },
    {
      "id": "pt.ine.add.PTCONT.4503018",
      "street": "R EZEQUIEL ARRIAGA GALO",
      "house": "2",
      "postcode": "2380-608",
      "city": "SERRA DE SANTO ANTÓNIO",
      "lon": "-8.730155142148034",
      "lat": "39.51523932859153"
    },
    {
      "id": "pt.ine.add.PTCONT.4505002",
      "street": "R EZEQUIEL ARRIAGA GALO",
      "house": "85",
      "postcode": "2380-608",
      "city": "SERRA DE SANTO ANTÓNIO",
      "lon": "-8.730512832856578",
      "lat": "39.51491324410181"
    },
    {
      "id": "pt.ine.add.PTCONT.4543871",
      "street": "R EZEQUIEL ARRIAGA GALO",
      "house": "97",
      "postcode": "2380-608",
      "city": "SERRA DE SANTO ANTÓNIO",
      "lon": "-8.730546250841183",
      "lat": "39.51474194203286"
    },
    {
      "id": "pt.ine.add.PTCONT.4552291",
      "street": "R LUIS VAZ DE CAMÕES",
      "house": "562",
      "postcode": "2380-608",
      "city": "SERRA DE SANTO ANTÓNIO",
      "lon": "-8.730012445794046",
      "lat": "39.514870780108225"
    },
    {
      "id": "pt.ine.add.PTCONT.4552292",
      "street": "R LUIS VAZ DE CAMÕES",
      "house": "562",
      "postcode": "2380-608",
      "city": "SERRA DE SANTO ANTÓNIO",
      "lon": "-8.730012445794046",
      "lat": "39.514870780108225"
    },
    {
      "id": "pt.ine.add.PTCONT.4653993",
      "street": "R EZEQUIEL ARRIAGA GALO",
      "house": "157",
      "postcode": "2380-608",
      "city": "SERRA DE SANTO ANTÓNIO",
      "lon": "-8.730717119696275",
      "lat": "39.51432674823129"
    }
  ]
}