{
  "data": {
    "distrito": "Porto",
    "concelho": "Vila Nova de Gaia",
    "freguesia": "Arcozelo",
    "OBJECTID": 1736,
    "BGRI2021": "13170100604",
    "DT21": "13",
    "DTMN21": "1317",
    "DTMNFR21": "131701",
    "DTMNFRSEC21": "131701006",
    "SECNUM21": "006",
    "SSNUM21": "04",
    "SECSSNUM21": "00604",
    "OBJECTID_1": 145071,
    "DT": "13",
    "CC": "17",
    "fr": "01",
    "SEC": "006",
    "SS": "04"
  },
  "addresses": [
    {
      "id": "pt.ine.add.PTCONT.3583942",
      "street": "R SENHOR DO CALVÁRIO",
      "house": "70",
      "postcode": "4410-350",
      "city": "ARCOZELO VNG",
      "lon": "-8.626991033855216",
      "lat": "41.065215278957865"
    },
    {
      "id": "pt.ine.add.PTCONT.3588840",
      "street": "R BOAVISTA DA ESTRADA",
      "house": "571",
      "postcode": "4410-453",
      "city": "ARCOZELO VNG",
      "lon": "-8.627937522996577",
      "lat": "41.06450886857197"
    },
    {
      "id": "pt.ine.add.PTCONT.3596790",
      "street": "R ESTRADA DE CIMA",
      "house": "65",
      "postcode": "4410-419",
      "city": "ARCOZELO VNG",
      "lon": "-8.627400953522988",
      "lat": "41.064349090570516"
    },
    {
      "id": "pt.ine.add.PTCONT.3634078",
      "street": "R ESTRADA DE CIMA CASAL RODRIGUES",
      "house": "61",
      "postcode": "4410-419",
      "city": "ARCOZELO VNG",
      "lon": "-8.627614555737768",
      "lat": "41.06427613825009"
    },
    {
      "id": "pt.ine.add.PTCONT.3691892",
      "street": "R BOAVISTA DA ESTRADA",
      "house": "551",
      "postcode": "4410-453",
      "city": "ARCOZELO VNG",
      "lon": "-8.627902844978713",
      "lat": "41.06464408479345"
    },
    {
      "id": "pt.ine.add.PTCONT.3698302",
      "street": "R SENHOR DO CALVÁRIO",
      "house": "99",
      "postcode": "4410-350",
      "city": "ARCOZELO VNG",
      "lon": "-8.626740659741824",
      "lat": "41.06514431584493"
    },
    {
      "id": "pt.ine.add.PTCONT.3698304",
      "street": "R SENHOR DO CALVÁRIO",
      "house": "100",
      "postcode": "4410-350",
      "city": "ARCOZELO VNG",
      "lon": "-8.626954804170134",
      "lat": "41.06514339832854"
    },
    {
      "id": "pt.ine.add.PTCONT.3725018",
      "street": "R GRADES VERDES",
      "house": "171",
      "postcode": "4410-412",
      "city": "ARCOZELO VNG",
      "lon": "-8.62533654276799",
      "lat": "41.06670809815063"
    },
    {
      "id": "pt.ine.add.PTCONT.3732864",
      "street": "R SENHOR DO CALVÁRIO",
      "house": "122",
      "postcode": "4410-350",
      "city": "ARCOZELO VNG",
      "lon": "-8.62697684646959",
      "lat": "41.06490918719189"
    },
    {
      "id": "pt.ine.add.PTCONT.3748208",
      "street": "R BOAVISTA",
      "house": "545",
      "postcode": "4410-453",
      "city": "ARCOZELO VNG",
      "lon": "-8.627843900743915",
      "lat": "41.06471637377026"
    },
    {
      "id": "pt.ine.add.PTCONT.3748209",
      "street": "R BOAVISTA",
      "house": "545",
      "postcode": "4410-453",
      "city": "ARCOZELO VNG",
      "lon": "-8.627843900743915",
      "lat": "41.06471637377026"
    },
    {
      "id": "pt.ine.add.PTCONT.3796771",
      "street": "R ESTRADA DE CIMA",
      "house": "105",
      "postcode": "4410-419",
      "city": "ARCOZELO VNG",
      "lon": "-8.627163220317938",
      "lat": "41.06437712351214"
    },
    {
      "id": "pt.ine.add.PTCONT.3797491",
      "street": "R ESTRADA DE CIMA",
      "house": "105",
      "postcode": "4410-419",
      "city": "ARCOZELO VNG",
      "lon": "-8.627163220317938",
      "lat": "41.06437712351214"
    },
    {
      "id": "pt.ine.add.PTCONT.3892301",
      "street": "R SENHOR DO CALVÁRIO",
      "house": "144",
      "postcode": "4410-350",
      "city": "ARCOZELO VNG",
      "lon": "-8.626975970714676",
      "lat": "41.06479213260536"
    },
    {
      "id": "pt.ine.add.PTCONT.3964043",
      "street": "R ESTRADA DE CIMA",
      "house": "165",
      "postcode": "4410-419",
      "city": "ARCOZELO VNG",
      "lon": "-8.626677337633476",
      "lat": "41.064631331279465"
    },
    {
      "id": "pt.ine.add.PTCONT.4020189",
      "street": "R BOAVISTA DA ESTRADA",
      "house": "535",
      "postcode": "4410-453",
      "city": "ARCOZELO VNG",
      "lon": "-8.627856607404672",
      "lat": "41.06482437306883"
    },
    {
      "id": "pt.ine.add.PTCONT.4028268",
      "street": "R BOAVISTA DA ESTRADA",
      "house": "531",
      "postcode": "4410-453",
      "city": "ARCOZELO VNG",
      "lon": "-8.627857349749881",
      "lat": "41.06492341924386"
    },
    {
      "id": "pt.ine.add.PTCONT.4106816",
      "street": "R SENHOR DO CALVÁRIO",
      "house": "116",
      "postcode": "4410-350",
      "city": "ARCOZELO VNG",
      "lon": "-8.626977654863321",
      "lat": "41.0650172375773"
    },
    {
      "id": "pt.ine.add.PTCONT.4113476",
      "street": "R BOAVISTA DA ESTRADA",
      "house": "571 A",
      "postcode": "4410-453",
      "city": "ARCOZELO VNG",
      "lon": "-8.627936713046205",
      "lat": "41.06440081819263"
    },
    {
      "id": "pt.ine.add.PTCONT.4137113",
      "street": "R SENHOR DO CALVÁRIO",
      "house": "85",
      "postcode": "4410-350",
      "city": "ARCOZELO VNG",
      "lon": "-8.62676559831039",
      "lat": "41.06529728529571"
    },
    {
      "id": "pt.ine.add.PTCONT.4178891",
      "street": "R GRADES VERDES",
      "house": "309",
      "postcode": "4410-412",
      "city": "ARCOZELO VNG",
      "lon": "-8.627193111776037",
      "lat": "41.066781193249454"
    },
    {
      "id": "pt.ine.add.PTCONT.4191870",
      "street": "R BOAVISTA DA ESTRADA",
      "house": "505",
      "postcode": "4410-453",
      "city": "ARCOZELO VNG",
      "lon": "-8.627644487750755",
      "lat": "41.065095418191746"
    },
    {
      "id": "pt.ine.add.PTCONT.4193286",
      "street": "R BOAVISTA DA ESTRADA",
      "house": "597",
      "postcode": "4410-453",
      "city": "ARCOZELO VNG",
      "lon": "-8.627852288378662",
      "lat": "41.06424810438004"
    },
    {
      "id": "pt.ine.add.PTCONT.4203383",
      "street": "R SENHOR DO CALVÁRIO",
      "house": "133",
      "postcode": "4410-350",
      "city": "ARCOZELO VNG",
      "lon": "-8.626738572393135",
      "lat": "41.06486518567462"
    },
    {
      "id": "pt.ine.add.PTCONT.4291036",
      "street": "R ESTRADA DE CIMA",
      "house": "261",
      "postcode": "4410-419",
      "city": "ARCOZELO VNG",
      "lon": "-8.625813238101157",
      "lat": "41.065220320751386"
    },
    {
      "id": "pt.ine.add.PTCONT.4297488",
      "street": "R ESTRADA DE CIMA",
      "house": "247",
      "postcode": "4410-419",
      "city": "ARCOZELO VNG",
      "lon": "-8.625895239436721",
      "lat": "41.0650488848567"
    }
  ]
}