{
  "data": {
    "distrito": "Santarém",
    "concelho": "Mação",
    "freguesia": "Cardigos",
    "OBJECTID": 71,
    "BGRI2021": "14130300225",
    "DT21": "14",
    "DTMN21": "1413",
    "DTMNFR21": "141303",
    "DTMNFRSEC21": "141303002",
    "SECNUM21": "002",
    "SSNUM21": "25",
    "SECSSNUM21": "00225",
    "OBJECTID_1": 152475,
    "DT": "14",
    "CC": "13",
    "fr": "03",
    "SEC": "002",
    "SS": "25"
  },
  "addresses": [
    {
      "id": "pt.ine.add.PTCONT.4399006",
      "street": "R PADARIA",
      "house": "77",
      "postcode": "6120-219",
      "city": "CARDIGOS",
      "lon": "-7.995854486081902",
      "lat": "39.72217225011511"
    },
    {
      "id": "pt.ine.add.PTCONT.4446237",
      "street": "R MALJOGA",
      "house": "142",
      "postcode": "6120-219",
      "city": "CARDIGOS",
      "lon": "-7.994525467166018",
      "lat": "39.72187345265753"
    },
    {
      "id": "pt.ine.add.PTCONT.4467175",
      "street": "ESTR MUNICPAL",
      "house": "441",
      "postcode": "6120-219",
      "city": "CARDIGOS",
      "lon": "-7.992764337963177",
      "lat": "39.72186233052174"
    },
    {
      "id": "pt.ine.add.PTCONT.4467975",
      "street": "R CENTRO RECREATIVO",
      "house": "108",
      "postcode": "6120-219",
      "city": "CARDIGOS",
      "lon": "-7.996250717130883",
      "lat": "39.72233483714366"
    },
    {
      "id": "pt.ine.add.PTCONT.4490399",
      "street": "R PADARIA",
      "house": "119",
      "postcode": "6120-219",
      "city": "CARDIGOS",
      "lon": "-7.9954692576476205",
      "lat": "39.72234291997005"
    },
    {
      "id": "pt.ine.add.PTCONT.4506315",
      "street": "R CURREIS",
      "house": "136",
      "postcode": "6120-219",
      "city": "CARDIGOS",
      "lon": "-7.995443943123903",
      "lat": "39.7233426254268"
    },
    {
      "id": "pt.ine.add.PTCONT.4513767",
      "street": "R CENTRO RECREATIVO",
      "house": "354",
      "postcode": "6120-219",
      "city": "CARDIGOS",
      "lon": "-7.995768322771255",
      "lat": "39.72445082438471"
    },
    {
      "id": "pt.ine.add.PTCONT.4525895",
      "street": "R PADARIA",
      "house": "266",
      "postcode": "6120-219",
      "city": "CARDIGOS",
      "lon": "-7.994872127044235",
      "lat": "39.72349505861799"
    },
    {
      "id": "pt.ine.add.PTCONT.4531661",
      "street": "R PADARIA",
      "house": "101",
      "postcode": "6120-219",
      "city": "CARDIGOS",
      "lon": "-7.995679268712774",
      "lat": "39.72230714224421"
    },
    {
      "id": "pt.ine.add.PTCONT.4534695",
      "street": "R PADARIA",
      "house": "137 A",
      "postcode": "6120-219",
      "city": "CARDIGOS",
      "lon": "-7.995247314034483",
      "lat": "39.72251378254419"
    },
    {
      "id": "pt.ine.add.PTCONT.4544865",
      "street": "R CURREIS",
      "house": "117",
      "postcode": "6120-219",
      "city": "CARDIGOS",
      "lon": "-7.995712060094847",
      "lat": "39.72341499603416"
    },
    {
      "id": "pt.ine.add.PTCONT.4553821",
      "street": "R MALJOGA",
      "house": "42",
      "postcode": "6120-219",
      "city": "CARDIGOS",
      "lon": "-7.993568846446599",
      "lat": "39.72198939301013"
    },
    {
      "id": "pt.ine.add.PTCONT.4583199",
      "street": "R MALJOGA",
      "house": "226",
      "postcode": "6120-219",
      "city": "CARDIGOS",
      "lon": "-7.99545895525621",
      "lat": "39.7216584040912"
    },
    {
      "id": "pt.ine.add.PTCONT.4595584",
      "street": "R PADARIA",
      "house": "137",
      "postcode": "6120-219",
      "city": "CARDIGOS",
      "lon": "-7.995375574906773",
      "lat": "39.722531948026315"
    },
    {
      "id": "pt.ine.add.PTCONT.4653502",
      "street": "R MALJOGA CASA DO VALE PENTEADO",
      "house": "116",
      "postcode": "6120-219",
      "city": "CARDIGOS",
      "lon": "-7.994046768260047",
      "lat": "39.72212506583528"
    }
  ]
}