{
  "data": {
    "distrito": "Porto",
    "concelho": "Maia",
    "freguesia": "São Pedro Fins",
    "OBJECTID": 487,
    "BGRI2021": "13061300111",
    "DT21": "13",
    "DTMN21": "1306",
    "DTMNFR21": "130613",
    "DTMNFRSEC21": "130613001",
    "SECNUM21": "001",
    "SSNUM21": "11",
    "SECSSNUM21": "00111",
    "OBJECTID_1": 130552,
    "DT": "13",
    "CC": "06",
    "fr": "13",
    "SEC": "001",
    "SS": "11"
  },
  "addresses": [
    {
      "id": "pt.ine.add.PTCONT.3581357",
      "street": "R GONDAO",
      "house": "272",
      "postcode": "4425-520",
      "city": "MAIA",
      "lon": "-8.54761611373148",
      "lat": "41.24188610504245"
    },
    {
      "id": "pt.ine.add.PTCONT.3631246",
      "street": "TV GONDAO",
      "house": "30",
      "postcode": "4425-521",
      "city": "MAIA",
      "lon": "-8.547754660375176",
      "lat": "41.24289555152623"
    },
    {
      "id": "pt.ine.add.PTCONT.3677475",
      "street": "TV GONDAO",
      "house": "68",
      "postcode": "4425-521",
      "city": "MAIA",
      "lon": "-8.548278691351117",
      "lat": "41.24275859987511"
    },
    {
      "id": "pt.ine.add.PTCONT.3698659",
      "street": "R VALE",
      "house": "250",
      "postcode": "4425-539",
      "city": "MAIA",
      "lon": "-8.548228752357653",
      "lat": "41.24240761519146"
    },
    {
      "id": "pt.ine.add.PTCONT.3745240",
      "street": "R VALE",
      "house": "283",
      "postcode": "4425-539",
      "city": "MAIA",
      "lon": "-8.54792804846958",
      "lat": "41.241907039332844"
    },
    {
      "id": "pt.ine.add.PTCONT.3750145",
      "street": "R GONDAO",
      "house": "116",
      "postcode": "4425-520",
      "city": "MAIA",
      "lon": "-8.547338502153194",
      "lat": "41.243113150778285"
    },
    {
      "id": "pt.ine.add.PTCONT.3752026",
      "street": "R GONDAO",
      "house": "116",
      "postcode": "4425-520",
      "city": "MAIA",
      "lon": "-8.547338502153194",
      "lat": "41.243113150778285"
    },
    {
      "id": "pt.ine.add.PTCONT.3782983",
      "street": "R VALE",
      "house": "245",
      "postcode": "4425-539",
      "city": "MAIA",
      "lon": "-8.548072249684253",
      "lat": "41.24218307370256"
    },
    {
      "id": "pt.ine.add.PTCONT.3803771",
      "street": "R VALE",
      "house": "277",
      "postcode": "4425-539",
      "city": "MAIA",
      "lon": "-8.547999251451445",
      "lat": "41.24195823113471"
    },
    {
      "id": "pt.ine.add.PTCONT.3831872",
      "street": "R NOVA DE GONDAO",
      "house": "36",
      "postcode": "4425-541",
      "city": "MAIA",
      "lon": "-8.54888336931118",
      "lat": "41.244053026072294"
    },
    {
      "id": "pt.ine.add.PTCONT.3831873",
      "street": "R NOVA DE GONDAO",
      "house": "36",
      "postcode": "4425-541",
      "city": "MAIA",
      "lon": "-8.54888336931118",
      "lat": "41.244053026072294"
    },
    {
      "id": "pt.ine.add.PTCONT.3831874",
      "street": "R NOVA DE GONDAO",
      "house": "36",
      "postcode": "4425-541",
      "city": "MAIA",
      "lon": "-8.54888336931118",
      "lat": "41.244053026072294"
    },
    {
      "id": "pt.ine.add.PTCONT.3831875",
      "street": "R NOVA DE GONDAO",
      "house": "36",
      "postcode": "4425-541",
      "city": "MAIA",
      "lon": "-8.54888336931118",
      "lat": "41.244053026072294"
    },
    {
      "id": "pt.ine.add.PTCONT.3835704",
      "street": "R NOVA DE GONDAO",
      "house": "36",
      "postcode": "4425-541",
      "city": "MAIA",
      "lon": "-8.54888336931118",
      "lat": "41.244053026072294"
    },
    {
      "id": "pt.ine.add.PTCONT.3839928",
      "street": "R VALE",
      "house": "65",
      "postcode": "4425-539",
      "city": "MAIA",
      "lon": "-8.549096100531125",
      "lat": "41.24373710994896"
    },
    {
      "id": "pt.ine.add.PTCONT.3883287",
      "street": "R VALE",
      "house": "125",
      "postcode": "4425-539",
      "city": "MAIA",
      "lon": "-8.548795526743662",
      "lat": "41.24336902234886"
    },
    {
      "id": "pt.ine.add.PTCONT.3948088",
      "street": "LG CORITELO",
      "house": "63",
      "postcode": "4425-218",
      "city": "MAIA",
      "lon": "-8.549180234383984",
      "lat": "41.243835852401844"
    },
    {
      "id": "pt.ine.add.PTCONT.4025703",
      "street": "R GONDAO",
      "house": "266",
      "postcode": "4425-520",
      "city": "MAIA",
      "lon": "-8.547544640803142",
      "lat": "41.241885404266874"
    },
    {
      "id": "pt.ine.add.PTCONT.4043435",
      "street": "TV DE GONDÃO",
      "house": "264",
      "postcode": "4425-521",
      "city": "MAIA",
      "lon": "-8.547463048454222",
      "lat": "41.24190947807129"
    },
    {
      "id": "pt.ine.add.PTCONT.4122051",
      "street": "R DE GONDÃO",
      "house": "246",
      "postcode": "4425-520",
      "city": "MAIA",
      "lon": "-8.547460033383096",
      "lat": "41.24199268255885"
    },
    {
      "id": "pt.ine.add.PTCONT.4156341",
      "street": "TV GONDAO",
      "house": "3",
      "postcode": "4425-521",
      "city": "MAIA",
      "lon": "-8.54740975821324",
      "lat": "41.24273251368579"
    },
    {
      "id": "pt.ine.add.PTCONT.4203990",
      "street": "LG CORITELO",
      "house": "53",
      "postcode": "4425-218",
      "city": "MAIA",
      "lon": "-8.54919279203348",
      "lat": "41.243934853464026"
    },
    {
      "id": "pt.ine.add.PTCONT.4241486",
      "street": "TV GONDAO",
      "house": "53",
      "postcode": "4425-521",
      "city": "MAIA",
      "lon": "-8.54799468402828",
      "lat": "41.2427155857065"
    },
    {
      "id": "pt.ine.add.PTCONT.4283233",
      "street": "R GONDAO",
      "house": "284",
      "postcode": "4425-520",
      "city": "MAIA",
      "lon": "-8.547773901730352",
      "lat": "41.2418938739236"
    },
    {
      "id": "pt.ine.add.PTCONT.4301305",
      "street": "TV GONDAO",
      "house": "66",
      "postcode": "4425-521",
      "city": "MAIA",
      "lon": "-8.548147641087336",
      "lat": "41.24278608499705"
    },
    {
      "id": "pt.ine.add.PTCONT.4332031",
      "street": "R GONDAO",
      "house": "278",
      "postcode": "4425-520",
      "city": "MAIA",
      "lon": "-8.547700863042609",
      "lat": "41.24189156442621"
    },
    {
      "id": "pt.ine.add.PTCONT.4342195",
      "street": "R VALE",
      "house": "103",
      "postcode": "4425-539",
      "city": "MAIA",
      "lon": "-8.548939820004602",
      "lat": "41.24354858578497"
    },
    {
      "id": "pt.ine.add.PTCONT.4347007",
      "street": "R GONDAO",
      "house": "132",
      "postcode": "4425-520",
      "city": "MAIA",
      "lon": "-8.547385650557608",
      "lat": "41.243022938917385"
    },
    {
      "id": "pt.ine.add.PTCONT.4347008",
      "street": "R GONDAO",
      "house": "132",
      "postcode": "4425-520",
      "city": "MAIA",
      "lon": "-8.547385650557608",
      "lat": "41.243022938917385"
    },
    {
      "id": "pt.ine.add.PTCONT.4366475",
      "street": "R GONDAO",
      "house": "74",
      "postcode": "4425-520",
      "city": "MAIA",
      "lon": "-8.547388607552433",
      "lat": "41.24349114787931"
    },
    {
      "id": "pt.ine.add.PTCONT.4375202",
      "street": "LG CORITELO",
      "house": "65",
      "postcode": "4425-218",
      "city": "MAIA",
      "lon": "-8.549096100531125",
      "lat": "41.24373710994896"
    },
    {
      "id": "pt.ine.add.PTCONT.4377483",
      "street": "R NOVA DE GONDAO",
      "house": "36",
      "postcode": "4425-541",
      "city": "MAIA",
      "lon": "-8.54888336931118",
      "lat": "41.244053026072294"
    }
  ]
}