{
  "data": {
    "distrito": "Viseu",
    "concelho": "Tondela",
    "freguesia": "Castelões",
    "OBJECTID": 968,
    "BGRI2021": "18210500115",
    "DT21": "18",
    "DTMN21": "1821",
    "DTMNFR21": "182105",
    "DTMNFRSEC21": "182105001",
    "SECNUM21": "001",
    "SSNUM21": "15",
    "SECSSNUM21": "00115",
    "OBJECTID_1": 199667,
    "DT": "18",
    "CC": "21",
    "fr": "05",
    "SEC": "001",
    "SS": "15"
  },
  "addresses": [
    {
      "id": "pt.ine.add.PTCONT.5438594",
      "street": "R POETA ANTÓNIO SILVA RIBEIRO",
      "house": "113",
      "postcode": "3465-132",
      "city": "CASTELÕES TND",
      "lon": "-8.155267805463994",
      "lat": "40.55048676700717"
    },
    {
      "id": "pt.ine.add.PTCONT.5441959",
      "street": "R POETA ANTÓNIO SILVA RIBEIRO",
      "house": "",
      "postcode": "3465-132",
      "city": "CASTELÕES TND",
      "lon": "-8.155256156916375",
      "lat": "40.550964052213"
    },
    {
      "id": "pt.ine.add.PTCONT.5471318",
      "street": "R EDUARDA DE MATOS",
      "house": "2",
      "postcode": "3465-132",
      "city": "CASTELÕES TND",
      "lon": "-8.15494892621559",
      "lat": "40.55010860345566"
    },
    {
      "id": "pt.ine.add.PTCONT.5501765",
      "street": "R EDUARDA DE MATOS",
      "house": "24",
      "postcode": "3465-132",
      "city": "CASTELÕES TND",
      "lon": "-8.155102441888486",
      "lat": "40.550234649093674"
    },
    {
      "id": "pt.ine.add.PTCONT.5534101",
      "street": "R POETA ANTÓNIO SILVA RIBEIRO",
      "house": "81",
      "postcode": "3465-132",
      "city": "CASTELÕES TND",
      "lon": "-8.15526790342228",
      "lat": "40.550783943183326"
    },
    {
      "id": "pt.ine.add.PTCONT.5544222",
      "street": "R POETA ANTÓNIO SILVA RIBEIRO",
      "house": "91",
      "postcode": "3465-132",
      "city": "CASTELÕES TND",
      "lon": "-8.155279670655558",
      "lat": "40.55066687151754"
    },
    {
      "id": "pt.ine.add.PTCONT.5550473",
      "street": "R POETA ANTÓNIO SILVA RIBEIRO",
      "house": "97",
      "postcode": "3465-132",
      "city": "CASTELÕES TND",
      "lon": "-8.155267838116595",
      "lat": "40.550585825734245"
    },
    {
      "id": "pt.ine.add.PTCONT.5551971",
      "street": "R POETA ANTÓNIO SILVA RIBEIRO",
      "house": "",
      "postcode": "3465-132",
      "city": "CASTELÕES TND",
      "lon": "-8.155303341765622",
      "lat": "40.550846973753714"
    },
    {
      "id": "pt.ine.add.PTCONT.5586818",
      "street": "R EDUARDA DE MATOS",
      "house": "38",
      "postcode": "3465-132",
      "city": "CASTELÕES TND",
      "lon": "-8.155208717296917",
      "lat": "40.55030667153248"
    },
    {
      "id": "pt.ine.add.PTCONT.5603392",
      "street": "R POETA ANTÓNIO SILVA RIBEIRO",
      "house": "",
      "postcode": "3465-132",
      "city": "CASTELÕES TND",
      "lon": "-8.155267885611574",
      "lat": "40.55072991115245"
    },
    {
      "id": "pt.ine.add.PTCONT.5604246",
      "street": "R EDUARDA DE MATOS",
      "house": "",
      "postcode": "3465-132",
      "city": "CASTELÕES TND",
      "lon": "-8.155291375445001",
      "lat": "40.550360687730205"
    },
    {
      "id": "pt.ine.add.PTCONT.5615976",
      "street": "R POETA ANTÓNIO SILVA RIBEIRO",
      "house": "33",
      "postcode": "3465-132",
      "city": "CASTELÕES TND",
      "lon": "-8.155126330631958",
      "lat": "40.55108114642915"
    },
    {
      "id": "pt.ine.add.PTCONT.5667840",
      "street": "R IGREJA",
      "house": "",
      "postcode": "3465-132",
      "city": "CASTELÕES TND",
      "lon": "-8.154476763047342",
      "lat": "40.55031581456329"
    }
  ]
}