{
  "data": {
    "distrito": "Braga",
    "concelho": "Barcelos",
    "freguesia": "Galegos (São Martinho)",
    "OBJECTID": 1426,
    "BGRI2021": "03027200102",
    "DT21": "03",
    "DTMN21": "0302",
    "DTMNFR21": "030272",
    "DTMNFRSEC21": "030272001",
    "SECNUM21": "001",
    "SSNUM21": "02",
    "SECSSNUM21": "00102",
    "OBJECTID_1": 20441,
    "DT": "03",
    "CC": "02",
    "fr": "72",
    "SEC": "001",
    "SS": "02"
  },
  "addresses": [
    {
      "id": "pt.ine.add.PTCONT.467816",
      "street": "R FRAGOSOS",
      "house": "2",
      "postcode": "4750-491",
      "city": "GALEGOS (SÃO MARTINHO)",
      "lon": "-8.559137847472186",
      "lat": "41.55273497348479"
    },
    {
      "id": "pt.ine.add.PTCONT.478533",
      "street": "R COVA",
      "house": "78",
      "postcode": "4750-483",
      "city": "GALEGOS (SÃO MARTINHO)",
      "lon": "-8.557098227709135",
      "lat": "41.552436384920334"
    },
    {
      "id": "pt.ine.add.PTCONT.479998",
      "street": "R ROSA RAMALHO",
      "house": "7",
      "postcode": "4750-484",
      "city": "GALEGOS (SÃO MARTINHO)",
      "lon": "-8.557721614508184",
      "lat": "41.552452092167755"
    },
    {
      "id": "pt.ine.add.PTCONT.492682",
      "street": "R COVA",
      "house": "",
      "postcode": "4750-483",
      "city": "GALEGOS (SÃO MARTINHO)",
      "lon": "-8.558488242665467",
      "lat": "41.552377228849565"
    },
    {
      "id": "pt.ine.add.PTCONT.495012",
      "street": "R COVA",
      "house": "242",
      "postcode": "4750-483",
      "city": "GALEGOS (SÃO MARTINHO)",
      "lon": "-8.55923142934886",
      "lat": "41.55238348093898"
    },
    {
      "id": "pt.ine.add.PTCONT.500721",
      "street": "R FONTE DA CARREGOSA",
      "house": "46",
      "postcode": "4750-483",
      "city": "GALEGOS (SÃO MARTINHO)",
      "lon": "-8.556859684874508",
      "lat": "41.552617338997486"
    },
    {
      "id": "pt.ine.add.PTCONT.500722",
      "street": "R FONTE DA CARREGOSA",
      "house": "46",
      "postcode": "4750-483",
      "city": "GALEGOS (SÃO MARTINHO)",
      "lon": "-8.556859684874508",
      "lat": "41.552617338997486"
    },
    {
      "id": "pt.ine.add.PTCONT.502944",
      "street": "R FONTE DA CARREGOSA",
      "house": "46",
      "postcode": "4750-483",
      "city": "GALEGOS (SÃO MARTINHO)",
      "lon": "-8.556859684874508",
      "lat": "41.552617338997486"
    },
    {
      "id": "pt.ine.add.PTCONT.535010",
      "street": "R ROSA RAMALHO",
      "house": "26",
      "postcode": "4750-484",
      "city": "GALEGOS (SÃO MARTINHO)",
      "lon": "-8.557386773422166",
      "lat": "41.552570376717796"
    },
    {
      "id": "pt.ine.add.PTCONT.539598",
      "street": "R ROSA RAMALHO",
      "house": "127",
      "postcode": "4750-484",
      "city": "GALEGOS (SÃO MARTINHO)",
      "lon": "-8.557808285945981",
      "lat": "41.55287494779418"
    },
    {
      "id": "pt.ine.add.PTCONT.548365",
      "street": "R COVA",
      "house": "170",
      "postcode": "4750-483",
      "city": "GALEGOS (SÃO MARTINHO)",
      "lon": "-8.55818894833907",
      "lat": "41.55243235806247"
    },
    {
      "id": "pt.ine.add.PTCONT.573010",
      "street": "R COVA",
      "house": "46",
      "postcode": "4750-483",
      "city": "GALEGOS (SÃO MARTINHO)",
      "lon": "-8.55679869672998",
      "lat": "41.55245549643292"
    },
    {
      "id": "pt.ine.add.PTCONT.573011",
      "street": "R ROSA RAMALHO",
      "house": "2",
      "postcode": "4750-484",
      "city": "GALEGOS (SÃO MARTINHO)",
      "lon": "-8.557409862197467",
      "lat": "41.55243523544516"
    },
    {
      "id": "pt.ine.add.PTCONT.637561",
      "street": "R TERESA GERALDES",
      "house": "204",
      "postcode": "4750-491",
      "city": "GALEGOS (SÃO MARTINHO)",
      "lon": "-8.559112515867772",
      "lat": "41.55252798135481"
    },
    {
      "id": "pt.ine.add.PTCONT.645011",
      "street": "R FRAGOSOS",
      "house": "30",
      "postcode": "4750-491",
      "city": "GALEGOS (SÃO MARTINHO)",
      "lon": "-8.55898214773698",
      "lat": "41.552753557711156"
    },
    {
      "id": "pt.ine.add.PTCONT.686216",
      "street": "R COVA",
      "house": "146",
      "postcode": "4750-483",
      "city": "GALEGOS (SÃO MARTINHO)",
      "lon": "-8.557973319329227",
      "lat": "41.55245116244627"
    },
    {
      "id": "pt.ine.add.PTCONT.693326",
      "street": "R ROSA RAMALHO",
      "house": "66",
      "postcode": "4750-484",
      "city": "GALEGOS (SÃO MARTINHO)",
      "lon": "-8.55716068765283",
      "lat": "41.55282331535739"
    },
    {
      "id": "pt.ine.add.PTCONT.720691",
      "street": "R COVA",
      "house": "208",
      "postcode": "4750-483",
      "city": "GALEGOS (SÃO MARTINHO)",
      "lon": "-8.558751992162689",
      "lat": "41.55238525660538"
    },
    {
      "id": "pt.ine.add.PTCONT.806001",
      "street": "R FRAGOSOS",
      "house": "23",
      "postcode": "4750-491",
      "city": "GALEGOS (SÃO MARTINHO)",
      "lon": "-8.559031687504437",
      "lat": "41.55299647514823"
    },
    {
      "id": "pt.ine.add.PTCONT.825888",
      "street": "R ROSA RAMALHO",
      "house": "42",
      "postcode": "4750-484",
      "city": "GALEGOS (SÃO MARTINHO)",
      "lon": "-8.557339535966639",
      "lat": "41.55267859586148"
    },
    {
      "id": "pt.ine.add.PTCONT.826209",
      "street": "R ROSA RAMALHO",
      "house": "50",
      "postcode": "4750-484",
      "city": "GALEGOS (SÃO MARTINHO)",
      "lon": "-8.557232191762248",
      "lat": "41.552760025479664"
    },
    {
      "id": "pt.ine.add.PTCONT.836000",
      "street": "R FRAGOSOS",
      "house": "45",
      "postcode": "4750-491",
      "city": "GALEGOS (SÃO MARTINHO)",
      "lon": "-8.558708005284446",
      "lat": "41.55298866987539"
    }
  ]
}