{
  "data": {
    "ilha": "Ilha de São Miguel (Açores)",
    "concelho": "Ponta Delgada",
    "freguesia": "Rosto do Cão (São Roque)",
    "OBJECTID": 262,
    "BGRI2021": "42031800214",
    "DT21": "42",
    "DTMN21": "4203",
    "DTMNFR21": "420318",
    "DTMNFRSEC21": "420318002",
    "SECNUM21": "002",
    "SSNUM21": "14",
    "SECSSNUM21": "00214",
    "OBJECTID_1": 206974,
    "DT": "42",
    "CC": "03",
    "fr": "18",
    "SEC": "002",
    "SS": "14",
    "BGRI2021_1": "42031800214"
  },
  "addresses": [
    {
      "id": "pt.ine.add.AC26.29593",
      "street": "ER RIBEIRA GRANDE",
      "house": "1101",
      "postcode": "9500-702",
      "city": "PONTA DELGADA",
      "lon": "-25.62058583540373",
      "lat": "37.76578775287904"
    },
    {
      "id": "pt.ine.add.AC26.30420",
      "street": "ER RIBEIRA GRANDE",
      "house": "1097",
      "postcode": "9500-702",
      "city": "PONTA DELGADA",
      "lon": "-25.621564325199373",
      "lat": "37.76567302783017"
    },
    {
      "id": "pt.ine.add.AC26.30421",
      "street": "ER RIBEIRA GRANDE",
      "house": "1095",
      "postcode": "9500-702",
      "city": "PONTA DELGADA",
      "lon": "-25.62180218486339",
      "lat": "37.76570284810171"
    },
    {
      "id": "pt.ine.add.AC26.34437",
      "street": "R AZORES PARK",
      "house": "",
      "postcode": "9500-794",
      "city": "PONTA DELGADA",
      "lon": "-25.624673380508195",
      "lat": "37.76821486300302"
    },
    {
      "id": "pt.ine.add.AC26.34438",
      "street": "R AZORES PARK",
      "house": "",
      "postcode": "9500-794",
      "city": "PONTA DELGADA",
      "lon": "-25.624673380508195",
      "lat": "37.76821486300302"
    },
    {
      "id": "pt.ine.add.AC26.34439",
      "street": "R AZORES PARK",
      "house": "",
      "postcode": "9500-794",
      "city": "PONTA DELGADA",
      "lon": "-25.624673380508195",
      "lat": "37.76821486300302"
    },
    {
      "id": "pt.ine.add.AC26.34440",
      "street": "R AZORES PARK",
      "house": "",
      "postcode": "9500-794",
      "city": "PONTA DELGADA",
      "lon": "-25.624673380508195",
      "lat": "37.76821486300302"
    },
    {
      "id": "pt.ine.add.AC26.34441",
      "street": "R AZORES PARK",
      "house": "",
      "postcode": "9500-794",
      "city": "PONTA DELGADA",
      "lon": "-25.624673380508195",
      "lat": "37.76821486300302"
    },
    {
      "id": "pt.ine.add.AC26.34442",
      "street": "R AZORES PARK",
      "house": "",
      "postcode": "9500-794",
      "city": "PONTA DELGADA",
      "lon": "-25.624673380508195",
      "lat": "37.76821486300302"
    },
    {
      "id": "pt.ine.add.AC26.34443",
      "street": "R AZORES PARK",
      "house": "",
      "postcode": "9500-794",
      "city": "PONTA DELGADA",
      "lon": "-25.624673380508195",
      "lat": "37.76821486300302"
    },
    {
      "id": "pt.ine.add.AC26.34444",
      "street": "R AZORES PARK",
      "house": "",
      "postcode": "9500-794",
      "city": "PONTA DELGADA",
      "lon": "-25.624673380508195",
      "lat": "37.76821486300302"
    },
    {
      "id": "pt.ine.add.AC26.34445",
      "street": "R AZORES PARK",
      "house": "",
      "postcode": "9500-794",
      "city": "PONTA DELGADA",
      "lon": "-25.624673380508195",
      "lat": "37.76821486300302"
    },
    {
      "id": "pt.ine.add.AC26.35235",
      "street": "R AZORES PARK",
      "house": "",
      "postcode": "9500-794",
      "city": "PONTA DELGADA",
      "lon": "-25.624673380508195",
      "lat": "37.76821486300302"
    },
    {
      "id": "pt.ine.add.AC26.35236",
      "street": "R AZORES PARK",
      "house": "",
      "postcode": "9500-794",
      "city": "PONTA DELGADA",
      "lon": "-25.624673380508195",
      "lat": "37.76821486300302"
    },
    {
      "id": "pt.ine.add.AC26.35237",
      "street": "R AZORES PARK",
      "house": "",
      "postcode": "9500-794",
      "city": "PONTA DELGADA",
      "lon": "-25.624673380508195",
      "lat": "37.76821486300302"
    },
    {
      "id": "pt.ine.add.AC26.35238",
      "street": "R AZORES PARK",
      "house": "",
      "postcode": "9500-794",
      "city": "PONTA DELGADA",
      "lon": "-25.62443617924914",
      "lat": "37.768149005754495"
    },
    {
      "id": "pt.ine.add.AC26.35239",
      "street": "R AZORES PARK",
      "house": "",
      "postcode": "9500-794",
      "city": "PONTA DELGADA",
      "lon": "-25.62443617924914",
      "lat": "37.768149005754495"
    },
    {
      "id": "pt.ine.add.AC26.35240",
      "street": "R AZORES PARK",
      "house": "",
      "postcode": "9500-794",
      "city": "PONTA DELGADA",
      "lon": "-25.62443617924914",
      "lat": "37.768149005754495"
    },
    {
      "id": "pt.ine.add.AC26.35241",
      "street": "R AZORES PARK",
      "house": "",
      "postcode": "9500-794",
      "city": "PONTA DELGADA",
      "lon": "-25.62443617924914",
      "lat": "37.768149005754495"
    },
    {
      "id": "pt.ine.add.AC26.35242",
      "street": "R AZORES PARK",
      "house": "",
      "postcode": "9500-794",
      "city": "PONTA DELGADA",
      "lon": "-25.62443617924914",
      "lat": "37.768149005754495"
    },
    {
      "id": "pt.ine.add.AC26.35243",
      "street": "R AZORES PARK",
      "house": "",
      "postcode": "9500-794",
      "city": "PONTA DELGADA",
      "lon": "-25.62443617924914",
      "lat": "37.768149005754495"
    },
    {
      "id": "pt.ine.add.AC26.35244",
      "street": "R AZORES PARK",
      "house": "30 B",
      "postcode": "9500-794",
      "city": "PONTA DELGADA",
      "lon": "-25.624150569214887",
      "lat": "37.76824480956818"
    },
    {
      "id": "pt.ine.add.AC26.35245",
      "street": "R AZORES PARK",
      "house": "30 B",
      "postcode": "9500-794",
      "city": "PONTA DELGADA",
      "lon": "-25.624150569214887",
      "lat": "37.76824480956818"
    },
    {
      "id": "pt.ine.add.AC26.35246",
      "street": "R AZORES PARK",
      "house": "30 B",
      "postcode": "9500-794",
      "city": "PONTA DELGADA",
      "lon": "-25.624150569214887",
      "lat": "37.76824480956818"
    },
    {
      "id": "pt.ine.add.AC26.35247",
      "street": "R AZORES PARK",
      "house": "30 B",
      "postcode": "9500-794",
      "city": "PONTA DELGADA",
      "lon": "-25.624150569214887",
      "lat": "37.76824480956818"
    },
    {
      "id": "pt.ine.add.AC26.35248",
      "street": "R AZORES PARK",
      "house": "30 B",
      "postcode": "9500-794",
      "city": "PONTA DELGADA",
      "lon": "-25.624150569214887",
      "lat": "37.76824480956818"
    },
    {
      "id": "pt.ine.add.AC26.35249",
      "street": "R AZORES PARK",
      "house": "30 B",
      "postcode": "9500-794",
      "city": "PONTA DELGADA",
      "lon": "-25.624150569214887",
      "lat": "37.76824480956818"
    },
    {
      "id": "pt.ine.add.AC26.36037",
      "street": "R AZORES PARK",
      "house": "30 B",
      "postcode": "9500-794",
      "city": "PONTA DELGADA",
      "lon": "-25.624150569214887",
      "lat": "37.76824480956818"
    },
    {
      "id": "pt.ine.add.AC26.36038",
      "street": "R AZORES PARK",
      "house": "30 B",
      "postcode": "9500-794",
      "city": "PONTA DELGADA",
      "lon": "-25.624150569214887",
      "lat": "37.76824480956818"
    },
    {
      "id": "pt.ine.add.AC26.36039",
      "street": "R AZORES PARK",
      "house": "",
      "postcode": "9500-794",
      "city": "PONTA DELGADA",
      "lon": "-25.624569719787008",
      "lat": "37.76890762316657"
    },
    {
      "id": "pt.ine.add.AC26.36040",
      "street": "R AZORES PARK",
      "house": "",
      "postcode": "9500-794",
      "city": "PONTA DELGADA",
      "lon": "-25.624569719787008",
      "lat": "37.76890762316657"
    },
    {
      "id": "pt.ine.add.AC26.36041",
      "street": "R AZORES PARK",
      "house": "",
      "postcode": "9500-794",
      "city": "PONTA DELGADA",
      "lon": "-25.624569719787008",
      "lat": "37.76890762316657"
    },
    {
      "id": "pt.ine.add.AC26.36042",
      "street": "R AZORES PARK",
      "house": "",
      "postcode": "9500-794",
      "city": "PONTA DELGADA",
      "lon": "-25.624569719787008",
      "lat": "37.76890762316657"
    },
    {
      "id": "pt.ine.add.AC26.36043",
      "street": "R AZORES PARK",
      "house": "",
      "postcode": "9500-794",
      "city": "PONTA DELGADA",
      "lon": "-25.624569719787008",
      "lat": "37.76890762316657"
    },
    {
      "id": "pt.ine.add.AC26.36044",
      "street": "R AZORES PARK",
      "house": "",
      "postcode": "9500-794",
      "city": "PONTA DELGADA",
      "lon": "-25.624569719787008",
      "lat": "37.76890762316657"
    },
    {
      "id": "pt.ine.add.AC26.36045",
      "street": "R AZORES PARK",
      "house": "",
      "postcode": "9500-794",
      "city": "PONTA DELGADA",
      "lon": "-25.624660027445326",
      "lat": "37.76893571516142"
    },
    {
      "id": "pt.ine.add.AC26.36046",
      "street": "R AZORES PARK",
      "house": "",
      "postcode": "9500-794",
      "city": "PONTA DELGADA",
      "lon": "-25.624660027445326",
      "lat": "37.76893571516142"
    },
    {
      "id": "pt.ine.add.AC26.36047",
      "street": "R AZORES PARK",
      "house": "",
      "postcode": "9500-794",
      "city": "PONTA DELGADA",
      "lon": "-25.624660027445326",
      "lat": "37.76893571516142"
    },
    {
      "id": "pt.ine.add.AC26.36048",
      "street": "R AZORES PARK",
      "house": "",
      "postcode": "9500-794",
      "city": "PONTA DELGADA",
      "lon": "-25.624660027445326",
      "lat": "37.76893571516142"
    },
    {
      "id": "pt.ine.add.AC26.36049",
      "street": "R AZORES PARK",
      "house": "",
      "postcode": "9500-794",
      "city": "PONTA DELGADA",
      "lon": "-25.624660027445326",
      "lat": "37.76893571516142"
    },
    {
      "id": "pt.ine.add.AC26.36050",
      "street": "R AZORES PARK",
      "house": "",
      "postcode": "9500-794",
      "city": "PONTA DELGADA",
      "lon": "-25.624727966870253",
      "lat": "37.76894552079839"
    },
    {
      "id": "pt.ine.add.AC26.36051",
      "street": "R AZORES PARK",
      "house": "",
      "postcode": "9500-794",
      "city": "PONTA DELGADA",
      "lon": "-25.624727966870253",
      "lat": "37.76894552079839"
    },
    {
      "id": "pt.ine.add.AC26.36864",
      "street": "R AZORES PARK J",
      "house": "J",
      "postcode": "9500-794",
      "city": "PONTA DELGADA",
      "lon": "-25.624727966870253",
      "lat": "37.76894552079839"
    },
    {
      "id": "pt.ine.add.AC26.36865",
      "street": "R AZORES PARK",
      "house": "30J2E",
      "postcode": "9500-794",
      "city": "PONTA DELGADA",
      "lon": "-25.624727966870253",
      "lat": "37.76894552079839"
    },
    {
      "id": "pt.ine.add.AC26.36866",
      "street": "R AZORES PARK",
      "house": "",
      "postcode": "9500-794",
      "city": "PONTA DELGADA",
      "lon": "-25.62486501401761",
      "lat": "37.768902057390505"
    },
    {
      "id": "pt.ine.add.AC26.36867",
      "street": "R AZORES PARK",
      "house": "",
      "postcode": "9500-794",
      "city": "PONTA DELGADA",
      "lon": "-25.62486501401761",
      "lat": "37.768902057390505"
    },
    {
      "id": "pt.ine.add.AC26.36868",
      "street": "R AZORES PARK",
      "house": "",
      "postcode": "9500-794",
      "city": "PONTA DELGADA",
      "lon": "-25.62486501401761",
      "lat": "37.768902057390505"
    },
    {
      "id": "pt.ine.add.AC26.36869",
      "street": "R AZORES PARK",
      "house": "",
      "postcode": "9500-794",
      "city": "PONTA DELGADA",
      "lon": "-25.62486501401761",
      "lat": "37.768902057390505"
    },
    {
      "id": "pt.ine.add.AC26.36870",
      "street": "R AZORES PARK",
      "house": "",
      "postcode": "9500-794",
      "city": "PONTA DELGADA",
      "lon": "-25.62486501401761",
      "lat": "37.768902057390505"
    },
    {
      "id": "pt.ine.add.AC26.36871",
      "street": "R AZORES PARK",
      "house": "",
      "postcode": "9500-794",
      "city": "PONTA DELGADA",
      "lon": "-25.62486501401761",
      "lat": "37.768902057390505"
    },
    {
      "id": "pt.ine.add.AC26.36872",
      "street": "R AZORES PARK",
      "house": "",
      "postcode": "9500-794",
      "city": "PONTA DELGADA",
      "lon": "-25.62486501401761",
      "lat": "37.768902057390505"
    },
    {
      "id": "pt.ine.add.AC26.36873",
      "street": "R AZORES PARK",
      "house": "",
      "postcode": "9500-794",
      "city": "PONTA DELGADA",
      "lon": "-25.62486501401761",
      "lat": "37.768902057390505"
    },
    {
      "id": "pt.ine.add.AC26.36874",
      "street": "R AZORES PARK",
      "house": "",
      "postcode": "9500-794",
      "city": "PONTA DELGADA",
      "lon": "-25.62486501401761",
      "lat": "37.768902057390505"
    },
    {
      "id": "pt.ine.add.AC26.36875",
      "street": "R AZORES PARK",
      "house": "",
      "postcode": "9500-794",
      "city": "PONTA DELGADA",
      "lon": "-25.62486501401761",
      "lat": "37.768902057390505"
    },
    {
      "id": "pt.ine.add.AC26.36876",
      "street": "R AZORES PARK",
      "house": "",
      "postcode": "9500-794",
      "city": "PONTA DELGADA",
      "lon": "-25.62486501401761",
      "lat": "37.768902057390505"
    },
    {
      "id": "pt.ine.add.AC26.36877",
      "street": "R AZORES PARK",
      "house": "",
      "postcode": "9500-794",
      "city": "PONTA DELGADA",
      "lon": "-25.62486501401761",
      "lat": "37.768902057390505"
    },
    {
      "id": "pt.ine.add.AC26.50871",
      "street": "R AZORES PARK",
      "house": "",
      "postcode": "9500-794",
      "city": "PONTA DELGADA",
      "lon": "-25.624336189433414",
      "lat": "37.7686435313652"
    },
    {
      "id": "pt.ine.add.AC26.50872",
      "street": "R AZORES PARK",
      "house": "",
      "postcode": "9500-794",
      "city": "PONTA DELGADA",
      "lon": "-25.624336189433414",
      "lat": "37.7686435313652"
    },
    {
      "id": "pt.ine.add.AC26.50873",
      "street": "R AZORES PARK",
      "house": "",
      "postcode": "9500-794",
      "city": "PONTA DELGADA",
      "lon": "-25.624336189433414",
      "lat": "37.7686435313652"
    },
    {
      "id": "pt.ine.add.AC26.50874",
      "street": "R AZORES PARK",
      "house": "",
      "postcode": "9500-794",
      "city": "PONTA DELGADA",
      "lon": "-25.624336189433414",
      "lat": "37.7686435313652"
    },
    {
      "id": "pt.ine.add.AC26.50875",
      "street": "R AZORES PARK",
      "house": "",
      "postcode": "9500-794",
      "city": "PONTA DELGADA",
      "lon": "-25.624336189433414",
      "lat": "37.7686435313652"
    },
    {
      "id": "pt.ine.add.AC26.50990",
      "street": "R AZORES PARK",
      "house": "",
      "postcode": "9500-794",
      "city": "PONTA DELGADA",
      "lon": "-25.624491264053788",
      "lat": "37.7688526316686"
    },
    {
      "id": "pt.ine.add.AC26.50991",
      "street": "R AZORES PARK",
      "house": "",
      "postcode": "9500-794",
      "city": "PONTA DELGADA",
      "lon": "-25.624491264053788",
      "lat": "37.7688526316686"
    },
    {
      "id": "pt.ine.add.AC26.50992",
      "street": "R AZORES PARK",
      "house": "",
      "postcode": "9500-794",
      "city": "PONTA DELGADA",
      "lon": "-25.624491264053788",
      "lat": "37.7688526316686"
    },
    {
      "id": "pt.ine.add.AC26.50993",
      "street": "R AZORES PARK",
      "house": "30 G",
      "postcode": "9500-794",
      "city": "PONTA DELGADA",
      "lon": "-25.624491264053788",
      "lat": "37.7688526316686"
    },
    {
      "id": "pt.ine.add.AC26.50994",
      "street": "R AZORES PARK",
      "house": "30 G",
      "postcode": "9500-794",
      "city": "PONTA DELGADA",
      "lon": "-25.624491264053788",
      "lat": "37.7688526316686"
    },
    {
      "id": "pt.ine.add.AC26.50995",
      "street": "CAN ALMAS",
      "house": "",
      "postcode": "9500-702",
      "city": "PONTA DELGADA",
      "lon": "-25.621217952959103",
      "lat": "37.76598441616815"
    },
    {
      "id": "pt.ine.add.AC26.58307",
      "street": "ER RIBEIRA GRANDE",
      "house": "1099",
      "postcode": "9500-702",
      "city": "PONTA DELGADA",
      "lon": "-25.621270549599462",
      "lat": "37.765597489789364"
    },
    {
      "id": "pt.ine.add.AC26.60606",
      "street": "CAN ALMAS",
      "house": "21",
      "postcode": "9500-702",
      "city": "PONTA DELGADA",
      "lon": "-25.623756979301735",
      "lat": "37.76620336493897"
    },
    {
      "id": "pt.ine.add.AC26.67024",
      "street": "R AZORES PARK",
      "house": "",
      "postcode": "9500-794",
      "city": "PONTA DELGADA",
      "lon": "-25.624224849918548",
      "lat": "37.76852506754522"
    },
    {
      "id": "pt.ine.add.AC26.67025",
      "street": "R AZORES PARK",
      "house": "",
      "postcode": "9500-794",
      "city": "PONTA DELGADA",
      "lon": "-25.624224849918548",
      "lat": "37.76852506754522"
    },
    {
      "id": "pt.ine.add.AC26.67026",
      "street": "R AZORES PARK",
      "house": "",
      "postcode": "9500-794",
      "city": "PONTA DELGADA",
      "lon": "-25.624224849918548",
      "lat": "37.76852506754522"
    },
    {
      "id": "pt.ine.add.AC26.67027",
      "street": "R AZORES PARK",
      "house": "",
      "postcode": "9500-794",
      "city": "PONTA DELGADA",
      "lon": "-25.624224849918548",
      "lat": "37.76852506754522"
    },
    {
      "id": "pt.ine.add.AC26.67028",
      "street": "R AZORES PARK",
      "house": "",
      "postcode": "9500-794",
      "city": "PONTA DELGADA",
      "lon": "-25.624224849918548",
      "lat": "37.76852506754522"
    },
    {
      "id": "pt.ine.add.AC26.67029",
      "street": "R AZORES PARK",
      "house": "",
      "postcode": "9500-794",
      "city": "PONTA DELGADA",
      "lon": "-25.624224849918548",
      "lat": "37.76852506754522"
    },
    {
      "id": "pt.ine.add.AC26.68363",
      "street": "R AZORES PARK",
      "house": "",
      "postcode": "9500-794",
      "city": "PONTA DELGADA",
      "lon": "-25.624424660301994",
      "lat": "37.76877074069159"
    },
    {
      "id": "pt.ine.add.AC26.68364",
      "street": "R AZORES PARK",
      "house": "",
      "postcode": "9500-794",
      "city": "PONTA DELGADA",
      "lon": "-25.624424660301994",
      "lat": "37.76877074069159"
    },
    {
      "id": "pt.ine.add.AC26.68365",
      "street": "R AZORES PARK",
      "house": "30",
      "postcode": "9500-794",
      "city": "PONTA DELGADA",
      "lon": "-25.624424660301994",
      "lat": "37.76877074069159"
    },
    {
      "id": "pt.ine.add.AC26.68366",
      "street": "R AZORES PARK",
      "house": "",
      "postcode": "9500-794",
      "city": "PONTA DELGADA",
      "lon": "-25.624424660301994",
      "lat": "37.76877074069159"
    },
    {
      "id": "pt.ine.add.AC26.68367",
      "street": "R AZORES PARK",
      "house": "",
      "postcode": "9500-794",
      "city": "PONTA DELGADA",
      "lon": "-25.624424660301994",
      "lat": "37.76877074069159"
    },
    {
      "id": "pt.ine.add.AC26.75670",
      "street": "R AZORES PARK",
      "house": "",
      "postcode": "9500-794",
      "city": "PONTA DELGADA",
      "lon": "-25.624192633621117",
      "lat": "37.76842555276201"
    },
    {
      "id": "pt.ine.add.AC26.75671",
      "street": "R AZORES PARK",
      "house": "",
      "postcode": "9500-794",
      "city": "PONTA DELGADA",
      "lon": "-25.624192633621117",
      "lat": "37.76842555276201"
    },
    {
      "id": "pt.ine.add.AC26.75672",
      "street": "R AZORES PARK",
      "house": "",
      "postcode": "9500-794",
      "city": "PONTA DELGADA",
      "lon": "-25.624192633621117",
      "lat": "37.76842555276201"
    },
    {
      "id": "pt.ine.add.AC26.75673",
      "street": "R AZORES PARK",
      "house": "",
      "postcode": "9500-794",
      "city": "PONTA DELGADA",
      "lon": "-25.624192633621117",
      "lat": "37.76842555276201"
    },
    {
      "id": "pt.ine.add.AC26.75674",
      "street": "R AZORES PARK",
      "house": "",
      "postcode": "9500-794",
      "city": "PONTA DELGADA",
      "lon": "-25.624192633621117",
      "lat": "37.76842555276201"
    },
    {
      "id": "pt.ine.add.AC26.75675",
      "street": "R AZORES PARK",
      "house": "",
      "postcode": "9500-794",
      "city": "PONTA DELGADA",
      "lon": "-25.624192633621117",
      "lat": "37.76842555276201"
    },
    {
      "id": "pt.ine.add.AC26.75676",
      "street": "ER RIBEIRA GRANDE",
      "house": "",
      "postcode": "9500-702",
      "city": "PONTA DELGADA",
      "lon": "-25.619647639742585",
      "lat": "37.76739903315759"
    },
    {
      "id": "pt.ine.add.AC26.80799",
      "street": "R AZORES PARK",
      "house": "",
      "postcode": "9500-794",
      "city": "PONTA DELGADA",
      "lon": "-25.624660027445326",
      "lat": "37.76893571516142"
    },
    {
      "id": "pt.ine.add.AC26.81083",
      "street": "R AZORES PARK",
      "house": "",
      "postcode": "9500-794",
      "city": "PONTA DELGADA",
      "lon": "-25.624727966870253",
      "lat": "37.76894552079839"
    },
    {
      "id": "pt.ine.add.AC26.83959",
      "street": "R AZORES PARK",
      "house": "",
      "postcode": "9500-794",
      "city": "PONTA DELGADA",
      "lon": "-25.624336189433414",
      "lat": "37.7686435313652"
    },
    {
      "id": "pt.ine.add.AC26.86789",
      "street": "R AZORES PARK",
      "house": "20G",
      "postcode": "9500-794",
      "city": "PONTA DELGADA",
      "lon": "-25.624491264053788",
      "lat": "37.7688526316686"
    },
    {
      "id": "pt.ine.add.AC26.88062",
      "street": "CAN CANADA DO LOUREIRO",
      "house": "23",
      "postcode": "9500-702",
      "city": "PONTA DELGADA",
      "lon": "-25.62212198725058",
      "lat": "37.76621129406733"
    },
    {
      "id": "pt.ine.add.AC26.106317",
      "street": "R AZORES PARK",
      "house": "30 B",
      "postcode": "9500-794",
      "city": "PONTA DELGADA",
      "lon": "-25.624150569214887",
      "lat": "37.76824480956818"
    },
    {
      "id": "pt.ine.add.AC26.106431",
      "street": "R AZORES PARK",
      "house": "",
      "postcode": "9500-794",
      "city": "PONTA DELGADA",
      "lon": "-25.624727966870253",
      "lat": "37.76894552079839"
    },
    {
      "id": "pt.ine.add.AC26.107832",
      "street": "R AZORES PARK",
      "house": "",
      "postcode": "9500-794",
      "city": "PONTA DELGADA",
      "lon": "-25.624424660301994",
      "lat": "37.76877074069159"
    }
  ]
}