{
  "data": {
    "distrito": "Leiria",
    "concelho": "Pombal",
    "freguesia": "Carriço",
    "OBJECTID": 2689,
    "BGRI2021": "10150500138",
    "DT21": "10",
    "DTMN21": "1015",
    "DTMNFR21": "101505",
    "DTMNFRSEC21": "101505001",
    "SECNUM21": "001",
    "SSNUM21": "38",
    "SECSSNUM21": "00138",
    "OBJECTID_1": 95148,
    "DT": "10",
    "CC": "15",
    "fr": "05",
    "SEC": "001",
    "SS": "38"
  },
  "addresses": [
    {
      "id": "pt.ine.add.PTCONT.1987825",
      "street": "R CEMITÉRIO",
      "house": "1",
      "postcode": "3105-053",
      "city": "CARRIÇO",
      "lon": "-8.840160729189112",
      "lat": "40.01157975893461"
    },
    {
      "id": "pt.ine.add.PTCONT.1997708",
      "street": "R OSSO DA BALEIA",
      "house": "6",
      "postcode": "3105-053",
      "city": "CARRIÇO",
      "lon": "-8.840631329040056",
      "lat": "40.011784026129384"
    },
    {
      "id": "pt.ine.add.PTCONT.2014244",
      "street": "R OSSO DA BALEIA",
      "house": "8",
      "postcode": "3105-053",
      "city": "CARRIÇO",
      "lon": "-8.841646252451614",
      "lat": "40.01252532819314"
    },
    {
      "id": "pt.ine.add.PTCONT.2018451",
      "street": "R CENTRO",
      "house": "57",
      "postcode": "3105-059",
      "city": "CARRIÇO",
      "lon": "-8.827703186585167",
      "lat": "40.016626441206455"
    },
    {
      "id": "pt.ine.add.PTCONT.2079778",
      "street": "R CENTRO",
      "house": "49",
      "postcode": "3105-059",
      "city": "CARRIÇO",
      "lon": "-8.827432066731914",
      "lat": "40.01645695086646"
    },
    {
      "id": "pt.ine.add.PTCONT.2099053",
      "street": "R CLARAS",
      "house": "3",
      "postcode": "3105-053",
      "city": "CARRIÇO",
      "lon": "-8.839714762383206",
      "lat": "40.011492418412786"
    },
    {
      "id": "pt.ine.add.PTCONT.2111308",
      "street": "R CENTRO",
      "house": "59",
      "postcode": "3105-059",
      "city": "CARRIÇO",
      "lon": "-8.828865551451056",
      "lat": "40.01689865602732"
    },
    {
      "id": "pt.ine.add.PTCONT.2116603",
      "street": "R CENTRO",
      "house": "47",
      "postcode": "3105-059",
      "city": "CARRIÇO",
      "lon": "-8.827078687986507",
      "lat": "40.016260934346825"
    },
    {
      "id": "pt.ine.add.PTCONT.2124341",
      "street": "R JOGADOUROS",
      "house": "1",
      "postcode": "3105-053",
      "city": "CARRIÇO",
      "lon": "-8.84130039350626",
      "lat": "40.013058799730025"
    },
    {
      "id": "pt.ine.add.PTCONT.2141445",
      "street": "R CENTRO",
      "house": "55",
      "postcode": "3105-059",
      "city": "CARRIÇO",
      "lon": "-8.828536962463334",
      "lat": "40.01683758599582"
    },
    {
      "id": "pt.ine.add.PTCONT.2233446",
      "street": "R OSSO DA BALEIA",
      "house": "4",
      "postcode": "3105-053",
      "city": "CARRIÇO",
      "lon": "-8.840524809281542",
      "lat": "40.011676603691996"
    },
    {
      "id": "pt.ine.add.PTCONT.2260947",
      "street": "R CENTRO",
      "house": "57",
      "postcode": "3105-059",
      "city": "CARRIÇO",
      "lon": "-8.828689590141533",
      "lat": "40.016872694186226"
    },
    {
      "id": "pt.ine.add.PTCONT.2261803",
      "street": "R CEMITÉRIO",
      "house": "5",
      "postcode": "3105-053",
      "city": "CARRIÇO",
      "lon": "-8.838382430140971",
      "lat": "40.01177071631647"
    }
  ]
}