{
  "data": {
    "distrito": "Guarda",
    "concelho": "Guarda",
    "freguesia": "Casal de Cinza",
    "OBJECTID": 827,
    "BGRI2021": "09071100101",
    "DT21": "09",
    "DTMN21": "0907",
    "DTMNFR21": "090711",
    "DTMNFRSEC21": "090711001",
    "SECNUM21": "001",
    "SSNUM21": "01",
    "SECSSNUM21": "00101",
    "OBJECTID_1": 78965,
    "DT": "09",
    "CC": "07",
    "fr": "11",
    "SEC": "001",
    "SS": "01"
  },
  "addresses": [
    {
      "id": "pt.ine.add.PTCONT.1917615",
      "street": "R JUNTO AO APIADEIRO",
      "house": "",
      "postcode": "6300-070",
      "city": "CASAL DE CINZA",
      "lon": "-7.214569424672615",
      "lat": "40.52163203078101"
    },
    {
      "id": "pt.ine.add.PTCONT.1930819",
      "street": "R DO CEMITÃ‰RIO",
      "house": "",
      "postcode": "6300-070",
      "city": "CASAL DE CINZA",
      "lon": "-7.214538575004013",
      "lat": "40.52129859305352"
    },
    {
      "id": "pt.ine.add.PTCONT.1932904",
      "street": "TV DA GARE",
      "house": "",
      "postcode": "6300-070",
      "city": "CASAL DE CINZA",
      "lon": "-7.214720110721207",
      "lat": "40.521831343009666"
    },
    {
      "id": "pt.ine.add.PTCONT.1939081",
      "street": "ESTR DE VILA FERNANDO",
      "house": "",
      "postcode": "6300-070",
      "city": "CASAL DE CINZA",
      "lon": "-7.2141477332443795",
      "lat": "40.52053904823577"
    },
    {
      "id": "pt.ine.add.PTCONT.1946144",
      "street": "R PRINCIPAL",
      "house": "",
      "postcode": "6300-070",
      "city": "CASAL DE CINZA",
      "lon": "-7.214692824235078",
      "lat": "40.52123678278225"
    },
    {
      "id": "pt.ine.add.PTCONT.1947411",
      "street": "R DA ALEGRIA",
      "house": "",
      "postcode": "6300-070",
      "city": "CASAL DE CINZA",
      "lon": "-7.215150540911371",
      "lat": "40.52228502345177"
    },
    {
      "id": "pt.ine.add.PTCONT.1864105",
      "street": "TV DA GARE",
      "house": "",
      "postcode": "6300-070",
      "city": "CASAL DE CINZA",
      "lon": "-7.2147899231039805",
      "lat": "40.52190393948838"
    },
    {
      "id": "pt.ine.add.PTCONT.1866120",
      "street": "R DO CASTANHEIRO",
      "house": "",
      "postcode": "6300-070",
      "city": "CASAL DE CINZA",
      "lon": "-7.214992353363317",
      "lat": "40.521770470127365"
    },
    {
      "id": "pt.ine.add.PTCONT.1882263",
      "street": "ESTR DE VILA FERNANDO",
      "house": "",
      "postcode": "6300-070",
      "city": "CASAL DE CINZA",
      "lon": "-7.2135207858354",
      "lat": "40.5206511279713"
    },
    {
      "id": "pt.ine.add.PTCONT.1895891",
      "street": "ESTR DE VILA FERNANDO",
      "house": "",
      "postcode": "6300-070",
      "city": "CASAL DE CINZA",
      "lon": "-7.214003316395591",
      "lat": "40.520745019252495"
    }
  ]
}