{
  "data": {
    "distrito": "Aveiro",
    "concelho": "Ovar",
    "freguesia": "União das freguesias de Ovar, São João, Arada e São Vicente de Pereira Jusã",
    "OBJECTID": 810,
    "BGRI2021": "01150902214",
    "DT21": "01",
    "DTMN21": "0115",
    "DTMNFR21": "011509",
    "DTMNFRSEC21": "011509022",
    "SECNUM21": "022",
    "SSNUM21": "14",
    "SECSSNUM21": "02214",
    "OBJECTID_1": 9957,
    "DT": "01",
    "CC": "15",
    "fr": "09",
    "SEC": "022",
    "SS": "14"
  },
  "addresses": [
    {
      "id": "pt.ine.add.PTCONT.291271",
      "street": "R CARVALHAIS",
      "house": "198",
      "postcode": "3885-033",
      "city": "ARADA",
      "lon": "-8.594253682925793",
      "lat": "40.90203414161121"
    },
    {
      "id": "pt.ine.add.PTCONT.309660",
      "street": "R NSA SRA DO DESTERRO",
      "house": "203",
      "postcode": "3885-053",
      "city": "ARADA",
      "lon": "-8.597583880460737",
      "lat": "40.90305632325232"
    },
    {
      "id": "pt.ine.add.PTCONT.312209",
      "street": "R QUINTAS DE BAIXO",
      "house": "749",
      "postcode": "3885-133",
      "city": "ARADA",
      "lon": "-8.592941277647814",
      "lat": "40.90446165842827"
    },
    {
      "id": "pt.ine.add.PTCONT.312210",
      "street": "R CARVALHAIS",
      "house": "56",
      "postcode": "3885-033",
      "city": "ARADA",
      "lon": "-8.592691634995969",
      "lat": "40.90268871877231"
    },
    {
      "id": "pt.ine.add.PTCONT.330584",
      "street": "R CARVALHAIS",
      "house": "403",
      "postcode": "3885-033",
      "city": "ARADA",
      "lon": "-8.596060900646592",
      "lat": "40.90080225546193"
    },
    {
      "id": "pt.ine.add.PTCONT.336173",
      "street": "R CAVADINHAS",
      "house": "39",
      "postcode": "3885-042",
      "city": "ARADA",
      "lon": "-8.599171014288562",
      "lat": "40.902599682946324"
    },
    {
      "id": "pt.ine.add.PTCONT.339227",
      "street": "R CAVADINHAS",
      "house": "205",
      "postcode": "3885-042",
      "city": "ARADA",
      "lon": "-8.601078236709771",
      "lat": "40.90209669866576"
    },
    {
      "id": "pt.ine.add.PTCONT.341942",
      "street": "R CARVALHAIS",
      "house": "104",
      "postcode": "3885-033",
      "city": "ARADA",
      "lon": "-8.593201139716664",
      "lat": "40.90256962554654"
    },
    {
      "id": "pt.ine.add.PTCONT.351035",
      "street": "R CARVALHAIS",
      "house": "722",
      "postcode": "3885-033",
      "city": "ARADA",
      "lon": "-8.597930523162184",
      "lat": "40.90171321949561"
    },
    {
      "id": "pt.ine.add.PTCONT.4459",
      "street": "R CARVALHAIS",
      "house": "854",
      "postcode": "3885-033",
      "city": "ARADA",
      "lon": "-8.59850660756832",
      "lat": "40.90262938028498"
    },
    {
      "id": "pt.ine.add.PTCONT.9743",
      "street": "R CARVALHAIS",
      "house": "370",
      "postcode": "3885-033",
      "city": "ARADA",
      "lon": "-8.595635239888352",
      "lat": "40.90102908208778"
    },
    {
      "id": "pt.ine.add.PTCONT.22515",
      "street": "R CARVALHAIS",
      "house": "400",
      "postcode": "3885-033",
      "city": "ARADA",
      "lon": "-8.595942602557367",
      "lat": "40.90085675876799"
    },
    {
      "id": "pt.ine.add.PTCONT.33315",
      "street": "R CARVALHAIS",
      "house": "666",
      "postcode": "3885-033",
      "city": "ARADA",
      "lon": "-8.597750492187593",
      "lat": "40.90142579304966"
    },
    {
      "id": "pt.ine.add.PTCONT.44741",
      "street": "R CARVALHAIS",
      "house": "597",
      "postcode": "3885-033",
      "city": "ARADA",
      "lon": "-8.597767862568178",
      "lat": "40.900516243501706"
    },
    {
      "id": "pt.ine.add.PTCONT.63345",
      "street": "R PEDREIRA",
      "house": "615",
      "postcode": "3885-126",
      "city": "ARADA",
      "lon": "-8.59502001683",
      "lat": "40.90471448880942"
    },
    {
      "id": "pt.ine.add.PTCONT.65462",
      "street": "R PEDREIRA",
      "house": "557",
      "postcode": "3885-126",
      "city": "ARADA",
      "lon": "-8.594582146337821",
      "lat": "40.904896336623295"
    },
    {
      "id": "pt.ine.add.PTCONT.82420",
      "street": "R QUINTAS DE BAIXO",
      "house": "825",
      "postcode": "3885-133",
      "city": "ARADA",
      "lon": "-8.593096686377429",
      "lat": "40.90462312405384"
    },
    {
      "id": "pt.ine.add.PTCONT.88090",
      "street": "R PEDREIRA",
      "house": "491",
      "postcode": "3885-126",
      "city": "ARADA",
      "lon": "-8.593764364841922",
      "lat": "40.9050616914253"
    },
    {
      "id": "pt.ine.add.PTCONT.111338",
      "street": "R CARVALHAIS",
      "house": "214",
      "postcode": "3885-033",
      "city": "ARADA",
      "lon": "-8.594360241937364",
      "lat": "40.90199769648943"
    },
    {
      "id": "pt.ine.add.PTCONT.122388",
      "street": "R CARVALHAIS",
      "house": "294",
      "postcode": "3885-033",
      "city": "ARADA",
      "lon": "-8.595080160892191",
      "lat": "40.90141851108926"
    },
    {
      "id": "pt.ine.add.PTCONT.127398",
      "street": "R CARVALHAIS",
      "house": "20",
      "postcode": "3885-033",
      "city": "ARADA",
      "lon": "-8.59232435560142",
      "lat": "40.90278022927474"
    },
    {
      "id": "pt.ine.add.PTCONT.133057",
      "street": "R CARVALHAIS",
      "house": "728",
      "postcode": "3885-033",
      "city": "ARADA",
      "lon": "-8.598050334491157",
      "lat": "40.901874821982624"
    },
    {
      "id": "pt.ine.add.PTCONT.135741",
      "street": "R CARVALHAIS",
      "house": "378",
      "postcode": "3885-033",
      "city": "ARADA",
      "lon": "-8.595800632042922",
      "lat": "40.90092036167642"
    },
    {
      "id": "pt.ine.add.PTCONT.137834",
      "street": "R CARVALHAIS",
      "house": "166",
      "postcode": "3885-033",
      "city": "ARADA",
      "lon": "-8.593982726169713",
      "lat": "40.90232337663615"
    },
    {
      "id": "pt.ine.add.PTCONT.170132",
      "street": "R CARVALHAIS",
      "house": "194",
      "postcode": "3885-033",
      "city": "ARADA",
      "lon": "-8.594123826073947",
      "lat": "40.902133712998165"
    },
    {
      "id": "pt.ine.add.PTCONT.170133",
      "street": "R CARVALHAIS",
      "house": "645",
      "postcode": "3885-033",
      "city": "ARADA",
      "lon": "-8.597961082487444",
      "lat": "40.90099271652195"
    },
    {
      "id": "pt.ine.add.PTCONT.174624",
      "street": "R CARVALHAIS",
      "house": "837",
      "postcode": "3885-033",
      "city": "ARADA",
      "lon": "-8.598814980683699",
      "lat": "40.90260112120818"
    },
    {
      "id": "pt.ine.add.PTCONT.178121",
      "street": "R CARVALHAIS",
      "house": "308",
      "postcode": "3885-033",
      "city": "ARADA",
      "lon": "-8.595162795312781",
      "lat": "40.90135514681284"
    },
    {
      "id": "pt.ine.add.PTCONT.198732",
      "street": "R CAVADINHAS",
      "house": "179",
      "postcode": "3885-042",
      "city": "ARADA",
      "lon": "-8.600758189532698",
      "lat": "40.902152025368544"
    },
    {
      "id": "pt.ine.add.PTCONT.207425",
      "street": "R CAVADINHAS",
      "house": "165",
      "postcode": "3885-042",
      "city": "ARADA",
      "lon": "-8.600627708197957",
      "lat": "40.90216155913942"
    },
    {
      "id": "pt.ine.add.PTCONT.207428",
      "street": "R CARVALHAIS",
      "house": "607",
      "postcode": "3885-033",
      "city": "ARADA",
      "lon": "-8.597828523164207",
      "lat": "40.90070509880603"
    },
    {
      "id": "pt.ine.add.PTCONT.218576",
      "street": "R CAVADINHAS",
      "house": "225",
      "postcode": "3885-042",
      "city": "ARADA",
      "lon": "-8.601303722876608",
      "lat": "40.90209578347839"
    },
    {
      "id": "pt.ine.add.PTCONT.226569",
      "street": "R CARVALHAIS",
      "house": "752",
      "postcode": "3885-033",
      "city": "ARADA",
      "lon": "-8.598146095677052",
      "lat": "40.90199149758807"
    },
    {
      "id": "pt.ine.add.PTCONT.229288",
      "street": "R CARVALHAIS",
      "house": "280",
      "postcode": "3885-033",
      "city": "ARADA",
      "lon": "-8.595057741393237",
      "lat": "40.90160770059744"
    },
    {
      "id": "pt.ine.add.PTCONT.231932",
      "street": "R PEDREIRA",
      "house": "541",
      "postcode": "3885-126",
      "city": "ARADA",
      "lon": "-8.594451470932706",
      "lat": "40.90487884995857"
    },
    {
      "id": "pt.ine.add.PTCONT.240158",
      "street": "R CAVADINHAS",
      "house": "93",
      "postcode": "3885-042",
      "city": "ARADA",
      "lon": "-8.599810545460885",
      "lat": "40.90240799703125"
    },
    {
      "id": "pt.ine.add.PTCONT.242904",
      "street": "R CAVADINHAS",
      "house": "191",
      "postcode": "3885-042",
      "city": "ARADA",
      "lon": "-8.600959559775694",
      "lat": "40.90209718016626"
    },
    {
      "id": "pt.ine.add.PTCONT.242905",
      "street": "R NSA SRA DO DESTERRO",
      "house": "697",
      "postcode": "3885-053",
      "city": "ARADA",
      "lon": "-8.595563255458833",
      "lat": "40.90432510776171"
    },
    {
      "id": "pt.ine.add.PTCONT.253614",
      "street": "R CARVALHAIS",
      "house": "320",
      "postcode": "3885-033",
      "city": "ARADA",
      "lon": "-8.595316384188909",
      "lat": "40.90125547913662"
    },
    {
      "id": "pt.ine.add.PTCONT.254184",
      "street": "R NSA SRA DO DESTERRO",
      "house": "125",
      "postcode": "3885-053",
      "city": "ARADA",
      "lon": "-8.596638097109919",
      "lat": "40.90358240368102"
    },
    {
      "id": "pt.ine.add.PTCONT.259120",
      "street": "R CARVALHAIS",
      "house": "34",
      "postcode": "3885-033",
      "city": "ARADA",
      "lon": "-8.592525859469061",
      "lat": "40.90274340775371"
    },
    {
      "id": "pt.ine.add.PTCONT.264459",
      "street": "R NSA SRA DO DESTERRO",
      "house": "85",
      "postcode": "3885-053",
      "city": "ARADA",
      "lon": "-8.596401931695956",
      "lat": "40.90375444279384"
    },
    {
      "id": "pt.ine.add.PTCONT.269889",
      "street": "R CAVADINHAS",
      "house": "65",
      "postcode": "3885-042",
      "city": "ARADA",
      "lon": "-8.599467455934565",
      "lat": "40.902562465596944"
    },
    {
      "id": "pt.ine.add.PTCONT.272634",
      "street": "R PEDREIRA",
      "house": "639",
      "postcode": "3885-126",
      "city": "ARADA",
      "lon": "-8.595245950866067",
      "lat": "40.9047766168604"
    },
    {
      "id": "pt.ine.add.PTCONT.283109",
      "street": "R PEDREIRA",
      "house": "527",
      "postcode": "3885-126",
      "city": "ARADA",
      "lon": "-8.59420273902816",
      "lat": "40.90495188264475"
    }
  ]
}