{
  "data": {
    "distrito": "Aveiro",
    "concelho": "Ovar",
    "freguesia": "União das freguesias de Ovar, São João, Arada e São Vicente de Pereira Jusã",
    "OBJECTID": 712,
    "BGRI2021": "01150902215",
    "DT21": "01",
    "DTMN21": "0115",
    "DTMNFR21": "011509",
    "DTMNFRSEC21": "011509022",
    "SECNUM21": "022",
    "SSNUM21": "15",
    "SECSSNUM21": "02215",
    "OBJECTID_1": 10583,
    "DT": "01",
    "CC": "15",
    "fr": "09",
    "SEC": "022",
    "SS": "15"
  },
  "addresses": [
    {
      "id": "pt.ine.add.PTCONT.293817",
      "street": "R PISOES",
      "house": "150",
      "postcode": "3885-130",
      "city": "ARADA",
      "lon": "-8.58726767185643",
      "lat": "40.902656177448364"
    },
    {
      "id": "pt.ine.add.PTCONT.306511",
      "street": "R SERRADO",
      "house": "",
      "postcode": "3885-146",
      "city": "ARADA",
      "lon": "-8.59250081933919",
      "lat": "40.90598521528236"
    },
    {
      "id": "pt.ine.add.PTCONT.309655",
      "street": "R SERRADO",
      "house": "332",
      "postcode": "3885-146",
      "city": "ARADA",
      "lon": "-8.590174425853737",
      "lat": "40.905967444664455"
    },
    {
      "id": "pt.ine.add.PTCONT.310748",
      "street": "R QUINTAS DE BAIXO",
      "house": "880",
      "postcode": "3885-133",
      "city": "ARADA",
      "lon": "-8.593053456006785",
      "lat": "40.90523561898825"
    },
    {
      "id": "pt.ine.add.PTCONT.328529",
      "street": "BC MINEIRA",
      "house": "50",
      "postcode": "3885-093",
      "city": "ARADA",
      "lon": "-8.587307424439954",
      "lat": "40.90499725475562"
    },
    {
      "id": "pt.ine.add.PTCONT.330589",
      "street": "R QUINTAS DE BAIXO",
      "house": "826",
      "postcode": "3885-133",
      "city": "ARADA",
      "lon": "-8.592824155212421",
      "lat": "40.904687243950335"
    },
    {
      "id": "pt.ine.add.PTCONT.333872",
      "street": "R EMIGRANTE",
      "house": "193",
      "postcode": "3885-054",
      "city": "ARADA",
      "lon": "-8.585648961975277",
      "lat": "40.903716095966395"
    },
    {
      "id": "pt.ine.add.PTCONT.4448",
      "street": "R PISOES",
      "house": "46",
      "postcode": "3885-130",
      "city": "ARADA",
      "lon": "-8.5859433282458",
      "lat": "40.90337276014073"
    },
    {
      "id": "pt.ine.add.PTCONT.4449",
      "street": "R QUINTAS DE BAIXO",
      "house": "544",
      "postcode": "3885-133",
      "city": "ARADA",
      "lon": "-8.591525977852871",
      "lat": "40.90231515870183"
    },
    {
      "id": "pt.ine.add.PTCONT.4450",
      "street": "R QUINTAS DE BAIXO",
      "house": "544",
      "postcode": "3885-133",
      "city": "ARADA",
      "lon": "-8.591525977852871",
      "lat": "40.90231515870183"
    },
    {
      "id": "pt.ine.add.PTCONT.9736",
      "street": "R EMIGRANTE",
      "house": "191",
      "postcode": "3885-054",
      "city": "ARADA",
      "lon": "-8.585807666990336",
      "lat": "40.90436381478006"
    },
    {
      "id": "pt.ine.add.PTCONT.14957",
      "street": "R PISOES",
      "house": "",
      "postcode": "3885-130",
      "city": "ARADA",
      "lon": "-8.586603812179789",
      "lat": "40.90276684679117"
    },
    {
      "id": "pt.ine.add.PTCONT.20207",
      "street": "R SERRADO",
      "house": "412",
      "postcode": "3885-146",
      "city": "ARADA",
      "lon": "-8.589224891615345",
      "lat": "40.9059621992802"
    },
    {
      "id": "pt.ine.add.PTCONT.25690",
      "street": "R PISOES",
      "house": "122",
      "postcode": "3885-130",
      "city": "ARADA",
      "lon": "-8.586591144774625",
      "lat": "40.9026498348846"
    },
    {
      "id": "pt.ine.add.PTCONT.30936",
      "street": "R EMIGRANTE",
      "house": "133",
      "postcode": "3885-054",
      "city": "ARADA",
      "lon": "-8.585745379468745",
      "lat": "40.90393183148636"
    },
    {
      "id": "pt.ine.add.PTCONT.36445",
      "street": "R QUINTAS DE BAIXO",
      "house": "672",
      "postcode": "3885-133",
      "city": "ARADA",
      "lon": "-8.592126649154338",
      "lat": "40.903366324828575"
    },
    {
      "id": "pt.ine.add.PTCONT.44711",
      "street": "R SERRADO",
      "house": "84",
      "postcode": "3885-146",
      "city": "ARADA",
      "lon": "-8.592866494735278",
      "lat": "40.90565958735876"
    },
    {
      "id": "pt.ine.add.PTCONT.52324",
      "street": "R EMIGRANTE",
      "house": "241",
      "postcode": "3885-054",
      "city": "ARADA",
      "lon": "-8.586094898183182",
      "lat": "40.904713871975254"
    },
    {
      "id": "pt.ine.add.PTCONT.97018",
      "street": "BC MINEIRA",
      "house": "48",
      "postcode": "3885-093",
      "city": "ARADA",
      "lon": "-8.587331838626653",
      "lat": "40.905096210781124"
    },
    {
      "id": "pt.ine.add.PTCONT.103319",
      "street": "R SERRADO",
      "house": "370",
      "postcode": "3885-146",
      "city": "ARADA",
      "lon": "-8.589841862732461",
      "lat": "40.90593274325717"
    },
    {
      "id": "pt.ine.add.PTCONT.103320",
      "street": "R SERRADO",
      "house": "10",
      "postcode": "3885-146",
      "city": "ARADA",
      "lon": "-8.588713870411192",
      "lat": "40.90586516709536"
    },
    {
      "id": "pt.ine.add.PTCONT.111481",
      "street": "R SERRADO",
      "house": "674",
      "postcode": "3885-146",
      "city": "ARADA",
      "lon": "-8.586524674394674",
      "lat": "40.90508137757412"
    },
    {
      "id": "pt.ine.add.PTCONT.127400",
      "street": "R QUINTAS DE BAIXO",
      "house": "758",
      "postcode": "3885-133",
      "city": "ARADA",
      "lon": "-8.592488294822322",
      "lat": "40.9041753118847"
    },
    {
      "id": "pt.ine.add.PTCONT.128874",
      "street": "R SERRADO",
      "house": "108",
      "postcode": "3885-146",
      "city": "ARADA",
      "lon": "-8.59269046442219",
      "lat": "40.905948440719435"
    },
    {
      "id": "pt.ine.add.PTCONT.139415",
      "street": "R PISOES",
      "house": "470",
      "postcode": "3885-130",
      "city": "ARADA",
      "lon": "-8.590245624869656",
      "lat": "40.902518345341896"
    },
    {
      "id": "pt.ine.add.PTCONT.145771",
      "street": "R EMIGRANTE",
      "house": "287",
      "postcode": "3885-054",
      "city": "ARADA",
      "lon": "-8.58616917992731",
      "lat": "40.90516381738627"
    },
    {
      "id": "pt.ine.add.PTCONT.147193",
      "street": "R EMIGRANTE",
      "house": "199",
      "postcode": "3885-054",
      "city": "ARADA",
      "lon": "-8.5858794898567",
      "lat": "40.90445358027536"
    },
    {
      "id": "pt.ine.add.PTCONT.150524",
      "street": "R SERRADO",
      "house": "75",
      "postcode": "3885-146",
      "city": "ARADA",
      "lon": "-8.58899456858463",
      "lat": "40.905260740070105"
    },
    {
      "id": "pt.ine.add.PTCONT.179282",
      "street": "R SERRADO",
      "house": "246",
      "postcode": "3885-146",
      "city": "ARADA",
      "lon": "-8.591267561788877",
      "lat": "40.90614320191215"
    },
    {
      "id": "pt.ine.add.PTCONT.182212",
      "street": "R SERRADO",
      "house": "628",
      "postcode": "3885-146",
      "city": "ARADA",
      "lon": "-8.586976837608203",
      "lat": "40.905250689086195"
    },
    {
      "id": "pt.ine.add.PTCONT.193031",
      "street": "R EMIGRANTE",
      "house": "257",
      "postcode": "3885-054",
      "city": "ARADA",
      "lon": "-8.586072943553239",
      "lat": "40.904975095791585"
    },
    {
      "id": "pt.ine.add.PTCONT.193032",
      "street": "R EMIGRANTE",
      "house": "105",
      "postcode": "3885-054",
      "city": "ARADA",
      "lon": "-8.585659786507767",
      "lat": "40.903562972805055"
    },
    {
      "id": "pt.ine.add.PTCONT.193033",
      "street": "R QUINTAS DE BAIXO",
      "house": "602",
      "postcode": "3885-133",
      "city": "ARADA",
      "lon": "-8.591790365426652",
      "lat": "40.902791359057595"
    },
    {
      "id": "pt.ine.add.PTCONT.207914",
      "street": "R EMIGRANTE",
      "house": "173",
      "postcode": "3885-054",
      "city": "ARADA",
      "lon": "-8.585759334952108",
      "lat": "40.904237938059346"
    },
    {
      "id": "pt.ine.add.PTCONT.215737",
      "street": "R QUINTAS DE BAIXO",
      "house": "742",
      "postcode": "3885-133",
      "city": "ARADA",
      "lon": "-8.592344756673898",
      "lat": "40.90401379815465"
    },
    {
      "id": "pt.ine.add.PTCONT.218568",
      "street": "R SERRADO",
      "house": "552",
      "postcode": "3885-146",
      "city": "ARADA",
      "lon": "-8.58764361915633",
      "lat": "40.9055632290249"
    },
    {
      "id": "pt.ine.add.PTCONT.226556",
      "street": "R SERRADO",
      "house": "200",
      "postcode": "3885-146",
      "city": "ARADA",
      "lon": "-8.591705947318443",
      "lat": "40.906033402583176"
    },
    {
      "id": "pt.ine.add.PTCONT.229282",
      "street": "R PISOES",
      "house": "410",
      "postcode": "3885-130",
      "city": "ARADA",
      "lon": "-8.58994676160271",
      "lat": "40.90220436343724"
    },
    {
      "id": "pt.ine.add.PTCONT.236566",
      "street": "R SERRADO",
      "house": "490",
      "postcode": "3885-146",
      "city": "ARADA",
      "lon": "-8.588511675410313",
      "lat": "40.90580293251567"
    },
    {
      "id": "pt.ine.add.PTCONT.236567",
      "street": "BC RIBEIRINHO",
      "house": "67",
      "postcode": "3885-137",
      "city": "ARADA",
      "lon": "-8.587090902059785",
      "lat": "40.90457488432785"
    },
    {
      "id": "pt.ine.add.PTCONT.240154",
      "street": "TV GESTEIRA",
      "house": "138",
      "postcode": "3885-187",
      "city": "ARADA",
      "lon": "-8.59052422947947",
      "lat": "40.90333667259043"
    },
    {
      "id": "pt.ine.add.PTCONT.242899",
      "street": "R EMIGRANTE",
      "house": "93",
      "postcode": "3885-054",
      "city": "ARADA",
      "lon": "-8.5856469978434",
      "lat": "40.903427951791656"
    },
    {
      "id": "pt.ine.add.PTCONT.246951",
      "street": "TV GESTEIRA",
      "house": "150",
      "postcode": "3885-187",
      "city": "ARADA",
      "lon": "-8.59054852373448",
      "lat": "40.90341761894215"
    },
    {
      "id": "pt.ine.add.PTCONT.268111",
      "street": "R EMIGRANTE",
      "house": "107",
      "postcode": "3885-054",
      "city": "ARADA",
      "lon": "-8.585722871178296",
      "lat": "40.90411201473733"
    },
    {
      "id": "pt.ine.add.PTCONT.268112",
      "street": "R EMIGRANTE",
      "house": "107",
      "postcode": "3885-054",
      "city": "ARADA",
      "lon": "-8.585722871178296",
      "lat": "40.90411201473733"
    },
    {
      "id": "pt.ine.add.PTCONT.283106",
      "street": "R SERRADO",
      "house": "53",
      "postcode": "3885-146",
      "city": "ARADA",
      "lon": "-8.588912108885934",
      "lat": "40.905351113436666"
    },
    {
      "id": "pt.ine.add.PTCONT.285812",
      "street": "R SERRADO",
      "house": "536",
      "postcode": "3885-146",
      "city": "ARADA",
      "lon": "-8.58782201425429",
      "lat": "40.90561655423089"
    }
  ]
}