{
  "data": {
    "distrito": "Castelo Branco",
    "concelho": "Idanha-A-Nova",
    "freguesia": "Proença-a-Velha",
    "OBJECTID": 366,
    "BGRI2021": "05051100106",
    "DT21": "05",
    "DTMN21": "0505",
    "DTMNFR21": "050511",
    "DTMNFRSEC21": "050511001",
    "SECNUM21": "001",
    "SSNUM21": "06",
    "SECSSNUM21": "00106",
    "OBJECTID_1": 44301,
    "DT": "05",
    "CC": "05",
    "fr": "11",
    "SEC": "001",
    "SS": "06"
  },
  "addresses": [
    {
      "id": "pt.ine.add.PTCONT.953616",
      "street": "R DO RELÓGIO",
      "house": "3",
      "postcode": "6060-069",
      "city": "PROENÇA-A-VELHA",
      "lon": "-7.2401156548407215",
      "lat": "40.024831761721074"
    },
    {
      "id": "pt.ine.add.PTCONT.955960",
      "street": "LG DA PRAÇA",
      "house": "6",
      "postcode": "6060-069",
      "city": "PROENÇA-A-VELHA",
      "lon": "-7.240271449139668",
      "lat": "40.02456278318321"
    },
    {
      "id": "pt.ine.add.PTCONT.956973",
      "street": "TV DA PRAÇA",
      "house": "4",
      "postcode": "6060-069",
      "city": "PROENÇA-A-VELHA",
      "lon": "-7.240362455058088",
      "lat": "40.024770621659215"
    },
    {
      "id": "pt.ine.add.PTCONT.961378",
      "street": "R DA IGREJA",
      "house": "14",
      "postcode": "6060-069",
      "city": "PROENÇA-A-VELHA",
      "lon": "-7.239408276278298",
      "lat": "40.02517754085968"
    },
    {
      "id": "pt.ine.add.PTCONT.971769",
      "street": "R DOS LOUREIROS",
      "house": "4",
      "postcode": "6060-069",
      "city": "PROENÇA-A-VELHA",
      "lon": "-7.240692420951635",
      "lat": "40.02462006191388"
    },
    {
      "id": "pt.ine.add.PTCONT.973528",
      "street": "R DO CASTELO",
      "house": "21",
      "postcode": "6060-069",
      "city": "PROENÇA-A-VELHA",
      "lon": "-7.239789445400041",
      "lat": "40.024694157772814"
    },
    {
      "id": "pt.ine.add.PTCONT.978592",
      "street": "R DA IGREJA",
      "house": "8",
      "postcode": "6060-069",
      "city": "PROENÇA-A-VELHA",
      "lon": "-7.239596864260979",
      "lat": "40.02508893554622"
    },
    {
      "id": "pt.ine.add.PTCONT.982604",
      "street": "R DO CASTELO",
      "house": "41",
      "postcode": "6060-069",
      "city": "PROENÇA-A-VELHA",
      "lon": "-7.239129860219562",
      "lat": "40.02496825592188"
    },
    {
      "id": "pt.ine.add.PTCONT.987206",
      "street": "R DO CASTELO",
      "house": "29",
      "postcode": "6060-069",
      "city": "PROENÇA-A-VELHA",
      "lon": "-7.239506800247965",
      "lat": "40.024809056001544"
    },
    {
      "id": "pt.ine.add.PTCONT.987207",
      "street": "LG DE S PEDRO",
      "house": "2",
      "postcode": "6060-069",
      "city": "PROENÇA-A-VELHA",
      "lon": "-7.239623697855995",
      "lat": "40.02482796937406"
    },
    {
      "id": "pt.ine.add.PTCONT.990548",
      "street": "R DOS LOUREIROS",
      "house": "2",
      "postcode": "6060-069",
      "city": "PROENÇA-A-VELHA",
      "lon": "-7.240773474914688",
      "lat": "40.02469273388462"
    },
    {
      "id": "pt.ine.add.PTCONT.992581",
      "street": "R DO RELÓGIO",
      "house": "4",
      "postcode": "6060-069",
      "city": "PROENÇA-A-VELHA",
      "lon": "-7.239846837074167",
      "lat": "40.02478465990158"
    },
    {
      "id": "pt.ine.add.PTCONT.996028",
      "street": "LG DE S PEDRO",
      "house": "10",
      "postcode": "6060-069",
      "city": "PROENÇA-A-VELHA",
      "lon": "-7.239586795777611",
      "lat": "40.02496277435063"
    },
    {
      "id": "pt.ine.add.PTCONT.999547",
      "street": "R DOS LOUREIROS",
      "house": "6",
      "postcode": "6060-069",
      "city": "PROENÇA-A-VELHA",
      "lon": "-7.2404940002750395",
      "lat": "40.02456449777406"
    },
    {
      "id": "pt.ine.add.PTCONT.1000671",
      "street": "R DO CASTELO",
      "house": "5",
      "postcode": "6060-069",
      "city": "PROENÇA-A-VELHA",
      "lon": "-7.24035332427655",
      "lat": "40.02457241998925"
    },
    {
      "id": "pt.ine.add.PTCONT.1001777",
      "street": "R DO CASTELO",
      "house": "35",
      "postcode": "6060-069",
      "city": "PROENÇA-A-VELHA",
      "lon": "-7.239282485481671",
      "lat": "40.02494241543385"
    },
    {
      "id": "pt.ine.add.PTCONT.1013943",
      "street": "R DO CASTELO",
      "house": "43",
      "postcode": "6060-069",
      "city": "PROENÇA-A-VELHA",
      "lon": "-7.239070588476956",
      "lat": "40.025021834428834"
    },
    {
      "id": "pt.ine.add.PTCONT.1013944",
      "street": "TV DA PRAÇA",
      "house": "1",
      "postcode": "6060-069",
      "city": "PROENÇA-A-VELHA",
      "lon": "-7.240435551558561",
      "lat": "40.024555041542186"
    },
    {
      "id": "pt.ine.add.PTCONT.1015130",
      "street": "R DO CASTELO",
      "house": "1",
      "postcode": "6060-069",
      "city": "PROENÇA-A-VELHA",
      "lon": "-7.240456161083646",
      "lat": "40.024771343573775"
    },
    {
      "id": "pt.ine.add.PTCONT.1016214",
      "street": "R DO CASTELO",
      "house": "21 A",
      "postcode": "6060-069",
      "city": "PROENÇA-A-VELHA",
      "lon": "-7.239894512208824",
      "lat": "40.02472198563218"
    },
    {
      "id": "pt.ine.add.PTCONT.1022360",
      "street": "R DO CASTELO",
      "house": "45",
      "postcode": "6060-069",
      "city": "PROENÇA-A-VELHA",
      "lon": "-7.238976764576766",
      "lat": "40.02503011645098"
    },
    {
      "id": "pt.ine.add.PTCONT.1023099",
      "street": "R DO CASTELO",
      "house": "37",
      "postcode": "6060-069",
      "city": "PROENÇA-A-VELHA",
      "lon": "-7.239224036622254",
      "lat": "40.02493295858979"
    },
    {
      "id": "pt.ine.add.PTCONT.1023100",
      "street": "LG DA PRAÇA",
      "house": "5",
      "postcode": "6060-069",
      "city": "PROENÇA-A-VELHA",
      "lon": "-7.24025633139465",
      "lat": "40.02482383980091"
    },
    {
      "id": "pt.ine.add.PTCONT.1037201",
      "street": "R DA IGREJA",
      "house": "6",
      "postcode": "6060-069",
      "city": "PROENÇA-A-VELHA",
      "lon": "-7.239821061455521",
      "lat": "40.02496458057021"
    },
    {
      "id": "pt.ine.add.PTCONT.1043977",
      "street": "R DO RELÓGIO",
      "house": "2",
      "postcode": "6060-069",
      "city": "PROENÇA-A-VELHA",
      "lon": "-7.239765431612307",
      "lat": "40.02473900248316"
    },
    {
      "id": "pt.ine.add.PTCONT.1046289",
      "street": "R DA IGREJA",
      "house": "12",
      "postcode": "6060-069",
      "city": "PROENÇA-A-VELHA",
      "lon": "-7.239432407965526",
      "lat": "40.02512369116915"
    },
    {
      "id": "pt.ine.add.PTCONT.1047375",
      "street": "R DO CASTELO",
      "house": "7",
      "postcode": "6060-069",
      "city": "PROENÇA-A-VELHA",
      "lon": "-7.240177391181353",
      "lat": "40.024589076315934"
    },
    {
      "id": "pt.ine.add.PTCONT.1049673",
      "street": "R DO CASTELO",
      "house": "3",
      "postcode": "6060-069",
      "city": "PROENÇA-A-VELHA",
      "lon": "-7.24043390832298",
      "lat": "40.02468111245323"
    },
    {
      "id": "pt.ine.add.PTCONT.1050368",
      "street": "R DO CASTELO",
      "house": "31",
      "postcode": "6060-069",
      "city": "PROENÇA-A-VELHA",
      "lon": "-7.239424337420913",
      "lat": "40.02484444390731"
    },
    {
      "id": "pt.ine.add.PTCONT.1050945",
      "street": "R CONDE DE PROENÇA-A-VELHA",
      "house": "22",
      "postcode": "6060-069",
      "city": "PROENÇA-A-VELHA",
      "lon": "-7.24055010183142",
      "lat": "40.02475405528234"
    },
    {
      "id": "pt.ine.add.PTCONT.1058728",
      "street": "R DO CASTELO",
      "house": "39",
      "postcode": "6060-069",
      "city": "PROENÇA-A-VELHA",
      "lon": "-7.239200022379804",
      "lat": "40.024977803176135"
    },
    {
      "id": "pt.ine.add.PTCONT.1062198",
      "street": "R DO CASTELO",
      "house": "11",
      "postcode": "6060-069",
      "city": "PROENÇA-A-VELHA",
      "lon": "-7.2400832157318575",
      "lat": "40.02462437443557"
    },
    {
      "id": "pt.ine.add.PTCONT.1062203",
      "street": "R CONDE DE PROENÇA-A-VELHA",
      "house": "20",
      "postcode": "6060-069",
      "city": "PROENÇA-A-VELHA",
      "lon": "-7.2406794169621564",
      "lat": "40.02471902742442"
    },
    {
      "id": "pt.ine.add.PTCONT.1065813",
      "street": "R DA IGREJA",
      "house": "4",
      "postcode": "6060-069",
      "city": "PROENÇA-A-VELHA",
      "lon": "-7.239985282311617",
      "lat": "40.02494783451529"
    },
    {
      "id": "pt.ine.add.PTCONT.1071420",
      "street": "R DO CASTELO",
      "house": "15",
      "postcode": "6060-069",
      "city": "PROENÇA-A-VELHA",
      "lon": "-7.239942304694392",
      "lat": "40.02465030627771"
    },
    {
      "id": "pt.ine.add.PTCONT.1072489",
      "street": "R DO CASTELO",
      "house": "19",
      "postcode": "6060-069",
      "city": "PROENÇA-A-VELHA",
      "lon": "-7.239860077178873",
      "lat": "40.02466768437179"
    },
    {
      "id": "pt.ine.add.PTCONT.1073613",
      "street": "TV DO RELÓGIO",
      "house": "8",
      "postcode": "6060-069",
      "city": "PROENÇA-A-VELHA",
      "lon": "-7.239974860822042",
      "lat": "40.02484868853362"
    },
    {
      "id": "pt.ine.add.PTCONT.1078699",
      "street": "R DO CASTELO",
      "house": "27",
      "postcode": "6060-069",
      "city": "PROENÇA-A-VELHA",
      "lon": "-7.2396245202250125",
      "lat": "40.02476493393444"
    },
    {
      "id": "pt.ine.add.PTCONT.1082627",
      "street": "R DA IGREJA",
      "house": "10",
      "postcode": "6060-069",
      "city": "PROENÇA-A-VELHA",
      "lon": "-7.239514283642472",
      "lat": "40.02513332857322"
    },
    {
      "id": "pt.ine.add.PTCONT.1086084",
      "street": "R CONDE DE PROENÇA-A-VELHA",
      "house": "16",
      "postcode": "6060-069",
      "city": "PROENÇA-A-VELHA",
      "lon": "-7.240575992803404",
      "lat": "40.02456512935769"
    },
    {
      "id": "pt.ine.add.PTCONT.1091686",
      "street": "R DO RELÓGIO",
      "house": "9",
      "postcode": "6060-069",
      "city": "PROENÇA-A-VELHA",
      "lon": "-7.240317128115551",
      "lat": "40.02465319483325"
    },
    {
      "id": "pt.ine.add.PTCONT.1095168",
      "street": "R DO CASTELO",
      "house": "33",
      "postcode": "6060-069",
      "city": "PROENÇA-A-VELHA",
      "lon": "-7.239306499657597",
      "lat": "40.024897570829424"
    }
  ]
}