{
  "data": {
    "distrito": "Viseu",
    "concelho": "Tabuaço",
    "freguesia": "União das freguesias de Paradela e Granjinha",
    "OBJECTID": 158,
    "BGRI2021": "18191900106",
    "DT21": "18",
    "DTMN21": "1819",
    "DTMNFR21": "181919",
    "DTMNFRSEC21": "181919001",
    "SECNUM21": "001",
    "SSNUM21": "06",
    "SECSSNUM21": "00106",
    "OBJECTID_1": 198304,
    "DT": "18",
    "CC": "19",
    "fr": "19",
    "SEC": "001",
    "SS": "06"
  },
  "addresses": [
    {
      "id": "pt.ine.add.PTCONT.5440648",
      "street": "LG FONTE",
      "house": "5",
      "postcode": "5120-202",
      "city": "GRANJINHA",
      "lon": "-7.519854148822301",
      "lat": "41.06585744696871"
    },
    {
      "id": "pt.ine.add.PTCONT.5457187",
      "street": "RAM S PEDRO DAS AGUIAS",
      "house": "6",
      "postcode": "5120-202",
      "city": "GRANJINHA",
      "lon": "-7.519831861025769",
      "lat": "41.065695248057345"
    },
    {
      "id": "pt.ine.add.PTCONT.5458939",
      "street": "LG TELHADO",
      "house": "",
      "postcode": "5120-202",
      "city": "GRANJINHA",
      "lon": "-7.519248751785522",
      "lat": "41.06571015221288"
    },
    {
      "id": "pt.ine.add.PTCONT.5465932",
      "street": "RAM S PEDRO DAS AGUIAS",
      "house": "",
      "postcode": "5120-202",
      "city": "GRANJINHA",
      "lon": "-7.5180569099181405",
      "lat": "41.06465927953092"
    },
    {
      "id": "pt.ine.add.PTCONT.5500385",
      "street": "RAM S PEDRO DAS AGUIAS",
      "house": "",
      "postcode": "5120-202",
      "city": "GRANJINHA",
      "lon": "-7.518259822736765",
      "lat": "41.06458832666948"
    },
    {
      "id": "pt.ine.add.PTCONT.5512273",
      "street": "R RIBEIRO",
      "house": "",
      "postcode": "5120-202",
      "city": "GRANJINHA",
      "lon": "-7.519554217985773",
      "lat": "41.066125984230375"
    },
    {
      "id": "pt.ine.add.PTCONT.5517386",
      "street": "R PINGUEIS",
      "house": "",
      "postcode": "5120-202",
      "city": "GRANJINHA",
      "lon": "-7.519579015977571",
      "lat": "41.066018062735886"
    },
    {
      "id": "pt.ine.add.PTCONT.5523251",
      "street": "RAM S PEDRO DAS AGUIAS",
      "house": "",
      "postcode": "5120-202",
      "city": "GRANJINHA",
      "lon": "-7.518152501975508",
      "lat": "41.06461476738756"
    },
    {
      "id": "pt.ine.add.PTCONT.5530684",
      "street": "R RIBEIRO",
      "house": "",
      "postcode": "5120-202",
      "city": "GRANJINHA",
      "lon": "-7.519157932450456",
      "lat": "41.06524143639031"
    },
    {
      "id": "pt.ine.add.PTCONT.5545030",
      "street": "R RIBEIRO",
      "house": "",
      "postcode": "5120-202",
      "city": "GRANJINHA",
      "lon": "-7.519016177375857",
      "lat": "41.06513262751816"
    },
    {
      "id": "pt.ine.add.PTCONT.5547192",
      "street": "RAM S PEDRO DAS AGUIAS",
      "house": "",
      "postcode": "5120-202",
      "city": "GRANJINHA",
      "lon": "-7.519729810220532",
      "lat": "41.06515443720803"
    },
    {
      "id": "pt.ine.add.PTCONT.5553490",
      "street": "R PINGUEIS",
      "house": "3",
      "postcode": "5120-202",
      "city": "GRANJINHA",
      "lon": "-7.519166646821178",
      "lat": "41.06558365235284"
    },
    {
      "id": "pt.ine.add.PTCONT.5563586",
      "street": "RAMAL",
      "house": "8",
      "postcode": "5120-202",
      "city": "GRANJINHA",
      "lon": "-7.517579535428561",
      "lat": "41.064818810945184"
    },
    {
      "id": "pt.ine.add.PTCONT.5579158",
      "street": "R TELHADO",
      "house": "2",
      "postcode": "5120-202",
      "city": "GRANJINHA",
      "lon": "-7.519485766524387",
      "lat": "41.06581046362505"
    },
    {
      "id": "pt.ine.add.PTCONT.5582862",
      "street": "R RIBEIRO",
      "house": "",
      "postcode": "5120-202",
      "city": "GRANJINHA",
      "lon": "-7.519471358574983",
      "lat": "41.0660805207224"
    },
    {
      "id": "pt.ine.add.PTCONT.5594042",
      "street": "LG TELHADO",
      "house": "",
      "postcode": "5120-202",
      "city": "GRANJINHA",
      "lon": "-7.519271875475828",
      "lat": "41.06578231107873"
    },
    {
      "id": "pt.ine.add.PTCONT.5606650",
      "street": "R SOBREIRO",
      "house": "",
      "postcode": "5120-202",
      "city": "GRANJINHA",
      "lon": "-7.5193678869564335",
      "lat": "41.06569277786622"
    },
    {
      "id": "pt.ine.add.PTCONT.5610418",
      "street": "RAM S PEDRO DAS AGUIAS",
      "house": "",
      "postcode": "5120-202",
      "city": "GRANJINHA",
      "lon": "-7.519807297206565",
      "lat": "41.0644975238714"
    },
    {
      "id": "pt.ine.add.PTCONT.5641185",
      "street": "R TELHADO",
      "house": "1",
      "postcode": "5120-202",
      "city": "GRANJINHA",
      "lon": "-7.519534274351678",
      "lat": "41.06571167284725"
    },
    {
      "id": "pt.ine.add.PTCONT.5655732",
      "street": "R PINGUEIS",
      "house": "2",
      "postcode": "5120-202",
      "city": "GRANJINHA",
      "lon": "-7.5197330054024",
      "lat": "41.066090918184074"
    },
    {
      "id": "pt.ine.add.PTCONT.5657517",
      "street": "R FONTE",
      "house": "",
      "postcode": "5120-202",
      "city": "GRANJINHA",
      "lon": "-7.519589155322586",
      "lat": "41.0662072103884"
    },
    {
      "id": "pt.ine.add.PTCONT.5668971",
      "street": "R PINGUEIS",
      "house": "4",
      "postcode": "5120-202",
      "city": "GRANJINHA",
      "lon": "-7.519427789361202",
      "lat": "41.06564807458532"
    }
  ]
}