{
  "data": {
    "distrito": "Viseu",
    "concelho": "Tondela",
    "freguesia": "Molelos",
    "OBJECTID": 1079,
    "BGRI2021": "18211100214",
    "DT21": "18",
    "DTMN21": "1821",
    "DTMNFR21": "182111",
    "DTMNFRSEC21": "182111002",
    "SECNUM21": "002",
    "SSNUM21": "14",
    "SECSSNUM21": "00214",
    "OBJECTID_1": 199702,
    "DT": "18",
    "CC": "21",
    "fr": "11",
    "SEC": "002",
    "SS": "14"
  },
  "addresses": [
    {
      "id": "pt.ine.add.PTCONT.5429809",
      "street": "R CARRIL",
      "house": "236",
      "postcode": "3460-251",
      "city": "TONDELA",
      "lon": "-8.099577900186848",
      "lat": "40.53078931576831"
    },
    {
      "id": "pt.ine.add.PTCONT.5431674",
      "street": "R PROF MANUEL COIMBRA",
      "house": "232",
      "postcode": "3460-263",
      "city": "TONDELA",
      "lon": "-8.097088046777667",
      "lat": "40.5299690776995"
    },
    {
      "id": "pt.ine.add.PTCONT.5435308",
      "street": "R CARRIL",
      "house": "",
      "postcode": "3460-251",
      "city": "TONDELA",
      "lon": "-8.097772446011875",
      "lat": "40.53021243404052"
    },
    {
      "id": "pt.ine.add.PTCONT.5439265",
      "street": "R ALTO DO CONCELHO",
      "house": "117",
      "postcode": "3460-225",
      "city": "TONDELA",
      "lon": "-8.09970727872562",
      "lat": "40.531689890182236"
    },
    {
      "id": "pt.ine.add.PTCONT.5466030",
      "street": "R CARRIL",
      "house": "284",
      "postcode": "3460-251",
      "city": "TONDELA",
      "lon": "-8.100073536258991",
      "lat": "40.53091553370969"
    },
    {
      "id": "pt.ine.add.PTCONT.5477244",
      "street": "R FIDALGO",
      "house": "5",
      "postcode": "3460-256",
      "city": "TONDELA",
      "lon": "-8.095565172465268",
      "lat": "40.5306710118669"
    },
    {
      "id": "pt.ine.add.PTCONT.5477245",
      "street": "R PROF MANUEL COIMBRA",
      "house": "236",
      "postcode": "3460-263",
      "city": "TONDELA",
      "lon": "-8.097229725871456",
      "lat": "40.52987006269174"
    },
    {
      "id": "pt.ine.add.PTCONT.5482724",
      "street": "R FIDALGO",
      "house": "50",
      "postcode": "3460-256",
      "city": "TONDELA",
      "lon": "-8.095695228270907",
      "lat": "40.5302568070029"
    },
    {
      "id": "pt.ine.add.PTCONT.5485975",
      "street": "R CASAL NOVO",
      "house": "155",
      "postcode": "3460-253",
      "city": "TONDELA",
      "lon": "-8.099636553396122",
      "lat": "40.53150976233921"
    },
    {
      "id": "pt.ine.add.PTCONT.5495778",
      "street": "MOLELOS",
      "house": "",
      "postcode": "3460-246",
      "city": "TONDELA",
      "lon": "-8.098338799531753",
      "lat": "40.53050978308171"
    },
    {
      "id": "pt.ine.add.PTCONT.5498541",
      "street": "R ALTO DO CONCELHO",
      "house": "73",
      "postcode": "3460-225",
      "city": "TONDELA",
      "lon": "-8.099341252337686",
      "lat": "40.53198696095842"
    },
    {
      "id": "pt.ine.add.PTCONT.5511991",
      "street": "R ALTO DO CONCELHO",
      "house": "70",
      "postcode": "3460-225",
      "city": "TONDELA",
      "lon": "-8.099305803982663",
      "lat": "40.53206799890767"
    },
    {
      "id": "pt.ine.add.PTCONT.5517562",
      "street": "AV VELA",
      "house": "",
      "postcode": "3460-274",
      "city": "TONDELA",
      "lon": "-8.098042939764621",
      "lat": "40.5320496118359"
    },
    {
      "id": "pt.ine.add.PTCONT.5519499",
      "street": "AV VELA",
      "house": "183",
      "postcode": "3460-274",
      "city": "TONDELA",
      "lon": "-8.097075414958",
      "lat": "40.531517997430186"
    },
    {
      "id": "pt.ine.add.PTCONT.5521469",
      "street": "R ALTO DO CONCELHO",
      "house": "43",
      "postcode": "3460-225",
      "city": "TONDELA",
      "lon": "-8.099211315458419",
      "lat": "40.53220305174803"
    },
    {
      "id": "pt.ine.add.PTCONT.5525144",
      "street": "R FIDALGO",
      "house": "42",
      "postcode": "3460-256",
      "city": "TONDELA",
      "lon": "-8.095612562405954",
      "lat": "40.53034683391606"
    },
    {
      "id": "pt.ine.add.PTCONT.5531240",
      "street": "AV VELA",
      "house": "151",
      "postcode": "3460-274",
      "city": "TONDELA",
      "lon": "-8.096721458050816",
      "lat": "40.53130175765175"
    },
    {
      "id": "pt.ine.add.PTCONT.5558239",
      "street": "R PROF MANUEL COIMBRA",
      "house": "186",
      "postcode": "3460-263",
      "city": "TONDELA",
      "lon": "-8.096556909147942",
      "lat": "40.53004095387961"
    },
    {
      "id": "pt.ine.add.PTCONT.5568443",
      "street": "R PROF MANUEL COIMBRA",
      "house": "214",
      "postcode": "3460-263",
      "city": "TONDELA",
      "lon": "-8.096863819748538",
      "lat": "40.52994199147024"
    },
    {
      "id": "pt.ine.add.PTCONT.5584931",
      "street": "R FIDALGO",
      "house": "20",
      "postcode": "3460-256",
      "city": "TONDELA",
      "lon": "-8.095647898966893",
      "lat": "40.5304729205666"
    },
    {
      "id": "pt.ine.add.PTCONT.5599688",
      "street": "R CASAL NOVO",
      "house": "227",
      "postcode": "3460-253",
      "city": "TONDELA",
      "lon": "-8.100191542184321",
      "lat": "40.53095158886594"
    },
    {
      "id": "pt.ine.add.PTCONT.5599689",
      "street": "R ALTO DO CONCELHO",
      "house": "71",
      "postcode": "3460-225",
      "city": "TONDELA",
      "lon": "-8.099541985438343",
      "lat": "40.53180691207628"
    },
    {
      "id": "pt.ine.add.PTCONT.5612741",
      "street": "R CARRIL",
      "house": "252",
      "postcode": "3460-251",
      "city": "TONDELA",
      "lon": "-8.099813924560149",
      "lat": "40.53083441086735"
    },
    {
      "id": "pt.ine.add.PTCONT.5612807",
      "street": "AV VELA",
      "house": "87",
      "postcode": "3460-274",
      "city": "TONDELA",
      "lon": "-8.096237731483331",
      "lat": "40.53098641637954"
    },
    {
      "id": "pt.ine.add.PTCONT.5620167",
      "street": "R ALTO DO CONCELHO",
      "house": "42",
      "postcode": "3460-225",
      "city": "TONDELA",
      "lon": "-8.099270369131842",
      "lat": "40.532122020744794"
    }
  ]
}