{
  "data": {
    "distrito": "Viseu",
    "concelho": "Tondela",
    "freguesia": "Molelos",
    "OBJECTID": 1041,
    "BGRI2021": "18211100248",
    "DT21": "18",
    "DTMN21": "1821",
    "DTMNFR21": "182111",
    "DTMNFRSEC21": "182111002",
    "SECNUM21": "002",
    "SSNUM21": "48",
    "SECSSNUM21": "00248",
    "OBJECTID_1": 199700,
    "DT": "18",
    "CC": "21",
    "fr": "11",
    "SEC": "002",
    "SS": "48"
  },
  "addresses": [
    {
      "id": "pt.ine.add.PTCONT.5431714",
      "street": "R BELA VISTA",
      "house": "122",
      "postcode": "3460-226",
      "city": "TONDELA",
      "lon": "-8.10298437456551",
      "lat": "40.540615104534716"
    },
    {
      "id": "pt.ine.add.PTCONT.5448158",
      "street": "R RAPOSEIRAS",
      "house": "",
      "postcode": "3460-242",
      "city": "TONDELA",
      "lon": "-8.100506635752271",
      "lat": "40.538318066060015"
    },
    {
      "id": "pt.ine.add.PTCONT.5455717",
      "street": "R RAPOSEIRAS",
      "house": "97",
      "postcode": "3460-242",
      "city": "TONDELA",
      "lon": "-8.10114341245572",
      "lat": "40.539624020792374"
    },
    {
      "id": "pt.ine.add.PTCONT.5455718",
      "street": "R MACIEIRA",
      "house": "2",
      "postcode": "3460-231",
      "city": "TONDELA",
      "lon": "-8.10087262240731",
      "lat": "40.53816507765048"
    },
    {
      "id": "pt.ine.add.PTCONT.5457460",
      "street": "R MACIEIRA",
      "house": "8",
      "postcode": "3460-231",
      "city": "TONDELA",
      "lon": "-8.101226487895943",
      "lat": "40.5386784812511"
    },
    {
      "id": "pt.ine.add.PTCONT.5465030",
      "street": "R RAPOSEIRAS",
      "house": "79",
      "postcode": "3460-242",
      "city": "TONDELA",
      "lon": "-8.100423835115926",
      "lat": "40.53867825699156"
    },
    {
      "id": "pt.ine.add.PTCONT.5497216",
      "street": "R RAPOSEIRAS",
      "house": "87",
      "postcode": "3460-242",
      "city": "TONDELA",
      "lon": "-8.101025622791665",
      "lat": "40.539101677454894"
    },
    {
      "id": "pt.ine.add.PTCONT.5497217",
      "street": "R MACIEIRA",
      "house": "123",
      "postcode": "3460-231",
      "city": "TONDELA",
      "lon": "-8.103125770311536",
      "lat": "40.54118247863773"
    },
    {
      "id": "pt.ine.add.PTCONT.5504490",
      "street": "R EIRA",
      "house": "119",
      "postcode": "3460-242",
      "city": "TONDELA",
      "lon": "-8.100245798064336",
      "lat": "40.54068640093444"
    },
    {
      "id": "pt.ine.add.PTCONT.5511990",
      "street": "R ALTO DA PINA",
      "house": "50",
      "postcode": "3460-248",
      "city": "TONDELA",
      "lon": "-8.103963982556351",
      "lat": "40.54091253248087"
    },
    {
      "id": "pt.ine.add.PTCONT.5519597",
      "street": "R ALTO DA PINA",
      "house": "54",
      "postcode": "3460-248",
      "city": "TONDELA",
      "lon": "-8.103786563592427",
      "lat": "40.54173197478209"
    },
    {
      "id": "pt.ine.add.PTCONT.5533142",
      "street": "R EIRA",
      "house": "59",
      "postcode": "3460-242",
      "city": "TONDELA",
      "lon": "-8.100210755899925",
      "lat": "40.53992994112064"
    },
    {
      "id": "pt.ine.add.PTCONT.5546010",
      "street": "R RAPOSEIRAS",
      "house": "107",
      "postcode": "3460-242",
      "city": "TONDELA",
      "lon": "-8.100801078208352",
      "lat": "40.53966895236173"
    },
    {
      "id": "pt.ine.add.PTCONT.5562814",
      "street": "R RAPOSEIRAS",
      "house": "67",
      "postcode": "3460-242",
      "city": "TONDELA",
      "lon": "-8.100247043364872",
      "lat": "40.538137885353045"
    },
    {
      "id": "pt.ine.add.PTCONT.5573892",
      "street": "R EIRA",
      "house": "61",
      "postcode": "3460-242",
      "city": "TONDELA",
      "lon": "-8.100128203417714",
      "lat": "40.53977682653554"
    },
    {
      "id": "pt.ine.add.PTCONT.5601677",
      "street": "R EIRA",
      "house": "89",
      "postcode": "3460-242",
      "city": "TONDELA",
      "lon": "-8.100458476810308",
      "lat": "40.54026320954257"
    },
    {
      "id": "pt.ine.add.PTCONT.5603467",
      "street": "R RAPOSEIRAS",
      "house": "103",
      "postcode": "3460-242",
      "city": "TONDELA",
      "lon": "-8.100529785020484",
      "lat": "40.53926363514135"
    },
    {
      "id": "pt.ine.add.PTCONT.5614933",
      "street": "R MACIEIRA",
      "house": "22",
      "postcode": "3460-231",
      "city": "TONDELA",
      "lon": "-8.102796081973315",
      "lat": "40.53934530012176"
    },
    {
      "id": "pt.ine.add.PTCONT.5622127",
      "street": "R MACIEIRA",
      "house": "114",
      "postcode": "3460-231",
      "city": "TONDELA",
      "lon": "-8.102949297594135",
      "lat": "40.53986765088592"
    },
    {
      "id": "pt.ine.add.PTCONT.5635335",
      "street": "R RAPOSEIRAS",
      "house": "81",
      "postcode": "3460-242",
      "city": "TONDELA",
      "lon": "-8.100376536973096",
      "lat": "40.538849345398475"
    },
    {
      "id": "pt.ine.add.PTCONT.5647978",
      "street": "R MACIEIRA",
      "house": "131",
      "postcode": "3460-231",
      "city": "TONDELA",
      "lon": "-8.102830475817083",
      "lat": "40.54160565325343"
    },
    {
      "id": "pt.ine.add.PTCONT.5656030",
      "street": "R RAPOSEIRAS",
      "house": "113",
      "postcode": "3460-242",
      "city": "TONDELA",
      "lon": "-8.099679668265535",
      "lat": "40.53974968157057"
    },
    {
      "id": "pt.ine.add.PTCONT.5657707",
      "street": "R RAPOSEIRAS",
      "house": "85",
      "postcode": "3460-242",
      "city": "TONDELA",
      "lon": "-8.101049114468475",
      "lat": "40.539344828613444"
    },
    {
      "id": "pt.ine.add.PTCONT.5665062",
      "street": "R RAPOSEIRAS",
      "house": "110",
      "postcode": "3460-242",
      "city": "TONDELA",
      "lon": "-8.09988072174775",
      "lat": "40.53896627352654"
    },
    {
      "id": "pt.ine.add.PTCONT.5668271",
      "street": "R RAPOSEIRAS",
      "house": "417",
      "postcode": "3460-242",
      "city": "TONDELA",
      "lon": "-8.099738938018822",
      "lat": "40.53924539873767"
    }
  ]
}