{
  "data": {
    "distrito": "Beja",
    "concelho": "Odemira",
    "freguesia": "São Salvador e Santa Maria",
    "OBJECTID": 814,
    "BGRI2021": "02112000139",
    "DT21": "02",
    "DTMN21": "0211",
    "DTMNFR21": "021120",
    "DTMNFRSEC21": "021120001",
    "SECNUM21": "001",
    "SSNUM21": "39",
    "SECSSNUM21": "00139",
    "OBJECTID_1": 17475,
    "DT": "02",
    "CC": "11",
    "fr": "20",
    "SEC": "001",
    "SS": "39"
  },
  "addresses": [
    {
      "id": "pt.ine.add.PTCONT.457840",
      "street": "MTE GARRIAO BAIXO",
      "house": "",
      "postcode": "7630-078",
      "city": "ODEMIRA",
      "lon": "-8.54808506265207",
      "lat": "37.63381715231447"
    },
    {
      "id": "pt.ine.add.PTCONT.364442",
      "street": "MTE DA RATOEIRA",
      "house": "",
      "postcode": "7630-078",
      "city": "ODEMIRA",
      "lon": "-8.551274746866333",
      "lat": "37.63492310501096"
    },
    {
      "id": "pt.ine.add.PTCONT.367642",
      "street": "MTE GARRIAO BAIXO",
      "house": "",
      "postcode": "7630-078",
      "city": "ODEMIRA",
      "lon": "-8.54784054588091",
      "lat": "37.63262871889196"
    },
    {
      "id": "pt.ine.add.PTCONT.385461",
      "street": "MTE NOVO DO GAVEÃO",
      "house": "",
      "postcode": "7630-078",
      "city": "ODEMIRA",
      "lon": "-8.553274751771744",
      "lat": "37.63599717458266"
    },
    {
      "id": "pt.ine.add.PTCONT.391009",
      "street": "MTE SARNADAS",
      "house": "",
      "postcode": "7630-078",
      "city": "ODEMIRA",
      "lon": "-8.554119952631204",
      "lat": "37.62917374610696"
    },
    {
      "id": "pt.ine.add.PTCONT.391010",
      "street": "MTE SARNADAS",
      "house": "",
      "postcode": "7630-078",
      "city": "ODEMIRA",
      "lon": "-8.554119952631204",
      "lat": "37.62917374610696"
    },
    {
      "id": "pt.ine.add.PTCONT.405610",
      "street": "CASA CATARINA",
      "house": "",
      "postcode": "7630-078",
      "city": "ODEMIRA",
      "lon": "-8.54912204424915",
      "lat": "37.63693088894555"
    },
    {
      "id": "pt.ine.add.PTCONT.409725",
      "street": "MTE SOBRALINHO DO GAVINO",
      "house": "",
      "postcode": "7630-078",
      "city": "ODEMIRA",
      "lon": "-8.548238506948216",
      "lat": "37.63085238897769"
    },
    {
      "id": "pt.ine.add.PTCONT.417733",
      "street": "MTE BRANCO",
      "house": "",
      "postcode": "7630-078",
      "city": "ODEMIRA",
      "lon": "-8.550773814173985",
      "lat": "37.6365106027848"
    },
    {
      "id": "pt.ine.add.PTCONT.419339",
      "street": "MTE SARNADAS",
      "house": "",
      "postcode": "7630-078",
      "city": "ODEMIRA",
      "lon": "-8.553193271516538",
      "lat": "37.62957348026702"
    },
    {
      "id": "pt.ine.add.PTCONT.423419",
      "street": "MTE CORGO DA FIGUEIRA",
      "house": "",
      "postcode": "7630-078",
      "city": "ODEMIRA",
      "lon": "-8.550167567613435",
      "lat": "37.631422213209696"
    },
    {
      "id": "pt.ine.add.PTCONT.427206",
      "street": "MTE VAL VIOLA",
      "house": "",
      "postcode": "7630-078",
      "city": "ODEMIRA",
      "lon": "-8.547358913930188",
      "lat": "37.62954004941065"
    },
    {
      "id": "pt.ine.add.PTCONT.432228",
      "street": "MTE PEREIRO ROSADO",
      "house": "",
      "postcode": "7630-078",
      "city": "ODEMIRA",
      "lon": "-8.555306916093112",
      "lat": "37.628728024600356"
    },
    {
      "id": "pt.ine.add.PTCONT.432966",
      "street": "MTE CHACOTINHA",
      "house": "",
      "postcode": "7630-078",
      "city": "ODEMIRA",
      "lon": "-8.532284440067894",
      "lat": "37.632358021055296"
    },
    {
      "id": "pt.ine.add.PTCONT.434735",
      "street": "MTE DA LADEIRA",
      "house": "",
      "postcode": "7630-078",
      "city": "ODEMIRA",
      "lon": "-8.547803405497781",
      "lat": "37.63206123215445"
    },
    {
      "id": "pt.ine.add.PTCONT.435470",
      "street": "MTE DA FIGUEIRA",
      "house": "",
      "postcode": "7630-078",
      "city": "ODEMIRA",
      "lon": "-8.54877895042954",
      "lat": "37.63635547157112"
    },
    {
      "id": "pt.ine.add.PTCONT.437269",
      "street": "MTE DA RATOEIRA",
      "house": "",
      "postcode": "7630-078",
      "city": "ODEMIRA",
      "lon": "-8.552783337999161",
      "lat": "37.63524210109247"
    },
    {
      "id": "pt.ine.add.PTCONT.443751",
      "street": "MTE PORTO AMEIXAL",
      "house": "",
      "postcode": "7630-078",
      "city": "ODEMIRA",
      "lon": "-8.547136814780188",
      "lat": "37.632387925898854"
    },
    {
      "id": "pt.ine.add.PTCONT.446086",
      "street": "MTE VALE FIGUEIRINHA",
      "house": "",
      "postcode": "7630-078",
      "city": "ODEMIRA",
      "lon": "-8.536946275850742",
      "lat": "37.63549558665062"
    },
    {
      "id": "pt.ine.add.PTCONT.452622",
      "street": "MTE GARRIAO",
      "house": "",
      "postcode": "7630-078",
      "city": "ODEMIRA",
      "lon": "-8.545463702025248",
      "lat": "37.63303348080287"
    },
    {
      "id": "pt.ine.add.PTCONT.455103",
      "street": "MTE VAL FIGUEIRA",
      "house": "",
      "postcode": "7630-078",
      "city": "ODEMIRA",
      "lon": "-8.532979643381337",
      "lat": "37.6331305099506"
    },
    {
      "id": "pt.ine.add.PTCONT.455899",
      "street": "MTE PONTALINHO DAS COLMEIAS",
      "house": "",
      "postcode": "7630-078",
      "city": "ODEMIRA",
      "lon": "-8.55139147175602",
      "lat": "37.62947176388572"
    }
  ]
}