{
  "data": {
    "distrito": "Lisboa",
    "concelho": "Cascais",
    "freguesia": "Uni√£o das freguesias de Cascais e Estoril",
    "OBJECTID": 275,
    "BGRI2021": "11050804110",
    "DT21": "11",
    "DTMN21": "1105",
    "DTMNFR21": "110508",
    "DTMNFRSEC21": "110508041",
    "SECNUM21": "041",
    "SSNUM21": "10",
    "SECSSNUM21": "04110",
    "OBJECTID_1": 101232,
    "DT": "11",
    "CC": "05",
    "fr": "08",
    "SEC": "041",
    "SS": "10"
  },
  "addresses": [
    {
      "id": "pt.ine.add.PTCONT.3201801",
      "street": "R MAESTRO LACERDA",
      "house": "2",
      "postcode": "2765-239",
      "city": "ESTORIL",
      "lon": "-9.391584038836129",
      "lat": "38.705262956974934"
    },
    {
      "id": "pt.ine.add.PTCONT.3213523",
      "street": "R FLORES",
      "house": "1O",
      "postcode": "2765-222",
      "city": "ESTORIL",
      "lon": "-9.391872955592005",
      "lat": "38.705349924024496"
    },
    {
      "id": "pt.ine.add.PTCONT.2357825",
      "street": "R VALE DE S RITA",
      "house": "213",
      "postcode": "2765-293",
      "city": "ESTORIL",
      "lon": "-9.391542011852213",
      "lat": "38.70548860258363"
    },
    {
      "id": "pt.ine.add.PTCONT.2357826",
      "street": "R VALE DE S RITA",
      "house": "213",
      "postcode": "2765-293",
      "city": "ESTORIL",
      "lon": "-9.391542011852213",
      "lat": "38.70548860258363"
    },
    {
      "id": "pt.ine.add.PTCONT.2357827",
      "street": "R VALE DE S RITA",
      "house": "213",
      "postcode": "2765-293",
      "city": "ESTORIL",
      "lon": "-9.391542011852213",
      "lat": "38.70548860258363"
    },
    {
      "id": "pt.ine.add.PTCONT.2358192",
      "street": "R VALE DE S RITA",
      "house": "213",
      "postcode": "2765-293",
      "city": "ESTORIL",
      "lon": "-9.391542011852213",
      "lat": "38.70548860258363"
    },
    {
      "id": "pt.ine.add.PTCONT.2652627",
      "street": "R FLORES",
      "house": "8",
      "postcode": "2765-222",
      "city": "ESTORIL",
      "lon": "-9.391894363369948",
      "lat": "38.705259616242834"
    },
    {
      "id": "pt.ine.add.PTCONT.2830291",
      "street": "R MAESTRO LACERDA",
      "house": "2C",
      "postcode": "2765-239",
      "city": "ESTORIL",
      "lon": "-9.391767619044609",
      "lat": "38.705242965321986"
    },
    {
      "id": "pt.ine.add.PTCONT.2891216",
      "street": "R FLORES",
      "house": "12",
      "postcode": "2765-222",
      "city": "ESTORIL",
      "lon": "-9.39185312697128",
      "lat": "38.70553029209143"
    }
  ]
}