{
  "data": {
    "distrito": "Viana do Castelo",
    "concelho": "Viana do Castelo",
    "freguesia": "Vila Franca",
    "OBJECTID": 1108,
    "BGRI2021": "16093500129",
    "DT21": "16",
    "DTMN21": "1609",
    "DTMNFR21": "160935",
    "DTMNFRSEC21": "160935001",
    "SECNUM21": "001",
    "SSNUM21": "29",
    "SECSSNUM21": "00129",
    "OBJECTID_1": 178151,
    "DT": "16",
    "CC": "09",
    "fr": "35",
    "SEC": "001",
    "SS": "29"
  },
  "addresses": [
    {
      "id": "pt.ine.add.PTCONT.5136798",
      "street": "EN 203",
      "house": "484",
      "postcode": "4935-669",
      "city": "VILA FRANCA",
      "lon": "-8.740355268047427",
      "lat": "41.68927071336626"
    },
    {
      "id": "pt.ine.add.PTCONT.5142109",
      "street": "EN 203",
      "house": "586",
      "postcode": "4935-669",
      "city": "VILA FRANCA",
      "lon": "-8.74174633277471",
      "lat": "41.68902926389516"
    },
    {
      "id": "pt.ine.add.PTCONT.5145996",
      "street": "CAM QUINTA DO TOMAS",
      "house": "101",
      "postcode": "4935-687",
      "city": "VILA FRANCA",
      "lon": "-8.738573570028246",
      "lat": "41.69012644225733"
    },
    {
      "id": "pt.ine.add.PTCONT.5145997",
      "street": "EN 203",
      "house": "646",
      "postcode": "4935-669",
      "city": "VILA FRANCA",
      "lon": "-8.742406593074913",
      "lat": "41.688989751305634"
    },
    {
      "id": "pt.ine.add.PTCONT.5160565",
      "street": "CAM QUINTA DO TOMAS",
      "house": "83",
      "postcode": "4935-687",
      "city": "VILA FRANCA",
      "lon": "-8.738595143962174",
      "lat": "41.68986522727772"
    },
    {
      "id": "pt.ine.add.PTCONT.5165495",
      "street": "EN 203",
      "house": "749",
      "postcode": "4935-669",
      "city": "VILA FRANCA",
      "lon": "-8.743628810836173",
      "lat": "41.68867714614897"
    },
    {
      "id": "pt.ine.add.PTCONT.5165496",
      "street": "EN 203",
      "house": "522",
      "postcode": "4935-669",
      "city": "VILA FRANCA",
      "lon": "-8.740967233696935",
      "lat": "41.68920445373257"
    },
    {
      "id": "pt.ine.add.PTCONT.5167713",
      "street": "ESTR MANUEL ESPREGUEIRA",
      "house": "26",
      "postcode": "4935-660",
      "city": "VILA FRANCA",
      "lon": "-8.74421836452626",
      "lat": "41.68878205466344"
    },
    {
      "id": "pt.ine.add.PTCONT.5195955",
      "street": "EN 203",
      "house": "",
      "postcode": "4935-669",
      "city": "VILA FRANCA",
      "lon": "-8.744013754007918",
      "lat": "41.68873812501872"
    },
    {
      "id": "pt.ine.add.PTCONT.5207070",
      "street": "EN 203",
      "house": "502",
      "postcode": "4935-669",
      "city": "VILA FRANCA",
      "lon": "-8.740679309820287",
      "lat": "41.68924199023341"
    },
    {
      "id": "pt.ine.add.PTCONT.5225560",
      "street": "EN 203",
      "house": "456",
      "postcode": "4935-669",
      "city": "VILA FRANCA",
      "lon": "-8.74004332156606",
      "lat": "41.68930837520377"
    },
    {
      "id": "pt.ine.add.PTCONT.5234853",
      "street": "ESTR MANUEL ESPREGUEIRA",
      "house": "90",
      "postcode": "4935-660",
      "city": "VILA FRANCA",
      "lon": "-8.744559954289228",
      "lat": "41.689338454390956"
    },
    {
      "id": "pt.ine.add.PTCONT.5238513",
      "street": "CAM QUINTA DO TOMAS",
      "house": "67",
      "postcode": "4935-687",
      "city": "VILA FRANCA",
      "lon": "-8.738533147038552",
      "lat": "41.689658473531196"
    },
    {
      "id": "pt.ine.add.PTCONT.5244160",
      "street": "EN 203",
      "house": "",
      "postcode": "4935-669",
      "city": "VILA FRANCA",
      "lon": "-8.73577632176101",
      "lat": "41.69028520107501"
    },
    {
      "id": "pt.ine.add.PTCONT.5246251",
      "street": "EN 203",
      "house": "",
      "postcode": "4935-669",
      "city": "VILA FRANCA",
      "lon": "-8.735836041393698",
      "lat": "41.690248873912076"
    },
    {
      "id": "pt.ine.add.PTCONT.5248761",
      "street": "EN 203",
      "house": "712",
      "postcode": "4935-669",
      "city": "VILA FRANCA",
      "lon": "-8.743222228550524",
      "lat": "41.68886837872123"
    },
    {
      "id": "pt.ine.add.PTCONT.5251239",
      "street": "EN 203",
      "house": "444",
      "postcode": "4935-669",
      "city": "VILA FRANCA",
      "lon": "-8.73987415280446",
      "lat": "41.68920122654939"
    },
    {
      "id": "pt.ine.add.PTCONT.5262813",
      "street": "EN 203",
      "house": "696",
      "postcode": "4935-669",
      "city": "VILA FRANCA",
      "lon": "-8.74306727774629",
      "lat": "41.6889952501432"
    },
    {
      "id": "pt.ine.add.PTCONT.5269879",
      "street": "EN 203",
      "house": "730",
      "postcode": "4935-669",
      "city": "VILA FRANCA",
      "lon": "-8.743354178047666",
      "lat": "41.688849671162394"
    },
    {
      "id": "pt.ine.add.PTCONT.5275814",
      "street": "EN 203",
      "house": "404",
      "postcode": "4935-669",
      "city": "VILA FRANCA",
      "lon": "-8.739346516308977",
      "lat": "41.68929404603508"
    },
    {
      "id": "pt.ine.add.PTCONT.5280214",
      "street": "EN 203",
      "house": "434",
      "postcode": "4935-669",
      "city": "VILA FRANCA",
      "lon": "-8.73970566121645",
      "lat": "41.68916610202774"
    },
    {
      "id": "pt.ine.add.PTCONT.5280224",
      "street": "EN 203",
      "house": "",
      "postcode": "4935-669",
      "city": "VILA FRANCA",
      "lon": "-8.735583975200358",
      "lat": "41.690268202599135"
    }
  ]
}