{
  "data": {
    "distrito": "Leiria",
    "concelho": "Pombal",
    "freguesia": "Abiul",
    "OBJECTID": 658,
    "BGRI2021": "10150100274",
    "DT21": "10",
    "DTMN21": "1015",
    "DTMNFR21": "101501",
    "DTMNFRSEC21": "101501002",
    "SECNUM21": "002",
    "SSNUM21": "74",
    "SECSSNUM21": "00274",
    "OBJECTID_1": 95833,
    "DT": "10",
    "CC": "15",
    "fr": "01",
    "SEC": "002",
    "SS": "74"
  },
  "addresses": [
    {
      "id": "pt.ine.add.PTCONT.2042844",
      "street": "ESTR ANSIÃO RUA LAGOA JOÃO DE GAGO",
      "house": "",
      "postcode": "3100-042",
      "city": "ABIUL",
      "lon": "-8.497919724124777",
      "lat": "39.90018826693026"
    },
    {
      "id": "pt.ine.add.PTCONT.2047946",
      "street": "R LAGOA JOÃO DE GAGO",
      "house": "",
      "postcode": "3100-042",
      "city": "ABIUL",
      "lon": "-8.498060615832776",
      "lat": "39.90029589949651"
    },
    {
      "id": "pt.ine.add.PTCONT.2102752",
      "street": "R ESTRADA ANSIAO",
      "house": "",
      "postcode": "3100-042",
      "city": "ABIUL",
      "lon": "-8.501040036839136",
      "lat": "39.90203371114417"
    },
    {
      "id": "pt.ine.add.PTCONT.2161050",
      "street": "R ESTRADA ANSIÃO",
      "house": "",
      "postcode": "3100-042",
      "city": "ABIUL",
      "lon": "-8.501309276761608",
      "lat": "39.90208689452853"
    },
    {
      "id": "pt.ine.add.PTCONT.2219865",
      "street": "R LAGOA JOÃO DE GAGO",
      "house": "",
      "postcode": "3100-042",
      "city": "ABIUL",
      "lon": "-8.49795098275528",
      "lat": "39.89946766280495"
    },
    {
      "id": "pt.ine.add.PTCONT.2227118",
      "street": "R LAGOA JOAO GAGO",
      "house": "2289",
      "postcode": "3100-042",
      "city": "ABIUL",
      "lon": "-8.498492665145525",
      "lat": "39.89797991395176"
    },
    {
      "id": "pt.ine.add.PTCONT.2235628",
      "street": "R LAGOA JOÃO DE GAGO",
      "house": "",
      "postcode": "3100-042",
      "city": "ABIUL",
      "lon": "-8.498257106000802",
      "lat": "39.89986297753154"
    },
    {
      "id": "pt.ine.add.PTCONT.2261239",
      "street": "R LAGOA JOÃO DE GAGO",
      "house": "",
      "postcode": "3100-042",
      "city": "ABIUL",
      "lon": "-8.498873529021667",
      "lat": "39.90143714116001"
    }
  ]
}