{
  "data": {
    "distrito": "Braga",
    "concelho": "Braga",
    "freguesia": "Braga (São Vítor)",
    "OBJECTID": 1041,
    "BGRI2021": "03035102802",
    "DT21": "03",
    "DTMN21": "0303",
    "DTMNFR21": "030351",
    "DTMNFRSEC21": "030351028",
    "SECNUM21": "028",
    "SSNUM21": "02",
    "SECSSNUM21": "02802",
    "OBJECTID_1": 23128,
    "DT": "03",
    "CC": "03",
    "fr": "51",
    "SEC": "028",
    "SS": "02"
  },
  "addresses": [
    {
      "id": "pt.ine.add.PTCONT.478984",
      "street": "R ROSALVO DE ALMEIDA",
      "house": "12",
      "postcode": "4710-429",
      "city": "BRAGA",
      "lon": "-8.402925895874736",
      "lat": "41.5569351727267"
    },
    {
      "id": "pt.ine.add.PTCONT.489301",
      "street": "R PULO",
      "house": "31",
      "postcode": "4710-425",
      "city": "BRAGA",
      "lon": "-8.403926374204469",
      "lat": "41.55539317941082"
    },
    {
      "id": "pt.ine.add.PTCONT.506880",
      "street": "R PULO",
      "house": "36",
      "postcode": "4710-425",
      "city": "BRAGA",
      "lon": "-8.403482641785587",
      "lat": "41.55534020109515"
    },
    {
      "id": "pt.ine.add.PTCONT.537025",
      "street": "R NOVA DE SANTA CRUZ",
      "house": "",
      "postcode": "4710-409",
      "city": "BRAGA",
      "lon": "-8.403362587521437",
      "lat": "41.55529546455318"
    },
    {
      "id": "pt.ine.add.PTCONT.537026",
      "street": "R NOVA DE SANTA CRUZ",
      "house": "",
      "postcode": "4710-409",
      "city": "BRAGA",
      "lon": "-8.403362587521437",
      "lat": "41.55529546455318"
    },
    {
      "id": "pt.ine.add.PTCONT.537027",
      "street": "R NOVA DE SANTA CRUZ",
      "house": "",
      "postcode": "4710-409",
      "city": "BRAGA",
      "lon": "-8.403362587521437",
      "lat": "41.55529546455318"
    },
    {
      "id": "pt.ine.add.PTCONT.542947",
      "street": "R NOVA DE SANTA CRUZ",
      "house": "177",
      "postcode": "4710-409",
      "city": "BRAGA",
      "lon": "-8.401783330397116",
      "lat": "41.5560194654806"
    },
    {
      "id": "pt.ine.add.PTCONT.548772",
      "street": "R PULO",
      "house": "32",
      "postcode": "4710-425",
      "city": "BRAGA",
      "lon": "-8.403866403213454",
      "lat": "41.555384316883384"
    },
    {
      "id": "pt.ine.add.PTCONT.563501",
      "street": "R QUINTA DA ARMADA",
      "house": "",
      "postcode": "4710-340",
      "city": "BRAGA",
      "lon": "-8.403333565321663",
      "lat": "41.55696122667431"
    },
    {
      "id": "pt.ine.add.PTCONT.563495",
      "street": "R QUINTA DA ARMADA",
      "house": "",
      "postcode": "4710-340",
      "city": "BRAGA",
      "lon": "-8.403333565321663",
      "lat": "41.55696122667431"
    },
    {
      "id": "pt.ine.add.PTCONT.563496",
      "street": "R QUINTA DA ARMADA",
      "house": "",
      "postcode": "4710-340",
      "city": "BRAGA",
      "lon": "-8.403333565321663",
      "lat": "41.55696122667431"
    },
    {
      "id": "pt.ine.add.PTCONT.563497",
      "street": "R QUINTA DA ARMADA",
      "house": "",
      "postcode": "4710-340",
      "city": "BRAGA",
      "lon": "-8.403333565321663",
      "lat": "41.55696122667431"
    },
    {
      "id": "pt.ine.add.PTCONT.563498",
      "street": "R QUINTA DA ARMADA",
      "house": "",
      "postcode": "4710-340",
      "city": "BRAGA",
      "lon": "-8.403333565321663",
      "lat": "41.55696122667431"
    },
    {
      "id": "pt.ine.add.PTCONT.563499",
      "street": "R QUINTA DA ARMADA",
      "house": "",
      "postcode": "4710-340",
      "city": "BRAGA",
      "lon": "-8.403333565321663",
      "lat": "41.55696122667431"
    },
    {
      "id": "pt.ine.add.PTCONT.563500",
      "street": "R QUINTA DA ARMADA",
      "house": "",
      "postcode": "4710-340",
      "city": "BRAGA",
      "lon": "-8.403333565321663",
      "lat": "41.55696122667431"
    },
    {
      "id": "pt.ine.add.PTCONT.563502",
      "street": "R QUINTA DA ARMADA",
      "house": "",
      "postcode": "4710-340",
      "city": "BRAGA",
      "lon": "-8.403333565321663",
      "lat": "41.55696122667431"
    },
    {
      "id": "pt.ine.add.PTCONT.565891",
      "street": "R QUINTA DA ARMADA",
      "house": "",
      "postcode": "4710-340",
      "city": "BRAGA",
      "lon": "-8.4034168739003",
      "lat": "41.5568169708737"
    },
    {
      "id": "pt.ine.add.PTCONT.565892",
      "street": "R QUINTA DA ARMADA",
      "house": "",
      "postcode": "4710-340",
      "city": "BRAGA",
      "lon": "-8.4034168739003",
      "lat": "41.5568169708737"
    },
    {
      "id": "pt.ine.add.PTCONT.565893",
      "street": "R QUINTA DA ARMADA",
      "house": "",
      "postcode": "4710-340",
      "city": "BRAGA",
      "lon": "-8.4034168739003",
      "lat": "41.5568169708737"
    },
    {
      "id": "pt.ine.add.PTCONT.565894",
      "street": "R QUINTA DA ARMADA",
      "house": "",
      "postcode": "4710-340",
      "city": "BRAGA",
      "lon": "-8.4034168739003",
      "lat": "41.5568169708737"
    },
    {
      "id": "pt.ine.add.PTCONT.565895",
      "street": "R QUINTA DA ARMADA",
      "house": "",
      "postcode": "4710-340",
      "city": "BRAGA",
      "lon": "-8.4034168739003",
      "lat": "41.5568169708737"
    },
    {
      "id": "pt.ine.add.PTCONT.565896",
      "street": "R QUINTA DA ARMADA",
      "house": "",
      "postcode": "4710-340",
      "city": "BRAGA",
      "lon": "-8.4034168739003",
      "lat": "41.5568169708737"
    },
    {
      "id": "pt.ine.add.PTCONT.565897",
      "street": "R QUINTA DA ARMADA",
      "house": "",
      "postcode": "4710-340",
      "city": "BRAGA",
      "lon": "-8.4034168739003",
      "lat": "41.5568169708737"
    },
    {
      "id": "pt.ine.add.PTCONT.565898",
      "street": "R QUINTA DA ARMADA",
      "house": "",
      "postcode": "4710-340",
      "city": "BRAGA",
      "lon": "-8.4034168739003",
      "lat": "41.5568169708737"
    },
    {
      "id": "pt.ine.add.PTCONT.565899",
      "street": "R QUINTA DA ARMADA",
      "house": "",
      "postcode": "4710-340",
      "city": "BRAGA",
      "lon": "-8.4034168739003",
      "lat": "41.5568169708737"
    },
    {
      "id": "pt.ine.add.PTCONT.565900",
      "street": "R QUINTA DA ARMADA",
      "house": "",
      "postcode": "4710-340",
      "city": "BRAGA",
      "lon": "-8.4034168739003",
      "lat": "41.5568169708737"
    },
    {
      "id": "pt.ine.add.PTCONT.566025",
      "street": "R QUINTA DA ARMADA",
      "house": "",
      "postcode": "4710-340",
      "city": "BRAGA",
      "lon": "-8.4034168739003",
      "lat": "41.5568169708737"
    },
    {
      "id": "pt.ine.add.PTCONT.566026",
      "street": "R QUINTA DA ARMADA",
      "house": "",
      "postcode": "4710-340",
      "city": "BRAGA",
      "lon": "-8.4034168739003",
      "lat": "41.5568169708737"
    },
    {
      "id": "pt.ine.add.PTCONT.567937",
      "street": "R QUINTA DA ARMADA",
      "house": "",
      "postcode": "4710-340",
      "city": "BRAGA",
      "lon": "-8.4034168739003",
      "lat": "41.5568169708737"
    },
    {
      "id": "pt.ine.add.PTCONT.568002",
      "street": "R QUINTA DA ARMADA",
      "house": "",
      "postcode": "4710-340",
      "city": "BRAGA",
      "lon": "-8.4034168739003",
      "lat": "41.5568169708737"
    },
    {
      "id": "pt.ine.add.PTCONT.568020",
      "street": "R QUINTA DA ARMADA",
      "house": "",
      "postcode": "4710-340",
      "city": "BRAGA",
      "lon": "-8.4034168739003",
      "lat": "41.5568169708737"
    },
    {
      "id": "pt.ine.add.PTCONT.570541",
      "street": "R PULO",
      "house": "34",
      "postcode": "4710-425",
      "city": "BRAGA",
      "lon": "-8.403686490337765",
      "lat": "41.55535772911307"
    },
    {
      "id": "pt.ine.add.PTCONT.583167",
      "street": "R QTA DA ARMADA",
      "house": "",
      "postcode": "4710-340",
      "city": "BRAGA",
      "lon": "-8.403476283315081",
      "lat": "41.55669077870451"
    },
    {
      "id": "pt.ine.add.PTCONT.583168",
      "street": "R QTA DA ARMADA",
      "house": "",
      "postcode": "4710-340",
      "city": "BRAGA",
      "lon": "-8.403476283315081",
      "lat": "41.55669077870451"
    },
    {
      "id": "pt.ine.add.PTCONT.583169",
      "street": "R QTA DA ARMADA",
      "house": "",
      "postcode": "4710-340",
      "city": "BRAGA",
      "lon": "-8.403476283315081",
      "lat": "41.55669077870451"
    },
    {
      "id": "pt.ine.add.PTCONT.583170",
      "street": "R QTA DA ARMADA",
      "house": "",
      "postcode": "4710-340",
      "city": "BRAGA",
      "lon": "-8.403476283315081",
      "lat": "41.55669077870451"
    },
    {
      "id": "pt.ine.add.PTCONT.583865",
      "street": "R QTA DA ARMADA",
      "house": "",
      "postcode": "4710-340",
      "city": "BRAGA",
      "lon": "-8.403476283315081",
      "lat": "41.55669077870451"
    },
    {
      "id": "pt.ine.add.PTCONT.583866",
      "street": "R QUINTA ARMADA",
      "house": "48",
      "postcode": "4710-340",
      "city": "BRAGA",
      "lon": "-8.403476283315081",
      "lat": "41.55669077870451"
    },
    {
      "id": "pt.ine.add.PTCONT.583867",
      "street": "R QTA DA ARMADA",
      "house": "",
      "postcode": "4710-340",
      "city": "BRAGA",
      "lon": "-8.403476283315081",
      "lat": "41.55669077870451"
    },
    {
      "id": "pt.ine.add.PTCONT.583868",
      "street": "R QTA DA ARMADA",
      "house": "",
      "postcode": "4710-340",
      "city": "BRAGA",
      "lon": "-8.403476283315081",
      "lat": "41.55669077870451"
    },
    {
      "id": "pt.ine.add.PTCONT.583869",
      "street": "R QTA DA ARMADA",
      "house": "",
      "postcode": "4710-340",
      "city": "BRAGA",
      "lon": "-8.403476283315081",
      "lat": "41.55669077870451"
    },
    {
      "id": "pt.ine.add.PTCONT.583870",
      "street": "R QTA DA ARMADA",
      "house": "",
      "postcode": "4710-340",
      "city": "BRAGA",
      "lon": "-8.403476283315081",
      "lat": "41.55669077870451"
    },
    {
      "id": "pt.ine.add.PTCONT.583871",
      "street": "R QTA DA ARMADA",
      "house": "",
      "postcode": "4710-340",
      "city": "BRAGA",
      "lon": "-8.403476283315081",
      "lat": "41.55669077870451"
    },
    {
      "id": "pt.ine.add.PTCONT.583872",
      "street": "R QTA DA ARMADA",
      "house": "",
      "postcode": "4710-340",
      "city": "BRAGA",
      "lon": "-8.403476283315081",
      "lat": "41.55669077870451"
    },
    {
      "id": "pt.ine.add.PTCONT.583873",
      "street": "R PULO",
      "house": "37",
      "postcode": "4710-425",
      "city": "BRAGA",
      "lon": "-8.403434582545076",
      "lat": "41.55531330282955"
    },
    {
      "id": "pt.ine.add.PTCONT.585498",
      "street": "R QTA DA ARMADA",
      "house": "",
      "postcode": "4710-340",
      "city": "BRAGA",
      "lon": "-8.403476283315081",
      "lat": "41.55669077870451"
    },
    {
      "id": "pt.ine.add.PTCONT.585618",
      "street": "R QTA DA ARMADA",
      "house": "",
      "postcode": "4710-340",
      "city": "BRAGA",
      "lon": "-8.403476283315081",
      "lat": "41.55669077870451"
    },
    {
      "id": "pt.ine.add.PTCONT.585654",
      "street": "R QTA DA ARMADA",
      "house": "",
      "postcode": "4710-340",
      "city": "BRAGA",
      "lon": "-8.403476283315081",
      "lat": "41.55669077870451"
    },
    {
      "id": "pt.ine.add.PTCONT.596030",
      "street": "R ROSALVO DE ALMEIDA",
      "house": "18",
      "postcode": "4710-429",
      "city": "BRAGA",
      "lon": "-8.40230343274779",
      "lat": "41.55714371786431"
    },
    {
      "id": "pt.ine.add.PTCONT.606420",
      "street": "R FÁBRICA SOCIAL BRACARENSE",
      "house": "4",
      "postcode": "4710-492",
      "city": "BRAGA",
      "lon": "-8.401670171291656",
      "lat": "41.557640404812645"
    },
    {
      "id": "pt.ine.add.PTCONT.613459",
      "street": "R PULO",
      "house": "35",
      "postcode": "4710-425",
      "city": "BRAGA",
      "lon": "-8.40357849764039",
      "lat": "41.55533097191885"
    },
    {
      "id": "pt.ine.add.PTCONT.622105",
      "street": "R ROSALVO DE ALMEIDA",
      "house": "20",
      "postcode": "4710-429",
      "city": "BRAGA",
      "lon": "-8.40216044748423",
      "lat": "41.55735113874303"
    },
    {
      "id": "pt.ine.add.PTCONT.634457",
      "street": "R NOVA DE SANTA CRUZ",
      "house": "",
      "postcode": "4710-409",
      "city": "BRAGA",
      "lon": "-8.402118102154429",
      "lat": "41.55581159651453"
    },
    {
      "id": "pt.ine.add.PTCONT.654033",
      "street": "R NOVA DE SANTA CRUZ",
      "house": "159",
      "postcode": "4710-409",
      "city": "BRAGA",
      "lon": "-8.402165974523989",
      "lat": "41.55579347700793"
    },
    {
      "id": "pt.ine.add.PTCONT.655844",
      "street": "R NOVA DE SANTA CRUZ",
      "house": "159",
      "postcode": "4710-409",
      "city": "BRAGA",
      "lon": "-8.402165974523989",
      "lat": "41.55579347700793"
    },
    {
      "id": "pt.ine.add.PTCONT.660435",
      "street": "R NOVA DE SANTA CRUZ",
      "house": "",
      "postcode": "4710-409",
      "city": "BRAGA",
      "lon": "-8.403877675940473",
      "lat": "41.55521321904904"
    },
    {
      "id": "pt.ine.add.PTCONT.660436",
      "street": "R NOVA DE SANTA CRUZ",
      "house": "",
      "postcode": "4710-409",
      "city": "BRAGA",
      "lon": "-8.403877675940473",
      "lat": "41.55521321904904"
    },
    {
      "id": "pt.ine.add.PTCONT.660437",
      "street": "R NOVA DE SANTA CRUZ",
      "house": "",
      "postcode": "4710-409",
      "city": "BRAGA",
      "lon": "-8.403877675940473",
      "lat": "41.55521321904904"
    },
    {
      "id": "pt.ine.add.PTCONT.660438",
      "street": "R NOVA DE SANTA CRUZ",
      "house": "",
      "postcode": "4710-409",
      "city": "BRAGA",
      "lon": "-8.403877675940473",
      "lat": "41.55521321904904"
    },
    {
      "id": "pt.ine.add.PTCONT.660439",
      "street": "R NOVA DE SANTA CRUZ",
      "house": "",
      "postcode": "4710-409",
      "city": "BRAGA",
      "lon": "-8.403877675940473",
      "lat": "41.55521321904904"
    },
    {
      "id": "pt.ine.add.PTCONT.660553",
      "street": "R NOVA DE SANTA CRUZ",
      "house": "",
      "postcode": "4710-409",
      "city": "BRAGA",
      "lon": "-8.403877675940473",
      "lat": "41.55521321904904"
    },
    {
      "id": "pt.ine.add.PTCONT.660554",
      "street": "R NOVA DE SANTA CRUZ",
      "house": "",
      "postcode": "4710-409",
      "city": "BRAGA",
      "lon": "-8.403877675940473",
      "lat": "41.55521321904904"
    },
    {
      "id": "pt.ine.add.PTCONT.660555",
      "street": "R NOVA DE SANTA CRUZ",
      "house": "",
      "postcode": "4710-409",
      "city": "BRAGA",
      "lon": "-8.403877675940473",
      "lat": "41.55521321904904"
    },
    {
      "id": "pt.ine.add.PTCONT.660556",
      "street": "R NOVA DE SANTA CRUZ",
      "house": "",
      "postcode": "4710-409",
      "city": "BRAGA",
      "lon": "-8.403877675940473",
      "lat": "41.55521321904904"
    },
    {
      "id": "pt.ine.add.PTCONT.660557",
      "street": "R NOVA DE SANTA CRUZ",
      "house": "",
      "postcode": "4710-409",
      "city": "BRAGA",
      "lon": "-8.403877675940473",
      "lat": "41.55521321904904"
    },
    {
      "id": "pt.ine.add.PTCONT.660558",
      "street": "R NOVA DE SANTA CRUZ",
      "house": "",
      "postcode": "4710-409",
      "city": "BRAGA",
      "lon": "-8.403877675940473",
      "lat": "41.55521321904904"
    },
    {
      "id": "pt.ine.add.PTCONT.660559",
      "street": "R NOVA DE SANTA CRUZ",
      "house": "",
      "postcode": "4710-409",
      "city": "BRAGA",
      "lon": "-8.403877675940473",
      "lat": "41.55521321904904"
    },
    {
      "id": "pt.ine.add.PTCONT.660560",
      "street": "R NOVA DE SANTA CRUZ",
      "house": "",
      "postcode": "4710-409",
      "city": "BRAGA",
      "lon": "-8.403877675940473",
      "lat": "41.55521321904904"
    },
    {
      "id": "pt.ine.add.PTCONT.660561",
      "street": "R NOVA DE SANTA CRUZ",
      "house": "",
      "postcode": "4710-409",
      "city": "BRAGA",
      "lon": "-8.403877675940473",
      "lat": "41.55521321904904"
    },
    {
      "id": "pt.ine.add.PTCONT.660562",
      "street": "R NOVA DE SANTA CRUZ",
      "house": "",
      "postcode": "4710-409",
      "city": "BRAGA",
      "lon": "-8.403877675940473",
      "lat": "41.55521321904904"
    },
    {
      "id": "pt.ine.add.PTCONT.660563",
      "street": "R NOVA DE SANTA CRUZ",
      "house": "",
      "postcode": "4710-409",
      "city": "BRAGA",
      "lon": "-8.403877675940473",
      "lat": "41.55521321904904"
    },
    {
      "id": "pt.ine.add.PTCONT.660564",
      "street": "R NOVA DE SANTA CRUZ",
      "house": "",
      "postcode": "4710-409",
      "city": "BRAGA",
      "lon": "-8.403877675940473",
      "lat": "41.55521321904904"
    },
    {
      "id": "pt.ine.add.PTCONT.660565",
      "street": "R NOVA DE SANTA CRUZ",
      "house": "",
      "postcode": "4710-409",
      "city": "BRAGA",
      "lon": "-8.403877675940473",
      "lat": "41.55521321904904"
    },
    {
      "id": "pt.ine.add.PTCONT.660566",
      "street": "R NOVA DE SANTA CRUZ",
      "house": "",
      "postcode": "4710-409",
      "city": "BRAGA",
      "lon": "-8.403877675940473",
      "lat": "41.55521321904904"
    },
    {
      "id": "pt.ine.add.PTCONT.660700",
      "street": "R NOVA DE SANTA CRUZ",
      "house": "",
      "postcode": "4710-409",
      "city": "BRAGA",
      "lon": "-8.403877675940473",
      "lat": "41.55521321904904"
    },
    {
      "id": "pt.ine.add.PTCONT.660701",
      "street": "R NOVA DE SANTA CRUZ",
      "house": "",
      "postcode": "4710-409",
      "city": "BRAGA",
      "lon": "-8.403877675940473",
      "lat": "41.55521321904904"
    },
    {
      "id": "pt.ine.add.PTCONT.660702",
      "street": "R NOVA DE SANTA CRUZ",
      "house": "",
      "postcode": "4710-409",
      "city": "BRAGA",
      "lon": "-8.403877675940473",
      "lat": "41.55521321904904"
    },
    {
      "id": "pt.ine.add.PTCONT.660703",
      "street": "R NOVA DE SANTA CRUZ",
      "house": "",
      "postcode": "4710-409",
      "city": "BRAGA",
      "lon": "-8.403877675940473",
      "lat": "41.55521321904904"
    },
    {
      "id": "pt.ine.add.PTCONT.660704",
      "street": "R NOVA DE SANTA CRUZ",
      "house": "",
      "postcode": "4710-409",
      "city": "BRAGA",
      "lon": "-8.403877675940473",
      "lat": "41.55521321904904"
    },
    {
      "id": "pt.ine.add.PTCONT.660705",
      "street": "R NOVA DE SANTA CRUZ",
      "house": "",
      "postcode": "4710-409",
      "city": "BRAGA",
      "lon": "-8.403877675940473",
      "lat": "41.55521321904904"
    },
    {
      "id": "pt.ine.add.PTCONT.660706",
      "street": "R NOVA DE SANTA CRUZ",
      "house": "",
      "postcode": "4710-409",
      "city": "BRAGA",
      "lon": "-8.403877675940473",
      "lat": "41.55521321904904"
    },
    {
      "id": "pt.ine.add.PTCONT.660707",
      "street": "R NOVA DE SANTA CRUZ",
      "house": "",
      "postcode": "4710-409",
      "city": "BRAGA",
      "lon": "-8.403877675940473",
      "lat": "41.55521321904904"
    },
    {
      "id": "pt.ine.add.PTCONT.660708",
      "street": "R NOVA DE SANTA CRUZ",
      "house": "",
      "postcode": "4710-409",
      "city": "BRAGA",
      "lon": "-8.403877675940473",
      "lat": "41.55521321904904"
    },
    {
      "id": "pt.ine.add.PTCONT.660709",
      "street": "R NOVA DE SANTA CRUZ",
      "house": "",
      "postcode": "4710-409",
      "city": "BRAGA",
      "lon": "-8.403877675940473",
      "lat": "41.55521321904904"
    },
    {
      "id": "pt.ine.add.PTCONT.661632",
      "street": "R NOVA DE SANTA CRUZ",
      "house": "",
      "postcode": "4710-409",
      "city": "BRAGA",
      "lon": "-8.403877675940473",
      "lat": "41.55521321904904"
    },
    {
      "id": "pt.ine.add.PTCONT.661633",
      "street": "R NOVA DE SANTA CRUZ",
      "house": "",
      "postcode": "4710-409",
      "city": "BRAGA",
      "lon": "-8.403877675940473",
      "lat": "41.55521321904904"
    },
    {
      "id": "pt.ine.add.PTCONT.661634",
      "street": "R NOVA DE SANTA CRUZ",
      "house": "",
      "postcode": "4710-409",
      "city": "BRAGA",
      "lon": "-8.403877675940473",
      "lat": "41.55521321904904"
    },
    {
      "id": "pt.ine.add.PTCONT.686588",
      "street": "R NOVA DE SANTA CRUZ",
      "house": "173",
      "postcode": "4710-409",
      "city": "BRAGA",
      "lon": "-8.401914774851695",
      "lat": "41.55592011702004"
    },
    {
      "id": "pt.ine.add.PTCONT.695545",
      "street": "R ROSALVO DE ALMEIDA",
      "house": "24",
      "postcode": "4710-429",
      "city": "BRAGA",
      "lon": "-8.402018207738562",
      "lat": "41.557738632666215"
    },
    {
      "id": "pt.ine.add.PTCONT.712530",
      "street": "R FÁBRICA DO PELO",
      "house": "43",
      "postcode": "4710-409",
      "city": "BRAGA",
      "lon": "-8.400805725340113",
      "lat": "41.55730928180023"
    },
    {
      "id": "pt.ine.add.PTCONT.712531",
      "street": "R FÁBRICA DO PELO",
      "house": "43",
      "postcode": "4710-409",
      "city": "BRAGA",
      "lon": "-8.400805725340113",
      "lat": "41.55730928180023"
    },
    {
      "id": "pt.ine.add.PTCONT.712532",
      "street": "R FÁBRICA DO PELO",
      "house": "43",
      "postcode": "4710-409",
      "city": "BRAGA",
      "lon": "-8.400805725340113",
      "lat": "41.55730928180023"
    },
    {
      "id": "pt.ine.add.PTCONT.712533",
      "street": "R FÁBRICA DO PELO",
      "house": "43",
      "postcode": "4710-409",
      "city": "BRAGA",
      "lon": "-8.400805725340113",
      "lat": "41.55730928180023"
    },
    {
      "id": "pt.ine.add.PTCONT.712534",
      "street": "R FÁBRICA DO PELO",
      "house": "43",
      "postcode": "4710-409",
      "city": "BRAGA",
      "lon": "-8.400805725340113",
      "lat": "41.55730928180023"
    },
    {
      "id": "pt.ine.add.PTCONT.712535",
      "street": "R FÁBRICA DO PELO",
      "house": "43",
      "postcode": "4710-409",
      "city": "BRAGA",
      "lon": "-8.400805725340113",
      "lat": "41.55730928180023"
    },
    {
      "id": "pt.ine.add.PTCONT.712536",
      "street": "R FÁBRICA DO PELO",
      "house": "43",
      "postcode": "4710-409",
      "city": "BRAGA",
      "lon": "-8.400805725340113",
      "lat": "41.55730928180023"
    },
    {
      "id": "pt.ine.add.PTCONT.712537",
      "street": "R FÁBRICA DO PELO",
      "house": "43",
      "postcode": "4710-409",
      "city": "BRAGA",
      "lon": "-8.400805725340113",
      "lat": "41.55730928180023"
    },
    {
      "id": "pt.ine.add.PTCONT.712538",
      "street": "R FÁBRICA DO PELO",
      "house": "43",
      "postcode": "4710-409",
      "city": "BRAGA",
      "lon": "-8.400805725340113",
      "lat": "41.55730928180023"
    },
    {
      "id": "pt.ine.add.PTCONT.712539",
      "street": "R FÁBRICA DO PELO",
      "house": "43",
      "postcode": "4710-409",
      "city": "BRAGA",
      "lon": "-8.400805725340113",
      "lat": "41.55730928180023"
    },
    {
      "id": "pt.ine.add.PTCONT.712540",
      "street": "R FÁBRICA DO PELO",
      "house": "43",
      "postcode": "4710-409",
      "city": "BRAGA",
      "lon": "-8.400805725340113",
      "lat": "41.55730928180023"
    },
    {
      "id": "pt.ine.add.PTCONT.712541",
      "street": "R FÁBRICA DO PELO",
      "house": "43",
      "postcode": "4710-409",
      "city": "BRAGA",
      "lon": "-8.400805725340113",
      "lat": "41.55730928180023"
    },
    {
      "id": "pt.ine.add.PTCONT.712542",
      "street": "R FÁBRICA DO PELO",
      "house": "43",
      "postcode": "4710-409",
      "city": "BRAGA",
      "lon": "-8.400805725340113",
      "lat": "41.55730928180023"
    },
    {
      "id": "pt.ine.add.PTCONT.712543",
      "street": "R FÁBRICA DO PELO",
      "house": "43",
      "postcode": "4710-409",
      "city": "BRAGA",
      "lon": "-8.400805725340113",
      "lat": "41.55730928180023"
    },
    {
      "id": "pt.ine.add.PTCONT.712544",
      "street": "R FÁBRICA DO PELO",
      "house": "43",
      "postcode": "4710-409",
      "city": "BRAGA",
      "lon": "-8.400805725340113",
      "lat": "41.55730928180023"
    },
    {
      "id": "pt.ine.add.PTCONT.712545",
      "street": "R FÁBRICA DO PELO",
      "house": "43",
      "postcode": "4710-409",
      "city": "BRAGA",
      "lon": "-8.400805725340113",
      "lat": "41.55730928180023"
    },
    {
      "id": "pt.ine.add.PTCONT.712546",
      "street": "R FÁBRICA DO PELO",
      "house": "43",
      "postcode": "4710-409",
      "city": "BRAGA",
      "lon": "-8.400805725340113",
      "lat": "41.55730928180023"
    },
    {
      "id": "pt.ine.add.PTCONT.712547",
      "street": "R FÁBRICA DO PELO",
      "house": "43",
      "postcode": "4710-409",
      "city": "BRAGA",
      "lon": "-8.400805725340113",
      "lat": "41.55730928180023"
    },
    {
      "id": "pt.ine.add.PTCONT.712548",
      "street": "R FÁBRICA DO PELO",
      "house": "43",
      "postcode": "4710-409",
      "city": "BRAGA",
      "lon": "-8.400805725340113",
      "lat": "41.55730928180023"
    },
    {
      "id": "pt.ine.add.PTCONT.712549",
      "street": "R FÁBRICA DO PELO",
      "house": "43",
      "postcode": "4710-409",
      "city": "BRAGA",
      "lon": "-8.400805725340113",
      "lat": "41.55730928180023"
    },
    {
      "id": "pt.ine.add.PTCONT.712550",
      "street": "R FÁBRICA DO PELO",
      "house": "43",
      "postcode": "4710-409",
      "city": "BRAGA",
      "lon": "-8.400805725340113",
      "lat": "41.55730928180023"
    },
    {
      "id": "pt.ine.add.PTCONT.712551",
      "street": "R FÁBRICA DO PELO",
      "house": "43",
      "postcode": "4710-409",
      "city": "BRAGA",
      "lon": "-8.400805725340113",
      "lat": "41.55730928180023"
    },
    {
      "id": "pt.ine.add.PTCONT.712552",
      "street": "R FÁBRICA DO PELO",
      "house": "43",
      "postcode": "4710-409",
      "city": "BRAGA",
      "lon": "-8.400805725340113",
      "lat": "41.55730928180023"
    },
    {
      "id": "pt.ine.add.PTCONT.712553",
      "street": "R FÁBRICA DO PELO",
      "house": "43",
      "postcode": "4710-409",
      "city": "BRAGA",
      "lon": "-8.400805725340113",
      "lat": "41.55730928180023"
    },
    {
      "id": "pt.ine.add.PTCONT.712554",
      "street": "R FÁBRICA DO PELO",
      "house": "43",
      "postcode": "4710-409",
      "city": "BRAGA",
      "lon": "-8.400805725340113",
      "lat": "41.55730928180023"
    },
    {
      "id": "pt.ine.add.PTCONT.712555",
      "street": "R FÁBRICA DO PELO",
      "house": "43",
      "postcode": "4710-409",
      "city": "BRAGA",
      "lon": "-8.400805725340113",
      "lat": "41.55730928180023"
    },
    {
      "id": "pt.ine.add.PTCONT.712556",
      "street": "R FÁBRICA DO PELO",
      "house": "43",
      "postcode": "4710-409",
      "city": "BRAGA",
      "lon": "-8.400805725340113",
      "lat": "41.55730928180023"
    },
    {
      "id": "pt.ine.add.PTCONT.712557",
      "street": "R FÁBRICA DO PELO",
      "house": "43",
      "postcode": "4710-409",
      "city": "BRAGA",
      "lon": "-8.400805725340113",
      "lat": "41.55730928180023"
    },
    {
      "id": "pt.ine.add.PTCONT.712558",
      "street": "R FÁBRICA DO PELO",
      "house": "43",
      "postcode": "4710-409",
      "city": "BRAGA",
      "lon": "-8.400805725340113",
      "lat": "41.55730928180023"
    },
    {
      "id": "pt.ine.add.PTCONT.712559",
      "street": "R FÁBRICA DO PELO",
      "house": "43",
      "postcode": "4710-409",
      "city": "BRAGA",
      "lon": "-8.400805725340113",
      "lat": "41.55730928180023"
    },
    {
      "id": "pt.ine.add.PTCONT.712560",
      "street": "R FÁBRICA DO PELO",
      "house": "43",
      "postcode": "4710-409",
      "city": "BRAGA",
      "lon": "-8.400805725340113",
      "lat": "41.55730928180023"
    },
    {
      "id": "pt.ine.add.PTCONT.712561",
      "street": "R FÁBRICA DO PELO",
      "house": "43",
      "postcode": "4710-409",
      "city": "BRAGA",
      "lon": "-8.400805725340113",
      "lat": "41.55730928180023"
    },
    {
      "id": "pt.ine.add.PTCONT.712562",
      "street": "R FÁBRICA DO PELO",
      "house": "43",
      "postcode": "4710-409",
      "city": "BRAGA",
      "lon": "-8.400805725340113",
      "lat": "41.55730928180023"
    },
    {
      "id": "pt.ine.add.PTCONT.712563",
      "street": "R FÁBRICA DO PELO",
      "house": "43",
      "postcode": "4710-409",
      "city": "BRAGA",
      "lon": "-8.400805725340113",
      "lat": "41.55730928180023"
    },
    {
      "id": "pt.ine.add.PTCONT.712564",
      "street": "R FÁBRICA DO PELO",
      "house": "43",
      "postcode": "4710-409",
      "city": "BRAGA",
      "lon": "-8.400805725340113",
      "lat": "41.55730928180023"
    },
    {
      "id": "pt.ine.add.PTCONT.712565",
      "street": "R FÁBRICA DO PELO",
      "house": "43",
      "postcode": "4710-409",
      "city": "BRAGA",
      "lon": "-8.400805725340113",
      "lat": "41.55730928180023"
    },
    {
      "id": "pt.ine.add.PTCONT.712566",
      "street": "R FÁBRICA DO PELO",
      "house": "43",
      "postcode": "4710-409",
      "city": "BRAGA",
      "lon": "-8.400805725340113",
      "lat": "41.55730928180023"
    },
    {
      "id": "pt.ine.add.PTCONT.712567",
      "street": "R FÁBRICA DO PELO",
      "house": "43",
      "postcode": "4710-409",
      "city": "BRAGA",
      "lon": "-8.400805725340113",
      "lat": "41.55730928180023"
    },
    {
      "id": "pt.ine.add.PTCONT.712568",
      "street": "R FÁBRICA DO PELO",
      "house": "43",
      "postcode": "4710-409",
      "city": "BRAGA",
      "lon": "-8.400805725340113",
      "lat": "41.55730928180023"
    },
    {
      "id": "pt.ine.add.PTCONT.712569",
      "street": "R FÁBRICA DO PELO",
      "house": "43",
      "postcode": "4710-409",
      "city": "BRAGA",
      "lon": "-8.400805725340113",
      "lat": "41.55730928180023"
    },
    {
      "id": "pt.ine.add.PTCONT.712570",
      "street": "R FÁBRICA DO PELO",
      "house": "43",
      "postcode": "4710-409",
      "city": "BRAGA",
      "lon": "-8.400805725340113",
      "lat": "41.55730928180023"
    },
    {
      "id": "pt.ine.add.PTCONT.712571",
      "street": "R FÁBRICA DO PELO",
      "house": "43",
      "postcode": "4710-409",
      "city": "BRAGA",
      "lon": "-8.400805725340113",
      "lat": "41.55730928180023"
    },
    {
      "id": "pt.ine.add.PTCONT.712664",
      "street": "R FÁBRICA DO PELO",
      "house": "43",
      "postcode": "4710-409",
      "city": "BRAGA",
      "lon": "-8.400805725340113",
      "lat": "41.55730928180023"
    },
    {
      "id": "pt.ine.add.PTCONT.716517",
      "street": "R FABRICA DO PELO",
      "house": "17",
      "postcode": "4710-409",
      "city": "BRAGA",
      "lon": "-8.401870669532583",
      "lat": "41.556847606429095"
    },
    {
      "id": "pt.ine.add.PTCONT.716518",
      "street": "R FABRICA DO PELO",
      "house": "17",
      "postcode": "4710-409",
      "city": "BRAGA",
      "lon": "-8.401870669532583",
      "lat": "41.556847606429095"
    },
    {
      "id": "pt.ine.add.PTCONT.716519",
      "street": "R FABRICA DO PELO",
      "house": "17",
      "postcode": "4710-409",
      "city": "BRAGA",
      "lon": "-8.401870669532583",
      "lat": "41.556847606429095"
    },
    {
      "id": "pt.ine.add.PTCONT.716520",
      "street": "R FABRICA DO PELO",
      "house": "17",
      "postcode": "4710-409",
      "city": "BRAGA",
      "lon": "-8.401870669532583",
      "lat": "41.556847606429095"
    },
    {
      "id": "pt.ine.add.PTCONT.716521",
      "street": "R FABRICA DO PELO",
      "house": "17",
      "postcode": "4710-409",
      "city": "BRAGA",
      "lon": "-8.401870669532583",
      "lat": "41.556847606429095"
    },
    {
      "id": "pt.ine.add.PTCONT.716522",
      "street": "R FABRICA DO PELO",
      "house": "17",
      "postcode": "4710-409",
      "city": "BRAGA",
      "lon": "-8.401870669532583",
      "lat": "41.556847606429095"
    },
    {
      "id": "pt.ine.add.PTCONT.716523",
      "street": "R FABRICA DO PELO",
      "house": "17",
      "postcode": "4710-409",
      "city": "BRAGA",
      "lon": "-8.401870669532583",
      "lat": "41.556847606429095"
    },
    {
      "id": "pt.ine.add.PTCONT.716524",
      "street": "R FABRICA DO PELO",
      "house": "17",
      "postcode": "4710-409",
      "city": "BRAGA",
      "lon": "-8.401870669532583",
      "lat": "41.556847606429095"
    },
    {
      "id": "pt.ine.add.PTCONT.716525",
      "street": "R FABRICA DO PELO",
      "house": "17",
      "postcode": "4710-409",
      "city": "BRAGA",
      "lon": "-8.401870669532583",
      "lat": "41.556847606429095"
    },
    {
      "id": "pt.ine.add.PTCONT.716526",
      "street": "AV GOIOS",
      "house": "6",
      "postcode": "4710-409",
      "city": "BRAGA",
      "lon": "-8.401870669532583",
      "lat": "41.556847606429095"
    },
    {
      "id": "pt.ine.add.PTCONT.716527",
      "street": "R FABRICA DO PELO",
      "house": "17",
      "postcode": "4710-409",
      "city": "BRAGA",
      "lon": "-8.401870669532583",
      "lat": "41.556847606429095"
    },
    {
      "id": "pt.ine.add.PTCONT.716528",
      "street": "R FABRICA DO PELO",
      "house": "17",
      "postcode": "4710-409",
      "city": "BRAGA",
      "lon": "-8.401870669532583",
      "lat": "41.556847606429095"
    },
    {
      "id": "pt.ine.add.PTCONT.716529",
      "street": "R FABRICA DO PELO",
      "house": "17",
      "postcode": "4710-409",
      "city": "BRAGA",
      "lon": "-8.401870669532583",
      "lat": "41.556847606429095"
    },
    {
      "id": "pt.ine.add.PTCONT.716530",
      "street": "R FABRICA DO PELO",
      "house": "17",
      "postcode": "4710-409",
      "city": "BRAGA",
      "lon": "-8.401870669532583",
      "lat": "41.556847606429095"
    },
    {
      "id": "pt.ine.add.PTCONT.716536",
      "street": "R FABRICA DO PELO",
      "house": "17",
      "postcode": "4710-409",
      "city": "BRAGA",
      "lon": "-8.401870669532583",
      "lat": "41.556847606429095"
    },
    {
      "id": "pt.ine.add.PTCONT.716537",
      "street": "R FABRICA DO PELO",
      "house": "17",
      "postcode": "4710-409",
      "city": "BRAGA",
      "lon": "-8.401870669532583",
      "lat": "41.556847606429095"
    },
    {
      "id": "pt.ine.add.PTCONT.716538",
      "street": "R FABRICA DO PELO",
      "house": "17",
      "postcode": "4710-409",
      "city": "BRAGA",
      "lon": "-8.401870669532583",
      "lat": "41.556847606429095"
    },
    {
      "id": "pt.ine.add.PTCONT.716539",
      "street": "R FABRICA DO PELO",
      "house": "17",
      "postcode": "4710-409",
      "city": "BRAGA",
      "lon": "-8.401870669532583",
      "lat": "41.556847606429095"
    },
    {
      "id": "pt.ine.add.PTCONT.716540",
      "street": "R FABRICA DO PELO",
      "house": "17",
      "postcode": "4710-409",
      "city": "BRAGA",
      "lon": "-8.401870669532583",
      "lat": "41.556847606429095"
    },
    {
      "id": "pt.ine.add.PTCONT.716541",
      "street": "R FABRICA DO PELO",
      "house": "17",
      "postcode": "4710-409",
      "city": "BRAGA",
      "lon": "-8.401870669532583",
      "lat": "41.556847606429095"
    },
    {
      "id": "pt.ine.add.PTCONT.716542",
      "street": "R FABRICA DO PELO",
      "house": "17",
      "postcode": "4710-409",
      "city": "BRAGA",
      "lon": "-8.401870669532583",
      "lat": "41.556847606429095"
    },
    {
      "id": "pt.ine.add.PTCONT.716543",
      "street": "R FABRICA DO PELO",
      "house": "17",
      "postcode": "4710-409",
      "city": "BRAGA",
      "lon": "-8.401870669532583",
      "lat": "41.556847606429095"
    },
    {
      "id": "pt.ine.add.PTCONT.716544",
      "street": "R FABRICA DO PELO",
      "house": "17",
      "postcode": "4710-409",
      "city": "BRAGA",
      "lon": "-8.401870669532583",
      "lat": "41.556847606429095"
    },
    {
      "id": "pt.ine.add.PTCONT.716545",
      "street": "R FABRICA DO PELO",
      "house": "17",
      "postcode": "4710-409",
      "city": "BRAGA",
      "lon": "-8.401870669532583",
      "lat": "41.556847606429095"
    },
    {
      "id": "pt.ine.add.PTCONT.716546",
      "street": "R FABRICA DO PELO",
      "house": "17",
      "postcode": "4710-409",
      "city": "BRAGA",
      "lon": "-8.401870669532583",
      "lat": "41.556847606429095"
    },
    {
      "id": "pt.ine.add.PTCONT.716547",
      "street": "R FABRICA DO PELO",
      "house": "17",
      "postcode": "4710-409",
      "city": "BRAGA",
      "lon": "-8.401870669532583",
      "lat": "41.556847606429095"
    },
    {
      "id": "pt.ine.add.PTCONT.716548",
      "street": "R FABRICA DO PELO",
      "house": "17",
      "postcode": "4710-409",
      "city": "BRAGA",
      "lon": "-8.401870669532583",
      "lat": "41.556847606429095"
    },
    {
      "id": "pt.ine.add.PTCONT.716549",
      "street": "R FABRICA DO PELO",
      "house": "17",
      "postcode": "4710-409",
      "city": "BRAGA",
      "lon": "-8.401870669532583",
      "lat": "41.556847606429095"
    },
    {
      "id": "pt.ine.add.PTCONT.716558",
      "street": "R FABRICA DO PELO",
      "house": "17",
      "postcode": "4710-409",
      "city": "BRAGA",
      "lon": "-8.401870669532583",
      "lat": "41.556847606429095"
    },
    {
      "id": "pt.ine.add.PTCONT.716559",
      "street": "R FABRICA DO PELO",
      "house": "17",
      "postcode": "4710-409",
      "city": "BRAGA",
      "lon": "-8.401870669532583",
      "lat": "41.556847606429095"
    },
    {
      "id": "pt.ine.add.PTCONT.716560",
      "street": "R FABRICA DO PELO",
      "house": "17",
      "postcode": "4710-409",
      "city": "BRAGA",
      "lon": "-8.401870669532583",
      "lat": "41.556847606429095"
    },
    {
      "id": "pt.ine.add.PTCONT.716561",
      "street": "R FABRICA DO PELO",
      "house": "17",
      "postcode": "4710-409",
      "city": "BRAGA",
      "lon": "-8.401870669532583",
      "lat": "41.556847606429095"
    },
    {
      "id": "pt.ine.add.PTCONT.716562",
      "street": "R FABRICA DO PELO",
      "house": "17",
      "postcode": "4710-409",
      "city": "BRAGA",
      "lon": "-8.401870669532583",
      "lat": "41.556847606429095"
    },
    {
      "id": "pt.ine.add.PTCONT.716563",
      "street": "R FABRICA DO PELO",
      "house": "17",
      "postcode": "4710-409",
      "city": "BRAGA",
      "lon": "-8.401870669532583",
      "lat": "41.556847606429095"
    },
    {
      "id": "pt.ine.add.PTCONT.716564",
      "street": "R FABRICA DO PELO",
      "house": "17",
      "postcode": "4710-409",
      "city": "BRAGA",
      "lon": "-8.401870669532583",
      "lat": "41.556847606429095"
    },
    {
      "id": "pt.ine.add.PTCONT.716565",
      "street": "R FABRICA DO PELO",
      "house": "17",
      "postcode": "4710-409",
      "city": "BRAGA",
      "lon": "-8.401870669532583",
      "lat": "41.556847606429095"
    },
    {
      "id": "pt.ine.add.PTCONT.716566",
      "street": "R FABRICA DO PELO",
      "house": "17",
      "postcode": "4710-409",
      "city": "BRAGA",
      "lon": "-8.401870669532583",
      "lat": "41.556847606429095"
    },
    {
      "id": "pt.ine.add.PTCONT.716567",
      "street": "R FABRICA DO PELO",
      "house": "17",
      "postcode": "4710-409",
      "city": "BRAGA",
      "lon": "-8.401870669532583",
      "lat": "41.556847606429095"
    },
    {
      "id": "pt.ine.add.PTCONT.716568",
      "street": "R FABRICA DO PELO",
      "house": "17",
      "postcode": "4710-409",
      "city": "BRAGA",
      "lon": "-8.401870669532583",
      "lat": "41.556847606429095"
    },
    {
      "id": "pt.ine.add.PTCONT.716569",
      "street": "R FABRICA DO PELO",
      "house": "17",
      "postcode": "4710-409",
      "city": "BRAGA",
      "lon": "-8.401870669532583",
      "lat": "41.556847606429095"
    },
    {
      "id": "pt.ine.add.PTCONT.716570",
      "street": "R FABRICA DO PELO",
      "house": "17",
      "postcode": "4710-409",
      "city": "BRAGA",
      "lon": "-8.401870669532583",
      "lat": "41.556847606429095"
    },
    {
      "id": "pt.ine.add.PTCONT.716571",
      "street": "R FABRICA DO PELO",
      "house": "17",
      "postcode": "4710-409",
      "city": "BRAGA",
      "lon": "-8.401870669532583",
      "lat": "41.556847606429095"
    },
    {
      "id": "pt.ine.add.PTCONT.716572",
      "street": "R FABRICA DO PELO",
      "house": "17",
      "postcode": "4710-409",
      "city": "BRAGA",
      "lon": "-8.401870669532583",
      "lat": "41.556847606429095"
    },
    {
      "id": "pt.ine.add.PTCONT.716573",
      "street": "R FABRICA DO PELO",
      "house": "17",
      "postcode": "4710-409",
      "city": "BRAGA",
      "lon": "-8.401870669532583",
      "lat": "41.556847606429095"
    },
    {
      "id": "pt.ine.add.PTCONT.716574",
      "street": "R FABRICA DO PELO",
      "house": "17",
      "postcode": "4710-409",
      "city": "BRAGA",
      "lon": "-8.401870669532583",
      "lat": "41.556847606429095"
    },
    {
      "id": "pt.ine.add.PTCONT.716587",
      "street": "R FABRICA DO PELO",
      "house": "17",
      "postcode": "4710-409",
      "city": "BRAGA",
      "lon": "-8.401870669532583",
      "lat": "41.556847606429095"
    },
    {
      "id": "pt.ine.add.PTCONT.716588",
      "street": "R FABRICA DO PELO",
      "house": "17",
      "postcode": "4710-409",
      "city": "BRAGA",
      "lon": "-8.401870669532583",
      "lat": "41.556847606429095"
    },
    {
      "id": "pt.ine.add.PTCONT.716589",
      "street": "R FABRICA DO PELO",
      "house": "17",
      "postcode": "4710-409",
      "city": "BRAGA",
      "lon": "-8.401870669532583",
      "lat": "41.556847606429095"
    },
    {
      "id": "pt.ine.add.PTCONT.716590",
      "street": "R FABRICA DO PELO",
      "house": "17",
      "postcode": "4710-409",
      "city": "BRAGA",
      "lon": "-8.401870669532583",
      "lat": "41.556847606429095"
    },
    {
      "id": "pt.ine.add.PTCONT.716591",
      "street": "R FABRICA DO PELO",
      "house": "17",
      "postcode": "4710-409",
      "city": "BRAGA",
      "lon": "-8.401870669532583",
      "lat": "41.556847606429095"
    },
    {
      "id": "pt.ine.add.PTCONT.716592",
      "street": "R FABRICA DO PELO",
      "house": "17",
      "postcode": "4710-409",
      "city": "BRAGA",
      "lon": "-8.401870669532583",
      "lat": "41.556847606429095"
    },
    {
      "id": "pt.ine.add.PTCONT.716593",
      "street": "R FABRICA DO PELO",
      "house": "17",
      "postcode": "4710-409",
      "city": "BRAGA",
      "lon": "-8.401870669532583",
      "lat": "41.556847606429095"
    },
    {
      "id": "pt.ine.add.PTCONT.716594",
      "street": "R FABRICA DO PELO",
      "house": "17",
      "postcode": "4710-409",
      "city": "BRAGA",
      "lon": "-8.401870669532583",
      "lat": "41.556847606429095"
    },
    {
      "id": "pt.ine.add.PTCONT.716595",
      "street": "R FABRICA DO PELO",
      "house": "17",
      "postcode": "4710-409",
      "city": "BRAGA",
      "lon": "-8.401870669532583",
      "lat": "41.556847606429095"
    },
    {
      "id": "pt.ine.add.PTCONT.716596",
      "street": "R FABRICA DO PELO",
      "house": "17",
      "postcode": "4710-409",
      "city": "BRAGA",
      "lon": "-8.401870669532583",
      "lat": "41.556847606429095"
    },
    {
      "id": "pt.ine.add.PTCONT.716597",
      "street": "R FABRICA DO PELO",
      "house": "17",
      "postcode": "4710-409",
      "city": "BRAGA",
      "lon": "-8.401870669532583",
      "lat": "41.556847606429095"
    },
    {
      "id": "pt.ine.add.PTCONT.716598",
      "street": "R FABRICA DO PELO",
      "house": "17",
      "postcode": "4710-409",
      "city": "BRAGA",
      "lon": "-8.401870669532583",
      "lat": "41.556847606429095"
    },
    {
      "id": "pt.ine.add.PTCONT.716599",
      "street": "R FABRICA DO PELO",
      "house": "17",
      "postcode": "4710-409",
      "city": "BRAGA",
      "lon": "-8.401870669532583",
      "lat": "41.556847606429095"
    },
    {
      "id": "pt.ine.add.PTCONT.716600",
      "street": "R FABRICA DO PELO",
      "house": "17",
      "postcode": "4710-409",
      "city": "BRAGA",
      "lon": "-8.401870669532583",
      "lat": "41.556847606429095"
    },
    {
      "id": "pt.ine.add.PTCONT.716601",
      "street": "R FABRICA DO PELO",
      "house": "17",
      "postcode": "4710-409",
      "city": "BRAGA",
      "lon": "-8.401870669532583",
      "lat": "41.556847606429095"
    },
    {
      "id": "pt.ine.add.PTCONT.716602",
      "street": "R FABRICA DO PELO",
      "house": "17",
      "postcode": "4710-409",
      "city": "BRAGA",
      "lon": "-8.401870669532583",
      "lat": "41.556847606429095"
    },
    {
      "id": "pt.ine.add.PTCONT.716618",
      "street": "R FABRICA DO PELO",
      "house": "17",
      "postcode": "4710-409",
      "city": "BRAGA",
      "lon": "-8.401870669532583",
      "lat": "41.556847606429095"
    },
    {
      "id": "pt.ine.add.PTCONT.716619",
      "street": "R FABRICA DO PELO",
      "house": "17",
      "postcode": "4710-409",
      "city": "BRAGA",
      "lon": "-8.401870669532583",
      "lat": "41.556847606429095"
    },
    {
      "id": "pt.ine.add.PTCONT.716620",
      "street": "R FABRICA DO PELO",
      "house": "17",
      "postcode": "4710-409",
      "city": "BRAGA",
      "lon": "-8.401870669532583",
      "lat": "41.556847606429095"
    },
    {
      "id": "pt.ine.add.PTCONT.716621",
      "street": "R FABRICA DO PELO",
      "house": "17",
      "postcode": "4710-409",
      "city": "BRAGA",
      "lon": "-8.401870669532583",
      "lat": "41.556847606429095"
    },
    {
      "id": "pt.ine.add.PTCONT.718408",
      "street": "R FABRICA DO PELO",
      "house": "17",
      "postcode": "4710-409",
      "city": "BRAGA",
      "lon": "-8.401870669532583",
      "lat": "41.556847606429095"
    },
    {
      "id": "pt.ine.add.PTCONT.718409",
      "street": "R FABRICA DO PELO",
      "house": "17",
      "postcode": "4710-409",
      "city": "BRAGA",
      "lon": "-8.401870669532583",
      "lat": "41.556847606429095"
    },
    {
      "id": "pt.ine.add.PTCONT.718410",
      "street": "R FABRICA DO PELO",
      "house": "17",
      "postcode": "4710-409",
      "city": "BRAGA",
      "lon": "-8.401870669532583",
      "lat": "41.556847606429095"
    },
    {
      "id": "pt.ine.add.PTCONT.722791",
      "street": "R ROSALVO DE ALMEIDA",
      "house": "14",
      "postcode": "4710-429",
      "city": "BRAGA",
      "lon": "-8.402757853767147",
      "lat": "41.556881544409016"
    },
    {
      "id": "pt.ine.add.PTCONT.730421",
      "street": "R NOVA DE SANTA CRUZ",
      "house": "137",
      "postcode": "4710-409",
      "city": "BRAGA",
      "lon": "-8.402513067095054",
      "lat": "41.555666611821835"
    },
    {
      "id": "pt.ine.add.PTCONT.730422",
      "street": "R NOVA DE SANTA CRUZ",
      "house": "137",
      "postcode": "4710-409",
      "city": "BRAGA",
      "lon": "-8.402513067095054",
      "lat": "41.555666611821835"
    },
    {
      "id": "pt.ine.add.PTCONT.730453",
      "street": "R NOVA DE SANTA CRUZ",
      "house": "137",
      "postcode": "4710-409",
      "city": "BRAGA",
      "lon": "-8.402513067095054",
      "lat": "41.555666611821835"
    },
    {
      "id": "pt.ine.add.PTCONT.737305",
      "street": "R PULO",
      "house": "33",
      "postcode": "4710-425",
      "city": "BRAGA",
      "lon": "-8.40378242131527",
      "lat": "41.55536650709415"
    },
    {
      "id": "pt.ine.add.PTCONT.742408",
      "street": "R FÁBRICA DO PELO",
      "house": "29",
      "postcode": "4710-409",
      "city": "BRAGA",
      "lon": "-8.40152375564902",
      "lat": "41.55701948798634"
    },
    {
      "id": "pt.ine.add.PTCONT.742409",
      "street": "R FÁBRICA DO PELO",
      "house": "29",
      "postcode": "4710-409",
      "city": "BRAGA",
      "lon": "-8.40152375564902",
      "lat": "41.55701948798634"
    },
    {
      "id": "pt.ine.add.PTCONT.742410",
      "street": "R FÁBRICA DO PELO",
      "house": "29",
      "postcode": "4710-409",
      "city": "BRAGA",
      "lon": "-8.40152375564902",
      "lat": "41.55701948798634"
    },
    {
      "id": "pt.ine.add.PTCONT.742411",
      "street": "R FÁBRICA DO PELO",
      "house": "29",
      "postcode": "4710-409",
      "city": "BRAGA",
      "lon": "-8.40152375564902",
      "lat": "41.55701948798634"
    },
    {
      "id": "pt.ine.add.PTCONT.742412",
      "street": "R FÁBRICA DO PELO",
      "house": "29",
      "postcode": "4710-409",
      "city": "BRAGA",
      "lon": "-8.40152375564902",
      "lat": "41.55701948798634"
    },
    {
      "id": "pt.ine.add.PTCONT.742413",
      "street": "R FÁBRICA DO PELO",
      "house": "29",
      "postcode": "4710-409",
      "city": "BRAGA",
      "lon": "-8.40152375564902",
      "lat": "41.55701948798634"
    },
    {
      "id": "pt.ine.add.PTCONT.742414",
      "street": "R FÁBRICA DO PELO",
      "house": "29",
      "postcode": "4710-409",
      "city": "BRAGA",
      "lon": "-8.40152375564902",
      "lat": "41.55701948798634"
    },
    {
      "id": "pt.ine.add.PTCONT.742415",
      "street": "R FÁBRICA DO PELO",
      "house": "29",
      "postcode": "4710-409",
      "city": "BRAGA",
      "lon": "-8.40152375564902",
      "lat": "41.55701948798634"
    },
    {
      "id": "pt.ine.add.PTCONT.742416",
      "street": "R FÁBRICA DO PELO",
      "house": "29",
      "postcode": "4710-409",
      "city": "BRAGA",
      "lon": "-8.40152375564902",
      "lat": "41.55701948798634"
    },
    {
      "id": "pt.ine.add.PTCONT.742417",
      "street": "R FÁBRICA DO PELO",
      "house": "29",
      "postcode": "4710-409",
      "city": "BRAGA",
      "lon": "-8.40152375564902",
      "lat": "41.55701948798634"
    },
    {
      "id": "pt.ine.add.PTCONT.742418",
      "street": "R FÁBRICA DO PELO",
      "house": "29",
      "postcode": "4710-409",
      "city": "BRAGA",
      "lon": "-8.40152375564902",
      "lat": "41.55701948798634"
    },
    {
      "id": "pt.ine.add.PTCONT.742419",
      "street": "R FÁBRICA DO PELO",
      "house": "29",
      "postcode": "4710-409",
      "city": "BRAGA",
      "lon": "-8.40152375564902",
      "lat": "41.55701948798634"
    },
    {
      "id": "pt.ine.add.PTCONT.742420",
      "street": "R FÁBRICA DO PELO",
      "house": "29",
      "postcode": "4710-409",
      "city": "BRAGA",
      "lon": "-8.40152375564902",
      "lat": "41.55701948798634"
    },
    {
      "id": "pt.ine.add.PTCONT.742421",
      "street": "R FÁBRICA DO PELO",
      "house": "29",
      "postcode": "4710-409",
      "city": "BRAGA",
      "lon": "-8.40152375564902",
      "lat": "41.55701948798634"
    },
    {
      "id": "pt.ine.add.PTCONT.742422",
      "street": "R FÁBRICA DO PELO",
      "house": "29",
      "postcode": "4710-409",
      "city": "BRAGA",
      "lon": "-8.40152375564902",
      "lat": "41.55701948798634"
    },
    {
      "id": "pt.ine.add.PTCONT.742423",
      "street": "R FÁBRICA DO PELO",
      "house": "29",
      "postcode": "4710-409",
      "city": "BRAGA",
      "lon": "-8.40152375564902",
      "lat": "41.55701948798634"
    },
    {
      "id": "pt.ine.add.PTCONT.742424",
      "street": "R FÁBRICA DO PELO",
      "house": "29",
      "postcode": "4710-409",
      "city": "BRAGA",
      "lon": "-8.40152375564902",
      "lat": "41.55701948798634"
    },
    {
      "id": "pt.ine.add.PTCONT.742425",
      "street": "R FÁBRICA DO PELO",
      "house": "29",
      "postcode": "4710-409",
      "city": "BRAGA",
      "lon": "-8.40152375564902",
      "lat": "41.55701948798634"
    },
    {
      "id": "pt.ine.add.PTCONT.742426",
      "street": "R FÁBRICA DO PELO",
      "house": "29",
      "postcode": "4710-409",
      "city": "BRAGA",
      "lon": "-8.40152375564902",
      "lat": "41.55701948798634"
    },
    {
      "id": "pt.ine.add.PTCONT.742427",
      "street": "R FÁBRICA DO PELO",
      "house": "29",
      "postcode": "4710-409",
      "city": "BRAGA",
      "lon": "-8.40152375564902",
      "lat": "41.55701948798634"
    },
    {
      "id": "pt.ine.add.PTCONT.742428",
      "street": "R FÁBRICA DO PELO",
      "house": "29",
      "postcode": "4710-409",
      "city": "BRAGA",
      "lon": "-8.40152375564902",
      "lat": "41.55701948798634"
    },
    {
      "id": "pt.ine.add.PTCONT.742429",
      "street": "R FÁBRICA DO PELO",
      "house": "29",
      "postcode": "4710-409",
      "city": "BRAGA",
      "lon": "-8.40152375564902",
      "lat": "41.55701948798634"
    },
    {
      "id": "pt.ine.add.PTCONT.742430",
      "street": "R FÁBRICA DO PELO",
      "house": "29",
      "postcode": "4710-409",
      "city": "BRAGA",
      "lon": "-8.40152375564902",
      "lat": "41.55701948798634"
    },
    {
      "id": "pt.ine.add.PTCONT.742431",
      "street": "R FÁBRICA DO PELO",
      "house": "29",
      "postcode": "4710-409",
      "city": "BRAGA",
      "lon": "-8.40152375564902",
      "lat": "41.55701948798634"
    },
    {
      "id": "pt.ine.add.PTCONT.742432",
      "street": "R FÁBRICA DO PELO",
      "house": "29",
      "postcode": "4710-409",
      "city": "BRAGA",
      "lon": "-8.40152375564902",
      "lat": "41.55701948798634"
    },
    {
      "id": "pt.ine.add.PTCONT.742433",
      "street": "R FÁBRICA DO PELO",
      "house": "29",
      "postcode": "4710-409",
      "city": "BRAGA",
      "lon": "-8.40152375564902",
      "lat": "41.55701948798634"
    },
    {
      "id": "pt.ine.add.PTCONT.742434",
      "street": "R FÁBRICA DO PELO",
      "house": "29",
      "postcode": "4710-409",
      "city": "BRAGA",
      "lon": "-8.40152375564902",
      "lat": "41.55701948798634"
    },
    {
      "id": "pt.ine.add.PTCONT.742435",
      "street": "R FÁBRICA DO PELO",
      "house": "29",
      "postcode": "4710-409",
      "city": "BRAGA",
      "lon": "-8.40152375564902",
      "lat": "41.55701948798634"
    },
    {
      "id": "pt.ine.add.PTCONT.742436",
      "street": "R FÁBRICA DO PELO",
      "house": "29",
      "postcode": "4710-409",
      "city": "BRAGA",
      "lon": "-8.40152375564902",
      "lat": "41.55701948798634"
    },
    {
      "id": "pt.ine.add.PTCONT.742437",
      "street": "R FÁBRICA DO PELO",
      "house": "29",
      "postcode": "4710-409",
      "city": "BRAGA",
      "lon": "-8.40152375564902",
      "lat": "41.55701948798634"
    },
    {
      "id": "pt.ine.add.PTCONT.742438",
      "street": "R FÁBRICA DO PELO",
      "house": "29",
      "postcode": "4710-409",
      "city": "BRAGA",
      "lon": "-8.40152375564902",
      "lat": "41.55701948798634"
    },
    {
      "id": "pt.ine.add.PTCONT.742439",
      "street": "R FÁBRICA DO PELO",
      "house": "29",
      "postcode": "4710-409",
      "city": "BRAGA",
      "lon": "-8.40152375564902",
      "lat": "41.55701948798634"
    },
    {
      "id": "pt.ine.add.PTCONT.742440",
      "street": "R FÁBRICA DO PELO",
      "house": "29",
      "postcode": "4710-409",
      "city": "BRAGA",
      "lon": "-8.40152375564902",
      "lat": "41.55701948798634"
    },
    {
      "id": "pt.ine.add.PTCONT.742441",
      "street": "R FÁBRICA DO PELO",
      "house": "29",
      "postcode": "4710-409",
      "city": "BRAGA",
      "lon": "-8.40152375564902",
      "lat": "41.55701948798634"
    },
    {
      "id": "pt.ine.add.PTCONT.742442",
      "street": "R FÁBRICA DO PELO",
      "house": "29",
      "postcode": "4710-409",
      "city": "BRAGA",
      "lon": "-8.40152375564902",
      "lat": "41.55701948798634"
    },
    {
      "id": "pt.ine.add.PTCONT.742443",
      "street": "R FÁBRICA DO PELO",
      "house": "29",
      "postcode": "4710-409",
      "city": "BRAGA",
      "lon": "-8.40152375564902",
      "lat": "41.55701948798634"
    },
    {
      "id": "pt.ine.add.PTCONT.742444",
      "street": "R FÁBRICA DO PELO",
      "house": "29",
      "postcode": "4710-409",
      "city": "BRAGA",
      "lon": "-8.40152375564902",
      "lat": "41.55701948798634"
    },
    {
      "id": "pt.ine.add.PTCONT.742445",
      "street": "R FÁBRICA DO PELO",
      "house": "29",
      "postcode": "4710-409",
      "city": "BRAGA",
      "lon": "-8.40152375564902",
      "lat": "41.55701948798634"
    },
    {
      "id": "pt.ine.add.PTCONT.742446",
      "street": "R FÁBRICA DO PELO",
      "house": "29",
      "postcode": "4710-409",
      "city": "BRAGA",
      "lon": "-8.40152375564902",
      "lat": "41.55701948798634"
    },
    {
      "id": "pt.ine.add.PTCONT.742447",
      "street": "R FÁBRICA DO PELO",
      "house": "29",
      "postcode": "4710-409",
      "city": "BRAGA",
      "lon": "-8.40152375564902",
      "lat": "41.55701948798634"
    },
    {
      "id": "pt.ine.add.PTCONT.742448",
      "street": "R FÁBRICA DO PELO",
      "house": "29",
      "postcode": "4710-409",
      "city": "BRAGA",
      "lon": "-8.40152375564902",
      "lat": "41.55701948798634"
    },
    {
      "id": "pt.ine.add.PTCONT.742449",
      "street": "R FÁBRICA DO PELO",
      "house": "29",
      "postcode": "4710-409",
      "city": "BRAGA",
      "lon": "-8.40152375564902",
      "lat": "41.55701948798634"
    },
    {
      "id": "pt.ine.add.PTCONT.742450",
      "street": "R FÁBRICA DO PELO",
      "house": "29",
      "postcode": "4710-409",
      "city": "BRAGA",
      "lon": "-8.40152375564902",
      "lat": "41.55701948798634"
    },
    {
      "id": "pt.ine.add.PTCONT.742451",
      "street": "R FÁBRICA DO PELO",
      "house": "29",
      "postcode": "4710-409",
      "city": "BRAGA",
      "lon": "-8.40152375564902",
      "lat": "41.55701948798634"
    },
    {
      "id": "pt.ine.add.PTCONT.742452",
      "street": "R FÁBRICA DO PELO",
      "house": "29",
      "postcode": "4710-409",
      "city": "BRAGA",
      "lon": "-8.40152375564902",
      "lat": "41.55701948798634"
    },
    {
      "id": "pt.ine.add.PTCONT.742453",
      "street": "R FÁBRICA DO PELO",
      "house": "29",
      "postcode": "4710-409",
      "city": "BRAGA",
      "lon": "-8.40152375564902",
      "lat": "41.55701948798634"
    },
    {
      "id": "pt.ine.add.PTCONT.742454",
      "street": "R FÁBRICA DO PELO",
      "house": "29",
      "postcode": "4710-409",
      "city": "BRAGA",
      "lon": "-8.40152375564902",
      "lat": "41.55701948798634"
    },
    {
      "id": "pt.ine.add.PTCONT.742455",
      "street": "R FÁBRICA DO PELO",
      "house": "29",
      "postcode": "4710-409",
      "city": "BRAGA",
      "lon": "-8.40152375564902",
      "lat": "41.55701948798634"
    },
    {
      "id": "pt.ine.add.PTCONT.742456",
      "street": "R FÁBRICA DO PELO",
      "house": "29",
      "postcode": "4710-409",
      "city": "BRAGA",
      "lon": "-8.40152375564902",
      "lat": "41.55701948798634"
    },
    {
      "id": "pt.ine.add.PTCONT.742457",
      "street": "R FÁBRICA DO PELO",
      "house": "29",
      "postcode": "4710-409",
      "city": "BRAGA",
      "lon": "-8.40152375564902",
      "lat": "41.55701948798634"
    },
    {
      "id": "pt.ine.add.PTCONT.742458",
      "street": "R FÁBRICA DO PELO",
      "house": "29",
      "postcode": "4710-409",
      "city": "BRAGA",
      "lon": "-8.40152375564902",
      "lat": "41.55701948798634"
    },
    {
      "id": "pt.ine.add.PTCONT.742459",
      "street": "R FÁBRICA DO PELO",
      "house": "29",
      "postcode": "4710-409",
      "city": "BRAGA",
      "lon": "-8.40152375564902",
      "lat": "41.55701948798634"
    },
    {
      "id": "pt.ine.add.PTCONT.742460",
      "street": "R FÁBRICA DO PELO",
      "house": "29",
      "postcode": "4710-409",
      "city": "BRAGA",
      "lon": "-8.40152375564902",
      "lat": "41.55701948798634"
    },
    {
      "id": "pt.ine.add.PTCONT.742597",
      "street": "R FÁBRICA DO PELO",
      "house": "29",
      "postcode": "4710-409",
      "city": "BRAGA",
      "lon": "-8.40152375564902",
      "lat": "41.55701948798634"
    },
    {
      "id": "pt.ine.add.PTCONT.742611",
      "street": "R FÁBRICA DO PELO",
      "house": "29",
      "postcode": "4710-409",
      "city": "BRAGA",
      "lon": "-8.40152375564902",
      "lat": "41.55701948798634"
    },
    {
      "id": "pt.ine.add.PTCONT.742612",
      "street": "R FÁBRICA DO PELO",
      "house": "29",
      "postcode": "4710-409",
      "city": "BRAGA",
      "lon": "-8.40152375564902",
      "lat": "41.55701948798634"
    },
    {
      "id": "pt.ine.add.PTCONT.742613",
      "street": "R FÁBRICA DO PELO",
      "house": "29",
      "postcode": "4710-409",
      "city": "BRAGA",
      "lon": "-8.40152375564902",
      "lat": "41.55701948798634"
    },
    {
      "id": "pt.ine.add.PTCONT.742614",
      "street": "R FÁBRICA DO PELO",
      "house": "29",
      "postcode": "4710-409",
      "city": "BRAGA",
      "lon": "-8.40152375564902",
      "lat": "41.55701948798634"
    },
    {
      "id": "pt.ine.add.PTCONT.749419",
      "street": "R NOVA DE SANTA CRUZ",
      "house": "",
      "postcode": "4710-409",
      "city": "BRAGA",
      "lon": "-8.403290780012412",
      "lat": "41.55532264455208"
    },
    {
      "id": "pt.ine.add.PTCONT.749420",
      "street": "R NOVA DE SANTA CRUZ",
      "house": "",
      "postcode": "4710-409",
      "city": "BRAGA",
      "lon": "-8.403290780012412",
      "lat": "41.55532264455208"
    },
    {
      "id": "pt.ine.add.PTCONT.749421",
      "street": "R NOVA DE SANTA CRUZ",
      "house": "",
      "postcode": "4710-409",
      "city": "BRAGA",
      "lon": "-8.403290780012412",
      "lat": "41.55532264455208"
    },
    {
      "id": "pt.ine.add.PTCONT.764398",
      "street": "R NOVA DE SANTA CRUZ",
      "house": "165",
      "postcode": "4710-409",
      "city": "BRAGA",
      "lon": "-8.402046405519062",
      "lat": "41.555865786729555"
    },
    {
      "id": "pt.ine.add.PTCONT.796320",
      "street": "R FÁBRICA DO PELO",
      "house": "41",
      "postcode": "4710-409",
      "city": "BRAGA",
      "lon": "-8.40116470409609",
      "lat": "41.55715538179044"
    },
    {
      "id": "pt.ine.add.PTCONT.796321",
      "street": "R FÁBRICA DO PELO",
      "house": "41",
      "postcode": "4710-409",
      "city": "BRAGA",
      "lon": "-8.40116470409609",
      "lat": "41.55715538179044"
    },
    {
      "id": "pt.ine.add.PTCONT.796322",
      "street": "R FÁBRICA DO PELO",
      "house": "41",
      "postcode": "4710-409",
      "city": "BRAGA",
      "lon": "-8.40116470409609",
      "lat": "41.55715538179044"
    },
    {
      "id": "pt.ine.add.PTCONT.796323",
      "street": "R FÁBRICA DO PELO",
      "house": "41",
      "postcode": "4710-409",
      "city": "BRAGA",
      "lon": "-8.40116470409609",
      "lat": "41.55715538179044"
    },
    {
      "id": "pt.ine.add.PTCONT.796324",
      "street": "R FÁBRICA DO PELO",
      "house": "41",
      "postcode": "4710-409",
      "city": "BRAGA",
      "lon": "-8.40116470409609",
      "lat": "41.55715538179044"
    },
    {
      "id": "pt.ine.add.PTCONT.796325",
      "street": "R FÁBRICA DO PELO",
      "house": "41",
      "postcode": "4710-409",
      "city": "BRAGA",
      "lon": "-8.40116470409609",
      "lat": "41.55715538179044"
    },
    {
      "id": "pt.ine.add.PTCONT.796326",
      "street": "R FÁBRICA DO PELO",
      "house": "41",
      "postcode": "4710-409",
      "city": "BRAGA",
      "lon": "-8.40116470409609",
      "lat": "41.55715538179044"
    },
    {
      "id": "pt.ine.add.PTCONT.796327",
      "street": "R FÁBRICA DO PELO",
      "house": "41",
      "postcode": "4710-409",
      "city": "BRAGA",
      "lon": "-8.40116470409609",
      "lat": "41.55715538179044"
    },
    {
      "id": "pt.ine.add.PTCONT.796328",
      "street": "R FÁBRICA DO PELO",
      "house": "41",
      "postcode": "4710-409",
      "city": "BRAGA",
      "lon": "-8.40116470409609",
      "lat": "41.55715538179044"
    },
    {
      "id": "pt.ine.add.PTCONT.796329",
      "street": "R FÁBRICA DO PELO",
      "house": "41",
      "postcode": "4710-409",
      "city": "BRAGA",
      "lon": "-8.40116470409609",
      "lat": "41.55715538179044"
    },
    {
      "id": "pt.ine.add.PTCONT.796330",
      "street": "R FÁBRICA DO PELO",
      "house": "41",
      "postcode": "4710-409",
      "city": "BRAGA",
      "lon": "-8.40116470409609",
      "lat": "41.55715538179044"
    },
    {
      "id": "pt.ine.add.PTCONT.796331",
      "street": "R FÁBRICA DO PELO",
      "house": "41",
      "postcode": "4710-409",
      "city": "BRAGA",
      "lon": "-8.40116470409609",
      "lat": "41.55715538179044"
    },
    {
      "id": "pt.ine.add.PTCONT.796332",
      "street": "R FÁBRICA DO PELO",
      "house": "41",
      "postcode": "4710-409",
      "city": "BRAGA",
      "lon": "-8.40116470409609",
      "lat": "41.55715538179044"
    },
    {
      "id": "pt.ine.add.PTCONT.796333",
      "street": "R FÁBRICA DO PELO",
      "house": "41",
      "postcode": "4710-409",
      "city": "BRAGA",
      "lon": "-8.40116470409609",
      "lat": "41.55715538179044"
    },
    {
      "id": "pt.ine.add.PTCONT.796338",
      "street": "R FÁBRICA DO PELO",
      "house": "41",
      "postcode": "4710-409",
      "city": "BRAGA",
      "lon": "-8.40116470409609",
      "lat": "41.55715538179044"
    },
    {
      "id": "pt.ine.add.PTCONT.796339",
      "street": "R FÁBRICA DO PELO",
      "house": "41",
      "postcode": "4710-409",
      "city": "BRAGA",
      "lon": "-8.40116470409609",
      "lat": "41.55715538179044"
    },
    {
      "id": "pt.ine.add.PTCONT.796340",
      "street": "R FÁBRICA DO PELO",
      "house": "41",
      "postcode": "4710-409",
      "city": "BRAGA",
      "lon": "-8.40116470409609",
      "lat": "41.55715538179044"
    },
    {
      "id": "pt.ine.add.PTCONT.796341",
      "street": "R FÁBRICA DO PELO",
      "house": "41",
      "postcode": "4710-409",
      "city": "BRAGA",
      "lon": "-8.40116470409609",
      "lat": "41.55715538179044"
    },
    {
      "id": "pt.ine.add.PTCONT.796342",
      "street": "R FÁBRICA DO PELO",
      "house": "41",
      "postcode": "4710-409",
      "city": "BRAGA",
      "lon": "-8.40116470409609",
      "lat": "41.55715538179044"
    },
    {
      "id": "pt.ine.add.PTCONT.796343",
      "street": "R FÁBRICA DO PELO",
      "house": "41",
      "postcode": "4710-409",
      "city": "BRAGA",
      "lon": "-8.40116470409609",
      "lat": "41.55715538179044"
    },
    {
      "id": "pt.ine.add.PTCONT.796344",
      "street": "R FÁBRICA DO PELO",
      "house": "41",
      "postcode": "4710-409",
      "city": "BRAGA",
      "lon": "-8.40116470409609",
      "lat": "41.55715538179044"
    },
    {
      "id": "pt.ine.add.PTCONT.796345",
      "street": "R FÁBRICA DO PELO",
      "house": "41",
      "postcode": "4710-409",
      "city": "BRAGA",
      "lon": "-8.40116470409609",
      "lat": "41.55715538179044"
    },
    {
      "id": "pt.ine.add.PTCONT.796346",
      "street": "R FÁBRICA DO PELO",
      "house": "41",
      "postcode": "4710-409",
      "city": "BRAGA",
      "lon": "-8.40116470409609",
      "lat": "41.55715538179044"
    },
    {
      "id": "pt.ine.add.PTCONT.796347",
      "street": "R FÁBRICA DO PELO",
      "house": "41",
      "postcode": "4710-409",
      "city": "BRAGA",
      "lon": "-8.40116470409609",
      "lat": "41.55715538179044"
    },
    {
      "id": "pt.ine.add.PTCONT.796348",
      "street": "R FÁBRICA DO PELO",
      "house": "41",
      "postcode": "4710-409",
      "city": "BRAGA",
      "lon": "-8.40116470409609",
      "lat": "41.55715538179044"
    },
    {
      "id": "pt.ine.add.PTCONT.796349",
      "street": "R FÁBRICA DO PELO",
      "house": "41",
      "postcode": "4710-409",
      "city": "BRAGA",
      "lon": "-8.40116470409609",
      "lat": "41.55715538179044"
    },
    {
      "id": "pt.ine.add.PTCONT.796350",
      "street": "R FÁBRICA DO PELO",
      "house": "41",
      "postcode": "4710-409",
      "city": "BRAGA",
      "lon": "-8.40116470409609",
      "lat": "41.55715538179044"
    },
    {
      "id": "pt.ine.add.PTCONT.796351",
      "street": "R FÁBRICA DO PELO",
      "house": "41",
      "postcode": "4710-409",
      "city": "BRAGA",
      "lon": "-8.40116470409609",
      "lat": "41.55715538179044"
    },
    {
      "id": "pt.ine.add.PTCONT.796352",
      "street": "R FÁBRICA DO PELO",
      "house": "41",
      "postcode": "4710-409",
      "city": "BRAGA",
      "lon": "-8.40116470409609",
      "lat": "41.55715538179044"
    },
    {
      "id": "pt.ine.add.PTCONT.796353",
      "street": "R FÁBRICA DO PELO",
      "house": "41",
      "postcode": "4710-409",
      "city": "BRAGA",
      "lon": "-8.40116470409609",
      "lat": "41.55715538179044"
    },
    {
      "id": "pt.ine.add.PTCONT.796354",
      "street": "R FÁBRICA DO PELO",
      "house": "41",
      "postcode": "4710-409",
      "city": "BRAGA",
      "lon": "-8.40116470409609",
      "lat": "41.55715538179044"
    },
    {
      "id": "pt.ine.add.PTCONT.796358",
      "street": "R FÁBRICA DO PELO",
      "house": "41",
      "postcode": "4710-409",
      "city": "BRAGA",
      "lon": "-8.40116470409609",
      "lat": "41.55715538179044"
    },
    {
      "id": "pt.ine.add.PTCONT.796359",
      "street": "R FÁBRICA DO PELO",
      "house": "41",
      "postcode": "4710-409",
      "city": "BRAGA",
      "lon": "-8.40116470409609",
      "lat": "41.55715538179044"
    },
    {
      "id": "pt.ine.add.PTCONT.796360",
      "street": "R FÁBRICA DO PELO",
      "house": "41",
      "postcode": "4710-409",
      "city": "BRAGA",
      "lon": "-8.40116470409609",
      "lat": "41.55715538179044"
    },
    {
      "id": "pt.ine.add.PTCONT.796361",
      "street": "R FÁBRICA DO PELO",
      "house": "41",
      "postcode": "4710-409",
      "city": "BRAGA",
      "lon": "-8.40116470409609",
      "lat": "41.55715538179044"
    },
    {
      "id": "pt.ine.add.PTCONT.796362",
      "street": "R FÁBRICA DO PELO",
      "house": "41",
      "postcode": "4710-409",
      "city": "BRAGA",
      "lon": "-8.40116470409609",
      "lat": "41.55715538179044"
    },
    {
      "id": "pt.ine.add.PTCONT.796363",
      "street": "R FÁBRICA DO PELO",
      "house": "41",
      "postcode": "4710-409",
      "city": "BRAGA",
      "lon": "-8.40116470409609",
      "lat": "41.55715538179044"
    },
    {
      "id": "pt.ine.add.PTCONT.796364",
      "street": "R FÁBRICA DO PELO",
      "house": "41",
      "postcode": "4710-409",
      "city": "BRAGA",
      "lon": "-8.40116470409609",
      "lat": "41.55715538179044"
    },
    {
      "id": "pt.ine.add.PTCONT.796365",
      "street": "R FÁBRICA DO PELO",
      "house": "41",
      "postcode": "4710-409",
      "city": "BRAGA",
      "lon": "-8.40116470409609",
      "lat": "41.55715538179044"
    },
    {
      "id": "pt.ine.add.PTCONT.796366",
      "street": "R FÁBRICA DO PELO",
      "house": "41",
      "postcode": "4710-409",
      "city": "BRAGA",
      "lon": "-8.40116470409609",
      "lat": "41.55715538179044"
    },
    {
      "id": "pt.ine.add.PTCONT.796367",
      "street": "R FÁBRICA DO PELO",
      "house": "41",
      "postcode": "4710-409",
      "city": "BRAGA",
      "lon": "-8.40116470409609",
      "lat": "41.55715538179044"
    },
    {
      "id": "pt.ine.add.PTCONT.796368",
      "street": "R FÁBRICA DO PELO",
      "house": "41",
      "postcode": "4710-409",
      "city": "BRAGA",
      "lon": "-8.40116470409609",
      "lat": "41.55715538179044"
    },
    {
      "id": "pt.ine.add.PTCONT.796369",
      "street": "R FÁBRICA DO PELO",
      "house": "41",
      "postcode": "4710-409",
      "city": "BRAGA",
      "lon": "-8.40116470409609",
      "lat": "41.55715538179044"
    },
    {
      "id": "pt.ine.add.PTCONT.796370",
      "street": "R FÁBRICA DO PELO",
      "house": "41",
      "postcode": "4710-409",
      "city": "BRAGA",
      "lon": "-8.40116470409609",
      "lat": "41.55715538179044"
    },
    {
      "id": "pt.ine.add.PTCONT.796371",
      "street": "R FÁBRICA DO PELO",
      "house": "41",
      "postcode": "4710-409",
      "city": "BRAGA",
      "lon": "-8.40116470409609",
      "lat": "41.55715538179044"
    },
    {
      "id": "pt.ine.add.PTCONT.796372",
      "street": "R FÁBRICA DO PELO",
      "house": "41",
      "postcode": "4710-409",
      "city": "BRAGA",
      "lon": "-8.40116470409609",
      "lat": "41.55715538179044"
    },
    {
      "id": "pt.ine.add.PTCONT.796373",
      "street": "R FÁBRICA DO PELO",
      "house": "41",
      "postcode": "4710-409",
      "city": "BRAGA",
      "lon": "-8.40116470409609",
      "lat": "41.55715538179044"
    },
    {
      "id": "pt.ine.add.PTCONT.796380",
      "street": "R FÁBRICA DO PELO",
      "house": "41",
      "postcode": "4710-409",
      "city": "BRAGA",
      "lon": "-8.40116470409609",
      "lat": "41.55715538179044"
    },
    {
      "id": "pt.ine.add.PTCONT.796381",
      "street": "R FÁBRICA DO PELO",
      "house": "41",
      "postcode": "4710-409",
      "city": "BRAGA",
      "lon": "-8.40116470409609",
      "lat": "41.55715538179044"
    },
    {
      "id": "pt.ine.add.PTCONT.796382",
      "street": "R FÁBRICA DO PELO",
      "house": "41",
      "postcode": "4710-409",
      "city": "BRAGA",
      "lon": "-8.40116470409609",
      "lat": "41.55715538179044"
    },
    {
      "id": "pt.ine.add.PTCONT.796383",
      "street": "R FÁBRICA DO PELO",
      "house": "41",
      "postcode": "4710-409",
      "city": "BRAGA",
      "lon": "-8.40116470409609",
      "lat": "41.55715538179044"
    },
    {
      "id": "pt.ine.add.PTCONT.796384",
      "street": "R FÁBRICA DO PELO",
      "house": "41",
      "postcode": "4710-409",
      "city": "BRAGA",
      "lon": "-8.40116470409609",
      "lat": "41.55715538179044"
    },
    {
      "id": "pt.ine.add.PTCONT.796385",
      "street": "R FÁBRICA DO PELO",
      "house": "41",
      "postcode": "4710-409",
      "city": "BRAGA",
      "lon": "-8.40116470409609",
      "lat": "41.55715538179044"
    },
    {
      "id": "pt.ine.add.PTCONT.796407",
      "street": "R FÁBRICA SOCIAL BRACARENSE",
      "house": "",
      "postcode": "4710-492",
      "city": "BRAGA",
      "lon": "-8.399980619600875",
      "lat": "41.55779740214788"
    },
    {
      "id": "pt.ine.add.PTCONT.796441",
      "street": "R FÁBRICA DO PELO",
      "house": "41",
      "postcode": "4710-409",
      "city": "BRAGA",
      "lon": "-8.40116470409609",
      "lat": "41.55715538179044"
    },
    {
      "id": "pt.ine.add.PTCONT.796442",
      "street": "R FÁBRICA DO PELO",
      "house": "41",
      "postcode": "4710-409",
      "city": "BRAGA",
      "lon": "-8.40116470409609",
      "lat": "41.55715538179044"
    },
    {
      "id": "pt.ine.add.PTCONT.796443",
      "street": "R FÁBRICA DO PELO",
      "house": "41",
      "postcode": "4710-409",
      "city": "BRAGA",
      "lon": "-8.40116470409609",
      "lat": "41.55715538179044"
    },
    {
      "id": "pt.ine.add.PTCONT.796444",
      "street": "R FÁBRICA DO PELO",
      "house": "41",
      "postcode": "4710-409",
      "city": "BRAGA",
      "lon": "-8.40116470409609",
      "lat": "41.55715538179044"
    },
    {
      "id": "pt.ine.add.PTCONT.800362",
      "street": "R QUINTA DA ARMADA",
      "house": "",
      "postcode": "4710-340",
      "city": "BRAGA",
      "lon": "-8.403618925039526",
      "lat": "41.55640232322416"
    },
    {
      "id": "pt.ine.add.PTCONT.800363",
      "street": "R QUINTA DA ARMADA",
      "house": "",
      "postcode": "4710-340",
      "city": "BRAGA",
      "lon": "-8.403618925039526",
      "lat": "41.55640232322416"
    },
    {
      "id": "pt.ine.add.PTCONT.800364",
      "street": "R QUINTA DA ARMADA",
      "house": "",
      "postcode": "4710-340",
      "city": "BRAGA",
      "lon": "-8.403618925039526",
      "lat": "41.55640232322416"
    },
    {
      "id": "pt.ine.add.PTCONT.800365",
      "street": "R QUINTA DA ARMADA",
      "house": "",
      "postcode": "4710-340",
      "city": "BRAGA",
      "lon": "-8.403618925039526",
      "lat": "41.55640232322416"
    },
    {
      "id": "pt.ine.add.PTCONT.800366",
      "street": "R QUINTA DA ARMADA",
      "house": "",
      "postcode": "4710-340",
      "city": "BRAGA",
      "lon": "-8.403618925039526",
      "lat": "41.55640232322416"
    },
    {
      "id": "pt.ine.add.PTCONT.800367",
      "street": "R QUINTA DA ARMADA",
      "house": "",
      "postcode": "4710-340",
      "city": "BRAGA",
      "lon": "-8.403618925039526",
      "lat": "41.55640232322416"
    },
    {
      "id": "pt.ine.add.PTCONT.800368",
      "street": "R QUINTA DA ARMADA",
      "house": "",
      "postcode": "4710-340",
      "city": "BRAGA",
      "lon": "-8.403618925039526",
      "lat": "41.55640232322416"
    },
    {
      "id": "pt.ine.add.PTCONT.800369",
      "street": "R QUINTA DA ARMADA",
      "house": "",
      "postcode": "4710-340",
      "city": "BRAGA",
      "lon": "-8.403618925039526",
      "lat": "41.55640232322416"
    },
    {
      "id": "pt.ine.add.PTCONT.800370",
      "street": "R QUINTA DA ARMADA",
      "house": "",
      "postcode": "4710-340",
      "city": "BRAGA",
      "lon": "-8.403618925039526",
      "lat": "41.55640232322416"
    },
    {
      "id": "pt.ine.add.PTCONT.800371",
      "street": "R QUINTA DA ARMADA",
      "house": "",
      "postcode": "4710-340",
      "city": "BRAGA",
      "lon": "-8.403618925039526",
      "lat": "41.55640232322416"
    },
    {
      "id": "pt.ine.add.PTCONT.800377",
      "street": "R QUINTA DA ARMADA",
      "house": "",
      "postcode": "4710-340",
      "city": "BRAGA",
      "lon": "-8.403618925039526",
      "lat": "41.55640232322416"
    },
    {
      "id": "pt.ine.add.PTCONT.800378",
      "street": "R QUINTA DA ARMADA",
      "house": "",
      "postcode": "4710-340",
      "city": "BRAGA",
      "lon": "-8.403618925039526",
      "lat": "41.55640232322416"
    },
    {
      "id": "pt.ine.add.PTCONT.800414",
      "street": "R NOVA DE SANTA CRUZ",
      "house": "175",
      "postcode": "4710-409",
      "city": "BRAGA",
      "lon": "-8.401843077926374",
      "lat": "41.55597430710813"
    },
    {
      "id": "pt.ine.add.PTCONT.802169",
      "street": "R QUINTA DA ARMADA",
      "house": "",
      "postcode": "4710-340",
      "city": "BRAGA",
      "lon": "-8.403618925039526",
      "lat": "41.55640232322416"
    },
    {
      "id": "pt.ine.add.PTCONT.802170",
      "street": "R QUINTA DA ARMADA",
      "house": "",
      "postcode": "4710-340",
      "city": "BRAGA",
      "lon": "-8.403618925039526",
      "lat": "41.55640232322416"
    },
    {
      "id": "pt.ine.add.PTCONT.820510",
      "street": "R QUINTA DA ARMADA",
      "house": "",
      "postcode": "4710-340",
      "city": "BRAGA",
      "lon": "-8.403523630541851",
      "lat": "41.55654660736827"
    },
    {
      "id": "pt.ine.add.PTCONT.820511",
      "street": "R QUINTA DA ARMADA",
      "house": "",
      "postcode": "4710-340",
      "city": "BRAGA",
      "lon": "-8.403523630541851",
      "lat": "41.55654660736827"
    },
    {
      "id": "pt.ine.add.PTCONT.820512",
      "street": "R QUINTA DA ARMADA",
      "house": "",
      "postcode": "4710-340",
      "city": "BRAGA",
      "lon": "-8.403523630541851",
      "lat": "41.55654660736827"
    },
    {
      "id": "pt.ine.add.PTCONT.820513",
      "street": "R QUINTA DA ARMADA",
      "house": "",
      "postcode": "4710-340",
      "city": "BRAGA",
      "lon": "-8.403523630541851",
      "lat": "41.55654660736827"
    },
    {
      "id": "pt.ine.add.PTCONT.820514",
      "street": "R QUINTA DA ARMADA",
      "house": "",
      "postcode": "4710-340",
      "city": "BRAGA",
      "lon": "-8.403523630541851",
      "lat": "41.55654660736827"
    },
    {
      "id": "pt.ine.add.PTCONT.820515",
      "street": "R QUINTA DA ARMADA",
      "house": "",
      "postcode": "4710-340",
      "city": "BRAGA",
      "lon": "-8.403523630541851",
      "lat": "41.55654660736827"
    },
    {
      "id": "pt.ine.add.PTCONT.820516",
      "street": "R QUINTA DA ARMADA",
      "house": "",
      "postcode": "4710-340",
      "city": "BRAGA",
      "lon": "-8.403523630541851",
      "lat": "41.55654660736827"
    },
    {
      "id": "pt.ine.add.PTCONT.820517",
      "street": "R QUINTA DA ARMADA",
      "house": "",
      "postcode": "4710-340",
      "city": "BRAGA",
      "lon": "-8.403523630541851",
      "lat": "41.55654660736827"
    },
    {
      "id": "pt.ine.add.PTCONT.820518",
      "street": "R QUINTA DA ARMADA",
      "house": "",
      "postcode": "4710-340",
      "city": "BRAGA",
      "lon": "-8.403523630541851",
      "lat": "41.55654660736827"
    },
    {
      "id": "pt.ine.add.PTCONT.820519",
      "street": "R QUINTA DA ARMADA",
      "house": "",
      "postcode": "4710-340",
      "city": "BRAGA",
      "lon": "-8.403523630541851",
      "lat": "41.55654660736827"
    },
    {
      "id": "pt.ine.add.PTCONT.820520",
      "street": "R QUINTA DA ARMADA",
      "house": "",
      "postcode": "4710-340",
      "city": "BRAGA",
      "lon": "-8.403523630541851",
      "lat": "41.55654660736827"
    },
    {
      "id": "pt.ine.add.PTCONT.820521",
      "street": "R QUINTA DA ARMADA",
      "house": "",
      "postcode": "4710-340",
      "city": "BRAGA",
      "lon": "-8.403523630541851",
      "lat": "41.55654660736827"
    },
    {
      "id": "pt.ine.add.PTCONT.820522",
      "street": "R QUINTA DA ARMADA",
      "house": "",
      "postcode": "4710-340",
      "city": "BRAGA",
      "lon": "-8.403523630541851",
      "lat": "41.55654660736827"
    },
    {
      "id": "pt.ine.add.PTCONT.820527",
      "street": "R QUINTA DA ARMADA",
      "house": "",
      "postcode": "4710-340",
      "city": "BRAGA",
      "lon": "-8.403523630541851",
      "lat": "41.55654660736827"
    },
    {
      "id": "pt.ine.add.PTCONT.820618",
      "street": "R FÁBRICA SOCIAL BRACARENSE",
      "house": "11",
      "postcode": "4710-492",
      "city": "BRAGA",
      "lon": "-8.39981302185595",
      "lat": "41.55785181348642"
    },
    {
      "id": "pt.ine.add.PTCONT.821424",
      "street": "R NOVA DE SANTA CRUZ",
      "house": "147",
      "postcode": "4710-409",
      "city": "BRAGA",
      "lon": "-8.40236952521484",
      "lat": "41.5557389780431"
    },
    {
      "id": "pt.ine.add.PTCONT.836399",
      "street": "R NOVA DE SANTA CRUZ",
      "house": "157",
      "postcode": "4710-409",
      "city": "BRAGA",
      "lon": "-8.402261644476992",
      "lat": "41.555739230606704"
    },
    {
      "id": "pt.ine.add.PTCONT.841440",
      "street": "R NOVA DE SANTA CRUZ",
      "house": "",
      "postcode": "4710-409",
      "city": "BRAGA",
      "lon": "-8.403877675940473",
      "lat": "41.55521321904904"
    },
    {
      "id": "pt.ine.add.PTCONT.843940",
      "street": "R FÁBRICA DO PELO",
      "house": "41",
      "postcode": "4710-409",
      "city": "BRAGA",
      "lon": "-8.40116470409609",
      "lat": "41.55715538179044"
    },
    {
      "id": "pt.ine.add.PTCONT.843941",
      "street": "R FÁBRICA DO PELO",
      "house": "41",
      "postcode": "4710-409",
      "city": "BRAGA",
      "lon": "-8.40116470409609",
      "lat": "41.55715538179044"
    },
    {
      "id": "pt.ine.add.PTCONT.844900",
      "street": "R FÁBRICA DO PELO",
      "house": "43",
      "postcode": "4710-409",
      "city": "BRAGA",
      "lon": "-8.400805725340113",
      "lat": "41.55730928180023"
    },
    {
      "id": "pt.ine.add.PTCONT.844901",
      "street": "R FÁBRICA DO PELO",
      "house": "43",
      "postcode": "4710-409",
      "city": "BRAGA",
      "lon": "-8.400805725340113",
      "lat": "41.55730928180023"
    },
    {
      "id": "pt.ine.add.PTCONT.845566",
      "street": "R FABRICA DO PELO",
      "house": "17",
      "postcode": "4710-409",
      "city": "BRAGA",
      "lon": "-8.401870669532583",
      "lat": "41.556847606429095"
    },
    {
      "id": "pt.ine.add.PTCONT.846517",
      "street": "R FÁBRICA DO PELO",
      "house": "29",
      "postcode": "4710-409",
      "city": "BRAGA",
      "lon": "-8.40152375564902",
      "lat": "41.55701948798634"
    }
  ]
}