{
  "data": {
    "distrito": "Viseu",
    "concelho": "Mangualde",
    "freguesia": "União das freguesias de Moimenta de Maceira Dão e Lobelhe do Mato",
    "OBJECTID": 694,
    "BGRI2021": "18062000107",
    "DT21": "18",
    "DTMN21": "1806",
    "DTMNFR21": "180620",
    "DTMNFRSEC21": "180620001",
    "SECNUM21": "001",
    "SSNUM21": "07",
    "SECSSNUM21": "00107",
    "OBJECTID_1": 191662,
    "DT": "18",
    "CC": "06",
    "fr": "20",
    "SEC": "001",
    "SS": "07"
  },
  "addresses": [
    {
      "id": "pt.ine.add.PTCONT.5438145",
      "street": "R LIBERDADE",
      "house": "2",
      "postcode": "3530-310",
      "city": "MOIMENTA DE MACEIRA DÃO",
      "lon": "-7.812821613030714",
      "lat": "40.57933917805827"
    },
    {
      "id": "pt.ine.add.PTCONT.5468152",
      "street": "R LIBERDADE",
      "house": "B",
      "postcode": "3530-310",
      "city": "MOIMENTA DE MACEIRA DÃO",
      "lon": "-7.812762044168388",
      "lat": "40.57944707615237"
    },
    {
      "id": "pt.ine.add.PTCONT.5472441",
      "street": "R LIBERDADE",
      "house": "1B",
      "postcode": "3530-310",
      "city": "MOIMENTA DE MACEIRA DÃO",
      "lon": "-7.81246544387452",
      "lat": "40.57972541670363"
    },
    {
      "id": "pt.ine.add.PTCONT.5494593",
      "street": "R PROF D ESTER GOMES",
      "house": "1",
      "postcode": "3530-310",
      "city": "MOIMENTA DE MACEIRA DÃO",
      "lon": "-7.812175726721566",
      "lat": "40.57856293199746"
    },
    {
      "id": "pt.ine.add.PTCONT.5494594",
      "street": "R NSA SRA DAS NEVES",
      "house": "3",
      "postcode": "3530-310",
      "city": "MOIMENTA DE MACEIRA DÃO",
      "lon": "-7.812151589199298",
      "lat": "40.57867092821959"
    },
    {
      "id": "pt.ine.add.PTCONT.5516997",
      "street": "R LIBERDADE",
      "house": "10",
      "postcode": "3530-310",
      "city": "MOIMENTA DE MACEIRA DÃO",
      "lon": "-7.8126793263235195",
      "lat": "40.57945585201013"
    },
    {
      "id": "pt.ine.add.PTCONT.5565088",
      "street": "R NSA SRA DAS NEVES",
      "house": "90",
      "postcode": "3530-310",
      "city": "MOIMENTA DE MACEIRA DÃO",
      "lon": "-7.812246331822026",
      "lat": "40.57861715977005"
    },
    {
      "id": "pt.ine.add.PTCONT.5616567",
      "street": "R LIBERDADE",
      "house": "6",
      "postcode": "3530-310",
      "city": "MOIMENTA DE MACEIRA DÃO",
      "lon": "-7.812785923279893",
      "lat": "40.579393110734784"
    },
    {
      "id": "pt.ine.add.PTCONT.5636430",
      "street": "R NSA SRA DAS NEVES",
      "house": "100",
      "postcode": "3530-310",
      "city": "MOIMENTA DE MACEIRA DÃO",
      "lon": "-7.812880967001058",
      "lat": "40.57927630569885"
    },
    {
      "id": "pt.ine.add.PTCONT.5660895",
      "street": "R LIBERDADE",
      "house": "14",
      "postcode": "3530-310",
      "city": "MOIMENTA DE MACEIRA DÃO",
      "lon": "-7.812584067095297",
      "lat": "40.57961768263836"
    }
  ]
}