{
  "data": {
    "ilha": "Ilha da Madeira (Madeira)",
    "concelho": "Santana",
    "freguesia": "São Jorge",
    "OBJECTID": 123,
    "BGRI2021": "31090400116",
    "DT21": "31",
    "DTMN21": "3109",
    "DTMNFR21": "310904",
    "DTMNFRSEC21": "310904001",
    "SECNUM21": "001",
    "SSNUM21": "16",
    "SECSSNUM21": "00116",
    "OBJECTID_1": 205503,
    "DT": "31",
    "CC": "09",
    "fr": "04",
    "SEC": "001",
    "SS": "16",
    "BGRI2021_1": "31090400116"
  },
  "addresses": [
    {
      "id": "pt.ine.add.MAD.41626",
      "street": "SIT PICO",
      "house": "",
      "postcode": "9230-156",
      "city": "SÃO JORGE STN",
      "lon": "-16.909837402358026",
      "lat": "32.820101197124245"
    },
    {
      "id": "pt.ine.add.MAD.41627",
      "street": "SIT PICO",
      "house": "",
      "postcode": "9230-156",
      "city": "SÃO JORGE STN",
      "lon": "-16.909558057553298",
      "lat": "32.82002429280117"
    },
    {
      "id": "pt.ine.add.MAD.41628",
      "street": "SIT PICO",
      "house": "",
      "postcode": "9230-156",
      "city": "SÃO JORGE STN",
      "lon": "-16.909519207437626",
      "lat": "32.8202052567101"
    },
    {
      "id": "pt.ine.add.MAD.41629",
      "street": "SIT PICO",
      "house": "",
      "postcode": "9230-156",
      "city": "SÃO JORGE STN",
      "lon": "-16.909454113469696",
      "lat": "32.82065717770215"
    },
    {
      "id": "pt.ine.add.MAD.52432",
      "street": "SIT SITIO POÇO E VALE ACOUGUE",
      "house": "",
      "postcode": "9230-157",
      "city": "SÃO JORGE STN",
      "lon": "-16.906678216336655",
      "lat": "32.82420772045056"
    },
    {
      "id": "pt.ine.add.MAD.52433",
      "street": "SITIO POÇO E VALE",
      "house": "",
      "postcode": "9230-157",
      "city": "SÃO JORGE STN",
      "lon": "-16.906874156292375",
      "lat": "32.82388006682873"
    },
    {
      "id": "pt.ine.add.MAD.53269",
      "street": "SITIO PE DO PICO",
      "house": "",
      "postcode": "9230-155",
      "city": "SÃO JORGE STN",
      "lon": "-16.90876398571933",
      "lat": "32.823346216543996"
    },
    {
      "id": "pt.ine.add.MAD.53265",
      "street": "SITIO POÇO E VALE",
      "house": "",
      "postcode": "9230-157",
      "city": "SÃO JORGE STN",
      "lon": "-16.90687165117628",
      "lat": "32.82376286375832"
    },
    {
      "id": "pt.ine.add.MAD.53266",
      "street": "SITIO POÇO E VALE",
      "house": "",
      "postcode": "9230-157",
      "city": "SÃO JORGE STN",
      "lon": "-16.906977850015622",
      "lat": "32.823734189800405"
    },
    {
      "id": "pt.ine.add.MAD.53267",
      "street": "SITIO POÇO E VALE",
      "house": "",
      "postcode": "9230-157",
      "city": "SÃO JORGE STN",
      "lon": "-16.907093377414597",
      "lat": "32.823642243692284"
    },
    {
      "id": "pt.ine.add.MAD.53268",
      "street": "SITIO PE DO PICO",
      "house": "",
      "postcode": "9230-155",
      "city": "SÃO JORGE STN",
      "lon": "-16.909337297859043",
      "lat": "32.823184155175625"
    },
    {
      "id": "pt.ine.add.MAD.53270",
      "street": "SIT SITIO PE PICO",
      "house": "",
      "postcode": "9230-155",
      "city": "SÃO JORGE STN",
      "lon": "-16.909051654895805",
      "lat": "32.82081663312788"
    },
    {
      "id": "pt.ine.add.MAD.53271",
      "street": "SIT SITIO PE PICO",
      "house": "",
      "postcode": "9230-155",
      "city": "SÃO JORGE STN",
      "lon": "-16.90906547631354",
      "lat": "32.8219617788362"
    },
    {
      "id": "pt.ine.add.MAD.53272",
      "street": "SIT PE DO PICO",
      "house": "",
      "postcode": "9230-155",
      "city": "SÃO JORGE STN",
      "lon": "-16.909574778263867",
      "lat": "32.822801752412005"
    },
    {
      "id": "pt.ine.add.MAD.53273",
      "street": "SIT PE DO PICO",
      "house": "",
      "postcode": "9230-155",
      "city": "SÃO JORGE STN",
      "lon": "-16.909758546697947",
      "lat": "32.82190611138836"
    },
    {
      "id": "pt.ine.add.MAD.53274",
      "street": "",
      "house": "",
      "postcode": "9230-155",
      "city": "SÃO JORGE STN",
      "lon": "-16.909933824936182",
      "lat": "32.822110863148616"
    },
    {
      "id": "pt.ine.add.MAD.57099",
      "street": "SIT PE DO PICO",
      "house": "",
      "postcode": "9230-155",
      "city": "SÃO JORGE STN",
      "lon": "-16.90989935120136",
      "lat": "32.822995207394854"
    },
    {
      "id": "pt.ine.add.MAD.57100",
      "street": "SIT PE DO PICO",
      "house": "",
      "postcode": "9230-155",
      "city": "SÃO JORGE STN",
      "lon": "-16.91003957274531",
      "lat": "32.82256017679553"
    },
    {
      "id": "pt.ine.add.MAD.62827",
      "street": "SIT PE DO PICO",
      "house": "",
      "postcode": "9230-155",
      "city": "SÃO JORGE STN",
      "lon": "-16.909489036770857",
      "lat": "32.82228900320569"
    },
    {
      "id": "pt.ine.add.MAD.65173",
      "street": "SITIO POÇO E VALE",
      "house": "",
      "postcode": "9230-157",
      "city": "SÃO JORGE STN",
      "lon": "-16.90671900046173",
      "lat": "32.82411691346981"
    },
    {
      "id": "pt.ine.add.MAD.67830",
      "street": "SIT PICO",
      "house": "",
      "postcode": "9230-156",
      "city": "SÃO JORGE STN",
      "lon": "-16.909520816469943",
      "lat": "32.819781360013046"
    },
    {
      "id": "pt.ine.add.MAD.70931",
      "street": "SIT SITIO PE PICO",
      "house": "",
      "postcode": "9230-155",
      "city": "SÃO JORGE STN",
      "lon": "-16.90894977226186",
      "lat": "32.82054763056296"
    },
    {
      "id": "pt.ine.add.MAD.72398",
      "street": "SIT PICO",
      "house": "",
      "postcode": "9230-156",
      "city": "SÃO JORGE STN",
      "lon": "-16.909030050730156",
      "lat": "32.81980688430862"
    },
    {
      "id": "pt.ine.add.MAD.72399",
      "street": "SIT PICO",
      "house": "",
      "postcode": "9230-156",
      "city": "SÃO JORGE STN",
      "lon": "-16.909919925567",
      "lat": "32.81996465940535"
    },
    {
      "id": "pt.ine.add.MAD.72631",
      "street": "SIT PICO",
      "house": "",
      "postcode": "9230-156",
      "city": "SÃO JORGE STN",
      "lon": "-16.909694095677374",
      "lat": "32.82039197777985"
    },
    {
      "id": "pt.ine.add.MAD.75914",
      "street": "SIT PICO",
      "house": "",
      "postcode": "9230-156",
      "city": "SÃO JORGE STN",
      "lon": "-16.909469228415762",
      "lat": "32.82086437385595"
    },
    {
      "id": "pt.ine.add.MAD.78610",
      "street": "SIT PICO",
      "house": "",
      "postcode": "9230-156",
      "city": "SÃO JORGE STN",
      "lon": "-16.90942118281575",
      "lat": "32.82011656678489"
    },
    {
      "id": "pt.ine.add.MAD.84083",
      "street": "SIT SITIO PE PICO",
      "house": "",
      "postcode": "9230-155",
      "city": "SÃO JORGE STN",
      "lon": "-16.908689064669478",
      "lat": "32.821841260635566"
    },
    {
      "id": "pt.ine.add.MAD.84085",
      "street": "SIT PICO",
      "house": "",
      "postcode": "9230-156",
      "city": "SÃO JORGE STN",
      "lon": "-16.90937094974477",
      "lat": "32.81976560948792"
    },
    {
      "id": "pt.ine.add.MAD.89742",
      "street": "SIT PE DO PICO",
      "house": "",
      "postcode": "9230-155",
      "city": "SÃO JORGE STN",
      "lon": "-16.909968945406717",
      "lat": "32.82225462397742"
    },
    {
      "id": "pt.ine.add.MAD.92030",
      "street": "SIT SITIO PE PICO",
      "house": "",
      "postcode": "9230-155",
      "city": "SÃO JORGE STN",
      "lon": "-16.9088286573448",
      "lat": "32.820378125367675"
    },
    {
      "id": "pt.ine.add.MAD.92031",
      "street": "SIT PE DO PICO",
      "house": "",
      "postcode": "9230-155",
      "city": "SÃO JORGE STN",
      "lon": "-16.90941648212135",
      "lat": "32.82189329388558"
    },
    {
      "id": "pt.ine.add.MAD.92032",
      "street": "SIT PE DO PICO",
      "house": "",
      "postcode": "9230-155",
      "city": "SÃO JORGE STN",
      "lon": "-16.909896581670253",
      "lat": "32.821867930618694"
    },
    {
      "id": "pt.ine.add.MAD.92033",
      "street": "SIT PE DO PICO",
      "house": "",
      "postcode": "9230-155",
      "city": "SÃO JORGE STN",
      "lon": "-16.909909768043086",
      "lat": "32.82198497056172"
    },
    {
      "id": "pt.ine.add.MAD.92034",
      "street": "SIT PE DO PICO",
      "house": "",
      "postcode": "9230-155",
      "city": "SÃO JORGE STN",
      "lon": "-16.91000329397449",
      "lat": "32.822362322363446"
    },
    {
      "id": "pt.ine.add.MAD.100009",
      "street": "SIT PE DO PICO",
      "house": "",
      "postcode": "9230-155",
      "city": "SÃO JORGE STN",
      "lon": "-16.909293947652184",
      "lat": "32.822156701497505"
    },
    {
      "id": "pt.ine.add.MAD.101961",
      "street": "CM PADRE SILVERIO ANIBAL DE MATOS",
      "house": "4",
      "postcode": "9230-155",
      "city": "SÃO JORGE STN",
      "lon": "-16.909518818763495",
      "lat": "32.821684305674594"
    },
    {
      "id": "pt.ine.add.MAD.102113",
      "street": "",
      "house": "",
      "postcode": "9230-155",
      "city": "SÃO JORGE STN",
      "lon": "-16.910206105717787",
      "lat": "32.822855247103426"
    },
    {
      "id": "pt.ine.add.MAD.111648",
      "street": "SIT SITIO PE PICO",
      "house": "",
      "postcode": "9230-155",
      "city": "SÃO JORGE STN",
      "lon": "-16.90977488414253",
      "lat": "32.82167137968031"
    },
    {
      "id": "pt.ine.add.MAD.111649",
      "street": "SIT SITIO PE PICO",
      "house": "",
      "postcode": "9230-155",
      "city": "SÃO JORGE STN",
      "lon": "-16.90894455201873",
      "lat": "32.82180128948073"
    },
    {
      "id": "pt.ine.add.MAD.111650",
      "street": "SIT SITIO PE PICO",
      "house": "",
      "postcode": "9230-155",
      "city": "SÃO JORGE STN",
      "lon": "-16.908568456679482",
      "lat": "32.82219482375645"
    },
    {
      "id": "pt.ine.add.MAD.111651",
      "street": "SIT SITIO PE PICO",
      "house": "",
      "postcode": "9230-155",
      "city": "SÃO JORGE STN",
      "lon": "-16.909159384518354",
      "lat": "32.822357162624684"
    },
    {
      "id": "pt.ine.add.MAD.111652",
      "street": "SIT PE DO PICO",
      "house": "",
      "postcode": "9230-155",
      "city": "SÃO JORGE STN",
      "lon": "-16.909290088999004",
      "lat": "32.82197638928538"
    },
    {
      "id": "pt.ine.add.MAD.111653",
      "street": "SIT PE DO PICO",
      "house": "",
      "postcode": "9230-155",
      "city": "SÃO JORGE STN",
      "lon": "-16.90964244542806",
      "lat": "32.821971012971524"
    },
    {
      "id": "pt.ine.add.MAD.113238",
      "street": "SIT SITIO PE PICO",
      "house": "",
      "postcode": "9230-155",
      "city": "SÃO JORGE STN",
      "lon": "-16.90924711980479",
      "lat": "32.822464046766946"
    },
    {
      "id": "pt.ine.add.MAD.113889",
      "street": "SITIO JOGO DA BOLA",
      "house": "",
      "postcode": "9230-152",
      "city": "SÃO JORGE STN",
      "lon": "-16.908657119698304",
      "lat": "32.81984864673661"
    },
    {
      "id": "pt.ine.add.MAD.113890",
      "street": "SIT SITIO PE PICO",
      "house": "",
      "postcode": "9230-155",
      "city": "SÃO JORGE STN",
      "lon": "-16.909813348258318",
      "lat": "32.82147238451023"
    },
    {
      "id": "pt.ine.add.MAD.114193",
      "street": "SIT SITIO PE PICO",
      "house": "",
      "postcode": "9230-155",
      "city": "SÃO JORGE STN",
      "lon": "-16.908780162187714",
      "lat": "32.82010830831192"
    },
    {
      "id": "pt.ine.add.MAD.114986",
      "street": "CAM PADRE SILVERIO ANIBAL MATOS",
      "house": "",
      "postcode": "9230-155",
      "city": "SÃO JORGE STN",
      "lon": "-16.909489036770857",
      "lat": "32.82228900320569"
    },
    {
      "id": "pt.ine.add.MAD.119738",
      "street": "CAM PADRE SILVÉRIO ANIBAL DE MATOS",
      "house": "38",
      "postcode": "9230-157",
      "city": "SÃO JORGE STN",
      "lon": "-16.907539719544",
      "lat": "32.82353623670785"
    },
    {
      "id": "pt.ine.add.MAD.129013",
      "street": "SIT PICO",
      "house": "",
      "postcode": "9230-156",
      "city": "SÃO JORGE STN",
      "lon": "-16.909679108809154",
      "lat": "32.82068981879612"
    },
    {
      "id": "pt.ine.add.MAD.129053",
      "street": "SIT PE DO PICO",
      "house": "",
      "postcode": "9230-155",
      "city": "SÃO JORGE STN",
      "lon": "-16.909470318076934",
      "lat": "32.82291156898377"
    }
  ]
}