{
  "data": {
    "ilha": "Ilha da Madeira (Madeira)",
    "concelho": "Santana",
    "freguesia": "São Jorge",
    "OBJECTID": 125,
    "BGRI2021": "31090400117",
    "DT21": "31",
    "DTMN21": "3109",
    "DTMNFR21": "310904",
    "DTMNFRSEC21": "310904001",
    "SECNUM21": "001",
    "SSNUM21": "17",
    "SECSSNUM21": "00117",
    "OBJECTID_1": 205523,
    "DT": "31",
    "CC": "09",
    "fr": "04",
    "SEC": "001",
    "SS": "17",
    "BGRI2021_1": "31090400117"
  },
  "addresses": [
    {
      "id": "pt.ine.add.MAD.41604",
      "street": "SIT PICO",
      "house": "",
      "postcode": "9230-156",
      "city": "SÃO JORGE STN",
      "lon": "-16.914301449544364",
      "lat": "32.822567203970486"
    },
    {
      "id": "pt.ine.add.MAD.41605",
      "street": "SIT FELPA",
      "house": "",
      "postcode": "9230-142",
      "city": "SÃO JORGE STN",
      "lon": "-16.912813795794463",
      "lat": "32.82242761790505"
    },
    {
      "id": "pt.ine.add.MAD.41606",
      "street": "SIT PICO",
      "house": "",
      "postcode": "9230-156",
      "city": "SÃO JORGE STN",
      "lon": "-16.91296738590315",
      "lat": "32.82211863961946"
    },
    {
      "id": "pt.ine.add.MAD.41607",
      "street": "SIT PICO",
      "house": "",
      "postcode": "9230-156",
      "city": "SÃO JORGE STN",
      "lon": "-16.91314600293285",
      "lat": "32.821980630929716"
    },
    {
      "id": "pt.ine.add.MAD.41608",
      "street": "ESTR ACHADINHA",
      "house": "69",
      "postcode": "9230-156",
      "city": "SÃO JORGE STN",
      "lon": "-16.913009754705108",
      "lat": "32.82160393481543"
    },
    {
      "id": "pt.ine.add.MAD.41609",
      "street": "SIT PICO",
      "house": "",
      "postcode": "9230-156",
      "city": "SÃO JORGE STN",
      "lon": "-16.92154659189938",
      "lat": "32.81826254916674"
    },
    {
      "id": "pt.ine.add.MAD.41610",
      "street": "SIT ACHADA FELPA",
      "house": "",
      "postcode": "9230-142",
      "city": "SÃO JORGE STN",
      "lon": "-16.92084986210718",
      "lat": "32.82013106243623"
    },
    {
      "id": "pt.ine.add.MAD.41611",
      "street": "SIT ACHADA FELPA",
      "house": "",
      "postcode": "9230-142",
      "city": "SÃO JORGE STN",
      "lon": "-16.920769878890898",
      "lat": "32.82038480893202"
    },
    {
      "id": "pt.ine.add.MAD.46524",
      "street": "SIT ACHADA FELPA",
      "house": "",
      "postcode": "9230-142",
      "city": "SÃO JORGE STN",
      "lon": "-16.914639563409253",
      "lat": "32.82090261949987"
    },
    {
      "id": "pt.ine.add.MAD.46525",
      "street": "SIT ACHADA FELPA",
      "house": "",
      "postcode": "9230-142",
      "city": "SÃO JORGE STN",
      "lon": "-16.91350351469007",
      "lat": "32.8207215870469"
    },
    {
      "id": "pt.ine.add.MAD.46526",
      "street": "SIT ACHADA FELPA",
      "house": "",
      "postcode": "9230-142",
      "city": "SÃO JORGE STN",
      "lon": "-16.91635246734196",
      "lat": "32.819595768742325"
    },
    {
      "id": "pt.ine.add.MAD.46527",
      "street": "CAM PIDO DA RAINHA",
      "house": "6",
      "postcode": "9230-142",
      "city": "SÃO JORGE STN",
      "lon": "-16.91607115412866",
      "lat": "32.81992474360363"
    },
    {
      "id": "pt.ine.add.MAD.46528",
      "street": "SIT ACHADA FELPA",
      "house": "",
      "postcode": "9230-142",
      "city": "SÃO JORGE STN",
      "lon": "-16.915780323096474",
      "lat": "32.82030797481642"
    },
    {
      "id": "pt.ine.add.MAD.46529",
      "street": "SIT ACHADA FELPA",
      "house": "",
      "postcode": "9230-142",
      "city": "SÃO JORGE STN",
      "lon": "-16.916201410061447",
      "lat": "32.820021953212255"
    },
    {
      "id": "pt.ine.add.MAD.46530",
      "street": "SIT ACHADA FELPA",
      "house": "",
      "postcode": "9230-142",
      "city": "SÃO JORGE STN",
      "lon": "-16.91659145741215",
      "lat": "32.81928547852578"
    },
    {
      "id": "pt.ine.add.MAD.47333",
      "street": "SIT ACHADA PICO",
      "house": "",
      "postcode": "9230-142",
      "city": "SÃO JORGE STN",
      "lon": "-16.918762590739746",
      "lat": "32.81942356206509"
    },
    {
      "id": "pt.ine.add.MAD.70918",
      "street": "ESTR BANDA DA FONTE",
      "house": "15",
      "postcode": "9230-156",
      "city": "SÃO JORGE STN",
      "lon": "-16.915558878534977",
      "lat": "32.82243072176967"
    },
    {
      "id": "pt.ine.add.MAD.70924",
      "street": "SIT ACHADA FELPA",
      "house": "",
      "postcode": "9230-142",
      "city": "SÃO JORGE STN",
      "lon": "-16.91451205361961",
      "lat": "32.820435605926946"
    },
    {
      "id": "pt.ine.add.MAD.72145",
      "street": "SIT FELPA",
      "house": "",
      "postcode": "9230-142",
      "city": "SÃO JORGE STN",
      "lon": "-16.912832058115626",
      "lat": "32.8222830420265"
    },
    {
      "id": "pt.ine.add.MAD.75751",
      "street": "SIT PICO",
      "house": "",
      "postcode": "9230-156",
      "city": "SÃO JORGE STN",
      "lon": "-16.920930233087276",
      "lat": "32.81989534700106"
    },
    {
      "id": "pt.ine.add.MAD.78434",
      "street": "SIT ACHADA FELPA",
      "house": "",
      "postcode": "9230-142",
      "city": "SÃO JORGE STN",
      "lon": "-16.917674321061202",
      "lat": "32.81898029705545"
    },
    {
      "id": "pt.ine.add.MAD.83892",
      "street": "CAM DA BANDA DA FONTE",
      "house": "4",
      "postcode": "9230-156",
      "city": "SÃO JORGE STN",
      "lon": "-16.912800559002925",
      "lat": "32.822806599152194"
    },
    {
      "id": "pt.ine.add.MAD.83896",
      "street": "SIT ACHADA FELPA",
      "house": "",
      "postcode": "9230-142",
      "city": "SÃO JORGE STN",
      "lon": "-16.915334041366332",
      "lat": "32.81991798990565"
    },
    {
      "id": "pt.ine.add.MAD.89726",
      "street": "SIT PICO",
      "house": "",
      "postcode": "9230-156",
      "city": "SÃO JORGE STN",
      "lon": "-16.914364316129202",
      "lat": "32.823008150851294"
    },
    {
      "id": "pt.ine.add.MAD.89728",
      "street": "SIT ACHADA FELPA",
      "house": "",
      "postcode": "9230-142",
      "city": "SÃO JORGE STN",
      "lon": "-16.91781273526959",
      "lat": "32.81896013896691"
    },
    {
      "id": "pt.ine.add.MAD.94442",
      "street": "SIT PICO",
      "house": "",
      "postcode": "9230-156",
      "city": "SÃO JORGE STN",
      "lon": "-16.915575200698306",
      "lat": "32.82219598988238"
    },
    {
      "id": "pt.ine.add.MAD.98718",
      "street": "SIT ACHADA FELPA",
      "house": "",
      "postcode": "9230-142",
      "city": "SÃO JORGE STN",
      "lon": "-16.918089369677613",
      "lat": "32.81891080676841"
    },
    {
      "id": "pt.ine.add.MAD.103623",
      "street": "SIT ACHADA FELPA",
      "house": "",
      "postcode": "9230-142",
      "city": "SÃO JORGE STN",
      "lon": "-16.91316783404834",
      "lat": "32.821006294169024"
    },
    {
      "id": "pt.ine.add.MAD.103844",
      "street": "SIT ACHADA PICO",
      "house": "",
      "postcode": "9230-156",
      "city": "SÃO JORGE STN",
      "lon": "-16.91918580865127",
      "lat": "32.818740682389794"
    },
    {
      "id": "pt.ine.add.MAD.111414",
      "street": "SIT ACHADA FELPA",
      "house": "",
      "postcode": "9230-142",
      "city": "SÃO JORGE STN",
      "lon": "-16.916294987666532",
      "lat": "32.81990327931805"
    },
    {
      "id": "pt.ine.add.MAD.112742",
      "street": "SIT ACHADA FELPA",
      "house": "",
      "postcode": "9230-142",
      "city": "SÃO JORGE STN",
      "lon": "-16.91584167633561",
      "lat": "32.820180775999475"
    },
    {
      "id": "pt.ine.add.MAD.113373",
      "street": "SIT ACHADA FELPA",
      "house": "",
      "postcode": "9230-142",
      "city": "SÃO JORGE STN",
      "lon": "-16.919194328778165",
      "lat": "32.81963338681572"
    },
    {
      "id": "pt.ine.add.MAD.119500",
      "street": "SIT ACHADA DA FELPA",
      "house": "",
      "postcode": "9230-142",
      "city": "SÃO JORGE STN",
      "lon": "-16.916217343186403",
      "lat": "32.819769190079725"
    },
    {
      "id": "pt.ine.add.MAD.123490",
      "street": "ESTR ACHADINHA",
      "house": "37",
      "postcode": "9230-156",
      "city": "SÃO JORGE STN",
      "lon": "-16.916116602221063",
      "lat": "32.819554287531375"
    },
    {
      "id": "pt.ine.add.MAD.124019",
      "street": "CAM BANDA DA FONTE",
      "house": "2",
      "postcode": "9230-156",
      "city": "SÃO JORGE STN",
      "lon": "-16.91274987729847",
      "lat": "32.8229336334514"
    },
    {
      "id": "pt.ine.add.MAD.124036",
      "street": "ESTR DO PICO",
      "house": "1",
      "postcode": "9230-156",
      "city": "SÃO JORGE STN",
      "lon": "-16.913087976147057",
      "lat": "32.821765072899744"
    },
    {
      "id": "pt.ine.add.MAD.126343",
      "street": "SIT ACHADA PICO",
      "house": "",
      "postcode": "9230-142",
      "city": "SÃO JORGE STN",
      "lon": "-16.91840813041826",
      "lat": "32.818833772604556"
    }
  ]
}