{
  "data": {
    "distrito": "Porto",
    "concelho": "Porto",
    "freguesia": "Uni√£o das freguesias de Aldoar, Foz do Douro e Nevogilde",
    "OBJECTID": 347,
    "BGRI2021": "13121601401",
    "DT21": "13",
    "DTMN21": "1312",
    "DTMNFR21": "131216",
    "DTMNFRSEC21": "131216014",
    "SECNUM21": "014",
    "SSNUM21": "01",
    "SECSSNUM21": "01401",
    "OBJECTID_1": 139079,
    "DT": "13",
    "CC": "12",
    "fr": "16",
    "SEC": "014",
    "SS": "01"
  },
  "addresses": [
    {
      "id": "pt.ine.add.PTCONT.3549160",
      "street": "R ALTO DE VILA",
      "house": "52",
      "postcode": "4150-057",
      "city": "PORTO",
      "lon": "-8.672428989481997",
      "lat": "41.151318865088825"
    },
    {
      "id": "pt.ine.add.PTCONT.3574858",
      "street": "R ALTO DE VILA",
      "house": "70",
      "postcode": "4150-057",
      "city": "PORTO",
      "lon": "-8.67271459155786",
      "lat": "41.15128151016486"
    },
    {
      "id": "pt.ine.add.PTCONT.3660390",
      "street": "R ALTO DE VILA",
      "house": "36",
      "postcode": "4150-057",
      "city": "PORTO",
      "lon": "-8.672298174486773",
      "lat": "41.15134649052507"
    },
    {
      "id": "pt.ine.add.PTCONT.3660391",
      "street": "R ALTO DE VILA",
      "house": "64",
      "postcode": "4150-057",
      "city": "PORTO",
      "lon": "-8.672607380097375",
      "lat": "41.1512820123462"
    },
    {
      "id": "pt.ine.add.PTCONT.3660496",
      "street": "R ALTO DE VILA",
      "house": "64",
      "postcode": "4150-057",
      "city": "PORTO",
      "lon": "-8.672607380097375",
      "lat": "41.1512820123462"
    },
    {
      "id": "pt.ine.add.PTCONT.3705161",
      "street": "R TRINITARIA",
      "house": "15 CASA 1",
      "postcode": "4150-736",
      "city": "PORTO",
      "lon": "-8.672586064909458",
      "lat": "41.1515882598749"
    },
    {
      "id": "pt.ine.add.PTCONT.3740756",
      "street": "R TRINITARIA",
      "house": "11 A",
      "postcode": "4150-736",
      "city": "PORTO",
      "lon": "-8.6724431894178",
      "lat": "41.15159793327083"
    },
    {
      "id": "pt.ine.add.PTCONT.3740977",
      "street": "R TRINITARIA",
      "house": "11 A",
      "postcode": "4150-736",
      "city": "PORTO",
      "lon": "-8.6724431894178",
      "lat": "41.15159793327083"
    },
    {
      "id": "pt.ine.add.PTCONT.3768446",
      "street": "R ALTO DE VILA",
      "house": "76",
      "postcode": "4150-057",
      "city": "PORTO",
      "lon": "-8.672774005805799",
      "lat": "41.15126322313531"
    },
    {
      "id": "pt.ine.add.PTCONT.3877823",
      "street": "R ANTERO DE QUENTAL",
      "house": "46",
      "postcode": "4100-001",
      "city": "PORTO",
      "lon": "-8.672357588911213",
      "lat": "41.151328203709454"
    },
    {
      "id": "pt.ine.add.PTCONT.3979416",
      "street": "R ALTO DE VILA",
      "house": "58",
      "postcode": "4150-057",
      "city": "PORTO",
      "lon": "-8.672488477642197",
      "lat": "41.15130958220478"
    },
    {
      "id": "pt.ine.add.PTCONT.3986447",
      "street": "R PARAISO DA FOZ",
      "house": "43",
      "postcode": "4150-566",
      "city": "PORTO",
      "lon": "-8.67197771940619",
      "lat": "41.1514920595986"
    },
    {
      "id": "pt.ine.add.PTCONT.3986448",
      "street": "R ALTO DE VILA",
      "house": "24",
      "postcode": "4150-057",
      "city": "PORTO",
      "lon": "-8.672203244104383",
      "lat": "41.15139195656496"
    },
    {
      "id": "pt.ine.add.PTCONT.4099340",
      "street": "R ALTO DE VILA",
      "house": "84",
      "postcode": "4150-057",
      "city": "PORTO",
      "lon": "-8.672845332397921",
      "lat": "41.15124488025893"
    }
  ]
}