{
  "data": {
    "distrito": "Lisboa",
    "concelho": "Loures",
    "freguesia": "Fanhões",
    "OBJECTID": 1690,
    "BGRI2021": "11070500230",
    "DT21": "11",
    "DTMN21": "1107",
    "DTMNFR21": "110705",
    "DTMNFRSEC21": "110705002",
    "SECNUM21": "002",
    "SSNUM21": "30",
    "SECSSNUM21": "00230",
    "OBJECTID_1": 106984,
    "DT": "11",
    "CC": "07",
    "fr": "05",
    "SEC": "002",
    "SS": "30"
  },
  "addresses": [
    {
      "id": "pt.ine.add.PTCONT.2928688",
      "street": "R ISIDORO MACHADO",
      "house": "5",
      "postcode": "2670-710",
      "city": "FANHÕES",
      "lon": "-9.151729186494029",
      "lat": "38.883266490080516"
    },
    {
      "id": "pt.ine.add.PTCONT.2974709",
      "street": "R TERREIRO",
      "house": "2",
      "postcode": "2670-729",
      "city": "FANHÕES",
      "lon": "-9.151801397818245",
      "lat": "38.88288904848767"
    },
    {
      "id": "pt.ine.add.PTCONT.3001882",
      "street": "ESCNH S JOÃO DE DEUS",
      "house": "10",
      "postcode": "2670-725",
      "city": "FANHÕES",
      "lon": "-9.15175273345977",
      "lat": "38.8827093204597"
    },
    {
      "id": "pt.ine.add.PTCONT.3024434",
      "street": "R ISIDORO MACHADO",
      "house": "1",
      "postcode": "2670-710",
      "city": "FANHÕES",
      "lon": "-9.15161895837149",
      "lat": "38.88302575443197"
    },
    {
      "id": "pt.ine.add.PTCONT.3047653",
      "street": "R TERREIRO",
      "house": "1",
      "postcode": "2670-729",
      "city": "FANHÕES",
      "lon": "-9.151788974469465",
      "lat": "38.882826103469746"
    },
    {
      "id": "pt.ine.add.PTCONT.3113355",
      "street": "R TERREIRO",
      "house": "2A",
      "postcode": "2670-729",
      "city": "FANHÕES",
      "lon": "-9.151756206017438",
      "lat": "38.88295249614685"
    },
    {
      "id": "pt.ine.add.PTCONT.3160494",
      "street": "R JOAQUIM PAULO FERREIRA",
      "house": "14",
      "postcode": "2670-719",
      "city": "FANHÕES",
      "lon": "-9.151956214068148",
      "lat": "38.88323899523367"
    },
    {
      "id": "pt.ine.add.PTCONT.3215506",
      "street": "R JOAQUIM PAULO FERREIRA",
      "house": "16",
      "postcode": "2670-719",
      "city": "FANHÕES",
      "lon": "-9.1519114080973",
      "lat": "38.883329462467394"
    },
    {
      "id": "pt.ine.add.PTCONT.3252146",
      "street": "BC SEM SAIDA",
      "house": "4",
      "postcode": "2670-710",
      "city": "FANHÕES",
      "lon": "-9.151793733359355",
      "lat": "38.88315934421314"
    },
    {
      "id": "pt.ine.add.PTCONT.3400097",
      "street": "ESCNH S JOÃO DE DEUS",
      "house": "12",
      "postcode": "2670-725",
      "city": "FANHÕES",
      "lon": "-9.15185682629316",
      "lat": "38.88273543520908"
    },
    {
      "id": "pt.ine.add.PTCONT.3426756",
      "street": "R JOAQUIM PAULO FERREIRA",
      "house": "10 A",
      "postcode": "2670-719",
      "city": "FANHÕES",
      "lon": "-9.152045439722366",
      "lat": "38.883031041197746"
    },
    {
      "id": "pt.ine.add.PTCONT.3435913",
      "street": "R JOAQUIM PAULO FERREIRA",
      "house": "20",
      "postcode": "2670-719",
      "city": "FANHÕES",
      "lon": "-9.151774931609111",
      "lat": "38.883456759973605"
    },
    {
      "id": "pt.ine.add.PTCONT.2275402",
      "street": "R JOAQUIM PAULO FERREIRA",
      "house": "8",
      "postcode": "2670-719",
      "city": "FANHÕES",
      "lon": "-9.152054132430829",
      "lat": "38.88283279751206"
    },
    {
      "id": "pt.ine.add.PTCONT.2389057",
      "street": "R ISIDORO MACHADO",
      "house": "1B",
      "postcode": "2670-710",
      "city": "FANHÕES",
      "lon": "-9.151620244344691",
      "lat": "38.883115819501356"
    },
    {
      "id": "pt.ine.add.PTCONT.2453272",
      "street": "R ISIDORO MACHADO",
      "house": "1A",
      "postcode": "2670-710",
      "city": "FANHÕES",
      "lon": "-9.15161947276008",
      "lat": "38.883061780459904"
    },
    {
      "id": "pt.ine.add.PTCONT.2511815",
      "street": "R JOAQUIM PAULO FERREIRA",
      "house": "10",
      "postcode": "2670-719",
      "city": "FANHÕES",
      "lon": "-9.151988724996768",
      "lat": "38.88309458949785"
    },
    {
      "id": "pt.ine.add.PTCONT.2552773",
      "street": "TV CRUZ",
      "house": "3",
      "postcode": "2670-710",
      "city": "FANHÕES",
      "lon": "-9.151753452077948",
      "lat": "38.883343529613654"
    },
    {
      "id": "pt.ine.add.PTCONT.2599048",
      "street": "TV CRUZ",
      "house": "5",
      "postcode": "2670-710",
      "city": "FANHÕES",
      "lon": "-9.151772401020793",
      "lat": "38.88339439251661"
    },
    {
      "id": "pt.ine.add.PTCONT.2693767",
      "street": "ESCNH S JOÃO DE DEUS",
      "house": "4",
      "postcode": "2670-725",
      "city": "FANHÕES",
      "lon": "-9.151614071725781",
      "lat": "38.88268350715527"
    },
    {
      "id": "pt.ine.add.PTCONT.2712744",
      "street": "R JOAQUIM PAULO FERREIRA",
      "house": "18",
      "postcode": "2670-719",
      "city": "FANHÕES",
      "lon": "-9.151854693019425",
      "lat": "38.88339301070399"
    },
    {
      "id": "pt.ine.add.PTCONT.2721542",
      "street": "R JOAQUIM PAULO FERREIRA",
      "house": "12",
      "postcode": "2670-719",
      "city": "FANHÕES",
      "lon": "-9.151978488368577",
      "lat": "38.883184755104665"
    },
    {
      "id": "pt.ine.add.PTCONT.2729620",
      "street": "BC SEM SAIDA",
      "house": "1",
      "postcode": "2670-710",
      "city": "FANHÕES",
      "lon": "-9.151724080507071",
      "lat": "38.88312392134665"
    },
    {
      "id": "pt.ine.add.PTCONT.2845386",
      "street": "BC SEM SAIDA",
      "house": "2",
      "postcode": "2670-710",
      "city": "FANHÕES",
      "lon": "-9.151736889694496",
      "lat": "38.88321388588761"
    },
    {
      "id": "pt.ine.add.PTCONT.2865206",
      "street": "TV CRUZ",
      "house": "1",
      "postcode": "2670-710",
      "city": "FANHÕES",
      "lon": "-9.151745131107141",
      "lat": "38.8833016266573"
    },
    {
      "id": "pt.ine.add.PTCONT.2865207",
      "street": "TV CRUZ",
      "house": "1",
      "postcode": "2670-710",
      "city": "FANHÕES",
      "lon": "-9.151745131107141",
      "lat": "38.8833016266573"
    }
  ]
}