{
  "data": {
    "distrito": "Bragança",
    "concelho": "Carrazeda de Ansiães",
    "freguesia": "Fonte Longa",
    "OBJECTID": 13,
    "BGRI2021": "04030600104",
    "DT21": "04",
    "DTMN21": "0403",
    "DTMNFR21": "040306",
    "DTMNFRSEC21": "040306001",
    "SECNUM21": "001",
    "SSNUM21": "04",
    "SECSSNUM21": "00104",
    "OBJECTID_1": 34934,
    "DT": "04",
    "CC": "03",
    "fr": "06",
    "SEC": "001",
    "SS": "04"
  },
  "addresses": [
    {
      "id": "pt.ine.add.PTCONT.852647",
      "street": "R DA PRAÇA",
      "house": "",
      "postcode": "5140-142",
      "city": "FONTE LONGA CRZ",
      "lon": "-7.263831431387666",
      "lat": "41.230285157248964"
    },
    {
      "id": "pt.ine.add.PTCONT.857796",
      "street": "R DE CIMA",
      "house": "",
      "postcode": "5140-142",
      "city": "FONTE LONGA CRZ",
      "lon": "-7.263813406536446",
      "lat": "41.21633759705523"
    },
    {
      "id": "pt.ine.add.PTCONT.859023",
      "street": "R DAS PEDRINHAS",
      "house": "",
      "postcode": "5140-142",
      "city": "FONTE LONGA CRZ",
      "lon": "-7.2648408418766355",
      "lat": "41.230616922327954"
    },
    {
      "id": "pt.ine.add.PTCONT.860149",
      "street": "R DO FUNDO DO POVO",
      "house": "",
      "postcode": "5140-142",
      "city": "FONTE LONGA CRZ",
      "lon": "-7.26425587528895",
      "lat": "41.23065753041636"
    },
    {
      "id": "pt.ine.add.PTCONT.861623",
      "street": "R PADRE ANTÓNIONE DA SILVA RIBEIRO",
      "house": "",
      "postcode": "5140-142",
      "city": "FONTE LONGA CRZ",
      "lon": "-7.264175731780156",
      "lat": "41.230404809819525"
    },
    {
      "id": "pt.ine.add.PTCONT.861847",
      "street": "R DO ADRO",
      "house": "",
      "postcode": "5140-142",
      "city": "FONTE LONGA CRZ",
      "lon": "-7.263906444883305",
      "lat": "41.23002460357465"
    },
    {
      "id": "pt.ine.add.PTCONT.864256",
      "street": "R DO FUNDO DO POVO",
      "house": "",
      "postcode": "5140-142",
      "city": "FONTE LONGA CRZ",
      "lon": "-7.2645258817770895",
      "lat": "41.23098371642774"
    },
    {
      "id": "pt.ine.add.PTCONT.870245",
      "street": "R DO ADRO",
      "house": "",
      "postcode": "5140-142",
      "city": "FONTE LONGA CRZ",
      "lon": "-7.264718353919976",
      "lat": "41.229958696617"
    },
    {
      "id": "pt.ine.add.PTCONT.871513",
      "street": "R PADRE ANTÓNIONE DA SILVA RIBEIRO",
      "house": "",
      "postcode": "5140-142",
      "city": "FONTE LONGA CRZ",
      "lon": "-7.264535891831604",
      "lat": "41.230227444488236"
    },
    {
      "id": "pt.ine.add.PTCONT.878233",
      "street": "R DE CIMA",
      "house": "",
      "postcode": "5140-141",
      "city": "FONTE LONGA CRZ",
      "lon": "-7.264878410687402",
      "lat": "41.21695791481319"
    },
    {
      "id": "pt.ine.add.PTCONT.879736",
      "street": "R DAS PEDRINHAS",
      "house": "",
      "postcode": "5140-142",
      "city": "FONTE LONGA CRZ",
      "lon": "-7.264879002058236",
      "lat": "41.23043712734848"
    },
    {
      "id": "pt.ine.add.PTCONT.885869",
      "street": "R DO ADRO",
      "house": "",
      "postcode": "5140-142",
      "city": "FONTE LONGA CRZ",
      "lon": "-7.264289501543818",
      "lat": "41.229919444939604"
    },
    {
      "id": "pt.ine.add.PTCONT.889169",
      "street": "R PADRE ANTONIONE DA SILVA RIBEIRO",
      "house": "",
      "postcode": "5140-142",
      "city": "FONTE LONGA CRZ",
      "lon": "-7.264022006805855",
      "lat": "41.23030460412126"
    },
    {
      "id": "pt.ine.add.PTCONT.895266",
      "street": "R DO PANDÃO",
      "house": "",
      "postcode": "5140-142",
      "city": "FONTE LONGA CRZ",
      "lon": "-7.260996308073737",
      "lat": "41.21565899218666"
    },
    {
      "id": "pt.ine.add.PTCONT.898433",
      "street": "R PADRE ANTÓNIONE DA SILVA RIBEIRO",
      "house": "",
      "postcode": "5140-142",
      "city": "FONTE LONGA CRZ",
      "lon": "-7.2643075125644225",
      "lat": "41.23036078355196"
    },
    {
      "id": "pt.ine.add.PTCONT.900741",
      "street": "LG DE STA LUZIA",
      "house": "",
      "postcode": "5140-141",
      "city": "FONTE LONGA CRZ",
      "lon": "-7.262768807956649",
      "lat": "41.21597854425217"
    },
    {
      "id": "pt.ine.add.PTCONT.901900",
      "street": "R DO FUNDO DO POVO",
      "house": "",
      "postcode": "5140-142",
      "city": "FONTE LONGA CRZ",
      "lon": "-7.264553547065234",
      "lat": "41.2306957927677"
    },
    {
      "id": "pt.ine.add.PTCONT.901901",
      "street": "R DAS PEDRINHAS",
      "house": "",
      "postcode": "5140-142",
      "city": "FONTE LONGA CRZ",
      "lon": "-7.2648816226599235",
      "lat": "41.23023905609866"
    },
    {
      "id": "pt.ine.add.PTCONT.903203",
      "street": "R DO FUNDO DO POVO",
      "house": "",
      "postcode": "5140-142",
      "city": "FONTE LONGA CRZ",
      "lon": "-7.264826414277572",
      "lat": "41.23080590039276"
    },
    {
      "id": "pt.ine.add.PTCONT.903962",
      "street": "R DAS PEDRINHAS",
      "house": "",
      "postcode": "5140-142",
      "city": "FONTE LONGA CRZ",
      "lon": "-7.265103926907441",
      "lat": "41.23056488107556"
    },
    {
      "id": "pt.ine.add.PTCONT.908371",
      "street": "LG DA CAPELA",
      "house": "",
      "postcode": "5140-141",
      "city": "FONTE LONGA CRZ",
      "lon": "-7.263216171676575",
      "lat": "41.215513708433626"
    },
    {
      "id": "pt.ine.add.PTCONT.914583",
      "street": "R DO FUNDO DO POVO",
      "house": "",
      "postcode": "5140-142",
      "city": "FONTE LONGA CRZ",
      "lon": "-7.263901078553959",
      "lat": "41.23042974921582"
    },
    {
      "id": "pt.ine.add.PTCONT.915155",
      "street": "R PADRE ANTÓNIONE DA SILVA RIBEIRO",
      "house": "",
      "postcode": "5140-142",
      "city": "FONTE LONGA CRZ",
      "lon": "-7.2643903978181585",
      "lat": "41.23040642960815"
    },
    {
      "id": "pt.ine.add.PTCONT.916870",
      "street": "R DAS PEDRINHAS",
      "house": "",
      "postcode": "5140-142",
      "city": "FONTE LONGA CRZ",
      "lon": "-7.264899637715162",
      "lat": "41.23068039463416"
    },
    {
      "id": "pt.ine.add.PTCONT.917506",
      "street": "R DO FUNDO DO POVO",
      "house": "",
      "postcode": "5140-142",
      "city": "FONTE LONGA CRZ",
      "lon": "-7.2647081077757125",
      "lat": "41.23073297510373"
    },
    {
      "id": "pt.ine.add.PTCONT.918010",
      "street": "R DAS PEDRINHAS",
      "house": "",
      "postcode": "5140-142",
      "city": "FONTE LONGA CRZ",
      "lon": "-7.264508822548623",
      "lat": "41.23047035198092"
    },
    {
      "id": "pt.ine.add.PTCONT.918249",
      "street": "R DAS PEDRINHAS",
      "house": "",
      "postcode": "5140-142",
      "city": "FONTE LONGA CRZ",
      "lon": "-7.264925157188507",
      "lat": "41.23055452914534"
    },
    {
      "id": "pt.ine.add.PTCONT.924082",
      "street": "R DAS PEDRINHAS",
      "house": "",
      "postcode": "5140-142",
      "city": "FONTE LONGA CRZ",
      "lon": "-7.264772383773406",
      "lat": "41.230382298529584"
    },
    {
      "id": "pt.ine.add.PTCONT.925967",
      "street": "R DO FUNDO DO POVO",
      "house": "",
      "postcode": "5140-142",
      "city": "FONTE LONGA CRZ",
      "lon": "-7.264825342126877",
      "lat": "41.23088692953207"
    },
    {
      "id": "pt.ine.add.PTCONT.926776",
      "street": "R DO FUNDO DO POVO",
      "house": "",
      "postcode": "5140-142",
      "city": "FONTE LONGA CRZ",
      "lon": "-7.264957719010473",
      "lat": "41.230797886339595"
    },
    {
      "id": "pt.ine.add.PTCONT.927682",
      "street": "R DO FUNDO DO POVO",
      "house": "",
      "postcode": "5140-142",
      "city": "FONTE LONGA CRZ",
      "lon": "-7.264360705708103",
      "lat": "41.230847408261575"
    },
    {
      "id": "pt.ine.add.PTCONT.927683",
      "street": "R DO FUNDO DO POVO",
      "house": "",
      "postcode": "5140-142",
      "city": "FONTE LONGA CRZ",
      "lon": "-7.264067921847621",
      "lat": "41.23044001272138"
    },
    {
      "id": "pt.ine.add.PTCONT.929122",
      "street": "R DAS PEDRINHAS",
      "house": "",
      "postcode": "5140-142",
      "city": "FONTE LONGA CRZ",
      "lon": "-7.2647348190302825",
      "lat": "41.23051707728304"
    },
    {
      "id": "pt.ine.add.PTCONT.943728",
      "street": "R PADRE ANTÓNIONE DA SILVA RIBEIRO",
      "house": "",
      "postcode": "5140-142",
      "city": "FONTE LONGA CRZ",
      "lon": "-7.26414305381329",
      "lat": "41.2301704556553"
    },
    {
      "id": "pt.ine.add.PTCONT.946003",
      "street": "R DE CIMA",
      "house": "",
      "postcode": "5140-141",
      "city": "FONTE LONGA CRZ",
      "lon": "-7.264905114993546",
      "lat": "41.21674201637997"
    },
    {
      "id": "pt.ine.add.PTCONT.947640",
      "street": "",
      "house": "",
      "postcode": "5140-142",
      "city": "FONTE LONGA CRZ",
      "lon": "-7.26478693054418",
      "lat": "41.230184317219745"
    },
    {
      "id": "pt.ine.add.PTCONT.948843",
      "street": "R DAS PEDRINHAS",
      "house": "",
      "postcode": "5140-142",
      "city": "FONTE LONGA CRZ",
      "lon": "-7.264486758331402",
      "lat": "41.23033512348469"
    }
  ]
}