{
  "data": {
    "distrito": "Faro",
    "concelho": "Olhão",
    "freguesia": "Quelfes",
    "OBJECTID": 549,
    "BGRI2021": "08100501215",
    "DT21": "08",
    "DTMN21": "0810",
    "DTMNFR21": "081005",
    "DTMNFRSEC21": "081005012",
    "SECNUM21": "012",
    "SSNUM21": "15",
    "SECSSNUM21": "01215",
    "OBJECTID_1": 70506,
    "DT": "08",
    "CC": "10",
    "fr": "05",
    "SEC": "012",
    "SS": "15"
  },
  "addresses": [
    {
      "id": "pt.ine.add.PTCONT.1471679",
      "street": "BR JOÃO BRAZ",
      "house": "14",
      "postcode": "8700-243",
      "city": "OLHÃO",
      "lon": "-7.843925047407032",
      "lat": "37.037711923495955"
    },
    {
      "id": "pt.ine.add.PTCONT.1491235",
      "street": "",
      "house": "",
      "postcode": "8700-207",
      "city": "OLHÃO",
      "lon": "-7.84304607374305",
      "lat": "37.03830448646299"
    },
    {
      "id": "pt.ine.add.PTCONT.1512177",
      "street": "URB ZONA ALTA",
      "house": "APART 20",
      "postcode": "8700-215",
      "city": "OLHÃO",
      "lon": "-7.842660276402772",
      "lat": "37.039258680394646"
    },
    {
      "id": "pt.ine.add.PTCONT.1512235",
      "street": "PC VIVENDA ADRIAO",
      "house": "",
      "postcode": "8700-243",
      "city": "OLHÃO",
      "lon": "-7.843297702441105",
      "lat": "37.03716073803557"
    },
    {
      "id": "pt.ine.add.PTCONT.1519387",
      "street": "PCT PADRE ANTÓNIO MATOS MALVEIRO",
      "house": "11",
      "postcode": "8700-236",
      "city": "OLHÃO",
      "lon": "-7.8459319998946855",
      "lat": "37.03904137578895"
    },
    {
      "id": "pt.ine.add.PTCONT.1534904",
      "street": "BR JOÃO BRAZ",
      "house": "2",
      "postcode": "8700-243",
      "city": "OLHÃO",
      "lon": "-7.844060506743047",
      "lat": "37.0375590710657"
    },
    {
      "id": "pt.ine.add.PTCONT.1546289",
      "street": "SIT BRANCANES",
      "house": "",
      "postcode": "8700-248",
      "city": "OLHÃO",
      "lon": "-7.844506316138824",
      "lat": "37.03856034775956"
    },
    {
      "id": "pt.ine.add.PTCONT.1558321",
      "street": "BR JOÃO BRAZ",
      "house": "7",
      "postcode": "8700-243",
      "city": "OLHÃO",
      "lon": "-7.844082371739334",
      "lat": "37.03772131755671"
    },
    {
      "id": "pt.ine.add.PTCONT.1559140",
      "street": "PCT PADRE ANTÓNIO MATOS MALVEIRO",
      "house": "13",
      "postcode": "8700-236",
      "city": "OLHÃO",
      "lon": "-7.845831178563079",
      "lat": "37.03895102439434"
    },
    {
      "id": "pt.ine.add.PTCONT.1570055",
      "street": "URB ZONA ALTA FASE 2",
      "house": "",
      "postcode": "8700-215",
      "city": "OLHÃO",
      "lon": "-7.843001589248039",
      "lat": "37.0411337474101"
    },
    {
      "id": "pt.ine.add.PTCONT.1590720",
      "street": "PCT PADRE ANTÓNIO MATOS MALVEIRO",
      "house": "12",
      "postcode": "8700-236",
      "city": "OLHÃO",
      "lon": "-7.845898483262861",
      "lat": "37.038987230264"
    },
    {
      "id": "pt.ine.add.PTCONT.1605969",
      "street": "CAM REIS SILVA",
      "house": "354 Z",
      "postcode": "8700-215",
      "city": "OLHÃO",
      "lon": "-7.84301392669478",
      "lat": "37.04084543422768"
    },
    {
      "id": "pt.ine.add.PTCONT.1612854",
      "street": "PC VIVENDA ADRIAO",
      "house": "",
      "postcode": "8700-243",
      "city": "OLHÃO",
      "lon": "-7.843421888026258",
      "lat": "37.037016869520144"
    },
    {
      "id": "pt.ine.add.PTCONT.1612897",
      "street": "R COMUNIDADE LUSIADA",
      "house": "",
      "postcode": "8700-248",
      "city": "OLHÃO",
      "lon": "-7.845549802875873",
      "lat": "37.03904946087006"
    },
    {
      "id": "pt.ine.add.PTCONT.1614778",
      "street": "PCT PADRE ANTÓNIO MATOS MALVEIRO",
      "house": "7",
      "postcode": "8700-236",
      "city": "OLHÃO",
      "lon": "-7.846213069944372",
      "lat": "37.03902403426696"
    },
    {
      "id": "pt.ine.add.PTCONT.1621999",
      "street": "BR JOÃO BRAZ",
      "house": "13",
      "postcode": "8700-243",
      "city": "OLHÃO",
      "lon": "-7.843880292898485",
      "lat": "37.03765775000311"
    },
    {
      "id": "pt.ine.add.PTCONT.1623913",
      "street": "CAM REIS DA SILVA",
      "house": "CP 353Z",
      "postcode": "8700-215",
      "city": "OLHÃO",
      "lon": "-7.8425551324456855",
      "lat": "37.04030366780302"
    },
    {
      "id": "pt.ine.add.PTCONT.1630560",
      "street": "BR JOÃO BRAZ",
      "house": "9",
      "postcode": "8700-243",
      "city": "OLHÃO",
      "lon": "-7.84397034863056",
      "lat": "37.037621926546585"
    },
    {
      "id": "pt.ine.add.PTCONT.1632559",
      "street": "BR JOÃO BRAZ",
      "house": "8",
      "postcode": "8700-243",
      "city": "OLHÃO",
      "lon": "-7.844026377227983",
      "lat": "37.037667116739094"
    },
    {
      "id": "pt.ine.add.PTCONT.1635634",
      "street": "BR JOÃO BRAZ",
      "house": "15",
      "postcode": "8700-243",
      "city": "OLHÃO",
      "lon": "-7.8439585962465035",
      "lat": "37.03775705893015"
    },
    {
      "id": "pt.ine.add.PTCONT.1637891",
      "street": "URB ZONA ALTA FASE 2 CASA JANELA ALTA",
      "house": "",
      "postcode": "8700-215",
      "city": "OLHÃO",
      "lon": "-7.842945730182456",
      "lat": "37.041043503523646"
    },
    {
      "id": "pt.ine.add.PTCONT.1660875",
      "street": "BR JOÃO BRAZ",
      "house": "5",
      "postcode": "8700-243",
      "city": "OLHÃO",
      "lon": "-7.8441949413679675",
      "lat": "37.03767653803398"
    },
    {
      "id": "pt.ine.add.PTCONT.1671417",
      "street": "PCT PADRE ANTÓNIO MATOS MALVEIRO",
      "house": "5",
      "postcode": "8700-236",
      "city": "OLHÃO",
      "lon": "-7.8463930807487685",
      "lat": "37.038979415719545"
    },
    {
      "id": "pt.ine.add.PTCONT.1674233",
      "street": "BR JOÃO BRAZ",
      "house": "1",
      "postcode": "8700-243",
      "city": "OLHÃO",
      "lon": "-7.844015649746568",
      "lat": "37.037531929578144"
    },
    {
      "id": "pt.ine.add.PTCONT.1678130",
      "street": "PC VIVENDA ADRIAO",
      "house": "",
      "postcode": "8700-243",
      "city": "OLHÃO",
      "lon": "-7.843241674647858",
      "lat": "37.0371155474986"
    },
    {
      "id": "pt.ine.add.PTCONT.1679866",
      "street": "CAM REIS SILVA",
      "house": "CX 351Z",
      "postcode": "8700-215",
      "city": "OLHÃO",
      "lon": "-7.842845081288389",
      "lat": "37.040908096397146"
    },
    {
      "id": "pt.ine.add.PTCONT.1685420",
      "street": "PC VIVENDA ADRIAO",
      "house": "",
      "postcode": "8700-243",
      "city": "OLHÃO",
      "lon": "-7.843455333586611",
      "lat": "37.03708903705559"
    },
    {
      "id": "pt.ine.add.PTCONT.1686231",
      "street": "URB ZONA ALTA FASE 2",
      "house": "",
      "postcode": "8700-215",
      "city": "OLHÃO",
      "lon": "-7.843034967628312",
      "lat": "37.04122393631089"
    },
    {
      "id": "pt.ine.add.PTCONT.1690960",
      "street": "PC VIVENDA ADRIAO",
      "house": "",
      "postcode": "8700-243",
      "city": "OLHÃO",
      "lon": "-7.8432980106410675",
      "lat": "37.03707964216841"
    },
    {
      "id": "pt.ine.add.PTCONT.1699756",
      "street": "PCT PADRE ANTÓNIO MATOS MALVEIRO",
      "house": "8",
      "postcode": "8700-236",
      "city": "OLHÃO",
      "lon": "-7.846134287598502",
      "lat": "37.03905087594932"
    },
    {
      "id": "pt.ine.add.PTCONT.1708100",
      "street": "URB ZONA ALTA 2 FASE",
      "house": "",
      "postcode": "8700-215",
      "city": "OLHÃO",
      "lon": "-7.843327594959791",
      "lat": "37.041125533336675"
    },
    {
      "id": "pt.ine.add.PTCONT.1733463",
      "street": "QTA FIGURAS",
      "house": "",
      "postcode": "8700-207",
      "city": "OLHÃO",
      "lon": "-7.842818598563479",
      "lat": "37.03900676733781"
    },
    {
      "id": "pt.ine.add.PTCONT.1733461",
      "street": "CAM REIS DA SILVA",
      "house": "CP 3482",
      "postcode": "8700-215",
      "city": "OLHÃO",
      "lon": "-7.843072939037092",
      "lat": "37.040106698602074"
    },
    {
      "id": "pt.ine.add.PTCONT.1743171",
      "street": "R COMUNIDADE LUSIADA",
      "house": "",
      "postcode": "8700-248",
      "city": "OLHÃO",
      "lon": "-7.846292936802509",
      "lat": "37.038708851679225"
    },
    {
      "id": "pt.ine.add.PTCONT.1745922",
      "street": "PCT PADRE ANTÓNIO MATOS MALVEIRO",
      "house": "6",
      "postcode": "8700-236",
      "city": "OLHÃO",
      "lon": "-7.846303092318525",
      "lat": "37.03899721970183"
    },
    {
      "id": "pt.ine.add.PTCONT.1750091",
      "street": "URB ZN ALTA",
      "house": "1",
      "postcode": "8700-149",
      "city": "OLHÃO",
      "lon": "-7.84316272725631",
      "lat": "37.04095496293564"
    },
    {
      "id": "pt.ine.add.PTCONT.1758135",
      "street": "R NSA SRA DE FÁTIMA",
      "house": "",
      "postcode": "8700-215",
      "city": "OLHÃO",
      "lon": "-7.845986096721481",
      "lat": "37.039600172141355"
    },
    {
      "id": "pt.ine.add.PTCONT.1758136",
      "street": "R NSA SRA DE FÁTIMA",
      "house": "",
      "postcode": "8700-215",
      "city": "OLHÃO",
      "lon": "-7.845986096721481",
      "lat": "37.039600172141355"
    },
    {
      "id": "pt.ine.add.PTCONT.1779622",
      "street": "URB ZONA ALTA",
      "house": "CP 349 Z",
      "postcode": "8700-215",
      "city": "OLHÃO",
      "lon": "-7.842604487758802",
      "lat": "37.039150415030115"
    },
    {
      "id": "pt.ine.add.PTCONT.1780490",
      "street": "PCT PADRE ANTÓNIO MATOS MALVEIRO",
      "house": "10",
      "postcode": "8700-236",
      "city": "OLHÃO",
      "lon": "-7.845999304722179",
      "lat": "37.03907758160138"
    },
    {
      "id": "pt.ine.add.PTCONT.1782536",
      "street": "CAM REIS DA SILVA",
      "house": "",
      "postcode": "8700-215",
      "city": "OLHÃO",
      "lon": "-7.842825276332417",
      "lat": "37.04020521098737"
    },
    {
      "id": "pt.ine.add.PTCONT.1799980",
      "street": "BR JOÃO BRAZ",
      "house": "3",
      "postcode": "8700-243",
      "city": "OLHÃO",
      "lon": "-7.844105329621893",
      "lat": "37.03759522318817"
    },
    {
      "id": "pt.ine.add.PTCONT.1802953",
      "street": "URB ZONA ALTA 2 FASE",
      "house": "",
      "postcode": "8700-215",
      "city": "OLHÃO",
      "lon": "-7.843204670091109",
      "lat": "37.04093600773053"
    },
    {
      "id": "pt.ine.add.PTCONT.1804774",
      "street": "PCT PADRE ANTÓNIO MATOS MALVEIRO",
      "house": "3",
      "postcode": "8700-236",
      "city": "OLHÃO",
      "lon": "-7.846371142723349",
      "lat": "37.038835190969756"
    },
    {
      "id": "pt.ine.add.PTCONT.1811732",
      "street": "BR JOÃO BRAZ",
      "house": "4",
      "postcode": "8700-243",
      "city": "OLHÃO",
      "lon": "-7.844150152543239",
      "lat": "37.03763137529368"
    },
    {
      "id": "pt.ine.add.PTCONT.1811733",
      "street": "BR JOÃO BRAZ",
      "house": "10",
      "postcode": "8700-243",
      "city": "OLHÃO",
      "lon": "-7.8439143200995485",
      "lat": "37.0375767363276"
    },
    {
      "id": "pt.ine.add.PTCONT.1817211",
      "street": "BR JOÃO BRAZ",
      "house": "16",
      "postcode": "8700-243",
      "city": "OLHÃO",
      "lon": "-7.84399211096232",
      "lat": "37.03781120500606"
    },
    {
      "id": "pt.ine.add.PTCONT.1820222",
      "street": "PCT PADRE ANTÓNIO MATOS MALVEIRO",
      "house": "2",
      "postcode": "8700-236",
      "city": "OLHÃO",
      "lon": "-7.84630390571368",
      "lat": "37.03878096406337"
    },
    {
      "id": "pt.ine.add.PTCONT.1820354",
      "street": "MTE MARCAL",
      "house": "67 A",
      "postcode": "8700-207",
      "city": "OLHÃO",
      "lon": "-7.8445749836695855",
      "lat": "37.03823612834085"
    },
    {
      "id": "pt.ine.add.PTCONT.1825501",
      "street": "PCT PADRE ANTÓNIO MATOS MALVEIRO",
      "house": "4",
      "postcode": "8700-236",
      "city": "OLHÃO",
      "lon": "-7.846415865815057",
      "lat": "37.03889837417453"
    },
    {
      "id": "pt.ine.add.PTCONT.1825502",
      "street": "PCT PADRE ANTÓNIO MATOS MALVEIRO",
      "house": "9",
      "postcode": "8700-236",
      "city": "OLHÃO",
      "lon": "-7.8460667792122125",
      "lat": "37.039068734120164"
    },
    {
      "id": "pt.ine.add.PTCONT.1830753",
      "street": "R COMUNIDADE LUSIADA",
      "house": "14",
      "postcode": "8700-248",
      "city": "OLHÃO",
      "lon": "-7.845763941837855",
      "lat": "37.03889679718427"
    },
    {
      "id": "pt.ine.add.PTCONT.1842776",
      "street": "BR JOÃO BRAZ",
      "house": "12",
      "postcode": "8700-243",
      "city": "OLHÃO",
      "lon": "-7.843846778328996",
      "lat": "37.03760360389482"
    },
    {
      "id": "pt.ine.add.PTCONT.1843425",
      "street": "MTE MARCAL",
      "house": "CP 679",
      "postcode": "8700-215",
      "city": "OLHÃO",
      "lon": "-7.8445749836695855",
      "lat": "37.03823612834085"
    },
    {
      "id": "pt.ine.add.PTCONT.1844543",
      "street": "CAM REIS DA SILVA",
      "house": "",
      "postcode": "8700-215",
      "city": "OLHÃO",
      "lon": "-7.843655618815099",
      "lat": "37.04058569022291"
    }
  ]
}