{
  "data": {
    "distrito": "Viseu",
    "concelho": "Tabuaço",
    "freguesia": "Valença do Douro",
    "OBJECTID": 73,
    "BGRI2021": "18191700104",
    "DT21": "18",
    "DTMN21": "1819",
    "DTMNFR21": "181917",
    "DTMNFRSEC21": "181917001",
    "SECNUM21": "001",
    "SSNUM21": "04",
    "SECSSNUM21": "00104",
    "OBJECTID_1": 198217,
    "DT": "18",
    "CC": "19",
    "fr": "17",
    "SEC": "001",
    "SS": "04"
  },
  "addresses": [
    {
      "id": "pt.ine.add.PTCONT.5440630",
      "street": "R CIMO DO POVO",
      "house": "",
      "postcode": "5120-503",
      "city": "VALENÇA DO DOURO",
      "lon": "-7.552461870803358",
      "lat": "41.15673666659597"
    },
    {
      "id": "pt.ine.add.PTCONT.5440631",
      "street": "R ASSUNCAO",
      "house": "",
      "postcode": "5120-504",
      "city": "VALENÇA DO DOURO",
      "lon": "-7.554587620666401",
      "lat": "41.15751273053115"
    },
    {
      "id": "pt.ine.add.PTCONT.5441634",
      "street": "R CIMO DO POVO",
      "house": "",
      "postcode": "5120-503",
      "city": "VALENÇA DO DOURO",
      "lon": "-7.552337580019918",
      "lat": "41.15597067212179"
    },
    {
      "id": "pt.ine.add.PTCONT.5450148",
      "street": "R ASSUNÇÃO",
      "house": "3",
      "postcode": "5120-504",
      "city": "VALENÇA DO DOURO",
      "lon": "-7.553749716173011",
      "lat": "41.157958735419164"
    },
    {
      "id": "pt.ine.add.PTCONT.5458930",
      "street": "R CIMO POVO",
      "house": "26",
      "postcode": "5120-503",
      "city": "VALENÇA DO DOURO",
      "lon": "-7.552288576255617",
      "lat": "41.156123498616275"
    },
    {
      "id": "pt.ine.add.PTCONT.5460983",
      "street": "R ASSUNÇÃO",
      "house": "",
      "postcode": "5120-504",
      "city": "VALENÇA DO DOURO",
      "lon": "-7.554159687832443",
      "lat": "41.157402528530795"
    },
    {
      "id": "pt.ine.add.PTCONT.5480677",
      "street": "R CIMO DO POVO",
      "house": "",
      "postcode": "5120-503",
      "city": "VALENÇA DO DOURO",
      "lon": "-7.553347354360265",
      "lat": "41.15765056385062"
    },
    {
      "id": "pt.ine.add.PTCONT.5486423",
      "street": "R CIMO POVO",
      "house": "8",
      "postcode": "5120-503",
      "city": "VALENÇA DO DOURO",
      "lon": "-7.5534083496083335",
      "lat": "41.157488792967996"
    },
    {
      "id": "pt.ine.add.PTCONT.5496431",
      "street": "R CRUZ",
      "house": "",
      "postcode": "5120-505",
      "city": "VALENÇA DO DOURO",
      "lon": "-7.555832764350278",
      "lat": "41.15817629333698"
    },
    {
      "id": "pt.ine.add.PTCONT.5501420",
      "street": "R FLORES",
      "house": "",
      "postcode": "5120-508",
      "city": "VALENÇA DO DOURO",
      "lon": "-7.555847916868925",
      "lat": "41.157807191907445"
    },
    {
      "id": "pt.ine.add.PTCONT.5509892",
      "street": "R CIMO POVO",
      "house": "",
      "postcode": "5120-503",
      "city": "VALENÇA DO DOURO",
      "lon": "-7.554694208323792",
      "lat": "41.15758530042889"
    },
    {
      "id": "pt.ine.add.PTCONT.5529654",
      "street": "R CIMO DO POVO",
      "house": "",
      "postcode": "5120-503",
      "city": "VALENÇA DO DOURO",
      "lon": "-7.553716275054245",
      "lat": "41.15769744176342"
    },
    {
      "id": "pt.ine.add.PTCONT.5552058",
      "street": "R CIMO DO POVO",
      "house": "",
      "postcode": "5120-503",
      "city": "VALENÇA DO DOURO",
      "lon": "-7.553356490947203",
      "lat": "41.157965761240185"
    },
    {
      "id": "pt.ine.add.PTCONT.5561335",
      "street": "R CIMO DO POVO",
      "house": "",
      "postcode": "5120-503",
      "city": "VALENÇA DO DOURO",
      "lon": "-7.553007818113994",
      "lat": "41.156973529888994"
    },
    {
      "id": "pt.ine.add.PTCONT.5572080",
      "street": "R ASSUNÇÃO",
      "house": "",
      "postcode": "5120-504",
      "city": "VALENÇA DO DOURO",
      "lon": "-7.55472852394509",
      "lat": "41.15774755061562"
    },
    {
      "id": "pt.ine.add.PTCONT.5577300",
      "street": "R PRAÇA",
      "house": "19",
      "postcode": "5120-506",
      "city": "VALENÇA DO DOURO",
      "lon": "-7.553427020062216",
      "lat": "41.15807416811067"
    },
    {
      "id": "pt.ine.add.PTCONT.5584648",
      "street": "R CIMO DO POVO",
      "house": "",
      "postcode": "5120-503",
      "city": "VALENÇA DO DOURO",
      "lon": "-7.553278254107487",
      "lat": "41.15738008624322"
    },
    {
      "id": "pt.ine.add.PTCONT.5587726",
      "street": "R CIMO DO POVO",
      "house": "",
      "postcode": "5120-503",
      "city": "VALENÇA DO DOURO",
      "lon": "-7.55346418851303",
      "lat": "41.15791227729801"
    },
    {
      "id": "pt.ine.add.PTCONT.5596167",
      "street": "R CIMO DO POVO",
      "house": "",
      "postcode": "5120-503",
      "city": "VALENÇA DO DOURO",
      "lon": "-7.552510795187571",
      "lat": "41.15659284397142"
    },
    {
      "id": "pt.ine.add.PTCONT.5607695",
      "street": "R FLORES",
      "house": "6",
      "postcode": "5120-504",
      "city": "VALENÇA DO DOURO",
      "lon": "-7.555420928637123",
      "lat": "41.15758894740831"
    },
    {
      "id": "pt.ine.add.PTCONT.5618140",
      "street": "R CIMO DO POVO",
      "house": "",
      "postcode": "5120-503",
      "city": "VALENÇA DO DOURO",
      "lon": "-7.553229013367897",
      "lat": "41.1575599248881"
    },
    {
      "id": "pt.ine.add.PTCONT.5620858",
      "street": "R CIMO DO POVO",
      "house": "",
      "postcode": "5120-503",
      "city": "VALENÇA DO DOURO",
      "lon": "-7.552521993398494",
      "lat": "41.15667393936243"
    },
    {
      "id": "pt.ine.add.PTCONT.5627990",
      "street": "R ASSUNÇÃO",
      "house": "",
      "postcode": "5120-504",
      "city": "VALENÇA DO DOURO",
      "lon": "-7.554659022106613",
      "lat": "41.15752209344836"
    },
    {
      "id": "pt.ine.add.PTCONT.5629444",
      "street": "R ASSUNÇÃO",
      "house": "",
      "postcode": "5120-504",
      "city": "VALENÇA DO DOURO",
      "lon": "-7.553858285390885",
      "lat": "41.15780620790788"
    },
    {
      "id": "pt.ine.add.PTCONT.5641511",
      "street": "R CIMO POVO",
      "house": "4",
      "postcode": "5120-503",
      "city": "VALENÇA DO DOURO",
      "lon": "-7.553369277176945",
      "lat": "41.15786677801294"
    },
    {
      "id": "pt.ine.add.PTCONT.5641512",
      "street": "R CIMO POVO",
      "house": "4",
      "postcode": "5120-503",
      "city": "VALENÇA DO DOURO",
      "lon": "-7.553369277176945",
      "lat": "41.15786677801294"
    }
  ]
}