{
  "data": {
    "distrito": "Viseu",
    "concelho": "Tabuaço",
    "freguesia": "Valença do Douro",
    "OBJECTID": 77,
    "BGRI2021": "18191700108",
    "DT21": "18",
    "DTMN21": "1819",
    "DTMNFR21": "181917",
    "DTMNFRSEC21": "181917001",
    "SECNUM21": "001",
    "SSNUM21": "08",
    "SECSSNUM21": "00108",
    "OBJECTID_1": 198164,
    "DT": "18",
    "CC": "19",
    "fr": "17",
    "SEC": "001",
    "SS": "08"
  },
  "addresses": [
    {
      "id": "pt.ine.add.PTCONT.5427226",
      "street": "R TRINDADE",
      "house": "",
      "postcode": "5120-507",
      "city": "VALENÇA DO DOURO",
      "lon": "-7.554592804658675",
      "lat": "41.158278124272044"
    },
    {
      "id": "pt.ine.add.PTCONT.5433256",
      "street": "R TRINDADE",
      "house": "9",
      "postcode": "5120-507",
      "city": "VALENÇA DO DOURO",
      "lon": "-7.5548918309233395",
      "lat": "41.15814456084859"
    },
    {
      "id": "pt.ine.add.PTCONT.5438498",
      "street": "R ASSUNÇÃO",
      "house": "",
      "postcode": "5120-504",
      "city": "VALENÇA DO DOURO",
      "lon": "-7.553689276375205",
      "lat": "41.15805747898611"
    },
    {
      "id": "pt.ine.add.PTCONT.5446155",
      "street": "R CENTRAL",
      "house": "",
      "postcode": "5120-502",
      "city": "VALENÇA DO DOURO",
      "lon": "-7.555312811363565",
      "lat": "41.15904710584239"
    },
    {
      "id": "pt.ine.add.PTCONT.5484477",
      "street": "R ASSUNÇÃO",
      "house": "8",
      "postcode": "5120-504",
      "city": "VALENÇA DO DOURO",
      "lon": "-7.553533528013407",
      "lat": "41.15815574299912"
    },
    {
      "id": "pt.ine.add.PTCONT.5487637",
      "street": "R TRINDADE",
      "house": "5",
      "postcode": "5120-507",
      "city": "VALENÇA DO DOURO",
      "lon": "-7.55478334266831",
      "lat": "41.158288085409275"
    },
    {
      "id": "pt.ine.add.PTCONT.5493632",
      "street": "R CRUZ",
      "house": "",
      "postcode": "5120-505",
      "city": "VALENÇA DO DOURO",
      "lon": "-7.555760097842001",
      "lat": "41.15831099401663"
    },
    {
      "id": "pt.ine.add.PTCONT.5516454",
      "street": "R SANTO ANTÓNIO",
      "house": "",
      "postcode": "5120-510",
      "city": "VALENÇA DO DOURO",
      "lon": "-7.553580230486921",
      "lat": "41.15826402988306"
    },
    {
      "id": "pt.ine.add.PTCONT.5517343",
      "street": "R ASSUNÇÃO",
      "house": "10",
      "postcode": "5120-504",
      "city": "VALENÇA DO DOURO",
      "lon": "-7.55540356011423",
      "lat": "41.15821015880061"
    },
    {
      "id": "pt.ine.add.PTCONT.5539229",
      "street": "R TRINDADE",
      "house": "2",
      "postcode": "5120-507",
      "city": "VALENÇA DO DOURO",
      "lon": "-7.554952031640179",
      "lat": "41.15807282842661"
    },
    {
      "id": "pt.ine.add.PTCONT.5552057",
      "street": "LG FONTE",
      "house": "2",
      "postcode": "5120-501",
      "city": "VALENÇA DO DOURO",
      "lon": "-7.553927309197595",
      "lat": "41.158085689093014"
    },
    {
      "id": "pt.ine.add.PTCONT.5561802",
      "street": "R ASSUNÇÃO",
      "house": "",
      "postcode": "5120-504",
      "city": "VALENÇA DO DOURO",
      "lon": "-7.554774436654447",
      "lat": "41.1579458763196"
    },
    {
      "id": "pt.ine.add.PTCONT.5568122",
      "street": "R ASSUNÇÃO",
      "house": "",
      "postcode": "5120-504",
      "city": "VALENÇA DO DOURO",
      "lon": "-7.554084403891438",
      "lat": "41.157834357774355"
    },
    {
      "id": "pt.ine.add.PTCONT.5577284",
      "street": "R ASSUNÇÃO",
      "house": "8",
      "postcode": "5120-504",
      "city": "VALENÇA DO DOURO",
      "lon": "-7.553988461945228",
      "lat": "41.15790591005409"
    },
    {
      "id": "pt.ine.add.PTCONT.5577285",
      "street": "R TRINDADE",
      "house": "8",
      "postcode": "5120-507",
      "city": "VALENÇA DO DOURO",
      "lon": "-7.554737350554043",
      "lat": "41.158098763647054"
    },
    {
      "id": "pt.ine.add.PTCONT.5594015",
      "street": "R TRINDADE",
      "house": "7",
      "postcode": "5120-507",
      "city": "VALENÇA DO DOURO",
      "lon": "-7.554831630074689",
      "lat": "41.15821629323736"
    },
    {
      "id": "pt.ine.add.PTCONT.5596122",
      "street": "R TRINDADE",
      "house": "",
      "postcode": "5120-507",
      "city": "VALENÇA DO DOURO",
      "lon": "-7.554507667625268",
      "lat": "41.15847579179697"
    },
    {
      "id": "pt.ine.add.PTCONT.5597727",
      "street": "R S GONÇALO",
      "house": "",
      "postcode": "5120-511",
      "city": "VALENÇA DO DOURO",
      "lon": "-7.55350882840399",
      "lat": "41.15825466629401"
    },
    {
      "id": "pt.ine.add.PTCONT.5599508",
      "street": "R TRINDADE",
      "house": "",
      "postcode": "5120-507",
      "city": "VALENÇA DO DOURO",
      "lon": "-7.5551544035605405",
      "lat": "41.158091852673024"
    },
    {
      "id": "pt.ine.add.PTCONT.5606623",
      "street": "R ASSUNÇÃO",
      "house": "",
      "postcode": "5120-504",
      "city": "VALENÇA DO DOURO",
      "lon": "-7.554572540339232",
      "lat": "41.15787282783921"
    },
    {
      "id": "pt.ine.add.PTCONT.5612532",
      "street": "R CENTRAL",
      "house": "",
      "postcode": "5120-502",
      "city": "VALENÇA DO DOURO",
      "lon": "-7.555467768684949",
      "lat": "41.15903887871475"
    },
    {
      "id": "pt.ine.add.PTCONT.5616602",
      "street": "R TRINDADE",
      "house": "",
      "postcode": "5120-507",
      "city": "VALENÇA DO DOURO",
      "lon": "-7.554651026737855",
      "lat": "41.158431490204336"
    },
    {
      "id": "pt.ine.add.PTCONT.5616603",
      "street": "R ASSUNCAO",
      "house": "11",
      "postcode": "5120-504",
      "city": "VALENÇA DO DOURO",
      "lon": "-7.554651026737855",
      "lat": "41.158431490204336"
    },
    {
      "id": "pt.ine.add.PTCONT.5616604",
      "street": "R FLORES",
      "house": "",
      "postcode": "5120-508",
      "city": "VALENÇA DO DOURO",
      "lon": "-7.555623042099956",
      "lat": "41.15899463566565"
    },
    {
      "id": "pt.ine.add.PTCONT.5620007",
      "street": "R CENTRAL",
      "house": "1",
      "postcode": "5120-502",
      "city": "VALENÇA DO DOURO",
      "lon": "-7.554684946871144",
      "lat": "41.158638760018924"
    },
    {
      "id": "pt.ine.add.PTCONT.5623779",
      "street": "R CENTRAL",
      "house": "9",
      "postcode": "5120-502",
      "city": "VALENÇA DO DOURO",
      "lon": "-7.5555981081892964",
      "lat": "41.15912057119688"
    },
    {
      "id": "pt.ine.add.PTCONT.5634551",
      "street": "LG FONTE",
      "house": "",
      "postcode": "5120-501",
      "city": "VALENÇA DO DOURO",
      "lon": "-7.554320297477368",
      "lat": "41.15810567311042"
    },
    {
      "id": "pt.ine.add.PTCONT.5642733",
      "street": "R S GONÇALO",
      "house": "4",
      "postcode": "5120-511",
      "city": "VALENÇA DO DOURO",
      "lon": "-7.553747020431462",
      "lat": "41.15826486892432"
    },
    {
      "id": "pt.ine.add.PTCONT.5642734",
      "street": "R TRINDADE",
      "house": "",
      "postcode": "5120-507",
      "city": "VALENÇA DO DOURO",
      "lon": "-7.5547333929521585",
      "lat": "41.15854896004007"
    },
    {
      "id": "pt.ine.add.PTCONT.5644587",
      "street": "LG FONTE",
      "house": "",
      "postcode": "5120-501",
      "city": "VALENÇA DO DOURO",
      "lon": "-7.553807301779837",
      "lat": "41.15818413318455"
    },
    {
      "id": "pt.ine.add.PTCONT.5649344",
      "street": "R ASSUNÇÃO",
      "house": "",
      "postcode": "5120-504",
      "city": "VALENÇA DO DOURO",
      "lon": "-7.553605564442036",
      "lat": "41.158093075161396"
    },
    {
      "id": "pt.ine.add.PTCONT.5659456",
      "street": "R CENTRAL",
      "house": "3",
      "postcode": "5120-502",
      "city": "VALENÇA DO DOURO",
      "lon": "-7.555218371630046",
      "lat": "41.15894758450465"
    },
    {
      "id": "pt.ine.add.PTCONT.5667062",
      "street": "R CRUZ",
      "house": "",
      "postcode": "5120-505",
      "city": "VALENÇA DO DOURO",
      "lon": "-7.5556517692470075",
      "lat": "41.15843651154338"
    }
  ]
}