{
  "data": {
    "distrito": "Leiria",
    "concelho": "Leiria",
    "freguesia": "Regueira de Pontes",
    "OBJECTID": 1633,
    "BGRI2021": "10092100209",
    "DT21": "10",
    "DTMN21": "1009",
    "DTMNFR21": "100921",
    "DTMNFRSEC21": "100921002",
    "SECNUM21": "002",
    "SSNUM21": "09",
    "SECSSNUM21": "00209",
    "OBJECTID_1": 90712,
    "DT": "10",
    "CC": "09",
    "fr": "21",
    "SEC": "002",
    "SS": "09"
  },
  "addresses": [
    {
      "id": "pt.ine.add.PTCONT.1985111",
      "street": "R NSA SRA DE FÁTIMA",
      "house": "59",
      "postcode": "2415-027",
      "city": "REGUEIRA DE PONTES",
      "lon": "-8.825541181851356",
      "lat": "39.797580946248495"
    },
    {
      "id": "pt.ine.add.PTCONT.1997393",
      "street": "R ROMEIRINHA",
      "house": "10",
      "postcode": "2415-030",
      "city": "REGUEIRA DE PONTES",
      "lon": "-8.825280423346896",
      "lat": "39.80185153122024"
    },
    {
      "id": "pt.ine.add.PTCONT.2022633",
      "street": "R FERNANDEIRA",
      "house": "344",
      "postcode": "2415-198",
      "city": "REGUEIRA DE PONTES",
      "lon": "-8.826275237486218",
      "lat": "39.80091793482663"
    },
    {
      "id": "pt.ine.add.PTCONT.2026577",
      "street": "R CABOUCO",
      "house": "160",
      "postcode": "2415-030",
      "city": "REGUEIRA DE PONTES",
      "lon": "-8.824113373103364",
      "lat": "39.80191252525329"
    },
    {
      "id": "pt.ine.add.PTCONT.2070648",
      "street": "R ROMEIRINHA",
      "house": "60",
      "postcode": "2415-030",
      "city": "REGUEIRA DE PONTES",
      "lon": "-8.824746128548377",
      "lat": "39.80213391512767"
    },
    {
      "id": "pt.ine.add.PTCONT.2074675",
      "street": "R NSA SRA DE FÁTIMA",
      "house": "79",
      "postcode": "2415-027",
      "city": "REGUEIRA DE PONTES",
      "lon": "-8.82537637479917",
      "lat": "39.7974468336533"
    },
    {
      "id": "pt.ine.add.PTCONT.2160387",
      "street": "TV RUA DO CABOUÇO",
      "house": "175",
      "postcode": "2415-030",
      "city": "REGUEIRA DE PONTES",
      "lon": "-8.824121893913832",
      "lat": "39.80159725092629"
    },
    {
      "id": "pt.ine.add.PTCONT.2169167",
      "street": "R ROMEIRINHA",
      "house": "130",
      "postcode": "2415-030",
      "city": "REGUEIRA DE PONTES",
      "lon": "-8.8241853218873",
      "lat": "39.80210123091497"
    },
    {
      "id": "pt.ine.add.PTCONT.2262939",
      "street": "R FERNANDEIRA",
      "house": "325",
      "postcode": "2415-198",
      "city": "REGUEIRA DE PONTES",
      "lon": "-8.826136032558026",
      "lat": "39.80100883019006"
    },
    {
      "id": "pt.ine.add.PTCONT.2263418",
      "street": "TV RUA DO CABOUÇO",
      "house": "45",
      "postcode": "2415-030",
      "city": "REGUEIRA DE PONTES",
      "lon": "-8.824294958086202",
      "lat": "39.80138907324631"
    },
    {
      "id": "pt.ine.add.PTCONT.2265422",
      "street": "R AREEIRO",
      "house": "29",
      "postcode": "2415-027",
      "city": "REGUEIRA DE PONTES",
      "lon": "-8.825776221492282",
      "lat": "39.79773265217977"
    }
  ]
}