{
  "data": {
    "distrito": "Leiria",
    "concelho": "Leiria",
    "freguesia": "Regueira de Pontes",
    "OBJECTID": 1638,
    "BGRI2021": "10092100210",
    "DT21": "10",
    "DTMN21": "1009",
    "DTMNFR21": "100921",
    "DTMNFRSEC21": "100921002",
    "SECNUM21": "002",
    "SSNUM21": "10",
    "SECSSNUM21": "00210",
    "OBJECTID_1": 91421,
    "DT": "10",
    "CC": "09",
    "fr": "21",
    "SEC": "002",
    "SS": "10"
  },
  "addresses": [
    {
      "id": "pt.ine.add.PTCONT.1980646",
      "street": "R CANEIRA",
      "house": "",
      "postcode": "2415-192",
      "city": "REGUEIRA DE PONTES",
      "lon": "-8.83000889045938",
      "lat": "39.80179620992101"
    },
    {
      "id": "pt.ine.add.PTCONT.1980647",
      "street": "R S FRANCISCO",
      "house": "153",
      "postcode": "2415-212",
      "city": "REGUEIRA DE PONTES",
      "lon": "-8.829978709287774",
      "lat": "39.79880627025508"
    },
    {
      "id": "pt.ine.add.PTCONT.1991669",
      "street": "LG IGREJA",
      "house": "86",
      "postcode": "2415-200",
      "city": "REGUEIRA DE PONTES",
      "lon": "-8.831159905686775",
      "lat": "39.800150128967594"
    },
    {
      "id": "pt.ine.add.PTCONT.1998586",
      "street": "R CANEIRA",
      "house": "70",
      "postcode": "2415-192",
      "city": "REGUEIRA DE PONTES",
      "lon": "-8.8300481004174",
      "lat": "39.802210268167094"
    },
    {
      "id": "pt.ine.add.PTCONT.2005447",
      "street": "R S FRANCISCO",
      "house": "23",
      "postcode": "2415-212",
      "city": "REGUEIRA DE PONTES",
      "lon": "-8.830455821507186",
      "lat": "39.7998031132417"
    },
    {
      "id": "pt.ine.add.PTCONT.2009233",
      "street": "R S FRANCISCO",
      "house": "1",
      "postcode": "2415-212",
      "city": "REGUEIRA DE PONTES",
      "lon": "-8.830643904166326",
      "lat": "39.799928072224574"
    },
    {
      "id": "pt.ine.add.PTCONT.2011513",
      "street": "LG IGREJA",
      "house": "116",
      "postcode": "2415-200",
      "city": "REGUEIRA DE PONTES",
      "lon": "-8.831186444088726",
      "lat": "39.80046519289362"
    },
    {
      "id": "pt.ine.add.PTCONT.2011514",
      "street": "LG IGREJA",
      "house": "51",
      "postcode": "2415-200",
      "city": "REGUEIRA DE PONTES",
      "lon": "-8.831114386947428",
      "lat": "39.8002674858313"
    },
    {
      "id": "pt.ine.add.PTCONT.2031149",
      "street": "R D DINIS",
      "house": "110",
      "postcode": "2415-197",
      "city": "REGUEIRA DE PONTES",
      "lon": "-8.830869240545013",
      "lat": "39.80258360148501"
    },
    {
      "id": "pt.ine.add.PTCONT.2039908",
      "street": "R CANEIRA",
      "house": "62",
      "postcode": "2415-192",
      "city": "REGUEIRA DE PONTES",
      "lon": "-8.830282529079199",
      "lat": "39.80229892375526"
    },
    {
      "id": "pt.ine.add.PTCONT.2057690",
      "street": "R S FRANCISCO",
      "house": "231",
      "postcode": "2415-212",
      "city": "REGUEIRA DE PONTES",
      "lon": "-8.83071222859855",
      "lat": "39.79975654010198"
    },
    {
      "id": "pt.ine.add.PTCONT.2063784",
      "street": "R S FRANCISCO",
      "house": "165",
      "postcode": "2415-212",
      "city": "REGUEIRA DE PONTES",
      "lon": "-8.829581382865367",
      "lat": "39.798772630148065"
    },
    {
      "id": "pt.ine.add.PTCONT.2079125",
      "street": "R D JULIA SILVA CRESPO",
      "house": "62",
      "postcode": "2415-201",
      "city": "REGUEIRA DE PONTES",
      "lon": "-8.831064567279517",
      "lat": "39.80111438591326"
    },
    {
      "id": "pt.ine.add.PTCONT.2079129",
      "street": "R S FRANCISCO",
      "house": "45",
      "postcode": "2415-212",
      "city": "REGUEIRA DE PONTES",
      "lon": "-8.830570757391445",
      "lat": "39.79962229468197"
    },
    {
      "id": "pt.ine.add.PTCONT.2085053",
      "street": "R CANEIRA",
      "house": "16",
      "postcode": "2415-192",
      "city": "REGUEIRA DE PONTES",
      "lon": "-8.830799821567725",
      "lat": "39.80264706359281"
    },
    {
      "id": "pt.ine.add.PTCONT.2090326",
      "street": "R D DINIS",
      "house": "1",
      "postcode": "2415-197",
      "city": "REGUEIRA DE PONTES",
      "lon": "-8.831493823391277",
      "lat": "39.8019944289912"
    },
    {
      "id": "pt.ine.add.PTCONT.2090327",
      "street": "R D DINIS",
      "house": "170",
      "postcode": "2415-197",
      "city": "REGUEIRA DE PONTES",
      "lon": "-8.831493823391277",
      "lat": "39.8019944289912"
    },
    {
      "id": "pt.ine.add.PTCONT.2096706",
      "street": "R CANEIRA",
      "house": "230",
      "postcode": "2415-192",
      "city": "REGUEIRA DE PONTES",
      "lon": "-8.828523240031181",
      "lat": "39.80152592502081"
    },
    {
      "id": "pt.ine.add.PTCONT.2096707",
      "street": "R CONFRARIA",
      "house": "129",
      "postcode": "2415-196",
      "city": "REGUEIRA DE PONTES",
      "lon": "-8.829770919449244",
      "lat": "39.80135632596032"
    },
    {
      "id": "pt.ine.add.PTCONT.2107811",
      "street": "R CONFRARIA",
      "house": "100",
      "postcode": "2415-196",
      "city": "REGUEIRA DE PONTES",
      "lon": "-8.830047684124288",
      "lat": "39.801012421289904"
    },
    {
      "id": "pt.ine.add.PTCONT.2149330",
      "street": "R S FRANCISCO",
      "house": "127",
      "postcode": "2415-212",
      "city": "REGUEIRA DE PONTES",
      "lon": "-8.82995681288497",
      "lat": "39.79895050399977"
    },
    {
      "id": "pt.ine.add.PTCONT.2153775",
      "street": "R S FRANCISCO",
      "house": "85",
      "postcode": "2415-212",
      "city": "REGUEIRA DE PONTES",
      "lon": "-8.83024193316294",
      "lat": "39.79943513647396"
    },
    {
      "id": "pt.ine.add.PTCONT.2153776",
      "street": "R S FRANCISCO",
      "house": "85",
      "postcode": "2415-212",
      "city": "REGUEIRA DE PONTES",
      "lon": "-8.83024193316294",
      "lat": "39.79943513647396"
    },
    {
      "id": "pt.ine.add.PTCONT.2162474",
      "street": "R PEREIRO",
      "house": "74",
      "postcode": "2415-209",
      "city": "REGUEIRA DE PONTES",
      "lon": "-8.830399808684083",
      "lat": "39.80003761595255"
    },
    {
      "id": "pt.ine.add.PTCONT.2173058",
      "street": "R PEREIRO",
      "house": "117",
      "postcode": "2415-209",
      "city": "REGUEIRA DE PONTES",
      "lon": "-8.829652934308939",
      "lat": "39.80007812718952"
    },
    {
      "id": "pt.ine.add.PTCONT.2218963",
      "street": "R CANEIRA",
      "house": "",
      "postcode": "2415-192",
      "city": "REGUEIRA DE PONTES",
      "lon": "-8.830471255129043",
      "lat": "39.802486923775874"
    },
    {
      "id": "pt.ine.add.PTCONT.2229073",
      "street": "R D DINIS",
      "house": "56",
      "postcode": "2415-197",
      "city": "REGUEIRA DE PONTES",
      "lon": "-8.831110794542218",
      "lat": "39.802221893308555"
    },
    {
      "id": "pt.ine.add.PTCONT.2230073",
      "street": "R S FRANCISCO",
      "house": "85",
      "postcode": "2415-212",
      "city": "REGUEIRA DE PONTES",
      "lon": "-8.830103827517561",
      "lat": "39.79963410666741"
    },
    {
      "id": "pt.ine.add.PTCONT.2233964",
      "street": "R CANEIRA",
      "house": "102",
      "postcode": "2415-192",
      "city": "REGUEIRA DE PONTES",
      "lon": "-8.829883364418912",
      "lat": "39.802085168091395"
    },
    {
      "id": "pt.ine.add.PTCONT.2241670",
      "street": "R D DINIS",
      "house": "36",
      "postcode": "2415-197",
      "city": "REGUEIRA DE PONTES",
      "lon": "-8.831191524478088",
      "lat": "39.802122337424805"
    },
    {
      "id": "pt.ine.add.PTCONT.2268612",
      "street": "R PEREIRO",
      "house": "99",
      "postcode": "2415-209",
      "city": "REGUEIRA DE PONTES",
      "lon": "-8.830144582371615",
      "lat": "39.80020126436077"
    }
  ]
}