{
  "data": {
    "distrito": "Bragança",
    "concelho": "Mirandela",
    "freguesia": "São Salvador",
    "OBJECTID": 645,
    "BGRI2021": "04072800107",
    "DT21": "04",
    "DTMN21": "0407",
    "DTMNFR21": "040728",
    "DTMNFRSEC21": "040728001",
    "SECNUM21": "001",
    "SSNUM21": "07",
    "SECSSNUM21": "00107",
    "OBJECTID_1": 36638,
    "DT": "04",
    "CC": "07",
    "fr": "28",
    "SEC": "001",
    "SS": "07"
  },
  "addresses": [
    {
      "id": "pt.ine.add.PTCONT.850790",
      "street": "BC FUNDO DO ADRO",
      "house": "6",
      "postcode": "5370-632",
      "city": "SÃO SALVADOR",
      "lon": "-7.152213292738635",
      "lat": "41.44717554613329"
    },
    {
      "id": "pt.ine.add.PTCONT.852077",
      "street": "R FRAGAS",
      "house": "3",
      "postcode": "5370-632",
      "city": "SÃO SALVADOR",
      "lon": "-7.152360704275689",
      "lat": "41.44771702912212"
    },
    {
      "id": "pt.ine.add.PTCONT.855191",
      "street": "R FRAGAS",
      "house": "142",
      "postcode": "5370-632",
      "city": "SÃO SALVADOR",
      "lon": "-7.151800889571151",
      "lat": "41.446748851635796"
    },
    {
      "id": "pt.ine.add.PTCONT.855192",
      "street": "BC FUNDO DO ADRO",
      "house": "",
      "postcode": "5370-632",
      "city": "SÃO SALVADOR",
      "lon": "-7.152355382767107",
      "lat": "41.44727579912463"
    },
    {
      "id": "pt.ine.add.PTCONT.856116",
      "street": "R FRAGAS",
      "house": "40",
      "postcode": "5370-632",
      "city": "SÃO SALVADOR",
      "lon": "-7.152325622157176",
      "lat": "41.447662707403865"
    },
    {
      "id": "pt.ine.add.PTCONT.856704",
      "street": "R FRAGAS",
      "house": "60",
      "postcode": "5370-632",
      "city": "SÃO SALVADOR",
      "lon": "-7.152388566584312",
      "lat": "41.44745615740547"
    },
    {
      "id": "pt.ine.add.PTCONT.865137",
      "street": "BC CANTINHOS",
      "house": "",
      "postcode": "5370-632",
      "city": "SÃO SALVADOR",
      "lon": "-7.15252686174294",
      "lat": "41.44780848332305"
    },
    {
      "id": "pt.ine.add.PTCONT.871929",
      "street": "R PORTELA",
      "house": "63",
      "postcode": "5370-632",
      "city": "SÃO SALVADOR",
      "lon": "-7.1524108009947485",
      "lat": "41.44597972883503"
    },
    {
      "id": "pt.ine.add.PTCONT.872752",
      "street": "R FRAGAS",
      "house": "",
      "postcode": "5370-632",
      "city": "SÃO SALVADOR",
      "lon": "-7.152371042482086",
      "lat": "41.44782516247411"
    },
    {
      "id": "pt.ine.add.PTCONT.886834",
      "street": "R FRAGAS",
      "house": "",
      "postcode": "5370-632",
      "city": "SÃO SALVADOR",
      "lon": "-7.152164618593535",
      "lat": "41.447229153679224"
    },
    {
      "id": "pt.ine.add.PTCONT.889597",
      "street": "R PRADO",
      "house": "37",
      "postcode": "5370-632",
      "city": "SÃO SALVADOR",
      "lon": "-7.152604789631224",
      "lat": "41.44819630958111"
    },
    {
      "id": "pt.ine.add.PTCONT.889598",
      "street": "R SERRA DO PRADO",
      "house": "19",
      "postcode": "5370-632",
      "city": "SÃO SALVADOR",
      "lon": "-7.153310517112608",
      "lat": "41.4490126618943"
    },
    {
      "id": "pt.ine.add.PTCONT.893907",
      "street": "R FUNDO DO POVO",
      "house": "66",
      "postcode": "5370-632",
      "city": "SÃO SALVADOR",
      "lon": "-7.151868853684959",
      "lat": "41.446209205244365"
    },
    {
      "id": "pt.ine.add.PTCONT.893908",
      "street": "R PRADO",
      "house": "",
      "postcode": "5370-632",
      "city": "SÃO SALVADOR",
      "lon": "-7.153207569562182",
      "lat": "41.44869665315709"
    },
    {
      "id": "pt.ine.add.PTCONT.895804",
      "street": "R FUNDO DO POVO",
      "house": "",
      "postcode": "5370-632",
      "city": "SÃO SALVADOR",
      "lon": "-7.151790281129644",
      "lat": "41.44665872344824"
    },
    {
      "id": "pt.ine.add.PTCONT.905689",
      "street": "R FRAGAS",
      "house": "",
      "postcode": "5370-632",
      "city": "SÃO SALVADOR",
      "lon": "-7.151978466312565",
      "lat": "41.44687641912554"
    },
    {
      "id": "pt.ine.add.PTCONT.909555",
      "street": "R SERRA DO PRADO",
      "house": "23",
      "postcode": "5370-632",
      "city": "SÃO SALVADOR",
      "lon": "-7.1532761108445735",
      "lat": "41.44891332740093"
    },
    {
      "id": "pt.ine.add.PTCONT.916233",
      "street": "BC FUNDO DO ADRO",
      "house": "81",
      "postcode": "5370-632",
      "city": "SÃO SALVADOR",
      "lon": "-7.152828257115695",
      "lat": "41.446865656496634"
    },
    {
      "id": "pt.ine.add.PTCONT.928772",
      "street": "R PORTELA",
      "house": "",
      "postcode": "5370-632",
      "city": "SÃO SALVADOR",
      "lon": "-7.152498757609715",
      "lat": "41.44570136178446"
    },
    {
      "id": "pt.ine.add.PTCONT.932447",
      "street": "R FRAGAS",
      "house": "",
      "postcode": "5370-632",
      "city": "SÃO SALVADOR",
      "lon": "-7.152187463994231",
      "lat": "41.447301378639075"
    },
    {
      "id": "pt.ine.add.PTCONT.937829",
      "street": "R PRADO",
      "house": "",
      "postcode": "5370-632",
      "city": "SÃO SALVADOR",
      "lon": "-7.152686242564508",
      "lat": "41.44835006787801"
    },
    {
      "id": "pt.ine.add.PTCONT.942864",
      "street": "R FRAGAS",
      "house": "118",
      "postcode": "5370-632",
      "city": "SÃO SALVADOR",
      "lon": "-7.152276914988922",
      "lat": "41.44692398311509"
    },
    {
      "id": "pt.ine.add.PTCONT.944840",
      "street": "BC CRUZEIRO",
      "house": "18",
      "postcode": "5370-632",
      "city": "SÃO SALVADOR",
      "lon": "-7.152159027171008",
      "lat": "41.44680592887562"
    }
  ]
}