{
  "data": {
    "distrito": "Aveiro",
    "concelho": "Anadia",
    "freguesia": "Vilarinho do Bairro",
    "OBJECTID": 718,
    "BGRI2021": "01031300333",
    "DT21": "01",
    "DTMN21": "0103",
    "DTMNFR21": "010313",
    "DTMNFRSEC21": "010313003",
    "SECNUM21": "003",
    "SSNUM21": "33",
    "SECSSNUM21": "00333",
    "OBJECTID_1": 1816,
    "DT": "01",
    "CC": "03",
    "fr": "13",
    "SEC": "003",
    "SS": "33"
  },
  "addresses": [
    {
      "id": "pt.ine.add.PTCONT.292165",
      "street": "R PRINCIPAL",
      "house": "21",
      "postcode": "3780-598",
      "city": "VILARINHO DO BAIRRO",
      "lon": "-8.564181841480526",
      "lat": "40.44503317135477"
    },
    {
      "id": "pt.ine.add.PTCONT.334378",
      "street": "R PRINCIPAL",
      "house": "19",
      "postcode": "3780-598",
      "city": "VILARINHO DO BAIRRO",
      "lon": "-8.563910050826378",
      "lat": "40.444926118964005"
    },
    {
      "id": "pt.ine.add.PTCONT.340381",
      "street": "VENDAS DE SAMEL",
      "house": "51",
      "postcode": "3780-598",
      "city": "VILARINHO DO BAIRRO",
      "lon": "-8.567282315765834",
      "lat": "40.446930726104476"
    },
    {
      "id": "pt.ine.add.PTCONT.2940",
      "street": "R PRINCIPAL",
      "house": "51",
      "postcode": "3780-598",
      "city": "VILARINHO DO BAIRRO",
      "lon": "-8.567294508727",
      "lat": "40.44699371852881"
    },
    {
      "id": "pt.ine.add.PTCONT.8169",
      "street": "R PRINCIPAL",
      "house": "",
      "postcode": "3780-598",
      "city": "VILARINHO DO BAIRRO",
      "lon": "-8.56184561452045",
      "lat": "40.44280850392402"
    },
    {
      "id": "pt.ine.add.PTCONT.29959",
      "street": "R PRINCIPAL",
      "house": "25",
      "postcode": "3780-598",
      "city": "VILARINHO DO BAIRRO",
      "lon": "-8.564559773628025",
      "lat": "40.44514883247227"
    },
    {
      "id": "pt.ine.add.PTCONT.37739",
      "street": "R PRINCIPAL",
      "house": "35",
      "postcode": "3780-598",
      "city": "VILARINHO DO BAIRRO",
      "lon": "-8.565705768997603",
      "lat": "40.44555880097383"
    },
    {
      "id": "pt.ine.add.PTCONT.49307",
      "street": "R PRINCIPAL",
      "house": "33",
      "postcode": "3780-598",
      "city": "VILARINHO DO BAIRRO",
      "lon": "-8.565457778756178",
      "lat": "40.44548768502173"
    },
    {
      "id": "pt.ine.add.PTCONT.64765",
      "street": "R PRINCIPAL",
      "house": "27",
      "postcode": "3780-598",
      "city": "VILARINHO DO BAIRRO",
      "lon": "-8.56476055600538",
      "lat": "40.445211121176726"
    },
    {
      "id": "pt.ine.add.PTCONT.67811",
      "street": "R PRINCIPAL",
      "house": "37",
      "postcode": "3780-598",
      "city": "VILARINHO DO BAIRRO",
      "lon": "-8.565788913742008",
      "lat": "40.44565754989009"
    },
    {
      "id": "pt.ine.add.PTCONT.114618",
      "street": "R PRINCIPAL",
      "house": "31",
      "postcode": "3780-598",
      "city": "VILARINHO DO BAIRRO",
      "lon": "-8.565197367649231",
      "lat": "40.445317554871934"
    },
    {
      "id": "pt.ine.add.PTCONT.137186",
      "street": "R PRINCIPAL",
      "house": "41",
      "postcode": "3780-598",
      "city": "VILARINHO DO BAIRRO",
      "lon": "-8.566960236565842",
      "lat": "40.44633757493067"
    },
    {
      "id": "pt.ine.add.PTCONT.145064",
      "street": "R PRINCIPAL",
      "house": "",
      "postcode": "3780-598",
      "city": "VILARINHO DO BAIRRO",
      "lon": "-8.56704413700465",
      "lat": "40.44655339107957"
    },
    {
      "id": "pt.ine.add.PTCONT.145065",
      "street": "R PRINCIPAL",
      "house": "17",
      "postcode": "3780-598",
      "city": "VILARINHO DO BAIRRO",
      "lon": "-8.563696506207505",
      "lat": "40.444710783426096"
    },
    {
      "id": "pt.ine.add.PTCONT.203101",
      "street": "R PRINCIPAL",
      "house": "23",
      "postcode": "3780-598",
      "city": "VILARINHO DO BAIRRO",
      "lon": "-8.564430058980612",
      "lat": "40.445140311059376"
    },
    {
      "id": "pt.ine.add.PTCONT.203102",
      "street": "R PRINCIPAL",
      "house": "23",
      "postcode": "3780-598",
      "city": "VILARINHO DO BAIRRO",
      "lon": "-8.564430058980612",
      "lat": "40.445140311059376"
    },
    {
      "id": "pt.ine.add.PTCONT.203103",
      "street": "R PRINCIPAL",
      "house": "11",
      "postcode": "3780-598",
      "city": "VILARINHO DO BAIRRO",
      "lon": "-8.562902766591106",
      "lat": "40.44408335464353"
    },
    {
      "id": "pt.ine.add.PTCONT.208620",
      "street": "R PRINCIPAL",
      "house": "49",
      "postcode": "3780-598",
      "city": "VILARINHO DO BAIRRO",
      "lon": "-8.567199167259838",
      "lat": "40.44683197830358"
    },
    {
      "id": "pt.ine.add.PTCONT.236622",
      "street": "R PRINCIPAL",
      "house": "45",
      "postcode": "3780-598",
      "city": "VILARINHO DO BAIRRO",
      "lon": "-8.567139651486901",
      "lat": "40.44674214717286"
    },
    {
      "id": "pt.ine.add.PTCONT.249526",
      "street": "R PRINCIPAL",
      "house": "39",
      "postcode": "3780-598",
      "city": "VILARINHO DO BAIRRO",
      "lon": "-8.566167256681426",
      "lat": "40.445836242426594"
    },
    {
      "id": "pt.ine.add.PTCONT.257626",
      "street": "R PRINCIPAL",
      "house": "55",
      "postcode": "3780-598",
      "city": "VILARINHO DO BAIRRO",
      "lon": "-8.567483975556405",
      "lat": "40.44712808864864"
    }
  ]
}