{
  "data": {
    "distrito": "Setúbal",
    "concelho": "Palmela",
    "freguesia": "Palmela",
    "OBJECTID": 98,
    "BGRI2021": "15080201109",
    "DT21": "15",
    "DTMN21": "1508",
    "DTMNFR21": "150802",
    "DTMNFRSEC21": "150802011",
    "SECNUM21": "011",
    "SSNUM21": "09",
    "SECSSNUM21": "01109",
    "OBJECTID_1": 165665,
    "DT": "15",
    "CC": "08",
    "fr": "02",
    "SEC": "011",
    "SS": "09"
  },
  "addresses": [
    {
      "id": "pt.ine.add.PTCONT.4711892",
      "street": "R PARQUE",
      "house": "",
      "postcode": "2950-433",
      "city": "PALMELA",
      "lon": "-8.922858214595193",
      "lat": "38.579255408917604"
    },
    {
      "id": "pt.ine.add.PTCONT.4737801",
      "street": "R S BRÁS",
      "house": "",
      "postcode": "2950-293",
      "city": "PALMELA",
      "lon": "-8.927962294615437",
      "lat": "38.5779687162361"
    },
    {
      "id": "pt.ine.add.PTCONT.4820160",
      "street": "QTA LIMAO",
      "house": "",
      "postcode": "2950-293",
      "city": "PALMELA",
      "lon": "-8.924068842514522",
      "lat": "38.57872475760818"
    },
    {
      "id": "pt.ine.add.PTCONT.4995966",
      "street": "QTA POÇO DA MACARICA",
      "house": "",
      "postcode": "2950-293",
      "city": "PALMELA",
      "lon": "-8.925539818032986",
      "lat": "38.57891298825848"
    },
    {
      "id": "pt.ine.add.PTCONT.5022013",
      "street": "R S BRÁS QTA DO SOL",
      "house": "",
      "postcode": "2950-293",
      "city": "PALMELA",
      "lon": "-8.926361956794805",
      "lat": "38.57853808247826"
    },
    {
      "id": "pt.ine.add.PTCONT.5034073",
      "street": "R S BRÁS CASA DAS COLUNAS",
      "house": "",
      "postcode": "2950-293",
      "city": "PALMELA",
      "lon": "-8.927752968276739",
      "lat": "38.57771790771922"
    },
    {
      "id": "pt.ine.add.PTCONT.5061301",
      "street": "R LUCILIO COSTA",
      "house": "",
      "postcode": "2950-433",
      "city": "PALMELA",
      "lon": "-8.923739821911795",
      "lat": "38.584303060741114"
    },
    {
      "id": "pt.ine.add.PTCONT.5095468",
      "street": "QTA LARANJINHA",
      "house": "",
      "postcode": "2950-293",
      "city": "PALMELA",
      "lon": "-8.923000287255359",
      "lat": "38.57860585897391"
    },
    {
      "id": "pt.ine.add.PTCONT.5113437",
      "street": "R S BRÁS",
      "house": "",
      "postcode": "2950-293",
      "city": "PALMELA",
      "lon": "-8.92726755442004",
      "lat": "38.577405914961545"
    },
    {
      "id": "pt.ine.add.PTCONT.5113438",
      "street": "QTA MOINHO",
      "house": "",
      "postcode": "2950-293",
      "city": "PALMELA",
      "lon": "-8.926358191967177",
      "lat": "38.57819579599767"
    },
    {
      "id": "pt.ine.add.PTCONT.5118385",
      "street": "",
      "house": "",
      "postcode": "2950-293",
      "city": "PALMELA",
      "lon": "-8.92692353536974",
      "lat": "38.578471217561976"
    },
    {
      "id": "pt.ine.add.PTCONT.5127912",
      "street": "R S BRÁS",
      "house": "",
      "postcode": "2950-293",
      "city": "PALMELA",
      "lon": "-8.925916513051922",
      "lat": "38.57873027304099"
    }
  ]
}