{
  "data": {
    "distrito": "Set√∫bal",
    "concelho": "Palmela",
    "freguesia": "Palmela",
    "OBJECTID": 34,
    "BGRI2021": "15080201112",
    "DT21": "15",
    "DTMN21": "1508",
    "DTMNFR21": "150802",
    "DTMNFRSEC21": "150802011",
    "SECNUM21": "011",
    "SSNUM21": "12",
    "SECSSNUM21": "01112",
    "OBJECTID_1": 165158,
    "DT": "15",
    "CC": "08",
    "fr": "02",
    "SEC": "011",
    "SS": "12"
  },
  "addresses": [
    {
      "id": "pt.ine.add.PTCONT.4723389",
      "street": "VILLA ITALIA",
      "house": "5",
      "postcode": "2950-436",
      "city": "PALMELA",
      "lon": "-8.919668970674994",
      "lat": "38.58671766392275"
    },
    {
      "id": "pt.ine.add.PTCONT.4740628",
      "street": "QTA DOS COUTOS",
      "house": "",
      "postcode": "2950-436",
      "city": "PALMELA",
      "lon": "-8.91795037292263",
      "lat": "38.586990439400225"
    },
    {
      "id": "pt.ine.add.PTCONT.4743843",
      "street": "QTA VALE DE TOUROS",
      "house": "",
      "postcode": "2950-436",
      "city": "PALMELA",
      "lon": "-8.92008946326423",
      "lat": "38.586336492698166"
    },
    {
      "id": "pt.ine.add.PTCONT.4804908",
      "street": "",
      "house": "",
      "postcode": "2950-436",
      "city": "PALMELA",
      "lon": "-8.920943131890349",
      "lat": "38.58673611828128"
    },
    {
      "id": "pt.ine.add.PTCONT.4872857",
      "street": "ESTR RESTAURADORES DE PALMELA",
      "house": "",
      "postcode": "2950-042",
      "city": "PALMELA",
      "lon": "-8.918557347158812",
      "lat": "38.5879232202647"
    },
    {
      "id": "pt.ine.add.PTCONT.4875605",
      "street": "",
      "house": "",
      "postcode": "2950-436",
      "city": "PALMELA",
      "lon": "-8.921245507913838",
      "lat": "38.58604945914813"
    },
    {
      "id": "pt.ine.add.PTCONT.4952556",
      "street": "ESTR RESTAURADORES DO CONCELHODE PALMELA",
      "house": "",
      "postcode": "2950-425",
      "city": "PALMELA",
      "lon": "-8.91843394817341",
      "lat": "38.58713132673069"
    },
    {
      "id": "pt.ine.add.PTCONT.4984407",
      "street": "R S FRANCISCO",
      "house": "",
      "postcode": "2950-137",
      "city": "PALMELA",
      "lon": "-8.92291468178217",
      "lat": "38.58650663313937"
    },
    {
      "id": "pt.ine.add.PTCONT.5022012",
      "street": "QTA DOS COUTOS",
      "house": "",
      "postcode": "2950-436",
      "city": "PALMELA",
      "lon": "-8.918646404600251",
      "lat": "38.586616433436426"
    },
    {
      "id": "pt.ine.add.PTCONT.5054390",
      "street": "",
      "house": "",
      "postcode": "2950-436",
      "city": "PALMELA",
      "lon": "-8.920606482985946",
      "lat": "38.586387064160334"
    },
    {
      "id": "pt.ine.add.PTCONT.5076163",
      "street": "",
      "house": "",
      "postcode": "2950-436",
      "city": "PALMELA",
      "lon": "-8.917114772589068",
      "lat": "38.58614026077099"
    },
    {
      "id": "pt.ine.add.PTCONT.5082848",
      "street": "R S FRANCISCO",
      "house": "",
      "postcode": "2950-137",
      "city": "PALMELA",
      "lon": "-8.922719980467543",
      "lat": "38.5865439797119"
    },
    {
      "id": "pt.ine.add.PTCONT.5106236",
      "street": "QTA VALE DE TOUROS",
      "house": "",
      "postcode": "2950-436",
      "city": "PALMELA",
      "lon": "-8.919965879159493",
      "lat": "38.586580545086186"
    }
  ]
}