{
  "data": {
    "distrito": "Set√∫bal",
    "concelho": "Palmela",
    "freguesia": "Palmela",
    "OBJECTID": 967,
    "BGRI2021": "15080201126",
    "DT21": "15",
    "DTMN21": "1508",
    "DTMNFR21": "150802",
    "DTMNFRSEC21": "150802011",
    "SECNUM21": "011",
    "SSNUM21": "26",
    "SECSSNUM21": "01126",
    "OBJECTID_1": 165512,
    "DT": "15",
    "CC": "08",
    "fr": "02",
    "SEC": "011",
    "SS": "26"
  },
  "addresses": [
    {
      "id": "pt.ine.add.PTCONT.4727157",
      "street": "ESTR ORVIDAIS SOLAR SANTO ANTONIO CCI",
      "house": "CCI7406",
      "postcode": "2950-070",
      "city": "PALMELA",
      "lon": "-8.905222721096353",
      "lat": "38.5870390669371"
    },
    {
      "id": "pt.ine.add.PTCONT.4759773",
      "street": "ESTR CARRASCAS",
      "house": "",
      "postcode": "2950-121",
      "city": "PALMELA",
      "lon": "-8.906917208655207",
      "lat": "38.592000403639055"
    },
    {
      "id": "pt.ine.add.PTCONT.4783166",
      "street": "ESTR CARRASCAS",
      "house": "",
      "postcode": "2950-121",
      "city": "PALMELA",
      "lon": "-8.909910824819464",
      "lat": "38.59073744000616"
    },
    {
      "id": "pt.ine.add.PTCONT.4823534",
      "street": "R PONTE QTA DO PARAISO",
      "house": "",
      "postcode": "2950-007",
      "city": "PALMELA",
      "lon": "-8.905774744860173",
      "lat": "38.58714352225136"
    },
    {
      "id": "pt.ine.add.PTCONT.4826981",
      "street": "ESTR CARRASCAS",
      "house": "",
      "postcode": "2950-121",
      "city": "PALMELA",
      "lon": "-8.904436112201019",
      "lat": "38.592899586019634"
    },
    {
      "id": "pt.ine.add.PTCONT.4830094",
      "street": "R PONTE QTA NOVA DE URVIDAIS",
      "house": "",
      "postcode": "2950-422",
      "city": "PALMELA",
      "lon": "-8.908008237050707",
      "lat": "38.585651409385086"
    },
    {
      "id": "pt.ine.add.PTCONT.4866332",
      "street": "R PONTE OUINTA DOS ARCOS",
      "house": "",
      "postcode": "2950-007",
      "city": "PALMELA",
      "lon": "-8.906806845391433",
      "lat": "38.58706463808959"
    },
    {
      "id": "pt.ine.add.PTCONT.4977334",
      "street": "ESTR CARRASCAS",
      "house": "",
      "postcode": "2950-121",
      "city": "PALMELA",
      "lon": "-8.904563139236076",
      "lat": "38.591898838564646"
    },
    {
      "id": "pt.ine.add.PTCONT.4999177",
      "street": "ORVIDAIS",
      "house": "",
      "postcode": "2950-007",
      "city": "PALMELA",
      "lon": "-8.906302658196001",
      "lat": "38.587140035761664"
    },
    {
      "id": "pt.ine.add.PTCONT.5095469",
      "street": "ESTR CARRASCAS CASA PALMELA",
      "house": "",
      "postcode": "2950-121",
      "city": "PALMELA",
      "lon": "-8.903475884330732",
      "lat": "38.587897349836815"
    },
    {
      "id": "pt.ine.add.PTCONT.5111002",
      "street": "QTA S SILVESTRE ORVIDAIS DIANTE",
      "house": "",
      "postcode": "2950-070",
      "city": "PALMELA",
      "lon": "-8.905972629464273",
      "lat": "38.586331476960424"
    }
  ]
}