{
  "data": {
    "distrito": "Set√∫bal",
    "concelho": "Palmela",
    "freguesia": "Palmela",
    "OBJECTID": 311,
    "BGRI2021": "15080201128",
    "DT21": "15",
    "DTMN21": "1508",
    "DTMNFR21": "150802",
    "DTMNFRSEC21": "150802011",
    "SECNUM21": "011",
    "SSNUM21": "28",
    "SECSSNUM21": "01128",
    "OBJECTID_1": 165513,
    "DT": "15",
    "CC": "08",
    "fr": "02",
    "SEC": "011",
    "SS": "28"
  },
  "addresses": [
    {
      "id": "pt.ine.add.PTCONT.4668381",
      "street": "R SOMBREIREIROS",
      "house": "5",
      "postcode": "2950-039",
      "city": "PALMELA",
      "lon": "-8.915702201478066",
      "lat": "38.59240140506378"
    },
    {
      "id": "pt.ine.add.PTCONT.4668517",
      "street": "R AMIGOS",
      "house": "5",
      "postcode": "2950-081",
      "city": "PALMELA",
      "lon": "-8.915577931764117",
      "lat": "38.59469932513914"
    },
    {
      "id": "pt.ine.add.PTCONT.4669632",
      "street": "R AMIGOS",
      "house": "5",
      "postcode": "2950-081",
      "city": "PALMELA",
      "lon": "-8.915577931764117",
      "lat": "38.59469932513914"
    },
    {
      "id": "pt.ine.add.PTCONT.4679408",
      "street": "R AMIGOS",
      "house": "2",
      "postcode": "2950-081",
      "city": "PALMELA",
      "lon": "-8.916531156021113",
      "lat": "38.5947469969536"
    },
    {
      "id": "pt.ine.add.PTCONT.4697678",
      "street": "R SOMBREIREIROS",
      "house": "7",
      "postcode": "2950-039",
      "city": "PALMELA",
      "lon": "-8.915711527211934",
      "lat": "38.59220316242188"
    },
    {
      "id": "pt.ine.add.PTCONT.4723273",
      "street": "R SOMBREIREIROS",
      "house": "1",
      "postcode": "2950-039",
      "city": "PALMELA",
      "lon": "-8.916011009393072",
      "lat": "38.59230024947761"
    },
    {
      "id": "pt.ine.add.PTCONT.4729391",
      "street": "R HOLANDA",
      "house": "",
      "postcode": "2950-436",
      "city": "PALMELA",
      "lon": "-8.916287858634737",
      "lat": "38.59137055301329"
    },
    {
      "id": "pt.ine.add.PTCONT.4754429",
      "street": "R PARIS",
      "house": "",
      "postcode": "2950-081",
      "city": "PALMELA",
      "lon": "-8.916738653293876",
      "lat": "38.593772723078246"
    },
    {
      "id": "pt.ine.add.PTCONT.4759907",
      "street": "R PARIS",
      "house": "",
      "postcode": "2950-081",
      "city": "PALMELA",
      "lon": "-8.91711053493721",
      "lat": "38.5941936173327"
    },
    {
      "id": "pt.ine.add.PTCONT.4759908",
      "street": "R MONTE LAGARTO",
      "house": "",
      "postcode": "2950-081",
      "city": "PALMELA",
      "lon": "-8.91880654888173",
      "lat": "38.593939021849295"
    },
    {
      "id": "pt.ine.add.PTCONT.4763305",
      "street": "AV HOLANDA QTA KULENGA",
      "house": "",
      "postcode": "2950-040",
      "city": "PALMELA",
      "lon": "-8.915526426162792",
      "lat": "38.59206927716218"
    },
    {
      "id": "pt.ine.add.PTCONT.4774285",
      "street": "R MONTE LAGARTO",
      "house": "32",
      "postcode": "2950-081",
      "city": "PALMELA",
      "lon": "-8.916490728166993",
      "lat": "38.59525172622703"
    },
    {
      "id": "pt.ine.add.PTCONT.4781919",
      "street": "R ROTERDAO",
      "house": "",
      "postcode": "2950-039",
      "city": "PALMELA",
      "lon": "-8.917805860001465",
      "lat": "38.592693597263846"
    },
    {
      "id": "pt.ine.add.PTCONT.4782242",
      "street": "R PARIS",
      "house": "7",
      "postcode": "2950-081",
      "city": "PALMELA",
      "lon": "-8.917238060975968",
      "lat": "38.594309869412584"
    },
    {
      "id": "pt.ine.add.PTCONT.4795730",
      "street": "R AMIGOS",
      "house": "7",
      "postcode": "2950-081",
      "city": "PALMELA",
      "lon": "-8.9157013486542",
      "lat": "38.59443726234313"
    },
    {
      "id": "pt.ine.add.PTCONT.4806962",
      "street": "R AMIGOS",
      "house": "20",
      "postcode": "2950-081",
      "city": "PALMELA",
      "lon": "-8.916118942397032",
      "lat": "38.59483983763367"
    },
    {
      "id": "pt.ine.add.PTCONT.4815032",
      "street": "R PARIS CASA DO PINHEIRO",
      "house": "254",
      "postcode": "2950-081",
      "city": "PALMELA",
      "lon": "-8.91745221253482",
      "lat": "38.593948106687144"
    },
    {
      "id": "pt.ine.add.PTCONT.4823612",
      "street": "R MONTE LAGARTO",
      "house": "",
      "postcode": "2950-081",
      "city": "PALMELA",
      "lon": "-8.91900999976237",
      "lat": "38.593649393653294"
    },
    {
      "id": "pt.ine.add.PTCONT.4831716",
      "street": "R PARIS",
      "house": "8",
      "postcode": "2950-081",
      "city": "PALMELA",
      "lon": "-8.917708932073952",
      "lat": "38.59433373802855"
    },
    {
      "id": "pt.ine.add.PTCONT.4844864",
      "street": "R HOLANDA",
      "house": "",
      "postcode": "2950-436",
      "city": "PALMELA",
      "lon": "-8.91618339124853",
      "lat": "38.591263153722636"
    },
    {
      "id": "pt.ine.add.PTCONT.4852080",
      "street": "R PARIS",
      "house": "",
      "postcode": "2950-081",
      "city": "PALMELA",
      "lon": "-8.917469767159604",
      "lat": "38.59450649685751"
    },
    {
      "id": "pt.ine.add.PTCONT.4859420",
      "street": "R HOLANDA",
      "house": "",
      "postcode": "2950-436",
      "city": "PALMELA",
      "lon": "-8.915847721693678",
      "lat": "38.59100416158067"
    },
    {
      "id": "pt.ine.add.PTCONT.4866247",
      "street": "R AMIGOS",
      "house": "26",
      "postcode": "2950-081",
      "city": "PALMELA",
      "lon": "-8.915240335206645",
      "lat": "38.59320622197961"
    },
    {
      "id": "pt.ine.add.PTCONT.4875603",
      "street": "R HOLANDA",
      "house": "",
      "postcode": "2950-436",
      "city": "PALMELA",
      "lon": "-8.916032918391245",
      "lat": "38.59114705392054"
    },
    {
      "id": "pt.ine.add.PTCONT.4883773",
      "street": "R EMIGRANTES",
      "house": "",
      "postcode": "2950-039",
      "city": "PALMELA",
      "lon": "-8.917149614864623",
      "lat": "38.591454864841296"
    },
    {
      "id": "pt.ine.add.PTCONT.4883962",
      "street": "R AMIGOS",
      "house": "13",
      "postcode": "2950-081",
      "city": "PALMELA",
      "lon": "-8.91536400397533",
      "lat": "38.59402514094088"
    },
    {
      "id": "pt.ine.add.PTCONT.4883963",
      "street": "R MONTE LAGARTO",
      "house": "",
      "postcode": "2950-081",
      "city": "PALMELA",
      "lon": "-8.91868392953132",
      "lat": "38.59427314806312"
    },
    {
      "id": "pt.ine.add.PTCONT.4893316",
      "street": "R AMIGOS",
      "house": "15",
      "postcode": "2950-081",
      "city": "PALMELA",
      "lon": "-8.915246981458086",
      "lat": "38.59381873467771"
    },
    {
      "id": "pt.ine.add.PTCONT.4896506",
      "street": "R PARIS",
      "house": "2",
      "postcode": "2950-081",
      "city": "PALMELA",
      "lon": "-8.918070031401504",
      "lat": "38.59481775877656"
    },
    {
      "id": "pt.ine.add.PTCONT.4901777",
      "street": "R PARIS",
      "house": "4",
      "postcode": "2950-081",
      "city": "PALMELA",
      "lon": "-8.918034421597104",
      "lat": "38.59470989934808"
    },
    {
      "id": "pt.ine.add.PTCONT.4907159",
      "street": "R PARIS",
      "house": "",
      "postcode": "2950-081",
      "city": "PALMELA",
      "lon": "-8.916765819112765",
      "lat": "38.594159893404324"
    },
    {
      "id": "pt.ine.add.PTCONT.4921472",
      "street": "R AMIGOS",
      "house": "",
      "postcode": "2950-081",
      "city": "PALMELA",
      "lon": "-8.915858903615856",
      "lat": "38.59414794650406"
    },
    {
      "id": "pt.ine.add.PTCONT.4921473",
      "street": "R PARIS",
      "house": "6",
      "postcode": "2950-081",
      "city": "PALMELA",
      "lon": "-8.917733848118326",
      "lat": "38.594513734785316"
    },
    {
      "id": "pt.ine.add.PTCONT.4926540",
      "street": "R AMIGOS",
      "house": "11",
      "postcode": "2950-081",
      "city": "PALMELA",
      "lon": "-8.915308767219418",
      "lat": "38.59422369037139"
    },
    {
      "id": "pt.ine.add.PTCONT.4929052",
      "street": "R PARIS",
      "house": "",
      "postcode": "2950-081",
      "city": "PALMELA",
      "lon": "-8.916432091606236",
      "lat": "38.59408105395239"
    },
    {
      "id": "pt.ine.add.PTCONT.4937489",
      "street": "R AMIGOS",
      "house": "16",
      "postcode": "2950-081",
      "city": "PALMELA",
      "lon": "-8.915842731001137",
      "lat": "38.593715661459974"
    },
    {
      "id": "pt.ine.add.PTCONT.4940971",
      "street": "R MINA",
      "house": "",
      "postcode": "2950-436",
      "city": "PALMELA",
      "lon": "-8.914189652400099",
      "lat": "38.59263671478748"
    },
    {
      "id": "pt.ine.add.PTCONT.4945479",
      "street": "R HOLANDA",
      "house": "",
      "postcode": "2950-436",
      "city": "PALMELA",
      "lon": "-8.91572030160049",
      "lat": "38.590896915377805"
    },
    {
      "id": "pt.ine.add.PTCONT.4959203",
      "street": "R AMIGOS",
      "house": "",
      "postcode": "2950-081",
      "city": "PALMELA",
      "lon": "-8.915543536456251",
      "lat": "38.59364559667304"
    },
    {
      "id": "pt.ine.add.PTCONT.4984278",
      "street": "R SOMBREIREIROS",
      "house": "8",
      "postcode": "2950-039",
      "city": "PALMELA",
      "lon": "-8.915803051047389",
      "lat": "38.59217552576321"
    },
    {
      "id": "pt.ine.add.PTCONT.5009519",
      "street": "R SOMBREIREIROS",
      "house": "4",
      "postcode": "2950-039",
      "city": "PALMELA",
      "lon": "-8.915828157116884",
      "lat": "38.59237353813015"
    },
    {
      "id": "pt.ine.add.PTCONT.5009520",
      "street": "AV HOLANDA QTA KULENGA",
      "house": "",
      "postcode": "2950-040",
      "city": "PALMELA",
      "lon": "-8.915743904949231",
      "lat": "38.5920137738103"
    },
    {
      "id": "pt.ine.add.PTCONT.5014236",
      "street": "R AMIGOS",
      "house": "9",
      "postcode": "2950-081",
      "city": "PALMELA",
      "lon": "-8.915390087170165",
      "lat": "38.594313228727756"
    },
    {
      "id": "pt.ine.add.PTCONT.5017365",
      "street": "R MONTE LAGARTO",
      "house": "30",
      "postcode": "2950-081",
      "city": "PALMELA",
      "lon": "-8.916891074210517",
      "lat": "38.5951229309609"
    },
    {
      "id": "pt.ine.add.PTCONT.5024869",
      "street": "R MONTE LAGARTO",
      "house": "20",
      "postcode": "2950-081",
      "city": "PALMELA",
      "lon": "-8.918525894946017",
      "lat": "38.59451742992755"
    },
    {
      "id": "pt.ine.add.PTCONT.5033919",
      "street": "R AMIGOS",
      "house": "",
      "postcode": "2950-081",
      "city": "PALMELA",
      "lon": "-8.915562677849989",
      "lat": "38.593294149175584"
    },
    {
      "id": "pt.ine.add.PTCONT.5050383",
      "street": "R AMIGOS",
      "house": "",
      "postcode": "2950-081",
      "city": "PALMELA",
      "lon": "-8.916434734638239",
      "lat": "38.59432425742577"
    },
    {
      "id": "pt.ine.add.PTCONT.5079327",
      "street": "R SOMBREIREIROS",
      "house": "2",
      "postcode": "2950-039",
      "city": "PALMELA",
      "lon": "-8.915919681121274",
      "lat": "38.59234590137923"
    },
    {
      "id": "pt.ine.add.PTCONT.5079328",
      "street": "R SOMBREIREIROS",
      "house": "3",
      "postcode": "2950-039",
      "city": "PALMELA",
      "lon": "-8.915919681121274",
      "lat": "38.59234590137923"
    },
    {
      "id": "pt.ine.add.PTCONT.5082847",
      "street": "R PARIS",
      "house": "10",
      "postcode": "2950-081",
      "city": "PALMELA",
      "lon": "-8.917637812194728",
      "lat": "38.59412702643732"
    },
    {
      "id": "pt.ine.add.PTCONT.5093544",
      "street": "R ROTERDAO",
      "house": "2",
      "postcode": "2950-039",
      "city": "PALMELA",
      "lon": "-8.917480576974626",
      "lat": "38.59233545014441"
    },
    {
      "id": "pt.ine.add.PTCONT.5095465",
      "street": "R AMIGOS",
      "house": "",
      "postcode": "2950-081",
      "city": "PALMELA",
      "lon": "-8.916330458433583",
      "lat": "38.59423487344002"
    },
    {
      "id": "pt.ine.add.PTCONT.5095466",
      "street": "R PARIS CASA ROM√ÉO",
      "house": "",
      "postcode": "2950-081",
      "city": "PALMELA",
      "lon": "-8.91719489463035",
      "lat": "38.59456238797045"
    },
    {
      "id": "pt.ine.add.PTCONT.5106035",
      "street": "R AMIGOS",
      "house": "17 A",
      "postcode": "2950-081",
      "city": "PALMELA",
      "lon": "-8.914724832620225",
      "lat": "38.59329974800411"
    },
    {
      "id": "pt.ine.add.PTCONT.5106137",
      "street": "R PARIS",
      "house": "3",
      "postcode": "2950-081",
      "city": "PALMELA",
      "lon": "-8.917552560566001",
      "lat": "38.59473114667007"
    },
    {
      "id": "pt.ine.add.PTCONT.5119846",
      "street": "R PARIS",
      "house": "",
      "postcode": "2950-081",
      "city": "PALMELA",
      "lon": "-8.917243854975986",
      "lat": "38.593787355505604"
    },
    {
      "id": "pt.ine.add.PTCONT.5122674",
      "street": "R AMIGOS",
      "house": "",
      "postcode": "2950-081",
      "city": "PALMELA",
      "lon": "-8.915730304250198",
      "lat": "38.5939326099746"
    },
    {
      "id": "pt.ine.add.PTCONT.5125984",
      "street": "R SOMBREIREIROS",
      "house": "6",
      "postcode": "2950-039",
      "city": "PALMELA",
      "lon": "-8.91562010108682",
      "lat": "38.592239806550424"
    },
    {
      "id": "pt.ine.add.PTCONT.5130399",
      "street": "R MONTE LAGARTO",
      "house": "20",
      "postcode": "2950-081",
      "city": "PALMELA",
      "lon": "-8.918218160489575",
      "lat": "38.59471767502153"
    }
  ]
}