{
  "data": {
    "distrito": "Setúbal",
    "concelho": "Setúbal",
    "freguesia": "União das freguesias de Azeitão (São Lourenço e São Simão)",
    "OBJECTID": 388,
    "BGRI2021": "15120901313",
    "DT21": "15",
    "DTMN21": "1512",
    "DTMNFR21": "151209",
    "DTMNFRSEC21": "151209013",
    "SECNUM21": "013",
    "SSNUM21": "13",
    "SECSSNUM21": "01313",
    "OBJECTID_1": 170028,
    "DT": "15",
    "CC": "12",
    "fr": "09",
    "SEC": "013",
    "SS": "13"
  },
  "addresses": [
    {
      "id": "pt.ine.add.PTCONT.4668708",
      "street": "ESTR PORTO VELHO",
      "house": "",
      "postcode": "2925-375",
      "city": "AZEITÃO",
      "lon": "-9.047252948118553",
      "lat": "38.4937718440186"
    },
    {
      "id": "pt.ine.add.PTCONT.4723658",
      "street": "VAR ESTRADA NACIONAL 379",
      "house": "",
      "postcode": "2925-709",
      "city": "AZEITÃO",
      "lon": "-9.048810515312042",
      "lat": "38.49729091837036"
    },
    {
      "id": "pt.ine.add.PTCONT.4735260",
      "street": "ESTR PORTO VELHO",
      "house": "",
      "postcode": "2925-375",
      "city": "AZEITÃO",
      "lon": "-9.04478563399242",
      "lat": "38.4953585159172"
    },
    {
      "id": "pt.ine.add.PTCONT.4760118",
      "street": "VAR ESTRADA NACIONAL 379",
      "house": "",
      "postcode": "2925-709",
      "city": "AZEITÃO",
      "lon": "-9.049773799540583",
      "lat": "38.49641858892019"
    },
    {
      "id": "pt.ine.add.PTCONT.4779752",
      "street": "VAR ESTRADA NACIONAL 379 QTA DOS BARRANCOS",
      "house": "",
      "postcode": "2925-709",
      "city": "AZEITÃO",
      "lon": "-9.051265542735889",
      "lat": "38.49564120071654"
    },
    {
      "id": "pt.ine.add.PTCONT.4793717",
      "street": "ESTR ARCOS QTA NOVA",
      "house": "5",
      "postcode": "2925-011",
      "city": "AZEITÃO",
      "lon": "-9.045990691465079",
      "lat": "38.49638508035789"
    },
    {
      "id": "pt.ine.add.PTCONT.4805777",
      "street": "ESTR PORTO VELHO",
      "house": "",
      "postcode": "2925-375",
      "city": "AZEITÃO",
      "lon": "-9.046212372486961",
      "lat": "38.49396913518638"
    },
    {
      "id": "pt.ine.add.PTCONT.4835083",
      "street": "ESTR ARCOS",
      "house": "3",
      "postcode": "2925-011",
      "city": "AZEITÃO",
      "lon": "-9.044447693441155",
      "lat": "38.49582957626528"
    },
    {
      "id": "pt.ine.add.PTCONT.4944698",
      "street": "ESTR ARCOS QTA DO ARNEIRO",
      "house": "7",
      "postcode": "2925-011",
      "city": "AZEITÃO",
      "lon": "-9.04770700413713",
      "lat": "38.49704730982914"
    },
    {
      "id": "pt.ine.add.PTCONT.4945601",
      "street": "ESTR PORTO VELHO QTA DO CHORAO",
      "house": "",
      "postcode": "2925-375",
      "city": "AZEITÃO",
      "lon": "-9.045210831197174",
      "lat": "38.49453545238262"
    },
    {
      "id": "pt.ine.add.PTCONT.4981531",
      "street": "ESTR ARCOS",
      "house": "",
      "postcode": "2925-011",
      "city": "AZEITÃO",
      "lon": "-9.048266280723853",
      "lat": "38.49776360231388"
    },
    {
      "id": "pt.ine.add.PTCONT.5079655",
      "street": "ESTR PORTO VELHO QTA DO ESPINHEIRO",
      "house": "",
      "postcode": "2925-375",
      "city": "AZEITÃO",
      "lon": "-9.048704179279056",
      "lat": "38.49341819330917"
    },
    {
      "id": "pt.ine.add.PTCONT.5087323",
      "street": "VAR ESTRADA NACIONAL 379 QTA DOS CHOUPOS",
      "house": "",
      "postcode": "2925-709",
      "city": "AZEITÃO",
      "lon": "-9.050780803539425",
      "lat": "38.49357309766079"
    }
  ]
}