{
  "data": {
    "distrito": "Setúbal",
    "concelho": "Palmela",
    "freguesia": "Palmela",
    "OBJECTID": 908,
    "BGRI2021": "15080200804",
    "DT21": "15",
    "DTMN21": "1508",
    "DTMNFR21": "150802",
    "DTMNFRSEC21": "150802008",
    "SECNUM21": "008",
    "SSNUM21": "04",
    "SECSSNUM21": "00804",
    "OBJECTID_1": 166099,
    "DT": "15",
    "CC": "08",
    "fr": "02",
    "SEC": "008",
    "SS": "04"
  },
  "addresses": [
    {
      "id": "pt.ine.add.PTCONT.4669459",
      "street": "R ESCOLA PREPARATORIA HERMENEGILDO CAPELO",
      "house": "6",
      "postcode": "2950-246",
      "city": "PALMELA",
      "lon": "-8.901815791779766",
      "lat": "38.5742878396989"
    },
    {
      "id": "pt.ine.add.PTCONT.4671349",
      "street": "PCT SÉRGIO COSTA FERREIRA",
      "house": "",
      "postcode": "2950-355",
      "city": "PALMELA",
      "lon": "-8.902278548424693",
      "lat": "38.574453951616505"
    },
    {
      "id": "pt.ine.add.PTCONT.4671350",
      "street": "PCT SÉRGIO COSTA FERREIRA",
      "house": "",
      "postcode": "2950-355",
      "city": "PALMELA",
      "lon": "-8.902278548424693",
      "lat": "38.574453951616505"
    },
    {
      "id": "pt.ine.add.PTCONT.4671351",
      "street": "PCT SÉRGIO COSTA FERREIRA",
      "house": "",
      "postcode": "2950-355",
      "city": "PALMELA",
      "lon": "-8.902278548424693",
      "lat": "38.574453951616505"
    },
    {
      "id": "pt.ine.add.PTCONT.4671352",
      "street": "PCT SÉRGIO COSTA FERREIRA",
      "house": "",
      "postcode": "2950-355",
      "city": "PALMELA",
      "lon": "-8.902278548424693",
      "lat": "38.574453951616505"
    },
    {
      "id": "pt.ine.add.PTCONT.4671353",
      "street": "PCT SÉRGIO COSTA FERREIRA",
      "house": "",
      "postcode": "2950-355",
      "city": "PALMELA",
      "lon": "-8.902278548424693",
      "lat": "38.574453951616505"
    },
    {
      "id": "pt.ine.add.PTCONT.4671354",
      "street": "PCT SÉRGIO COSTA FERREIRA",
      "house": "",
      "postcode": "2950-355",
      "city": "PALMELA",
      "lon": "-8.902278548424693",
      "lat": "38.574453951616505"
    },
    {
      "id": "pt.ine.add.PTCONT.4693334",
      "street": "EN 379",
      "house": "",
      "postcode": "2950-302",
      "city": "PALMELA",
      "lon": "-8.902146682114857",
      "lat": "38.57733945470144"
    },
    {
      "id": "pt.ine.add.PTCONT.4714715",
      "street": "EN 379 QTA DA ATALAJA",
      "house": "",
      "postcode": "2950-024",
      "city": "PALMELA",
      "lon": "-8.901934997775909",
      "lat": "38.57793538812429"
    },
    {
      "id": "pt.ine.add.PTCONT.4714726",
      "street": "AV LIBERDADE",
      "house": "36",
      "postcode": "2950-201",
      "city": "PALMELA",
      "lon": "-8.90226223456521",
      "lat": "38.57418581630727"
    },
    {
      "id": "pt.ine.add.PTCONT.4714727",
      "street": "AV LIBERDADE",
      "house": "36",
      "postcode": "2950-201",
      "city": "PALMELA",
      "lon": "-8.90226223456521",
      "lat": "38.57418581630727"
    },
    {
      "id": "pt.ine.add.PTCONT.4728616",
      "street": "R JOÃO PARRANTÓNIO",
      "house": "",
      "postcode": "2950-311",
      "city": "PALMELA",
      "lon": "-8.901739399391195",
      "lat": "38.57681064482134"
    },
    {
      "id": "pt.ine.add.PTCONT.4740859",
      "street": "PCT SÉRGIO COSTA FERREIRA",
      "house": "",
      "postcode": "2950-355",
      "city": "PALMELA",
      "lon": "-8.90225461700031",
      "lat": "38.57478971040325"
    },
    {
      "id": "pt.ine.add.PTCONT.4740860",
      "street": "PCT SÉRGIO COSTA FERREIRA",
      "house": "",
      "postcode": "2950-355",
      "city": "PALMELA",
      "lon": "-8.90225461700031",
      "lat": "38.57478971040325"
    },
    {
      "id": "pt.ine.add.PTCONT.4740861",
      "street": "PCT SÉRGIO COSTA FERREIRA",
      "house": "",
      "postcode": "2950-355",
      "city": "PALMELA",
      "lon": "-8.90225461700031",
      "lat": "38.57478971040325"
    },
    {
      "id": "pt.ine.add.PTCONT.4740862",
      "street": "PCT SÉRGIO COSTA FERREIRA",
      "house": "",
      "postcode": "2950-355",
      "city": "PALMELA",
      "lon": "-8.90225461700031",
      "lat": "38.57478971040325"
    },
    {
      "id": "pt.ine.add.PTCONT.4740995",
      "street": "PCT SÉRGIO COSTA FERREIRA",
      "house": "",
      "postcode": "2950-355",
      "city": "PALMELA",
      "lon": "-8.90225461700031",
      "lat": "38.57478971040325"
    },
    {
      "id": "pt.ine.add.PTCONT.4783508",
      "street": "PCT SÉRGIO COSTA FERREIRA",
      "house": "20961",
      "postcode": "2950-355",
      "city": "PALMELA",
      "lon": "-8.902870442738218",
      "lat": "38.57470172784336"
    },
    {
      "id": "pt.ine.add.PTCONT.4783509",
      "street": "PCT SÉRGIO COSTA FERREIRA",
      "house": "20961",
      "postcode": "2950-355",
      "city": "PALMELA",
      "lon": "-8.902870442738218",
      "lat": "38.57470172784336"
    },
    {
      "id": "pt.ine.add.PTCONT.4783510",
      "street": "PCT SÉRGIO COSTA FERREIRA",
      "house": "20961",
      "postcode": "2950-355",
      "city": "PALMELA",
      "lon": "-8.902870442738218",
      "lat": "38.57470172784336"
    },
    {
      "id": "pt.ine.add.PTCONT.4783511",
      "street": "PCT SÉRGIO COSTA FERREIRA",
      "house": "20961",
      "postcode": "2950-355",
      "city": "PALMELA",
      "lon": "-8.902870442738218",
      "lat": "38.57470172784336"
    },
    {
      "id": "pt.ine.add.PTCONT.4783663",
      "street": "PCT SÉRGIO COSTA FERREIRA",
      "house": "20961",
      "postcode": "2950-355",
      "city": "PALMELA",
      "lon": "-8.902870442738218",
      "lat": "38.57470172784336"
    },
    {
      "id": "pt.ine.add.PTCONT.4786002",
      "street": "PCT SÉRGIO COSTA FERREIRA",
      "house": "20961",
      "postcode": "2950-355",
      "city": "PALMELA",
      "lon": "-8.902870442738218",
      "lat": "38.57470172784336"
    },
    {
      "id": "pt.ine.add.PTCONT.4786003",
      "street": "PCT SÉRGIO COSTA FERREIRA",
      "house": "20961",
      "postcode": "2950-355",
      "city": "PALMELA",
      "lon": "-8.902870442738218",
      "lat": "38.57470172784336"
    },
    {
      "id": "pt.ine.add.PTCONT.4786004",
      "street": "PCT SÉRGIO COSTA FERREIRA",
      "house": "20961",
      "postcode": "2950-355",
      "city": "PALMELA",
      "lon": "-8.902870442738218",
      "lat": "38.57470172784336"
    },
    {
      "id": "pt.ine.add.PTCONT.4790834",
      "street": "EN 379",
      "house": "",
      "postcode": "2950-302",
      "city": "PALMELA",
      "lon": "-8.902369165256033",
      "lat": "38.57668039230423"
    },
    {
      "id": "pt.ine.add.PTCONT.4802832",
      "street": "AV LIBERDADE",
      "house": "30",
      "postcode": "2950-201",
      "city": "PALMELA",
      "lon": "-8.901836052539362",
      "lat": "38.57403547623252"
    },
    {
      "id": "pt.ine.add.PTCONT.4803636",
      "street": "AV LIBERDADE",
      "house": "30",
      "postcode": "2950-201",
      "city": "PALMELA",
      "lon": "-8.901836052539362",
      "lat": "38.57403547623252"
    },
    {
      "id": "pt.ine.add.PTCONT.4819300",
      "street": "PCT SÉRGIO COSTA FERREIRA",
      "house": "",
      "postcode": "2950-355",
      "city": "PALMELA",
      "lon": "-8.902218304732784",
      "lat": "38.57461277970007"
    },
    {
      "id": "pt.ine.add.PTCONT.4819301",
      "street": "PCT SÉRGIO COSTA FERREIRA",
      "house": "",
      "postcode": "2950-355",
      "city": "PALMELA",
      "lon": "-8.902218304732784",
      "lat": "38.57461277970007"
    },
    {
      "id": "pt.ine.add.PTCONT.4819302",
      "street": "PCT SÉRGIO COSTA FERREIRA",
      "house": "",
      "postcode": "2950-355",
      "city": "PALMELA",
      "lon": "-8.902218304732784",
      "lat": "38.57461277970007"
    },
    {
      "id": "pt.ine.add.PTCONT.4819326",
      "street": "PCT SÉRGIO COSTA FERREIRA",
      "house": "",
      "postcode": "2950-355",
      "city": "PALMELA",
      "lon": "-8.902218304732784",
      "lat": "38.57461277970007"
    },
    {
      "id": "pt.ine.add.PTCONT.4819327",
      "street": "PCT SÉRGIO COSTA FERREIRA",
      "house": "",
      "postcode": "2950-355",
      "city": "PALMELA",
      "lon": "-8.902218304732784",
      "lat": "38.57461277970007"
    },
    {
      "id": "pt.ine.add.PTCONT.4819328",
      "street": "PCT SÉRGIO COSTA FERREIRA",
      "house": "",
      "postcode": "2950-355",
      "city": "PALMELA",
      "lon": "-8.902218304732784",
      "lat": "38.57461277970007"
    },
    {
      "id": "pt.ine.add.PTCONT.4826180",
      "street": "EN 379",
      "house": "56",
      "postcode": "2950-302",
      "city": "PALMELA",
      "lon": "-8.903099059212416",
      "lat": "38.57518022747544"
    },
    {
      "id": "pt.ine.add.PTCONT.4875953",
      "street": "R ESCOLA PREPARATORIA HERMENEGILDO CAPELO",
      "house": "8",
      "postcode": "2950-246",
      "city": "PALMELA",
      "lon": "-8.901803261508991",
      "lat": "38.5741888314775"
    },
    {
      "id": "pt.ine.add.PTCONT.4896941",
      "street": "AV BOMBEIROS VOLUNTARIOS",
      "house": "QUINTA",
      "postcode": "2950-209",
      "city": "PALMELA",
      "lon": "-8.900924308853577",
      "lat": "38.576779961792575"
    },
    {
      "id": "pt.ine.add.PTCONT.4907782",
      "street": "PCT SÉRGIO COSTA FERREIRA",
      "house": "1A",
      "postcode": "2950-355",
      "city": "PALMELA",
      "lon": "-8.902722124490356",
      "lat": "38.574542987300866"
    },
    {
      "id": "pt.ine.add.PTCONT.4907783",
      "street": "PCT SÉRGIO COSTA FERREIRA",
      "house": "1A",
      "postcode": "2950-355",
      "city": "PALMELA",
      "lon": "-8.902722124490356",
      "lat": "38.574542987300866"
    },
    {
      "id": "pt.ine.add.PTCONT.4907961",
      "street": "PCT SÉRGIO COSTA FERREIRA",
      "house": "1A",
      "postcode": "2950-355",
      "city": "PALMELA",
      "lon": "-8.902722124490356",
      "lat": "38.574542987300866"
    },
    {
      "id": "pt.ine.add.PTCONT.4907962",
      "street": "PCT SÉRGIO COSTA FERREIRA",
      "house": "1A",
      "postcode": "2950-355",
      "city": "PALMELA",
      "lon": "-8.902722124490356",
      "lat": "38.574542987300866"
    },
    {
      "id": "pt.ine.add.PTCONT.4907963",
      "street": "PCT SÉRGIO COSTA FERREIRA",
      "house": "1A",
      "postcode": "2950-355",
      "city": "PALMELA",
      "lon": "-8.902722124490356",
      "lat": "38.574542987300866"
    },
    {
      "id": "pt.ine.add.PTCONT.4910020",
      "street": "PCT SÉRGIO COSTA FERREIRA",
      "house": "1A",
      "postcode": "2950-355",
      "city": "PALMELA",
      "lon": "-8.902722124490356",
      "lat": "38.574542987300866"
    },
    {
      "id": "pt.ine.add.PTCONT.4910021",
      "street": "PCT SÉRGIO COSTA FERREIRA",
      "house": "1A",
      "postcode": "2950-355",
      "city": "PALMELA",
      "lon": "-8.902722124490356",
      "lat": "38.574542987300866"
    },
    {
      "id": "pt.ine.add.PTCONT.4929352",
      "street": "EN 379",
      "house": "",
      "postcode": "2950-302",
      "city": "PALMELA",
      "lon": "-8.9022478422559",
      "lat": "38.577140609060265"
    },
    {
      "id": "pt.ine.add.PTCONT.4940140",
      "street": "R ESCOLA PREPARATORIA HERMENEGILDO CAPELO",
      "house": "10",
      "postcode": "2950-246",
      "city": "PALMELA",
      "lon": "-8.901756404327063",
      "lat": "38.574099056912225"
    },
    {
      "id": "pt.ine.add.PTCONT.4950748",
      "street": "AV LIBERDADE",
      "house": "34",
      "postcode": "2950-201",
      "city": "PALMELA",
      "lon": "-8.902031499765274",
      "lat": "38.574070225346254"
    },
    {
      "id": "pt.ine.add.PTCONT.4976402",
      "street": "EN 379",
      "house": "",
      "postcode": "2950-302",
      "city": "PALMELA",
      "lon": "-8.903039058287806",
      "lat": "38.57600937895966"
    },
    {
      "id": "pt.ine.add.PTCONT.4978360",
      "street": "EN 379",
      "house": "",
      "postcode": "2950-302",
      "city": "PALMELA",
      "lon": "-8.902034238631378",
      "lat": "38.57755639082467"
    },
    {
      "id": "pt.ine.add.PTCONT.4996156",
      "street": "PCT SÉRGIO COSTA FERREIRA",
      "house": "",
      "postcode": "2950-355",
      "city": "PALMELA",
      "lon": "-8.902312593038822",
      "lat": "38.574948189499146"
    },
    {
      "id": "pt.ine.add.PTCONT.4996157",
      "street": "PCT SÉRGIO COSTA FERREIRA",
      "house": "",
      "postcode": "2950-355",
      "city": "PALMELA",
      "lon": "-8.902312593038822",
      "lat": "38.574948189499146"
    },
    {
      "id": "pt.ine.add.PTCONT.4996158",
      "street": "PCT SÉRGIO COSTA FERREIRA",
      "house": "",
      "postcode": "2950-355",
      "city": "PALMELA",
      "lon": "-8.902312593038822",
      "lat": "38.574948189499146"
    },
    {
      "id": "pt.ine.add.PTCONT.4996159",
      "street": "PCT SÉRGIO COSTA FERREIRA",
      "house": "",
      "postcode": "2950-355",
      "city": "PALMELA",
      "lon": "-8.902312593038822",
      "lat": "38.574948189499146"
    },
    {
      "id": "pt.ine.add.PTCONT.4996160",
      "street": "PCT SÉRGIO COSTA FERREIRA",
      "house": "",
      "postcode": "2950-355",
      "city": "PALMELA",
      "lon": "-8.902312593038822",
      "lat": "38.574948189499146"
    },
    {
      "id": "pt.ine.add.PTCONT.4996161",
      "street": "PCT SÉRGIO COSTA FERREIRA",
      "house": "",
      "postcode": "2950-355",
      "city": "PALMELA",
      "lon": "-8.902312593038822",
      "lat": "38.574948189499146"
    },
    {
      "id": "pt.ine.add.PTCONT.4998275",
      "street": "EN 379",
      "house": "",
      "postcode": "2950-302",
      "city": "PALMELA",
      "lon": "-8.901671798740116",
      "lat": "38.576928195655874"
    },
    {
      "id": "pt.ine.add.PTCONT.5060432",
      "street": "EN 379",
      "house": "60",
      "postcode": "2950-302",
      "city": "PALMELA",
      "lon": "-8.903088930932856",
      "lat": "38.5753064092738"
    },
    {
      "id": "pt.ine.add.PTCONT.5083442",
      "street": "AV LIBERDADE",
      "house": "35",
      "postcode": "2950-201",
      "city": "PALMELA",
      "lon": "-8.902135440773918",
      "lat": "38.574132600073426"
    },
    {
      "id": "pt.ine.add.PTCONT.5099864",
      "street": "PCT SÉRGIO COSTA FERREIRA",
      "house": "2060 6",
      "postcode": "2950-355",
      "city": "PALMELA",
      "lon": "-8.902918110435408",
      "lat": "38.57486727832643"
    },
    {
      "id": "pt.ine.add.PTCONT.5099865",
      "street": "PCT SÉRGIO COSTA FERREIRA",
      "house": "2060 6",
      "postcode": "2950-355",
      "city": "PALMELA",
      "lon": "-8.902918110435408",
      "lat": "38.57486727832643"
    },
    {
      "id": "pt.ine.add.PTCONT.5099866",
      "street": "PCT SÉRGIO COSTA FERREIRA",
      "house": "2060 6",
      "postcode": "2950-355",
      "city": "PALMELA",
      "lon": "-8.902918110435408",
      "lat": "38.57486727832643"
    },
    {
      "id": "pt.ine.add.PTCONT.5099867",
      "street": "PCT SÉRGIO COSTA FERREIRA",
      "house": "2060 6",
      "postcode": "2950-355",
      "city": "PALMELA",
      "lon": "-8.902918110435408",
      "lat": "38.57486727832643"
    },
    {
      "id": "pt.ine.add.PTCONT.5099868",
      "street": "PCT SÉRGIO COSTA FERREIRA",
      "house": "2060 6",
      "postcode": "2950-355",
      "city": "PALMELA",
      "lon": "-8.902918110435408",
      "lat": "38.57486727832643"
    },
    {
      "id": "pt.ine.add.PTCONT.5099869",
      "street": "PCT SÉRGIO COSTA FERREIRA",
      "house": "2060 6",
      "postcode": "2950-355",
      "city": "PALMELA",
      "lon": "-8.902918110435408",
      "lat": "38.57486727832643"
    },
    {
      "id": "pt.ine.add.PTCONT.5099870",
      "street": "PCT SÉRGIO COSTA FERREIRA",
      "house": "2060 6",
      "postcode": "2950-355",
      "city": "PALMELA",
      "lon": "-8.902918110435408",
      "lat": "38.57486727832643"
    },
    {
      "id": "pt.ine.add.PTCONT.5099871",
      "street": "PCT SÉRGIO COSTA FERREIRA",
      "house": "2060 6",
      "postcode": "2950-355",
      "city": "PALMELA",
      "lon": "-8.902918110435408",
      "lat": "38.57486727832643"
    },
    {
      "id": "pt.ine.add.PTCONT.5113727",
      "street": "EN 379",
      "house": "58",
      "postcode": "2950-302",
      "city": "PALMELA",
      "lon": "-8.90309973232236",
      "lat": "38.57524328063236"
    },
    {
      "id": "pt.ine.add.PTCONT.5134362",
      "street": "PCT SÉRGIO COSTA FERREIRA",
      "house": "",
      "postcode": "2950-355",
      "city": "PALMELA",
      "lon": "-8.90225461700031",
      "lat": "38.57478971040325"
    }
  ]
}