{
  "data": {
    "distrito": "Viseu",
    "concelho": "Tondela",
    "freguesia": "Campo de Besteiros",
    "OBJECTID": 1115,
    "BGRI2021": "18210200112",
    "DT21": "18",
    "DTMN21": "1821",
    "DTMNFR21": "182102",
    "DTMNFRSEC21": "182102001",
    "SECNUM21": "001",
    "SSNUM21": "12",
    "SECSSNUM21": "00112",
    "OBJECTID_1": 199296,
    "DT": "18",
    "CC": "21",
    "fr": "02",
    "SEC": "001",
    "SS": "12"
  },
  "addresses": [
    {
      "id": "pt.ine.add.PTCONT.5437170",
      "street": "R CASA DO POVO",
      "house": "180",
      "postcode": "3465-069",
      "city": "CAMPO DE BESTEIROS",
      "lon": "-8.132482587088864",
      "lat": "40.55470338771298"
    },
    {
      "id": "pt.ine.add.PTCONT.5443095",
      "street": "R DR BRAGA REAL",
      "house": "71",
      "postcode": "3465-067",
      "city": "CAMPO DE BESTEIROS",
      "lon": "-8.133438916343522",
      "lat": "40.55472139960054"
    },
    {
      "id": "pt.ine.add.PTCONT.5525071",
      "street": "R CÓNEGO NOGUEIRA",
      "house": "178",
      "postcode": "3465-070",
      "city": "CAMPO DE BESTEIROS",
      "lon": "-8.132057549651508",
      "lat": "40.554847469955114"
    },
    {
      "id": "pt.ine.add.PTCONT.5525109",
      "street": "AV DR AFONSO COSTA",
      "house": "864",
      "postcode": "3465-051",
      "city": "CAMPO DE BESTEIROS",
      "lon": "-8.133084720394043",
      "lat": "40.55434317607444"
    },
    {
      "id": "pt.ine.add.PTCONT.5532092",
      "street": "R BERNARDINO P RIBEIRO",
      "house": "",
      "postcode": "3465-063",
      "city": "CAMPO DE BESTEIROS",
      "lon": "-8.131620707595308",
      "lat": "40.554820449157894"
    },
    {
      "id": "pt.ine.add.PTCONT.5535423",
      "street": "R DR BRAGA REAL",
      "house": "237",
      "postcode": "3465-067",
      "city": "CAMPO DE BESTEIROS",
      "lon": "-8.133084720194741",
      "lat": "40.55491051206005"
    },
    {
      "id": "pt.ine.add.PTCONT.5548384",
      "street": "R DR BRAGA REAL",
      "house": "57",
      "postcode": "3465-067",
      "city": "CAMPO DE BESTEIROS",
      "lon": "-8.13328543158805",
      "lat": "40.55480244793379"
    },
    {
      "id": "pt.ine.add.PTCONT.5548385",
      "street": "R DR BRAGA REAL",
      "house": "57",
      "postcode": "3465-067",
      "city": "CAMPO DE BESTEIROS",
      "lon": "-8.13328543158805",
      "lat": "40.55480244793379"
    },
    {
      "id": "pt.ine.add.PTCONT.5558690",
      "street": "R DR BRAGA REAL",
      "house": "",
      "postcode": "3465-067",
      "city": "CAMPO DE BESTEIROS",
      "lon": "-8.133155559578881",
      "lat": "40.55486548538934"
    },
    {
      "id": "pt.ine.add.PTCONT.5583066",
      "street": "R CÓNEGO NOGUEIRA",
      "house": "167",
      "postcode": "3465-070",
      "city": "CAMPO DE BESTEIROS",
      "lon": "-8.132057554156475",
      "lat": "40.55455929929963"
    },
    {
      "id": "pt.ine.add.PTCONT.5584886",
      "street": "R COLÉGIO",
      "house": "",
      "postcode": "3465-066",
      "city": "CAMPO DE BESTEIROS",
      "lon": "-8.13294304189467",
      "lat": "40.5546943839563"
    },
    {
      "id": "pt.ine.add.PTCONT.5601588",
      "street": "AV DR AFONSO COSTA",
      "house": "892",
      "postcode": "3465-051",
      "city": "CAMPO DE BESTEIROS",
      "lon": "-8.133261817747142",
      "lat": "40.55447825597655"
    },
    {
      "id": "pt.ine.add.PTCONT.5612790",
      "street": "R CÓNEGO NOGUEIRA",
      "house": "",
      "postcode": "3465-070",
      "city": "CAMPO DE BESTEIROS",
      "lon": "-8.132258261824612",
      "lat": "40.55479343960942"
    },
    {
      "id": "pt.ine.add.PTCONT.5612801",
      "street": "R BERNARDINO P RIBEIRO",
      "house": "150",
      "postcode": "3465-063",
      "city": "CAMPO DE BESTEIROS",
      "lon": "-8.132931236786936",
      "lat": "40.554154063933495"
    },
    {
      "id": "pt.ine.add.PTCONT.5612802",
      "street": "R BERNARDINO P RIBEIRO",
      "house": "150",
      "postcode": "3465-063",
      "city": "CAMPO DE BESTEIROS",
      "lon": "-8.132931236786936",
      "lat": "40.554154063933495"
    },
    {
      "id": "pt.ine.add.PTCONT.5612803",
      "street": "R BERNARDINO P RIBEIRO",
      "house": "150",
      "postcode": "3465-063",
      "city": "CAMPO DE BESTEIROS",
      "lon": "-8.132931236786936",
      "lat": "40.554154063933495"
    },
    {
      "id": "pt.ine.add.PTCONT.5613353",
      "street": "R BERNARDINO P RIBEIRO",
      "house": "122",
      "postcode": "3465-063",
      "city": "CAMPO DE BESTEIROS",
      "lon": "-8.132577042697648",
      "lat": "40.554280137520095"
    },
    {
      "id": "pt.ine.add.PTCONT.5613409",
      "street": "R BERNARDINO P RIBEIRO",
      "house": "150",
      "postcode": "3465-063",
      "city": "CAMPO DE BESTEIROS",
      "lon": "-8.132931236786936",
      "lat": "40.554154063933495"
    },
    {
      "id": "pt.ine.add.PTCONT.5618360",
      "street": "R CASA DO POVO",
      "house": "181",
      "postcode": "3465-069",
      "city": "CAMPO DE BESTEIROS",
      "lon": "-8.132754138247511",
      "lat": "40.55453228753536"
    },
    {
      "id": "pt.ine.add.PTCONT.5622043",
      "street": "R CASA DO POVO",
      "house": "180",
      "postcode": "3465-069",
      "city": "CAMPO DE BESTEIROS",
      "lon": "-8.13256523354689",
      "lat": "40.5546133348005"
    }
  ]
}