{
  "data": {
    "distrito": "Viseu",
    "concelho": "Tondela",
    "freguesia": "Campo de Besteiros",
    "OBJECTID": 635,
    "BGRI2021": "18210200133",
    "DT21": "18",
    "DTMN21": "1821",
    "DTMNFR21": "182102",
    "DTMNFRSEC21": "182102001",
    "SECNUM21": "001",
    "SSNUM21": "33",
    "SECSSNUM21": "00133",
    "OBJECTID_1": 199961,
    "DT": "18",
    "CC": "21",
    "fr": "02",
    "SEC": "001",
    "SS": "33"
  },
  "addresses": [
    {
      "id": "pt.ine.add.PTCONT.5427118",
      "street": "AV DR JOÃO ALMIRO",
      "house": "1562",
      "postcode": "3465-093",
      "city": "CAMPO DE BESTEIROS",
      "lon": "-8.131242834399426",
      "lat": "40.55710779775184"
    },
    {
      "id": "pt.ine.add.PTCONT.5450297",
      "street": "AV DR JOÃO ALMIRO",
      "house": "",
      "postcode": "3465-093",
      "city": "CAMPO DE BESTEIROS",
      "lon": "-8.132517987942274",
      "lat": "40.55683765142137"
    },
    {
      "id": "pt.ine.add.PTCONT.5450298",
      "street": "AV DR JOÃO ALMIRO",
      "house": "",
      "postcode": "3465-093",
      "city": "CAMPO DE BESTEIROS",
      "lon": "-8.132517987942274",
      "lat": "40.55683765142137"
    },
    {
      "id": "pt.ine.add.PTCONT.5450299",
      "street": "AV DR JOÃO ALMIRO",
      "house": "",
      "postcode": "3465-093",
      "city": "CAMPO DE BESTEIROS",
      "lon": "-8.132517987942274",
      "lat": "40.55683765142137"
    },
    {
      "id": "pt.ine.add.PTCONT.5450300",
      "street": "AV DR JOÃO ALMIRO",
      "house": "",
      "postcode": "3465-093",
      "city": "CAMPO DE BESTEIROS",
      "lon": "-8.132517987942274",
      "lat": "40.55683765142137"
    },
    {
      "id": "pt.ine.add.PTCONT.5450301",
      "street": "AV DR JOÃO ALMIRO",
      "house": "",
      "postcode": "3465-093",
      "city": "CAMPO DE BESTEIROS",
      "lon": "-8.132517987942274",
      "lat": "40.55683765142137"
    },
    {
      "id": "pt.ine.add.PTCONT.5450302",
      "street": "AV DR JOÃO ALMIRO",
      "house": "",
      "postcode": "3465-093",
      "city": "CAMPO DE BESTEIROS",
      "lon": "-8.132517987942274",
      "lat": "40.55683765142137"
    },
    {
      "id": "pt.ine.add.PTCONT.5450303",
      "street": "AV DR JOÃO ALMIRO",
      "house": "",
      "postcode": "3465-093",
      "city": "CAMPO DE BESTEIROS",
      "lon": "-8.132517987942274",
      "lat": "40.55683765142137"
    },
    {
      "id": "pt.ine.add.PTCONT.5450711",
      "street": "AV DR JOÃO ALMIRO",
      "house": "",
      "postcode": "3465-093",
      "city": "CAMPO DE BESTEIROS",
      "lon": "-8.132517987942274",
      "lat": "40.55683765142137"
    },
    {
      "id": "pt.ine.add.PTCONT.5468821",
      "street": "R SANTO ANTÓNIO",
      "house": "264",
      "postcode": "3465-059",
      "city": "CAMPO DE BESTEIROS",
      "lon": "-8.131726868106602",
      "lat": "40.559611285533904"
    },
    {
      "id": "pt.ine.add.PTCONT.5468822",
      "street": "TV SANTO ANTÓNIO",
      "house": "57",
      "postcode": "3465-053",
      "city": "CAMPO DE BESTEIROS",
      "lon": "-8.131892188423024",
      "lat": "40.558683738810736"
    },
    {
      "id": "pt.ine.add.PTCONT.5485110",
      "street": "R SANTO ANTÓNIO",
      "house": "",
      "postcode": "3465-059",
      "city": "CAMPO DE BESTEIROS",
      "lon": "-8.13205748474461",
      "lat": "40.55899892686047"
    },
    {
      "id": "pt.ine.add.PTCONT.5494184",
      "street": "R SANTO ANTÓNIO",
      "house": "44",
      "postcode": "3465-053",
      "city": "CAMPO DE BESTEIROS",
      "lon": "-8.133155561711328",
      "lat": "40.557900281720364"
    },
    {
      "id": "pt.ine.add.PTCONT.5503080",
      "street": "AV DR JOÃO ALMIRO",
      "house": "544",
      "postcode": "3465-093",
      "city": "CAMPO DE BESTEIROS",
      "lon": "-8.131042113668181",
      "lat": "40.55718884229894"
    },
    {
      "id": "pt.ine.add.PTCONT.5521977",
      "street": "R SANTO ANTÓNIO",
      "house": "263",
      "postcode": "3465-059",
      "city": "CAMPO DE BESTEIROS",
      "lon": "-8.13171505828442",
      "lat": "40.55972835461991"
    },
    {
      "id": "pt.ine.add.PTCONT.5538054",
      "street": "R DR CASIMIRO VASCONCELOS",
      "house": "",
      "postcode": "3465-053",
      "city": "CAMPO DE BESTEIROS",
      "lon": "-8.133049298319625",
      "lat": "40.557377972668036"
    },
    {
      "id": "pt.ine.add.PTCONT.5539539",
      "street": "AV DR JOÃO ALMIRO",
      "house": "1632",
      "postcode": "3465-093",
      "city": "CAMPO DE BESTEIROS",
      "lon": "-8.131939448989279",
      "lat": "40.556864663005534"
    },
    {
      "id": "pt.ine.add.PTCONT.5541780",
      "street": "R GORGOLAO",
      "house": "125",
      "postcode": "3465-056",
      "city": "CAMPO DE BESTEIROS",
      "lon": "-8.131065698322141",
      "lat": "40.55815241285119"
    },
    {
      "id": "pt.ine.add.PTCONT.5541860",
      "street": "TV SANTO ANTÓNIO",
      "house": "27",
      "postcode": "3465-056",
      "city": "CAMPO DE BESTEIROS",
      "lon": "-8.131549783076705",
      "lat": "40.55849462283398"
    },
    {
      "id": "pt.ine.add.PTCONT.5565199",
      "street": "R DR CASIMIRO VASCONCELOS",
      "house": "174",
      "postcode": "3465-053",
      "city": "CAMPO DE BESTEIROS",
      "lon": "-8.133438930384598",
      "lat": "40.55757608944038"
    },
    {
      "id": "pt.ine.add.PTCONT.5576355",
      "street": "R SANTO ANTÓNIO",
      "house": "220",
      "postcode": "3465-059",
      "city": "CAMPO DE BESTEIROS",
      "lon": "-8.131821334165664",
      "lat": "40.55925107360116"
    },
    {
      "id": "pt.ine.add.PTCONT.5596747",
      "street": "TV SANTO ANTÓNIO",
      "house": "89",
      "postcode": "3465-053",
      "city": "CAMPO DE BESTEIROS",
      "lon": "-8.132175560244491",
      "lat": "40.55880981601937"
    },
    {
      "id": "pt.ine.add.PTCONT.5603390",
      "street": "R GORGOLAO",
      "house": "60",
      "postcode": "3465-059",
      "city": "CAMPO DE BESTEIROS",
      "lon": "-8.131349055980577",
      "lat": "40.55867472649009"
    },
    {
      "id": "pt.ine.add.PTCONT.5620284",
      "street": "AV DR JOÃO ALMIRO",
      "house": "7574",
      "postcode": "3465-093",
      "city": "CAMPO DE BESTEIROS",
      "lon": "-8.131360905825227",
      "lat": "40.557035756963714"
    },
    {
      "id": "pt.ine.add.PTCONT.5627868",
      "street": "R GORGOLAO",
      "house": "67",
      "postcode": "3465-056",
      "city": "CAMPO DE BESTEIROS",
      "lon": "-8.13100667417408",
      "lat": "40.557783193349486"
    },
    {
      "id": "pt.ine.add.PTCONT.5629751",
      "street": "R DR CASIMIRO VASCONCELOS",
      "house": "48",
      "postcode": "3465-053",
      "city": "CAMPO DE BESTEIROS",
      "lon": "-8.132895808252176",
      "lat": "40.5570717913002"
    },
    {
      "id": "pt.ine.add.PTCONT.5636122",
      "street": "R SANTO ANTÓNIO",
      "house": "258",
      "postcode": "3465-059",
      "city": "CAMPO DE BESTEIROS",
      "lon": "-8.131762293358165",
      "lat": "40.55945819541975"
    },
    {
      "id": "pt.ine.add.PTCONT.5636491",
      "street": "AV DR JOÃO ALMIRO",
      "house": "7594",
      "postcode": "3465-093",
      "city": "CAMPO DE BESTEIROS",
      "lon": "-8.131490783927873",
      "lat": "40.55696371621994"
    },
    {
      "id": "pt.ine.add.PTCONT.5639344",
      "street": "AV DR JOÃO ALMIRO",
      "house": "1646",
      "postcode": "3465-093",
      "city": "CAMPO DE BESTEIROS",
      "lon": "-8.132163780581118",
      "lat": "40.55684665439813"
    }
  ]
}