{
  "data": {
    "distrito": "Viseu",
    "concelho": "Tondela",
    "freguesia": "Campo de Besteiros",
    "OBJECTID": 636,
    "BGRI2021": "18210200134",
    "DT21": "18",
    "DTMN21": "1821",
    "DTMNFR21": "182102",
    "DTMNFRSEC21": "182102001",
    "SECNUM21": "001",
    "SSNUM21": "34",
    "SECSSNUM21": "00134",
    "OBJECTID_1": 199639,
    "DT": "18",
    "CC": "21",
    "fr": "02",
    "SEC": "001",
    "SS": "34"
  },
  "addresses": [
    {
      "id": "pt.ine.add.PTCONT.5440917",
      "street": "R DR CASIMIRO VASCONCELOS",
      "house": "326",
      "postcode": "3465-053",
      "city": "CAMPO DE BESTEIROS",
      "lon": "-8.135221831850531",
      "lat": "40.55880980045322"
    },
    {
      "id": "pt.ine.add.PTCONT.5492269",
      "street": "R DR CASIMIRO VASCONCELOS",
      "house": "168",
      "postcode": "3465-053",
      "city": "CAMPO DE BESTEIROS",
      "lon": "-8.133852180286725",
      "lat": "40.55790027933544"
    },
    {
      "id": "pt.ine.add.PTCONT.5499341",
      "street": "R SALAO PAROQUIAL",
      "house": "88",
      "postcode": "3465-078",
      "city": "CAMPO DE BESTEIROS",
      "lon": "-8.13433628317222",
      "lat": "40.55855766410985"
    },
    {
      "id": "pt.ine.add.PTCONT.5512176",
      "street": "R DR CASIMIRO VASCONCELOS",
      "house": "202",
      "postcode": "3465-053",
      "city": "CAMPO DE BESTEIROS",
      "lon": "-8.134111938651731",
      "lat": "40.558053367944744"
    },
    {
      "id": "pt.ine.add.PTCONT.5514593",
      "street": "R SANTO ANTÓNIO",
      "house": "19",
      "postcode": "3465-095",
      "city": "CAMPO DE BESTEIROS",
      "lon": "-8.133545195302956",
      "lat": "40.55781923295161"
    },
    {
      "id": "pt.ine.add.PTCONT.5517597",
      "street": "R SALAO PAROQUIAL",
      "house": "86",
      "postcode": "3465-078",
      "city": "CAMPO DE BESTEIROS",
      "lon": "-8.134218210031325",
      "lat": "40.55849462801542"
    },
    {
      "id": "pt.ine.add.PTCONT.5528739",
      "street": "R DR CASIMIRO VASCONCELOS",
      "house": "790",
      "postcode": "3465-053",
      "city": "CAMPO DE BESTEIROS",
      "lon": "-8.134005674078262",
      "lat": "40.558017347507864"
    },
    {
      "id": "pt.ine.add.PTCONT.5532920",
      "street": "R SANTO ANTÓNIO",
      "house": "41",
      "postcode": "3465-095",
      "city": "CAMPO DE BESTEIROS",
      "lon": "-8.133344475571358",
      "lat": "40.55799934009569"
    },
    {
      "id": "pt.ine.add.PTCONT.5533710",
      "street": "R PAÇAL",
      "house": "265",
      "postcode": "3465-058",
      "city": "CAMPO DE BESTEIROS",
      "lon": "-8.134714134548176",
      "lat": "40.55942217079902"
    },
    {
      "id": "pt.ine.add.PTCONT.5592420",
      "street": "R DR CASIMIRO VASCONCELOS",
      "house": "156",
      "postcode": "3465-053",
      "city": "CAMPO DE BESTEIROS",
      "lon": "-8.133686880653675",
      "lat": "40.5578642589694"
    },
    {
      "id": "pt.ine.add.PTCONT.5596070",
      "street": "R PAÇAL",
      "house": "63",
      "postcode": "3465-058",
      "city": "CAMPO DE BESTEIROS",
      "lon": "-8.132789534648117",
      "lat": "40.55940417086752"
    },
    {
      "id": "pt.ine.add.PTCONT.5602243",
      "street": "R SANTO ANTÓNIO",
      "house": "53",
      "postcode": "3465-095",
      "city": "CAMPO DE BESTEIROS",
      "lon": "-8.13339170477835",
      "lat": "40.558179446543306"
    },
    {
      "id": "pt.ine.add.PTCONT.5620260",
      "street": "R DR CASIMIRO VASCONCELOS",
      "house": "272",
      "postcode": "3465-053",
      "city": "CAMPO DE BESTEIROS",
      "lon": "-8.134655074525751",
      "lat": "40.558413575048604"
    },
    {
      "id": "pt.ine.add.PTCONT.5627867",
      "street": "R PAÇAL",
      "house": "",
      "postcode": "3465-058",
      "city": "CAMPO DE BESTEIROS",
      "lon": "-8.133368095120563",
      "lat": "40.55937715503837"
    },
    {
      "id": "pt.ine.add.PTCONT.5630379",
      "street": "R SANTO ANTÓNIO",
      "house": "",
      "postcode": "3465-095",
      "city": "CAMPO DE BESTEIROS",
      "lon": "-8.133250018960918",
      "lat": "40.55813442016601"
    },
    {
      "id": "pt.ine.add.PTCONT.5631592",
      "street": "R DR CASIMIRO VASCONCELOS",
      "house": "358",
      "postcode": "3465-053",
      "city": "CAMPO DE BESTEIROS",
      "lon": "-8.135505209807244",
      "lat": "40.55891785883944"
    },
    {
      "id": "pt.ine.add.PTCONT.5650738",
      "street": "R DR CASIMIRO VASCONCELOS",
      "house": "",
      "postcode": "3465-053",
      "city": "CAMPO DE BESTEIROS",
      "lon": "-8.134041100547801",
      "lat": "40.55838656565537"
    }
  ]
}