{
  "data": {
    "distrito": "Viseu",
    "concelho": "Tondela",
    "freguesia": "Campo de Besteiros",
    "OBJECTID": 842,
    "BGRI2021": "18210200144",
    "DT21": "18",
    "DTMN21": "1821",
    "DTMNFR21": "182102",
    "DTMNFRSEC21": "182102001",
    "SECNUM21": "001",
    "SSNUM21": "44",
    "SECSSNUM21": "00144",
    "OBJECTID_1": 199125,
    "DT": "18",
    "CC": "21",
    "fr": "02",
    "SEC": "001",
    "SS": "44"
  },
  "addresses": [
    {
      "id": "pt.ine.add.PTCONT.5437199",
      "street": "R PIONEIROS DA AGRICULTURA",
      "house": "365",
      "postcode": "3465-056",
      "city": "CAMPO DE BESTEIROS",
      "lon": "-8.125468577109643",
      "lat": "40.56287997335391"
    },
    {
      "id": "pt.ine.add.PTCONT.5437208",
      "street": "AV DR JOÃO ALMIRO",
      "house": "986",
      "postcode": "3465-056",
      "city": "CAMPO DE BESTEIROS",
      "lon": "-8.125209212507803",
      "lat": "40.55938589061949"
    },
    {
      "id": "pt.ine.add.PTCONT.5452074",
      "street": "AV DR JOÃO ALMIRO",
      "house": "974",
      "postcode": "3465-056",
      "city": "CAMPO DE BESTEIROS",
      "lon": "-8.12513834274417",
      "lat": "40.55960201356385"
    },
    {
      "id": "pt.ine.add.PTCONT.5466425",
      "street": "R PAVILHAO",
      "house": "177",
      "postcode": "3465-056",
      "city": "CAMPO DE BESTEIROS",
      "lon": "-8.12600017768533",
      "lat": "40.560592655502205"
    },
    {
      "id": "pt.ine.add.PTCONT.5512175",
      "street": "R PIONEIROS DA AGRICULTURA",
      "house": "391",
      "postcode": "3465-056",
      "city": "CAMPO DE BESTEIROS",
      "lon": "-8.125586633618425",
      "lat": "40.56308710346096"
    },
    {
      "id": "pt.ine.add.PTCONT.5571697",
      "street": "R PAVILHAO",
      "house": "135",
      "postcode": "3465-056",
      "city": "CAMPO DE BESTEIROS",
      "lon": "-8.125858514078306",
      "lat": "40.56034049762851"
    },
    {
      "id": "pt.ine.add.PTCONT.5603375",
      "street": "R PAVILHAO",
      "house": "81",
      "postcode": "3465-056",
      "city": "CAMPO DE BESTEIROS",
      "lon": "-8.12479587821278",
      "lat": "40.56000722905614"
    },
    {
      "id": "pt.ine.add.PTCONT.5641188",
      "street": "AV DR JOÃO ALMIRO",
      "house": "922",
      "postcode": "3465-056",
      "city": "CAMPO DE BESTEIROS",
      "lon": "-8.124571592439297",
      "lat": "40.55956595177524"
    }
  ]
}