{
  "data": {
    "distrito": "Aveiro",
    "concelho": "Aveiro",
    "freguesia": "Oliveirinha",
    "OBJECTID": 849,
    "BGRI2021": "01050800102",
    "DT21": "01",
    "DTMN21": "0105",
    "DTMNFR21": "010508",
    "DTMNFRSEC21": "010508001",
    "SECNUM21": "001",
    "SSNUM21": "02",
    "SECSSNUM21": "00102",
    "OBJECTID_1": 3145,
    "DT": "01",
    "CC": "05",
    "fr": "08",
    "SEC": "001",
    "SS": "02"
  },
  "addresses": [
    {
      "id": "pt.ine.add.PTCONT.308488",
      "street": "R GRANJA DE BAIXO",
      "house": "33",
      "postcode": "3810-905",
      "city": "OLIVEIRINHA",
      "lon": "-8.58243438819966",
      "lat": "40.59966640163185"
    },
    {
      "id": "pt.ine.add.PTCONT.322706",
      "street": "R GRANJA DE BAIXO",
      "house": "13",
      "postcode": "3810-905",
      "city": "OLIVEIRINHA",
      "lon": "-8.584979810435001",
      "lat": "40.60045793614112"
    },
    {
      "id": "pt.ine.add.PTCONT.339681",
      "street": "R GRANJA DE BAIXO",
      "house": "15",
      "postcode": "3810-905",
      "city": "OLIVEIRINHA",
      "lon": "-8.584799687848662",
      "lat": "40.60002639018448"
    },
    {
      "id": "pt.ine.add.PTCONT.342924",
      "street": "R PICOTO",
      "house": "73",
      "postcode": "3810-821",
      "city": "OLIVEIRINHA",
      "lon": "-8.575421507046789",
      "lat": "40.60398895821549"
    },
    {
      "id": "pt.ine.add.PTCONT.350305",
      "street": "R GRANJA DE BAIXO",
      "house": "27",
      "postcode": "3810-905",
      "city": "OLIVEIRINHA",
      "lon": "-8.583130814735547",
      "lat": "40.599573638180814"
    },
    {
      "id": "pt.ine.add.PTCONT.1368",
      "street": "R GRANJA DE BAIXO",
      "house": "43",
      "postcode": "3810-905",
      "city": "OLIVEIRINHA",
      "lon": "-8.581440261098887",
      "lat": "40.599409113205944"
    },
    {
      "id": "pt.ine.add.PTCONT.5835",
      "street": "R GRANJA DE BAIXO",
      "house": "5",
      "postcode": "3810-905",
      "city": "OLIVEIRINHA",
      "lon": "-8.585709558373289",
      "lat": "40.60004984414695"
    },
    {
      "id": "pt.ine.add.PTCONT.11267",
      "street": "R GRANJA DE BAIXO",
      "house": "31",
      "postcode": "3810-905",
      "city": "OLIVEIRINHA",
      "lon": "-8.582717443348905",
      "lat": "40.599593258420235"
    },
    {
      "id": "pt.ine.add.PTCONT.40688",
      "street": "R GRANJA DE BAIXO",
      "house": "21",
      "postcode": "3810-905",
      "city": "OLIVEIRINHA",
      "lon": "-8.583957556743105",
      "lat": "40.599534393267476"
    },
    {
      "id": "pt.ine.add.PTCONT.68853",
      "street": "R ALTO DA GRANJA",
      "house": "97",
      "postcode": "3810-882",
      "city": "OLIVEIRINHA",
      "lon": "-8.58553866036068",
      "lat": "40.60098705632226"
    },
    {
      "id": "pt.ine.add.PTCONT.70238",
      "street": "R ALTO DA GRANJA",
      "house": "23",
      "postcode": "3810-882",
      "city": "OLIVEIRINHA",
      "lon": "-8.585977248093547",
      "lat": "40.601201462751085"
    },
    {
      "id": "pt.ine.add.PTCONT.72928",
      "street": "R GRANJA DE BAIXO",
      "house": "",
      "postcode": "3810-905",
      "city": "OLIVEIRINHA",
      "lon": "-8.5817956453706",
      "lat": "40.599551816768034"
    },
    {
      "id": "pt.ine.add.PTCONT.100241",
      "street": "R QUINTAS AVEIRO",
      "house": "72",
      "postcode": "3810-882",
      "city": "OLIVEIRINHA",
      "lon": "-8.583907179692677",
      "lat": "40.602587358533704"
    },
    {
      "id": "pt.ine.add.PTCONT.100243",
      "street": "R DIREITA",
      "house": "41",
      "postcode": "3810-818",
      "city": "OLIVEIRINHA",
      "lon": "-8.581570817225607",
      "lat": "40.599498658584494"
    },
    {
      "id": "pt.ine.add.PTCONT.121124",
      "street": "R ALTO DA GRANJA",
      "house": "9",
      "postcode": "3810-882",
      "city": "OLIVEIRINHA",
      "lon": "-8.585261852225488",
      "lat": "40.60198771925409"
    },
    {
      "id": "pt.ine.add.PTCONT.121125",
      "street": "R GRANJA DE BAIXO",
      "house": "7",
      "postcode": "3810-905",
      "city": "OLIVEIRINHA",
      "lon": "-8.58552035003877",
      "lat": "40.600023569738816"
    },
    {
      "id": "pt.ine.add.PTCONT.124017",
      "street": "R GRANJA DE BAIXO",
      "house": "93",
      "postcode": "3810-905",
      "city": "OLIVEIRINHA",
      "lon": "-8.587036335483038",
      "lat": "40.60057594547403"
    },
    {
      "id": "pt.ine.add.PTCONT.129484",
      "street": "R PARRONA",
      "house": "5",
      "postcode": "3810-819",
      "city": "OLIVEIRINHA",
      "lon": "-8.58123043473853",
      "lat": "40.599833172788856"
    },
    {
      "id": "pt.ine.add.PTCONT.142509",
      "street": "R GRANJA DE BAIXO",
      "house": "",
      "postcode": "3810-905",
      "city": "OLIVEIRINHA",
      "lon": "-8.586029026301158",
      "lat": "40.60012063363451"
    },
    {
      "id": "pt.ine.add.PTCONT.145336",
      "street": "VLA TIA ANASTAZIA",
      "house": "2",
      "postcode": "3810-820",
      "city": "OLIVEIRINHA",
      "lon": "-8.58329880918354",
      "lat": "40.59996020796671"
    },
    {
      "id": "pt.ine.add.PTCONT.147823",
      "street": "R PICOTO",
      "house": "71",
      "postcode": "3810-821",
      "city": "OLIVEIRINHA",
      "lon": "-8.575515372707416",
      "lat": "40.60388954136553"
    },
    {
      "id": "pt.ine.add.PTCONT.163622",
      "street": "R GRANJA DE BAIXO",
      "house": "39",
      "postcode": "3810-905",
      "city": "OLIVEIRINHA",
      "lon": "-8.581724580435637",
      "lat": "40.599525077141266"
    },
    {
      "id": "pt.ine.add.PTCONT.165406",
      "street": "R DA GRANJA DE BAIXO",
      "house": "23",
      "postcode": "3810-791",
      "city": "OLIVEIRINHA",
      "lon": "-8.583982092366986",
      "lat": "40.59966937578813"
    },
    {
      "id": "pt.ine.add.PTCONT.168874",
      "street": "R PICOTO",
      "house": "75",
      "postcode": "3810-821",
      "city": "OLIVEIRINHA",
      "lon": "-8.575374900570607",
      "lat": "40.604088194039775"
    },
    {
      "id": "pt.ine.add.PTCONT.222699",
      "street": "R GRANJA DE BAIXO",
      "house": "11",
      "postcode": "3810-905",
      "city": "OLIVEIRINHA",
      "lon": "-8.585284067364723",
      "lat": "40.6000244949705"
    },
    {
      "id": "pt.ine.add.PTCONT.230782",
      "street": "R GRANJA DE BAIXO",
      "house": "23",
      "postcode": "3810-905",
      "city": "OLIVEIRINHA",
      "lon": "-8.583839416243173",
      "lat": "40.59953485434074"
    },
    {
      "id": "pt.ine.add.PTCONT.233390",
      "street": "R PICOTO",
      "house": "77",
      "postcode": "3810-821",
      "city": "OLIVEIRINHA",
      "lon": "-8.575245827132225",
      "lat": "40.60422376640722"
    },
    {
      "id": "pt.ine.add.PTCONT.241505",
      "street": "R GRANJA DE BAIXO",
      "house": "29",
      "postcode": "3810-905",
      "city": "OLIVEIRINHA",
      "lon": "-8.58288271950925",
      "lat": "40.59957460452019"
    }
  ]
}