{
  "data": {
    "distrito": "Évora",
    "concelho": "Borba",
    "freguesia": "Rio de Moinhos",
    "OBJECTID": 12,
    "BGRI2021": "07030300201",
    "DT21": "07",
    "DTMN21": "0703",
    "DTMNFR21": "070303",
    "DTMNFRSEC21": "070303002",
    "SECNUM21": "002",
    "SSNUM21": "01",
    "SECSSNUM21": "00201",
    "OBJECTID_1": 59130,
    "DT": "07",
    "CC": "03",
    "fr": "03",
    "SEC": "002",
    "SS": "01"
  },
  "addresses": [
    {
      "id": "pt.ine.add.PTCONT.1368310",
      "street": "R ESTAÇÃO",
      "house": "",
      "postcode": "7150-368",
      "city": "RIO DE MOINHOS BRB",
      "lon": "-7.502850906385671",
      "lat": "38.76606530117421"
    },
    {
      "id": "pt.ine.add.PTCONT.1373931",
      "street": "R MTE FRANCO",
      "house": "",
      "postcode": "7150-373",
      "city": "RIO DE MOINHOS BRB",
      "lon": "-7.504699448955476",
      "lat": "38.76585455900079"
    },
    {
      "id": "pt.ine.add.PTCONT.1379682",
      "street": "R ESTAÇÃO",
      "house": "70",
      "postcode": "7150-368",
      "city": "RIO DE MOINHOS BRB",
      "lon": "-7.503688286889336",
      "lat": "38.76516042680809"
    },
    {
      "id": "pt.ine.add.PTCONT.1381930",
      "street": "R ESTAÇÃO",
      "house": "71",
      "postcode": "7150-368",
      "city": "RIO DE MOINHOS BRB",
      "lon": "-7.502837675788694",
      "lat": "38.76623740234634"
    },
    {
      "id": "pt.ine.add.PTCONT.1387971",
      "street": "R MTE FRANCO",
      "house": "",
      "postcode": "7150-373",
      "city": "RIO DE MOINHOS BRB",
      "lon": "-7.504562728831335",
      "lat": "38.76570068787093"
    },
    {
      "id": "pt.ine.add.PTCONT.1389311",
      "street": "R ESTAÇÃO",
      "house": "",
      "postcode": "7150-368",
      "city": "RIO DE MOINHOS BRB",
      "lon": "-7.503716640379116",
      "lat": "38.765092598844426"
    },
    {
      "id": "pt.ine.add.PTCONT.1392317",
      "street": "R ESTAÇÃO",
      "house": "67",
      "postcode": "7150-368",
      "city": "RIO DE MOINHOS BRB",
      "lon": "-7.5029780325425435",
      "lat": "38.76584240818328"
    },
    {
      "id": "pt.ine.add.PTCONT.1402966",
      "street": "R ESTAÇÃO",
      "house": "57",
      "postcode": "7150-368",
      "city": "RIO DE MOINHOS BRB",
      "lon": "-7.502397896622092",
      "lat": "38.76672790236941"
    },
    {
      "id": "pt.ine.add.PTCONT.1402977",
      "street": "R ESTAÇÃO",
      "house": "",
      "postcode": "7150-368",
      "city": "RIO DE MOINHOS BRB",
      "lon": "-7.503848967568698",
      "lat": "38.76519177598272"
    },
    {
      "id": "pt.ine.add.PTCONT.1405381",
      "street": "R DA ESTAÇÃO",
      "house": "57 A",
      "postcode": "7150-368",
      "city": "RIO DE MOINHOS BRB",
      "lon": "-7.502337932163421",
      "lat": "38.76677571207561"
    },
    {
      "id": "pt.ine.add.PTCONT.1405969",
      "street": "R ESTAÇÃO",
      "house": "",
      "postcode": "7150-368",
      "city": "RIO DE MOINHOS BRB",
      "lon": "-7.502747754674866",
      "lat": "38.766019704899975"
    },
    {
      "id": "pt.ine.add.PTCONT.1407558",
      "street": "R ESTAÇÃO",
      "house": "66",
      "postcode": "7150-368",
      "city": "RIO DE MOINHOS BRB",
      "lon": "-7.5036015885749165",
      "lat": "38.76509197922202"
    },
    {
      "id": "pt.ine.add.PTCONT.1409710",
      "street": "R ESTAÇÃO",
      "house": "",
      "postcode": "7150-368",
      "city": "RIO DE MOINHOS BRB",
      "lon": "-7.5039291084001025",
      "lat": "38.76523724741793"
    },
    {
      "id": "pt.ine.add.PTCONT.1410499",
      "street": "R ESTAÇÃO",
      "house": "67",
      "postcode": "7150-368",
      "city": "RIO DE MOINHOS BRB",
      "lon": "-7.503481865992059",
      "lat": "38.765622806142225"
    },
    {
      "id": "pt.ine.add.PTCONT.1422532",
      "street": "R ESTAÇÃO",
      "house": "",
      "postcode": "7150-368",
      "city": "RIO DE MOINHOS BRB",
      "lon": "-7.503785275827137",
      "lat": "38.76513800842015"
    },
    {
      "id": "pt.ine.add.PTCONT.1442347",
      "street": "MTE PISÃO LARANJEIRA",
      "house": "3",
      "postcode": "7150-369",
      "city": "RIO DE MOINHOS BRB",
      "lon": "-7.505039547558134",
      "lat": "38.762496403382976"
    },
    {
      "id": "pt.ine.add.PTCONT.1445962",
      "street": "R ESTAÇÃO",
      "house": "68",
      "postcode": "7150-368",
      "city": "RIO DE MOINHOS BRB",
      "lon": "-7.503578182448137",
      "lat": "38.76513689313884"
    },
    {
      "id": "pt.ine.add.PTCONT.1446881",
      "street": "MTE PISAO",
      "house": "",
      "postcode": "7150-369",
      "city": "RIO DE MOINHOS BRB",
      "lon": "-7.505230869883864",
      "lat": "38.76311390742304"
    },
    {
      "id": "pt.ine.add.PTCONT.1452817",
      "street": "R ESTAÇÃO",
      "house": "67",
      "postcode": "7150-368",
      "city": "RIO DE MOINHOS BRB",
      "lon": "-7.503032923005302",
      "lat": "38.76564741075323"
    },
    {
      "id": "pt.ine.add.PTCONT.1464897",
      "street": "R ESTAÇÃO",
      "house": "69",
      "postcode": "7150-368",
      "city": "RIO DE MOINHOS BRB",
      "lon": "-7.502942733062814",
      "lat": "38.76611428906079"
    }
  ]
}