{
  "data": {
    "distrito": "Ã‰vora",
    "concelho": "Borba",
    "freguesia": "Rio de Moinhos",
    "OBJECTID": 67,
    "BGRI2021": "07030300216",
    "DT21": "07",
    "DTMN21": "0703",
    "DTMNFR21": "070303",
    "DTMNFRSEC21": "070303002",
    "SECNUM21": "002",
    "SSNUM21": "16",
    "SECSSNUM21": "00216",
    "OBJECTID_1": 59112,
    "DT": "07",
    "CC": "03",
    "fr": "03",
    "SEC": "002",
    "SS": "16"
  },
  "addresses": [
    {
      "id": "pt.ine.add.PTCONT.1376795",
      "street": "FUSERA MONTE DA FUSERA",
      "house": "",
      "postcode": "7150-337",
      "city": "RIO DE MOINHOS BRB",
      "lon": "-7.483322597908742",
      "lat": "38.755594662641805"
    },
    {
      "id": "pt.ine.add.PTCONT.1379822",
      "street": "CONVENTO DA LUZ",
      "house": "",
      "postcode": "7150-322",
      "city": "RIO DE MOINHOS BRB",
      "lon": "-7.478345250014447",
      "lat": "38.770267927795466"
    },
    {
      "id": "pt.ine.add.PTCONT.1389463",
      "street": "MONTINHO",
      "house": "",
      "postcode": "7150-337",
      "city": "RIO DE MOINHOS BRB",
      "lon": "-7.484419876827806",
      "lat": "38.76146496550773"
    },
    {
      "id": "pt.ine.add.PTCONT.1390228",
      "street": "HORTA DO CONVENTO DA LUZ",
      "house": "",
      "postcode": "7150-322",
      "city": "RIO DE MOINHOS BRB",
      "lon": "-7.480620229587579",
      "lat": "38.770631962277676"
    },
    {
      "id": "pt.ine.add.PTCONT.1391216",
      "street": "CONVENTO DA LUZ",
      "house": "",
      "postcode": "7150-322",
      "city": "RIO DE MOINHOS BRB",
      "lon": "-7.48209506862919",
      "lat": "38.76947007266931"
    },
    {
      "id": "pt.ine.add.PTCONT.1391217",
      "street": "MTE NOVO",
      "house": "",
      "postcode": "7150-390",
      "city": "RIO DE MOINHOS BRB",
      "lon": "-7.5057820930242265",
      "lat": "38.76047359039373"
    },
    {
      "id": "pt.ine.add.PTCONT.1393975",
      "street": "MTE BATANETE",
      "house": "",
      "postcode": "7150-390",
      "city": "RIO DE MOINHOS BRB",
      "lon": "-7.5056112076188155",
      "lat": "38.757653166793155"
    },
    {
      "id": "pt.ine.add.PTCONT.1397122",
      "street": "MTE TELHEIRO",
      "house": "",
      "postcode": "7150-337",
      "city": "RIO DE MOINHOS BRB",
      "lon": "-7.49394788658577",
      "lat": "38.767175352747955"
    },
    {
      "id": "pt.ine.add.PTCONT.1398671",
      "street": "MTE LARANJAL",
      "house": "",
      "postcode": "7150-390",
      "city": "RIO DE MOINHOS BRB",
      "lon": "-7.506340924900402",
      "lat": "38.7597199159372"
    },
    {
      "id": "pt.ine.add.PTCONT.1398672",
      "street": "MTE LARANJAL",
      "house": "",
      "postcode": "7150-390",
      "city": "RIO DE MOINHOS BRB",
      "lon": "-7.506340924900402",
      "lat": "38.7597199159372"
    },
    {
      "id": "pt.ine.add.PTCONT.1399289",
      "street": "HORTA DOS CARPINTEIROS",
      "house": "",
      "postcode": "7150-337",
      "city": "RIO DE MOINHOS BRB",
      "lon": "-7.493864324827133",
      "lat": "38.76701420039141"
    },
    {
      "id": "pt.ine.add.PTCONT.1400129",
      "street": "MTE PINHEIRO",
      "house": "",
      "postcode": "7150-337",
      "city": "RIO DE MOINHOS BRB",
      "lon": "-7.491477533471048",
      "lat": "38.76380856472656"
    },
    {
      "id": "pt.ine.add.PTCONT.1403037",
      "street": "MTE MANETAS",
      "house": "",
      "postcode": "7150-339",
      "city": "RIO DE MOINHOS BRB",
      "lon": "-7.493343729635971",
      "lat": "38.769991362808305"
    },
    {
      "id": "pt.ine.add.PTCONT.1403038",
      "street": "MTE NOVO",
      "house": "",
      "postcode": "7150-390",
      "city": "RIO DE MOINHOS BRB",
      "lon": "-7.506827186691147",
      "lat": "38.76068637911566"
    },
    {
      "id": "pt.ine.add.PTCONT.1405383",
      "street": "HORTA DOS CARPINTEIROS",
      "house": "",
      "postcode": "7150-318",
      "city": "RIO DE MOINHOS BRB",
      "lon": "-7.493185447757979",
      "lat": "38.766268634010515"
    },
    {
      "id": "pt.ine.add.PTCONT.1410990",
      "street": "MTE NOVO",
      "house": "",
      "postcode": "7150-390",
      "city": "RIO DE MOINHOS BRB",
      "lon": "-7.506774942906712",
      "lat": "38.76073751956209"
    },
    {
      "id": "pt.ine.add.PTCONT.1411753",
      "street": "MTE ALAMO",
      "house": "",
      "postcode": "7150-337",
      "city": "RIO DE MOINHOS BRB",
      "lon": "-7.4789797574877825",
      "lat": "38.75244466153986"
    },
    {
      "id": "pt.ine.add.PTCONT.1412411",
      "street": "CONVENTO DA LUZ",
      "house": "",
      "postcode": "7150-322",
      "city": "RIO DE MOINHOS BRB",
      "lon": "-7.480476330074921",
      "lat": "38.771270725349986"
    },
    {
      "id": "pt.ine.add.PTCONT.1412412",
      "street": "CONVENTO DA LUZ",
      "house": "",
      "postcode": "7150-322",
      "city": "RIO DE MOINHOS BRB",
      "lon": "-7.480476330074921",
      "lat": "38.771270725349986"
    },
    {
      "id": "pt.ine.add.PTCONT.1419178",
      "street": "MTE NOVO",
      "house": "",
      "postcode": "7150-390",
      "city": "RIO DE MOINHOS BRB",
      "lon": "-7.5066468971895475",
      "lat": "38.76090798542172"
    },
    {
      "id": "pt.ine.add.PTCONT.1421199",
      "street": "",
      "house": "",
      "postcode": "7150-339",
      "city": "RIO DE MOINHOS BRB",
      "lon": "-7.488486863050734",
      "lat": "38.77234209330855"
    },
    {
      "id": "pt.ine.add.PTCONT.1424398",
      "street": "MTE TELHEIRO",
      "house": "",
      "postcode": "7150-337",
      "city": "RIO DE MOINHOS BRB",
      "lon": "-7.495069810230935",
      "lat": "38.76743689638421"
    },
    {
      "id": "pt.ine.add.PTCONT.1426304",
      "street": "MTE PINHEIRO",
      "house": "",
      "postcode": "7150-337",
      "city": "RIO DE MOINHOS BRB",
      "lon": "-7.491866347406688",
      "lat": "38.76374003986916"
    },
    {
      "id": "pt.ine.add.PTCONT.1427428",
      "street": "MTE TRAVASSOS",
      "house": "",
      "postcode": "7150-337",
      "city": "RIO DE MOINHOS BRB",
      "lon": "-7.473896824959496",
      "lat": "38.7647660679987"
    },
    {
      "id": "pt.ine.add.PTCONT.1433195",
      "street": "MTE TELHEIRO",
      "house": "",
      "postcode": "7150-337",
      "city": "RIO DE MOINHOS BRB",
      "lon": "-7.4950006405526635",
      "lat": "38.76782590444424"
    },
    {
      "id": "pt.ine.add.PTCONT.1443762",
      "street": "MTE TELHEIRO",
      "house": "",
      "postcode": "7150-337",
      "city": "RIO DE MOINHOS BRB",
      "lon": "-7.494956610460619",
      "lat": "38.76756094263213"
    },
    {
      "id": "pt.ine.add.PTCONT.1446093",
      "street": "MTE ALAMO HORTA DO ALAMO",
      "house": "",
      "postcode": "7150-337",
      "city": "RIO DE MOINHOS BRB",
      "lon": "-7.477669340097723",
      "lat": "38.751077111629236"
    },
    {
      "id": "pt.ine.add.PTCONT.1459807",
      "street": "MTE NOVO",
      "house": "",
      "postcode": "7150-390",
      "city": "RIO DE MOINHOS BRB",
      "lon": "-7.506694989867131",
      "lat": "38.76082450656908"
    },
    {
      "id": "pt.ine.add.PTCONT.1460610",
      "street": "MTE TRAVASSOS",
      "house": "",
      "postcode": "7150-322",
      "city": "RIO DE MOINHOS BRB",
      "lon": "-7.473726675986965",
      "lat": "38.764980188274386"
    },
    {
      "id": "pt.ine.add.PTCONT.1460617",
      "street": "MTE LARANJAL",
      "house": "",
      "postcode": "7150-390",
      "city": "RIO DE MOINHOS BRB",
      "lon": "-7.506122894483298",
      "lat": "38.75965569051547"
    },
    {
      "id": "pt.ine.add.PTCONT.1462858",
      "street": "MTE MANETAS",
      "house": "",
      "postcode": "7150-339",
      "city": "RIO DE MOINHOS BRB",
      "lon": "-7.495777133675745",
      "lat": "38.77032825649351"
    },
    {
      "id": "pt.ine.add.PTCONT.1463608",
      "street": "MTE LARANJAL",
      "house": "",
      "postcode": "7150-390",
      "city": "RIO DE MOINHOS BRB",
      "lon": "-7.505997687214671",
      "lat": "38.75950188268657"
    }
  ]
}