{
  "data": {
    "distrito": "Braga",
    "concelho": "Barcelos",
    "freguesia": "Roriz",
    "OBJECTID": 1166,
    "BGRI2021": "03026400108",
    "DT21": "03",
    "DTMN21": "0302",
    "DTMNFR21": "030264",
    "DTMNFRSEC21": "030264001",
    "SECNUM21": "001",
    "SSNUM21": "08",
    "SECSSNUM21": "00108",
    "OBJECTID_1": 21101,
    "DT": "03",
    "CC": "02",
    "fr": "64",
    "SEC": "001",
    "SS": "08"
  },
  "addresses": [
    {
      "id": "pt.ine.add.PTCONT.470660",
      "street": "R POUSADA",
      "house": "356",
      "postcode": "4750-659",
      "city": "RORIZ BCL",
      "lon": "-8.57249806916352",
      "lat": "41.5821538519328"
    },
    {
      "id": "pt.ine.add.PTCONT.470661",
      "street": "R FACHO",
      "house": "246",
      "postcode": "4750-659",
      "city": "RORIZ BCL",
      "lon": "-8.57078895118489",
      "lat": "41.58299771389537"
    },
    {
      "id": "pt.ine.add.PTCONT.470662",
      "street": "R FACHO",
      "house": "246",
      "postcode": "4750-659",
      "city": "RORIZ BCL",
      "lon": "-8.57078895118489",
      "lat": "41.58299771389537"
    },
    {
      "id": "pt.ine.add.PTCONT.478631",
      "street": "R FACHO",
      "house": "226",
      "postcode": "4750-659",
      "city": "RORIZ BCL",
      "lon": "-8.570983066862315",
      "lat": "41.58333011127275"
    },
    {
      "id": "pt.ine.add.PTCONT.478694",
      "street": "TV FOGUETEIRO",
      "house": "61",
      "postcode": "4750-652",
      "city": "RORIZ BCL",
      "lon": "-8.570451133450154",
      "lat": "41.57736268722399"
    },
    {
      "id": "pt.ine.add.PTCONT.479845",
      "street": "R POUSADA",
      "house": "236",
      "postcode": "4750-659",
      "city": "RORIZ BCL",
      "lon": "-8.571697984968631",
      "lat": "41.58087838256991"
    },
    {
      "id": "pt.ine.add.PTCONT.494511",
      "street": "R POUSADA",
      "house": "68",
      "postcode": "4750-659",
      "city": "RORIZ BCL",
      "lon": "-8.571461080489001",
      "lat": "41.579537735712066"
    },
    {
      "id": "pt.ine.add.PTCONT.503494",
      "street": "R FACHO",
      "house": "126",
      "postcode": "4750-659",
      "city": "RORIZ BCL",
      "lon": "-8.571582404768582",
      "lat": "41.583291812429394"
    },
    {
      "id": "pt.ine.add.PTCONT.515622",
      "street": "TV ALTO DE POUSADA",
      "house": "6",
      "postcode": "4750-659",
      "city": "RORIZ BCL",
      "lon": "-8.57189051421383",
      "lat": "41.58097668860142"
    },
    {
      "id": "pt.ine.add.PTCONT.524768",
      "street": "R FACHO",
      "house": "200",
      "postcode": "4750-659",
      "city": "RORIZ BCL",
      "lon": "-8.571103165705775",
      "lat": "41.58335666488936"
    },
    {
      "id": "pt.ine.add.PTCONT.535869",
      "street": "TV ALTO DE POUSADA",
      "house": "105",
      "postcode": "4750-659",
      "city": "RORIZ BCL",
      "lon": "-8.57156066824851",
      "lat": "41.581851304980134"
    },
    {
      "id": "pt.ine.add.PTCONT.542306",
      "street": "R POUSADA",
      "house": "422",
      "postcode": "4750-659",
      "city": "RORIZ BCL",
      "lon": "-8.572653346953523",
      "lat": "41.58206322152039"
    },
    {
      "id": "pt.ine.add.PTCONT.545283",
      "street": "R FONTE DE BARTELINHOS",
      "house": "155",
      "postcode": "4750-652",
      "city": "RORIZ BCL",
      "lon": "-8.570939035862663",
      "lat": "41.57681160476026"
    },
    {
      "id": "pt.ine.add.PTCONT.565291",
      "street": "TV HORTO",
      "house": "99",
      "postcode": "4750-659",
      "city": "RORIZ BCL",
      "lon": "-8.57146066175946",
      "lat": "41.58302216598525"
    },
    {
      "id": "pt.ine.add.PTCONT.577315",
      "street": "R POUSADA",
      "house": "494",
      "postcode": "4750-659",
      "city": "RORIZ BCL",
      "lon": "-8.572562177179805",
      "lat": "41.58276585781879"
    },
    {
      "id": "pt.ine.add.PTCONT.577316",
      "street": "R POUSADA",
      "house": "494",
      "postcode": "4750-659",
      "city": "RORIZ BCL",
      "lon": "-8.572562177179805",
      "lat": "41.58276585781879"
    },
    {
      "id": "pt.ine.add.PTCONT.577317",
      "street": "R POUSADA",
      "house": "494",
      "postcode": "4750-659",
      "city": "RORIZ BCL",
      "lon": "-8.572562177179805",
      "lat": "41.58276585781879"
    },
    {
      "id": "pt.ine.add.PTCONT.581872",
      "street": "R FACHO",
      "house": "260",
      "postcode": "4750-659",
      "city": "RORIZ BCL",
      "lon": "-8.570464631992275",
      "lat": "41.58291791482793"
    },
    {
      "id": "pt.ine.add.PTCONT.583520",
      "street": "R POUSADA",
      "house": "198",
      "postcode": "4750-659",
      "city": "RORIZ BCL",
      "lon": "-8.571707965733063",
      "lat": "41.580581222644575"
    },
    {
      "id": "pt.ine.add.PTCONT.588852",
      "street": "R FACHO",
      "house": "56",
      "postcode": "4750-659",
      "city": "RORIZ BCL",
      "lon": "-8.572455779202185",
      "lat": "41.582991356663335"
    },
    {
      "id": "pt.ine.add.PTCONT.588853",
      "street": "R FACHO",
      "house": "56",
      "postcode": "4750-659",
      "city": "RORIZ BCL",
      "lon": "-8.572455779202185",
      "lat": "41.582991356663335"
    },
    {
      "id": "pt.ine.add.PTCONT.603696",
      "street": "TV ALTO DE POUSADA",
      "house": "99",
      "postcode": "4750-659",
      "city": "RORIZ BCL",
      "lon": "-8.571752956468949",
      "lat": "41.58191359737923"
    },
    {
      "id": "pt.ine.add.PTCONT.624858",
      "street": "TV ALTO DE POUSADA",
      "house": "107",
      "postcode": "4750-659",
      "city": "RORIZ BCL",
      "lon": "-8.57141725902981",
      "lat": "41.581923881295474"
    },
    {
      "id": "pt.ine.add.PTCONT.639080",
      "street": "R FACHO",
      "house": "114",
      "postcode": "4750-659",
      "city": "RORIZ BCL",
      "lon": "-8.571809514319119",
      "lat": "41.583182901831236"
    },
    {
      "id": "pt.ine.add.PTCONT.650905",
      "street": "R POUSADA",
      "house": "298",
      "postcode": "4750-659",
      "city": "RORIZ BCL",
      "lon": "-8.572205090866145",
      "lat": "41.5813896574802"
    },
    {
      "id": "pt.ine.add.PTCONT.653512",
      "street": "R POUSADA",
      "house": "394",
      "postcode": "4750-659",
      "city": "RORIZ BCL",
      "lon": "-8.572868520110406",
      "lat": "41.58196335813515"
    },
    {
      "id": "pt.ine.add.PTCONT.665350",
      "street": "R FACHO",
      "house": "88",
      "postcode": "4750-659",
      "city": "RORIZ BCL",
      "lon": "-8.572037293799042",
      "lat": "41.58317302880141"
    },
    {
      "id": "pt.ine.add.PTCONT.672525",
      "street": "TV ALTO DE POUSADA",
      "house": "87",
      "postcode": "4750-659",
      "city": "RORIZ BCL",
      "lon": "-8.571823076483934",
      "lat": "41.58164321911857"
    },
    {
      "id": "pt.ine.add.PTCONT.680412",
      "street": "R POUSADA",
      "house": "262",
      "postcode": "4750-659",
      "city": "RORIZ BCL",
      "lon": "-8.571939637123448",
      "lat": "41.58114757127147"
    },
    {
      "id": "pt.ine.add.PTCONT.706741",
      "street": "TV ALTO DE POUSADA",
      "house": "6",
      "postcode": "4750-659",
      "city": "RORIZ BCL",
      "lon": "-8.571771150642293",
      "lat": "41.5810581772915"
    },
    {
      "id": "pt.ine.add.PTCONT.709823",
      "street": "R POUSADA",
      "house": "238",
      "postcode": "4750-659",
      "city": "RORIZ BCL",
      "lon": "-8.57178216693435",
      "lat": "41.5809140761879"
    },
    {
      "id": "pt.ine.add.PTCONT.719573",
      "street": "TV ALTO DE POUSADA",
      "house": "42",
      "postcode": "4750-659",
      "city": "RORIZ BCL",
      "lon": "-8.571470396158452",
      "lat": "41.58091526527286"
    },
    {
      "id": "pt.ine.add.PTCONT.719574",
      "street": "TV ALTO DE POUSADA",
      "house": "42",
      "postcode": "4750-659",
      "city": "RORIZ BCL",
      "lon": "-8.571470396158452",
      "lat": "41.58091526527286"
    },
    {
      "id": "pt.ine.add.PTCONT.727734",
      "street": "R POUSADA",
      "house": "234",
      "postcode": "4750-659",
      "city": "RORIZ BCL",
      "lon": "-8.571745279480067",
      "lat": "41.58077916153511"
    },
    {
      "id": "pt.ine.add.PTCONT.733697",
      "street": "TV HORTO",
      "house": "",
      "postcode": "4750-659",
      "city": "RORIZ BCL",
      "lon": "-8.572392221129238",
      "lat": "41.58246038184775"
    },
    {
      "id": "pt.ine.add.PTCONT.736824",
      "street": "R FONTE BARTELINHOS",
      "house": "",
      "postcode": "4750-652",
      "city": "RORIZ BCL",
      "lon": "-8.572146998897809",
      "lat": "41.574583084602104"
    },
    {
      "id": "pt.ine.add.PTCONT.748826",
      "street": "TV ALTO DE POUSADA",
      "house": "75",
      "postcode": "4750-659",
      "city": "RORIZ BCL",
      "lon": "-8.571714057984734",
      "lat": "41.581481568606705"
    },
    {
      "id": "pt.ine.add.PTCONT.764087",
      "street": "R POUSADA",
      "house": "340",
      "postcode": "4750-659",
      "city": "RORIZ BCL",
      "lon": "-8.572267731256268",
      "lat": "41.581785580645835"
    },
    {
      "id": "pt.ine.add.PTCONT.772924",
      "street": "TV HORTO",
      "house": "107",
      "postcode": "4750-659",
      "city": "RORIZ BCL",
      "lon": "-8.571639195197053",
      "lat": "41.58282340401672"
    },
    {
      "id": "pt.ine.add.PTCONT.783435",
      "street": "TV HORTO",
      "house": "62",
      "postcode": "4750-659",
      "city": "RORIZ BCL",
      "lon": "-8.572154526313426",
      "lat": "41.582776418884336"
    },
    {
      "id": "pt.ine.add.PTCONT.787632",
      "street": "R FONTE BARTELINHOS",
      "house": "",
      "postcode": "4750-652",
      "city": "RORIZ BCL",
      "lon": "-8.572278218163678",
      "lat": "41.574483542756255"
    },
    {
      "id": "pt.ine.add.PTCONT.790618",
      "street": "TV ALTO DE POUSADA",
      "house": "66",
      "postcode": "4750-659",
      "city": "RORIZ BCL",
      "lon": "-8.570851232383724",
      "lat": "41.581565890050335"
    },
    {
      "id": "pt.ine.add.PTCONT.802159",
      "street": "R CONTRIZ",
      "house": "103",
      "postcode": "4750-660",
      "city": "RORIZ BCL",
      "lon": "-8.572157263910858",
      "lat": "41.57786939571023"
    },
    {
      "id": "pt.ine.add.PTCONT.823420",
      "street": "TV ALTO POUSADA",
      "house": "136",
      "postcode": "4750-659",
      "city": "RORIZ BCL",
      "lon": "-8.57096201266535",
      "lat": "41.58198864170522"
    },
    {
      "id": "pt.ine.add.PTCONT.835859",
      "street": "R POUSADA",
      "house": "360",
      "postcode": "4750-659",
      "city": "RORIZ BCL",
      "lon": "-8.572675559044685",
      "lat": "41.581802029579386"
    },
    {
      "id": "pt.ine.add.PTCONT.846919",
      "street": "TV ALTO POUSADA",
      "house": "65",
      "postcode": "4750-659",
      "city": "RORIZ BCL",
      "lon": "-8.571712656742307",
      "lat": "41.58127448904802"
    }
  ]
}