{
  "data": {
    "distrito": "Aveiro",
    "concelho": "√Ågueda",
    "freguesia": "Valongo do Vouga",
    "OBJECTID": 631,
    "BGRI2021": "01011900303",
    "DT21": "01",
    "DTMN21": "0101",
    "DTMNFR21": "010119",
    "DTMNFRSEC21": "010119003",
    "SECNUM21": "003",
    "SSNUM21": "03",
    "SECSSNUM21": "00303",
    "OBJECTID_1": 1043,
    "DT": "01",
    "CC": "01",
    "fr": "19",
    "SEC": "003",
    "SS": "03"
  },
  "addresses": [
    {
      "id": "pt.ine.add.PTCONT.292934",
      "street": "R PADEIRAS",
      "house": "1",
      "postcode": "3750-837",
      "city": "VALONGO DO VOUGA",
      "lon": "-8.428122025285903",
      "lat": "40.61477009453774"
    },
    {
      "id": "pt.ine.add.PTCONT.308040",
      "street": "R PADEIRAS",
      "house": "15",
      "postcode": "3750-837",
      "city": "VALONGO DO VOUGA",
      "lon": "-8.426670623172022",
      "lat": "40.612549502753126"
    },
    {
      "id": "pt.ine.add.PTCONT.308041",
      "street": "R PADRE CELESTINO A BRANCO",
      "house": "3",
      "postcode": "3750-837",
      "city": "VALONGO DO VOUGA",
      "lon": "-8.432238064937241",
      "lat": "40.612949458154006"
    },
    {
      "id": "pt.ine.add.PTCONT.312580",
      "street": "R RIGUEIRA",
      "house": "1",
      "postcode": "3750-837",
      "city": "VALONGO DO VOUGA",
      "lon": "-8.428287105805238",
      "lat": "40.614688625772175"
    },
    {
      "id": "pt.ine.add.PTCONT.332194",
      "street": "R PADRE CELESTINO A BRANCO",
      "house": "11",
      "postcode": "3750-837",
      "city": "VALONGO DO VOUGA",
      "lon": "-8.431197081998512",
      "lat": "40.61270000324833"
    },
    {
      "id": "pt.ine.add.PTCONT.346231",
      "street": "R PADRE CELESTINO A BRANCO",
      "house": "29",
      "postcode": "3750-837",
      "city": "VALONGO DO VOUGA",
      "lon": "-8.428640892639088",
      "lat": "40.611842070630985"
    },
    {
      "id": "pt.ine.add.PTCONT.351138",
      "street": "R PADRE CELESTINO A BRANCO",
      "house": "19",
      "postcode": "3750-837",
      "city": "VALONGO DO VOUGA",
      "lon": "-8.42990680407713",
      "lat": "40.61219002832413"
    },
    {
      "id": "pt.ine.add.PTCONT.1459",
      "street": "R PADRE CELESTINO A BRANCO",
      "house": "37",
      "postcode": "3750-837",
      "city": "VALONGO DO VOUGA",
      "lon": "-8.426288400134242",
      "lat": "40.6116139302114"
    },
    {
      "id": "pt.ine.add.PTCONT.34081",
      "street": "R PADRE CELESTINO A BRANCO",
      "house": "31",
      "postcode": "3750-837",
      "city": "VALONGO DO VOUGA",
      "lon": "-8.428510792978516",
      "lat": "40.611815387772786"
    },
    {
      "id": "pt.ine.add.PTCONT.50400",
      "street": "R PROF BEATRIZ MOURA",
      "house": "",
      "postcode": "3750-837",
      "city": "VALONGO DO VOUGA",
      "lon": "-8.428981921112808",
      "lat": "40.614146534675214"
    },
    {
      "id": "pt.ine.add.PTCONT.57057",
      "street": "R PADRE CELESTINO A BRANCO",
      "house": "9",
      "postcode": "3750-837",
      "city": "VALONGO DO VOUGA",
      "lon": "-8.431658409364369",
      "lat": "40.61280687437676"
    },
    {
      "id": "pt.ine.add.PTCONT.67935",
      "street": "R PROF BEATRIZ MOURA",
      "house": "4",
      "postcode": "3750-808",
      "city": "VALONGO DO VOUGA",
      "lon": "-8.432144656089942",
      "lat": "40.61320184627117"
    },
    {
      "id": "pt.ine.add.PTCONT.87020",
      "street": "R PADRE CELESTINO A BRANCO",
      "house": "15",
      "postcode": "3750-837",
      "city": "VALONGO DO VOUGA",
      "lon": "-8.430321179090866",
      "lat": "40.612369067245304"
    },
    {
      "id": "pt.ine.add.PTCONT.91305",
      "street": "R PROF BEATRIZ MOURA",
      "house": "8",
      "postcode": "3750-836",
      "city": "VALONGO DO VOUGA",
      "lon": "-8.431530550212976",
      "lat": "40.61328448161599"
    },
    {
      "id": "pt.ine.add.PTCONT.105423",
      "street": "R CAMINHO LARGO",
      "house": "4",
      "postcode": "3750-806",
      "city": "VALONGO DO VOUGA",
      "lon": "-8.428076143604745",
      "lat": "40.615085394435035"
    },
    {
      "id": "pt.ine.add.PTCONT.105528",
      "street": "R PROF BEATRIZ MOURA",
      "house": "10",
      "postcode": "3750-837",
      "city": "VALONGO DO VOUGA",
      "lon": "-8.430162766700185",
      "lat": "40.61395439399515"
    },
    {
      "id": "pt.ine.add.PTCONT.105530",
      "street": "R PROF BEATRIZ MOURA",
      "house": "6",
      "postcode": "3750-808",
      "city": "VALONGO DO VOUGA",
      "lon": "-8.43199107960704",
      "lat": "40.61321124901475"
    },
    {
      "id": "pt.ine.add.PTCONT.107530",
      "street": "R PADEIRAS",
      "house": "7",
      "postcode": "3750-837",
      "city": "VALONGO DO VOUGA",
      "lon": "-8.426334681584631",
      "lat": "40.611388682075564"
    },
    {
      "id": "pt.ine.add.PTCONT.107531",
      "street": "R PADRE CELESTINO A BRANCO",
      "house": "3",
      "postcode": "3750-837",
      "city": "VALONGO DO VOUGA",
      "lon": "-8.43194276985033",
      "lat": "40.6129772382283"
    },
    {
      "id": "pt.ine.add.PTCONT.112659",
      "street": "R PADRE CELESTINO A BRANCO",
      "house": "21",
      "postcode": "3750-837",
      "city": "VALONGO DO VOUGA",
      "lon": "-8.429682171391773",
      "lat": "40.61216358967085"
    },
    {
      "id": "pt.ine.add.PTCONT.134110",
      "street": "R PADRE CELESTINO A BRANCO",
      "house": "1",
      "postcode": "3750-837",
      "city": "VALONGO DO VOUGA",
      "lon": "-8.432439469846987",
      "lat": "40.61306600425713"
    },
    {
      "id": "pt.ine.add.PTCONT.137284",
      "street": "R PADRE CELESTINO A BRANCO",
      "house": "13",
      "postcode": "3750-837",
      "city": "VALONGO DO VOUGA",
      "lon": "-8.430877314915191",
      "lat": "40.61253873406092"
    },
    {
      "id": "pt.ine.add.PTCONT.142075",
      "street": "R PADEIRAS",
      "house": "17",
      "postcode": "3750-837",
      "city": "VALONGO DO VOUGA",
      "lon": "-8.427063687044404",
      "lat": "40.61325991570572"
    },
    {
      "id": "pt.ine.add.PTCONT.145179",
      "street": "R PADRE CELESTINO A BRANCO",
      "house": "25",
      "postcode": "3750-837",
      "city": "VALONGO DO VOUGA",
      "lon": "-8.429126121150805",
      "lat": "40.612011927313816"
    },
    {
      "id": "pt.ine.add.PTCONT.155202",
      "street": "R PADRE CELESTINO A BRANCO",
      "house": "35",
      "postcode": "3750-837",
      "city": "VALONGO DO VOUGA",
      "lon": "-8.428001815885121",
      "lat": "40.61161857345709"
    },
    {
      "id": "pt.ine.add.PTCONT.160130",
      "street": "R PADRE CELESTINO A BRANCO",
      "house": "27",
      "postcode": "3750-837",
      "city": "VALONGO DO VOUGA",
      "lon": "-8.428901290814347",
      "lat": "40.6119404615224"
    },
    {
      "id": "pt.ine.add.PTCONT.181080",
      "street": "R PADRE CELESTINO A BRANCO",
      "house": "7",
      "postcode": "3750-837",
      "city": "VALONGO DO VOUGA",
      "lon": "-8.431836179616722",
      "lat": "40.61292348262637"
    },
    {
      "id": "pt.ine.add.PTCONT.238547",
      "street": "R PADEIRAS",
      "house": "19",
      "postcode": "3750-837",
      "city": "VALONGO DO VOUGA",
      "lon": "-8.427147074874492",
      "lat": "40.613412792235344"
    },
    {
      "id": "pt.ine.add.PTCONT.251347",
      "street": "R PADRE CELESTINO A BRANCO",
      "house": "33",
      "postcode": "3750-837",
      "city": "VALONGO DO VOUGA",
      "lon": "-8.428345164900229",
      "lat": "40.61177078513965"
    },
    {
      "id": "pt.ine.add.PTCONT.251890",
      "street": "R INSPECTOR ARMENIO GOMES SANTOS",
      "house": "16",
      "postcode": "3750-808",
      "city": "VALONGO DO VOUGA",
      "lon": "-8.428150967309081",
      "lat": "40.61597672003843"
    },
    {
      "id": "pt.ine.add.PTCONT.276321",
      "street": "R INSPECTOR ARMENIO GOMES SANTOS",
      "house": "18",
      "postcode": "3750-808",
      "city": "VALONGO DO VOUGA",
      "lon": "-8.427891108627156",
      "lat": "40.61600439922363"
    },
    {
      "id": "pt.ine.add.PTCONT.276322",
      "street": "R PADEIRAS",
      "house": "13",
      "postcode": "3750-837",
      "city": "VALONGO DO VOUGA",
      "lon": "-8.426563486270233",
      "lat": "40.61236967052416"
    },
    {
      "id": "pt.ine.add.PTCONT.284122",
      "street": "R PADRE CELESTINO A BRANCO",
      "house": "23",
      "postcode": "3750-837",
      "city": "VALONGO DO VOUGA",
      "lon": "-8.429398098507844",
      "lat": "40.61205625605602"
    },
    {
      "id": "pt.ine.add.PTCONT.289603",
      "street": "R PADEIRAS",
      "house": "365",
      "postcode": "3750-837",
      "city": "VALONGO DO VOUGA",
      "lon": "-8.427668552152149",
      "lat": "40.61376266714669"
    }
  ]
}