{
  "data": {
    "distrito": "Aveiro",
    "concelho": "Águeda",
    "freguesia": "Valongo do Vouga",
    "OBJECTID": 637,
    "BGRI2021": "01011900313",
    "DT21": "01",
    "DTMN21": "0101",
    "DTMNFR21": "010119",
    "DTMNFRSEC21": "010119003",
    "SECNUM21": "003",
    "SSNUM21": "13",
    "SECSSNUM21": "00313",
    "OBJECTID_1": 1217,
    "DT": "01",
    "CC": "01",
    "fr": "19",
    "SEC": "003",
    "SS": "13"
  },
  "addresses": [
    {
      "id": "pt.ine.add.PTCONT.295027",
      "street": "TV LAVOURA",
      "house": "2",
      "postcode": "3750-827",
      "city": "VALONGO DO VOUGA",
      "lon": "-8.43177426134215",
      "lat": "40.62290142121123"
    },
    {
      "id": "pt.ine.add.PTCONT.303337",
      "street": "R JOAQUIM SOUSA BATISTA",
      "house": "14B",
      "postcode": "3750-810",
      "city": "VALONGO DO VOUGA",
      "lon": "-8.4308030605771",
      "lat": "40.61977011558899"
    },
    {
      "id": "pt.ine.add.PTCONT.305567",
      "street": "R PONTE DO RIO MARNEL",
      "house": "4",
      "postcode": "3750-811",
      "city": "VALONGO DO VOUGA",
      "lon": "-8.43298865385159",
      "lat": "40.62224989942993"
    },
    {
      "id": "pt.ine.add.PTCONT.313430",
      "street": "R PACO",
      "house": "16",
      "postcode": "3750-827",
      "city": "VALONGO DO VOUGA",
      "lon": "-8.431337742564404",
      "lat": "40.623073648169594"
    },
    {
      "id": "pt.ine.add.PTCONT.318737",
      "street": "R PICADAS",
      "house": "30",
      "postcode": "3750-827",
      "city": "VALONGO DO VOUGA",
      "lon": "-8.430064984204739",
      "lat": "40.623896401532335"
    },
    {
      "id": "pt.ine.add.PTCONT.342375",
      "street": "R JOAQUIM SOUSA BATISTA",
      "house": "30",
      "postcode": "3750-810",
      "city": "VALONGO DO VOUGA",
      "lon": "-8.432878505349318",
      "lat": "40.62140369573743"
    },
    {
      "id": "pt.ine.add.PTCONT.343800",
      "street": "R FONTE DA AVALE",
      "house": "5A",
      "postcode": "3750-810",
      "city": "VALONGO DO VOUGA",
      "lon": "-8.432108762417801",
      "lat": "40.62105448789254"
    },
    {
      "id": "pt.ine.add.PTCONT.345616",
      "street": "R JOAQUIM SOUSA BATISTA BENEMÉRITO",
      "house": "6",
      "postcode": "3750-810",
      "city": "VALONGO DO VOUGA",
      "lon": "-8.428477882932635",
      "lat": "40.617758917471235"
    },
    {
      "id": "pt.ine.add.PTCONT.350926",
      "street": "R JOAQUIM SOUSA BATISTA",
      "house": "14",
      "postcode": "3750-810",
      "city": "VALONGO DO VOUGA",
      "lon": "-8.431346440025436",
      "lat": "40.61971468244193"
    },
    {
      "id": "pt.ine.add.PTCONT.1341",
      "street": "R PONTE DO RIO MARNEL",
      "house": "2",
      "postcode": "3750-811",
      "city": "VALONGO DO VOUGA",
      "lon": "-8.43270413055909",
      "lat": "40.622052523263335"
    },
    {
      "id": "pt.ine.add.PTCONT.1342",
      "street": "R PONTE DO RIO MARNEL",
      "house": "2",
      "postcode": "3750-811",
      "city": "VALONGO DO VOUGA",
      "lon": "-8.43270413055909",
      "lat": "40.622052523263335"
    },
    {
      "id": "pt.ine.add.PTCONT.1343",
      "street": "R PONTE DO RIO MARNEL",
      "house": "2",
      "postcode": "3750-811",
      "city": "VALONGO DO VOUGA",
      "lon": "-8.43270413055909",
      "lat": "40.622052523263335"
    },
    {
      "id": "pt.ine.add.PTCONT.1344",
      "street": "R PONTE DO RIO MARNEL",
      "house": "2",
      "postcode": "3750-811",
      "city": "VALONGO DO VOUGA",
      "lon": "-8.43270413055909",
      "lat": "40.622052523263335"
    },
    {
      "id": "pt.ine.add.PTCONT.23059",
      "street": "R JOAQUIM SOUSA BATISTA",
      "house": "J",
      "postcode": "3750-810",
      "city": "VALONGO DO VOUGA",
      "lon": "-8.430955332385238",
      "lat": "40.619463545768205"
    },
    {
      "id": "pt.ine.add.PTCONT.23060",
      "street": "R JOAQUIM SOUSA BATISTA",
      "house": "J",
      "postcode": "3750-810",
      "city": "VALONGO DO VOUGA",
      "lon": "-8.430955332385238",
      "lat": "40.619463545768205"
    },
    {
      "id": "pt.ine.add.PTCONT.23173",
      "street": "R JOAQUIM SOUSA BATISTA",
      "house": "J",
      "postcode": "3750-810",
      "city": "VALONGO DO VOUGA",
      "lon": "-8.430955332385238",
      "lat": "40.619463545768205"
    },
    {
      "id": "pt.ine.add.PTCONT.23506",
      "street": "R JOAQUIM SOUSA BATISTA",
      "house": "J",
      "postcode": "3750-810",
      "city": "VALONGO DO VOUGA",
      "lon": "-8.430955332385238",
      "lat": "40.619463545768205"
    },
    {
      "id": "pt.ine.add.PTCONT.23793",
      "street": "R JOAQUIM SOUSA BATISTA",
      "house": "J",
      "postcode": "3750-810",
      "city": "VALONGO DO VOUGA",
      "lon": "-8.430955332385238",
      "lat": "40.619463545768205"
    },
    {
      "id": "pt.ine.add.PTCONT.24006",
      "street": "R FONTE DA AVALE",
      "house": "7",
      "postcode": "3750-810",
      "city": "VALONGO DO VOUGA",
      "lon": "-8.431469105450631",
      "lat": "40.62072294932716"
    },
    {
      "id": "pt.ine.add.PTCONT.26619",
      "street": "R PACO",
      "house": "18",
      "postcode": "3750-827",
      "city": "VALONGO DO VOUGA",
      "lon": "-8.431255253992626",
      "lat": "40.623127892388254"
    },
    {
      "id": "pt.ine.add.PTCONT.28876",
      "street": "R PICADAS",
      "house": "22",
      "postcode": "3750-836",
      "city": "VALONGO DO VOUGA",
      "lon": "-8.430960393706453",
      "lat": "40.623263731306594"
    },
    {
      "id": "pt.ine.add.PTCONT.29843",
      "street": "R BALBOA",
      "house": "",
      "postcode": "3750-827",
      "city": "VALONGO DO VOUGA",
      "lon": "-8.426810267550938",
      "lat": "40.62285111503191"
    },
    {
      "id": "pt.ine.add.PTCONT.34751",
      "street": "R JOAQUIM SOUSA BATISTA",
      "house": "18",
      "postcode": "3750-810",
      "city": "VALONGO DO VOUGA",
      "lon": "-8.43160743394238",
      "lat": "40.61993913849741"
    },
    {
      "id": "pt.ine.add.PTCONT.37547",
      "street": "R PACO",
      "house": "20",
      "postcode": "3750-827",
      "city": "VALONGO DO VOUGA",
      "lon": "-8.431125611671233",
      "lat": "40.62320927385398"
    },
    {
      "id": "pt.ine.add.PTCONT.51212",
      "street": "R JOAQUIM SOUSA BATISTA",
      "house": "10",
      "postcode": "3750-810",
      "city": "VALONGO DO VOUGA",
      "lon": "-8.430409599226753",
      "lat": "40.618987675550514"
    },
    {
      "id": "pt.ine.add.PTCONT.59016",
      "street": "R PICADAS",
      "house": "6",
      "postcode": "3750-836",
      "city": "VALONGO DO VOUGA",
      "lon": "-8.425175057198203",
      "lat": "40.62187369405608"
    },
    {
      "id": "pt.ine.add.PTCONT.80720",
      "street": "R JOAQUIM SOUSA BATISTA",
      "house": "32",
      "postcode": "3750-810",
      "city": "VALONGO DO VOUGA",
      "lon": "-8.432926824618267",
      "lat": "40.62163770575738"
    },
    {
      "id": "pt.ine.add.PTCONT.85876",
      "street": "R JOAQUIM SOUSA BATISTA",
      "house": "20",
      "postcode": "3750-810",
      "city": "VALONGO DO VOUGA",
      "lon": "-8.431702377706253",
      "lat": "40.620028945193354"
    },
    {
      "id": "pt.ine.add.PTCONT.88761",
      "street": "R JOAQUIM SOUSA BATISTA",
      "house": "",
      "postcode": "3750-810",
      "city": "VALONGO DO VOUGA",
      "lon": "-8.431097665775809",
      "lat": "40.6195802463865"
    },
    {
      "id": "pt.ine.add.PTCONT.88762",
      "street": "R JOAQUIM SOUSA BATISTA",
      "house": "",
      "postcode": "3750-810",
      "city": "VALONGO DO VOUGA",
      "lon": "-8.431097665775809",
      "lat": "40.6195802463865"
    },
    {
      "id": "pt.ine.add.PTCONT.88763",
      "street": "R JOAQUIM SOUSA BATISTA",
      "house": "",
      "postcode": "3750-810",
      "city": "VALONGO DO VOUGA",
      "lon": "-8.431097665775809",
      "lat": "40.6195802463865"
    },
    {
      "id": "pt.ine.add.PTCONT.88764",
      "street": "R JOAQUIM SOUSA BATISTA",
      "house": "",
      "postcode": "3750-810",
      "city": "VALONGO DO VOUGA",
      "lon": "-8.431097665775809",
      "lat": "40.6195802463865"
    },
    {
      "id": "pt.ine.add.PTCONT.88765",
      "street": "R JOAQUIM SOUSA BATISTA",
      "house": "",
      "postcode": "3750-810",
      "city": "VALONGO DO VOUGA",
      "lon": "-8.431097665775809",
      "lat": "40.6195802463865"
    },
    {
      "id": "pt.ine.add.PTCONT.93477",
      "street": "R JOAQUIM SOUSA BATISTA",
      "house": "22",
      "postcode": "3750-810",
      "city": "VALONGO DO VOUGA",
      "lon": "-8.431703019256188",
      "lat": "40.62017302692364"
    },
    {
      "id": "pt.ine.add.PTCONT.97849",
      "street": "R JOAQUIM SOUSA BATISTA",
      "house": "12",
      "postcode": "3750-810",
      "city": "VALONGO DO VOUGA",
      "lon": "-8.430493800534764",
      "lat": "40.61932065167063"
    },
    {
      "id": "pt.ine.add.PTCONT.99996",
      "street": "R BALBOA",
      "house": "4",
      "postcode": "3750-827",
      "city": "VALONGO DO VOUGA",
      "lon": "-8.427972665160297",
      "lat": "40.623802705136484"
    },
    {
      "id": "pt.ine.add.PTCONT.111938",
      "street": "R PICADAS",
      "house": "12",
      "postcode": "3750-836",
      "city": "VALONGO DO VOUGA",
      "lon": "-8.431526436228134",
      "lat": "40.62298310869112"
    },
    {
      "id": "pt.ine.add.PTCONT.120699",
      "street": "R PICADAS",
      "house": "26",
      "postcode": "3750-836",
      "city": "VALONGO DO VOUGA",
      "lon": "-8.430630556331737",
      "lat": "40.62350772206098"
    },
    {
      "id": "pt.ine.add.PTCONT.120700",
      "street": "R JOAQUIM SOUSA BATISTA",
      "house": "28",
      "postcode": "3750-810",
      "city": "VALONGO DO VOUGA",
      "lon": "-8.43253501625543",
      "lat": "40.62123348778521"
    },
    {
      "id": "pt.ine.add.PTCONT.123817",
      "street": "R FONTE DA AVALE",
      "house": "5",
      "postcode": "3750-810",
      "city": "VALONGO DO VOUGA",
      "lon": "-8.431752416323267",
      "lat": "40.620650175403654"
    },
    {
      "id": "pt.ine.add.PTCONT.134116",
      "street": "R JOAQUIM SOUSA BATISTA BENEMÉRITO",
      "house": "8",
      "postcode": "3750-810",
      "city": "VALONGO DO VOUGA",
      "lon": "-8.429582520588443",
      "lat": "40.6190258224643"
    },
    {
      "id": "pt.ine.add.PTCONT.141180",
      "street": "R JOAQUIM SOUSA BATISTA",
      "house": "16",
      "postcode": "3750-810",
      "city": "VALONGO DO VOUGA",
      "lon": "-8.431488654426179",
      "lat": "40.6198043672426"
    },
    {
      "id": "pt.ine.add.PTCONT.141866",
      "street": "R FONTE DA AVALE",
      "house": "9",
      "postcode": "3750-810",
      "city": "VALONGO DO VOUGA",
      "lon": "-8.431304014014474",
      "lat": "40.620804422594226"
    },
    {
      "id": "pt.ine.add.PTCONT.142079",
      "street": "R JOAQUIM SOUSA BATISTA",
      "house": "26",
      "postcode": "3750-810",
      "city": "VALONGO DO VOUGA",
      "lon": "-8.43216572415573",
      "lat": "40.62057706424749"
    },
    {
      "id": "pt.ine.add.PTCONT.148988",
      "street": "TV LAVOURA",
      "house": "",
      "postcode": "3750-827",
      "city": "VALONGO DO VOUGA",
      "lon": "-8.431252651361973",
      "lat": "40.62254256061307"
    },
    {
      "id": "pt.ine.add.PTCONT.161361",
      "street": "LG PRAÇA",
      "house": "6",
      "postcode": "3750-810",
      "city": "VALONGO DO VOUGA",
      "lon": "-8.428464836044343",
      "lat": "40.617479789137974"
    },
    {
      "id": "pt.ine.add.PTCONT.168534",
      "street": "R FONTE DA AVALE",
      "house": "3",
      "postcode": "3750-810",
      "city": "VALONGO DO VOUGA",
      "lon": "-8.431929164280776",
      "lat": "40.62053265049138"
    },
    {
      "id": "pt.ine.add.PTCONT.172269",
      "street": "R PICADAS",
      "house": "13",
      "postcode": "3750-836",
      "city": "VALONGO DO VOUGA",
      "lon": "-8.42396932753002",
      "lat": "40.62181370041309"
    },
    {
      "id": "pt.ine.add.PTCONT.184510",
      "street": "R PACO",
      "house": "28",
      "postcode": "3750-836",
      "city": "VALONGO DO VOUGA",
      "lon": "-8.430406284706478",
      "lat": "40.62357133603988"
    },
    {
      "id": "pt.ine.add.PTCONT.189624",
      "street": "R PICADAS",
      "house": "670",
      "postcode": "3750-836",
      "city": "VALONGO DO VOUGA",
      "lon": "-8.424632829494813",
      "lat": "40.622199251549176"
    },
    {
      "id": "pt.ine.add.PTCONT.198890",
      "street": "R PICADAS",
      "house": "8",
      "postcode": "3750-827",
      "city": "VALONGO DO VOUGA",
      "lon": "-8.431856668971463",
      "lat": "40.62282916641474"
    },
    {
      "id": "pt.ine.add.PTCONT.216865",
      "street": "R PICADAS",
      "house": "",
      "postcode": "3750-836",
      "city": "VALONGO DO VOUGA",
      "lon": "-8.424336942884915",
      "lat": "40.62210094073317"
    },
    {
      "id": "pt.ine.add.PTCONT.232975",
      "street": "R PACO",
      "house": "24",
      "postcode": "3750-827",
      "city": "VALONGO DO VOUGA",
      "lon": "-8.430759440310554",
      "lat": "40.62325524417791"
    },
    {
      "id": "pt.ine.add.PTCONT.238370",
      "street": "R JOAQUIM SOUSA BATISTA BENEMÉRITO",
      "house": "8",
      "postcode": "3750-810",
      "city": "VALONGO DO VOUGA",
      "lon": "-8.428149410412718",
      "lat": "40.61830907518475"
    },
    {
      "id": "pt.ine.add.PTCONT.238549",
      "street": "TV LAVOURA",
      "house": "4",
      "postcode": "3750-827",
      "city": "VALONGO DO VOUGA",
      "lon": "-8.431453843080293",
      "lat": "40.62260507751875"
    },
    {
      "id": "pt.ine.add.PTCONT.241116",
      "street": "R PACO",
      "house": "14",
      "postcode": "3750-827",
      "city": "VALONGO DO VOUGA",
      "lon": "-8.431467464504404",
      "lat": "40.623010276673256"
    },
    {
      "id": "pt.ine.add.PTCONT.244017",
      "street": "R PICADAS",
      "house": "6",
      "postcode": "3750-827",
      "city": "VALONGO DO VOUGA",
      "lon": "-8.432269668690484",
      "lat": "40.62268401403747"
    },
    {
      "id": "pt.ine.add.PTCONT.254602",
      "street": "R BALBOA",
      "house": "",
      "postcode": "3750-827",
      "city": "VALONGO DO VOUGA",
      "lon": "-8.426467377278108",
      "lat": "40.62281596567088"
    },
    {
      "id": "pt.ine.add.PTCONT.257439",
      "street": "R JOAQUIM SOUSA BATISTA",
      "house": "14 A",
      "postcode": "3750-810",
      "city": "VALONGO DO VOUGA",
      "lon": "-8.431169693188476",
      "lat": "40.619832206475095"
    },
    {
      "id": "pt.ine.add.PTCONT.267426",
      "street": "R JOAQUIM SOUSA BATISTA",
      "house": "24",
      "postcode": "3750-810",
      "city": "VALONGO DO VOUGA",
      "lon": "-8.431951837048388",
      "lat": "40.62031646675688"
    },
    {
      "id": "pt.ine.add.PTCONT.270942",
      "street": "R JOAQUIM SOUSA BATISTA BENEMÉRITO",
      "house": "8",
      "postcode": "3750-810",
      "city": "VALONGO DO VOUGA",
      "lon": "-8.428858027517853",
      "lat": "40.61820820543644"
    }
  ]
}