{
  "data": {
    "ilha": "Ilha da Madeira (Madeira)",
    "concelho": "Calheta",
    "freguesia": "Ponta do Pargo",
    "OBJECTID": 76,
    "BGRI2021": "31010700126",
    "DT21": "31",
    "DTMN21": "3101",
    "DTMNFR21": "310107",
    "DTMNFRSEC21": "310107001",
    "SECNUM21": "001",
    "SSNUM21": "26",
    "SECSSNUM21": "00126",
    "OBJECTID_1": 203443,
    "DT": "31",
    "CC": "01",
    "fr": "07",
    "SEC": "001",
    "SS": "26",
    "BGRI2021_1": "31010700126"
  },
  "addresses": [
    {
      "id": "pt.ine.add.MAD.26965",
      "street": "CAM SERRADO",
      "house": "87",
      "postcode": "9385-274",
      "city": "PONTA DO PARGO",
      "lon": "-17.23781050774554",
      "lat": "32.818092953981186"
    },
    {
      "id": "pt.ine.add.MAD.26966",
      "street": "VR COVINHA",
      "house": "2",
      "postcode": "9385-274",
      "city": "PONTA DO PARGO",
      "lon": "-17.23802649045501",
      "lat": "32.818188286900096"
    },
    {
      "id": "pt.ine.add.MAD.26967",
      "street": "CAM SERRADO",
      "house": "",
      "postcode": "9385-274",
      "city": "PONTA DO PARGO",
      "lon": "-17.239341257130842",
      "lat": "32.81866074305522"
    },
    {
      "id": "pt.ine.add.MAD.26968",
      "street": "CAM SERRADO",
      "house": "65",
      "postcode": "9385-274",
      "city": "PONTA DO PARGO",
      "lon": "-17.23955746899044",
      "lat": "32.81876508691938"
    },
    {
      "id": "pt.ine.add.MAD.26969",
      "street": "CAM SERRADO",
      "house": "",
      "postcode": "9385-274",
      "city": "PONTA DO PARGO",
      "lon": "-17.239644904209463",
      "lat": "32.818844682004084"
    },
    {
      "id": "pt.ine.add.MAD.26970",
      "street": "TV ACHADA",
      "house": "7",
      "postcode": "9385-278",
      "city": "PONTA DO PARGO",
      "lon": "-17.24036144083856",
      "lat": "32.819309797256714"
    },
    {
      "id": "pt.ine.add.MAD.26971",
      "street": "TV ACHADA",
      "house": "3",
      "postcode": "9385-278",
      "city": "PONTA DO PARGO",
      "lon": "-17.240172008430825",
      "lat": "32.81942140201167"
    },
    {
      "id": "pt.ine.add.MAD.59677",
      "street": "ER 101",
      "house": "360",
      "postcode": "9385-201",
      "city": "PONTA DO PARGO",
      "lon": "-17.238625771681892",
      "lat": "32.81908836295129"
    },
    {
      "id": "pt.ine.add.MAD.80094",
      "street": "TV ACHADA",
      "house": "2",
      "postcode": "9385-278",
      "city": "PONTA DO PARGO",
      "lon": "-17.240516774995157",
      "lat": "32.81954147814933"
    },
    {
      "id": "pt.ine.add.MAD.87066",
      "street": "VR COVINHA",
      "house": "4",
      "postcode": "9385-274",
      "city": "PONTA DO PARGO",
      "lon": "-17.237901332128313",
      "lat": "32.8183077564588"
    },
    {
      "id": "pt.ine.add.MAD.100536",
      "street": "VR COVINHA",
      "house": "11",
      "postcode": "9385-274",
      "city": "PONTA DO PARGO",
      "lon": "-17.237599900916415",
      "lat": "32.81863778706412"
    },
    {
      "id": "pt.ine.add.MAD.104121",
      "street": "VR COVINHA",
      "house": "3",
      "postcode": "9385-274",
      "city": "PONTA DO PARGO",
      "lon": "-17.23800215349961",
      "lat": "32.81849532671566"
    },
    {
      "id": "pt.ine.add.MAD.125506",
      "street": "ER 101",
      "house": "352",
      "postcode": "9385-201",
      "city": "PONTA DO PARGO",
      "lon": "-17.239830184571005",
      "lat": "32.81941850329777"
    },
    {
      "id": "pt.ine.add.MAD.125784",
      "street": "CAM SERRADO",
      "house": "71",
      "postcode": "9385-274",
      "city": "PONTA DO PARGO",
      "lon": "-17.238895402007387",
      "lat": "32.81876791671752"
    },
    {
      "id": "pt.ine.add.MAD.128140",
      "street": "CAM SERRADO",
      "house": "",
      "postcode": "9385-274",
      "city": "PONTA DO PARGO",
      "lon": "-17.23821271042757",
      "lat": "32.81837432959348"
    }
  ]
}