{
  "data": {
    "ilha": "Ilha da Madeira (Madeira)",
    "concelho": "Calheta",
    "freguesia": "Ponta do Pargo",
    "OBJECTID": 50,
    "BGRI2021": "31010700127",
    "DT21": "31",
    "DTMN21": "3101",
    "DTMNFR21": "310107",
    "DTMNFRSEC21": "310107001",
    "SECNUM21": "001",
    "SSNUM21": "27",
    "SECSSNUM21": "00127",
    "OBJECTID_1": 203391,
    "DT": "31",
    "CC": "01",
    "fr": "07",
    "SEC": "001",
    "SS": "27",
    "BGRI2021_1": "31010700127"
  },
  "addresses": [
    {
      "id": "pt.ine.add.MAD.24476",
      "street": "R CESAR AUGUSTO PESTANA",
      "house": "",
      "postcode": "9385-251",
      "city": "PONTA DO PARGO",
      "lon": "-17.249397076289352",
      "lat": "32.81382722148812"
    },
    {
      "id": "pt.ine.add.MAD.24477",
      "street": "R CESAR AUGUSTO PESTANA",
      "house": "",
      "postcode": "9385-251",
      "city": "PONTA DO PARGO",
      "lon": "-17.250928713265814",
      "lat": "32.81400708956962"
    },
    {
      "id": "pt.ine.add.MAD.24478",
      "street": "CAM CASA QUEIMADA",
      "house": "9",
      "postcode": "9385-258",
      "city": "PONTA DO PARGO",
      "lon": "-17.24972344392632",
      "lat": "32.81448866861198"
    },
    {
      "id": "pt.ine.add.MAD.24479",
      "street": "IMP ACHADINHA",
      "house": "",
      "postcode": "9385-252",
      "city": "PONTA DO PARGO",
      "lon": "-17.24729402759122",
      "lat": "32.814279822750954"
    },
    {
      "id": "pt.ine.add.MAD.24480",
      "street": "IMP ACHADINHA",
      "house": "",
      "postcode": "9385-252",
      "city": "PONTA DO PARGO",
      "lon": "-17.24784068507314",
      "lat": "32.814360182231404"
    },
    {
      "id": "pt.ine.add.MAD.24481",
      "street": "IMP ACHADINHA",
      "house": "24",
      "postcode": "9385-252",
      "city": "PONTA DO PARGO",
      "lon": "-17.248641481497522",
      "lat": "32.814354813122364"
    },
    {
      "id": "pt.ine.add.MAD.24482",
      "street": "CAM CASA QUEIMADA",
      "house": "2",
      "postcode": "9385-258",
      "city": "PONTA DO PARGO",
      "lon": "-17.249274211664126",
      "lat": "32.814036838314664"
    },
    {
      "id": "pt.ine.add.MAD.26983",
      "street": "CAM VELHO",
      "house": "",
      "postcode": "9385-268",
      "city": "PONTA DO PARGO",
      "lon": "-17.24608352534944",
      "lat": "32.814130217677906"
    },
    {
      "id": "pt.ine.add.MAD.26984",
      "street": "R CESAR AUGUSTO PESTANA",
      "house": "6",
      "postcode": "9385-251",
      "city": "PONTA DO PARGO",
      "lon": "-17.246275661766614",
      "lat": "32.814126768993425"
    },
    {
      "id": "pt.ine.add.MAD.26985",
      "street": "R CESAR AUGUSTO PESTANA",
      "house": "8",
      "postcode": "9385-251",
      "city": "PONTA DO PARGO",
      "lon": "-17.246421016730075",
      "lat": "32.81396184003749"
    },
    {
      "id": "pt.ine.add.MAD.26986",
      "street": "IMP ACHADINHA",
      "house": "",
      "postcode": "9385-252",
      "city": "PONTA DO PARGO",
      "lon": "-17.247979902878274",
      "lat": "32.81479955169095"
    },
    {
      "id": "pt.ine.add.MAD.26987",
      "street": "R FAROL",
      "house": "",
      "postcode": "9385-251",
      "city": "PONTA DO PARGO",
      "lon": "-17.253818841816354",
      "lat": "32.81638986208464"
    },
    {
      "id": "pt.ine.add.MAD.26988",
      "street": "IMP ACHADINHA",
      "house": "2",
      "postcode": "9385-252",
      "city": "PONTA DO PARGO",
      "lon": "-17.246518219353735",
      "lat": "32.8140051839346"
    },
    {
      "id": "pt.ine.add.MAD.27080",
      "street": "R PEDREGAL",
      "house": "13",
      "postcode": "9385-268",
      "city": "PONTA DO PARGO",
      "lon": "-17.24632734501313",
      "lat": "32.81872489984961"
    },
    {
      "id": "pt.ine.add.MAD.27081",
      "street": "CAM VELHO HERDADE DO PEDREGAL",
      "house": "13",
      "postcode": "9385-268",
      "city": "PONTA DO PARGO",
      "lon": "-17.244835398741497",
      "lat": "32.818003199450224"
    },
    {
      "id": "pt.ine.add.MAD.27082",
      "street": "CAM VELHO",
      "house": "11",
      "postcode": "9385-268",
      "city": "PONTA DO PARGO",
      "lon": "-17.246475907902575",
      "lat": "32.81741465768485"
    },
    {
      "id": "pt.ine.add.MAD.54246",
      "street": "IMP ACHADINHA",
      "house": "",
      "postcode": "9385-252",
      "city": "PONTA DO PARGO",
      "lon": "-17.249620791636357",
      "lat": "32.81465283361427"
    },
    {
      "id": "pt.ine.add.MAD.59678",
      "street": "CAM PIQUINHO",
      "house": "",
      "postcode": "9385-214",
      "city": "PONTA DO PARGO",
      "lon": "-17.24763443567632",
      "lat": "32.81931463598936"
    },
    {
      "id": "pt.ine.add.MAD.62438",
      "street": "CAM VELHO",
      "house": "",
      "postcode": "9385-268",
      "city": "PONTA DO PARGO",
      "lon": "-17.245876631189624",
      "lat": "32.81397161113383"
    },
    {
      "id": "pt.ine.add.MAD.62935",
      "street": "R FAROL",
      "house": "15",
      "postcode": "9385-251",
      "city": "PONTA DO PARGO",
      "lon": "-17.253544720636945",
      "lat": "32.81653006510166"
    },
    {
      "id": "pt.ine.add.MAD.62936",
      "street": "R FAROL",
      "house": "5",
      "postcode": "9385-251",
      "city": "PONTA DO PARGO",
      "lon": "-17.25637394559627",
      "lat": "32.81438696727247"
    },
    {
      "id": "pt.ine.add.MAD.71146",
      "street": "IMP ACHADINHA",
      "house": "10",
      "postcode": "9385-252",
      "city": "PONTA DO PARGO",
      "lon": "-17.246785067513727",
      "lat": "32.814424228121844"
    },
    {
      "id": "pt.ine.add.MAD.71148",
      "street": "CAM CASA QUEIMADA",
      "house": "6",
      "postcode": "9385-258",
      "city": "PONTA DO PARGO",
      "lon": "-17.249432057706525",
      "lat": "32.81436765810676"
    },
    {
      "id": "pt.ine.add.MAD.75112",
      "street": "IMP ACHADINHA",
      "house": "18",
      "postcode": "9385-252",
      "city": "PONTA DO PARGO",
      "lon": "-17.246891810271837",
      "lat": "32.81442231160914"
    },
    {
      "id": "pt.ine.add.MAD.81631",
      "street": "IMP ACHADINHA",
      "house": "",
      "postcode": "9385-252",
      "city": "PONTA DO PARGO",
      "lon": "-17.24671330570558",
      "lat": "32.814118912557106"
    },
    {
      "id": "pt.ine.add.MAD.86176",
      "street": "R FAROL CASA DA OLIVEIRA",
      "house": "7",
      "postcode": "9385-251",
      "city": "PONTA DO PARGO",
      "lon": "-17.254713612601535",
      "lat": "32.81545393368139"
    },
    {
      "id": "pt.ine.add.MAD.87215",
      "street": "CAM CASA QUEIMADA",
      "house": "",
      "postcode": "9385-258",
      "city": "PONTA DO PARGO",
      "lon": "-17.24953061994412",
      "lat": "32.81404124715835"
    },
    {
      "id": "pt.ine.add.MAD.87216",
      "street": "IMP ACHADINHA",
      "house": "",
      "postcode": "9385-252",
      "city": "PONTA DO PARGO",
      "lon": "-17.24905255217115",
      "lat": "32.814140017533596"
    },
    {
      "id": "pt.ine.add.MAD.90450",
      "street": "IMP ACHADINHA",
      "house": "6",
      "postcode": "9385-252",
      "city": "PONTA DO PARGO",
      "lon": "-17.246428277996216",
      "lat": "32.814250278153686"
    },
    {
      "id": "pt.ine.add.MAD.93785",
      "street": "R FAROL",
      "house": "3",
      "postcode": "9385-251",
      "city": "PONTA DO PARGO",
      "lon": "-17.257806568331507",
      "lat": "32.814451305131804"
    },
    {
      "id": "pt.ine.add.MAD.93786",
      "street": "CAM CASA QUEIMADA",
      "house": "",
      "postcode": "9385-258",
      "city": "PONTA DO PARGO",
      "lon": "-17.249641906829968",
      "lat": "32.81421960174822"
    },
    {
      "id": "pt.ine.add.MAD.106738",
      "street": "SAL√ÉO DE BAIXO",
      "house": "",
      "postcode": "9385-110",
      "city": "PONTA DO PARGO",
      "lon": "-17.24961033861134",
      "lat": "32.81423820475425"
    },
    {
      "id": "pt.ine.add.MAD.122001",
      "street": "R DO FAROL",
      "house": "11",
      "postcode": "9385-251",
      "city": "PONTA DO PARGO",
      "lon": "-17.25407500111809",
      "lat": "32.81596141427523"
    },
    {
      "id": "pt.ine.add.MAD.127272",
      "street": "IMP ACHADINHA",
      "house": "3",
      "postcode": "9385-252",
      "city": "PONTA DO PARGO",
      "lon": "-17.248302176371123",
      "lat": "32.81445108719604"
    },
    {
      "id": "pt.ine.add.MAD.127291",
      "street": "CAM CASA QUEIMADA",
      "house": "8",
      "postcode": "9385-258",
      "city": "PONTA DO PARGO",
      "lon": "-17.24953539737039",
      "lat": "32.81465436870249"
    }
  ]
}