{
  "data": {
    "distrito": "Lisboa",
    "concelho": "Mafra",
    "freguesia": "União das freguesias de Igreja Nova e Cheleiros",
    "OBJECTID": 1103,
    "BGRI2021": "11092000110",
    "DT21": "11",
    "DTMN21": "1109",
    "DTMNFR21": "110920",
    "DTMNFRSEC21": "110920001",
    "SECNUM21": "001",
    "SSNUM21": "10",
    "SECSSNUM21": "00110",
    "OBJECTID_1": 108451,
    "DT": "11",
    "CC": "09",
    "fr": "20",
    "SEC": "001",
    "SS": "10"
  },
  "addresses": [
    {
      "id": "pt.ine.add.PTCONT.2269398",
      "street": "VALO DA RIBEIRA",
      "house": "",
      "postcode": "2640-307",
      "city": "IGREJA NOVA MFR",
      "lon": "-9.348031604172515",
      "lat": "38.92035680796264"
    },
    {
      "id": "pt.ine.add.PTCONT.2352957",
      "street": "R PINHEIRO MANSO",
      "house": "",
      "postcode": "2640-151",
      "city": "CHELEIROS",
      "lon": "-9.351685022789985",
      "lat": "38.92093123127209"
    },
    {
      "id": "pt.ine.add.PTCONT.2367830",
      "street": "VALO DA RIBEIRA",
      "house": "",
      "postcode": "2640-307",
      "city": "IGREJA NOVA MFR",
      "lon": "-9.34801223382976",
      "lat": "38.9205731882394"
    },
    {
      "id": "pt.ine.add.PTCONT.2399350",
      "street": "ESTR PRINCIPAL",
      "house": "",
      "postcode": "2640-306",
      "city": "IGREJA NOVA MFR",
      "lon": "-9.346366767832341",
      "lat": "38.91603253362931"
    },
    {
      "id": "pt.ine.add.PTCONT.2426758",
      "street": "R ALTO DO PIPO",
      "house": "1",
      "postcode": "2640-370",
      "city": "IGREJA NOVA MFR",
      "lon": "-9.346534521280613",
      "lat": "38.92317369527078"
    },
    {
      "id": "pt.ine.add.PTCONT.2550601",
      "street": "R REDONDO",
      "house": "",
      "postcode": "2640-370",
      "city": "IGREJA NOVA MFR",
      "lon": "-9.351921012415616",
      "lat": "38.92191958583847"
    },
    {
      "id": "pt.ine.add.PTCONT.2569481",
      "street": "R PINHEIRO MANSO",
      "house": "",
      "postcode": "2640-306",
      "city": "IGREJA NOVA MFR",
      "lon": "-9.351180370222261",
      "lat": "38.920414066899475"
    },
    {
      "id": "pt.ine.add.PTCONT.2569482",
      "street": "ESTR PIPO",
      "house": "",
      "postcode": "2640-370",
      "city": "IGREJA NOVA MFR",
      "lon": "-9.345907673854342",
      "lat": "38.92292800165843"
    },
    {
      "id": "pt.ine.add.PTCONT.2716763",
      "street": "R REDONDO",
      "house": "",
      "postcode": "2640-370",
      "city": "IGREJA NOVA MFR",
      "lon": "-9.351018377916684",
      "lat": "38.9210552855873"
    },
    {
      "id": "pt.ine.add.PTCONT.2757920",
      "street": "R ARNEIRO",
      "house": "",
      "postcode": "2640-307",
      "city": "IGREJA NOVA MFR",
      "lon": "-9.349231941148425",
      "lat": "38.92245204992012"
    },
    {
      "id": "pt.ine.add.PTCONT.2865793",
      "street": "R PINHEIRO MANSO",
      "house": "",
      "postcode": "2640-151",
      "city": "CHELEIROS",
      "lon": "-9.353126881927274",
      "lat": "38.92163676516323"
    },
    {
      "id": "pt.ine.add.PTCONT.2902741",
      "street": "R REDONDO",
      "house": "",
      "postcode": "2640-370",
      "city": "IGREJA NOVA MFR",
      "lon": "-9.350906154235544",
      "lat": "38.92056104715301"
    },
    {
      "id": "pt.ine.add.PTCONT.2929466",
      "street": "",
      "house": "",
      "postcode": "2640-370",
      "city": "IGREJA NOVA MFR",
      "lon": "-9.348303657354668",
      "lat": "38.92211042747445"
    },
    {
      "id": "pt.ine.add.PTCONT.2935712",
      "street": "ESTR PIPO",
      "house": "286",
      "postcode": "2640-370",
      "city": "IGREJA NOVA MFR",
      "lon": "-9.35159071779126",
      "lat": "38.91878844434001"
    },
    {
      "id": "pt.ine.add.PTCONT.2957133",
      "street": "R PINHEIRO MANSO",
      "house": "",
      "postcode": "2640-370",
      "city": "IGREJA NOVA MFR",
      "lon": "-9.351058486226242",
      "lat": "38.92070357686914"
    },
    {
      "id": "pt.ine.add.PTCONT.3071363",
      "street": "CSL RAPOSA",
      "house": "",
      "postcode": "2640-370",
      "city": "IGREJA NOVA MFR",
      "lon": "-9.348253542524011",
      "lat": "38.922552313829414"
    },
    {
      "id": "pt.ine.add.PTCONT.3108355",
      "street": "",
      "house": "",
      "postcode": "2640-151",
      "city": "CHELEIROS",
      "lon": "-9.347667281245492",
      "lat": "38.92198193920732"
    },
    {
      "id": "pt.ine.add.PTCONT.3132489",
      "street": "",
      "house": "",
      "postcode": "2640-370",
      "city": "IGREJA NOVA MFR",
      "lon": "-9.345267769387076",
      "lat": "38.92259236580618"
    },
    {
      "id": "pt.ine.add.PTCONT.3234880",
      "street": "",
      "house": "",
      "postcode": "2640-370",
      "city": "IGREJA NOVA MFR",
      "lon": "-9.347158472589756",
      "lat": "38.9225727161161"
    },
    {
      "id": "pt.ine.add.PTCONT.3318043",
      "street": "CAM CASAL DA SERRA",
      "house": "",
      "postcode": "2640-303",
      "city": "IGREJA NOVA MFR",
      "lon": "-9.341886712828098",
      "lat": "38.91564665370155"
    },
    {
      "id": "pt.ine.add.PTCONT.3318044",
      "street": "ESTR PRINCIPAL",
      "house": "8",
      "postcode": "2640-306",
      "city": "IGREJA NOVA MFR",
      "lon": "-9.350170416368055",
      "lat": "38.915965915669275"
    },
    {
      "id": "pt.ine.add.PTCONT.3326758",
      "street": "",
      "house": "",
      "postcode": "2640-370",
      "city": "IGREJA NOVA MFR",
      "lon": "-9.347188744588335",
      "lat": "38.922995751013836"
    },
    {
      "id": "pt.ine.add.PTCONT.3345504",
      "street": "ESTR PRINCIPAL CASA PIPO",
      "house": "2",
      "postcode": "2640-300",
      "city": "IGREJA NOVA MFR",
      "lon": "-9.348129499505172",
      "lat": "38.922040180908795"
    },
    {
      "id": "pt.ine.add.PTCONT.3345505",
      "street": "",
      "house": "",
      "postcode": "2640-370",
      "city": "IGREJA NOVA MFR",
      "lon": "-9.346335924377877",
      "lat": "38.92302263312426"
    },
    {
      "id": "pt.ine.add.PTCONT.3345508",
      "street": "",
      "house": "",
      "postcode": "2640-370",
      "city": "IGREJA NOVA MFR",
      "lon": "-9.348936657022952",
      "lat": "38.92474301556804"
    },
    {
      "id": "pt.ine.add.PTCONT.3361431",
      "street": "R ANTÓNIO CESTEIRO",
      "house": "",
      "postcode": "2640-370",
      "city": "IGREJA NOVA MFR",
      "lon": "-9.35267453098885",
      "lat": "38.92215491627158"
    },
    {
      "id": "pt.ine.add.PTCONT.3389347",
      "street": "",
      "house": "",
      "postcode": "2640-328",
      "city": "IGREJA NOVA MFR",
      "lon": "-9.359159530789768",
      "lat": "38.92176271230375"
    },
    {
      "id": "pt.ine.add.PTCONT.3418676",
      "street": "ESTR PRINCIPAL",
      "house": "",
      "postcode": "2640-306",
      "city": "IGREJA NOVA MFR",
      "lon": "-9.349163057978648",
      "lat": "38.915715198173594"
    },
    {
      "id": "pt.ine.add.PTCONT.3418680",
      "street": "",
      "house": "",
      "postcode": "2640-370",
      "city": "IGREJA NOVA MFR",
      "lon": "-9.347910438237792",
      "lat": "38.923393577135705"
    },
    {
      "id": "pt.ine.add.PTCONT.3418681",
      "street": "R PRINCIPAL",
      "house": "",
      "postcode": "2640-303",
      "city": "IGREJA NOVA MFR",
      "lon": "-9.345028118691122",
      "lat": "38.92273897335291"
    },
    {
      "id": "pt.ine.add.PTCONT.3445301",
      "street": "",
      "house": "",
      "postcode": "2640-370",
      "city": "IGREJA NOVA MFR",
      "lon": "-9.345951767701814",
      "lat": "38.923486004903936"
    }
  ]
}