{
  "data": {
    "distrito": "Leiria",
    "concelho": "Alcobaça",
    "freguesia": "União das freguesias de Pataias e Martingança",
    "OBJECTID": 609,
    "BGRI2021": "10012300501",
    "DT21": "10",
    "DTMN21": "1001",
    "DTMNFR21": "100123",
    "DTMNFRSEC21": "100123005",
    "SECNUM21": "005",
    "SSNUM21": "01",
    "SECSSNUM21": "00501",
    "OBJECTID_1": 84363,
    "DT": "10",
    "CC": "01",
    "fr": "23",
    "SEC": "005",
    "SS": "01"
  },
  "addresses": [
    {
      "id": "pt.ine.add.PTCONT.1986509",
      "street": "R FALCA",
      "house": "",
      "postcode": "2445-072",
      "city": "PATAIAS",
      "lon": "-9.069003687116128",
      "lat": "39.64906827385664"
    },
    {
      "id": "pt.ine.add.PTCONT.1995456",
      "street": "R FALCA",
      "house": "",
      "postcode": "2445-072",
      "city": "PATAIAS",
      "lon": "-9.068822030587999",
      "lat": "39.64942099175076"
    },
    {
      "id": "pt.ine.add.PTCONT.1999433",
      "street": "R LEGUA",
      "house": "",
      "postcode": "2445-112",
      "city": "PATAIAS",
      "lon": "-9.064710350169682",
      "lat": "39.6494990769652"
    },
    {
      "id": "pt.ine.add.PTCONT.1999926",
      "street": "R PRAIA",
      "house": "",
      "postcode": "2445-112",
      "city": "PATAIAS",
      "lon": "-9.069189988503904",
      "lat": "39.65165164302105"
    },
    {
      "id": "pt.ine.add.PTCONT.2023559",
      "street": "R PRAIA",
      "house": "",
      "postcode": "2445-112",
      "city": "PATAIAS",
      "lon": "-9.06830374719122",
      "lat": "39.65073111126102"
    },
    {
      "id": "pt.ine.add.PTCONT.2023563",
      "street": "QTA FALCA",
      "house": "",
      "postcode": "2445-072",
      "city": "PATAIAS",
      "lon": "-9.069211292300695",
      "lat": "39.64718423793451"
    },
    {
      "id": "pt.ine.add.PTCONT.2025898",
      "street": "R NSA SRA DA VITÓRIA",
      "house": "",
      "postcode": "2445-072",
      "city": "PATAIAS",
      "lon": "-9.067641921359117",
      "lat": "39.64830467813946"
    },
    {
      "id": "pt.ine.add.PTCONT.2041280",
      "street": "R FALCA",
      "house": "",
      "postcode": "2445-072",
      "city": "PATAIAS",
      "lon": "-9.068517560606324",
      "lat": "39.64671248137808"
    },
    {
      "id": "pt.ine.add.PTCONT.2059452",
      "street": "R LEGUA",
      "house": "",
      "postcode": "2445-112",
      "city": "PATAIAS",
      "lon": "-9.064770411161264",
      "lat": "39.649633693012284"
    },
    {
      "id": "pt.ine.add.PTCONT.2071231",
      "street": "R NSA SRA DA VITÓRIA",
      "house": "",
      "postcode": "2445-072",
      "city": "PATAIAS",
      "lon": "-9.064472864685055",
      "lat": "39.64742948138866"
    },
    {
      "id": "pt.ine.add.PTCONT.2071578",
      "street": "R DA FALCA",
      "house": "",
      "postcode": "2445-072",
      "city": "PATAIAS",
      "lon": "-9.068866686055415",
      "lat": "39.64927652767228"
    },
    {
      "id": "pt.ine.add.PTCONT.2073397",
      "street": "R NSA SRA DA VITÓRIA",
      "house": "",
      "postcode": "2445-072",
      "city": "PATAIAS",
      "lon": "-9.067675656829744",
      "lat": "39.64821434147835"
    },
    {
      "id": "pt.ine.add.PTCONT.2073966",
      "street": "R FALCA",
      "house": "",
      "postcode": "2445-072",
      "city": "PATAIAS",
      "lon": "-9.06923995581064",
      "lat": "39.64930954579249"
    },
    {
      "id": "pt.ine.add.PTCONT.2089544",
      "street": "R FALCA",
      "house": "",
      "postcode": "2445-072",
      "city": "PATAIAS",
      "lon": "-9.068754197246685",
      "lat": "39.64957464904767"
    },
    {
      "id": "pt.ine.add.PTCONT.2095367",
      "street": "R NSA SRA DA VITÓRIA",
      "house": "",
      "postcode": "2445-112",
      "city": "PATAIAS",
      "lon": "-9.065989107800595",
      "lat": "39.65015529546616"
    },
    {
      "id": "pt.ine.add.PTCONT.2113786",
      "street": "R FALCA",
      "house": "",
      "postcode": "2445-072",
      "city": "PATAIAS",
      "lon": "-9.067868473839043",
      "lat": "39.64869013543472"
    },
    {
      "id": "pt.ine.add.PTCONT.2120484",
      "street": "R ALCOBACA",
      "house": "",
      "postcode": "2445-112",
      "city": "PATAIAS",
      "lon": "-9.067817139521011",
      "lat": "39.649203920227556"
    },
    {
      "id": "pt.ine.add.PTCONT.2124678",
      "street": "R LEGUA",
      "house": "",
      "postcode": "2445-112",
      "city": "PATAIAS",
      "lon": "-9.065498854399648",
      "lat": "39.65008718001715"
    },
    {
      "id": "pt.ine.add.PTCONT.2130060",
      "street": "R LEGUA",
      "house": "",
      "postcode": "2445-112",
      "city": "PATAIAS",
      "lon": "-9.06457918367979",
      "lat": "39.649274965949054"
    },
    {
      "id": "pt.ine.add.PTCONT.2168350",
      "street": "R ALCOBACA",
      "house": "",
      "postcode": "2445-112",
      "city": "PATAIAS",
      "lon": "-9.06793460474938",
      "lat": "39.64927502699593"
    },
    {
      "id": "pt.ine.add.PTCONT.2179040",
      "street": "R NSA SRA DA VITÓRIA",
      "house": "",
      "postcode": "2445-112",
      "city": "PATAIAS",
      "lon": "-9.067454914257999",
      "lat": "39.64912577607925"
    },
    {
      "id": "pt.ine.add.PTCONT.2183482",
      "street": "R FALCA",
      "house": "",
      "postcode": "2445-072",
      "city": "PATAIAS",
      "lon": "-9.068913526885968",
      "lat": "39.64929416331457"
    },
    {
      "id": "pt.ine.add.PTCONT.2190164",
      "street": "R NSA SRA DA VITÓRIA",
      "house": "",
      "postcode": "2445-072",
      "city": "PATAIAS",
      "lon": "-9.067529186285121",
      "lat": "39.648584787330094"
    },
    {
      "id": "pt.ine.add.PTCONT.2194741",
      "street": "R FALCA",
      "house": "",
      "postcode": "2445-072",
      "city": "PATAIAS",
      "lon": "-9.068290643045536",
      "lat": "39.6488938869475"
    },
    {
      "id": "pt.ine.add.PTCONT.2235647",
      "street": "R NSA SRA DA VITÓRIA",
      "house": "",
      "postcode": "2445-112",
      "city": "PATAIAS",
      "lon": "-9.067247284105157",
      "lat": "39.6492805570436"
    },
    {
      "id": "pt.ine.add.PTCONT.2238546",
      "street": "R LEGUA",
      "house": "",
      "postcode": "2445-112",
      "city": "PATAIAS",
      "lon": "-9.06472296673375",
      "lat": "39.649571027934115"
    },
    {
      "id": "pt.ine.add.PTCONT.2243922",
      "street": "R NSA SRA DA VITÓRIA",
      "house": "",
      "postcode": "2445-112",
      "city": "PATAIAS",
      "lon": "-9.067432463890578",
      "lat": "39.64918900232304"
    },
    {
      "id": "pt.ine.add.PTCONT.2267472",
      "street": "R LEGUA",
      "house": "",
      "postcode": "2445-112",
      "city": "PATAIAS",
      "lon": "-9.065910465028484",
      "lat": "39.65037208356411"
    },
    {
      "id": "pt.ine.add.PTCONT.2268224",
      "street": "R NSA SRA DA VITÓRIA",
      "house": "",
      "postcode": "2445-112",
      "city": "PATAIAS",
      "lon": "-9.065974674185846",
      "lat": "39.64994826144802"
    }
  ]
}