{
  "data": {
    "distrito": "Leiria",
    "concelho": "Alcobaça",
    "freguesia": "União das freguesias de Pataias e Martingança",
    "OBJECTID": 612,
    "BGRI2021": "10012300502",
    "DT21": "10",
    "DTMN21": "1001",
    "DTMNFR21": "100123",
    "DTMNFRSEC21": "100123005",
    "SECNUM21": "005",
    "SSNUM21": "02",
    "SECSSNUM21": "00502",
    "OBJECTID_1": 84197,
    "DT": "10",
    "CC": "01",
    "fr": "23",
    "SEC": "005",
    "SS": "02"
  },
  "addresses": [
    {
      "id": "pt.ine.add.PTCONT.1979842",
      "street": "ESTR ALCOBACA",
      "house": "7",
      "postcode": "2445-407",
      "city": "PATAIAS",
      "lon": "-8.983558819307422",
      "lat": "39.655867821051096"
    },
    {
      "id": "pt.ine.add.PTCONT.1990967",
      "street": "ESTR ALCOBACA",
      "house": "37",
      "postcode": "2445-407",
      "city": "PATAIAS",
      "lon": "-8.982830616512084",
      "lat": "39.652540727011015"
    },
    {
      "id": "pt.ine.add.PTCONT.2002030",
      "street": "BR FRAZAO",
      "house": "7",
      "postcode": "2445-402",
      "city": "PATAIAS",
      "lon": "-8.982873465428815",
      "lat": "39.64937911224766"
    },
    {
      "id": "pt.ine.add.PTCONT.2030379",
      "street": "R ESTREITA",
      "house": "2",
      "postcode": "2445-420",
      "city": "PATAIAS",
      "lon": "-8.983655889764677",
      "lat": "39.656182339402136"
    },
    {
      "id": "pt.ine.add.PTCONT.2037075",
      "street": "ESTR ALCOBACA",
      "house": "33",
      "postcode": "2445-407",
      "city": "PATAIAS",
      "lon": "-8.983527428485901",
      "lat": "39.65235549592116"
    },
    {
      "id": "pt.ine.add.PTCONT.2050289",
      "street": "R ESTREITA",
      "house": "22",
      "postcode": "2445-420",
      "city": "PATAIAS",
      "lon": "-8.980306786792891",
      "lat": "39.65386511442947"
    },
    {
      "id": "pt.ine.add.PTCONT.2070773",
      "street": "ESTR ALCOBACA",
      "house": "33",
      "postcode": "2445-407",
      "city": "PATAIAS",
      "lon": "-8.983517543840692",
      "lat": "39.652499673157656"
    },
    {
      "id": "pt.ine.add.PTCONT.2087353",
      "street": "R ESTREITA",
      "house": "8",
      "postcode": "2445-420",
      "city": "PATAIAS",
      "lon": "-8.981571211752131",
      "lat": "39.654360251245826"
    },
    {
      "id": "pt.ine.add.PTCONT.2095296",
      "street": "ESTR ALCOBACA",
      "house": "59",
      "postcode": "2445-407",
      "city": "PATAIAS",
      "lon": "-8.983458933783954",
      "lat": "39.64961800439123"
    },
    {
      "id": "pt.ine.add.PTCONT.2101966",
      "street": "ESTR ALCOBACA",
      "house": "15",
      "postcode": "2445-407",
      "city": "PATAIAS",
      "lon": "-8.983292018128303",
      "lat": "39.65501415220963"
    },
    {
      "id": "pt.ine.add.PTCONT.2103398",
      "street": "R ESTREITA",
      "house": "18",
      "postcode": "2445-420",
      "city": "PATAIAS",
      "lon": "-8.980588819481918",
      "lat": "39.654061200989155"
    },
    {
      "id": "pt.ine.add.PTCONT.2120527",
      "street": "R ESTREITA",
      "house": "12",
      "postcode": "2445-420",
      "city": "PATAIAS",
      "lon": "-8.98105825393397",
      "lat": "39.65433697777248"
    },
    {
      "id": "pt.ine.add.PTCONT.2139739",
      "street": "ESTR ALCOBACA",
      "house": "29",
      "postcode": "2445-407",
      "city": "PATAIAS",
      "lon": "-8.982938005779243",
      "lat": "39.652747092030076"
    },
    {
      "id": "pt.ine.add.PTCONT.2142295",
      "street": "ESTR ALCOBACA",
      "house": "59",
      "postcode": "2445-407",
      "city": "PATAIAS",
      "lon": "-8.983308478865263",
      "lat": "39.64970016484838"
    },
    {
      "id": "pt.ine.add.PTCONT.2145258",
      "street": "R ESTREITA",
      "house": "10",
      "postcode": "2445-420",
      "city": "PATAIAS",
      "lon": "-8.98125829577718",
      "lat": "39.65449763504845"
    },
    {
      "id": "pt.ine.add.PTCONT.2148654",
      "street": "R ESTREITA",
      "house": "20",
      "postcode": "2445-420",
      "city": "PATAIAS",
      "lon": "-8.980436042414564",
      "lat": "39.653954237044715"
    },
    {
      "id": "pt.ine.add.PTCONT.2187925",
      "street": "R ESTREITA",
      "house": "6",
      "postcode": "2445-420",
      "city": "PATAIAS",
      "lon": "-8.981340730969372",
      "lat": "39.6545690854387"
    },
    {
      "id": "pt.ine.add.PTCONT.2203465",
      "street": "ESTR ALCOBACA",
      "house": "",
      "postcode": "2445-407",
      "city": "PATAIAS",
      "lon": "-8.983320460468043",
      "lat": "39.65448255753215"
    },
    {
      "id": "pt.ine.add.PTCONT.2205912",
      "street": "ESTR ALCOBACA",
      "house": "27",
      "postcode": "2445-407",
      "city": "PATAIAS",
      "lon": "-8.983476680705357",
      "lat": "39.65296831312437"
    },
    {
      "id": "pt.ine.add.PTCONT.2210451",
      "street": "ESTR ALCOBACA",
      "house": "15",
      "postcode": "2445-407",
      "city": "PATAIAS",
      "lon": "-8.983162536264102",
      "lat": "39.654907021363904"
    },
    {
      "id": "pt.ine.add.PTCONT.2223608",
      "street": "ESTR ALCOBACA",
      "house": "57",
      "postcode": "2445-407",
      "city": "PATAIAS",
      "lon": "-8.983436737443437",
      "lat": "39.64970823247656"
    },
    {
      "id": "pt.ine.add.PTCONT.2240962",
      "street": "ESTR ALCOBACA",
      "house": "19",
      "postcode": "2445-407",
      "city": "PATAIAS",
      "lon": "-8.983045146700531",
      "lat": "39.654835828080884"
    },
    {
      "id": "pt.ine.add.PTCONT.2244027",
      "street": "R ESTREITA",
      "house": "14",
      "postcode": "2445-420",
      "city": "PATAIAS",
      "lon": "-8.980893604892376",
      "lat": "39.65421208801038"
    }
  ]
}