{
  "data": {
    "distrito": "Setúbal",
    "concelho": "Palmela",
    "freguesia": "Palmela",
    "OBJECTID": 307,
    "BGRI2021": "15080201305",
    "DT21": "15",
    "DTMN21": "1508",
    "DTMNFR21": "150802",
    "DTMNFRSEC21": "150802013",
    "SECNUM21": "013",
    "SSNUM21": "05",
    "SECSSNUM21": "01305",
    "OBJECTID_1": 166065,
    "DT": "15",
    "CC": "08",
    "fr": "02",
    "SEC": "013",
    "SS": "05"
  },
  "addresses": [
    {
      "id": "pt.ine.add.PTCONT.4672224",
      "street": "R ESCOLA",
      "house": "CCI 2103",
      "postcode": "2950-126",
      "city": "PALMELA",
      "lon": "-8.81938859872897",
      "lat": "38.610346663079426"
    },
    {
      "id": "pt.ine.add.PTCONT.4682990",
      "street": "R ESCOLA",
      "house": "CCI 2219",
      "postcode": "2950-126",
      "city": "PALMELA",
      "lon": "-8.820513986059156",
      "lat": "38.606763796894434"
    },
    {
      "id": "pt.ine.add.PTCONT.4686495",
      "street": "R SANTOS JORGE",
      "house": "CCI 2401",
      "postcode": "2950-141",
      "city": "PALMELA",
      "lon": "-8.819835146136711",
      "lat": "38.618649607436346"
    },
    {
      "id": "pt.ine.add.PTCONT.4690440",
      "street": "R CASIMIRO SIMÕES",
      "house": "CCI 2212",
      "postcode": "2950-122",
      "city": "PALMELA",
      "lon": "-8.824040072503404",
      "lat": "38.60693220280436"
    },
    {
      "id": "pt.ine.add.PTCONT.4690441",
      "street": "CASIMIRO SIMOES CCI",
      "house": "CCI 2211",
      "postcode": "2950-065",
      "city": "PALMELA",
      "lon": "-8.824281319838763",
      "lat": "38.60694879454054"
    },
    {
      "id": "pt.ine.add.PTCONT.4690445",
      "street": "R CASIMIRO SIMOES",
      "house": "CCI 2211",
      "postcode": "2950-122",
      "city": "PALMELA",
      "lon": "-8.824281319838763",
      "lat": "38.60694879454054"
    },
    {
      "id": "pt.ine.add.PTCONT.4719264",
      "street": "R CASIMIRO SIMÕES",
      "house": "CCI 2228",
      "postcode": "2950-122",
      "city": "PALMELA",
      "lon": "-8.821254796627086",
      "lat": "38.607399026019685"
    },
    {
      "id": "pt.ine.add.PTCONT.4727268",
      "street": "R CASIMIRO SIMÕES",
      "house": "CCI 2210",
      "postcode": "2950-122",
      "city": "PALMELA",
      "lon": "-8.824389131758048",
      "lat": "38.607416584784765"
    },
    {
      "id": "pt.ine.add.PTCONT.4757068",
      "street": "R ESCOLA",
      "house": "CCI 2112",
      "postcode": "2950-126",
      "city": "PALMELA",
      "lon": "-8.819933153628273",
      "lat": "38.61086594423398"
    },
    {
      "id": "pt.ine.add.PTCONT.4759874",
      "street": "R CASIMIRO SIMÕES",
      "house": "CCI 2229",
      "postcode": "2950-122",
      "city": "PALMELA",
      "lon": "-8.824529137150693",
      "lat": "38.607649971149684"
    },
    {
      "id": "pt.ine.add.PTCONT.4759875",
      "street": "R CASIMIRO SIMÕES",
      "house": "",
      "postcode": "2950-122",
      "city": "PALMELA",
      "lon": "-8.822787519551017",
      "lat": "38.612803936412426"
    },
    {
      "id": "pt.ine.add.PTCONT.4774278",
      "street": "R ESCOLA",
      "house": "",
      "postcode": "2950-126",
      "city": "PALMELA",
      "lon": "-8.818922205444474",
      "lat": "38.612006908047"
    },
    {
      "id": "pt.ine.add.PTCONT.4791632",
      "street": "R ESCOLA",
      "house": "CCI 2120",
      "postcode": "2950-126",
      "city": "PALMELA",
      "lon": "-8.818212467537238",
      "lat": "38.611020162632876"
    },
    {
      "id": "pt.ine.add.PTCONT.4795654",
      "street": "R CASIMIRO SIMÕES ASSOCIAFAO UNIDOS DO LAU",
      "house": "",
      "postcode": "2950-122",
      "city": "PALMELA",
      "lon": "-8.823819326757288",
      "lat": "38.61504089294984"
    },
    {
      "id": "pt.ine.add.PTCONT.4797893",
      "street": "R ESCOLA",
      "house": "CCI 2218",
      "postcode": "2950-126",
      "city": "PALMELA",
      "lon": "-8.820952795338902",
      "lat": "38.607031464808955"
    },
    {
      "id": "pt.ine.add.PTCONT.4818262",
      "street": "R ESCOLA",
      "house": "CCI 2109",
      "postcode": "2950-126",
      "city": "PALMELA",
      "lon": "-8.817803743700384",
      "lat": "38.606671587808734"
    },
    {
      "id": "pt.ine.add.PTCONT.4842945",
      "street": "R CASIMIRO SIMÕES",
      "house": "CCI 2213",
      "postcode": "2950-122",
      "city": "PALMELA",
      "lon": "-8.824114480129428",
      "lat": "38.60750828909548"
    },
    {
      "id": "pt.ine.add.PTCONT.4862414",
      "street": "R CASIMIRO SIMÕES",
      "house": "CCI 2010",
      "postcode": "2950-122",
      "city": "PALMELA",
      "lon": "-8.823199549388038",
      "lat": "38.60667592442956"
    },
    {
      "id": "pt.ine.add.PTCONT.4891052",
      "street": "R CASIMIRO SIMÕES",
      "house": "CCI 2207",
      "postcode": "2950-122",
      "city": "PALMELA",
      "lon": "-8.821212576727808",
      "lat": "38.60778662749709"
    },
    {
      "id": "pt.ine.add.PTCONT.4899839",
      "street": "R CASIMIRO SIMÕES",
      "house": "CCI",
      "postcode": "2950-122",
      "city": "PALMELA",
      "lon": "-8.82475618682828",
      "lat": "38.614557924253745"
    },
    {
      "id": "pt.ine.add.PTCONT.4910050",
      "street": "R CASIMIRO SIMÕES",
      "house": "CCI 2247",
      "postcode": "2950-122",
      "city": "PALMELA",
      "lon": "-8.8218402820844",
      "lat": "38.61460214833123"
    },
    {
      "id": "pt.ine.add.PTCONT.4917815",
      "street": "R ESCOLA",
      "house": "CCI 2109",
      "postcode": "2950-126",
      "city": "PALMELA",
      "lon": "-8.819056490042513",
      "lat": "38.60681739073462"
    },
    {
      "id": "pt.ine.add.PTCONT.4923824",
      "street": "R CASIMIRO SIMÕES",
      "house": "",
      "postcode": "2950-122",
      "city": "PALMELA",
      "lon": "-8.821411383405508",
      "lat": "38.60696571077579"
    },
    {
      "id": "pt.ine.add.PTCONT.4928729",
      "street": "R ESCOLA",
      "house": "",
      "postcode": "2950-126",
      "city": "PALMELA",
      "lon": "-8.81806056717437",
      "lat": "38.61074179737117"
    },
    {
      "id": "pt.ine.add.PTCONT.4942704",
      "street": "R CASIMIRO SIMÕES",
      "house": "CCI 2213",
      "postcode": "2950-122",
      "city": "PALMELA",
      "lon": "-8.824111974693981",
      "lat": "38.607247065710446"
    },
    {
      "id": "pt.ine.add.PTCONT.4949433",
      "street": "R CASIMIRO SIMÕES",
      "house": "",
      "postcode": "2950-122",
      "city": "PALMELA",
      "lon": "-8.822020272897698",
      "lat": "38.614213736017675"
    },
    {
      "id": "pt.ine.add.PTCONT.4964114",
      "street": "R CASIMIRO SIMÕES",
      "house": "CCI 2216",
      "postcode": "2950-122",
      "city": "PALMELA",
      "lon": "-8.823288091940872",
      "lat": "38.61471973233745"
    },
    {
      "id": "pt.ine.add.PTCONT.4971756",
      "street": "R CASIMIRO SIMÕES",
      "house": "CCI",
      "postcode": "2950-122",
      "city": "PALMELA",
      "lon": "-8.822242233322815",
      "lat": "38.60741123145488"
    },
    {
      "id": "pt.ine.add.PTCONT.4981640",
      "street": "R CASIMIRO SIMÕES",
      "house": "CCI 22 27",
      "postcode": "2950-122",
      "city": "PALMELA",
      "lon": "-8.822996649991387",
      "lat": "38.617856304628525"
    },
    {
      "id": "pt.ine.add.PTCONT.4989842",
      "street": "R ESCOLA",
      "house": "CCI 2104",
      "postcode": "2950-126",
      "city": "PALMELA",
      "lon": "-8.820079306093294",
      "lat": "38.610540790739506"
    },
    {
      "id": "pt.ine.add.PTCONT.5000927",
      "street": "R ESCOLA",
      "house": "CCI 2104",
      "postcode": "2950-126",
      "city": "PALMELA",
      "lon": "-8.820155888364207",
      "lat": "38.61014397986315"
    },
    {
      "id": "pt.ine.add.PTCONT.5017338",
      "street": "R ESCOLA",
      "house": "",
      "postcode": "2950-126",
      "city": "PALMELA",
      "lon": "-8.819182928079695",
      "lat": "38.61286115937773"
    },
    {
      "id": "pt.ine.add.PTCONT.5006024",
      "street": "R ESCOLA",
      "house": "CCI 2121",
      "postcode": "2950-126",
      "city": "PALMELA",
      "lon": "-8.818377647204859",
      "lat": "38.61028052214575"
    },
    {
      "id": "pt.ine.add.PTCONT.5014856",
      "street": "R CASIMIRO SIMÕES",
      "house": "",
      "postcode": "2950-122",
      "city": "PALMELA",
      "lon": "-8.82277412146975",
      "lat": "38.61500201709394"
    },
    {
      "id": "pt.ine.add.PTCONT.5018875",
      "street": "R CASIMIRO SIMÕES",
      "house": "",
      "postcode": "2950-122",
      "city": "PALMELA",
      "lon": "-8.823673609050005",
      "lat": "38.61421299841943"
    },
    {
      "id": "pt.ine.add.PTCONT.5026777",
      "street": "R ESCOLA",
      "house": "CCI 2104",
      "postcode": "2950-126",
      "city": "PALMELA",
      "lon": "-8.820040398613743",
      "lat": "38.61007259221207"
    },
    {
      "id": "pt.ine.add.PTCONT.5039434",
      "street": "R CASIMIRO SIMOES CCI",
      "house": "CCI",
      "postcode": "2950-122",
      "city": "PALMELA",
      "lon": "-8.821574497866033",
      "lat": "38.614423548379996"
    },
    {
      "id": "pt.ine.add.PTCONT.5041288",
      "street": "R CASIMIRO SIMÕES",
      "house": "CCI 2214",
      "postcode": "2950-122",
      "city": "PALMELA",
      "lon": "-8.821850455542902",
      "lat": "38.607260398395816"
    },
    {
      "id": "pt.ine.add.PTCONT.5050364",
      "street": "R ESCOLA",
      "house": "",
      "postcode": "2950-126",
      "city": "PALMELA",
      "lon": "-8.81984240072036",
      "lat": "38.609776483417356"
    },
    {
      "id": "pt.ine.add.PTCONT.5075554",
      "street": "R CASIMIRO SIMÕES ASSOCIAFAO UNIDOS DO CAU",
      "house": "",
      "postcode": "2950-122",
      "city": "PALMELA",
      "lon": "-8.8240937481038",
      "lat": "38.614922166105025"
    },
    {
      "id": "pt.ine.add.PTCONT.5079442",
      "street": "R CASIMIRO SIMÕES ASSOCIAFAO UNIDOS DO LAU",
      "house": "",
      "postcode": "2950-122",
      "city": "PALMELA",
      "lon": "-8.822269473327713",
      "lat": "38.61505903963631"
    },
    {
      "id": "pt.ine.add.PTCONT.5082329",
      "street": "R CASIMIRO SIMÕES",
      "house": "CCI 2214",
      "postcode": "2950-122",
      "city": "PALMELA",
      "lon": "-8.82413916775311",
      "lat": "38.60768830756382"
    },
    {
      "id": "pt.ine.add.PTCONT.5088072",
      "street": "R CASIMIRO SIMÕES",
      "house": "CCI 2213",
      "postcode": "2950-122",
      "city": "PALMELA",
      "lon": "-8.823950480284836",
      "lat": "38.60716694532186"
    },
    {
      "id": "pt.ine.add.PTCONT.5116763",
      "street": "R CASIMIRO SIMÕES",
      "house": "CCI 2215",
      "postcode": "2950-122",
      "city": "PALMELA",
      "lon": "-8.82298799024217",
      "lat": "38.60736179613844"
    },
    {
      "id": "pt.ine.add.PTCONT.5131874",
      "street": "R CASIMIRO SIMÕES",
      "house": "CCI 2206",
      "postcode": "2950-122",
      "city": "PALMELA",
      "lon": "-8.824170571784764",
      "lat": "38.614552376134434"
    }
  ]
}