{
  "data": {
    "distrito": "Set√∫bal",
    "concelho": "Almada",
    "freguesia": "Costa da Caparica",
    "OBJECTID": 839,
    "BGRI2021": "15030300913",
    "DT21": "15",
    "DTMN21": "1503",
    "DTMNFR21": "150303",
    "DTMNFRSEC21": "150303009",
    "SECNUM21": "009",
    "SSNUM21": "13",
    "SECSSNUM21": "00913",
    "OBJECTID_1": 161329,
    "DT": "15",
    "CC": "03",
    "fr": "03",
    "SEC": "009",
    "SS": "13"
  },
  "addresses": [
    {
      "id": "pt.ine.add.PTCONT.4667055",
      "street": "QTA NUNO",
      "house": "",
      "postcode": "2825-412",
      "city": "COSTA DE CAPARICA",
      "lon": "-9.218671378544501",
      "lat": "38.63341072115928"
    },
    {
      "id": "pt.ine.add.PTCONT.4681425",
      "street": "QTA PONDEROSA",
      "house": "",
      "postcode": "2825-412",
      "city": "COSTA DE CAPARICA",
      "lon": "-9.216858192907107",
      "lat": "38.63121157384209"
    },
    {
      "id": "pt.ine.add.PTCONT.4681428",
      "street": "QTA PONDEROSA",
      "house": "",
      "postcode": "2825-412",
      "city": "COSTA DE CAPARICA",
      "lon": "-9.21624451394505",
      "lat": "38.63164063153215"
    },
    {
      "id": "pt.ine.add.PTCONT.4688909",
      "street": "QTA PONDEROSA",
      "house": "",
      "postcode": "2825-412",
      "city": "COSTA DE CAPARICA",
      "lon": "-9.216525881489657",
      "lat": "38.63125969165788"
    },
    {
      "id": "pt.ine.add.PTCONT.4692946",
      "street": "QTA PONDEROSA",
      "house": "",
      "postcode": "2825-412",
      "city": "COSTA DE CAPARICA",
      "lon": "-9.216832244817558",
      "lat": "38.63101363901261"
    },
    {
      "id": "pt.ine.add.PTCONT.4696280",
      "street": "QTA PONDEROSA",
      "house": "",
      "postcode": "2825-412",
      "city": "COSTA DE CAPARICA",
      "lon": "-9.21645038481998",
      "lat": "38.63158467749682"
    },
    {
      "id": "pt.ine.add.PTCONT.4699814",
      "street": "QTA PONDEROSA",
      "house": "",
      "postcode": "2825-412",
      "city": "COSTA DE CAPARICA",
      "lon": "-9.21667718643235",
      "lat": "38.63139340978424"
    },
    {
      "id": "pt.ine.add.PTCONT.4703388",
      "street": "QTA PONDEROSA",
      "house": "",
      "postcode": "2825-412",
      "city": "COSTA DE CAPARICA",
      "lon": "-9.216752410704625",
      "lat": "38.63105041039033"
    },
    {
      "id": "pt.ine.add.PTCONT.4703450",
      "street": "QTA PONDEROSA",
      "house": "",
      "postcode": "2825-412",
      "city": "COSTA DE CAPARICA",
      "lon": "-9.21643754679356",
      "lat": "38.631494716745934"
    },
    {
      "id": "pt.ine.add.PTCONT.4714089",
      "street": "QTA PONDEROSA",
      "house": "",
      "postcode": "2825-412",
      "city": "COSTA DE CAPARICA",
      "lon": "-9.21644957146375",
      "lat": "38.63153063724812"
    },
    {
      "id": "pt.ine.add.PTCONT.4736322",
      "street": "QTA PONDEROSA",
      "house": "",
      "postcode": "2825-412",
      "city": "COSTA DE CAPARICA",
      "lon": "-9.216754851419996",
      "lat": "38.63121253113193"
    },
    {
      "id": "pt.ine.add.PTCONT.4750194",
      "street": "QTA PERALTA",
      "house": "",
      "postcode": "2825-412",
      "city": "COSTA DE CAPARICA",
      "lon": "-9.214494909383264",
      "lat": "38.62831486153395"
    },
    {
      "id": "pt.ine.add.PTCONT.4754877",
      "street": "QTA PERALTA",
      "house": "",
      "postcode": "2825-412",
      "city": "COSTA DE CAPARICA",
      "lon": "-9.21456298914197",
      "lat": "38.6282601844089"
    },
    {
      "id": "pt.ine.add.PTCONT.4761820",
      "street": "QTA PONDEROSA",
      "house": "",
      "postcode": "2825-412",
      "city": "COSTA DE CAPARICA",
      "lon": "-9.216663670238756",
      "lat": "38.631258415519476"
    },
    {
      "id": "pt.ine.add.PTCONT.4769278",
      "street": "QTA PONDEROSA",
      "house": "",
      "postcode": "2825-412",
      "city": "COSTA DE CAPARICA",
      "lon": "-9.216678949068513",
      "lat": "38.63151049698301"
    },
    {
      "id": "pt.ine.add.PTCONT.4777939",
      "street": "QTA PONDEROSA",
      "house": "",
      "postcode": "2825-412",
      "city": "COSTA DE CAPARICA",
      "lon": "-9.216684058877286",
      "lat": "38.63108707536187"
    },
    {
      "id": "pt.ine.add.PTCONT.4794689",
      "street": "QTA PONDEROSA",
      "house": "",
      "postcode": "2825-412",
      "city": "COSTA DE CAPARICA",
      "lon": "-9.216891826391013",
      "lat": "38.63115721448096"
    },
    {
      "id": "pt.ine.add.PTCONT.4799143",
      "street": "QTA PONDEROSA",
      "house": "",
      "postcode": "2825-412",
      "city": "COSTA DE CAPARICA",
      "lon": "-9.21671945511727",
      "lat": "38.63114980325301"
    },
    {
      "id": "pt.ine.add.PTCONT.4804803",
      "street": "QTA PONDEROSA",
      "house": "",
      "postcode": "2825-412",
      "city": "COSTA DE CAPARICA",
      "lon": "-9.2164625450739",
      "lat": "38.631629604704806"
    },
    {
      "id": "pt.ine.add.PTCONT.4811939",
      "street": "QTA PONDEROSA",
      "house": "",
      "postcode": "2825-412",
      "city": "COSTA DE CAPARICA",
      "lon": "-9.217074459353835",
      "lat": "38.63108345870079"
    },
    {
      "id": "pt.ine.add.PTCONT.4818569",
      "street": "QTA PONDEROSA",
      "house": "",
      "postcode": "2825-412",
      "city": "COSTA DE CAPARICA",
      "lon": "-9.216563717990013",
      "lat": "38.63148454034013"
    },
    {
      "id": "pt.ine.add.PTCONT.4822250",
      "street": "QTA PONDEROSA",
      "house": "",
      "postcode": "2825-412",
      "city": "COSTA DE CAPARICA",
      "lon": "-9.217050816460949",
      "lat": "38.631038637946176"
    },
    {
      "id": "pt.ine.add.PTCONT.4829107",
      "street": "QTA PONDEROSA",
      "house": "",
      "postcode": "2825-412",
      "city": "COSTA DE CAPARICA",
      "lon": "-9.216564667004237",
      "lat": "38.63154758729499"
    },
    {
      "id": "pt.ine.add.PTCONT.4838026",
      "street": "QTA PONDEROSA",
      "house": "",
      "postcode": "2825-412",
      "city": "COSTA DE CAPARICA",
      "lon": "-9.217027173598057",
      "lat": "38.63099381718603"
    },
    {
      "id": "pt.ine.add.PTCONT.4849225",
      "street": "QTA PONDEROSA",
      "house": "",
      "postcode": "2825-412",
      "city": "COSTA DE CAPARICA",
      "lon": "-9.216347991611194",
      "lat": "38.631648681392484"
    },
    {
      "id": "pt.ine.add.PTCONT.4852517",
      "street": "QTA PONDEROSA",
      "house": "",
      "postcode": "2825-412",
      "city": "COSTA DE CAPARICA",
      "lon": "-9.21681633147589",
      "lat": "38.631482200536055"
    },
    {
      "id": "pt.ine.add.PTCONT.4854507",
      "street": "QTA PONDEROSA",
      "house": "",
      "postcode": "2825-412",
      "city": "COSTA DE CAPARICA",
      "lon": "-9.216220329250724",
      "lat": "38.63155978377409"
    },
    {
      "id": "pt.ine.add.PTCONT.4869902",
      "street": "QTA GABRIEL",
      "house": "62",
      "postcode": "2825-412",
      "city": "COSTA DE CAPARICA",
      "lon": "-9.217269844028888",
      "lat": "38.6318563329928"
    },
    {
      "id": "pt.ine.add.PTCONT.4878958",
      "street": "QTA PONDEROSA",
      "house": "",
      "postcode": "2825-412",
      "city": "COSTA DE CAPARICA",
      "lon": "-9.216678135542857",
      "lat": "38.6314564567377"
    },
    {
      "id": "pt.ine.add.PTCONT.4889615",
      "street": "QTA PONDEROSA",
      "house": "",
      "postcode": "2825-412",
      "city": "COSTA DE CAPARICA",
      "lon": "-9.216893589361412",
      "lat": "38.63127430167613"
    },
    {
      "id": "pt.ine.add.PTCONT.4898569",
      "street": "QTA GABRIEL",
      "house": "62 A",
      "postcode": "2825-412",
      "city": "COSTA DE CAPARICA",
      "lon": "-9.217066007628587",
      "lat": "38.63204738905426"
    },
    {
      "id": "pt.ine.add.PTCONT.4900124",
      "street": "QTA PONDEROSA",
      "house": "",
      "postcode": "2825-412",
      "city": "COSTA DE CAPARICA",
      "lon": "-9.21665354367858",
      "lat": "38.631348588949564"
    },
    {
      "id": "pt.ine.add.PTCONT.4900125",
      "street": "QTA PONDEROSA",
      "house": "",
      "postcode": "2825-412",
      "city": "COSTA DE CAPARICA",
      "lon": "-9.216402421726194",
      "lat": "38.63145000218888"
    },
    {
      "id": "pt.ine.add.PTCONT.4908991",
      "street": "QTA MANUEL MARGARIDA",
      "house": "",
      "postcode": "2825-412",
      "city": "COSTA DE CAPARICA",
      "lon": "-9.218060156526654",
      "lat": "38.63247956350565"
    },
    {
      "id": "pt.ine.add.PTCONT.4925108",
      "street": "QTA PONDEROSA",
      "house": "",
      "postcode": "2825-412",
      "city": "COSTA DE CAPARICA",
      "lon": "-9.216524932519167",
      "lat": "38.63119664469909"
    },
    {
      "id": "pt.ine.add.PTCONT.4934417",
      "street": "QTA PONDEROSA",
      "house": "",
      "postcode": "2825-412",
      "city": "COSTA DE CAPARICA",
      "lon": "-9.216605309220164",
      "lat": "38.631195900306416"
    },
    {
      "id": "pt.ine.add.PTCONT.4939509",
      "street": "QTA PERALTA",
      "house": "",
      "postcode": "2825-412",
      "city": "COSTA DE CAPARICA",
      "lon": "-9.214507067820737",
      "lat": "38.62835978899571"
    },
    {
      "id": "pt.ine.add.PTCONT.4943098",
      "street": "QTA PONDEROSA",
      "house": "",
      "postcode": "2825-412",
      "city": "COSTA DE CAPARICA",
      "lon": "-9.21690168140394",
      "lat": "38.63104902761701"
    },
    {
      "id": "pt.ine.add.PTCONT.4949990",
      "street": "QTA PONDEROSA",
      "house": "",
      "postcode": "2825-412",
      "city": "COSTA DE CAPARICA",
      "lon": "-9.216478596290909",
      "lat": "38.631170049915745"
    },
    {
      "id": "pt.ine.add.PTCONT.4949993",
      "street": "QTA PONDEROSA",
      "house": "",
      "postcode": "2825-412",
      "city": "COSTA DE CAPARICA",
      "lon": "-9.216378101374932",
      "lat": "38.63136014775387"
    },
    {
      "id": "pt.ine.add.PTCONT.4964744",
      "street": "QTA PONDEROSA",
      "house": "",
      "postcode": "2825-412",
      "city": "COSTA DE CAPARICA",
      "lon": "-9.216569777482936",
      "lat": "38.63112416567166"
    },
    {
      "id": "pt.ine.add.PTCONT.4994943",
      "street": "QTA PONDEROSA",
      "house": "",
      "postcode": "2825-412",
      "city": "COSTA DE CAPARICA",
      "lon": "-9.216561955542911",
      "lat": "38.63136745313639"
    },
    {
      "id": "pt.ine.add.PTCONT.4994944",
      "street": "R JOSE BIO",
      "house": "",
      "postcode": "2825-412",
      "city": "COSTA DE CAPARICA",
      "lon": "-9.216124774206296",
      "lat": "38.63055177640679"
    },
    {
      "id": "pt.ine.add.PTCONT.5008051",
      "street": "QTA PONDEROSA",
      "house": "",
      "postcode": "2825-412",
      "city": "COSTA DE CAPARICA",
      "lon": "-9.216588580925201",
      "lat": "38.631610421561255"
    },
    {
      "id": "pt.ine.add.PTCONT.5023267",
      "street": "QTA PONDEROSA",
      "house": "",
      "postcode": "2825-412",
      "city": "COSTA DE CAPARICA",
      "lon": "-9.21654965970465",
      "lat": "38.631313519228826"
    },
    {
      "id": "pt.ine.add.PTCONT.5023268",
      "street": "QTA PERALTA",
      "house": "",
      "postcode": "2825-412",
      "city": "COSTA DE CAPARICA",
      "lon": "-9.214565018758815",
      "lat": "38.62839528518961"
    },
    {
      "id": "pt.ine.add.PTCONT.5027251",
      "street": "QTA PONDEROSA",
      "house": "",
      "postcode": "2825-412",
      "city": "COSTA DE CAPARICA",
      "lon": "-9.21694666151514",
      "lat": "38.63098555515774"
    },
    {
      "id": "pt.ine.add.PTCONT.5056800",
      "street": "QTA PONDEROSA",
      "house": "",
      "postcode": "2825-412",
      "city": "COSTA DE CAPARICA",
      "lon": "-9.216342976411728",
      "lat": "38.63131543317646"
    },
    {
      "id": "pt.ine.add.PTCONT.5063438",
      "street": "R JOSE BIO",
      "house": "",
      "postcode": "2825-412",
      "city": "COSTA DE CAPARICA",
      "lon": "-9.21598495434327",
      "lat": "38.630417951223755"
    },
    {
      "id": "pt.ine.add.PTCONT.5070766",
      "street": "QTA PONDEROSA",
      "house": "",
      "postcode": "2825-412",
      "city": "COSTA DE CAPARICA",
      "lon": "-9.216984906036432",
      "lat": "38.63123742381833"
    },
    {
      "id": "pt.ine.add.PTCONT.5070767",
      "street": "QTA PONDEROSA",
      "house": "",
      "postcode": "2825-412",
      "city": "COSTA DE CAPARICA",
      "lon": "-9.216562768978765",
      "lat": "38.63142149338458"
    },
    {
      "id": "pt.ine.add.PTCONT.5078004",
      "street": "QTA MANUEL MARGARIDA",
      "house": "",
      "postcode": "2825-412",
      "city": "COSTA DE CAPARICA",
      "lon": "-9.217936291590329",
      "lat": "38.63264285548233"
    },
    {
      "id": "pt.ine.add.PTCONT.5105070",
      "street": "QTA PONDEROSA",
      "house": "",
      "postcode": "2825-412",
      "city": "COSTA DE CAPARICA",
      "lon": "-9.216948288944415",
      "lat": "38.63109363564689"
    },
    {
      "id": "pt.ine.add.PTCONT.5109589",
      "street": "QTA MANUEL MARGARIDA",
      "house": "",
      "postcode": "2825-412",
      "city": "COSTA DE CAPARICA",
      "lon": "-9.217717307624232",
      "lat": "38.63259083817733"
    },
    {
      "id": "pt.ine.add.PTCONT.5121064",
      "street": "QTA PONDEROSA",
      "house": "",
      "postcode": "2825-412",
      "city": "COSTA DE CAPARICA",
      "lon": "-9.216390261542657",
      "lat": "38.631405074972285"
    },
    {
      "id": "pt.ine.add.PTCONT.5125562",
      "street": "QTA PERALTA",
      "house": "",
      "postcode": "2825-412",
      "city": "COSTA DE CAPARICA",
      "lon": "-9.214690508225823",
      "lat": "38.62834007728189"
    }
  ]
}