{
  "data": {
    "distrito": "Setúbal",
    "concelho": "Barreiro",
    "freguesia": "União das freguesias de Barreiro e Lavradio",
    "OBJECTID": 197,
    "BGRI2021": "15041000603",
    "DT21": "15",
    "DTMN21": "1504",
    "DTMNFR21": "150410",
    "DTMNFRSEC21": "150410006",
    "SECNUM21": "006",
    "SSNUM21": "03",
    "SECSSNUM21": "00603",
    "OBJECTID_1": 163135,
    "DT": "15",
    "CC": "04",
    "fr": "10",
    "SEC": "006",
    "SS": "03"
  },
  "addresses": [
    {
      "id": "pt.ine.add.PTCONT.4686457",
      "street": "R BENTO DE JESUS CARAÇA",
      "house": "71",
      "postcode": "2830-564",
      "city": "BARREIRO",
      "lon": "-9.083755997674219",
      "lat": "38.661473799603684"
    },
    {
      "id": "pt.ine.add.PTCONT.4711332",
      "street": "LG MOINHO PEQUENO",
      "house": "2",
      "postcode": "2830-316",
      "city": "BARREIRO",
      "lon": "-9.082363918592288",
      "lat": "38.6604581934819"
    },
    {
      "id": "pt.ine.add.PTCONT.4753645",
      "street": "R MIGUEL PAIS",
      "house": "115B",
      "postcode": "2830-356",
      "city": "BARREIRO",
      "lon": "-9.082411414582374",
      "lat": "38.6605749120478"
    },
    {
      "id": "pt.ine.add.PTCONT.4782847",
      "street": "R MIGUEL PAIS",
      "house": "117A",
      "postcode": "2830-356",
      "city": "BARREIRO",
      "lon": "-9.082725979724772",
      "lat": "38.66090565465635"
    },
    {
      "id": "pt.ine.add.PTCONT.4782848",
      "street": "R MIGUEL PAIS",
      "house": "117A",
      "postcode": "2830-356",
      "city": "BARREIRO",
      "lon": "-9.082725979724772",
      "lat": "38.66090565465635"
    },
    {
      "id": "pt.ine.add.PTCONT.4782849",
      "street": "R MIGUEL PAIS",
      "house": "117A",
      "postcode": "2830-356",
      "city": "BARREIRO",
      "lon": "-9.082725979724772",
      "lat": "38.66090565465635"
    },
    {
      "id": "pt.ine.add.PTCONT.4782850",
      "street": "R MIGUEL PAIS",
      "house": "117A",
      "postcode": "2830-356",
      "city": "BARREIRO",
      "lon": "-9.082725979724772",
      "lat": "38.66090565465635"
    },
    {
      "id": "pt.ine.add.PTCONT.4782851",
      "street": "R MIGUEL PAIS",
      "house": "117A",
      "postcode": "2830-356",
      "city": "BARREIRO",
      "lon": "-9.082725979724772",
      "lat": "38.66090565465635"
    },
    {
      "id": "pt.ine.add.PTCONT.4860480",
      "street": "R BENTO DE JESUS CARAÇA",
      "house": "3",
      "postcode": "2830-564",
      "city": "BARREIRO",
      "lon": "-9.083447615634087",
      "lat": "38.66161142566336"
    },
    {
      "id": "pt.ine.add.PTCONT.4883158",
      "street": "R MIGUEL PAIS",
      "house": "115C",
      "postcode": "2830-356",
      "city": "BARREIRO",
      "lon": "-9.082458197221301",
      "lat": "38.660637588363414"
    },
    {
      "id": "pt.ine.add.PTCONT.4883159",
      "street": "R MIGUEL PAIS",
      "house": "115A",
      "postcode": "2830-356",
      "city": "BARREIRO",
      "lon": "-9.082353501195032",
      "lat": "38.66053935005646"
    },
    {
      "id": "pt.ine.add.PTCONT.4883160",
      "street": "R MIGUEL PAIS",
      "house": "115A",
      "postcode": "2830-356",
      "city": "BARREIRO",
      "lon": "-9.082353501195032",
      "lat": "38.66053935005646"
    },
    {
      "id": "pt.ine.add.PTCONT.4883161",
      "street": "R MIGUEL PAIS",
      "house": "115A",
      "postcode": "2830-356",
      "city": "BARREIRO",
      "lon": "-9.082353501195032",
      "lat": "38.66053935005646"
    },
    {
      "id": "pt.ine.add.PTCONT.4883162",
      "street": "R MIGUEL PAIS",
      "house": "115A",
      "postcode": "2830-356",
      "city": "BARREIRO",
      "lon": "-9.082353501195032",
      "lat": "38.66053935005646"
    },
    {
      "id": "pt.ine.add.PTCONT.4883163",
      "street": "R MIGUEL PAIS",
      "house": "115A",
      "postcode": "2830-356",
      "city": "BARREIRO",
      "lon": "-9.082353501195032",
      "lat": "38.66053935005646"
    },
    {
      "id": "pt.ine.add.PTCONT.4883164",
      "street": "R MIGUEL PAIS",
      "house": "115A",
      "postcode": "2830-356",
      "city": "BARREIRO",
      "lon": "-9.082353501195032",
      "lat": "38.66053935005646"
    },
    {
      "id": "pt.ine.add.PTCONT.4887825",
      "street": "R MIGUEL PAIS",
      "house": "123",
      "postcode": "2830-356",
      "city": "BARREIRO",
      "lon": "-9.083238813405758",
      "lat": "38.66145998599763"
    },
    {
      "id": "pt.ine.add.PTCONT.4887826",
      "street": "R MIGUEL PAIS",
      "house": "123",
      "postcode": "2830-356",
      "city": "BARREIRO",
      "lon": "-9.083238813405758",
      "lat": "38.66145998599763"
    },
    {
      "id": "pt.ine.add.PTCONT.4887827",
      "street": "R MIGUEL PAIS",
      "house": "123",
      "postcode": "2830-356",
      "city": "BARREIRO",
      "lon": "-9.083238813405758",
      "lat": "38.66145998599763"
    },
    {
      "id": "pt.ine.add.PTCONT.4887828",
      "street": "R MIGUEL PAIS",
      "house": "123",
      "postcode": "2830-356",
      "city": "BARREIRO",
      "lon": "-9.083238813405758",
      "lat": "38.66145998599763"
    },
    {
      "id": "pt.ine.add.PTCONT.4887829",
      "street": "R MIGUEL PAIS",
      "house": "123",
      "postcode": "2830-356",
      "city": "BARREIRO",
      "lon": "-9.083238813405758",
      "lat": "38.66145998599763"
    },
    {
      "id": "pt.ine.add.PTCONT.4887830",
      "street": "R MIGUEL PAIS",
      "house": "123",
      "postcode": "2830-356",
      "city": "BARREIRO",
      "lon": "-9.083238813405758",
      "lat": "38.66145998599763"
    },
    {
      "id": "pt.ine.add.PTCONT.4888620",
      "street": "R MIGUEL PAIS",
      "house": "123",
      "postcode": "2830-356",
      "city": "BARREIRO",
      "lon": "-9.083238813405758",
      "lat": "38.66145998599763"
    },
    {
      "id": "pt.ine.add.PTCONT.4888789",
      "street": "R MIGUEL PAIS",
      "house": "123",
      "postcode": "2830-356",
      "city": "BARREIRO",
      "lon": "-9.083238813405758",
      "lat": "38.66145998599763"
    },
    {
      "id": "pt.ine.add.PTCONT.4895362",
      "street": "R MIGUEL PAIS",
      "house": "177",
      "postcode": "2830-356",
      "city": "BARREIRO",
      "lon": "-9.0825862254956",
      "lat": "38.66076266118041"
    },
    {
      "id": "pt.ine.add.PTCONT.4895363",
      "street": "R MIGUEL PAIS",
      "house": "177",
      "postcode": "2830-356",
      "city": "BARREIRO",
      "lon": "-9.0825862254956",
      "lat": "38.66076266118041"
    },
    {
      "id": "pt.ine.add.PTCONT.4895364",
      "street": "R MIGUEL PAIS",
      "house": "177",
      "postcode": "2830-356",
      "city": "BARREIRO",
      "lon": "-9.0825862254956",
      "lat": "38.66076266118041"
    },
    {
      "id": "pt.ine.add.PTCONT.4895365",
      "street": "R MIGUEL PAIS",
      "house": "177",
      "postcode": "2830-356",
      "city": "BARREIRO",
      "lon": "-9.0825862254956",
      "lat": "38.66076266118041"
    },
    {
      "id": "pt.ine.add.PTCONT.4895366",
      "street": "R MIGUEL PAIS",
      "house": "117",
      "postcode": "2830-356",
      "city": "BARREIRO",
      "lon": "-9.0825862254956",
      "lat": "38.66076266118041"
    },
    {
      "id": "pt.ine.add.PTCONT.4895367",
      "street": "R MIGUEL PAIS",
      "house": "177",
      "postcode": "2830-356",
      "city": "BARREIRO",
      "lon": "-9.0825862254956",
      "lat": "38.66076266118041"
    },
    {
      "id": "pt.ine.add.PTCONT.4895368",
      "street": "R MIGUEL PAIS",
      "house": "177",
      "postcode": "2830-356",
      "city": "BARREIRO",
      "lon": "-9.0825862254956",
      "lat": "38.66076266118041"
    },
    {
      "id": "pt.ine.add.PTCONT.4895369",
      "street": "R MIGUEL PAIS",
      "house": "177",
      "postcode": "2830-356",
      "city": "BARREIRO",
      "lon": "-9.0825862254956",
      "lat": "38.66076266118041"
    },
    {
      "id": "pt.ine.add.PTCONT.4895370",
      "street": "R MIGUEL PAIS",
      "house": "177",
      "postcode": "2830-356",
      "city": "BARREIRO",
      "lon": "-9.0825862254956",
      "lat": "38.66076266118041"
    },
    {
      "id": "pt.ine.add.PTCONT.4895371",
      "street": "R MIGUEL PAIS",
      "house": "177",
      "postcode": "2830-356",
      "city": "BARREIRO",
      "lon": "-9.0825862254956",
      "lat": "38.66076266118041"
    },
    {
      "id": "pt.ine.add.PTCONT.4900982",
      "street": "R MIGUEL PAIS",
      "house": "",
      "postcode": "2830-356",
      "city": "BARREIRO",
      "lon": "-9.08318066087208",
      "lat": "38.661406410366126"
    },
    {
      "id": "pt.ine.add.PTCONT.4900983",
      "street": "R MIGUEL PAIS",
      "house": "",
      "postcode": "2830-356",
      "city": "BARREIRO",
      "lon": "-9.08318066087208",
      "lat": "38.661406410366126"
    },
    {
      "id": "pt.ine.add.PTCONT.4900984",
      "street": "R MIGUEL PAIS",
      "house": "",
      "postcode": "2830-356",
      "city": "BARREIRO",
      "lon": "-9.08318066087208",
      "lat": "38.661406410366126"
    },
    {
      "id": "pt.ine.add.PTCONT.4900985",
      "street": "R MIGUEL PAIS",
      "house": "",
      "postcode": "2830-356",
      "city": "BARREIRO",
      "lon": "-9.08318066087208",
      "lat": "38.661406410366126"
    },
    {
      "id": "pt.ine.add.PTCONT.4900986",
      "street": "R MIGUEL PAIS",
      "house": "",
      "postcode": "2830-356",
      "city": "BARREIRO",
      "lon": "-9.08318066087208",
      "lat": "38.661406410366126"
    },
    {
      "id": "pt.ine.add.PTCONT.4900987",
      "street": "R MIGUEL PAIS",
      "house": "",
      "postcode": "2830-356",
      "city": "BARREIRO",
      "lon": "-9.08318066087208",
      "lat": "38.661406410366126"
    },
    {
      "id": "pt.ine.add.PTCONT.4902671",
      "street": "R MIGUEL PAIS",
      "house": "",
      "postcode": "2830-356",
      "city": "BARREIRO",
      "lon": "-9.08318066087208",
      "lat": "38.661406410366126"
    },
    {
      "id": "pt.ine.add.PTCONT.4902741",
      "street": "R MIGUEL PAIS",
      "house": "",
      "postcode": "2830-356",
      "city": "BARREIRO",
      "lon": "-9.08318066087208",
      "lat": "38.661406410366126"
    },
    {
      "id": "pt.ine.add.PTCONT.4934106",
      "street": "R MIGUEL PAIS",
      "house": "119",
      "postcode": "2830-356",
      "city": "BARREIRO",
      "lon": "-9.08279585704873",
      "lat": "38.66097715132772"
    },
    {
      "id": "pt.ine.add.PTCONT.4934107",
      "street": "R MIGUEL PAIS",
      "house": "119",
      "postcode": "2830-356",
      "city": "BARREIRO",
      "lon": "-9.08279585704873",
      "lat": "38.66097715132772"
    },
    {
      "id": "pt.ine.add.PTCONT.4934108",
      "street": "R MIGUEL PAIS",
      "house": "119",
      "postcode": "2830-356",
      "city": "BARREIRO",
      "lon": "-9.08279585704873",
      "lat": "38.66097715132772"
    },
    {
      "id": "pt.ine.add.PTCONT.4934109",
      "street": "R MIGUEL PAIS",
      "house": "119",
      "postcode": "2830-356",
      "city": "BARREIRO",
      "lon": "-9.08279585704873",
      "lat": "38.66097715132772"
    },
    {
      "id": "pt.ine.add.PTCONT.4935247",
      "street": "R MIGUEL PAIS",
      "house": "119",
      "postcode": "2830-356",
      "city": "BARREIRO",
      "lon": "-9.08279585704873",
      "lat": "38.66097715132772"
    },
    {
      "id": "pt.ine.add.PTCONT.4950959",
      "street": "R MIGUEL PAIS",
      "house": "115D",
      "postcode": "2830-356",
      "city": "BARREIRO",
      "lon": "-9.082504742094414",
      "lat": "38.660682250583335"
    },
    {
      "id": "pt.ine.add.PTCONT.4950960",
      "street": "R MIGUEL PAIS",
      "house": "115",
      "postcode": "2830-356",
      "city": "BARREIRO",
      "lon": "-9.082504742094414",
      "lat": "38.660682250583335"
    },
    {
      "id": "pt.ine.add.PTCONT.4950961",
      "street": "R MIGUEL PAIS",
      "house": "115D",
      "postcode": "2830-356",
      "city": "BARREIRO",
      "lon": "-9.082504742094414",
      "lat": "38.660682250583335"
    },
    {
      "id": "pt.ine.add.PTCONT.4950962",
      "street": "R MIGUEL PAIS",
      "house": "115D",
      "postcode": "2830-356",
      "city": "BARREIRO",
      "lon": "-9.082504742094414",
      "lat": "38.660682250583335"
    },
    {
      "id": "pt.ine.add.PTCONT.4950963",
      "street": "R MIGUEL PAIS",
      "house": "115D",
      "postcode": "2830-356",
      "city": "BARREIRO",
      "lon": "-9.082504742094414",
      "lat": "38.660682250583335"
    },
    {
      "id": "pt.ine.add.PTCONT.4950964",
      "street": "R MIGUEL PAIS",
      "house": "115D",
      "postcode": "2830-356",
      "city": "BARREIRO",
      "lon": "-9.082504742094414",
      "lat": "38.660682250583335"
    },
    {
      "id": "pt.ine.add.PTCONT.4952760",
      "street": "R MIGUEL PAIS",
      "house": "115D",
      "postcode": "2830-356",
      "city": "BARREIRO",
      "lon": "-9.082504742094414",
      "lat": "38.660682250583335"
    },
    {
      "id": "pt.ine.add.PTCONT.4954582",
      "street": "R MIGUEL PAIS",
      "house": "125",
      "postcode": "2830-356",
      "city": "BARREIRO",
      "lon": "-9.08332053657649",
      "lat": "38.661558410119326"
    },
    {
      "id": "pt.ine.add.PTCONT.5005176",
      "street": "R MIGUEL PAIS",
      "house": "125A",
      "postcode": "2830-356",
      "city": "BARREIRO",
      "lon": "-9.083285478325632",
      "lat": "38.661513654922054"
    },
    {
      "id": "pt.ine.add.PTCONT.5020116",
      "street": "R MIGUEL PAIS",
      "house": "121A",
      "postcode": "2830-356",
      "city": "BARREIRO",
      "lon": "-9.083133996100853",
      "lat": "38.661352741397025"
    },
    {
      "id": "pt.ine.add.PTCONT.5020117",
      "street": "R MIGUEL PAIS",
      "house": "121A",
      "postcode": "2830-356",
      "city": "BARREIRO",
      "lon": "-9.083133996100853",
      "lat": "38.661352741397025"
    },
    {
      "id": "pt.ine.add.PTCONT.5020118",
      "street": "R MIGUEL PAIS",
      "house": "121A",
      "postcode": "2830-356",
      "city": "BARREIRO",
      "lon": "-9.083133996100853",
      "lat": "38.661352741397025"
    },
    {
      "id": "pt.ine.add.PTCONT.5020119",
      "street": "R MIGUEL PAIS",
      "house": "121A",
      "postcode": "2830-356",
      "city": "BARREIRO",
      "lon": "-9.083133996100853",
      "lat": "38.661352741397025"
    },
    {
      "id": "pt.ine.add.PTCONT.5020120",
      "street": "R MIGUEL PAIS",
      "house": "121A",
      "postcode": "2830-356",
      "city": "BARREIRO",
      "lon": "-9.083133996100853",
      "lat": "38.661352741397025"
    },
    {
      "id": "pt.ine.add.PTCONT.5020121",
      "street": "R MIGUEL PAIS",
      "house": "121A",
      "postcode": "2830-356",
      "city": "BARREIRO",
      "lon": "-9.083133996100853",
      "lat": "38.661352741397025"
    },
    {
      "id": "pt.ine.add.PTCONT.5020122",
      "street": "R MIGUEL PAIS",
      "house": "121A",
      "postcode": "2830-356",
      "city": "BARREIRO",
      "lon": "-9.083133996100853",
      "lat": "38.661352741397025"
    },
    {
      "id": "pt.ine.add.PTCONT.5042299",
      "street": "R MIGUEL BOMBARDA",
      "house": "",
      "postcode": "2830-564",
      "city": "BARREIRO",
      "lon": "-9.083676060119853",
      "lat": "38.6615104812924"
    },
    {
      "id": "pt.ine.add.PTCONT.5078699",
      "street": "R BENTO DE JESUS CARAÇA",
      "house": "5",
      "postcode": "2830-564",
      "city": "BARREIRO",
      "lon": "-9.083516065709691",
      "lat": "38.6615748374747"
    },
    {
      "id": "pt.ine.add.PTCONT.5092912",
      "street": "R BENTO JESUS CARACA",
      "house": "7",
      "postcode": "2830-564",
      "city": "BARREIRO",
      "lon": "-9.083584634778102",
      "lat": "38.66154725628015"
    },
    {
      "id": "pt.ine.add.PTCONT.5117790",
      "street": "R BENTO JESUS CARACA",
      "house": "1",
      "postcode": "2830-564",
      "city": "BARREIRO",
      "lon": "-9.083378451263512",
      "lat": "38.661593971609136"
    },
    {
      "id": "pt.ine.add.PTCONT.5131806",
      "street": "R MIGUEL PAIS",
      "house": "121A",
      "postcode": "2830-356",
      "city": "BARREIRO",
      "lon": "-9.083133996100853",
      "lat": "38.661352741397025"
    }
  ]
}