{
  "data": {
    "distrito": "Coimbra",
    "concelho": "Coimbra",
    "freguesia": "Santo Ant√≥nio dos Olivais",
    "OBJECTID": 495,
    "BGRI2021": "06031800706",
    "DT21": "06",
    "DTMN21": "0603",
    "DTMNFR21": "060318",
    "DTMNFRSEC21": "060318007",
    "SECNUM21": "007",
    "SSNUM21": "06",
    "SECSSNUM21": "00706",
    "OBJECTID_1": 49550,
    "DT": "06",
    "CC": "03",
    "fr": "18",
    "SEC": "007",
    "SS": "06"
  },
  "addresses": [
    {
      "id": "pt.ine.add.PTCONT.1104600",
      "street": "LAD PORTELA COBICA",
      "house": "66E",
      "postcode": "3030-178",
      "city": "COIMBRA",
      "lon": "-8.39510596651666",
      "lat": "40.195704336671504"
    },
    {
      "id": "pt.ine.add.PTCONT.1112217",
      "street": "LAD PORTELA DA COBICA",
      "house": "60",
      "postcode": "3030-168",
      "city": "COIMBRA",
      "lon": "-8.395521308216695",
      "lat": "40.1968201246814"
    },
    {
      "id": "pt.ine.add.PTCONT.1112218",
      "street": "LAD PORTELA DA COBICA",
      "house": "60",
      "postcode": "3030-168",
      "city": "COIMBRA",
      "lon": "-8.395521308216695",
      "lat": "40.1968201246814"
    },
    {
      "id": "pt.ine.add.PTCONT.1116972",
      "street": "URB QUINTA DA ROMEIRA",
      "house": "",
      "postcode": "3030-782",
      "city": "COIMBRA",
      "lon": "-8.395387959304422",
      "lat": "40.19573972164292"
    },
    {
      "id": "pt.ine.add.PTCONT.1116973",
      "street": "URB QUINTA DA ROMEIRA",
      "house": "",
      "postcode": "3030-782",
      "city": "COIMBRA",
      "lon": "-8.395387959304422",
      "lat": "40.19573972164292"
    },
    {
      "id": "pt.ine.add.PTCONT.1116974",
      "street": "URB QUINTA DA ROMEIRA",
      "house": "",
      "postcode": "3030-782",
      "city": "COIMBRA",
      "lon": "-8.395387959304422",
      "lat": "40.19573972164292"
    },
    {
      "id": "pt.ine.add.PTCONT.1116975",
      "street": "URB QUINTA DA ROMEIRA",
      "house": "",
      "postcode": "3030-782",
      "city": "COIMBRA",
      "lon": "-8.395387959304422",
      "lat": "40.19573972164292"
    },
    {
      "id": "pt.ine.add.PTCONT.1116976",
      "street": "URB QUINTA DA ROMEIRA",
      "house": "",
      "postcode": "3030-782",
      "city": "COIMBRA",
      "lon": "-8.395387959304422",
      "lat": "40.19573972164292"
    },
    {
      "id": "pt.ine.add.PTCONT.1116977",
      "street": "URB QUINTA DA ROMEIRA",
      "house": "",
      "postcode": "3030-782",
      "city": "COIMBRA",
      "lon": "-8.395387959304422",
      "lat": "40.19573972164292"
    },
    {
      "id": "pt.ine.add.PTCONT.1116978",
      "street": "URB QUINTA DA ROMEIRA",
      "house": "",
      "postcode": "3030-782",
      "city": "COIMBRA",
      "lon": "-8.395387959304422",
      "lat": "40.19573972164292"
    },
    {
      "id": "pt.ine.add.PTCONT.1116979",
      "street": "R ANTONIO PINHO BROJO",
      "house": "1",
      "postcode": "3030-782",
      "city": "COIMBRA",
      "lon": "-8.395387959304422",
      "lat": "40.19573972164292"
    },
    {
      "id": "pt.ine.add.PTCONT.1116980",
      "street": "R ANTONIO PINHO BROJO",
      "house": "1",
      "postcode": "3030-782",
      "city": "COIMBRA",
      "lon": "-8.395387959304422",
      "lat": "40.19573972164292"
    },
    {
      "id": "pt.ine.add.PTCONT.1116981",
      "street": "URB QUINTA DA ROMEIRA",
      "house": "",
      "postcode": "3030-782",
      "city": "COIMBRA",
      "lon": "-8.395387959304422",
      "lat": "40.19573972164292"
    },
    {
      "id": "pt.ine.add.PTCONT.1117082",
      "street": "R ANTONIO PINHO BROJO",
      "house": "1",
      "postcode": "3030-782",
      "city": "COIMBRA",
      "lon": "-8.395387959304422",
      "lat": "40.19573972164292"
    },
    {
      "id": "pt.ine.add.PTCONT.1118158",
      "street": "URB QUINTA DA ROMEIRA",
      "house": "",
      "postcode": "3030-782",
      "city": "COIMBRA",
      "lon": "-8.395387959304422",
      "lat": "40.19573972164292"
    },
    {
      "id": "pt.ine.add.PTCONT.1118277",
      "street": "QTA ROMEIRA",
      "house": "1",
      "postcode": "3030-782",
      "city": "COIMBRA",
      "lon": "-8.395387959304422",
      "lat": "40.19573972164292"
    },
    {
      "id": "pt.ine.add.PTCONT.1118922",
      "street": "R ROMEIRAS",
      "house": "",
      "postcode": "3030-471",
      "city": "COIMBRA",
      "lon": "-8.396668500049888",
      "lat": "40.19585388977289"
    },
    {
      "id": "pt.ine.add.PTCONT.1121098",
      "street": "R CARLOS PAREDES",
      "house": "7",
      "postcode": "3030-782",
      "city": "COIMBRA",
      "lon": "-8.39416538253576",
      "lat": "40.19542727932352"
    },
    {
      "id": "pt.ine.add.PTCONT.1121099",
      "street": "URB QUINTA DA ROMEIRA",
      "house": "",
      "postcode": "3030-782",
      "city": "COIMBRA",
      "lon": "-8.39416538253576",
      "lat": "40.19542727932352"
    },
    {
      "id": "pt.ine.add.PTCONT.1121100",
      "street": "URB QUINTA DA ROMEIRA",
      "house": "",
      "postcode": "3030-782",
      "city": "COIMBRA",
      "lon": "-8.39416538253576",
      "lat": "40.19542727932352"
    },
    {
      "id": "pt.ine.add.PTCONT.1121101",
      "street": "R CARLOS PAREDES",
      "house": "7",
      "postcode": "3030-782",
      "city": "COIMBRA",
      "lon": "-8.39416538253576",
      "lat": "40.19542727932352"
    },
    {
      "id": "pt.ine.add.PTCONT.1122191",
      "street": "URB QUINTA DA ROMEIRA",
      "house": "",
      "postcode": "3030-782",
      "city": "COIMBRA",
      "lon": "-8.39416538253576",
      "lat": "40.19542727932352"
    },
    {
      "id": "pt.ine.add.PTCONT.1122274",
      "street": "URB QUINTA DA ROMEIRA",
      "house": "",
      "postcode": "3030-782",
      "city": "COIMBRA",
      "lon": "-8.39416538253576",
      "lat": "40.19542727932352"
    },
    {
      "id": "pt.ine.add.PTCONT.1126146",
      "street": "LAD PORTELA DA COBICA",
      "house": "64",
      "postcode": "3030-168",
      "city": "COIMBRA",
      "lon": "-8.39505140523025",
      "lat": "40.1967851653841"
    },
    {
      "id": "pt.ine.add.PTCONT.1129313",
      "street": "R ROMEIRAS",
      "house": "2",
      "postcode": "3030-471",
      "city": "COIMBRA",
      "lon": "-8.396433377376539",
      "lat": "40.19579138368704"
    },
    {
      "id": "pt.ine.add.PTCONT.1138936",
      "street": "LAD PORTELA DA COBICA",
      "house": "58",
      "postcode": "3030-168",
      "city": "COIMBRA",
      "lon": "-8.39561526108822",
      "lat": "40.196819911673906"
    },
    {
      "id": "pt.ine.add.PTCONT.1141539",
      "street": "LAD PORTELA DA COBICA",
      "house": "",
      "postcode": "3030-168",
      "city": "COIMBRA",
      "lon": "-8.396038327270102",
      "lat": "40.19689099857231"
    },
    {
      "id": "pt.ine.add.PTCONT.1142941",
      "street": "R ROMEIRAS",
      "house": "38",
      "postcode": "3030-471",
      "city": "COIMBRA",
      "lon": "-8.396333358038188",
      "lat": "40.19725956901114"
    },
    {
      "id": "pt.ine.add.PTCONT.1142942",
      "street": "R ROMEIRAS",
      "house": "38",
      "postcode": "3030-471",
      "city": "COIMBRA",
      "lon": "-8.396333358038188",
      "lat": "40.19725956901114"
    },
    {
      "id": "pt.ine.add.PTCONT.1142943",
      "street": "R ROMEIRAS",
      "house": "38",
      "postcode": "3030-471",
      "city": "COIMBRA",
      "lon": "-8.396333358038188",
      "lat": "40.19725956901114"
    },
    {
      "id": "pt.ine.add.PTCONT.1149605",
      "street": "R CARLOS PAREDES",
      "house": "",
      "postcode": "3030-783",
      "city": "COIMBRA",
      "lon": "-8.394025836743511",
      "lat": "40.19578782904641"
    },
    {
      "id": "pt.ine.add.PTCONT.1149606",
      "street": "R CARLOS PAREDES",
      "house": "9",
      "postcode": "3030-783",
      "city": "COIMBRA",
      "lon": "-8.394025836743511",
      "lat": "40.19578782904641"
    },
    {
      "id": "pt.ine.add.PTCONT.1149607",
      "street": "R CARLOS PAREDES",
      "house": "9",
      "postcode": "3030-783",
      "city": "COIMBRA",
      "lon": "-8.394025836743511",
      "lat": "40.19578782904641"
    },
    {
      "id": "pt.ine.add.PTCONT.1149608",
      "street": "R CARLOS PAREDES",
      "house": "",
      "postcode": "3030-783",
      "city": "COIMBRA",
      "lon": "-8.394025836743511",
      "lat": "40.19578782904641"
    },
    {
      "id": "pt.ine.add.PTCONT.1149609",
      "street": "R CARLOS PAREDES",
      "house": "",
      "postcode": "3030-783",
      "city": "COIMBRA",
      "lon": "-8.394025836743511",
      "lat": "40.19578782904641"
    },
    {
      "id": "pt.ine.add.PTCONT.1149610",
      "street": "R CARLOS PAREDES",
      "house": "",
      "postcode": "3030-783",
      "city": "COIMBRA",
      "lon": "-8.394025836743511",
      "lat": "40.19578782904641"
    },
    {
      "id": "pt.ine.add.PTCONT.1169683",
      "street": "LAD PORTELA DA COBICA",
      "house": "21",
      "postcode": "3030-168",
      "city": "COIMBRA",
      "lon": "-8.395848509600741",
      "lat": "40.19639610633981"
    },
    {
      "id": "pt.ine.add.PTCONT.1175456",
      "street": "LAD PORTELA DA COBICA",
      "house": "",
      "postcode": "3030-168",
      "city": "COIMBRA",
      "lon": "-8.395977346236712",
      "lat": "40.19630575509434"
    },
    {
      "id": "pt.ine.add.PTCONT.1175884",
      "street": "R CARLOS PAREDES",
      "house": "",
      "postcode": "3030-782",
      "city": "COIMBRA",
      "lon": "-8.393918347240476",
      "lat": "40.19531976559132"
    },
    {
      "id": "pt.ine.add.PTCONT.1175885",
      "street": "R CARLOS PAREDES",
      "house": "",
      "postcode": "3030-782",
      "city": "COIMBRA",
      "lon": "-8.393918347240476",
      "lat": "40.19531976559132"
    },
    {
      "id": "pt.ine.add.PTCONT.1176921",
      "street": "R CARLOS PAREDES",
      "house": "",
      "postcode": "3030-782",
      "city": "COIMBRA",
      "lon": "-8.393918347240476",
      "lat": "40.19531976559132"
    },
    {
      "id": "pt.ine.add.PTCONT.1177085",
      "street": "R CARLOS PAREDES",
      "house": "",
      "postcode": "3030-782",
      "city": "COIMBRA",
      "lon": "-8.393918347240476",
      "lat": "40.19531976559132"
    },
    {
      "id": "pt.ine.add.PTCONT.1177089",
      "street": "R CARLOS PAREDES",
      "house": "",
      "postcode": "3030-782",
      "city": "COIMBRA",
      "lon": "-8.393918347240476",
      "lat": "40.19531976559132"
    },
    {
      "id": "pt.ine.add.PTCONT.1177143",
      "street": "R CARLOS PAREDES",
      "house": "",
      "postcode": "3030-782",
      "city": "COIMBRA",
      "lon": "-8.393918347240476",
      "lat": "40.19531976559132"
    },
    {
      "id": "pt.ine.add.PTCONT.1177236",
      "street": "LAD PORTELA COBICA",
      "house": "",
      "postcode": "3030-168",
      "city": "COIMBRA",
      "lon": "-8.395109397865557",
      "lat": "40.19659591074613"
    },
    {
      "id": "pt.ine.add.PTCONT.1186999",
      "street": "R ROMEIRAS",
      "house": "",
      "postcode": "3030-471",
      "city": "COIMBRA",
      "lon": "-8.396752695657215",
      "lat": "40.1963670330482"
    },
    {
      "id": "pt.ine.add.PTCONT.1189926",
      "street": "LAD PORTELA DA COBICA",
      "house": "16",
      "postcode": "3030-168",
      "city": "COIMBRA",
      "lon": "-8.39600361660139",
      "lat": "40.19702616554031"
    },
    {
      "id": "pt.ine.add.PTCONT.1191873",
      "street": "R ROMEIRAS",
      "house": "",
      "postcode": "3030-471",
      "city": "COIMBRA",
      "lon": "-8.39419394747958",
      "lat": "40.196751078880126"
    },
    {
      "id": "pt.ine.add.PTCONT.1193710",
      "street": "R ROMEIRAS",
      "house": "66",
      "postcode": "3030-471",
      "city": "COIMBRA",
      "lon": "-8.395285316135658",
      "lat": "40.196532471337456"
    },
    {
      "id": "pt.ine.add.PTCONT.1195333",
      "street": "LAD PORTELA DA COBICA",
      "house": "19",
      "postcode": "3030-168",
      "city": "COIMBRA",
      "lon": "-8.396082903257488",
      "lat": "40.196269491850444"
    },
    {
      "id": "pt.ine.add.PTCONT.1195334",
      "street": "LAD PORTELA DA COBICA",
      "house": "19",
      "postcode": "3030-168",
      "city": "COIMBRA",
      "lon": "-8.396082903257488",
      "lat": "40.196269491850444"
    },
    {
      "id": "pt.ine.add.PTCONT.1199754",
      "street": "LAD PORTELA DA COBICA",
      "house": "19",
      "postcode": "3030-168",
      "city": "COIMBRA",
      "lon": "-8.395555117024836",
      "lat": "40.196450807108725"
    },
    {
      "id": "pt.ine.add.PTCONT.1222782",
      "street": "TV LADEIRA DA PORTELA DA COBI√áA",
      "house": "8",
      "postcode": "3030-202",
      "city": "COIMBRA",
      "lon": "-8.396073142168072",
      "lat": "40.19678284898237"
    },
    {
      "id": "pt.ine.add.PTCONT.1222783",
      "street": "R ROMEIRAS",
      "house": "74",
      "postcode": "3030-471",
      "city": "COIMBRA",
      "lon": "-8.394593177628538",
      "lat": "40.19673216605491"
    },
    {
      "id": "pt.ine.add.PTCONT.1223151",
      "street": "TV LADEIRA DA PORTELA DA COBI√áA",
      "house": "8",
      "postcode": "3030-202",
      "city": "COIMBRA",
      "lon": "-8.396073142168072",
      "lat": "40.19678284898237"
    },
    {
      "id": "pt.ine.add.PTCONT.1225186",
      "street": "R ROMEIRAS",
      "house": "",
      "postcode": "3030-471",
      "city": "COIMBRA",
      "lon": "-8.396471047984885",
      "lat": "40.19642170938951"
    },
    {
      "id": "pt.ine.add.PTCONT.1225187",
      "street": "R ROMEIRAS",
      "house": "",
      "postcode": "3030-471",
      "city": "COIMBRA",
      "lon": "-8.396471047984885",
      "lat": "40.19642170938951"
    },
    {
      "id": "pt.ine.add.PTCONT.1228003",
      "street": "URB QUINTA DA ROMEIRA",
      "house": "",
      "postcode": "3030-782",
      "city": "COIMBRA",
      "lon": "-8.394412349474711",
      "lat": "40.19551678092371"
    },
    {
      "id": "pt.ine.add.PTCONT.1228004",
      "street": "URB QUINTA DA ROMEIRA",
      "house": "",
      "postcode": "3030-782",
      "city": "COIMBRA",
      "lon": "-8.394412349474711",
      "lat": "40.19551678092371"
    },
    {
      "id": "pt.ine.add.PTCONT.1228005",
      "street": "URB QUINTA DA ROMEIRA",
      "house": "",
      "postcode": "3030-782",
      "city": "COIMBRA",
      "lon": "-8.394412349474711",
      "lat": "40.19551678092371"
    },
    {
      "id": "pt.ine.add.PTCONT.1228006",
      "street": "URB QUINTA DA ROMEIRA",
      "house": "",
      "postcode": "3030-782",
      "city": "COIMBRA",
      "lon": "-8.394412349474711",
      "lat": "40.19551678092371"
    },
    {
      "id": "pt.ine.add.PTCONT.1228007",
      "street": "R CARLOS PAREDES",
      "house": "6",
      "postcode": "3030-782",
      "city": "COIMBRA",
      "lon": "-8.394412349474711",
      "lat": "40.19551678092371"
    },
    {
      "id": "pt.ine.add.PTCONT.1229361",
      "street": "URB QUINTA DA ROMEIRA",
      "house": "",
      "postcode": "3030-782",
      "city": "COIMBRA",
      "lon": "-8.394412349474711",
      "lat": "40.19551678092371"
    },
    {
      "id": "pt.ine.add.PTCONT.1237361",
      "street": "LAD PORTELA DA COBICA",
      "house": "56",
      "postcode": "3030-168",
      "city": "COIMBRA",
      "lon": "-8.395709491883155",
      "lat": "40.19689174496775"
    },
    {
      "id": "pt.ine.add.PTCONT.1237362",
      "street": "LAD PORTELA DA COBICA",
      "house": "56",
      "postcode": "3030-168",
      "city": "COIMBRA",
      "lon": "-8.395709491883155",
      "lat": "40.19689174496775"
    },
    {
      "id": "pt.ine.add.PTCONT.1244140",
      "street": "LAD PORTELA DA COBICA",
      "house": "13",
      "postcode": "3030-168",
      "city": "COIMBRA",
      "lon": "-8.395861053119258",
      "lat": "40.196603213030905"
    },
    {
      "id": "pt.ine.add.PTCONT.1247778",
      "street": "LAD PORTELA DA COBICA",
      "house": "5",
      "postcode": "3030-168",
      "city": "COIMBRA",
      "lon": "-8.395849865190092",
      "lat": "40.1967473324439"
    },
    {
      "id": "pt.ine.add.PTCONT.1247779",
      "street": "LAD PORTELA DA COBICA",
      "house": "5",
      "postcode": "3030-168",
      "city": "COIMBRA",
      "lon": "-8.395849865190092",
      "lat": "40.1967473324439"
    },
    {
      "id": "pt.ine.add.PTCONT.1247817",
      "street": "LAD PORTELA DA COBICA",
      "house": "5",
      "postcode": "3030-168",
      "city": "COIMBRA",
      "lon": "-8.395849865190092",
      "lat": "40.1967473324439"
    },
    {
      "id": "pt.ine.add.PTCONT.1253625",
      "street": "LAD PORTELA DA COBICA",
      "house": "4",
      "postcode": "3030-168",
      "city": "COIMBRA",
      "lon": "-8.3961308187945",
      "lat": "40.19651254166528"
    },
    {
      "id": "pt.ine.add.PTCONT.1254070",
      "street": "R ANT√ìNIO PINHO BROJO",
      "house": "",
      "postcode": "3030-784",
      "city": "COIMBRA",
      "lon": "-8.394798962981431",
      "lat": "40.19527274890859"
    },
    {
      "id": "pt.ine.add.PTCONT.1254071",
      "street": "R ANT√ìNIO PINHO BROJO",
      "house": "",
      "postcode": "3030-784",
      "city": "COIMBRA",
      "lon": "-8.394798962981431",
      "lat": "40.19527274890859"
    },
    {
      "id": "pt.ine.add.PTCONT.1254072",
      "street": "R ANT√ìNIO PINHO BROJO",
      "house": "",
      "postcode": "3030-784",
      "city": "COIMBRA",
      "lon": "-8.394798962981431",
      "lat": "40.19527274890859"
    },
    {
      "id": "pt.ine.add.PTCONT.1254073",
      "street": "R ANT√ìNIO PINHO BROJO",
      "house": "",
      "postcode": "3030-784",
      "city": "COIMBRA",
      "lon": "-8.394798962981431",
      "lat": "40.19527274890859"
    },
    {
      "id": "pt.ine.add.PTCONT.1254074",
      "street": "R ANT√ìNIO PINHO BROJO",
      "house": "",
      "postcode": "3030-784",
      "city": "COIMBRA",
      "lon": "-8.394798962981431",
      "lat": "40.19527274890859"
    },
    {
      "id": "pt.ine.add.PTCONT.1254075",
      "street": "R ANT√ìNIO PINHO BROJO",
      "house": "",
      "postcode": "3030-784",
      "city": "COIMBRA",
      "lon": "-8.394798962981431",
      "lat": "40.19527274890859"
    },
    {
      "id": "pt.ine.add.PTCONT.1254076",
      "street": "R ANT√ìNIO PINHO BROJO",
      "house": "",
      "postcode": "3030-784",
      "city": "COIMBRA",
      "lon": "-8.394798962981431",
      "lat": "40.19527274890859"
    },
    {
      "id": "pt.ine.add.PTCONT.1254077",
      "street": "R ANT√ìNIO PINHO BROJO",
      "house": "",
      "postcode": "3030-784",
      "city": "COIMBRA",
      "lon": "-8.394798962981431",
      "lat": "40.19527274890859"
    },
    {
      "id": "pt.ine.add.PTCONT.1254274",
      "street": "R ANT√ìNIO PINHO BROJO",
      "house": "",
      "postcode": "3030-784",
      "city": "COIMBRA",
      "lon": "-8.394798962981431",
      "lat": "40.19527274890859"
    },
    {
      "id": "pt.ine.add.PTCONT.1259116",
      "street": "R CARLOS PAREDES",
      "house": "",
      "postcode": "3030-783",
      "city": "COIMBRA",
      "lon": "-8.393743913404865",
      "lat": "40.19577045235634"
    },
    {
      "id": "pt.ine.add.PTCONT.1259117",
      "street": "R CARLOS PAREDES",
      "house": "",
      "postcode": "3030-783",
      "city": "COIMBRA",
      "lon": "-8.393743913404865",
      "lat": "40.19577045235634"
    },
    {
      "id": "pt.ine.add.PTCONT.1259118",
      "street": "R CARLOS PAREDES",
      "house": "",
      "postcode": "3030-783",
      "city": "COIMBRA",
      "lon": "-8.393743913404865",
      "lat": "40.19577045235634"
    },
    {
      "id": "pt.ine.add.PTCONT.1259119",
      "street": "R CARLOS PAREDES",
      "house": "",
      "postcode": "3030-783",
      "city": "COIMBRA",
      "lon": "-8.393743913404865",
      "lat": "40.19577045235634"
    },
    {
      "id": "pt.ine.add.PTCONT.1259120",
      "street": "R CARLOS PAREDES",
      "house": "",
      "postcode": "3030-783",
      "city": "COIMBRA",
      "lon": "-8.393743913404865",
      "lat": "40.19577045235634"
    },
    {
      "id": "pt.ine.add.PTCONT.1260529",
      "street": "R CARLOS PAREDES",
      "house": "",
      "postcode": "3030-783",
      "city": "COIMBRA",
      "lon": "-8.393743913404865",
      "lat": "40.19577045235634"
    },
    {
      "id": "pt.ine.add.PTCONT.1260622",
      "street": "LAD PORTELA DA COBICA",
      "house": "52",
      "postcode": "3030-168",
      "city": "COIMBRA",
      "lon": "-8.395780269360017",
      "lat": "40.19697263727777"
    },
    {
      "id": "pt.ine.add.PTCONT.1260623",
      "street": "LAD PORTELA DA COBICA",
      "house": "9",
      "postcode": "3030-168",
      "city": "COIMBRA",
      "lon": "-8.39587307528592",
      "lat": "40.196675232754146"
    },
    {
      "id": "pt.ine.add.PTCONT.1260624",
      "street": "LAD PORTELA DA COBICA",
      "house": "11",
      "postcode": "3030-168",
      "city": "COIMBRA",
      "lon": "-8.395649937693262",
      "lat": "40.19667573901787"
    },
    {
      "id": "pt.ine.add.PTCONT.1265178",
      "street": "R ROMEIRAS",
      "house": "82",
      "postcode": "3030-471",
      "city": "COIMBRA",
      "lon": "-8.394111738790839",
      "lat": "40.19675126425627"
    },
    {
      "id": "pt.ine.add.PTCONT.1267136",
      "street": "URB QUINTA DA ROMEIRA",
      "house": "3",
      "postcode": "3030-782",
      "city": "COIMBRA",
      "lon": "-8.394601669928706",
      "lat": "40.195885594435566"
    },
    {
      "id": "pt.ine.add.PTCONT.1269186",
      "street": "URB QUINTA DA ROMEIRA",
      "house": "",
      "postcode": "3030-782",
      "city": "COIMBRA",
      "lon": "-8.395175008616777",
      "lat": "40.195334939393085"
    },
    {
      "id": "pt.ine.add.PTCONT.1269187",
      "street": "R ANTONIO PINHO BROJO",
      "house": "4",
      "postcode": "3030-782",
      "city": "COIMBRA",
      "lon": "-8.395175008616777",
      "lat": "40.195334939393085"
    },
    {
      "id": "pt.ine.add.PTCONT.1269188",
      "street": "URB QUINTA DA ROMEIRA",
      "house": "",
      "postcode": "3030-782",
      "city": "COIMBRA",
      "lon": "-8.395175008616777",
      "lat": "40.195334939393085"
    },
    {
      "id": "pt.ine.add.PTCONT.1269189",
      "street": "QTA ROMEIRA",
      "house": "5",
      "postcode": "3030-782",
      "city": "COIMBRA",
      "lon": "-8.395175008616777",
      "lat": "40.195334939393085"
    },
    {
      "id": "pt.ine.add.PTCONT.1269194",
      "street": "URB QUINTA DA ROMEIRA",
      "house": "",
      "postcode": "3030-782",
      "city": "COIMBRA",
      "lon": "-8.395175008616777",
      "lat": "40.195334939393085"
    },
    {
      "id": "pt.ine.add.PTCONT.1269195",
      "street": "URB QUINTA DA ROMEIRA",
      "house": "",
      "postcode": "3030-782",
      "city": "COIMBRA",
      "lon": "-8.395175008616777",
      "lat": "40.195334939393085"
    },
    {
      "id": "pt.ine.add.PTCONT.1269196",
      "street": "URB QUINTA DA ROMEIRA",
      "house": "",
      "postcode": "3030-782",
      "city": "COIMBRA",
      "lon": "-8.395175008616777",
      "lat": "40.195334939393085"
    },
    {
      "id": "pt.ine.add.PTCONT.1269197",
      "street": "URB QUINTA DA ROMEIRA",
      "house": "",
      "postcode": "3030-782",
      "city": "COIMBRA",
      "lon": "-8.395175008616777",
      "lat": "40.195334939393085"
    },
    {
      "id": "pt.ine.add.PTCONT.1269198",
      "street": "URB QUINTA DA ROMEIRA",
      "house": "",
      "postcode": "3030-782",
      "city": "COIMBRA",
      "lon": "-8.395175008616777",
      "lat": "40.195334939393085"
    },
    {
      "id": "pt.ine.add.PTCONT.1269199",
      "street": "URB QUINTA DA ROMEIRA",
      "house": "",
      "postcode": "3030-782",
      "city": "COIMBRA",
      "lon": "-8.395175008616777",
      "lat": "40.195334939393085"
    },
    {
      "id": "pt.ine.add.PTCONT.1269200",
      "street": "R ANTONIO PINHO BROJO",
      "house": "4",
      "postcode": "3030-782",
      "city": "COIMBRA",
      "lon": "-8.395175008616777",
      "lat": "40.195334939393085"
    },
    {
      "id": "pt.ine.add.PTCONT.1269201",
      "street": "URB QUINTA DA ROMEIRA",
      "house": "",
      "postcode": "3030-782",
      "city": "COIMBRA",
      "lon": "-8.395175008616777",
      "lat": "40.195334939393085"
    },
    {
      "id": "pt.ine.add.PTCONT.1269202",
      "street": "URB QUINTA DA ROMEIRA",
      "house": "",
      "postcode": "3030-782",
      "city": "COIMBRA",
      "lon": "-8.395175008616777",
      "lat": "40.195334939393085"
    },
    {
      "id": "pt.ine.add.PTCONT.1275108",
      "street": "R ROMEIRAS",
      "house": "2",
      "postcode": "3030-471",
      "city": "COIMBRA",
      "lon": "-8.396483872144255",
      "lat": "40.19670086238166"
    },
    {
      "id": "pt.ine.add.PTCONT.1290777",
      "street": "R ROMEIRAS",
      "house": "84",
      "postcode": "3030-471",
      "city": "COIMBRA",
      "lon": "-8.39393519774991",
      "lat": "40.19665259750844"
    },
    {
      "id": "pt.ine.add.PTCONT.1291734",
      "street": "R ROMEIRAS",
      "house": "",
      "postcode": "3030-471",
      "city": "COIMBRA",
      "lon": "-8.396680627537402",
      "lat": "40.19595292681308"
    },
    {
      "id": "pt.ine.add.PTCONT.1298506",
      "street": "R ROMEIRAS",
      "house": "14",
      "postcode": "3030-471",
      "city": "COIMBRA",
      "lon": "-8.396728963474137",
      "lat": "40.19630404595657"
    },
    {
      "id": "pt.ine.add.PTCONT.1304932",
      "street": "TV DA PORTELA DA COBI√áA",
      "house": "15",
      "postcode": "3030-202",
      "city": "COIMBRA",
      "lon": "-8.395860844557681",
      "lat": "40.19654917824577"
    },
    {
      "id": "pt.ine.add.PTCONT.1305028",
      "street": "TV DA PORTELA DA COBI√áA",
      "house": "15",
      "postcode": "3030-202",
      "city": "COIMBRA",
      "lon": "-8.395860844557681",
      "lat": "40.19654917824577"
    },
    {
      "id": "pt.ine.add.PTCONT.1313595",
      "street": "R ROMEIRAS",
      "house": "8 A",
      "postcode": "3030-471",
      "city": "COIMBRA",
      "lon": "-8.396705091849228",
      "lat": "40.19620503566941"
    },
    {
      "id": "pt.ine.add.PTCONT.1321054",
      "street": "LAD PORTELA DA COBICA",
      "house": "6",
      "postcode": "3030-168",
      "city": "COIMBRA",
      "lon": "-8.396165668155458",
      "lat": "40.1964133978391"
    },
    {
      "id": "pt.ine.add.PTCONT.1321055",
      "street": "LAD PORTELA DA COBICA",
      "house": "6",
      "postcode": "3030-168",
      "city": "COIMBRA",
      "lon": "-8.396165668155458",
      "lat": "40.1964133978391"
    },
    {
      "id": "pt.ine.add.PTCONT.1321102",
      "street": "LAD PORTELA DA COBICA",
      "house": "6",
      "postcode": "3030-168",
      "city": "COIMBRA",
      "lon": "-8.396165668155458",
      "lat": "40.1964133978391"
    },
    {
      "id": "pt.ine.add.PTCONT.1323663",
      "street": "R ROMEIRAS",
      "house": "",
      "postcode": "3030-471",
      "city": "COIMBRA",
      "lon": "-8.396693068888547",
      "lat": "40.196133016029286"
    },
    {
      "id": "pt.ine.add.PTCONT.1331116",
      "street": "R ROMEIRAS",
      "house": "76",
      "postcode": "3030-471",
      "city": "COIMBRA",
      "lon": "-8.394370039826418",
      "lat": "40.19673266985226"
    },
    {
      "id": "pt.ine.add.PTCONT.1331566",
      "street": "R ROMEIRAS",
      "house": "",
      "postcode": "3030-471",
      "city": "COIMBRA",
      "lon": "-8.396471605439437",
      "lat": "40.19656580214491"
    },
    {
      "id": "pt.ine.add.PTCONT.1333955",
      "street": "R QUINTA BELMONTE",
      "house": "3",
      "postcode": "3030-782",
      "city": "COIMBRA",
      "lon": "-8.395445151938073",
      "lat": "40.19534333341741"
    },
    {
      "id": "pt.ine.add.PTCONT.1333956",
      "street": "R CARLOS PAREDES",
      "house": "3",
      "postcode": "3030-782",
      "city": "COIMBRA",
      "lon": "-8.395445151938073",
      "lat": "40.19534333341741"
    },
    {
      "id": "pt.ine.add.PTCONT.1333957",
      "street": "R ANT√ìNIO PINHO BROJO",
      "house": "3",
      "postcode": "3030-782",
      "city": "COIMBRA",
      "lon": "-8.395445151938073",
      "lat": "40.19534333341741"
    },
    {
      "id": "pt.ine.add.PTCONT.1333958",
      "street": "URB QUINTA DA ROMEIRA",
      "house": "",
      "postcode": "3030-782",
      "city": "COIMBRA",
      "lon": "-8.395445151938073",
      "lat": "40.19534333341741"
    },
    {
      "id": "pt.ine.add.PTCONT.1333959",
      "street": "URB QUINTA DA ROMEIRA",
      "house": "",
      "postcode": "3030-782",
      "city": "COIMBRA",
      "lon": "-8.395445151938073",
      "lat": "40.19534333341741"
    },
    {
      "id": "pt.ine.add.PTCONT.1333960",
      "street": "URB QUINTA DA ROMEIRA",
      "house": "",
      "postcode": "3030-782",
      "city": "COIMBRA",
      "lon": "-8.395445151938073",
      "lat": "40.19534333341741"
    },
    {
      "id": "pt.ine.add.PTCONT.1333961",
      "street": "URB QUINTA DA ROMEIRA",
      "house": "",
      "postcode": "3030-782",
      "city": "COIMBRA",
      "lon": "-8.395445151938073",
      "lat": "40.19534333341741"
    },
    {
      "id": "pt.ine.add.PTCONT.1333962",
      "street": "R ANT√ìNIO PINHO BROJO",
      "house": "3",
      "postcode": "3030-782",
      "city": "COIMBRA",
      "lon": "-8.395445151938073",
      "lat": "40.19534333341741"
    },
    {
      "id": "pt.ine.add.PTCONT.1333963",
      "street": "R ANT√ìNIO PINHO BROJO",
      "house": "3",
      "postcode": "3030-782",
      "city": "COIMBRA",
      "lon": "-8.395445151938073",
      "lat": "40.19534333341741"
    },
    {
      "id": "pt.ine.add.PTCONT.1335116",
      "street": "R ANT√ìNIO PINHO BROJO",
      "house": "",
      "postcode": "3030-784",
      "city": "COIMBRA",
      "lon": "-8.395445151938073",
      "lat": "40.19534333341741"
    },
    {
      "id": "pt.ine.add.PTCONT.1335210",
      "street": "R ANT√ìNIO PINHO BROJO",
      "house": "3",
      "postcode": "3030-782",
      "city": "COIMBRA",
      "lon": "-8.395445151938073",
      "lat": "40.19534333341741"
    },
    {
      "id": "pt.ine.add.PTCONT.1335445",
      "street": "R ANT√ìNIO PINHO BROJO",
      "house": "",
      "postcode": "3030-784",
      "city": "COIMBRA",
      "lon": "-8.395563389027961",
      "lat": "40.19555020062002"
    },
    {
      "id": "pt.ine.add.PTCONT.1335446",
      "street": "R ANT√ìNIO PINHO BROJO",
      "house": "",
      "postcode": "3030-784",
      "city": "COIMBRA",
      "lon": "-8.395563389027961",
      "lat": "40.19555020062002"
    },
    {
      "id": "pt.ine.add.PTCONT.1335447",
      "street": "R ANT√ìNIO PINHO BROJO",
      "house": "",
      "postcode": "3030-784",
      "city": "COIMBRA",
      "lon": "-8.395563389027961",
      "lat": "40.19555020062002"
    },
    {
      "id": "pt.ine.add.PTCONT.1335448",
      "street": "R ANT√ìNIO PINHO BROJO",
      "house": "",
      "postcode": "3030-784",
      "city": "COIMBRA",
      "lon": "-8.395563389027961",
      "lat": "40.19555020062002"
    },
    {
      "id": "pt.ine.add.PTCONT.1335449",
      "street": "R ANT√ìNIO PINHO BROJO",
      "house": "",
      "postcode": "3030-784",
      "city": "COIMBRA",
      "lon": "-8.395563389027961",
      "lat": "40.19555020062002"
    },
    {
      "id": "pt.ine.add.PTCONT.1335450",
      "street": "R ANT√ìNIO PINHO BROJO",
      "house": "",
      "postcode": "3030-784",
      "city": "COIMBRA",
      "lon": "-8.395563389027961",
      "lat": "40.19555020062002"
    },
    {
      "id": "pt.ine.add.PTCONT.1335451",
      "street": "R ANT√ìNIO PINHO BROJO",
      "house": "",
      "postcode": "3030-784",
      "city": "COIMBRA",
      "lon": "-8.395563389027961",
      "lat": "40.19555020062002"
    },
    {
      "id": "pt.ine.add.PTCONT.1335452",
      "street": "R ANT√ìNIO PINHO BROJO",
      "house": "",
      "postcode": "3030-784",
      "city": "COIMBRA",
      "lon": "-8.395563389027961",
      "lat": "40.19555020062002"
    },
    {
      "id": "pt.ine.add.PTCONT.1335453",
      "street": "R ANT√ìNIO PINHO BROJO",
      "house": "",
      "postcode": "3030-784",
      "city": "COIMBRA",
      "lon": "-8.395563389027961",
      "lat": "40.19555020062002"
    },
    {
      "id": "pt.ine.add.PTCONT.1335454",
      "street": "R ANT√ìNIO PINHO BROJO",
      "house": "",
      "postcode": "3030-784",
      "city": "COIMBRA",
      "lon": "-8.395563389027961",
      "lat": "40.19555020062002"
    },
    {
      "id": "pt.ine.add.PTCONT.1335455",
      "street": "R ANT√ìNIO PINHO BROJO",
      "house": "",
      "postcode": "3030-784",
      "city": "COIMBRA",
      "lon": "-8.395563389027961",
      "lat": "40.19555020062002"
    },
    {
      "id": "pt.ine.add.PTCONT.1335456",
      "street": "R ANT√ìNIO PINHO BROJO",
      "house": "",
      "postcode": "3030-784",
      "city": "COIMBRA",
      "lon": "-8.395563389027961",
      "lat": "40.19555020062002"
    },
    {
      "id": "pt.ine.add.PTCONT.1335458",
      "street": "R ANT√ìNIO PINHO BROJO",
      "house": "",
      "postcode": "3030-784",
      "city": "COIMBRA",
      "lon": "-8.395563389027961",
      "lat": "40.19555020062002"
    },
    {
      "id": "pt.ine.add.PTCONT.1335459",
      "street": "R ANT√ìNIO PINHO BROJO",
      "house": "",
      "postcode": "3030-784",
      "city": "COIMBRA",
      "lon": "-8.395563389027961",
      "lat": "40.19555020062002"
    },
    {
      "id": "pt.ine.add.PTCONT.1335460",
      "street": "R ANT√ìNIO PINHO BROJO",
      "house": "",
      "postcode": "3030-784",
      "city": "COIMBRA",
      "lon": "-8.395563389027961",
      "lat": "40.19555020062002"
    },
    {
      "id": "pt.ine.add.PTCONT.1335461",
      "street": "R ANT√ìNIO PINHO BROJO",
      "house": "",
      "postcode": "3030-784",
      "city": "COIMBRA",
      "lon": "-8.395563389027961",
      "lat": "40.19555020062002"
    },
    {
      "id": "pt.ine.add.PTCONT.1335463",
      "street": "R ANT√ìNIO PINHO BROJO",
      "house": "",
      "postcode": "3030-784",
      "city": "COIMBRA",
      "lon": "-8.395563389027961",
      "lat": "40.19555020062002"
    },
    {
      "id": "pt.ine.add.PTCONT.1342131",
      "street": "LAD PORTELA DA COBICA",
      "house": "3",
      "postcode": "3030-168",
      "city": "COIMBRA",
      "lon": "-8.395861956892606",
      "lat": "40.19683736376069"
    },
    {
      "id": "pt.ine.add.PTCONT.1342132",
      "street": "LAD PORTELA DA COBICA",
      "house": "3",
      "postcode": "3030-168",
      "city": "COIMBRA",
      "lon": "-8.395861956892606",
      "lat": "40.19683736376069"
    },
    {
      "id": "pt.ine.add.PTCONT.1345052",
      "street": "R ROMEIRAS",
      "house": "",
      "postcode": "3030-471",
      "city": "COIMBRA",
      "lon": "-8.396414313295212",
      "lat": "40.1969351733882"
    },
    {
      "id": "pt.ine.add.PTCONT.1349734",
      "street": "R ROMEIRAS",
      "house": "8",
      "postcode": "3030-471",
      "city": "COIMBRA",
      "lon": "-8.396563675888643",
      "lat": "40.19607927530703"
    },
    {
      "id": "pt.ine.add.PTCONT.1349735",
      "street": "R ROMEIRAS",
      "house": "8",
      "postcode": "3030-471",
      "city": "COIMBRA",
      "lon": "-8.396563675888643",
      "lat": "40.19607927530703"
    },
    {
      "id": "pt.ine.add.PTCONT.1349736",
      "street": "R ROMEIRAS",
      "house": "8",
      "postcode": "3030-471",
      "city": "COIMBRA",
      "lon": "-8.396563675888643",
      "lat": "40.19607927530703"
    },
    {
      "id": "pt.ine.add.PTCONT.1351133",
      "street": "LAD PORTELA DA COBICA",
      "house": "62",
      "postcode": "3030-168",
      "city": "COIMBRA",
      "lon": "-8.39527450850936",
      "lat": "40.19677565447528"
    },
    {
      "id": "pt.ine.add.PTCONT.1351134",
      "street": "LAD PORTELA DA COBICA",
      "house": "62",
      "postcode": "3030-168",
      "city": "COIMBRA",
      "lon": "-8.39527450850936",
      "lat": "40.19677565447528"
    },
    {
      "id": "pt.ine.add.PTCONT.1351135",
      "street": "LAD PORTELA DA COBICA",
      "house": "17",
      "postcode": "3030-168",
      "city": "COIMBRA",
      "lon": "-8.395860531716373",
      "lat": "40.19646812606708"
    },
    {
      "id": "pt.ine.add.PTCONT.1358713",
      "street": "R ROMEIRAS",
      "house": "",
      "postcode": "3030-471",
      "city": "COIMBRA",
      "lon": "-8.396388247602703",
      "lat": "40.196268797823855"
    },
    {
      "id": "pt.ine.add.PTCONT.1358714",
      "street": "R ROMEIRAS",
      "house": "",
      "postcode": "3030-471",
      "city": "COIMBRA",
      "lon": "-8.396388247602703",
      "lat": "40.196268797823855"
    },
    {
      "id": "pt.ine.add.PTCONT.1358715",
      "street": "R ROMEIRAS",
      "house": "",
      "postcode": "3030-471",
      "city": "COIMBRA",
      "lon": "-8.396388247602703",
      "lat": "40.196268797823855"
    },
    {
      "id": "pt.ine.add.PTCONT.1362697",
      "street": "R ANT√ìNIO PINHO BROJO",
      "house": "",
      "postcode": "3030-784",
      "city": "COIMBRA",
      "lon": "-8.395563389027961",
      "lat": "40.19555020062002"
    },
    {
      "id": "pt.ine.add.PTCONT.1362864",
      "street": "R ROMEIRAS",
      "house": "8",
      "postcode": "3030-471",
      "city": "COIMBRA",
      "lon": "-8.396563675888643",
      "lat": "40.19607927530703"
    },
    {
      "id": "pt.ine.add.PTCONT.1363031",
      "street": "R CARLOS PAREDES",
      "house": "",
      "postcode": "3030-783",
      "city": "COIMBRA",
      "lon": "-8.394812576312297",
      "lat": "40.19575903555751"
    },
    {
      "id": "pt.ine.add.PTCONT.1363630",
      "street": "R ROMEIRAS",
      "house": "",
      "postcode": "3030-471",
      "city": "COIMBRA",
      "lon": "-8.396388247602703",
      "lat": "40.196268797823855"
    }
  ]
}