{
  "data": {
    "distrito": "Lisboa",
    "concelho": "Lourinhã",
    "freguesia": "União das freguesias de Lourinhã e Atalaia",
    "OBJECTID": 678,
    "BGRI2021": "11081200603",
    "DT21": "11",
    "DTMN21": "1108",
    "DTMNFR21": "110812",
    "DTMNFRSEC21": "110812006",
    "SECNUM21": "006",
    "SSNUM21": "03",
    "SECSSNUM21": "00603",
    "OBJECTID_1": 107422,
    "DT": "11",
    "CC": "08",
    "fr": "12",
    "SEC": "006",
    "SS": "03"
  },
  "addresses": [
    {
      "id": "pt.ine.add.PTCONT.2369153",
      "street": "R MARIA DAS NEVES",
      "house": "",
      "postcode": "2530-237",
      "city": "LOURINHÃ",
      "lon": "-9.33073371278501",
      "lat": "39.266628228694884"
    },
    {
      "id": "pt.ine.add.PTCONT.2374607",
      "street": "TV CHARRUA",
      "house": "9",
      "postcode": "2530-218",
      "city": "LOURINHÃ",
      "lon": "-9.331614011700088",
      "lat": "39.266610164078614"
    },
    {
      "id": "pt.ine.add.PTCONT.2488038",
      "street": "R PIONEIROS",
      "house": "6",
      "postcode": "2530-230",
      "city": "LOURINHÃ",
      "lon": "-9.330912632139869",
      "lat": "39.26624809663227"
    },
    {
      "id": "pt.ine.add.PTCONT.2589070",
      "street": "AV PAIMOGO",
      "house": "13",
      "postcode": "2530-214",
      "city": "LOURINHÃ",
      "lon": "-9.33048558826979",
      "lat": "39.2670270860423"
    },
    {
      "id": "pt.ine.add.PTCONT.2643998",
      "street": "AV PAIMOGO",
      "house": "7",
      "postcode": "2530-214",
      "city": "LOURINHÃ",
      "lon": "-9.330060103155795",
      "lat": "39.266536078794346"
    },
    {
      "id": "pt.ine.add.PTCONT.2729822",
      "street": "AV PAIMOGO",
      "house": "11",
      "postcode": "2530-214",
      "city": "LOURINHÃ",
      "lon": "-9.33018269365036",
      "lat": "39.26693112406489"
    },
    {
      "id": "pt.ine.add.PTCONT.2739581",
      "street": "R MARIA DAS NEVES",
      "house": "3B",
      "postcode": "2530-237",
      "city": "LOURINHÃ",
      "lon": "-9.330509001858605",
      "lat": "39.266360331427464"
    },
    {
      "id": "pt.ine.add.PTCONT.2838458",
      "street": "AV PAIMOGO",
      "house": "15",
      "postcode": "2530-214",
      "city": "LOURINHÃ",
      "lon": "-9.330706775666327",
      "lat": "39.26708785986858"
    },
    {
      "id": "pt.ine.add.PTCONT.2865551",
      "street": "R PIONEIROS",
      "house": "10",
      "postcode": "2530-230",
      "city": "LOURINHÃ",
      "lon": "-9.331249972593188",
      "lat": "39.26632568840251"
    },
    {
      "id": "pt.ine.add.PTCONT.2875923",
      "street": "R MARIA DAS NEVES",
      "house": "5",
      "postcode": "2530-237",
      "city": "LOURINHÃ",
      "lon": "-9.330295172038369",
      "lat": "39.266731814878234"
    },
    {
      "id": "pt.ine.add.PTCONT.2893919",
      "street": "R PIONEIROS RASA S JOSE",
      "house": "2",
      "postcode": "2530-230",
      "city": "LOURINHÃ",
      "lon": "-9.330459137634099",
      "lat": "39.26615368447696"
    },
    {
      "id": "pt.ine.add.PTCONT.2893920",
      "street": "R PIONEIROS",
      "house": "4",
      "postcode": "2530-230",
      "city": "LOURINHÃ",
      "lon": "-9.330679709125832",
      "lat": "39.26617843693351"
    },
    {
      "id": "pt.ine.add.PTCONT.2911265",
      "street": "AV PAIMOGO",
      "house": "17",
      "postcode": "2530-214",
      "city": "LOURINHÃ",
      "lon": "-9.330927963435627",
      "lat": "39.26714863326816"
    },
    {
      "id": "pt.ine.add.PTCONT.2911266",
      "street": "AV PAIMOGO",
      "house": "9",
      "postcode": "2530-214",
      "city": "LOURINHÃ",
      "lon": "-9.330006927773937",
      "lat": "39.26681584067989"
    },
    {
      "id": "pt.ine.add.PTCONT.3095634",
      "street": "R PIONEIROS",
      "house": "8",
      "postcode": "2530-230",
      "city": "LOURINHÃ",
      "lon": "-9.331110034383299",
      "lat": "39.26627308661142"
    },
    {
      "id": "pt.ine.add.PTCONT.3126943",
      "street": "AV PAIMOGO",
      "house": "5A",
      "postcode": "2530-214",
      "city": "LOURINHÃ",
      "lon": "-9.330242090425315",
      "lat": "39.266336055094406"
    },
    {
      "id": "pt.ine.add.PTCONT.3225293",
      "street": "R MARIA DAS NEVES",
      "house": "3",
      "postcode": "2530-237",
      "city": "LOURINHÃ",
      "lon": "-9.330523958452703",
      "lat": "39.2665583303899"
    },
    {
      "id": "pt.ine.add.PTCONT.3229098",
      "street": "PCT CHARRUA",
      "house": "7",
      "postcode": "2530-218",
      "city": "LOURINHÃ",
      "lon": "-9.331369655304751",
      "lat": "39.266549630402174"
    },
    {
      "id": "pt.ine.add.PTCONT.3234727",
      "street": "R PIONEIROS",
      "house": "14",
      "postcode": "2530-230",
      "city": "LOURINHÃ",
      "lon": "-9.331610176690194",
      "lat": "39.266385029968845"
    },
    {
      "id": "pt.ine.add.PTCONT.3309150",
      "street": "R PIONEIROS",
      "house": "12",
      "postcode": "2530-230",
      "city": "LOURINHÃ",
      "lon": "-9.331412467227524",
      "lat": "39.266342030115254"
    },
    {
      "id": "pt.ine.add.PTCONT.3317837",
      "street": "PCT CHARRUA",
      "house": "3",
      "postcode": "2530-218",
      "city": "LOURINHÃ",
      "lon": "-9.330978682223739",
      "lat": "39.26672478517414"
    },
    {
      "id": "pt.ine.add.PTCONT.3382458",
      "street": "PCT CHARRUA",
      "house": "5",
      "postcode": "2530-218",
      "city": "LOURINHÃ",
      "lon": "-9.331045891786474",
      "lat": "39.26658898957419"
    },
    {
      "id": "pt.ine.add.PTCONT.3457699",
      "street": "AV PAIMOGO",
      "house": "5B",
      "postcode": "2530-214",
      "city": "LOURINHÃ",
      "lon": "-9.330133536846155",
      "lat": "39.26608497666152"
    }
  ]
}