{
  "data": {
    "distrito": "Santarém",
    "concelho": "Ferreira do Zêzere",
    "freguesia": "Águas Belas",
    "OBJECTID": 64,
    "BGRI2021": "14110100235",
    "DT21": "14",
    "DTMN21": "1411",
    "DTMNFR21": "141101",
    "DTMNFRSEC21": "141101002",
    "SECNUM21": "002",
    "SSNUM21": "35",
    "SECSSNUM21": "00235",
    "OBJECTID_1": 151661,
    "DT": "14",
    "CC": "11",
    "fr": "01",
    "SEC": "002",
    "SS": "35"
  },
  "addresses": [
    {
      "id": "pt.ine.add.PTCONT.4427711",
      "street": "",
      "house": "",
      "postcode": "2240-553",
      "city": "ÁGUAS BELAS FZZ",
      "lon": "-8.324949649694357",
      "lat": "39.72332879150236"
    },
    {
      "id": "pt.ine.add.PTCONT.4446184",
      "street": "",
      "house": "",
      "postcode": "2240-553",
      "city": "ÁGUAS BELAS FZZ",
      "lon": "-8.324966679619052",
      "lat": "39.725265186457435"
    },
    {
      "id": "pt.ine.add.PTCONT.4470547",
      "street": "",
      "house": "",
      "postcode": "2240-568",
      "city": "ÁGUAS BELAS FZZ",
      "lon": "-8.322320850106587",
      "lat": "39.72594502496474"
    },
    {
      "id": "pt.ine.add.PTCONT.4529584",
      "street": "",
      "house": "",
      "postcode": "2240-568",
      "city": "ÁGUAS BELAS FZZ",
      "lon": "-8.321810585365972",
      "lat": "39.727026649369904"
    },
    {
      "id": "pt.ine.add.PTCONT.4494580",
      "street": "QTA PONTE TABUADO SN",
      "house": "SN",
      "postcode": "2240-568",
      "city": "ÁGUAS BELAS FZZ",
      "lon": "-8.322237603724668",
      "lat": "39.72962886568888"
    },
    {
      "id": "pt.ine.add.PTCONT.4519047",
      "street": "PTE TABUADO",
      "house": "",
      "postcode": "2240-568",
      "city": "ÁGUAS BELAS FZZ",
      "lon": "-8.320182021486588",
      "lat": "39.7286594821191"
    },
    {
      "id": "pt.ine.add.PTCONT.4633235",
      "street": "",
      "house": "",
      "postcode": "2240-568",
      "city": "ÁGUAS BELAS FZZ",
      "lon": "-8.321775175848897",
      "lat": "39.726873594459434"
    },
    {
      "id": "pt.ine.add.PTCONT.4635321",
      "street": "",
      "house": "",
      "postcode": "2240-568",
      "city": "ÁGUAS BELAS FZZ",
      "lon": "-8.32366249434621",
      "lat": "39.726050910045515"
    }
  ]
}