{
  "data": {
    "distrito": "Portalegre",
    "concelho": "Portalegre",
    "freguesia": "União das freguesias da Sé e São Lourenço",
    "OBJECTID": 36,
    "BGRI2021": "12141100402",
    "DT21": "12",
    "DTMN21": "1214",
    "DTMNFR21": "121411",
    "DTMNFRSEC21": "121411004",
    "SECNUM21": "004",
    "SSNUM21": "02",
    "SECSSNUM21": "00402",
    "OBJECTID_1": 124831,
    "DT": "12",
    "CC": "14",
    "fr": "11",
    "SEC": "004",
    "SS": "02"
  },
  "addresses": [
    {
      "id": "pt.ine.add.PTCONT.3535260",
      "street": "PAINEL DO JOINAL",
      "house": "",
      "postcode": "7300-526",
      "city": "PORTALEGRE",
      "lon": "-7.4330750184258685",
      "lat": "39.274105605582356"
    },
    {
      "id": "pt.ine.add.PTCONT.3537066",
      "street": "R ALMAGRES",
      "house": "",
      "postcode": "7300-526",
      "city": "PORTALEGRE",
      "lon": "-7.431804031363007",
      "lat": "39.271404806590546"
    },
    {
      "id": "pt.ine.add.PTCONT.3539284",
      "street": "R PENEDOS GORDOS",
      "house": "7",
      "postcode": "7300-526",
      "city": "PORTALEGRE",
      "lon": "-7.43284477701826",
      "lat": "39.27502305205104"
    },
    {
      "id": "pt.ine.add.PTCONT.3459920",
      "street": "R ENG OSCAR MA~LCATA",
      "house": "",
      "postcode": "7300-059",
      "city": "PORTALEGRE",
      "lon": "-7.431542189519372",
      "lat": "39.268610997794895"
    },
    {
      "id": "pt.ine.add.PTCONT.3464233",
      "street": "R PENEDOS GORDOS",
      "house": "",
      "postcode": "7300-526",
      "city": "PORTALEGRE",
      "lon": "-7.432310415957701",
      "lat": "39.275244919766536"
    },
    {
      "id": "pt.ine.add.PTCONT.3465131",
      "street": "R ALMAGRES",
      "house": "",
      "postcode": "7300-526",
      "city": "PORTALEGRE",
      "lon": "-7.429970823987901",
      "lat": "39.27047501742256"
    },
    {
      "id": "pt.ine.add.PTCONT.3480760",
      "street": "CASA DOS CANTONEIROS",
      "house": "",
      "postcode": "7300-526",
      "city": "PORTALEGRE",
      "lon": "-7.437556629653851",
      "lat": "39.27207882122529"
    },
    {
      "id": "pt.ine.add.PTCONT.3482219",
      "street": "R ALMAGRES",
      "house": "",
      "postcode": "7300-526",
      "city": "PORTALEGRE",
      "lon": "-7.433331801390405",
      "lat": "39.27275606993863"
    },
    {
      "id": "pt.ine.add.PTCONT.3483149",
      "street": "AV FRANCISCO FINO INSTALACÕES YOPLAIT",
      "house": "",
      "postcode": "7300-053",
      "city": "PORTALEGRE",
      "lon": "-7.4380492260315965",
      "lat": "39.26913640815475"
    },
    {
      "id": "pt.ine.add.PTCONT.3483150",
      "street": "",
      "house": "",
      "postcode": "7300-526",
      "city": "PORTALEGRE",
      "lon": "-7.436713593803873",
      "lat": "39.27295648779371"
    },
    {
      "id": "pt.ine.add.PTCONT.3491296",
      "street": "R ALMAGRES",
      "house": "",
      "postcode": "7300-526",
      "city": "PORTALEGRE",
      "lon": "-7.431210375980282",
      "lat": "39.27283337374601"
    },
    {
      "id": "pt.ine.add.PTCONT.3493911",
      "street": "LOTEAM DOS PENEDOS GORDOS",
      "house": "",
      "postcode": "7300-999",
      "city": "PORTALEGRE",
      "lon": "-7.432815424350689",
      "lat": "39.27457241866521"
    },
    {
      "id": "pt.ine.add.PTCONT.3495636",
      "street": "R PENEDOS GORDOS",
      "house": "2",
      "postcode": "7300-526",
      "city": "PORTALEGRE",
      "lon": "-7.433441829019879",
      "lat": "39.27594718229591"
    },
    {
      "id": "pt.ine.add.PTCONT.3496236",
      "street": "R PENEDOS GORDOS",
      "house": "6",
      "postcode": "7300-526",
      "city": "PORTALEGRE",
      "lon": "-7.433331144782117",
      "lat": "39.27542410012216"
    },
    {
      "id": "pt.ine.add.PTCONT.3498474",
      "street": "R ALMAGRES",
      "house": "",
      "postcode": "7300-526",
      "city": "PORTALEGRE",
      "lon": "-7.433307371909157",
      "lat": "39.272882023854066"
    },
    {
      "id": "pt.ine.add.PTCONT.3500411",
      "street": "R PENEDOS GORDOS",
      "house": "40",
      "postcode": "7300-526",
      "city": "PORTALEGRE",
      "lon": "-7.433499678250091",
      "lat": "39.27632933385213"
    },
    {
      "id": "pt.ine.add.PTCONT.3506430",
      "street": "R PENEDOS GORDOS",
      "house": "9",
      "postcode": "7300-526",
      "city": "PORTALEGRE",
      "lon": "-7.431971893412746",
      "lat": "39.275088047392074"
    },
    {
      "id": "pt.ine.add.PTCONT.3516332",
      "street": "LG MESTRE ARTUR AZEDO",
      "house": "6A",
      "postcode": "7300-055",
      "city": "PORTALEGRE",
      "lon": "-7.435138612592132",
      "lat": "39.26992886580106"
    },
    {
      "id": "pt.ine.add.PTCONT.3519505",
      "street": "R PENEDOS GORDOS",
      "house": "16",
      "postcode": "7300-526",
      "city": "PORTALEGRE",
      "lon": "-7.432612829529367",
      "lat": "39.27471240671851"
    },
    {
      "id": "pt.ine.add.PTCONT.3519506",
      "street": "R PENEDOS GORDOS",
      "house": "N 26",
      "postcode": "7300-526",
      "city": "PORTALEGRE",
      "lon": "-7.432457478607797",
      "lat": "39.27576894778361"
    },
    {
      "id": "pt.ine.add.PTCONT.3525028",
      "street": "R PENEDOS GORDOS",
      "house": "CX 5243",
      "postcode": "7300-526",
      "city": "PORTALEGRE",
      "lon": "-7.432889400807581",
      "lat": "39.27519692680688"
    },
    {
      "id": "pt.ine.add.PTCONT.3525680",
      "street": "PAINEL DO JOINAL",
      "house": "",
      "postcode": "7300-526",
      "city": "PORTALEGRE",
      "lon": "-7.431810653221557",
      "lat": "39.271545771263774"
    },
    {
      "id": "pt.ine.add.PTCONT.3530059",
      "street": "R PENEDOS GORDOS",
      "house": "4",
      "postcode": "7300-526",
      "city": "PORTALEGRE",
      "lon": "-7.4333980747667345",
      "lat": "39.27568571086061"
    },
    {
      "id": "pt.ine.add.PTCONT.3532024",
      "street": "PENEDOS GORDOS",
      "house": "",
      "postcode": "7300-055",
      "city": "PORTALEGRE",
      "lon": "-7.435613284148695",
      "lat": "39.27406679432344"
    }
  ]
}