{
  "data": {
    "distrito": "Beja",
    "concelho": "Serpa",
    "freguesia": "Pias",
    "OBJECTID": 307,
    "BGRI2021": "02130300206",
    "DT21": "02",
    "DTMN21": "0213",
    "DTMNFR21": "021303",
    "DTMNFRSEC21": "021303002",
    "SECNUM21": "002",
    "SSNUM21": "06",
    "SECSSNUM21": "00206",
    "OBJECTID_1": 18651,
    "DT": "02",
    "CC": "13",
    "fr": "03",
    "SEC": "002",
    "SS": "06"
  },
  "addresses": [
    {
      "id": "pt.ine.add.PTCONT.357171",
      "street": "R 5 DE OUTUBRO",
      "house": "16",
      "postcode": "7830-213",
      "city": "PIAS SRP",
      "lon": "-7.479619616193617",
      "lat": "38.0214797304313"
    },
    {
      "id": "pt.ine.add.PTCONT.363365",
      "street": "R DR MÁRIO BEIRAO",
      "house": "10",
      "postcode": "7830-249",
      "city": "PIAS SRP",
      "lon": "-7.479741529153829",
      "lat": "38.02114631284799"
    },
    {
      "id": "pt.ine.add.PTCONT.377949",
      "street": "R DR MÁRIO BEIRAO",
      "house": "10 A",
      "postcode": "7830-249",
      "city": "PIAS SRP",
      "lon": "-7.479862372297609",
      "lat": "38.02107438518855"
    },
    {
      "id": "pt.ine.add.PTCONT.381149",
      "street": "R STO ANTONIO",
      "house": "1",
      "postcode": "7830-232",
      "city": "PIAS SRP",
      "lon": "-7.4800244725213405",
      "lat": "38.02181370371404"
    },
    {
      "id": "pt.ine.add.PTCONT.381150",
      "street": "R DR MARIO BEIRAO",
      "house": "14",
      "postcode": "7830-249",
      "city": "PIAS SRP",
      "lon": "-7.480178437592912",
      "lat": "38.02076753331619"
    },
    {
      "id": "pt.ine.add.PTCONT.398032",
      "street": "R SANTO ANTÓNIO",
      "house": "13",
      "postcode": "7830-232",
      "city": "PIAS SRP",
      "lon": "-7.48038257262471",
      "lat": "38.021435244287765"
    },
    {
      "id": "pt.ine.add.PTCONT.430315",
      "street": "R SANTO ANTÓNIO",
      "house": "5",
      "postcode": "7830-232",
      "city": "PIAS SRP",
      "lon": "-7.480137732890632",
      "lat": "38.02170661341623"
    },
    {
      "id": "pt.ine.add.PTCONT.434822",
      "street": "R SANTO ANTÓNIO",
      "house": "15",
      "postcode": "7830-232",
      "city": "PIAS SRP",
      "lon": "-7.480526539052066",
      "lat": "38.02130176877749"
    },
    {
      "id": "pt.ine.add.PTCONT.435966",
      "street": "R 5 DE OUTUBRO",
      "house": "2",
      "postcode": "7830-213",
      "city": "PIAS SRP",
      "lon": "-7.479597543683688",
      "lat": "38.021316044491726"
    },
    {
      "id": "pt.ine.add.PTCONT.437026",
      "street": "R 5 DE OUTUBRO",
      "house": "10",
      "postcode": "7830-213",
      "city": "PIAS SRP",
      "lon": "-7.479718849461837",
      "lat": "38.02157566595598"
    },
    {
      "id": "pt.ine.add.PTCONT.438789",
      "street": "R DR ANTÓNIO PEDRO ALHO ROGADO",
      "house": "5",
      "postcode": "7830-247",
      "city": "PIAS SRP",
      "lon": "-7.480547299649424",
      "lat": "38.020994013536665"
    },
    {
      "id": "pt.ine.add.PTCONT.442695",
      "street": "R SANTO ANTÓNIO",
      "house": "17",
      "postcode": "7830-232",
      "city": "PIAS SRP",
      "lon": "-7.4805793061216725",
      "lat": "38.02123743740774"
    },
    {
      "id": "pt.ine.add.PTCONT.449210",
      "street": "R SANTO ANTÓNIO",
      "house": "3",
      "postcode": "7830-232",
      "city": "PIAS SRP",
      "lon": "-7.4800855191513955",
      "lat": "38.02174483021741"
    },
    {
      "id": "pt.ine.add.PTCONT.453189",
      "street": "R DR ANTÓNIO PEDRO ALHO ROGADO",
      "house": "7",
      "postcode": "7830-247",
      "city": "PIAS SRP",
      "lon": "-7.480581925039399",
      "lat": "38.02090897941954"
    }
  ]
}