{
  "data": {
    "distrito": "Beja",
    "concelho": "Serpa",
    "freguesia": "Pias",
    "OBJECTID": 611,
    "BGRI2021": "02130300257",
    "DT21": "02",
    "DTMN21": "0213",
    "DTMNFR21": "021303",
    "DTMNFRSEC21": "021303002",
    "SECNUM21": "002",
    "SSNUM21": "57",
    "SECSSNUM21": "00257",
    "OBJECTID_1": 18930,
    "DT": "02",
    "CC": "13",
    "fr": "03",
    "SEC": "002",
    "SS": "57"
  },
  "addresses": [
    {
      "id": "pt.ine.add.PTCONT.457753",
      "street": "MTE ALVARRAO",
      "house": "",
      "postcode": "7830-470",
      "city": "PIAS SRP",
      "lon": "-7.541293880809844",
      "lat": "38.10152333291105"
    },
    {
      "id": "pt.ine.add.PTCONT.361407",
      "street": "ALFORADA",
      "house": "",
      "postcode": "7830-470",
      "city": "PIAS SRP",
      "lon": "-7.527344562894899",
      "lat": "38.12019998320811"
    },
    {
      "id": "pt.ine.add.PTCONT.364927",
      "street": "MTE FARIAS",
      "house": "",
      "postcode": "7830-470",
      "city": "PIAS SRP",
      "lon": "-7.550355152247112",
      "lat": "38.08891092610927"
    },
    {
      "id": "pt.ine.add.PTCONT.375534",
      "street": "MTE VALE DE LAGAREIROS",
      "house": "",
      "postcode": "7830-470",
      "city": "PIAS SRP",
      "lon": "-7.53145846038356",
      "lat": "38.11777067721147"
    },
    {
      "id": "pt.ine.add.PTCONT.382835",
      "street": "ALFORADA",
      "house": "",
      "postcode": "7830-470",
      "city": "PIAS SRP",
      "lon": "-7.522048791487127",
      "lat": "38.11799238253619"
    },
    {
      "id": "pt.ine.add.PTCONT.394449",
      "street": "EN 258",
      "house": "",
      "postcode": "7830-470",
      "city": "PIAS SRP",
      "lon": "-7.577216072120723",
      "lat": "38.11232942286043"
    },
    {
      "id": "pt.ine.add.PTCONT.394450",
      "street": "EN 258",
      "house": "",
      "postcode": "7830-470",
      "city": "PIAS SRP",
      "lon": "-7.577216072120723",
      "lat": "38.11232942286043"
    },
    {
      "id": "pt.ine.add.PTCONT.410242",
      "street": "AV ANTÓNIO DA SILVA SENIOR",
      "house": "",
      "postcode": "7830-470",
      "city": "PIAS SRP",
      "lon": "-7.558538833386135",
      "lat": "38.112302632810206"
    },
    {
      "id": "pt.ine.add.PTCONT.410243",
      "street": "AV ANTÓNIO DA SILVA SENIOR",
      "house": "",
      "postcode": "7830-470",
      "city": "PIAS SRP",
      "lon": "-7.558538833386135",
      "lat": "38.112302632810206"
    },
    {
      "id": "pt.ine.add.PTCONT.410244",
      "street": "AV ANTÓNIO DA SILVA SENIOR",
      "house": "",
      "postcode": "7830-470",
      "city": "PIAS SRP",
      "lon": "-7.558538833386135",
      "lat": "38.112302632810206"
    },
    {
      "id": "pt.ine.add.PTCONT.410364",
      "street": "AV ANTÓNIO DA SILVA SENIOR",
      "house": "",
      "postcode": "7830-470",
      "city": "PIAS SRP",
      "lon": "-7.558538833386135",
      "lat": "38.112302632810206"
    },
    {
      "id": "pt.ine.add.PTCONT.412464",
      "street": "MTE ALVARRAO",
      "house": "",
      "postcode": "7830-470",
      "city": "PIAS SRP",
      "lon": "-7.540723931684189",
      "lat": "38.101511451868916"
    },
    {
      "id": "pt.ine.add.PTCONT.414256",
      "street": "AV ANTÓNIO DA SILVA SENIOR",
      "house": "",
      "postcode": "7830-470",
      "city": "PIAS SRP",
      "lon": "-7.558082323691123",
      "lat": "38.11235445352102"
    },
    {
      "id": "pt.ine.add.PTCONT.425421",
      "street": "MTE ALVARRAO",
      "house": "",
      "postcode": "7830-470",
      "city": "PIAS SRP",
      "lon": "-7.5410079974674",
      "lat": "38.10163000094304"
    },
    {
      "id": "pt.ine.add.PTCONT.425422",
      "street": "MTE ALVARRAO",
      "house": "",
      "postcode": "7830-470",
      "city": "PIAS SRP",
      "lon": "-7.5410079974674",
      "lat": "38.10163000094304"
    },
    {
      "id": "pt.ine.add.PTCONT.445107",
      "street": "MTE MANANTIZ",
      "house": "",
      "postcode": "7830-470",
      "city": "PIAS SRP",
      "lon": "-7.557355327456314",
      "lat": "38.110549090348655"
    }
  ]
}