{
  "data": {
    "distrito": "Guarda",
    "concelho": "Guarda",
    "freguesia": "Panoias de Cima",
    "OBJECTID": 1328,
    "BGRI2021": "09072800123",
    "DT21": "09",
    "DTMN21": "0907",
    "DTMNFR21": "090728",
    "DTMNFRSEC21": "090728001",
    "SECNUM21": "001",
    "SSNUM21": "23",
    "SECSSNUM21": "00123",
    "OBJECTID_1": 78093,
    "DT": "09",
    "CC": "07",
    "fr": "28",
    "SEC": "001",
    "SS": "23"
  },
  "addresses": [
    {
      "id": "pt.ine.add.PTCONT.1905453",
      "street": "",
      "house": "13",
      "postcode": "6300-151",
      "city": "PANOIAS DE CIMA",
      "lon": "-7.2453853303916675",
      "lat": "40.508743277206264"
    },
    {
      "id": "pt.ine.add.PTCONT.1918252",
      "street": "R DO DEPÓSITO",
      "house": "6",
      "postcode": "6300-151",
      "city": "PANOIAS DE CIMA",
      "lon": "-7.245094641622907",
      "lat": "40.50752533703082"
    },
    {
      "id": "pt.ine.add.PTCONT.1921910",
      "street": "EN 233",
      "house": "8",
      "postcode": "6300-151",
      "city": "PANOIAS DE CIMA",
      "lon": "-7.242483499549182",
      "lat": "40.509594455625965"
    },
    {
      "id": "pt.ine.add.PTCONT.1935177",
      "street": "LG DA IGREJA",
      "house": "11",
      "postcode": "6300-151",
      "city": "PANOIAS DE CIMA",
      "lon": "-7.244710726496235",
      "lat": "40.5080086687946"
    },
    {
      "id": "pt.ine.add.PTCONT.1946338",
      "street": "EN 233",
      "house": "6",
      "postcode": "6300-151",
      "city": "PANOIAS DE CIMA",
      "lon": "-7.243995704387827",
      "lat": "40.5103355246611"
    },
    {
      "id": "pt.ine.add.PTCONT.1951185",
      "street": "R DO DEPÓSITO",
      "house": "18",
      "postcode": "6300-151",
      "city": "PANOIAS DE CIMA",
      "lon": "-7.246330581733668",
      "lat": "40.507741948712074"
    },
    {
      "id": "pt.ine.add.PTCONT.1956167",
      "street": "R DO DEPÓSITO",
      "house": "16",
      "postcode": "6300-151",
      "city": "PANOIAS DE CIMA",
      "lon": "-7.245919470966701",
      "lat": "40.507603714565235"
    },
    {
      "id": "pt.ine.add.PTCONT.1853328",
      "street": "R DO DEPÓSITO",
      "house": "",
      "postcode": "6300-151",
      "city": "PANOIAS DE CIMA",
      "lon": "-7.244517547521568",
      "lat": "40.50744885889343"
    },
    {
      "id": "pt.ine.add.PTCONT.1857726",
      "street": "R DO DEPÓSITO",
      "house": "",
      "postcode": "6300-151",
      "city": "PANOIAS DE CIMA",
      "lon": "-7.245189610098782",
      "lat": "40.50748104062152"
    },
    {
      "id": "pt.ine.add.PTCONT.1860773",
      "street": "TAPADA DA SEQUEIRA",
      "house": "",
      "postcode": "6300-151",
      "city": "PANOIAS DE CIMA",
      "lon": "-7.243266399037194",
      "lat": "40.5092762987619"
    },
    {
      "id": "pt.ine.add.PTCONT.1881539",
      "street": "R DEPOSITO",
      "house": "14",
      "postcode": "6300-151",
      "city": "PANOIAS DE CIMA",
      "lon": "-7.245566277676653",
      "lat": "40.50754697093639"
    },
    {
      "id": "pt.ine.add.PTCONT.1881540",
      "street": "R DEPOSITO AGUA",
      "house": "14",
      "postcode": "6300-151",
      "city": "PANOIAS DE CIMA",
      "lon": "-7.245566277676653",
      "lat": "40.50754697093639"
    },
    {
      "id": "pt.ine.add.PTCONT.1890722",
      "street": "R DO DEPÓSITO",
      "house": "12",
      "postcode": "6300-151",
      "city": "PANOIAS DE CIMA",
      "lon": "-7.245314863041547",
      "lat": "40.50782420192884"
    }
  ]
}