{
  "data": {
    "distrito": "Vila Real",
    "concelho": "Chaves",
    "freguesia": "União das freguesias da Madalena e Samaiões",
    "OBJECTID": 1022,
    "BGRI2021": "17035400313",
    "DT21": "17",
    "DTMN21": "1703",
    "DTMNFR21": "170354",
    "DTMNFRSEC21": "170354003",
    "SECNUM21": "003",
    "SSNUM21": "13",
    "SECSSNUM21": "00313",
    "OBJECTID_1": 181320,
    "DT": "17",
    "CC": "03",
    "fr": "54",
    "SEC": "003",
    "SS": "13"
  },
  "addresses": [
    {
      "id": "pt.ine.add.PTCONT.5291306",
      "street": "LG DA AULA DE ANATOMIA",
      "house": "",
      "postcode": "5400-101",
      "city": "CHAVES",
      "lon": "-7.465665683573213",
      "lat": "41.737456446935944"
    },
    {
      "id": "pt.ine.add.PTCONT.5292704",
      "street": "LG DA AULA DE ANATOMIA",
      "house": "25",
      "postcode": "5400-101",
      "city": "CHAVES",
      "lon": "-7.465713389901777",
      "lat": "41.73749273767153"
    },
    {
      "id": "pt.ine.add.PTCONT.5295419",
      "street": "R DE S JOSÉ",
      "house": "",
      "postcode": "5400-334",
      "city": "CHAVES",
      "lon": "-7.4655927257628765",
      "lat": "41.73753705378258"
    },
    {
      "id": "pt.ine.add.PTCONT.5298105",
      "street": "LG DA MADALENA",
      "house": "7",
      "postcode": "5400-365",
      "city": "CHAVES",
      "lon": "-7.4659754961431455",
      "lat": "41.73771934496448"
    },
    {
      "id": "pt.ine.add.PTCONT.5298106",
      "street": "LG DA MADALENA",
      "house": "7",
      "postcode": "5400-365",
      "city": "CHAVES",
      "lon": "-7.4659754961431455",
      "lat": "41.73771934496448"
    },
    {
      "id": "pt.ine.add.PTCONT.5298107",
      "street": "LG DA MADALENA",
      "house": "7",
      "postcode": "5400-365",
      "city": "CHAVES",
      "lon": "-7.4659754961431455",
      "lat": "41.73771934496448"
    },
    {
      "id": "pt.ine.add.PTCONT.5303493",
      "street": "R DE S JOÃO DE DEUS",
      "house": "12",
      "postcode": "5400-320",
      "city": "CHAVES",
      "lon": "-7.465913533245857",
      "lat": "41.7378990533239"
    },
    {
      "id": "pt.ine.add.PTCONT.5303494",
      "street": "R DE S JOÃO DE DEUS",
      "house": "12",
      "postcode": "5400-320",
      "city": "CHAVES",
      "lon": "-7.465913533245857",
      "lat": "41.7378990533239"
    },
    {
      "id": "pt.ine.add.PTCONT.5317232",
      "street": "R DE S JOÃO DE DEUS",
      "house": "14",
      "postcode": "5400-320",
      "city": "CHAVES",
      "lon": "-7.465864894592448",
      "lat": "41.73795279132694"
    },
    {
      "id": "pt.ine.add.PTCONT.5318869",
      "street": "LG S ROQUE",
      "house": "1",
      "postcode": "5400-504",
      "city": "CHAVES",
      "lon": "-7.465731743744495",
      "lat": "41.73804205210036"
    },
    {
      "id": "pt.ine.add.PTCONT.5318870",
      "street": "LG S ROQUE",
      "house": "1",
      "postcode": "5400-504",
      "city": "CHAVES",
      "lon": "-7.465731743744495",
      "lat": "41.73804205210036"
    },
    {
      "id": "pt.ine.add.PTCONT.5318871",
      "street": "LG MADALENA",
      "house": "",
      "postcode": "5400-365",
      "city": "CHAVES",
      "lon": "-7.465731743744495",
      "lat": "41.73804205210036"
    },
    {
      "id": "pt.ine.add.PTCONT.5318872",
      "street": "LG S ROQUE",
      "house": "1",
      "postcode": "5400-504",
      "city": "CHAVES",
      "lon": "-7.465731743744495",
      "lat": "41.73804205210036"
    },
    {
      "id": "pt.ine.add.PTCONT.5318873",
      "street": "LG S ROQUE",
      "house": "1",
      "postcode": "5400-504",
      "city": "CHAVES",
      "lon": "-7.465731743744495",
      "lat": "41.73804205210036"
    },
    {
      "id": "pt.ine.add.PTCONT.5319421",
      "street": "R S JOAO DEUS",
      "house": "",
      "postcode": "5400-320",
      "city": "CHAVES",
      "lon": "-7.465731743744495",
      "lat": "41.73804205210036"
    },
    {
      "id": "pt.ine.add.PTCONT.5325957",
      "street": "TV DE S JOSÉ",
      "house": "",
      "postcode": "5400-335",
      "city": "CHAVES",
      "lon": "-7.465784763092482",
      "lat": "41.73756517947007"
    },
    {
      "id": "pt.ine.add.PTCONT.5327933",
      "street": "LG DA AULA DE ANATOMIA",
      "house": "",
      "postcode": "5400-101",
      "city": "CHAVES",
      "lon": "-7.465761282693285",
      "lat": "41.73751102265543"
    },
    {
      "id": "pt.ine.add.PTCONT.5328792",
      "street": "R DE S JOSÉ",
      "house": "19",
      "postcode": "5400-334",
      "city": "CHAVES",
      "lon": "-7.465531974066119",
      "lat": "41.7375997246848"
    },
    {
      "id": "pt.ine.add.PTCONT.5330722",
      "street": "TERR MADALENA",
      "house": "26",
      "postcode": "5400-364",
      "city": "CHAVES",
      "lon": "-7.465696522974608",
      "lat": "41.737960816865574"
    },
    {
      "id": "pt.ine.add.PTCONT.5330723",
      "street": "TERR MADALENA",
      "house": "26",
      "postcode": "5400-364",
      "city": "CHAVES",
      "lon": "-7.465696522974608",
      "lat": "41.737960816865574"
    },
    {
      "id": "pt.ine.add.PTCONT.5330724",
      "street": "TERR MADALENA",
      "house": "26",
      "postcode": "5400-364",
      "city": "CHAVES",
      "lon": "-7.465696522974608",
      "lat": "41.737960816865574"
    },
    {
      "id": "pt.ine.add.PTCONT.5334924",
      "street": "R CÂNDIDO SOTTO MAYOR",
      "house": "",
      "postcode": "5400-165",
      "city": "CHAVES",
      "lon": "-7.466000933404053",
      "lat": "41.73758444154493"
    },
    {
      "id": "pt.ine.add.PTCONT.5334925",
      "street": "R CÂNDIDO SOTTO MAYOR",
      "house": "",
      "postcode": "5400-165",
      "city": "CHAVES",
      "lon": "-7.466000933404053",
      "lat": "41.73758444154493"
    },
    {
      "id": "pt.ine.add.PTCONT.5342554",
      "street": "R DE S JOÃO DE DEUS",
      "house": "10",
      "postcode": "5400-320",
      "city": "CHAVES",
      "lon": "-7.465998138244664",
      "lat": "41.73785452752917"
    },
    {
      "id": "pt.ine.add.PTCONT.5346687",
      "street": "TV DE S JOSÉ",
      "house": "17",
      "postcode": "5400-335",
      "city": "CHAVES",
      "lon": "-7.465808243530601",
      "lat": "41.737619336279714"
    },
    {
      "id": "pt.ine.add.PTCONT.5351971",
      "street": "TERR MADALENA",
      "house": "28",
      "postcode": "5400-364",
      "city": "CHAVES",
      "lon": "-7.4657568088249135",
      "lat": "41.73794316020851"
    },
    {
      "id": "pt.ine.add.PTCONT.5351972",
      "street": "TERR MADALENA",
      "house": "28",
      "postcode": "5400-364",
      "city": "CHAVES",
      "lon": "-7.4657568088249135",
      "lat": "41.73794316020851"
    },
    {
      "id": "pt.ine.add.PTCONT.5352470",
      "street": "TERR MADALENA",
      "house": "28",
      "postcode": "5400-364",
      "city": "CHAVES",
      "lon": "-7.4657568088249135",
      "lat": "41.73794316020851"
    },
    {
      "id": "pt.ine.add.PTCONT.5381152",
      "street": "TV DE S JOSÉ",
      "house": "9",
      "postcode": "5400-335",
      "city": "CHAVES",
      "lon": "-7.465927882681399",
      "lat": "41.73767405147078"
    },
    {
      "id": "pt.ine.add.PTCONT.5415776",
      "street": "R S JOSE",
      "house": "",
      "postcode": "5400-334",
      "city": "CHAVES",
      "lon": "-7.465446809592665",
      "lat": "41.73769826732952"
    },
    {
      "id": "pt.ine.add.PTCONT.5415777",
      "street": "R S JOSE",
      "house": "19",
      "postcode": "5400-334",
      "city": "CHAVES",
      "lon": "-7.465446809592665",
      "lat": "41.73769826732952"
    },
    {
      "id": "pt.ine.add.PTCONT.5423740",
      "street": "TV DE S JOSÉ",
      "house": "15",
      "postcode": "5400-335",
      "city": "CHAVES",
      "lon": "-7.465856043251361",
      "lat": "41.737646624090566"
    }
  ]
}