{
  "data": {
    "distrito": "Évora",
    "concelho": "Reguengos de Monsaraz",
    "freguesia": "União das freguesias de Campo e Campinho",
    "OBJECTID": 453,
    "BGRI2021": "07110600241",
    "DT21": "07",
    "DTMN21": "0711",
    "DTMNFR21": "071106",
    "DTMNFRSEC21": "071106002",
    "SECNUM21": "002",
    "SSNUM21": "41",
    "SECSSNUM21": "00241",
    "OBJECTID_1": 63130,
    "DT": "07",
    "CC": "11",
    "fr": "06",
    "SEC": "002",
    "SS": "41"
  },
  "addresses": [
    {
      "id": "pt.ine.add.PTCONT.1368854",
      "street": "R NOVA",
      "house": "62",
      "postcode": "7200-072",
      "city": "CAMPO RMZ",
      "lon": "-7.5111650401752605",
      "lat": "38.34252503759596"
    },
    {
      "id": "pt.ine.add.PTCONT.1368855",
      "street": "R NOVA",
      "house": "28",
      "postcode": "7200-072",
      "city": "CAMPO RMZ",
      "lon": "-7.510878824872135",
      "lat": "38.34121726566233"
    },
    {
      "id": "pt.ine.add.PTCONT.1378718",
      "street": "R NSA SRA DO ROSÁRIO",
      "house": "5",
      "postcode": "7200-072",
      "city": "CAMPO RMZ",
      "lon": "-7.510801534444962",
      "lat": "38.340892544249094"
    },
    {
      "id": "pt.ine.add.PTCONT.1381265",
      "street": "R NSA SRA ROSARIO",
      "house": "17",
      "postcode": "7200-072",
      "city": "CAMPO RMZ",
      "lon": "-7.510529340569712",
      "lat": "38.340620840067416"
    },
    {
      "id": "pt.ine.add.PTCONT.1383924",
      "street": "R NSA SRA DO ROSÁRIO",
      "house": "15",
      "postcode": "7200-072",
      "city": "CAMPO RMZ",
      "lon": "-7.510619994546799",
      "lat": "38.340720416435545"
    },
    {
      "id": "pt.ine.add.PTCONT.1386255",
      "street": "R LAGOA",
      "house": "2",
      "postcode": "7200-072",
      "city": "CAMPO RMZ",
      "lon": "-7.5111782880010765",
      "lat": "38.343651188319626"
    },
    {
      "id": "pt.ine.add.PTCONT.1387025",
      "street": "R NOVA",
      "house": "48",
      "postcode": "7200-072",
      "city": "CAMPO RMZ",
      "lon": "-7.5110369213444",
      "lat": "38.34184092888051"
    },
    {
      "id": "pt.ine.add.PTCONT.1389843",
      "street": "R NSA SRA DO ROSÁRIO",
      "house": "23",
      "postcode": "7200-072",
      "city": "CAMPO RMZ",
      "lon": "-7.510415657154411",
      "lat": "38.34053915863905"
    },
    {
      "id": "pt.ine.add.PTCONT.1390647",
      "street": "R NOVA",
      "house": "54",
      "postcode": "7200-072",
      "city": "CAMPO RMZ",
      "lon": "-7.511132882895333",
      "lat": "38.34227262498699"
    },
    {
      "id": "pt.ine.add.PTCONT.1398195",
      "street": "R NOVA",
      "house": "42",
      "postcode": "7200-072",
      "city": "CAMPO RMZ",
      "lon": "-7.510966706324437",
      "lat": "38.34164113830325"
    },
    {
      "id": "pt.ine.add.PTCONT.1402853",
      "street": "R JUNTA",
      "house": "9",
      "postcode": "7200-072",
      "city": "CAMPO RMZ",
      "lon": "-7.510199960216911",
      "lat": "38.34034883149734"
    },
    {
      "id": "pt.ine.add.PTCONT.1408002",
      "street": "TV OLIVAL",
      "house": "1",
      "postcode": "7200-072",
      "city": "CAMPO RMZ",
      "lon": "-7.509588048076942",
      "lat": "38.341012219388865"
    },
    {
      "id": "pt.ine.add.PTCONT.1412465",
      "street": "R NOVA",
      "house": "72",
      "postcode": "7200-072",
      "city": "CAMPO RMZ",
      "lon": "-7.511286854046148",
      "lat": "38.34299413309596"
    },
    {
      "id": "pt.ine.add.PTCONT.1412466",
      "street": "R NSA SRA DO ROSÁRIO",
      "house": "13",
      "postcode": "7200-072",
      "city": "CAMPO RMZ",
      "lon": "-7.510710880006136",
      "lat": "38.34079296802032"
    },
    {
      "id": "pt.ine.add.PTCONT.1419970",
      "street": "TV BAILADOR",
      "house": "2",
      "postcode": "7200-072",
      "city": "CAMPO RMZ",
      "lon": "-7.510844896669022",
      "lat": "38.34117204239968"
    },
    {
      "id": "pt.ine.add.PTCONT.1419971",
      "street": "R NSA SRA DO ROSÁRIO",
      "house": "29",
      "postcode": "7200-072",
      "city": "CAMPO RMZ",
      "lon": "-7.510336981262117",
      "lat": "38.34037658519159"
    },
    {
      "id": "pt.ine.add.PTCONT.1426727",
      "street": "R NOVA",
      "house": "70",
      "postcode": "7200-072",
      "city": "CAMPO RMZ",
      "lon": "-7.511276263083402",
      "lat": "38.3428949818516"
    },
    {
      "id": "pt.ine.add.PTCONT.1428163",
      "street": "R NSA SRA DO ROSÁRIO",
      "house": "17",
      "postcode": "7200-072",
      "city": "CAMPO RMZ",
      "lon": "-7.510586143826529",
      "lat": "38.340666184859636"
    },
    {
      "id": "pt.ine.add.PTCONT.1429650",
      "street": "R NOVA",
      "house": "58",
      "postcode": "7200-072",
      "city": "CAMPO RMZ",
      "lon": "-7.511142934379261",
      "lat": "38.34243483390555"
    },
    {
      "id": "pt.ine.add.PTCONT.1437361",
      "street": "R NOVA",
      "house": "18",
      "postcode": "7200-072",
      "city": "CAMPO RMZ",
      "lon": "-7.511091072064266",
      "lat": "38.34097711128323"
    },
    {
      "id": "pt.ine.add.PTCONT.1441886",
      "street": "R NOVA",
      "house": "34",
      "postcode": "7200-072",
      "city": "CAMPO RMZ",
      "lon": "-7.5109185809607135",
      "lat": "38.34140851575937"
    },
    {
      "id": "pt.ine.add.PTCONT.1444970",
      "street": "R NOVA",
      "house": "32",
      "postcode": "7200-072",
      "city": "CAMPO RMZ",
      "lon": "-7.510934704186567",
      "lat": "38.341370709136335"
    },
    {
      "id": "pt.ine.add.PTCONT.1448855",
      "street": "R NOVA",
      "house": "24",
      "postcode": "7200-072",
      "city": "CAMPO RMZ",
      "lon": "-7.51102085079369",
      "lat": "38.34114740309862"
    },
    {
      "id": "pt.ine.add.PTCONT.1449609",
      "street": "R NOVA",
      "house": "76",
      "postcode": "7200-072",
      "city": "CAMPO RMZ",
      "lon": "-7.511342196491299",
      "lat": "38.34321063399536"
    },
    {
      "id": "pt.ine.add.PTCONT.1451121",
      "street": "R NSA SRA DO ROSÁRIO",
      "house": "27",
      "postcode": "7200-072",
      "city": "CAMPO RMZ",
      "lon": "-7.510416351180137",
      "lat": "38.340458084498295"
    },
    {
      "id": "pt.ine.add.PTCONT.1452617",
      "street": "R DALHEIROS",
      "house": "1",
      "postcode": "7200-072",
      "city": "CAMPO RMZ",
      "lon": "-7.511235787198344",
      "lat": "38.343615458688106"
    },
    {
      "id": "pt.ine.add.PTCONT.1454909",
      "street": "R DALHEIROS",
      "house": "3",
      "postcode": "7200-072",
      "city": "CAMPO RMZ",
      "lon": "-7.5112133729071315",
      "lat": "38.34356128796232"
    },
    {
      "id": "pt.ine.add.PTCONT.1454910",
      "street": "R NOVA",
      "house": "30",
      "postcode": "7200-072",
      "city": "CAMPO RMZ",
      "lon": "-7.510901161158897",
      "lat": "38.34128044470288"
    },
    {
      "id": "pt.ine.add.PTCONT.1458550",
      "street": "R DALHEIROS",
      "house": "5",
      "postcode": "7200-072",
      "city": "CAMPO RMZ",
      "lon": "-7.5111914208060035",
      "lat": "38.34345306782445"
    },
    {
      "id": "pt.ine.add.PTCONT.1461022",
      "street": "R NOVA",
      "house": "56",
      "postcode": "7200-072",
      "city": "CAMPO RMZ",
      "lon": "-7.511154911604684",
      "lat": "38.3423718369175"
    },
    {
      "id": "pt.ine.add.PTCONT.1463258",
      "street": "R NOVA",
      "house": "82",
      "postcode": "7200-072",
      "city": "CAMPO RMZ",
      "lon": "-7.511396692249895",
      "lat": "38.34352622544798"
    }
  ]
}