{
  "data": {
    "distrito": "Braga",
    "concelho": "Póvoa de Lanhoso",
    "freguesia": "União das freguesias de Verim, Friande e Ajude",
    "OBJECTID": 177,
    "BGRI2021": "03093500101",
    "DT21": "03",
    "DTMN21": "0309",
    "DTMNFR21": "030935",
    "DTMNFRSEC21": "030935001",
    "SECNUM21": "001",
    "SSNUM21": "01",
    "SECSSNUM21": "00101",
    "OBJECTID_1": 28694,
    "DT": "03",
    "CC": "09",
    "fr": "35",
    "SEC": "001",
    "SS": "01"
  },
  "addresses": [
    {
      "id": "pt.ine.add.PTCONT.469379",
      "street": "R LINHARES",
      "house": "81",
      "postcode": "4830-796",
      "city": "VERIM",
      "lon": "-8.308583669575857",
      "lat": "41.62638332089714"
    },
    {
      "id": "pt.ine.add.PTCONT.469381",
      "street": "R DIOGO ANTUNES",
      "house": "152",
      "postcode": "4830-796",
      "city": "VERIM",
      "lon": "-8.307261935988393",
      "lat": "41.62573706816784"
    },
    {
      "id": "pt.ine.add.PTCONT.472437",
      "street": "R DIOGO ANTUNES",
      "house": "183",
      "postcode": "4830-796",
      "city": "VERIM",
      "lon": "-8.308257259910063",
      "lat": "41.625492457487695"
    },
    {
      "id": "pt.ine.add.PTCONT.482015",
      "street": "AV SANTA MARIA DE VERIM",
      "house": "",
      "postcode": "4830-790",
      "city": "VERIM",
      "lon": "-8.304428141189291",
      "lat": "41.629576879407516"
    },
    {
      "id": "pt.ine.add.PTCONT.493087",
      "street": "AV SANTA MARIA DE VERIM",
      "house": "87",
      "postcode": "4830-790",
      "city": "VERIM",
      "lon": "-8.305769062872738",
      "lat": "41.623902575423784"
    },
    {
      "id": "pt.ine.add.PTCONT.499144",
      "street": "R QUINTELA",
      "house": "",
      "postcode": "4830-799",
      "city": "VERIM",
      "lon": "-8.307477237109666",
      "lat": "41.629932440577804"
    },
    {
      "id": "pt.ine.add.PTCONT.499145",
      "street": "R QUINTELA",
      "house": "220",
      "postcode": "4830-799",
      "city": "VERIM",
      "lon": "-8.306770605584973",
      "lat": "41.63045572147185"
    },
    {
      "id": "pt.ine.add.PTCONT.510959",
      "street": "R QUINTELA",
      "house": "220 C",
      "postcode": "4830-799",
      "city": "VERIM",
      "lon": "-8.306878418063878",
      "lat": "41.63038352941867"
    },
    {
      "id": "pt.ine.add.PTCONT.518023",
      "street": "R SAROLA",
      "house": "68",
      "postcode": "4830-800",
      "city": "VERIM",
      "lon": "-8.305707199034451",
      "lat": "41.62770220809098"
    },
    {
      "id": "pt.ine.add.PTCONT.580723",
      "street": "R DIOGO ANTUNES",
      "house": "14",
      "postcode": "4830-796",
      "city": "VERIM",
      "lon": "-8.306137567319377",
      "lat": "41.62708931317821"
    },
    {
      "id": "pt.ine.add.PTCONT.602806",
      "street": "R QUINTELA",
      "house": "220 B",
      "postcode": "4830-799",
      "city": "VERIM",
      "lon": "-8.307022183794004",
      "lat": "41.63029327559317"
    },
    {
      "id": "pt.ine.add.PTCONT.614023",
      "street": "R FUNDÃO",
      "house": "212",
      "postcode": "4830-226",
      "city": "FRIANDE PVL",
      "lon": "-8.307807655564266",
      "lat": "41.62341329830138"
    },
    {
      "id": "pt.ine.add.PTCONT.618814",
      "street": "AV SANTA MARIA DE VERIM",
      "house": "427",
      "postcode": "4830-790",
      "city": "VERIM",
      "lon": "-8.306281664086233",
      "lat": "41.62712511078546"
    },
    {
      "id": "pt.ine.add.PTCONT.623375",
      "street": "R DIOGO ANTUNES",
      "house": "",
      "postcode": "4830-796",
      "city": "VERIM",
      "lon": "-8.306545616692228",
      "lat": "41.62710670556666"
    },
    {
      "id": "pt.ine.add.PTCONT.627228",
      "street": "R POÇOS",
      "house": "325",
      "postcode": "4830-796",
      "city": "VERIM",
      "lon": "-8.310505405807454",
      "lat": "41.627019630366306"
    },
    {
      "id": "pt.ine.add.PTCONT.627275",
      "street": "R LINHARES",
      "house": "80A",
      "postcode": "4830-796",
      "city": "VERIM",
      "lon": "-8.308043308980372",
      "lat": "41.62624908973644"
    },
    {
      "id": "pt.ine.add.PTCONT.629895",
      "street": "R QUINTELA",
      "house": "234",
      "postcode": "4830-799",
      "city": "VERIM",
      "lon": "-8.30661476604192",
      "lat": "41.63051898228071"
    },
    {
      "id": "pt.ine.add.PTCONT.637672",
      "street": "R LINHARES",
      "house": "64",
      "postcode": "4830-796",
      "city": "VERIM",
      "lon": "-8.308259331112575",
      "lat": "41.62625776445281"
    },
    {
      "id": "pt.ine.add.PTCONT.659107",
      "street": "R DIOGO ANTUNES",
      "house": "48",
      "postcode": "4830-796",
      "city": "VERIM",
      "lon": "-8.30659257897465",
      "lat": "41.626719477885814"
    },
    {
      "id": "pt.ine.add.PTCONT.667017",
      "street": "R LINHARES",
      "house": "80",
      "postcode": "4830-796",
      "city": "VERIM",
      "lon": "-8.30803157679925",
      "lat": "41.62634814771522"
    },
    {
      "id": "pt.ine.add.PTCONT.675713",
      "street": "TV SENRA",
      "house": "125",
      "postcode": "4830-796",
      "city": "VERIM",
      "lon": "-8.307388577360639",
      "lat": "41.62820387547063"
    },
    {
      "id": "pt.ine.add.PTCONT.682413",
      "street": "R LINHARES",
      "house": "80",
      "postcode": "4830-796",
      "city": "VERIM",
      "lon": "-8.308151453978487",
      "lat": "41.62630294700465"
    },
    {
      "id": "pt.ine.add.PTCONT.705441",
      "street": "AV SANTA MARIA DE VERIM",
      "house": "513",
      "postcode": "4830-790",
      "city": "VERIM",
      "lon": "-8.305646598169245",
      "lat": "41.62747720791412"
    },
    {
      "id": "pt.ine.add.PTCONT.711459",
      "street": "AV SANTA MARIA DE VERIM",
      "house": "293",
      "postcode": "4830-790",
      "city": "VERIM",
      "lon": "-8.305917792104799",
      "lat": "41.62567607105835"
    },
    {
      "id": "pt.ine.add.PTCONT.738307",
      "street": "R SAROLA",
      "house": "21",
      "postcode": "4830-800",
      "city": "VERIM",
      "lon": "-8.305922865064256",
      "lat": "41.627575833041035"
    },
    {
      "id": "pt.ine.add.PTCONT.744575",
      "street": "R PADRE FRANCISCO MATOS VIEIRA",
      "house": "99",
      "postcode": "4830-800",
      "city": "VERIM",
      "lon": "-8.304980857476126",
      "lat": "41.629837159998495"
    },
    {
      "id": "pt.ine.add.PTCONT.759145",
      "street": "R DIOGO ANTUNES",
      "house": "260",
      "postcode": "4830-796",
      "city": "VERIM",
      "lon": "-8.308018968551373",
      "lat": "41.62612307570147"
    },
    {
      "id": "pt.ine.add.PTCONT.762897",
      "street": "R QUINTELA",
      "house": "176",
      "postcode": "4830-799",
      "city": "VERIM",
      "lon": "-8.307189780787558",
      "lat": "41.630139960007995"
    },
    {
      "id": "pt.ine.add.PTCONT.792243",
      "street": "R SAROLA",
      "house": "100",
      "postcode": "4830-800",
      "city": "VERIM",
      "lon": "-8.305672663145408",
      "lat": "41.62825148230374"
    },
    {
      "id": "pt.ine.add.PTCONT.822589",
      "street": "R DIOGO ANTUNES",
      "house": "263",
      "postcode": "4830-796",
      "city": "VERIM",
      "lon": "-8.30733286819931",
      "lat": "41.62534080012954"
    }
  ]
}