{
  "data": {
    "distrito": "Braga",
    "concelho": "Póvoa de Lanhoso",
    "freguesia": "União das freguesias de Verim, Friande e Ajude",
    "OBJECTID": 2,
    "BGRI2021": "03093500104",
    "DT21": "03",
    "DTMN21": "0309",
    "DTMNFR21": "030935",
    "DTMNFRSEC21": "030935001",
    "SECNUM21": "001",
    "SSNUM21": "04",
    "SECSSNUM21": "00104",
    "OBJECTID_1": 28695,
    "DT": "03",
    "CC": "09",
    "fr": "35",
    "SEC": "001",
    "SS": "04"
  },
  "addresses": [
    {
      "id": "pt.ine.add.PTCONT.502073",
      "street": "LUGAR DA RIBEIRAS",
      "house": "",
      "postcode": "4830-792",
      "city": "VERIM",
      "lon": "-8.315707611013636",
      "lat": "41.6292083740999"
    },
    {
      "id": "pt.ine.add.PTCONT.525160",
      "street": "R HORTAS",
      "house": "166",
      "postcode": "4830-794",
      "city": "VERIM",
      "lon": "-8.314530525138185",
      "lat": "41.63311781746384"
    },
    {
      "id": "pt.ine.add.PTCONT.535113",
      "street": "TV GUICÕES",
      "house": "4",
      "postcode": "4830-794",
      "city": "VERIM",
      "lon": "-8.312392175498935",
      "lat": "41.63234685951894"
    },
    {
      "id": "pt.ine.add.PTCONT.538125",
      "street": "R HORTAS",
      "house": "184 B",
      "postcode": "4830-794",
      "city": "VERIM",
      "lon": "-8.315009381255473",
      "lat": "41.63269388978946"
    },
    {
      "id": "pt.ine.add.PTCONT.540893",
      "street": "R BARRIO",
      "house": "4",
      "postcode": "4830-791",
      "city": "VERIM",
      "lon": "-8.312103727970932",
      "lat": "41.63219424717132"
    },
    {
      "id": "pt.ine.add.PTCONT.566894",
      "street": "TV POÇOS",
      "house": "325",
      "postcode": "4830-796",
      "city": "VERIM",
      "lon": "-8.310747037303647",
      "lat": "41.6276134978777"
    },
    {
      "id": "pt.ine.add.PTCONT.590511",
      "street": "R HORTAS",
      "house": "183 A",
      "postcode": "4830-794",
      "city": "VERIM",
      "lon": "-8.314769461038019",
      "lat": "41.63273028373197"
    },
    {
      "id": "pt.ine.add.PTCONT.596061",
      "street": "R HORTAS",
      "house": "220",
      "postcode": "4830-794",
      "city": "VERIM",
      "lon": "-8.313977641852798",
      "lat": "41.63282156867935"
    },
    {
      "id": "pt.ine.add.PTCONT.605294",
      "street": "R BARRIO",
      "house": "24",
      "postcode": "4830-791",
      "city": "VERIM",
      "lon": "-8.311983867557895",
      "lat": "41.632248455572515"
    },
    {
      "id": "pt.ine.add.PTCONT.617260",
      "street": "TV POÇOS",
      "house": "107",
      "postcode": "4830-796",
      "city": "VERIM",
      "lon": "-8.311622450478957",
      "lat": "41.62739605430306"
    },
    {
      "id": "pt.ine.add.PTCONT.626039",
      "street": "TV BATOCAS",
      "house": "11",
      "postcode": "4830-802",
      "city": "VERIM",
      "lon": "-8.31035966469628",
      "lat": "41.63076537092168"
    },
    {
      "id": "pt.ine.add.PTCONT.627227",
      "street": "R HORTAS",
      "house": "70",
      "postcode": "4830-794",
      "city": "VERIM",
      "lon": "-8.315132710126326",
      "lat": "41.63387317094532"
    },
    {
      "id": "pt.ine.add.PTCONT.630221",
      "street": "TV POÇOS",
      "house": "54",
      "postcode": "4830-796",
      "city": "VERIM",
      "lon": "-8.311527864722418",
      "lat": "41.62790940893772"
    },
    {
      "id": "pt.ine.add.PTCONT.642656",
      "street": "TV BATOCAS",
      "house": "29",
      "postcode": "4830-802",
      "city": "VERIM",
      "lon": "-8.310743390867806",
      "lat": "41.63065673491988"
    },
    {
      "id": "pt.ine.add.PTCONT.651736",
      "street": "TV GUICÕES",
      "house": "8",
      "postcode": "4830-794",
      "city": "VERIM",
      "lon": "-8.312499835054371",
      "lat": "41.63222064062788"
    },
    {
      "id": "pt.ine.add.PTCONT.662296",
      "street": "TV POÇOS",
      "house": "78",
      "postcode": "4830-796",
      "city": "VERIM",
      "lon": "-8.311334993927995",
      "lat": "41.62759458053507"
    },
    {
      "id": "pt.ine.add.PTCONT.675710",
      "street": "TV DAS BATOCAS",
      "house": "71",
      "postcode": "4830-802",
      "city": "VERIM",
      "lon": "-8.311487582644139",
      "lat": "41.63070960439276"
    },
    {
      "id": "pt.ine.add.PTCONT.714571",
      "street": "R HORTAS",
      "house": "184 C",
      "postcode": "4830-794",
      "city": "VERIM",
      "lon": "-8.31482931468126",
      "lat": "41.632676167306215"
    },
    {
      "id": "pt.ine.add.PTCONT.717594",
      "street": "R HORTAS",
      "house": "154",
      "postcode": "4830-794",
      "city": "VERIM",
      "lon": "-8.31468689377927",
      "lat": "41.63324362148768"
    },
    {
      "id": "pt.ine.add.PTCONT.726441",
      "street": "R BARRIO",
      "house": "48",
      "postcode": "4830-791",
      "city": "VERIM",
      "lon": "-8.311707844878399",
      "lat": "41.63224888474661"
    },
    {
      "id": "pt.ine.add.PTCONT.772424",
      "street": "R ANTERO BONIFÁCIO DE ARAÚJO",
      "house": "141",
      "postcode": "4830-802",
      "city": "VERIM",
      "lon": "-8.31031141527919",
      "lat": "41.63067540890043"
    },
    {
      "id": "pt.ine.add.PTCONT.805378",
      "street": "R ANTERO BONIFACIO DE ARAÚJO",
      "house": "125",
      "postcode": "4830-802",
      "city": "VERIM",
      "lon": "-8.310251165318",
      "lat": "41.630585465350556"
    },
    {
      "id": "pt.ine.add.PTCONT.810734",
      "street": "TV GUICÕES",
      "house": "13",
      "postcode": "4830-794",
      "city": "VERIM",
      "lon": "-8.312067202091775",
      "lat": "41.63200522763156"
    },
    {
      "id": "pt.ine.add.PTCONT.813676",
      "street": "R BARRIO",
      "house": "",
      "postcode": "4830-791",
      "city": "VERIM",
      "lon": "-8.312007471222406",
      "lat": "41.632104360627686"
    },
    {
      "id": "pt.ine.add.PTCONT.816163",
      "street": "R BARRIO",
      "house": "59",
      "postcode": "4830-791",
      "city": "VERIM",
      "lon": "-8.311744394706",
      "lat": "41.6324469079937"
    },
    {
      "id": "pt.ine.add.PTCONT.846014",
      "street": "R BARRIO",
      "house": "32",
      "postcode": "4830-791",
      "city": "VERIM",
      "lon": "-8.311755475935907",
      "lat": "41.63211375615915"
    }
  ]
}