{
  "data": {
    "distrito": "Braga",
    "concelho": "Póvoa de Lanhoso",
    "freguesia": "União das freguesias de Verim, Friande e Ajude",
    "OBJECTID": 17,
    "BGRI2021": "03093500107",
    "DT21": "03",
    "DTMN21": "0309",
    "DTMNFR21": "030935",
    "DTMNFRSEC21": "030935001",
    "SECNUM21": "001",
    "SSNUM21": "07",
    "SECSSNUM21": "00107",
    "OBJECTID_1": 28691,
    "DT": "03",
    "CC": "09",
    "fr": "35",
    "SEC": "001",
    "SS": "07"
  },
  "addresses": [
    {
      "id": "pt.ine.add.PTCONT.459453",
      "street": "R VEIGA ESTEIRO",
      "house": "62",
      "postcode": "4830-801",
      "city": "VERIM",
      "lon": "-8.31154973880947",
      "lat": "41.63584158082821"
    },
    {
      "id": "pt.ine.add.PTCONT.466372",
      "street": "R SANTA IRIA",
      "house": "25",
      "postcode": "4830-801",
      "city": "VERIM",
      "lon": "-8.309609229205929",
      "lat": "41.637222132342046"
    },
    {
      "id": "pt.ine.add.PTCONT.469367",
      "street": "R BARROCO",
      "house": "176",
      "postcode": "4830-801",
      "city": "VERIM",
      "lon": "-8.310133592983004",
      "lat": "41.635861777649836"
    },
    {
      "id": "pt.ine.add.PTCONT.549797",
      "street": "R ENTRADA DO MONTE",
      "house": "183",
      "postcode": "4830-801",
      "city": "VERIM",
      "lon": "-8.30909179996399",
      "lat": "41.636727725946024"
    },
    {
      "id": "pt.ine.add.PTCONT.590505",
      "street": "R VEIGA ESTEIRO",
      "house": "46",
      "postcode": "4830-801",
      "city": "VERIM",
      "lon": "-8.311645081164864",
      "lat": "41.635598334702706"
    },
    {
      "id": "pt.ine.add.PTCONT.637671",
      "street": "R ENTRADA DO MONTE",
      "house": "85",
      "postcode": "4830-801",
      "city": "VERIM",
      "lon": "-8.30871749509122",
      "lat": "41.6358999642179"
    },
    {
      "id": "pt.ine.add.PTCONT.655078",
      "street": "R ENTRADA DO MONTE",
      "house": "201",
      "postcode": "4830-801",
      "city": "VERIM",
      "lon": "-8.309092338798871",
      "lat": "41.63692580500829"
    },
    {
      "id": "pt.ine.add.PTCONT.705421",
      "street": "R ENTRADA DO MONTE",
      "house": "215",
      "postcode": "4830-801",
      "city": "VERIM",
      "lon": "-8.3091285648443",
      "lat": "41.63700678222233"
    },
    {
      "id": "pt.ine.add.PTCONT.717577",
      "street": "R VEIGA ESTEIRO",
      "house": "90",
      "postcode": "4830-801",
      "city": "VERIM",
      "lon": "-8.311706282259664",
      "lat": "41.6360304140018"
    },
    {
      "id": "pt.ine.add.PTCONT.810729",
      "street": "R BARROCO",
      "house": "298",
      "postcode": "4830-801",
      "city": "VERIM",
      "lon": "-8.311656511262012",
      "lat": "41.63539123338667"
    },
    {
      "id": "pt.ine.add.PTCONT.814403",
      "street": "R VEIGA ESTEIRO",
      "house": "278",
      "postcode": "4830-801",
      "city": "VERIM",
      "lon": "-8.312129380923912",
      "lat": "41.63712819890829"
    },
    {
      "id": "pt.ine.add.PTCONT.824496",
      "street": "R BARROCO",
      "house": "226",
      "postcode": "4830-801",
      "city": "VERIM",
      "lon": "-8.310769581908495",
      "lat": "41.635824781950845"
    }
  ]
}