{
  "data": {
    "distrito": "Coimbra",
    "concelho": "Penela",
    "freguesia": "Espinhal",
    "OBJECTID": 287,
    "BGRI2021": "06140200119",
    "DT21": "06",
    "DTMN21": "0614",
    "DTMNFR21": "061402",
    "DTMNFRSEC21": "061402001",
    "SECNUM21": "001",
    "SSNUM21": "19",
    "SECSSNUM21": "00119",
    "OBJECTID_1": 56430,
    "DT": "06",
    "CC": "14",
    "fr": "02",
    "SEC": "001",
    "SS": "19"
  },
  "addresses": [
    {
      "id": "pt.ine.add.PTCONT.1110180",
      "street": "LG VISC",
      "house": "6",
      "postcode": "3230-070",
      "city": "ESPINHAL",
      "lon": "-8.349941637832348",
      "lat": "40.01199375814855"
    },
    {
      "id": "pt.ine.add.PTCONT.1110181",
      "street": "LG VISC",
      "house": "6",
      "postcode": "3230-070",
      "city": "ESPINHAL",
      "lon": "-8.349941637832348",
      "lat": "40.01199375814855"
    },
    {
      "id": "pt.ine.add.PTCONT.1119864",
      "street": "PC REPUBLICA",
      "house": "6",
      "postcode": "3230-070",
      "city": "ESPINHAL",
      "lon": "-8.350150692580483",
      "lat": "40.01143498431501"
    },
    {
      "id": "pt.ine.add.PTCONT.1164637",
      "street": "R COMÉRCIO",
      "house": "",
      "postcode": "3230-070",
      "city": "ESPINHAL",
      "lon": "-8.350384881743514",
      "lat": "40.011416533151056"
    },
    {
      "id": "pt.ine.add.PTCONT.1170544",
      "street": "PC REPUBLICA",
      "house": "7",
      "postcode": "3230-070",
      "city": "ESPINHAL",
      "lon": "-8.350022911962345",
      "lat": "40.011768451826995"
    },
    {
      "id": "pt.ine.add.PTCONT.1172635",
      "street": "PC REPUBLICA",
      "house": "",
      "postcode": "3230-070",
      "city": "ESPINHAL",
      "lon": "-8.34999985780243",
      "lat": "40.01188557517553"
    },
    {
      "id": "pt.ine.add.PTCONT.1179695",
      "street": "R COMÉRCIO",
      "house": "12",
      "postcode": "3230-070",
      "city": "ESPINHAL",
      "lon": "-8.350349944675388",
      "lat": "40.01147964183502"
    },
    {
      "id": "pt.ine.add.PTCONT.1184873",
      "street": "PC REPUBLICA",
      "house": "11",
      "postcode": "3230-070",
      "city": "ESPINHAL",
      "lon": "-8.350127695794463",
      "lat": "40.01157011992738"
    },
    {
      "id": "pt.ine.add.PTCONT.1186654",
      "street": "R COMÉRCIO",
      "house": "",
      "postcode": "3230-070",
      "city": "ESPINHAL",
      "lon": "-8.350279899089257",
      "lat": "40.01155182247294"
    },
    {
      "id": "pt.ine.add.PTCONT.1203357",
      "street": "LG VISC",
      "house": "",
      "postcode": "3230-070",
      "city": "ESPINHAL",
      "lon": "-8.349789547379736",
      "lat": "40.0120480796231"
    },
    {
      "id": "pt.ine.add.PTCONT.1230179",
      "street": "PC REPUBLICA",
      "house": "",
      "postcode": "3230-070",
      "city": "ESPINHAL",
      "lon": "-8.350104442239424",
      "lat": "40.01162420048725"
    },
    {
      "id": "pt.ine.add.PTCONT.1243025",
      "street": "PC REPUBLICA",
      "house": "",
      "postcode": "3230-070",
      "city": "ESPINHAL",
      "lon": "-8.349999601245312",
      "lat": "40.01180452013251"
    },
    {
      "id": "pt.ine.add.PTCONT.1300962",
      "street": "R SOCIEDADE FILARMONICA",
      "house": "",
      "postcode": "3230-081",
      "city": "ESPINHAL",
      "lon": "-8.350197170922096",
      "lat": "40.01131781705205"
    },
    {
      "id": "pt.ine.add.PTCONT.1302633",
      "street": "R FLORES",
      "house": "",
      "postcode": "3230-082",
      "city": "ESPINHAL",
      "lon": "-8.350045110683261",
      "lat": "40.011381144980376"
    },
    {
      "id": "pt.ine.add.PTCONT.1312549",
      "street": "PC REPUBLICA",
      "house": "8",
      "postcode": "3230-070",
      "city": "ESPINHAL",
      "lon": "-8.35003448177925",
      "lat": "40.01172339932432"
    },
    {
      "id": "pt.ine.add.PTCONT.1316432",
      "street": "R SOCIEDADE FILARMONICA",
      "house": "",
      "postcode": "3230-081",
      "city": "ESPINHAL",
      "lon": "-8.350302781386066",
      "lat": "40.01138066236515"
    },
    {
      "id": "pt.ine.add.PTCONT.1335849",
      "street": "PC REPUBLICA",
      "house": "",
      "postcode": "3230-070",
      "city": "ESPINHAL",
      "lon": "-8.35006947629227",
      "lat": "40.011678302969266"
    }
  ]
}