{
  "data": {
    "distrito": "Lisboa",
    "concelho": "Lisboa",
    "freguesia": "Campolide",
    "OBJECTID": 975,
    "BGRI2021": "11061001203",
    "DT21": "11",
    "DTMN21": "1106",
    "DTMNFR21": "110610",
    "DTMNFRSEC21": "110610012",
    "SECNUM21": "012",
    "SSNUM21": "03",
    "SECSSNUM21": "01203",
    "OBJECTID_1": 105137,
    "DT": "11",
    "CC": "06",
    "fr": "10",
    "SEC": "012",
    "SS": "03"
  },
  "addresses": [
    {
      "id": "pt.ine.add.PTCONT.2297037",
      "street": "R INÁCIO PARDELHAS SANCHEZ",
      "house": "194 TS",
      "postcode": "1070-146",
      "city": "LISBOA",
      "lon": "-9.170985717321589",
      "lat": "38.731083961111935"
    },
    {
      "id": "pt.ine.add.PTCONT.2297038",
      "street": "R INÁCIO PARDELHAS SANCHEZ",
      "house": "194 TS",
      "postcode": "1070-146",
      "city": "LISBOA",
      "lon": "-9.170985717321589",
      "lat": "38.731083961111935"
    },
    {
      "id": "pt.ine.add.PTCONT.2297039",
      "street": "R INÁCIO PARDELHAS SANCHEZ",
      "house": "194 TS",
      "postcode": "1070-146",
      "city": "LISBOA",
      "lon": "-9.170985717321589",
      "lat": "38.731083961111935"
    },
    {
      "id": "pt.ine.add.PTCONT.2297040",
      "street": "R INÁCIO PARDELHAS SANCHEZ",
      "house": "194 TS",
      "postcode": "1070-146",
      "city": "LISBOA",
      "lon": "-9.170985717321589",
      "lat": "38.731083961111935"
    },
    {
      "id": "pt.ine.add.PTCONT.2297041",
      "street": "R INÁCIO PARDELHAS SANCHEZ",
      "house": "194 TS",
      "postcode": "1070-146",
      "city": "LISBOA",
      "lon": "-9.170985717321589",
      "lat": "38.731083961111935"
    },
    {
      "id": "pt.ine.add.PTCONT.2297042",
      "street": "R INÁCIO PARDELHAS SANCHEZ",
      "house": "194 TS",
      "postcode": "1070-146",
      "city": "LISBOA",
      "lon": "-9.170985717321589",
      "lat": "38.731083961111935"
    },
    {
      "id": "pt.ine.add.PTCONT.2297043",
      "street": "R INÁCIO PARDELHAS SANCHEZ",
      "house": "194 TS",
      "postcode": "1070-146",
      "city": "LISBOA",
      "lon": "-9.170985717321589",
      "lat": "38.731083961111935"
    },
    {
      "id": "pt.ine.add.PTCONT.2297044",
      "street": "R INÁCIO PARDELHAS SANCHEZ",
      "house": "194 TS",
      "postcode": "1070-146",
      "city": "LISBOA",
      "lon": "-9.170985717321589",
      "lat": "38.731083961111935"
    },
    {
      "id": "pt.ine.add.PTCONT.2297045",
      "street": "R INÁCIO PARDELHAS SANCHEZ",
      "house": "194 TS",
      "postcode": "1070-146",
      "city": "LISBOA",
      "lon": "-9.170985717321589",
      "lat": "38.731083961111935"
    },
    {
      "id": "pt.ine.add.PTCONT.2297046",
      "street": "R INÁCIO PARDELHAS SANCHEZ",
      "house": "194 TS",
      "postcode": "1070-146",
      "city": "LISBOA",
      "lon": "-9.170985717321589",
      "lat": "38.731083961111935"
    },
    {
      "id": "pt.ine.add.PTCONT.2297047",
      "street": "R INÁCIO PARDELHAS SANCHEZ",
      "house": "194 TS",
      "postcode": "1070-146",
      "city": "LISBOA",
      "lon": "-9.170985717321589",
      "lat": "38.731083961111935"
    },
    {
      "id": "pt.ine.add.PTCONT.2301879",
      "street": "R INÁCIO PARDELHAS SANCHEZ",
      "house": "194 TS",
      "postcode": "1070-146",
      "city": "LISBOA",
      "lon": "-9.170985717321589",
      "lat": "38.731083961111935"
    },
    {
      "id": "pt.ine.add.PTCONT.2313003",
      "street": "R INÁCIO PARDELHAS SANCHEZ",
      "house": "183 DB",
      "postcode": "1070-146",
      "city": "LISBOA",
      "lon": "-9.170794933499733",
      "lat": "38.73140993720681"
    },
    {
      "id": "pt.ine.add.PTCONT.2424727",
      "street": "ESCNH BAIRRO DA LIBERDADE",
      "house": "140",
      "postcode": "1070-165",
      "city": "LISBOA",
      "lon": "-9.170091488987682",
      "lat": "38.732866442204354"
    },
    {
      "id": "pt.ine.add.PTCONT.2459100",
      "street": "R INÁCIO PARDELHAS SANCHEZ",
      "house": "183 DC",
      "postcode": "1070-146",
      "city": "LISBOA",
      "lon": "-9.170782913680892",
      "lat": "38.73137401252847"
    },
    {
      "id": "pt.ine.add.PTCONT.2521650",
      "street": "R INÁCIO PARDELHAS SANCHEZ",
      "house": "183 F",
      "postcode": "1070-146",
      "city": "LISBOA",
      "lon": "-9.17089646587058",
      "lat": "38.73127391821859"
    },
    {
      "id": "pt.ine.add.PTCONT.2521758",
      "street": "R INÁCIO PARDELHAS SANCHEZ",
      "house": "183 F",
      "postcode": "1070-146",
      "city": "LISBOA",
      "lon": "-9.17089646587058",
      "lat": "38.73127391821859"
    },
    {
      "id": "pt.ine.add.PTCONT.2523955",
      "street": "R INÁCIO PARDELHAS SANCHEZ",
      "house": "183 D",
      "postcode": "1070-146",
      "city": "LISBOA",
      "lon": "-9.17087451131734",
      "lat": "38.73134617587398"
    },
    {
      "id": "pt.ine.add.PTCONT.2523956",
      "street": "R INÁCIO PARDELHAS SANCHEZ",
      "house": "183 D",
      "postcode": "1070-146",
      "city": "LISBOA",
      "lon": "-9.17087451131734",
      "lat": "38.73134617587398"
    },
    {
      "id": "pt.ine.add.PTCONT.2523957",
      "street": "R INÁCIO PARDELHAS SANCHEZ",
      "house": "183 D",
      "postcode": "1070-146",
      "city": "LISBOA",
      "lon": "-9.17087451131734",
      "lat": "38.73134617587398"
    },
    {
      "id": "pt.ine.add.PTCONT.2523958",
      "street": "R INÁCIO PARDELHAS SANCHEZ",
      "house": "183 D",
      "postcode": "1070-146",
      "city": "LISBOA",
      "lon": "-9.17087451131734",
      "lat": "38.73134617587398"
    },
    {
      "id": "pt.ine.add.PTCONT.2523960",
      "street": "R INÁCIO PARDELHAS SANCHEZ",
      "house": "183 D",
      "postcode": "1070-146",
      "city": "LISBOA",
      "lon": "-9.17087451131734",
      "lat": "38.73134617587398"
    },
    {
      "id": "pt.ine.add.PTCONT.2542195",
      "street": "R INÁCIO PARDELHAS SANCHEZ",
      "house": "183 DC P11",
      "postcode": "1070-146",
      "city": "LISBOA",
      "lon": "-9.170782392443835",
      "lat": "38.73133798577953"
    },
    {
      "id": "pt.ine.add.PTCONT.2664995",
      "street": "R INÁCIO PARDELHAS SANCHEZ",
      "house": "200",
      "postcode": "1070-146",
      "city": "LISBOA",
      "lon": "-9.171107247890504",
      "lat": "38.73074058395906"
    },
    {
      "id": "pt.ine.add.PTCONT.2664996",
      "street": "R INÁCIO PARDELHAS SANCHEZ",
      "house": "200",
      "postcode": "1070-146",
      "city": "LISBOA",
      "lon": "-9.171107247890504",
      "lat": "38.73074058395906"
    },
    {
      "id": "pt.ine.add.PTCONT.2665865",
      "street": "R INÁCIO PARDELHAS SANCHEZ",
      "house": "200",
      "postcode": "1070-146",
      "city": "LISBOA",
      "lon": "-9.171107247890504",
      "lat": "38.73074058395906"
    },
    {
      "id": "pt.ine.add.PTCONT.2718599",
      "street": "R INÁCIO PARDELHAS SANCHEZ",
      "house": "183 DB",
      "postcode": "1070-146",
      "city": "LISBOA",
      "lon": "-9.170714443432573",
      "lat": "38.73141065167569"
    },
    {
      "id": "pt.ine.add.PTCONT.2772734",
      "street": "R INÁCIO PARDELHAS SANCHEZ",
      "house": "183 DB",
      "postcode": "1070-146",
      "city": "LISBOA",
      "lon": "-9.170702684252408",
      "lat": "38.73139274036334"
    },
    {
      "id": "pt.ine.add.PTCONT.2873815",
      "street": "R INÁCIO PARDELHAS SANCHEZ",
      "house": "201",
      "postcode": "1070-146",
      "city": "LISBOA",
      "lon": "-9.17116369741855",
      "lat": "38.73066801994676"
    },
    {
      "id": "pt.ine.add.PTCONT.2873816",
      "street": "R INÁCIO PARDELHAS SANCHEZ",
      "house": "201",
      "postcode": "1070-146",
      "city": "LISBOA",
      "lon": "-9.17116369741855",
      "lat": "38.73066801994676"
    },
    {
      "id": "pt.ine.add.PTCONT.2873817",
      "street": "R INÁCIO PARDELHAS SANCHEZ",
      "house": "201",
      "postcode": "1070-146",
      "city": "LISBOA",
      "lon": "-9.17116369741855",
      "lat": "38.73066801994676"
    },
    {
      "id": "pt.ine.add.PTCONT.2919505",
      "street": "R INÁCIO PARDELHAS SANCHEZ",
      "house": "195-A",
      "postcode": "1070-146",
      "city": "LISBOA",
      "lon": "-9.171085554391263",
      "lat": "38.730830855029716"
    },
    {
      "id": "pt.ine.add.PTCONT.2919506",
      "street": "R INÁCIO PARDELHAS SANCHEZ",
      "house": "195-A",
      "postcode": "1070-146",
      "city": "LISBOA",
      "lon": "-9.171085554391263",
      "lat": "38.730830855029716"
    },
    {
      "id": "pt.ine.add.PTCONT.2919507",
      "street": "R INÁCIO PARDELHAS SANCHEZ",
      "house": "195-A",
      "postcode": "1070-146",
      "city": "LISBOA",
      "lon": "-9.171085554391263",
      "lat": "38.730830855029716"
    },
    {
      "id": "pt.ine.add.PTCONT.2919508",
      "street": "R INÁCIO PARDELHAS SANCHEZ",
      "house": "195-A",
      "postcode": "1070-146",
      "city": "LISBOA",
      "lon": "-9.171085554391263",
      "lat": "38.730830855029716"
    },
    {
      "id": "pt.ine.add.PTCONT.2919509",
      "street": "R INÁCIO PARDELHAS SANCHEZ",
      "house": "195-A",
      "postcode": "1070-146",
      "city": "LISBOA",
      "lon": "-9.171085554391263",
      "lat": "38.730830855029716"
    },
    {
      "id": "pt.ine.add.PTCONT.2919510",
      "street": "R INÁCIO PARDELHAS SANCHEZ",
      "house": "195-A",
      "postcode": "1070-146",
      "city": "LISBOA",
      "lon": "-9.171085554391263",
      "lat": "38.730830855029716"
    },
    {
      "id": "pt.ine.add.PTCONT.2919511",
      "street": "R INÁCIO PARDELHAS SANCHEZ",
      "house": "195-A",
      "postcode": "1070-146",
      "city": "LISBOA",
      "lon": "-9.171085554391263",
      "lat": "38.730830855029716"
    },
    {
      "id": "pt.ine.add.PTCONT.2919512",
      "street": "R INÁCIO PARDELHAS SANCHEZ",
      "house": "195-A",
      "postcode": "1070-146",
      "city": "LISBOA",
      "lon": "-9.171085554391263",
      "lat": "38.730830855029716"
    },
    {
      "id": "pt.ine.add.PTCONT.2919513",
      "street": "R INÁCIO PARDELHAS SANCHEZ",
      "house": "195-A",
      "postcode": "1070-146",
      "city": "LISBOA",
      "lon": "-9.171085554391263",
      "lat": "38.730830855029716"
    },
    {
      "id": "pt.ine.add.PTCONT.2919683",
      "street": "R INÁCIO PARDELHAS SANCHEZ",
      "house": "195-A",
      "postcode": "1070-146",
      "city": "LISBOA",
      "lon": "-9.171085554391263",
      "lat": "38.730830855029716"
    },
    {
      "id": "pt.ine.add.PTCONT.2926069",
      "street": "R INÁCIO PARDELHAS SANCHEZ",
      "house": "195-A",
      "postcode": "1070-146",
      "city": "LISBOA",
      "lon": "-9.171085554391263",
      "lat": "38.730830855029716"
    },
    {
      "id": "pt.ine.add.PTCONT.2926113",
      "street": "R INÁCIO PARDELHAS SANCHEZ",
      "house": "195-A",
      "postcode": "1070-146",
      "city": "LISBOA",
      "lon": "-9.171085554391263",
      "lat": "38.730830855029716"
    },
    {
      "id": "pt.ine.add.PTCONT.3028296",
      "street": "R INÁCIO PARDELHAS SANCHEZ",
      "house": "195",
      "postcode": "1070-146",
      "city": "LISBOA",
      "lon": "-9.171017866833486",
      "lat": "38.730921534471925"
    },
    {
      "id": "pt.ine.add.PTCONT.3028297",
      "street": "R INÁCIO PARDELHAS SANCHEZ",
      "house": "195",
      "postcode": "1070-146",
      "city": "LISBOA",
      "lon": "-9.171017866833486",
      "lat": "38.730921534471925"
    },
    {
      "id": "pt.ine.add.PTCONT.3028298",
      "street": "R INÁCIO PARDELHAS SANCHEZ",
      "house": "195",
      "postcode": "1070-146",
      "city": "LISBOA",
      "lon": "-9.171017866833486",
      "lat": "38.730921534471925"
    },
    {
      "id": "pt.ine.add.PTCONT.3033729",
      "street": "R INÁCIO PARDELHAS SANCHEZ",
      "house": "195",
      "postcode": "1070-146",
      "city": "LISBOA",
      "lon": "-9.171017866833486",
      "lat": "38.730921534471925"
    },
    {
      "id": "pt.ine.add.PTCONT.3033777",
      "street": "R INÁCIO PARDELHAS SANCHEZ",
      "house": "195",
      "postcode": "1070-146",
      "city": "LISBOA",
      "lon": "-9.171017866833486",
      "lat": "38.730921534471925"
    },
    {
      "id": "pt.ine.add.PTCONT.3066451",
      "street": "R INÁCIO PARDELHAS SANCHEZ",
      "house": "194 JL",
      "postcode": "1070-146",
      "city": "LISBOA",
      "lon": "-9.171019170204183",
      "lat": "38.731011601343575"
    },
    {
      "id": "pt.ine.add.PTCONT.3066452",
      "street": "R INÁCIO PARDELHAS SANCHEZ",
      "house": "194 JL",
      "postcode": "1070-146",
      "city": "LISBOA",
      "lon": "-9.171019170204183",
      "lat": "38.731011601343575"
    },
    {
      "id": "pt.ine.add.PTCONT.3066453",
      "street": "R INÁCIO PARDELHAS SANCHEZ",
      "house": "194 JL",
      "postcode": "1070-146",
      "city": "LISBOA",
      "lon": "-9.171019170204183",
      "lat": "38.731011601343575"
    },
    {
      "id": "pt.ine.add.PTCONT.3066454",
      "street": "R INÁCIO PARDELHAS SANCHEZ",
      "house": "194 JL",
      "postcode": "1070-146",
      "city": "LISBOA",
      "lon": "-9.171019170204183",
      "lat": "38.731011601343575"
    },
    {
      "id": "pt.ine.add.PTCONT.3066455",
      "street": "R INÁCIO PARDELHAS SANCHEZ",
      "house": "194 JL",
      "postcode": "1070-146",
      "city": "LISBOA",
      "lon": "-9.171019170204183",
      "lat": "38.731011601343575"
    },
    {
      "id": "pt.ine.add.PTCONT.3066632",
      "street": "R INÁCIO PARDELHAS SANCHEZ",
      "house": "194 JL",
      "postcode": "1070-146",
      "city": "LISBOA",
      "lon": "-9.171019170204183",
      "lat": "38.731011601343575"
    },
    {
      "id": "pt.ine.add.PTCONT.3066633",
      "street": "R INÁCIO PARDELHAS SANCHEZ",
      "house": "194 JL",
      "postcode": "1070-146",
      "city": "LISBOA",
      "lon": "-9.171019170204183",
      "lat": "38.731011601343575"
    },
    {
      "id": "pt.ine.add.PTCONT.3066634",
      "street": "R INÁCIO PARDELHAS SANCHEZ",
      "house": "194 JL",
      "postcode": "1070-146",
      "city": "LISBOA",
      "lon": "-9.171019170204183",
      "lat": "38.731011601343575"
    },
    {
      "id": "pt.ine.add.PTCONT.3066635",
      "street": "R INÁCIO PARDELHAS SANCHEZ",
      "house": "194 JL",
      "postcode": "1070-146",
      "city": "LISBOA",
      "lon": "-9.171019170204183",
      "lat": "38.731011601343575"
    },
    {
      "id": "pt.ine.add.PTCONT.3066636",
      "street": "R INÁCIO PARDELHAS SANCHEZ",
      "house": "194 JL",
      "postcode": "1070-146",
      "city": "LISBOA",
      "lon": "-9.171019170204183",
      "lat": "38.731011601343575"
    },
    {
      "id": "pt.ine.add.PTCONT.3066637",
      "street": "R INÁCIO PARDELHAS SANCHEZ",
      "house": "194 JL",
      "postcode": "1070-146",
      "city": "LISBOA",
      "lon": "-9.171019170204183",
      "lat": "38.731011601343575"
    },
    {
      "id": "pt.ine.add.PTCONT.3066638",
      "street": "R INÁCIO PARDELHAS SANCHEZ",
      "house": "194 JL",
      "postcode": "1070-146",
      "city": "LISBOA",
      "lon": "-9.171019170204183",
      "lat": "38.731011601343575"
    },
    {
      "id": "pt.ine.add.PTCONT.3066639",
      "street": "R INÁCIO PARDELHAS SANCHEZ",
      "house": "194 JL",
      "postcode": "1070-146",
      "city": "LISBOA",
      "lon": "-9.171019170204183",
      "lat": "38.731011601343575"
    },
    {
      "id": "pt.ine.add.PTCONT.3083158",
      "street": "R INÁCIO PARDELHAS SANCHEZ",
      "house": "183 DB",
      "postcode": "1070-146",
      "city": "LISBOA",
      "lon": "-9.170794542566824",
      "lat": "38.731382917145396"
    },
    {
      "id": "pt.ine.add.PTCONT.3099038",
      "street": "R INÁCIO PARDELHAS SANCHEZ",
      "house": "",
      "postcode": "1070-146",
      "city": "LISBOA",
      "lon": "-9.170302484927147",
      "lat": "38.73075673489102"
    },
    {
      "id": "pt.ine.add.PTCONT.3287789",
      "street": "R INÁCIO PARDELHAS SANCHEZ",
      "house": "194",
      "postcode": "1070-146",
      "city": "LISBOA",
      "lon": "-9.170952655362084",
      "lat": "38.73118334093186"
    },
    {
      "id": "pt.ine.add.PTCONT.3287790",
      "street": "R INÁCIO PARDELHAS SANCHEZ",
      "house": "194",
      "postcode": "1070-146",
      "city": "LISBOA",
      "lon": "-9.170952655362084",
      "lat": "38.73118334093186"
    },
    {
      "id": "pt.ine.add.PTCONT.3287791",
      "street": "R INÁCIO PARDELHAS SANCHEZ",
      "house": "194",
      "postcode": "1070-146",
      "city": "LISBOA",
      "lon": "-9.170952655362084",
      "lat": "38.73118334093186"
    },
    {
      "id": "pt.ine.add.PTCONT.3287792",
      "street": "R INÁCIO PARDELHAS SANCHEZ",
      "house": "194",
      "postcode": "1070-146",
      "city": "LISBOA",
      "lon": "-9.170952655362084",
      "lat": "38.73118334093186"
    },
    {
      "id": "pt.ine.add.PTCONT.3287793",
      "street": "R INÁCIO PARDELHAS SANCHEZ",
      "house": "194",
      "postcode": "1070-146",
      "city": "LISBOA",
      "lon": "-9.170952655362084",
      "lat": "38.73118334093186"
    },
    {
      "id": "pt.ine.add.PTCONT.3287794",
      "street": "R INÁCIO PARDELHAS SANCHEZ",
      "house": "194",
      "postcode": "1070-146",
      "city": "LISBOA",
      "lon": "-9.170952655362084",
      "lat": "38.73118334093186"
    },
    {
      "id": "pt.ine.add.PTCONT.3287795",
      "street": "R INÁCIO PARDELHAS SANCHEZ",
      "house": "194",
      "postcode": "1070-146",
      "city": "LISBOA",
      "lon": "-9.170952655362084",
      "lat": "38.73118334093186"
    },
    {
      "id": "pt.ine.add.PTCONT.3287796",
      "street": "R INÁCIO PARDELHAS SANCHEZ",
      "house": "194",
      "postcode": "1070-146",
      "city": "LISBOA",
      "lon": "-9.170952655362084",
      "lat": "38.73118334093186"
    },
    {
      "id": "pt.ine.add.PTCONT.3287797",
      "street": "R INÁCIO PARDELHAS SANCHEZ",
      "house": "194",
      "postcode": "1070-146",
      "city": "LISBOA",
      "lon": "-9.170952655362084",
      "lat": "38.73118334093186"
    },
    {
      "id": "pt.ine.add.PTCONT.3287798",
      "street": "R INÁCIO PARDELHAS SANCHEZ",
      "house": "194",
      "postcode": "1070-146",
      "city": "LISBOA",
      "lon": "-9.170952655362084",
      "lat": "38.73118334093186"
    },
    {
      "id": "pt.ine.add.PTCONT.3287799",
      "street": "R INÁCIO PARDELHAS SANCHEZ",
      "house": "194",
      "postcode": "1070-146",
      "city": "LISBOA",
      "lon": "-9.170952655362084",
      "lat": "38.73118334093186"
    },
    {
      "id": "pt.ine.add.PTCONT.3287800",
      "street": "R INÁCIO PARDELHAS SANCHEZ",
      "house": "194",
      "postcode": "1070-146",
      "city": "LISBOA",
      "lon": "-9.170952655362084",
      "lat": "38.73118334093186"
    },
    {
      "id": "pt.ine.add.PTCONT.3287801",
      "street": "R INÁCIO PARDELHAS SANCHEZ",
      "house": "194",
      "postcode": "1070-146",
      "city": "LISBOA",
      "lon": "-9.170952655362084",
      "lat": "38.73118334093186"
    },
    {
      "id": "pt.ine.add.PTCONT.3287802",
      "street": "R INÁCIO PARDELHAS SANCHEZ",
      "house": "194",
      "postcode": "1070-146",
      "city": "LISBOA",
      "lon": "-9.170952655362084",
      "lat": "38.73118334093186"
    },
    {
      "id": "pt.ine.add.PTCONT.3287803",
      "street": "R INÁCIO PARDELHAS SANCHEZ",
      "house": "194",
      "postcode": "1070-146",
      "city": "LISBOA",
      "lon": "-9.170952655362084",
      "lat": "38.73118334093186"
    },
    {
      "id": "pt.ine.add.PTCONT.3287804",
      "street": "R INÁCIO PARDELHAS SANCHEZ",
      "house": "194",
      "postcode": "1070-146",
      "city": "LISBOA",
      "lon": "-9.170952655362084",
      "lat": "38.73118334093186"
    },
    {
      "id": "pt.ine.add.PTCONT.3341804",
      "street": "R INÁCIO PARDELHAS SANCHEZ",
      "house": "183 DC",
      "postcode": "1070-146",
      "city": "LISBOA",
      "lon": "-9.170782001516649",
      "lat": "38.73131096571766"
    },
    {
      "id": "pt.ine.add.PTCONT.3434819",
      "street": "R INÁCIO PARDELHAS SANCHEZ",
      "house": "194 TS",
      "postcode": "1070-146",
      "city": "LISBOA",
      "lon": "-9.170985717321589",
      "lat": "38.731083961111935"
    },
    {
      "id": "pt.ine.add.PTCONT.3438443",
      "street": "R INÁCIO PARDELHAS SANCHEZ",
      "house": "200",
      "postcode": "1070-146",
      "city": "LISBOA",
      "lon": "-9.171107247890504",
      "lat": "38.73074058395906"
    },
    {
      "id": "pt.ine.add.PTCONT.3443109",
      "street": "R INÁCIO PARDELHAS SANCHEZ",
      "house": "194",
      "postcode": "1070-146",
      "city": "LISBOA",
      "lon": "-9.170952655362084",
      "lat": "38.73118334093186"
    },
    {
      "id": "pt.ine.add.PTCONT.3443110",
      "street": "R INÁCIO PARDELHAS SANCHEZ",
      "house": "194",
      "postcode": "1070-146",
      "city": "LISBOA",
      "lon": "-9.170952655362084",
      "lat": "38.73118334093186"
    },
    {
      "id": "pt.ine.add.PTCONT.3448581",
      "street": "R INÁCIO PARDELHAS SANCHEZ",
      "house": "194 JL",
      "postcode": "1070-146",
      "city": "LISBOA",
      "lon": "-9.171019170204183",
      "lat": "38.731011601343575"
    }
  ]
}