{
  "data": {
    "distrito": "Lisboa",
    "concelho": "Lisboa",
    "freguesia": "Campolide",
    "OBJECTID": 147,
    "BGRI2021": "11061001205",
    "DT21": "11",
    "DTMN21": "1106",
    "DTMNFR21": "110610",
    "DTMNFRSEC21": "110610012",
    "SECNUM21": "012",
    "SSNUM21": "05",
    "SECSSNUM21": "01205",
    "OBJECTID_1": 104791,
    "DT": "11",
    "CC": "06",
    "fr": "10",
    "SEC": "012",
    "SS": "05"
  },
  "addresses": [
    {
      "id": "pt.ine.add.PTCONT.2286171",
      "street": "R INÁCIO PARDELHAS SANCHEZ",
      "house": "123",
      "postcode": "1070-146",
      "city": "LISBOA",
      "lon": "-9.170504370130889",
      "lat": "38.733583406151205"
    },
    {
      "id": "pt.ine.add.PTCONT.2286172",
      "street": "R INÁCIO PARDELHAS SANCHEZ",
      "house": "123",
      "postcode": "1070-146",
      "city": "LISBOA",
      "lon": "-9.170504370130889",
      "lat": "38.733583406151205"
    },
    {
      "id": "pt.ine.add.PTCONT.2286173",
      "street": "R INÁCIO PARDELHAS SANCHEZ",
      "house": "123",
      "postcode": "1070-146",
      "city": "LISBOA",
      "lon": "-9.170504370130889",
      "lat": "38.733583406151205"
    },
    {
      "id": "pt.ine.add.PTCONT.2286174",
      "street": "R INÁCIO PARDELHAS SANCHEZ",
      "house": "123",
      "postcode": "1070-146",
      "city": "LISBOA",
      "lon": "-9.170504370130889",
      "lat": "38.733583406151205"
    },
    {
      "id": "pt.ine.add.PTCONT.2338209",
      "street": "R INACIO PARDELHAS SANCHEZ",
      "house": "113",
      "postcode": "1070-146",
      "city": "LISBOA",
      "lon": "-9.171024428940534",
      "lat": "38.733758946544185"
    },
    {
      "id": "pt.ine.add.PTCONT.2378400",
      "street": "R JOSE ANASTACIO DA CUNHA",
      "house": "",
      "postcode": "1070-155",
      "city": "LISBOA",
      "lon": "-9.171018563213275",
      "lat": "38.73335364580211"
    },
    {
      "id": "pt.ine.add.PTCONT.2396909",
      "street": "R INACIO PARDELHAS SANCHEZ",
      "house": "123",
      "postcode": "1070-146",
      "city": "LISBOA",
      "lon": "-9.170734218412012",
      "lat": "38.73357235829815"
    },
    {
      "id": "pt.ine.add.PTCONT.2424718",
      "street": "R INACIO PARDELHAS SANCHEZ",
      "house": "113",
      "postcode": "1070-146",
      "city": "LISBOA",
      "lon": "-9.170967325188016",
      "lat": "38.73378647707242"
    },
    {
      "id": "pt.ine.add.PTCONT.2424724",
      "street": "R INÁCIO PARDELHAS SANCHEZ PITIO",
      "house": "JAJ",
      "postcode": "1070-146",
      "city": "LISBOA",
      "lon": "-9.170696724533265",
      "lat": "38.73336551076531"
    },
    {
      "id": "pt.ine.add.PTCONT.2424725",
      "street": "R INÁCIO PARDELHAS SANCHEZ PITIO",
      "house": "JAJ",
      "postcode": "1070-146",
      "city": "LISBOA",
      "lon": "-9.170696724533265",
      "lat": "38.73336551076531"
    },
    {
      "id": "pt.ine.add.PTCONT.2424726",
      "street": "R INÁCIO PARDELHAS SANCHEZ PITIO",
      "house": "JAJ",
      "postcode": "1070-146",
      "city": "LISBOA",
      "lon": "-9.170696724533265",
      "lat": "38.73336551076531"
    },
    {
      "id": "pt.ine.add.PTCONT.2430292",
      "street": "R INÁCIO PARDELHAS SANCHEZ PITIO",
      "house": "JAJ",
      "postcode": "1070-146",
      "city": "LISBOA",
      "lon": "-9.170696724533265",
      "lat": "38.73336551076531"
    },
    {
      "id": "pt.ine.add.PTCONT.2433883",
      "street": "R INACIO PARDELHAS SANCHEZ",
      "house": "122",
      "postcode": "1070-146",
      "city": "LISBOA",
      "lon": "-9.17083090157109",
      "lat": "38.733895782307734"
    },
    {
      "id": "pt.ine.add.PTCONT.2445337",
      "street": "R INACIO PARDELHAS SANCHEZ",
      "house": "113",
      "postcode": "1070-146",
      "city": "LISBOA",
      "lon": "-9.170840054645197",
      "lat": "38.73373355992832"
    },
    {
      "id": "pt.ine.add.PTCONT.2460299",
      "street": "R INACIO PARDELHAS SANCHEZ",
      "house": "130",
      "postcode": "1070-146",
      "city": "LISBOA",
      "lon": "-9.170855363157933",
      "lat": "38.73320196142337"
    },
    {
      "id": "pt.ine.add.PTCONT.2472707",
      "street": "R INÁCIO PARDELHAS SANCHEZ",
      "house": "123",
      "postcode": "1070-146",
      "city": "LISBOA",
      "lon": "-9.170628122061883",
      "lat": "38.73339314319213"
    },
    {
      "id": "pt.ine.add.PTCONT.2477025",
      "street": "R INÁCIO PARDELHAS SANCHEZ",
      "house": "123",
      "postcode": "1070-146",
      "city": "LISBOA",
      "lon": "-9.170628122061883",
      "lat": "38.73339314319213"
    },
    {
      "id": "pt.ine.add.PTCONT.2495706",
      "street": "R INÁCIO PARDELHAS SANCHEZ",
      "house": "133",
      "postcode": "1070-146",
      "city": "LISBOA",
      "lon": "-9.17081027993584",
      "lat": "38.733265416527445"
    },
    {
      "id": "pt.ine.add.PTCONT.2495707",
      "street": "R INÁCIO PARDELHAS SANCHEZ",
      "house": "133",
      "postcode": "1070-146",
      "city": "LISBOA",
      "lon": "-9.17081027993584",
      "lat": "38.733265416527445"
    },
    {
      "id": "pt.ine.add.PTCONT.2506237",
      "street": "R INÁCIO PARDELHAS SANCHEZ",
      "house": "132",
      "postcode": "1070-146",
      "city": "LISBOA",
      "lon": "-9.17080949800718",
      "lat": "38.733211376421934"
    },
    {
      "id": "pt.ine.add.PTCONT.2506238",
      "street": "R INÁCIO PARDELHAS SANCHEZ",
      "house": "132",
      "postcode": "1070-146",
      "city": "LISBOA",
      "lon": "-9.17080949800718",
      "lat": "38.733211376421934"
    },
    {
      "id": "pt.ine.add.PTCONT.2511945",
      "street": "R INÁCIO PARDELHAS SANCHEZ",
      "house": "132",
      "postcode": "1070-146",
      "city": "LISBOA",
      "lon": "-9.17080949800718",
      "lat": "38.733211376421934"
    },
    {
      "id": "pt.ine.add.PTCONT.2523954",
      "street": "R INÁCIO PARDELHAS SANCHEZ",
      "house": "118 A",
      "postcode": "1070-146",
      "city": "LISBOA",
      "lon": "-9.170635679521478",
      "lat": "38.733915530870995"
    },
    {
      "id": "pt.ine.add.PTCONT.2533152",
      "street": "R INACIO PARDELHAS SANCHEZ",
      "house": "133",
      "postcode": "1070-146",
      "city": "LISBOA",
      "lon": "-9.170602778936363",
      "lat": "38.73323122698262"
    },
    {
      "id": "pt.ine.add.PTCONT.2549815",
      "street": "R INÁCIO PARDELHAS SANCHEZ PATIO",
      "house": "5",
      "postcode": "1070-146",
      "city": "LISBOA",
      "lon": "-9.170568021733592",
      "lat": "38.73321351977576"
    },
    {
      "id": "pt.ine.add.PTCONT.2559002",
      "street": "R INÁCIO PARDELHAS SANCHEZ",
      "house": "123 D",
      "postcode": "1070-146",
      "city": "LISBOA",
      "lon": "-9.170574406060341",
      "lat": "38.73365484732267"
    },
    {
      "id": "pt.ine.add.PTCONT.2559003",
      "street": "R INÁCIO PARDELHAS SANCHEZ",
      "house": "123 D",
      "postcode": "1070-146",
      "city": "LISBOA",
      "lon": "-9.170574406060341",
      "lat": "38.73365484732267"
    },
    {
      "id": "pt.ine.add.PTCONT.2559004",
      "street": "R INÁCIO PARDELHAS SANCHEZ",
      "house": "123 D",
      "postcode": "1070-146",
      "city": "LISBOA",
      "lon": "-9.170574406060341",
      "lat": "38.73365484732267"
    },
    {
      "id": "pt.ine.add.PTCONT.2559005",
      "street": "R INÁCIO PARDELHAS SANCHEZ",
      "house": "123 D",
      "postcode": "1070-146",
      "city": "LISBOA",
      "lon": "-9.170574406060341",
      "lat": "38.73365484732267"
    },
    {
      "id": "pt.ine.add.PTCONT.2559006",
      "street": "R INÁCIO PARDELHAS SANCHEZ",
      "house": "123 D",
      "postcode": "1070-146",
      "city": "LISBOA",
      "lon": "-9.170574406060341",
      "lat": "38.73365484732267"
    },
    {
      "id": "pt.ine.add.PTCONT.2559026",
      "street": "R INÁCIO PARDELHAS SANCHEZ",
      "house": "123 D",
      "postcode": "1070-146",
      "city": "LISBOA",
      "lon": "-9.170574406060341",
      "lat": "38.73365484732267"
    },
    {
      "id": "pt.ine.add.PTCONT.2559027",
      "street": "R INÁCIO PARDELHAS SANCHEZ",
      "house": "123 D",
      "postcode": "1070-146",
      "city": "LISBOA",
      "lon": "-9.170574406060341",
      "lat": "38.73365484732267"
    },
    {
      "id": "pt.ine.add.PTCONT.2578320",
      "street": "R INÁCIO PARDELHAS SANCHEZ",
      "house": "127",
      "postcode": "1070-146",
      "city": "LISBOA",
      "lon": "-9.170489483856008",
      "lat": "38.733349334392756"
    },
    {
      "id": "pt.ine.add.PTCONT.2596574",
      "street": "R INACIO PARDELHAS SANCHEZ",
      "house": "113",
      "postcode": "1070-146",
      "city": "LISBOA",
      "lon": "-9.17059844631869",
      "lat": "38.73372669668526"
    },
    {
      "id": "pt.ine.add.PTCONT.2620939",
      "street": "R INÁCIO PARDELHAS SANCHEZ",
      "house": "4",
      "postcode": "1070-146",
      "city": "LISBOA",
      "lon": "-9.170705064353331",
      "lat": "38.73394193853631"
    },
    {
      "id": "pt.ine.add.PTCONT.2647998",
      "street": "R INÁCIO PARDELHAS SANCHEZ",
      "house": "133",
      "postcode": "1070-146",
      "city": "LISBOA",
      "lon": "-9.170729657475386",
      "lat": "38.73325712435105"
    },
    {
      "id": "pt.ine.add.PTCONT.2653310",
      "street": "R INACIO PARDELHAS SANCHEZ",
      "house": "113",
      "postcode": "1070-146",
      "city": "LISBOA",
      "lon": "-9.170955304857989",
      "lat": "38.73375055243292"
    },
    {
      "id": "pt.ine.add.PTCONT.2658785",
      "street": "R INACIO PARDELHAS SANCHEZ",
      "house": "113",
      "postcode": "1070-146",
      "city": "LISBOA",
      "lon": "-9.170795362052594",
      "lat": "38.733824035075855"
    },
    {
      "id": "pt.ine.add.PTCONT.2675729",
      "street": "R JOSE ANASTACIO DA CUNHA",
      "house": "",
      "postcode": "1070-155",
      "city": "LISBOA",
      "lon": "-9.171028758611499",
      "lat": "38.73326347686915"
    },
    {
      "id": "pt.ine.add.PTCONT.2681008",
      "street": "R JOSE ANASTACIO DA CUNHA",
      "house": "",
      "postcode": "1070-155",
      "city": "LISBOA",
      "lon": "-9.171028758611499",
      "lat": "38.73326347686915"
    },
    {
      "id": "pt.ine.add.PTCONT.2702799",
      "street": "R INÁCIO PARDELHAS SANCHEZ PATIO",
      "house": "JAJ",
      "postcode": "1070-146",
      "city": "LISBOA",
      "lon": "-9.170764936002442",
      "lat": "38.733310858246064"
    },
    {
      "id": "pt.ine.add.PTCONT.2702800",
      "street": "R INÁCIO PARDELHAS SANCHEZ PATIO",
      "house": "JAJ",
      "postcode": "1070-146",
      "city": "LISBOA",
      "lon": "-9.170764936002442",
      "lat": "38.733310858246064"
    },
    {
      "id": "pt.ine.add.PTCONT.2702977",
      "street": "R INÁCIO PARDELHAS SANCHEZ PATIO",
      "house": "JAJ",
      "postcode": "1070-146",
      "city": "LISBOA",
      "lon": "-9.170764936002442",
      "lat": "38.733310858246064"
    },
    {
      "id": "pt.ine.add.PTCONT.2702978",
      "street": "R INÁCIO PARDELHAS SANCHEZ PATIO",
      "house": "JAJ",
      "postcode": "1070-146",
      "city": "LISBOA",
      "lon": "-9.170764936002442",
      "lat": "38.733310858246064"
    },
    {
      "id": "pt.ine.add.PTCONT.2711318",
      "street": "R INÁCIO PARDELHAS SANCHEZ",
      "house": "116",
      "postcode": "1070-146",
      "city": "LISBOA",
      "lon": "-9.170509320990895",
      "lat": "38.733925660155364"
    },
    {
      "id": "pt.ine.add.PTCONT.2725779",
      "street": "R INACIO PARDELHAS SANCHEZ",
      "house": "113",
      "postcode": "1070-146",
      "city": "LISBOA",
      "lon": "-9.17089911343152",
      "lat": "38.7338411297095"
    },
    {
      "id": "pt.ine.add.PTCONT.2755207",
      "street": "R INÁCIO PARDELHAS SANCHEZ",
      "house": "130",
      "postcode": "1070-146",
      "city": "LISBOA",
      "lon": "-9.170532222257643",
      "lat": "38.733123759076925"
    },
    {
      "id": "pt.ine.add.PTCONT.2755208",
      "street": "R INÁCIO PARDELHAS SANCHEZ",
      "house": "130",
      "postcode": "1070-146",
      "city": "LISBOA",
      "lon": "-9.170532222257643",
      "lat": "38.733123759076925"
    },
    {
      "id": "pt.ine.add.PTCONT.2760459",
      "street": "R JOSE ANASTACIO DA CUNHA",
      "house": "",
      "postcode": "1070-155",
      "city": "LISBOA",
      "lon": "-9.171030974553668",
      "lat": "38.733416590488105"
    },
    {
      "id": "pt.ine.add.PTCONT.2772733",
      "street": "R INÁCIO PARDELHAS SANCHEZ PATIO",
      "house": "3",
      "postcode": "1070-146",
      "city": "LISBOA",
      "lon": "-9.17052277430769",
      "lat": "38.73406065836505"
    },
    {
      "id": "pt.ine.add.PTCONT.2780643",
      "street": "R INÁCIO PARDELHAS SANCHEZ",
      "house": "107",
      "postcode": "1070-146",
      "city": "LISBOA",
      "lon": "-9.170641054273334",
      "lat": "38.7334921146613"
    },
    {
      "id": "pt.ine.add.PTCONT.2780644",
      "street": "R INÁCIO PARDELHAS SANCHEZ",
      "house": "107",
      "postcode": "1070-146",
      "city": "LISBOA",
      "lon": "-9.170641054273334",
      "lat": "38.7334921146613"
    },
    {
      "id": "pt.ine.add.PTCONT.2780645",
      "street": "R INÁCIO PARDELHAS SANCHEZ",
      "house": "107",
      "postcode": "1070-146",
      "city": "LISBOA",
      "lon": "-9.170641054273334",
      "lat": "38.7334921146613"
    },
    {
      "id": "pt.ine.add.PTCONT.2780646",
      "street": "R INÁCIO PARDELHAS SANCHEZ",
      "house": "107",
      "postcode": "1070-146",
      "city": "LISBOA",
      "lon": "-9.170641054273334",
      "lat": "38.7334921146613"
    },
    {
      "id": "pt.ine.add.PTCONT.2780689",
      "street": "R INÁCIO PARDELHAS SANCHEZ",
      "house": "107",
      "postcode": "1070-146",
      "city": "LISBOA",
      "lon": "-9.170641054273334",
      "lat": "38.7334921146613"
    },
    {
      "id": "pt.ine.add.PTCONT.2795986",
      "street": "R ARCOS",
      "house": "130 C",
      "postcode": "1070-011",
      "city": "LISBOA",
      "lon": "-9.170704574791268",
      "lat": "38.73311322153186"
    },
    {
      "id": "pt.ine.add.PTCONT.2834738",
      "street": "R INÁCIO PARDELHAS SANCHEZ",
      "house": "133",
      "postcode": "1070-146",
      "city": "LISBOA",
      "lon": "-9.170487529636683",
      "lat": "38.73321423411619"
    },
    {
      "id": "pt.ine.add.PTCONT.2834739",
      "street": "R INÁCIO PARDELHAS SANCHEZ",
      "house": "133",
      "postcode": "1070-146",
      "city": "LISBOA",
      "lon": "-9.170487529636683",
      "lat": "38.73321423411619"
    },
    {
      "id": "pt.ine.add.PTCONT.2834740",
      "street": "R INÁCIO PARDELHAS SANCHEZ",
      "house": "133",
      "postcode": "1070-146",
      "city": "LISBOA",
      "lon": "-9.170487529636683",
      "lat": "38.73321423411619"
    },
    {
      "id": "pt.ine.add.PTCONT.2834741",
      "street": "R INÁCIO PARDELHAS SANCHEZ",
      "house": "133",
      "postcode": "1070-146",
      "city": "LISBOA",
      "lon": "-9.170487529636683",
      "lat": "38.73321423411619"
    },
    {
      "id": "pt.ine.add.PTCONT.2862121",
      "street": "R INÁCIO PARDELHAS SANCHEZ",
      "house": "1",
      "postcode": "1070-146",
      "city": "LISBOA",
      "lon": "-9.170506194122156",
      "lat": "38.733709499734076"
    },
    {
      "id": "pt.ine.add.PTCONT.2869173",
      "street": "R INACIO PARDELHAS SANCHEZ",
      "house": "123",
      "postcode": "1070-146",
      "city": "LISBOA",
      "lon": "-9.170744674822048",
      "lat": "38.733500202756034"
    },
    {
      "id": "pt.ine.add.PTCONT.2898814",
      "street": "R INÁCIO PARDELHAS SANCHEZ PATIO",
      "house": "2",
      "postcode": "1070-146",
      "city": "LISBOA",
      "lon": "-9.170545511737014",
      "lat": "38.734042440895244"
    },
    {
      "id": "pt.ine.add.PTCONT.2943900",
      "street": "R INÁCIO PARDELHAS SANCHEZ",
      "house": "133",
      "postcode": "1070-146",
      "city": "LISBOA",
      "lon": "-9.170683661966187",
      "lat": "38.733257532616356"
    },
    {
      "id": "pt.ine.add.PTCONT.2943959",
      "street": "R INÁCIO PARDELHAS SANCHEZ",
      "house": "1",
      "postcode": "1070-146",
      "city": "LISBOA",
      "lon": "-9.170655289561516",
      "lat": "38.73368115296769"
    },
    {
      "id": "pt.ine.add.PTCONT.2962783",
      "street": "R INÁCIO PARDELHAS SANCHEZ PATIO",
      "house": "3",
      "postcode": "1070-146",
      "city": "LISBOA",
      "lon": "-9.170704543107584",
      "lat": "38.73390591180234"
    },
    {
      "id": "pt.ine.add.PTCONT.2971713",
      "street": "R INÁCIO PARDELHAS SANCHEZ",
      "house": "1",
      "postcode": "1070-146",
      "city": "LISBOA",
      "lon": "-9.170533361281251",
      "lat": "38.73399750952773"
    },
    {
      "id": "pt.ine.add.PTCONT.2987054",
      "street": "R INACIO PARDELHAS SANCHEZ",
      "house": "133",
      "postcode": "1070-146",
      "city": "LISBOA",
      "lon": "-9.170626037279932",
      "lat": "38.7332490362378"
    },
    {
      "id": "pt.ine.add.PTCONT.2989891",
      "street": "R INÁCIO PARDELHAS SANCHEZ",
      "house": "122",
      "postcode": "1070-146",
      "city": "LISBOA",
      "lon": "-9.17068115421985",
      "lat": "38.733879095884355"
    },
    {
      "id": "pt.ine.add.PTCONT.3017530",
      "street": "R INÁCIO PARDELHAS SANCHEZ",
      "house": "122",
      "postcode": "1070-146",
      "city": "LISBOA",
      "lon": "-9.170772494436298",
      "lat": "38.733833245909636"
    },
    {
      "id": "pt.ine.add.PTCONT.3055993",
      "street": "R INACIO PARDELHAS SANCHEZ",
      "house": "123",
      "postcode": "1070-146",
      "city": "LISBOA",
      "lon": "-9.170697376073113",
      "lat": "38.73341054418702"
    },
    {
      "id": "pt.ine.add.PTCONT.3083174",
      "street": "R INÁCIO PARDELHAS SANCHEZ",
      "house": "180 C",
      "postcode": "1070-146",
      "city": "LISBOA",
      "lon": "-9.17058929269811",
      "lat": "38.73388891905354"
    },
    {
      "id": "pt.ine.add.PTCONT.3093861",
      "street": "R INACIO PARDELHAS SANCHEZ",
      "house": "122",
      "postcode": "1070-146",
      "city": "LISBOA",
      "lon": "-9.170773146034602",
      "lat": "38.733878279326646"
    },
    {
      "id": "pt.ine.add.PTCONT.3093863",
      "street": "R INÁCIO PARDELHAS SANCHEZ PATIO",
      "house": "130B",
      "postcode": "1070-146",
      "city": "LISBOA",
      "lon": "-9.170856145120888",
      "lat": "38.73325600152817"
    },
    {
      "id": "pt.ine.add.PTCONT.3111952",
      "street": "R INACIO PARDELHAS SANCHEZ",
      "house": "113",
      "postcode": "1070-146",
      "city": "LISBOA",
      "lon": "-9.170770669968798",
      "lat": "38.73370715234007"
    },
    {
      "id": "pt.ine.add.PTCONT.3147513",
      "street": "R INÁCIO PARDELHAS SANCHEZ",
      "house": "123 B",
      "postcode": "1070-146",
      "city": "LISBOA",
      "lon": "-9.17078975824569",
      "lat": "38.73343674767691"
    },
    {
      "id": "pt.ine.add.PTCONT.3173564",
      "street": "R INACIO PARDELHAS SANCHEZ",
      "house": "113",
      "postcode": "1070-146",
      "city": "LISBOA",
      "lon": "-9.170713044910698",
      "lat": "38.73369865601019"
    },
    {
      "id": "pt.ine.add.PTCONT.3199949",
      "street": "R INÁCIO PARDELHAS SANCHEZ",
      "house": "1184",
      "postcode": "1070-146",
      "city": "LISBOA",
      "lon": "-9.170490395829507",
      "lat": "38.733412381187364"
    },
    {
      "id": "pt.ine.add.PTCONT.3208567",
      "street": "R INACIO PARDELHAS SANCHEZ",
      "house": "113",
      "postcode": "1070-146",
      "city": "LISBOA",
      "lon": "-9.170679460217414",
      "lat": "38.73376200899593"
    },
    {
      "id": "pt.ine.add.PTCONT.3214067",
      "street": "R INÁCIO PARDELHAS SANCHEZ",
      "house": "113",
      "postcode": "1070-146",
      "city": "LISBOA",
      "lon": "-9.170898201084784",
      "lat": "38.733778082927685"
    },
    {
      "id": "pt.ine.add.PTCONT.3221591",
      "street": "R INÁCIO PARDELHAS SANCHEZ",
      "house": "1",
      "postcode": "1070-146",
      "city": "LISBOA",
      "lon": "-9.170580008748033",
      "lat": "38.73404213473355"
    },
    {
      "id": "pt.ine.add.PTCONT.3250954",
      "street": "R INACIO PARDELHAS SANCHEZ",
      "house": "116 PTA 4",
      "postcode": "1070-146",
      "city": "LISBOA",
      "lon": "-9.170614896660725",
      "lat": "38.73406884861233"
    },
    {
      "id": "pt.ine.add.PTCONT.3250964",
      "street": "R INÁCIO PARDELHAS SANCHEZ",
      "house": "118",
      "postcode": "1070-146",
      "city": "LISBOA",
      "lon": "-9.170508539270564",
      "lat": "38.73387162005081"
    },
    {
      "id": "pt.ine.add.PTCONT.3398812",
      "street": "R INACIO PARDELHAS SANCHEZ",
      "house": "122",
      "postcode": "1070-146",
      "city": "LISBOA",
      "lon": "-9.170691871339738",
      "lat": "38.73382495371675"
    },
    {
      "id": "pt.ine.add.PTCONT.3407578",
      "street": "R INACIO PARDELHAS SANCHEZ",
      "house": "113",
      "postcode": "1070-146",
      "city": "LISBOA",
      "lon": "-9.170909178699365",
      "lat": "38.73374195410817"
    },
    {
      "id": "pt.ine.add.PTCONT.3425539",
      "street": "R INACIO PARDELHAS SANCHEZ",
      "house": "113",
      "postcode": "1070-146",
      "city": "LISBOA",
      "lon": "-9.170817317388162",
      "lat": "38.73375177745393"
    },
    {
      "id": "pt.ine.add.PTCONT.3437471",
      "street": "R ARCOS",
      "house": "130 C",
      "postcode": "1070-011",
      "city": "LISBOA",
      "lon": "-9.170704574791268",
      "lat": "38.73311322153186"
    },
    {
      "id": "pt.ine.add.PTCONT.3447027",
      "street": "R INACIO PARDELHAS SANCHEZ",
      "house": "118C",
      "postcode": "1070-146",
      "city": "LISBOA",
      "lon": "-9.17063528861359",
      "lat": "38.7338885108198"
    },
    {
      "id": "pt.ine.add.PTCONT.3451427",
      "street": "R INÁCIO PARDELHAS SANCHEZ",
      "house": "130",
      "postcode": "1070-146",
      "city": "LISBOA",
      "lon": "-9.170694118388434",
      "lat": "38.73318537707488"
    },
    {
      "id": "pt.ine.add.PTCONT.3453953",
      "street": "R INÁCIO PARDELHAS SANCHEZ",
      "house": "1",
      "postcode": "1070-146",
      "city": "LISBOA",
      "lon": "-9.170555447223803",
      "lat": "38.73393425863667"
    },
    {
      "id": "pt.ine.add.PTCONT.3457647",
      "street": "R INÁCIO PARDELHAS SANCHEZ",
      "house": "118 A",
      "postcode": "1070-146",
      "city": "LISBOA",
      "lon": "-9.170635679521478",
      "lat": "38.733915530870995"
    }
  ]
}