{
  "data": {
    "distrito": "Porto",
    "concelho": "Póvoa de Varzim",
    "freguesia": "União das freguesias da Póvoa de Varzim, Beiriz e Argivai",
    "OBJECTID": 146,
    "BGRI2021": "13131502911",
    "DT21": "13",
    "DTMN21": "1313",
    "DTMNFR21": "131315",
    "DTMNFRSEC21": "131315029",
    "SECNUM21": "029",
    "SSNUM21": "11",
    "SECSSNUM21": "02911",
    "OBJECTID_1": 140148,
    "DT": "13",
    "CC": "13",
    "fr": "15",
    "SEC": "029",
    "SS": "11"
  },
  "addresses": [
    {
      "id": "pt.ine.add.PTCONT.3577586",
      "street": "R DE ANTÓNIO BAPTISTA DE ALMEIDA - NOVA SINTRA",
      "house": "92",
      "postcode": "4490-668",
      "city": "PÓVOA DE VARZIM",
      "lon": "-8.751888634875066",
      "lat": "41.380219109591366"
    },
    {
      "id": "pt.ine.add.PTCONT.3594778",
      "street": "R SACRA FAMILIA",
      "house": "298",
      "postcode": "4490-548",
      "city": "PÓVOA DE VARZIM",
      "lon": "-8.75197547036286",
      "lat": "41.38055178957097"
    },
    {
      "id": "pt.ine.add.PTCONT.3607237",
      "street": "BR NOVA SINTRA",
      "house": "94",
      "postcode": "4490-669",
      "city": "PÓVOA DE VARZIM",
      "lon": "-8.7517810497974",
      "lat": "41.38021968806528"
    },
    {
      "id": "pt.ine.add.PTCONT.3620510",
      "street": "BR NOVA SINTRA",
      "house": "99",
      "postcode": "4490-669",
      "city": "PÓVOA DE VARZIM",
      "lon": "-8.751314506695937",
      "lat": "41.38018617956662"
    },
    {
      "id": "pt.ine.add.PTCONT.3632893",
      "street": "R SACRA FAMILIA",
      "house": "36",
      "postcode": "4490-548",
      "city": "PÓVOA DE VARZIM",
      "lon": "-8.752442528919543",
      "lat": "41.3806393164369"
    },
    {
      "id": "pt.ine.add.PTCONT.3632894",
      "street": "R SACRA FAMILIA",
      "house": "36",
      "postcode": "4490-548",
      "city": "PÓVOA DE VARZIM",
      "lon": "-8.752442528919543",
      "lat": "41.3806393164369"
    },
    {
      "id": "pt.ine.add.PTCONT.3642535",
      "street": "R SACRA FAMILIA",
      "house": "240",
      "postcode": "4490-548",
      "city": "PÓVOA DE VARZIM",
      "lon": "-8.752645746455599",
      "lat": "41.380638222502355"
    },
    {
      "id": "pt.ine.add.PTCONT.3642539",
      "street": "R SACRA FAMILIA",
      "house": "240",
      "postcode": "4490-548",
      "city": "PÓVOA DE VARZIM",
      "lon": "-8.752645746455599",
      "lat": "41.380638222502355"
    },
    {
      "id": "pt.ine.add.PTCONT.3642540",
      "street": "R SACRA FAMILIA",
      "house": "240",
      "postcode": "4490-548",
      "city": "PÓVOA DE VARZIM",
      "lon": "-8.752645746455599",
      "lat": "41.380638222502355"
    },
    {
      "id": "pt.ine.add.PTCONT.3642625",
      "street": "R SACRA FAMILIA",
      "house": "240",
      "postcode": "4490-548",
      "city": "PÓVOA DE VARZIM",
      "lon": "-8.752645746455599",
      "lat": "41.380638222502355"
    },
    {
      "id": "pt.ine.add.PTCONT.3645867",
      "street": "BR NOVA SINTRA",
      "house": "42",
      "postcode": "4490-669",
      "city": "PÓVOA DE VARZIM",
      "lon": "-8.753334628449352",
      "lat": "41.38016630501111"
    },
    {
      "id": "pt.ine.add.PTCONT.3671691",
      "street": "BR NOVA SINTRA",
      "house": "45",
      "postcode": "4490-669",
      "city": "PÓVOA DE VARZIM",
      "lon": "-8.753095636264492",
      "lat": "41.380176596886166"
    },
    {
      "id": "pt.ine.add.PTCONT.3741330",
      "street": "R SACRA FAMILIA",
      "house": "92",
      "postcode": "4490-548",
      "city": "PÓVOA DE VARZIM",
      "lon": "-8.75148467573012",
      "lat": "41.38048239630626"
    },
    {
      "id": "pt.ine.add.PTCONT.3790805",
      "street": "R SACRA FAMILIA",
      "house": "292",
      "postcode": "4490-548",
      "city": "PÓVOA DE VARZIM",
      "lon": "-8.75213095719357",
      "lat": "41.38055995720949"
    },
    {
      "id": "pt.ine.add.PTCONT.3790806",
      "street": "R SACRA FAMILIA",
      "house": "282",
      "postcode": "4490-548",
      "city": "PÓVOA DE VARZIM",
      "lon": "-8.75213095719357",
      "lat": "41.38055995720949"
    },
    {
      "id": "pt.ine.add.PTCONT.3837171",
      "street": "BR NOVA SINTRA",
      "house": "43",
      "postcode": "4490-669",
      "city": "PÓVOA DE VARZIM",
      "lon": "-8.753262905142222",
      "lat": "41.38016669157241"
    },
    {
      "id": "pt.ine.add.PTCONT.3843160",
      "street": "BR NOVA SINTRA",
      "house": "46",
      "postcode": "4490-669",
      "city": "PÓVOA DE VARZIM",
      "lon": "-8.753023912942803",
      "lat": "41.38017698329861"
    },
    {
      "id": "pt.ine.add.PTCONT.3847143",
      "street": "BR NOVA SINTRA",
      "house": "48",
      "postcode": "4490-669",
      "city": "PÓVOA DE VARZIM",
      "lon": "-8.752796874551425",
      "lat": "41.380187210154766"
    },
    {
      "id": "pt.ine.add.PTCONT.3859170",
      "street": "BR NOVA SINTRA",
      "house": "47",
      "postcode": "4490-669",
      "city": "PÓVOA DE VARZIM",
      "lon": "-8.752868597887426",
      "lat": "41.38018682388376"
    },
    {
      "id": "pt.ine.add.PTCONT.3905175",
      "street": "R SACRA FAMILIA",
      "house": "90",
      "postcode": "4490-548",
      "city": "PÓVOA DE VARZIM",
      "lon": "-8.751580477906627",
      "lat": "41.38049988938242"
    },
    {
      "id": "pt.ine.add.PTCONT.3949671",
      "street": "BR NOVA SINTRA",
      "house": "95",
      "postcode": "4490-669",
      "city": "PÓVOA DE VARZIM",
      "lon": "-8.751613524612413",
      "lat": "41.380202580686344"
    },
    {
      "id": "pt.ine.add.PTCONT.3979821",
      "street": "R SACRA FAMILIA",
      "house": "314",
      "postcode": "4490-548",
      "city": "PÓVOA DE VARZIM",
      "lon": "-8.751819812896168",
      "lat": "41.38052561469642"
    },
    {
      "id": "pt.ine.add.PTCONT.4013800",
      "street": "BR NOVA SINTRA",
      "house": "44",
      "postcode": "4490-669",
      "city": "PÓVOA DE VARZIM",
      "lon": "-8.753167359584777",
      "lat": "41.380176210429056"
    },
    {
      "id": "pt.ine.add.PTCONT.4040091",
      "street": "R SACRA FAMILIA",
      "house": "40",
      "postcode": "4490-548",
      "city": "PÓVOA DE VARZIM",
      "lon": "-8.75111401813237",
      "lat": "41.38047538359952"
    },
    {
      "id": "pt.ine.add.PTCONT.4066626",
      "street": "BR NOVA SINTRA",
      "house": "100",
      "postcode": "4490-669",
      "city": "PÓVOA DE VARZIM",
      "lon": "-8.751242868595126",
      "lat": "41.380195568383364"
    },
    {
      "id": "pt.ine.add.PTCONT.4073330",
      "street": "R SACRA FAMILIA",
      "house": "350",
      "postcode": "4490-548",
      "city": "PÓVOA DE VARZIM",
      "lon": "-8.751341228369721",
      "lat": "41.380483167082915"
    },
    {
      "id": "pt.ine.add.PTCONT.4125245",
      "street": "BR NOVA SINTRA",
      "house": "97",
      "postcode": "4490-669",
      "city": "PÓVOA DE VARZIM",
      "lon": "-8.75147007787036",
      "lat": "41.38020335161938"
    },
    {
      "id": "pt.ine.add.PTCONT.4145200",
      "street": "BR NOVA SINTRA",
      "house": "91",
      "postcode": "4490-669",
      "city": "PÓVOA DE VARZIM",
      "lon": "-8.75196044361304",
      "lat": "41.380227727399266"
    },
    {
      "id": "pt.ine.add.PTCONT.4151591",
      "street": "R SACRA FAMILIA",
      "house": "88",
      "postcode": "4490-548",
      "city": "PÓVOA DE VARZIM",
      "lon": "-8.751724181265924",
      "lat": "41.380526128846334"
    },
    {
      "id": "pt.ine.add.PTCONT.4151592",
      "street": "R SACRA FAMILIA",
      "house": "88",
      "postcode": "4490-548",
      "city": "PÓVOA DE VARZIM",
      "lon": "-8.751724181265924",
      "lat": "41.380526128846334"
    },
    {
      "id": "pt.ine.add.PTCONT.4151601",
      "street": "BR NOVA SINTRA",
      "house": "41",
      "postcode": "4490-669",
      "city": "PÓVOA DE VARZIM",
      "lon": "-8.753454081731034",
      "lat": "41.3801566571323"
    },
    {
      "id": "pt.ine.add.PTCONT.4184910",
      "street": "BR NOVA SINTRA",
      "house": "96",
      "postcode": "4490-669",
      "city": "PÓVOA DE VARZIM",
      "lon": "-8.751541801242087",
      "lat": "41.380202966175204"
    },
    {
      "id": "pt.ine.add.PTCONT.4243302",
      "street": "BR NOVA SINTRA",
      "house": "50",
      "postcode": "4490-669",
      "city": "PÓVOA DE VARZIM",
      "lon": "-8.75268937499985",
      "lat": "41.380196792989324"
    },
    {
      "id": "pt.ine.add.PTCONT.4250152",
      "street": "R SACRA FAMILIA",
      "house": "250",
      "postcode": "4490-548",
      "city": "PÓVOA DE VARZIM",
      "lon": "-8.75253807526709",
      "lat": "41.38062979817743"
    },
    {
      "id": "pt.ine.add.PTCONT.4250153",
      "street": "R SACRA FAMILIA",
      "house": "250",
      "postcode": "4490-548",
      "city": "PÓVOA DE VARZIM",
      "lon": "-8.75253807526709",
      "lat": "41.38062979817743"
    },
    {
      "id": "pt.ine.add.PTCONT.4250154",
      "street": "R SACRA FAMILIA",
      "house": "250",
      "postcode": "4490-548",
      "city": "PÓVOA DE VARZIM",
      "lon": "-8.75253807526709",
      "lat": "41.38062979817743"
    },
    {
      "id": "pt.ine.add.PTCONT.4250155",
      "street": "R SACRA FAMILIA",
      "house": "250",
      "postcode": "4490-548",
      "city": "PÓVOA DE VARZIM",
      "lon": "-8.75253807526709",
      "lat": "41.38062979817743"
    },
    {
      "id": "pt.ine.add.PTCONT.4289643",
      "street": "BR NOVA SINTRA",
      "house": "49",
      "postcode": "4490-669",
      "city": "PÓVOA DE VARZIM",
      "lon": "-8.752737105103687",
      "lat": "41.380187532013124"
    },
    {
      "id": "pt.ine.add.PTCONT.4316508",
      "street": "BR NOVA SINTRA",
      "house": "93",
      "postcode": "4490-669",
      "city": "PÓVOA DE VARZIM",
      "lon": "-8.751828865387862",
      "lat": "41.38021943097817"
    },
    {
      "id": "pt.ine.add.PTCONT.4387469",
      "street": "BR NOVA SINTRA",
      "house": "Q8",
      "postcode": "4490-669",
      "city": "PÓVOA DE VARZIM",
      "lon": "-8.751386315326224",
      "lat": "41.38019479773365"
    },
    {
      "id": "pt.ine.add.PTCONT.4387832",
      "street": "R SACRA FAMILIA",
      "house": "38",
      "postcode": "4490-548",
      "city": "PÓVOA DE VARZIM",
      "lon": "-8.75238267363977",
      "lat": "41.38063063460234"
    }
  ]
}