{
  "data": {
    "distrito": "Coimbra",
    "concelho": "Soure",
    "freguesia": "Uni√£o das freguesias de Degracias e Pombalinho",
    "OBJECTID": 40,
    "BGRI2021": "06151300104",
    "DT21": "06",
    "DTMN21": "0615",
    "DTMNFR21": "061513",
    "DTMNFRSEC21": "061513001",
    "SECNUM21": "001",
    "SSNUM21": "04",
    "SECSSNUM21": "00104",
    "OBJECTID_1": 57320,
    "DT": "06",
    "CC": "15",
    "fr": "13",
    "SEC": "001",
    "SS": "04"
  },
  "addresses": [
    {
      "id": "pt.ine.add.PTCONT.1115785",
      "street": "R CARVALHOSA",
      "house": "",
      "postcode": "3130-098",
      "city": "POMBALINHO SRE",
      "lon": "-8.535099092304943",
      "lat": "39.955228767833425"
    },
    {
      "id": "pt.ine.add.PTCONT.1115786",
      "street": "R CARVALHOSA",
      "house": "",
      "postcode": "3130-098",
      "city": "POMBALINHO SRE",
      "lon": "-8.534852601721383",
      "lat": "39.95510353506652"
    },
    {
      "id": "pt.ine.add.PTCONT.1132553",
      "street": "R ALTO DA CARVALHOSA",
      "house": "",
      "postcode": "3130-098",
      "city": "POMBALINHO SRE",
      "lon": "-8.535435035087918",
      "lat": "39.95464219751955"
    },
    {
      "id": "pt.ine.add.PTCONT.1139244",
      "street": "R PRINCIPAL",
      "house": "",
      "postcode": "3130-098",
      "city": "POMBALINHO SRE",
      "lon": "-8.533748326888029",
      "lat": "39.95638624105287"
    },
    {
      "id": "pt.ine.add.PTCONT.1139245",
      "street": "R CARVALHOSA",
      "house": "",
      "postcode": "3130-098",
      "city": "POMBALINHO SRE",
      "lon": "-8.533845661421244",
      "lat": "39.955016957830246"
    },
    {
      "id": "pt.ine.add.PTCONT.1154694",
      "street": "R BELEZA",
      "house": "",
      "postcode": "3130-098",
      "city": "POMBALINHO SRE",
      "lon": "-8.530816961001563",
      "lat": "39.955414655472424"
    },
    {
      "id": "pt.ine.add.PTCONT.1154695",
      "street": "R ALTO DA CARVALHOSA",
      "house": "",
      "postcode": "3130-098",
      "city": "POMBALINHO SRE",
      "lon": "-8.53570450748003",
      "lat": "39.954695299410616"
    },
    {
      "id": "pt.ine.add.PTCONT.1169035",
      "street": "R DA BELEZA",
      "house": "",
      "postcode": "3130-098",
      "city": "POMBALINHO SRE",
      "lon": "-8.531778452893134",
      "lat": "39.955735577274915"
    },
    {
      "id": "pt.ine.add.PTCONT.1170626",
      "street": "R BELEZA",
      "house": "",
      "postcode": "3130-098",
      "city": "POMBALINHO SRE",
      "lon": "-8.531297601370197",
      "lat": "39.95555710527764"
    },
    {
      "id": "pt.ine.add.PTCONT.1221687",
      "street": "R CARVALHOSA",
      "house": "",
      "postcode": "3130-098",
      "city": "POMBALINHO SRE",
      "lon": "-8.53483051405166",
      "lat": "39.955328767345144"
    },
    {
      "id": "pt.ine.add.PTCONT.1255911",
      "street": "R CARVALHOSA",
      "house": "",
      "postcode": "3130-098",
      "city": "POMBALINHO SRE",
      "lon": "-8.534257510825222",
      "lat": "39.95540280133512"
    },
    {
      "id": "pt.ine.add.PTCONT.1264227",
      "street": "R PRINCIPAL",
      "house": "",
      "postcode": "3130-098",
      "city": "POMBALINHO SRE",
      "lon": "-8.53533757444947",
      "lat": "39.95598446386984"
    },
    {
      "id": "pt.ine.add.PTCONT.1264228",
      "street": "R CARVALHOSA",
      "house": "",
      "postcode": "3130-098",
      "city": "POMBALINHO SRE",
      "lon": "-8.535113220411995",
      "lat": "39.955643005383685"
    },
    {
      "id": "pt.ine.add.PTCONT.1268062",
      "street": "",
      "house": "",
      "postcode": "3130-098",
      "city": "POMBALINHO SRE",
      "lon": "-8.530966589261288",
      "lat": "39.95498184300884"
    },
    {
      "id": "pt.ine.add.PTCONT.1278150",
      "street": "R BELEZA",
      "house": "",
      "postcode": "3130-098",
      "city": "POMBALINHO SRE",
      "lon": "-8.532811008556495",
      "lat": "39.956200345736455"
    },
    {
      "id": "pt.ine.add.PTCONT.1287251",
      "street": "R CARVALHOSA",
      "house": "",
      "postcode": "3130-098",
      "city": "POMBALINHO SRE",
      "lon": "-8.53363538449609",
      "lat": "39.955080728113536"
    },
    {
      "id": "pt.ine.add.PTCONT.1287252",
      "street": "R CARVALHOSA",
      "house": "",
      "postcode": "3130-098",
      "city": "POMBALINHO SRE",
      "lon": "-8.534479280094589",
      "lat": "39.95530296522061"
    },
    {
      "id": "pt.ine.add.PTCONT.1296806",
      "street": "R ALTO DA CARVALHOSA",
      "house": "",
      "postcode": "3130-098",
      "city": "POMBALINHO SRE",
      "lon": "-8.536546764465147",
      "lat": "39.95463833404317"
    },
    {
      "id": "pt.ine.add.PTCONT.1314608",
      "street": "",
      "house": "",
      "postcode": "3130-098",
      "city": "POMBALINHO SRE",
      "lon": "-8.53706034602595",
      "lat": "39.95441138989254"
    },
    {
      "id": "pt.ine.add.PTCONT.1357815",
      "street": "",
      "house": "",
      "postcode": "3130-098",
      "city": "POMBALINHO SRE",
      "lon": "-8.531001070419398",
      "lat": "39.95487364990038"
    },
    {
      "id": "pt.ine.add.PTCONT.1359704",
      "street": "R CARVALHOSA",
      "house": "",
      "postcode": "3130-098",
      "city": "POMBALINHO SRE",
      "lon": "-8.534594251576037",
      "lat": "39.95495132415365"
    }
  ]
}