{
  "data": {
    "distrito": "Faro",
    "concelho": "Loulé",
    "freguesia": "Ameixial",
    "OBJECTID": 1892,
    "BGRI2021": "08080300128",
    "DT21": "08",
    "DTMN21": "0808",
    "DTMNFR21": "080803",
    "DTMNFRSEC21": "080803001",
    "SECNUM21": "001",
    "SSNUM21": "28",
    "SECSSNUM21": "00128",
    "OBJECTID_1": 69995,
    "DT": "08",
    "CC": "08",
    "fr": "03",
    "SEC": "001",
    "SS": "28"
  },
  "addresses": [
    {
      "id": "pt.ine.add.PTCONT.1502590",
      "street": "EN 2",
      "house": "8",
      "postcode": "8100-050",
      "city": "AMEIXIAL",
      "lon": "-7.962586466898168",
      "lat": "37.36291476361646"
    },
    {
      "id": "pt.ine.add.PTCONT.1531278",
      "street": "AZ POÇO VELHO",
      "house": "4",
      "postcode": "8100-050",
      "city": "AMEIXIAL",
      "lon": "-7.961885424930632",
      "lat": "37.363427335692194"
    },
    {
      "id": "pt.ine.add.PTCONT.1536056",
      "street": "R ADRO SANTO ANTÓNIO",
      "house": "1",
      "postcode": "8100-050",
      "city": "AMEIXIAL",
      "lon": "-7.962020926452376",
      "lat": "37.36340951124384"
    },
    {
      "id": "pt.ine.add.PTCONT.1578270",
      "street": "R MONTINHO",
      "house": "5",
      "postcode": "8100-050",
      "city": "AMEIXIAL",
      "lon": "-7.961840046138985",
      "lat": "37.36352638284551"
    },
    {
      "id": "pt.ine.add.PTCONT.1598223",
      "street": "R BARRANQUINHO",
      "house": "6",
      "postcode": "8100-050",
      "city": "AMEIXIAL",
      "lon": "-7.962394892244354",
      "lat": "37.36277032311711"
    },
    {
      "id": "pt.ine.add.PTCONT.1611177",
      "street": "R ADRO SANTO ANTÓNIO",
      "house": "1 B",
      "postcode": "8100-050",
      "city": "AMEIXIAL",
      "lon": "-7.962088840773107",
      "lat": "37.36332851712282"
    },
    {
      "id": "pt.ine.add.PTCONT.1769895",
      "street": "EN 2",
      "house": "10",
      "postcode": "8100-050",
      "city": "AMEIXIAL",
      "lon": "-7.962597449403304",
      "lat": "37.363049933349124"
    },
    {
      "id": "pt.ine.add.PTCONT.1775671",
      "street": "R BARRANQUINHO",
      "house": "2",
      "postcode": "8100-050",
      "city": "AMEIXIAL",
      "lon": "-7.961910376113191",
      "lat": "37.36238218164128"
    },
    {
      "id": "pt.ine.add.PTCONT.1775672",
      "street": "R BARRANQUINHO",
      "house": "2",
      "postcode": "8100-050",
      "city": "AMEIXIAL",
      "lon": "-7.961910376113191",
      "lat": "37.36238218164128"
    },
    {
      "id": "pt.ine.add.PTCONT.1781845",
      "street": "R MONTINHO",
      "house": "7",
      "postcode": "8100-050",
      "city": "AMEIXIAL",
      "lon": "-7.961885261151801",
      "lat": "37.36349941752874"
    },
    {
      "id": "pt.ine.add.PTCONT.1796812",
      "street": "AZ POÇO VELHO",
      "house": "2",
      "postcode": "8100-050",
      "city": "AMEIXIAL",
      "lon": "-7.961930476132285",
      "lat": "37.36347245219449"
    },
    {
      "id": "pt.ine.add.PTCONT.1828273",
      "street": "R BARRANQUINHO",
      "house": "4",
      "postcode": "8100-050",
      "city": "AMEIXIAL",
      "lon": "-7.962395075942252",
      "lat": "37.36268923103875"
    },
    {
      "id": "pt.ine.add.PTCONT.1829848",
      "street": "R ADRO SANTO ANTÓNIO",
      "house": "3",
      "postcode": "8100-050",
      "city": "AMEIXIAL",
      "lon": "-7.96217931122523",
      "lat": "37.363256565818745"
    },
    {
      "id": "pt.ine.add.PTCONT.1833891",
      "street": "ESTR CORTE DOURO",
      "house": "",
      "postcode": "8100-050",
      "city": "AMEIXIAL",
      "lon": "-7.960432815800444",
      "lat": "37.36185743873253"
    }
  ]
}