{
  "data": {
    "distrito": "Setúbal",
    "concelho": "Almada",
    "freguesia": "União das freguesias de Caparica e Trafaria",
    "OBJECTID": 1564,
    "BGRI2021": "15031301914",
    "DT21": "15",
    "DTMN21": "1503",
    "DTMNFR21": "150313",
    "DTMNFRSEC21": "150313019",
    "SECNUM21": "019",
    "SSNUM21": "14",
    "SECSSNUM21": "01914",
    "OBJECTID_1": 162060,
    "DT": "15",
    "CC": "03",
    "fr": "13",
    "SEC": "019",
    "SS": "14"
  },
  "addresses": [
    {
      "id": "pt.ine.add.PTCONT.4666916",
      "street": "R JOINAL",
      "house": "",
      "postcode": "2825-088",
      "city": "CAPARICA",
      "lon": "-9.198867055810668",
      "lat": "38.668714798726036"
    },
    {
      "id": "pt.ine.add.PTCONT.4677271",
      "street": "R CONS MANUEL LUIS FERNANDES",
      "house": "10",
      "postcode": "2825-031",
      "city": "CAPARICA",
      "lon": "-9.194882035541942",
      "lat": "38.666517079748886"
    },
    {
      "id": "pt.ine.add.PTCONT.4677272",
      "street": "R CONS MANUEL LUIS FERNANDES",
      "house": "10",
      "postcode": "2825-031",
      "city": "CAPARICA",
      "lon": "-9.194882035541942",
      "lat": "38.666517079748886"
    },
    {
      "id": "pt.ine.add.PTCONT.4677273",
      "street": "R CONS MANUEL LUIS FERNANDES",
      "house": "10",
      "postcode": "2825-031",
      "city": "CAPARICA",
      "lon": "-9.194882035541942",
      "lat": "38.666517079748886"
    },
    {
      "id": "pt.ine.add.PTCONT.4677274",
      "street": "R CONS MANUEL LUIS FERNANDES",
      "house": "10",
      "postcode": "2825-031",
      "city": "CAPARICA",
      "lon": "-9.194882035541942",
      "lat": "38.666517079748886"
    },
    {
      "id": "pt.ine.add.PTCONT.4677275",
      "street": "R CONS MANUEL LUIS FERNANDES",
      "house": "10",
      "postcode": "2825-031",
      "city": "CAPARICA",
      "lon": "-9.194882035541942",
      "lat": "38.666517079748886"
    },
    {
      "id": "pt.ine.add.PTCONT.4677276",
      "street": "R CONS MANUEL LUIS FERNANDES",
      "house": "10",
      "postcode": "2825-031",
      "city": "CAPARICA",
      "lon": "-9.194882035541942",
      "lat": "38.666517079748886"
    },
    {
      "id": "pt.ine.add.PTCONT.4677334",
      "street": "R CONS MANUEL LUIS FERNANDES",
      "house": "10",
      "postcode": "2825-031",
      "city": "CAPARICA",
      "lon": "-9.194882035541942",
      "lat": "38.666517079748886"
    },
    {
      "id": "pt.ine.add.PTCONT.4677335",
      "street": "R CONS MANUEL LUIS FERNANDES",
      "house": "10",
      "postcode": "2825-031",
      "city": "CAPARICA",
      "lon": "-9.194882035541942",
      "lat": "38.666517079748886"
    },
    {
      "id": "pt.ine.add.PTCONT.4732849",
      "street": "R FANCHO",
      "house": "",
      "postcode": "2825-088",
      "city": "CAPARICA",
      "lon": "-9.198223447353351",
      "lat": "38.667927964909545"
    },
    {
      "id": "pt.ine.add.PTCONT.4735573",
      "street": "R FANCHO",
      "house": "",
      "postcode": "2825-088",
      "city": "CAPARICA",
      "lon": "-9.198223447353351",
      "lat": "38.667927964909545"
    },
    {
      "id": "pt.ine.add.PTCONT.4753780",
      "street": "R JOINAL",
      "house": "5",
      "postcode": "2825-088",
      "city": "CAPARICA",
      "lon": "-9.197943655040211",
      "lat": "38.67153368013483"
    },
    {
      "id": "pt.ine.add.PTCONT.4781181",
      "street": "R FACHO",
      "house": "131",
      "postcode": "2825-075",
      "city": "CAPARICA",
      "lon": "-9.194865492510855",
      "lat": "38.666174928754664"
    },
    {
      "id": "pt.ine.add.PTCONT.4781182",
      "street": "R FACHO",
      "house": "131",
      "postcode": "2825-075",
      "city": "CAPARICA",
      "lon": "-9.194865492510855",
      "lat": "38.666174928754664"
    },
    {
      "id": "pt.ine.add.PTCONT.4781183",
      "street": "R FACHO",
      "house": "131",
      "postcode": "2825-075",
      "city": "CAPARICA",
      "lon": "-9.194865492510855",
      "lat": "38.666174928754664"
    },
    {
      "id": "pt.ine.add.PTCONT.4781184",
      "street": "R FACHO",
      "house": "131",
      "postcode": "2825-075",
      "city": "CAPARICA",
      "lon": "-9.194865492510855",
      "lat": "38.666174928754664"
    },
    {
      "id": "pt.ine.add.PTCONT.4782550",
      "street": "R FACHO",
      "house": "131",
      "postcode": "2825-075",
      "city": "CAPARICA",
      "lon": "-9.194865492510855",
      "lat": "38.666174928754664"
    },
    {
      "id": "pt.ine.add.PTCONT.4782552",
      "street": "R FACHO",
      "house": "131",
      "postcode": "2825-075",
      "city": "CAPARICA",
      "lon": "-9.194865492510855",
      "lat": "38.666174928754664"
    },
    {
      "id": "pt.ine.add.PTCONT.4782553",
      "street": "R FACHO",
      "house": "131",
      "postcode": "2825-075",
      "city": "CAPARICA",
      "lon": "-9.194865492510855",
      "lat": "38.666174928754664"
    },
    {
      "id": "pt.ine.add.PTCONT.4782554",
      "street": "R FACHO",
      "house": "131",
      "postcode": "2825-075",
      "city": "CAPARICA",
      "lon": "-9.194865492510855",
      "lat": "38.666174928754664"
    },
    {
      "id": "pt.ine.add.PTCONT.4818442",
      "street": "R CONS MANUEL LUIS FERNANDES",
      "house": "",
      "postcode": "2825-031",
      "city": "CAPARICA",
      "lon": "-9.194840375818947",
      "lat": "38.6663309560514"
    },
    {
      "id": "pt.ine.add.PTCONT.4859778",
      "street": "R FACHO",
      "house": "33",
      "postcode": "2825-075",
      "city": "CAPARICA",
      "lon": "-9.195845172194176",
      "lat": "38.66638222109682"
    },
    {
      "id": "pt.ine.add.PTCONT.4859779",
      "street": "R FACHO",
      "house": "33",
      "postcode": "2825-075",
      "city": "CAPARICA",
      "lon": "-9.195845172194176",
      "lat": "38.66638222109682"
    },
    {
      "id": "pt.ine.add.PTCONT.4859870",
      "street": "R JOINAL",
      "house": "",
      "postcode": "2825-088",
      "city": "CAPARICA",
      "lon": "-9.198100507993765",
      "lat": "38.67048733356012"
    },
    {
      "id": "pt.ine.add.PTCONT.4882354",
      "street": "R JOINAL",
      "house": "",
      "postcode": "2825-088",
      "city": "CAPARICA",
      "lon": "-9.198102109386268",
      "lat": "38.67059541398592"
    },
    {
      "id": "pt.ine.add.PTCONT.4889475",
      "street": "R FACHO",
      "house": "35",
      "postcode": "2825-075",
      "city": "CAPARICA",
      "lon": "-9.195741113792666",
      "lat": "38.66633812696447"
    },
    {
      "id": "pt.ine.add.PTCONT.4889476",
      "street": "R FACHO",
      "house": "35",
      "postcode": "2825-075",
      "city": "CAPARICA",
      "lon": "-9.195741113792666",
      "lat": "38.66633812696447"
    },
    {
      "id": "pt.ine.add.PTCONT.4889477",
      "street": "R FACHO",
      "house": "35",
      "postcode": "2825-075",
      "city": "CAPARICA",
      "lon": "-9.195741113792666",
      "lat": "38.66633812696447"
    },
    {
      "id": "pt.ine.add.PTCONT.4917985",
      "street": "R JOINAL",
      "house": "54",
      "postcode": "2825-088",
      "city": "CAPARICA",
      "lon": "-9.198311566658896",
      "lat": "38.67154834557682"
    },
    {
      "id": "pt.ine.add.PTCONT.4920688",
      "street": "R JOINAL",
      "house": "54",
      "postcode": "2825-088",
      "city": "CAPARICA",
      "lon": "-9.198311566658896",
      "lat": "38.67154834557682"
    },
    {
      "id": "pt.ine.add.PTCONT.4949941",
      "street": "R JOINAL",
      "house": "",
      "postcode": "2825-088",
      "city": "CAPARICA",
      "lon": "-9.198078197767702",
      "lat": "38.67053257630655"
    },
    {
      "id": "pt.ine.add.PTCONT.4957663",
      "street": "R FACHO",
      "house": "29",
      "postcode": "2825-075",
      "city": "CAPARICA",
      "lon": "-9.196616072687064",
      "lat": "38.66645628499308"
    },
    {
      "id": "pt.ine.add.PTCONT.4982861",
      "street": "R JOINAL",
      "house": "",
      "postcode": "2825-088",
      "city": "CAPARICA",
      "lon": "-9.198112251738284",
      "lat": "38.67127992330157"
    },
    {
      "id": "pt.ine.add.PTCONT.4985737",
      "street": "R FACHO",
      "house": "39",
      "postcode": "2825-075",
      "city": "CAPARICA",
      "lon": "-9.195488376140332",
      "lat": "38.66634042299769"
    },
    {
      "id": "pt.ine.add.PTCONT.4989966",
      "street": "R CONS MANUEL LUIS FERNANDES",
      "house": "12",
      "postcode": "2825-031",
      "city": "CAPARICA",
      "lon": "-9.19483435384654",
      "lat": "38.66640040958011"
    },
    {
      "id": "pt.ine.add.PTCONT.4989967",
      "street": "R POMBAL",
      "house": "16",
      "postcode": "2825-097",
      "city": "CAPARICA",
      "lon": "-9.19483435384654",
      "lat": "38.66640040958011"
    },
    {
      "id": "pt.ine.add.PTCONT.4989968",
      "street": "R CONS MANUEL LUIS FERNANDES",
      "house": "12",
      "postcode": "2825-031",
      "city": "CAPARICA",
      "lon": "-9.19483435384654",
      "lat": "38.66640040958011"
    },
    {
      "id": "pt.ine.add.PTCONT.4989969",
      "street": "R CONS MANUEL LUIS FERNANDES",
      "house": "12",
      "postcode": "2825-031",
      "city": "CAPARICA",
      "lon": "-9.19483435384654",
      "lat": "38.66640040958011"
    },
    {
      "id": "pt.ine.add.PTCONT.4989970",
      "street": "R CONS MANUEL LUIS FERNANDES",
      "house": "12",
      "postcode": "2825-031",
      "city": "CAPARICA",
      "lon": "-9.19483435384654",
      "lat": "38.66640040958011"
    },
    {
      "id": "pt.ine.add.PTCONT.4989971",
      "street": "R CONS MANUEL LUIS FERNANDES",
      "house": "12",
      "postcode": "2825-031",
      "city": "CAPARICA",
      "lon": "-9.19483435384654",
      "lat": "38.66640040958011"
    },
    {
      "id": "pt.ine.add.PTCONT.4992704",
      "street": "R CONS MANUEL LUIS FERNANDES",
      "house": "12",
      "postcode": "2825-031",
      "city": "CAPARICA",
      "lon": "-9.19483435384654",
      "lat": "38.66640040958011"
    },
    {
      "id": "pt.ine.add.PTCONT.5007759",
      "street": "R JOINAL",
      "house": "",
      "postcode": "2825-088",
      "city": "CAPARICA",
      "lon": "-9.19816720676412",
      "lat": "38.66800954837359"
    },
    {
      "id": "pt.ine.add.PTCONT.5019780",
      "street": "QTA S BARTOLOMEU PINHEIRO",
      "house": "3",
      "postcode": "2825-039",
      "city": "CAPARICA",
      "lon": "-9.195642967291265",
      "lat": "38.66824869850199"
    },
    {
      "id": "pt.ine.add.PTCONT.5037716",
      "street": "R FACHO",
      "house": "37",
      "postcode": "2825-075",
      "city": "CAPARICA",
      "lon": "-9.19562596680672",
      "lat": "38.66632115725181"
    },
    {
      "id": "pt.ine.add.PTCONT.5037717",
      "street": "R FACHO",
      "house": "37",
      "postcode": "2825-075",
      "city": "CAPARICA",
      "lon": "-9.19562596680672",
      "lat": "38.66632115725181"
    },
    {
      "id": "pt.ine.add.PTCONT.5037718",
      "street": "R FACHO",
      "house": "37",
      "postcode": "2825-075",
      "city": "CAPARICA",
      "lon": "-9.19562596680672",
      "lat": "38.66632115725181"
    },
    {
      "id": "pt.ine.add.PTCONT.5040872",
      "street": "R FACHO",
      "house": "37",
      "postcode": "2825-075",
      "city": "CAPARICA",
      "lon": "-9.19562596680672",
      "lat": "38.66632115725181"
    },
    {
      "id": "pt.ine.add.PTCONT.5084865",
      "street": "R JOINAL",
      "house": "56",
      "postcode": "2825-088",
      "city": "CAPARICA",
      "lon": "-9.198597348022227",
      "lat": "38.66834793144109"
    }
  ]
}