{
  "data": {
    "distrito": "Lisboa",
    "concelho": "Oeiras",
    "freguesia": "Barcarena",
    "OBJECTID": 73,
    "BGRI2021": "11100200912",
    "DT21": "11",
    "DTMN21": "1110",
    "DTMNFR21": "111002",
    "DTMNFRSEC21": "111002009",
    "SECNUM21": "009",
    "SSNUM21": "12",
    "SECSSNUM21": "00912",
    "OBJECTID_1": 110745,
    "DT": "11",
    "CC": "10",
    "fr": "02",
    "SEC": "009",
    "SS": "12"
  },
  "addresses": [
    {
      "id": "pt.ine.add.PTCONT.2436494",
      "street": "R NORTON DE MATOS",
      "house": "6",
      "postcode": "2730-130",
      "city": "BARCARENA",
      "lon": "-9.284315714780952",
      "lat": "38.72522167936694"
    },
    {
      "id": "pt.ine.add.PTCONT.2544489",
      "street": "R GRUTAS",
      "house": "4",
      "postcode": "2730-091",
      "city": "BARCARENA",
      "lon": "-9.28407441906303",
      "lat": "38.72523306310894"
    },
    {
      "id": "pt.ine.add.PTCONT.2592366",
      "street": "TV ROSSIO",
      "house": "5",
      "postcode": "2730-158",
      "city": "BARCARENA",
      "lon": "-9.28430254867764",
      "lat": "38.72583433791248"
    },
    {
      "id": "pt.ine.add.PTCONT.2613855",
      "street": "AV 25 DE ABRIL",
      "house": "15",
      "postcode": "2730-189",
      "city": "BARCARENA",
      "lon": "-9.284240936077198",
      "lat": "38.72629434126503"
    },
    {
      "id": "pt.ine.add.PTCONT.2838775",
      "street": "TV ROSSIO",
      "house": "1",
      "postcode": "2730-158",
      "city": "BARCARENA",
      "lon": "-9.284084823435107",
      "lat": "38.72588152067974"
    },
    {
      "id": "pt.ine.add.PTCONT.2942085",
      "street": "LG LIBERDADE",
      "house": "",
      "postcode": "2730-114",
      "city": "BARCARENA",
      "lon": "-9.284103338163",
      "lat": "38.72560209727992"
    },
    {
      "id": "pt.ine.add.PTCONT.2986639",
      "street": "AV 25 DE ABRIL",
      "house": "3",
      "postcode": "2730-189",
      "city": "BARCARENA",
      "lon": "-9.284025892137912",
      "lat": "38.725792023115034"
    },
    {
      "id": "pt.ine.add.PTCONT.2993629",
      "street": "R LUIS DE CAMÕES",
      "house": "6",
      "postcode": "2730-115",
      "city": "BARCARENA",
      "lon": "-9.285365435246716",
      "lat": "38.72685976036384"
    },
    {
      "id": "pt.ine.add.PTCONT.3012149",
      "street": "AV 25 DE ABRIL",
      "house": "7",
      "postcode": "2730-189",
      "city": "BARCARENA",
      "lon": "-9.28416747202023",
      "lat": "38.72601582356858"
    },
    {
      "id": "pt.ine.add.PTCONT.3030650",
      "street": "AV 25 DE ABRIL",
      "house": "7 A",
      "postcode": "2730-189",
      "city": "BARCARENA",
      "lon": "-9.284143176820525",
      "lat": "38.72593499279383"
    },
    {
      "id": "pt.ine.add.PTCONT.3039296",
      "street": "LG ROSSIO",
      "house": "",
      "postcode": "2730-159",
      "city": "BARCARENA",
      "lon": "-9.284208691874124",
      "lat": "38.72571816103669"
    },
    {
      "id": "pt.ine.add.PTCONT.3179544",
      "street": "R LUIS DE CAMÕES",
      "house": "8",
      "postcode": "2730-115",
      "city": "BARCARENA",
      "lon": "-9.285378813434873",
      "lat": "38.72697672957144"
    },
    {
      "id": "pt.ine.add.PTCONT.3280731",
      "street": "R LUIS DE CAMÕES",
      "house": "4",
      "postcode": "2730-115",
      "city": "BARCARENA",
      "lon": "-9.285329496326987",
      "lat": "38.72677003685021"
    },
    {
      "id": "pt.ine.add.PTCONT.3289871",
      "street": "TV ROSSIO",
      "house": "3",
      "postcode": "2730-158",
      "city": "BARCARENA",
      "lon": "-9.284199362460045",
      "lat": "38.72585336956387"
    },
    {
      "id": "pt.ine.add.PTCONT.3436946",
      "street": "LG ROSSIO",
      "house": "16",
      "postcode": "2730-159",
      "city": "BARCARENA",
      "lon": "-9.284230674665343",
      "lat": "38.72565489013026"
    }
  ]
}