{
  "data": {
    "distrito": "Castelo Branco",
    "concelho": "Fundão",
    "freguesia": "Bogas de Cima",
    "OBJECTID": 350,
    "BGRI2021": "05041000125",
    "DT21": "05",
    "DTMN21": "0504",
    "DTMNFR21": "050410",
    "DTMNFRSEC21": "050410001",
    "SECNUM21": "001",
    "SSNUM21": "25",
    "SECSSNUM21": "00125",
    "OBJECTID_1": 43803,
    "DT": "05",
    "CC": "04",
    "fr": "10",
    "SEC": "001",
    "SS": "25"
  },
  "addresses": [
    {
      "id": "pt.ine.add.PTCONT.954465",
      "street": "R CASTELO",
      "house": "65",
      "postcode": "6230-140",
      "city": "BOGAS DE CIMA",
      "lon": "-7.714845456966195",
      "lat": "40.07697012963419"
    },
    {
      "id": "pt.ine.add.PTCONT.955621",
      "street": "R CASTELO",
      "house": "61",
      "postcode": "6230-140",
      "city": "BOGAS DE CIMA",
      "lon": "-7.715009693392899",
      "lat": "40.07695271042257"
    },
    {
      "id": "pt.ine.add.PTCONT.979033",
      "street": "R CASTELO",
      "house": "77",
      "postcode": "6230-140",
      "city": "BOGAS DE CIMA",
      "lon": "-7.71374966529653",
      "lat": "40.07786677172113"
    },
    {
      "id": "pt.ine.add.PTCONT.998593",
      "street": "BR S SEBASTIÃO",
      "house": "1",
      "postcode": "6230-140",
      "city": "BOGAS DE CIMA",
      "lon": "-7.7133976298455265",
      "lat": "40.077919533030816"
    },
    {
      "id": "pt.ine.add.PTCONT.1009429",
      "street": "R CASTELO",
      "house": "67",
      "postcode": "6230-140",
      "city": "BOGAS DE CIMA",
      "lon": "-7.714691731131313",
      "lat": "40.07718571939507"
    },
    {
      "id": "pt.ine.add.PTCONT.1010611",
      "street": "R CASTELO",
      "house": "71",
      "postcode": "6230-140",
      "city": "BOGAS DE CIMA",
      "lon": "-7.714374538973328",
      "lat": "40.07729264575129"
    },
    {
      "id": "pt.ine.add.PTCONT.1019653",
      "street": "R BARROCA DA FONTE",
      "house": "2",
      "postcode": "6230-140",
      "city": "BOGAS DE CIMA",
      "lon": "-7.713396468709781",
      "lat": "40.0781086555702"
    },
    {
      "id": "pt.ine.add.PTCONT.1021110",
      "street": "R CASTELO",
      "house": "75",
      "postcode": "6230-140",
      "city": "BOGAS DE CIMA",
      "lon": "-7.713821663113181",
      "lat": "40.07759685124943"
    },
    {
      "id": "pt.ine.add.PTCONT.1021150",
      "street": "R CASTELO",
      "house": "75",
      "postcode": "6230-140",
      "city": "BOGAS DE CIMA",
      "lon": "-7.713821663113181",
      "lat": "40.07759685124943"
    },
    {
      "id": "pt.ine.add.PTCONT.1038044",
      "street": "R CASTELO",
      "house": "69",
      "postcode": "6230-140",
      "city": "BOGAS DE CIMA",
      "lon": "-7.7144802698022295",
      "lat": "40.07725700372985"
    },
    {
      "id": "pt.ine.add.PTCONT.1043706",
      "street": "BR S SEBASTIÃO",
      "house": "4",
      "postcode": "6230-140",
      "city": "BOGAS DE CIMA",
      "lon": "-7.712810626058985",
      "lat": "40.07805249533489"
    },
    {
      "id": "pt.ine.add.PTCONT.1049386",
      "street": "R CASTELO",
      "house": "73",
      "postcode": "6230-140",
      "city": "BOGAS DE CIMA",
      "lon": "-7.714455940674519",
      "lat": "40.077401012398454"
    },
    {
      "id": "pt.ine.add.PTCONT.1056051",
      "street": "R BARROCA",
      "house": "3",
      "postcode": "6230-140",
      "city": "BOGAS DE CIMA",
      "lon": "-7.713066661367039",
      "lat": "40.07835962917313"
    },
    {
      "id": "pt.ine.add.PTCONT.1063385",
      "street": "BR S SEBASTIÃO",
      "house": "",
      "postcode": "6230-140",
      "city": "BOGAS DE CIMA",
      "lon": "-7.712552487726405",
      "lat": "40.07808758263302"
    },
    {
      "id": "pt.ine.add.PTCONT.1068006",
      "street": "R BARROCA DA FONTE",
      "house": "2",
      "postcode": "6230-140",
      "city": "BOGAS DE CIMA",
      "lon": "-7.713502477698543",
      "lat": "40.078027985279185"
    }
  ]
}