{
  "data": {
    "distrito": "Lisboa",
    "concelho": "Lourinh√£",
    "freguesia": "Reguengo Grande",
    "OBJECTID": 719,
    "BGRI2021": "11080500215",
    "DT21": "11",
    "DTMN21": "1108",
    "DTMNFR21": "110805",
    "DTMNFRSEC21": "110805002",
    "SECNUM21": "002",
    "SSNUM21": "15",
    "SECSSNUM21": "00215",
    "OBJECTID_1": 107206,
    "DT": "11",
    "CC": "08",
    "fr": "05",
    "SEC": "002",
    "SS": "15"
  },
  "addresses": [
    {
      "id": "pt.ine.add.PTCONT.2270686",
      "street": "R TARDETE",
      "house": "3",
      "postcode": "2530-572",
      "city": "REGUENGO GRANDE",
      "lon": "-9.236055667640954",
      "lat": "39.288738968753165"
    },
    {
      "id": "pt.ine.add.PTCONT.2302300",
      "street": "R DOS ARRIFES",
      "house": "4",
      "postcode": "2530-563",
      "city": "REGUENGO GRANDE",
      "lon": "-9.23527982287421",
      "lat": "39.285828056868084"
    },
    {
      "id": "pt.ine.add.PTCONT.2316553",
      "street": "R MALAGUEIROS",
      "house": "10",
      "postcode": "2530-573",
      "city": "REGUENGO GRANDE",
      "lon": "-9.236544829206828",
      "lat": "39.2962731631623"
    },
    {
      "id": "pt.ine.add.PTCONT.2320484",
      "street": "TV MALAGUEIROS",
      "house": "19",
      "postcode": "2530-573",
      "city": "REGUENGO GRANDE",
      "lon": "-9.235445175272776",
      "lat": "39.29637365047755"
    },
    {
      "id": "pt.ine.add.PTCONT.2334668",
      "street": "R MALAGUEIROS",
      "house": "14 C",
      "postcode": "2530-573",
      "city": "REGUENGO GRANDE",
      "lon": "-9.236917828916958",
      "lat": "39.29566616085691"
    },
    {
      "id": "pt.ine.add.PTCONT.2417659",
      "street": "TV MALAGUEIROS",
      "house": "13",
      "postcode": "2530-573",
      "city": "REGUENGO GRANDE",
      "lon": "-9.236017334018205",
      "lat": "39.29663844012508"
    },
    {
      "id": "pt.ine.add.PTCONT.2435195",
      "street": "R ARRIFES",
      "house": "7",
      "postcode": "2530-572",
      "city": "REGUENGO GRANDE",
      "lon": "-9.234156190242407",
      "lat": "39.285127137485226"
    },
    {
      "id": "pt.ine.add.PTCONT.2463021",
      "street": "AV 11 DE NOVEMBRO",
      "house": "24",
      "postcode": "2530-572",
      "city": "REGUENGO GRANDE",
      "lon": "-9.239252155837528",
      "lat": "39.2937345289698"
    },
    {
      "id": "pt.ine.add.PTCONT.2470939",
      "street": "R ARRIFES",
      "house": "2",
      "postcode": "2530-572",
      "city": "REGUENGO GRANDE",
      "lon": "-9.235520487557123",
      "lat": "39.286393217721596"
    },
    {
      "id": "pt.ine.add.PTCONT.2487613",
      "street": "CSL ARRIFES",
      "house": "",
      "postcode": "2530-563",
      "city": "REGUENGO GRANDE",
      "lon": "-9.232858794921148",
      "lat": "39.28368927620738"
    },
    {
      "id": "pt.ine.add.PTCONT.2508053",
      "street": "AV 11 DE NOVEMBRO",
      "house": "",
      "postcode": "2530-572",
      "city": "REGUENGO GRANDE",
      "lon": "-9.23490606230835",
      "lat": "39.28416530382798"
    },
    {
      "id": "pt.ine.add.PTCONT.2563367",
      "street": "R MARCELA",
      "house": "",
      "postcode": "2530-573",
      "city": "REGUENGO GRANDE",
      "lon": "-9.232364073539483",
      "lat": "39.298006023331396"
    },
    {
      "id": "pt.ine.add.PTCONT.2589105",
      "street": "R PASTORES",
      "house": "22",
      "postcode": "2530-573",
      "city": "REGUENGO GRANDE",
      "lon": "-9.235206321819675",
      "lat": "39.2951869930936"
    },
    {
      "id": "pt.ine.add.PTCONT.2598471",
      "street": "R CARLOS CLAUDIO",
      "house": "19",
      "postcode": "2530-573",
      "city": "REGUENGO GRANDE",
      "lon": "-9.234259025008",
      "lat": "39.29613268109161"
    },
    {
      "id": "pt.ine.add.PTCONT.2683990",
      "street": "AV 11 DE NOVEMBRO",
      "house": "20",
      "postcode": "2530-572",
      "city": "REGUENGO GRANDE",
      "lon": "-9.238681258996515",
      "lat": "39.29281223478968"
    },
    {
      "id": "pt.ine.add.PTCONT.2722055",
      "street": "AV 11 DE NOVEMBRO",
      "house": "",
      "postcode": "2530-572",
      "city": "REGUENGO GRANDE",
      "lon": "-9.238724475972546",
      "lat": "39.29187510013963"
    },
    {
      "id": "pt.ine.add.PTCONT.2734973",
      "street": "AV 11 DE NOVEMBRO",
      "house": "",
      "postcode": "2530-997",
      "city": "REGUENGO GRANDE",
      "lon": "-9.234997372578983",
      "lat": "39.28333579762261"
    },
    {
      "id": "pt.ine.add.PTCONT.2749467",
      "street": "R MARCELA",
      "house": "",
      "postcode": "2530-573",
      "city": "REGUENGO GRANDE",
      "lon": "-9.232721932697954",
      "lat": "39.29865114468852"
    },
    {
      "id": "pt.ine.add.PTCONT.2829021",
      "street": "AV 11 DE NOVEMBRO",
      "house": "",
      "postcode": "2530-572",
      "city": "REGUENGO GRANDE",
      "lon": "-9.238098221674722",
      "lat": "39.29185402496855"
    },
    {
      "id": "pt.ine.add.PTCONT.2846183",
      "street": "CSL POCA",
      "house": "",
      "postcode": "2530-573",
      "city": "REGUENGO GRANDE",
      "lon": "-9.232573521290332",
      "lat": "39.29583336790274"
    },
    {
      "id": "pt.ine.add.PTCONT.2846184",
      "street": "R ARRIFES",
      "house": "",
      "postcode": "2530-572",
      "city": "REGUENGO GRANDE",
      "lon": "-9.234796776615111",
      "lat": "39.28606681013737"
    },
    {
      "id": "pt.ine.add.PTCONT.2869373",
      "street": "R PEDREIRAS",
      "house": "13",
      "postcode": "2530-572",
      "city": "REGUENGO GRANDE",
      "lon": "-9.237668308836207",
      "lat": "39.293263191052986"
    },
    {
      "id": "pt.ine.add.PTCONT.2894518",
      "street": "R MALAGUEIROS",
      "house": "14",
      "postcode": "2530-573",
      "city": "REGUENGO GRANDE",
      "lon": "-9.237170829943379",
      "lat": "39.29553766430944"
    },
    {
      "id": "pt.ine.add.PTCONT.2929281",
      "street": "R MALAGUEIROS",
      "house": "10",
      "postcode": "2530-573",
      "city": "REGUENGO GRANDE",
      "lon": "-9.237458587524314",
      "lat": "39.29467026675057"
    },
    {
      "id": "pt.ine.add.PTCONT.2929284",
      "street": "R MALAGUEIROS",
      "house": "16",
      "postcode": "2530-573",
      "city": "REGUENGO GRANDE",
      "lon": "-9.236968432243595",
      "lat": "39.29593588983968"
    },
    {
      "id": "pt.ine.add.PTCONT.2946550",
      "street": "R MALAGUEIROS",
      "house": "8",
      "postcode": "2530-573",
      "city": "REGUENGO GRANDE",
      "lon": "-9.238272712408124",
      "lat": "39.294842680240876"
    },
    {
      "id": "pt.ine.add.PTCONT.2966129",
      "street": "CSL ARRIFES",
      "house": "",
      "postcode": "2530-563",
      "city": "REGUENGO GRANDE",
      "lon": "-9.231204929282146",
      "lat": "39.28391204720901"
    },
    {
      "id": "pt.ine.add.PTCONT.2975107",
      "street": "R MARCELA",
      "house": "",
      "postcode": "2530-573",
      "city": "REGUENGO GRANDE",
      "lon": "-9.232169147997253",
      "lat": "39.29814296814976"
    },
    {
      "id": "pt.ine.add.PTCONT.3108591",
      "street": "AV 11 DE NOVEMBRO",
      "house": "145",
      "postcode": "2530-572",
      "city": "REGUENGO GRANDE",
      "lon": "-9.238801829536134",
      "lat": "39.29310831950364"
    },
    {
      "id": "pt.ine.add.PTCONT.3135960",
      "street": "CSL ARRIFES",
      "house": "",
      "postcode": "2530-563",
      "city": "REGUENGO GRANDE",
      "lon": "-9.233250924559085",
      "lat": "39.284307053134725"
    },
    {
      "id": "pt.ine.add.PTCONT.3141143",
      "street": "R PEDREIRAS",
      "house": "6",
      "postcode": "2530-572",
      "city": "REGUENGO GRANDE",
      "lon": "-9.238117332901458",
      "lat": "39.29306978371008"
    },
    {
      "id": "pt.ine.add.PTCONT.3179136",
      "street": "AV 11 DE NOVEMBRO",
      "house": "22",
      "postcode": "2530-572",
      "city": "REGUENGO GRANDE",
      "lon": "-9.238825575452854",
      "lat": "39.29314412182361"
    },
    {
      "id": "pt.ine.add.PTCONT.3188826",
      "street": "R TARDETE",
      "house": "17",
      "postcode": "2530-572",
      "city": "REGUENGO GRANDE",
      "lon": "-9.234546547189318",
      "lat": "39.28932970202174"
    },
    {
      "id": "pt.ine.add.PTCONT.3215930",
      "street": "R PASTORES",
      "house": "17",
      "postcode": "2530-573",
      "city": "REGUENGO GRANDE",
      "lon": "-9.234524911016177",
      "lat": "39.29534656022141"
    },
    {
      "id": "pt.ine.add.PTCONT.3244059",
      "street": "R TARDETE",
      "house": "19",
      "postcode": "2530-572",
      "city": "REGUENGO GRANDE",
      "lon": "-9.237424642819565",
      "lat": "39.29324748872872"
    },
    {
      "id": "pt.ine.add.PTCONT.3296423",
      "street": "R ARRIFES",
      "house": "3",
      "postcode": "2530-572",
      "city": "REGUENGO GRANDE",
      "lon": "-9.235566267544687",
      "lat": "39.28709532820264"
    },
    {
      "id": "pt.ine.add.PTCONT.3345338",
      "street": "TV MALAGUEIROS",
      "house": "15",
      "postcode": "2530-573",
      "city": "REGUENGO GRANDE",
      "lon": "-9.235867508795518",
      "lat": "39.29669390120432"
    },
    {
      "id": "pt.ine.add.PTCONT.3354204",
      "street": "R PEDREIRAS",
      "house": "15",
      "postcode": "2530-572",
      "city": "REGUENGO GRANDE",
      "lon": "-9.23729885406096",
      "lat": "39.29335676541578"
    },
    {
      "id": "pt.ine.add.PTCONT.3354206",
      "street": "R CARLOS CLAUDIO",
      "house": "17",
      "postcode": "2530-573",
      "city": "REGUENGO GRANDE",
      "lon": "-9.235862139481958",
      "lat": "39.29635168761322"
    },
    {
      "id": "pt.ine.add.PTCONT.3373010",
      "street": "CSL ARRIFES",
      "house": "",
      "postcode": "2530-563",
      "city": "REGUENGO GRANDE",
      "lon": "-9.231244616251518",
      "lat": "39.28422691721137"
    },
    {
      "id": "pt.ine.add.PTCONT.3408689",
      "street": "CSL ARRIFES",
      "house": "1",
      "postcode": "2530-563",
      "city": "REGUENGO GRANDE",
      "lon": "-9.23602754919958",
      "lat": "39.28768541945899"
    },
    {
      "id": "pt.ine.add.PTCONT.3408690",
      "street": "R PEDREIRAS",
      "house": "15 A",
      "postcode": "2530-572",
      "city": "REGUENGO GRANDE",
      "lon": "-9.234637989507291",
      "lat": "39.28924777413724"
    },
    {
      "id": "pt.ine.add.PTCONT.3418423",
      "street": "R CARLOS CLAUDIO",
      "house": "5",
      "postcode": "2530-573",
      "city": "REGUENGO GRANDE",
      "lon": "-9.236052813200335",
      "lat": "39.29594456811401"
    },
    {
      "id": "pt.ine.add.PTCONT.3427262",
      "street": "R MARCELA",
      "house": "8",
      "postcode": "2530-573",
      "city": "REGUENGO GRANDE",
      "lon": "-9.235488562068186",
      "lat": "39.29692266416128"
    },
    {
      "id": "pt.ine.add.PTCONT.3436936",
      "street": "EN 247-1",
      "house": "",
      "postcode": "2530-584",
      "city": "REGUENGO GRANDE",
      "lon": "-9.23093472337389",
      "lat": "39.28219426175438"
    }
  ]
}