{
  "data": {
    "distrito": "Lisboa",
    "concelho": "Lourinhã",
    "freguesia": "Reguengo Grande",
    "OBJECTID": 653,
    "BGRI2021": "11080500216",
    "DT21": "11",
    "DTMN21": "1108",
    "DTMNFR21": "110805",
    "DTMNFRSEC21": "110805002",
    "SECNUM21": "002",
    "SSNUM21": "16",
    "SECSSNUM21": "00216",
    "OBJECTID_1": 107207,
    "DT": "11",
    "CC": "08",
    "fr": "05",
    "SEC": "002",
    "SS": "16"
  },
  "addresses": [
    {
      "id": "pt.ine.add.PTCONT.2270684",
      "street": "TV LARGOS",
      "house": "",
      "postcode": "2530-576",
      "city": "REGUENGO GRANDE",
      "lon": "-9.241214364364904",
      "lat": "39.29982258453532"
    },
    {
      "id": "pt.ine.add.PTCONT.2302069",
      "street": "R LARGOS",
      "house": "6",
      "postcode": "2530-576",
      "city": "REGUENGO GRANDE",
      "lon": "-9.242249350821716",
      "lat": "39.300028895004374"
    },
    {
      "id": "pt.ine.add.PTCONT.2316534",
      "street": "R POENTE",
      "house": "9",
      "postcode": "2530-572",
      "city": "REGUENGO GRANDE",
      "lon": "-9.24195560297567",
      "lat": "39.299779498736314"
    },
    {
      "id": "pt.ine.add.PTCONT.2316535",
      "street": "AV 11 DE NOVEMBRO",
      "house": "29",
      "postcode": "2530-572",
      "city": "REGUENGO GRANDE",
      "lon": "-9.240342669652893",
      "lat": "39.295264352486576"
    },
    {
      "id": "pt.ine.add.PTCONT.2352738",
      "street": "R POENTE",
      "house": "4",
      "postcode": "2530-576",
      "city": "REGUENGO GRANDE",
      "lon": "-9.24208316341532",
      "lat": "39.30051685354975"
    },
    {
      "id": "pt.ine.add.PTCONT.2604281",
      "street": "AV 11 DE NOVEMBRO",
      "house": "47B",
      "postcode": "2530-572",
      "city": "REGUENGO GRANDE",
      "lon": "-9.239863456357813",
      "lat": "39.299430122749655"
    },
    {
      "id": "pt.ine.add.PTCONT.2665710",
      "street": "R LARGOS",
      "house": "15",
      "postcode": "2530-576",
      "city": "REGUENGO GRANDE",
      "lon": "-9.241352229802684",
      "lat": "39.30047877954024"
    },
    {
      "id": "pt.ine.add.PTCONT.2713330",
      "street": "R ANTONIA DA CONCEIÇÃO",
      "house": "30",
      "postcode": "2530-572",
      "city": "REGUENGO GRANDE",
      "lon": "-9.241903414492748",
      "lat": "39.29941071083247"
    },
    {
      "id": "pt.ine.add.PTCONT.2739456",
      "street": "AV 11 DE NOVEMBRO",
      "house": "53",
      "postcode": "2530-572",
      "city": "REGUENGO GRANDE",
      "lon": "-9.239818550428815",
      "lat": "39.30025918924044"
    },
    {
      "id": "pt.ine.add.PTCONT.2801174",
      "street": "AV 11 DE NOVEMBRO",
      "house": "27",
      "postcode": "2530-572",
      "city": "REGUENGO GRANDE",
      "lon": "-9.239990534490879",
      "lat": "39.294249914671504"
    },
    {
      "id": "pt.ine.add.PTCONT.2829019",
      "street": "R LARGOS",
      "house": "21",
      "postcode": "2530-576",
      "city": "REGUENGO GRANDE",
      "lon": "-9.242384667577584",
      "lat": "39.300522987913105"
    },
    {
      "id": "pt.ine.add.PTCONT.2855290",
      "street": "AV 11 DE NOVEMBRO",
      "house": "10",
      "postcode": "2530-572",
      "city": "REGUENGO GRANDE",
      "lon": "-9.24118866345426",
      "lat": "39.29819257080142"
    },
    {
      "id": "pt.ine.add.PTCONT.2956930",
      "street": "AV 11 NOVEMBRO",
      "house": "8",
      "postcode": "2530-572",
      "city": "REGUENGO GRANDE",
      "lon": "-9.241116474909438",
      "lat": "39.29876069594633"
    },
    {
      "id": "pt.ine.add.PTCONT.2961001",
      "street": "R ANTÓNIA CONCEIÇÃO",
      "house": "5",
      "postcode": "2530-572",
      "city": "REGUENGO GRANDE",
      "lon": "-9.240463952866788",
      "lat": "39.29781216758472"
    },
    {
      "id": "pt.ine.add.PTCONT.2993299",
      "street": "TV LARGOS",
      "house": "2",
      "postcode": "2530-576",
      "city": "REGUENGO GRANDE",
      "lon": "-9.241459104019171",
      "lat": "39.300639887152336"
    },
    {
      "id": "pt.ine.add.PTCONT.3030242",
      "street": "AV 11 DE NOVEMBRO",
      "house": "43",
      "postcode": "2530-572",
      "city": "REGUENGO GRANDE",
      "lon": "-9.240123090902237",
      "lat": "39.298986313413266"
    },
    {
      "id": "pt.ine.add.PTCONT.3105701",
      "street": "R ANTONIA DA CONCEIÇÃO",
      "house": "28A",
      "postcode": "2530-572",
      "city": "REGUENGO GRANDE",
      "lon": "-9.241727139427901",
      "lat": "39.2992592714736"
    },
    {
      "id": "pt.ine.add.PTCONT.3113765",
      "street": "AV 11 DE NOVEMBRO",
      "house": "39",
      "postcode": "2530-572",
      "city": "REGUENGO GRANDE",
      "lon": "-9.240113728564586",
      "lat": "39.298391943514105"
    },
    {
      "id": "pt.ine.add.PTCONT.3113766",
      "street": "AV 11 DE NOVEMBRO",
      "house": "33",
      "postcode": "2530-572",
      "city": "REGUENGO GRANDE",
      "lon": "-9.23994054071647",
      "lat": "39.29770005475835"
    },
    {
      "id": "pt.ine.add.PTCONT.3123277",
      "street": "AV 11 DE NOVEMBRO",
      "house": "41",
      "postcode": "2530-572",
      "city": "REGUENGO GRANDE",
      "lon": "-9.239867530337659",
      "lat": "39.298952715516776"
    },
    {
      "id": "pt.ine.add.PTCONT.3166616",
      "street": "AV 11 DE NOVEMBRO",
      "house": "35",
      "postcode": "2530-572",
      "city": "REGUENGO GRANDE",
      "lon": "-9.239925546559371",
      "lat": "39.29748403039128"
    },
    {
      "id": "pt.ine.add.PTCONT.3206741",
      "street": "AV 11 DE NOVEMBRO",
      "house": "55",
      "postcode": "2530-572",
      "city": "REGUENGO GRANDE",
      "lon": "-9.240134339652384",
      "lat": "39.30043632570327"
    },
    {
      "id": "pt.ine.add.PTCONT.3206742",
      "street": "AV 11 DE NOVEMBRO",
      "house": "47C",
      "postcode": "2530-572",
      "city": "REGUENGO GRANDE",
      "lon": "-9.239876748953044",
      "lat": "39.299538079804066"
    },
    {
      "id": "pt.ine.add.PTCONT.3263117",
      "street": "AV 11 DE NOVEMBRO",
      "house": "45",
      "postcode": "2530-572",
      "city": "REGUENGO GRANDE",
      "lon": "-9.240196323018044",
      "lat": "39.299219797777994"
    },
    {
      "id": "pt.ine.add.PTCONT.3317868",
      "street": "AV 11 DE NOVEMBRO",
      "house": "47A",
      "postcode": "2530-572",
      "city": "REGUENGO GRANDE",
      "lon": "-9.239873203299952",
      "lat": "39.299312939700776"
    },
    {
      "id": "pt.ine.add.PTCONT.3326224",
      "street": "R ANTONIA DA CONCEIÇÃO",
      "house": "28",
      "postcode": "2530-572",
      "city": "REGUENGO GRANDE",
      "lon": "-9.241728417993873",
      "lat": "39.29934032186173"
    },
    {
      "id": "pt.ine.add.PTCONT.3395818",
      "street": "R ANTÓNIA CONCEIÇÃO",
      "house": "",
      "postcode": "2530-572",
      "city": "REGUENGO GRANDE",
      "lon": "-9.240499291681612",
      "lat": "39.29784785924993"
    }
  ]
}