{
  "data": {
    "distrito": "Lisboa",
    "concelho": "Mafra",
    "freguesia": "Mafra",
    "OBJECTID": 1228,
    "BGRI2021": "11090901341",
    "DT21": "11",
    "DTMN21": "1109",
    "DTMNFR21": "110909",
    "DTMNFRSEC21": "110909013",
    "SECNUM21": "013",
    "SSNUM21": "41",
    "SECSSNUM21": "01341",
    "OBJECTID_1": 109653,
    "DT": "11",
    "CC": "09",
    "fr": "09",
    "SEC": "013",
    "SS": "41"
  },
  "addresses": [
    {
      "id": "pt.ine.add.PTCONT.2302097",
      "street": "R FRANCISCO AUGUSTO LEITE",
      "house": "6",
      "postcode": "2640-410",
      "city": "MAFRA",
      "lon": "-9.332386348584306",
      "lat": "38.951936521785285"
    },
    {
      "id": "pt.ine.add.PTCONT.2411582",
      "street": "R PEDRAS AMARELAS",
      "house": "",
      "postcode": "2640-416",
      "city": "MAFRA",
      "lon": "-9.326895846610242",
      "lat": "38.96845834400173"
    },
    {
      "id": "pt.ine.add.PTCONT.2453872",
      "street": "R PEDRAS AMARELAS",
      "house": "",
      "postcode": "2640-416",
      "city": "MAFRA",
      "lon": "-9.327207172560714",
      "lat": "38.968446151111685"
    },
    {
      "id": "pt.ine.add.PTCONT.2517110",
      "street": "R PERDIGUEIRA",
      "house": "6",
      "postcode": "2640-577",
      "city": "MAFRA",
      "lon": "-9.332267525920825",
      "lat": "38.95309969846223"
    },
    {
      "id": "pt.ine.add.PTCONT.2517111",
      "street": "R PERDIGUEIRA",
      "house": "6",
      "postcode": "2640-577",
      "city": "MAFRA",
      "lon": "-9.332267525920825",
      "lat": "38.95309969846223"
    },
    {
      "id": "pt.ine.add.PTCONT.2517117",
      "street": "R PERDIGUEIRA",
      "house": "6",
      "postcode": "2640-577",
      "city": "MAFRA",
      "lon": "-9.332267525920825",
      "lat": "38.95309969846223"
    },
    {
      "id": "pt.ine.add.PTCONT.2517118",
      "street": "R PERDIGUEIRA",
      "house": "6",
      "postcode": "2640-577",
      "city": "MAFRA",
      "lon": "-9.332267525920825",
      "lat": "38.95309969846223"
    },
    {
      "id": "pt.ine.add.PTCONT.2551022",
      "street": "R FRANCISCO AUGUSTO LEITE",
      "house": "8",
      "postcode": "2640-410",
      "city": "MAFRA",
      "lon": "-9.332516556728876",
      "lat": "38.95213334661597"
    },
    {
      "id": "pt.ine.add.PTCONT.2643128",
      "street": "ESTR PONTE DO CUCO",
      "house": "",
      "postcode": "2640-566",
      "city": "MAFRA",
      "lon": "-9.32957098800452",
      "lat": "38.951208797401776"
    },
    {
      "id": "pt.ine.add.PTCONT.2684130",
      "street": "ESTR PONTE DO CUCO",
      "house": "16",
      "postcode": "2640-566",
      "city": "MAFRA",
      "lon": "-9.329948863065356",
      "lat": "38.95104278927132"
    },
    {
      "id": "pt.ine.add.PTCONT.2730825",
      "street": "CSL MATO",
      "house": "",
      "postcode": "2640-416",
      "city": "MAFRA",
      "lon": "-9.335467744497363",
      "lat": "38.97249571223047"
    },
    {
      "id": "pt.ine.add.PTCONT.2865781",
      "street": "ESTR PONTE DO CUCO",
      "house": "",
      "postcode": "2640-566",
      "city": "MAFRA",
      "lon": "-9.328999464865802",
      "lat": "38.951520907467106"
    },
    {
      "id": "pt.ine.add.PTCONT.2865782",
      "street": "ESTR PONTE DO CUCO",
      "house": "",
      "postcode": "2640-566",
      "city": "MAFRA",
      "lon": "-9.328999464865802",
      "lat": "38.951520907467106"
    },
    {
      "id": "pt.ine.add.PTCONT.2902734",
      "street": "CSL MATO",
      "house": "",
      "postcode": "2640-416",
      "city": "MAFRA",
      "lon": "-9.335297889998635",
      "lat": "38.972686617275855"
    },
    {
      "id": "pt.ine.add.PTCONT.2902735",
      "street": "CSL MATO",
      "house": "",
      "postcode": "2640-416",
      "city": "MAFRA",
      "lon": "-9.335189795212504",
      "lat": "38.97243552439193"
    },
    {
      "id": "pt.ine.add.PTCONT.3002501",
      "street": "CSL MATO",
      "house": "",
      "postcode": "2640-416",
      "city": "MAFRA",
      "lon": "-9.335759363663605",
      "lat": "38.97268186177241"
    },
    {
      "id": "pt.ine.add.PTCONT.3048258",
      "street": "R PEDRAS AMARELAS",
      "house": "",
      "postcode": "2640-416",
      "city": "MAFRA",
      "lon": "-9.326780484681377",
      "lat": "38.968459524179536"
    },
    {
      "id": "pt.ine.add.PTCONT.3151980",
      "street": "R PERDIGUEIRA",
      "house": "4",
      "postcode": "2640-577",
      "city": "MAFRA",
      "lon": "-9.332413668763989",
      "lat": "38.95287301148097"
    },
    {
      "id": "pt.ine.add.PTCONT.3151981",
      "street": "R PERDIGUEIRA",
      "house": "4",
      "postcode": "2640-577",
      "city": "MAFRA",
      "lon": "-9.332413668763989",
      "lat": "38.95287301148097"
    },
    {
      "id": "pt.ine.add.PTCONT.3151982",
      "street": "R PERDIGUEIRA",
      "house": "4",
      "postcode": "2640-577",
      "city": "MAFRA",
      "lon": "-9.332413668763989",
      "lat": "38.95287301148097"
    },
    {
      "id": "pt.ine.add.PTCONT.3151983",
      "street": "R PERDIGUEIRA",
      "house": "4",
      "postcode": "2640-577",
      "city": "MAFRA",
      "lon": "-9.332413668763989",
      "lat": "38.95287301148097"
    },
    {
      "id": "pt.ine.add.PTCONT.3169873",
      "street": "R FRANCISCO AUGUSTO LEITE",
      "house": "10",
      "postcode": "2640-410",
      "city": "MAFRA",
      "lon": "-9.332657843677923",
      "lat": "38.952303035189175"
    },
    {
      "id": "pt.ine.add.PTCONT.3189067",
      "street": "R PEDRAS AMARELAS",
      "house": "",
      "postcode": "2640-416",
      "city": "MAFRA",
      "lon": "-9.327077703955924",
      "lat": "38.9682943503404"
    },
    {
      "id": "pt.ine.add.PTCONT.3312112",
      "street": "ESTR PONTE DO CUCO QTA DO VALE VIEIRO",
      "house": "24",
      "postcode": "2640-566",
      "city": "MAFRA",
      "lon": "-9.330450269081929",
      "lat": "38.9506773495134"
    },
    {
      "id": "pt.ine.add.PTCONT.3440924",
      "street": "CSL MATO",
      "house": "",
      "postcode": "2640-416",
      "city": "MAFRA",
      "lon": "-9.335814001141019",
      "lat": "38.97250115109066"
    }
  ]
}