{
  "data": {
    "distrito": "Lisboa",
    "concelho": "Cascais",
    "freguesia": "Alcabideche",
    "OBJECTID": 48,
    "BGRI2021": "11050102211",
    "DT21": "11",
    "DTMN21": "1105",
    "DTMNFR21": "110501",
    "DTMNFRSEC21": "110501022",
    "SECNUM21": "022",
    "SSNUM21": "11",
    "SECSSNUM21": "02211",
    "OBJECTID_1": 100798,
    "DT": "11",
    "CC": "05",
    "fr": "01",
    "SEC": "022",
    "SS": "11"
  },
  "addresses": [
    {
      "id": "pt.ine.add.PTCONT.2923221",
      "street": "R PADRE MOTA",
      "house": "233 B",
      "postcode": "2645-062",
      "city": "ALCABIDECHE",
      "lon": "-9.408480924709561",
      "lat": "38.73685900177149"
    },
    {
      "id": "pt.ine.add.PTCONT.2923965",
      "street": "R MONSENHOR MOITA",
      "house": "255",
      "postcode": "2645-061",
      "city": "ALCABIDECHE",
      "lon": "-9.409867543632625",
      "lat": "38.73593408924219"
    },
    {
      "id": "pt.ine.add.PTCONT.2972459",
      "street": "R MONSENHOR MOITA",
      "house": "105",
      "postcode": "2645-061",
      "city": "ALCABIDECHE",
      "lon": "-9.411243912654284",
      "lat": "38.735081333782574"
    },
    {
      "id": "pt.ine.add.PTCONT.3092935",
      "street": "R MONSENHOR MOITA CASA NOVA DO OUTONO",
      "house": "71",
      "postcode": "2645-061",
      "city": "ALCABIDECHE",
      "lon": "-9.411540778334357",
      "lat": "38.73496098755904"
    },
    {
      "id": "pt.ine.add.PTCONT.3092936",
      "street": "R MONSENHOR MOITA CASA NOVA DO OUTONO",
      "house": "71",
      "postcode": "2645-061",
      "city": "ALCABIDECHE",
      "lon": "-9.411540778334357",
      "lat": "38.73496098755904"
    },
    {
      "id": "pt.ine.add.PTCONT.3138454",
      "street": "R MONSENHOR MOITA",
      "house": "199",
      "postcode": "2645-061",
      "city": "ALCABIDECHE",
      "lon": "-9.408680688033325",
      "lat": "38.736451476775876"
    },
    {
      "id": "pt.ine.add.PTCONT.3138457",
      "street": "R PADRE MOTA",
      "house": "199 A",
      "postcode": "2645-062",
      "city": "ALCABIDECHE",
      "lon": "-9.408774598062351",
      "lat": "38.73655854396073"
    },
    {
      "id": "pt.ine.add.PTCONT.3248118",
      "street": "ESTR ATROZELA",
      "house": "369",
      "postcode": "2645-028",
      "city": "ALCABIDECHE",
      "lon": "-9.40826453547281",
      "lat": "38.73697846234644"
    },
    {
      "id": "pt.ine.add.PTCONT.3370736",
      "street": "R PADRE MOTA",
      "house": "145",
      "postcode": "2645-062",
      "city": "ALCABIDECHE",
      "lon": "-9.409219030235857",
      "lat": "38.736328500974906"
    },
    {
      "id": "pt.ine.add.PTCONT.3394420",
      "street": "R MONSENHOR MOITA",
      "house": "4",
      "postcode": "2645-061",
      "city": "ALCABIDECHE",
      "lon": "-9.410367214021184",
      "lat": "38.735577331143716"
    },
    {
      "id": "pt.ine.add.PTCONT.3412415",
      "street": "R MONSENHOR MOITA",
      "house": "SEM NO",
      "postcode": "2645-061",
      "city": "ALCABIDECHE",
      "lon": "-9.41019714580348",
      "lat": "38.73571430445273"
    },
    {
      "id": "pt.ine.add.PTCONT.3412416",
      "street": "R MONSENHOR MOITA",
      "house": "293",
      "postcode": "2645-061",
      "city": "ALCABIDECHE",
      "lon": "-9.409606769336678",
      "lat": "38.736144113804336"
    },
    {
      "id": "pt.ine.add.PTCONT.3412417",
      "street": "R MONSENHOR MOITA",
      "house": "293",
      "postcode": "2645-061",
      "city": "ALCABIDECHE",
      "lon": "-9.409606769336678",
      "lat": "38.736144113804336"
    },
    {
      "id": "pt.ine.add.PTCONT.2277906",
      "street": "R MONSENHOR MOITA",
      "house": "59",
      "postcode": "2645-061",
      "city": "ALCABIDECHE",
      "lon": "-9.41170062866602",
      "lat": "38.73489618544005"
    },
    {
      "id": "pt.ine.add.PTCONT.2304779",
      "street": "R MONSENHOR MOITA",
      "house": "271",
      "postcode": "2645-061",
      "city": "ALCABIDECHE",
      "lon": "-9.409800317436629",
      "lat": "38.73603390790888"
    },
    {
      "id": "pt.ine.add.PTCONT.2313809",
      "street": "R MONSENHOR MOITA",
      "house": "303",
      "postcode": "2645-061",
      "city": "ALCABIDECHE",
      "lon": "-9.409436538018346",
      "lat": "38.73627208012134"
    },
    {
      "id": "pt.ine.add.PTCONT.2339627",
      "street": "R MONSENHOR MOITA",
      "house": "149",
      "postcode": "2645-061",
      "city": "ALCABIDECHE",
      "lon": "-9.410834631393778",
      "lat": "38.73534703087813"
    },
    {
      "id": "pt.ine.add.PTCONT.2339628",
      "street": "R MONSENHOR MOITA",
      "house": "149",
      "postcode": "2645-061",
      "city": "ALCABIDECHE",
      "lon": "-9.410834631393778",
      "lat": "38.73534703087813"
    },
    {
      "id": "pt.ine.add.PTCONT.2370840",
      "street": "R MONSENHOR MOITA",
      "house": "239",
      "postcode": "2645-061",
      "city": "ALCABIDECHE",
      "lon": "-9.410027076936355",
      "lat": "38.735851277522215"
    },
    {
      "id": "pt.ine.add.PTCONT.2414439",
      "street": "R MONSENHOR MOITA",
      "house": "135",
      "postcode": "2645-061",
      "city": "ALCABIDECHE",
      "lon": "-9.41026517316849",
      "lat": "38.73565951515787"
    },
    {
      "id": "pt.ine.add.PTCONT.2414440",
      "street": "R PADRE MOTA",
      "house": "173",
      "postcode": "2645-062",
      "city": "ALCABIDECHE",
      "lon": "-9.408921193463073",
      "lat": "38.73639480590611"
    },
    {
      "id": "pt.ine.add.PTCONT.2414441",
      "street": "R PADRE MOTA",
      "house": "173",
      "postcode": "2645-062",
      "city": "ALCABIDECHE",
      "lon": "-9.408921193463073",
      "lat": "38.73639480590611"
    },
    {
      "id": "pt.ine.add.PTCONT.2414442",
      "street": "R PADRE MOTA",
      "house": "173",
      "postcode": "2645-062",
      "city": "ALCABIDECHE",
      "lon": "-9.408921193463073",
      "lat": "38.73639480590611"
    },
    {
      "id": "pt.ine.add.PTCONT.2421576",
      "street": "R MONSENHOR MOITA",
      "house": "173",
      "postcode": "2645-061",
      "city": "ALCABIDECHE",
      "lon": "-9.408921193463073",
      "lat": "38.73639480590611"
    },
    {
      "id": "pt.ine.add.PTCONT.2521356",
      "street": "ESTR ATROZELA",
      "house": "369",
      "postcode": "2645-028",
      "city": "ALCABIDECHE",
      "lon": "-9.40831197099943",
      "lat": "38.73705901387959"
    },
    {
      "id": "pt.ine.add.PTCONT.2531479",
      "street": "R PADRE MOTA",
      "house": "153",
      "postcode": "2645-062",
      "city": "ALCABIDECHE",
      "lon": "-9.409138060633051",
      "lat": "38.7363023619157"
    },
    {
      "id": "pt.ine.add.PTCONT.2532070",
      "street": "R MONSENHOR MOITA",
      "house": "263",
      "postcode": "2645-061",
      "city": "ALCABIDECHE",
      "lon": "-9.409798874316719",
      "lat": "38.73595285463548"
    },
    {
      "id": "pt.ine.add.PTCONT.2577265",
      "street": "R MONSENHOR MOITA",
      "house": "283",
      "postcode": "2645-061",
      "city": "ALCABIDECHE",
      "lon": "-9.409674797561085",
      "lat": "38.73608932484243"
    },
    {
      "id": "pt.ine.add.PTCONT.2596337",
      "street": "R MONSENHOR MOITA",
      "house": "87",
      "postcode": "2645-061",
      "city": "ALCABIDECHE",
      "lon": "-9.411369429527149",
      "lat": "38.735025915205235"
    },
    {
      "id": "pt.ine.add.PTCONT.2609199",
      "street": "R MONSENHOR MOITA",
      "house": "157",
      "postcode": "2645-061",
      "city": "ALCABIDECHE",
      "lon": "-9.410720611781807",
      "lat": "38.73540232321704"
    },
    {
      "id": "pt.ine.add.PTCONT.2609200",
      "street": "R MONSENHOR MOITA",
      "house": "157",
      "postcode": "2645-061",
      "city": "ALCABIDECHE",
      "lon": "-9.410720611781807",
      "lat": "38.73540232321704"
    },
    {
      "id": "pt.ine.add.PTCONT.2612440",
      "street": "R PADRE MOTA CONDOMINIO VILLAS DA SERRA",
      "house": "233 A",
      "postcode": "2645-062",
      "city": "ALCABIDECHE",
      "lon": "-9.408501999425814",
      "lat": "38.73675067977452"
    },
    {
      "id": "pt.ine.add.PTCONT.2653392",
      "street": "R MONSENHOR MOITA",
      "house": "249",
      "postcode": "2645-061",
      "city": "ALCABIDECHE",
      "lon": "-9.40992439385666",
      "lat": "38.73589743757313"
    },
    {
      "id": "pt.ine.add.PTCONT.2710250",
      "street": "R MONSENHOR MOITA CONDOMINIO VILLAS DA SERRA",
      "house": "233 C",
      "postcode": "2645-061",
      "city": "ALCABIDECHE",
      "lon": "-9.408377438305383",
      "lat": "38.73686013088325"
    },
    {
      "id": "pt.ine.add.PTCONT.2733715",
      "street": "R MONSENHOR MOITA",
      "house": "277",
      "postcode": "2645-061",
      "city": "ALCABIDECHE",
      "lon": "-9.409708330627698",
      "lat": "38.73603491258857"
    },
    {
      "id": "pt.ine.add.PTCONT.2746597",
      "street": "R MONSENHOR MOITA CONDOMINIO VILLAS DA SERRA",
      "house": "233 D",
      "postcode": "2645-061",
      "city": "ALCABIDECHE",
      "lon": "-9.408367381362813",
      "lat": "38.73694130964052"
    },
    {
      "id": "pt.ine.add.PTCONT.2776052",
      "street": "R MONSENHOR MOITA",
      "house": "309",
      "postcode": "2645-061",
      "city": "ALCABIDECHE",
      "lon": "-9.409380007838177",
      "lat": "38.736326743400575"
    },
    {
      "id": "pt.ine.add.PTCONT.2817665",
      "street": "R MONSENHOR MOITA",
      "house": "",
      "postcode": "2645-061",
      "city": "ALCABIDECHE",
      "lon": "-9.410971326301736",
      "lat": "38.73527347519489"
    },
    {
      "id": "pt.ine.add.PTCONT.2835635",
      "street": "R MONSENHOR MOITA",
      "house": "5",
      "postcode": "2645-061",
      "city": "ALCABIDECHE",
      "lon": "-9.411107539407947",
      "lat": "38.735172901607875"
    },
    {
      "id": "pt.ine.add.PTCONT.2835638",
      "street": "R MONSENHOR MOITA",
      "house": "315",
      "postcode": "2645-061",
      "city": "ALCABIDECHE",
      "lon": "-9.409287058933884",
      "lat": "38.73627371223235"
    },
    {
      "id": "pt.ine.add.PTCONT.2850279",
      "street": "R MONSENHOR MOITA",
      "house": "231",
      "postcode": "2645-061",
      "city": "ALCABIDECHE",
      "lon": "-9.410128957947844",
      "lat": "38.735760087790794"
    },
    {
      "id": "pt.ine.add.PTCONT.2906491",
      "street": "R MONSENHOR MOITA",
      "house": "",
      "postcode": "2645-061",
      "city": "ALCABIDECHE",
      "lon": "-9.412011721429902",
      "lat": "38.73492881280157"
    }
  ]
}