{
  "data": {
    "distrito": "Lisboa",
    "concelho": "Mafra",
    "freguesia": "Ericeira",
    "OBJECTID": 969,
    "BGRI2021": "11090600302",
    "DT21": "11",
    "DTMN21": "1109",
    "DTMNFR21": "110906",
    "DTMNFRSEC21": "110906003",
    "SECNUM21": "003",
    "SSNUM21": "02",
    "SECSSNUM21": "00302",
    "OBJECTID_1": 109809,
    "DT": "11",
    "CC": "09",
    "fr": "06",
    "SEC": "003",
    "SS": "02"
  },
  "addresses": [
    {
      "id": "pt.ine.add.PTCONT.2293865",
      "street": "BR ANDORINHAS",
      "house": "",
      "postcode": "2655-230",
      "city": "ERICEIRA",
      "lon": "-9.414018435141578",
      "lat": "38.95746428617795"
    },
    {
      "id": "pt.ine.add.PTCONT.2298886",
      "street": "R DESCOBRIMENTOS CASAL DOS LAGARTOS",
      "house": "7",
      "postcode": "2655-263",
      "city": "ERICEIRA",
      "lon": "-9.413776683563198",
      "lat": "38.95813348284621"
    },
    {
      "id": "pt.ine.add.PTCONT.2307907",
      "street": "R DESCOBRIMENTOS",
      "house": "",
      "postcode": "2655-263",
      "city": "ERICEIRA",
      "lon": "-9.414201318998689",
      "lat": "38.95865124757995"
    },
    {
      "id": "pt.ine.add.PTCONT.2361839",
      "street": "R CMDT FILIPE FREIRE",
      "house": "2",
      "postcode": "2655-453",
      "city": "ERICEIRA",
      "lon": "-9.411870716722866",
      "lat": "38.956713209688886"
    },
    {
      "id": "pt.ine.add.PTCONT.2381032",
      "street": "R LUIS DE CAMÕES",
      "house": "",
      "postcode": "2655-301",
      "city": "ERICEIRA",
      "lon": "-9.412489973193946",
      "lat": "38.959714874320156"
    },
    {
      "id": "pt.ine.add.PTCONT.2389805",
      "street": "R EDUARDO HENRIQUES PEREIRA",
      "house": "1D BLOCOA",
      "postcode": "2655-267",
      "city": "ERICEIRA",
      "lon": "-9.41336723585161",
      "lat": "38.959741282259564"
    },
    {
      "id": "pt.ine.add.PTCONT.2389806",
      "street": "R EDUARDO HENRIQUES PEREIRA",
      "house": "1D BLOCOA",
      "postcode": "2655-267",
      "city": "ERICEIRA",
      "lon": "-9.41336723585161",
      "lat": "38.959741282259564"
    },
    {
      "id": "pt.ine.add.PTCONT.2389807",
      "street": "R EDUARDO HENRIQUES PEREIRA",
      "house": "1D BLOCOA",
      "postcode": "2655-267",
      "city": "ERICEIRA",
      "lon": "-9.41336723585161",
      "lat": "38.959741282259564"
    },
    {
      "id": "pt.ine.add.PTCONT.2389808",
      "street": "R EDUARDO HENRIQUES PEREIRA",
      "house": "1D BLOCOA",
      "postcode": "2655-267",
      "city": "ERICEIRA",
      "lon": "-9.41336723585161",
      "lat": "38.959741282259564"
    },
    {
      "id": "pt.ine.add.PTCONT.2389809",
      "street": "R EDUARDO HENRIQUES PEREIRA",
      "house": "1D BLOCOA",
      "postcode": "2655-267",
      "city": "ERICEIRA",
      "lon": "-9.41336723585161",
      "lat": "38.959741282259564"
    },
    {
      "id": "pt.ine.add.PTCONT.2389810",
      "street": "R EDUARDO HENRIQUES PEREIRA",
      "house": "1D BLOCOA",
      "postcode": "2655-267",
      "city": "ERICEIRA",
      "lon": "-9.41336723585161",
      "lat": "38.959741282259564"
    },
    {
      "id": "pt.ine.add.PTCONT.2389811",
      "street": "R EDUARDO HENRIQUES PEREIRA",
      "house": "1D BLOCOA",
      "postcode": "2655-267",
      "city": "ERICEIRA",
      "lon": "-9.41336723585161",
      "lat": "38.959741282259564"
    },
    {
      "id": "pt.ine.add.PTCONT.2389812",
      "street": "R EDUARDO HENRIQUES PEREIRA",
      "house": "1D BLOCOA",
      "postcode": "2655-267",
      "city": "ERICEIRA",
      "lon": "-9.41336723585161",
      "lat": "38.959741282259564"
    },
    {
      "id": "pt.ine.add.PTCONT.2389813",
      "street": "R EDUARDO HENRIQUES PEREIRA",
      "house": "301",
      "postcode": "2655-267",
      "city": "ERICEIRA",
      "lon": "-9.41336723585161",
      "lat": "38.959741282259564"
    },
    {
      "id": "pt.ine.add.PTCONT.2389814",
      "street": "R EDUARDO HENRIQUES PEREIRA",
      "house": "1D BLOCOA",
      "postcode": "2655-267",
      "city": "ERICEIRA",
      "lon": "-9.41336723585161",
      "lat": "38.959741282259564"
    },
    {
      "id": "pt.ine.add.PTCONT.2389815",
      "street": "R EDUARDO HENRIQUES PEREIRA",
      "house": "1D BLOCOA",
      "postcode": "2655-267",
      "city": "ERICEIRA",
      "lon": "-9.41336723585161",
      "lat": "38.959741282259564"
    },
    {
      "id": "pt.ine.add.PTCONT.2393277",
      "street": "R EDUARDO HENRIQUES PEREIRA",
      "house": "1D BLOCOA",
      "postcode": "2655-267",
      "city": "ERICEIRA",
      "lon": "-9.41336723585161",
      "lat": "38.959741282259564"
    },
    {
      "id": "pt.ine.add.PTCONT.2394336",
      "street": "R MANUEL PEREIRA SANTA ROSA",
      "house": "8",
      "postcode": "2655-004",
      "city": "ERICEIRA",
      "lon": "-9.413138769874667",
      "lat": "38.95730279917618"
    },
    {
      "id": "pt.ine.add.PTCONT.2394337",
      "street": "R MANUEL PEREIRA SANTA ROSA",
      "house": "8",
      "postcode": "2655-004",
      "city": "ERICEIRA",
      "lon": "-9.413138769874667",
      "lat": "38.95730279917618"
    },
    {
      "id": "pt.ine.add.PTCONT.2394338",
      "street": "R MANUEL PEREIRA SANTA ROSA",
      "house": "8",
      "postcode": "2655-004",
      "city": "ERICEIRA",
      "lon": "-9.413138769874667",
      "lat": "38.95730279917618"
    },
    {
      "id": "pt.ine.add.PTCONT.2394339",
      "street": "R MANUEL PEREIRA SANTA ROSA",
      "house": "8",
      "postcode": "2655-004",
      "city": "ERICEIRA",
      "lon": "-9.413138769874667",
      "lat": "38.95730279917618"
    },
    {
      "id": "pt.ine.add.PTCONT.2394340",
      "street": "R MANUEL PEREIRA SANTA ROSA",
      "house": "8",
      "postcode": "2655-004",
      "city": "ERICEIRA",
      "lon": "-9.413138769874667",
      "lat": "38.95730279917618"
    },
    {
      "id": "pt.ine.add.PTCONT.2394341",
      "street": "R MANUEL PEREIRA SANTA ROSA",
      "house": "8",
      "postcode": "2655-004",
      "city": "ERICEIRA",
      "lon": "-9.413138769874667",
      "lat": "38.95730279917618"
    },
    {
      "id": "pt.ine.add.PTCONT.2394342",
      "street": "R MANUEL PEREIRA SANTA ROSA",
      "house": "8",
      "postcode": "2655-004",
      "city": "ERICEIRA",
      "lon": "-9.413138769874667",
      "lat": "38.95730279917618"
    },
    {
      "id": "pt.ine.add.PTCONT.2394343",
      "street": "R MANUEL PEREIRA SANTA ROSA",
      "house": "8",
      "postcode": "2655-004",
      "city": "ERICEIRA",
      "lon": "-9.413138769874667",
      "lat": "38.95730279917618"
    },
    {
      "id": "pt.ine.add.PTCONT.2394344",
      "street": "R MANUEL PEREIRA SANTA ROSA",
      "house": "8",
      "postcode": "2655-004",
      "city": "ERICEIRA",
      "lon": "-9.413138769874667",
      "lat": "38.95730279917618"
    },
    {
      "id": "pt.ine.add.PTCONT.2394345",
      "street": "R MANUEL PEREIRA SANTA ROSA",
      "house": "8",
      "postcode": "2655-004",
      "city": "ERICEIRA",
      "lon": "-9.413138769874667",
      "lat": "38.95730279917618"
    },
    {
      "id": "pt.ine.add.PTCONT.2394346",
      "street": "R MANUEL PEREIRA SANTA ROSA",
      "house": "8",
      "postcode": "2655-004",
      "city": "ERICEIRA",
      "lon": "-9.413138769874667",
      "lat": "38.95730279917618"
    },
    {
      "id": "pt.ine.add.PTCONT.2394370",
      "street": "R MANUEL PEREIRA SANTA ROSA",
      "house": "8",
      "postcode": "2655-004",
      "city": "ERICEIRA",
      "lon": "-9.413138769874667",
      "lat": "38.95730279917618"
    },
    {
      "id": "pt.ine.add.PTCONT.2423210",
      "street": "BR ANDORINHAS CASA DA CHAMINÉ",
      "house": "",
      "postcode": "2655-230",
      "city": "ERICEIRA",
      "lon": "-9.41383859242453",
      "lat": "38.957727473035376"
    },
    {
      "id": "pt.ine.add.PTCONT.2430914",
      "street": "R FRANCISCO LOPES FRANCO",
      "house": "7",
      "postcode": "2655-287",
      "city": "ERICEIRA",
      "lon": "-9.412247736369814",
      "lat": "38.95715043746989"
    },
    {
      "id": "pt.ine.add.PTCONT.2464087",
      "street": "BR ANDORINHAS CASA DE S GABRIEL",
      "house": "",
      "postcode": "2655-230",
      "city": "ERICEIRA",
      "lon": "-9.414393038875955",
      "lat": "38.957766423271856"
    },
    {
      "id": "pt.ine.add.PTCONT.2465612",
      "street": "BR ANDORINHAS VASOS VERDES",
      "house": "",
      "postcode": "2655-230",
      "city": "ERICEIRA",
      "lon": "-9.413578845174936",
      "lat": "38.957397051860646"
    },
    {
      "id": "pt.ine.add.PTCONT.2501886",
      "street": "BR ANDORINHAS",
      "house": "",
      "postcode": "2655-230",
      "city": "ERICEIRA",
      "lon": "-9.414249764454478",
      "lat": "38.957497776081986"
    },
    {
      "id": "pt.ine.add.PTCONT.2550798",
      "street": "R MANUEL PEREIRA S ROSA",
      "house": "6",
      "postcode": "2655-004",
      "city": "ERICEIRA",
      "lon": "-9.413013870413218",
      "lat": "38.956772735893004"
    },
    {
      "id": "pt.ine.add.PTCONT.2633856",
      "street": "R BAIRRO JOÃO DAVID SOARES",
      "house": "5",
      "postcode": "2655-293",
      "city": "ERICEIRA",
      "lon": "-9.414146111701625",
      "lat": "38.95716149897334"
    },
    {
      "id": "pt.ine.add.PTCONT.2649025",
      "street": "R DESCOBRIMENTOS",
      "house": "Z",
      "postcode": "2655-263",
      "city": "ERICEIRA",
      "lon": "-9.414363789189807",
      "lat": "38.958063986682795"
    },
    {
      "id": "pt.ine.add.PTCONT.2660561",
      "street": "R DESCOBRIMENTOS",
      "house": "",
      "postcode": "2655-263",
      "city": "ERICEIRA",
      "lon": "-9.414203589559335",
      "lat": "38.95877732541286"
    },
    {
      "id": "pt.ine.add.PTCONT.2660567",
      "street": "R FRANCISCO LOPES FRANCO",
      "house": "17",
      "postcode": "2655-287",
      "city": "ERICEIRA",
      "lon": "-9.412865193782565",
      "lat": "38.95748594661173"
    },
    {
      "id": "pt.ine.add.PTCONT.2663902",
      "street": "R FRANCISCO LOPES FRANCO",
      "house": "27",
      "postcode": "2655-287",
      "city": "ERICEIRA",
      "lon": "-9.41306726764029",
      "lat": "38.9578170019979"
    },
    {
      "id": "pt.ine.add.PTCONT.2677616",
      "street": "BR ANDORINHAS",
      "house": "10",
      "postcode": "2655-230",
      "city": "ERICEIRA",
      "lon": "-9.41375234183852",
      "lat": "38.95742216999134"
    },
    {
      "id": "pt.ine.add.PTCONT.2685581",
      "street": "R MANUEL PEREIRA S ROSA",
      "house": "26",
      "postcode": "2655-004",
      "city": "ERICEIRA",
      "lon": "-9.412954580664167",
      "lat": "38.95668331273172"
    },
    {
      "id": "pt.ine.add.PTCONT.2778704",
      "street": "TV CMDT FILIPE FREIRE",
      "house": "37",
      "postcode": "2655-451",
      "city": "ERICEIRA",
      "lon": "-9.412252955223304",
      "lat": "38.956799093847096"
    },
    {
      "id": "pt.ine.add.PTCONT.2778705",
      "street": "R BAIRRO JOÃO DAVID SOARES",
      "house": "7",
      "postcode": "2655-293",
      "city": "ERICEIRA",
      "lon": "-9.413885723945802",
      "lat": "38.95714147851108"
    },
    {
      "id": "pt.ine.add.PTCONT.2795445",
      "street": "BR ANDORINHAS CASA DE S JOSE",
      "house": "",
      "postcode": "2655-230",
      "city": "ERICEIRA",
      "lon": "-9.413856796582154",
      "lat": "38.95745705298276"
    },
    {
      "id": "pt.ine.add.PTCONT.2826567",
      "street": "R LUIS DE CAMÕES",
      "house": "",
      "postcode": "2655-301",
      "city": "ERICEIRA",
      "lon": "-9.412584678167924",
      "lat": "38.95984894605129"
    },
    {
      "id": "pt.ine.add.PTCONT.2826568",
      "street": "R LUIS DE CAMÕES",
      "house": "",
      "postcode": "2655-301",
      "city": "ERICEIRA",
      "lon": "-9.412584678167924",
      "lat": "38.95984894605129"
    },
    {
      "id": "pt.ine.add.PTCONT.2826569",
      "street": "R LUIS DE CAMÕES",
      "house": "",
      "postcode": "2655-301",
      "city": "ERICEIRA",
      "lon": "-9.412584678167924",
      "lat": "38.95984894605129"
    },
    {
      "id": "pt.ine.add.PTCONT.2826570",
      "street": "R LUIS DE CAMÕES",
      "house": "",
      "postcode": "2655-301",
      "city": "ERICEIRA",
      "lon": "-9.412584678167924",
      "lat": "38.95984894605129"
    },
    {
      "id": "pt.ine.add.PTCONT.2826571",
      "street": "R LUIS DE CAMÕES",
      "house": "",
      "postcode": "2655-301",
      "city": "ERICEIRA",
      "lon": "-9.412584678167924",
      "lat": "38.95984894605129"
    },
    {
      "id": "pt.ine.add.PTCONT.2826572",
      "street": "R LUIS DE CAMÕES",
      "house": "",
      "postcode": "2655-301",
      "city": "ERICEIRA",
      "lon": "-9.412584678167924",
      "lat": "38.95984894605129"
    },
    {
      "id": "pt.ine.add.PTCONT.2826573",
      "street": "R LUIS DE CAMÕES",
      "house": "",
      "postcode": "2655-301",
      "city": "ERICEIRA",
      "lon": "-9.412584678167924",
      "lat": "38.95984894605129"
    },
    {
      "id": "pt.ine.add.PTCONT.2826574",
      "street": "R LUIS DE CAMÕES",
      "house": "",
      "postcode": "2655-301",
      "city": "ERICEIRA",
      "lon": "-9.412584678167924",
      "lat": "38.95984894605129"
    },
    {
      "id": "pt.ine.add.PTCONT.2838594",
      "street": "BR ANDORINHAS CASA BRANCA ANEXO",
      "house": "",
      "postcode": "2655-230",
      "city": "ERICEIRA",
      "lon": "-9.413428740816997",
      "lat": "38.957389691506464"
    },
    {
      "id": "pt.ine.add.PTCONT.2842969",
      "street": "R EDUARDO HENRIQUES PEREIRA",
      "house": "",
      "postcode": "2655-267",
      "city": "ERICEIRA",
      "lon": "-9.414016567733313",
      "lat": "38.95992331054156"
    },
    {
      "id": "pt.ine.add.PTCONT.2842970",
      "street": "R EDUARDO HENRIQUES PEREIRA",
      "house": "",
      "postcode": "2655-267",
      "city": "ERICEIRA",
      "lon": "-9.414016567733313",
      "lat": "38.95992331054156"
    },
    {
      "id": "pt.ine.add.PTCONT.2842971",
      "street": "R EDUARDO HENRIQUES PEREIRA",
      "house": "",
      "postcode": "2655-267",
      "city": "ERICEIRA",
      "lon": "-9.414016567733313",
      "lat": "38.95992331054156"
    },
    {
      "id": "pt.ine.add.PTCONT.2842972",
      "street": "R EDUARDO HENRIQUES PEREIRA",
      "house": "",
      "postcode": "2655-267",
      "city": "ERICEIRA",
      "lon": "-9.414016567733313",
      "lat": "38.95992331054156"
    },
    {
      "id": "pt.ine.add.PTCONT.2842973",
      "street": "R EDUARDO HENRIQUES PEREIRA",
      "house": "",
      "postcode": "2655-267",
      "city": "ERICEIRA",
      "lon": "-9.414016567733313",
      "lat": "38.95992331054156"
    },
    {
      "id": "pt.ine.add.PTCONT.2842974",
      "street": "R EDUARDO HENRIQUES PEREIRA",
      "house": "",
      "postcode": "2655-267",
      "city": "ERICEIRA",
      "lon": "-9.414016567733313",
      "lat": "38.95992331054156"
    },
    {
      "id": "pt.ine.add.PTCONT.2842975",
      "street": "R EDUARDO HENRIQUES PEREIRA",
      "house": "",
      "postcode": "2655-267",
      "city": "ERICEIRA",
      "lon": "-9.414016567733313",
      "lat": "38.95992331054156"
    },
    {
      "id": "pt.ine.add.PTCONT.2842976",
      "street": "R EDUARDO HENRIQUES PEREIRA",
      "house": "",
      "postcode": "2655-267",
      "city": "ERICEIRA",
      "lon": "-9.414016567733313",
      "lat": "38.95992331054156"
    },
    {
      "id": "pt.ine.add.PTCONT.2842977",
      "street": "R EDUARDO HENRIQUES PEREIRA",
      "house": "",
      "postcode": "2655-267",
      "city": "ERICEIRA",
      "lon": "-9.414016567733313",
      "lat": "38.95992331054156"
    },
    {
      "id": "pt.ine.add.PTCONT.2842978",
      "street": "R EDUARDO HENRIQUES PEREIRA",
      "house": "",
      "postcode": "2655-267",
      "city": "ERICEIRA",
      "lon": "-9.414016567733313",
      "lat": "38.95992331054156"
    },
    {
      "id": "pt.ine.add.PTCONT.2842979",
      "street": "R EDUARDO HENRIQUES PEREIRA",
      "house": "",
      "postcode": "2655-267",
      "city": "ERICEIRA",
      "lon": "-9.414016567733313",
      "lat": "38.95992331054156"
    },
    {
      "id": "pt.ine.add.PTCONT.2875369",
      "street": "R DESCOBRIMENTOS",
      "house": "",
      "postcode": "2655-263",
      "city": "ERICEIRA",
      "lon": "-9.414194001505896",
      "lat": "38.95888551875193"
    },
    {
      "id": "pt.ine.add.PTCONT.2914884",
      "street": "R DESCOBRIMENTOS",
      "house": "",
      "postcode": "2655-263",
      "city": "ERICEIRA",
      "lon": "-9.414220657198777",
      "lat": "38.95844386645117"
    },
    {
      "id": "pt.ine.add.PTCONT.2917639",
      "street": "BR ANDORINHAS",
      "house": "1",
      "postcode": "2655-230",
      "city": "ERICEIRA",
      "lon": "-9.414082105248735",
      "lat": "38.95779685891483"
    },
    {
      "id": "pt.ine.add.PTCONT.2937763",
      "street": "BR ANDORINHAS",
      "house": "",
      "postcode": "2655-230",
      "city": "ERICEIRA",
      "lon": "-9.413551051038487",
      "lat": "38.957775665210434"
    },
    {
      "id": "pt.ine.add.PTCONT.2941851",
      "street": "R DESCOBRIMENTOS",
      "house": "",
      "postcode": "2655-263",
      "city": "ERICEIRA",
      "lon": "-9.414211231385362",
      "lat": "38.958561065356186"
    },
    {
      "id": "pt.ine.add.PTCONT.2942758",
      "street": "R MANUEL PEREIRA SANTA ROSA",
      "house": "8",
      "postcode": "2655-004",
      "city": "ERICEIRA",
      "lon": "-9.413053008926102",
      "lat": "38.95702451223241"
    },
    {
      "id": "pt.ine.add.PTCONT.2942759",
      "street": "R MANUEL PEREIRA SANTA ROSA",
      "house": "8",
      "postcode": "2655-004",
      "city": "ERICEIRA",
      "lon": "-9.413053008926102",
      "lat": "38.95702451223241"
    },
    {
      "id": "pt.ine.add.PTCONT.2942760",
      "street": "R MANUEL PEREIRA SANTA ROSA",
      "house": "8",
      "postcode": "2655-004",
      "city": "ERICEIRA",
      "lon": "-9.413053008926102",
      "lat": "38.95702451223241"
    },
    {
      "id": "pt.ine.add.PTCONT.2942761",
      "street": "R MANUEL PEREIRA SANTA ROSA",
      "house": "8",
      "postcode": "2655-004",
      "city": "ERICEIRA",
      "lon": "-9.413053008926102",
      "lat": "38.95702451223241"
    },
    {
      "id": "pt.ine.add.PTCONT.2942762",
      "street": "R MANUEL PEREIRA SANTA ROSA",
      "house": "8",
      "postcode": "2655-004",
      "city": "ERICEIRA",
      "lon": "-9.413053008926102",
      "lat": "38.95702451223241"
    },
    {
      "id": "pt.ine.add.PTCONT.2942763",
      "street": "R MANUEL PEREIRA SANTA ROSA",
      "house": "8",
      "postcode": "2655-004",
      "city": "ERICEIRA",
      "lon": "-9.413053008926102",
      "lat": "38.95702451223241"
    },
    {
      "id": "pt.ine.add.PTCONT.2942764",
      "street": "R MANUEL PEREIRA SANTA ROSA",
      "house": "8",
      "postcode": "2655-004",
      "city": "ERICEIRA",
      "lon": "-9.413053008926102",
      "lat": "38.95702451223241"
    },
    {
      "id": "pt.ine.add.PTCONT.2942765",
      "street": "R MANUEL PEREIRA SANTA ROSA",
      "house": "8",
      "postcode": "2655-004",
      "city": "ERICEIRA",
      "lon": "-9.413053008926102",
      "lat": "38.95702451223241"
    },
    {
      "id": "pt.ine.add.PTCONT.2942766",
      "street": "R MANUEL PEREIRA SANTA ROSA",
      "house": "8",
      "postcode": "2655-004",
      "city": "ERICEIRA",
      "lon": "-9.413053008926102",
      "lat": "38.95702451223241"
    },
    {
      "id": "pt.ine.add.PTCONT.2942767",
      "street": "R MANUEL PEREIRA SANTA ROSA",
      "house": "8",
      "postcode": "2655-004",
      "city": "ERICEIRA",
      "lon": "-9.413053008926102",
      "lat": "38.95702451223241"
    },
    {
      "id": "pt.ine.add.PTCONT.2942808",
      "street": "R MANUEL PEREIRA SANTA ROSA",
      "house": "8",
      "postcode": "2655-004",
      "city": "ERICEIRA",
      "lon": "-9.413053008926102",
      "lat": "38.95702451223241"
    },
    {
      "id": "pt.ine.add.PTCONT.2942813",
      "street": "R MANUEL PEREIRA SANTA ROSA",
      "house": "8",
      "postcode": "2655-004",
      "city": "ERICEIRA",
      "lon": "-9.413053008926102",
      "lat": "38.95702451223241"
    },
    {
      "id": "pt.ine.add.PTCONT.2946793",
      "street": "R FRANCISCO LOPES FRANCO",
      "house": "21",
      "postcode": "2655-287",
      "city": "ERICEIRA",
      "lon": "-9.41294771424071",
      "lat": "38.957584122364764"
    },
    {
      "id": "pt.ine.add.PTCONT.2961522",
      "street": "R FRANCISCO LOPES FRANCO",
      "house": "5",
      "postcode": "2655-287",
      "city": "ERICEIRA",
      "lon": "-9.412085774825057",
      "lat": "38.95712519066749"
    },
    {
      "id": "pt.ine.add.PTCONT.2975307",
      "street": "BR ANDORINHAS",
      "house": "",
      "postcode": "2655-230",
      "city": "ERICEIRA",
      "lon": "-9.413236227629213",
      "lat": "38.95758996506922"
    },
    {
      "id": "pt.ine.add.PTCONT.2993436",
      "street": "R FRANCISCO LOPES FRANCO",
      "house": "13",
      "postcode": "2655-287",
      "city": "ERICEIRA",
      "lon": "-9.41258465150599",
      "lat": "38.95728185403887"
    },
    {
      "id": "pt.ine.add.PTCONT.3002474",
      "street": "R BAIRRO JOÃO DAVID SOARES CASA BRANCA",
      "house": "9",
      "postcode": "2655-293",
      "city": "ERICEIRA",
      "lon": "-9.41362076662624",
      "lat": "38.95716240094581"
    },
    {
      "id": "pt.ine.add.PTCONT.3011959",
      "street": "R FRANCISCO LOPES FRANCO",
      "house": "23",
      "postcode": "2655-287",
      "city": "ERICEIRA",
      "lon": "-9.413018214777923",
      "lat": "38.95765540786613"
    },
    {
      "id": "pt.ine.add.PTCONT.3070374",
      "street": "R DESCOBRIMENTOS",
      "house": "",
      "postcode": "2655-263",
      "city": "ERICEIRA",
      "lon": "-9.414259333310532",
      "lat": "38.95802910416801"
    },
    {
      "id": "pt.ine.add.PTCONT.3095769",
      "street": "R BAIRRO JOÃO DAVID SOARES CASA DA RAMPA",
      "house": "1",
      "postcode": "2655-293",
      "city": "ERICEIRA",
      "lon": "-9.414503513194001",
      "lat": "38.95749498997697"
    },
    {
      "id": "pt.ine.add.PTCONT.3132432",
      "street": "R LUIS DE CAMÕES",
      "house": "",
      "postcode": "2655-301",
      "city": "ERICEIRA",
      "lon": "-9.412851752084867",
      "lat": "38.95994509811688"
    },
    {
      "id": "pt.ine.add.PTCONT.3132434",
      "street": "R LUIS DE CAMÕES",
      "house": "",
      "postcode": "2655-301",
      "city": "ERICEIRA",
      "lon": "-9.412851752084867",
      "lat": "38.95994509811688"
    },
    {
      "id": "pt.ine.add.PTCONT.3132435",
      "street": "R LUIS DE CAMÕES",
      "house": "",
      "postcode": "2655-301",
      "city": "ERICEIRA",
      "lon": "-9.412851752084867",
      "lat": "38.95994509811688"
    },
    {
      "id": "pt.ine.add.PTCONT.3132436",
      "street": "R LUIS DE CAMÕES",
      "house": "",
      "postcode": "2655-301",
      "city": "ERICEIRA",
      "lon": "-9.412851752084867",
      "lat": "38.95994509811688"
    },
    {
      "id": "pt.ine.add.PTCONT.3132437",
      "street": "R LUIS DE CAMÕES",
      "house": "",
      "postcode": "2655-301",
      "city": "ERICEIRA",
      "lon": "-9.412851752084867",
      "lat": "38.95994509811688"
    },
    {
      "id": "pt.ine.add.PTCONT.3132438",
      "street": "R LUIS DE CAMÕES",
      "house": "",
      "postcode": "2655-301",
      "city": "ERICEIRA",
      "lon": "-9.412851752084867",
      "lat": "38.95994509811688"
    },
    {
      "id": "pt.ine.add.PTCONT.3132439",
      "street": "R LUIS DE CAMÕES",
      "house": "",
      "postcode": "2655-301",
      "city": "ERICEIRA",
      "lon": "-9.412851752084867",
      "lat": "38.95994509811688"
    },
    {
      "id": "pt.ine.add.PTCONT.3153352",
      "street": "R BAIRRO JOÃO DAVID SOARES",
      "house": "3",
      "postcode": "2655-293",
      "city": "ERICEIRA",
      "lon": "-9.4143707997509",
      "lat": "38.95717218290155"
    },
    {
      "id": "pt.ine.add.PTCONT.3161141",
      "street": "BR ANDORINHAS JARDIM AMPLO",
      "house": "",
      "postcode": "2655-230",
      "city": "ERICEIRA",
      "lon": "-9.413398838900656",
      "lat": "38.95765123250401"
    },
    {
      "id": "pt.ine.add.PTCONT.3234839",
      "street": "R FRANCISCO LOPES FRANCO",
      "house": "15",
      "postcode": "2655-287",
      "city": "ERICEIRA",
      "lon": "-9.412724679461125",
      "lat": "38.957370392063744"
    },
    {
      "id": "pt.ine.add.PTCONT.3244155",
      "street": "R FRANCISCO LOPES FRANCO",
      "house": "",
      "postcode": "2655-287",
      "city": "ERICEIRA",
      "lon": "-9.41339751561727",
      "lat": "38.95821870955212"
    },
    {
      "id": "pt.ine.add.PTCONT.3244156",
      "street": "R CMDT FILIPE FREIRE",
      "house": "28",
      "postcode": "2655-453",
      "city": "ERICEIRA",
      "lon": "-9.412700510703521",
      "lat": "38.9566680842849"
    },
    {
      "id": "pt.ine.add.PTCONT.3264089",
      "street": "R CMDT FILIPE FREIRE",
      "house": "14",
      "postcode": "2655-453",
      "city": "ERICEIRA",
      "lon": "-9.412826411694208",
      "lat": "38.95661265960492"
    },
    {
      "id": "pt.ine.add.PTCONT.3298249",
      "street": "TV CMDT FILIPE FREIRE",
      "house": "36",
      "postcode": "2655-453",
      "city": "ERICEIRA",
      "lon": "-9.412358703855663",
      "lat": "38.95690602276295"
    },
    {
      "id": "pt.ine.add.PTCONT.3317983",
      "street": "TV CMDT FILIPE FREIRE",
      "house": "32",
      "postcode": "2655-453",
      "city": "ERICEIRA",
      "lon": "-9.412694646124196",
      "lat": "38.956983405628286"
    },
    {
      "id": "pt.ine.add.PTCONT.3326873",
      "street": "R DESCOBRIMENTOS",
      "house": "",
      "postcode": "2655-263",
      "city": "ERICEIRA",
      "lon": "-9.414119788680622",
      "lat": "38.95796758473163"
    },
    {
      "id": "pt.ine.add.PTCONT.3345473",
      "street": "R FRANCISCO LOPES FRANCO CASA DAS SOFIAS",
      "house": "9",
      "postcode": "2655-287",
      "city": "ERICEIRA",
      "lon": "-9.41237574382325",
      "lat": "38.95721208565111"
    },
    {
      "id": "pt.ine.add.PTCONT.3362500",
      "street": "R FRANCISCO LOPES FRANCO",
      "house": "1",
      "postcode": "2655-287",
      "city": "ERICEIRA",
      "lon": "-9.411880429426184",
      "lat": "38.95725354391061"
    },
    {
      "id": "pt.ine.add.PTCONT.3374153",
      "street": "R FRANCISCO LOPES FRANCO",
      "house": "25",
      "postcode": "2655-287",
      "city": "ERICEIRA",
      "lon": "-9.413019673022886",
      "lat": "38.95773645795328"
    },
    {
      "id": "pt.ine.add.PTCONT.3386891",
      "street": "R EDUARDO HENRIQUES PEREIRA",
      "house": "1D",
      "postcode": "2655-267",
      "city": "ERICEIRA",
      "lon": "-9.413064100483377",
      "lat": "38.95956446086772"
    },
    {
      "id": "pt.ine.add.PTCONT.3386892",
      "street": "R EDUARDO HENRIQUES PEREIRA",
      "house": "1D",
      "postcode": "2655-267",
      "city": "ERICEIRA",
      "lon": "-9.413064100483377",
      "lat": "38.95956446086772"
    },
    {
      "id": "pt.ine.add.PTCONT.3386893",
      "street": "R EDUARDO HENRIQUES PEREIRA",
      "house": "1D",
      "postcode": "2655-267",
      "city": "ERICEIRA",
      "lon": "-9.413064100483377",
      "lat": "38.95956446086772"
    },
    {
      "id": "pt.ine.add.PTCONT.3386894",
      "street": "R EDUARDO HENRIQUES PEREIRA",
      "house": "1D",
      "postcode": "2655-267",
      "city": "ERICEIRA",
      "lon": "-9.413064100483377",
      "lat": "38.95956446086772"
    },
    {
      "id": "pt.ine.add.PTCONT.3386895",
      "street": "R EDUARDO HENRIQUES PEREIRA",
      "house": "1D",
      "postcode": "2655-267",
      "city": "ERICEIRA",
      "lon": "-9.413064100483377",
      "lat": "38.95956446086772"
    },
    {
      "id": "pt.ine.add.PTCONT.3386896",
      "street": "R EDUARDO HENRIQUES PEREIRA",
      "house": "1D",
      "postcode": "2655-267",
      "city": "ERICEIRA",
      "lon": "-9.413064100483377",
      "lat": "38.95956446086772"
    },
    {
      "id": "pt.ine.add.PTCONT.3386897",
      "street": "R EDUARDO HENRIQUES PEREIRA",
      "house": "1D",
      "postcode": "2655-267",
      "city": "ERICEIRA",
      "lon": "-9.413064100483377",
      "lat": "38.95956446086772"
    },
    {
      "id": "pt.ine.add.PTCONT.3386898",
      "street": "R EDUARDO HENRIQUES PEREIRA",
      "house": "1D",
      "postcode": "2655-267",
      "city": "ERICEIRA",
      "lon": "-9.413064100483377",
      "lat": "38.95956446086772"
    },
    {
      "id": "pt.ine.add.PTCONT.3386899",
      "street": "R EDUARDO HENRIQUES PEREIRA",
      "house": "1D",
      "postcode": "2655-267",
      "city": "ERICEIRA",
      "lon": "-9.413064100483377",
      "lat": "38.95956446086772"
    },
    {
      "id": "pt.ine.add.PTCONT.3386900",
      "street": "R EDUARDO HENRIQUES PEREIRA",
      "house": "1D",
      "postcode": "2655-267",
      "city": "ERICEIRA",
      "lon": "-9.413064100483377",
      "lat": "38.95956446086772"
    },
    {
      "id": "pt.ine.add.PTCONT.3386901",
      "street": "R EDUARDO HENRIQUES PEREIRA",
      "house": "1D",
      "postcode": "2655-267",
      "city": "ERICEIRA",
      "lon": "-9.413064100483377",
      "lat": "38.95956446086772"
    },
    {
      "id": "pt.ine.add.PTCONT.3386902",
      "street": "R EDUARDO HENRIQUES PEREIRA",
      "house": "1D",
      "postcode": "2655-267",
      "city": "ERICEIRA",
      "lon": "-9.413064100483377",
      "lat": "38.95956446086772"
    },
    {
      "id": "pt.ine.add.PTCONT.3386903",
      "street": "R EDUARDO HENRIQUES PEREIRA",
      "house": "1D",
      "postcode": "2655-267",
      "city": "ERICEIRA",
      "lon": "-9.413064100483377",
      "lat": "38.95956446086772"
    },
    {
      "id": "pt.ine.add.PTCONT.3386913",
      "street": "R EDUARDO HENRIQUES PEREIRA",
      "house": "1D",
      "postcode": "2655-267",
      "city": "ERICEIRA",
      "lon": "-9.413064100483377",
      "lat": "38.95956446086772"
    },
    {
      "id": "pt.ine.add.PTCONT.3386914",
      "street": "R EDUARDO HENRIQUES PEREIRA",
      "house": "1D",
      "postcode": "2655-267",
      "city": "ERICEIRA",
      "lon": "-9.413064100483377",
      "lat": "38.95956446086772"
    },
    {
      "id": "pt.ine.add.PTCONT.3410346",
      "street": "TV CMDT FILIPE FREIRE",
      "house": "34",
      "postcode": "2655-451",
      "city": "ERICEIRA",
      "lon": "-9.412645594731199",
      "lat": "38.95682181129337"
    },
    {
      "id": "pt.ine.add.PTCONT.3414029",
      "street": "R EDUARDO HENRIQUES PEREIRA",
      "house": "",
      "postcode": "2655-267",
      "city": "ERICEIRA",
      "lon": "-9.413925913851998",
      "lat": "38.96001437898743"
    },
    {
      "id": "pt.ine.add.PTCONT.3414030",
      "street": "R EDUARDO HENRIQUES PEREIRA",
      "house": "",
      "postcode": "2655-267",
      "city": "ERICEIRA",
      "lon": "-9.413925913851998",
      "lat": "38.96001437898743"
    },
    {
      "id": "pt.ine.add.PTCONT.3414031",
      "street": "R EDUARDO HENRIQUES PEREIRA",
      "house": "",
      "postcode": "2655-267",
      "city": "ERICEIRA",
      "lon": "-9.413925913851998",
      "lat": "38.96001437898743"
    },
    {
      "id": "pt.ine.add.PTCONT.3414032",
      "street": "R EDUARDO HENRIQUES PEREIRA",
      "house": "",
      "postcode": "2655-267",
      "city": "ERICEIRA",
      "lon": "-9.413925913851998",
      "lat": "38.96001437898743"
    },
    {
      "id": "pt.ine.add.PTCONT.3414033",
      "street": "R EDUARDO HENRIQUES PEREIRA",
      "house": "",
      "postcode": "2655-267",
      "city": "ERICEIRA",
      "lon": "-9.413925913851998",
      "lat": "38.96001437898743"
    },
    {
      "id": "pt.ine.add.PTCONT.3414034",
      "street": "R EDUARDO HENRIQUES PEREIRA",
      "house": "",
      "postcode": "2655-267",
      "city": "ERICEIRA",
      "lon": "-9.413925913851998",
      "lat": "38.96001437898743"
    },
    {
      "id": "pt.ine.add.PTCONT.3414035",
      "street": "R EDUARDO HENRIQUES PEREIRA",
      "house": "",
      "postcode": "2655-267",
      "city": "ERICEIRA",
      "lon": "-9.413925913851998",
      "lat": "38.96001437898743"
    },
    {
      "id": "pt.ine.add.PTCONT.3414036",
      "street": "R EDUARDO HENRIQUES PEREIRA",
      "house": "",
      "postcode": "2655-267",
      "city": "ERICEIRA",
      "lon": "-9.413925913851998",
      "lat": "38.96001437898743"
    },
    {
      "id": "pt.ine.add.PTCONT.3414039",
      "street": "R EDUARDO HENRIQUES PEREIRA",
      "house": "",
      "postcode": "2655-267",
      "city": "ERICEIRA",
      "lon": "-9.413925913851998",
      "lat": "38.96001437898743"
    },
    {
      "id": "pt.ine.add.PTCONT.3414040",
      "street": "R EDUARDO HENRIQUES PEREIRA",
      "house": "",
      "postcode": "2655-267",
      "city": "ERICEIRA",
      "lon": "-9.413925913851998",
      "lat": "38.96001437898743"
    },
    {
      "id": "pt.ine.add.PTCONT.3414041",
      "street": "R EDUARDO HENRIQUES PEREIRA",
      "house": "",
      "postcode": "2655-267",
      "city": "ERICEIRA",
      "lon": "-9.413925913851998",
      "lat": "38.96001437898743"
    },
    {
      "id": "pt.ine.add.PTCONT.3414042",
      "street": "R EDUARDO HENRIQUES PEREIRA",
      "house": "",
      "postcode": "2655-267",
      "city": "ERICEIRA",
      "lon": "-9.413925913851998",
      "lat": "38.96001437898743"
    },
    {
      "id": "pt.ine.add.PTCONT.3414043",
      "street": "R EDUARDO HENRIQUES PEREIRA",
      "house": "",
      "postcode": "2655-267",
      "city": "ERICEIRA",
      "lon": "-9.413925913851998",
      "lat": "38.96001437898743"
    },
    {
      "id": "pt.ine.add.PTCONT.3414044",
      "street": "R EDUARDO HENRIQUES PEREIRA",
      "house": "",
      "postcode": "2655-267",
      "city": "ERICEIRA",
      "lon": "-9.413925913851998",
      "lat": "38.96001437898743"
    },
    {
      "id": "pt.ine.add.PTCONT.3414116",
      "street": "R EDUARDO HENRIQUES PEREIRA",
      "house": "",
      "postcode": "2655-267",
      "city": "ERICEIRA",
      "lon": "-9.413925913851998",
      "lat": "38.96001437898743"
    },
    {
      "id": "pt.ine.add.PTCONT.3414126",
      "street": "R EDUARDO HENRIQUES PEREIRA",
      "house": "",
      "postcode": "2655-267",
      "city": "ERICEIRA",
      "lon": "-9.413925913851998",
      "lat": "38.96001437898743"
    },
    {
      "id": "pt.ine.add.PTCONT.3418591",
      "street": "R EDUARDO HENRIQUES PEREIRA",
      "house": "",
      "postcode": "2655-267",
      "city": "ERICEIRA",
      "lon": "-9.413750303058835",
      "lat": "38.95987218896372"
    },
    {
      "id": "pt.ine.add.PTCONT.3418592",
      "street": "R EDUARDO HENRIQUES PEREIRA",
      "house": "",
      "postcode": "2655-267",
      "city": "ERICEIRA",
      "lon": "-9.413750303058835",
      "lat": "38.95987218896372"
    },
    {
      "id": "pt.ine.add.PTCONT.3418593",
      "street": "R EDUARDO HENRIQUES PEREIRA",
      "house": "",
      "postcode": "2655-267",
      "city": "ERICEIRA",
      "lon": "-9.413750303058835",
      "lat": "38.95987218896372"
    },
    {
      "id": "pt.ine.add.PTCONT.3418594",
      "street": "R EDUARDO HENRIQUES PEREIRA",
      "house": "",
      "postcode": "2655-267",
      "city": "ERICEIRA",
      "lon": "-9.413750303058835",
      "lat": "38.95987218896372"
    },
    {
      "id": "pt.ine.add.PTCONT.3418595",
      "street": "R EDUARDO HENRIQUES PEREIRA",
      "house": "",
      "postcode": "2655-267",
      "city": "ERICEIRA",
      "lon": "-9.413750303058835",
      "lat": "38.95987218896372"
    },
    {
      "id": "pt.ine.add.PTCONT.3418596",
      "street": "R EDUARDO HENRIQUES PEREIRA",
      "house": "",
      "postcode": "2655-267",
      "city": "ERICEIRA",
      "lon": "-9.413750303058835",
      "lat": "38.95987218896372"
    },
    {
      "id": "pt.ine.add.PTCONT.3418597",
      "street": "R EDUARDO HENRIQUES PEREIRA",
      "house": "",
      "postcode": "2655-267",
      "city": "ERICEIRA",
      "lon": "-9.413750303058835",
      "lat": "38.95987218896372"
    },
    {
      "id": "pt.ine.add.PTCONT.3418598",
      "street": "R EDUARDO HENRIQUES PEREIRA",
      "house": "",
      "postcode": "2655-267",
      "city": "ERICEIRA",
      "lon": "-9.413750303058835",
      "lat": "38.95987218896372"
    },
    {
      "id": "pt.ine.add.PTCONT.3418610",
      "street": "R EDUARDO HENRIQUES PEREIRA",
      "house": "",
      "postcode": "2655-267",
      "city": "ERICEIRA",
      "lon": "-9.413750303058835",
      "lat": "38.95987218896372"
    },
    {
      "id": "pt.ine.add.PTCONT.3418611",
      "street": "R EDUARDO HENRIQUES PEREIRA",
      "house": "",
      "postcode": "2655-267",
      "city": "ERICEIRA",
      "lon": "-9.413750303058835",
      "lat": "38.95987218896372"
    },
    {
      "id": "pt.ine.add.PTCONT.3421823",
      "street": "R EDUARDO HENRIQUES PEREIRA",
      "house": "",
      "postcode": "2655-267",
      "city": "ERICEIRA",
      "lon": "-9.413750303058835",
      "lat": "38.95987218896372"
    },
    {
      "id": "pt.ine.add.PTCONT.3422228",
      "street": "R EDUARDO HENRIQUES PEREIRA",
      "house": "1D",
      "postcode": "2655-498",
      "city": "ERICEIRA",
      "lon": "-9.412868178120174",
      "lat": "38.95957561705543"
    },
    {
      "id": "pt.ine.add.PTCONT.3422229",
      "street": "R EDUARDO HENRIQUES PEREIRA",
      "house": "1D",
      "postcode": "2655-498",
      "city": "ERICEIRA",
      "lon": "-9.412868178120174",
      "lat": "38.95957561705543"
    },
    {
      "id": "pt.ine.add.PTCONT.3422230",
      "street": "R EDUARDO HENRIQUES PEREIRA",
      "house": "1D",
      "postcode": "2655-498",
      "city": "ERICEIRA",
      "lon": "-9.412868178120174",
      "lat": "38.95957561705543"
    },
    {
      "id": "pt.ine.add.PTCONT.3422231",
      "street": "R EDUARDO HENRIQUES PEREIRA",
      "house": "1D",
      "postcode": "2655-498",
      "city": "ERICEIRA",
      "lon": "-9.412868178120174",
      "lat": "38.95957561705543"
    },
    {
      "id": "pt.ine.add.PTCONT.3422232",
      "street": "R EDUARDO HENRIQUES PEREIRA",
      "house": "1D",
      "postcode": "2655-498",
      "city": "ERICEIRA",
      "lon": "-9.412868178120174",
      "lat": "38.95957561705543"
    },
    {
      "id": "pt.ine.add.PTCONT.3422233",
      "street": "R EDUARDO HENRIQUES PEREIRA",
      "house": "1D",
      "postcode": "2655-498",
      "city": "ERICEIRA",
      "lon": "-9.412868178120174",
      "lat": "38.95957561705543"
    },
    {
      "id": "pt.ine.add.PTCONT.3422234",
      "street": "R EDUARDO HENRIQUES PEREIRA",
      "house": "1D",
      "postcode": "2655-498",
      "city": "ERICEIRA",
      "lon": "-9.412868178120174",
      "lat": "38.95957561705543"
    },
    {
      "id": "pt.ine.add.PTCONT.3422235",
      "street": "R EDUARDO HENRIQUES PEREIRA",
      "house": "1D",
      "postcode": "2655-498",
      "city": "ERICEIRA",
      "lon": "-9.412868178120174",
      "lat": "38.95957561705543"
    },
    {
      "id": "pt.ine.add.PTCONT.3422236",
      "street": "R EDUARDO HENRIQUES PEREIRA",
      "house": "1D",
      "postcode": "2655-498",
      "city": "ERICEIRA",
      "lon": "-9.412868178120174",
      "lat": "38.95957561705543"
    },
    {
      "id": "pt.ine.add.PTCONT.3422237",
      "street": "R EDUARDO HENRIQUES PEREIRA",
      "house": "1D",
      "postcode": "2655-498",
      "city": "ERICEIRA",
      "lon": "-9.412868178120174",
      "lat": "38.95957561705543"
    },
    {
      "id": "pt.ine.add.PTCONT.3422239",
      "street": "R EDUARDO HENRIQUES PEREIRA",
      "house": "1D",
      "postcode": "2655-498",
      "city": "ERICEIRA",
      "lon": "-9.412868178120174",
      "lat": "38.95957561705543"
    },
    {
      "id": "pt.ine.add.PTCONT.3422240",
      "street": "R EDUARDO HENRIQUES PEREIRA",
      "house": "1D",
      "postcode": "2655-498",
      "city": "ERICEIRA",
      "lon": "-9.412868178120174",
      "lat": "38.95957561705543"
    },
    {
      "id": "pt.ine.add.PTCONT.3422241",
      "street": "R EDUARDO HENRIQUES PEREIRA",
      "house": "1D",
      "postcode": "2655-498",
      "city": "ERICEIRA",
      "lon": "-9.412868178120174",
      "lat": "38.95957561705543"
    },
    {
      "id": "pt.ine.add.PTCONT.3422242",
      "street": "R EDUARDO HENRIQUES PEREIRA",
      "house": "1D",
      "postcode": "2655-498",
      "city": "ERICEIRA",
      "lon": "-9.412868178120174",
      "lat": "38.95957561705543"
    },
    {
      "id": "pt.ine.add.PTCONT.3422243",
      "street": "R EDUARDO HENRIQUES PEREIRA",
      "house": "1D",
      "postcode": "2655-498",
      "city": "ERICEIRA",
      "lon": "-9.412868178120174",
      "lat": "38.95957561705543"
    },
    {
      "id": "pt.ine.add.PTCONT.3422244",
      "street": "R EDUARDO HENRIQUES PEREIRA",
      "house": "1D",
      "postcode": "2655-498",
      "city": "ERICEIRA",
      "lon": "-9.412868178120174",
      "lat": "38.95957561705543"
    },
    {
      "id": "pt.ine.add.PTCONT.3422245",
      "street": "R EDUARDO HENRIQUES PEREIRA",
      "house": "1D",
      "postcode": "2655-498",
      "city": "ERICEIRA",
      "lon": "-9.412868178120174",
      "lat": "38.95957561705543"
    },
    {
      "id": "pt.ine.add.PTCONT.3422246",
      "street": "R EDUARDO HENRIQUES PEREIRA",
      "house": "1D",
      "postcode": "2655-498",
      "city": "ERICEIRA",
      "lon": "-9.412868178120174",
      "lat": "38.95957561705543"
    },
    {
      "id": "pt.ine.add.PTCONT.3422247",
      "street": "R EDUARDO HENRIQUES PEREIRA",
      "house": "1D",
      "postcode": "2655-498",
      "city": "ERICEIRA",
      "lon": "-9.412868178120174",
      "lat": "38.95957561705543"
    },
    {
      "id": "pt.ine.add.PTCONT.3422248",
      "street": "R EDUARDO HENRIQUES PEREIRA",
      "house": "1D",
      "postcode": "2655-498",
      "city": "ERICEIRA",
      "lon": "-9.412868178120174",
      "lat": "38.95957561705543"
    },
    {
      "id": "pt.ine.add.PTCONT.3422249",
      "street": "R EDUARDO HENRIQUES PEREIRA",
      "house": "1D",
      "postcode": "2655-498",
      "city": "ERICEIRA",
      "lon": "-9.412868178120174",
      "lat": "38.95957561705543"
    },
    {
      "id": "pt.ine.add.PTCONT.3422250",
      "street": "R EDUARDO HENRIQUES PEREIRA",
      "house": "1D",
      "postcode": "2655-498",
      "city": "ERICEIRA",
      "lon": "-9.412868178120174",
      "lat": "38.95957561705543"
    },
    {
      "id": "pt.ine.add.PTCONT.3422251",
      "street": "R EDUARDO HENRIQUES PEREIRA",
      "house": "1D",
      "postcode": "2655-498",
      "city": "ERICEIRA",
      "lon": "-9.412868178120174",
      "lat": "38.95957561705543"
    },
    {
      "id": "pt.ine.add.PTCONT.3422252",
      "street": "R EDUARDO HENRIQUES PEREIRA",
      "house": "1D",
      "postcode": "2655-498",
      "city": "ERICEIRA",
      "lon": "-9.412868178120174",
      "lat": "38.95957561705543"
    },
    {
      "id": "pt.ine.add.PTCONT.3422253",
      "street": "R EDUARDO HENRIQUES PEREIRA",
      "house": "1D",
      "postcode": "2655-498",
      "city": "ERICEIRA",
      "lon": "-9.412868178120174",
      "lat": "38.95957561705543"
    },
    {
      "id": "pt.ine.add.PTCONT.3422254",
      "street": "R EDUARDO HENRIQUES PEREIRA",
      "house": "1D",
      "postcode": "2655-498",
      "city": "ERICEIRA",
      "lon": "-9.412868178120174",
      "lat": "38.95957561705543"
    },
    {
      "id": "pt.ine.add.PTCONT.3422255",
      "street": "R EDUARDO HENRIQUES PEREIRA",
      "house": "1D",
      "postcode": "2655-498",
      "city": "ERICEIRA",
      "lon": "-9.412868178120174",
      "lat": "38.95957561705543"
    },
    {
      "id": "pt.ine.add.PTCONT.3440577",
      "street": "R EDUARDO HENRIQUES PEREIRA",
      "house": "",
      "postcode": "2655-267",
      "city": "ERICEIRA",
      "lon": "-9.414016567733313",
      "lat": "38.95992331054156"
    },
    {
      "id": "pt.ine.add.PTCONT.3441693",
      "street": "R EDUARDO HENRIQUES PEREIRA",
      "house": "",
      "postcode": "2655-267",
      "city": "ERICEIRA",
      "lon": "-9.413750303058835",
      "lat": "38.95987218896372"
    },
    {
      "id": "pt.ine.add.PTCONT.3443314",
      "street": "R EDUARDO HENRIQUES PEREIRA",
      "house": "1D",
      "postcode": "2655-498",
      "city": "ERICEIRA",
      "lon": "-9.412868178120174",
      "lat": "38.95957561705543"
    },
    {
      "id": "pt.ine.add.PTCONT.3443582",
      "street": "R EDUARDO HENRIQUES PEREIRA",
      "house": "1D",
      "postcode": "2655-267",
      "city": "ERICEIRA",
      "lon": "-9.413064100483377",
      "lat": "38.95956446086772"
    },
    {
      "id": "pt.ine.add.PTCONT.3450210",
      "street": "R LUIS DE CAMÕES",
      "house": "",
      "postcode": "2655-301",
      "city": "ERICEIRA",
      "lon": "-9.412851752084867",
      "lat": "38.95994509811688"
    }
  ]
}