{
  "data": {
    "distrito": "Setúbal",
    "concelho": "Setúbal",
    "freguesia": "União das freguesias de Azeitão (São Lourenço e São Simão)",
    "OBJECTID": 366,
    "BGRI2021": "15120901419",
    "DT21": "15",
    "DTMN21": "1512",
    "DTMNFR21": "151209",
    "DTMNFRSEC21": "151209014",
    "SECNUM21": "014",
    "SSNUM21": "19",
    "SECSSNUM21": "01419",
    "OBJECTID_1": 170869,
    "DT": "15",
    "CC": "12",
    "fr": "09",
    "SEC": "014",
    "SS": "19"
  },
  "addresses": [
    {
      "id": "pt.ine.add.PTCONT.4673036",
      "street": "TV GAIOS",
      "house": "8",
      "postcode": "2925-704",
      "city": "AZEITÃO",
      "lon": "-9.002119458552222",
      "lat": "38.536148001526605"
    },
    {
      "id": "pt.ine.add.PTCONT.4673037",
      "street": "R ANDORINHAS REAIS",
      "house": "50",
      "postcode": "2925-702",
      "city": "AZEITÃO",
      "lon": "-9.001041899829202",
      "lat": "38.536192027567374"
    },
    {
      "id": "pt.ine.add.PTCONT.4683917",
      "street": "R GALEOTAS",
      "house": "",
      "postcode": "2925-166",
      "city": "AZEITÃO",
      "lon": "-9.005348318621207",
      "lat": "38.53570060416101"
    },
    {
      "id": "pt.ine.add.PTCONT.4685150",
      "street": "R ANDORINHAS REAIS",
      "house": "51",
      "postcode": "2925-702",
      "city": "AZEITÃO",
      "lon": "-9.000593349433496",
      "lat": "38.53608725306134"
    },
    {
      "id": "pt.ine.add.PTCONT.4691319",
      "street": "R ANDORINHAS REAIS",
      "house": "1",
      "postcode": "2925-702",
      "city": "AZEITÃO",
      "lon": "-9.001620607213683",
      "lat": "38.536629139594574"
    },
    {
      "id": "pt.ine.add.PTCONT.4698676",
      "street": "TV ABELHARUCOS",
      "house": "19",
      "postcode": "2925-705",
      "city": "AZEITÃO",
      "lon": "-9.002975869716016",
      "lat": "38.53583536178851"
    },
    {
      "id": "pt.ine.add.PTCONT.4702057",
      "street": "R ANDORINHAS REAIS",
      "house": "49",
      "postcode": "2925-702",
      "city": "AZEITÃO",
      "lon": "-9.001246808216546",
      "lat": "38.5360643930639"
    },
    {
      "id": "pt.ine.add.PTCONT.4702473",
      "street": "R JACARANDAS",
      "house": "4",
      "postcode": "2925-320",
      "city": "AZEITÃO",
      "lon": "-9.004703342955612",
      "lat": "38.5364260661348"
    },
    {
      "id": "pt.ine.add.PTCONT.4713042",
      "street": "TV GAIOS",
      "house": "11",
      "postcode": "2925-704",
      "city": "AZEITÃO",
      "lon": "-9.002214779188224",
      "lat": "38.53644456573574"
    },
    {
      "id": "pt.ine.add.PTCONT.4720491",
      "street": "R ANDORINHAS REAIS",
      "house": "51",
      "postcode": "2925-702",
      "city": "AZEITÃO",
      "lon": "-9.000546828421824",
      "lat": "38.53603354832492"
    },
    {
      "id": "pt.ine.add.PTCONT.4720499",
      "street": "TV PENEIREIROS",
      "house": "33",
      "postcode": "2925-706",
      "city": "AZEITÃO",
      "lon": "-9.003826518526802",
      "lat": "38.535045322165914"
    },
    {
      "id": "pt.ine.add.PTCONT.4724349",
      "street": "R ANDORINHAS REAIS",
      "house": "25",
      "postcode": "2925-702",
      "city": "AZEITÃO",
      "lon": "-9.003570140155487",
      "lat": "38.53565978857227"
    },
    {
      "id": "pt.ine.add.PTCONT.4728113",
      "street": "R ANDORINHAS REAIS",
      "house": "26",
      "postcode": "2925-702",
      "city": "AZEITÃO",
      "lon": "-9.003823194294217",
      "lat": "38.535720964549775"
    },
    {
      "id": "pt.ine.add.PTCONT.4741848",
      "street": "TV GAIOS",
      "house": "9",
      "postcode": "2925-704",
      "city": "AZEITÃO",
      "lon": "-9.001949172249713",
      "lat": "38.53629339709726"
    },
    {
      "id": "pt.ine.add.PTCONT.4746321",
      "street": "R JACARANDAS",
      "house": "15",
      "postcode": "2925-320",
      "city": "AZEITÃO",
      "lon": "-9.002771860873317",
      "lat": "38.536989931348856"
    },
    {
      "id": "pt.ine.add.PTCONT.4756140",
      "street": "R ANDORINHAS REAIS",
      "house": "27",
      "postcode": "2925-702",
      "city": "AZEITÃO",
      "lon": "-9.004053204379842",
      "lat": "38.53577330316726"
    },
    {
      "id": "pt.ine.add.PTCONT.4761099",
      "street": "R GALEOTAS",
      "house": "90",
      "postcode": "2925-166",
      "city": "AZEITÃO",
      "lon": "-9.006374658908706",
      "lat": "38.535215517083884"
    },
    {
      "id": "pt.ine.add.PTCONT.4768261",
      "street": "R JACARANDAS",
      "house": "8",
      "postcode": "2925-320",
      "city": "AZEITÃO",
      "lon": "-9.003960418738101",
      "lat": "38.53663878383307"
    },
    {
      "id": "pt.ine.add.PTCONT.4768267",
      "street": "R JACARANDAS",
      "house": "11",
      "postcode": "2925-320",
      "city": "AZEITÃO",
      "lon": "-9.003354781707575",
      "lat": "38.53682345175447"
    },
    {
      "id": "pt.ine.add.PTCONT.4774995",
      "street": "TV GAIOS",
      "house": "13",
      "postcode": "2925-704",
      "city": "AZEITÃO",
      "lon": "-9.002556434992915",
      "lat": "38.536243847887704"
    },
    {
      "id": "pt.ine.add.PTCONT.4788866",
      "street": "R ANDORINHAS REAIS",
      "house": "1G",
      "postcode": "2925-702",
      "city": "AZEITÃO",
      "lon": "-9.001106708875534",
      "lat": "38.53681311534177"
    },
    {
      "id": "pt.ine.add.PTCONT.4789011",
      "street": "R JACARANDAS",
      "house": "10",
      "postcode": "2925-320",
      "city": "AZEITÃO",
      "lon": "-9.003572132776693",
      "lat": "38.536776794819424"
    },
    {
      "id": "pt.ine.add.PTCONT.4800864",
      "street": "R ANDORINHAS REAIS",
      "house": "44",
      "postcode": "2925-702",
      "city": "AZEITÃO",
      "lon": "-9.001632278898306",
      "lat": "38.53569219651934"
    },
    {
      "id": "pt.ine.add.PTCONT.4810082",
      "street": "R ANDORINHAS REAIS",
      "house": "1",
      "postcode": "2925-702",
      "city": "AZEITÃO",
      "lon": "-9.00147238861845",
      "lat": "38.536702304887555"
    },
    {
      "id": "pt.ine.add.PTCONT.4813646",
      "street": "R JACARANDAS",
      "house": "12",
      "postcode": "2925-320",
      "city": "AZEITÃO",
      "lon": "-9.003160149552695",
      "lat": "38.53685192299025"
    },
    {
      "id": "pt.ine.add.PTCONT.4817404",
      "street": "R JACARANDAS",
      "house": "5",
      "postcode": "2925-320",
      "city": "AZEITÃO",
      "lon": "-9.004485776371684",
      "lat": "38.5364547103023"
    },
    {
      "id": "pt.ine.add.PTCONT.4817446",
      "street": "R TOJEIRAL",
      "house": "87",
      "postcode": "2925-299",
      "city": "AZEITÃO",
      "lon": "-9.005564641940582",
      "lat": "38.53651874160947"
    },
    {
      "id": "pt.ine.add.PTCONT.4821121",
      "street": "R JACARANDAS",
      "house": "18",
      "postcode": "2925-320",
      "city": "AZEITÃO",
      "lon": "-9.002166759669233",
      "lat": "38.537219630326646"
    },
    {
      "id": "pt.ine.add.PTCONT.4824588",
      "street": "R ANDORINHAS REAIS",
      "house": "1",
      "postcode": "2925-702",
      "city": "AZEITÃO",
      "lon": "-9.00130090871074",
      "lat": "38.53674861778386"
    },
    {
      "id": "pt.ine.add.PTCONT.4838860",
      "street": "R ANDORINHAS REAIS",
      "house": "29",
      "postcode": "2925-702",
      "city": "AZEITÃO",
      "lon": "-9.004220986648345",
      "lat": "38.53542073377106"
    },
    {
      "id": "pt.ine.add.PTCONT.4866494",
      "street": "TV ABELHARUCOS",
      "house": "18",
      "postcode": "2925-705",
      "city": "AZEITÃO",
      "lon": "-9.003273602133024",
      "lat": "38.53579711641173"
    },
    {
      "id": "pt.ine.add.PTCONT.4866774",
      "street": "R GALEOTAS",
      "house": "",
      "postcode": "2925-166",
      "city": "AZEITÃO",
      "lon": "-9.006112422863104",
      "lat": "38.53534358800697"
    },
    {
      "id": "pt.ine.add.PTCONT.4869570",
      "street": "R JACARANDAS",
      "house": "17",
      "postcode": "2925-320",
      "city": "AZEITÃO",
      "lon": "-9.002418083550515",
      "lat": "38.537136690414755"
    },
    {
      "id": "pt.ine.add.PTCONT.4876352",
      "street": "TV ABELHARUCOS",
      "house": "20",
      "postcode": "2925-705",
      "city": "AZEITÃO",
      "lon": "-9.002723900318834",
      "lat": "38.53586425827639"
    },
    {
      "id": "pt.ine.add.PTCONT.4876353",
      "street": "TV GAIOS",
      "house": "7",
      "postcode": "2925-704",
      "city": "AZEITÃO",
      "lon": "-9.002392413876304",
      "lat": "38.53595680228818"
    },
    {
      "id": "pt.ine.add.PTCONT.4881813",
      "street": "R JACARANDAS",
      "house": "7",
      "postcode": "2925-320",
      "city": "AZEITÃO",
      "lon": "-9.004142930160857",
      "lat": "38.536556352043654"
    },
    {
      "id": "pt.ine.add.PTCONT.4884867",
      "street": "TV ABELHARUCOS",
      "house": "16",
      "postcode": "2925-705",
      "city": "AZEITÃO",
      "lon": "-9.003242453660896",
      "lat": "38.53606759495936"
    },
    {
      "id": "pt.ine.add.PTCONT.4888433",
      "street": "R JACARANDAS",
      "house": "3",
      "postcode": "2925-320",
      "city": "AZEITÃO",
      "lon": "-9.004874167525777",
      "lat": "38.53632570374317"
    },
    {
      "id": "pt.ine.add.PTCONT.4893289",
      "street": "",
      "house": "",
      "postcode": "2925-299",
      "city": "AZEITÃO",
      "lon": "-9.004689104275359",
      "lat": "38.53524609343467"
    },
    {
      "id": "pt.ine.add.PTCONT.4904310",
      "street": "R JACARANDAS",
      "house": "9",
      "postcode": "2925-320",
      "city": "AZEITÃO",
      "lon": "-9.003754319265745",
      "lat": "38.53666734134949"
    },
    {
      "id": "pt.ine.add.PTCONT.4916921",
      "street": "TV ABELHARUCOS",
      "house": "15",
      "postcode": "2925-705",
      "city": "AZEITÃO",
      "lon": "-9.003001951556293",
      "lat": "38.53609640682247"
    },
    {
      "id": "pt.ine.add.PTCONT.4928706",
      "street": "TV GAIOS",
      "house": "12",
      "postcode": "2925-704",
      "city": "AZEITÃO",
      "lon": "-9.00231636559098",
      "lat": "38.53630868807154"
    },
    {
      "id": "pt.ine.add.PTCONT.4928935",
      "street": "R TOJEIRAL",
      "house": "81",
      "postcode": "2925-299",
      "city": "AZEITÃO",
      "lon": "-9.005937714894605",
      "lat": "38.53702042194229"
    },
    {
      "id": "pt.ine.add.PTCONT.4934828",
      "street": "R ANDORINHAS REAIS",
      "house": "4",
      "postcode": "2925-702",
      "city": "AZEITÃO",
      "lon": "-9.001831133640515",
      "lat": "38.536015017697636"
    },
    {
      "id": "pt.ine.add.PTCONT.4934829",
      "street": "R ANDORINHAS REAIS",
      "house": "42",
      "postcode": "2925-702",
      "city": "AZEITÃO",
      "lon": "-9.001996868615784",
      "lat": "38.5354913101574"
    },
    {
      "id": "pt.ine.add.PTCONT.4945378",
      "street": "R JACARANDAS",
      "house": "2",
      "postcode": "2925-320",
      "city": "AZEITÃO",
      "lon": "-9.005056350878057",
      "lat": "38.5362162482753"
    },
    {
      "id": "pt.ine.add.PTCONT.4945384",
      "street": "R JACARANDAS",
      "house": "1C",
      "postcode": "2925-320",
      "city": "AZEITÃO",
      "lon": "-9.00529212814022",
      "lat": "38.536745977841434"
    },
    {
      "id": "pt.ine.add.PTCONT.4945385",
      "street": "R JACARANDAS",
      "house": "1C",
      "postcode": "2925-320",
      "city": "AZEITÃO",
      "lon": "-9.00529212814022",
      "lat": "38.536745977841434"
    },
    {
      "id": "pt.ine.add.PTCONT.4945386",
      "street": "R JACARANDAS",
      "house": "1C",
      "postcode": "2925-320",
      "city": "AZEITÃO",
      "lon": "-9.00529212814022",
      "lat": "38.536745977841434"
    },
    {
      "id": "pt.ine.add.PTCONT.4947781",
      "street": "R JACARANDAS",
      "house": "19",
      "postcode": "2925-320",
      "city": "AZEITÃO",
      "lon": "-9.00198456934988",
      "lat": "38.53732908136042"
    },
    {
      "id": "pt.ine.add.PTCONT.4952442",
      "street": "R ANDORINHAS REAIS",
      "house": "43",
      "postcode": "2925-702",
      "city": "AZEITÃO",
      "lon": "-9.001745549923168",
      "lat": "38.53557424912661"
    },
    {
      "id": "pt.ine.add.PTCONT.4956544",
      "street": "R ANDORINHAS REAIS",
      "house": "32",
      "postcode": "2925-702",
      "city": "AZEITÃO",
      "lon": "-9.003381661304307",
      "lat": "38.53524681087494"
    },
    {
      "id": "pt.ine.add.PTCONT.4964103",
      "street": "R JACARANDAS",
      "house": "1 E",
      "postcode": "2925-320",
      "city": "AZEITÃO",
      "lon": "-9.005151466120155",
      "lat": "38.53649479510053"
    },
    {
      "id": "pt.ine.add.PTCONT.4964104",
      "street": "R JACARANDAS",
      "house": "1 E",
      "postcode": "2925-320",
      "city": "AZEITÃO",
      "lon": "-9.005151466120155",
      "lat": "38.53649479510053"
    },
    {
      "id": "pt.ine.add.PTCONT.4964105",
      "street": "R JACARANDAS",
      "house": "1 E",
      "postcode": "2925-320",
      "city": "AZEITÃO",
      "lon": "-9.005151466120155",
      "lat": "38.53649479510053"
    },
    {
      "id": "pt.ine.add.PTCONT.4964106",
      "street": "R JACARANDAS",
      "house": "1 E",
      "postcode": "2925-320",
      "city": "AZEITÃO",
      "lon": "-9.005151466120155",
      "lat": "38.53649479510053"
    },
    {
      "id": "pt.ine.add.PTCONT.4964107",
      "street": "R JACARANDAS",
      "house": "1 E",
      "postcode": "2925-320",
      "city": "AZEITÃO",
      "lon": "-9.005151466120155",
      "lat": "38.53649479510053"
    },
    {
      "id": "pt.ine.add.PTCONT.4967059",
      "street": "R ANDORINHAS REAIS",
      "house": "40",
      "postcode": "2925-702",
      "city": "AZEITÃO",
      "lon": "-9.002373574554744",
      "lat": "38.53534438212381"
    },
    {
      "id": "pt.ine.add.PTCONT.4974686",
      "street": "R DA FLOREX",
      "house": "160",
      "postcode": "2925-011",
      "city": "AZEITÃO",
      "lon": "-9.00478878210807",
      "lat": "38.53400221477827"
    },
    {
      "id": "pt.ine.add.PTCONT.4978164",
      "street": "R ANDORINHAS REAIS",
      "house": "51 6",
      "postcode": "2925-702",
      "city": "AZEITÃO",
      "lon": "-9.000791767856727",
      "lat": "38.53637404628976"
    },
    {
      "id": "pt.ine.add.PTCONT.4985112",
      "street": "R ANDORINHAS REAIS",
      "house": "1B",
      "postcode": "2925-702",
      "city": "AZEITÃO",
      "lon": "-9.001506143084649",
      "lat": "38.53664800512071"
    },
    {
      "id": "pt.ine.add.PTCONT.4985113",
      "street": "R ANDORINHAS REAIS",
      "house": "1D",
      "postcode": "2925-702",
      "city": "AZEITÃO",
      "lon": "-9.0013808605074",
      "lat": "38.53672100017538"
    },
    {
      "id": "pt.ine.add.PTCONT.4985453",
      "street": "R JACARANDAS",
      "house": "1A",
      "postcode": "2925-320",
      "city": "AZEITÃO",
      "lon": "-9.005444150481134",
      "lat": "38.53698806752294"
    },
    {
      "id": "pt.ine.add.PTCONT.4985454",
      "street": "R JACARANDAS",
      "house": "1A",
      "postcode": "2925-320",
      "city": "AZEITÃO",
      "lon": "-9.005444150481134",
      "lat": "38.53698806752294"
    },
    {
      "id": "pt.ine.add.PTCONT.4985455",
      "street": "R JACARANDAS",
      "house": "1A",
      "postcode": "2925-320",
      "city": "AZEITÃO",
      "lon": "-9.005444150481134",
      "lat": "38.53698806752294"
    },
    {
      "id": "pt.ine.add.PTCONT.4985456",
      "street": "R JACARANDAS",
      "house": "1A",
      "postcode": "2925-320",
      "city": "AZEITÃO",
      "lon": "-9.005444150481134",
      "lat": "38.53698806752294"
    },
    {
      "id": "pt.ine.add.PTCONT.4992486",
      "street": "R ANDORINHAS REAIS",
      "house": "23",
      "postcode": "2925-702",
      "city": "AZEITÃO",
      "lon": "-9.003075934986411",
      "lat": "38.53557337946549"
    },
    {
      "id": "pt.ine.add.PTCONT.4994649",
      "street": "R JACARANDAS",
      "house": "1B",
      "postcode": "2925-320",
      "city": "AZEITÃO",
      "lon": "-9.005373927621434",
      "lat": "38.53687148370074"
    },
    {
      "id": "pt.ine.add.PTCONT.4994650",
      "street": "R JACARANDAS",
      "house": "1B",
      "postcode": "2925-320",
      "city": "AZEITÃO",
      "lon": "-9.005373927621434",
      "lat": "38.53687148370074"
    },
    {
      "id": "pt.ine.add.PTCONT.4994651",
      "street": "R JACARANDAS",
      "house": "1B",
      "postcode": "2925-320",
      "city": "AZEITÃO",
      "lon": "-9.005373927621434",
      "lat": "38.53687148370074"
    },
    {
      "id": "pt.ine.add.PTCONT.4994652",
      "street": "R JACARANDAS",
      "house": "1B",
      "postcode": "2925-320",
      "city": "AZEITÃO",
      "lon": "-9.005373927621434",
      "lat": "38.53687148370074"
    },
    {
      "id": "pt.ine.add.PTCONT.4994653",
      "street": "TV ESTORNINHOS",
      "house": "46",
      "postcode": "2925-002",
      "city": "AZEITÃO",
      "lon": "-9.001289323844631",
      "lat": "38.53578482248856"
    },
    {
      "id": "pt.ine.add.PTCONT.4994654",
      "street": "R ANDORINHAS REAIS",
      "house": "41",
      "postcode": "2925-702",
      "city": "AZEITÃO",
      "lon": "-9.00221378309319",
      "lat": "38.5354086260426"
    },
    {
      "id": "pt.ine.add.PTCONT.4994655",
      "street": "TV PENEIREIROS",
      "house": "36",
      "postcode": "2925-706",
      "city": "AZEITÃO",
      "lon": "-9.003138775084413",
      "lat": "38.535077459536595"
    },
    {
      "id": "pt.ine.add.PTCONT.4999968",
      "street": "TV GAIOS",
      "house": "10",
      "postcode": "2925-704",
      "city": "AZEITÃO",
      "lon": "-9.001779318585905",
      "lat": "38.5364748221496"
    },
    {
      "id": "pt.ine.add.PTCONT.5000100",
      "street": "R ANDORINHAS REAIS",
      "house": "39",
      "postcode": "2925-702",
      "city": "AZEITÃO",
      "lon": "-9.002636467990783",
      "lat": "38.535270364083786"
    },
    {
      "id": "pt.ine.add.PTCONT.5006878",
      "street": "R ANDORINHAS REAIS",
      "house": "31",
      "postcode": "2925-702",
      "city": "AZEITÃO",
      "lon": "-9.003702652444927",
      "lat": "38.535235416234876"
    },
    {
      "id": "pt.ine.add.PTCONT.5013695",
      "street": "TV PENEIREIROS",
      "house": "34",
      "postcode": "2925-706",
      "city": "AZEITÃO",
      "lon": "-9.003618578102193",
      "lat": "38.53492075310728"
    },
    {
      "id": "pt.ine.add.PTCONT.5018282",
      "street": "R ANDORINHAS REAIS",
      "house": "51 D",
      "postcode": "2925-702",
      "city": "AZEITÃO",
      "lon": "-9.000628510703272",
      "lat": "38.536150050186826"
    },
    {
      "id": "pt.ine.add.PTCONT.5025708",
      "street": "R FLOREX",
      "house": "160",
      "postcode": "2925-161",
      "city": "AZEITÃO",
      "lon": "-9.005720381557776",
      "lat": "38.53422048116513"
    },
    {
      "id": "pt.ine.add.PTCONT.5029442",
      "street": "R ANDORINHAS REAIS",
      "house": "51 A",
      "postcode": "2925-702",
      "city": "AZEITÃO",
      "lon": "-9.00048883950724",
      "lat": "38.53597992852915"
    },
    {
      "id": "pt.ine.add.PTCONT.5029443",
      "street": "TV PENEIREIROS",
      "house": "35",
      "postcode": "2925-706",
      "city": "AZEITÃO",
      "lon": "-9.003344002132309",
      "lat": "38.534976843709046"
    },
    {
      "id": "pt.ine.add.PTCONT.5030612",
      "street": "CASAS AZEITAO",
      "house": "37",
      "postcode": "2925-702",
      "city": "AZEITÃO",
      "lon": "-9.003013822323942",
      "lat": "38.5351774785972"
    },
    {
      "id": "pt.ine.add.PTCONT.5036616",
      "street": "R FALCÃO",
      "house": "14",
      "postcode": "2925-703",
      "city": "AZEITÃO",
      "lon": "-9.002796720868934",
      "lat": "38.53619702207436"
    },
    {
      "id": "pt.ine.add.PTCONT.5043852",
      "street": "TV ESTORNINHOS",
      "house": "48",
      "postcode": "2925-002",
      "city": "AZEITÃO",
      "lon": "-9.000831904764352",
      "lat": "38.535896312319394"
    },
    {
      "id": "pt.ine.add.PTCONT.5047540",
      "street": "R ANDORINHAS REAIS",
      "house": "24",
      "postcode": "2925-702",
      "city": "AZEITÃO",
      "lon": "-9.003351164575347",
      "lat": "38.535571334042174"
    },
    {
      "id": "pt.ine.add.PTCONT.5047550",
      "street": "R ANDORINHAS REAIS",
      "house": "51 E",
      "postcode": "2925-702",
      "city": "AZEITÃO",
      "lon": "-9.000686716246607",
      "lat": "38.536221684777466"
    },
    {
      "id": "pt.ine.add.PTCONT.5047647",
      "street": "R JACARANDAS",
      "house": "14",
      "postcode": "2925-320",
      "city": "AZEITÃO",
      "lon": "-9.002966276602772",
      "lat": "38.536943445897876"
    },
    {
      "id": "pt.ine.add.PTCONT.5062326",
      "street": "R FLOREX",
      "house": "",
      "postcode": "2925-161",
      "city": "AZEITÃO",
      "lon": "-9.004841935855868",
      "lat": "38.534605370883334"
    },
    {
      "id": "pt.ine.add.PTCONT.5066025",
      "street": "R JACARANDAS",
      "house": "6",
      "postcode": "2925-320",
      "city": "AZEITÃO",
      "lon": "-9.00434924645392",
      "lat": "38.53654580869799"
    },
    {
      "id": "pt.ine.add.PTCONT.5069480",
      "street": "R ANDORINHAS REAIS",
      "house": "30",
      "postcode": "2925-702",
      "city": "AZEITÃO",
      "lon": "-9.004024403710494",
      "lat": "38.53528707270977"
    },
    {
      "id": "pt.ine.add.PTCONT.5071243",
      "street": "TV ABELHARUCOS",
      "house": "17",
      "postcode": "2925-705",
      "city": "AZEITÃO",
      "lon": "-9.003619268531201",
      "lat": "38.53592967035426"
    },
    {
      "id": "pt.ine.add.PTCONT.5074333",
      "street": "R JACARANDAS",
      "house": "1D",
      "postcode": "2925-320",
      "city": "AZEITÃO",
      "lon": "-9.005233265065975",
      "lat": "38.53662030106971"
    },
    {
      "id": "pt.ine.add.PTCONT.5074331",
      "street": "R JACARANDAS",
      "house": "1D",
      "postcode": "2925-320",
      "city": "AZEITÃO",
      "lon": "-9.005233265065975",
      "lat": "38.53662030106971"
    },
    {
      "id": "pt.ine.add.PTCONT.5074332",
      "street": "R JACARANDAS",
      "house": "1D",
      "postcode": "2925-320",
      "city": "AZEITÃO",
      "lon": "-9.005233265065975",
      "lat": "38.53662030106971"
    },
    {
      "id": "pt.ine.add.PTCONT.5074334",
      "street": "R JACARANDAS",
      "house": "1D",
      "postcode": "2925-320",
      "city": "AZEITÃO",
      "lon": "-9.005233265065975",
      "lat": "38.53662030106971"
    },
    {
      "id": "pt.ine.add.PTCONT.5101125",
      "street": "R ANDORINHAS REAIS",
      "house": "22",
      "postcode": "2925-702",
      "city": "AZEITÃO",
      "lon": "-9.00282374962975",
      "lat": "38.53558426129869"
    },
    {
      "id": "pt.ine.add.PTCONT.5101126",
      "street": "R ANDORINHAS REAIS",
      "house": "51 F",
      "postcode": "2925-702",
      "city": "AZEITÃO",
      "lon": "-9.00072209406152",
      "lat": "38.536302496739715"
    },
    {
      "id": "pt.ine.add.PTCONT.5104952",
      "street": "R TOJEIRAL",
      "house": "32",
      "postcode": "2925-299",
      "city": "AZEITÃO",
      "lon": "-9.005739383204656",
      "lat": "38.53674264514981"
    },
    {
      "id": "pt.ine.add.PTCONT.5105829",
      "street": "R ANDORINHAS REAIS",
      "house": "1F",
      "postcode": "2925-702",
      "city": "AZEITÃO",
      "lon": "-9.001186444303485",
      "lat": "38.53676748300022"
    },
    {
      "id": "pt.ine.add.PTCONT.5105830",
      "street": "R ANDORINHAS REAIS",
      "house": "38",
      "postcode": "2925-702",
      "city": "AZEITÃO",
      "lon": "-9.00283109611857",
      "lat": "38.535241893758666"
    },
    {
      "id": "pt.ine.add.PTCONT.5112027",
      "street": "R ANDORINHAS REAIS",
      "house": "3",
      "postcode": "2925-702",
      "city": "AZEITÃO",
      "lon": "-9.001661172003166",
      "lat": "38.53618743515114"
    },
    {
      "id": "pt.ine.add.PTCONT.5115755",
      "street": "R ANDORINHAS REAIS",
      "house": "6",
      "postcode": "2925-702",
      "city": "AZEITÃO",
      "lon": "-9.002229803074826",
      "lat": "38.53578685303604"
    },
    {
      "id": "pt.ine.add.PTCONT.5119630",
      "street": "R ANDORINHAS REAIS",
      "house": "2",
      "postcode": "2925-702",
      "city": "AZEITÃO",
      "lon": "-9.00151414561698",
      "lat": "38.536359682242676"
    },
    {
      "id": "pt.ine.add.PTCONT.5119636",
      "street": "R ANDORINHAS REAIS",
      "house": "45",
      "postcode": "2925-702",
      "city": "AZEITÃO",
      "lon": "-9.001449550126276",
      "lat": "38.53575660954867"
    },
    {
      "id": "pt.ine.add.PTCONT.5119643",
      "street": "QTA GALEOTAS",
      "house": "160",
      "postcode": "2925-161",
      "city": "AZEITÃO",
      "lon": "-9.00478878210807",
      "lat": "38.53400221477827"
    },
    {
      "id": "pt.ine.add.PTCONT.5125926",
      "street": "TV ESTORNINHOS",
      "house": "47",
      "postcode": "2925-002",
      "city": "AZEITÃO",
      "lon": "-9.001071757712774",
      "lat": "38.53581346030777"
    },
    {
      "id": "pt.ine.add.PTCONT.5130179",
      "street": "R ANDORINHAS REAIS",
      "house": "28",
      "postcode": "2925-702",
      "city": "AZEITÃO",
      "lon": "-9.00433762099924",
      "lat": "38.53558201414958"
    },
    {
      "id": "pt.ine.add.PTCONT.5131720",
      "street": "R JACARANDAS",
      "house": "1C",
      "postcode": "2925-320",
      "city": "AZEITÃO",
      "lon": "-9.00529212814022",
      "lat": "38.536745977841434"
    }
  ]
}