{
  "data": {
    "distrito": "Porto",
    "concelho": "Penafiel",
    "freguesia": "Termas de São Vicente",
    "OBJECTID": 638,
    "BGRI2021": "13114300227",
    "DT21": "13",
    "DTMN21": "1311",
    "DTMNFR21": "131143",
    "DTMNFRSEC21": "131143002",
    "SECNUM21": "002",
    "SSNUM21": "27",
    "SECSSNUM21": "00227",
    "OBJECTID_1": 136395,
    "DT": "13",
    "CC": "11",
    "fr": "43",
    "SEC": "002",
    "SS": "27"
  },
  "addresses": [
    {
      "id": "pt.ine.add.PTCONT.3555343",
      "street": "R PADRE JOSE MONTEIRO DE AGUIAR",
      "house": "",
      "postcode": "4575-290",
      "city": "PAREDES PNF",
      "lon": "-8.293463679667065",
      "lat": "41.12993175343302"
    },
    {
      "id": "pt.ine.add.PTCONT.3561941",
      "street": "R CENTRAL DE CEPO",
      "house": "359",
      "postcode": "4575-291",
      "city": "PAREDES PNF",
      "lon": "-8.292297141281013",
      "lat": "41.13015848193587"
    },
    {
      "id": "pt.ine.add.PTCONT.3671206",
      "street": "TV OLIVEIRAS",
      "house": "27",
      "postcode": "4575-291",
      "city": "PAREDES PNF",
      "lon": "-8.293308555975448",
      "lat": "41.1298059072644"
    },
    {
      "id": "pt.ine.add.PTCONT.3697705",
      "street": "R CENTRAL DE CEPO",
      "house": "221",
      "postcode": "4575-291",
      "city": "PAREDES PNF",
      "lon": "-8.292091753150395",
      "lat": "41.128943167776995"
    },
    {
      "id": "pt.ine.add.PTCONT.3751635",
      "street": "R CENTRAL DE CEPO",
      "house": "277",
      "postcode": "4575-291",
      "city": "PAREDES PNF",
      "lon": "-8.292188111186892",
      "lat": "41.12939325619189"
    },
    {
      "id": "pt.ine.add.PTCONT.3781905",
      "street": "AV S MIGUEL",
      "house": "",
      "postcode": "4575-302",
      "city": "PAREDES PNF",
      "lon": "-8.293570619387628",
      "lat": "41.12983255583047"
    },
    {
      "id": "pt.ine.add.PTCONT.3876662",
      "street": "AV S MIGUEL",
      "house": "1034",
      "postcode": "4575-302",
      "city": "PAREDES PNF",
      "lon": "-8.293509495524795",
      "lat": "41.129184322135664"
    },
    {
      "id": "pt.ine.add.PTCONT.3884543",
      "street": "AV S MIGUEL",
      "house": "",
      "postcode": "4575-302",
      "city": "PAREDES PNF",
      "lon": "-8.29341529847577",
      "lat": "41.12962567022839"
    },
    {
      "id": "pt.ine.add.PTCONT.3983616",
      "street": "R CENTRAL DE CEPO",
      "house": "205",
      "postcode": "4575-291",
      "city": "PAREDES PNF",
      "lon": "-8.292055657256467",
      "lat": "41.12879014228957"
    },
    {
      "id": "pt.ine.add.PTCONT.3993981",
      "street": "AV S MIGUEL",
      "house": "",
      "postcode": "4575-302",
      "city": "PAREDES PNF",
      "lon": "-8.293748243919229",
      "lat": "41.129418104611354"
    },
    {
      "id": "pt.ine.add.PTCONT.4000458",
      "street": "AV S MIGUEL",
      "house": "1064",
      "postcode": "4575-302",
      "city": "PAREDES PNF",
      "lon": "-8.293736642454638",
      "lat": "41.129544182779924"
    },
    {
      "id": "pt.ine.add.PTCONT.4013377",
      "street": "R CENTRAL DE CEPO",
      "house": "115",
      "postcode": "4575-291",
      "city": "PAREDES PNF",
      "lon": "-8.292781613724708",
      "lat": "41.12859104096173"
    },
    {
      "id": "pt.ine.add.PTCONT.4059236",
      "street": "R PADRE JOSE MONTEIRO DE AGUIAR",
      "house": "561",
      "postcode": "4575-290",
      "city": "PAREDES PNF",
      "lon": "-8.292713826963997",
      "lat": "41.13010387884537"
    },
    {
      "id": "pt.ine.add.PTCONT.4072797",
      "street": "R CENTRAL DE CEPO",
      "house": "325",
      "postcode": "4575-291",
      "city": "PAREDES PNF",
      "lon": "-8.292248700067542",
      "lat": "41.1298253850514"
    },
    {
      "id": "pt.ine.add.PTCONT.4075679",
      "street": "CÊPO",
      "house": "",
      "postcode": "4575-290",
      "city": "PAREDES PNF",
      "lon": "-8.292139388456498",
      "lat": "41.12894310203016"
    },
    {
      "id": "pt.ine.add.PTCONT.4107930",
      "street": "AV S MIGUEL",
      "house": "1089",
      "postcode": "4575-302",
      "city": "PAREDES PNF",
      "lon": "-8.293427426608629",
      "lat": "41.129715697628804"
    },
    {
      "id": "pt.ine.add.PTCONT.4151064",
      "street": "R CENTRAL DE CEPO",
      "house": "251",
      "postcode": "4575-291",
      "city": "PAREDES PNF",
      "lon": "-8.292127936174303",
      "lat": "41.129132210843416"
    },
    {
      "id": "pt.ine.add.PTCONT.4171605",
      "street": "CEPO S MIGUEL PAREDES PENAFIEL",
      "house": "",
      "postcode": "4575-291",
      "city": "PAREDES PNF",
      "lon": "-8.29324861697405",
      "lat": "41.12964391090047"
    },
    {
      "id": "pt.ine.add.PTCONT.4206339",
      "street": "AV S MIGUEL",
      "house": "1090",
      "postcode": "4575-302",
      "city": "PAREDES PNF",
      "lon": "-8.293605929432465",
      "lat": "41.129661422519035"
    },
    {
      "id": "pt.ine.add.PTCONT.4223096",
      "street": "R PADRE JOSE MONTEIRO AGUIAR",
      "house": "5",
      "postcode": "4575-290",
      "city": "PAREDES PNF",
      "lon": "-8.293344655343388",
      "lat": "41.129958932325856"
    },
    {
      "id": "pt.ine.add.PTCONT.4223097",
      "street": "AV S MIGUEL",
      "house": "37",
      "postcode": "4575-302",
      "city": "PAREDES PNF",
      "lon": "-8.293710299561946",
      "lat": "41.12850871020283"
    },
    {
      "id": "pt.ine.add.PTCONT.4223098",
      "street": "R CENTRAL CEPO",
      "house": "37",
      "postcode": "4575-291",
      "city": "PAREDES PNF",
      "lon": "-8.293710299561946",
      "lat": "41.12850871020283"
    },
    {
      "id": "pt.ine.add.PTCONT.4223099",
      "street": "R CENTRAL CEPO",
      "house": "37",
      "postcode": "4575-291",
      "city": "PAREDES PNF",
      "lon": "-8.293710299561946",
      "lat": "41.12850871020283"
    },
    {
      "id": "pt.ine.add.PTCONT.4223100",
      "street": "R CENTRAL CEPO",
      "house": "37",
      "postcode": "4575-291",
      "city": "PAREDES PNF",
      "lon": "-8.293710299561946",
      "lat": "41.12850871020283"
    },
    {
      "id": "pt.ine.add.PTCONT.4223101",
      "street": "AV S MIGUEL",
      "house": "37",
      "postcode": "4575-302",
      "city": "PAREDES PNF",
      "lon": "-8.293710299561946",
      "lat": "41.12850871020283"
    },
    {
      "id": "pt.ine.add.PTCONT.4223102",
      "street": "AV S MIGUEL",
      "house": "37",
      "postcode": "4575-302",
      "city": "PAREDES PNF",
      "lon": "-8.293710299561946",
      "lat": "41.12850871020283"
    },
    {
      "id": "pt.ine.add.PTCONT.4223103",
      "street": "R CENTRAL CEPO",
      "house": "ENT A",
      "postcode": "4575-291",
      "city": "PAREDES PNF",
      "lon": "-8.293710299561946",
      "lat": "41.12850871020283"
    },
    {
      "id": "pt.ine.add.PTCONT.4223104",
      "street": "AV S MIGUEL",
      "house": "37",
      "postcode": "4575-302",
      "city": "PAREDES PNF",
      "lon": "-8.293710299561946",
      "lat": "41.12850871020283"
    },
    {
      "id": "pt.ine.add.PTCONT.4223105",
      "street": "R CENTRAL CEPO",
      "house": "37",
      "postcode": "4575-291",
      "city": "PAREDES PNF",
      "lon": "-8.293710299561946",
      "lat": "41.12850871020283"
    },
    {
      "id": "pt.ine.add.PTCONT.4223106",
      "street": "R CENTRAL CEPO",
      "house": "37",
      "postcode": "4575-291",
      "city": "PAREDES PNF",
      "lon": "-8.293710299561946",
      "lat": "41.12850871020283"
    },
    {
      "id": "pt.ine.add.PTCONT.4225468",
      "street": "AV S MIGUEL",
      "house": "37",
      "postcode": "4575-302",
      "city": "PAREDES PNF",
      "lon": "-8.293710299561946",
      "lat": "41.12850871020283"
    },
    {
      "id": "pt.ine.add.PTCONT.4225583",
      "street": "R PADRE JOSE MONTEIRO AGUIAR",
      "house": "5",
      "postcode": "4575-290",
      "city": "PAREDES PNF",
      "lon": "-8.293344655343388",
      "lat": "41.129958932325856"
    },
    {
      "id": "pt.ine.add.PTCONT.4225654",
      "street": "AV S MIGUEL",
      "house": "37",
      "postcode": "4575-302",
      "city": "PAREDES PNF",
      "lon": "-8.293710299561946",
      "lat": "41.12850871020283"
    },
    {
      "id": "pt.ine.add.PTCONT.4242656",
      "street": "R PADRE JOSE MONTEIRO DE AGUIAR",
      "house": "543",
      "postcode": "4575-290",
      "city": "PAREDES PNF",
      "lon": "-8.292535387592961",
      "lat": "41.13018516576273"
    },
    {
      "id": "pt.ine.add.PTCONT.4285099",
      "street": "R CENTRAL DE CEPO",
      "house": "157",
      "postcode": "4575-291",
      "city": "PAREDES PNF",
      "lon": "-8.292484286855348",
      "lat": "41.128753532398925"
    },
    {
      "id": "pt.ine.add.PTCONT.4294893",
      "street": "R CENTRAL DE CEPO",
      "house": "57",
      "postcode": "4575-291",
      "city": "PAREDES PNF",
      "lon": "-8.293495898259732",
      "lat": "41.12849100003075"
    },
    {
      "id": "pt.ine.add.PTCONT.4294894",
      "street": "R CENTRAL CEPO",
      "house": "",
      "postcode": "4575-291",
      "city": "PAREDES PNF",
      "lon": "-8.293495898259732",
      "lat": "41.12849100003075"
    },
    {
      "id": "pt.ine.add.PTCONT.4298638",
      "street": "R CENTRAL DE CEPO",
      "house": "57",
      "postcode": "4575-291",
      "city": "PAREDES PNF",
      "lon": "-8.293495898259732",
      "lat": "41.12849100003075"
    },
    {
      "id": "pt.ine.add.PTCONT.4302723",
      "street": "R CENTRAL CEPO",
      "house": "83",
      "postcode": "4575-291",
      "city": "PAREDES PNF",
      "lon": "-8.293091000958881",
      "lat": "41.128491563013505"
    },
    {
      "id": "pt.ine.add.PTCONT.4302724",
      "street": "AV S MIGUEL",
      "house": "994",
      "postcode": "4575-302",
      "city": "PAREDES PNF",
      "lon": "-8.293652072725624",
      "lat": "41.12904905710647"
    }
  ]
}