{
  "data": {
    "distrito": "Leiria",
    "concelho": "Pombal",
    "freguesia": "Uni√£o das freguesias de Guia, Ilha e Mata Mourisca",
    "OBJECTID": 1304,
    "BGRI2021": "10151800239",
    "DT21": "10",
    "DTMN21": "1015",
    "DTMNFR21": "101518",
    "DTMNFRSEC21": "101518002",
    "SECNUM21": "002",
    "SSNUM21": "39",
    "SECSSNUM21": "00239",
    "OBJECTID_1": 96390,
    "DT": "10",
    "CC": "15",
    "fr": "18",
    "SEC": "002",
    "SS": "39"
  },
  "addresses": [
    {
      "id": "pt.ine.add.PTCONT.2029274",
      "street": "R PRINCIPAL",
      "house": "130",
      "postcode": "3105-103",
      "city": "GUIA PBL",
      "lon": "-8.777626370622752",
      "lat": "39.92656615686951"
    },
    {
      "id": "pt.ine.add.PTCONT.2066900",
      "street": "R PRINCIPAL",
      "house": "128",
      "postcode": "3105-103",
      "city": "GUIA PBL",
      "lon": "-8.777651876399972",
      "lat": "39.92679117037785"
    },
    {
      "id": "pt.ine.add.PTCONT.2069252",
      "street": "R PRINCIPAL",
      "house": "",
      "postcode": "3105-103",
      "city": "GUIA PBL",
      "lon": "-8.776931455204965",
      "lat": "39.92356194202975"
    },
    {
      "id": "pt.ine.add.PTCONT.2083201",
      "street": "R PRINCIPAL",
      "house": "",
      "postcode": "3105-103",
      "city": "GUIA PBL",
      "lon": "-8.777522744986069",
      "lat": "39.925494993542955"
    },
    {
      "id": "pt.ine.add.PTCONT.2088989",
      "street": "R PRINCIPAL",
      "house": "132",
      "postcode": "3105-103",
      "city": "GUIA PBL",
      "lon": "-8.777694611087222",
      "lat": "39.92635863464784"
    },
    {
      "id": "pt.ine.add.PTCONT.2144660",
      "street": "R PRINCIPAL",
      "house": "120",
      "postcode": "3105-103",
      "city": "GUIA PBL",
      "lon": "-8.777692796003766",
      "lat": "39.927412371456036"
    },
    {
      "id": "pt.ine.add.PTCONT.2165669",
      "street": "R CENTRAL",
      "house": "",
      "postcode": "3105-103",
      "city": "GUIA PBL",
      "lon": "-8.777813232948393",
      "lat": "39.92778095646471"
    },
    {
      "id": "pt.ine.add.PTCONT.2180854",
      "street": "R PRINCIPAL",
      "house": "124",
      "postcode": "3105-103",
      "city": "GUIA PBL",
      "lon": "-8.777642375037482",
      "lat": "39.927025384687056"
    },
    {
      "id": "pt.ine.add.PTCONT.2196580",
      "street": "R PRINCIPAL",
      "house": "",
      "postcode": "3105-103",
      "city": "GUIA PBL",
      "lon": "-8.77742553879425",
      "lat": "39.925108266558226"
    },
    {
      "id": "pt.ine.add.PTCONT.2197867",
      "street": "R PRINCIPAL",
      "house": "",
      "postcode": "3105-103",
      "city": "GUIA PBL",
      "lon": "-8.77763262025317",
      "lat": "39.92723258176282"
    }
  ]
}