{
  "data": {
    "distrito": "Lisboa",
    "concelho": "Mafra",
    "freguesia": "Mafra",
    "OBJECTID": 741,
    "BGRI2021": "11090900413",
    "DT21": "11",
    "DTMN21": "1109",
    "DTMNFR21": "110909",
    "DTMNFRSEC21": "110909004",
    "SECNUM21": "004",
    "SSNUM21": "13",
    "SECSSNUM21": "00413",
    "OBJECTID_1": 108555,
    "DT": "11",
    "CC": "09",
    "fr": "09",
    "SEC": "004",
    "SS": "13"
  },
  "addresses": [
    {
      "id": "pt.ine.add.PTCONT.2270315",
      "street": "R BELA VISTA",
      "house": "",
      "postcode": "2640-415",
      "city": "MAFRA",
      "lon": "-9.377252985676654",
      "lat": "38.96014992785271"
    },
    {
      "id": "pt.ine.add.PTCONT.2289768",
      "street": "R BELA VISTA",
      "house": "",
      "postcode": "2640-415",
      "city": "MAFRA",
      "lon": "-9.377492883711492",
      "lat": "38.95935472171851"
    },
    {
      "id": "pt.ine.add.PTCONT.2316716",
      "street": "R CAMINHO ARREBENTA",
      "house": "",
      "postcode": "2640-415",
      "city": "MAFRA",
      "lon": "-9.374589392149796",
      "lat": "38.95890825717102"
    },
    {
      "id": "pt.ine.add.PTCONT.2323089",
      "street": "R ALTO DA ARREBENTA",
      "house": "",
      "postcode": "2640-415",
      "city": "MAFRA",
      "lon": "-9.375275899723809",
      "lat": "38.95924323150074"
    },
    {
      "id": "pt.ine.add.PTCONT.2334820",
      "street": "R BELA VISTA",
      "house": "",
      "postcode": "2640-415",
      "city": "MAFRA",
      "lon": "-9.375572807832956",
      "lat": "38.95906893062926"
    },
    {
      "id": "pt.ine.add.PTCONT.2339180",
      "street": "R ALTO DA ARREBENTA",
      "house": "1",
      "postcode": "2640-415",
      "city": "MAFRA",
      "lon": "-9.375602955244206",
      "lat": "38.95947394117317"
    },
    {
      "id": "pt.ine.add.PTCONT.2352932",
      "street": "R ALTO DA ARREBENTA",
      "house": "",
      "postcode": "2640-415",
      "city": "MAFRA",
      "lon": "-9.374627296142277",
      "lat": "38.95909700865054"
    },
    {
      "id": "pt.ine.add.PTCONT.2379933",
      "street": "R ALTO DA ARREBENTA",
      "house": "31",
      "postcode": "2640-415",
      "city": "MAFRA",
      "lon": "-9.377243777667115",
      "lat": "38.96094267409197"
    },
    {
      "id": "pt.ine.add.PTCONT.2389863",
      "street": "R ALTO DA ARREBENTA",
      "house": "25",
      "postcode": "2640-415",
      "city": "MAFRA",
      "lon": "-9.37673880823504",
      "lat": "38.960434637072346"
    },
    {
      "id": "pt.ine.add.PTCONT.2399327",
      "street": "R BELA VISTA",
      "house": "",
      "postcode": "2640-415",
      "city": "MAFRA",
      "lon": "-9.377104767944072",
      "lat": "38.96025058903468"
    },
    {
      "id": "pt.ine.add.PTCONT.2417865",
      "street": "ESTR ARREBENTA",
      "house": "",
      "postcode": "2640-415",
      "city": "MAFRA",
      "lon": "-9.374795754478788",
      "lat": "38.95883400258685"
    },
    {
      "id": "pt.ine.add.PTCONT.2603365",
      "street": "R CAMINHO ARREBENTA",
      "house": "",
      "postcode": "2640-415",
      "city": "MAFRA",
      "lon": "-9.374382715094018",
      "lat": "38.9589645000019"
    },
    {
      "id": "pt.ine.add.PTCONT.2610038",
      "street": "R ALTO DA ARREBENTA",
      "house": "29",
      "postcode": "2640-415",
      "city": "MAFRA",
      "lon": "-9.377055756688312",
      "lat": "38.960746516561116"
    },
    {
      "id": "pt.ine.add.PTCONT.2612910",
      "street": "R BELA VISTA",
      "house": "",
      "postcode": "2640-415",
      "city": "MAFRA",
      "lon": "-9.377409709830117",
      "lat": "38.960535573469386"
    },
    {
      "id": "pt.ine.add.PTCONT.2704238",
      "street": "R BELA VISTA",
      "house": "",
      "postcode": "2640-415",
      "city": "MAFRA",
      "lon": "-9.376952455396678",
      "lat": "38.96011710218501"
    },
    {
      "id": "pt.ine.add.PTCONT.2728483",
      "street": "R BELA VISTA",
      "house": "",
      "postcode": "2640-415",
      "city": "MAFRA",
      "lon": "-9.377463444722526",
      "lat": "38.960309816364656"
    },
    {
      "id": "pt.ine.add.PTCONT.2728484",
      "street": "R BELA VISTA",
      "house": "",
      "postcode": "2640-415",
      "city": "MAFRA",
      "lon": "-9.37685639927677",
      "lat": "38.959901949253585"
    },
    {
      "id": "pt.ine.add.PTCONT.2767146",
      "street": "R BELA VISTA",
      "house": "",
      "postcode": "2640-415",
      "city": "MAFRA",
      "lon": "-9.377245703912088",
      "lat": "38.96039320433823"
    },
    {
      "id": "pt.ine.add.PTCONT.2799962",
      "street": "R BELA VISTA",
      "house": "341",
      "postcode": "2640-415",
      "city": "MAFRA",
      "lon": "-9.377492343223622",
      "lat": "38.96064278067937"
    },
    {
      "id": "pt.ine.add.PTCONT.2838609",
      "street": "R BELA VISTA",
      "house": "",
      "postcode": "2640-415",
      "city": "MAFRA",
      "lon": "-9.377369749722783",
      "lat": "38.96022974916805"
    },
    {
      "id": "pt.ine.add.PTCONT.2911475",
      "street": "R ALTO DA ARREBENTA",
      "house": "27",
      "postcode": "2640-415",
      "city": "MAFRA",
      "lon": "-9.376880058794153",
      "lat": "38.960595264192"
    },
    {
      "id": "pt.ine.add.PTCONT.2936600",
      "street": "R BELA VISTA",
      "house": "",
      "postcode": "2640-415",
      "city": "MAFRA",
      "lon": "-9.375397117272305",
      "lat": "38.958917675865194"
    },
    {
      "id": "pt.ine.add.PTCONT.2957115",
      "street": "R BELA VISTA",
      "house": "",
      "postcode": "2640-415",
      "city": "MAFRA",
      "lon": "-9.377338926415176",
      "lat": "38.96044625457658"
    },
    {
      "id": "pt.ine.add.PTCONT.2993469",
      "street": "R BELA VISTA",
      "house": "",
      "postcode": "2640-415",
      "city": "MAFRA",
      "lon": "-9.37693733804677",
      "lat": "38.95925255619813"
    },
    {
      "id": "pt.ine.add.PTCONT.3048223",
      "street": "R BELA VISTA",
      "house": "",
      "postcode": "2640-415",
      "city": "MAFRA",
      "lon": "-9.377066541721799",
      "lat": "38.960043827141384"
    },
    {
      "id": "pt.ine.add.PTCONT.3095777",
      "street": "R V√ÅRZEAS TORTAS",
      "house": "",
      "postcode": "2640-415",
      "city": "MAFRA",
      "lon": "-9.377634133738955",
      "lat": "38.959515347961606"
    },
    {
      "id": "pt.ine.add.PTCONT.3118394",
      "street": "R ALTO DA ARREBENTA",
      "house": "1",
      "postcode": "2640-415",
      "city": "MAFRA",
      "lon": "-9.374140962983327",
      "lat": "38.95899409338933"
    },
    {
      "id": "pt.ine.add.PTCONT.3132467",
      "street": "R ALTO DA ARREBENTA",
      "house": "",
      "postcode": "2640-415",
      "city": "MAFRA",
      "lon": "-9.37543895537967",
      "lat": "38.959331569377895"
    },
    {
      "id": "pt.ine.add.PTCONT.3152529",
      "street": "R BELA VISTA",
      "house": "",
      "postcode": "2640-415",
      "city": "MAFRA",
      "lon": "-9.377782917073297",
      "lat": "38.96076578477562"
    },
    {
      "id": "pt.ine.add.PTCONT.3206419",
      "street": "R BELA VISTA",
      "house": "10",
      "postcode": "2640-415",
      "city": "MAFRA",
      "lon": "-9.375859910685294",
      "lat": "38.95899381447419"
    },
    {
      "id": "pt.ine.add.PTCONT.3234854",
      "street": "R ALTO DA ARREBENTA",
      "house": "3",
      "postcode": "2640-415",
      "city": "MAFRA",
      "lon": "-9.374869834404006",
      "lat": "38.95911244273044"
    },
    {
      "id": "pt.ine.add.PTCONT.3409296",
      "street": "R BELA VISTA",
      "house": "",
      "postcode": "2640-415",
      "city": "MAFRA",
      "lon": "-9.375222685455357",
      "lat": "38.95883846637747"
    },
    {
      "id": "pt.ine.add.PTCONT.3436069",
      "street": "R ALTO DA ARREBENTA",
      "house": "",
      "postcode": "2640-415",
      "city": "MAFRA",
      "lon": "-9.37746577386891",
      "lat": "38.96110243955885"
    }
  ]
}