{
  "data": {
    "distrito": "Coimbra",
    "concelho": "Figueira da Foz",
    "freguesia": "Buarcos e São Julião",
    "OBJECTID": 637,
    "BGRI2021": "06052002806",
    "DT21": "06",
    "DTMN21": "0605",
    "DTMNFR21": "060520",
    "DTMNFRSEC21": "060520028",
    "SECNUM21": "028",
    "SSNUM21": "06",
    "SECSSNUM21": "02806",
    "OBJECTID_1": 51563,
    "DT": "06",
    "CC": "05",
    "fr": "20",
    "SEC": "028",
    "SS": "06"
  },
  "addresses": [
    {
      "id": "pt.ine.add.PTCONT.1110895",
      "street": "R CIUDAD RODRIGO",
      "house": "43",
      "postcode": "3080-221",
      "city": "FIGUEIRA DA FOZ",
      "lon": "-8.864272236841495",
      "lat": "40.162432680832715"
    },
    {
      "id": "pt.ine.add.PTCONT.1115046",
      "street": "R AFONSO IV",
      "house": "23",
      "postcode": "3080-328",
      "city": "FIGUEIRA DA FOZ",
      "lon": "-8.868383598404373",
      "lat": "40.16314893407257"
    },
    {
      "id": "pt.ine.add.PTCONT.1115047",
      "street": "R AFONSO IV",
      "house": "23",
      "postcode": "3080-328",
      "city": "FIGUEIRA DA FOZ",
      "lon": "-8.868383598404373",
      "lat": "40.16314893407257"
    },
    {
      "id": "pt.ine.add.PTCONT.1131722",
      "street": "R CIDADE DA PRAIA",
      "house": "10",
      "postcode": "3080-347",
      "city": "FIGUEIRA DA FOZ",
      "lon": "-8.865425332049117",
      "lat": "40.16159685780533"
    },
    {
      "id": "pt.ine.add.PTCONT.1131723",
      "street": "R CIDADE DA PRAIA",
      "house": "10",
      "postcode": "3080-347",
      "city": "FIGUEIRA DA FOZ",
      "lon": "-8.865425332049117",
      "lat": "40.16159685780533"
    },
    {
      "id": "pt.ine.add.PTCONT.1131724",
      "street": "R CIDADE DA PRAIA",
      "house": "10",
      "postcode": "3080-347",
      "city": "FIGUEIRA DA FOZ",
      "lon": "-8.865425332049117",
      "lat": "40.16159685780533"
    },
    {
      "id": "pt.ine.add.PTCONT.1131725",
      "street": "R CIDADE DA PRAIA",
      "house": "10",
      "postcode": "3080-347",
      "city": "FIGUEIRA DA FOZ",
      "lon": "-8.865425332049117",
      "lat": "40.16159685780533"
    },
    {
      "id": "pt.ine.add.PTCONT.1131726",
      "street": "R CIDADE DA PRAIA",
      "house": "10",
      "postcode": "3080-347",
      "city": "FIGUEIRA DA FOZ",
      "lon": "-8.865425332049117",
      "lat": "40.16159685780533"
    },
    {
      "id": "pt.ine.add.PTCONT.1131727",
      "street": "R CIDADE DA PRAIA",
      "house": "10",
      "postcode": "3080-347",
      "city": "FIGUEIRA DA FOZ",
      "lon": "-8.865425332049117",
      "lat": "40.16159685780533"
    },
    {
      "id": "pt.ine.add.PTCONT.1131728",
      "street": "R CIDADE DA PRAIA",
      "house": "10",
      "postcode": "3080-347",
      "city": "FIGUEIRA DA FOZ",
      "lon": "-8.865425332049117",
      "lat": "40.16159685780533"
    },
    {
      "id": "pt.ine.add.PTCONT.1131729",
      "street": "R CIDADE DA PRAIA",
      "house": "10",
      "postcode": "3080-347",
      "city": "FIGUEIRA DA FOZ",
      "lon": "-8.865425332049117",
      "lat": "40.16159685780533"
    },
    {
      "id": "pt.ine.add.PTCONT.1131730",
      "street": "R CIDADE DA PRAIA",
      "house": "10",
      "postcode": "3080-347",
      "city": "FIGUEIRA DA FOZ",
      "lon": "-8.865425332049117",
      "lat": "40.16159685780533"
    },
    {
      "id": "pt.ine.add.PTCONT.1131731",
      "street": "R CIDADE DA PRAIA",
      "house": "10",
      "postcode": "3080-347",
      "city": "FIGUEIRA DA FOZ",
      "lon": "-8.865425332049117",
      "lat": "40.16159685780533"
    },
    {
      "id": "pt.ine.add.PTCONT.1131739",
      "street": "R CIDADE DA PRAIA",
      "house": "10",
      "postcode": "3080-347",
      "city": "FIGUEIRA DA FOZ",
      "lon": "-8.865425332049117",
      "lat": "40.16159685780533"
    },
    {
      "id": "pt.ine.add.PTCONT.1131740",
      "street": "R CIDADE DA PRAIA",
      "house": "10",
      "postcode": "3080-347",
      "city": "FIGUEIRA DA FOZ",
      "lon": "-8.865425332049117",
      "lat": "40.16159685780533"
    },
    {
      "id": "pt.ine.add.PTCONT.1131741",
      "street": "R CIDADE DA PRAIA",
      "house": "10",
      "postcode": "3080-347",
      "city": "FIGUEIRA DA FOZ",
      "lon": "-8.865425332049117",
      "lat": "40.16159685780533"
    },
    {
      "id": "pt.ine.add.PTCONT.1131742",
      "street": "R CIDADE DA PRAIA",
      "house": "10",
      "postcode": "3080-347",
      "city": "FIGUEIRA DA FOZ",
      "lon": "-8.865425332049117",
      "lat": "40.16159685780533"
    },
    {
      "id": "pt.ine.add.PTCONT.1132779",
      "street": "R CIDADE DA PRAIA",
      "house": "10",
      "postcode": "3080-347",
      "city": "FIGUEIRA DA FOZ",
      "lon": "-8.865425332049117",
      "lat": "40.16159685780533"
    },
    {
      "id": "pt.ine.add.PTCONT.1133079",
      "street": "R CIDADE DA PRAIA",
      "house": "10",
      "postcode": "3080-347",
      "city": "FIGUEIRA DA FOZ",
      "lon": "-8.865425332049117",
      "lat": "40.16159685780533"
    },
    {
      "id": "pt.ine.add.PTCONT.1137624",
      "street": "R CIDADE PRAIA",
      "house": "",
      "postcode": "3080-347",
      "city": "FIGUEIRA DA FOZ",
      "lon": "-8.865045644414558",
      "lat": "40.16231071854562"
    },
    {
      "id": "pt.ine.add.PTCONT.1137625",
      "street": "R CIDADE DA PRAIA",
      "house": "14",
      "postcode": "3080-347",
      "city": "FIGUEIRA DA FOZ",
      "lon": "-8.865045644414558",
      "lat": "40.16231071854562"
    },
    {
      "id": "pt.ine.add.PTCONT.1137626",
      "street": "R CIDADE DA PRAIA",
      "house": "14",
      "postcode": "3080-347",
      "city": "FIGUEIRA DA FOZ",
      "lon": "-8.865045644414558",
      "lat": "40.16231071854562"
    },
    {
      "id": "pt.ine.add.PTCONT.1137627",
      "street": "R CIDADE DA PRAIA",
      "house": "14",
      "postcode": "3080-347",
      "city": "FIGUEIRA DA FOZ",
      "lon": "-8.865045644414558",
      "lat": "40.16231071854562"
    },
    {
      "id": "pt.ine.add.PTCONT.1137628",
      "street": "R CIDADE DA PRAIA",
      "house": "14",
      "postcode": "3080-347",
      "city": "FIGUEIRA DA FOZ",
      "lon": "-8.865045644414558",
      "lat": "40.16231071854562"
    },
    {
      "id": "pt.ine.add.PTCONT.1137629",
      "street": "R CIDADE DA PRAIA",
      "house": "14",
      "postcode": "3080-347",
      "city": "FIGUEIRA DA FOZ",
      "lon": "-8.865045644414558",
      "lat": "40.16231071854562"
    },
    {
      "id": "pt.ine.add.PTCONT.1137630",
      "street": "R CIDADE DA PRAIA",
      "house": "14",
      "postcode": "3080-347",
      "city": "FIGUEIRA DA FOZ",
      "lon": "-8.865045644414558",
      "lat": "40.16231071854562"
    },
    {
      "id": "pt.ine.add.PTCONT.1137631",
      "street": "R CIDADE DA PRAIA",
      "house": "14",
      "postcode": "3080-347",
      "city": "FIGUEIRA DA FOZ",
      "lon": "-8.865045644414558",
      "lat": "40.16231071854562"
    },
    {
      "id": "pt.ine.add.PTCONT.1137632",
      "street": "R CIDADE DA PRAIA",
      "house": "14",
      "postcode": "3080-347",
      "city": "FIGUEIRA DA FOZ",
      "lon": "-8.865045644414558",
      "lat": "40.16231071854562"
    },
    {
      "id": "pt.ine.add.PTCONT.1137633",
      "street": "R CIDADE DA PRAIA",
      "house": "14",
      "postcode": "3080-347",
      "city": "FIGUEIRA DA FOZ",
      "lon": "-8.865045644414558",
      "lat": "40.16231071854562"
    },
    {
      "id": "pt.ine.add.PTCONT.1137634",
      "street": "R CIDADE DA PRAIA",
      "house": "14",
      "postcode": "3080-347",
      "city": "FIGUEIRA DA FOZ",
      "lon": "-8.865045644414558",
      "lat": "40.16231071854562"
    },
    {
      "id": "pt.ine.add.PTCONT.1137635",
      "street": "R CIDADE DA PRAIA",
      "house": "14",
      "postcode": "3080-347",
      "city": "FIGUEIRA DA FOZ",
      "lon": "-8.865045644414558",
      "lat": "40.16231071854562"
    },
    {
      "id": "pt.ine.add.PTCONT.1137636",
      "street": "R CIDADE DA PRAIA",
      "house": "14",
      "postcode": "3080-347",
      "city": "FIGUEIRA DA FOZ",
      "lon": "-8.865045644414558",
      "lat": "40.16231071854562"
    },
    {
      "id": "pt.ine.add.PTCONT.1137637",
      "street": "R CIDADE DA PRAIA",
      "house": "14",
      "postcode": "3080-347",
      "city": "FIGUEIRA DA FOZ",
      "lon": "-8.865045644414558",
      "lat": "40.16231071854562"
    },
    {
      "id": "pt.ine.add.PTCONT.1137689",
      "street": "R CIDADE DA PRAIA",
      "house": "14",
      "postcode": "3080-347",
      "city": "FIGUEIRA DA FOZ",
      "lon": "-8.865045644414558",
      "lat": "40.16231071854562"
    },
    {
      "id": "pt.ine.add.PTCONT.1137690",
      "street": "R CIDADE DA PRAIA",
      "house": "14",
      "postcode": "3080-347",
      "city": "FIGUEIRA DA FOZ",
      "lon": "-8.865045644414558",
      "lat": "40.16231071854562"
    },
    {
      "id": "pt.ine.add.PTCONT.1140888",
      "street": "R CIDADE DA PRAIA",
      "house": "8",
      "postcode": "3080-347",
      "city": "FIGUEIRA DA FOZ",
      "lon": "-8.865561920309291",
      "lat": "40.16119973765297"
    },
    {
      "id": "pt.ine.add.PTCONT.1140889",
      "street": "R CIDADE DA PRAIA",
      "house": "8",
      "postcode": "3080-347",
      "city": "FIGUEIRA DA FOZ",
      "lon": "-8.865561920309291",
      "lat": "40.16119973765297"
    },
    {
      "id": "pt.ine.add.PTCONT.1140890",
      "street": "R CIDADE DA PRAIA",
      "house": "8",
      "postcode": "3080-347",
      "city": "FIGUEIRA DA FOZ",
      "lon": "-8.865561920309291",
      "lat": "40.16119973765297"
    },
    {
      "id": "pt.ine.add.PTCONT.1140891",
      "street": "R CIDADE DA PRAIA",
      "house": "8",
      "postcode": "3080-347",
      "city": "FIGUEIRA DA FOZ",
      "lon": "-8.865561920309291",
      "lat": "40.16119973765297"
    },
    {
      "id": "pt.ine.add.PTCONT.1140892",
      "street": "R CIDADE DA PRAIA",
      "house": "8",
      "postcode": "3080-347",
      "city": "FIGUEIRA DA FOZ",
      "lon": "-8.865561920309291",
      "lat": "40.16119973765297"
    },
    {
      "id": "pt.ine.add.PTCONT.1140893",
      "street": "R CIDADE DA PRAIA",
      "house": "8",
      "postcode": "3080-347",
      "city": "FIGUEIRA DA FOZ",
      "lon": "-8.865561920309291",
      "lat": "40.16119973765297"
    },
    {
      "id": "pt.ine.add.PTCONT.1140894",
      "street": "R CIDADE DA PRAIA",
      "house": "8",
      "postcode": "3080-347",
      "city": "FIGUEIRA DA FOZ",
      "lon": "-8.865561920309291",
      "lat": "40.16119973765297"
    },
    {
      "id": "pt.ine.add.PTCONT.1140895",
      "street": "R CIDADE DA PRAIA",
      "house": "8",
      "postcode": "3080-347",
      "city": "FIGUEIRA DA FOZ",
      "lon": "-8.865561920309291",
      "lat": "40.16119973765297"
    },
    {
      "id": "pt.ine.add.PTCONT.1140896",
      "street": "R CIDADE DA PRAIA",
      "house": "8",
      "postcode": "3080-347",
      "city": "FIGUEIRA DA FOZ",
      "lon": "-8.865561920309291",
      "lat": "40.16119973765297"
    },
    {
      "id": "pt.ine.add.PTCONT.1140897",
      "street": "R CIDADE DA PRAIA",
      "house": "8",
      "postcode": "3080-347",
      "city": "FIGUEIRA DA FOZ",
      "lon": "-8.865561920309291",
      "lat": "40.16119973765297"
    },
    {
      "id": "pt.ine.add.PTCONT.1140898",
      "street": "R CIDADE DA PRAIA",
      "house": "8",
      "postcode": "3080-347",
      "city": "FIGUEIRA DA FOZ",
      "lon": "-8.865561920309291",
      "lat": "40.16119973765297"
    },
    {
      "id": "pt.ine.add.PTCONT.1140899",
      "street": "R CIDADE DA PRAIA",
      "house": "8",
      "postcode": "3080-347",
      "city": "FIGUEIRA DA FOZ",
      "lon": "-8.865561920309291",
      "lat": "40.16119973765297"
    },
    {
      "id": "pt.ine.add.PTCONT.1140900",
      "street": "R CIDADE DA PRAIA",
      "house": "8",
      "postcode": "3080-347",
      "city": "FIGUEIRA DA FOZ",
      "lon": "-8.865561920309291",
      "lat": "40.16119973765297"
    },
    {
      "id": "pt.ine.add.PTCONT.1140901",
      "street": "R CIDADE DA PRAIA",
      "house": "8",
      "postcode": "3080-347",
      "city": "FIGUEIRA DA FOZ",
      "lon": "-8.865561920309291",
      "lat": "40.16119973765297"
    },
    {
      "id": "pt.ine.add.PTCONT.1140902",
      "street": "R CIDADE DA PRAIA",
      "house": "8",
      "postcode": "3080-347",
      "city": "FIGUEIRA DA FOZ",
      "lon": "-8.865561920309291",
      "lat": "40.16119973765297"
    },
    {
      "id": "pt.ine.add.PTCONT.1140942",
      "street": "R CIDADE DA PRAIA",
      "house": "8",
      "postcode": "3080-347",
      "city": "FIGUEIRA DA FOZ",
      "lon": "-8.865561920309291",
      "lat": "40.16119973765297"
    },
    {
      "id": "pt.ine.add.PTCONT.1153877",
      "street": "R CIUDAD RODRIGO",
      "house": "39",
      "postcode": "3080-221",
      "city": "FIGUEIRA DA FOZ",
      "lon": "-8.864338989469308",
      "lat": "40.162090038073195"
    },
    {
      "id": "pt.ine.add.PTCONT.1156025",
      "street": "R AFONSO IV",
      "house": "41",
      "postcode": "3080-328",
      "city": "FIGUEIRA DA FOZ",
      "lon": "-8.867608261998992",
      "lat": "40.16265472304163"
    },
    {
      "id": "pt.ine.add.PTCONT.1156026",
      "street": "R AFONSO IV",
      "house": "41",
      "postcode": "3080-328",
      "city": "FIGUEIRA DA FOZ",
      "lon": "-8.867608261998992",
      "lat": "40.16265472304163"
    },
    {
      "id": "pt.ine.add.PTCONT.1169889",
      "street": "R RANCHO DAS CANTARINHAS",
      "house": "",
      "postcode": "3080-250",
      "city": "FIGUEIRA DA FOZ",
      "lon": "-8.866318700392945",
      "lat": "40.16280698967027"
    },
    {
      "id": "pt.ine.add.PTCONT.1173594",
      "street": "R ROGERIO REYNAUD",
      "house": "27",
      "postcode": "3080-251",
      "city": "FIGUEIRA DA FOZ",
      "lon": "-8.864990052303963",
      "lat": "40.162599256222485"
    },
    {
      "id": "pt.ine.add.PTCONT.1173595",
      "street": "R ROGERIO REYNAUD",
      "house": "27",
      "postcode": "3080-251",
      "city": "FIGUEIRA DA FOZ",
      "lon": "-8.864990052303963",
      "lat": "40.162599256222485"
    },
    {
      "id": "pt.ine.add.PTCONT.1173596",
      "street": "R ROGERIO REYNAUD",
      "house": "27",
      "postcode": "3080-251",
      "city": "FIGUEIRA DA FOZ",
      "lon": "-8.864990052303963",
      "lat": "40.162599256222485"
    },
    {
      "id": "pt.ine.add.PTCONT.1173722",
      "street": "R ROGERIO REYNAUD",
      "house": "27",
      "postcode": "3080-251",
      "city": "FIGUEIRA DA FOZ",
      "lon": "-8.864990052303963",
      "lat": "40.162599256222485"
    },
    {
      "id": "pt.ine.add.PTCONT.1173723",
      "street": "R ROGERIO REYNAUD",
      "house": "27",
      "postcode": "3080-251",
      "city": "FIGUEIRA DA FOZ",
      "lon": "-8.864990052303963",
      "lat": "40.162599256222485"
    },
    {
      "id": "pt.ine.add.PTCONT.1173724",
      "street": "R ROGERIO REYNAUD",
      "house": "27",
      "postcode": "3080-251",
      "city": "FIGUEIRA DA FOZ",
      "lon": "-8.864990052303963",
      "lat": "40.162599256222485"
    },
    {
      "id": "pt.ine.add.PTCONT.1173725",
      "street": "R ROGERIO REYNAUD",
      "house": "27",
      "postcode": "3080-251",
      "city": "FIGUEIRA DA FOZ",
      "lon": "-8.864990052303963",
      "lat": "40.162599256222485"
    },
    {
      "id": "pt.ine.add.PTCONT.1173726",
      "street": "R ROGERIO REYNAUD",
      "house": "27",
      "postcode": "3080-251",
      "city": "FIGUEIRA DA FOZ",
      "lon": "-8.864990052303963",
      "lat": "40.162599256222485"
    },
    {
      "id": "pt.ine.add.PTCONT.1173727",
      "street": "R ROGERIO REYNAUD",
      "house": "27",
      "postcode": "3080-251",
      "city": "FIGUEIRA DA FOZ",
      "lon": "-8.864990052303963",
      "lat": "40.162599256222485"
    },
    {
      "id": "pt.ine.add.PTCONT.1173728",
      "street": "R ROGERIO REYNAUD",
      "house": "27",
      "postcode": "3080-251",
      "city": "FIGUEIRA DA FOZ",
      "lon": "-8.864990052303963",
      "lat": "40.162599256222485"
    },
    {
      "id": "pt.ine.add.PTCONT.1173729",
      "street": "R ROGERIO REYNAUD",
      "house": "27",
      "postcode": "3080-251",
      "city": "FIGUEIRA DA FOZ",
      "lon": "-8.864990052303963",
      "lat": "40.162599256222485"
    },
    {
      "id": "pt.ine.add.PTCONT.1175044",
      "street": "R ROGERIO REYNAUD",
      "house": "27",
      "postcode": "3080-251",
      "city": "FIGUEIRA DA FOZ",
      "lon": "-8.864990052303963",
      "lat": "40.162599256222485"
    },
    {
      "id": "pt.ine.add.PTCONT.1182107",
      "street": "R AFONSO IV",
      "house": "19",
      "postcode": "3080-328",
      "city": "FIGUEIRA DA FOZ",
      "lon": "-8.868600768290149",
      "lat": "40.16307836753326"
    },
    {
      "id": "pt.ine.add.PTCONT.1182108",
      "street": "R AFONSO IV",
      "house": "19",
      "postcode": "3080-328",
      "city": "FIGUEIRA DA FOZ",
      "lon": "-8.868600768290149",
      "lat": "40.16307836753326"
    },
    {
      "id": "pt.ine.add.PTCONT.1188199",
      "street": "TV D AFONSO IV",
      "house": "2",
      "postcode": "3080-328",
      "city": "FIGUEIRA DA FOZ",
      "lon": "-8.868841546365363",
      "lat": "40.16300840886222"
    },
    {
      "id": "pt.ine.add.PTCONT.1188200",
      "street": "TV D AFONSO IV",
      "house": "2",
      "postcode": "3080-328",
      "city": "FIGUEIRA DA FOZ",
      "lon": "-8.868841546365363",
      "lat": "40.16300840886222"
    },
    {
      "id": "pt.ine.add.PTCONT.1188201",
      "street": "TV D AFONSO IV",
      "house": "2",
      "postcode": "3080-328",
      "city": "FIGUEIRA DA FOZ",
      "lon": "-8.868841546365363",
      "lat": "40.16300840886222"
    },
    {
      "id": "pt.ine.add.PTCONT.1188202",
      "street": "TV D AFONSO IV",
      "house": "2",
      "postcode": "3080-328",
      "city": "FIGUEIRA DA FOZ",
      "lon": "-8.868841546365363",
      "lat": "40.16300840886222"
    },
    {
      "id": "pt.ine.add.PTCONT.1188203",
      "street": "TV D AFONSO IV",
      "house": "2",
      "postcode": "3080-328",
      "city": "FIGUEIRA DA FOZ",
      "lon": "-8.868841546365363",
      "lat": "40.16300840886222"
    },
    {
      "id": "pt.ine.add.PTCONT.1188204",
      "street": "TV D AFONSO IV",
      "house": "2",
      "postcode": "3080-328",
      "city": "FIGUEIRA DA FOZ",
      "lon": "-8.868841546365363",
      "lat": "40.16300840886222"
    },
    {
      "id": "pt.ine.add.PTCONT.1189283",
      "street": "R CIUDAD RODRIGO",
      "house": "37",
      "postcode": "3080-221",
      "city": "FIGUEIRA DA FOZ",
      "lon": "-8.86440835031609",
      "lat": "40.161990535967426"
    },
    {
      "id": "pt.ine.add.PTCONT.1200001",
      "street": "R ROGERIO REYNAUD",
      "house": "25",
      "postcode": "3080-251",
      "city": "FIGUEIRA DA FOZ",
      "lon": "-8.864766655493694",
      "lat": "40.16256464485294"
    },
    {
      "id": "pt.ine.add.PTCONT.1200002",
      "street": "R ROGERIO REYNAUD",
      "house": "25",
      "postcode": "3080-251",
      "city": "FIGUEIRA DA FOZ",
      "lon": "-8.864766655493694",
      "lat": "40.16256464485294"
    },
    {
      "id": "pt.ine.add.PTCONT.1200003",
      "street": "R ROGERIO REYNAUD",
      "house": "25",
      "postcode": "3080-251",
      "city": "FIGUEIRA DA FOZ",
      "lon": "-8.864766655493694",
      "lat": "40.16256464485294"
    },
    {
      "id": "pt.ine.add.PTCONT.1200004",
      "street": "R ROGERIO REYNAUD",
      "house": "25",
      "postcode": "3080-251",
      "city": "FIGUEIRA DA FOZ",
      "lon": "-8.864766655493694",
      "lat": "40.16256464485294"
    },
    {
      "id": "pt.ine.add.PTCONT.1200005",
      "street": "R ROGERIO REYNAUD",
      "house": "25",
      "postcode": "3080-251",
      "city": "FIGUEIRA DA FOZ",
      "lon": "-8.864766655493694",
      "lat": "40.16256464485294"
    },
    {
      "id": "pt.ine.add.PTCONT.1200006",
      "street": "R ROGERIO REYNAUD",
      "house": "25",
      "postcode": "3080-251",
      "city": "FIGUEIRA DA FOZ",
      "lon": "-8.864766655493694",
      "lat": "40.16256464485294"
    },
    {
      "id": "pt.ine.add.PTCONT.1200007",
      "street": "R ROGERIO REYNAUD",
      "house": "25",
      "postcode": "3080-251",
      "city": "FIGUEIRA DA FOZ",
      "lon": "-8.864766655493694",
      "lat": "40.16256464485294"
    },
    {
      "id": "pt.ine.add.PTCONT.1200008",
      "street": "R ROGERIO REYNAUD",
      "house": "25",
      "postcode": "3080-251",
      "city": "FIGUEIRA DA FOZ",
      "lon": "-8.864766655493694",
      "lat": "40.16256464485294"
    },
    {
      "id": "pt.ine.add.PTCONT.1200009",
      "street": "R ROGERIO REYNAUD",
      "house": "25",
      "postcode": "3080-251",
      "city": "FIGUEIRA DA FOZ",
      "lon": "-8.864766655493694",
      "lat": "40.16256464485294"
    },
    {
      "id": "pt.ine.add.PTCONT.1200010",
      "street": "R ROGERIO REYNAUD",
      "house": "25",
      "postcode": "3080-251",
      "city": "FIGUEIRA DA FOZ",
      "lon": "-8.864766655493694",
      "lat": "40.16256464485294"
    },
    {
      "id": "pt.ine.add.PTCONT.1200011",
      "street": "R ROGERIO REYNAUD",
      "house": "25",
      "postcode": "3080-251",
      "city": "FIGUEIRA DA FOZ",
      "lon": "-8.864766655493694",
      "lat": "40.16256464485294"
    },
    {
      "id": "pt.ine.add.PTCONT.1200012",
      "street": "R ROGERIO REYNAUD",
      "house": "25",
      "postcode": "3080-251",
      "city": "FIGUEIRA DA FOZ",
      "lon": "-8.864766655493694",
      "lat": "40.16256464485294"
    },
    {
      "id": "pt.ine.add.PTCONT.1200015",
      "street": "R ROGERIO REYNAUD",
      "house": "25",
      "postcode": "3080-251",
      "city": "FIGUEIRA DA FOZ",
      "lon": "-8.864766655493694",
      "lat": "40.16256464485294"
    },
    {
      "id": "pt.ine.add.PTCONT.1200016",
      "street": "R ROGERIO REYNAUD",
      "house": "25",
      "postcode": "3080-251",
      "city": "FIGUEIRA DA FOZ",
      "lon": "-8.864766655493694",
      "lat": "40.16256464485294"
    },
    {
      "id": "pt.ine.add.PTCONT.1200017",
      "street": "R ROGERIO REYNAUD",
      "house": "25",
      "postcode": "3080-251",
      "city": "FIGUEIRA DA FOZ",
      "lon": "-8.864766655493694",
      "lat": "40.16256464485294"
    },
    {
      "id": "pt.ine.add.PTCONT.1260698",
      "street": "R CIDADE DA PRAIA",
      "house": "41",
      "postcode": "3080-347",
      "city": "FIGUEIRA DA FOZ",
      "lon": "-8.864328121716625",
      "lat": "40.1621711590996"
    },
    {
      "id": "pt.ine.add.PTCONT.1265534",
      "street": "R AFONSO IV",
      "house": "45",
      "postcode": "3080-328",
      "city": "FIGUEIRA DA FOZ",
      "lon": "-8.867512422236672",
      "lat": "40.16247521459825"
    },
    {
      "id": "pt.ine.add.PTCONT.1267381",
      "street": "R CIUDAD RODRIGO",
      "house": "35",
      "postcode": "3080-221",
      "city": "FIGUEIRA DA FOZ",
      "lon": "-8.864430955204188",
      "lat": "40.16190934079654"
    },
    {
      "id": "pt.ine.add.PTCONT.1269376",
      "street": "R AFONSO IV",
      "house": "25",
      "postcode": "3080-328",
      "city": "FIGUEIRA DA FOZ",
      "lon": "-8.868280878766722",
      "lat": "40.163177947470736"
    },
    {
      "id": "pt.ine.add.PTCONT.1269377",
      "street": "R AFONSO IV",
      "house": "25",
      "postcode": "3080-328",
      "city": "FIGUEIRA DA FOZ",
      "lon": "-8.868280878766722",
      "lat": "40.163177947470736"
    },
    {
      "id": "pt.ine.add.PTCONT.1269378",
      "street": "R AFONSO IV",
      "house": "25",
      "postcode": "3080-328",
      "city": "FIGUEIRA DA FOZ",
      "lon": "-8.868280878766722",
      "lat": "40.163177947470736"
    },
    {
      "id": "pt.ine.add.PTCONT.1269379",
      "street": "R AFONSO IV",
      "house": "25",
      "postcode": "3080-328",
      "city": "FIGUEIRA DA FOZ",
      "lon": "-8.868280878766722",
      "lat": "40.163177947470736"
    },
    {
      "id": "pt.ine.add.PTCONT.1275381",
      "street": "R ROGERIO REYNAUD",
      "house": "23",
      "postcode": "3080-251",
      "city": "FIGUEIRA DA FOZ",
      "lon": "-8.864544225354999",
      "lat": "40.162620085149854"
    },
    {
      "id": "pt.ine.add.PTCONT.1275382",
      "street": "R ROGERIO REYNAUD",
      "house": "23",
      "postcode": "3080-251",
      "city": "FIGUEIRA DA FOZ",
      "lon": "-8.864544225354999",
      "lat": "40.162620085149854"
    },
    {
      "id": "pt.ine.add.PTCONT.1275383",
      "street": "R ROGERIO REYNAUD",
      "house": "23",
      "postcode": "3080-251",
      "city": "FIGUEIRA DA FOZ",
      "lon": "-8.864544225354999",
      "lat": "40.162620085149854"
    },
    {
      "id": "pt.ine.add.PTCONT.1275384",
      "street": "R ROGERIO REYNAUD",
      "house": "23",
      "postcode": "3080-251",
      "city": "FIGUEIRA DA FOZ",
      "lon": "-8.864544225354999",
      "lat": "40.162620085149854"
    },
    {
      "id": "pt.ine.add.PTCONT.1275385",
      "street": "R ROGERIO REYNAUD",
      "house": "23",
      "postcode": "3080-251",
      "city": "FIGUEIRA DA FOZ",
      "lon": "-8.864544225354999",
      "lat": "40.162620085149854"
    },
    {
      "id": "pt.ine.add.PTCONT.1275386",
      "street": "R ROGERIO REYNAUD",
      "house": "23",
      "postcode": "3080-251",
      "city": "FIGUEIRA DA FOZ",
      "lon": "-8.864544225354999",
      "lat": "40.162620085149854"
    },
    {
      "id": "pt.ine.add.PTCONT.1275387",
      "street": "R ROGERIO REYNAUD",
      "house": "23",
      "postcode": "3080-251",
      "city": "FIGUEIRA DA FOZ",
      "lon": "-8.864544225354999",
      "lat": "40.162620085149854"
    },
    {
      "id": "pt.ine.add.PTCONT.1275388",
      "street": "R ROGERIO REYNAUD",
      "house": "23",
      "postcode": "3080-251",
      "city": "FIGUEIRA DA FOZ",
      "lon": "-8.864544225354999",
      "lat": "40.162620085149854"
    },
    {
      "id": "pt.ine.add.PTCONT.1275389",
      "street": "R ROGERIO REYNAUD",
      "house": "23",
      "postcode": "3080-251",
      "city": "FIGUEIRA DA FOZ",
      "lon": "-8.864544225354999",
      "lat": "40.162620085149854"
    },
    {
      "id": "pt.ine.add.PTCONT.1275390",
      "street": "R ROGERIO REYNAUD",
      "house": "23",
      "postcode": "3080-251",
      "city": "FIGUEIRA DA FOZ",
      "lon": "-8.864544225354999",
      "lat": "40.162620085149854"
    },
    {
      "id": "pt.ine.add.PTCONT.1276312",
      "street": "R ROGERIO REYNAUD",
      "house": "23",
      "postcode": "3080-251",
      "city": "FIGUEIRA DA FOZ",
      "lon": "-8.864544225354999",
      "lat": "40.162620085149854"
    },
    {
      "id": "pt.ine.add.PTCONT.1276483",
      "street": "R ROGERIO REYNAUD",
      "house": "23",
      "postcode": "3080-251",
      "city": "FIGUEIRA DA FOZ",
      "lon": "-8.864544225354999",
      "lat": "40.162620085149854"
    },
    {
      "id": "pt.ine.add.PTCONT.1281501",
      "street": "R AFONSO IV",
      "house": "47",
      "postcode": "3080-328",
      "city": "FIGUEIRA DA FOZ",
      "lon": "-8.867428320300426",
      "lat": "40.162295631625504"
    },
    {
      "id": "pt.ine.add.PTCONT.1281502",
      "street": "R AFONSO IV",
      "house": "47",
      "postcode": "3080-328",
      "city": "FIGUEIRA DA FOZ",
      "lon": "-8.867428320300426",
      "lat": "40.162295631625504"
    },
    {
      "id": "pt.ine.add.PTCONT.1287295",
      "street": "R CIUDAD RODRIGO",
      "house": "45",
      "postcode": "3080-221",
      "city": "FIGUEIRA DA FOZ",
      "lon": "-8.864317157325472",
      "lat": "40.162243274913116"
    },
    {
      "id": "pt.ine.add.PTCONT.1297175",
      "street": "R CIUDAD RODRIGO",
      "house": "49",
      "postcode": "3080-221",
      "city": "FIGUEIRA DA FOZ",
      "lon": "-8.864272816494678",
      "lat": "40.16248671209692"
    },
    {
      "id": "pt.ine.add.PTCONT.1311863",
      "street": "R AFONSO IV",
      "house": "21",
      "postcode": "3080-328",
      "city": "FIGUEIRA DA FOZ",
      "lon": "-8.8684994734784",
      "lat": "40.16311256572964"
    },
    {
      "id": "pt.ine.add.PTCONT.1311866",
      "street": "R AFONSO IV",
      "house": "21",
      "postcode": "3080-328",
      "city": "FIGUEIRA DA FOZ",
      "lon": "-8.8684994734784",
      "lat": "40.16311256572964"
    },
    {
      "id": "pt.ine.add.PTCONT.1313878",
      "street": "R CIUDAD RODRIGO",
      "house": "33",
      "postcode": "3080-221",
      "city": "FIGUEIRA DA FOZ",
      "lon": "-8.864523983494111",
      "lat": "40.1618277007694"
    },
    {
      "id": "pt.ine.add.PTCONT.1323942",
      "street": "R CORDOEIROS",
      "house": "26",
      "postcode": "3080-324",
      "city": "FIGUEIRA DA FOZ",
      "lon": "-8.867911099574671",
      "lat": "40.16333448164801"
    },
    {
      "id": "pt.ine.add.PTCONT.1331118",
      "street": "R AFONSO IV",
      "house": "35",
      "postcode": "3080-328",
      "city": "FIGUEIRA DA FOZ",
      "lon": "-8.867809018326149",
      "lat": "40.163037081891964"
    },
    {
      "id": "pt.ine.add.PTCONT.1336589",
      "street": "R CIUDAD RODRIGO",
      "house": "31",
      "postcode": "3080-221",
      "city": "FIGUEIRA DA FOZ",
      "lon": "-8.864558422065429",
      "lat": "40.16175543663841"
    },
    {
      "id": "pt.ine.add.PTCONT.1336590",
      "street": "R CIDADE DA PRAIA",
      "house": "12",
      "postcode": "3080-347",
      "city": "FIGUEIRA DA FOZ",
      "lon": "-8.865159051923364",
      "lat": "40.1619407629089"
    },
    {
      "id": "pt.ine.add.PTCONT.1336591",
      "street": "R CIDADE DA PRAIA",
      "house": "12",
      "postcode": "3080-347",
      "city": "FIGUEIRA DA FOZ",
      "lon": "-8.865159051923364",
      "lat": "40.1619407629089"
    },
    {
      "id": "pt.ine.add.PTCONT.1336592",
      "street": "R CIDADE DA PRAIA",
      "house": "12",
      "postcode": "3080-347",
      "city": "FIGUEIRA DA FOZ",
      "lon": "-8.865159051923364",
      "lat": "40.1619407629089"
    },
    {
      "id": "pt.ine.add.PTCONT.1336593",
      "street": "R CIDADE DA PRAIA",
      "house": "12",
      "postcode": "3080-347",
      "city": "FIGUEIRA DA FOZ",
      "lon": "-8.865159051923364",
      "lat": "40.1619407629089"
    },
    {
      "id": "pt.ine.add.PTCONT.1336594",
      "street": "R CIDADE DA PRAIA",
      "house": "12",
      "postcode": "3080-347",
      "city": "FIGUEIRA DA FOZ",
      "lon": "-8.865159051923364",
      "lat": "40.1619407629089"
    },
    {
      "id": "pt.ine.add.PTCONT.1336595",
      "street": "R CIDADE DA PRAIA",
      "house": "12",
      "postcode": "3080-347",
      "city": "FIGUEIRA DA FOZ",
      "lon": "-8.865159051923364",
      "lat": "40.1619407629089"
    },
    {
      "id": "pt.ine.add.PTCONT.1336596",
      "street": "R CIDADE DA PRAIA",
      "house": "12",
      "postcode": "3080-347",
      "city": "FIGUEIRA DA FOZ",
      "lon": "-8.865159051923364",
      "lat": "40.1619407629089"
    },
    {
      "id": "pt.ine.add.PTCONT.1336597",
      "street": "R CIDADE DA PRAIA",
      "house": "12",
      "postcode": "3080-347",
      "city": "FIGUEIRA DA FOZ",
      "lon": "-8.865159051923364",
      "lat": "40.1619407629089"
    },
    {
      "id": "pt.ine.add.PTCONT.1336598",
      "street": "R CIDADE DA PRAIA",
      "house": "12",
      "postcode": "3080-347",
      "city": "FIGUEIRA DA FOZ",
      "lon": "-8.865159051923364",
      "lat": "40.1619407629089"
    },
    {
      "id": "pt.ine.add.PTCONT.1336599",
      "street": "R CIDADE DA PRAIA",
      "house": "12",
      "postcode": "3080-347",
      "city": "FIGUEIRA DA FOZ",
      "lon": "-8.865159051923364",
      "lat": "40.1619407629089"
    },
    {
      "id": "pt.ine.add.PTCONT.1336600",
      "street": "R CIDADE DA PRAIA",
      "house": "12",
      "postcode": "3080-347",
      "city": "FIGUEIRA DA FOZ",
      "lon": "-8.865159051923364",
      "lat": "40.1619407629089"
    },
    {
      "id": "pt.ine.add.PTCONT.1336601",
      "street": "R CIDADE DA PRAIA",
      "house": "12",
      "postcode": "3080-347",
      "city": "FIGUEIRA DA FOZ",
      "lon": "-8.865159051923364",
      "lat": "40.1619407629089"
    },
    {
      "id": "pt.ine.add.PTCONT.1337023",
      "street": "R CIDADE DA PRAIA",
      "house": "12",
      "postcode": "3080-347",
      "city": "FIGUEIRA DA FOZ",
      "lon": "-8.865159051923364",
      "lat": "40.1619407629089"
    },
    {
      "id": "pt.ine.add.PTCONT.1337113",
      "street": "R CIDADE DA PRAIA",
      "house": "12",
      "postcode": "3080-347",
      "city": "FIGUEIRA DA FOZ",
      "lon": "-8.865159051923364",
      "lat": "40.1619407629089"
    },
    {
      "id": "pt.ine.add.PTCONT.1337148",
      "street": "R CIDADE DA PRAIA",
      "house": "12",
      "postcode": "3080-347",
      "city": "FIGUEIRA DA FOZ",
      "lon": "-8.865159051923364",
      "lat": "40.1619407629089"
    },
    {
      "id": "pt.ine.add.PTCONT.1337269",
      "street": "R CIDADE DA PRAIA",
      "house": "12",
      "postcode": "3080-347",
      "city": "FIGUEIRA DA FOZ",
      "lon": "-8.865159051923364",
      "lat": "40.1619407629089"
    },
    {
      "id": "pt.ine.add.PTCONT.1338229",
      "street": "R AFONSO IV",
      "house": "17",
      "postcode": "3080-328",
      "city": "FIGUEIRA DA FOZ",
      "lon": "-8.868714397052026",
      "lat": "40.16304053448938"
    },
    {
      "id": "pt.ine.add.PTCONT.1338230",
      "street": "R AFONSO IV",
      "house": "17",
      "postcode": "3080-328",
      "city": "FIGUEIRA DA FOZ",
      "lon": "-8.868714397052026",
      "lat": "40.16304053448938"
    },
    {
      "id": "pt.ine.add.PTCONT.1340391",
      "street": "R AFONSO IV",
      "house": "27",
      "postcode": "3080-328",
      "city": "FIGUEIRA DA FOZ",
      "lon": "-8.86817855620917",
      "lat": "40.163203843144366"
    },
    {
      "id": "pt.ine.add.PTCONT.1341677",
      "street": "R AFONSO IV",
      "house": "27",
      "postcode": "3080-328",
      "city": "FIGUEIRA DA FOZ",
      "lon": "-8.86817855620917",
      "lat": "40.163203843144366"
    },
    {
      "id": "pt.ine.add.PTCONT.1347522",
      "street": "R CORDOEIROS",
      "house": "26",
      "postcode": "3080-324",
      "city": "FIGUEIRA DA FOZ",
      "lon": "-8.867844046756746",
      "lat": "40.163457176464924"
    },
    {
      "id": "pt.ine.add.PTCONT.1361774",
      "street": "R ROGERIO REYNAUD",
      "house": "25",
      "postcode": "3080-251",
      "city": "FIGUEIRA DA FOZ",
      "lon": "-8.864766655493694",
      "lat": "40.16256464485294"
    }
  ]
}