{
  "data": {
    "distrito": "Lisboa",
    "concelho": "Alenquer",
    "freguesia": "Ota",
    "OBJECTID": 163,
    "BGRI2021": "11010900116",
    "DT21": "11",
    "DTMN21": "1101",
    "DTMNFR21": "110109",
    "DTMNFRSEC21": "110109001",
    "SECNUM21": "001",
    "SSNUM21": "16",
    "SECSSNUM21": "00116",
    "OBJECTID_1": 99321,
    "DT": "11",
    "CC": "01",
    "fr": "09",
    "SEC": "001",
    "SS": "16"
  },
  "addresses": [
    {
      "id": "pt.ine.add.PTCONT.2341606",
      "street": "SEM SEDIGNACAO",
      "house": "1",
      "postcode": "2580-243",
      "city": "OTA",
      "lon": "-8.9548711382393",
      "lat": "39.114485078903435"
    },
    {
      "id": "pt.ine.add.PTCONT.2341607",
      "street": "SEM SEDIGNACAO",
      "house": "4",
      "postcode": "2580-241",
      "city": "OTA",
      "lon": "-8.953268144098894",
      "lat": "39.11683828763244"
    },
    {
      "id": "pt.ine.add.PTCONT.2687072",
      "street": "SEM SEDIGNACAO",
      "house": "2",
      "postcode": "2580-241",
      "city": "OTA",
      "lon": "-8.95452947025936",
      "lat": "39.115928668271735"
    },
    {
      "id": "pt.ine.add.PTCONT.2734218",
      "street": "SEM SEDIGNACAO",
      "house": "3",
      "postcode": "2580-241",
      "city": "OTA",
      "lon": "-8.953854132249695",
      "lat": "39.11651890494013"
    },
    {
      "id": "pt.ine.add.PTCONT.2764949",
      "street": "",
      "house": "",
      "postcode": "2580-243",
      "city": "OTA",
      "lon": "-8.933743617647425",
      "lat": "39.12849446303775"
    },
    {
      "id": "pt.ine.add.PTCONT.2890399",
      "street": "ESTR TRANSFERENCIA RSV ATERRO SANITARIO",
      "house": "",
      "postcode": "2580-243",
      "city": "OTA",
      "lon": "-8.951902541507406",
      "lat": "39.128719605227346"
    },
    {
      "id": "pt.ine.add.PTCONT.3092694",
      "street": "SEM SEDIGNACAO",
      "house": "5",
      "postcode": "2580-241",
      "city": "OTA",
      "lon": "-8.95300339927884",
      "lat": "39.11793905044926"
    },
    {
      "id": "pt.ine.add.PTCONT.3358171",
      "street": "SEM SEDIGNACAO",
      "house": "",
      "postcode": "2580-243",
      "city": "OTA",
      "lon": "-8.953003529435843",
      "lat": "39.11894787598421"
    }
  ]
}