{
  "data": {
    "distrito": "Coimbra",
    "concelho": "Góis",
    "freguesia": "União das freguesias de Cadafaz e Colmeal",
    "OBJECTID": 202,
    "BGRI2021": "06060600124",
    "DT21": "06",
    "DTMN21": "0606",
    "DTMNFR21": "060606",
    "DTMNFRSEC21": "060606001",
    "SECNUM21": "001",
    "SSNUM21": "24",
    "SECSSNUM21": "00124",
    "OBJECTID_1": 52121,
    "DT": "06",
    "CC": "06",
    "fr": "06",
    "SEC": "001",
    "SS": "24"
  },
  "addresses": [
    {
      "id": "pt.ine.add.PTCONT.1101611",
      "street": "R ALZIRA DAS NEVES BANDEIRA CONCHER",
      "house": "",
      "postcode": "3330-013",
      "city": "CADAFAZ GOI",
      "lon": "-8.070527263084129",
      "lat": "40.14139892059929"
    },
    {
      "id": "pt.ine.add.PTCONT.1179387",
      "street": "",
      "house": "",
      "postcode": "3330-013",
      "city": "CADAFAZ GOI",
      "lon": "-8.07058401291642",
      "lat": "40.14349734365719"
    },
    {
      "id": "pt.ine.add.PTCONT.1186775",
      "street": "BC JOSE MARTINS ZE DA RITA",
      "house": "",
      "postcode": "3330-013",
      "city": "CADAFAZ GOI",
      "lon": "-8.07015191134365",
      "lat": "40.141227603570925"
    },
    {
      "id": "pt.ine.add.PTCONT.1197687",
      "street": "R CIMA",
      "house": "",
      "postcode": "3330-013",
      "city": "CADAFAZ GOI",
      "lon": "-8.070222194683867",
      "lat": "40.141362731425545"
    },
    {
      "id": "pt.ine.add.PTCONT.1224181",
      "street": "R ALZIRA DAS NEVES BARDEIRA",
      "house": "",
      "postcode": "3330-013",
      "city": "CADAFAZ GOI",
      "lon": "-8.070327906195233",
      "lat": "40.141254717050096"
    },
    {
      "id": "pt.ine.add.PTCONT.1236973",
      "street": "R CIMA",
      "house": "",
      "postcode": "3330-013",
      "city": "CADAFAZ GOI",
      "lon": "-8.070198941303612",
      "lat": "40.14112856337166"
    },
    {
      "id": "pt.ine.add.PTCONT.1237209",
      "street": "R CIMA",
      "house": "",
      "postcode": "3330-013",
      "city": "CADAFAZ GOI",
      "lon": "-8.07015183653168",
      "lat": "40.14130865733053"
    },
    {
      "id": "pt.ine.add.PTCONT.1244540",
      "street": "AV CARLOS VIDAL",
      "house": "",
      "postcode": "3330-013",
      "city": "CADAFAZ GOI",
      "lon": "-8.069823558453209",
      "lat": "40.140993269167645"
    },
    {
      "id": "pt.ine.add.PTCONT.1268428",
      "street": "BC LAJIEIRA",
      "house": "",
      "postcode": "3330-013",
      "city": "CADAFAZ GOI",
      "lon": "-8.070585986002483",
      "lat": "40.14134491645279"
    },
    {
      "id": "pt.ine.add.PTCONT.1271476",
      "street": "",
      "house": "",
      "postcode": "3330-013",
      "city": "CADAFAZ GOI",
      "lon": "-8.070595599373606",
      "lat": "40.14365945744837"
    },
    {
      "id": "pt.ine.add.PTCONT.1283745",
      "street": "R CIMA",
      "house": "",
      "postcode": "3330-013",
      "city": "CADAFAZ GOI",
      "lon": "-8.07030430421282",
      "lat": "40.141398799895946"
    },
    {
      "id": "pt.ine.add.PTCONT.1288459",
      "street": "R CIMA",
      "house": "",
      "postcode": "3330-013",
      "city": "CADAFAZ GOI",
      "lon": "-8.070398156792262",
      "lat": "40.14142586869004"
    },
    {
      "id": "pt.ine.add.PTCONT.1294134",
      "street": "AV CARLOS VIDAL",
      "house": "",
      "postcode": "3330-013",
      "city": "CADAFAZ GOI",
      "lon": "-8.070140318032752",
      "lat": "40.14107449564178"
    },
    {
      "id": "pt.ine.add.PTCONT.1305917",
      "street": "BC JOSE MARTINS ZE DA RITA",
      "house": "",
      "postcode": "3330-013",
      "city": "CADAFAZ GOI",
      "lon": "-8.070011062244843",
      "lat": "40.14126355082422"
    },
    {
      "id": "pt.ine.add.PTCONT.1342574",
      "street": "AV CARLOS VIDAL",
      "house": "",
      "postcode": "3330-013",
      "city": "CADAFAZ GOI",
      "lon": "-8.070668211122756",
      "lat": "40.141254901039204"
    },
    {
      "id": "pt.ine.add.PTCONT.1352826",
      "street": "BC JOSE MARTINS",
      "house": "",
      "postcode": "3330-013",
      "city": "CADAFAZ GOI",
      "lon": "-8.07001115388597",
      "lat": "40.14116448511737"
    },
    {
      "id": "pt.ine.add.PTCONT.1359885",
      "street": "BC JOSE MARTINS",
      "house": "",
      "postcode": "3330-013",
      "city": "CADAFAZ GOI",
      "lon": "-8.06991710157797",
      "lat": "40.141353559367616"
    }
  ]
}