{
  "data": {
    "distrito": "Lisboa",
    "concelho": "Lourinhã",
    "freguesia": "União das freguesias de Lourinhã e Atalaia",
    "OBJECTID": 252,
    "BGRI2021": "11081201216",
    "DT21": "11",
    "DTMN21": "1108",
    "DTMNFR21": "110812",
    "DTMNFRSEC21": "110812012",
    "SECNUM21": "012",
    "SSNUM21": "16",
    "SECSSNUM21": "01216",
    "OBJECTID_1": 107623,
    "DT": "11",
    "CC": "08",
    "fr": "12",
    "SEC": "012",
    "SS": "16"
  },
  "addresses": [
    {
      "id": "pt.ine.add.PTCONT.2378356",
      "street": "R ILDO HIRMOGENES DA SILVA MARQUES",
      "house": "",
      "postcode": "2530-320",
      "city": "LOURINHÃ",
      "lon": "-9.311986021628748",
      "lat": "39.252102165577405"
    },
    {
      "id": "pt.ine.add.PTCONT.2417627",
      "street": "R ILDO HIRMOGENES DA SILVA MARQUES",
      "house": "10",
      "postcode": "2530-320",
      "city": "LOURINHÃ",
      "lon": "-9.310551135639365",
      "lat": "39.25219774554123"
    },
    {
      "id": "pt.ine.add.PTCONT.2426469",
      "street": "R ILDO HIRMOGENES DA SILVA MARQUES",
      "house": "",
      "postcode": "2530-320",
      "city": "LOURINHÃ",
      "lon": "-9.311453598662764",
      "lat": "39.25420617981651"
    },
    {
      "id": "pt.ine.add.PTCONT.2442561",
      "street": "R ILDO HIRMOGENES DA SILVA MARQUES",
      "house": "14",
      "postcode": "2530-320",
      "city": "LOURINHÃ",
      "lon": "-9.310229382482662",
      "lat": "39.25235411702012"
    },
    {
      "id": "pt.ine.add.PTCONT.2500700",
      "street": "R ILDO HIRMOGENES DA SILVA MARQUES",
      "house": "35",
      "postcode": "2530-320",
      "city": "LOURINHÃ",
      "lon": "-9.312417999857223",
      "lat": "39.25437655650163"
    },
    {
      "id": "pt.ine.add.PTCONT.2516952",
      "street": "R ILDO HIRMOGENES DA SILVA MARQUES",
      "house": "",
      "postcode": "2530-320",
      "city": "LOURINHÃ",
      "lon": "-9.312562959192071",
      "lat": "39.253348293255044"
    },
    {
      "id": "pt.ine.add.PTCONT.2525518",
      "street": "R ILDO HIRMOGENES DA SILVA MARQUES",
      "house": "22",
      "postcode": "2530-320",
      "city": "LOURINHÃ",
      "lon": "-9.309455301915376",
      "lat": "39.2524790298721"
    },
    {
      "id": "pt.ine.add.PTCONT.2550382",
      "street": "R ANTÓNIO INÁCIO SALSINHA",
      "house": "14",
      "postcode": "2530-320",
      "city": "LOURINHÃ",
      "lon": "-9.30932714412678",
      "lat": "39.25312882685545"
    },
    {
      "id": "pt.ine.add.PTCONT.2601324",
      "street": "R ILDO HIRMOGENES DA SILVA MARQUES",
      "house": "8",
      "postcode": "2530-320",
      "city": "LOURINHÃ",
      "lon": "-9.310887031341908",
      "lat": "39.252194348770395"
    },
    {
      "id": "pt.ine.add.PTCONT.2684258",
      "street": "R ILDO HIRMOGENES DA SILVA MARQUES",
      "house": "12",
      "postcode": "2530-320",
      "city": "LOURINHÃ",
      "lon": "-9.310436966276518",
      "lat": "39.252297976629315"
    },
    {
      "id": "pt.ine.add.PTCONT.2847231",
      "street": "R ILDO HIRMOGENES DA SILVA MARQUES",
      "house": "",
      "postcode": "2530-320",
      "city": "LOURINHÃ",
      "lon": "-9.311118532816444",
      "lat": "39.252183000151966"
    },
    {
      "id": "pt.ine.add.PTCONT.2929253",
      "street": "R ILDO HIRMOGENES DA SILVA MARQUES",
      "house": "24",
      "postcode": "2530-320",
      "city": "LOURINHÃ",
      "lon": "-9.309189352033417",
      "lat": "39.25250873706154"
    },
    {
      "id": "pt.ine.add.PTCONT.3326201",
      "street": "R MONTE DA NOITE",
      "house": "",
      "postcode": "2530-933",
      "city": "LOURINHÃ",
      "lon": "-9.308831490143108",
      "lat": "39.25466501833353"
    }
  ]
}