{
  "data": {
    "distrito": "Santarém",
    "concelho": "Rio Maior",
    "freguesia": "Fráguas",
    "OBJECTID": 376,
    "BGRI2021": "14140500104",
    "DT21": "14",
    "DTMN21": "1414",
    "DTMNFR21": "141405",
    "DTMNFRSEC21": "141405001",
    "SECNUM21": "001",
    "SSNUM21": "04",
    "SECSSNUM21": "00104",
    "OBJECTID_1": 153062,
    "DT": "14",
    "CC": "14",
    "fr": "05",
    "SEC": "001",
    "SS": "04"
  },
  "addresses": [
    {
      "id": "pt.ine.add.PTCONT.4401007",
      "street": "R FONTENARIO",
      "house": "",
      "postcode": "2040-154",
      "city": "FRÁGUAS RMR",
      "lon": "-8.874629874119778",
      "lat": "39.361010600312575"
    },
    {
      "id": "pt.ine.add.PTCONT.4403026",
      "street": "R FONTENARIO",
      "house": "7",
      "postcode": "2040-154",
      "city": "FRÁGUAS RMR",
      "lon": "-8.87370104671403",
      "lat": "39.36205232504087"
    },
    {
      "id": "pt.ine.add.PTCONT.4428012",
      "street": "R CARDAL",
      "house": "112",
      "postcode": "2040-154",
      "city": "FRÁGUAS RMR",
      "lon": "-8.873339856792178",
      "lat": "39.36191051041916"
    },
    {
      "id": "pt.ine.add.PTCONT.4450407",
      "street": "R PRINCIPAL",
      "house": "114",
      "postcode": "2040-154",
      "city": "FRÁGUAS RMR",
      "lon": "-8.873154886986011",
      "lat": "39.36197473615024"
    },
    {
      "id": "pt.ine.add.PTCONT.4483833",
      "street": "R FONTENARIO",
      "house": "1",
      "postcode": "2040-154",
      "city": "FRÁGUAS RMR",
      "lon": "-8.873574468428176",
      "lat": "39.36215220798712"
    },
    {
      "id": "pt.ine.add.PTCONT.4487912",
      "street": "R FONTENARIO",
      "house": "",
      "postcode": "2040-154",
      "city": "FRÁGUAS RMR",
      "lon": "-8.87396542378498",
      "lat": "39.36181645913019"
    },
    {
      "id": "pt.ine.add.PTCONT.4494568",
      "street": "R FONTENARIO",
      "house": "31",
      "postcode": "2040-154",
      "city": "FRÁGUAS RMR",
      "lon": "-8.874249576655293",
      "lat": "39.36125621311301"
    },
    {
      "id": "pt.ine.add.PTCONT.4512197",
      "street": "R PRINCIPAL",
      "house": "130",
      "postcode": "2040-154",
      "city": "FRÁGUAS RMR",
      "lon": "-8.872801215686918",
      "lat": "39.36144556916595"
    },
    {
      "id": "pt.ine.add.PTCONT.4515080",
      "street": "R FONTENARIO",
      "house": "19",
      "postcode": "2040-154",
      "city": "FRÁGUAS RMR",
      "lon": "-8.874102080384187",
      "lat": "39.361572398896286"
    },
    {
      "id": "pt.ine.add.PTCONT.4519029",
      "street": "R CARDAL",
      "house": "",
      "postcode": "2040-154",
      "city": "FRÁGUAS RMR",
      "lon": "-8.873549932579559",
      "lat": "39.36202626550964"
    },
    {
      "id": "pt.ine.add.PTCONT.4555322",
      "street": "R PRINCIPAL",
      "house": "112",
      "postcode": "2040-154",
      "city": "FRÁGUAS RMR",
      "lon": "-8.873341282858881",
      "lat": "39.36204560698953"
    },
    {
      "id": "pt.ine.add.PTCONT.4562293",
      "street": "R CARDAL",
      "house": "13",
      "postcode": "2040-154",
      "city": "FRÁGUAS RMR",
      "lon": "-8.873711507505453",
      "lat": "39.36194417395662"
    },
    {
      "id": "pt.ine.add.PTCONT.4587243",
      "street": "R ESCOLA",
      "house": "87",
      "postcode": "2040-154",
      "city": "FRÁGUAS RMR",
      "lon": "-8.87326711150705",
      "lat": "39.36051488130936"
    },
    {
      "id": "pt.ine.add.PTCONT.4589361",
      "street": "R FONTENARIO",
      "house": "27",
      "postcode": "2040-154",
      "city": "FRÁGUAS RMR",
      "lon": "-8.874482284854658",
      "lat": "39.36131778013325"
    },
    {
      "id": "pt.ine.add.PTCONT.4628554",
      "street": "LG MOLEIRO",
      "house": "33",
      "postcode": "2040-154",
      "city": "FRÁGUAS RMR",
      "lon": "-8.87459678211747",
      "lat": "39.361172937953974"
    },
    {
      "id": "pt.ine.add.PTCONT.4639041",
      "street": "R ESCOLA",
      "house": "56",
      "postcode": "2040-154",
      "city": "FRÁGUAS RMR",
      "lon": "-8.874543993939623",
      "lat": "39.360569802345935"
    },
    {
      "id": "pt.ine.add.PTCONT.4655955",
      "street": "ESTR PENEGRAL",
      "house": "",
      "postcode": "2040-154",
      "city": "FRÁGUAS RMR",
      "lon": "-8.872041052944233",
      "lat": "39.35867622824981"
    }
  ]
}