{
  "data": {
    "distrito": "Braga",
    "concelho": "Esposende",
    "freguesia": "União das freguesias de Apúlia e Fão",
    "OBJECTID": 32,
    "BGRI2021": "03061600607",
    "DT21": "03",
    "DTMN21": "0306",
    "DTMNFR21": "030616",
    "DTMNFRSEC21": "030616006",
    "SECNUM21": "006",
    "SSNUM21": "07",
    "SECSSNUM21": "00607",
    "OBJECTID_1": 24863,
    "DT": "03",
    "CC": "06",
    "fr": "16",
    "SEC": "006",
    "SS": "07"
  },
  "addresses": [
    {
      "id": "pt.ine.add.PTCONT.501290",
      "street": "R RODAS",
      "house": "10",
      "postcode": "4740-331",
      "city": "FÃO",
      "lon": "-8.778862828545135",
      "lat": "41.512256623534036"
    },
    {
      "id": "pt.ine.add.PTCONT.507101",
      "street": "R RODAS ALDEAMENTO OFIR MAR",
      "house": "",
      "postcode": "4740-331",
      "city": "FÃO",
      "lon": "-8.781394037609429",
      "lat": "41.51382704479329"
    },
    {
      "id": "pt.ine.add.PTCONT.519275",
      "street": "R RODAS ALDEAMENTO OFIR MAR",
      "house": "13",
      "postcode": "4740-331",
      "city": "FÃO",
      "lon": "-8.781426289354496",
      "lat": "41.51345770887997"
    },
    {
      "id": "pt.ine.add.PTCONT.540153",
      "street": "R RODAS",
      "house": "9",
      "postcode": "4740-331",
      "city": "FÃO",
      "lon": "-8.780655998517364",
      "lat": "41.51309289449117"
    },
    {
      "id": "pt.ine.add.PTCONT.540184",
      "street": "R RODAS ALDEAMENTO OFIR MAR",
      "house": "6",
      "postcode": "4740-331",
      "city": "FÃO",
      "lon": "-8.781153607015785",
      "lat": "41.512540862243256"
    },
    {
      "id": "pt.ine.add.PTCONT.565282",
      "street": "R RODAS ALDEAMENTO OFIR MAR",
      "house": "14",
      "postcode": "4740-331",
      "city": "FÃO",
      "lon": "-8.781196276715805",
      "lat": "41.513215903791576"
    },
    {
      "id": "pt.ine.add.PTCONT.567611",
      "street": "R RODAS",
      "house": "19",
      "postcode": "4740-331",
      "city": "FÃO",
      "lon": "-8.780483411685328",
      "lat": "41.51380516309672"
    },
    {
      "id": "pt.ine.add.PTCONT.567612",
      "street": "R RODAS",
      "house": "21",
      "postcode": "4740-331",
      "city": "FÃO",
      "lon": "-8.77990620891052",
      "lat": "41.51358331678711"
    },
    {
      "id": "pt.ine.add.PTCONT.592751",
      "street": "R RODAS ALDEAMENTO OFIR MAR",
      "house": "",
      "postcode": "4740-331",
      "city": "FÃO",
      "lon": "-8.781852384362388",
      "lat": "41.512942091804504"
    },
    {
      "id": "pt.ine.add.PTCONT.618910",
      "street": "R RODAS",
      "house": "45",
      "postcode": "4740-331",
      "city": "FÃO",
      "lon": "-8.778478098713222",
      "lat": "41.51211472293887"
    },
    {
      "id": "pt.ine.add.PTCONT.625217",
      "street": "R RODAS",
      "house": "20",
      "postcode": "4740-331",
      "city": "FÃO",
      "lon": "-8.780253042582773",
      "lat": "41.51352734310269"
    },
    {
      "id": "pt.ine.add.PTCONT.633243",
      "street": "R RODAS",
      "house": "38",
      "postcode": "4740-331",
      "city": "FÃO",
      "lon": "-8.779115711217994",
      "lat": "41.512390259754284"
    },
    {
      "id": "pt.ine.add.PTCONT.644137",
      "street": "R RODAS ALDEAMENTO OFIR MAR",
      "house": "",
      "postcode": "4740-331",
      "city": "FÃO",
      "lon": "-8.781385593340916",
      "lat": "41.512980739041005"
    },
    {
      "id": "pt.ine.add.PTCONT.649670",
      "street": "R RODAS ALDEAMENTO OFIR HAR",
      "house": "55",
      "postcode": "4740-331",
      "city": "FÃO",
      "lon": "-8.781883151928975",
      "lat": "41.514823703708814"
    },
    {
      "id": "pt.ine.add.PTCONT.658269",
      "street": "R RODAS ALDEAMENTO OFIR MAR",
      "house": "",
      "postcode": "4740-331",
      "city": "FÃO",
      "lon": "-8.781941716250317",
      "lat": "41.51349081716643"
    },
    {
      "id": "pt.ine.add.PTCONT.671411",
      "street": "R RODAS",
      "house": "22",
      "postcode": "4740-331",
      "city": "FÃO",
      "lon": "-8.779748788031663",
      "lat": "41.51341313059461"
    },
    {
      "id": "pt.ine.add.PTCONT.674871",
      "street": "R RODAS",
      "house": "7",
      "postcode": "4740-331",
      "city": "FÃO",
      "lon": "-8.780578207621037",
      "lat": "41.51249908429811"
    },
    {
      "id": "pt.ine.add.PTCONT.679069",
      "street": "R RODAS ALDEAMENTO OFIR MAR",
      "house": "57",
      "postcode": "4740-331",
      "city": "FÃO",
      "lon": "-8.782074988747382",
      "lat": "41.51484062886051"
    },
    {
      "id": "pt.ine.add.PTCONT.693898",
      "street": "R RODAS ALDEAMENTO OFIR MAR",
      "house": "",
      "postcode": "4740-331",
      "city": "FÃO",
      "lon": "-8.781824809697698",
      "lat": "41.513779596938875"
    },
    {
      "id": "pt.ine.add.PTCONT.694266",
      "street": "R RODAS ALDEAMENTO OFIR MAR",
      "house": "52",
      "postcode": "4740-331",
      "city": "FÃO",
      "lon": "-8.781594318497804",
      "lat": "41.51469027637727"
    },
    {
      "id": "pt.ine.add.PTCONT.695766",
      "street": "R RODAS",
      "house": "37",
      "postcode": "4740-331",
      "city": "FÃO",
      "lon": "-8.779261149788223",
      "lat": "41.51256051417208"
    },
    {
      "id": "pt.ine.add.PTCONT.701853",
      "street": "R RODAS ALDE AMENTO OFIR MAR",
      "house": "56",
      "postcode": "4740-331",
      "city": "FÃO",
      "lon": "-8.781979070326187",
      "lat": "41.51483216632478"
    },
    {
      "id": "pt.ine.add.PTCONT.704598",
      "street": "R RODAS",
      "house": "46",
      "postcode": "4740-331",
      "city": "FÃO",
      "lon": "-8.777962148189381",
      "lat": "41.51202757946454"
    },
    {
      "id": "pt.ine.add.PTCONT.713780",
      "street": "R RODAS",
      "house": "34",
      "postcode": "4740-331",
      "city": "FÃO",
      "lon": "-8.779522633415121",
      "lat": "41.51355846211417"
    },
    {
      "id": "pt.ine.add.PTCONT.746129",
      "street": "R RODAS ALDEAMENTO OFIR MAR",
      "house": "",
      "postcode": "4740-331",
      "city": "FÃO",
      "lon": "-8.7811088371465",
      "lat": "41.512856246114396"
    },
    {
      "id": "pt.ine.add.PTCONT.746130",
      "street": "R RODAS ALDEAMENTO OFIR MAR",
      "house": "",
      "postcode": "4740-331",
      "city": "FÃO",
      "lon": "-8.781890746323594",
      "lat": "41.51318497690624"
    },
    {
      "id": "pt.ine.add.PTCONT.754332",
      "street": "R RODAS ALDEAMENTO OFIR MAR",
      "house": "54",
      "postcode": "4740-331",
      "city": "FÃO",
      "lon": "-8.781786784095422",
      "lat": "41.514770224763694"
    },
    {
      "id": "pt.ine.add.PTCONT.815971",
      "street": "R RODAS ALDEAMENTO OFIR MAR",
      "house": "",
      "postcode": "4740-331",
      "city": "FÃO",
      "lon": "-8.781561672465093",
      "lat": "41.51261959596863"
    },
    {
      "id": "pt.ine.add.PTCONT.815982",
      "street": "R RODAS",
      "house": "10",
      "postcode": "4740-331",
      "city": "FÃO",
      "lon": "-8.780731637092838",
      "lat": "41.51347062647429"
    },
    {
      "id": "pt.ine.add.PTCONT.825951",
      "street": "R RODAS ALDEAMENTO OFIR MAR",
      "house": "51",
      "postcode": "4740-331",
      "city": "FÃO",
      "lon": "-8.781521818296186",
      "lat": "41.51462765886507"
    },
    {
      "id": "pt.ine.add.PTCONT.825952",
      "street": "R RODAS",
      "house": "11",
      "postcode": "4740-331",
      "city": "FÃO",
      "lon": "-8.78090184690712",
      "lat": "41.51372177310851"
    },
    {
      "id": "pt.ine.add.PTCONT.825953",
      "street": "R RODAS",
      "house": "11",
      "postcode": "4740-331",
      "city": "FÃO",
      "lon": "-8.78090184690712",
      "lat": "41.51372177310851"
    },
    {
      "id": "pt.ine.add.PTCONT.836616",
      "street": "R RODAS",
      "house": "8",
      "postcode": "4740-331",
      "city": "FÃO",
      "lon": "-8.780617641225568",
      "lat": "41.512850008939985"
    },
    {
      "id": "pt.ine.add.PTCONT.848834",
      "street": "R RODAS ALDEAMENTO OFIR MAR",
      "house": "53",
      "postcode": "4740-331",
      "city": "FÃO",
      "lon": "-8.78170248484086",
      "lat": "41.51472568143168"
    }
  ]
}