{
  "data": {
    "ilha": "Ilha da Madeira (Madeira)",
    "concelho": "CÃ¢mara de Lobos",
    "freguesia": "Curral das Freiras",
    "OBJECTID": 131,
    "BGRI2021": "31020200106",
    "DT21": "31",
    "DTMN21": "3102",
    "DTMNFR21": "310202",
    "DTMNFRSEC21": "310202001",
    "SECNUM21": "001",
    "SSNUM21": "06",
    "SECSSNUM21": "00106",
    "OBJECTID_1": 203585,
    "DT": "31",
    "CC": "02",
    "fr": "02",
    "SEC": "001",
    "SS": "06",
    "BGRI2021_1": "31020200106"
  },
  "addresses": [
    {
      "id": "pt.ine.add.MAD.551",
      "street": "VR LOMBO FAIAS",
      "house": "",
      "postcode": "9030-341",
      "city": "CURRAL DAS FREIRAS",
      "lon": "-16.971085584805063",
      "lat": "32.73515344478363"
    },
    {
      "id": "pt.ine.add.MAD.552",
      "street": "VR LOMBO FAIAS",
      "house": "9",
      "postcode": "9030-341",
      "city": "CURRAL DAS FREIRAS",
      "lon": "-16.97079460626156",
      "lat": "32.73502274343763"
    },
    {
      "id": "pt.ine.add.MAD.553",
      "street": "VR LOMBO DAS FAIAS",
      "house": "",
      "postcode": "9030-341",
      "city": "CURRAL DAS FREIRAS",
      "lon": "-16.97129285531099",
      "lat": "32.7339056274887"
    },
    {
      "id": "pt.ine.add.MAD.554",
      "street": "VR LOMBO DAS FAIAS",
      "house": "15",
      "postcode": "9030-341",
      "city": "CURRAL DAS FREIRAS",
      "lon": "-16.971704482792838",
      "lat": "32.73370074398403"
    },
    {
      "id": "pt.ine.add.MAD.555",
      "street": "ESTR COLMEAL",
      "house": "",
      "postcode": "9030-325",
      "city": "CURRAL DAS FREIRAS",
      "lon": "-16.970983317845324",
      "lat": "32.73196249370031"
    },
    {
      "id": "pt.ine.add.MAD.556",
      "street": "ESTR COLMEAL",
      "house": "44",
      "postcode": "9030-325",
      "city": "CURRAL DAS FREIRAS",
      "lon": "-16.971501600456097",
      "lat": "32.73175593350188"
    },
    {
      "id": "pt.ine.add.MAD.557",
      "street": "ESTR COLMEAL",
      "house": "67",
      "postcode": "9030-325",
      "city": "CURRAL DAS FREIRAS",
      "lon": "-16.971667694810787",
      "lat": "32.731545894203244"
    },
    {
      "id": "pt.ine.add.MAD.558",
      "street": "ESTR COLMEAL",
      "house": "55",
      "postcode": "9030-325",
      "city": "CURRAL DAS FREIRAS",
      "lon": "-16.97130484272899",
      "lat": "32.731542583955004"
    },
    {
      "id": "pt.ine.add.MAD.559",
      "street": "VR POMAR",
      "house": "",
      "postcode": "9030-348",
      "city": "CURRAL DAS FREIRAS",
      "lon": "-16.97146918787278",
      "lat": "32.72979942185855"
    },
    {
      "id": "pt.ine.add.MAD.560",
      "street": "VR POMAR",
      "house": "21",
      "postcode": "9030-348",
      "city": "CURRAL DAS FREIRAS",
      "lon": "-16.97141298652934",
      "lat": "32.73063902955631"
    },
    {
      "id": "pt.ine.add.MAD.561",
      "street": "VR POMAR",
      "house": "13",
      "postcode": "9030-348",
      "city": "CURRAL DAS FREIRAS",
      "lon": "-16.971137504372862",
      "lat": "32.73121153041733"
    },
    {
      "id": "pt.ine.add.MAD.562",
      "street": "VR POMAR",
      "house": "11",
      "postcode": "9030-348",
      "city": "CURRAL DAS FREIRAS",
      "lon": "-16.971000430992593",
      "lat": "32.73128583461132"
    },
    {
      "id": "pt.ine.add.MAD.563",
      "street": "VR POMAR",
      "house": "9",
      "postcode": "9030-348",
      "city": "CURRAL DAS FREIRAS",
      "lon": "-16.970903839313397",
      "lat": "32.731260298145855"
    },
    {
      "id": "pt.ine.add.MAD.564",
      "street": "VR POMAR",
      "house": "5",
      "postcode": "9030-348",
      "city": "CURRAL DAS FREIRAS",
      "lon": "-16.970992741854136",
      "lat": "32.73142123353661"
    },
    {
      "id": "pt.ine.add.MAD.565",
      "street": "ESTR COLMEAL",
      "house": "51",
      "postcode": "9030-325",
      "city": "CURRAL DAS FREIRAS",
      "lon": "-16.970965109445572",
      "lat": "32.731620075847935"
    },
    {
      "id": "pt.ine.add.MAD.566",
      "street": "CAM FAJA ESCURA",
      "house": "2 4",
      "postcode": "9030-310",
      "city": "CURRAL DAS FREIRAS",
      "lon": "-16.970656382226675",
      "lat": "32.73165198659484"
    },
    {
      "id": "pt.ine.add.MAD.1355",
      "street": "VR FAJA ESCURA",
      "house": "2",
      "postcode": "9030-335",
      "city": "CURRAL DAS FREIRAS",
      "lon": "-16.970750542812283",
      "lat": "32.73108233827179"
    },
    {
      "id": "pt.ine.add.MAD.1353",
      "street": "CAM FAJA ESCURA",
      "house": "2 4",
      "postcode": "9030-310",
      "city": "CURRAL DAS FREIRAS",
      "lon": "-16.970656382226675",
      "lat": "32.73165198659484"
    },
    {
      "id": "pt.ine.add.MAD.1354",
      "street": "CAM FAJA ESCURA",
      "house": "12",
      "postcode": "9030-310",
      "city": "CURRAL DAS FREIRAS",
      "lon": "-16.9705725901957",
      "lat": "32.731238451656665"
    },
    {
      "id": "pt.ine.add.MAD.1356",
      "street": "VR FAJA ESCURA",
      "house": "12",
      "postcode": "9030-335",
      "city": "CURRAL DAS FREIRAS",
      "lon": "-16.97115501348249",
      "lat": "32.730552902104115"
    },
    {
      "id": "pt.ine.add.MAD.1357",
      "street": "VR FAJA ESCURA",
      "house": "9",
      "postcode": "9030-335",
      "city": "CURRAL DAS FREIRAS",
      "lon": "-16.970946651771726",
      "lat": "32.73078164255925"
    },
    {
      "id": "pt.ine.add.MAD.1358",
      "street": "CAM FAJA ESCURA",
      "house": "22",
      "postcode": "9030-310",
      "city": "CURRAL DAS FREIRAS",
      "lon": "-16.97027845096867",
      "lat": "32.73096350187745"
    },
    {
      "id": "pt.ine.add.MAD.1359",
      "street": "CAM FAJA ESCURA",
      "house": "26",
      "postcode": "9030-310",
      "city": "CURRAL DAS FREIRAS",
      "lon": "-16.970327218774777",
      "lat": "32.7307553088401"
    },
    {
      "id": "pt.ine.add.MAD.1368",
      "street": "ESTR COLMEAL",
      "house": "12",
      "postcode": "9030-325",
      "city": "CURRAL DAS FREIRAS",
      "lon": "-16.970128659560803",
      "lat": "32.73433878819205"
    },
    {
      "id": "pt.ine.add.MAD.2140",
      "street": "ESTR COLMEAL",
      "house": "",
      "postcode": "9030-325",
      "city": "CURRAL DAS FREIRAS",
      "lon": "-16.970820895170277",
      "lat": "32.733308809353574"
    },
    {
      "id": "pt.ine.add.MAD.2141",
      "street": "ESTR COLMEAL",
      "house": "",
      "postcode": "9030-325",
      "city": "CURRAL DAS FREIRAS",
      "lon": "-16.970804523954513",
      "lat": "32.73353453008581"
    },
    {
      "id": "pt.ine.add.MAD.2142",
      "street": "ESTR COLMEAL",
      "house": "",
      "postcode": "9030-325",
      "city": "CURRAL DAS FREIRAS",
      "lon": "-16.970753771416344",
      "lat": "32.73365256914541"
    },
    {
      "id": "pt.ine.add.MAD.2143",
      "street": "ESTR COLMEAL",
      "house": "17",
      "postcode": "9030-325",
      "city": "CURRAL DAS FREIRAS",
      "lon": "-16.970635447225952",
      "lat": "32.73360933724741"
    },
    {
      "id": "pt.ine.add.MAD.2144",
      "street": "ESTR COLMEAL",
      "house": "",
      "postcode": "9030-325",
      "city": "CURRAL DAS FREIRAS",
      "lon": "-16.970851953503157",
      "lat": "32.73375022888969"
    },
    {
      "id": "pt.ine.add.MAD.2145",
      "street": "ESTR COLMEAL",
      "house": "",
      "postcode": "9030-325",
      "city": "CURRAL DAS FREIRAS",
      "lon": "-16.97095092976323",
      "lat": "32.73388395017898"
    },
    {
      "id": "pt.ine.add.MAD.2146",
      "street": "VR LOMBO DAS FAIAS",
      "house": "",
      "postcode": "9030-341",
      "city": "CURRAL DAS FREIRAS",
      "lon": "-16.97093297093487",
      "lat": "32.734037547638636"
    },
    {
      "id": "pt.ine.add.MAD.2147",
      "street": "VR LOMBO DAS FAIAS",
      "house": "",
      "postcode": "9030-341",
      "city": "CURRAL DAS FREIRAS",
      "lon": "-16.971168720836612",
      "lat": "32.73311394954237"
    },
    {
      "id": "pt.ine.add.MAD.2148",
      "street": "VR LOMBO DAS FAIAS",
      "house": "",
      "postcode": "9030-341",
      "city": "CURRAL DAS FREIRAS",
      "lon": "-16.97137396459663",
      "lat": "32.733227961865175"
    },
    {
      "id": "pt.ine.add.MAD.2149",
      "street": "VR LOMBO DAS FAIAS",
      "house": "",
      "postcode": "9030-341",
      "city": "CURRAL DAS FREIRAS",
      "lon": "-16.971199780761683",
      "lat": "32.733555368942206"
    },
    {
      "id": "pt.ine.add.MAD.12378",
      "street": "VR COLMEAL DE CIMA",
      "house": "52",
      "postcode": "9030-339",
      "city": "CURRAL DAS FREIRAS",
      "lon": "-16.970274860850235",
      "lat": "32.73855716069435"
    },
    {
      "id": "pt.ine.add.MAD.12379",
      "street": "VR COLMEAL DE CIMA",
      "house": "50",
      "postcode": "9030-339",
      "city": "CURRAL DAS FREIRAS",
      "lon": "-16.970068613630282",
      "lat": "32.738398070044525"
    },
    {
      "id": "pt.ine.add.MAD.12380",
      "street": "VR COLMEAL DE CIMA",
      "house": "",
      "postcode": "9030-339",
      "city": "CURRAL DAS FREIRAS",
      "lon": "-16.9704150208373",
      "lat": "32.73765310421433"
    },
    {
      "id": "pt.ine.add.MAD.12381",
      "street": "VR COLMEAL DE CIMA",
      "house": "23",
      "postcode": "9030-339",
      "city": "CURRAL DAS FREIRAS",
      "lon": "-16.969820107170985",
      "lat": "32.73631869690376"
    },
    {
      "id": "pt.ine.add.MAD.12382",
      "street": "VR COLMEAL DE CIMA",
      "house": "",
      "postcode": "9030-339",
      "city": "CURRAL DAS FREIRAS",
      "lon": "-16.969908569629254",
      "lat": "32.73597460216918"
    },
    {
      "id": "pt.ine.add.MAD.12383",
      "street": "VR COLMEAL DE CIMA",
      "house": "9",
      "postcode": "9030-339",
      "city": "CURRAL DAS FREIRAS",
      "lon": "-16.969940523175598",
      "lat": "32.73548709924703"
    },
    {
      "id": "pt.ine.add.MAD.12384",
      "street": "VR COLMEAL DE CIMA",
      "house": "5",
      "postcode": "9030-339",
      "city": "CURRAL DAS FREIRAS",
      "lon": "-16.969769259846476",
      "lat": "32.735462735857524"
    },
    {
      "id": "pt.ine.add.MAD.12385",
      "street": "ESTR COLMEAL",
      "house": "2",
      "postcode": "9030-325",
      "city": "CURRAL DAS FREIRAS",
      "lon": "-16.969905745347244",
      "lat": "32.7353613865399"
    },
    {
      "id": "pt.ine.add.MAD.12386",
      "street": "TV COLMEAL",
      "house": "2",
      "postcode": "9030-330",
      "city": "CURRAL DAS FREIRAS",
      "lon": "-16.969233584880495",
      "lat": "32.73584993328832"
    },
    {
      "id": "pt.ine.add.MAD.12387",
      "street": "TV COLMEAL",
      "house": "5 A",
      "postcode": "9030-330",
      "city": "CURRAL DAS FREIRAS",
      "lon": "-16.969714979828513",
      "lat": "32.735905497052975"
    },
    {
      "id": "pt.ine.add.MAD.12388",
      "street": "VR COLMEAL DE CIMA",
      "house": "",
      "postcode": "9030-339",
      "city": "CURRAL DAS FREIRAS",
      "lon": "-16.96986233123598",
      "lat": "32.735812995504666"
    },
    {
      "id": "pt.ine.add.MAD.56541",
      "street": "VR COLMEAL DE CIMA",
      "house": "",
      "postcode": "9030-339",
      "city": "CURRAL DAS FREIRAS",
      "lon": "-16.969530271868432",
      "lat": "32.735755085258425"
    },
    {
      "id": "pt.ine.add.MAD.56542",
      "street": "ESTR COLMEAL",
      "house": "34",
      "postcode": "9030-325",
      "city": "CURRAL DAS FREIRAS",
      "lon": "-16.971336551399823",
      "lat": "32.73249804947383"
    },
    {
      "id": "pt.ine.add.MAD.56543",
      "street": "VR FAJA ESCURA",
      "house": "10",
      "postcode": "9030-335",
      "city": "CURRAL DAS FREIRAS",
      "lon": "-16.970815680661325",
      "lat": "32.73064842429016"
    },
    {
      "id": "pt.ine.add.MAD.59357",
      "street": "VR COLMEAL DE CIMA",
      "house": "",
      "postcode": "9030-339",
      "city": "CURRAL DAS FREIRAS",
      "lon": "-16.969683529025417",
      "lat": "32.73544604636735"
    },
    {
      "id": "pt.ine.add.MAD.59358",
      "street": "ESTR ACHADA",
      "house": "9",
      "postcode": "9030-321",
      "city": "CURRAL DAS FREIRAS",
      "lon": "-16.97105744940854",
      "lat": "32.73436025683727"
    },
    {
      "id": "pt.ine.add.MAD.59359",
      "street": "VR FAJA ESCURA",
      "house": "18",
      "postcode": "9030-335",
      "city": "CURRAL DAS FREIRAS",
      "lon": "-16.970367748904827",
      "lat": "32.73114246860344"
    },
    {
      "id": "pt.ine.add.MAD.59360",
      "street": "CAM FAJA ESCURA",
      "house": "",
      "postcode": "9030-310",
      "city": "CURRAL DAS FREIRAS",
      "lon": "-16.970235342249595",
      "lat": "32.7304591416412"
    },
    {
      "id": "pt.ine.add.MAD.60006",
      "street": "VR COLMEAL DE CIMA",
      "house": "",
      "postcode": "9030-339",
      "city": "CURRAL DAS FREIRAS",
      "lon": "-16.970458136199515",
      "lat": "32.738157463672486"
    },
    {
      "id": "pt.ine.add.MAD.60007",
      "street": "ESTR COLMEAL",
      "house": "57",
      "postcode": "9030-325",
      "city": "CURRAL DAS FREIRAS",
      "lon": "-16.97127502743316",
      "lat": "32.73164225680464"
    },
    {
      "id": "pt.ine.add.MAD.60008",
      "street": "CAM FAJA ESCURA",
      "house": "36",
      "postcode": "9030-310",
      "city": "CURRAL DAS FREIRAS",
      "lon": "-16.970053422399552",
      "lat": "32.73043494594438"
    },
    {
      "id": "pt.ine.add.MAD.60010",
      "street": "VR LOMBO DAS FAIAS",
      "house": "49",
      "postcode": "9030-341",
      "city": "CURRAL DAS FREIRAS",
      "lon": "-16.970219548299486",
      "lat": "32.73458987810396"
    },
    {
      "id": "pt.ine.add.MAD.65192",
      "street": "VR FAJA ESCURA",
      "house": "20",
      "postcode": "9030-335",
      "city": "CURRAL DAS FREIRAS",
      "lon": "-16.970228095793026",
      "lat": "32.73109957157195"
    },
    {
      "id": "pt.ine.add.MAD.65193",
      "street": "CAM FAJA ESCURA",
      "house": "32",
      "postcode": "9030-310",
      "city": "CURRAL DAS FREIRAS",
      "lon": "-16.970570358527954",
      "lat": "32.730652282017836"
    },
    {
      "id": "pt.ine.add.MAD.70963",
      "street": "TV COLMEAL",
      "house": "4",
      "postcode": "9030-330",
      "city": "CURRAL DAS FREIRAS",
      "lon": "-16.96942796763375",
      "lat": "32.73595510082068"
    },
    {
      "id": "pt.ine.add.MAD.70964",
      "street": "VR POMAR",
      "house": "31",
      "postcode": "9030-348",
      "city": "CURRAL DAS FREIRAS",
      "lon": "-16.971311578702753",
      "lat": "32.729910123539206"
    },
    {
      "id": "pt.ine.add.MAD.70965",
      "street": "VR POMAR",
      "house": "",
      "postcode": "9030-348",
      "city": "CURRAL DAS FREIRAS",
      "lon": "-16.971320564007055",
      "lat": "32.73080281700364"
    },
    {
      "id": "pt.ine.add.MAD.75124",
      "street": "CAM FAJA ESCURA",
      "house": "27",
      "postcode": "9030-310",
      "city": "CURRAL DAS FREIRAS",
      "lon": "-16.971357617563253",
      "lat": "32.73006271441747"
    },
    {
      "id": "pt.ine.add.MAD.75127",
      "street": "VR LOMBO FAIAS",
      "house": "4",
      "postcode": "9030-341",
      "city": "CURRAL DAS FREIRAS",
      "lon": "-16.97117030888414",
      "lat": "32.73318607280431"
    },
    {
      "id": "pt.ine.add.MAD.79751",
      "street": "VR COLMEAL DE CIMA",
      "house": "",
      "postcode": "9030-339",
      "city": "CURRAL DAS FREIRAS",
      "lon": "-16.97004073118048",
      "lat": "32.73810089704624"
    },
    {
      "id": "pt.ine.add.MAD.82348",
      "street": "VR COLMEAL DE CIMA",
      "house": "",
      "postcode": "9030-339",
      "city": "CURRAL DAS FREIRAS",
      "lon": "-16.970102153941305",
      "lat": "32.73798269051244"
    },
    {
      "id": "pt.ine.add.MAD.82349",
      "street": "VR COLMEAL DE CIMA",
      "house": "10",
      "postcode": "9030-339",
      "city": "CURRAL DAS FREIRAS",
      "lon": "-16.969697812168743",
      "lat": "32.736095156031375"
    },
    {
      "id": "pt.ine.add.MAD.82350",
      "street": "VR CABEÃO",
      "house": "",
      "postcode": "9030-337",
      "city": "CURRAL DAS FREIRAS",
      "lon": "-16.970645171660127",
      "lat": "32.73405109231956"
    },
    {
      "id": "pt.ine.add.MAD.82351",
      "street": "ESTR COLMEAL",
      "house": "",
      "postcode": "9030-325",
      "city": "CURRAL DAS FREIRAS",
      "lon": "-16.971558505614503",
      "lat": "32.73191737182058"
    },
    {
      "id": "pt.ine.add.MAD.85982",
      "street": "ESTR COLMEAL",
      "house": "53",
      "postcode": "9030-325",
      "city": "CURRAL DAS FREIRAS",
      "lon": "-16.971387790797817",
      "lat": "32.73143305675166"
    },
    {
      "id": "pt.ine.add.MAD.85983",
      "street": "ESTR COLMEAL",
      "house": "47",
      "postcode": "9030-325",
      "city": "CURRAL DAS FREIRAS",
      "lon": "-16.9708477802123",
      "lat": "32.73162192109619"
    },
    {
      "id": "pt.ine.add.MAD.87606",
      "street": "VR COLMEAL CIMA",
      "house": "",
      "postcode": "9030-339",
      "city": "CURRAL DAS FREIRAS",
      "lon": "-16.969878109761627",
      "lat": "32.735560228632394"
    },
    {
      "id": "pt.ine.add.MAD.87607",
      "street": "VR LOMBO DAS FAIAS",
      "house": "",
      "postcode": "9030-341",
      "city": "CURRAL DAS FREIRAS",
      "lon": "-16.97099796290039",
      "lat": "32.7340816180809"
    },
    {
      "id": "pt.ine.add.MAD.90256",
      "street": "ESTR COLMEAL",
      "house": "",
      "postcode": "9030-325",
      "city": "CURRAL DAS FREIRAS",
      "lon": "-16.971084726232167",
      "lat": "32.732691399771674"
    },
    {
      "id": "pt.ine.add.MAD.90257",
      "street": "CAM FAJA ESCURA",
      "house": "42",
      "postcode": "9030-310",
      "city": "CURRAL DAS FREIRAS",
      "lon": "-16.971311989050484",
      "lat": "32.73186713868137"
    },
    {
      "id": "pt.ine.add.MAD.93504",
      "street": "ESTR COLMEAL",
      "house": "",
      "postcode": "9030-325",
      "city": "CURRAL DAS FREIRAS",
      "lon": "-16.970875668373292",
      "lat": "32.733858078279006"
    },
    {
      "id": "pt.ine.add.MAD.102732",
      "street": "VR CABEÃO",
      "house": "7",
      "postcode": "9030-337",
      "city": "CURRAL DAS FREIRAS",
      "lon": "-16.97068496219327",
      "lat": "32.73488918983313"
    },
    {
      "id": "pt.ine.add.MAD.102757",
      "street": "ESTR COLMEAL",
      "house": "4",
      "postcode": "9030-325",
      "city": "CURRAL DAS FREIRAS",
      "lon": "-16.970009039907783",
      "lat": "32.73520644769186"
    },
    {
      "id": "pt.ine.add.MAD.105674",
      "street": "CAM FAJA ESCURA",
      "house": "24",
      "postcode": "9030-310",
      "city": "CURRAL DAS FREIRAS",
      "lon": "-16.97046826030559",
      "lat": "32.73086131368625"
    },
    {
      "id": "pt.ine.add.MAD.109143",
      "street": "VR CABEÃO",
      "house": "6",
      "postcode": "9030-337",
      "city": "CURRAL DAS FREIRAS",
      "lon": "-16.970515882856926",
      "lat": "32.73496399691968"
    },
    {
      "id": "pt.ine.add.MAD.109144",
      "street": "VR CABEÃO",
      "house": "19",
      "postcode": "9030-337",
      "city": "CURRAL DAS FREIRAS",
      "lon": "-16.97140008162909",
      "lat": "32.73538297924079"
    },
    {
      "id": "pt.ine.add.MAD.112042",
      "street": "VR COLMEAL DE CIMA",
      "house": "18",
      "postcode": "9030-339",
      "city": "CURRAL DAS FREIRAS",
      "lon": "-16.969705945830363",
      "lat": "32.736464787890824"
    },
    {
      "id": "pt.ine.add.MAD.113444",
      "street": "VR COLMEAL CIMA",
      "house": "29",
      "postcode": "9030-339",
      "city": "CURRAL DAS FREIRAS",
      "lon": "-16.96979405835821",
      "lat": "32.73658966224984"
    },
    {
      "id": "pt.ine.add.MAD.114608",
      "street": "VR CABEÃO",
      "house": "4",
      "postcode": "9030-337",
      "city": "CURRAL DAS FREIRAS",
      "lon": "-16.970353501180153",
      "lat": "32.73485832787835"
    },
    {
      "id": "pt.ine.add.MAD.128079",
      "street": "ESTR COLMEAL",
      "house": "",
      "postcode": "9030-325",
      "city": "CURRAL DAS FREIRAS",
      "lon": "-16.97063147813023",
      "lat": "32.73342902904499"
    },
    {
      "id": "pt.ine.add.MAD.130144",
      "street": "VR COLMEAL DE CIMA",
      "house": "",
      "postcode": "9030-339",
      "city": "CURRAL DAS FREIRAS",
      "lon": "-16.96982735497509",
      "lat": "32.735678267371235"
    }
  ]
}