{
  "data": {
    "distrito": "Guarda",
    "concelho": "Gouveia",
    "freguesia": "União das freguesias de Figueiró da Serra e Freixo da Serra",
    "OBJECTID": 183,
    "BGRI2021": "09062400123",
    "DT21": "09",
    "DTMN21": "0906",
    "DTMNFR21": "090624",
    "DTMNFRSEC21": "090624001",
    "SECNUM21": "001",
    "SSNUM21": "23",
    "SECSSNUM21": "00123",
    "OBJECTID_1": 77261,
    "DT": "09",
    "CC": "06",
    "fr": "24",
    "SEC": "001",
    "SS": "23"
  },
  "addresses": [
    {
      "id": "pt.ine.add.PTCONT.1915249",
      "street": "QTA QUINXOZO",
      "house": "",
      "postcode": "6290-071",
      "city": "FIGUEIRÓ DA SERRA",
      "lon": "-7.484277738055729",
      "lat": "40.54051727648771"
    },
    {
      "id": "pt.ine.add.PTCONT.1915938",
      "street": "CAM QUINTAS DOS LOUREIROS",
      "house": "",
      "postcode": "6290-071",
      "city": "FIGUEIRÓ DA SERRA",
      "lon": "-7.486061960076682",
      "lat": "40.54155388240664"
    },
    {
      "id": "pt.ine.add.PTCONT.1923623",
      "street": "R PORTELA",
      "house": "26",
      "postcode": "6290-071",
      "city": "FIGUEIRÓ DA SERRA",
      "lon": "-7.486167324973557",
      "lat": "40.54164452506088"
    },
    {
      "id": "pt.ine.add.PTCONT.1931776",
      "street": "R ATALAIA",
      "house": "",
      "postcode": "6290-071",
      "city": "FIGUEIRÓ DA SERRA",
      "lon": "-7.483127664631548",
      "lat": "40.53860169604418"
    },
    {
      "id": "pt.ine.add.PTCONT.1945620",
      "street": "R ATALAIA",
      "house": "",
      "postcode": "6290-071",
      "city": "FIGUEIRÓ DA SERRA",
      "lon": "-7.483240038011625",
      "lat": "40.53918767048064"
    },
    {
      "id": "pt.ine.add.PTCONT.1963753",
      "street": "CAM VILA",
      "house": "",
      "postcode": "6290-071",
      "city": "FIGUEIRÓ DA SERRA",
      "lon": "-7.48334887327093",
      "lat": "40.542583266938365"
    },
    {
      "id": "pt.ine.add.PTCONT.1965703",
      "street": "CAM QUINTAS DOS LOUREIROS",
      "house": "",
      "postcode": "6290-071",
      "city": "FIGUEIRÓ DA SERRA",
      "lon": "-7.484200154852387",
      "lat": "40.53999453542498"
    },
    {
      "id": "pt.ine.add.PTCONT.1966663",
      "street": "R PORTELA",
      "house": "",
      "postcode": "6290-071",
      "city": "FIGUEIRÓ DA SERRA",
      "lon": "-7.486036966728664",
      "lat": "40.54169782664521"
    },
    {
      "id": "pt.ine.add.PTCONT.1971211",
      "street": "CAM VILA",
      "house": "",
      "postcode": "6290-071",
      "city": "FIGUEIRÓ DA SERRA",
      "lon": "-7.482867013773333",
      "lat": "40.54236442980472"
    },
    {
      "id": "pt.ine.add.PTCONT.1978962",
      "street": "CAM VILA",
      "house": "18",
      "postcode": "6290-071",
      "city": "FIGUEIRÓ DA SERRA",
      "lon": "-7.483778760941876",
      "lat": "40.5420723838255"
    },
    {
      "id": "pt.ine.add.PTCONT.1851039",
      "street": "R ATALAIA",
      "house": "",
      "postcode": "6290-071",
      "city": "FIGUEIRÓ DA SERRA",
      "lon": "-7.484097315428279",
      "lat": "40.5396427524496"
    },
    {
      "id": "pt.ine.add.PTCONT.1858973",
      "street": "CAM VILA",
      "house": "",
      "postcode": "6290-071",
      "city": "FIGUEIRÓ DA SERRA",
      "lon": "-7.481429873444068",
      "lat": "40.53840302193874"
    },
    {
      "id": "pt.ine.add.PTCONT.1860309",
      "street": "CAM QUINTAS DOS LOUREIROS",
      "house": "",
      "postcode": "6290-071",
      "city": "FIGUEIRÓ DA SERRA",
      "lon": "-7.483105417501048",
      "lat": "40.539682202828686"
    },
    {
      "id": "pt.ine.add.PTCONT.1862001",
      "street": "R PORTELA",
      "house": "22",
      "postcode": "6290-071",
      "city": "FIGUEIRÓ DA SERRA",
      "lon": "-7.485715931644592",
      "lat": "40.54193917034528"
    },
    {
      "id": "pt.ine.add.PTCONT.1867306",
      "street": "CAM VILA",
      "house": "20",
      "postcode": "6290-071",
      "city": "FIGUEIRÓ DA SERRA",
      "lon": "-7.48424370488757",
      "lat": "40.5415977169865"
    },
    {
      "id": "pt.ine.add.PTCONT.1874937",
      "street": "CAM VILA",
      "house": "16",
      "postcode": "6290-071",
      "city": "FIGUEIRÓ DA SERRA",
      "lon": "-7.484251424528678",
      "lat": "40.54202100767081"
    },
    {
      "id": "pt.ine.add.PTCONT.1882684",
      "street": "R PORTELA",
      "house": "22A",
      "postcode": "6290-071",
      "city": "FIGUEIRÓ DA SERRA",
      "lon": "-7.484958075746314",
      "lat": "40.540962352979626"
    },
    {
      "id": "pt.ine.add.PTCONT.1890283",
      "street": "CAM QUINTAS DOS LOUREIROS",
      "house": "",
      "postcode": "6290-071",
      "city": "FIGUEIRÓ DA SERRA",
      "lon": "-7.48473876070786",
      "lat": "40.54044782240047"
    }
  ]
}