{
  "data": {
    "distrito": "Faro",
    "concelho": "Portimão",
    "freguesia": "Portimão",
    "OBJECTID": 381,
    "BGRI2021": "08110305121",
    "DT21": "08",
    "DTMN21": "0811",
    "DTMNFR21": "081103",
    "DTMNFRSEC21": "081103051",
    "SECNUM21": "051",
    "SSNUM21": "21",
    "SECSSNUM21": "05121",
    "OBJECTID_1": 70889,
    "DT": "08",
    "CC": "11",
    "fr": "03",
    "SEC": "051",
    "SS": "21"
  },
  "addresses": [
    {
      "id": "pt.ine.add.PTCONT.1476773",
      "street": "SIT CEBOLAR",
      "house": "",
      "postcode": "8500-300",
      "city": "PORTIMÃO",
      "lon": "-8.544877006428091",
      "lat": "37.16490397348698"
    },
    {
      "id": "pt.ine.add.PTCONT.1483582",
      "street": "SITIO DO CEBOLAR",
      "house": "",
      "postcode": "8500-300",
      "city": "PORTIMÃO",
      "lon": "-8.54883961389084",
      "lat": "37.16687244994192"
    },
    {
      "id": "pt.ine.add.PTCONT.1494252",
      "street": "SITIO DO CEBOLAR",
      "house": "",
      "postcode": "8500-300",
      "city": "PORTIMÃO",
      "lon": "-8.549185529421504",
      "lat": "37.16835796905104"
    },
    {
      "id": "pt.ine.add.PTCONT.1506024",
      "street": "SIT CEBOLAR ALTO",
      "house": "",
      "postcode": "8500-300",
      "city": "PORTIMÃO",
      "lon": "-8.549676642027825",
      "lat": "37.16347254922568"
    },
    {
      "id": "pt.ine.add.PTCONT.1506870",
      "street": "SIT CEBOLAR ALTO JOSE DUARTE",
      "house": "",
      "postcode": "8500-300",
      "city": "PORTIMÃO",
      "lon": "-8.545856794245449",
      "lat": "37.1649546280504"
    },
    {
      "id": "pt.ine.add.PTCONT.1508826",
      "street": "",
      "house": "",
      "postcode": "8500-300",
      "city": "PORTIMÃO",
      "lon": "-8.550332021285987",
      "lat": "37.16800252839812"
    },
    {
      "id": "pt.ine.add.PTCONT.1532917",
      "street": "R PALMAS CASA ÂNGELA",
      "house": "3",
      "postcode": "8500-300",
      "city": "PORTIMÃO",
      "lon": "-8.544445247464333",
      "lat": "37.16625704919156"
    },
    {
      "id": "pt.ine.add.PTCONT.1534873",
      "street": "SITIO DO CEBOLAR",
      "house": "",
      "postcode": "8500-300",
      "city": "PORTIMÃO",
      "lon": "-8.548935266405087",
      "lat": "37.16583590615771"
    },
    {
      "id": "pt.ine.add.PTCONT.1555333",
      "street": "",
      "house": "",
      "postcode": "8500-300",
      "city": "PORTIMÃO",
      "lon": "-8.549084098172402",
      "lat": "37.16423151342102"
    },
    {
      "id": "pt.ine.add.PTCONT.1559941",
      "street": "",
      "house": "",
      "postcode": "8500-300",
      "city": "PORTIMÃO",
      "lon": "-8.5480158188644",
      "lat": "37.168587332877756"
    },
    {
      "id": "pt.ine.add.PTCONT.1567147",
      "street": "SITIO DO CEBOLAR VILA ATLANTIDA",
      "house": "",
      "postcode": "8500-300",
      "city": "PORTIMÃO",
      "lon": "-8.549672718324654",
      "lat": "37.166860513830635"
    },
    {
      "id": "pt.ine.add.PTCONT.1580566",
      "street": "SIT CEBOLAR",
      "house": "",
      "postcode": "8500-300",
      "city": "PORTIMÃO",
      "lon": "-8.545032132294677",
      "lat": "37.16444389838107"
    },
    {
      "id": "pt.ine.add.PTCONT.1588067",
      "street": "TV PALMAS",
      "house": "10",
      "postcode": "8500-300",
      "city": "PORTIMÃO",
      "lon": "-8.544508941694689",
      "lat": "37.165544997957696"
    },
    {
      "id": "pt.ine.add.PTCONT.1590733",
      "street": "SIT SITIO DO CEBOLAR ALTO",
      "house": "",
      "postcode": "8500-300",
      "city": "PORTIMÃO",
      "lon": "-8.546185813393567",
      "lat": "37.167485434097195"
    },
    {
      "id": "pt.ine.add.PTCONT.1590734",
      "street": "SITIO DO CEBOLAR",
      "house": "",
      "postcode": "8500-300",
      "city": "PORTIMÃO",
      "lon": "-8.548484737949074",
      "lat": "37.16374704822969"
    },
    {
      "id": "pt.ine.add.PTCONT.1593028",
      "street": "R PALMAS",
      "house": "7",
      "postcode": "8500-300",
      "city": "PORTIMÃO",
      "lon": "-8.544812143154003",
      "lat": "37.165399776843294"
    },
    {
      "id": "pt.ine.add.PTCONT.1593029",
      "street": "SIT CEBOLAR ALTO",
      "house": "",
      "postcode": "8500-300",
      "city": "PORTIMÃO",
      "lon": "-8.54625069659204",
      "lat": "37.16492622393055"
    },
    {
      "id": "pt.ine.add.PTCONT.1623924",
      "street": "R PALMAS CASA DE FLORES",
      "house": "4",
      "postcode": "8500-300",
      "city": "PORTIMÃO",
      "lon": "-8.544761323295084",
      "lat": "37.16640913027078"
    },
    {
      "id": "pt.ine.add.PTCONT.1631340",
      "street": "SITIO DO CEBOLAR",
      "house": "",
      "postcode": "8500-300",
      "city": "PORTIMÃO",
      "lon": "-8.551410650663602",
      "lat": "37.167593253207386"
    },
    {
      "id": "pt.ine.add.PTCONT.1637895",
      "street": "SITIO DO CEBOLAR VILA ATLANTIDA",
      "house": "2",
      "postcode": "8500-300",
      "city": "PORTIMÃO",
      "lon": "-8.550159125701263",
      "lat": "37.16727328621436"
    },
    {
      "id": "pt.ine.add.PTCONT.1638059",
      "street": "SIT CEBOLAR KINTA KEN",
      "house": "",
      "postcode": "8500-300",
      "city": "PORTIMÃO",
      "lon": "-8.545178688225848",
      "lat": "37.164479430907015"
    },
    {
      "id": "pt.ine.add.PTCONT.1638060",
      "street": "SIT CEBOLAR",
      "house": "11",
      "postcode": "8500-300",
      "city": "PORTIMÃO",
      "lon": "-8.545178688225848",
      "lat": "37.164479430907015"
    },
    {
      "id": "pt.ine.add.PTCONT.1651204",
      "street": "",
      "house": "",
      "postcode": "8500-300",
      "city": "PORTIMÃO",
      "lon": "-8.547981450517366",
      "lat": "37.16847932717126"
    },
    {
      "id": "pt.ine.add.PTCONT.1659885",
      "street": "ALDEIA DO MALHEIRO",
      "house": "",
      "postcode": "8500-300",
      "city": "PORTIMÃO",
      "lon": "-8.54522377799148",
      "lat": "37.162415866986144"
    },
    {
      "id": "pt.ine.add.PTCONT.1664332",
      "street": "",
      "house": "",
      "postcode": "8500-300",
      "city": "PORTIMÃO",
      "lon": "-8.548174382457253",
      "lat": "37.168757977145596"
    },
    {
      "id": "pt.ine.add.PTCONT.1671370",
      "street": "",
      "house": "",
      "postcode": "8500-300",
      "city": "PORTIMÃO",
      "lon": "-8.547712437932958",
      "lat": "37.16457871956774"
    },
    {
      "id": "pt.ine.add.PTCONT.1675642",
      "street": "SITIO DO CEBOLAR VILA ATLANTIDA",
      "house": "3",
      "postcode": "8500-300",
      "city": "PORTIMÃO",
      "lon": "-8.549630452118805",
      "lat": "37.16736525065196"
    },
    {
      "id": "pt.ine.add.PTCONT.1688186",
      "street": "SITIO DO CEBOLAR",
      "house": "",
      "postcode": "8500-300",
      "city": "PORTIMÃO",
      "lon": "-8.548693495692804",
      "lat": "37.16691801498617"
    },
    {
      "id": "pt.ine.add.PTCONT.1699718",
      "street": "CASA DO VALE",
      "house": "",
      "postcode": "8500-300",
      "city": "PORTIMÃO",
      "lon": "-8.547828419844603",
      "lat": "37.16520003882293"
    },
    {
      "id": "pt.ine.add.PTCONT.1699722",
      "street": "TV PALMAS",
      "house": "9",
      "postcode": "8500-300",
      "city": "PORTIMÃO",
      "lon": "-8.54464165162049",
      "lat": "37.16510302223809"
    },
    {
      "id": "pt.ine.add.PTCONT.1705101",
      "street": "SIT CEBOLAR",
      "house": "",
      "postcode": "8500-300",
      "city": "PORTIMÃO",
      "lon": "-8.545643028575672",
      "lat": "37.16498240391787"
    },
    {
      "id": "pt.ine.add.PTCONT.1711900",
      "street": "SITIO DO CEBOLAR V BRIGET",
      "house": "",
      "postcode": "8500-300",
      "city": "PORTIMÃO",
      "lon": "-8.548437303477423",
      "lat": "37.16742350143162"
    },
    {
      "id": "pt.ine.add.PTCONT.1720316",
      "street": "R PALMAS",
      "house": "8",
      "postcode": "8500-300",
      "city": "PORTIMÃO",
      "lon": "-8.544912297517085",
      "lat": "37.165183176640234"
    },
    {
      "id": "pt.ine.add.PTCONT.1736576",
      "street": "SITIO DO CEBOLAR",
      "house": "",
      "postcode": "8500-300",
      "city": "PORTIMÃO",
      "lon": "-8.548930030144861",
      "lat": "37.16693520624675"
    },
    {
      "id": "pt.ine.add.PTCONT.1751989",
      "street": "SIT MALHEIRO CCI",
      "house": "",
      "postcode": "8500-331",
      "city": "PORTIMÃO",
      "lon": "-8.544593858326948",
      "lat": "37.16667101658528"
    },
    {
      "id": "pt.ine.add.PTCONT.1765272",
      "street": "",
      "house": "",
      "postcode": "8500-300",
      "city": "PORTIMÃO",
      "lon": "-8.548969634873824",
      "lat": "37.16594391163478"
    },
    {
      "id": "pt.ine.add.PTCONT.1794215",
      "street": "QTA ALCORAO",
      "house": "",
      "postcode": "8500-300",
      "city": "PORTIMÃO",
      "lon": "-8.547448717058039",
      "lat": "37.1616422152445"
    },
    {
      "id": "pt.ine.add.PTCONT.1794219",
      "street": "R PALMAS",
      "house": "6",
      "postcode": "8500-300",
      "city": "PORTIMÃO",
      "lon": "-8.54455534390648",
      "lat": "37.16579713109176"
    },
    {
      "id": "pt.ine.add.PTCONT.1799152",
      "street": "SIT CEBOLAR",
      "house": "",
      "postcode": "8500-300",
      "city": "PORTIMÃO",
      "lon": "-8.545875342448456",
      "lat": "37.16422471217438"
    },
    {
      "id": "pt.ine.add.PTCONT.1802932",
      "street": "SITIO DO CEBOLAR",
      "house": "",
      "postcode": "8500-300",
      "city": "PORTIMÃO",
      "lon": "-8.548558537526109",
      "lat": "37.16694551971572"
    },
    {
      "id": "pt.ine.add.PTCONT.1811715",
      "street": "SITIO DO CEBOLAR",
      "house": "",
      "postcode": "8500-300",
      "city": "PORTIMÃO",
      "lon": "-8.548176377257914",
      "lat": "37.16706399544691"
    },
    {
      "id": "pt.ine.add.PTCONT.1819521",
      "street": "SIT SITIO DO CEBOLAR ALTO",
      "house": "",
      "postcode": "8500-300",
      "city": "PORTIMÃO",
      "lon": "-8.546069350986064",
      "lat": "37.16677401006076"
    },
    {
      "id": "pt.ine.add.PTCONT.1831557",
      "street": "R PALMAS",
      "house": "1",
      "postcode": "8500-331",
      "city": "PORTIMÃO",
      "lon": "-8.54425541057891",
      "lat": "37.16654604421033"
    },
    {
      "id": "pt.ine.add.PTCONT.1839846",
      "street": "JAN KENTSON QTA KEN",
      "house": "11",
      "postcode": "8500-300",
      "city": "PORTIMÃO",
      "lon": "-8.545178688225848",
      "lat": "37.164479430907015"
    },
    {
      "id": "pt.ine.add.PTCONT.1840679",
      "street": "SITIO DO CEBOLAR",
      "house": "",
      "postcode": "8500-300",
      "city": "PORTIMÃO",
      "lon": "-8.545729073738682",
      "lat": "37.16217082488342"
    },
    {
      "id": "pt.ine.add.PTCONT.1847558",
      "street": "R PALMAS",
      "house": "5",
      "postcode": "8500-300",
      "city": "PORTIMÃO",
      "lon": "-8.544522935386468",
      "lat": "37.166049537831306"
    }
  ]
}