{
  "data": {
    "distrito": "Santarém",
    "concelho": "Ourém",
    "freguesia": "Nossa Senhora da Piedade",
    "OBJECTID": 819,
    "BGRI2021": "14211500711",
    "DT21": "14",
    "DTMN21": "1421",
    "DTMNFR21": "142115",
    "DTMNFRSEC21": "142115007",
    "SECNUM21": "007",
    "SSNUM21": "11",
    "SECSSNUM21": "00711",
    "OBJECTID_1": 159507,
    "DT": "14",
    "CC": "21",
    "fr": "15",
    "SEC": "007",
    "SS": "11"
  },
  "addresses": [
    {
      "id": "pt.ine.add.PTCONT.4394821",
      "street": "R PRINCIPAL",
      "house": "47",
      "postcode": "2490-724",
      "city": "OURÉM",
      "lon": "-8.561806731620441",
      "lat": "39.675447070022784"
    },
    {
      "id": "pt.ine.add.PTCONT.4434805",
      "street": "R LOUREIROS",
      "house": "4",
      "postcode": "2490-722",
      "city": "OURÉM",
      "lon": "-8.562805277392977",
      "lat": "39.67483092697232"
    },
    {
      "id": "pt.ine.add.PTCONT.4444357",
      "street": "R LOUREIROS",
      "house": "2",
      "postcode": "2490-722",
      "city": "OURÉM",
      "lon": "-8.563049641928792",
      "lat": "39.67476697596074"
    },
    {
      "id": "pt.ine.add.PTCONT.4454459",
      "street": "BC PITEIRAS",
      "house": "6",
      "postcode": "2490-708",
      "city": "OURÉM",
      "lon": "-8.56133363043301",
      "lat": "39.67433198985527"
    },
    {
      "id": "pt.ine.add.PTCONT.4466806",
      "street": "R PRINCIPAL",
      "house": "29",
      "postcode": "2490-724",
      "city": "OURÉM",
      "lon": "-8.56110979651847",
      "lat": "39.67394552863103"
    },
    {
      "id": "pt.ine.add.PTCONT.4483916",
      "street": "R PRINCIPAL",
      "house": "31",
      "postcode": "2490-724",
      "city": "OURÉM",
      "lon": "-8.561064121841744",
      "lat": "39.674098810163805"
    },
    {
      "id": "pt.ine.add.PTCONT.4519083",
      "street": "R PRINCIPAL",
      "house": "41",
      "postcode": "2490-724",
      "city": "OURÉM",
      "lon": "-8.561688900170367",
      "lat": "39.67524035180717"
    },
    {
      "id": "pt.ine.add.PTCONT.4555963",
      "street": "R PRINCIPAL",
      "house": "37",
      "postcode": "2490-724",
      "city": "OURÉM",
      "lon": "-8.56154759239083",
      "lat": "39.67500670010025"
    },
    {
      "id": "pt.ine.add.PTCONT.4572831",
      "street": "BC PITEIRAS",
      "house": "4",
      "postcode": "2490-708",
      "city": "OURÉM",
      "lon": "-8.56128623218839",
      "lat": "39.674206071389435"
    },
    {
      "id": "pt.ine.add.PTCONT.4585203",
      "street": "R PRINCIPAL",
      "house": "39",
      "postcode": "2490-724",
      "city": "OURÉM",
      "lon": "-8.561606479790905",
      "lat": "39.67510555607622"
    },
    {
      "id": "pt.ine.add.PTCONT.4587358",
      "street": "R HORTAS",
      "house": "12",
      "postcode": "2490-717",
      "city": "OURÉM",
      "lon": "-8.562416089913388",
      "lat": "39.674093820306524"
    },
    {
      "id": "pt.ine.add.PTCONT.4612132",
      "street": "BC PITEIRAS",
      "house": "8",
      "postcode": "2490-708",
      "city": "OURÉM",
      "lon": "-8.561519386146399",
      "lat": "39.67421421819829"
    },
    {
      "id": "pt.ine.add.PTCONT.4622758",
      "street": "R PRINCIPAL",
      "house": "25",
      "postcode": "2490-724",
      "city": "OURÉM",
      "lon": "-8.560641491744812",
      "lat": "39.67360500048433"
    },
    {
      "id": "pt.ine.add.PTCONT.4622759",
      "street": "R HORTAS",
      "house": "",
      "postcode": "2490-717",
      "city": "OURÉM",
      "lon": "-8.561037588764494",
      "lat": "39.673576521660905"
    },
    {
      "id": "pt.ine.add.PTCONT.4624839",
      "street": "R PRINCIPAL",
      "house": "27",
      "postcode": "2490-724",
      "city": "OURÉM",
      "lon": "-8.56085244496675",
      "lat": "39.673793363565764"
    },
    {
      "id": "pt.ine.add.PTCONT.4646680",
      "street": "R PRINCIPAL",
      "house": "35",
      "postcode": "2490-724",
      "city": "OURÉM",
      "lon": "-8.561429762470933",
      "lat": "39.674799981597864"
    }
  ]
}