{
  "data": {
    "distrito": "Santarém",
    "concelho": "Ourém",
    "freguesia": "Nossa Senhora da Piedade",
    "OBJECTID": 1337,
    "BGRI2021": "14211500728",
    "DT21": "14",
    "DTMN21": "1421",
    "DTMNFR21": "142115",
    "DTMNFRSEC21": "142115007",
    "SECNUM21": "007",
    "SSNUM21": "28",
    "SECSSNUM21": "00728",
    "OBJECTID_1": 158441,
    "DT": "14",
    "CC": "21",
    "fr": "15",
    "SEC": "007",
    "SS": "28"
  },
  "addresses": [
    {
      "id": "pt.ine.add.PTCONT.4438104",
      "street": "R PRINCIPAL",
      "house": "66",
      "postcode": "2490-724",
      "city": "OURÉM",
      "lon": "-8.566241685679106",
      "lat": "39.67825870346454"
    },
    {
      "id": "pt.ine.add.PTCONT.4440212",
      "street": "R LIMOES",
      "house": "15",
      "postcode": "2490-774",
      "city": "OURÉM",
      "lon": "-8.566470234242788",
      "lat": "39.67939268885167"
    },
    {
      "id": "pt.ine.add.PTCONT.4450569",
      "street": "R JOSE CALISTO SANTOS",
      "house": "5",
      "postcode": "2490-724",
      "city": "OURÉM",
      "lon": "-8.567984581654049",
      "lat": "39.67924292153703"
    },
    {
      "id": "pt.ine.add.PTCONT.4454551",
      "street": "R LIMOES",
      "house": "6",
      "postcode": "2490-774",
      "city": "OURÉM",
      "lon": "-8.56659602665223",
      "lat": "39.67900493340184"
    },
    {
      "id": "pt.ine.add.PTCONT.4488185",
      "street": "TV CHARNECA",
      "house": "6",
      "postcode": "2490-724",
      "city": "OURÉM",
      "lon": "-8.569177603145825",
      "lat": "39.679895933288414"
    },
    {
      "id": "pt.ine.add.PTCONT.4490881",
      "street": "EN 356",
      "house": "6",
      "postcode": "2490-776",
      "city": "OURÉM",
      "lon": "-8.566896096724925",
      "lat": "39.68039083695846"
    },
    {
      "id": "pt.ine.add.PTCONT.4502699",
      "street": "R JOSE CALISTO DOS SANTOS",
      "house": "9",
      "postcode": "2490-724",
      "city": "OURÉM",
      "lon": "-8.567404106860208",
      "lat": "39.6796143664367"
    },
    {
      "id": "pt.ine.add.PTCONT.4556188",
      "street": "R PRINCIPAL",
      "house": "7O",
      "postcode": "2490-724",
      "city": "OURÉM",
      "lon": "-8.567550102290182",
      "lat": "39.67873116864368"
    },
    {
      "id": "pt.ine.add.PTCONT.4574772",
      "street": "R PRINCIPAL",
      "house": "68",
      "postcode": "2490-724",
      "city": "OURÉM",
      "lon": "-8.567094291113074",
      "lat": "39.67853472659171"
    },
    {
      "id": "pt.ine.add.PTCONT.4620724",
      "street": "R LIMOES",
      "house": "3",
      "postcode": "2490-774",
      "city": "OURÉM",
      "lon": "-8.568495794711811",
      "lat": "39.67897981321691"
    },
    {
      "id": "pt.ine.add.PTCONT.4639188",
      "street": "R PRINCIPAL",
      "house": "72",
      "postcode": "2490-724",
      "city": "OURÉM",
      "lon": "-8.567853262566821",
      "lat": "39.67874804744162"
    }
  ]
}