{
  "data": {
    "distrito": "Vila Real",
    "concelho": "Valpaços",
    "freguesia": "Bouçoães",
    "OBJECTID": 196,
    "BGRI2021": "17120500111",
    "DT21": "17",
    "DTMN21": "1712",
    "DTMNFR21": "171205",
    "DTMNFRSEC21": "171205001",
    "SECNUM21": "001",
    "SSNUM21": "11",
    "SECSSNUM21": "00111",
    "OBJECTID_1": 186446,
    "DT": "17",
    "CC": "12",
    "fr": "05",
    "SEC": "001",
    "SS": "11"
  },
  "addresses": [
    {
      "id": "pt.ine.add.PTCONT.5287108",
      "street": "R DO TRINTÁRIO",
      "house": "14",
      "postcode": "5430-042",
      "city": "BOUÇOÃES",
      "lon": "-7.210099051860653",
      "lat": "41.74076555233862"
    },
    {
      "id": "pt.ine.add.PTCONT.5290794",
      "street": "ESTR CAMARÁRIA",
      "house": "6",
      "postcode": "5430-046",
      "city": "BOUÇOÃES",
      "lon": "-7.231627839828205",
      "lat": "41.745987358841646"
    },
    {
      "id": "pt.ine.add.PTCONT.5293419",
      "street": "R PRINCIPAL",
      "house": "6",
      "postcode": "5430-045",
      "city": "BOUÇOÃES",
      "lon": "-7.211255416260327",
      "lat": "41.72715276957153"
    },
    {
      "id": "pt.ine.add.PTCONT.5299644",
      "street": "EN 213",
      "house": "11",
      "postcode": "5430-045",
      "city": "BOUÇOÃES",
      "lon": "-7.214399663317292",
      "lat": "41.724945118958004"
    },
    {
      "id": "pt.ine.add.PTCONT.5303063",
      "street": "R DAS BARREIRAS",
      "house": "3",
      "postcode": "5430-046",
      "city": "BOUÇOÃES",
      "lon": "-7.2289551593098205",
      "lat": "41.74454383024916"
    },
    {
      "id": "pt.ine.add.PTCONT.5304074",
      "street": "AV ENG FRANCISCO BATISTA TAVARES",
      "house": "12",
      "postcode": "5430-042",
      "city": "BOUÇOÃES",
      "lon": "-7.2089900160093325",
      "lat": "41.74098172105708"
    },
    {
      "id": "pt.ine.add.PTCONT.5305944",
      "street": "ESTR CAMARÁRIA",
      "house": "15",
      "postcode": "5430-046",
      "city": "BOUÇOÃES",
      "lon": "-7.23051890843282",
      "lat": "41.74619473266679"
    },
    {
      "id": "pt.ine.add.PTCONT.5305945",
      "street": "R DA BADANA",
      "house": "5",
      "postcode": "5430-042",
      "city": "BOUÇOÃES",
      "lon": "-7.209999957322616",
      "lat": "41.74180914332741"
    },
    {
      "id": "pt.ine.add.PTCONT.5306805",
      "street": "R PRINCIPAL",
      "house": "10",
      "postcode": "5430-046",
      "city": "BOUÇOÃES",
      "lon": "-7.2267574308900695",
      "lat": "41.746093094835565"
    },
    {
      "id": "pt.ine.add.PTCONT.5309674",
      "street": "R DO TRINTÁRIO",
      "house": "16",
      "postcode": "5430-042",
      "city": "BOUÇOÃES",
      "lon": "-7.210199334271901",
      "lat": "41.740478251085946"
    },
    {
      "id": "pt.ine.add.PTCONT.5310511",
      "street": "R DE BAIXO",
      "house": "5",
      "postcode": "5430-046",
      "city": "BOUÇOÃES",
      "lon": "-7.229052333114854",
      "lat": "41.74447256820685"
    },
    {
      "id": "pt.ine.add.PTCONT.5311361",
      "street": "R DE BAIXO",
      "house": "3",
      "postcode": "5430-046",
      "city": "BOUÇOÃES",
      "lon": "-7.2284964873584245",
      "lat": "41.74467526991843"
    },
    {
      "id": "pt.ine.add.PTCONT.5330690",
      "street": "R DAS CARVALHEIRAS",
      "house": "1",
      "postcode": "5430-046",
      "city": "BOUÇOÃES",
      "lon": "-7.2275486451417725",
      "lat": "41.74539707351559"
    },
    {
      "id": "pt.ine.add.PTCONT.5336403",
      "street": "AV ENG FRANCISCO BATISTA TAVARES",
      "house": "26",
      "postcode": "5430-042",
      "city": "BOUÇOÃES",
      "lon": "-7.209984642024322",
      "lat": "41.73616392572566"
    },
    {
      "id": "pt.ine.add.PTCONT.5341627",
      "street": "R DA BADANA",
      "house": "7",
      "postcode": "5430-042",
      "city": "BOUÇOÃES",
      "lon": "-7.209201484610215",
      "lat": "41.74216285879283"
    },
    {
      "id": "pt.ine.add.PTCONT.5346707",
      "street": "ESTRADA NACIONAL",
      "house": "3",
      "postcode": "5430-045",
      "city": "BOUÇOÃES",
      "lon": "-7.21110799265943",
      "lat": "41.72737667067796"
    },
    {
      "id": "pt.ine.add.PTCONT.5347743",
      "street": "R DO FORNO",
      "house": "",
      "postcode": "5430-046",
      "city": "BOUÇOÃES",
      "lon": "-7.2305845599418666",
      "lat": "41.74579910162061"
    },
    {
      "id": "pt.ine.add.PTCONT.5352612",
      "street": "AV ENG FRANCISCO BATISTA TAVARES",
      "house": "1",
      "postcode": "5430-042",
      "city": "BOUÇOÃES",
      "lon": "-7.209815780596881",
      "lat": "41.73368664856014"
    },
    {
      "id": "pt.ine.add.PTCONT.5355527",
      "street": "SIT DAS FRAGAS",
      "house": "7",
      "postcode": "5430-045",
      "city": "BOUÇOÃES",
      "lon": "-7.21135379017489",
      "lat": "41.72783781403089"
    },
    {
      "id": "pt.ine.add.PTCONT.5361104",
      "street": "EM 213",
      "house": "2",
      "postcode": "5430-042",
      "city": "BOUÇOÃES",
      "lon": "-7.210842584814857",
      "lat": "41.72744656754588"
    },
    {
      "id": "pt.ine.add.PTCONT.5361225",
      "street": "R PRINCIPAL",
      "house": "8",
      "postcode": "5430-045",
      "city": "BOUÇOÃES",
      "lon": "-7.211630263007965",
      "lat": "41.726993715865824"
    },
    {
      "id": "pt.ine.add.PTCONT.5365087",
      "street": "R DAS BARREIRAS",
      "house": "4",
      "postcode": "5430-046",
      "city": "BOUÇOÃES",
      "lon": "-7.229041575637745",
      "lat": "41.74438245018286"
    },
    {
      "id": "pt.ine.add.PTCONT.5374265",
      "street": "R DO FORNO",
      "house": "15",
      "postcode": "5430-046",
      "city": "BOUÇOÃES",
      "lon": "-7.230689089949625",
      "lat": "41.746061019425404"
    },
    {
      "id": "pt.ine.add.PTCONT.5381706",
      "street": "ESTR CAMARÁRIA",
      "house": "4",
      "postcode": "5430-046",
      "city": "BOUÇOÃES",
      "lon": "-7.232107661308985",
      "lat": "41.74606314929599"
    },
    {
      "id": "pt.ine.add.PTCONT.5385032",
      "street": "AV ENG FRANCISCO BATISTA TAVARES",
      "house": "18",
      "postcode": "5430-042",
      "city": "BOUÇOÃES",
      "lon": "-7.209145609414165",
      "lat": "41.7401906786689"
    },
    {
      "id": "pt.ine.add.PTCONT.5386032",
      "street": "R DE BAIXO",
      "house": "7",
      "postcode": "5430-046",
      "city": "BOUÇOÃES",
      "lon": "-7.228960843054033",
      "lat": "41.7441387247722"
    },
    {
      "id": "pt.ine.add.PTCONT.5392274",
      "street": "R DE BAIXO",
      "house": "7",
      "postcode": "5430-046",
      "city": "BOUÇOÃES",
      "lon": "-7.228795735462726",
      "lat": "41.744767659001546"
    },
    {
      "id": "pt.ine.add.PTCONT.5395875",
      "street": "R DO FORNO",
      "house": "9",
      "postcode": "5430-046",
      "city": "BOUÇOÃES",
      "lon": "-7.229170516887329",
      "lat": "41.74461755148377"
    },
    {
      "id": "pt.ine.add.PTCONT.5397776",
      "street": "R DAS CARVALHEIRAS",
      "house": "2",
      "postcode": "5430-046",
      "city": "BOUÇOÃES",
      "lon": "-7.226860313366182",
      "lat": "41.744761412716045"
    },
    {
      "id": "pt.ine.add.PTCONT.5408011",
      "street": "R DE BAIXO",
      "house": "2",
      "postcode": "5430-046",
      "city": "BOUÇOÃES",
      "lon": "-7.228653764077148",
      "lat": "41.74460448141484"
    },
    {
      "id": "pt.ine.add.PTCONT.5412939",
      "street": "R DA BADANA",
      "house": "1",
      "postcode": "5430-042",
      "city": "BOUÇOÃES",
      "lon": "-7.208864396909937",
      "lat": "41.741358850773096"
    },
    {
      "id": "pt.ine.add.PTCONT.5416113",
      "street": "EN 213",
      "house": "4",
      "postcode": "5430-042",
      "city": "BOUÇOÃES",
      "lon": "-7.2109242588868945",
      "lat": "41.72761828688727"
    },
    {
      "id": "pt.ine.add.PTCONT.5416279",
      "street": "AV ENG FRANCISCO BATISTA TAVARES",
      "house": "20",
      "postcode": "5430-042",
      "city": "BOUÇOÃES",
      "lon": "-7.209233617538043",
      "lat": "41.73992128620925"
    },
    {
      "id": "pt.ine.add.PTCONT.5420198",
      "street": "AV ENG FRANCISCO BATISTA TAVARES",
      "house": "24",
      "postcode": "5430-042",
      "city": "BOUÇOÃES",
      "lon": "-7.209518428488761",
      "lat": "41.738501048265995"
    },
    {
      "id": "pt.ine.add.PTCONT.5420199",
      "street": "AV ENG FRANCISCO BATISTA TAVARES",
      "house": "22",
      "postcode": "5430-042",
      "city": "BOUÇOÃES",
      "lon": "-7.209421263889581",
      "lat": "41.73940960456373"
    },
    {
      "id": "pt.ine.add.PTCONT.5424707",
      "street": "AV ENG FRANCISCO BATISTA TAVARES",
      "house": "",
      "postcode": "5430-042",
      "city": "BOUÇOÃES",
      "lon": "-7.208980965157772",
      "lat": "41.74077457149961"
    }
  ]
}