{
  "data": {
    "distrito": "Lisboa",
    "concelho": "Lourinhã",
    "freguesia": "Vimeiro",
    "OBJECTID": 89,
    "BGRI2021": "11080800229",
    "DT21": "11",
    "DTMN21": "1108",
    "DTMNFR21": "110808",
    "DTMNFRSEC21": "110808002",
    "SECNUM21": "002",
    "SSNUM21": "29",
    "SECSSNUM21": "00229",
    "OBJECTID_1": 107123,
    "DT": "11",
    "CC": "08",
    "fr": "08",
    "SEC": "002",
    "SS": "29"
  },
  "addresses": [
    {
      "id": "pt.ine.add.PTCONT.2298812",
      "street": "TV REMEDIOS",
      "house": "4",
      "postcode": "2530-803",
      "city": "VIMEIRO LNH",
      "lon": "-9.303261683199445",
      "lat": "39.19066314494461"
    },
    {
      "id": "pt.ine.add.PTCONT.2324082",
      "street": "R BARROS",
      "house": "5 E",
      "postcode": "2530-789",
      "city": "VIMEIRO LNH",
      "lon": "-9.303372707647046",
      "lat": "39.19107635515587"
    },
    {
      "id": "pt.ine.add.PTCONT.2426649",
      "street": "LG CACADORES",
      "house": "2",
      "postcode": "2530-775",
      "city": "VIMEIRO LNH",
      "lon": "-9.30278407379964",
      "lat": "39.19047879258314"
    },
    {
      "id": "pt.ine.add.PTCONT.2426650",
      "street": "LG CACADORES",
      "house": "2",
      "postcode": "2530-775",
      "city": "VIMEIRO LNH",
      "lon": "-9.30278407379964",
      "lat": "39.19047879258314"
    },
    {
      "id": "pt.ine.add.PTCONT.2426651",
      "street": "LG CACADORES",
      "house": "2",
      "postcode": "2530-775",
      "city": "VIMEIRO LNH",
      "lon": "-9.30278407379964",
      "lat": "39.19047879258314"
    },
    {
      "id": "pt.ine.add.PTCONT.2544225",
      "street": "R BARROS",
      "house": "5 E",
      "postcode": "2530-789",
      "city": "VIMEIRO LNH",
      "lon": "-9.303496868840462",
      "lat": "39.19088595931761"
    },
    {
      "id": "pt.ine.add.PTCONT.2570415",
      "street": "TV REMEDIOS",
      "house": "2",
      "postcode": "2530-803",
      "city": "VIMEIRO LNH",
      "lon": "-9.303159023951075",
      "lat": "39.19075424677286"
    },
    {
      "id": "pt.ine.add.PTCONT.2580512",
      "street": "TV REMEDIOS",
      "house": "6",
      "postcode": "2530-803",
      "city": "VIMEIRO LNH",
      "lon": "-9.303079360220647",
      "lat": "39.19083611050306"
    },
    {
      "id": "pt.ine.add.PTCONT.2589138",
      "street": "R DR RAUL ANTÓNIO BARBOSA VIANA",
      "house": "25",
      "postcode": "2530-797",
      "city": "VIMEIRO LNH",
      "lon": "-9.302755477738305",
      "lat": "39.19084836975736"
    },
    {
      "id": "pt.ine.add.PTCONT.2660495",
      "street": "R DR RAUL ANTÓNIO BARBOSA VIANA",
      "house": "27",
      "postcode": "2530-797",
      "city": "VIMEIRO LNH",
      "lon": "-9.302966621235129",
      "lat": "39.1910173841314"
    },
    {
      "id": "pt.ine.add.PTCONT.2668652",
      "street": "R BARROS",
      "house": "1",
      "postcode": "2530-789",
      "city": "VIMEIRO LNH",
      "lon": "-9.303037699557132",
      "lat": "39.19111574818018"
    },
    {
      "id": "pt.ine.add.PTCONT.2677549",
      "street": "R BARROS",
      "house": "5 A",
      "postcode": "2530-789",
      "city": "VIMEIRO LNH",
      "lon": "-9.303265716181123",
      "lat": "39.190906295445366"
    },
    {
      "id": "pt.ine.add.PTCONT.2876905",
      "street": "R BARROS",
      "house": "3",
      "postcode": "2530-789",
      "city": "VIMEIRO LNH",
      "lon": "-9.30299491756604",
      "lat": "39.190629795781255"
    },
    {
      "id": "pt.ine.add.PTCONT.2876906",
      "street": "TV REMEDIOS",
      "house": "",
      "postcode": "2530-803",
      "city": "VIMEIRO LNH",
      "lon": "-9.302820732368188",
      "lat": "39.19059551649882"
    },
    {
      "id": "pt.ine.add.PTCONT.3021034",
      "street": "R BARROS",
      "house": "5",
      "postcode": "2530-789",
      "city": "VIMEIRO LNH",
      "lon": "-9.303521657415448",
      "lat": "39.190984788097786"
    },
    {
      "id": "pt.ine.add.PTCONT.3033877",
      "street": "R BARROS",
      "house": "5 F",
      "postcode": "2530-789",
      "city": "VIMEIRO LNH",
      "lon": "-9.303460657179853",
      "lat": "39.19079625236012"
    },
    {
      "id": "pt.ine.add.PTCONT.3039056",
      "street": "R DR RAUL ANTÓNIO BARBOSA VIANA",
      "house": "23",
      "postcode": "2530-797",
      "city": "VIMEIRO LNH",
      "lon": "-9.302695674040693",
      "lat": "39.190731878189844"
    },
    {
      "id": "pt.ine.add.PTCONT.3141218",
      "street": "TV REMEDIOS",
      "house": "1",
      "postcode": "2530-803",
      "city": "VIMEIRO LNH",
      "lon": "-9.303039714281807",
      "lat": "39.19053927518075"
    },
    {
      "id": "pt.ine.add.PTCONT.3179180",
      "street": "R SAUDADE",
      "house": "2",
      "postcode": "2530-783",
      "city": "VIMEIRO LNH",
      "lon": "-9.302831409012112",
      "lat": "39.19054136685066"
    },
    {
      "id": "pt.ine.add.PTCONT.3263891",
      "street": "R SAUDADE",
      "house": "7",
      "postcode": "2530-783",
      "city": "VIMEIRO LNH",
      "lon": "-9.302916149729468",
      "lat": "39.19076569285346"
    },
    {
      "id": "pt.ine.add.PTCONT.3373797",
      "street": "R BARROS",
      "house": "5 B",
      "postcode": "2530-789",
      "city": "VIMEIRO LNH",
      "lon": "-9.303313350866373",
      "lat": "39.190986880649106"
    }
  ]
}