{
  "data": {
    "distrito": "Faro",
    "concelho": "Tavira",
    "freguesia": "União das freguesias de Luz de Tavira e Santo Estêvão",
    "OBJECTID": 805,
    "BGRI2021": "08141100505",
    "DT21": "08",
    "DTMN21": "0814",
    "DTMNFR21": "081411",
    "DTMNFRSEC21": "081411005",
    "SECNUM21": "005",
    "SSNUM21": "05",
    "SECSSNUM21": "00505",
    "OBJECTID_1": 73153,
    "DT": "08",
    "CC": "14",
    "fr": "11",
    "SEC": "005",
    "SS": "05"
  },
  "addresses": [
    {
      "id": "pt.ine.add.PTCONT.1468700",
      "street": "SIT BELMONTE",
      "house": "CP 1485 E",
      "postcode": "8800-117",
      "city": "LUZ TVR",
      "lon": "-7.743140100191446",
      "lat": "37.09404651375997"
    },
    {
      "id": "pt.ine.add.PTCONT.1468701",
      "street": "SIT BELMONTE",
      "house": "CP 1485 E",
      "postcode": "8800-117",
      "city": "LUZ TVR",
      "lon": "-7.743140100191446",
      "lat": "37.09404651375997"
    },
    {
      "id": "pt.ine.add.PTCONT.1474350",
      "street": "SIT BELMONTE",
      "house": "CP 1483 G",
      "postcode": "8800-117",
      "city": "LUZ TVR",
      "lon": "-7.743496348462821",
      "lat": "37.09476853455934"
    },
    {
      "id": "pt.ine.add.PTCONT.1474594",
      "street": "SIT MARAGOTA",
      "house": "",
      "postcode": "8800-102",
      "city": "LUZ TVR",
      "lon": "-7.749400364884814",
      "lat": "37.08611955828693"
    },
    {
      "id": "pt.ine.add.PTCONT.1494718",
      "street": "SIT PEREIRINHAS",
      "house": "",
      "postcode": "8800-102",
      "city": "LUZ TVR",
      "lon": "-7.747164717300656",
      "lat": "37.09227557623986"
    },
    {
      "id": "pt.ine.add.PTCONT.1494719",
      "street": "SIT PEREIRINHAS",
      "house": "",
      "postcode": "8800-102",
      "city": "LUZ TVR",
      "lon": "-7.747164717300656",
      "lat": "37.09227557623986"
    },
    {
      "id": "pt.ine.add.PTCONT.1512006",
      "street": "SIT PEREIRINHAS",
      "house": "",
      "postcode": "8800-102",
      "city": "LUZ TVR",
      "lon": "-7.750106798072159",
      "lat": "37.093249251701195"
    },
    {
      "id": "pt.ine.add.PTCONT.1512007",
      "street": "SIT PEREIRINHAS",
      "house": "",
      "postcode": "8800-102",
      "city": "LUZ TVR",
      "lon": "-7.750106798072159",
      "lat": "37.093249251701195"
    },
    {
      "id": "pt.ine.add.PTCONT.1536355",
      "street": "SIT BELOMONTE QTA ESPELHO MAE",
      "house": "",
      "postcode": "8800-105",
      "city": "LUZ TVR",
      "lon": "-7.741523332668341",
      "lat": "37.08909435206695"
    },
    {
      "id": "pt.ine.add.PTCONT.1540876",
      "street": "SIT BELOMONTE FAMILIE STUBBENDORFF",
      "house": "",
      "postcode": "8800-105",
      "city": "LUZ TVR",
      "lon": "-7.743016136963482",
      "lat": "37.08970298401402"
    },
    {
      "id": "pt.ine.add.PTCONT.1540877",
      "street": "SIT BELOMONTE FAMILIE STUBBENDORFF",
      "house": "",
      "postcode": "8800-105",
      "city": "LUZ TVR",
      "lon": "-7.743016136963482",
      "lat": "37.08970298401402"
    },
    {
      "id": "pt.ine.add.PTCONT.1555898",
      "street": "SIT MARAGOTA",
      "house": "CP 505",
      "postcode": "8800-102",
      "city": "LUZ TVR",
      "lon": "-7.749603535890713",
      "lat": "37.08597604525303"
    },
    {
      "id": "pt.ine.add.PTCONT.1556772",
      "street": "SIT MARAGOTA",
      "house": "CCI 210 Z",
      "postcode": "8700-078",
      "city": "MONCARAPACHO",
      "lon": "-7.7493475371921035",
      "lat": "37.085443589527735"
    },
    {
      "id": "pt.ine.add.PTCONT.1564500",
      "street": "SIT BELMONTE",
      "house": "",
      "postcode": "8800-102",
      "city": "LUZ TVR",
      "lon": "-7.746246372234766",
      "lat": "37.08706443930979"
    },
    {
      "id": "pt.ine.add.PTCONT.1579360",
      "street": "SIT QUINTA VELHA QTA VELHA",
      "house": "",
      "postcode": "8800-105",
      "city": "LUZ TVR",
      "lon": "-7.739888695738578",
      "lat": "37.08981880435462"
    },
    {
      "id": "pt.ine.add.PTCONT.1579361",
      "street": "SIT QUINTA VELHA QTA VELHA",
      "house": "",
      "postcode": "8800-105",
      "city": "LUZ TVR",
      "lon": "-7.739888695738578",
      "lat": "37.08981880435462"
    },
    {
      "id": "pt.ine.add.PTCONT.1584879",
      "street": "SIT BELOMONTE",
      "house": "",
      "postcode": "8800-105",
      "city": "LUZ TVR",
      "lon": "-7.742068802953769",
      "lat": "37.09238503115246"
    },
    {
      "id": "pt.ine.add.PTCONT.1599383",
      "street": "SIT BELMONTE",
      "house": "CP 199",
      "postcode": "8800-102",
      "city": "LUZ TVR",
      "lon": "-7.745585502134397",
      "lat": "37.08653065422715"
    },
    {
      "id": "pt.ine.add.PTCONT.1599384",
      "street": "SIT BELMONTE",
      "house": "CP 199",
      "postcode": "8800-102",
      "city": "LUZ TVR",
      "lon": "-7.745585502134397",
      "lat": "37.08653065422715"
    },
    {
      "id": "pt.ine.add.PTCONT.1601834",
      "street": "SIT BELOMONTE",
      "house": "",
      "postcode": "8800-105",
      "city": "LUZ TVR",
      "lon": "-7.7444116948719355",
      "lat": "37.089536364292286"
    },
    {
      "id": "pt.ine.add.PTCONT.1601835",
      "street": "SIT BELOMONTE",
      "house": "",
      "postcode": "8800-105",
      "city": "LUZ TVR",
      "lon": "-7.7444116948719355",
      "lat": "37.089536364292286"
    },
    {
      "id": "pt.ine.add.PTCONT.1601836",
      "street": "SIT BELMONTE",
      "house": "",
      "postcode": "8800-102",
      "city": "LUZ TVR",
      "lon": "-7.745911985449043",
      "lat": "37.08646864613716"
    },
    {
      "id": "pt.ine.add.PTCONT.1601837",
      "street": "SIT BELMONTE",
      "house": "CP 1485 G",
      "postcode": "8800-117",
      "city": "LUZ TVR",
      "lon": "-7.743795854424088",
      "lat": "37.09339089279684"
    },
    {
      "id": "pt.ine.add.PTCONT.1613527",
      "street": "SIT MARAGOTA",
      "house": "506 Z",
      "postcode": "8800-102",
      "city": "LUZ TVR",
      "lon": "-7.741510712168554",
      "lat": "37.08717504580928"
    },
    {
      "id": "pt.ine.add.PTCONT.1617450",
      "street": "SIT MARAGOTA CASA FLOR DA LARANJEIRA",
      "house": "",
      "postcode": "8800-102",
      "city": "LUZ TVR",
      "lon": "-7.74884994780578",
      "lat": "37.08598261663572"
    },
    {
      "id": "pt.ine.add.PTCONT.1623396",
      "street": "SIT MARAGOTA",
      "house": "",
      "postcode": "8800-102",
      "city": "LUZ TVR",
      "lon": "-7.748575151673749",
      "lat": "37.08694586407062"
    },
    {
      "id": "pt.ine.add.PTCONT.1638102",
      "street": "SIT BELOMONTE CASA QTA VELHA",
      "house": "",
      "postcode": "8800-105",
      "city": "LUZ TVR",
      "lon": "-7.740667836855947",
      "lat": "37.089226683660875"
    },
    {
      "id": "pt.ine.add.PTCONT.1657595",
      "street": "SIT BELMONTE CASA GOLFINHOS",
      "house": "",
      "postcode": "8800-102",
      "city": "LUZ TVR",
      "lon": "-7.741972073623679",
      "lat": "37.08713151513951"
    },
    {
      "id": "pt.ine.add.PTCONT.1657596",
      "street": "SIT BELMONTE CASA GOLFINHOS",
      "house": "",
      "postcode": "8800-102",
      "city": "LUZ TVR",
      "lon": "-7.741972073623679",
      "lat": "37.08713151513951"
    },
    {
      "id": "pt.ine.add.PTCONT.1660501",
      "street": "SIT BELMONTE",
      "house": "",
      "postcode": "8800-102",
      "city": "LUZ TVR",
      "lon": "-7.747746109035288",
      "lat": "37.08630341794792"
    },
    {
      "id": "pt.ine.add.PTCONT.1674788",
      "street": "SIT BELOMONTE CASA QTA VELHA",
      "house": "",
      "postcode": "8800-105",
      "city": "LUZ TVR",
      "lon": "-7.740898784885442",
      "lat": "37.09024564877768"
    },
    {
      "id": "pt.ine.add.PTCONT.1674793",
      "street": "SIT BELMONTE QTA VELHA",
      "house": "",
      "postcode": "8800-117",
      "city": "LUZ TVR",
      "lon": "-7.740343615905588",
      "lat": "37.08884716386261"
    },
    {
      "id": "pt.ine.add.PTCONT.1675836",
      "street": "SIT PEREIRINHAS",
      "house": "",
      "postcode": "8800-102",
      "city": "LUZ TVR",
      "lon": "-7.748881814643023",
      "lat": "37.09303804468294"
    },
    {
      "id": "pt.ine.add.PTCONT.1705750",
      "street": "SIT BELMONTE",
      "house": "CP 503 Z",
      "postcode": "8800-102",
      "city": "LUZ TVR",
      "lon": "-7.745853137665925",
      "lat": "37.08698206020556"
    },
    {
      "id": "pt.ine.add.PTCONT.1708542",
      "street": "SIT BELOMONTE",
      "house": "",
      "postcode": "8800-105",
      "city": "LUZ TVR",
      "lon": "-7.74207010154841",
      "lat": "37.089943155401386"
    },
    {
      "id": "pt.ine.add.PTCONT.1711712",
      "street": "SIT BELMONTE",
      "house": "CP 509 Z",
      "postcode": "8800-102",
      "city": "LUZ TVR",
      "lon": "-7.747016519730753",
      "lat": "37.08601270464607"
    },
    {
      "id": "pt.ine.add.PTCONT.1714448",
      "street": "SIT BELMONTE",
      "house": "",
      "postcode": "8800-117",
      "city": "LUZ TVR",
      "lon": "-7.741701958720605",
      "lat": "37.087166666509326"
    },
    {
      "id": "pt.ine.add.PTCONT.1725872",
      "street": "SIT BELMONTE",
      "house": "",
      "postcode": "8800-102",
      "city": "LUZ TVR",
      "lon": "-7.745827617825667",
      "lat": "37.08757667874397"
    },
    {
      "id": "pt.ine.add.PTCONT.1737363",
      "street": "SIT BELOMONTE QTA PAPAGAIO",
      "house": "",
      "postcode": "8800-105",
      "city": "LUZ TVR",
      "lon": "-7.742634509628194",
      "lat": "37.08954854738807"
    },
    {
      "id": "pt.ine.add.PTCONT.1747041",
      "street": "SIT BELOMONTE",
      "house": "CP 1458 T",
      "postcode": "8800-105",
      "city": "LUZ TVR",
      "lon": "-7.740687323593312",
      "lat": "37.09635415216523"
    },
    {
      "id": "pt.ine.add.PTCONT.1758722",
      "street": "SIT BELOMONTE",
      "house": "CP 1473 G",
      "postcode": "8800-105",
      "city": "LUZ TVR",
      "lon": "-7.74150003908289",
      "lat": "37.095807191006706"
    },
    {
      "id": "pt.ine.add.PTCONT.1758923",
      "street": "SIT BELOMONTE",
      "house": "CP 1458 T",
      "postcode": "8800-105",
      "city": "LUZ TVR",
      "lon": "-7.7408794293233205",
      "lat": "37.096183585957675"
    },
    {
      "id": "pt.ine.add.PTCONT.1759033",
      "street": "SIT BELOMONTE",
      "house": "CP 1473 G",
      "postcode": "8800-105",
      "city": "LUZ TVR",
      "lon": "-7.74150003908289",
      "lat": "37.095807191006706"
    },
    {
      "id": "pt.ine.add.PTCONT.1768191",
      "street": "SIT BELMONTE",
      "house": "CP 1483 G",
      "postcode": "8800-117",
      "city": "LUZ TVR",
      "lon": "-7.743057484077941",
      "lat": "37.09480313436653"
    },
    {
      "id": "pt.ine.add.PTCONT.1780199",
      "street": "SIT BELMONTE",
      "house": "",
      "postcode": "8800-117",
      "city": "LUZ TVR",
      "lon": "-7.737202381314626",
      "lat": "37.08945845236287"
    },
    {
      "id": "pt.ine.add.PTCONT.1818820",
      "street": "SIT BELOMONTE",
      "house": "CP 1471 G",
      "postcode": "8800-105",
      "city": "LUZ TVR",
      "lon": "-7.74079167197827",
      "lat": "37.095750785912735"
    },
    {
      "id": "pt.ine.add.PTCONT.1829404",
      "street": "SIT BELOMONTE",
      "house": "",
      "postcode": "8800-105",
      "city": "LUZ TVR",
      "lon": "-7.745518760437029",
      "lat": "37.08859387128883"
    },
    {
      "id": "pt.ine.add.PTCONT.1835077",
      "street": "SIT FAZENDA DA MARAGOTA",
      "house": "APART 174",
      "postcode": "8800-118",
      "city": "LUZ TVR",
      "lon": "-7.750482317331206",
      "lat": "37.09015080750594"
    },
    {
      "id": "pt.ine.add.PTCONT.1835078",
      "street": "SIT FAZENDA DA MARAGOTA",
      "house": "APART 174",
      "postcode": "8800-118",
      "city": "LUZ TVR",
      "lon": "-7.750482317331206",
      "lat": "37.09015080750594"
    },
    {
      "id": "pt.ine.add.PTCONT.1835079",
      "street": "SIT PEREIRINHAS",
      "house": "CP 1497 G",
      "postcode": "8800-102",
      "city": "LUZ TVR",
      "lon": "-7.749678512245796",
      "lat": "37.0934190696099"
    },
    {
      "id": "pt.ine.add.PTCONT.1835413",
      "street": "SIT FAZENDA DA MARAGOTA",
      "house": "APART 174",
      "postcode": "8800-118",
      "city": "LUZ TVR",
      "lon": "-7.750482317331206",
      "lat": "37.09015080750594"
    },
    {
      "id": "pt.ine.add.PTCONT.1840352",
      "street": "SIT BELMONTE CASA DO BELOMONTE",
      "house": "CP 1475 G",
      "postcode": "8800-105",
      "city": "LUZ TVR",
      "lon": "-7.7417498661456445",
      "lat": "37.09534847410075"
    },
    {
      "id": "pt.ine.add.PTCONT.1843277",
      "street": "SIT BELOMONTE",
      "house": "CP 1471 G",
      "postcode": "8800-105",
      "city": "LUZ TVR",
      "lon": "-7.740770011539588",
      "lat": "37.09558852308777"
    }
  ]
}