{
  "data": {
    "distrito": "Aveiro",
    "concelho": "Oliveira do Bairro",
    "freguesia": "Oliveira do Bairro",
    "OBJECTID": 89,
    "BGRI2021": "01140400615",
    "DT21": "01",
    "DTMN21": "0114",
    "DTMNFR21": "011404",
    "DTMNFRSEC21": "011404006",
    "SECNUM21": "006",
    "SSNUM21": "15",
    "SECSSNUM21": "00615",
    "OBJECTID_1": 9904,
    "DT": "01",
    "CC": "14",
    "fr": "04",
    "SEC": "006",
    "SS": "15"
  },
  "addresses": [
    {
      "id": "pt.ine.add.PTCONT.301813",
      "street": "TV AIDOS",
      "house": "2",
      "postcode": "3770-106",
      "city": "OLIVEIRA DO BAIRRO",
      "lon": "-8.47564490297032",
      "lat": "40.523388373189825"
    },
    {
      "id": "pt.ine.add.PTCONT.311222",
      "street": "R LAVOURAS",
      "house": "22",
      "postcode": "3770-302",
      "city": "OLIVEIRA DO BAIRRO",
      "lon": "-8.47814233704929",
      "lat": "40.5225344394929"
    },
    {
      "id": "pt.ine.add.PTCONT.333804",
      "street": "R NSA SRA DOS MILAGRES",
      "house": "6",
      "postcode": "3770-106",
      "city": "OLIVEIRA DO BAIRRO",
      "lon": "-8.47584129724681",
      "lat": "40.522559297990966"
    },
    {
      "id": "pt.ine.add.PTCONT.333809",
      "street": "R INDUSTRIAL",
      "house": "64",
      "postcode": "3770-224",
      "city": "OLIVEIRA DO BAIRRO",
      "lon": "-8.478220323375007",
      "lat": "40.521633670787416"
    },
    {
      "id": "pt.ine.add.PTCONT.336775",
      "street": "R NSA SRA DOS MILAGRES",
      "house": "6 A",
      "postcode": "3770-106",
      "city": "OLIVEIRA DO BAIRRO",
      "lon": "-8.47593506038628",
      "lat": "40.52243294484147"
    },
    {
      "id": "pt.ine.add.PTCONT.341881",
      "street": "R PADRE ACURCIO",
      "house": "89",
      "postcode": "3770-302",
      "city": "OLIVEIRA DO BAIRRO",
      "lon": "-8.476567297797331",
      "lat": "40.523763860202344"
    },
    {
      "id": "pt.ine.add.PTCONT.343297",
      "street": "R NSA SRA DOS MILAGRES",
      "house": "15 A",
      "postcode": "3770-106",
      "city": "OLIVEIRA DO BAIRRO",
      "lon": "-8.475651982122846",
      "lat": "40.52246080040656"
    },
    {
      "id": "pt.ine.add.PTCONT.348724",
      "street": "TV SAIMEIROS",
      "house": "1",
      "postcode": "3770-106",
      "city": "OLIVEIRA DO BAIRRO",
      "lon": "-8.476448415864079",
      "lat": "40.52359311173016"
    },
    {
      "id": "pt.ine.add.PTCONT.351000",
      "street": "R NSA SRA DOS MILAGRES",
      "house": "15",
      "postcode": "3770-106",
      "city": "OLIVEIRA DO BAIRRO",
      "lon": "-8.475674620737625",
      "lat": "40.522271620774696"
    },
    {
      "id": "pt.ine.add.PTCONT.22396",
      "street": "R PADRE ACURCIO",
      "house": "81",
      "postcode": "3770-302",
      "city": "OLIVEIRA DO BAIRRO",
      "lon": "-8.47601219703453",
      "lat": "40.52367545523368"
    },
    {
      "id": "pt.ine.add.PTCONT.23481",
      "street": "R SANTO NOME JESUS",
      "house": "20",
      "postcode": "3770-106",
      "city": "OLIVEIRA DO BAIRRO",
      "lon": "-8.477601717845607",
      "lat": "40.52066293778741"
    },
    {
      "id": "pt.ine.add.PTCONT.39169",
      "street": "TV SAIMEIROS",
      "house": "3",
      "postcode": "3770-106",
      "city": "OLIVEIRA DO BAIRRO",
      "lon": "-8.476660371573935",
      "lat": "40.523502428197624"
    },
    {
      "id": "pt.ine.add.PTCONT.93523",
      "street": "R SANTO NOME JESUS",
      "house": "16",
      "postcode": "3770-106",
      "city": "OLIVEIRA DO BAIRRO",
      "lon": "-8.477012298824413",
      "lat": "40.52078176314617"
    },
    {
      "id": "pt.ine.add.PTCONT.103926",
      "street": "R INDUSTRIAL",
      "house": "70",
      "postcode": "3770-224",
      "city": "OLIVEIRA DO BAIRRO",
      "lon": "-8.478212078874108",
      "lat": "40.52232710800317"
    },
    {
      "id": "pt.ine.add.PTCONT.111196",
      "street": "R NSA SRA DOS MILAGRES",
      "house": "13",
      "postcode": "3770-106",
      "city": "OLIVEIRA DO BAIRRO",
      "lon": "-8.475629435059888",
      "lat": "40.52266799047193"
    },
    {
      "id": "pt.ine.add.PTCONT.116929",
      "street": "R INDUSTRIAL",
      "house": "78",
      "postcode": "3770-224",
      "city": "OLIVEIRA DO BAIRRO",
      "lon": "-8.477662290471706",
      "lat": "40.52327431114436"
    },
    {
      "id": "pt.ine.add.PTCONT.128004",
      "street": "R PADRE ACURCIO",
      "house": "79",
      "postcode": "3770-302",
      "city": "OLIVEIRA DO BAIRRO",
      "lon": "-8.475905805651147",
      "lat": "40.523639749475905"
    },
    {
      "id": "pt.ine.add.PTCONT.129274",
      "street": "R NSA SRA DOS MILAGRES",
      "house": "8",
      "postcode": "3770-106",
      "city": "OLIVEIRA DO BAIRRO",
      "lon": "-8.47620509807408",
      "lat": "40.52216198263218"
    },
    {
      "id": "pt.ine.add.PTCONT.135686",
      "street": "R NSA SRA MILAGRES",
      "house": "4",
      "postcode": "3770-106",
      "city": "OLIVEIRA DO BAIRRO",
      "lon": "-8.475819346959872",
      "lat": "40.522883555965336"
    },
    {
      "id": "pt.ine.add.PTCONT.157701",
      "street": "TV AIDOS",
      "house": "1",
      "postcode": "3770-106",
      "city": "OLIVEIRA DO BAIRRO",
      "lon": "-8.47589166519856",
      "lat": "40.52318051824358"
    },
    {
      "id": "pt.ine.add.PTCONT.181513",
      "street": "R INDUSTRIAL",
      "house": "76",
      "postcode": "3770-224",
      "city": "OLIVEIRA DO BAIRRO",
      "lon": "-8.477837595551664",
      "lat": "40.5229405900965"
    },
    {
      "id": "pt.ine.add.PTCONT.191157",
      "street": "TV AIDOS",
      "house": "4",
      "postcode": "3770-106",
      "city": "OLIVEIRA DO BAIRRO",
      "lon": "-8.47562075126732",
      "lat": "40.523280380500836"
    },
    {
      "id": "pt.ine.add.PTCONT.196657",
      "street": "R PADRE ACURCIO",
      "house": "83",
      "postcode": "3770-302",
      "city": "OLIVEIRA DO BAIRRO",
      "lon": "-8.476165792055609",
      "lat": "40.523711020763606"
    },
    {
      "id": "pt.ine.add.PTCONT.207334",
      "street": "TV AIDOS",
      "house": "6",
      "postcode": "3770-106",
      "city": "OLIVEIRA DO BAIRRO",
      "lon": "-8.47592766398514",
      "lat": "40.52329748108727"
    },
    {
      "id": "pt.ine.add.PTCONT.221199",
      "street": "R SANTO NOME JESUS",
      "house": "18",
      "postcode": "3770-106",
      "city": "OLIVEIRA DO BAIRRO",
      "lon": "-8.477259784147982",
      "lat": "40.52071798881707"
    },
    {
      "id": "pt.ine.add.PTCONT.242835",
      "street": "R SANTO NOME JESUS",
      "house": "26",
      "postcode": "3770-106",
      "city": "OLIVEIRA DO BAIRRO",
      "lon": "-8.478206583268895",
      "lat": "40.5212554867364"
    },
    {
      "id": "pt.ine.add.PTCONT.280633",
      "street": "R INDUSTRIAL",
      "house": "66",
      "postcode": "3770-224",
      "city": "OLIVEIRA DO BAIRRO",
      "lon": "-8.478280619293821",
      "lat": "40.52188564073707"
    }
  ]
}