{
  "data": {
    "ilha": "Ilha da Madeira (Madeira)",
    "concelho": "Funchal",
    "freguesia": "SÃ£o Martinho",
    "OBJECTID": 301,
    "BGRI2021": "31030700104",
    "DT21": "31",
    "DTMN21": "3103",
    "DTMNFR21": "310307",
    "DTMNFRSEC21": "310307001",
    "SECNUM21": "001",
    "SSNUM21": "04",
    "SECSSNUM21": "00104",
    "OBJECTID_1": 204233,
    "DT": "31",
    "CC": "03",
    "fr": "07",
    "SEC": "001",
    "SS": "04",
    "BGRI2021_1": "31030700104"
  },
  "addresses": [
    {
      "id": "pt.ine.add.MAD.12770",
      "street": "RAMP RUA VELHA AJUDA",
      "house": "23 B",
      "postcode": "9000-111",
      "city": "FUNCHAL",
      "lon": "-16.93806017224943",
      "lat": "32.63989036726986"
    },
    {
      "id": "pt.ine.add.MAD.12771",
      "street": "R BAIRRO AJUDA",
      "house": "64",
      "postcode": "9000-117",
      "city": "FUNCHAL",
      "lon": "-16.937156389493065",
      "lat": "32.63999450771611"
    },
    {
      "id": "pt.ine.add.MAD.12772",
      "street": "R BAIRRO AJUDA",
      "house": "64",
      "postcode": "9000-117",
      "city": "FUNCHAL",
      "lon": "-16.937156389493065",
      "lat": "32.63999450771611"
    },
    {
      "id": "pt.ine.add.MAD.12773",
      "street": "R BAIRRO AJUDA",
      "house": "64",
      "postcode": "9000-117",
      "city": "FUNCHAL",
      "lon": "-16.937156389493065",
      "lat": "32.63999450771611"
    },
    {
      "id": "pt.ine.add.MAD.12774",
      "street": "R BAIRRO AJUDA",
      "house": "64",
      "postcode": "9000-117",
      "city": "FUNCHAL",
      "lon": "-16.937156389493065",
      "lat": "32.63999450771611"
    },
    {
      "id": "pt.ine.add.MAD.12775",
      "street": "R BAIRRO AJUDA",
      "house": "64",
      "postcode": "9000-117",
      "city": "FUNCHAL",
      "lon": "-16.937156389493065",
      "lat": "32.63999450771611"
    },
    {
      "id": "pt.ine.add.MAD.12776",
      "street": "R BAIRRO AJUDA",
      "house": "4 B",
      "postcode": "9000-117",
      "city": "FUNCHAL",
      "lon": "-16.937156389493065",
      "lat": "32.63999450771611"
    },
    {
      "id": "pt.ine.add.MAD.13482",
      "street": "R BAIRRO AJUDA",
      "house": "",
      "postcode": "9000-117",
      "city": "FUNCHAL",
      "lon": "-16.93694560942979",
      "lat": "32.640105985654486"
    },
    {
      "id": "pt.ine.add.MAD.13483",
      "street": "R BAIRRO AJUDA",
      "house": "",
      "postcode": "9000-117",
      "city": "FUNCHAL",
      "lon": "-16.93694560942979",
      "lat": "32.640105985654486"
    },
    {
      "id": "pt.ine.add.MAD.13484",
      "street": "R BAIRRO AJUDA",
      "house": "",
      "postcode": "9000-117",
      "city": "FUNCHAL",
      "lon": "-16.93694560942979",
      "lat": "32.640105985654486"
    },
    {
      "id": "pt.ine.add.MAD.13485",
      "street": "R BAIRRO AJUDA",
      "house": "",
      "postcode": "9000-117",
      "city": "FUNCHAL",
      "lon": "-16.93694560942979",
      "lat": "32.640105985654486"
    },
    {
      "id": "pt.ine.add.MAD.13486",
      "street": "R BAIRRO AJUDA",
      "house": "",
      "postcode": "9000-117",
      "city": "FUNCHAL",
      "lon": "-16.93694560942979",
      "lat": "32.640105985654486"
    },
    {
      "id": "pt.ine.add.MAD.13487",
      "street": "R BAIRRO AJUDA",
      "house": "",
      "postcode": "9000-117",
      "city": "FUNCHAL",
      "lon": "-16.93694560942979",
      "lat": "32.640105985654486"
    },
    {
      "id": "pt.ine.add.MAD.13488",
      "street": "R BAIRRO AJUDA",
      "house": "",
      "postcode": "9000-117",
      "city": "FUNCHAL",
      "lon": "-16.93694560942979",
      "lat": "32.640105985654486"
    },
    {
      "id": "pt.ine.add.MAD.14203",
      "street": "R BAIRRO AJUDA",
      "house": "",
      "postcode": "9000-117",
      "city": "FUNCHAL",
      "lon": "-16.93640722400381",
      "lat": "32.6403487805246"
    },
    {
      "id": "pt.ine.add.MAD.14204",
      "street": "R BAIRRO AJUDA",
      "house": "",
      "postcode": "9000-117",
      "city": "FUNCHAL",
      "lon": "-16.93640722400381",
      "lat": "32.6403487805246"
    },
    {
      "id": "pt.ine.add.MAD.14205",
      "street": "R BAIRRO AJUDA",
      "house": "",
      "postcode": "9000-117",
      "city": "FUNCHAL",
      "lon": "-16.93640722400381",
      "lat": "32.6403487805246"
    },
    {
      "id": "pt.ine.add.MAD.14206",
      "street": "R BAIRRO AJUDA",
      "house": "",
      "postcode": "9000-117",
      "city": "FUNCHAL",
      "lon": "-16.93640722400381",
      "lat": "32.6403487805246"
    },
    {
      "id": "pt.ine.add.MAD.14207",
      "street": "R BAIRRO AJUDA",
      "house": "",
      "postcode": "9000-117",
      "city": "FUNCHAL",
      "lon": "-16.93640722400381",
      "lat": "32.6403487805246"
    },
    {
      "id": "pt.ine.add.MAD.14208",
      "street": "R BAIRRO AJUDA",
      "house": "",
      "postcode": "9000-117",
      "city": "FUNCHAL",
      "lon": "-16.93640722400381",
      "lat": "32.6403487805246"
    },
    {
      "id": "pt.ine.add.MAD.14209",
      "street": "R BAIRRO AJUDA",
      "house": "",
      "postcode": "9000-117",
      "city": "FUNCHAL",
      "lon": "-16.93640722400381",
      "lat": "32.6403487805246"
    },
    {
      "id": "pt.ine.add.MAD.14210",
      "street": "R BAIRRO AJUDA",
      "house": "",
      "postcode": "9000-117",
      "city": "FUNCHAL",
      "lon": "-16.93640722400381",
      "lat": "32.6403487805246"
    },
    {
      "id": "pt.ine.add.MAD.14211",
      "street": "R BAIRRO AJUDA",
      "house": "",
      "postcode": "9000-117",
      "city": "FUNCHAL",
      "lon": "-16.93640722400381",
      "lat": "32.6403487805246"
    },
    {
      "id": "pt.ine.add.MAD.14882",
      "street": "R BAIRRO AJUDA",
      "house": "",
      "postcode": "9000-117",
      "city": "FUNCHAL",
      "lon": "-16.93640722400381",
      "lat": "32.6403487805246"
    },
    {
      "id": "pt.ine.add.MAD.14883",
      "street": "R BAIRRO AJUDA",
      "house": "",
      "postcode": "9000-117",
      "city": "FUNCHAL",
      "lon": "-16.93640722400381",
      "lat": "32.6403487805246"
    },
    {
      "id": "pt.ine.add.MAD.14884",
      "street": "LEV PIORNAIS",
      "house": "85",
      "postcode": "9000-122",
      "city": "FUNCHAL",
      "lon": "-16.934216812766596",
      "lat": "32.64059900722923"
    },
    {
      "id": "pt.ine.add.MAD.14885",
      "street": "LEV PIORNAIS",
      "house": "83",
      "postcode": "9000-122",
      "city": "FUNCHAL",
      "lon": "-16.934016877217953",
      "lat": "32.64071933194353"
    },
    {
      "id": "pt.ine.add.MAD.14886",
      "street": "LEV PIORNAIS",
      "house": "29",
      "postcode": "9000-122",
      "city": "FUNCHAL",
      "lon": "-16.934615711561296",
      "lat": "32.640313278208616"
    },
    {
      "id": "pt.ine.add.MAD.14887",
      "street": "R BAIRRO AJUDA",
      "house": "56",
      "postcode": "9000-117",
      "city": "FUNCHAL",
      "lon": "-16.935679336268162",
      "lat": "32.64020669075184"
    },
    {
      "id": "pt.ine.add.MAD.14888",
      "street": "R BAIRRO AJUDA",
      "house": "28",
      "postcode": "9000-117",
      "city": "FUNCHAL",
      "lon": "-16.935679336268162",
      "lat": "32.64020669075184"
    },
    {
      "id": "pt.ine.add.MAD.14889",
      "street": "R BAIRRO AJUDA",
      "house": "1 B",
      "postcode": "9000-117",
      "city": "FUNCHAL",
      "lon": "-16.935679336268162",
      "lat": "32.64020669075184"
    },
    {
      "id": "pt.ine.add.MAD.14890",
      "street": "R BAIRRO AJUDA",
      "house": "56",
      "postcode": "9000-117",
      "city": "FUNCHAL",
      "lon": "-16.935679336268162",
      "lat": "32.64020669075184"
    },
    {
      "id": "pt.ine.add.MAD.14891",
      "street": "R BAIRRO AJUDA",
      "house": "56",
      "postcode": "9000-117",
      "city": "FUNCHAL",
      "lon": "-16.935679336268162",
      "lat": "32.64020669075184"
    },
    {
      "id": "pt.ine.add.MAD.15537",
      "street": "R BAIRRO AJUDA",
      "house": "56",
      "postcode": "9000-117",
      "city": "FUNCHAL",
      "lon": "-16.935679336268162",
      "lat": "32.64020669075184"
    },
    {
      "id": "pt.ine.add.MAD.15538",
      "street": "R BAIRRO AJUDA",
      "house": "56",
      "postcode": "9000-117",
      "city": "FUNCHAL",
      "lon": "-16.935679336268162",
      "lat": "32.64020669075184"
    },
    {
      "id": "pt.ine.add.MAD.15539",
      "street": "R BAIRRO AJUDA",
      "house": "56",
      "postcode": "9000-117",
      "city": "FUNCHAL",
      "lon": "-16.935679336268162",
      "lat": "32.64020669075184"
    },
    {
      "id": "pt.ine.add.MAD.15540",
      "street": "R BAIRRO AJUDA",
      "house": "3C",
      "postcode": "9000-117",
      "city": "FUNCHAL",
      "lon": "-16.935679336268162",
      "lat": "32.64020669075184"
    },
    {
      "id": "pt.ine.add.MAD.15541",
      "street": "R BAIRRO AJUDA",
      "house": "56",
      "postcode": "9000-117",
      "city": "FUNCHAL",
      "lon": "-16.935679336268162",
      "lat": "32.64020669075184"
    },
    {
      "id": "pt.ine.add.MAD.15542",
      "street": "R BAIRRO AJUDA",
      "house": "50",
      "postcode": "9000-117",
      "city": "FUNCHAL",
      "lon": "-16.93630471669158",
      "lat": "32.640043725370454"
    },
    {
      "id": "pt.ine.add.MAD.15543",
      "street": "R BAIRRO AJUDA MOR",
      "house": "MOR 44",
      "postcode": "9000-117",
      "city": "FUNCHAL",
      "lon": "-16.936378723193275",
      "lat": "32.64001552737313"
    },
    {
      "id": "pt.ine.add.MAD.15544",
      "street": "R BAIRRO AJUDA",
      "house": "57",
      "postcode": "9000-117",
      "city": "FUNCHAL",
      "lon": "-16.936435110369647",
      "lat": "32.640158956998555"
    },
    {
      "id": "pt.ine.add.MAD.15545",
      "street": "R BAIRRO AJUDA",
      "house": "45",
      "postcode": "9000-117",
      "city": "FUNCHAL",
      "lon": "-16.936484890840806",
      "lat": "32.639995851826455"
    },
    {
      "id": "pt.ine.add.MAD.16228",
      "street": "R BAIRRO AJUDA",
      "house": "48",
      "postcode": "9000-117",
      "city": "FUNCHAL",
      "lon": "-16.936611981020036",
      "lat": "32.63995781588944"
    },
    {
      "id": "pt.ine.add.MAD.16229",
      "street": "R BAIRRO AJUDA MORD",
      "house": "MORD 36",
      "postcode": "9000-117",
      "city": "FUNCHAL",
      "lon": "-16.93669567126553",
      "lat": "32.63988437464851"
    },
    {
      "id": "pt.ine.add.MAD.16230",
      "street": "R BAIRRO AJUDA",
      "house": "41",
      "postcode": "9000-117",
      "city": "FUNCHAL",
      "lon": "-16.93702385708774",
      "lat": "32.63978010387593"
    },
    {
      "id": "pt.ine.add.MAD.16231",
      "street": "R BAIRRO AJUDA",
      "house": "42",
      "postcode": "9000-117",
      "city": "FUNCHAL",
      "lon": "-16.937046140150635",
      "lat": "32.639824853586966"
    },
    {
      "id": "pt.ine.add.MAD.16232",
      "street": "R BAIRRO AJUDA",
      "house": "43",
      "postcode": "9000-117",
      "city": "FUNCHAL",
      "lon": "-16.93706881199006",
      "lat": "32.639887634744056"
    },
    {
      "id": "pt.ine.add.MAD.16233",
      "street": "RAMP RUA VELHA AJUDA",
      "house": "20",
      "postcode": "9000-111",
      "city": "FUNCHAL",
      "lon": "-16.938152336487576",
      "lat": "32.639221558461706"
    },
    {
      "id": "pt.ine.add.MAD.16234",
      "street": "R JOÃO PAULO II",
      "house": "11",
      "postcode": "9000-768",
      "city": "FUNCHAL",
      "lon": "-16.939733585494828",
      "lat": "32.638899511754545"
    },
    {
      "id": "pt.ine.add.MAD.16235",
      "street": "RAMP RUA VELHA AJUDA",
      "house": "15-17",
      "postcode": "9000-111",
      "city": "FUNCHAL",
      "lon": "-16.938170576857512",
      "lat": "32.63957300700616"
    },
    {
      "id": "pt.ine.add.MAD.53968",
      "street": "RAMP RUA VELHA AJUDA",
      "house": "20",
      "postcode": "9000-111",
      "city": "FUNCHAL",
      "lon": "-16.93882192802766",
      "lat": "32.63962607751409"
    },
    {
      "id": "pt.ine.add.MAD.53969",
      "street": "RAMP RUA VELHA AJUDA",
      "house": "24",
      "postcode": "9000-111",
      "city": "FUNCHAL",
      "lon": "-16.93838855082899",
      "lat": "32.63979510870539"
    },
    {
      "id": "pt.ine.add.MAD.57645",
      "street": "RAMP RUA VELHA AJUDA ALTO D AJUDA",
      "house": "21",
      "postcode": "9000-111",
      "city": "FUNCHAL",
      "lon": "-16.938578600692757",
      "lat": "32.63971100476703"
    },
    {
      "id": "pt.ine.add.MAD.57646",
      "street": "R BAIRRO AJUDA MORD",
      "house": "MORD 46",
      "postcode": "9000-117",
      "city": "FUNCHAL",
      "lon": "-16.936518412298803",
      "lat": "32.64006748440882"
    },
    {
      "id": "pt.ine.add.MAD.70830",
      "street": "R BAIRRO AJUDA",
      "house": "",
      "postcode": "9000-117",
      "city": "FUNCHAL",
      "lon": "-16.936036218328105",
      "lat": "32.64044469156684"
    },
    {
      "id": "pt.ine.add.MAD.70831",
      "street": "R BAIRRO AJUDA",
      "house": "",
      "postcode": "9000-117",
      "city": "FUNCHAL",
      "lon": "-16.936036218328105",
      "lat": "32.64044469156684"
    },
    {
      "id": "pt.ine.add.MAD.70832",
      "street": "R BAIRRO AJUDA",
      "house": "",
      "postcode": "9000-117",
      "city": "FUNCHAL",
      "lon": "-16.936036218328105",
      "lat": "32.64044469156684"
    },
    {
      "id": "pt.ine.add.MAD.71027",
      "street": "R BAIRRO AJUDA",
      "house": "",
      "postcode": "9000-117",
      "city": "FUNCHAL",
      "lon": "-16.936036218328105",
      "lat": "32.64044469156684"
    },
    {
      "id": "pt.ine.add.MAD.71028",
      "street": "R BAIRRO AJUDA",
      "house": "",
      "postcode": "9000-117",
      "city": "FUNCHAL",
      "lon": "-16.936036218328105",
      "lat": "32.64044469156684"
    },
    {
      "id": "pt.ine.add.MAD.71029",
      "street": "R BAIRRO AJUDA",
      "house": "",
      "postcode": "9000-117",
      "city": "FUNCHAL",
      "lon": "-16.936036218328105",
      "lat": "32.64044469156684"
    },
    {
      "id": "pt.ine.add.MAD.71030",
      "street": "R BAIRRO AJUDA",
      "house": "",
      "postcode": "9000-117",
      "city": "FUNCHAL",
      "lon": "-16.936036218328105",
      "lat": "32.64044469156684"
    },
    {
      "id": "pt.ine.add.MAD.71031",
      "street": "R BAIRRO AJUDA",
      "house": "",
      "postcode": "9000-117",
      "city": "FUNCHAL",
      "lon": "-16.936036218328105",
      "lat": "32.64044469156684"
    },
    {
      "id": "pt.ine.add.MAD.78348",
      "street": "R BAIRRO AJUDA",
      "house": "37",
      "postcode": "9000-117",
      "city": "FUNCHAL",
      "lon": "-16.936791183067445",
      "lat": "32.63986486328093"
    },
    {
      "id": "pt.ine.add.MAD.78349",
      "street": "LEV PIORNAIS",
      "house": "",
      "postcode": "9000-122",
      "city": "FUNCHAL",
      "lon": "-16.934956887298494",
      "lat": "32.64031703728572"
    },
    {
      "id": "pt.ine.add.MAD.81680",
      "street": "R BAIRRO AJUDA",
      "house": "55",
      "postcode": "9000-117",
      "city": "FUNCHAL",
      "lon": "-16.936083474015906",
      "lat": "32.640164382032154"
    },
    {
      "id": "pt.ine.add.MAD.81681",
      "street": "R BAIRRO AJUDA",
      "house": "49",
      "postcode": "9000-117",
      "city": "FUNCHAL",
      "lon": "-16.936645502561813",
      "lat": "32.64002944843495"
    },
    {
      "id": "pt.ine.add.MAD.86253",
      "street": "R BAIRRO AJUDA",
      "house": "51",
      "postcode": "9000-117",
      "city": "FUNCHAL",
      "lon": "-16.936220443091095",
      "lat": "32.6400901191771"
    },
    {
      "id": "pt.ine.add.MAD.91118",
      "street": "R BAIRRO AJUDA",
      "house": "32",
      "postcode": "9000-117",
      "city": "FUNCHAL",
      "lon": "-16.935878297051136",
      "lat": "32.640041284847364"
    },
    {
      "id": "pt.ine.add.MAD.93766",
      "street": "R BAIRRO AJUDA",
      "house": "34",
      "postcode": "9000-117",
      "city": "FUNCHAL",
      "lon": "-16.935826767155866",
      "lat": "32.64012324823389"
    },
    {
      "id": "pt.ine.add.MAD.101239",
      "street": "R BAIRRO AJUDA",
      "house": "58",
      "postcode": "9000-117",
      "city": "FUNCHAL",
      "lon": "-16.936412633201215",
      "lat": "32.64010519144411"
    },
    {
      "id": "pt.ine.add.MAD.101417",
      "street": "R BAIRRO AJUDA",
      "house": "",
      "postcode": "9000-117",
      "city": "FUNCHAL",
      "lon": "-16.936036218328105",
      "lat": "32.64044469156684"
    },
    {
      "id": "pt.ine.add.MAD.101953",
      "street": "R BAIRRO AJUDA",
      "house": "64",
      "postcode": "9000-117",
      "city": "FUNCHAL",
      "lon": "-16.937156389493065",
      "lat": "32.63999450771611"
    },
    {
      "id": "pt.ine.add.MAD.104125",
      "street": "R BAIRRO AJUDA",
      "house": "56",
      "postcode": "9000-117",
      "city": "FUNCHAL",
      "lon": "-16.935679336268162",
      "lat": "32.64020669075184"
    },
    {
      "id": "pt.ine.add.MAD.106149",
      "street": "R BAIRRO AJUDA",
      "house": "38",
      "postcode": "9000-117",
      "city": "FUNCHAL",
      "lon": "-16.936917689834903",
      "lat": "32.639799779865285"
    },
    {
      "id": "pt.ine.add.MAD.106869",
      "street": "R BAIRRO AJUDA",
      "house": "",
      "postcode": "9000-117",
      "city": "FUNCHAL",
      "lon": "-16.936036218328105",
      "lat": "32.64044469156684"
    },
    {
      "id": "pt.ine.add.MAD.107202",
      "street": "R BAIRRO AJUDA",
      "house": "",
      "postcode": "9000-117",
      "city": "FUNCHAL",
      "lon": "-16.93694560942979",
      "lat": "32.640105985654486"
    },
    {
      "id": "pt.ine.add.MAD.107203",
      "street": "R BAIRRO AJUDA",
      "house": "",
      "postcode": "9000-117",
      "city": "FUNCHAL",
      "lon": "-16.93694560942979",
      "lat": "32.640105985654486"
    },
    {
      "id": "pt.ine.add.MAD.107789",
      "street": "R BAIRRO AJUDA",
      "house": "62",
      "postcode": "9000-117",
      "city": "FUNCHAL",
      "lon": "-16.9365858440444",
      "lat": "32.64022878099364"
    },
    {
      "id": "pt.ine.add.MAD.107790",
      "street": "R BAIRRO AJUDA",
      "house": "62",
      "postcode": "9000-117",
      "city": "FUNCHAL",
      "lon": "-16.9365858440444",
      "lat": "32.64022878099364"
    },
    {
      "id": "pt.ine.add.MAD.107791",
      "street": "R BAIRRO AJUDA",
      "house": "62",
      "postcode": "9000-117",
      "city": "FUNCHAL",
      "lon": "-16.9365858440444",
      "lat": "32.64022878099364"
    },
    {
      "id": "pt.ine.add.MAD.107792",
      "street": "R BAIRRO AJUDA",
      "house": "62",
      "postcode": "9000-117",
      "city": "FUNCHAL",
      "lon": "-16.9365858440444",
      "lat": "32.64022878099364"
    },
    {
      "id": "pt.ine.add.MAD.107793",
      "street": "R BAIRRO AJUDA",
      "house": "62",
      "postcode": "9000-117",
      "city": "FUNCHAL",
      "lon": "-16.9365858440444",
      "lat": "32.64022878099364"
    },
    {
      "id": "pt.ine.add.MAD.107870",
      "street": "R BAIRRO AJUDA",
      "house": "62",
      "postcode": "9000-117",
      "city": "FUNCHAL",
      "lon": "-16.9365858440444",
      "lat": "32.64022878099364"
    },
    {
      "id": "pt.ine.add.MAD.107871",
      "street": "R BAIRRO AJUDA",
      "house": "62",
      "postcode": "9000-117",
      "city": "FUNCHAL",
      "lon": "-16.9365858440444",
      "lat": "32.64022878099364"
    },
    {
      "id": "pt.ine.add.MAD.109162",
      "street": "RAMP RUA VELHA AJUDA",
      "house": "23 A",
      "postcode": "9000-111",
      "city": "FUNCHAL",
      "lon": "-16.9381659503337",
      "lat": "32.6398526588798"
    },
    {
      "id": "pt.ine.add.MAD.109163",
      "street": "R BAIRRO AJUDA",
      "house": "64",
      "postcode": "9000-117",
      "city": "FUNCHAL",
      "lon": "-16.937156389493065",
      "lat": "32.63999450771611"
    },
    {
      "id": "pt.ine.add.MAD.109164",
      "street": "R BAIRRO AJUDA",
      "house": "64",
      "postcode": "9000-117",
      "city": "FUNCHAL",
      "lon": "-16.937156389493065",
      "lat": "32.63999450771611"
    },
    {
      "id": "pt.ine.add.MAD.109165",
      "street": "R BAIRRO AJUDA",
      "house": "64",
      "postcode": "9000-117",
      "city": "FUNCHAL",
      "lon": "-16.937156389493065",
      "lat": "32.63999450771611"
    },
    {
      "id": "pt.ine.add.MAD.109166",
      "street": "R BAIRRO AJUDA",
      "house": "64",
      "postcode": "9000-117",
      "city": "FUNCHAL",
      "lon": "-16.937156389493065",
      "lat": "32.63999450771611"
    },
    {
      "id": "pt.ine.add.MAD.109194",
      "street": "R BAIRRO AJUDA",
      "house": "",
      "postcode": "9000-117",
      "city": "FUNCHAL",
      "lon": "-16.93694560942979",
      "lat": "32.640105985654486"
    },
    {
      "id": "pt.ine.add.MAD.109267",
      "street": "LEV PIORNAIS",
      "house": "89",
      "postcode": "9000-122",
      "city": "FUNCHAL",
      "lon": "-16.934265821116455",
      "lat": "32.64039983982796"
    },
    {
      "id": "pt.ine.add.MAD.109263",
      "street": "LEV PIORNAIS",
      "house": "87",
      "postcode": "9000-122",
      "city": "FUNCHAL",
      "lon": "-16.934408227334927",
      "lat": "32.64057801958129"
    },
    {
      "id": "pt.ine.add.MAD.109264",
      "street": "LEV PIORNAIS",
      "house": "83",
      "postcode": "9000-122",
      "city": "FUNCHAL",
      "lon": "-16.934016877217953",
      "lat": "32.64071933194353"
    },
    {
      "id": "pt.ine.add.MAD.109265",
      "street": "LEV PIORNAIS",
      "house": "19",
      "postcode": "9000-122",
      "city": "FUNCHAL",
      "lon": "-16.933130317685734",
      "lat": "32.64063378482215"
    },
    {
      "id": "pt.ine.add.MAD.109266",
      "street": "R JOÃO PAULO II",
      "house": "53",
      "postcode": "9000-768",
      "city": "FUNCHAL",
      "lon": "-16.933573007190724",
      "lat": "32.64040149691938"
    },
    {
      "id": "pt.ine.add.MAD.109315",
      "street": "R BAIRRO AJUDA MORD",
      "house": "MORD 54",
      "postcode": "9000-117",
      "city": "FUNCHAL",
      "lon": "-16.93590116240917",
      "lat": "32.640113081973716"
    },
    {
      "id": "pt.ine.add.MAD.109316",
      "street": "R BAIRRO AJUDA",
      "house": "53",
      "postcode": "9000-117",
      "city": "FUNCHAL",
      "lon": "-16.93606080277586",
      "lat": "32.640101600676225"
    },
    {
      "id": "pt.ine.add.MAD.109317",
      "street": "R BAIRRO AJUDA MORD",
      "house": "MORD 52",
      "postcode": "9000-117",
      "city": "FUNCHAL",
      "lon": "-16.93614546504581",
      "lat": "32.64007323843389"
    },
    {
      "id": "pt.ine.add.MAD.109370",
      "street": "RAMP RUA VELHA AJUDA",
      "house": "20",
      "postcode": "9000-111",
      "city": "FUNCHAL",
      "lon": "-16.93850338517511",
      "lat": "32.63918908061572"
    },
    {
      "id": "pt.ine.add.MAD.109371",
      "street": "RAMP PICO DA CRUZ",
      "house": "10",
      "postcode": "9000-124",
      "city": "FUNCHAL",
      "lon": "-16.940236728996634",
      "lat": "32.63899995911949"
    },
    {
      "id": "pt.ine.add.MAD.109372",
      "street": "RAMP RUA VELHA AJUDA",
      "house": "13",
      "postcode": "9000-111",
      "city": "FUNCHAL",
      "lon": "-16.93869926972522",
      "lat": "32.63937544808269"
    },
    {
      "id": "pt.ine.add.MAD.112361",
      "street": "R BAIRRO AJUDA",
      "house": "MORAD 31",
      "postcode": "9000-117",
      "city": "FUNCHAL",
      "lon": "-16.935995120492947",
      "lat": "32.64002144534753"
    },
    {
      "id": "pt.ine.add.MAD.112748",
      "street": "LEV PIORNAIS",
      "house": "79",
      "postcode": "9000-122",
      "city": "FUNCHAL",
      "lon": "-16.933364937576705",
      "lat": "32.64063918945482"
    },
    {
      "id": "pt.ine.add.MAD.113231",
      "street": "RAMP RUA VELHA AJUDA",
      "house": "9",
      "postcode": "9000-111",
      "city": "FUNCHAL",
      "lon": "-16.93882071610106",
      "lat": "32.639075954169066"
    },
    {
      "id": "pt.ine.add.MAD.113712",
      "street": "R BAIRRO AJUDA",
      "house": "29",
      "postcode": "9000-117",
      "city": "FUNCHAL",
      "lon": "-16.936175294786587",
      "lat": "32.63997357224349"
    },
    {
      "id": "pt.ine.add.MAD.114697",
      "street": "RAMP RUA VELHA AJUDA",
      "house": "11",
      "postcode": "9000-111",
      "city": "FUNCHAL",
      "lon": "-16.938896471939334",
      "lat": "32.63912889619607"
    },
    {
      "id": "pt.ine.add.MAD.114817",
      "street": "R BAIRRO AJUDA",
      "house": "",
      "postcode": "9000-117",
      "city": "FUNCHAL",
      "lon": "-16.93694560942979",
      "lat": "32.640105985654486"
    },
    {
      "id": "pt.ine.add.MAD.114878",
      "street": "R BAIRRO AJUDA",
      "house": "30",
      "postcode": "9000-117",
      "city": "FUNCHAL",
      "lon": "-16.936079782711765",
      "lat": "32.639993083151246"
    },
    {
      "id": "pt.ine.add.MAD.121240",
      "street": "R BAIRRO AJUDA",
      "house": "47",
      "postcode": "9000-117",
      "city": "FUNCHAL",
      "lon": "-16.93654108384453",
      "lat": "32.64013026567062"
    },
    {
      "id": "pt.ine.add.MAD.122354",
      "street": "R BAIRRO AJUDA",
      "house": "62",
      "postcode": "9000-117",
      "city": "FUNCHAL",
      "lon": "-16.9365858440444",
      "lat": "32.64022878099364"
    },
    {
      "id": "pt.ine.add.MAD.122355",
      "street": "R BAIRRO AJUDA",
      "house": "62",
      "postcode": "9000-117",
      "city": "FUNCHAL",
      "lon": "-16.9365858440444",
      "lat": "32.64022878099364"
    },
    {
      "id": "pt.ine.add.MAD.124551",
      "street": "R BAIRRO AJUDA",
      "house": "62",
      "postcode": "9000-117",
      "city": "FUNCHAL",
      "lon": "-16.9365858440444",
      "lat": "32.64022878099364"
    },
    {
      "id": "pt.ine.add.MAD.124584",
      "street": "R BAIRRO AJUDA",
      "house": "39",
      "postcode": "9000-117",
      "city": "FUNCHAL",
      "lon": "-16.9369403615785",
      "lat": "32.63986256104947"
    },
    {
      "id": "pt.ine.add.MAD.125772",
      "street": "R BAIRRO AJUDA",
      "house": "",
      "postcode": "9000-117",
      "city": "FUNCHAL",
      "lon": "-16.936036218328105",
      "lat": "32.64044469156684"
    },
    {
      "id": "pt.ine.add.MAD.126064",
      "street": "R BAIRRO AJUDA",
      "house": "59",
      "postcode": "9000-117",
      "city": "FUNCHAL",
      "lon": "-16.93617918055947",
      "lat": "32.6401538868452"
    },
    {
      "id": "pt.ine.add.MAD.126857",
      "street": "R BAIRRO AJUDA",
      "house": "40",
      "postcode": "9000-117",
      "city": "FUNCHAL",
      "lon": "-16.936973494603013",
      "lat": "32.63991616204763"
    },
    {
      "id": "pt.ine.add.MAD.126963",
      "street": "R BAIRRO AJUDA",
      "house": "62",
      "postcode": "9000-117",
      "city": "FUNCHAL",
      "lon": "-16.9365858440444",
      "lat": "32.64022878099364"
    },
    {
      "id": "pt.ine.add.MAD.128702",
      "street": "R BAIRRO AJUDA MORD",
      "house": "MORD 35",
      "postcode": "9000-117",
      "city": "FUNCHAL",
      "lon": "-16.936599965088657",
      "lat": "32.63989487021682"
    },
    {
      "id": "pt.ine.add.MAD.128780",
      "street": "R JOÃO PAULO II",
      "house": "5",
      "postcode": "9000-768",
      "city": "FUNCHAL",
      "lon": "-16.940115235810318",
      "lat": "32.638803425430154"
    },
    {
      "id": "pt.ine.add.MAD.130006",
      "street": "R BAIRRO AJUDA",
      "house": "33",
      "postcode": "9000-117",
      "city": "FUNCHAL",
      "lon": "-16.93579344046671",
      "lat": "32.64006063117944"
    }
  ]
}