{
  "data": {
    "distrito": "Leiria",
    "concelho": "Ã“bidos",
    "freguesia": "Gaeiras",
    "OBJECTID": 126,
    "BGRI2021": "10120800101",
    "DT21": "10",
    "DTMN21": "1012",
    "DTMNFR21": "101208",
    "DTMNFRSEC21": "101208001",
    "SECNUM21": "001",
    "SSNUM21": "01",
    "SECSSNUM21": "00101",
    "OBJECTID_1": 93661,
    "DT": "10",
    "CC": "12",
    "fr": "08",
    "SEC": "001",
    "SS": "01"
  },
  "addresses": [
    {
      "id": "pt.ine.add.PTCONT.2009679",
      "street": "CASAIS DO ALVITO",
      "house": "8",
      "postcode": "2510-702",
      "city": "GAEIRAS",
      "lon": "-9.11906484898628",
      "lat": "39.35521526383976"
    },
    {
      "id": "pt.ine.add.PTCONT.2009685",
      "street": "CSL ALVITO",
      "house": "42",
      "postcode": "2510-702",
      "city": "GAEIRAS",
      "lon": "-9.11977045179742",
      "lat": "39.36083861677742"
    },
    {
      "id": "pt.ine.add.PTCONT.2044654",
      "street": "CASAIS DO ALVITO",
      "house": "10",
      "postcode": "2510-702",
      "city": "GAEIRAS",
      "lon": "-9.120205797813158",
      "lat": "39.35632245172784"
    },
    {
      "id": "pt.ine.add.PTCONT.2064401",
      "street": "CSL ALVITO",
      "house": "48",
      "postcode": "2510-702",
      "city": "GAEIRAS",
      "lon": "-9.120762013239785",
      "lat": "39.3612175031731"
    },
    {
      "id": "pt.ine.add.PTCONT.2066282",
      "street": "R SOUSAS",
      "house": "14",
      "postcode": "2510-702",
      "city": "GAEIRAS",
      "lon": "-9.119157066435795",
      "lat": "39.35599808603095"
    },
    {
      "id": "pt.ine.add.PTCONT.2075027",
      "street": "CSL ALVITO",
      "house": "26",
      "postcode": "2510-702",
      "city": "GAEIRAS",
      "lon": "-9.120505259391924",
      "lat": "39.35946333083861"
    },
    {
      "id": "pt.ine.add.PTCONT.2084592",
      "street": "CASAIS DO ALVITO",
      "house": "4",
      "postcode": "2510-702",
      "city": "GAEIRAS",
      "lon": "-9.117443554425783",
      "lat": "39.35459850313839"
    },
    {
      "id": "pt.ine.add.PTCONT.2093259",
      "street": "R SOUSAS",
      "house": "16",
      "postcode": "2510-702",
      "city": "GAEIRAS",
      "lon": "-9.119356553843451",
      "lat": "39.35615852040064"
    },
    {
      "id": "pt.ine.add.PTCONT.2114920",
      "street": "R FONTE",
      "house": "44",
      "postcode": "2510-702",
      "city": "GAEIRAS",
      "lon": "-9.119681442746385",
      "lat": "39.361109579301434"
    },
    {
      "id": "pt.ine.add.PTCONT.2141243",
      "street": "R SOUSAS",
      "house": "18",
      "postcode": "2510-702",
      "city": "GAEIRAS",
      "lon": "-9.119847955633954",
      "lat": "39.35645158360807"
    },
    {
      "id": "pt.ine.add.PTCONT.2149696",
      "street": "CSL ALVITO",
      "house": "72",
      "postcode": "2510-702",
      "city": "GAEIRAS",
      "lon": "-9.122448205586815",
      "lat": "39.36559855834917"
    },
    {
      "id": "pt.ine.add.PTCONT.2153939",
      "street": "CSL ALVITO",
      "house": "56",
      "postcode": "2510-702",
      "city": "GAEIRAS",
      "lon": "-9.121633745264067",
      "lat": "39.363795088793296"
    },
    {
      "id": "pt.ine.add.PTCONT.2156289",
      "street": "CSL ALVITO",
      "house": "36",
      "postcode": "2510-702",
      "city": "GAEIRAS",
      "lon": "-9.120639658699847",
      "lat": "39.36076819516485"
    },
    {
      "id": "pt.ine.add.PTCONT.2162888",
      "street": "CASAIS DO ALVITO",
      "house": "1",
      "postcode": "2510-702",
      "city": "GAEIRAS",
      "lon": "-9.117758278022821",
      "lat": "39.35470392390269"
    },
    {
      "id": "pt.ine.add.PTCONT.2169474",
      "street": "CSL ALVITO",
      "house": "46",
      "postcode": "2510-702",
      "city": "GAEIRAS",
      "lon": "-9.120793519213324",
      "lat": "39.36098305563663"
    },
    {
      "id": "pt.ine.add.PTCONT.2176462",
      "street": "CSL ALVITO",
      "house": "40",
      "postcode": "2510-702",
      "city": "GAEIRAS",
      "lon": "-9.119909413504857",
      "lat": "39.360819424602575"
    },
    {
      "id": "pt.ine.add.PTCONT.2189133",
      "street": "CSL ALVITO",
      "house": "26A",
      "postcode": "2510-702",
      "city": "GAEIRAS",
      "lon": "-9.120237167916287",
      "lat": "39.35937553599749"
    },
    {
      "id": "pt.ine.add.PTCONT.2191358",
      "street": "R SOUSAS",
      "house": "1",
      "postcode": "2510-702",
      "city": "GAEIRAS",
      "lon": "-9.118429234178052",
      "lat": "39.3553917791399"
    },
    {
      "id": "pt.ine.add.PTCONT.2200513",
      "street": "CASAIS DO ALVITO",
      "house": "6",
      "postcode": "2510-702",
      "city": "GAEIRAS",
      "lon": "-9.118397304139297",
      "lat": "39.354770570738445"
    },
    {
      "id": "pt.ine.add.PTCONT.2200514",
      "street": "CASAIS DO ALVITO",
      "house": "6",
      "postcode": "2510-702",
      "city": "GAEIRAS",
      "lon": "-9.118397304139297",
      "lat": "39.354770570738445"
    },
    {
      "id": "pt.ine.add.PTCONT.2206323",
      "street": "CSL ALVITO",
      "house": "68",
      "postcode": "2510-702",
      "city": "GAEIRAS",
      "lon": "-9.1223633063332",
      "lat": "39.365338079445074"
    },
    {
      "id": "pt.ine.add.PTCONT.2206324",
      "street": "CSL ALVITO",
      "house": "74",
      "postcode": "2510-702",
      "city": "GAEIRAS",
      "lon": "-9.122567911746293",
      "lat": "39.36585874121325"
    },
    {
      "id": "pt.ine.add.PTCONT.2207871",
      "street": "CSL ALVITO",
      "house": "68",
      "postcode": "2510-702",
      "city": "GAEIRAS",
      "lon": "-9.1223633063332",
      "lat": "39.365338079445074"
    },
    {
      "id": "pt.ine.add.PTCONT.2207945",
      "street": "CSL ALVITO",
      "house": "70",
      "postcode": "2510-702",
      "city": "GAEIRAS",
      "lon": "-9.122435205699032",
      "lat": "39.365499592750226"
    },
    {
      "id": "pt.ine.add.PTCONT.2209522",
      "street": "CASAIS CAMARNAIS",
      "house": "15",
      "postcode": "2510-701",
      "city": "GAEIRAS",
      "lon": "-9.108112787530038",
      "lat": "39.363557893750496"
    },
    {
      "id": "pt.ine.add.PTCONT.2211730",
      "street": "CSL ALVITO",
      "house": "32",
      "postcode": "2510-702",
      "city": "GAEIRAS",
      "lon": "-9.120683146611169",
      "lat": "39.36056066674372"
    },
    {
      "id": "pt.ine.add.PTCONT.2218314",
      "street": "CSL ALVITO",
      "house": "78",
      "postcode": "2510-702",
      "city": "GAEIRAS",
      "lon": "-9.122843786025852",
      "lat": "39.366495886348105"
    },
    {
      "id": "pt.ine.add.PTCONT.2222631",
      "street": "CSL ALVITO",
      "house": "80",
      "postcode": "2510-702",
      "city": "GAEIRAS",
      "lon": "-9.122892610444053",
      "lat": "39.36666660251205"
    },
    {
      "id": "pt.ine.add.PTCONT.2226750",
      "street": "R SOUSAS",
      "house": "12",
      "postcode": "2510-702",
      "city": "GAEIRAS",
      "lon": "-9.118989343097137",
      "lat": "39.35562121572523"
    },
    {
      "id": "pt.ine.add.PTCONT.2230818",
      "street": "CASAIS DO ALVITO",
      "house": "58",
      "postcode": "2510-702",
      "city": "GAEIRAS",
      "lon": "-9.121039628383924",
      "lat": "39.361980735423536"
    },
    {
      "id": "pt.ine.add.PTCONT.2233202",
      "street": "CASAIS DO ALVITO",
      "house": "2",
      "postcode": "2510-702",
      "city": "GAEIRAS",
      "lon": "-9.117388839095726",
      "lat": "39.354833146360285"
    },
    {
      "id": "pt.ine.add.PTCONT.2257721",
      "street": "CSL ALVITO",
      "house": "60",
      "postcode": "2510-702",
      "city": "GAEIRAS",
      "lon": "-9.121920315398745",
      "lat": "39.36436909708765"
    },
    {
      "id": "pt.ine.add.PTCONT.2257722",
      "street": "CSL ALVITO",
      "house": "66",
      "postcode": "2510-702",
      "city": "GAEIRAS",
      "lon": "-9.122221287274439",
      "lat": "39.3651411344547"
    },
    {
      "id": "pt.ine.add.PTCONT.2258407",
      "street": "CSL ALVITO",
      "house": "38",
      "postcode": "2510-702",
      "city": "GAEIRAS",
      "lon": "-9.120292888982497",
      "lat": "39.36086120672949"
    },
    {
      "id": "pt.ine.add.PTCONT.2261678",
      "street": "R FONTE",
      "house": "44",
      "postcode": "2510-702",
      "city": "GAEIRAS",
      "lon": "-9.119681442746385",
      "lat": "39.361109579301434"
    }
  ]
}