{
  "data": {
    "distrito": "Porto",
    "concelho": "Penafiel",
    "freguesia": "Fonte Arcada",
    "OBJECTID": 831,
    "BGRI2021": "13111200138",
    "DT21": "13",
    "DTMN21": "1311",
    "DTMNFR21": "131112",
    "DTMNFRSEC21": "131112001",
    "SECNUM21": "001",
    "SSNUM21": "38",
    "SECSSNUM21": "00138",
    "OBJECTID_1": 136427,
    "DT": "13",
    "CC": "11",
    "fr": "12",
    "SEC": "001",
    "SS": "38"
  },
  "addresses": [
    {
      "id": "pt.ine.add.PTCONT.3540911",
      "street": "AV DOMINGOS DE SOUSA ANDRADE",
      "house": "",
      "postcode": "4560-112",
      "city": "FONTE ARCADA PNF",
      "lon": "-8.362042069745593",
      "lat": "41.15224585880629"
    },
    {
      "id": "pt.ine.add.PTCONT.3632338",
      "street": "R FRANCIDE QTA DE FRANCIDE",
      "house": "",
      "postcode": "4560-112",
      "city": "FONTE ARCADA PNF",
      "lon": "-8.355073998996726",
      "lat": "41.152565645621735"
    },
    {
      "id": "pt.ine.add.PTCONT.3651417",
      "street": "R LINHARES",
      "house": "",
      "postcode": "4560-112",
      "city": "FONTE ARCADA PNF",
      "lon": "-8.361934164005453",
      "lat": "41.1520479766825"
    },
    {
      "id": "pt.ine.add.PTCONT.3671099",
      "street": "R CANCELAS DO TRAGO",
      "house": "",
      "postcode": "4560-112",
      "city": "FONTE ARCADA PNF",
      "lon": "-8.357110303950067",
      "lat": "41.15231858536909"
    },
    {
      "id": "pt.ine.add.PTCONT.3709936",
      "street": "R VALES",
      "house": "",
      "postcode": "4560-112",
      "city": "FONTE ARCADA PNF",
      "lon": "-8.354121256824854",
      "lat": "41.15265752141208"
    },
    {
      "id": "pt.ine.add.PTCONT.3729922",
      "street": "R CAVADAS",
      "house": "",
      "postcode": "4560-112",
      "city": "FONTE ARCADA PNF",
      "lon": "-8.359371268023057",
      "lat": "41.15158481109173"
    },
    {
      "id": "pt.ine.add.PTCONT.3729927",
      "street": "R CANCELAS DO TRAGO",
      "house": "",
      "postcode": "4560-112",
      "city": "FONTE ARCADA PNF",
      "lon": "-8.356990959415764",
      "lat": "41.15225578666968"
    },
    {
      "id": "pt.ine.add.PTCONT.3747865",
      "street": "R LINHARES",
      "house": "",
      "postcode": "4560-112",
      "city": "FONTE ARCADA PNF",
      "lon": "-8.36204185047791",
      "lat": "41.15218282853011"
    },
    {
      "id": "pt.ine.add.PTCONT.3751499",
      "street": "R LINHARES",
      "house": "",
      "postcode": "4560-112",
      "city": "FONTE ARCADA PNF",
      "lon": "-8.36204185047791",
      "lat": "41.15218282853011"
    },
    {
      "id": "pt.ine.add.PTCONT.3800947",
      "street": "R CANCELAS DO TRAGO",
      "house": "",
      "postcode": "4560-112",
      "city": "FONTE ARCADA PNF",
      "lon": "-8.35715826254998",
      "lat": "41.152408535975155"
    },
    {
      "id": "pt.ine.add.PTCONT.3833146",
      "street": "AV DOMINGOS DE SOUSA ANDRADE",
      "house": "",
      "postcode": "4560-112",
      "city": "FONTE ARCADA PNF",
      "lon": "-8.362033978187846",
      "lat": "41.1533444100418"
    },
    {
      "id": "pt.ine.add.PTCONT.3851015",
      "street": "R LINHARES",
      "house": "",
      "postcode": "4560-112",
      "city": "FONTE ARCADA PNF",
      "lon": "-8.361234826640638",
      "lat": "41.15306685949634"
    },
    {
      "id": "pt.ine.add.PTCONT.3930975",
      "street": "R CAVADAS",
      "house": "",
      "postcode": "4560-112",
      "city": "FONTE ARCADA PNF",
      "lon": "-8.357672181905054",
      "lat": "41.152893772154165"
    },
    {
      "id": "pt.ine.add.PTCONT.3932592",
      "street": "R FRANCIDE",
      "house": "",
      "postcode": "4560-112",
      "city": "FONTE ARCADA PNF",
      "lon": "-8.35605346253857",
      "lat": "41.15332912698828"
    },
    {
      "id": "pt.ine.add.PTCONT.3949082",
      "street": "R CANCELAS DO TRAGO",
      "house": "",
      "postcode": "4560-112",
      "city": "FONTE ARCADA PNF",
      "lon": "-8.35660989634362",
      "lat": "41.1523015485959"
    },
    {
      "id": "pt.ine.add.PTCONT.3951895",
      "street": "R CANCELAS DO TRAGO",
      "house": "",
      "postcode": "4560-112",
      "city": "FONTE ARCADA PNF",
      "lon": "-8.35660989634362",
      "lat": "41.1523015485959"
    },
    {
      "id": "pt.ine.add.PTCONT.3973949",
      "street": "R LINHARES",
      "house": "",
      "postcode": "4560-112",
      "city": "FONTE ARCADA PNF",
      "lon": "-8.36100894468697",
      "lat": "41.15320237240385"
    },
    {
      "id": "pt.ine.add.PTCONT.4013284",
      "street": "R FRANCIDE",
      "house": "",
      "postcode": "4560-112",
      "city": "FONTE ARCADA PNF",
      "lon": "-8.36081858327316",
      "lat": "41.15327478395375"
    },
    {
      "id": "pt.ine.add.PTCONT.4045998",
      "street": "R CAVADAS",
      "house": "",
      "postcode": "4560-112",
      "city": "FONTE ARCADA PNF",
      "lon": "-8.359955278251562",
      "lat": "41.15166470198666"
    },
    {
      "id": "pt.ine.add.PTCONT.4092161",
      "street": "R CANCELAS DO TRAGO",
      "house": "",
      "postcode": "4560-112",
      "city": "FONTE ARCADA PNF",
      "lon": "-8.35713492694173",
      "lat": "41.152552651559525"
    },
    {
      "id": "pt.ine.add.PTCONT.4124689",
      "street": "R LINHARES",
      "house": "",
      "postcode": "4560-112",
      "city": "FONTE ARCADA PNF",
      "lon": "-8.36127022265574",
      "lat": "41.1529677411439"
    },
    {
      "id": "pt.ine.add.PTCONT.4167312",
      "street": "LINHARES",
      "house": "",
      "postcode": "4560-112",
      "city": "FONTE ARCADA PNF",
      "lon": "-8.361663731029779",
      "lat": "41.153075013679164"
    },
    {
      "id": "pt.ine.add.PTCONT.4361216",
      "street": "AV DOMINGOS DE SOUSA ANDRADE",
      "house": "",
      "postcode": "4560-112",
      "city": "FONTE ARCADA PNF",
      "lon": "-8.361961622240333",
      "lat": "41.15309243101141"
    },
    {
      "id": "pt.ine.add.PTCONT.4379465",
      "street": "R LINHARES",
      "house": "",
      "postcode": "4560-112",
      "city": "FONTE ARCADA PNF",
      "lon": "-8.361685524380052",
      "lat": "41.152489685309696"
    },
    {
      "id": "pt.ine.add.PTCONT.4380092",
      "street": "R CAVADAS",
      "house": "",
      "postcode": "4560-112",
      "city": "FONTE ARCADA PNF",
      "lon": "-8.359788373735801",
      "lat": "41.15162901299434"
    }
  ]
}