{
  "data": {
    "distrito": "Porto",
    "concelho": "Penafiel",
    "freguesia": "Fonte Arcada",
    "OBJECTID": 390,
    "BGRI2021": "13111200148",
    "DT21": "13",
    "DTMN21": "1311",
    "DTMNFR21": "131112",
    "DTMNFRSEC21": "131112001",
    "SECNUM21": "001",
    "SSNUM21": "48",
    "SECSSNUM21": "00148",
    "OBJECTID_1": 137778,
    "DT": "13",
    "CC": "11",
    "fr": "12",
    "SEC": "001",
    "SS": "48"
  },
  "addresses": [
    {
      "id": "pt.ine.add.PTCONT.3558331",
      "street": "AV 19 DE MARCO",
      "house": "",
      "postcode": "4560-111",
      "city": "FONTE ARCADA PNF",
      "lon": "-8.36407517908437",
      "lat": "41.15449289661042"
    },
    {
      "id": "pt.ine.add.PTCONT.3568084",
      "street": "R POMBAIS",
      "house": "",
      "postcode": "4560-111",
      "city": "FONTE ARCADA PNF",
      "lon": "-8.365517717825854",
      "lat": "41.154778135443415"
    },
    {
      "id": "pt.ine.add.PTCONT.3647729",
      "street": "AV 19 DE MARCO",
      "house": "",
      "postcode": "4560-111",
      "city": "FONTE ARCADA PNF",
      "lon": "-8.365886939166398",
      "lat": "41.154750376760425"
    },
    {
      "id": "pt.ine.add.PTCONT.3871522",
      "street": "AV 19 MARCO",
      "house": "FONTE AR",
      "postcode": "4560-111",
      "city": "FONTE ARCADA PNF",
      "lon": "-8.366222014818488",
      "lat": "41.15517290513929"
    },
    {
      "id": "pt.ine.add.PTCONT.4092142",
      "street": "R POMBAIS",
      "house": "",
      "postcode": "4560-111",
      "city": "FONTE ARCADA PNF",
      "lon": "-8.365412721963668",
      "lat": "41.15540865401914"
    },
    {
      "id": "pt.ine.add.PTCONT.4210840",
      "street": "AV 19 DE MARÇO",
      "house": "",
      "postcode": "4560-111",
      "city": "FONTE ARCADA PNF",
      "lon": "-8.366089914029299",
      "lat": "41.15487602777045"
    },
    {
      "id": "pt.ine.add.PTCONT.4212635",
      "street": "AV 19 DE MARÇO",
      "house": "",
      "postcode": "4560-111",
      "city": "FONTE ARCADA PNF",
      "lon": "-8.366089914029299",
      "lat": "41.15487602777045"
    },
    {
      "id": "pt.ine.add.PTCONT.4231839",
      "street": "R POMBAIS",
      "house": "",
      "postcode": "4560-111",
      "city": "FONTE ARCADA PNF",
      "lon": "-8.365234177341149",
      "lat": "41.155454035861744"
    },
    {
      "id": "pt.ine.add.PTCONT.4283611",
      "street": "R POMBAIS",
      "house": "",
      "postcode": "4560-111",
      "city": "FONTE ARCADA PNF",
      "lon": "-8.36582870944146",
      "lat": "41.15512867849556"
    },
    {
      "id": "pt.ine.add.PTCONT.4288976",
      "street": "R POMBAIS",
      "house": "",
      "postcode": "4560-111",
      "city": "FONTE ARCADA PNF",
      "lon": "-8.365911530604468",
      "lat": "41.15496643225397"
    }
  ]
}