{
  "data": {
    "distrito": "Guarda",
    "concelho": "Aguiar da Beira",
    "freguesia": "União das freguesias de Sequeiros e Gradiz",
    "OBJECTID": 185,
    "BGRI2021": "09011500119",
    "DT21": "09",
    "DTMN21": "0901",
    "DTMNFR21": "090115",
    "DTMNFRSEC21": "090115001",
    "SECNUM21": "001",
    "SSNUM21": "19",
    "SECSSNUM21": "00119",
    "OBJECTID_1": 74877,
    "DT": "09",
    "CC": "01",
    "fr": "15",
    "SEC": "001",
    "SS": "19"
  },
  "addresses": [
    {
      "id": "pt.ine.add.PTCONT.1899669",
      "street": "AV DE NSA SRA DAS NEVES",
      "house": "11",
      "postcode": "3570-160",
      "city": "GRADIZ",
      "lon": "-7.537294701299323",
      "lat": "40.86257053958946"
    },
    {
      "id": "pt.ine.add.PTCONT.1903493",
      "street": "R DIREITA",
      "house": "1",
      "postcode": "3570-160",
      "city": "GRADIZ",
      "lon": "-7.531100816116311",
      "lat": "40.86022415116848"
    },
    {
      "id": "pt.ine.add.PTCONT.1910676",
      "street": "R DA SUA ALDEIA",
      "house": "4",
      "postcode": "3570-160",
      "city": "GRADIZ",
      "lon": "-7.537394263888488",
      "lat": "40.8620487765544"
    },
    {
      "id": "pt.ine.add.PTCONT.1916797",
      "street": "R DIREITA",
      "house": "25",
      "postcode": "3570-160",
      "city": "GRADIZ",
      "lon": "-7.531635214797198",
      "lat": "40.861460593995346"
    },
    {
      "id": "pt.ine.add.PTCONT.1920803",
      "street": "R DIREITA",
      "house": "8",
      "postcode": "3570-160",
      "city": "GRADIZ",
      "lon": "-7.530881627918384",
      "lat": "40.86085334173572"
    },
    {
      "id": "pt.ine.add.PTCONT.1923430",
      "street": "AV DE NSA SRA DAS NEVES",
      "house": "3",
      "postcode": "3570-160",
      "city": "GRADIZ",
      "lon": "-7.533673217697747",
      "lat": "40.86168731765705"
    },
    {
      "id": "pt.ine.add.PTCONT.1924756",
      "street": "TV DAS PEDRAS",
      "house": "4",
      "postcode": "3570-160",
      "city": "GRADIZ",
      "lon": "-7.537344482795272",
      "lat": "40.862309658089934"
    },
    {
      "id": "pt.ine.add.PTCONT.1927484",
      "street": "AV SRA DAS NEVES",
      "house": "",
      "postcode": "3570-160",
      "city": "GRADIZ",
      "lon": "-7.53488215049788",
      "lat": "40.861783641614636"
    },
    {
      "id": "pt.ine.add.PTCONT.1928592",
      "street": "AV COR SILVEIRA",
      "house": "7",
      "postcode": "3570-160",
      "city": "GRADIZ",
      "lon": "-7.53078576851569",
      "lat": "40.86096089859604"
    },
    {
      "id": "pt.ine.add.PTCONT.1928593",
      "street": "R DIREITA",
      "house": "2",
      "postcode": "3570-160",
      "city": "GRADIZ",
      "lon": "-7.531040619448462",
      "lat": "40.86032288959035"
    },
    {
      "id": "pt.ine.add.PTCONT.1933712",
      "street": "AV DE NSA SRA DAS NEVES",
      "house": "13",
      "postcode": "3570-160",
      "city": "GRADIZ",
      "lon": "-7.537495924579165",
      "lat": "40.86261660270179"
    },
    {
      "id": "pt.ine.add.PTCONT.1933713",
      "street": "TV DAS PEDRAS",
      "house": "2",
      "postcode": "3570-160",
      "city": "GRADIZ",
      "lon": "-7.5373433531728615",
      "lat": "40.86243571918055"
    },
    {
      "id": "pt.ine.add.PTCONT.1933714",
      "street": "AV DE NSA SRA DAS NEVES",
      "house": "9",
      "postcode": "3570-160",
      "city": "GRADIZ",
      "lon": "-7.537081295028565",
      "lat": "40.862560432295076"
    },
    {
      "id": "pt.ine.add.PTCONT.1937793",
      "street": "R DIREITA",
      "house": "3",
      "postcode": "3570-160",
      "city": "GRADIZ",
      "lon": "-7.5313614907033966",
      "lat": "40.86025252567741"
    },
    {
      "id": "pt.ine.add.PTCONT.1938874",
      "street": "AV DE NSA SRA DAS NEVES",
      "house": "7",
      "postcode": "3570-160",
      "city": "GRADIZ",
      "lon": "-7.536550082315948",
      "lat": "40.86227853800922"
    },
    {
      "id": "pt.ine.add.PTCONT.1940546",
      "street": "TV DA PRAÇA",
      "house": "1",
      "postcode": "3570-160",
      "city": "GRADIZ",
      "lon": "-7.53088007830708",
      "lat": "40.861024424484896"
    },
    {
      "id": "pt.ine.add.PTCONT.1945976",
      "street": "AV COR SILVEIRA",
      "house": "1",
      "postcode": "3570-160",
      "city": "GRADIZ",
      "lon": "-7.531068334414826",
      "lat": "40.85988179990944"
    },
    {
      "id": "pt.ine.add.PTCONT.1947569",
      "street": "R DIREITA",
      "house": "10",
      "postcode": "3570-160",
      "city": "GRADIZ",
      "lon": "-7.53098681920124",
      "lat": "40.86102498172114"
    },
    {
      "id": "pt.ine.add.PTCONT.1948913",
      "street": "AV DE NSA SRA DAS NEVES",
      "house": "5",
      "postcode": "3570-160",
      "city": "GRADIZ",
      "lon": "-7.53488215049788",
      "lat": "40.861783641614636"
    },
    {
      "id": "pt.ine.add.PTCONT.1957777",
      "street": "R DIREITA",
      "house": "16",
      "postcode": "3570-160",
      "city": "GRADIZ",
      "lon": "-7.531101751386186",
      "lat": "40.86143079673775"
    },
    {
      "id": "pt.ine.add.PTCONT.1965643",
      "street": "R DIREITA",
      "house": "17",
      "postcode": "3570-160",
      "city": "GRADIZ",
      "lon": "-7.530999820896089",
      "lat": "40.86089898265486"
    },
    {
      "id": "pt.ine.add.PTCONT.1966602",
      "street": "R DIREITA",
      "house": "5",
      "postcode": "3570-160",
      "city": "GRADIZ",
      "lon": "-7.5311813903368225",
      "lat": "40.86049471511596"
    },
    {
      "id": "pt.ine.add.PTCONT.1971677",
      "street": "R DIREITA",
      "house": "11",
      "postcode": "3570-160",
      "city": "GRADIZ",
      "lon": "-7.531119726083196",
      "lat": "40.860755531982896"
    },
    {
      "id": "pt.ine.add.PTCONT.1852947",
      "street": "R DIREITA",
      "house": "23",
      "postcode": "3570-160",
      "city": "GRADIZ",
      "lon": "-7.531553497048075",
      "lat": "40.86131609137074"
    },
    {
      "id": "pt.ine.add.PTCONT.1857880",
      "street": "LG DO TERREIRO",
      "house": "3",
      "postcode": "3570-160",
      "city": "GRADIZ",
      "lon": "-7.538183988846686",
      "lat": "40.86260214397867"
    },
    {
      "id": "pt.ine.add.PTCONT.1865961",
      "street": "R DIREITA",
      "house": "18",
      "postcode": "3570-160",
      "city": "GRADIZ",
      "lon": "-7.531219782511188",
      "lat": "40.86149444614484"
    },
    {
      "id": "pt.ine.add.PTCONT.1867571",
      "street": "TV DAS MESTRAS",
      "house": "1",
      "postcode": "3570-160",
      "city": "GRADIZ",
      "lon": "-7.531024193361543",
      "lat": "40.86082707162416"
    },
    {
      "id": "pt.ine.add.PTCONT.1868751",
      "street": "TV DAS PEDRAS",
      "house": "3",
      "postcode": "3570-160",
      "city": "GRADIZ",
      "lon": "-7.537165447702719",
      "lat": "40.86243480017593"
    },
    {
      "id": "pt.ine.add.PTCONT.1887563",
      "street": "R DIREITA",
      "house": "7",
      "postcode": "3570-160",
      "city": "GRADIZ",
      "lon": "-7.531287396866484",
      "lat": "40.86057631127619"
    },
    {
      "id": "pt.ine.add.PTCONT.1888317",
      "street": "R DIREITA",
      "house": "19",
      "postcode": "3570-160",
      "city": "GRADIZ",
      "lon": "-7.531387373423202",
      "lat": "40.86132422968225"
    },
    {
      "id": "pt.ine.add.PTCONT.1895137",
      "street": "R DA PRAÇA",
      "house": "9",
      "postcode": "3570-160",
      "city": "GRADIZ",
      "lon": "-7.53110452338443",
      "lat": "40.86112464866583"
    },
    {
      "id": "pt.ine.add.PTCONT.1897297",
      "street": "AV COR SILVEIRA",
      "house": "9",
      "postcode": "3570-160",
      "city": "GRADIZ",
      "lon": "-7.530796486622209",
      "lat": "40.86108702149493"
    },
    {
      "id": "pt.ine.add.PTCONT.1898241",
      "street": "R DA SUA ALDEIA",
      "house": "6",
      "postcode": "3570-160",
      "city": "GRADIZ",
      "lon": "-7.537322214529382",
      "lat": "40.86214745702389"
    }
  ]
}