{
  "data": {
    "distrito": "Viana do Castelo",
    "concelho": "Ponte de Lima",
    "freguesia": "Correlhã",
    "OBJECTID": 1078,
    "BGRI2021": "16071600207",
    "DT21": "16",
    "DTMN21": "1607",
    "DTMNFR21": "160716",
    "DTMNFRSEC21": "160716002",
    "SECNUM21": "002",
    "SSNUM21": "07",
    "SECSSNUM21": "00207",
    "OBJECTID_1": 177226,
    "DT": "16",
    "CC": "07",
    "fr": "16",
    "SEC": "002",
    "SS": "07"
  },
  "addresses": [
    {
      "id": "pt.ine.add.PTCONT.5163951",
      "street": "",
      "house": "",
      "postcode": "4990-291",
      "city": "PONTE DE LIMA",
      "lon": "-8.603415913527753",
      "lat": "41.74594130838858"
    },
    {
      "id": "pt.ine.add.PTCONT.5177282",
      "street": "BOUÇAPAIO",
      "house": "6",
      "postcode": "4990-291",
      "city": "PONTE DE LIMA",
      "lon": "-8.603128572603781",
      "lat": "41.74610454589297"
    },
    {
      "id": "pt.ine.add.PTCONT.5181612",
      "street": "SEM DESIGNACAO",
      "house": "3",
      "postcode": "4990-291",
      "city": "PONTE DE LIMA",
      "lon": "-8.602901273831822",
      "lat": "41.74625853376905"
    },
    {
      "id": "pt.ine.add.PTCONT.5216504",
      "street": "",
      "house": "",
      "postcode": "4990-291",
      "city": "PONTE DE LIMA",
      "lon": "-8.60267154669005",
      "lat": "41.746079404229214"
    },
    {
      "id": "pt.ine.add.PTCONT.5236166",
      "street": "R CAMPINHO",
      "house": "79",
      "postcode": "4990-291",
      "city": "PONTE DE LIMA",
      "lon": "-8.602720552467066",
      "lat": "41.74620525196172"
    },
    {
      "id": "pt.ine.add.PTCONT.5249412",
      "street": "SIT CAMPINHO",
      "house": "5",
      "postcode": "4990-293",
      "city": "PONTE DE LIMA",
      "lon": "-8.603135993006482",
      "lat": "41.74712190298665"
    },
    {
      "id": "pt.ine.add.PTCONT.5255998",
      "street": "SEM DESIGNACAO",
      "house": "8",
      "postcode": "4990-291",
      "city": "PONTE DE LIMA",
      "lon": "-8.603017684595486",
      "lat": "41.74573585882007"
    },
    {
      "id": "pt.ine.add.PTCONT.5262992",
      "street": "R DO CAMPINHO",
      "house": "181",
      "postcode": "4990-291",
      "city": "PONTE DE LIMA",
      "lon": "-8.603014591192125",
      "lat": "41.74696033783921"
    },
    {
      "id": "pt.ine.add.PTCONT.5268584",
      "street": "BOUCAPAIO",
      "house": "9",
      "postcode": "4990-291",
      "city": "PONTE DE LIMA",
      "lon": "-8.603280586616997",
      "lat": "41.745518701007455"
    },
    {
      "id": "pt.ine.add.PTCONT.5271019",
      "street": "BOUÇAPAIO",
      "house": "2",
      "postcode": "4990-291",
      "city": "PONTE DE LIMA",
      "lon": "-8.603370914248115",
      "lat": "41.74636465375177"
    }
  ]
}