{
  "data": {
    "distrito": "Aveiro",
    "concelho": "Estarreja",
    "freguesia": "União das freguesias de Beduído e Veiros",
    "OBJECTID": 61,
    "BGRI2021": "01080800408",
    "DT21": "01",
    "DTMN21": "0108",
    "DTMNFR21": "010808",
    "DTMNFRSEC21": "010808004",
    "SECNUM21": "004",
    "SSNUM21": "08",
    "SECSSNUM21": "00408",
    "OBJECTID_1": 5041,
    "DT": "01",
    "CC": "08",
    "fr": "08",
    "SEC": "004",
    "SS": "08"
  },
  "addresses": [
    {
      "id": "pt.ine.add.PTCONT.290300",
      "street": "R PADRE ANTONIO MARIA PINHO",
      "house": "",
      "postcode": "3860-383",
      "city": "ESTARREJA",
      "lon": "-8.571906795518725",
      "lat": "40.75645864562431"
    },
    {
      "id": "pt.ine.add.PTCONT.290301",
      "street": "R PADRE ANTONIO MARIA PINHO",
      "house": "10",
      "postcode": "3860-383",
      "city": "ESTARREJA",
      "lon": "-8.571906795518725",
      "lat": "40.75645864562431"
    },
    {
      "id": "pt.ine.add.PTCONT.290308",
      "street": "R PADRE ANTONIO MARIA PINHO",
      "house": "",
      "postcode": "3860-383",
      "city": "ESTARREJA",
      "lon": "-8.571906795518725",
      "lat": "40.75645864562431"
    },
    {
      "id": "pt.ine.add.PTCONT.290309",
      "street": "R PADRE ANTONIO MARIA PINHO",
      "house": "",
      "postcode": "3860-383",
      "city": "ESTARREJA",
      "lon": "-8.571906795518725",
      "lat": "40.75645864562431"
    },
    {
      "id": "pt.ine.add.PTCONT.290310",
      "street": "R PADRE ANTONIO MARIA PINHO",
      "house": "",
      "postcode": "3860-383",
      "city": "ESTARREJA",
      "lon": "-8.571906795518725",
      "lat": "40.75645864562431"
    },
    {
      "id": "pt.ine.add.PTCONT.290311",
      "street": "R PADRE ANTONIO MARIA PINHO",
      "house": "",
      "postcode": "3860-383",
      "city": "ESTARREJA",
      "lon": "-8.571906795518725",
      "lat": "40.75645864562431"
    },
    {
      "id": "pt.ine.add.PTCONT.300182",
      "street": "R RESTAURACAO",
      "house": "162",
      "postcode": "3860-360",
      "city": "ESTARREJA",
      "lon": "-8.571844541382706",
      "lat": "40.7550890746338"
    },
    {
      "id": "pt.ine.add.PTCONT.300183",
      "street": "R RESTAURACAO",
      "house": "162",
      "postcode": "3860-360",
      "city": "ESTARREJA",
      "lon": "-8.571844541382706",
      "lat": "40.7550890746338"
    },
    {
      "id": "pt.ine.add.PTCONT.300184",
      "street": "R RESTAURACAO",
      "house": "162",
      "postcode": "3860-360",
      "city": "ESTARREJA",
      "lon": "-8.571844541382706",
      "lat": "40.7550890746338"
    },
    {
      "id": "pt.ine.add.PTCONT.300185",
      "street": "R RESTAURACAO",
      "house": "162",
      "postcode": "3860-360",
      "city": "ESTARREJA",
      "lon": "-8.571844541382706",
      "lat": "40.7550890746338"
    },
    {
      "id": "pt.ine.add.PTCONT.300186",
      "street": "R RESTAURACAO",
      "house": "162",
      "postcode": "3860-360",
      "city": "ESTARREJA",
      "lon": "-8.571844541382706",
      "lat": "40.7550890746338"
    },
    {
      "id": "pt.ine.add.PTCONT.300193",
      "street": "R RESTAURACAO",
      "house": "162",
      "postcode": "3860-360",
      "city": "ESTARREJA",
      "lon": "-8.571844541382706",
      "lat": "40.7550890746338"
    },
    {
      "id": "pt.ine.add.PTCONT.300196",
      "street": "R RESTAURACAO",
      "house": "162",
      "postcode": "3860-360",
      "city": "ESTARREJA",
      "lon": "-8.571844541382706",
      "lat": "40.7550890746338"
    },
    {
      "id": "pt.ine.add.PTCONT.312051",
      "street": "R DR GUILHERME SOUTO",
      "house": "80",
      "postcode": "3860-369",
      "city": "ESTARREJA",
      "lon": "-8.57225707224027",
      "lat": "40.755700895154575"
    },
    {
      "id": "pt.ine.add.PTCONT.332864",
      "street": "R PADRE ANTÓNIO MARIA PINHO",
      "house": "77",
      "postcode": "3860-383",
      "city": "ESTARREJA",
      "lon": "-8.5719056349767",
      "lat": "40.75559557868404"
    },
    {
      "id": "pt.ine.add.PTCONT.336359",
      "street": "TV SERRANOS",
      "house": "71 A",
      "postcode": "3860-392",
      "city": "ESTARREJA",
      "lon": "-8.572452871431727",
      "lat": "40.75672576113277"
    },
    {
      "id": "pt.ine.add.PTCONT.340923",
      "street": "R PADRE ANTÓNIO MARIA PINHO",
      "house": "161",
      "postcode": "3860-383",
      "city": "ESTARREJA",
      "lon": "-8.572224305807753",
      "lat": "40.75699926658827"
    },
    {
      "id": "pt.ine.add.PTCONT.345256",
      "street": "R DR PEREIRA MELO",
      "house": "157",
      "postcode": "3860-375",
      "city": "ESTARREJA",
      "lon": "-8.57236501785864",
      "lat": "40.75732933443047"
    },
    {
      "id": "pt.ine.add.PTCONT.8694",
      "street": "R PADRE ANTÓNIO MARIA PINHO",
      "house": "41",
      "postcode": "3860-383",
      "city": "ESTARREJA",
      "lon": "-8.571808638804102",
      "lat": "40.75530032205479"
    },
    {
      "id": "pt.ine.add.PTCONT.10641",
      "street": "TV SERRANOS",
      "house": "",
      "postcode": "3860-392",
      "city": "ESTARREJA",
      "lon": "-8.572454776854974",
      "lat": "40.75691427577651"
    },
    {
      "id": "pt.ine.add.PTCONT.10652",
      "street": "TV SERRANOS",
      "house": "",
      "postcode": "3860-392",
      "city": "ESTARREJA",
      "lon": "-8.572454776854974",
      "lat": "40.75691427577651"
    },
    {
      "id": "pt.ine.add.PTCONT.16687",
      "street": "R PADRE ANTÓNIO MARIA PINHO",
      "house": "",
      "postcode": "3860-383",
      "city": "ESTARREJA",
      "lon": "-8.572121843571814",
      "lat": "40.75674598708587"
    },
    {
      "id": "pt.ine.add.PTCONT.16688",
      "street": "R PADRE ANTÓNIO MARIA PINHO",
      "house": "",
      "postcode": "3860-383",
      "city": "ESTARREJA",
      "lon": "-8.572121843571814",
      "lat": "40.75674598708587"
    },
    {
      "id": "pt.ine.add.PTCONT.16689",
      "street": "R PADRE ANTÓNIO MARIA PINHO",
      "house": "",
      "postcode": "3860-383",
      "city": "ESTARREJA",
      "lon": "-8.572121843571814",
      "lat": "40.75674598708587"
    },
    {
      "id": "pt.ine.add.PTCONT.16690",
      "street": "R PADRE ANTÓNIO MARIA PINHO",
      "house": "",
      "postcode": "3860-383",
      "city": "ESTARREJA",
      "lon": "-8.572121843571814",
      "lat": "40.75674598708587"
    },
    {
      "id": "pt.ine.add.PTCONT.16691",
      "street": "R PADRE ANTÓNIO MARIA PINHO",
      "house": "",
      "postcode": "3860-383",
      "city": "ESTARREJA",
      "lon": "-8.572121843571814",
      "lat": "40.75674598708587"
    },
    {
      "id": "pt.ine.add.PTCONT.16692",
      "street": "R PADRE ANTÓNIO MARIA PINHO",
      "house": "",
      "postcode": "3860-383",
      "city": "ESTARREJA",
      "lon": "-8.572121843571814",
      "lat": "40.75674598708587"
    },
    {
      "id": "pt.ine.add.PTCONT.21060",
      "street": "R DR PEREIRA MELO",
      "house": "169",
      "postcode": "3860-375",
      "city": "ESTARREJA",
      "lon": "-8.572514634686216",
      "lat": "40.757365036033754"
    },
    {
      "id": "pt.ine.add.PTCONT.21069",
      "street": "R DR PEREIRA MELO",
      "house": "169",
      "postcode": "3860-375",
      "city": "ESTARREJA",
      "lon": "-8.572514634686216",
      "lat": "40.757365036033754"
    },
    {
      "id": "pt.ine.add.PTCONT.22461",
      "street": "R DR GUILHERME SOUTO",
      "house": "140",
      "postcode": "3860-369",
      "city": "ESTARREJA",
      "lon": "-8.57243932099688",
      "lat": "40.75640258985356"
    },
    {
      "id": "pt.ine.add.PTCONT.22462",
      "street": "R DR GUILHERME SOUTO",
      "house": "140",
      "postcode": "3860-369",
      "city": "ESTARREJA",
      "lon": "-8.57243932099688",
      "lat": "40.75640258985356"
    },
    {
      "id": "pt.ine.add.PTCONT.65272",
      "street": "R PADRE ANTÓNIO MARIA PINHO",
      "house": "71",
      "postcode": "3860-383",
      "city": "ESTARREJA",
      "lon": "-8.571863548805894",
      "lat": "40.755505893309085"
    },
    {
      "id": "pt.ine.add.PTCONT.68290",
      "street": "R PADRE ANTÓNIO MARIA PINHO",
      "house": "",
      "postcode": "3860-383",
      "city": "ESTARREJA",
      "lon": "-8.572002477483451",
      "lat": "40.75660236144156"
    },
    {
      "id": "pt.ine.add.PTCONT.68291",
      "street": "R PADRE ANTÓNIO MARIA PINHO",
      "house": "",
      "postcode": "3860-383",
      "city": "ESTARREJA",
      "lon": "-8.572002477483451",
      "lat": "40.75660236144156"
    },
    {
      "id": "pt.ine.add.PTCONT.68410",
      "street": "R PADRE ANTÓNIO MARIA PINHO",
      "house": "",
      "postcode": "3860-383",
      "city": "ESTARREJA",
      "lon": "-8.572002477483451",
      "lat": "40.75660236144156"
    },
    {
      "id": "pt.ine.add.PTCONT.68411",
      "street": "R PADRE ANTÓNIO MARIA PINHO",
      "house": "",
      "postcode": "3860-383",
      "city": "ESTARREJA",
      "lon": "-8.572002477483451",
      "lat": "40.75660236144156"
    },
    {
      "id": "pt.ine.add.PTCONT.68412",
      "street": "R PADRE ANTÓNIO MARIA PINHO",
      "house": "",
      "postcode": "3860-383",
      "city": "ESTARREJA",
      "lon": "-8.572002477483451",
      "lat": "40.75660236144156"
    },
    {
      "id": "pt.ine.add.PTCONT.69183",
      "street": "R PADRE ANTÓNIO MARIA PINHO",
      "house": "",
      "postcode": "3860-383",
      "city": "ESTARREJA",
      "lon": "-8.572002477483451",
      "lat": "40.75660236144156"
    },
    {
      "id": "pt.ine.add.PTCONT.73240",
      "street": "R DR GUILHERME SOUTO",
      "house": "30",
      "postcode": "3860-369",
      "city": "ESTARREJA",
      "lon": "-8.572005554657423",
      "lat": "40.75526961291192"
    },
    {
      "id": "pt.ine.add.PTCONT.73241",
      "street": "R DR GUILHERME SOUTO",
      "house": "214",
      "postcode": "3860-369",
      "city": "ESTARREJA",
      "lon": "-8.57297390981127",
      "lat": "40.75703773140521"
    },
    {
      "id": "pt.ine.add.PTCONT.78706",
      "street": "R DR PEREIRA MELO",
      "house": "197",
      "postcode": "3860-375",
      "city": "ESTARREJA",
      "lon": "-8.572859717426743",
      "lat": "40.75730148648884"
    },
    {
      "id": "pt.ine.add.PTCONT.116047",
      "street": "R PADRE ANTÓNIO MARIA PINHO",
      "house": "103",
      "postcode": "3860-383",
      "city": "ESTARREJA",
      "lon": "-8.57169911728767",
      "lat": "40.75598622433301"
    },
    {
      "id": "pt.ine.add.PTCONT.118794",
      "street": "R DR GUILHERME SOUTO",
      "house": "168",
      "postcode": "3860-369",
      "city": "ESTARREJA",
      "lon": "-8.572724235844527",
      "lat": "40.75650956466529"
    },
    {
      "id": "pt.ine.add.PTCONT.130818",
      "street": "R PADRE ANTÓNIO MARIA PINHO",
      "house": "81",
      "postcode": "3860-383",
      "city": "ESTARREJA",
      "lon": "-8.571907370815161",
      "lat": "40.75580321159051"
    },
    {
      "id": "pt.ine.add.PTCONT.145576",
      "street": "R DR GUILHERME SOUTO",
      "house": "82 AGRA",
      "postcode": "3860-369",
      "city": "ESTARREJA",
      "lon": "-8.572312390984706",
      "lat": "40.75585189265221"
    },
    {
      "id": "pt.ine.add.PTCONT.148564",
      "street": "R DR PEREIRA MELO",
      "house": "252",
      "postcode": "3860-375",
      "city": "ESTARREJA",
      "lon": "-8.57309649709352",
      "lat": "40.75729157906823"
    },
    {
      "id": "pt.ine.add.PTCONT.153777",
      "street": "R DR GUILHERME SOUTO",
      "house": "186",
      "postcode": "3860-369",
      "city": "ESTARREJA",
      "lon": "-8.572876129834537",
      "lat": "40.75692773813515"
    },
    {
      "id": "pt.ine.add.PTCONT.159487",
      "street": "R DR GUILHERME SOUTO",
      "house": "32",
      "postcode": "3860-369",
      "city": "ESTARREJA",
      "lon": "-8.57209015812511",
      "lat": "40.75543960502376"
    },
    {
      "id": "pt.ine.add.PTCONT.171040",
      "street": "R DR PEREIRA MELO",
      "house": "183",
      "postcode": "3860-375",
      "city": "ESTARREJA",
      "lon": "-8.572705890681847",
      "lat": "40.75732008246491"
    },
    {
      "id": "pt.ine.add.PTCONT.171051",
      "street": "R DR PEREIRA MELO",
      "house": "183",
      "postcode": "3860-375",
      "city": "ESTARREJA",
      "lon": "-8.572705890681847",
      "lat": "40.75732008246491"
    },
    {
      "id": "pt.ine.add.PTCONT.183267",
      "street": "R PADRE ANTÓNIO MARIA PINHO",
      "house": "147",
      "postcode": "3860-383",
      "city": "ESTARREJA",
      "lon": "-8.571727215402108",
      "lat": "40.75616216397788"
    },
    {
      "id": "pt.ine.add.PTCONT.203619",
      "street": "R DR PEREIRA MELO",
      "house": "53",
      "postcode": "3860-375",
      "city": "ESTARREJA",
      "lon": "-8.57262216601283",
      "lat": "40.757355333443016"
    },
    {
      "id": "pt.ine.add.PTCONT.228321",
      "street": "R PROF DR EGAS MONIZ",
      "house": "89",
      "postcode": "3860-378",
      "city": "ESTARREJA",
      "lon": "-8.571783664406388",
      "lat": "40.755910897836465"
    },
    {
      "id": "pt.ine.add.PTCONT.231114",
      "street": "R PADRE ANTONIO MARIA PINHO",
      "house": "71",
      "postcode": "3860-383",
      "city": "ESTARREJA",
      "lon": "-8.572616940601112",
      "lat": "40.7568990639742"
    },
    {
      "id": "pt.ine.add.PTCONT.231115",
      "street": "TV SERRANOS",
      "house": "40",
      "postcode": "3860-392",
      "city": "ESTARREJA",
      "lon": "-8.572616940601112",
      "lat": "40.7568990639742"
    },
    {
      "id": "pt.ine.add.PTCONT.255383",
      "street": "R PADRE ANTÓNIO MARIA PINHO",
      "house": "95",
      "postcode": "3860-383",
      "city": "ESTARREJA",
      "lon": "-8.571964276476466",
      "lat": "40.756000430276956"
    }
  ]
}