{
  "data": {
    "distrito": "Bragança",
    "concelho": "Mogadouro",
    "freguesia": "Vila de Ala",
    "OBJECTID": 124,
    "BGRI2021": "04082600115",
    "DT21": "04",
    "DTMN21": "0408",
    "DTMNFR21": "040826",
    "DTMNFRSEC21": "040826001",
    "SECNUM21": "001",
    "SSNUM21": "15",
    "SECSSNUM21": "00115",
    "OBJECTID_1": 37959,
    "DT": "04",
    "CC": "08",
    "fr": "26",
    "SEC": "001",
    "SS": "15"
  },
  "addresses": [
    {
      "id": "pt.ine.add.PTCONT.874743",
      "street": "R CALVÁRIO",
      "house": "",
      "postcode": "5200-543",
      "city": "VILA DE ALA",
      "lon": "-6.637624789916692",
      "lat": "41.33991323767791"
    },
    {
      "id": "pt.ine.add.PTCONT.885796",
      "street": "R FONTE",
      "house": "",
      "postcode": "5200-543",
      "city": "VILA DE ALA",
      "lon": "-6.636731714710278",
      "lat": "41.3408290090869"
    },
    {
      "id": "pt.ine.add.PTCONT.891916",
      "street": "R CALVÁRIO",
      "house": "",
      "postcode": "5200-543",
      "city": "VILA DE ALA",
      "lon": "-6.637468705152813",
      "lat": "41.33994722386478"
    },
    {
      "id": "pt.ine.add.PTCONT.897539",
      "street": "R FONTE",
      "house": "12",
      "postcode": "5200-543",
      "city": "VILA DE ALA",
      "lon": "-6.6368011077577265",
      "lat": "41.340928952207285"
    },
    {
      "id": "pt.ine.add.PTCONT.902209",
      "street": "",
      "house": "",
      "postcode": "5200-543",
      "city": "VILA DE ALA",
      "lon": "-6.637227370089505",
      "lat": "41.34005213127777"
    },
    {
      "id": "pt.ine.add.PTCONT.928731",
      "street": "R CALVÁRIO",
      "house": "",
      "postcode": "5200-543",
      "city": "VILA DE ALA",
      "lon": "-6.638017060649011",
      "lat": "41.33999936844479"
    },
    {
      "id": "pt.ine.add.PTCONT.930216",
      "street": "R CANADA",
      "house": "",
      "postcode": "5200-543",
      "city": "VILA DE ALA",
      "lon": "-6.637873742708293",
      "lat": "41.339997506235505"
    },
    {
      "id": "pt.ine.add.PTCONT.936257",
      "street": "R CANADA",
      "house": "",
      "postcode": "5200-543",
      "city": "VILA DE ALA",
      "lon": "-6.638160584482087",
      "lat": "41.339992229444455"
    },
    {
      "id": "pt.ine.add.PTCONT.947302",
      "street": "LG FONTE",
      "house": "",
      "postcode": "5200-543",
      "city": "VILA DE ALA",
      "lon": "-6.6371073075994556",
      "lat": "41.34112201126821"
    }
  ]
}