{
  "data": {
    "distrito": "Faro",
    "concelho": "Lagos",
    "freguesia": "São Gonçalo de Lagos",
    "OBJECTID": 294,
    "BGRI2021": "08070803004",
    "DT21": "08",
    "DTMN21": "0807",
    "DTMNFR21": "080708",
    "DTMNFRSEC21": "080708030",
    "SECNUM21": "030",
    "SSNUM21": "04",
    "SECSSNUM21": "03004",
    "OBJECTID_1": 67764,
    "DT": "08",
    "CC": "07",
    "fr": "08",
    "SEC": "030",
    "SS": "04"
  },
  "addresses": [
    {
      "id": "pt.ine.add.PTCONT.1481943",
      "street": "R ANTÓNIO LUIS SILVA",
      "house": "7",
      "postcode": "8600-329",
      "city": "LAGOS",
      "lon": "-8.69574875848586",
      "lat": "37.0971464226263"
    },
    {
      "id": "pt.ine.add.PTCONT.1491830",
      "street": "R MANUEL DE BARROS AMADO DA CUNHA",
      "house": "",
      "postcode": "8600-329",
      "city": "LAGOS",
      "lon": "-8.699564983371978",
      "lat": "37.09602896644319"
    },
    {
      "id": "pt.ine.add.PTCONT.1501567",
      "street": "R MANUEL DE BARROS AMADO DA CUNHA",
      "house": "",
      "postcode": "8600-329",
      "city": "LAGOS",
      "lon": "-8.699493470815977",
      "lat": "37.09548867460296"
    },
    {
      "id": "pt.ine.add.PTCONT.1501568",
      "street": "R ANTÓNIO LUIS SILVA",
      "house": "15",
      "postcode": "8600-329",
      "city": "LAGOS",
      "lon": "-8.695498306490457",
      "lat": "37.098264919613534"
    },
    {
      "id": "pt.ine.add.PTCONT.1505124",
      "street": "URB MOINHO VELHO CASA DO MOLEIRO",
      "house": "1 1",
      "postcode": "8600-329",
      "city": "LAGOS",
      "lon": "-8.699987069868158",
      "lat": "37.09681987835782"
    },
    {
      "id": "pt.ine.add.PTCONT.1525269",
      "street": "R ANTÓNIO LUIS SILVA",
      "house": "13",
      "postcode": "8600-329",
      "city": "LAGOS",
      "lon": "-8.695429284310222",
      "lat": "37.098058004173815"
    },
    {
      "id": "pt.ine.add.PTCONT.1530905",
      "street": "URB MOINHO VELHO",
      "house": "",
      "postcode": "8600-329",
      "city": "LAGOS",
      "lon": "-8.699225074246925",
      "lat": "37.09721097247725"
    },
    {
      "id": "pt.ine.add.PTCONT.1533989",
      "street": "URB MOINHO VELHO CASA DABRUSA",
      "house": "19",
      "postcode": "8600-329",
      "city": "LAGOS",
      "lon": "-8.699294038875797",
      "lat": "37.09740887542249"
    },
    {
      "id": "pt.ine.add.PTCONT.1534006",
      "street": "R ANTÓNIO LUIS SILVA",
      "house": "3",
      "postcode": "8600-329",
      "city": "LAGOS",
      "lon": "-8.695989954799765",
      "lat": "37.0962982856002"
    },
    {
      "id": "pt.ine.add.PTCONT.1538343",
      "street": "R MANUEL DE BARROS AMADO DA CUNHA",
      "house": "1",
      "postcode": "8600-329",
      "city": "LAGOS",
      "lon": "-8.699141096109626",
      "lat": "37.09499477641394"
    },
    {
      "id": "pt.ine.add.PTCONT.1540288",
      "street": "URB MOINHO VELHO",
      "house": "9",
      "postcode": "8600-329",
      "city": "LAGOS",
      "lon": "-8.69937492276532",
      "lat": "37.097696826944535"
    },
    {
      "id": "pt.ine.add.PTCONT.1551381",
      "street": "ESTR ATALAIA",
      "house": "",
      "postcode": "8600-329",
      "city": "LAGOS",
      "lon": "-8.70054759882573",
      "lat": "37.09656490190018"
    },
    {
      "id": "pt.ine.add.PTCONT.1562763",
      "street": "R MANUEL DE BARROS AMADO DA CUNHA CASA DA BARATA",
      "house": "",
      "postcode": "8600-329",
      "city": "LAGOS",
      "lon": "-8.698718429466874",
      "lat": "37.095636542773654"
    },
    {
      "id": "pt.ine.add.PTCONT.1625288",
      "street": "URB MOINHO VELHO",
      "house": "13",
      "postcode": "8600-329",
      "city": "LAGOS",
      "lon": "-8.699739743473751",
      "lat": "37.096839081544765"
    },
    {
      "id": "pt.ine.add.PTCONT.1632320",
      "street": "R MANUEL DE BARROS AMADO DA CUNHA",
      "house": "",
      "postcode": "8600-329",
      "city": "LAGOS",
      "lon": "-8.699098248925557",
      "lat": "37.09528331878784"
    },
    {
      "id": "pt.ine.add.PTCONT.1647296",
      "street": "URB MOINHO VELHO",
      "house": "",
      "postcode": "8600-329",
      "city": "LAGOS",
      "lon": "-8.70000735100611",
      "lat": "37.09652243307212"
    },
    {
      "id": "pt.ine.add.PTCONT.1653937",
      "street": "R MANUEL DE BARROS AMADO DA CUNHA",
      "house": "5",
      "postcode": "8600-329",
      "city": "LAGOS",
      "lon": "-8.699115461792347",
      "lat": "37.09608517623544"
    },
    {
      "id": "pt.ine.add.PTCONT.1663395",
      "street": "R MANUEL DE BARROS AMADO DA CUNHA",
      "house": "",
      "postcode": "8600-329",
      "city": "LAGOS",
      "lon": "-8.699541011590371",
      "lat": "37.09583084870122"
    },
    {
      "id": "pt.ine.add.PTCONT.1666253",
      "street": "ATALAIA",
      "house": "",
      "postcode": "8600-281",
      "city": "LAGOS",
      "lon": "-8.696525729050348",
      "lat": "37.09573708662271"
    },
    {
      "id": "pt.ine.add.PTCONT.1676286",
      "street": "URB MOINHO VELHO",
      "house": "17",
      "postcode": "8600-329",
      "city": "LAGOS",
      "lon": "-8.699351889652133",
      "lat": "37.097624852499116"
    },
    {
      "id": "pt.ine.add.PTCONT.1679062",
      "street": "URB MOINHO VELHO",
      "house": "",
      "postcode": "8600-329",
      "city": "LAGOS",
      "lon": "-8.699467774410088",
      "lat": "37.09657006413354"
    },
    {
      "id": "pt.ine.add.PTCONT.1684312",
      "street": "URB MOINHO VELHO",
      "house": "",
      "postcode": "8600-329",
      "city": "LAGOS",
      "lon": "-8.699218504645888",
      "lat": "37.096327969385264"
    },
    {
      "id": "pt.ine.add.PTCONT.1686190",
      "street": "URB MOINHO VELHO",
      "house": "",
      "postcode": "8600-329",
      "city": "LAGOS",
      "lon": "-8.699218504645888",
      "lat": "37.096327969385264"
    },
    {
      "id": "pt.ine.add.PTCONT.1693107",
      "street": "R MANUEL DE BARROS AMADO DA CUNHA",
      "house": "",
      "postcode": "8600-329",
      "city": "LAGOS",
      "lon": "-8.699803072213879",
      "lat": "37.09628012446379"
    },
    {
      "id": "pt.ine.add.PTCONT.1716149",
      "street": "URB MOINHO VELHO CASA FAMILIE FASSKE",
      "house": "18",
      "postcode": "8600-329",
      "city": "LAGOS",
      "lon": "-8.699317071866355",
      "lat": "37.097480849882764"
    },
    {
      "id": "pt.ine.add.PTCONT.1723022",
      "street": "URB MOINHO VELHO",
      "house": "7",
      "postcode": "8600-329",
      "city": "LAGOS",
      "lon": "-8.699108771198812",
      "lat": "37.09669792599729"
    },
    {
      "id": "pt.ine.add.PTCONT.1724431",
      "street": "ESTR ATALAIA",
      "house": "",
      "postcode": "8600-329",
      "city": "LAGOS",
      "lon": "-8.696349161583523",
      "lat": "37.09619746386511"
    },
    {
      "id": "pt.ine.add.PTCONT.1727442",
      "street": "URB MOINHO VELHO",
      "house": "",
      "postcode": "8600-329",
      "city": "LAGOS",
      "lon": "-8.699703717651333",
      "lat": "37.09653289479428"
    },
    {
      "id": "pt.ine.add.PTCONT.1735784",
      "street": "",
      "house": "",
      "postcode": "8600-281",
      "city": "LAGOS",
      "lon": "-8.698212133992588",
      "lat": "37.09562093545803"
    },
    {
      "id": "pt.ine.add.PTCONT.1735786",
      "street": "R MANUEL DE BARROS AMADO DA CUNHA",
      "house": "",
      "postcode": "8600-329",
      "city": "LAGOS",
      "lon": "-8.699577505931009",
      "lat": "37.09620010719752"
    },
    {
      "id": "pt.ine.add.PTCONT.1738855",
      "street": "R MANUEL DE BARROS AMADO DA CUNHA",
      "house": "",
      "postcode": "8600-329",
      "city": "LAGOS",
      "lon": "-8.699553849236024",
      "lat": "37.094533267039274"
    },
    {
      "id": "pt.ine.add.PTCONT.1745058",
      "street": "R MANUEL DE BARROS AMADO DA CUNHA",
      "house": "",
      "postcode": "8600-329",
      "city": "LAGOS",
      "lon": "-8.699490184627384",
      "lat": "37.09504717296552"
    },
    {
      "id": "pt.ine.add.PTCONT.1745059",
      "street": "R MANUEL DE BARROS AMADO DA CUNHA",
      "house": "",
      "postcode": "8600-329",
      "city": "LAGOS",
      "lon": "-8.699539804294442",
      "lat": "37.09566866444083"
    },
    {
      "id": "pt.ine.add.PTCONT.1751148",
      "street": "R MANUEL DE BARROS AMADO DA CUNHA",
      "house": "",
      "postcode": "8600-329",
      "city": "LAGOS",
      "lon": "-8.699491458855277",
      "lat": "37.09521836748194"
    },
    {
      "id": "pt.ine.add.PTCONT.1755880",
      "street": "R MANUEL DE BARROS AMADO DA CUNHA",
      "house": "",
      "postcode": "8600-329",
      "city": "LAGOS",
      "lon": "-8.699504048158623",
      "lat": "37.09539851850716"
    },
    {
      "id": "pt.ine.add.PTCONT.1777222",
      "street": "R MANUEL DE BARROS AMADO DA CUNHA",
      "house": "",
      "postcode": "8600-329",
      "city": "LAGOS",
      "lon": "-8.699466347505153",
      "lat": "37.094867075647805"
    },
    {
      "id": "pt.ine.add.PTCONT.1793393",
      "street": "R MANUEL DE BARROS AMADO DA CUNHA",
      "house": "3",
      "postcode": "8600-329",
      "city": "LAGOS",
      "lon": "-8.699122688517916",
      "lat": "37.0955445083126"
    },
    {
      "id": "pt.ine.add.PTCONT.1797219",
      "street": "URB MOINHO VELHO",
      "house": "",
      "postcode": "8600-329",
      "city": "LAGOS",
      "lon": "-8.699469652252656",
      "lat": "37.0968223507236"
    },
    {
      "id": "pt.ine.add.PTCONT.1800900",
      "street": "URB MOINHO VELHO",
      "house": "",
      "postcode": "8600-329",
      "city": "LAGOS",
      "lon": "-8.699200499624084",
      "lat": "37.09693176258343"
    },
    {
      "id": "pt.ine.add.PTCONT.1813627",
      "street": "R ANTÓNIO LUIS SILVA",
      "house": "1",
      "postcode": "8600-329",
      "city": "LAGOS",
      "lon": "-8.696021432898666",
      "lat": "37.09599177720705"
    },
    {
      "id": "pt.ine.add.PTCONT.1816251",
      "street": "R MANUEL DE BARROS AMADO DA CUNHA",
      "house": "4",
      "postcode": "8600-329",
      "city": "LAGOS",
      "lon": "-8.69912469919243",
      "lat": "37.09581481543595"
    },
    {
      "id": "pt.ine.add.PTCONT.1830203",
      "street": "R MANUEL DE BARROS AMADO DA CUNHA",
      "house": "",
      "postcode": "8600-329",
      "city": "LAGOS",
      "lon": "-8.699453892513752",
      "lat": "37.09470494507787"
    },
    {
      "id": "pt.ine.add.PTCONT.1830204",
      "street": "R ANTÓNIO LUIS SILVA",
      "house": "5",
      "postcode": "8600-329",
      "city": "LAGOS",
      "lon": "-8.696250929246807",
      "lat": "37.096603405490654"
    },
    {
      "id": "pt.ine.add.PTCONT.1830205",
      "street": "R ANTÓNIO LUIS SILVA",
      "house": "5",
      "postcode": "8600-329",
      "city": "LAGOS",
      "lon": "-8.696250929246807",
      "lat": "37.096603405490654"
    }
  ]
}