{
  "data": {
    "distrito": "Faro",
    "concelho": "Albufeira",
    "freguesia": "Ferreiras",
    "OBJECTID": 115,
    "BGRI2021": "08010400402",
    "DT21": "08",
    "DTMN21": "0801",
    "DTMNFR21": "080104",
    "DTMNFRSEC21": "080104004",
    "SECNUM21": "004",
    "SSNUM21": "02",
    "SECSSNUM21": "00402",
    "OBJECTID_1": 64817,
    "DT": "08",
    "CC": "01",
    "fr": "04",
    "SEC": "004",
    "SS": "02"
  },
  "addresses": [
    {
      "id": "pt.ine.add.PTCONT.1467852",
      "street": "QTA CORTESOES CASA CELESTE",
      "house": "",
      "postcode": "8200-557",
      "city": "FERREIRAS",
      "lon": "-8.233655105990906",
      "lat": "37.11790158820485"
    },
    {
      "id": "pt.ine.add.PTCONT.1467853",
      "street": "URB QUINTA DA TORRE CASA DAS MEALHADAS",
      "house": "13",
      "postcode": "8200-562",
      "city": "FERREIRAS",
      "lon": "-8.233956432368394",
      "lat": "37.116036129374265"
    },
    {
      "id": "pt.ine.add.PTCONT.1469493",
      "street": "ESTR NORA",
      "house": "1 12",
      "postcode": "8200-562",
      "city": "FERREIRAS",
      "lon": "-8.233641328419385",
      "lat": "37.11599134375877"
    },
    {
      "id": "pt.ine.add.PTCONT.1469494",
      "street": "ESTR NORA",
      "house": "",
      "postcode": "8200-557",
      "city": "FERREIRAS",
      "lon": "-8.234215003162246",
      "lat": "37.11587371757271"
    },
    {
      "id": "pt.ine.add.PTCONT.1489758",
      "street": "ESTR NORA",
      "house": "14",
      "postcode": "8200-557",
      "city": "FERREIRAS",
      "lon": "-8.235059413870465",
      "lat": "37.116278473437134"
    },
    {
      "id": "pt.ine.add.PTCONT.1499595",
      "street": "ESTR NORA",
      "house": "62",
      "postcode": "8200-562",
      "city": "FERREIRAS",
      "lon": "-8.234530671831259",
      "lat": "37.116342001416335"
    },
    {
      "id": "pt.ine.add.PTCONT.1499596",
      "street": "",
      "house": "",
      "postcode": "8200-562",
      "city": "FERREIRAS",
      "lon": "-8.231022878158253",
      "lat": "37.118453440321964"
    },
    {
      "id": "pt.ine.add.PTCONT.1518805",
      "street": "URB QUINTA DA TORRE",
      "house": "8",
      "postcode": "8200-562",
      "city": "FERREIRAS",
      "lon": "-8.233450301285467",
      "lat": "37.11618072909321"
    },
    {
      "id": "pt.ine.add.PTCONT.1519860",
      "street": "ESTR NORA",
      "house": "",
      "postcode": "8200-557",
      "city": "FERREIRAS",
      "lon": "-8.235128325992465",
      "lat": "37.11732364865911"
    },
    {
      "id": "pt.ine.add.PTCONT.1519861",
      "street": "ESTR MONTECHORO",
      "house": "",
      "postcode": "8200-562",
      "city": "FERREIRAS",
      "lon": "-8.228703323624178",
      "lat": "37.11713977963757"
    },
    {
      "id": "pt.ine.add.PTCONT.1519862",
      "street": "ESTR MONTECHORO JO√ÉO B DOS SANTOS",
      "house": "",
      "postcode": "8200-562",
      "city": "FERREIRAS",
      "lon": "-8.229299221810475",
      "lat": "37.116787882623896"
    },
    {
      "id": "pt.ine.add.PTCONT.1531540",
      "street": "URB QUINTA DA TORRE",
      "house": "EA",
      "postcode": "8200-562",
      "city": "FERREIRAS",
      "lon": "-8.234496496429504",
      "lat": "37.11602665813337"
    },
    {
      "id": "pt.ine.add.PTCONT.1542416",
      "street": "ESTR NORA",
      "house": "12",
      "postcode": "8200-557",
      "city": "FERREIRAS",
      "lon": "-8.235262439362069",
      "lat": "37.11664773503689"
    },
    {
      "id": "pt.ine.add.PTCONT.1565072",
      "street": "ESTR NORA VILA GOIA",
      "house": "65YA",
      "postcode": "8200-557",
      "city": "FERREIRAS",
      "lon": "-8.235500156334787",
      "lat": "37.11771078569325"
    },
    {
      "id": "pt.ine.add.PTCONT.1572874",
      "street": "URB QUINTA DA TORRE",
      "house": "7",
      "postcode": "8200-562",
      "city": "FERREIRAS",
      "lon": "-8.233473196979718",
      "lat": "37.11647806093549"
    },
    {
      "id": "pt.ine.add.PTCONT.1572875",
      "street": "",
      "house": "",
      "postcode": "8200-562",
      "city": "FERREIRAS",
      "lon": "-8.22988427568715",
      "lat": "37.11676037459516"
    },
    {
      "id": "pt.ine.add.PTCONT.1572876",
      "street": "VV JOSE SANTOS",
      "house": "",
      "postcode": "8200-562",
      "city": "FERREIRAS",
      "lon": "-8.22988427568715",
      "lat": "37.11676037459516"
    },
    {
      "id": "pt.ine.add.PTCONT.1580616",
      "street": "",
      "house": "",
      "postcode": "8200-562",
      "city": "FERREIRAS",
      "lon": "-8.229625303732176",
      "lat": "37.116616415410505"
    },
    {
      "id": "pt.ine.add.PTCONT.1585579",
      "street": "",
      "house": "",
      "postcode": "8200-562",
      "city": "FERREIRAS",
      "lon": "-8.230052890255052",
      "lat": "37.11663408784667"
    },
    {
      "id": "pt.ine.add.PTCONT.1590964",
      "street": "URB QUINTA DA TORRE CASA KAMBAR",
      "house": "10",
      "postcode": "8200-562",
      "city": "FERREIRAS",
      "lon": "-8.232988926230423",
      "lat": "37.11613606544585"
    },
    {
      "id": "pt.ine.add.PTCONT.1591328",
      "street": "ESTR NORA",
      "house": "68Y",
      "postcode": "8200-557",
      "city": "FERREIRAS",
      "lon": "-8.235499852981654",
      "lat": "37.1174855199306"
    },
    {
      "id": "pt.ine.add.PTCONT.1597597",
      "street": "URB QUINTA DA TORRE",
      "house": "5",
      "postcode": "8200-562",
      "city": "FERREIRAS",
      "lon": "-8.234002203894347",
      "lat": "37.11661277158764"
    },
    {
      "id": "pt.ine.add.PTCONT.1597600",
      "street": "ESTR MONTECHORO ALIETE VIERA XAVIER",
      "house": "",
      "postcode": "8200-562",
      "city": "FERREIRAS",
      "lon": "-8.229354921430271",
      "lat": "37.116346315913674"
    },
    {
      "id": "pt.ine.add.PTCONT.1603865",
      "street": "",
      "house": "",
      "postcode": "8200-562",
      "city": "FERREIRAS",
      "lon": "-8.229523684491745",
      "lat": "37.11633716815317"
    },
    {
      "id": "pt.ine.add.PTCONT.1618428",
      "street": "ESTR NORA",
      "house": "G1",
      "postcode": "8200-562",
      "city": "FERREIRAS",
      "lon": "-8.234654427728639",
      "lat": "37.116332884844844"
    },
    {
      "id": "pt.ine.add.PTCONT.1624297",
      "street": "",
      "house": "",
      "postcode": "8200-557",
      "city": "FERREIRAS",
      "lon": "-8.230977754397651",
      "lat": "37.11836337117821"
    },
    {
      "id": "pt.ine.add.PTCONT.1629331",
      "street": "ESTR NORA",
      "house": "I3",
      "postcode": "8200-557",
      "city": "FERREIRAS",
      "lon": "-8.235059679661129",
      "lat": "37.116476707351914"
    },
    {
      "id": "pt.ine.add.PTCONT.1632260",
      "street": "ESTR NORA",
      "house": "",
      "postcode": "8200-557",
      "city": "FERREIRAS",
      "lon": "-8.235139747046228",
      "lat": "37.11744978780971"
    },
    {
      "id": "pt.ine.add.PTCONT.1640989",
      "street": "URB QUINTA DA TORRE",
      "house": "15",
      "postcode": "8200-562",
      "city": "FERREIRAS",
      "lon": "-8.23419275158859",
      "lat": "37.116062960060766"
    },
    {
      "id": "pt.ine.add.PTCONT.1649774",
      "street": "QTA CORTESOES",
      "house": "",
      "postcode": "8200-557",
      "city": "FERREIRAS",
      "lon": "-8.233519738569456",
      "lat": "37.11764039434107"
    },
    {
      "id": "pt.ine.add.PTCONT.1667409",
      "street": "ESTR MONTECHORO",
      "house": "",
      "postcode": "8200-562",
      "city": "FERREIRAS",
      "lon": "-8.228928313205063",
      "lat": "37.11710355545024"
    },
    {
      "id": "pt.ine.add.PTCONT.1672809",
      "street": "ESTR NORA",
      "house": "66YB",
      "postcode": "8200-557",
      "city": "FERREIRAS",
      "lon": "-8.235567643044167",
      "lat": "37.11769270610994"
    },
    {
      "id": "pt.ine.add.PTCONT.1678558",
      "street": "ALDA GOMES FRADE LABISA",
      "house": "",
      "postcode": "8200-562",
      "city": "FERREIRAS",
      "lon": "-8.229737373875986",
      "lat": "37.11626490904234"
    },
    {
      "id": "pt.ine.add.PTCONT.1698215",
      "street": "R NORA",
      "house": "",
      "postcode": "8200-562",
      "city": "FERREIRAS",
      "lon": "-8.232775074963051",
      "lat": "37.116082181544826"
    },
    {
      "id": "pt.ine.add.PTCONT.1706768",
      "street": "ESTR NORA",
      "house": "B4",
      "postcode": "8200-557",
      "city": "FERREIRAS",
      "lon": "-8.234732526789019",
      "lat": "37.115837232545516"
    },
    {
      "id": "pt.ine.add.PTCONT.1712606",
      "street": "ESTR MONTECHORO ALIETE VIERA XAVIER",
      "house": "",
      "postcode": "8200-562",
      "city": "FERREIRAS",
      "lon": "-8.229411282301253",
      "lat": "37.116427365937696"
    },
    {
      "id": "pt.ine.add.PTCONT.1715600",
      "street": "ESTR NORA VILLA GOIA",
      "house": "67YC",
      "postcode": "8200-557",
      "city": "FERREIRAS",
      "lon": "-8.235601495702609",
      "lat": "37.11776476197645"
    },
    {
      "id": "pt.ine.add.PTCONT.1726917",
      "street": "QTA CORTESOES",
      "house": "",
      "postcode": "8200-557",
      "city": "FERREIRAS",
      "lon": "-8.233362189291194",
      "lat": "37.11762250638418"
    },
    {
      "id": "pt.ine.add.PTCONT.1726922",
      "street": "URB QUINTA DA TORRE CASA SAN SEBASTIAN",
      "house": "G3",
      "postcode": "8200-562",
      "city": "FERREIRAS",
      "lon": "-8.234316890858436",
      "lat": "37.11634218409727"
    },
    {
      "id": "pt.ine.add.PTCONT.1735386",
      "street": "ESTR NORA",
      "house": "",
      "postcode": "8200-557",
      "city": "FERREIRAS",
      "lon": "-8.234655619058232",
      "lat": "37.11722493741198"
    },
    {
      "id": "pt.ine.add.PTCONT.1743882",
      "street": "ESTR MONTECHORO",
      "house": "621 Y",
      "postcode": "8200-562",
      "city": "FERREIRAS",
      "lon": "-8.228624878311376",
      "lat": "37.117392140836756"
    },
    {
      "id": "pt.ine.add.PTCONT.1750435",
      "street": "",
      "house": "",
      "postcode": "8200-562",
      "city": "FERREIRAS",
      "lon": "-8.230018951483887",
      "lat": "37.1164899453046"
    },
    {
      "id": "pt.ine.add.PTCONT.1769077",
      "street": "ESTR NORA",
      "house": "11",
      "postcode": "8200-557",
      "city": "FERREIRAS",
      "lon": "-8.235296363921599",
      "lat": "37.11677385479558"
    },
    {
      "id": "pt.ine.add.PTCONT.1772096",
      "street": "",
      "house": "",
      "postcode": "8200-562",
      "city": "FERREIRAS",
      "lon": "-8.230007791692831",
      "lat": "37.11656203957005"
    },
    {
      "id": "pt.ine.add.PTCONT.1774887",
      "street": "URB QUINTA DA TORRE",
      "house": "16",
      "postcode": "8200-562",
      "city": "FERREIRAS",
      "lon": "-8.234890374214098",
      "lat": "37.116080384520984"
    },
    {
      "id": "pt.ine.add.PTCONT.1781210",
      "street": "CAM CORTESOES",
      "house": "",
      "postcode": "8200-557",
      "city": "FERREIRAS",
      "lon": "-8.23219344430347",
      "lat": "37.11873179765512"
    },
    {
      "id": "pt.ine.add.PTCONT.1781214",
      "street": "URB TORRE MOSQUEIRA",
      "house": "6",
      "postcode": "8200-562",
      "city": "FERREIRAS",
      "lon": "-8.233877933980523",
      "lat": "37.11623443027078"
    },
    {
      "id": "pt.ine.add.PTCONT.1781215",
      "street": "ESTR NORA",
      "house": "CA",
      "postcode": "8200-557",
      "city": "FERREIRAS",
      "lon": "-8.234428734792997",
      "lat": "37.115837492543605"
    },
    {
      "id": "pt.ine.add.PTCONT.1783398",
      "street": "URB QUINTA DA TORRE VILLA THOMAS",
      "house": "G4",
      "postcode": "8200-562",
      "city": "FERREIRAS",
      "lon": "-8.234114349544615",
      "lat": "37.116333346175004"
    },
    {
      "id": "pt.ine.add.PTCONT.1786939",
      "street": "URB QUINTA DA TORRE",
      "house": "15",
      "postcode": "8200-562",
      "city": "FERREIRAS",
      "lon": "-8.234856776184568",
      "lat": "37.11619755172102"
    },
    {
      "id": "pt.ine.add.PTCONT.1799736",
      "street": "CAM CORTESOES",
      "house": "",
      "postcode": "8200-557",
      "city": "FERREIRAS",
      "lon": "-8.23244083492553",
      "lat": "37.11861445233024"
    },
    {
      "id": "pt.ine.add.PTCONT.1801572",
      "street": "URB QUINTA DA TORRE",
      "house": "11",
      "postcode": "8200-562",
      "city": "FERREIRAS",
      "lon": "-8.233393817458367",
      "lat": "37.11600957465742"
    },
    {
      "id": "pt.ine.add.PTCONT.1810195",
      "street": "URB QUINTA DA TORRE",
      "house": "7",
      "postcode": "8200-562",
      "city": "FERREIRAS",
      "lon": "-8.233664117557925",
      "lat": "37.116207579874974"
    },
    {
      "id": "pt.ine.add.PTCONT.1815941",
      "street": "CAM CORTESOES MANUEL JOSE FELICIDADE",
      "house": "",
      "postcode": "8200-557",
      "city": "FERREIRAS",
      "lon": "-8.232384704509226",
      "lat": "37.118713616379594"
    },
    {
      "id": "pt.ine.add.PTCONT.1815951",
      "street": "CAM CORTESOES MANUEL JOSE FELICIDADE",
      "house": "",
      "postcode": "8200-557",
      "city": "FERREIRAS",
      "lon": "-8.232384704509226",
      "lat": "37.118713616379594"
    },
    {
      "id": "pt.ine.add.PTCONT.1827621",
      "street": "URB QUINTA DA TORRE",
      "house": "EB",
      "postcode": "8200-562",
      "city": "FERREIRAS",
      "lon": "-8.234654054696827",
      "lat": "37.11605355522546"
    },
    {
      "id": "pt.ine.add.PTCONT.1839475",
      "street": "URB QUINTA DA TORRE",
      "house": "9",
      "postcode": "8200-562",
      "city": "FERREIRAS",
      "lon": "-8.23315786621558",
      "lat": "37.116262072013164"
    },
    {
      "id": "pt.ine.add.PTCONT.1842469",
      "street": "ESTR NORA",
      "house": "69-Y",
      "postcode": "8200-557",
      "city": "FERREIRAS",
      "lon": "-8.235533681206995",
      "lat": "37.11753955455807"
    }
  ]
}