{
  "data": {
    "distrito": "Faro",
    "concelho": "Lagos",
    "freguesia": "São Gonçalo de Lagos",
    "OBJECTID": 263,
    "BGRI2021": "08070802902",
    "DT21": "08",
    "DTMN21": "0807",
    "DTMNFR21": "080708",
    "DTMNFRSEC21": "080708029",
    "SECNUM21": "029",
    "SSNUM21": "02",
    "SECSSNUM21": "02902",
    "OBJECTID_1": 67765,
    "DT": "08",
    "CC": "07",
    "fr": "08",
    "SEC": "029",
    "SS": "02"
  },
  "addresses": [
    {
      "id": "pt.ine.add.PTCONT.1470134",
      "street": "CASA LORENA",
      "house": "",
      "postcode": "8600-310",
      "city": "LAGOS",
      "lon": "-8.700688426460514",
      "lat": "37.1109180253566"
    },
    {
      "id": "pt.ine.add.PTCONT.1472894",
      "street": "",
      "house": "",
      "postcode": "8600-310",
      "city": "LAGOS",
      "lon": "-8.702632990342755",
      "lat": "37.11217918571643"
    },
    {
      "id": "pt.ine.add.PTCONT.1472895",
      "street": "CASA LOREZINA",
      "house": "",
      "postcode": "8600-310",
      "city": "LAGOS",
      "lon": "-8.701215238234486",
      "lat": "37.110654196843605"
    },
    {
      "id": "pt.ine.add.PTCONT.1482044",
      "street": "QTA AEOLIA",
      "house": "",
      "postcode": "8600-310",
      "city": "LAGOS",
      "lon": "-8.701888710633796",
      "lat": "37.113453243299034"
    },
    {
      "id": "pt.ine.add.PTCONT.1489235",
      "street": "QTA CELEIROS",
      "house": "",
      "postcode": "8600-310",
      "city": "LAGOS",
      "lon": "-8.70221181062382",
      "lat": "37.11302819797014"
    },
    {
      "id": "pt.ine.add.PTCONT.1490970",
      "street": "MTE FUNCHAL",
      "house": "",
      "postcode": "8600-310",
      "city": "LAGOS",
      "lon": "-8.704402346467514",
      "lat": "37.1140718949927"
    },
    {
      "id": "pt.ine.add.PTCONT.1524261",
      "street": "QTA ARD ALOINN",
      "house": "",
      "postcode": "8600-310",
      "city": "LAGOS",
      "lon": "-8.70220736027642",
      "lat": "37.11243352433104"
    },
    {
      "id": "pt.ine.add.PTCONT.1556279",
      "street": "VL CATARINA FUNCHAL",
      "house": "",
      "postcode": "8600-310",
      "city": "LAGOS",
      "lon": "-8.703521408400094",
      "lat": "37.11362561012422"
    },
    {
      "id": "pt.ine.add.PTCONT.1569417",
      "street": "",
      "house": "",
      "postcode": "8600-310",
      "city": "LAGOS",
      "lon": "-8.702300657120379",
      "lat": "37.11136983375748"
    },
    {
      "id": "pt.ine.add.PTCONT.1622848",
      "street": "CROWM HOLDGINS LTD",
      "house": "",
      "postcode": "8600-310",
      "city": "LAGOS",
      "lon": "-8.702390350270745",
      "lat": "37.1143338675247"
    },
    {
      "id": "pt.ine.add.PTCONT.1641494",
      "street": "",
      "house": "",
      "postcode": "8600-310",
      "city": "LAGOS",
      "lon": "-8.701674342143189",
      "lat": "37.11186841809663"
    },
    {
      "id": "pt.ine.add.PTCONT.1694754",
      "street": "MTE FUNCHAL",
      "house": "5",
      "postcode": "8600-310",
      "city": "LAGOS",
      "lon": "-8.703100095764183",
      "lat": "37.114456604906074"
    },
    {
      "id": "pt.ine.add.PTCONT.1740997",
      "street": "QTA MONTE",
      "house": "",
      "postcode": "8600-310",
      "city": "LAGOS",
      "lon": "-8.70144508620369",
      "lat": "37.11280661249576"
    },
    {
      "id": "pt.ine.add.PTCONT.1769816",
      "street": "MTE FUNCHAL",
      "house": "",
      "postcode": "8600-310",
      "city": "LAGOS",
      "lon": "-8.702918032895216",
      "lat": "37.112682405879085"
    },
    {
      "id": "pt.ine.add.PTCONT.1777319",
      "street": "LAS BRISAS",
      "house": "",
      "postcode": "8600-310",
      "city": "LAGOS",
      "lon": "-8.701423331304808",
      "lat": "37.1114010738473"
    },
    {
      "id": "pt.ine.add.PTCONT.1786369",
      "street": "MTE FUNCHAL",
      "house": "",
      "postcode": "8600-310",
      "city": "LAGOS",
      "lon": "-8.703337951591697",
      "lat": "37.11316695563341"
    },
    {
      "id": "pt.ine.add.PTCONT.1805897",
      "street": "MTE FUNCHAL CASA SIMPATICA",
      "house": "",
      "postcode": "8600-310",
      "city": "LAGOS",
      "lon": "-8.703683610949376",
      "lat": "37.11275080833569"
    },
    {
      "id": "pt.ine.add.PTCONT.1822328",
      "street": "",
      "house": "",
      "postcode": "8600-310",
      "city": "LAGOS",
      "lon": "-8.702381028327528",
      "lat": "37.11158570066693"
    }
  ]
}