{
  "data": {
    "distrito": "Leiria",
    "concelho": "Caldas da Rainha",
    "freguesia": "Uni√£o das freguesias de Tornada e Salir do Porto",
    "OBJECTID": 278,
    "BGRI2021": "10061900203",
    "DT21": "10",
    "DTMN21": "1006",
    "DTMNFR21": "100619",
    "DTMNFRSEC21": "100619002",
    "SECNUM21": "002",
    "SSNUM21": "03",
    "SECSSNUM21": "00203",
    "OBJECTID_1": 87960,
    "DT": "10",
    "CC": "06",
    "fr": "19",
    "SEC": "002",
    "SS": "03"
  },
  "addresses": [
    {
      "id": "pt.ine.add.PTCONT.2013283",
      "street": "R CASAL DA RELVA HLIR ROBERTT UNDINE KARSTEN",
      "house": "1",
      "postcode": "2500-670",
      "city": "SALIR DO PORTO",
      "lon": "-9.154648432679567",
      "lat": "39.49527952888417"
    },
    {
      "id": "pt.ine.add.PTCONT.2049212",
      "street": "R PADRE FRAZAO",
      "house": "15",
      "postcode": "2500-690",
      "city": "SALIR DO PORTO",
      "lon": "-9.154182967414629",
      "lat": "39.49524759098083"
    },
    {
      "id": "pt.ine.add.PTCONT.2049454",
      "street": "R PADRE FRAZAO",
      "house": "15",
      "postcode": "2500-690",
      "city": "SALIR DO PORTO",
      "lon": "-9.154182967414629",
      "lat": "39.49524759098083"
    },
    {
      "id": "pt.ine.add.PTCONT.2089957",
      "street": "R PADRE FRAZAO",
      "house": "19",
      "postcode": "2500-690",
      "city": "SALIR DO PORTO",
      "lon": "-9.15428164872928",
      "lat": "39.494841422384155"
    },
    {
      "id": "pt.ine.add.PTCONT.2106419",
      "street": "R PADRE FRAZAO",
      "house": "19",
      "postcode": "2500-690",
      "city": "SALIR DO PORTO",
      "lon": "-9.154248623312853",
      "lat": "39.49496780637599"
    },
    {
      "id": "pt.ine.add.PTCONT.2112975",
      "street": "R CASAL DA RELVA",
      "house": "6",
      "postcode": "2500-670",
      "city": "SALIR DO PORTO",
      "lon": "-9.154458503545637",
      "lat": "39.49501099631865"
    },
    {
      "id": "pt.ine.add.PTCONT.2141827",
      "street": "LG BURGO",
      "house": "1A",
      "postcode": "2500-665",
      "city": "SALIR DO PORTO",
      "lon": "-9.154801910703656",
      "lat": "39.49544030096842"
    },
    {
      "id": "pt.ine.add.PTCONT.2177319",
      "street": "R CASAL DA RELVA",
      "house": "10",
      "postcode": "2500-670",
      "city": "SALIR DO PORTO",
      "lon": "-9.155309386624939",
      "lat": "39.49516563897132"
    },
    {
      "id": "pt.ine.add.PTCONT.2235127",
      "street": "R PADRE FRAZAO",
      "house": "17",
      "postcode": "2500-690",
      "city": "SALIR DO PORTO",
      "lon": "-9.15419274621241",
      "lat": "39.49512141118239"
    },
    {
      "id": "pt.ine.add.PTCONT.2235128",
      "street": "R PADRE FRAZAO",
      "house": "17",
      "postcode": "2500-690",
      "city": "SALIR DO PORTO",
      "lon": "-9.15419274621241",
      "lat": "39.49512141118239"
    },
    {
      "id": "pt.ine.add.PTCONT.2235807",
      "street": "R CASAL DA RELVA CASA DA EIRA",
      "house": "8",
      "postcode": "2500-670",
      "city": "SALIR DO PORTO",
      "lon": "-9.15520556707371",
      "lat": "39.49522059198214"
    },
    {
      "id": "pt.ine.add.PTCONT.2249754",
      "street": "LG BURGO",
      "house": "1",
      "postcode": "2500-665",
      "city": "SALIR DO PORTO",
      "lon": "-9.154663351691203",
      "lat": "39.495504565486385"
    }
  ]
}