{
  "data": {
    "ilha": "Ilha da Madeira (Madeira)",
    "concelho": "Machico",
    "freguesia": "Porto da Cruz",
    "OBJECTID": 27,
    "BGRI2021": "31040400216",
    "DT21": "31",
    "DTMN21": "3104",
    "DTMNFR21": "310404",
    "DTMNFRSEC21": "310404002",
    "SECNUM21": "002",
    "SSNUM21": "16",
    "SECSSNUM21": "00216",
    "OBJECTID_1": 204502,
    "DT": "31",
    "CC": "04",
    "fr": "04",
    "SEC": "002",
    "SS": "16",
    "BGRI2021_1": "31040400216"
  },
  "addresses": [
    {
      "id": "pt.ine.add.MAD.30517",
      "street": "CAM VELHO MACAPEZ",
      "house": "17",
      "postcode": "9225-210",
      "city": "PORTO DA CRUZ",
      "lon": "-16.834111723887634",
      "lat": "32.77181116814252"
    },
    {
      "id": "pt.ine.add.MAD.30518",
      "street": "CAM VELHO DO MACAPEZ",
      "house": "",
      "postcode": "9225-210",
      "city": "PORTO DA CRUZ",
      "lon": "-16.833738021195096",
      "lat": "32.77180762132147"
    },
    {
      "id": "pt.ine.add.MAD.30519",
      "street": "R MARECHAL SPINOLA",
      "house": "",
      "postcode": "9225-210",
      "city": "PORTO DA CRUZ",
      "lon": "-16.836563531001975",
      "lat": "32.770602798966955"
    },
    {
      "id": "pt.ine.add.MAD.30520",
      "street": "R MARECHAL SPINOLA",
      "house": "",
      "postcode": "9225-210",
      "city": "PORTO DA CRUZ",
      "lon": "-16.83936027531139",
      "lat": "32.770597833174016"
    },
    {
      "id": "pt.ine.add.MAD.30521",
      "street": "R MARECHAL SPINOLA",
      "house": "30",
      "postcode": "9225-210",
      "city": "PORTO DA CRUZ",
      "lon": "-16.839553851120545",
      "lat": "32.770667140388326"
    },
    {
      "id": "pt.ine.add.MAD.30522",
      "street": "CAM VELHO DO MACAPEZ",
      "house": "",
      "postcode": "9225-210",
      "city": "PORTO DA CRUZ",
      "lon": "-16.83875680647884",
      "lat": "32.77084118213587"
    },
    {
      "id": "pt.ine.add.MAD.30523",
      "street": "CAM VELHO DO MACAPEZ",
      "house": "",
      "postcode": "9225-210",
      "city": "PORTO DA CRUZ",
      "lon": "-16.83736965830258",
      "lat": "32.77087055785014"
    },
    {
      "id": "pt.ine.add.MAD.30524",
      "street": "CAM VELHO MACAPEZ",
      "house": "33",
      "postcode": "9225-210",
      "city": "PORTO DA CRUZ",
      "lon": "-16.83713302582958",
      "lat": "32.77078384124282"
    },
    {
      "id": "pt.ine.add.MAD.30525",
      "street": "CAM VELHO MACAPEZ",
      "house": "29",
      "postcode": "9225-210",
      "city": "PORTO DA CRUZ",
      "lon": "-16.836411418240083",
      "lat": "32.770992836737314"
    },
    {
      "id": "pt.ine.add.MAD.30526",
      "street": "CAM VELHO MACAPEZ",
      "house": "23",
      "postcode": "9225-210",
      "city": "PORTO DA CRUZ",
      "lon": "-16.83534355921996",
      "lat": "32.77149550338186"
    },
    {
      "id": "pt.ine.add.MAD.30527",
      "street": "CAM VELHO DO MACAPEZ",
      "house": "",
      "postcode": "9225-210",
      "city": "PORTO DA CRUZ",
      "lon": "-16.835174104593225",
      "lat": "32.77156111786852"
    },
    {
      "id": "pt.ine.add.MAD.30528",
      "street": "CAM SOCA",
      "house": "101",
      "postcode": "9225-210",
      "city": "PORTO DA CRUZ",
      "lon": "-16.837965240109465",
      "lat": "32.77076261283338"
    },
    {
      "id": "pt.ine.add.MAD.59246",
      "street": "R MARECHAL SPINOLA",
      "house": "",
      "postcode": "9225-210",
      "city": "PORTO DA CRUZ",
      "lon": "-16.83947200178073",
      "lat": "32.77083969913179"
    },
    {
      "id": "pt.ine.add.MAD.60411",
      "street": "CAM VELHO MACAPEZ",
      "house": "25",
      "postcode": "9225-210",
      "city": "PORTO DA CRUZ",
      "lon": "-16.835512273106495",
      "lat": "32.771393824416336"
    },
    {
      "id": "pt.ine.add.MAD.67954",
      "street": "CAM VELHO DO MACAPEZ",
      "house": "",
      "postcode": "9225-210",
      "city": "PORTO DA CRUZ",
      "lon": "-16.836971652075878",
      "lat": "32.77072307673359"
    },
    {
      "id": "pt.ine.add.MAD.68636",
      "street": "R MARECHAL SPINOLA",
      "house": "10 A",
      "postcode": "9225-210",
      "city": "PORTO DA CRUZ",
      "lon": "-16.83449918458551",
      "lat": "32.77144474238367"
    },
    {
      "id": "pt.ine.add.MAD.73659",
      "street": "CAM VELHO DO MACAPEZ",
      "house": "",
      "postcode": "9225-210",
      "city": "PORTO DA CRUZ",
      "lon": "-16.837785858535284",
      "lat": "32.770864451562296"
    },
    {
      "id": "pt.ine.add.MAD.73660",
      "street": "CAM VELHO DO MACAPEZ",
      "house": "",
      "postcode": "9225-210",
      "city": "PORTO DA CRUZ",
      "lon": "-16.835478036077678",
      "lat": "32.77128610082935"
    },
    {
      "id": "pt.ine.add.MAD.75552",
      "street": "CAM VELHO DO MACAPEZ",
      "house": "",
      "postcode": "9225-210",
      "city": "PORTO DA CRUZ",
      "lon": "-16.839687849477908",
      "lat": "32.77095377286809"
    },
    {
      "id": "pt.ine.add.MAD.85664",
      "street": "CAM VELHO DO MACAPEZ",
      "house": "",
      "postcode": "9225-210",
      "city": "PORTO DA CRUZ",
      "lon": "-16.839102569752455",
      "lat": "32.77104353725237"
    },
    {
      "id": "pt.ine.add.MAD.88848",
      "street": "CAM VELHO DO MACAPEZ",
      "house": "",
      "postcode": "9225-210",
      "city": "PORTO DA CRUZ",
      "lon": "-16.836963573960777",
      "lat": "32.77084945806401"
    },
    {
      "id": "pt.ine.add.MAD.98551",
      "street": "R MARECHAL SPINOLA",
      "house": "",
      "postcode": "9225-210",
      "city": "PORTO DA CRUZ",
      "lon": "-16.8335376047864",
      "lat": "32.771404710310954"
    },
    {
      "id": "pt.ine.add.MAD.101241",
      "street": "CAM VELHO MACAPEZ",
      "house": "21",
      "postcode": "9225-210",
      "city": "PORTO DA CRUZ",
      "lon": "-16.834899040998263",
      "lat": "32.77168239204675"
    },
    {
      "id": "pt.ine.add.MAD.110210",
      "street": "CAM VELHO MACAPEZ",
      "house": "19",
      "postcode": "9225-210",
      "city": "PORTO DA CRUZ",
      "lon": "-16.834313935615405",
      "lat": "32.77178115044436"
    },
    {
      "id": "pt.ine.add.MAD.110423",
      "street": "CAM VELHO MACAPEZ",
      "house": "",
      "postcode": "9225-050",
      "city": "PORTO DA CRUZ",
      "lon": "-16.831328049414893",
      "lat": "32.772456160049465"
    },
    {
      "id": "pt.ine.add.MAD.110424",
      "street": "SIT CASAS PROXIMAS",
      "house": "",
      "postcode": "9225-050",
      "city": "PORTO DA CRUZ",
      "lon": "-16.831631811372393",
      "lat": "32.77217213577409"
    },
    {
      "id": "pt.ine.add.MAD.110425",
      "street": "CAM VELHO MASSAPES",
      "house": "9",
      "postcode": "9225-210",
      "city": "PORTO DA CRUZ",
      "lon": "-16.83292053371745",
      "lat": "32.77202701952054"
    },
    {
      "id": "pt.ine.add.MAD.110426",
      "street": "CAM VELHO MACAPEZ",
      "house": "11",
      "postcode": "9225-050",
      "city": "PORTO DA CRUZ",
      "lon": "-16.83314482989458",
      "lat": "32.77203275562252"
    },
    {
      "id": "pt.ine.add.MAD.114525",
      "street": "CAM SOCA",
      "house": "101",
      "postcode": "9225-210",
      "city": "PORTO DA CRUZ",
      "lon": "-16.83893859783145",
      "lat": "32.770856550679774"
    },
    {
      "id": "pt.ine.add.MAD.112104",
      "street": "CAM VELHO MACAPEZ",
      "house": "3",
      "postcode": "9225-050",
      "city": "PORTO DA CRUZ",
      "lon": "-16.8307294924986",
      "lat": "32.77241981675639"
    },
    {
      "id": "pt.ine.add.MAD.114292",
      "street": "CAM DO MAÇAPEZ",
      "house": "23",
      "postcode": "9225-210",
      "city": "PORTO DA CRUZ",
      "lon": "-16.83893859783145",
      "lat": "32.770856550679774"
    },
    {
      "id": "pt.ine.add.MAD.114523",
      "street": "CAM MAÇAPEZ",
      "house": "38",
      "postcode": "9225-210",
      "city": "PORTO DA CRUZ",
      "lon": "-16.83893859783145",
      "lat": "32.770856550679774"
    },
    {
      "id": "pt.ine.add.MAD.114524",
      "street": "CAM MAÇAPEZ CCI 206",
      "house": "",
      "postcode": "9225-210",
      "city": "PORTO DA CRUZ",
      "lon": "-16.83893859783145",
      "lat": "32.770856550679774"
    },
    {
      "id": "pt.ine.add.MAD.114526",
      "street": "CAM VELHO MASSAPEZ",
      "house": "38",
      "postcode": "9225-210",
      "city": "PORTO DA CRUZ",
      "lon": "-16.83893859783145",
      "lat": "32.770856550679774"
    },
    {
      "id": "pt.ine.add.MAD.114527",
      "street": "ESTR REGIONAL",
      "house": "25",
      "postcode": "9225-210",
      "city": "PORTO DA CRUZ",
      "lon": "-16.83893859783145",
      "lat": "32.770856550679774"
    },
    {
      "id": "pt.ine.add.MAD.114528",
      "street": "ESTR REGIONAL",
      "house": "36",
      "postcode": "9225-210",
      "city": "PORTO DA CRUZ",
      "lon": "-16.83893859783145",
      "lat": "32.770856550679774"
    }
  ]
}