{
  "data": {
    "ilha": "Ilha da Madeira (Madeira)",
    "concelho": "Machico",
    "freguesia": "Porto da Cruz",
    "OBJECTID": 149,
    "BGRI2021": "31040400222",
    "DT21": "31",
    "DTMN21": "3104",
    "DTMNFR21": "310404",
    "DTMNFRSEC21": "310404002",
    "SECNUM21": "002",
    "SSNUM21": "22",
    "SECSSNUM21": "00222",
    "OBJECTID_1": 204380,
    "DT": "31",
    "CC": "04",
    "fr": "04",
    "SEC": "002",
    "SS": "22",
    "BGRI2021_1": "31040400222"
  },
  "addresses": [
    {
      "id": "pt.ine.add.MAD.28045",
      "street": "SIT PAREDES",
      "house": "",
      "postcode": "9225-050",
      "city": "PORTO DA CRUZ",
      "lon": "-16.832584215263765",
      "lat": "32.77436780528138"
    },
    {
      "id": "pt.ine.add.MAD.28046",
      "street": "SIT PAEREDES CASAS PROXIMAS",
      "house": "",
      "postcode": "9225-050",
      "city": "PORTO DA CRUZ",
      "lon": "-16.83237959427359",
      "lat": "32.77428061141367"
    },
    {
      "id": "pt.ine.add.MAD.28047",
      "street": "SIT CASAS PROXIMAS",
      "house": "",
      "postcode": "9225-050",
      "city": "PORTO DA CRUZ",
      "lon": "-16.831922720479305",
      "lat": "32.77438650158821"
    },
    {
      "id": "pt.ine.add.MAD.28048",
      "street": "SIT CASAS PROXIMAS",
      "house": "",
      "postcode": "9225-050",
      "city": "PORTO DA CRUZ",
      "lon": "-16.831675965317473",
      "lat": "32.77432697919707"
    },
    {
      "id": "pt.ine.add.MAD.28049",
      "street": "SIT PAREDES CASAS PROXIMAS",
      "house": "",
      "postcode": "9225-050",
      "city": "PORTO DA CRUZ",
      "lon": "-16.832434755892837",
      "lat": "32.7738469028846"
    },
    {
      "id": "pt.ine.add.MAD.28050",
      "street": "SIT REGIONAL 208 CASAS PROXIMAS",
      "house": "",
      "postcode": "9225-050",
      "city": "PORTO DA CRUZ",
      "lon": "-16.83207924742719",
      "lat": "32.77368976579605"
    },
    {
      "id": "pt.ine.add.MAD.28051",
      "street": "SIT MACAPEZ",
      "house": "",
      "postcode": "9225-210",
      "city": "PORTO DA CRUZ",
      "lon": "-16.8373433208707",
      "lat": "32.7732248438893"
    },
    {
      "id": "pt.ine.add.MAD.28052",
      "street": "ER 208 CASAS PRÓXIMAS",
      "house": "",
      "postcode": "9225-050",
      "city": "PORTO DA CRUZ",
      "lon": "-16.83217927024012",
      "lat": "32.77284053709232"
    },
    {
      "id": "pt.ine.add.MAD.28053",
      "street": "SIT CASAS PROXIMAS",
      "house": "",
      "postcode": "9225-050",
      "city": "PORTO DA CRUZ",
      "lon": "-16.832361434646977",
      "lat": "32.77287394723479"
    },
    {
      "id": "pt.ine.add.MAD.28054",
      "street": "SIT CASAS PROXIMAS",
      "house": "",
      "postcode": "9225-050",
      "city": "PORTO DA CRUZ",
      "lon": "-16.83232133369324",
      "lat": "32.77300079686693"
    },
    {
      "id": "pt.ine.add.MAD.28055",
      "street": "ESTR REGIONAL",
      "house": "",
      "postcode": "9225-050",
      "city": "PORTO DA CRUZ",
      "lon": "-16.832437248071557",
      "lat": "32.77292695073011"
    },
    {
      "id": "pt.ine.add.MAD.28871",
      "street": "SIT CASAS PROXIMAS",
      "house": "",
      "postcode": "9225-050",
      "city": "PORTO DA CRUZ",
      "lon": "-16.8333118034126",
      "lat": "32.77288709578744"
    },
    {
      "id": "pt.ine.add.MAD.28872",
      "street": "SIT MASSAPEZ",
      "house": "",
      "postcode": "9225-050",
      "city": "PORTO DA CRUZ",
      "lon": "-16.83559907559047",
      "lat": "32.77250186179428"
    },
    {
      "id": "pt.ine.add.MAD.28873",
      "street": "ER 208",
      "house": "",
      "postcode": "9225-050",
      "city": "PORTO DA CRUZ",
      "lon": "-16.8362962748648",
      "lat": "32.772662998352764"
    },
    {
      "id": "pt.ine.add.MAD.28874",
      "street": "SIT MASSAPEZ",
      "house": "",
      "postcode": "9225-210",
      "city": "PORTO DA CRUZ",
      "lon": "-16.837516406229984",
      "lat": "32.772816459876374"
    },
    {
      "id": "pt.ine.add.MAD.28875",
      "street": "ER 208",
      "house": "",
      "postcode": "9225-210",
      "city": "PORTO DA CRUZ",
      "lon": "-16.837969451424993",
      "lat": "32.77304430024179"
    },
    {
      "id": "pt.ine.add.MAD.28876",
      "street": "ER 208",
      "house": "",
      "postcode": "9225-210",
      "city": "PORTO DA CRUZ",
      "lon": "-16.837341871282277",
      "lat": "32.77211555621109"
    },
    {
      "id": "pt.ine.add.MAD.28877",
      "street": "ER 208",
      "house": "24",
      "postcode": "9225-210",
      "city": "PORTO DA CRUZ",
      "lon": "-16.83954631760547",
      "lat": "32.772894886831615"
    },
    {
      "id": "pt.ine.add.MAD.28878",
      "street": "ER 208",
      "house": "",
      "postcode": "9225-210",
      "city": "PORTO DA CRUZ",
      "lon": "-16.84042281464407",
      "lat": "32.77243107175592"
    },
    {
      "id": "pt.ine.add.MAD.28879",
      "street": "CAM MAÇAPEZ",
      "house": "38",
      "postcode": "9225-210",
      "city": "PORTO DA CRUZ",
      "lon": "-16.842026499690334",
      "lat": "32.77306586558443"
    },
    {
      "id": "pt.ine.add.MAD.28880",
      "street": "ER 208",
      "house": "",
      "postcode": "9225-210",
      "city": "PORTO DA CRUZ",
      "lon": "-16.84261085970489",
      "lat": "32.772931007060514"
    },
    {
      "id": "pt.ine.add.MAD.29695",
      "street": "ER 208",
      "house": "",
      "postcode": "9225-210",
      "city": "PORTO DA CRUZ",
      "lon": "-16.843527200534936",
      "lat": "32.771294145586026"
    },
    {
      "id": "pt.ine.add.MAD.29696",
      "street": "ESTR REGIONAL",
      "house": "4",
      "postcode": "9225-210",
      "city": "PORTO DA CRUZ",
      "lon": "-16.843664074722863",
      "lat": "32.7712019432357"
    },
    {
      "id": "pt.ine.add.MAD.30531",
      "street": "R ALAGOA",
      "house": "",
      "postcode": "9225-050",
      "city": "PORTO DA CRUZ",
      "lon": "-16.8295775906163",
      "lat": "32.774556063967225"
    },
    {
      "id": "pt.ine.add.MAD.39054",
      "street": "SIT TERRA DO BAPTISTA",
      "house": "",
      "postcode": "9225-250",
      "city": "PORTO DA CRUZ",
      "lon": "-16.843878111073973",
      "lat": "32.77226300599167"
    },
    {
      "id": "pt.ine.add.MAD.39055",
      "street": "CAM CRUZ",
      "house": "",
      "postcode": "9225-250",
      "city": "PORTO DA CRUZ",
      "lon": "-16.84377339609216",
      "lat": "32.771326596595536"
    },
    {
      "id": "pt.ine.add.MAD.60407",
      "street": "SIT PAREDES CASAS PROXIMAS",
      "house": "",
      "postcode": "9225-050",
      "city": "PORTO DA CRUZ",
      "lon": "-16.833059340960855",
      "lat": "32.77463141549485"
    },
    {
      "id": "pt.ine.add.MAD.60408",
      "street": "SIT CASAS PROXIMAS",
      "house": "",
      "postcode": "9225-050",
      "city": "PORTO DA CRUZ",
      "lon": "-16.833436962902212",
      "lat": "32.77326405239592"
    },
    {
      "id": "pt.ine.add.MAD.60409",
      "street": "ER 208",
      "house": "",
      "postcode": "9225-050",
      "city": "PORTO DA CRUZ",
      "lon": "-16.835488467875386",
      "lat": "32.772314088522386"
    },
    {
      "id": "pt.ine.add.MAD.60412",
      "street": "R CAIS",
      "house": "3",
      "postcode": "9225-050",
      "city": "PORTO DA CRUZ",
      "lon": "-16.8283046132767",
      "lat": "32.77390726334185"
    },
    {
      "id": "pt.ine.add.MAD.67951",
      "street": "SIT CASAS PROXIMAS",
      "house": "",
      "postcode": "9225-050",
      "city": "PORTO DA CRUZ",
      "lon": "-16.83326058210884",
      "lat": "32.774033230540724"
    },
    {
      "id": "pt.ine.add.MAD.67952",
      "street": "ESTR MASSAPEZ",
      "house": "",
      "postcode": "9225-210",
      "city": "PORTO DA CRUZ",
      "lon": "-16.83712694993653",
      "lat": "32.772046558720405"
    },
    {
      "id": "pt.ine.add.MAD.68114",
      "street": "CAM CRUZ",
      "house": "",
      "postcode": "9225-250",
      "city": "PORTO DA CRUZ",
      "lon": "-16.843979508159002",
      "lat": "32.77148589989657"
    },
    {
      "id": "pt.ine.add.MAD.68637",
      "street": "R CAIS",
      "house": "",
      "postcode": "9225-050",
      "city": "PORTO DA CRUZ",
      "lon": "-16.829508174585058",
      "lat": "32.77377244358952"
    },
    {
      "id": "pt.ine.add.MAD.71602",
      "street": "CAM PAREDES CASAS PROXIMAS CCI",
      "house": "CCI 403",
      "postcode": "9225-050",
      "city": "PORTO DA CRUZ",
      "lon": "-16.832642654187442",
      "lat": "32.77357329751581"
    },
    {
      "id": "pt.ine.add.MAD.73658",
      "street": "ER 208",
      "house": "",
      "postcode": "9225-050",
      "city": "PORTO DA CRUZ",
      "lon": "-16.83556613389892",
      "lat": "32.77245725070671"
    },
    {
      "id": "pt.ine.add.MAD.73804",
      "street": "CAM CRUZ",
      "house": "",
      "postcode": "9225-250",
      "city": "PORTO DA CRUZ",
      "lon": "-16.844008247308114",
      "lat": "32.77080906978651"
    },
    {
      "id": "pt.ine.add.MAD.75550",
      "street": "CAM MACAPEZ",
      "house": "6",
      "postcode": "9225-210",
      "city": "PORTO DA CRUZ",
      "lon": "-16.835298593382447",
      "lat": "32.772425096337834"
    },
    {
      "id": "pt.ine.add.MAD.75551",
      "street": "SIT MASSAPEZ",
      "house": "",
      "postcode": "9225-210",
      "city": "PORTO DA CRUZ",
      "lon": "-16.837281360356037",
      "lat": "32.77228780056691"
    },
    {
      "id": "pt.ine.add.MAD.79841",
      "street": "CAM PAREDES CASAS PROXIMAS",
      "house": "",
      "postcode": "9225-050",
      "city": "PORTO DA CRUZ",
      "lon": "-16.833462483258586",
      "lat": "32.774508270232374"
    },
    {
      "id": "pt.ine.add.MAD.81273",
      "street": "CAM MUNCIPAL PAREDES",
      "house": "1",
      "postcode": "9225-050",
      "city": "PORTO DA CRUZ",
      "lon": "-16.832735795399277",
      "lat": "32.77395072334023"
    },
    {
      "id": "pt.ine.add.MAD.81355",
      "street": "CAM CRUZ",
      "house": "",
      "postcode": "9225-250",
      "city": "PORTO DA CRUZ",
      "lon": "-16.84388223180343",
      "lat": "32.77091013139904"
    },
    {
      "id": "pt.ine.add.MAD.85663",
      "street": "CAM DO MAÇAPEZ CCI 206",
      "house": "",
      "postcode": "9225-210",
      "city": "PORTO DA CRUZ",
      "lon": "-16.840091426754853",
      "lat": "32.77240888463327"
    },
    {
      "id": "pt.ine.add.MAD.86088",
      "street": "CAM CRUZ",
      "house": "",
      "postcode": "9225-250",
      "city": "PORTO DA CRUZ",
      "lon": "-16.843877510790186",
      "lat": "32.77119880122785"
    },
    {
      "id": "pt.ine.add.MAD.88849",
      "street": "CAM PENEDO",
      "house": "",
      "postcode": "9225-050",
      "city": "PORTO DA CRUZ",
      "lon": "-16.828339211747515",
      "lat": "32.77403302131198"
    },
    {
      "id": "pt.ine.add.MAD.89148",
      "street": "ER 208 CASAS PRÓXIMAS",
      "house": "",
      "postcode": "9225-050",
      "city": "PORTO DA CRUZ",
      "lon": "-16.83356109047037",
      "lat": "32.77254975164861"
    },
    {
      "id": "pt.ine.add.MAD.91747",
      "street": "SIT CASAS PROXIMAS",
      "house": "",
      "postcode": "9225-050",
      "city": "PORTO DA CRUZ",
      "lon": "-16.831794468650646",
      "lat": "32.7743793586992"
    },
    {
      "id": "pt.ine.add.MAD.91967",
      "street": "CAM CRUZ",
      "house": "13",
      "postcode": "9225-250",
      "city": "PORTO DA CRUZ",
      "lon": "-16.8443381891162",
      "lat": "32.77179627513929"
    },
    {
      "id": "pt.ine.add.MAD.94678",
      "street": "ESTR REGIONAL",
      "house": "36",
      "postcode": "9225-210",
      "city": "PORTO DA CRUZ",
      "lon": "-16.84165279261122",
      "lat": "32.77306234258697"
    },
    {
      "id": "pt.ine.add.MAD.94679",
      "street": "ER 208",
      "house": "",
      "postcode": "9225-210",
      "city": "PORTO DA CRUZ",
      "lon": "-16.843486372509112",
      "lat": "32.771384934139775"
    },
    {
      "id": "pt.ine.add.MAD.96518",
      "street": "CAM CRUZ",
      "house": "",
      "postcode": "9225-250",
      "city": "PORTO DA CRUZ",
      "lon": "-16.843690066933757",
      "lat": "32.77142702962861"
    },
    {
      "id": "pt.ine.add.MAD.97862",
      "street": "CAM MASAPEZ",
      "house": "",
      "postcode": "9225-210",
      "city": "PORTO DA CRUZ",
      "lon": "-16.836939116123947",
      "lat": "32.77225674554936"
    },
    {
      "id": "pt.ine.add.MAD.98552",
      "street": "R PRAIA",
      "house": "",
      "postcode": "9225-050",
      "city": "PORTO DA CRUZ",
      "lon": "-16.829158419256697",
      "lat": "32.77441788611988"
    },
    {
      "id": "pt.ine.add.MAD.100718",
      "street": "SIT CASAS PROXIMAS",
      "house": "",
      "postcode": "9225-050",
      "city": "PORTO DA CRUZ",
      "lon": "-16.83317895490419",
      "lat": "32.774737890070845"
    },
    {
      "id": "pt.ine.add.MAD.104152",
      "street": "ESTR PAREDES CASAS PROXIMAS",
      "house": "7",
      "postcode": "9225-050",
      "city": "PORTO DA CRUZ",
      "lon": "-16.833494554318893",
      "lat": "32.77503088980677"
    },
    {
      "id": "pt.ine.add.MAD.104407",
      "street": "SIT MASSAPEZ",
      "house": "",
      "postcode": "9225-210",
      "city": "PORTO DA CRUZ",
      "lon": "-16.837460451487324",
      "lat": "32.77269101800089"
    },
    {
      "id": "pt.ine.add.MAD.106148",
      "street": "R CAIS",
      "house": "1",
      "postcode": "9225-050",
      "city": "PORTO DA CRUZ",
      "lon": "-16.828292281367247",
      "lat": "32.77382627425979"
    },
    {
      "id": "pt.ine.add.MAD.110120",
      "street": "",
      "house": "",
      "postcode": "9225-210",
      "city": "PORTO DA CRUZ",
      "lon": "-16.837700981768847",
      "lat": "32.7729670708495"
    },
    {
      "id": "pt.ine.add.MAD.110041",
      "street": "CAM PAREDES",
      "house": "",
      "postcode": "9225-050",
      "city": "PORTO DA CRUZ",
      "lon": "-16.83374440114448",
      "lat": "32.77472059343196"
    },
    {
      "id": "pt.ine.add.MAD.110042",
      "street": "CAM MUNICIPAL PAREDES",
      "house": "",
      "postcode": "9225-050",
      "city": "PORTO DA CRUZ",
      "lon": "-16.832656099064017",
      "lat": "32.77370838248759"
    },
    {
      "id": "pt.ine.add.MAD.110043",
      "street": "R DR SIMIAO SOUSA E FREITAS",
      "house": "14",
      "postcode": "9225-050",
      "city": "PORTO DA CRUZ",
      "lon": "-16.831962732504067",
      "lat": "32.77321347469302"
    },
    {
      "id": "pt.ine.add.MAD.110116",
      "street": "SIT CASAS PROXIMAS",
      "house": "",
      "postcode": "9225-050",
      "city": "PORTO DA CRUZ",
      "lon": "-16.833195941929215",
      "lat": "32.77348403117915"
    },
    {
      "id": "pt.ine.add.MAD.110117",
      "street": "SIT MASSAPEZ",
      "house": "",
      "postcode": "9225-210",
      "city": "PORTO DA CRUZ",
      "lon": "-16.837581735806435",
      "lat": "32.772878632776234"
    },
    {
      "id": "pt.ine.add.MAD.110118",
      "street": "SIT MASSAPEZ",
      "house": "",
      "postcode": "9225-210",
      "city": "PORTO DA CRUZ",
      "lon": "-16.837542198354544",
      "lat": "32.77303253197283"
    },
    {
      "id": "pt.ine.add.MAD.110119",
      "street": "ER 208",
      "house": "22",
      "postcode": "9225-210",
      "city": "PORTO DA CRUZ",
      "lon": "-16.838370250995148",
      "lat": "32.77332701841768"
    },
    {
      "id": "pt.ine.add.MAD.110920",
      "street": "CAM CRUZ",
      "house": "6",
      "postcode": "9225-250",
      "city": "PORTO DA CRUZ",
      "lon": "-16.844429723027734",
      "lat": "32.770541319714674"
    },
    {
      "id": "pt.ine.add.MAD.110921",
      "street": "CAM CRUZ",
      "house": "8",
      "postcode": "9225-250",
      "city": "PORTO DA CRUZ",
      "lon": "-16.84467833524328",
      "lat": "32.770690977263015"
    },
    {
      "id": "pt.ine.add.MAD.110922",
      "street": "TERRA BATISTA CCI",
      "house": "",
      "postcode": "9225-070",
      "city": "PORTO DA CRUZ",
      "lon": "-16.84401810398419",
      "lat": "32.77128691894316"
    },
    {
      "id": "pt.ine.add.MAD.112103",
      "street": "SIT MASSAPEZ",
      "house": "",
      "postcode": "9225-210",
      "city": "PORTO DA CRUZ",
      "lon": "-16.83737637255553",
      "lat": "32.772755382896925"
    },
    {
      "id": "pt.ine.add.MAD.112626",
      "street": "CAM CRUZ",
      "house": "7",
      "postcode": "9225-250",
      "city": "PORTO DA CRUZ",
      "lon": "-16.84451700648099",
      "lat": "32.771667379181075"
    },
    {
      "id": "pt.ine.add.MAD.113390",
      "street": "",
      "house": "",
      "postcode": "9225-210",
      "city": "PORTO DA CRUZ",
      "lon": "-16.837675559985136",
      "lat": "32.77276903089961"
    },
    {
      "id": "pt.ine.add.MAD.113391",
      "street": "",
      "house": "",
      "postcode": "9225-210",
      "city": "PORTO DA CRUZ",
      "lon": "-16.837675559985136",
      "lat": "32.77276903089961"
    },
    {
      "id": "pt.ine.add.MAD.113392",
      "street": "ER 208",
      "house": "2",
      "postcode": "9225-210",
      "city": "PORTO DA CRUZ",
      "lon": "-16.843704902490927",
      "lat": "32.77111115463089"
    },
    {
      "id": "pt.ine.add.MAD.113667",
      "street": "SIT CASAS PROXIMAS",
      "house": "",
      "postcode": "9225-050",
      "city": "PORTO DA CRUZ",
      "lon": "-16.832223991307036",
      "lat": "32.77293908947325"
    },
    {
      "id": "pt.ine.add.MAD.113697",
      "street": "CAM CRUZ",
      "house": "6A",
      "postcode": "9225-250",
      "city": "PORTO DA CRUZ",
      "lon": "-16.8438495145295",
      "lat": "32.77191169539347"
    },
    {
      "id": "pt.ine.add.MAD.114047",
      "street": "CAM CRUZ",
      "house": "12",
      "postcode": "9225-250",
      "city": "PORTO DA CRUZ",
      "lon": "-16.8443381891162",
      "lat": "32.77179627513929"
    },
    {
      "id": "pt.ine.add.MAD.114600",
      "street": "SIT MASSAPEZ",
      "house": "",
      "postcode": "9225-210",
      "city": "PORTO DA CRUZ",
      "lon": "-16.83762942828449",
      "lat": "32.77312143983606"
    },
    {
      "id": "pt.ine.add.MAD.125488",
      "street": "SIT REGIONAL 208 CASAS PROXIMAS",
      "house": "",
      "postcode": "9225-050",
      "city": "PORTO DA CRUZ",
      "lon": "-16.83189158287593",
      "lat": "32.77390896162195"
    },
    {
      "id": "pt.ine.add.MAD.126191",
      "street": "SIT CASAS PROXIMAS",
      "house": "",
      "postcode": "9225-050",
      "city": "PORTO DA CRUZ",
      "lon": "-16.832159542903707",
      "lat": "32.774482243914115"
    },
    {
      "id": "pt.ine.add.MAD.128833",
      "street": "CAM CRUZ",
      "house": "6",
      "postcode": "9225-250",
      "city": "PORTO DA CRUZ",
      "lon": "-16.844429723027734",
      "lat": "32.770541319714674"
    },
    {
      "id": "pt.ine.add.MAD.129877",
      "street": "ER 208",
      "house": "26",
      "postcode": "9225-210",
      "city": "PORTO DA CRUZ",
      "lon": "-16.839629281754465",
      "lat": "32.77277642428125"
    }
  ]
}