{
  "data": {
    "distrito": "Coimbra",
    "concelho": "Figueira da Foz",
    "freguesia": "Buarcos e São Julião",
    "OBJECTID": 480,
    "BGRI2021": "06052002011",
    "DT21": "06",
    "DTMN21": "0605",
    "DTMNFR21": "060520",
    "DTMNFRSEC21": "060520020",
    "SECNUM21": "020",
    "SSNUM21": "11",
    "SECSSNUM21": "02011",
    "OBJECTID_1": 50877,
    "DT": "06",
    "CC": "05",
    "fr": "20",
    "SEC": "020",
    "SS": "11"
  },
  "addresses": [
    {
      "id": "pt.ine.add.PTCONT.1102765",
      "street": "R MANUEL SEQUEIRA",
      "house": "14",
      "postcode": "3080-378",
      "city": "FIGUEIRA DA FOZ",
      "lon": "-8.89566237335567",
      "lat": "40.18781564900605"
    },
    {
      "id": "pt.ine.add.PTCONT.1115137",
      "street": "R VALE",
      "house": "29",
      "postcode": "3080-378",
      "city": "FIGUEIRA DA FOZ",
      "lon": "-8.895068545169208",
      "lat": "40.18511782710153"
    },
    {
      "id": "pt.ine.add.PTCONT.1133948",
      "street": "R MANUEL SEQUEIRA",
      "house": "37",
      "postcode": "3080-378",
      "city": "FIGUEIRA DA FOZ",
      "lon": "-8.89681156455702",
      "lat": "40.1866283174324"
    },
    {
      "id": "pt.ine.add.PTCONT.1140071",
      "street": "R FLORESTA",
      "house": "2",
      "postcode": "3080-008",
      "city": "FIGUEIRA DA FOZ",
      "lon": "-8.896445120641665",
      "lat": "40.18431625027815"
    },
    {
      "id": "pt.ine.add.PTCONT.1152809",
      "street": "R FLORESTA",
      "house": "6",
      "postcode": "3080-008",
      "city": "FIGUEIRA DA FOZ",
      "lon": "-8.896181635621039",
      "lat": "40.18490336273977"
    },
    {
      "id": "pt.ine.add.PTCONT.1158011",
      "street": "R VALE DE FRADES",
      "house": "17",
      "postcode": "3080-884",
      "city": "FIGUEIRA DA FOZ",
      "lon": "-8.894939282395796",
      "lat": "40.18720801732644"
    },
    {
      "id": "pt.ine.add.PTCONT.1198780",
      "street": "R FLORESTA",
      "house": "",
      "postcode": "3080-008",
      "city": "FIGUEIRA DA FOZ",
      "lon": "-8.89635906468662",
      "lat": "40.18501926816555"
    },
    {
      "id": "pt.ine.add.PTCONT.1219794",
      "street": "R FLORESTA",
      "house": "4",
      "postcode": "3080-008",
      "city": "FIGUEIRA DA FOZ",
      "lon": "-8.896328719546823",
      "lat": "40.18440707549391"
    },
    {
      "id": "pt.ine.add.PTCONT.1221640",
      "street": "R MANUEL SEQUEIRA",
      "house": "12",
      "postcode": "3080-378",
      "city": "FIGUEIRA DA FOZ",
      "lon": "-8.894794902341609",
      "lat": "40.187947440647044"
    },
    {
      "id": "pt.ine.add.PTCONT.1253819",
      "street": "R VALE DE FRADES",
      "house": "19",
      "postcode": "3080-884",
      "city": "FIGUEIRA DA FOZ",
      "lon": "-8.894197150042132",
      "lat": "40.186996760232674"
    },
    {
      "id": "pt.ine.add.PTCONT.1289945",
      "street": "R VALE",
      "house": "17",
      "postcode": "3080-378",
      "city": "FIGUEIRA DA FOZ",
      "lon": "-8.896165051183914",
      "lat": "40.184471194826244"
    },
    {
      "id": "pt.ine.add.PTCONT.1345263",
      "street": "R MANUEL SEQUEIRA",
      "house": "37",
      "postcode": "3080-378",
      "city": "FIGUEIRA DA FOZ",
      "lon": "-8.896728566686402",
      "lat": "40.18655681875626"
    },
    {
      "id": "pt.ine.add.PTCONT.1363783",
      "street": "R FLORESTA",
      "house": "",
      "postcode": "3080-008",
      "city": "FIGUEIRA DA FOZ",
      "lon": "-8.896172215274355",
      "lat": "40.1851105576601"
    }
  ]
}