{
  "data": {
    "distrito": "Beja",
    "concelho": "Odemira",
    "freguesia": "Luzianes-Gare",
    "OBJECTID": 303,
    "BGRI2021": "02111500101",
    "DT21": "02",
    "DTMN21": "0211",
    "DTMNFR21": "021115",
    "DTMNFRSEC21": "021115001",
    "SECNUM21": "001",
    "SSNUM21": "01",
    "SECSSNUM21": "00101",
    "OBJECTID_1": 18204,
    "DT": "02",
    "CC": "11",
    "fr": "15",
    "SEC": "001",
    "SS": "01"
  },
  "addresses": [
    {
      "id": "pt.ine.add.PTCONT.365958",
      "street": "MTE DOS ALMARJÕES",
      "house": "",
      "postcode": "7665-891",
      "city": "LUZIANES-GARE",
      "lon": "-8.53340840286169",
      "lat": "37.544012442392315"
    },
    {
      "id": "pt.ine.add.PTCONT.398257",
      "street": "MTE DO VALE DA VACA",
      "house": "",
      "postcode": "7665-891",
      "city": "LUZIANES-GARE",
      "lon": "-8.529404352369047",
      "lat": "37.552873700600145"
    },
    {
      "id": "pt.ine.add.PTCONT.398258",
      "street": "MTE DO VALE DA VACA",
      "house": "",
      "postcode": "7665-891",
      "city": "LUZIANES-GARE",
      "lon": "-8.53289388865115",
      "lat": "37.55149242839611"
    },
    {
      "id": "pt.ine.add.PTCONT.402253",
      "street": "MTE VALE COVO",
      "house": "",
      "postcode": "7665-891",
      "city": "LUZIANES-GARE",
      "lon": "-8.537854104971796",
      "lat": "37.56051247660883"
    },
    {
      "id": "pt.ine.add.PTCONT.402254",
      "street": "MTE VALE COVINHO",
      "house": "",
      "postcode": "7665-891",
      "city": "LUZIANES-GARE",
      "lon": "-8.541641251491463",
      "lat": "37.55556200056544"
    },
    {
      "id": "pt.ine.add.PTCONT.408034",
      "street": "MTE DA FIGUEIRA",
      "house": "",
      "postcode": "7665-891",
      "city": "LUZIANES-GARE",
      "lon": "-8.522684324252873",
      "lat": "37.538074716854275"
    },
    {
      "id": "pt.ine.add.PTCONT.411314",
      "street": "MTE DO VALE DA VACA",
      "house": "",
      "postcode": "7665-891",
      "city": "LUZIANES-GARE",
      "lon": "-8.530890443646847",
      "lat": "37.55141810545679"
    },
    {
      "id": "pt.ine.add.PTCONT.423342",
      "street": "MTE VALE DA GRUA",
      "house": "",
      "postcode": "7665-891",
      "city": "LUZIANES-GARE",
      "lon": "-8.526283461146457",
      "lat": "37.536125649387756"
    },
    {
      "id": "pt.ine.add.PTCONT.431338",
      "street": "MTE DA FIGUEIRA",
      "house": "",
      "postcode": "7665-891",
      "city": "LUZIANES-GARE",
      "lon": "-8.522380707671342",
      "lat": "37.53843611603782"
    },
    {
      "id": "pt.ine.add.PTCONT.431347",
      "street": "MTE VALE NEGRÕES",
      "house": "",
      "postcode": "7665-891",
      "city": "LUZIANES-GARE",
      "lon": "-8.532298443114051",
      "lat": "37.556549009158374"
    }
  ]
}