{
  "data": {
    "distrito": "Beja",
    "concelho": "Odemira",
    "freguesia": "Luzianes-Gare",
    "OBJECTID": 544,
    "BGRI2021": "02111500104",
    "DT21": "02",
    "DTMN21": "0211",
    "DTMNFR21": "021115",
    "DTMNFRSEC21": "021115001",
    "SECNUM21": "001",
    "SSNUM21": "04",
    "SECSSNUM21": "00104",
    "OBJECTID_1": 17088,
    "DT": "02",
    "CC": "11",
    "fr": "15",
    "SEC": "001",
    "SS": "04"
  },
  "addresses": [
    {
      "id": "pt.ine.add.PTCONT.458073",
      "street": "MTE DA PORTELINHA",
      "house": "",
      "postcode": "7665-891",
      "city": "LUZIANES-GARE",
      "lon": "-8.487467501984746",
      "lat": "37.55404977082155"
    },
    {
      "id": "pt.ine.add.PTCONT.352957",
      "street": "MTE DO RACHADO",
      "house": "",
      "postcode": "7665-891",
      "city": "LUZIANES-GARE",
      "lon": "-8.4854642931201",
      "lat": "37.56080659226764"
    },
    {
      "id": "pt.ine.add.PTCONT.352958",
      "street": "MTE DO PEDROUGO VELHO",
      "house": "",
      "postcode": "7665-891",
      "city": "LUZIANES-GARE",
      "lon": "-8.499057784258973",
      "lat": "37.563215938963836"
    },
    {
      "id": "pt.ine.add.PTCONT.355383",
      "street": "MTE DO VALE LONGO",
      "house": "",
      "postcode": "7665-891",
      "city": "LUZIANES-GARE",
      "lon": "-8.500693705409509",
      "lat": "37.54371336544458"
    },
    {
      "id": "pt.ine.add.PTCONT.358837",
      "street": "MTE MOINHO DAS VERDIGUEIRAS",
      "house": "",
      "postcode": "7665-891",
      "city": "LUZIANES-GARE",
      "lon": "-8.498755851648378",
      "lat": "37.55701804831409"
    },
    {
      "id": "pt.ine.add.PTCONT.371602",
      "street": "MTE MONTINHO DAS CORGAS",
      "house": "",
      "postcode": "7665-891",
      "city": "LUZIANES-GARE",
      "lon": "-8.518576114856085",
      "lat": "37.57083927580053"
    },
    {
      "id": "pt.ine.add.PTCONT.377344",
      "street": "MTE VÁRZEA REDONDA",
      "house": "",
      "postcode": "7665-891",
      "city": "LUZIANES-GARE",
      "lon": "-8.504912769883372",
      "lat": "37.561611900198955"
    },
    {
      "id": "pt.ine.add.PTCONT.377350",
      "street": "MTE DAS MATEIRAS",
      "house": "",
      "postcode": "7665-891",
      "city": "LUZIANES-GARE",
      "lon": "-8.514568126780754",
      "lat": "37.564013775628815"
    },
    {
      "id": "pt.ine.add.PTCONT.377351",
      "street": "MTE DAS CORGAS",
      "house": "",
      "postcode": "7665-891",
      "city": "LUZIANES-GARE",
      "lon": "-8.520387173160064",
      "lat": "37.57082433857903"
    },
    {
      "id": "pt.ine.add.PTCONT.378942",
      "street": "MTE DA CARQUEJA",
      "house": "",
      "postcode": "7665-891",
      "city": "LUZIANES-GARE",
      "lon": "-8.513409764868607",
      "lat": "37.561026221141326"
    },
    {
      "id": "pt.ine.add.PTCONT.385391",
      "street": "MTE MOINHO DA SERRA",
      "house": "",
      "postcode": "7665-891",
      "city": "LUZIANES-GARE",
      "lon": "-8.522153327826743",
      "lat": "37.57088160075504"
    },
    {
      "id": "pt.ine.add.PTCONT.387778",
      "street": "MTE DA ARRAMADINHA",
      "house": "",
      "postcode": "7665-891",
      "city": "LUZIANES-GARE",
      "lon": "-8.517596717271696",
      "lat": "37.569689202289275"
    },
    {
      "id": "pt.ine.add.PTCONT.388629",
      "street": "MTE VALE DE ENXERTO DE BAIXO",
      "house": "",
      "postcode": "7665-891",
      "city": "LUZIANES-GARE",
      "lon": "-8.513575738365486",
      "lat": "37.55360151063291"
    },
    {
      "id": "pt.ine.add.PTCONT.389337",
      "street": "MTE DA VAGAROSA",
      "house": "",
      "postcode": "7665-891",
      "city": "LUZIANES-GARE",
      "lon": "-8.514094135083969",
      "lat": "37.55761826538871"
    },
    {
      "id": "pt.ine.add.PTCONT.390140",
      "street": "MTE DO CORGO DE ÁGUA",
      "house": "",
      "postcode": "7665-891",
      "city": "LUZIANES-GARE",
      "lon": "-8.51172706291947",
      "lat": "37.55728350273209"
    },
    {
      "id": "pt.ine.add.PTCONT.394253",
      "street": "MTE VALE DAS ARANHAS",
      "house": "",
      "postcode": "7665-891",
      "city": "LUZIANES-GARE",
      "lon": "-8.493661743262674",
      "lat": "37.556763416480585"
    },
    {
      "id": "pt.ine.add.PTCONT.399005",
      "street": "MTE DOS RECANTOS",
      "house": "",
      "postcode": "7665-891",
      "city": "LUZIANES-GARE",
      "lon": "-8.517657591840326",
      "lat": "37.56831949873808"
    },
    {
      "id": "pt.ine.add.PTCONT.403101",
      "street": "MTE CORGO DOS PEREIROS",
      "house": "",
      "postcode": "7665-891",
      "city": "LUZIANES-GARE",
      "lon": "-8.51201788452065",
      "lat": "37.5655446629583"
    },
    {
      "id": "pt.ine.add.PTCONT.408032",
      "street": "MTE DA CASINHA",
      "house": "",
      "postcode": "7665-891",
      "city": "LUZIANES-GARE",
      "lon": "-8.480698486009581",
      "lat": "37.54355767728742"
    },
    {
      "id": "pt.ine.add.PTCONT.408033",
      "street": "MTE VALE VILARES",
      "house": "",
      "postcode": "7665-891",
      "city": "LUZIANES-GARE",
      "lon": "-8.491485781909283",
      "lat": "37.544318306680566"
    },
    {
      "id": "pt.ine.add.PTCONT.418470",
      "street": "MTE DA CASINHA",
      "house": "",
      "postcode": "7665-891",
      "city": "LUZIANES-GARE",
      "lon": "-8.48366906873406",
      "lat": "37.53998996411583"
    },
    {
      "id": "pt.ine.add.PTCONT.420942",
      "street": "MTE VALE DE ENXERTO DE CIMA",
      "house": "",
      "postcode": "7665-891",
      "city": "LUZIANES-GARE",
      "lon": "-8.507253525216226",
      "lat": "37.552135074981386"
    },
    {
      "id": "pt.ine.add.PTCONT.424866",
      "street": "MTE DO PEDROUGO",
      "house": "",
      "postcode": "7665-891",
      "city": "LUZIANES-GARE",
      "lon": "-8.50352851599281",
      "lat": "37.56549051488695"
    },
    {
      "id": "pt.ine.add.PTCONT.425632",
      "street": "MTE DOS RECANTOS",
      "house": "",
      "postcode": "7665-891",
      "city": "LUZIANES-GARE",
      "lon": "-8.518816267457495",
      "lat": "37.569117600260455"
    },
    {
      "id": "pt.ine.add.PTCONT.437195",
      "street": "MTE DO VALE CORCHAS",
      "house": "",
      "postcode": "7665-891",
      "city": "LUZIANES-GARE",
      "lon": "-8.488483613604268",
      "lat": "37.55072443989629"
    },
    {
      "id": "pt.ine.add.PTCONT.438094",
      "street": "MTE DO VALE CORCHAS",
      "house": "",
      "postcode": "7665-891",
      "city": "LUZIANES-GARE",
      "lon": "-8.489791311562326",
      "lat": "37.55204495764679"
    },
    {
      "id": "pt.ine.add.PTCONT.441354",
      "street": "MTE NOVINHO",
      "house": "",
      "postcode": "7665-891",
      "city": "LUZIANES-GARE",
      "lon": "-8.531955741381788",
      "lat": "37.56019918303848"
    },
    {
      "id": "pt.ine.add.PTCONT.449413",
      "street": "MTE VÁRZEA REDONDA",
      "house": "",
      "postcode": "7665-891",
      "city": "LUZIANES-GARE",
      "lon": "-8.504687214543969",
      "lat": "37.56168222632712"
    },
    {
      "id": "pt.ine.add.PTCONT.451716",
      "street": "MTE DA CASINHA",
      "house": "",
      "postcode": "7665-891",
      "city": "LUZIANES-GARE",
      "lon": "-8.480055558114199",
      "lat": "37.54400105566681"
    },
    {
      "id": "pt.ine.add.PTCONT.455819",
      "street": "MTE DO ESCORREGA",
      "house": "",
      "postcode": "7665-891",
      "city": "LUZIANES-GARE",
      "lon": "-8.505945314579352",
      "lat": "37.56213121921813"
    }
  ]
}