{
  "data": {
    "distrito": "Beja",
    "concelho": "Odemira",
    "freguesia": "Luzianes-Gare",
    "OBJECTID": 164,
    "BGRI2021": "02111500106",
    "DT21": "02",
    "DTMN21": "0211",
    "DTMNFR21": "021115",
    "DTMNFRSEC21": "021115001",
    "SECNUM21": "001",
    "SSNUM21": "06",
    "SECSSNUM21": "00106",
    "OBJECTID_1": 18205,
    "DT": "02",
    "CC": "11",
    "fr": "15",
    "SEC": "001",
    "SS": "06"
  },
  "addresses": [
    {
      "id": "pt.ine.add.PTCONT.457266",
      "street": "MTE DA BOAVISTA",
      "house": "",
      "postcode": "7665-891",
      "city": "LUZIANES-GARE",
      "lon": "-8.493325248292951",
      "lat": "37.585596143602615"
    },
    {
      "id": "pt.ine.add.PTCONT.379771",
      "street": "MTE PONTALINHO DA HORTA",
      "house": "",
      "postcode": "7665-891",
      "city": "LUZIANES-GARE",
      "lon": "-8.50843510395924",
      "lat": "37.573241556403616"
    },
    {
      "id": "pt.ine.add.PTCONT.386976",
      "street": "MTE DA CONSULTA",
      "house": "",
      "postcode": "7665-891",
      "city": "LUZIANES-GARE",
      "lon": "-8.4838947332127",
      "lat": "37.56158611950874"
    },
    {
      "id": "pt.ine.add.PTCONT.395115",
      "street": "MTE CÓREGO DE ÁGUA",
      "house": "",
      "postcode": "7665-891",
      "city": "LUZIANES-GARE",
      "lon": "-8.498168503162667",
      "lat": "37.58508572052477"
    },
    {
      "id": "pt.ine.add.PTCONT.403944",
      "street": "MTE CÓREGO DE ÁGUA",
      "house": "",
      "postcode": "7665-891",
      "city": "LUZIANES-GARE",
      "lon": "-8.49724539921721",
      "lat": "37.58616975779615"
    },
    {
      "id": "pt.ine.add.PTCONT.407272",
      "street": "MTE SOBREIRO",
      "house": "",
      "postcode": "7665-891",
      "city": "LUZIANES-GARE",
      "lon": "-8.504061482926872",
      "lat": "37.57938210967117"
    },
    {
      "id": "pt.ine.add.PTCONT.424865",
      "street": "MTE CERRO DA VELHA",
      "house": "",
      "postcode": "7665-891",
      "city": "LUZIANES-GARE",
      "lon": "-8.489119043339345",
      "lat": "37.56773326516094"
    },
    {
      "id": "pt.ine.add.PTCONT.430483",
      "street": "MTE VALE MILHOS",
      "house": "",
      "postcode": "7665-891",
      "city": "LUZIANES-GARE",
      "lon": "-8.513606806543647",
      "lat": "37.57528826672831"
    },
    {
      "id": "pt.ine.add.PTCONT.437194",
      "street": "MTE DO CÓREGO DA FONTE",
      "house": "",
      "postcode": "7665-891",
      "city": "LUZIANES-GARE",
      "lon": "-8.493702711912679",
      "lat": "37.57935113805175"
    },
    {
      "id": "pt.ine.add.PTCONT.438957",
      "street": "MTE DA SERRA",
      "house": "",
      "postcode": "7665-891",
      "city": "LUZIANES-GARE",
      "lon": "-8.514125804998406",
      "lat": "37.577169660399335"
    },
    {
      "id": "pt.ine.add.PTCONT.446015",
      "street": "MTE DA SERRA",
      "house": "",
      "postcode": "7665-891",
      "city": "LUZIANES-GARE",
      "lon": "-8.507842105508942",
      "lat": "37.579271059837374"
    },
    {
      "id": "pt.ine.add.PTCONT.451015",
      "street": "MTE DO CURRALÃO",
      "house": "",
      "postcode": "7665-891",
      "city": "LUZIANES-GARE",
      "lon": "-8.51294336523453",
      "lat": "37.571318611448625"
    }
  ]
}