{
  "data": {
    "distrito": "Beja",
    "concelho": "Odemira",
    "freguesia": "Luzianes-Gare",
    "OBJECTID": 494,
    "BGRI2021": "02111500113",
    "DT21": "02",
    "DTMN21": "0211",
    "DTMNFR21": "021115",
    "DTMNFRSEC21": "021115001",
    "SECNUM21": "001",
    "SSNUM21": "13",
    "SECSSNUM21": "00113",
    "OBJECTID_1": 17428,
    "DT": "02",
    "CC": "11",
    "fr": "15",
    "SEC": "001",
    "SS": "13"
  },
  "addresses": [
    {
      "id": "pt.ine.add.PTCONT.456526",
      "street": "MTE VALE DE MOINHOS",
      "house": "",
      "postcode": "7665-891",
      "city": "LUZIANES-GARE",
      "lon": "-8.476430542811473",
      "lat": "37.56778886611796"
    },
    {
      "id": "pt.ine.add.PTCONT.353823",
      "street": "MTE DAS BARREIRAS",
      "house": "",
      "postcode": "7665-891",
      "city": "LUZIANES-GARE",
      "lon": "-8.465283749251544",
      "lat": "37.581110370249554"
    },
    {
      "id": "pt.ine.add.PTCONT.357827",
      "street": "MTE DOS GRANDAÇOS",
      "house": "",
      "postcode": "7665-891",
      "city": "LUZIANES-GARE",
      "lon": "-8.456341311800719",
      "lat": "37.57617073860541"
    },
    {
      "id": "pt.ine.add.PTCONT.362720",
      "street": "MTE DO BAILADOURO",
      "house": "",
      "postcode": "7665-891",
      "city": "LUZIANES-GARE",
      "lon": "-8.457646449714668",
      "lat": "37.57953686213961"
    },
    {
      "id": "pt.ine.add.PTCONT.366832",
      "street": "MTE DA BERREIRINHA",
      "house": "",
      "postcode": "7665-891",
      "city": "LUZIANES-GARE",
      "lon": "-8.459527708148832",
      "lat": "37.579991180035606"
    },
    {
      "id": "pt.ine.add.PTCONT.369239",
      "street": "MTE DAS BARREIRAS",
      "house": "",
      "postcode": "7665-891",
      "city": "LUZIANES-GARE",
      "lon": "-8.463126509739626",
      "lat": "37.57970186679257"
    },
    {
      "id": "pt.ine.add.PTCONT.371642",
      "street": "MTE DAS ESTACAS",
      "house": "",
      "postcode": "7665-891",
      "city": "LUZIANES-GARE",
      "lon": "-8.461179143286907",
      "lat": "37.58482491659851"
    },
    {
      "id": "pt.ine.add.PTCONT.375801",
      "street": "MTE DO TOTENIQUE",
      "house": "",
      "postcode": "7665-891",
      "city": "LUZIANES-GARE",
      "lon": "-8.489582290074143",
      "lat": "37.577057119353285"
    },
    {
      "id": "pt.ine.add.PTCONT.386975",
      "street": "MTE DA TELHA",
      "house": "",
      "postcode": "7665-891",
      "city": "LUZIANES-GARE",
      "lon": "-8.453350917713037",
      "lat": "37.573106509280294"
    },
    {
      "id": "pt.ine.add.PTCONT.399813",
      "street": "MTE DO BAILADOURO",
      "house": "",
      "postcode": "7665-891",
      "city": "LUZIANES-GARE",
      "lon": "-8.456840605417423",
      "lat": "37.57906155002627"
    },
    {
      "id": "pt.ine.add.PTCONT.401484",
      "street": "MTE DAS ESTACAS",
      "house": "",
      "postcode": "7665-891",
      "city": "LUZIANES-GARE",
      "lon": "-8.462064465894747",
      "lat": "37.58790383531546"
    },
    {
      "id": "pt.ine.add.PTCONT.403975",
      "street": "MTE DO RASMONAL",
      "house": "",
      "postcode": "7665-891",
      "city": "LUZIANES-GARE",
      "lon": "-8.457561307094359",
      "lat": "37.57295986390642"
    },
    {
      "id": "pt.ine.add.PTCONT.408031",
      "street": "MTE DA CONSULTA",
      "house": "",
      "postcode": "7665-891",
      "city": "LUZIANES-GARE",
      "lon": "-8.480050317775348",
      "lat": "37.56484105105489"
    },
    {
      "id": "pt.ine.add.PTCONT.412071",
      "street": "MTE DA AZINHEIRA",
      "house": "",
      "postcode": "7665-891",
      "city": "LUZIANES-GARE",
      "lon": "-8.45940207291756",
      "lat": "37.57454954460542"
    },
    {
      "id": "pt.ine.add.PTCONT.416870",
      "street": "MTE DA CONSULTA",
      "house": "",
      "postcode": "7665-891",
      "city": "LUZIANES-GARE",
      "lon": "-8.479110378106585",
      "lat": "37.56473569045013"
    },
    {
      "id": "pt.ine.add.PTCONT.424126",
      "street": "MTE DO FRIEZA",
      "house": "",
      "postcode": "7665-891",
      "city": "LUZIANES-GARE",
      "lon": "-8.45792376507996",
      "lat": "37.575616790668946"
    },
    {
      "id": "pt.ine.add.PTCONT.425663",
      "street": "MTE DAS ESTACAS",
      "house": "",
      "postcode": "7665-891",
      "city": "LUZIANES-GARE",
      "lon": "-8.461470138010817",
      "lat": "37.58663509573494"
    },
    {
      "id": "pt.ine.add.PTCONT.428920",
      "street": "MTE DO VALE MATEUS",
      "house": "",
      "postcode": "7665-891",
      "city": "LUZIANES-GARE",
      "lon": "-8.463356924816589",
      "lat": "37.572916763332465"
    },
    {
      "id": "pt.ine.add.PTCONT.433022",
      "street": "MTE DAS BARREIRAS",
      "house": "",
      "postcode": "7665-891",
      "city": "LUZIANES-GARE",
      "lon": "-8.463172548705085",
      "lat": "37.57987292618272"
    },
    {
      "id": "pt.ine.add.PTCONT.436450",
      "street": "MTE VALE DE MOINHOS DE CIMA",
      "house": "",
      "postcode": "7665-891",
      "city": "LUZIANES-GARE",
      "lon": "-8.473022030708504",
      "lat": "37.56996110871882"
    },
    {
      "id": "pt.ine.add.PTCONT.438092",
      "street": "MTE DA CONSULTA",
      "house": "",
      "postcode": "7665-891",
      "city": "LUZIANES-GARE",
      "lon": "-8.482730531587611",
      "lat": "37.56192293994205"
    },
    {
      "id": "pt.ine.add.PTCONT.438135",
      "street": "MTE DA CONSULTA",
      "house": "",
      "postcode": "7665-891",
      "city": "LUZIANES-GARE",
      "lon": "-8.482730531587611",
      "lat": "37.56192293994205"
    },
    {
      "id": "pt.ine.add.PTCONT.439778",
      "street": "MTE CERRO DO MALHÃO CORTE BRIQUE",
      "house": "",
      "postcode": "7665-891",
      "city": "LUZIANES-GARE",
      "lon": "-8.456450540998544",
      "lat": "37.57525142882348"
    },
    {
      "id": "pt.ine.add.PTCONT.442125",
      "street": "MTE CORTE BRIQUE",
      "house": "",
      "postcode": "7665-891",
      "city": "LUZIANES-GARE",
      "lon": "-8.450081150126946",
      "lat": "37.57617870383199"
    },
    {
      "id": "pt.ine.add.PTCONT.455057",
      "street": "MTE DO TOJAL",
      "house": "",
      "postcode": "7665-891",
      "city": "LUZIANES-GARE",
      "lon": "-8.457122450094408",
      "lat": "37.57356473333437"
    }
  ]
}