{
  "data": {
    "distrito": "Beja",
    "concelho": "Odemira",
    "freguesia": "Luzianes-Gare",
    "OBJECTID": 746,
    "BGRI2021": "02111500116",
    "DT21": "02",
    "DTMN21": "0211",
    "DTMNFR21": "021115",
    "DTMNFRSEC21": "021115001",
    "SECNUM21": "001",
    "SSNUM21": "16",
    "SECSSNUM21": "00116",
    "OBJECTID_1": 18206,
    "DT": "02",
    "CC": "11",
    "fr": "15",
    "SEC": "001",
    "SS": "16"
  },
  "addresses": [
    {
      "id": "pt.ine.add.PTCONT.456465",
      "street": "MTE VALE FONTES",
      "house": "",
      "postcode": "7665-891",
      "city": "LUZIANES-GARE",
      "lon": "-8.507349631188559",
      "lat": "37.58944477953316"
    },
    {
      "id": "pt.ine.add.PTCONT.361146",
      "street": "MTE VALE CRAVEIRAS DE BAIXO",
      "house": "",
      "postcode": "7665-891",
      "city": "LUZIANES-GARE",
      "lon": "-8.520258168620776",
      "lat": "37.5983769706607"
    },
    {
      "id": "pt.ine.add.PTCONT.362822",
      "street": "MTE DAS FONTAÍNHAS",
      "house": "",
      "postcode": "7665-891",
      "city": "LUZIANES-GARE",
      "lon": "-8.51605508866466",
      "lat": "37.58915557049891"
    },
    {
      "id": "pt.ine.add.PTCONT.380548",
      "street": "MTE VALE DE FONTES",
      "house": "",
      "postcode": "7665-891",
      "city": "LUZIANES-GARE",
      "lon": "-8.512683684895714",
      "lat": "37.5896800232017"
    },
    {
      "id": "pt.ine.add.PTCONT.389362",
      "street": "MTE VALE DE FONTES",
      "house": "",
      "postcode": "7665-891",
      "city": "LUZIANES-GARE",
      "lon": "-8.50959295395331",
      "lat": "37.58749151234863"
    },
    {
      "id": "pt.ine.add.PTCONT.390137",
      "street": "MTE CORGO DO CHAPARRO",
      "house": "",
      "postcode": "7665-891",
      "city": "LUZIANES-GARE",
      "lon": "-8.496751619824883",
      "lat": "37.59637946812868"
    },
    {
      "id": "pt.ine.add.PTCONT.392611",
      "street": "MTE DAS CASAS NOVAS",
      "house": "",
      "postcode": "7665-891",
      "city": "LUZIANES-GARE",
      "lon": "-8.510303972015617",
      "lat": "37.6049863975383"
    },
    {
      "id": "pt.ine.add.PTCONT.394268",
      "street": "MTE DO SELÃO VELHO",
      "house": "",
      "postcode": "7665-891",
      "city": "LUZIANES-GARE",
      "lon": "-8.522495854667554",
      "lat": "37.60187444263516"
    },
    {
      "id": "pt.ine.add.PTCONT.395106",
      "street": "MTE DOS ZAGUEIROS",
      "house": "",
      "postcode": "7665-891",
      "city": "LUZIANES-GARE",
      "lon": "-8.502540404848082",
      "lat": "37.61291259052911"
    },
    {
      "id": "pt.ine.add.PTCONT.395876",
      "street": "MTE VALE DE FONTES",
      "house": "",
      "postcode": "7665-891",
      "city": "LUZIANES-GARE",
      "lon": "-8.507869901487993",
      "lat": "37.593848955862136"
    },
    {
      "id": "pt.ine.add.PTCONT.399812",
      "street": "MTE DA BORRALHEIRA",
      "house": "",
      "postcode": "7665-891",
      "city": "LUZIANES-GARE",
      "lon": "-8.504168459549557",
      "lat": "37.603212886973786"
    },
    {
      "id": "pt.ine.add.PTCONT.402286",
      "street": "MTE VALE DE FONTES",
      "house": "",
      "postcode": "7665-891",
      "city": "LUZIANES-GARE",
      "lon": "-8.510779053562175",
      "lat": "37.59143404798097"
    },
    {
      "id": "pt.ine.add.PTCONT.403197",
      "street": "MTE DO PEDROGAL",
      "house": "",
      "postcode": "7665-891",
      "city": "LUZIANES-GARE",
      "lon": "-8.523882781299008",
      "lat": "37.60073461719433"
    },
    {
      "id": "pt.ine.add.PTCONT.403974",
      "street": "MTE VALE TOMEZINHO",
      "house": "",
      "postcode": "7665-891",
      "city": "LUZIANES-GARE",
      "lon": "-8.510125640635689",
      "lat": "37.612284941645164"
    },
    {
      "id": "pt.ine.add.PTCONT.406490",
      "street": "MTE DA SERRA NOVO",
      "house": "",
      "postcode": "7665-891",
      "city": "LUZIANES-GARE",
      "lon": "-8.507543766537653",
      "lat": "37.585254570615504"
    },
    {
      "id": "pt.ine.add.PTCONT.418497",
      "street": "MTE DO ZEBROS",
      "house": "",
      "postcode": "7665-891",
      "city": "LUZIANES-GARE",
      "lon": "-8.516153469850545",
      "lat": "37.60393142428115"
    },
    {
      "id": "pt.ine.add.PTCONT.418498",
      "street": "MTE VALE DE CRAVEIRAS",
      "house": "",
      "postcode": "7665-891",
      "city": "LUZIANES-GARE",
      "lon": "-8.513516056834565",
      "lat": "37.59972334310954"
    },
    {
      "id": "pt.ine.add.PTCONT.421718",
      "street": "MTE DO SELÃO",
      "house": "",
      "postcode": "7665-891",
      "city": "LUZIANES-GARE",
      "lon": "-8.516435285935934",
      "lat": "37.6036782334593"
    },
    {
      "id": "pt.ine.add.PTCONT.428915",
      "street": "MTE DA ARRAMADINHA",
      "house": "",
      "postcode": "7665-891",
      "city": "LUZIANES-GARE",
      "lon": "-8.532711535527492",
      "lat": "37.59785794115577"
    },
    {
      "id": "pt.ine.add.PTCONT.442068",
      "street": "MTE VALE DE FONTES",
      "house": "",
      "postcode": "7665-891",
      "city": "LUZIANES-GARE",
      "lon": "-8.508598252454478",
      "lat": "37.58781903640389"
    },
    {
      "id": "pt.ine.add.PTCONT.443703",
      "street": "MTE VALE FONTINHAS",
      "house": "",
      "postcode": "7665-891",
      "city": "LUZIANES-GARE",
      "lon": "-8.509769333927274",
      "lat": "37.593284297779704"
    },
    {
      "id": "pt.ine.add.PTCONT.443755",
      "street": "MTE VALE FONTINHAS",
      "house": "",
      "postcode": "7665-891",
      "city": "LUZIANES-GARE",
      "lon": "-8.509769333927274",
      "lat": "37.593284297779704"
    },
    {
      "id": "pt.ine.add.PTCONT.446043",
      "street": "MTE VALE DA VILA",
      "house": "",
      "postcode": "7665-891",
      "city": "LUZIANES-GARE",
      "lon": "-8.499119169027361",
      "lat": "37.59194830386261"
    }
  ]
}