{
  "data": {
    "distrito": "Viseu",
    "concelho": "Sátão",
    "freguesia": "Rio de Moinhos",
    "OBJECTID": 160,
    "BGRI2021": "18170700111",
    "DT21": "18",
    "DTMN21": "1817",
    "DTMNFR21": "181707",
    "DTMNFRSEC21": "181707001",
    "SECNUM21": "001",
    "SSNUM21": "11",
    "SECSSNUM21": "00111",
    "OBJECTID_1": 197240,
    "DT": "18",
    "CC": "17",
    "fr": "07",
    "SEC": "001",
    "SS": "11"
  },
  "addresses": [
    {
      "id": "pt.ine.add.PTCONT.5437027",
      "street": "TV STA LUZIA",
      "house": "2",
      "postcode": "3560-100",
      "city": "RIO DE MOINHOS SAT",
      "lon": "-7.704022927879762",
      "lat": "40.70631019808116"
    },
    {
      "id": "pt.ine.add.PTCONT.5444402",
      "street": "TV STA LUZIA",
      "house": "1",
      "postcode": "3560-100",
      "city": "RIO DE MOINHOS SAT",
      "lon": "-7.704212312567589",
      "lat": "40.70630189679365"
    },
    {
      "id": "pt.ine.add.PTCONT.5447959",
      "street": "R STA LUZIA",
      "house": "10",
      "postcode": "3560-100",
      "city": "RIO DE MOINHOS SAT",
      "lon": "-7.703550362774973",
      "lat": "40.7061913748847"
    },
    {
      "id": "pt.ine.add.PTCONT.5480738",
      "street": "R PELOURINHO",
      "house": "10",
      "postcode": "3560-100",
      "city": "RIO DE MOINHOS SAT",
      "lon": "-7.704778966340379",
      "lat": "40.706511116996275"
    },
    {
      "id": "pt.ine.add.PTCONT.5486649",
      "street": "TV STA LUZIA",
      "house": "6",
      "postcode": "3560-100",
      "city": "RIO DE MOINHOS SAT",
      "lon": "-7.7038455495377045",
      "lat": "40.70629152853089"
    },
    {
      "id": "pt.ine.add.PTCONT.5512573",
      "street": "R SERRADO",
      "house": "6",
      "postcode": "3560-100",
      "city": "RIO DE MOINHOS SAT",
      "lon": "-7.704533244867781",
      "lat": "40.70607796225094"
    },
    {
      "id": "pt.ine.add.PTCONT.5515558",
      "street": "R FONTAINHA",
      "house": "4",
      "postcode": "3560-100",
      "city": "RIO DE MOINHOS SAT",
      "lon": "-7.704261377173604",
      "lat": "40.70603192733678"
    },
    {
      "id": "pt.ine.add.PTCONT.5551378",
      "street": "R STA LUZIA",
      "house": "12",
      "postcode": "3560-100",
      "city": "RIO DE MOINHOS SAT",
      "lon": "-7.703443519345149",
      "lat": "40.70624500761651"
    },
    {
      "id": "pt.ine.add.PTCONT.5566365",
      "street": "AV D SANCHO II",
      "house": "49",
      "postcode": "3560-101",
      "city": "RIO DE MOINHOS SAT",
      "lon": "-7.701360344339703",
      "lat": "40.70632728596876"
    },
    {
      "id": "pt.ine.add.PTCONT.5582900",
      "street": "R BECO DOS PITINHOS",
      "house": "3",
      "postcode": "3560-100",
      "city": "RIO DE MOINHOS SAT",
      "lon": "-7.704284407588074",
      "lat": "40.70613106852621"
    },
    {
      "id": "pt.ine.add.PTCONT.5584722",
      "street": "R FONTAINHA",
      "house": "1",
      "postcode": "3560-100",
      "city": "RIO DE MOINHOS SAT",
      "lon": "-7.704417167858621",
      "lat": "40.70572633398663"
    },
    {
      "id": "pt.ine.add.PTCONT.5594090",
      "street": "R PELOURINHO",
      "house": "8",
      "postcode": "3560-100",
      "city": "RIO DE MOINHOS SAT",
      "lon": "-7.704755588886175",
      "lat": "40.70646600496806"
    },
    {
      "id": "pt.ine.add.PTCONT.5594091",
      "street": "R FONTAINHA",
      "house": "3",
      "postcode": "3560-100",
      "city": "RIO DE MOINHOS SAT",
      "lon": "-7.703632441131858",
      "lat": "40.70630874601752"
    },
    {
      "id": "pt.ine.add.PTCONT.5604336",
      "street": "AV D SANCHO II",
      "house": "51",
      "postcode": "3560-101",
      "city": "RIO DE MOINHOS SAT",
      "lon": "-7.700659755025436",
      "lat": "40.706702876036154"
    },
    {
      "id": "pt.ine.add.PTCONT.5644652",
      "street": "R SERRADO",
      "house": "4",
      "postcode": "3560-100",
      "city": "RIO DE MOINHOS SAT",
      "lon": "-7.704533648947808",
      "lat": "40.7060149283447"
    },
    {
      "id": "pt.ine.add.PTCONT.5656781",
      "street": "R CAPELA",
      "house": "8",
      "postcode": "3560-100",
      "city": "RIO DE MOINHOS SAT",
      "lon": "-7.70373876401491",
      "lat": "40.70633615669303"
    }
  ]
}