{
  "data": {
    "distrito": "Aveiro",
    "concelho": "Estarreja",
    "freguesia": "Pardilhó",
    "OBJECTID": 430,
    "BGRI2021": "01080500218",
    "DT21": "01",
    "DTMN21": "0108",
    "DTMNFR21": "010805",
    "DTMNFRSEC21": "010805002",
    "SECNUM21": "002",
    "SSNUM21": "18",
    "SECSSNUM21": "00218",
    "OBJECTID_1": 4722,
    "DT": "01",
    "CC": "08",
    "fr": "05",
    "SEC": "002",
    "SS": "18"
  },
  "addresses": [
    {
      "id": "pt.ine.add.PTCONT.292708",
      "street": "BC NARCISO",
      "house": "5",
      "postcode": "3860-429",
      "city": "PARDILHÓ",
      "lon": "-8.620889330132385",
      "lat": "40.790967063541466"
    },
    {
      "id": "pt.ine.add.PTCONT.295792",
      "street": "R SAPATEIRAS",
      "house": "1",
      "postcode": "3860-434",
      "city": "PARDILHÓ",
      "lon": "-8.623563589752509",
      "lat": "40.79372023594789"
    },
    {
      "id": "pt.ine.add.PTCONT.302913",
      "street": "R LAVRADORES",
      "house": "2",
      "postcode": "3860-435",
      "city": "PARDILHÓ",
      "lon": "-8.62328730309334",
      "lat": "40.793208130060336"
    },
    {
      "id": "pt.ine.add.PTCONT.302914",
      "street": "TV SALGUEIRÃO",
      "house": "22",
      "postcode": "3860-463",
      "city": "PARDILHÓ",
      "lon": "-8.625197624619231",
      "lat": "40.79036345164474"
    },
    {
      "id": "pt.ine.add.PTCONT.314163",
      "street": "AV ANTÓNIO JOAQUIM DE RESENDE",
      "house": "55",
      "postcode": "3860-464",
      "city": "PARDILHÓ",
      "lon": "-8.62534571578182",
      "lat": "40.79116425737825"
    },
    {
      "id": "pt.ine.add.PTCONT.316794",
      "street": "BC MARTELOS",
      "house": "",
      "postcode": "3860-730",
      "city": "PARDILHÓ",
      "lon": "-8.621630562579787",
      "lat": "40.79187342413231"
    },
    {
      "id": "pt.ine.add.PTCONT.327574",
      "street": "BC LOUVADO",
      "house": "1",
      "postcode": "3860-428",
      "city": "PARDILHÓ",
      "lon": "-8.624215314493693",
      "lat": "40.79372646890231"
    },
    {
      "id": "pt.ine.add.PTCONT.329921",
      "street": "TV SALGUEIRÃO",
      "house": "",
      "postcode": "3860-463",
      "city": "PARDILHÓ",
      "lon": "-8.625351711677462",
      "lat": "40.790371799348364"
    },
    {
      "id": "pt.ine.add.PTCONT.338395",
      "street": "BC NARCISO",
      "house": "3",
      "postcode": "3860-429",
      "city": "PARDILHÓ",
      "lon": "-8.620795074402333",
      "lat": "40.791039501259085"
    },
    {
      "id": "pt.ine.add.PTCONT.338396",
      "street": "TV SALGUEIRÃO",
      "house": "2",
      "postcode": "3860-463",
      "city": "PARDILHÓ",
      "lon": "-8.620083478865938",
      "lat": "40.79094345247784"
    },
    {
      "id": "pt.ine.add.PTCONT.433",
      "street": "R SALGUEIRÃO",
      "house": "12",
      "postcode": "3860-462",
      "city": "PARDILHÓ",
      "lon": "-8.620211370397728",
      "lat": "40.790609730812974"
    },
    {
      "id": "pt.ine.add.PTCONT.2259",
      "street": "BC NARCISO",
      "house": "6",
      "postcode": "3860-429",
      "city": "PARDILHÓ",
      "lon": "-8.620914014340162",
      "lat": "40.791102032914246"
    },
    {
      "id": "pt.ine.add.PTCONT.3549",
      "street": "R ANTÓNIO MARIA DA SILVA PINHO",
      "house": "28",
      "postcode": "3860-431",
      "city": "PARDILHÓ",
      "lon": "-8.62238610926798",
      "lat": "40.79311290081863"
    },
    {
      "id": "pt.ine.add.PTCONT.14121",
      "street": "AV ANTÓNIO JOAQUIM DE RESENDE",
      "house": "23",
      "postcode": "3860-464",
      "city": "PARDILHÓ",
      "lon": "-8.625070122723118",
      "lat": "40.79395695524649"
    },
    {
      "id": "pt.ine.add.PTCONT.17576",
      "street": "R ANTÓNIO MARIA DA SILVA PINHO",
      "house": "40",
      "postcode": "3860-431",
      "city": "PARDILHÓ",
      "lon": "-8.621075947498406",
      "lat": "40.7921819378887"
    },
    {
      "id": "pt.ine.add.PTCONT.21428",
      "street": "BC LOUVADO",
      "house": "6",
      "postcode": "3860-428",
      "city": "PARDILHÓ",
      "lon": "-8.624273627120592",
      "lat": "40.793600151964796"
    },
    {
      "id": "pt.ine.add.PTCONT.21429",
      "street": "R LAVRADORES",
      "house": "8",
      "postcode": "3860-435",
      "city": "PARDILHÓ",
      "lon": "-8.623093759193656",
      "lat": "40.792668657400085"
    },
    {
      "id": "pt.ine.add.PTCONT.48852",
      "street": "R LAVRADORES",
      "house": "5",
      "postcode": "3860-435",
      "city": "PARDILHÓ",
      "lon": "-8.62298765532708",
      "lat": "40.79274114719821"
    },
    {
      "id": "pt.ine.add.PTCONT.48853",
      "street": "TV SALGUEIRAO ESTARREJ",
      "house": "ESTARREJ",
      "postcode": "3860-463",
      "city": "PARDILHÓ",
      "lon": "-8.620117706556579",
      "lat": "40.79076320972164"
    },
    {
      "id": "pt.ine.add.PTCONT.56887",
      "street": "R LAVRADORES",
      "house": "7",
      "postcode": "3860-435",
      "city": "PARDILHÓ",
      "lon": "-8.622891017229508",
      "lat": "40.79248941989564"
    },
    {
      "id": "pt.ine.add.PTCONT.62472",
      "street": "R ANTÓNIO MARIA DA SILVA PINHO",
      "house": "20",
      "postcode": "3860-431",
      "city": "PARDILHÓ",
      "lon": "-8.623098393183199",
      "lat": "40.79329898150912"
    },
    {
      "id": "pt.ine.add.PTCONT.77481",
      "street": "R ANTÓNIO MARIA DA SILVA PINHO",
      "house": "36",
      "postcode": "3860-431",
      "city": "PARDILHÓ",
      "lon": "-8.621541123498629",
      "lat": "40.792603200680134"
    },
    {
      "id": "pt.ine.add.PTCONT.78738",
      "street": "AV ANTÓNIO JOAQUIM DE RESENDE",
      "house": "43",
      "postcode": "3860-464",
      "city": "PARDILHÓ",
      "lon": "-8.625201266616324",
      "lat": "40.79246158090262"
    },
    {
      "id": "pt.ine.add.PTCONT.81478",
      "street": "R ANTÓNIO MARIA DA SILVA PINHO",
      "house": "16",
      "postcode": "3860-431",
      "city": "PARDILHÓ",
      "lon": "-8.623384672393605",
      "lat": "40.79355890790323"
    },
    {
      "id": "pt.ine.add.PTCONT.81480",
      "street": "R ANTÓNIO MARIA DA SILVA PINHO",
      "house": "42",
      "postcode": "3860-431",
      "city": "PARDILHÓ",
      "lon": "-8.620933111645902",
      "lat": "40.79209249270104"
    },
    {
      "id": "pt.ine.add.PTCONT.81481",
      "street": "AV ANTÓNIO JOAQUIM DE RESENDE",
      "house": "25",
      "postcode": "3860-464",
      "city": "PARDILHÓ",
      "lon": "-8.625068593948061",
      "lat": "40.79374984884609"
    },
    {
      "id": "pt.ine.add.PTCONT.85135",
      "street": "R SAPATEIRAS",
      "house": "11",
      "postcode": "3860-434",
      "city": "PARDILHÓ",
      "lon": "-8.624587393919635",
      "lat": "40.79437323816905"
    },
    {
      "id": "pt.ine.add.PTCONT.85136",
      "street": "R SAPATEIRAS",
      "house": "11",
      "postcode": "3860-434",
      "city": "PARDILHÓ",
      "lon": "-8.624587393919635",
      "lat": "40.79437323816905"
    },
    {
      "id": "pt.ine.add.PTCONT.85137",
      "street": "R SALGUEIRÃO",
      "house": "16",
      "postcode": "3860-462",
      "city": "PARDILHÓ",
      "lon": "-8.620765449481851",
      "lat": "40.79022918407976"
    },
    {
      "id": "pt.ine.add.PTCONT.94835",
      "street": "R ANTÓNIO MARIA DA SILVA PINHO",
      "house": "22",
      "postcode": "3860-431",
      "city": "PARDILHÓ",
      "lon": "-8.62304001238751",
      "lat": "40.793416293241016"
    },
    {
      "id": "pt.ine.add.PTCONT.98309",
      "street": "BC NARCISO",
      "house": "2",
      "postcode": "3860-429",
      "city": "PARDILHÓ",
      "lon": "-8.619778524933885",
      "lat": "40.791367970039204"
    },
    {
      "id": "pt.ine.add.PTCONT.103869",
      "street": "R SAPATEIRAS",
      "house": "13",
      "postcode": "3860-434",
      "city": "PARDILHÓ",
      "lon": "-8.624826090263817",
      "lat": "40.79460634885945"
    },
    {
      "id": "pt.ine.add.PTCONT.103870",
      "street": "R SAPATEIRAS",
      "house": "13",
      "postcode": "3860-434",
      "city": "PARDILHÓ",
      "lon": "-8.624826090263817",
      "lat": "40.79460634885945"
    },
    {
      "id": "pt.ine.add.PTCONT.103871",
      "street": "R SAPATEIRAS",
      "house": "13",
      "postcode": "3860-434",
      "city": "PARDILHÓ",
      "lon": "-8.624826090263817",
      "lat": "40.79460634885945"
    },
    {
      "id": "pt.ine.add.PTCONT.103872",
      "street": "R SAPATEIRAS",
      "house": "13",
      "postcode": "3860-434",
      "city": "PARDILHÓ",
      "lon": "-8.624826090263817",
      "lat": "40.79460634885945"
    },
    {
      "id": "pt.ine.add.PTCONT.103873",
      "street": "R LAVRADORES",
      "house": "1",
      "postcode": "3860-435",
      "city": "PARDILHÓ",
      "lon": "-8.623096804370254",
      "lat": "40.79308287039385"
    },
    {
      "id": "pt.ine.add.PTCONT.103983",
      "street": "R SALGUEIRÃO",
      "house": "6",
      "postcode": "3860-462",
      "city": "PARDILHÓ",
      "lon": "-8.619763784201746",
      "lat": "40.7909718159608"
    },
    {
      "id": "pt.ine.add.PTCONT.116083",
      "street": "R ANTÓNIO MARIA DA SILVA PINHO",
      "house": "",
      "postcode": "3860-431",
      "city": "PARDILHÓ",
      "lon": "-8.621219245346447",
      "lat": "40.79233441533199"
    },
    {
      "id": "pt.ine.add.PTCONT.121441",
      "street": "AV ANTÓNIO JOAQUIM DE RESENDE",
      "house": "39",
      "postcode": "3860-464",
      "city": "PARDILHÓ",
      "lon": "-8.625179431846608",
      "lat": "40.79271381153741"
    },
    {
      "id": "pt.ine.add.PTCONT.129307",
      "street": "BC NARCISO",
      "house": "48",
      "postcode": "3860-429",
      "city": "PARDILHÓ",
      "lon": "-8.620124285937402",
      "lat": "40.79166367341125"
    },
    {
      "id": "pt.ine.add.PTCONT.132096",
      "street": "AV ANTÓNIO JOAQUIM DE RESENDE",
      "house": "57",
      "postcode": "3860-464",
      "city": "PARDILHÓ",
      "lon": "-8.625379131291774",
      "lat": "40.79087595758595"
    },
    {
      "id": "pt.ine.add.PTCONT.138703",
      "street": "R SALGUEIRÃO",
      "house": "14",
      "postcode": "3860-462",
      "city": "PARDILHÓ",
      "lon": "-8.620517832579123",
      "lat": "40.790392318757064"
    },
    {
      "id": "pt.ine.add.PTCONT.142787",
      "street": "R SAPATEIRAS",
      "house": "5",
      "postcode": "3860-434",
      "city": "PARDILHÓ",
      "lon": "-8.624147740713907",
      "lat": "40.7942040166859"
    },
    {
      "id": "pt.ine.add.PTCONT.146574",
      "street": "R ANTÓNIO MARIA DA SILVA PINHO",
      "house": "50",
      "postcode": "3860-431",
      "city": "PARDILHÓ",
      "lon": "-8.619992774209742",
      "lat": "40.79150213994021"
    },
    {
      "id": "pt.ine.add.PTCONT.160852",
      "street": "R LAVRADORES",
      "house": "16",
      "postcode": "3860-435",
      "city": "PARDILHÓ",
      "lon": "-8.622816554331628",
      "lat": "40.79203048540211"
    },
    {
      "id": "pt.ine.add.PTCONT.160853",
      "street": "R LAVRADORES",
      "house": "15",
      "postcode": "3860-435",
      "city": "PARDILHÓ",
      "lon": "-8.62250824091001",
      "lat": "40.791995773798185"
    },
    {
      "id": "pt.ine.add.PTCONT.169182",
      "street": "R ANTÓNIO MARIA DA SILVA PINHO",
      "house": "46",
      "postcode": "3860-431",
      "city": "PARDILHÓ",
      "lon": "-8.620397908519804",
      "lat": "40.791815601772356"
    },
    {
      "id": "pt.ine.add.PTCONT.177241",
      "street": "R ANTÓNIO MARIA DA SILVA PINHO",
      "house": "24",
      "postcode": "3860-431",
      "city": "PARDILHÓ",
      "lon": "-8.622838194592335",
      "lat": "40.793363120497276"
    },
    {
      "id": "pt.ine.add.PTCONT.177242",
      "street": "BC MARTELOS",
      "house": "",
      "postcode": "3860-730",
      "city": "PARDILHÓ",
      "lon": "-8.621737326698563",
      "lat": "40.79189098190804"
    },
    {
      "id": "pt.ine.add.PTCONT.183321",
      "street": "AV ANTÓNIO JOAQUIM DE RESENDE",
      "house": "17",
      "postcode": "3860-464",
      "city": "PARDILHÓ",
      "lon": "-8.625038499029063",
      "lat": "40.79448837969627"
    },
    {
      "id": "pt.ine.add.PTCONT.183322",
      "street": "AV ANTÓNIO JOAQUIM DE RESENDE",
      "house": "17",
      "postcode": "3860-464",
      "city": "PARDILHÓ",
      "lon": "-8.625038499029063",
      "lat": "40.79448837969627"
    },
    {
      "id": "pt.ine.add.PTCONT.183323",
      "street": "AV ANTÓNIO JOAQUIM DE RESENDE",
      "house": "17",
      "postcode": "3860-464",
      "city": "PARDILHÓ",
      "lon": "-8.625038499029063",
      "lat": "40.79448837969627"
    },
    {
      "id": "pt.ine.add.PTCONT.183375",
      "street": "AV ANTÓNIO JOAQUIM DE RESENDE",
      "house": "17",
      "postcode": "3860-464",
      "city": "PARDILHÓ",
      "lon": "-8.625038499029063",
      "lat": "40.79448837969627"
    },
    {
      "id": "pt.ine.add.PTCONT.183376",
      "street": "AV ANTÓNIO JOAQUIM DE RESENDE",
      "house": "17",
      "postcode": "3860-464",
      "city": "PARDILHÓ",
      "lon": "-8.625038499029063",
      "lat": "40.79448837969627"
    },
    {
      "id": "pt.ine.add.PTCONT.183377",
      "street": "AV ANTÓNIO JOAQUIM DE RESENDE",
      "house": "17",
      "postcode": "3860-464",
      "city": "PARDILHÓ",
      "lon": "-8.625038499029063",
      "lat": "40.79448837969627"
    },
    {
      "id": "pt.ine.add.PTCONT.183738",
      "street": "R ANTÓNIO MARIA DA SILVA PINHO",
      "house": "26",
      "postcode": "3860-431",
      "city": "PARDILHÓ",
      "lon": "-8.62271938111217",
      "lat": "40.79331860014366"
    },
    {
      "id": "pt.ine.add.PTCONT.187780",
      "street": "R SALGUEIRÃO",
      "house": "",
      "postcode": "3860-462",
      "city": "PARDILHÓ",
      "lon": "-8.61965807375185",
      "lat": "40.791098330549886"
    },
    {
      "id": "pt.ine.add.PTCONT.201430",
      "street": "R LAVRADORES",
      "house": "",
      "postcode": "3860-435",
      "city": "PARDILHÓ",
      "lon": "-8.623250235274925",
      "lat": "40.7930011745662"
    },
    {
      "id": "pt.ine.add.PTCONT.201431",
      "street": "BC TORRAO DE ALICANTE",
      "house": "1",
      "postcode": "3860-431",
      "city": "PARDILHÓ",
      "lon": "-8.621167435170106",
      "lat": "40.79173130530435"
    },
    {
      "id": "pt.ine.add.PTCONT.211836",
      "street": "AV ANTÓNIO JOAQUIM DE RESENDE",
      "house": "19",
      "postcode": "3860-464",
      "city": "PARDILHÓ",
      "lon": "-8.625048619355931",
      "lat": "40.79425420892449"
    },
    {
      "id": "pt.ine.add.PTCONT.222980",
      "street": "R ANTÓNIO MARIA DA SILVA PINHO",
      "house": "18",
      "postcode": "3860-431",
      "city": "PARDILHÓ",
      "lon": "-8.623241499398633",
      "lat": "40.79342444248341"
    },
    {
      "id": "pt.ine.add.PTCONT.265611",
      "street": "R ANTÓNIO MARIA DA SILVA PINHO",
      "house": "44",
      "postcode": "3860-431",
      "city": "PARDILHÓ",
      "lon": "-8.620742686397906",
      "lat": "40.79197623371517"
    },
    {
      "id": "pt.ine.add.PTCONT.267720",
      "street": "BC MARTELOS",
      "house": "1",
      "postcode": "3860-730",
      "city": "PARDILHÓ",
      "lon": "-8.621335879384263",
      "lat": "40.79208178434237"
    },
    {
      "id": "pt.ine.add.PTCONT.273125",
      "street": "R LAVRADORES",
      "house": "13",
      "postcode": "3860-435",
      "city": "PARDILHÓ",
      "lon": "-8.622544909095506",
      "lat": "40.792148701790296"
    },
    {
      "id": "pt.ine.add.PTCONT.289189",
      "street": "R LAVRADORES",
      "house": "3",
      "postcode": "3860-435",
      "city": "PARDILHÓ",
      "lon": "-8.62308389697412",
      "lat": "40.79293884662364"
    }
  ]
}