{
  "data": {
    "distrito": "Leiria",
    "concelho": "Peniche",
    "freguesia": "Peniche",
    "OBJECTID": 487,
    "BGRI2021": "10140700202",
    "DT21": "10",
    "DTMN21": "1014",
    "DTMNFR21": "101407",
    "DTMNFRSEC21": "101407002",
    "SECNUM21": "002",
    "SSNUM21": "02",
    "SECSSNUM21": "00202",
    "OBJECTID_1": 94224,
    "DT": "10",
    "CC": "14",
    "fr": "07",
    "SEC": "002",
    "SS": "02"
  },
  "addresses": [
    {
      "id": "pt.ine.add.PTCONT.1980270",
      "street": "LG REMEDIOS",
      "house": "",
      "postcode": "2520-641",
      "city": "PENICHE",
      "lon": "-9.40238541516896",
      "lat": "39.36598003115293"
    },
    {
      "id": "pt.ine.add.PTCONT.1983340",
      "street": "BR PESCADORES DR CONSTANTINO VARELA CID",
      "house": "",
      "postcode": "2520-628",
      "city": "PENICHE",
      "lon": "-9.505533463324252",
      "lat": "39.414318601701105"
    },
    {
      "id": "pt.ine.add.PTCONT.1987745",
      "street": "BR PESCADORES",
      "house": "5",
      "postcode": "2520-628",
      "city": "PENICHE",
      "lon": "-9.505869580197963",
      "lat": "39.41428761546968"
    },
    {
      "id": "pt.ine.add.PTCONT.2018395",
      "street": "BR PESCADORES ARQUICTETO BRALO REIS",
      "house": "",
      "postcode": "2520-628",
      "city": "PENICHE",
      "lon": "-9.505633878223833",
      "lat": "39.414110264946466"
    },
    {
      "id": "pt.ine.add.PTCONT.2025013",
      "street": "LG REMEDIOS",
      "house": "",
      "postcode": "2520-641",
      "city": "PENICHE",
      "lon": "-9.402606649190329",
      "lat": "39.366022651335676"
    },
    {
      "id": "pt.ine.add.PTCONT.2029376",
      "street": "R IRMA GLÓRIA DE S VICENTE DE PAULO",
      "house": "6",
      "postcode": "2520-614",
      "city": "PENICHE",
      "lon": "-9.401813801007382",
      "lat": "39.363887692423155"
    },
    {
      "id": "pt.ine.add.PTCONT.2051356",
      "street": "BR PESCADORES",
      "house": "12",
      "postcode": "2520-628",
      "city": "PENICHE",
      "lon": "-9.505719376077211",
      "lat": "39.414325414520654"
    },
    {
      "id": "pt.ine.add.PTCONT.2056021",
      "street": "BR PESCADORES",
      "house": "",
      "postcode": "2520-628",
      "city": "PENICHE",
      "lon": "-9.505685433557666",
      "lat": "39.41437084808511"
    },
    {
      "id": "pt.ine.add.PTCONT.2067131",
      "street": "LG REMEDIOS",
      "house": "",
      "postcode": "2520-641",
      "city": "PENICHE",
      "lon": "-9.402976249797788",
      "lat": "39.365928550748855"
    },
    {
      "id": "pt.ine.add.PTCONT.2073421",
      "street": "LG REMEDIOS",
      "house": "",
      "postcode": "2520-641",
      "city": "PENICHE",
      "lon": "-9.403177726308215",
      "lat": "39.365521048061"
    },
    {
      "id": "pt.ine.add.PTCONT.2082138",
      "street": "BR PESCADORES CASA DOS TRES",
      "house": "",
      "postcode": "2520-628",
      "city": "PENICHE",
      "lon": "-9.505703882277201",
      "lat": "39.414127452076954"
    },
    {
      "id": "pt.ine.add.PTCONT.2090792",
      "street": "BR PESCADORES",
      "house": "7",
      "postcode": "2520-628",
      "city": "PENICHE",
      "lon": "-9.505845480079996",
      "lat": "39.41424286688262"
    },
    {
      "id": "pt.ine.add.PTCONT.2090869",
      "street": "LG REMEDIOS",
      "house": "18",
      "postcode": "2520-641",
      "city": "PENICHE",
      "lon": "-9.402979185764037",
      "lat": "39.36609064016926"
    },
    {
      "id": "pt.ine.add.PTCONT.2092172",
      "street": "BR PESCADORES",
      "house": "13",
      "postcode": "2520-628",
      "city": "PENICHE",
      "lon": "-9.505695099437638",
      "lat": "39.414271661381626"
    },
    {
      "id": "pt.ine.add.PTCONT.2097254",
      "street": "BR PESCADORES",
      "house": "4",
      "postcode": "2520-628",
      "city": "PENICHE",
      "lon": "-9.505905288857727",
      "lat": "39.41433222704233"
    },
    {
      "id": "pt.ine.add.PTCONT.2108433",
      "street": "BR PESCADORES JOSE BENTO",
      "house": "",
      "postcode": "2520-628",
      "city": "PENICHE",
      "lon": "-9.505739590748101",
      "lat": "39.41417206370496"
    },
    {
      "id": "pt.ine.add.PTCONT.2108434",
      "street": "BR PESCADORES",
      "house": "11",
      "postcode": "2520-628",
      "city": "PENICHE",
      "lon": "-9.505789910213915",
      "lat": "39.4143696151525"
    },
    {
      "id": "pt.ine.add.PTCONT.2110154",
      "street": "R IRMA GLÓRIA DE S VICENTE DE PAULO",
      "house": "8",
      "postcode": "2520-614",
      "city": "PENICHE",
      "lon": "-9.401966564955165",
      "lat": "39.36399410768055"
    },
    {
      "id": "pt.ine.add.PTCONT.2111997",
      "street": "LG REMEDIOS",
      "house": "",
      "postcode": "2520-641",
      "city": "PENICHE",
      "lon": "-9.40221074833405",
      "lat": "39.36594590939392"
    },
    {
      "id": "pt.ine.add.PTCONT.2120832",
      "street": "BR PESCADORES",
      "house": "3",
      "postcode": "2520-628",
      "city": "PENICHE",
      "lon": "-9.5058713464573",
      "lat": "39.41437766065896"
    },
    {
      "id": "pt.ine.add.PTCONT.2154442",
      "street": "BR PESCADORES",
      "house": "",
      "postcode": "2520-628",
      "city": "PENICHE",
      "lon": "-9.50573310388823",
      "lat": "39.414433331762005"
    },
    {
      "id": "pt.ine.add.PTCONT.2165326",
      "street": "LG REMEDIOS",
      "house": "",
      "postcode": "2520-641",
      "city": "PENICHE",
      "lon": "-9.401698349775991",
      "lat": "39.365843416044974"
    },
    {
      "id": "pt.ine.add.PTCONT.2169643",
      "street": "LG REMEDIOS",
      "house": "",
      "postcode": "2520-641",
      "city": "PENICHE",
      "lon": "-9.401931183953616",
      "lat": "39.365885911044934"
    },
    {
      "id": "pt.ine.add.PTCONT.2171800",
      "street": "BR PESCADORES",
      "house": "9",
      "postcode": "2520-628",
      "city": "PENICHE",
      "lon": "-9.505826325350307",
      "lat": "39.414450244824906"
    },
    {
      "id": "pt.ine.add.PTCONT.2189364",
      "street": "BR PESCADORES",
      "house": "",
      "postcode": "2520-628",
      "city": "PENICHE",
      "lon": "-9.505850425531433",
      "lat": "39.414494993413335"
    },
    {
      "id": "pt.ine.add.PTCONT.2214091",
      "street": "BR PESCADORES",
      "house": "15",
      "postcode": "2520-628",
      "city": "PENICHE",
      "lon": "-9.505612074005654",
      "lat": "39.41418257506848"
    },
    {
      "id": "pt.ine.add.PTCONT.2216156",
      "street": "BR PESCADORES ARQUICTETO JOSE SILVA",
      "house": "",
      "postcode": "2520-628",
      "city": "PENICHE",
      "lon": "-9.505786554527953",
      "lat": "39.414198529285585"
    },
    {
      "id": "pt.ine.add.PTCONT.2216214",
      "street": "BR PESCADORES",
      "house": "14",
      "postcode": "2520-628",
      "city": "PENICHE",
      "lon": "-9.50571761001665",
      "lat": "39.41423536932484"
    },
    {
      "id": "pt.ine.add.PTCONT.2220374",
      "street": "LG REMEDIOS",
      "house": "",
      "postcode": "2520-641",
      "city": "PENICHE",
      "lon": "-9.401523683589899",
      "lat": "39.36580929324267"
    },
    {
      "id": "pt.ine.add.PTCONT.2221101",
      "street": "LG REMEDIOS",
      "house": "17",
      "postcode": "2520-641",
      "city": "PENICHE",
      "lon": "-9.403200420466836",
      "lat": "39.36613325921056"
    },
    {
      "id": "pt.ine.add.PTCONT.2222824",
      "street": "BR PESCADORES",
      "house": "10",
      "postcode": "2520-628",
      "city": "PENICHE",
      "lon": "-9.505779184769416",
      "lat": "39.414414774745545"
    },
    {
      "id": "pt.ine.add.PTCONT.2225274",
      "street": "BR PESCADORES DR CONSTANTINO VARELA CID",
      "house": "",
      "postcode": "2520-628",
      "city": "PENICHE",
      "lon": "-9.505590446333915",
      "lat": "39.41426388970643"
    },
    {
      "id": "pt.ine.add.PTCONT.2226880",
      "street": "BR PESCADORES",
      "house": "8",
      "postcode": "2520-628",
      "city": "PENICHE",
      "lon": "-9.505787614215167",
      "lat": "39.41425255640202"
    },
    {
      "id": "pt.ine.add.PTCONT.2242323",
      "street": "BR PESCADORES",
      "house": "2",
      "postcode": "2520-628",
      "city": "PENICHE",
      "lon": "-9.505952606080955",
      "lat": "39.41437670158946"
    },
    {
      "id": "pt.ine.add.PTCONT.2253258",
      "street": "BR PESCADORES ALMIRANTE ANDRADE E SILVA",
      "house": "",
      "postcode": "2520-628",
      "city": "PENICHE",
      "lon": "-9.505659390942032",
      "lat": "39.41422704974109"
    },
    {
      "id": "pt.ine.add.PTCONT.2254112",
      "street": "BR PESCADORES",
      "house": "6",
      "postcode": "2520-628",
      "city": "PENICHE",
      "lon": "-9.505811714299996",
      "lat": "39.4142973050016"
    },
    {
      "id": "pt.ine.add.PTCONT.2260202",
      "street": "BR PESCADORES",
      "house": "1",
      "postcode": "2520-628",
      "city": "PENICHE",
      "lon": "-9.505930272215975",
      "lat": "39.41442199820809"
    }
  ]
}