{
  "data": {
    "distrito": "Leiria",
    "concelho": "Leiria",
    "freguesia": "União das freguesias de Colmeias e Memória",
    "OBJECTID": 1833,
    "BGRI2021": "10093200205",
    "DT21": "10",
    "DTMN21": "1009",
    "DTMNFR21": "100932",
    "DTMNFRSEC21": "100932002",
    "SECNUM21": "002",
    "SSNUM21": "05",
    "SECSSNUM21": "00205",
    "OBJECTID_1": 89747,
    "DT": "10",
    "CC": "09",
    "fr": "32",
    "SEC": "002",
    "SS": "05"
  },
  "addresses": [
    {
      "id": "pt.ine.add.PTCONT.1981104",
      "street": "R CUCUS",
      "house": "35",
      "postcode": "2420-204",
      "city": "COLMEIAS",
      "lon": "-8.66396847448342",
      "lat": "39.81562586208867"
    },
    {
      "id": "pt.ine.add.PTCONT.2000447",
      "street": "R OLIVAL",
      "house": "",
      "postcode": "2420-213",
      "city": "COLMEIAS",
      "lon": "-8.657297382794582",
      "lat": "39.80916256143999"
    },
    {
      "id": "pt.ine.add.PTCONT.2011255",
      "street": "R CASTELA",
      "house": "",
      "postcode": "2420-213",
      "city": "COLMEIAS",
      "lon": "-8.658662653893856",
      "lat": "39.81209248025195"
    },
    {
      "id": "pt.ine.add.PTCONT.2011258",
      "street": "R S MIGUEL",
      "house": "1659",
      "postcode": "2420-204",
      "city": "COLMEIAS",
      "lon": "-8.662779815933042",
      "lat": "39.81596453177004"
    },
    {
      "id": "pt.ine.add.PTCONT.2017737",
      "street": "R S MIGUEL",
      "house": "",
      "postcode": "2420-213",
      "city": "COLMEIAS",
      "lon": "-8.659199355238536",
      "lat": "39.81355809476087"
    },
    {
      "id": "pt.ine.add.PTCONT.2037481",
      "street": "R S MIGUEL",
      "house": "1481",
      "postcode": "2420-213",
      "city": "COLMEIAS",
      "lon": "-8.661140738279725",
      "lat": "39.815440624002136"
    },
    {
      "id": "pt.ine.add.PTCONT.2044042",
      "street": "R S MIGUEL",
      "house": "1555",
      "postcode": "2420-213",
      "city": "COLMEIAS",
      "lon": "-8.661670136999177",
      "lat": "39.81594257289235"
    },
    {
      "id": "pt.ine.add.PTCONT.2048409",
      "street": "R OLIVAL",
      "house": "65",
      "postcode": "2420-213",
      "city": "COLMEIAS",
      "lon": "-8.656907923928047",
      "lat": "39.80862393450257"
    },
    {
      "id": "pt.ine.add.PTCONT.2048410",
      "street": "R S MIGUEL",
      "house": "1699",
      "postcode": "2420-204",
      "city": "COLMEIAS",
      "lon": "-8.66330577040157",
      "lat": "39.81601616809189"
    },
    {
      "id": "pt.ine.add.PTCONT.2055263",
      "street": "R TOJEIRAS",
      "house": "15",
      "postcode": "2420-213",
      "city": "COLMEIAS",
      "lon": "-8.658856363210058",
      "lat": "39.81299224489367"
    },
    {
      "id": "pt.ine.add.PTCONT.2074462",
      "street": "R S MIGUEL",
      "house": "1345",
      "postcode": "2420-213",
      "city": "COLMEIAS",
      "lon": "-8.661517004154963",
      "lat": "39.81577214847144"
    },
    {
      "id": "pt.ine.add.PTCONT.2145515",
      "street": "R QUINTA NOVA",
      "house": "80",
      "postcode": "2420-213",
      "city": "COLMEIAS",
      "lon": "-8.657093151234204",
      "lat": "39.81148714173812"
    },
    {
      "id": "pt.ine.add.PTCONT.2153637",
      "street": "R S MIGUEL",
      "house": "1515",
      "postcode": "2420-213",
      "city": "COLMEIAS",
      "lon": "-8.661376171207158",
      "lat": "39.815682725590605"
    },
    {
      "id": "pt.ine.add.PTCONT.2157837",
      "street": "R TOJEIRAS",
      "house": "",
      "postcode": "2420-213",
      "city": "COLMEIAS",
      "lon": "-8.658727903501195",
      "lat": "39.81299282688534"
    },
    {
      "id": "pt.ine.add.PTCONT.2157840",
      "street": "R S MIGUEL",
      "house": "1417",
      "postcode": "2420-213",
      "city": "COLMEIAS",
      "lon": "-8.660520053349765",
      "lat": "39.81521828655756"
    },
    {
      "id": "pt.ine.add.PTCONT.2208825",
      "street": "R ALCOVIM",
      "house": "",
      "postcode": "2420-211",
      "city": "COLMEIAS",
      "lon": "-8.656985689295832",
      "lat": "39.806561110952835"
    },
    {
      "id": "pt.ine.add.PTCONT.2211045",
      "street": "R LAGAR",
      "house": "101",
      "postcode": "2420-204",
      "city": "COLMEIAS",
      "lon": "-8.663058028454586",
      "lat": "39.8156930689268"
    },
    {
      "id": "pt.ine.add.PTCONT.2224101",
      "street": "R ALCOVIM",
      "house": "",
      "postcode": "2420-213",
      "city": "COLMEIAS",
      "lon": "-8.656207346949543",
      "lat": "39.80863610134332"
    },
    {
      "id": "pt.ine.add.PTCONT.2230793",
      "street": "R S MIGUEL",
      "house": "1443",
      "postcode": "2420-213",
      "city": "COLMEIAS",
      "lon": "-8.660707667280775",
      "lat": "39.81531650419697"
    },
    {
      "id": "pt.ine.add.PTCONT.2232563",
      "street": "R CUCUS",
      "house": "",
      "postcode": "2420-204",
      "city": "COLMEIAS",
      "lon": "-8.664725731288177",
      "lat": "39.813866143690156"
    },
    {
      "id": "pt.ine.add.PTCONT.2232560",
      "street": "R GASTELA",
      "house": "550",
      "postcode": "2420-213",
      "city": "COLMEIAS",
      "lon": "-8.660767116727069",
      "lat": "39.80934497625731"
    },
    {
      "id": "pt.ine.add.PTCONT.2239215",
      "street": "R CUCUS",
      "house": "261",
      "postcode": "2420-204",
      "city": "COLMEIAS",
      "lon": "-8.664459835131897",
      "lat": "39.81421861194899"
    }
  ]
}