{
  "data": {
    "distrito": "Lisboa",
    "concelho": "Sintra",
    "freguesia": "Rio de Mouro",
    "OBJECTID": 146,
    "BGRI2021": "11110802508",
    "DT21": "11",
    "DTMN21": "1111",
    "DTMNFR21": "111108",
    "DTMNFRSEC21": "111108025",
    "SECNUM21": "025",
    "SSNUM21": "08",
    "SECSSNUM21": "02508",
    "OBJECTID_1": 114236,
    "DT": "11",
    "CC": "11",
    "fr": "08",
    "SEC": "025",
    "SS": "08"
  },
  "addresses": [
    {
      "id": "pt.ine.add.PTCONT.2282061",
      "street": "R CASTELINHOS",
      "house": "22",
      "postcode": "2635-230",
      "city": "RIO DE MOURO",
      "lon": "-9.325239750689626",
      "lat": "38.765292200129444"
    },
    {
      "id": "pt.ine.add.PTCONT.2317912",
      "street": "R CASTELINHOS",
      "house": "10",
      "postcode": "2635-230",
      "city": "RIO DE MOURO",
      "lon": "-9.324770507958043",
      "lat": "38.7654411089837"
    },
    {
      "id": "pt.ine.add.PTCONT.2335952",
      "street": "R MARIA INACIA PERDIGAO SILVA ATA SOBRALAS",
      "house": "7",
      "postcode": "2635-564",
      "city": "RIO DE MOURO",
      "lon": "-9.32701348699452",
      "lat": "38.76678738429948"
    },
    {
      "id": "pt.ine.add.PTCONT.2380900",
      "street": "R BEATRIZ MOTA",
      "house": "3",
      "postcode": "2635-553",
      "city": "RIO DE MOURO",
      "lon": "-9.32471572031484",
      "lat": "38.766297398155096"
    },
    {
      "id": "pt.ine.add.PTCONT.2481713",
      "street": "LG PAIOES",
      "house": "19",
      "postcode": "2635-568",
      "city": "RIO DE MOURO",
      "lon": "-9.324023109873998",
      "lat": "38.766160335344594"
    },
    {
      "id": "pt.ine.add.PTCONT.2509215",
      "street": "FRANCOS",
      "house": "23",
      "postcode": "2635-241",
      "city": "RIO DE MOURO",
      "lon": "-9.329018357549046",
      "lat": "38.76351510948369"
    },
    {
      "id": "pt.ine.add.PTCONT.2554546",
      "street": "R PADARIA",
      "house": "",
      "postcode": "2635-567",
      "city": "RIO DE MOURO",
      "lon": "-9.324655056297374",
      "lat": "38.766108855233796"
    },
    {
      "id": "pt.ine.add.PTCONT.2581708",
      "street": "R CASTELINHOS",
      "house": "30",
      "postcode": "2635-230",
      "city": "RIO DE MOURO",
      "lon": "-9.325457116209883",
      "lat": "38.76521792105868"
    },
    {
      "id": "pt.ine.add.PTCONT.2603285",
      "street": "R BEATRIZ MOTA",
      "house": "3A",
      "postcode": "2635-553",
      "city": "RIO DE MOURO",
      "lon": "-9.32482970719865",
      "lat": "38.76623318199747"
    },
    {
      "id": "pt.ine.add.PTCONT.2627197",
      "street": "PCT BELA VISTA",
      "house": "6",
      "postcode": "2635-554",
      "city": "RIO DE MOURO",
      "lon": "-9.324474444801664",
      "lat": "38.76631787347558"
    },
    {
      "id": "pt.ine.add.PTCONT.2750915",
      "street": "LG PAIOES",
      "house": "7",
      "postcode": "2635-568",
      "city": "RIO DE MOURO",
      "lon": "-9.325095751408865",
      "lat": "38.76562695350769"
    },
    {
      "id": "pt.ine.add.PTCONT.2750919",
      "street": "R CASTELINHOS",
      "house": "20",
      "postcode": "2635-230",
      "city": "RIO DE MOURO",
      "lon": "-9.325102309211188",
      "lat": "38.76532963285166"
    },
    {
      "id": "pt.ine.add.PTCONT.2755797",
      "street": "LG PAIOES",
      "house": "20",
      "postcode": "2635-568",
      "city": "RIO DE MOURO",
      "lon": "-9.324081825605356",
      "lat": "38.766231798494125"
    },
    {
      "id": "pt.ine.add.PTCONT.2792381",
      "street": "R MARIA INACIA PERDIGAO SILVA QTA LAGRIMAS",
      "house": "15",
      "postcode": "2635-564",
      "city": "RIO DE MOURO",
      "lon": "-9.329103915899834",
      "lat": "38.76588325591624"
    },
    {
      "id": "pt.ine.add.PTCONT.2967428",
      "street": "R PADARIA",
      "house": "10",
      "postcode": "2635-567",
      "city": "RIO DE MOURO",
      "lon": "-9.325047525589707",
      "lat": "38.76618592213031"
    },
    {
      "id": "pt.ine.add.PTCONT.2994613",
      "street": "R CASTELINHOS",
      "house": "14",
      "postcode": "2635-230",
      "city": "RIO DE MOURO",
      "lon": "-9.32497637101047",
      "lat": "38.765366948094055"
    },
    {
      "id": "pt.ine.add.PTCONT.3078411",
      "street": "R CASTELINHOS QTA OLIVAL",
      "house": "",
      "postcode": "2635-230",
      "city": "RIO DE MOURO",
      "lon": "-9.32968608044712",
      "lat": "38.765607065927966"
    },
    {
      "id": "pt.ine.add.PTCONT.3170788",
      "street": "R MARIA INACIA PERDIGAO SILVA QTA SOBRALAS",
      "house": "5",
      "postcode": "2635-564",
      "city": "RIO DE MOURO",
      "lon": "-9.325849369014387",
      "lat": "38.76666415617913"
    },
    {
      "id": "pt.ine.add.PTCONT.3170789",
      "street": "PCT BELA VISTA",
      "house": "5",
      "postcode": "2635-554",
      "city": "RIO DE MOURO",
      "lon": "-9.324529865491371",
      "lat": "38.76619120082526"
    },
    {
      "id": "pt.ine.add.PTCONT.3226787",
      "street": "R CASTELINHOS",
      "house": "N 4",
      "postcode": "2635-230",
      "city": "RIO DE MOURO",
      "lon": "-9.324298745896032",
      "lat": "38.76613050303608"
    },
    {
      "id": "pt.ine.add.PTCONT.3245267",
      "street": "R PADARIA",
      "house": "3A",
      "postcode": "2635-567",
      "city": "RIO DE MOURO",
      "lon": "-9.32456524367604",
      "lat": "38.76555129416837"
    },
    {
      "id": "pt.ine.add.PTCONT.3264682",
      "street": "R BEATRIZ MOTA",
      "house": "",
      "postcode": "2635-553",
      "city": "RIO DE MOURO",
      "lon": "-9.324991206673557",
      "lat": "38.76625855804924"
    },
    {
      "id": "pt.ine.add.PTCONT.3337731",
      "street": "R PADARIA",
      "house": "5",
      "postcode": "2635-567",
      "city": "RIO DE MOURO",
      "lon": "-9.324819967866212",
      "lat": "38.76564778150081"
    },
    {
      "id": "pt.ine.add.PTCONT.3438242",
      "street": "R CASTELINHOS",
      "house": "28",
      "postcode": "2635-230",
      "city": "RIO DE MOURO",
      "lon": "-9.325377791627865",
      "lat": "38.76529079189047"
    }
  ]
}