{
  "data": {
    "distrito": "Leiria",
    "concelho": "Caldas da Rainha",
    "freguesia": "Carvalhal Benfeito",
    "OBJECTID": 1113,
    "BGRI2021": "10060400103",
    "DT21": "10",
    "DTMN21": "1006",
    "DTMNFR21": "100604",
    "DTMNFRSEC21": "100604001",
    "SECNUM21": "001",
    "SSNUM21": "03",
    "SECSSNUM21": "00103",
    "OBJECTID_1": 88250,
    "DT": "10",
    "CC": "06",
    "fr": "04",
    "SEC": "001",
    "SS": "03"
  },
  "addresses": [
    {
      "id": "pt.ine.add.PTCONT.2025650",
      "street": "R QUINTA BRAVO",
      "house": "1",
      "postcode": "2500-401",
      "city": "CARVALHAL BENFEITO",
      "lon": "-9.048850984316852",
      "lat": "39.424466737207865"
    },
    {
      "id": "pt.ine.add.PTCONT.2030771",
      "street": "R QUINTA BRAVO",
      "house": "7",
      "postcode": "2500-401",
      "city": "CARVALHAL BENFEITO",
      "lon": "-9.052407747315424",
      "lat": "39.42205186111104"
    },
    {
      "id": "pt.ine.add.PTCONT.2055171",
      "street": "R S MARIA",
      "house": "43",
      "postcode": "2500-401",
      "city": "CARVALHAL BENFEITO",
      "lon": "-9.04562503315655",
      "lat": "39.422879859296934"
    },
    {
      "id": "pt.ine.add.PTCONT.2093746",
      "street": "R S MARIA",
      "house": "45",
      "postcode": "2500-401",
      "city": "CARVALHAL BENFEITO",
      "lon": "-9.044895837230639",
      "lat": "39.423065714931234"
    },
    {
      "id": "pt.ine.add.PTCONT.2146924",
      "street": "R QUINTA BRAVO",
      "house": "5",
      "postcode": "2500-401",
      "city": "CARVALHAL BENFEITO",
      "lon": "-9.052025391274103",
      "lat": "39.42211793039921"
    },
    {
      "id": "pt.ine.add.PTCONT.2146925",
      "street": "R LAGAR",
      "house": "",
      "postcode": "2500-401",
      "city": "CARVALHAL BENFEITO",
      "lon": "-9.052309412132988",
      "lat": "39.421638322134015"
    },
    {
      "id": "pt.ine.add.PTCONT.2188352",
      "street": "R FONTE",
      "house": "30",
      "postcode": "2500-401",
      "city": "CARVALHAL BENFEITO",
      "lon": "-9.046610624445604",
      "lat": "39.42276404080697"
    },
    {
      "id": "pt.ine.add.PTCONT.2219104",
      "street": "R BARROS",
      "house": "1",
      "postcode": "2500-401",
      "city": "CARVALHAL BENFEITO",
      "lon": "-9.051950517918987",
      "lat": "39.42172221951177"
    },
    {
      "id": "pt.ine.add.PTCONT.2244466",
      "street": "R LAGAR",
      "house": "20",
      "postcode": "2500-401",
      "city": "CARVALHAL BENFEITO",
      "lon": "-9.053202910400415",
      "lat": "39.42158622366896"
    },
    {
      "id": "pt.ine.add.PTCONT.2252433",
      "street": "R QUINTA DO BRAVO",
      "house": "3",
      "postcode": "2500-401",
      "city": "CARVALHAL BENFEITO",
      "lon": "-9.048951366757976",
      "lat": "39.424150706450966"
    }
  ]
}