{
  "data": {
    "distrito": "Leiria",
    "concelho": "Caldas da Rainha",
    "freguesia": "Carvalhal Benfeito",
    "OBJECTID": 683,
    "BGRI2021": "10060400118",
    "DT21": "10",
    "DTMN21": "1006",
    "DTMNFR21": "100604",
    "DTMNFRSEC21": "100604001",
    "SECNUM21": "001",
    "SSNUM21": "18",
    "SECSSNUM21": "00118",
    "OBJECTID_1": 87557,
    "DT": "10",
    "CC": "06",
    "fr": "04",
    "SEC": "001",
    "SS": "18"
  },
  "addresses": [
    {
      "id": "pt.ine.add.PTCONT.1993002",
      "street": "R SENHORA MERCÊS",
      "house": "18A",
      "postcode": "2500-404",
      "city": "CARVALHAL BENFEITO",
      "lon": "-9.040277460399604",
      "lat": "39.44035897350391"
    },
    {
      "id": "pt.ine.add.PTCONT.1995905",
      "street": "R SENHORA MERCÊS",
      "house": "38",
      "postcode": "2500-404",
      "city": "CARVALHAL BENFEITO",
      "lon": "-9.04237724197609",
      "lat": "39.44104511078034"
    },
    {
      "id": "pt.ine.add.PTCONT.2032535",
      "street": "R SENHORA MERCÊS",
      "house": "22",
      "postcode": "2500-404",
      "city": "CARVALHAL BENFEITO",
      "lon": "-9.0410305456632",
      "lat": "39.44020898755327"
    },
    {
      "id": "pt.ine.add.PTCONT.2070927",
      "street": "R SRA MERCES",
      "house": "40",
      "postcode": "2500-404",
      "city": "CARVALHAL BENFEITO",
      "lon": "-9.04252987441105",
      "lat": "39.44117001327523"
    },
    {
      "id": "pt.ine.add.PTCONT.2073241",
      "street": "R SENHORA MERCÊS",
      "house": "32",
      "postcode": "2500-404",
      "city": "CARVALHAL BENFEITO",
      "lon": "-9.041818092092088",
      "lat": "39.44092338494917"
    },
    {
      "id": "pt.ine.add.PTCONT.2106988",
      "street": "R SENHORA MERCÊS",
      "house": "24",
      "postcode": "2500-404",
      "city": "CARVALHAL BENFEITO",
      "lon": "-9.041136247271634",
      "lat": "39.44029823086068"
    },
    {
      "id": "pt.ine.add.PTCONT.2114236",
      "street": "R SENHORA MERCÊS",
      "house": "36",
      "postcode": "2500-404",
      "city": "CARVALHAL BENFEITO",
      "lon": "-9.042271069282187",
      "lat": "39.44091984491446"
    },
    {
      "id": "pt.ine.add.PTCONT.2126763",
      "street": "R SENHORA MERCÊS",
      "house": "58",
      "postcode": "2500-404",
      "city": "CARVALHAL BENFEITO",
      "lon": "-9.045453342335282",
      "lat": "39.44355194459997"
    },
    {
      "id": "pt.ine.add.PTCONT.2129176",
      "street": "R SENHORA MERCÊS",
      "house": "18 B",
      "postcode": "2500-404",
      "city": "CARVALHAL BENFEITO",
      "lon": "-9.040609728817271",
      "lat": "39.44000511426429"
    },
    {
      "id": "pt.ine.add.PTCONT.2131198",
      "street": "R PEDROGÃO",
      "house": "22",
      "postcode": "2500-404",
      "city": "CARVALHAL BENFEITO",
      "lon": "-9.040575337169013",
      "lat": "39.44272545063812"
    },
    {
      "id": "pt.ine.add.PTCONT.2133788",
      "street": "R SENHORA MERCÊS",
      "house": "28",
      "postcode": "2500-404",
      "city": "CARVALHAL BENFEITO",
      "lon": "-9.041280068292135",
      "lat": "39.440639368187554"
    },
    {
      "id": "pt.ine.add.PTCONT.2140519",
      "street": "R SENHORA MERCÊS",
      "house": "58A",
      "postcode": "2500-404",
      "city": "CARVALHAL BENFEITO",
      "lon": "-9.045489833285165",
      "lat": "39.44367775412917"
    },
    {
      "id": "pt.ine.add.PTCONT.2155563",
      "street": "R SENHORA MERCÊS",
      "house": "18",
      "postcode": "2500-404",
      "city": "CARVALHAL BENFEITO",
      "lon": "-9.040666165712354",
      "lat": "39.43987857799446"
    },
    {
      "id": "pt.ine.add.PTCONT.2161381",
      "street": "R SENHORA MERCÊS",
      "house": "56",
      "postcode": "2500-404",
      "city": "CARVALHAL BENFEITO",
      "lon": "-9.04559143218358",
      "lat": "39.44345178600996"
    },
    {
      "id": "pt.ine.add.PTCONT.2177298",
      "street": "R PEDROGÃO",
      "house": "10",
      "postcode": "2500-404",
      "city": "CARVALHAL BENFEITO",
      "lon": "-9.041735414114862",
      "lat": "39.44349998883073"
    },
    {
      "id": "pt.ine.add.PTCONT.2187433",
      "street": "R SENHORA MERCÊS",
      "house": "50",
      "postcode": "2500-404",
      "city": "CARVALHAL BENFEITO",
      "lon": "-9.044594747042986",
      "lat": "39.442739053949374"
    },
    {
      "id": "pt.ine.add.PTCONT.2192208",
      "street": "R SENHORA MERCÊS",
      "house": "16",
      "postcode": "2500-404",
      "city": "CARVALHAL BENFEITO",
      "lon": "-9.040431302330735",
      "lat": "39.43968225972137"
    },
    {
      "id": "pt.ine.add.PTCONT.2212419",
      "street": "R SENHORA MERCÊS",
      "house": "48",
      "postcode": "2500-404",
      "city": "CARVALHAL BENFEITO",
      "lon": "-9.044657745337188",
      "lat": "39.44222517009609"
    },
    {
      "id": "pt.ine.add.PTCONT.2212420",
      "street": "R SENHORA MERCÊS",
      "house": "48",
      "postcode": "2500-404",
      "city": "CARVALHAL BENFEITO",
      "lon": "-9.044657745337188",
      "lat": "39.44222517009609"
    },
    {
      "id": "pt.ine.add.PTCONT.2226064",
      "street": "R SENHORA MERCÊS",
      "house": "56",
      "postcode": "2500-404",
      "city": "CARVALHAL BENFEITO",
      "lon": "-9.045533708714066",
      "lat": "39.44347925940179"
    },
    {
      "id": "pt.ine.add.PTCONT.2244464",
      "street": "R SENHORA MERCÊS",
      "house": "2O",
      "postcode": "2500-404",
      "city": "CARVALHAL BENFEITO",
      "lon": "-9.040807060994771",
      "lat": "39.43999456753272"
    },
    {
      "id": "pt.ine.add.PTCONT.2244465",
      "street": "R SENHORA MERCÊS",
      "house": "30",
      "postcode": "2500-404",
      "city": "CARVALHAL BENFEITO",
      "lon": "-9.041584860022853",
      "lat": "39.44085315219476"
    },
    {
      "id": "pt.ine.add.PTCONT.2252419",
      "street": "R SENHORA MERCÊS",
      "house": "54",
      "postcode": "2500-404",
      "city": "CARVALHAL BENFEITO",
      "lon": "-9.045484544943722",
      "lat": "39.44327248771583"
    },
    {
      "id": "pt.ine.add.PTCONT.2252423",
      "street": "R PEDROGÃO",
      "house": "",
      "postcode": "2500-404",
      "city": "CARVALHAL BENFEITO",
      "lon": "-9.040808925285159",
      "lat": "39.44282270313326"
    }
  ]
}