{
  "data": {
    "distrito": "Santarém",
    "concelho": "Coruche",
    "freguesia": "Couço",
    "OBJECTID": 246,
    "BGRI2021": "14090200121",
    "DT21": "14",
    "DTMN21": "1409",
    "DTMNFR21": "140902",
    "DTMNFRSEC21": "140902001",
    "SECNUM21": "001",
    "SSNUM21": "21",
    "SECSSNUM21": "00121",
    "OBJECTID_1": 150502,
    "DT": "14",
    "CC": "09",
    "fr": "02",
    "SEC": "001",
    "SS": "21"
  },
  "addresses": [
    {
      "id": "pt.ine.add.PTCONT.4392917",
      "street": "MTE VALE SOBREIRAS",
      "house": "",
      "postcode": "2100-371",
      "city": "COUÇO",
      "lon": "-8.355744416101617",
      "lat": "39.08528204354217"
    },
    {
      "id": "pt.ine.add.PTCONT.4395984",
      "street": "MTE TEXUGUEIRA",
      "house": "",
      "postcode": "2100-371",
      "city": "COUÇO",
      "lon": "-8.368946869966708",
      "lat": "39.03078684705583"
    },
    {
      "id": "pt.ine.add.PTCONT.4398110",
      "street": "MTE VALE SOBREIRAS",
      "house": "",
      "postcode": "2100-371",
      "city": "COUÇO",
      "lon": "-8.367087149375614",
      "lat": "39.07618916938795"
    },
    {
      "id": "pt.ine.add.PTCONT.4402073",
      "street": "MTE TRIGO",
      "house": "",
      "postcode": "2100-371",
      "city": "COUÇO",
      "lon": "-8.358515894839805",
      "lat": "39.0845380951695"
    },
    {
      "id": "pt.ine.add.PTCONT.4410575",
      "street": "MTE BOICILHOS",
      "house": "",
      "postcode": "2100-371",
      "city": "COUÇO",
      "lon": "-8.357515666809746",
      "lat": "39.024152711032045"
    },
    {
      "id": "pt.ine.add.PTCONT.4414844",
      "street": "MTE ACORDA BAIXO",
      "house": "",
      "postcode": "2100-376",
      "city": "COUÇO",
      "lon": "-8.321386448637801",
      "lat": "39.00811081824686"
    },
    {
      "id": "pt.ine.add.PTCONT.4420654",
      "street": "MTE VALE SOBREIRAS",
      "house": "1 1",
      "postcode": "2100-371",
      "city": "COUÇO",
      "lon": "-8.334053159024538",
      "lat": "39.07395382810155"
    },
    {
      "id": "pt.ine.add.PTCONT.4429958",
      "street": "MTE RAMALHO",
      "house": "",
      "postcode": "2100-376",
      "city": "COUÇO",
      "lon": "-8.302286151620338",
      "lat": "39.02069684301299"
    },
    {
      "id": "pt.ine.add.PTCONT.4431182",
      "street": "MTE ESCUSA",
      "house": "",
      "postcode": "2100-371",
      "city": "COUÇO",
      "lon": "-8.357628864069156",
      "lat": "39.02343187711209"
    },
    {
      "id": "pt.ine.add.PTCONT.4431183",
      "street": "MTE ESCUSA",
      "house": "",
      "postcode": "2100-371",
      "city": "COUÇO",
      "lon": "-8.357698462845432",
      "lat": "39.02353082785943"
    },
    {
      "id": "pt.ine.add.PTCONT.4442858",
      "street": "MTE VALE SOBREIRAS",
      "house": "",
      "postcode": "2100-371",
      "city": "COUÇO",
      "lon": "-8.346542656637565",
      "lat": "39.09234319461947"
    },
    {
      "id": "pt.ine.add.PTCONT.4456715",
      "street": "MTE VALE SOBREIRAS",
      "house": "",
      "postcode": "2100-371",
      "city": "COUÇO",
      "lon": "-8.340766897329546",
      "lat": "39.089651344316"
    },
    {
      "id": "pt.ine.add.PTCONT.4456716",
      "street": "MTE VALE SOBREIRAS",
      "house": "",
      "postcode": "2100-371",
      "city": "COUÇO",
      "lon": "-8.33425131883464",
      "lat": "39.07048554917996"
    },
    {
      "id": "pt.ine.add.PTCONT.4465849",
      "street": "MTE VALE SOBREIRAS",
      "house": "",
      "postcode": "2100-371",
      "city": "COUÇO",
      "lon": "-8.334144331988064",
      "lat": "39.06943184062255"
    },
    {
      "id": "pt.ine.add.PTCONT.4469163",
      "street": "MTE VALE SOBREIRAS",
      "house": "",
      "postcode": "2100-371",
      "city": "COUÇO",
      "lon": "-8.367110469893191",
      "lat": "39.07625217592687"
    },
    {
      "id": "pt.ine.add.PTCONT.4470042",
      "street": "MTE VALE SOBREIRAS",
      "house": "",
      "postcode": "2100-371",
      "city": "COUÇO",
      "lon": "-8.367399313859277",
      "lat": "39.07623358071329"
    },
    {
      "id": "pt.ine.add.PTCONT.4470043",
      "street": "MTE ACORDA",
      "house": "",
      "postcode": "2100-376",
      "city": "COUÇO",
      "lon": "-8.316787592202239",
      "lat": "39.00660485022159"
    },
    {
      "id": "pt.ine.add.PTCONT.4472017",
      "street": "MTE TEXUGUEIRA",
      "house": "",
      "postcode": "2100-371",
      "city": "COUÇO",
      "lon": "-8.369154447535847",
      "lat": "39.03069635030707"
    },
    {
      "id": "pt.ine.add.PTCONT.4487463",
      "street": "MTE TEXUGUEIRA",
      "house": "",
      "postcode": "2100-371",
      "city": "COUÇO",
      "lon": "-8.367978416070091",
      "lat": "39.03128422390602"
    },
    {
      "id": "pt.ine.add.PTCONT.4490615",
      "street": "MTE ESCUSA",
      "house": "",
      "postcode": "2100-371",
      "city": "COUÇO",
      "lon": "-8.3576755387084",
      "lat": "39.0235849182019"
    },
    {
      "id": "pt.ine.add.PTCONT.4498549",
      "street": "MTE VALE SOBREIRAS",
      "house": "",
      "postcode": "2100-371",
      "city": "COUÇO",
      "lon": "-8.367445180894995",
      "lat": "39.07612539712119"
    },
    {
      "id": "pt.ine.add.PTCONT.4498636",
      "street": "MTE VALE SOBREIRAS",
      "house": "",
      "postcode": "2100-371",
      "city": "COUÇO",
      "lon": "-8.352985583165815",
      "lat": "39.086395213981035"
    },
    {
      "id": "pt.ine.add.PTCONT.4500878",
      "street": "MTE TEXUGUEIRA",
      "house": "",
      "postcode": "2100-371",
      "city": "COUÇO",
      "lon": "-8.368820222859727",
      "lat": "39.03090420299463"
    },
    {
      "id": "pt.ine.add.PTCONT.4504546",
      "street": "MTE VALE SOBREIRAS",
      "house": "",
      "postcode": "2100-371",
      "city": "COUÇO",
      "lon": "-8.352075274026339",
      "lat": "39.083550523031256"
    },
    {
      "id": "pt.ine.add.PTCONT.4504653",
      "street": "MTE VALE SOBREIRAS",
      "house": "",
      "postcode": "2100-371",
      "city": "COUÇO",
      "lon": "-8.344385170471645",
      "lat": "39.08981598865938"
    },
    {
      "id": "pt.ine.add.PTCONT.4509633",
      "street": "MTE VALE SOBREIRAS",
      "house": "",
      "postcode": "2100-371",
      "city": "COUÇO",
      "lon": "-8.355094478874461",
      "lat": "39.08441855238086"
    },
    {
      "id": "pt.ine.add.PTCONT.4515603",
      "street": "MTE VALE SOBREIRAS",
      "house": "",
      "postcode": "2100-371",
      "city": "COUÇO",
      "lon": "-8.36717971746531",
      "lat": "39.07622501409142"
    },
    {
      "id": "pt.ine.add.PTCONT.4515604",
      "street": "MTE VALE SOBREIRAS",
      "house": "",
      "postcode": "2100-371",
      "city": "COUÇO",
      "lon": "-8.351994483959226",
      "lat": "39.08358670515308"
    },
    {
      "id": "pt.ine.add.PTCONT.4520195",
      "street": "MTE ACORDA",
      "house": "",
      "postcode": "2100-376",
      "city": "COUÇO",
      "lon": "-8.316221709323786",
      "lat": "39.0065336778782"
    },
    {
      "id": "pt.ine.add.PTCONT.4530151",
      "street": "MTE TEXUGUEIRA",
      "house": "",
      "postcode": "2100-371",
      "city": "COUÇO",
      "lon": "-8.368555049850597",
      "lat": "39.031039853855646"
    },
    {
      "id": "pt.ine.add.PTCONT.4533588",
      "street": "MTE VALE SOBREIRAS",
      "house": "",
      "postcode": "2100-371",
      "city": "COUÇO",
      "lon": "-8.304088058844712",
      "lat": "39.035304706934205"
    },
    {
      "id": "pt.ine.add.PTCONT.4541607",
      "street": "MTE VALE SOBREIRAS",
      "house": "",
      "postcode": "2100-371",
      "city": "COUÇO",
      "lon": "-8.335128052512802",
      "lat": "39.065917162503"
    },
    {
      "id": "pt.ine.add.PTCONT.4542610",
      "street": "MTE VALE SOBREIRAS",
      "house": "",
      "postcode": "2100-371",
      "city": "COUÇO",
      "lon": "-8.33736585386479",
      "lat": "39.07262395150322"
    },
    {
      "id": "pt.ine.add.PTCONT.4557170",
      "street": "MTE VALE SOBREIRAS",
      "house": "",
      "postcode": "2100-371",
      "city": "COUÇO",
      "lon": "-8.337307868333163",
      "lat": "39.07255199202664"
    },
    {
      "id": "pt.ine.add.PTCONT.4563502",
      "street": "MTE SESMARIA VELHA",
      "house": "",
      "postcode": "2100-376",
      "city": "COUÇO",
      "lon": "-8.313367991456653",
      "lat": "39.03752464168712"
    },
    {
      "id": "pt.ine.add.PTCONT.4569727",
      "street": "MTE VALE SOBREIRAS",
      "house": "",
      "postcode": "2100-371",
      "city": "COUÇO",
      "lon": "-8.352996917242562",
      "lat": "39.08632313176632"
    },
    {
      "id": "pt.ine.add.PTCONT.4569728",
      "street": "MTE VALE SOBREIRAS",
      "house": "",
      "postcode": "2100-371",
      "city": "COUÇO",
      "lon": "-8.33523165751933",
      "lat": "39.065781868397515"
    },
    {
      "id": "pt.ine.add.PTCONT.4571889",
      "street": "MTE VALE SOBREIRAS",
      "house": "",
      "postcode": "2100-371",
      "city": "COUÇO",
      "lon": "-8.329497000466263",
      "lat": "39.06447655098561"
    },
    {
      "id": "pt.ine.add.PTCONT.4575719",
      "street": "MTE VALE SOBREIRAS",
      "house": "",
      "postcode": "2100-371",
      "city": "COUÇO",
      "lon": "-8.354535519634508",
      "lat": "39.09416583886914"
    },
    {
      "id": "pt.ine.add.PTCONT.4575720",
      "street": "MTE VALE SOBREIRAS",
      "house": "",
      "postcode": "2100-371",
      "city": "COUÇO",
      "lon": "-8.34452395162065",
      "lat": "39.08984275991128"
    },
    {
      "id": "pt.ine.add.PTCONT.4584201",
      "street": "MTE VALE SOBREIRAS",
      "house": "",
      "postcode": "2100-371",
      "city": "COUÇO",
      "lon": "-8.367399790459304",
      "lat": "39.07637770165796"
    },
    {
      "id": "pt.ine.add.PTCONT.4588442",
      "street": "MTE VALE SOBREIRAS",
      "house": "",
      "postcode": "2100-371",
      "city": "COUÇO",
      "lon": "-8.337262113231855",
      "lat": "39.07271420944771"
    },
    {
      "id": "pt.ine.add.PTCONT.4589700",
      "street": "MTE FERRADOR",
      "house": "",
      "postcode": "2100-371",
      "city": "COUÇO",
      "lon": "-8.368301364914313",
      "lat": "39.031157465572555"
    },
    {
      "id": "pt.ine.add.PTCONT.4592274",
      "street": "MTE TEXUGUEIRA",
      "house": "",
      "postcode": "2100-371",
      "city": "COUÇO",
      "lon": "-8.369050718715204",
      "lat": "39.030759613984664"
    },
    {
      "id": "pt.ine.add.PTCONT.4596941",
      "street": "MTE ESCUSA",
      "house": "",
      "postcode": "2100-371",
      "city": "COUÇO",
      "lon": "-8.357184885922598",
      "lat": "39.01813619958403"
    },
    {
      "id": "pt.ine.add.PTCONT.4602645",
      "street": "MTE JUNCO",
      "house": "",
      "postcode": "2100-300",
      "city": "COUÇO",
      "lon": "-8.367122293804977",
      "lat": "39.07633322076998"
    },
    {
      "id": "pt.ine.add.PTCONT.4607267",
      "street": "MTE FIGUEIRAS VIANAS",
      "house": "",
      "postcode": "2100-371",
      "city": "COUÇO",
      "lon": "-8.373321636490035",
      "lat": "39.05741359423473"
    },
    {
      "id": "pt.ine.add.PTCONT.4610483",
      "street": "MTE VALE SOBREIRAS",
      "house": "",
      "postcode": "2100-371",
      "city": "COUÇO",
      "lon": "-8.352812020444702",
      "lat": "39.086332487900876"
    },
    {
      "id": "pt.ine.add.PTCONT.4611211",
      "street": "MTE VALE SOBREIRAS",
      "house": "",
      "postcode": "2100-371",
      "city": "COUÇO",
      "lon": "-8.344662705964115",
      "lat": "39.0898605234456"
    },
    {
      "id": "pt.ine.add.PTCONT.4615431",
      "street": "MTE VALE SOBREIRAS",
      "house": "",
      "postcode": "2100-371",
      "city": "COUÇO",
      "lon": "-8.355106431616996",
      "lat": "39.08454463613499"
    },
    {
      "id": "pt.ine.add.PTCONT.4617277",
      "street": "MTE ACORDA",
      "house": "",
      "postcode": "2100-376",
      "city": "COUÇO",
      "lon": "-8.315956062348937",
      "lat": "39.00648905584073"
    },
    {
      "id": "pt.ine.add.PTCONT.4619695",
      "street": "MTE ESCUSA",
      "house": "",
      "postcode": "2100-371",
      "city": "COUÇO",
      "lon": "-8.357605569558386",
      "lat": "39.02336886802926"
    },
    {
      "id": "pt.ine.add.PTCONT.4623868",
      "street": "MTE SESMARIA",
      "house": "",
      "postcode": "2100-376",
      "city": "COUÇO",
      "lon": "-8.305646870865058",
      "lat": "39.03514928089475"
    },
    {
      "id": "pt.ine.add.PTCONT.4623869",
      "street": "MTE ESCUSA",
      "house": "",
      "postcode": "2100-371",
      "city": "COUÇO",
      "lon": "-8.357522600976564",
      "lat": "39.02269344997466"
    },
    {
      "id": "pt.ine.add.PTCONT.4626180",
      "street": "MTE VALE SOBREIRAS",
      "house": "",
      "postcode": "2100-371",
      "city": "COUÇO",
      "lon": "-8.334121554033237",
      "lat": "39.06954897912339"
    },
    {
      "id": "pt.ine.add.PTCONT.4632220",
      "street": "MTE VALE SOBREIRAS TRIGO",
      "house": "",
      "postcode": "2100-371",
      "city": "COUÇO",
      "lon": "-8.358480964380183",
      "lat": "39.084457094221655"
    },
    {
      "id": "pt.ine.add.PTCONT.4638206",
      "street": "MTE VALE SOBREIRAS",
      "house": "",
      "postcode": "2100-371",
      "city": "COUÇO",
      "lon": "-8.329439378919991",
      "lat": "39.06453069385589"
    },
    {
      "id": "pt.ine.add.PTCONT.4644446",
      "street": "MTE VALE SOBREIRAS",
      "house": "",
      "postcode": "2100-371",
      "city": "COUÇO",
      "lon": "-8.35829561500581",
      "lat": "39.08432233820261"
    },
    {
      "id": "pt.ine.add.PTCONT.4647511",
      "street": "MTE BELO",
      "house": "",
      "postcode": "2100-376",
      "city": "COUÇO",
      "lon": "-8.300813690914469",
      "lat": "39.00350322038121"
    },
    {
      "id": "pt.ine.add.PTCONT.4651587",
      "street": "MTE VALE SOBREIRAS",
      "house": "",
      "postcode": "2100-371",
      "city": "COUÇO",
      "lon": "-8.334262695076642",
      "lat": "39.07042247613297"
    },
    {
      "id": "pt.ine.add.PTCONT.4654006",
      "street": "CAM MONTE DAS FIGUEIRAS VIANAS",
      "house": "",
      "postcode": "2100-371",
      "city": "COUÇO",
      "lon": "-8.373344956280658",
      "lat": "39.05747659973219"
    },
    {
      "id": "pt.ine.add.PTCONT.4656770",
      "street": "MTE MONTINHO DO CORVO",
      "house": "",
      "postcode": "2100-300",
      "city": "COUÇO",
      "lon": "-8.357269439422202",
      "lat": "39.02297317550048"
    },
    {
      "id": "pt.ine.add.PTCONT.4658352",
      "street": "MTE ESCUSA",
      "house": "",
      "postcode": "2100-371",
      "city": "COUÇO",
      "lon": "-8.357641864775848",
      "lat": "39.023891244870285"
    },
    {
      "id": "pt.ine.add.PTCONT.4659999",
      "street": "MTE BOICILHOS",
      "house": "",
      "postcode": "2100-371",
      "city": "COUÇO",
      "lon": "-8.357618997462252",
      "lat": "39.02396335049136"
    }
  ]
}