{
  "data": {
    "distrito": "Évora",
    "concelho": "Évora",
    "freguesia": "Canaviais",
    "OBJECTID": 1666,
    "BGRI2021": "07051500108",
    "DT21": "07",
    "DTMN21": "0705",
    "DTMNFR21": "070515",
    "DTMNFRSEC21": "070515001",
    "SECNUM21": "001",
    "SSNUM21": "08",
    "SECSSNUM21": "00108",
    "OBJECTID_1": 60355,
    "DT": "07",
    "CC": "05",
    "fr": "15",
    "SEC": "001",
    "SS": "08"
  },
  "addresses": [
    {
      "id": "pt.ine.add.PTCONT.1370770",
      "street": "R DA BOA ESPERANÇA",
      "house": "36",
      "postcode": "7005-349",
      "city": "ÉVORA",
      "lon": "-7.900014763499371",
      "lat": "38.618685021297324"
    },
    {
      "id": "pt.ine.add.PTCONT.1372433",
      "street": "R BOA ESPERANCA",
      "house": "28",
      "postcode": "7005-349",
      "city": "ÉVORA",
      "lon": "-7.899461072780766",
      "lat": "38.61835090983626"
    },
    {
      "id": "pt.ine.add.PTCONT.1372921",
      "street": "R BOA ESPERANÇA",
      "house": "26",
      "postcode": "7005-349",
      "city": "ÉVORA",
      "lon": "-7.899461072780766",
      "lat": "38.61835090983626"
    },
    {
      "id": "pt.ine.add.PTCONT.1373129",
      "street": "R DA BOA ESPERANÇA",
      "house": "8",
      "postcode": "7005-349",
      "city": "ÉVORA",
      "lon": "-7.898174639949327",
      "lat": "38.61749497078087"
    },
    {
      "id": "pt.ine.add.PTCONT.1373130",
      "street": "R DA BOA ESPERANÇA",
      "house": "8",
      "postcode": "7005-349",
      "city": "ÉVORA",
      "lon": "-7.898174639949327",
      "lat": "38.61749497078087"
    },
    {
      "id": "pt.ine.add.PTCONT.1376834",
      "street": "R DA BOA ESPERANÇA",
      "house": "16",
      "postcode": "7005-349",
      "city": "ÉVORA",
      "lon": "-7.8987888188023385",
      "lat": "38.61786281507008"
    },
    {
      "id": "pt.ine.add.PTCONT.1382868",
      "street": "R BOA ESPERANCA",
      "house": "48",
      "postcode": "7005-349",
      "city": "ÉVORA",
      "lon": "-7.900643481648869",
      "lat": "38.61912111741857"
    },
    {
      "id": "pt.ine.add.PTCONT.1382869",
      "street": "R BOA ESPERANCA",
      "house": "50",
      "postcode": "7005-349",
      "city": "ÉVORA",
      "lon": "-7.900643481648869",
      "lat": "38.61912111741857"
    },
    {
      "id": "pt.ine.add.PTCONT.1385808",
      "street": "R BOA ESPERANCA",
      "house": "60",
      "postcode": "7005-349",
      "city": "ÉVORA",
      "lon": "-7.901091725085829",
      "lat": "38.619425844358965"
    },
    {
      "id": "pt.ine.add.PTCONT.1385809",
      "street": "R BOA ESPERANCA",
      "house": "62",
      "postcode": "7005-349",
      "city": "ÉVORA",
      "lon": "-7.901091725085829",
      "lat": "38.619425844358965"
    },
    {
      "id": "pt.ine.add.PTCONT.1393296",
      "street": "R BOA ESPERANCA",
      "house": "56",
      "postcode": "7005-349",
      "city": "ÉVORA",
      "lon": "-7.9009543129167765",
      "lat": "38.61930846358972"
    },
    {
      "id": "pt.ine.add.PTCONT.1393780",
      "street": "R BOA ESPERANCA",
      "house": "N 58",
      "postcode": "7005-349",
      "city": "ÉVORA",
      "lon": "-7.9009543129167765",
      "lat": "38.61930846358972"
    },
    {
      "id": "pt.ine.add.PTCONT.1400923",
      "street": "HRD PACHOLA",
      "house": "38",
      "postcode": "7005-839",
      "city": "ÉVORA",
      "lon": "-7.899438687578708",
      "lat": "38.619287430090104"
    },
    {
      "id": "pt.ine.add.PTCONT.1406096",
      "street": "QTA CACADOR CANAVIAIS",
      "house": "",
      "postcode": "7005-839",
      "city": "ÉVORA",
      "lon": "-7.900550507150679",
      "lat": "38.61990221113419"
    },
    {
      "id": "pt.ine.add.PTCONT.1407449",
      "street": "HRD DA PACHOLA",
      "house": "",
      "postcode": "7000-171",
      "city": "ÉVORA",
      "lon": "-7.900277488871401",
      "lat": "38.61910893565191"
    },
    {
      "id": "pt.ine.add.PTCONT.1415191",
      "street": "R DA BOA ESPERANÇA",
      "house": "12",
      "postcode": "7005-349",
      "city": "ÉVORA",
      "lon": "-7.898525343865588",
      "lat": "38.61767311230038"
    },
    {
      "id": "pt.ine.add.PTCONT.1415935",
      "street": "R DA BOA ESPERANÇA",
      "house": "26",
      "postcode": "7005-349",
      "city": "ÉVORA",
      "lon": "-7.8993788241594185",
      "lat": "38.618282384992604"
    },
    {
      "id": "pt.ine.add.PTCONT.1415936",
      "street": "R DA BOA ESPERANÇA",
      "house": "26",
      "postcode": "7005-349",
      "city": "ÉVORA",
      "lon": "-7.8993788241594185",
      "lat": "38.618282384992604"
    },
    {
      "id": "pt.ine.add.PTCONT.1417444",
      "street": "R DA BOA ESPERANÇA",
      "house": "10",
      "postcode": "7005-349",
      "city": "ÉVORA",
      "lon": "-7.898386089015498",
      "lat": "38.61761469510499"
    },
    {
      "id": "pt.ine.add.PTCONT.1424944",
      "street": "R DA BOA ESPERANÇA",
      "house": "22",
      "postcode": "7005-349",
      "city": "ÉVORA",
      "lon": "-7.899160999351221",
      "lat": "38.61806598407727"
    },
    {
      "id": "pt.ine.add.PTCONT.1427277",
      "street": "QTA QUINTINHAS DA PACHOLA",
      "house": "39",
      "postcode": "7005-839",
      "city": "ÉVORA",
      "lon": "-7.899060440093219",
      "lat": "38.61907948265999"
    },
    {
      "id": "pt.ine.add.PTCONT.1429306",
      "street": "R DA BOA ESPERANÇA",
      "house": "",
      "postcode": "7005-349",
      "city": "ÉVORA",
      "lon": "-7.897906423445432",
      "lat": "38.61732955344888"
    },
    {
      "id": "pt.ine.add.PTCONT.1429307",
      "street": "R DA BOA ESPERANÇA",
      "house": "",
      "postcode": "7005-349",
      "city": "ÉVORA",
      "lon": "-7.897906423445432",
      "lat": "38.61732955344888"
    },
    {
      "id": "pt.ine.add.PTCONT.1430942",
      "street": "R BOA ESPERANCA",
      "house": "44",
      "postcode": "7005-349",
      "city": "ÉVORA",
      "lon": "-7.900480260278765",
      "lat": "38.61901303995636"
    },
    {
      "id": "pt.ine.add.PTCONT.1430943",
      "street": "R BOA ESPERANCA",
      "house": "46",
      "postcode": "7005-349",
      "city": "ÉVORA",
      "lon": "-7.900480260278765",
      "lat": "38.61901303995636"
    },
    {
      "id": "pt.ine.add.PTCONT.1431711",
      "street": "R BOA ESPERANCA",
      "house": "6 A",
      "postcode": "7005-349",
      "city": "ÉVORA",
      "lon": "-7.89809919318403",
      "lat": "38.61743879829313"
    },
    {
      "id": "pt.ine.add.PTCONT.1432300",
      "street": "R BOA ESPERANÇA",
      "house": "6",
      "postcode": "7005-349",
      "city": "ÉVORA",
      "lon": "-7.89809919318403",
      "lat": "38.61743879829313"
    },
    {
      "id": "pt.ine.add.PTCONT.1434420",
      "street": "R BOA ESPERANCA",
      "house": "42",
      "postcode": "7005-349",
      "city": "ÉVORA",
      "lon": "-7.900324117367524",
      "lat": "38.61889282862046"
    },
    {
      "id": "pt.ine.add.PTCONT.1434636",
      "street": "R BOA ESPERANCA",
      "house": "40",
      "postcode": "7005-349",
      "city": "ÉVORA",
      "lon": "-7.900324117367524",
      "lat": "38.61889282862046"
    },
    {
      "id": "pt.ine.add.PTCONT.1435690",
      "street": "R DA BOA ESPERANÇA",
      "house": "34",
      "postcode": "7005-349",
      "city": "ÉVORA",
      "lon": "-7.899876860377677",
      "lat": "38.61861455903886"
    },
    {
      "id": "pt.ine.add.PTCONT.1438578",
      "street": "R BOA ESPERANCA",
      "house": "64",
      "postcode": "7005-349",
      "city": "ÉVORA",
      "lon": "-7.901263672177449",
      "lat": "38.61951626842354"
    },
    {
      "id": "pt.ine.add.PTCONT.1438579",
      "street": "R BOA ESPERANCA",
      "house": "66",
      "postcode": "7005-349",
      "city": "ÉVORA",
      "lon": "-7.901263672177449",
      "lat": "38.61951626842354"
    },
    {
      "id": "pt.ine.add.PTCONT.1439285",
      "street": "R DA BOA ESPERANÇA",
      "house": "18",
      "postcode": "7005-349",
      "city": "ÉVORA",
      "lon": "-7.898883979675242",
      "lat": "38.61794572725355"
    },
    {
      "id": "pt.ine.add.PTCONT.1447701",
      "street": "R DA BOA ESPERANÇA",
      "house": "24",
      "postcode": "7005-349",
      "city": "ÉVORA",
      "lon": "-7.8992908248967195",
      "lat": "38.61814714824936"
    },
    {
      "id": "pt.ine.add.PTCONT.1448508",
      "street": "R DA BOA ESPERANÇA",
      "house": "14",
      "postcode": "7005-349",
      "city": "ÉVORA",
      "lon": "-7.898631315067446",
      "lat": "38.61775804350902"
    },
    {
      "id": "pt.ine.add.PTCONT.1452749",
      "street": "R DA BOA ESPERANÇA",
      "house": "30",
      "postcode": "7005-349",
      "city": "ÉVORA",
      "lon": "-7.899668102692493",
      "lat": "38.61843367986281"
    },
    {
      "id": "pt.ine.add.PTCONT.1454543",
      "street": "QTA QUINTINHAS DA PACHOLA",
      "house": "",
      "postcode": "7005-839",
      "city": "ÉVORA",
      "lon": "-7.898785594855367",
      "lat": "38.618853724465865"
    },
    {
      "id": "pt.ine.add.PTCONT.1455186",
      "street": "R DA BOA ESPERANÇA",
      "house": "32",
      "postcode": "7005-349",
      "city": "ÉVORA",
      "lon": "-7.899796919790659",
      "lat": "38.61858549555856"
    },
    {
      "id": "pt.ine.add.PTCONT.1455187",
      "street": "R DA BOA ESPERANÇA",
      "house": "32",
      "postcode": "7005-349",
      "city": "ÉVORA",
      "lon": "-7.899796919790659",
      "lat": "38.61858549555856"
    },
    {
      "id": "pt.ine.add.PTCONT.1456877",
      "street": "R BOA ESPERANCA",
      "house": "68",
      "postcode": "7005-349",
      "city": "ÉVORA",
      "lon": "-7.9014240792395976",
      "lat": "38.6196246860344"
    },
    {
      "id": "pt.ine.add.PTCONT.1456878",
      "street": "R BOA ESPERANCA",
      "house": "70",
      "postcode": "7005-349",
      "city": "ÉVORA",
      "lon": "-7.9014240792395976",
      "lat": "38.6196246860344"
    },
    {
      "id": "pt.ine.add.PTCONT.1457621",
      "street": "QTA QUINTINHAS DA PACHOLA",
      "house": "",
      "postcode": "7005-839",
      "city": "ÉVORA",
      "lon": "-7.898327861276209",
      "lat": "38.61875665207345"
    },
    {
      "id": "pt.ine.add.PTCONT.1459385",
      "street": "R BOA ESPERANCA",
      "house": "52",
      "postcode": "7005-349",
      "city": "ÉVORA",
      "lon": "-7.900805360646388",
      "lat": "38.619209076397176"
    },
    {
      "id": "pt.ine.add.PTCONT.1459643",
      "street": "R BOA ESPERANCA",
      "house": "54",
      "postcode": "7005-349",
      "city": "ÉVORA",
      "lon": "-7.900805360646388",
      "lat": "38.619209076397176"
    }
  ]
}