{
  "data": {
    "distrito": "Évora",
    "concelho": "Évora",
    "freguesia": "Canaviais",
    "OBJECTID": 232,
    "BGRI2021": "07051500111",
    "DT21": "07",
    "DTMN21": "0705",
    "DTMNFR21": "070515",
    "DTMNFRSEC21": "070515001",
    "SECNUM21": "001",
    "SSNUM21": "11",
    "SECSSNUM21": "00111",
    "OBJECTID_1": 60567,
    "DT": "07",
    "CC": "05",
    "fr": "15",
    "SEC": "001",
    "SS": "11"
  },
  "addresses": [
    {
      "id": "pt.ine.add.PTCONT.1367748",
      "street": "QTA ROMEIRAS",
      "house": "",
      "postcode": "7005-839",
      "city": "ÉVORA",
      "lon": "-7.905530831373461",
      "lat": "38.62089391073957"
    },
    {
      "id": "pt.ine.add.PTCONT.1369746",
      "street": "QTA QUINTINHAS DO PACHOLA",
      "house": "",
      "postcode": "7005-839",
      "city": "ÉVORA",
      "lon": "-7.899376889894426",
      "lat": "38.62063855519591"
    },
    {
      "id": "pt.ine.add.PTCONT.1372382",
      "street": "QTA DAS CARVOEIRAS",
      "house": "",
      "postcode": "7005-839",
      "city": "ÉVORA",
      "lon": "-7.90185587099985",
      "lat": "38.62461614978343"
    },
    {
      "id": "pt.ine.add.PTCONT.1373125",
      "street": "QTA DAS CARVOEIRAS",
      "house": "1",
      "postcode": "7005-839",
      "city": "ÉVORA",
      "lon": "-7.903822298090197",
      "lat": "38.62374621289094"
    },
    {
      "id": "pt.ine.add.PTCONT.1373128",
      "street": "QTA DO MALINO",
      "house": "CP 529",
      "postcode": "7005-839",
      "city": "ÉVORA",
      "lon": "-7.907456342032074",
      "lat": "38.622041696827104"
    },
    {
      "id": "pt.ine.add.PTCONT.1379885",
      "street": "QTA CHALRITO",
      "house": "",
      "postcode": "7005-839",
      "city": "ÉVORA",
      "lon": "-7.907981408118812",
      "lat": "38.619376244452155"
    },
    {
      "id": "pt.ine.add.PTCONT.1379890",
      "street": "QTA MALINO",
      "house": "",
      "postcode": "7005-839",
      "city": "ÉVORA",
      "lon": "-7.906971712483222",
      "lat": "38.622788451846276"
    },
    {
      "id": "pt.ine.add.PTCONT.1380633",
      "street": "QTA MERCATUDO",
      "house": "",
      "postcode": "7005-839",
      "city": "ÉVORA",
      "lon": "-7.906866363394126",
      "lat": "38.619770460137254"
    },
    {
      "id": "pt.ine.add.PTCONT.1383773",
      "street": "QTA CHAMBUINHA",
      "house": "",
      "postcode": "7005-839",
      "city": "ÉVORA",
      "lon": "-7.911332403610118",
      "lat": "38.619995209820296"
    },
    {
      "id": "pt.ine.add.PTCONT.1383774",
      "street": "QTA CHAMBUINHA",
      "house": "",
      "postcode": "7005-839",
      "city": "ÉVORA",
      "lon": "-7.911332403610118",
      "lat": "38.619995209820296"
    },
    {
      "id": "pt.ine.add.PTCONT.1384745",
      "street": "QTA PINHEIRO",
      "house": "",
      "postcode": "7005-839",
      "city": "ÉVORA",
      "lon": "-7.911673058918465",
      "lat": "38.62870689895891"
    },
    {
      "id": "pt.ine.add.PTCONT.1384746",
      "street": "QTA PINHEIRO",
      "house": "",
      "postcode": "7005-839",
      "city": "ÉVORA",
      "lon": "-7.911673058918465",
      "lat": "38.62870689895891"
    },
    {
      "id": "pt.ine.add.PTCONT.1386806",
      "street": "QTA MALINO",
      "house": "",
      "postcode": "7005-839",
      "city": "ÉVORA",
      "lon": "-7.907349578733503",
      "lat": "38.623131497680376"
    },
    {
      "id": "pt.ine.add.PTCONT.1388034",
      "street": "QTA PINHEIRO",
      "house": "",
      "postcode": "7005-839",
      "city": "ÉVORA",
      "lon": "-7.91326177931484",
      "lat": "38.62742170615941"
    },
    {
      "id": "pt.ine.add.PTCONT.1390307",
      "street": "QTA GALEGA",
      "house": "APT 519",
      "postcode": "7005-839",
      "city": "ÉVORA",
      "lon": "-7.909337353512867",
      "lat": "38.62274795828225"
    },
    {
      "id": "pt.ine.add.PTCONT.1390308",
      "street": "QTA GALEGA",
      "house": "APT 519",
      "postcode": "7005-839",
      "city": "ÉVORA",
      "lon": "-7.909337353512867",
      "lat": "38.62274795828225"
    },
    {
      "id": "pt.ine.add.PTCONT.1392261",
      "street": "QTA ROMEIRAS",
      "house": "",
      "postcode": "7005-839",
      "city": "ÉVORA",
      "lon": "-7.906070007567064",
      "lat": "38.62105710797222"
    },
    {
      "id": "pt.ine.add.PTCONT.1395029",
      "street": "QTA DO MALINO",
      "house": "CP 529",
      "postcode": "7005-839",
      "city": "ÉVORA",
      "lon": "-7.907433658550495",
      "lat": "38.621951569864564"
    },
    {
      "id": "pt.ine.add.PTCONT.1397264",
      "street": "QTA PINHEIRO",
      "house": "4",
      "postcode": "7005-839",
      "city": "ÉVORA",
      "lon": "-7.914227911667896",
      "lat": "38.623153575051845"
    },
    {
      "id": "pt.ine.add.PTCONT.1397625",
      "street": "QTA PINHEIRO",
      "house": "1-3",
      "postcode": "7005-839",
      "city": "ÉVORA",
      "lon": "-7.914227911667896",
      "lat": "38.623153575051845"
    },
    {
      "id": "pt.ine.add.PTCONT.1397626",
      "street": "QTA PINHEIRO",
      "house": "1-3",
      "postcode": "7005-839",
      "city": "ÉVORA",
      "lon": "-7.914227911667896",
      "lat": "38.623153575051845"
    },
    {
      "id": "pt.ine.add.PTCONT.1397627",
      "street": "QTA PINHEIRO",
      "house": "1-3",
      "postcode": "7005-839",
      "city": "ÉVORA",
      "lon": "-7.914227911667896",
      "lat": "38.623153575051845"
    },
    {
      "id": "pt.ine.add.PTCONT.1399816",
      "street": "QTA CHALRITO",
      "house": "",
      "postcode": "7005-839",
      "city": "ÉVORA",
      "lon": "-7.9083795559290575",
      "lat": "38.62057511699447"
    },
    {
      "id": "pt.ine.add.PTCONT.1400199",
      "street": "QTA PAPA GALOS",
      "house": "",
      "postcode": "7005-839",
      "city": "ÉVORA",
      "lon": "-7.9093079998630165",
      "lat": "38.621108387555914"
    },
    {
      "id": "pt.ine.add.PTCONT.1406077",
      "street": "QTA ROMEIRINHA",
      "house": "534",
      "postcode": "7005-839",
      "city": "ÉVORA",
      "lon": "-7.90690864352224",
      "lat": "38.62093261567435"
    },
    {
      "id": "pt.ine.add.PTCONT.1410182",
      "street": "QTA GALEGA",
      "house": "",
      "postcode": "7005-839",
      "city": "ÉVORA",
      "lon": "-7.909379451121979",
      "lat": "38.62398217858161"
    },
    {
      "id": "pt.ine.add.PTCONT.1410183",
      "street": "QTA QUINTINHA",
      "house": "",
      "postcode": "7005-839",
      "city": "ÉVORA",
      "lon": "-7.908324599145853",
      "lat": "38.62346668267321"
    },
    {
      "id": "pt.ine.add.PTCONT.1413209",
      "street": "QTA DA CHAMBUINHA",
      "house": "",
      "postcode": "7005-839",
      "city": "ÉVORA",
      "lon": "-7.909876797716491",
      "lat": "38.61912764263955"
    },
    {
      "id": "pt.ine.add.PTCONT.1413211",
      "street": "QTA MALINO",
      "house": "",
      "postcode": "7005-839",
      "city": "ÉVORA",
      "lon": "-7.907581440740022",
      "lat": "38.62242929582367"
    },
    {
      "id": "pt.ine.add.PTCONT.1415923",
      "street": "QTA MERCATUDO",
      "house": "1",
      "postcode": "7005-839",
      "city": "ÉVORA",
      "lon": "-7.90695929858825",
      "lat": "38.61942832343458"
    },
    {
      "id": "pt.ine.add.PTCONT.1416940",
      "street": "QTA MERCATUDO",
      "house": "",
      "postcode": "7005-839",
      "city": "ÉVORA",
      "lon": "-7.906739857332586",
      "lat": "38.61983327374272"
    },
    {
      "id": "pt.ine.add.PTCONT.1416941",
      "street": "QTA BENFICA",
      "house": "",
      "postcode": "7005-839",
      "city": "ÉVORA",
      "lon": "-7.91547901606997",
      "lat": "38.62713758518366"
    },
    {
      "id": "pt.ine.add.PTCONT.1417439",
      "street": "QTA PAPA GALOS",
      "house": "",
      "postcode": "7005-839",
      "city": "ÉVORA",
      "lon": "-7.909434198167745",
      "lat": "38.62114466215451"
    },
    {
      "id": "pt.ine.add.PTCONT.1417440",
      "street": "QTA QUINTINHAS DO PACHOLA",
      "house": "29",
      "postcode": "7005-839",
      "city": "ÉVORA",
      "lon": "-7.89896433406147",
      "lat": "38.62038549734464"
    },
    {
      "id": "pt.ine.add.PTCONT.1419818",
      "street": "QTA PAPA GALOS",
      "house": "",
      "postcode": "7005-839",
      "city": "ÉVORA",
      "lon": "-7.909388323125109",
      "lat": "38.62112655780549"
    },
    {
      "id": "pt.ine.add.PTCONT.1420164",
      "street": "QTA FERRAGIAL DA REGATEIRA DA ATAFONA",
      "house": "",
      "postcode": "7005-839",
      "city": "ÉVORA",
      "lon": "-7.91324573039955",
      "lat": "38.62139511085165"
    },
    {
      "id": "pt.ine.add.PTCONT.1426383",
      "street": "QTA MOLEIRO",
      "house": "",
      "postcode": "7005-839",
      "city": "ÉVORA",
      "lon": "-7.9035752678571916",
      "lat": "38.62198910622179"
    },
    {
      "id": "pt.ine.add.PTCONT.1426384",
      "street": "QTA CHAMBUINHA",
      "house": "",
      "postcode": "7005-839",
      "city": "ÉVORA",
      "lon": "-7.911576225519281",
      "lat": "38.619121864082786"
    },
    {
      "id": "pt.ine.add.PTCONT.1427250",
      "street": "R DAS CINCO CEPAS - QUINTINHAS DO PACHOLA",
      "house": "24",
      "postcode": "7005-839",
      "city": "ÉVORA",
      "lon": "-7.900773590013224",
      "lat": "38.621938535125715"
    },
    {
      "id": "pt.ine.add.PTCONT.1433269",
      "street": "QTA DAS CARVOEIRAS",
      "house": "3",
      "postcode": "7005-839",
      "city": "ÉVORA",
      "lon": "-7.9039143067650315",
      "lat": "38.623701351561174"
    },
    {
      "id": "pt.ine.add.PTCONT.1434927",
      "street": "QTA CHALRITO",
      "house": "",
      "postcode": "7005-839",
      "city": "ÉVORA",
      "lon": "-7.908402886657732",
      "lat": "38.620458053589374"
    },
    {
      "id": "pt.ine.add.PTCONT.1437531",
      "street": "QTA MERCATUDO",
      "house": "",
      "postcode": "7005-839",
      "city": "ÉVORA",
      "lon": "-7.906901490072164",
      "lat": "38.61955432824808"
    },
    {
      "id": "pt.ine.add.PTCONT.1438572",
      "street": "QTA CHALRITO",
      "house": "",
      "postcode": "7005-839",
      "city": "ÉVORA",
      "lon": "-7.908241454577125",
      "lat": "38.62067394323919"
    },
    {
      "id": "pt.ine.add.PTCONT.1439281",
      "street": "QTA DAS CARVOEIRAS",
      "house": "5",
      "postcode": "7005-839",
      "city": "ÉVORA",
      "lon": "-7.903926133977115",
      "lat": "38.623593274905616"
    },
    {
      "id": "pt.ine.add.PTCONT.1440015",
      "street": "QTA DO PINHEIRO",
      "house": "4-6",
      "postcode": "7005-839",
      "city": "ÉVORA",
      "lon": "-7.914250193340707",
      "lat": "38.62337882474338"
    },
    {
      "id": "pt.ine.add.PTCONT.1440016",
      "street": "QTA DO PINHEIRO",
      "house": "4-6",
      "postcode": "7005-839",
      "city": "ÉVORA",
      "lon": "-7.914250193340707",
      "lat": "38.62337882474338"
    },
    {
      "id": "pt.ine.add.PTCONT.1440020",
      "street": "QTA DO PINHEIRO",
      "house": "4-6",
      "postcode": "7005-839",
      "city": "ÉVORA",
      "lon": "-7.914250193340707",
      "lat": "38.62337882474338"
    },
    {
      "id": "pt.ine.add.PTCONT.1441021",
      "street": "QTA QUINTINHA",
      "house": "",
      "postcode": "7005-839",
      "city": "ÉVORA",
      "lon": "-7.908392935636273",
      "lat": "38.62364698031951"
    },
    {
      "id": "pt.ine.add.PTCONT.1443833",
      "street": "QTA QUINTINHAS DO PACHOLA",
      "house": "",
      "postcode": "7005-839",
      "city": "ÉVORA",
      "lon": "-7.900098199192531",
      "lat": "38.62128859299635"
    },
    {
      "id": "pt.ine.add.PTCONT.1445886",
      "street": "QTA BEM ESPERA",
      "house": "APT 259",
      "postcode": "7005-839",
      "city": "ÉVORA",
      "lon": "-7.909883734767193",
      "lat": "38.62429843287994"
    },
    {
      "id": "pt.ine.add.PTCONT.1449297",
      "street": "QTA DO BENFICA",
      "house": "",
      "postcode": "7005-839",
      "city": "ÉVORA",
      "lon": "-7.915512922707826",
      "lat": "38.62731781453663"
    },
    {
      "id": "pt.ine.add.PTCONT.1453220",
      "street": "QTA DA CHAMBUINHA",
      "house": "CP 524",
      "postcode": "7005-839",
      "city": "ÉVORA",
      "lon": "-7.9115412239383005",
      "lat": "38.61930196433892"
    },
    {
      "id": "pt.ine.add.PTCONT.1457620",
      "street": "QTA QUINTINHAS DO PACHOLA",
      "house": "",
      "postcode": "7005-839",
      "city": "ÉVORA",
      "lon": "-7.900696262593019",
      "lat": "38.62099250781022"
    },
    {
      "id": "pt.ine.add.PTCONT.1460613",
      "street": "QTA ROMEIRINHA",
      "house": "",
      "postcode": "7005-839",
      "city": "ÉVORA",
      "lon": "-7.906724920042401",
      "lat": "38.620932260363276"
    },
    {
      "id": "pt.ine.add.PTCONT.1460614",
      "street": "QTA DAS CASAS NOVAS",
      "house": "",
      "postcode": "7005-839",
      "city": "ÉVORA",
      "lon": "-7.90872594703795",
      "lat": "38.62364761939904"
    },
    {
      "id": "pt.ine.add.PTCONT.1460615",
      "street": "QTA DAS CASAS NOVAS",
      "house": "",
      "postcode": "7005-839",
      "city": "ÉVORA",
      "lon": "-7.90872594703795",
      "lat": "38.62364761939904"
    },
    {
      "id": "pt.ine.add.PTCONT.1461374",
      "street": "QTA DO BENFICA",
      "house": "",
      "postcode": "7005-839",
      "city": "ÉVORA",
      "lon": "-7.915444265357428",
      "lat": "38.62723661200288"
    },
    {
      "id": "pt.ine.add.PTCONT.1462037",
      "street": "QTA PINHEIRO",
      "house": "1",
      "postcode": "7005-839",
      "city": "ÉVORA",
      "lon": "-7.915518453299755",
      "lat": "38.621687625589935"
    },
    {
      "id": "pt.ine.add.PTCONT.1465457",
      "street": "R 5 CEPAS",
      "house": "",
      "postcode": "7005-376",
      "city": "ÉVORA",
      "lon": "-7.901883495126294",
      "lat": "38.619589561483984"
    }
  ]
}