{
  "data": {
    "distrito": "Bragança",
    "concelho": "Bragança",
    "freguesia": "União das freguesias de Sé, Santa Maria e Meixedo",
    "OBJECTID": 295,
    "BGRI2021": "04025701702",
    "DT21": "04",
    "DTMN21": "0402",
    "DTMNFR21": "040257",
    "DTMNFRSEC21": "040257017",
    "SECNUM21": "017",
    "SSNUM21": "02",
    "SECSSNUM21": "01702",
    "OBJECTID_1": 34586,
    "DT": "04",
    "CC": "02",
    "fr": "57",
    "SEC": "017",
    "SS": "02"
  },
  "addresses": [
    {
      "id": "pt.ine.add.PTCONT.854481",
      "street": "R CONDE DE ARIÃES",
      "house": "33",
      "postcode": "5300-114",
      "city": "BRAGANÇA",
      "lon": "-6.783003057288285",
      "lat": "41.79931967369131"
    },
    {
      "id": "pt.ine.add.PTCONT.856449",
      "street": "R CONDE DE AREAES",
      "house": "53",
      "postcode": "5300-114",
      "city": "BRAGANÇA",
      "lon": "-6.784322682872822",
      "lat": "41.79789445222033"
    },
    {
      "id": "pt.ine.add.PTCONT.860852",
      "street": "R CONDE DE ARIÃES",
      "house": "31",
      "postcode": "5300-114",
      "city": "BRAGANÇA",
      "lon": "-6.782784366702509",
      "lat": "41.79948216927211"
    },
    {
      "id": "pt.ine.add.PTCONT.860853",
      "street": "R CONDE DE ARIÃES",
      "house": "31",
      "postcode": "5300-114",
      "city": "BRAGANÇA",
      "lon": "-6.782784366702509",
      "lat": "41.79948216927211"
    },
    {
      "id": "pt.ine.add.PTCONT.871571",
      "street": "R CONDE DE AREAES",
      "house": "57",
      "postcode": "5300-114",
      "city": "BRAGANÇA",
      "lon": "-6.784519291981189",
      "lat": "41.7976986926136"
    },
    {
      "id": "pt.ine.add.PTCONT.876130",
      "street": "R CONDE DE AREAES",
      "house": "41",
      "postcode": "5300-114",
      "city": "BRAGANÇA",
      "lon": "-6.783413869552685",
      "lat": "41.79877508329299"
    },
    {
      "id": "pt.ine.add.PTCONT.877389",
      "street": "R CONDE DE ARIÃES",
      "house": "45",
      "postcode": "5300-114",
      "city": "BRAGANÇA",
      "lon": "-6.783303027943311",
      "lat": "41.79832362582719"
    },
    {
      "id": "pt.ine.add.PTCONT.883093",
      "street": "R CONDE DE AREAES",
      "house": "55",
      "postcode": "5300-114",
      "city": "BRAGANÇA",
      "lon": "-6.7843612223971315",
      "lat": "41.79777786448002"
    },
    {
      "id": "pt.ine.add.PTCONT.901433",
      "street": "R VISC RIBEIRA BRAVA",
      "house": "16",
      "postcode": "5300-003",
      "city": "BRAGANÇA",
      "lon": "-6.7841076792069686",
      "lat": "41.79781990244904"
    },
    {
      "id": "pt.ine.add.PTCONT.901434",
      "street": "R VISC RIBEIRA BRAVA",
      "house": "16",
      "postcode": "5300-003",
      "city": "BRAGANÇA",
      "lon": "-6.7841076792069686",
      "lat": "41.79781990244904"
    },
    {
      "id": "pt.ine.add.PTCONT.901478",
      "street": "R VISC DA RIBEIRA BRAVA",
      "house": "16",
      "postcode": "5300-002",
      "city": "BRAGANÇA",
      "lon": "-6.7841076792069686",
      "lat": "41.79781990244904"
    },
    {
      "id": "pt.ine.add.PTCONT.904537",
      "street": "R CONDE DE ARIÃES",
      "house": "37",
      "postcode": "5300-114",
      "city": "BRAGANÇA",
      "lon": "-6.78324055556915",
      "lat": "41.79900712711919"
    },
    {
      "id": "pt.ine.add.PTCONT.904538",
      "street": "R CONDE DE ARIÃES",
      "house": "37",
      "postcode": "5300-114",
      "city": "BRAGANÇA",
      "lon": "-6.78324055556915",
      "lat": "41.79900712711919"
    },
    {
      "id": "pt.ine.add.PTCONT.909246",
      "street": "R JOSE HENRIQUES PINHEIRO",
      "house": "",
      "postcode": "5300-386",
      "city": "BRAGANÇA",
      "lon": "-6.782372853684855",
      "lat": "41.798501755884615"
    },
    {
      "id": "pt.ine.add.PTCONT.909247",
      "street": "R JOSE HENRIQUES PINHEIRO",
      "house": "1",
      "postcode": "5300-386",
      "city": "BRAGANÇA",
      "lon": "-6.782372853684855",
      "lat": "41.798501755884615"
    },
    {
      "id": "pt.ine.add.PTCONT.909248",
      "street": "R RIBEIRO SILVA",
      "house": "1",
      "postcode": "5300-375",
      "city": "BRAGANÇA",
      "lon": "-6.782372853684855",
      "lat": "41.798501755884615"
    },
    {
      "id": "pt.ine.add.PTCONT.909249",
      "street": "R JOSE HENRIQUES PINHEIRO",
      "house": "1",
      "postcode": "5300-386",
      "city": "BRAGANÇA",
      "lon": "-6.782372853684855",
      "lat": "41.798501755884615"
    },
    {
      "id": "pt.ine.add.PTCONT.909858",
      "street": "R RIBEIRO DA SILVA MIRA SERRA",
      "house": "",
      "postcode": "5300-375",
      "city": "BRAGANÇA",
      "lon": "-6.782372853684855",
      "lat": "41.798501755884615"
    },
    {
      "id": "pt.ine.add.PTCONT.909859",
      "street": "R RIBEIRO DA SILVA MIRA SERRA",
      "house": "",
      "postcode": "5300-375",
      "city": "BRAGANÇA",
      "lon": "-6.782372853684855",
      "lat": "41.798501755884615"
    },
    {
      "id": "pt.ine.add.PTCONT.909860",
      "street": "R RIBEIRO DA SILVA MIRA SERRA",
      "house": "",
      "postcode": "5300-375",
      "city": "BRAGANÇA",
      "lon": "-6.782372853684855",
      "lat": "41.798501755884615"
    },
    {
      "id": "pt.ine.add.PTCONT.909861",
      "street": "R RIBEIRO DA SILVA MIRA SERRA",
      "house": "",
      "postcode": "5300-375",
      "city": "BRAGANÇA",
      "lon": "-6.782372853684855",
      "lat": "41.798501755884615"
    },
    {
      "id": "pt.ine.add.PTCONT.909862",
      "street": "R RIBEIRO DA SILVA MIRA SERRA",
      "house": "",
      "postcode": "5300-375",
      "city": "BRAGANÇA",
      "lon": "-6.782372853684855",
      "lat": "41.798501755884615"
    },
    {
      "id": "pt.ine.add.PTCONT.909863",
      "street": "R RIBEIRO DA SILVA MIRA SERRA",
      "house": "",
      "postcode": "5300-375",
      "city": "BRAGANÇA",
      "lon": "-6.782372853684855",
      "lat": "41.798501755884615"
    },
    {
      "id": "pt.ine.add.PTCONT.909864",
      "street": "R RIBEIRO DA SILVA MIRA SERRA",
      "house": "",
      "postcode": "5300-375",
      "city": "BRAGANÇA",
      "lon": "-6.782372853684855",
      "lat": "41.798501755884615"
    },
    {
      "id": "pt.ine.add.PTCONT.909865",
      "street": "R JOSE HENRIQUES PINHEIRO PRÉDIO MIRA SERRA",
      "house": "",
      "postcode": "5300-386",
      "city": "BRAGANÇA",
      "lon": "-6.782372853684855",
      "lat": "41.798501755884615"
    },
    {
      "id": "pt.ine.add.PTCONT.910786",
      "street": "R CONDE DE ARIÃES",
      "house": "45",
      "postcode": "5300-114",
      "city": "BRAGANÇA",
      "lon": "-6.783708035582957",
      "lat": "41.79851744976631"
    },
    {
      "id": "pt.ine.add.PTCONT.914550",
      "street": "R CONDE DE ARIÃES",
      "house": "59",
      "postcode": "5300-114",
      "city": "BRAGANÇA",
      "lon": "-6.784593350353152",
      "lat": "41.7976095311198"
    },
    {
      "id": "pt.ine.add.PTCONT.915968",
      "street": "R CONDE DE ARIÃES",
      "house": "47",
      "postcode": "5300-114",
      "city": "BRAGANÇA",
      "lon": "-6.783819503863169",
      "lat": "41.79836570659374"
    },
    {
      "id": "pt.ine.add.PTCONT.926739",
      "street": "R VISC RIBEIRA BRAVA",
      "house": "8",
      "postcode": "5300-003",
      "city": "BRAGANÇA",
      "lon": "-6.782942169013842",
      "lat": "41.79831938451103"
    },
    {
      "id": "pt.ine.add.PTCONT.939746",
      "street": "R RIBEIRO DA SILVA",
      "house": "4",
      "postcode": "5300-375",
      "city": "BRAGANÇA",
      "lon": "-6.782611695727773",
      "lat": "41.7993085617341"
    },
    {
      "id": "pt.ine.add.PTCONT.939747",
      "street": "R RIBEIRO DA SILVA",
      "house": "4",
      "postcode": "5300-375",
      "city": "BRAGANÇA",
      "lon": "-6.782611695727773",
      "lat": "41.7993085617341"
    },
    {
      "id": "pt.ine.add.PTCONT.943674",
      "street": "R CONDE DE ARIÃES",
      "house": "35",
      "postcode": "5300-114",
      "city": "BRAGANÇA",
      "lon": "-6.783078064395001",
      "lat": "41.799185508875276"
    },
    {
      "id": "pt.ine.add.PTCONT.949772",
      "street": "R JOSÉ HENRIQUES PINHEIRO",
      "house": "2",
      "postcode": "5300-386",
      "city": "BRAGANÇA",
      "lon": "-6.782663809566609",
      "lat": "41.798397139955654"
    }
  ]
}