{
  "data": {
    "distrito": "Leiria",
    "concelho": "Leiria",
    "freguesia": "Uni√£o das freguesias de Souto da Carpalhosa e Ortigosa",
    "OBJECTID": 2723,
    "BGRI2021": "10094000403",
    "DT21": "10",
    "DTMN21": "1009",
    "DTMNFR21": "100940",
    "DTMNFRSEC21": "100940004",
    "SECNUM21": "004",
    "SSNUM21": "03",
    "SECSSNUM21": "00403",
    "OBJECTID_1": 89475,
    "DT": "10",
    "CC": "09",
    "fr": "40",
    "SEC": "004",
    "SS": "03"
  },
  "addresses": [
    {
      "id": "pt.ine.add.PTCONT.1985057",
      "street": "R DOMINGOS MORAIS MONTEIRO",
      "house": "660",
      "postcode": "2425-745",
      "city": "ORTIGOSA",
      "lon": "-8.846593660536737",
      "lat": "39.829290903406665"
    },
    {
      "id": "pt.ine.add.PTCONT.1987152",
      "street": "R LAGOA",
      "house": "117",
      "postcode": "2425-713",
      "city": "ORTIGOSA",
      "lon": "-8.850771843060148",
      "lat": "39.83005769050752"
    },
    {
      "id": "pt.ine.add.PTCONT.1998650",
      "street": "R JOAQUIM COELHO",
      "house": "38",
      "postcode": "2425-778",
      "city": "ORTIGOSA",
      "lon": "-8.850014403207302",
      "lat": "39.831359285669954"
    },
    {
      "id": "pt.ine.add.PTCONT.2002744",
      "street": "R DOMINGOS MORAIS MONTEIRO",
      "house": "",
      "postcode": "2425-745",
      "city": "ORTIGOSA",
      "lon": "-8.844924928831063",
      "lat": "39.829454261618835"
    },
    {
      "id": "pt.ine.add.PTCONT.2009176",
      "street": "R EMIGRANTE",
      "house": "",
      "postcode": "2425-711",
      "city": "ORTIGOSA",
      "lon": "-8.847424147236028",
      "lat": "39.83165445940569"
    },
    {
      "id": "pt.ine.add.PTCONT.2011464",
      "street": "R DOMINGOS MORAIS MONTEIRO",
      "house": "772",
      "postcode": "2425-745",
      "city": "ORTIGOSA",
      "lon": "-8.847840300509013",
      "lat": "39.82897701456585"
    },
    {
      "id": "pt.ine.add.PTCONT.2015769",
      "street": "R JOAQUIM COELHO",
      "house": "300",
      "postcode": "2425-778",
      "city": "ORTIGOSA",
      "lon": "-8.849884623337472",
      "lat": "39.83235979051483"
    },
    {
      "id": "pt.ine.add.PTCONT.2026675",
      "street": "R DOMINGOS MORAIS MONTEIRO",
      "house": "",
      "postcode": "2425-745",
      "city": "ORTIGOSA",
      "lon": "-8.845513420694349",
      "lat": "39.829882953663244"
    },
    {
      "id": "pt.ine.add.PTCONT.2026676",
      "street": "R JOSE ERVILHA",
      "house": "525",
      "postcode": "2425-746",
      "city": "ORTIGOSA",
      "lon": "-8.845989767782786",
      "lat": "39.83076264863606"
    },
    {
      "id": "pt.ine.add.PTCONT.2029809",
      "street": "R LAGOA",
      "house": "162",
      "postcode": "2425-713",
      "city": "ORTIGOSA",
      "lon": "-8.85072661995185",
      "lat": "39.830202071608575"
    },
    {
      "id": "pt.ine.add.PTCONT.2031120",
      "street": "R EMIGRANTE",
      "house": "200",
      "postcode": "2425-711",
      "city": "ORTIGOSA",
      "lon": "-8.849047698118808",
      "lat": "39.8316354453356"
    },
    {
      "id": "pt.ine.add.PTCONT.2037684",
      "street": "R EMIGRANTE",
      "house": "208",
      "postcode": "2425-711",
      "city": "ORTIGOSA",
      "lon": "-8.849434102946384",
      "lat": "39.83172312348215"
    },
    {
      "id": "pt.ine.add.PTCONT.2039870",
      "street": "TV EMIGRANTE",
      "house": "47 B",
      "postcode": "2425-675",
      "city": "ORTIGOSA",
      "lon": "-8.847423494246678",
      "lat": "39.83159141908718"
    },
    {
      "id": "pt.ine.add.PTCONT.2040866",
      "street": "R EMIGRANTE",
      "house": "263",
      "postcode": "2425-711",
      "city": "ORTIGOSA",
      "lon": "-8.850021986695909",
      "lat": "39.83208875178645"
    },
    {
      "id": "pt.ine.add.PTCONT.2042065",
      "street": "R EMIGRANTE",
      "house": "73 A",
      "postcode": "2425-711",
      "city": "ORTIGOSA",
      "lon": "-8.847306592105257",
      "lat": "39.83158313247201"
    },
    {
      "id": "pt.ine.add.PTCONT.2048552",
      "street": "R DOMINGOS MORAIS MONTEIRO",
      "house": "46",
      "postcode": "2425-745",
      "city": "ORTIGOSA",
      "lon": "-8.845521380109847",
      "lat": "39.829522651276925"
    },
    {
      "id": "pt.ine.add.PTCONT.2050131",
      "street": "R EMIGRANTE",
      "house": "207",
      "postcode": "2425-711",
      "city": "ORTIGOSA",
      "lon": "-8.849210014854076",
      "lat": "39.831517361212434"
    },
    {
      "id": "pt.ine.add.PTCONT.2050132",
      "street": "R JOAQUIM COELHO",
      "house": "525",
      "postcode": "2425-778",
      "city": "ORTIGOSA",
      "lon": "-8.845779373914569",
      "lat": "39.831880726817936"
    },
    {
      "id": "pt.ine.add.PTCONT.2057648",
      "street": "R JOSE ERVILHA",
      "house": "175",
      "postcode": "2425-746",
      "city": "ORTIGOSA",
      "lon": "-8.847025718465567",
      "lat": "39.83040503129747"
    },
    {
      "id": "pt.ine.add.PTCONT.2059428",
      "street": "R JOAQUIM COELHO",
      "house": "172",
      "postcode": "2425-778",
      "city": "ORTIGOSA",
      "lon": "-8.850600662626253",
      "lat": "39.830446021696766"
    },
    {
      "id": "pt.ine.add.PTCONT.2062080",
      "street": "R DOMINGOS MORAIS MONTEIRO",
      "house": "748",
      "postcode": "2425-745",
      "city": "ORTIGOSA",
      "lon": "-8.847584170416571",
      "lat": "39.82905964923848"
    },
    {
      "id": "pt.ine.add.PTCONT.2062082",
      "street": "R LAGOA",
      "house": "",
      "postcode": "2425-684",
      "city": "ORTIGOSA",
      "lon": "-8.850421864765249",
      "lat": "39.8289790945553"
    },
    {
      "id": "pt.ine.add.PTCONT.2066341",
      "street": "R JOAQUIM COELHO",
      "house": "681",
      "postcode": "2425-778",
      "city": "ORTIGOSA",
      "lon": "-8.847521512908234",
      "lat": "39.832032125892624"
    },
    {
      "id": "pt.ine.add.PTCONT.2077916",
      "street": "R JOAQUIM COELHO",
      "house": "39",
      "postcode": "2425-778",
      "city": "ORTIGOSA",
      "lon": "-8.849874045904242",
      "lat": "39.831342140245"
    },
    {
      "id": "pt.ine.add.PTCONT.2083144",
      "street": "R DOMINGOS MORAIS MONTEIRO",
      "house": "26",
      "postcode": "2425-745",
      "city": "ORTIGOSA",
      "lon": "-8.848237342172085",
      "lat": "39.82896556153731"
    },
    {
      "id": "pt.ine.add.PTCONT.2102982",
      "street": "R DOMINGOS MORAIS MONTEIRO",
      "house": "101 B",
      "postcode": "2425-745",
      "city": "ORTIGOSA",
      "lon": "-8.845254122555147",
      "lat": "39.82965938716714"
    },
    {
      "id": "pt.ine.add.PTCONT.2102983",
      "street": "R EMIGRANTE",
      "house": "105",
      "postcode": "2425-711",
      "city": "ORTIGOSA",
      "lon": "-8.848087157219272",
      "lat": "39.83138018526579"
    },
    {
      "id": "pt.ine.add.PTCONT.2108070",
      "street": "R DOMINGOS MORAIS MONTEIRO",
      "house": "670",
      "postcode": "2425-745",
      "city": "ORTIGOSA",
      "lon": "-8.846568249916857",
      "lat": "39.82909292023562"
    },
    {
      "id": "pt.ine.add.PTCONT.2108071",
      "street": "R JOAQUIM COELHO",
      "house": "1021",
      "postcode": "2425-778",
      "city": "ORTIGOSA",
      "lon": "-8.850085892719456",
      "lat": "39.83149393888639"
    },
    {
      "id": "pt.ine.add.PTCONT.2110013",
      "street": "R DOMINGOS MORAIS MONTEIRO",
      "house": "590",
      "postcode": "2425-745",
      "city": "ORTIGOSA",
      "lon": "-8.845833218085188",
      "lat": "39.82917849512724"
    },
    {
      "id": "pt.ine.add.PTCONT.2114514",
      "street": "R EMIGRANTE",
      "house": "235",
      "postcode": "2425-711",
      "city": "ORTIGOSA",
      "lon": "-8.849796210957383",
      "lat": "39.83172088710431"
    },
    {
      "id": "pt.ine.add.PTCONT.2125381",
      "street": "R RELVA",
      "house": "235",
      "postcode": "2425-747",
      "city": "ORTIGOSA",
      "lon": "-8.843797299717448",
      "lat": "39.8299835423057"
    },
    {
      "id": "pt.ine.add.PTCONT.2129792",
      "street": "R JOAQUIM COELHO",
      "house": "1139",
      "postcode": "2425-778",
      "city": "ORTIGOSA",
      "lon": "-8.850591605378915",
      "lat": "39.83069825508001"
    },
    {
      "id": "pt.ine.add.PTCONT.2134052",
      "street": "R EMIGRANTE",
      "house": "264",
      "postcode": "2425-711",
      "city": "ORTIGOSA",
      "lon": "-8.849634175485102",
      "lat": "39.83186598930412"
    },
    {
      "id": "pt.ine.add.PTCONT.2138742",
      "street": "R DOMINGOS MORAIS MONTEIRO",
      "house": "678",
      "postcode": "2425-745",
      "city": "ORTIGOSA",
      "lon": "-8.846873992513615",
      "lat": "39.829289179066606"
    },
    {
      "id": "pt.ine.add.PTCONT.2145531",
      "street": "R MANUEL LOPES",
      "house": "102",
      "postcode": "2425-662",
      "city": "ORTIGOSA",
      "lon": "-8.847528267854821",
      "lat": "39.83042895671701"
    },
    {
      "id": "pt.ine.add.PTCONT.2149258",
      "street": "R JOAQUIM COELHO",
      "house": "",
      "postcode": "2425-778",
      "city": "ORTIGOSA",
      "lon": "-8.848504582058752",
      "lat": "39.832206194686584"
    },
    {
      "id": "pt.ine.add.PTCONT.2151456",
      "street": "R EMIGRANTE",
      "house": "",
      "postcode": "2425-711",
      "city": "ORTIGOSA",
      "lon": "-8.849868542869563",
      "lat": "39.83193659223829"
    },
    {
      "id": "pt.ine.add.PTCONT.2154047",
      "street": "R DOMINGOS MORAIS MONTEIRO",
      "house": "83",
      "postcode": "2425-745",
      "city": "ORTIGOSA",
      "lon": "-8.84526440818642",
      "lat": "39.82952422895969"
    },
    {
      "id": "pt.ine.add.PTCONT.2155858",
      "street": "R DOMINGOS MORAIS MONTEIRO",
      "house": "804",
      "postcode": "2425-745",
      "city": "ORTIGOSA",
      "lon": "-8.848201086952889",
      "lat": "39.82884870261485"
    },
    {
      "id": "pt.ine.add.PTCONT.2156916",
      "street": "R RELVA",
      "house": "117",
      "postcode": "2425-747",
      "city": "ORTIGOSA",
      "lon": "-8.84326509146431",
      "lat": "39.83048214985047"
    },
    {
      "id": "pt.ine.add.PTCONT.2158052",
      "street": "R DOMINGOS MORAIS MONTEIRO",
      "house": "102",
      "postcode": "2425-745",
      "city": "ORTIGOSA",
      "lon": "-8.844903333781586",
      "lat": "39.82962551453929"
    },
    {
      "id": "pt.ine.add.PTCONT.2175428",
      "street": "R JOAQUIM COELHO",
      "house": "751",
      "postcode": "2425-712",
      "city": "ORTIGOSA",
      "lon": "-8.848490752289624",
      "lat": "39.831999134306514"
    },
    {
      "id": "pt.ine.add.PTCONT.2175429",
      "street": "R JOAQUIM COELHO",
      "house": "627",
      "postcode": "2425-778",
      "city": "ORTIGOSA",
      "lon": "-8.846960919935391",
      "lat": "39.83204458298098"
    },
    {
      "id": "pt.ine.add.PTCONT.2186386",
      "street": "R EMIGRANTE",
      "house": "",
      "postcode": "2425-711",
      "city": "ORTIGOSA",
      "lon": "-8.847941467374785",
      "lat": "39.83197550106927"
    },
    {
      "id": "pt.ine.add.PTCONT.2190925",
      "street": "R DOMINGOS MORAIS MONTEIRO",
      "house": "784",
      "postcode": "2425-745",
      "city": "ORTIGOSA",
      "lon": "-8.84796841199565",
      "lat": "39.82894019990053"
    },
    {
      "id": "pt.ine.add.PTCONT.2193222",
      "street": "R EMIGRANTE",
      "house": "14",
      "postcode": "2425-711",
      "city": "ORTIGOSA",
      "lon": "-8.847802695986823",
      "lat": "39.83211145103755"
    },
    {
      "id": "pt.ine.add.PTCONT.2195576",
      "street": "R DOMINGOS MORAIS MONTEIRO",
      "house": "",
      "postcode": "2425-745",
      "city": "ORTIGOSA",
      "lon": "-8.842362898111077",
      "lat": "39.83021747871909"
    },
    {
      "id": "pt.ine.add.PTCONT.2195577",
      "street": "R LAGOA",
      "house": "112",
      "postcode": "2425-713",
      "city": "ORTIGOSA",
      "lon": "-8.849721242256823",
      "lat": "39.83012722901492"
    },
    {
      "id": "pt.ine.add.PTCONT.2200072",
      "street": "R DOMINGOS MORAIS MONTEIRO",
      "house": "760",
      "postcode": "2425-745",
      "city": "ORTIGOSA",
      "lon": "-8.847700601745704",
      "lat": "39.82902290679896"
    },
    {
      "id": "pt.ine.add.PTCONT.2206534",
      "street": "R JOSE ERVILHA",
      "house": "125",
      "postcode": "2425-746",
      "city": "ORTIGOSA",
      "lon": "-8.845518258258245",
      "lat": "39.830351253488686"
    },
    {
      "id": "pt.ine.add.PTCONT.2208996",
      "street": "R DOMINGOS MORAIS MONTEIRO",
      "house": "508",
      "postcode": "2425-745",
      "city": "ORTIGOSA",
      "lon": "-8.844921024937182",
      "lat": "39.82907601934766"
    },
    {
      "id": "pt.ine.add.PTCONT.2213473",
      "street": "R JOAQUIM COELHO",
      "house": "49",
      "postcode": "2425-778",
      "city": "ORTIGOSA",
      "lon": "-8.849802369778805",
      "lat": "39.83118947537786"
    },
    {
      "id": "pt.ine.add.PTCONT.2215592",
      "street": "R JOAQUIM COELHO",
      "house": "565",
      "postcode": "2425-778",
      "city": "ORTIGOSA",
      "lon": "-8.846154374532768",
      "lat": "39.83199550495045"
    },
    {
      "id": "pt.ine.add.PTCONT.2217861",
      "street": "R JOAQUIM COELHO",
      "house": "625",
      "postcode": "2425-778",
      "city": "ORTIGOSA",
      "lon": "-8.846644788395094",
      "lat": "39.83197447707743"
    },
    {
      "id": "pt.ine.add.PTCONT.2229647",
      "street": "R EMIGRANTE",
      "house": "",
      "postcode": "2425-711",
      "city": "ORTIGOSA",
      "lon": "-8.848592797421148",
      "lat": "39.83170129601762"
    },
    {
      "id": "pt.ine.add.PTCONT.2235592",
      "street": "R EMIGRANTE",
      "house": "100",
      "postcode": "2425-711",
      "city": "ORTIGOSA",
      "lon": "-8.8484403851798",
      "lat": "39.83164819786938"
    },
    {
      "id": "pt.ine.add.PTCONT.2239437",
      "street": "R DOMINGOS MORAIS MONTEIRO",
      "house": "38",
      "postcode": "2425-745",
      "city": "ORTIGOSA",
      "lon": "-8.848285184588612",
      "lat": "39.829073342680154"
    },
    {
      "id": "pt.ine.add.PTCONT.2241633",
      "street": "R JOAQUIM COELHO",
      "house": "553",
      "postcode": "2425-778",
      "city": "ORTIGOSA",
      "lon": "-8.84596785156908",
      "lat": "39.83203267653922"
    },
    {
      "id": "pt.ine.add.PTCONT.2262650",
      "street": "R LAGOA",
      "house": "33",
      "postcode": "2425-684",
      "city": "ORTIGOSA",
      "lon": "-8.850342162153089",
      "lat": "39.829177726730926"
    }
  ]
}