{
  "data": {
    "distrito": "Braga",
    "concelho": "Vieira do Minho",
    "freguesia": "União das freguesias de Caniçada e Soengas",
    "OBJECTID": 54,
    "BGRI2021": "03112400132",
    "DT21": "03",
    "DTMN21": "0311",
    "DTMNFR21": "031124",
    "DTMNFRSEC21": "031124001",
    "SECNUM21": "001",
    "SSNUM21": "32",
    "SECSSNUM21": "00132",
    "OBJECTID_1": 29706,
    "DT": "03",
    "CC": "11",
    "fr": "24",
    "SEC": "001",
    "SS": "32"
  },
  "addresses": [
    {
      "id": "pt.ine.add.PTCONT.466433",
      "street": "R CIBRAO",
      "house": "",
      "postcode": "4850-052",
      "city": "CANIÇADA",
      "lon": "-8.17605336531114",
      "lat": "41.658301032940386"
    },
    {
      "id": "pt.ine.add.PTCONT.534122",
      "street": "AV CIBRAO",
      "house": "",
      "postcode": "4850-052",
      "city": "CANIÇADA",
      "lon": "-8.17604201123878",
      "lat": "41.65928242974269"
    },
    {
      "id": "pt.ine.add.PTCONT.608566",
      "street": "R PARDAINHA",
      "house": "",
      "postcode": "4850-052",
      "city": "CANIÇADA",
      "lon": "-8.175597301783407",
      "lat": "41.65854429968556"
    },
    {
      "id": "pt.ine.add.PTCONT.617328",
      "street": "AV CIBRAO",
      "house": "",
      "postcode": "4850-052",
      "city": "CANIÇADA",
      "lon": "-8.175861676206921",
      "lat": "41.65891334931957"
    },
    {
      "id": "pt.ine.add.PTCONT.624981",
      "street": "AV CANICADA",
      "house": "",
      "postcode": "4850-054",
      "city": "CANIÇADA",
      "lon": "-8.176642144395661",
      "lat": "41.6590301031878"
    },
    {
      "id": "pt.ine.add.PTCONT.702629",
      "street": "AV CIBRAO",
      "house": "",
      "postcode": "4850-052",
      "city": "CANIÇADA",
      "lon": "-8.17534541273913",
      "lat": "41.65890453658455"
    },
    {
      "id": "pt.ine.add.PTCONT.723801",
      "street": "AV CANICADA",
      "house": "",
      "postcode": "4850-054",
      "city": "CANIÇADA",
      "lon": "-8.17644958941814",
      "lat": "41.658345902231346"
    },
    {
      "id": "pt.ine.add.PTCONT.729489",
      "street": "AV CANICADA",
      "house": "",
      "postcode": "4850-054",
      "city": "CANIÇADA",
      "lon": "-8.176641853348977",
      "lat": "41.65859793042933"
    },
    {
      "id": "pt.ine.add.PTCONT.729502",
      "street": "R PARDAINHA",
      "house": "",
      "postcode": "4850-052",
      "city": "CANIÇADA",
      "lon": "-8.17599267891292",
      "lat": "41.657310659265214"
    },
    {
      "id": "pt.ine.add.PTCONT.804367",
      "street": "AV CANICADA",
      "house": "",
      "postcode": "4850-054",
      "city": "CANIÇADA",
      "lon": "-8.177555139883562",
      "lat": "41.65981306701139"
    }
  ]
}