{
  "data": {
    "distrito": "Coimbra",
    "concelho": "Figueira da Foz",
    "freguesia": "Buarcos e São Julião",
    "OBJECTID": 1152,
    "BGRI2021": "06052001006",
    "DT21": "06",
    "DTMN21": "0605",
    "DTMNFR21": "060520",
    "DTMNFRSEC21": "060520010",
    "SECNUM21": "010",
    "SSNUM21": "06",
    "SECSSNUM21": "01006",
    "OBJECTID_1": 50914,
    "DT": "06",
    "CC": "05",
    "fr": "20",
    "SEC": "010",
    "SS": "06"
  },
  "addresses": [
    {
      "id": "pt.ine.add.PTCONT.1123496",
      "street": "AV DR JOAQUIM DE CARVALHO",
      "house": "9",
      "postcode": "3080-197",
      "city": "FIGUEIRA DA FOZ",
      "lon": "-8.864032589331861",
      "lat": "40.15540964944107"
    },
    {
      "id": "pt.ine.add.PTCONT.1127672",
      "street": "R S JOÃO DE DEUS",
      "house": "14",
      "postcode": "3080-190",
      "city": "FIGUEIRA DA FOZ",
      "lon": "-8.86419477063177",
      "lat": "40.15521049723814"
    },
    {
      "id": "pt.ine.add.PTCONT.1131919",
      "street": "R JOAQUIM SOTTO MAYOR",
      "house": "86",
      "postcode": "3080-300",
      "city": "FIGUEIRA DA FOZ",
      "lon": "-8.864231717362788",
      "lat": "40.155372368922144"
    },
    {
      "id": "pt.ine.add.PTCONT.1236795",
      "street": "R S JOÃO DE DEUS",
      "house": "2",
      "postcode": "3080-190",
      "city": "FIGUEIRA DA FOZ",
      "lon": "-8.863349385196853",
      "lat": "40.15517980860435"
    },
    {
      "id": "pt.ine.add.PTCONT.1251076",
      "street": "AV DR JOAQUIM DE CARVALHO",
      "house": "5",
      "postcode": "3080-197",
      "city": "FIGUEIRA DA FOZ",
      "lon": "-8.863551214637475",
      "lat": "40.155394675515886"
    },
    {
      "id": "pt.ine.add.PTCONT.1261575",
      "street": "R JOAQUIM SOTTO MAYOR",
      "house": "88",
      "postcode": "3080-300",
      "city": "FIGUEIRA DA FOZ",
      "lon": "-8.864220657276304",
      "lat": "40.15543547958021"
    },
    {
      "id": "pt.ine.add.PTCONT.1271474",
      "street": "R S JOÃO DE DEUS",
      "house": "10",
      "postcode": "3080-190",
      "city": "FIGUEIRA DA FOZ",
      "lon": "-8.863877895813323",
      "lat": "40.155212497558836"
    },
    {
      "id": "pt.ine.add.PTCONT.1292091",
      "street": "AV DR JOAQUIM DE CARVALHO",
      "house": "7",
      "postcode": "3080-197",
      "city": "FIGUEIRA DA FOZ",
      "lon": "-8.863809506168735",
      "lat": "40.15540205163536"
    },
    {
      "id": "pt.ine.add.PTCONT.1296214",
      "street": "R S JOÃO DE DEUS",
      "house": "6",
      "postcode": "3080-190",
      "city": "FIGUEIRA DA FOZ",
      "lon": "-8.863631148101154",
      "lat": "40.155187037094436"
    }
  ]
}