{
  "data": {
    "distrito": "Porto",
    "concelho": "Porto",
    "freguesia": "União das freguesias de Aldoar, Foz do Douro e Nevogilde",
    "OBJECTID": 1011,
    "BGRI2021": "13121601704",
    "DT21": "13",
    "DTMN21": "1312",
    "DTMNFR21": "131216",
    "DTMNFRSEC21": "131216017",
    "SECNUM21": "017",
    "SSNUM21": "04",
    "SECSSNUM21": "01704",
    "OBJECTID_1": 138610,
    "DT": "13",
    "CC": "12",
    "fr": "16",
    "SEC": "017",
    "SS": "04"
  },
  "addresses": [
    {
      "id": "pt.ine.add.PTCONT.3549011",
      "street": "R VIANA DA MOTA",
      "house": "84 88",
      "postcode": "4150-745",
      "city": "PORTO",
      "lon": "-8.668845775304238",
      "lat": "41.15455914062908"
    },
    {
      "id": "pt.ine.add.PTCONT.3555621",
      "street": "R JULIO DE BRITO",
      "house": "117",
      "postcode": "4150-449",
      "city": "PORTO",
      "lon": "-8.667823014481217",
      "lat": "41.1547799970829"
    },
    {
      "id": "pt.ine.add.PTCONT.3555622",
      "street": "R VIANA MOTA",
      "house": "12",
      "postcode": "4150-745",
      "city": "PORTO",
      "lon": "-8.669067355073828",
      "lat": "41.15397282772735"
    },
    {
      "id": "pt.ine.add.PTCONT.3558453",
      "street": "R VIANA MOTA",
      "house": "54",
      "postcode": "4150-745",
      "city": "PORTO",
      "lon": "-8.66895079251358",
      "lat": "41.15428852194321"
    },
    {
      "id": "pt.ine.add.PTCONT.3594364",
      "street": "R VIANA DE LIMA",
      "house": "140",
      "postcode": "4150-746",
      "city": "PORTO",
      "lon": "-8.668549709079544",
      "lat": "41.154776621402256"
    },
    {
      "id": "pt.ine.add.PTCONT.3620619",
      "street": "R VIANA LIMA",
      "house": "206",
      "postcode": "4150-746",
      "city": "PORTO",
      "lon": "-8.668521487218834",
      "lat": "41.15423649217663"
    },
    {
      "id": "pt.ine.add.PTCONT.3626327",
      "street": "R VIANA LIMA",
      "house": "212",
      "postcode": "4150-746",
      "city": "PORTO",
      "lon": "-8.66860392515213",
      "lat": "41.15411905253477"
    },
    {
      "id": "pt.ine.add.PTCONT.3632643",
      "street": "R VIANA MOTA",
      "house": "100",
      "postcode": "4150-745",
      "city": "PORTO",
      "lon": "-8.668823122209178",
      "lat": "41.154703315424136"
    },
    {
      "id": "pt.ine.add.PTCONT.3651834",
      "street": "R VIANA MOTA",
      "house": "42",
      "postcode": "4150-745",
      "city": "PORTO",
      "lon": "-8.668962118866565",
      "lat": "41.15421643453017"
    },
    {
      "id": "pt.ine.add.PTCONT.3671417",
      "street": "R VIANA LIMA",
      "house": "19",
      "postcode": "4150-746",
      "city": "PORTO",
      "lon": "-8.666984061831368",
      "lat": "41.154162589033845"
    },
    {
      "id": "pt.ine.add.PTCONT.3678119",
      "street": "R JULIO DE BRITO",
      "house": "121",
      "postcode": "4150-449",
      "city": "PORTO",
      "lon": "-8.667906478850666",
      "lat": "41.15478861394264"
    },
    {
      "id": "pt.ine.add.PTCONT.3704372",
      "street": "R VIANA LIMA",
      "house": "152",
      "postcode": "4150-746",
      "city": "PORTO",
      "lon": "-8.668476839032163",
      "lat": "41.15460587765139"
    },
    {
      "id": "pt.ine.add.PTCONT.3736683",
      "street": "R HENRIQUE LOPES MENDONCA",
      "house": "408",
      "postcode": "4150-396",
      "city": "PORTO",
      "lon": "-8.667254843011952",
      "lat": "41.153765142683575"
    },
    {
      "id": "pt.ine.add.PTCONT.3742152",
      "street": "R JULIO DE BRITO",
      "house": "135",
      "postcode": "4150-449",
      "city": "PORTO",
      "lon": "-8.66809759974602",
      "lat": "41.154850756821645"
    },
    {
      "id": "pt.ine.add.PTCONT.3762200",
      "street": "R VIANA DE LIMA",
      "house": "224",
      "postcode": "4150-746",
      "city": "PORTO",
      "lon": "-8.668709382399006",
      "lat": "41.15390245804882"
    },
    {
      "id": "pt.ine.add.PTCONT.3762201",
      "street": "R VIANA LIMA",
      "house": "174",
      "postcode": "4150-746",
      "city": "PORTO",
      "lon": "-8.668450742182419",
      "lat": "41.154326864393674"
    },
    {
      "id": "pt.ine.add.PTCONT.3773190",
      "street": "R VIANA DE LIMA",
      "house": "106 140",
      "postcode": "4150-746",
      "city": "PORTO",
      "lon": "-8.668812015536677",
      "lat": "41.15480241481508"
    },
    {
      "id": "pt.ine.add.PTCONT.3786172",
      "street": "R VIANA DA MOTA",
      "house": "90 94",
      "postcode": "4150-745",
      "city": "PORTO",
      "lon": "-8.668834522075064",
      "lat": "41.154640232026516"
    },
    {
      "id": "pt.ine.add.PTCONT.3795328",
      "street": "R VIANA LIMA",
      "house": "136",
      "postcode": "4150-746",
      "city": "PORTO",
      "lon": "-8.668181137456706",
      "lat": "41.15486837748112"
    },
    {
      "id": "pt.ine.add.PTCONT.3839606",
      "street": "R VIANA DE LIMA",
      "house": "226 228",
      "postcode": "4150-746",
      "city": "PORTO",
      "lon": "-8.668671518621421",
      "lat": "41.15364150820414"
    },
    {
      "id": "pt.ine.add.PTCONT.3892244",
      "street": "R VIANA DE LIMA",
      "house": "262 266",
      "postcode": "4150-746",
      "city": "PORTO",
      "lon": "-8.667329682610994",
      "lat": "41.15417899531323"
    },
    {
      "id": "pt.ine.add.PTCONT.3897201",
      "street": "R VIANA DE LIMA",
      "house": "222",
      "postcode": "4150-746",
      "city": "PORTO",
      "lon": "-8.668721808289334",
      "lat": "41.15396543065755"
    },
    {
      "id": "pt.ine.add.PTCONT.3916596",
      "street": "R VIANA MOTA",
      "house": "80",
      "postcode": "4150-745",
      "city": "PORTO",
      "lon": "-8.668845335458563",
      "lat": "41.15450511663457"
    },
    {
      "id": "pt.ine.add.PTCONT.3936784",
      "street": "R VIANA MOTA",
      "house": "38",
      "postcode": "4150-745",
      "city": "PORTO",
      "lon": "-8.668997344342682",
      "lat": "41.1541532402728"
    },
    {
      "id": "pt.ine.add.PTCONT.3968738",
      "street": "R VIANA DE LIMA",
      "house": "234 236",
      "postcode": "4150-746",
      "city": "PORTO",
      "lon": "-8.668361272631241",
      "lat": "41.15357991986583"
    },
    {
      "id": "pt.ine.add.PTCONT.3973629",
      "street": "R VIANA LIMA",
      "house": "232",
      "postcode": "4150-746",
      "city": "PORTO",
      "lon": "-8.668564083444616",
      "lat": "41.15361499464304"
    },
    {
      "id": "pt.ine.add.PTCONT.4017319",
      "street": "R VIANA DE LIMA",
      "house": "244",
      "postcode": "4150-746",
      "city": "PORTO",
      "lon": "-8.667802394851064",
      "lat": "41.15370857625617"
    },
    {
      "id": "pt.ine.add.PTCONT.4017320",
      "street": "R VIANA LIMA",
      "house": "218",
      "postcode": "4150-746",
      "city": "PORTO",
      "lon": "-8.668650917257324",
      "lat": "41.15403779499813"
    },
    {
      "id": "pt.ine.add.PTCONT.4105347",
      "street": "R VIANA LIMA",
      "house": "260",
      "postcode": "4150-746",
      "city": "PORTO",
      "lon": "-8.667399844168811",
      "lat": "41.154016591758214"
    },
    {
      "id": "pt.ine.add.PTCONT.4112565",
      "street": "R VIANA DE LIMA",
      "house": "144 148",
      "postcode": "4150-746",
      "city": "PORTO",
      "lon": "-8.668489264840241",
      "lat": "41.15466885027805"
    },
    {
      "id": "pt.ine.add.PTCONT.4157977",
      "street": "R VIANA DE LIMA",
      "house": "162",
      "postcode": "4150-746",
      "city": "PORTO",
      "lon": "-8.668415809082278",
      "lat": "41.15442607448539"
    },
    {
      "id": "pt.ine.add.PTCONT.4236087",
      "street": "R VIANA MOTA",
      "house": "58",
      "postcode": "4150-745",
      "city": "PORTO",
      "lon": "-8.668927626505887",
      "lat": "41.154369668769455"
    },
    {
      "id": "pt.ine.add.PTCONT.4269210",
      "street": "R VIANA DA MOTA",
      "house": "20 24",
      "postcode": "4150-745",
      "city": "PORTO",
      "lon": "-8.669044042650059",
      "lat": "41.154035966580786"
    },
    {
      "id": "pt.ine.add.PTCONT.4280919",
      "street": "R VIANA MOTA",
      "house": "26",
      "postcode": "4150-745",
      "city": "PORTO",
      "lon": "-8.669008743951698",
      "lat": "41.15409015685351"
    },
    {
      "id": "pt.ine.add.PTCONT.4309610",
      "street": "R VIANA MOTA",
      "house": "10",
      "postcode": "4150-745",
      "city": "PORTO",
      "lon": "-8.669102433638342",
      "lat": "41.153891625437154"
    },
    {
      "id": "pt.ine.add.PTCONT.4316189",
      "street": "R HENRIQUE LOPES DE MENDONÇA",
      "house": "391",
      "postcode": "4150-396",
      "city": "PORTO",
      "lon": "-8.667113204111425",
      "lat": "41.15392787754272"
    },
    {
      "id": "pt.ine.add.PTCONT.4344737",
      "street": "R VIANA LIMA",
      "house": "208",
      "postcode": "4150-746",
      "city": "PORTO",
      "lon": "-8.668580465691528",
      "lat": "41.15416418329574"
    },
    {
      "id": "pt.ine.add.PTCONT.4348619",
      "street": "R VIANA DE LIMA",
      "house": "224 A",
      "postcode": "4150-746",
      "city": "PORTO",
      "lon": "-8.668839104440105",
      "lat": "41.1537397766567"
    },
    {
      "id": "pt.ine.add.PTCONT.4348632",
      "street": "R JULIO DE BRITO",
      "house": "127",
      "postcode": "4150-449",
      "city": "PORTO",
      "lon": "-8.668002149042998",
      "lat": "41.15483319142194"
    }
  ]
}