{
  "data": {
    "distrito": "Faro",
    "concelho": "Tavira",
    "freguesia": "Santa Catarina da Fonte do Bispo",
    "OBJECTID": 347,
    "BGRI2021": "08140400142",
    "DT21": "08",
    "DTMN21": "0814",
    "DTMNFR21": "081404",
    "DTMNFRSEC21": "081404001",
    "SECNUM21": "001",
    "SSNUM21": "42",
    "SECSSNUM21": "00142",
    "OBJECTID_1": 73998,
    "DT": "08",
    "CC": "14",
    "fr": "04",
    "SEC": "001",
    "SS": "42"
  },
  "addresses": [
    {
      "id": "pt.ine.add.PTCONT.1467166",
      "street": "R POETA ANTÓNIO ALEIXO",
      "house": "7",
      "postcode": "8800-166",
      "city": "STA CATARINA FONTE BISPO",
      "lon": "-7.7895487680156625",
      "lat": "37.154191566657886"
    },
    {
      "id": "pt.ine.add.PTCONT.1480289",
      "street": "TV S CATARINA RFONTE DO BISPO",
      "house": "",
      "postcode": "8800-166",
      "city": "STA CATARINA FONTE BISPO",
      "lon": "-7.788390478128386",
      "lat": "37.15392689757166"
    },
    {
      "id": "pt.ine.add.PTCONT.1488758",
      "street": "STA CATARINA F BISPO",
      "house": "",
      "postcode": "8800-166",
      "city": "STA CATARINA FONTE BISPO",
      "lon": "-7.78675751315577",
      "lat": "37.15407531602688"
    },
    {
      "id": "pt.ine.add.PTCONT.1488759",
      "street": "STA CATARINA F BISPO",
      "house": "",
      "postcode": "8800-166",
      "city": "STA CATARINA FONTE BISPO",
      "lon": "-7.78675751315577",
      "lat": "37.15407531602688"
    },
    {
      "id": "pt.ine.add.PTCONT.1488760",
      "street": "STA CATARINA F BISPO",
      "house": "",
      "postcode": "8800-166",
      "city": "STA CATARINA FONTE BISPO",
      "lon": "-7.78675751315577",
      "lat": "37.15407531602688"
    },
    {
      "id": "pt.ine.add.PTCONT.1488761",
      "street": "STA CATARINA F BISPO",
      "house": "",
      "postcode": "8800-166",
      "city": "STA CATARINA FONTE BISPO",
      "lon": "-7.78675751315577",
      "lat": "37.15407531602688"
    },
    {
      "id": "pt.ine.add.PTCONT.1489113",
      "street": "STA CATARINA F BISPO",
      "house": "",
      "postcode": "8800-166",
      "city": "STA CATARINA FONTE BISPO",
      "lon": "-7.78675751315577",
      "lat": "37.15407531602688"
    },
    {
      "id": "pt.ine.add.PTCONT.1489145",
      "street": "STA CATARINA F BISPO",
      "house": "",
      "postcode": "8800-166",
      "city": "STA CATARINA FONTE BISPO",
      "lon": "-7.78675751315577",
      "lat": "37.15407531602688"
    },
    {
      "id": "pt.ine.add.PTCONT.1527931",
      "street": "TV S CATARINA RFONTE DO BISPO",
      "house": "",
      "postcode": "8800-166",
      "city": "STA CATARINA FONTE BISPO",
      "lon": "-7.788468950034592",
      "lat": "37.15399921014465"
    },
    {
      "id": "pt.ine.add.PTCONT.1541393",
      "street": "R POETA ANTUNIO ALEIXO",
      "house": "5",
      "postcode": "8800-166",
      "city": "STA CATARINA FONTE BISPO",
      "lon": "-7.789807598715277",
      "lat": "37.15421033775815"
    },
    {
      "id": "pt.ine.add.PTCONT.1549409",
      "street": "TV PRAÇA",
      "house": "6",
      "postcode": "8800-166",
      "city": "STA CATARINA FONTE BISPO",
      "lon": "-7.788568546089702",
      "lat": "37.154377942592944"
    },
    {
      "id": "pt.ine.add.PTCONT.1549410",
      "street": "",
      "house": "",
      "postcode": "8800-166",
      "city": "STA CATARINA FONTE BISPO",
      "lon": "-7.789458181485605",
      "lat": "37.1543084411155"
    },
    {
      "id": "pt.ine.add.PTCONT.1567724",
      "street": "R TIMOTIO DA COSTA",
      "house": "",
      "postcode": "8800-166",
      "city": "STA CATARINA FONTE BISPO",
      "lon": "-7.786564951106129",
      "lat": "37.15433605892089"
    },
    {
      "id": "pt.ine.add.PTCONT.1567725",
      "street": "R TIMOTIO DA COSTA",
      "house": "",
      "postcode": "8800-166",
      "city": "STA CATARINA FONTE BISPO",
      "lon": "-7.786564951106129",
      "lat": "37.15433605892089"
    },
    {
      "id": "pt.ine.add.PTCONT.1567726",
      "street": "R TIMOTIO COSTA",
      "house": "8",
      "postcode": "8800-166",
      "city": "STA CATARINA FONTE BISPO",
      "lon": "-7.786564951106129",
      "lat": "37.15433605892089"
    },
    {
      "id": "pt.ine.add.PTCONT.1567727",
      "street": "R TIMOTIO DA COSTA",
      "house": "",
      "postcode": "8800-166",
      "city": "STA CATARINA FONTE BISPO",
      "lon": "-7.786564951106129",
      "lat": "37.15433605892089"
    },
    {
      "id": "pt.ine.add.PTCONT.1568613",
      "street": "R TIMOTIO COSTA",
      "house": "8",
      "postcode": "8800-166",
      "city": "STA CATARINA FONTE BISPO",
      "lon": "-7.786564951106129",
      "lat": "37.15433605892089"
    },
    {
      "id": "pt.ine.add.PTCONT.1568616",
      "street": "R TIMOTIO DA COSTA",
      "house": "8",
      "postcode": "8800-166",
      "city": "STA CATARINA FONTE BISPO",
      "lon": "-7.786564951106129",
      "lat": "37.15433605892089"
    },
    {
      "id": "pt.ine.add.PTCONT.1571873",
      "street": "TV S CATARINA RFONTE DO BISPO",
      "house": "",
      "postcode": "8800-166",
      "city": "STA CATARINA FONTE BISPO",
      "lon": "-7.7883784029875756",
      "lat": "37.154107073347674"
    },
    {
      "id": "pt.ine.add.PTCONT.1576967",
      "street": "TV PRAÇA",
      "house": "9",
      "postcode": "8800-166",
      "city": "STA CATARINA FONTE BISPO",
      "lon": "-7.788466823428018",
      "lat": "37.154467752278876"
    },
    {
      "id": "pt.ine.add.PTCONT.1584755",
      "street": "",
      "house": "",
      "postcode": "8800-166",
      "city": "STA CATARINA FONTE BISPO",
      "lon": "-7.789706488976898",
      "lat": "37.154164992116165"
    },
    {
      "id": "pt.ine.add.PTCONT.1596327",
      "street": "R PADRE APOLINARIO",
      "house": "",
      "postcode": "8800-166",
      "city": "STA CATARINA FONTE BISPO",
      "lon": "-7.789435218751351",
      "lat": "37.15440749052281"
    },
    {
      "id": "pt.ine.add.PTCONT.1599221",
      "street": "R OPERÁRIOS",
      "house": "6",
      "postcode": "8800-166",
      "city": "STA CATARINA FONTE BISPO",
      "lon": "-7.788658193969225",
      "lat": "37.15446830861378"
    },
    {
      "id": "pt.ine.add.PTCONT.1600483",
      "street": "",
      "house": "",
      "postcode": "8800-166",
      "city": "STA CATARINA FONTE BISPO",
      "lon": "-7.789536899423374",
      "lat": "37.154326690425144"
    },
    {
      "id": "pt.ine.add.PTCONT.1606476",
      "street": "TV S CATARINA RFONTE DO BISPO",
      "house": "",
      "postcode": "8800-166",
      "city": "STA CATARINA FONTE BISPO",
      "lon": "-7.788153794385626",
      "lat": "37.15398928274452"
    },
    {
      "id": "pt.ine.add.PTCONT.1614805",
      "street": "TV S CATARINA RFONTE DO BISPO",
      "house": "",
      "postcode": "8800-166",
      "city": "STA CATARINA FONTE BISPO",
      "lon": "-7.788400344403129",
      "lat": "37.154233284790784"
    },
    {
      "id": "pt.ine.add.PTCONT.1614806",
      "street": "",
      "house": "",
      "postcode": "8800-166",
      "city": "STA CATARINA FONTE BISPO",
      "lon": "-7.78904126169587",
      "lat": "37.15439733694937"
    },
    {
      "id": "pt.ine.add.PTCONT.1618171",
      "street": "R JOSE GAGO SEQUEIRA",
      "house": "",
      "postcode": "8800-166",
      "city": "STA CATARINA FONTE BISPO",
      "lon": "-7.786363763980802",
      "lat": "37.15402010144296"
    },
    {
      "id": "pt.ine.add.PTCONT.1618172",
      "street": "R JOSE GAGO SEQUEIRA",
      "house": "",
      "postcode": "8800-166",
      "city": "STA CATARINA FONTE BISPO",
      "lon": "-7.786363763980802",
      "lat": "37.15402010144296"
    },
    {
      "id": "pt.ine.add.PTCONT.1618173",
      "street": "R JOSE GAGO SEQUEIRA",
      "house": "N 4",
      "postcode": "8800-166",
      "city": "STA CATARINA FONTE BISPO",
      "lon": "-7.786363763980802",
      "lat": "37.15402010144296"
    },
    {
      "id": "pt.ine.add.PTCONT.1618174",
      "street": "R JOSE GAGO SEQUEIRA",
      "house": "",
      "postcode": "8800-166",
      "city": "STA CATARINA FONTE BISPO",
      "lon": "-7.786363763980802",
      "lat": "37.15402010144296"
    },
    {
      "id": "pt.ine.add.PTCONT.1618175",
      "street": "R JOSE GAGO SEQUEIRA",
      "house": "",
      "postcode": "8800-166",
      "city": "STA CATARINA FONTE BISPO",
      "lon": "-7.786363763980802",
      "lat": "37.15402010144296"
    },
    {
      "id": "pt.ine.add.PTCONT.1620258",
      "street": "R JOSE GAGO SEQUEIRA",
      "house": "",
      "postcode": "8800-166",
      "city": "STA CATARINA FONTE BISPO",
      "lon": "-7.786363763980802",
      "lat": "37.15402010144296"
    },
    {
      "id": "pt.ine.add.PTCONT.1627012",
      "street": "R POETA ANTÓNIO ALEIXO",
      "house": "",
      "postcode": "8800-166",
      "city": "STA CATARINA FONTE BISPO",
      "lon": "-7.789605950013864",
      "lat": "37.15399350041011"
    },
    {
      "id": "pt.ine.add.PTCONT.1634038",
      "street": "R DR FRANCISCO SA CARNEIRO",
      "house": "19",
      "postcode": "8800-166",
      "city": "STA CATARINA FONTE BISPO",
      "lon": "-7.787668922760664",
      "lat": "37.154168081404954"
    },
    {
      "id": "pt.ine.add.PTCONT.1640695",
      "street": "TV PRAÇA",
      "house": "4",
      "postcode": "8800-166",
      "city": "STA CATARINA FONTE BISPO",
      "lon": "-7.788512874069755",
      "lat": "37.15424262257112"
    },
    {
      "id": "pt.ine.add.PTCONT.1647048",
      "street": "",
      "house": "",
      "postcode": "8800-166",
      "city": "STA CATARINA FONTE BISPO",
      "lon": "-7.789019523323099",
      "lat": "37.154226073491955"
    },
    {
      "id": "pt.ine.add.PTCONT.1657600",
      "street": "TV PRACA",
      "house": "6B",
      "postcode": "8800-166",
      "city": "STA CATARINA FONTE BISPO",
      "lon": "-7.788591387298808",
      "lat": "37.15430592463582"
    },
    {
      "id": "pt.ine.add.PTCONT.1675095",
      "street": "R POETA ANTÓNIO ALEIXO",
      "house": "3",
      "postcode": "8800-166",
      "city": "STA CATARINA FONTE BISPO",
      "lon": "-7.789795975013145",
      "lat": "37.154291398992484"
    },
    {
      "id": "pt.ine.add.PTCONT.1686002",
      "street": "R TIMOTIO DA COSTA",
      "house": "4",
      "postcode": "8800-166",
      "city": "STA CATARINA FONTE BISPO",
      "lon": "-7.786137511891332",
      "lat": "37.15426272398418"
    },
    {
      "id": "pt.ine.add.PTCONT.1686003",
      "street": "R TIMOTIO DA COSTA",
      "house": "4",
      "postcode": "8800-166",
      "city": "STA CATARINA FONTE BISPO",
      "lon": "-7.786137511891332",
      "lat": "37.15426272398418"
    },
    {
      "id": "pt.ine.add.PTCONT.1686004",
      "street": "R TIMOTIO DA COSTA",
      "house": "4",
      "postcode": "8800-166",
      "city": "STA CATARINA FONTE BISPO",
      "lon": "-7.786137511891332",
      "lat": "37.15426272398418"
    },
    {
      "id": "pt.ine.add.PTCONT.1686005",
      "street": "R TIMOTIO DA COSTA",
      "house": "4",
      "postcode": "8800-166",
      "city": "STA CATARINA FONTE BISPO",
      "lon": "-7.786137511891332",
      "lat": "37.15426272398418"
    },
    {
      "id": "pt.ine.add.PTCONT.1686233",
      "street": "R TIMOTIO DA COSTA",
      "house": "4",
      "postcode": "8800-166",
      "city": "STA CATARINA FONTE BISPO",
      "lon": "-7.786137511891332",
      "lat": "37.15426272398418"
    },
    {
      "id": "pt.ine.add.PTCONT.1686352",
      "street": "R TIMOTIO DA COSTA",
      "house": "4",
      "postcode": "8800-166",
      "city": "STA CATARINA FONTE BISPO",
      "lon": "-7.786137511891332",
      "lat": "37.15426272398418"
    },
    {
      "id": "pt.ine.add.PTCONT.1686557",
      "street": "R S CATARINA FONTE DO BISPO",
      "house": "",
      "postcode": "8800-166",
      "city": "STA CATARINA FONTE BISPO",
      "lon": "-7.787860907052732",
      "lat": "37.154033482645126"
    },
    {
      "id": "pt.ine.add.PTCONT.1714332",
      "street": "",
      "house": "",
      "postcode": "8800-166",
      "city": "STA CATARINA FONTE BISPO",
      "lon": "-7.788502148610829",
      "lat": "37.154125454305515"
    },
    {
      "id": "pt.ine.add.PTCONT.1717197",
      "street": "TV S CATARINA RFONTE DO BISPO",
      "house": "",
      "postcode": "8800-166",
      "city": "STA CATARINA FONTE BISPO",
      "lon": "-7.788444677341131",
      "lat": "37.154386592979314"
    },
    {
      "id": "pt.ine.add.PTCONT.1719976",
      "street": "R TIMÓTIO DA COSTA",
      "house": "6",
      "postcode": "8800-166",
      "city": "STA CATARINA FONTE BISPO",
      "lon": "-7.786328717268031",
      "lat": "37.15429932577171"
    },
    {
      "id": "pt.ine.add.PTCONT.1719977",
      "street": "R TIMÓTIO DA COSTA",
      "house": "6",
      "postcode": "8800-166",
      "city": "STA CATARINA FONTE BISPO",
      "lon": "-7.786328717268031",
      "lat": "37.15429932577171"
    },
    {
      "id": "pt.ine.add.PTCONT.1719978",
      "street": "R TIMÓTIO DA COSTA",
      "house": "6",
      "postcode": "8800-166",
      "city": "STA CATARINA FONTE BISPO",
      "lon": "-7.786328717268031",
      "lat": "37.15429932577171"
    },
    {
      "id": "pt.ine.add.PTCONT.1719979",
      "street": "R TIMÓTIO DA COSTA",
      "house": "6",
      "postcode": "8800-166",
      "city": "STA CATARINA FONTE BISPO",
      "lon": "-7.786328717268031",
      "lat": "37.15429932577171"
    },
    {
      "id": "pt.ine.add.PTCONT.1720371",
      "street": "R TIMOTIO COSTA",
      "house": "6",
      "postcode": "8800-166",
      "city": "STA CATARINA FONTE BISPO",
      "lon": "-7.786328717268031",
      "lat": "37.15429932577171"
    },
    {
      "id": "pt.ine.add.PTCONT.1720473",
      "street": "R TIMOTIO COSTA",
      "house": "6",
      "postcode": "8800-166",
      "city": "STA CATARINA FONTE BISPO",
      "lon": "-7.786328717268031",
      "lat": "37.15429932577171"
    },
    {
      "id": "pt.ine.add.PTCONT.1754649",
      "street": "R JOSE GAGO SEQUEIRA",
      "house": "2",
      "postcode": "8800-166",
      "city": "STA CATARINA FONTE BISPO",
      "lon": "-7.786172723961755",
      "lat": "37.15394745801822"
    },
    {
      "id": "pt.ine.add.PTCONT.1754650",
      "street": "R JOSE GAGO SEQUEIRA",
      "house": "",
      "postcode": "8800-166",
      "city": "STA CATARINA FONTE BISPO",
      "lon": "-7.786172723961755",
      "lat": "37.15394745801822"
    },
    {
      "id": "pt.ine.add.PTCONT.1754651",
      "street": "R JOSE GAGO SEQUEIRA",
      "house": "2",
      "postcode": "8800-166",
      "city": "STA CATARINA FONTE BISPO",
      "lon": "-7.786172723961755",
      "lat": "37.15394745801822"
    },
    {
      "id": "pt.ine.add.PTCONT.1754652",
      "street": "R JOSE GAGO SEQUEIRA",
      "house": "",
      "postcode": "8800-166",
      "city": "STA CATARINA FONTE BISPO",
      "lon": "-7.786172723961755",
      "lat": "37.15394745801822"
    },
    {
      "id": "pt.ine.add.PTCONT.1754653",
      "street": "R JOSE GAGO SEQUEIRA",
      "house": "",
      "postcode": "8800-166",
      "city": "STA CATARINA FONTE BISPO",
      "lon": "-7.786172723961755",
      "lat": "37.15394745801822"
    },
    {
      "id": "pt.ine.add.PTCONT.1754654",
      "street": "R JOSE GAGO SEQUEIRA",
      "house": "",
      "postcode": "8800-166",
      "city": "STA CATARINA FONTE BISPO",
      "lon": "-7.786172723961755",
      "lat": "37.15394745801822"
    },
    {
      "id": "pt.ine.add.PTCONT.1776833",
      "street": "FRANCISCO SA CARNEIRO",
      "house": "9",
      "postcode": "8800-166",
      "city": "STA CATARINA FONTE BISPO",
      "lon": "-7.7879734363530435",
      "lat": "37.15404282093611"
    },
    {
      "id": "pt.ine.add.PTCONT.1791543",
      "street": "TV PRACA",
      "house": "",
      "postcode": "8800-166",
      "city": "STA CATARINA FONTE BISPO",
      "lon": "-7.7885481989322916",
      "lat": "37.15390032456945"
    },
    {
      "id": "pt.ine.add.PTCONT.1794597",
      "street": "R OPERARIOS",
      "house": "",
      "postcode": "8800-166",
      "city": "STA CATARINA FONTE BISPO",
      "lon": "-7.7887941779322665",
      "lat": "37.15427047176799"
    },
    {
      "id": "pt.ine.add.PTCONT.1794598",
      "street": "TV PRAÇA",
      "house": "8",
      "postcode": "8800-166",
      "city": "STA CATARINA FONTE BISPO",
      "lon": "-7.78860211291878",
      "lat": "37.15442309289062"
    },
    {
      "id": "pt.ine.add.PTCONT.1805330",
      "street": "R PRACA",
      "house": "",
      "postcode": "8800-166",
      "city": "STA CATARINA FONTE BISPO",
      "lon": "-7.788512546941529",
      "lat": "37.15431470597617"
    },
    {
      "id": "pt.ine.add.PTCONT.1809242",
      "street": "",
      "house": "",
      "postcode": "8800-166",
      "city": "STA CATARINA FONTE BISPO",
      "lon": "-7.78926660732304",
      "lat": "37.15435293820568"
    },
    {
      "id": "pt.ine.add.PTCONT.1814896",
      "street": "R JOSÉ GAGO SEQUEIRA",
      "house": "",
      "postcode": "8800-166",
      "city": "STA CATARINA FONTE BISPO",
      "lon": "-7.786577565154721",
      "lat": "37.1540387478459"
    },
    {
      "id": "pt.ine.add.PTCONT.1814897",
      "street": "R JOSÉ GAGO SEQUEIRA",
      "house": "",
      "postcode": "8800-166",
      "city": "STA CATARINA FONTE BISPO",
      "lon": "-7.786577565154721",
      "lat": "37.1540387478459"
    },
    {
      "id": "pt.ine.add.PTCONT.1814898",
      "street": "R JOSÉ GAGO SEQUEIRA",
      "house": "",
      "postcode": "8800-166",
      "city": "STA CATARINA FONTE BISPO",
      "lon": "-7.786577565154721",
      "lat": "37.1540387478459"
    },
    {
      "id": "pt.ine.add.PTCONT.1814900",
      "street": "R JOSÉ GAGO SEQUEIRA",
      "house": "",
      "postcode": "8800-166",
      "city": "STA CATARINA FONTE BISPO",
      "lon": "-7.786577565154721",
      "lat": "37.1540387478459"
    },
    {
      "id": "pt.ine.add.PTCONT.1814901",
      "street": "R JOSÉ GAGO SEQUEIRA",
      "house": "",
      "postcode": "8800-166",
      "city": "STA CATARINA FONTE BISPO",
      "lon": "-7.786577565154721",
      "lat": "37.1540387478459"
    },
    {
      "id": "pt.ine.add.PTCONT.1814902",
      "street": "R JOSÉ GAGO SEQUEIRA",
      "house": "",
      "postcode": "8800-166",
      "city": "STA CATARINA FONTE BISPO",
      "lon": "-7.786577565154721",
      "lat": "37.1540387478459"
    }
  ]
}