{
  "data": {
    "distrito": "Viseu",
    "concelho": "Sátão",
    "freguesia": "Sátão",
    "OBJECTID": 260,
    "BGRI2021": "18171000126",
    "DT21": "18",
    "DTMN21": "1817",
    "DTMNFR21": "181710",
    "DTMNFRSEC21": "181710001",
    "SECNUM21": "001",
    "SSNUM21": "26",
    "SECSSNUM21": "00126",
    "OBJECTID_1": 197568,
    "DT": "18",
    "CC": "17",
    "fr": "10",
    "SEC": "001",
    "SS": "26"
  },
  "addresses": [
    {
      "id": "pt.ine.add.PTCONT.5451705",
      "street": "RECTA DO PEREIRO",
      "house": "",
      "postcode": "3560-143",
      "city": "SÁTÃO",
      "lon": "-7.759023750906777",
      "lat": "40.738019175029805"
    },
    {
      "id": "pt.ine.add.PTCONT.5458912",
      "street": "RECTA PEREIRO",
      "house": "",
      "postcode": "3560-143",
      "city": "SÁTÃO",
      "lon": "-7.756588497085282",
      "lat": "40.73738991052249"
    },
    {
      "id": "pt.ine.add.PTCONT.5485036",
      "street": "RECTA DO PEREIRO",
      "house": "",
      "postcode": "3560-143",
      "city": "SÁTÃO",
      "lon": "-7.757262430860271",
      "lat": "40.73754519227878"
    },
    {
      "id": "pt.ine.add.PTCONT.5538051",
      "street": "EN 229",
      "house": "",
      "postcode": "3560-131",
      "city": "SÁTÃO",
      "lon": "-7.756869222319649",
      "lat": "40.73799416209857"
    },
    {
      "id": "pt.ine.add.PTCONT.5563577",
      "street": "EN 229",
      "house": "",
      "postcode": "3560-135",
      "city": "SÁTÃO",
      "lon": "-7.756883952633168",
      "lat": "40.7374809241201"
    },
    {
      "id": "pt.ine.add.PTCONT.5568116",
      "street": "EN 229",
      "house": "",
      "postcode": "3560-135",
      "city": "SÁTÃO",
      "lon": "-7.755393724065396",
      "lat": "40.73722391658326"
    },
    {
      "id": "pt.ine.add.PTCONT.5596662",
      "street": "RECTA DO PEREIRO",
      "house": "",
      "postcode": "3560-143",
      "city": "SÁTÃO",
      "lon": "-7.758386587202567",
      "lat": "40.73763889749941"
    },
    {
      "id": "pt.ine.add.PTCONT.5606546",
      "street": "",
      "house": "",
      "postcode": "3560-143",
      "city": "SÁTÃO",
      "lon": "-7.76089460587041",
      "lat": "40.737962188151045"
    },
    {
      "id": "pt.ine.add.PTCONT.5607502",
      "street": "AVELOSA",
      "house": "",
      "postcode": "3560-131",
      "city": "SÁTÃO",
      "lon": "-7.755724794500705",
      "lat": "40.737297039653576"
    },
    {
      "id": "pt.ine.add.PTCONT.5620004",
      "street": "EN 229",
      "house": "",
      "postcode": "3560-135",
      "city": "SÁTÃO",
      "lon": "-7.75566585649311",
      "lat": "40.737251821847885"
    }
  ]
}