{
  "data": {
    "distrito": "Viseu",
    "concelho": "Penalva do Castelo",
    "freguesia": "Ínsua",
    "OBJECTID": 46,
    "BGRI2021": "18110500109",
    "DT21": "18",
    "DTMN21": "1811",
    "DTMNFR21": "181105",
    "DTMNFRSEC21": "181105001",
    "SECNUM21": "001",
    "SSNUM21": "09",
    "SECSSNUM21": "00109",
    "OBJECTID_1": 194622,
    "DT": "18",
    "CC": "11",
    "fr": "05",
    "SEC": "001",
    "SS": "09"
  },
  "addresses": [
    {
      "id": "pt.ine.add.PTCONT.5430209",
      "street": "SEM NOME",
      "house": "29",
      "postcode": "3550-112",
      "city": "PENALVA DO CASTELO",
      "lon": "-7.709387172134977",
      "lat": "40.668355555651885"
    },
    {
      "id": "pt.ine.add.PTCONT.5431914",
      "street": "EN 329",
      "house": "",
      "postcode": "3550-167",
      "city": "PENALVA DO CASTELO",
      "lon": "-7.707127926601059",
      "lat": "40.670274337512055"
    },
    {
      "id": "pt.ine.add.PTCONT.5442971",
      "street": "R CASAINHO",
      "house": "",
      "postcode": "3550-166",
      "city": "PENALVA DO CASTELO",
      "lon": "-7.705807892526717",
      "lat": "40.66955805588978"
    },
    {
      "id": "pt.ine.add.PTCONT.5444728",
      "street": "QTA LAMEIRA",
      "house": "",
      "postcode": "3550-166",
      "city": "PENALVA DO CASTELO",
      "lon": "-7.706678163281641",
      "lat": "40.668471654213"
    },
    {
      "id": "pt.ine.add.PTCONT.5444729",
      "street": "QTA LAMEIRA",
      "house": "",
      "postcode": "3550-166",
      "city": "PENALVA DO CASTELO",
      "lon": "-7.706678163281641",
      "lat": "40.668471654213"
    },
    {
      "id": "pt.ine.add.PTCONT.5455917",
      "street": "R CASAINHO",
      "house": "",
      "postcode": "3550-166",
      "city": "PENALVA DO CASTELO",
      "lon": "-7.706505078438758",
      "lat": "40.66965068504029"
    },
    {
      "id": "pt.ine.add.PTCONT.5485814",
      "street": "R CASAINHO",
      "house": "3",
      "postcode": "3550-166",
      "city": "PENALVA DO CASTELO",
      "lon": "-7.705136779355135",
      "lat": "40.66908730432736"
    },
    {
      "id": "pt.ine.add.PTCONT.5492032",
      "street": "R CASAINHO",
      "house": "",
      "postcode": "3550-166",
      "city": "PENALVA DO CASTELO",
      "lon": "-7.706288699908062",
      "lat": "40.670199197372185"
    },
    {
      "id": "pt.ine.add.PTCONT.5492033",
      "street": "R CASAINHO",
      "house": "",
      "postcode": "3550-166",
      "city": "PENALVA DO CASTELO",
      "lon": "-7.706288699908062",
      "lat": "40.670199197372185"
    },
    {
      "id": "pt.ine.add.PTCONT.5492034",
      "street": "R CASAINHO",
      "house": "",
      "postcode": "3550-166",
      "city": "PENALVA DO CASTELO",
      "lon": "-7.706288699908062",
      "lat": "40.670199197372185"
    },
    {
      "id": "pt.ine.add.PTCONT.5492035",
      "street": "R CASAINHO",
      "house": "",
      "postcode": "3550-166",
      "city": "PENALVA DO CASTELO",
      "lon": "-7.706288699908062",
      "lat": "40.670199197372185"
    },
    {
      "id": "pt.ine.add.PTCONT.5492036",
      "street": "R CASAINHO",
      "house": "",
      "postcode": "3550-166",
      "city": "PENALVA DO CASTELO",
      "lon": "-7.706288699908062",
      "lat": "40.670199197372185"
    },
    {
      "id": "pt.ine.add.PTCONT.5492037",
      "street": "R CASAINHO",
      "house": "",
      "postcode": "3550-166",
      "city": "PENALVA DO CASTELO",
      "lon": "-7.706288699908062",
      "lat": "40.670199197372185"
    },
    {
      "id": "pt.ine.add.PTCONT.5492038",
      "street": "R CASAINHO",
      "house": "",
      "postcode": "3550-166",
      "city": "PENALVA DO CASTELO",
      "lon": "-7.706288699908062",
      "lat": "40.670199197372185"
    },
    {
      "id": "pt.ine.add.PTCONT.5492039",
      "street": "R CASAINHO",
      "house": "",
      "postcode": "3550-166",
      "city": "PENALVA DO CASTELO",
      "lon": "-7.706288699908062",
      "lat": "40.670199197372185"
    },
    {
      "id": "pt.ine.add.PTCONT.5492040",
      "street": "R CASAINHO",
      "house": "",
      "postcode": "3550-166",
      "city": "PENALVA DO CASTELO",
      "lon": "-7.706288699908062",
      "lat": "40.670199197372185"
    },
    {
      "id": "pt.ine.add.PTCONT.5492314",
      "street": "R CASAINHO",
      "house": "",
      "postcode": "3550-166",
      "city": "PENALVA DO CASTELO",
      "lon": "-7.706288699908062",
      "lat": "40.670199197372185"
    },
    {
      "id": "pt.ine.add.PTCONT.5497761",
      "street": "R CASAINHO",
      "house": "",
      "postcode": "3550-166",
      "city": "PENALVA DO CASTELO",
      "lon": "-7.7048294670464745",
      "lat": "40.6690591495048"
    },
    {
      "id": "pt.ine.add.PTCONT.5501298",
      "street": "LOTEAM CALVÁRIO",
      "house": "31",
      "postcode": "3550-112",
      "city": "PENALVA DO CASTELO",
      "lon": "-7.7097776654864125",
      "lat": "40.66832096752112"
    },
    {
      "id": "pt.ine.add.PTCONT.5508513",
      "street": "R CASAINHO",
      "house": "5",
      "postcode": "3550-166",
      "city": "PENALVA DO CASTELO",
      "lon": "-7.705738371143238",
      "lat": "40.669332670707604"
    },
    {
      "id": "pt.ine.add.PTCONT.5522335",
      "street": "",
      "house": "",
      "postcode": "3550-167",
      "city": "PENALVA DO CASTELO",
      "lon": "-7.711002863930266",
      "lat": "40.66719981316042"
    },
    {
      "id": "pt.ine.add.PTCONT.5527994",
      "street": "EN 329",
      "house": "",
      "postcode": "3550-167",
      "city": "PENALVA DO CASTELO",
      "lon": "-7.707282989452973",
      "lat": "40.67006779185408"
    },
    {
      "id": "pt.ine.add.PTCONT.5537191",
      "street": "",
      "house": "",
      "postcode": "3550-167",
      "city": "PENALVA DO CASTELO",
      "lon": "-7.711060120690049",
      "lat": "40.667497191401274"
    },
    {
      "id": "pt.ine.add.PTCONT.5537192",
      "street": "BR CALVÁRIO",
      "house": "",
      "postcode": "3550-112",
      "city": "PENALVA DO CASTELO",
      "lon": "-7.709814681496618",
      "lat": "40.668077965045214"
    },
    {
      "id": "pt.ine.add.PTCONT.5552309",
      "street": "QTA PRAZO",
      "house": "",
      "postcode": "3550-167",
      "city": "PENALVA DO CASTELO",
      "lon": "-7.711371002420917",
      "lat": "40.666958020140555"
    },
    {
      "id": "pt.ine.add.PTCONT.5557596",
      "street": "R CASAINHO",
      "house": "",
      "postcode": "3550-166",
      "city": "PENALVA DO CASTELO",
      "lon": "-7.706052226359354",
      "lat": "40.67018931787046"
    },
    {
      "id": "pt.ine.add.PTCONT.5557597",
      "street": "R CASAINHO",
      "house": "",
      "postcode": "3550-166",
      "city": "PENALVA DO CASTELO",
      "lon": "-7.706052226359354",
      "lat": "40.67018931787046"
    },
    {
      "id": "pt.ine.add.PTCONT.5557598",
      "street": "R CASAINHO",
      "house": "",
      "postcode": "3550-166",
      "city": "PENALVA DO CASTELO",
      "lon": "-7.706052226359354",
      "lat": "40.67018931787046"
    },
    {
      "id": "pt.ine.add.PTCONT.5557599",
      "street": "R CASAINHO",
      "house": "",
      "postcode": "3550-166",
      "city": "PENALVA DO CASTELO",
      "lon": "-7.706052226359354",
      "lat": "40.67018931787046"
    },
    {
      "id": "pt.ine.add.PTCONT.5557600",
      "street": "R CASAINHO",
      "house": "",
      "postcode": "3550-166",
      "city": "PENALVA DO CASTELO",
      "lon": "-7.706052226359354",
      "lat": "40.67018931787046"
    },
    {
      "id": "pt.ine.add.PTCONT.5557601",
      "street": "R CASAINHO",
      "house": "",
      "postcode": "3550-166",
      "city": "PENALVA DO CASTELO",
      "lon": "-7.706052226359354",
      "lat": "40.67018931787046"
    },
    {
      "id": "pt.ine.add.PTCONT.5557602",
      "street": "R CASAINHO",
      "house": "",
      "postcode": "3550-166",
      "city": "PENALVA DO CASTELO",
      "lon": "-7.706052226359354",
      "lat": "40.67018931787046"
    },
    {
      "id": "pt.ine.add.PTCONT.5557603",
      "street": "R CASAINHO",
      "house": "",
      "postcode": "3550-166",
      "city": "PENALVA DO CASTELO",
      "lon": "-7.706052226359354",
      "lat": "40.67018931787046"
    },
    {
      "id": "pt.ine.add.PTCONT.5557862",
      "street": "R CASAINHO",
      "house": "",
      "postcode": "3550-166",
      "city": "PENALVA DO CASTELO",
      "lon": "-7.706052226359354",
      "lat": "40.67018931787046"
    },
    {
      "id": "pt.ine.add.PTCONT.5570896",
      "street": "EN 329",
      "house": "",
      "postcode": "3550-167",
      "city": "PENALVA DO CASTELO",
      "lon": "-7.706772498801886",
      "lat": "40.67037208193205"
    },
    {
      "id": "pt.ine.add.PTCONT.5576030",
      "street": "BR CALVÁRIO",
      "house": "",
      "postcode": "3550-112",
      "city": "PENALVA DO CASTELO",
      "lon": "-7.7091284779016975",
      "lat": "40.66812047296691"
    },
    {
      "id": "pt.ine.add.PTCONT.5590852",
      "street": "EN 329",
      "house": "",
      "postcode": "3550-167",
      "city": "PENALVA DO CASTELO",
      "lon": "-7.707910024289715",
      "lat": "40.670034082181296"
    },
    {
      "id": "pt.ine.add.PTCONT.5615473",
      "street": "BR CALVÁRIO",
      "house": "",
      "postcode": "3550-112",
      "city": "PENALVA DO CASTELO",
      "lon": "-7.710559901451204",
      "lat": "40.668053679268986"
    },
    {
      "id": "pt.ine.add.PTCONT.5620552",
      "street": "QTA PRAZO",
      "house": "",
      "postcode": "3550-167",
      "city": "PENALVA DO CASTELO",
      "lon": "-7.711417455556627",
      "lat": "40.66709326660174"
    },
    {
      "id": "pt.ine.add.PTCONT.5656236",
      "street": "EN 329",
      "house": "",
      "postcode": "3550-167",
      "city": "PENALVA DO CASTELO",
      "lon": "-7.707602591928549",
      "lat": "40.67002394452443"
    },
    {
      "id": "pt.ine.add.PTCONT.5662328",
      "street": "BR CALVÁRIO",
      "house": "24",
      "postcode": "3550-112",
      "city": "PENALVA DO CASTELO",
      "lon": "-7.709424189581779",
      "lat": "40.668112553309825"
    },
    {
      "id": "pt.ine.add.PTCONT.5663677",
      "street": "R CASAINHO",
      "house": "",
      "postcode": "3550-166",
      "city": "PENALVA DO CASTELO",
      "lon": "-7.705788493345418",
      "lat": "40.66889160554405"
    }
  ]
}