{
  "data": {
    "distrito": "Viseu",
    "concelho": "Penalva do Castelo",
    "freguesia": "Ínsua",
    "OBJECTID": 68,
    "BGRI2021": "18110500114",
    "DT21": "18",
    "DTMN21": "1811",
    "DTMNFR21": "181105",
    "DTMNFRSEC21": "181105001",
    "SECNUM21": "001",
    "SSNUM21": "14",
    "SECSSNUM21": "00114",
    "OBJECTID_1": 194758,
    "DT": "18",
    "CC": "11",
    "fr": "05",
    "SEC": "001",
    "SS": "14"
  },
  "addresses": [
    {
      "id": "pt.ine.add.PTCONT.5441058",
      "street": "QTA ESPINHEIRO",
      "house": "",
      "postcode": "3550-164",
      "city": "PENALVA DO CASTELO",
      "lon": "-7.714600578896547",
      "lat": "40.67247189713088"
    },
    {
      "id": "pt.ine.add.PTCONT.5447652",
      "street": "",
      "house": "",
      "postcode": "3550-167",
      "city": "PENALVA DO CASTELO",
      "lon": "-7.713480035635086",
      "lat": "40.66632634055326"
    },
    {
      "id": "pt.ine.add.PTCONT.5457527",
      "street": "QTA VALE NAVIO",
      "house": "",
      "postcode": "3550-167",
      "city": "PENALVA DO CASTELO",
      "lon": "-7.718949793031922",
      "lat": "40.667255606643856"
    },
    {
      "id": "pt.ine.add.PTCONT.5465331",
      "street": "QTA TANGANHÃO",
      "house": "",
      "postcode": "3550-125",
      "city": "PENALVA DO CASTELO",
      "lon": "-7.720962141765981",
      "lat": "40.670792813624146"
    },
    {
      "id": "pt.ine.add.PTCONT.5517695",
      "street": "QTA PENEDO GORDO",
      "house": "",
      "postcode": "3550-167",
      "city": "PENALVA DO CASTELO",
      "lon": "-7.717120876045094",
      "lat": "40.664682572106024"
    },
    {
      "id": "pt.ine.add.PTCONT.5531254",
      "street": "QTA PRAZO",
      "house": "S N",
      "postcode": "3550-167",
      "city": "PENALVA DO CASTELO",
      "lon": "-7.714051623265626",
      "lat": "40.665698057876845"
    },
    {
      "id": "pt.ine.add.PTCONT.5539800",
      "street": "QTA ATOLEIROS",
      "house": "",
      "postcode": "3550-167",
      "city": "PENALVA DO CASTELO",
      "lon": "-7.713623559427991",
      "lat": "40.667956788820646"
    },
    {
      "id": "pt.ine.add.PTCONT.5552752",
      "street": "BELGA",
      "house": "",
      "postcode": "3550-167",
      "city": "PENALVA DO CASTELO",
      "lon": "-7.7138853859012855",
      "lat": "40.66580551590621"
    },
    {
      "id": "pt.ine.add.PTCONT.5557467",
      "street": "QTA ESPINHEIRO",
      "house": "",
      "postcode": "3550-164",
      "city": "PENALVA DO CASTELO",
      "lon": "-7.7149634883492855",
      "lat": "40.67117647568265"
    },
    {
      "id": "pt.ine.add.PTCONT.5567056",
      "street": "QTA ESPINHEIRO",
      "house": "",
      "postcode": "3550-164",
      "city": "PENALVA DO CASTELO",
      "lon": "-7.714227420015848",
      "lat": "40.669732989258065"
    },
    {
      "id": "pt.ine.add.PTCONT.5583254",
      "street": "QTA ESPINHEIRO",
      "house": "",
      "postcode": "3550-164",
      "city": "PENALVA DO CASTELO",
      "lon": "-7.716246153552653",
      "lat": "40.67221670175805"
    },
    {
      "id": "pt.ine.add.PTCONT.5587326",
      "street": "QTA ATOLEIROS",
      "house": "",
      "postcode": "3550-167",
      "city": "PENALVA DO CASTELO",
      "lon": "-7.712635251865473",
      "lat": "40.6671427333049"
    },
    {
      "id": "pt.ine.add.PTCONT.5600091",
      "street": "QTA CASTELHANOS",
      "house": "",
      "postcode": "3550-167",
      "city": "PENALVA DO CASTELO",
      "lon": "-7.7139051469923885",
      "lat": "40.66642694105936"
    },
    {
      "id": "pt.ine.add.PTCONT.5604104",
      "street": "EN 329",
      "house": "",
      "postcode": "3550-167",
      "city": "PENALVA DO CASTELO",
      "lon": "-7.713683783417858",
      "lat": "40.66589483499234"
    },
    {
      "id": "pt.ine.add.PTCONT.5636538",
      "street": "BELGA DA ESTRADA",
      "house": "",
      "postcode": "3550-167",
      "city": "PENALVA DO CASTELO",
      "lon": "-7.713505267655528",
      "lat": "40.66607428884315"
    },
    {
      "id": "pt.ine.add.PTCONT.5656259",
      "street": "QTA PRAZO",
      "house": "",
      "postcode": "3550-167",
      "city": "PENALVA DO CASTELO",
      "lon": "-7.714501734361741",
      "lat": "40.66558262397838"
    },
    {
      "id": "pt.ine.add.PTCONT.5665413",
      "street": "QTA ATOLEIROS",
      "house": "",
      "postcode": "3550-167",
      "city": "PENALVA DO CASTELO",
      "lon": "-7.712539682020286",
      "lat": "40.667295472280024"
    }
  ]
}