{
  "data": {
    "distrito": "Viseu",
    "concelho": "Penalva do Castelo",
    "freguesia": "Ínsua",
    "OBJECTID": 367,
    "BGRI2021": "18110500133",
    "DT21": "18",
    "DTMN21": "1811",
    "DTMNFR21": "181105",
    "DTMNFRSEC21": "181105001",
    "SECNUM21": "001",
    "SSNUM21": "33",
    "SECSSNUM21": "00133",
    "OBJECTID_1": 194502,
    "DT": "18",
    "CC": "11",
    "fr": "05",
    "SEC": "001",
    "SS": "33"
  },
  "addresses": [
    {
      "id": "pt.ine.add.PTCONT.5435493",
      "street": "QTA SENHORA DA RIBEIRA",
      "house": "",
      "postcode": "3550-102",
      "city": "PENALVA DO CASTELO",
      "lon": "-7.71218908831218",
      "lat": "40.679793287419486"
    },
    {
      "id": "pt.ine.add.PTCONT.5460131",
      "street": "QTA SENHORA DA RIBEIRA",
      "house": "",
      "postcode": "3550-102",
      "city": "PENALVA DO CASTELO",
      "lon": "-7.711203369012054",
      "lat": "40.680420046580295"
    },
    {
      "id": "pt.ine.add.PTCONT.5517798",
      "street": "QTA SENHORA DA RIBEIRA",
      "house": "",
      "postcode": "3550-102",
      "city": "PENALVA DO CASTELO",
      "lon": "-7.712754412209674",
      "lat": "40.68018256632058"
    },
    {
      "id": "pt.ine.add.PTCONT.5559723",
      "street": "QTA CHÃOS DE PORCAS",
      "house": "",
      "postcode": "3550-187",
      "city": "PENALVA DO CASTELO",
      "lon": "-7.716450571525159",
      "lat": "40.67737736694134"
    },
    {
      "id": "pt.ine.add.PTCONT.5563929",
      "street": "QTA SENHORA DA RIBEIRA",
      "house": "",
      "postcode": "3550-102",
      "city": "PENALVA DO CASTELO",
      "lon": "-7.713828025110846",
      "lat": "40.68062771999481"
    },
    {
      "id": "pt.ine.add.PTCONT.5585632",
      "street": "QTA CHÃOS DE PORCAS",
      "house": "",
      "postcode": "3550-187",
      "city": "PENALVA DO CASTELO",
      "lon": "-7.713305915597834",
      "lat": "40.67900490470315"
    },
    {
      "id": "pt.ine.add.PTCONT.5618649",
      "street": "QTA SENHORA DA RIBEIRA",
      "house": "",
      "postcode": "3550-102",
      "city": "PENALVA DO CASTELO",
      "lon": "-7.7135550119917635",
      "lat": "40.68077981491307"
    },
    {
      "id": "pt.ine.add.PTCONT.5648026",
      "street": "QTA MOINHOS DO POMBAL",
      "house": "",
      "postcode": "3550-173",
      "city": "PENALVA DO CASTELO",
      "lon": "-7.712695444288447",
      "lat": "40.68203740186789"
    },
    {
      "id": "pt.ine.add.PTCONT.5654586",
      "street": "QTA SENHORA DA RIBEIRA",
      "house": "",
      "postcode": "3550-102",
      "city": "PENALVA DO CASTELO",
      "lon": "-7.713034617582336",
      "lat": "40.68076891760394"
    }
  ]
}