{
  "data": {
    "distrito": "Santarém",
    "concelho": "Ourém",
    "freguesia": "União das freguesias de Freixianda, Ribeira do Fárrio e Formigais",
    "OBJECTID": 987,
    "BGRI2021": "14211900113",
    "DT21": "14",
    "DTMN21": "1421",
    "DTMNFR21": "142119",
    "DTMNFRSEC21": "142119001",
    "SECNUM21": "001",
    "SSNUM21": "13",
    "SECSSNUM21": "00113",
    "OBJECTID_1": 159543,
    "DT": "14",
    "CC": "21",
    "fr": "19",
    "SEC": "001",
    "SS": "13"
  },
  "addresses": [
    {
      "id": "pt.ine.add.PTCONT.4394881",
      "street": "R S VICENTE",
      "house": "",
      "postcode": "2435-205",
      "city": "FORMIGAIS",
      "lon": "-8.450830151251202",
      "lat": "39.7123977226846"
    },
    {
      "id": "pt.ine.add.PTCONT.4421678",
      "street": "R S VICENTE",
      "house": "",
      "postcode": "2435-205",
      "city": "FORMIGAIS",
      "lon": "-8.450062636398053",
      "lat": "39.71286816470354"
    },
    {
      "id": "pt.ine.add.PTCONT.4421717",
      "street": "R GAITEIRO",
      "house": "263",
      "postcode": "2435-210",
      "city": "FORMIGAIS",
      "lon": "-8.444843008918433",
      "lat": "39.70875726209926"
    },
    {
      "id": "pt.ine.add.PTCONT.4421729",
      "street": "R LARANJEIRAS",
      "house": "",
      "postcode": "2435-210",
      "city": "FORMIGAIS",
      "lon": "-8.445168783208494",
      "lat": "39.70859426769475"
    },
    {
      "id": "pt.ine.add.PTCONT.4423801",
      "street": "R S VICENTE",
      "house": "",
      "postcode": "2435-205",
      "city": "FORMIGAIS",
      "lon": "-8.450944658158244",
      "lat": "39.71193807158759"
    },
    {
      "id": "pt.ine.add.PTCONT.4425912",
      "street": "R S VICENTE",
      "house": "",
      "postcode": "2435-205",
      "city": "FORMIGAIS",
      "lon": "-8.450492793592627",
      "lat": "39.712578777779115"
    },
    {
      "id": "pt.ine.add.PTCONT.4431590",
      "street": "R OLIVEIRAS",
      "house": "",
      "postcode": "2435-210",
      "city": "FORMIGAIS",
      "lon": "-8.446728605216308",
      "lat": "39.70798662091072"
    },
    {
      "id": "pt.ine.add.PTCONT.4433972",
      "street": "R PRINCIPAL",
      "house": "",
      "postcode": "2435-205",
      "city": "FORMIGAIS",
      "lon": "-8.449945939558765",
      "lat": "39.71030159576951"
    },
    {
      "id": "pt.ine.add.PTCONT.4434005",
      "street": "R PRINCIPAL",
      "house": "",
      "postcode": "2435-210",
      "city": "FORMIGAIS",
      "lon": "-8.44739367654702",
      "lat": "39.70807488890166"
    },
    {
      "id": "pt.ine.add.PTCONT.4438417",
      "street": "R OLIVEIRAS",
      "house": "",
      "postcode": "2435-210",
      "city": "FORMIGAIS",
      "lon": "-8.44649612369067",
      "lat": "39.70814936793663"
    },
    {
      "id": "pt.ine.add.PTCONT.4443862",
      "street": "R PRINCIPAL",
      "house": "",
      "postcode": "2435-205",
      "city": "FORMIGAIS",
      "lon": "-8.451232139218394",
      "lat": "39.71105463526522"
    },
    {
      "id": "pt.ine.add.PTCONT.4454748",
      "street": "R PRINCIPAL",
      "house": "",
      "postcode": "2435-210",
      "city": "FORMIGAIS",
      "lon": "-8.448412098669788",
      "lat": "39.70893676404495"
    },
    {
      "id": "pt.ine.add.PTCONT.4463046",
      "street": "R PRINCIPAL",
      "house": "",
      "postcode": "2435-210",
      "city": "FORMIGAIS",
      "lon": "-8.447662528499404",
      "lat": "39.70821826692078"
    },
    {
      "id": "pt.ine.add.PTCONT.4473277",
      "street": "R PRINCIPAL",
      "house": "415",
      "postcode": "2435-210",
      "city": "FORMIGAIS",
      "lon": "-8.446926470717488",
      "lat": "39.707905026639374"
    },
    {
      "id": "pt.ine.add.PTCONT.4481656",
      "street": "R PRINCIPAL",
      "house": "",
      "postcode": "2435-205",
      "city": "FORMIGAIS",
      "lon": "-8.449724007442176",
      "lat": "39.71022114154319"
    },
    {
      "id": "pt.ine.add.PTCONT.4481657",
      "street": "R PRINCIPAL",
      "house": "",
      "postcode": "2435-205",
      "city": "FORMIGAIS",
      "lon": "-8.449501623278357",
      "lat": "39.71004161524786"
    },
    {
      "id": "pt.ine.add.PTCONT.4503239",
      "street": "R S VICENTE",
      "house": "",
      "postcode": "2435-205",
      "city": "FORMIGAIS",
      "lon": "-8.450329944867455",
      "lat": "39.712669289028916"
    },
    {
      "id": "pt.ine.add.PTCONT.4505454",
      "street": "R PRINCIPAL",
      "house": "",
      "postcode": "2435-210",
      "city": "FORMIGAIS",
      "lon": "-8.447861457621537",
      "lat": "39.70837084050899"
    },
    {
      "id": "pt.ine.add.PTCONT.4513003",
      "street": "R S VICENTE",
      "house": "250",
      "postcode": "2435-205",
      "city": "FORMIGAIS",
      "lon": "-8.45029562024908",
      "lat": "39.71281348873569"
    },
    {
      "id": "pt.ine.add.PTCONT.4520927",
      "street": "R PRINCIPAL",
      "house": "",
      "postcode": "2435-210",
      "city": "FORMIGAIS",
      "lon": "-8.448084159804662",
      "lat": "39.70862242216707"
    },
    {
      "id": "pt.ine.add.PTCONT.4529359",
      "street": "R GAITEIRO",
      "house": "",
      "postcode": "2435-210",
      "city": "FORMIGAIS",
      "lon": "-8.444949011097375",
      "lat": "39.70899114977167"
    },
    {
      "id": "pt.ine.add.PTCONT.4529379",
      "street": "R PRINCIPAL",
      "house": "",
      "postcode": "2435-210",
      "city": "FORMIGAIS",
      "lon": "-8.448528953825338",
      "lat": "39.70899048641986"
    },
    {
      "id": "pt.ine.add.PTCONT.4537794",
      "street": "R PRINCIPAL",
      "house": "",
      "postcode": "2435-210",
      "city": "FORMIGAIS",
      "lon": "-8.449044909804869",
      "lat": "39.709619547481935"
    },
    {
      "id": "pt.ine.add.PTCONT.4544477",
      "street": "R S VICENTE",
      "house": "",
      "postcode": "2435-205",
      "city": "FORMIGAIS",
      "lon": "-8.450096631744078",
      "lat": "39.71265191299844"
    },
    {
      "id": "pt.ine.add.PTCONT.4604299",
      "street": "R PRINCIPAL",
      "house": "",
      "postcode": "2435-205",
      "city": "FORMIGAIS",
      "lon": "-8.451442704241384",
      "lat": "39.711198164118514"
    },
    {
      "id": "pt.ine.add.PTCONT.4610237",
      "street": "R BISPO",
      "house": "",
      "postcode": "2435-205",
      "city": "FORMIGAIS",
      "lon": "-8.450954583568715",
      "lat": "39.71155976628553"
    },
    {
      "id": "pt.ine.add.PTCONT.4628235",
      "street": "R OLIVEIRAS",
      "house": "",
      "postcode": "2435-210",
      "city": "FORMIGAIS",
      "lon": "-8.446753150160772",
      "lat": "39.70825675346554"
    },
    {
      "id": "pt.ine.add.PTCONT.4637175",
      "street": "R S VICENTE",
      "house": "",
      "postcode": "2435-205",
      "city": "FORMIGAIS",
      "lon": "-8.451293672896027",
      "lat": "39.71175698322063"
    },
    {
      "id": "pt.ine.add.PTCONT.4646293",
      "street": "R PRINCIPAL",
      "house": "",
      "postcode": "2435-210",
      "city": "FORMIGAIS",
      "lon": "-8.44862302065075",
      "lat": "39.709161356749874"
    },
    {
      "id": "pt.ine.add.PTCONT.4646294",
      "street": "R PRINCIPAL",
      "house": "",
      "postcode": "2435-210",
      "city": "FORMIGAIS",
      "lon": "-8.448798920004629",
      "lat": "39.70937703766348"
    },
    {
      "id": "pt.ine.add.PTCONT.4649544",
      "street": "R PRINCIPAL",
      "house": "",
      "postcode": "2435-205",
      "city": "FORMIGAIS",
      "lon": "-8.45171194955975",
      "lat": "39.71142259118346"
    },
    {
      "id": "pt.ine.add.PTCONT.4659010",
      "street": "R S VICENTE",
      "house": "",
      "postcode": "2435-205",
      "city": "FORMIGAIS",
      "lon": "-8.452039503421949",
      "lat": "39.71164685746282"
    }
  ]
}