{
  "data": {
    "distrito": "Évora",
    "concelho": "Vila Viçosa",
    "freguesia": "Bencatel",
    "OBJECTID": 188,
    "BGRI2021": "07140100209",
    "DT21": "07",
    "DTMN21": "0714",
    "DTMNFR21": "071401",
    "DTMNFRSEC21": "071401002",
    "SECNUM21": "002",
    "SSNUM21": "09",
    "SECSSNUM21": "00209",
    "OBJECTID_1": 64132,
    "DT": "07",
    "CC": "14",
    "fr": "01",
    "SEC": "002",
    "SS": "09"
  },
  "addresses": [
    {
      "id": "pt.ine.add.PTCONT.1371929",
      "street": "ESTR ALANDROAL",
      "house": "4",
      "postcode": "7160-065",
      "city": "BENCATEL",
      "lon": "-7.447942378550529",
      "lat": "38.74572513323856"
    },
    {
      "id": "pt.ine.add.PTCONT.1375278",
      "street": "ESTR ALANDROAL",
      "house": "20",
      "postcode": "7160-065",
      "city": "BENCATEL",
      "lon": "-7.448257166644302",
      "lat": "38.74603515710053"
    },
    {
      "id": "pt.ine.add.PTCONT.1375799",
      "street": "LG CLAUDINO CANDEIAS",
      "house": "5",
      "postcode": "7160-010",
      "city": "BENCATEL",
      "lon": "-7.44845657165048",
      "lat": "38.74563096498186"
    },
    {
      "id": "pt.ine.add.PTCONT.1378851",
      "street": "LG CLAUDINO CANDEIAS",
      "house": "",
      "postcode": "7160-010",
      "city": "BENCATEL",
      "lon": "-7.448529246255791",
      "lat": "38.74568743752871"
    },
    {
      "id": "pt.ine.add.PTCONT.1379472",
      "street": "LG CLAUDINO CANDEIAS",
      "house": "33",
      "postcode": "7160-010",
      "city": "BENCATEL",
      "lon": "-7.449413026621788",
      "lat": "38.746654467661365"
    },
    {
      "id": "pt.ine.add.PTCONT.1380251",
      "street": "LG CLAUDINO CANDEIAS",
      "house": "15",
      "postcode": "7160-010",
      "city": "BENCATEL",
      "lon": "-7.448803723724891",
      "lat": "38.74598092475902"
    },
    {
      "id": "pt.ine.add.PTCONT.1381136",
      "street": "ESTR ALANDROAL",
      "house": "60",
      "postcode": "7160-065",
      "city": "BENCATEL",
      "lon": "-7.449006546619997",
      "lat": "38.7468129444981"
    },
    {
      "id": "pt.ine.add.PTCONT.1383973",
      "street": "ESTR ALANDROAL",
      "house": "48",
      "postcode": "7160-065",
      "city": "BENCATEL",
      "lon": "-7.448792601385633",
      "lat": "38.74657877314842"
    },
    {
      "id": "pt.ine.add.PTCONT.1387636",
      "street": "LG CLAUDINO CANDEIAS",
      "house": "21",
      "postcode": "7160-010",
      "city": "BENCATEL",
      "lon": "-7.449026339089738",
      "lat": "38.746192797085904"
    },
    {
      "id": "pt.ine.add.PTCONT.1388415",
      "street": "LG CLAUDINO CANDEIAS",
      "house": "27",
      "postcode": "7160-010",
      "city": "BENCATEL",
      "lon": "-7.449212508305851",
      "lat": "38.74642299783377"
    },
    {
      "id": "pt.ine.add.PTCONT.1389141",
      "street": "ESTR ALANDROAL",
      "house": "28",
      "postcode": "7160-065",
      "city": "BENCATEL",
      "lon": "-7.448405230026471",
      "lat": "38.7461891605591"
    },
    {
      "id": "pt.ine.add.PTCONT.1392708",
      "street": "ESTR ALANDROAL",
      "house": "14",
      "postcode": "7160-065",
      "city": "BENCATEL",
      "lon": "-7.448131677506178",
      "lat": "38.74592632576066"
    },
    {
      "id": "pt.ine.add.PTCONT.1392709",
      "street": "ESTR ALANDROAL",
      "house": "24",
      "postcode": "7160-065",
      "city": "BENCATEL",
      "lon": "-7.448327866060582",
      "lat": "38.74611383193643"
    },
    {
      "id": "pt.ine.add.PTCONT.1395114",
      "street": "LG CLAUDINO CANDEIAS",
      "house": "17",
      "postcode": "7160-010",
      "city": "BENCATEL",
      "lon": "-7.448866600411389",
      "lat": "38.74605674207766"
    },
    {
      "id": "pt.ine.add.PTCONT.1397447",
      "street": "LG CLAUDINO CANDEIAS",
      "house": "9",
      "postcode": "7160-010",
      "city": "BENCATEL",
      "lon": "-7.448598614809066",
      "lat": "38.74576562788769"
    },
    {
      "id": "pt.ine.add.PTCONT.1399063",
      "street": "LG CLAUDINO CANDEIAS",
      "house": "23",
      "postcode": "7160-010",
      "city": "BENCATEL",
      "lon": "-7.449094749597027",
      "lat": "38.74625625345289"
    },
    {
      "id": "pt.ine.add.PTCONT.1399064",
      "street": "ESTR ALANDROAL",
      "house": "44",
      "postcode": "7160-065",
      "city": "BENCATEL",
      "lon": "-7.44871954180484",
      "lat": "38.74650527879333"
    },
    {
      "id": "pt.ine.add.PTCONT.1402008",
      "street": "ESTR ALANDROAL",
      "house": "40",
      "postcode": "7160-065",
      "city": "BENCATEL",
      "lon": "-7.448644933336589",
      "lat": "38.746421625103594"
    },
    {
      "id": "pt.ine.add.PTCONT.1402834",
      "street": "LG CLAUDINO CANDEIAS",
      "house": "1",
      "postcode": "7160-010",
      "city": "BENCATEL",
      "lon": "-7.4483083372081795",
      "lat": "38.745494976586016"
    },
    {
      "id": "pt.ine.add.PTCONT.1403534",
      "street": "ESTR ALANDROAL",
      "house": "30",
      "postcode": "7160-065",
      "city": "BENCATEL",
      "lon": "-7.448439720655656",
      "lat": "38.74622939775937"
    },
    {
      "id": "pt.ine.add.PTCONT.1406730",
      "street": "LG CLAUDINO CANDEIAS",
      "house": "31",
      "postcode": "7160-010",
      "city": "BENCATEL",
      "lon": "-7.449333285202975",
      "lat": "38.74657292919332"
    },
    {
      "id": "pt.ine.add.PTCONT.1408395",
      "street": "ESTR ALANDROAL",
      "house": "10",
      "postcode": "7160-065",
      "city": "BENCATEL",
      "lon": "-7.448065447360363",
      "lat": "38.74583247238552"
    },
    {
      "id": "pt.ine.add.PTCONT.1412276",
      "street": "LG CLAUDINO CANDEIAS",
      "house": "11",
      "postcode": "7160-010",
      "city": "BENCATEL",
      "lon": "-7.448673130386629",
      "lat": "38.74583941730443"
    },
    {
      "id": "pt.ine.add.PTCONT.1412692",
      "street": "ESTR ALANDROAL",
      "house": "36",
      "postcode": "7160-065",
      "city": "BENCATEL",
      "lon": "-7.448564796086425",
      "lat": "38.74634323119061"
    },
    {
      "id": "pt.ine.add.PTCONT.1416369",
      "street": "LG CLAUDINO CANDEIAS",
      "house": "3",
      "postcode": "7160-010",
      "city": "BENCATEL",
      "lon": "-7.448365330534553",
      "lat": "38.745549358491374"
    },
    {
      "id": "pt.ine.add.PTCONT.1418494",
      "street": "R GERALDO ALVORADO",
      "house": "1",
      "postcode": "7160-010",
      "city": "BENCATEL",
      "lon": "-7.449065900953509",
      "lat": "38.74686862891784"
    },
    {
      "id": "pt.ine.add.PTCONT.1418495",
      "street": "ESTR ALANDROAL",
      "house": "32",
      "postcode": "7160-065",
      "city": "BENCATEL",
      "lon": "-7.448489515976493",
      "lat": "38.74627273055839"
    },
    {
      "id": "pt.ine.add.PTCONT.1419875",
      "street": "ESTR ALANDROAL",
      "house": "52",
      "postcode": "7160-065",
      "city": "BENCATEL",
      "lon": "-7.44886092607114",
      "lat": "38.74665123715015"
    },
    {
      "id": "pt.ine.add.PTCONT.1425555",
      "street": "ESTR ALANDROAL",
      "house": "46",
      "postcode": "7160-065",
      "city": "BENCATEL",
      "lon": "-7.448752749837093",
      "lat": "38.74654579574606"
    },
    {
      "id": "pt.ine.add.PTCONT.1426024",
      "street": "ESTR ALANDROAL",
      "house": "54",
      "postcode": "7160-065",
      "city": "BENCATEL",
      "lon": "-7.4488835003923475",
      "lat": "38.74669640931003"
    },
    {
      "id": "pt.ine.add.PTCONT.1432854",
      "street": "ESTR ALANDROAL",
      "house": "16",
      "postcode": "7160-065",
      "city": "BENCATEL",
      "lon": "-7.448177341170521",
      "lat": "38.74596262535407"
    },
    {
      "id": "pt.ine.add.PTCONT.1433682",
      "street": "ESTR ALANDROAL",
      "house": "42",
      "postcode": "7160-065",
      "city": "BENCATEL",
      "lon": "-7.448687264806423",
      "lat": "38.74646290983197"
    },
    {
      "id": "pt.ine.add.PTCONT.1438895",
      "street": "ESTR ALANDROAL",
      "house": "2",
      "postcode": "7160-065",
      "city": "BENCATEL",
      "lon": "-7.447905616441094",
      "lat": "38.74569322488826"
    },
    {
      "id": "pt.ine.add.PTCONT.1442895",
      "street": "ESTR ALANDROAL",
      "house": "58",
      "postcode": "7160-065",
      "city": "BENCATEL",
      "lon": "-7.448975106378972",
      "lat": "38.74677844540256"
    },
    {
      "id": "pt.ine.add.PTCONT.1444160",
      "street": "LG CLAUDINO CANDEIAS",
      "house": "25",
      "postcode": "7160-010",
      "city": "BENCATEL",
      "lon": "-7.449139984262314",
      "lat": "38.746337590182776"
    },
    {
      "id": "pt.ine.add.PTCONT.1444975",
      "street": "ESTR ALANDROAL",
      "house": "38",
      "postcode": "7160-065",
      "city": "BENCATEL",
      "lon": "-7.448610374228254",
      "lat": "38.74638853811726"
    },
    {
      "id": "pt.ine.add.PTCONT.1446547",
      "street": "ESTR ALANDROAL",
      "house": "12",
      "postcode": "7160-065",
      "city": "BENCATEL",
      "lon": "-7.448109189964373",
      "lat": "38.745872145955765"
    },
    {
      "id": "pt.ine.add.PTCONT.1446748",
      "street": "ESTR ALANDROAL",
      "house": "26",
      "postcode": "7160-065",
      "city": "BENCATEL",
      "lon": "-7.448374547404446",
      "lat": "38.746152233576794"
    },
    {
      "id": "pt.ine.add.PTCONT.1450432",
      "street": "LG CLAUDINO CANDEIAS",
      "house": "29",
      "postcode": "7160-010",
      "city": "BENCATEL",
      "lon": "-7.449265046034199",
      "lat": "38.74649145796144"
    },
    {
      "id": "pt.ine.add.PTCONT.1450433",
      "street": "LG CLAUDINO CANDEIAS",
      "house": "13",
      "postcode": "7160-010",
      "city": "BENCATEL",
      "lon": "-7.448730038272089",
      "lat": "38.74590280653532"
    },
    {
      "id": "pt.ine.add.PTCONT.1451135",
      "street": "ESTR ALANDROAL",
      "house": "34",
      "postcode": "7160-065",
      "city": "BENCATEL",
      "lon": "-7.448519111503163",
      "lat": "38.746309076432816"
    },
    {
      "id": "pt.ine.add.PTCONT.1455772",
      "street": "ESTR ALANDROAL",
      "house": "8",
      "postcode": "7160-065",
      "city": "BENCATEL",
      "lon": "-7.4480293648208775",
      "lat": "38.74579961410926"
    },
    {
      "id": "pt.ine.add.PTCONT.1456466",
      "street": "ESTR ALANDROAL",
      "house": "6",
      "postcode": "7160-065",
      "city": "BENCATEL",
      "lon": "-7.44798378741853",
      "lat": "38.7457543069583"
    },
    {
      "id": "pt.ine.add.PTCONT.1457231",
      "street": "ESTR ALANDROAL",
      "house": "50",
      "postcode": "7160-065",
      "city": "BENCATEL",
      "lon": "-7.448819283195541",
      "lat": "38.74661467400799"
    },
    {
      "id": "pt.ine.add.PTCONT.1458595",
      "street": "ESTR ALANDROAL",
      "house": "22",
      "postcode": "7160-065",
      "city": "BENCATEL",
      "lon": "-7.448296229190352",
      "lat": "38.74608047552091"
    },
    {
      "id": "pt.ine.add.PTCONT.1459568",
      "street": "LG CLAUDINO CANDEIAS",
      "house": "19",
      "postcode": "7160-010",
      "city": "BENCATEL",
      "lon": "-7.448930203314161",
      "lat": "38.746126746243114"
    },
    {
      "id": "pt.ine.add.PTCONT.1461913",
      "street": "ESTR ALANDROAL",
      "house": "18",
      "postcode": "7160-065",
      "city": "BENCATEL",
      "lon": "-7.44821548619013",
      "lat": "38.746002596678714"
    },
    {
      "id": "pt.ine.add.PTCONT.1463277",
      "street": "ESTR ALANDROAL",
      "house": "56",
      "postcode": "7160-065",
      "city": "BENCATEL",
      "lon": "-7.448929520934417",
      "lat": "38.746733853812366"
    }
  ]
}