{
  "data": {
    "distrito": "Faro",
    "concelho": "Faro",
    "freguesia": "União das freguesias de Faro (Sé e São Pedro)",
    "OBJECTID": 5,
    "BGRI2021": "08050803722",
    "DT21": "08",
    "DTMN21": "0805",
    "DTMNFR21": "080508",
    "DTMNFRSEC21": "080508037",
    "SECNUM21": "037",
    "SSNUM21": "22",
    "SECSSNUM21": "03722",
    "OBJECTID_1": 66219,
    "DT": "08",
    "CC": "05",
    "fr": "08",
    "SEC": "037",
    "SS": "22"
  },
  "addresses": [
    {
      "id": "pt.ine.add.PTCONT.1469717",
      "street": "R MONTEPIO",
      "house": "5",
      "postcode": "8000-300",
      "city": "FARO",
      "lon": "-7.933769597331753",
      "lat": "37.014991503188185"
    },
    {
      "id": "pt.ine.add.PTCONT.1487324",
      "street": "R MISERICÓRDIA",
      "house": "17",
      "postcode": "8000-269",
      "city": "FARO",
      "lon": "-7.933859843161321",
      "lat": "37.01485649294002"
    },
    {
      "id": "pt.ine.add.PTCONT.1491552",
      "street": "R MISERICÓRDIA",
      "house": "13",
      "postcode": "8000-269",
      "city": "FARO",
      "lon": "-7.933972138629315",
      "lat": "37.01488371377308"
    },
    {
      "id": "pt.ine.add.PTCONT.1513134",
      "street": "R MONTEPIO",
      "house": "9",
      "postcode": "8000-300",
      "city": "FARO",
      "lon": "-7.933724297741275",
      "lat": "37.01512658888238"
    },
    {
      "id": "pt.ine.add.PTCONT.1525082",
      "street": "R MONTEPIO",
      "house": "7",
      "postcode": "8000-300",
      "city": "FARO",
      "lon": "-7.933746935787655",
      "lat": "37.01506355141109"
    },
    {
      "id": "pt.ine.add.PTCONT.1544317",
      "street": "R MISERICÓRDIA",
      "house": "3",
      "postcode": "8000-269",
      "city": "FARO",
      "lon": "-7.934623627347574",
      "lat": "37.014974912984506"
    },
    {
      "id": "pt.ine.add.PTCONT.1594749",
      "street": "ROT ROTUNDA HOTEL FARO",
      "house": "",
      "postcode": "8000-364",
      "city": "FARO",
      "lon": "-7.935182116513451",
      "lat": "37.01626438799327"
    },
    {
      "id": "pt.ine.add.PTCONT.1597875",
      "street": "GOVERNO CIVIL",
      "house": "",
      "postcode": "8000-482",
      "city": "FARO",
      "lon": "-7.935399537591387",
      "lat": "37.01475093843316"
    },
    {
      "id": "pt.ine.add.PTCONT.1617599",
      "street": "R MISERICÓRDIA",
      "house": "19",
      "postcode": "8000-269",
      "city": "FARO",
      "lon": "-7.93380368369194",
      "lat": "37.014847387857046"
    },
    {
      "id": "pt.ine.add.PTCONT.1626563",
      "street": "R MISERICÓRDIA",
      "house": "11",
      "postcode": "8000-269",
      "city": "FARO",
      "lon": "-7.934039511248096",
      "lat": "37.01490184837135"
    },
    {
      "id": "pt.ine.add.PTCONT.1664259",
      "street": "R MISERICÓRDIA",
      "house": "9",
      "postcode": "8000-269",
      "city": "FARO",
      "lon": "-7.934095647289402",
      "lat": "37.014919964089636"
    },
    {
      "id": "pt.ine.add.PTCONT.1721604",
      "street": "R MISERICÓRDIA",
      "house": "15",
      "postcode": "8000-269",
      "city": "FARO",
      "lon": "-7.9339047425234375",
      "lat": "37.014874589883384"
    },
    {
      "id": "pt.ine.add.PTCONT.1755611",
      "street": "R MONTEPIO",
      "house": "3",
      "postcode": "8000-300",
      "city": "FARO",
      "lon": "-7.933792258832769",
      "lat": "37.01491945495996"
    },
    {
      "id": "pt.ine.add.PTCONT.1771707",
      "street": "R MONTEPIO",
      "house": "11",
      "postcode": "8000-300",
      "city": "FARO",
      "lon": "-7.933712731510744",
      "lat": "37.01525272045055"
    },
    {
      "id": "pt.ine.add.PTCONT.1771708",
      "street": "R MONTEPIO",
      "house": "11",
      "postcode": "8000-300",
      "city": "FARO",
      "lon": "-7.933712731510744",
      "lat": "37.01525272045055"
    },
    {
      "id": "pt.ine.add.PTCONT.1771709",
      "street": "R MONTEPIO",
      "house": "11",
      "postcode": "8000-300",
      "city": "FARO",
      "lon": "-7.933712731510744",
      "lat": "37.01525272045055"
    },
    {
      "id": "pt.ine.add.PTCONT.1771710",
      "street": "R MONTEPIO",
      "house": "11",
      "postcode": "8000-300",
      "city": "FARO",
      "lon": "-7.933712731510744",
      "lat": "37.01525272045055"
    },
    {
      "id": "pt.ine.add.PTCONT.1771711",
      "street": "R MONTEPIO",
      "house": "11",
      "postcode": "8000-300",
      "city": "FARO",
      "lon": "-7.933712731510744",
      "lat": "37.01525272045055"
    },
    {
      "id": "pt.ine.add.PTCONT.1771712",
      "street": "R MONTEPIO",
      "house": "11",
      "postcode": "8000-300",
      "city": "FARO",
      "lon": "-7.933712731510744",
      "lat": "37.01525272045055"
    }
  ]
}