{
  "data": {
    "distrito": "Beja",
    "concelho": "Odemira",
    "freguesia": "Santa Clara-a-Velha",
    "OBJECTID": 1064,
    "BGRI2021": "02111900116",
    "DT21": "02",
    "DTMN21": "0211",
    "DTMNFR21": "021119",
    "DTMNFRSEC21": "021119001",
    "SECNUM21": "001",
    "SSNUM21": "16",
    "SECSSNUM21": "00116",
    "OBJECTID_1": 17286,
    "DT": "02",
    "CC": "11",
    "fr": "19",
    "SEC": "001",
    "SS": "16"
  },
  "addresses": [
    {
      "id": "pt.ine.add.PTCONT.353539",
      "street": "BC MACEIRA",
      "house": "1",
      "postcode": "7665-881",
      "city": "PEREIRAS-GARE",
      "lon": "-8.443903396458",
      "lat": "37.435069842173"
    },
    {
      "id": "pt.ine.add.PTCONT.354330",
      "street": "R POETA ANTONIO ALEIXO",
      "house": "",
      "postcode": "7665-881",
      "city": "PEREIRAS-GARE",
      "lon": "-8.44423648641745",
      "lat": "37.434932068752815"
    },
    {
      "id": "pt.ine.add.PTCONT.374134",
      "street": "R ANTÓNIO ALEXO",
      "house": "",
      "postcode": "7665-881",
      "city": "PEREIRAS-GARE",
      "lon": "-8.443881508237103",
      "lat": "37.435258243780396"
    },
    {
      "id": "pt.ine.add.PTCONT.374960",
      "street": "BC DA MACEIRA",
      "house": "",
      "postcode": "7665-881",
      "city": "PEREIRAS-GARE",
      "lon": "-8.443958708942144",
      "lat": "37.43511924340514"
    },
    {
      "id": "pt.ine.add.PTCONT.380550",
      "street": "BC DA MACEIRA",
      "house": "2",
      "postcode": "7665-881",
      "city": "PEREIRAS-GARE",
      "lon": "-8.443903426218819",
      "lat": "37.43520055108388"
    },
    {
      "id": "pt.ine.add.PTCONT.382165",
      "street": "R ANTÓNIO ALEXO",
      "house": "6",
      "postcode": "7665-881",
      "city": "PEREIRAS-GARE",
      "lon": "-8.444148490755627",
      "lat": "37.435051571876"
    },
    {
      "id": "pt.ine.add.PTCONT.384615",
      "street": "MTE REGADA",
      "house": "",
      "postcode": "7665-881",
      "city": "PEREIRAS-GARE",
      "lon": "-8.438181148314449",
      "lat": "37.434114499197754"
    },
    {
      "id": "pt.ine.add.PTCONT.390922",
      "street": "MTE PEDREIRAS VELHAS",
      "house": "",
      "postcode": "7665-881",
      "city": "PEREIRAS-GARE",
      "lon": "-8.440375312823909",
      "lat": "37.434413692497614"
    },
    {
      "id": "pt.ine.add.PTCONT.397493",
      "street": "R ANTÓNIO ALEXO",
      "house": "",
      "postcode": "7665-881",
      "city": "PEREIRAS-GARE",
      "lon": "-8.443977751741672",
      "lat": "37.43522696343458"
    },
    {
      "id": "pt.ine.add.PTCONT.403067",
      "street": "R ANTÓNIO ALEIXO",
      "house": "12",
      "postcode": "7665-881",
      "city": "PEREIRAS-GARE",
      "lon": "-8.44309588913576",
      "lat": "37.43650307496066"
    },
    {
      "id": "pt.ine.add.PTCONT.421694",
      "street": "MTE PEDREIRAS VELHAS",
      "house": "",
      "postcode": "7665-881",
      "city": "PEREIRAS-GARE",
      "lon": "-8.44037505499573",
      "lat": "37.43435062227601"
    },
    {
      "id": "pt.ine.add.PTCONT.422532",
      "street": "R ANTÓNIO ALEXO",
      "house": "4",
      "postcode": "7665-881",
      "city": "PEREIRAS-GARE",
      "lon": "-8.444201706190743",
      "lat": "37.43498138351208"
    },
    {
      "id": "pt.ine.add.PTCONT.424100",
      "street": "BC DA MACEIRA",
      "house": "4",
      "postcode": "7665-881",
      "city": "PEREIRAS-GARE",
      "lon": "-8.44394249383984",
      "lat": "37.435164125836906"
    },
    {
      "id": "pt.ine.add.PTCONT.428036",
      "street": "CM 1190",
      "house": "",
      "postcode": "7665-881",
      "city": "PEREIRAS-GARE",
      "lon": "-8.439002459443392",
      "lat": "37.43302068326758"
    },
    {
      "id": "pt.ine.add.PTCONT.429717",
      "street": "BC DA MACEIRA",
      "house": "",
      "postcode": "7665-881",
      "city": "PEREIRAS-GARE",
      "lon": "-8.444061221284947",
      "lat": "37.43499872193455"
    },
    {
      "id": "pt.ine.add.PTCONT.434659",
      "street": "MTE PEDREIRAS VELHAS",
      "house": "",
      "postcode": "7665-881",
      "city": "PEREIRAS-GARE",
      "lon": "-8.44028521600696",
      "lat": "37.434486007686026"
    },
    {
      "id": "pt.ine.add.PTCONT.436346",
      "street": "BC DA MACEIRA",
      "house": "",
      "postcode": "7665-881",
      "city": "PEREIRAS-GARE",
      "lon": "-8.44414463468844",
      "lat": "37.434820928210506"
    },
    {
      "id": "pt.ine.add.PTCONT.442047",
      "street": "MTE PEDREIRAS VELHAS",
      "house": "",
      "postcode": "7665-881",
      "city": "PEREIRAS-GARE",
      "lon": "-8.440238383647898",
      "lat": "37.43457172018295"
    },
    {
      "id": "pt.ine.add.PTCONT.444535",
      "street": "BC DA MACEIRA",
      "house": "",
      "postcode": "7665-881",
      "city": "PEREIRAS-GARE",
      "lon": "-8.444015825861152",
      "lat": "37.435067275953166"
    }
  ]
}