{
  "data": {
    "distrito": "Beja",
    "concelho": "Odemira",
    "freguesia": "Santa Clara-a-Velha",
    "OBJECTID": 418,
    "BGRI2021": "02111900160",
    "DT21": "02",
    "DTMN21": "0211",
    "DTMNFR21": "021119",
    "DTMNFRSEC21": "021119001",
    "SECNUM21": "001",
    "SSNUM21": "60",
    "SECSSNUM21": "00160",
    "OBJECTID_1": 17904,
    "DT": "02",
    "CC": "11",
    "fr": "19",
    "SEC": "001",
    "SS": "60"
  },
  "addresses": [
    {
      "id": "pt.ine.add.PTCONT.354631",
      "street": "MTE ARTORTA",
      "house": "",
      "postcode": "7665-859",
      "city": "SANTA CLARA-A-VELHA",
      "lon": "-8.427709141521557",
      "lat": "37.540962736944124"
    },
    {
      "id": "pt.ine.add.PTCONT.356219",
      "street": "MTE CABEÇO",
      "house": "",
      "postcode": "7665-859",
      "city": "SANTA CLARA-A-VELHA",
      "lon": "-8.42399487295013",
      "lat": "37.54312532684632"
    },
    {
      "id": "pt.ine.add.PTCONT.369281",
      "street": "MTE EIRINHAS VELHAS",
      "house": "",
      "postcode": "7665-880",
      "city": "SANTA CLARA-A-VELHA",
      "lon": "-8.434720338386054",
      "lat": "37.55116233026176"
    },
    {
      "id": "pt.ine.add.PTCONT.373356",
      "street": "MTE EIRINHAS NOVAS",
      "house": "",
      "postcode": "7665-869",
      "city": "SANTA CLARA-A-VELHA",
      "lon": "-8.432907832365874",
      "lat": "37.553527552875664"
    },
    {
      "id": "pt.ine.add.PTCONT.387012",
      "street": "CERRO DO COTOVIO",
      "house": "",
      "postcode": "7665-859",
      "city": "SANTA CLARA-A-VELHA",
      "lon": "-8.433266400115235",
      "lat": "37.530055682550284"
    },
    {
      "id": "pt.ine.add.PTCONT.388579",
      "street": "MTE CHOÇA",
      "house": "",
      "postcode": "7665-859",
      "city": "SANTA CLARA-A-VELHA",
      "lon": "-8.422686929888572",
      "lat": "37.544326866823276"
    },
    {
      "id": "pt.ine.add.PTCONT.392620",
      "street": "MTE MORADIAS",
      "house": "",
      "postcode": "7665-859",
      "city": "SANTA CLARA-A-VELHA",
      "lon": "-8.440349201355746",
      "lat": "37.552256041468006"
    },
    {
      "id": "pt.ine.add.PTCONT.394187",
      "street": "MTE EIRA NOVA",
      "house": "",
      "postcode": "7665-859",
      "city": "SANTA CLARA-A-VELHA",
      "lon": "-8.432485939226991",
      "lat": "37.54424837017169"
    },
    {
      "id": "pt.ine.add.PTCONT.400572",
      "street": "CORGO DA CUMEADA",
      "house": "",
      "postcode": "7665-859",
      "city": "SANTA CLARA-A-VELHA",
      "lon": "-8.428255169281234",
      "lat": "37.547439536567204"
    },
    {
      "id": "pt.ine.add.PTCONT.410494",
      "street": "MTE EIRINHAS NOVAS",
      "house": "",
      "postcode": "7665-869",
      "city": "SANTA CLARA-A-VELHA",
      "lon": "-8.432681855209415",
      "lat": "37.55361822590961"
    },
    {
      "id": "pt.ine.add.PTCONT.422540",
      "street": "MTE RETORTA",
      "house": "",
      "postcode": "7665-859",
      "city": "SANTA CLARA-A-VELHA",
      "lon": "-8.432878397733965",
      "lat": "37.54052625923191"
    },
    {
      "id": "pt.ine.add.PTCONT.425561",
      "street": "QTA BARRANCO DA ESTRADA",
      "house": "",
      "postcode": "7665-859",
      "city": "SANTA CLARA-A-VELHA",
      "lon": "-8.442755393423313",
      "lat": "37.53206743966662"
    },
    {
      "id": "pt.ine.add.PTCONT.425719",
      "street": "QTA BARRANCO DA ESTRADA",
      "house": "",
      "postcode": "7665-859",
      "city": "SANTA CLARA-A-VELHA",
      "lon": "-8.442755393423313",
      "lat": "37.53206743966662"
    },
    {
      "id": "pt.ine.add.PTCONT.450184",
      "street": "MTE BARRANCO DOS MADEIROS",
      "house": "",
      "postcode": "7665-859",
      "city": "SANTA CLARA-A-VELHA",
      "lon": "-8.430881213732592",
      "lat": "37.527701104431685"
    },
    {
      "id": "pt.ine.add.PTCONT.452605",
      "street": "MTE CUMEADA NOVA",
      "house": "",
      "postcode": "7665-861",
      "city": "SANTA CLARA-A-VELHA",
      "lon": "-8.422506761641314",
      "lat": "37.55040903080993"
    }
  ]
}