{
  "data": {
    "distrito": "Beja",
    "concelho": "Odemira",
    "freguesia": "Santa Clara-a-Velha",
    "OBJECTID": 165,
    "BGRI2021": "02111900167",
    "DT21": "02",
    "DTMN21": "0211",
    "DTMNFR21": "021119",
    "DTMNFRSEC21": "021119001",
    "SECNUM21": "001",
    "SSNUM21": "67",
    "SECSSNUM21": "00167",
    "OBJECTID_1": 17294,
    "DT": "02",
    "CC": "11",
    "fr": "19",
    "SEC": "001",
    "SS": "67"
  },
  "addresses": [
    {
      "id": "pt.ine.add.PTCONT.359513",
      "street": "MTE BARRANCO GRANDE",
      "house": "",
      "postcode": "7665-859",
      "city": "SANTA CLARA-A-VELHA",
      "lon": "-8.39506042568875",
      "lat": "37.575205397266686"
    },
    {
      "id": "pt.ine.add.PTCONT.374140",
      "street": "MTE GUERREIRAS",
      "house": "",
      "postcode": "7665-880",
      "city": "SANTA CLARA-A-VELHA",
      "lon": "-8.403758003634106",
      "lat": "37.56994200114738"
    },
    {
      "id": "pt.ine.add.PTCONT.381356",
      "street": "CASINHA DAS HORTAS",
      "house": "",
      "postcode": "7665-859",
      "city": "SANTA CLARA-A-VELHA",
      "lon": "-8.39103022864439",
      "lat": "37.58171943194045"
    },
    {
      "id": "pt.ine.add.PTCONT.385424",
      "street": "VALINHOS DE ALCANFORRA",
      "house": "",
      "postcode": "7665-859",
      "city": "SANTA CLARA-A-VELHA",
      "lon": "-8.404978251392583",
      "lat": "37.57243494688812"
    },
    {
      "id": "pt.ine.add.PTCONT.388577",
      "street": "MTE CORREGO DO PEREIRO",
      "house": "",
      "postcode": "7665-859",
      "city": "SANTA CLARA-A-VELHA",
      "lon": "-8.402573738891286",
      "lat": "37.577413936167304"
    },
    {
      "id": "pt.ine.add.PTCONT.412075",
      "street": "MTE CORCHA",
      "house": "",
      "postcode": "7665-859",
      "city": "SANTA CLARA-A-VELHA",
      "lon": "-8.39404850129908",
      "lat": "37.56745009040434"
    },
    {
      "id": "pt.ine.add.PTCONT.422588",
      "street": "MTE VALE MERANCIAS",
      "house": "",
      "postcode": "7665-859",
      "city": "SANTA CLARA-A-VELHA",
      "lon": "-8.404064009410318",
      "lat": "37.57941973605204"
    },
    {
      "id": "pt.ine.add.PTCONT.425669",
      "street": "MTE DO TOJAL",
      "house": "",
      "postcode": "7665-880",
      "city": "SANTA CLARA-A-VELHA",
      "lon": "-8.41084841926053",
      "lat": "37.57417821701836"
    },
    {
      "id": "pt.ine.add.PTCONT.427293",
      "street": "MTE LAMEIROS DE CIMA",
      "house": "",
      "postcode": "7665-859",
      "city": "SANTA CLARA-A-VELHA",
      "lon": "-8.40430942155607",
      "lat": "37.56280486830708"
    },
    {
      "id": "pt.ine.add.PTCONT.428926",
      "street": "MTE ALCAFORRA",
      "house": "",
      "postcode": "7665-859",
      "city": "SANTA CLARA-A-VELHA",
      "lon": "-8.404609506829775",
      "lat": "37.57376025422868"
    },
    {
      "id": "pt.ine.add.PTCONT.433827",
      "street": "MTE DO POÃ‡O",
      "house": "",
      "postcode": "7665-859",
      "city": "SANTA CLARA-A-VELHA",
      "lon": "-8.404997985922725",
      "lat": "37.58720214871833"
    },
    {
      "id": "pt.ine.add.PTCONT.437236",
      "street": "MTE SERRO ALTO",
      "house": "",
      "postcode": "7665-859",
      "city": "SANTA CLARA-A-VELHA",
      "lon": "-8.398590725764688",
      "lat": "37.56517846991177"
    },
    {
      "id": "pt.ine.add.PTCONT.444467",
      "street": "MTE SERRO ALTO",
      "house": "",
      "postcode": "7665-859",
      "city": "SANTA CLARA-A-VELHA",
      "lon": "-8.398839576832495",
      "lat": "37.56513286037932"
    },
    {
      "id": "pt.ine.add.PTCONT.444468",
      "street": "MTE BARRANCO DO PAU",
      "house": "",
      "postcode": "7665-859",
      "city": "SANTA CLARA-A-VELHA",
      "lon": "-8.4183158928134",
      "lat": "37.567240790277886"
    },
    {
      "id": "pt.ine.add.PTCONT.450948",
      "street": "VALE DA TRANCA",
      "house": "",
      "postcode": "7665-880",
      "city": "SANTA CLARA-A-VELHA",
      "lon": "-8.402348078994896",
      "lat": "37.583910597715494"
    },
    {
      "id": "pt.ine.add.PTCONT.454230",
      "street": "MTE LAMEIROS DE CIMA",
      "house": "",
      "postcode": "7665-859",
      "city": "SANTA CLARA-A-VELHA",
      "lon": "-8.403960086645286",
      "lat": "37.5632291373609"
    }
  ]
}