{
  "data": {
    "distrito": "Setúbal",
    "concelho": "Sesimbra",
    "freguesia": "Sesimbra (Castelo)",
    "OBJECTID": 478,
    "BGRI2021": "15110100913",
    "DT21": "15",
    "DTMN21": "1511",
    "DTMNFR21": "151101",
    "DTMNFRSEC21": "151101009",
    "SECNUM21": "009",
    "SSNUM21": "13",
    "SECSSNUM21": "00913",
    "OBJECTID_1": 169826,
    "DT": "15",
    "CC": "11",
    "fr": "01",
    "SEC": "009",
    "SS": "13"
  },
  "addresses": [
    {
      "id": "pt.ine.add.PTCONT.4687522",
      "street": "",
      "house": "",
      "postcode": "2970-140",
      "city": "",
      "lon": "-9.126589033132655",
      "lat": "38.45412898177258"
    },
    {
      "id": "pt.ine.add.PTCONT.4683454",
      "street": "",
      "house": "",
      "postcode": "2970-140",
      "city": "",
      "lon": "-9.126440617454922",
      "lat": "38.454166273413584"
    },
    {
      "id": "pt.ine.add.PTCONT.4719930",
      "street": "",
      "house": "",
      "postcode": "2970-140",
      "city": "",
      "lon": "-9.127625758345115",
      "lat": "38.45454357497429"
    },
    {
      "id": "pt.ine.add.PTCONT.4723896",
      "street": "",
      "house": "",
      "postcode": "2970-140",
      "city": "",
      "lon": "-9.126839860515696",
      "lat": "38.458216614845085"
    },
    {
      "id": "pt.ine.add.PTCONT.4741458",
      "street": "ESTR CIRCUNVALAÇÃO",
      "house": "",
      "postcode": "2970-281",
      "city": "SESIMBRA",
      "lon": "-9.125917064956722",
      "lat": "38.45525170566708"
    },
    {
      "id": "pt.ine.add.PTCONT.4774655",
      "street": "",
      "house": "",
      "postcode": "2970-824",
      "city": "SESIMBRA",
      "lon": "-9.126421724676646",
      "lat": "38.45613023964772"
    },
    {
      "id": "pt.ine.add.PTCONT.4780428",
      "street": "",
      "house": "",
      "postcode": "2970-140",
      "city": "",
      "lon": "-9.125689203704658",
      "lat": "38.45534371930691"
    },
    {
      "id": "pt.ine.add.PTCONT.4792077",
      "street": "LG 25 DE ABRIL",
      "house": "",
      "postcode": "2970-824",
      "city": "SESIMBRA",
      "lon": "-9.125250609297382",
      "lat": "38.45594198129266"
    },
    {
      "id": "pt.ine.add.PTCONT.4793508",
      "street": "LG 25 DE ABRIL",
      "house": "",
      "postcode": "2970-824",
      "city": "SESIMBRA",
      "lon": "-9.125250609297382",
      "lat": "38.45594198129266"
    },
    {
      "id": "pt.ine.add.PTCONT.4813968",
      "street": "CASA FELIZ",
      "house": "",
      "postcode": "2970-140",
      "city": "",
      "lon": "-9.126403943757616",
      "lat": "38.45817527033769"
    },
    {
      "id": "pt.ine.add.PTCONT.4847327",
      "street": "",
      "house": "",
      "postcode": "2970-140",
      "city": "",
      "lon": "-9.125670243615396",
      "lat": "38.455632145052455"
    },
    {
      "id": "pt.ine.add.PTCONT.4857242",
      "street": "ZAMBUJAL",
      "house": "",
      "postcode": "2970-823",
      "city": "SESIMBRA",
      "lon": "-9.126960716246158",
      "lat": "38.45867501185951"
    },
    {
      "id": "pt.ine.add.PTCONT.4866733",
      "street": "",
      "house": "",
      "postcode": "2970-140",
      "city": "",
      "lon": "-9.12612975906439",
      "lat": "38.45823164447381"
    },
    {
      "id": "pt.ine.add.PTCONT.4866734",
      "street": "",
      "house": "",
      "postcode": "2970-140",
      "city": "",
      "lon": "-9.125825503164478",
      "lat": "38.45776579251564"
    },
    {
      "id": "pt.ine.add.PTCONT.4866735",
      "street": "R PIRIQUITOS TERRAÇOS DO ZAMBUJAL",
      "house": "4",
      "postcode": "2970-824",
      "city": "SESIMBRA",
      "lon": "-9.125785804363895",
      "lat": "38.45654100255926"
    },
    {
      "id": "pt.ine.add.PTCONT.4866736",
      "street": "R PIRIQUITOS TERRAÇOS DO ZAMBUJAL",
      "house": "4",
      "postcode": "2970-824",
      "city": "SESIMBRA",
      "lon": "-9.125785804363895",
      "lat": "38.45654100255926"
    },
    {
      "id": "pt.ine.add.PTCONT.4866737",
      "street": "R PIRIQUITOS TERRAÇOS DO ZAMBUJAL",
      "house": "4",
      "postcode": "2970-824",
      "city": "SESIMBRA",
      "lon": "-9.125785804363895",
      "lat": "38.45654100255926"
    },
    {
      "id": "pt.ine.add.PTCONT.4866833",
      "street": "R PIRIQUITOS TERRAÇOS DO ZAMBUJAL",
      "house": "4",
      "postcode": "2970-824",
      "city": "SESIMBRA",
      "lon": "-9.125785804363895",
      "lat": "38.45654100255926"
    },
    {
      "id": "pt.ine.add.PTCONT.4866834",
      "street": "R PIRIQUITOS TERRAÇOS DO ZAMBUJAL",
      "house": "4",
      "postcode": "2970-824",
      "city": "SESIMBRA",
      "lon": "-9.125785804363895",
      "lat": "38.45654100255926"
    },
    {
      "id": "pt.ine.add.PTCONT.4866835",
      "street": "R PIRIQUITOS TERRAÇOS DO ZAMBUJAL",
      "house": "4",
      "postcode": "2970-824",
      "city": "SESIMBRA",
      "lon": "-9.125785804363895",
      "lat": "38.45654100255926"
    },
    {
      "id": "pt.ine.add.PTCONT.4866836",
      "street": "R PIRIQUITOS TERRAÇOS DO ZAMBUJAL",
      "house": "4",
      "postcode": "2970-824",
      "city": "SESIMBRA",
      "lon": "-9.125785804363895",
      "lat": "38.45654100255926"
    },
    {
      "id": "pt.ine.add.PTCONT.4866837",
      "street": "R PIRIQUITOS TERRAÇOS DO ZAMBUJAL",
      "house": "4",
      "postcode": "2970-824",
      "city": "SESIMBRA",
      "lon": "-9.125785804363895",
      "lat": "38.45654100255926"
    },
    {
      "id": "pt.ine.add.PTCONT.4866838",
      "street": "R PIRIQUITOS TERRAÇOS DO ZAMBUJAL",
      "house": "4",
      "postcode": "2970-824",
      "city": "SESIMBRA",
      "lon": "-9.125785804363895",
      "lat": "38.45654100255926"
    },
    {
      "id": "pt.ine.add.PTCONT.4866839",
      "street": "R PIRIQUITOS TERRAÇOS DO ZAMBUJAL",
      "house": "4",
      "postcode": "2970-824",
      "city": "SESIMBRA",
      "lon": "-9.125785804363895",
      "lat": "38.45654100255926"
    },
    {
      "id": "pt.ine.add.PTCONT.4866840",
      "street": "R PIRIQUITOS TERRAÇOS DO ZAMBUJAL",
      "house": "4",
      "postcode": "2970-824",
      "city": "SESIMBRA",
      "lon": "-9.125785804363895",
      "lat": "38.45654100255926"
    },
    {
      "id": "pt.ine.add.PTCONT.4866841",
      "street": "R PIRIQUITOS TERRAÇOS DO ZAMBUJAL",
      "house": "4",
      "postcode": "2970-824",
      "city": "SESIMBRA",
      "lon": "-9.125785804363895",
      "lat": "38.45654100255926"
    },
    {
      "id": "pt.ine.add.PTCONT.4866842",
      "street": "R PIRIQUITOS TERRAÇOS DO ZAMBUJAL",
      "house": "4",
      "postcode": "2970-824",
      "city": "SESIMBRA",
      "lon": "-9.125785804363895",
      "lat": "38.45654100255926"
    },
    {
      "id": "pt.ine.add.PTCONT.4867587",
      "street": "R PIRIQUITOS TERRAÇOS DO ZAMBUJAL",
      "house": "4",
      "postcode": "2970-824",
      "city": "SESIMBRA",
      "lon": "-9.125785804363895",
      "lat": "38.45654100255926"
    },
    {
      "id": "pt.ine.add.PTCONT.4867628",
      "street": "R PIRIQUITOS TERRAÇOS DO ZAMBUJAL",
      "house": "4",
      "postcode": "2970-824",
      "city": "SESIMBRA",
      "lon": "-9.125785804363895",
      "lat": "38.45654100255926"
    },
    {
      "id": "pt.ine.add.PTCONT.4909380",
      "street": "EN 521",
      "house": "",
      "postcode": "2970-140",
      "city": "",
      "lon": "-9.126253422084043",
      "lat": "38.45471736590859"
    },
    {
      "id": "pt.ine.add.PTCONT.4909381",
      "street": "EN 521",
      "house": "",
      "postcode": "2970-140",
      "city": "",
      "lon": "-9.126253422084043",
      "lat": "38.45471736590859"
    },
    {
      "id": "pt.ine.add.PTCONT.4920607",
      "street": "R BACELO",
      "house": "",
      "postcode": "2970-170",
      "city": "SESIMBRA",
      "lon": "-9.126154404695852",
      "lat": "38.4550154786832"
    },
    {
      "id": "pt.ine.add.PTCONT.4923733",
      "street": "CSL QUIRINO JAMBUJAL BAIXO",
      "house": "",
      "postcode": "2970-140",
      "city": "",
      "lon": "-9.126716886852341",
      "lat": "38.454263021768924"
    },
    {
      "id": "pt.ine.add.PTCONT.4927032",
      "street": "LG 25 DE ABRIL",
      "house": "",
      "postcode": "2970-824",
      "city": "SESIMBRA",
      "lon": "-9.125975353500431",
      "lat": "38.4561610483753"
    },
    {
      "id": "pt.ine.add.PTCONT.4931524",
      "street": "",
      "house": "",
      "postcode": "2970-140",
      "city": "",
      "lon": "-9.125940795670234",
      "lat": "38.45781886516734"
    },
    {
      "id": "pt.ine.add.PTCONT.4937939",
      "street": "",
      "house": "",
      "postcode": "2970-140",
      "city": "",
      "lon": "-9.127309896193548",
      "lat": "38.45823965161946"
    },
    {
      "id": "pt.ine.add.PTCONT.4941379",
      "street": "",
      "house": "",
      "postcode": "2970-140",
      "city": "",
      "lon": "-9.126084318100558",
      "lat": "38.45491698161681"
    },
    {
      "id": "pt.ine.add.PTCONT.4944929",
      "street": "LG 25 DE ABRIL",
      "house": "",
      "postcode": "2970-824",
      "city": "SESIMBRA",
      "lon": "-9.125465043758368",
      "lat": "38.45570594968977"
    },
    {
      "id": "pt.ine.add.PTCONT.4944930",
      "street": "LG 25 DE ABRIL",
      "house": "",
      "postcode": "2970-824",
      "city": "SESIMBRA",
      "lon": "-9.125465043758368",
      "lat": "38.45570594968977"
    },
    {
      "id": "pt.ine.add.PTCONT.4949754",
      "street": "",
      "house": "",
      "postcode": "2970-140",
      "city": "",
      "lon": "-9.125834536162152",
      "lat": "38.45508124761525"
    },
    {
      "id": "pt.ine.add.PTCONT.4959609",
      "street": "LG 25 DE ABRIL MORADIA FLAVIA",
      "house": "",
      "postcode": "2970-824",
      "city": "SESIMBRA",
      "lon": "-9.12578935915302",
      "lat": "38.45596444230304"
    },
    {
      "id": "pt.ine.add.PTCONT.4963221",
      "street": "",
      "house": "",
      "postcode": "2970-140",
      "city": "",
      "lon": "-9.126503201816146",
      "lat": "38.45455309903668"
    },
    {
      "id": "pt.ine.add.PTCONT.4966624",
      "street": "CSL QUIRINO",
      "house": "",
      "postcode": "2970-140",
      "city": "",
      "lon": "-9.126603699562153",
      "lat": "38.454363072829864"
    },
    {
      "id": "pt.ine.add.PTCONT.4981018",
      "street": "ESTR CIRCUNVALAÇÃO",
      "house": "",
      "postcode": "2970-281",
      "city": "SESIMBRA",
      "lon": "-9.126077308311238",
      "lat": "38.45524133928849"
    },
    {
      "id": "pt.ine.add.PTCONT.4992959",
      "street": "R BACELO",
      "house": "",
      "postcode": "2970-170",
      "city": "SESIMBRA",
      "lon": "-9.125923828562232",
      "lat": "38.454909333517705"
    },
    {
      "id": "pt.ine.add.PTCONT.4999511",
      "street": "CSL CARVALHAL",
      "house": "",
      "postcode": "2970-140",
      "city": "",
      "lon": "-9.12936687377679",
      "lat": "38.45619531386787"
    },
    {
      "id": "pt.ine.add.PTCONT.5029066",
      "street": "",
      "house": "",
      "postcode": "2970-140",
      "city": "",
      "lon": "-9.12500970265938",
      "lat": "38.456754766784414"
    },
    {
      "id": "pt.ine.add.PTCONT.5061760",
      "street": "",
      "house": "",
      "postcode": "2970-140",
      "city": "",
      "lon": "-9.126372415181143",
      "lat": "38.45504065536399"
    },
    {
      "id": "pt.ine.add.PTCONT.5067008",
      "street": "EM 521",
      "house": "",
      "postcode": "2970-140",
      "city": "",
      "lon": "-9.125936624979376",
      "lat": "38.45835038906429"
    },
    {
      "id": "pt.ine.add.PTCONT.5105243",
      "street": "R BACELO",
      "house": "",
      "postcode": "2970-170",
      "city": "SESIMBRA",
      "lon": "-9.125576506956913",
      "lat": "38.45547979835534"
    },
    {
      "id": "pt.ine.add.PTCONT.5105789",
      "street": "LG 25 DE ABRIL",
      "house": "",
      "postcode": "2970-824",
      "city": "SESIMBRA",
      "lon": "-9.125172892343883",
      "lat": "38.45612280512296"
    },
    {
      "id": "pt.ine.add.PTCONT.5105790",
      "street": "LG 25 DE ABRIL",
      "house": "",
      "postcode": "2970-824",
      "city": "SESIMBRA",
      "lon": "-9.125172892343883",
      "lat": "38.45612280512296"
    },
    {
      "id": "pt.ine.add.PTCONT.5105791",
      "street": "LG 25 DE ABRIL",
      "house": "",
      "postcode": "2970-824",
      "city": "SESIMBRA",
      "lon": "-9.125172892343883",
      "lat": "38.45612280512296"
    },
    {
      "id": "pt.ine.add.PTCONT.5105792",
      "street": "LG 25 DE ABRIL",
      "house": "",
      "postcode": "2970-824",
      "city": "SESIMBRA",
      "lon": "-9.125172892343883",
      "lat": "38.45612280512296"
    },
    {
      "id": "pt.ine.add.PTCONT.5108717",
      "street": "",
      "house": "",
      "postcode": "2970-140",
      "city": "",
      "lon": "-9.1260468557841",
      "lat": "38.458034165008236"
    },
    {
      "id": "pt.ine.add.PTCONT.5111570",
      "street": "CONDOMÍNIO MONTE DA LUA",
      "house": "",
      "postcode": "2970-140",
      "city": "",
      "lon": "-9.125414721156835",
      "lat": "38.45788638037748"
    },
    {
      "id": "pt.ine.add.PTCONT.5111571",
      "street": "CONDOMÍNIO MONTE DA LUA",
      "house": "",
      "postcode": "2970-140",
      "city": "",
      "lon": "-9.125414721156835",
      "lat": "38.45788638037748"
    },
    {
      "id": "pt.ine.add.PTCONT.5111572",
      "street": "CONDOMÍNIO MONTE DA LUA",
      "house": "",
      "postcode": "2970-140",
      "city": "",
      "lon": "-9.125414721156835",
      "lat": "38.45788638037748"
    },
    {
      "id": "pt.ine.add.PTCONT.5111573",
      "street": "CONDOMÍNIO MONTE DA LUA",
      "house": "",
      "postcode": "2970-140",
      "city": "",
      "lon": "-9.125414721156835",
      "lat": "38.45788638037748"
    },
    {
      "id": "pt.ine.add.PTCONT.5111574",
      "street": "CONDOMÍNIO MONTE DA LUA",
      "house": "",
      "postcode": "2970-140",
      "city": "",
      "lon": "-9.125414721156835",
      "lat": "38.45788638037748"
    },
    {
      "id": "pt.ine.add.PTCONT.5111575",
      "street": "CONDOMÍNIO MONTE DA LUA",
      "house": "",
      "postcode": "2970-140",
      "city": "",
      "lon": "-9.125414721156835",
      "lat": "38.45788638037748"
    }
  ]
}