{
  "data": {
    "distrito": "Aveiro",
    "concelho": "Águeda",
    "freguesia": "União das freguesias de Águeda e Borralha",
    "OBJECTID": 407,
    "BGRI2021": "01012101231",
    "DT21": "01",
    "DTMN21": "0101",
    "DTMNFR21": "010121",
    "DTMNFRSEC21": "010121012",
    "SECNUM21": "012",
    "SSNUM21": "31",
    "SECSSNUM21": "01231",
    "OBJECTID_1": 244,
    "DT": "01",
    "CC": "01",
    "fr": "21",
    "SEC": "012",
    "SS": "31"
  },
  "addresses": [
    {
      "id": "pt.ine.add.PTCONT.10428",
      "street": "TV VALE DA CACHANINHA",
      "house": "",
      "postcode": "3750-312",
      "city": "ÁGUEDA",
      "lon": "-8.389872566784948",
      "lat": "40.599966799548135"
    },
    {
      "id": "pt.ine.add.PTCONT.18159",
      "street": "R CHOES",
      "house": "206",
      "postcode": "3750-309",
      "city": "ÁGUEDA",
      "lon": "-8.393840924846076",
      "lat": "40.59658994635227"
    },
    {
      "id": "pt.ine.add.PTCONT.26317",
      "street": "R CHOES",
      "house": "41",
      "postcode": "3750-309",
      "city": "ÁGUEDA",
      "lon": "-8.394437151094582",
      "lat": "40.594976658483205"
    },
    {
      "id": "pt.ine.add.PTCONT.42974",
      "street": "R ESCOLA",
      "house": "",
      "postcode": "3750-309",
      "city": "ÁGUEDA",
      "lon": "-8.393822989458485",
      "lat": "40.595014067345836"
    },
    {
      "id": "pt.ine.add.PTCONT.45725",
      "street": "R CHOES",
      "house": "29",
      "postcode": "3750-309",
      "city": "ÁGUEDA",
      "lon": "-8.394389511523457",
      "lat": "40.594877708441864"
    },
    {
      "id": "pt.ine.add.PTCONT.80641",
      "street": "R CHOES",
      "house": "79",
      "postcode": "3750-309",
      "city": "ÁGUEDA",
      "lon": "-8.39453309708124",
      "lat": "40.59534565683713"
    },
    {
      "id": "pt.ine.add.PTCONT.82948",
      "street": "R CHOES",
      "house": "44",
      "postcode": "3750-309",
      "city": "ÁGUEDA",
      "lon": "-8.394071703144553",
      "lat": "40.595175600308366"
    },
    {
      "id": "pt.ine.add.PTCONT.91214",
      "street": "R ESCOLA",
      "house": "423",
      "postcode": "3750-309",
      "city": "ÁGUEDA",
      "lon": "-8.394942180348487",
      "lat": "40.59421907330322"
    },
    {
      "id": "pt.ine.add.PTCONT.109760",
      "street": "TV VALE DA CACHANINHA",
      "house": "",
      "postcode": "3750-312",
      "city": "ÁGUEDA",
      "lon": "-8.390570340332129",
      "lat": "40.60015435654417"
    },
    {
      "id": "pt.ine.add.PTCONT.131303",
      "street": "R ESCOLA",
      "house": "469",
      "postcode": "3750-309",
      "city": "ÁGUEDA",
      "lon": "-8.39464824997907",
      "lat": "40.59457994944993"
    },
    {
      "id": "pt.ine.add.PTCONT.149395",
      "street": "R VALE MOURO",
      "house": "312",
      "postcode": "3750-312",
      "city": "ÁGUEDA",
      "lon": "-8.394515958518127",
      "lat": "40.5970116675332"
    },
    {
      "id": "pt.ine.add.PTCONT.150761",
      "street": "R MOTARIA",
      "house": "",
      "postcode": "3750-312",
      "city": "ÁGUEDA",
      "lon": "-8.390092191553581",
      "lat": "40.60178537096551"
    },
    {
      "id": "pt.ine.add.PTCONT.162799",
      "street": "R MOTARIA",
      "house": "623",
      "postcode": "3750-312",
      "city": "ÁGUEDA",
      "lon": "-8.390161906844517",
      "lat": "40.60147903749008"
    },
    {
      "id": "pt.ine.add.PTCONT.202560",
      "street": "R ESCOLA",
      "house": "805",
      "postcode": "3750-309",
      "city": "ÁGUEDA",
      "lon": "-8.392636407170183",
      "lat": "40.59671873250941"
    },
    {
      "id": "pt.ine.add.PTCONT.202610",
      "street": "R VALE MOURO",
      "house": "66",
      "postcode": "3750-312",
      "city": "ÁGUEDA",
      "lon": "-8.394515923443432",
      "lat": "40.5970026623603"
    },
    {
      "id": "pt.ine.add.PTCONT.202839",
      "street": "R SOBREIRA",
      "house": "393",
      "postcode": "3750-309",
      "city": "ÁGUEDA",
      "lon": "-8.39534348266103",
      "lat": "40.59412811038666"
    },
    {
      "id": "pt.ine.add.PTCONT.216487",
      "street": "R MOTARIA",
      "house": "603",
      "postcode": "3750-312",
      "city": "ÁGUEDA",
      "lon": "-8.3900429674098",
      "lat": "40.60127218146646"
    },
    {
      "id": "pt.ine.add.PTCONT.268192",
      "street": "R ESCOLA",
      "house": "579",
      "postcode": "3750-309",
      "city": "ÁGUEDA",
      "lon": "-8.393575709755329",
      "lat": "40.59522174608212"
    }
  ]
}