{
  "data": {
    "distrito": "Aveiro",
    "concelho": "Ílhavo",
    "freguesia": "Ílhavo (São Salvador)",
    "OBJECTID": 450,
    "BGRI2021": "01100800404",
    "DT21": "01",
    "DTMN21": "0110",
    "DTMNFR21": "011008",
    "DTMNFRSEC21": "011008004",
    "SECNUM21": "004",
    "SSNUM21": "04",
    "SECSSNUM21": "00404",
    "OBJECTID_1": 7400,
    "DT": "01",
    "CC": "10",
    "fr": "08",
    "SEC": "004",
    "SS": "04"
  },
  "addresses": [
    {
      "id": "pt.ine.add.PTCONT.292873",
      "street": "R CIMO DA VILA",
      "house": "",
      "postcode": "3830-159",
      "city": "ÍLHAVO",
      "lon": "-8.661877934924764",
      "lat": "40.59263916841179"
    },
    {
      "id": "pt.ine.add.PTCONT.297284",
      "street": "R CIMO DA VILA",
      "house": "85",
      "postcode": "3830-159",
      "city": "ÍLHAVO",
      "lon": "-8.663601664714802",
      "lat": "40.59400906229668"
    },
    {
      "id": "pt.ine.add.PTCONT.300199",
      "street": "PCT ANTÓNIO SÉRGIO",
      "house": "",
      "postcode": "3830-104",
      "city": "ÍLHAVO",
      "lon": "-8.65962880610219",
      "lat": "40.5905422218496"
    },
    {
      "id": "pt.ine.add.PTCONT.300200",
      "street": "PCT ANTÓNIO SÉRGIO",
      "house": "",
      "postcode": "3830-104",
      "city": "ÍLHAVO",
      "lon": "-8.65962880610219",
      "lat": "40.5905422218496"
    },
    {
      "id": "pt.ine.add.PTCONT.300201",
      "street": "PCT ANTÓNIO SÉRGIO",
      "house": "",
      "postcode": "3830-104",
      "city": "ÍLHAVO",
      "lon": "-8.65962880610219",
      "lat": "40.5905422218496"
    },
    {
      "id": "pt.ine.add.PTCONT.306389",
      "street": "R CIMO DA VILA",
      "house": "",
      "postcode": "3830-159",
      "city": "ÍLHAVO",
      "lon": "-8.663175474502417",
      "lat": "40.59389395111903"
    },
    {
      "id": "pt.ine.add.PTCONT.309325",
      "street": "R CIMO DA VILA",
      "house": "163",
      "postcode": "3830-159",
      "city": "ÍLHAVO",
      "lon": "-8.661477979719931",
      "lat": "40.59135325284567"
    },
    {
      "id": "pt.ine.add.PTCONT.320038",
      "street": "R CIMO DA VILA",
      "house": "57",
      "postcode": "3830-159",
      "city": "ÍLHAVO",
      "lon": "-8.665181850748988",
      "lat": "40.595145455885145"
    },
    {
      "id": "pt.ine.add.PTCONT.320053",
      "street": "PCT ANTÓNIO SÉRGIO",
      "house": "6",
      "postcode": "3830-104",
      "city": "ÍLHAVO",
      "lon": "-8.660004892409829",
      "lat": "40.590297366072456"
    },
    {
      "id": "pt.ine.add.PTCONT.320054",
      "street": "PCT ANTÓNIO SÉRGIO",
      "house": "6",
      "postcode": "3830-104",
      "city": "ÍLHAVO",
      "lon": "-8.660004892409829",
      "lat": "40.590297366072456"
    },
    {
      "id": "pt.ine.add.PTCONT.320055",
      "street": "PCT ANTÓNIO SÉRGIO",
      "house": "6",
      "postcode": "3830-104",
      "city": "ÍLHAVO",
      "lon": "-8.660004892409829",
      "lat": "40.590297366072456"
    },
    {
      "id": "pt.ine.add.PTCONT.328110",
      "street": "R CIMO DA VILA",
      "house": "21",
      "postcode": "3830-159",
      "city": "ÍLHAVO",
      "lon": "-8.665875875958648",
      "lat": "40.59625890268112"
    },
    {
      "id": "pt.ine.add.PTCONT.330977",
      "street": "R CIMO",
      "house": "153 A",
      "postcode": "3830-159",
      "city": "ÍLHAVO",
      "lon": "-8.661569315954015",
      "lat": "40.59245147127635"
    },
    {
      "id": "pt.ine.add.PTCONT.330978",
      "street": "R CIMO",
      "house": "153A",
      "postcode": "3830-159",
      "city": "ÍLHAVO",
      "lon": "-8.661569315954015",
      "lat": "40.59245147127635"
    },
    {
      "id": "pt.ine.add.PTCONT.330979",
      "street": "R CIMO",
      "house": "153A",
      "postcode": "3830-159",
      "city": "ÍLHAVO",
      "lon": "-8.661569315954015",
      "lat": "40.59245147127635"
    },
    {
      "id": "pt.ine.add.PTCONT.330980",
      "street": "R CIMO",
      "house": "153A",
      "postcode": "3830-159",
      "city": "ÍLHAVO",
      "lon": "-8.661569315954015",
      "lat": "40.59245147127635"
    },
    {
      "id": "pt.ine.add.PTCONT.331745",
      "street": "R CIMO",
      "house": "153 A",
      "postcode": "3830-159",
      "city": "ÍLHAVO",
      "lon": "-8.661569315954015",
      "lat": "40.59245147127635"
    },
    {
      "id": "pt.ine.add.PTCONT.341509",
      "street": "R CIMO DA VILA",
      "house": "43",
      "postcode": "3830-159",
      "city": "ÍLHAVO",
      "lon": "-8.665564585903518",
      "lat": "40.595738036003944"
    },
    {
      "id": "pt.ine.add.PTCONT.341520",
      "street": "R CIMO DA VILA",
      "house": "107",
      "postcode": "3830-159",
      "city": "ÍLHAVO",
      "lon": "-8.662665885002644",
      "lat": "40.59368916862366"
    },
    {
      "id": "pt.ine.add.PTCONT.343341",
      "street": "PCT ANTÓNIO SÉRGIO",
      "house": "",
      "postcode": "3830-104",
      "city": "ÍLHAVO",
      "lon": "-8.6604663498538",
      "lat": "40.590394317626696"
    },
    {
      "id": "pt.ine.add.PTCONT.343370",
      "street": "R CIMO DA VILA",
      "house": "9",
      "postcode": "3830-159",
      "city": "ÍLHAVO",
      "lon": "-8.666007181061124",
      "lat": "40.5964293959097"
    },
    {
      "id": "pt.ine.add.PTCONT.349148",
      "street": "PCT ANTÓNIO SÉRGIO",
      "house": "2",
      "postcode": "3830-104",
      "city": "ÍLHAVO",
      "lon": "-8.660452273881011",
      "lat": "40.59010621491101"
    },
    {
      "id": "pt.ine.add.PTCONT.350353",
      "street": "PCT ANTÓNIO SÉRGIO",
      "house": "",
      "postcode": "3830-104",
      "city": "ÍLHAVO",
      "lon": "-8.659676549890323",
      "lat": "40.59060504073756"
    },
    {
      "id": "pt.ine.add.PTCONT.4078",
      "street": "R PASSADOURO",
      "house": "",
      "postcode": "3830-261",
      "city": "ÍLHAVO",
      "lon": "-8.658353894799568",
      "lat": "40.589143211940964"
    },
    {
      "id": "pt.ine.add.PTCONT.4079",
      "street": "R PASSADOURO",
      "house": "FRACAO B",
      "postcode": "3830-261",
      "city": "ÍLHAVO",
      "lon": "-8.658353894799568",
      "lat": "40.589143211940964"
    },
    {
      "id": "pt.ine.add.PTCONT.4080",
      "street": "R PASSADOURO",
      "house": "",
      "postcode": "3830-261",
      "city": "ÍLHAVO",
      "lon": "-8.658353894799568",
      "lat": "40.589143211940964"
    },
    {
      "id": "pt.ine.add.PTCONT.4081",
      "street": "R PASSADOURO",
      "house": "",
      "postcode": "3830-261",
      "city": "ÍLHAVO",
      "lon": "-8.658353894799568",
      "lat": "40.589143211940964"
    },
    {
      "id": "pt.ine.add.PTCONT.4082",
      "street": "R PASSADOURO",
      "house": "",
      "postcode": "3830-261",
      "city": "ÍLHAVO",
      "lon": "-8.658353894799568",
      "lat": "40.589143211940964"
    },
    {
      "id": "pt.ine.add.PTCONT.4083",
      "street": "R PASSADOURO",
      "house": "",
      "postcode": "3830-261",
      "city": "ÍLHAVO",
      "lon": "-8.658353894799568",
      "lat": "40.589143211940964"
    },
    {
      "id": "pt.ine.add.PTCONT.6695",
      "street": "PCT ANTÓNIO SÉRGIO",
      "house": "",
      "postcode": "3830-104",
      "city": "ÍLHAVO",
      "lon": "-8.6604663498538",
      "lat": "40.590394317626696"
    },
    {
      "id": "pt.ine.add.PTCONT.6696",
      "street": "PCT ANTÓNIO SÉRGIO",
      "house": "",
      "postcode": "3830-104",
      "city": "ÍLHAVO",
      "lon": "-8.6604663498538",
      "lat": "40.590394317626696"
    },
    {
      "id": "pt.ine.add.PTCONT.20671",
      "street": "R CIMO DA VILA",
      "house": "",
      "postcode": "3830-159",
      "city": "ÍLHAVO",
      "lon": "-8.664111686906107",
      "lat": "40.59426786992036"
    },
    {
      "id": "pt.ine.add.PTCONT.25282",
      "street": "R PASSADOURO",
      "house": "9",
      "postcode": "3830-261",
      "city": "ÍLHAVO",
      "lon": "-8.659052219039877",
      "lat": "40.589320138850255"
    },
    {
      "id": "pt.ine.add.PTCONT.27957",
      "street": "R CIMO DA VILA",
      "house": "9",
      "postcode": "3830-159",
      "city": "ÍLHAVO",
      "lon": "-8.663144231244262",
      "lat": "40.59442540196252"
    },
    {
      "id": "pt.ine.add.PTCONT.32473",
      "street": "R CIMO DA VILA",
      "house": "49",
      "postcode": "3830-159",
      "city": "ÍLHAVO",
      "lon": "-8.665445096498697",
      "lat": "40.59556748779341"
    },
    {
      "id": "pt.ine.add.PTCONT.32474",
      "street": "AV NSA SRA DO PRANTO",
      "house": "16",
      "postcode": "3830-046",
      "city": "ÍLHAVO",
      "lon": "-8.665070463242271",
      "lat": "40.597487322907256"
    },
    {
      "id": "pt.ine.add.PTCONT.32725",
      "street": "PCT ANTÓNIO SÉRGIO",
      "house": "5",
      "postcode": "3830-104",
      "city": "ÍLHAVO",
      "lon": "-8.660122661832197",
      "lat": "40.590251802721035"
    },
    {
      "id": "pt.ine.add.PTCONT.32844",
      "street": "PCT ANTÓNIO SÉRGIO",
      "house": "5",
      "postcode": "3830-104",
      "city": "ÍLHAVO",
      "lon": "-8.660122661832197",
      "lat": "40.590251802721035"
    },
    {
      "id": "pt.ine.add.PTCONT.32845",
      "street": "PCT ANTÓNIO SÉRGIO",
      "house": "5",
      "postcode": "3830-104",
      "city": "ÍLHAVO",
      "lon": "-8.660122661832197",
      "lat": "40.590251802721035"
    },
    {
      "id": "pt.ine.add.PTCONT.41555",
      "street": "R CIMO",
      "house": "155A",
      "postcode": "3830-159",
      "city": "ÍLHAVO",
      "lon": "-8.6614620805137",
      "lat": "40.5923348940464"
    },
    {
      "id": "pt.ine.add.PTCONT.41556",
      "street": "R CIMO",
      "house": "155 A",
      "postcode": "3830-159",
      "city": "ÍLHAVO",
      "lon": "-8.6614620805137",
      "lat": "40.5923348940464"
    },
    {
      "id": "pt.ine.add.PTCONT.41557",
      "street": "R CIMO",
      "house": "155 A",
      "postcode": "3830-159",
      "city": "ÍLHAVO",
      "lon": "-8.6614620805137",
      "lat": "40.5923348940464"
    },
    {
      "id": "pt.ine.add.PTCONT.41558",
      "street": "R CIMO",
      "house": "155A",
      "postcode": "3830-159",
      "city": "ÍLHAVO",
      "lon": "-8.6614620805137",
      "lat": "40.5923348940464"
    },
    {
      "id": "pt.ine.add.PTCONT.41559",
      "street": "R CIMO",
      "house": "155",
      "postcode": "3830-159",
      "city": "ÍLHAVO",
      "lon": "-8.6614620805137",
      "lat": "40.5923348940464"
    },
    {
      "id": "pt.ine.add.PTCONT.41560",
      "street": "R CIMO",
      "house": "155A",
      "postcode": "3830-159",
      "city": "ÍLHAVO",
      "lon": "-8.6614620805137",
      "lat": "40.5923348940464"
    },
    {
      "id": "pt.ine.add.PTCONT.41561",
      "street": "R CIMO",
      "house": "155A",
      "postcode": "3830-159",
      "city": "ÍLHAVO",
      "lon": "-8.6614620805137",
      "lat": "40.5923348940464"
    },
    {
      "id": "pt.ine.add.PTCONT.41562",
      "street": "R CIMO",
      "house": "155 A",
      "postcode": "3830-159",
      "city": "ÍLHAVO",
      "lon": "-8.6614620805137",
      "lat": "40.5923348940464"
    },
    {
      "id": "pt.ine.add.PTCONT.41563",
      "street": "R CIMO",
      "house": "155 A",
      "postcode": "3830-159",
      "city": "ÍLHAVO",
      "lon": "-8.6614620805137",
      "lat": "40.5923348940464"
    },
    {
      "id": "pt.ine.add.PTCONT.41564",
      "street": "R CIMO",
      "house": "155 A",
      "postcode": "3830-159",
      "city": "ÍLHAVO",
      "lon": "-8.6614620805137",
      "lat": "40.5923348940464"
    },
    {
      "id": "pt.ine.add.PTCONT.41565",
      "street": "R CIMO",
      "house": "155 A",
      "postcode": "3830-159",
      "city": "ÍLHAVO",
      "lon": "-8.6614620805137",
      "lat": "40.5923348940464"
    },
    {
      "id": "pt.ine.add.PTCONT.41567",
      "street": "R CIMO DA VILA",
      "house": "129",
      "postcode": "3830-159",
      "city": "ÍLHAVO",
      "lon": "-8.66200109961609",
      "lat": "40.59327797469044"
    },
    {
      "id": "pt.ine.add.PTCONT.41568",
      "street": "BC CRUZEIRO",
      "house": "1",
      "postcode": "3830-087",
      "city": "ÍLHAVO",
      "lon": "-8.662820518451152",
      "lat": "40.59382353777163"
    },
    {
      "id": "pt.ine.add.PTCONT.48657",
      "street": "R CIMO DA VILA",
      "house": "45",
      "postcode": "3830-159",
      "city": "ÍLHAVO",
      "lon": "-8.665504805409391",
      "lat": "40.59564825947559"
    },
    {
      "id": "pt.ine.add.PTCONT.48658",
      "street": "R CIMO DA VILA",
      "house": "5",
      "postcode": "3830-159",
      "city": "ÍLHAVO",
      "lon": "-8.666103332725193",
      "lat": "40.59663607202848"
    },
    {
      "id": "pt.ine.add.PTCONT.55745",
      "street": "R CIMO DA VILA",
      "house": "",
      "postcode": "3830-159",
      "city": "ÍLHAVO",
      "lon": "-8.660915996289988",
      "lat": "40.590491321302736"
    },
    {
      "id": "pt.ine.add.PTCONT.60730",
      "street": "PCT ANTÓNIO SÉRGIO",
      "house": "",
      "postcode": "3830-104",
      "city": "ÍLHAVO",
      "lon": "-8.659995624546628",
      "lat": "40.59062159618948"
    },
    {
      "id": "pt.ine.add.PTCONT.60731",
      "street": "PCT ANTÓNIO SÉRGIO",
      "house": "",
      "postcode": "3830-104",
      "city": "ÍLHAVO",
      "lon": "-8.659995624546628",
      "lat": "40.59062159618948"
    },
    {
      "id": "pt.ine.add.PTCONT.61231",
      "street": "PCT ANTÓNIO SÉRGIO",
      "house": "",
      "postcode": "3830-104",
      "city": "ÍLHAVO",
      "lon": "-8.659995624546628",
      "lat": "40.59062159618948"
    },
    {
      "id": "pt.ine.add.PTCONT.73849",
      "street": "PCT ANTÓNIO SÉRGIO",
      "house": "",
      "postcode": "3830-104",
      "city": "ÍLHAVO",
      "lon": "-8.660358058741338",
      "lat": "40.59014266586907"
    },
    {
      "id": "pt.ine.add.PTCONT.73851",
      "street": "PCT ANTÓNIO SÉRGIO",
      "house": "",
      "postcode": "3830-104",
      "city": "ÍLHAVO",
      "lon": "-8.660358058741338",
      "lat": "40.59014266586907"
    },
    {
      "id": "pt.ine.add.PTCONT.73852",
      "street": "PCT ANTÓNIO SÉRGIO",
      "house": "",
      "postcode": "3830-104",
      "city": "ÍLHAVO",
      "lon": "-8.660358058741338",
      "lat": "40.59014266586907"
    },
    {
      "id": "pt.ine.add.PTCONT.76512",
      "street": "PCT ANTÓNIO SÉRGIO",
      "house": "",
      "postcode": "3830-104",
      "city": "ÍLHAVO",
      "lon": "-8.65980486065497",
      "lat": "40.590397335735354"
    },
    {
      "id": "pt.ine.add.PTCONT.76513",
      "street": "PCT ANTÓNIO SÉRGIO",
      "house": "",
      "postcode": "3830-104",
      "city": "ÍLHAVO",
      "lon": "-8.65980486065497",
      "lat": "40.590397335735354"
    },
    {
      "id": "pt.ine.add.PTCONT.76514",
      "street": "PCT ANTÓNIO SÉRGIO",
      "house": "",
      "postcode": "3830-104",
      "city": "ÍLHAVO",
      "lon": "-8.65980486065497",
      "lat": "40.590397335735354"
    },
    {
      "id": "pt.ine.add.PTCONT.82035",
      "street": "R CIMO DA VILA",
      "house": "7",
      "postcode": "3830-159",
      "city": "ÍLHAVO",
      "lon": "-8.66606681991487",
      "lat": "40.596501162403044"
    },
    {
      "id": "pt.ine.add.PTCONT.83368",
      "street": "PCT ANTÓNIO SÉRGIO",
      "house": "",
      "postcode": "3830-104",
      "city": "ÍLHAVO",
      "lon": "-8.660677980581136",
      "lat": "40.5902672781906"
    },
    {
      "id": "pt.ine.add.PTCONT.83369",
      "street": "PCT ANTÓNIO SÉRGIO",
      "house": "",
      "postcode": "3830-104",
      "city": "ÍLHAVO",
      "lon": "-8.660677980581136",
      "lat": "40.5902672781906"
    },
    {
      "id": "pt.ine.add.PTCONT.83370",
      "street": "PCT ANTÓNIO SÉRGIO",
      "house": "",
      "postcode": "3830-104",
      "city": "ÍLHAVO",
      "lon": "-8.660677980581136",
      "lat": "40.5902672781906"
    },
    {
      "id": "pt.ine.add.PTCONT.83371",
      "street": "R CIMO DA VILA",
      "house": "143",
      "postcode": "3830-159",
      "city": "ÍLHAVO",
      "lon": "-8.661926037036817",
      "lat": "40.59274701077036"
    },
    {
      "id": "pt.ine.add.PTCONT.83372",
      "street": "R CIMO DA VILA",
      "house": "143",
      "postcode": "3830-159",
      "city": "ÍLHAVO",
      "lon": "-8.661926037036817",
      "lat": "40.59274701077036"
    },
    {
      "id": "pt.ine.add.PTCONT.86140",
      "street": "PCT ANTÓNIO SÉRGIO",
      "house": "",
      "postcode": "3830-104",
      "city": "ÍLHAVO",
      "lon": "-8.659676549890323",
      "lat": "40.59060504073756"
    },
    {
      "id": "pt.ine.add.PTCONT.86141",
      "street": "PCT ANTÓNIO SÉRGIO",
      "house": "",
      "postcode": "3830-104",
      "city": "ÍLHAVO",
      "lon": "-8.659676549890323",
      "lat": "40.59060504073756"
    },
    {
      "id": "pt.ine.add.PTCONT.87783",
      "street": "R CIMO DA VILA",
      "house": "55",
      "postcode": "3830-159",
      "city": "ÍLHAVO",
      "lon": "-8.66520611952095",
      "lat": "40.59522639097493"
    },
    {
      "id": "pt.ine.add.PTCONT.87784",
      "street": "AV NSA SRA DO PRANTO",
      "house": "12",
      "postcode": "3830-046",
      "city": "ÍLHAVO",
      "lon": "-8.66534110358575",
      "lat": "40.59735099806982"
    },
    {
      "id": "pt.ine.add.PTCONT.89699",
      "street": "R CIMO DA VILA",
      "house": "63A",
      "postcode": "3830-159",
      "city": "ÍLHAVO",
      "lon": "-8.664920249385883",
      "lat": "40.59493053559878"
    },
    {
      "id": "pt.ine.add.PTCONT.89896",
      "street": "R CIMO DA VILA",
      "house": "163A",
      "postcode": "3830-159",
      "city": "ÍLHAVO",
      "lon": "-8.66122665887396",
      "lat": "40.59094016221564"
    },
    {
      "id": "pt.ine.add.PTCONT.95363",
      "street": "R PASSADOURO",
      "house": "",
      "postcode": "3830-261",
      "city": "ÍLHAVO",
      "lon": "-8.659371922780606",
      "lat": "40.589417740151916"
    },
    {
      "id": "pt.ine.add.PTCONT.99973",
      "street": "R PASSADOURO",
      "house": "7A",
      "postcode": "3830-261",
      "city": "ÍLHAVO",
      "lon": "-8.659300908795396",
      "lat": "40.58940005322782"
    },
    {
      "id": "pt.ine.add.PTCONT.103079",
      "street": "PCT ANTÓNIO SÉRGIO",
      "house": "19",
      "postcode": "3830-104",
      "city": "ÍLHAVO",
      "lon": "-8.66057223607352",
      "lat": "40.590339802851645"
    },
    {
      "id": "pt.ine.add.PTCONT.103080",
      "street": "PCT ANTÓNIO SÉRGIO",
      "house": "19",
      "postcode": "3830-104",
      "city": "ÍLHAVO",
      "lon": "-8.66057223607352",
      "lat": "40.590339802851645"
    },
    {
      "id": "pt.ine.add.PTCONT.103182",
      "street": "PCT ANTÓNIO SÉRGIO",
      "house": "19",
      "postcode": "3830-104",
      "city": "ÍLHAVO",
      "lon": "-8.66057223607352",
      "lat": "40.590339802851645"
    },
    {
      "id": "pt.ine.add.PTCONT.108818",
      "street": "R CIMO DA VILA",
      "house": "87",
      "postcode": "3830-159",
      "city": "ÍLHAVO",
      "lon": "-8.663471295490217",
      "lat": "40.59395562969937"
    },
    {
      "id": "pt.ine.add.PTCONT.108819",
      "street": "R CIMO DA VILA",
      "house": "87",
      "postcode": "3830-159",
      "city": "ÍLHAVO",
      "lon": "-8.663471295490217",
      "lat": "40.59395562969937"
    },
    {
      "id": "pt.ine.add.PTCONT.110271",
      "street": "BC PELE",
      "house": "",
      "postcode": "3830-077",
      "city": "ÍLHAVO",
      "lon": "-8.663477485983197",
      "lat": "40.5947390546348"
    },
    {
      "id": "pt.ine.add.PTCONT.110272",
      "street": "BC PELE",
      "house": "5",
      "postcode": "3830-077",
      "city": "ÍLHAVO",
      "lon": "-8.662910174501526",
      "lat": "40.59470563728697"
    },
    {
      "id": "pt.ine.add.PTCONT.114452",
      "street": "R PASSADOURO",
      "house": "13",
      "postcode": "3830-261",
      "city": "ÍLHAVO",
      "lon": "-8.658661925587198",
      "lat": "40.58925887873197"
    },
    {
      "id": "pt.ine.add.PTCONT.116615",
      "street": "R AZENHA",
      "house": "",
      "postcode": "3830-030",
      "city": "ÍLHAVO",
      "lon": "-8.657834809162972",
      "lat": "40.59073949491646"
    },
    {
      "id": "pt.ine.add.PTCONT.116616",
      "street": "R AZENHA",
      "house": "1",
      "postcode": "3830-030",
      "city": "ÍLHAVO",
      "lon": "-8.657941738827297",
      "lat": "40.589307179300995"
    },
    {
      "id": "pt.ine.add.PTCONT.116618",
      "street": "R CIMO DA VILA",
      "house": "3",
      "postcode": "3830-159",
      "city": "ÍLHAVO",
      "lon": "-8.662868338651878",
      "lat": "40.59389536015722"
    },
    {
      "id": "pt.ine.add.PTCONT.119315",
      "street": "R CIMO DA VILA",
      "house": "133",
      "postcode": "3830-159",
      "city": "ÍLHAVO",
      "lon": "-8.662129408180455",
      "lat": "40.593070267215055"
    },
    {
      "id": "pt.ine.add.PTCONT.122015",
      "street": "R CIMO DA VILA",
      "house": "65",
      "postcode": "3830-159",
      "city": "ÍLHAVO",
      "lon": "-8.664823961180506",
      "lat": "40.59470584863234"
    },
    {
      "id": "pt.ine.add.PTCONT.122023",
      "street": "R CIMO DA VILA",
      "house": "",
      "postcode": "3830-159",
      "city": "ÍLHAVO",
      "lon": "-8.664028568663626",
      "lat": "40.594214220728176"
    },
    {
      "id": "pt.ine.add.PTCONT.126878",
      "street": "BC PELE",
      "house": "1",
      "postcode": "3830-077",
      "city": "ÍLHAVO",
      "lon": "-8.663595260770977",
      "lat": "40.59469348774366"
    },
    {
      "id": "pt.ine.add.PTCONT.126879",
      "street": "BC PELE",
      "house": "1",
      "postcode": "3830-077",
      "city": "ÍLHAVO",
      "lon": "-8.663595260770977",
      "lat": "40.59469348774366"
    },
    {
      "id": "pt.ine.add.PTCONT.126880",
      "street": "BC PELE",
      "house": "1",
      "postcode": "3830-077",
      "city": "ÍLHAVO",
      "lon": "-8.663595260770977",
      "lat": "40.59469348774366"
    },
    {
      "id": "pt.ine.add.PTCONT.128705",
      "street": "R CIMO DA VILA",
      "house": "153",
      "postcode": "3830-159",
      "city": "ÍLHAVO",
      "lon": "-8.661531113269223",
      "lat": "40.59210044267701"
    },
    {
      "id": "pt.ine.add.PTCONT.128706",
      "street": "R CIMO DA VILA",
      "house": "153",
      "postcode": "3830-159",
      "city": "ÍLHAVO",
      "lon": "-8.661531113269223",
      "lat": "40.59210044267701"
    },
    {
      "id": "pt.ine.add.PTCONT.128707",
      "street": "R CIMO DA VILA",
      "house": "153",
      "postcode": "3830-159",
      "city": "ÍLHAVO",
      "lon": "-8.661531113269223",
      "lat": "40.59210044267701"
    },
    {
      "id": "pt.ine.add.PTCONT.128708",
      "street": "R CIMO DA VILA",
      "house": "153",
      "postcode": "3830-159",
      "city": "ÍLHAVO",
      "lon": "-8.661531113269223",
      "lat": "40.59210044267701"
    },
    {
      "id": "pt.ine.add.PTCONT.128709",
      "street": "R CIMO DA VILA",
      "house": "153",
      "postcode": "3830-159",
      "city": "ÍLHAVO",
      "lon": "-8.661531113269223",
      "lat": "40.59210044267701"
    },
    {
      "id": "pt.ine.add.PTCONT.128710",
      "street": "R CIMO DA VILA",
      "house": "153",
      "postcode": "3830-159",
      "city": "ÍLHAVO",
      "lon": "-8.661531113269223",
      "lat": "40.59210044267701"
    },
    {
      "id": "pt.ine.add.PTCONT.128711",
      "street": "R CIMO DA VILA",
      "house": "153",
      "postcode": "3830-159",
      "city": "ÍLHAVO",
      "lon": "-8.661531113269223",
      "lat": "40.59210044267701"
    },
    {
      "id": "pt.ine.add.PTCONT.128712",
      "street": "R CIMO DA VILA",
      "house": "153",
      "postcode": "3830-159",
      "city": "ÍLHAVO",
      "lon": "-8.661531113269223",
      "lat": "40.59210044267701"
    },
    {
      "id": "pt.ine.add.PTCONT.128713",
      "street": "R CIMO DA VILA",
      "house": "153",
      "postcode": "3830-159",
      "city": "ÍLHAVO",
      "lon": "-8.661531113269223",
      "lat": "40.59210044267701"
    },
    {
      "id": "pt.ine.add.PTCONT.128714",
      "street": "R CIMO DA VILA",
      "house": "153",
      "postcode": "3830-159",
      "city": "ÍLHAVO",
      "lon": "-8.661531113269223",
      "lat": "40.59210044267701"
    },
    {
      "id": "pt.ine.add.PTCONT.128725",
      "street": "R CIMO DA VILA",
      "house": "153",
      "postcode": "3830-159",
      "city": "ÍLHAVO",
      "lon": "-8.661531113269223",
      "lat": "40.59210044267701"
    },
    {
      "id": "pt.ine.add.PTCONT.137159",
      "street": "R CIMO DA VILA",
      "house": "135",
      "postcode": "3830-159",
      "city": "ÍLHAVO",
      "lon": "-8.661927243078624",
      "lat": "40.59290009388255"
    },
    {
      "id": "pt.ine.add.PTCONT.140152",
      "street": "R CIMO DA VILA",
      "house": "4",
      "postcode": "3830-159",
      "city": "ÍLHAVO",
      "lon": "-8.663829385799353",
      "lat": "40.59442225593228"
    },
    {
      "id": "pt.ine.add.PTCONT.143265",
      "street": "PCT ANTÓNIO SÉRGIO",
      "house": "",
      "postcode": "3830-104",
      "city": "ÍLHAVO",
      "lon": "-8.660570113415629",
      "lat": "40.59006965600117"
    },
    {
      "id": "pt.ine.add.PTCONT.143266",
      "street": "PCT ANTÓNIO SÉRGIO",
      "house": "",
      "postcode": "3830-104",
      "city": "ÍLHAVO",
      "lon": "-8.660570113415629",
      "lat": "40.59006965600117"
    },
    {
      "id": "pt.ine.add.PTCONT.143267",
      "street": "PCT ANTÓNIO SÉRGIO",
      "house": "",
      "postcode": "3830-104",
      "city": "ÍLHAVO",
      "lon": "-8.660570113415629",
      "lat": "40.59006965600117"
    },
    {
      "id": "pt.ine.add.PTCONT.147773",
      "street": "PCT ANTÓNIO SÉRGIO",
      "house": "16",
      "postcode": "3830-104",
      "city": "ÍLHAVO",
      "lon": "-8.660266177077276",
      "lat": "40.59047627829452"
    },
    {
      "id": "pt.ine.add.PTCONT.147774",
      "street": "PCT ANTÓNIO SÉRGIO",
      "house": "16",
      "postcode": "3830-104",
      "city": "ÍLHAVO",
      "lon": "-8.660266177077276",
      "lat": "40.59047627829452"
    },
    {
      "id": "pt.ine.add.PTCONT.147775",
      "street": "PCT ANTÓNIO SÉRGIO",
      "house": "16",
      "postcode": "3830-104",
      "city": "ÍLHAVO",
      "lon": "-8.660266177077276",
      "lat": "40.59047627829452"
    },
    {
      "id": "pt.ine.add.PTCONT.147776",
      "street": "R CIMO DA VILA",
      "house": "",
      "postcode": "3830-159",
      "city": "ÍLHAVO",
      "lon": "-8.661298241825286",
      "lat": "40.59102988707953"
    },
    {
      "id": "pt.ine.add.PTCONT.147777",
      "street": "R CIMO",
      "house": "3",
      "postcode": "3830-159",
      "city": "ÍLHAVO",
      "lon": "-8.661298241825286",
      "lat": "40.59102988707953"
    },
    {
      "id": "pt.ine.add.PTCONT.150495",
      "street": "R CIMO DA VILA",
      "house": "",
      "postcode": "3830-159",
      "city": "ÍLHAVO",
      "lon": "-8.662698107826657",
      "lat": "40.5947786514682"
    },
    {
      "id": "pt.ine.add.PTCONT.153530",
      "street": "AV NSA SRA DO PRANTO",
      "house": "8",
      "postcode": "3830-046",
      "city": "ÍLHAVO",
      "lon": "-8.66570596495176",
      "lat": "40.597178217358646"
    },
    {
      "id": "pt.ine.add.PTCONT.153703",
      "street": "R PASSADOURO",
      "house": "11",
      "postcode": "3830-261",
      "city": "ÍLHAVO",
      "lon": "-8.658590700491311",
      "lat": "40.589214176670446"
    },
    {
      "id": "pt.ine.add.PTCONT.153795",
      "street": "R PASSADOURO",
      "house": "1",
      "postcode": "3830-261",
      "city": "ÍLHAVO",
      "lon": "-8.659750829494845",
      "lat": "40.58953308109849"
    },
    {
      "id": "pt.ine.add.PTCONT.156533",
      "street": "R PASSADOURO",
      "house": "19",
      "postcode": "3830-261",
      "city": "ÍLHAVO",
      "lon": "-8.658211867971572",
      "lat": "40.58910783678843"
    },
    {
      "id": "pt.ine.add.PTCONT.167591",
      "street": "R CIMO DA VILA",
      "house": "75",
      "postcode": "3830-159",
      "city": "ÍLHAVO",
      "lon": "-8.664325175786868",
      "lat": "40.59437495082065"
    },
    {
      "id": "pt.ine.add.PTCONT.169718",
      "street": "R AZENHA",
      "house": "",
      "postcode": "3830-030",
      "city": "ÍLHAVO",
      "lon": "-8.65791594695977",
      "lat": "40.590541011507774"
    },
    {
      "id": "pt.ine.add.PTCONT.177709",
      "street": "BC SILVA PEIXE",
      "house": "",
      "postcode": "3830-090",
      "city": "ÍLHAVO",
      "lon": "-8.665454524556601",
      "lat": "40.59675613176752"
    },
    {
      "id": "pt.ine.add.PTCONT.179101",
      "street": "R CIMO DA VILA",
      "house": "81 A",
      "postcode": "3830-159",
      "city": "ÍLHAVO",
      "lon": "-8.663956978638824",
      "lat": "40.59412449765"
    },
    {
      "id": "pt.ine.add.PTCONT.179102",
      "street": "BC PELE",
      "house": "",
      "postcode": "3830-077",
      "city": "ÍLHAVO",
      "lon": "-8.66337145296546",
      "lat": "40.5947755622928"
    },
    {
      "id": "pt.ine.add.PTCONT.180740",
      "street": "R CIMO DA VILA",
      "house": "27",
      "postcode": "3830-159",
      "city": "ÍLHAVO",
      "lon": "-8.665780440234238",
      "lat": "40.596142275133815"
    },
    {
      "id": "pt.ine.add.PTCONT.182340",
      "street": "BC SILVA PEIXE",
      "house": "",
      "postcode": "3830-090",
      "city": "ÍLHAVO",
      "lon": "-8.665608527650816",
      "lat": "40.59680945313572"
    },
    {
      "id": "pt.ine.add.PTCONT.185672",
      "street": "BC SILVA PEIXE",
      "house": "",
      "postcode": "3830-090",
      "city": "ÍLHAVO",
      "lon": "-8.665913389074474",
      "lat": "40.596519880660175"
    },
    {
      "id": "pt.ine.add.PTCONT.190794",
      "street": "R CIMO DA VILA",
      "house": "61",
      "postcode": "3830-159",
      "city": "ÍLHAVO",
      "lon": "-8.66509844506573",
      "lat": "40.59505578796019"
    },
    {
      "id": "pt.ine.add.PTCONT.192279",
      "street": "R PASSADOURO",
      "house": "",
      "postcode": "3830-261",
      "city": "ÍLHAVO",
      "lon": "-8.657998405563553",
      "lat": "40.589000744326626"
    },
    {
      "id": "pt.ine.add.PTCONT.198718",
      "street": "R CIMO DA VILA",
      "house": "13",
      "postcode": "3830-159",
      "city": "ÍLHAVO",
      "lon": "-8.665947685319397",
      "lat": "40.59637563913899"
    },
    {
      "id": "pt.ine.add.PTCONT.199071",
      "street": "BC CRUZEIRO",
      "house": "",
      "postcode": "3830-087",
      "city": "ÍLHAVO",
      "lon": "-8.663227562417076",
      "lat": "40.59450606644528"
    },
    {
      "id": "pt.ine.add.PTCONT.201464",
      "street": "PCT ANTÓNIO SÉRGIO",
      "house": "",
      "postcode": "3830-104",
      "city": "ÍLHAVO",
      "lon": "-8.659736247412859",
      "lat": "40.59068581554189"
    },
    {
      "id": "pt.ine.add.PTCONT.201465",
      "street": "PCT ANTÓNIO SÉRGIO",
      "house": "",
      "postcode": "3830-104",
      "city": "ÍLHAVO",
      "lon": "-8.659736247412859",
      "lat": "40.59068581554189"
    },
    {
      "id": "pt.ine.add.PTCONT.201552",
      "street": "PCT ANTÓNIO SÉRGIO",
      "house": "",
      "postcode": "3830-104",
      "city": "ÍLHAVO",
      "lon": "-8.659736247412859",
      "lat": "40.59068581554189"
    },
    {
      "id": "pt.ine.add.PTCONT.207023",
      "street": "R AZENHA",
      "house": "9",
      "postcode": "3830-030",
      "city": "ÍLHAVO",
      "lon": "-8.658181714156784",
      "lat": "40.589783365347834"
    },
    {
      "id": "pt.ine.add.PTCONT.207025",
      "street": "R CIMO DA VILA",
      "house": "",
      "postcode": "3830-159",
      "city": "ÍLHAVO",
      "lon": "-8.662952379672252",
      "lat": "40.59406607370848"
    },
    {
      "id": "pt.ine.add.PTCONT.215358",
      "street": "R CIMO DA VILA",
      "house": "",
      "postcode": "3830-159",
      "city": "ÍLHAVO",
      "lon": "-8.662511181150059",
      "lat": "40.593545794374684"
    },
    {
      "id": "pt.ine.add.PTCONT.218156",
      "street": "PCT ANTÓNIO SÉRGIO",
      "house": "2",
      "postcode": "3830-104",
      "city": "ÍLHAVO",
      "lon": "-8.660452273881011",
      "lat": "40.59010621491101"
    },
    {
      "id": "pt.ine.add.PTCONT.218157",
      "street": "PCT ANTÓNIO SÉRGIO",
      "house": "2",
      "postcode": "3830-104",
      "city": "ÍLHAVO",
      "lon": "-8.660452273881011",
      "lat": "40.59010621491101"
    },
    {
      "id": "pt.ine.add.PTCONT.220856",
      "street": "R PASSADOURO",
      "house": "123",
      "postcode": "3830-261",
      "city": "ÍLHAVO",
      "lon": "-8.660200822665743",
      "lat": "40.58967511209888"
    },
    {
      "id": "pt.ine.add.PTCONT.220859",
      "street": "R CIMO DA VILA",
      "house": "165",
      "postcode": "3830-159",
      "city": "ÍLHAVO",
      "lon": "-8.661381920866216",
      "lat": "40.59115557744361"
    },
    {
      "id": "pt.ine.add.PTCONT.223483",
      "street": "PCT ANTÓNIO SÉRGIO",
      "house": "7",
      "postcode": "3830-104",
      "city": "ÍLHAVO",
      "lon": "-8.659887122826627",
      "lat": "40.590342929304434"
    },
    {
      "id": "pt.ine.add.PTCONT.223484",
      "street": "PCT ANTÓNIO SÉRGIO",
      "house": "7",
      "postcode": "3830-104",
      "city": "ÍLHAVO",
      "lon": "-8.659887122826627",
      "lat": "40.590342929304434"
    },
    {
      "id": "pt.ine.add.PTCONT.223485",
      "street": "PCT ANTÓNIO SÉRGIO",
      "house": "7",
      "postcode": "3830-104",
      "city": "ÍLHAVO",
      "lon": "-8.659887122826627",
      "lat": "40.590342929304434"
    },
    {
      "id": "pt.ine.add.PTCONT.223486",
      "street": "PCT ANTÓNIO SÉRGIO",
      "house": "",
      "postcode": "3830-104",
      "city": "ÍLHAVO",
      "lon": "-8.66037213431921",
      "lat": "40.59043076859688"
    },
    {
      "id": "pt.ine.add.PTCONT.223487",
      "street": "PCT ANTÓNIO SÉRGIO",
      "house": "",
      "postcode": "3830-104",
      "city": "ÍLHAVO",
      "lon": "-8.66037213431921",
      "lat": "40.59043076859688"
    },
    {
      "id": "pt.ine.add.PTCONT.223488",
      "street": "PCT ANTÓNIO SÉRGIO",
      "house": "",
      "postcode": "3830-104",
      "city": "ÍLHAVO",
      "lon": "-8.66037213431921",
      "lat": "40.59043076859688"
    },
    {
      "id": "pt.ine.add.PTCONT.223489",
      "street": "R CIMO DA VILA",
      "house": "8",
      "postcode": "3830-159",
      "city": "ÍLHAVO",
      "lon": "-8.663084099648913",
      "lat": "40.59429059970877"
    },
    {
      "id": "pt.ine.add.PTCONT.239765",
      "street": "R CIMO DA VILA",
      "house": "71",
      "postcode": "3830-159",
      "city": "ÍLHAVO",
      "lon": "-8.66469323304162",
      "lat": "40.59460739302523"
    },
    {
      "id": "pt.ine.add.PTCONT.246751",
      "street": "R CIMO DA VILA",
      "house": "",
      "postcode": "3830-159",
      "city": "ÍLHAVO",
      "lon": "-8.663057132037828",
      "lat": "40.59386747849648"
    },
    {
      "id": "pt.ine.add.PTCONT.248523",
      "street": "AV NSA SRA DO PRANTO",
      "house": "4 6",
      "postcode": "3830-046",
      "city": "ÍLHAVO",
      "lon": "-8.665882452447555",
      "lat": "40.59708735138016"
    },
    {
      "id": "pt.ine.add.PTCONT.248524",
      "street": "AV NSA SRA DO PRANTO",
      "house": "4 6",
      "postcode": "3830-046",
      "city": "ÍLHAVO",
      "lon": "-8.665882452447555",
      "lat": "40.59708735138016"
    },
    {
      "id": "pt.ine.add.PTCONT.250548",
      "street": "R CIMO DA VILA",
      "house": "",
      "postcode": "3830-159",
      "city": "ÍLHAVO",
      "lon": "-8.662962841992814",
      "lat": "40.59389492669398"
    },
    {
      "id": "pt.ine.add.PTCONT.255979",
      "street": "R CIMO DA VILA",
      "house": "31",
      "postcode": "3830-159",
      "city": "ÍLHAVO",
      "lon": "-8.665613696440873",
      "lat": "40.59597194502061"
    },
    {
      "id": "pt.ine.add.PTCONT.255992",
      "street": "R CIMO DA VILA",
      "house": "93",
      "postcode": "3830-159",
      "city": "ÍLHAVO",
      "lon": "-8.663258449420045",
      "lat": "40.59392959116431"
    },
    {
      "id": "pt.ine.add.PTCONT.260767",
      "street": "PCT ANTONIO SERGIO",
      "house": "4",
      "postcode": "3830-104",
      "city": "ÍLHAVO",
      "lon": "-8.660240289671998",
      "lat": "40.59018822945916"
    },
    {
      "id": "pt.ine.add.PTCONT.260768",
      "street": "PCT ANTONIO SERGIO",
      "house": "4",
      "postcode": "3830-104",
      "city": "ÍLHAVO",
      "lon": "-8.660240289671998",
      "lat": "40.59018822945916"
    },
    {
      "id": "pt.ine.add.PTCONT.260769",
      "street": "R CIMO",
      "house": "141 R C",
      "postcode": "3830-159",
      "city": "ÍLHAVO",
      "lon": "-8.66196197182663",
      "lat": "40.592809882746366"
    },
    {
      "id": "pt.ine.add.PTCONT.260879",
      "street": "R CIMO",
      "house": "141 A",
      "postcode": "3830-159",
      "city": "ÍLHAVO",
      "lon": "-8.66196197182663",
      "lat": "40.592809882746366"
    },
    {
      "id": "pt.ine.add.PTCONT.262231",
      "street": "PCT ANTONIO SERGIO",
      "house": "4 R C",
      "postcode": "3830-104",
      "city": "ÍLHAVO",
      "lon": "-8.660240289671998",
      "lat": "40.59018822945916"
    },
    {
      "id": "pt.ine.add.PTCONT.264986",
      "street": "R CIMO DA VILA",
      "house": "151",
      "postcode": "3830-159",
      "city": "ÍLHAVO",
      "lon": "-8.661865696616426",
      "lat": "40.59258519315038"
    },
    {
      "id": "pt.ine.add.PTCONT.269502",
      "street": "R CIMO",
      "house": "1",
      "postcode": "3830-159",
      "city": "ÍLHAVO",
      "lon": "-8.666257979859472",
      "lat": "40.596770436419874"
    },
    {
      "id": "pt.ine.add.PTCONT.269503",
      "street": "LG SRA PRANTO",
      "house": "1",
      "postcode": "3830-046",
      "city": "ÍLHAVO",
      "lon": "-8.666257979859472",
      "lat": "40.596770436419874"
    },
    {
      "id": "pt.ine.add.PTCONT.269512",
      "street": "PCT ANTÓNIO SÉRGIO",
      "house": "",
      "postcode": "3830-104",
      "city": "ÍLHAVO",
      "lon": "-8.660183915053484",
      "lat": "40.59053068499324"
    },
    {
      "id": "pt.ine.add.PTCONT.269513",
      "street": "PCT ANTÓNIO SÉRGIO",
      "house": "",
      "postcode": "3830-104",
      "city": "ÍLHAVO",
      "lon": "-8.660183915053484",
      "lat": "40.59053068499324"
    },
    {
      "id": "pt.ine.add.PTCONT.269514",
      "street": "PCT ANTÓNIO SÉRGIO",
      "house": "",
      "postcode": "3830-104",
      "city": "ÍLHAVO",
      "lon": "-8.660183915053484",
      "lat": "40.59053068499324"
    },
    {
      "id": "pt.ine.add.PTCONT.272269",
      "street": "R PASSADOURO",
      "house": "",
      "postcode": "3830-261",
      "city": "ÍLHAVO",
      "lon": "-8.660473563915653",
      "lat": "40.58980894550197"
    },
    {
      "id": "pt.ine.add.PTCONT.272271",
      "street": "PCT ANTÓNIO SÉRGIO",
      "house": "14",
      "postcode": "3830-104",
      "city": "ÍLHAVO",
      "lon": "-8.6600779575251",
      "lat": "40.59057619451923"
    },
    {
      "id": "pt.ine.add.PTCONT.272272",
      "street": "PCT ANTÓNIO SÉRGIO",
      "house": "14",
      "postcode": "3830-104",
      "city": "ÍLHAVO",
      "lon": "-8.6600779575251",
      "lat": "40.59057619451923"
    },
    {
      "id": "pt.ine.add.PTCONT.272273",
      "street": "PCT ANTÓNIO SÉRGIO",
      "house": "14",
      "postcode": "3830-104",
      "city": "ÍLHAVO",
      "lon": "-8.6600779575251",
      "lat": "40.59057619451923"
    },
    {
      "id": "pt.ine.add.PTCONT.274689",
      "street": "R CIMO DA VILA",
      "house": "115",
      "postcode": "3830-159",
      "city": "ÍLHAVO",
      "lon": "-8.6624040133237",
      "lat": "40.59343822294975"
    },
    {
      "id": "pt.ine.add.PTCONT.274690",
      "street": "BC CRUZEIRO",
      "house": "14",
      "postcode": "3830-087",
      "city": "ÍLHAVO",
      "lon": "-8.663273534203322",
      "lat": "40.59434376165294"
    },
    {
      "id": "pt.ine.add.PTCONT.275860",
      "street": "R CIMO DA VILA",
      "house": "53",
      "postcode": "3830-159",
      "city": "ÍLHAVO",
      "lon": "-8.665289311358706",
      "lat": "40.595289044176745"
    },
    {
      "id": "pt.ine.add.PTCONT.278125",
      "street": "R CIMO DA VILA",
      "house": "81 B",
      "postcode": "3830-159",
      "city": "ÍLHAVO",
      "lon": "-8.66379117006985",
      "lat": "40.59407122828133"
    },
    {
      "id": "pt.ine.add.PTCONT.280330",
      "street": "R CIMO DA VILA",
      "house": "155",
      "postcode": "3830-159",
      "city": "ÍLHAVO",
      "lon": "-8.661449346449972",
      "lat": "40.59221788450185"
    },
    {
      "id": "pt.ine.add.PTCONT.280332",
      "street": "R CIMO DA VILA",
      "house": "155",
      "postcode": "3830-159",
      "city": "ÍLHAVO",
      "lon": "-8.661449346449972",
      "lat": "40.59221788450185"
    },
    {
      "id": "pt.ine.add.PTCONT.280333",
      "street": "R CIMO DA VILA",
      "house": "155",
      "postcode": "3830-159",
      "city": "ÍLHAVO",
      "lon": "-8.661449346449972",
      "lat": "40.59221788450185"
    },
    {
      "id": "pt.ine.add.PTCONT.280334",
      "street": "R CIMO DA VILA",
      "house": "155",
      "postcode": "3830-159",
      "city": "ÍLHAVO",
      "lon": "-8.661449346449972",
      "lat": "40.59221788450185"
    },
    {
      "id": "pt.ine.add.PTCONT.280335",
      "street": "R CIMO DA VILA",
      "house": "155",
      "postcode": "3830-159",
      "city": "ÍLHAVO",
      "lon": "-8.661449346449972",
      "lat": "40.59221788450185"
    },
    {
      "id": "pt.ine.add.PTCONT.282745",
      "street": "PCT ANTÓNIO SÉRGIO",
      "house": "",
      "postcode": "3830-104",
      "city": "ÍLHAVO",
      "lon": "-8.65959294535143",
      "lat": "40.59048835399788"
    },
    {
      "id": "pt.ine.add.PTCONT.282746",
      "street": "PCT ANTÓNIO SÉRGIO",
      "house": "",
      "postcode": "3830-104",
      "city": "ÍLHAVO",
      "lon": "-8.65959294535143",
      "lat": "40.59048835399788"
    },
    {
      "id": "pt.ine.add.PTCONT.282747",
      "street": "PCT ANTÓNIO SÉRGIO",
      "house": "",
      "postcode": "3830-104",
      "city": "ÍLHAVO",
      "lon": "-8.65959294535143",
      "lat": "40.59048835399788"
    },
    {
      "id": "pt.ine.add.PTCONT.285429",
      "street": "R CIMO DA VILA",
      "house": "51A",
      "postcode": "3830-159",
      "city": "ÍLHAVO",
      "lon": "-8.665385244903831",
      "lat": "40.595468706318826"
    }
  ]
}