{
  "data": {
    "distrito": "Lisboa",
    "concelho": "Mafra",
    "freguesia": "Santo Isidoro",
    "OBJECTID": 1686,
    "BGRI2021": "11091300324",
    "DT21": "11",
    "DTMN21": "1109",
    "DTMNFR21": "110913",
    "DTMNFRSEC21": "110913003",
    "SECNUM21": "003",
    "SSNUM21": "24",
    "SECSSNUM21": "00324",
    "OBJECTID_1": 108615,
    "DT": "11",
    "CC": "09",
    "fr": "13",
    "SEC": "003",
    "SS": "24"
  },
  "addresses": [
    {
      "id": "pt.ine.add.PTCONT.2299148",
      "street": "R MARMORES",
      "house": "",
      "postcode": "2640-066",
      "city": "SANTO ISIDORO MFR",
      "lon": "-9.367836735693032",
      "lat": "38.98992015149458"
    },
    {
      "id": "pt.ine.add.PTCONT.2517403",
      "street": "R NORTE",
      "house": "",
      "postcode": "2640-066",
      "city": "SANTO ISIDORO MFR",
      "lon": "-9.36650685092962",
      "lat": "38.989105544248176"
    },
    {
      "id": "pt.ine.add.PTCONT.2517404",
      "street": "R FONTANARIO",
      "house": "",
      "postcode": "2640-066",
      "city": "SANTO ISIDORO MFR",
      "lon": "-9.366200419890594",
      "lat": "38.98873948285101"
    },
    {
      "id": "pt.ine.add.PTCONT.2598876",
      "street": "R NORTE",
      "house": "",
      "postcode": "2640-066",
      "city": "SANTO ISIDORO MFR",
      "lon": "-9.36682620085036",
      "lat": "38.988885991764064"
    },
    {
      "id": "pt.ine.add.PTCONT.2749889",
      "street": "R FONTANARIO",
      "house": "",
      "postcode": "2640-066",
      "city": "SANTO ISIDORO MFR",
      "lon": "-9.36613243411926",
      "lat": "38.98881226003381"
    },
    {
      "id": "pt.ine.add.PTCONT.2888022",
      "street": "R DO FONTAN√ÅRIO",
      "house": "",
      "postcode": "2640-066",
      "city": "SANTO ISIDORO MFR",
      "lon": "-9.366864852997322",
      "lat": "38.98845323117061"
    },
    {
      "id": "pt.ine.add.PTCONT.2936278",
      "street": "R NORTE",
      "house": "",
      "postcode": "2640-066",
      "city": "SANTO ISIDORO MFR",
      "lon": "-9.366888588409228",
      "lat": "38.989155551917555"
    },
    {
      "id": "pt.ine.add.PTCONT.3197612",
      "street": "R FONTANARIO",
      "house": "1",
      "postcode": "2640-066",
      "city": "SANTO ISIDORO MFR",
      "lon": "-9.3665858784091",
      "lat": "38.988339085663675"
    },
    {
      "id": "pt.ine.add.PTCONT.3216244",
      "street": "R ZU DE MAIO",
      "house": "",
      "postcode": "2640-066",
      "city": "SANTO ISIDORO MFR",
      "lon": "-9.368131371233961",
      "lat": "38.99093486082431"
    },
    {
      "id": "pt.ine.add.PTCONT.3326902",
      "street": "R NORTE",
      "house": "",
      "postcode": "2640-066",
      "city": "SANTO ISIDORO MFR",
      "lon": "-9.367002105675796",
      "lat": "38.98904626344396"
    },
    {
      "id": "pt.ine.add.PTCONT.3383084",
      "street": "R FONTANARIO",
      "house": "",
      "postcode": "2640-066",
      "city": "SANTO ISIDORO MFR",
      "lon": "-9.366040900765656",
      "lat": "38.9888582640352"
    },
    {
      "id": "pt.ine.add.PTCONT.3413000",
      "street": "R ZU DE MAIO",
      "house": "",
      "postcode": "2640-066",
      "city": "SANTO ISIDORO MFR",
      "lon": "-9.368517973580968",
      "lat": "38.9912640386754"
    }
  ]
}