{
  "data": {
    "distrito": "Lisboa",
    "concelho": "Mafra",
    "freguesia": "Santo Isidoro",
    "OBJECTID": 454,
    "BGRI2021": "11091300344",
    "DT21": "11",
    "DTMN21": "1109",
    "DTMNFR21": "110913",
    "DTMNFRSEC21": "110913003",
    "SECNUM21": "003",
    "SSNUM21": "44",
    "SECSSNUM21": "00344",
    "OBJECTID_1": 108378,
    "DT": "11",
    "CC": "09",
    "fr": "13",
    "SEC": "003",
    "SS": "44"
  },
  "addresses": [
    {
      "id": "pt.ine.add.PTCONT.2443733",
      "street": "R FONTANARIO",
      "house": "10",
      "postcode": "2640-089",
      "city": "SANTO ISIDORO MFR",
      "lon": "-9.397726376095093",
      "lat": "38.99428378705992"
    },
    {
      "id": "pt.ine.add.PTCONT.2463732",
      "street": "AV LARANJEIRAS",
      "house": "3",
      "postcode": "2640-094",
      "city": "SANTO ISIDORO MFR",
      "lon": "-9.39734218822364",
      "lat": "38.99409879770903"
    },
    {
      "id": "pt.ine.add.PTCONT.2470263",
      "street": "R FONTANARIO",
      "house": "4",
      "postcode": "2640-089",
      "city": "SANTO ISIDORO MFR",
      "lon": "-9.397246502825636",
      "lat": "38.99391068126873"
    },
    {
      "id": "pt.ine.add.PTCONT.2535292",
      "street": "R FONTANARIO",
      "house": "12",
      "postcode": "2640-089",
      "city": "SANTO ISIDORO MFR",
      "lon": "-9.397983464445653",
      "lat": "38.99446114593528"
    },
    {
      "id": "pt.ine.add.PTCONT.2766258",
      "street": "R FONTANARIO",
      "house": "14",
      "postcode": "2640-089",
      "city": "SANTO ISIDORO MFR",
      "lon": "-9.398160414576758",
      "lat": "38.99467540245117"
    },
    {
      "id": "pt.ine.add.PTCONT.3141578",
      "street": "AV LARANJEIRAS",
      "house": "13",
      "postcode": "2640-094",
      "city": "SANTO ISIDORO MFR",
      "lon": "-9.397992924280674",
      "lat": "38.99499247400717"
    },
    {
      "id": "pt.ine.add.PTCONT.3206091",
      "street": "AV LARANJEIRAS",
      "house": "11",
      "postcode": "2640-094",
      "city": "SANTO ISIDORO MFR",
      "lon": "-9.397886016391933",
      "lat": "38.99482249441081"
    },
    {
      "id": "pt.ine.add.PTCONT.3252907",
      "street": "AV LARANJEIRAS",
      "house": "9",
      "postcode": "2640-094",
      "city": "SANTO ISIDORO MFR",
      "lon": "-9.397779429641917",
      "lat": "38.99467052582587"
    }
  ]
}