{
  "data": {
    "distrito": "Lisboa",
    "concelho": "Mafra",
    "freguesia": "União das freguesias de Enxara do Bispo, Gradil e Vila Franca do Rosário",
    "OBJECTID": 1979,
    "BGRI2021": "11091900105",
    "DT21": "11",
    "DTMN21": "1109",
    "DTMNFR21": "110919",
    "DTMNFRSEC21": "110919001",
    "SECNUM21": "001",
    "SSNUM21": "05",
    "SECSSNUM21": "00105",
    "OBJECTID_1": 108655,
    "DT": "11",
    "CC": "09",
    "fr": "19",
    "SEC": "001",
    "SS": "05"
  },
  "addresses": [
    {
      "id": "pt.ine.add.PTCONT.2345507",
      "street": "TV NARCISO",
      "house": "2",
      "postcode": "2665-054",
      "city": "ENXARA DO BISPO",
      "lon": "-9.216033440718595",
      "lat": "38.984158961005484"
    },
    {
      "id": "pt.ine.add.PTCONT.2535148",
      "street": "R PRINCIPAL",
      "house": "7",
      "postcode": "2665-054",
      "city": "ENXARA DO BISPO",
      "lon": "-9.215475738074373",
      "lat": "38.983155302784446"
    },
    {
      "id": "pt.ine.add.PTCONT.2580645",
      "street": "R PRINCIPAL",
      "house": "3",
      "postcode": "2665-054",
      "city": "ENXARA DO BISPO",
      "lon": "-9.215333704426769",
      "lat": "38.98292242684501"
    },
    {
      "id": "pt.ine.add.PTCONT.2589270",
      "street": "TV CALÇADA",
      "house": "1",
      "postcode": "2665-054",
      "city": "ENXARA DO BISPO",
      "lon": "-9.215534256123188",
      "lat": "38.98320880455958"
    },
    {
      "id": "pt.ine.add.PTCONT.2627387",
      "street": "R DIREITA",
      "house": "10",
      "postcode": "2665-054",
      "city": "ENXARA DO BISPO",
      "lon": "-9.215866144108315",
      "lat": "38.983025576331876"
    },
    {
      "id": "pt.ine.add.PTCONT.2677725",
      "street": "TV NARCISO",
      "house": "3",
      "postcode": "2665-054",
      "city": "ENXARA DO BISPO",
      "lon": "-9.215961461337947",
      "lat": "38.98397948029283"
    },
    {
      "id": "pt.ine.add.PTCONT.2786629",
      "street": "R PRINCIPAL",
      "house": "25",
      "postcode": "2665-054",
      "city": "ENXARA DO BISPO",
      "lon": "-9.215910625911942",
      "lat": "38.9844303239778"
    },
    {
      "id": "pt.ine.add.PTCONT.2932874",
      "street": "TV NARCISO",
      "house": "5",
      "postcode": "2665-054",
      "city": "ENXARA DO BISPO",
      "lon": "-9.216180705292635",
      "lat": "38.983977445321635"
    },
    {
      "id": "pt.ine.add.PTCONT.2946780",
      "street": "R ERMIDA",
      "house": "22",
      "postcode": "2665-054",
      "city": "ENXARA DO BISPO",
      "lon": "-9.21620941064027",
      "lat": "38.98434648380883"
    },
    {
      "id": "pt.ine.add.PTCONT.3002558",
      "street": "R ERMIDA",
      "house": "18",
      "postcode": "2665-054",
      "city": "ENXARA DO BISPO",
      "lon": "-9.21615694079482",
      "lat": "38.98393262872687"
    },
    {
      "id": "pt.ine.add.PTCONT.3015458",
      "street": "R PRINCIPAL",
      "house": "5",
      "postcode": "2665-054",
      "city": "ENXARA DO BISPO",
      "lon": "-9.21539304499069",
      "lat": "38.983029965706244"
    },
    {
      "id": "pt.ine.add.PTCONT.3058186",
      "street": "CC FERRADOR",
      "house": "6",
      "postcode": "2665-054",
      "city": "ENXARA DO BISPO",
      "lon": "-9.216155568423748",
      "lat": "38.98384256708243"
    },
    {
      "id": "pt.ine.add.PTCONT.3058187",
      "street": "CC FERRADOR",
      "house": "6",
      "postcode": "2665-054",
      "city": "ENXARA DO BISPO",
      "lon": "-9.216155568423748",
      "lat": "38.98384256708243"
    },
    {
      "id": "pt.ine.add.PTCONT.3114047",
      "street": "TV CALÇADA",
      "house": "2",
      "postcode": "2665-054",
      "city": "ENXARA DO BISPO",
      "lon": "-9.215673410373569",
      "lat": "38.98325255072514"
    },
    {
      "id": "pt.ine.add.PTCONT.3161222",
      "street": "R ERMIDA",
      "house": "22 A",
      "postcode": "2665-054",
      "city": "ENXARA DO BISPO",
      "lon": "-9.216127263780205",
      "lat": "38.98425717196989"
    },
    {
      "id": "pt.ine.add.PTCONT.3220021",
      "street": "R DIREITA",
      "house": "8",
      "postcode": "2665-054",
      "city": "ENXARA DO BISPO",
      "lon": "-9.215773832093468",
      "lat": "38.98302643294574"
    },
    {
      "id": "pt.ine.add.PTCONT.3280640",
      "street": "TV CALÇADA",
      "house": "4",
      "postcode": "2665-054",
      "city": "ENXARA DO BISPO",
      "lon": "-9.215753086183893",
      "lat": "38.98317975192447"
    },
    {
      "id": "pt.ine.add.PTCONT.3298245",
      "street": "R PRINCIPAL",
      "house": "15",
      "postcode": "2665-054",
      "city": "ENXARA DO BISPO",
      "lon": "-9.215777947654455",
      "lat": "38.983296617946735"
    },
    {
      "id": "pt.ine.add.PTCONT.3311594",
      "street": "TV CALÇADA",
      "house": "5",
      "postcode": "2665-054",
      "city": "ENXARA DO BISPO",
      "lon": "-9.215671078444371",
      "lat": "38.98309944588642"
    },
    {
      "id": "pt.ine.add.PTCONT.3326744",
      "street": "R PRINCIPAL",
      "house": "21",
      "postcode": "2665-054",
      "city": "ENXARA DO BISPO",
      "lon": "-9.215855825339409",
      "lat": "38.983863363934134"
    },
    {
      "id": "pt.ine.add.PTCONT.3354406",
      "street": "R DIREITA",
      "house": "6",
      "postcode": "2665-054",
      "city": "ENXARA DO BISPO",
      "lon": "-9.215634815396687",
      "lat": "38.98299169306024"
    },
    {
      "id": "pt.ine.add.PTCONT.3371898",
      "street": "R ERMIDA",
      "house": "14",
      "postcode": "2665-054",
      "city": "ENXARA DO BISPO",
      "lon": "-9.216381684064507",
      "lat": "38.983534215039946"
    }
  ]
}