{
  "data": {
    "distrito": "Lisboa",
    "concelho": "Mafra",
    "freguesia": "União das freguesias de Enxara do Bispo, Gradil e Vila Franca do Rosário",
    "OBJECTID": 1635,
    "BGRI2021": "11091900123",
    "DT21": "11",
    "DTMN21": "1109",
    "DTMNFR21": "110919",
    "DTMNFRSEC21": "110919001",
    "SECNUM21": "001",
    "SSNUM21": "23",
    "SECSSNUM21": "00123",
    "OBJECTID_1": 109735,
    "DT": "11",
    "CC": "09",
    "fr": "19",
    "SEC": "001",
    "SS": "23"
  },
  "addresses": [
    {
      "id": "pt.ine.add.PTCONT.2345503",
      "street": "ESTR JUNCEIRA",
      "house": "18",
      "postcode": "2665-055",
      "city": "ENXARA DO BISPO",
      "lon": "-9.207648740426597",
      "lat": "38.992154019223015"
    },
    {
      "id": "pt.ine.add.PTCONT.2345504",
      "street": "ESTR JUNCEIRA",
      "house": "18",
      "postcode": "2665-055",
      "city": "ENXARA DO BISPO",
      "lon": "-9.207648740426597",
      "lat": "38.992154019223015"
    },
    {
      "id": "pt.ine.add.PTCONT.2430122",
      "street": "R VENDA DA MAIA",
      "house": "10",
      "postcode": "2665-055",
      "city": "ENXARA DO BISPO",
      "lon": "-9.208126356525849",
      "lat": "38.99168123291507"
    },
    {
      "id": "pt.ine.add.PTCONT.2453893",
      "street": "R JUNCEIRA",
      "house": "7 A",
      "postcode": "2665-055",
      "city": "ENXARA DO BISPO",
      "lon": "-9.206457346099054",
      "lat": "38.991984837374474"
    },
    {
      "id": "pt.ine.add.PTCONT.2707960",
      "street": "ESTR DO CASAL DA JUNCEIRA",
      "house": "22",
      "postcode": "2665-055",
      "city": "ENXARA DO BISPO",
      "lon": "-9.20610297120212",
      "lat": "38.9914476510712"
    },
    {
      "id": "pt.ine.add.PTCONT.2844731",
      "street": "R VENDA DA MAIA",
      "house": "16",
      "postcode": "2665-055",
      "city": "ENXARA DO BISPO",
      "lon": "-9.207933302466957",
      "lat": "38.99189018251833"
    },
    {
      "id": "pt.ine.add.PTCONT.2851368",
      "street": "R VENDA DA MAIA",
      "house": "16",
      "postcode": "2665-055",
      "city": "ENXARA DO BISPO",
      "lon": "-9.207933302466957",
      "lat": "38.99189018251833"
    },
    {
      "id": "pt.ine.add.PTCONT.2895140",
      "street": "CAM VALADO",
      "house": "16",
      "postcode": "2665-055",
      "city": "ENXARA DO BISPO",
      "lon": "-9.205375211590956",
      "lat": "38.98911240863938"
    },
    {
      "id": "pt.ine.add.PTCONT.3039175",
      "street": "EN 9 2",
      "house": "",
      "postcode": "2665-055",
      "city": "ENXARA DO BISPO",
      "lon": "-9.203872433969657",
      "lat": "38.98818943647334"
    },
    {
      "id": "pt.ine.add.PTCONT.3153900",
      "street": "R VENDA DA MAIA",
      "house": "8",
      "postcode": "2665-055",
      "city": "ENXARA DO BISPO",
      "lon": "-9.207941982004417",
      "lat": "38.99170094649263"
    },
    {
      "id": "pt.ine.add.PTCONT.3362487",
      "street": "R JUNCEIRA",
      "house": "7",
      "postcode": "2665-055",
      "city": "ENXARA DO BISPO",
      "lon": "-9.206573567389944",
      "lat": "38.99203781268665"
    },
    {
      "id": "pt.ine.add.PTCONT.3433097",
      "street": "R VENDA DA MAIA",
      "house": "5",
      "postcode": "2665-055",
      "city": "ENXARA DO BISPO",
      "lon": "-9.207938848631857",
      "lat": "38.9914938044241"
    }
  ]
}