{
  "data": {
    "distrito": "Viseu",
    "concelho": "São João da Pesqueira",
    "freguesia": "Ervedosa do Douro",
    "OBJECTID": 298,
    "BGRI2021": "18150200228",
    "DT21": "18",
    "DTMN21": "1815",
    "DTMNFR21": "181502",
    "DTMNFRSEC21": "181502002",
    "SECNUM21": "002",
    "SSNUM21": "28",
    "SECSSNUM21": "00228",
    "OBJECTID_1": 196091,
    "DT": "18",
    "CC": "15",
    "fr": "02",
    "SEC": "002",
    "SS": "28"
  },
  "addresses": [
    {
      "id": "pt.ine.add.PTCONT.5460683",
      "street": "QTA NOGUEIRA",
      "house": "",
      "postcode": "5130-141",
      "city": "ERVEDOSA DO DOURO",
      "lon": "-7.508039192716203",
      "lat": "41.16133948525648"
    },
    {
      "id": "pt.ine.add.PTCONT.5482881",
      "street": "QTA MALHO",
      "house": "",
      "postcode": "5130-057",
      "city": "ERVEDOSA DO DOURO",
      "lon": "-7.5006027093061425",
      "lat": "41.1701951393787"
    },
    {
      "id": "pt.ine.add.PTCONT.5522814",
      "street": "QTA ENTRE CAMINHOS",
      "house": "",
      "postcode": "5130-141",
      "city": "ERVEDOSA DO DOURO",
      "lon": "-7.506086393993277",
      "lat": "41.162463414307574"
    },
    {
      "id": "pt.ine.add.PTCONT.5525289",
      "street": "QTA MALHO F LURTON",
      "house": "",
      "postcode": "5130-057",
      "city": "ERVEDOSA DO DOURO",
      "lon": "-7.510886822756887",
      "lat": "41.17141270982151"
    },
    {
      "id": "pt.ine.add.PTCONT.5529231",
      "street": "QTA COSTA CASA PATROES",
      "house": "",
      "postcode": "5130-141",
      "city": "ERVEDOSA DO DOURO",
      "lon": "-7.506989904022164",
      "lat": "41.1626754282959"
    },
    {
      "id": "pt.ine.add.PTCONT.5539697",
      "street": "QTA CARVALHEIRA",
      "house": "",
      "postcode": "5130-141",
      "city": "ERVEDOSA DO DOURO",
      "lon": "-7.498167102106515",
      "lat": "41.16327544072965"
    },
    {
      "id": "pt.ine.add.PTCONT.5562673",
      "street": "QTA NOGUEIRA",
      "house": "",
      "postcode": "5130-141",
      "city": "ERVEDOSA DO DOURO",
      "lon": "-7.508123959522173",
      "lat": "41.161195876267094"
    },
    {
      "id": "pt.ine.add.PTCONT.5570369",
      "street": "QTA MONTE BRAVO",
      "house": "",
      "postcode": "5130-130",
      "city": "ERVEDOSA DO DOURO",
      "lon": "-7.492123967138809",
      "lat": "41.15861375563495"
    },
    {
      "id": "pt.ine.add.PTCONT.5643526",
      "street": "QTA ENTRE CAMINHOS",
      "house": "",
      "postcode": "5130-141",
      "city": "ERVEDOSA DO DOURO",
      "lon": "-7.506419563383226",
      "lat": "41.16251024904377"
    }
  ]
}