{
  "data": {
    "distrito": "Coimbra",
    "concelho": "Arganil",
    "freguesia": "Piódão",
    "OBJECTID": 252,
    "BGRI2021": "06011100108",
    "DT21": "06",
    "DTMN21": "0601",
    "DTMNFR21": "060111",
    "DTMNFRSEC21": "060111001",
    "SECNUM21": "001",
    "SSNUM21": "08",
    "SECSSNUM21": "00108",
    "OBJECTID_1": 47003,
    "DT": "06",
    "CC": "01",
    "fr": "11",
    "SEC": "001",
    "SS": "08"
  },
  "addresses": [
    {
      "id": "pt.ine.add.PTCONT.1116358",
      "street": "ESC FONTINHA",
      "house": "",
      "postcode": "3305-242",
      "city": "PIÓDÃO",
      "lon": "-7.825249502253733",
      "lat": "40.229633556980964"
    },
    {
      "id": "pt.ine.add.PTCONT.1125654",
      "street": "LG HORTAS CASA DO JULIO PEQUENA",
      "house": "",
      "postcode": "3305-242",
      "city": "PIÓDÃO",
      "lon": "-7.825650499725969",
      "lat": "40.229301407563824"
    },
    {
      "id": "pt.ine.add.PTCONT.1133153",
      "street": "R CÓNEGO MANUEL FERNANDES NOGUEIRA",
      "house": "",
      "postcode": "3305-242",
      "city": "PIÓDÃO",
      "lon": "-7.825283936026892",
      "lat": "40.22981376494182"
    },
    {
      "id": "pt.ine.add.PTCONT.1141021",
      "street": "R CÓNEGO MANUEL FERNANDES NOGUEIRA",
      "house": "",
      "postcode": "3305-242",
      "city": "PIÓDÃO",
      "lon": "-7.825389969157801",
      "lat": "40.22975100616242"
    },
    {
      "id": "pt.ine.add.PTCONT.1141022",
      "street": "CAM CEREJEIRA PRETA CASA DO BISPO",
      "house": "",
      "postcode": "3305-242",
      "city": "PIÓDÃO",
      "lon": "-7.82556662271978",
      "lat": "40.2296614174958"
    },
    {
      "id": "pt.ine.add.PTCONT.1143625",
      "street": "LG HORTAS CASA DO JULIO GRANDE",
      "house": "",
      "postcode": "3305-242",
      "city": "PIÓDÃO",
      "lon": "-7.825756328181841",
      "lat": "40.22928367699665"
    },
    {
      "id": "pt.ine.add.PTCONT.1144793",
      "street": "ESC FONTINHA CASA DA ANA ROSA",
      "house": "",
      "postcode": "3305-242",
      "city": "PIÓDÃO",
      "lon": "-7.825108750279917",
      "lat": "40.22957914760241"
    },
    {
      "id": "pt.ine.add.PTCONT.1153196",
      "street": "BC MOINHO DE VENTO CASA DO VITOR CAMIONISTA",
      "house": "",
      "postcode": "3305-242",
      "city": "PIÓDÃO",
      "lon": "-7.825331587294083",
      "lat": "40.22966979856153"
    },
    {
      "id": "pt.ine.add.PTCONT.1157228",
      "street": "R CÓNEGO MANUEL FERNANDES NOGUEIRA MOINHO DE VENTO",
      "house": "",
      "postcode": "3305-242",
      "city": "PIÓDÃO",
      "lon": "-7.825437212654102",
      "lat": "40.22969709684271"
    },
    {
      "id": "pt.ine.add.PTCONT.1173545",
      "street": "LG PISAO",
      "house": "",
      "postcode": "3305-242",
      "city": "PIÓDÃO",
      "lon": "-7.825980873562568",
      "lat": "40.22899608681489"
    },
    {
      "id": "pt.ine.add.PTCONT.1176854",
      "street": "R CÓNEGO MANUEL FERNANDES NOGUEIRA",
      "house": "",
      "postcode": "3305-242",
      "city": "PIÓDÃO",
      "lon": "-7.82543786465615",
      "lat": "40.229553005471196"
    },
    {
      "id": "pt.ine.add.PTCONT.1196421",
      "street": "R MANUEL NUNES PACHECO",
      "house": "",
      "postcode": "3305-242",
      "city": "PIÓDÃO",
      "lon": "-7.8250732563344005",
      "lat": "40.22963308805945"
    },
    {
      "id": "pt.ine.add.PTCONT.1210625",
      "street": "ESC FONTINHA",
      "house": "",
      "postcode": "3305-242",
      "city": "PIÓDÃO",
      "lon": "-7.825179289375725",
      "lat": "40.229570329470796"
    },
    {
      "id": "pt.ine.add.PTCONT.1213544",
      "street": "CAM PONTE",
      "house": "",
      "postcode": "3305-242",
      "city": "PIÓDÃO",
      "lon": "-7.8254355418774",
      "lat": "40.230066330965805"
    },
    {
      "id": "pt.ine.add.PTCONT.1227476",
      "street": "CAM MALHADINHO CASA DO MANEL DOS CASTANHEIRO",
      "house": "",
      "postcode": "3305-242",
      "city": "PIÓDÃO",
      "lon": "-7.8261452869158195",
      "lat": "40.229014534612325"
    },
    {
      "id": "pt.ine.add.PTCONT.1254336",
      "street": "R CÓNEGO MANUEL FERNANDES NOGUEIRA CASA DO AVO",
      "house": "",
      "postcode": "3305-242",
      "city": "PIÓDÃO",
      "lon": "-7.825190182652138",
      "lat": "40.2297594806492"
    },
    {
      "id": "pt.ine.add.PTCONT.1256517",
      "street": "R MANUEL NUNES PACHECO",
      "house": "",
      "postcode": "3305-242",
      "city": "PIÓDÃO",
      "lon": "-7.824991334713784",
      "lat": "40.22956082345447"
    },
    {
      "id": "pt.ine.add.PTCONT.1260705",
      "street": "R CÓNEGO MANUEL FERNANDES NOGUEIRA CASA DO RAMOS",
      "house": "",
      "postcode": "3305-242",
      "city": "PIÓDÃO",
      "lon": "-7.825402330230092",
      "lat": "40.22961595174114"
    },
    {
      "id": "pt.ine.add.PTCONT.1297962",
      "street": "R CÓNEGO MANUEL FERNANDES NOGUEIRA CASH DO JOÃO HENRIQUES",
      "house": "",
      "postcode": "3305-242",
      "city": "PIÓDÃO",
      "lon": "-7.8252724309011015",
      "lat": "40.229759699430126"
    },
    {
      "id": "pt.ine.add.PTCONT.1302779",
      "street": "CAM MALHADINHO",
      "house": "",
      "postcode": "3305-234",
      "city": "PIÓDÃO",
      "lon": "-7.826298194545839",
      "lat": "40.22897891675688"
    },
    {
      "id": "pt.ine.add.PTCONT.1313255",
      "street": "R CÓNEGO MANUEL FERNANDES NOGUEIRA",
      "house": "",
      "postcode": "3305-242",
      "city": "PIÓDÃO",
      "lon": "-7.825484456075343",
      "lat": "40.22964318750295"
    },
    {
      "id": "pt.ine.add.PTCONT.1314849",
      "street": "ESC FONTINHA",
      "house": "",
      "postcode": "3305-242",
      "city": "PIÓDÃO",
      "lon": "-7.825308454730519",
      "lat": "40.22958868467534"
    },
    {
      "id": "pt.ine.add.PTCONT.1315143",
      "street": "TV CASA DO PASTOR CASA DA TI MATILDE",
      "house": "",
      "postcode": "3305-242",
      "city": "PIÓDÃO",
      "lon": "-7.825249298378279",
      "lat": "40.22967858553353"
    },
    {
      "id": "pt.ine.add.PTCONT.1321781",
      "street": "CAM PONTE CASA DO ZE PEREIRA",
      "house": "",
      "postcode": "3305-242",
      "city": "PIÓDÃO",
      "lon": "-7.825518605298454",
      "lat": "40.22988643536894"
    },
    {
      "id": "pt.ine.add.PTCONT.1325217",
      "street": "CAM PONTE CASA DO MANEL ABEL",
      "house": "",
      "postcode": "3305-242",
      "city": "PIÓDÃO",
      "lon": "-7.825518157159901",
      "lat": "40.22998549818226"
    },
    {
      "id": "pt.ine.add.PTCONT.1333433",
      "street": "CAM PONTE",
      "house": "",
      "postcode": "3305-242",
      "city": "PIÓDÃO",
      "lon": "-7.825554302699777",
      "lat": "40.229787466224174"
    },
    {
      "id": "pt.ine.add.PTCONT.1355201",
      "street": "CAM PONTE",
      "house": "",
      "postcode": "3305-242",
      "city": "PIÓDÃO",
      "lon": "-7.825507507385194",
      "lat": "40.229742312775244"
    },
    {
      "id": "pt.ine.add.PTCONT.1355202",
      "street": "R MANUEL NUNES PACHECO CASA DA TI HELENA",
      "house": "",
      "postcode": "3305-242",
      "city": "PIÓDÃO",
      "lon": "-7.825155259704277",
      "lat": "40.229687341185425"
    },
    {
      "id": "pt.ine.add.PTCONT.1358320",
      "street": "CAM CEREJEIRA PRETA",
      "house": "",
      "postcode": "3305-242",
      "city": "PIÓDÃO",
      "lon": "-7.825566378320951",
      "lat": "40.22971545176017"
    }
  ]
}