{
  "data": {
    "distrito": "Coimbra",
    "concelho": "Arganil",
    "freguesia": "Piódão",
    "OBJECTID": 405,
    "BGRI2021": "06011100118",
    "DT21": "06",
    "DTMN21": "0601",
    "DTMNFR21": "060111",
    "DTMNFRSEC21": "060111001",
    "SECNUM21": "001",
    "SSNUM21": "18",
    "SECSSNUM21": "00118",
    "OBJECTID_1": 47007,
    "DT": "06",
    "CC": "01",
    "fr": "11",
    "SEC": "001",
    "SS": "18"
  },
  "addresses": [
    {
      "id": "pt.ine.add.PTCONT.1116360",
      "street": "R PRINCIPAL",
      "house": "",
      "postcode": "3305-237",
      "city": "PIÓDÃO",
      "lon": "-7.821055290386619",
      "lat": "40.24744481223103"
    },
    {
      "id": "pt.ine.add.PTCONT.1118448",
      "street": "R PRINCIPAL",
      "house": "",
      "postcode": "3305-237",
      "city": "PIÓDÃO",
      "lon": "-7.820996278187237",
      "lat": "40.24749868784157"
    },
    {
      "id": "pt.ine.add.PTCONT.1165433",
      "street": "R PRINCIPAL",
      "house": "",
      "postcode": "3305-237",
      "city": "PIÓDÃO",
      "lon": "-7.821160404127736",
      "lat": "40.247589188257336"
    },
    {
      "id": "pt.ine.add.PTCONT.1165432",
      "street": "LG FAJOEIRA",
      "house": "",
      "postcode": "3305-234",
      "city": "PIÓDÃO",
      "lon": "-7.81921457319633",
      "lat": "40.249015847463475"
    },
    {
      "id": "pt.ine.add.PTCONT.1191422",
      "street": "",
      "house": "",
      "postcode": "3305-234",
      "city": "PIÓDÃO",
      "lon": "-7.819366780979693",
      "lat": "40.2491423412258"
    },
    {
      "id": "pt.ine.add.PTCONT.1196422",
      "street": "ESTR PRINCIPAL",
      "house": "",
      "postcode": "3305-237",
      "city": "PIÓDÃO",
      "lon": "-7.820349790661956",
      "lat": "40.24751495412257"
    },
    {
      "id": "pt.ine.add.PTCONT.1315092",
      "street": "ESTR PRINCIPAL",
      "house": "",
      "postcode": "3305-237",
      "city": "PIÓDÃO",
      "lon": "-7.820278734803168",
      "lat": "40.24763183735007"
    },
    {
      "id": "pt.ine.add.PTCONT.1323156",
      "street": "ESTR PRINCIPAL",
      "house": "",
      "postcode": "3305-237",
      "city": "PIÓDÃO",
      "lon": "-7.820735563570876",
      "lat": "40.247966285523795"
    },
    {
      "id": "pt.ine.add.PTCONT.1344753",
      "street": "R PRINCIPAL",
      "house": "",
      "postcode": "3305-237",
      "city": "PIÓDÃO",
      "lon": "-7.821161148296062",
      "lat": "40.2474270860324"
    },
    {
      "id": "pt.ine.add.PTCONT.1362296",
      "street": "R PRINCIPAL",
      "house": "",
      "postcode": "3305-237",
      "city": "PIÓDÃO",
      "lon": "-7.821184240500501",
      "lat": "40.24751720618049"
    }
  ]
}