{
  "data": {
    "distrito": "Faro",
    "concelho": "Silves",
    "freguesia": "São Marcos da Serra",
    "OBJECTID": 988,
    "BGRI2021": "08130600144",
    "DT21": "08",
    "DTMN21": "0813",
    "DTMNFR21": "081306",
    "DTMNFRSEC21": "081306001",
    "SECNUM21": "001",
    "SSNUM21": "44",
    "SECSSNUM21": "00144",
    "OBJECTID_1": 72478,
    "DT": "08",
    "CC": "13",
    "fr": "06",
    "SEC": "001",
    "SS": "44"
  },
  "addresses": [
    {
      "id": "pt.ine.add.PTCONT.1502208",
      "street": "SIT AZINHAL",
      "house": "",
      "postcode": "8375-262",
      "city": "SÃO MARCOS DA SERRA",
      "lon": "-8.295974577783143",
      "lat": "37.398479935513016"
    },
    {
      "id": "pt.ine.add.PTCONT.1613373",
      "street": "SIT VALE GALEGA",
      "house": "",
      "postcode": "8375-262",
      "city": "SÃO MARCOS DA SERRA",
      "lon": "-8.30532685158511",
      "lat": "37.40389983561209"
    },
    {
      "id": "pt.ine.add.PTCONT.1654027",
      "street": "SIT CASINHA",
      "house": "",
      "postcode": "8375-262",
      "city": "SÃO MARCOS DA SERRA",
      "lon": "-8.29978350854074",
      "lat": "37.39981714843979"
    },
    {
      "id": "pt.ine.add.PTCONT.1664980",
      "street": "SIT STA MARIA",
      "house": "",
      "postcode": "8375-262",
      "city": "SÃO MARCOS DA SERRA",
      "lon": "-8.287231321338616",
      "lat": "37.41407028366428"
    },
    {
      "id": "pt.ine.add.PTCONT.1668725",
      "street": "SIT CORTE AMARELINHO",
      "house": "",
      "postcode": "8375-262",
      "city": "SÃO MARCOS DA SERRA",
      "lon": "-8.277340571525906",
      "lat": "37.39877443947702"
    },
    {
      "id": "pt.ine.add.PTCONT.1676230",
      "street": "SIT CASINHA",
      "house": "",
      "postcode": "8375-262",
      "city": "SÃO MARCOS DA SERRA",
      "lon": "-8.298307258726659",
      "lat": "37.401296893496855"
    },
    {
      "id": "pt.ine.add.PTCONT.1700117",
      "street": "SIT CASINHA",
      "house": "",
      "postcode": "8375-262",
      "city": "SÃO MARCOS DA SERRA",
      "lon": "-8.296423867639268",
      "lat": "37.40255192785725"
    },
    {
      "id": "pt.ine.add.PTCONT.1723099",
      "street": "SIT CORTE AMARELINHO",
      "house": "",
      "postcode": "8375-262",
      "city": "SÃO MARCOS DA SERRA",
      "lon": "-8.277560651322387",
      "lat": "37.40163941639485"
    },
    {
      "id": "pt.ine.add.PTCONT.1728549",
      "street": "SIT CASINHA",
      "house": "",
      "postcode": "8375-262",
      "city": "SÃO MARCOS DA SERRA",
      "lon": "-8.299783787908538",
      "lat": "37.39994329090463"
    },
    {
      "id": "pt.ine.add.PTCONT.1785354",
      "street": "SIT AZINHAL",
      "house": "",
      "postcode": "8375-262",
      "city": "SÃO MARCOS DA SERRA",
      "lon": "-8.295127942375043",
      "lat": "37.39866130274931"
    },
    {
      "id": "pt.ine.add.PTCONT.1812439",
      "street": "SIT TOURIL",
      "house": "",
      "postcode": "8375-262",
      "city": "SÃO MARCOS DA SERRA",
      "lon": "-8.301774300300202",
      "lat": "37.39614717126874"
    },
    {
      "id": "pt.ine.add.PTCONT.1826041",
      "street": "SIT CORTE AMARELINHO",
      "house": "",
      "postcode": "8375-262",
      "city": "SÃO MARCOS DA SERRA",
      "lon": "-8.27873001419452",
      "lat": "37.40477353214808"
    },
    {
      "id": "pt.ine.add.PTCONT.1841943",
      "street": "SIT STA MARIA",
      "house": "",
      "postcode": "8375-262",
      "city": "SÃO MARCOS DA SERRA",
      "lon": "-8.287503053879526",
      "lat": "37.41437627536269"
    }
  ]
}