{
  "data": {
    "distrito": "Santarém",
    "concelho": "Benavente",
    "freguesia": "Santo Estêvão",
    "OBJECTID": 20,
    "BGRI2021": "14050300128",
    "DT21": "14",
    "DTMN21": "1405",
    "DTMNFR21": "140503",
    "DTMNFRSEC21": "140503001",
    "SECNUM21": "001",
    "SSNUM21": "28",
    "SECSSNUM21": "00128",
    "OBJECTID_1": 149303,
    "DT": "14",
    "CC": "05",
    "fr": "03",
    "SEC": "001",
    "SS": "28"
  },
  "addresses": [
    {
      "id": "pt.ine.add.PTCONT.4395681",
      "street": "CASA DO ARNEIRO",
      "house": "",
      "postcode": "2130-124",
      "city": "SANTO ESTEVÃO BNV",
      "lon": "-8.730303849925187",
      "lat": "38.86123208962496"
    },
    {
      "id": "pt.ine.add.PTCONT.4418357",
      "street": "",
      "house": "",
      "postcode": "2130-124",
      "city": "SANTO ESTEVÃO BNV",
      "lon": "-8.732525357740208",
      "lat": "38.86235569965415"
    },
    {
      "id": "pt.ine.add.PTCONT.4422444",
      "street": "HRD DO ZAMBUJEIRO",
      "house": "25A",
      "postcode": "2130-124",
      "city": "SANTO ESTEVÃO BNV",
      "lon": "-8.727223761448059",
      "lat": "38.864913997683225"
    },
    {
      "id": "pt.ine.add.PTCONT.4436996",
      "street": "",
      "house": "",
      "postcode": "2130-137",
      "city": "SANTO ESTEVÃO BNV",
      "lon": "-8.729808908185579",
      "lat": "38.86266686931343"
    },
    {
      "id": "pt.ine.add.PTCONT.4470245",
      "street": "URB ALSER PARCELA",
      "house": "PARCELA8",
      "postcode": "2130-137",
      "city": "SANTO ESTEVÃO BNV",
      "lon": "-8.73047094338518",
      "lat": "38.86192484044796"
    },
    {
      "id": "pt.ine.add.PTCONT.4477634",
      "street": "HRD ZAMBUJEIRO",
      "house": "",
      "postcode": "2130-124",
      "city": "SANTO ESTEVÃO BNV",
      "lon": "-8.731706089615793",
      "lat": "38.86220676795622"
    },
    {
      "id": "pt.ine.add.PTCONT.4482448",
      "street": "HRD ZAMBUJEIRO",
      "house": "",
      "postcode": "2130-124",
      "city": "SANTO ESTEVÃO BNV",
      "lon": "-8.730790661290603",
      "lat": "38.86158090599843"
    },
    {
      "id": "pt.ine.add.PTCONT.4490030",
      "street": "HRD DO ZAMBUJEIRO",
      "house": "2",
      "postcode": "2130-527",
      "city": "SANTO ESTEVÃO BNV",
      "lon": "-8.732278399350283",
      "lat": "38.86313164276858"
    },
    {
      "id": "pt.ine.add.PTCONT.4495446",
      "street": "HRD ZAMBUJEIRO",
      "house": "",
      "postcode": "2130-124",
      "city": "SANTO ESTEVÃO BNV",
      "lon": "-8.731345243807423",
      "lat": "38.86176723169068"
    },
    {
      "id": "pt.ine.add.PTCONT.4498124",
      "street": "",
      "house": "",
      "postcode": "2130-124",
      "city": "SANTO ESTEVÃO BNV",
      "lon": "-8.727990811151459",
      "lat": "38.86432458235939"
    },
    {
      "id": "pt.ine.add.PTCONT.4508921",
      "street": "SEM DEIGNACAO",
      "house": "27A",
      "postcode": "2130-124",
      "city": "SANTO ESTEVÃO BNV",
      "lon": "-8.72820580988744",
      "lat": "38.86385507839213"
    },
    {
      "id": "pt.ine.add.PTCONT.4530347",
      "street": "",
      "house": "",
      "postcode": "2130-137",
      "city": "SANTO ESTEVÃO BNV",
      "lon": "-8.731953468211902",
      "lat": "38.86285406568327"
    },
    {
      "id": "pt.ine.add.PTCONT.4548399",
      "street": "QTA SORTAGUA",
      "house": "",
      "postcode": "2130-124",
      "city": "SANTO ESTEVÃO BNV",
      "lon": "-8.730841513533631",
      "lat": "38.863526343509406"
    },
    {
      "id": "pt.ine.add.PTCONT.4577622",
      "street": "CASA NAMAHACH",
      "house": "29A",
      "postcode": "2130-124",
      "city": "SANTO ESTEVÃO BNV",
      "lon": "-8.728149439303952",
      "lat": "38.862621288806906"
    },
    {
      "id": "pt.ine.add.PTCONT.4582157",
      "street": "",
      "house": "",
      "postcode": "2130-124",
      "city": "SANTO ESTEVÃO BNV",
      "lon": "-8.729873967301238",
      "lat": "38.86355831498792"
    },
    {
      "id": "pt.ine.add.PTCONT.4602099",
      "street": "",
      "house": "",
      "postcode": "2130-137",
      "city": "SANTO ESTEVÃO BNV",
      "lon": "-8.73020438764029",
      "lat": "38.86311524107149"
    },
    {
      "id": "pt.ine.add.PTCONT.4629686",
      "street": "HRD DO ZAMBUJEIRO",
      "house": "16",
      "postcode": "2130-137",
      "city": "SANTO ESTEVÃO BNV",
      "lon": "-8.72907089000744",
      "lat": "38.86258956687057"
    },
    {
      "id": "pt.ine.add.PTCONT.4633919",
      "street": "HRD FO ZAMBUJEIRO",
      "house": "18",
      "postcode": "2130-124",
      "city": "SANTO ESTEVÃO BNV",
      "lon": "-8.729137293516326",
      "lat": "38.86364314759574"
    },
    {
      "id": "pt.ine.add.PTCONT.4633939",
      "street": "A KAZA",
      "house": "30 A",
      "postcode": "2130-124",
      "city": "SANTO ESTEVÃO BNV",
      "lon": "-8.72799651444475",
      "lat": "38.862243737677545"
    },
    {
      "id": "pt.ine.add.PTCONT.4640210",
      "street": "R PATO-REAL",
      "house": "",
      "postcode": "2130-137",
      "city": "SANTO ESTEVÃO BNV",
      "lon": "-8.728939047556812",
      "lat": "38.86197770501021"
    }
  ]
}