{
  "data": {
    "distrito": "Guarda",
    "concelho": "Figueira de Castelo Rodrigo",
    "freguesia": "Mata de Lobos",
    "OBJECTID": 189,
    "BGRI2021": "09041000119",
    "DT21": "09",
    "DTMN21": "0904",
    "DTMNFR21": "090410",
    "DTMNFRSEC21": "090410001",
    "SECNUM21": "001",
    "SSNUM21": "19",
    "SECSSNUM21": "00119",
    "OBJECTID_1": 76505,
    "DT": "09",
    "CC": "04",
    "fr": "10",
    "SEC": "001",
    "SS": "19"
  },
  "addresses": [
    {
      "id": "pt.ine.add.PTCONT.1900600",
      "street": "R DIREITA",
      "house": "23",
      "postcode": "6440-211",
      "city": "MATA DE LOBOS",
      "lon": "-6.896855745676179",
      "lat": "40.90545134338661"
    },
    {
      "id": "pt.ine.add.PTCONT.1903445",
      "street": "R DAS EIRAS",
      "house": "2",
      "postcode": "6440-211",
      "city": "MATA DE LOBOS",
      "lon": "-6.8972915650785485",
      "lat": "40.90626641829259"
    },
    {
      "id": "pt.ine.add.PTCONT.1903447",
      "street": "R DAS JANEIRAS",
      "house": "8",
      "postcode": "6440-211",
      "city": "MATA DE LOBOS",
      "lon": "-6.897066146957784",
      "lat": "40.90562468407091"
    },
    {
      "id": "pt.ine.add.PTCONT.1905112",
      "street": "R DAS JANEIRAS",
      "house": "25",
      "postcode": "6440-211",
      "city": "MATA DE LOBOS",
      "lon": "-6.8965560787708",
      "lat": "40.9056102108871"
    },
    {
      "id": "pt.ine.add.PTCONT.1911082",
      "street": "R DO AÇOUGUE",
      "house": "",
      "postcode": "6440-211",
      "city": "MATA DE LOBOS",
      "lon": "-6.896660524454828",
      "lat": "40.905737393615354"
    },
    {
      "id": "pt.ine.add.PTCONT.1915420",
      "street": "R DA ESCOLA",
      "house": "5",
      "postcode": "6440-211",
      "city": "MATA DE LOBOS",
      "lon": "-6.8965002286822115",
      "lat": "40.906059835967746"
    },
    {
      "id": "pt.ine.add.PTCONT.1916860",
      "street": "R DAS JANEIRAS",
      "house": "11",
      "postcode": "6440-211",
      "city": "MATA DE LOBOS",
      "lon": "-6.897345398680559",
      "lat": "40.905924824982705"
    },
    {
      "id": "pt.ine.add.PTCONT.1922052",
      "street": "R DA ESCOLA",
      "house": "20",
      "postcode": "6440-211",
      "city": "MATA DE LOBOS",
      "lon": "-6.896547902627247",
      "lat": "40.905412024630245"
    },
    {
      "id": "pt.ine.add.PTCONT.1923817",
      "street": "R DIREITA",
      "house": "27",
      "postcode": "6440-211",
      "city": "MATA DE LOBOS",
      "lon": "-6.896667064860787",
      "lat": "40.90538628899586"
    },
    {
      "id": "pt.ine.add.PTCONT.1924792",
      "street": "R DA ESCOLA",
      "house": "9",
      "postcode": "6440-211",
      "city": "MATA DE LOBOS",
      "lon": "-6.896623166324396",
      "lat": "40.90710567390675"
    },
    {
      "id": "pt.ine.add.PTCONT.1924807",
      "street": "R DO QUARTEL",
      "house": "2",
      "postcode": "6440-211",
      "city": "MATA DE LOBOS",
      "lon": "-6.896814111353491",
      "lat": "40.905775058321"
    },
    {
      "id": "pt.ine.add.PTCONT.1932768",
      "street": "R DIREITA",
      "house": "12",
      "postcode": "6440-211",
      "city": "MATA DE LOBOS",
      "lon": "-6.897386024898164",
      "lat": "40.905655125938324"
    },
    {
      "id": "pt.ine.add.PTCONT.1937974",
      "street": "R DIREITA",
      "house": "17",
      "postcode": "6440-211",
      "city": "MATA DE LOBOS",
      "lon": "-6.897185812283872",
      "lat": "40.905571939851576"
    },
    {
      "id": "pt.ine.add.PTCONT.1942022",
      "street": "R DO AÇOUGUE",
      "house": "",
      "postcode": "6440-211",
      "city": "MATA DE LOBOS",
      "lon": "-6.897226068091696",
      "lat": "40.90595956398957"
    },
    {
      "id": "pt.ine.add.PTCONT.1942023",
      "street": "R DAS JANEIRAS",
      "house": "23",
      "postcode": "6440-211",
      "city": "MATA DE LOBOS",
      "lon": "-6.896638804996017",
      "lat": "40.90562910695214"
    },
    {
      "id": "pt.ine.add.PTCONT.1942792",
      "street": "R DO AÇOUGUE",
      "house": "3",
      "postcode": "6440-211",
      "city": "MATA DE LOBOS",
      "lon": "-6.89731747625035",
      "lat": "40.906149637747646"
    },
    {
      "id": "pt.ine.add.PTCONT.1944091",
      "street": "R DIREITA",
      "house": "25",
      "postcode": "6440-211",
      "city": "MATA DE LOBOS",
      "lon": "-6.896784885522902",
      "lat": "40.90543257470271"
    },
    {
      "id": "pt.ine.add.PTCONT.1945742",
      "street": "R DO QUARTEL",
      "house": "4",
      "postcode": "6440-211",
      "city": "MATA DE LOBOS",
      "lon": "-6.896583123164491",
      "lat": "40.90606972939775"
    },
    {
      "id": "pt.ine.add.PTCONT.1947538",
      "street": "R DAS JANEIRAS",
      "house": "14",
      "postcode": "6440-211",
      "city": "MATA DE LOBOS",
      "lon": "-6.896806940530711",
      "lat": "40.905522855978326"
    },
    {
      "id": "pt.ine.add.PTCONT.1950268",
      "street": "R DO QUARTEL",
      "house": "1",
      "postcode": "6440-211",
      "city": "MATA DE LOBOS",
      "lon": "-6.896786019513687",
      "lat": "40.906008873620344"
    },
    {
      "id": "pt.ine.add.PTCONT.1951514",
      "street": "R DAS JANEIRAS",
      "house": "19",
      "postcode": "6440-211",
      "city": "MATA DE LOBOS",
      "lon": "-6.896768324335945",
      "lat": "40.905684522600666"
    },
    {
      "id": "pt.ine.add.PTCONT.1958821",
      "street": "R DO AÇOUGUE",
      "house": "13",
      "postcode": "6440-211",
      "city": "MATA DE LOBOS",
      "lon": "-6.89688078000272",
      "lat": "40.906018894060075"
    },
    {
      "id": "pt.ine.add.PTCONT.1962085",
      "street": "R DAS EIRAS",
      "house": "4",
      "postcode": "6440-211",
      "city": "MATA DE LOBOS",
      "lon": "-6.897220871562034",
      "lat": "40.906238647181546"
    },
    {
      "id": "pt.ine.add.PTCONT.1962086",
      "street": "R DIREITA",
      "house": "29",
      "postcode": "6440-211",
      "city": "MATA DE LOBOS",
      "lon": "-6.896632473370627",
      "lat": "40.90533189118826"
    },
    {
      "id": "pt.ine.add.PTCONT.1964718",
      "street": "R DAS EIRAS",
      "house": "6",
      "postcode": "6440-211",
      "city": "MATA DE LOBOS",
      "lon": "-6.89713814440522",
      "lat": "40.90621975152282"
    },
    {
      "id": "pt.ine.add.PTCONT.1965680",
      "street": "R DIREITA",
      "house": "9",
      "postcode": "6440-211",
      "city": "MATA DE LOBOS",
      "lon": "-6.897550807677579",
      "lat": "40.905728927568134"
    },
    {
      "id": "pt.ine.add.PTCONT.1969259",
      "street": "R DIREITA",
      "house": "7",
      "postcode": "6440-211",
      "city": "MATA DE LOBOS",
      "lon": "-6.897681668524212",
      "lat": "40.90571232071915"
    },
    {
      "id": "pt.ine.add.PTCONT.1849154",
      "street": "R DO QUARTEL",
      "house": "5",
      "postcode": "6440-211",
      "city": "MATA DE LOBOS",
      "lon": "-6.896860865368108",
      "lat": "40.90645089558933"
    },
    {
      "id": "pt.ine.add.PTCONT.1854827",
      "street": "R DA ESCOLA",
      "house": "7",
      "postcode": "6440-211",
      "city": "MATA DE LOBOS",
      "lon": "-6.896521780312157",
      "lat": "40.90617712532904"
    },
    {
      "id": "pt.ine.add.PTCONT.1855305",
      "street": "R DAS JANEIRAS",
      "house": "10",
      "postcode": "6440-211",
      "city": "MATA DE LOBOS",
      "lon": "-6.896960527023878",
      "lat": "40.905560520484364"
    },
    {
      "id": "pt.ine.add.PTCONT.1855961",
      "street": "R DAS EIRAS",
      "house": "1",
      "postcode": "6440-211",
      "city": "MATA DE LOBOS",
      "lon": "-6.897205820462345",
      "lat": "40.906409570981445"
    },
    {
      "id": "pt.ine.add.PTCONT.1857485",
      "street": "R DAS JANEIRAS",
      "house": "15",
      "postcode": "6440-211",
      "city": "MATA DE LOBOS",
      "lon": "-6.897086525942424",
      "lat": "40.90580499213301"
    },
    {
      "id": "pt.ine.add.PTCONT.1857917",
      "street": "R DA FONTE NOVA",
      "house": "2",
      "postcode": "6440-211",
      "city": "MATA DE LOBOS",
      "lon": "-6.896741157679004",
      "lat": "40.90714295700787"
    },
    {
      "id": "pt.ine.add.PTCONT.1857943",
      "street": "R DAS JANEIRAS",
      "house": "16",
      "postcode": "6440-211",
      "city": "MATA DE LOBOS",
      "lon": "-6.8966653878446245",
      "lat": "40.90547631582351"
    },
    {
      "id": "pt.ine.add.PTCONT.1861967",
      "street": "R DAS JANEIRAS",
      "house": "21",
      "postcode": "6440-211",
      "city": "MATA DE LOBOS",
      "lon": "-6.8967093299200375",
      "lat": "40.90566588109271"
    },
    {
      "id": "pt.ine.add.PTCONT.1863953",
      "street": "R DO AÇOUGUE",
      "house": "1",
      "postcode": "6440-211",
      "city": "MATA DE LOBOS",
      "lon": "-6.89741190182131",
      "lat": "40.90617766312265"
    },
    {
      "id": "pt.ine.add.PTCONT.1863965",
      "street": "R DAS JANEIRAS",
      "house": "18",
      "postcode": "6440-211",
      "city": "MATA DE LOBOS",
      "lon": "-6.896606561352409",
      "lat": "40.9054486715828"
    },
    {
      "id": "pt.ine.add.PTCONT.1869823",
      "street": "R DIREITA",
      "house": "21",
      "postcode": "6440-211",
      "city": "MATA DE LOBOS",
      "lon": "-6.896926438203911",
      "lat": "40.905479114711014"
    },
    {
      "id": "pt.ine.add.PTCONT.1879986",
      "street": "R DO AÇOUGUE",
      "house": "",
      "postcode": "6440-211",
      "city": "MATA DE LOBOS",
      "lon": "-6.896621069213889",
      "lat": "40.905944073585076"
    },
    {
      "id": "pt.ine.add.PTCONT.1879987",
      "street": "R DA ESCOLA",
      "house": "",
      "postcode": "6440-211",
      "city": "MATA DE LOBOS",
      "lon": "-6.896530837384373",
      "lat": "40.905690980527986"
    },
    {
      "id": "pt.ine.add.PTCONT.1880017",
      "street": "R DIREITA",
      "house": "31",
      "postcode": "6440-211",
      "city": "MATA DE LOBOS",
      "lon": "-6.896549915232363",
      "lat": "40.9053039924405"
    },
    {
      "id": "pt.ine.add.PTCONT.1882144",
      "street": "R DO AÇOUGUE",
      "house": "9",
      "postcode": "6440-211",
      "city": "MATA DE LOBOS",
      "lon": "-6.897069462819357",
      "lat": "40.90608394812282"
    },
    {
      "id": "pt.ine.add.PTCONT.1888250",
      "street": "R DO AÇOUGUE",
      "house": "5",
      "postcode": "6440-211",
      "city": "MATA DE LOBOS",
      "lon": "-6.897199318676062",
      "lat": "40.906121357934154"
    },
    {
      "id": "pt.ine.add.PTCONT.1888494",
      "street": "R DO AÇOUGUE",
      "house": "11",
      "postcode": "6440-211",
      "city": "MATA DE LOBOS",
      "lon": "-6.896939774780299",
      "lat": "40.90603753548435"
    },
    {
      "id": "pt.ine.add.PTCONT.1890048",
      "street": "R DIREITA",
      "house": "33",
      "postcode": "6440-211",
      "city": "MATA DE LOBOS",
      "lon": "-6.896444464042498",
      "lat": "40.90523082570969"
    },
    {
      "id": "pt.ine.add.PTCONT.1891506",
      "street": "R DAS JANEIRAS",
      "house": "13",
      "postcode": "6440-211",
      "city": "MATA DE LOBOS",
      "lon": "-6.897157218943263",
      "lat": "40.90583276332106"
    },
    {
      "id": "pt.ine.add.PTCONT.1891507",
      "street": "R DAS JANEIRAS",
      "house": "6",
      "postcode": "6440-211",
      "city": "MATA DE LOBOS",
      "lon": "-6.897656596029008",
      "lat": "40.90578408793856"
    },
    {
      "id": "pt.ine.add.PTCONT.1897192",
      "street": "R DA ESCOLA",
      "house": "",
      "postcode": "6440-211",
      "city": "MATA DE LOBOS",
      "lon": "-6.896560565141319",
      "lat": "40.906006456134044"
    }
  ]
}