{
  "data": {
    "distrito": "Faro",
    "concelho": "Albufeira",
    "freguesia": "Albufeira e Olhos de √Ågua",
    "OBJECTID": 561,
    "BGRI2021": "08010603601",
    "DT21": "08",
    "DTMN21": "0801",
    "DTMNFR21": "080106",
    "DTMNFRSEC21": "080106036",
    "SECNUM21": "036",
    "SSNUM21": "01",
    "SECSSNUM21": "03601",
    "OBJECTID_1": 64347,
    "DT": "08",
    "CC": "01",
    "fr": "06",
    "SEC": "036",
    "SS": "01"
  },
  "addresses": [
    {
      "id": "pt.ine.add.PTCONT.1487037",
      "street": "AV INF D HENRIQUE",
      "house": "",
      "postcode": "8200-261",
      "city": "ALBUFEIRA",
      "lon": "-8.231928787195399",
      "lat": "37.088239935804964"
    },
    {
      "id": "pt.ine.add.PTCONT.1492849",
      "street": "AV INF D HENRIQUE",
      "house": "",
      "postcode": "8200-261",
      "city": "ALBUFEIRA",
      "lon": "-8.231287611346646",
      "lat": "37.088186404216245"
    },
    {
      "id": "pt.ine.add.PTCONT.1495666",
      "street": "AV INF D HENRIQUE",
      "house": "11 A",
      "postcode": "8200-261",
      "city": "ALBUFEIRA",
      "lon": "-8.229926782315772",
      "lat": "37.088277629825306"
    },
    {
      "id": "pt.ine.add.PTCONT.1495667",
      "street": "AV INF D HENRIQUE",
      "house": "11 A",
      "postcode": "8200-261",
      "city": "ALBUFEIRA",
      "lon": "-8.229926782315772",
      "lat": "37.088277629825306"
    },
    {
      "id": "pt.ine.add.PTCONT.1495668",
      "street": "AV INF D HENRIQUE",
      "house": "11 A",
      "postcode": "8200-261",
      "city": "ALBUFEIRA",
      "lon": "-8.229926782315772",
      "lat": "37.088277629825306"
    },
    {
      "id": "pt.ine.add.PTCONT.1495669",
      "street": "AV INF D HENRIQUE",
      "house": "11 A",
      "postcode": "8200-261",
      "city": "ALBUFEIRA",
      "lon": "-8.229926782315772",
      "lat": "37.088277629825306"
    },
    {
      "id": "pt.ine.add.PTCONT.1495670",
      "street": "AV INF D HENRIQUE",
      "house": "11 A",
      "postcode": "8200-261",
      "city": "ALBUFEIRA",
      "lon": "-8.229926782315772",
      "lat": "37.088277629825306"
    },
    {
      "id": "pt.ine.add.PTCONT.1495671",
      "street": "AV INF D HENRIQUE",
      "house": "11 A",
      "postcode": "8200-261",
      "city": "ALBUFEIRA",
      "lon": "-8.229926782315772",
      "lat": "37.088277629825306"
    },
    {
      "id": "pt.ine.add.PTCONT.1495672",
      "street": "AV INF D HENRIQUE",
      "house": "11",
      "postcode": "8200-261",
      "city": "ALBUFEIRA",
      "lon": "-8.229926782315772",
      "lat": "37.088277629825306"
    },
    {
      "id": "pt.ine.add.PTCONT.1497867",
      "street": "AV INF D HENRIQUE",
      "house": "11 A",
      "postcode": "8200-261",
      "city": "ALBUFEIRA",
      "lon": "-8.229926782315772",
      "lat": "37.088277629825306"
    },
    {
      "id": "pt.ine.add.PTCONT.1515661",
      "street": "AV INF D HENRIQUE",
      "house": "11 C",
      "postcode": "8200-261",
      "city": "ALBUFEIRA",
      "lon": "-8.229566942828805",
      "lat": "37.08834099784415"
    },
    {
      "id": "pt.ine.add.PTCONT.1515663",
      "street": "AV INF D HENRIQUE",
      "house": "11 C",
      "postcode": "8200-261",
      "city": "ALBUFEIRA",
      "lon": "-8.229566942828805",
      "lat": "37.08834099784415"
    },
    {
      "id": "pt.ine.add.PTCONT.1515664",
      "street": "AV INF D HENRIQUE",
      "house": "11 C",
      "postcode": "8200-261",
      "city": "ALBUFEIRA",
      "lon": "-8.229566942828805",
      "lat": "37.08834099784415"
    },
    {
      "id": "pt.ine.add.PTCONT.1515665",
      "street": "AV INF D HENRIQUE",
      "house": "11 C",
      "postcode": "8200-261",
      "city": "ALBUFEIRA",
      "lon": "-8.229566942828805",
      "lat": "37.08834099784415"
    },
    {
      "id": "pt.ine.add.PTCONT.1539289",
      "street": "AV INF D HENRIQUE",
      "house": "",
      "postcode": "8200-261",
      "city": "ALBUFEIRA",
      "lon": "-8.231051530467063",
      "lat": "37.08827670628"
    },
    {
      "id": "pt.ine.add.PTCONT.1539296",
      "street": "R VASCO DA GAMA",
      "house": "",
      "postcode": "8200-294",
      "city": "ALBUFEIRA",
      "lon": "-8.230106144925468",
      "lat": "37.087808927570535"
    },
    {
      "id": "pt.ine.add.PTCONT.1542431",
      "street": "AV INF D HENRIQUE",
      "house": "",
      "postcode": "8200-261",
      "city": "ALBUFEIRA",
      "lon": "-8.231872842114527",
      "lat": "37.08846524955301"
    },
    {
      "id": "pt.ine.add.PTCONT.1542432",
      "street": "AV INF D HENRIQUE",
      "house": "",
      "postcode": "8200-261",
      "city": "ALBUFEIRA",
      "lon": "-8.232153936032246",
      "lat": "37.08839292964473"
    },
    {
      "id": "pt.ine.add.PTCONT.1542433",
      "street": "AV INF D HENRIQUE",
      "house": "",
      "postcode": "8200-261",
      "city": "ALBUFEIRA",
      "lon": "-8.232153936032246",
      "lat": "37.08839292964473"
    },
    {
      "id": "pt.ine.add.PTCONT.1542434",
      "street": "AV INF D HENRIQUE",
      "house": "",
      "postcode": "8200-261",
      "city": "ALBUFEIRA",
      "lon": "-8.232153936032246",
      "lat": "37.08839292964473"
    },
    {
      "id": "pt.ine.add.PTCONT.1542435",
      "street": "AV INF D HENRIQUE",
      "house": "",
      "postcode": "8200-261",
      "city": "ALBUFEIRA",
      "lon": "-8.232153936032246",
      "lat": "37.08839292964473"
    },
    {
      "id": "pt.ine.add.PTCONT.1542436",
      "street": "AV INF D HENRIQUE",
      "house": "",
      "postcode": "8200-261",
      "city": "ALBUFEIRA",
      "lon": "-8.232153936032246",
      "lat": "37.08839292964473"
    },
    {
      "id": "pt.ine.add.PTCONT.1542437",
      "street": "AV INF D HENRIQUE",
      "house": "",
      "postcode": "8200-261",
      "city": "ALBUFEIRA",
      "lon": "-8.232153936032246",
      "lat": "37.08839292964473"
    },
    {
      "id": "pt.ine.add.PTCONT.1542439",
      "street": "AV INF D HENRIQUE",
      "house": "",
      "postcode": "8200-261",
      "city": "ALBUFEIRA",
      "lon": "-8.232153936032246",
      "lat": "37.08839292964473"
    },
    {
      "id": "pt.ine.add.PTCONT.1542440",
      "street": "AV INF D HENRIQUE LETERA I",
      "house": "LETERA I",
      "postcode": "8200-261",
      "city": "ALBUFEIRA",
      "lon": "-8.232153936032246",
      "lat": "37.08839292964473"
    },
    {
      "id": "pt.ine.add.PTCONT.1542441",
      "street": "AV INF D HENRIQUE",
      "house": "",
      "postcode": "8200-261",
      "city": "ALBUFEIRA",
      "lon": "-8.232153936032246",
      "lat": "37.08839292964473"
    },
    {
      "id": "pt.ine.add.PTCONT.1542442",
      "street": "AV INF D HENRIQUE",
      "house": "",
      "postcode": "8200-261",
      "city": "ALBUFEIRA",
      "lon": "-8.232153936032246",
      "lat": "37.08839292964473"
    },
    {
      "id": "pt.ine.add.PTCONT.1542443",
      "street": "AV INF D HENRIQUE",
      "house": "",
      "postcode": "8200-261",
      "city": "ALBUFEIRA",
      "lon": "-8.232153936032246",
      "lat": "37.08839292964473"
    },
    {
      "id": "pt.ine.add.PTCONT.1542444",
      "street": "AV INF D HENRIQUE",
      "house": "",
      "postcode": "8200-261",
      "city": "ALBUFEIRA",
      "lon": "-8.232153936032246",
      "lat": "37.08839292964473"
    },
    {
      "id": "pt.ine.add.PTCONT.1542445",
      "street": "AV INF D HENRIQUE",
      "house": "",
      "postcode": "8200-261",
      "city": "ALBUFEIRA",
      "lon": "-8.232153936032246",
      "lat": "37.08839292964473"
    },
    {
      "id": "pt.ine.add.PTCONT.1544340",
      "street": "AV INF D HENRIQUE",
      "house": "",
      "postcode": "8200-261",
      "city": "ALBUFEIRA",
      "lon": "-8.232153936032246",
      "lat": "37.08839292964473"
    },
    {
      "id": "pt.ine.add.PTCONT.1544341",
      "street": "AV INF D HENRIQUE",
      "house": "",
      "postcode": "8200-261",
      "city": "ALBUFEIRA",
      "lon": "-8.232153936032246",
      "lat": "37.08839292964473"
    },
    {
      "id": "pt.ine.add.PTCONT.1564162",
      "street": "AV INF D HENRIQUE",
      "house": "",
      "postcode": "8200-261",
      "city": "ALBUFEIRA",
      "lon": "-8.231512549053098",
      "lat": "37.08817720710334"
    },
    {
      "id": "pt.ine.add.PTCONT.1568831",
      "street": "AV INF D HENRIQUE",
      "house": "",
      "postcode": "8200-261",
      "city": "ALBUFEIRA",
      "lon": "-8.231062835928192",
      "lat": "37.08832175037248"
    },
    {
      "id": "pt.ine.add.PTCONT.1606125",
      "street": "AV INF D HENRIQUE",
      "house": "",
      "postcode": "8200-261",
      "city": "ALBUFEIRA",
      "lon": "-8.231591281317758",
      "lat": "37.08817714174979"
    },
    {
      "id": "pt.ine.add.PTCONT.1616291",
      "street": "AV INF D HENRIQUE",
      "house": "",
      "postcode": "8200-261",
      "city": "ALBUFEIRA",
      "lon": "-8.231906222069611",
      "lat": "37.08818589048922"
    },
    {
      "id": "pt.ine.add.PTCONT.1616527",
      "street": "AV INF D HENRIQUE",
      "house": "",
      "postcode": "8200-261",
      "city": "ALBUFEIRA",
      "lon": "-8.23108521491775",
      "lat": "37.08823162502673"
    },
    {
      "id": "pt.ine.add.PTCONT.1649782",
      "street": "AV INF D HENRIQUE",
      "house": "",
      "postcode": "8200-261",
      "city": "ALBUFEIRA",
      "lon": "-8.231422906840793",
      "lat": "37.08843859134034"
    },
    {
      "id": "pt.ine.add.PTCONT.1701299",
      "street": "AV INF D HENRIQUE",
      "house": "",
      "postcode": "8200-261",
      "city": "ALBUFEIRA",
      "lon": "-8.23144506425462",
      "lat": "37.08817726307909"
    },
    {
      "id": "pt.ine.add.PTCONT.1701300",
      "street": "AV INF D HENRIQUE",
      "house": "",
      "postcode": "8200-261",
      "city": "ALBUFEIRA",
      "lon": "-8.231377870287236",
      "lat": "37.08840258592362"
    },
    {
      "id": "pt.ine.add.PTCONT.1709557",
      "street": "AV INF D HENRIQUE",
      "house": "",
      "postcode": "8200-261",
      "city": "ALBUFEIRA",
      "lon": "-8.231872690119774",
      "lat": "37.08834811076531"
    },
    {
      "id": "pt.ine.add.PTCONT.1712574",
      "street": "AV INF D HENRIQUE",
      "house": "11 D",
      "postcode": "8200-261",
      "city": "ALBUFEIRA",
      "lon": "-8.229398219060524",
      "lat": "37.088332124267474"
    },
    {
      "id": "pt.ine.add.PTCONT.1712575",
      "street": "AV INF D HENRIQUE",
      "house": "11 D",
      "postcode": "8200-261",
      "city": "ALBUFEIRA",
      "lon": "-8.229398219060524",
      "lat": "37.088332124267474"
    },
    {
      "id": "pt.ine.add.PTCONT.1712576",
      "street": "AV INF D HENRIQUE",
      "house": "11 D",
      "postcode": "8200-261",
      "city": "ALBUFEIRA",
      "lon": "-8.229398219060524",
      "lat": "37.088332124267474"
    },
    {
      "id": "pt.ine.add.PTCONT.1712577",
      "street": "AV INF D HENRIQUE",
      "house": "11 D",
      "postcode": "8200-261",
      "city": "ALBUFEIRA",
      "lon": "-8.229398219060524",
      "lat": "37.088332124267474"
    },
    {
      "id": "pt.ine.add.PTCONT.1729816",
      "street": "AV INF D HENRIQUE",
      "house": "",
      "postcode": "8200-261",
      "city": "ALBUFEIRA",
      "lon": "-8.231051669603001",
      "lat": "37.088384834395775"
    },
    {
      "id": "pt.ine.add.PTCONT.1734401",
      "street": "AV INF D HENRIQUE",
      "house": "",
      "postcode": "8200-261",
      "city": "ALBUFEIRA",
      "lon": "-8.231884007770606",
      "lat": "37.08840216545422"
    },
    {
      "id": "pt.ine.add.PTCONT.1735410",
      "street": "AV INF D HENRIQUE",
      "house": "",
      "postcode": "8200-261",
      "city": "ALBUFEIRA",
      "lon": "-8.231546629396053",
      "lat": "37.08843848871134"
    },
    {
      "id": "pt.ine.add.PTCONT.1750623",
      "street": "AV INF D HENRIQUE",
      "house": "",
      "postcode": "8200-261",
      "city": "ALBUFEIRA",
      "lon": "-8.231512828634536",
      "lat": "37.08839346333359"
    },
    {
      "id": "pt.ine.add.PTCONT.1753811",
      "street": "AV INF D HENRIQUE",
      "house": "",
      "postcode": "8200-261",
      "city": "ALBUFEIRA",
      "lon": "-8.231872608276806",
      "lat": "37.088285036032495"
    },
    {
      "id": "pt.ine.add.PTCONT.1753812",
      "street": "AV INF D HENRIQUE",
      "house": "",
      "postcode": "8200-261",
      "city": "ALBUFEIRA",
      "lon": "-8.231614161071166",
      "lat": "37.08847447538137"
    },
    {
      "id": "pt.ine.add.PTCONT.1772033",
      "street": "AV INF D HENRIQUE",
      "house": "11 B",
      "postcode": "8200-261",
      "city": "ALBUFEIRA",
      "lon": "-8.229724407705842",
      "lat": "37.08834086966756"
    },
    {
      "id": "pt.ine.add.PTCONT.1772034",
      "street": "AV INF D HENRIQUE",
      "house": "11 B",
      "postcode": "8200-261",
      "city": "ALBUFEIRA",
      "lon": "-8.229724407705842",
      "lat": "37.08834086966756"
    },
    {
      "id": "pt.ine.add.PTCONT.1781221",
      "street": "AV INF D HENRIQUE",
      "house": "",
      "postcode": "8200-261",
      "city": "ALBUFEIRA",
      "lon": "-8.23136634362135",
      "lat": "37.08818633901202"
    },
    {
      "id": "pt.ine.add.PTCONT.1789715",
      "street": "AV INF D HENRIQUE",
      "house": "",
      "postcode": "8200-261",
      "city": "ALBUFEIRA",
      "lon": "-8.231310373663336",
      "lat": "37.08839363114687"
    },
    {
      "id": "pt.ine.add.PTCONT.1821778",
      "street": "AV INF D HENRIQUE",
      "house": "",
      "postcode": "8200-261",
      "city": "ALBUFEIRA",
      "lon": "-8.231006783918529",
      "lat": "37.08846596762821"
    },
    {
      "id": "pt.ine.add.PTCONT.1821779",
      "street": "AV INF D HENRIQUE",
      "house": "",
      "postcode": "8200-261",
      "city": "ALBUFEIRA",
      "lon": "-8.231006783918529",
      "lat": "37.08846596762821"
    }
  ]
}