{
  "data": {
    "distrito": "Leiria",
    "concelho": "Caldas da Rainha",
    "freguesia": "Foz do Arelho",
    "OBJECTID": 1063,
    "BGRI2021": "10060600311",
    "DT21": "10",
    "DTMN21": "1006",
    "DTMNFR21": "100606",
    "DTMNFRSEC21": "100606003",
    "SECNUM21": "003",
    "SSNUM21": "11",
    "SECSSNUM21": "00311",
    "OBJECTID_1": 88001,
    "DT": "10",
    "CC": "06",
    "fr": "06",
    "SEC": "003",
    "SS": "11"
  },
  "addresses": [
    {
      "id": "pt.ine.add.PTCONT.1980111",
      "street": "R ARROTEIAS",
      "house": "15A",
      "postcode": "2500-472",
      "city": "FOZ DO ARELHO",
      "lon": "-9.208939697992927",
      "lat": "39.43736295876019"
    },
    {
      "id": "pt.ine.add.PTCONT.1991386",
      "street": "R JOSE NEVES",
      "house": "8",
      "postcode": "2500-500",
      "city": "FOZ DO ARELHO",
      "lon": "-9.21013603935476",
      "lat": "39.43736089309715"
    },
    {
      "id": "pt.ine.add.PTCONT.1998947",
      "street": "R ARROTEIAS",
      "house": "3",
      "postcode": "2500-472",
      "city": "FOZ DO ARELHO",
      "lon": "-9.209711294473694",
      "lat": "39.436932500936045"
    },
    {
      "id": "pt.ine.add.PTCONT.2017592",
      "street": "R ARROTEIAS",
      "house": "7A",
      "postcode": "2500-472",
      "city": "FOZ DO ARELHO",
      "lon": "-9.209169199025668",
      "lat": "39.437180700338466"
    },
    {
      "id": "pt.ine.add.PTCONT.2017596",
      "street": "R ARROTEIAS",
      "house": "9A",
      "postcode": "2500-472",
      "city": "FOZ DO ARELHO",
      "lon": "-9.209042973605648",
      "lat": "39.43728094252514"
    },
    {
      "id": "pt.ine.add.PTCONT.2023996",
      "street": "R ARROTEIAS",
      "house": "13",
      "postcode": "2500-472",
      "city": "FOZ DO ARELHO",
      "lon": "-9.208878166596621",
      "lat": "39.43713835879957"
    },
    {
      "id": "pt.ine.add.PTCONT.2030744",
      "street": "R ARROTEIAS",
      "house": "1",
      "postcode": "2500-472",
      "city": "FOZ DO ARELHO",
      "lon": "-9.210313672970575",
      "lat": "39.43682784892773"
    },
    {
      "id": "pt.ine.add.PTCONT.2032539",
      "street": "R FRANCISCO ALMEIDA GRANDELA",
      "house": "139",
      "postcode": "2500-487",
      "city": "FOZ DO ARELHO",
      "lon": "-9.210783721479139",
      "lat": "39.43642719680868"
    },
    {
      "id": "pt.ine.add.PTCONT.2038728",
      "street": "R FRANCISCO ALMEIDA GRANDELA",
      "house": "119",
      "postcode": "2500-487",
      "city": "FOZ DO ARELHO",
      "lon": "-9.212775600314673",
      "lat": "39.436796014029724"
    },
    {
      "id": "pt.ine.add.PTCONT.2039595",
      "street": "R JOSE NEVES",
      "house": "",
      "postcode": "2500-500",
      "city": "FOZ DO ARELHO",
      "lon": "-9.210683544431728",
      "lat": "39.437463902860706"
    },
    {
      "id": "pt.ine.add.PTCONT.2043929",
      "street": "R ARROTEIAS",
      "house": "11",
      "postcode": "2500-472",
      "city": "FOZ DO ARELHO",
      "lon": "-9.208923512641178",
      "lat": "39.437065885241466"
    },
    {
      "id": "pt.ine.add.PTCONT.2055163",
      "street": "R JOSE NEVES",
      "house": "8A",
      "postcode": "2500-500",
      "city": "FOZ DO ARELHO",
      "lon": "-9.210126090050862",
      "lat": "39.43746906639506"
    },
    {
      "id": "pt.ine.add.PTCONT.2057331",
      "street": "R JOSE NEVES",
      "house": "1",
      "postcode": "2500-500",
      "city": "FOZ DO ARELHO",
      "lon": "-9.21030992771308",
      "lat": "39.436584700971075"
    },
    {
      "id": "pt.ine.add.PTCONT.2058746",
      "street": "R JOSE NEVES",
      "house": "1",
      "postcode": "2500-500",
      "city": "FOZ DO ARELHO",
      "lon": "-9.21030992771308",
      "lat": "39.436584700971075"
    },
    {
      "id": "pt.ine.add.PTCONT.2068036",
      "street": "R FRANCISCO ALMEIDA GRANDELA",
      "house": "121C",
      "postcode": "2500-487",
      "city": "FOZ DO ARELHO",
      "lon": "-9.21249854394081",
      "lat": "39.43690666678548"
    },
    {
      "id": "pt.ine.add.PTCONT.2078802",
      "street": "R JOSE LUCIO RIBEIRO",
      "house": "16",
      "postcode": "2500-498",
      "city": "FOZ DO ARELHO",
      "lon": "-9.210885556269423",
      "lat": "39.43775925420212"
    },
    {
      "id": "pt.ine.add.PTCONT.2084055",
      "street": "R JOSE LUCIO RIBEIRO",
      "house": "",
      "postcode": "2500-498",
      "city": "FOZ DO ARELHO",
      "lon": "-9.209953826922835",
      "lat": "39.437596756166926"
    },
    {
      "id": "pt.ine.add.PTCONT.2084056",
      "street": "R JOSE LUCIO RIBEIRO",
      "house": "",
      "postcode": "2500-498",
      "city": "FOZ DO ARELHO",
      "lon": "-9.209953826922835",
      "lat": "39.437596756166926"
    },
    {
      "id": "pt.ine.add.PTCONT.2084057",
      "street": "R FRANCISCO ALMEIDA GRANDELA",
      "house": "123",
      "postcode": "2500-487",
      "city": "FOZ DO ARELHO",
      "lon": "-9.212111823709847",
      "lat": "39.436685086080935"
    },
    {
      "id": "pt.ine.add.PTCONT.2093828",
      "street": "R JOSE NEVES",
      "house": "12",
      "postcode": "2500-500",
      "city": "FOZ DO ARELHO",
      "lon": "-9.211019368061534",
      "lat": "39.43739774359441"
    },
    {
      "id": "pt.ine.add.PTCONT.2103896",
      "street": "R VALE MOLEIRO",
      "house": "6",
      "postcode": "2500-508",
      "city": "FOZ DO ARELHO",
      "lon": "-9.211987605154722",
      "lat": "39.437667975592596"
    },
    {
      "id": "pt.ine.add.PTCONT.2104992",
      "street": "R ARROTEIAS",
      "house": "21",
      "postcode": "2500-472",
      "city": "FOZ DO ARELHO",
      "lon": "-9.208603733927838",
      "lat": "39.437420106562264"
    },
    {
      "id": "pt.ine.add.PTCONT.2114239",
      "street": "R VALE MOLEIRO",
      "house": "2",
      "postcode": "2500-508",
      "city": "FOZ DO ARELHO",
      "lon": "-9.212335120639079",
      "lat": "39.43685414276997"
    },
    {
      "id": "pt.ine.add.PTCONT.2114240",
      "street": "R VALE MOLEIRO",
      "house": "2",
      "postcode": "2500-508",
      "city": "FOZ DO ARELHO",
      "lon": "-9.212335120639079",
      "lat": "39.43685414276997"
    },
    {
      "id": "pt.ine.add.PTCONT.2114241",
      "street": "R VALE MOLEIRO",
      "house": "2",
      "postcode": "2500-508",
      "city": "FOZ DO ARELHO",
      "lon": "-9.212335120639079",
      "lat": "39.43685414276997"
    },
    {
      "id": "pt.ine.add.PTCONT.2117820",
      "street": "R ARROTEIAS",
      "house": "7",
      "postcode": "2500-472",
      "city": "FOZ DO ARELHO",
      "lon": "-9.20915509124017",
      "lat": "39.43701870909915"
    },
    {
      "id": "pt.ine.add.PTCONT.2129299",
      "street": "R JOSE LUCIO RIBEIRO",
      "house": "1O",
      "postcode": "2500-498",
      "city": "FOZ DO ARELHO",
      "lon": "-9.21158334911559",
      "lat": "39.4378158330987"
    },
    {
      "id": "pt.ine.add.PTCONT.2132744",
      "street": "R FRANCISCO ALMEIDA GRANDELA",
      "house": "141",
      "postcode": "2500-487",
      "city": "FOZ DO ARELHO",
      "lon": "-9.210585876427201",
      "lat": "39.43640200955748"
    },
    {
      "id": "pt.ine.add.PTCONT.2142524",
      "street": "R VALE MOLEIRO",
      "house": "4",
      "postcode": "2500-508",
      "city": "FOZ DO ARELHO",
      "lon": "-9.212283862477367",
      "lat": "39.43729594978013"
    },
    {
      "id": "pt.ine.add.PTCONT.2148979",
      "street": "R ARROTEIAS",
      "house": "5",
      "postcode": "2500-472",
      "city": "FOZ DO ARELHO",
      "lon": "-9.209571931906225",
      "lat": "39.43693379089078"
    },
    {
      "id": "pt.ine.add.PTCONT.2148981",
      "street": "R JOSE LUCIO RIBEIRO",
      "house": "12",
      "postcode": "2500-498",
      "city": "FOZ DO ARELHO",
      "lon": "-9.21122221411928",
      "lat": "39.43774712719252"
    },
    {
      "id": "pt.ine.add.PTCONT.2153254",
      "street": "R FRANCISCO ALMEIDA GRANDELA",
      "house": "137",
      "postcode": "2500-487",
      "city": "FOZ DO ARELHO",
      "lon": "-9.210923499353628",
      "lat": "39.43645292185133"
    },
    {
      "id": "pt.ine.add.PTCONT.2154924",
      "street": "R FRANCISCO ALMEIDA GRANDELA",
      "house": "137",
      "postcode": "2500-487",
      "city": "FOZ DO ARELHO",
      "lon": "-9.210923499353628",
      "lat": "39.43645292185133"
    },
    {
      "id": "pt.ine.add.PTCONT.2155562",
      "street": "R ARROTEIAS",
      "house": "17",
      "postcode": "2500-472",
      "city": "FOZ DO ARELHO",
      "lon": "-9.208764662562691",
      "lat": "39.437310537135666"
    },
    {
      "id": "pt.ine.add.PTCONT.2157722",
      "street": "R FRANCISCO ALMEIDA GRANDELA",
      "house": "137 ANE",
      "postcode": "2500-487",
      "city": "FOZ DO ARELHO",
      "lon": "-9.210822725196993",
      "lat": "39.43669703833388"
    },
    {
      "id": "pt.ine.add.PTCONT.2164292",
      "street": "R ARROTEIAS",
      "house": "7C",
      "postcode": "2500-472",
      "city": "FOZ DO ARELHO",
      "lon": "-9.209004807644154",
      "lat": "39.43706513323928"
    },
    {
      "id": "pt.ine.add.PTCONT.2177301",
      "street": "R ARROTEIAS",
      "house": "19 A",
      "postcode": "2500-472",
      "city": "FOZ DO ARELHO",
      "lon": "-9.208651019473734",
      "lat": "39.43747370988004"
    },
    {
      "id": "pt.ine.add.PTCONT.2183037",
      "street": "R FRANCISCO ALMEIDA GRANDELA",
      "house": "121",
      "postcode": "2500-487",
      "city": "FOZ DO ARELHO",
      "lon": "-9.212670661647222",
      "lat": "39.43676996784387"
    },
    {
      "id": "pt.ine.add.PTCONT.2188342",
      "street": "R FRANCISCO ALMEIDA GRANDELA",
      "house": "129",
      "postcode": "2500-487",
      "city": "FOZ DO ARELHO",
      "lon": "-9.211063416136236",
      "lat": "39.43648765220244"
    },
    {
      "id": "pt.ine.add.PTCONT.2201986",
      "street": "R JOSÃ‰ NEVES",
      "house": "6",
      "postcode": "2500-500",
      "city": "FOZ DO ARELHO",
      "lon": "-9.21008584033913",
      "lat": "39.43711817532193"
    },
    {
      "id": "pt.ine.add.PTCONT.2210921",
      "street": "R ARROTEIAS",
      "house": "7 B",
      "postcode": "2500-472",
      "city": "FOZ DO ARELHO",
      "lon": "-9.209144724758447",
      "lat": "39.4370998658915"
    },
    {
      "id": "pt.ine.add.PTCONT.2213167",
      "street": "R VALE MOLEIRO",
      "house": "4B",
      "postcode": "2500-508",
      "city": "FOZ DO ARELHO",
      "lon": "-9.212188313503113",
      "lat": "39.43712570783292"
    },
    {
      "id": "pt.ine.add.PTCONT.2221886",
      "street": "R PAULINO L SILVA",
      "house": "2",
      "postcode": "2500-504",
      "city": "FOZ DO ARELHO",
      "lon": "-9.212731648722965",
      "lat": "39.436958543759594"
    },
    {
      "id": "pt.ine.add.PTCONT.2221887",
      "street": "R PAULINO L SILVA",
      "house": "2",
      "postcode": "2500-504",
      "city": "FOZ DO ARELHO",
      "lon": "-9.212731648722965",
      "lat": "39.436958543759594"
    },
    {
      "id": "pt.ine.add.PTCONT.2223994",
      "street": "R ARROTEIAS",
      "house": "5",
      "postcode": "2500-472",
      "city": "FOZ DO ARELHO",
      "lon": "-9.208798395232359",
      "lat": "39.43723817103411"
    },
    {
      "id": "pt.ine.add.PTCONT.2226060",
      "street": "R ARROTEIAS",
      "house": "9",
      "postcode": "2500-472",
      "city": "FOZ DO ARELHO",
      "lon": "-9.209029281737227",
      "lat": "39.437145967718564"
    },
    {
      "id": "pt.ine.add.PTCONT.2259138",
      "street": "R JOSE NEVES",
      "house": "4",
      "postcode": "2500-500",
      "city": "FOZ DO ARELHO",
      "lon": "-9.210094402801722",
      "lat": "39.43691994721969"
    },
    {
      "id": "pt.ine.add.PTCONT.2259139",
      "street": "R JOSE NEVES",
      "house": "4",
      "postcode": "2500-500",
      "city": "FOZ DO ARELHO",
      "lon": "-9.210094402801722",
      "lat": "39.43691994721969"
    },
    {
      "id": "pt.ine.add.PTCONT.2261696",
      "street": "R ARROTEIAS",
      "house": "19",
      "postcode": "2500-472",
      "city": "FOZ DO ARELHO",
      "lon": "-9.208683782787974",
      "lat": "39.43733830542511"
    },
    {
      "id": "pt.ine.add.PTCONT.2262588",
      "street": "R JOSE NEVES",
      "house": "2",
      "postcode": "2500-500",
      "city": "FOZ DO ARELHO",
      "lon": "-9.21009190645837",
      "lat": "39.436757848574"
    },
    {
      "id": "pt.ine.add.PTCONT.2265991",
      "street": "R ARROTEIAS",
      "house": "13A",
      "postcode": "2500-472",
      "city": "FOZ DO ARELHO",
      "lon": "-9.208984628477921",
      "lat": "39.437263468731"
    }
  ]
}