{
  "data": {
    "distrito": "Braga",
    "concelho": "Vizela",
    "freguesia": "Uni達o das freguesias de Caldas de Vizela (S達o Miguel e S達o Jo達o)",
    "OBJECTID": 81,
    "BGRI2021": "03140800104",
    "DT21": "03",
    "DTMN21": "0314",
    "DTMNFR21": "031408",
    "DTMNFRSEC21": "031408001",
    "SECNUM21": "001",
    "SSNUM21": "04",
    "SECSSNUM21": "00104",
    "OBJECTID_1": 33256,
    "DT": "03",
    "CC": "14",
    "fr": "08",
    "SEC": "001",
    "SS": "04"
  },
  "addresses": [
    {
      "id": "pt.ine.add.PTCONT.460756",
      "street": "R CMDT EDUARDO PEREIRA",
      "house": "14",
      "postcode": "4815-657",
      "city": "VIZELA",
      "lon": "-8.303906161970287",
      "lat": "41.376623734431455"
    },
    {
      "id": "pt.ine.add.PTCONT.464205",
      "street": "PCT DR ARMENIO CALDAS",
      "house": "",
      "postcode": "4815-653",
      "city": "VIZELA",
      "lon": "-8.303833026001675",
      "lat": "41.37608360053592"
    },
    {
      "id": "pt.ine.add.PTCONT.464206",
      "street": "PCT DR ARMENIO CALDAS",
      "house": "",
      "postcode": "4815-653",
      "city": "VIZELA",
      "lon": "-8.303833026001675",
      "lat": "41.37608360053592"
    },
    {
      "id": "pt.ine.add.PTCONT.464207",
      "street": "PCT DR ARMENIO CALDAS",
      "house": "",
      "postcode": "4815-653",
      "city": "VIZELA",
      "lon": "-8.303833026001675",
      "lat": "41.37608360053592"
    },
    {
      "id": "pt.ine.add.PTCONT.464208",
      "street": "PCT DR ARMENIO CALDAS",
      "house": "",
      "postcode": "4815-653",
      "city": "VIZELA",
      "lon": "-8.303833026001675",
      "lat": "41.37608360053592"
    },
    {
      "id": "pt.ine.add.PTCONT.464209",
      "street": "PCT DR ARMENIO CALDAS",
      "house": "",
      "postcode": "4815-653",
      "city": "VIZELA",
      "lon": "-8.303833026001675",
      "lat": "41.37608360053592"
    },
    {
      "id": "pt.ine.add.PTCONT.464412",
      "street": "PCT DR ARMENIO CALDAS",
      "house": "",
      "postcode": "4815-653",
      "city": "VIZELA",
      "lon": "-8.303833026001675",
      "lat": "41.37608360053592"
    },
    {
      "id": "pt.ine.add.PTCONT.482703",
      "street": "PCT DR ARMENIO CALDAS",
      "house": "",
      "postcode": "4815-653",
      "city": "VIZELA",
      "lon": "-8.303271338867514",
      "lat": "41.376138456707764"
    },
    {
      "id": "pt.ine.add.PTCONT.482704",
      "street": "PCT DR ARMENIO CALDAS",
      "house": "",
      "postcode": "4815-653",
      "city": "VIZELA",
      "lon": "-8.303271338867514",
      "lat": "41.376138456707764"
    },
    {
      "id": "pt.ine.add.PTCONT.482705",
      "street": "PCT DR ARMENIO CALDAS",
      "house": "",
      "postcode": "4815-653",
      "city": "VIZELA",
      "lon": "-8.303271338867514",
      "lat": "41.376138456707764"
    },
    {
      "id": "pt.ine.add.PTCONT.482706",
      "street": "PCT DR ARMENIO CALDAS",
      "house": "",
      "postcode": "4815-653",
      "city": "VIZELA",
      "lon": "-8.303271338867514",
      "lat": "41.376138456707764"
    },
    {
      "id": "pt.ine.add.PTCONT.482928",
      "street": "PCT DR ARMENIO CALDAS",
      "house": "",
      "postcode": "4815-653",
      "city": "VIZELA",
      "lon": "-8.303271338867514",
      "lat": "41.376138456707764"
    },
    {
      "id": "pt.ine.add.PTCONT.482929",
      "street": "PCT DR ARMENIO CALDAS",
      "house": "",
      "postcode": "4815-653",
      "city": "VIZELA",
      "lon": "-8.303271338867514",
      "lat": "41.376138456707764"
    },
    {
      "id": "pt.ine.add.PTCONT.550380",
      "street": "R S BENTO",
      "house": "71",
      "postcode": "4815-496",
      "city": "VIZELA",
      "lon": "-8.3030435839928",
      "lat": "41.37589568415453"
    },
    {
      "id": "pt.ine.add.PTCONT.628040",
      "street": "PCT DR ARMENIO CALDAS",
      "house": "",
      "postcode": "4815-653",
      "city": "VIZELA",
      "lon": "-8.303665673002602",
      "lat": "41.37608384869289"
    },
    {
      "id": "pt.ine.add.PTCONT.628041",
      "street": "PCT DR ARMENIO CALDAS",
      "house": "",
      "postcode": "4815-653",
      "city": "VIZELA",
      "lon": "-8.303665673002602",
      "lat": "41.37608384869289"
    },
    {
      "id": "pt.ine.add.PTCONT.628042",
      "street": "PCT DR ARMENIO CALDAS",
      "house": "",
      "postcode": "4815-653",
      "city": "VIZELA",
      "lon": "-8.303665673002602",
      "lat": "41.37608384869289"
    },
    {
      "id": "pt.ine.add.PTCONT.628043",
      "street": "PCT DR ARMENIO CALDAS",
      "house": "",
      "postcode": "4815-653",
      "city": "VIZELA",
      "lon": "-8.303665673002602",
      "lat": "41.37608384869289"
    },
    {
      "id": "pt.ine.add.PTCONT.628044",
      "street": "PCT DR ARMENIO CALDAS",
      "house": "",
      "postcode": "4815-653",
      "city": "VIZELA",
      "lon": "-8.303665673002602",
      "lat": "41.37608384869289"
    },
    {
      "id": "pt.ine.add.PTCONT.628045",
      "street": "PCT DR ARMENIO CALDAS",
      "house": "",
      "postcode": "4815-653",
      "city": "VIZELA",
      "lon": "-8.303665673002602",
      "lat": "41.37608384869289"
    },
    {
      "id": "pt.ine.add.PTCONT.637358",
      "street": "PCT DR ARMENIO CALDAS",
      "house": "",
      "postcode": "4815-653",
      "city": "VIZELA",
      "lon": "-8.303403605625473",
      "lat": "41.37643539438705"
    },
    {
      "id": "pt.ine.add.PTCONT.637359",
      "street": "PCT DR ARMENIO CALDAS",
      "house": "",
      "postcode": "4815-653",
      "city": "VIZELA",
      "lon": "-8.303403605625473",
      "lat": "41.37643539438705"
    },
    {
      "id": "pt.ine.add.PTCONT.637360",
      "street": "PCT DR ARMENIO CALDAS",
      "house": "",
      "postcode": "4815-653",
      "city": "VIZELA",
      "lon": "-8.303403605625473",
      "lat": "41.37643539438705"
    },
    {
      "id": "pt.ine.add.PTCONT.637361",
      "street": "PCT DR ARMENIO CALDAS",
      "house": "",
      "postcode": "4815-653",
      "city": "VIZELA",
      "lon": "-8.303403605625473",
      "lat": "41.37643539438705"
    },
    {
      "id": "pt.ine.add.PTCONT.691202",
      "street": "PCT DR ARMENIO CALDAS",
      "house": "",
      "postcode": "4815-653",
      "city": "VIZELA",
      "lon": "-8.303570865495228",
      "lat": "41.37639913058771"
    },
    {
      "id": "pt.ine.add.PTCONT.691203",
      "street": "PCT DR ARMENIO CALDAS",
      "house": "",
      "postcode": "4815-653",
      "city": "VIZELA",
      "lon": "-8.303570865495228",
      "lat": "41.37639913058771"
    },
    {
      "id": "pt.ine.add.PTCONT.691204",
      "street": "PCT DR ARMENIO CALDAS",
      "house": "",
      "postcode": "4815-653",
      "city": "VIZELA",
      "lon": "-8.303570865495228",
      "lat": "41.37639913058771"
    },
    {
      "id": "pt.ine.add.PTCONT.691205",
      "street": "PCT DR ARMENIO CALDAS",
      "house": "",
      "postcode": "4815-653",
      "city": "VIZELA",
      "lon": "-8.303570865495228",
      "lat": "41.37639913058771"
    },
    {
      "id": "pt.ine.add.PTCONT.691206",
      "street": "PCT DR ARMENIO CALDAS",
      "house": "",
      "postcode": "4815-653",
      "city": "VIZELA",
      "lon": "-8.303570865495228",
      "lat": "41.37639913058771"
    },
    {
      "id": "pt.ine.add.PTCONT.691207",
      "street": "PCT DR ARMENIO CALDAS",
      "house": "",
      "postcode": "4815-653",
      "city": "VIZELA",
      "lon": "-8.303570865495228",
      "lat": "41.37639913058771"
    },
    {
      "id": "pt.ine.add.PTCONT.691208",
      "street": "PCT DR ARMENIO CALDAS",
      "house": "",
      "postcode": "4815-653",
      "city": "VIZELA",
      "lon": "-8.303570865495228",
      "lat": "41.37639913058771"
    },
    {
      "id": "pt.ine.add.PTCONT.712029",
      "street": "PCT DR ARMENIO CALDAS L",
      "house": "L114",
      "postcode": "4815-653",
      "city": "VIZELA",
      "lon": "-8.303750079015185",
      "lat": "41.37636284882032"
    },
    {
      "id": "pt.ine.add.PTCONT.712030",
      "street": "PCT DR ARMENIO CALDAS",
      "house": "106",
      "postcode": "4815-653",
      "city": "VIZELA",
      "lon": "-8.303750079015185",
      "lat": "41.37636284882032"
    },
    {
      "id": "pt.ine.add.PTCONT.712031",
      "street": "PCT DR ARMENIO CALDAS",
      "house": "",
      "postcode": "4815-653",
      "city": "VIZELA",
      "lon": "-8.303750079015185",
      "lat": "41.37636284882032"
    },
    {
      "id": "pt.ine.add.PTCONT.712032",
      "street": "PCT DR ARMENIO CALDAS",
      "house": "",
      "postcode": "4815-653",
      "city": "VIZELA",
      "lon": "-8.303750079015185",
      "lat": "41.37636284882032"
    },
    {
      "id": "pt.ine.add.PTCONT.712033",
      "street": "PCT DR ARMENIO CALDAS",
      "house": "",
      "postcode": "4815-653",
      "city": "VIZELA",
      "lon": "-8.303750079015185",
      "lat": "41.37636284882032"
    },
    {
      "id": "pt.ine.add.PTCONT.712034",
      "street": "PCT DR ARMENIO CALDAS",
      "house": "",
      "postcode": "4815-653",
      "city": "VIZELA",
      "lon": "-8.303750079015185",
      "lat": "41.37636284882032"
    },
    {
      "id": "pt.ine.add.PTCONT.712035",
      "street": "PCT DR ARMENIO CALDAS",
      "house": "",
      "postcode": "4815-653",
      "city": "VIZELA",
      "lon": "-8.303750079015185",
      "lat": "41.37636284882032"
    },
    {
      "id": "pt.ine.add.PTCONT.712036",
      "street": "PCT DR ARMENIO CALDAS",
      "house": "",
      "postcode": "4815-653",
      "city": "VIZELA",
      "lon": "-8.303750079015185",
      "lat": "41.37636284882032"
    },
    {
      "id": "pt.ine.add.PTCONT.729979",
      "street": "PCT DR ARMENIO CALDAS",
      "house": "",
      "postcode": "4815-653",
      "city": "VIZELA",
      "lon": "-8.30389336018737",
      "lat": "41.376299607984876"
    },
    {
      "id": "pt.ine.add.PTCONT.729980",
      "street": "PCT DR ARMENIO CALDAS",
      "house": "",
      "postcode": "4815-653",
      "city": "VIZELA",
      "lon": "-8.30389336018737",
      "lat": "41.376299607984876"
    },
    {
      "id": "pt.ine.add.PTCONT.729981",
      "street": "PCT DR ARMENIO CALDAS",
      "house": "",
      "postcode": "4815-653",
      "city": "VIZELA",
      "lon": "-8.30389336018737",
      "lat": "41.376299607984876"
    },
    {
      "id": "pt.ine.add.PTCONT.729982",
      "street": "PCT DR ARMENIO CALDAS",
      "house": "",
      "postcode": "4815-653",
      "city": "VIZELA",
      "lon": "-8.30389336018737",
      "lat": "41.376299607984876"
    },
    {
      "id": "pt.ine.add.PTCONT.729983",
      "street": "PCT DR ARMENIO CALDAS",
      "house": "",
      "postcode": "4815-653",
      "city": "VIZELA",
      "lon": "-8.30389336018737",
      "lat": "41.376299607984876"
    },
    {
      "id": "pt.ine.add.PTCONT.729984",
      "street": "PCT DR ARMENIO CALDAS",
      "house": "",
      "postcode": "4815-653",
      "city": "VIZELA",
      "lon": "-8.30389336018737",
      "lat": "41.376299607984876"
    },
    {
      "id": "pt.ine.add.PTCONT.751541",
      "street": "PCT DR ARMENIO CALDAS",
      "house": "",
      "postcode": "4815-653",
      "city": "VIZELA",
      "lon": "-8.30323636903125",
      "lat": "41.37648066194891"
    },
    {
      "id": "pt.ine.add.PTCONT.751542",
      "street": "PCT DR ARMENIO CALDAS",
      "house": "",
      "postcode": "4815-653",
      "city": "VIZELA",
      "lon": "-8.30323636903125",
      "lat": "41.37648066194891"
    },
    {
      "id": "pt.ine.add.PTCONT.751543",
      "street": "PCT DR ARMENIO CALDAS",
      "house": "",
      "postcode": "4815-653",
      "city": "VIZELA",
      "lon": "-8.30323636903125",
      "lat": "41.37648066194891"
    },
    {
      "id": "pt.ine.add.PTCONT.751544",
      "street": "PCT DR ARMENIO CALDAS",
      "house": "",
      "postcode": "4815-653",
      "city": "VIZELA",
      "lon": "-8.30323636903125",
      "lat": "41.37648066194891"
    },
    {
      "id": "pt.ine.add.PTCONT.751545",
      "street": "PCT DR ARMENIO CALDAS",
      "house": "",
      "postcode": "4815-653",
      "city": "VIZELA",
      "lon": "-8.30323636903125",
      "lat": "41.37648066194891"
    },
    {
      "id": "pt.ine.add.PTCONT.751567",
      "street": "PCT DR ARMENIO CALDAS",
      "house": "",
      "postcode": "4815-653",
      "city": "VIZELA",
      "lon": "-8.30323636903125",
      "lat": "41.37648066194891"
    },
    {
      "id": "pt.ine.add.PTCONT.766385",
      "street": "PCT DR ARMENIO CALDAS",
      "house": "",
      "postcode": "4815-653",
      "city": "VIZELA",
      "lon": "-8.30309212569452",
      "lat": "41.37617473773035"
    },
    {
      "id": "pt.ine.add.PTCONT.766386",
      "street": "PCT DR ARMENIO CALDAS",
      "house": "",
      "postcode": "4815-653",
      "city": "VIZELA",
      "lon": "-8.30309212569452",
      "lat": "41.37617473773035"
    },
    {
      "id": "pt.ine.add.PTCONT.766387",
      "street": "PCT DR ARMENIO CALDAS",
      "house": "",
      "postcode": "4815-653",
      "city": "VIZELA",
      "lon": "-8.30309212569452",
      "lat": "41.37617473773035"
    },
    {
      "id": "pt.ine.add.PTCONT.766388",
      "street": "PCT DR ARMENIO CALDAS",
      "house": "",
      "postcode": "4815-653",
      "city": "VIZELA",
      "lon": "-8.30309212569452",
      "lat": "41.37617473773035"
    },
    {
      "id": "pt.ine.add.PTCONT.766389",
      "street": "PCT DR ARMENIO CALDAS",
      "house": "",
      "postcode": "4815-653",
      "city": "VIZELA",
      "lon": "-8.30309212569452",
      "lat": "41.37617473773035"
    },
    {
      "id": "pt.ine.add.PTCONT.768913",
      "street": "PCT DR ARMENIO CALDAS",
      "house": "75",
      "postcode": "4815-653",
      "city": "VIZELA",
      "lon": "-8.303462505629671",
      "lat": "41.376102157711195"
    },
    {
      "id": "pt.ine.add.PTCONT.768914",
      "street": "PCT DR ARMENIO CALDAS",
      "house": "",
      "postcode": "4815-653",
      "city": "VIZELA",
      "lon": "-8.303462505629671",
      "lat": "41.376102157711195"
    },
    {
      "id": "pt.ine.add.PTCONT.768915",
      "street": "PCT DR ARMENIO CALDAS",
      "house": "",
      "postcode": "4815-653",
      "city": "VIZELA",
      "lon": "-8.303462505629671",
      "lat": "41.376102157711195"
    },
    {
      "id": "pt.ine.add.PTCONT.768916",
      "street": "PCT DR ARMENIO CALDAS",
      "house": "",
      "postcode": "4815-653",
      "city": "VIZELA",
      "lon": "-8.303462505629671",
      "lat": "41.376102157711195"
    },
    {
      "id": "pt.ine.add.PTCONT.768917",
      "street": "PCT DR ARMENIO CALDAS",
      "house": "",
      "postcode": "4815-653",
      "city": "VIZELA",
      "lon": "-8.303462505629671",
      "lat": "41.376102157711195"
    },
    {
      "id": "pt.ine.add.PTCONT.768918",
      "street": "PCT DR ARMENIO CALDAS",
      "house": "",
      "postcode": "4815-653",
      "city": "VIZELA",
      "lon": "-8.303462505629671",
      "lat": "41.376102157711195"
    },
    {
      "id": "pt.ine.add.PTCONT.769046",
      "street": "PCT DR ARMENIO CALDAS",
      "house": "",
      "postcode": "4815-653",
      "city": "VIZELA",
      "lon": "-8.303462505629671",
      "lat": "41.376102157711195"
    },
    {
      "id": "pt.ine.add.PTCONT.834911",
      "street": "R S BENTO",
      "house": "21",
      "postcode": "4815-496",
      "city": "VIZELA",
      "lon": "-8.30362901210688",
      "lat": "41.37577776562771"
    },
    {
      "id": "pt.ine.add.PTCONT.841119",
      "street": "R S BENTO",
      "house": "29",
      "postcode": "4815-496",
      "city": "VIZELA",
      "lon": "-8.303342286923753",
      "lat": "41.37584121842501"
    },
    {
      "id": "pt.ine.add.PTCONT.841320",
      "street": "PCT DR ARMENIO CALDAS",
      "house": "",
      "postcode": "4815-653",
      "city": "VIZELA",
      "lon": "-8.303665673002602",
      "lat": "41.37608384869289"
    }
  ]
}