{
  "data": {
    "distrito": "Portalegre",
    "concelho": "Avis",
    "freguesia": "União das freguesias de Benavila e Valongo",
    "OBJECTID": 315,
    "BGRI2021": "12031000224",
    "DT21": "12",
    "DTMN21": "1203",
    "DTMNFR21": "120310",
    "DTMNFRSEC21": "120310002",
    "SECNUM21": "002",
    "SSNUM21": "24",
    "SECSSNUM21": "00224",
    "OBJECTID_1": 120817,
    "DT": "12",
    "CC": "03",
    "fr": "10",
    "SEC": "002",
    "SS": "24"
  },
  "addresses": [
    {
      "id": "pt.ine.add.PTCONT.3539617",
      "street": "R ZECA AFONSO",
      "house": "2",
      "postcode": "7480-227",
      "city": "BENAVILA",
      "lon": "-7.872586524921196",
      "lat": "39.11030768333092"
    },
    {
      "id": "pt.ine.add.PTCONT.3461316",
      "street": "ESTR PILHA DO CARVAO",
      "house": "",
      "postcode": "7480-221",
      "city": "BENAVILA",
      "lon": "-7.875152064839101",
      "lat": "39.1074579900201"
    },
    {
      "id": "pt.ine.add.PTCONT.3469466",
      "street": "ESTR PILHA DO CARVAO",
      "house": "",
      "postcode": "7480-221",
      "city": "BENAVILA",
      "lon": "-7.876652640049783",
      "lat": "39.10811885293279"
    },
    {
      "id": "pt.ine.add.PTCONT.3470510",
      "street": "ESTR MUNICIPAL",
      "house": "6",
      "postcode": "7480-202",
      "city": "BENAVILA",
      "lon": "-7.871858904092791",
      "lat": "39.11009888114055"
    },
    {
      "id": "pt.ine.add.PTCONT.3478309",
      "street": "R CAP SALGUEIRO MAIA",
      "house": "16",
      "postcode": "7480-209",
      "city": "BENAVILA",
      "lon": "-7.871788303464499",
      "lat": "39.11043200272598"
    },
    {
      "id": "pt.ine.add.PTCONT.3478904",
      "street": "ESTR MUNICIPAL",
      "house": "16",
      "postcode": "7480-202",
      "city": "BENAVILA",
      "lon": "-7.871627038823071",
      "lat": "39.11026950501647"
    },
    {
      "id": "pt.ine.add.PTCONT.3503378",
      "street": "ESTR PILHA DO CARVÃO",
      "house": "",
      "postcode": "7480-221",
      "city": "BENAVILA",
      "lon": "-7.874548413454731",
      "lat": "39.10813222032848"
    },
    {
      "id": "pt.ine.add.PTCONT.3514696",
      "street": "ESTR MUNICIPAL",
      "house": "18",
      "postcode": "7480-202",
      "city": "BENAVILA",
      "lon": "-7.871708336537338",
      "lat": "39.110170604140286"
    },
    {
      "id": "pt.ine.add.PTCONT.3530160",
      "street": "R ROSSIO",
      "house": "",
      "postcode": "7480-213",
      "city": "BENAVILA",
      "lon": "-7.872228345361818",
      "lat": "39.11024382943625"
    }
  ]
}