{
  "data": {
    "ilha": "Ilha de São Miguel (Açores)",
    "concelho": "Povoação",
    "freguesia": "Povoação",
    "OBJECTID": 122,
    "BGRI2021": "42040500205",
    "DT21": "42",
    "DTMN21": "4204",
    "DTMNFR21": "420405",
    "DTMNFRSEC21": "420405002",
    "SECNUM21": "002",
    "SSNUM21": "05",
    "SECSSNUM21": "00205",
    "OBJECTID_1": 207267,
    "DT": "42",
    "CC": "04",
    "fr": "05",
    "SEC": "002",
    "SS": "05",
    "BGRI2021_1": "42040500205"
  },
  "addresses": [
    {
      "id": "pt.ine.add.AC26.38693",
      "street": "TV RALEZA",
      "house": "10",
      "postcode": "9650-406",
      "city": "POVOAÇÃO",
      "lon": "-25.244680746685493",
      "lat": "37.74719669706692"
    },
    {
      "id": "pt.ine.add.AC26.38694",
      "street": "R OLIVENCA",
      "house": "",
      "postcode": "9650-408",
      "city": "POVOAÇÃO",
      "lon": "-25.245208112205788",
      "lat": "37.74649258667878"
    },
    {
      "id": "pt.ine.add.AC26.38695",
      "street": "R OLIVENCA",
      "house": "",
      "postcode": "9650-408",
      "city": "POVOAÇÃO",
      "lon": "-25.245208112205788",
      "lat": "37.74649258667878"
    },
    {
      "id": "pt.ine.add.AC26.38696",
      "street": "LG D JOÃO I",
      "house": "4",
      "postcode": "9650-412",
      "city": "POVOAÇÃO",
      "lon": "-25.245133935260874",
      "lat": "37.747230483977624"
    },
    {
      "id": "pt.ine.add.AC26.38697",
      "street": "LG D JOÃO I",
      "house": "8",
      "postcode": "9650-412",
      "city": "POVOAÇÃO",
      "lon": "-25.245005727764287",
      "lat": "37.747372769999096"
    },
    {
      "id": "pt.ine.add.AC26.48868",
      "street": "LG D JOÃO I",
      "house": "6",
      "postcode": "9650-412",
      "city": "POVOAÇÃO",
      "lon": "-25.245098621406992",
      "lat": "37.747284031352535"
    },
    {
      "id": "pt.ine.add.AC26.79774",
      "street": "LG CAMÕES",
      "house": "3",
      "postcode": "9650-408",
      "city": "POVOAÇÃO",
      "lon": "-25.245492246761298",
      "lat": "37.74695644099672"
    },
    {
      "id": "pt.ine.add.AC26.79790",
      "street": "LG CAMÕES",
      "house": "3",
      "postcode": "9650-408",
      "city": "POVOAÇÃO",
      "lon": "-25.245492246761298",
      "lat": "37.74695644099672"
    },
    {
      "id": "pt.ine.add.AC26.83541",
      "street": "R 1 BARÃO DAS LARANJEIRAS",
      "house": "14",
      "postcode": "9650-418",
      "city": "POVOAÇÃO",
      "lon": "-25.245215908476908",
      "lat": "37.74712355815553"
    },
    {
      "id": "pt.ine.add.AC26.92413",
      "street": "CAN RALEZA",
      "house": "2",
      "postcode": "9650-406",
      "city": "POVOAÇÃO",
      "lon": "-25.244891845100632",
      "lat": "37.74738909818859"
    },
    {
      "id": "pt.ine.add.AC26.93016",
      "street": "LG D JOÃO I",
      "house": "6",
      "postcode": "9650-412",
      "city": "POVOAÇÃO",
      "lon": "-25.245098621406992",
      "lat": "37.747284031352535"
    },
    {
      "id": "pt.ine.add.AC26.93640",
      "street": "R OLIVENCA",
      "house": "15",
      "postcode": "9650-408",
      "city": "POVOAÇÃO",
      "lon": "-25.245397795467515",
      "lat": "37.74663059466257"
    },
    {
      "id": "pt.ine.add.AC26.94234",
      "street": "R OLIVENCA",
      "house": "19",
      "postcode": "9650-408",
      "city": "POVOAÇÃO",
      "lon": "-25.245298025663434",
      "lat": "37.746529974549745"
    },
    {
      "id": "pt.ine.add.AC26.94427",
      "street": "R OLIVENCA",
      "house": "17",
      "postcode": "9650-408",
      "city": "POVOAÇÃO",
      "lon": "-25.24537616810615",
      "lat": "37.74658521151189"
    },
    {
      "id": "pt.ine.add.AC26.94547",
      "street": "R OLIVENCA",
      "house": "13",
      "postcode": "9650-408",
      "city": "POVOAÇÃO",
      "lon": "-25.24540786449667",
      "lat": "37.746684817918116"
    }
  ]
}