{
  "data": {
    "distrito": "Coimbra",
    "concelho": "Arganil",
    "freguesia": "São Martinho da Cortiça",
    "OBJECTID": 429,
    "BGRI2021": "06011400103",
    "DT21": "06",
    "DTMN21": "0601",
    "DTMNFR21": "060114",
    "DTMNFRSEC21": "060114001",
    "SECNUM21": "001",
    "SSNUM21": "03",
    "SECSSNUM21": "00103",
    "OBJECTID_1": 47262,
    "DT": "06",
    "CC": "01",
    "fr": "14",
    "SEC": "001",
    "SS": "03"
  },
  "addresses": [
    {
      "id": "pt.ine.add.PTCONT.1102031",
      "street": "R PASSADOIRO",
      "house": "",
      "postcode": "3300-355",
      "city": "SÃO MARTINHO DA CORTIÇA",
      "lon": "-8.158966502295604",
      "lat": "40.251699100527894"
    },
    {
      "id": "pt.ine.add.PTCONT.1103978",
      "street": "R PRINCIPAL",
      "house": "",
      "postcode": "3300-355",
      "city": "SÃO MARTINHO DA CORTIÇA",
      "lon": "-8.154581934967167",
      "lat": "40.2503311144223"
    },
    {
      "id": "pt.ine.add.PTCONT.1108063",
      "street": "R CAPELA",
      "house": "",
      "postcode": "3300-355",
      "city": "SÃO MARTINHO DA CORTIÇA",
      "lon": "-8.159472341749744",
      "lat": "40.252806700461285"
    },
    {
      "id": "pt.ine.add.PTCONT.1114417",
      "street": "R ESCOLA",
      "house": "",
      "postcode": "3300-355",
      "city": "SÃO MARTINHO DA CORTIÇA",
      "lon": "-8.158460998582365",
      "lat": "40.2514470497911"
    },
    {
      "id": "pt.ine.add.PTCONT.1122822",
      "street": "R ESCOLA",
      "house": "",
      "postcode": "3300-355",
      "city": "SÃO MARTINHO DA CORTIÇA",
      "lon": "-8.15726258863511",
      "lat": "40.252753147937845"
    },
    {
      "id": "pt.ine.add.PTCONT.1122823",
      "street": "R PRINCIPAL",
      "house": "",
      "postcode": "3300-355",
      "city": "SÃO MARTINHO DA CORTIÇA",
      "lon": "-8.15573372760303",
      "lat": "40.2501868020408"
    },
    {
      "id": "pt.ine.add.PTCONT.1147151",
      "street": "R PRINCIPAL",
      "house": "",
      "postcode": "3300-355",
      "city": "SÃO MARTINHO DA CORTIÇA",
      "lon": "-8.155404654624846",
      "lat": "40.2502589123757"
    },
    {
      "id": "pt.ine.add.PTCONT.1150901",
      "street": "R DA PORTELA",
      "house": "",
      "postcode": "3300-373",
      "city": "SÃO MARTINHO DA CORTIÇA",
      "lon": "-8.152773573174292",
      "lat": "40.25611316196061"
    },
    {
      "id": "pt.ine.add.PTCONT.1159295",
      "street": "R PRINCIPAL",
      "house": "",
      "postcode": "3300-355",
      "city": "SÃO MARTINHO DA CORTIÇA",
      "lon": "-8.154981593730785",
      "lat": "40.25045712089277"
    },
    {
      "id": "pt.ine.add.PTCONT.1174061",
      "street": "R PRINCIPAL",
      "house": "",
      "postcode": "3300-355",
      "city": "SÃO MARTINHO DA CORTIÇA",
      "lon": "-8.154781744054837",
      "lat": "40.250331077175545"
    },
    {
      "id": "pt.ine.add.PTCONT.1185601",
      "street": "R PRINCIPAL",
      "house": "",
      "postcode": "3300-355",
      "city": "SÃO MARTINHO DA CORTIÇA",
      "lon": "-8.155110818044392",
      "lat": "40.25025896861248"
    },
    {
      "id": "pt.ine.add.PTCONT.1201259",
      "street": "R CAPELA",
      "house": "",
      "postcode": "3300-355",
      "city": "SÃO MARTINHO DA CORTIÇA",
      "lon": "-8.159589845682772",
      "lat": "40.25271661558738"
    },
    {
      "id": "pt.ine.add.PTCONT.1203484",
      "street": "R ESCOLA",
      "house": "",
      "postcode": "3300-355",
      "city": "SÃO MARTINHO DA CORTIÇA",
      "lon": "-8.157591438052684",
      "lat": "40.25203261442034"
    },
    {
      "id": "pt.ine.add.PTCONT.1215734",
      "street": "R CAPELA",
      "house": "",
      "postcode": "3300-355",
      "city": "SÃO MARTINHO DA CORTIÇA",
      "lon": "-8.160142063409527",
      "lat": "40.25217613960509"
    },
    {
      "id": "pt.ine.add.PTCONT.1233522",
      "street": "R PASSADOIRO",
      "house": "",
      "postcode": "3300-355",
      "city": "SÃO MARTINHO DA CORTIÇA",
      "lon": "-8.15934271844722",
      "lat": "40.251951178425436"
    },
    {
      "id": "pt.ine.add.PTCONT.1243381",
      "street": "",
      "house": "",
      "postcode": "3300-355",
      "city": "SÃO MARTINHO DA CORTIÇA",
      "lon": "-8.156663246172085",
      "lat": "40.253059468826564"
    },
    {
      "id": "pt.ine.add.PTCONT.1256523",
      "street": "R PRINCIPAL",
      "house": "",
      "postcode": "3300-355",
      "city": "SÃO MARTINHO DA CORTIÇA",
      "lon": "-8.155204863322865",
      "lat": "40.25031298554552"
    },
    {
      "id": "pt.ine.add.PTCONT.1295324",
      "street": "R MARMELEIRO",
      "house": "",
      "postcode": "3300-355",
      "city": "SÃO MARTINHO DA CORTIÇA",
      "lon": "-8.156098407580291",
      "lat": "40.25114134580827"
    },
    {
      "id": "pt.ine.add.PTCONT.1309249",
      "street": "R ESCOLA",
      "house": "",
      "postcode": "3300-355",
      "city": "SÃO MARTINHO DA CORTIÇA",
      "lon": "-8.158425834896388",
      "lat": "40.25170822587594"
    },
    {
      "id": "pt.ine.add.PTCONT.1337441",
      "street": "ESTR BARRAGEM",
      "house": "",
      "postcode": "3300-355",
      "city": "SÃO MARTINHO DA CORTIÇA",
      "lon": "-8.159472432612906",
      "lat": "40.253040851353234"
    },
    {
      "id": "pt.ine.add.PTCONT.1356313",
      "street": "R PRINCIPAL",
      "house": "",
      "postcode": "3300-355",
      "city": "SÃO MARTINHO DA CORTIÇA",
      "lon": "-8.155357673211345",
      "lat": "40.25035798531057"
    },
    {
      "id": "pt.ine.add.PTCONT.1366788",
      "street": "ESTR BARRAGEM",
      "house": "",
      "postcode": "3300-355",
      "city": "SÃO MARTINHO DA CORTIÇA",
      "lon": "-8.159025927030111",
      "lat": "40.253419195972306"
    }
  ]
}