{
  "data": {
    "distrito": "Braga",
    "concelho": "Guimarães",
    "freguesia": "União das freguesias de Arosa e Castelões",
    "OBJECTID": 2099,
    "BGRI2021": "03087700122",
    "DT21": "03",
    "DTMN21": "0308",
    "DTMNFR21": "030877",
    "DTMNFRSEC21": "030877001",
    "SECNUM21": "001",
    "SSNUM21": "22",
    "SECSSNUM21": "00122",
    "OBJECTID_1": 27276,
    "DT": "03",
    "CC": "08",
    "fr": "77",
    "SEC": "001",
    "SS": "22"
  },
  "addresses": [
    {
      "id": "pt.ine.add.PTCONT.572451",
      "street": "R PACO",
      "house": "110",
      "postcode": "4800-405",
      "city": "CASTELÕES GMR",
      "lon": "-8.212503206017054",
      "lat": "41.55065157141242"
    },
    {
      "id": "pt.ine.add.PTCONT.627375",
      "street": "R LUIS DE CAMÕES",
      "house": "",
      "postcode": "4800-405",
      "city": "CASTELÕES GMR",
      "lon": "-8.209650002305693",
      "lat": "41.55018530985983"
    },
    {
      "id": "pt.ine.add.PTCONT.681613",
      "street": "R LUIS DE CAMÕES",
      "house": "938",
      "postcode": "4800-405",
      "city": "CASTELÕES GMR",
      "lon": "-8.207877445946012",
      "lat": "41.55135696622153"
    },
    {
      "id": "pt.ine.add.PTCONT.699133",
      "street": "R PACO",
      "house": "126",
      "postcode": "4800-405",
      "city": "CASTELÕES GMR",
      "lon": "-8.212563312062501",
      "lat": "41.55079559022641"
    },
    {
      "id": "pt.ine.add.PTCONT.723339",
      "street": "R LUIS DE CAMÕES",
      "house": "",
      "postcode": "4800-405",
      "city": "CASTELÕES GMR",
      "lon": "-8.208307305967404",
      "lat": "41.549943093908304"
    },
    {
      "id": "pt.ine.add.PTCONT.745226",
      "street": "R LUIS CAMOES",
      "house": "",
      "postcode": "4800-405",
      "city": "CASTELÕES GMR",
      "lon": "-8.20897890027552",
      "lat": "41.55027579231345"
    },
    {
      "id": "pt.ine.add.PTCONT.761449",
      "street": "R VEIGA",
      "house": "",
      "postcode": "4800-405",
      "city": "CASTELÕES GMR",
      "lon": "-8.211546519267356",
      "lat": "41.55246198558219"
    },
    {
      "id": "pt.ine.add.PTCONT.778058",
      "street": "R LUIS DE CAMÕES",
      "house": "1486",
      "postcode": "4800-405",
      "city": "CASTELÕES GMR",
      "lon": "-8.208834576100022",
      "lat": "41.549852710176346"
    },
    {
      "id": "pt.ine.add.PTCONT.794875",
      "street": "R VEIGA",
      "house": "963",
      "postcode": "4800-405",
      "city": "CASTELÕES GMR",
      "lon": "-8.209701080856387",
      "lat": "41.55284138781793"
    },
    {
      "id": "pt.ine.add.PTCONT.810383",
      "street": "R PACO",
      "house": "442",
      "postcode": "4800-405",
      "city": "CASTELÕES GMR",
      "lon": "-8.211737546654795",
      "lat": "41.551840595105794"
    },
    {
      "id": "pt.ine.add.PTCONT.824170",
      "street": "R PACO",
      "house": "442",
      "postcode": "4800-405",
      "city": "CASTELÕES GMR",
      "lon": "-8.21154573560669",
      "lat": "41.55181371479519"
    }
  ]
}