{
  "data": {
    "distrito": "Braga",
    "concelho": "Guimarães",
    "freguesia": "União das freguesias de Arosa e Castelões",
    "OBJECTID": 352,
    "BGRI2021": "03087700140",
    "DT21": "03",
    "DTMN21": "0308",
    "DTMNFR21": "030877",
    "DTMNFRSEC21": "030877001",
    "SECNUM21": "001",
    "SSNUM21": "40",
    "SECSSNUM21": "00140",
    "OBJECTID_1": 27890,
    "DT": "03",
    "CC": "08",
    "fr": "77",
    "SEC": "001",
    "SS": "40"
  },
  "addresses": [
    {
      "id": "pt.ine.add.PTCONT.468930",
      "street": "R D AFONSO HENRIQUES",
      "house": "1634",
      "postcode": "4800-405",
      "city": "CASTELÕES GMR",
      "lon": "-8.200337356483058",
      "lat": "41.56210310899997"
    },
    {
      "id": "pt.ine.add.PTCONT.498761",
      "street": "R D AFONSO HENRIQUES",
      "house": "1460",
      "postcode": "4800-405",
      "city": "CASTELÕES GMR",
      "lon": "-8.201283570099744",
      "lat": "41.56130121782249"
    },
    {
      "id": "pt.ine.add.PTCONT.521700",
      "street": "R D AFONSO HENRIQUES",
      "house": "1518",
      "postcode": "4800-405",
      "city": "CASTELÕES GMR",
      "lon": "-8.200912321647781",
      "lat": "41.56166158748989"
    },
    {
      "id": "pt.ine.add.PTCONT.521701",
      "street": "R D AFONSO HENRIQUES",
      "house": "2386",
      "postcode": "4800-405",
      "city": "CASTELÕES GMR",
      "lon": "-8.198049153504881",
      "lat": "41.56361705436727"
    },
    {
      "id": "pt.ine.add.PTCONT.640278",
      "street": "R D AFONSO HENRIQUES",
      "house": "1256",
      "postcode": "4800-405",
      "city": "CASTELÕES GMR",
      "lon": "-8.201978266072505",
      "lat": "41.56073356730369"
    },
    {
      "id": "pt.ine.add.PTCONT.655814",
      "street": "TV 24 JUNHO",
      "house": "33",
      "postcode": "4800-405",
      "city": "CASTELÕES GMR",
      "lon": "-8.20311549358026",
      "lat": "41.559238257025946"
    },
    {
      "id": "pt.ine.add.PTCONT.684274",
      "street": "R D AFONSO HENRIQUES",
      "house": "",
      "postcode": "4800-405",
      "city": "CASTELÕES GMR",
      "lon": "-8.197653870157968",
      "lat": "41.56395041569511"
    },
    {
      "id": "pt.ine.add.PTCONT.822124",
      "street": "R D AFONSO HENRIQUES",
      "house": "1638",
      "postcode": "4800-405",
      "city": "CASTELÕES GMR",
      "lon": "-8.199594697327052",
      "lat": "41.56268878472105"
    }
  ]
}