{
  "data": {
    "distrito": "Braga",
    "concelho": "Vila Verde",
    "freguesia": "União das freguesias da Ribeira do Neiva",
    "OBJECTID": 649,
    "BGRI2021": "03136000110",
    "DT21": "03",
    "DTMN21": "0313",
    "DTMNFR21": "031360",
    "DTMNFRSEC21": "031360001",
    "SECNUM21": "001",
    "SSNUM21": "10",
    "SECSSNUM21": "00110",
    "OBJECTID_1": 31888,
    "DT": "03",
    "CC": "13",
    "fr": "60",
    "SEC": "001",
    "SS": "10"
  },
  "addresses": [
    {
      "id": "pt.ine.add.PTCONT.460146",
      "street": "",
      "house": "",
      "postcode": "4730-190",
      "city": "GOÃES VVD",
      "lon": "-8.507684494759372",
      "lat": "41.67781268272519"
    },
    {
      "id": "pt.ine.add.PTCONT.466869",
      "street": "",
      "house": "",
      "postcode": "4730-191",
      "city": "GOÃES VVD",
      "lon": "-8.509650599959867",
      "lat": "41.67722102747612"
    },
    {
      "id": "pt.ine.add.PTCONT.472950",
      "street": "",
      "house": "",
      "postcode": "4730-191",
      "city": "GOÃES VVD",
      "lon": "-8.507121696053087",
      "lat": "41.676022808975326"
    },
    {
      "id": "pt.ine.add.PTCONT.609001",
      "street": "",
      "house": "",
      "postcode": "4730-190",
      "city": "GOÃES VVD",
      "lon": "-8.507785423891628",
      "lat": "41.67657886737106"
    },
    {
      "id": "pt.ine.add.PTCONT.662326",
      "street": "R FEIRA",
      "house": "221",
      "postcode": "4730-410",
      "city": "PORTELA DAS CABRAS",
      "lon": "-8.505307625464642",
      "lat": "41.67173400191172"
    },
    {
      "id": "pt.ine.add.PTCONT.670514",
      "street": "",
      "house": "",
      "postcode": "4730-190",
      "city": "GOÃES VVD",
      "lon": "-8.510260700462824",
      "lat": "41.67681386729407"
    },
    {
      "id": "pt.ine.add.PTCONT.745137",
      "street": "R FEIRA",
      "house": "237",
      "postcode": "4730-410",
      "city": "PORTELA DAS CABRAS",
      "lon": "-8.50524877754069",
      "lat": "41.67194127431955"
    },
    {
      "id": "pt.ine.add.PTCONT.769064",
      "street": "R FONTE GRAMILOS",
      "house": "68",
      "postcode": "4730-410",
      "city": "PORTELA DAS CABRAS",
      "lon": "-8.50548925207947",
      "lat": "41.67199451680548"
    },
    {
      "id": "pt.ine.add.PTCONT.789704",
      "street": "",
      "house": "",
      "postcode": "4730-190",
      "city": "GOÃES VVD",
      "lon": "-8.50666561752032",
      "lat": "41.676069309989074"
    },
    {
      "id": "pt.ine.add.PTCONT.816522",
      "street": "",
      "house": "",
      "postcode": "4730-191",
      "city": "GOÃES VVD",
      "lon": "-8.50698928533539",
      "lat": "41.67596921847352"
    }
  ]
}