{
  "data": {
    "distrito": "Braga",
    "concelho": "Vila Verde",
    "freguesia": "União das freguesias da Ribeira do Neiva",
    "OBJECTID": 380,
    "BGRI2021": "03136000135",
    "DT21": "03",
    "DTMN21": "0313",
    "DTMNFR21": "031360",
    "DTMNFRSEC21": "031360001",
    "SECNUM21": "001",
    "SSNUM21": "35",
    "SECSSNUM21": "00135",
    "OBJECTID_1": 31877,
    "DT": "03",
    "CC": "13",
    "fr": "60",
    "SEC": "001",
    "SS": "35"
  },
  "addresses": [
    {
      "id": "pt.ine.add.PTCONT.481859",
      "street": "",
      "house": "",
      "postcode": "4730-190",
      "city": "GOÃES VVD",
      "lon": "-8.499107761928276",
      "lat": "41.68594350453158"
    },
    {
      "id": "pt.ine.add.PTCONT.511487",
      "street": "",
      "house": "",
      "postcode": "4730-190",
      "city": "GOÃES VVD",
      "lon": "-8.499239778328867",
      "lat": "41.685925076965475"
    },
    {
      "id": "pt.ine.add.PTCONT.590943",
      "street": "CALCA PERRA GOAES",
      "house": "39",
      "postcode": "4730-190",
      "city": "GOÃES VVD",
      "lon": "-8.497802491349939",
      "lat": "41.68876576043772"
    },
    {
      "id": "pt.ine.add.PTCONT.623345",
      "street": "",
      "house": "",
      "postcode": "4730-190",
      "city": "GOÃES VVD",
      "lon": "-8.498846329353544",
      "lat": "41.68643953132729"
    },
    {
      "id": "pt.ine.add.PTCONT.624321",
      "street": "",
      "house": "",
      "postcode": "4730-190",
      "city": "GOÃES VVD",
      "lon": "-8.502346911664183",
      "lat": "41.68527588534188"
    },
    {
      "id": "pt.ine.add.PTCONT.643343",
      "street": "",
      "house": "",
      "postcode": "4730-190",
      "city": "GOÃES VVD",
      "lon": "-8.506018632260856",
      "lat": "41.684651789788916"
    },
    {
      "id": "pt.ine.add.PTCONT.673415",
      "street": "",
      "house": "",
      "postcode": "4730-190",
      "city": "GOÃES VVD",
      "lon": "-8.500159197910163",
      "lat": "41.68708360048654"
    },
    {
      "id": "pt.ine.add.PTCONT.724202",
      "street": "",
      "house": "",
      "postcode": "4730-190",
      "city": "GOÃES VVD",
      "lon": "-8.49897737769057",
      "lat": "41.6862500399427"
    },
    {
      "id": "pt.ine.add.PTCONT.771996",
      "street": "SEM DESIGNACAO",
      "house": "24",
      "postcode": "4730-190",
      "city": "GOÃES VVD",
      "lon": "-8.503168897623972",
      "lat": "41.68619160238151"
    },
    {
      "id": "pt.ine.add.PTCONT.774903",
      "street": "",
      "house": "",
      "postcode": "4730-190",
      "city": "GOÃES VVD",
      "lon": "-8.499060178010872",
      "lat": "41.686024687893"
    },
    {
      "id": "pt.ine.add.PTCONT.781092",
      "street": "",
      "house": "",
      "postcode": "4730-190",
      "city": "GOÃES VVD",
      "lon": "-8.499373377593084",
      "lat": "41.68618575386007"
    },
    {
      "id": "pt.ine.add.PTCONT.792619",
      "street": "SIT PEGA",
      "house": "2B",
      "postcode": "4730-050",
      "city": "AZÕES",
      "lon": "-8.49614284177351",
      "lat": "41.690535707211794"
    },
    {
      "id": "pt.ine.add.PTCONT.797884",
      "street": "",
      "house": "",
      "postcode": "4730-190",
      "city": "GOÃES VVD",
      "lon": "-8.499444165674186",
      "lat": "41.68596043981337"
    },
    {
      "id": "pt.ine.add.PTCONT.801886",
      "street": "",
      "house": "",
      "postcode": "4730-190",
      "city": "GOÃES VVD",
      "lon": "-8.49834925661297",
      "lat": "41.68774662477702"
    },
    {
      "id": "pt.ine.add.PTCONT.841217",
      "street": "",
      "house": "",
      "postcode": "4730-190",
      "city": "GOÃES VVD",
      "lon": "-8.506790691776484",
      "lat": "41.685234512085835"
    },
    {
      "id": "pt.ine.add.PTCONT.843864",
      "street": "",
      "house": "",
      "postcode": "4730-190",
      "city": "GOÃES VVD",
      "lon": "-8.498403506132986",
      "lat": "41.68672004930479"
    }
  ]
}