{
  "data": {
    "distrito": "Braga",
    "concelho": "Vila Verde",
    "freguesia": "Uni√£o das freguesias da Ribeira do Neiva",
    "OBJECTID": 382,
    "BGRI2021": "03136000136",
    "DT21": "03",
    "DTMN21": "0313",
    "DTMNFR21": "031360",
    "DTMNFRSEC21": "031360001",
    "SECNUM21": "001",
    "SSNUM21": "36",
    "SECSSNUM21": "00136",
    "OBJECTID_1": 32715,
    "DT": "03",
    "CC": "13",
    "fr": "60",
    "SEC": "001",
    "SS": "36"
  },
  "addresses": [
    {
      "id": "pt.ine.add.PTCONT.467007",
      "street": "R RIBADAL 1",
      "house": "1",
      "postcode": "4730-427",
      "city": "RIO MAU VVD",
      "lon": "-8.510475225350545",
      "lat": "41.690921709361916"
    },
    {
      "id": "pt.ine.add.PTCONT.469978",
      "street": "R RIBADAL 1",
      "house": "9",
      "postcode": "4730-427",
      "city": "RIO MAU VVD",
      "lon": "-8.511447591230958",
      "lat": "41.690819473630555"
    },
    {
      "id": "pt.ine.add.PTCONT.477666",
      "street": "GUILHAMIL",
      "house": "",
      "postcode": "4730-427",
      "city": "RIO MAU VVD",
      "lon": "-8.51301762248762",
      "lat": "41.69022006146458"
    },
    {
      "id": "pt.ine.add.PTCONT.488135",
      "street": "R RIBADAL",
      "house": "3",
      "postcode": "4730-427",
      "city": "RIO MAU VVD",
      "lon": "-8.510799435433755",
      "lat": "41.690902637289824"
    },
    {
      "id": "pt.ine.add.PTCONT.495781",
      "street": "R TALHO 3",
      "house": "10",
      "postcode": "4730-421",
      "city": "RIO MAU VVD",
      "lon": "-8.509649295298482",
      "lat": "41.6893578042085"
    },
    {
      "id": "pt.ine.add.PTCONT.558468",
      "street": "R RIBADAL 1",
      "house": "15",
      "postcode": "4730-427",
      "city": "RIO MAU VVD",
      "lon": "-8.51214326339787",
      "lat": "41.69064611432908"
    },
    {
      "id": "pt.ine.add.PTCONT.591112",
      "street": "AV GALHAMIL 1",
      "house": "2",
      "postcode": "4730-425",
      "city": "RIO MAU VVD",
      "lon": "-8.512341274289867",
      "lat": "41.68959204817"
    },
    {
      "id": "pt.ine.add.PTCONT.597145",
      "street": "R TALHO 3",
      "house": "13",
      "postcode": "4730-421",
      "city": "RIO MAU VVD",
      "lon": "-8.509627949944282",
      "lat": "41.68981705419883"
    },
    {
      "id": "pt.ine.add.PTCONT.605930",
      "street": "AV ANGULO QUARENTA 2",
      "house": "16",
      "postcode": "4730-421",
      "city": "RIO MAU VVD",
      "lon": "-8.512195392830215",
      "lat": "41.6892954129468"
    },
    {
      "id": "pt.ine.add.PTCONT.617976",
      "street": "R TALHO 3",
      "house": "1",
      "postcode": "4730-421",
      "city": "RIO MAU VVD",
      "lon": "-8.510606574838679",
      "lat": "41.688733420193024"
    },
    {
      "id": "pt.ine.add.PTCONT.624617",
      "street": "R FEIRA NOVA 4",
      "house": "7",
      "postcode": "4730-427",
      "city": "RIO MAU VVD",
      "lon": "-8.512191785637214",
      "lat": "41.690726986046414"
    },
    {
      "id": "pt.ine.add.PTCONT.655789",
      "street": "R FEIRA NOVA 5",
      "house": "7",
      "postcode": "4730-427",
      "city": "RIO MAU VVD",
      "lon": "-8.512467154190603",
      "lat": "41.69057301743424"
    },
    {
      "id": "pt.ine.add.PTCONT.719383",
      "street": "AV ANGULO QUARENTA 2",
      "house": "12",
      "postcode": "4730-421",
      "city": "RIO MAU VVD",
      "lon": "-8.512180738753308",
      "lat": "41.688845284730085"
    },
    {
      "id": "pt.ine.add.PTCONT.730058",
      "street": "R TALHO",
      "house": "",
      "postcode": "4730-421",
      "city": "RIO MAU VVD",
      "lon": "-8.510210991429059",
      "lat": "41.68886977184427"
    },
    {
      "id": "pt.ine.add.PTCONT.818259",
      "street": "R FEIRA NOVA 3",
      "house": "6",
      "postcode": "4730-427",
      "city": "RIO MAU VVD",
      "lon": "-8.513522850095208",
      "lat": "41.69034443965033"
    },
    {
      "id": "pt.ine.add.PTCONT.830803",
      "street": "AV ANGULO QUARENTA",
      "house": "",
      "postcode": "4730-421",
      "city": "RIO MAU VVD",
      "lon": "-8.512066930711471",
      "lat": "41.68787327857911"
    },
    {
      "id": "pt.ine.add.PTCONT.841078",
      "street": "R FEIRA NOVA 3",
      "house": "2",
      "postcode": "4730-427",
      "city": "RIO MAU VVD",
      "lon": "-8.51389435925319",
      "lat": "41.690199152870704"
    }
  ]
}