{
  "data": {
    "distrito": "Leiria",
    "concelho": "Marinha Grande",
    "freguesia": "Vieira de Leiria",
    "OBJECTID": 567,
    "BGRI2021": "10100200312",
    "DT21": "10",
    "DTMN21": "1010",
    "DTMNFR21": "101002",
    "DTMNFRSEC21": "101002003",
    "SECNUM21": "003",
    "SSNUM21": "12",
    "SECSSNUM21": "00312",
    "OBJECTID_1": 92844,
    "DT": "10",
    "CC": "10",
    "fr": "02",
    "SEC": "003",
    "SS": "12"
  },
  "addresses": [
    {
      "id": "pt.ine.add.PTCONT.1987440",
      "street": "R ADELINO GOUVEIA PEDROSA",
      "house": "16",
      "postcode": "2430-813",
      "city": "VIEIRA DE LEIRIA",
      "lon": "-8.93431436789363",
      "lat": "39.86703096805399"
    },
    {
      "id": "pt.ine.add.PTCONT.2004838",
      "street": "R ADELINO GOUVEIA PEDROSA",
      "house": "2",
      "postcode": "2430-813",
      "city": "VIEIRA DE LEIRIA",
      "lon": "-8.933705443190496",
      "lat": "39.8679357973927"
    },
    {
      "id": "pt.ine.add.PTCONT.2033644",
      "street": "R ADELINO GOUVEIA PEDROSA",
      "house": "4",
      "postcode": "2430-813",
      "city": "VIEIRA DE LEIRIA",
      "lon": "-8.933622588733696",
      "lat": "39.867846306801056"
    },
    {
      "id": "pt.ine.add.PTCONT.2128879",
      "street": "R ACTOR ALVARO",
      "house": "7",
      "postcode": "2430-800",
      "city": "VIEIRA DE LEIRIA",
      "lon": "-8.93445151317579",
      "lat": "39.86776853284212"
    },
    {
      "id": "pt.ine.add.PTCONT.2134279",
      "street": "R ACTOR ALVARO",
      "house": "1",
      "postcode": "2430-800",
      "city": "VIEIRA DE LEIRIA",
      "lon": "-8.934347694111548",
      "lat": "39.86788633126889"
    },
    {
      "id": "pt.ine.add.PTCONT.2196909",
      "street": "R VIDREIROS",
      "house": "2",
      "postcode": "2430-813",
      "city": "VIEIRA DE LEIRIA",
      "lon": "-8.93398603146631",
      "lat": "39.8679428665479"
    },
    {
      "id": "pt.ine.add.PTCONT.2226570",
      "street": "R ACTOR ALVARO",
      "house": "3",
      "postcode": "2430-800",
      "city": "VIEIRA DE LEIRIA",
      "lon": "-8.934288107707111",
      "lat": "39.8677876741702"
    },
    {
      "id": "pt.ine.add.PTCONT.2228521",
      "street": "R ADELINO GOUVEIA PEDROSA",
      "house": "10",
      "postcode": "2430-813",
      "city": "VIEIRA DE LEIRIA",
      "lon": "-8.93372421055719",
      "lat": "39.867539393007746"
    },
    {
      "id": "pt.ine.add.PTCONT.2230946",
      "street": "R SERRARIA",
      "house": "",
      "postcode": "2430-812",
      "city": "VIEIRA DE LEIRIA",
      "lon": "-8.934480600730032",
      "lat": "39.8672549758274"
    },
    {
      "id": "pt.ine.add.PTCONT.2243138",
      "street": "LG COMBATENTES G GERRA",
      "house": "20",
      "postcode": "2430-800",
      "city": "VIEIRA DE LEIRIA",
      "lon": "-8.934196184641086",
      "lat": "39.86792340278171"
    },
    {
      "id": "pt.ine.add.PTCONT.2244847",
      "street": "LG COMBATENTES G GERRA",
      "house": "20",
      "postcode": "2430-800",
      "city": "VIEIRA DE LEIRIA",
      "lon": "-8.934196184641086",
      "lat": "39.86792340278171"
    },
    {
      "id": "pt.ine.add.PTCONT.2257562",
      "street": "R ADELINO GOUVEIA PEDROSA",
      "house": "8",
      "postcode": "2430-813",
      "city": "VIEIRA DE LEIRIA",
      "lon": "-8.933643450083421",
      "lat": "39.86763001290464"
    },
    {
      "id": "pt.ine.add.PTCONT.2265240",
      "street": "R ADELINO GOUVEIA PEDROSA",
      "house": "14",
      "postcode": "2430-813",
      "city": "VIEIRA DE LEIRIA",
      "lon": "-8.93402450531481",
      "lat": "39.867231107408315"
    }
  ]
}