{
  "data": {
    "distrito": "Aveiro",
    "concelho": "Oliveira de Azeméis",
    "freguesia": "Vila de Cucujães",
    "OBJECTID": 1037,
    "BGRI2021": "01131900104",
    "DT21": "01",
    "DTMN21": "0113",
    "DTMNFR21": "011319",
    "DTMNFRSEC21": "011319001",
    "SECNUM21": "001",
    "SSNUM21": "04",
    "SECSSNUM21": "00104",
    "OBJECTID_1": 8687,
    "DT": "01",
    "CC": "13",
    "fr": "19",
    "SEC": "001",
    "SS": "04"
  },
  "addresses": [
    {
      "id": "pt.ine.add.PTCONT.299257",
      "street": "R MUNICIPIO",
      "house": "",
      "postcode": "3720-386",
      "city": "VILA DE CUCUJÃES",
      "lon": "-8.50272184473886",
      "lat": "40.86904609978495"
    },
    {
      "id": "pt.ine.add.PTCONT.324888",
      "street": "R S MARTINHO",
      "house": "",
      "postcode": "3720-869",
      "city": "VILA DE CUCUJÃES",
      "lon": "-8.500658862726988",
      "lat": "40.86923278814517"
    },
    {
      "id": "pt.ine.add.PTCONT.339094",
      "street": "R MUNICIPIO",
      "house": "",
      "postcode": "3720-386",
      "city": "VILA DE CUCUJÃES",
      "lon": "-8.505041242171256",
      "lat": "40.86804811473171"
    },
    {
      "id": "pt.ine.add.PTCONT.17767",
      "street": "R S MARTINHO",
      "house": "19",
      "postcode": "3720-869",
      "city": "VILA DE CUCUJÃES",
      "lon": "-8.500788995793096",
      "lat": "40.869169339709835"
    },
    {
      "id": "pt.ine.add.PTCONT.22087",
      "street": "R MUNICIPIO",
      "house": "549",
      "postcode": "3720-386",
      "city": "VILA DE CUCUJÃES",
      "lon": "-8.504911417582306",
      "lat": "40.86816559586441"
    },
    {
      "id": "pt.ine.add.PTCONT.22088",
      "street": "R JOSE MANTA",
      "house": "",
      "postcode": "3720-771",
      "city": "VILA DE CUCUJÃES",
      "lon": "-8.504861553232876",
      "lat": "40.867733525458426"
    },
    {
      "id": "pt.ine.add.PTCONT.36319",
      "street": "R S MARTINHO",
      "house": "98",
      "postcode": "3720-869",
      "city": "VILA DE CUCUJÃES",
      "lon": "-8.500587890000894",
      "lat": "40.86926903353092"
    },
    {
      "id": "pt.ine.add.PTCONT.48560",
      "street": "R JOSE MANTA",
      "house": "",
      "postcode": "3720-771",
      "city": "VILA DE CUCUJÃES",
      "lon": "-8.504553601809409",
      "lat": "40.867815560878725"
    },
    {
      "id": "pt.ine.add.PTCONT.74149",
      "street": "R MUNICIPIO",
      "house": "595",
      "postcode": "3720-386",
      "city": "VILA DE CUCUJÃES",
      "lon": "-8.505194789776354",
      "lat": "40.86793055692821"
    },
    {
      "id": "pt.ine.add.PTCONT.83558",
      "street": "R MUNICIPIO",
      "house": "443",
      "postcode": "3720-386",
      "city": "VILA DE CUCUJÃES",
      "lon": "-8.504119543058373",
      "lat": "40.86868142004041"
    },
    {
      "id": "pt.ine.add.PTCONT.90428",
      "street": "R MUNICIPIO",
      "house": "",
      "postcode": "3720-386",
      "city": "VILA DE CUCUJÃES",
      "lon": "-8.501785850207936",
      "lat": "40.8692472011492"
    },
    {
      "id": "pt.ine.add.PTCONT.107247",
      "street": "R MUNICIPIO",
      "house": "107",
      "postcode": "3720-386",
      "city": "VILA DE CUCUJÃES",
      "lon": "-8.500411851088396",
      "lat": "40.86961177714199"
    },
    {
      "id": "pt.ine.add.PTCONT.107248",
      "street": "R MUNICIPIO",
      "house": "107",
      "postcode": "3720-386",
      "city": "VILA DE CUCUJÃES",
      "lon": "-8.500411851088396",
      "lat": "40.86961177714199"
    },
    {
      "id": "pt.ine.add.PTCONT.107249",
      "street": "R MUNICIPIO",
      "house": "107",
      "postcode": "3720-386",
      "city": "VILA DE CUCUJÃES",
      "lon": "-8.500411851088396",
      "lat": "40.86961177714199"
    },
    {
      "id": "pt.ine.add.PTCONT.107250",
      "street": "R MUNICIPIO",
      "house": "107",
      "postcode": "3720-386",
      "city": "VILA DE CUCUJÃES",
      "lon": "-8.500411851088396",
      "lat": "40.86961177714199"
    },
    {
      "id": "pt.ine.add.PTCONT.107251",
      "street": "R MUNICIPIO",
      "house": "107",
      "postcode": "3720-386",
      "city": "VILA DE CUCUJÃES",
      "lon": "-8.500411851088396",
      "lat": "40.86961177714199"
    },
    {
      "id": "pt.ine.add.PTCONT.107252",
      "street": "R MUNICIPIO",
      "house": "107",
      "postcode": "3720-386",
      "city": "VILA DE CUCUJÃES",
      "lon": "-8.500411851088396",
      "lat": "40.86961177714199"
    },
    {
      "id": "pt.ine.add.PTCONT.107253",
      "street": "R MUNICIPIO",
      "house": "107",
      "postcode": "3720-386",
      "city": "VILA DE CUCUJÃES",
      "lon": "-8.500411851088396",
      "lat": "40.86961177714199"
    },
    {
      "id": "pt.ine.add.PTCONT.107254",
      "street": "R MUNICIPIO",
      "house": "107",
      "postcode": "3720-386",
      "city": "VILA DE CUCUJÃES",
      "lon": "-8.500411851088396",
      "lat": "40.86961177714199"
    },
    {
      "id": "pt.ine.add.PTCONT.112911",
      "street": "R MUNICIPIO",
      "house": "201",
      "postcode": "3720-386",
      "city": "VILA DE CUCUJÃES",
      "lon": "-8.50135971699133",
      "lat": "40.869410649030755"
    },
    {
      "id": "pt.ine.add.PTCONT.138612",
      "street": "R S MARTINHO",
      "house": "",
      "postcode": "3720-869",
      "city": "VILA DE CUCUJÃES",
      "lon": "-8.502515938138718",
      "lat": "40.86828135018206"
    },
    {
      "id": "pt.ine.add.PTCONT.157359",
      "street": "REBORDOES",
      "house": "",
      "postcode": "3720-350",
      "city": "VILA DE CUCUJÃES",
      "lon": "-8.505041292554594",
      "lat": "40.868057119384154"
    },
    {
      "id": "pt.ine.add.PTCONT.165947",
      "street": "R MUNICIPIO",
      "house": "641",
      "postcode": "3720-386",
      "city": "VILA DE CUCUJÃES",
      "lon": "-8.505524749129046",
      "lat": "40.86754228502122"
    },
    {
      "id": "pt.ine.add.PTCONT.175654",
      "street": "R MUNICIPIO",
      "house": "343",
      "postcode": "3720-386",
      "city": "VILA DE CUCUJÃES",
      "lon": "-8.502970644839198",
      "lat": "40.868991273389916"
    },
    {
      "id": "pt.ine.add.PTCONT.185095",
      "street": "R MANUEL JESUS RESENDE",
      "house": "93",
      "postcode": "3720-771",
      "city": "VILA DE CUCUJÃES",
      "lon": "-8.50383224664401",
      "lat": "40.868214093410586"
    },
    {
      "id": "pt.ine.add.PTCONT.192091",
      "street": "R MUNICIPIO",
      "house": "85",
      "postcode": "3720-386",
      "city": "VILA DE CUCUJÃES",
      "lon": "-8.500103437944949",
      "lat": "40.869612758821795"
    },
    {
      "id": "pt.ine.add.PTCONT.192092",
      "street": "R MUNICIPIO",
      "house": "85",
      "postcode": "3720-386",
      "city": "VILA DE CUCUJÃES",
      "lon": "-8.500103437944949",
      "lat": "40.869612758821795"
    },
    {
      "id": "pt.ine.add.PTCONT.192093",
      "street": "R MUNICIPIO",
      "house": "85",
      "postcode": "3720-386",
      "city": "VILA DE CUCUJÃES",
      "lon": "-8.500103437944949",
      "lat": "40.869612758821795"
    },
    {
      "id": "pt.ine.add.PTCONT.192094",
      "street": "R MUNICIPIO",
      "house": "85",
      "postcode": "3720-386",
      "city": "VILA DE CUCUJÃES",
      "lon": "-8.500103437944949",
      "lat": "40.869612758821795"
    },
    {
      "id": "pt.ine.add.PTCONT.210061",
      "street": "R JOSE MANTA",
      "house": "75",
      "postcode": "3720-771",
      "city": "VILA DE CUCUJÃES",
      "lon": "-8.503867078645511",
      "lat": "40.868078909232295"
    },
    {
      "id": "pt.ine.add.PTCONT.221145",
      "street": "R MUNICIPIO",
      "house": "505",
      "postcode": "3720-386",
      "city": "VILA DE CUCUJÃES",
      "lon": "-8.504534004169686",
      "lat": "40.868554018796985"
    },
    {
      "id": "pt.ine.add.PTCONT.226454",
      "street": "R MUNICIPIO",
      "house": "267",
      "postcode": "3720-386",
      "city": "VILA DE CUCUJÃES",
      "lon": "-8.502022789880147",
      "lat": "40.869192414707214"
    },
    {
      "id": "pt.ine.add.PTCONT.231814",
      "street": "R MUNICIPIO",
      "house": "165",
      "postcode": "3720-386",
      "city": "VILA DE CUCUJÃES",
      "lon": "-8.500957206077246",
      "lat": "40.86955601037866"
    },
    {
      "id": "pt.ine.add.PTCONT.231815",
      "street": "R S MARTINHO",
      "house": "",
      "postcode": "3720-869",
      "city": "VILA DE CUCUJÃES",
      "lon": "-8.50071797340633",
      "lat": "40.86919658052042"
    },
    {
      "id": "pt.ine.add.PTCONT.238131",
      "street": "R DO MUNICIPIO",
      "house": "",
      "postcode": "3720-998",
      "city": "VILA DE CUCUJÃES",
      "lon": "-8.50235397453547",
      "lat": "40.86902026354466"
    },
    {
      "id": "pt.ine.add.PTCONT.278442",
      "street": "R JOSE MANTA",
      "house": "95",
      "postcode": "3720-771",
      "city": "VILA DE CUCUJÃES",
      "lon": "-8.50395096501173",
      "lat": "40.86823172142167"
    },
    {
      "id": "pt.ine.add.PTCONT.288434",
      "street": "R S MARTINHO",
      "house": "90",
      "postcode": "3720-869",
      "city": "VILA DE CUCUJÃES",
      "lon": "-8.50052882896034",
      "lat": "40.869314245744214"
    }
  ]
}