{
  "data": {
    "distrito": "Aveiro",
    "concelho": "Oliveira de Azeméis",
    "freguesia": "Vila de Cucujães",
    "OBJECTID": 393,
    "BGRI2021": "01131900110",
    "DT21": "01",
    "DTMN21": "0113",
    "DTMNFR21": "011319",
    "DTMNFRSEC21": "011319001",
    "SECNUM21": "001",
    "SSNUM21": "10",
    "SECSSNUM21": "00110",
    "OBJECTID_1": 9499,
    "DT": "01",
    "CC": "13",
    "fr": "19",
    "SEC": "001",
    "SS": "10"
  },
  "addresses": [
    {
      "id": "pt.ine.add.PTCONT.311540",
      "street": "R CAMILO CASTELO BRANCO",
      "house": "430",
      "postcode": "3720-803",
      "city": "VILA DE CUCUJÃES",
      "lon": "-8.508137491518376",
      "lat": "40.870199244539826"
    },
    {
      "id": "pt.ine.add.PTCONT.349936",
      "street": "R CAMILO CASTELO BRANCO",
      "house": "392",
      "postcode": "3720-803",
      "city": "VILA DE CUCUJÃES",
      "lon": "-8.507769359171427",
      "lat": "40.87012840238183"
    },
    {
      "id": "pt.ine.add.PTCONT.14864",
      "street": "R JOÃO ALVES",
      "house": "339",
      "postcode": "3720-803",
      "city": "VILA DE CUCUJÃES",
      "lon": "-8.507734889338064",
      "lat": "40.87032662018374"
    },
    {
      "id": "pt.ine.add.PTCONT.21791",
      "street": "R CAMILO CASTELO BRANCO",
      "house": "412",
      "postcode": "3720-803",
      "city": "VILA DE CUCUJÃES",
      "lon": "-8.507935632049717",
      "lat": "40.87016388142999"
    },
    {
      "id": "pt.ine.add.PTCONT.52070",
      "street": "R CAMILO CASTELO BRANCO",
      "house": "350",
      "postcode": "3720-803",
      "city": "VILA DE CUCUJÃES",
      "lon": "-8.50705677035038",
      "lat": "40.86997763297053"
    },
    {
      "id": "pt.ine.add.PTCONT.66371",
      "street": "R JOÃO ALVES",
      "house": "299",
      "postcode": "3720-803",
      "city": "VILA DE CUCUJÃES",
      "lon": "-8.507154758224555",
      "lat": "40.87052660873717"
    },
    {
      "id": "pt.ine.add.PTCONT.129634",
      "street": "R CAMILO CASTELO BRANCO",
      "house": "",
      "postcode": "3720-803",
      "city": "VILA DE CUCUJÃES",
      "lon": "-8.507567297192605",
      "lat": "40.87005702003878"
    },
    {
      "id": "pt.ine.add.PTCONT.194633",
      "street": "REBORDÕES",
      "house": "",
      "postcode": "3720-350",
      "city": "VILA DE CUCUJÃES",
      "lon": "-8.507578956383481",
      "lat": "40.870020962942306"
    },
    {
      "id": "pt.ine.add.PTCONT.218433",
      "street": "R JOÃO ALVES",
      "house": "",
      "postcode": "3720-803",
      "city": "VILA DE CUCUJÃES",
      "lon": "-8.507865220802497",
      "lat": "40.870299182381515"
    },
    {
      "id": "pt.ine.add.PTCONT.278263",
      "street": "R CAMILO CASTELO BRANCO",
      "house": "392",
      "postcode": "3720-803",
      "city": "VILA DE CUCUJÃES",
      "lon": "-8.507769359171427",
      "lat": "40.87012840238183"
    }
  ]
}