{
  "data": {
    "distrito": "Faro",
    "concelho": "Loul√©",
    "freguesia": "Quarteira",
    "OBJECTID": 1669,
    "BGRI2021": "08080504308",
    "DT21": "08",
    "DTMN21": "0808",
    "DTMNFR21": "080805",
    "DTMNFRSEC21": "080805043",
    "SECNUM21": "043",
    "SSNUM21": "08",
    "SECSSNUM21": "04308",
    "OBJECTID_1": 69298,
    "DT": "08",
    "CC": "08",
    "fr": "05",
    "SEC": "043",
    "SS": "08"
  },
  "addresses": [
    {
      "id": "pt.ine.add.PTCONT.1467243",
      "street": "",
      "house": "",
      "postcode": "8125-018",
      "city": "QUARTEIRA",
      "lon": "-8.068255689755391",
      "lat": "37.10097744222514"
    },
    {
      "id": "pt.ine.add.PTCONT.1476215",
      "street": "",
      "house": "",
      "postcode": "8125-018",
      "city": "QUARTEIRA",
      "lon": "-8.068019653459855",
      "lat": "37.10074303551146"
    },
    {
      "id": "pt.ine.add.PTCONT.1479512",
      "street": "",
      "house": "",
      "postcode": "8125-018",
      "city": "QUARTEIRA",
      "lon": "-8.071025306307934",
      "lat": "37.0981946272813"
    },
    {
      "id": "pt.ine.add.PTCONT.1499084",
      "street": "",
      "house": "",
      "postcode": "8125-018",
      "city": "QUARTEIRA",
      "lon": "-8.068053848329614",
      "lat": "37.10022043544999"
    },
    {
      "id": "pt.ine.add.PTCONT.1501881",
      "street": "EN 125 CASCALHEIRA",
      "house": "CP 707 A",
      "postcode": "8125-018",
      "city": "QUARTEIRA",
      "lon": "-8.070381240865254",
      "lat": "37.10168141776877"
    },
    {
      "id": "pt.ine.add.PTCONT.1516614",
      "street": "EN 125 CASCALHEIRA",
      "house": "",
      "postcode": "8125-018",
      "city": "QUARTEIRA",
      "lon": "-8.066219197734432",
      "lat": "37.10138179104468"
    },
    {
      "id": "pt.ine.add.PTCONT.1516615",
      "street": "EN 125 GARDEN CENTER TROPICAL",
      "house": "",
      "postcode": "8125-018",
      "city": "QUARTEIRA",
      "lon": "-8.065398157966408",
      "lat": "37.10119210104138"
    },
    {
      "id": "pt.ine.add.PTCONT.1522417",
      "street": "EN 125",
      "house": "",
      "postcode": "8125-018",
      "city": "QUARTEIRA",
      "lon": "-8.067411590350485",
      "lat": "37.101436521661846"
    },
    {
      "id": "pt.ine.add.PTCONT.1545703",
      "street": "",
      "house": "",
      "postcode": "8125-018",
      "city": "QUARTEIRA",
      "lon": "-8.069157252440695",
      "lat": "37.09905865911946"
    },
    {
      "id": "pt.ine.add.PTCONT.1551721",
      "street": "EN 125 CASCALHEIRA",
      "house": "",
      "postcode": "8125-018",
      "city": "QUARTEIRA",
      "lon": "-8.066838198793207",
      "lat": "37.10105775453882"
    },
    {
      "id": "pt.ine.add.PTCONT.1551722",
      "street": "EN 125 CASCALHEIRA",
      "house": "",
      "postcode": "8125-018",
      "city": "QUARTEIRA",
      "lon": "-8.065859423150062",
      "lat": "37.101147310186526"
    },
    {
      "id": "pt.ine.add.PTCONT.1551723",
      "street": "EN 125 CASCALHEIRA",
      "house": "",
      "postcode": "8125-018",
      "city": "QUARTEIRA",
      "lon": "-8.065859423150062",
      "lat": "37.101147310186526"
    },
    {
      "id": "pt.ine.add.PTCONT.1551724",
      "street": "EN 125 CASCALHEIRA",
      "house": "",
      "postcode": "8125-018",
      "city": "QUARTEIRA",
      "lon": "-8.065859423150062",
      "lat": "37.101147310186526"
    },
    {
      "id": "pt.ine.add.PTCONT.1551725",
      "street": "EN 125 CASCALHEIRA",
      "house": "",
      "postcode": "8125-018",
      "city": "QUARTEIRA",
      "lon": "-8.065859423150062",
      "lat": "37.101147310186526"
    },
    {
      "id": "pt.ine.add.PTCONT.1569608",
      "street": "SIT CASCALHEIRA",
      "house": "",
      "postcode": "8125-013",
      "city": "QUARTEIRA",
      "lon": "-8.072821905197888",
      "lat": "37.10227738776551"
    },
    {
      "id": "pt.ine.add.PTCONT.1600823",
      "street": "",
      "house": "",
      "postcode": "8125-018",
      "city": "QUARTEIRA",
      "lon": "-8.068818386578776",
      "lat": "37.10070742856405"
    },
    {
      "id": "pt.ine.add.PTCONT.1600824",
      "street": "",
      "house": "",
      "postcode": "8125-018",
      "city": "QUARTEIRA",
      "lon": "-8.068818386578776",
      "lat": "37.10070742856405"
    },
    {
      "id": "pt.ine.add.PTCONT.1607610",
      "street": "EN 125 CASCALHEIRA",
      "house": "CP 763",
      "postcode": "8125-018",
      "city": "QUARTEIRA",
      "lon": "-8.06479085225369",
      "lat": "37.101011539347084"
    },
    {
      "id": "pt.ine.add.PTCONT.1607611",
      "street": "EN 125 CASCALHEIRA",
      "house": "763",
      "postcode": "8125-018",
      "city": "QUARTEIRA",
      "lon": "-8.06479085225369",
      "lat": "37.101011539347084"
    },
    {
      "id": "pt.ine.add.PTCONT.1612301",
      "street": "EN 125 CASCALHEIRA",
      "house": "",
      "postcode": "8125-018",
      "city": "QUARTEIRA",
      "lon": "-8.064430961820332",
      "lat": "37.10091221410638"
    },
    {
      "id": "pt.ine.add.PTCONT.1642831",
      "street": "EN 125 RESIDENCIA ESPADINHA",
      "house": "",
      "postcode": "8125-018",
      "city": "QUARTEIRA",
      "lon": "-8.065173443550345",
      "lat": "37.10088560978975"
    },
    {
      "id": "pt.ine.add.PTCONT.1642832",
      "street": "EN 125 RESIDENCIA ESPADINHA",
      "house": "",
      "postcode": "8125-018",
      "city": "QUARTEIRA",
      "lon": "-8.065173443550345",
      "lat": "37.10088560978975"
    },
    {
      "id": "pt.ine.add.PTCONT.1642833",
      "street": "EN 125 RESIDENCIA ESPADINHA",
      "house": "",
      "postcode": "8125-018",
      "city": "QUARTEIRA",
      "lon": "-8.065173443550345",
      "lat": "37.10088560978975"
    },
    {
      "id": "pt.ine.add.PTCONT.1642834",
      "street": "EN 125 RESIDENCIA ESPADINHA",
      "house": "",
      "postcode": "8125-018",
      "city": "QUARTEIRA",
      "lon": "-8.065173443550345",
      "lat": "37.10088560978975"
    },
    {
      "id": "pt.ine.add.PTCONT.1673731",
      "street": "SIT CASCALHEIRA",
      "house": "CP 687 A",
      "postcode": "8125-013",
      "city": "QUARTEIRA",
      "lon": "-8.071550916254871",
      "lat": "37.10201542543508"
    },
    {
      "id": "pt.ine.add.PTCONT.1684173",
      "street": "CASA MONIKA",
      "house": "",
      "postcode": "8125-018",
      "city": "QUARTEIRA",
      "lon": "-8.069573468564412",
      "lat": "37.09905888285046"
    },
    {
      "id": "pt.ine.add.PTCONT.1690338",
      "street": "EN 125 CASCALHEIRA",
      "house": "",
      "postcode": "8125-018",
      "city": "QUARTEIRA",
      "lon": "-8.064284842442081",
      "lat": "37.100776969360226"
    },
    {
      "id": "pt.ine.add.PTCONT.1716447",
      "street": "",
      "house": "",
      "postcode": "8125-018",
      "city": "QUARTEIRA",
      "lon": "-8.064701084128579",
      "lat": "37.10075918887408"
    },
    {
      "id": "pt.ine.add.PTCONT.1722916",
      "street": "",
      "house": "",
      "postcode": "8125-018",
      "city": "QUARTEIRA",
      "lon": "-8.07160798695989",
      "lat": "37.10099724956159"
    },
    {
      "id": "pt.ine.add.PTCONT.1724796",
      "street": "SIT CASCALHEIRA",
      "house": "CF 687 A",
      "postcode": "8125-013",
      "city": "QUARTEIRA",
      "lon": "-8.07173127935111",
      "lat": "37.1015559748804"
    },
    {
      "id": "pt.ine.add.PTCONT.1739280",
      "street": "EN 125 CASCALHEIRA",
      "house": "CP 707 A",
      "postcode": "8125-018",
      "city": "QUARTEIRA",
      "lon": "-8.070594869781473",
      "lat": "37.10181669059633"
    },
    {
      "id": "pt.ine.add.PTCONT.1740858",
      "street": "EN 125 CASCALHEIRA",
      "house": "",
      "postcode": "8125-018",
      "city": "QUARTEIRA",
      "lon": "-8.070786207111837",
      "lat": "37.10169965263271"
    },
    {
      "id": "pt.ine.add.PTCONT.1760646",
      "street": "EN 125 CASCALHEIRA",
      "house": "",
      "postcode": "8125-018",
      "city": "QUARTEIRA",
      "lon": "-8.06830011922774",
      "lat": "37.101644255959336"
    },
    {
      "id": "pt.ine.add.PTCONT.1793714",
      "street": "EN 125 CASCALHEIRA",
      "house": "",
      "postcode": "8125-018",
      "city": "QUARTEIRA",
      "lon": "-8.066230605577791",
      "lat": "37.101201584117334"
    },
    {
      "id": "pt.ine.add.PTCONT.1822562",
      "street": "CASA JASMIM",
      "house": "",
      "postcode": "8125-018",
      "city": "QUARTEIRA",
      "lon": "-8.065083706529458",
      "lat": "37.1005972169421"
    },
    {
      "id": "pt.ine.add.PTCONT.1846225",
      "street": "",
      "house": "",
      "postcode": "8125-018",
      "city": "QUARTEIRA",
      "lon": "-8.066367052805564",
      "lat": "37.0995436978059"
    }
  ]
}